"Station Name","TORONTO LESTER B. PEARSON INT'L A"
"Province","ONTARIO"
"Latitude","43.68"
"Longitude","-79.63"
"Elevation","173.40"
"Climate Identifier","6158733"
"WMO Identifier","71624"
"TC Identifier","YYZ"
"All times are specified in Local Standard Time (LST). Add 1 hour to adjust for Daylight Saving Time where and when it is observed."

"Legend"
"E","Estimated"
"M","Missing"
"NA","Not Available"

"Date/Time","Year","Month","Day","Time","Temp (°C)","Temp Flag","Dew Point Temp (°C)","Dew Point Temp Flag","Rel Hum (%)","Rel Hum Flag","Wind Dir (10s deg)","Wind Dir Flag","Wind Spd (km/h)","Wind Spd Flag","Visibility (km)","Visibility Flag","Stn Press (kPa)","Stn Press Flag","Hmdx","Hmdx Flag","Wind Chill","Wind Chill Flag","Weather"
"1973-01-01 00:00","1973","01","01","00:00","1.1","","-1.7","","81","","22","","21","","22.5","","99.03","","","","","","Mainly Clear"
"1973-01-01 01:00","1973","01","01","01:00","1.7","","-1.7","","78","","24","","26","","24.1","","99.06","","","","","","Cloudy"
"1973-01-01 02:00","1973","01","01","02:00","1.7","","-2.8","","73","","26","","37","","25.0","","99.11","","","","","","Cloudy"
"1973-01-01 03:00","1973","01","01","03:00","1.7","","-2.2","","77","","25","","35","","25.0","","99.18","","","","","","Mostly Cloudy"
"1973-01-01 04:00","1973","01","01","04:00","0.6","","-2.8","","78","","26","","26","","25.0","","99.21","","","","","","Cloudy"
"1973-01-01 05:00","1973","01","01","05:00","0.6","","-2.8","","77","","25","","26","","25.0","","99.17","","","","","","Mostly Cloudy"
"1973-01-01 06:00","1973","01","01","06:00","0.6","","-3.3","","75","","24","","24","","25.0","","99.18","","","","","","Mostly Cloudy"
"1973-01-01 07:00","1973","01","01","07:00","0.6","","-3.3","","76","","24","","42","","25.0","","99.20","","","","","","Cloudy"
"1973-01-01 08:00","1973","01","01","08:00","0.0","","-3.3","","77","","25","","32","","32.2","","99.24","","","","-7","","Cloudy"
"1973-01-01 09:00","1973","01","01","09:00","0.0","","-3.9","","76","","25","","32","","40.2","","99.29","","","","-7","","Cloudy"
"1973-01-01 10:00","1973","01","01","10:00","0.0","","-3.9","","74","","25","","34","","32.2","","99.34","","","","-7","","Snow Showers"
"1973-01-01 11:00","1973","01","01","11:00","-0.6","","-2.2","","87","","25","","42","","19.3","","99.35","","","","-8","","Snow Pellets"
"1973-01-01 12:00","1973","01","01","12:00","-1.1","","-3.9","","81","","26","","37","","24.1","","99.35","","","","-9","","Cloudy"
"1973-01-01 13:00","1973","01","01","13:00","-1.1","","-5.6","","71","","25","","39","","32.2","","99.31","","","","-9","","Mostly Cloudy"
"1973-01-01 14:00","1973","01","01","14:00","-1.7","","-6.1","","72","","26","","39","","32.2","","99.34","","","","-10","","Cloudy"
"1973-01-01 15:00","1973","01","01","15:00","-1.7","","-5.0","","78","","25","","34","","19.3","","99.37","","","","-9","","Snow Showers"
"1973-01-01 16:00","1973","01","01","16:00","-2.2","","-3.9","","87","","26","","21","","8.0","","99.41","","","","-8","","Snow Showers"
"1973-01-01 17:00","1973","01","01","17:00","-2.8","","-5.0","","86","","29","","29","","4.0","","99.48","","","","-10","","Snow Showers"
"1973-01-01 18:00","1973","01","01","18:00","-3.3","","-5.6","","83","","28","","32","","9.7","","99.58","","","","-11","","Snow Showers"
"1973-01-01 19:00","1973","01","01","19:00","-3.9","","-6.7","","80","","27","","32","","24.1","","99.63","","","","-12","","Cloudy"
"1973-01-01 20:00","1973","01","01","20:00","-3.9","","-6.1","","83","","29","","31","","24.1","","99.67","","","","-12","","Cloudy"
"1973-01-01 21:00","1973","01","01","21:00","-3.9","","-7.8","","76","","29","","26","","24.1","","99.72","","","","-11","","Cloudy"
"1973-01-01 22:00","1973","01","01","22:00","-4.4","","-7.2","","79","","29","","39","","24.1","","99.74","","","","-13","","Cloudy"
"1973-01-01 23:00","1973","01","01","23:00","-5.0","","-8.9","","74","","28","","32","","19.3","","99.81","","","","-13","","Cloudy"
"1973-01-02 00:00","1973","01","02","00:00","-5.6","","-8.3","","81","","29","","29","","24.1","","99.86","","","","-14","","Cloudy"
"1973-01-02 01:00","1973","01","02","01:00","-6.1","","-9.4","","77","","29","","23","","16.1","","99.92","","","","-13","","Snow Showers"
"1973-01-02 02:00","1973","01","02","02:00","-6.7","","-9.4","","79","","27","","19","","9.7","","100.00","","","","-14","","Snow Showers"
"1973-01-02 03:00","1973","01","02","03:00","-6.7","","-10.0","","77","","27","","19","","24.1","","100.02","","","","-14","","Snow Showers"
"1973-01-02 04:00","1973","01","02","04:00","-6.7","","-9.4","","81","","26","","21","","25.0","","100.02","","","","-14","","Mainly Clear"
"1973-01-02 05:00","1973","01","02","05:00","-6.1","","-9.4","","78","","27","","29","","25.0","","100.06","","","","-14","","Mostly Cloudy"
"1973-01-02 06:00","1973","01","02","06:00","-5.6","","-8.3","","83","","27","","31","","19.3","","100.09","","","","-14","","Snow Showers"
"1973-01-02 07:00","1973","01","02","07:00","-5.6","","-8.3","","80","","25","","21","","24.1","","100.17","","","","-12","","Snow Showers"
"1973-01-02 08:00","1973","01","02","08:00","-5.6","","-7.8","","83","","25","","18","","19.3","","100.26","","","","-12","","Snow Showers"
"1973-01-02 09:00","1973","01","02","09:00","-5.0","","-9.4","","70","","26","","21","","40.2","","100.39","","","","-12","","Mostly Cloudy"
"1973-01-02 10:00","1973","01","02","10:00","-5.6","","-8.3","","79","","26","","18","","40.2","","100.45","","","","-12","","Snow Showers"
"1973-01-02 11:00","1973","01","02","11:00","-4.4","","-8.3","","77","","25","","16","","40.2","","100.45","","","","-10","","Mainly Clear"
"1973-01-02 12:00","1973","01","02","12:00","-5.0","","-8.9","","74","","26","","18","","32.2","","100.43","","","","-11","","Snow Showers"
"1973-01-02 13:00","1973","01","02","13:00","-4.4","","-8.3","","74","","28","","18","","40.2","","100.42","","","","-10","","Snow Showers"
"1973-01-02 14:00","1973","01","02","14:00","-3.9","","-8.3","","72","","27","","23","","40.2","","100.42","","","","-11","","Mostly Cloudy"
"1973-01-02 15:00","1973","01","02","15:00","-3.9","","-8.9","","66","","29","","26","","40.2","","100.51","","","","-11","","Mostly Cloudy"
"1973-01-02 16:00","1973","01","02","16:00","-4.4","","-8.9","","71","","28","","24","","32.2","","100.61","","","","-11","","Snow Showers"
"1973-01-02 17:00","1973","01","02","17:00","-5.0","","-8.9","","75","","27","","16","","40.2","","100.64","","","","-11","","Mainly Clear"
"1973-01-02 18:00","1973","01","02","18:00","-6.1","","-9.4","","78","","27","","13","","25.0","","100.70","","","","-11","","Mainly Clear"
"1973-01-02 19:00","1973","01","02","19:00","-6.7","","-10.0","","80","","27","","13","","25.0","","100.76","","","","-12","","Mainly Clear"
"1973-01-02 20:00","1973","01","02","20:00","-7.8","","-10.6","","82","","24","","5","","25.0","","100.76","","","","-10","","Mainly Clear"
"1973-01-02 21:00","1973","01","02","21:00","-6.7","","-9.4","","81","","24","","10","","25.0","","100.77","","","","-11","","Mainly Clear"
"1973-01-02 22:00","1973","01","02","22:00","-6.1","","-8.9","","83","","25","","14","","25.0","","100.84","","","","-12","","Cloudy"
"1973-01-02 23:00","1973","01","02","23:00","-5.6","","-8.3","","83","","26","","13","","19.3","","100.89","","","","-11","","Cloudy"
"1973-01-03 00:00","1973","01","03","00:00","-6.1","","-8.3","","83","","27","","10","","19.3","","100.92","","","","-11","","Cloudy"
"1973-01-03 01:00","1973","01","03","01:00","-6.1","","-8.3","","83","","26","","6","","24.1","","100.93","","","","-9","","Cloudy"
"1973-01-03 02:00","1973","01","03","02:00","-6.1","","-8.3","","83","","26","","8","","19.3","","100.92","","","","-10","","Cloudy"
"1973-01-03 03:00","1973","01","03","03:00","-5.0","","-7.8","","81","","27","","5","","19.3","","100.99","","","","-7","","Cloudy"
"1973-01-03 04:00","1973","01","03","04:00","-5.0","","-7.8","","83","","30","","10","","24.1","","100.95","","","","-9","","Mostly Cloudy"
"1973-01-03 05:00","1973","01","03","05:00","-6.1","","-8.3","","83","","21","","3","","25.0","","100.92","","","","-8","","Mainly Clear"
"1973-01-03 06:00","1973","01","03","06:00","-6.1","","-8.3","","83","","","","0","","19.3","","101.01","","","","","","Mainly Clear"
"1973-01-03 07:00","1973","01","03","07:00","-6.7","","-8.9","","84","","11","","8","","19.3","","101.01","","","","-11","","Mainly Clear"
"1973-01-03 08:00","1973","01","03","08:00","-8.3","","-10.6","","84","","4","","3","","11.3","","101.05","","","","-10","","Mainly Clear"
"1973-01-03 09:00","1973","01","03","09:00","-5.0","","-7.2","","83","","12","","6","","12.9","","100.99","","","","-8","","Mainly Clear"
"1973-01-03 10:00","1973","01","03","10:00","-2.8","","-6.1","","80","","11","","10","","9.7","","100.95","","","","-7","","Haze"
"1973-01-03 11:00","1973","01","03","11:00","-1.7","","-4.4","","82","","14","","13","","16.1","","100.89","","","","-6","","Cloudy"
"1973-01-03 12:00","1973","01","03","12:00","-0.6","","-4.4","","76","","15","","18","","12.9","","100.76","","","","-6","","Mostly Cloudy"
"1973-01-03 13:00","1973","01","03","13:00","-0.6","","-4.4","","75","","14","","23","","14.5","","100.54","","","","-6","","Mostly Cloudy"
"1973-01-03 14:00","1973","01","03","14:00","-0.6","","-3.9","","79","","13","","24","","19.3","","100.44","","","","-7","","Mostly Cloudy"
"1973-01-03 15:00","1973","01","03","15:00","-0.6","","-3.9","","80","","12","","27","","24.1","","100.41","","","","-7","","Mostly Cloudy"
"1973-01-03 16:00","1973","01","03","16:00","-0.6","","-4.4","","78","","10","","24","","19.3","","100.21","","","","-7","","Mostly Cloudy"
"1973-01-03 17:00","1973","01","03","17:00","-1.1","","-3.3","","83","","10","","31","","16.1","","100.05","","","","-8","","Mostly Cloudy"
"1973-01-03 18:00","1973","01","03","18:00","-0.6","","-3.3","","82","","10","","31","","19.3","","99.95","","","","-7","","Cloudy"
"1973-01-03 19:00","1973","01","03","19:00","0.0","","-2.2","","84","","10","","31","","24.1","","99.75","","","","-7","","Cloudy"
"1973-01-03 20:00","1973","01","03","20:00","0.6","","-1.1","","89","","10","","34","","19.3","","99.56","","","","","","Cloudy"
"1973-01-03 21:00","1973","01","03","21:00","1.1","","-1.7","","79","","11","","34","","19.3","","99.23","","","","","","Cloudy"
"1973-01-03 22:00","1973","01","03","22:00","1.7","","-2.8","","72","","11","","40","","9.7","","98.94","","","","","","Rain,Snow Pellets"
"1973-01-03 23:00","1973","01","03","23:00","0.6","","-2.2","","81","","14","","32","","11.3","","98.91","","","","","","Rain,Ice Pellet Showers"
"1973-01-04 00:00","1973","01","04","00:00","0.0","","-1.1","","93","","14","","29","","16.1","","98.54","","","","-6","","Rain"
"1973-01-04 01:00","1973","01","04","01:00","0.0","","0.0","","99","","12","","23","","8.0","","98.32","","","","-6","","Freezing Rain,Ice Pellets"
"1973-01-04 02:00","1973","01","04","02:00","0.6","","0.6","","98","","15","","21","","9.7","","98.14","","","","","","Rain,Ice Pellets"
"1973-01-04 03:00","1973","01","04","03:00","1.7","","1.1","","99","","15","","23","","4.8","","98.03","","","","","","Rain,Fog"
"1973-01-04 04:00","1973","01","04","04:00","2.8","","2.8","","98","","19","","19","","4.8","","97.96","","","","","","Rain,Fog"
"1973-01-04 05:00","1973","01","04","05:00","3.9","","2.8","","92","","24","","29","","19.3","","97.91","","","","","","Cloudy"
"1973-01-04 06:00","1973","01","04","06:00","3.9","","2.2","","87","","25","","42","","11.3","","97.95","","","","","","Rain"
"1973-01-04 07:00","1973","01","04","07:00","2.8","","0.0","","82","","26","","58","","24.1","","98.07","","","","","","Cloudy"
"1973-01-04 08:00","1973","01","04","08:00","2.2","","-0.6","","83","","25","","45","","32.2","","98.17","","","","","","Cloudy"
"1973-01-04 09:00","1973","01","04","09:00","2.2","","-0.6","","83","","25","","32","","40.2","","98.29","","","","","","Cloudy"
"1973-01-04 10:00","1973","01","04","10:00","2.2","","0.0","","86","","25","","40","","32.2","","98.36","","","","","","Snow Grains"
"1973-01-04 11:00","1973","01","04","11:00","1.7","","0.0","","87","","26","","43","","24.1","","98.39","","","","","","Snow Grains"
"1973-01-04 12:00","1973","01","04","12:00","2.2","","-0.6","","84","","26","","50","","19.3","","98.38","","","","","","Cloudy"
"1973-01-04 13:00","1973","01","04","13:00","2.2","","-0.6","","84","","26","","37","","19.3","","98.42","","","","","","Snow Grains"
"1973-01-04 14:00","1973","01","04","14:00","2.2","","-0.6","","84","","26","","31","","24.1","","98.53","","","","","","Snow Grains"
"1973-01-04 15:00","1973","01","04","15:00","2.2","","-0.6","","83","","28","","29","","32.2","","98.64","","","","","","Cloudy"
"1973-01-04 16:00","1973","01","04","16:00","1.7","","0.0","","87","","28","","29","","24.1","","98.73","","","","","","Cloudy"
"1973-01-04 17:00","1973","01","04","17:00","1.7","","0.0","","87","","27","","31","","24.1","","98.80","","","","","","Cloudy"
"1973-01-04 18:00","1973","01","04","18:00","1.7","","-0.6","","87","","27","","23","","24.1","","98.88","","","","","","Cloudy"
"1973-01-04 19:00","1973","01","04","19:00","1.7","","-0.6","","86","","26","","23","","24.1","","99.00","","","","","","Cloudy"
"1973-01-04 20:00","1973","01","04","20:00","1.1","","-0.6","","89","","27","","24","","24.1","","99.08","","","","","","Mostly Cloudy"
"1973-01-04 21:00","1973","01","04","21:00","1.1","","0.0","","94","","27","","29","","24.1","","99.09","","","","","","Cloudy"
"1973-01-04 22:00","1973","01","04","22:00","0.6","","-2.2","","81","","28","","24","","25.0","","99.13","","","","","","Cloudy"
"1973-01-04 23:00","1973","01","04","23:00","0.0","","-2.8","","83","","27","","42","","24.1","","99.18","","","","-8","","Cloudy"
"1973-01-05 00:00","1973","01","05","00:00","-0.6","","-3.3","","81","","28","","34","","25.0","","99.15","","","","-8","","Cloudy"
"1973-01-05 01:00","1973","01","05","01:00","-1.1","","-4.4","","80","","28","","37","","25.0","","99.18","","","","-9","","Cloudy"
"1973-01-05 02:00","1973","01","05","02:00","-1.1","","-4.4","","80","","29","","27","","25.0","","99.24","","","","-8","","Cloudy"
"1973-01-05 03:00","1973","01","05","03:00","-1.7","","-5.6","","76","","28","","26","","25.0","","99.30","","","","-8","","Cloudy"
"1973-01-05 04:00","1973","01","05","04:00","-1.7","","-5.6","","75","","29","","29","","25.0","","99.31","","","","-9","","Cloudy"
"1973-01-05 05:00","1973","01","05","05:00","-2.8","","-6.7","","76","","27","","42","","25.0","","99.30","","","","-11","","Cloudy"
"1973-01-05 06:00","1973","01","05","06:00","-3.9","","-7.2","","77","","28","","29","","25.0","","99.29","","","","-11","","Cloudy"
"1973-01-05 07:00","1973","01","05","07:00","-4.4","","-8.3","","74","","29","","43","","25.0","","99.36","","","","-14","","Cloudy"
"1973-01-05 08:00","1973","01","05","08:00","-5.0","","-8.9","","75","","29","","37","","40.2","","99.37","","","","-14","","Snow"
"1973-01-05 09:00","1973","01","05","09:00","-5.0","","-8.9","","72","","29","","32","","24.1","","99.40","","","","-13","","Snow"
"1973-01-05 10:00","1973","01","05","10:00","-5.0","","-9.4","","71","","29","","39","","24.1","","99.44","","","","-14","","Snow"
"1973-01-05 11:00","1973","01","05","11:00","-5.0","","-10.0","","68","","29","","27","","24.1","","99.45","","","","-13","","Snow Showers"
"1973-01-05 12:00","1973","01","05","12:00","-5.6","","-10.0","","70","","30","","32","","24.1","","99.44","","","","-14","","Snow Showers"
"1973-01-05 13:00","1973","01","05","13:00","-5.6","","-10.6","","67","","28","","42","","40.2","","99.40","","","","-15","","Mainly Clear"
"1973-01-05 14:00","1973","01","05","14:00","-5.6","","-11.7","","63","","29","","42","","40.2","","99.40","","","","-15","","Mainly Clear"
"1973-01-05 15:00","1973","01","05","15:00","-6.1","","-11.7","","65","","29","","32","","40.2","","99.40","","","","-15","","Mainly Clear"
"1973-01-05 16:00","1973","01","05","16:00","-6.7","","-11.7","","68","","29","","27","","32.2","","99.47","","","","-15","","Snow Showers"
"1973-01-05 17:00","1973","01","05","17:00","-7.2","","-11.1","","73","","27","","23","","32.2","","99.54","","","","-15","","Mainly Clear"
"1973-01-05 18:00","1973","01","05","18:00","-7.8","","-11.7","","75","","28","","24","","25.0","","99.60","","","","-16","","Mainly Clear"
"1973-01-05 19:00","1973","01","05","19:00","-8.3","","-11.7","","77","","27","","18","","25.0","","99.63","","","","-15","","Mainly Clear"
"1973-01-05 20:00","1973","01","05","20:00","-8.9","","-12.2","","79","","26","","21","","25.0","","99.63","","","","-17","","Mostly Cloudy"
"1973-01-05 21:00","1973","01","05","21:00","-8.3","","-11.1","","79","","27","","23","","25.0","","99.63","","","","-16","","Cloudy"
"1973-01-05 22:00","1973","01","05","22:00","-7.8","","-10.6","","81","","27","","19","","24.1","","99.65","","","","-15","","Snow Showers"
"1973-01-05 23:00","1973","01","05","23:00","-7.2","","-10.0","","79","","31","","21","","19.3","","99.69","","","","-15","","Snow Showers"
"1973-01-06 00:00","1973","01","06","00:00","-7.2","","-11.1","","73","","33","","23","","25.0","","99.69","","","","-15","","Mostly Cloudy"
"1973-01-06 01:00","1973","01","06","01:00","-8.3","","-12.8","","72","","36","","23","","19.3","","99.77","","","","-16","","Snow Showers"
"1973-01-06 02:00","1973","01","06","02:00","-11.1","","-15.0","","74","","36","","27","","12.9","","99.90","","","","-21","","Snow"
"1973-01-06 03:00","1973","01","06","03:00","-11.7","","-15.6","","72","","36","","23","","25.0","","100.02","","","","-21","","Mostly Cloudy"
"1973-01-06 04:00","1973","01","06","04:00","-13.3","","-16.1","","79","","36","","26","","25.0","","100.08","","","","-23","","Mainly Clear"
"1973-01-06 05:00","1973","01","06","05:00","-15.0","","-19.4","","70","","36","","29","","25.0","","100.10","","","","-26","","Clear"
"1973-01-06 06:00","1973","01","06","06:00","-16.1","","-19.4","","78","","35","","32","","25.0","","100.20","","","","-28","","Clear"
"1973-01-06 07:00","1973","01","06","07:00","-17.2","","-20.6","","75","","35","","24","","25.0","","100.29","","","","-28","","Clear"
"1973-01-06 08:00","1973","01","06","08:00","-17.2","","-20.0","","77","","34","","27","","40.2","","100.35","","","","-28","","Mainly Clear"
"1973-01-06 09:00","1973","01","06","09:00","-17.2","","-19.4","","80","","33","","32","","40.2","","100.46","","","","-29","","Mainly Clear"
"1973-01-06 10:00","1973","01","06","10:00","-16.1","","-19.4","","76","","34","","29","","40.2","","100.56","","","","-27","","Mainly Clear"
"1973-01-06 11:00","1973","01","06","11:00","-15.0","","-20.0","","65","","34","","26","","40.2","","100.61","","","","-25","","Mainly Clear"
"1973-01-06 12:00","1973","01","06","12:00","-14.4","","-18.9","","69","","34","","23","","40.2","","100.53","","","","-24","","Mainly Clear"
"1973-01-06 13:00","1973","01","06","13:00","-13.3","","-17.2","","73","","34","","26","","40.2","","100.48","","","","-23","","Mainly Clear"
"1973-01-06 14:00","1973","01","06","14:00","-12.8","","-17.2","","69","","35","","26","","40.2","","100.51","","","","-23","","Mainly Clear"
"1973-01-06 15:00","1973","01","06","15:00","-12.8","","-16.7","","73","","34","","19","","40.2","","100.56","","","","-21","","Mostly Cloudy"
"1973-01-06 16:00","1973","01","06","16:00","-11.7","","-15.0","","77","","34","","19","","40.2","","100.58","","","","-20","","Mostly Cloudy"
"1973-01-06 17:00","1973","01","06","17:00","-12.2","","-15.6","","77","","33","","18","","40.2","","100.63","","","","-20","","Mainly Clear"
"1973-01-06 18:00","1973","01","06","18:00","-12.8","","-15.6","","78","","32","","18","","25.0","","100.70","","","","-21","","Mainly Clear"
"1973-01-06 19:00","1973","01","06","19:00","-12.8","","-15.0","","81","","32","","14","","25.0","","100.74","","","","-20","","Mainly Clear"
"1973-01-06 20:00","1973","01","06","20:00","-13.3","","-16.1","","79","","31","","14","","25.0","","100.79","","","","-21","","Mainly Clear"
"1973-01-06 21:00","1973","01","06","21:00","-13.9","","-17.2","","76","","34","","11","","25.0","","100.83","","","","-20","","Mainly Clear"
"1973-01-06 22:00","1973","01","06","22:00","-13.9","","-16.7","","80","","34","","23","","25.0","","100.88","","","","-23","","Mainly Clear"
"1973-01-06 23:00","1973","01","06","23:00","-15.0","","-17.2","","80","","35","","18","","25.0","","100.93","","","","-24","","Mainly Clear"
"1973-01-07 00:00","1973","01","07","00:00","-15.0","","-17.2","","84","","33","","14","","25.0","","100.94","","","","-23","","Clear"
"1973-01-07 01:00","1973","01","07","01:00","-15.6","","-18.9","","75","","34","","14","","25.0","","100.97","","","","-23","","Clear"
"1973-01-07 02:00","1973","01","07","02:00","-15.6","","-18.3","","79","","35","","16","","25.0","","101.01","","","","-24","","Clear"
"1973-01-07 03:00","1973","01","07","03:00","-16.1","","-20.0","","72","","34","","19","","25.0","","101.08","","","","-25","","Clear"
"1973-01-07 04:00","1973","01","07","04:00","-16.7","","-20.6","","73","","33","","18","","25.0","","101.07","","","","-26","","Clear"
"1973-01-07 05:00","1973","01","07","05:00","-17.8","","-21.1","","74","","33","","19","","25.0","","101.11","","","","-27","","Clear"
"1973-01-07 06:00","1973","01","07","06:00","-18.3","","-22.2","","73","","34","","19","","25.0","","101.11","","","","-28","","Clear"
"1973-01-07 07:00","1973","01","07","07:00","-18.9","","-22.2","","75","","33","","19","","25.0","","101.19","","","","-29","","Mainly Clear"
"1973-01-07 08:00","1973","01","07","08:00","-18.9","","-23.3","","69","","33","","18","","40.2","","101.34","","","","-29","","Mainly Clear"
"1973-01-07 09:00","1973","01","07","09:00","-18.3","","-22.2","","73","","33","","19","","40.2","","101.48","","","","-28","","Mostly Cloudy"
"1973-01-07 10:00","1973","01","07","10:00","-17.2","","-22.8","","61","","34","","21","","40.2","","101.50","","","","-27","","Mostly Cloudy"
"1973-01-07 11:00","1973","01","07","11:00","-16.7","","-22.2","","62","","34","","21","","40.2","","101.51","","","","-27","","Mainly Clear"
"1973-01-07 12:00","1973","01","07","12:00","-15.6","","-20.0","","69","","33","","21","","40.2","","101.39","","","","-25","","Mainly Clear"
"1973-01-07 13:00","1973","01","07","13:00","-13.9","","-18.3","","70","","36","","18","","40.2","","101.28","","","","-22","","Mainly Clear"
"1973-01-07 14:00","1973","01","07","14:00","-13.3","","-17.2","","71","","35","","23","","40.2","","101.30","","","","-23","","Mainly Clear"
"1973-01-07 15:00","1973","01","07","15:00","-12.8","","-17.2","","69","","34","","21","","40.2","","101.29","","","","-22","","Mainly Clear"
"1973-01-07 16:00","1973","01","07","16:00","-12.8","","-17.2","","71","","35","","16","","40.2","","101.27","","","","-20","","Mainly Clear"
"1973-01-07 17:00","1973","01","07","17:00","-12.8","","-16.7","","75","","36","","14","","40.2","","101.25","","","","-20","","Mainly Clear"
"1973-01-07 18:00","1973","01","07","18:00","-13.9","","-16.7","","83","","32","","10","","25.0","","101.28","","","","-20","","Mainly Clear"
"1973-01-07 19:00","1973","01","07","19:00","-14.4","","-16.1","","87","","33","","3","","25.0","","101.36","","","","-17","","Mainly Clear"
"1973-01-07 20:00","1973","01","07","20:00","-15.0","","-16.7","","86","","35","","8","","25.0","","101.37","","","","-20","","Mainly Clear"
"1973-01-07 21:00","1973","01","07","21:00","-15.0","","-16.7","","86","","35","","6","","25.0","","101.36","","","","-19","","Mainly Clear"
"1973-01-07 22:00","1973","01","07","22:00","-15.6","","-17.2","","86","","33","","8","","25.0","","101.35","","","","-21","","Mainly Clear"
"1973-01-07 23:00","1973","01","07","23:00","-15.6","","-16.7","","88","","2","","10","","25.0","","101.28","","","","-22","","Mainly Clear"
"1973-01-08 00:00","1973","01","08","00:00","-16.7","","-17.8","","90","","2","","13","","25.0","","101.22","","","","-24","","Mainly Clear"
"1973-01-08 01:00","1973","01","08","01:00","-16.1","","-18.9","","81","","1","","11","","25.0","","101.28","","","","-23","","Mainly Clear"
"1973-01-08 02:00","1973","01","08","02:00","-16.7","","-20.6","","71","","3","","13","","25.0","","101.32","","","","-24","","Mainly Clear"
"1973-01-08 03:00","1973","01","08","03:00","-17.2","","-20.6","","75","","2","","13","","25.0","","101.30","","","","-25","","Clear"
"1973-01-08 04:00","1973","01","08","04:00","-17.8","","-21.7","","74","","2","","13","","25.0","","101.26","","","","-26","","Clear"
"1973-01-08 05:00","1973","01","08","05:00","-18.3","","-22.2","","70","","3","","13","","25.0","","101.22","","","","-26","","Clear"
"1973-01-08 06:00","1973","01","08","06:00","-18.9","","-22.8","","70","","2","","10","","25.0","","101.21","","","","-26","","Clear"
"1973-01-08 07:00","1973","01","08","07:00","-18.9","","-22.8","","72","","36","","10","","25.0","","101.24","","","","-26","","Mainly Clear"
"1973-01-08 08:00","1973","01","08","08:00","-19.4","","-22.2","","77","","35","","13","","32.2","","101.25","","","","-28","","Mainly Clear"
"1973-01-08 09:00","1973","01","08","09:00","-18.9","","-22.2","","75","","1","","11","","40.2","","101.25","","","","-26","","Mainly Clear"
"1973-01-08 10:00","1973","01","08","10:00","-17.8","","-22.8","","66","","1","","11","","40.2","","101.23","","","","-25","","Mainly Clear"
"1973-01-08 11:00","1973","01","08","11:00","-16.7","","-20.6","","69","","34","","11","","40.2","","101.17","","","","-24","","Mainly Clear"
"1973-01-08 12:00","1973","01","08","12:00","-15.0","","-20.0","","65","","33","","11","","40.2","","101.08","","","","-22","","Mainly Clear"
"1973-01-08 13:00","1973","01","08","13:00","-14.4","","-20.0","","65","","34","","10","","40.2","","100.94","","","","-21","","Mostly Cloudy"
"1973-01-08 14:00","1973","01","08","14:00","-13.9","","-18.9","","66","","35","","5","","40.2","","100.88","","","","-17","","Mostly Cloudy"
"1973-01-08 15:00","1973","01","08","15:00","-12.8","","-18.9","","60","","33","","6","","40.2","","100.83","","","","-17","","Mostly Cloudy"
"1973-01-08 16:00","1973","01","08","16:00","-12.8","","-16.7","","71","","36","","3","","40.2","","100.81","","","","-15","","Mostly Cloudy"
"1973-01-08 17:00","1973","01","08","17:00","-12.8","","-18.9","","61","","33","","6","","40.2","","100.78","","","","-17","","Cloudy"
"1973-01-08 18:00","1973","01","08","18:00","-13.9","","-19.4","","63","","32","","10","","25.0","","100.79","","","","-20","","Mostly Cloudy"
"1973-01-08 19:00","1973","01","08","19:00","-14.4","","-20.0","","63","","30","","3","","25.0","","100.76","","","","-17","","Cloudy"
"1973-01-08 20:00","1973","01","08","20:00","-13.9","","-18.9","","65","","32","","5","","25.0","","100.70","","","","-17","","Cloudy"
"1973-01-08 21:00","1973","01","08","21:00","-14.4","","-18.9","","69","","36","","3","","25.0","","100.63","","","","-17","","Cloudy"
"1973-01-08 22:00","1973","01","08","22:00","-13.9","","-19.4","","63","","","","0","","25.0","","100.58","","","","","","Cloudy"
"1973-01-08 23:00","1973","01","08","23:00","-13.3","","-17.8","","69","","33","","3","","24.1","","100.51","","","","-15","","Cloudy"
"1973-01-09 00:00","1973","01","09","00:00","-13.3","","-17.8","","69","","36","","3","","16.1","","100.43","","","","-15","","Snow Showers"
"1973-01-09 01:00","1973","01","09","01:00","-13.3","","-17.2","","71","","","","0","","24.1","","100.35","","","","","","Mainly Clear"
"1973-01-09 02:00","1973","01","09","02:00","-13.9","","-16.7","","80","","","","0","","24.1","","100.30","","","","","","Mainly Clear"
"1973-01-09 03:00","1973","01","09","03:00","-13.3","","-16.1","","80","","21","","3","","24.1","","100.27","","","","-15","","Mainly Clear"
"1973-01-09 04:00","1973","01","09","04:00","-15.0","","-17.2","","82","","30","","3","","24.1","","100.17","","","","-17","","Mainly Clear"
"1973-01-09 05:00","1973","01","09","05:00","-14.4","","-17.2","","81","","28","","11","","24.1","","100.08","","","","-21","","Mainly Clear"
"1973-01-09 06:00","1973","01","09","06:00","-12.8","","-15.6","","79","","26","","8","","24.1","","100.03","","","","-18","","Mostly Cloudy"
"1973-01-09 07:00","1973","01","09","07:00","-11.1","","-13.9","","82","","27","","18","","19.3","","100.05","","","","-19","","Mostly Cloudy"
"1973-01-09 08:00","1973","01","09","08:00","-10.6","","-12.2","","86","","25","","11","","19.3","","100.03","","","","-16","","Cloudy"
"1973-01-09 09:00","1973","01","09","09:00","-10.0","","-11.7","","85","","26","","13","","19.3","","100.03","","","","-16","","Mostly Cloudy"
"1973-01-09 10:00","1973","01","09","10:00","-8.3","","-11.7","","78","","25","","23","","24.1","","99.98","","","","-16","","Mainly Clear"
"1973-01-09 11:00","1973","01","09","11:00","-7.2","","-11.7","","70","","26","","24","","24.1","","99.91","","","","-15","","Snow Showers"
"1973-01-09 12:00","1973","01","09","12:00","-6.7","","-11.1","","69","","27","","26","","32.2","","99.80","","","","-15","","Mainly Clear"
"1973-01-09 13:00","1973","01","09","13:00","-6.1","","-11.1","","66","","27","","27","","40.2","","99.69","","","","-14","","Mainly Clear"
"1973-01-09 14:00","1973","01","09","14:00","-6.1","","-11.1","","67","","27","","32","","32.2","","99.67","","","","-15","","Snow Showers"
"1973-01-09 15:00","1973","01","09","15:00","-6.7","","-12.2","","64","","27","","39","","32.2","","99.72","","","","-16","","Snow Showers"
"1973-01-09 16:00","1973","01","09","16:00","-7.8","","-12.8","","67","","28","","29","","40.2","","99.77","","","","-17","","Mainly Clear"
"1973-01-09 17:00","1973","01","09","17:00","-8.3","","-13.3","","67","","27","","34","","32.2","","99.77","","","","-18","","Mostly Cloudy"
"1973-01-09 18:00","1973","01","09","18:00","-9.4","","-12.8","","77","","27","","23","","25.0","","99.77","","","","-18","","Mainly Clear"
"1973-01-09 19:00","1973","01","09","19:00","-10.0","","-13.3","","76","","27","","18","","25.0","","99.79","","","","-17","","Mainly Clear"
"1973-01-09 20:00","1973","01","09","20:00","-10.0","","-13.3","","76","","27","","23","","25.0","","99.79","","","","-18","","Mainly Clear"
"1973-01-09 21:00","1973","01","09","21:00","-10.6","","-13.3","","78","","26","","16","","25.0","","99.78","","","","-18","","Mainly Clear"
"1973-01-09 22:00","1973","01","09","22:00","-10.6","","-13.9","","78","","25","","13","","25.0","","99.75","","","","-17","","Mainly Clear"
"1973-01-09 23:00","1973","01","09","23:00","-9.4","","-12.8","","79","","25","","18","","24.1","","99.72","","","","-17","","Snow Showers"
"1973-01-10 00:00","1973","01","10","00:00","-10.0","","-14.4","","72","","26","","23","","25.0","","99.71","","","","-18","","Mainly Clear"
"1973-01-10 01:00","1973","01","10","01:00","-10.0","","-14.4","","68","","26","","24","","25.0","","99.69","","","","-19","","Mostly Cloudy"
"1973-01-10 02:00","1973","01","10","02:00","-10.0","","-14.4","","71","","26","","19","","25.0","","99.71","","","","-18","","Snow Showers"
"1973-01-10 03:00","1973","01","10","03:00","-10.6","","-14.4","","74","","25","","13","","25.0","","99.75","","","","-17","","Mostly Cloudy"
"1973-01-10 04:00","1973","01","10","04:00","-11.1","","-15.0","","74","","25","","16","","25.0","","99.74","","","","-18","","Mainly Clear"
"1973-01-10 05:00","1973","01","10","05:00","-11.7","","-13.9","","82","","21","","13","","25.0","","99.67","","","","-18","","Snow Showers"
"1973-01-10 06:00","1973","01","10","06:00","-11.7","","-15.0","","79","","21","","16","","25.0","","99.66","","","","-19","","Mainly Clear"
"1973-01-10 07:00","1973","01","10","07:00","-12.2","","-15.0","","82","","18","","11","","25.0","","99.68","","","","-18","","Mainly Clear"
"1973-01-10 08:00","1973","01","10","08:00","-12.2","","-14.4","","82","","21","","10","","19.3","","99.75","","","","-18","","Mainly Clear"
"1973-01-10 09:00","1973","01","10","09:00","-10.6","","-13.9","","76","","23","","18","","19.3","","99.78","","","","-18","","Mostly Cloudy"
"1973-01-10 10:00","1973","01","10","10:00","-9.4","","-13.3","","74","","24","","23","","19.3","","99.77","","","","-18","","Mostly Cloudy"
"1973-01-10 11:00","1973","01","10","11:00","-8.3","","-12.8","","71","","25","","29","","24.1","","99.73","","","","-17","","Mainly Clear"
"1973-01-10 12:00","1973","01","10","12:00","-7.8","","-12.2","","71","","26","","31","","32.2","","99.61","","","","-17","","Mainly Clear"
"1973-01-10 13:00","1973","01","10","13:00","-7.2","","-11.7","","71","","25","","31","","40.2","","99.50","","","","-16","","Mainly Clear"
"1973-01-10 14:00","1973","01","10","14:00","-7.2","","-11.1","","75","","25","","32","","40.2","","99.50","","","","-16","","Mainly Clear"
"1973-01-10 15:00","1973","01","10","15:00","-7.8","","-12.2","","71","","25","","32","","40.2","","99.47","","","","-17","","Mainly Clear"
"1973-01-10 16:00","1973","01","10","16:00","-8.3","","-12.8","","70","","25","","24","","32.2","","99.45","","","","-16","","Mainly Clear"
"1973-01-10 17:00","1973","01","10","17:00","-8.9","","-12.2","","78","","25","","21","","24.1","","99.42","","","","-17","","Mainly Clear"
"1973-01-10 18:00","1973","01","10","18:00","-9.4","","-12.8","","75","","25","","14","","19.3","","99.42","","","","-16","","Mainly Clear"
"1973-01-10 19:00","1973","01","10","19:00","-8.9","","-12.8","","75","","23","","26","","16.1","","99.42","","","","-18","","Snow Showers"
"1973-01-10 20:00","1973","01","10","20:00","-9.4","","-13.3","","71","","23","","24","","19.3","","99.39","","","","-18","","Mainly Clear"
"1973-01-10 21:00","1973","01","10","21:00","-9.4","","-15.0","","65","","23","","21","","19.3","","99.33","","","","-17","","Mainly Clear"
"1973-01-10 22:00","1973","01","10","22:00","-9.4","","-15.0","","65","","23","","21","","24.1","","99.24","","","","-17","","Mainly Clear"
"1973-01-10 23:00","1973","01","10","23:00","-10.0","","-14.4","","70","","25","","24","","24.1","","99.18","","","","-19","","Mainly Clear"
"1973-01-11 00:00","1973","01","11","00:00","-10.0","","-13.9","","73","","24","","24","","24.1","","99.13","","","","-19","","Mainly Clear"
"1973-01-11 01:00","1973","01","11","01:00","-10.0","","-15.6","","63","","24","","24","","25.0","","99.09","","","","-19","","Mainly Clear"
"1973-01-11 02:00","1973","01","11","02:00","-10.0","","-15.6","","64","","23","","27","","25.0","","99.04","","","","-19","","Mainly Clear"
"1973-01-11 03:00","1973","01","11","03:00","-10.0","","-14.4","","70","","24","","29","","25.0","","99.02","","","","-19","","Mostly Cloudy"
"1973-01-11 04:00","1973","01","11","04:00","-9.4","","-14.4","","68","","23","","21","","25.0","","98.94","","","","-17","","Cloudy"
"1973-01-11 05:00","1973","01","11","05:00","-9.4","","-13.3","","71","","23","","21","","25.0","","98.90","","","","-17","","Cloudy"
"1973-01-11 06:00","1973","01","11","06:00","-8.9","","-12.2","","75","","24","","23","","19.3","","98.88","","","","-17","","Snow Showers"
"1973-01-11 07:00","1973","01","11","07:00","-8.9","","-12.2","","79","","24","","26","","9.7","","98.87","","","","-18","","Snow Showers"
"1973-01-11 08:00","1973","01","11","08:00","-8.9","","-12.2","","76","","24","","27","","6.4","","98.92","","","","-18","","Snow Showers"
"1973-01-11 09:00","1973","01","11","09:00","-8.9","","-11.7","","79","","25","","26","","8.0","","98.95","","","","-18","","Snow"
"1973-01-11 10:00","1973","01","11","10:00","-8.3","","-11.1","","79","","25","","23","","19.3","","98.97","","","","-16","","Mainly Clear"
"1973-01-11 11:00","1973","01","11","11:00","-6.7","","-11.1","","73","","26","","29","","19.3","","98.94","","","","-15","","Mainly Clear"
"1973-01-11 12:00","1973","01","11","12:00","-6.1","","-11.1","","69","","28","","32","","24.1","","98.91","","","","-15","","Mainly Clear"
"1973-01-11 13:00","1973","01","11","13:00","-6.7","","-10.6","","75","","33","","27","","9.7","","98.95","","","","-15","","Snow Showers"
"1973-01-11 14:00","1973","01","11","14:00","-7.2","","-12.2","","67","","31","","21","","32.2","","98.97","","","","-15","","Mainly Clear"
"1973-01-11 15:00","1973","01","11","15:00","-6.7","","-12.8","","63","","31","","24","","40.2","","99.00","","","","-14","","Mainly Clear"
"1973-01-11 16:00","1973","01","11","16:00","-7.2","","-11.7","","72","","28","","18","","40.2","","99.07","","","","-14","","Mainly Clear"
"1973-01-11 17:00","1973","01","11","17:00","-8.3","","-11.7","","76","","28","","18","","40.2","","99.13","","","","-15","","Mainly Clear"
"1973-01-11 18:00","1973","01","11","18:00","-8.9","","-13.3","","73","","27","","23","","25.0","","99.19","","","","-17","","Mainly Clear"
"1973-01-11 19:00","1973","01","11","19:00","-10.0","","-13.3","","76","","27","","16","","25.0","","99.28","","","","-17","","Mainly Clear"
"1973-01-11 20:00","1973","01","11","20:00","-10.0","","-13.3","","78","","27","","18","","19.3","","99.36","","","","-17","","Snow Showers"
"1973-01-11 21:00","1973","01","11","21:00","-10.6","","-14.4","","75","","28","","14","","25.0","","99.44","","","","-17","","Mostly Cloudy"
"1973-01-11 22:00","1973","01","11","22:00","-11.1","","-14.4","","76","","28","","13","","25.0","","99.43","","","","-18","","Mostly Cloudy"
"1973-01-11 23:00","1973","01","11","23:00","-11.1","","-13.9","","80","","26","","10","","24.1","","99.41","","","","-17","","Snow Showers"
"1973-01-12 00:00","1973","01","12","00:00","-11.1","","-14.4","","78","","24","","14","","25.0","","99.40","","","","-18","","Mostly Cloudy"
"1973-01-12 01:00","1973","01","12","01:00","-10.0","","-13.3","","76","","26","","26","","25.0","","99.38","","","","-19","","Mainly Clear"
"1973-01-12 02:00","1973","01","12","02:00","-10.6","","-13.9","","78","","28","","23","","25.0","","99.43","","","","-19","","Mainly Clear"
"1973-01-12 03:00","1973","01","12","03:00","-10.6","","-13.9","","75","","26","","23","","25.0","","99.52","","","","-19","","Clear"
"1973-01-12 04:00","1973","01","12","04:00","-10.6","","-13.9","","74","","27","","27","","25.0","","99.52","","","","-20","","Clear"
"1973-01-12 05:00","1973","01","12","05:00","-10.6","","-13.9","","76","","23","","19","","25.0","","99.55","","","","-18","","Clear"
"1973-01-12 06:00","1973","01","12","06:00","-11.7","","-14.4","","79","","22","","23","","25.0","","99.48","","","","-21","","Mainly Clear"
"1973-01-12 07:00","1973","01","12","07:00","-11.7","","-14.4","","81","","19","","19","","25.0","","99.47","","","","-20","","Snow Showers"
"1973-01-12 08:00","1973","01","12","08:00","-10.6","","-13.9","","78","","22","","23","","19.3","","99.43","","","","-19","","Snow Showers"
"1973-01-12 09:00","1973","01","12","09:00","-10.0","","-13.3","","77","","24","","35","","24.1","","99.43","","","","-20","","Mostly Cloudy"
"1973-01-12 10:00","1973","01","12","10:00","-9.4","","-12.8","","77","","25","","40","","19.3","","99.57","","","","-20","","Mostly Cloudy"
"1973-01-12 11:00","1973","01","12","11:00","-7.8","","-10.6","","79","","25","","40","","24.1","","99.56","","","","-18","","Mostly Cloudy"
"1973-01-12 12:00","1973","01","12","12:00","-6.1","","-9.4","","76","","26","","43","","40.2","","99.54","","","","-16","","Mainly Clear"
"1973-01-12 13:00","1973","01","12","13:00","-5.0","","-8.9","","73","","26","","35","","40.2","","99.57","","","","-14","","Mainly Clear"
"1973-01-12 14:00","1973","01","12","14:00","-4.4","","-7.2","","81","","25","","34","","24.1","","99.62","","","","-13","","Mostly Cloudy"
"1973-01-12 15:00","1973","01","12","15:00","-3.9","","-6.7","","83","","27","","32","","1.6","","99.70","","","","-12","","Snow Showers"
"1973-01-12 16:00","1973","01","12","16:00","-4.4","","-5.6","","92","","28","","23","","0.8","","99.83","","","","-11","","Moderate Snow Showers"
"1973-01-12 17:00","1973","01","12","17:00","-4.4","","-5.6","","92","","28","","16","","1.6","","99.96","","","","-10","","Snow Showers"
"1973-01-12 18:00","1973","01","12","18:00","-5.0","","-6.7","","89","","27","","14","","3.2","","100.08","","","","-10","","Snow Showers"
"1973-01-12 19:00","1973","01","12","19:00","-6.1","","-8.3","","84","","25","","13","","19.3","","100.15","","","","-11","","Snow Showers"
"1973-01-12 20:00","1973","01","12","20:00","-6.1","","-8.9","","83","","24","","16","","25.0","","100.21","","","","-12","","Mostly Cloudy"
"1973-01-12 21:00","1973","01","12","21:00","-8.3","","-10.6","","83","","25","","16","","25.0","","100.26","","","","-15","","Mostly Cloudy"
"1973-01-12 22:00","1973","01","12","22:00","-8.3","","-10.0","","85","","24","","13","","25.0","","100.25","","","","-14","","Mainly Clear"
"1973-01-12 23:00","1973","01","12","23:00","-8.3","","-10.0","","88","","22","","13","","25.0","","100.25","","","","-14","","Mainly Clear"
"1973-01-13 00:00","1973","01","13","00:00","-8.3","","-10.0","","87","","21","","14","","19.3","","100.26","","","","-14","","Mainly Clear"
"1973-01-13 01:00","1973","01","13","01:00","-7.2","","-10.6","","80","","22","","11","","19.3","","100.24","","","","-12","","Mainly Clear"
"1973-01-13 02:00","1973","01","13","02:00","-7.8","","-10.6","","79","","21","","13","","16.1","","100.26","","","","-14","","Mainly Clear"
"1973-01-13 03:00","1973","01","13","03:00","-7.8","","-11.1","","78","","18","","13","","16.1","","100.24","","","","-14","","Mainly Clear"
"1973-01-13 04:00","1973","01","13","04:00","-7.2","","-11.1","","73","","18","","16","","19.3","","100.18","","","","-14","","Mainly Clear"
"1973-01-13 05:00","1973","01","13","05:00","-7.8","","-11.7","","75","","19","","16","","19.3","","100.16","","","","-14","","Mainly Clear"
"1973-01-13 06:00","1973","01","13","06:00","-7.8","","-11.7","","73","","19","","14","","19.3","","100.13","","","","-14","","Mostly Cloudy"
"1973-01-13 07:00","1973","01","13","07:00","-7.2","","-11.7","","73","","19","","16","","19.3","","100.15","","","","-14","","Mostly Cloudy"
"1973-01-13 08:00","1973","01","13","08:00","-6.7","","-9.4","","80","","21","","18","","16.1","","100.15","","","","-13","","Mostly Cloudy"
"1973-01-13 09:00","1973","01","13","09:00","-5.6","","-8.3","","81","","22","","19","","16.1","","100.20","","","","-12","","Mostly Cloudy"
"1973-01-13 10:00","1973","01","13","10:00","-3.9","","-7.2","","77","","21","","29","","24.1","","100.20","","","","-11","","Mostly Cloudy"
"1973-01-13 11:00","1973","01","13","11:00","-2.2","","-5.6","","77","","23","","35","","19.3","","100.16","","","","-10","","Mostly Cloudy"
"1973-01-13 12:00","1973","01","13","12:00","-1.7","","-5.6","","75","","23","","32","","19.3","","100.04","","","","-9","","Mostly Cloudy"
"1973-01-13 13:00","1973","01","13","13:00","-1.1","","-5.6","","73","","21","","26","","19.3","","99.91","","","","-7","","Mostly Cloudy"
"1973-01-13 14:00","1973","01","13","14:00","0.6","","-2.8","","79","","22","","27","","24.1","","99.82","","","","","","Mostly Cloudy"
"1973-01-13 15:00","1973","01","13","15:00","0.0","","-3.9","","75","","19","","19","","16.1","","99.75","","","","-5","","Mostly Cloudy"
"1973-01-13 16:00","1973","01","13","16:00","0.0","","-6.7","","62","","20","","27","","16.1","","99.67","","","","-6","","Mostly Cloudy"
"1973-01-13 17:00","1973","01","13","17:00","-0.6","","-7.2","","61","","20","","26","","32.2","","99.65","","","","-7","","Mostly Cloudy"
"1973-01-13 18:00","1973","01","13","18:00","-0.6","","-6.7","","64","","21","","32","","19.3","","99.64","","","","-7","","Mostly Cloudy"
"1973-01-13 19:00","1973","01","13","19:00","-0.6","","-7.2","","61","","22","","23","","24.1","","99.65","","","","-6","","Mostly Cloudy"
"1973-01-13 20:00","1973","01","13","20:00","0.0","","-5.6","","67","","22","","27","","19.3","","99.60","","","","-6","","Mostly Cloudy"
"1973-01-13 21:00","1973","01","13","21:00","-0.6","","-6.1","","65","","23","","21","","19.3","","99.56","","","","-6","","Mostly Cloudy"
"1973-01-13 22:00","1973","01","13","22:00","0.0","","-5.6","","65","","24","","31","","19.3","","99.51","","","","-7","","Mostly Cloudy"
"1973-01-13 23:00","1973","01","13","23:00","-0.6","","-5.6","","68","","23","","32","","19.3","","99.46","","","","-7","","Mostly Cloudy"
"1973-01-14 00:00","1973","01","14","00:00","-0.6","","-6.1","","65","","23","","32","","24.1","","99.41","","","","-7","","Mostly Cloudy"
"1973-01-14 01:00","1973","01","14","01:00","0.0","","-3.3","","78","","23","","32","","25.0","","99.34","","","","-7","","Mostly Cloudy"
"1973-01-14 02:00","1973","01","14","02:00","0.0","","-5.0","","70","","24","","31","","25.0","","99.32","","","","-7","","Mostly Cloudy"
"1973-01-14 03:00","1973","01","14","03:00","-0.6","","-3.3","","81","","24","","24","","25.0","","99.33","","","","-7","","Mostly Cloudy"
"1973-01-14 04:00","1973","01","14","04:00","-0.6","","-4.4","","75","","23","","27","","25.0","","99.29","","","","-7","","Cloudy"
"1973-01-14 05:00","1973","01","14","05:00","-0.6","","-6.1","","66","","23","","23","","25.0","","99.26","","","","-6","","Cloudy"
"1973-01-14 06:00","1973","01","14","06:00","-0.6","","-5.6","","70","","23","","23","","25.0","","99.26","","","","-6","","Cloudy"
"1973-01-14 07:00","1973","01","14","07:00","-0.6","","-5.6","","68","","21","","13","","25.0","","99.25","","","","-5","","Cloudy"
"1973-01-14 08:00","1973","01","14","08:00","-0.6","","-6.7","","64","","22","","18","","32.2","","99.22","","","","-6","","Cloudy"
"1973-01-14 09:00","1973","01","14","09:00","-0.6","","-5.6","","70","","22","","19","","24.1","","99.17","","","","-6","","Mostly Cloudy"
"1973-01-14 10:00","1973","01","14","10:00","-0.6","","-3.9","","76","","24","","23","","24.1","","99.15","","","","-6","","Cloudy"
"1973-01-14 11:00","1973","01","14","11:00","-0.6","","-3.3","","81","","24","","21","","19.3","","99.11","","","","-6","","Cloudy"
"1973-01-14 12:00","1973","01","14","12:00","-0.6","","-3.3","","80","","24","","24","","19.3","","98.98","","","","-7","","Snow"
"1973-01-14 13:00","1973","01","14","13:00","-1.7","","-2.8","","92","","24","","11","","4.0","","98.88","","","","-6","","Snow"
"1973-01-14 14:00","1973","01","14","14:00","-0.6","","-3.3","","82","","25","","8","","16.1","","98.85","","","","-3","","Cloudy"
"1973-01-14 15:00","1973","01","14","15:00","-0.6","","-3.3","","81","","27","","16","","19.3","","98.83","","","","-5","","Cloudy"
"1973-01-14 16:00","1973","01","14","16:00","-0.6","","-3.3","","81","","27","","10","","24.1","","98.82","","","","-4","","Cloudy"
"1973-01-14 17:00","1973","01","14","17:00","-0.6","","-4.4","","77","","26","","16","","6.4","","98.85","","","","-5","","Snow"
"1973-01-14 18:00","1973","01","14","18:00","-1.7","","-3.3","","90","","29","","10","","2.4","","98.91","","","","-5","","Snow"
"1973-01-14 19:00","1973","01","14","19:00","-1.7","","-2.8","","92","","22","","10","","4.8","","98.94","","","","-5","","Snow"
"1973-01-14 20:00","1973","01","14","20:00","-1.7","","-3.9","","87","","22","","13","","16.1","","98.94","","","","-6","","Cloudy"
"1973-01-14 21:00","1973","01","14","21:00","-1.7","","-3.3","","87","","21","","8","","12.9","","98.94","","","","-5","","Cloudy"
"1973-01-14 22:00","1973","01","14","22:00","-1.7","","-3.9","","86","","23","","10","","12.9","","98.91","","","","-5","","Cloudy"
"1973-01-14 23:00","1973","01","14","23:00","-1.1","","-3.9","","83","","26","","10","","12.9","","98.95","","","","-5","","Cloudy"
"1973-01-15 00:00","1973","01","15","00:00","-1.1","","-3.3","","88","","28","","10","","12.9","","98.91","","","","-5","","Cloudy"
"1973-01-15 01:00","1973","01","15","01:00","-1.7","","-3.3","","89","","29","","5","","9.7","","98.92","","","","-4","","Fog"
"1973-01-15 02:00","1973","01","15","02:00","-1.7","","-2.8","","91","","26","","3","","8.0","","98.94","","","","-3","","Fog"
"1973-01-15 03:00","1973","01","15","03:00","-1.7","","-3.3","","90","","","","0","","8.0","","98.96","","","","","","Fog"
"1973-01-15 04:00","1973","01","15","04:00","-2.2","","-3.3","","93","","23","","10","","6.4","","98.97","","","","-6","","Fog"
"1973-01-15 05:00","1973","01","15","05:00","-1.7","","-3.3","","90","","26","","6","","6.4","","98.99","","","","-4","","Fog"
"1973-01-15 06:00","1973","01","15","06:00","-1.7","","-3.3","","90","","27","","5","","8.0","","99.06","","","","-4","","Fog"
"1973-01-15 07:00","1973","01","15","07:00","-1.1","","-2.8","","91","","29","","10","","8.0","","99.13","","","","-5","","Fog"
"1973-01-15 08:00","1973","01","15","08:00","-0.6","","-1.7","","90","","29","","11","","4.8","","99.20","","","","-4","","Fog"
"1973-01-15 09:00","1973","01","15","09:00","0.0","","-1.7","","90","","29","","14","","4.8","","99.32","","","","-4","","Fog"
"1973-01-15 10:00","1973","01","15","10:00","0.6","","-1.1","","89","","29","","23","","4.8","","99.40","","","","","","Fog"
"1973-01-15 11:00","1973","01","15","11:00","1.1","","-1.1","","82","","28","","18","","9.7","","99.50","","","","","","Fog,Haze"
"1973-01-15 12:00","1973","01","15","12:00","1.7","","-0.6","","84","","27","","21","","9.7","","99.48","","","","","","Haze"
"1973-01-15 13:00","1973","01","15","13:00","2.2","","-1.1","","80","","30","","18","","19.3","","99.48","","","","","","Mostly Cloudy"
"1973-01-15 14:00","1973","01","15","14:00","2.2","","-2.2","","71","","31","","18","","32.2","","99.53","","","","","","Mostly Cloudy"
"1973-01-15 15:00","1973","01","15","15:00","2.2","","-1.7","","75","","30","","23","","40.2","","99.59","","","","","","Cloudy"
"1973-01-15 16:00","1973","01","15","16:00","2.2","","-1.7","","76","","31","","26","","40.2","","99.67","","","","","","Cloudy"
"1973-01-15 17:00","1973","01","15","17:00","1.7","","-1.7","","79","","29","","23","","40.2","","99.71","","","","","","Mostly Cloudy"
"1973-01-15 18:00","1973","01","15","18:00","1.7","","-2.2","","76","","30","","23","","25.0","","99.80","","","","","","Cloudy"
"1973-01-15 19:00","1973","01","15","19:00","1.1","","-1.7","","80","","30","","32","","25.0","","99.88","","","","","","Cloudy"
"1973-01-15 20:00","1973","01","15","20:00","1.1","","-1.7","","82","","29","","21","","25.0","","99.95","","","","","","Cloudy"
"1973-01-15 21:00","1973","01","15","21:00","0.6","","-2.2","","79","","29","","21","","22.5","","100.00","","","","","","Cloudy"
"1973-01-15 22:00","1973","01","15","22:00","0.6","","-2.2","","82","","27","","18","","19.3","","99.98","","","","","","Cloudy"
"1973-01-15 23:00","1973","01","15","23:00","0.0","","-2.8","","80","","27","","24","","19.3","","100.01","","","","-6","","Mostly Cloudy"
"1973-01-16 00:00","1973","01","16","00:00","-0.6","","-3.3","","83","","26","","19","","16.1","","99.99","","","","-6","","Mostly Cloudy"
"1973-01-16 01:00","1973","01","16","01:00","-0.6","","-3.3","","83","","23","","16","","16.1","","99.93","","","","-5","","Mostly Cloudy"
"1973-01-16 02:00","1973","01","16","02:00","-1.1","","-2.8","","87","","24","","24","","9.7","","99.91","","","","-7","","Fog"
"1973-01-16 03:00","1973","01","16","03:00","-1.7","","-3.3","","88","","24","","34","","8.0","","99.94","","","","-9","","Fog"
"1973-01-16 04:00","1973","01","16","04:00","-1.7","","-3.3","","90","","24","","23","","8.0","","99.89","","","","-8","","Fog"
"1973-01-16 05:00","1973","01","16","05:00","-1.7","","-2.8","","91","","23","","32","","9.7","","99.82","","","","-9","","Fog"
"1973-01-16 06:00","1973","01","16","06:00","-1.1","","-2.8","","89","","23","","23","","11.3","","99.80","","","","-7","","Cloudy"
"1973-01-16 07:00","1973","01","16","07:00","-1.1","","-2.8","","88","","23","","27","","11.3","","99.76","","","","-8","","Cloudy"
"1973-01-16 08:00","1973","01","16","08:00","-0.6","","-2.2","","90","","24","","40","","8.0","","99.77","","","","-8","","Fog"
"1973-01-16 09:00","1973","01","16","09:00","-0.6","","-1.7","","90","","23","","42","","6.4","","99.84","","","","-8","","Fog"
"1973-01-16 10:00","1973","01","16","10:00","0.0","","-1.7","","88","","24","","35","","8.0","","99.89","","","","-7","","Fog"
"1973-01-16 11:00","1973","01","16","11:00","0.6","","-1.1","","88","","24","","39","","6.4","","99.88","","","","","","Fog"
"1973-01-16 12:00","1973","01","16","12:00","1.1","","-1.1","","86","","23","","39","","6.4","","99.77","","","","","","Fog"
"1973-01-16 13:00","1973","01","16","13:00","1.7","","-1.1","","84","","23","","34","","8.0","","99.69","","","","","","Fog"
"1973-01-16 14:00","1973","01","16","14:00","2.2","","-1.1","","80","","23","","32","","9.7","","99.58","","","","","","Haze"
"1973-01-16 15:00","1973","01","16","15:00","2.2","","-0.6","","81","","22","","26","","9.7","","99.54","","","","","","Haze"
"1973-01-16 16:00","1973","01","16","16:00","2.2","","-0.6","","81","","23","","23","","9.7","","99.50","","","","","","Haze"
"1973-01-16 17:00","1973","01","16","17:00","1.7","","-1.1","","82","","23","","24","","9.7","","99.47","","","","","","Haze"
"1973-01-16 18:00","1973","01","16","18:00","1.1","","-1.1","","84","","21","","19","","9.7","","99.45","","","","","","Haze"
"1973-01-16 19:00","1973","01","16","19:00","1.7","","-1.1","","82","","23","","37","","9.7","","99.43","","","","","","Haze"
"1973-01-16 20:00","1973","01","16","20:00","2.2","","-0.6","","80","","24","","39","","12.9","","99.41","","","","","","Cloudy"
"1973-01-16 21:00","1973","01","16","21:00","2.8","","-0.6","","78","","24","","37","","12.9","","99.41","","","","","","Mainly Clear"
"1973-01-16 22:00","1973","01","16","22:00","2.8","","-0.6","","79","","24","","26","","12.9","","99.42","","","","","","Mostly Cloudy"
"1973-01-16 23:00","1973","01","16","23:00","2.8","","-0.6","","79","","23","","35","","12.9","","99.36","","","","","","Mostly Cloudy"
"1973-01-17 00:00","1973","01","17","00:00","2.8","","-0.6","","78","","24","","34","","12.9","","99.39","","","","","","Mostly Cloudy"
"1973-01-17 01:00","1973","01","17","01:00","2.8","","-0.6","","78","","24","","32","","12.9","","99.35","","","","","","Mostly Cloudy"
"1973-01-17 02:00","1973","01","17","02:00","3.3","","-0.6","","76","","24","","31","","12.9","","99.36","","","","","","Mostly Cloudy"
"1973-01-17 03:00","1973","01","17","03:00","3.3","","-0.6","","76","","24","","32","","12.9","","99.32","","","","","","Mostly Cloudy"
"1973-01-17 04:00","1973","01","17","04:00","2.8","","-0.6","","78","","24","","31","","12.9","","99.32","","","","","","Mostly Cloudy"
"1973-01-17 05:00","1973","01","17","05:00","2.8","","-1.1","","77","","24","","31","","12.9","","99.31","","","","","","Mostly Cloudy"
"1973-01-17 06:00","1973","01","17","06:00","2.2","","-0.6","","81","","24","","27","","12.9","","99.31","","","","","","Mostly Cloudy"
"1973-01-17 07:00","1973","01","17","07:00","2.2","","-0.6","","81","","24","","24","","12.9","","99.31","","","","","","Mainly Clear"
"1973-01-17 08:00","1973","01","17","08:00","1.7","","-1.1","","82","","23","","19","","12.9","","99.35","","","","","","Mostly Cloudy"
"1973-01-17 09:00","1973","01","17","09:00","2.2","","-0.6","","82","","23","","18","","12.9","","99.42","","","","","","Cloudy"
"1973-01-17 10:00","1973","01","17","10:00","3.9","","0.0","","76","","23","","23","","16.1","","99.43","","","","","","Cloudy"
"1973-01-17 11:00","1973","01","17","11:00","5.0","","1.1","","75","","24","","26","","16.1","","99.45","","","","","","Cloudy"
"1973-01-17 12:00","1973","01","17","12:00","6.1","","1.7","","74","","24","","21","","12.9","","99.43","","","","","","Cloudy"
"1973-01-17 13:00","1973","01","17","13:00","5.6","","2.2","","77","","23","","19","","9.7","","99.46","","","","","","Haze"
"1973-01-17 14:00","1973","01","17","14:00","5.6","","2.2","","80","","22","","18","","9.7","","99.46","","","","","","Haze"
"1973-01-17 15:00","1973","01","17","15:00","5.6","","2.2","","81","","24","","11","","9.7","","99.50","","","","","","Haze"
"1973-01-17 16:00","1973","01","17","16:00","5.6","","2.2","","79","","21","","6","","9.7","","99.54","","","","","","Haze"
"1973-01-17 17:00","1973","01","17","17:00","5.0","","1.7","","79","","23","","10","","12.9","","99.54","","","","","","Cloudy"
"1973-01-17 18:00","1973","01","17","18:00","5.6","","1.7","","78","","22","","14","","12.9","","99.56","","","","","","Cloudy"
"1973-01-17 19:00","1973","01","17","19:00","4.4","","1.7","","82","","22","","13","","11.3","","99.56","","","","","","Mostly Cloudy"
"1973-01-17 20:00","1973","01","17","20:00","5.6","","2.2","","81","","21","","14","","11.3","","99.56","","","","","","Cloudy"
"1973-01-17 21:00","1973","01","17","21:00","6.7","","2.8","","79","","22","","14","","11.3","","99.56","","","","","","Cloudy"
"1973-01-17 22:00","1973","01","17","22:00","6.1","","2.8","","80","","23","","16","","11.3","","99.55","","","","","","Cloudy"
"1973-01-17 23:00","1973","01","17","23:00","6.1","","2.8","","78","","23","","21","","11.3","","99.57","","","","","","Cloudy"
"1973-01-18 00:00","1973","01","18","00:00","6.1","","2.2","","78","","24","","18","","11.3","","99.55","","","","","","Cloudy"
"1973-01-18 01:00","1973","01","18","01:00","5.6","","2.8","","82","","24","","16","","11.3","","99.55","","","","","","Cloudy"
"1973-01-18 02:00","1973","01","18","02:00","5.6","","2.8","","83","","23","","16","","11.3","","99.56","","","","","","Cloudy"
"1973-01-18 03:00","1973","01","18","03:00","6.7","","3.3","","81","","24","","23","","11.3","","99.58","","","","","","Cloudy"
"1973-01-18 04:00","1973","01","18","04:00","6.1","","3.9","","86","","24","","18","","11.3","","99.55","","","","","","Cloudy"
"1973-01-18 05:00","1973","01","18","05:00","5.6","","3.9","","89","","24","","16","","11.3","","99.53","","","","","","Cloudy"
"1973-01-18 06:00","1973","01","18","06:00","5.6","","2.2","","79","","23","","13","","11.3","","99.51","","","","","","Cloudy"
"1973-01-18 07:00","1973","01","18","07:00","5.0","","2.2","","81","","23","","14","","11.3","","99.51","","","","","","Cloudy"
"1973-01-18 08:00","1973","01","18","08:00","5.6","","2.2","","77","","22","","18","","11.3","","99.52","","","","","","Cloudy"
"1973-01-18 09:00","1973","01","18","09:00","5.6","","1.7","","75","","23","","16","","12.9","","99.50","","","","","","Cloudy"
"1973-01-18 10:00","1973","01","18","10:00","6.1","","1.7","","72","","23","","19","","16.1","","99.51","","","","","","Mostly Cloudy"
"1973-01-18 11:00","1973","01","18","11:00","7.2","","2.2","","70","","24","","16","","16.1","","99.46","","","","","","Mostly Cloudy"
"1973-01-18 12:00","1973","01","18","12:00","9.4","","2.8","","63","","23","","18","","16.1","","99.36","","","","","","Cloudy"
"1973-01-18 13:00","1973","01","18","13:00","10.6","","4.4","","66","","22","","14","","16.1","","99.24","","","","","","Cloudy"
"1973-01-18 14:00","1973","01","18","14:00","10.0","","3.3","","62","","23","","18","","14.5","","99.22","","","","","","Cloudy"
"1973-01-18 15:00","1973","01","18","15:00","9.4","","3.9","","68","","22","","24","","12.9","","99.17","","","","","","Cloudy"
"1973-01-18 16:00","1973","01","18","16:00","9.4","","4.4","","71","","22","","19","","14.5","","99.13","","","","","","Cloudy"
"1973-01-18 17:00","1973","01","18","17:00","8.9","","4.4","","73","","","","0","","12.9","","99.10","","","","","","Mostly Cloudy"
"1973-01-18 18:00","1973","01","18","18:00","7.2","","3.3","","76","","22","","11","","14.5","","99.06","","","","","","Mostly Cloudy"
"1973-01-18 19:00","1973","01","18","19:00","8.3","","3.9","","75","","22","","18","","16.1","","99.02","","","","","","Mainly Clear"
"1973-01-18 20:00","1973","01","18","20:00","6.1","","3.3","","81","","16","","13","","16.1","","98.95","","","","","","Mainly Clear"
"1973-01-18 21:00","1973","01","18","21:00","7.8","","3.9","","77","","19","","19","","14.5","","98.89","","","","","","Mostly Cloudy"
"1973-01-18 22:00","1973","01","18","22:00","7.8","","3.9","","76","","18","","14","","14.5","","98.81","","","","","","Mainly Clear"
"1973-01-18 23:00","1973","01","18","23:00","7.2","","2.8","","76","","17","","16","","12.9","","98.74","","","","","","Mostly Cloudy"
"1973-01-19 00:00","1973","01","19","00:00","5.6","","2.8","","81","","16","","14","","11.3","","98.65","","","","","","Mostly Cloudy"
"1973-01-19 01:00","1973","01","19","01:00","4.4","","1.7","","82","","15","","14","","11.3","","98.51","","","","","","Mostly Cloudy"
"1973-01-19 02:00","1973","01","19","02:00","3.9","","1.1","","83","","14","","16","","11.3","","98.43","","","","","","Mostly Cloudy"
"1973-01-19 03:00","1973","01","19","03:00","3.9","","1.1","","84","","13","","16","","11.3","","98.31","","","","","","Mostly Cloudy"
"1973-01-19 04:00","1973","01","19","04:00","3.9","","1.1","","80","","13","","13","","12.9","","98.19","","","","","","Mostly Cloudy"
"1973-01-19 05:00","1973","01","19","05:00","3.9","","1.1","","80","","14","","11","","11.3","","98.08","","","","","","Mostly Cloudy"
"1973-01-19 06:00","1973","01","19","06:00","4.4","","0.6","","78","","15","","11","","11.3","","98.02","","","","","","Rain Showers"
"1973-01-19 07:00","1973","01","19","07:00","4.4","","2.8","","87","","17","","16","","9.7","","97.95","","","","","","Rain Showers,Fog"
"1973-01-19 08:00","1973","01","19","08:00","6.1","","5.0","","94","","19","","23","","4.0","","97.87","","","","","","Moderate Rain Showers,Fog"
"1973-01-19 09:00","1973","01","19","09:00","6.7","","5.6","","95","","18","","14","","4.8","","97.82","","","","","","Rain Showers,Fog"
"1973-01-19 10:00","1973","01","19","10:00","7.2","","6.1","","94","","20","","18","","4.8","","97.76","","","","","","Fog"
"1973-01-19 11:00","1973","01","19","11:00","7.8","","6.7","","94","","21","","18","","4.8","","97.70","","","","","","Fog"
"1973-01-19 12:00","1973","01","19","12:00","7.8","","6.7","","94","","21","","21","","4.8","","97.60","","","","","","Rain Showers,Fog"
"1973-01-19 13:00","1973","01","19","13:00","7.8","","7.2","","97","","20","","19","","2.4","","97.51","","","","","","Rain Showers,Fog"
"1973-01-19 14:00","1973","01","19","14:00","8.3","","7.2","","95","","22","","19","","4.8","","97.43","","","","","","Fog"
"1973-01-19 15:00","1973","01","19","15:00","7.8","","6.1","","89","","23","","24","","8.0","","97.45","","","","","","Fog"
"1973-01-19 16:00","1973","01","19","16:00","5.6","","3.3","","86","","27","","39","","32.2","","97.57","","","","","","Cloudy"
"1973-01-19 17:00","1973","01","19","17:00","3.9","","1.1","","85","","27","","29","","32.2","","97.70","","","","","","Cloudy"
"1973-01-19 18:00","1973","01","19","18:00","2.8","","0.6","","85","","28","","32","","25.0","","97.83","","","","","","Cloudy"
"1973-01-19 19:00","1973","01","19","19:00","2.8","","0.0","","82","","28","","32","","25.0","","97.93","","","","","","Cloudy"
"1973-01-19 20:00","1973","01","19","20:00","2.8","","-1.1","","78","","28","","32","","25.0","","98.03","","","","","","Cloudy"
"1973-01-19 21:00","1973","01","19","21:00","2.2","","-1.1","","78","","29","","31","","25.0","","98.07","","","","","","Cloudy"
"1973-01-19 22:00","1973","01","19","22:00","1.7","","-1.7","","79","","29","","37","","25.0","","98.12","","","","","","Cloudy"
"1973-01-19 23:00","1973","01","19","23:00","1.1","","-1.7","","82","","29","","35","","25.0","","98.16","","","","","","Cloudy"
"1973-01-20 00:00","1973","01","20","00:00","0.6","","-2.2","","83","","28","","24","","25.0","","98.19","","","","","","Cloudy"
"1973-01-20 01:00","1973","01","20","01:00","0.0","","-3.3","","78","","30","","35","","25.0","","98.29","","","","-7","","Cloudy"
"1973-01-20 02:00","1973","01","20","02:00","-1.1","","-3.3","","85","","30","","32","","25.0","","98.35","","","","-8","","Snow Pellets"
"1973-01-20 03:00","1973","01","20","03:00","-1.7","","-5.0","","77","","30","","35","","25.0","","98.45","","","","-9","","Cloudy"
"1973-01-20 04:00","1973","01","20","04:00","-1.7","","-5.0","","80","","30","","32","","25.0","","98.48","","","","-9","","Snow Showers"
"1973-01-20 05:00","1973","01","20","05:00","-2.8","","-6.7","","74","","32","","29","","25.0","","98.57","","","","-10","","Cloudy"
"1973-01-20 06:00","1973","01","20","06:00","-5.0","","-8.3","","77","","34","","43","","25.0","","98.75","","","","-14","","Cloudy"
"1973-01-20 07:00","1973","01","20","07:00","-6.7","","-11.1","","72","","35","","45","","25.0","","98.87","","","","-17","","Mostly Cloudy"
"1973-01-20 08:00","1973","01","20","08:00","-6.7","","-10.6","","76","","35","","45","","19.3","","99.04","","","","-17","","Snow Showers"
"1973-01-20 09:00","1973","01","20","09:00","-7.2","","-11.1","","75","","35","","42","","32.2","","99.18","","","","-17","","Snow Showers"
"1973-01-20 10:00","1973","01","20","10:00","-7.2","","-12.2","","67","","36","","42","","40.2","","99.34","","","","-17","","Mainly Clear"
"1973-01-20 11:00","1973","01","20","11:00","-6.1","","-10.6","","72","","1","","40","","40.2","","99.43","","","","-16","","Mainly Clear"
"1973-01-20 12:00","1973","01","20","12:00","-5.6","","-10.6","","68","","1","","42","","40.2","","99.53","","","","-15","","Mainly Clear"
"1973-01-20 13:00","1973","01","20","13:00","-4.4","","-10.6","","62","","36","","39","","40.2","","99.57","","","","-13","","Clear"
"1973-01-20 14:00","1973","01","20","14:00","-3.9","","-10.0","","63","","35","","35","","40.2","","99.62","","","","-12","","Mainly Clear"
"1973-01-20 15:00","1973","01","20","15:00","-3.9","","-8.9","","67","","34","","32","","40.2","","99.70","","","","-12","","Mainly Clear"
"1973-01-20 16:00","1973","01","20","16:00","-4.4","","-9.4","","69","","34","","35","","40.2","","99.81","","","","-13","","Mainly Clear"
"1973-01-20 17:00","1973","01","20","17:00","-5.6","","-8.9","","78","","35","","35","","40.2","","99.84","","","","-14","","Clear"
"1973-01-20 18:00","1973","01","20","18:00","-6.7","","-8.9","","85","","34","","26","","25.0","","99.91","","","","-15","","Clear"
"1973-01-20 19:00","1973","01","20","19:00","-6.7","","-9.4","","81","","35","","35","","25.0","","99.93","","","","-16","","Clear"
"1973-01-20 20:00","1973","01","20","20:00","-7.2","","-8.9","","86","","36","","32","","25.0","","99.98","","","","-16","","Clear"
"1973-01-20 21:00","1973","01","20","21:00","-6.7","","-8.9","","84","","36","","26","","25.0","","100.09","","","","-15","","Clear"
"1973-01-20 22:00","1973","01","20","22:00","-7.2","","-11.7","","72","","36","","24","","25.0","","100.12","","","","-15","","Clear"
"1973-01-20 23:00","1973","01","20","23:00","-8.3","","-12.8","","72","","36","","31","","25.0","","100.16","","","","-17","","Clear"
"1973-01-21 00:00","1973","01","21","00:00","-8.9","","-12.8","","75","","1","","27","","25.0","","100.21","","","","-18","","Clear"
"1973-01-21 01:00","1973","01","21","01:00","-10.0","","-13.3","","76","","1","","14","","25.0","","100.30","","","","-16","","Clear"
"1973-01-21 02:00","1973","01","21","02:00","-10.0","","-13.9","","75","","2","","14","","25.0","","100.31","","","","-16","","Clear"
"1973-01-21 03:00","1973","01","21","03:00","-10.6","","-13.9","","76","","1","","13","","25.0","","100.36","","","","-17","","Clear"
"1973-01-21 04:00","1973","01","21","04:00","-11.1","","-14.4","","77","","2","","5","","25.0","","100.36","","","","-14","","Clear"
"1973-01-21 05:00","1973","01","21","05:00","-12.2","","-14.4","","82","","34","","6","","25.0","","100.32","","","","-16","","Mainly Clear"
"1973-01-21 06:00","1973","01","21","06:00","-12.2","","-14.4","","85","","33","","8","","25.0","","100.32","","","","-17","","Mainly Clear"
"1973-01-21 07:00","1973","01","21","07:00","-12.8","","-14.4","","87","","36","","10","","25.0","","100.35","","","","-19","","Mainly Clear"
"1973-01-21 08:00","1973","01","21","08:00","-12.2","","-13.9","","86","","35","","10","","40.2","","100.41","","","","-18","","Mostly Cloudy"
"1973-01-21 09:00","1973","01","21","09:00","-9.4","","-12.8","","79","","3","","10","","40.2","","100.39","","","","-15","","Mainly Clear"
"1973-01-21 10:00","1973","01","21","10:00","-7.2","","-10.0","","79","","","","0","","40.2","","100.39","","","","","","Mainly Clear"
"1973-01-21 11:00","1973","01","21","11:00","-4.4","","-8.3","","75","","14","","8","","24.1","","100.38","","","","-8","","Mostly Cloudy"
"1973-01-21 12:00","1973","01","21","12:00","-3.9","","-6.1","","82","","13","","14","","24.1","","100.31","","","","-9","","Mostly Cloudy"
"1973-01-21 13:00","1973","01","21","13:00","-2.2","","-5.0","","81","","11","","16","","32.2","","100.19","","","","-7","","Mostly Cloudy"
"1973-01-21 14:00","1973","01","21","14:00","-1.1","","-4.4","","79","","8","","19","","32.2","","100.09","","","","-6","","Mostly Cloudy"
"1973-01-21 15:00","1973","01","21","15:00","-1.1","","-3.9","","82","","8","","19","","32.2","","100.02","","","","-6","","Mostly Cloudy"
"1973-01-21 16:00","1973","01","21","16:00","-2.2","","-5.0","","82","","11","","21","","40.2","","99.93","","","","-8","","Mostly Cloudy"
"1973-01-21 17:00","1973","01","21","17:00","-3.3","","-5.0","","88","","11","","18","","40.2","","99.90","","","","-9","","Mostly Cloudy"
"1973-01-21 18:00","1973","01","21","18:00","-3.3","","-4.4","","91","","11","","16","","25.0","","99.83","","","","-9","","Mostly Cloudy"
"1973-01-21 19:00","1973","01","21","19:00","-3.3","","-4.4","","91","","11","","13","","25.0","","99.79","","","","-8","","Mainly Clear"
"1973-01-21 20:00","1973","01","21","20:00","-2.2","","-3.9","","91","","10","","16","","25.0","","99.73","","","","-7","","Cloudy"
"1973-01-21 21:00","1973","01","21","21:00","-2.2","","-3.3","","90","","10","","11","","25.0","","99.69","","","","-6","","Mostly Cloudy"
"1973-01-21 22:00","1973","01","21","22:00","-1.7","","-3.3","","89","","9","","8","","19.3","","99.59","","","","-5","","Cloudy"
"1973-01-21 23:00","1973","01","21","23:00","-1.1","","-2.2","","93","","8","","10","","19.3","","99.48","","","","-5","","Cloudy"
"1973-01-22 00:00","1973","01","22","00:00","-2.2","","-3.3","","95","","4","","6","","16.1","","99.39","","","","-5","","Cloudy"
"1973-01-22 01:00","1973","01","22","01:00","0.0","","0.0","","98","","11","","10","","19.3","","99.28","","","","-3","","Cloudy"
"1973-01-22 02:00","1973","01","22","02:00","0.6","","-0.6","","91","","10","","13","","19.3","","99.21","","","","","","Cloudy"
"1973-01-22 03:00","1973","01","22","03:00","-0.6","","-1.1","","95","","2","","5","","19.3","","99.19","","","","-2","","Cloudy"
"1973-01-22 04:00","1973","01","22","04:00","0.0","","-1.1","","93","","5","","5","","24.1","","99.10","","","","-2","","Cloudy"
"1973-01-22 05:00","1973","01","22","05:00","0.6","","-1.1","","90","","24","","11","","19.3","","99.00","","","","","","Rain"
"1973-01-22 06:00","1973","01","22","06:00","1.7","","-1.1","","83","","12","","13","","24.1","","98.89","","","","","","Rain"
"1973-01-22 07:00","1973","01","22","07:00","2.2","","0.0","","87","","10","","18","","9.7","","98.68","","","","","","Rain,Fog"
"1973-01-22 08:00","1973","01","22","08:00","2.8","","1.7","","93","","12","","14","","4.8","","98.65","","","","","","Rain,Fog"
"1973-01-22 09:00","1973","01","22","09:00","3.3","","3.3","","98","","11","","21","","3.2","","98.54","","","","","","Rain,Fog"
"1973-01-22 10:00","1973","01","22","10:00","3.9","","3.3","","97","","11","","14","","3.2","","98.47","","","","","","Fog"
"1973-01-22 11:00","1973","01","22","11:00","4.4","","3.9","","96","","11","","14","","4.8","","98.35","","","","","","Rain,Fog"
"1973-01-22 12:00","1973","01","22","12:00","4.4","","4.4","","98","","11","","13","","4.8","","98.21","","","","","","Fog"
"1973-01-22 13:00","1973","01","22","13:00","5.0","","4.4","","97","","11","","13","","3.2","","98.05","","","","","","Fog"
"1973-01-22 14:00","1973","01","22","14:00","6.1","","5.6","","95","","12","","13","","6.4","","97.91","","","","","","Fog"
"1973-01-22 15:00","1973","01","22","15:00","7.8","","5.6","","85","","14","","14","","19.3","","97.82","","","","","","Mainly Clear"
"1973-01-22 16:00","1973","01","22","16:00","7.8","","5.0","","86","","16","","11","","19.3","","97.76","","","","","","Mainly Clear"
"1973-01-22 17:00","1973","01","22","17:00","6.1","","4.4","","89","","13","","10","","8.0","","97.71","","","","","","Fog"
"1973-01-22 18:00","1973","01","22","18:00","5.0","","3.9","","93","","9","","10","","4.8","","97.65","","","","","","Fog"
"1973-01-22 19:00","1973","01","22","19:00","5.6","","4.4","","91","","27","","10","","9.7","","97.74","","","","","","Rain Showers,Fog"
"1973-01-22 20:00","1973","01","22","20:00","5.0","","3.9","","95","","13","","10","","12.9","","97.68","","","","","","Rain Showers"
"1973-01-22 21:00","1973","01","22","21:00","4.4","","4.4","","97","","18","","13","","4.0","","97.66","","","","","","Rain Showers,Fog"
"1973-01-22 22:00","1973","01","22","22:00","4.4","","4.4","","98","","18","","11","","6.4","","97.63","","","","","","Rain Showers,Fog"
"1973-01-22 23:00","1973","01","22","23:00","4.4","","3.9","","97","","19","","11","","9.7","","97.56","","","","","","Rain Showers,Fog"
"1973-01-23 00:00","1973","01","23","00:00","4.4","","2.8","","90","","23","","29","","24.1","","97.51","","","","","","Cloudy"
"1973-01-23 01:00","1973","01","23","01:00","3.9","","2.2","","90","","24","","26","","25.0","","97.49","","","","","","Cloudy"
"1973-01-23 02:00","1973","01","23","02:00","3.3","","1.7","","89","","24","","29","","25.0","","97.50","","","","","","Rain"
"1973-01-23 03:00","1973","01","23","03:00","2.8","","1.1","","88","","24","","24","","25.0","","97.54","","","","","","Rain"
"1973-01-23 04:00","1973","01","23","04:00","2.2","","0.6","","88","","24","","24","","25.0","","97.56","","","","","","Rain"
"1973-01-23 05:00","1973","01","23","05:00","1.1","","0.0","","92","","24","","26","","24.1","","97.61","","","","","","Rain"
"1973-01-23 06:00","1973","01","23","06:00","1.7","","-0.6","","87","","23","","26","","24.1","","97.63","","","","","","Drizzle"
"1973-01-23 07:00","1973","01","23","07:00","1.7","","-0.6","","84","","24","","37","","24.1","","97.68","","","","","","Drizzle"
"1973-01-23 08:00","1973","01","23","08:00","1.7","","0.0","","88","","24","","31","","16.1","","97.80","","","","","","Cloudy"
"1973-01-23 09:00","1973","01","23","09:00","1.7","","0.6","","91","","24","","29","","16.1","","97.87","","","","","","Cloudy"
"1973-01-23 10:00","1973","01","23","10:00","1.7","","0.6","","91","","24","","26","","16.1","","97.93","","","","","","Rain"
"1973-01-23 11:00","1973","01","23","11:00","1.7","","0.6","","93","","24","","24","","8.0","","97.96","","","","","","Rain,Fog"
"1973-01-23 12:00","1973","01","23","12:00","1.7","","0.6","","91","","24","","24","","11.3","","97.95","","","","","","Rain"
"1973-01-23 13:00","1973","01","23","13:00","1.7","","0.6","","91","","25","","23","","12.9","","97.94","","","","","","Rain"
"1973-01-23 14:00","1973","01","23","14:00","2.2","","0.6","","88","","25","","26","","24.1","","97.92","","","","","","Rain"
"1973-01-23 15:00","1973","01","23","15:00","2.2","","0.0","","85","","25","","23","","19.3","","97.96","","","","","","Rain Showers,Snow Showers"
"1973-01-23 16:00","1973","01","23","16:00","2.2","","0.0","","85","","25","","19","","19.3","","97.97","","","","","","Rain Showers,Snow Showers"
"1973-01-23 17:00","1973","01","23","17:00","1.7","","-0.6","","84","","25","","21","","19.3","","98.07","","","","","","Snow Showers"
"1973-01-23 18:00","1973","01","23","18:00","1.1","","-1.7","","81","","26","","23","","19.3","","98.16","","","","","","Snow Showers"
"1973-01-23 19:00","1973","01","23","19:00","1.1","","-1.7","","83","","27","","21","","25.0","","98.23","","","","","","Snow Showers"
"1973-01-23 20:00","1973","01","23","20:00","1.1","","-0.6","","91","","26","","23","","25.0","","98.29","","","","","","Cloudy"
"1973-01-23 21:00","1973","01","23","21:00","0.6","","-1.7","","85","","27","","27","","24.1","","98.35","","","","","","Snow Showers"
"1973-01-23 22:00","1973","01","23","22:00","0.6","","-1.1","","90","","24","","10","","12.9","","98.38","","","","","","Snow Pellets"
"1973-01-23 23:00","1973","01","23","23:00","0.0","","-1.7","","89","","28","","13","","12.9","","98.41","","","","-4","","Snow Showers"
"1973-01-24 00:00","1973","01","24","00:00","0.0","","-2.8","","83","","29","","24","","25.0","","98.41","","","","-6","","Mainly Clear"
"1973-01-24 01:00","1973","01","24","01:00","0.0","","-2.8","","84","","26","","16","","25.0","","98.42","","","","-5","","Mostly Cloudy"
"1973-01-24 02:00","1973","01","24","02:00","-0.6","","-3.3","","81","","28","","19","","25.0","","98.48","","","","-6","","Mostly Cloudy"
"1973-01-24 03:00","1973","01","24","03:00","-0.6","","-4.4","","77","","30","","27","","25.0","","98.56","","","","-7","","Mostly Cloudy"
"1973-01-24 04:00","1973","01","24","04:00","-0.6","","-5.0","","73","","28","","19","","25.0","","98.63","","","","-6","","Mostly Cloudy"
"1973-01-24 05:00","1973","01","24","05:00","-0.6","","-5.0","","74","","29","","27","","25.0","","98.67","","","","-7","","Cloudy"
"1973-01-24 06:00","1973","01","24","06:00","-1.1","","-4.4","","77","","28","","24","","25.0","","98.75","","","","-7","","Snow Showers"
"1973-01-24 07:00","1973","01","24","07:00","-1.1","","-3.9","","81","","29","","23","","25.0","","98.82","","","","-7","","Snow Showers"
"1973-01-24 08:00","1973","01","24","08:00","-1.1","","-4.4","","79","","30","","16","","40.2","","98.91","","","","-6","","Snow Showers"
"1973-01-24 09:00","1973","01","24","09:00","-1.1","","-5.6","","75","","29","","21","","16.1","","98.97","","","","-7","","Snow Showers"
"1973-01-24 10:00","1973","01","24","10:00","-1.7","","-4.4","","83","","29","","18","","6.4","","99.05","","","","-7","","Snow"
"1973-01-24 11:00","1973","01","24","11:00","-1.1","","-3.3","","84","","29","","18","","6.4","","99.09","","","","-6","","Snow"
"1973-01-24 12:00","1973","01","24","12:00","-1.1","","-4.4","","77","","32","","18","","16.1","","99.10","","","","-6","","Snow"
"1973-01-24 13:00","1973","01","24","13:00","-1.1","","-5.0","","76","","32","","19","","24.1","","99.13","","","","-6","","Cloudy"
"1973-01-24 14:00","1973","01","24","14:00","-1.1","","-5.6","","72","","32","","18","","40.2","","99.15","","","","-6","","Mostly Cloudy"
"1973-01-24 15:00","1973","01","24","15:00","-1.1","","-5.0","","75","","32","","26","","40.2","","99.20","","","","-7","","Mostly Cloudy"
"1973-01-24 16:00","1973","01","24","16:00","-1.1","","-6.1","","70","","31","","19","","40.2","","99.25","","","","-6","","Mainly Clear"
"1973-01-24 17:00","1973","01","24","17:00","-1.7","","-6.1","","74","","32","","23","","40.2","","99.32","","","","-8","","Mainly Clear"
"1973-01-24 18:00","1973","01","24","18:00","-3.3","","-6.7","","78","","32","","18","","25.0","","99.43","","","","-9","","Mainly Clear"
"1973-01-24 19:00","1973","01","24","19:00","-5.0","","-7.8","","81","","31","","6","","25.0","","99.50","","","","-8","","Mainly Clear"
"1973-01-24 20:00","1973","01","24","20:00","-5.6","","-7.2","","87","","31","","13","","25.0","","99.54","","","","-11","","Mainly Clear"
"1973-01-24 21:00","1973","01","24","21:00","-5.0","","-7.2","","84","","25","","10","","25.0","","99.56","","","","-9","","Clear"
"1973-01-24 22:00","1973","01","24","22:00","-5.0","","-7.2","","83","","26","","11","","25.0","","99.57","","","","-10","","Clear"
"1973-01-24 23:00","1973","01","24","23:00","-5.6","","-7.8","","84","","24","","10","","25.0","","99.55","","","","-10","","Clear"
"1973-01-25 00:00","1973","01","25","00:00","-5.6","","-7.8","","83","","21","","10","","25.0","","99.50","","","","-10","","Clear"
"1973-01-25 01:00","1973","01","25","01:00","-6.1","","-8.3","","84","","21","","10","","25.0","","99.48","","","","-11","","Mainly Clear"
"1973-01-25 02:00","1973","01","25","02:00","-5.6","","-7.8","","83","","22","","11","","25.0","","99.45","","","","-10","","Mainly Clear"
"1973-01-25 03:00","1973","01","25","03:00","-5.6","","-7.8","","84","","18","","11","","25.0","","99.45","","","","-10","","Clear"
"1973-01-25 04:00","1973","01","25","04:00","-5.6","","-7.8","","85","","22","","10","","24.1","","99.38","","","","-10","","Mainly Clear"
"1973-01-25 05:00","1973","01","25","05:00","-5.6","","-7.8","","85","","18","","8","","19.3","","99.36","","","","-9","","Mainly Clear"
"1973-01-25 06:00","1973","01","25","06:00","-5.0","","-6.7","","88","","23","","10","","12.9","","99.30","","","","-9","","Mostly Cloudy"
"1973-01-25 07:00","1973","01","25","07:00","-3.9","","-6.1","","86","","22","","11","","12.9","","99.30","","","","-8","","Mostly Cloudy"
"1973-01-25 08:00","1973","01","25","08:00","-2.2","","-3.9","","88","","20","","14","","11.3","","99.27","","","","-7","","Mostly Cloudy"
"1973-01-25 09:00","1973","01","25","09:00","-1.1","","-3.3","","84","","23","","23","","14.5","","99.21","","","","-7","","Mostly Cloudy"
"1973-01-25 10:00","1973","01","25","10:00","0.0","","-2.8","","82","","25","","37","","14.5","","99.17","","","","-7","","Mostly Cloudy"
"1973-01-25 11:00","1973","01","25","11:00","0.6","","-2.2","","80","","26","","24","","14.5","","99.12","","","","","","Mostly Cloudy"
"1973-01-25 12:00","1973","01","25","12:00","3.3","","-1.1","","73","","24","","16","","14.5","","98.96","","","","","","Mostly Cloudy"
"1973-01-25 13:00","1973","01","25","13:00","5.6","","-1.1","","63","","28","","24","","14.5","","98.95","","","","","","Mostly Cloudy"
"1973-01-25 14:00","1973","01","25","14:00","6.1","","-1.1","","60","","28","","26","","19.3","","98.93","","","","","","Mostly Cloudy"
"1973-01-25 15:00","1973","01","25","15:00","5.6","","-1.1","","63","","29","","23","","19.3","","98.98","","","","","","Mainly Clear"
"1973-01-25 16:00","1973","01","25","16:00","5.0","","-0.6","","67","","29","","24","","12.9","","99.04","","","","","","Mainly Clear"
"1973-01-25 17:00","1973","01","25","17:00","3.3","","0.0","","80","","28","","18","","12.9","","99.16","","","","","","Mainly Clear"
"1973-01-25 18:00","1973","01","25","18:00","2.2","","-0.6","","81","","28","","13","","12.9","","99.23","","","","","","Mainly Clear"
"1973-01-25 19:00","1973","01","25","19:00","1.1","","-1.1","","85","","27","","10","","12.9","","99.36","","","","","","Mainly Clear"
"1973-01-25 20:00","1973","01","25","20:00","1.1","","-1.1","","86","","28","","8","","11.3","","99.42","","","","","","Mainly Clear"
"1973-01-25 21:00","1973","01","25","21:00","0.6","","-1.1","","89","","31","","10","","11.3","","99.45","","","","","","Mainly Clear"
"1973-01-25 22:00","1973","01","25","22:00","0.0","","-1.1","","91","","29","","10","","9.7","","99.55","","","","-3","","Fog"
"1973-01-25 23:00","1973","01","25","23:00","-1.1","","-2.8","","91","","35","","13","","11.3","","99.55","","","","-5","","Mainly Clear"
"1973-01-26 00:00","1973","01","26","00:00","-0.6","","-2.2","","90","","21","","6","","9.7","","99.55","","","","-3","","Fog"
"1973-01-26 01:00","1973","01","26","01:00","-0.6","","-2.2","","89","","22","","13","","9.7","","99.56","","","","-5","","Fog"
"1973-01-26 02:00","1973","01","26","02:00","-0.6","","-1.7","","91","","23","","11","","8.0","","99.63","","","","-4","","Fog"
"1973-01-26 03:00","1973","01","26","03:00","-1.7","","-2.8","","93","","26","","5","","8.0","","99.62","","","","-4","","Fog"
"1973-01-26 04:00","1973","01","26","04:00","-1.1","","-2.2","","92","","26","","8","","8.0","","99.67","","","","-4","","Fog"
"1973-01-26 05:00","1973","01","26","05:00","-1.7","","-2.2","","94","","29","","3","","8.0","","99.65","","","","-3","","Fog"
"1973-01-26 06:00","1973","01","26","06:00","-3.9","","-5.0","","93","","32","","10","","6.4","","99.67","","","","-8","","Fog"
"1973-01-26 07:00","1973","01","26","07:00","-2.8","","-3.3","","95","","3","","13","","6.4","","99.71","","","","-7","","Fog"
"1973-01-26 08:00","1973","01","26","08:00","-3.3","","-3.9","","94","","36","","5","","4.8","","99.76","","","","-5","","Fog"
"1973-01-26 09:00","1973","01","26","09:00","-0.6","","-1.7","","93","","13","","5","","4.8","","99.77","","","","-2","","Fog"
"1973-01-26 10:00","1973","01","26","10:00","1.1","","-2.2","","78","","16","","8","","4.0","","99.77","","","","","","Haze"
"1973-01-26 11:00","1973","01","26","11:00","3.3","","0.6","","82","","14","","14","","4.8","","99.79","","","","","","Haze"
"1973-01-26 12:00","1973","01","26","12:00","3.9","","1.1","","84","","14","","11","","4.8","","99.70","","","","","","Fog"
"1973-01-26 13:00","1973","01","26","13:00","4.4","","1.7","","82","","11","","10","","4.8","","99.58","","","","","","Haze"
"1973-01-26 14:00","1973","01","26","14:00","5.0","","2.2","","83","","14","","13","","4.8","","99.53","","","","","","Haze"
"1973-01-26 15:00","1973","01","26","15:00","4.4","","1.7","","82","","13","","10","","4.8","","99.48","","","","","","Haze"
"1973-01-26 16:00","1973","01","26","16:00","4.4","","2.2","","83","","16","","10","","4.8","","99.46","","","","","","Haze"
"1973-01-26 17:00","1973","01","26","17:00","2.8","","1.1","","90","","16","","11","","4.0","","99.45","","","","","","Fog"
"1973-01-26 18:00","1973","01","26","18:00","0.0","","0.0","","100","","16","","13","","0.0","","99.51","","","","-4","","Fog"
"1973-01-26 19:00","1973","01","26","19:00","0.6","","0.6","","100","","15","","13","","0.0","","99.53","","","","","","Fog"
"1973-01-26 20:00","1973","01","26","20:00","1.1","","1.1","","100","","16","","6","","0.0","","99.55","","","","","","Fog"
"1973-01-26 21:00","1973","01","26","21:00","1.1","","1.1","","100","","2","","6","","0.0","","99.48","","","","","","Fog"
"1973-01-26 22:00","1973","01","26","22:00","1.1","","1.1","","100","","5","","10","","0.0","","99.41","","","","","","Fog"
"1973-01-26 23:00","1973","01","26","23:00","0.6","","0.6","","100","","2","","6","","0.2","","99.41","","","","","","Fog"
"1973-01-27 00:00","1973","01","27","00:00","0.0","","0.0","","100","","1","","14","","0.2","","99.34","","","","-4","","Fog"
"1973-01-27 01:00","1973","01","27","01:00","0.6","","0.6","","100","","1","","11","","0.2","","99.32","","","","","","Fog"
"1973-01-27 02:00","1973","01","27","02:00","0.0","","0.0","","100","","2","","10","","0.2","","99.30","","","","-3","","Fog"
"1973-01-27 03:00","1973","01","27","03:00","0.0","","0.0","","100","","35","","3","","0.0","","99.28","","","","-1","","Fog"
"1973-01-27 04:00","1973","01","27","04:00","-0.6","","-0.6","","100","","1","","13","","0.0","","99.18","","","","-5","","Fog"
"1973-01-27 05:00","1973","01","27","05:00","-0.6","","-0.6","","99","","36","","11","","0.2","","99.13","","","","-4","","Fog"
"1973-01-27 06:00","1973","01","27","06:00","-1.1","","-1.1","","99","","36","","10","","2.0","","99.15","","","","-5","","Fog"
"1973-01-27 07:00","1973","01","27","07:00","-0.6","","-0.6","","99","","35","","13","","3.2","","99.22","","","","-5","","Fog"
"1973-01-27 08:00","1973","01","27","08:00","-1.1","","-1.1","","98","","36","","18","","2.8","","99.24","","","","-6","","Fog"
"1973-01-27 09:00","1973","01","27","09:00","-0.6","","-1.1","","97","","36","","18","","3.2","","99.24","","","","-6","","Fog"
"1973-01-27 10:00","1973","01","27","10:00","0.6","","-1.1","","89","","36","","14","","3.2","","99.26","","","","","","Fog"
"1973-01-27 11:00","1973","01","27","11:00","2.2","","1.1","","92","","2","","13","","4.8","","99.26","","","","","","Fog"
"1973-01-27 12:00","1973","01","27","12:00","3.9","","1.7","","86","","10","","24","","6.4","","99.20","","","","","","Fog"
"1973-01-27 13:00","1973","01","27","13:00","2.8","","1.1","","87","","11","","14","","6.4","","99.15","","","","","","Fog"
"1973-01-27 14:00","1973","01","27","14:00","2.2","","0.6","","89","","5","","18","","8.0","","99.13","","","","","","Fog"
"1973-01-27 15:00","1973","01","27","15:00","2.2","","0.0","","87","","7","","21","","8.0","","99.17","","","","","","Fog"
"1973-01-27 16:00","1973","01","27","16:00","1.1","","-0.6","","90","","4","","19","","8.0","","99.17","","","","","","Fog"
"1973-01-27 17:00","1973","01","27","17:00","1.1","","-0.6","","91","","7","","14","","8.0","","99.21","","","","","","Fog"
"1973-01-27 18:00","1973","01","27","18:00","1.1","","0.0","","92","","6","","16","","8.0","","99.22","","","","","","Fog"
"1973-01-27 19:00","1973","01","27","19:00","1.7","","0.0","","92","","8","","19","","9.7","","99.28","","","","","","Fog"
"1973-01-27 20:00","1973","01","27","20:00","1.1","","0.0","","92","","7","","21","","11.3","","99.33","","","","","","Cloudy"
"1973-01-27 21:00","1973","01","27","21:00","1.1","","-0.6","","90","","7","","16","","12.9","","99.29","","","","","","Cloudy"
"1973-01-27 22:00","1973","01","27","22:00","1.1","","-1.1","","88","","6","","14","","12.9","","99.24","","","","","","Cloudy"
"1973-01-27 23:00","1973","01","27","23:00","0.6","","-1.1","","89","","5","","10","","12.9","","99.23","","","","","","Cloudy"
"1973-01-28 00:00","1973","01","28","00:00","0.6","","-0.6","","92","","3","","10","","12.9","","99.15","","","","","","Cloudy"
"1973-01-28 01:00","1973","01","28","01:00","0.6","","-1.1","","89","","7","","13","","12.9","","99.10","","","","","","Cloudy"
"1973-01-28 02:00","1973","01","28","02:00","0.6","","-1.1","","87","","10","","13","","16.1","","99.04","","","","","","Cloudy"
"1973-01-28 03:00","1973","01","28","03:00","0.6","","-1.1","","88","","8","","16","","16.1","","99.04","","","","","","Rain"
"1973-01-28 04:00","1973","01","28","04:00","0.6","","-0.6","","94","","11","","21","","14.5","","98.99","","","","","","Rain"
"1973-01-28 05:00","1973","01","28","05:00","-0.6","","-2.2","","88","","9","","18","","14.5","","98.94","","","","-6","","Freezing Rain"
"1973-01-28 06:00","1973","01","28","06:00","-0.6","","-2.2","","88","","9","","18","","12.9","","98.89","","","","-6","","Freezing Rain,Ice Pellets"
"1973-01-28 07:00","1973","01","28","07:00","-1.1","","-2.2","","91","","9","","16","","12.9","","98.85","","","","-6","","Freezing Rain"
"1973-01-28 08:00","1973","01","28","08:00","-1.1","","-1.7","","95","","8","","13","","4.8","","98.84","","","","-5","","Freezing Rain,Freezing Drizzle,Fog"
"1973-01-28 09:00","1973","01","28","09:00","-1.1","","-1.7","","97","","5","","13","","2.4","","98.82","","","","-5","","Freezing Drizzle,Fog"
"1973-01-28 10:00","1973","01","28","10:00","-1.7","","-1.7","","98","","6","","16","","4.0","","98.76","","","","-7","","Freezing Rain,Fog"
"1973-01-28 11:00","1973","01","28","11:00","-1.7","","-2.2","","96","","3","","18","","8.0","","98.74","","","","-7","","Fog"
"1973-01-28 12:00","1973","01","28","12:00","-2.2","","-2.8","","96","","3","","13","","4.8","","98.64","","","","-7","","Freezing Rain,Fog"
"1973-01-28 13:00","1973","01","28","13:00","-2.2","","-2.2","","97","","1","","13","","4.0","","98.52","","","","-7","","Snow Showers"
"1973-01-28 14:00","1973","01","28","14:00","-1.7","","-2.2","","94","","36","","18","","4.0","","98.41","","","","-7","","Snow Showers"
"1973-01-28 15:00","1973","01","28","15:00","-1.7","","-3.3","","90","","36","","18","","2.0","","98.37","","","","-7","","Snow"
"1973-01-28 16:00","1973","01","28","16:00","-1.7","","-2.8","","93","","1","","14","","1.6","","98.43","","","","-6","","Snow"
"1973-01-28 17:00","1973","01","28","17:00","-2.2","","-3.3","","94","","36","","13","","1.2","","98.45","","","","-7","","Snow"
"1973-01-28 18:00","1973","01","28","18:00","-2.8","","-3.3","","96","","1","","18","","2.0","","98.47","","","","-8","","Snow"
"1973-01-28 19:00","1973","01","28","19:00","-2.8","","-3.3","","95","","1","","27","","3.2","","98.48","","","","-10","","Snow"
"1973-01-28 20:00","1973","01","28","20:00","-3.9","","-5.6","","89","","35","","24","","4.0","","98.50","","","","-11","","Snow"
"1973-01-28 21:00","1973","01","28","21:00","-4.4","","-5.6","","91","","35","","27","","4.8","","98.53","","","","-12","","Snow"
"1973-01-28 22:00","1973","01","28","22:00","-5.6","","-7.8","","84","","36","","26","","3.2","","98.58","","","","-13","","Snow"
"1973-01-28 23:00","1973","01","28","23:00","-6.1","","-8.9","","83","","35","","37","","4.8","","98.60","","","","-15","","Snow"
"1973-01-29 00:00","1973","01","29","00:00","-7.2","","-10.6","","80","","35","","43","","9.7","","98.65","","","","-17","","Snow"
"1973-01-29 01:00","1973","01","29","01:00","-8.9","","-12.8","","76","","36","","39","","25.0","","98.70","","","","-19","","Cloudy"
"1973-01-29 02:00","1973","01","29","02:00","-11.1","","-14.4","","78","","35","","50","","25.0","","98.77","","","","-23","","Mostly Cloudy"
"1973-01-29 03:00","1973","01","29","03:00","-12.2","","-15.0","","82","","35","","45","","25.0","","98.83","","","","-24","","Mainly Clear"
"1973-01-29 04:00","1973","01","29","04:00","-12.8","","-16.1","","74","","36","","42","","25.0","","98.85","","","","-25","","Mostly Cloudy"
"1973-01-29 05:00","1973","01","29","05:00","-12.2","","-16.1","","73","","1","","50","","25.0","","98.87","","","","-25","","Mainly Clear"
"1973-01-29 06:00","1973","01","29","06:00","-12.2","","-16.1","","73","","36","","40","","25.0","","99.00","","","","-24","","Mainly Clear"
"1973-01-29 07:00","1973","01","29","07:00","-12.2","","-16.1","","74","","1","","34","","25.0","","99.08","","","","-23","","Mainly Clear"
"1973-01-29 08:00","1973","01","29","08:00","-12.2","","-15.0","","80","","36","","31","","40.2","","99.16","","","","-23","","Mainly Clear"
"1973-01-29 09:00","1973","01","29","09:00","-11.1","","-13.9","","81","","35","","35","","40.2","","99.26","","","","-22","","Mainly Clear"
"1973-01-29 10:00","1973","01","29","10:00","-11.1","","-14.4","","76","","34","","48","","40.2","","99.36","","","","-23","","Mainly Clear"
"1973-01-29 11:00","1973","01","29","11:00","-11.1","","-15.0","","73","","36","","51","","40.2","","99.42","","","","-23","","Mainly Clear"
"1973-01-29 12:00","1973","01","29","12:00","-10.6","","-14.4","","75","","35","","45","","40.2","","99.41","","","","-22","","Snow Showers"
"1973-01-29 13:00","1973","01","29","13:00","-11.1","","-15.0","","71","","34","","53","","40.2","","99.39","","","","-24","","Mainly Clear"
"1973-01-29 14:00","1973","01","29","14:00","-10.6","","-15.6","","68","","35","","42","","40.2","","99.40","","","","-22","","Mainly Clear"
"1973-01-29 15:00","1973","01","29","15:00","-10.6","","-15.6","","66","","33","","43","","40.2","","99.46","","","","-22","","Mainly Clear"
"1973-01-29 16:00","1973","01","29","16:00","-11.1","","-17.8","","58","","33","","43","","40.2","","99.58","","","","-23","","Mainly Clear"
"1973-01-29 17:00","1973","01","29","17:00","-11.7","","-18.3","","58","","33","","31","","40.2","","99.65","","","","-22","","Mainly Clear"
"1973-01-29 18:00","1973","01","29","18:00","-12.2","","-18.9","","57","","31","","11","","25.0","","99.70","","","","-18","","Mainly Clear"
"1973-01-29 19:00","1973","01","29","19:00","-12.8","","-16.7","","71","","29","","21","","25.0","","99.72","","","","-22","","Mainly Clear"
"1973-01-29 20:00","1973","01","29","20:00","-12.2","","-16.1","","72","","27","","18","","25.0","","99.74","","","","-20","","Mainly Clear"
"1973-01-29 21:00","1973","01","29","21:00","-13.9","","-17.2","","76","","29","","14","","25.0","","99.73","","","","-21","","Mainly Clear"
"1973-01-29 22:00","1973","01","29","22:00","-13.9","","-16.7","","79","","26","","14","","25.0","","99.67","","","","-21","","Mainly Clear"
"1973-01-29 23:00","1973","01","29","23:00","-13.3","","-16.7","","77","","25","","18","","25.0","","99.62","","","","-22","","Mainly Clear"
"1973-01-30 00:00","1973","01","30","00:00","-12.2","","-14.4","","82","","24","","19","","25.0","","99.60","","","","-20","","Mainly Clear"
"1973-01-30 01:00","1973","01","30","01:00","-11.7","","-14.4","","82","","23","","18","","25.0","","99.58","","","","-20","","Mainly Clear"
"1973-01-30 02:00","1973","01","30","02:00","-11.1","","-13.9","","79","","21","","19","","25.0","","99.57","","","","-19","","Snow"
"1973-01-30 03:00","1973","01","30","03:00","-10.6","","-13.3","","81","","19","","14","","25.0","","99.48","","","","-17","","Mostly Cloudy"
"1973-01-30 04:00","1973","01","30","04:00","-10.6","","-13.3","","79","","22","","18","","25.0","","99.34","","","","-18","","Mainly Clear"
"1973-01-30 05:00","1973","01","30","05:00","-9.4","","-12.8","","74","","25","","34","","25.0","","99.24","","","","-19","","Mostly Cloudy"
"1973-01-30 06:00","1973","01","30","06:00","-8.9","","-12.2","","77","","25","","34","","25.0","","99.26","","","","-19","","Mostly Cloudy"
"1973-01-30 07:00","1973","01","30","07:00","-9.4","","-12.8","","78","","24","","24","","25.0","","99.25","","","","-18","","Mostly Cloudy"
"1973-01-30 08:00","1973","01","30","08:00","-9.4","","-12.8","","78","","24","","21","","32.2","","99.22","","","","-17","","Mainly Clear"
"1973-01-30 09:00","1973","01","30","09:00","-8.3","","-11.1","","79","","24","","26","","12.9","","99.20","","","","-17","","Snow Showers"
"1973-01-30 10:00","1973","01","30","10:00","-6.7","","-8.9","","83","","24","","32","","24.1","","99.17","","","","-15","","Mostly Cloudy"
"1973-01-30 11:00","1973","01","30","11:00","-3.9","","-7.2","","77","","24","","29","","24.1","","99.16","","","","-11","","Mainly Clear"
"1973-01-30 12:00","1973","01","30","12:00","-2.8","","-6.1","","77","","25","","35","","24.1","","99.09","","","","-11","","Mostly Cloudy"
"1973-01-30 13:00","1973","01","30","13:00","-2.8","","-6.1","","77","","25","","40","","16.1","","99.04","","","","-11","","Snow Showers"
"1973-01-30 14:00","1973","01","30","14:00","-2.8","","-6.1","","81","","25","","35","","12.9","","99.02","","","","-11","","Snow"
"1973-01-30 15:00","1973","01","30","15:00","-2.8","","-6.7","","76","","25","","39","","24.1","","99.04","","","","-11","","Mostly Cloudy"
"1973-01-30 16:00","1973","01","30","16:00","-3.9","","-6.1","","86","","27","","26","","12.9","","99.08","","","","-11","","Snow Showers"
"1973-01-30 17:00","1973","01","30","17:00","-4.4","","-8.9","","74","","30","","26","","32.2","","99.16","","","","-12","","Mainly Clear"
"1973-01-30 18:00","1973","01","30","18:00","-5.0","","-8.3","","75","","28","","23","","25.0","","99.30","","","","-12","","Mainly Clear"
"1973-01-30 19:00","1973","01","30","19:00","-5.6","","-8.3","","81","","27","","19","","25.0","","99.37","","","","-12","","Mainly Clear"
"1973-01-30 20:00","1973","01","30","20:00","-6.1","","-10.0","","73","","32","","18","","25.0","","99.49","","","","-13","","Mainly Clear"
"1973-01-30 21:00","1973","01","30","21:00","-6.1","","-8.9","","80","","32","","19","","25.0","","99.58","","","","-13","","Mostly Cloudy"
"1973-01-30 22:00","1973","01","30","22:00","-6.1","","-10.0","","76","","36","","23","","6.4","","99.66","","","","-13","","Snow Showers"
"1973-01-30 23:00","1973","01","30","23:00","-8.9","","-11.7","","80","","36","","27","","25.0","","99.82","","","","-18","","Mostly Cloudy"
"1973-01-31 00:00","1973","01","31","00:00","-12.8","","-16.1","","76","","2","","35","","25.0","","100.01","","","","-24","","Mainly Clear"
"1973-01-31 01:00","1973","01","31","01:00","-13.9","","-16.7","","78","","3","","26","","25.0","","100.16","","","","-24","","Mainly Clear"
"1973-01-31 02:00","1973","01","31","02:00","-15.6","","-18.9","","75","","1","","23","","25.0","","100.34","","","","-26","","Mainly Clear"
"1973-01-31 03:00","1973","01","31","03:00","-17.2","","-21.1","","73","","3","","24","","25.0","","100.51","","","","-28","","Mainly Clear"
"1973-01-31 04:00","1973","01","31","04:00","-18.3","","-21.7","","76","","2","","16","","25.0","","100.62","","","","-27","","Mainly Clear"
"1973-01-31 05:00","1973","01","31","05:00","-19.4","","-23.9","","66","","3","","24","","25.0","","100.75","","","","-31","","Clear"
"1973-01-31 06:00","1973","01","31","06:00","-20.0","","-24.4","","68","","5","","24","","25.0","","100.87","","","","-31","","Clear"
"1973-01-31 07:00","1973","01","31","07:00","-20.6","","-24.4","","70","","4","","16","","25.0","","100.96","","","","-30","","Mainly Clear"
"1973-01-31 08:00","1973","01","31","08:00","-20.6","","-24.4","","70","","5","","27","","40.2","","101.01","","","","-33","","Mostly Cloudy"
"1973-01-31 09:00","1973","01","31","09:00","-20.0","","-23.3","","76","","7","","26","","40.2","","101.09","","","","-32","","Mostly Cloudy"
"1973-01-31 10:00","1973","01","31","10:00","-18.9","","-21.7","","80","","6","","27","","6.4","","101.08","","","","-31","","Snow"
"1973-01-31 11:00","1973","01","31","11:00","-17.2","","-19.4","","82","","8","","29","","4.0","","101.18","","","","-29","","Snow"
"1973-01-31 12:00","1973","01","31","12:00","-16.1","","-18.3","","83","","7","","31","","1.6","","101.09","","","","-28","","Snow"
"1973-01-31 13:00","1973","01","31","13:00","-15.0","","-17.2","","84","","8","","27","","1.2","","101.07","","","","-26","","Snow"
"1973-01-31 14:00","1973","01","31","14:00","-14.4","","-16.1","","85","","8","","27","","0.8","","101.01","","","","-25","","Moderate Snow"
"1973-01-31 15:00","1973","01","31","15:00","-13.3","","-15.6","","86","","7","","27","","0.8","","101.01","","","","-23","","Moderate Snow"
"1973-01-31 16:00","1973","01","31","16:00","-11.1","","-12.8","","88","","8","","19","","1.6","","101.01","","","","-19","","Snow"
"1973-01-31 17:00","1973","01","31","17:00","-12.8","","-15.0","","83","","6","","23","","4.0","","101.02","","","","-22","","Snow"
"1973-01-31 18:00","1973","01","31","18:00","-13.9","","-16.1","","85","","6","","27","","3.2","","101.02","","","","-24","","Snow"
"1973-01-31 19:00","1973","01","31","19:00","-14.4","","-16.1","","85","","6","","27","","4.0","","101.00","","","","-25","","Snow"
"1973-01-31 20:00","1973","01","31","20:00","-14.4","","-16.7","","85","","6","","27","","24.1","","100.95","","","","-25","","Mostly Cloudy"
"1973-01-31 21:00","1973","01","31","21:00","-14.4","","-16.1","","85","","5","","23","","24.1","","100.91","","","","-24","","Snow"
"1973-01-31 22:00","1973","01","31","22:00","-13.9","","-15.6","","87","","7","","23","","24.1","","100.81","","","","-23","","Mostly Cloudy"
"1973-01-31 23:00","1973","01","31","23:00","-13.3","","-15.0","","88","","7","","29","","25.0","","100.77","","","","-24","","Mostly Cloudy"
