"Station Name","TORONTO INTL A"
"Province","ONTARIO"
"Latitude","43.68"
"Longitude","-79.63"
"Elevation","173.40"
"Climate Identifier","6158731"
"WMO Identifier","71624"
"TC Identifier","YYZ"
"All times are specified in Local Standard Time (LST). Add 1 hour to adjust for Daylight Saving Time where and when it is observed."

"Legend"
"E","Estimated"
"M","Missing"
"NA","Not Available"

"Date/Time","Year","Month","Day","Time","Temp (°C)","Temp Flag","Dew Point Temp (°C)","Dew Point Temp Flag","Rel Hum (%)","Rel Hum Flag","Wind Dir (10s deg)","Wind Dir Flag","Wind Spd (km/h)","Wind Spd Flag","Visibility (km)","Visibility Flag","Stn Press (kPa)","Stn Press Flag","Hmdx","Hmdx Flag","Wind Chill","Wind Chill Flag","Weather"
"2016-03-01 00:00","2016","03","01","00:00","-7.1","","-15.2","","53","","33","","20","","24.1","","99.92","","","","-14","","NA"
"2016-03-01 01:00","2016","03","01","01:00","-7.5","","-15.8","","52","","34","","17","","24.1","","99.98","","","","-14","","Clear"
"2016-03-01 02:00","2016","03","01","02:00","-7.8","","-15.6","","54","","33","","21","","24.1","","99.97","","","","-15","","NA"
"2016-03-01 03:00","2016","03","01","03:00","-8.4","","-15.3","","58","","33","","9","","24.1","","99.98","","","","-13","","NA"
"2016-03-01 04:00","2016","03","01","04:00","-8.2","","-15.5","","56","","35","","12","","24.1","","100.00","","","","-14","","Mainly Clear"
"2016-03-01 05:00","2016","03","01","05:00","-8.2","","-15.1","","58","","3","","7","","24.1","","100.04","","","","-12","","NA"
"2016-03-01 06:00","2016","03","01","06:00","-8.4","","-15.5","","57","","6","","16","","24.1","","100.02","","","","-15","","NA"
"2016-03-01 07:00","2016","03","01","07:00","-8.8","","-15.7","","58","","5","","17","","24.1","","99.98","","","","-16","","Mostly Cloudy"
"2016-03-01 08:00","2016","03","01","08:00","-8.7","","-16.2","","55","","6","","16","","24.1","","100.02","","","","-15","","NA"
"2016-03-01 09:00","2016","03","01","09:00","-8.5","","-14.8","","61","","8","","15","","4.8","","100.02","","","","-15","","Snow"
"2016-03-01 10:00","2016","03","01","10:00","-8.8","","-12.3","","76","","7","","16","","2.0","","99.97","","","","-16","","Snow"
"2016-03-01 11:00","2016","03","01","11:00","-8.9","","-11.9","","79","","5","","18","","2.0","","99.90","","","","-16","","Snow"
"2016-03-01 12:00","2016","03","01","12:00","-8.3","","-11.8","","76","","7","","24","","6.4","","99.62","","","","-16","","Snow"
"2016-03-01 13:00","2016","03","01","13:00","-8.0","","-11.2","","78","","8","","20","","6.4","","99.51","","","","-15","","Snow"
"2016-03-01 14:00","2016","03","01","14:00","-8.2","","-11.4","","78","","7","","22","","6.4","","99.33","","","","-16","","Snow"
"2016-03-01 15:00","2016","03","01","15:00","-8.3","","-11.5","","78","","8","","21","","6.4","","99.17","","","","-16","","Snow"
"2016-03-01 16:00","2016","03","01","16:00","-7.9","","-11.1","","78","","6","","19","","12.9","","98.98","","","","-15","","Snow"
"2016-03-01 17:00","2016","03","01","17:00","-8.2","","-11.4","","78","","6","","22","","6.4","","98.76","","","","-16","","Snow"
"2016-03-01 18:00","2016","03","01","18:00","-8.3","","-11.8","","76","","5","","23","","6.4","","98.69","","","","-16","","Snow"
"2016-03-01 19:00","2016","03","01","19:00","-9.1","","-11.5","","83","","4","","22","","1.6","","98.51","","","","-17","","Snow"
"2016-03-01 20:00","2016","03","01","20:00","-8.9","","-11.1","","84","","4","","22","","1.2","","98.36","","","","-17","","Snow"
"2016-03-01 21:00","2016","03","01","21:00","-9.2","","-11.7","","82","","4","","22","","1.6","","98.14","","","","-17","","Snow"
"2016-03-01 22:00","2016","03","01","22:00","-9.4","","-11.6","","84","","2","","25","","1.2","","97.92","","","","-18","","Snow"
"2016-03-01 23:00","2016","03","01","23:00","-9.6","","-12.1","","82","","35","","25","","1.2","","97.89","","","","-18","","Snow"
"2016-03-02 00:00","2016","03","02","00:00","-10.3","","-13.0","","81","","34","","28","","1.2","","97.93","","","","-20","","Snow"
"2016-03-02 01:00","2016","03","02","01:00","-10.9","","-13.7","","80","","34","","37","","3.2","","98.03","","","","-22","","Snow,Blowing Snow"
"2016-03-02 02:00","2016","03","02","02:00","-10.3","","-13.9","","75","","34","","30","","8.1","","98.11","","","","-20","","Snow,Blowing Snow"
"2016-03-02 03:00","2016","03","02","03:00","-9.8","","-13.4","","75","","32","","26","","6.4","","98.26","","","","-19","","Snow,Blowing Snow"
"2016-03-02 04:00","2016","03","02","04:00","-10.0","","-13.6","","75","","32","","35","","4.0","","98.41","","","","-20","","Snow,Blowing Snow"
"2016-03-02 05:00","2016","03","02","05:00","-9.2","","-12.7","","76","","32","","21","","6.4","","98.63","","","","-17","","Snow,Blowing Snow"
"2016-03-02 06:00","2016","03","02","06:00","-8.9","","-13.3","","71","","30","","33","","16.1","","98.79","","","","-18","","Snow,Blowing Snow"
"2016-03-02 07:00","2016","03","02","07:00","-8.7","","-14.2","","65","","30","","34","","24.1","","98.95","","","","-18","","Blowing Snow"
"2016-03-02 08:00","2016","03","02","08:00","-8.9","","-14.2","","66","","31","","26","","24.1","","99.11","","","","-18","","Blowing Snow"
"2016-03-02 09:00","2016","03","02","09:00","-8.5","","-14.8","","61","","31","","28","","24.1","","99.25","","","","-17","","Blowing Snow"
"2016-03-02 10:00","2016","03","02","10:00","-7.7","","-14.6","","58","","32","","33","","24.1","","99.34","","","","-17","","Blowing Snow"
"2016-03-02 11:00","2016","03","02","11:00","-7.2","","-15.0","","54","","31","","27","","24.1","","99.37","","","","-15","","Blowing Snow"
"2016-03-02 12:00","2016","03","02","12:00","-6.3","","-15.1","","50","","30","","32","","24.1","","99.45","","","","-15","","NA"
"2016-03-02 13:00","2016","03","02","13:00","-5.6","","-14.2","","51","","31","","31","","24.1","","99.45","","","","-14","","Clear"
"2016-03-02 14:00","2016","03","02","14:00","-4.8","","-13.5","","51","","32","","33","","24.1","","99.46","","","","-13","","Blowing Snow"
"2016-03-02 15:00","2016","03","02","15:00","-5.0","","-13.9","","50","","32","","31","","24.1","","99.53","","","","-13","","Blowing Snow"
"2016-03-02 16:00","2016","03","02","16:00","-5.2","","-14.3","","49","","29","","31","","24.1","","99.61","","","","-13","","Blowing Snow"
"2016-03-02 17:00","2016","03","02","17:00","-6.1","","-15.2","","49","","30","","33","","24.1","","99.68","","","","-15","","Blowing Snow"
"2016-03-02 18:00","2016","03","02","18:00","-7.0","","-14.4","","56","","31","","38","","24.1","","99.82","","","","-17","","Blowing Snow"
"2016-03-02 19:00","2016","03","02","19:00","-8.3","","-16.3","","53","","32","","30","","16.1","","99.96","","","","-17","","Blowing Snow"
"2016-03-02 20:00","2016","03","02","20:00","-9.1","","-16.6","","55","","32","","18","","24.1","","100.00","","","","-16","","NA"
"2016-03-02 21:00","2016","03","02","21:00","-9.1","","-15.9","","58","","29","","13","","24.1","","100.08","","","","-15","","NA"
"2016-03-02 22:00","2016","03","02","22:00","-8.5","","-14.8","","61","","27","","18","","24.1","","100.10","","","","-16","","Mostly Cloudy"
"2016-03-02 23:00","2016","03","02","23:00","-8.3","","-15.2","","58","","32","","18","","24.1","","100.16","","","","-15","","NA"
"2016-03-03 00:00","2016","03","03","00:00","-9.2","","-15.2","","62","","2","","13","","24.1","","100.21","","","","-15","","NA"
"2016-03-03 01:00","2016","03","03","01:00","-9.6","","-14.6","","67","","3","","10","","24.1","","100.23","","","","-15","","Mostly Cloudy"
"2016-03-03 02:00","2016","03","03","02:00","-9.4","","-14.8","","65","","1","","3","","24.1","","100.29","","","","-11","","NA"
"2016-03-03 03:00","2016","03","03","03:00","-9.4","","-14.6","","66","","36","","1","","24.1","","100.29","","","","-10","","NA"
"2016-03-03 04:00","2016","03","03","04:00","-9.4","","-14.1","","69","","3","","5","","24.1","","100.29","","","","-12","","Cloudy"
"2016-03-03 05:00","2016","03","03","05:00","-9.3","","-14.5","","66","","6","","6","","24.1","","100.29","","","","-13","","NA"
"2016-03-03 06:00","2016","03","03","06:00","-9.4","","-15.0","","64","","5","","5","","24.1","","100.31","","","","-12","","Snow"
"2016-03-03 07:00","2016","03","03","07:00","-9.6","","-14.5","","68","","8","","9","","24.1","","100.30","","","","-14","","Snow"
"2016-03-03 08:00","2016","03","03","08:00","-9.3","","-15.3","","62","","6","","9","","24.1","","100.32","","","","-14","","Snow"
"2016-03-03 09:00","2016","03","03","09:00","-8.4","","-14.5","","62","","10","","9","","24.1","","100.37","","","","-13","","NA"
"2016-03-03 10:00","2016","03","03","10:00","-6.4","","-11.8","","66","","11","","17","","24.1","","100.39","","","","-13","","Mostly Cloudy"
"2016-03-03 11:00","2016","03","03","11:00","-5.6","","-10.1","","71","","10","","18","","4.8","","100.36","","","","-12","","Snow"
"2016-03-03 12:00","2016","03","03","12:00","-5.2","","-8.8","","76","","11","","18","","2.4","","100.28","","","","-11","","Snow"
"2016-03-03 13:00","2016","03","03","13:00","-5.1","","-9.2","","73","","12","","18","","6.4","","100.23","","","","-11","","Snow"
"2016-03-03 14:00","2016","03","03","14:00","-4.3","","-10.3","","63","","13","","14","","24.1","","100.20","","","","-9","","NA"
"2016-03-03 15:00","2016","03","03","15:00","-4.4","","-10.6","","62","","10","","15","","24.1","","100.15","","","","-10","","NA"
"2016-03-03 16:00","2016","03","03","16:00","-4.4","","-10.4","","63","","11","","14","","24.1","","100.12","","","","-10","","Mostly Cloudy"
"2016-03-03 17:00","2016","03","03","17:00","-4.7","","-10.5","","64","","11","","14","","24.1","","100.07","","","","-10","","NA"
"2016-03-03 18:00","2016","03","03","18:00","-4.9","","-10.5","","65","","10","","13","","24.1","","100.06","","","","-10","","NA"
"2016-03-03 19:00","2016","03","03","19:00","-4.9","","-10.3","","66","","8","","10","","24.1","","100.04","","","","-9","","Mostly Cloudy"
"2016-03-03 20:00","2016","03","03","20:00","-5.1","","-10.3","","67","","8","","10","","24.1","","100.06","","","","-9","","NA"
"2016-03-03 21:00","2016","03","03","21:00","-5.3","","-10.0","","70","","6","","8","","24.1","","100.04","","","","-9","","NA"
"2016-03-03 22:00","2016","03","03","22:00","-5.9","","-9.1","","78","","3","","12","","9.7","","100.04","","","","-11","","Snow"
"2016-03-03 23:00","2016","03","03","23:00","-6.2","","-8.3","","85","","4","","13","","9.7","","100.02","","","","-12","","Snow"
"2016-03-04 00:00","2016","03","04","00:00","-6.4","","-8.5","","85","","4","","11","","24.1","","99.98","","","","-11","","NA"
"2016-03-04 01:00","2016","03","04","01:00","-5.9","","-8.3","","83","","4","","12","","24.1","","99.96","","","","-11","","Cloudy"
"2016-03-04 02:00","2016","03","04","02:00","-5.7","","-8.0","","84","","4","","10","","24.1","","99.93","","","","-10","","NA"
"2016-03-04 03:00","2016","03","04","03:00","-5.6","","-7.7","","85","","4","","11","","24.1","","99.87","","","","-10","","NA"
"2016-03-04 04:00","2016","03","04","04:00","-5.4","","-7.5","","85","","4","","11","","24.1","","99.85","","","","-10","","Cloudy"
"2016-03-04 05:00","2016","03","04","05:00","-5.2","","-7.3","","85","","3","","14","","24.1","","99.90","","","","-11","","NA"
"2016-03-04 06:00","2016","03","04","06:00","-5.0","","-7.0","","86","","3","","17","","6.4","","99.98","","","","-11","","Snow"
"2016-03-04 07:00","2016","03","04","07:00","-5.1","","-7.1","","86","","6","","14","","2.0","","99.99","","","","-10","","Snow"
"2016-03-04 08:00","2016","03","04","08:00","-4.8","","-7.1","","84","","7","","8","","6.4","","100.06","","","","-8","","Snow"
"2016-03-04 09:00","2016","03","04","09:00","-3.9","","-7.2","","78","","6","","10","","6.4","","100.09","","","","-8","","Snow"
"2016-03-04 10:00","2016","03","04","10:00","-2.8","","-9.1","","62","","11","","15","","24.1","","100.09","","","","-8","","Mostly Cloudy"
"2016-03-04 11:00","2016","03","04","11:00","-2.1","","-10.7","","52","","12","","14","","24.1","","100.11","","","","-7","","NA"
"2016-03-04 12:00","2016","03","04","12:00","-0.8","","-9.7","","51","","14","","10","","24.1","","100.11","","","","-4","","NA"
"2016-03-04 13:00","2016","03","04","13:00","-0.5","","-10.2","","48","","13","","4","","24.1","","100.09","","","","-2","","Mostly Cloudy"
"2016-03-04 14:00","2016","03","04","14:00","-1.2","","-9.9","","52","","14","","8","","24.1","","100.04","","","","-4","","NA"
"2016-03-04 15:00","2016","03","04","15:00","-1.3","","-10.0","","52","","15","","9","","24.1","","100.05","","","","-5","","Snow"
"2016-03-04 16:00","2016","03","04","16:00","-1.7","","-8.5","","60","","18","","8","","12.9","","100.08","","","","-5","","Snow"
"2016-03-04 17:00","2016","03","04","17:00","-1.6","","-8.4","","60","","16","","10","","24.1","","100.09","","","","-5","","Snow"
"2016-03-04 18:00","2016","03","04","18:00","-1.9","","-8.7","","60","","14","","9","","24.1","","100.10","","","","-5","","NA"
"2016-03-04 19:00","2016","03","04","19:00","-1.9","","-8.3","","62","","19","","8","","24.1","","100.11","","","","-5","","Mostly Cloudy"
"2016-03-04 20:00","2016","03","04","20:00","-2.0","","-8.3","","62","","21","","10","","24.1","","100.16","","","","-6","","NA"
"2016-03-04 21:00","2016","03","04","21:00","-2.0","","-8.3","","62","","18","","5","","24.1","","100.16","","","","-4","","NA"
"2016-03-04 22:00","2016","03","04","22:00","-2.0","","-7.9","","64","","18","","8","","24.1","","100.13","","","","-5","","Mostly Cloudy"
"2016-03-04 23:00","2016","03","04","23:00","-2.7","","-8.4","","65","","36","","1","","24.1","","100.09","","","","-3","","NA"
"2016-03-05 00:00","2016","03","05","00:00","-2.8","","-8.3","","66","","22","","3","","24.1","","100.08","","","","-4","","NA"
"2016-03-05 01:00","2016","03","05","01:00","-3.5","","-8.0","","71","","26","","7","","24.1","","100.14","","","","-6","","Mostly Cloudy"
"2016-03-05 02:00","2016","03","05","02:00","-3.0","","-8.3","","67","","32","","4","","24.1","","100.13","","","","-5","","NA"
"2016-03-05 03:00","2016","03","05","03:00","-4.1","","-7.2","","79","","3","","7","","24.1","","100.10","","","","-7","","NA"
"2016-03-05 04:00","2016","03","05","04:00","-4.6","","-7.4","","81","","3","","7","","24.1","","100.11","","","","-8","","Mostly Cloudy"
"2016-03-05 05:00","2016","03","05","05:00","-4.3","","-7.4","","79","","1","","5","","24.1","","100.13","","","","-6","","NA"
"2016-03-05 06:00","2016","03","05","06:00","-4.3","","-7.8","","77","","3","","6","","24.1","","100.11","","","","-7","","NA"
"2016-03-05 07:00","2016","03","05","07:00","-3.7","","-7.3","","76","","36","","2","","19.3","","100.09","","","","-5","","Mostly Cloudy"
"2016-03-05 08:00","2016","03","05","08:00","-3.0","","-7.0","","74","","26","","10","","16.1","","100.14","","","","-7","","NA"
"2016-03-05 09:00","2016","03","05","09:00","-2.6","","-6.1","","77","","25","","13","","9.7","","100.17","","","","-7","","Snow"
"2016-03-05 10:00","2016","03","05","10:00","-2.4","","-6.1","","76","","22","","8","","4.0","","100.17","","","","-6","","Snow"
"2016-03-05 11:00","2016","03","05","11:00","-1.6","","-5.8","","73","","15","","9","","9.7","","100.14","","","","-5","","Snow"
"2016-03-05 12:00","2016","03","05","12:00","-1.3","","-6.5","","68","","17","","16","","24.1","","100.12","","","","-6","","Snow"
"2016-03-05 13:00","2016","03","05","13:00","-1.3","","-7.7","","62","","12","","12","","16.1","","100.06","","","","-5","","Snow"
"2016-03-05 14:00","2016","03","05","14:00","-1.0","","-8.5","","57","","12","","8","","24.1","","100.03","","","","-4","","NA"
"2016-03-05 15:00","2016","03","05","15:00","-0.6","","-9.0","","53","","12","","10","","24.1","","100.03","","","","-4","","NA"
"2016-03-05 16:00","2016","03","05","16:00","-0.6","","-8.6","","55","","19","","10","","24.1","","100.02","","","","-4","","Mostly Cloudy"
"2016-03-05 17:00","2016","03","05","17:00","-1.1","","-8.8","","56","","13","","9","","24.1","","100.01","","","","-4","","NA"
"2016-03-05 18:00","2016","03","05","18:00","-1.6","","-8.8","","58","","13","","9","","24.1","","100.03","","","","-5","","NA"
"2016-03-05 19:00","2016","03","05","19:00","-1.8","","-9.0","","58","","12","","8","","24.1","","100.11","","","","-5","","Mostly Cloudy"
"2016-03-05 20:00","2016","03","05","20:00","-2.2","","-9.0","","60","","10","","4","","24.1","","100.18","","","","-4","","NA"
"2016-03-05 21:00","2016","03","05","21:00","-2.5","","-9.2","","60","","3","","7","","24.1","","100.21","","","","-5","","NA"
"2016-03-05 22:00","2016","03","05","22:00","-3.3","","-9.2","","64","","1","","9","","24.1","","100.28","","","","-7","","Mainly Clear"
"2016-03-05 23:00","2016","03","05","23:00","-3.7","","-8.8","","68","","32","","7","","24.1","","100.28","","","","-7","","NA"
"2016-03-06 00:00","2016","03","06","00:00","-4.9","","-9.2","","72","","33","","4","","24.1","","100.27","","","","-7","","NA"
"2016-03-06 01:00","2016","03","06","01:00","-5.4","","-9.2","","75","","33","","10","","24.1","","100.31","","","","-10","","Mainly Clear"
"2016-03-06 02:00","2016","03","06","02:00","-5.6","","-8.7","","79","","31","","9","","24.1","","100.36","","","","-10","","NA"
"2016-03-06 03:00","2016","03","06","03:00","-5.9","","-9.0","","79","","30","","5","","24.1","","100.34","","","","-8","","NA"
"2016-03-06 04:00","2016","03","06","04:00","-7.1","","-9.5","","83","","3","","5","","24.1","","100.38","","","","-10","","Clear"
"2016-03-06 05:00","2016","03","06","05:00","-7.8","","-10.4","","82","","35","","7","","24.1","","100.43","","","","-11","","NA"
"2016-03-06 06:00","2016","03","06","06:00","-7.6","","-10.3","","81","","31","","5","","24.1","","100.46","","","","-10","","NA"
"2016-03-06 07:00","2016","03","06","07:00","-7.8","","-10.4","","82","","31","","8","","16.1","","100.49","","","","-12","","Clear"
"2016-03-06 08:00","2016","03","06","08:00","-6.1","","-9.0","","80","","31","","7","","24.1","","100.54","","","","-9","","NA"
"2016-03-06 09:00","2016","03","06","09:00","-3.4","","-7.6","","73","","36","","2","","19.3","","100.55","","","","-4","","NA"
"2016-03-06 10:00","2016","03","06","10:00","-1.0","","-6.6","","66","","22","","6","","24.1","","100.55","","","","-3","","Clear"
"2016-03-06 11:00","2016","03","06","11:00","0.7","","-5.8","","62","","21","","16","","24.1","","100.49","","","","","","NA"
"2016-03-06 12:00","2016","03","06","12:00","1.5","","-6.8","","54","","21","","10","","24.1","","100.45","","","","","","NA"
"2016-03-06 13:00","2016","03","06","13:00","1.9","","-6.0","","56","","20","","10","","24.1","","100.38","","","","","","Mostly Cloudy"
"2016-03-06 14:00","2016","03","06","14:00","2.4","","-5.7","","55","","17","","17","","24.1","","100.27","","","","","","NA"
"2016-03-06 15:00","2016","03","06","15:00","2.8","","-5.6","","54","","16","","13","","24.1","","100.24","","","","","","NA"
"2016-03-06 16:00","2016","03","06","16:00","2.6","","-5.6","","55","","17","","14","","24.1","","100.16","","","","","","Cloudy"
"2016-03-06 17:00","2016","03","06","17:00","1.6","","-5.6","","59","","16","","20","","24.1","","100.05","","","","","","NA"
"2016-03-06 18:00","2016","03","06","18:00","1.0","","-5.1","","64","","18","","13","","24.1","","100.04","","","","","","NA"
"2016-03-06 19:00","2016","03","06","19:00","0.8","","-4.8","","66","","20","","9","","24.1","","100.06","","","","","","Mostly Cloudy"
"2016-03-06 20:00","2016","03","06","20:00","1.1","","-5.2","","63","","18","","13","","24.1","","99.93","","","","","","NA"
"2016-03-06 21:00","2016","03","06","21:00","1.0","","-4.7","","66","","21","","17","","24.1","","99.85","","","","","","NA"
"2016-03-06 22:00","2016","03","06","22:00","0.3","","-4.4","","71","","21","","20","","24.1","","99.76","","","","","","Mostly Cloudy"
"2016-03-06 23:00","2016","03","06","23:00","-0.1","","-4.0","","75","","20","","11","","24.1","","99.68","","","","-4","","NA"
"2016-03-07 00:00","2016","03","07","00:00","0.1","","-3.6","","76","","20","","10","","24.1","","99.55","","","","","","NA"
"2016-03-07 01:00","2016","03","07","01:00","0.8","","-2.8","","77","","21","","7","","24.1","","99.51","","","","","","Mostly Cloudy"
"2016-03-07 02:00","2016","03","07","02:00","1.4","","-2.4","","76","","1","","4","","24.1","","99.63","","","","","","NA"
"2016-03-07 03:00","2016","03","07","03:00","1.4","","-2.4","","76","","18","","7","","24.1","","99.51","","","","","","NA"
"2016-03-07 04:00","2016","03","07","04:00","1.7","","-1.9","","77","","18","","10","","24.1","","99.45","","","","","","Mostly Cloudy"
"2016-03-07 05:00","2016","03","07","05:00","1.8","","-1.5","","79","","17","","15","","24.1","","99.30","","","","","","NA"
"2016-03-07 06:00","2016","03","07","06:00","2.4","","-0.9","","79","","19","","10","","24.1","","99.27","","","","","","NA"
"2016-03-07 07:00","2016","03","07","07:00","4.0","","-0.2","","74","","23","","19","","24.1","","99.28","","","","","","Mostly Cloudy"
"2016-03-07 08:00","2016","03","07","08:00","4.0","","-0.2","","74","","25","","26","","24.1","","99.32","","","","","","NA"
"2016-03-07 09:00","2016","03","07","09:00","5.1","","0.5","","72","","26","","26","","24.1","","99.36","","","","","","NA"
"2016-03-07 10:00","2016","03","07","10:00","7.0","","1.3","","67","","25","","23","","24.1","","99.38","","","","","","Mostly Cloudy"
"2016-03-07 11:00","2016","03","07","11:00","9.0","","1.9","","61","","26","","28","","24.1","","99.39","","","","","","NA"
"2016-03-07 12:00","2016","03","07","12:00","10.2","","2.1","","57","","28","","27","","24.1","","99.38","","","","","","NA"
"2016-03-07 13:00","2016","03","07","13:00","10.9","","2.3","","55","","28","","19","","24.1","","99.37","","","","","","Mostly Cloudy"
"2016-03-07 14:00","2016","03","07","14:00","11.3","","2.4","","54","","30","","13","","24.1","","99.34","","","","","","NA"
"2016-03-07 15:00","2016","03","07","15:00","11.5","","2.6","","54","","31","","5","","24.1","","99.34","","","","","","NA"
"2016-03-07 16:00","2016","03","07","16:00","10.2","","3.1","","61","","3","","9","","24.1","","99.38","","","","","","Mostly Cloudy"
"2016-03-07 17:00","2016","03","07","17:00","10.3","","2.2","","57","","5","","4","","24.1","","99.40","","","","","","NA"
"2016-03-07 18:00","2016","03","07","18:00","9.4","","2.1","","60","","1","","8","","24.1","","99.44","","","","","","NA"
"2016-03-07 19:00","2016","03","07","19:00","8.4","","2.0","","64","","3","","8","","24.1","","99.49","","","","","","Mostly Cloudy"
"2016-03-07 20:00","2016","03","07","20:00","8.6","","1.8","","62","","36","","1","","24.1","","99.55","","","","","","NA"
"2016-03-07 21:00","2016","03","07","21:00","8.0","","1.9","","65","","36","","2","","24.1","","99.59","","","","","","NA"
"2016-03-07 22:00","2016","03","07","22:00","8.0","","2.3","","67","","5","","8","","24.1","","99.61","","","","","","Cloudy"
"2016-03-07 23:00","2016","03","07","23:00","7.4","","2.1","","69","","9","","4","","24.1","","99.63","","","","","","NA"
"2016-03-08 00:00","2016","03","08","00:00","7.1","","2.0","","70","","14","","4","","24.1","","99.62","","","","","","NA"
"2016-03-08 01:00","2016","03","08","01:00","5.4","","1.7","","77","","","","0","","24.1","","99.65","","","","","","Mostly Cloudy"
"2016-03-08 02:00","2016","03","08","02:00","5.5","","1.8","","77","","2","","4","","24.1","","99.65","","","","","","NA"
"2016-03-08 03:00","2016","03","08","03:00","4.4","","0.7","","77","","1","","4","","24.1","","99.65","","","","","","NA"
"2016-03-08 04:00","2016","03","08","04:00","4.0","","0.7","","79","","7","","4","","24.1","","99.64","","","","","","Mainly Clear"
"2016-03-08 05:00","2016","03","08","05:00","4.6","","2.0","","83","","16","","3","","24.1","","99.67","","","","","","NA"
"2016-03-08 06:00","2016","03","08","06:00","4.0","","1.4","","83","","20","","3","","24.1","","99.69","","","","","","NA"
"2016-03-08 07:00","2016","03","08","07:00","4.8","","2.3","","84","","5","","8","","12.9","","99.70","","","","","","Mostly Cloudy"
"2016-03-08 08:00","2016","03","08","08:00","5.7","","2.4","","79","","10","","5","","12.9","","99.74","","","","","","NA"
"2016-03-08 09:00","2016","03","08","09:00","6.3","","2.6","","77","","36","","2","","12.9","","99.79","","","","","","NA"
"2016-03-08 10:00","2016","03","08","10:00","8.5","","3.4","","70","","36","","3","","16.1","","99.76","","","","","","Mostly Cloudy"
"2016-03-08 11:00","2016","03","08","11:00","10.5","","3.8","","63","","14","","12","","19.3","","99.73","","","","","","NA"
"2016-03-08 12:00","2016","03","08","12:00","10.7","","4.0","","63","","17","","10","","19.3","","99.70","","","","","","NA"
"2016-03-08 13:00","2016","03","08","13:00","11.3","","4.3","","62","","13","","12","","16.1","","99.64","","","","","","Mostly Cloudy"
"2016-03-08 14:00","2016","03","08","14:00","10.6","","3.9","","63","","15","","10","","19.3","","99.57","","","","","","NA"
"2016-03-08 15:00","2016","03","08","15:00","11.1","","4.1","","62","","13","","13","","19.3","","99.50","","","","","","NA"
"2016-03-08 16:00","2016","03","08","16:00"
"2016-03-08 17:00","2016","03","08","17:00","8.2","","3.1","","70","","16","","15","","24.1","","99.47","","","","","","NA"
"2016-03-08 18:00","2016","03","08","18:00","8.8","","3.5","","69","","11","","8","","19.3","","99.43","","","","","","NA"
"2016-03-08 19:00","2016","03","08","19:00","8.4","","3.5","","71","","15","","6","","24.1","","99.44","","","","","","Mostly Cloudy"
"2016-03-08 20:00","2016","03","08","20:00","7.5","","3.2","","74","","16","","10","","19.3","","99.35","","","","","","NA"
"2016-03-08 21:00","2016","03","08","21:00","6.3","","2.9","","79","","17","","9","","24.1","","99.34","","","","","","NA"
"2016-03-08 22:00","2016","03","08","22:00","5.8","","2.8","","81","","11","","5","","24.1","","99.32","","","","","","Mostly Cloudy"
"2016-03-08 23:00","2016","03","08","23:00","5.1","","2.3","","82","","36","","2","","24.1","","99.27","","","","","","NA"
"2016-03-09 00:00","2016","03","09","00:00","5.0","","2.5","","84","","36","","2","","24.1","","99.32","","","","","","NA"
"2016-03-09 01:00","2016","03","09","01:00","6.3","","3.1","","80","","16","","4","","24.1","","99.32","","","","","","Cloudy"
"2016-03-09 02:00","2016","03","09","02:00","9.3","","5.5","","77","","21","","9","","24.1","","99.28","","","","","","NA"
"2016-03-09 03:00","2016","03","09","03:00","5.1","","2.5","","83","","14","","9","","24.1","","99.23","","","","","","NA"
"2016-03-09 04:00","2016","03","09","04:00","4.8","","2.3","","84","","8","","8","","24.1","","99.27","","","","","","Mostly Cloudy"
"2016-03-09 05:00","2016","03","09","05:00","5.3","","3.2","","86","","10","","9","","24.1","","99.25","","","","","","NA"
"2016-03-09 06:00","2016","03","09","06:00","5.6","","3.3","","85","","14","","6","","24.1","","99.25","","","","","","NA"
"2016-03-09 07:00","2016","03","09","07:00","7.6","","4.0","","78","","13","","10","","24.1","","99.28","","","","","","Mostly Cloudy"
"2016-03-09 08:00","2016","03","09","08:00","10.2","","5.4","","72","","16","","12","","24.1","","99.29","","","","","","NA"
"2016-03-09 09:00","2016","03","09","09:00","13.1","","6.0","","62","","17","","9","","24.1","","99.31","","","","","","NA"
"2016-03-09 10:00","2016","03","09","10:00","16.8","","7.0","","52","","23","","19","","24.1","","99.27","","","","","","Mostly Cloudy"
"2016-03-09 11:00","2016","03","09","11:00","16.9","","6.8","","51","","23","","28","","24.1","","99.28","","","","","","NA"
"2016-03-09 12:00","2016","03","09","12:00","18.1","","7.9","","51","","24","","23","","24.1","","99.20","","","","","","NA"
"2016-03-09 13:00","2016","03","09","13:00","18.4","","9.0","","54","","22","","28","","24.1","","99.15","","","","","","Mostly Cloudy"
"2016-03-09 14:00","2016","03","09","14:00","19.5","","9.8","","53","","23","","31","","24.1","","99.09","","","","","","NA"
"2016-03-09 15:00","2016","03","09","15:00","18.2","","10.2","","59","","22","","18","","24.1","","99.07","","","","","","NA"
"2016-03-09 16:00","2016","03","09","16:00","17.9","","10.4","","61","","23","","31","","24.1","","99.11","","","","","","Mostly Cloudy"
"2016-03-09 17:00","2016","03","09","17:00","17.2","","10.2","","63","","24","","34","","24.1","","99.15","","","","","","NA"
"2016-03-09 18:00","2016","03","09","18:00","16.5","","10.4","","67","","23","","23","","24.1","","99.23","","","","","","NA"
"2016-03-09 19:00","2016","03","09","19:00","15.6","","10.6","","72","","24","","24","","24.1","","99.22","","","","","","Cloudy"
"2016-03-09 20:00","2016","03","09","20:00","14.7","","10.8","","77","","24","","20","","24.1","","99.32","","","","","","NA"
"2016-03-09 21:00","2016","03","09","21:00","14.5","","10.9","","79","","25","","19","","24.1","","99.32","","","","","","NA"
"2016-03-09 22:00","2016","03","09","22:00","14.5","","11.1","","80","","27","","17","","24.1","","99.32","","","","","","Cloudy"
"2016-03-09 23:00","2016","03","09","23:00","14.1","","11.1","","82","","26","","17","","24.1","","99.31","","","","","","NA"
"2016-03-10 00:00","2016","03","10","00:00","14.1","","11.3","","83","","27","","12","","24.1","","99.33","","","","","","NA"
"2016-03-10 01:00","2016","03","10","01:00","13.1","","11.0","","87","","27","","10","","24.1","","99.35","","","","","","Cloudy"
"2016-03-10 02:00","2016","03","10","02:00","11.9","","10.0","","88","","36","","13","","24.1","","99.38","","","","","","NA"
"2016-03-10 03:00","2016","03","10","03:00","10.9","","9.5","","91","","2","","12","","24.1","","99.32","","","","","","NA"
"2016-03-10 04:00","2016","03","10","04:00","10.8","","9.4","","91","","35","","6","","24.1","","99.36","","","","","","Cloudy"
"2016-03-10 05:00","2016","03","10","05:00","10.7","","9.3","","91","","3","","3","","24.1","","99.34","","","","","","NA"
"2016-03-10 06:00","2016","03","10","06:00","10.3","","9.1","","92","","36","","1","","19.3","","99.32","","","","","","NA"
"2016-03-10 07:00","2016","03","10","07:00","10.6","","9.4","","92","","14","","4","","6.4","","99.33","","","","","","Fog"
"2016-03-10 08:00","2016","03","10","08:00","10.2","","9.3","","94","","36","","8","","2.8","","99.35","","","","","","Drizzle,Fog"
"2016-03-10 09:00","2016","03","10","09:00","10.2","","9.4","","95","","1","","16","","2.0","","99.34","","","","","","Rain,Fog"
"2016-03-10 10:00","2016","03","10","10:00","9.5","","8.8","","95","","35","","12","","8.1","","99.36","","","","","","Rain,Fog"
"2016-03-10 11:00","2016","03","10","11:00","9.8","","8.7","","93","","1","","8","","11.3","","99.32","","","","","","Rain"
"2016-03-10 12:00","2016","03","10","12:00","10.2","","9.0","","92","","35","","7","","9.7","","99.28","","","","","","Rain"
"2016-03-10 13:00","2016","03","10","13:00","9.9","","8.7","","92","","34","","20","","12.9","","99.31","","","","","","Rain"
"2016-03-10 14:00","2016","03","10","14:00","9.8","","8.4","","91","","35","","13","","8.1","","99.28","","","","","","Rain"
"2016-03-10 15:00","2016","03","10","15:00","9.8","","7.9","","88","","36","","14","","19.3","","99.25","","","","","","Rain"
"2016-03-10 16:00","2016","03","10","16:00","9.4","","7.0","","85","","36","","22","","24.1","","99.31","","","","","","Cloudy"
"2016-03-10 17:00","2016","03","10","17:00","6.3","","4.5","","88","","36","","21","","24.1","","99.37","","","","","","NA"
"2016-03-10 18:00","2016","03","10","18:00","5.5","","3.5","","87","","35","","25","","24.1","","99.49","","","","","","NA"
"2016-03-10 19:00","2016","03","10","19:00","5.2","","3.1","","86","","35","","25","","24.1","","99.51","","","","","","Cloudy"
"2016-03-10 20:00","2016","03","10","20:00","4.4","","1.9","","84","","36","","26","","24.1","","99.57","","","","","","NA"
"2016-03-10 21:00","2016","03","10","21:00","4.1","","1.1","","81","","35","","23","","24.1","","99.61","","","","","","NA"
"2016-03-10 22:00","2016","03","10","22:00","4.2","","1.6","","83","","33","","18","","24.1","","99.64","","","","","","Mostly Cloudy"
"2016-03-10 23:00","2016","03","10","23:00","4.0","","1.6","","84","","34","","23","","24.1","","99.72","","","","","","NA"
"2016-03-11 00:00","2016","03","11","00:00","3.2","","0.6","","83","","34","","23","","24.1","","99.80","","","","","","NA"
"2016-03-11 01:00","2016","03","11","01:00","2.9","","0.3","","83","","34","","21","","24.1","","99.85","","","","","","Mostly Cloudy"
"2016-03-11 02:00","2016","03","11","02:00","2.6","","0.2","","84","","34","","18","","24.1","","99.90","","","","","","NA"
"2016-03-11 03:00","2016","03","11","03:00","2.2","","-0.2","","84","","34","","25","","24.1","","99.97","","","","","","NA"
"2016-03-11 04:00","2016","03","11","04:00","2.1","","-0.7","","82","","34","","29","","24.1","","100.04","","","","","","Cloudy"
"2016-03-11 05:00","2016","03","11","05:00","2.2","","-0.6","","82","","33","","28","","24.1","","100.14","","","","","","NA"
"2016-03-11 06:00","2016","03","11","06:00","2.3","","-0.5","","82","","35","","27","","24.1","","100.26","","","","","","NA"
"2016-03-11 07:00","2016","03","11","07:00","2.0","","-1.1","","80","","31","","26","","24.1","","100.35","","","","","","Cloudy"
"2016-03-11 08:00","2016","03","11","08:00","2.2","","-1.4","","77","","35","","23","","24.1","","100.44","","","","","","NA"
"2016-03-11 09:00","2016","03","11","09:00","2.4","","-1.8","","74","","30","","18","","24.1","","100.54","","","","","","NA"
"2016-03-11 10:00","2016","03","11","10:00","2.8","","-1.4","","74","","36","","12","","24.1","","100.62","","","","","","Cloudy"
"2016-03-11 11:00","2016","03","11","11:00","3.6","","-1.0","","72","","1","","17","","24.1","","100.63","","","","","","NA"
"2016-03-11 12:00","2016","03","11","12:00","4.4","","-1.2","","67","","33","","11","","24.1","","100.72","","","","","","NA"
"2016-03-11 13:00","2016","03","11","13:00","5.9","","-1.0","","61","","32","","8","","24.1","","100.71","","","","","","Clear"
"2016-03-11 14:00","2016","03","11","14:00","7.2","","-1.2","","55","","34","","8","","24.1","","100.68","","","","","","NA"
"2016-03-11 15:00","2016","03","11","15:00","9.1","","-0.2","","52","","23","","4","","24.1","","100.66","","","","","","NA"
"2016-03-11 16:00","2016","03","11","16:00","7.5","","-0.7","","56","","16","","16","","24.1","","100.72","","","","","","Mainly Clear"
"2016-03-11 17:00","2016","03","11","17:00","7.8","","-0.7","","55","","17","","12","","24.1","","100.67","","","","","","NA"
"2016-03-11 18:00","2016","03","11","18:00","6.9","","-0.8","","58","","16","","10","","24.1","","100.72","","","","","","NA"
"2016-03-11 19:00","2016","03","11","19:00","5.2","","-0.8","","65","","14","","10","","24.1","","100.76","","","","","","Mainly Clear"
"2016-03-11 20:00","2016","03","11","20:00","4.0","","-0.2","","74","","15","","12","","24.1","","100.75","","","","","","NA"
"2016-03-11 21:00","2016","03","11","21:00","3.7","","0.6","","80","","16","","5","","24.1","","100.74","","","","","","NA"
"2016-03-11 22:00","2016","03","11","22:00","3.1","","0.7","","84","","15","","7","","24.1","","100.70","","","","","","Clear"
"2016-03-11 23:00","2016","03","11","23:00","2.8","","0.5","","85","","12","","4","","24.1","","100.64","","","","","","NA"
"2016-03-12 00:00","2016","03","12","00:00","2.1","","0.2","","87","","16","","5","","24.1","","100.61","","","","","","NA"
"2016-03-12 01:00","2016","03","12","01:00","1.7","","-0.2","","87","","18","","4","","24.1","","100.58","","","","","","Clear"
"2016-03-12 02:00","2016","03","12","02:00","0.9","","-0.7","","89","","19","","4","","24.1","","100.53","","","","","","NA"
"2016-03-12 03:00","2016","03","12","03:00","0.2","","-1.4","","89","","21","","8","","24.1","","100.40","","","","","","NA"
"2016-03-12 04:00","2016","03","12","04:00","-0.5","","-1.9","","90","","24","","10","","24.1","","100.35","","","","-4","","Clear"
"2016-03-12 05:00","2016","03","12","05:00","-0.9","","-2.2","","91","","25","","8","","24.1","","100.30","","","","-4","","NA"
"2016-03-12 06:00","2016","03","12","06:00","-0.9","","-2.2","","91","","28","","5","","24.1","","100.25","","","","-3","","NA"
"2016-03-12 07:00","2016","03","12","07:00","-0.2","","-1.6","","90","","21","","10","","24.1","","100.29","","","","-4","","Mostly Cloudy"
"2016-03-12 08:00","2016","03","12","08:00","1.1","","-1.0","","86","","23","","5","","24.1","","100.27","","","","","","NA"
"2016-03-12 09:00","2016","03","12","09:00","3.9","","0.8","","80","","24","","8","","24.1","","100.18","","","","","","NA"
"2016-03-12 10:00","2016","03","12","10:00","7.5","","-1.5","","53","","24","","17","","24.1","","100.08","","","","","","Mostly Cloudy"
"2016-03-12 11:00","2016","03","12","11:00","10.0","","-1.7","","44","","23","","18","","24.1","","99.98","","","","","","NA"
"2016-03-12 12:00","2016","03","12","12:00","13.4","","-0.2","","39","","25","","21","","24.1","","99.92","","","","","","NA"
"2016-03-12 13:00","2016","03","12","13:00","15.6","","-0.1","","34","","24","","21","","24.1","","99.79","","","","","","Mostly Cloudy"
"2016-03-12 14:00","2016","03","12","14:00","16.6","","0.4","","33","","26","","26","","24.1","","99.69","","","","","","NA"
"2016-03-12 15:00","2016","03","12","15:00","16.2","","-0.4","","32","","26","","22","","24.1","","99.70","","","","","","NA"
"2016-03-12 16:00","2016","03","12","16:00","15.4","","-0.7","","33","","26","","23","","24.1","","99.63","","","","","","Cloudy"
"2016-03-12 17:00","2016","03","12","17:00","14.8","","-0.1","","36","","24","","19","","24.1","","99.56","","","","","","NA"
"2016-03-12 18:00","2016","03","12","18:00","13.1","","-1.2","","37","","26","","20","","24.1","","99.58","","","","","","NA"
"2016-03-12 19:00","2016","03","12","19:00","12.4","","-1.5","","38","","28","","18","","24.1","","99.62","","","","","","Cloudy"
"2016-03-12 20:00","2016","03","12","20:00","11.0","","0.2","","47","","27","","17","","24.1","","99.62","","","","","","NA"
"2016-03-12 21:00","2016","03","12","21:00","9.7","","0.1","","51","","28","","10","","24.1","","99.62","","","","","","NA"
"2016-03-12 22:00","2016","03","12","22:00","9.4","","-0.2","","51","","28","","15","","24.1","","99.65","","","","","","Mostly Cloudy"
"2016-03-12 23:00","2016","03","12","23:00","8.0","","-0.2","","56","","30","","8","","24.1","","99.66","","","","","","NA"
"2016-03-13 00:00","2016","03","13","00:00","8.2","","0.0","","56","","29","","10","","24.1","","99.71","","","","","","NA"
"2016-03-13 01:00","2016","03","13","01:00","6.8","","0.5","","64","","29","","11","","24.1","","99.73","","","","","","Mainly Clear"
"2016-03-13 02:00","2016","03","13","02:00","6.6","","0.9","","67","","32","","14","","24.1","","99.71","","","","","","NA"
"2016-03-13 03:00","2016","03","13","03:00","6.3","","1.3","","70","","35","","16","","24.1","","99.74","","","","","","NA"
"2016-03-13 04:00","2016","03","13","04:00","5.2","","1.3","","76","","1","","16","","24.1","","99.79","","","","","","Mainly Clear"
"2016-03-13 05:00","2016","03","13","05:00","4.8","","0.9","","76","","3","","9","","24.1","","99.83","","","","","","NA"
"2016-03-13 06:00","2016","03","13","06:00","4.7","","0.7","","75","","4","","9","","24.1","","99.84","","","","","","NA"
"2016-03-13 07:00","2016","03","13","07:00","4.4","","0.2","","74","","3","","8","","24.1","","99.89","","","","","","Cloudy"
"2016-03-13 08:00","2016","03","13","08:00","6.1","","0.0","","65","","8","","11","","24.1","","99.95","","","","","","NA"
"2016-03-13 09:00","2016","03","13","09:00","6.7","","-1.5","","56","","9","","26","","24.1","","99.97","","","","","","NA"
"2016-03-13 10:00","2016","03","13","10:00","6.4","","-2.7","","52","","9","","25","","24.1","","99.96","","","","","","Cloudy"
"2016-03-13 11:00","2016","03","13","11:00","7.1","","-2.6","","50","","10","","21","","24.1","","99.96","","","","","","NA"
"2016-03-13 12:00","2016","03","13","12:00","7.0","","-3.5","","47","","8","","27","","24.1","","99.93","","","","","","NA"
"2016-03-13 13:00","2016","03","13","13:00","6.8","","-3.7","","47","","9","","27","","24.1","","99.88","","","","","","Cloudy"
"2016-03-13 14:00","2016","03","13","14:00","7.0","","-4.4","","44","","9","","17","","24.1","","99.76","","","","","","NA"
"2016-03-13 15:00","2016","03","13","15:00","7.4","","-7.9","","33","","9","","30","","24.1","","99.68","","","","","","NA"
"2016-03-13 16:00","2016","03","13","16:00","8.2","","-11.8","","23","","10","","37","","24.1","","99.62","","","","","","Mostly Cloudy"
"2016-03-13 17:00","2016","03","13","17:00","7.8","","-7.5","","33","","10","","22","","24.1","","99.59","","","","","","NA"
"2016-03-13 18:00","2016","03","13","18:00","6.8","","-6.9","","37","","9","","25","","24.1","","99.56","","","","","","NA"
"2016-03-13 19:00","2016","03","13","19:00","6.9","","-6.1","","39","","10","","24","","24.1","","99.52","","","","","","Cloudy"
"2016-03-13 20:00","2016","03","13","20:00","7.0","","-5.7","","40","","9","","23","","24.1","","99.50","","","","","","NA"
"2016-03-13 21:00","2016","03","13","21:00","6.3","","-4.2","","47","","9","","22","","24.1","","99.43","","","","","","NA"
"2016-03-13 22:00","2016","03","13","22:00","5.8","","-4.1","","49","","9","","25","","24.1","","99.39","","","","","","Cloudy"
"2016-03-13 23:00","2016","03","13","23:00","5.4","","-3.7","","52","","10","","29","","24.1","","99.31","","","","","","NA"
"2016-03-14 00:00","2016","03","14","00:00","4.8","","-2.5","","59","","9","","29","","24.1","","99.22","","","","","","NA"
"2016-03-14 01:00","2016","03","14","01:00","3.8","","-0.2","","75","","8","","25","","24.1","","99.12","","","","","","Cloudy"
"2016-03-14 02:00","2016","03","14","02:00","3.7","","2.1","","89","","9","","17","","16.1","","99.04","","","","","","Rain"
"2016-03-14 03:00","2016","03","14","03:00","4.4","","3.4","","93","","10","","20","","12.9","","98.95","","","","","","Rain"
"2016-03-14 04:00","2016","03","14","04:00","4.6","","3.7","","94","","10","","21","","12.9","","98.87","","","","","","Rain"
"2016-03-14 05:00","2016","03","14","05:00","5.0","","4.1","","94","","9","","25","","12.9","","98.83","","","","","","Rain"
"2016-03-14 06:00","2016","03","14","06:00","5.2","","4.5","","95","","9","","20","","4.8","","98.81","","","","","","Rain"
"2016-03-14 07:00","2016","03","14","07:00","5.7","","5.0","","95","","10","","15","","4.0","","98.81","","","","","","Rain,Fog"
"2016-03-14 08:00","2016","03","14","08:00","5.5","","4.8","","95","","10","","21","","2.4","","98.80","","","","","","Rain,Fog"
"2016-03-14 09:00","2016","03","14","09:00","6.1","","5.4","","95","","10","","16","","1.6","","98.79","","","","","","Drizzle,Fog"
"2016-03-14 10:00","2016","03","14","10:00","7.3","","6.7","","96","","9","","14","","1.6","","98.76","","","","","","Drizzle,Fog"
"2016-03-14 11:00","2016","03","14","11:00","8.0","","7.4","","96","","10","","12","","2.4","","98.74","","","","","","Drizzle,Fog"
"2016-03-14 12:00","2016","03","14","12:00","8.0","","7.3","","95","","11","","14","","3.2","","98.73","","","","","","Drizzle,Fog"
"2016-03-14 13:00","2016","03","14","13:00","8.3","","7.4","","94","","13","","8","","4.8","","98.72","","","","","","Rain,Fog"
"2016-03-14 14:00","2016","03","14","14:00","8.4","","7.7","","95","","10","","11","","8.1","","98.66","","","","","","Drizzle,Fog"
"2016-03-14 15:00","2016","03","14","15:00","8.7","","7.8","","94","","11","","13","","11.3","","98.62","","","","","","Drizzle"
"2016-03-14 16:00","2016","03","14","16:00","8.6","","7.7","","94","","9","","9","","16.1","","98.58","","","","","","Cloudy"
"2016-03-14 17:00","2016","03","14","17:00","9.0","","7.9","","93","","11","","8","","19.3","","98.57","","","","","","NA"
"2016-03-14 18:00","2016","03","14","18:00","8.7","","7.6","","93","","10","","13","","16.1","","98.54","","","","","","NA"
"2016-03-14 19:00","2016","03","14","19:00","8.4","","7.3","","93","","11","","9","","19.3","","98.56","","","","","","Cloudy"
"2016-03-14 20:00","2016","03","14","20:00","8.6","","7.2","","91","","8","","7","","24.1","","98.60","","","","","","NA"
"2016-03-14 21:00","2016","03","14","21:00","8.5","","7.0","","90","","9","","8","","24.1","","98.62","","","","","","NA"
"2016-03-14 22:00","2016","03","14","22:00","8.4","","6.9","","90","","11","","5","","24.1","","98.64","","","","","","Cloudy"
"2016-03-14 23:00","2016","03","14","23:00","8.1","","6.2","","88","","15","","7","","24.1","","98.67","","","","","","NA"
"2016-03-15 00:00","2016","03","15","00:00","7.7","","6.0","","89","","13","","7","","24.1","","98.65","","","","","","NA"
"2016-03-15 01:00","2016","03","15","01:00","7.6","","5.9","","89","","14","","6","","19.3","","98.63","","","","","","Rain"
"2016-03-15 02:00","2016","03","15","02:00","7.4","","6.2","","92","","6","","5","","19.3","","98.55","","","","","","Rain"
"2016-03-15 03:00","2016","03","15","03:00","7.2","","6.2","","93","","13","","8","","19.3","","98.57","","","","","","Rain"
"2016-03-15 04:00","2016","03","15","04:00","7.0","","6.3","","95","","14","","7","","8.1","","98.62","","","","","","Rain,Fog"
"2016-03-15 05:00","2016","03","15","05:00","6.8","","6.1","","95","","36","","3","","8.1","","98.65","","","","","","Rain,Fog"
"2016-03-15 06:00","2016","03","15","06:00","7.2","","6.5","","95","","1","","8","","8.1","","98.69","","","","","","Rain,Fog"
"2016-03-15 07:00","2016","03","15","07:00","6.7","","6.0","","95","","35","","14","","11.3","","98.74","","","","","","Rain"
"2016-03-15 08:00","2016","03","15","08:00","6.7","","5.8","","94","","36","","16","","6.4","","98.77","","","","","","Drizzle"
"2016-03-15 09:00","2016","03","15","09:00","6.7","","5.8","","94","","36","","14","","11.3","","98.79","","","","","","Drizzle"
"2016-03-15 10:00","2016","03","15","10:00","6.9","","5.4","","90","","36","","18","","24.1","","98.89","","","","","","Cloudy"
"2016-03-15 11:00","2016","03","15","11:00","6.8","","5.1","","89","","35","","18","","19.3","","98.95","","","","","","NA"
"2016-03-15 12:00","2016","03","15","12:00","7.3","","5.1","","86","","36","","22","","24.1","","98.93","","","","","","NA"
"2016-03-15 13:00","2016","03","15","13:00","8.1","","5.1","","81","","34","","20","","24.1","","98.94","","","","","","Cloudy"
"2016-03-15 14:00","2016","03","15","14:00","8.7","","5.1","","78","","36","","15","","24.1","","98.90","","","","","","NA"
"2016-03-15 15:00","2016","03","15","15:00","9.2","","5.0","","75","","34","","19","","24.1","","98.92","","","","","","NA"
"2016-03-15 16:00","2016","03","15","16:00","9.3","","4.5","","72","","35","","14","","24.1","","98.95","","","","","","Mostly Cloudy"
"2016-03-15 17:00","2016","03","15","17:00","9.3","","4.3","","71","","2","","15","","24.1","","98.95","","","","","","NA"
"2016-03-15 18:00","2016","03","15","18:00","7.5","","3.8","","77","","4","","16","","24.1","","99.02","","","","","","NA"
"2016-03-15 19:00","2016","03","15","19:00","6.4","","3.4","","81","","2","","16","","24.1","","99.09","","","","","","Mostly Cloudy"
"2016-03-15 20:00","2016","03","15","20:00","6.7","","3.2","","78","","1","","16","","24.1","","99.17","","","","","","NA"
"2016-03-15 21:00","2016","03","15","21:00","6.2","","3.5","","83","","2","","13","","24.1","","99.19","","","","","","NA"
"2016-03-15 22:00","2016","03","15","22:00","5.8","","3.3","","84","","1","","14","","24.1","","99.16","","","","","","Mostly Cloudy"
"2016-03-15 23:00","2016","03","15","23:00","5.7","","3.4","","85","","2","","8","","24.1","","99.14","","","","","","NA"
"2016-03-16 00:00","2016","03","16","00:00","5.8","","3.5","","85","","3","","11","","24.1","","99.08","","","","","","NA"
"2016-03-16 01:00","2016","03","16","01:00","5.4","","3.3","","86","","2","","15","","24.1","","99.05","","","","","","Cloudy"
"2016-03-16 02:00","2016","03","16","02:00","5.9","","3.9","","87","","8","","8","","24.1","","99.00","","","","","","NA"
"2016-03-16 03:00","2016","03","16","03:00","6.3","","4.0","","85","","8","","9","","24.1","","99.02","","","","","","NA"
"2016-03-16 04:00","2016","03","16","04:00","6.3","","5.3","","93","","10","","18","","9.7","","98.98","","","","","","Drizzle"
"2016-03-16 05:00","2016","03","16","05:00","5.7","","4.7","","93","","9","","22","","12.9","","98.84","","","","","","Drizzle"
"2016-03-16 06:00","2016","03","16","06:00","5.4","","4.4","","93","","8","","26","","12.9","","98.74","","","","","","NA"
"2016-03-16 07:00","2016","03","16","07:00","5.5","","4.5","","93","","8","","25","","16.1","","98.82","","","","","","Cloudy"
"2016-03-16 08:00","2016","03","16","08:00","5.0","","4.1","","94","","9","","30","","4.0","","98.59","","","","","","Fog"
"2016-03-16 09:00","2016","03","16","09:00","4.8","","4.1","","95","","9","","31","","2.8","","98.51","","","","","","Fog"
"2016-03-16 10:00","2016","03","16","10:00","5.3","","4.4","","94","","10","","36","","9.7","","98.33","","","","","","Fog"
"2016-03-16 11:00","2016","03","16","11:00","4.8","","3.8","","93","","10","","35","","8.1","","98.17","","","","","","Rain,Fog"
"2016-03-16 12:00","2016","03","16","12:00","4.6","","3.7","","94","","9","","28","","6.4","","98.17","","","","","","NA"
"2016-03-16 13:00","2016","03","16","13:00","5.2","","4.5","","95","","11","","24","","9.7","","98.16","","","","","","Rain,Fog"
"2016-03-16 14:00","2016","03","16","14:00","6.4","","5.5","","94","","13","","9","","12.9","","98.18","","","","","","NA"
"2016-03-16 15:00","2016","03","16","15:00","9.4","","7.5","","88","","12","","7","","16.1","","98.17","","","","","","NA"
"2016-03-16 16:00","2016","03","16","16:00","11.8","","6.1","","68","","22","","21","","24.1","","98.18","","","","","","Mostly Cloudy"
"2016-03-16 17:00","2016","03","16","17:00","10.6","","4.8","","67","","25","","22","","24.1","","98.31","","","","","","NA"
"2016-03-16 18:00","2016","03","16","18:00","11.8","","4.3","","60","","23","","14","","24.1","","98.39","","","","","","NA"
"2016-03-16 19:00","2016","03","16","19:00","7.9","","4.3","","78","","33","","14","","24.1","","98.52","","","","","","Rain Showers"
"2016-03-16 20:00","2016","03","16","20:00","7.7","","4.1","","78","","12","","8","","24.1","","98.49","","","","","","NA"
"2016-03-16 21:00","2016","03","16","21:00","7.4","","3.8","","78","","5","","5","","24.1","","98.54","","","","","","NA"
"2016-03-16 22:00","2016","03","16","22:00","6.7","","3.2","","78","","36","","12","","24.1","","98.62","","","","","","Mainly Clear"
"2016-03-16 23:00","2016","03","16","23:00","6.4","","3.6","","82","","6","","6","","24.1","","98.66","","","","","","NA"
"2016-03-17 00:00","2016","03","17","00:00","5.8","","2.8","","81","","15","","7","","24.1","","98.65","","","","","","NA"
"2016-03-17 01:00","2016","03","17","01:00","6.2","","0.8","","68","","19","","8","","24.1","","98.63","","","","","","Clear"
"2016-03-17 02:00","2016","03","17","02:00","6.1","","-0.4","","63","","21","","12","","24.1","","98.57","","","","","","NA"
"2016-03-17 03:00","2016","03","17","03:00","5.8","","-0.3","","65","","20","","11","","24.1","","98.52","","","","","","NA"
"2016-03-17 04:00","2016","03","17","04:00","5.5","","-0.8","","64","","22","","17","","24.1","","98.53","","","","","","Clear"
"2016-03-17 05:00","2016","03","17","05:00","5.3","","-0.5","","66","","22","","17","","24.1","","98.49","","","","","","NA"
"2016-03-17 06:00","2016","03","17","06:00","4.9","","-0.3","","69","","22","","16","","24.1","","98.49","","","","","","NA"
"2016-03-17 07:00","2016","03","17","07:00","5.5","","0.1","","68","","22","","19","","24.1","","98.49","","","","","","Mostly Cloudy"
"2016-03-17 08:00","2016","03","17","08:00","6.4","","0.7","","67","","24","","16","","24.1","","98.53","","","","","","NA"
"2016-03-17 09:00","2016","03","17","09:00","7.8","","1.2","","63","","24","","23","","24.1","","98.56","","","","","","NA"
"2016-03-17 10:00","2016","03","17","10:00","9.3","","1.5","","58","","25","","20","","24.1","","98.54","","","","","","Mostly Cloudy"
"2016-03-17 11:00","2016","03","17","11:00","9.3","","-0.8","","49","","25","","28","","24.1","","98.50","","","","","","NA"
"2016-03-17 12:00","2016","03","17","12:00","8.1","","1.7","","64","","30","","20","","24.1","","98.46","","","","","","Rain Showers"
"2016-03-17 13:00","2016","03","17","13:00","8.5","","2.5","","66","","26","","21","","24.1","","98.46","","","","","","Rain Showers"
"2016-03-17 14:00","2016","03","17","14:00","9.3","","0.5","","54","","25","","34","","24.1","","98.45","","","","","","Rain Showers"
"2016-03-17 15:00","2016","03","17","15:00","9.5","","-2.4","","43","","26","","46","","24.1","","98.46","","","","","","NA"
"2016-03-17 16:00","2016","03","17","16:00","8.8","","-1.0","","50","","28","","30","","24.1","","98.51","","","","","","Cloudy"
"2016-03-17 17:00","2016","03","17","17:00","7.9","","-1.1","","53","","27","","27","","24.1","","98.56","","","","","","NA"
"2016-03-17 18:00","2016","03","17","18:00","7.3","","-0.6","","57","","28","","36","","24.1","","98.65","","","","","","Rain Showers"
"2016-03-17 19:00","2016","03","17","19:00","5.7","","0.5","","69","","28","","27","","24.1","","98.75","","","","","","Mostly Cloudy"
"2016-03-17 20:00","2016","03","17","20:00","5.2","","1.0","","74","","29","","17","","24.1","","98.83","","","","","","NA"
"2016-03-17 21:00","2016","03","17","21:00","4.3","","1.3","","81","","30","","28","","24.1","","98.88","","","","","","Rain Showers"
"2016-03-17 22:00","2016","03","17","22:00","4.3","","1.2","","80","","31","","21","","24.1","","98.90","","","","","","Mostly Cloudy"
"2016-03-17 23:00","2016","03","17","23:00","3.6","","0.7","","81","","28","","24","","24.1","","98.89","","","","","","Rain Showers"
"2016-03-18 00:00","2016","03","18","00:00","3.3","","0.5","","82","","28","","12","","24.1","","98.88","","","","","","NA"
"2016-03-18 01:00","2016","03","18","01:00","3.0","","0.6","","84","","26","","13","","24.1","","98.90","","","","","","Mostly Cloudy"
"2016-03-18 02:00","2016","03","18","02:00","3.3","","0.7","","83","","29","","12","","24.1","","98.90","","","","","","NA"
"2016-03-18 03:00","2016","03","18","03:00","3.2","","0.3","","81","","27","","14","","24.1","","98.87","","","","","","NA"
"2016-03-18 04:00","2016","03","18","04:00","1.7","","-0.4","","86","","26","","15","","24.1","","98.89","","","","","","Mainly Clear"
"2016-03-18 05:00","2016","03","18","05:00","1.2","","-0.7","","87","","27","","17","","24.1","","98.91","","","","","","NA"
"2016-03-18 06:00","2016","03","18","06:00","2.2","","-0.7","","81","","27","","18","","24.1","","98.93","","","","","","NA"
"2016-03-18 07:00","2016","03","18","07:00","2.4","","-0.7","","80","","29","","15","","24.1","","98.99","","","","","","Mostly Cloudy"
"2016-03-18 08:00","2016","03","18","08:00","3.2","","-0.6","","76","","31","","18","","24.1","","99.03","","","","","","NA"
"2016-03-18 09:00","2016","03","18","09:00","2.9","","-0.2","","80","","32","","26","","24.1","","99.08","","","","","","NA"
"2016-03-18 10:00","2016","03","18","10:00","4.5","","-0.7","","69","","35","","23","","24.1","","99.13","","","","","","Mostly Cloudy"
"2016-03-18 11:00","2016","03","18","11:00","4.2","","-1.2","","68","","35","","24","","24.1","","99.22","","","","","","NA"
"2016-03-18 12:00","2016","03","18","12:00","4.4","","-1.6","","65","","32","","29","","24.1","","99.28","","","","","","NA"
"2016-03-18 13:00","2016","03","18","13:00","4.6","","-1.8","","63","","34","","23","","24.1","","99.33","","","","","","Mostly Cloudy"
"2016-03-18 14:00","2016","03","18","14:00","5.9","","-4.3","","48","","35","","28","","24.1","","99.34","","","","","","NA"
"2016-03-18 15:00","2016","03","18","15:00","5.1","","-5.9","","45","","36","","33","","24.1","","99.36","","","","","","NA"
"2016-03-18 16:00","2016","03","18","16:00","4.3","","-8.8","","38","","34","","35","","24.1","","99.41","","","","","","Mainly Clear"
"2016-03-18 17:00","2016","03","18","17:00","2.5","","-12.6","","32","","36","","35","","24.1","","99.50","","","","","","NA"
"2016-03-18 18:00","2016","03","18","18:00","0.8","","-12.0","","38","","1","","32","","24.1","","99.61","","","","","","NA"
"2016-03-18 19:00","2016","03","18","19:00","-0.7","","-10.7","","47","","35","","35","","24.1","","99.71","","","","-8","","Mainly Clear"
"2016-03-18 20:00","2016","03","18","20:00","-1.4","","-10.8","","49","","35","","34","","24.1","","99.76","","","","-9","","NA"
"2016-03-18 21:00","2016","03","18","21:00","-1.6","","-10.5","","51","","34","","26","","24.1","","99.87","","","","-8","","NA"
"2016-03-18 22:00","2016","03","18","22:00","-1.9","","-10.8","","51","","34","","21","","24.1","","99.91","","","","-8","","Clear"
"2016-03-18 23:00","2016","03","18","23:00","-2.4","","-11.2","","51","","36","","18","","24.1","","99.93","","","","-8","","NA"
"2016-03-19 00:00","2016","03","19","00:00","-2.8","","-12.6","","47","","1","","18","","24.1","","99.96","","","","-8","","NA"
"2016-03-19 01:00","2016","03","19","01:00","-3.2","","-13.0","","47","","1","","17","","24.1","","100.01","","","","-9","","Clear"
"2016-03-19 02:00","2016","03","19","02:00","-3.7","","-12.9","","49","","1","","13","","24.1","","100.04","","","","-9","","NA"
"2016-03-19 03:00","2016","03","19","03:00","-4.0","","-13.7","","47","","5","","8","","24.1","","100.07","","","","-7","","NA"
"2016-03-19 04:00","2016","03","19","04:00","-4.5","","-13.9","","48","","2","","15","","24.1","","100.16","","","","-10","","Clear"
"2016-03-19 05:00","2016","03","19","05:00","-5.2","","-14.1","","50","","1","","12","","24.1","","100.21","","","","-10","","NA"
"2016-03-19 06:00","2016","03","19","06:00","-5.0","","-13.7","","51","","36","","17","","24.1","","100.22","","","","-11","","NA"
"2016-03-19 07:00","2016","03","19","07:00","-4.8","","-13.0","","53","","2","","12","","24.1","","100.26","","","","-10","","Clear"
"2016-03-19 08:00","2016","03","19","08:00","-4.0","","-12.7","","51","","36","","19","","24.1","","100.26","","","","-10","","NA"
"2016-03-19 09:00","2016","03","19","09:00","-3.0","","-14.5","","41","","3","","19","","24.1","","100.29","","","","-9","","NA"
"2016-03-19 10:00","2016","03","19","10:00","-2.5","","-15.0","","38","","5","","14","","24.1","","100.30","","","","-7","","Clear"
"2016-03-19 11:00","2016","03","19","11:00","-1.4","","-14.7","","36","","35","","14","","24.1","","100.31","","","","-6","","NA"
"2016-03-19 12:00","2016","03","19","12:00","-0.1","","-14.9","","32","","8","","9","","24.1","","100.32","","","","-3","","NA"
"2016-03-19 13:00","2016","03","19","13:00","0.7","","-11.4","","40","","12","","16","","24.1","","100.25","","","","","","Clear"
"2016-03-19 14:00","2016","03","19","14:00","0.8","","-11.3","","40","","14","","13","","24.1","","100.14","","","","","","NA"
"2016-03-19 15:00","2016","03","19","15:00","1.5","","-11.0","","39","","16","","11","","24.1","","100.12","","","","","","NA"
"2016-03-19 16:00","2016","03","19","16:00","0.6","","-10.6","","43","","15","","12","","24.1","","100.16","","","","","","Clear"
"2016-03-19 17:00","2016","03","19","17:00","-0.2","","-10.2","","47","","14","","13","","24.1","","100.18","","","","-4","","NA"
"2016-03-19 18:00","2016","03","19","18:00","-0.5","","-10.0","","49","","14","","9","","24.1","","100.22","","","","-4","","NA"
"2016-03-19 19:00","2016","03","19","19:00","-1.6","","-10.0","","53","","14","","9","","24.1","","100.23","","","","-5","","Mainly Clear"
"2016-03-19 20:00","2016","03","19","20:00","-1.9","","-9.6","","56","","20","","6","","24.1","","100.26","","","","-4","","NA"
"2016-03-19 21:00","2016","03","19","21:00","-2.3","","-9.9","","56","","35","","17","","24.1","","100.30","","","","-8","","NA"
"2016-03-19 22:00","2016","03","19","22:00","-3.1","","-10.3","","58","","35","","18","","24.1","","100.31","","","","-9","","Clear"
"2016-03-19 23:00","2016","03","19","23:00","-3.9","","-10.0","","63","","36","","13","","24.1","","100.30","","","","-9","","NA"
"2016-03-20 00:00","2016","03","20","00:00","-4.4","","-9.5","","68","","1","","15","","24.1","","100.24","","","","-10","","NA"
"2016-03-20 01:00","2016","03","20","01:00","-4.4","","-9.5","","68","","1","","19","","24.1","","100.17","","","","-11","","Clear"
"2016-03-20 02:00","2016","03","20","02:00","-4.9","","-9.2","","72","","2","","19","","24.1","","100.15","","","","-11","","NA"
"2016-03-20 03:00","2016","03","20","03:00","-5.7","","-9.5","","75","","2","","12","","24.1","","100.11","","","","-11","","NA"
"2016-03-20 04:00","2016","03","20","04:00","-5.1","","-9.4","","72","","6","","4","","24.1","","100.13","","","","-7","","Clear"
"2016-03-20 05:00","2016","03","20","05:00","-5.3","","-10.3","","68","","3","","8","","24.1","","100.13","","","","-9","","NA"
"2016-03-20 06:00","2016","03","20","06:00","-4.9","","-8.7","","75","","4","","9","","24.1","","100.15","","","","-9","","NA"
"2016-03-20 07:00","2016","03","20","07:00","-3.5","","-7.3","","75","","5","","11","","24.1","","100.17","","","","-8","","Mostly Cloudy"
"2016-03-20 08:00","2016","03","20","08:00","-2.1","","-9.1","","59","","6","","16","","24.1","","100.13","","","","-7","","NA"
"2016-03-20 09:00","2016","03","20","09:00","-0.8","","-8.1","","58","","8","","17","","24.1","","100.09","","","","-6","","NA"
"2016-03-20 10:00","2016","03","20","10:00","0.3","","-8.0","","54","","7","","18","","24.1","","100.03","","","","","","Mostly Cloudy"
"2016-03-20 11:00","2016","03","20","11:00","0.9","","-8.4","","50","","13","","9","","24.1","","99.97","","","","","","NA"
"2016-03-20 12:00","2016","03","20","12:00","1.4","","-7.9","","50","","10","","15","","24.1","","99.93","","","","","","NA"
"2016-03-20 13:00","2016","03","20","13:00","1.6","","-7.2","","52","","10","","13","","24.1","","99.84","","","","","","Mostly Cloudy"
"2016-03-20 14:00","2016","03","20","14:00","2.2","","-9.1","","43","","7","","7","","24.1","","99.73","","","","","","NA"
"2016-03-20 15:00","2016","03","20","15:00","2.4","","-6.7","","51","","19","","16","","24.1","","99.64","","","","","","NA"
"2016-03-20 16:00","2016","03","20","16:00","2.2","","-8.3","","46","","14","","12","","24.1","","99.54","","","","","","Clear"
"2016-03-20 17:00","2016","03","20","17:00","1.5","","-8.1","","49","","17","","11","","24.1","","99.50","","","","","","NA"
"2016-03-20 18:00","2016","03","20","18:00","0.2","","-8.8","","51","","17","","10","","24.1","","99.50","","","","","","NA"
"2016-03-20 19:00","2016","03","20","19:00","-1.1","","-8.6","","57","","15","","8","","24.1","","99.50","","","","-4","","Mainly Clear"
"2016-03-20 20:00","2016","03","20","20:00","-1.1","","-8.6","","57","","18","","3","","24.1","","99.53","","","","-2","","NA"
"2016-03-20 21:00","2016","03","20","21:00","-1.6","","-8.4","","60","","27","","8","","24.1","","99.56","","","","-5","","NA"
"2016-03-20 22:00","2016","03","20","22:00","-1.3","","-8.3","","59","","22","","5","","24.1","","99.50","","","","-3","","Clear"
"2016-03-20 23:00","2016","03","20","23:00","-1.9","","-8.9","","59","","26","","7","","24.1","","99.44","","","","-5","","NA"
"2016-03-21 00:00","2016","03","21","00:00","-1.9","","-9.6","","56","","31","","11","","24.1","","99.40","","","","-6","","NA"
"2016-03-21 01:00","2016","03","21","01:00","-2.2","","-11.0","","51","","31","","12","","24.1","","99.35","","","","-6","","Mainly Clear"
"2016-03-21 02:00","2016","03","21","02:00","-1.9","","-9.6","","56","","30","","18","","24.1","","99.33","","","","-7","","NA"
"2016-03-21 03:00","2016","03","21","03:00","-2.2","","-8.5","","62","","31","","17","","24.1","","99.27","","","","-8","","NA"
"2016-03-21 04:00","2016","03","21","04:00","-3.5","","-8.6","","68","","28","","10","","24.1","","99.24","","","","-7","","Mostly Cloudy"
"2016-03-21 05:00","2016","03","21","05:00","-3.1","","-7.1","","74","","28","","13","","24.1","","99.24","","","","-8","","NA"
"2016-03-21 06:00","2016","03","21","06:00","-1.4","","-5.8","","72","","29","","14","","24.1","","99.23","","","","-6","","NA"
"2016-03-21 07:00","2016","03","21","07:00","-0.9","","-5.5","","71","","28","","11","","24.1","","99.25","","","","-5","","Mostly Cloudy"
"2016-03-21 08:00","2016","03","21","08:00","0.4","","-5.0","","67","","27","","21","","24.1","","99.22","","","","","","NA"
"2016-03-21 09:00","2016","03","21","09:00","1.0","","-6.1","","59","","31","","27","","24.1","","99.25","","","","","","NA"
"2016-03-21 10:00","2016","03","21","10:00","1.5","","-6.6","","55","","32","","30","","24.1","","99.30","","","","","","Mostly Cloudy"
"2016-03-21 11:00","2016","03","21","11:00","3.1","","-7.7","","45","","32","","29","","24.1","","99.33","","","","","","NA"
"2016-03-21 12:00","2016","03","21","12:00","2.0","","-9.9","","41","","33","","41","","24.1","","99.39","","","","","","NA"
"2016-03-21 13:00","2016","03","21","13:00","1.8","","-12.1","","35","","33","","40","","24.1","","99.41","","","","","","Mostly Cloudy"
"2016-03-21 14:00","2016","03","21","14:00","3.5","","-9.9","","37","","31","","43","","24.1","","99.44","","","","","","Snow Showers"
"2016-03-21 15:00","2016","03","21","15:00","2.8","","-11.6","","34","","30","","36","","24.1","","99.44","","","","","","NA"
"2016-03-21 16:00","2016","03","21","16:00","2.7","","-10.3","","38","","31","","33","","24.1","","99.48","","","","","","Mostly Cloudy"
"2016-03-21 17:00","2016","03","21","17:00","2.3","","-11.3","","36","","30","","31","","24.1","","99.51","","","","","","NA"
"2016-03-21 18:00","2016","03","21","18:00","1.3","","-8.8","","47","","28","","30","","24.1","","99.57","","","","","","NA"
"2016-03-21 19:00","2016","03","21","19:00","0.1","","-8.1","","54","","28","","16","","24.1","","99.61","","","","","","Mainly Clear"
"2016-03-21 20:00","2016","03","21","20:00","-1.0","","-7.4","","62","","28","","12","","24.1","","99.66","","","","-5","","NA"
"2016-03-21 21:00","2016","03","21","21:00","-2.6","","-7.5","","69","","26","","12","","24.1","","99.67","","","","-7","","NA"
"2016-03-21 22:00","2016","03","21","22:00","-2.5","","-6.9","","72","","27","","11","","24.1","","99.67","","","","-7","","Mainly Clear"
"2016-03-21 23:00","2016","03","21","23:00","-2.8","","-7.7","","69","","27","","14","","24.1","","99.65","","","","-8","","NA"
"2016-03-22 00:00","2016","03","22","00:00","-3.2","","-7.4","","73","","24","","14","","24.1","","99.67","","","","-8","","NA"
"2016-03-22 01:00","2016","03","22","01:00","-3.1","","-7.3","","73","","25","","13","","24.1","","99.68","","","","-8","","Mainly Clear"
"2016-03-22 02:00","2016","03","22","02:00","-3.4","","-7.6","","73","","25","","10","","24.1","","99.69","","","","-7","","NA"
"2016-03-22 03:00","2016","03","22","03:00","-2.9","","-7.3","","72","","25","","5","","24.1","","99.62","","","","-5","","NA"
"2016-03-22 04:00","2016","03","22","04:00","-2.5","","-7.2","","70","","22","","7","","24.1","","99.58","","","","-5","","Mainly Clear"
"2016-03-22 05:00","2016","03","22","05:00","-2.0","","-7.1","","68","","21","","7","","24.1","","99.57","","","","-5","","NA"
"2016-03-22 06:00","2016","03","22","06:00","-1.4","","-7.2","","65","","18","","7","","24.1","","99.53","","","","-4","","NA"
"2016-03-22 07:00","2016","03","22","07:00","-0.6","","-6.4","","65","","20","","4","","24.1","","99.54","","","","-2","","Mostly Cloudy"
"2016-03-22 08:00","2016","03","22","08:00","0.0","","-6.0","","64","","14","","8","","24.1","","99.52","","","","-3","","NA"
"2016-03-22 09:00","2016","03","22","09:00","1.1","","-5.0","","64","","14","","5","","24.1","","99.54","","","","","","NA"
"2016-03-22 10:00","2016","03","22","10:00","1.9","","-5.3","","59","","16","","5","","24.1","","99.55","","","","","","Cloudy"
"2016-03-22 11:00","2016","03","22","11:00","3.5","","-4.7","","55","","10","","9","","24.1","","99.50","","","","","","NA"
"2016-03-22 12:00","2016","03","22","12:00","4.7","","-4.3","","52","","14","","14","","24.1","","99.38","","","","","","NA"
"2016-03-22 13:00","2016","03","22","13:00","4.5","","-2.6","","60","","14","","12","","24.1","","99.30","","","","","","Cloudy"
"2016-03-22 14:00","2016","03","22","14:00","5.0","","-2.1","","60","","10","","16","","24.1","","99.09","","","","","","NA"
"2016-03-22 15:00","2016","03","22","15:00","5.3","","-2.5","","57","","11","","16","","24.1","","99.00","","","","","","NA"
"2016-03-22 16:00","2016","03","22","16:00","5.7","","-3.4","","52","","13","","13","","24.1","","98.89","","","","","","Cloudy"
"2016-03-22 17:00","2016","03","22","17:00","4.5","","-2.8","","59","","13","","16","","24.1","","98.81","","","","","","NA"
"2016-03-22 18:00","2016","03","22","18:00","3.3","","-0.7","","75","","12","","9","","9.7","","98.88","","","","","","Rain"
"2016-03-22 19:00","2016","03","22","19:00","3.1","","1.0","","86","","15","","8","","12.9","","98.84","","","","","","Rain"
"2016-03-22 20:00","2016","03","22","20:00","3.0","","1.4","","89","","10","","8","","12.9","","98.84","","","","","","Rain"
"2016-03-22 21:00","2016","03","22","21:00","3.2","","1.7","","90","","3","","10","","12.9","","98.82","","","","","","Rain"
"2016-03-22 22:00","2016","03","22","22:00","2.8","","1.5","","91","","6","","9","","12.9","","98.84","","","","","","Cloudy"
"2016-03-22 23:00","2016","03","22","23:00","2.7","","1.4","","91","","4","","5","","12.9","","98.83","","","","","","NA"
"2016-03-23 00:00","2016","03","23","00:00","2.9","","1.6","","91","","1","","4","","12.9","","98.81","","","","","","Rain"
"2016-03-23 01:00","2016","03","23","01:00","2.9","","1.7","","92","","25","","5","","12.9","","98.78","","","","","","Rain"
"2016-03-23 02:00","2016","03","23","02:00","3.3","","2.1","","92","","34","","7","","12.9","","98.78","","","","","","Rain"
"2016-03-23 03:00","2016","03","23","03:00","2.9","","1.6","","91","","1","","18","","12.9","","98.82","","","","","","NA"
"2016-03-23 04:00","2016","03","23","04:00","3.0","","1.7","","91","","36","","14","","12.9","","98.88","","","","","","Cloudy"
"2016-03-23 05:00","2016","03","23","05:00","2.9","","1.4","","90","","36","","19","","9.7","","98.99","","","","","","Fog"
"2016-03-23 06:00","2016","03","23","06:00","2.7","","1.1","","89","","36","","21","","9.7","","99.12","","","","","","Fog"
"2016-03-23 07:00","2016","03","23","07:00","2.4","","0.8","","89","","36","","23","","9.7","","99.24","","","","","","Fog"
"2016-03-23 08:00","2016","03","23","08:00","2.3","","0.5","","88","","1","","21","","14.5","","99.36","","","","","","NA"
"2016-03-23 09:00","2016","03","23","09:00","2.8","","0.4","","84","","4","","21","","24.1","","99.48","","","","","","NA"
"2016-03-23 10:00","2016","03","23","10:00","3.1","","-0.2","","79","","4","","16","","24.1","","99.59","","","","","","Cloudy"
"2016-03-23 11:00","2016","03","23","11:00","3.6","","-0.2","","76","","5","","14","","24.1","","99.64","","","","","","NA"
"2016-03-23 12:00","2016","03","23","12:00","3.9","","-1.1","","70","","7","","13","","24.1","","99.65","","","","","","NA"
"2016-03-23 13:00","2016","03","23","13:00","4.2","","-1.4","","67","","10","","14","","24.1","","99.72","","","","","","Cloudy"
"2016-03-23 14:00","2016","03","23","14:00","4.2","","-1.6","","66","","10","","15","","24.1","","99.72","","","","","","NA"
"2016-03-23 15:00","2016","03","23","15:00","3.5","","-1.5","","70","","14","","12","","24.1","","99.79","","","","","","NA"
"2016-03-23 16:00","2016","03","23","16:00","2.7","","-0.6","","79","","9","","18","","16.1","","99.78","","","","","","Rain"
"2016-03-23 17:00","2016","03","23","17:00","1.6","","-0.8","","84","","8","","13","","11.3","","99.83","","","","","","Ice Pellets"
"2016-03-23 18:00","2016","03","23","18:00","1.1","","-0.8","","87","","9","","13","","9.7","","99.85","","","","","","Ice Pellets"
"2016-03-23 19:00","2016","03","23","19:00","0.6","","-0.9","","90","","9","","8","","9.7","","99.92","","","","","","Snow,Ice Pellets"
"2016-03-23 20:00","2016","03","23","20:00","0.3","","-0.7","","93","","8","","10","","6.4","","99.97","","","","","","Snow"
"2016-03-23 21:00","2016","03","23","21:00","0.2","","-0.8","","93","","9","","15","","6.4","","99.96","","","","","","Snow"
"2016-03-23 22:00","2016","03","23","22:00","0.0","","-1.0","","93","","8","","21","","16.1","","99.95","","","","-5","","Snow"
"2016-03-23 23:00","2016","03","23","23:00","0.0","","-1.1","","92","","9","","15","","4.8","","99.89","","","","-4","","Snow"
"2016-03-24 00:00","2016","03","24","00:00","-0.4","","-1.5","","92","","8","","19","","9.7","","99.91","","","","-6","","Snow"
"2016-03-24 01:00","2016","03","24","01:00","-0.7","","-2.0","","91","","8","","21","","9.7","","99.84","","","","-6","","Freezing Rain,Snow"
"2016-03-24 02:00","2016","03","24","02:00","-0.7","","-2.1","","90","","8","","22","","9.7","","99.77","","","","-6","","Freezing Rain,Snow"
"2016-03-24 03:00","2016","03","24","03:00","-1.3","","-2.7","","90","","6","","22","","9.7","","99.68","","","","-7","","Freezing Rain,Snow"
"2016-03-24 04:00","2016","03","24","04:00","-1.3","","-2.7","","90","","7","","16","","9.7","","99.67","","","","-6","","Freezing Rain,Fog"
"2016-03-24 05:00","2016","03","24","05:00","-1.5","","-3.1","","89","","7","","14","","9.7","","99.60","","","","-6","","Freezing Rain,Ice Pellets,Fog"
"2016-03-24 06:00","2016","03","24","06:00","-1.5","","-3.2","","88","","9","","21","","8.1","","99.58","","","","-7","","Snow,Ice Pellets"
"2016-03-24 07:00","2016","03","24","07:00","-1.5","","-3.4","","87","","9","","25","","16.1","","99.47","","","","-8","","Freezing Rain,Ice Pellets"
"2016-03-24 08:00","2016","03","24","08:00","-1.7","","-3.7","","86","","9","","25","","9.7","","99.43","","","","-8","","Freezing Rain,Ice Pellets"
"2016-03-24 09:00","2016","03","24","09:00","-1.9","","-3.6","","88","","8","","25","","12.9","","99.36","","","","-8","","Freezing Rain"
"2016-03-24 10:00","2016","03","24","10:00","-1.7","","-3.3","","89","","8","","21","","12.9","","99.16","","","","-8","","Cloudy"
"2016-03-24 11:00","2016","03","24","11:00","-1.2","","-2.6","","90","","9","","16","","16.1","","99.08","","","","-6","","NA"
"2016-03-24 12:00","2016","03","24","12:00","-0.9","","-2.2","","91","","9","","18","","11.3","","98.83","","","","-6","","NA"
"2016-03-24 13:00","2016","03","24","13:00","-0.7","","-1.8","","92","","9","","18","","9.7","","98.73","","","","-6","","Freezing Rain"
"2016-03-24 14:00","2016","03","24","14:00","-0.5","","-1.5","","93","","8","","16","","9.7","","98.57","","","","-5","","Freezing Rain"
"2016-03-24 15:00","2016","03","24","15:00","-0.3","","-1.3","","93","","7","","10","","9.7","","98.49","","","","-4","","Freezing Rain"
"2016-03-24 16:00","2016","03","24","16:00","-0.2","","-1.3","","92","","7","","13","","9.7","","98.36","","","","-4","","Fog"
"2016-03-24 17:00","2016","03","24","17:00","-0.3","","-1.4","","92","","8","","13","","9.7","","98.24","","","","-4","","Fog"
"2016-03-24 18:00","2016","03","24","18:00","-0.3","","-1.6","","91","","4","","17","","9.7","","98.19","","","","-5","","Freezing Rain,Fog"
"2016-03-24 19:00","2016","03","24","19:00","-0.9","","-2.2","","91","","4","","12","","9.7","","98.15","","","","-5","","Freezing Rain,Fog"
"2016-03-24 20:00","2016","03","24","20:00","-1.2","","-2.6","","90","","27","","3","","12.9","","98.18","","","","-2","","Freezing Rain,Fog"
"2016-03-24 21:00","2016","03","24","21:00","-1.0","","-2.3","","91","","9","","11","","16.1","","98.06","","","","-5","","Freezing Rain"
"2016-03-24 22:00","2016","03","24","22:00","-1.1","","-2.2","","92","","12","","16","","16.1","","97.94","","","","-6","","Freezing Rain"
"2016-03-24 23:00","2016","03","24","23:00","-0.8","","-1.9","","92","","12","","13","","12.9","","97.98","","","","-5","","Freezing Rain"
"2016-03-25 00:00","2016","03","25","00:00","-0.3","","-1.3","","93","","14","","14","","16.1","","97.87","","","","-5","","NA"
"2016-03-25 01:00","2016","03","25","01:00","0.1","","-0.8","","94","","12","","7","","12.9","","97.84","","","","","","Cloudy"
"2016-03-25 02:00","2016","03","25","02:00","0.1","","-0.8","","94","","10","","5","","1.6","","97.78","","","","","","Fog"
"2016-03-25 03:00","2016","03","25","03:00","0.2","","-0.5","","95","","25","","7","","0.8","","97.83","","","","","","Fog"
"2016-03-25 04:00","2016","03","25","04:00","0.7","","0.0","","95","","20","","5","","9.7","","97.92","","","","","","Fog"
"2016-03-25 05:00","2016","03","25","05:00","1.2","","0.5","","95","","27","","23","","16.1","","98.06","","","","","","NA"
"2016-03-25 06:00","2016","03","25","06:00","1.2","","-0.4","","89","","29","","21","","12.9","","98.25","","","","","","NA"
"2016-03-25 07:00","2016","03","25","07:00","0.1","","-4.0","","74","","31","","38","","24.1","","98.50","","","","","","Mostly Cloudy"
"2016-03-25 08:00","2016","03","25","08:00","-0.9","","-5.3","","72","","30","","37","","24.1","","98.74","","","","-8","","NA"
"2016-03-25 09:00","2016","03","25","09:00","-1.4","","-5.6","","73","","31","","25","","24.1","","98.94","","","","-8","","NA"
"2016-03-25 10:00","2016","03","25","10:00","-1.4","","-5.8","","72","","32","","36","","24.1","","99.12","","","","-9","","Cloudy"
"2016-03-25 11:00","2016","03","25","11:00","-0.9","","-5.5","","71","","32","","26","","24.1","","99.21","","","","-7","","NA"
"2016-03-25 12:00","2016","03","25","12:00","-0.9","","-5.7","","70","","30","","28","","24.1","","99.35","","","","-7","","NA"
"2016-03-25 13:00","2016","03","25","13:00","-0.3","","-5.1","","70","","30","","26","","24.1","","99.40","","","","-6","","Mostly Cloudy"
"2016-03-25 14:00","2016","03","25","14:00","0.3","","-4.7","","69","","33","","19","","24.1","","99.49","","","","","","NA"
"2016-03-25 15:00","2016","03","25","15:00","0.6","","-4.4","","69","","33","","17","","24.1","","99.56","","","","","","NA"
"2016-03-25 16:00","2016","03","25","16:00","0.5","","-3.8","","73","","35","","14","","24.1","","99.66","","","","","","Mostly Cloudy"
"2016-03-25 17:00","2016","03","25","17:00","0.5","","-3.4","","75","","2","","12","","24.1","","99.75","","","","","","NA"
"2016-03-25 18:00","2016","03","25","18:00","0.3","","-3.3","","77","","3","","9","","24.1","","99.87","","","","","","NA"
"2016-03-25 19:00","2016","03","25","19:00","0.2","","-3.0","","79","","4","","8","","24.1","","99.98","","","","","","Mostly Cloudy"
"2016-03-25 20:00","2016","03","25","20:00","0.1","","-3.1","","79","","36","","1","","24.1","","100.08","","","","","","NA"
"2016-03-25 21:00","2016","03","25","21:00","0.0","","-3.6","","77","","32","","8","","24.1","","100.15","","","","-3","","NA"
"2016-03-25 22:00","2016","03","25","22:00","-0.7","","-4.1","","78","","36","","6","","24.1","","100.18","","","","-3","","Clear"
"2016-03-25 23:00","2016","03","25","23:00","-0.9","","-3.6","","82","","10","","4","","24.1","","100.27","","","","-2","","NA"
"2016-03-26 00:00","2016","03","26","00:00","-2.0","","-4.0","","86","","8","","4","","24.1","","100.31","","","","-3","","NA"
"2016-03-26 01:00","2016","03","26","01:00","-1.9","","-3.9","","86","","36","","3","","24.1","","100.33","","","","-3","","Clear"
"2016-03-26 02:00","2016","03","26","02:00","-2.5","","-4.2","","88","","36","","2","","24.1","","100.38","","","","-3","","NA"
"2016-03-26 03:00","2016","03","26","03:00","-2.5","","-4.1","","89","","4","","5","","24.1","","100.33","","","","-4","","NA"
"2016-03-26 04:00","2016","03","26","04:00","-3.2","","-4.6","","90","","25","","5","","24.1","","100.34","","","","-5","","Mostly Cloudy"
"2016-03-26 05:00","2016","03","26","05:00","-2.2","","-3.8","","89","","2","","8","","24.1","","100.39","","","","-5","","NA"
"2016-03-26 06:00","2016","03","26","06:00","-2.0","","-3.6","","89","","7","","4","","24.1","","100.48","","","","-3","","NA"
"2016-03-26 07:00","2016","03","26","07:00","-1.4","","-3.3","","87","","2","","8","","24.1","","100.55","","","","-4","","Cloudy"
"2016-03-26 08:00","2016","03","26","08:00","-0.8","","-2.9","","86","","4","","5","","24.1","","100.63","","","","-2","","NA"
"2016-03-26 09:00","2016","03","26","09:00","0.2","","-2.7","","81","","6","","3","","24.1","","100.65","","","","","","NA"
"2016-03-26 10:00","2016","03","26","10:00","1.0","","-3.3","","73","","11","","4","","24.1","","100.68","","","","","","Mostly Cloudy"
"2016-03-26 11:00","2016","03","26","11:00","1.7","","-2.8","","72","","5","","5","","24.1","","100.68","","","","","","NA"
"2016-03-26 12:00","2016","03","26","12:00","3.5","","-2.1","","67","","8","","12","","24.1","","100.61","","","","","","NA"
"2016-03-26 13:00","2016","03","26","13:00","5.0","","-2.1","","60","","6","","10","","24.1","","100.57","","","","","","Mainly Clear"
"2016-03-26 14:00","2016","03","26","14:00","4.9","","-1.1","","65","","14","","14","","24.1","","100.48","","","","","","NA"
"2016-03-26 15:00","2016","03","26","15:00","4.3","","-2.6","","61","","15","","18","","24.1","","100.45","","","","","","NA"
"2016-03-26 16:00","2016","03","26","16:00","4.6","","-3.0","","58","","14","","16","","24.1","","100.45","","","","","","Mostly Cloudy"
"2016-03-26 17:00","2016","03","26","17:00","3.7","","-2.5","","64","","14","","13","","24.1","","100.42","","","","","","NA"
"2016-03-26 18:00","2016","03","26","18:00","2.7","","-2.6","","68","","15","","8","","24.1","","100.45","","","","","","NA"
"2016-03-26 19:00","2016","03","26","19:00","1.4","","-2.6","","75","","15","","8","","24.1","","100.42","","","","","","Mainly Clear"
"2016-03-26 20:00","2016","03","26","20:00","1.1","","-2.3","","78","","12","","5","","24.1","","100.48","","","","","","NA"
"2016-03-26 21:00","2016","03","26","21:00","0.9","","-2.7","","77","","4","","4","","24.1","","100.46","","","","","","NA"
"2016-03-26 22:00","2016","03","26","22:00","0.5","","-2.9","","78","","6","","3","","24.1","","100.42","","","","","","Clear"
"2016-03-26 23:00","2016","03","26","23:00","0.3","","-2.4","","82","","5","","3","","24.1","","100.43","","","","","","NA"
"2016-03-27 00:00","2016","03","27","00:00","-0.2","","-2.6","","84","","2","","5","","24.1","","100.40","","","","-2","","NA"
"2016-03-27 01:00","2016","03","27","01:00","-0.9","","-2.8","","87","","2","","9","","24.1","","100.38","","","","-4","","Clear"
"2016-03-27 02:00","2016","03","27","02:00","-1.5","","-3.4","","87","","1","","9","","24.1","","100.33","","","","-5","","NA"
"2016-03-27 03:00","2016","03","27","03:00","-1.4","","-3.3","","87","","2","","4","","24.1","","100.32","","","","-3","","NA"
"2016-03-27 04:00","2016","03","27","04:00","-1.5","","-3.4","","87","","36","","4","","24.1","","100.27","","","","-3","","Mainly Clear"
"2016-03-27 05:00","2016","03","27","05:00","-1.6","","-3.6","","86","","35","","9","","24.1","","100.25","","","","-5","","NA"
"2016-03-27 06:00","2016","03","27","06:00","-0.9","","-3.1","","85","","36","","6","","24.1","","100.22","","","","-3","","NA"
"2016-03-27 07:00","2016","03","27","07:00","-0.8","","-3.2","","84","","1","","5","","24.1","","100.24","","","","-2","","Clear"
"2016-03-27 08:00","2016","03","27","08:00","2.3","","-1.5","","76","","8","","6","","24.1","","100.19","","","","","","NA"
"2016-03-27 09:00","2016","03","27","09:00","4.3","","-0.7","","70","","14","","7","","24.1","","100.14","","","","","","NA"
"2016-03-27 10:00","2016","03","27","10:00","5.8","","1.2","","72","","15","","12","","24.1","","100.10","","","","","","Mainly Clear"
"2016-03-27 11:00","2016","03","27","11:00","5.7","","1.6","","75","","15","","11","","24.1","","100.03","","","","","","NA"
"2016-03-27 12:00","2016","03","27","12:00","6.6","","1.7","","71","","13","","12","","24.1","","99.89","","","","","","NA"
"2016-03-27 13:00","2016","03","27","13:00","7.5","","1.4","","65","","15","","4","","24.1","","99.88","","","","","","Mainly Clear"
"2016-03-27 14:00","2016","03","27","14:00","10.6","","2.5","","57","","16","","10","","24.1","","99.74","","","","","","NA"
"2016-03-27 15:00","2016","03","27","15:00","11.7","","2.2","","52","","15","","14","","24.1","","99.58","","","","","","NA"
"2016-03-27 16:00","2016","03","27","16:00","10.6","","3.2","","60","","16","","9","","24.1","","99.46","","","","","","Clear"
"2016-03-27 17:00","2016","03","27","17:00","9.3","","0.2","","53","","15","","14","","24.1","","99.34","","","","","","NA"
"2016-03-27 18:00","2016","03","27","18:00","8.7","","0.2","","55","","15","","8","","24.1","","99.30","","","","","","NA"
"2016-03-27 19:00","2016","03","27","19:00","9.2","","-0.1","","52","","9","","7","","24.1","","99.22","","","","","","Mostly Cloudy"
"2016-03-27 20:00","2016","03","27","20:00","7.8","","1.2","","63","","3","","11","","24.1","","99.07","","","","","","NA"
"2016-03-27 21:00","2016","03","27","21:00","8.5","","2.1","","64","","5","","6","","24.1","","98.95","","","","","","NA"
"2016-03-27 22:00","2016","03","27","22:00","9.0","","2.6","","64","","36","","6","","24.1","","98.81","","","","","","Mostly Cloudy"
"2016-03-27 23:00","2016","03","27","23:00","8.2","","3.1","","70","","16","","6","","24.1","","98.65","","","","","","NA"
"2016-03-28 00:00","2016","03","28","00:00","7.8","","3.9","","76","","12","","6","","24.1","","98.52","","","","","","NA"
"2016-03-28 01:00","2016","03","28","01:00","8.2","","4.1","","75","","4","","4","","24.1","","98.35","","","","","","Thunderstorms"
"2016-03-28 02:00","2016","03","28","02:00","8.1","","5.4","","83","","33","","27","","19.3","","98.35","","","","","","Thunderstorms,Rain Showers"
"2016-03-28 03:00","2016","03","28","03:00","8.3","","6.3","","87","","2","","9","","24.1","","98.07","","","","","","NA"
"2016-03-28 04:00","2016","03","28","04:00","7.4","","6.4","","93","","7","","5","","16.1","","98.00","","","","","","Rain Showers"
"2016-03-28 05:00","2016","03","28","05:00","7.7","","6.8","","94","","12","","11","","12.9","","97.81","","","","","","Rain"
"2016-03-28 06:00","2016","03","28","06:00","7.8","","7.1","","95","","11","","11","","6.4","","97.67","","","","","","Rain,Fog"
"2016-03-28 07:00","2016","03","28","07:00","8.1","","7.4","","95","","12","","13","","1.6","","97.57","","","","","","Drizzle,Fog"
"2016-03-28 08:00","2016","03","28","08:00","6.8","","6.1","","95","","18","","13","","9.7","","97.55","","","","","","Drizzle,Fog"
"2016-03-28 09:00","2016","03","28","09:00","9.3","","8.4","","94","","22","","23","","19.3","","97.53","","","","","","NA"
"2016-03-28 10:00","2016","03","28","10:00","8.2","","5.8","","85","","22","","29","","24.1","","97.54","","","","","","Cloudy"
"2016-03-28 11:00","2016","03","28","11:00","6.3","","4.5","","88","","26","","23","","24.1","","97.60","","","","","","NA"
"2016-03-28 12:00","2016","03","28","12:00","5.2","","3.9","","91","","34","","41","","2.8","","97.64","","","","","","Rain Showers,Fog"
"2016-03-28 13:00","2016","03","28","13:00","4.1","","1.8","","85","","33","","45","","24.1","","97.80","","","","","","Rain Showers"
"2016-03-28 14:00","2016","03","28","14:00","4.3","","1.7","","83","","33","","53","","24.1","","98.04","","","","","","NA"
"2016-03-28 15:00","2016","03","28","15:00","4.6","","1.5","","80","","32","","54","","24.1","","98.27","","","","","","Rain Showers"
"2016-03-28 16:00","2016","03","28","16:00","4.9","","0.9","","75","","33","","54","","24.1","","98.52","","","","","","Rain Showers"
"2016-03-28 17:00","2016","03","28","17:00","4.6","","0.6","","75","","33","","50","","24.1","","98.73","","","","","","Rain Showers"
"2016-03-28 18:00","2016","03","28","18:00","5.0","","-0.8","","66","","32","","54","","24.1","","98.92","","","","","","NA"
"2016-03-28 19:00","2016","03","28","19:00","4.6","","-1.0","","67","","32","","40","","24.1","","99.10","","","","","","Mostly Cloudy"
"2016-03-28 20:00","2016","03","28","20:00","4.3","","-1.3","","67","","32","","35","","24.1","","99.23","","","","","","NA"
"2016-03-28 21:00","2016","03","28","21:00","4.1","","-1.7","","66","","31","","30","","24.1","","99.34","","","","","","NA"
"2016-03-28 22:00","2016","03","28","22:00","3.3","","-2.0","","68","","31","","27","","24.1","","99.39","","","","","","Clear"
"2016-03-28 23:00","2016","03","28","23:00","3.4","","-2.2","","67","","32","","34","","24.1","","99.45","","","","","","NA"
"2016-03-29 00:00","2016","03","29","00:00","2.3","","-3.6","","65","","32","","29","","24.1","","99.51","","","","","","NA"
"2016-03-29 01:00","2016","03","29","01:00","1.9","","-5.1","","60","","32","","25","","24.1","","99.56","","","","","","Clear"
"2016-03-29 02:00","2016","03","29","02:00","1.3","","-5.0","","63","","33","","23","","24.1","","99.60","","","","","","NA"
"2016-03-29 03:00","2016","03","29","03:00","0.8","","-6.3","","59","","33","","29","","24.1","","99.69","","","","","","NA"
"2016-03-29 04:00","2016","03","29","04:00","0.0","","-7.1","","59","","33","","26","","24.1","","99.75","","","","-6","","Clear"
"2016-03-29 05:00","2016","03","29","05:00","-0.6","","-8.3","","56","","33","","32","","24.1","","99.84","","","","-7","","NA"
"2016-03-29 06:00","2016","03","29","06:00","-0.9","","-8.6","","56","","33","","32","","24.1","","99.97","","","","-8","","NA"
"2016-03-29 07:00","2016","03","29","07:00","-0.7","","-9.4","","52","","34","","34","","24.1","","100.09","","","","-8","","Mainly Clear"
"2016-03-29 08:00","2016","03","29","08:00","0.2","","-9.8","","47","","35","","25","","24.1","","100.19","","","","","","NA"
"2016-03-29 09:00","2016","03","29","09:00","0.7","","-11.1","","41","","35","","30","","24.1","","100.28","","","","","","NA"
"2016-03-29 10:00","2016","03","29","10:00","2.2","","-10.7","","38","","35","","28","","24.1","","100.37","","","","","","Clear"
"2016-03-29 11:00","2016","03","29","11:00","2.7","","-10.3","","38","","34","","25","","24.1","","100.40","","","","","","NA"
"2016-03-29 12:00","2016","03","29","12:00","4.1","","-13.3","","27","","34","","30","","24.1","","100.40","","","","","","NA"
"2016-03-29 13:00","2016","03","29","13:00","5.1","","-12.9","","26","","33","","24","","24.1","","100.38","","","","","","Mainly Clear"
"2016-03-29 14:00","2016","03","29","14:00","6.1","","-15.9","","19","","33","","21","","24.1","","100.34","","","","","","NA"
"2016-03-29 15:00","2016","03","29","15:00","6.9","","-14.0","","21","","32","","14","","24.1","","100.33","","","","","","NA"
"2016-03-29 16:00","2016","03","29","16:00","7.2","","-12.6","","23","","31","","13","","24.1","","100.34","","","","","","Clear"
"2016-03-29 17:00","2016","03","29","17:00","7.2","","-13.2","","22","","32","","18","","24.1","","100.36","","","","","","NA"
"2016-03-29 18:00","2016","03","29","18:00","6.4","","-12.3","","25","","30","","13","","24.1","","100.34","","","","","","NA"
"2016-03-29 19:00","2016","03","29","19:00","5.3","","-10.5","","31","","32","","11","","24.1","","100.32","","","","","","Mainly Clear"
"2016-03-29 20:00","2016","03","29","20:00","2.9","","-9.1","","41","","3","","10","","24.1","","100.34","","","","","","NA"
"2016-03-29 21:00","2016","03","29","21:00","3.5","","-8.9","","40","","1","","8","","24.1","","100.39","","","","","","NA"
"2016-03-29 22:00","2016","03","29","22:00","2.4","","-8.7","","44","","1","","8","","24.1","","100.37","","","","","","Clear"
"2016-03-29 23:00","2016","03","29","23:00","1.5","","-8.9","","46","","1","","8","","24.1","","100.33","","","","","","NA"
"2016-03-30 00:00","2016","03","30","00:00","0.5","","-8.0","","53","","30","","4","","24.1","","100.34","","","","","","NA"
"2016-03-30 01:00","2016","03","30","01:00","0.1","","-8.4","","53","","28","","3","","24.1","","100.37","","","","","","Clear"
"2016-03-30 02:00","2016","03","30","02:00","0.4","","-7.6","","55","","25","","4","","24.1","","100.35","","","","","","NA"
"2016-03-30 03:00","2016","03","30","03:00","0.5","","-6.0","","62","","23","","3","","24.1","","100.29","","","","","","NA"
"2016-03-30 04:00","2016","03","30","04:00","0.4","","-6.1","","62","","36","","3","","24.1","","100.27","","","","","","Mostly Cloudy"
"2016-03-30 05:00","2016","03","30","05:00","0.1","","-5.9","","64","","20","","4","","24.1","","100.27","","","","","","NA"
"2016-03-30 06:00","2016","03","30","06:00","0.0","","-5.2","","68","","17","","5","","24.1","","100.25","","","","-2","","NA"
"2016-03-30 07:00","2016","03","30","07:00","0.4","","-5.0","","67","","36","","2","","24.1","","100.23","","","","","","Mostly Cloudy"
"2016-03-30 08:00","2016","03","30","08:00","2.6","","-4.2","","61","","20","","7","","24.1","","100.20","","","","","","NA"
"2016-03-30 09:00","2016","03","30","09:00","4.6","","-4.7","","51","","21","","9","","24.1","","100.10","","","","","","NA"
"2016-03-30 10:00","2016","03","30","10:00","5.9","","-4.3","","48","","17","","11","","24.1","","99.97","","","","","","Mostly Cloudy"
"2016-03-30 11:00","2016","03","30","11:00","6.9","","-1.0","","57","","15","","10","","24.1","","99.84","","","","","","NA"
"2016-03-30 12:00","2016","03","30","12:00","8.2","","-2.4","","47","","15","","21","","24.1","","99.71","","","","","","NA"
"2016-03-30 13:00","2016","03","30","13:00","9.2","","-2.7","","43","","18","","16","","24.1","","99.57","","","","","","Mostly Cloudy"
"2016-03-30 14:00","2016","03","30","14:00","9.2","","-2.7","","43","","15","","19","","24.1","","99.40","","","","","","NA"
"2016-03-30 15:00","2016","03","30","15:00","8.6","","-1.2","","50","","13","","17","","24.1","","99.26","","","","","","NA"
"2016-03-30 16:00","2016","03","30","16:00","9.5","","-1.2","","47","","14","","19","","24.1","","99.18","","","","","","Mostly Cloudy"
"2016-03-30 17:00","2016","03","30","17:00","8.0","","-1.5","","51","","13","","16","","24.1","","99.06","","","","","","NA"
"2016-03-30 18:00","2016","03","30","18:00","6.7","","-2.2","","53","","15","","17","","24.1","","98.99","","","","","","NA"
"2016-03-30 19:00","2016","03","30","19:00","5.4","","-3.9","","51","","14","","14","","24.1","","98.90","","","","","","Mostly Cloudy"
"2016-03-30 20:00","2016","03","30","20:00","6.5","","-3.4","","49","","13","","15","","24.1","","98.83","","","","","","NA"
"2016-03-30 21:00","2016","03","30","21:00","6.9","","-2.0","","53","","14","","8","","24.1","","98.74","","","","","","NA"
"2016-03-30 22:00","2016","03","30","22:00","7.0","","0.2","","62","","15","","15","","24.1","","98.69","","","","","","Rain Showers"
"2016-03-30 23:00","2016","03","30","23:00","9.9","","0.8","","53","","13","","3","","24.1","","98.57","","","","","","NA"
"2016-03-31 00:00","2016","03","31","00:00","8.2","","1.8","","64","","3","","9","","24.1","","98.60","","","","","","NA"
"2016-03-31 01:00","2016","03","31","01:00","8.9","","1.4","","59","","12","","8","","24.1","","98.50","","","","","","Cloudy"
"2016-03-31 02:00","2016","03","31","02:00","8.4","","3.1","","69","","14","","14","","24.1","","98.46","","","","","","Rain"
"2016-03-31 03:00","2016","03","31","03:00","12.6","","10.7","","88","","22","","31","","19.3","","98.38","","","","","","Rain"
"2016-03-31 04:00","2016","03","31","04:00","12.0","","9.9","","87","","21","","21","","19.3","","98.35","","","","","","Rain"
"2016-03-31 05:00","2016","03","31","05:00","11.5","","9.1","","85","","20","","22","","19.3","","98.30","","","","","","Rain"
"2016-03-31 06:00","2016","03","31","06:00","10.9","","8.8","","87","","21","","22","","9.7","","98.26","","","","","","Rain"
"2016-03-31 07:00","2016","03","31","07:00","11.1","","9.7","","91","","20","","23","","6.4","","98.21","","","","","","Rain,Fog"
"2016-03-31 08:00","2016","03","31","08:00","10.6","","9.2","","91","","19","","21","","9.7","","98.13","","","","","","Rain,Fog"
"2016-03-31 09:00","2016","03","31","09:00","10.8","","9.1","","89","","20","","21","","9.7","","98.08","","","","","","Rain,Fog"
"2016-03-31 10:00","2016","03","31","10:00","11.2","","9.5","","89","","20","","20","","9.7","","98.04","","","","","","Rain,Fog"
"2016-03-31 11:00","2016","03","31","11:00","11.9","","10.3","","90","","21","","24","","6.4","","98.02","","","","","","Rain,Fog"
"2016-03-31 12:00","2016","03","31","12:00","12.2","","10.6","","90","","21","","27","","9.7","","97.91","","","","","","Rain,Fog"
"2016-03-31 13:00","2016","03","31","13:00","12.4","","10.7","","89","","20","","32","","6.4","","97.80","","","","","","Rain,Fog"
"2016-03-31 14:00","2016","03","31","14:00","12.5","","10.2","","86","","20","","35","","9.7","","97.75","","","","","","Rain,Fog"
"2016-03-31 15:00","2016","03","31","15:00","13.0","","10.6","","85","","21","","21","","9.7","","97.71","","","","","","Rain,Fog"
"2016-03-31 16:00","2016","03","31","16:00","13.1","","11.2","","88","","21","","34","","19.3","","97.59","","","","","","Cloudy"
"2016-03-31 17:00","2016","03","31","17:00","14.6","","11.8","","83","","22","","26","","19.3","","97.59","","","","","","NA"
"2016-03-31 18:00","2016","03","31","18:00","15.4","","12.2","","81","","20","","15","","24.1","","97.64","","","","","","NA"
"2016-03-31 19:00","2016","03","31","19:00","16.0","","12.4","","79","","21","","20","","24.1","","97.57","","","","","","Cloudy"
"2016-03-31 20:00","2016","03","31","20:00","13.6","","10.8","","83","","16","","16","","24.1","","97.46","","","","","","Rain Showers"
"2016-03-31 21:00","2016","03","31","21:00","14.5","","12.7","","89","","22","","29","","9.7","","97.45","","","","","","Thunderstorms,Moderate Rain Showers"
"2016-03-31 22:00","2016","03","31","22:00","14.3","","11.7","","84","","23","","29","","19.3","","97.47","","","","","","Rain Showers"
"2016-03-31 23:00","2016","03","31","23:00","14.1","","12.0","","87","","22","","29","","24.1","","97.42","","","","","","NA"
