"Station Name","TORONTO LESTER B. PEARSON INT'L A"
"Province","ONTARIO"
"Latitude","43.68"
"Longitude","-79.63"
"Elevation","173.40"
"Climate Identifier","6158733"
"WMO Identifier","71624"
"TC Identifier","YYZ"
"All times are specified in Local Standard Time (LST). Add 1 hour to adjust for Daylight Saving Time where and when it is observed."

"Legend"
"E","Estimated"
"M","Missing"
"NA","Not Available"

"Date/Time","Year","Month","Day","Time","Temp (°C)","Temp Flag","Dew Point Temp (°C)","Dew Point Temp Flag","Rel Hum (%)","Rel Hum Flag","Wind Dir (10s deg)","Wind Dir Flag","Wind Spd (km/h)","Wind Spd Flag","Visibility (km)","Visibility Flag","Stn Press (kPa)","Stn Press Flag","Hmdx","Hmdx Flag","Wind Chill","Wind Chill Flag","Weather"
"1993-10-01 00:00","1993","10","01","00:00","4.5","","-0.8","","69","","17","","6","","25.0","","100.07","","","","","","Clear"
"1993-10-01 01:00","1993","10","01","01:00","4.8","","-0.2","","70","","16","","6","","25.0","","100.04","","","","","","Clear"
"1993-10-01 02:00","1993","10","01","02:00","5.3","","1.5","","77","","17","","7","","25.0","","100.01","","","","","","Clear"
"1993-10-01 03:00","1993","10","01","03:00","6.0","","1.5","","73","","16","","9","","25.0","","99.91","","","","","","Mainly Clear"
"1993-10-01 04:00","1993","10","01","04:00","5.6","","2.9","","83","","16","","13","","25.0","","99.81","","","","","","Mainly Clear"
"1993-10-01 05:00","1993","10","01","05:00","6.5","","3.1","","79","","17","","13","","25.0","","99.77","","","","","","Mainly Clear"
"1993-10-01 06:00","1993","10","01","06:00","7.5","","3.3","","75","","17","","17","","25.0","","99.71","","","","","","Mostly Cloudy"
"1993-10-01 07:00","1993","10","01","07:00","8.8","","3.6","","70","","18","","22","","25.0","","99.61","","","","","","Mostly Cloudy"
"1993-10-01 08:00","1993","10","01","08:00","9.9","","3.9","","66","","18","","26","","24.1","","99.51","","","","","","Mostly Cloudy"
"1993-10-01 09:00","1993","10","01","09:00","10.6","","3.1","","60","","18","","33","","24.1","","99.47","","","","","","Mostly Cloudy"
"1993-10-01 10:00","1993","10","01","10:00","11.1","","2.7","","56","","18","","30","","24.1","","99.37","","","","","","Mostly Cloudy"
"1993-10-01 11:00","1993","10","01","11:00","11.6","","2.8","","55","","18","","30","","24.1","","99.24","","","","","","Mostly Cloudy"
"1993-10-01 12:00","1993","10","01","12:00","12.5","","3.2","","53","","18","","28","","40.2","","99.07","","","","","","Cloudy"
"1993-10-01 13:00","1993","10","01","13:00","13.4","","4.5","","55","","18","","22","","40.2","","98.97","","","","","","Cloudy"
"1993-10-01 14:00","1993","10","01","14:00","14.7","","4.3","","50","","20","","26","","40.2","","98.87","","","","","","Mostly Cloudy"
"1993-10-01 15:00","1993","10","01","15:00","15.8","","5.9","","52","","19","","28","","40.2","","98.77","","","","","","Cloudy"
"1993-10-01 16:00","1993","10","01","16:00","15.9","","6.3","","53","","21","","30","","24.1","","98.77","","","","","","Cloudy"
"1993-10-01 17:00","1993","10","01","17:00","16.1","","6.8","","54","","20","","19","","40.2","","98.67","","","","","","Cloudy"
"1993-10-01 18:00","1993","10","01","18:00","16.7","","7.0","","53","","20","","26","","24.1","","98.67","","","","","","Cloudy"
"1993-10-01 19:00","1993","10","01","19:00","16.1","","8.5","","61","","21","","24","","16.1","","98.71","","","","","","Rain Showers"
"1993-10-01 20:00","1993","10","01","20:00","15.0","","9.4","","69","","21","","19","","16.1","","98.77","","","","","","Rain Showers"
"1993-10-01 21:00","1993","10","01","21:00","14.2","","10.2","","77","","22","","13","","12.9","","98.81","","","","","","Rain Showers"
"1993-10-01 22:00","1993","10","01","22:00","14.0","","12.7","","92","","23","","13","","8.0","","98.84","","","","","","Rain Showers,Fog"
"1993-10-01 23:00","1993","10","01","23:00","13.5","","12.8","","95","","27","","13","","4.8","","98.91","","","","","","Rain Showers,Fog"
"1993-10-02 00:00","1993","10","02","00:00","12.5","","10.8","","89","","25","","6","","12.9","","98.91","","","","","","Rain Showers"
"1993-10-02 01:00","1993","10","02","01:00","12.5","","9.7","","83","","23","","11","","16.1","","98.97","","","","","","Rain Showers"
"1993-10-02 02:00","1993","10","02","02:00","12.3","","10.0","","86","","22","","6","","16.1","","99.01","","","","","","Cloudy"
"1993-10-02 03:00","1993","10","02","03:00","12.2","","9.9","","86","","21","","6","","16.1","","99.01","","","","","","Cloudy"
"1993-10-02 04:00","1993","10","02","04:00","12.0","","10.2","","89","","21","","9","","12.9","","99.07","","","","","","Rain Showers"
"1993-10-02 05:00","1993","10","02","05:00","11.3","","10.4","","94","","23","","9","","9.7","","99.07","","","","","","Rain Showers,Fog"
"1993-10-02 06:00","1993","10","02","06:00","11.1","","9.9","","92","","23","","6","","12.9","","99.11","","","","","","Cloudy"
"1993-10-02 07:00","1993","10","02","07:00","10.7","","9.0","","89","","22","","11","","16.1","","99.17","","","","","","Cloudy"
"1993-10-02 08:00","1993","10","02","08:00","10.2","","7.7","","84","","27","","15","","24.1","","99.21","","","","","","Cloudy"
"1993-10-02 09:00","1993","10","02","09:00","10.1","","7.1","","82","","28","","15","","32.2","","99.27","","","","","","Cloudy"
"1993-10-02 10:00","1993","10","02","10:00","11.0","","6.0","","71","","27","","15","","32.2","","99.27","","","","","","Cloudy"
"1993-10-02 11:00","1993","10","02","11:00","11.5","","4.3","","61","","26","","19","","40.2","","99.31","","","","","","Cloudy"
"1993-10-02 12:00","1993","10","02","12:00","12.0","","3.0","","54","","27","","19","","40.2","","99.31","","","","","","Mostly Cloudy"
"1993-10-02 13:00","1993","10","02","13:00","13.3","","3.5","","52","","26","","19","","40.2","","99.27","","","","","","Mostly Cloudy"
"1993-10-02 14:00","1993","10","02","14:00","13.0","","1.2","","45","","26","","22","","40.2","","99.27","","","","","","Mostly Cloudy"
"1993-10-02 15:00","1993","10","02","15:00","12.8","","-1.2","","38","","26","","26","","40.2","","99.31","","","","","","Mostly Cloudy"
"1993-10-02 16:00","1993","10","02","16:00","11.4","","-1.1","","42","","27","","22","","40.2","","99.37","","","","","","Cloudy"
"1993-10-02 17:00","1993","10","02","17:00","10.6","","-2.7","","39","","27","","22","","40.2","","99.47","","","","","","Mainly Clear"
"1993-10-02 18:00","1993","10","02","18:00","9.0","","-1.1","","49","","27","","13","","40.2","","99.51","","","","","","Clear"
"1993-10-02 19:00","1993","10","02","19:00","6.5","","-0.5","","61","","27","","6","","25.0","","99.54","","","","","","Clear"
"1993-10-02 20:00","1993","10","02","20:00","5.2","","-0.2","","68","","","","0","","25.0","","99.57","","","","","","Mainly Clear"
"1993-10-02 21:00","1993","10","02","21:00","5.0","","-0.2","","69","","","","0","","25.0","","99.54","","","","","","Mostly Cloudy"
"1993-10-02 22:00","1993","10","02","22:00","4.2","","-0.3","","72","","27","","6","","25.0","","99.57","","","","","","Mainly Clear"
"1993-10-02 23:00","1993","10","02","23:00","4.0","","-0.8","","71","","","","0","","25.0","","99.54","","","","","","Mainly Clear"
"1993-10-03 00:00","1993","10","03","00:00","2.0","","-0.4","","84","","","","0","","25.0","","99.54","","","","","","Mostly Cloudy"
"1993-10-03 01:00","1993","10","03","01:00","1.4","","-0.5","","87","","","","0","","25.0","","99.51","","","","","","Mostly Cloudy"
"1993-10-03 02:00","1993","10","03","02:00","1.6","","0.0","","89","","29","","4","","25.0","","99.51","","","","","","Mostly Cloudy"
"1993-10-03 03:00","1993","10","03","03:00","1.7","","0.0","","88","","29","","4","","25.0","","99.51","","","","","","Mostly Cloudy"
"1993-10-03 04:00","1993","10","03","04:00","2.0","","-0.4","","84","","","","0","","25.0","","99.47","","","","","","Mainly Clear"
"1993-10-03 05:00","1993","10","03","05:00","1.4","","-1.0","","84","","26","","6","","25.0","","99.47","","","","","","Mostly Cloudy"
"1993-10-03 06:00","1993","10","03","06:00","2.3","","0.6","","89","","26","","9","","25.0","","99.51","","","","","","Mostly Cloudy"
"1993-10-03 07:00","1993","10","03","07:00","3.0","","-0.4","","78","","25","","13","","40.2","","99.51","","","","","","Mostly Cloudy"
"1993-10-03 08:00","1993","10","03","08:00","3.5","","-0.3","","76","","23","","15","","40.2","","99.51","","","","","","Mostly Cloudy"
"1993-10-03 09:00","1993","10","03","09:00","5.2","","-0.7","","65","","24","","22","","40.2","","99.47","","","","","","Mostly Cloudy"
"1993-10-03 10:00","1993","10","03","10:00","6.2","","-2.3","","54","","24","","19","","40.2","","99.44","","","","","","Mostly Cloudy"
"1993-10-03 11:00","1993","10","03","11:00","8.7","","0.5","","56","","24","","33","","40.2","","99.34","","","","","","Mostly Cloudy"
"1993-10-03 12:00","1993","10","03","12:00","11.9","","2.0","","51","","24","","30","","40.2","","99.24","","","","","","Mostly Cloudy"
"1993-10-03 13:00","1993","10","03","13:00","12.0","","0.9","","46","","24","","30","","40.2","","99.14","","","","","","Mostly Cloudy"
"1993-10-03 14:00","1993","10","03","14:00","13.5","","1.9","","45","","26","","22","","40.2","","99.01","","","","","","Mostly Cloudy"
"1993-10-03 15:00","1993","10","03","15:00","14.6","","2.3","","43","","23","","26","","40.2","","98.91","","","","","","Mainly Clear"
"1993-10-03 16:00","1993","10","03","16:00","14.6","","3.3","","47","","26","","26","","40.2","","98.84","","","","","","Mainly Clear"
"1993-10-03 17:00","1993","10","03","17:00","14.1","","4.2","","51","","22","","22","","40.2","","98.74","","","","","","Mainly Clear"
"1993-10-03 18:00","1993","10","03","18:00","13.6","","4.5","","54","","20","","24","","25.0","","98.67","","","","","","Mostly Cloudy"
"1993-10-03 19:00","1993","10","03","19:00","13.5","","5.0","","56","","21","","26","","25.0","","98.57","","","","","","Mostly Cloudy"
"1993-10-03 20:00","1993","10","03","20:00","14.7","","5.3","","53","","22","","33","","24.1","","98.47","","","","","","Rain"
"1993-10-03 21:00","1993","10","03","21:00","15.3","","5.2","","51","","23","","37","","25.0","","98.41","","","","","","Mainly Clear"
"1993-10-03 22:00","1993","10","03","22:00","15.9","","4.9","","48","","23","","43","","25.0","","98.37","","","","","","Mostly Cloudy"
"1993-10-03 23:00","1993","10","03","23:00","15.8","","4.9","","48","","23","","35","","24.1","","98.31","","","","","","Mostly Cloudy"
"1993-10-04 00:00","1993","10","04","00:00","15.5","","4.2","","47","","23","","44","","24.1","","98.27","","","","","","Mainly Clear"
"1993-10-04 01:00","1993","10","04","01:00","14.7","","4.3","","50","","23","","41","","25.0","","98.21","","","","","","Mainly Clear"
"1993-10-04 02:00","1993","10","04","02:00","14.3","","5.3","","55","","23","","33","","25.0","","98.21","","","","","","Mainly Clear"
"1993-10-04 03:00","1993","10","04","03:00","13.7","","5.0","","56","","23","","22","","25.0","","98.21","","","","","","Mainly Clear"
"1993-10-04 04:00","1993","10","04","04:00","13.3","","5.9","","61","","23","","30","","25.0","","98.21","","","","","","Mostly Cloudy"
"1993-10-04 05:00","1993","10","04","05:00","13.1","","5.7","","61","","23","","24","","25.0","","98.21","","","","","","Mostly Cloudy"
"1993-10-04 06:00","1993","10","04","06:00","12.8","","6.6","","66","","24","","19","","25.0","","98.21","","","","","","Mostly Cloudy"
"1993-10-04 07:00","1993","10","04","07:00","12.7","","7.0","","68","","26","","22","","25.0","","98.24","","","","","","Cloudy"
"1993-10-04 08:00","1993","10","04","08:00","11.6","","8.2","","80","","29","","13","","24.1","","98.34","","","","","","Cloudy"
"1993-10-04 09:00","1993","10","04","09:00","10.2","","8.1","","87","","35","","19","","24.1","","98.47","","","","","","Rain Showers"
"1993-10-04 10:00","1993","10","04","10:00","7.8","","5.6","","86","","36","","24","","24.1","","98.54","","","","","","Rain Showers"
"1993-10-04 11:00","1993","10","04","11:00","6.8","","5.8","","93","","35","","28","","4.8","","98.64","","","","","","Rain Showers,Fog"
"1993-10-04 12:00","1993","10","04","12:00","6.4","","4.4","","87","","32","","26","","25.0","","98.67","","","","","","Cloudy"
"1993-10-04 13:00","1993","10","04","13:00","6.6","","3.5","","80","","32","","19","","40.2","","98.67","","","","","","Cloudy"
"1993-10-04 14:00","1993","10","04","14:00","7.8","","3.4","","74","","31","","15","","40.2","","98.74","","","","","","Cloudy"
"1993-10-04 15:00","1993","10","04","15:00","8.3","","1.0","","60","","32","","15","","40.2","","98.84","","","","","","Mostly Cloudy"
"1993-10-04 16:00","1993","10","04","16:00","10.0","","1.9","","57","","32","","17","","40.2","","98.87","","","","","","Mainly Clear"
"1993-10-04 17:00","1993","10","04","17:00","9.8","","2.4","","60","","32","","15","","40.2","","98.97","","","","","","Mostly Cloudy"
"1993-10-04 18:00","1993","10","04","18:00","7.8","","-0.2","","57","","30","","19","","32.2","","99.14","","","","","","Mainly Clear"
"1993-10-04 19:00","1993","10","04","19:00","5.9","","-0.6","","63","","29","","17","","25.0","","99.27","","","","","","Clear"
"1993-10-04 20:00","1993","10","04","20:00","5.2","","-1.3","","63","","29","","15","","25.0","","99.34","","","","","","Clear"
"1993-10-04 21:00","1993","10","04","21:00","4.0","","-0.8","","71","","26","","13","","25.0","","99.44","","","","","","Clear"
"1993-10-04 22:00","1993","10","04","22:00","2.7","","-0.9","","77","","29","","13","","25.0","","99.51","","","","","","Clear"
"1993-10-04 23:00","1993","10","04","23:00","3.5","","-0.3","","76","","26","","11","","25.0","","99.57","","","","","","Clear"
"1993-10-05 00:00","1993","10","05","00:00","2.8","","0.2","","83","","26","","9","","25.0","","99.64","","","","","","Mainly Clear"
"1993-10-05 01:00","1993","10","05","01:00","2.3","","-0.4","","82","","25","","11","","25.0","","99.71","","","","","","Clear"
"1993-10-05 02:00","1993","10","05","02:00","1.8","","0.1","","89","","25","","13","","25.0","","99.77","","","","","","Clear"
"1993-10-05 03:00","1993","10","05","03:00","1.8","","0.1","","89","","25","","11","","25.0","","99.81","","","","","","Clear"
"1993-10-05 04:00","1993","10","05","04:00","0.8","","0.0","","95","","26","","6","","25.0","","99.87","","","","","","Clear"
"1993-10-05 05:00","1993","10","05","05:00","1.3","","-0.5","","88","","27","","11","","25.0","","99.94","","","","","","Mainly Clear"
"1993-10-05 06:00","1993","10","05","06:00","1.4","","-1.0","","84","","26","","15","","25.0","","100.04","","","","","","Mainly Clear"
"1993-10-05 07:00","1993","10","05","07:00","2.4","","-0.9","","79","","27","","11","","40.2","","100.14","","","","","","Mostly Cloudy"
"1993-10-05 08:00","1993","10","05","08:00","4.6","","-0.2","","71","","27","","19","","40.2","","100.27","","","","","","Mainly Clear"
"1993-10-05 09:00","1993","10","05","09:00","7.1","","1.2","","66","","25","","19","","40.2","","100.34","","","","","","Mainly Clear"
"1993-10-05 10:00","1993","10","05","10:00","9.8","","0.3","","52","","27","","19","","40.2","","100.41","","","","","","Mostly Cloudy"
"1993-10-05 11:00","1993","10","05","11:00","11.0","","1.1","","50","","26","","19","","40.2","","100.44","","","","","","Mostly Cloudy"
"1993-10-05 12:00","1993","10","05","12:00","10.5","","1.5","","54","","26","","33","","40.2","","100.47","","","","","","Mostly Cloudy"
"1993-10-05 13:00","1993","10","05","13:00","10.2","","1.4","","54","","27","","19","","40.2","","100.44","","","","","","Mostly Cloudy"
"1993-10-05 14:00","1993","10","05","14:00","11.7","","2.8","","54","","25","","19","","40.2","","100.41","","","","","","Mostly Cloudy"
"1993-10-05 15:00","1993","10","05","15:00","12.9","","0.6","","43","","28","","20","","40.2","","100.41","","","","","","Mostly Cloudy"
"1993-10-05 16:00","1993","10","05","16:00","12.7","","-0.2","","41","","28","","20","","40.2","","100.44","","","","","","Mainly Clear"
"1993-10-05 17:00","1993","10","05","17:00","11.9","","-0.3","","43","","30","","19","","40.2","","100.47","","","","","","Mainly Clear"
"1993-10-05 18:00","1993","10","05","18:00","9.6","","0.2","","52","","27","","11","","40.2","","100.51","","","","","","Clear"
"1993-10-05 19:00","1993","10","05","19:00","7.7","","0.3","","59","","24","","4","","25.0","","100.51","","","","","","Clear"
"1993-10-05 20:00","1993","10","05","20:00","6.3","","0.6","","67","","22","","7","","25.0","","100.57","","","","","","Clear"
"1993-10-05 21:00","1993","10","05","21:00","6.0","","0.5","","68","","23","","6","","25.0","","100.57","","","","","","Clear"
"1993-10-05 22:00","1993","10","05","22:00","5.0","","0.4","","72","","24","","6","","25.0","","100.61","","","","","","Clear"
"1993-10-05 23:00","1993","10","05","23:00","3.5","","0.2","","79","","24","","4","","25.0","","100.64","","","","","","Clear"
"1993-10-06 00:00","1993","10","06","00:00","2.7","","0.1","","83","","25","","6","","25.0","","100.67","","","","","","Clear"
"1993-10-06 01:00","1993","10","06","01:00","4.0","","-0.3","","74","","","","0","","25.0","","100.77","","","","","","Clear"
"1993-10-06 02:00","1993","10","06","02:00","4.2","","-0.8","","70","","","","0","","25.0","","100.77","","","","","","Mainly Clear"
"1993-10-06 03:00","1993","10","06","03:00","4.0","","-0.3","","74","","22","","4","","25.0","","100.77","","","","","","Mainly Clear"
"1993-10-06 04:00","1993","10","06","04:00","4.7","","-0.8","","67","","","","0","","25.0","","100.74","","","","","","Mainly Clear"
"1993-10-06 05:00","1993","10","06","05:00","1.7","","-1.0","","82","","","","0","","25.0","","100.81","","","","","","Mainly Clear"
"1993-10-06 06:00","1993","10","06","06:00","3.5","","-0.3","","76","","","","0","","25.0","","100.84","","","","","","Mostly Cloudy"
"1993-10-06 07:00","1993","10","06","07:00","4.5","","1.8","","82","","","","0","","24.1","","100.87","","","","","","Mostly Cloudy"
"1993-10-06 08:00","1993","10","06","08:00","6.1","","2.5","","78","","","","0","","24.1","","100.87","","","","","","Cloudy"
"1993-10-06 09:00","1993","10","06","09:00","7.2","","2.7","","73","","","","0","","19.3","","100.84","","","","","","Cloudy"
"1993-10-06 10:00","1993","10","06","10:00","9.3","","5.1","","75","","20","","9","","16.1","","100.84","","","","","","Cloudy"
"1993-10-06 11:00","1993","10","06","11:00","12.2","","6.7","","69","","19","","9","","24.1","","100.77","","","","","","Mostly Cloudy"
"1993-10-06 12:00","1993","10","06","12:00","12.8","","6.6","","66","","14","","11","","24.1","","100.67","","","","","","Mostly Cloudy"
"1993-10-06 13:00","1993","10","06","13:00","13.2","","6.2","","63","","18","","19","","24.1","","100.57","","","","","","Mostly Cloudy"
"1993-10-06 14:00","1993","10","06","14:00","14.5","","6.7","","60","","17","","19","","32.2","","100.41","","","","","","Mostly Cloudy"
"1993-10-06 15:00","1993","10","06","15:00","13.6","","5.9","","60","","15","","15","","40.2","","100.31","","","","","","Mostly Cloudy"
"1993-10-06 16:00","1993","10","06","16:00","14.4","","5.3","","54","","15","","17","","40.2","","100.21","","","","","","Mostly Cloudy"
"1993-10-06 17:00","1993","10","06","17:00","15.3","","4.2","","48","","19","","13","","40.2","","100.17","","","","","","Mostly Cloudy"
"1993-10-06 18:00","1993","10","06","18:00","14.4","","2.3","","44","","17","","7","","40.2","","100.14","","","","","","Mainly Clear"
"1993-10-06 19:00","1993","10","06","19:00","13.5","","3.5","","51","","16","","11","","25.0","","100.07","","","","","","Mainly Clear"
"1993-10-06 20:00","1993","10","06","20:00","10.7","","4.5","","65","","16","","6","","25.0","","100.01","","","","","","Mainly Clear"
"1993-10-06 21:00","1993","10","06","21:00","10.0","","5.3","","72","","14","","7","","25.0","","99.97","","","","","","Mainly Clear"
"1993-10-06 22:00","1993","10","06","22:00","10.2","","5.7","","74","","16","","6","","24.1","","99.97","","","","","","Rain Showers"
"1993-10-06 23:00","1993","10","06","23:00","10.5","","4.9","","68","","14","","6","","25.0","","99.91","","","","","","Mainly Clear"
"1993-10-07 00:00","1993","10","07","00:00","13.2","","5.3","","59","","21","","9","","25.0","","99.87","","","","","","Mainly Clear"
"1993-10-07 01:00","1993","10","07","01:00","12.7","","5.1","","60","","","","0","","25.0","","99.87","","","","","","Mainly Clear"
"1993-10-07 02:00","1993","10","07","02:00","12.8","","5.7","","62","","19","","6","","25.0","","99.84","","","","","","Mainly Clear"
"1993-10-07 03:00","1993","10","07","03:00","13.2","","6.2","","63","","20","","6","","25.0","","99.81","","","","","","Mainly Clear"
"1993-10-07 04:00","1993","10","07","04:00","13.7","","8.0","","68","","23","","15","","25.0","","99.77","","","","","","Clear"
"1993-10-07 05:00","1993","10","07","05:00","13.2","","8.3","","72","","22","","13","","25.0","","99.77","","","","","","Mainly Clear"
"1993-10-07 06:00","1993","10","07","06:00","13.3","","8.8","","74","","24","","19","","25.0","","99.77","","","","","","Mainly Clear"
"1993-10-07 07:00","1993","10","07","07:00","13.5","","8.4","","71","","25","","7","","24.1","","99.81","","","","","","Mainly Clear"
"1993-10-07 08:00","1993","10","07","08:00","15.1","","9.4","","69","","24","","17","","24.1","","99.81","","","","","","Mainly Clear"
"1993-10-07 09:00","1993","10","07","09:00","17.2","","9.7","","61","","24","","28","","19.3","","99.81","","","","","","Mainly Clear"
"1993-10-07 10:00","1993","10","07","10:00","19.2","","10.9","","59","","25","","22","","19.3","","99.74","","","","","","Mainly Clear"
"1993-10-07 11:00","1993","10","07","11:00","21.0","","12.2","","57","","23","","15","","19.3","","99.71","","","","","","Mostly Cloudy"
"1993-10-07 12:00","1993","10","07","12:00","22.6","","12.5","","53","","23","","22","","19.3","","99.64","","25","","","","Mainly Clear"
"1993-10-07 13:00","1993","10","07","13:00","23.9","","14.0","","54","","22","","15","","19.3","","99.57","","27","","","","Clear"
"1993-10-07 14:00","1993","10","07","14:00","25.0","","14.1","","51","","22","","15","","16.1","","99.51","","28","","","","Mainly Clear"
"1993-10-07 15:00","1993","10","07","15:00","25.0","","14.1","","51","","23","","19","","16.1","","99.47","","28","","","","Mainly Clear"
"1993-10-07 16:00","1993","10","07","16:00","24.7","","12.7","","47","","24","","20","","16.1","","99.41","","27","","","","Mainly Clear"
"1993-10-07 17:00","1993","10","07","17:00","23.4","","14.8","","58","","23","","9","","16.1","","99.51","","27","","","","Mainly Clear"
"1993-10-07 18:00","1993","10","07","18:00","21.4","","13.9","","62","","21","","9","","12.9","","99.57","","25","","","","Clear"
"1993-10-07 19:00","1993","10","07","19:00","20.1","","13.6","","66","","20","","9","","16.1","","99.61","","","","","","Clear"
"1993-10-07 20:00","1993","10","07","20:00","18.0","","13.8","","76","","32","","7","","16.1","","99.64","","","","","","Mainly Clear"
"1993-10-07 21:00","1993","10","07","21:00","15.4","","12.2","","81","","34","","6","","16.1","","99.64","","","","","","Mainly Clear"
"1993-10-07 22:00","1993","10","07","22:00","15.0","","12.3","","84","","","","0","","16.1","","99.57","","","","","","Mostly Cloudy"
"1993-10-07 23:00","1993","10","07","23:00","16.5","","13.2","","81","","17","","9","","16.1","","99.54","","","","","","Clear"
"1993-10-08 00:00","1993","10","08","00:00","16.8","","13.4","","80","","","","0","","16.1","","99.51","","","","","","Clear"
"1993-10-08 01:00","1993","10","08","01:00","16.2","","13.0","","81","","","","0","","16.1","","99.47","","","","","","Clear"
"1993-10-08 02:00","1993","10","08","02:00","14.3","","12.8","","91","","","","0","","16.1","","99.47","","","","","","Mainly Clear"
"1993-10-08 03:00","1993","10","08","03:00","14.8","","12.7","","88","","19","","7","","16.1","","99.41","","","","","","Mainly Clear"
"1993-10-08 04:00","1993","10","08","04:00","14.2","","12.0","","87","","19","","6","","16.1","","99.37","","","","","","Mainly Clear"
"1993-10-08 05:00","1993","10","08","05:00","14.4","","12.2","","87","","21","","7","","12.9","","99.37","","","","","","Mainly Clear"
"1993-10-08 06:00","1993","10","08","06:00","12.6","","10.8","","89","","","","0","","11.3","","99.37","","","","","","Clear"
"1993-10-08 07:00","1993","10","08","07:00","13.2","","10.9","","86","","28","","6","","6.4","","99.34","","","","","","Fog"
"1993-10-08 08:00","1993","10","08","08:00","15.0","","12.3","","84","","","","0","","9.7","","99.34","","","","","","Fog"
"1993-10-08 09:00","1993","10","08","09:00","18.6","","13.3","","71","","26","","19","","11.3","","99.31","","","","","","Clear"
"1993-10-08 10:00","1993","10","08","10:00","21.5","","13.9","","62","","25","","19","","12.9","","99.24","","25","","","","Clear"
"1993-10-08 11:00","1993","10","08","11:00","24.0","","14.7","","56","","25","","19","","12.9","","99.17","","28","","","","Clear"
"1993-10-08 12:00","1993","10","08","12:00","25.3","","13.6","","48","","24","","19","","16.1","","99.11","","28","","","","Clear"
"1993-10-08 13:00","1993","10","08","13:00","26.5","","12.9","","43","","24","","26","","16.1","","99.04","","29","","","","Mainly Clear"
"1993-10-08 14:00","1993","10","08","14:00","26.4","","13.3","","44","","24","","28","","19.3","","98.97","","29","","","","Mostly Cloudy"
"1993-10-08 15:00","1993","10","08","15:00","25.6","","12.4","","44","","23","","22","","19.3","","98.94","","28","","","","Mainly Clear"
"1993-10-08 16:00","1993","10","08","16:00","25.4","","12.8","","46","","24","","24","","19.3","","98.87","","28","","","","Mainly Clear"
"1993-10-08 17:00","1993","10","08","17:00","23.9","","12.1","","48","","23","","15","","19.3","","98.84","","26","","","","Mainly Clear"
"1993-10-08 18:00","1993","10","08","18:00","22.4","","13.3","","56","","21","","22","","12.9","","98.81","","25","","","","Clear"
"1993-10-08 19:00","1993","10","08","19:00","20.4","","12.7","","61","","22","","19","","16.1","","98.81","","","","","","Mainly Clear"
"1993-10-08 20:00","1993","10","08","20:00","19.0","","12.5","","66","","22","","15","","16.1","","98.74","","","","","","Mainly Clear"
"1993-10-08 21:00","1993","10","08","21:00","18.0","","12.4","","70","","24","","15","","16.1","","98.67","","","","","","Mostly Cloudy"
"1993-10-08 22:00","1993","10","08","22:00","17.5","","12.2","","71","","24","","13","","16.1","","98.64","","","","","","Mostly Cloudy"
"1993-10-08 23:00","1993","10","08","23:00","17.0","","12.0","","72","","23","","15","","16.1","","98.54","","","","","","Mostly Cloudy"
"1993-10-09 00:00","1993","10","09","00:00","17.3","","12.2","","72","","23","","22","","16.1","","98.47","","","","","","Mostly Cloudy"
"1993-10-09 01:00","1993","10","09","01:00","16.6","","11.4","","71","","24","","19","","16.1","","98.41","","","","","","Mainly Clear"
"1993-10-09 02:00","1993","10","09","02:00","14.4","","11.4","","82","","34","","19","","12.9","","98.41","","","","","","Mainly Clear"
"1993-10-09 03:00","1993","10","09","03:00","11.1","","9.6","","90","","35","","20","","9.7","","98.41","","","","","","Fog"
"1993-10-09 04:00","1993","10","09","04:00","9.8","","8.9","","94","","35","","26","","12.9","","98.41","","","","","","Cloudy"
"1993-10-09 05:00","1993","10","09","05:00","8.8","","7.1","","89","","34","","26","","24.1","","98.47","","","","","","Cloudy"
"1993-10-09 06:00","1993","10","09","06:00","7.0","","5.4","","89","","34","","28","","19.3","","98.47","","","","","","Rain Showers"
"1993-10-09 07:00","1993","10","09","07:00","6.0","","5.2","","95","","34","","28","","9.7","","98.51","","","","","","Moderate Rain Showers,Fog"
"1993-10-09 08:00","1993","10","09","08:00","5.4","","5.1","","98","","35","","20","","9.7","","98.54","","","","","","Rain,Fog"
"1993-10-09 09:00","1993","10","09","09:00","4.9","","4.2","","95","","36","","17","","9.7","","98.54","","","","","","Moderate Rain,Fog"
"1993-10-09 10:00","1993","10","09","10:00","4.5","","3.6","","94","","34","","24","","9.7","","98.57","","","","","","Moderate Rain,Fog"
"1993-10-09 11:00","1993","10","09","11:00","3.9","","3.1","","95","","34","","26","","9.7","","98.74","","","","","","Moderate Rain,Fog"
"1993-10-09 12:00","1993","10","09","12:00","3.5","","2.6","","94","","34","","28","","12.9","","98.77","","","","","","Rain"
"1993-10-09 13:00","1993","10","09","13:00","3.0","","1.6","","91","","35","","35","","24.1","","98.81","","","","","","Rain"
"1993-10-09 14:00","1993","10","09","14:00","4.3","","1.3","","81","","36","","26","","40.2","","98.87","","","","","","Mostly Cloudy"
"1993-10-09 15:00","1993","10","09","15:00","5.5","","1.0","","73","","34","","26","","32.2","","99.01","","","","","","Mostly Cloudy"
"1993-10-09 16:00","1993","10","09","16:00","3.9","","0.8","","80","","32","","26","","40.2","","99.17","","","","","","Rain Showers"
"1993-10-09 17:00","1993","10","09","17:00","3.0","","0.7","","85","","35","","26","","32.2","","99.24","","","","","","Mostly Cloudy"
"1993-10-09 18:00","1993","10","09","18:00","2.6","","-0.4","","81","","35","","22","","32.2","","99.31","","","","","","Mostly Cloudy"
"1993-10-09 19:00","1993","10","09","19:00","1.5","","-0.5","","87","","33","","20","","24.1","","99.44","","","","","","Mostly Cloudy"
"1993-10-09 20:00","1993","10","09","20:00","1.6","","-1.5","","80","","33","","19","","25.0","","99.51","","","","","","Mostly Cloudy"
"1993-10-09 21:00","1993","10","09","21:00","1.1","","-2.4","","77","","34","","19","","25.0","","99.57","","","","","","Mostly Cloudy"
"1993-10-09 22:00","1993","10","09","22:00","0.7","","-1.4","","86","","34","","17","","25.0","","99.64","","","","","","Mostly Cloudy"
"1993-10-09 23:00","1993","10","09","23:00","0.4","","-1.3","","89","","34","","15","","25.0","","99.67","","","","","","Mostly Cloudy"
"1993-10-10 00:00","1993","10","10","00:00","0.0","","-1.8","","88","","35","","15","","16.1","","99.71","","","","-4","","Snow Showers"
"1993-10-10 01:00","1993","10","10","01:00","-0.2","","-2.8","","83","","34","","17","","11.3","","99.77","","","","-5","","Snow Showers"
"1993-10-10 02:00","1993","10","10","02:00","-1.2","","-3.6","","84","","32","","9","","25.0","","99.81","","","","-4","","Mostly Cloudy"
"1993-10-10 03:00","1993","10","10","03:00","-0.6","","-5.0","","72","","31","","9","","25.0","","99.81","","","","-4","","Mostly Cloudy"
"1993-10-10 04:00","1993","10","10","04:00","-1.2","","-4.1","","81","","32","","6","","25.0","","99.87","","","","-3","","Mostly Cloudy"
"1993-10-10 05:00","1993","10","10","05:00","-1.2","","-3.8","","83","","","","0","","25.0","","99.91","","","","","","Mainly Clear"
"1993-10-10 06:00","1993","10","10","06:00","-2.2","","-4.5","","84","","24","","6","","25.0","","99.97","","","","-5","","Mainly Clear"
"1993-10-10 07:00","1993","10","10","07:00","-1.8","","-4.5","","82","","24","","6","","24.1","","100.01","","","","-4","","Mostly Cloudy"
"1993-10-10 08:00","1993","10","10","08:00","-0.6","","-4.4","","76","","","","0","","40.2","","100.07","","","","","","Mostly Cloudy"
"1993-10-10 09:00","1993","10","10","09:00","0.5","","-3.7","","73","","22","","6","","40.2","","100.11","","","","","","Cloudy"
"1993-10-10 10:00","1993","10","10","10:00","1.5","","-2.4","","75","","","","0","","32.2","","100.17","","","","","","Mostly Cloudy"
"1993-10-10 11:00","1993","10","10","11:00","4.0","","-3.2","","59","","23","","13","","40.2","","100.14","","","","","","Mostly Cloudy"
"1993-10-10 12:00","1993","10","10","12:00","6.6","","-4.2","","46","","28","","11","","40.2","","100.11","","","","","","Mostly Cloudy"
"1993-10-10 13:00","1993","10","10","13:00","7.0","","-1.5","","55","","27","","19","","40.2","","100.11","","","","","","Mostly Cloudy"
"1993-10-10 14:00","1993","10","10","14:00","7.4","","-2.7","","49","","28","","17","","40.2","","100.07","","","","","","Mostly Cloudy"
"1993-10-10 15:00","1993","10","10","15:00","6.5","","-2.2","","54","","34","","9","","40.2","","100.11","","","","","","Mostly Cloudy"
"1993-10-10 16:00","1993","10","10","16:00","7.0","","-1.5","","55","","26","","19","","40.2","","100.14","","","","","","Mostly Cloudy"
"1993-10-10 17:00","1993","10","10","17:00","6.1","","-1.7","","57","","27","","15","","40.2","","100.17","","","","","","Mostly Cloudy"
"1993-10-10 18:00","1993","10","10","18:00","5.2","","-0.7","","65","","25","","7","","40.2","","100.24","","","","","","Mostly Cloudy"
"1993-10-10 19:00","1993","10","10","19:00","5.0","","-0.2","","69","","24","","9","","25.0","","100.31","","","","","","Mostly Cloudy"
"1993-10-10 20:00","1993","10","10","20:00","3.3","","-0.3","","77","","23","","7","","25.0","","100.34","","","","","","Clear"
"1993-10-10 21:00","1993","10","10","21:00","2.7","","-0.9","","77","","21","","9","","25.0","","100.37","","","","","","Clear"
"1993-10-10 22:00","1993","10","10","22:00","2.0","","-0.4","","84","","25","","4","","25.0","","100.37","","","","","","Clear"
"1993-10-10 23:00","1993","10","10","23:00","1.7","","-1.0","","82","","25","","7","","25.0","","100.37","","","","","","Clear"
"1993-10-11 00:00","1993","10","11","00:00","1.0","","-1.5","","83","","","","0","","25.0","","100.37","","","","","","Clear"
"1993-10-11 01:00","1993","10","11","01:00","1.0","","-1.5","","83","","24","","4","","25.0","","100.37","","","","","","Clear"
"1993-10-11 02:00","1993","10","11","02:00","2.0","","-1.5","","78","","18","","7","","25.0","","100.41","","","","","","Clear"
"1993-10-11 03:00","1993","10","11","03:00","1.8","","-1.5","","79","","","","0","","25.0","","100.37","","","","","","Clear"
"1993-10-11 04:00","1993","10","11","04:00","1.0","","-2.4","","78","","","","0","","25.0","","100.34","","","","","","Clear"
"1993-10-11 05:00","1993","10","11","05:00","0.4","","-2.1","","83","","","","0","","25.0","","100.34","","","","","","Clear"
"1993-10-11 06:00","1993","10","11","06:00","-0.7","","-2.7","","86","","","","0","","25.0","","100.31","","","","","","Clear"
"1993-10-11 07:00","1993","10","11","07:00","-1.4","","-3.0","","89","","","","0","","40.2","","100.31","","","","","","Clear"
"1993-10-11 08:00","1993","10","11","08:00","2.5","","-1.5","","75","","","","0","","24.1","","100.31","","","","","","Mainly Clear"
"1993-10-11 09:00","1993","10","11","09:00","7.0","","0.2","","62","","21","","9","","32.2","","100.27","","","","","","Mainly Clear"
"1993-10-11 10:00","1993","10","11","10:00","8.6","","0.5","","57","","16","","15","","32.2","","100.24","","","","","","Mainly Clear"
"1993-10-11 11:00","1993","10","11","11:00","8.3","","-0.1","","55","","19","","19","","40.2","","100.17","","","","","","Mainly Clear"
"1993-10-11 12:00","1993","10","11","12:00","9.5","","0.7","","54","","17","","22","","40.2","","100.04","","","","","","Mainly Clear"
"1993-10-11 13:00","1993","10","11","13:00","10.0","","-0.3","","49","","15","","22","","40.2","","99.91","","","","","","Mainly Clear"
"1993-10-11 14:00","1993","10","11","14:00","10.3","","1.0","","53","","14","","22","","40.2","","99.77","","","","","","Mostly Cloudy"
"1993-10-11 15:00","1993","10","11","15:00","10.0","","-0.3","","49","","15","","22","","40.2","","99.71","","","","","","Mostly Cloudy"
"1993-10-11 16:00","1993","10","11","16:00","9.9","","-1.5","","45","","16","","19","","40.2","","99.61","","","","","","Mostly Cloudy"
"1993-10-11 17:00","1993","10","11","17:00","8.5","","-0.7","","52","","13","","13","","40.2","","99.54","","","","","","Mostly Cloudy"
"1993-10-11 18:00","1993","10","11","18:00","7.0","","0.2","","62","","11","","9","","40.2","","99.44","","","","","","Mostly Cloudy"
"1993-10-11 19:00","1993","10","11","19:00","6.6","","0.1","","63","","12","","7","","25.0","","99.41","","","","","","Mostly Cloudy"
"1993-10-11 20:00","1993","10","11","20:00","6.0","","0.0","","65","","14","","4","","25.0","","99.34","","","","","","Mostly Cloudy"
"1993-10-11 21:00","1993","10","11","21:00","6.0","","0.0","","65","","16","","7","","25.0","","99.24","","","","","","Mostly Cloudy"
"1993-10-11 22:00","1993","10","11","22:00","6.4","","1.1","","69","","16","","6","","25.0","","99.17","","","","","","Mostly Cloudy"
"1993-10-11 23:00","1993","10","11","23:00","5.6","","1.5","","75","","","","0","","25.0","","99.07","","","","","","Mostly Cloudy"
"1993-10-12 00:00","1993","10","12","00:00","6.8","","4.1","","83","","17","","6","","25.0","","99.04","","","","","","Mostly Cloudy"
"1993-10-12 01:00","1993","10","12","01:00","7.2","","2.7","","73","","17","","7","","25.0","","98.97","","","","","","Mostly Cloudy"
"1993-10-12 02:00","1993","10","12","02:00","7.2","","2.2","","70","","","","0","","25.0","","98.97","","","","","","Cloudy"
"1993-10-12 03:00","1993","10","12","03:00","6.8","","1.7","","70","","22","","7","","25.0","","98.91","","","","","","Mostly Cloudy"
"1993-10-12 04:00","1993","10","12","04:00","6.6","","2.1","","73","","20","","9","","25.0","","98.87","","","","","","Mostly Cloudy"
"1993-10-12 05:00","1993","10","12","05:00","6.4","","2.1","","74","","22","","7","","25.0","","98.84","","","","","","Mainly Clear"
"1993-10-12 06:00","1993","10","12","06:00","5.0","","1.9","","80","","23","","9","","25.0","","98.81","","","","","","Mainly Clear"
"1993-10-12 07:00","1993","10","12","07:00","5.0","","1.4","","77","","21","","11","","19.3","","98.84","","","","","","Mostly Cloudy"
"1993-10-12 08:00","1993","10","12","08:00","7.6","","2.3","","69","","23","","22","","19.3","","98.81","","","","","","Mostly Cloudy"
"1993-10-12 09:00","1993","10","12","09:00","9.8","","3.4","","64","","24","","19","","19.3","","98.81","","","","","","Mainly Clear"
"1993-10-12 10:00","1993","10","12","10:00","11.7","","3.3","","56","","23","","24","","19.3","","98.74","","","","","","Mainly Clear"
"1993-10-12 11:00","1993","10","12","11:00","12.3","","4.6","","59","","25","","26","","24.1","","98.67","","","","","","Mainly Clear"
"1993-10-12 12:00","1993","10","12","12:00","12.5","","5.1","","61","","23","","28","","24.1","","98.61","","","","","","Mostly Cloudy"
"1993-10-12 13:00","1993","10","12","13:00","10.9","","5.5","","69","","25","","17","","16.1","","98.61","","","","","","Cloudy"
"1993-10-12 14:00","1993","10","12","14:00","10.3","","5.4","","72","","28","","15","","12.9","","98.61","","","","","","Cloudy"
"1993-10-12 15:00","1993","10","12","15:00","9.3","","7.4","","88","","25","","22","","6.4","","98.67","","","","","","Rain Showers,Haze"
"1993-10-12 16:00","1993","10","12","16:00","6.1","","3.4","","83","","32","","28","","9.7","","98.84","","","","","","Drizzle"
"1993-10-12 17:00","1993","10","12","17:00","5.3","","2.9","","85","","31","","26","","24.1","","98.94","","","","","","Mostly Cloudy"
"1993-10-12 18:00","1993","10","12","18:00","4.7","","-0.2","","70","","31","","26","","25.0","","99.01","","","","","","Mostly Cloudy"
"1993-10-12 19:00","1993","10","12","19:00","4.2","","-0.8","","70","","31","","22","","25.0","","99.11","","","","","","Mainly Clear"
"1993-10-12 20:00","1993","10","12","20:00","3.5","","-1.4","","70","","31","","30","","25.0","","99.21","","","","","","Clear"
"1993-10-12 21:00","1993","10","12","21:00","2.8","","-2.6","","68","","31","","24","","25.0","","99.24","","","","","","Clear"
"1993-10-12 22:00","1993","10","12","22:00","2.6","","-4.6","","59","","29","","19","","25.0","","99.27","","","","","","Clear"
"1993-10-12 23:00","1993","10","12","23:00","1.3","","-4.8","","64","","30","","20","","25.0","","99.27","","","","","","Clear"
"1993-10-13 00:00","1993","10","13","00:00","1.4","","-5.4","","61","","31","","22","","25.0","","99.31","","","","","","Clear"
"1993-10-13 01:00","1993","10","13","01:00","1.0","","-5.5","","62","","31","","19","","25.0","","99.41","","","","","","Mainly Clear"
"1993-10-13 02:00","1993","10","13","02:00","0.7","","-5.5","","63","","","","0","","25.0","","99.51","","","","","","Mostly Cloudy"
"1993-10-13 03:00","1993","10","13","03:00","-1.1","","-4.4","","78","","30","","9","","25.0","","99.57","","","","-4","","Clear"
"1993-10-13 04:00","1993","10","13","04:00","-2.0","","-4.2","","85","","31","","9","","25.0","","99.71","","","","-5","","Mainly Clear"
"1993-10-13 05:00","1993","10","13","05:00","-2.2","","-5.1","","80","","32","","6","","25.0","","99.77","","","","-5","","Mainly Clear"
"1993-10-13 06:00","1993","10","13","06:00","-1.8","","-3.3","","89","","26","","7","","25.0","","99.87","","","","-4","","Mostly Cloudy"
"1993-10-13 07:00","1993","10","13","07:00","-0.7","","-3.5","","81","","29","","7","","32.2","","99.97","","","","-3","","Mostly Cloudy"
"1993-10-13 08:00","1993","10","13","08:00","1.6","","-4.8","","62","","32","","15","","32.2","","100.04","","","","","","Mostly Cloudy"
"1993-10-13 09:00","1993","10","13","09:00","3.0","","-3.2","","64","","29","","15","","32.2","","100.14","","","","","","Mostly Cloudy"
"1993-10-13 10:00","1993","10","13","10:00","4.0","","-7.2","","44","","","","0","","32.2","","100.14","","","","","","Mainly Clear"
"1993-10-13 11:00","1993","10","13","11:00","4.8","","-6.6","","43","","32","","9","","40.2","","100.21","","","","","","Mainly Clear"
"1993-10-13 12:00","1993","10","13","12:00","4.7","","-8.2","","38","","30","","4","","40.2","","100.21","","","","","","Mostly Cloudy"
"1993-10-13 13:00","1993","10","13","13:00","5.8","","-5.0","","46","","33","","15","","40.2","","100.17","","","","","","Mostly Cloudy"
"1993-10-13 14:00","1993","10","13","14:00","7.2","","-6.3","","38","","32","","20","","40.2","","100.14","","","","","","Mostly Cloudy"
"1993-10-13 15:00","1993","10","13","15:00","6.5","","-6.4","","39","","31","","22","","32.2","","100.14","","","","","","Mainly Clear"
"1993-10-13 16:00","1993","10","13","16:00","6.5","","-6.4","","39","","","","0","","32.2","","100.14","","","","","","Mainly Clear"
"1993-10-13 17:00","1993","10","13","17:00","5.2","","-6.6","","42","","31","","13","","32.2","","100.17","","","","","","Mainly Clear"
"1993-10-13 18:00","1993","10","13","18:00","3.7","","-4.5","","55","","30","","11","","25.0","","100.21","","","","","","Mostly Cloudy"
"1993-10-13 19:00","1993","10","13","19:00","3.4","","-5.9","","51","","","","0","","25.0","","100.27","","","","","","Mostly Cloudy"
"1993-10-13 20:00","1993","10","13","20:00","0.6","","-4.9","","67","","36","","7","","25.0","","100.31","","","","","","Mainly Clear"
"1993-10-13 21:00","1993","10","13","21:00","1.6","","-4.8","","62","","4","","6","","25.0","","100.31","","","","","","Clear"
"1993-10-13 22:00","1993","10","13","22:00","0.0","","-4.6","","71","","","","0","","25.0","","100.37","","","","","","Clear"
"1993-10-13 23:00","1993","10","13","23:00","-1.0","","-4.4","","78","","","","0","","25.0","","100.34","","","","","","Clear"
"1993-10-14 00:00","1993","10","14","00:00","-2.1","","-4.8","","82","","34","","6","","25.0","","100.34","","","","-4","","Clear"
"1993-10-14 01:00","1993","10","14","01:00","-2.7","","-4.2","","89","","","","0","","25.0","","100.34","","","","","","Clear"
"1993-10-14 02:00","1993","10","14","02:00","-3.3","","-5.1","","87","","","","0","","25.0","","100.34","","","","","","Clear"
"1993-10-14 03:00","1993","10","14","03:00","-3.5","","-4.8","","91","","","","0","","25.0","","100.31","","","","","","Clear"
"1993-10-14 04:00","1993","10","14","04:00","-3.2","","-4.8","","89","","","","0","","25.0","","100.31","","","","","","Clear"
"1993-10-14 05:00","1993","10","14","05:00","-4.2","","-5.7","","89","","35","","6","","25.0","","100.34","","","","-7","","Clear"
"1993-10-14 06:00","1993","10","14","06:00","-4.0","","-6.0","","86","","34","","7","","25.0","","100.34","","","","-7","","Mainly Clear"
"1993-10-14 07:00","1993","10","14","07:00","-3.2","","-5.1","","87","","33","","6","","16.1","","100.34","","","","-6","","Mainly Clear"
"1993-10-14 08:00","1993","10","14","08:00","-0.7","","-3.2","","83","","35","","4","","16.1","","100.37","","","","-2","","Mostly Cloudy"
"1993-10-14 09:00","1993","10","14","09:00","2.5","","-2.0","","72","","","","0","","19.3","","100.37","","","","","","Mostly Cloudy"
"1993-10-14 10:00","1993","10","14","10:00","6.2","","-0.6","","62","","","","0","","24.1","","100.34","","","","","","Mostly Cloudy"
"1993-10-14 11:00","1993","10","14","11:00","9.0","","0.0","","53","","16","","13","","24.1","","100.31","","","","","","Mostly Cloudy"
"1993-10-14 12:00","1993","10","14","12:00","8.6","","0.5","","57","","19","","6","","24.1","","100.27","","","","","","Mostly Cloudy"
"1993-10-14 13:00","1993","10","14","13:00","8.6","","1.5","","61","","14","","13","","32.2","","100.17","","","","","","Mostly Cloudy"
"1993-10-14 14:00","1993","10","14","14:00","9.1","","1.1","","57","","15","","13","","32.2","","100.11","","","","","","Mainly Clear"
"1993-10-14 15:00","1993","10","14","15:00","9.0","","1.7","","60","","14","","13","","32.2","","100.07","","","","","","Mainly Clear"
"1993-10-14 16:00","1993","10","14","16:00","9.3","","2.8","","64","","13","","9","","24.1","","100.07","","","","","","Mainly Clear"
"1993-10-14 17:00","1993","10","14","17:00","8.1","","2.4","","67","","14","","11","","19.3","","100.07","","","","","","Mainly Clear"
"1993-10-14 18:00","1993","10","14","18:00","6.0","","1.0","","70","","15","","7","","24.1","","100.11","","","","","","Mainly Clear"
"1993-10-14 19:00","1993","10","14","19:00","5.5","","1.5","","75","","","","0","","24.1","","100.14","","","","","","Mostly Cloudy"
"1993-10-14 20:00","1993","10","14","20:00","5.4","","2.4","","81","","","","0","","25.0","","100.17","","","","","","Mainly Clear"
"1993-10-14 21:00","1993","10","14","21:00","4.6","","2.3","","85","","","","0","","24.1","","100.21","","","","","","Mainly Clear"
"1993-10-14 22:00","1993","10","14","22:00","3.9","","1.3","","83","","","","0","","16.1","","100.21","","","","","","Mainly Clear"
"1993-10-14 23:00","1993","10","14","23:00","3.6","","1.2","","84","","","","0","","16.1","","100.17","","","","","","Clear"
"1993-10-15 00:00","1993","10","15","00:00","0.0","","-1.0","","93","","34","","6","","16.1","","100.21","","","","-2","","Clear"
"1993-10-15 01:00","1993","10","15","01:00","0.0","","-0.7","","95","","34","","6","","12.9","","100.21","","","","-2","","Mainly Clear"
"1993-10-15 02:00","1993","10","15","02:00","2.6","","1.1","","90","","34","","7","","12.9","","100.31","","","","","","Cloudy"
"1993-10-15 03:00","1993","10","15","03:00","3.5","","1.7","","88","","","","0","","11.3","","100.27","","","","","","Cloudy"
"1993-10-15 04:00","1993","10","15","04:00","3.0","","1.6","","91","","","","0","","11.3","","100.27","","","","","","Cloudy"
"1993-10-15 05:00","1993","10","15","05:00","3.4","","1.7","","89","","","","0","","12.9","","100.27","","","","","","Mostly Cloudy"
"1993-10-15 06:00","1993","10","15","06:00","3.8","","0.8","","81","","","","0","","11.3","","100.27","","","","","","Mostly Cloudy"
"1993-10-15 07:00","1993","10","15","07:00","5.3","","3.4","","88","","","","0","","11.3","","100.31","","","","","","Mostly Cloudy"
"1993-10-15 08:00","1993","10","15","08:00","6.7","","4.0","","83","","","","0","","12.9","","100.34","","","","","","Mostly Cloudy"
"1993-10-15 09:00","1993","10","15","09:00","8.8","","5.4","","79","","14","","4","","9.7","","100.34","","","","","","Haze"
"1993-10-15 10:00","1993","10","15","10:00","9.5","","6.0","","79","","15","","7","","11.3","","100.31","","","","","","Mostly Cloudy"
"1993-10-15 11:00","1993","10","15","11:00","10.8","","7.2","","79","","18","","6","","6.4","","100.31","","","","","","Haze"
"1993-10-15 12:00","1993","10","15","12:00","12.4","","8.1","","75","","17","","9","","9.7","","100.27","","","","","","Haze"
"1993-10-15 13:00","1993","10","15","13:00","12.5","","8.1","","75","","14","","6","","8.0","","100.21","","","","","","Rain Showers,Haze"
"1993-10-15 14:00","1993","10","15","14:00","12.2","","8.3","","77","","14","","9","","8.0","","100.14","","","","","","Haze"
"1993-10-15 15:00","1993","10","15","15:00","11.9","","8.7","","81","","15","","7","","6.4","","100.14","","","","","","Haze"
"1993-10-15 16:00","1993","10","15","16:00","11.2","","8.0","","81","","14","","11","","6.4","","100.11","","","","","","Haze"
"1993-10-15 17:00","1993","10","15","17:00","11.2","","8.0","","81","","14","","9","","4.8","","100.07","","","","","","Haze"
"1993-10-15 18:00","1993","10","15","18:00","10.7","","8.3","","85","","","","0","","4.8","","100.11","","","","","","Fog,Haze"
"1993-10-15 19:00","1993","10","15","19:00","11.0","","8.0","","82","","","","0","","4.8","","100.11","","","","","","Haze"
"1993-10-15 20:00","1993","10","15","20:00","10.8","","8.4","","85","","13","","6","","6.4","","100.07","","","","","","Haze"
"1993-10-15 21:00","1993","10","15","21:00","9.8","","7.4","","85","","","","0","","8.0","","100.04","","","","","","Haze"
"1993-10-15 22:00","1993","10","15","22:00","9.0","","7.5","","90","","","","0","","4.8","","100.01","","","","","","Fog"
"1993-10-15 23:00","1993","10","15","23:00","9.9","","7.7","","86","","","","0","","6.4","","99.97","","","","","","Haze"
"1993-10-16 00:00","1993","10","16","00:00","10.5","","7.5","","82","","","","0","","6.4","","99.91","","","","","","Haze"
"1993-10-16 01:00","1993","10","16","01:00","9.4","","7.6","","89","","","","0","","6.4","","99.91","","","","","","Fog"
"1993-10-16 02:00","1993","10","16","02:00","8.5","","7.4","","93","","","","0","","4.8","","99.87","","","","","","Fog"
"1993-10-16 03:00","1993","10","16","03:00","8.5","","7.4","","93","","","","0","","4.8","","99.77","","","","","","Fog"
"1993-10-16 04:00","1993","10","16","04:00","7.8","","7.2","","96","","","","0","","4.8","","99.74","","","","","","Fog"
"1993-10-16 05:00","1993","10","16","05:00","8.1","","7.2","","94","","","","0","","4.8","","99.71","","","","","","Fog"
"1993-10-16 06:00","1993","10","16","06:00","8.3","","7.7","","96","","","","0","","4.8","","99.64","","","","","","Fog"
"1993-10-16 07:00","1993","10","16","07:00","8.8","","8.3","","97","","","","0","","6.4","","99.61","","","","","","Fog"
"1993-10-16 08:00","1993","10","16","08:00","10.3","","9.0","","92","","12","","9","","6.4","","99.54","","","","","","Fog"
"1993-10-16 09:00","1993","10","16","09:00","11.6","","9.3","","86","","","","0","","9.7","","99.57","","","","","","Haze"
"1993-10-16 10:00","1993","10","16","10:00","12.3","","10.0","","86","","14","","4","","9.7","","99.47","","","","","","Haze"
"1993-10-16 11:00","1993","10","16","11:00","12.5","","10.4","","87","","15","","9","","11.3","","99.41","","","","","","Rain Showers"
"1993-10-16 12:00","1993","10","16","12:00","12.7","","10.8","","88","","16","","9","","4.8","","99.37","","","","","","Rain Showers,Fog"
"1993-10-16 13:00","1993","10","16","13:00","12.6","","11.5","","93","","17","","9","","3.2","","99.34","","","","","","Rain Showers,Fog"
"1993-10-16 14:00","1993","10","16","14:00","14.0","","13.3","","95","","19","","6","","3.2","","99.24","","","","","","Rain,Fog"
"1993-10-16 15:00","1993","10","16","15:00","14.5","","13.2","","92","","19","","15","","4.8","","99.27","","","","","","Rain Showers,Fog"
"1993-10-16 16:00","1993","10","16","16:00","14.5","","13.5","","94","","20","","11","","6.4","","99.21","","","","","","Rain Showers,Fog"
"1993-10-16 17:00","1993","10","16","17:00","14.3","","13.5","","95","","20","","7","","6.4","","99.17","","","","","","Fog"
"1993-10-16 18:00","1993","10","16","18:00","14.3","","13.5","","95","","","","0","","9.7","","99.17","","","","","","Fog"
"1993-10-16 19:00","1993","10","16","19:00","13.5","","13.2","","98","","","","0","","2.0","","99.21","","","","","","Rain Showers,Fog"
"1993-10-16 20:00","1993","10","16","20:00","13.2","","12.7","","97","","","","0","","2.0","","99.21","","","","","","Drizzle,Fog"
"1993-10-16 21:00","1993","10","16","21:00","13.4","","13.2","","99","","15","","4","","1.6","","99.14","","","","","","Fog"
"1993-10-16 22:00","1993","10","16","22:00","12.8","","12.8","","100","","15","","4","","0.2","","99.11","","","","","","Fog"
"1993-10-16 23:00","1993","10","16","23:00","12.2","","12.0","","99","","15","","7","","0.2","","99.04","","","","","","Fog"
"1993-10-17 00:00","1993","10","17","00:00","12.9","","12.7","","99","","18","","9","","1.6","","98.97","","","","","","Fog"
"1993-10-17 01:00","1993","10","17","01:00","13.3","","12.8","","97","","17","","6","","2.4","","98.97","","","","","","Fog"
"1993-10-17 02:00","1993","10","17","02:00","12.8","","12.7","","100","","15","","4","","1.6","","98.91","","","","","","Fog"
"1993-10-17 03:00","1993","10","17","03:00","12.8","","12.7","","100","","15","","4","","0.2","","98.81","","","","","","Fog"
"1993-10-17 04:00","1993","10","17","04:00","13.0","","13.0","","100","","15","","9","","0.2","","98.77","","","","","","Rain Showers,Fog"
"1993-10-17 05:00","1993","10","17","05:00","12.9","","12.7","","99","","15","","13","","0.8","","98.71","","","","","","Rain,Fog"
"1993-10-17 06:00","1993","10","17","06:00","12.5","","12.5","","100","","14","","11","","0.0","","98.67","","","","","","Rain,Fog"
"1993-10-17 07:00","1993","10","17","07:00","12.3","","12.3","","100","","13","","13","","0.4","","98.61","","","","","","Rain,Fog"
"1993-10-17 08:00","1993","10","17","08:00","12.3","","12.3","","100","","14","","15","","1.6","","98.54","","","","","","Rain,Fog"
"1993-10-17 09:00","1993","10","17","09:00","12.6","","12.6","","100","","14","","13","","0.6","","98.44","","","","","","Moderate Rain,Fog"
"1993-10-17 10:00","1993","10","17","10:00","13.0","","13.0","","100","","16","","15","","0.8","","98.37","","","","","","Rain,Fog"
"1993-10-17 11:00","1993","10","17","11:00","13.4","","13.2","","99","","15","","11","","0.2","","98.27","","","","","","Rain,Fog"
"1993-10-17 12:00","1993","10","17","12:00","13.9","","13.7","","99","","17","","19","","2.4","","98.17","","","","","","Rain,Fog"
"1993-10-17 13:00","1993","10","17","13:00","14.0","","14.0","","100","","16","","15","","1.2","","98.04","","","","","","Moderate Rain Showers,Fog"
"1993-10-17 14:00","1993","10","17","14:00","14.8","","14.4","","98","","18","","22","","11.3","","97.91","","","","","","Cloudy"
"1993-10-17 15:00","1993","10","17","15:00","15.9","","14.7","","93","","19","","22","","19.3","","97.84","","","","","","Cloudy"
"1993-10-17 16:00","1993","10","17","16:00","15.7","","14.5","","92","","18","","19","","16.1","","97.71","","","","","","Cloudy"
"1993-10-17 17:00","1993","10","17","17:00","16.3","","14.9","","91","","20","","19","","24.1","","97.67","","","","","","Mostly Cloudy"
"1993-10-17 18:00","1993","10","17","18:00","16.2","","13.0","","81","","21","","24","","25.0","","97.61","","","","","","Rain Showers"
"1993-10-17 19:00","1993","10","17","19:00","12.0","","9.9","","87","","26","","22","","25.0","","97.74","","","","","","Mostly Cloudy"
"1993-10-17 20:00","1993","10","17","20:00","11.5","","7.8","","78","","31","","44","","25.0","","98.01","","","","","","Mostly Cloudy"
"1993-10-17 21:00","1993","10","17","21:00","11.5","","7.8","","78","","29","","35","","25.0","","98.31","","","","","","Mostly Cloudy"
"1993-10-17 22:00","1993","10","17","22:00","10.6","","7.5","","81","","29","","37","","25.0","","98.51","","","","","","Mostly Cloudy"
"1993-10-17 23:00","1993","10","17","23:00","10.5","","8.3","","86","","28","","26","","25.0","","98.67","","","","","","Cloudy"
"1993-10-18 00:00","1993","10","18","00:00","10.0","","6.9","","81","","28","","24","","25.0","","98.81","","","","","","Cloudy"
"1993-10-18 01:00","1993","10","18","01:00","9.6","","6.4","","80","","27","","24","","25.0","","98.94","","","","","","Cloudy"
"1993-10-18 02:00","1993","10","18","02:00","9.1","","5.9","","80","","27","","26","","25.0","","99.04","","","","","","Cloudy"
"1993-10-18 03:00","1993","10","18","03:00","8.8","","5.0","","77","","28","","20","","25.0","","99.11","","","","","","Cloudy"
"1993-10-18 04:00","1993","10","18","04:00","8.2","","3.4","","72","","30","","26","","25.0","","99.17","","","","","","Mostly Cloudy"
"1993-10-18 05:00","1993","10","18","05:00","7.0","","3.2","","77","","29","","13","","25.0","","99.27","","","","","","Clear"
"1993-10-18 06:00","1993","10","18","06:00","6.5","","3.1","","79","","30","","17","","25.0","","99.37","","","","","","Clear"
"1993-10-18 07:00","1993","10","18","07:00","5.7","","2.0","","77","","30","","19","","40.2","","99.47","","","","","","Clear"
"1993-10-18 08:00","1993","10","18","08:00","7.3","","1.3","","66","","32","","19","","40.2","","99.51","","","","","","Clear"
"1993-10-18 09:00","1993","10","18","09:00","9.4","","2.3","","61","","32","","19","","40.2","","99.61","","","","","","Mainly Clear"
"1993-10-18 10:00","1993","10","18","10:00","9.7","","1.8","","58","","31","","22","","40.2","","99.67","","","","","","Cloudy"
"1993-10-18 11:00","1993","10","18","11:00","10.8","","5.1","","68","","31","","19","","40.2","","99.81","","","","","","Mostly Cloudy"
"1993-10-18 12:00","1993","10","18","12:00","10.7","","4.5","","65","","31","","19","","40.2","","99.84","","","","","","Mostly Cloudy"
"1993-10-18 13:00","1993","10","18","13:00","10.7","","4.0","","63","","33","","19","","40.2","","99.77","","","","","","Cloudy"
"1993-10-18 14:00","1993","10","18","14:00","11.7","","4.3","","60","","32","","13","","40.2","","99.81","","","","","","Mostly Cloudy"
"1993-10-18 15:00","1993","10","18","15:00","11.4","","4.8","","64","","32","","9","","40.2","","99.87","","","","","","Mostly Cloudy"
"1993-10-18 16:00","1993","10","18","16:00","11.7","","3.3","","56","","34","","6","","40.2","","99.91","","","","","","Mainly Clear"
"1993-10-18 17:00","1993","10","18","17:00","10.6","","3.1","","60","","29","","13","","40.2","","99.91","","","","","","Mainly Clear"
"1993-10-18 18:00","1993","10","18","18:00","8.4","","3.5","","71","","29","","9","","40.2","","100.01","","","","","","Clear"
"1993-10-18 19:00","1993","10","18","19:00","7.5","","2.8","","72","","30","","6","","25.0","","100.07","","","","","","Clear"
"1993-10-18 20:00","1993","10","18","20:00","5.5","","2.0","","78","","30","","6","","25.0","","100.11","","","","","","Clear"
"1993-10-18 21:00","1993","10","18","21:00","5.5","","2.0","","78","","31","","9","","25.0","","100.11","","","","","","Mainly Clear"
"1993-10-18 22:00","1993","10","18","22:00","4.8","","1.9","","82","","34","","13","","25.0","","100.11","","","","","","Mainly Clear"
"1993-10-18 23:00","1993","10","18","23:00","3.3","","1.7","","90","","34","","9","","25.0","","100.17","","","","","","Clear"
"1993-10-19 00:00","1993","10","19","00:00","2.8","","1.1","","89","","34","","9","","25.0","","100.17","","","","","","Clear"
"1993-10-19 01:00","1993","10","19","01:00","2.3","","1.1","","92","","35","","6","","25.0","","100.21","","","","","","Mostly Cloudy"
"1993-10-19 02:00","1993","10","19","02:00","2.5","","1.1","","91","","","","0","","25.0","","100.27","","","","","","Mostly Cloudy"
"1993-10-19 03:00","1993","10","19","03:00","3.2","","1.1","","86","","","","0","","25.0","","100.27","","","","","","Cloudy"
"1993-10-19 04:00","1993","10","19","04:00","3.9","","2.2","","89","","","","0","","25.0","","100.27","","","","","","Cloudy"
"1993-10-19 05:00","1993","10","19","05:00","3.8","","2.2","","90","","35","","6","","25.0","","100.27","","","","","","Cloudy"
"1993-10-19 06:00","1993","10","19","06:00","4.5","","2.7","","88","","34","","6","","25.0","","100.31","","","","","","Cloudy"
"1993-10-19 07:00","1993","10","19","07:00","4.5","","2.7","","88","","","","0","","32.2","","100.27","","","","","","Cloudy"
"1993-10-19 08:00","1993","10","19","08:00","5.9","","3.4","","84","","","","0","","24.1","","100.31","","","","","","Cloudy"
"1993-10-19 09:00","1993","10","19","09:00","7.7","","4.2","","78","","","","0","","24.1","","100.27","","","","","","Cloudy"
"1993-10-19 10:00","1993","10","19","10:00","8.1","","5.6","","84","","9","","4","","19.3","","100.27","","","","","","Rain Showers"
"1993-10-19 11:00","1993","10","19","11:00","9.6","","5.6","","76","","7","","11","","19.3","","100.24","","","","","","Cloudy"
"1993-10-19 12:00","1993","10","19","12:00","10.4","","5.4","","71","","11","","6","","19.3","","100.24","","","","","","Cloudy"
"1993-10-19 13:00","1993","10","19","13:00","11.0","","4.6","","65","","8","","9","","24.1","","100.17","","","","","","Rain Showers"
"1993-10-19 14:00","1993","10","19","14:00","11.7","","4.8","","62","","6","","15","","24.1","","100.11","","","","","","Cloudy"
"1993-10-19 15:00","1993","10","19","15:00","10.4","","5.8","","73","","11","","13","","19.3","","100.11","","","","","","Cloudy"
"1993-10-19 16:00","1993","10","19","16:00","9.8","","5.7","","76","","8","","19","","24.1","","100.11","","","","","","Cloudy"
"1993-10-19 17:00","1993","10","19","17:00","9.7","","5.6","","76","","8","","15","","19.3","","100.11","","","","","","Cloudy"
"1993-10-19 18:00","1993","10","19","18:00","8.8","","6.3","","84","","8","","7","","19.3","","100.11","","","","","","Mostly Cloudy"
"1993-10-19 19:00","1993","10","19","19:00","8.8","","5.9","","82","","8","","6","","24.1","","100.17","","","","","","Mostly Cloudy"
"1993-10-19 20:00","1993","10","19","20:00","8.0","","6.0","","87","","7","","6","","19.3","","100.17","","","","","","Mostly Cloudy"
"1993-10-19 21:00","1993","10","19","21:00","8.8","","6.7","","87","","5","","13","","19.3","","100.17","","","","","","Mostly Cloudy"
"1993-10-19 22:00","1993","10","19","22:00","8.2","","5.2","","81","","6","","9","","24.1","","100.21","","","","","","Mainly Clear"
"1993-10-19 23:00","1993","10","19","23:00","7.8","","4.8","","81","","4","","6","","25.0","","100.21","","","","","","Mostly Cloudy"
"1993-10-20 00:00","1993","10","20","00:00","8.0","","4.3","","77","","4","","7","","25.0","","100.21","","","","","","Mostly Cloudy"
"1993-10-20 01:00","1993","10","20","01:00","6.2","","3.4","","82","","4","","7","","24.1","","100.21","","","","","","Clear"
"1993-10-20 02:00","1993","10","20","02:00","4.8","","3.3","","90","","34","","11","","25.0","","100.17","","","","","","Clear"
"1993-10-20 03:00","1993","10","20","03:00","4.0","","2.2","","88","","","","0","","25.0","","100.21","","","","","","Clear"
"1993-10-20 04:00","1993","10","20","04:00","3.7","","2.2","","90","","1","","11","","25.0","","100.21","","","","","","Mainly Clear"
"1993-10-20 05:00","1993","10","20","05:00","3.0","","1.6","","91","","34","","6","","25.0","","100.27","","","","","","Mainly Clear"
"1993-10-20 06:00","1993","10","20","06:00","2.8","","1.6","","92","","34","","9","","25.0","","100.27","","","","","","Mainly Clear"
"1993-10-20 07:00","1993","10","20","07:00","2.6","","1.1","","90","","36","","9","","25.0","","100.27","","","","","","Mostly Cloudy"
"1993-10-20 08:00","1993","10","20","08:00","5.7","","2.9","","82","","36","","7","","9.7","","100.31","","","","","","Haze"
"1993-10-20 09:00","1993","10","20","09:00","8.0","","4.3","","77","","8","","9","","8.0","","100.34","","","","","","Haze"
"1993-10-20 10:00","1993","10","20","10:00","9.7","","6.8","","82","","7","","11","","8.0","","100.27","","","","","","Haze"
"1993-10-20 11:00","1993","10","20","11:00","10.6","","7.5","","81","","9","","17","","8.0","","100.21","","","","","","Haze"
"1993-10-20 12:00","1993","10","20","12:00","11.5","","8.2","","80","","10","","19","","8.0","","100.11","","","","","","Haze"
"1993-10-20 13:00","1993","10","20","13:00","12.1","","8.3","","77","","9","","19","","9.7","","100.01","","","","","","Haze"
"1993-10-20 14:00","1993","10","20","14:00","11.5","","8.2","","80","","9","","24","","9.7","","99.94","","","","","","Haze"
"1993-10-20 15:00","1993","10","20","15:00","10.8","","8.4","","85","","9","","19","","11.3","","99.91","","","","","","Cloudy"
"1993-10-20 16:00","1993","10","20","16:00","10.5","","8.7","","89","","9","","28","","11.3","","99.84","","","","","","Cloudy"
"1993-10-20 17:00","1993","10","20","17:00","10.6","","8.3","","85","","9","","28","","11.3","","99.71","","","","","","Cloudy"
"1993-10-20 18:00","1993","10","20","18:00","10.6","","8.3","","85","","9","","26","","12.9","","99.61","","","","","","Cloudy"
"1993-10-20 19:00","1993","10","20","19:00","10.7","","9.0","","89","","10","","26","","4.8","","99.51","","","","","","Rain,Fog"
"1993-10-20 20:00","1993","10","20","20:00","10.4","","9.8","","96","","10","","22","","6.4","","99.41","","","","","","Rain,Fog"
"1993-10-20 21:00","1993","10","20","21:00","10.5","","9.8","","95","","11","","22","","3.2","","99.21","","","","","","Rain,Fog"
"1993-10-20 22:00","1993","10","20","22:00","11.2","","10.6","","96","","11","","22","","3.2","","99.04","","","","","","Moderate Rain,Fog"
"1993-10-20 23:00","1993","10","20","23:00","11.2","","10.6","","96","","11","","19","","2.4","","98.87","","","","","","Rain,Fog"
"1993-10-21 00:00","1993","10","21","00:00","11.8","","11.7","","100","","11","","19","","2.4","","98.67","","","","","","Moderate Rain,Fog"
"1993-10-21 01:00","1993","10","21","01:00","12.2","","11.7","","97","","12","","24","","2.4","","98.51","","","","","","Rain,Fog"
"1993-10-21 02:00","1993","10","21","02:00","12.0","","11.7","","98","","14","","19","","3.2","","98.37","","","","","","Rain,Fog"
"1993-10-21 03:00","1993","10","21","03:00","13.7","","13.2","","97","","15","","22","","3.2","","98.21","","","","","","Fog"
"1993-10-21 04:00","1993","10","21","04:00","17.3","","16.6","","96","","19","","24","","8.0","","98.17","","","","","","Rain,Fog"
"1993-10-21 05:00","1993","10","21","05:00","18.2","","15.5","","84","","21","","30","","11.3","","98.17","","","","","","Mostly Cloudy"
"1993-10-21 06:00","1993","10","21","06:00","15.0","","12.0","","82","","25","","26","","24.1","","98.34","","","","","","Mostly Cloudy"
"1993-10-21 07:00","1993","10","21","07:00","13.1","","10.6","","85","","24","","22","","24.1","","98.47","","","","","","Mostly Cloudy"
"1993-10-21 08:00","1993","10","21","08:00","14.1","","10.5","","79","","22","","26","","24.1","","98.57","","","","","","Cloudy"
"1993-10-21 09:00","1993","10","21","09:00","14.7","","10.3","","75","","26","","41","","24.1","","98.61","","","","","","Rain Showers"
"1993-10-21 10:00","1993","10","21","10:00","11.0","","3.7","","61","","26","","48","","24.1","","98.81","","","","","","Mostly Cloudy"
"1993-10-21 11:00","1993","10","21","11:00","9.8","","1.9","","58","","26","","52","","24.1","","98.94","","","","","","Mostly Cloudy"
"1993-10-21 12:00","1993","10","21","12:00","10.5","","2.0","","56","","26","","37","","40.2","","99.01","","","","","","Mostly Cloudy"
"1993-10-21 13:00","1993","10","21","13:00","11.2","","0.6","","48","","26","","46","","40.2","","99.04","","","","","","Mostly Cloudy"
"1993-10-21 14:00","1993","10","21","14:00","11.6","","0.1","","45","","26","","39","","40.2","","99.07","","","","","","Mostly Cloudy"
"1993-10-21 15:00","1993","10","21","15:00","10.9","","0.0","","47","","25","","37","","32.2","","99.11","","","","","","Mostly Cloudy"
"1993-10-21 16:00","1993","10","21","16:00","10.1","","-0.3","","48","","27","","37","","32.2","","99.17","","","","","","Mostly Cloudy"
"1993-10-21 17:00","1993","10","21","17:00","8.8","","-1.1","","50","","26","","37","","32.2","","99.24","","","","","","Mainly Clear"
"1993-10-21 18:00","1993","10","21","18:00","8.3","","-1.9","","49","","26","","33","","24.1","","99.31","","","","","","Mostly Cloudy"
"1993-10-21 19:00","1993","10","21","19:00","7.8","","-2.0","","50","","26","","41","","25.0","","99.41","","","","","","Cloudy"
"1993-10-21 20:00","1993","10","21","20:00","6.8","","-1.5","","55","","26","","41","","25.0","","99.41","","","","","","Mostly Cloudy"
"1993-10-21 21:00","1993","10","21","21:00","7.1","","-1.5","","54","","26","","33","","25.0","","99.51","","","","","","Mostly Cloudy"
"1993-10-21 22:00","1993","10","21","22:00","6.0","","-1.1","","60","","26","","33","","25.0","","99.57","","","","","","Mainly Clear"
"1993-10-21 23:00","1993","10","21","23:00","5.6","","-1.8","","59","","27","","31","","25.0","","99.64","","","","","","Mainly Clear"
"1993-10-22 00:00","1993","10","22","00:00","5.6","","-1.8","","59","","26","","37","","25.0","","99.67","","","","","","Mainly Clear"
"1993-10-22 01:00","1993","10","22","01:00","6.0","","-1.1","","60","","25","","31","","25.0","","99.74","","","","","","Mostly Cloudy"
"1993-10-22 02:00","1993","10","22","02:00","6.1","","-1.1","","60","","25","","28","","25.0","","99.81","","","","","","Mostly Cloudy"
"1993-10-22 03:00","1993","10","22","03:00","6.2","","-1.1","","59","","26","","22","","25.0","","99.87","","","","","","Mostly Cloudy"
"1993-10-22 04:00","1993","10","22","04:00","5.7","","-1.8","","58","","25","","17","","25.0","","99.97","","","","","","Mostly Cloudy"
"1993-10-22 05:00","1993","10","22","05:00","5.3","","-0.6","","66","","26","","15","","25.0","","100.01","","","","","","Mostly Cloudy"
"1993-10-22 06:00","1993","10","22","06:00","5.8","","-1.1","","61","","26","","17","","25.0","","100.07","","","","","","Mostly Cloudy"
"1993-10-22 07:00","1993","10","22","07:00","5.6","","-0.6","","64","","25","","19","","25.0","","100.11","","","","","","Mostly Cloudy"
"1993-10-22 08:00","1993","10","22","08:00","6.1","","0.0","","65","","25","","19","","25.0","","100.17","","","","","","Cloudy"
"1993-10-22 09:00","1993","10","22","09:00","7.0","","0.2","","62","","26","","22","","25.0","","100.21","","","","","","Cloudy"
"1993-10-22 10:00","1993","10","22","10:00","7.4","","0.8","","63","","28","","20","","25.0","","100.24","","","","","","Cloudy"
"1993-10-22 11:00","1993","10","22","11:00","7.6","","0.8","","62","","28","","24","","25.0","","100.27","","","","","","Cloudy"
"1993-10-22 12:00","1993","10","22","12:00","7.3","","0.3","","61","","29","","22","","25.0","","100.31","","","","","","Mostly Cloudy"
"1993-10-22 13:00","1993","10","22","13:00","8.0","","0.9","","61","","27","","22","","40.2","","100.27","","","","","","Cloudy"
"1993-10-22 14:00","1993","10","22","14:00","8.0","","1.4","","63","","28","","22","","40.2","","100.27","","","","","","Mostly Cloudy"
"1993-10-22 15:00","1993","10","22","15:00","8.2","","1.4","","62","","27","","26","","40.2","","100.27","","","","","","Mostly Cloudy"
"1993-10-22 16:00","1993","10","22","16:00","7.6","","1.3","","64","","32","","22","","40.2","","100.31","","","","","","Mostly Cloudy"
"1993-10-22 17:00","1993","10","22","17:00","7.2","","0.7","","63","","30","","30","","40.2","","100.37","","","","","","Cloudy"
"1993-10-22 18:00","1993","10","22","18:00","6.0","","1.0","","70","","29","","19","","25.0","","100.47","","","","","","Mostly Cloudy"
"1993-10-22 19:00","1993","10","22","19:00","4.7","","0.8","","76","","28","","13","","25.0","","100.51","","","","","","Mainly Clear"
"1993-10-22 20:00","1993","10","22","20:00","4.2","","1.3","","81","","28","","7","","25.0","","100.51","","","","","","Mainly Clear"
"1993-10-22 21:00","1993","10","22","21:00","4.2","","1.3","","81","","26","","15","","25.0","","100.57","","","","","","Mostly Cloudy"
"1993-10-22 22:00","1993","10","22","22:00","3.5","","1.7","","88","","","","0","","25.0","","100.57","","","","","","Mostly Cloudy"
"1993-10-22 23:00","1993","10","22","23:00","3.7","","1.2","","84","","24","","13","","25.0","","100.57","","","","","","Mostly Cloudy"
"1993-10-23 00:00","1993","10","23","00:00","3.3","","1.2","","86","","25","","13","","25.0","","100.57","","","","","","Mainly Clear"
"1993-10-23 01:00","1993","10","23","01:00","2.2","","0.1","","86","","28","","13","","25.0","","100.61","","","","","","Mainly Clear"
"1993-10-23 02:00","1993","10","23","02:00","1.1","","-0.5","","89","","25","","6","","25.0","","100.61","","","","","","Mainly Clear"
"1993-10-23 03:00","1993","10","23","03:00","0.8","","0.0","","95","","27","","13","","25.0","","100.61","","","","","","Mainly Clear"
"1993-10-23 04:00","1993","10","23","04:00","0.8","","-0.5","","91","","26","","7","","25.0","","100.64","","","","","","Mainly Clear"
"1993-10-23 05:00","1993","10","23","05:00","-0.2","","-0.7","","96","","27","","11","","25.0","","100.67","","","","-4","","Mainly Clear"
"1993-10-23 06:00","1993","10","23","06:00","0.4","","-0.5","","94","","","","0","","25.0","","100.71","","","","","","Mainly Clear"
"1993-10-23 07:00","1993","10","23","07:00","-0.3","","-1.6","","91","","27","","7","","25.0","","100.74","","","","-3","","Clear"
"1993-10-23 08:00","1993","10","23","08:00","1.8","","0.1","","89","","","","0","","40.2","","100.77","","","","","","Clear"
"1993-10-23 09:00","1993","10","23","09:00","4.8","","1.4","","79","","26","","7","","40.2","","100.84","","","","","","Mainly Clear"
"1993-10-23 10:00","1993","10","23","10:00","7.6","","0.8","","62","","26","","9","","40.2","","100.81","","","","","","Mainly Clear"
"1993-10-23 11:00","1993","10","23","11:00","9.1","","1.1","","57","","22","","13","","40.2","","100.77","","","","","","Mostly Cloudy"
"1993-10-23 12:00","1993","10","23","12:00","9.4","","1.3","","57","","21","","13","","40.2","","100.67","","","","","","Mostly Cloudy"
"1993-10-23 13:00","1993","10","23","13:00","10.5","","2.6","","58","","18","","13","","40.2","","100.57","","","","","","Mainly Clear"
"1993-10-23 14:00","1993","10","23","14:00","11.1","","3.7","","60","","17","","15","","40.2","","100.44","","","","","","Mainly Clear"
"1993-10-23 15:00","1993","10","23","15:00","12.0","","4.5","","60","","14","","22","","40.2","","100.34","","","","","","Mainly Clear"
"1993-10-23 16:00","1993","10","23","16:00","10.2","","4.4","","67","","14","","15","","40.2","","100.31","","","","","","Clear"
"1993-10-23 17:00","1993","10","23","17:00","8.7","","4.4","","74","","15","","11","","32.2","","100.27","","","","","","Mainly Clear"
"1993-10-23 18:00","1993","10","23","18:00","7.1","","4.5","","83","","15","","7","","25.0","","100.21","","","","","","Mainly Clear"
"1993-10-23 19:00","1993","10","23","19:00","8.4","","4.4","","76","","21","","15","","25.0","","100.17","","","","","","Clear"
"1993-10-23 20:00","1993","10","23","20:00","8.5","","2.0","","64","","21","","15","","25.0","","100.11","","","","","","Mainly Clear"
"1993-10-23 21:00","1993","10","23","21:00","8.2","","1.9","","64","","20","","19","","25.0","","100.07","","","","","","Mainly Clear"
"1993-10-23 22:00","1993","10","23","22:00","8.0","","2.4","","68","","20","","9","","25.0","","100.01","","","","","","Mainly Clear"
"1993-10-23 23:00","1993","10","23","23:00","8.2","","2.4","","67","","19","","15","","25.0","","99.91","","","","","","Clear"
"1993-10-24 00:00","1993","10","24","00:00","7.9","","3.9","","76","","22","","22","","25.0","","99.81","","","","","","Mainly Clear"
"1993-10-24 01:00","1993","10","24","01:00","9.4","","3.8","","68","","23","","19","","24.1","","99.74","","","","","","Mainly Clear"
"1993-10-24 02:00","1993","10","24","02:00","10.3","","3.1","","61","","24","","22","","24.1","","99.64","","","","","","Mainly Clear"
"1993-10-24 03:00","1993","10","24","03:00","10.0","","2.9","","61","","24","","28","","24.1","","99.57","","","","","","Clear"
"1993-10-24 04:00","1993","10","24","04:00","9.6","","2.8","","62","","24","","26","","24.1","","99.51","","","","","","Clear"
"1993-10-24 05:00","1993","10","24","05:00","9.2","","2.7","","64","","24","","22","","24.1","","99.51","","","","","","Clear"
"1993-10-24 06:00","1993","10","24","06:00","9.7","","2.8","","62","","24","","22","","25.0","","99.44","","","","","","Clear"
"1993-10-24 07:00","1993","10","24","07:00","10.5","","3.1","","60","","25","","30","","24.1","","99.44","","","","","","Clear"
"1993-10-24 08:00","1993","10","24","08:00","11.5","","3.3","","57","","25","","31","","24.1","","99.44","","","","","","Clear"
"1993-10-24 09:00","1993","10","24","09:00","13.0","","3.8","","53","","25","","41","","24.1","","99.41","","","","","","Mainly Clear"
"1993-10-24 10:00","1993","10","24","10:00","15.5","","4.7","","49","","26","","37","","24.1","","99.37","","","","","","Mostly Cloudy"
"1993-10-24 11:00","1993","10","24","11:00","15.7","","4.2","","46","","26","","31","","32.2","","99.34","","","","","","Mostly Cloudy"
"1993-10-24 12:00","1993","10","24","12:00","16.5","","5.1","","47","","25","","39","","32.2","","99.27","","","","","","Mostly Cloudy"
"1993-10-24 13:00","1993","10","24","13:00","18.0","","5.7","","44","","26","","30","","32.2","","99.27","","","","","","Mostly Cloudy"
"1993-10-24 14:00","1993","10","24","14:00","18.0","","5.7","","44","","27","","31","","32.2","","99.27","","","","","","Mostly Cloudy"
"1993-10-24 15:00","1993","10","24","15:00","18.5","","6.4","","45","","28","","31","","32.2","","99.31","","","","","","Mostly Cloudy"
"1993-10-24 16:00","1993","10","24","16:00","18.1","","6.7","","47","","28","","31","","32.2","","99.31","","","","","","Mostly Cloudy"
"1993-10-24 17:00","1993","10","24","17:00","16.1","","6.7","","54","","28","","28","","32.2","","99.37","","","","","","Mostly Cloudy"
"1993-10-24 18:00","1993","10","24","18:00","15.4","","6.1","","54","","28","","20","","25.0","","99.51","","","","","","Mostly Cloudy"
"1993-10-24 19:00","1993","10","24","19:00","13.5","","6.8","","64","","31","","11","","25.0","","99.57","","","","","","Mostly Cloudy"
"1993-10-24 20:00","1993","10","24","20:00","13.3","","7.2","","67","","33","","15","","25.0","","99.61","","","","","","Mostly Cloudy"
"1993-10-24 21:00","1993","10","24","21:00","10.7","","6.3","","74","","32","","19","","25.0","","99.64","","","","","","Mainly Clear"
"1993-10-24 22:00","1993","10","24","22:00","10.2","","5.7","","74","","32","","15","","25.0","","99.67","","","","","","Mainly Clear"
"1993-10-24 23:00","1993","10","24","23:00","9.5","","5.1","","74","","36","","22","","25.0","","99.71","","","","","","Mainly Clear"
"1993-10-25 00:00","1993","10","25","00:00","7.6","","4.2","","79","","34","","9","","25.0","","99.74","","","","","","Mainly Clear"
"1993-10-25 01:00","1993","10","25","01:00","6.0","","4.3","","89","","34","","11","","25.0","","99.81","","","","","","Mainly Clear"
"1993-10-25 02:00","1993","10","25","02:00","5.8","","4.3","","90","","34","","9","","25.0","","99.87","","","","","","Mainly Clear"
"1993-10-25 03:00","1993","10","25","03:00","4.4","","3.2","","92","","34","","9","","25.0","","99.94","","","","","","Clear"
"1993-10-25 04:00","1993","10","25","04:00","4.2","","2.7","","90","","35","","15","","25.0","","99.97","","","","","","Clear"
"1993-10-25 05:00","1993","10","25","05:00","4.4","","3.2","","92","","35","","17","","25.0","","100.04","","","","","","Clear"
"1993-10-25 06:00","1993","10","25","06:00","4.0","","2.7","","91","","36","","15","","25.0","","100.11","","","","","","Clear"
"1993-10-25 07:00","1993","10","25","07:00","3.6","","2.2","","91","","2","","11","","24.1","","100.21","","","","","","Clear"
"1993-10-25 08:00","1993","10","25","08:00","6.0","","0.5","","68","","6","","13","","24.1","","100.27","","","","","","Clear"
"1993-10-25 09:00","1993","10","25","09:00","7.3","","0.8","","63","","8","","13","","32.2","","100.31","","","","","","Clear"
"1993-10-25 10:00","1993","10","25","10:00","8.0","","0.4","","59","","8","","17","","32.2","","100.34","","","","","","Clear"
"1993-10-25 11:00","1993","10","25","11:00","9.0","","1.1","","58","","8","","17","","32.2","","100.31","","","","","","Clear"
"1993-10-25 12:00","1993","10","25","12:00","8.6","","1.5","","61","","9","","13","","32.2","","100.27","","","","","","Mainly Clear"
"1993-10-25 13:00","1993","10","25","13:00","8.9","","2.7","","65","","11","","20","","32.2","","100.21","","","","","","Mainly Clear"
"1993-10-25 14:00","1993","10","25","14:00","8.6","","3.0","","68","","10","","19","","32.2","","100.21","","","","","","Mainly Clear"
"1993-10-25 15:00","1993","10","25","15:00","8.5","","2.0","","64","","10","","19","","32.2","","100.21","","","","","","Mostly Cloudy"
"1993-10-25 16:00","1993","10","25","16:00","8.0","","0.4","","59","","10","","20","","32.2","","100.21","","","","","","Mostly Cloudy"
"1993-10-25 17:00","1993","10","25","17:00","7.1","","1.2","","66","","10","","20","","32.2","","100.21","","","","","","Mostly Cloudy"
"1993-10-25 18:00","1993","10","25","18:00","6.7","","4.4","","85","","9","","15","","25.0","","100.21","","","","","","Mainly Clear"
"1993-10-25 19:00","1993","10","25","19:00","6.4","","3.1","","80","","11","","13","","25.0","","100.21","","","","","","Clear"
"1993-10-25 20:00","1993","10","25","20:00","6.8","","2.7","","75","","12","","19","","25.0","","100.21","","","","","","Clear"
"1993-10-25 21:00","1993","10","25","21:00","6.6","","1.6","","70","","11","","15","","25.0","","100.17","","","","","","Clear"
"1993-10-25 22:00","1993","10","25","22:00","7.1","","1.2","","66","","11","","19","","25.0","","100.17","","","","","","Clear"
"1993-10-25 23:00","1993","10","25","23:00","7.2","","1.7","","68","","9","","19","","25.0","","100.11","","","","","","Clear"
"1993-10-26 00:00","1993","10","26","00:00","6.3","","2.6","","77","","9","","13","","25.0","","100.07","","","","","","Clear"
"1993-10-26 01:00","1993","10","26","01:00","6.3","","2.6","","77","","9","","19","","25.0","","100.01","","","","","","Clear"
"1993-10-26 02:00","1993","10","26","02:00","5.0","","2.4","","83","","8","","15","","25.0","","99.97","","","","","","Mainly Clear"
"1993-10-26 03:00","1993","10","26","03:00","4.4","","2.3","","86","","","","0","","25.0","","99.91","","","","","","Mainly Clear"
"1993-10-26 04:00","1993","10","26","04:00","3.8","","1.7","","86","","5","","6","","25.0","","99.81","","","","","","Mainly Clear"
"1993-10-26 05:00","1993","10","26","05:00","1.6","","0.0","","89","","34","","11","","25.0","","99.81","","","","","","Mostly Cloudy"
"1993-10-26 06:00","1993","10","26","06:00","1.4","","0.0","","90","","","","0","","25.0","","99.77","","","","","","Mostly Cloudy"
"1993-10-26 07:00","1993","10","26","07:00","3.7","","1.7","","87","","35","","4","","19.3","","99.77","","","","","","Mostly Cloudy"
"1993-10-26 08:00","1993","10","26","08:00","5.0","","2.8","","86","","","","0","","19.3","","99.77","","","","","","Mostly Cloudy"
"1993-10-26 09:00","1993","10","26","09:00","7.9","","5.6","","86","","","","0","","16.1","","99.74","","","","","","Mostly Cloudy"
"1993-10-26 10:00","1993","10","26","10:00","10.5","","6.7","","77","","11","","9","","19.3","","99.67","","","","","","Mostly Cloudy"
"1993-10-26 11:00","1993","10","26","11:00","12.0","","5.8","","66","","13","","9","","19.3","","99.61","","","","","","Mostly Cloudy"
"1993-10-26 12:00","1993","10","26","12:00","12.6","","6.4","","66","","16","","7","","19.3","","99.54","","","","","","Mostly Cloudy"
"1993-10-26 13:00","1993","10","26","13:00","13.3","","6.3","","63","","15","","9","","19.3","","99.47","","","","","","Mostly Cloudy"
"1993-10-26 14:00","1993","10","26","14:00","13.0","","6.2","","63","","13","","13","","24.1","","99.37","","","","","","Mostly Cloudy"
"1993-10-26 15:00","1993","10","26","15:00","14.5","","5.3","","54","","14","","17","","24.1","","99.34","","","","","","Mostly Cloudy"
"1993-10-26 16:00","1993","10","26","16:00","14.5","","5.3","","54","","13","","17","","24.1","","99.27","","","","","","Mostly Cloudy"
"1993-10-26 17:00","1993","10","26","17:00","13.2","","5.3","","59","","","","0","","24.1","","99.31","","","","","","Mostly Cloudy"
"1993-10-26 18:00","1993","10","26","18:00","13.0","","5.7","","61","","15","","4","","19.3","","99.31","","","","","","Mostly Cloudy"
"1993-10-26 19:00","1993","10","26","19:00","12.8","","5.3","","60","","14","","9","","24.1","","99.27","","","","","","Mostly Cloudy"
"1993-10-26 20:00","1993","10","26","20:00","13.0","","5.3","","59","","15","","7","","25.0","","99.24","","","","","","Mainly Clear"
"1993-10-26 21:00","1993","10","26","21:00","13.0","","4.3","","55","","17","","15","","25.0","","99.24","","","","","","Mainly Clear"
"1993-10-26 22:00","1993","10","26","22:00","13.4","","5.9","","60","","19","","19","","25.0","","99.17","","","","","","Mainly Clear"
"1993-10-26 23:00","1993","10","26","23:00","13.4","","6.8","","64","","19","","15","","25.0","","99.11","","","","","","Mostly Cloudy"
"1993-10-27 00:00","1993","10","27","00:00","13.0","","6.6","","65","","","","0","","25.0","","99.07","","","","","","Mainly Clear"
"1993-10-27 01:00","1993","10","27","01:00","12.0","","6.7","","70","","20","","4","","19.3","","99.07","","","","","","Mostly Cloudy"
"1993-10-27 02:00","1993","10","27","02:00","12.3","","7.3","","72","","17","","9","","19.3","","99.04","","","","","","Mostly Cloudy"
"1993-10-27 03:00","1993","10","27","03:00","8.8","","6.3","","84","","","","0","","19.3","","99.01","","","","","","Mostly Cloudy"
"1993-10-27 04:00","1993","10","27","04:00","8.8","","7.5","","92","","36","","22","","11.3","","99.01","","","","","","Mostly Cloudy"
"1993-10-27 05:00","1993","10","27","05:00","9.0","","7.1","","88","","35","","15","","19.3","","99.04","","","","","","Cloudy"
"1993-10-27 06:00","1993","10","27","06:00","9.0","","7.1","","88","","35","","9","","19.3","","99.04","","","","","","Cloudy"
"1993-10-27 07:00","1993","10","27","07:00","8.4","","6.6","","89","","33","","11","","19.3","","99.07","","","","","","Mostly Cloudy"
"1993-10-27 08:00","1993","10","27","08:00","8.8","","6.3","","84","","33","","9","","19.3","","99.07","","","","","","Mostly Cloudy"
"1993-10-27 09:00","1993","10","27","09:00","10.1","","5.7","","74","","33","","15","","32.2","","99.04","","","","","","Mostly Cloudy"
"1993-10-27 10:00","1993","10","27","10:00","9.7","","5.1","","73","","33","","20","","32.2","","99.04","","","","","","Cloudy"
"1993-10-27 11:00","1993","10","27","11:00","10.5","","4.5","","66","","32","","19","","32.2","","99.01","","","","","","Mostly Cloudy"
"1993-10-27 12:00","1993","10","27","12:00","10.5","","4.5","","66","","30","","19","","32.2","","98.94","","","","","","Cloudy"
"1993-10-27 13:00","1993","10","27","13:00","10.1","","4.8","","69","","34","","15","","32.2","","98.87","","","","","","Cloudy"
"1993-10-27 14:00","1993","10","27","14:00","9.6","","3.3","","65","","31","","17","","40.2","","98.81","","","","","","Cloudy"
"1993-10-27 15:00","1993","10","27","15:00","9.0","","3.6","","69","","33","","19","","40.2","","98.81","","","","","","Cloudy"
"1993-10-27 16:00","1993","10","27","16:00","8.0","","2.4","","68","","33","","11","","40.2","","98.81","","","","","","Cloudy"
"1993-10-27 17:00","1993","10","27","17:00","7.6","","3.3","","74","","32","","6","","40.2","","98.77","","","","","","Rain Showers"
"1993-10-27 18:00","1993","10","27","18:00","7.6","","-0.3","","57","","31","","17","","25.0","","98.81","","","","","","Cloudy"
"1993-10-27 19:00","1993","10","27","19:00","7.4","","-0.3","","58","","32","","11","","25.0","","98.81","","","","","","Mostly Cloudy"
"1993-10-27 20:00","1993","10","27","20:00","6.6","","0.6","","65","","31","","11","","25.0","","98.84","","","","","","Mostly Cloudy"
"1993-10-27 21:00","1993","10","27","21:00","5.9","","1.0","","71","","30","","9","","25.0","","98.81","","","","","","Cloudy"
"1993-10-27 22:00","1993","10","27","22:00","5.8","","1.0","","71","","31","","9","","25.0","","98.77","","","","","","Mostly Cloudy"
"1993-10-27 23:00","1993","10","27","23:00","5.3","","1.5","","77","","29","","6","","25.0","","98.71","","","","","","Cloudy"
"1993-10-28 00:00","1993","10","28","00:00","5.0","","1.4","","77","","27","","7","","25.0","","98.67","","","","","","Mostly Cloudy"
"1993-10-28 01:00","1993","10","28","01:00","4.5","","1.3","","80","","27","","6","","25.0","","98.64","","","","","","Mostly Cloudy"
"1993-10-28 02:00","1993","10","28","02:00","4.1","","1.3","","82","","27","","9","","25.0","","98.61","","","","","","Mostly Cloudy"
"1993-10-28 03:00","1993","10","28","03:00","3.5","","1.2","","85","","28","","11","","25.0","","98.54","","","","","","Mostly Cloudy"
"1993-10-28 04:00","1993","10","28","04:00","3.5","","1.2","","85","","25","","11","","25.0","","98.54","","","","","","Mostly Cloudy"
"1993-10-28 05:00","1993","10","28","05:00","2.6","","0.6","","87","","25","","7","","25.0","","98.54","","","","","","Mostly Cloudy"
"1993-10-28 06:00","1993","10","28","06:00","2.6","","0.6","","87","","24","","11","","25.0","","98.57","","","","","","Mostly Cloudy"
"1993-10-28 07:00","1993","10","28","07:00","2.2","","0.1","","86","","23","","13","","24.1","","98.61","","","","","","Mostly Cloudy"
"1993-10-28 08:00","1993","10","28","08:00","3.2","","0.7","","84","","22","","15","","24.1","","98.61","","","","","","Mostly Cloudy"
"1993-10-28 09:00","1993","10","28","09:00","3.8","","1.3","","84","","23","","15","","24.1","","98.57","","","","","","Mostly Cloudy"
"1993-10-28 10:00","1993","10","28","10:00","5.4","","0.4","","70","","22","","19","","24.1","","98.54","","","","","","Mostly Cloudy"
"1993-10-28 11:00","1993","10","28","11:00","6.3","","-2.2","","54","","24","","24","","40.2","","98.47","","","","","","Mostly Cloudy"
"1993-10-28 12:00","1993","10","28","12:00","7.8","","-2.0","","50","","23","","28","","40.2","","98.41","","","","","","Mostly Cloudy"
"1993-10-28 13:00","1993","10","28","13:00","8.8","","-2.0","","47","","24","","26","","32.2","","98.31","","","","","","Mostly Cloudy"
"1993-10-28 14:00","1993","10","28","14:00","8.8","","-1.8","","47","","22","","30","","24.1","","98.24","","","","","","Mostly Cloudy"
"1993-10-28 15:00","1993","10","28","15:00","7.8","","-0.8","","55","","22","","30","","19.3","","98.17","","","","","","Cloudy"
"1993-10-28 16:00","1993","10","28","16:00","7.4","","-0.9","","56","","22","","24","","19.3","","98.21","","","","","","Mostly Cloudy"
"1993-10-28 17:00","1993","10","28","17:00","7.3","","0.3","","61","","20","","30","","16.1","","98.17","","","","","","Mostly Cloudy"
"1993-10-28 18:00","1993","10","28","18:00","7.4","","-0.3","","58","","20","","15","","19.3","","98.11","","","","","","Mostly Cloudy"
"1993-10-28 19:00","1993","10","28","19:00","7.8","","-0.8","","55","","19","","20","","19.3","","98.07","","","","","","Cloudy"
"1993-10-28 20:00","1993","10","28","20:00","8.2","","-0.8","","53","","19","","22","","19.3","","98.04","","","","","","Cloudy"
"1993-10-28 21:00","1993","10","28","21:00","8.1","","-0.2","","56","","20","","22","","19.3","","98.07","","","","","","Cloudy"
"1993-10-28 22:00","1993","10","28","22:00","8.0","","-0.8","","54","","20","","26","","19.3","","98.07","","","","","","Cloudy"
"1993-10-28 23:00","1993","10","28","23:00","8.2","","-0.8","","53","","20","","22","","19.3","","98.01","","","","","","Cloudy"
"1993-10-29 00:00","1993","10","29","00:00","8.4","","0.5","","58","","21","","22","","19.3","","98.01","","","","","","Cloudy"
"1993-10-29 01:00","1993","10","29","01:00","8.2","","0.9","","60","","21","","15","","12.9","","98.04","","","","","","Rain Showers"
"1993-10-29 02:00","1993","10","29","02:00","9.0","","1.7","","60","","21","","15","","12.9","","98.01","","","","","","Cloudy"
"1993-10-29 03:00","1993","10","29","03:00","8.9","","2.7","","65","","19","","17","","12.9","","97.97","","","","","","Cloudy"
"1993-10-29 04:00","1993","10","29","04:00","8.5","","2.5","","66","","19","","13","","12.9","","97.94","","","","","","Mostly Cloudy"
"1993-10-29 05:00","1993","10","29","05:00","8.2","","2.4","","67","","20","","11","","19.3","","97.97","","","","","","Cloudy"
"1993-10-29 06:00","1993","10","29","06:00","8.5","","3.0","","68","","22","","20","","16.1","","98.01","","","","","","Mostly Cloudy"
"1993-10-29 07:00","1993","10","29","07:00","7.9","","3.3","","73","","22","","28","","12.9","","98.01","","","","","","Mostly Cloudy"
"1993-10-29 08:00","1993","10","29","08:00","8.0","","1.9","","65","","23","","22","","12.9","","98.04","","","","","","Mostly Cloudy"
"1993-10-29 09:00","1993","10","29","09:00","8.9","","1.1","","58","","23","","22","","19.3","","98.11","","","","","","Mostly Cloudy"
"1993-10-29 10:00","1993","10","29","10:00","10.0","","1.4","","55","","23","","24","","19.3","","98.14","","","","","","Mostly Cloudy"
"1993-10-29 11:00","1993","10","29","11:00","9.0","","1.4","","59","","26","","33","","24.1","","98.21","","","","","","Mostly Cloudy"
"1993-10-29 12:00","1993","10","29","12:00","8.3","","-1.3","","51","","28","","33","","24.1","","98.21","","","","","","Mostly Cloudy"
"1993-10-29 13:00","1993","10","29","13:00","8.5","","-1.9","","48","","27","","24","","24.1","","98.27","","","","","","Mostly Cloudy"
"1993-10-29 14:00","1993","10","29","14:00","7.8","","-2.0","","50","","29","","33","","24.1","","98.31","","","","","","Mostly Cloudy"
"1993-10-29 15:00","1993","10","29","15:00","7.3","","-2.1","","51","","27","","20","","24.1","","98.41","","","","","","Mostly Cloudy"
"1993-10-29 16:00","1993","10","29","16:00","6.6","","-2.2","","53","","26","","26","","19.3","","98.57","","","","","","Mostly Cloudy"
"1993-10-29 17:00","1993","10","29","17:00","6.1","","-4.3","","47","","25","","24","","19.3","","98.64","","","","","","Mostly Cloudy"
"1993-10-29 18:00","1993","10","29","18:00","5.5","","-3.0","","54","","28","","22","","25.0","","98.77","","","","","","Cloudy"
"1993-10-29 19:00","1993","10","29","19:00","5.2","","-3.1","","55","","26","","22","","25.0","","98.84","","","","","","Mostly Cloudy"
"1993-10-29 20:00","1993","10","29","20:00","4.5","","-3.1","","58","","27","","24","","25.0","","98.91","","","","","","Mostly Cloudy"
"1993-10-29 21:00","1993","10","29","21:00","3.8","","-3.8","","58","","27","","24","","25.0","","98.97","","","","","","Cloudy"
"1993-10-29 22:00","1993","10","29","22:00","3.3","","-4.5","","57","","27","","20","","25.0","","99.04","","","","","","Mostly Cloudy"
"1993-10-29 23:00","1993","10","29","23:00","2.5","","-4.6","","59","","26","","19","","25.0","","99.07","","","","","","Mostly Cloudy"
"1993-10-30 00:00","1993","10","30","00:00","1.2","","-4.8","","64","","25","","11","","25.0","","99.07","","","","","","Mainly Clear"
"1993-10-30 01:00","1993","10","30","01:00","0.5","","-4.9","","67","","25","","11","","25.0","","99.11","","","","","","Mainly Clear"
"1993-10-30 02:00","1993","10","30","02:00","4.5","","-3.1","","58","","27","","24","","25.0","","98.91","","","","","","Mostly Cloudy"
"1993-10-30 03:00","1993","10","30","03:00","0.2","","-4.4","","71","","17","","7","","25.0","","99.21","","","","","","Mainly Clear"
"1993-10-30 04:00","1993","10","30","04:00","0.0","","-4.3","","73","","","","0","","25.0","","99.17","","","","","","Clear"
"1993-10-30 05:00","1993","10","30","05:00","-0.7","","-3.2","","83","","18","","13","","25.0","","99.21","","","","-5","","Clear"
"1993-10-30 06:00","1993","10","30","06:00","-0.2","","-3.4","","79","","21","","13","","25.0","","99.21","","","","-4","","Mainly Clear"
"1993-10-30 07:00","1993","10","30","07:00","-0.2","","-3.7","","77","","22","","11","","24.1","","99.21","","","","-4","","Mostly Cloudy"
"1993-10-30 08:00","1993","10","30","08:00","0.3","","-1.9","","85","","","","0","","24.1","","99.21","","","","","","Mostly Cloudy"
"1993-10-30 09:00","1993","10","30","09:00","2.2","","-2.1","","73","","27","","6","","24.1","","99.21","","","","","","Mostly Cloudy"
"1993-10-30 10:00","1993","10","30","10:00","3.5","","-0.9","","73","","","","0","","24.1","","99.17","","","","","","Mostly Cloudy"
"1993-10-30 11:00","1993","10","30","11:00","4.8","","-1.3","","65","","","","0","","24.1","","99.11","","","","","","Mostly Cloudy"
"1993-10-30 12:00","1993","10","30","12:00","6.3","","-1.0","","60","","","","0","","24.1","","99.07","","","","","","Mostly Cloudy"
"1993-10-30 13:00","1993","10","30","13:00","6.2","","-2.9","","52","","","","0","","24.1","","99.07","","","","","","Cloudy"
"1993-10-30 14:00","1993","10","30","14:00","5.8","","-2.9","","54","","","","0","","24.1","","99.01","","","","","","Mostly Cloudy"
"1993-10-30 15:00","1993","10","30","15:00","5.8","","-2.9","","54","","","","0","","24.1","","98.97","","","","","","Cloudy"
"1993-10-30 16:00","1993","10","30","16:00","5.7","","-3.0","","53","","8","","7","","24.1","","98.91","","","","","","Cloudy"
"1993-10-30 17:00","1993","10","30","17:00","4.8","","-1.3","","65","","14","","9","","24.1","","98.94","","","","","","Cloudy"
"1993-10-30 18:00","1993","10","30","18:00","4.8","","-1.3","","65","","","","0","","25.0","","98.97","","","","","","Cloudy"
"1993-10-30 19:00","1993","10","30","19:00","5.0","","-2.4","","59","","","","0","","25.0","","98.97","","","","","","Cloudy"
"1993-10-30 20:00","1993","10","30","20:00","4.6","","-1.9","","63","","36","","7","","25.0","","98.91","","","","","","Cloudy"
"1993-10-30 21:00","1993","10","30","21:00","4.9","","-1.8","","62","","36","","15","","25.0","","98.91","","","","","","Cloudy"
"1993-10-30 22:00","1993","10","30","22:00","4.1","","-1.4","","67","","6","","19","","19.3","","98.91","","","","","","Rain"
"1993-10-30 23:00","1993","10","30","23:00","2.5","","1.1","","91","","4","","11","","11.3","","98.94","","","","","","Rain"
"1993-10-31 00:00","1993","10","31","00:00","2.2","","1.1","","92","","1","","9","","11.3","","98.94","","","","","","Rain"
"1993-10-31 01:00","1993","10","31","01:00","2.0","","1.1","","94","","1","","11","","11.3","","98.87","","","","","","Rain"
"1993-10-31 02:00","1993","10","31","02:00","1.9","","1.1","","95","","3","","17","","12.9","","98.87","","","","","","Rain"
"1993-10-31 03:00","1993","10","31","03:00","1.7","","0.5","","92","","3","","20","","12.9","","98.87","","","","","","Rain"
"1993-10-31 04:00","1993","10","31","04:00","1.6","","0.5","","92","","4","","19","","24.1","","98.91","","","","","","Rain"
"1993-10-31 05:00","1993","10","31","05:00","1.6","","0.0","","89","","1","","17","","24.1","","98.94","","","","","","Rain"
"1993-10-31 06:00","1993","10","31","06:00","1.2","","-0.5","","88","","3","","20","","6.4","","98.87","","","","","","Snow"
"1993-10-31 07:00","1993","10","31","07:00","1.0","","0.0","","93","","2","","22","","9.7","","98.94","","","","","","Snow"
"1993-10-31 08:00","1993","10","31","08:00","1.2","","-0.5","","88","","4","","22","","24.1","","98.91","","","","","","Mostly Cloudy"
"1993-10-31 09:00","1993","10","31","09:00","2.2","","1.5","","95","","4","","19","","24.1","","98.91","","","","","","Cloudy"
"1993-10-31 10:00","1993","10","31","10:00","1.9","","0.1","","88","","2","","24","","24.1","","98.91","","","","","","Rain"
"1993-10-31 11:00","1993","10","31","11:00","2.2","","-0.4","","83","","3","","20","","24.1","","98.91","","","","","","Cloudy"
"1993-10-31 12:00","1993","10","31","12:00","2.8","","0.2","","83","","2","","17","","24.1","","98.87","","","","","","Cloudy"
"1993-10-31 13:00","1993","10","31","13:00","2.3","","0.6","","89","","1","","20","","6.4","","98.81","","","","","","Rain,Snow"
"1993-10-31 14:00","1993","10","31","14:00","2.5","","0.1","","84","","1","","15","","12.9","","98.77","","","","","","Rain,Snow"
"1993-10-31 15:00","1993","10","31","15:00","2.3","","1.1","","92","","1","","22","","9.7","","98.77","","","","","","Rain,Snow"
"1993-10-31 16:00","1993","10","31","16:00","2.3","","0.1","","86","","2","","17","","12.9","","98.77","","","","","","Rain,Snow"
"1993-10-31 17:00","1993","10","31","17:00","2.4","","-0.4","","82","","2","","15","","24.1","","98.77","","","","","","Snow"
"1993-10-31 18:00","1993","10","31","18:00","2.2","","-1.0","","79","","35","","20","","24.1","","98.81","","","","","","Snow"
"1993-10-31 19:00","1993","10","31","19:00","1.7","","-1.5","","79","","35","","20","","25.0","","98.87","","","","","","Snow"
"1993-10-31 20:00","1993","10","31","20:00","1.2","","-1.9","","80","","36","","15","","25.0","","98.91","","","","","","Cloudy"
"1993-10-31 21:00","1993","10","31","21:00","1.0","","-1.9","","81","","36","","22","","25.0","","98.94","","","","","","Cloudy"
"1993-10-31 22:00","1993","10","31","22:00","0.5","","-2.0","","83","","36","","19","","25.0","","98.91","","","","","","Cloudy"
"1993-10-31 23:00","1993","10","31","23:00","0.4","","-3.2","","77","","34","","22","","25.0","","98.87","","","","","","Cloudy"
