"Station Name","TORONTO LESTER B. PEARSON INT'L A"
"Province","ONTARIO"
"Latitude","43.68"
"Longitude","-79.63"
"Elevation","173.40"
"Climate Identifier","6158733"
"WMO Identifier","71624"
"TC Identifier","YYZ"
"All times are specified in Local Standard Time (LST). Add 1 hour to adjust for Daylight Saving Time where and when it is observed."

"Legend"
"E","Estimated"
"M","Missing"
"NA","Not Available"

"Date/Time","Year","Month","Day","Time","Temp (°C)","Temp Flag","Dew Point Temp (°C)","Dew Point Temp Flag","Rel Hum (%)","Rel Hum Flag","Wind Dir (10s deg)","Wind Dir Flag","Wind Spd (km/h)","Wind Spd Flag","Visibility (km)","Visibility Flag","Stn Press (kPa)","Stn Press Flag","Hmdx","Hmdx Flag","Wind Chill","Wind Chill Flag","Weather"
"1957-02-01 00:00","1957","02","01","00:00","-7.8","","-9.4","","88","","32","","8","","24.1","","99.89","","","","-12","","Mostly Cloudy"
"1957-02-01 01:00","1957","02","01","01:00","-8.3","","-11.1","","80","","32","","6","","24.1","","99.91","","","","-12","","Mainly Clear"
"1957-02-01 02:00","1957","02","01","02:00","-11.1","","-13.9","","80","","32","","6","","24.1","","99.94","","","","-15","","Clear"
"1957-02-01 03:00","1957","02","01","03:00","-12.8","","-15.0","","84","","32","","5","","24.1","","100.02","","","","-16","","Clear"
"1957-02-01 04:00","1957","02","01","04:00","-11.1","","-12.8","","87","","32","","5","","24.1","","100.05","","","","-14","","Mainly Clear"
"1957-02-01 05:00","1957","02","01","05:00","-13.9","","-16.1","","83","","32","","5","","16.1","","100.01","","","","-17","","Mainly Clear"
"1957-02-01 06:00","1957","02","01","06:00","-11.7","","-13.3","","87","","32","","5","","16.1","","100.05","","","","-15","","Mostly Cloudy"
"1957-02-01 07:00","1957","02","01","07:00","-10.6","","-12.2","","87","","32","","6","","24.1","","100.10","","","","-14","","Mostly Cloudy"
"1957-02-01 08:00","1957","02","01","08:00","-9.4","","-12.2","","80","","32","","6","","24.1","","100.22","","","","-13","","Mostly Cloudy"
"1957-02-01 09:00","1957","02","01","09:00","-7.2","","-11.7","","71","","","","0","","9.7","","99.97","","","","","","Haze"
"1957-02-01 10:00","1957","02","01","10:00","-6.1","","-8.9","","81","","","","0","","3.2","","100.10","","","","","","Snow Showers,Haze"
"1957-02-01 11:00","1957","02","01","11:00","-5.0","","-6.7","","88","","","","0","","6.4","","100.10","","","","","","Haze"
"1957-02-01 12:00","1957","02","01","12:00","-4.4","","-6.7","","84","","5","","13","","6.4","","100.04","","","","-9","","Snow Showers,Haze"
"1957-02-01 13:00","1957","02","01","13:00","-3.9","","-6.1","","85","","2","","8","","6.4","","99.91","","","","-7","","Snow Showers,Haze"
"1957-02-01 14:00","1957","02","01","14:00","-3.9","","-6.1","","85","","5","","13","","8.0","","99.88","","","","-9","","Snow Showers,Haze"
"1957-02-01 15:00","1957","02","01","15:00","-3.9","","-5.6","","88","","5","","10","","1.6","","99.90","","","","-8","","Snow Showers,Haze"
"1957-02-01 16:00","1957","02","01","16:00","-4.4","","-5.6","","92","","9","","11","","3.2","","99.90","","","","-9","","Snow Showers,Haze"
"1957-02-01 17:00","1957","02","01","17:00","-4.4","","-6.1","","88","","9","","10","","3.6","","99.92","","","","-9","","Snow Showers,Haze"
"1957-02-01 18:00","1957","02","01","18:00","-5.0","","-6.1","","92","","9","","10","","6.4","","99.97","","","","-9","","Snow Showers"
"1957-02-01 19:00","1957","02","01","19:00","-5.6","","-6.7","","92","","9","","8","","9.7","","100.00","","","","-9","","Snow Showers"
"1957-02-01 20:00","1957","02","01","20:00","-5.6","","-6.7","","92","","9","","8","","4.8","","100.00","","","","-9","","Snow"
"1957-02-01 21:00","1957","02","01","21:00","-6.1","","-7.2","","92","","9","","10","","9.7","","100.04","","","","-11","","Snow"
"1957-02-01 22:00","1957","02","01","22:00","-6.7","","-7.8","","92","","9","","11","","6.4","","100.06","","","","-12","","Snow"
"1957-02-01 23:00","1957","02","01","23:00","-6.1","","-7.2","","92","","2","","13","","8.0","","100.14","","","","-11","","Snow"
"1957-02-02 00:00","1957","02","02","00:00","-6.7","","-7.8","","92","","2","","16","","4.0","","100.16","","","","-13","","Snow"
"1957-02-02 01:00","1957","02","02","01:00","-8.9","","-11.1","","84","","2","","14","","16.1","","100.16","","","","-15","","Mainly Clear"
"1957-02-02 02:00","1957","02","02","02:00","-11.7","","-13.3","","87","","36","","10","","19.3","","100.22","","","","-17","","Mostly Cloudy"
"1957-02-02 03:00","1957","02","02","03:00","-10.0","","-11.7","","88","","32","","6","","19.3","","100.29","","","","-14","","Snow"
"1957-02-02 04:00","1957","02","02","04:00","-11.7","","-13.3","","87","","","","0","","19.3","","100.29","","","","","","Mainly Clear"
"1957-02-02 05:00","1957","02","02","05:00","-12.8","","-14.4","","87","","32","","5","","16.1","","100.39","","","","-16","","Mostly Cloudy"
"1957-02-02 06:00","1957","02","02","06:00","-12.2","","-13.9","","87","","32","","5","","19.3","","100.42","","","","-15","","Mostly Cloudy"
"1957-02-02 07:00","1957","02","02","07:00","-11.7","","-13.3","","87","","23","","14","","11.3","","100.42","","","","-19","","Mainly Clear"
"1957-02-02 08:00","1957","02","02","08:00","-12.2","","-13.9","","87","","23","","16","","4.8","","100.49","","","","-20","","Smoke,Haze"
"1957-02-02 09:00","1957","02","02","09:00","-7.8","","-8.9","","92","","27","","21","","8.0","","100.55","","","","-15","","Fog"
"1957-02-02 10:00","1957","02","02","10:00","-6.1","","-8.3","","84","","27","","19","","11.3","","100.53","","","","-13","","Mainly Clear"
"1957-02-02 11:00","1957","02","02","11:00","-5.6","","-8.3","","81","","27","","19","","12.9","","100.54","","","","-12","","Mainly Clear"
"1957-02-02 12:00","1957","02","02","12:00","-4.4","","-7.2","","81","","27","","21","","12.9","","100.54","","","","-11","","Clear"
"1957-02-02 13:00","1957","02","02","13:00","-3.9","","-6.7","","81","","27","","26","","12.9","","100.51","","","","-11","","Mainly Clear"
"1957-02-02 14:00","1957","02","02","14:00","-2.8","","-6.1","","78","","25","","19","","12.9","","100.41","","","","-9","","Mainly Clear"
"1957-02-02 15:00","1957","02","02","15:00","-2.8","","-5.6","","81","","25","","23","","11.3","","100.43","","","","-9","","Mainly Clear"
"1957-02-02 16:00","1957","02","02","16:00","-3.9","","-7.2","","78","","25","","21","","4.8","","100.49","","","","-10","","Haze"
"1957-02-02 17:00","1957","02","02","17:00","-3.9","","-6.7","","81","","25","","23","","6.4","","100.45","","","","-11","","Haze"
"1957-02-02 18:00","1957","02","02","18:00","-3.9","","-7.2","","78","","25","","8","","11.3","","100.40","","","","-7","","Cloudy"
"1957-02-02 19:00","1957","02","02","19:00","-3.3","","-6.7","","78","","20","","13","","16.1","","100.27","","","","-8","","Cloudy"
"1957-02-02 20:00","1957","02","02","20:00","-3.3","","-6.7","","78","","23","","13","","16.1","","100.24","","","","-8","","Mostly Cloudy"
"1957-02-02 21:00","1957","02","02","21:00","-4.4","","-7.8","","78","","23","","10","","16.1","","100.17","","","","-9","","Clear"
"1957-02-02 22:00","1957","02","02","22:00","-5.6","","-7.8","","88","","20","","8","","6.4","","100.07","","","","-9","","Haze"
"1957-02-02 23:00","1957","02","02","23:00","-6.7","","-8.3","","88","","","","0","","6.4","","100.02","","","","","","Haze"
"1957-02-03 00:00","1957","02","03","00:00","-4.4","","-6.1","","88","","18","","14","","8.0","","99.90","","","","-10","","Smoke,Haze"
"1957-02-03 01:00","1957","02","03","01:00","-3.3","","-5.6","","85","","18","","14","","9.7","","99.80","","","","-8","","Smoke,Haze"
"1957-02-03 02:00","1957","02","03","02:00","-3.9","","-5.6","","88","","18","","13","","9.7","","99.72","","","","-9","","Smoke,Haze"
"1957-02-03 03:00","1957","02","03","03:00","-4.4","","-6.1","","88","","18","","8","","8.0","","99.56","","","","-8","","Fog"
"1957-02-03 04:00","1957","02","03","04:00","-5.0","","-6.1","","92","","18","","11","","11.3","","99.42","","","","-10","","Cloudy"
"1957-02-03 05:00","1957","02","03","05:00","-6.7","","-7.8","","92","","18","","3","","3.2","","99.33","","","","-8","","Fog"
"1957-02-03 06:00","1957","02","03","06:00","-7.2","","-8.3","","92","","18","","2","","2.0","","99.23","","","","-8","","Fog"
"1957-02-03 07:00","1957","02","03","07:00","-7.8","","-8.3","","96","","23","","5","","1.2","","99.15","","","","-10","","Fog"
"1957-02-03 08:00","1957","02","03","08:00","-7.8","","-8.3","","96","","20","","3","","1.2","","99.05","","","","-9","","Fog"
"1957-02-03 09:00","1957","02","03","09:00","-7.2","","-8.3","","92","","23","","3","","1.6","","98.94","","","","-9","","Fog"
"1957-02-03 10:00","1957","02","03","10:00","-5.0","","-6.1","","92","","","","0","","1.6","","98.84","","","","","","Fog"
"1957-02-03 11:00","1957","02","03","11:00","-2.8","","-4.4","","88","","","","0","","2.4","","98.85","","","","","","Fog"
"1957-02-03 12:00","1957","02","03","12:00","-0.6","","-3.9","","78","","","","0","","2.4","","98.75","","","","","","Haze"
"1957-02-03 13:00","1957","02","03","13:00","0.6","","-2.8","","78","","","","0","","2.4","","98.66","","","","","","Haze"
"1957-02-03 14:00","1957","02","03","14:00","1.1","","-2.2","","78","","","","0","","3.2","","98.56","","","","","","Haze"
"1957-02-03 15:00","1957","02","03","15:00","2.8","","-1.1","","75","","23","","5","","3.2","","98.63","","","","","","Haze"
"1957-02-03 16:00","1957","02","03","16:00","1.7","","-1.7","","78","","27","","8","","3.2","","98.71","","","","","","Haze"
"1957-02-03 17:00","1957","02","03","17:00","1.1","","-1.7","","82","","27","","10","","3.2","","98.75","","","","","","Haze"
"1957-02-03 18:00","1957","02","03","18:00","1.1","","-1.1","","85","","27","","10","","4.0","","98.87","","","","","","Fog"
"1957-02-03 19:00","1957","02","03","19:00","0.6","","-1.7","","85","","27","","8","","6.4","","98.87","","","","","","Fog"
"1957-02-03 20:00","1957","02","03","20:00","1.1","","-1.1","","85","","27","","5","","6.4","","98.90","","","","","","Fog"
"1957-02-03 21:00","1957","02","03","21:00","-0.6","","-2.2","","88","","27","","5","","6.4","","98.97","","","","-2","","Fog"
"1957-02-03 22:00","1957","02","03","22:00","-0.6","","-2.2","","88","","27","","10","","6.4","","99.00","","","","-4","","Fog"
"1957-02-03 23:00","1957","02","03","23:00","-0.6","","-2.2","","88","","27","","10","","6.4","","99.07","","","","-4","","Fog"
"1957-02-04 00:00","1957","02","04","00:00","0.0","","-2.2","","85","","32","","13","","16.1","","99.10","","","","-4","","Cloudy"
"1957-02-04 01:00","1957","02","04","01:00","0.0","","-2.2","","85","","32","","10","","12.9","","99.10","","","","-3","","Cloudy"
"1957-02-04 02:00","1957","02","04","02:00","0.0","","-2.2","","85","","34","","10","","12.9","","99.14","","","","-3","","Cloudy"
"1957-02-04 03:00","1957","02","04","03:00","-0.6","","-2.2","","88","","","","0","","12.9","","99.15","","","","","","Cloudy"
"1957-02-04 04:00","1957","02","04","04:00","-0.6","","-3.3","","81","","32","","13","","12.9","","99.16","","","","-5","","Cloudy"
"1957-02-04 05:00","1957","02","04","05:00","0.0","","-2.2","","85","","32","","16","","12.9","","99.24","","","","-5","","Cloudy"
"1957-02-04 06:00","1957","02","04","06:00","-0.6","","-3.3","","81","","29","","21","","12.9","","99.32","","","","-6","","Cloudy"
"1957-02-04 07:00","1957","02","04","07:00","-0.6","","-2.2","","88","","29","","10","","12.9","","99.34","","","","-4","","Cloudy"
"1957-02-04 08:00","1957","02","04","08:00","-0.6","","-2.2","","88","","29","","13","","14.5","","99.46","","","","-5","","Cloudy"
"1957-02-04 09:00","1957","02","04","09:00","0.0","","-1.1","","92","","27","","13","","12.9","","99.52","","","","-4","","Cloudy"
"1957-02-04 10:00","1957","02","04","10:00","0.0","","-1.1","","92","","29","","19","","16.1","","99.61","","","","-5","","Cloudy"
"1957-02-04 11:00","1957","02","04","11:00","-0.6","","-2.2","","88","","29","","32","","19.3","","99.75","","","","-7","","Mostly Cloudy"
"1957-02-04 12:00","1957","02","04","12:00","-1.1","","-3.9","","81","","29","","29","","32.2","","99.78","","","","-8","","Mainly Clear"
"1957-02-04 13:00","1957","02","04","13:00","-1.7","","-3.9","","85","","29","","39","","32.2","","99.80","","","","-10","","Mainly Clear"
"1957-02-04 14:00","1957","02","04","14:00","-1.7","","-4.4","","81","","29","","35","","32.2","","99.86","","","","-9","","Mainly Clear"
"1957-02-04 15:00","1957","02","04","15:00","-2.2","","-5.0","","81","","29","","40","","32.2","","100.06","","","","-10","","Mainly Clear"
"1957-02-04 16:00","1957","02","04","16:00","-2.8","","-3.9","","92","","32","","35","","19.3","","100.20","","","","-11","","Mainly Clear"
"1957-02-04 17:00","1957","02","04","17:00","-3.9","","-5.0","","92","","32","","19","","19.3","","100.37","","","","-10","","Mainly Clear"
"1957-02-04 18:00","1957","02","04","18:00","-3.3","","-6.1","","81","","29","","16","","24.1","","100.49","","","","-9","","Mostly Cloudy"
"1957-02-04 19:00","1957","02","04","19:00","-4.4","","-7.2","","81","","29","","16","","24.1","","100.57","","","","-10","","Mainly Clear"
"1957-02-04 20:00","1957","02","04","20:00","-6.1","","-8.9","","81","","32","","14","","24.1","","100.61","","","","-12","","Clear"
"1957-02-04 21:00","1957","02","04","21:00","-8.3","","-11.1","","80","","29","","13","","25.0","","100.70","","","","-14","","Clear"
"1957-02-04 22:00","1957","02","04","22:00","-7.8","","-9.4","","88","","29","","10","","25.0","","100.72","","","","-13","","Clear"
"1957-02-04 23:00","1957","02","04","23:00","-10.0","","-12.2","","84","","29","","5","","25.0","","100.78","","","","-13","","Clear"
"1957-02-05 00:00","1957","02","05","00:00","-10.0","","-12.2","","84","","25","","8","","25.0","","100.82","","","","-14","","Clear"
"1957-02-05 01:00","1957","02","05","01:00","-11.1","","-13.3","","84","","25","","3","","25.0","","100.81","","","","-13","","Clear"
"1957-02-05 02:00","1957","02","05","02:00","-11.7","","-13.3","","87","","","","0","","25.0","","100.90","","","","","","Clear"
"1957-02-05 03:00","1957","02","05","03:00","-11.7","","-13.3","","87","","25","","5","","25.0","","100.94","","","","-15","","Clear"
"1957-02-05 04:00","1957","02","05","04:00","-14.4","","-16.7","","83","","25","","5","","25.0","","100.97","","","","-18","","Clear"
"1957-02-05 05:00","1957","02","05","05:00","-13.9","","-15.6","","87","","25","","5","","25.0","","101.04","","","","-17","","Clear"
"1957-02-05 06:00","1957","02","05","06:00","-12.8","","-14.4","","87","","25","","6","","25.0","","101.07","","","","-17","","Clear"
"1957-02-05 07:00","1957","02","05","07:00","-12.2","","-15.0","","80","","25","","5","","19.3","","101.05","","","","-15","","Mainly Clear"
"1957-02-05 08:00","1957","02","05","08:00","-11.1","","-12.8","","87","","","","0","","12.9","","101.15","","","","","","Mainly Clear"
"1957-02-05 09:00","1957","02","05","09:00","-11.7","","-13.3","","87","","","","0","","6.4","","101.14","","","","","","Smoke"
"1957-02-05 10:00","1957","02","05","10:00","-9.4","","-12.8","","77","","7","","5","","9.7","","101.12","","","","-12","","Smoke"
"1957-02-05 11:00","1957","02","05","11:00","-4.4","","-8.9","","71","","25","","3","","9.7","","101.11","","","","-6","","Smoke"
"1957-02-05 12:00","1957","02","05","12:00","-1.7","","-8.3","","60","","23","","10","","12.9","","101.02","","","","-5","","Mainly Clear"
"1957-02-05 13:00","1957","02","05","13:00","-1.7","","-7.8","","63","","25","","10","","16.1","","100.93","","","","-5","","Mostly Cloudy"
"1957-02-05 14:00","1957","02","05","14:00","-1.7","","-7.2","","66","","23","","8","","16.1","","100.91","","","","-5","","Mostly Cloudy"
"1957-02-05 15:00","1957","02","05","15:00","-1.7","","-7.8","","63","","23","","8","","19.3","","100.90","","","","-5","","Mostly Cloudy"
"1957-02-05 16:00","1957","02","05","16:00","-2.2","","-8.3","","63","","20","","6","","19.3","","100.87","","","","-5","","Mostly Cloudy"
"1957-02-05 17:00","1957","02","05","17:00","-2.8","","-6.7","","75","","18","","6","","19.3","","100.87","","","","-5","","Mostly Cloudy"
"1957-02-05 18:00","1957","02","05","18:00","-4.4","","-6.7","","84","","18","","3","","19.3","","100.88","","","","-6","","Mainly Clear"
"1957-02-05 19:00","1957","02","05","19:00","-5.0","","-9.4","","71","","18","","2","","19.3","","100.86","","","","-6","","Mainly Clear"
"1957-02-05 20:00","1957","02","05","20:00","-9.4","","-12.8","","77","","","","0","","19.3","","100.84","","","","","","Clear"
"1957-02-05 21:00","1957","02","05","21:00","-9.4","","-12.2","","80","","","","0","","19.3","","100.79","","","","","","Clear"
"1957-02-05 22:00","1957","02","05","22:00","-11.7","","-14.4","","80","","","","0","","19.3","","100.75","","","","","","Clear"
"1957-02-05 23:00","1957","02","05","23:00","-12.2","","-13.9","","87","","","","0","","12.9","","100.73","","","","","","Clear"
"1957-02-06 00:00","1957","02","06","00:00","-12.2","","-13.9","","87","","36","","10","","12.9","","100.73","","","","-18","","Clear"
"1957-02-06 01:00","1957","02","06","01:00","-13.9","","-15.6","","87","","36","","8","","12.9","","100.70","","","","-19","","Clear"
"1957-02-06 02:00","1957","02","06","02:00","-13.3","","-14.4","","91","","34","","10","","12.9","","100.69","","","","-19","","Clear"
"1957-02-06 03:00","1957","02","06","03:00","-15.0","","-17.2","","83","","32","","6","","12.9","","100.67","","","","-19","","Clear"
"1957-02-06 04:00","1957","02","06","04:00","-13.9","","-15.6","","87","","32","","3","","12.9","","100.63","","","","-16","","Clear"
"1957-02-06 05:00","1957","02","06","05:00","-12.8","","-14.4","","87","","32","","3","","16.1","","100.64","","","","-15","","Clear"
"1957-02-06 06:00","1957","02","06","06:00","-13.3","","-14.4","","91","","36","","8","","16.1","","100.67","","","","-18","","Mainly Clear"
"1957-02-06 07:00","1957","02","06","07:00","-13.3","","-14.4","","91","","32","","6","","4.8","","100.69","","","","-17","","Fog"
"1957-02-06 08:00","1957","02","06","08:00","-12.2","","-13.9","","87","","32","","6","","4.0","","100.71","","","","-16","","Fog"
"1957-02-06 09:00","1957","02","06","09:00","-9.4","","-12.2","","80","","","","0","","4.0","","100.72","","","","","","Fog,Smoke"
"1957-02-06 10:00","1957","02","06","10:00","-6.1","","-8.3","","84","","27","","6","","4.0","","100.68","","","","-9","","Fog,Smoke"
"1957-02-06 11:00","1957","02","06","11:00","-1.1","","-7.8","","61","","23","","6","","12.9","","100.66","","","","-3","","Mainly Clear"
"1957-02-06 12:00","1957","02","06","12:00","0.6","","-6.1","","61","","23","","6","","19.3","","100.55","","","","","","Mainly Clear"
"1957-02-06 13:00","1957","02","06","13:00","2.2","","-5.0","","59","","23","","10","","16.1","","100.44","","","","","","Mainly Clear"
"1957-02-06 14:00","1957","02","06","14:00","1.7","","-4.4","","64","","18","","13","","3.2","","100.44","","","","","","Haze"
"1957-02-06 15:00","1957","02","06","15:00","1.1","","-3.3","","72","","18","","10","","4.0","","100.42","","","","","","Smoke,Haze"
"1957-02-06 16:00","1957","02","06","16:00","1.1","","-3.3","","72","","18","","10","","4.0","","100.45","","","","","","Smoke,Haze"
"1957-02-06 17:00","1957","02","06","17:00","0.6","","-2.8","","78","","18","","14","","4.8","","100.44","","","","","","Haze"
"1957-02-06 18:00","1957","02","06","18:00","0.6","","-2.8","","78","","18","","11","","4.8","","100.42","","","","","","Haze"
"1957-02-06 19:00","1957","02","06","19:00","0.6","","-2.2","","82","","18","","8","","6.4","","100.41","","","","","","Haze"
"1957-02-06 20:00","1957","02","06","20:00","0.6","","-2.2","","82","","18","","16","","6.4","","100.30","","","","","","Haze"
"1957-02-06 21:00","1957","02","06","21:00","-0.6","","-2.2","","88","","18","","16","","8.0","","100.27","","","","-5","","Haze"
"1957-02-06 22:00","1957","02","06","22:00","-2.2","","-3.9","","88","","18","","13","","6.4","","100.24","","","","-7","","Haze"
"1957-02-06 23:00","1957","02","06","23:00","-3.3","","-5.6","","85","","18","","16","","4.8","","100.19","","","","-9","","Haze"
"1957-02-07 00:00","1957","02","07","00:00","-3.9","","-5.0","","92","","23","","10","","4.8","","100.12","","","","-8","","Haze"
"1957-02-07 01:00","1957","02","07","01:00","-4.4","","-5.6","","92","","23","","13","","4.8","","100.09","","","","-9","","Haze"
"1957-02-07 02:00","1957","02","07","02:00","-3.3","","-4.4","","92","","23","","23","","6.4","","100.02","","","","-10","","Haze"
"1957-02-07 03:00","1957","02","07","03:00","-2.2","","-4.4","","85","","18","","24","","6.4","","99.98","","","","-9","","Haze"
"1957-02-07 04:00","1957","02","07","04:00","-2.8","","-4.4","","88","","18","","19","","6.4","","99.96","","","","-9","","Haze"
"1957-02-07 05:00","1957","02","07","05:00","-2.2","","-4.4","","85","","18","","10","","6.4","","100.02","","","","-6","","Haze"
"1957-02-07 06:00","1957","02","07","06:00","-0.6","","-1.1","","96","","18","","11","","4.8","","100.05","","","","-4","","Fog"
"1957-02-07 07:00","1957","02","07","07:00","0.0","","-0.6","","96","","23","","8","","4.8","","100.05","","","","-3","","Fog"
"1957-02-07 08:00","1957","02","07","08:00","0.0","","-0.6","","96","","25","","13","","8.0","","100.11","","","","-4","","Fog"
"1957-02-07 09:00","1957","02","07","09:00","1.7","","-1.1","","82","","23","","23","","8.0","","100.13","","","","","","Haze"
"1957-02-07 10:00","1957","02","07","10:00","1.7","","-1.1","","82","","23","","19","","8.0","","100.17","","","","","","Haze"
"1957-02-07 11:00","1957","02","07","11:00","1.7","","-1.1","","82","","23","","19","","8.0","","100.20","","","","","","Haze"
"1957-02-07 12:00","1957","02","07","12:00","1.7","","-1.1","","82","","23","","23","","8.0","","100.20","","","","","","Haze"
"1957-02-07 13:00","1957","02","07","13:00","2.2","","-2.8","","69","","23","","26","","8.0","","100.15","","","","","","Haze"
"1957-02-07 14:00","1957","02","07","14:00","2.2","","-2.8","","69","","23","","19","","8.0","","100.13","","","","","","Haze"
"1957-02-07 15:00","1957","02","07","15:00","2.2","","-1.7","","75","","23","","16","","6.4","","100.22","","","","","","Haze"
"1957-02-07 16:00","1957","02","07","16:00","2.2","","-1.1","","78","","23","","16","","6.4","","100.29","","","","","","Haze"
"1957-02-07 17:00","1957","02","07","17:00","2.2","","-2.2","","72","","23","","19","","6.4","","100.36","","","","","","Haze"
"1957-02-07 18:00","1957","02","07","18:00","2.2","","-2.2","","72","","23","","16","","8.0","","100.39","","","","","","Haze"
"1957-02-07 19:00","1957","02","07","19:00","1.7","","-1.7","","78","","23","","14","","8.0","","100.46","","","","","","Haze"
"1957-02-07 20:00","1957","02","07","20:00","2.2","","-1.1","","78","","23","","16","","9.7","","100.53","","","","","","Haze"
"1957-02-07 21:00","1957","02","07","21:00","1.1","","-2.2","","78","","27","","19","","9.7","","100.57","","","","","","Haze"
"1957-02-07 22:00","1957","02","07","22:00","-1.1","","-2.8","","88","","27","","16","","9.7","","100.63","","","","-6","","Haze"
"1957-02-07 23:00","1957","02","07","23:00","0.6","","-3.9","","72","","27","","26","","11.3","","100.69","","","","","","Mostly Cloudy"
"1957-02-08 00:00","1957","02","08","00:00","-1.1","","-2.2","","92","","32","","16","","16.1","","100.69","","","","-6","","Mostly Cloudy"
"1957-02-08 01:00","1957","02","08","01:00","-2.2","","-5.6","","78","","32","","16","","25.0","","100.77","","","","-7","","Clear"
"1957-02-08 02:00","1957","02","08","02:00","-2.8","","-6.7","","75","","32","","10","","25.0","","100.84","","","","-7","","Clear"
"1957-02-08 03:00","1957","02","08","03:00","-2.8","","-6.7","","75","","32","","10","","25.0","","100.86","","","","-7","","Clear"
"1957-02-08 04:00","1957","02","08","04:00","-5.0","","-9.4","","71","","32","","3","","25.0","","100.89","","","","-6","","Clear"
"1957-02-08 05:00","1957","02","08","05:00","-7.2","","-10.0","","81","","32","","13","","25.0","","100.90","","","","-13","","Clear"
"1957-02-08 06:00","1957","02","08","06:00","-8.3","","-10.0","","88","","32","","16","","25.0","","100.91","","","","-15","","Clear"
"1957-02-08 07:00","1957","02","08","07:00","-8.3","","-11.1","","80","","32","","6","","25.0","","100.99","","","","-12","","Mainly Clear"
"1957-02-08 08:00","1957","02","08","08:00","-8.3","","-11.1","","80","","","","0","","19.3","","101.03","","","","","","Mainly Clear"
"1957-02-08 09:00","1957","02","08","09:00","-6.1","","-10.0","","74","","36","","8","","19.3","","101.04","","","","-10","","Mainly Clear"
"1957-02-08 10:00","1957","02","08","10:00","-5.0","","-11.1","","62","","36","","8","","19.3","","101.03","","","","-9","","Mostly Cloudy"
"1957-02-08 11:00","1957","02","08","11:00","-2.8","","-9.4","","60","","5","","8","","12.9","","101.01","","","","-6","","Mostly Cloudy"
"1957-02-08 12:00","1957","02","08","12:00","-0.6","","-8.9","","53","","11","","14","","16.1","","100.89","","","","-5","","Mainly Clear"
"1957-02-08 13:00","1957","02","08","13:00","-0.6","","-8.9","","53","","11","","18","","19.3","","100.78","","","","-6","","Mainly Clear"
"1957-02-08 14:00","1957","02","08","14:00","-0.6","","-8.9","","53","","11","","19","","25.0","","100.69","","","","-6","","Mainly Clear"
"1957-02-08 15:00","1957","02","08","15:00","-0.6","","-7.8","","58","","11","","21","","25.0","","100.61","","","","-6","","Clear"
"1957-02-08 16:00","1957","02","08","16:00","-0.6","","-9.4","","51","","9","","23","","25.0","","100.55","","","","-6","","Clear"
"1957-02-08 17:00","1957","02","08","17:00","-1.1","","-8.3","","58","","11","","16","","25.0","","100.48","","","","-6","","Mainly Clear"
"1957-02-08 18:00","1957","02","08","18:00","-2.2","","-6.7","","72","","9","","6","","12.9","","100.38","","","","-5","","Mainly Clear"
"1957-02-08 19:00","1957","02","08","19:00","-1.7","","-6.1","","72","","9","","13","","19.3","","100.32","","","","-6","","Mainly Clear"
"1957-02-08 20:00","1957","02","08","20:00","-2.8","","-5.6","","81","","9","","8","","19.3","","100.17","","","","-6","","Mainly Clear"
"1957-02-08 21:00","1957","02","08","21:00","-3.9","","-6.1","","85","","9","","5","","16.1","","100.07","","","","-6","","Mainly Clear"
"1957-02-08 22:00","1957","02","08","22:00","-5.0","","-6.7","","88","","9","","5","","16.1","","99.94","","","","-7","","Mostly Cloudy"
"1957-02-08 23:00","1957","02","08","23:00","-5.0","","-6.1","","92","","9","","5","","16.1","","99.82","","","","-7","","Mostly Cloudy"
"1957-02-09 00:00","1957","02","09","00:00","-4.4","","-6.7","","84","","9","","5","","16.1","","99.70","","","","-7","","Mostly Cloudy"
"1957-02-09 01:00","1957","02","09","01:00","-4.4","","-6.1","","88","","9","","3","","16.1","","99.56","","","","-6","","Cloudy"
"1957-02-09 02:00","1957","02","09","02:00","-3.9","","-4.4","","96","","9","","3","","16.1","","99.50","","","","-5","","Cloudy"
"1957-02-09 03:00","1957","02","09","03:00","-3.3","","-3.9","","96","","9","","3","","16.1","","99.31","","","","-5","","Cloudy"
"1957-02-09 04:00","1957","02","09","04:00","-2.2","","-3.3","","92","","9","","6","","12.9","","99.19","","","","-5","","Cloudy"
"1957-02-09 05:00","1957","02","09","05:00","-1.1","","-2.2","","92","","9","","14","","9.7","","99.03","","","","-6","","Freezing Rain,Fog"
"1957-02-09 06:00","1957","02","09","06:00","1.1","","-1.1","","85","","11","","18","","9.7","","98.95","","","","","","Rain,Fog"
"1957-02-09 07:00","1957","02","09","07:00","1.7","","0.6","","92","","11","","11","","4.0","","98.75","","","","","","Rain,Fog"
"1957-02-09 08:00","1957","02","09","08:00","1.7","","1.1","","96","","9","","14","","1.2","","98.56","","","","","","Rain,Fog"
"1957-02-09 09:00","1957","02","09","09:00","2.2","","2.2","","100","","7","","16","","0.4","","98.44","","","","","","Rain,Fog"
"1957-02-09 10:00","1957","02","09","10:00","2.8","","2.8","","100","","9","","13","","0.8","","98.30","","","","","","Fog"
"1957-02-09 11:00","1957","02","09","11:00","3.3","","3.3","","100","","9","","10","","0.6","","98.15","","","","","","Drizzle,Fog"
"1957-02-09 12:00","1957","02","09","12:00","2.8","","2.8","","100","","9","","10","","0.4","","98.00","","","","","","Drizzle,Fog"
"1957-02-09 13:00","1957","02","09","13:00","2.8","","2.8","","100","","","","0","","0.2","","97.89","","","","","","Drizzle,Fog"
"1957-02-09 14:00","1957","02","09","14:00","2.2","","2.2","","100","","25","","10","","0.2","","97.89","","","","","","Fog"
"1957-02-09 15:00","1957","02","09","15:00","2.2","","2.2","","100","","23","","6","","0.4","","97.95","","","","","","Fog"
"1957-02-09 16:00","1957","02","09","16:00","2.8","","2.8","","100","","18","","10","","0.8","","97.99","","","","","","Fog"
"1957-02-09 17:00","1957","02","09","17:00","2.8","","1.7","","92","","25","","23","","8.0","","98.02","","","","","","Fog"
"1957-02-09 18:00","1957","02","09","18:00","2.8","","1.7","","92","","25","","24","","12.9","","97.97","","","","","","Cloudy"
"1957-02-09 19:00","1957","02","09","19:00","2.8","","1.1","","89","","25","","16","","19.3","","98.03","","","","","","Cloudy"
"1957-02-09 20:00","1957","02","09","20:00","2.2","","0.6","","89","","25","","19","","19.3","","98.07","","","","","","Cloudy"
"1957-02-09 21:00","1957","02","09","21:00","1.7","","0.6","","92","","23","","10","","19.3","","98.06","","","","","","Cloudy"
"1957-02-09 22:00","1957","02","09","22:00","2.2","","1.1","","92","","27","","16","","19.3","","98.03","","","","","","Cloudy"
"1957-02-09 23:00","1957","02","09","23:00","2.2","","0.0","","85","","27","","16","","24.1","","98.10","","","","","","Cloudy"
"1957-02-10 00:00","1957","02","10","00:00","2.2","","0.0","","85","","27","","21","","25.0","","98.12","","","","","","Cloudy"
"1957-02-10 01:00","1957","02","10","01:00","1.7","","-1.1","","82","","34","","29","","9.7","","98.12","","","","","","Snow"
"1957-02-10 02:00","1957","02","10","02:00","-0.6","","-3.9","","78","","32","","27","","16.1","","98.23","","","","-7","","Cloudy"
"1957-02-10 03:00","1957","02","10","03:00","-1.1","","-5.0","","75","","32","","35","","19.3","","98.33","","","","-8","","Cloudy"
"1957-02-10 04:00","1957","02","10","04:00","-2.2","","-6.1","","75","","32","","26","","24.1","","98.43","","","","-9","","Snow"
"1957-02-10 05:00","1957","02","10","05:00","-2.8","","-6.7","","75","","32","","35","","25.0","","98.60","","","","-11","","Snow"
"1957-02-10 06:00","1957","02","10","06:00","-3.3","","-6.7","","78","","32","","35","","25.0","","98.74","","","","-11","","Mostly Cloudy"
"1957-02-10 07:00","1957","02","10","07:00","-4.4","","-6.7","","84","","32","","26","","25.0","","98.82","","","","-12","","Mostly Cloudy"
"1957-02-10 08:00","1957","02","10","08:00","-5.0","","-8.3","","77","","32","","40","","25.0","","98.99","","","","-14","","Mainly Clear"
"1957-02-10 09:00","1957","02","10","09:00","-5.0","","-8.3","","77","","32","","27","","25.0","","99.11","","","","-13","","Mainly Clear"
"1957-02-10 10:00","1957","02","10","10:00","-4.4","","-8.9","","71","","32","","32","","25.0","","99.23","","","","-12","","Mainly Clear"
"1957-02-10 11:00","1957","02","10","11:00","-4.4","","-8.9","","71","","34","","29","","25.0","","99.35","","","","-12","","Clear"
"1957-02-10 12:00","1957","02","10","12:00","-3.9","","-9.4","","65","","32","","24","","25.0","","99.37","","","","-11","","Clear"
"1957-02-10 13:00","1957","02","10","13:00","-3.9","","-9.4","","65","","32","","19","","25.0","","99.39","","","","-10","","Clear"
"1957-02-10 14:00","1957","02","10","14:00","-3.3","","-8.9","","65","","32","","19","","25.0","","99.42","","","","-9","","Clear"
"1957-02-10 15:00","1957","02","10","15:00","-3.3","","-9.4","","63","","34","","23","","25.0","","99.47","","","","-10","","Clear"
"1957-02-10 16:00","1957","02","10","16:00","-3.9","","-7.8","","74","","36","","21","","25.0","","99.48","","","","-10","","Clear"
"1957-02-10 17:00","1957","02","10","17:00","-5.0","","-10.6","","65","","36","","26","","25.0","","99.64","","","","-12","","Mainly Clear"
"1957-02-10 18:00","1957","02","10","18:00","-5.6","","-9.4","","74","","36","","19","","25.0","","99.73","","","","-12","","Mostly Cloudy"
"1957-02-10 19:00","1957","02","10","19:00","-6.1","","-10.0","","74","","36","","29","","24.1","","99.72","","","","-14","","Mostly Cloudy"
"1957-02-10 20:00","1957","02","10","20:00","-6.1","","-10.0","","74","","36","","23","","25.0","","99.74","","","","-13","","Mostly Cloudy"
"1957-02-10 21:00","1957","02","10","21:00","-5.6","","-10.0","","71","","36","","24","","25.0","","99.76","","","","-13","","Mostly Cloudy"
"1957-02-10 22:00","1957","02","10","22:00","-5.6","","-10.6","","68","","36","","23","","25.0","","99.79","","","","-13","","Cloudy"
"1957-02-10 23:00","1957","02","10","23:00","-5.6","","-11.7","","62","","36","","29","","25.0","","99.81","","","","-14","","Mainly Clear"
"1957-02-11 00:00","1957","02","11","00:00","-6.7","","-12.8","","62","","36","","26","","25.0","","99.83","","","","-15","","Clear"
"1957-02-11 01:00","1957","02","11","01:00","-6.7","","-10.6","","74","","36","","23","","25.0","","99.88","","","","-14","","Mainly Clear"
"1957-02-11 02:00","1957","02","11","02:00","-7.2","","-10.0","","81","","36","","23","","25.0","","99.94","","","","-15","","Mainly Clear"
"1957-02-11 03:00","1957","02","11","03:00","-7.2","","-10.0","","81","","36","","23","","25.0","","100.01","","","","-15","","Clear"
"1957-02-11 04:00","1957","02","11","04:00","-9.4","","-11.7","","84","","36","","19","","25.0","","100.11","","","","-17","","Mainly Clear"
"1957-02-11 05:00","1957","02","11","05:00","-10.6","","-12.2","","87","","36","","23","","25.0","","100.18","","","","-19","","Mainly Clear"
"1957-02-11 06:00","1957","02","11","06:00","-11.7","","-15.6","","73","","36","","19","","25.0","","100.29","","","","-20","","Clear"
"1957-02-11 07:00","1957","02","11","07:00","-11.7","","-14.4","","80","","36","","19","","25.0","","100.36","","","","-20","","Clear"
"1957-02-11 08:00","1957","02","11","08:00","-11.7","","-14.4","","80","","36","","23","","25.0","","100.47","","","","-21","","Clear"
"1957-02-11 09:00","1957","02","11","09:00","-11.7","","-15.0","","76","","36","","19","","25.0","","100.57","","","","-20","","Clear"
"1957-02-11 10:00","1957","02","11","10:00","-10.6","","-14.4","","73","","34","","23","","25.0","","100.67","","","","-19","","Clear"
"1957-02-11 11:00","1957","02","11","11:00","-9.4","","-14.4","","67","","36","","18","","25.0","","100.72","","","","-17","","Clear"
"1957-02-11 12:00","1957","02","11","12:00","-8.3","","-13.3","","67","","36","","19","","25.0","","100.75","","","","-16","","Clear"
"1957-02-11 13:00","1957","02","11","13:00","-8.3","","-13.9","","64","","36","","14","","25.0","","100.74","","","","-14","","Clear"
"1957-02-11 14:00","1957","02","11","14:00","-7.2","","-15.0","","54","","36","","13","","25.0","","100.72","","","","-13","","Clear"
"1957-02-11 15:00","1957","02","11","15:00","-6.7","","-15.0","","52","","36","","13","","25.0","","100.71","","","","-12","","Clear"
"1957-02-11 16:00","1957","02","11","16:00","-6.7","","-15.6","","49","","36","","10","","25.0","","100.78","","","","-11","","Clear"
"1957-02-11 17:00","1957","02","11","17:00","-7.2","","-13.3","","62","","32","","13","","25.0","","100.81","","","","-13","","Clear"
"1957-02-11 18:00","1957","02","11","18:00","-8.3","","-14.4","","61","","32","","11","","25.0","","100.91","","","","-14","","Clear"
"1957-02-11 19:00","1957","02","11","19:00","-8.9","","-15.0","","61","","36","","11","","25.0","","100.90","","","","-14","","Clear"
"1957-02-11 20:00","1957","02","11","20:00","-10.0","","-14.4","","70","","36","","13","","25.0","","100.89","","","","-16","","Clear"
"1957-02-11 21:00","1957","02","11","21:00","-10.6","","-14.4","","73","","36","","6","","25.0","","100.84","","","","-14","","Clear"
"1957-02-11 22:00","1957","02","11","22:00","-10.6","","-16.1","","64","","36","","8","","25.0","","100.81","","","","-15","","Clear"
"1957-02-11 23:00","1957","02","11","23:00","-11.1","","-16.1","","67","","36","","8","","25.0","","100.81","","","","-16","","Clear"
"1957-02-12 00:00","1957","02","12","00:00","-12.2","","-15.0","","80","","36","","6","","25.0","","100.77","","","","-16","","Clear"
"1957-02-12 01:00","1957","02","12","01:00","-12.2","","-15.0","","80","","36","","5","","25.0","","100.73","","","","-15","","Mainly Clear"
"1957-02-12 02:00","1957","02","12","02:00","-12.8","","-15.6","","80","","","","0","","25.0","","100.73","","","","","","Mainly Clear"
"1957-02-12 03:00","1957","02","12","03:00","-12.8","","-15.0","","84","","","","0","","25.0","","100.64","","","","","","Clear"
"1957-02-12 04:00","1957","02","12","04:00","-12.8","","-15.0","","84","","","","0","","25.0","","100.60","","","","","","Mainly Clear"
"1957-02-12 05:00","1957","02","12","05:00","-13.9","","-15.0","","91","","36","","6","","25.0","","100.53","","","","-18","","Mainly Clear"
"1957-02-12 06:00","1957","02","12","06:00","-12.8","","-15.6","","80","","9","","6","","25.0","","100.42","","","","-17","","Mainly Clear"
"1957-02-12 07:00","1957","02","12","07:00","-8.3","","-14.4","","61","","11","","19","","25.0","","100.38","","","","-16","","Mainly Clear"
"1957-02-12 08:00","1957","02","12","08:00","-6.7","","-11.1","","71","","11","","19","","25.0","","100.34","","","","-14","","Mostly Cloudy"
"1957-02-12 09:00","1957","02","12","09:00","-5.6","","-10.6","","68","","14","","23","","25.0","","100.36","","","","-13","","Mostly Cloudy"
"1957-02-12 10:00","1957","02","12","10:00","-5.0","","-10.0","","68","","11","","32","","25.0","","100.26","","","","-13","","Mostly Cloudy"
"1957-02-12 11:00","1957","02","12","11:00","-4.4","","-8.9","","71","","11","","26","","25.0","","100.10","","","","-12","","Cloudy"
"1957-02-12 12:00","1957","02","12","12:00","-3.9","","-10.0","","63","","11","","24","","25.0","","99.99","","","","-11","","Cloudy"
"1957-02-12 13:00","1957","02","12","13:00","-3.3","","-8.9","","65","","11","","26","","16.1","","99.88","","","","-10","","Cloudy"
"1957-02-12 14:00","1957","02","12","14:00","-3.3","","-8.3","","68","","14","","23","","12.9","","99.70","","","","-10","","Cloudy"
"1957-02-12 15:00","1957","02","12","15:00","-2.8","","-8.3","","66","","11","","26","","8.0","","99.57","","","","-10","","Haze"
"1957-02-12 16:00","1957","02","12","16:00","-1.7","","-7.2","","66","","11","","24","","8.0","","99.50","","","","-8","","Haze"
"1957-02-12 17:00","1957","02","12","17:00","-1.1","","-4.4","","78","","11","","21","","8.0","","99.42","","","","-7","","Snow,Smoke,Haze"
"1957-02-12 18:00","1957","02","12","18:00","-1.1","","-4.4","","78","","11","","24","","12.9","","99.34","","","","-7","","Snow"
"1957-02-12 19:00","1957","02","12","19:00","-1.1","","-4.4","","78","","9","","23","","9.7","","99.30","","","","-7","","Snow"
"1957-02-12 20:00","1957","02","12","20:00","-1.7","","-2.2","","96","","16","","18","","1.2","","99.27","","","","-7","","Snow"
"1957-02-12 21:00","1957","02","12","21:00","-0.6","","-1.1","","96","","14","","24","","1.2","","99.16","","","","-7","","Snow,Blowing Snow"
"1957-02-12 22:00","1957","02","12","22:00","-0.6","","-1.1","","96","","14","","32","","1.6","","99.10","","","","-7","","Snow,Blowing Snow"
"1957-02-12 23:00","1957","02","12","23:00","-0.6","","-1.1","","96","","14","","32","","1.6","","99.02","","","","-7","","Snow,Blowing Snow"
"1957-02-13 00:00","1957","02","13","00:00","-0.6","","-1.1","","96","","16","","31","","4.0","","98.99","","","","-7","","Snow"
"1957-02-13 01:00","1957","02","13","01:00","-0.6","","-1.1","","96","","16","","23","","8.0","","98.94","","","","-6","","Snow"
"1957-02-13 02:00","1957","02","13","02:00","-0.6","","-1.1","","96","","18","","16","","4.8","","98.92","","","","-5","","Snow"
"1957-02-13 03:00","1957","02","13","03:00","-0.6","","-1.1","","96","","18","","16","","4.8","","98.88","","","","-5","","Snow,Fog"
"1957-02-13 04:00","1957","02","13","04:00","-0.6","","-1.1","","96","","18","","11","","4.8","","98.85","","","","-4","","Snow,Fog"
"1957-02-13 05:00","1957","02","13","05:00","-0.6","","-0.6","","100","","18","","13","","4.8","","98.86","","","","-5","","Snow"
"1957-02-13 06:00","1957","02","13","06:00","-0.6","","-0.6","","100","","20","","10","","11.3","","98.88","","","","-4","","Cloudy"
"1957-02-13 07:00","1957","02","13","07:00","0.0","","-0.6","","96","","27","","19","","16.1","","98.94","","","","-5","","Mainly Clear"
"1957-02-13 08:00","1957","02","13","08:00","-1.1","","-3.3","","85","","27","","16","","19.3","","99.01","","","","-6","","Mostly Cloudy"
"1957-02-13 09:00","1957","02","13","09:00","-1.1","","-2.2","","92","","23","","16","","24.1","","99.07","","","","-6","","Mainly Clear"
"1957-02-13 10:00","1957","02","13","10:00","0.6","","-5.0","","66","","23","","16","","25.0","","99.10","","","","","","Mainly Clear"
"1957-02-13 11:00","1957","02","13","11:00","1.1","","-2.8","","75","","20","","16","","25.0","","99.10","","","","","","Mainly Clear"
"1957-02-13 12:00","1957","02","13","12:00","2.2","","-5.6","","56","","20","","19","","25.0","","99.07","","","","","","Mainly Clear"
"1957-02-13 13:00","1957","02","13","13:00","2.2","","-4.4","","61","","20","","21","","25.0","","99.02","","","","","","Mainly Clear"
"1957-02-13 14:00","1957","02","13","14:00","2.2","","1.1","","92","","20","","26","","25.0","","98.96","","","","","","Mostly Cloudy"
"1957-02-13 15:00","1957","02","13","15:00","2.2","","1.1","","92","","20","","23","","25.0","","98.93","","","","","","Mostly Cloudy"
"1957-02-13 16:00","1957","02","13","16:00","2.8","","-3.9","","61","","20","","24","","24.1","","98.93","","","","","","Mostly Cloudy"
"1957-02-13 17:00","1957","02","13","17:00","1.7","","-3.3","","69","","20","","23","","24.1","","98.94","","","","","","Cloudy"
"1957-02-13 18:00","1957","02","13","18:00","1.1","","-3.3","","72","","20","","26","","24.1","","98.96","","","","","","Cloudy"
"1957-02-13 19:00","1957","02","13","19:00","0.6","","-2.2","","82","","20","","16","","16.1","","98.98","","","","","","Snow"
"1957-02-13 20:00","1957","02","13","20:00","0.6","","-1.7","","85","","20","","11","","8.0","","99.00","","","","","","Snow"
"1957-02-13 21:00","1957","02","13","21:00","0.0","","-1.7","","88","","18","","6","","11.3","","98.96","","","","-2","","Snow"
"1957-02-13 22:00","1957","02","13","22:00","0.6","","-1.7","","85","","16","","6","","12.9","","98.92","","","","","","Snow"
"1957-02-13 23:00","1957","02","13","23:00","0.0","","-1.7","","88","","","","0","","4.8","","98.90","","","","","","Snow"
"1957-02-14 00:00","1957","02","14","00:00","-0.6","","-1.1","","96","","5","","5","","2.4","","98.89","","","","-2","","Snow"
"1957-02-14 01:00","1957","02","14","01:00","-0.6","","-1.1","","96","","5","","3","","2.0","","98.87","","","","-2","","Snow"
"1957-02-14 02:00","1957","02","14","02:00","-1.1","","-1.1","","100","","36","","5","","1.2","","98.84","","","","-3","","Snow,Fog"
"1957-02-14 03:00","1957","02","14","03:00","-1.7","","-2.2","","96","","36","","6","","3.2","","98.79","","","","-4","","Snow,Fog"
"1957-02-14 04:00","1957","02","14","04:00","-1.7","","-2.8","","92","","2","","11","","2.4","","98.76","","","","-6","","Snow,Fog"
"1957-02-14 05:00","1957","02","14","05:00","-1.7","","-2.8","","92","","2","","18","","2.0","","98.76","","","","-7","","Snow,Fog"
"1957-02-14 06:00","1957","02","14","06:00","-1.7","","-2.8","","92","","2","","19","","1.6","","98.74","","","","-7","","Snow"
"1957-02-14 07:00","1957","02","14","07:00","-2.2","","-2.8","","96","","2","","23","","1.0","","98.73","","","","-8","","Snow"
"1957-02-14 08:00","1957","02","14","08:00","-2.2","","-2.8","","96","","36","","21","","1.2","","98.71","","","","-8","","Snow,Fog"
"1957-02-14 09:00","1957","02","14","09:00","-1.7","","-2.2","","96","","36","","23","","0.4","","98.73","","","","-8","","Heavy Snow"
"1957-02-14 10:00","1957","02","14","10:00","-2.2","","-2.8","","96","","36","","23","","0.2","","98.78","","","","-8","","Heavy Snow"
"1957-02-14 11:00","1957","02","14","11:00","-2.2","","-2.8","","96","","36","","26","","0.6","","98.82","","","","-9","","Moderate Snow"
"1957-02-14 12:00","1957","02","14","12:00","-1.7","","-2.2","","96","","36","","19","","0.4","","98.86","","","","-7","","Heavy Snow"
"1957-02-14 13:00","1957","02","14","13:00","-1.1","","-1.7","","96","","34","","11","","1.2","","98.89","","","","-5","","Snow"
"1957-02-14 14:00","1957","02","14","14:00","-1.1","","-1.7","","96","","36","","6","","1.2","","98.93","","","","-3","","Snow"
"1957-02-14 15:00","1957","02","14","15:00","-1.7","","-2.2","","96","","34","","21","","0.6","","98.99","","","","-8","","Moderate Snow"
"1957-02-14 16:00","1957","02","14","16:00","-1.7","","-2.2","","96","","32","","19","","1.2","","99.06","","","","-7","","Snow"
"1957-02-14 17:00","1957","02","14","17:00","-2.2","","-2.8","","96","","32","","26","","1.2","","99.11","","","","-9","","Snow"
"1957-02-14 18:00","1957","02","14","18:00","-2.2","","-2.8","","96","","32","","26","","1.2","","99.18","","","","-9","","Snow"
"1957-02-14 19:00","1957","02","14","19:00","-2.2","","-2.8","","96","","32","","26","","4.8","","99.23","","","","-9","","Snow"
"1957-02-14 20:00","1957","02","14","20:00","-2.2","","-2.8","","96","","32","","26","","12.9","","99.34","","","","-9","","Snow"
"1957-02-14 21:00","1957","02","14","21:00","-2.2","","-2.8","","96","","32","","26","","16.1","","99.37","","","","-9","","Snow"
"1957-02-14 22:00","1957","02","14","22:00","-2.2","","-2.8","","96","","34","","23","","4.8","","99.44","","","","-8","","Snow"
"1957-02-14 23:00","1957","02","14","23:00","-2.8","","-4.4","","88","","32","","26","","4.8","","99.47","","","","-10","","Snow"
"1957-02-15 00:00","1957","02","15","00:00","-2.2","","-4.4","","85","","34","","26","","19.3","","99.58","","","","-9","","Cloudy"
"1957-02-15 01:00","1957","02","15","01:00","-2.8","","-4.4","","88","","34","","24","","19.3","","99.60","","","","-9","","Cloudy"
"1957-02-15 02:00","1957","02","15","02:00","-2.8","","-3.9","","92","","34","","19","","12.9","","99.70","","","","-9","","Snow"
"1957-02-15 03:00","1957","02","15","03:00","-2.8","","-4.4","","88","","32","","21","","6.4","","99.75","","","","-9","","Snow"
"1957-02-15 04:00","1957","02","15","04:00","-2.8","","-4.4","","88","","32","","23","","9.7","","99.82","","","","-9","","Snow"
"1957-02-15 05:00","1957","02","15","05:00","-2.8","","-4.4","","88","","32","","19","","9.7","","99.87","","","","-9","","Snow"
"1957-02-15 06:00","1957","02","15","06:00","-2.8","","-4.4","","88","","32","","18","","12.9","","99.90","","","","-8","","Snow"
"1957-02-15 07:00","1957","02","15","07:00","-2.8","","-3.9","","92","","32","","16","","12.9","","99.96","","","","-8","","Cloudy"
"1957-02-15 08:00","1957","02","15","08:00","-2.8","","-4.4","","88","","29","","14","","12.9","","100.03","","","","-8","","Cloudy"
"1957-02-15 09:00","1957","02","15","09:00","-2.8","","-4.4","","88","","32","","16","","2.0","","100.02","","","","-8","","Snow"
"1957-02-15 10:00","1957","02","15","10:00","-2.2","","-3.9","","88","","32","","11","","1.6","","100.03","","","","-6","","Snow"
"1957-02-15 11:00","1957","02","15","11:00","-2.2","","-3.9","","88","","27","","13","","6.4","","100.04","","","","-7","","Snow,Fog"
"1957-02-15 12:00","1957","02","15","12:00","-1.7","","-4.4","","81","","27","","10","","6.4","","100.03","","","","-5","","Snow,Haze"
"1957-02-15 13:00","1957","02","15","13:00","-1.1","","-2.8","","88","","2","","6","","8.0","","99.93","","","","-3","","Snow,Haze"
"1957-02-15 14:00","1957","02","15","14:00","-1.1","","-2.8","","88","","11","","3","","8.0","","99.96","","","","-2","","Haze"
"1957-02-15 15:00","1957","02","15","15:00","-1.1","","-2.8","","88","","16","","8","","8.0","","99.94","","","","-4","","Haze"
"1957-02-15 16:00","1957","02","15","16:00","-1.1","","-2.8","","88","","14","","13","","6.4","","99.93","","","","-5","","Haze"
"1957-02-15 17:00","1957","02","15","17:00","-1.7","","-3.3","","88","","18","","10","","6.4","","99.92","","","","-5","","Haze"
"1957-02-15 18:00","1957","02","15","18:00","-2.2","","-4.4","","85","","18","","11","","12.9","","99.88","","","","-6","","Cloudy"
"1957-02-15 19:00","1957","02","15","19:00","-2.2","","-5.0","","81","","18","","14","","12.9","","99.87","","","","-7","","Cloudy"
"1957-02-15 20:00","1957","02","15","20:00","-2.2","","-5.0","","81","","18","","13","","12.9","","99.85","","","","-7","","Cloudy"
"1957-02-15 21:00","1957","02","15","21:00","-2.8","","-5.0","","85","","16","","11","","12.9","","99.74","","","","-7","","Mostly Cloudy"
"1957-02-15 22:00","1957","02","15","22:00","-3.3","","-5.6","","85","","16","","8","","16.1","","99.55","","","","-7","","Mostly Cloudy"
"1957-02-15 23:00","1957","02","15","23:00","-3.9","","-5.6","","88","","16","","8","","12.9","","99.51","","","","-7","","Cloudy"
"1957-02-16 00:00","1957","02","16","00:00","-2.8","","-4.4","","88","","16","","10","","12.9","","99.48","","","","-7","","Cloudy"
"1957-02-16 01:00","1957","02","16","01:00","-2.8","","-4.4","","88","","16","","13","","12.9","","99.35","","","","-7","","Mostly Cloudy"
"1957-02-16 02:00","1957","02","16","02:00","-2.2","","-5.0","","81","","16","","13","","6.4","","99.27","","","","-7","","Haze"
"1957-02-16 03:00","1957","02","16","03:00","-2.2","","-4.4","","85","","16","","10","","6.4","","99.04","","","","-6","","Fog"
"1957-02-16 04:00","1957","02","16","04:00","-2.2","","-3.9","","88","","16","","10","","1.6","","98.97","","","","-6","","Snow"
"1957-02-16 05:00","1957","02","16","05:00","-2.8","","-3.3","","96","","16","","10","","2.0","","98.86","","","","-7","","Snow"
"1957-02-16 06:00","1957","02","16","06:00","-2.2","","-3.3","","92","","16","","13","","2.4","","98.79","","","","-7","","Snow"
"1957-02-16 07:00","1957","02","16","07:00","-2.2","","-3.3","","92","","16","","16","","1.6","","98.71","","","","-7","","Snow"
"1957-02-16 08:00","1957","02","16","08:00","-2.2","","-3.3","","92","","16","","16","","3.2","","98.64","","","","-7","","Fog"
"1957-02-16 09:00","1957","02","16","09:00","-2.2","","-2.8","","96","","18","","18","","3.2","","98.60","","","","-8","","Fog"
"1957-02-16 10:00","1957","02","16","10:00","-1.7","","-3.3","","88","","20","","18","","4.8","","98.59","","","","-7","","Fog"
"1957-02-16 11:00","1957","02","16","11:00","-0.6","","-5.0","","72","","25","","27","","24.1","","98.56","","","","-7","","Mostly Cloudy"
"1957-02-16 12:00","1957","02","16","12:00","0.0","","-2.2","","85","","25","","27","","25.0","","98.54","","","","-6","","Mostly Cloudy"
"1957-02-16 13:00","1957","02","16","13:00","0.0","","-4.4","","72","","25","","24","","25.0","","98.52","","","","-6","","Mostly Cloudy"
"1957-02-16 14:00","1957","02","16","14:00","-1.1","","-2.8","","88","","25","","32","","25.0","","98.53","","","","-8","","Mostly Cloudy"
"1957-02-16 15:00","1957","02","16","15:00","0.0","","-1.7","","88","","25","","29","","25.0","","98.54","","","","-6","","Mostly Cloudy"
"1957-02-16 16:00","1957","02","16","16:00","-1.7","","-3.3","","88","","27","","8","","1.2","","98.56","","","","-5","","Snow Showers"
"1957-02-16 17:00","1957","02","16","17:00","-1.7","","-3.9","","85","","27","","19","","24.1","","98.64","","","","-7","","Mostly Cloudy"
"1957-02-16 18:00","1957","02","16","18:00","-2.8","","-5.6","","81","","25","","8","","25.0","","98.68","","","","-6","","Mostly Cloudy"
"1957-02-16 19:00","1957","02","16","19:00","-3.3","","-5.6","","85","","25","","19","","25.0","","98.73","","","","-9","","Mostly Cloudy"
"1957-02-16 20:00","1957","02","16","20:00","-4.4","","-6.1","","88","","25","","21","","25.0","","98.77","","","","-11","","Mostly Cloudy"
"1957-02-16 21:00","1957","02","16","21:00","-5.0","","-7.2","","84","","25","","31","","25.0","","98.78","","","","-13","","Mostly Cloudy"
"1957-02-16 22:00","1957","02","16","22:00","-5.0","","-7.8","","81","","25","","35","","25.0","","98.73","","","","-14","","Cloudy"
"1957-02-16 23:00","1957","02","16","23:00","-5.6","","-7.8","","88","","25","","32","","24.1","","98.79","","","","-14","","Snow"
"1957-02-17 00:00","1957","02","17","00:00","-6.1","","-8.9","","81","","27","","23","","25.0","","98.84","","","","-13","","Mostly Cloudy"
"1957-02-17 01:00","1957","02","17","01:00","-7.2","","-10.6","","77","","25","","19","","25.0","","98.84","","","","-14","","Mainly Clear"
"1957-02-17 02:00","1957","02","17","02:00","-8.3","","-11.1","","80","","25","","21","","25.0","","98.87","","","","-16","","Clear"
"1957-02-17 03:00","1957","02","17","03:00","-9.4","","-11.7","","84","","25","","21","","25.0","","98.90","","","","-17","","Mainly Clear"
"1957-02-17 04:00","1957","02","17","04:00","-10.0","","-12.2","","84","","23","","16","","25.0","","98.94","","","","-17","","Mainly Clear"
"1957-02-17 05:00","1957","02","17","05:00","-10.0","","-12.2","","84","","23","","23","","25.0","","98.94","","","","-18","","Mostly Cloudy"
"1957-02-17 06:00","1957","02","17","06:00","-6.7","","-9.4","","81","","25","","34","","25.0","","98.97","","","","-16","","Cloudy"
"1957-02-17 07:00","1957","02","17","07:00","-6.7","","-9.4","","81","","25","","29","","25.0","","99.00","","","","-15","","Mostly Cloudy"
"1957-02-17 08:00","1957","02","17","08:00","-6.7","","-8.9","","84","","25","","29","","25.0","","99.04","","","","-15","","Mainly Clear"
"1957-02-17 09:00","1957","02","17","09:00","-4.4","","-6.7","","84","","27","","32","","6.4","","99.15","","","","-12","","Snow"
"1957-02-17 10:00","1957","02","17","10:00","-2.8","","-6.1","","78","","27","","24","","11.3","","99.24","","","","-9","","Snow"
"1957-02-17 11:00","1957","02","17","11:00","-1.7","","-6.7","","69","","27","","32","","12.9","","99.29","","","","-9","","Mostly Cloudy"
"1957-02-17 12:00","1957","02","17","12:00","-1.7","","-6.1","","72","","27","","35","","16.1","","99.33","","","","-9","","Mainly Clear"
"1957-02-17 13:00","1957","02","17","13:00","-1.1","","-6.7","","66","","27","","37","","16.1","","99.34","","","","-9","","Mostly Cloudy"
"1957-02-17 14:00","1957","02","17","14:00","-0.6","","-5.0","","72","","27","","24","","16.1","","99.38","","","","-7","","Mostly Cloudy"
"1957-02-17 15:00","1957","02","17","15:00","-0.6","","-6.1","","66","","27","","29","","16.1","","99.42","","","","-7","","Mostly Cloudy"
"1957-02-17 16:00","1957","02","17","16:00","-0.6","","-6.1","","66","","27","","23","","16.1","","99.47","","","","-6","","Mostly Cloudy"
"1957-02-17 17:00","1957","02","17","17:00","-1.1","","-3.9","","81","","27","","32","","24.1","","99.50","","","","-8","","Mostly Cloudy"
"1957-02-17 18:00","1957","02","17","18:00","-1.7","","-5.0","","78","","27","","32","","24.1","","99.53","","","","-9","","Mostly Cloudy"
"1957-02-17 19:00","1957","02","17","19:00","-2.8","","-6.1","","78","","27","","32","","24.1","","99.55","","","","-10","","Mainly Clear"
"1957-02-17 20:00","1957","02","17","20:00","-4.4","","-7.2","","81","","23","","10","","25.0","","99.61","","","","-9","","Mainly Clear"
"1957-02-17 21:00","1957","02","17","21:00","-5.0","","-7.8","","81","","23","","18","","25.0","","99.64","","","","-11","","Mostly Cloudy"
"1957-02-17 22:00","1957","02","17","22:00","-4.4","","-6.1","","88","","23","","16","","25.0","","99.63","","","","-10","","Mostly Cloudy"
"1957-02-17 23:00","1957","02","17","23:00","-3.3","","-5.6","","85","","23","","23","","25.0","","99.65","","","","-10","","Mostly Cloudy"
"1957-02-18 00:00","1957","02","18","00:00","-3.9","","-5.6","","88","","23","","21","","25.0","","99.68","","","","-10","","Cloudy"
"1957-02-18 01:00","1957","02","18","01:00","-5.0","","-6.7","","88","","23","","21","","25.0","","99.67","","","","-12","","Clear"
"1957-02-18 02:00","1957","02","18","02:00","-6.7","","-8.3","","88","","23","","19","","25.0","","99.68","","","","-14","","Clear"
"1957-02-18 03:00","1957","02","18","03:00","-5.6","","-7.8","","88","","25","","23","","24.1","","99.71","","","","-13","","Mostly Cloudy"
"1957-02-18 04:00","1957","02","18","04:00","-5.0","","-7.8","","81","","23","","14","","24.1","","99.64","","","","-10","","Mostly Cloudy"
"1957-02-18 05:00","1957","02","18","05:00","-5.6","","-7.2","","88","","23","","16","","24.1","","99.57","","","","-12","","Mainly Clear"
"1957-02-18 06:00","1957","02","18","06:00","-5.0","","-6.7","","88","","20","","8","","24.1","","99.52","","","","-9","","Mostly Cloudy"
"1957-02-18 07:00","1957","02","18","07:00","-6.1","","-8.3","","84","","18","","16","","8.0","","99.52","","","","-12","","Haze"
"1957-02-18 08:00","1957","02","18","08:00","-6.1","","-8.3","","84","","20","","14","","8.0","","99.52","","","","-12","","Haze"
"1957-02-18 09:00","1957","02","18","09:00","-5.6","","-7.2","","88","","20","","13","","9.7","","99.48","","","","-11","","Haze"
"1957-02-18 10:00","1957","02","18","10:00","-3.3","","-5.6","","85","","18","","16","","8.0","","99.32","","","","-9","","Haze"
"1957-02-18 11:00","1957","02","18","11:00","-2.2","","-5.0","","81","","18","","23","","6.4","","99.28","","","","-8","","Haze"
"1957-02-18 12:00","1957","02","18","12:00","-1.7","","-5.0","","78","","16","","14","","3.2","","99.15","","","","-6","","Snow,Haze"
"1957-02-18 13:00","1957","02","18","13:00","-1.7","","-3.3","","88","","20","","14","","4.0","","99.11","","","","-6","","Haze"
"1957-02-18 14:00","1957","02","18","14:00","-0.6","","-2.2","","88","","18","","13","","4.0","","98.97","","","","-5","","Haze"
"1957-02-18 15:00","1957","02","18","15:00","1.1","","-2.8","","75","","23","","16","","11.3","","98.91","","","","","","Cloudy"
"1957-02-18 16:00","1957","02","18","16:00","0.6","","-0.6","","92","","25","","31","","11.3","","98.96","","","","","","Mostly Cloudy"
"1957-02-18 17:00","1957","02","18","17:00","0.6","","-1.7","","85","","25","","19","","11.3","","99.02","","","","","","Mostly Cloudy"
"1957-02-18 18:00","1957","02","18","18:00","-1.7","","-4.4","","81","","25","","13","","9.7","","99.10","","","","-6","","Haze"
"1957-02-18 19:00","1957","02","18","19:00","-3.3","","-5.6","","85","","25","","13","","16.1","","99.14","","","","-8","","Mainly Clear"
"1957-02-18 20:00","1957","02","18","20:00","-2.2","","-5.6","","78","","20","","11","","16.1","","99.15","","","","-6","","Mostly Cloudy"
"1957-02-18 21:00","1957","02","18","21:00","-2.2","","-5.0","","81","","20","","11","","12.9","","99.16","","","","-6","","Snow Showers"
"1957-02-18 22:00","1957","02","18","22:00","-3.3","","-5.0","","88","","20","","16","","16.1","","99.19","","","","-9","","Mainly Clear"
"1957-02-18 23:00","1957","02","18","23:00","-5.0","","-7.2","","84","","23","","14","","16.1","","99.19","","","","-10","","Clear"
"1957-02-19 00:00","1957","02","19","00:00","-5.0","","-6.1","","92","","27","","23","","24.1","","99.21","","","","-12","","Clear"
"1957-02-19 01:00","1957","02","19","01:00","-5.6","","-7.2","","88","","27","","13","","24.1","","99.24","","","","-11","","Mainly Clear"
"1957-02-19 02:00","1957","02","19","02:00","-7.2","","-8.9","","88","","23","","11","","24.1","","99.31","","","","-12","","Mostly Cloudy"
"1957-02-19 03:00","1957","02","19","03:00","-6.1","","-7.8","","92","","25","","11","","24.1","","99.35","","","","-11","","Mostly Cloudy"
"1957-02-19 04:00","1957","02","19","04:00","-7.8","","-9.4","","88","","23","","11","","19.3","","99.38","","","","-13","","Mainly Clear"
"1957-02-19 05:00","1957","02","19","05:00","-9.4","","-11.1","","88","","25","","13","","19.3","","99.44","","","","-15","","Clear"
"1957-02-19 06:00","1957","02","19","06:00","-10.0","","-11.7","","88","","25","","18","","16.1","","99.50","","","","-17","","Mostly Cloudy"
"1957-02-19 07:00","1957","02","19","07:00","-7.8","","-9.4","","88","","27","","13","","24.1","","99.53","","","","-14","","Mostly Cloudy"
"1957-02-19 08:00","1957","02","19","08:00","-6.7","","-8.9","","84","","25","","10","","25.0","","99.62","","","","-11","","Mostly Cloudy"
"1957-02-19 09:00","1957","02","19","09:00","-5.0","","-7.8","","81","","27","","16","","25.0","","99.69","","","","-11","","Mainly Clear"
"1957-02-19 10:00","1957","02","19","10:00","-4.4","","-9.4","","68","","29","","26","","25.0","","99.73","","","","-12","","Mainly Clear"
"1957-02-19 11:00","1957","02","19","11:00","-4.4","","-8.3","","74","","29","","24","","25.0","","99.74","","","","-11","","Mostly Cloudy"
"1957-02-19 12:00","1957","02","19","12:00","-3.3","","-8.3","","68","","29","","32","","25.0","","99.70","","","","-11","","Mainly Clear"
"1957-02-19 13:00","1957","02","19","13:00","-2.8","","-6.7","","75","","29","","29","","25.0","","99.67","","","","-10","","Mainly Clear"
"1957-02-19 14:00","1957","02","19","14:00","-2.2","","-4.4","","85","","27","","24","","25.0","","99.61","","","","-9","","Mostly Cloudy"
"1957-02-19 15:00","1957","02","19","15:00","-2.8","","-7.2","","72","","29","","26","","25.0","","99.66","","","","-10","","Mainly Clear"
"1957-02-19 16:00","1957","02","19","16:00","-2.8","","-6.7","","75","","29","","18","","25.0","","99.70","","","","-8","","Snow Showers"
"1957-02-19 17:00","1957","02","19","17:00","-3.3","","-6.7","","78","","29","","16","","25.0","","99.72","","","","-9","","Mainly Clear"
"1957-02-19 18:00","1957","02","19","18:00","-5.6","","-9.4","","74","","27","","14","","25.0","","99.72","","","","-11","","Mainly Clear"
"1957-02-19 19:00","1957","02","19","19:00","-5.6","","-9.4","","74","","29","","19","","25.0","","99.76","","","","-12","","Clear"
"1957-02-19 20:00","1957","02","19","20:00","-7.2","","-11.1","","74","","29","","24","","25.0","","99.77","","","","-15","","Clear"
"1957-02-19 21:00","1957","02","19","21:00","-7.8","","-12.2","","70","","27","","21","","25.0","","99.77","","","","-15","","Clear"
"1957-02-19 22:00","1957","02","19","22:00","-7.8","","-12.2","","70","","29","","19","","25.0","","99.74","","","","-15","","Clear"
"1957-02-19 23:00","1957","02","19","23:00","-7.8","","-11.1","","77","","29","","24","","25.0","","99.73","","","","-16","","Clear"
"1957-02-20 00:00","1957","02","20","00:00","-7.2","","-11.1","","74","","29","","35","","25.0","","99.74","","","","-16","","Clear"
"1957-02-20 01:00","1957","02","20","01:00","-7.2","","-10.6","","77","","29","","35","","25.0","","99.75","","","","-16","","Clear"
"1957-02-20 02:00","1957","02","20","02:00","-7.2","","-10.6","","77","","27","","29","","25.0","","99.78","","","","-16","","Snow Showers"
"1957-02-20 03:00","1957","02","20","03:00","-7.2","","-11.1","","74","","27","","23","","25.0","","99.79","","","","-15","","Mainly Clear"
"1957-02-20 04:00","1957","02","20","04:00","-7.8","","-11.1","","77","","27","","24","","25.0","","99.82","","","","-16","","Mostly Cloudy"
"1957-02-20 05:00","1957","02","20","05:00","-7.2","","-10.6","","77","","27","","29","","25.0","","99.87","","","","-16","","Cloudy"
"1957-02-20 06:00","1957","02","20","06:00","-7.2","","-10.6","","77","","27","","39","","25.0","","99.92","","","","-17","","Cloudy"
"1957-02-20 07:00","1957","02","20","07:00","-6.7","","-10.6","","74","","29","","32","","24.1","","99.98","","","","-15","","Snow Showers"
"1957-02-20 08:00","1957","02","20","08:00","-7.2","","-11.1","","74","","27","","32","","16.1","","100.06","","","","-16","","Snow Showers"
"1957-02-20 09:00","1957","02","20","09:00","-6.7","","-10.0","","77","","29","","23","","4.8","","100.09","","","","-14","","Snow Showers"
"1957-02-20 10:00","1957","02","20","10:00","-5.6","","-9.4","","74","","32","","26","","16.1","","100.12","","","","-13","","Snow Showers"
"1957-02-20 11:00","1957","02","20","11:00","-4.4","","-9.4","","68","","29","","29","","25.0","","100.14","","","","-12","","Mostly Cloudy"
"1957-02-20 12:00","1957","02","20","12:00","-5.0","","-9.4","","71","","29","","27","","25.0","","100.15","","","","-13","","Mainly Clear"
"1957-02-20 13:00","1957","02","20","13:00","-3.9","","-6.7","","81","","29","","26","","25.0","","100.11","","","","-11","","Mostly Cloudy"
"1957-02-20 14:00","1957","02","20","14:00","-3.3","","-6.1","","81","","29","","26","","25.0","","100.13","","","","-10","","Mostly Cloudy"
"1957-02-20 15:00","1957","02","20","15:00","-3.3","","-7.8","","71","","29","","26","","25.0","","100.16","","","","-10","","Mainly Clear"
"1957-02-20 16:00","1957","02","20","16:00","-3.9","","-6.7","","81","","34","","19","","25.0","","100.20","","","","-10","","Mainly Clear"
"1957-02-20 17:00","1957","02","20","17:00","-5.6","","-7.2","","88","","36","","16","","25.0","","100.22","","","","-12","","Mainly Clear"
"1957-02-20 18:00","1957","02","20","18:00","-6.1","","-9.4","","77","","29","","10","","25.0","","100.30","","","","-11","","Mainly Clear"
"1957-02-20 19:00","1957","02","20","19:00","-6.7","","-8.9","","84","","34","","8","","24.1","","100.37","","","","-11","","Mainly Clear"
"1957-02-20 20:00","1957","02","20","20:00","-7.2","","-9.4","","84","","34","","13","","25.0","","100.40","","","","-13","","Mainly Clear"
"1957-02-20 21:00","1957","02","20","21:00","-9.4","","-12.8","","77","","27","","13","","25.0","","100.44","","","","-15","","Mainly Clear"
"1957-02-20 22:00","1957","02","20","22:00","-8.3","","-11.1","","80","","27","","13","","25.0","","100.47","","","","-14","","Mainly Clear"
"1957-02-20 23:00","1957","02","20","23:00","-8.9","","-11.7","","80","","25","","8","","25.0","","100.46","","","","-13","","Mainly Clear"
"1957-02-21 00:00","1957","02","21","00:00","-10.0","","-12.2","","87","","25","","10","","25.0","","100.52","","","","-15","","Clear"
"1957-02-21 01:00","1957","02","21","01:00","-11.1","","-12.2","","91","","25","","10","","25.0","","100.53","","","","-17","","Clear"
"1957-02-21 02:00","1957","02","21","02:00","-8.3","","-10.0","","88","","23","","6","","25.0","","100.52","","","","-12","","Clear"
"1957-02-21 03:00","1957","02","21","03:00","-10.0","","-11.7","","88","","25","","8","","25.0","","100.52","","","","-14","","Clear"
"1957-02-21 04:00","1957","02","21","04:00","-12.2","","-13.9","","87","","27","","8","","25.0","","100.57","","","","-17","","Clear"
"1957-02-21 05:00","1957","02","21","05:00","-10.0","","-11.1","","92","","27","","8","","25.0","","100.61","","","","-14","","Clear"
"1957-02-21 06:00","1957","02","21","06:00","-10.6","","-11.1","","96","","27","","5","","25.0","","100.61","","","","-14","","Clear"
"1957-02-21 07:00","1957","02","21","07:00","-12.8","","-13.9","","91","","","","0","","25.0","","100.64","","","","","","Clear"
"1957-02-21 08:00","1957","02","21","08:00","-10.0","","-11.7","","88","","","","0","","16.1","","100.68","","","","","","Clear"
"1957-02-21 09:00","1957","02","21","09:00","-7.2","","-9.4","","84","","9","","3","","25.0","","100.71","","","","-9","","Clear"
"1957-02-21 10:00","1957","02","21","10:00","-3.9","","-7.2","","78","","36","","3","","25.0","","100.71","","","","-5","","Clear"
"1957-02-21 11:00","1957","02","21","11:00","-3.3","","-6.7","","78","","36","","6","","25.0","","100.73","","","","-6","","Mostly Cloudy"
"1957-02-21 12:00","1957","02","21","12:00","-1.1","","-6.1","","69","","18","","3","","25.0","","100.69","","","","-2","","Mostly Cloudy"
"1957-02-21 13:00","1957","02","21","13:00","-0.6","","-5.6","","69","","18","","3","","25.0","","100.63","","","","-2","","Cloudy"
"1957-02-21 14:00","1957","02","21","14:00","0.6","","-6.7","","58","","16","","3","","25.0","","100.62","","","","","","Cloudy"
"1957-02-21 15:00","1957","02","21","15:00","0.6","","-6.7","","58","","16","","6","","25.0","","100.62","","","","","","Cloudy"
"1957-02-21 16:00","1957","02","21","16:00","0.6","","-4.4","","69","","14","","11","","25.0","","100.61","","","","","","Mostly Cloudy"
"1957-02-21 17:00","1957","02","21","17:00","0.0","","-4.4","","72","","14","","8","","19.3","","100.62","","","","-3","","Cloudy"
"1957-02-21 18:00","1957","02","21","18:00","-0.6","","-4.4","","75","","16","","10","","19.3","","100.66","","","","-4","","Mostly Cloudy"
"1957-02-21 19:00","1957","02","21","19:00","-1.7","","-5.6","","75","","18","","6","","19.3","","100.71","","","","-4","","Mostly Cloudy"
"1957-02-21 20:00","1957","02","21","20:00","-2.8","","-6.1","","78","","16","","10","","19.3","","100.72","","","","-7","","Mainly Clear"
"1957-02-21 21:00","1957","02","21","21:00","-3.9","","-6.7","","81","","16","","3","","19.3","","100.72","","","","-5","","Clear"
"1957-02-21 22:00","1957","02","21","22:00","-3.9","","-6.7","","81","","23","","6","","16.1","","100.73","","","","-7","","Mostly Cloudy"
"1957-02-21 23:00","1957","02","21","23:00","-3.9","","-6.1","","85","","25","","6","","9.7","","100.72","","","","-7","","Haze"
"1957-02-22 00:00","1957","02","22","00:00","-3.9","","-6.1","","85","","","","0","","9.7","","100.70","","","","","","Haze"
"1957-02-22 01:00","1957","02","22","01:00","-3.9","","-5.6","","88","","","","0","","8.0","","100.66","","","","","","Haze"
"1957-02-22 02:00","1957","02","22","02:00","-3.3","","-5.0","","88","","","","0","","4.8","","100.64","","","","","","Haze"
"1957-02-22 03:00","1957","02","22","03:00","-3.3","","-5.6","","85","","14","","3","","6.4","","100.62","","","","-5","","Haze"
"1957-02-22 04:00","1957","02","22","04:00","-4.4","","-5.6","","92","","","","0","","4.8","","100.65","","","","","","Haze"
"1957-02-22 05:00","1957","02","22","05:00","-4.4","","-6.1","","88","","","","0","","4.8","","100.66","","","","","","Haze"
"1957-02-22 06:00","1957","02","22","06:00","-4.4","","-6.1","","88","","2","","5","","6.4","","100.66","","","","-7","","Haze"
"1957-02-22 07:00","1957","02","22","07:00","-4.4","","-5.6","","92","","36","","8","","2.0","","100.70","","","","-8","","Fog"
"1957-02-22 08:00","1957","02","22","08:00","-3.3","","-3.9","","96","","","","0","","2.0","","100.71","","","","","","Fog"
"1957-02-22 09:00","1957","02","22","09:00","-1.7","","-3.3","","88","","9","","3","","2.0","","100.67","","","","-3","","Smoke,Haze"
"1957-02-22 10:00","1957","02","22","10:00","0.6","","-2.8","","78","","25","","5","","2.4","","100.66","","","","","","Smoke,Haze"
"1957-02-22 11:00","1957","02","22","11:00","1.7","","-3.3","","69","","14","","3","","2.4","","100.63","","","","","","Smoke,Haze"
"1957-02-22 12:00","1957","02","22","12:00","2.8","","-3.9","","61","","14","","8","","4.8","","100.61","","","","","","Smoke,Haze"
"1957-02-22 13:00","1957","02","22","13:00","2.8","","-3.9","","61","","14","","10","","6.4","","100.53","","","","","","Smoke,Haze"
"1957-02-22 14:00","1957","02","22","14:00","2.8","","-4.4","","59","","11","","6","","9.7","","100.44","","","","","","Smoke,Haze"
"1957-02-22 15:00","1957","02","22","15:00","3.3","","-3.3","","62","","14","","6","","9.7","","100.49","","","","","","Smoke,Haze"
"1957-02-22 16:00","1957","02","22","16:00","2.8","","-3.3","","64","","16","","6","","6.4","","100.48","","","","","","Smoke,Haze"
"1957-02-22 17:00","1957","02","22","17:00","1.7","","-2.2","","75","","16","","8","","6.4","","100.49","","","","","","Smoke,Haze"
"1957-02-22 18:00","1957","02","22","18:00","1.7","","-1.7","","78","","16","","6","","6.4","","100.54","","","","","","Smoke,Haze"
"1957-02-22 19:00","1957","02","22","19:00","1.1","","-2.8","","75","","16","","3","","9.7","","100.56","","","","","","Smoke,Haze"
"1957-02-22 20:00","1957","02","22","20:00","0.6","","-2.2","","82","","18","","3","","8.0","","100.62","","","","","","Smoke,Haze"
"1957-02-22 21:00","1957","02","22","21:00","1.1","","-2.2","","78","","18","","3","","8.0","","100.63","","","","","","Smoke,Haze"
"1957-02-22 22:00","1957","02","22","22:00","0.6","","-1.7","","85","","","","0","","6.4","","100.63","","","","","","Smoke,Haze"
"1957-02-22 23:00","1957","02","22","23:00","0.6","","-1.1","","88","","","","0","","6.4","","100.59","","","","","","Smoke,Haze"
"1957-02-23 00:00","1957","02","23","00:00","0.0","","-0.6","","96","","","","0","","6.4","","100.58","","","","","","Smoke,Haze"
"1957-02-23 01:00","1957","02","23","01:00","0.0","","-1.1","","92","","","","0","","6.4","","100.56","","","","","","Smoke,Haze"
"1957-02-23 02:00","1957","02","23","02:00","-0.6","","-1.7","","92","","","","0","","6.4","","100.59","","","","","","Smoke,Haze"
"1957-02-23 03:00","1957","02","23","03:00","0.0","","-1.7","","88","","34","","5","","6.4","","100.57","","","","-2","","Smoke,Haze"
"1957-02-23 04:00","1957","02","23","04:00","0.0","","-1.7","","88","","34","","13","","6.4","","100.55","","","","-4","","Smoke,Haze"
"1957-02-23 05:00","1957","02","23","05:00","0.6","","-2.2","","82","","34","","11","","6.4","","100.55","","","","","","Smoke,Haze"
"1957-02-23 06:00","1957","02","23","06:00","0.0","","-2.2","","85","","29","","8","","6.4","","100.59","","","","-3","","Smoke,Haze"
"1957-02-23 07:00","1957","02","23","07:00","0.0","","-2.2","","85","","27","","5","","3.2","","100.61","","","","-2","","Smoke,Haze"
"1957-02-23 08:00","1957","02","23","08:00","-0.6","","-2.8","","85","","25","","6","","3.2","","100.64","","","","-3","","Smoke,Haze"
"1957-02-23 09:00","1957","02","23","09:00","0.0","","-1.7","","88","","23","","5","","3.2","","100.68","","","","-2","","Snow Showers,Fog"
"1957-02-23 10:00","1957","02","23","10:00","0.0","","-1.7","","88","","23","","6","","2.4","","100.70","","","","-2","","Snow Showers"
"1957-02-23 11:00","1957","02","23","11:00","0.6","","-1.1","","88","","27","","16","","2.4","","100.74","","","","","","Snow"
"1957-02-23 12:00","1957","02","23","12:00","0.6","","-3.9","","72","","29","","21","","12.9","","100.73","","","","","","Cloudy"
"1957-02-23 13:00","1957","02","23","13:00","-1.1","","-2.8","","88","","32","","19","","16.1","","100.76","","","","-6","","Cloudy"
"1957-02-23 14:00","1957","02","23","14:00","-1.7","","-5.6","","75","","34","","18","","19.3","","100.75","","","","-7","","Cloudy"
"1957-02-23 15:00","1957","02","23","15:00","-1.7","","-5.6","","75","","32","","18","","25.0","","100.79","","","","-7","","Mostly Cloudy"
"1957-02-23 16:00","1957","02","23","16:00","-3.3","","-7.2","","74","","36","","16","","25.0","","100.81","","","","-9","","Mostly Cloudy"
"1957-02-23 17:00","1957","02","23","17:00","-4.4","","-8.3","","74","","36","","8","","24.1","","100.86","","","","-8","","Mostly Cloudy"
"1957-02-23 18:00","1957","02","23","18:00","-5.0","","-8.3","","77","","36","","10","","24.1","","100.97","","","","-9","","Mainly Clear"
"1957-02-23 19:00","1957","02","23","19:00","-5.6","","-7.8","","84","","36","","16","","24.1","","101.07","","","","-12","","Mainly Clear"
"1957-02-23 20:00","1957","02","23","20:00","-6.1","","-8.9","","81","","36","","8","","24.1","","101.15","","","","-10","","Mainly Clear"
"1957-02-23 21:00","1957","02","23","21:00","-6.7","","-8.9","","84","","27","","3","","19.3","","101.12","","","","-8","","Mainly Clear"
"1957-02-23 22:00","1957","02","23","22:00","-6.7","","-8.9","","84","","","","0","","16.1","","101.11","","","","","","Mostly Cloudy"
"1957-02-23 23:00","1957","02","23","23:00","-7.2","","-10.0","","81","","","","0","","24.1","","101.07","","","","","","Mostly Cloudy"
"1957-02-24 00:00","1957","02","24","00:00","-7.2","","-9.4","","84","","","","0","","24.1","","100.96","","","","","","Mostly Cloudy"
"1957-02-24 01:00","1957","02","24","01:00","-6.7","","-7.8","","92","","","","0","","24.1","","101.10","","","","","","Mostly Cloudy"
"1957-02-24 02:00","1957","02","24","02:00","-6.7","","-7.8","","92","","","","0","","24.1","","101.10","","","","","","Cloudy"
"1957-02-24 03:00","1957","02","24","03:00","-6.1","","-7.8","","88","","","","0","","24.1","","101.05","","","","","","Cloudy"
"1957-02-24 04:00","1957","02","24","04:00","-6.1","","-7.8","","88","","36","","3","","25.0","","101.04","","","","-8","","Cloudy"
"1957-02-24 05:00","1957","02","24","05:00","-6.1","","-7.8","","88","","36","","3","","24.1","","101.03","","","","-8","","Cloudy"
"1957-02-24 06:00","1957","02","24","06:00","-5.0","","-7.8","","81","","36","","3","","24.1","","100.98","","","","-6","","Cloudy"
"1957-02-24 07:00","1957","02","24","07:00","-4.4","","-6.1","","88","","36","","3","","16.1","","100.87","","","","-6","","Cloudy"
"1957-02-24 08:00","1957","02","24","08:00","-4.4","","-6.1","","88","","11","","16","","16.1","","100.93","","","","-10","","Cloudy"
"1957-02-24 09:00","1957","02","24","09:00","-2.2","","-3.9","","88","","14","","14","","24.1","","100.87","","","","-7","","Cloudy"
"1957-02-24 10:00","1957","02","24","10:00","-1.7","","-5.0","","78","","14","","19","","24.1","","100.76","","","","-7","","Cloudy"
"1957-02-24 11:00","1957","02","24","11:00","-1.1","","-3.9","","81","","16","","16","","4.0","","100.70","","","","-6","","Smoke,Haze"
"1957-02-24 12:00","1957","02","24","12:00","-0.6","","-4.4","","75","","14","","13","","6.4","","100.66","","","","-5","","Smoke,Haze"
"1957-02-24 13:00","1957","02","24","13:00","-0.6","","-3.9","","78","","14","","16","","6.4","","100.55","","","","-5","","Smoke,Haze"
"1957-02-24 14:00","1957","02","24","14:00","-0.6","","-3.9","","78","","14","","13","","6.4","","100.41","","","","-5","","Rain Showers,Smoke,Haze"
"1957-02-24 15:00","1957","02","24","15:00","-0.6","","-2.2","","88","","11","","14","","8.0","","100.32","","","","-5","","Rain,Haze"
"1957-02-24 16:00","1957","02","24","16:00","0.0","","-1.1","","92","","14","","10","","6.4","","100.30","","","","-3","","Rain,Fog"
"1957-02-24 17:00","1957","02","24","17:00","0.0","","-1.7","","88","","14","","13","","8.0","","100.22","","","","-4","","Fog"
"1957-02-24 18:00","1957","02","24","18:00","0.6","","-1.7","","85","","14","","10","","8.0","","100.13","","","","","","Smoke"
"1957-02-24 19:00","1957","02","24","19:00","0.6","","-1.1","","88","","18","","3","","8.0","","100.12","","","","","","Smoke"
"1957-02-24 20:00","1957","02","24","20:00","0.6","","-1.1","","88","","14","","6","","8.0","","100.00","","","","","","Smoke"
"1957-02-24 21:00","1957","02","24","21:00","0.6","","-0.6","","92","","14","","3","","9.7","","99.96","","","","","","Fog,Smoke"
"1957-02-24 22:00","1957","02","24","22:00","0.6","","-0.6","","92","","23","","3","","4.8","","99.84","","","","","","Fog,Smoke"
"1957-02-24 23:00","1957","02","24","23:00","0.0","","0.0","","100","","","","0","","4.8","","99.74","","","","","","Rain,Fog,Smoke"
"1957-02-25 00:00","1957","02","25","00:00","0.0","","-1.1","","92","","","","0","","4.8","","99.69","","","","","","Fog"
"1957-02-25 01:00","1957","02","25","01:00","0.6","","-0.6","","92","","","","0","","4.8","","99.61","","","","","","Fog"
"1957-02-25 02:00","1957","02","25","02:00","0.6","","-0.6","","92","","16","","5","","4.8","","99.52","","","","","","Fog"
"1957-02-25 03:00","1957","02","25","03:00","1.1","","0.0","","92","","16","","8","","4.8","","99.46","","","","","","Rain Showers,Fog"
"1957-02-25 04:00","1957","02","25","04:00","1.7","","0.6","","92","","14","","3","","4.8","","99.42","","","","","","Rain,Fog"
"1957-02-25 05:00","1957","02","25","05:00","3.3","","2.2","","92","","18","","16","","4.8","","99.39","","","","","","Rain,Fog"
"1957-02-25 06:00","1957","02","25","06:00","3.9","","2.8","","92","","18","","13","","2.4","","99.38","","","","","","Rain,Fog"
"1957-02-25 07:00","1957","02","25","07:00","4.4","","3.3","","93","","18","","13","","1.2","","99.34","","","","","","Fog"
"1957-02-25 08:00","1957","02","25","08:00","5.0","","3.9","","93","","18","","19","","4.0","","99.32","","","","","","Fog"
"1957-02-25 09:00","1957","02","25","09:00","6.1","","3.9","","86","","18","","19","","4.0","","99.30","","","","","","Fog"
"1957-02-25 10:00","1957","02","25","10:00","6.1","","3.9","","86","","20","","19","","6.4","","99.29","","","","","","Fog"
"1957-02-25 11:00","1957","02","25","11:00","7.8","","5.0","","82","","18","","13","","8.0","","99.25","","","","","","Haze"
"1957-02-25 12:00","1957","02","25","12:00","9.4","","5.6","","77","","20","","19","","8.0","","99.23","","","","","","Haze"
"1957-02-25 13:00","1957","02","25","13:00","10.0","","6.1","","77","","18","","11","","8.0","","99.17","","","","","","Haze"
"1957-02-25 14:00","1957","02","25","14:00","10.0","","5.0","","71","","16","","10","","8.0","","99.12","","","","","","Haze"
"1957-02-25 15:00","1957","02","25","15:00","9.4","","5.6","","77","","16","","8","","8.0","","99.10","","","","","","Haze"
"1957-02-25 16:00","1957","02","25","16:00","8.3","","5.0","","80","","18","","5","","8.0","","99.09","","","","","","Haze"
"1957-02-25 17:00","1957","02","25","17:00","8.3","","5.0","","80","","18","","10","","6.4","","99.07","","","","","","Haze"
"1957-02-25 18:00","1957","02","25","18:00","7.2","","5.0","","86","","23","","5","","6.4","","99.13","","","","","","Haze"
"1957-02-25 19:00","1957","02","25","19:00","7.2","","5.0","","86","","23","","8","","12.9","","99.14","","","","","","Cloudy"
"1957-02-25 20:00","1957","02","25","20:00","7.2","","5.6","","89","","27","","8","","8.0","","99.12","","","","","","Rain Showers,Fog"
"1957-02-25 21:00","1957","02","25","21:00","6.7","","5.6","","93","","23","","11","","8.0","","99.09","","","","","","Rain Showers,Fog"
"1957-02-25 22:00","1957","02","25","22:00","6.1","","5.6","","96","","25","","10","","6.4","","99.08","","","","","","Rain Showers,Fog"
"1957-02-25 23:00","1957","02","25","23:00","6.7","","5.6","","93","","23","","8","","4.0","","99.07","","","","","","Rain Showers,Fog"
"1957-02-26 00:00","1957","02","26","00:00","5.0","","5.0","","100","","34","","5","","3.2","","99.05","","","","","","Rain Showers,Fog"
"1957-02-26 01:00","1957","02","26","01:00","5.6","","5.6","","100","","36","","5","","0.8","","99.07","","","","","","Rain,Fog"
"1957-02-26 02:00","1957","02","26","02:00","5.6","","5.6","","100","","23","","6","","0.0","","99.06","","","","","","Rain,Fog"
"1957-02-26 03:00","1957","02","26","03:00","4.4","","4.4","","100","","23","","3","","0.0","","99.05","","","","","","Rain,Fog"
"1957-02-26 04:00","1957","02","26","04:00","3.3","","3.3","","100","","","","0","","0.0","","99.03","","","","","","Fog"
"1957-02-26 05:00","1957","02","26","05:00","3.9","","3.9","","100","","","","0","","0.0","","99.05","","","","","","Fog"
"1957-02-26 06:00","1957","02","26","06:00","3.9","","3.9","","100","","","","0","","0.0","","99.04","","","","","","Fog"
"1957-02-26 07:00","1957","02","26","07:00","3.9","","3.9","","100","","36","","5","","0.0","","99.03","","","","","","Fog"
"1957-02-26 08:00","1957","02","26","08:00","3.9","","3.9","","100","","36","","5","","0.0","","99.03","","","","","","Fog"
"1957-02-26 09:00","1957","02","26","09:00","4.4","","4.4","","100","","34","","13","","1.6","","99.05","","","","","","Fog"
"1957-02-26 10:00","1957","02","26","10:00","3.9","","3.9","","100","","32","","19","","4.8","","99.01","","","","","","Fog"
"1957-02-26 11:00","1957","02","26","11:00","3.9","","3.9","","100","","32","","19","","4.8","","98.95","","","","","","Fog"
"1957-02-26 12:00","1957","02","26","12:00","3.9","","3.3","","96","","34","","23","","8.0","","98.93","","","","","","Fog"
"1957-02-26 13:00","1957","02","26","13:00","3.3","","2.8","","96","","34","","29","","8.0","","98.80","","","","","","Rain Showers,Fog"
"1957-02-26 14:00","1957","02","26","14:00","2.8","","2.2","","96","","34","","26","","6.4","","98.74","","","","","","Rain Showers,Fog"
"1957-02-26 15:00","1957","02","26","15:00","2.8","","1.7","","92","","34","","35","","8.0","","98.69","","","","","","Rain,Fog"
"1957-02-26 16:00","1957","02","26","16:00","2.2","","1.1","","92","","34","","35","","6.4","","98.61","","","","","","Rain,Fog"
"1957-02-26 17:00","1957","02","26","17:00","2.2","","1.7","","96","","34","","32","","6.4","","98.55","","","","","","Rain,Fog"
"1957-02-26 18:00","1957","02","26","18:00","2.2","","1.7","","96","","34","","29","","9.7","","98.53","","","","","","Rain,Fog"
"1957-02-26 19:00","1957","02","26","19:00","2.8","","1.7","","92","","34","","29","","12.9","","98.56","","","","","","Rain"
"1957-02-26 20:00","1957","02","26","20:00","2.8","","1.7","","92","","34","","31","","16.1","","98.54","","","","","","Rain"
"1957-02-26 21:00","1957","02","26","21:00","2.2","","1.7","","96","","34","","31","","19.3","","98.53","","","","","","Rain"
"1957-02-26 22:00","1957","02","26","22:00","2.2","","1.1","","92","","34","","27","","19.3","","98.60","","","","","","Rain"
"1957-02-26 23:00","1957","02","26","23:00","1.7","","0.6","","92","","34","","29","","19.3","","98.62","","","","","","Rain"
"1957-02-27 00:00","1957","02","27","00:00","1.7","","0.6","","92","","34","","29","","25.0","","98.68","","","","","","Rain"
"1957-02-27 01:00","1957","02","27","01:00","0.6","","-2.2","","82","","34","","29","","25.0","","98.70","","","","","","Rain"
"1957-02-27 02:00","1957","02","27","02:00","-1.1","","-4.4","","78","","34","","32","","25.0","","98.76","","","","-8","","Cloudy"
"1957-02-27 03:00","1957","02","27","03:00","-3.3","","-5.6","","85","","34","","35","","25.0","","98.85","","","","-11","","Mostly Cloudy"
"1957-02-27 04:00","1957","02","27","04:00","-5.0","","-8.3","","77","","34","","32","","25.0","","98.99","","","","-13","","Mainly Clear"
"1957-02-27 05:00","1957","02","27","05:00","-6.1","","-9.4","","77","","34","","32","","25.0","","99.11","","","","-15","","Mainly Clear"
"1957-02-27 06:00","1957","02","27","06:00","-7.8","","-11.1","","77","","34","","35","","25.0","","99.22","","","","-17","","Mainly Clear"
"1957-02-27 07:00","1957","02","27","07:00","-9.4","","-12.8","","77","","34","","39","","25.0","","99.38","","","","-20","","Mainly Clear"
"1957-02-27 08:00","1957","02","27","08:00","-10.0","","-15.0","","67","","36","","35","","25.0","","99.54","","","","-20","","Mainly Clear"
"1957-02-27 09:00","1957","02","27","09:00","-10.0","","-15.6","","64","","36","","39","","25.0","","99.63","","","","-21","","Mostly Cloudy"
"1957-02-27 10:00","1957","02","27","10:00","-10.0","","-16.1","","61","","36","","27","","25.0","","99.73","","","","-19","","Mostly Cloudy"
"1957-02-27 11:00","1957","02","27","11:00","-8.3","","-15.0","","59","","36","","32","","25.0","","99.75","","","","-18","","Mostly Cloudy"
"1957-02-27 12:00","1957","02","27","12:00","-8.3","","-15.6","","56","","36","","34","","25.0","","99.78","","","","-18","","Mostly Cloudy"
"1957-02-27 13:00","1957","02","27","13:00","-7.8","","-14.4","","59","","36","","31","","25.0","","99.79","","","","-17","","Mostly Cloudy"
"1957-02-27 14:00","1957","02","27","14:00","-6.7","","-12.2","","65","","36","","24","","25.0","","99.83","","","","-14","","Mostly Cloudy"
"1957-02-27 15:00","1957","02","27","15:00","-6.1","","-11.7","","65","","36","","29","","25.0","","99.91","","","","-14","","Mainly Clear"
"1957-02-27 16:00","1957","02","27","16:00","-6.1","","-11.7","","65","","2","","26","","25.0","","99.97","","","","-14","","Mainly Clear"
"1957-02-27 17:00","1957","02","27","17:00","-5.6","","-10.0","","71","","36","","21","","25.0","","100.00","","","","-12","","Mainly Clear"
"1957-02-27 18:00","1957","02","27","18:00","-6.7","","-11.1","","71","","36","","19","","25.0","","100.05","","","","-14","","Mainly Clear"
"1957-02-27 19:00","1957","02","27","19:00","-6.7","","-11.1","","71","","36","","16","","25.0","","100.09","","","","-13","","Clear"
"1957-02-27 20:00","1957","02","27","20:00","-7.2","","-11.7","","71","","36","","14","","25.0","","100.16","","","","-13","","Clear"
"1957-02-27 21:00","1957","02","27","21:00","-7.8","","-12.2","","70","","36","","10","","25.0","","100.22","","","","-13","","Clear"
"1957-02-27 22:00","1957","02","27","22:00","-7.8","","-12.2","","70","","36","","8","","25.0","","100.29","","","","-12","","Clear"
"1957-02-27 23:00","1957","02","27","23:00","-8.3","","-12.2","","74","","5","","18","","25.0","","100.29","","","","-15","","Clear"
"1957-02-28 00:00","1957","02","28","00:00","-8.3","","-13.3","","67","","5","","13","","25.0","","100.26","","","","-14","","Clear"
"1957-02-28 01:00","1957","02","28","01:00","-8.9","","-13.9","","67","","5","","18","","25.0","","100.24","","","","-16","","Clear"
"1957-02-28 02:00","1957","02","28","02:00","-9.4","","-14.4","","67","","5","","16","","25.0","","100.24","","","","-16","","Clear"
"1957-02-28 03:00","1957","02","28","03:00","-10.0","","-14.4","","70","","5","","16","","25.0","","100.20","","","","-17","","Clear"
"1957-02-28 04:00","1957","02","28","04:00","-10.0","","-14.4","","70","","5","","14","","25.0","","100.16","","","","-16","","Clear"
"1957-02-28 05:00","1957","02","28","05:00","-10.6","","-14.4","","73","","5","","16","","25.0","","100.15","","","","-18","","Mainly Clear"
"1957-02-28 06:00","1957","02","28","06:00","-10.0","","-14.4","","70","","2","","16","","25.0","","100.10","","","","-17","","Mostly Cloudy"
"1957-02-28 07:00","1957","02","28","07:00","-10.0","","-13.9","","73","","5","","14","","19.3","","100.11","","","","-16","","Snow Showers"
"1957-02-28 08:00","1957","02","28","08:00","-9.4","","-12.8","","77","","2","","18","","19.3","","100.05","","","","-17","","Snow Showers"
"1957-02-28 09:00","1957","02","28","09:00","-8.3","","-11.7","","77","","2","","14","","19.3","","99.98","","","","-14","","Mostly Cloudy"
"1957-02-28 10:00","1957","02","28","10:00","-6.7","","-10.0","","77","","2","","16","","16.1","","99.92","","","","-13","","Mostly Cloudy"
"1957-02-28 11:00","1957","02","28","11:00","-5.0","","-7.8","","81","","5","","24","","19.3","","99.80","","","","-12","","Mostly Cloudy"
"1957-02-28 12:00","1957","02","28","12:00","-4.4","","-6.7","","84","","7","","32","","12.9","","99.60","","","","-12","","Mostly Cloudy"
"1957-02-28 13:00","1957","02","28","13:00","-4.4","","-6.1","","88","","7","","24","","12.9","","99.58","","","","-11","","Cloudy"
"1957-02-28 14:00","1957","02","28","14:00","-3.9","","-5.6","","88","","7","","21","","12.9","","99.44","","","","-10","","Mostly Cloudy"
"1957-02-28 15:00","1957","02","28","15:00","-3.9","","-5.6","","88","","7","","23","","12.9","","99.40","","","","-11","","Cloudy"
"1957-02-28 16:00","1957","02","28","16:00","-3.9","","-5.6","","88","","7","","26","","16.1","","99.31","","","","-11","","Cloudy"
"1957-02-28 17:00","1957","02","28","17:00","-2.8","","-5.0","","85","","7","","16","","16.1","","99.25","","","","-8","","Mostly Cloudy"
"1957-02-28 18:00","1957","02","28","18:00","-2.8","","-5.0","","85","","7","","10","","16.1","","99.16","","","","-7","","Mostly Cloudy"
"1957-02-28 19:00","1957","02","28","19:00","-2.8","","-4.4","","88","","5","","10","","19.3","","99.10","","","","-7","","Cloudy"
"1957-02-28 20:00","1957","02","28","20:00","-2.8","","-4.4","","88","","2","","10","","25.0","","99.04","","","","-7","","Cloudy"
"1957-02-28 21:00","1957","02","28","21:00","-2.8","","-5.0","","85","","2","","11","","25.0","","98.96","","","","-7","","Cloudy"
"1957-02-28 22:00","1957","02","28","22:00","-2.8","","-5.0","","85","","2","","10","","24.1","","98.86","","","","-7","","Cloudy"
"1957-02-28 23:00","1957","02","28","23:00","-2.8","","-4.4","","88","","36","","10","","19.3","","98.80","","","","-7","","Cloudy"
