"Station Name","TORONTO LESTER B. PEARSON INT'L A"
"Province","ONTARIO"
"Latitude","43.68"
"Longitude","-79.63"
"Elevation","173.40"
"Climate Identifier","6158733"
"WMO Identifier","71624"
"TC Identifier","YYZ"
"All times are specified in Local Standard Time (LST). Add 1 hour to adjust for Daylight Saving Time where and when it is observed."

"Legend"
"E","Estimated"
"M","Missing"
"NA","Not Available"

"Date/Time","Year","Month","Day","Time","Temp (°C)","Temp Flag","Dew Point Temp (°C)","Dew Point Temp Flag","Rel Hum (%)","Rel Hum Flag","Wind Dir (10s deg)","Wind Dir Flag","Wind Spd (km/h)","Wind Spd Flag","Visibility (km)","Visibility Flag","Stn Press (kPa)","Stn Press Flag","Hmdx","Hmdx Flag","Wind Chill","Wind Chill Flag","Weather"
"1973-12-01 00:00","1973","12","01","00:00","0.0","","-3.9","","76","","36","","27","","25.0","","100.57","","","","-6","","Mostly Cloudy"
"1973-12-01 01:00","1973","12","01","01:00","-0.6","","-6.7","","64","","36","","23","","25.0","","100.67","","","","-6","","Mostly Cloudy"
"1973-12-01 02:00","1973","12","01","02:00","-2.2","","-5.6","","78","","33","","14","","25.0","","100.81","","","","-7","","Mainly Clear"
"1973-12-01 03:00","1973","12","01","03:00","-2.8","","-6.7","","76","","33","","11","","25.0","","100.92","","","","-7","","Mostly Cloudy"
"1973-12-01 04:00","1973","12","01","04:00","-4.4","","-6.7","","84","","32","","11","","25.0","","101.01","","","","-9","","Mainly Clear"
"1973-12-01 05:00","1973","12","01","05:00","-4.4","","-7.8","","79","","32","","11","","25.0","","101.06","","","","-9","","Mainly Clear"
"1973-12-01 06:00","1973","12","01","06:00","-3.9","","-6.1","","84","","32","","14","","25.0","","101.11","","","","-9","","Mostly Cloudy"
"1973-12-01 07:00","1973","12","01","07:00","-5.0","","-6.7","","88","","31","","10","","25.0","","101.19","","","","-9","","Mainly Clear"
"1973-12-01 08:00","1973","12","01","08:00","-4.4","","-6.7","","87","","32","","11","","40.2","","101.28","","","","-9","","Mainly Clear"
"1973-12-01 09:00","1973","12","01","09:00","-2.8","","-5.6","","81","","32","","13","","40.2","","101.31","","","","-7","","Mainly Clear"
"1973-12-01 10:00","1973","12","01","10:00","-1.7","","-6.1","","72","","34","","18","","40.2","","101.39","","","","-7","","Mostly Cloudy"
"1973-12-01 11:00","1973","12","01","11:00","-1.1","","-5.0","","78","","33","","14","","40.2","","101.43","","","","-6","","Mostly Cloudy"
"1973-12-01 12:00","1973","12","01","12:00","0.0","","-3.9","","76","","32","","16","","40.2","","101.39","","","","-5","","Mostly Cloudy"
"1973-12-01 13:00","1973","12","01","13:00","0.0","","-5.0","","70","","31","","24","","40.2","","101.35","","","","-6","","Mostly Cloudy"
"1973-12-01 14:00","1973","12","01","14:00","0.6","","-5.0","","68","","32","","26","","40.2","","101.34","","","","","","Mostly Cloudy"
"1973-12-01 15:00","1973","12","01","15:00","0.0","","-3.9","","76","","32","","24","","40.2","","101.37","","","","-6","","Mostly Cloudy"
"1973-12-01 16:00","1973","12","01","16:00","-0.6","","-4.4","","75","","34","","23","","40.2","","101.40","","","","-6","","Mostly Cloudy"
"1973-12-01 17:00","1973","12","01","17:00","-0.6","","-3.3","","81","","36","","16","","25.0","","101.41","","","","-5","","Mostly Cloudy"
"1973-12-01 18:00","1973","12","01","18:00","-1.1","","-4.4","","78","","36","","18","","25.0","","101.42","","","","-6","","Mostly Cloudy"
"1973-12-01 19:00","1973","12","01","19:00","-2.8","","-5.0","","85","","36","","13","","25.0","","101.47","","","","-7","","Mainly Clear"
"1973-12-01 20:00","1973","12","01","20:00","-3.9","","-5.6","","90","","","","0","","25.0","","101.48","","","","","","Mainly Clear"
"1973-12-01 21:00","1973","12","01","21:00","-4.4","","-6.1","","90","","","","0","","25.0","","101.48","","","","","","Mainly Clear"
"1973-12-01 22:00","1973","12","01","22:00","-4.4","","-6.1","","87","","32","","5","","25.0","","101.48","","","","-7","","Mainly Clear"
"1973-12-01 23:00","1973","12","01","23:00","-5.0","","-6.1","","90","","36","","5","","25.0","","101.48","","","","-7","","Mainly Clear"
"1973-12-02 00:00","1973","12","02","00:00","-5.0","","-7.2","","88","","3","","8","","24.1","","101.48","","","","-9","","Mainly Clear"
"1973-12-02 01:00","1973","12","02","01:00","-5.6","","-7.2","","88","","2","","8","","24.1","","101.44","","","","-9","","Mainly Clear"
"1973-12-02 02:00","1973","12","02","02:00","-5.6","","-7.2","","89","","5","","8","","24.1","","101.41","","","","-9","","Mainly Clear"
"1973-12-02 03:00","1973","12","02","03:00","-5.0","","-7.2","","83","","7","","13","","24.1","","101.38","","","","-10","","Mainly Clear"
"1973-12-02 04:00","1973","12","02","04:00","-4.4","","-7.2","","81","","6","","14","","24.1","","101.31","","","","-10","","Mainly Clear"
"1973-12-02 05:00","1973","12","02","05:00","-3.9","","-6.7","","80","","7","","16","","25.0","","101.28","","","","-9","","Mostly Cloudy"
"1973-12-02 06:00","1973","12","02","06:00","-3.3","","-6.1","","83","","6","","16","","25.0","","101.24","","","","-9","","Mostly Cloudy"
"1973-12-02 07:00","1973","12","02","07:00","-3.3","","-5.6","","85","","6","","13","","25.0","","101.22","","","","-8","","Mostly Cloudy"
"1973-12-02 08:00","1973","12","02","08:00","-1.7","","-5.0","","77","","14","","18","","40.2","","101.16","","","","-7","","Mostly Cloudy"
"1973-12-02 09:00","1973","12","02","09:00","-1.1","","-4.4","","79","","14","","24","","40.2","","101.08","","","","-7","","Mostly Cloudy"
"1973-12-02 10:00","1973","12","02","10:00","0.0","","-3.3","","78","","12","","26","","40.2","","101.03","","","","-6","","Mostly Cloudy"
"1973-12-02 11:00","1973","12","02","11:00","0.6","","-3.9","","72","","13","","27","","40.2","","100.93","","","","","","Mostly Cloudy"
"1973-12-02 12:00","1973","12","02","12:00","1.1","","-3.3","","70","","10","","29","","40.2","","100.75","","","","","","Mostly Cloudy"
"1973-12-02 13:00","1973","12","02","13:00","1.1","","-2.8","","73","","12","","27","","40.2","","100.59","","","","","","Mostly Cloudy"
"1973-12-02 14:00","1973","12","02","14:00","1.7","","-2.8","","73","","12","","27","","40.2","","100.48","","","","","","Mostly Cloudy"
"1973-12-02 15:00","1973","12","02","15:00","1.7","","-2.8","","71","","12","","29","","40.2","","100.36","","","","","","Mostly Cloudy"
"1973-12-02 16:00","1973","12","02","16:00","1.7","","-2.8","","72","","12","","19","","40.2","","100.33","","","","","","Mostly Cloudy"
"1973-12-02 17:00","1973","12","02","17:00","1.7","","-1.7","","78","","11","","21","","25.0","","100.24","","","","","","Mostly Cloudy"
"1973-12-02 18:00","1973","12","02","18:00","1.7","","-1.7","","79","","12","","16","","25.0","","100.19","","","","","","Mostly Cloudy"
"1973-12-02 19:00","1973","12","02","19:00","1.7","","-1.7","","78","","12","","14","","25.0","","100.11","","","","","","Mostly Cloudy"
"1973-12-02 20:00","1973","12","02","20:00","1.7","","-1.7","","80","","12","","10","","25.0","","100.03","","","","","","Mostly Cloudy"
"1973-12-02 21:00","1973","12","02","21:00","2.2","","-1.1","","80","","14","","8","","25.0","","99.94","","","","","","Mainly Clear"
"1973-12-02 22:00","1973","12","02","22:00","2.2","","-0.6","","83","","15","","6","","25.0","","99.87","","","","","","Mainly Clear"
"1973-12-02 23:00","1973","12","02","23:00","1.1","","0.0","","92","","","","0","","19.3","","99.80","","","","","","Mainly Clear"
"1973-12-03 00:00","1973","12","03","00:00","0.6","","-0.6","","94","","10","","6","","19.3","","99.74","","","","","","Mainly Clear"
"1973-12-03 01:00","1973","12","03","01:00","1.7","","0.0","","91","","11","","8","","14.5","","99.69","","","","","","Mainly Clear"
"1973-12-03 02:00","1973","12","03","02:00","-2.8","","-3.3","","95","","","","0","","12.9","","99.67","","","","","","Clear"
"1973-12-03 03:00","1973","12","03","03:00","-2.8","","-3.3","","96","","","","0","","9.7","","99.61","","","","","","Fog"
"1973-12-03 04:00","1973","12","03","04:00","-2.2","","-2.8","","97","","","","0","","8.0","","99.53","","","","","","Fog"
"1973-12-03 05:00","1973","12","03","05:00","0.6","","0.0","","98","","17","","8","","8.0","","99.47","","","","","","Fog"
"1973-12-03 06:00","1973","12","03","06:00","2.2","","1.1","","92","","20","","16","","9.7","","99.42","","","","","","Fog"
"1973-12-03 07:00","1973","12","03","07:00","3.3","","2.2","","92","","21","","18","","8.0","","99.39","","","","","","Fog"
"1973-12-03 08:00","1973","12","03","08:00","5.0","","2.8","","88","","24","","26","","9.7","","99.30","","","","","","Fog"
"1973-12-03 09:00","1973","12","03","09:00","5.6","","3.9","","89","","25","","26","","9.7","","99.28","","","","","","Fog"
"1973-12-03 10:00","1973","12","03","10:00","8.3","","5.0","","81","","25","","32","","12.9","","99.25","","","","","","Clear"
"1973-12-03 11:00","1973","12","03","11:00","10.0","","5.6","","74","","24","","29","","16.1","","99.23","","","","","","Clear"
"1973-12-03 12:00","1973","12","03","12:00","11.7","","6.1","","68","","24","","29","","16.1","","99.13","","","","","","Clear"
"1973-12-03 13:00","1973","12","03","13:00","12.2","","6.1","","66","","24","","29","","19.3","","99.06","","","","","","Clear"
"1973-12-03 14:00","1973","12","03","14:00","12.8","","6.1","","64","","23","","24","","16.1","","99.00","","","","","","Clear"
"1973-12-03 15:00","1973","12","03","15:00","12.8","","6.7","","66","","23","","23","","16.1","","98.99","","","","","","Mainly Clear"
"1973-12-03 16:00","1973","12","03","16:00","11.7","","6.7","","70","","23","","23","","12.9","","99.04","","","","","","Mostly Cloudy"
"1973-12-03 17:00","1973","12","03","17:00","10.6","","6.7","","75","","23","","18","","16.1","","99.03","","","","","","Mostly Cloudy"
"1973-12-03 18:00","1973","12","03","18:00","10.0","","6.1","","77","","22","","23","","16.1","","99.00","","","","","","Mostly Cloudy"
"1973-12-03 19:00","1973","12","03","19:00","10.6","","6.7","","76","","23","","23","","19.3","","99.01","","","","","","Cloudy"
"1973-12-03 20:00","1973","12","03","20:00","11.7","","7.2","","74","","24","","26","","19.3","","98.99","","","","","","Cloudy"
"1973-12-03 21:00","1973","12","03","21:00","11.7","","7.8","","76","","25","","23","","19.3","","98.96","","","","","","Cloudy"
"1973-12-03 22:00","1973","12","03","22:00","12.2","","7.8","","74","","24","","26","","19.3","","98.94","","","","","","Rain"
"1973-12-03 23:00","1973","12","03","23:00","11.7","","8.3","","79","","24","","26","","19.3","","98.99","","","","","","Rain"
"1973-12-04 00:00","1973","12","04","00:00","11.1","","8.3","","81","","25","","18","","16.1","","98.97","","","","","","Cloudy"
"1973-12-04 01:00","1973","12","04","01:00","11.7","","8.9","","82","","26","","18","","12.9","","99.02","","","","","","Cloudy"
"1973-12-04 02:00","1973","12","04","02:00","11.1","","8.9","","86","","27","","10","","9.7","","99.04","","","","","","Fog"
"1973-12-04 03:00","1973","12","04","03:00","10.6","","8.3","","87","","27","","3","","8.0","","99.06","","","","","","Fog"
"1973-12-04 04:00","1973","12","04","04:00","10.0","","8.9","","91","","28","","10","","6.4","","99.07","","","","","","Fog"
"1973-12-04 05:00","1973","12","04","05:00","10.0","","8.9","","92","","","","0","","6.4","","99.05","","","","","","Fog"
"1973-12-04 06:00","1973","12","04","06:00","8.9","","7.8","","92","","","","0","","6.4","","99.06","","","","","","Fog"
"1973-12-04 07:00","1973","12","04","07:00","9.4","","8.3","","93","","","","0","","6.4","","99.13","","","","","","Fog"
"1973-12-04 08:00","1973","12","04","08:00","8.9","","7.8","","94","","","","0","","4.0","","99.17","","","","","","Fog"
"1973-12-04 09:00","1973","12","04","09:00","7.2","","6.7","","95","","36","","23","","9.7","","99.22","","","","","","Drizzle,Fog"
"1973-12-04 10:00","1973","12","04","10:00","6.7","","6.7","","97","","2","","16","","6.4","","99.20","","","","","","Drizzle,Fog"
"1973-12-04 11:00","1973","12","04","11:00","6.7","","5.6","","95","","2","","18","","8.0","","99.17","","","","","","Fog"
"1973-12-04 12:00","1973","12","04","12:00","6.7","","5.6","","93","","2","","18","","9.7","","99.10","","","","","","Fog"
"1973-12-04 13:00","1973","12","04","13:00","6.1","","5.0","","94","","3","","5","","2.4","","99.11","","","","","","Rain,Fog"
"1973-12-04 14:00","1973","12","04","14:00","6.1","","5.6","","95","","3","","10","","4.8","","99.06","","","","","","Fog"
"1973-12-04 15:00","1973","12","04","15:00","6.1","","5.6","","95","","3","","11","","4.0","","98.99","","","","","","Rain,Fog"
"1973-12-04 16:00","1973","12","04","16:00","6.1","","5.6","","96","","6","","10","","4.0","","98.91","","","","","","Fog"
"1973-12-04 17:00","1973","12","04","17:00","6.1","","5.6","","97","","11","","10","","4.0","","98.87","","","","","","Fog"
"1973-12-04 18:00","1973","12","04","18:00","6.1","","5.6","","97","","9","","13","","4.0","","98.88","","","","","","Rain,Fog"
"1973-12-04 19:00","1973","12","04","19:00","6.7","","5.6","","95","","10","","21","","4.8","","98.79","","","","","","Rain,Fog"
"1973-12-04 20:00","1973","12","04","20:00","6.7","","6.1","","97","","10","","32","","4.8","","98.70","","","","","","Rain,Fog"
"1973-12-04 21:00","1973","12","04","21:00","7.2","","6.1","","96","","10","","29","","4.8","","98.58","","","","","","Rain,Fog"
"1973-12-04 22:00","1973","12","04","22:00","6.7","","6.7","","99","","10","","29","","4.0","","98.49","","","","","","Rain,Fog"
"1973-12-04 23:00","1973","12","04","23:00","6.7","","6.1","","98","","10","","23","","4.8","","98.44","","","","","","Fog"
"1973-12-05 00:00","1973","12","05","00:00","6.7","","6.1","","98","","9","","27","","6.4","","98.37","","","","","","Rain Showers,Fog"
"1973-12-05 01:00","1973","12","05","01:00","6.7","","6.1","","97","","9","","19","","4.8","","98.28","","","","","","Rain Showers,Fog"
"1973-12-05 02:00","1973","12","05","02:00","6.7","","6.7","","99","","10","","13","","4.0","","98.23","","","","","","Moderate Rain Showers,Fog"
"1973-12-05 03:00","1973","12","05","03:00","7.2","","6.7","","96","","9","","27","","4.8","","98.18","","","","","","Fog"
"1973-12-05 04:00","1973","12","05","04:00","7.2","","7.2","","99","","10","","16","","4.8","","98.11","","","","","","Rain Showers,Fog"
"1973-12-05 05:00","1973","12","05","05:00","8.3","","7.2","","95","","11","","14","","4.8","","98.08","","","","","","Fog"
"1973-12-05 06:00","1973","12","05","06:00","7.8","","7.8","","99","","11","","14","","4.0","","98.04","","","","","","Fog"
"1973-12-05 07:00","1973","12","05","07:00","7.2","","7.2","","100","","","","0","","1.6","","98.05","","","","","","Fog"
"1973-12-05 08:00","1973","12","05","08:00","8.9","","8.3","","99","","18","","10","","1.6","","98.04","","","","","","Fog"
"1973-12-05 09:00","1973","12","05","09:00","9.4","","8.9","","97","","14","","11","","2.4","","98.07","","","","","","Fog"
"1973-12-05 10:00","1973","12","05","10:00","9.4","","8.9","","96","","15","","13","","3.2","","98.05","","","","","","Fog"
"1973-12-05 11:00","1973","12","05","11:00","10.0","","8.9","","96","","16","","10","","3.6","","98.04","","","","","","Fog"
"1973-12-05 12:00","1973","12","05","12:00","10.6","","9.4","","93","","22","","5","","6.4","","97.95","","","","","","Fog"
"1973-12-05 13:00","1973","12","05","13:00","11.1","","7.2","","80","","23","","16","","32.2","","97.89","","","","","","Mostly Cloudy"
"1973-12-05 14:00","1973","12","05","14:00","11.7","","7.8","","79","","21","","8","","40.2","","97.86","","","","","","Mostly Cloudy"
"1973-12-05 15:00","1973","12","05","15:00","11.1","","6.1","","72","","23","","24","","40.2","","97.89","","","","","","Mostly Cloudy"
"1973-12-05 16:00","1973","12","05","16:00","8.9","","6.7","","84","","29","","26","","40.2","","97.99","","","","","","Mostly Cloudy"
"1973-12-05 17:00","1973","12","05","17:00","7.8","","4.4","","80","","25","","14","","25.0","","98.07","","","","","","Cloudy"
"1973-12-05 18:00","1973","12","05","18:00","7.2","","3.9","","80","","20","","13","","25.0","","98.06","","","","","","Mostly Cloudy"
"1973-12-05 19:00","1973","12","05","19:00","7.2","","4.4","","85","","23","","23","","19.3","","98.15","","","","","","Rain Showers"
"1973-12-05 20:00","1973","12","05","20:00","6.1","","4.4","","89","","24","","27","","24.1","","98.21","","","","","","Rain Showers"
"1973-12-05 21:00","1973","12","05","21:00","5.0","","1.7","","79","","24","","29","","25.0","","98.28","","","","","","Mostly Cloudy"
"1973-12-05 22:00","1973","12","05","22:00","4.4","","1.1","","79","","26","","32","","24.1","","98.33","","","","","","Rain Showers"
"1973-12-05 23:00","1973","12","05","23:00","2.8","","0.6","","87","","24","","31","","19.3","","98.45","","","","","","Rain Showers"
"1973-12-06 00:00","1973","12","06","00:00","2.8","","-1.7","","75","","24","","34","","24.1","","98.50","","","","","","Cloudy"
"1973-12-06 01:00","1973","12","06","01:00","2.2","","-2.2","","71","","24","","40","","25.0","","98.58","","","","","","Cloudy"
"1973-12-06 02:00","1973","12","06","02:00","1.7","","-2.8","","71","","24","","35","","25.0","","98.70","","","","","","Cloudy"
"1973-12-06 03:00","1973","12","06","03:00","1.1","","-2.8","","76","","24","","32","","25.0","","98.76","","","","","","Cloudy"
"1973-12-06 04:00","1973","12","06","04:00","1.1","","-2.8","","75","","24","","27","","25.0","","98.80","","","","","","Cloudy"
"1973-12-06 05:00","1973","12","06","05:00","1.1","","-2.8","","75","","24","","29","","25.0","","98.84","","","","","","Cloudy"
"1973-12-06 06:00","1973","12","06","06:00","0.6","","-2.2","","80","","25","","32","","25.0","","98.92","","","","","","Cloudy"
"1973-12-06 07:00","1973","12","06","07:00","0.6","","-2.8","","78","","25","","32","","25.0","","99.02","","","","","","Cloudy"
"1973-12-06 08:00","1973","12","06","08:00","0.6","","-3.3","","77","","24","","26","","4.8","","99.13","","","","","","Snow Showers"
"1973-12-06 09:00","1973","12","06","09:00","-0.6","","-1.7","","90","","26","","27","","2.4","","99.18","","","","-7","","Snow Showers"
"1973-12-06 10:00","1973","12","06","10:00","-0.6","","-1.7","","89","","24","","26","","6.4","","99.26","","","","-7","","Snow Showers"
"1973-12-06 11:00","1973","12","06","11:00","0.0","","-2.2","","85","","24","","24","","6.4","","99.29","","","","-6","","Snow Showers"
"1973-12-06 12:00","1973","12","06","12:00","0.0","","-1.7","","90","","24","","26","","4.8","","99.31","","","","-6","","Snow Showers"
"1973-12-06 13:00","1973","12","06","13:00","0.0","","-1.7","","87","","25","","27","","4.8","","99.36","","","","-6","","Snow"
"1973-12-06 14:00","1973","12","06","14:00","0.0","","-1.7","","89","","25","","27","","8.0","","99.44","","","","-6","","Snow"
"1973-12-06 15:00","1973","12","06","15:00","0.6","","-2.8","","80","","25","","29","","12.9","","99.50","","","","","","Cloudy"
"1973-12-06 16:00","1973","12","06","16:00","0.0","","-2.8","","82","","25","","34","","16.1","","99.60","","","","-7","","Mostly Cloudy"
"1973-12-06 17:00","1973","12","06","17:00","0.0","","-2.2","","84","","25","","26","","19.3","","99.68","","","","-6","","Mostly Cloudy"
"1973-12-06 18:00","1973","12","06","18:00","0.0","","-2.2","","85","","25","","13","","19.3","","99.81","","","","-4","","Cloudy"
"1973-12-06 19:00","1973","12","06","19:00","0.6","","-1.7","","86","","27","","18","","16.1","","99.90","","","","","","Cloudy"
"1973-12-06 20:00","1973","12","06","20:00","0.6","","-1.1","","87","","28","","23","","19.3","","100.01","","","","","","Cloudy"
"1973-12-06 21:00","1973","12","06","21:00","0.6","","-1.1","","89","","33","","31","","25.0","","100.07","","","","","","Cloudy"
"1973-12-06 22:00","1973","12","06","22:00","0.0","","-2.8","","83","","33","","27","","25.0","","100.21","","","","-6","","Cloudy"
"1973-12-06 23:00","1973","12","06","23:00","-0.6","","-3.3","","82","","33","","24","","25.0","","100.31","","","","-7","","Cloudy"
"1973-12-07 00:00","1973","12","07","00:00","-0.6","","-3.3","","81","","31","","27","","25.0","","100.39","","","","-7","","Cloudy"
"1973-12-07 01:00","1973","12","07","01:00","-1.1","","-3.9","","81","","35","","18","","25.0","","100.48","","","","-6","","Cloudy"
"1973-12-07 02:00","1973","12","07","02:00","-1.1","","-3.9","","82","","35","","19","","25.0","","100.55","","","","-6","","Cloudy"
"1973-12-07 03:00","1973","12","07","03:00","-1.7","","-3.9","","84","","33","","16","","25.0","","100.66","","","","-7","","Cloudy"
"1973-12-07 04:00","1973","12","07","04:00","-1.7","","-4.4","","82","","35","","18","","25.0","","100.71","","","","-7","","Cloudy"
"1973-12-07 05:00","1973","12","07","05:00","-2.2","","-5.0","","80","","34","","24","","25.0","","100.80","","","","-9","","Cloudy"
"1973-12-07 06:00","1973","12","07","06:00","-2.2","","-5.0","","80","","33","","21","","25.0","","100.87","","","","-8","","Cloudy"
"1973-12-07 07:00","1973","12","07","07:00","-2.2","","-6.1","","76","","32","","19","","25.0","","100.96","","","","-8","","Cloudy"
"1973-12-07 08:00","1973","12","07","08:00","-2.8","","-5.6","","79","","32","","13","","40.2","","101.04","","","","-7","","Cloudy"
"1973-12-07 09:00","1973","12","07","09:00","-2.2","","-6.1","","76","","36","","14","","40.2","","101.10","","","","-7","","Mostly Cloudy"
"1973-12-07 10:00","1973","12","07","10:00","-2.2","","-6.1","","72","","36","","13","","40.2","","101.14","","","","-7","","Cloudy"
"1973-12-07 11:00","1973","12","07","11:00","-2.2","","-6.1","","73","","27","","6","","40.2","","101.19","","","","-5","","Cloudy"
"1973-12-07 12:00","1973","12","07","12:00","-1.7","","-6.1","","72","","26","","13","","40.2","","101.17","","","","-6","","Cloudy"
"1973-12-07 13:00","1973","12","07","13:00","-1.7","","-6.1","","70","","28","","6","","40.2","","101.15","","","","-4","","Cloudy"
"1973-12-07 14:00","1973","12","07","14:00","-1.7","","-6.1","","70","","","","0","","40.2","","101.14","","","","","","Mostly Cloudy"
"1973-12-07 15:00","1973","12","07","15:00","-1.7","","-5.6","","74","","27","","6","","40.2","","101.15","","","","-4","","Mostly Cloudy"
"1973-12-07 16:00","1973","12","07","16:00","-1.7","","-6.1","","71","","25","","8","","40.2","","101.16","","","","-5","","Mostly Cloudy"
"1973-12-07 17:00","1973","12","07","17:00","-2.2","","-6.1","","76","","","","0","","25.0","","101.19","","","","","","Mostly Cloudy"
"1973-12-07 18:00","1973","12","07","18:00","-2.2","","-5.6","","78","","21","","6","","25.0","","101.21","","","","-5","","Mostly Cloudy"
"1973-12-07 19:00","1973","12","07","19:00","-2.2","","-5.6","","78","","18","","10","","25.0","","101.22","","","","-6","","Mostly Cloudy"
"1973-12-07 20:00","1973","12","07","20:00","-2.8","","-6.1","","80","","22","","6","","25.0","","101.23","","","","-5","","Mostly Cloudy"
"1973-12-07 21:00","1973","12","07","21:00","-3.9","","-6.7","","83","","30","","6","","25.0","","101.23","","","","-7","","Mostly Cloudy"
"1973-12-07 22:00","1973","12","07","22:00","-4.4","","-6.7","","85","","","","0","","25.0","","101.25","","","","","","Mainly Clear"
"1973-12-07 23:00","1973","12","07","23:00","-4.4","","-6.7","","85","","","","0","","25.0","","101.25","","","","","","Mainly Clear"
"1973-12-08 00:00","1973","12","08","00:00","-4.4","","-6.1","","89","","","","0","","25.0","","101.26","","","","","","Mainly Clear"
"1973-12-08 01:00","1973","12","08","01:00","-3.3","","-5.0","","86","","","","0","","19.3","","101.26","","","","","","Mostly Cloudy"
"1973-12-08 02:00","1973","12","08","02:00","-2.8","","-5.6","","81","","","","0","","19.3","","101.27","","","","","","Cloudy"
"1973-12-08 03:00","1973","12","08","03:00","-2.2","","-5.6","","79","","","","0","","19.3","","101.28","","","","","","Cloudy"
"1973-12-08 04:00","1973","12","08","04:00","-2.2","","-5.6","","76","","","","0","","24.1","","101.25","","","","","","Cloudy"
"1973-12-08 05:00","1973","12","08","05:00","-2.2","","-5.6","","78","","28","","6","","24.1","","101.26","","","","-5","","Cloudy"
"1973-12-08 06:00","1973","12","08","06:00","-1.7","","-6.1","","73","","","","0","","24.1","","101.26","","","","","","Cloudy"
"1973-12-08 07:00","1973","12","08","07:00","-1.7","","-5.6","","75","","","","0","","24.1","","101.28","","","","","","Cloudy"
"1973-12-08 08:00","1973","12","08","08:00","-2.2","","-5.0","","80","","","","0","","24.1","","101.34","","","","","","Cloudy"
"1973-12-08 09:00","1973","12","08","09:00","-1.7","","-6.7","","70","","20","","5","","32.2","","101.37","","","","-4","","Cloudy"
"1973-12-08 10:00","1973","12","08","10:00","-1.1","","-5.6","","72","","12","","5","","24.1","","101.36","","","","-3","","Cloudy"
"1973-12-08 11:00","1973","12","08","11:00","-1.1","","-5.6","","72","","9","","5","","19.3","","101.27","","","","-3","","Cloudy"
"1973-12-08 12:00","1973","12","08","12:00","-0.6","","-5.6","","70","","11","","6","","19.3","","101.19","","","","-3","","Mostly Cloudy"
"1973-12-08 13:00","1973","12","08","13:00","0.6","","-4.4","","71","","16","","11","","19.3","","101.11","","","","","","Mostly Cloudy"
"1973-12-08 14:00","1973","12","08","14:00","0.0","","-5.6","","68","","15","","6","","19.3","","101.03","","","","-2","","Mostly Cloudy"
"1973-12-08 15:00","1973","12","08","15:00","0.0","","-4.4","","74","","13","","14","","16.1","","101.02","","","","-4","","Cloudy"
"1973-12-08 16:00","1973","12","08","16:00","-0.6","","-3.9","","78","","11","","13","","16.1","","101.03","","","","-5","","Cloudy"
"1973-12-08 17:00","1973","12","08","17:00","-1.1","","-4.4","","80","","9","","11","","12.9","","100.99","","","","-5","","Mostly Cloudy"
"1973-12-08 18:00","1973","12","08","18:00","-0.6","","-3.9","","80","","10","","23","","19.3","","100.95","","","","-6","","Mostly Cloudy"
"1973-12-08 19:00","1973","12","08","19:00","0.0","","-3.9","","75","","11","","21","","24.1","","100.92","","","","-5","","Mostly Cloudy"
"1973-12-08 20:00","1973","12","08","20:00","0.0","","-2.8","","79","","11","","19","","25.0","","100.82","","","","-5","","Mostly Cloudy"
"1973-12-08 21:00","1973","12","08","21:00","0.0","","-2.8","","81","","11","","24","","25.0","","100.77","","","","-6","","Mostly Cloudy"
"1973-12-08 22:00","1973","12","08","22:00","0.0","","-2.8","","80","","11","","14","","24.1","","100.69","","","","-4","","Mostly Cloudy"
"1973-12-08 23:00","1973","12","08","23:00","0.6","","-1.7","","85","","10","","18","","24.1","","100.63","","","","","","Mostly Cloudy"
"1973-12-09 00:00","1973","12","09","00:00","-1.1","","-2.8","","88","","10","","11","","19.3","","100.57","","","","-5","","Mostly Cloudy"
"1973-12-09 01:00","1973","12","09","01:00","-1.1","","-3.3","","86","","9","","11","","19.3","","100.46","","","","-5","","Mostly Cloudy"
"1973-12-09 02:00","1973","12","09","02:00","-1.1","","-2.8","","88","","9","","13","","19.3","","100.37","","","","-5","","Mostly Cloudy"
"1973-12-09 03:00","1973","12","09","03:00","-1.1","","-2.8","","88","","8","","11","","19.3","","100.28","","","","-5","","Mostly Cloudy"
"1973-12-09 04:00","1973","12","09","04:00","-0.6","","-2.2","","90","","10","","10","","16.1","","100.21","","","","-4","","Cloudy"
"1973-12-09 05:00","1973","12","09","05:00","0.6","","-1.7","","88","","11","","13","","19.3","","100.08","","","","","","Cloudy"
"1973-12-09 06:00","1973","12","09","06:00","0.0","","-2.2","","86","","10","","10","","19.3","","100.02","","","","-3","","Cloudy"
"1973-12-09 07:00","1973","12","09","07:00","0.6","","-1.1","","88","","5","","11","","19.3","","99.92","","","","","","Cloudy"
"1973-12-09 08:00","1973","12","09","08:00","1.7","","-0.6","","87","","6","","13","","12.9","","99.88","","","","","","Cloudy"
"1973-12-09 09:00","1973","12","09","09:00","1.1","","0.0","","92","","4","","16","","12.9","","99.79","","","","","","Rain"
"1973-12-09 10:00","1973","12","09","10:00","1.1","","0.0","","94","","4","","14","","16.1","","99.65","","","","","","Rain"
"1973-12-09 11:00","1973","12","09","11:00","1.1","","0.6","","95","","7","","16","","4.8","","99.50","","","","","","Snow"
"1973-12-09 12:00","1973","12","09","12:00","1.1","","0.0","","94","","7","","19","","3.2","","99.30","","","","","","Snow"
"1973-12-09 13:00","1973","12","09","13:00","0.0","","0.0","","97","","4","","13","","1.6","","99.04","","","","-4","","Snow"
"1973-12-09 14:00","1973","12","09","14:00","0.0","","0.0","","99","","3","","10","","2.0","","98.90","","","","-3","","Snow"
"1973-12-09 15:00","1973","12","09","15:00","0.0","","0.0","","98","","35","","8","","1.2","","98.82","","","","-3","","Snow"
"1973-12-09 16:00","1973","12","09","16:00","0.0","","0.0","","98","","34","","18","","1.2","","98.68","","","","-5","","Snow"
"1973-12-09 17:00","1973","12","09","17:00","0.0","","0.0","","100","","1","","11","","2.0","","98.63","","","","-4","","Snow"
"1973-12-09 18:00","1973","12","09","18:00","-0.6","","-0.6","","100","","33","","14","","3.2","","98.63","","","","-5","","Snow"
"1973-12-09 19:00","1973","12","09","19:00","-0.6","","-0.6","","100","","32","","13","","2.8","","98.63","","","","-5","","Snow"
"1973-12-09 20:00","1973","12","09","20:00","0.0","","0.0","","100","","29","","10","","8.0","","98.62","","","","-3","","Snow"
"1973-12-09 21:00","1973","12","09","21:00","0.0","","0.0","","99","","26","","5","","8.0","","98.61","","","","-2","","Snow"
"1973-12-09 22:00","1973","12","09","22:00","0.0","","0.0","","99","","20","","3","","8.0","","98.59","","","","-1","","Snow"
"1973-12-09 23:00","1973","12","09","23:00","0.6","","0.0","","96","","22","","10","","8.0","","98.58","","","","","","Snow"
"1973-12-10 00:00","1973","12","10","00:00","0.0","","-1.1","","93","","25","","14","","8.0","","98.56","","","","-4","","Fog"
"1973-12-10 01:00","1973","12","10","01:00","0.6","","-1.1","","90","","25","","26","","8.0","","98.56","","","","","","Fog"
"1973-12-10 02:00","1973","12","10","02:00","0.0","","-1.1","","89","","25","","11","","8.0","","98.59","","","","-4","","Fog"
"1973-12-10 03:00","1973","12","10","03:00","0.0","","-1.7","","89","","","","0","","8.0","","98.58","","","","","","Fog"
"1973-12-10 04:00","1973","12","10","04:00","0.0","","-1.1","","91","","17","","8","","8.0","","98.56","","","","-3","","Snow Showers"
"1973-12-10 05:00","1973","12","10","05:00","0.0","","-1.1","","92","","19","","10","","6.4","","98.53","","","","-3","","Snow Showers"
"1973-12-10 06:00","1973","12","10","06:00","0.6","","-0.6","","91","","20","","10","","6.4","","98.58","","","","","","Fog"
"1973-12-10 07:00","1973","12","10","07:00","0.6","","-0.6","","90","","22","","10","","6.4","","98.61","","","","","","Fog"
"1973-12-10 08:00","1973","12","10","08:00","-0.6","","-1.1","","94","","21","","13","","4.8","","98.62","","","","-5","","Fog"
"1973-12-10 09:00","1973","12","10","09:00","0.6","","-0.6","","92","","20","","11","","6.4","","98.68","","","","","","Fog"
"1973-12-10 10:00","1973","12","10","10:00","0.6","","0.0","","96","","19","","13","","1.2","","98.72","","","","","","Snow"
"1973-12-10 11:00","1973","12","10","11:00","0.6","","0.0","","97","","19","","14","","2.0","","98.73","","","","","","Snow"
"1973-12-10 12:00","1973","12","10","12:00","0.6","","-1.1","","90","","22","","23","","16.1","","98.72","","","","","","Cloudy"
"1973-12-10 13:00","1973","12","10","13:00","-0.6","","-3.3","","81","","24","","29","","19.3","","98.72","","","","-7","","Cloudy"
"1973-12-10 14:00","1973","12","10","14:00","-1.7","","-5.6","","75","","23","","26","","19.3","","98.73","","","","-8","","Cloudy"
"1973-12-10 15:00","1973","12","10","15:00","-2.2","","-5.6","","79","","23","","24","","19.3","","98.77","","","","-9","","Cloudy"
"1973-12-10 16:00","1973","12","10","16:00","-1.7","","-5.0","","79","","21","","18","","16.1","","98.84","","","","-7","","Cloudy"
"1973-12-10 17:00","1973","12","10","17:00","-2.2","","-4.4","","86","","21","","19","","8.0","","98.89","","","","-8","","Snow"
"1973-12-10 18:00","1973","12","10","18:00","-2.2","","-3.9","","87","","23","","23","","17.7","","98.94","","","","-8","","Mostly Cloudy"
"1973-12-10 19:00","1973","12","10","19:00","-2.2","","-4.4","","84","","24","","21","","16.1","","99.00","","","","-8","","Cloudy"
"1973-12-10 20:00","1973","12","10","20:00","-2.2","","-4.4","","85","","24","","18","","16.1","","99.06","","","","-8","","Mostly Cloudy"
"1973-12-10 21:00","1973","12","10","21:00","-2.2","","-5.0","","84","","23","","14","","16.1","","99.08","","","","-7","","Mostly Cloudy"
"1973-12-10 22:00","1973","12","10","22:00","-3.3","","-5.6","","85","","24","","10","","19.3","","99.09","","","","-7","","Mainly Clear"
"1973-12-10 23:00","1973","12","10","23:00","-1.7","","-4.4","","83","","24","","21","","19.3","","99.14","","","","-8","","Mostly Cloudy"
"1973-12-11 00:00","1973","12","11","00:00","-2.2","","-4.4","","86","","23","","14","","16.1","","99.16","","","","-7","","Mostly Cloudy"
"1973-12-11 01:00","1973","12","11","01:00","-2.8","","-5.0","","86","","22","","14","","19.3","","99.15","","","","-8","","Mostly Cloudy"
"1973-12-11 02:00","1973","12","11","02:00","-2.8","","-4.4","","89","","22","","18","","19.3","","99.17","","","","-8","","Mostly Cloudy"
"1973-12-11 03:00","1973","12","11","03:00","-2.8","","-4.4","","87","","23","","13","","16.1","","99.20","","","","-7","","Cloudy"
"1973-12-11 04:00","1973","12","11","04:00","-2.8","","-5.0","","86","","22","","13","","19.3","","99.21","","","","-7","","Cloudy"
"1973-12-11 05:00","1973","12","11","05:00","-2.8","","-5.0","","87","","23","","13","","19.3","","99.25","","","","-7","","Cloudy"
"1973-12-11 06:00","1973","12","11","06:00","-2.8","","-4.4","","87","","26","","11","","12.9","","99.28","","","","-7","","Snow"
"1973-12-11 07:00","1973","12","11","07:00","-2.2","","-3.9","","88","","28","","13","","19.3","","99.33","","","","-7","","Cloudy"
"1973-12-11 08:00","1973","12","11","08:00","-1.1","","-3.9","","84","","32","","24","","24.1","","99.41","","","","-7","","Cloudy"
"1973-12-11 09:00","1973","12","11","09:00","-1.7","","-4.4","","81","","33","","27","","32.2","","99.46","","","","-8","","Cloudy"
"1973-12-11 10:00","1973","12","11","10:00","-1.7","","-4.4","","81","","30","","21","","24.1","","99.52","","","","-8","","Mostly Cloudy"
"1973-12-11 11:00","1973","12","11","11:00","-1.1","","-5.0","","74","","30","","23","","40.2","","99.54","","","","-7","","Mainly Clear"
"1973-12-11 12:00","1973","12","11","12:00","-0.6","","-5.0","","73","","31","","26","","40.2","","99.52","","","","-7","","Mostly Cloudy"
"1973-12-11 13:00","1973","12","11","13:00","0.0","","-3.9","","75","","33","","27","","40.2","","99.50","","","","-6","","Mostly Cloudy"
"1973-12-11 14:00","1973","12","11","14:00","-0.6","","-3.9","","78","","32","","27","","40.2","","99.51","","","","-7","","Mostly Cloudy"
"1973-12-11 15:00","1973","12","11","15:00","-1.1","","-3.9","","80","","35","","18","","40.2","","99.52","","","","-6","","Mostly Cloudy"
"1973-12-11 16:00","1973","12","11","16:00","-1.1","","-3.9","","80","","33","","16","","40.2","","99.56","","","","-6","","Mostly Cloudy"
"1973-12-11 17:00","1973","12","11","17:00","-1.7","","-3.9","","84","","33","","16","","32.2","","99.61","","","","-7","","Snow"
"1973-12-11 18:00","1973","12","11","18:00","-1.7","","-4.4","","81","","35","","13","","25.0","","99.62","","","","-6","","Cloudy"
"1973-12-11 19:00","1973","12","11","19:00","-1.7","","-5.0","","80","","30","","11","","25.0","","99.67","","","","-6","","Cloudy"
"1973-12-11 20:00","1973","12","11","20:00","-1.7","","-5.0","","79","","28","","13","","25.0","","99.68","","","","-6","","Cloudy"
"1973-12-11 21:00","1973","12","11","21:00","-2.2","","-4.4","","83","","26","","11","","25.0","","99.59","","","","-6","","Cloudy"
"1973-12-11 22:00","1973","12","11","22:00","-2.2","","-4.4","","86","","25","","13","","25.0","","99.70","","","","-7","","Snow"
"1973-12-11 23:00","1973","12","11","23:00","-2.2","","-4.4","","85","","24","","10","","24.1","","99.69","","","","-6","","Snow"
"1973-12-12 00:00","1973","12","12","00:00","-2.2","","-5.0","","83","","25","","14","","19.3","","99.68","","","","-7","","Snow"
"1973-12-12 01:00","1973","12","12","01:00","-2.8","","-5.0","","86","","24","","18","","19.3","","99.68","","","","-8","","Snow"
"1973-12-12 02:00","1973","12","12","02:00","-2.8","","-5.0","","86","","24","","16","","19.3","","99.66","","","","-8","","Snow"
"1973-12-12 03:00","1973","12","12","03:00","-2.8","","-5.6","","83","","21","","18","","19.3","","99.60","","","","-8","","Snow"
"1973-12-12 04:00","1973","12","12","04:00","-3.3","","-5.6","","83","","25","","13","","19.3","","99.59","","","","-8","","Cloudy"
"1973-12-12 05:00","1973","12","12","05:00","-3.3","","-5.6","","86","","28","","6","","19.3","","99.61","","","","-6","","Cloudy"
"1973-12-12 06:00","1973","12","12","06:00","-3.9","","-5.6","","87","","26","","3","","19.3","","99.61","","","","-5","","Mostly Cloudy"
"1973-12-12 07:00","1973","12","12","07:00","-3.9","","-5.6","","89","","","","0","","19.3","","99.63","","","","","","Mostly Cloudy"
"1973-12-12 08:00","1973","12","12","08:00","-3.9","","-5.6","","89","","17","","6","","24.1","","99.62","","","","-7","","Mostly Cloudy"
"1973-12-12 09:00","1973","12","12","09:00","-3.3","","-5.6","","84","","18","","10","","19.3","","99.63","","","","-7","","Mainly Clear"
"1973-12-12 10:00","1973","12","12","10:00","-2.8","","-6.1","","77","","22","","16","","24.1","","99.64","","","","-8","","Mainly Clear"
"1973-12-12 11:00","1973","12","12","11:00","-2.2","","-6.1","","75","","21","","10","","24.1","","99.64","","","","-6","","Mainly Clear"
"1973-12-12 12:00","1973","12","12","12:00","-1.7","","-6.1","","72","","21","","11","","19.3","","99.53","","","","-6","","Mostly Cloudy"
"1973-12-12 13:00","1973","12","12","13:00","-0.6","","-5.6","","69","","22","","13","","24.1","","99.47","","","","-5","","Mainly Clear"
"1973-12-12 14:00","1973","12","12","14:00","0.0","","-4.4","","72","","21","","13","","24.1","","99.40","","","","-4","","Mainly Clear"
"1973-12-12 15:00","1973","12","12","15:00","-0.6","","-3.9","","78","","21","","14","","19.3","","99.37","","","","-5","","Mostly Cloudy"
"1973-12-12 16:00","1973","12","12","16:00","-0.6","","-3.3","","83","","19","","14","","12.9","","99.33","","","","-5","","Cloudy"
"1973-12-12 17:00","1973","12","12","17:00","-0.6","","-3.3","","82","","17","","14","","11.3","","99.29","","","","-5","","Cloudy"
"1973-12-12 18:00","1973","12","12","18:00","-0.6","","-3.3","","81","","18","","6","","16.1","","99.27","","","","-3","","Cloudy"
"1973-12-12 19:00","1973","12","12","19:00","-0.6","","-4.4","","74","","16","","10","","19.3","","99.24","","","","-4","","Cloudy"
"1973-12-12 20:00","1973","12","12","20:00","-1.1","","-4.4","","76","","14","","11","","19.3","","99.21","","","","-5","","Cloudy"
"1973-12-12 21:00","1973","12","12","21:00","-0.6","","-5.0","","71","","12","","16","","19.3","","99.15","","","","-5","","Mostly Cloudy"
"1973-12-12 22:00","1973","12","12","22:00","-0.6","","-5.0","","73","","14","","13","","19.3","","99.07","","","","-5","","Mostly Cloudy"
"1973-12-12 23:00","1973","12","12","23:00","-1.1","","-5.0","","74","","13","","16","","24.1","","98.98","","","","-6","","Mainly Clear"
"1973-12-13 00:00","1973","12","13","00:00","-1.1","","-4.4","","79","","12","","10","","19.3","","98.96","","","","-5","","Mainly Clear"
"1973-12-13 01:00","1973","12","13","01:00","-1.7","","-5.0","","80","","12","","10","","19.3","","98.89","","","","-5","","Clear"
"1973-12-13 02:00","1973","12","13","02:00","-1.7","","-4.4","","82","","9","","10","","19.3","","98.84","","","","-5","","Mainly Clear"
"1973-12-13 03:00","1973","12","13","03:00","-2.8","","-5.6","","84","","4","","8","","19.3","","98.78","","","","-6","","Mostly Cloudy"
"1973-12-13 04:00","1973","12","13","04:00","-2.2","","-4.4","","86","","5","","13","","19.3","","98.66","","","","-7","","Mostly Cloudy"
"1973-12-13 05:00","1973","12","13","05:00","-1.1","","-2.8","","89","","6","","13","","19.3","","98.54","","","","-5","","Mostly Cloudy"
"1973-12-13 06:00","1973","12","13","06:00","-1.7","","-3.3","","87","","6","","8","","19.3","","98.48","","","","-5","","Mainly Clear"
"1973-12-13 07:00","1973","12","13","07:00","-1.7","","-3.3","","86","","4","","13","","16.1","","98.37","","","","-6","","Mostly Cloudy"
"1973-12-13 08:00","1973","12","13","08:00","-1.1","","-2.8","","87","","4","","13","","8.0","","98.28","","","","-5","","Fog"
"1973-12-13 09:00","1973","12","13","09:00","-1.1","","-2.8","","87","","3","","11","","6.4","","98.25","","","","-5","","Fog"
"1973-12-13 10:00","1973","12","13","10:00","-0.6","","-2.2","","87","","2","","16","","8.0","","98.20","","","","-5","","Fog"
"1973-12-13 11:00","1973","12","13","11:00","0.0","","-2.2","","84","","3","","18","","9.7","","98.10","","","","-5","","Haze"
"1973-12-13 12:00","1973","12","13","12:00","0.6","","-1.1","","87","","4","","19","","8.0","","97.92","","","","","","Snow"
"1973-12-13 13:00","1973","12","13","13:00","0.6","","-0.6","","94","","7","","24","","1.0","","97.81","","","","","","Snow"
"1973-12-13 14:00","1973","12","13","14:00","0.0","","-0.6","","98","","6","","21","","0.6","","97.69","","","","-5","","Moderate Snow"
"1973-12-13 15:00","1973","12","13","15:00","0.0","","0.0","","98","","8","","23","","1.0","","97.65","","","","-6","","Snow"
"1973-12-13 16:00","1973","12","13","16:00","0.6","","0.0","","98","","8","","19","","1.6","","97.58","","","","","","Snow"
"1973-12-13 17:00","1973","12","13","17:00","0.6","","0.0","","98","","6","","18","","4.8","","97.55","","","","","","Snow"
"1973-12-13 18:00","1973","12","13","18:00","0.6","","0.6","","99","","2","","13","","4.8","","97.59","","","","","","Drizzle"
"1973-12-13 19:00","1973","12","13","19:00","0.6","","0.6","","99","","36","","18","","3.2","","97.62","","","","","","Ice Pellets,Fog"
"1973-12-13 20:00","1973","12","13","20:00","0.0","","0.0","","100","","36","","27","","2.8","","97.66","","","","-6","","Snow"
"1973-12-13 21:00","1973","12","13","21:00","-0.6","","-0.6","","99","","36","","32","","4.0","","97.74","","","","-7","","Snow"
"1973-12-13 22:00","1973","12","13","22:00","-2.2","","-3.9","","91","","36","","35","","3.6","","97.82","","","","-10","","Snow"
"1973-12-13 23:00","1973","12","13","23:00","-2.8","","-4.4","","92","","36","","32","","2.4","","97.88","","","","-10","","Snow"
"1973-12-14 00:00","1973","12","14","00:00","-3.3","","-5.0","","88","","35","","26","","4.8","","97.95","","","","-10","","Snow"
"1973-12-14 01:00","1973","12","14","01:00","-5.0","","-7.2","","83","","35","","35","","12.9","","98.02","","","","-14","","Snow"
"1973-12-14 02:00","1973","12","14","02:00","-5.6","","-7.8","","84","","35","","32","","19.3","","98.15","","","","-14","","Cloudy"
"1973-12-14 03:00","1973","12","14","03:00","-6.1","","-8.3","","85","","35","","32","","24.1","","98.26","","","","-15","","Snow"
"1973-12-14 04:00","1973","12","14","04:00","-6.7","","-8.3","","86","","34","","35","","25.0","","98.35","","","","-16","","Mostly Cloudy"
"1973-12-14 05:00","1973","12","14","05:00","-7.2","","-9.4","","84","","34","","35","","25.0","","98.45","","","","-16","","Mostly Cloudy"
"1973-12-14 06:00","1973","12","14","06:00","-8.3","","-10.6","","84","","34","","34","","25.0","","98.54","","","","-18","","Mostly Cloudy"
"1973-12-14 07:00","1973","12","14","07:00","-8.9","","-10.6","","87","","34","","34","","25.0","","98.72","","","","-19","","Mainly Clear"
"1973-12-14 08:00","1973","12","14","08:00","-10.0","","-11.7","","86","","34","","37","","40.2","","98.82","","","","-20","","Mainly Clear"
"1973-12-14 09:00","1973","12","14","09:00","-10.6","","-12.2","","87","","35","","31","","40.2","","98.89","","","","-20","","Mainly Clear"
"1973-12-14 10:00","1973","12","14","10:00","-10.6","","-13.3","","78","","34","","35","","40.2","","99.06","","","","-21","","Mainly Clear"
"1973-12-14 11:00","1973","12","14","11:00","-10.0","","-13.3","","78","","34","","29","","40.2","","99.16","","","","-19","","Mainly Clear"
"1973-12-14 12:00","1973","12","14","12:00","-10.0","","-13.3","","76","","34","","32","","40.2","","99.18","","","","-20","","Mainly Clear"
"1973-12-14 13:00","1973","12","14","13:00","-8.9","","-12.8","","75","","34","","32","","40.2","","99.21","","","","-18","","Mainly Clear"
"1973-12-14 14:00","1973","12","14","14:00","-8.9","","-13.3","","72","","35","","26","","40.2","","99.29","","","","-18","","Mainly Clear"
"1973-12-14 15:00","1973","12","14","15:00","-9.4","","-13.3","","71","","33","","31","","40.2","","99.42","","","","-19","","Mainly Clear"
"1973-12-14 16:00","1973","12","14","16:00","-9.4","","-13.3","","73","","35","","32","","40.2","","99.47","","","","-19","","Mainly Clear"
"1973-12-14 17:00","1973","12","14","17:00","-10.0","","-13.9","","74","","34","","24","","40.2","","99.56","","","","-19","","Mostly Cloudy"
"1973-12-14 18:00","1973","12","14","18:00","-10.6","","-14.4","","73","","34","","26","","25.0","","99.64","","","","-20","","Mostly Cloudy"
"1973-12-14 19:00","1973","12","14","19:00","-10.6","","-15.0","","71","","34","","32","","25.0","","99.72","","","","-21","","Mainly Clear"
"1973-12-14 20:00","1973","12","14","20:00","-11.7","","-15.6","","72","","35","","29","","25.0","","99.79","","","","-22","","Mainly Clear"
"1973-12-14 21:00","1973","12","14","21:00","-12.2","","-16.7","","71","","35","","26","","25.0","","99.85","","","","-22","","Clear"
"1973-12-14 22:00","1973","12","14","22:00","-12.8","","-16.7","","75","","35","","24","","25.0","","99.88","","","","-22","","Clear"
"1973-12-14 23:00","1973","12","14","23:00","-13.3","","-16.7","","77","","35","","21","","25.0","","99.96","","","","-22","","Clear"
"1973-12-15 00:00","1973","12","15","00:00","-13.9","","-17.2","","76","","35","","21","","25.0","","100.01","","","","-23","","Mainly Clear"
"1973-12-15 01:00","1973","12","15","01:00","-13.9","","-16.7","","80","","35","","19","","25.0","","100.04","","","","-23","","Mainly Clear"
"1973-12-15 02:00","1973","12","15","02:00","-13.9","","-16.7","","79","","36","","31","","25.0","","100.04","","","","-25","","Mainly Clear"
"1973-12-15 03:00","1973","12","15","03:00","-13.9","","-16.7","","79","","35","","26","","25.0","","100.01","","","","-24","","Mainly Clear"
"1973-12-15 04:00","1973","12","15","04:00","-13.9","","-16.7","","81","","35","","24","","25.0","","100.02","","","","-24","","Mainly Clear"
"1973-12-15 05:00","1973","12","15","05:00","-13.9","","-16.7","","80","","35","","27","","25.0","","100.03","","","","-24","","Mostly Cloudy"
"1973-12-15 06:00","1973","12","15","06:00","-13.9","","-16.7","","80","","35","","23","","25.0","","100.12","","","","-23","","Mostly Cloudy"
"1973-12-15 07:00","1973","12","15","07:00","-13.9","","-16.1","","82","","35","","21","","25.0","","100.19","","","","-23","","Mostly Cloudy"
"1973-12-15 08:00","1973","12","15","08:00","-13.3","","-15.6","","82","","36","","18","","40.2","","100.21","","","","-22","","Mostly Cloudy"
"1973-12-15 09:00","1973","12","15","09:00","-12.8","","-15.0","","85","","36","","18","","40.2","","100.23","","","","-21","","Cloudy"
"1973-12-15 10:00","1973","12","15","10:00","-11.7","","-14.4","","82","","2","","29","","40.2","","100.23","","","","-22","","Cloudy"
"1973-12-15 11:00","1973","12","15","11:00","-11.1","","-15.6","","70","","36","","23","","40.2","","100.20","","","","-20","","Cloudy"
"1973-12-15 12:00","1973","12","15","12:00","-10.6","","-15.6","","67","","1","","24","","40.2","","100.14","","","","-19","","Cloudy"
"1973-12-15 13:00","1973","12","15","13:00","-10.0","","-15.0","","68","","36","","23","","40.2","","100.07","","","","-18","","Cloudy"
"1973-12-15 14:00","1973","12","15","14:00","-10.0","","-15.6","","62","","36","","19","","40.2","","100.07","","","","-18","","Cloudy"
"1973-12-15 15:00","1973","12","15","15:00","-9.4","","-15.6","","60","","36","","21","","40.2","","100.07","","","","-17","","Mostly Cloudy"
"1973-12-15 16:00","1973","12","15","16:00","-10.0","","-15.0","","66","","35","","21","","40.2","","100.15","","","","-18","","Cloudy"
"1973-12-15 17:00","1973","12","15","17:00","-10.6","","-16.7","","62","","35","","19","","25.0","","100.15","","","","-18","","Mostly Cloudy"
"1973-12-15 18:00","1973","12","15","18:00","-11.1","","-15.6","","69","","35","","21","","25.0","","100.18","","","","-19","","Mostly Cloudy"
"1973-12-15 19:00","1973","12","15","19:00","-11.1","","-16.1","","67","","36","","18","","25.0","","100.22","","","","-19","","Mostly Cloudy"
"1973-12-15 20:00","1973","12","15","20:00","-11.7","","-16.1","","68","","36","","19","","25.0","","100.26","","","","-20","","Mainly Clear"
"1973-12-15 21:00","1973","12","15","21:00","-12.2","","-16.7","","70","","35","","23","","25.0","","100.28","","","","-21","","Mainly Clear"
"1973-12-15 22:00","1973","12","15","22:00","-12.8","","-17.2","","69","","35","","21","","25.0","","100.26","","","","-22","","Mainly Clear"
"1973-12-15 23:00","1973","12","15","23:00","-13.9","","-17.2","","76","","35","","19","","25.0","","100.31","","","","-23","","Mainly Clear"
"1973-12-16 00:00","1973","12","16","00:00","-13.9","","-18.3","","70","","35","","16","","25.0","","100.31","","","","-22","","Mainly Clear"
"1973-12-16 01:00","1973","12","16","01:00","-15.0","","-18.3","","76","","35","","18","","25.0","","100.30","","","","-24","","Mainly Clear"
"1973-12-16 02:00","1973","12","16","02:00","-15.0","","-18.9","","74","","35","","19","","25.0","","100.34","","","","-24","","Clear"
"1973-12-16 03:00","1973","12","16","03:00","-15.6","","-18.3","","78","","35","","21","","25.0","","100.35","","","","-25","","Clear"
"1973-12-16 04:00","1973","12","16","04:00","-16.1","","-18.9","","79","","35","","19","","25.0","","100.37","","","","-25","","Clear"
"1973-12-16 05:00","1973","12","16","05:00","-16.7","","-19.4","","78","","35","","21","","25.0","","100.37","","","","-27","","Clear"
"1973-12-16 06:00","1973","12","16","06:00","-16.7","","-20.0","","78","","35","","18","","25.0","","100.41","","","","-26","","Clear"
"1973-12-16 07:00","1973","12","16","07:00","-17.2","","-19.4","","82","","35","","16","","25.0","","100.46","","","","-26","","Clear"
"1973-12-16 08:00","1973","12","16","08:00","-17.8","","-20.6","","79","","35","","16","","40.2","","100.51","","","","-27","","Clear"
"1973-12-16 09:00","1973","12","16","09:00","-16.7","","-18.9","","83","","1","","19","","40.2","","100.49","","","","-26","","Mainly Clear"
"1973-12-16 10:00","1973","12","16","10:00","-15.6","","-18.9","","77","","1","","16","","40.2","","100.53","","","","-24","","Mainly Clear"
"1973-12-16 11:00","1973","12","16","11:00","-14.4","","-17.8","","75","","36","","21","","40.2","","100.48","","","","-24","","Mainly Clear"
"1973-12-16 12:00","1973","12","16","12:00","-13.3","","-17.2","","75","","35","","16","","40.2","","100.44","","","","-21","","Mainly Clear"
"1973-12-16 13:00","1973","12","16","13:00","-12.8","","-16.7","","74","","36","","14","","40.2","","100.35","","","","-20","","Mainly Clear"
"1973-12-16 14:00","1973","12","16","14:00","-12.2","","-16.1","","73","","5","","14","","40.2","","100.30","","","","-19","","Mainly Clear"
"1973-12-16 15:00","1973","12","16","15:00","-11.7","","-15.6","","74","","3","","21","","40.2","","100.28","","","","-20","","Mostly Cloudy"
"1973-12-16 16:00","1973","12","16","16:00","-12.2","","-16.1","","75","","36","","24","","40.2","","100.28","","","","-21","","Mainly Clear"
"1973-12-16 17:00","1973","12","16","17:00","-13.3","","-17.2","","73","","35","","16","","25.0","","100.38","","","","-21","","Mainly Clear"
"1973-12-16 18:00","1973","12","16","18:00","-15.0","","-19.4","","70","","33","","13","","25.0","","100.40","","","","-22","","Mainly Clear"
"1973-12-16 19:00","1973","12","16","19:00","-13.9","","-17.8","","73","","35","","18","","25.0","","100.35","","","","-22","","Mainly Clear"
"1973-12-16 20:00","1973","12","16","20:00","-14.4","","-18.3","","73","","36","","21","","25.0","","100.29","","","","-24","","Mainly Clear"
"1973-12-16 21:00","1973","12","16","21:00","-13.9","","-18.3","","69","","35","","24","","25.0","","100.31","","","","-24","","Mainly Clear"
"1973-12-16 22:00","1973","12","16","22:00","-14.4","","-17.8","","75","","35","","23","","25.0","","100.32","","","","-24","","Mainly Clear"
"1973-12-16 23:00","1973","12","16","23:00","-15.0","","-18.3","","74","","35","","21","","25.0","","100.26","","","","-24","","Mainly Clear"
"1973-12-17 00:00","1973","12","17","00:00","-15.6","","-18.3","","80","","35","","26","","25.0","","100.22","","","","-26","","Mainly Clear"
"1973-12-17 01:00","1973","12","17","01:00","-16.1","","-19.4","","77","","36","","24","","25.0","","100.12","","","","-26","","Mainly Clear"
"1973-12-17 02:00","1973","12","17","02:00","-16.1","","-19.4","","76","","35","","24","","25.0","","100.05","","","","-26","","Mainly Clear"
"1973-12-17 03:00","1973","12","17","03:00","-16.7","","-19.4","","78","","35","","21","","25.0","","100.04","","","","-27","","Clear"
"1973-12-17 04:00","1973","12","17","04:00","-16.7","","-19.4","","78","","35","","26","","25.0","","100.01","","","","-28","","Clear"
"1973-12-17 05:00","1973","12","17","05:00","-17.2","","-19.4","","80","","35","","26","","25.0","","99.88","","","","-28","","Clear"
"1973-12-17 06:00","1973","12","17","06:00","-17.2","","-20.0","","82","","35","","31","","25.0","","99.80","","","","-29","","Clear"
"1973-12-17 07:00","1973","12","17","07:00","-17.8","","-20.6","","79","","35","","29","","25.0","","99.80","","","","-30","","Mainly Clear"
"1973-12-17 08:00","1973","12","17","08:00","-17.8","","-20.6","","79","","35","","29","","40.2","","99.76","","","","-30","","Mainly Clear"
"1973-12-17 09:00","1973","12","17","09:00","-17.8","","-20.6","","79","","35","","32","","40.2","","99.70","","","","-30","","Mostly Cloudy"
"1973-12-17 10:00","1973","12","17","10:00","-16.7","","-20.6","","73","","34","","35","","40.2","","99.72","","","","-29","","Mostly Cloudy"
"1973-12-17 11:00","1973","12","17","11:00","-15.6","","-19.4","","73","","35","","32","","40.2","","99.64","","","","-27","","Mostly Cloudy"
"1973-12-17 12:00","1973","12","17","12:00","-15.0","","-19.4","","68","","35","","39","","40.2","","99.37","","","","-27","","Mostly Cloudy"
"1973-12-17 13:00","1973","12","17","13:00","-13.9","","-18.3","","67","","35","","37","","40.2","","99.35","","","","-26","","Mostly Cloudy"
"1973-12-17 14:00","1973","12","17","14:00","-11.7","","-17.2","","64","","34","","45","","40.2","","99.27","","","","-24","","Mostly Cloudy"
"1973-12-17 15:00","1973","12","17","15:00","-11.7","","-16.1","","68","","33","","45","","40.2","","99.24","","","","-24","","Mostly Cloudy"
"1973-12-17 16:00","1973","12","17","16:00","-11.1","","-15.6","","70","","34","","47","","40.2","","99.22","","","","-23","","Mostly Cloudy"
"1973-12-17 17:00","1973","12","17","17:00","-11.7","","-16.1","","70","","34","","47","","40.2","","99.18","","","","-24","","Mostly Cloudy"
"1973-12-17 18:00","1973","12","17","18:00","-11.1","","-15.6","","70","","34","","45","","25.0","","99.16","","","","-23","","Mostly Cloudy"
"1973-12-17 19:00","1973","12","17","19:00","-11.1","","-15.0","","72","","33","","42","","25.0","","99.17","","","","-22","","Mostly Cloudy"
"1973-12-17 20:00","1973","12","17","20:00","-11.7","","-15.0","","76","","33","","42","","25.0","","99.18","","","","-23","","Mostly Cloudy"
"1973-12-17 21:00","1973","12","17","21:00","-11.7","","-15.0","","74","","33","","42","","25.0","","99.23","","","","-23","","Mostly Cloudy"
"1973-12-17 22:00","1973","12","17","22:00","-11.7","","-15.6","","74","","33","","43","","25.0","","99.25","","","","-23","","Mostly Cloudy"
"1973-12-17 23:00","1973","12","17","23:00","-13.3","","-15.6","","82","","34","","40","","25.0","","99.29","","","","-25","","Mainly Clear"
"1973-12-18 00:00","1973","12","18","00:00","-13.9","","-17.8","","74","","33","","35","","25.0","","99.36","","","","-25","","Mainly Clear"
"1973-12-18 01:00","1973","12","18","01:00","-13.9","","-16.7","","80","","34","","29","","25.0","","99.41","","","","-24","","Mainly Clear"
"1973-12-18 02:00","1973","12","18","02:00","-15.0","","-17.2","","80","","32","","29","","25.0","","99.52","","","","-26","","Mainly Clear"
"1973-12-18 03:00","1973","12","18","03:00","-15.6","","-18.3","","79","","33","","19","","25.0","","99.63","","","","-25","","Mainly Clear"
"1973-12-18 04:00","1973","12","18","04:00","-16.7","","-19.4","","80","","32","","18","","25.0","","99.71","","","","-26","","Mainly Clear"
"1973-12-18 05:00","1973","12","18","05:00","-16.7","","-19.4","","78","","32","","19","","25.0","","99.82","","","","-26","","Clear"
"1973-12-18 06:00","1973","12","18","06:00","-17.2","","-20.0","","80","","33","","16","","25.0","","99.93","","","","-26","","Mainly Clear"
"1973-12-18 07:00","1973","12","18","07:00","-18.3","","-20.6","","86","","33","","19","","25.0","","100.08","","","","-28","","Mainly Clear"
"1973-12-18 08:00","1973","12","18","08:00","-17.8","","-22.2","","67","","34","","19","","32.2","","100.18","","","","-27","","Mainly Clear"
"1973-12-18 09:00","1973","12","18","09:00","-18.3","","-21.1","","79","","35","","23","","40.2","","100.30","","","","-29","","Clear"
"1973-12-18 10:00","1973","12","18","10:00","-17.2","","-21.1","","72","","35","","23","","40.2","","100.37","","","","-28","","Mostly Cloudy"
"1973-12-18 11:00","1973","12","18","11:00","-16.7","","-20.6","","73","","33","","11","","40.2","","100.49","","","","-24","","Mostly Cloudy"
"1973-12-18 12:00","1973","12","18","12:00","-16.1","","-19.4","","75","","33","","8","","40.2","","100.51","","","","-22","","Mostly Cloudy"
"1973-12-18 13:00","1973","12","18","13:00","-15.0","","-17.8","","78","","2","","6","","40.2","","100.53","","","","-19","","Mostly Cloudy"
"1973-12-18 14:00","1973","12","18","14:00","-15.0","","-18.3","","76","","2","","10","","40.2","","100.55","","","","-21","","Mostly Cloudy"
"1973-12-18 15:00","1973","12","18","15:00","-13.9","","-17.8","","75","","36","","8","","40.2","","100.66","","","","-19","","Mostly Cloudy"
"1973-12-18 16:00","1973","12","18","16:00","-13.3","","-16.7","","76","","3","","6","","40.2","","100.74","","","","-17","","Mostly Cloudy"
"1973-12-18 17:00","1973","12","18","17:00","-13.3","","-16.1","","82","","36","","3","","40.2","","100.79","","","","-15","","Mostly Cloudy"
"1973-12-18 18:00","1973","12","18","18:00","-13.9","","-16.7","","78","","25","","5","","25.0","","100.86","","","","-17","","Mostly Cloudy"
"1973-12-18 19:00","1973","12","18","19:00","-13.9","","-17.2","","77","","31","","3","","25.0","","100.96","","","","-16","","Mostly Cloudy"
"1973-12-18 20:00","1973","12","18","20:00","-16.1","","-18.3","","83","","35","","8","","25.0","","101.02","","","","-22","","Mainly Clear"
"1973-12-18 21:00","1973","12","18","21:00","-15.0","","-17.8","","80","","2","","8","","25.0","","101.02","","","","-20","","Clear"
"1973-12-18 22:00","1973","12","18","22:00","-17.8","","-19.4","","84","","36","","8","","25.0","","101.05","","","","-24","","Clear"
"1973-12-18 23:00","1973","12","18","23:00","-18.9","","-20.0","","89","","35","","8","","25.0","","101.09","","","","-25","","Clear"
"1973-12-19 00:00","1973","12","19","00:00","-18.3","","-20.6","","84","","34","","11","","25.0","","101.14","","","","-26","","Clear"
"1973-12-19 01:00","1973","12","19","01:00","-19.4","","-20.6","","88","","32","","10","","25.0","","101.14","","","","-26","","Mainly Clear"
"1973-12-19 02:00","1973","12","19","02:00","-17.8","","-20.6","","79","","1","","10","","25.0","","101.15","","","","-25","","Mainly Clear"
"1973-12-19 03:00","1973","12","19","03:00","-18.9","","-21.1","","83","","34","","10","","25.0","","101.18","","","","-26","","Mainly Clear"
"1973-12-19 04:00","1973","12","19","04:00","-18.9","","-21.7","","78","","34","","14","","25.0","","101.18","","","","-27","","Mainly Clear"
"1973-12-19 05:00","1973","12","19","05:00","-17.8","","-21.7","","74","","34","","13","","25.0","","101.17","","","","-26","","Mainly Clear"
"1973-12-19 06:00","1973","12","19","06:00","-16.7","","-18.9","","83","","33","","11","","25.0","","101.20","","","","-24","","Mainly Clear"
"1973-12-19 07:00","1973","12","19","07:00","-17.2","","-19.4","","82","","32","","6","","25.0","","101.26","","","","-22","","Mostly Cloudy"
"1973-12-19 08:00","1973","12","19","08:00","-15.0","","-17.2","","82","","34","","6","","4.8","","101.24","","","","-19","","Snow"
"1973-12-19 09:00","1973","12","19","09:00","-13.3","","-15.6","","82","","33","","11","","8.0","","101.28","","","","-20","","Snow"
"1973-12-19 10:00","1973","12","19","10:00","-12.2","","-15.0","","82","","1","","10","","4.8","","101.28","","","","-18","","Snow"
"1973-12-19 11:00","1973","12","19","11:00","-11.1","","-14.4","","77","","4","","18","","4.8","","101.18","","","","-19","","Snow"
"1973-12-19 12:00","1973","12","19","12:00","-10.0","","-12.2","","83","","4","","3","","2.0","","101.11","","","","-12","","Snow"
"1973-12-19 13:00","1973","12","19","13:00","-10.0","","-11.7","","85","","2","","19","","2.4","","101.03","","","","-18","","Snow"
"1973-12-19 14:00","1973","12","19","14:00","-9.4","","-12.2","","82","","3","","23","","3.2","","100.94","","","","-18","","Snow"
"1973-12-19 15:00","1973","12","19","15:00","-9.4","","-11.7","","85","","5","","21","","2.4","","100.90","","","","-17","","Snow"
"1973-12-19 16:00","1973","12","19","16:00","-8.9","","-11.1","","84","","5","","19","","1.6","","100.86","","","","-16","","Snow"
"1973-12-19 17:00","1973","12","19","17:00","-8.9","","-10.6","","87","","5","","23","","1.6","","100.76","","","","-17","","Snow"
"1973-12-19 18:00","1973","12","19","18:00","-8.9","","-11.1","","86","","4","","21","","2.4","","100.80","","","","-17","","Snow"
"1973-12-19 19:00","1973","12","19","19:00","-9.4","","-11.1","","88","","3","","23","","2.4","","100.76","","","","-18","","Snow"
"1973-12-19 20:00","1973","12","19","20:00","-8.9","","-10.6","","87","","5","","21","","1.6","","100.69","","","","-17","","Snow"
"1973-12-19 21:00","1973","12","19","21:00","-8.9","","-11.1","","83","","5","","26","","2.8","","100.60","","","","-18","","Snow"
"1973-12-19 22:00","1973","12","19","22:00","-8.9","","-11.1","","85","","5","","27","","3.2","","100.55","","","","-18","","Snow"
"1973-12-19 23:00","1973","12","19","23:00","-8.9","","-10.6","","86","","5","","27","","1.2","","100.48","","","","-18","","Snow,Blowing Snow"
"1973-12-20 00:00","1973","12","20","00:00","-8.9","","-11.1","","86","","5","","31","","1.2","","100.40","","","","-18","","Snow,Blowing Snow"
"1973-12-20 01:00","1973","12","20","01:00","-8.9","","-11.1","","86","","5","","29","","2.0","","100.27","","","","-18","","Snow,Blowing Snow"
"1973-12-20 02:00","1973","12","20","02:00","-8.9","","-11.1","","86","","5","","26","","2.0","","100.15","","","","-18","","Snow,Blowing Snow"
"1973-12-20 03:00","1973","12","20","03:00","-8.9","","-10.6","","86","","4","","19","","4.8","","100.09","","","","-16","","Snow"
"1973-12-20 04:00","1973","12","20","04:00","-8.9","","-10.0","","89","","4","","23","","1.6","","100.01","","","","-17","","Snow"
"1973-12-20 05:00","1973","12","20","05:00","-8.3","","-10.0","","91","","3","","23","","2.0","","99.94","","","","-16","","Snow"
"1973-12-20 06:00","1973","12","20","06:00","-9.4","","-10.6","","90","","2","","23","","1.6","","99.86","","","","-18","","Snow"
"1973-12-20 07:00","1973","12","20","07:00","-8.3","","-10.0","","89","","1","","18","","3.2","","99.78","","","","-15","","Snow"
"1973-12-20 08:00","1973","12","20","08:00","-8.9","","-10.0","","90","","35","","19","","2.0","","99.70","","","","-16","","Snow"
"1973-12-20 09:00","1973","12","20","09:00","-8.9","","-10.6","","89","","36","","23","","1.6","","99.62","","","","-17","","Snow"
"1973-12-20 10:00","1973","12","20","10:00","-8.9","","-10.0","","89","","35","","21","","1.6","","99.56","","","","-17","","Snow"
"1973-12-20 11:00","1973","12","20","11:00","-8.9","","-10.0","","90","","34","","24","","1.6","","99.44","","","","-17","","Snow"
"1973-12-20 12:00","1973","12","20","12:00","-8.3","","-10.6","","88","","35","","24","","1.2","","99.27","","","","-16","","Snow"
"1973-12-20 13:00","1973","12","20","13:00","-8.3","","-9.4","","91","","35","","24","","1.2","","99.15","","","","-16","","Snow"
"1973-12-20 14:00","1973","12","20","14:00","-8.3","","-10.0","","88","","35","","29","","1.6","","99.00","","","","-17","","Snow"
"1973-12-20 15:00","1973","12","20","15:00","-8.3","","-10.0","","88","","35","","31","","1.6","","98.91","","","","-17","","Snow"
"1973-12-20 16:00","1973","12","20","16:00","-8.9","","-10.0","","90","","35","","24","","1.6","","98.84","","","","-17","","Snow"
"1973-12-20 17:00","1973","12","20","17:00","-8.9","","-10.6","","89","","35","","29","","1.6","","98.77","","","","-18","","Snow"
"1973-12-20 18:00","1973","12","20","18:00","-8.9","","-10.6","","89","","35","","32","","1.6","","98.68","","","","-18","","Snow"
"1973-12-20 19:00","1973","12","20","19:00","-8.3","","-10.0","","89","","35","","32","","2.4","","98.62","","","","-18","","Snow"
"1973-12-20 20:00","1973","12","20","20:00","-8.3","","-10.0","","89","","34","","27","","2.4","","98.53","","","","-17","","Snow"
"1973-12-20 21:00","1973","12","20","21:00","-8.9","","-10.6","","87","","34","","31","","2.4","","98.52","","","","-18","","Snow"
"1973-12-20 22:00","1973","12","20","22:00","-8.9","","-10.0","","89","","34","","31","","1.6","","98.50","","","","-18","","Snow"
"1973-12-20 23:00","1973","12","20","23:00","-8.3","","-10.6","","87","","35","","29","","3.2","","98.50","","","","-17","","Snow"
"1973-12-21 00:00","1973","12","21","00:00","-8.9","","-11.1","","86","","33","","27","","2.4","","98.51","","","","-18","","Snow"
"1973-12-21 01:00","1973","12","21","01:00","-9.4","","-11.1","","88","","32","","27","","3.2","","98.52","","","","-18","","Snow"
"1973-12-21 02:00","1973","12","21","02:00","-10.0","","-11.7","","86","","32","","26","","9.7","","98.54","","","","-19","","Snow"
"1973-12-21 03:00","1973","12","21","03:00","-10.0","","-13.3","","78","","32","","24","","25.0","","98.61","","","","-19","","Mostly Cloudy"
"1973-12-21 04:00","1973","12","21","04:00","-10.6","","-13.3","","81","","32","","26","","25.0","","98.63","","","","-20","","Mostly Cloudy"
"1973-12-21 05:00","1973","12","21","05:00","-11.7","","-13.9","","81","","33","","23","","25.0","","98.63","","","","-21","","Mainly Clear"
"1973-12-21 06:00","1973","12","21","06:00","-11.7","","-13.9","","83","","33","","19","","25.0","","98.68","","","","-20","","Mostly Cloudy"
"1973-12-21 07:00","1973","12","21","07:00","-10.0","","-12.8","","80","","33","","24","","24.1","","98.74","","","","-19","","Snow"
"1973-12-21 08:00","1973","12","21","08:00","-10.0","","-13.3","","78","","33","","37","","32.2","","98.83","","","","-20","","Snow"
"1973-12-21 09:00","1973","12","21","09:00","-10.0","","-13.3","","77","","35","","42","","32.2","","98.77","","","","-21","","Mostly Cloudy"
"1973-12-21 10:00","1973","12","21","10:00","-9.4","","-12.8","","77","","34","","35","","32.2","","98.75","","","","-19","","Mostly Cloudy"
"1973-12-21 11:00","1973","12","21","11:00","-8.9","","-13.3","","73","","35","","35","","32.2","","98.67","","","","-19","","Mostly Cloudy"
"1973-12-21 12:00","1973","12","21","12:00","-8.9","","-12.8","","74","","36","","31","","32.2","","98.62","","","","-18","","Mainly Clear"
"1973-12-21 13:00","1973","12","21","13:00","-8.3","","-11.7","","76","","34","","32","","32.2","","98.58","","","","-18","","Mostly Cloudy"
"1973-12-21 14:00","1973","12","21","14:00","-7.8","","-11.7","","74","","34","","39","","32.2","","98.51","","","","-18","","Mostly Cloudy"
"1973-12-21 15:00","1973","12","21","15:00","-7.8","","-11.1","","77","","34","","40","","40.2","","98.57","","","","-18","","Mainly Clear"
"1973-12-21 16:00","1973","12","21","16:00","-7.8","","-12.2","","72","","32","","40","","32.2","","98.65","","","","-18","","Mainly Clear"
"1973-12-21 17:00","1973","12","21","17:00","-8.9","","-11.7","","78","","32","","32","","40.2","","98.75","","","","-18","","Mainly Clear"
"1973-12-21 18:00","1973","12","21","18:00","-8.9","","-12.2","","76","","32","","40","","25.0","","98.79","","","","-19","","Clear"
"1973-12-21 19:00","1973","12","21","19:00","-9.4","","-12.8","","77","","32","","32","","25.0","","98.85","","","","-19","","Clear"
"1973-12-21 20:00","1973","12","21","20:00","-8.9","","-12.2","","79","","32","","31","","25.0","","98.91","","","","-18","","Mainly Clear"
"1973-12-21 21:00","1973","12","21","21:00","-8.9","","-11.7","","80","","32","","26","","19.3","","98.95","","","","-18","","Snow"
"1973-12-21 22:00","1973","12","21","22:00","-8.9","","-11.7","","80","","32","","26","","19.3","","99.00","","","","-18","","Snow"
"1973-12-21 23:00","1973","12","21","23:00","-10.6","","-13.3","","78","","29","","16","","24.1","","99.04","","","","-18","","Mainly Clear"
"1973-12-22 00:00","1973","12","22","00:00","-11.1","","-13.9","","82","","31","","18","","25.0","","99.12","","","","-19","","Mainly Clear"
"1973-12-22 01:00","1973","12","22","01:00","-11.1","","-12.8","","87","","26","","11","","12.9","","99.14","","","","-17","","Snow Showers"
"1973-12-22 02:00","1973","12","22","02:00","-13.3","","-15.0","","86","","28","","18","","25.0","","99.21","","","","-22","","Snow Showers"
"1973-12-22 03:00","1973","12","22","03:00","-13.3","","-15.6","","84","","30","","24","","25.0","","99.28","","","","-23","","Mainly Clear"
"1973-12-22 04:00","1973","12","22","04:00","-15.0","","-17.2","","84","","31","","21","","25.0","","99.33","","","","-24","","Mainly Clear"
"1973-12-22 05:00","1973","12","22","05:00","-16.1","","-18.9","","81","","32","","16","","25.0","","99.37","","","","-25","","Mainly Clear"
"1973-12-22 06:00","1973","12","22","06:00","-16.1","","-18.9","","81","","33","","10","","25.0","","99.45","","","","-23","","Mostly Cloudy"
"1973-12-22 07:00","1973","12","22","07:00","-15.6","","-17.2","","86","","33","","16","","25.0","","99.48","","","","-24","","Mostly Cloudy"
"1973-12-22 08:00","1973","12","22","08:00","-13.9","","-16.1","","83","","1","","13","","40.2","","99.48","","","","-21","","Mostly Cloudy"
"1973-12-22 09:00","1973","12","22","09:00","-13.9","","-16.1","","83","","","","0","","40.2","","99.51","","","","","","Mostly Cloudy"
"1973-12-22 10:00","1973","12","22","10:00","-11.7","","-14.4","","78","","21","","10","","40.2","","99.53","","","","-17","","Cloudy"
"1973-12-22 11:00","1973","12","22","11:00","-10.0","","-13.3","","77","","21","","13","","40.2","","99.43","","","","-16","","Cloudy"
"1973-12-22 12:00","1973","12","22","12:00","-8.3","","-11.7","","75","","21","","16","","40.2","","99.33","","","","-15","","Mostly Cloudy"
"1973-12-22 13:00","1973","12","22","13:00","-7.2","","-10.6","","75","","20","","21","","32.2","","99.19","","","","-15","","Cloudy"
"1973-12-22 14:00","1973","12","22","14:00","-5.6","","-9.4","","75","","20","","21","","32.2","","99.14","","","","-12","","Cloudy"
"1973-12-22 15:00","1973","12","22","15:00","-5.0","","-8.9","","75","","19","","13","","32.2","","99.09","","","","-10","","Cloudy"
"1973-12-22 16:00","1973","12","22","16:00","-5.0","","-8.9","","74","","19","","21","","24.1","","99.00","","","","-12","","Cloudy"
"1973-12-22 17:00","1973","12","22","17:00","-5.0","","-8.3","","77","","19","","18","","24.1","","98.89","","","","-11","","Cloudy"
"1973-12-22 18:00","1973","12","22","18:00","-4.4","","-7.8","","76","","19","","13","","25.0","","98.87","","","","-9","","Cloudy"
"1973-12-22 19:00","1973","12","22","19:00","-3.9","","-7.2","","77","","18","","23","","25.0","","98.72","","","","-11","","Mostly Cloudy"
"1973-12-22 20:00","1973","12","22","20:00","-2.8","","-5.0","","83","","20","","32","","25.0","","98.63","","","","-10","","Mostly Cloudy"
"1973-12-22 21:00","1973","12","22","21:00","-2.8","","-5.6","","79","","21","","27","","25.0","","98.57","","","","-10","","Mostly Cloudy"
"1973-12-22 22:00","1973","12","22","22:00","-2.2","","-5.6","","77","","22","","23","","25.0","","98.53","","","","-8","","Mostly Cloudy"
"1973-12-22 23:00","1973","12","22","23:00","-1.7","","-4.4","","81","","24","","31","","25.0","","98.57","","","","-9","","Mostly Cloudy"
"1973-12-23 00:00","1973","12","23","00:00","-2.2","","-5.6","","79","","24","","31","","25.0","","98.55","","","","-9","","Cloudy"
"1973-12-23 01:00","1973","12","23","01:00","-2.8","","-5.6","","79","","24","","27","","25.0","","98.55","","","","-10","","Cloudy"
"1973-12-23 02:00","1973","12","23","02:00","-2.8","","-5.6","","79","","25","","24","","25.0","","98.56","","","","-9","","Cloudy"
"1973-12-23 03:00","1973","12","23","03:00","-2.8","","-6.1","","79","","25","","21","","24.1","","98.59","","","","-9","","Cloudy"
"1973-12-23 04:00","1973","12","23","04:00","-2.8","","-5.6","","81","","24","","23","","19.3","","98.61","","","","-9","","Cloudy"
"1973-12-23 05:00","1973","12","23","05:00","-3.3","","-5.6","","82","","23","","26","","19.3","","98.64","","","","-10","","Cloudy"
"1973-12-23 06:00","1973","12","23","06:00","-3.3","","-4.4","","91","","24","","23","","4.8","","98.67","","","","-10","","Freezing Rain,Fog"
"1973-12-23 07:00","1973","12","23","07:00","-3.3","","-3.9","","94","","23","","24","","8.0","","98.78","","","","-10","","Ice Pellets,Fog"
"1973-12-23 08:00","1973","12","23","08:00","-3.3","","-4.4","","91","","22","","26","","4.8","","98.87","","","","-10","","Snow,Fog"
"1973-12-23 09:00","1973","12","23","09:00","-2.2","","-3.9","","92","","22","","27","","6.4","","98.99","","","","-9","","Snow,Fog"
"1973-12-23 10:00","1973","12","23","10:00","-2.2","","-2.8","","94","","26","","21","","2.0","","99.13","","","","-8","","Snow"
"1973-12-23 11:00","1973","12","23","11:00","-2.8","","-5.0","","84","","35","","23","","32.2","","99.29","","","","-9","","Snow"
"1973-12-23 12:00","1973","12","23","12:00","-3.9","","-6.7","","81","","34","","24","","40.2","","99.39","","","","-11","","Mainly Clear"
"1973-12-23 13:00","1973","12","23","13:00","-3.9","","-7.2","","80","","35","","18","","40.2","","99.48","","","","-10","","Clear"
"1973-12-23 14:00","1973","12","23","14:00","-4.4","","-6.7","","83","","32","","23","","40.2","","99.56","","","","-11","","Mainly Clear"
"1973-12-23 15:00","1973","12","23","15:00","-5.6","","-9.4","","76","","34","","26","","40.2","","99.73","","","","-13","","Mainly Clear"
"1973-12-23 16:00","1973","12","23","16:00","-6.1","","-10.0","","74","","34","","24","","40.2","","99.86","","","","-14","","Mainly Clear"
"1973-12-23 17:00","1973","12","23","17:00","-7.8","","-11.1","","77","","34","","23","","40.2","","100.05","","","","-16","","Mainly Clear"
"1973-12-23 18:00","1973","12","23","18:00","-10.0","","-13.3","","77","","32","","18","","25.0","","100.16","","","","-17","","Mainly Clear"
"1973-12-23 19:00","1973","12","23","19:00","-11.7","","-14.4","","81","","33","","19","","25.0","","100.26","","","","-20","","Mainly Clear"
"1973-12-23 20:00","1973","12","23","20:00","-11.7","","-14.4","","80","","33","","21","","25.0","","100.35","","","","-20","","Clear"
"1973-12-23 21:00","1973","12","23","21:00","-11.7","","-14.4","","82","","34","","14","","25.0","","100.47","","","","-19","","Clear"
"1973-12-23 22:00","1973","12","23","22:00","-11.7","","-14.4","","80","","36","","21","","25.0","","100.56","","","","-20","","Clear"
"1973-12-23 23:00","1973","12","23","23:00","-15.6","","-17.8","","82","","35","","19","","25.0","","100.66","","","","-25","","Clear"
"1973-12-24 00:00","1973","12","24","00:00","-15.0","","-17.2","","82","","35","","18","","25.0","","100.73","","","","-24","","Clear"
"1973-12-24 01:00","1973","12","24","01:00","-17.8","","-19.4","","89","","34","","14","","25.0","","100.81","","","","-26","","Clear"
"1973-12-24 02:00","1973","12","24","02:00","-19.4","","-20.6","","91","","32","","14","","25.0","","100.91","","","","-28","","Clear"
"1973-12-24 03:00","1973","12","24","03:00","-18.9","","-20.6","","89","","33","","16","","25.0","","101.02","","","","-28","","Clear"
"1973-12-24 04:00","1973","12","24","04:00","-18.3","","-20.0","","89","","34","","16","","25.0","","101.07","","","","-27","","Clear"
"1973-12-24 05:00","1973","12","24","05:00","-18.9","","-20.6","","88","","34","","14","","25.0","","101.11","","","","-27","","Clear"
"1973-12-24 06:00","1973","12","24","06:00","-18.9","","-20.6","","89","","35","","16","","25.0","","101.15","","","","-28","","Mainly Clear"
"1973-12-24 07:00","1973","12","24","07:00","-16.7","","-20.6","","71","","36","","16","","25.0","","101.22","","","","-25","","Mainly Clear"
"1973-12-24 08:00","1973","12","24","08:00","-16.1","","-21.1","","65","","2","","21","","32.2","","101.23","","","","-26","","Mostly Cloudy"
"1973-12-24 09:00","1973","12","24","09:00","-15.0","","-18.9","","70","","4","","18","","32.2","","101.29","","","","-24","","Snow Showers"
"1973-12-24 10:00","1973","12","24","10:00","-13.3","","-16.7","","75","","5","","19","","32.2","","101.33","","","","-22","","Snow Showers"
"1973-12-24 11:00","1973","12","24","11:00","-12.2","","-15.6","","75","","4","","19","","32.2","","101.41","","","","-20","","Mostly Cloudy"
"1973-12-24 12:00","1973","12","24","12:00","-11.1","","-14.4","","77","","4","","21","","24.1","","101.35","","","","-19","","Snow Showers"
"1973-12-24 13:00","1973","12","24","13:00","-9.4","","-12.8","","78","","4","","23","","9.7","","101.33","","","","-18","","Snow"
"1973-12-24 14:00","1973","12","24","14:00","-8.9","","-10.6","","87","","7","","23","","4.8","","101.27","","","","-17","","Snow"
"1973-12-24 15:00","1973","12","24","15:00","-8.3","","-10.6","","85","","7","","24","","4.8","","101.23","","","","-16","","Snow"
"1973-12-24 16:00","1973","12","24","16:00","-8.3","","-11.1","","81","","6","","23","","16.1","","101.25","","","","-16","","Snow"
"1973-12-24 17:00","1973","12","24","17:00","-8.9","","-11.1","","85","","6","","26","","19.3","","101.19","","","","-18","","Snow"
"1973-12-24 18:00","1973","12","24","18:00","-8.9","","-11.1","","83","","6","","27","","24.1","","101.10","","","","-18","","Mostly Cloudy"
"1973-12-24 19:00","1973","12","24","19:00","-9.4","","-11.7","","84","","5","","21","","24.1","","101.11","","","","-17","","Mostly Cloudy"
"1973-12-24 20:00","1973","12","24","20:00","-9.4","","-12.2","","82","","5","","23","","24.1","","101.03","","","","-18","","Mostly Cloudy"
"1973-12-24 21:00","1973","12","24","21:00","-10.0","","-12.2","","82","","4","","18","","24.1","","100.99","","","","-17","","Mostly Cloudy"
"1973-12-24 22:00","1973","12","24","22:00","-8.3","","-11.1","","82","","6","","18","","25.0","","100.88","","","","-15","","Mainly Clear"
"1973-12-24 23:00","1973","12","24","23:00","-8.3","","-11.1","","84","","6","","26","","25.0","","100.74","","","","-17","","Mostly Cloudy"
"1973-12-25 00:00","1973","12","25","00:00","-8.3","","-10.6","","85","","5","","18","","25.0","","100.65","","","","-15","","Cloudy"
"1973-12-25 01:00","1973","12","25","01:00","-7.8","","-10.0","","86","","4","","14","","24.1","","100.53","","","","-14","","Mostly Cloudy"
"1973-12-25 02:00","1973","12","25","02:00","-7.8","","-10.0","","87","","2","","13","","24.1","","100.53","","","","-14","","Mostly Cloudy"
"1973-12-25 03:00","1973","12","25","03:00","-7.8","","-8.9","","90","","3","","16","","4.8","","100.46","","","","-14","","Fog"
"1973-12-25 04:00","1973","12","25","04:00","-7.2","","-8.9","","89","","4","","18","","12.9","","100.40","","","","-14","","Mostly Cloudy"
"1973-12-25 05:00","1973","12","25","05:00","-6.7","","-8.3","","89","","5","","11","","16.1","","100.32","","","","-12","","Mostly Cloudy"
"1973-12-25 06:00","1973","12","25","06:00","-5.6","","-7.8","","86","","1","","8","","16.1","","100.26","","","","-9","","Cloudy"
"1973-12-25 07:00","1973","12","25","07:00","-5.0","","-6.7","","88","","4","","14","","12.9","","100.17","","","","-10","","Freezing Drizzle"
"1973-12-25 08:00","1973","12","25","08:00","-4.4","","-6.1","","87","","6","","18","","12.9","","100.01","","","","-10","","Freezing Rain"
"1973-12-25 09:00","1973","12","25","09:00","-2.2","","-4.4","","86","","11","","8","","12.9","","100.01","","","","-5","","Freezing Rain"
"1973-12-25 10:00","1973","12","25","10:00","0.0","","-2.8","","83","","13","","21","","12.9","","99.96","","","","-5","","Freezing Rain"
"1973-12-25 11:00","1973","12","25","11:00","0.6","","-2.2","","81","","13","","29","","11.3","","99.84","","","","","","Rain"
"1973-12-25 12:00","1973","12","25","12:00","0.6","","-1.1","","89","","14","","21","","6.4","","99.73","","","","","","Moderate Rain,Fog"
"1973-12-25 13:00","1973","12","25","13:00","0.6","","-0.6","","92","","13","","21","","4.8","","99.59","","","","","","Moderate Rain,Fog"
"1973-12-25 14:00","1973","12","25","14:00","1.1","","0.6","","97","","14","","19","","2.4","","99.49","","","","","","Rain,Fog"
"1973-12-25 15:00","1973","12","25","15:00","1.1","","1.1","","98","","13","","16","","1.6","","99.45","","","","","","Rain,Fog"
"1973-12-25 16:00","1973","12","25","16:00","1.7","","1.7","","100","","13","","14","","0.6","","99.37","","","","","","Rain,Drizzle,Fog"
"1973-12-25 17:00","1973","12","25","17:00","2.2","","2.2","","100","","12","","18","","0.6","","99.29","","","","","","Rain,Drizzle,Fog"
"1973-12-25 18:00","1973","12","25","18:00","2.2","","2.2","","100","","12","","19","","0.2","","99.22","","","","","","Rain,Drizzle,Fog"
"1973-12-25 19:00","1973","12","25","19:00","2.8","","2.8","","99","","17","","11","","0.0","","99.20","","","","","","Rain,Fog"
"1973-12-25 20:00","1973","12","25","20:00","3.3","","3.3","","100","","16","","13","","0.0","","99.17","","","","","","Fog"
"1973-12-25 21:00","1973","12","25","21:00","4.4","","4.4","","99","","18","","16","","1.2","","99.13","","","","","","Fog"
"1973-12-25 22:00","1973","12","25","22:00","4.4","","4.4","","98","","17","","16","","3.6","","99.04","","","","","","Fog"
"1973-12-25 23:00","1973","12","25","23:00","5.6","","5.0","","98","","18","","18","","6.4","","98.98","","","","","","Fog"
"1973-12-26 00:00","1973","12","26","00:00","5.6","","5.0","","96","","22","","19","","11.3","","98.96","","","","","","Cloudy"
"1973-12-26 01:00","1973","12","26","01:00","5.0","","4.4","","97","","23","","23","","11.3","","98.93","","","","","","Drizzle"
"1973-12-26 02:00","1973","12","26","02:00","3.9","","2.8","","93","","25","","24","","12.9","","98.95","","","","","","Mostly Cloudy"
"1973-12-26 03:00","1973","12","26","03:00","4.4","","2.2","","86","","26","","24","","16.1","","99.04","","","","","","Mostly Cloudy"
"1973-12-26 04:00","1973","12","26","04:00","3.3","","0.6","","83","","28","","27","","24.1","","99.11","","","","","","Mainly Clear"
"1973-12-26 05:00","1973","12","26","05:00","1.7","","-1.1","","81","","29","","16","","24.1","","99.21","","","","","","Mainly Clear"
"1973-12-26 06:00","1973","12","26","06:00","0.6","","-1.7","","84","","28","","13","","24.1","","99.27","","","","","","Mainly Clear"
"1973-12-26 07:00","1973","12","26","07:00","1.7","","-0.6","","84","","","","0","","19.3","","99.43","","","","","","Mostly Cloudy"
"1973-12-26 08:00","1973","12","26","08:00","2.2","","0.0","","85","","26","","5","","16.1","","99.50","","","","","","Cloudy"
"1973-12-26 09:00","1973","12","26","09:00","1.7","","0.0","","89","","18","","6","","19.3","","99.51","","","","","","Mostly Cloudy"
"1973-12-26 10:00","1973","12","26","10:00","2.2","","0.0","","84","","23","","5","","19.3","","99.54","","","","","","Mostly Cloudy"
"1973-12-26 11:00","1973","12","26","11:00","2.2","","0.0","","85","","24","","6","","19.3","","99.47","","","","","","Cloudy"
"1973-12-26 12:00","1973","12","26","12:00","2.8","","0.0","","81","","","","0","","19.3","","99.43","","","","","","Cloudy"
"1973-12-26 13:00","1973","12","26","13:00","3.9","","0.0","","77","","","","0","","17.7","","99.42","","","","","","Cloudy"
"1973-12-26 14:00","1973","12","26","14:00","3.3","","0.6","","82","","","","0","","16.1","","99.35","","","","","","Cloudy"
"1973-12-26 15:00","1973","12","26","15:00","3.3","","0.6","","85","","5","","13","","16.1","","99.26","","","","","","Cloudy"
"1973-12-26 16:00","1973","12","26","16:00","3.3","","0.6","","83","","8","","13","","12.9","","99.21","","","","","","Cloudy"
"1973-12-26 17:00","1973","12","26","17:00","2.8","","0.0","","83","","7","","16","","12.9","","99.12","","","","","","Cloudy"
"1973-12-26 18:00","1973","12","26","18:00","2.8","","0.0","","83","","7","","18","","12.9","","99.06","","","","","","Cloudy"
"1973-12-26 19:00","1973","12","26","19:00","2.2","","0.6","","88","","6","","19","","9.7","","98.89","","","","","","Rain,Fog"
"1973-12-26 20:00","1973","12","26","20:00","2.2","","1.1","","91","","7","","24","","8.0","","98.78","","","","","","Rain,Fog"
"1973-12-26 21:00","1973","12","26","21:00","1.7","","0.6","","92","","6","","24","","6.4","","98.69","","","","","","Moderate Rain,Fog"
"1973-12-26 22:00","1973","12","26","22:00","1.7","","0.6","","93","","5","","32","","6.4","","98.50","","","","","","Moderate Rain,Fog"
"1973-12-26 23:00","1973","12","26","23:00","1.7","","0.6","","93","","6","","24","","6.4","","98.44","","","","","","Rain,Fog"
"1973-12-27 00:00","1973","12","27","00:00","2.8","","1.7","","94","","6","","19","","6.4","","98.51","","","","","","Moderate Rain,Fog"
"1973-12-27 01:00","1973","12","27","01:00","2.2","","1.1","","93","","7","","29","","12.9","","98.35","","","","","","Rain"
"1973-12-27 02:00","1973","12","27","02:00","2.2","","1.1","","94","","6","","6","","12.9","","98.50","","","","","","Rain"
"1973-12-27 03:00","1973","12","27","03:00","2.2","","1.1","","95","","","","0","","4.8","","98.64","","","","","","Drizzle,Fog"
"1973-12-27 04:00","1973","12","27","04:00","1.7","","1.7","","98","","","","0","","6.4","","98.63","","","","","","Drizzle,Fog"
"1973-12-27 05:00","1973","12","27","05:00","1.7","","1.7","","98","","12","","11","","3.2","","98.65","","","","","","Drizzle,Fog"
"1973-12-27 06:00","1973","12","27","06:00","2.2","","1.7","","97","","17","","18","","4.8","","98.67","","","","","","Drizzle,Fog"
"1973-12-27 07:00","1973","12","27","07:00","3.3","","1.1","","88","","21","","26","","25.0","","98.72","","","","","","Cloudy"
"1973-12-27 08:00","1973","12","27","08:00","2.8","","0.6","","84","","22","","24","","24.1","","98.78","","","","","","Rain"
"1973-12-27 09:00","1973","12","27","09:00","2.2","","0.6","","88","","22","","27","","24.1","","98.86","","","","","","Rain"
"1973-12-27 10:00","1973","12","27","10:00","2.2","","0.0","","85","","24","","26","","24.1","","98.90","","","","","","Cloudy"
"1973-12-27 11:00","1973","12","27","11:00","2.2","","0.0","","85","","24","","21","","24.1","","98.87","","","","","","Cloudy"
"1973-12-27 12:00","1973","12","27","12:00","2.2","","0.6","","87","","22","","18","","24.1","","98.85","","","","","","Cloudy"
"1973-12-27 13:00","1973","12","27","13:00","2.2","","0.6","","88","","22","","26","","19.3","","98.84","","","","","","Rain"
"1973-12-27 14:00","1973","12","27","14:00","2.8","","0.6","","84","","22","","27","","16.1","","98.81","","","","","","Rain"
"1973-12-27 15:00","1973","12","27","15:00","3.3","","0.0","","81","","21","","26","","16.1","","98.81","","","","","","Cloudy"
"1973-12-27 16:00","1973","12","27","16:00","2.8","","0.0","","81","","21","","26","","16.1","","98.82","","","","","","Cloudy"
"1973-12-27 17:00","1973","12","27","17:00","2.8","","0.0","","83","","21","","19","","19.3","","98.85","","","","","","Cloudy"
"1973-12-27 18:00","1973","12","27","18:00","2.8","","0.6","","87","","20","","13","","16.1","","98.86","","","","","","Rain"
"1973-12-27 19:00","1973","12","27","19:00","2.2","","1.1","","89","","18","","11","","12.9","","98.82","","","","","","Cloudy"
"1973-12-27 20:00","1973","12","27","20:00","1.7","","0.6","","91","","24","","6","","6.4","","98.78","","","","","","Rain,Fog"
"1973-12-27 21:00","1973","12","27","21:00","1.7","","1.1","","96","","23","","14","","4.8","","98.77","","","","","","Moderate Rain,Fog"
"1973-12-27 22:00","1973","12","27","22:00","1.7","","0.6","","96","","22","","10","","8.0","","98.78","","","","","","Rain,Fog"
"1973-12-27 23:00","1973","12","27","23:00","1.1","","0.6","","95","","24","","24","","12.9","","98.85","","","","","","Mostly Cloudy"
"1973-12-28 00:00","1973","12","28","00:00","1.1","","0.6","","97","","24","","19","","16.1","","98.91","","","","","","Mostly Cloudy"
"1973-12-28 01:00","1973","12","28","01:00","1.1","","-0.6","","89","","23","","27","","12.9","","98.95","","","","","","Rain"
"1973-12-28 02:00","1973","12","28","02:00","1.1","","-0.6","","90","","23","","23","","11.3","","98.97","","","","","","Snow"
"1973-12-28 03:00","1973","12","28","03:00","1.1","","-1.7","","80","","25","","32","","24.1","","99.03","","","","","","Rain"
"1973-12-28 04:00","1973","12","28","04:00","1.1","","-2.2","","79","","25","","34","","24.1","","99.05","","","","","","Rain"
"1973-12-28 05:00","1973","12","28","05:00","0.0","","-2.8","","83","","25","","37","","12.9","","99.14","","","","-7","","Freezing Drizzle"
"1973-12-28 06:00","1973","12","28","06:00","-1.1","","-2.2","","91","","25","","29","","19.3","","99.20","","","","-8","","Freezing Drizzle"
"1973-12-28 07:00","1973","12","28","07:00","-0.6","","-3.9","","79","","24","","31","","24.1","","99.28","","","","-7","","Cloudy"
"1973-12-28 08:00","1973","12","28","08:00","-0.6","","-3.9","","77","","24","","27","","19.3","","99.34","","","","-7","","Cloudy"
"1973-12-28 09:00","1973","12","28","09:00","0.0","","-3.9","","77","","23","","21","","19.3","","99.41","","","","-5","","Snow"
"1973-12-28 10:00","1973","12","28","10:00","0.0","","-3.3","","77","","24","","26","","19.3","","99.48","","","","-6","","Snow"
"1973-12-28 11:00","1973","12","28","11:00","0.0","","-2.8","","80","","24","","34","","19.3","","99.51","","","","-7","","Snow"
"1973-12-28 12:00","1973","12","28","12:00","0.6","","-3.3","","74","","24","","29","","24.1","","99.44","","","","","","Mostly Cloudy"
"1973-12-28 13:00","1973","12","28","13:00","0.6","","-3.3","","75","","25","","29","","24.1","","99.38","","","","","","Mostly Cloudy"
"1973-12-28 14:00","1973","12","28","14:00","0.6","","-3.3","","74","","24","","26","","24.1","","99.37","","","","","","Mostly Cloudy"
"1973-12-28 15:00","1973","12","28","15:00","0.6","","-2.8","","77","","24","","16","","24.1","","99.34","","","","","","Mostly Cloudy"
"1973-12-28 16:00","1973","12","28","16:00","0.6","","-3.3","","75","","23","","18","","24.1","","99.36","","","","","","Mostly Cloudy"
"1973-12-28 17:00","1973","12","28","17:00","0.0","","-2.8","","79","","21","","18","","12.9","","99.37","","","","-5","","Mostly Cloudy"
"1973-12-28 18:00","1973","12","28","18:00","0.0","","-2.8","","82","","20","","13","","16.1","","99.36","","","","-4","","Cloudy"
"1973-12-28 19:00","1973","12","28","19:00","0.0","","-2.8","","83","","20","","13","","19.3","","99.34","","","","-4","","Mostly Cloudy"
"1973-12-28 20:00","1973","12","28","20:00","0.0","","-2.8","","83","","18","","10","","25.0","","99.29","","","","-3","","Mostly Cloudy"
"1973-12-28 21:00","1973","12","28","21:00","0.0","","-2.8","","83","","17","","10","","25.0","","99.18","","","","-3","","Mostly Cloudy"
"1973-12-28 22:00","1973","12","28","22:00","0.0","","-2.2","","85","","13","","11","","16.1","","99.02","","","","-4","","Mostly Cloudy"
"1973-12-28 23:00","1973","12","28","23:00","0.6","","-1.7","","86","","15","","11","","16.1","","98.94","","","","","","Snow"
"1973-12-29 00:00","1973","12","29","00:00","1.1","","-1.7","","82","","13","","16","","19.3","","98.83","","","","","","Cloudy"
"1973-12-29 01:00","1973","12","29","01:00","1.1","","-1.7","","83","","15","","18","","16.1","","98.71","","","","","","Mostly Cloudy"
"1973-12-29 02:00","1973","12","29","02:00","1.1","","-1.7","","81","","15","","14","","16.1","","98.65","","","","","","Cloudy"
"1973-12-29 03:00","1973","12","29","03:00","1.1","","-1.7","","81","","15","","14","","16.1","","98.61","","","","","","Mostly Cloudy"
"1973-12-29 04:00","1973","12","29","04:00","1.1","","-1.7","","81","","16","","14","","19.3","","98.55","","","","","","Mainly Clear"
"1973-12-29 05:00","1973","12","29","05:00","1.7","","-1.7","","81","","18","","13","","19.3","","98.53","","","","","","Mostly Cloudy"
"1973-12-29 06:00","1973","12","29","06:00","1.7","","-2.2","","75","","18","","13","","19.3","","98.52","","","","","","Mainly Clear"
"1973-12-29 07:00","1973","12","29","07:00","0.6","","-1.1","","86","","19","","14","","19.3","","98.54","","","","","","Mostly Cloudy"
"1973-12-29 08:00","1973","12","29","08:00","1.1","","-1.7","","81","","22","","14","","19.3","","98.50","","","","","","Mostly Cloudy"
"1973-12-29 09:00","1973","12","29","09:00","2.2","","-0.6","","83","","22","","21","","24.1","","98.51","","","","","","Mostly Cloudy"
"1973-12-29 10:00","1973","12","29","10:00","2.2","","-0.6","","82","","22","","11","","19.3","","98.48","","","","","","Mostly Cloudy"
"1973-12-29 11:00","1973","12","29","11:00","2.2","","-0.6","","82","","21","","14","","19.3","","98.44","","","","","","Cloudy"
"1973-12-29 12:00","1973","12","29","12:00","2.8","","-0.6","","79","","21","","13","","19.3","","98.32","","","","","","Cloudy"
"1973-12-29 13:00","1973","12","29","13:00","2.8","","0.0","","82","","21","","13","","19.3","","98.26","","","","","","Cloudy"
"1973-12-29 14:00","1973","12","29","14:00","2.2","","-0.6","","82","","24","","6","","19.3","","98.11","","","","","","Cloudy"
"1973-12-29 15:00","1973","12","29","15:00","2.2","","-0.6","","83","","21","","6","","16.1","","97.99","","","","","","Rain"
"1973-12-29 16:00","1973","12","29","16:00","1.7","","0.0","","88","","17","","10","","4.8","","97.98","","","","","","Rain,Snow"
"1973-12-29 17:00","1973","12","29","17:00","0.6","","0.0","","96","","20","","11","","0.8","","98.01","","","","","","Moderate Snow"
"1973-12-29 18:00","1973","12","29","18:00","0.6","","0.0","","97","","20","","11","","0.8","","97.96","","","","","","Moderate Snow"
"1973-12-29 19:00","1973","12","29","19:00","0.0","","-0.6","","96","","23","","8","","3.6","","97.92","","","","-3","","Snow"
"1973-12-29 20:00","1973","12","29","20:00","0.6","","-0.6","","93","","25","","32","","11.3","","97.92","","","","","","Snow"
"1973-12-29 21:00","1973","12","29","21:00","-1.1","","-3.9","","80","","27","","29","","25.0","","97.97","","","","-8","","Mostly Cloudy"
"1973-12-29 22:00","1973","12","29","22:00","-2.2","","-5.6","","77","","27","","42","","25.0","","98.08","","","","-11","","Mostly Cloudy"
"1973-12-29 23:00","1973","12","29","23:00","-3.9","","-7.2","","80","","27","","32","","25.0","","98.22","","","","-12","","Mostly Cloudy"
"1973-12-30 00:00","1973","12","30","00:00","-4.4","","-7.8","","79","","26","","31","","16.1","","98.30","","","","-12","","Snow"
"1973-12-30 01:00","1973","12","30","01:00","-5.6","","-6.7","","90","","26","","40","","19.3","","98.41","","","","-15","","Snow"
"1973-12-30 02:00","1973","12","30","02:00","-6.1","","-8.3","","87","","26","","35","","25.0","","98.51","","","","-15","","Mostly Cloudy"
"1973-12-30 03:00","1973","12","30","03:00","-6.1","","-8.9","","80","","27","","35","","12.9","","98.62","","","","-15","","Snow Showers"
"1973-12-30 04:00","1973","12","30","04:00","-6.1","","-8.9","","81","","26","","32","","24.1","","98.67","","","","-15","","Mostly Cloudy"
"1973-12-30 05:00","1973","12","30","05:00","-6.7","","-8.9","","84","","26","","31","","24.1","","98.76","","","","-15","","Mainly Clear"
"1973-12-30 06:00","1973","12","30","06:00","-6.7","","-10.6","","73","","28","","42","","25.0","","98.85","","","","-17","","Mainly Clear"
"1973-12-30 07:00","1973","12","30","07:00","-6.7","","-10.6","","73","","27","","40","","25.0","","98.96","","","","-16","","Mainly Clear"
"1973-12-30 08:00","1973","12","30","08:00","-7.2","","-11.1","","74","","27","","27","","32.2","","99.06","","","","-15","","Mainly Clear"
"1973-12-30 09:00","1973","12","30","09:00","-7.2","","-12.2","","69","","27","","23","","40.2","","99.15","","","","-15","","Mainly Clear"
"1973-12-30 10:00","1973","12","30","10:00","-7.2","","-11.7","","71","","27","","23","","40.2","","99.27","","","","-15","","Mainly Clear"
"1973-12-30 11:00","1973","12","30","11:00","-6.7","","-11.1","","71","","26","","27","","32.2","","99.37","","","","-15","","Mostly Cloudy"
"1973-12-30 12:00","1973","12","30","12:00","-6.1","","-10.0","","75","","26","","18","","12.9","","99.34","","","","-13","","Snow Showers"
"1973-12-30 13:00","1973","12","30","13:00","-5.6","","-9.4","","72","","26","","32","","40.2","","99.36","","","","-14","","Mostly Cloudy"
"1973-12-30 14:00","1973","12","30","14:00","-5.6","","-9.4","","73","","27","","26","","32.2","","99.39","","","","-13","","Snow Showers"
"1973-12-30 15:00","1973","12","30","15:00","-5.6","","-10.0","","72","","25","","23","","32.2","","99.49","","","","-13","","Snow Showers"
"1973-12-30 16:00","1973","12","30","16:00","-5.6","","-9.4","","72","","25","","13","","32.2","","99.54","","","","-11","","Snow Showers"
"1973-12-30 17:00","1973","12","30","17:00","-6.7","","-10.0","","78","","25","","13","","32.2","","99.54","","","","-12","","Mostly Cloudy"
"1973-12-30 18:00","1973","12","30","18:00","-7.8","","-10.6","","83","","24","","8","","25.0","","99.62","","","","-12","","Mainly Clear"
"1973-12-30 19:00","1973","12","30","19:00","-8.3","","-11.1","","79","","24","","13","","25.0","","99.71","","","","-14","","Mostly Cloudy"
"1973-12-30 20:00","1973","12","30","20:00","-7.8","","-11.1","","77","","23","","8","","25.0","","99.70","","","","-12","","Mostly Cloudy"
"1973-12-30 21:00","1973","12","30","21:00","-7.2","","-10.0","","80","","22","","6","","24.1","","99.73","","","","-10","","Cloudy"
"1973-12-30 22:00","1973","12","30","22:00","-7.8","","-10.0","","82","","","","0","","19.3","","99.64","","","","","","Cloudy"
"1973-12-30 23:00","1973","12","30","23:00","-7.2","","-10.0","","84","","","","0","","19.3","","99.67","","","","","","Mostly Cloudy"
"1973-12-31 00:00","1973","12","31","00:00","-7.2","","-10.0","","80","","","","0","","24.1","","99.69","","","","","","Mostly Cloudy"
"1973-12-31 01:00","1973","12","31","01:00","-6.7","","-10.0","","77","","","","0","","24.1","","99.71","","","","","","Cloudy"
"1973-12-31 02:00","1973","12","31","02:00","-7.2","","-10.0","","79","","","","0","","25.0","","99.64","","","","","","Cloudy"
"1973-12-31 03:00","1973","12","31","03:00","-6.1","","-8.3","","84","","3","","6","","6.4","","99.63","","","","-9","","Snow"
"1973-12-31 04:00","1973","12","31","04:00","-6.7","","-9.4","","81","","4","","10","","2.4","","99.55","","","","-11","","Snow"
"1973-12-31 05:00","1973","12","31","05:00","-7.2","","-8.9","","88","","36","","8","","1.6","","99.54","","","","-11","","Snow"
"1973-12-31 06:00","1973","12","31","06:00","-6.7","","-7.8","","91","","36","","18","","1.6","","99.47","","","","-13","","Snow"
"1973-12-31 07:00","1973","12","31","07:00","-6.7","","-8.3","","91","","1","","14","","2.0","","99.50","","","","-12","","Snow"
"1973-12-31 08:00","1973","12","31","08:00","-6.7","","-8.3","","90","","36","","14","","1.2","","99.64","","","","-12","","Snow"
"1973-12-31 09:00","1973","12","31","09:00","-6.7","","-8.3","","90","","35","","16","","1.6","","99.72","","","","-13","","Snow"
"1973-12-31 10:00","1973","12","31","10:00","-6.7","","-8.9","","86","","36","","21","","3.2","","99.68","","","","-14","","Snow"
"1973-12-31 11:00","1973","12","31","11:00","-6.7","","-8.9","","84","","36","","19","","12.9","","99.62","","","","-14","","Mainly Clear"
"1973-12-31 12:00","1973","12","31","12:00","-5.0","","-7.8","","81","","35","","11","","16.1","","99.67","","","","-10","","Mostly Cloudy"
"1973-12-31 13:00","1973","12","31","13:00","-5.0","","-7.2","","83","","34","","16","","19.3","","99.67","","","","-11","","Mostly Cloudy"
"1973-12-31 14:00","1973","12","31","14:00","-5.0","","-7.8","","81","","35","","13","","19.3","","99.65","","","","-10","","Mostly Cloudy"
"1973-12-31 15:00","1973","12","31","15:00","-4.4","","-8.3","","75","","34","","8","","24.1","","99.70","","","","-8","","Mostly Cloudy"
"1973-12-31 16:00","1973","12","31","16:00","-5.6","","-9.4","","75","","36","","6","","19.3","","99.70","","","","-8","","Mainly Clear"
"1973-12-31 17:00","1973","12","31","17:00","-7.2","","-10.6","","77","","32","","5","","24.1","","99.77","","","","-10","","Mainly Clear"
"1973-12-31 18:00","1973","12","31","18:00","-9.4","","-11.7","","84","","36","","6","","19.3","","99.74","","","","-13","","Mainly Clear"
"1973-12-31 19:00","1973","12","31","19:00","-10.6","","-12.8","","84","","34","","5","","19.3","","99.80","","","","-14","","Mostly Cloudy"
"1973-12-31 20:00","1973","12","31","20:00","-10.0","","-12.2","","85","","33","","10","","16.1","","99.80","","","","-15","","Mostly Cloudy"
"1973-12-31 21:00","1973","12","31","21:00","-8.3","","-10.6","","85","","34","","13","","12.9","","99.71","","","","-14","","Mostly Cloudy"
"1973-12-31 22:00","1973","12","31","22:00","-8.3","","-10.6","","87","","33","","13","","16.1","","99.65","","","","-14","","Mostly Cloudy"
"1973-12-31 23:00","1973","12","31","23:00","-7.8","","-9.4","","88","","34","","10","","16.1","","99.56","","","","-13","","Mostly Cloudy"
