"Station Name","TORONTO LESTER B. PEARSON INT'L A"
"Province","ONTARIO"
"Latitude","43.68"
"Longitude","-79.63"
"Elevation","173.40"
"Climate Identifier","6158733"
"WMO Identifier","71624"
"TC Identifier","YYZ"
"All times are specified in Local Standard Time (LST). Add 1 hour to adjust for Daylight Saving Time where and when it is observed."

"Legend"
"E","Estimated"
"M","Missing"
"NA","Not Available"

"Date/Time","Year","Month","Day","Time","Temp (°C)","Temp Flag","Dew Point Temp (°C)","Dew Point Temp Flag","Rel Hum (%)","Rel Hum Flag","Wind Dir (10s deg)","Wind Dir Flag","Wind Spd (km/h)","Wind Spd Flag","Visibility (km)","Visibility Flag","Stn Press (kPa)","Stn Press Flag","Hmdx","Hmdx Flag","Wind Chill","Wind Chill Flag","Weather"
"1967-11-01 00:00","1967","11","01","00:00","8.3","","7.2","","94","","","","0","","3.2","","99.55","","","","","","Fog"
"1967-11-01 01:00","1967","11","01","01:00","8.3","","7.2","","92","","","","0","","2.4","","99.53","","","","","","Fog"
"1967-11-01 02:00","1967","11","01","02:00","8.3","","7.2","","92","","","","0","","2.0","","99.50","","","","","","Fog"
"1967-11-01 03:00","1967","11","01","03:00","8.3","","7.8","","98","","16","","3","","0.6","","99.45","","","","","","Fog"
"1967-11-01 04:00","1967","11","01","04:00","8.3","","8.3","","100","","14","","3","","0.0","","99.40","","","","","","Fog"
"1967-11-01 05:00","1967","11","01","05:00","8.3","","8.3","","100","","","","0","","0.0","","99.41","","","","","","Fog"
"1967-11-01 06:00","1967","11","01","06:00","8.9","","8.9","","100","","11","","6","","0.0","","99.40","","","","","","Fog"
"1967-11-01 07:00","1967","11","01","07:00","8.9","","8.3","","98","","11","","3","","0.0","","99.41","","","","","","Fog"
"1967-11-01 08:00","1967","11","01","08:00","9.4","","8.9","","98","","9","","8","","0.0","","99.40","","","","","","Fog"
"1967-11-01 09:00","1967","11","01","09:00","9.4","","9.4","","100","","7","","5","","0.0","","99.36","","","","","","Fog"
"1967-11-01 10:00","1967","11","01","10:00","10.0","","10.0","","100","","14","","6","","0.0","","99.34","","","","","","Fog"
"1967-11-01 11:00","1967","11","01","11:00","10.0","","10.0","","100","","14","","10","","0.6","","99.26","","","","","","Drizzle,Fog"
"1967-11-01 12:00","1967","11","01","12:00","10.6","","10.0","","96","","14","","10","","2.0","","99.16","","","","","","Fog"
"1967-11-01 13:00","1967","11","01","13:00","11.7","","9.4","","87","","11","","8","","4.0","","99.04","","","","","","Fog"
"1967-11-01 14:00","1967","11","01","14:00","12.2","","10.0","","87","","14","","8","","4.0","","98.98","","","","","","Fog"
"1967-11-01 15:00","1967","11","01","15:00","12.2","","10.6","","91","","14","","8","","2.4","","98.96","","","","","","Drizzle,Fog"
"1967-11-01 16:00","1967","11","01","16:00","12.2","","10.0","","87","","9","","11","","2.4","","98.86","","","","","","Fog"
"1967-11-01 17:00","1967","11","01","17:00","11.1","","8.9","","87","","9","","14","","4.0","","98.77","","","","","","Fog"
"1967-11-01 18:00","1967","11","01","18:00","11.1","","8.9","","87","","9","","13","","6.4","","98.73","","","","","","Fog"
"1967-11-01 19:00","1967","11","01","19:00","11.1","","9.4","","89","","9","","8","","6.4","","98.65","","","","","","Rain Showers,Fog"
"1967-11-01 20:00","1967","11","01","20:00","11.1","","10.0","","92","","","","0","","4.0","","98.63","","","","","","Moderate Rain,Fog"
"1967-11-01 21:00","1967","11","01","21:00","10.6","","10.0","","98","","","","0","","2.8","","98.61","","","","","","Rain,Fog"
"1967-11-01 22:00","1967","11","01","22:00","10.0","","9.4","","96","","11","","8","","2.8","","98.57","","","","","","Rain,Fog"
"1967-11-01 23:00","1967","11","01","23:00","10.6","","10.0","","98","","14","","11","","2.4","","98.49","","","","","","Rain,Fog"
"1967-11-02 00:00","1967","11","02","00:00","11.1","","11.1","","100","","16","","19","","2.0","","98.48","","","","","","Rain,Fog"
"1967-11-02 01:00","1967","11","02","01:00","10.6","","10.0","","98","","14","","18","","1.6","","98.43","","","","","","Rain,Fog"
"1967-11-02 02:00","1967","11","02","02:00","11.1","","10.6","","98","","18","","21","","3.2","","98.42","","","","","","Rain,Fog"
"1967-11-02 03:00","1967","11","02","03:00","12.8","","11.7","","93","","18","","26","","4.8","","98.43","","","","","","Rain,Fog"
"1967-11-02 04:00","1967","11","02","04:00","12.8","","11.7","","93","","18","","24","","4.8","","98.43","","","","","","Rain,Fog"
"1967-11-02 05:00","1967","11","02","05:00","12.2","","11.1","","94","","18","","16","","6.4","","98.43","","","","","","Rain,Fog"
"1967-11-02 06:00","1967","11","02","06:00","12.2","","11.1","","94","","18","","21","","6.4","","98.47","","","","","","Rain,Fog"
"1967-11-02 07:00","1967","11","02","07:00","12.2","","11.1","","94","","18","","16","","3.2","","98.50","","","","","","Rain,Fog"
"1967-11-02 08:00","1967","11","02","08:00","11.1","","10.6","","98","","14","","14","","2.0","","98.54","","","","","","Drizzle,Fog"
"1967-11-02 09:00","1967","11","02","09:00","10.6","","10.0","","98","","14","","16","","1.2","","98.55","","","","","","Drizzle,Fog"
"1967-11-02 10:00","1967","11","02","10:00","10.6","","10.0","","98","","14","","18","","4.0","","98.57","","","","","","Drizzle,Fog"
"1967-11-02 11:00","1967","11","02","11:00","11.7","","10.6","","94","","18","","23","","4.0","","98.60","","","","","","Drizzle,Fog"
"1967-11-02 12:00","1967","11","02","12:00","11.1","","10.6","","96","","16","","16","","3.6","","98.52","","","","","","Rain,Fog"
"1967-11-02 13:00","1967","11","02","13:00","11.1","","10.6","","98","","14","","10","","1.6","","98.46","","","","","","Rain,Fog"
"1967-11-02 14:00","1967","11","02","14:00","11.1","","10.0","","94","","25","","13","","4.8","","98.44","","","","","","Drizzle,Fog"
"1967-11-02 15:00","1967","11","02","15:00","10.6","","9.4","","92","","27","","11","","16.1","","98.44","","","","","","Cloudy"
"1967-11-02 16:00","1967","11","02","16:00","10.0","","8.9","","94","","27","","5","","16.1","","98.54","","","","","","Cloudy"
"1967-11-02 17:00","1967","11","02","17:00","9.4","","7.2","","86","","","","0","","16.1","","98.53","","","","","","Cloudy"
"1967-11-02 18:00","1967","11","02","18:00","9.4","","7.8","","88","","25","","10","","19.3","","98.59","","","","","","Rain Showers"
"1967-11-02 19:00","1967","11","02","19:00","8.9","","7.2","","88","","23","","10","","24.1","","98.60","","","","","","Cloudy"
"1967-11-02 20:00","1967","11","02","20:00","9.4","","7.8","","88","","20","","13","","24.1","","98.64","","","","","","Rain Showers"
"1967-11-02 21:00","1967","11","02","21:00","8.9","","7.2","","90","","23","","13","","24.1","","98.64","","","","","","Cloudy"
"1967-11-02 22:00","1967","11","02","22:00","8.3","","6.7","","90","","23","","13","","25.0","","98.63","","","","","","Mostly Cloudy"
"1967-11-02 23:00","1967","11","02","23:00","8.3","","7.2","","92","","23","","18","","19.3","","98.66","","","","","","Cloudy"
"1967-11-03 00:00","1967","11","03","00:00","8.9","","7.2","","90","","23","","18","","24.1","","98.67","","","","","","Mostly Cloudy"
"1967-11-03 01:00","1967","11","03","01:00","8.9","","7.2","","90","","23","","10","","19.3","","98.66","","","","","","Mostly Cloudy"
"1967-11-03 02:00","1967","11","03","02:00","8.9","","6.7","","86","","23","","14","","19.3","","98.69","","","","","","Mostly Cloudy"
"1967-11-03 03:00","1967","11","03","03:00","8.9","","6.1","","84","","25","","14","","19.3","","98.71","","","","","","Mostly Cloudy"
"1967-11-03 04:00","1967","11","03","04:00","8.9","","6.1","","82","","25","","14","","24.1","","98.74","","","","","","Mostly Cloudy"
"1967-11-03 05:00","1967","11","03","05:00","8.3","","6.1","","87","","23","","11","","24.1","","98.77","","","","","","Mostly Cloudy"
"1967-11-03 06:00","1967","11","03","06:00","8.3","","6.1","","87","","25","","10","","24.1","","98.81","","","","","","Cloudy"
"1967-11-03 07:00","1967","11","03","07:00","7.8","","5.6","","87","","27","","6","","40.2","","98.86","","","","","","Cloudy"
"1967-11-03 08:00","1967","11","03","08:00","7.8","","6.1","","89","","25","","8","","40.2","","98.96","","","","","","Mostly Cloudy"
"1967-11-03 09:00","1967","11","03","09:00","8.9","","6.1","","84","","25","","16","","40.2","","99.00","","","","","","Mostly Cloudy"
"1967-11-03 10:00","1967","11","03","10:00","8.3","","5.6","","83","","25","","11","","40.2","","98.98","","","","","","Mostly Cloudy"
"1967-11-03 11:00","1967","11","03","11:00","8.9","","5.0","","78","","27","","11","","40.2","","98.98","","","","","","Mostly Cloudy"
"1967-11-03 12:00","1967","11","03","12:00","8.9","","4.4","","74","","27","","8","","40.2","","98.93","","","","","","Mostly Cloudy"
"1967-11-03 13:00","1967","11","03","13:00","8.9","","5.0","","78","","32","","5","","40.2","","98.90","","","","","","Cloudy"
"1967-11-03 14:00","1967","11","03","14:00","9.4","","5.6","","76","","","","0","","40.2","","98.84","","","","","","Cloudy"
"1967-11-03 15:00","1967","11","03","15:00","8.9","","4.4","","74","","11","","6","","40.2","","98.81","","","","","","Cloudy"
"1967-11-03 16:00","1967","11","03","16:00","8.3","","5.6","","81","","14","","10","","19.3","","98.76","","","","","","Cloudy"
"1967-11-03 17:00","1967","11","03","17:00","8.9","","6.1","","82","","11","","5","","16.1","","98.77","","","","","","Cloudy"
"1967-11-03 18:00","1967","11","03","18:00","8.3","","5.6","","81","","9","","11","","24.1","","98.68","","","","","","Cloudy"
"1967-11-03 19:00","1967","11","03","19:00","8.3","","5.6","","83","","11","","8","","24.1","","98.65","","","","","","Cloudy"
"1967-11-03 20:00","1967","11","03","20:00","7.8","","5.6","","87","","14","","10","","24.1","","98.63","","","","","","Rain Showers"
"1967-11-03 21:00","1967","11","03","21:00","7.2","","6.1","","91","","9","","19","","24.1","","98.50","","","","","","Cloudy"
"1967-11-03 22:00","1967","11","03","22:00","7.8","","6.7","","94","","14","","10","","8.0","","98.45","","","","","","Rain Showers,Fog"
"1967-11-03 23:00","1967","11","03","23:00","7.8","","7.2","","96","","14","","6","","6.4","","98.39","","","","","","Rain,Fog"
"1967-11-04 00:00","1967","11","04","00:00","7.8","","7.2","","98","","14","","10","","4.0","","98.32","","","","","","Rain,Fog"
"1967-11-04 01:00","1967","11","04","01:00","7.8","","7.2","","96","","14","","8","","4.8","","98.26","","","","","","Rain,Fog"
"1967-11-04 02:00","1967","11","04","02:00","7.8","","7.2","","98","","14","","11","","4.8","","98.19","","","","","","Rain,Fog"
"1967-11-04 03:00","1967","11","04","03:00","7.8","","6.7","","91","","25","","13","","12.9","","98.17","","","","","","Rain"
"1967-11-04 04:00","1967","11","04","04:00","6.7","","5.6","","93","","25","","11","","16.1","","98.20","","","","","","Rain"
"1967-11-04 05:00","1967","11","04","05:00","6.1","","5.0","","91","","25","","13","","24.1","","98.23","","","","","","Rain"
"1967-11-04 06:00","1967","11","04","06:00","5.0","","3.3","","88","","27","","21","","25.0","","98.28","","","","","","Cloudy"
"1967-11-04 07:00","1967","11","04","07:00","4.4","","2.8","","88","","27","","23","","40.2","","98.37","","","","","","Cloudy"
"1967-11-04 08:00","1967","11","04","08:00","3.9","","1.1","","83","","27","","21","","40.2","","98.47","","","","","","Mostly Cloudy"
"1967-11-04 09:00","1967","11","04","09:00","4.4","","1.1","","78","","27","","32","","40.2","","98.55","","","","","","Mostly Cloudy"
"1967-11-04 10:00","1967","11","04","10:00","4.4","","0.6","","76","","27","","37","","40.2","","98.63","","","","","","Mostly Cloudy"
"1967-11-04 11:00","1967","11","04","11:00","4.4","","-1.7","","64","","27","","32","","40.2","","98.70","","","","","","Mostly Cloudy"
"1967-11-04 12:00","1967","11","04","12:00","4.4","","-3.3","","58","","27","","35","","40.2","","98.77","","","","","","Mostly Cloudy"
"1967-11-04 13:00","1967","11","04","13:00","5.0","","-3.9","","52","","27","","32","","40.2","","98.78","","","","","","Mostly Cloudy"
"1967-11-04 14:00","1967","11","04","14:00","4.4","","-3.9","","55","","27","","35","","40.2","","98.83","","","","","","Mostly Cloudy"
"1967-11-04 15:00","1967","11","04","15:00","5.0","","-5.0","","48","","27","","32","","40.2","","98.85","","","","","","Mostly Cloudy"
"1967-11-04 16:00","1967","11","04","16:00","5.0","","-6.7","","43","","27","","29","","40.2","","98.93","","","","","","Mostly Cloudy"
"1967-11-04 17:00","1967","11","04","17:00","3.3","","-5.6","","52","","27","","29","","40.2","","98.99","","","","","","Mainly Clear"
"1967-11-04 18:00","1967","11","04","18:00","1.7","","-6.1","","57","","25","","21","","25.0","","99.01","","","","","","Mainly Clear"
"1967-11-04 19:00","1967","11","04","19:00","1.7","","-5.0","","62","","25","","24","","25.0","","99.02","","","","","","Mainly Clear"
"1967-11-04 20:00","1967","11","04","20:00","0.6","","-3.9","","73","","25","","19","","25.0","","99.00","","","","","","Mainly Clear"
"1967-11-04 21:00","1967","11","04","21:00","0.6","","-3.9","","73","","23","","21","","25.0","","98.99","","","","","","Mainly Clear"
"1967-11-04 22:00","1967","11","04","22:00","0.0","","-3.3","","77","","25","","19","","25.0","","98.99","","","","-5","","Mainly Clear"
"1967-11-04 23:00","1967","11","04","23:00","0.0","","-2.2","","86","","25","","23","","25.0","","98.97","","","","-6","","Mainly Clear"
"1967-11-05 00:00","1967","11","05","00:00","0.0","","-2.2","","86","","25","","24","","25.0","","98.99","","","","-6","","Clear"
"1967-11-05 01:00","1967","11","05","01:00","0.0","","-3.3","","80","","25","","24","","25.0","","99.00","","","","-6","","Mainly Clear"
"1967-11-05 02:00","1967","11","05","02:00","-0.6","","-3.3","","82","","25","","19","","25.0","","99.01","","","","-6","","Mainly Clear"
"1967-11-05 03:00","1967","11","05","03:00","-0.6","","-3.3","","82","","27","","11","","25.0","","99.06","","","","-4","","Mostly Cloudy"
"1967-11-05 04:00","1967","11","05","04:00","0.0","","-2.8","","83","","27","","21","","25.0","","99.08","","","","-5","","Mostly Cloudy"
"1967-11-05 05:00","1967","11","05","05:00","-1.1","","-2.8","","89","","25","","13","","25.0","","99.10","","","","-5","","Mainly Clear"
"1967-11-05 06:00","1967","11","05","06:00","-0.6","","-2.2","","88","","25","","16","","25.0","","99.16","","","","-5","","Mainly Clear"
"1967-11-05 07:00","1967","11","05","07:00","-0.6","","-1.7","","91","","27","","16","","32.2","","99.21","","","","-5","","Mainly Clear"
"1967-11-05 08:00","1967","11","05","08:00","-1.1","","-2.8","","90","","27","","13","","40.2","","99.28","","","","-5","","Mainly Clear"
"1967-11-05 09:00","1967","11","05","09:00","1.1","","-3.3","","71","","27","","19","","40.2","","99.32","","","","","","Mainly Clear"
"1967-11-05 10:00","1967","11","05","10:00","2.8","","-3.9","","62","","27","","16","","40.2","","99.35","","","","","","Mainly Clear"
"1967-11-05 11:00","1967","11","05","11:00","2.8","","-3.9","","62","","27","","29","","11.3","","99.40","","","","","","Snow Showers"
"1967-11-05 12:00","1967","11","05","12:00","3.9","","-1.7","","68","","27","","26","","40.2","","99.39","","","","","","Mostly Cloudy"
"1967-11-05 13:00","1967","11","05","13:00","4.4","","-5.0","","51","","27","","35","","40.2","","99.39","","","","","","Mostly Cloudy"
"1967-11-05 14:00","1967","11","05","14:00","4.4","","-2.8","","60","","27","","31","","40.2","","99.41","","","","","","Mainly Clear"
"1967-11-05 15:00","1967","11","05","15:00","3.3","","-6.7","","47","","27","","32","","40.2","","99.45","","","","","","Mainly Clear"
"1967-11-05 16:00","1967","11","05","16:00","2.8","","-7.2","","48","","27","","37","","40.2","","99.53","","","","","","Mainly Clear"
"1967-11-05 17:00","1967","11","05","17:00","1.1","","-5.6","","61","","27","","19","","40.2","","99.59","","","","","","Mainly Clear"
"1967-11-05 18:00","1967","11","05","18:00","0.0","","-3.3","","80","","27","","16","","25.0","","99.64","","","","-5","","Mainly Clear"
"1967-11-05 19:00","1967","11","05","19:00","-0.6","","-3.9","","79","","27","","19","","25.0","","99.68","","","","-6","","Mainly Clear"
"1967-11-05 20:00","1967","11","05","20:00","-1.1","","-2.8","","88","","27","","18","","25.0","","99.70","","","","-6","","Clear"
"1967-11-05 21:00","1967","11","05","21:00","-1.1","","-2.8","","87","","27","","19","","25.0","","99.70","","","","-6","","Mainly Clear"
"1967-11-05 22:00","1967","11","05","22:00","-1.7","","-3.3","","87","","25","","13","","25.0","","99.75","","","","-6","","Clear"
"1967-11-05 23:00","1967","11","05","23:00","-3.3","","-5.6","","86","","25","","3","","25.0","","99.78","","","","-5","","Clear"
"1967-11-06 00:00","1967","11","06","00:00","-3.3","","-5.6","","84","","27","","10","","25.0","","99.80","","","","-7","","Clear"
"1967-11-06 01:00","1967","11","06","01:00","-3.3","","-6.1","","82","","27","","6","","25.0","","99.82","","","","-6","","Clear"
"1967-11-06 02:00","1967","11","06","02:00","-3.3","","-6.1","","81","","23","","6","","25.0","","99.83","","","","-6","","Clear"
"1967-11-06 03:00","1967","11","06","03:00","-3.9","","-6.1","","85","","20","","14","","25.0","","99.88","","","","-9","","Mainly Clear"
"1967-11-06 04:00","1967","11","06","04:00","-3.3","","-5.0","","88","","23","","14","","25.0","","99.91","","","","-8","","Mainly Clear"
"1967-11-06 05:00","1967","11","06","05:00","-3.9","","-5.6","","87","","25","","10","","25.0","","99.96","","","","-8","","Mainly Clear"
"1967-11-06 06:00","1967","11","06","06:00","-4.4","","-6.1","","90","","25","","10","","25.0","","99.98","","","","-9","","Mainly Clear"
"1967-11-06 07:00","1967","11","06","07:00","-4.4","","-6.1","","88","","27","","10","","32.2","","100.02","","","","-9","","Mainly Clear"
"1967-11-06 08:00","1967","11","06","08:00","-3.3","","-6.1","","81","","25","","11","","40.2","","100.08","","","","-8","","Mainly Clear"
"1967-11-06 09:00","1967","11","06","09:00","-1.7","","-4.4","","81","","23","","13","","40.2","","100.11","","","","-6","","Mostly Cloudy"
"1967-11-06 10:00","1967","11","06","10:00","0.6","","-3.9","","73","","27","","23","","40.2","","100.14","","","","","","Mainly Clear"
"1967-11-06 11:00","1967","11","06","11:00","1.1","","-2.2","","79","","25","","26","","40.2","","100.15","","","","","","Mainly Clear"
"1967-11-06 12:00","1967","11","06","12:00","0.6","","-1.1","","89","","25","","23","","40.2","","100.14","","","","","","Mostly Cloudy"
"1967-11-06 13:00","1967","11","06","13:00","0.6","","-1.1","","89","","27","","27","","40.2","","100.12","","","","","","Mostly Cloudy"
"1967-11-06 14:00","1967","11","06","14:00","1.1","","-1.7","","82","","25","","24","","40.2","","100.11","","","","","","Mostly Cloudy"
"1967-11-06 15:00","1967","11","06","15:00","0.6","","-4.4","","70","","27","","23","","40.2","","100.11","","","","","","Mostly Cloudy"
"1967-11-06 16:00","1967","11","06","16:00","0.0","","-5.6","","66","","25","","23","","40.2","","100.11","","","","-6","","Mostly Cloudy"
"1967-11-06 17:00","1967","11","06","17:00","-1.1","","-3.3","","84","","27","","16","","40.2","","100.13","","","","-6","","Mainly Clear"
"1967-11-06 18:00","1967","11","06","18:00","-2.2","","-6.1","","76","","27","","10","","25.0","","100.17","","","","-6","","Mainly Clear"
"1967-11-06 19:00","1967","11","06","19:00","-2.8","","-5.6","","81","","25","","8","","25.0","","100.19","","","","-6","","Mainly Clear"
"1967-11-06 20:00","1967","11","06","20:00","-3.3","","-5.6","","86","","23","","11","","25.0","","100.20","","","","-8","","Mainly Clear"
"1967-11-06 21:00","1967","11","06","21:00","-4.4","","-6.1","","89","","25","","8","","25.0","","100.19","","","","-8","","Mainly Clear"
"1967-11-06 22:00","1967","11","06","22:00","-2.8","","-5.0","","84","","25","","11","","25.0","","100.19","","","","-7","","Cloudy"
"1967-11-06 23:00","1967","11","06","23:00","-2.2","","-4.4","","83","","23","","13","","25.0","","100.19","","","","-7","","Mostly Cloudy"
"1967-11-07 00:00","1967","11","07","00:00","-2.8","","-4.4","","86","","25","","13","","25.0","","100.19","","","","-7","","Mostly Cloudy"
"1967-11-07 01:00","1967","11","07","01:00","-2.8","","-4.4","","88","","20","","6","","25.0","","100.19","","","","-5","","Mostly Cloudy"
"1967-11-07 02:00","1967","11","07","02:00","-2.8","","-4.4","","86","","23","","11","","25.0","","100.17","","","","-7","","Mostly Cloudy"
"1967-11-07 03:00","1967","11","07","03:00","-2.2","","-5.0","","82","","23","","10","","25.0","","100.14","","","","-6","","Cloudy"
"1967-11-07 04:00","1967","11","07","04:00","-1.7","","-4.4","","81","","25","","16","","25.0","","100.12","","","","-7","","Cloudy"
"1967-11-07 05:00","1967","11","07","05:00","-1.7","","-4.4","","81","","27","","16","","25.0","","100.13","","","","-7","","Mostly Cloudy"
"1967-11-07 06:00","1967","11","07","06:00","-1.7","","-5.0","","79","","27","","21","","25.0","","100.12","","","","-8","","Cloudy"
"1967-11-07 07:00","1967","11","07","07:00","-2.8","","-4.4","","86","","27","","5","","24.1","","100.15","","","","-5","","Mostly Cloudy"
"1967-11-07 08:00","1967","11","07","08:00","-2.2","","-4.4","","84","","34","","6","","32.2","","100.20","","","","-5","","Mostly Cloudy"
"1967-11-07 09:00","1967","11","07","09:00","-1.1","","-3.9","","80","","18","","3","","16.1","","100.25","","","","-2","","Cloudy"
"1967-11-07 10:00","1967","11","07","10:00","-0.6","","-5.0","","73","","18","","6","","12.9","","100.28","","","","-3","","Mostly Cloudy"
"1967-11-07 11:00","1967","11","07","11:00","1.1","","-4.4","","66","","","","0","","12.9","","100.29","","","","","","Mostly Cloudy"
"1967-11-07 12:00","1967","11","07","12:00","2.2","","-5.0","","58","","32","","5","","19.3","","100.26","","","","","","Mostly Cloudy"
"1967-11-07 13:00","1967","11","07","13:00","1.1","","-4.4","","66","","34","","10","","9.7","","100.24","","","","","","Snow Showers"
"1967-11-07 14:00","1967","11","07","14:00","1.1","","-3.3","","71","","29","","3","","32.2","","100.23","","","","","","Snow Showers"
"1967-11-07 15:00","1967","11","07","15:00","2.2","","-5.0","","58","","","","0","","40.2","","100.23","","","","","","Mostly Cloudy"
"1967-11-07 16:00","1967","11","07","16:00","1.7","","-5.6","","59","","27","","5","","40.2","","100.28","","","","","","Mostly Cloudy"
"1967-11-07 17:00","1967","11","07","17:00","1.1","","-3.3","","71","","36","","6","","32.2","","100.31","","","","","","Snow Showers"
"1967-11-07 18:00","1967","11","07","18:00","-0.6","","-3.9","","79","","23","","6","","25.0","","100.35","","","","-3","","Mostly Cloudy"
"1967-11-07 19:00","1967","11","07","19:00","-1.1","","-3.9","","82","","27","","6","","25.0","","100.42","","","","-3","","Mostly Cloudy"
"1967-11-07 20:00","1967","11","07","20:00","-1.1","","-3.9","","81","","27","","5","","25.0","","100.46","","","","-3","","Mostly Cloudy"
"1967-11-07 21:00","1967","11","07","21:00","-2.2","","-4.4","","86","","27","","8","","24.1","","100.49","","","","-5","","Mainly Clear"
"1967-11-07 22:00","1967","11","07","22:00","-2.2","","-3.9","","87","","27","","6","","24.1","","100.49","","","","-5","","Mostly Cloudy"
"1967-11-07 23:00","1967","11","07","23:00","-2.2","","-3.9","","89","","27","","6","","24.1","","100.48","","","","-5","","Mostly Cloudy"
"1967-11-08 00:00","1967","11","08","00:00","-1.7","","-3.3","","89","","27","","10","","24.1","","100.49","","","","-5","","Cloudy"
"1967-11-08 01:00","1967","11","08","01:00","-1.7","","-3.3","","88","","32","","5","","25.0","","100.50","","","","-4","","Cloudy"
"1967-11-08 02:00","1967","11","08","02:00","-2.2","","-3.9","","87","","29","","13","","25.0","","100.52","","","","-7","","Mostly Cloudy"
"1967-11-08 03:00","1967","11","08","03:00","-2.8","","-5.0","","84","","32","","8","","25.0","","100.52","","","","-6","","Mainly Clear"
"1967-11-08 04:00","1967","11","08","04:00","-3.9","","-5.0","","91","","29","","8","","25.0","","100.56","","","","-7","","Mostly Cloudy"
"1967-11-08 05:00","1967","11","08","05:00","-3.3","","-5.0","","89","","34","","11","","25.0","","100.63","","","","-8","","Mostly Cloudy"
"1967-11-08 06:00","1967","11","08","06:00","-2.2","","-3.3","","90","","32","","10","","25.0","","100.69","","","","-6","","Cloudy"
"1967-11-08 07:00","1967","11","08","07:00","-2.8","","-3.9","","92","","36","","8","","24.1","","100.70","","","","-6","","Mainly Clear"
"1967-11-08 08:00","1967","11","08","08:00","-3.3","","-4.4","","91","","32","","5","","32.2","","100.76","","","","-5","","Mostly Cloudy"
"1967-11-08 09:00","1967","11","08","09:00","-1.7","","-5.6","","76","","36","","6","","32.2","","100.80","","","","-4","","Mostly Cloudy"
"1967-11-08 10:00","1967","11","08","10:00","-0.6","","-5.0","","73","","9","","3","","32.2","","100.78","","","","-2","","Mainly Clear"
"1967-11-08 11:00","1967","11","08","11:00","0.6","","-4.4","","70","","18","","5","","16.1","","100.74","","","","","","Mostly Cloudy"
"1967-11-08 12:00","1967","11","08","12:00","0.6","","-3.3","","75","","14","","11","","24.1","","100.66","","","","","","Mostly Cloudy"
"1967-11-08 13:00","1967","11","08","13:00","1.7","","-3.9","","67","","14","","13","","24.1","","100.56","","","","","","Mostly Cloudy"
"1967-11-08 14:00","1967","11","08","14:00","3.3","","-6.1","","50","","25","","21","","32.2","","100.51","","","","","","Mostly Cloudy"
"1967-11-08 15:00","1967","11","08","15:00","3.3","","-6.1","","51","","27","","21","","40.2","","100.45","","","","","","Mostly Cloudy"
"1967-11-08 16:00","1967","11","08","16:00","1.7","","-6.1","","57","","25","","13","","40.2","","100.40","","","","","","Mostly Cloudy"
"1967-11-08 17:00","1967","11","08","17:00","0.0","","-6.7","","60","","23","","6","","40.2","","100.30","","","","-2","","Mostly Cloudy"
"1967-11-08 18:00","1967","11","08","18:00","0.6","","-5.0","","67","","18","","6","","25.0","","100.20","","","","","","Mainly Clear"
"1967-11-08 19:00","1967","11","08","19:00","-0.6","","-5.0","","73","","16","","11","","25.0","","100.08","","","","-4","","Mostly Cloudy"
"1967-11-08 20:00","1967","11","08","20:00","-0.6","","-3.9","","79","","16","","13","","25.0","","99.90","","","","-5","","Cloudy"
"1967-11-08 21:00","1967","11","08","21:00","0.6","","-3.3","","75","","18","","11","","25.0","","99.86","","","","","","Cloudy"
"1967-11-08 22:00","1967","11","08","22:00","0.6","","-3.3","","75","","18","","14","","25.0","","99.71","","","","","","Cloudy"
"1967-11-08 23:00","1967","11","08","23:00","2.2","","-2.8","","68","","18","","19","","25.0","","99.65","","","","","","Cloudy"
"1967-11-09 00:00","1967","11","09","00:00","2.8","","-0.6","","79","","18","","16","","12.9","","99.56","","","","","","Cloudy"
"1967-11-09 01:00","1967","11","09","01:00","2.8","","-1.1","","77","","18","","23","","12.9","","99.39","","","","","","Cloudy"
"1967-11-09 02:00","1967","11","09","02:00","2.8","","-0.6","","79","","18","","21","","12.9","","99.29","","","","","","Cloudy"
"1967-11-09 03:00","1967","11","09","03:00","2.8","","0.0","","82","","18","","16","","16.1","","99.22","","","","","","Cloudy"
"1967-11-09 04:00","1967","11","09","04:00","2.2","","0.6","","89","","20","","19","","12.9","","99.12","","","","","","Rain Showers"
"1967-11-09 05:00","1967","11","09","05:00","1.7","","1.1","","94","","20","","10","","9.7","","99.07","","","","","","Rain Showers,Fog"
"1967-11-09 06:00","1967","11","09","06:00","1.7","","1.1","","97","","18","","8","","8.0","","99.01","","","","","","Fog"
"1967-11-09 07:00","1967","11","09","07:00","1.1","","0.6","","94","","23","","11","","4.8","","99.02","","","","","","Fog"
"1967-11-09 08:00","1967","11","09","08:00","1.7","","-0.6","","86","","27","","3","","11.3","","99.09","","","","","","Mainly Clear"
"1967-11-09 09:00","1967","11","09","09:00","2.8","","0.6","","87","","25","","19","","8.0","","99.15","","","","","","Fog"
"1967-11-09 10:00","1967","11","09","10:00","5.0","","2.8","","86","","27","","21","","11.3","","99.22","","","","","","Mostly Cloudy"
"1967-11-09 11:00","1967","11","09","11:00","6.7","","2.8","","76","","27","","26","","16.1","","99.27","","","","","","Mostly Cloudy"
"1967-11-09 12:00","1967","11","09","12:00","7.8","","2.8","","71","","27","","27","","19.3","","99.29","","","","","","Mostly Cloudy"
"1967-11-09 13:00","1967","11","09","13:00","7.8","","2.8","","71","","27","","27","","19.3","","99.33","","","","","","Cloudy"
"1967-11-09 14:00","1967","11","09","14:00","7.8","","2.8","","71","","27","","26","","19.3","","99.39","","","","","","Cloudy"
"1967-11-09 15:00","1967","11","09","15:00","7.2","","2.2","","70","","29","","21","","24.1","","99.49","","","","","","Cloudy"
"1967-11-09 16:00","1967","11","09","16:00","6.7","","3.3","","78","","27","","19","","19.3","","99.55","","","","","","Cloudy"
"1967-11-09 17:00","1967","11","09","17:00","6.1","","2.2","","78","","29","","21","","16.1","","99.64","","","","","","Cloudy"
"1967-11-09 18:00","1967","11","09","18:00","5.6","","2.2","","79","","27","","16","","16.1","","99.73","","","","","","Cloudy"
"1967-11-09 19:00","1967","11","09","19:00","5.0","","2.8","","86","","27","","16","","12.9","","99.80","","","","","","Mostly Cloudy"
"1967-11-09 20:00","1967","11","09","20:00","5.0","","2.2","","83","","27","","16","","16.1","","99.86","","","","","","Mostly Cloudy"
"1967-11-09 21:00","1967","11","09","21:00","5.0","","2.2","","81","","27","","14","","19.3","","99.90","","","","","","Cloudy"
"1967-11-09 22:00","1967","11","09","22:00","5.0","","2.2","","81","","27","","14","","19.3","","99.93","","","","","","Cloudy"
"1967-11-09 23:00","1967","11","09","23:00","4.4","","1.7","","83","","27","","10","","24.1","","99.95","","","","","","Mostly Cloudy"
"1967-11-10 00:00","1967","11","10","00:00","4.4","","1.7","","81","","27","","13","","24.1","","99.97","","","","","","Mostly Cloudy"
"1967-11-10 01:00","1967","11","10","01:00","4.4","","1.7","","83","","27","","13","","25.0","","100.01","","","","","","Mostly Cloudy"
"1967-11-10 02:00","1967","11","10","02:00","3.9","","1.7","","85","","29","","8","","25.0","","100.03","","","","","","Mostly Cloudy"
"1967-11-10 03:00","1967","11","10","03:00","3.9","","1.7","","85","","27","","5","","25.0","","100.08","","","","","","Mostly Cloudy"
"1967-11-10 04:00","1967","11","10","04:00","3.3","","1.7","","87","","34","","3","","25.0","","100.12","","","","","","Mostly Cloudy"
"1967-11-10 05:00","1967","11","10","05:00","2.8","","0.6","","87","","34","","10","","24.1","","100.21","","","","","","Mostly Cloudy"
"1967-11-10 06:00","1967","11","10","06:00","2.8","","1.1","","90","","36","","6","","19.3","","100.24","","","","","","Mostly Cloudy"
"1967-11-10 07:00","1967","11","10","07:00","1.7","","0.6","","92","","27","","3","","19.3","","100.29","","","","","","Mainly Clear"
"1967-11-10 08:00","1967","11","10","08:00","0.6","","-0.6","","91","","34","","3","","32.2","","100.39","","","","","","Mostly Cloudy"
"1967-11-10 09:00","1967","11","10","09:00","4.4","","1.7","","83","","11","","3","","12.9","","100.43","","","","","","Mostly Cloudy"
"1967-11-10 10:00","1967","11","10","10:00","5.6","","1.7","","77","","14","","11","","16.1","","100.46","","","","","","Mostly Cloudy"
"1967-11-10 11:00","1967","11","10","11:00","6.1","","2.2","","75","","11","","11","","19.3","","100.47","","","","","","Mostly Cloudy"
"1967-11-10 12:00","1967","11","10","12:00","6.7","","2.2","","74","","14","","14","","19.3","","100.37","","","","","","Mostly Cloudy"
"1967-11-10 13:00","1967","11","10","13:00","7.2","","1.7","","68","","14","","18","","24.1","","100.32","","","","","","Mostly Cloudy"
"1967-11-10 14:00","1967","11","10","14:00","7.2","","2.8","","72","","11","","18","","19.3","","100.30","","","","","","Mainly Clear"
"1967-11-10 15:00","1967","11","10","15:00","7.2","","1.1","","66","","11","","16","","24.1","","100.29","","","","","","Mainly Clear"
"1967-11-10 16:00","1967","11","10","16:00","6.7","","2.2","","74","","11","","18","","16.1","","100.29","","","","","","Mainly Clear"
"1967-11-10 17:00","1967","11","10","17:00","4.4","","2.2","","85","","9","","18","","12.9","","100.30","","","","","","Mainly Clear"
"1967-11-10 18:00","1967","11","10","18:00","3.9","","2.2","","90","","9","","14","","12.9","","100.30","","","","","","Mainly Clear"
"1967-11-10 19:00","1967","11","10","19:00","3.9","","2.8","","93","","9","","11","","12.9","","100.30","","","","","","Mostly Cloudy"
"1967-11-10 20:00","1967","11","10","20:00","5.0","","3.3","","88","","9","","16","","12.9","","100.27","","","","","","Mostly Cloudy"
"1967-11-10 21:00","1967","11","10","21:00","5.0","","3.3","","88","","9","","19","","12.9","","100.23","","","","","","Cloudy"
"1967-11-10 22:00","1967","11","10","22:00","5.6","","3.3","","86","","9","","16","","12.9","","100.21","","","","","","Cloudy"
"1967-11-10 23:00","1967","11","10","23:00","5.0","","3.3","","88","","9","","14","","12.9","","100.14","","","","","","Cloudy"
"1967-11-11 00:00","1967","11","11","00:00","5.6","","3.3","","86","","9","","13","","12.9","","100.11","","","","","","Cloudy"
"1967-11-11 01:00","1967","11","11","01:00","5.6","","3.9","","88","","9","","14","","12.9","","100.05","","","","","","Cloudy"
"1967-11-11 02:00","1967","11","11","02:00","5.6","","3.9","","88","","9","","10","","11.3","","99.97","","","","","","Rain Showers"
"1967-11-11 03:00","1967","11","11","03:00","5.6","","3.9","","91","","18","","5","","11.3","","100.01","","","","","","Cloudy"
"1967-11-11 04:00","1967","11","11","04:00","5.6","","4.4","","93","","16","","10","","6.4","","99.99","","","","","","Rain Showers,Fog"
"1967-11-11 05:00","1967","11","11","05:00","5.6","","5.0","","95","","14","","16","","6.4","","99.92","","","","","","Fog"
"1967-11-11 06:00","1967","11","11","06:00","6.1","","5.6","","95","","14","","16","","6.4","","99.86","","","","","","Fog"
"1967-11-11 07:00","1967","11","11","07:00","6.1","","5.0","","93","","14","","13","","9.7","","99.80","","","","","","Fog"
"1967-11-11 08:00","1967","11","11","08:00","6.7","","5.6","","93","","16","","11","","19.3","","99.77","","","","","","Mostly Cloudy"
"1967-11-11 09:00","1967","11","11","09:00","10.0","","7.2","","84","","18","","19","","19.3","","99.72","","","","","","Mostly Cloudy"
"1967-11-11 10:00","1967","11","11","10:00","11.1","","7.2","","76","","18","","19","","19.3","","99.63","","","","","","Cloudy"
"1967-11-11 11:00","1967","11","11","11:00","13.3","","6.1","","61","","20","","27","","19.3","","99.60","","","","","","Cloudy"
"1967-11-11 12:00","1967","11","11","12:00","14.4","","6.1","","58","","20","","37","","19.3","","99.49","","","","","","Cloudy"
"1967-11-11 13:00","1967","11","11","13:00","14.4","","6.1","","57","","20","","26","","19.3","","99.37","","","","","","Cloudy"
"1967-11-11 14:00","1967","11","11","14:00","13.3","","5.0","","57","","20","","23","","19.3","","99.30","","","","","","Rain Showers"
"1967-11-11 15:00","1967","11","11","15:00","12.8","","5.0","","59","","20","","26","","12.9","","99.24","","","","","","Rain Showers"
"1967-11-11 16:00","1967","11","11","16:00","10.0","","8.3","","88","","18","","27","","6.4","","99.17","","","","","","Rain,Fog"
"1967-11-11 17:00","1967","11","11","17:00","9.4","","8.3","","92","","18","","23","","3.2","","99.13","","","","","","Rain,Fog"
"1967-11-11 18:00","1967","11","11","18:00","10.0","","8.9","","94","","18","","26","","6.4","","99.10","","","","","","Rain,Fog"
"1967-11-11 19:00","1967","11","11","19:00","10.0","","8.9","","94","","18","","24","","8.0","","99.11","","","","","","Rain,Fog"
"1967-11-11 20:00","1967","11","11","20:00","10.0","","8.9","","94","","20","","27","","8.0","","99.09","","","","","","Rain,Fog"
"1967-11-11 21:00","1967","11","11","21:00","10.0","","8.9","","94","","20","","23","","8.0","","99.09","","","","","","Rain,Fog"
"1967-11-11 22:00","1967","11","11","22:00","10.0","","8.9","","94","","20","","26","","8.0","","99.07","","","","","","Rain,Fog"
"1967-11-11 23:00","1967","11","11","23:00","10.0","","9.4","","96","","23","","16","","8.0","","99.08","","","","","","Drizzle,Fog"
"1967-11-12 00:00","1967","11","12","00:00","10.0","","8.9","","94","","23","","16","","9.7","","99.07","","","","","","Fog"
"1967-11-12 01:00","1967","11","12","01:00","10.0","","8.9","","94","","23","","18","","9.7","","99.05","","","","","","Rain,Fog"
"1967-11-12 02:00","1967","11","12","02:00","10.6","","9.4","","94","","23","","16","","9.7","","99.01","","","","","","Fog"
"1967-11-12 03:00","1967","11","12","03:00","10.0","","8.9","","92","","23","","16","","12.9","","98.98","","","","","","Cloudy"
"1967-11-12 04:00","1967","11","12","04:00","10.0","","8.3","","90","","23","","11","","12.9","","98.91","","","","","","Cloudy"
"1967-11-12 05:00","1967","11","12","05:00","10.0","","8.9","","92","","18","","13","","12.9","","98.86","","","","","","Cloudy"
"1967-11-12 06:00","1967","11","12","06:00","9.4","","8.3","","92","","18","","11","","12.9","","98.78","","","","","","Cloudy"
"1967-11-12 07:00","1967","11","12","07:00","9.4","","8.3","","92","","16","","10","","8.0","","98.70","","","","","","Fog"
"1967-11-12 08:00","1967","11","12","08:00","9.4","","8.3","","94","","16","","11","","3.2","","98.61","","","","","","Rain Showers,Fog"
"1967-11-12 09:00","1967","11","12","09:00","10.0","","8.9","","92","","20","","14","","9.7","","98.53","","","","","","Rain,Fog"
"1967-11-12 10:00","1967","11","12","10:00","11.1","","8.9","","85","","23","","24","","19.3","","98.47","","","","","","Mostly Cloudy"
"1967-11-12 11:00","1967","11","12","11:00","10.0","","8.9","","92","","20","","21","","12.9","","98.44","","","","","","Mostly Cloudy"
"1967-11-12 12:00","1967","11","12","12:00","10.6","","8.3","","87","","23","","24","","16.1","","98.33","","","","","","Mostly Cloudy"
"1967-11-12 13:00","1967","11","12","13:00","11.1","","7.8","","79","","23","","29","","19.3","","98.25","","","","","","Cloudy"
"1967-11-12 14:00","1967","11","12","14:00","10.6","","8.3","","85","","25","","21","","24.1","","98.21","","","","","","Mostly Cloudy"
"1967-11-12 15:00","1967","11","12","15:00","10.0","","6.7","","81","","27","","23","","24.1","","98.24","","","","","","Cloudy"
"1967-11-12 16:00","1967","11","12","16:00","9.4","","6.7","","82","","25","","19","","32.2","","98.25","","","","","","Cloudy"
"1967-11-12 17:00","1967","11","12","17:00","8.3","","6.1","","85","","27","","16","","24.1","","98.27","","","","","","Rain Showers"
"1967-11-12 18:00","1967","11","12","18:00","8.9","","6.1","","84","","29","","26","","25.0","","98.36","","","","","","Cloudy"
"1967-11-12 19:00","1967","11","12","19:00","6.7","","4.4","","87","","32","","48","","24.1","","98.57","","","","","","Rain Showers"
"1967-11-12 20:00","1967","11","12","20:00","4.4","","2.2","","85","","32","","50","","25.0","","98.71","","","","","","Rain Showers"
"1967-11-12 21:00","1967","11","12","21:00","3.9","","1.7","","85","","32","","45","","25.0","","98.82","","","","","","Cloudy"
"1967-11-12 22:00","1967","11","12","22:00","3.9","","0.6","","78","","32","","40","","25.0","","98.94","","","","","","Mostly Cloudy"
"1967-11-12 23:00","1967","11","12","23:00","3.3","","0.0","","80","","32","","24","","25.0","","99.07","","","","","","Mostly Cloudy"
"1967-11-13 00:00","1967","11","13","00:00","3.3","","0.6","","82","","32","","32","","25.0","","99.16","","","","","","Rain Showers"
"1967-11-13 01:00","1967","11","13","01:00","3.3","","0.6","","82","","29","","24","","25.0","","99.18","","","","","","Cloudy"
"1967-11-13 02:00","1967","11","13","02:00","2.8","","0.0","","82","","27","","19","","25.0","","99.24","","","","","","Cloudy"
"1967-11-13 03:00","1967","11","13","03:00","2.2","","-0.6","","81","","29","","23","","25.0","","99.30","","","","","","Mostly Cloudy"
"1967-11-13 04:00","1967","11","13","04:00","2.2","","-2.2","","74","","29","","34","","25.0","","99.34","","","","","","Mostly Cloudy"
"1967-11-13 05:00","1967","11","13","05:00","1.7","","-1.1","","81","","32","","18","","25.0","","99.43","","","","","","Cloudy"
"1967-11-13 06:00","1967","11","13","06:00","1.1","","-3.9","","68","","32","","35","","25.0","","99.48","","","","","","Cloudy"
"1967-11-13 07:00","1967","11","13","07:00","1.1","","-2.8","","76","","29","","24","","25.0","","99.51","","","","","","Cloudy"
"1967-11-13 08:00","1967","11","13","08:00","0.6","","-3.3","","75","","29","","26","","40.2","","99.53","","","","","","Mostly Cloudy"
"1967-11-13 09:00","1967","11","13","09:00","1.1","","-3.9","","68","","29","","24","","40.2","","99.56","","","","","","Mostly Cloudy"
"1967-11-13 10:00","1967","11","13","10:00","1.7","","-3.9","","67","","27","","16","","40.2","","99.51","","","","","","Snow Showers"
"1967-11-13 11:00","1967","11","13","11:00","1.7","","-2.2","","76","","27","","14","","11.3","","99.50","","","","","","Snow Showers"
"1967-11-13 12:00","1967","11","13","12:00","1.7","","-1.7","","78","","25","","21","","6.4","","99.38","","","","","","Snow Showers"
"1967-11-13 13:00","1967","11","13","13:00","2.8","","-0.6","","79","","29","","24","","24.1","","99.27","","","","","","Cloudy"
"1967-11-13 14:00","1967","11","13","14:00","2.8","","-2.8","","67","","27","","27","","32.2","","99.20","","","","","","Cloudy"
"1967-11-13 15:00","1967","11","13","15:00","2.2","","-2.2","","71","","27","","31","","32.2","","99.15","","","","","","Mostly Cloudy"
"1967-11-13 16:00","1967","11","13","16:00","1.1","","-2.8","","76","","29","","42","","19.3","","99.15","","","","","","Snow Showers"
"1967-11-13 17:00","1967","11","13","17:00","0.6","","-3.9","","73","","29","","43","","40.2","","99.16","","","","","","Mostly Cloudy"
"1967-11-13 18:00","1967","11","13","18:00","-0.6","","-3.9","","79","","29","","32","","25.0","","99.20","","","","-7","","Mostly Cloudy"
"1967-11-13 19:00","1967","11","13","19:00","-1.1","","-6.1","","69","","29","","32","","25.0","","99.27","","","","-8","","Mostly Cloudy"
"1967-11-13 20:00","1967","11","13","20:00","-1.1","","-6.1","","69","","32","","29","","25.0","","99.30","","","","-8","","Mainly Clear"
"1967-11-13 21:00","1967","11","13","21:00","-1.7","","-6.7","","68","","27","","16","","25.0","","99.33","","","","-7","","Mostly Cloudy"
"1967-11-13 22:00","1967","11","13","22:00","-1.7","","-6.7","","69","","27","","16","","25.0","","99.29","","","","-7","","Mostly Cloudy"
"1967-11-13 23:00","1967","11","13","23:00","-2.2","","-6.1","","75","","25","","10","","25.0","","99.21","","","","-6","","Mostly Cloudy"
"1967-11-14 00:00","1967","11","14","00:00","-2.2","","-5.6","","79","","25","","8","","25.0","","99.17","","","","-5","","Mostly Cloudy"
"1967-11-14 01:00","1967","11","14","01:00","-2.8","","-6.7","","75","","23","","3","","25.0","","99.08","","","","-4","","Mostly Cloudy"
"1967-11-14 02:00","1967","11","14","02:00","-2.8","","-6.1","","77","","23","","5","","25.0","","99.03","","","","-5","","Mostly Cloudy"
"1967-11-14 03:00","1967","11","14","03:00","-2.2","","-5.6","","79","","23","","11","","25.0","","98.91","","","","-6","","Mostly Cloudy"
"1967-11-14 04:00","1967","11","14","04:00","-2.2","","-3.9","","87","","23","","13","","25.0","","98.82","","","","-7","","Mainly Clear"
"1967-11-14 05:00","1967","11","14","05:00","-1.7","","-3.9","","86","","23","","16","","25.0","","98.72","","","","-7","","Mainly Clear"
"1967-11-14 06:00","1967","11","14","06:00","-1.1","","-3.9","","83","","25","","18","","24.1","","98.67","","","","-6","","Cloudy"
"1967-11-14 07:00","1967","11","14","07:00","-1.1","","-2.2","","92","","23","","16","","12.9","","98.56","","","","-6","","Snow Showers"
"1967-11-14 08:00","1967","11","14","08:00","-0.6","","-1.7","","93","","23","","19","","12.9","","98.51","","","","-6","","Snow Showers"
"1967-11-14 09:00","1967","11","14","09:00","0.0","","-1.7","","88","","23","","16","","16.1","","98.44","","","","-5","","Cloudy"
"1967-11-14 10:00","1967","11","14","10:00","0.6","","-1.7","","86","","23","","18","","19.3","","98.32","","","","","","Cloudy"
"1967-11-14 11:00","1967","11","14","11:00","1.7","","-0.6","","86","","20","","18","","8.0","","98.18","","","","","","Snow Showers"
"1967-11-14 12:00","1967","11","14","12:00","2.8","","-0.6","","79","","20","","31","","4.8","","98.01","","","","","","Snow Showers"
"1967-11-14 13:00","1967","11","14","13:00","1.7","","0.6","","92","","20","","27","","6.4","","97.86","","","","","","Rain,Fog"
"1967-11-14 14:00","1967","11","14","14:00","1.7","","-0.6","","86","","23","","23","","12.9","","97.76","","","","","","Rain"
"1967-11-14 15:00","1967","11","14","15:00","2.2","","1.1","","92","","25","","23","","2.4","","97.71","","","","","","Rain,Snow"
"1967-11-14 16:00","1967","11","14","16:00","2.2","","0.0","","87","","27","","23","","40.2","","97.75","","","","","","Snow"
"1967-11-14 17:00","1967","11","14","17:00","0.0","","-5.0","","69","","29","","26","","32.2","","97.81","","","","-6","","Mostly Cloudy"
"1967-11-14 18:00","1967","11","14","18:00","0.0","","-3.9","","74","","27","","19","","25.0","","97.83","","","","-5","","Mostly Cloudy"
"1967-11-14 19:00","1967","11","14","19:00","-1.1","","-3.9","","80","","25","","23","","25.0","","97.81","","","","-7","","Mainly Clear"
"1967-11-14 20:00","1967","11","14","20:00","-1.1","","-2.8","","88","","29","","23","","25.0","","97.84","","","","-7","","Mostly Cloudy"
"1967-11-14 21:00","1967","11","14","21:00","-3.9","","-5.6","","88","","36","","51","","2.4","","98.22","","","","-14","","Snow,Blowing Snow"
"1967-11-14 22:00","1967","11","14","22:00","-6.1","","-7.8","","88","","36","","40","","4.8","","98.47","","","","-16","","Snow,Blowing Snow"
"1967-11-14 23:00","1967","11","14","23:00","-6.7","","-9.4","","82","","34","","32","","24.1","","98.65","","","","-15","","Snow"
"1967-11-15 00:00","1967","11","15","00:00","-7.2","","-10.6","","77","","34","","35","","25.0","","98.83","","","","-16","","Mostly Cloudy"
"1967-11-15 01:00","1967","11","15","01:00","-7.8","","-11.7","","75","","34","","32","","25.0","","98.98","","","","-17","","Mostly Cloudy"
"1967-11-15 02:00","1967","11","15","02:00","-7.8","","-13.3","","65","","34","","27","","25.0","","99.11","","","","-16","","Mainly Clear"
"1967-11-15 03:00","1967","11","15","03:00","-8.3","","-12.8","","70","","34","","32","","25.0","","99.26","","","","-18","","Clear"
"1967-11-15 04:00","1967","11","15","04:00","-8.9","","-13.9","","67","","34","","27","","25.0","","99.38","","","","-18","","Clear"
"1967-11-15 05:00","1967","11","15","05:00","-9.4","","-14.4","","67","","34","","29","","25.0","","99.50","","","","-19","","Clear"
"1967-11-15 06:00","1967","11","15","06:00","-9.4","","-13.9","","69","","36","","24","","25.0","","99.62","","","","-18","","Clear"
"1967-11-15 07:00","1967","11","15","07:00","-10.0","","-15.0","","68","","32","","16","","40.2","","99.78","","","","-17","","Mainly Clear"
"1967-11-15 08:00","1967","11","15","08:00","-10.0","","-17.2","","55","","34","","19","","40.2","","99.88","","","","-18","","Mainly Clear"
"1967-11-15 09:00","1967","11","15","09:00","-7.2","","-13.9","","60","","34","","23","","40.2","","99.99","","","","-15","","Mainly Clear"
"1967-11-15 10:00","1967","11","15","10:00","-6.1","","-12.2","","63","","34","","27","","40.2","","100.04","","","","-14","","Mainly Clear"
"1967-11-15 11:00","1967","11","15","11:00","-5.0","","-11.7","","60","","36","","32","","40.2","","100.11","","","","-13","","Mainly Clear"
"1967-11-15 12:00","1967","11","15","12:00","-4.4","","-10.6","","64","","34","","24","","40.2","","100.10","","","","-11","","Mainly Clear"
"1967-11-15 13:00","1967","11","15","13:00","-3.3","","-8.9","","64","","36","","29","","40.2","","100.09","","","","-11","","Mainly Clear"
"1967-11-15 14:00","1967","11","15","14:00","-4.4","","-10.6","","64","","34","","26","","40.2","","100.11","","","","-12","","Mainly Clear"
"1967-11-15 15:00","1967","11","15","15:00","-4.4","","-10.6","","61","","34","","26","","40.2","","100.16","","","","-12","","Mainly Clear"
"1967-11-15 16:00","1967","11","15","16:00","-4.4","","-10.0","","65","","32","","23","","40.2","","100.20","","","","-11","","Mainly Clear"
"1967-11-15 17:00","1967","11","15","17:00","-6.1","","-10.0","","73","","32","","21","","32.2","","100.25","","","","-13","","Mainly Clear"
"1967-11-15 18:00","1967","11","15","18:00","-7.8","","-10.6","","82","","32","","13","","25.0","","100.31","","","","-14","","Mainly Clear"
"1967-11-15 19:00","1967","11","15","19:00","-7.2","","-11.7","","72","","32","","16","","25.0","","100.35","","","","-14","","Mainly Clear"
"1967-11-15 20:00","1967","11","15","20:00","-8.9","","-11.7","","79","","32","","13","","25.0","","100.35","","","","-15","","Mainly Clear"
"1967-11-15 21:00","1967","11","15","21:00","-7.2","","-12.2","","68","","27","","13","","25.0","","100.36","","","","-13","","Mostly Cloudy"
"1967-11-15 22:00","1967","11","15","22:00","-6.1","","-11.7","","65","","29","","19","","25.0","","100.36","","","","-13","","Mostly Cloudy"
"1967-11-15 23:00","1967","11","15","23:00","-7.8","","-11.7","","75","","32","","13","","25.0","","100.32","","","","-14","","Mainly Clear"
"1967-11-16 00:00","1967","11","16","00:00","-8.3","","-11.7","","77","","34","","13","","25.0","","100.35","","","","-14","","Mainly Clear"
"1967-11-16 01:00","1967","11","16","01:00","-9.4","","-11.7","","84","","34","","6","","25.0","","100.38","","","","-13","","Clear"
"1967-11-16 02:00","1967","11","16","02:00","-10.6","","-12.8","","84","","32","","8","","25.0","","100.43","","","","-15","","Clear"
"1967-11-16 03:00","1967","11","16","03:00","-10.6","","-12.2","","87","","34","","6","","25.0","","100.45","","","","-14","","Mainly Clear"
"1967-11-16 04:00","1967","11","16","04:00","-11.1","","-12.8","","88","","32","","6","","25.0","","100.45","","","","-15","","Mostly Cloudy"
"1967-11-16 05:00","1967","11","16","05:00","-11.1","","-12.8","","86","","32","","3","","25.0","","100.42","","","","-13","","Mainly Clear"
"1967-11-16 06:00","1967","11","16","06:00","-10.6","","-12.2","","87","","5","","2","","25.0","","100.34","","","","-12","","Mainly Clear"
"1967-11-16 07:00","1967","11","16","07:00","-10.6","","-12.2","","87","","27","","5","","25.0","","100.38","","","","-14","","Mostly Cloudy"
"1967-11-16 08:00","1967","11","16","08:00","-10.6","","-12.8","","85","","","","0","","16.1","","100.38","","","","","","Mostly Cloudy"
"1967-11-16 09:00","1967","11","16","09:00","-7.2","","-11.7","","72","","","","0","","24.1","","100.37","","","","","","Mostly Cloudy"
"1967-11-16 10:00","1967","11","16","10:00","-4.4","","-8.3","","74","","20","","13","","19.3","","100.34","","","","-9","","Mostly Cloudy"
"1967-11-16 11:00","1967","11","16","11:00","-3.3","","-6.7","","77","","18","","10","","24.1","","100.24","","","","-7","","Mostly Cloudy"
"1967-11-16 12:00","1967","11","16","12:00","-1.7","","-7.2","","67","","20","","13","","40.2","","100.12","","","","-6","","Mostly Cloudy"
"1967-11-16 13:00","1967","11","16","13:00","-0.6","","-6.7","","65","","23","","14","","40.2","","99.99","","","","-5","","Mostly Cloudy"
"1967-11-16 14:00","1967","11","16","14:00","0.0","","-4.4","","71","","18","","19","","32.2","","99.88","","","","-5","","Mostly Cloudy"
"1967-11-16 15:00","1967","11","16","15:00","-0.6","","-5.6","","70","","18","","16","","32.2","","99.79","","","","-5","","Cloudy"
"1967-11-16 16:00","1967","11","16","16:00","-0.6","","-5.0","","73","","20","","16","","32.2","","99.71","","","","-5","","Cloudy"
"1967-11-16 17:00","1967","11","16","17:00","-0.6","","-5.0","","73","","18","","19","","24.1","","99.63","","","","-6","","Cloudy"
"1967-11-16 18:00","1967","11","16","18:00","0.0","","-3.9","","74","","20","","18","","24.1","","99.59","","","","-5","","Cloudy"
"1967-11-16 19:00","1967","11","16","19:00","-0.6","","-3.9","","79","","18","","21","","24.1","","99.47","","","","-6","","Snow Showers"
"1967-11-16 20:00","1967","11","16","20:00","0.0","","-4.4","","71","","18","","21","","16.1","","99.40","","","","-5","","Cloudy"
"1967-11-16 21:00","1967","11","16","21:00","0.0","","-3.9","","74","","18","","19","","16.1","","99.35","","","","-5","","Cloudy"
"1967-11-16 22:00","1967","11","16","22:00","0.0","","-3.3","","77","","18","","16","","16.1","","99.27","","","","-5","","Cloudy"
"1967-11-16 23:00","1967","11","16","23:00","0.0","","-3.9","","74","","18","","14","","12.9","","99.20","","","","-4","","Cloudy"
"1967-11-17 00:00","1967","11","17","00:00","0.6","","-3.3","","75","","18","","14","","12.9","","99.17","","","","","","Cloudy"
"1967-11-17 01:00","1967","11","17","01:00","0.6","","-1.7","","86","","18","","10","","16.1","","99.08","","","","","","Snow Showers"
"1967-11-17 02:00","1967","11","17","02:00","0.0","","-3.3","","80","","16","","8","","19.3","","99.04","","","","-3","","Mostly Cloudy"
"1967-11-17 03:00","1967","11","17","03:00","0.0","","-2.8","","83","","14","","6","","24.1","","98.96","","","","-2","","Cloudy"
"1967-11-17 04:00","1967","11","17","04:00","0.6","","-2.2","","81","","16","","8","","24.1","","98.88","","","","","","Cloudy"
"1967-11-17 05:00","1967","11","17","05:00","0.6","","-2.2","","81","","16","","6","","24.1","","98.81","","","","","","Cloudy"
"1967-11-17 06:00","1967","11","17","06:00","1.1","","-1.7","","83","","16","","8","","24.1","","98.72","","","","","","Mostly Cloudy"
"1967-11-17 07:00","1967","11","17","07:00","1.1","","-1.7","","83","","18","","10","","9.7","","98.64","","","","","","Haze"
"1967-11-17 08:00","1967","11","17","08:00","1.1","","-1.1","","86","","16","","8","","6.4","","98.57","","","","","","Fog"
"1967-11-17 09:00","1967","11","17","09:00","2.2","","-0.6","","81","","18","","8","","6.4","","98.53","","","","","","Haze"
"1967-11-17 10:00","1967","11","17","10:00","2.8","","-0.6","","79","","18","","13","","8.0","","98.48","","","","","","Haze"
"1967-11-17 11:00","1967","11","17","11:00","3.9","","0.0","","75","","20","","16","","12.9","","98.41","","","","","","Cloudy"
"1967-11-17 12:00","1967","11","17","12:00","3.9","","0.6","","80","","20","","16","","11.3","","98.30","","","","","","Cloudy"
"1967-11-17 13:00","1967","11","17","13:00","3.9","","1.1","","83","","20","","13","","11.3","","98.20","","","","","","Cloudy"
"1967-11-17 14:00","1967","11","17","14:00","3.9","","1.1","","83","","18","","10","","9.7","","98.17","","","","","","Haze"
"1967-11-17 15:00","1967","11","17","15:00","3.3","","1.1","","85","","20","","3","","9.7","","98.15","","","","","","Haze"
"1967-11-17 16:00","1967","11","17","16:00","3.3","","1.7","","87","","18","","3","","9.7","","98.16","","","","","","Fog"
"1967-11-17 17:00","1967","11","17","17:00","2.8","","0.6","","87","","18","","6","","6.4","","98.18","","","","","","Fog"
"1967-11-17 18:00","1967","11","17","18:00","2.8","","1.1","","90","","18","","8","","4.8","","98.23","","","","","","Drizzle,Fog"
"1967-11-17 19:00","1967","11","17","19:00","2.8","","1.7","","92","","20","","8","","4.0","","98.29","","","","","","Rain Showers,Fog"
"1967-11-17 20:00","1967","11","17","20:00","2.2","","1.7","","97","","18","","10","","3.2","","98.30","","","","","","Fog"
"1967-11-17 21:00","1967","11","17","21:00","2.2","","1.7","","97","","18","","10","","4.0","","98.28","","","","","","Fog"
"1967-11-17 22:00","1967","11","17","22:00","2.2","","1.7","","97","","20","","14","","2.4","","98.25","","","","","","Fog"
"1967-11-17 23:00","1967","11","17","23:00","2.2","","1.7","","97","","23","","14","","2.4","","98.21","","","","","","Fog"
"1967-11-18 00:00","1967","11","18","00:00","2.2","","1.7","","97","","23","","10","","2.4","","98.17","","","","","","Fog"
"1967-11-18 01:00","1967","11","18","01:00","2.8","","2.2","","97","","25","","11","","2.4","","98.10","","","","","","Drizzle,Fog"
"1967-11-18 02:00","1967","11","18","02:00","2.8","","2.2","","97","","23","","11","","8.0","","98.04","","","","","","Fog"
"1967-11-18 03:00","1967","11","18","03:00","2.8","","2.2","","95","","23","","10","","12.9","","97.91","","","","","","Cloudy"
"1967-11-18 04:00","1967","11","18","04:00","2.2","","1.7","","95","","18","","11","","16.1","","97.82","","","","","","Cloudy"
"1967-11-18 05:00","1967","11","18","05:00","2.2","","1.7","","95","","18","","11","","9.7","","97.77","","","","","","Fog"
"1967-11-18 06:00","1967","11","18","06:00","2.2","","1.7","","97","","18","","6","","9.7","","97.66","","","","","","Drizzle,Fog"
"1967-11-18 07:00","1967","11","18","07:00","2.2","","1.7","","97","","11","","10","","4.8","","97.54","","","","","","Fog"
"1967-11-18 08:00","1967","11","18","08:00","2.2","","2.2","","100","","11","","8","","2.0","","97.48","","","","","","Rain,Fog"
"1967-11-18 09:00","1967","11","18","09:00","3.3","","2.8","","97","","14","","10","","2.4","","97.39","","","","","","Rain,Fog"
"1967-11-18 10:00","1967","11","18","10:00","3.3","","2.8","","95","","18","","8","","3.2","","97.34","","","","","","Rain,Fog"
"1967-11-18 11:00","1967","11","18","11:00","0.6","","0.0","","97","","20","","10","","1.2","","97.35","","","","","","Snow"
"1967-11-18 12:00","1967","11","18","12:00","1.1","","0.6","","97","","25","","13","","2.4","","97.31","","","","","","Snow,Fog"
"1967-11-18 13:00","1967","11","18","13:00","2.2","","1.7","","97","","29","","13","","4.0","","97.33","","","","","","Drizzle,Fog"
"1967-11-18 14:00","1967","11","18","14:00","2.2","","1.7","","95","","29","","16","","9.7","","97.39","","","","","","Rain,Fog"
"1967-11-18 15:00","1967","11","18","15:00","3.9","","2.2","","90","","29","","19","","32.2","","97.50","","","","","","Mostly Cloudy"
"1967-11-18 16:00","1967","11","18","16:00","3.3","","1.7","","87","","27","","19","","40.2","","97.61","","","","","","Mostly Cloudy"
"1967-11-18 17:00","1967","11","18","17:00","2.2","","0.6","","89","","27","","18","","40.2","","97.74","","","","","","Mostly Cloudy"
"1967-11-18 18:00","1967","11","18","18:00","1.7","","0.0","","89","","27","","16","","25.0","","97.86","","","","","","Mostly Cloudy"
"1967-11-18 19:00","1967","11","18","19:00","2.2","","-1.1","","79","","27","","21","","25.0","","97.90","","","","","","Mostly Cloudy"
"1967-11-18 20:00","1967","11","18","20:00","1.7","","-1.1","","81","","27","","19","","25.0","","97.96","","","","","","Mostly Cloudy"
"1967-11-18 21:00","1967","11","18","21:00","1.7","","-1.7","","78","","27","","23","","25.0","","97.99","","","","","","Mostly Cloudy"
"1967-11-18 22:00","1967","11","18","22:00","1.7","","-2.2","","76","","27","","26","","25.0","","98.03","","","","","","Mostly Cloudy"
"1967-11-18 23:00","1967","11","18","23:00","1.1","","-1.7","","83","","27","","21","","25.0","","98.06","","","","","","Mostly Cloudy"
"1967-11-19 00:00","1967","11","19","00:00","1.1","","-1.7","","82","","29","","26","","25.0","","98.14","","","","","","Mostly Cloudy"
"1967-11-19 01:00","1967","11","19","01:00","0.6","","-0.6","","91","","29","","26","","25.0","","98.23","","","","","","Mostly Cloudy"
"1967-11-19 02:00","1967","11","19","02:00","0.6","","-0.6","","91","","29","","37","","25.0","","98.31","","","","","","Mostly Cloudy"
"1967-11-19 03:00","1967","11","19","03:00","0.0","","-3.3","","77","","29","","39","","25.0","","98.41","","","","-7","","Mostly Cloudy"
"1967-11-19 04:00","1967","11","19","04:00","0.0","","-3.3","","80","","29","","39","","25.0","","98.50","","","","-7","","Cloudy"
"1967-11-19 05:00","1967","11","19","05:00","0.0","","-3.3","","80","","29","","35","","25.0","","98.62","","","","-7","","Mostly Cloudy"
"1967-11-19 06:00","1967","11","19","06:00","0.0","","-2.2","","86","","29","","35","","25.0","","98.70","","","","-7","","Mostly Cloudy"
"1967-11-19 07:00","1967","11","19","07:00","-0.6","","-5.0","","73","","29","","35","","25.0","","98.81","","","","-8","","Mostly Cloudy"
"1967-11-19 08:00","1967","11","19","08:00","-0.6","","-3.9","","79","","29","","34","","40.2","","98.95","","","","-8","","Mainly Clear"
"1967-11-19 09:00","1967","11","19","09:00","0.0","","-3.3","","80","","29","","29","","40.2","","99.06","","","","-6","","Mostly Cloudy"
"1967-11-19 10:00","1967","11","19","10:00","0.6","","-3.9","","73","","29","","39","","40.2","","99.12","","","","","","Mainly Clear"
"1967-11-19 11:00","1967","11","19","11:00","1.1","","-2.8","","74","","32","","39","","40.2","","99.20","","","","","","Mostly Cloudy"
"1967-11-19 12:00","1967","11","19","12:00","1.1","","-3.3","","71","","29","","34","","40.2","","99.23","","","","","","Mostly Cloudy"
"1967-11-19 13:00","1967","11","19","13:00","1.1","","-2.8","","74","","29","","35","","40.2","","99.24","","","","","","Mostly Cloudy"
"1967-11-19 14:00","1967","11","19","14:00","0.6","","-2.2","","81","","29","","29","","40.2","","99.24","","","","","","Snow Showers"
"1967-11-19 15:00","1967","11","19","15:00","-0.6","","-2.2","","88","","27","","32","","9.7","","99.29","","","","-7","","Snow Showers"
"1967-11-19 16:00","1967","11","19","16:00","0.0","","-3.3","","80","","32","","24","","32.2","","99.34","","","","-6","","Mostly Cloudy"
"1967-11-19 17:00","1967","11","19","17:00","0.0","","-5.6","","66","","29","","39","","24.1","","99.38","","","","-7","","Mostly Cloudy"
"1967-11-19 18:00","1967","11","19","18:00","-1.1","","-5.0","","76","","29","","27","","25.0","","99.43","","","","-8","","Mostly Cloudy"
"1967-11-19 19:00","1967","11","19","19:00","-1.1","","-5.6","","73","","29","","26","","25.0","","99.47","","","","-7","","Mostly Cloudy"
"1967-11-19 20:00","1967","11","19","20:00","-2.2","","-6.1","","76","","29","","26","","25.0","","99.50","","","","-9","","Mainly Clear"
"1967-11-19 21:00","1967","11","19","21:00","-2.2","","-6.1","","76","","27","","24","","25.0","","99.52","","","","-9","","Mainly Clear"
"1967-11-19 22:00","1967","11","19","22:00","-2.2","","-6.7","","73","","27","","24","","25.0","","99.54","","","","-9","","Mostly Cloudy"
"1967-11-19 23:00","1967","11","19","23:00","-3.3","","-7.2","","75","","29","","23","","25.0","","99.57","","","","-10","","Mainly Clear"
"1967-11-20 00:00","1967","11","20","00:00","-3.3","","-7.2","","75","","29","","19","","25.0","","99.64","","","","-9","","Mainly Clear"
"1967-11-20 01:00","1967","11","20","01:00","-3.3","","-6.7","","78","","29","","18","","25.0","","99.67","","","","-9","","Mostly Cloudy"
"1967-11-20 02:00","1967","11","20","02:00","-3.3","","-6.1","","80","","29","","19","","25.0","","99.76","","","","-9","","Snow Showers"
"1967-11-20 03:00","1967","11","20","03:00","-4.4","","-7.2","","82","","32","","21","","25.0","","99.83","","","","-11","","Mainly Clear"
"1967-11-20 04:00","1967","11","20","04:00","-3.9","","-7.2","","77","","29","","21","","25.0","","99.83","","","","-10","","Mainly Clear"
"1967-11-20 05:00","1967","11","20","05:00","-4.4","","-7.2","","79","","29","","21","","25.0","","99.84","","","","-11","","Mainly Clear"
"1967-11-20 06:00","1967","11","20","06:00","-4.4","","-8.3","","74","","32","","13","","25.0","","99.90","","","","-9","","Mostly Cloudy"
"1967-11-20 07:00","1967","11","20","07:00","-4.4","","-8.3","","74","","32","","5","","25.0","","99.97","","","","-7","","Mostly Cloudy"
"1967-11-20 08:00","1967","11","20","08:00","-3.9","","-6.7","","80","","2","","11","","24.1","","100.04","","","","-8","","Snow Showers"
"1967-11-20 09:00","1967","11","20","09:00","-4.4","","-7.2","","79","","36","","13","","12.9","","100.08","","","","-9","","Snow Showers"
"1967-11-20 10:00","1967","11","20","10:00","-4.4","","-8.9","","71","","36","","8","","32.2","","100.11","","","","-8","","Snow Showers"
"1967-11-20 11:00","1967","11","20","11:00","-2.8","","-7.2","","71","","36","","3","","40.2","","100.07","","","","-4","","Snow Showers"
"1967-11-20 12:00","1967","11","20","12:00","-1.7","","-7.2","","65","","27","","6","","40.2","","100.00","","","","-4","","Mostly Cloudy"
"1967-11-20 13:00","1967","11","20","13:00","-1.1","","-7.2","","64","","32","","16","","40.2","","99.94","","","","-6","","Mainly Clear"
"1967-11-20 14:00","1967","11","20","14:00","0.6","","-5.6","","64","","34","","19","","40.2","","99.89","","","","","","Mainly Clear"
"1967-11-20 15:00","1967","11","20","15:00","0.0","","-6.1","","63","","29","","16","","40.2","","99.88","","","","-5","","Mainly Clear"
"1967-11-20 16:00","1967","11","20","16:00","-0.6","","-6.7","","65","","32","","19","","40.2","","99.91","","","","-6","","Mostly Cloudy"
"1967-11-20 17:00","1967","11","20","17:00","-3.3","","-7.2","","75","","29","","14","","40.2","","99.94","","","","-8","","Mainly Clear"
"1967-11-20 18:00","1967","11","20","18:00","-5.0","","-8.9","","75","","36","","5","","25.0","","99.98","","","","-7","","Mainly Clear"
"1967-11-20 19:00","1967","11","20","19:00","-5.0","","-7.8","","82","","2","","5","","25.0","","100.00","","","","-7","","Mostly Cloudy"
"1967-11-20 20:00","1967","11","20","20:00","-4.4","","-8.3","","75","","","","0","","25.0","","99.97","","","","","","Mostly Cloudy"
"1967-11-20 21:00","1967","11","20","21:00","-4.4","","-6.7","","84","","","","0","","25.0","","99.92","","","","","","Cloudy"
"1967-11-20 22:00","1967","11","20","22:00","-3.9","","-8.9","","69","","","","0","","25.0","","99.90","","","","","","Cloudy"
"1967-11-20 23:00","1967","11","20","23:00","-3.9","","-7.2","","78","","","","0","","25.0","","99.87","","","","","","Mostly Cloudy"
"1967-11-21 00:00","1967","11","21","00:00","-3.9","","-7.8","","74","","11","","3","","25.0","","99.86","","","","-5","","Mostly Cloudy"
"1967-11-21 01:00","1967","11","21","01:00","-4.4","","-6.7","","83","","","","0","","25.0","","99.84","","","","","","Mainly Clear"
"1967-11-21 02:00","1967","11","21","02:00","-6.7","","-8.3","","89","","36","","5","","25.0","","99.82","","","","-9","","Mainly Clear"
"1967-11-21 03:00","1967","11","21","03:00","-7.2","","-9.4","","83","","36","","6","","25.0","","99.86","","","","-10","","Mainly Clear"
"1967-11-21 04:00","1967","11","21","04:00","-6.7","","-7.8","","90","","36","","5","","25.0","","99.84","","","","-9","","Mostly Cloudy"
"1967-11-21 05:00","1967","11","21","05:00","-5.6","","-7.2","","89","","36","","6","","25.0","","99.83","","","","-8","","Mostly Cloudy"
"1967-11-21 06:00","1967","11","21","06:00","-5.6","","-7.2","","90","","34","","6","","25.0","","99.82","","","","-8","","Mostly Cloudy"
"1967-11-21 07:00","1967","11","21","07:00","-5.6","","-6.7","","91","","","","0","","19.3","","99.80","","","","","","Mostly Cloudy"
"1967-11-21 08:00","1967","11","21","08:00","-3.9","","-6.1","","84","","9","","6","","4.8","","99.78","","","","-7","","Fog"
"1967-11-21 09:00","1967","11","21","09:00","-2.2","","-4.4","","86","","","","0","","4.8","","99.76","","","","","","Fog,Haze"
"1967-11-21 10:00","1967","11","21","10:00","0.0","","-3.9","","74","","14","","16","","4.8","","99.73","","","","-5","","Haze"
"1967-11-21 11:00","1967","11","21","11:00","0.6","","-3.9","","73","","14","","19","","9.7","","99.70","","","","","","Haze"
"1967-11-21 12:00","1967","11","21","12:00","1.1","","-3.3","","71","","14","","19","","9.7","","99.62","","","","","","Haze"
"1967-11-21 13:00","1967","11","21","13:00","1.1","","-3.3","","71","","14","","19","","9.7","","99.53","","","","","","Haze"
"1967-11-21 14:00","1967","11","21","14:00","1.1","","-3.3","","71","","14","","19","","32.2","","99.49","","","","","","Cloudy"
"1967-11-21 15:00","1967","11","21","15:00","1.1","","-3.9","","68","","11","","18","","32.2","","99.42","","","","","","Cloudy"
"1967-11-21 16:00","1967","11","21","16:00","1.1","","-3.9","","68","","9","","18","","32.2","","99.37","","","","","","Mostly Cloudy"
"1967-11-21 17:00","1967","11","21","17:00","0.6","","-3.9","","73","","9","","19","","19.3","","99.31","","","","","","Cloudy"
"1967-11-21 18:00","1967","11","21","18:00","0.6","","-3.3","","75","","9","","16","","24.1","","99.21","","","","","","Cloudy"
"1967-11-21 19:00","1967","11","21","19:00","1.7","","-3.9","","67","","11","","21","","25.0","","99.13","","","","","","Cloudy"
"1967-11-21 20:00","1967","11","21","20:00","1.7","","-3.3","","70","","11","","18","","25.0","","99.07","","","","","","Cloudy"
"1967-11-21 21:00","1967","11","21","21:00","1.7","","-3.9","","67","","11","","14","","25.0","","98.99","","","","","","Cloudy"
"1967-11-21 22:00","1967","11","21","22:00","2.2","","-2.8","","68","","9","","11","","25.0","","98.92","","","","","","Cloudy"
"1967-11-21 23:00","1967","11","21","23:00","1.7","","-2.2","","76","","11","","10","","16.1","","98.85","","","","","","Snow Showers"
"1967-11-22 00:00","1967","11","22","00:00","1.1","","-0.6","","89","","14","","10","","11.3","","98.76","","","","","","Snow Showers"
"1967-11-22 01:00","1967","11","22","01:00","0.6","","0.0","","94","","14","","8","","4.8","","98.65","","","","","","Snow"
"1967-11-22 02:00","1967","11","22","02:00","0.6","","0.0","","97","","9","","6","","2.0","","98.58","","","","","","Snow"
"1967-11-22 03:00","1967","11","22","03:00","0.6","","0.0","","97","","9","","10","","1.2","","98.47","","","","","","Rain,Snow,Fog"
"1967-11-22 04:00","1967","11","22","04:00","1.1","","0.6","","97","","9","","8","","1.2","","98.40","","","","","","Rain,Fog"
"1967-11-22 05:00","1967","11","22","05:00","1.7","","1.7","","100","","11","","8","","1.2","","98.34","","","","","","Rain,Drizzle,Fog"
"1967-11-22 06:00","1967","11","22","06:00","1.7","","1.7","","100","","7","","6","","1.2","","98.32","","","","","","Drizzle,Fog"
"1967-11-22 07:00","1967","11","22","07:00","2.2","","2.2","","100","","9","","10","","0.6","","98.24","","","","","","Drizzle,Fog"
"1967-11-22 08:00","1967","11","22","08:00","2.8","","2.8","","100","","9","","6","","0.2","","98.22","","","","","","Drizzle,Fog"
"1967-11-22 09:00","1967","11","22","09:00","2.2","","2.2","","100","","27","","3","","0.2","","98.21","","","","","","Drizzle,Fog"
"1967-11-22 10:00","1967","11","22","10:00","2.2","","2.2","","100","","23","","6","","0.2","","98.21","","","","","","Fog"
"1967-11-22 11:00","1967","11","22","11:00","3.9","","3.3","","95","","23","","8","","4.0","","98.20","","","","","","Fog"
"1967-11-22 12:00","1967","11","22","12:00","3.9","","2.8","","93","","25","","13","","6.4","","98.11","","","","","","Fog"
"1967-11-22 13:00","1967","11","22","13:00","4.4","","2.8","","90","","23","","14","","6.4","","98.06","","","","","","Fog"
"1967-11-22 14:00","1967","11","22","14:00","3.9","","3.3","","95","","23","","8","","4.8","","98.04","","","","","","Drizzle,Fog"
"1967-11-22 15:00","1967","11","22","15:00","3.3","","2.8","","95","","23","","10","","4.0","","98.00","","","","","","Drizzle,Fog"
"1967-11-22 16:00","1967","11","22","16:00","3.3","","2.2","","92","","23","","10","","4.0","","98.00","","","","","","Fog"
"1967-11-22 17:00","1967","11","22","17:00","2.8","","1.7","","92","","23","","10","","4.0","","97.98","","","","","","Fog"
"1967-11-22 18:00","1967","11","22","18:00","2.8","","2.2","","95","","20","","10","","4.8","","97.98","","","","","","Fog"
"1967-11-22 19:00","1967","11","22","19:00","2.8","","2.2","","95","","20","","5","","4.8","","97.89","","","","","","Rain Showers,Fog"
"1967-11-22 20:00","1967","11","22","20:00","2.8","","2.2","","95","","18","","8","","4.0","","97.85","","","","","","Drizzle,Fog"
"1967-11-22 21:00","1967","11","22","21:00","2.8","","2.2","","97","","18","","6","","2.4","","97.82","","","","","","Rain,Fog"
"1967-11-22 22:00","1967","11","22","22:00","1.7","","1.1","","97","","27","","6","","3.6","","97.77","","","","","","Rain,Fog"
"1967-11-22 23:00","1967","11","22","23:00","1.1","","0.6","","97","","29","","3","","3.6","","97.70","","","","","","Rain,Snow,Fog"
"1967-11-23 00:00","1967","11","23","00:00","0.6","","0.0","","97","","27","","2","","3.6","","97.68","","","","","","Rain,Snow,Fog"
"1967-11-23 01:00","1967","11","23","01:00","0.6","","0.0","","97","","","","0","","1.6","","97.67","","","","","","Snow,Fog"
"1967-11-23 02:00","1967","11","23","02:00","0.0","","0.0","","100","","27","","6","","1.6","","97.66","","","","-2","","Snow,Fog"
"1967-11-23 03:00","1967","11","23","03:00","0.6","","0.0","","97","","29","","6","","4.0","","97.66","","","","","","Snow,Fog"
"1967-11-23 04:00","1967","11","23","04:00","0.6","","0.0","","97","","","","0","","8.0","","97.64","","","","","","Fog"
"1967-11-23 05:00","1967","11","23","05:00","1.1","","0.6","","94","","25","","6","","12.9","","97.69","","","","","","Cloudy"
"1967-11-23 06:00","1967","11","23","06:00","1.1","","0.6","","94","","27","","11","","12.9","","97.78","","","","","","Cloudy"
"1967-11-23 07:00","1967","11","23","07:00","1.1","","-0.6","","89","","29","","18","","24.1","","97.85","","","","","","Mostly Cloudy"
"1967-11-23 08:00","1967","11","23","08:00","1.1","","-1.1","","86","","27","","23","","40.2","","97.92","","","","","","Mostly Cloudy"
"1967-11-23 09:00","1967","11","23","09:00","1.1","","-2.8","","74","","27","","19","","40.2","","98.02","","","","","","Mostly Cloudy"
"1967-11-23 10:00","1967","11","23","10:00","1.1","","-1.7","","83","","27","","23","","40.2","","98.06","","","","","","Mostly Cloudy"
"1967-11-23 11:00","1967","11","23","11:00","2.2","","-0.6","","81","","27","","24","","40.2","","98.10","","","","","","Mainly Clear"
"1967-11-23 12:00","1967","11","23","12:00","2.2","","-1.1","","79","","27","","27","","40.2","","98.06","","","","","","Mostly Cloudy"
"1967-11-23 13:00","1967","11","23","13:00","2.2","","-0.6","","81","","27","","24","","40.2","","98.05","","","","","","Mostly Cloudy"
"1967-11-23 14:00","1967","11","23","14:00","2.2","","-1.7","","76","","27","","26","","40.2","","98.06","","","","","","Mostly Cloudy"
"1967-11-23 15:00","1967","11","23","15:00","1.7","","-1.1","","81","","27","","23","","40.2","","98.11","","","","","","Snow Showers"
"1967-11-23 16:00","1967","11","23","16:00","1.7","","-2.2","","76","","27","","24","","40.2","","98.14","","","","","","Mostly Cloudy"
"1967-11-23 17:00","1967","11","23","17:00","1.1","","-1.7","","82","","25","","19","","32.2","","98.18","","","","","","Mostly Cloudy"
"1967-11-23 18:00","1967","11","23","18:00","1.1","","-1.7","","82","","25","","19","","25.0","","98.23","","","","","","Mostly Cloudy"
"1967-11-23 19:00","1967","11","23","19:00","0.6","","-1.7","","86","","27","","23","","24.1","","98.28","","","","","","Snow Showers"
"1967-11-23 20:00","1967","11","23","20:00","0.6","","-2.2","","81","","27","","14","","25.0","","98.28","","","","","","Mostly Cloudy"
"1967-11-23 21:00","1967","11","23","21:00","0.6","","-2.2","","81","","27","","19","","25.0","","98.29","","","","","","Mostly Cloudy"
"1967-11-23 22:00","1967","11","23","22:00","1.1","","-1.7","","83","","25","","18","","25.0","","98.30","","","","","","Mostly Cloudy"
"1967-11-23 23:00","1967","11","23","23:00","1.1","","-1.1","","86","","27","","16","","25.0","","98.29","","","","","","Cloudy"
"1967-11-24 00:00","1967","11","24","00:00","1.1","","0.6","","94","","27","","23","","25.0","","98.28","","","","","","Cloudy"
"1967-11-24 01:00","1967","11","24","01:00","0.6","","-1.1","","89","","25","","21","","25.0","","98.28","","","","","","Cloudy"
"1967-11-24 02:00","1967","11","24","02:00","0.0","","-3.3","","80","","25","","19","","25.0","","98.31","","","","-5","","Cloudy"
"1967-11-24 03:00","1967","11","24","03:00","0.0","","-2.8","","83","","25","","18","","25.0","","98.31","","","","-5","","Cloudy"
"1967-11-24 04:00","1967","11","24","04:00","-0.6","","-3.3","","82","","27","","18","","25.0","","98.28","","","","-6","","Cloudy"
"1967-11-24 05:00","1967","11","24","05:00","-1.1","","-3.9","","83","","25","","13","","25.0","","98.30","","","","-5","","Mostly Cloudy"
"1967-11-24 06:00","1967","11","24","06:00","-1.7","","-4.4","","83","","23","","13","","25.0","","98.28","","","","-6","","Mostly Cloudy"
"1967-11-24 07:00","1967","11","24","07:00","-1.7","","-3.9","","84","","20","","8","","25.0","","98.27","","","","-5","","Mostly Cloudy"
"1967-11-24 08:00","1967","11","24","08:00","-1.1","","-4.4","","77","","20","","13","","24.1","","98.23","","","","-5","","Mostly Cloudy"
"1967-11-24 09:00","1967","11","24","09:00","-0.6","","-5.6","","70","","27","","8","","16.1","","98.18","","","","-3","","Mostly Cloudy"
"1967-11-24 10:00","1967","11","24","10:00","0.0","","-4.4","","71","","23","","14","","16.1","","98.14","","","","-4","","Mostly Cloudy"
"1967-11-24 11:00","1967","11","24","11:00","1.1","","-3.3","","71","","20","","18","","16.1","","98.14","","","","","","Mostly Cloudy"
"1967-11-24 12:00","1967","11","24","12:00","1.1","","-2.8","","76","","20","","18","","9.7","","98.04","","","","","","Haze"
"1967-11-24 13:00","1967","11","24","13:00","1.7","","-2.8","","72","","18","","19","","9.7","","97.98","","","","","","Haze"
"1967-11-24 14:00","1967","11","24","14:00","2.2","","-2.2","","74","","20","","21","","9.7","","97.92","","","","","","Haze"
"1967-11-24 15:00","1967","11","24","15:00","2.8","","-1.1","","74","","20","","16","","9.7","","97.86","","","","","","Haze"
"1967-11-24 16:00","1967","11","24","16:00","2.8","","-1.7","","72","","20","","23","","9.7","","97.83","","","","","","Haze"
"1967-11-24 17:00","1967","11","24","17:00","2.8","","-1.7","","72","","20","","16","","8.0","","97.81","","","","","","Haze"
"1967-11-24 18:00","1967","11","24","18:00","1.7","","-1.7","","78","","18","","11","","12.9","","97.79","","","","","","Mostly Cloudy"
"1967-11-24 19:00","1967","11","24","19:00","1.1","","-1.7","","82","","18","","11","","11.3","","97.77","","","","","","Mainly Clear"
"1967-11-24 20:00","1967","11","24","20:00","1.1","","-1.7","","83","","18","","10","","12.9","","97.73","","","","","","Clear"
"1967-11-24 21:00","1967","11","24","21:00","0.6","","-1.7","","84","","18","","6","","9.7","","97.77","","","","","","Fog"
"1967-11-24 22:00","1967","11","24","22:00","0.0","","-1.7","","88","","18","","5","","9.7","","97.73","","","","-2","","Fog"
"1967-11-24 23:00","1967","11","24","23:00","0.0","","-2.2","","86","","","","0","","11.3","","97.69","","","","","","Mostly Cloudy"
"1967-11-25 00:00","1967","11","25","00:00","0.0","","-1.7","","88","","","","0","","12.9","","97.68","","","","","","Mainly Clear"
"1967-11-25 01:00","1967","11","25","01:00","0.0","","-2.2","","86","","14","","6","","12.9","","97.68","","","","-2","","Mostly Cloudy"
"1967-11-25 02:00","1967","11","25","02:00","0.0","","-1.1","","91","","14","","8","","11.3","","97.69","","","","-3","","Mainly Clear"
"1967-11-25 03:00","1967","11","25","03:00","0.6","","-1.7","","86","","","","0","","11.3","","97.74","","","","","","Cloudy"
"1967-11-25 04:00","1967","11","25","04:00","0.6","","-1.1","","89","","18","","6","","9.7","","97.75","","","","","","Fog"
"1967-11-25 05:00","1967","11","25","05:00","0.6","","-1.1","","89","","18","","8","","8.0","","97.78","","","","","","Fog"
"1967-11-25 06:00","1967","11","25","06:00","0.0","","-1.1","","91","","23","","13","","8.0","","97.81","","","","-4","","Fog"
"1967-11-25 07:00","1967","11","25","07:00","-0.6","","-1.7","","91","","18","","8","","4.8","","97.86","","","","-3","","Fog"
"1967-11-25 08:00","1967","11","25","08:00","-1.1","","-2.2","","93","","23","","6","","4.8","","97.93","","","","-3","","Fog"
"1967-11-25 09:00","1967","11","25","09:00","1.1","","0.0","","92","","20","","13","","4.8","","97.96","","","","","","Fog"
"1967-11-25 10:00","1967","11","25","10:00","2.8","","0.6","","84","","20","","14","","4.8","","97.99","","","","","","Fog"
"1967-11-25 11:00","1967","11","25","11:00","2.2","","0.6","","89","","25","","14","","4.8","","98.09","","","","","","Fog"
"1967-11-25 12:00","1967","11","25","12:00","2.8","","1.1","","90","","25","","23","","4.8","","98.10","","","","","","Fog"
"1967-11-25 13:00","1967","11","25","13:00","3.3","","1.1","","85","","25","","16","","4.8","","98.13","","","","","","Fog"
"1967-11-25 14:00","1967","11","25","14:00","3.9","","1.1","","83","","25","","16","","4.8","","98.16","","","","","","Haze"
"1967-11-25 15:00","1967","11","25","15:00","3.9","","0.6","","80","","23","","13","","6.4","","98.18","","","","","","Haze"
"1967-11-25 16:00","1967","11","25","16:00","3.9","","0.6","","80","","27","","8","","8.0","","98.26","","","","","","Haze"
"1967-11-25 17:00","1967","11","25","17:00","3.9","","1.7","","85","","","","0","","4.8","","98.32","","","","","","Haze"
"1967-11-25 18:00","1967","11","25","18:00","4.4","","1.7","","83","","18","","6","","8.0","","98.36","","","","","","Haze"
"1967-11-25 19:00","1967","11","25","19:00","5.0","","2.2","","81","","16","","10","","9.7","","98.41","","","","","","Haze"
"1967-11-25 20:00","1967","11","25","20:00","5.6","","2.8","","84","","16","","10","","9.7","","98.45","","","","","","Haze"
"1967-11-25 21:00","1967","11","25","21:00","5.0","","3.3","","88","","16","","13","","8.0","","98.46","","","","","","Fog"
"1967-11-25 22:00","1967","11","25","22:00","3.9","","2.2","","90","","18","","11","","8.0","","98.44","","","","","","Fog"
"1967-11-25 23:00","1967","11","25","23:00","3.3","","1.7","","90","","18","","8","","9.7","","98.42","","","","","","Fog"
"1967-11-26 00:00","1967","11","26","00:00","4.4","","2.8","","88","","18","","10","","9.7","","98.36","","","","","","Fog"
"1967-11-26 01:00","1967","11","26","01:00","5.0","","3.3","","88","","18","","11","","9.7","","98.26","","","","","","Fog"
"1967-11-26 02:00","1967","11","26","02:00","5.6","","2.8","","84","","20","","23","","12.9","","98.19","","","","","","Mostly Cloudy"
"1967-11-26 03:00","1967","11","26","03:00","6.7","","3.3","","80","","20","","24","","16.1","","98.14","","","","","","Rain Showers"
"1967-11-26 04:00","1967","11","26","04:00","7.2","","3.9","","81","","20","","29","","16.1","","98.04","","","","","","Cloudy"
"1967-11-26 05:00","1967","11","26","05:00","7.8","","3.3","","75","","23","","26","","16.1","","98.14","","","","","","Mostly Cloudy"
"1967-11-26 06:00","1967","11","26","06:00","5.6","","1.1","","73","","25","","24","","25.0","","98.26","","","","","","Mainly Clear"
"1967-11-26 07:00","1967","11","26","07:00","5.0","","0.0","","70","","25","","32","","25.0","","98.38","","","","","","Mainly Clear"
"1967-11-26 08:00","1967","11","26","08:00","3.3","","-2.8","","65","","27","","32","","40.2","","98.47","","","","","","Mainly Clear"
"1967-11-26 09:00","1967","11","26","09:00","3.9","","-1.7","","68","","27","","34","","40.2","","98.57","","","","","","Mainly Clear"
"1967-11-26 10:00","1967","11","26","10:00","4.4","","-1.7","","64","","27","","35","","40.2","","98.66","","","","","","Mainly Clear"
"1967-11-26 11:00","1967","11","26","11:00","5.6","","-1.1","","62","","27","","35","","40.2","","98.76","","","","","","Mainly Clear"
"1967-11-26 12:00","1967","11","26","12:00","5.6","","-1.1","","62","","25","","40","","40.2","","98.81","","","","","","Mainly Clear"
"1967-11-26 13:00","1967","11","26","13:00","6.1","","-2.2","","56","","27","","40","","40.2","","98.81","","","","","","Mainly Clear"
"1967-11-26 14:00","1967","11","26","14:00","5.6","","-4.4","","49","","27","","42","","40.2","","98.82","","","","","","Mainly Clear"
"1967-11-26 15:00","1967","11","26","15:00","5.6","","-2.8","","55","","27","","39","","40.2","","98.86","","","","","","Mainly Clear"
"1967-11-26 16:00","1967","11","26","16:00","5.6","","-2.8","","55","","25","","26","","40.2","","98.94","","","","","","Mainly Clear"
"1967-11-26 17:00","1967","11","26","17:00","3.9","","-3.9","","57","","25","","26","","40.2","","98.98","","","","","","Mainly Clear"
"1967-11-26 18:00","1967","11","26","18:00","2.2","","-2.8","","68","","25","","13","","25.0","","99.00","","","","","","Mainly Clear"
"1967-11-26 19:00","1967","11","26","19:00","1.7","","-3.3","","70","","16","","6","","25.0","","99.05","","","","","","Clear"
"1967-11-26 20:00","1967","11","26","20:00","2.2","","0.0","","84","","23","","19","","25.0","","99.03","","","","","","Mostly Cloudy"
"1967-11-26 21:00","1967","11","26","21:00","3.3","","-1.1","","72","","25","","23","","25.0","","99.04","","","","","","Mainly Clear"
"1967-11-26 22:00","1967","11","26","22:00","2.8","","-1.7","","72","","25","","24","","19.3","","99.06","","","","","","Rain Showers"
"1967-11-26 23:00","1967","11","26","23:00","2.2","","0.0","","87","","25","","19","","25.0","","99.06","","","","","","Mainly Clear"
"1967-11-27 00:00","1967","11","27","00:00","1.1","","0.0","","92","","23","","18","","25.0","","99.06","","","","","","Mostly Cloudy"
"1967-11-27 01:00","1967","11","27","01:00","1.7","","-0.6","","84","","23","","16","","25.0","","99.01","","","","","","Mainly Clear"
"1967-11-27 02:00","1967","11","27","02:00","1.1","","-1.7","","83","","23","","16","","25.0","","98.97","","","","","","Mainly Clear"
"1967-11-27 03:00","1967","11","27","03:00","0.6","","-1.7","","84","","27","","32","","9.7","","98.97","","","","","","Snow Showers"
"1967-11-27 04:00","1967","11","27","04:00","0.0","","-3.9","","74","","27","","19","","25.0","","98.95","","","","-5","","Clear"
"1967-11-27 05:00","1967","11","27","05:00","0.0","","-3.3","","77","","27","","19","","25.0","","98.97","","","","-5","","Mainly Clear"
"1967-11-27 06:00","1967","11","27","06:00","-0.6","","-6.7","","65","","25","","23","","25.0","","99.03","","","","-6","","Mainly Clear"
"1967-11-27 07:00","1967","11","27","07:00","-0.6","","-5.6","","70","","27","","13","","25.0","","99.10","","","","-5","","Mostly Cloudy"
"1967-11-27 08:00","1967","11","27","08:00","0.0","","-5.0","","69","","27","","21","","40.2","","99.14","","","","-5","","Mostly Cloudy"
"1967-11-27 09:00","1967","11","27","09:00","-0.6","","-5.6","","70","","25","","29","","12.9","","99.17","","","","-7","","Snow Showers"
"1967-11-27 10:00","1967","11","27","10:00","-1.1","","-5.6","","71","","27","","27","","24.1","","99.19","","","","-8","","Snow Showers"
"1967-11-27 11:00","1967","11","27","11:00","-1.1","","-5.6","","73","","27","","26","","40.2","","99.17","","","","-7","","Snow Showers"
"1967-11-27 12:00","1967","11","27","12:00","-1.1","","-6.1","","70","","27","","26","","40.2","","99.10","","","","-7","","Snow Showers"
"1967-11-27 13:00","1967","11","27","13:00","-2.2","","-4.4","","85","","25","","26","","4.8","","99.08","","","","-9","","Snow Showers"
"1967-11-27 14:00","1967","11","27","14:00","-1.1","","-5.6","","71","","27","","24","","32.2","","99.04","","","","-7","","Mostly Cloudy"
"1967-11-27 15:00","1967","11","27","15:00","-0.6","","-5.6","","70","","27","","32","","40.2","","99.05","","","","-7","","Mostly Cloudy"
"1967-11-27 16:00","1967","11","27","16:00","-1.7","","-6.1","","71","","27","","32","","40.2","","99.09","","","","-9","","Mostly Cloudy"
"1967-11-27 17:00","1967","11","27","17:00","-2.8","","-6.7","","75","","27","","27","","25.0","","99.12","","","","-10","","Mostly Cloudy"
"1967-11-27 18:00","1967","11","27","18:00","-3.3","","-7.2","","75","","27","","23","","25.0","","99.17","","","","-10","","Mainly Clear"
"1967-11-27 19:00","1967","11","27","19:00","-3.3","","-7.8","","73","","27","","29","","25.0","","99.18","","","","-11","","Cloudy"
"1967-11-27 20:00","1967","11","27","20:00","-3.9","","-7.8","","74","","25","","29","","25.0","","99.21","","","","-11","","Mostly Cloudy"
"1967-11-27 21:00","1967","11","27","21:00","-3.9","","-7.8","","74","","27","","24","","25.0","","99.21","","","","-11","","Mostly Cloudy"
"1967-11-27 22:00","1967","11","27","22:00","-3.9","","-8.3","","73","","27","","24","","25.0","","99.21","","","","-11","","Cloudy"
"1967-11-27 23:00","1967","11","27","23:00","-3.9","","-7.8","","74","","27","","24","","25.0","","99.20","","","","-11","","Cloudy"
"1967-11-28 00:00","1967","11","28","00:00","-3.9","","-8.3","","72","","25","","26","","25.0","","99.22","","","","-11","","Cloudy"
"1967-11-28 01:00","1967","11","28","01:00","-3.9","","-7.8","","74","","25","","23","","25.0","","99.21","","","","-11","","Cloudy"
"1967-11-28 02:00","1967","11","28","02:00","-5.0","","-7.8","","81","","27","","19","","24.1","","99.22","","","","-11","","Mostly Cloudy"
"1967-11-28 03:00","1967","11","28","03:00","-5.0","","-8.3","","79","","25","","26","","25.0","","99.21","","","","-12","","Mainly Clear"
"1967-11-28 04:00","1967","11","28","04:00","-5.0","","-8.3","","77","","25","","23","","25.0","","99.21","","","","-12","","Mainly Clear"
"1967-11-28 05:00","1967","11","28","05:00","-5.0","","-7.8","","80","","25","","27","","25.0","","99.20","","","","-13","","Clear"
"1967-11-28 06:00","1967","11","28","06:00","-5.0","","-7.8","","80","","25","","24","","25.0","","99.22","","","","-12","","Mainly Clear"
"1967-11-28 07:00","1967","11","28","07:00","-4.4","","-7.8","","78","","25","","24","","25.0","","99.26","","","","-11","","Mainly Clear"
"1967-11-28 08:00","1967","11","28","08:00","-4.4","","-8.3","","74","","27","","24","","40.2","","99.29","","","","-11","","Mostly Cloudy"
"1967-11-28 09:00","1967","11","28","09:00","-3.9","","-7.8","","75","","27","","23","","40.2","","99.33","","","","-11","","Mainly Clear"
"1967-11-28 10:00","1967","11","28","10:00","-2.8","","-8.3","","65","","27","","37","","40.2","","99.34","","","","-11","","Mainly Clear"
"1967-11-28 11:00","1967","11","28","11:00","-2.2","","-7.2","","70","","27","","40","","40.2","","99.38","","","","-10","","Mainly Clear"
"1967-11-28 12:00","1967","11","28","12:00","-2.2","","-6.7","","71","","27","","40","","32.2","","99.38","","","","-10","","Mainly Clear"
"1967-11-28 13:00","1967","11","28","13:00","-2.2","","-7.2","","68","","27","","34","","19.3","","99.41","","","","-10","","Snow Showers"
"1967-11-28 14:00","1967","11","28","14:00","-2.8","","-8.3","","66","","27","","29","","32.2","","99.43","","","","-10","","Mostly Cloudy"
"1967-11-28 15:00","1967","11","28","15:00","-2.8","","-7.8","","67","","27","","34","","32.2","","99.45","","","","-11","","Mainly Clear"
"1967-11-28 16:00","1967","11","28","16:00","-3.9","","-8.9","","68","","27","","29","","32.2","","99.53","","","","-11","","Mostly Cloudy"
"1967-11-28 17:00","1967","11","28","17:00","-5.0","","-8.9","","75","","25","","29","","25.0","","99.58","","","","-13","","Mostly Cloudy"
"1967-11-28 18:00","1967","11","28","18:00","-5.0","","-8.9","","74","","25","","24","","25.0","","99.63","","","","-12","","Cloudy"
"1967-11-28 19:00","1967","11","28","19:00","-5.0","","-8.3","","76","","27","","24","","8.0","","99.66","","","","-12","","Snow Showers"
"1967-11-28 20:00","1967","11","28","20:00","-5.6","","-8.9","","76","","27","","26","","25.0","","99.67","","","","-13","","Mainly Clear"
"1967-11-28 21:00","1967","11","28","21:00","-6.1","","-8.9","","79","","27","","26","","25.0","","99.69","","","","-14","","Clear"
"1967-11-28 22:00","1967","11","28","22:00","-6.1","","-8.3","","83","","25","","24","","25.0","","99.71","","","","-14","","Mainly Clear"
"1967-11-28 23:00","1967","11","28","23:00","-6.1","","-8.9","","80","","25","","26","","25.0","","99.76","","","","-14","","Clear"
"1967-11-29 00:00","1967","11","29","00:00","-6.1","","-8.9","","80","","27","","27","","25.0","","99.76","","","","-14","","Clear"
"1967-11-29 01:00","1967","11","29","01:00","-6.1","","-8.9","","82","","27","","26","","25.0","","99.80","","","","-14","","Clear"
"1967-11-29 02:00","1967","11","29","02:00","-6.1","","-8.9","","82","","27","","26","","25.0","","99.89","","","","-14","","Clear"
"1967-11-29 03:00","1967","11","29","03:00","-6.1","","-8.9","","82","","27","","27","","25.0","","99.90","","","","-14","","Clear"
"1967-11-29 04:00","1967","11","29","04:00","-5.6","","-8.3","","81","","27","","27","","25.0","","99.94","","","","-13","","Clear"
"1967-11-29 05:00","1967","11","29","05:00","-5.6","","-8.3","","82","","27","","24","","25.0","","99.99","","","","-13","","Clear"
"1967-11-29 06:00","1967","11","29","06:00","-5.6","","-8.3","","81","","27","","24","","25.0","","100.00","","","","-13","","Clear"
"1967-11-29 07:00","1967","11","29","07:00","-5.6","","-8.3","","81","","27","","19","","25.0","","100.07","","","","-12","","Mainly Clear"
"1967-11-29 08:00","1967","11","29","08:00","-6.1","","-8.3","","83","","27","","21","","32.2","","100.15","","","","-13","","Mainly Clear"
"1967-11-29 09:00","1967","11","29","09:00","-4.4","","-7.8","","77","","27","","23","","40.2","","100.18","","","","-11","","Mostly Cloudy"
"1967-11-29 10:00","1967","11","29","10:00","-2.8","","-7.2","","72","","27","","26","","40.2","","100.22","","","","-10","","Mostly Cloudy"
"1967-11-29 11:00","1967","11","29","11:00","-2.2","","-6.7","","71","","27","","24","","40.2","","100.21","","","","-9","","Mostly Cloudy"
"1967-11-29 12:00","1967","11","29","12:00","-1.1","","-6.7","","66","","27","","24","","40.2","","100.16","","","","-7","","Mostly Cloudy"
"1967-11-29 13:00","1967","11","29","13:00","-1.1","","-6.7","","67","","27","","16","","40.2","","100.15","","","","-6","","Mostly Cloudy"
"1967-11-29 14:00","1967","11","29","14:00","-1.1","","-7.2","","64","","27","","19","","40.2","","100.13","","","","-6","","Mostly Cloudy"
"1967-11-29 15:00","1967","11","29","15:00","-2.2","","-7.8","","67","","27","","21","","40.2","","100.14","","","","-8","","Mostly Cloudy"
"1967-11-29 16:00","1967","11","29","16:00","-3.3","","-8.3","","68","","27","","16","","40.2","","100.13","","","","-9","","Mostly Cloudy"
"1967-11-29 17:00","1967","11","29","17:00","-4.4","","-8.3","","74","","27","","8","","24.1","","100.17","","","","-8","","Mostly Cloudy"
"1967-11-29 18:00","1967","11","29","18:00","-5.6","","-8.9","","78","","27","","10","","25.0","","100.23","","","","-10","","Mostly Cloudy"
"1967-11-29 19:00","1967","11","29","19:00","-6.1","","-9.4","","77","","27","","6","","25.0","","100.24","","","","-9","","Mainly Clear"
"1967-11-29 20:00","1967","11","29","20:00","-7.2","","-10.6","","79","","29","","5","","25.0","","100.20","","","","-10","","Mainly Clear"
"1967-11-29 21:00","1967","11","29","21:00","-6.7","","-9.4","","79","","27","","2","","25.0","","100.19","","","","-8","","Mainly Clear"
"1967-11-29 22:00","1967","11","29","22:00","-8.3","","-10.6","","82","","32","","6","","25.0","","100.20","","","","-12","","Mainly Clear"
"1967-11-29 23:00","1967","11","29","23:00","-8.3","","-10.0","","87","","32","","6","","25.0","","100.24","","","","-12","","Mostly Cloudy"
"1967-11-30 00:00","1967","11","30","00:00","-7.2","","-9.4","","84","","","","0","","25.0","","100.19","","","","","","Cloudy"
"1967-11-30 01:00","1967","11","30","01:00","-7.2","","-8.9","","88","","","","0","","25.0","","100.15","","","","","","Cloudy"
"1967-11-30 02:00","1967","11","30","02:00","-6.7","","-8.9","","86","","","","0","","25.0","","100.15","","","","","","Cloudy"
"1967-11-30 03:00","1967","11","30","03:00","-6.1","","-7.8","","87","","2","","8","","25.0","","100.08","","","","-10","","Cloudy"
"1967-11-30 04:00","1967","11","30","04:00","-6.1","","-7.8","","88","","36","","10","","25.0","","100.07","","","","-11","","Cloudy"
"1967-11-30 05:00","1967","11","30","05:00","-5.0","","-7.8","","80","","7","","8","","24.1","","100.02","","","","-9","","Cloudy"
"1967-11-30 06:00","1967","11","30","06:00","-5.0","","-7.8","","81","","7","","8","","19.3","","100.02","","","","-9","","Cloudy"
"1967-11-30 07:00","1967","11","30","07:00","-4.4","","-6.7","","84","","5","","13","","19.3","","99.96","","","","-9","","Cloudy"
"1967-11-30 08:00","1967","11","30","08:00","-4.4","","-6.7","","85","","7","","24","","32.2","","99.92","","","","-11","","Snow Showers"
"1967-11-30 09:00","1967","11","30","09:00","-4.4","","-6.7","","83","","7","","23","","4.8","","99.95","","","","-11","","Snow Showers,Fog"
"1967-11-30 10:00","1967","11","30","10:00","-5.0","","-6.7","","88","","5","","24","","4.0","","99.99","","","","-12","","Snow"
"1967-11-30 11:00","1967","11","30","11:00","-4.4","","-7.2","","79","","7","","18","","9.7","","99.91","","","","-10","","Snow"
"1967-11-30 12:00","1967","11","30","12:00","-3.3","","-7.8","","72","","7","","26","","9.7","","99.85","","","","-10","","Snow"
"1967-11-30 13:00","1967","11","30","13:00","-2.2","","-7.8","","67","","5","","24","","40.2","","99.84","","","","-9","","Mostly Cloudy"
"1967-11-30 14:00","1967","11","30","14:00","-2.2","","-7.8","","67","","7","","19","","40.2","","99.86","","","","-8","","Mostly Cloudy"
"1967-11-30 15:00","1967","11","30","15:00","-1.7","","-7.2","","66","","5","","23","","40.2","","99.93","","","","-8","","Mainly Clear"
"1967-11-30 16:00","1967","11","30","16:00","-2.8","","-7.8","","68","","2","","18","","40.2","","100.00","","","","-8","","Mainly Clear"
"1967-11-30 17:00","1967","11","30","17:00","-4.4","","-9.4","","69","","36","","18","","40.2","","100.12","","","","-10","","Mainly Clear"
"1967-11-30 18:00","1967","11","30","18:00","-4.4","","-9.4","","68","","36","","16","","25.0","","100.22","","","","-10","","Mostly Cloudy"
"1967-11-30 19:00","1967","11","30","19:00","-6.7","","-10.6","","74","","36","","14","","25.0","","100.32","","","","-12","","Mainly Clear"
"1967-11-30 20:00","1967","11","30","20:00","-8.3","","-11.1","","81","","36","","10","","25.0","","100.37","","","","-13","","Clear"
"1967-11-30 21:00","1967","11","30","21:00","-7.8","","-10.6","","80","","34","","14","","25.0","","100.44","","","","-14","","Clear"
"1967-11-30 22:00","1967","11","30","22:00","-8.9","","-11.7","","79","","36","","13","","25.0","","100.50","","","","-15","","Clear"
"1967-11-30 23:00","1967","11","30","23:00","-10.0","","-12.2","","83","","36","","14","","25.0","","100.60","","","","-16","","Clear"
