"Station Name","TORONTO LESTER B. PEARSON INT'L A"
"Province","ONTARIO"
"Latitude","43.68"
"Longitude","-79.63"
"Elevation","173.40"
"Climate Identifier","6158733"
"WMO Identifier","71624"
"TC Identifier","YYZ"
"All times are specified in Local Standard Time (LST). Add 1 hour to adjust for Daylight Saving Time where and when it is observed."

"Legend"
"E","Estimated"
"M","Missing"
"NA","Not Available"

"Date/Time","Year","Month","Day","Time","Temp (°C)","Temp Flag","Dew Point Temp (°C)","Dew Point Temp Flag","Rel Hum (%)","Rel Hum Flag","Wind Dir (10s deg)","Wind Dir Flag","Wind Spd (km/h)","Wind Spd Flag","Visibility (km)","Visibility Flag","Stn Press (kPa)","Stn Press Flag","Hmdx","Hmdx Flag","Wind Chill","Wind Chill Flag","Weather"
"2006-05-01 00:00","2006","05","01","00:00","13.0","","-3.0","","33","","11","","13","","24.1","","100.65","","","","","","Mostly Cloudy"
"2006-05-01 01:00","2006","05","01","01:00","11.8","","-2.5","","37","","10","","9","","24.1","","100.63","","","","","","Mostly Cloudy"
"2006-05-01 02:00","2006","05","01","02:00","12.1","","-2.4","","36","","9","","11","","24.1","","100.61","","","","","","Mostly Cloudy"
"2006-05-01 03:00","2006","05","01","03:00","12.0","","-2.2","","37","","10","","13","","24.1","","100.62","","","","","","Mostly Cloudy"
"2006-05-01 04:00","2006","05","01","04:00","11.4","","-1.3","","41","","10","","9","","24.1","","100.63","","","","","","Mostly Cloudy"
"2006-05-01 05:00","2006","05","01","05:00","10.5","","-0.6","","46","","9","","9","","24.1","","100.64","","","","","","Mostly Cloudy"
"2006-05-01 06:00","2006","05","01","06:00","11.1","","0.5","","48","","8","","6","","24.1","","100.70","","","","","","Mostly Cloudy"
"2006-05-01 07:00","2006","05","01","07:00","11.6","","1.9","","51","","11","","7","","24.1","","100.73","","","","","","Mostly Cloudy"
"2006-05-01 08:00","2006","05","01","08:00","13.1","","2.4","","48","","7","","4","","24.1","","100.77","","","","","","Mostly Cloudy"
"2006-05-01 09:00","2006","05","01","09:00","15.1","","3.0","","44","","11","","9","","24.1","","100.77","","","","","","Mostly Cloudy"
"2006-05-01 10:00","2006","05","01","10:00","16.3","","2.9","","41","","17","","11","","24.1","","100.76","","","","","","Mostly Cloudy"
"2006-05-01 11:00","2006","05","01","11:00","18.0","","3.4","","38","","14","","9","","24.1","","100.72","","","","","","Mostly Cloudy"
"2006-05-01 12:00","2006","05","01","12:00","19.0","","2.2","","33","","15","","13","","24.1","","100.67","","","","","","Mostly Cloudy"
"2006-05-01 13:00","2006","05","01","13:00","20.2","","2.6","","31","","14","","6","","24.1","","100.60","","","","","","Mostly Cloudy"
"2006-05-01 14:00","2006","05","01","14:00","20.8","","1.8","","28","","13","","11","","24.1","","100.53","","","","","","Mostly Cloudy"
"2006-05-01 15:00","2006","05","01","15:00","20.5","","0.4","","26","","13","","17","","24.1","","100.46","","","","","","Mostly Cloudy"
"2006-05-01 16:00","2006","05","01","16:00","20.4","","0.2","","26","","12","","11","","24.1","","100.39","","","","","","Mostly Cloudy"
"2006-05-01 17:00","2006","05","01","17:00","20.7","","-0.8","","24","","11","","24","","24.1","","100.31","","","","","","Mostly Cloudy"
"2006-05-01 18:00","2006","05","01","18:00","20.2","","-3.8","","19","","9","","24","","24.1","","100.29","","","","","","Mostly Cloudy"
"2006-05-01 19:00","2006","05","01","19:00","18.4","","-5.2","","20","","10","","15","","24.1","","100.24","","","","","","Mainly Clear"
"2006-05-01 20:00","2006","05","01","20:00","17.4","","-5.7","","20","","10","","11","","24.1","","100.22","","","","","","Mainly Clear"
"2006-05-01 21:00","2006","05","01","21:00","16.7","","-5.6","","21","","10","","9","","24.1","","100.22","","","","","","Mainly Clear"
"2006-05-01 22:00","2006","05","01","22:00","15.1","","-4.8","","25","","9","","6","","24.1","","100.18","","","","","","Mainly Clear"
"2006-05-01 23:00","2006","05","01","23:00","13.9","","-4.8","","27","","","","0","","24.1","","100.14","","","","","","Mainly Clear"
"2006-05-02 00:00","2006","05","02","00:00","12.7","","-3.3","","33","","3","","6","","24.1","","100.10","","","","","","Mainly Clear"
"2006-05-02 01:00","2006","05","02","01:00","10.1","","-1.1","","46","","36","","4","","24.1","","100.06","","","","","","Mainly Clear"
"2006-05-02 02:00","2006","05","02","02:00","9.0","","-1.3","","48","","1","","6","","24.1","","100.00","","","","","","Clear"
"2006-05-02 03:00","2006","05","02","03:00","7.9","","-0.1","","57","","3","","13","","24.1","","99.96","","","","","","Clear"
"2006-05-02 04:00","2006","05","02","04:00","8.5","","-1.0","","51","","","","0","","24.1","","99.91","","","","","","Clear"
"2006-05-02 05:00","2006","05","02","05:00","7.9","","-0.8","","54","","32","","4","","24.1","","99.87","","","","","","Clear"
"2006-05-02 06:00","2006","05","02","06:00","8.4","","-0.4","","54","","3","","4","","24.1","","99.84","","","","","","Clear"
"2006-05-02 07:00","2006","05","02","07:00","12.2","","2.9","","53","","4","","4","","24.1","","99.85","","","","","","Clear"
"2006-05-02 08:00","2006","05","02","08:00","15.3","","0.1","","35","","9","","20","","24.1","","99.80","","","","","","Clear"
"2006-05-02 09:00","2006","05","02","09:00","16.5","","1.6","","37","","16","","9","","24.1","","99.79","","","","","","Clear"
"2006-05-02 10:00","2006","05","02","10:00","16.4","","2.0","","38","","12","","13","","24.1","","99.75","","","","","","Clear"
"2006-05-02 11:00","2006","05","02","11:00","16.9","","0.4","","33","","10","","22","","24.1","","99.69","","","","","","Clear"
"2006-05-02 12:00","2006","05","02","12:00","17.1","","-1.1","","29","","14","","17","","24.1","","99.65","","","","","","Clear"
"2006-05-02 13:00","2006","05","02","13:00","16.9","","-0.3","","31","","12","","22","","24.1","","99.58","","","","","","Clear"
"2006-05-02 14:00","2006","05","02","14:00","16.4","","1.0","","35","","14","","24","","24.1","","99.51","","","","","","Clear"
"2006-05-02 15:00","2006","05","02","15:00","16.5","","1.2","","36","","14","","22","","24.1","","99.43","","","","","","Clear"
"2006-05-02 16:00","2006","05","02","16:00","17.2","","2.1","","36","","14","","20","","24.1","","99.37","","","","","","Clear"
"2006-05-02 17:00","2006","05","02","17:00","17.0","","2.9","","39","","13","","19","","24.1","","99.36","","","","","","Clear"
"2006-05-02 18:00","2006","05","02","18:00","17.0","","3.3","","40","","14","","15","","24.1","","99.32","","","","","","Clear"
"2006-05-02 19:00","2006","05","02","19:00","16.3","","2.7","","40","","12","","15","","24.1","","99.31","","","","","","Clear"
"2006-05-02 20:00","2006","05","02","20:00","14.7","","2.8","","45","","8","","11","","24.1","","99.30","","","","","","Clear"
"2006-05-02 21:00","2006","05","02","21:00","13.1","","3.0","","50","","7","","6","","24.1","","99.32","","","","","","Clear"
"2006-05-02 22:00","2006","05","02","22:00","12.3","","3.1","","53","","","","0","","24.1","","99.35","","","","","","Clear"
"2006-05-02 23:00","2006","05","02","23:00","11.4","","3.4","","58","","5","","4","","24.1","","99.36","","","","","","Clear"
"2006-05-03 00:00","2006","05","03","00:00","11.1","","3.8","","61","","5","","6","","24.1","","99.32","","","","","","Clear"
"2006-05-03 01:00","2006","05","03","01:00","10.7","","4.1","","64","","35","","9","","24.1","","99.27","","","","","","Clear"
"2006-05-03 02:00","2006","05","03","02:00","8.8","","4.0","","72","","32","","15","","24.1","","99.22","","","","","","Clear"
"2006-05-03 03:00","2006","05","03","03:00","7.7","","3.4","","74","","3","","9","","24.1","","99.23","","","","","","Clear"
"2006-05-03 04:00","2006","05","03","04:00","9.1","","4.1","","71","","6","","7","","24.1","","99.28","","","","","","Clear"
"2006-05-03 05:00","2006","05","03","05:00","8.3","","4.2","","75","","4","","4","","19.3","","99.29","","","","","","Clear"
"2006-05-03 06:00","2006","05","03","06:00","10.3","","5.3","","71","","9","","4","","24.1","","99.34","","","","","","Clear"
"2006-05-03 07:00","2006","05","03","07:00","11.9","","5.6","","65","","11","","4","","24.1","","99.40","","","","","","Clear"
"2006-05-03 08:00","2006","05","03","08:00","13.5","","6.1","","61","","13","","7","","24.1","","99.44","","","","","","Clear"
"2006-05-03 09:00","2006","05","03","09:00","15.3","","8.2","","63","","23","","4","","24.1","","99.45","","","","","","Mainly Clear"
"2006-05-03 10:00","2006","05","03","10:00","18.2","","9.8","","58","","","","0","","24.1","","99.41","","","","","","Clear"
"2006-05-03 11:00","2006","05","03","11:00","21.7","","10.6","","49","","20","","4","","24.1","","99.36","","","","","","Clear"
"2006-05-03 12:00","2006","05","03","12:00","20.3","","10.6","","54","","14","","13","","24.1","","99.30","","","","","","Clear"
"2006-05-03 13:00","2006","05","03","13:00","20.6","","10.4","","52","","15","","15","","24.1","","99.23","","","","","","Clear"
"2006-05-03 14:00","2006","05","03","14:00","22.5","","10.8","","48","","14","","13","","24.1","","99.21","","","","","","Clear"
"2006-05-03 15:00","2006","05","03","15:00","21.8","","8.9","","44","","15","","15","","24.1","","99.18","","","","","","Clear"
"2006-05-03 16:00","2006","05","03","16:00","22.3","","7.8","","39","","18","","11","","24.1","","99.17","","","","","","Clear"
"2006-05-03 17:00","2006","05","03","17:00","24.6","","2.9","","24","","31","","24","","24.1","","99.15","","","","","","Clear"
"2006-05-03 18:00","2006","05","03","18:00","23.6","","2.7","","25","","31","","26","","24.1","","99.14","","","","","","Clear"
"2006-05-03 19:00","2006","05","03","19:00","21.9","","2.9","","29","","31","","19","","24.1","","99.15","","","","","","Clear"
"2006-05-03 20:00","2006","05","03","20:00","19.5","","2.4","","32","","32","","19","","24.1","","99.20","","","","","","Clear"
"2006-05-03 21:00","2006","05","03","21:00","17.7","","2.0","","35","","33","","13","","24.1","","99.19","","","","","","Clear"
"2006-05-03 22:00","2006","05","03","22:00","18.0","","1.5","","33","","30","","7","","24.1","","99.18","","","","","","Clear"
"2006-05-03 23:00","2006","05","03","23:00","16.1","","2.3","","39","","27","","4","","24.1","","99.15","","","","","","Clear"
"2006-05-04 00:00","2006","05","04","00:00","12.9","","5.6","","61","","18","","7","","24.1","","99.17","","","","","","Clear"
"2006-05-04 01:00","2006","05","04","01:00","12.1","","5.9","","66","","16","","4","","24.1","","99.18","","","","","","Clear"
"2006-05-04 02:00","2006","05","04","02:00","11.3","","6.3","","71","","16","","9","","24.1","","99.13","","","","","","Clear"
"2006-05-04 03:00","2006","05","04","03:00","10.7","","6.5","","75","","15","","7","","24.1","","99.12","","","","","","Mostly Cloudy"
"2006-05-04 04:00","2006","05","04","04:00","11.7","","7.1","","73","","15","","6","","24.1","","99.07","","","","","","Cloudy"
"2006-05-04 05:00","2006","05","04","05:00","12.5","","7.5","","72","","19","","4","","19.3","","99.05","","","","","","Cloudy"
"2006-05-04 06:00","2006","05","04","06:00","13.2","","8.0","","71","","18","","6","","19.3","","99.06","","","","","","Mostly Cloudy"
"2006-05-04 07:00","2006","05","04","07:00","16.3","","10.0","","66","","21","","4","","19.3","","99.04","","","","","","Mostly Cloudy"
"2006-05-04 08:00","2006","05","04","08:00","17.5","","11.6","","68","","20","","11","","24.1","","99.00","","","","","","Mostly Cloudy"
"2006-05-04 09:00","2006","05","04","09:00","18.4","","11.8","","65","","24","","11","","24.1","","98.92","","","","","","Mostly Cloudy"
"2006-05-04 10:00","2006","05","04","10:00","20.9","","14.0","","65","","23","","19","","24.1","","98.87","","","","","","Mostly Cloudy"
"2006-05-04 11:00","2006","05","04","11:00","21.0","","13.1","","61","","24","","30","","24.1","","98.84","","","","","","Cloudy"
"2006-05-04 12:00","2006","05","04","12:00","20.0","","12.9","","64","","25","","35","","24.1","","98.84","","","","","","Cloudy"
"2006-05-04 13:00","2006","05","04","13:00","20.8","","13.5","","63","","25","","32","","19.3","","98.77","","","","","","Cloudy"
"2006-05-04 14:00","2006","05","04","14:00","22.3","","13.9","","59","","28","","24","","19.3","","98.69","","26","","","","Mostly Cloudy"
"2006-05-04 15:00","2006","05","04","15:00","23.0","","11.3","","48","","26","","28","","24.1","","98.66","","25","","","","Mainly Clear"
"2006-05-04 16:00","2006","05","04","16:00","22.8","","5.4","","32","","28","","33","","24.1","","98.65","","","","","","Mainly Clear"
"2006-05-04 17:00","2006","05","04","17:00","22.0","","5.2","","33","","30","","37","","24.1","","98.69","","","","","","Mainly Clear"
"2006-05-04 18:00","2006","05","04","18:00","19.9","","5.2","","38","","32","","30","","24.1","","98.75","","","","","","Mainly Clear"
"2006-05-04 19:00","2006","05","04","19:00","18.2","","3.4","","37","","32","","30","","24.1","","98.80","","","","","","Mainly Clear"
"2006-05-04 20:00","2006","05","04","20:00","16.4","","3.8","","43","","32","","20","","24.1","","98.86","","","","","","Mainly Clear"
"2006-05-04 21:00","2006","05","04","21:00","13.6","","4.3","","53","","1","","28","","24.1","","98.98","","","","","","Mainly Clear"
"2006-05-04 22:00","2006","05","04","22:00","12.5","","4.0","","56","","34","","24","","24.1","","98.99","","","","","","Mainly Clear"
"2006-05-04 23:00","2006","05","04","23:00","11.9","","4.0","","58","","32","","28","","24.1","","98.97","","","","","","Clear"
"2006-05-05 00:00","2006","05","05","00:00","11.5","","3.7","","59","","32","","19","","24.1","","98.96","","","","","","Clear"
"2006-05-05 01:00","2006","05","05","01:00","10.9","","4.0","","62","","31","","22","","24.1","","98.99","","","","","","Clear"
"2006-05-05 02:00","2006","05","05","02:00","9.7","","4.1","","68","","31","","17","","24.1","","99.02","","","","","","Clear"
"2006-05-05 03:00","2006","05","05","03:00","9.0","","4.0","","71","","32","","17","","24.1","","99.06","","","","","","Clear"
"2006-05-05 04:00","2006","05","05","04:00","7.7","","3.3","","74","","28","","11","","24.1","","99.09","","","","","","Clear"
"2006-05-05 05:00","2006","05","05","05:00","6.2","","2.4","","77","","28","","11","","24.1","","99.12","","","","","","Mainly Clear"
"2006-05-05 06:00","2006","05","05","06:00","8.0","","2.5","","68","","31","","19","","24.1","","99.13","","","","","","Mainly Clear"
"2006-05-05 07:00","2006","05","05","07:00","9.3","","2.4","","62","","33","","19","","24.1","","99.16","","","","","","Mainly Clear"
"2006-05-05 08:00","2006","05","05","08:00","10.2","","2.4","","58","","34","","13","","24.1","","99.16","","","","","","Clear"
"2006-05-05 09:00","2006","05","05","09:00","12.2","","3.5","","55","","34","","6","","24.1","","99.14","","","","","","Clear"
"2006-05-05 10:00","2006","05","05","10:00","14.0","","5.4","","56","","32","","6","","24.1","","99.12","","","","","","Mainly Clear"
"2006-05-05 11:00","2006","05","05","11:00","14.9","","5.7","","54","","28","","9","","24.1","","99.12","","","","","","Mostly Cloudy"
"2006-05-05 12:00","2006","05","05","12:00","15.4","","6.1","","54","","31","","24","","24.1","","99.09","","","","","","Cloudy"
"2006-05-05 13:00","2006","05","05","13:00","16.2","","6.2","","51","","29","","20","","24.1","","99.08","","","","","","Mostly Cloudy"
"2006-05-05 14:00","2006","05","05","14:00","15.6","","5.8","","52","","33","","20","","24.1","","99.08","","","","","","Mostly Cloudy"
"2006-05-05 15:00","2006","05","05","15:00","16.9","","7.1","","52","","27","","22","","24.1","","99.04","","","","","","Mostly Cloudy"
"2006-05-05 16:00","2006","05","05","16:00","15.6","","5.9","","52","","30","","20","","24.1","","98.98","","","","","","Mostly Cloudy"
"2006-05-05 17:00","2006","05","05","17:00","16.0","","5.8","","51","","34","","15","","24.1","","98.96","","","","","","Mostly Cloudy"
"2006-05-05 18:00","2006","05","05","18:00","15.4","","4.5","","48","","33","","17","","24.1","","98.95","","","","","","Cloudy"
"2006-05-05 19:00","2006","05","05","19:00","14.4","","4.0","","50","","1","","26","","24.1","","98.99","","","","","","Cloudy"
"2006-05-05 20:00","2006","05","05","20:00","11.7","","3.0","","55","","1","","17","","24.1","","99.04","","","","","","Cloudy"
"2006-05-05 21:00","2006","05","05","21:00","10.4","","2.0","","56","","2","","22","","24.1","","99.06","","","","","","Mostly Cloudy"
"2006-05-05 22:00","2006","05","05","22:00","10.0","","1.6","","56","","36","","20","","24.1","","99.04","","","","","","Cloudy"
"2006-05-05 23:00","2006","05","05","23:00","9.6","","1.1","","55","","36","","22","","24.1","","99.02","","","","","","Cloudy"
"2006-05-06 00:00","2006","05","06","00:00","7.9","","3.5","","74","","36","","24","","24.1","","99.00","","","","","","Rain Showers"
"2006-05-06 01:00","2006","05","06","01:00","7.6","","3.9","","77","","36","","22","","24.1","","99.01","","","","","","Cloudy"
"2006-05-06 02:00","2006","05","06","02:00","6.9","","4.6","","85","","35","","37","","19.3","","99.00","","","","","","Rain"
"2006-05-06 03:00","2006","05","06","03:00","5.9","","3.5","","85","","33","","33","","19.3","","99.05","","","","","","Rain"
"2006-05-06 04:00","2006","05","06","04:00","5.5","","2.9","","83","","36","","22","","24.1","","99.00","","","","","","Rain"
"2006-05-06 05:00","2006","05","06","05:00","5.1","","2.5","","83","","32","","28","","24.1","","99.12","","","","","","Rain"
"2006-05-06 06:00","2006","05","06","06:00","4.7","","2.6","","86","","28","","17","","24.1","","99.16","","","","","","Mostly Cloudy"
"2006-05-06 07:00","2006","05","06","07:00","4.5","","1.1","","79","","32","","26","","24.1","","99.23","","","","","","Mostly Cloudy"
"2006-05-06 08:00","2006","05","06","08:00","5.8","","1.2","","72","","33","","32","","24.1","","99.28","","","","","","Mostly Cloudy"
"2006-05-06 09:00","2006","05","06","09:00","6.3","","1.2","","70","","34","","35","","24.1","","99.34","","","","","","Mostly Cloudy"
"2006-05-06 10:00","2006","05","06","10:00","8.3","","2.2","","65","","33","","30","","24.1","","99.35","","","","","","Mostly Cloudy"
"2006-05-06 11:00","2006","05","06","11:00","8.6","","0.6","","57","","31","","30","","24.1","","99.42","","","","","","Mostly Cloudy"
"2006-05-06 12:00","2006","05","06","12:00","10.0","","0.9","","53","","31","","33","","24.1","","99.49","","","","","","Mostly Cloudy"
"2006-05-06 13:00","2006","05","06","13:00","10.5","","0.2","","49","","32","","28","","24.1","","99.50","","","","","","Mainly Clear"
"2006-05-06 14:00","2006","05","06","14:00","11.7","","-0.1","","44","","32","","33","","24.1","","99.51","","","","","","Clear"
"2006-05-06 15:00","2006","05","06","15:00","11.4","","-3.0","","36","","36","","20","","24.1","","99.50","","","","","","Clear"
"2006-05-06 16:00","2006","05","06","16:00","11.8","","-0.8","","42","","3","","22","","24.1","","99.50","","","","","","Clear"
"2006-05-06 17:00","2006","05","06","17:00","10.6","","-3.8","","36","","2","","20","","24.1","","99.53","","","","","","Clear"
"2006-05-06 18:00","2006","05","06","18:00","9.8","","-3.2","","40","","1","","19","","24.1","","99.56","","","","","","Clear"
"2006-05-06 19:00","2006","05","06","19:00","8.2","","-4.0","","42","","36","","20","","24.1","","99.65","","","","","","Clear"
"2006-05-06 20:00","2006","05","06","20:00","6.7","","-4.5","","45","","36","","15","","24.1","","99.72","","","","","","Clear"
"2006-05-06 21:00","2006","05","06","21:00","5.4","","-5.6","","45","","35","","11","","24.1","","99.80","","","","","","Clear"
"2006-05-06 22:00","2006","05","06","22:00","4.9","","-4.6","","50","","32","","9","","24.1","","99.84","","","","","","Clear"
"2006-05-06 23:00","2006","05","06","23:00","4.4","","-3.8","","55","","30","","7","","24.1","","99.85","","","","","","Clear"
"2006-05-07 00:00","2006","05","07","00:00","3.4","","-3.2","","62","","31","","7","","24.1","","99.88","","","","","","Clear"
"2006-05-07 01:00","2006","05","07","01:00","3.9","","-2.9","","61","","33","","7","","24.1","","99.89","","","","","","Clear"
"2006-05-07 02:00","2006","05","07","02:00","2.4","","-2.3","","71","","4","","9","","24.1","","99.84","","","","","","Clear"
"2006-05-07 03:00","2006","05","07","03:00","3.4","","-3.7","","60","","","","0","","24.1","","99.87","","","","","","Clear"
"2006-05-07 04:00","2006","05","07","04:00","2.3","","-2.9","","68","","24","","6","","24.1","","99.87","","","","","","Clear"
"2006-05-07 05:00","2006","05","07","05:00","1.2","","-4.0","","68","","28","","9","","24.1","","99.92","","","","","","Clear"
"2006-05-07 06:00","2006","05","07","06:00","2.7","","-2.4","","69","","","","0","","24.1","","99.93","","","","","","Mainly Clear"
"2006-05-07 07:00","2006","05","07","07:00","6.1","","-0.3","","63","","","","0","","24.1","","99.98","","","","","","Clear"
"2006-05-07 08:00","2006","05","07","08:00","7.5","","-2.3","","50","","16","","15","","24.1","","100.00","","","","","","Mostly Cloudy"
"2006-05-07 09:00","2006","05","07","09:00","8.2","","-1.1","","52","","18","","11","","24.1","","99.99","","","","","","Mainly Clear"
"2006-05-07 10:00","2006","05","07","10:00","10.2","","-1.5","","44","","20","","9","","24.1","","99.98","","","","","","Mostly Cloudy"
"2006-05-07 11:00","2006","05","07","11:00","10.3","","-1.9","","42","","14","","13","","24.1","","99.95","","","","","","Mostly Cloudy"
"2006-05-07 12:00","2006","05","07","12:00","10.8","","-0.9","","44","","15","","11","","24.1","","99.89","","","","","","Mostly Cloudy"
"2006-05-07 13:00","2006","05","07","13:00","12.6","","2.5","","50","","15","","17","","24.1","","99.81","","","","","","Mostly Cloudy"
"2006-05-07 14:00","2006","05","07","14:00","12.4","","1.4","","47","","15","","19","","24.1","","99.76","","","","","","Mostly Cloudy"
"2006-05-07 15:00","2006","05","07","15:00","12.5","","0.9","","45","","14","","20","","24.1","","99.70","","","","","","Mainly Clear"
"2006-05-07 16:00","2006","05","07","16:00","12.4","","2.1","","49","","16","","19","","24.1","","99.67","","","","","","Clear"
"2006-05-07 17:00","2006","05","07","17:00","11.4","","1.1","","49","","14","","22","","24.1","","99.66","","","","","","Mainly Clear"
"2006-05-07 18:00","2006","05","07","18:00","10.3","","0.5","","51","","14","","19","","24.1","","99.66","","","","","","Clear"
"2006-05-07 19:00","2006","05","07","19:00","9.7","","1.2","","55","","14","","11","","24.1","","99.68","","","","","","Mainly Clear"
"2006-05-07 20:00","2006","05","07","20:00","9.4","","0.7","","55","","10","","7","","24.1","","99.72","","","","","","Clear"
"2006-05-07 21:00","2006","05","07","21:00","8.5","","0.8","","58","","13","","7","","24.1","","99.76","","","","","","Clear"
"2006-05-07 22:00","2006","05","07","22:00","8.5","","1.2","","60","","9","","4","","24.1","","99.79","","","","","","Clear"
"2006-05-07 23:00","2006","05","07","23:00","7.8","","0.9","","62","","7","","4","","24.1","","99.77","","","","","","Clear"
"2006-05-08 00:00","2006","05","08","00:00","6.8","","1.3","","68","","3","","9","","24.1","","99.76","","","","","","Clear"
"2006-05-08 01:00","2006","05","08","01:00","6.6","","1.4","","69","","2","","9","","24.1","","99.74","","","","","","Clear"
"2006-05-08 02:00","2006","05","08","02:00","7.0","","1.6","","68","","34","","4","","24.1","","99.72","","","","","","Clear"
"2006-05-08 03:00","2006","05","08","03:00","5.6","","1.5","","75","","2","","4","","24.1","","99.72","","","","","","Clear"
"2006-05-08 04:00","2006","05","08","04:00","4.6","","1.5","","80","","","","0","","24.1","","99.72","","","","","","Mainly Clear"
"2006-05-08 05:00","2006","05","08","05:00","5.4","","1.5","","76","","","","0","","24.1","","99.79","","","","","","Clear"
"2006-05-08 06:00","2006","05","08","06:00","5.9","","2.6","","79","","30","","6","","19.3","","99.85","","","","","","Clear"
"2006-05-08 07:00","2006","05","08","07:00","9.2","","3.8","","69","","16","","7","","19.3","","99.87","","","","","","Clear"
"2006-05-08 08:00","2006","05","08","08:00","11.6","","6.8","","72","","30","","4","","24.1","","99.87","","","","","","Clear"
"2006-05-08 09:00","2006","05","08","09:00","15.3","","4.6","","49","","16","","9","","24.1","","99.85","","","","","","Clear"
"2006-05-08 10:00","2006","05","08","10:00","16.8","","5.6","","48","","14","","11","","24.1","","99.83","","","","","","Clear"
"2006-05-08 11:00","2006","05","08","11:00","18.3","","6.2","","45","","13","","7","","24.1","","99.81","","","","","","Clear"
"2006-05-08 12:00","2006","05","08","12:00","19.8","","4.6","","37","","17","","9","","24.1","","99.76","","","","","","Clear"
"2006-05-08 13:00","2006","05","08","13:00","19.4","","3.2","","34","","16","","17","","24.1","","99.73","","","","","","Clear"
"2006-05-08 14:00","2006","05","08","14:00","20.6","","1.8","","29","","17","","15","","24.1","","99.71","","","","","","Clear"
"2006-05-08 15:00","2006","05","08","15:00","20.9","","1.4","","27","","20","","11","","24.1","","99.67","","","","","","Clear"
"2006-05-08 16:00","2006","05","08","16:00","21.3","","3.4","","31","","18","","11","","24.1","","99.64","","","","","","Clear"
"2006-05-08 17:00","2006","05","08","17:00","21.2","","2.9","","30","","18","","9","","24.1","","99.59","","","","","","Clear"
"2006-05-08 18:00","2006","05","08","18:00","19.7","","2.3","","31","","16","","13","","24.1","","99.58","","","","","","Clear"
"2006-05-08 19:00","2006","05","08","19:00","14.8","","2.0","","42","","16","","11","","24.1","","99.59","","","","","","Clear"
"2006-05-08 20:00","2006","05","08","20:00","13.8","","0.5","","40","","16","","9","","24.1","","99.61","","","","","","Mainly Clear"
"2006-05-08 21:00","2006","05","08","21:00","13.9","","-1.1","","36","","17","","4","","24.1","","99.66","","","","","","Mainly Clear"
"2006-05-08 22:00","2006","05","08","22:00","13.0","","-0.4","","40","","","","0","","24.1","","99.68","","","","","","Clear"
"2006-05-08 23:00","2006","05","08","23:00","11.7","","0.9","","47","","31","","7","","24.1","","99.66","","","","","","Clear"
"2006-05-09 00:00","2006","05","09","00:00","11.7","","0.3","","45","","33","","7","","24.1","","99.63","","","","","","Clear"
"2006-05-09 01:00","2006","05","09","01:00","10.0","","1.7","","56","","2","","4","","24.1","","99.62","","","","","","Clear"
"2006-05-09 02:00","2006","05","09","02:00","9.6","","1.8","","58","","31","","9","","24.1","","99.60","","","","","","Clear"
"2006-05-09 03:00","2006","05","09","03:00","9.0","","2.0","","61","","32","","9","","24.1","","99.62","","","","","","Clear"
"2006-05-09 04:00","2006","05","09","04:00","9.9","","2.0","","58","","18","","6","","24.1","","99.63","","","","","","Clear"
"2006-05-09 05:00","2006","05","09","05:00","8.9","","1.8","","61","","24","","6","","24.1","","99.63","","","","","","Mainly Clear"
"2006-05-09 06:00","2006","05","09","06:00","11.4","","3.4","","58","","","","0","","19.3","","99.68","","","","","","Mainly Clear"
"2006-05-09 07:00","2006","05","09","07:00","13.1","","4.8","","57","","21","","7","","19.3","","99.76","","","","","","Mainly Clear"
"2006-05-09 08:00","2006","05","09","08:00","15.3","","6.6","","56","","25","","15","","24.1","","99.79","","","","","","Mainly Clear"
"2006-05-09 09:00","2006","05","09","09:00","17.6","","5.7","","46","","23","","9","","24.1","","99.76","","","","","","Clear"
"2006-05-09 10:00","2006","05","09","10:00","19.2","","6.2","","43","","16","","15","","24.1","","99.68","","","","","","Clear"
"2006-05-09 11:00","2006","05","09","11:00","18.6","","7.0","","47","","15","","13","","24.1","","99.66","","","","","","Clear"
"2006-05-09 12:00","2006","05","09","12:00","19.5","","5.8","","41","","15","","11","","24.1","","99.62","","","","","","Clear"
"2006-05-09 13:00","2006","05","09","13:00","20.4","","5.8","","38","","15","","13","","24.1","","99.56","","","","","","Clear"
"2006-05-09 14:00","2006","05","09","14:00","20.6","","4.2","","34","","14","","17","","24.1","","99.48","","","","","","Clear"
"2006-05-09 15:00","2006","05","09","15:00","20.9","","2.6","","30","","16","","11","","24.1","","99.39","","","","","","Clear"
"2006-05-09 16:00","2006","05","09","16:00","21.4","","3.0","","30","","16","","11","","24.1","","99.34","","","","","","Clear"
"2006-05-09 17:00","2006","05","09","17:00","21.3","","2.9","","30","","13","","9","","24.1","","99.31","","","","","","Clear"
"2006-05-09 18:00","2006","05","09","18:00","20.5","","2.9","","31","","13","","7","","24.1","","99.25","","","","","","Mainly Clear"
"2006-05-09 19:00","2006","05","09","19:00","18.7","","2.8","","35","","14","","11","","24.1","","99.26","","","","","","Mainly Clear"
"2006-05-09 20:00","2006","05","09","20:00","17.1","","2.4","","37","","14","","9","","24.1","","99.29","","","","","","Mainly Clear"
"2006-05-09 21:00","2006","05","09","21:00","16.5","","2.4","","39","","16","","6","","24.1","","99.31","","","","","","Mainly Clear"
"2006-05-09 22:00","2006","05","09","22:00","15.7","","2.2","","40","","16","","6","","24.1","","99.32","","","","","","Mainly Clear"
"2006-05-09 23:00","2006","05","09","23:00","14.9","","2.3","","43","","16","","4","","24.1","","99.27","","","","","","Mostly Cloudy"
"2006-05-10 00:00","2006","05","10","00:00","13.5","","2.9","","49","","","","0","","24.1","","99.23","","","","","","Mostly Cloudy"
"2006-05-10 01:00","2006","05","10","01:00","12.8","","3.6","","53","","2","","9","","24.1","","99.21","","","","","","Mostly Cloudy"
"2006-05-10 02:00","2006","05","10","02:00","11.8","","4.2","","60","","2","","7","","24.1","","99.17","","","","","","Mostly Cloudy"
"2006-05-10 03:00","2006","05","10","03:00","10.7","","3.9","","63","","3","","9","","24.1","","99.12","","","","","","Mainly Clear"
"2006-05-10 04:00","2006","05","10","04:00","12.3","","3.4","","55","","8","","9","","24.1","","99.08","","","","","","Clear"
"2006-05-10 05:00","2006","05","10","05:00","12.5","","3.0","","52","","9","","9","","24.1","","99.10","","","","","","Clear"
"2006-05-10 06:00","2006","05","10","06:00","12.5","","3.7","","55","","27","","4","","24.1","","99.15","","","","","","Clear"
"2006-05-10 07:00","2006","05","10","07:00","14.6","","4.7","","51","","7","","4","","24.1","","99.12","","","","","","Mainly Clear"
"2006-05-10 08:00","2006","05","10","08:00","17.1","","6.4","","49","","13","","9","","24.1","","99.09","","","","","","Mostly Cloudy"
"2006-05-10 09:00","2006","05","10","09:00","17.5","","6.7","","49","","16","","13","","24.1","","99.11","","","","","","Mostly Cloudy"
"2006-05-10 10:00","2006","05","10","10:00","17.8","","7.0","","49","","12","","9","","24.1","","99.11","","","","","","Mostly Cloudy"
"2006-05-10 11:00","2006","05","10","11:00","19.2","","7.5","","47","","15","","15","","24.1","","99.09","","","","","","Clear"
"2006-05-10 12:00","2006","05","10","12:00","20.3","","8.5","","47","","13","","15","","24.1","","99.01","","","","","","Mainly Clear"
"2006-05-10 13:00","2006","05","10","13:00","22.2","","9.2","","43","","14","","11","","24.1","","98.94","","","","","","Mostly Cloudy"
"2006-05-10 14:00","2006","05","10","14:00","23.1","","7.2","","36","","13","","17","","24.1","","98.89","","","","","","Mainly Clear"
"2006-05-10 15:00","2006","05","10","15:00","23.4","","6.5","","34","","15","","17","","24.1","","98.83","","","","","","Mostly Cloudy"
"2006-05-10 16:00","2006","05","10","16:00","23.1","","6.6","","34","","10","","20","","24.1","","98.78","","","","","","Mostly Cloudy"
"2006-05-10 17:00","2006","05","10","17:00","21.3","","4.1","","32","","11","","20","","24.1","","98.70","","","","","","Mostly Cloudy"
"2006-05-10 18:00","2006","05","10","18:00","20.2","","4.4","","35","","10","","26","","24.1","","98.69","","","","","","Mostly Cloudy"
"2006-05-10 19:00","2006","05","10","19:00","19.0","","4.9","","39","","9","","20","","24.1","","98.69","","","","","","Mostly Cloudy"
"2006-05-10 20:00","2006","05","10","20:00","17.6","","3.7","","40","","10","","20","","24.1","","98.68","","","","","","Mostly Cloudy"
"2006-05-10 21:00","2006","05","10","21:00","17.0","","3.8","","41","","8","","11","","24.1","","98.63","","","","","","Mostly Cloudy"
"2006-05-10 22:00","2006","05","10","22:00","17.0","","4.2","","43","","10","","24","","24.1","","98.55","","","","","","Mostly Cloudy"
"2006-05-10 23:00","2006","05","10","23:00","16.4","","4.4","","45","","9","","20","","24.1","","98.52","","","","","","Mostly Cloudy"
"2006-05-11 00:00","2006","05","11","00:00","16.8","","5.3","","47","","9","","30","","24.1","","98.43","","","","","","Mostly Cloudy"
"2006-05-11 01:00","2006","05","11","01:00","17.2","","8.9","","58","","10","","30","","24.1","","98.36","","","","","","Mostly Cloudy"
"2006-05-11 02:00","2006","05","11","02:00","16.0","","10.3","","69","","9","","22","","24.1","","98.24","","","","","","Cloudy"
"2006-05-11 03:00","2006","05","11","03:00","15.3","","9.6","","69","","9","","22","","24.1","","98.15","","","","","","Cloudy"
"2006-05-11 04:00","2006","05","11","04:00","15.3","","9.0","","66","","11","","19","","24.1","","98.07","","","","","","Cloudy"
"2006-05-11 05:00","2006","05","11","05:00","15.5","","8.9","","65","","13","","20","","24.1","","98.15","","","","","","Rain Showers"
"2006-05-11 06:00","2006","05","11","06:00","12.5","","10.7","","89","","11","","11","","4.0","","98.14","","","","","","Moderate Rain,Fog"
"2006-05-11 07:00","2006","05","11","07:00","13.2","","11.4","","89","","10","","20","","19.3","","98.01","","","","","","Cloudy"
"2006-05-11 08:00","2006","05","11","08:00","13.9","","12.2","","89","","10","","33","","8.0","","97.94","","","","","","Rain"
"2006-05-11 09:00","2006","05","11","09:00","14.0","","11.7","","86","","10","","30","","19.3","","97.89","","","","","","Cloudy"
"2006-05-11 10:00","2006","05","11","10:00","14.0","","11.3","","84","","9","","41","","19.3","","97.84","","","","","","Cloudy"
"2006-05-11 11:00","2006","05","11","11:00","15.7","","11.6","","77","","10","","39","","24.1","","97.74","","","","","","Mostly Cloudy"
"2006-05-11 12:00","2006","05","11","12:00","15.4","","11.0","","75","","9","","37","","19.3","","97.67","","","","","","Cloudy"
"2006-05-11 13:00","2006","05","11","13:00","14.0","","11.6","","85","","15","","30","","8.0","","97.84","","","","","","Rain Showers"
"2006-05-11 14:00","2006","05","11","14:00","11.9","","11.3","","96","","11","","17","","6.4","","97.85","","","","","","Rain"
"2006-05-11 15:00","2006","05","11","15:00","12.6","","12.1","","97","","10","","11","","4.0","","97.85","","","","","","Rain,Fog"
"2006-05-11 16:00","2006","05","11","16:00","13.4","","12.8","","96","","11","","17","","6.4","","97.83","","","","","","Fog"
"2006-05-11 17:00","2006","05","11","17:00","13.7","","12.9","","95","","10","","15","","14.5","","97.85","","","","","","Rain"
"2006-05-11 18:00","2006","05","11","18:00","13.8","","13.7","","99","","12","","17","","12.9","","97.85","","","","","","Rain"
"2006-05-11 19:00","2006","05","11","19:00","13.5","","13.4","","99","","11","","15","","4.8","","97.90","","","","","","Rain,Fog"
"2006-05-11 20:00","2006","05","11","20:00","13.3","","13.2","","99","","11","","15","","11.3","","97.92","","","","","","Rain"
"2006-05-11 21:00","2006","05","11","21:00","12.3","","12.2","","99","","14","","11","","9.7","","97.95","","","","","","Rain"
"2006-05-11 22:00","2006","05","11","22:00","12.2","","12.1","","99","","14","","13","","4.0","","98.00","","","","","","Rain,Fog"
"2006-05-11 23:00","2006","05","11","23:00","12.0","","11.7","","98","","16","","17","","12.9","","97.90","","","","","","Rain"
"2006-05-12 00:00","2006","05","12","00:00","11.7","","11.5","","99","","15","","13","","12.9","","97.90","","","","","","Rain"
"2006-05-12 01:00","2006","05","12","01:00","11.4","","11.2","","99","","16","","11","","16.1","","97.88","","","","","","Rain"
"2006-05-12 02:00","2006","05","12","02:00","11.4","","11.2","","99","","17","","15","","19.3","","97.84","","","","","","Rain"
"2006-05-12 03:00","2006","05","12","03:00","11.3","","11.2","","99","","16","","7","","11.3","","97.86","","","","","","Rain"
"2006-05-12 04:00","2006","05","12","04:00","11.2","","10.6","","96","","21","","15","","14.5","","97.91","","","","","","Rain"
"2006-05-12 05:00","2006","05","12","05:00","10.9","","10.5","","97","","20","","11","","12.9","","97.95","","","","","","Cloudy"
"2006-05-12 06:00","2006","05","12","06:00","10.8","","10.5","","98","","20","","11","","19.3","","98.00","","","","","","Mainly Clear"
"2006-05-12 07:00","2006","05","12","07:00","11.4","","10.8","","96","","16","","7","","19.3","","98.05","","","","","","Mostly Cloudy"
"2006-05-12 08:00","2006","05","12","08:00","11.5","","9.6","","88","","16","","17","","24.1","","98.17","","","","","","Mostly Cloudy"
"2006-05-12 09:00","2006","05","12","09:00","12.4","","9.5","","82","","18","","28","","24.1","","98.23","","","","","","Mostly Cloudy"
"2006-05-12 10:00","2006","05","12","10:00","13.0","","9.0","","77","","20","","26","","24.1","","98.30","","","","","","Mostly Cloudy"
"2006-05-12 11:00","2006","05","12","11:00","13.4","","8.8","","74","","20","","24","","24.1","","98.37","","","","","","Mostly Cloudy"
"2006-05-12 12:00","2006","05","12","12:00","12.9","","8.1","","73","","16","","19","","24.1","","98.42","","","","","","Cloudy"
"2006-05-12 13:00","2006","05","12","13:00","14.4","","8.8","","69","","17","","15","","24.1","","98.42","","","","","","Mostly Cloudy"
"2006-05-12 14:00","2006","05","12","14:00","15.9","","8.4","","61","","17","","30","","24.1","","98.44","","","","","","Mostly Cloudy"
"2006-05-12 15:00","2006","05","12","15:00","16.6","","8.5","","59","","15","","26","","24.1","","98.46","","","","","","Mostly Cloudy"
"2006-05-12 16:00","2006","05","12","16:00","15.4","","8.9","","65","","13","","17","","24.1","","98.51","","","","","","Mainly Clear"
"2006-05-12 17:00","2006","05","12","17:00","15.9","","8.7","","62","","16","","20","","24.1","","98.57","","","","","","Mostly Cloudy"
"2006-05-12 18:00","2006","05","12","18:00","14.6","","7.9","","64","","12","","15","","24.1","","98.59","","","","","","Mostly Cloudy"
"2006-05-12 19:00","2006","05","12","19:00","14.0","","8.3","","68","","14","","7","","24.1","","98.65","","","","","","Mostly Cloudy"
"2006-05-12 20:00","2006","05","12","20:00","13.0","","8.4","","74","","17","","7","","24.1","","98.74","","","","","","Mostly Cloudy"
"2006-05-12 21:00","2006","05","12","21:00","11.4","","8.2","","81","","17","","7","","24.1","","98.83","","","","","","Mainly Clear"
"2006-05-12 22:00","2006","05","12","22:00","11.3","","8.5","","83","","11","","7","","24.1","","98.85","","","","","","Mostly Cloudy"
"2006-05-12 23:00","2006","05","12","23:00","11.4","","9.0","","85","","","","0","","24.1","","98.84","","","","","","Mostly Cloudy"
"2006-05-13 00:00","2006","05","13","00:00","10.6","","8.4","","86","","25","","4","","24.1","","98.84","","","","","","Mainly Clear"
"2006-05-13 01:00","2006","05","13","01:00","10.9","","8.3","","84","","21","","6","","24.1","","98.78","","","","","","Clear"
"2006-05-13 02:00","2006","05","13","02:00","10.8","","8.0","","83","","23","","4","","24.1","","98.78","","","","","","Mainly Clear"
"2006-05-13 03:00","2006","05","13","03:00","10.0","","7.5","","84","","27","","6","","24.1","","98.80","","","","","","Mostly Cloudy"
"2006-05-13 04:00","2006","05","13","04:00","10.7","","8.2","","85","","","","0","","24.1","","98.83","","","","","","Mostly Cloudy"
"2006-05-13 05:00","2006","05","13","05:00","11.1","","8.6","","85","","","","0","","19.3","","98.87","","","","","","Mostly Cloudy"
"2006-05-13 06:00","2006","05","13","06:00","11.4","","8.7","","83","","9","","7","","19.3","","98.90","","","","","","Mostly Cloudy"
"2006-05-13 07:00","2006","05","13","07:00","11.7","","8.8","","82","","11","","6","","16.1","","98.92","","","","","","Rain Showers"
"2006-05-13 08:00","2006","05","13","08:00","12.5","","10.0","","85","","14","","6","","24.1","","99.00","","","","","","Mostly Cloudy"
"2006-05-13 09:00","2006","05","13","09:00","14.3","","9.0","","70","","14","","11","","24.1","","99.02","","","","","","Mostly Cloudy"
"2006-05-13 10:00","2006","05","13","10:00","15.1","","9.2","","68","","13","","13","","24.1","","99.05","","","","","","Mostly Cloudy"
"2006-05-13 11:00","2006","05","13","11:00","16.0","","9.2","","64","","13","","15","","24.1","","99.07","","","","","","Mostly Cloudy"
"2006-05-13 12:00","2006","05","13","12:00","15.7","","8.9","","64","","13","","13","","24.1","","99.06","","","","","","Mostly Cloudy"
"2006-05-13 13:00","2006","05","13","13:00","16.8","","9.5","","62","","14","","11","","24.1","","99.03","","","","","","Mostly Cloudy"
"2006-05-13 14:00","2006","05","13","14:00","16.8","","8.5","","58","","13","","7","","24.1","","99.01","","","","","","Mostly Cloudy"
"2006-05-13 15:00","2006","05","13","15:00","16.8","","9.0","","60","","12","","11","","24.1","","99.01","","","","","","Mostly Cloudy"
"2006-05-13 16:00","2006","05","13","16:00","16.7","","10.5","","67","","10","","13","","24.1","","99.02","","","","","","Mostly Cloudy"
"2006-05-13 17:00","2006","05","13","17:00","15.8","","11.3","","75","","7","","15","","24.1","","99.02","","","","","","Rain Showers"
"2006-05-13 18:00","2006","05","13","18:00","15.7","","11.0","","74","","13","","9","","24.1","","99.12","","","","","","Cloudy"
"2006-05-13 19:00","2006","05","13","19:00","14.6","","10.6","","77","","10","","11","","19.3","","99.15","","","","","","Cloudy"
"2006-05-13 20:00","2006","05","13","20:00","13.8","","10.0","","78","","9","","9","","24.1","","99.12","","","","","","Cloudy"
"2006-05-13 21:00","2006","05","13","21:00","13.7","","9.8","","77","","6","","4","","24.1","","99.16","","","","","","Mostly Cloudy"
"2006-05-13 22:00","2006","05","13","22:00","14.4","","9.6","","73","","9","","11","","24.1","","99.20","","","","","","Mostly Cloudy"
"2006-05-13 23:00","2006","05","13","23:00","14.1","","10.2","","77","","9","","19","","24.1","","99.20","","","","","","Cloudy"
"2006-05-14 00:00","2006","05","14","00:00","13.2","","10.6","","84","","9","","35","","24.1","","99.16","","","","","","Mostly Cloudy"
"2006-05-14 01:00","2006","05","14","01:00","12.7","","10.5","","86","","8","","22","","24.1","","99.14","","","","","","Mostly Cloudy"
"2006-05-14 02:00","2006","05","14","02:00","12.1","","9.7","","85","","9","","22","","24.1","","99.14","","","","","","Mostly Cloudy"
"2006-05-14 03:00","2006","05","14","03:00","11.4","","9.1","","86","","9","","26","","24.1","","99.18","","","","","","Mostly Cloudy"
"2006-05-14 04:00","2006","05","14","04:00","11.1","","8.5","","84","","9","","28","","24.1","","99.19","","","","","","Mostly Cloudy"
"2006-05-14 05:00","2006","05","14","05:00","10.8","","8.5","","86","","9","","22","","24.1","","99.24","","","","","","Mostly Cloudy"
"2006-05-14 06:00","2006","05","14","06:00","10.9","","8.1","","83","","9","","28","","24.1","","99.28","","","","","","Cloudy"
"2006-05-14 07:00","2006","05","14","07:00","11.3","","8.3","","82","","8","","26","","24.1","","99.33","","","","","","Cloudy"
"2006-05-14 08:00","2006","05","14","08:00","11.4","","8.0","","80","","8","","32","","24.1","","99.37","","","","","","Cloudy"
"2006-05-14 09:00","2006","05","14","09:00","11.4","","8.0","","80","","9","","28","","24.1","","99.42","","","","","","Cloudy"
"2006-05-14 10:00","2006","05","14","10:00","12.4","","8.4","","77","","9","","33","","24.1","","99.45","","","","","","Cloudy"
"2006-05-14 11:00","2006","05","14","11:00","12.8","","8.5","","75","","9","","33","","24.1","","99.48","","","","","","Cloudy"
"2006-05-14 12:00","2006","05","14","12:00","14.2","","9.2","","72","","8","","35","","24.1","","99.46","","","","","","Mostly Cloudy"
"2006-05-14 13:00","2006","05","14","13:00","15.0","","9.6","","70","","9","","28","","24.1","","99.45","","","","","","Mostly Cloudy"
"2006-05-14 14:00","2006","05","14","14:00","16.3","","10.4","","68","","9","","32","","24.1","","99.41","","","","","","Mostly Cloudy"
"2006-05-14 15:00","2006","05","14","15:00","15.6","","9.1","","65","","9","","35","","24.1","","99.42","","","","","","Mostly Cloudy"
"2006-05-14 16:00","2006","05","14","16:00","15.5","","9.0","","65","","9","","33","","24.1","","99.41","","","","","","Mostly Cloudy"
"2006-05-14 17:00","2006","05","14","17:00","15.7","","9.7","","67","","10","","30","","24.1","","99.42","","","","","","Mostly Cloudy"
"2006-05-14 18:00","2006","05","14","18:00","14.9","","9.5","","70","","8","","37","","24.1","","99.42","","","","","","Mostly Cloudy"
"2006-05-14 19:00","2006","05","14","19:00","14.2","","9.8","","75","","8","","19","","24.1","","99.47","","","","","","Mainly Clear"
"2006-05-14 20:00","2006","05","14","20:00","13.2","","9.4","","78","","9","","20","","24.1","","99.45","","","","","","Mainly Clear"
"2006-05-14 21:00","2006","05","14","21:00","13.1","","9.3","","78","","9","","20","","24.1","","99.45","","","","","","Mainly Clear"
"2006-05-14 22:00","2006","05","14","22:00","13.6","","9.2","","75","","9","","26","","24.1","","99.46","","","","","","Cloudy"
"2006-05-14 23:00","2006","05","14","23:00","12.9","","9.6","","80","","9","","30","","24.1","","99.45","","","","","","Mostly Cloudy"
"2006-05-15 00:00","2006","05","15","00:00","12.6","","8.5","","76","","10","","24","","24.1","","99.43","","","","","","Cloudy"
"2006-05-15 01:00","2006","05","15","01:00","11.8","","8.2","","79","","9","","24","","24.1","","99.41","","","","","","Mostly Cloudy"
"2006-05-15 02:00","2006","05","15","02:00","11.4","","8.8","","84","","9","","30","","24.1","","99.37","","","","","","Cloudy"
"2006-05-15 03:00","2006","05","15","03:00","11.3","","8.8","","85","","8","","22","","24.1","","99.32","","","","","","Cloudy"
"2006-05-15 04:00","2006","05","15","04:00","11.4","","8.9","","85","","9","","20","","24.1","","99.34","","","","","","Cloudy"
"2006-05-15 05:00","2006","05","15","05:00","11.3","","8.8","","85","","9","","20","","24.1","","99.33","","","","","","Mostly Cloudy"
"2006-05-15 06:00","2006","05","15","06:00","11.4","","8.9","","85","","9","","22","","24.1","","99.33","","","","","","Mainly Clear"
"2006-05-15 07:00","2006","05","15","07:00","12.1","","9.1","","82","","9","","22","","24.1","","99.33","","","","","","Mostly Cloudy"
"2006-05-15 08:00","2006","05","15","08:00","12.4","","9.0","","80","","9","","26","","24.1","","99.38","","","","","","Mostly Cloudy"
"2006-05-15 09:00","2006","05","15","09:00","12.7","","8.6","","76","","9","","26","","24.1","","99.34","","","","","","Mostly Cloudy"
"2006-05-15 10:00","2006","05","15","10:00","13.4","","8.7","","73","","9","","24","","24.1","","99.32","","","","","","Cloudy"
"2006-05-15 11:00","2006","05","15","11:00","14.7","","9.1","","69","","7","","20","","24.1","","99.27","","","","","","Mostly Cloudy"
"2006-05-15 12:00","2006","05","15","12:00","15.2","","9.2","","67","","10","","24","","24.1","","99.24","","","","","","Mostly Cloudy"
"2006-05-15 13:00","2006","05","15","13:00","14.6","","8.9","","69","","8","","24","","24.1","","99.20","","","","","","Mostly Cloudy"
"2006-05-15 14:00","2006","05","15","14:00","14.9","","9.0","","68","","8","","24","","24.1","","99.14","","","","","","Mostly Cloudy"
"2006-05-15 15:00","2006","05","15","15:00","15.1","","9.4","","69","","9","","20","","24.1","","99.08","","","","","","Mostly Cloudy"
"2006-05-15 16:00","2006","05","15","16:00","15.0","","9.3","","69","","7","","20","","24.1","","99.03","","","","","","Cloudy"
"2006-05-15 17:00","2006","05","15","17:00","13.5","","9.8","","78","","10","","11","","24.1","","99.02","","","","","","Rain"
"2006-05-15 18:00","2006","05","15","18:00","12.5","","9.0","","79","","15","","11","","24.1","","98.99","","","","","","Cloudy"
"2006-05-15 19:00","2006","05","15","19:00","12.2","","9.0","","81","","17","","6","","19.3","","98.98","","","","","","Rain"
"2006-05-15 20:00","2006","05","15","20:00","11.4","","8.9","","85","","27","","4","","16.1","","98.92","","","","","","Rain"
"2006-05-15 21:00","2006","05","15","21:00","11.4","","9.8","","90","","27","","9","","11.3","","98.89","","","","","","Rain"
"2006-05-15 22:00","2006","05","15","22:00","11.3","","10.3","","94","","28","","9","","6.4","","98.84","","","","","","Moderate Rain,Fog"
"2006-05-15 23:00","2006","05","15","23:00","11.3","","10.4","","94","","25","","7","","9.7","","98.76","","","","","","Rain,Fog"
"2006-05-16 00:00","2006","05","16","00:00","11.3","","10.5","","95","","27","","7","","9.7","","98.67","","","","","","Rain,Fog"
"2006-05-16 01:00","2006","05","16","01:00","11.2","","10.8","","97","","23","","4","","9.7","","98.59","","","","","","Rain,Fog"
"2006-05-16 02:00","2006","05","16","02:00","11.3","","10.8","","97","","16","","6","","6.4","","98.51","","","","","","Rain,Fog"
"2006-05-16 03:00","2006","05","16","03:00","11.2","","10.7","","97","","14","","7","","6.4","","98.49","","","","","","Drizzle,Fog"
"2006-05-16 04:00","2006","05","16","04:00","9.9","","9.6","","98","","14","","11","","1.6","","98.46","","","","","","Rain Showers,Fog"
"2006-05-16 05:00","2006","05","16","05:00","10.1","","10.0","","99","","13","","6","","2.4","","98.42","","","","","","Rain Showers,Fog"
"2006-05-16 06:00","2006","05","16","06:00","10.2","","10.2","","100","","","","0","","2.4","","98.39","","","","","","Drizzle,Fog"
"2006-05-16 07:00","2006","05","16","07:00","10.5","","10.4","","99","","18","","4","","4.8","","98.38","","","","","","Drizzle,Fog"
"2006-05-16 08:00","2006","05","16","08:00","10.6","","10.6","","100","","22","","4","","6.4","","98.37","","","","","","Rain,Fog"
"2006-05-16 09:00","2006","05","16","09:00","11.5","","11.2","","98","","24","","6","","8.0","","98.34","","","","","","Rain,Fog"
"2006-05-16 10:00","2006","05","16","10:00","12.3","","11.8","","97","","26","","7","","12.9","","98.32","","","","","","Rain"
"2006-05-16 11:00","2006","05","16","11:00","13.0","","11.9","","93","","28","","7","","19.3","","98.27","","","","","","Cloudy"
"2006-05-16 12:00","2006","05","16","12:00","14.1","","12.3","","89","","32","","4","","19.3","","98.22","","","","","","Mostly Cloudy"
"2006-05-16 13:00","2006","05","16","13:00","13.8","","12.1","","89","","26","","7","","24.1","","98.18","","","","","","Rain Showers"
"2006-05-16 14:00","2006","05","16","14:00","13.3","","11.2","","87","","23","","4","","14.5","","98.15","","","","","","Rain Showers"
"2006-05-16 15:00","2006","05","16","15:00","14.0","","11.7","","86","","21","","9","","8.0","","98.12","","","","","","Rain Showers"
"2006-05-16 16:00","2006","05","16","16:00","13.2","","11.5","","89","","18","","4","","9.7","","98.12","","","","","","Rain Showers"
"2006-05-16 17:00","2006","05","16","17:00","14.1","","12.5","","90","","20","","11","","12.9","","98.12","","","","","","Rain Showers"
"2006-05-16 18:00","2006","05","16","18:00","13.5","","11.7","","89","","22","","7","","19.3","","98.12","","","","","","Mostly Cloudy"
"2006-05-16 19:00","2006","05","16","19:00","13.5","","11.8","","89","","27","","9","","24.1","","98.12","","","","","","Mostly Cloudy"
"2006-05-16 20:00","2006","05","16","20:00","12.3","","11.1","","92","","27","","7","","24.1","","98.10","","","","","","Mainly Clear"
"2006-05-16 21:00","2006","05","16","21:00","12.8","","11.6","","92","","25","","4","","24.1","","98.14","","","","","","Mostly Cloudy"
"2006-05-16 22:00","2006","05","16","22:00","12.3","","11.6","","95","","27","","6","","24.1","","98.09","","","","","","Mainly Clear"
"2006-05-16 23:00","2006","05","16","23:00","11.5","","10.6","","94","","32","","9","","24.1","","98.08","","","","","","Clear"
"2006-05-17 00:00","2006","05","17","00:00","9.9","","9.3","","96","","28","","11","","24.1","","98.06","","","","","","Clear"
"2006-05-17 01:00","2006","05","17","01:00","9.9","","9.3","","96","","31","","9","","24.1","","98.03","","","","","","Mainly Clear"
"2006-05-17 02:00","2006","05","17","02:00","9.8","","9.1","","95","","27","","7","","24.1","","97.98","","","","","","Mainly Clear"
"2006-05-17 03:00","2006","05","17","03:00","9.4","","8.9","","97","","","","0","","24.1","","97.96","","","","","","Mainly Clear"
"2006-05-17 04:00","2006","05","17","04:00","9.2","","9.0","","99","","26","","4","","24.1","","97.94","","","","","","Mainly Clear"
"2006-05-17 05:00","2006","05","17","05:00","8.8","","8.5","","98","","27","","9","","24.1","","97.91","","","","","","Mostly Cloudy"
"2006-05-17 06:00","2006","05","17","06:00","10.2","","9.6","","96","","27","","15","","24.1","","97.92","","","","","","Mostly Cloudy"
"2006-05-17 07:00","2006","05","17","07:00","11.7","","10.8","","94","","27","","17","","24.1","","97.92","","","","","","Mostly Cloudy"
"2006-05-17 08:00","2006","05","17","08:00","13.7","","10.9","","83","","28","","15","","24.1","","97.93","","","","","","Mostly Cloudy"
"2006-05-17 09:00","2006","05","17","09:00","15.2","","11.9","","81","","27","","15","","24.1","","97.87","","","","","","Mostly Cloudy"
"2006-05-17 10:00","2006","05","17","10:00","16.6","","12.5","","77","","28","","17","","24.1","","97.84","","","","","","Mostly Cloudy"
"2006-05-17 11:00","2006","05","17","11:00","17.9","","13.0","","73","","30","","11","","24.1","","97.83","","","","","","Mostly Cloudy"
"2006-05-17 12:00","2006","05","17","12:00","19.2","","13.3","","69","","32","","13","","24.1","","97.77","","","","","","Mostly Cloudy"
"2006-05-17 13:00","2006","05","17","13:00","20.2","","13.7","","66","","27","","20","","24.1","","97.73","","","","","","Mostly Cloudy"
"2006-05-17 14:00","2006","05","17","14:00","20.2","","13.1","","64","","28","","22","","24.1","","97.66","","","","","","Mostly Cloudy"
"2006-05-17 15:00","2006","05","17","15:00","16.2","","11.6","","74","","33","","44","","4.0","","97.67","","","","","","Thunderstorms,Rain Showers"
"2006-05-17 16:00","2006","05","17","16:00","14.2","","12.4","","89","","12","","9","","24.1","","97.69","","","","","","Thunderstorms,Rain Showers"
"2006-05-17 17:00","2006","05","17","17:00","14.2","","12.9","","92","","18","","11","","24.1","","97.71","","","","","","Thunderstorms,Rain Showers"
"2006-05-17 18:00","2006","05","17","18:00","13.7","","13.2","","97","","18","","7","","24.1","","97.69","","","","","","Mostly Cloudy"
"2006-05-17 19:00","2006","05","17","19:00","14.5","","13.3","","93","","21","","11","","24.1","","97.67","","","","","","Mostly Cloudy"
"2006-05-17 20:00","2006","05","17","20:00","13.9","","11.9","","88","","22","","19","","24.1","","97.68","","","","","","Mostly Cloudy"
"2006-05-17 21:00","2006","05","17","21:00","13.0","","11.2","","89","","27","","17","","24.1","","97.68","","","","","","Mostly Cloudy"
"2006-05-17 22:00","2006","05","17","22:00","12.9","","10.8","","87","","27","","15","","24.1","","97.64","","","","","","Mostly Cloudy"
"2006-05-17 23:00","2006","05","17","23:00","12.8","","10.4","","85","","29","","11","","24.1","","97.58","","","","","","Mostly Cloudy"
"2006-05-18 00:00","2006","05","18","00:00","12.3","","10.4","","88","","24","","11","","24.1","","97.57","","","","","","Mostly Cloudy"
"2006-05-18 01:00","2006","05","18","01:00","12.2","","10.5","","89","","22","","6","","24.1","","97.48","","","","","","Mainly Clear"
"2006-05-18 02:00","2006","05","18","02:00","12.3","","10.1","","86","","23","","7","","24.1","","97.45","","","","","","Mostly Cloudy"
"2006-05-18 03:00","2006","05","18","03:00","12.1","","10.3","","89","","25","","6","","24.1","","97.40","","","","","","Mostly Cloudy"
"2006-05-18 04:00","2006","05","18","04:00","12.1","","10.6","","91","","18","","6","","19.3","","97.39","","","","","","Rain Showers"
"2006-05-18 05:00","2006","05","18","05:00","11.7","","10.3","","91","","25","","7","","12.9","","97.36","","","","","","Cloudy"
"2006-05-18 06:00","2006","05","18","06:00","12.1","","10.9","","92","","24","","6","","12.9","","97.32","","","","","","Cloudy"
"2006-05-18 07:00","2006","05","18","07:00","12.4","","11.5","","94","","","","0","","9.7","","97.31","","","","","","Rain Showers"
"2006-05-18 08:00","2006","05","18","08:00","12.9","","12.3","","96","","","","0","","6.4","","97.28","","","","","","Rain Showers"
"2006-05-18 09:00","2006","05","18","09:00","11.8","","11.1","","95","","12","","11","","3.2","","97.26","","","","","","Rain,Fog"
"2006-05-18 10:00","2006","05","18","10:00","11.9","","11.6","","98","","14","","11","","4.8","","97.23","","","","","","Rain,Fog"
"2006-05-18 11:00","2006","05","18","11:00","12.5","","12.3","","99","","16","","11","","9.7","","97.22","","","","","","Rain,Fog"
"2006-05-18 12:00","2006","05","18","12:00","14.5","","13.3","","93","","21","","17","","24.1","","97.24","","","","","","Mostly Cloudy"
"2006-05-18 13:00","2006","05","18","13:00","14.2","","9.8","","75","","24","","17","","24.1","","97.28","","","","","","Cloudy"
"2006-05-18 14:00","2006","05","18","14:00","14.0","","9.4","","74","","26","","20","","24.1","","97.35","","","","","","Rain Showers"
"2006-05-18 15:00","2006","05","18","15:00","13.1","","10.8","","86","","27","","35","","24.1","","97.44","","","","","","Cloudy"
"2006-05-18 16:00","2006","05","18","16:00","12.3","","9.3","","82","","26","","26","","24.1","","97.53","","","","","","Cloudy"
"2006-05-18 17:00","2006","05","18","17:00","12.2","","8.6","","79","","28","","28","","24.1","","97.61","","","","","","Mostly Cloudy"
"2006-05-18 18:00","2006","05","18","18:00","11.8","","7.5","","75","","26","","24","","24.1","","97.71","","","","","","Mostly Cloudy"
"2006-05-18 19:00","2006","05","18","19:00","11.4","","6.5","","72","","26","","19","","24.1","","97.78","","","","","","Mostly Cloudy"
"2006-05-18 20:00","2006","05","18","20:00","11.3","","7.1","","75","","26","","17","","24.1","","97.83","","","","","","Mostly Cloudy"
"2006-05-18 21:00","2006","05","18","21:00","9.3","","6.4","","82","","27","","13","","24.1","","97.90","","","","","","Mainly Clear"
"2006-05-18 22:00","2006","05","18","22:00","8.1","","6.0","","87","","27","","13","","24.1","","97.95","","","","","","Clear"
"2006-05-18 23:00","2006","05","18","23:00","7.6","","5.8","","88","","26","","7","","24.1","","97.95","","","","","","Clear"
"2006-05-19 00:00","2006","05","19","00:00","7.9","","5.4","","84","","22","","7","","24.1","","97.94","","","","","","Clear"
"2006-05-19 01:00","2006","05","19","01:00","6.6","","4.9","","89","","26","","11","","24.1","","97.94","","","","","","Clear"
"2006-05-19 02:00","2006","05","19","02:00","5.8","","4.3","","90","","27","","7","","24.1","","97.95","","","","","","Clear"
"2006-05-19 03:00","2006","05","19","03:00","6.6","","5.0","","90","","29","","7","","24.1","","97.95","","","","","","Clear"
"2006-05-19 04:00","2006","05","19","04:00","5.8","","4.3","","90","","28","","4","","24.1","","97.99","","","","","","Mainly Clear"
"2006-05-19 05:00","2006","05","19","05:00","6.5","","5.3","","92","","27","","6","","24.1","","98.00","","","","","","Mostly Cloudy"
"2006-05-19 06:00","2006","05","19","06:00","7.6","","7.2","","97","","","","0","","24.1","","98.00","","","","","","Clear"
"2006-05-19 07:00","2006","05","19","07:00","9.9","","7.7","","86","","18","","7","","24.1","","98.04","","","","","","Clear"
"2006-05-19 08:00","2006","05","19","08:00","10.7","","7.0","","78","","24","","11","","24.1","","98.03","","","","","","Mainly Clear"
"2006-05-19 09:00","2006","05","19","09:00","12.4","","7.8","","73","","22","","19","","24.1","","98.06","","","","","","Mostly Cloudy"
"2006-05-19 10:00","2006","05","19","10:00","11.5","","7.4","","76","","14","","11","","24.1","","98.08","","","","","","Mostly Cloudy"
"2006-05-19 11:00","2006","05","19","11:00","12.8","","7.5","","70","","20","","13","","24.1","","98.07","","","","","","Mostly Cloudy"
"2006-05-19 12:00","2006","05","19","12:00","13.3","","6.7","","64","","25","","20","","24.1","","98.06","","","","","","Mostly Cloudy"
"2006-05-19 13:00","2006","05","19","13:00","13.4","","6.4","","63","","24","","19","","24.1","","98.05","","","","","","Mostly Cloudy"
"2006-05-19 14:00","2006","05","19","14:00","14.2","","7.2","","63","","25","","13","","24.1","","98.02","","","","","","Mostly Cloudy"
"2006-05-19 15:00","2006","05","19","15:00","14.9","","7.2","","60","","25","","20","","24.1","","98.01","","","","","","Mostly Cloudy"
"2006-05-19 16:00","2006","05","19","16:00","14.3","","7.4","","63","","29","","19","","24.1","","98.03","","","","","","Cloudy"
"2006-05-19 17:00","2006","05","19","17:00","13.9","","7.9","","67","","29","","15","","24.1","","98.02","","","","","","Cloudy"
"2006-05-19 18:00","2006","05","19","18:00","13.0","","8.4","","74","","30","","20","","19.3","","98.04","","","","","","Cloudy"
"2006-05-19 19:00","2006","05","19","19:00","11.3","","10.1","","92","","30","","17","","11.3","","98.09","","","","","","Rain"
"2006-05-19 20:00","2006","05","19","20:00","10.4","","9.3","","93","","29","","28","","16.1","","98.10","","","","","","Rain"
"2006-05-19 21:00","2006","05","19","21:00","9.8","","8.7","","93","","30","","24","","19.3","","98.14","","","","","","Rain"
"2006-05-19 22:00","2006","05","19","22:00","9.7","","8.3","","91","","30","","28","","19.3","","98.16","","","","","","Rain"
"2006-05-19 23:00","2006","05","19","23:00","9.7","","8.0","","89","","30","","26","","19.3","","98.15","","","","","","Rain"
"2006-05-20 00:00","2006","05","20","00:00","9.5","","8.2","","92","","29","","22","","19.3","","98.14","","","","","","Rain"
"2006-05-20 01:00","2006","05","20","01:00","9.3","","7.2","","87","","32","","20","","24.1","","98.15","","","","","","Cloudy"
"2006-05-20 02:00","2006","05","20","02:00","9.1","","7.0","","87","","30","","24","","24.1","","98.12","","","","","","Cloudy"
"2006-05-20 03:00","2006","05","20","03:00","9.0","","6.6","","85","","31","","26","","24.1","","98.12","","","","","","Cloudy"
"2006-05-20 04:00","2006","05","20","04:00","7.8","","4.9","","82","","32","","28","","24.1","","98.15","","","","","","Mostly Cloudy"
"2006-05-20 05:00","2006","05","20","05:00","7.7","","4.5","","80","","32","","26","","24.1","","98.19","","","","","","Mostly Cloudy"
"2006-05-20 06:00","2006","05","20","06:00","8.3","","4.5","","77","","31","","26","","24.1","","98.25","","","","","","Mostly Cloudy"
"2006-05-20 07:00","2006","05","20","07:00","8.8","","5.6","","80","","30","","24","","24.1","","98.31","","","","","","Mostly Cloudy"
"2006-05-20 08:00","2006","05","20","08:00","9.3","","6.7","","84","","30","","22","","24.1","","98.32","","","","","","Mostly Cloudy"
"2006-05-20 09:00","2006","05","20","09:00","12.2","","5.5","","64","","31","","39","","24.1","","98.31","","","","","","Mostly Cloudy"
"2006-05-20 10:00","2006","05","20","10:00","11.9","","5.1","","63","","31","","37","","24.1","","98.34","","","","","","Mostly Cloudy"
"2006-05-20 11:00","2006","05","20","11:00","11.6","","4.6","","62","","31","","30","","24.1","","98.39","","","","","","Mostly Cloudy"
"2006-05-20 12:00","2006","05","20","12:00","12.5","","4.9","","60","","31","","33","","24.1","","98.42","","","","","","Mostly Cloudy"
"2006-05-20 13:00","2006","05","20","13:00","13.3","","4.8","","56","","29","","32","","24.1","","98.44","","","","","","Mostly Cloudy"
"2006-05-20 14:00","2006","05","20","14:00","14.5","","5.0","","53","","31","","33","","24.1","","98.45","","","","","","Mostly Cloudy"
"2006-05-20 15:00","2006","05","20","15:00","14.7","","4.1","","49","","30","","37","","24.1","","98.48","","","","","","Mainly Clear"
"2006-05-20 16:00","2006","05","20","16:00","14.5","","3.2","","47","","31","","33","","24.1","","98.50","","","","","","Clear"
"2006-05-20 17:00","2006","05","20","17:00","14.6","","2.9","","45","","31","","37","","24.1","","98.53","","","","","","Clear"
"2006-05-20 18:00","2006","05","20","18:00","14.8","","2.9","","45","","31","","24","","24.1","","98.52","","","","","","Clear"
"2006-05-20 19:00","2006","05","20","19:00","14.6","","4.2","","50","","29","","19","","24.1","","98.53","","","","","","Clear"
"2006-05-20 20:00","2006","05","20","20:00","11.5","","4.5","","62","","24","","11","","24.1","","98.51","","","","","","Mainly Clear"
"2006-05-20 21:00","2006","05","20","21:00","12.6","","5.5","","62","","19","","7","","24.1","","98.44","","","","","","Mainly Clear"
"2006-05-20 22:00","2006","05","20","22:00","12.1","","5.2","","63","","23","","22","","24.1","","98.44","","","","","","Mostly Cloudy"
"2006-05-20 23:00","2006","05","20","23:00","12.3","","6.4","","67","","23","","20","","24.1","","98.31","","","","","","Mostly Cloudy"
"2006-05-21 00:00","2006","05","21","00:00","13.3","","6.3","","63","","26","","41","","24.1","","98.28","","","","","","Mostly Cloudy"
"2006-05-21 01:00","2006","05","21","01:00","12.5","","8.0","","74","","26","","26","","24.1","","98.18","","","","","","Mostly Cloudy"
"2006-05-21 02:00","2006","05","21","02:00","11.8","","9.4","","85","","26","","22","","19.3","","98.12","","","","","","Rain Showers"
"2006-05-21 03:00","2006","05","21","03:00","7.6","","1.9","","67","","31","","52","","24.1","","98.26","","","","","","Rain Showers"
"2006-05-21 04:00","2006","05","21","04:00","5.8","","1.7","","75","","31","","30","","19.3","","98.29","","","","","","Rain Showers"
"2006-05-21 05:00","2006","05","21","05:00","4.8","","0.8","","75","","28","","15","","24.1","","98.23","","","","","","Mainly Clear"
"2006-05-21 06:00","2006","05","21","06:00","5.1","","1.4","","77","","27","","20","","24.1","","98.21","","","","","","Mainly Clear"
"2006-05-21 07:00","2006","05","21","07:00","6.2","","0.4","","66","","29","","32","","24.1","","98.23","","","","","","Mostly Cloudy"
"2006-05-21 08:00","2006","05","21","08:00","6.5","","0.1","","64","","28","","37","","24.1","","98.28","","","","","","Mostly Cloudy"
"2006-05-21 09:00","2006","05","21","09:00","7.6","","0.1","","59","","29","","39","","24.1","","98.21","","","","","","Mostly Cloudy"
"2006-05-21 10:00","2006","05","21","10:00","7.8","","0.8","","61","","29","","41","","24.1","","98.22","","","","","","Mostly Cloudy"
"2006-05-21 11:00","2006","05","21","11:00","8.7","","1.3","","60","","27","","44","","24.1","","98.21","","","","","","Mostly Cloudy"
"2006-05-21 12:00","2006","05","21","12:00","8.2","","2.0","","65","","28","","46","","24.1","","98.27","","","","","","Cloudy"
"2006-05-21 13:00","2006","05","21","13:00","6.7","","3.5","","80","","31","","52","","12.9","","98.33","","","","","","Rain Showers"
"2006-05-21 14:00","2006","05","21","14:00","6.9","","3.7","","80","","34","","33","","24.1","","98.52","","","","","","Rain Showers"
"2006-05-21 15:00","2006","05","21","15:00","8.2","","2.4","","67","","31","","46","","24.1","","98.60","","","","","","Mostly Cloudy"
"2006-05-21 16:00","2006","05","21","16:00","7.3","","4.7","","84","","31","","33","","24.1","","98.72","","","","","","Rain Showers"
"2006-05-21 17:00","2006","05","21","17:00","7.4","","3.5","","76","","31","","41","","24.1","","98.81","","","","","","Rain Showers"
"2006-05-21 18:00","2006","05","21","18:00","7.9","","2.4","","68","","31","","37","","24.1","","98.90","","","","","","Rain Showers"
"2006-05-21 19:00","2006","05","21","19:00","7.7","","2.2","","68","","31","","35","","24.1","","99.00","","","","","","Mostly Cloudy"
"2006-05-21 20:00","2006","05","21","20:00","7.3","","2.2","","70","","31","","30","","24.1","","99.08","","","","","","Mostly Cloudy"
"2006-05-21 21:00","2006","05","21","21:00","7.0","","2.5","","73","","31","","24","","24.1","","99.15","","","","","","Mostly Cloudy"
"2006-05-21 22:00","2006","05","21","22:00","6.9","","2.5","","74","","31","","26","","24.1","","99.22","","","","","","Mostly Cloudy"
"2006-05-21 23:00","2006","05","21","23:00","6.7","","2.9","","77","","32","","26","","24.1","","99.26","","","","","","Rain Showers"
"2006-05-22 00:00","2006","05","22","00:00","5.8","","4.1","","89","","34","","19","","24.1","","99.32","","","","","","Cloudy"
"2006-05-22 01:00","2006","05","22","01:00","5.7","","3.7","","87","","34","","19","","24.1","","99.37","","","","","","Mostly Cloudy"
"2006-05-22 02:00","2006","05","22","02:00","5.4","","2.4","","81","","34","","28","","24.1","","99.36","","","","","","Mostly Cloudy"
"2006-05-22 03:00","2006","05","22","03:00","4.7","","1.7","","81","","33","","24","","24.1","","99.41","","","","","","Mainly Clear"
"2006-05-22 04:00","2006","05","22","04:00","4.8","","1.7","","80","","34","","19","","24.1","","99.45","","","","","","Mostly Cloudy"
"2006-05-22 05:00","2006","05","22","05:00","4.6","","1.5","","80","","32","","20","","24.1","","99.51","","","","","","Mainly Clear"
"2006-05-22 06:00","2006","05","22","06:00","5.4","","1.4","","75","","32","","20","","24.1","","99.60","","","","","","Mainly Clear"
"2006-05-22 07:00","2006","05","22","07:00","6.0","","1.4","","72","","32","","19","","24.1","","99.64","","","","","","Mostly Cloudy"
"2006-05-22 08:00","2006","05","22","08:00","6.4","","1.3","","70","","31","","17","","24.1","","99.67","","","","","","Cloudy"
"2006-05-22 09:00","2006","05","22","09:00","7.2","","1.9","","69","","32","","7","","24.1","","99.64","","","","","","Cloudy"
"2006-05-22 10:00","2006","05","22","10:00","8.9","","2.1","","62","","31","","24","","24.1","","99.64","","","","","","Rain Showers"
"2006-05-22 11:00","2006","05","22","11:00","9.1","","2.9","","65","","35","","30","","24.1","","99.63","","","","","","Mostly Cloudy"
"2006-05-22 12:00","2006","05","22","12:00","9.8","","1.6","","57","","32","","33","","24.1","","99.62","","","","","","Mostly Cloudy"
"2006-05-22 13:00","2006","05","22","13:00","9.0","","1.4","","59","","36","","22","","24.1","","99.64","","","","","","Mostly Cloudy"
"2006-05-22 14:00","2006","05","22","14:00","8.8","","-0.6","","52","","36","","33","","24.1","","99.68","","","","","","Mostly Cloudy"
"2006-05-22 15:00","2006","05","22","15:00","9.0","","-1.7","","47","","35","","33","","24.1","","99.71","","","","","","Mostly Cloudy"
"2006-05-22 16:00","2006","05","22","16:00","9.2","","-1.2","","48","","35","","28","","24.1","","99.71","","","","","","Cloudy"
"2006-05-22 17:00","2006","05","22","17:00","8.5","","-1.2","","50","","33","","32","","24.1","","99.76","","","","","","Cloudy"
"2006-05-22 18:00","2006","05","22","18:00","8.2","","-0.5","","54","","33","","30","","24.1","","99.77","","","","","","Mostly Cloudy"
"2006-05-22 19:00","2006","05","22","19:00","8.0","","-1.3","","52","","31","","22","","24.1","","99.78","","","","","","Mainly Clear"
"2006-05-22 20:00","2006","05","22","20:00","6.7","","0.2","","63","","29","","15","","24.1","","99.81","","","","","","Clear"
"2006-05-22 21:00","2006","05","22","21:00","4.1","","-0.5","","72","","27","","11","","24.1","","99.88","","","","","","Clear"
"2006-05-22 22:00","2006","05","22","22:00","3.7","","-0.4","","75","","27","","13","","24.1","","99.85","","","","","","Clear"
"2006-05-22 23:00","2006","05","22","23:00","3.7","","0.0","","77","","28","","11","","24.1","","99.83","","","","","","Clear"
"2006-05-23 00:00","2006","05","23","00:00","3.6","","-0.3","","76","","28","","13","","24.1","","99.83","","","","","","Clear"
"2006-05-23 01:00","2006","05","23","01:00","3.2","","-0.5","","77","","27","","13","","24.1","","99.79","","","","","","Clear"
"2006-05-23 02:00","2006","05","23","02:00","3.5","","-0.3","","76","","29","","13","","24.1","","99.76","","","","","","Mainly Clear"
"2006-05-23 03:00","2006","05","23","03:00","4.1","","0.1","","75","","29","","13","","24.1","","99.73","","","","","","Clear"
"2006-05-23 04:00","2006","05","23","04:00","5.8","","-0.2","","65","","31","","28","","24.1","","99.76","","","","","","Clear"
"2006-05-23 05:00","2006","05","23","05:00","5.5","","-0.1","","67","","30","","19","","24.1","","99.80","","","","","","Clear"
"2006-05-23 06:00","2006","05","23","06:00","6.3","","0.4","","66","","30","","28","","24.1","","99.89","","","","","","Mainly Clear"
"2006-05-23 07:00","2006","05","23","07:00","8.4","","1.4","","61","","31","","28","","24.1","","99.93","","","","","","Mainly Clear"
"2006-05-23 08:00","2006","05","23","08:00","10.4","","3.0","","60","","31","","22","","24.1","","99.98","","","","","","Mainly Clear"
"2006-05-23 09:00","2006","05","23","09:00","12.1","","4.4","","59","","34","","19","","24.1","","99.96","","","","","","Mainly Clear"
"2006-05-23 10:00","2006","05","23","10:00","14.1","","5.1","","55","","33","","19","","24.1","","99.96","","","","","","Mainly Clear"
"2006-05-23 11:00","2006","05","23","11:00","15.6","","5.9","","52","","32","","19","","24.1","","99.92","","","","","","Mainly Clear"
"2006-05-23 12:00","2006","05","23","12:00","16.4","","5.6","","49","","34","","17","","24.1","","99.87","","","","","","Mainly Clear"
"2006-05-23 13:00","2006","05","23","13:00","16.9","","5.2","","46","","36","","15","","24.1","","99.83","","","","","","Mostly Cloudy"
"2006-05-23 14:00","2006","05","23","14:00","16.9","","4.7","","44","","33","","15","","24.1","","99.79","","","","","","Mostly Cloudy"
"2006-05-23 15:00","2006","05","23","15:00","17.2","","5.0","","44","","33","","7","","24.1","","99.77","","","","","","Mostly Cloudy"
"2006-05-23 16:00","2006","05","23","16:00","16.3","","2.9","","41","","2","","24","","24.1","","99.73","","","","","","Mostly Cloudy"
"2006-05-23 17:00","2006","05","23","17:00","16.7","","2.8","","39","","36","","24","","24.1","","99.72","","","","","","Mostly Cloudy"
"2006-05-23 18:00","2006","05","23","18:00","15.6","","2.9","","42","","3","","19","","24.1","","99.71","","","","","","Mainly Clear"
"2006-05-23 19:00","2006","05","23","19:00","14.5","","2.2","","43","","36","","19","","24.1","","99.76","","","","","","Clear"
"2006-05-23 20:00","2006","05","23","20:00","12.6","","0.8","","44","","1","","13","","24.1","","99.77","","","","","","Mainly Clear"
"2006-05-23 21:00","2006","05","23","21:00","11.4","","1.1","","49","","32","","9","","24.1","","99.82","","","","","","Mainly Clear"
"2006-05-23 22:00","2006","05","23","22:00","11.3","","1.6","","51","","31","","13","","24.1","","99.85","","","","","","Mainly Clear"
"2006-05-23 23:00","2006","05","23","23:00","10.0","","0.9","","53","","32","","13","","24.1","","99.84","","","","","","Mainly Clear"
"2006-05-24 00:00","2006","05","24","00:00","8.4","","0.4","","57","","32","","13","","24.1","","99.78","","","","","","Mainly Clear"
"2006-05-24 01:00","2006","05","24","01:00","7.6","","0.4","","60","","29","","7","","24.1","","99.75","","","","","","Mainly Clear"
"2006-05-24 02:00","2006","05","24","02:00","6.8","","0.7","","65","","28","","7","","24.1","","99.74","","","","","","Clear"
"2006-05-24 03:00","2006","05","24","03:00","5.8","","0.4","","68","","29","","7","","24.1","","99.74","","","","","","Clear"
"2006-05-24 04:00","2006","05","24","04:00","6.0","","0.6","","68","","28","","7","","24.1","","99.76","","","","","","Mainly Clear"
"2006-05-24 05:00","2006","05","24","05:00","7.1","","1.2","","66","","26","","6","","24.1","","99.72","","","","","","Mainly Clear"
"2006-05-24 06:00","2006","05","24","06:00","9.7","","3.8","","67","","27","","6","","24.1","","99.74","","","","","","Mostly Cloudy"
"2006-05-24 07:00","2006","05","24","07:00","11.9","","4.1","","59","","26","","11","","24.1","","99.78","","","","","","Mainly Clear"
"2006-05-24 08:00","2006","05","24","08:00","14.6","","5.2","","53","","27","","11","","24.1","","99.78","","","","","","Mostly Cloudy"
"2006-05-24 09:00","2006","05","24","09:00","17.6","","6.8","","49","","24","","13","","24.1","","99.72","","","","","","Mainly Clear"
"2006-05-24 10:00","2006","05","24","10:00","18.8","","8.0","","49","","17","","11","","24.1","","99.68","","","","","","Mostly Cloudy"
"2006-05-24 11:00","2006","05","24","11:00","19.2","","7.8","","48","","16","","15","","24.1","","99.62","","","","","","Mainly Clear"
"2006-05-24 12:00","2006","05","24","12:00","20.0","","8.7","","48","","17","","15","","24.1","","99.53","","","","","","Mainly Clear"
"2006-05-24 13:00","2006","05","24","13:00","20.4","","9.1","","48","","15","","17","","24.1","","99.50","","","","","","Mostly Cloudy"
"2006-05-24 14:00","2006","05","24","14:00","20.6","","10.0","","51","","14","","20","","24.1","","99.40","","","","","","Mostly Cloudy"
"2006-05-24 15:00","2006","05","24","15:00","20.3","","9.1","","49","","15","","22","","24.1","","99.34","","","","","","Mostly Cloudy"
"2006-05-24 16:00","2006","05","24","16:00","20.3","","10.0","","52","","13","","19","","24.1","","99.27","","","","","","Cloudy"
"2006-05-24 17:00","2006","05","24","17:00","20.3","","11.3","","56","","26","","15","","24.1","","99.25","","","","","","Cloudy"
"2006-05-24 18:00","2006","05","24","18:00","20.8","","8.0","","44","","28","","13","","24.1","","99.22","","","","","","Cloudy"
"2006-05-24 19:00","2006","05","24","19:00","20.2","","8.6","","47","","28","","15","","24.1","","99.18","","","","","","Mostly Cloudy"
"2006-05-24 20:00","2006","05","24","20:00","18.1","","8.2","","52","","26","","6","","24.1","","99.13","","","","","","Cloudy"
"2006-05-24 21:00","2006","05","24","21:00","18.6","","8.5","","52","","23","","6","","24.1","","99.18","","","","","","Mostly Cloudy"
"2006-05-24 22:00","2006","05","24","22:00","17.1","","8.9","","58","","25","","9","","24.1","","99.18","","","","","","Mainly Clear"
"2006-05-24 23:00","2006","05","24","23:00","17.4","","8.4","","55","","","","0","","24.1","","99.11","","","","","","Mostly Cloudy"
"2006-05-25 00:00","2006","05","25","00:00","16.6","","7.2","","54","","14","","6","","24.1","","99.06","","","","","","Mostly Cloudy"
"2006-05-25 01:00","2006","05","25","01:00","15.2","","7.6","","60","","16","","7","","24.1","","99.02","","","","","","Mostly Cloudy"
"2006-05-25 02:00","2006","05","25","02:00","13.7","","7.4","","66","","15","","7","","24.1","","98.94","","","","","","Mainly Clear"
"2006-05-25 03:00","2006","05","25","03:00","13.1","","7.4","","68","","14","","4","","24.1","","98.91","","","","","","Mostly Cloudy"
"2006-05-25 04:00","2006","05","25","04:00","12.7","","7.2","","69","","11","","7","","24.1","","98.84","","","","","","Mostly Cloudy"
"2006-05-25 05:00","2006","05","25","05:00","12.6","","7.6","","72","","10","","4","","19.3","","98.86","","","","","","Mostly Cloudy"
"2006-05-25 06:00","2006","05","25","06:00","13.1","","7.0","","66","","15","","7","","19.3","","98.85","","","","","","Mostly Cloudy"
"2006-05-25 07:00","2006","05","25","07:00","14.7","","7.5","","62","","14","","9","","16.1","","98.86","","","","","","Mostly Cloudy"
"2006-05-25 08:00","2006","05","25","08:00","15.6","","8.4","","62","","16","","9","","19.3","","98.82","","","","","","Cloudy"
"2006-05-25 09:00","2006","05","25","09:00","15.6","","8.6","","63","","17","","11","","24.1","","98.79","","","","","","Cloudy"
"2006-05-25 10:00","2006","05","25","10:00","16.3","","9.3","","63","","17","","11","","24.1","","98.80","","","","","","Cloudy"
"2006-05-25 11:00","2006","05","25","11:00","17.6","","10.9","","65","","20","","13","","24.1","","98.72","","","","","","Mostly Cloudy"
"2006-05-25 12:00","2006","05","25","12:00","19.1","","11.3","","61","","15","","20","","24.1","","98.66","","","","","","Mostly Cloudy"
"2006-05-25 13:00","2006","05","25","13:00","19.9","","11.9","","60","","14","","17","","24.1","","98.61","","","","","","Mostly Cloudy"
"2006-05-25 14:00","2006","05","25","14:00","19.6","","11.8","","61","","17","","15","","24.1","","98.59","","","","","","Cloudy"
"2006-05-25 15:00","2006","05","25","15:00","19.0","","11.9","","63","","16","","15","","24.1","","98.54","","","","","","Mostly Cloudy"
"2006-05-25 16:00","2006","05","25","16:00","19.5","","12.7","","65","","16","","20","","24.1","","98.48","","","","","","Mostly Cloudy"
"2006-05-25 17:00","2006","05","25","17:00","19.4","","12.5","","64","","16","","13","","24.1","","98.38","","","","","","Mainly Clear"
"2006-05-25 18:00","2006","05","25","18:00","18.9","","12.3","","66","","14","","15","","24.1","","98.34","","","","","","Mainly Clear"
"2006-05-25 19:00","2006","05","25","19:00","18.1","","11.9","","67","","13","","11","","24.1","","98.30","","","","","","Mainly Clear"
"2006-05-25 20:00","2006","05","25","20:00","16.9","","11.3","","70","","16","","9","","24.1","","98.33","","","","","","Mainly Clear"
"2006-05-25 21:00","2006","05","25","21:00","15.5","","10.5","","72","","15","","6","","24.1","","98.37","","","","","","Mostly Cloudy"
"2006-05-25 22:00","2006","05","25","22:00","15.6","","11.2","","75","","","","0","","24.1","","98.35","","","","","","Mainly Clear"
"2006-05-25 23:00","2006","05","25","23:00","16.2","","10.8","","70","","9","","6","","24.1","","98.30","","","","","","Mostly Cloudy"
"2006-05-26 00:00","2006","05","26","00:00","15.0","","10.7","","75","","15","","6","","24.1","","98.31","","","","","","Mostly Cloudy"
"2006-05-26 01:00","2006","05","26","01:00","14.9","","10.8","","76","","12","","4","","24.1","","98.23","","","","","","Mostly Cloudy"
"2006-05-26 02:00","2006","05","26","02:00","14.3","","10.8","","79","","","","0","","24.1","","98.18","","","","","","Cloudy"
"2006-05-26 03:00","2006","05","26","03:00","14.5","","11.6","","83","","16","","7","","24.1","","98.16","","","","","","Rain"
"2006-05-26 04:00","2006","05","26","04:00","14.0","","12.2","","89","","5","","4","","14.5","","98.12","","","","","","Mostly Cloudy"
"2006-05-26 05:00","2006","05","26","05:00","13.9","","12.4","","91","","16","","9","","4.8","","98.15","","","","","","Fog"
"2006-05-26 06:00","2006","05","26","06:00","14.1","","12.8","","92","","14","","7","","4.8","","98.17","","","","","","Rain Showers,Fog"
"2006-05-26 07:00","2006","05","26","07:00","13.7","","12.7","","94","","15","","7","","2.0","","98.17","","","","","","Rain,Fog"
"2006-05-26 08:00","2006","05","26","08:00","14.3","","13.8","","97","","13","","7","","1.6","","98.15","","","","","","Rain,Fog"
"2006-05-26 09:00","2006","05","26","09:00","15.0","","14.5","","97","","13","","9","","1.6","","98.11","","","","","","Drizzle,Fog"
"2006-05-26 10:00","2006","05","26","10:00","16.2","","15.9","","98","","10","","7","","4.8","","98.10","","","","","","Drizzle,Fog"
"2006-05-26 11:00","2006","05","26","11:00","16.5","","15.9","","96","","8","","7","","4.8","","98.10","","","","","","Rain Showers,Fog"
"2006-05-26 12:00","2006","05","26","12:00","17.1","","16.5","","96","","10","","9","","9.7","","98.07","","","","","","Rain Showers,Fog"
"2006-05-26 13:00","2006","05","26","13:00","18.3","","17.1","","93","","10","","7","","16.1","","98.06","","","","","","Rain Showers"
"2006-05-26 14:00","2006","05","26","14:00","18.7","","16.4","","86","","6","","7","","16.1","","98.07","","","","","","Cloudy"
"2006-05-26 15:00","2006","05","26","15:00","18.6","","16.0","","85","","4","","6","","16.1","","98.09","","","","","","Cloudy"
"2006-05-26 16:00","2006","05","26","16:00","18.8","","16.1","","84","","3","","6","","19.3","","98.12","","","","","","Cloudy"
"2006-05-26 17:00","2006","05","26","17:00","18.7","","16.0","","84","","4","","9","","24.1","","98.13","","","","","","Cloudy"
"2006-05-26 18:00","2006","05","26","18:00","19.0","","16.4","","85","","3","","7","","19.3","","98.20","","","","","","Cloudy"
"2006-05-26 19:00","2006","05","26","19:00","17.4","","15.4","","88","","21","","4","","8.0","","98.27","","","","","","Fog"
"2006-05-26 20:00","2006","05","26","20:00","18.2","","15.7","","85","","36","","7","","16.1","","98.36","","","","","","Mainly Clear"
"2006-05-26 21:00","2006","05","26","21:00","18.0","","15.9","","88","","34","","9","","11.3","","98.44","","","","","","Mostly Cloudy"
"2006-05-26 22:00","2006","05","26","22:00","17.3","","15.6","","90","","36","","13","","11.3","","98.49","","","","","","Mainly Clear"
"2006-05-26 23:00","2006","05","26","23:00","16.6","","15.3","","92","","35","","19","","12.9","","98.56","","","","","","Mostly Cloudy"
"2006-05-27 00:00","2006","05","27","00:00","16.1","","14.8","","92","","34","","19","","12.9","","98.61","","","","","","Mainly Clear"
"2006-05-27 01:00","2006","05","27","01:00","15.4","","14.1","","92","","36","","20","","12.9","","98.67","","","","","","Mainly Clear"
"2006-05-27 02:00","2006","05","27","02:00","14.8","","13.7","","93","","34","","19","","16.1","","98.72","","","","","","Mainly Clear"
"2006-05-27 03:00","2006","05","27","03:00","14.6","","13.4","","93","","35","","19","","16.1","","98.74","","","","","","Mainly Clear"
"2006-05-27 04:00","2006","05","27","04:00","14.5","","13.1","","91","","36","","22","","24.1","","98.80","","","","","","Clear"
"2006-05-27 05:00","2006","05","27","05:00","14.2","","12.6","","90","","35","","20","","24.1","","98.90","","","","","","Clear"
"2006-05-27 06:00","2006","05","27","06:00","14.3","","12.5","","89","","35","","22","","24.1","","99.06","","","","","","Mainly Clear"
"2006-05-27 07:00","2006","05","27","07:00","15.1","","12.5","","84","","35","","19","","24.1","","99.14","","","","","","Clear"
"2006-05-27 08:00","2006","05","27","08:00","16.2","","12.9","","81","","36","","22","","24.1","","99.19","","","","","","Clear"
"2006-05-27 09:00","2006","05","27","09:00","17.8","","13.7","","77","","36","","13","","24.1","","99.23","","","","","","Clear"
"2006-05-27 10:00","2006","05","27","10:00","19.2","","14.5","","74","","34","","20","","24.1","","99.27","","","","","","Clear"
"2006-05-27 11:00","2006","05","27","11:00","20.9","","14.7","","68","","34","","20","","24.1","","99.34","","25","","","","Clear"
"2006-05-27 12:00","2006","05","27","12:00","22.1","","15.6","","67","","36","","11","","24.1","","99.36","","26","","","","Clear"
"2006-05-27 13:00","2006","05","27","13:00","22.8","","15.7","","64","","3","","20","","24.1","","99.35","","27","","","","Clear"
"2006-05-27 14:00","2006","05","27","14:00","23.3","","14.5","","58","","2","","19","","24.1","","99.38","","27","","","","Mainly Clear"
"2006-05-27 15:00","2006","05","27","15:00","23.5","","13.7","","54","","1","","24","","24.1","","99.37","","27","","","","Mostly Cloudy"
"2006-05-27 16:00","2006","05","27","16:00","23.7","","13.4","","52","","4","","11","","24.1","","99.36","","27","","","","Mostly Cloudy"
"2006-05-27 17:00","2006","05","27","17:00","21.8","","13.6","","60","","16","","11","","24.1","","99.41","","25","","","","Mostly Cloudy"
"2006-05-27 18:00","2006","05","27","18:00","21.7","","14.1","","62","","16","","11","","24.1","","99.45","","25","","","","Mostly Cloudy"
"2006-05-27 19:00","2006","05","27","19:00","21.0","","13.7","","63","","15","","7","","24.1","","99.51","","","","","","Mostly Cloudy"
"2006-05-27 20:00","2006","05","27","20:00","19.5","","13.4","","68","","16","","7","","24.1","","99.58","","","","","","Mainly Clear"
"2006-05-27 21:00","2006","05","27","21:00","18.9","","13.6","","71","","10","","4","","24.1","","99.62","","","","","","Mainly Clear"
"2006-05-27 22:00","2006","05","27","22:00","18.1","","13.3","","74","","","","0","","24.1","","99.67","","","","","","Mainly Clear"
"2006-05-27 23:00","2006","05","27","23:00","17.7","","12.9","","73","","","","0","","24.1","","99.69","","","","","","Mainly Clear"
"2006-05-28 00:00","2006","05","28","00:00","16.7","","12.5","","76","","","","0","","24.1","","99.72","","","","","","Clear"
"2006-05-28 01:00","2006","05","28","01:00","16.2","","12.2","","77","","","","0","","19.3","","99.73","","","","","","Clear"
"2006-05-28 02:00","2006","05","28","02:00","16.3","","12.6","","79","","10","","7","","19.3","","99.74","","","","","","Clear"
"2006-05-28 03:00","2006","05","28","03:00","15.4","","12.8","","84","","","","0","","19.3","","99.74","","","","","","Clear"
"2006-05-28 04:00","2006","05","28","04:00","14.4","","12.6","","89","","","","0","","16.1","","99.81","","","","","","Clear"
"2006-05-28 05:00","2006","05","28","05:00","14.1","","12.1","","88","","","","0","","6.4","","99.86","","","","","","Fog"
"2006-05-28 06:00","2006","05","28","06:00","14.3","","13.0","","92","","","","0","","6.4","","99.94","","","","","","Fog"
"2006-05-28 07:00","2006","05","28","07:00","16.7","","15.0","","90","","7","","6","","6.4","","99.97","","","","","","Fog"
"2006-05-28 08:00","2006","05","28","08:00","18.0","","15.4","","85","","14","","7","","6.4","","100.01","","","","","","Haze"
"2006-05-28 09:00","2006","05","28","09:00","17.4","","14.9","","85","","16","","11","","8.0","","100.04","","","","","","Haze"
"2006-05-28 10:00","2006","05","28","10:00","19.7","","16.4","","81","","16","","7","","8.0","","100.04","","","","","","Haze"
"2006-05-28 11:00","2006","05","28","11:00","21.9","","17.0","","74","","16","","11","","8.0","","100.01","","27","","","","Haze"
"2006-05-28 12:00","2006","05","28","12:00","22.4","","16.8","","71","","16","","19","","11.3","","99.96","","28","","","","Mostly Cloudy"
"2006-05-28 13:00","2006","05","28","13:00","22.3","","17.8","","76","","16","","13","","11.3","","100.02","","28","","","","Mostly Cloudy"
"2006-05-28 14:00","2006","05","28","14:00","24.4","","18.8","","71","","15","","15","","9.7","","99.96","","31","","","","Haze"
"2006-05-28 15:00","2006","05","28","15:00","22.9","","17.6","","72","","16","","20","","9.7","","99.77","","29","","","","Haze"
"2006-05-28 16:00","2006","05","28","16:00","21.2","","16.3","","74","","17","","17","","9.7","","99.75","","26","","","","Haze"
"2006-05-28 17:00","2006","05","28","17:00","22.3","","17.0","","72","","15","","13","","9.7","","99.73","","28","","","","Haze"
"2006-05-28 18:00","2006","05","28","18:00","21.8","","16.2","","70","","16","","11","","19.3","","99.71","","27","","","","Mostly Cloudy"
"2006-05-28 19:00","2006","05","28","19:00","19.8","","14.9","","73","","17","","17","","16.1","","99.73","","","","","","Mostly Cloudy"
"2006-05-28 20:00","2006","05","28","20:00","19.3","","14.6","","74","","16","","11","","14.5","","99.74","","","","","","Mostly Cloudy"
"2006-05-28 21:00","2006","05","28","21:00","18.2","","14.3","","78","","14","","6","","19.3","","99.77","","","","","","Mostly Cloudy"
"2006-05-28 22:00","2006","05","28","22:00","18.1","","14.1","","77","","20","","4","","19.3","","99.78","","","","","","Mainly Clear"
"2006-05-28 23:00","2006","05","28","23:00","18.0","","14.2","","78","","18","","6","","19.3","","99.75","","","","","","Clear"
"2006-05-29 00:00","2006","05","29","00:00","18.6","","15.1","","80","","","","0","","19.3","","99.76","","","","","","Mainly Clear"
"2006-05-29 01:00","2006","05","29","01:00","19.0","","15.8","","82","","16","","7","","19.3","","99.69","","","","","","Mainly Clear"
"2006-05-29 02:00","2006","05","29","02:00","18.1","","15.3","","84","","","","0","","16.1","","99.70","","","","","","Clear"
"2006-05-29 03:00","2006","05","29","03:00","18.8","","16.3","","85","","25","","11","","16.1","","99.73","","","","","","Clear"
"2006-05-29 04:00","2006","05","29","04:00","18.5","","15.8","","84","","26","","7","","16.1","","99.72","","","","","","Clear"
"2006-05-29 05:00","2006","05","29","05:00","20.0","","16.7","","81","","23","","6","","12.9","","99.75","","25","","","","Clear"
"2006-05-29 06:00","2006","05","29","06:00","20.7","","17.4","","81","","25","","7","","24.1","","99.80","","26","","","","Clear"
"2006-05-29 07:00","2006","05","29","07:00","22.9","","18.3","","75","","26","","11","","24.1","","99.82","","29","","","","Mainly Clear"
"2006-05-29 08:00","2006","05","29","08:00","25.8","","19.6","","69","","27","","13","","24.1","","99.83","","33","","","","Mainly Clear"
"2006-05-29 09:00","2006","05","29","09:00","27.6","","21.2","","68","","27","","11","","24.1","","99.80","","36","","","","Clear"
"2006-05-29 10:00","2006","05","29","10:00","30.1","","22.5","","64","","28","","11","","24.1","","99.79","","40","","","","Clear"
"2006-05-29 11:00","2006","05","29","11:00","31.5","","20.9","","53","","33","","17","","24.1","","99.81","","40","","","","Mainly Clear"
"2006-05-29 12:00","2006","05","29","12:00","32.4","","20.7","","50","","31","","24","","24.1","","99.80","","41","","","","Mainly Clear"
"2006-05-29 13:00","2006","05","29","13:00","32.9","","21.4","","51","","30","","20","","24.1","","99.76","","42","","","","Mainly Clear"
"2006-05-29 14:00","2006","05","29","14:00","33.2","","21.2","","49","","31","","11","","24.1","","99.71","","42","","","","Mainly Clear"
"2006-05-29 15:00","2006","05","29","15:00","33.3","","20.8","","48","","33","","11","","24.1","","99.69","","42","","","","Mainly Clear"
"2006-05-29 16:00","2006","05","29","16:00","33.9","","19.9","","44","","30","","11","","24.1","","99.64","","41","","","","Mainly Clear"
"2006-05-29 17:00","2006","05","29","17:00","33.0","","19.7","","46","","27","","6","","24.1","","99.63","","40","","","","Mainly Clear"
"2006-05-29 18:00","2006","05","29","18:00","30.5","","19.9","","53","","14","","9","","24.1","","99.61","","38","","","","Mainly Clear"
"2006-05-29 19:00","2006","05","29","19:00","29.8","","21.0","","59","","15","","7","","24.1","","99.59","","38","","","","Mainly Clear"
"2006-05-29 20:00","2006","05","29","20:00","28.5","","20.9","","63","","15","","4","","24.1","","99.61","","37","","","","Mainly Clear"
"2006-05-29 21:00","2006","05","29","21:00","27.7","","19.4","","61","","29","","13","","24.1","","99.64","","35","","","","Mainly Clear"
"2006-05-29 22:00","2006","05","29","22:00","28.7","","18.3","","53","","31","","20","","24.1","","99.65","","35","","","","Clear"
"2006-05-29 23:00","2006","05","29","23:00","27.1","","18.9","","61","","32","","13","","24.1","","99.68","","34","","","","Clear"
"2006-05-30 00:00","2006","05","30","00:00","23.2","","18.3","","74","","27","","13","","24.1","","99.73","","29","","","","Clear"
"2006-05-30 01:00","2006","05","30","01:00","24.6","","18.6","","69","","33","","11","","24.1","","99.78","","31","","","","Clear"
"2006-05-30 02:00","2006","05","30","02:00","23.9","","18.2","","70","","32","","15","","24.1","","99.80","","30","","","","Clear"
"2006-05-30 03:00","2006","05","30","03:00","22.7","","18.0","","75","","31","","7","","24.1","","99.76","","29","","","","Clear"
"2006-05-30 04:00","2006","05","30","04:00","22.8","","18.1","","75","","34","","4","","24.1","","99.77","","29","","","","Mainly Clear"
"2006-05-30 05:00","2006","05","30","05:00","22.2","","18.0","","77","","5","","4","","24.1","","99.79","","28","","","","Mostly Cloudy"
"2006-05-30 06:00","2006","05","30","06:00","23.8","","20.2","","80","","","","0","","24.1","","99.81","","32","","","","Mostly Cloudy"
"2006-05-30 07:00","2006","05","30","07:00","26.3","","21.2","","74","","12","","4","","24.1","","99.85","","35","","","","Mostly Cloudy"
"2006-05-30 08:00","2006","05","30","08:00","27.5","","21.1","","68","","18","","6","","24.1","","99.86","","36","","","","Mostly Cloudy"
"2006-05-30 09:00","2006","05","30","09:00","28.1","","21.0","","65","","14","","7","","24.1","","99.87","","37","","","","Mostly Cloudy"
"2006-05-30 10:00","2006","05","30","10:00","29.3","","21.0","","61","","20","","7","","24.1","","99.84","","38","","","","Mostly Cloudy"
"2006-05-30 11:00","2006","05","30","11:00","30.7","","22.2","","61","","22","","7","","24.1","","99.85","","40","","","","Mostly Cloudy"
"2006-05-30 12:00","2006","05","30","12:00","31.7","","21.4","","54","","20","","9","","24.1","","99.83","","40","","","","Mostly Cloudy"
"2006-05-30 13:00","2006","05","30","13:00","32.0","","21.0","","52","","17","","17","","24.1","","99.79","","40","","","","Mostly Cloudy"
"2006-05-30 14:00","2006","05","30","14:00","32.8","","22.5","","55","","16","","13","","24.1","","99.75","","43","","","","Mostly Cloudy"
"2006-05-30 15:00","2006","05","30","15:00","32.0","","21.2","","53","","19","","19","","24.1","","99.68","","41","","","","Mainly Clear"
"2006-05-30 16:00","2006","05","30","16:00","31.6","","19.7","","49","","20","","19","","24.1","","99.66","","39","","","","Mostly Cloudy"
"2006-05-30 17:00","2006","05","30","17:00","30.7","","19.4","","51","","19","","15","","24.1","","99.63","","38","","","","Mostly Cloudy"
"2006-05-30 18:00","2006","05","30","18:00","30.2","","19.0","","51","","19","","11","","24.1","","99.57","","37","","","","Mostly Cloudy"
"2006-05-30 19:00","2006","05","30","19:00","30.0","","19.3","","53","","19","","9","","24.1","","99.59","","37","","","","Mostly Cloudy"
"2006-05-30 20:00","2006","05","30","20:00","28.1","","19.8","","61","","26","","15","","24.1","","99.61","","36","","","","Mainly Clear"
"2006-05-30 21:00","2006","05","30","21:00","26.6","","20.0","","67","","27","","7","","24.1","","99.69","","34","","","","Mainly Clear"
"2006-05-30 22:00","2006","05","30","22:00","26.5","","20.4","","69","","","","0","","24.1","","99.71","","34","","","","Clear"
"2006-05-30 23:00","2006","05","30","23:00","25.4","","19.5","","70","","36","","4","","24.1","","99.72","","33","","","","Clear"
"2006-05-31 00:00","2006","05","31","00:00","24.5","","19.6","","74","","","","0","","24.1","","99.72","","32","","","","Clear"
"2006-05-31 01:00","2006","05","31","01:00","23.5","","19.2","","77","","","","0","","24.1","","99.70","","30","","","","Mainly Clear"
"2006-05-31 02:00","2006","05","31","02:00","22.2","","19.2","","83","","30","","13","","19.3","","99.72","","29","","","","Mostly Cloudy"
"2006-05-31 03:00","2006","05","31","03:00","21.9","","19.6","","87","","2","","4","","19.3","","99.69","","29","","","","Mainly Clear"
"2006-05-31 04:00","2006","05","31","04:00","21.7","","19.4","","87","","","","0","","19.3","","99.71","","29","","","","Mostly Cloudy"
"2006-05-31 05:00","2006","05","31","05:00","21.9","","19.0","","84","","","","0","","12.9","","99.73","","29","","","","Mostly Cloudy"
"2006-05-31 06:00","2006","05","31","06:00","22.7","","20.1","","85","","26","","4","","8.0","","99.78","","30","","","","Haze"
"2006-05-31 07:00","2006","05","31","07:00","23.3","","20.2","","83","","31","","22","","8.0","","99.84","","31","","","","Haze"
"2006-05-31 08:00","2006","05","31","08:00","23.2","","18.6","","75","","4","","7","","11.3","","99.82","","30","","","","Cloudy"
"2006-05-31 09:00","2006","05","31","09:00","23.6","","18.8","","74","","9","","4","","12.9","","99.82","","30","","","","Cloudy"
"2006-05-31 10:00","2006","05","31","10:00","23.6","","19.2","","76","","16","","11","","8.0","","99.77","","31","","","","Haze"
"2006-05-31 11:00","2006","05","31","11:00","26.1","","19.9","","69","","32","","15","","8.0","","99.86","","34","","","","Haze"
"2006-05-31 12:00","2006","05","31","12:00","25.8","","19.2","","67","","3","","9","","12.9","","99.79","","33","","","","Mostly Cloudy"
"2006-05-31 13:00","2006","05","31","13:00","27.9","","20.6","","65","","12","","9","","11.3","","99.73","","36","","","","Mostly Cloudy"
"2006-05-31 14:00","2006","05","31","14:00","27.3","","19.6","","63","","13","","13","","9.7","","99.66","","35","","","","Haze"
"2006-05-31 15:00","2006","05","31","15:00","28.0","","19.8","","61","","13","","7","","8.0","","99.60","","35","","","","Haze"
"2006-05-31 16:00","2006","05","31","16:00","25.8","","18.6","","64","","35","","9","","16.1","","99.55","","32","","","","Thunderstorms,Rain Showers"
"2006-05-31 17:00","2006","05","31","17:00","23.8","","20.0","","79","","","","0","","8.0","","99.58","","31","","","","Haze"
"2006-05-31 18:00","2006","05","31","18:00","21.7","","19.4","","87","","3","","9","","11.3","","99.63","","29","","","","Thunderstorms,Rain Showers"
"2006-05-31 19:00","2006","05","31","19:00","21.5","","19.9","","91","","","","0","","9.7","","99.61","","29","","","","Rain"
"2006-05-31 20:00","2006","05","31","20:00","22.2","","20.2","","88","","23","","7","","8.0","","99.59","","30","","","","Rain"
"2006-05-31 21:00","2006","05","31","21:00","21.4","","20.0","","92","","30","","6","","11.3","","99.62","","29","","","","Mostly Cloudy"
"2006-05-31 22:00","2006","05","31","22:00","21.5","","20.0","","91","","4","","7","","8.0","","99.68","","29","","","","Fog"
"2006-05-31 23:00","2006","05","31","23:00","20.7","","19.6","","93","","36","","6","","9.7","","99.69","","28","","","","Fog"
