"Station Name","TORONTO LESTER B. PEARSON INT'L A"
"Province","ONTARIO"
"Latitude","43.68"
"Longitude","-79.63"
"Elevation","173.40"
"Climate Identifier","6158733"
"WMO Identifier","71624"
"TC Identifier","YYZ"
"All times are specified in Local Standard Time (LST). Add 1 hour to adjust for Daylight Saving Time where and when it is observed."

"Legend"
"E","Estimated"
"M","Missing"
"NA","Not Available"

"Date/Time","Year","Month","Day","Time","Temp (°C)","Temp Flag","Dew Point Temp (°C)","Dew Point Temp Flag","Rel Hum (%)","Rel Hum Flag","Wind Dir (10s deg)","Wind Dir Flag","Wind Spd (km/h)","Wind Spd Flag","Visibility (km)","Visibility Flag","Stn Press (kPa)","Stn Press Flag","Hmdx","Hmdx Flag","Wind Chill","Wind Chill Flag","Weather"
"1992-09-01 00:00","1992","09","01","00:00","10.3","","8.7","","90","","27","","4","","25.0","","99.81","","","","","","Mainly Clear"
"1992-09-01 01:00","1992","09","01","01:00","11.3","","9.3","","87","","28","","7","","25.0","","99.84","","","","","","Mainly Clear"
"1992-09-01 02:00","1992","09","01","02:00","11.2","","9.2","","87","","28","","9","","25.0","","99.84","","","","","","Mainly Clear"
"1992-09-01 03:00","1992","09","01","03:00","10.5","","9.0","","90","","27","","7","","25.0","","99.84","","","","","","Mainly Clear"
"1992-09-01 04:00","1992","09","01","04:00","9.9","","8.9","","93","","","","0","","25.0","","99.87","","","","","","Mainly Clear"
"1992-09-01 05:00","1992","09","01","05:00","9.2","","7.5","","89","","31","","4","","25.0","","99.91","","","","","","Mainly Clear"
"1992-09-01 06:00","1992","09","01","06:00","10.0","","8.5","","90","","","","0","","40.2","","100.01","","","","","","Mostly Cloudy"
"1992-09-01 07:00","1992","09","01","07:00","11.8","","10.6","","93","","32","","6","","40.2","","100.04","","","","","","Mostly Cloudy"
"1992-09-01 08:00","1992","09","01","08:00","13.1","","10.2","","83","","33","","4","","40.2","","100.07","","","","","","Mostly Cloudy"
"1992-09-01 09:00","1992","09","01","09:00","15.3","","10.7","","74","","2","","4","","40.2","","100.11","","","","","","Mostly Cloudy"
"1992-09-01 10:00","1992","09","01","10:00","16.3","","10.7","","70","","1","","4","","40.2","","100.11","","","","","","Mainly Clear"
"1992-09-01 11:00","1992","09","01","11:00","18.1","","10.1","","60","","31","","6","","40.2","","100.11","","","","","","Mainly Clear"
"1992-09-01 12:00","1992","09","01","12:00","18.5","","11.1","","62","","30","","17","","40.2","","100.07","","","","","","Mostly Cloudy"
"1992-09-01 13:00","1992","09","01","13:00","19.5","","10.8","","57","","31","","17","","40.2","","100.07","","","","","","Mainly Clear"
"1992-09-01 14:00","1992","09","01","14:00","20.4","","11.6","","57","","30","","19","","40.2","","100.07","","","","","","Mainly Clear"
"1992-09-01 15:00","1992","09","01","15:00","19.9","","11.4","","58","","27","","19","","40.2","","100.01","","","","","","Mainly Clear"
"1992-09-01 16:00","1992","09","01","16:00","20.4","","13.1","","63","","31","","15","","40.2","","100.01","","","","","","Mainly Clear"
"1992-09-01 17:00","1992","09","01","17:00","20.2","","12.1","","60","","33","","13","","40.2","","100.01","","","","","","Mainly Clear"
"1992-09-01 18:00","1992","09","01","18:00","18.5","","11.9","","65","","33","","7","","40.2","","100.01","","","","","","Mainly Clear"
"1992-09-01 19:00","1992","09","01","19:00","16.5","","10.7","","69","","36","","17","","25.0","","100.04","","","","","","Mainly Clear"
"1992-09-01 20:00","1992","09","01","20:00","14.6","","9.6","","72","","36","","13","","25.0","","100.11","","","","","","Mainly Clear"
"1992-09-01 21:00","1992","09","01","21:00","13.0","","9.4","","79","","36","","11","","25.0","","100.17","","","","","","Mainly Clear"
"1992-09-01 22:00","1992","09","01","22:00","11.2","","8.4","","83","","35","","7","","24.1","","100.17","","","","","","Clear"
"1992-09-01 23:00","1992","09","01","23:00","9.8","","7.7","","87","","34","","6","","24.1","","100.17","","","","","","Clear"
"1992-09-02 00:00","1992","09","02","00:00","9.5","","7.6","","88","","33","","7","","24.1","","100.21","","","","","","Clear"
"1992-09-02 01:00","1992","09","02","01:00","8.4","","7.0","","91","","","","0","","24.1","","100.21","","","","","","Clear"
"1992-09-02 02:00","1992","09","02","02:00","9.2","","6.3","","82","","","","0","","25.0","","100.17","","","","","","Mainly Clear"
"1992-09-02 03:00","1992","09","02","03:00","8.2","","6.0","","86","","","","0","","25.0","","100.17","","","","","","Mainly Clear"
"1992-09-02 04:00","1992","09","02","04:00","8.0","","6.0","","87","","","","0","","25.0","","100.17","","","","","","Mostly Cloudy"
"1992-09-02 05:00","1992","09","02","05:00","8.2","","6.0","","86","","","","0","","25.0","","100.21","","","","","","Mainly Clear"
"1992-09-02 06:00","1992","09","02","06:00","7.1","","5.8","","91","","32","","6","","32.2","","100.21","","","","","","Mainly Clear"
"1992-09-02 07:00","1992","09","02","07:00","8.9","","7.1","","89","","","","0","","32.2","","100.21","","","","","","Mainly Clear"
"1992-09-02 08:00","1992","09","02","08:00","13.6","","6.3","","61","","","","0","","32.2","","100.17","","","","","","Mostly Cloudy"
"1992-09-02 09:00","1992","09","02","09:00","15.7","","7.9","","60","","15","","7","","24.1","","100.17","","","","","","Mostly Cloudy"
"1992-09-02 10:00","1992","09","02","10:00","17.3","","10.3","","63","","13","","9","","24.1","","100.17","","","","","","Mainly Clear"
"1992-09-02 11:00","1992","09","02","11:00","17.8","","10.9","","64","","13","","7","","24.1","","100.11","","","","","","Mainly Clear"
"1992-09-02 12:00","1992","09","02","12:00","18.8","","11.7","","64","","14","","11","","24.1","","100.07","","","","","","Mostly Cloudy"
"1992-09-02 13:00","1992","09","02","13:00","19.2","","12.1","","63","","14","","7","","24.1","","100.01","","","","","","Mostly Cloudy"
"1992-09-02 14:00","1992","09","02","14:00","20.6","","12.7","","61","","16","","11","","24.1","","99.94","","","","","","Mostly Cloudy"
"1992-09-02 15:00","1992","09","02","15:00","20.5","","12.7","","61","","15","","13","","24.1","","99.87","","","","","","Mostly Cloudy"
"1992-09-02 16:00","1992","09","02","16:00","20.3","","13.1","","63","","14","","13","","24.1","","99.81","","","","","","Mostly Cloudy"
"1992-09-02 17:00","1992","09","02","17:00","19.0","","12.5","","66","","12","","15","","24.1","","99.77","","","","","","Mostly Cloudy"
"1992-09-02 18:00","1992","09","02","18:00","17.2","","8.5","","57","","11","","19","","24.1","","99.74","","","","","","Cloudy"
"1992-09-02 19:00","1992","09","02","19:00","16.9","","8.5","","58","","13","","4","","25.0","","99.77","","","","","","Cloudy"
"1992-09-02 20:00","1992","09","02","20:00","16.2","","7.7","","57","","11","","11","","24.1","","99.71","","","","","","Rain Showers"
"1992-09-02 21:00","1992","09","02","21:00","16.6","","9.5","","63","","11","","19","","24.1","","99.61","","","","","","Cloudy"
"1992-09-02 22:00","1992","09","02","22:00","16.7","","11.8","","73","","11","","11","","24.1","","99.51","","","","","","Cloudy"
"1992-09-02 23:00","1992","09","02","23:00","17.2","","13.8","","80","","12","","7","","19.3","","99.44","","","","","","Cloudy"
"1992-09-03 00:00","1992","09","03","00:00","17.1","","15.4","","90","","13","","13","","12.9","","99.34","","","","","","Rain Showers"
"1992-09-03 01:00","1992","09","03","01:00","16.5","","15.6","","94","","14","","13","","8.0","","99.24","","","","","","Rain Showers,Fog"
"1992-09-03 02:00","1992","09","03","02:00","16.4","","16.2","","99","","11","","13","","2.0","","99.11","","","","","","Heavy Rain Showers,Fog"
"1992-09-03 03:00","1992","09","03","03:00","16.8","","16.7","","100","","13","","15","","3.2","","99.01","","","","","","Rain Showers,Fog"
"1992-09-03 04:00","1992","09","03","04:00","17.0","","16.7","","98","","13","","17","","2.8","","98.94","","","","","","Thunderstorms,Moderate Rain Showers,Fog"
"1992-09-03 05:00","1992","09","03","05:00","17.5","","17.5","","100","","16","","7","","2.4","","98.91","","","","","","Fog"
"1992-09-03 06:00","1992","09","03","06:00","17.7","","17.2","","97","","17","","6","","1.6","","98.97","","","","","","Fog"
"1992-09-03 07:00","1992","09","03","07:00","19.1","","18.4","","96","","21","","11","","2.4","","98.97","","","","","","Fog"
"1992-09-03 08:00","1992","09","03","08:00","20.7","","19.3","","91","","22","","13","","3.6","","99.01","","28","","","","Fog"
"1992-09-03 09:00","1992","09","03","09:00","20.9","","19.8","","93","","23","","11","","4.0","","99.01","","28","","","","Rain Showers,Fog"
"1992-09-03 10:00","1992","09","03","10:00","20.0","","19.7","","98","","24","","11","","4.0","","99.01","","27","","","","Rain Showers,Fog"
"1992-09-03 11:00","1992","09","03","11:00","20.4","","19.6","","95","","22","","6","","4.8","","99.04","","28","","","","Fog"
"1992-09-03 12:00","1992","09","03","12:00","20.2","","19.1","","93","","22","","15","","6.4","","99.11","","27","","","","Fog"
"1992-09-03 13:00","1992","09","03","13:00","21.3","","19.8","","91","","23","","15","","9.7","","99.11","","29","","","","Fog"
"1992-09-03 14:00","1992","09","03","14:00","22.6","","19.9","","85","","22","","15","","8.0","","99.11","","30","","","","Haze"
"1992-09-03 15:00","1992","09","03","15:00","25.0","","20.8","","77","","24","","15","","11.3","","99.11","","33","","","","Mostly Cloudy"
"1992-09-03 16:00","1992","09","03","16:00","25.1","","17.6","","63","","28","","22","","16.1","","99.14","","31","","","","Mainly Clear"
"1992-09-03 17:00","1992","09","03","17:00","24.5","","16.4","","61","","28","","19","","24.1","","99.21","","29","","","","Mainly Clear"
"1992-09-03 18:00","1992","09","03","18:00","23.4","","16.2","","64","","29","","17","","24.1","","99.31","","28","","","","Clear"
"1992-09-03 19:00","1992","09","03","19:00","20.8","","16.1","","75","","29","","11","","24.1","","99.41","","25","","","","Clear"
"1992-09-03 20:00","1992","09","03","20:00","18.5","","15.7","","84","","31","","7","","19.3","","99.51","","","","","","Clear"
"1992-09-03 21:00","1992","09","03","21:00","17.2","","15.1","","87","","29","","4","","19.3","","99.57","","","","","","Clear"
"1992-09-03 22:00","1992","09","03","22:00","16.0","","14.7","","92","","34","","7","","19.3","","99.67","","","","","","Clear"
"1992-09-03 23:00","1992","09","03","23:00","16.0","","14.7","","92","","34","","11","","19.3","","99.77","","","","","","Mainly Clear"
"1992-09-04 00:00","1992","09","04","00:00","15.0","","13.7","","92","","34","","11","","19.3","","99.87","","","","","","Clear"
"1992-09-04 01:00","1992","09","04","01:00","13.5","","12.2","","92","","32","","11","","19.3","","99.94","","","","","","Clear"
"1992-09-04 02:00","1992","09","04","02:00","12.7","","10.4","","86","","33","","7","","24.1","","100.01","","","","","","Clear"
"1992-09-04 03:00","1992","09","04","03:00","12.0","","10.2","","89","","32","","7","","24.1","","100.07","","","","","","Clear"
"1992-09-04 04:00","1992","09","04","04:00","11.2","","9.2","","87","","32","","6","","24.1","","100.11","","","","","","Clear"
"1992-09-04 05:00","1992","09","04","05:00","10.4","","9.0","","91","","33","","4","","24.1","","100.17","","","","","","Clear"
"1992-09-04 06:00","1992","09","04","06:00","10.8","","9.6","","93","","33","","4","","40.2","","100.24","","","","","","Clear"
"1992-09-04 07:00","1992","09","04","07:00","11.9","","10.2","","90","","33","","7","","40.2","","100.34","","","","","","Clear"
"1992-09-04 08:00","1992","09","04","08:00","14.0","","10.9","","82","","34","","17","","40.2","","100.37","","","","","","Clear"
"1992-09-04 09:00","1992","09","04","09:00","15.7","","10.7","","72","","35","","17","","40.2","","100.44","","","","","","Clear"
"1992-09-04 10:00","1992","09","04","10:00","16.8","","10.5","","67","","1","","11","","40.2","","100.44","","","","","","Clear"
"1992-09-04 11:00","1992","09","04","11:00","18.5","","10.3","","59","","","","0","","40.2","","100.47","","","","","","Clear"
"1992-09-04 12:00","1992","09","04","12:00","19.4","","9.5","","53","","","","0","","40.2","","100.44","","","","","","Clear"
"1992-09-04 13:00","1992","09","04","13:00","20.5","","8.3","","45","","34","","4","","40.2","","100.41","","","","","","Mainly Clear"
"1992-09-04 14:00","1992","09","04","14:00","21.0","","11.0","","53","","16","","11","","40.2","","100.44","","","","","","Mainly Clear"
"1992-09-04 15:00","1992","09","04","15:00","20.7","","10.0","","50","","16","","7","","40.2","","100.47","","","","","","Mainly Clear"
"1992-09-04 16:00","1992","09","04","16:00","21.3","","10.0","","49","","18","","4","","40.2","","100.47","","","","","","Mainly Clear"
"1992-09-04 17:00","1992","09","04","17:00","20.0","","10.6","","55","","16","","9","","40.2","","100.44","","","","","","Clear"
"1992-09-04 18:00","1992","09","04","18:00","18.8","","10.5","","59","","16","","6","","40.2","","100.44","","","","","","Mainly Clear"
"1992-09-04 19:00","1992","09","04","19:00","17.6","","9.5","","59","","17","","7","","40.2","","100.47","","","","","","Mainly Clear"
"1992-09-04 20:00","1992","09","04","20:00","16.5","","8.3","","58","","","","0","","25.0","","100.54","","","","","","Clear"
"1992-09-04 21:00","1992","09","04","21:00","16.3","","8.3","","59","","","","0","","24.1","","100.54","","","","","","Clear"
"1992-09-04 22:00","1992","09","04","22:00","14.0","","9.4","","74","","","","0","","24.1","","100.57","","","","","","Clear"
"1992-09-04 23:00","1992","09","04","23:00","13.9","","9.4","","74","","","","0","","24.1","","100.57","","","","","","Clear"
"1992-09-05 00:00","1992","09","05","00:00","11.8","","9.9","","88","","","","0","","24.1","","100.57","","","","","","Clear"
"1992-09-05 01:00","1992","09","05","01:00","10.9","","9.9","","94","","33","","7","","24.1","","100.57","","","","","","Clear"
"1992-09-05 02:00","1992","09","05","02:00","10.4","","9.0","","91","","35","","7","","24.1","","100.57","","","","","","Clear"
"1992-09-05 03:00","1992","09","05","03:00","9.8","","8.9","","94","","34","","6","","24.1","","100.57","","","","","","Clear"
"1992-09-05 04:00","1992","09","05","04:00","9.3","","8.4","","94","","","","0","","24.1","","100.57","","","","","","Clear"
"1992-09-05 05:00","1992","09","05","05:00","9.5","","8.0","","90","","","","0","","24.1","","100.57","","","","","","Clear"
"1992-09-05 06:00","1992","09","05","06:00","8.3","","7.7","","96","","","","0","","24.1","","100.57","","","","","","Clear"
"1992-09-05 07:00","1992","09","05","07:00","10.5","","9.4","","93","","","","0","","32.2","","100.61","","","","","","Clear"
"1992-09-05 08:00","1992","09","05","08:00","14.6","","12.2","","86","","","","0","","24.1","","100.61","","","","","","Mainly Clear"
"1992-09-05 09:00","1992","09","05","09:00","17.8","","15.2","","85","","9","","7","","24.1","","100.57","","","","","","Clear"
"1992-09-05 10:00","1992","09","05","10:00","20.1","","13.6","","66","","11","","19","","24.1","","100.57","","","","","","Clear"
"1992-09-05 11:00","1992","09","05","11:00","20.1","","12.5","","62","","11","","15","","32.2","","100.54","","","","","","Clear"
"1992-09-05 12:00","1992","09","05","12:00","20.9","","14.4","","66","","10","","15","","32.2","","100.47","","25","","","","Clear"
"1992-09-05 13:00","1992","09","05","13:00","21.3","","13.9","","63","","11","","19","","24.1","","100.47","","25","","","","Clear"
"1992-09-05 14:00","1992","09","05","14:00","21.7","","12.4","","55","","12","","15","","24.1","","100.41","","","","","","Clear"
"1992-09-05 15:00","1992","09","05","15:00","22.0","","14.1","","61","","11","","11","","24.1","","100.41","","25","","","","Clear"
"1992-09-05 16:00","1992","09","05","16:00","22.0","","14.5","","62","","11","","11","","24.1","","100.34","","26","","","","Clear"
"1992-09-05 17:00","1992","09","05","17:00","21.4","","13.5","","61","","11","","13","","24.1","","100.31","","","","","","Mainly Clear"
"1992-09-05 18:00","1992","09","05","18:00","20.1","","12.5","","62","","10","","15","","24.1","","100.31","","","","","","Mostly Cloudy"
"1992-09-05 19:00","1992","09","05","19:00","19.5","","11.5","","60","","10","","11","","24.1","","100.27","","","","","","Mostly Cloudy"
"1992-09-05 20:00","1992","09","05","20:00","19.0","","12.1","","64","","10","","9","","24.1","","100.27","","","","","","Mostly Cloudy"
"1992-09-05 21:00","1992","09","05","21:00","19.5","","14.4","","72","","11","","9","","24.1","","100.24","","","","","","Cloudy"
"1992-09-05 22:00","1992","09","05","22:00","18.8","","16.9","","89","","13","","4","","24.1","","100.21","","","","","","Cloudy"
"1992-09-05 23:00","1992","09","05","23:00","18.3","","17.0","","92","","","","0","","12.9","","100.17","","","","","","Cloudy"
"1992-09-06 00:00","1992","09","06","00:00","18.3","","17.3","","94","","13","","9","","12.9","","100.11","","","","","","Cloudy"
"1992-09-06 01:00","1992","09","06","01:00","18.6","","17.0","","90","","","","0","","9.7","","100.11","","","","","","Fog"
"1992-09-06 02:00","1992","09","06","02:00","19.0","","17.5","","91","","13","","6","","8.0","","100.07","","","","","","Fog"
"1992-09-06 03:00","1992","09","06","03:00","19.1","","17.5","","90","","15","","6","","8.0","","100.07","","","","","","Fog"
"1992-09-06 04:00","1992","09","06","04:00","18.8","","17.8","","94","","","","0","","8.0","","100.07","","","","","","Rain Showers,Fog"
"1992-09-06 05:00","1992","09","06","05:00","18.7","","17.6","","93","","12","","4","","4.8","","100.07","","","","","","Rain Showers,Fog"
"1992-09-06 06:00","1992","09","06","06:00","18.6","","17.9","","96","","14","","7","","2.8","","100.07","","","","","","Fog"
"1992-09-06 07:00","1992","09","06","07:00","18.6","","17.9","","96","","","","0","","2.4","","100.11","","","","","","Fog"
"1992-09-06 08:00","1992","09","06","08:00","19.2","","17.8","","91","","14","","6","","4.8","","100.11","","","","","","Fog"
"1992-09-06 09:00","1992","09","06","09:00","20.7","","18.4","","87","","17","","9","","4.8","","100.14","","27","","","","Fog"
"1992-09-06 10:00","1992","09","06","10:00","21.5","","18.6","","84","","16","","15","","6.4","","100.11","","28","","","","Haze"
"1992-09-06 11:00","1992","09","06","11:00","22.6","","19.0","","80","","17","","19","","8.0","","100.07","","29","","","","Haze"
"1992-09-06 12:00","1992","09","06","12:00","24.3","","19.9","","77","","19","","24","","16.1","","100.04","","32","","","","Cloudy"
"1992-09-06 13:00","1992","09","06","13:00","23.5","","19.1","","76","","18","","22","","16.1","","100.04","","30","","","","Cloudy"
"1992-09-06 14:00","1992","09","06","14:00","24.0","","19.1","","74","","17","","22","","19.3","","99.97","","31","","","","Mostly Cloudy"
"1992-09-06 15:00","1992","09","06","15:00","24.9","","19.8","","73","","19","","15","","19.3","","99.97","","32","","","","Mainly Clear"
"1992-09-06 16:00","1992","09","06","16:00","24.7","","19.3","","72","","18","","19","","16.1","","99.91","","32","","","","Mainly Clear"
"1992-09-06 17:00","1992","09","06","17:00","24.4","","19.9","","76","","17","","19","","16.1","","99.87","","32","","","","Mainly Clear"
"1992-09-06 18:00","1992","09","06","18:00","23.7","","18.8","","74","","18","","13","","16.1","","99.91","","30","","","","Mainly Clear"
"1992-09-06 19:00","1992","09","06","19:00","22.6","","18.7","","79","","17","","11","","12.9","","99.91","","29","","","","Mainly Clear"
"1992-09-06 20:00","1992","09","06","20:00","21.3","","18.9","","86","","17","","9","","16.1","","99.97","","28","","","","Mainly Clear"
"1992-09-06 21:00","1992","09","06","21:00","21.3","","18.9","","86","","17","","11","","16.1","","99.97","","28","","","","Mostly Cloudy"
"1992-09-06 22:00","1992","09","06","22:00","20.4","","18.4","","88","","16","","7","","12.9","","100.01","","27","","","","Mainly Clear"
"1992-09-06 23:00","1992","09","06","23:00","20.3","","18.4","","89","","17","","9","","12.9","","100.01","","27","","","","Mainly Clear"
"1992-09-07 00:00","1992","09","07","00:00","18.5","","17.6","","95","","15","","9","","11.3","","99.97","","","","","","Mainly Clear"
"1992-09-07 01:00","1992","09","07","01:00","18.8","","17.8","","94","","15","","7","","11.3","","99.97","","","","","","Mostly Cloudy"
"1992-09-07 02:00","1992","09","07","02:00","18.0","","17.1","","95","","14","","7","","11.3","","99.94","","","","","","Mostly Cloudy"
"1992-09-07 03:00","1992","09","07","03:00","17.6","","17.2","","98","","15","","6","","8.0","","99.94","","","","","","Fog"
"1992-09-07 04:00","1992","09","07","04:00","17.9","","17.4","","97","","14","","7","","6.4","","99.94","","","","","","Fog"
"1992-09-07 05:00","1992","09","07","05:00","17.7","","17.2","","97","","15","","7","","6.4","","99.91","","","","","","Fog"
"1992-09-07 06:00","1992","09","07","06:00","17.6","","17.2","","98","","14","","7","","3.2","","99.97","","","","","","Fog"
"1992-09-07 07:00","1992","09","07","07:00","18.3","","17.6","","96","","14","","7","","4.0","","99.97","","","","","","Fog"
"1992-09-07 08:00","1992","09","07","08:00","18.8","","18.1","","96","","15","","6","","4.0","","99.97","","","","","","Fog"
"1992-09-07 09:00","1992","09","07","09:00","19.8","","18.2","","91","","17","","4","","4.8","","100.01","","","","","","Fog"
"1992-09-07 10:00","1992","09","07","10:00","20.8","","18.6","","87","","","","0","","6.4","","99.97","","27","","","","Fog"
"1992-09-07 11:00","1992","09","07","11:00","21.7","","18.9","","84","","16","","7","","6.4","","99.97","","28","","","","Haze"
"1992-09-07 12:00","1992","09","07","12:00","22.5","","19.6","","84","","","","0","","8.0","","99.91","","30","","","","Haze"
"1992-09-07 13:00","1992","09","07","13:00","23.6","","20.1","","81","","17","","6","","9.7","","99.91","","31","","","","Haze"
"1992-09-07 14:00","1992","09","07","14:00","25.0","","20.1","","74","","17","","11","","9.7","","99.81","","33","","","","Haze"
"1992-09-07 15:00","1992","09","07","15:00","24.6","","19.9","","75","","19","","6","","9.7","","99.81","","32","","","","Haze"
"1992-09-07 16:00","1992","09","07","16:00","25.7","","20.1","","71","","21","","9","","9.7","","99.77","","33","","","","Haze"
"1992-09-07 17:00","1992","09","07","17:00","25.0","","20.1","","74","","16","","4","","9.7","","99.77","","33","","","","Haze"
"1992-09-07 18:00","1992","09","07","18:00","23.3","","20.1","","82","","14","","4","","8.0","","99.74","","31","","","","Haze"
"1992-09-07 19:00","1992","09","07","19:00","22.1","","19.1","","83","","","","0","","6.4","","99.77","","29","","","","Haze"
"1992-09-07 20:00","1992","09","07","20:00","22.7","","19.3","","81","","","","0","","8.0","","99.77","","30","","","","Haze"
"1992-09-07 21:00","1992","09","07","21:00","21.7","","19.2","","86","","14","","7","","4.8","","99.77","","29","","","","Haze"
"1992-09-07 22:00","1992","09","07","22:00","19.6","","18.3","","92","","15","","4","","4.8","","99.77","","","","","","Fog"
"1992-09-07 23:00","1992","09","07","23:00","19.1","","18.4","","96","","","","0","","3.2","","99.67","","","","","","Fog"
"1992-09-08 00:00","1992","09","08","00:00","18.5","","18.2","","98","","16","","4","","2.0","","99.64","","","","","","Fog"
"1992-09-08 01:00","1992","09","08","01:00","18.8","","18.4","","98","","13","","4","","2.4","","99.54","","","","","","Fog"
"1992-09-08 02:00","1992","09","08","02:00","18.4","","18.2","","99","","15","","7","","2.0","","99.54","","","","","","Fog"
"1992-09-08 03:00","1992","09","08","03:00","18.9","","18.4","","97","","18","","9","","2.8","","99.51","","","","","","Fog"
"1992-09-08 04:00","1992","09","08","04:00","18.1","","17.7","","98","","16","","6","","2.4","","99.41","","","","","","Fog"
"1992-09-08 05:00","1992","09","08","05:00","18.4","","17.9","","97","","17","","7","","2.8","","99.34","","","","","","Fog"
"1992-09-08 06:00","1992","09","08","06:00","18.6","","17.6","","94","","17","","11","","3.2","","99.34","","","","","","Fog"
"1992-09-08 07:00","1992","09","08","07:00","19.2","","18.1","","93","","17","","7","","2.8","","99.24","","","","","","Fog"
"1992-09-08 08:00","1992","09","08","08:00","19.2","","18.7","","97","","17","","9","","1.6","","99.17","","","","","","Moderate Rain Showers,Fog"
"1992-09-08 09:00","1992","09","08","09:00","20.0","","19.4","","96","","18","","7","","2.8","","99.11","","27","","","","Fog"
"1992-09-08 10:00","1992","09","08","10:00","21.0","","19.8","","93","","20","","15","","6.4","","99.04","","28","","","","Fog"
"1992-09-08 11:00","1992","09","08","11:00","21.0","","20.4","","96","","21","","19","","1.6","","99.01","","29","","","","Heavy Rain Showers,Fog"
"1992-09-08 12:00","1992","09","08","12:00","21.3","","20.4","","95","","22","","20","","4.0","","98.94","","29","","","","Rain Showers,Fog"
"1992-09-08 13:00","1992","09","08","13:00","22.0","","19.4","","85","","26","","19","","16.1","","98.97","","29","","","","Mostly Cloudy"
"1992-09-08 14:00","1992","09","08","14:00","23.4","","19.8","","80","","26","","24","","16.1","","99.04","","31","","","","Rain Showers"
"1992-09-08 15:00","1992","09","08","15:00","21.5","","16.7","","74","","30","","33","","32.2","","99.17","","27","","","","Mainly Clear"
"1992-09-08 16:00","1992","09","08","16:00","20.8","","15.1","","70","","30","","22","","32.2","","99.24","","25","","","","Mainly Clear"
"1992-09-08 17:00","1992","09","08","17:00","19.7","","11.9","","61","","31","","19","","32.2","","99.34","","","","","","Clear"
"1992-09-08 18:00","1992","09","08","18:00","18.2","","12.4","","69","","31","","19","","32.2","","99.47","","","","","","Clear"
"1992-09-08 19:00","1992","09","08","19:00","16.1","","12.3","","78","","33","","15","","25.0","","99.61","","","","","","Clear"
"1992-09-08 20:00","1992","09","08","20:00","13.8","","11.6","","87","","33","","11","","25.0","","99.71","","","","","","Clear"
"1992-09-08 21:00","1992","09","08","21:00","13.1","","10.6","","85","","32","","7","","25.0","","99.81","","","","","","Clear"
"1992-09-08 22:00","1992","09","08","22:00","12.5","","10.4","","87","","","","0","","25.0","","99.87","","","","","","Clear"
"1992-09-08 23:00","1992","09","08","23:00","12.4","","10.4","","88","","","","0","","25.0","","99.97","","","","","","Clear"
"1992-09-09 00:00","1992","09","09","00:00","11.5","","9.7","","89","","","","0","","24.1","","99.94","","","","","","Clear"
"1992-09-09 01:00","1992","09","09","01:00","10.5","","9.4","","93","","","","0","","24.1","","99.94","","","","","","Clear"
"1992-09-09 02:00","1992","09","09","02:00","10.1","","9.6","","97","","","","0","","19.3","","99.94","","","","","","Clear"
"1992-09-09 03:00","1992","09","09","03:00","9.9","","9.3","","96","","","","0","","19.3","","99.94","","","","","","Clear"
"1992-09-09 04:00","1992","09","09","04:00","9.2","","8.3","","94","","","","0","","19.3","","99.91","","","","","","Clear"
"1992-09-09 05:00","1992","09","09","05:00","8.0","","7.2","","95","","","","0","","19.3","","99.97","","","","","","Clear"
"1992-09-09 06:00","1992","09","09","06:00","8.6","","7.7","","94","","","","0","","24.1","","100.01","","","","","","Clear"
"1992-09-09 07:00","1992","09","09","07:00","9.3","","8.8","","97","","","","0","","19.3","","100.01","","","","","","Clear"
"1992-09-09 08:00","1992","09","09","08:00","14.2","","11.3","","82","","11","","9","","19.3","","99.97","","","","","","Clear"
"1992-09-09 09:00","1992","09","09","09:00","15.7","","11.4","","75","","14","","19","","32.2","","100.01","","","","","","Mainly Clear"
"1992-09-09 10:00","1992","09","09","10:00","16.8","","10.9","","68","","11","","22","","40.2","","99.94","","","","","","Mainly Clear"
"1992-09-09 11:00","1992","09","09","11:00","17.0","","10.1","","64","","13","","20","","40.2","","99.91","","","","","","Mainly Clear"
"1992-09-09 12:00","1992","09","09","12:00","17.5","","9.1","","58","","12","","19","","40.2","","99.81","","","","","","Mainly Clear"
"1992-09-09 13:00","1992","09","09","13:00","18.8","","10.9","","60","","11","","15","","40.2","","99.74","","","","","","Mostly Cloudy"
"1992-09-09 14:00","1992","09","09","14:00","18.3","","12.6","","70","","14","","11","","32.2","","99.64","","","","","","Cloudy"
"1992-09-09 15:00","1992","09","09","15:00","18.8","","13.2","","70","","11","","15","","32.2","","99.54","","","","","","Mostly Cloudy"
"1992-09-09 16:00","1992","09","09","16:00","17.8","","13.1","","74","","11","","11","","32.2","","99.51","","","","","","Cloudy"
"1992-09-09 17:00","1992","09","09","17:00","16.2","","12.7","","80","","12","","11","","19.3","","99.41","","","","","","Rain Showers"
"1992-09-09 18:00","1992","09","09","18:00","15.5","","13.9","","90","","13","","19","","19.3","","99.21","","","","","","Cloudy"
"1992-09-09 19:00","1992","09","09","19:00","16.2","","15.0","","92","","13","","17","","8.0","","99.17","","","","","","Fog"
"1992-09-09 20:00","1992","09","09","20:00","16.5","","15.9","","96","","15","","11","","9.7","","99.11","","","","","","Fog"
"1992-09-09 21:00","1992","09","09","21:00","16.5","","16.2","","98","","","","0","","4.8","","99.04","","","","","","Rain Showers,Fog"
"1992-09-09 22:00","1992","09","09","22:00","17.2","","16.4","","95","","","","0","","6.4","","99.04","","","","","","Fog"
"1992-09-09 23:00","1992","09","09","23:00","17.4","","17.2","","99","","16","","4","","4.8","","98.94","","","","","","Fog"
"1992-09-10 00:00","1992","09","10","00:00","18.8","","17.8","","94","","19","","13","","8.0","","98.84","","","","","","Fog"
"1992-09-10 01:00","1992","09","10","01:00","18.7","","17.3","","91","","21","","26","","4.0","","98.84","","","","","","Thunderstorms,Rain Showers,Fog"
"1992-09-10 02:00","1992","09","10","02:00","18.6","","17.6","","94","","22","","15","","11.3","","98.71","","","","","","Thunderstorms,Rain Showers"
"1992-09-10 03:00","1992","09","10","03:00","18.5","","17.6","","95","","19","","13","","12.9","","98.71","","","","","","Cloudy"
"1992-09-10 04:00","1992","09","10","04:00","19.0","","18.1","","95","","21","","11","","9.7","","98.67","","","","","","Fog"
"1992-09-10 05:00","1992","09","10","05:00","18.6","","17.3","","92","","25","","7","","12.9","","98.71","","","","","","Mostly Cloudy"
"1992-09-10 06:00","1992","09","10","06:00","18.2","","16.8","","91","","23","","7","","19.3","","98.84","","","","","","Mostly Cloudy"
"1992-09-10 07:00","1992","09","10","07:00","18.4","","17.0","","92","","19","","15","","32.2","","98.84","","","","","","Mostly Cloudy"
"1992-09-10 08:00","1992","09","10","08:00","18.6","","17.0","","90","","19","","13","","19.3","","98.84","","","","","","Rain Showers"
"1992-09-10 09:00","1992","09","10","09:00","19.2","","17.2","","88","","22","","19","","16.1","","98.84","","","","","","Rain Showers"
"1992-09-10 10:00","1992","09","10","10:00","19.6","","17.4","","87","","30","","37","","12.9","","98.84","","","","","","Rain Showers"
"1992-09-10 11:00","1992","09","10","11:00","15.5","","14.5","","94","","30","","11","","12.9","","99.01","","","","","","Rain Showers"
"1992-09-10 12:00","1992","09","10","12:00","17.4","","14.6","","84","","31","","13","","24.1","","99.01","","","","","","Mostly Cloudy"
"1992-09-10 13:00","1992","09","10","13:00","20.3","","12.0","","59","","30","","22","","32.2","","99.01","","","","","","Mainly Clear"
"1992-09-10 14:00","1992","09","10","14:00","20.8","","9.4","","48","","28","","30","","40.2","","99.01","","","","","","Mainly Clear"
"1992-09-10 15:00","1992","09","10","15:00","21.0","","8.9","","46","","27","","26","","40.2","","99.01","","","","","","Mainly Clear"
"1992-09-10 16:00","1992","09","10","16:00","20.4","","5.9","","39","","27","","26","","40.2","","99.04","","","","","","Mainly Clear"
"1992-09-10 17:00","1992","09","10","17:00","19.6","","8.7","","49","","27","","22","","40.2","","99.14","","","","","","Mainly Clear"
"1992-09-10 18:00","1992","09","10","18:00","18.0","","8.0","","52","","28","","15","","40.2","","99.21","","","","","","Mainly Clear"
"1992-09-10 19:00","1992","09","10","19:00","16.0","","8.5","","61","","26","","11","","25.0","","99.31","","","","","","Mostly Cloudy"
"1992-09-10 20:00","1992","09","10","20:00","15.0","","8.6","","66","","29","","11","","25.0","","99.41","","","","","","Mainly Clear"
"1992-09-10 21:00","1992","09","10","21:00","13.2","","8.7","","74","","27","","4","","25.0","","99.47","","","","","","Mainly Clear"
"1992-09-10 22:00","1992","09","10","22:00","12.7","","8.9","","78","","27","","7","","25.0","","99.57","","","","","","Mostly Cloudy"
"1992-09-10 23:00","1992","09","10","23:00","12.0","","9.1","","82","","28","","9","","25.0","","99.64","","","","","","Mainly Clear"
"1992-09-11 00:00","1992","09","11","00:00","11.6","","9.0","","84","","27","","7","","25.0","","99.67","","","","","","Clear"
"1992-09-11 01:00","1992","09","11","01:00","10.9","","8.8","","87","","27","","7","","25.0","","99.71","","","","","","Mainly Clear"
"1992-09-11 02:00","1992","09","11","02:00","10.0","","8.5","","90","","29","","7","","25.0","","99.77","","","","","","Clear"
"1992-09-11 03:00","1992","09","11","03:00","11.0","","8.4","","84","","32","","15","","25.0","","99.81","","","","","","Clear"
"1992-09-11 04:00","1992","09","11","04:00","10.4","","7.9","","84","","32","","19","","25.0","","99.91","","","","","","Clear"
"1992-09-11 05:00","1992","09","11","05:00","8.7","","6.6","","87","","","","0","","25.0","","99.94","","","","","","Clear"
"1992-09-11 06:00","1992","09","11","06:00","8.6","","6.1","","84","","30","","9","","40.2","","100.01","","","","","","Clear"
"1992-09-11 07:00","1992","09","11","07:00","9.9","","6.5","","79","","33","","15","","40.2","","100.11","","","","","","Mainly Clear"
"1992-09-11 08:00","1992","09","11","08:00","11.2","","6.8","","74","","32","","22","","40.2","","100.21","","","","","","Mainly Clear"
"1992-09-11 09:00","1992","09","11","09:00","11.8","","6.3","","69","","35","","24","","40.2","","100.31","","","","","","Mainly Clear"
"1992-09-11 10:00","1992","09","11","10:00","12.0","","5.8","","66","","34","","22","","40.2","","100.37","","","","","","Mainly Clear"
"1992-09-11 11:00","1992","09","11","11:00","13.7","","6.8","","63","","33","","22","","40.2","","100.41","","","","","","Mainly Clear"
"1992-09-11 12:00","1992","09","11","12:00","13.8","","6.5","","61","","31","","20","","40.2","","100.41","","","","","","Mainly Clear"
"1992-09-11 13:00","1992","09","11","13:00","14.6","","5.3","","54","","36","","17","","40.2","","100.41","","","","","","Mainly Clear"
"1992-09-11 14:00","1992","09","11","14:00","15.4","","7.5","","59","","34","","15","","40.2","","100.41","","","","","","Mainly Clear"
"1992-09-11 15:00","1992","09","11","15:00","15.0","","7.7","","62","","35","","15","","40.2","","100.41","","","","","","Mainly Clear"
"1992-09-11 16:00","1992","09","11","16:00","14.8","","6.9","","59","","35","","20","","40.2","","100.41","","","","","","Clear"
"1992-09-11 17:00","1992","09","11","17:00","13.4","","5.0","","57","","36","","19","","40.2","","100.41","","","","","","Clear"
"1992-09-11 18:00","1992","09","11","18:00","12.1","","4.5","","60","","36","","24","","40.2","","100.47","","","","","","Clear"
"1992-09-11 19:00","1992","09","11","19:00","10.3","","4.5","","67","","36","","15","","25.0","","100.47","","","","","","Clear"
"1992-09-11 20:00","1992","09","11","20:00","8.6","","4.4","","75","","34","","7","","25.0","","100.54","","","","","","Clear"
"1992-09-11 21:00","1992","09","11","21:00","7.7","","3.7","","76","","34","","11","","25.0","","100.57","","","","","","Clear"
"1992-09-11 22:00","1992","09","11","22:00","6.6","","4.0","","83","","34","","4","","25.0","","100.57","","","","","","Clear"
"1992-09-11 23:00","1992","09","11","23:00","6.3","","4.4","","88","","35","","9","","25.0","","100.57","","","","","","Clear"
"1992-09-12 00:00","1992","09","12","00:00","5.4","","3.8","","89","","35","","7","","25.0","","100.61","","","","","","Clear"
"1992-09-12 01:00","1992","09","12","01:00","5.1","","3.3","","88","","34","","6","","25.0","","100.64","","","","","","Clear"
"1992-09-12 02:00","1992","09","12","02:00","4.3","","3.2","","93","","31","","4","","24.1","","100.67","","","","","","Clear"
"1992-09-12 03:00","1992","09","12","03:00","4.2","","2.7","","90","","","","0","","24.1","","100.67","","","","","","Clear"
"1992-09-12 04:00","1992","09","12","04:00","3.8","","2.7","","93","","","","0","","24.1","","100.71","","","","","","Clear"
"1992-09-12 05:00","1992","09","12","05:00","4.2","","2.7","","90","","","","0","","24.1","","100.77","","","","","","Clear"
"1992-09-12 06:00","1992","09","12","06:00","3.5","","2.6","","94","","34","","4","","32.2","","100.81","","","","","","Clear"
"1992-09-12 07:00","1992","09","12","07:00","5.5","","4.2","","91","","","","0","","40.2","","100.87","","","","","","Clear"
"1992-09-12 08:00","1992","09","12","08:00","8.5","","4.9","","78","","35","","6","","40.2","","100.91","","","","","","Clear"
"1992-09-12 09:00","1992","09","12","09:00","11.5","","5.2","","65","","","","0","","40.2","","100.91","","","","","","Clear"
"1992-09-12 10:00","1992","09","12","10:00","13.2","","5.3","","59","","","","0","","40.2","","100.91","","","","","","Clear"
"1992-09-12 11:00","1992","09","12","11:00","13.9","","5.1","","55","","","","0","","40.2","","100.87","","","","","","Clear"
"1992-09-12 12:00","1992","09","12","12:00","15.4","","7.0","","57","","","","0","","40.2","","100.81","","","","","","Mainly Clear"
"1992-09-12 13:00","1992","09","12","13:00","15.7","","6.1","","53","","15","","13","","40.2","","100.71","","","","","","Mostly Cloudy"
"1992-09-12 14:00","1992","09","12","14:00","15.6","","6.6","","55","","13","","13","","40.2","","100.71","","","","","","Mostly Cloudy"
"1992-09-12 15:00","1992","09","12","15:00","15.5","","6.6","","55","","17","","7","","40.2","","100.67","","","","","","Mostly Cloudy"
"1992-09-12 16:00","1992","09","12","16:00","15.5","","6.6","","55","","14","","11","","40.2","","100.61","","","","","","Mostly Cloudy"
"1992-09-12 17:00","1992","09","12","17:00","15.0","","6.4","","56","","16","","6","","24.1","","100.57","","","","","","Mostly Cloudy"
"1992-09-12 18:00","1992","09","12","18:00","14.4","","6.1","","58","","16","","6","","24.1","","100.57","","","","","","Mostly Cloudy"
"1992-09-12 19:00","1992","09","12","19:00","12.7","","6.9","","68","","","","0","","24.1","","100.61","","","","","","Mainly Clear"
"1992-09-12 20:00","1992","09","12","20:00","12.4","","7.3","","71","","","","0","","24.1","","100.61","","","","","","Mainly Clear"
"1992-09-12 21:00","1992","09","12","21:00","12.1","","7.5","","73","","","","0","","24.1","","100.61","","","","","","Mostly Cloudy"
"1992-09-12 22:00","1992","09","12","22:00","12.2","","8.3","","77","","","","0","","24.1","","100.61","","","","","","Mostly Cloudy"
"1992-09-12 23:00","1992","09","12","23:00","10.8","","8.4","","85","","","","0","","19.3","","100.64","","","","","","Mostly Cloudy"
"1992-09-13 00:00","1992","09","13","00:00","9.8","","7.7","","87","","","","0","","19.3","","100.61","","","","","","Mainly Clear"
"1992-09-13 01:00","1992","09","13","01:00","8.0","","6.8","","92","","","","0","","19.3","","100.61","","","","","","Mainly Clear"
"1992-09-13 02:00","1992","09","13","02:00","7.7","","6.3","","91","","","","0","","19.3","","100.57","","","","","","Mainly Clear"
"1992-09-13 03:00","1992","09","13","03:00","7.4","","6.7","","96","","35","","4","","16.1","","100.57","","","","","","Mainly Clear"
"1992-09-13 04:00","1992","09","13","04:00","7.2","","6.2","","93","","34","","4","","16.1","","100.61","","","","","","Mainly Clear"
"1992-09-13 05:00","1992","09","13","05:00","6.6","","5.7","","94","","","","0","","19.3","","100.61","","","","","","Mainly Clear"
"1992-09-13 06:00","1992","09","13","06:00","7.0","","6.2","","95","","","","0","","12.9","","100.61","","","","","","Mostly Cloudy"
"1992-09-13 07:00","1992","09","13","07:00","8.5","","7.4","","93","","35","","4","","12.9","","100.67","","","","","","Mostly Cloudy"
"1992-09-13 08:00","1992","09","13","08:00","11.2","","9.2","","87","","","","0","","12.9","","100.67","","","","","","Mostly Cloudy"
"1992-09-13 09:00","1992","09","13","09:00","15.8","","10.9","","73","","","","0","","19.3","","100.67","","","","","","Mostly Cloudy"
"1992-09-13 10:00","1992","09","13","10:00","17.1","","8.9","","58","","15","","6","","24.1","","100.61","","","","","","Mostly Cloudy"
"1992-09-13 11:00","1992","09","13","11:00","18.3","","9.1","","55","","14","","4","","40.2","","100.57","","","","","","Mostly Cloudy"
"1992-09-13 12:00","1992","09","13","12:00","19.0","","8.5","","51","","16","","13","","40.2","","100.57","","","","","","Mostly Cloudy"
"1992-09-13 13:00","1992","09","13","13:00","18.7","","9.1","","54","","14","","11","","40.2","","100.51","","","","","","Mostly Cloudy"
"1992-09-13 14:00","1992","09","13","14:00","19.6","","9.5","","52","","13","","11","","40.2","","100.37","","","","","","Mostly Cloudy"
"1992-09-13 15:00","1992","09","13","15:00","19.9","","10.6","","55","","15","","11","","40.2","","100.34","","","","","","Mostly Cloudy"
"1992-09-13 16:00","1992","09","13","16:00","19.5","","10.4","","56","","15","","11","","24.1","","100.27","","","","","","Mostly Cloudy"
"1992-09-13 17:00","1992","09","13","17:00","19.2","","10.5","","57","","13","","11","","32.2","","100.24","","","","","","Mostly Cloudy"
"1992-09-13 18:00","1992","09","13","18:00","17.2","","10.5","","65","","15","","11","","40.2","","100.21","","","","","","Mostly Cloudy"
"1992-09-13 19:00","1992","09","13","19:00","15.7","","11.4","","75","","14","","7","","25.0","","100.27","","","","","","Mainly Clear"
"1992-09-13 20:00","1992","09","13","20:00","14.8","","10.9","","78","","12","","6","","25.0","","100.31","","","","","","Mainly Clear"
"1992-09-13 21:00","1992","09","13","21:00","13.2","","10.6","","84","","","","0","","25.0","","100.31","","","","","","Mainly Clear"
"1992-09-13 22:00","1992","09","13","22:00","12.8","","10.6","","87","","","","0","","25.0","","100.24","","","","","","Mainly Clear"
"1992-09-13 23:00","1992","09","13","23:00","12.0","","10.2","","89","","","","0","","25.0","","100.27","","","","","","Mainly Clear"
"1992-09-14 00:00","1992","09","14","00:00","11.4","","10.1","","92","","","","0","","25.0","","100.17","","","","","","Mainly Clear"
"1992-09-14 01:00","1992","09","14","01:00","10.4","","9.4","","94","","","","0","","25.0","","100.17","","","","","","Mainly Clear"
"1992-09-14 02:00","1992","09","14","02:00","9.6","","8.8","","95","","","","0","","19.3","","100.17","","","","","","Mainly Clear"
"1992-09-14 03:00","1992","09","14","03:00","10.1","","9.3","","95","","36","","4","","8.0","","100.17","","","","","","Fog"
"1992-09-14 04:00","1992","09","14","04:00","9.5","","9.1","","97","","","","0","","4.8","","100.21","","","","","","Fog"
"1992-09-14 05:00","1992","09","14","05:00","10.6","","10.1","","97","","","","0","","3.2","","100.21","","","","","","Fog"
"1992-09-14 06:00","1992","09","14","06:00","10.8","","10.6","","99","","","","0","","1.0","","100.21","","","","","","Fog"
"1992-09-14 07:00","1992","09","14","07:00","11.9","","11.9","","100","","","","0","","0.0","","100.27","","","","","","Fog"
"1992-09-14 08:00","1992","09","14","08:00","14.0","","14.0","","100","","","","0","","0.0","","100.27","","","","","","Fog"
"1992-09-14 09:00","1992","09","14","09:00","15.0","","15.0","","100","","21","","7","","1.2","","100.27","","","","","","Fog"
"1992-09-14 10:00","1992","09","14","10:00","17.0","","16.1","","95","","25","","7","","6.4","","100.31","","","","","","Fog"
"1992-09-14 11:00","1992","09","14","11:00","20.4","","15.9","","75","","22","","11","","9.7","","100.24","","25","","","","Haze"
"1992-09-14 12:00","1992","09","14","12:00","23.0","","15.7","","64","","18","","11","","12.9","","100.17","","27","","","","Mostly Cloudy"
"1992-09-14 13:00","1992","09","14","13:00","23.0","","16.7","","68","","16","","15","","12.9","","100.11","","28","","","","Mostly Cloudy"
"1992-09-14 14:00","1992","09","14","14:00","23.3","","16.6","","66","","16","","19","","12.9","","100.07","","28","","","","Mostly Cloudy"
"1992-09-14 15:00","1992","09","14","15:00","24.0","","16.1","","61","","18","","19","","9.7","","100.07","","29","","","","Haze"
"1992-09-14 16:00","1992","09","14","16:00","23.3","","16.2","","65","","16","","19","","9.7","","100.01","","28","","","","Haze"
"1992-09-14 17:00","1992","09","14","17:00","22.6","","16.1","","67","","17","","11","","9.7","","100.04","","27","","","","Haze"
"1992-09-14 18:00","1992","09","14","18:00","22.8","","16.3","","67","","21","","15","","9.7","","100.07","","28","","","","Haze"
"1992-09-14 19:00","1992","09","14","19:00","21.3","","15.7","","71","","20","","7","","8.0","","100.01","","26","","","","Haze"
"1992-09-14 20:00","1992","09","14","20:00","20.3","","15.2","","73","","18","","7","","12.9","","100.01","","","","","","Mainly Clear"
"1992-09-14 21:00","1992","09","14","21:00","18.8","","15.6","","82","","16","","6","","12.9","","100.01","","","","","","Mainly Clear"
"1992-09-14 22:00","1992","09","14","22:00","18.2","","15.5","","84","","16","","7","","9.7","","100.04","","","","","","Haze"
"1992-09-14 23:00","1992","09","14","23:00","18.2","","15.5","","84","","","","0","","6.4","","100.04","","","","","","Haze"
"1992-09-15 00:00","1992","09","15","00:00","17.7","","15.3","","86","","","","0","","6.4","","100.04","","","","","","Fog"
"1992-09-15 01:00","1992","09","15","01:00","16.7","","14.9","","89","","","","0","","4.8","","100.07","","","","","","Fog"
"1992-09-15 02:00","1992","09","15","02:00","17.2","","15.1","","87","","","","0","","4.8","","100.04","","","","","","Fog"
"1992-09-15 03:00","1992","09","15","03:00","16.7","","14.9","","89","","","","0","","4.8","","100.07","","","","","","Fog"
"1992-09-15 04:00","1992","09","15","04:00","16.3","","15.2","","93","","","","0","","4.8","","100.04","","","","","","Fog"
"1992-09-15 05:00","1992","09","15","05:00","16.0","","15.4","","96","","","","0","","4.0","","100.07","","","","","","Fog"
"1992-09-15 06:00","1992","09","15","06:00","16.3","","15.9","","98","","","","0","","1.6","","100.11","","","","","","Fog"
"1992-09-15 07:00","1992","09","15","07:00","17.2","","15.8","","91","","","","0","","2.0","","100.14","","","","","","Fog"
"1992-09-15 08:00","1992","09","15","08:00","18.9","","17.2","","90","","","","0","","4.0","","100.17","","","","","","Fog"
"1992-09-15 09:00","1992","09","15","09:00","20.9","","18.3","","85","","23","","7","","4.8","","100.21","","27","","","","Haze"
"1992-09-15 10:00","1992","09","15","10:00","22.9","","18.6","","77","","22","","11","","4.8","","100.17","","29","","","","Haze"
"1992-09-15 11:00","1992","09","15","11:00","24.3","","19.3","","74","","19","","11","","6.4","","100.14","","31","","","","Haze"
"1992-09-15 12:00","1992","09","15","12:00","25.3","","20.1","","73","","22","","15","","6.4","","100.11","","33","","","","Haze"
"1992-09-15 13:00","1992","09","15","13:00","25.5","","18.8","","66","","24","","19","","8.0","","100.11","","32","","","","Haze"
"1992-09-15 14:00","1992","09","15","14:00","26.7","","19.9","","66","","24","","19","","8.0","","100.07","","34","","","","Haze"
"1992-09-15 15:00","1992","09","15","15:00","26.8","","20.2","","67","","26","","15","","8.0","","100.04","","35","","","","Haze"
"1992-09-15 16:00","1992","09","15","16:00","27.1","","20.2","","66","","25","","19","","8.0","","100.01","","35","","","","Haze"
"1992-09-15 17:00","1992","09","15","17:00","25.7","","18.8","","66","","23","","11","","8.0","","99.97","","32","","","","Haze"
"1992-09-15 18:00","1992","09","15","18:00","23.5","","20.1","","81","","26","","9","","8.0","","100.01","","31","","","","Haze"
"1992-09-15 19:00","1992","09","15","19:00","23.1","","18.6","","76","","24","","7","","9.7","","100.01","","30","","","","Haze"
"1992-09-15 20:00","1992","09","15","20:00","23.0","","19.2","","79","","23","","7","","9.7","","100.11","","30","","","","Haze"
"1992-09-15 21:00","1992","09","15","21:00","21.0","","19.2","","90","","26","","4","","8.0","","100.11","","28","","","","Fog"
"1992-09-15 22:00","1992","09","15","22:00","20.5","","19.0","","91","","28","","4","","8.0","","100.14","","27","","","","Fog"
"1992-09-15 23:00","1992","09","15","23:00","20.3","","19.6","","96","","33","","7","","6.4","","100.17","","28","","","","Rain Showers,Fog"
"1992-09-16 00:00","1992","09","16","00:00","19.2","","18.4","","95","","34","","4","","4.8","","100.11","","","","","","Fog"
"1992-09-16 01:00","1992","09","16","01:00","18.6","","18.2","","98","","","","0","","4.8","","100.11","","","","","","Fog"
"1992-09-16 02:00","1992","09","16","02:00","19.0","","18.4","","96","","","","0","","4.8","","100.11","","","","","","Fog"
"1992-09-16 03:00","1992","09","16","03:00","19.4","","18.9","","97","","","","0","","4.8","","100.11","","","","","","Fog"
"1992-09-16 04:00","1992","09","16","04:00","19.2","","18.4","","95","","","","0","","4.8","","100.11","","","","","","Fog"
"1992-09-16 05:00","1992","09","16","05:00","19.3","","18.6","","96","","","","0","","4.8","","100.07","","","","","","Fog"
"1992-09-16 06:00","1992","09","16","06:00","19.9","","18.8","","93","","","","0","","2.8","","100.07","","","","","","Fog"
"1992-09-16 07:00","1992","09","16","07:00","20.0","","18.8","","93","","","","0","","2.4","","100.07","","27","","","","Fog"
"1992-09-16 08:00","1992","09","16","08:00","20.8","","19.5","","92","","","","0","","2.8","","100.01","","28","","","","Fog"
"1992-09-16 09:00","1992","09","16","09:00","21.2","","18.9","","87","","20","","7","","3.6","","100.01","","28","","","","Fog"
"1992-09-16 10:00","1992","09","16","10:00","21.2","","19.2","","88","","21","","6","","3.6","","99.97","","28","","","","Fog"
"1992-09-16 11:00","1992","09","16","11:00","23.0","","20.1","","84","","21","","7","","4.0","","99.91","","31","","","","Haze"
"1992-09-16 12:00","1992","09","16","12:00","25.7","","20.1","","71","","21","","13","","6.4","","99.84","","33","","","","Haze"
"1992-09-16 13:00","1992","09","16","13:00","27.7","","19.8","","62","","23","","22","","6.4","","99.77","","35","","","","Haze"
"1992-09-16 14:00","1992","09","16","14:00","27.2","","19.6","","63","","26","","19","","8.0","","99.71","","34","","","","Haze"
"1992-09-16 15:00","1992","09","16","15:00","27.8","","19.7","","62","","24","","24","","9.7","","99.64","","35","","","","Haze"
"1992-09-16 16:00","1992","09","16","16:00","27.0","","16.9","","54","","23","","22","","9.7","","99.57","","32","","","","Haze"
"1992-09-16 17:00","1992","09","16","17:00","26.0","","17.4","","59","","22","","22","","9.7","","99.54","","32","","","","Haze"
"1992-09-16 18:00","1992","09","16","18:00","24.9","","15.2","","55","","21","","17","","9.7","","99.54","","29","","","","Haze"
"1992-09-16 19:00","1992","09","16","19:00","23.1","","15.3","","61","","23","","17","","9.7","","99.54","","27","","","","Haze"
"1992-09-16 20:00","1992","09","16","20:00","22.2","","15.5","","66","","23","","11","","9.7","","99.57","","26","","","","Haze"
"1992-09-16 21:00","1992","09","16","21:00","21.6","","15.7","","69","","23","","9","","9.7","","99.57","","26","","","","Haze"
"1992-09-16 22:00","1992","09","16","22:00","21.0","","15.4","","70","","23","","7","","8.0","","99.57","","25","","","","Haze"
"1992-09-16 23:00","1992","09","16","23:00","21.0","","15.4","","70","","22","","17","","8.0","","99.47","","25","","","","Haze"
"1992-09-17 00:00","1992","09","17","00:00","21.0","","16.1","","74","","22","","17","","6.4","","99.47","","26","","","","Haze"
"1992-09-17 01:00","1992","09","17","01:00","21.0","","16.4","","75","","22","","20","","6.4","","99.37","","26","","","","Haze"
"1992-09-17 02:00","1992","09","17","02:00","20.8","","16.8","","78","","23","","22","","4.8","","99.37","","26","","","","Haze"
"1992-09-17 03:00","1992","09","17","03:00","20.5","","16.9","","80","","24","","22","","4.8","","99.31","","26","","","","Rain Showers,Haze"
"1992-09-17 04:00","1992","09","17","04:00","20.4","","16.9","","80","","23","","15","","4.8","","99.27","","26","","","","Haze"
"1992-09-17 05:00","1992","09","17","05:00","19.7","","17.7","","88","","24","","28","","4.8","","99.27","","","","","","Rain Showers,Fog"
"1992-09-17 06:00","1992","09","17","06:00","19.5","","18.0","","91","","23","","15","","4.0","","99.27","","","","","","Fog"
"1992-09-17 07:00","1992","09","17","07:00","20.0","","18.2","","90","","23","","9","","3.6","","99.31","","26","","","","Fog"
"1992-09-17 08:00","1992","09","17","08:00","20.8","","18.3","","86","","22","","15","","4.0","","99.24","","27","","","","Haze"
"1992-09-17 09:00","1992","09","17","09:00","21.0","","18.3","","84","","22","","41","","4.0","","99.07","","27","","","","Rain Showers,Haze"
"1992-09-17 10:00","1992","09","17","10:00","22.5","","18.4","","78","","24","","26","","4.8","","99.11","","29","","","","Haze"
"1992-09-17 11:00","1992","09","17","11:00","24.4","","18.3","","69","","27","","26","","6.4","","99.17","","31","","","","Haze"
"1992-09-17 12:00","1992","09","17","12:00","24.0","","18.7","","72","","31","","19","","8.0","","99.21","","31","","","","Haze"
"1992-09-17 13:00","1992","09","17","13:00","25.0","","19.2","","70","","","","0","","9.7","","99.17","","32","","","","Haze"
"1992-09-17 14:00","1992","09","17","14:00","24.5","","19.3","","73","","","","0","","9.7","","99.14","","32","","","","Haze"
"1992-09-17 15:00","1992","09","17","15:00","25.6","","19.1","","67","","26","","15","","4.8","","99.21","","32","","","","Haze"
"1992-09-17 16:00","1992","09","17","16:00","25.0","","19.2","","70","","26","","11","","4.8","","99.21","","32","","","","Haze"
"1992-09-17 17:00","1992","09","17","17:00","24.2","","19.7","","76","","","","0","","6.4","","99.21","","32","","","","Haze"
"1992-09-17 18:00","1992","09","17","18:00","24.0","","19.7","","77","","25","","4","","6.4","","99.24","","31","","","","Rain Showers,Haze"
"1992-09-17 19:00","1992","09","17","19:00","22.4","","19.6","","84","","24","","7","","6.4","","99.24","","30","","","","Haze"
"1992-09-17 20:00","1992","09","17","20:00","22.4","","19.0","","81","","22","","6","","6.4","","99.24","","29","","","","Haze"
"1992-09-17 21:00","1992","09","17","21:00","22.1","","18.5","","80","","23","","7","","6.4","","99.24","","28","","","","Haze"
"1992-09-17 22:00","1992","09","17","22:00","22.4","","17.4","","73","","22","","13","","8.0","","99.21","","28","","","","Haze"
"1992-09-17 23:00","1992","09","17","23:00","22.2","","16.5","","70","","23","","13","","9.7","","99.21","","27","","","","Haze"
"1992-09-18 00:00","1992","09","18","00:00","21.3","","16.7","","75","","21","","17","","9.7","","99.21","","26","","","","Haze"
"1992-09-18 01:00","1992","09","18","01:00","20.9","","17.1","","79","","23","","7","","6.4","","99.14","","26","","","","Haze"
"1992-09-18 02:00","1992","09","18","02:00","20.6","","17.2","","81","","20","","6","","4.8","","99.11","","26","","","","Haze"
"1992-09-18 03:00","1992","09","18","03:00","20.6","","17.5","","82","","21","","6","","4.8","","99.07","","26","","","","Haze"
"1992-09-18 04:00","1992","09","18","04:00","20.0","","17.6","","86","","19","","4","","4.8","","99.04","","26","","","","Haze"
"1992-09-18 05:00","1992","09","18","05:00","19.8","","17.6","","87","","19","","9","","4.8","","98.94","","","","","","Haze"
"1992-09-18 06:00","1992","09","18","06:00","19.6","","17.7","","89","","22","","11","","4.8","","98.94","","","","","","Fog"
"1992-09-18 07:00","1992","09","18","07:00","20.2","","17.9","","86","","21","","20","","4.0","","98.94","","26","","","","Fog"
"1992-09-18 08:00","1992","09","18","08:00","21.0","","18.3","","84","","21","","22","","4.0","","98.84","","27","","","","Haze"
"1992-09-18 09:00","1992","09","18","09:00","23.0","","18.6","","76","","21","","26","","6.4","","98.77","","29","","","","Haze"
"1992-09-18 10:00","1992","09","18","10:00","22.7","","19.0","","80","","21","","22","","4.8","","98.71","","29","","","","Rain Showers,Haze"
"1992-09-18 11:00","1992","09","18","11:00","22.7","","20.5","","87","","20","","19","","3.6","","98.64","","31","","","","Fog"
"1992-09-18 12:00","1992","09","18","12:00","22.8","","19.5","","82","","20","","26","","4.0","","98.51","","30","","","","Haze"
"1992-09-18 13:00","1992","09","18","13:00","22.7","","19.6","","83","","21","","33","","3.6","","98.41","","30","","","","Rain Showers,Haze"
"1992-09-18 14:00","1992","09","18","14:00","22.2","","19.1","","83","","21","","30","","9.7","","98.24","","29","","","","Rain Showers,Haze"
"1992-09-18 15:00","1992","09","18","15:00","21.5","","19.2","","87","","22","","26","","12.9","","98.24","","28","","","","Rain Showers"
"1992-09-18 16:00","1992","09","18","16:00","18.0","","17.4","","96","","23","","26","","2.0","","98.21","","","","","","Thunderstorms,Heavy Rain Showers,Fog"
"1992-09-18 17:00","1992","09","18","17:00","18.2","","17.4","","95","","23","","17","","8.0","","98.21","","","","","","Thunderstorms,Rain Showers,Fog"
"1992-09-18 18:00","1992","09","18","18:00","18.3","","17.6","","96","","24","","15","","12.9","","98.21","","","","","","Rain Showers"
"1992-09-18 19:00","1992","09","18","19:00","17.1","","13.4","","79","","32","","30","","25.0","","98.41","","","","","","Mostly Cloudy"
"1992-09-18 20:00","1992","09","18","20:00","15.2","","12.0","","81","","31","","22","","24.1","","98.51","","","","","","Mostly Cloudy"
"1992-09-18 21:00","1992","09","18","21:00","14.4","","12.2","","87","","31","","15","","24.1","","98.61","","","","","","Mainly Clear"
"1992-09-18 22:00","1992","09","18","22:00","13.5","","11.8","","89","","29","","9","","24.1","","98.71","","","","","","Mainly Clear"
"1992-09-18 23:00","1992","09","18","23:00","13.5","","10.7","","83","","30","","19","","24.1","","98.77","","","","","","Clear"
"1992-09-19 00:00","1992","09","19","00:00","12.5","","9.3","","81","","30","","17","","24.1","","98.91","","","","","","Mainly Clear"
"1992-09-19 01:00","1992","09","19","01:00","11.5","","8.6","","82","","30","","15","","24.1","","98.94","","","","","","Clear"
"1992-09-19 02:00","1992","09","19","02:00","10.2","","8.1","","87","","29","","9","","25.0","","99.04","","","","","","Clear"
"1992-09-19 03:00","1992","09","19","03:00","10.6","","7.5","","81","","28","","13","","25.0","","99.11","","","","","","Clear"
"1992-09-19 04:00","1992","09","19","04:00","10.3","","7.5","","83","","29","","17","","25.0","","99.21","","","","","","Clear"
"1992-09-19 05:00","1992","09","19","05:00","9.2","","6.7","","84","","29","","11","","25.0","","99.24","","","","","","Clear"
"1992-09-19 06:00","1992","09","19","06:00","8.5","","6.6","","88","","31","","9","","24.1","","99.34","","","","","","Mainly Clear"
"1992-09-19 07:00","1992","09","19","07:00","9.1","","6.7","","85","","30","","7","","40.2","","99.47","","","","","","Mainly Clear"
"1992-09-19 08:00","1992","09","19","08:00","11.2","","6.8","","74","","31","","15","","40.2","","99.51","","","","","","Mainly Clear"
"1992-09-19 09:00","1992","09","19","09:00","12.5","","6.4","","66","","33","","15","","40.2","","99.61","","","","","","Mostly Cloudy"
"1992-09-19 10:00","1992","09","19","10:00","12.8","","5.7","","62","","33","","15","","40.2","","99.64","","","","","","Mostly Cloudy"
"1992-09-19 11:00","1992","09","19","11:00","13.8","","6.9","","63","","31","","15","","40.2","","99.64","","","","","","Mostly Cloudy"
"1992-09-19 12:00","1992","09","19","12:00","14.5","","6.7","","60","","31","","15","","40.2","","99.67","","","","","","Mostly Cloudy"
"1992-09-19 13:00","1992","09","19","13:00","15.5","","7.0","","57","","27","","11","","40.2","","99.61","","","","","","Mostly Cloudy"
"1992-09-19 14:00","1992","09","19","14:00","15.8","","4.4","","47","","29","","15","","40.2","","99.57","","","","","","Mostly Cloudy"
"1992-09-19 15:00","1992","09","19","15:00","15.8","","5.4","","50","","28","","13","","40.2","","99.54","","","","","","Mostly Cloudy"
"1992-09-19 16:00","1992","09","19","16:00","16.1","","5.9","","51","","30","","19","","40.2","","99.54","","","","","","Mostly Cloudy"
"1992-09-19 17:00","1992","09","19","17:00","15.4","","6.1","","54","","28","","11","","40.2","","99.54","","","","","","Mostly Cloudy"
"1992-09-19 18:00","1992","09","19","18:00","13.0","","6.2","","63","","31","","11","","40.2","","99.61","","","","","","Mainly Clear"
"1992-09-19 19:00","1992","09","19","19:00","11.3","","7.0","","75","","30","","9","","25.0","","99.64","","","","","","Mostly Cloudy"
"1992-09-19 20:00","1992","09","19","20:00","10.1","","6.5","","78","","31","","7","","25.0","","99.67","","","","","","Mainly Clear"
"1992-09-19 21:00","1992","09","19","21:00","9.3","","6.8","","84","","33","","7","","25.0","","99.71","","","","","","Mainly Clear"
"1992-09-19 22:00","1992","09","19","22:00","8.7","","6.1","","84","","35","","4","","25.0","","99.71","","","","","","Mainly Clear"
"1992-09-19 23:00","1992","09","19","23:00","8.3","","6.1","","86","","","","0","","25.0","","99.74","","","","","","Clear"
"1992-09-20 00:00","1992","09","20","00:00","8.4","","6.1","","86","","","","0","","25.0","","99.74","","","","","","Mostly Cloudy"
"1992-09-20 01:00","1992","09","20","01:00","7.5","","5.9","","90","","23","","4","","24.1","","99.74","","","","","","Mainly Clear"
"1992-09-20 02:00","1992","09","20","02:00","6.5","","5.3","","92","","","","0","","24.1","","99.74","","","","","","Clear"
"1992-09-20 03:00","1992","09","20","03:00","6.8","","5.4","","91","","","","0","","24.1","","99.71","","","","","","Clear"
"1992-09-20 04:00","1992","09","20","04:00","6.3","","5.7","","96","","","","0","","24.1","","99.77","","","","","","Clear"
"1992-09-20 05:00","1992","09","20","05:00","6.0","","4.8","","92","","","","0","","24.1","","99.81","","","","","","Clear"
"1992-09-20 06:00","1992","09","20","06:00","5.5","","4.7","","95","","35","","4","","40.2","","99.84","","","","","","Clear"
"1992-09-20 07:00","1992","09","20","07:00","6.7","","4.9","","88","","","","0","","40.2","","99.87","","","","","","Clear"
"1992-09-20 08:00","1992","09","20","08:00","9.7","","6.0","","78","","","","0","","40.2","","99.87","","","","","","Mainly Clear"
"1992-09-20 09:00","1992","09","20","09:00","13.2","","8.7","","74","","","","0","","32.2","","99.84","","","","","","Clear"
"1992-09-20 10:00","1992","09","20","10:00","14.8","","8.1","","64","","17","","11","","32.2","","99.84","","","","","","Clear"
"1992-09-20 11:00","1992","09","20","11:00","16.0","","6.8","","54","","14","","9","","40.2","","99.81","","","","","","Mainly Clear"
"1992-09-20 12:00","1992","09","20","12:00","16.5","","6.1","","50","","","","0","","40.2","","99.74","","","","","","Mainly Clear"
"1992-09-20 13:00","1992","09","20","13:00","16.5","","8.3","","58","","19","","7","","40.2","","99.71","","","","","","Mainly Clear"
"1992-09-20 14:00","1992","09","20","14:00","17.8","","10.1","","61","","18","","11","","40.2","","99.64","","","","","","Mainly Clear"
"1992-09-20 15:00","1992","09","20","15:00","17.2","","8.9","","58","","14","","13","","40.2","","99.57","","","","","","Mainly Clear"
"1992-09-20 16:00","1992","09","20","16:00","17.7","","9.1","","57","","15","","11","","40.2","","99.57","","","","","","Mainly Clear"
"1992-09-20 17:00","1992","09","20","17:00","17.0","","8.9","","59","","14","","9","","40.2","","99.57","","","","","","Mostly Cloudy"
"1992-09-20 18:00","1992","09","20","18:00","15.4","","9.5","","68","","13","","11","","40.2","","99.54","","","","","","Mostly Cloudy"
"1992-09-20 19:00","1992","09","20","19:00","14.4","","10.0","","75","","13","","11","","24.1","","99.51","","","","","","Mostly Cloudy"
"1992-09-20 20:00","1992","09","20","20:00","14.0","","10.2","","78","","13","","11","","25.0","","99.54","","","","","","Mostly Cloudy"
"1992-09-20 21:00","1992","09","20","21:00","14.1","","9.8","","75","","13","","11","","25.0","","99.51","","","","","","Mainly Clear"
"1992-09-20 22:00","1992","09","20","22:00","13.7","","10.4","","80","","12","","11","","25.0","","99.47","","","","","","Mainly Clear"
"1992-09-20 23:00","1992","09","20","23:00","13.6","","11.1","","85","","12","","11","","25.0","","99.41","","","","","","Cloudy"
"1992-09-21 00:00","1992","09","21","00:00","13.7","","11.8","","88","","","","0","","25.0","","99.31","","","","","","Cloudy"
"1992-09-21 01:00","1992","09","21","01:00","13.9","","12.3","","90","","","","0","","25.0","","99.27","","","","","","Cloudy"
"1992-09-21 02:00","1992","09","21","02:00","12.3","","11.5","","95","","","","0","","25.0","","99.24","","","","","","Cloudy"
"1992-09-21 03:00","1992","09","21","03:00","11.8","","11.0","","95","","","","0","","24.1","","99.21","","","","","","Cloudy"
"1992-09-21 04:00","1992","09","21","04:00","13.3","","12.2","","93","","","","0","","19.3","","99.14","","","","","","Cloudy"
"1992-09-21 05:00","1992","09","21","05:00","14.2","","12.7","","91","","11","","4","","16.1","","99.11","","","","","","Rain Showers"
"1992-09-21 06:00","1992","09","21","06:00","14.9","","13.7","","93","","12","","6","","9.7","","99.07","","","","","","Rain Showers,Fog"
"1992-09-21 07:00","1992","09","21","07:00","15.2","","14.4","","95","","11","","7","","4.8","","99.07","","","","","","Rain Showers,Fog"
"1992-09-21 08:00","1992","09","21","08:00","15.9","","15.4","","97","","13","","17","","3.2","","99.01","","","","","","Rain Showers,Fog"
"1992-09-21 09:00","1992","09","21","09:00","16.2","","15.7","","97","","14","","15","","2.8","","98.94","","","","","","Rain Showers,Fog"
"1992-09-21 10:00","1992","09","21","10:00","16.7","","16.2","","97","","13","","17","","1.6","","98.91","","","","","","Fog"
"1992-09-21 11:00","1992","09","21","11:00","17.7","","17.2","","97","","15","","15","","2.8","","98.81","","","","","","Rain Showers,Fog"
"1992-09-21 12:00","1992","09","21","12:00","18.6","","18.2","","98","","17","","17","","2.8","","98.81","","","","","","Rain Showers,Fog"
"1992-09-21 13:00","1992","09","21","13:00","19.3","","18.9","","98","","18","","19","","4.8","","98.74","","","","","","Rain Showers,Fog"
"1992-09-21 14:00","1992","09","21","14:00","19.4","","18.6","","95","","18","","22","","8.0","","98.71","","","","","","Fog"
"1992-09-21 15:00","1992","09","21","15:00","19.9","","18.8","","93","","17","","17","","4.8","","98.61","","","","","","Rain Showers,Fog"
"1992-09-21 16:00","1992","09","21","16:00","20.2","","18.8","","91","","17","","15","","4.8","","98.64","","27","","","","Fog"
"1992-09-21 17:00","1992","09","21","17:00","21.0","","19.2","","90","","18","","15","","9.7","","98.64","","28","","","","Fog"
"1992-09-21 18:00","1992","09","21","18:00","20.9","","19.2","","90","","17","","17","","8.0","","98.61","","28","","","","Fog"
"1992-09-21 19:00","1992","09","21","19:00","20.0","","18.5","","91","","19","","15","","8.0","","98.54","","26","","","","Fog"
"1992-09-21 20:00","1992","09","21","20:00","19.6","","17.7","","89","","18","","15","","16.1","","98.54","","","","","","Cloudy"
"1992-09-21 21:00","1992","09","21","21:00","19.4","","18.3","","93","","17","","11","","9.7","","98.54","","","","","","Fog"
"1992-09-21 22:00","1992","09","21","22:00","19.3","","18.9","","98","","17","","6","","6.4","","98.54","","","","","","Fog"
"1992-09-21 23:00","1992","09","21","23:00","20.1","","18.8","","92","","19","","15","","6.4","","98.51","","27","","","","Fog"
"1992-09-22 00:00","1992","09","22","00:00","20.5","","19.0","","91","","20","","22","","8.0","","98.44","","27","","","","Fog"
"1992-09-22 01:00","1992","09","22","01:00","20.3","","19.3","","94","","22","","15","","8.0","","98.41","","27","","","","Rain Showers,Fog"
"1992-09-22 02:00","1992","09","22","02:00","20.2","","18.5","","90","","21","","15","","9.7","","98.34","","27","","","","Fog"
"1992-09-22 03:00","1992","09","22","03:00","20.0","","18.5","","91","","22","","19","","8.0","","98.31","","26","","","","Rain Showers,Fog"
"1992-09-22 04:00","1992","09","22","04:00","20.0","","18.8","","93","","22","","15","","4.8","","98.27","","27","","","","Rain Showers,Fog"
"1992-09-22 05:00","1992","09","22","05:00","20.0","","19.1","","95","","22","","15","","4.8","","98.31","","27","","","","Rain Showers,Fog"
"1992-09-22 06:00","1992","09","22","06:00","19.9","","19.1","","95","","24","","11","","6.4","","98.31","","","","","","Rain,Fog"
"1992-09-22 07:00","1992","09","22","07:00","18.5","","18.2","","98","","28","","9","","2.4","","98.34","","","","","","Thunderstorms,Heavy Rain Showers,Fog"
"1992-09-22 08:00","1992","09","22","08:00","18.4","","18.2","","99","","31","","11","","16.1","","98.34","","","","","","Rain Showers"
"1992-09-22 09:00","1992","09","22","09:00","18.7","","17.3","","91","","30","","9","","19.3","","98.41","","","","","","Rain Showers"
"1992-09-22 10:00","1992","09","22","10:00","18.5","","16.3","","87","","30","","20","","19.3","","98.47","","","","","","Cloudy"
"1992-09-22 11:00","1992","09","22","11:00","18.2","","16.1","","88","","31","","24","","24.1","","98.54","","","","","","Cloudy"
"1992-09-22 12:00","1992","09","22","12:00","17.5","","14.6","","83","","31","","28","","24.1","","98.61","","","","","","Mostly Cloudy"
"1992-09-22 13:00","1992","09","22","13:00","16.7","","11.4","","71","","31","","28","","32.2","","98.71","","","","","","Mostly Cloudy"
"1992-09-22 14:00","1992","09","22","14:00","15.2","","9.0","","66","","32","","30","","32.2","","98.77","","","","","","Mostly Cloudy"
"1992-09-22 15:00","1992","09","22","15:00","14.1","","8.2","","68","","31","","30","","32.2","","98.84","","","","","","Mostly Cloudy"
"1992-09-22 16:00","1992","09","22","16:00","13.6","","5.9","","60","","31","","43","","32.2","","98.94","","","","","","Mainly Clear"
"1992-09-22 17:00","1992","09","22","17:00","12.6","","4.1","","56","","32","","37","","32.2","","99.11","","","","","","Mainly Clear"
"1992-09-22 18:00","1992","09","22","18:00","11.5","","5.7","","68","","31","","28","","32.2","","99.21","","","","","","Mostly Cloudy"
"1992-09-22 19:00","1992","09","22","19:00","10.1","","2.4","","59","","31","","33","","25.0","","99.31","","","","","","Mainly Clear"
"1992-09-22 20:00","1992","09","22","20:00","9.6","","2.3","","60","","30","","30","","25.0","","99.41","","","","","","Mainly Clear"
"1992-09-22 21:00","1992","09","22","21:00","9.0","","3.2","","67","","30","","26","","25.0","","99.54","","","","","","Mainly Clear"
"1992-09-22 22:00","1992","09","22","22:00","8.6","","3.5","","70","","30","","22","","25.0","","99.64","","","","","","Clear"
"1992-09-22 23:00","1992","09","22","23:00","8.1","","3.4","","72","","30","","17","","25.0","","99.74","","","","","","Clear"
"1992-09-23 00:00","1992","09","23","00:00","7.8","","3.4","","74","","32","","19","","25.0","","99.81","","","","","","Mainly Clear"
"1992-09-23 01:00","1992","09","23","01:00","7.4","","3.3","","75","","35","","28","","25.0","","99.94","","","","","","Mostly Cloudy"
"1992-09-23 02:00","1992","09","23","02:00","7.1","","3.6","","78","","33","","22","","25.0","","100.07","","","","","","Mostly Cloudy"
"1992-09-23 03:00","1992","09","23","03:00","6.4","","3.1","","80","","33","","11","","25.0","","100.11","","","","","","Mainly Clear"
"1992-09-23 04:00","1992","09","23","04:00","5.0","","3.3","","89","","33","","11","","25.0","","100.21","","","","","","Clear"
"1992-09-23 05:00","1992","09","23","05:00","4.3","","2.3","","87","","34","","15","","25.0","","100.31","","","","","","Clear"
"1992-09-23 06:00","1992","09","23","06:00","3.8","","1.7","","86","","34","","11","","25.0","","100.44","","","","","","Clear"
"1992-09-23 07:00","1992","09","23","07:00","4.0","","0.3","","77","","34","","13","","40.2","","100.57","","","","","","Clear"
"1992-09-23 08:00","1992","09","23","08:00","5.5","","0.4","","70","","34","","17","","40.2","","100.67","","","","","","Clear"
"1992-09-23 09:00","1992","09","23","09:00","6.3","","0.1","","65","","35","","15","","40.2","","100.74","","","","","","Mainly Clear"
"1992-09-23 10:00","1992","09","23","10:00","7.0","","-1.5","","55","","1","","19","","40.2","","100.77","","","","","","Clear"
"1992-09-23 11:00","1992","09","23","11:00","8.1","","-0.8","","53","","36","","17","","40.2","","100.77","","","","","","Clear"
"1992-09-23 12:00","1992","09","23","12:00","9.2","","0.6","","55","","33","","22","","40.2","","100.77","","","","","","Clear"
"1992-09-23 13:00","1992","09","23","13:00","9.8","","0.8","","53","","36","","20","","40.2","","100.77","","","","","","Clear"
"1992-09-23 14:00","1992","09","23","14:00","10.7","","2.0","","55","","32","","13","","40.2","","100.71","","","","","","Clear"
"1992-09-23 15:00","1992","09","23","15:00","10.1","","-0.3","","48","","33","","9","","40.2","","100.71","","","","","","Clear"
"1992-09-23 16:00","1992","09","23","16:00","10.1","","-0.3","","48","","35","","17","","40.2","","100.74","","","","","","Clear"
"1992-09-23 17:00","1992","09","23","17:00","9.8","","0.3","","52","","2","","15","","40.2","","100.77","","","","","","Clear"
"1992-09-23 18:00","1992","09","23","18:00","8.5","","1.0","","59","","2","","11","","40.2","","100.77","","","","","","Clear"
"1992-09-23 19:00","1992","09","23","19:00","6.8","","1.7","","70","","36","","11","","25.0","","100.81","","","","","","Clear"
"1992-09-23 20:00","1992","09","23","20:00","6.7","","1.6","","70","","36","","11","","25.0","","100.87","","","","","","Clear"
"1992-09-23 21:00","1992","09","23","21:00","5.6","","1.5","","75","","36","","13","","25.0","","100.91","","","","","","Clear"
"1992-09-23 22:00","1992","09","23","22:00","4.0","","1.3","","82","","35","","7","","25.0","","100.94","","","","","","Clear"
"1992-09-23 23:00","1992","09","23","23:00","3.4","","1.7","","89","","34","","4","","25.0","","100.97","","","","","","Clear"
"1992-09-24 00:00","1992","09","24","00:00","3.2","","1.1","","86","","35","","7","","25.0","","100.97","","","","","","Clear"
"1992-09-24 01:00","1992","09","24","01:00","2.5","","1.1","","91","","","","0","","25.0","","101.01","","","","","","Clear"
"1992-09-24 02:00","1992","09","24","02:00","2.2","","0.6","","89","","34","","4","","25.0","","101.01","","","","","","Clear"
"1992-09-24 03:00","1992","09","24","03:00","2.1","","0.6","","90","","34","","7","","25.0","","101.01","","","","","","Clear"
"1992-09-24 04:00","1992","09","24","04:00","1.9","","0.6","","91","","34","","6","","25.0","","101.07","","","","","","Clear"
"1992-09-24 05:00","1992","09","24","05:00","1.8","","0.6","","92","","34","","4","","25.0","","101.11","","","","","","Clear"
"1992-09-24 06:00","1992","09","24","06:00","2.0","","0.1","","87","","34","","6","","25.0","","101.14","","","","","","Clear"
"1992-09-24 07:00","1992","09","24","07:00","3.0","","0.7","","85","","35","","6","","40.2","","101.17","","","","","","Clear"
"1992-09-24 08:00","1992","09","24","08:00","6.3","","2.6","","77","","34","","4","","40.2","","101.21","","","","","","Clear"
"1992-09-24 09:00","1992","09","24","09:00","10.5","","4.9","","68","","8","","6","","40.2","","101.24","","","","","","Clear"
"1992-09-24 10:00","1992","09","24","10:00","12.4","","6.9","","69","","12","","15","","40.2","","101.24","","","","","","Mainly Clear"
"1992-09-24 11:00","1992","09","24","11:00","12.2","","5.8","","65","","13","","22","","40.2","","101.24","","","","","","Mainly Clear"
"1992-09-24 12:00","1992","09","24","12:00","12.5","","6.4","","66","","12","","20","","40.2","","101.24","","","","","","Clear"
"1992-09-24 13:00","1992","09","24","13:00","12.8","","5.7","","62","","12","","19","","40.2","","101.17","","","","","","Clear"
"1992-09-24 14:00","1992","09","24","14:00","13.9","","6.5","","61","","12","","19","","40.2","","101.17","","","","","","Clear"
"1992-09-24 15:00","1992","09","24","15:00","13.2","","4.3","","55","","9","","13","","40.2","","101.07","","","","","","Clear"
"1992-09-24 16:00","1992","09","24","16:00","13.5","","5.9","","60","","11","","15","","40.2","","101.01","","","","","","Clear"
"1992-09-24 17:00","1992","09","24","17:00","12.6","","4.6","","58","","8","","15","","40.2","","101.01","","","","","","Clear"
"1992-09-24 18:00","1992","09","24","18:00","11.5","","4.3","","61","","9","","15","","40.2","","100.97","","","","","","Clear"
"1992-09-24 19:00","1992","09","24","19:00","10.5","","4.0","","64","","9","","11","","25.0","","100.97","","","","","","Clear"
"1992-09-24 20:00","1992","09","24","20:00","9.8","","3.9","","67","","7","","9","","25.0","","100.94","","","","","","Clear"
"1992-09-24 21:00","1992","09","24","21:00","9.8","","4.8","","71","","9","","9","","25.0","","100.94","","","","","","Clear"
"1992-09-24 22:00","1992","09","24","22:00","10.2","","5.3","","71","","12","","15","","25.0","","100.94","","","","","","Clear"
"1992-09-24 23:00","1992","09","24","23:00","10.6","","7.5","","81","","11","","11","","25.0","","100.91","","","","","","Clear"
"1992-09-25 00:00","1992","09","25","00:00","11.2","","6.0","","70","","12","","11","","25.0","","100.87","","","","","","Clear"
"1992-09-25 01:00","1992","09","25","01:00","11.0","","6.4","","73","","12","","15","","25.0","","100.87","","","","","","Clear"
"1992-09-25 02:00","1992","09","25","02:00","10.7","","4.9","","67","","12","","9","","25.0","","100.84","","","","","","Clear"
"1992-09-25 03:00","1992","09","25","03:00","10.2","","6.1","","76","","11","","7","","25.0","","100.81","","","","","","Clear"
"1992-09-25 04:00","1992","09","25","04:00","10.3","","7.1","","81","","11","","9","","25.0","","100.77","","","","","","Clear"
"1992-09-25 05:00","1992","09","25","05:00","9.3","","6.8","","84","","","","0","","25.0","","100.77","","","","","","Clear"
"1992-09-25 06:00","1992","09","25","06:00","5.2","","3.3","","87","","","","0","","25.0","","100.77","","","","","","Clear"
"1992-09-25 07:00","1992","09","25","07:00","5.9","","4.8","","93","","1","","6","","40.2","","100.81","","","","","","Clear"
"1992-09-25 08:00","1992","09","25","08:00","9.6","","6.8","","82","","","","0","","24.1","","100.87","","","","","","Clear"
"1992-09-25 09:00","1992","09","25","09:00","12.9","","7.4","","69","","12","","17","","32.2","","100.87","","","","","","Clear"
"1992-09-25 10:00","1992","09","25","10:00","13.3","","5.9","","61","","11","","13","","40.2","","100.84","","","","","","Clear"
"1992-09-25 11:00","1992","09","25","11:00","14.1","","6.1","","59","","10","","19","","40.2","","100.81","","","","","","Clear"
"1992-09-25 12:00","1992","09","25","12:00","14.7","","5.3","","53","","9","","22","","40.2","","100.77","","","","","","Clear"
"1992-09-25 13:00","1992","09","25","13:00","15.3","","7.0","","58","","9","","20","","40.2","","100.71","","","","","","Clear"
"1992-09-25 14:00","1992","09","25","14:00","15.0","","5.5","","53","","11","","26","","40.2","","100.64","","","","","","Clear"
"1992-09-25 15:00","1992","09","25","15:00","15.1","","6.4","","56","","10","","26","","40.2","","100.61","","","","","","Mainly Clear"
"1992-09-25 16:00","1992","09","25","16:00","14.9","","7.3","","60","","10","","17","","40.2","","100.54","","","","","","Mainly Clear"
"1992-09-25 17:00","1992","09","25","17:00","14.5","","7.1","","61","","9","","13","","40.2","","100.54","","","","","","Mostly Cloudy"
"1992-09-25 18:00","1992","09","25","18:00","13.4","","7.2","","66","","9","","15","","40.2","","100.54","","","","","","Mostly Cloudy"
"1992-09-25 19:00","1992","09","25","19:00","12.7","","7.3","","69","","9","","17","","25.0","","100.54","","","","","","Mainly Clear"
"1992-09-25 20:00","1992","09","25","20:00","12.6","","7.7","","72","","8","","13","","25.0","","100.51","","","","","","Mostly Cloudy"
"1992-09-25 21:00","1992","09","25","21:00","12.0","","8.3","","78","","","","0","","25.0","","100.51","","","","","","Mostly Cloudy"
"1992-09-25 22:00","1992","09","25","22:00","13.2","","9.1","","76","","8","","17","","25.0","","100.47","","","","","","Mainly Clear"
"1992-09-25 23:00","1992","09","25","23:00","13.3","","10.4","","83","","10","","17","","25.0","","100.44","","","","","","Mostly Cloudy"
"1992-09-26 00:00","1992","09","26","00:00","12.7","","10.0","","84","","9","","4","","25.0","","100.41","","","","","","Mainly Clear"
"1992-09-26 01:00","1992","09","26","01:00","12.7","","10.0","","84","","","","0","","25.0","","100.37","","","","","","Mainly Clear"
"1992-09-26 02:00","1992","09","26","02:00","9.6","","8.8","","95","","","","0","","25.0","","100.37","","","","","","Mainly Clear"
"1992-09-26 03:00","1992","09","26","03:00","8.4","","7.7","","96","","","","0","","25.0","","100.31","","","","","","Mainly Clear"
"1992-09-26 04:00","1992","09","26","04:00","9.4","","8.8","","96","","","","0","","25.0","","100.27","","","","","","Mostly Cloudy"
"1992-09-26 05:00","1992","09","26","05:00","9.1","","8.6","","97","","33","","6","","25.0","","100.24","","","","","","Mostly Cloudy"
"1992-09-26 06:00","1992","09","26","06:00","10.1","","9.3","","95","","","","0","","25.0","","100.21","","","","","","Cloudy"
"1992-09-26 07:00","1992","09","26","07:00","12.3","","11.5","","95","","","","0","","19.3","","100.24","","","","","","Mostly Cloudy"
"1992-09-26 08:00","1992","09","26","08:00","14.3","","12.8","","91","","7","","9","","19.3","","100.17","","","","","","Mostly Cloudy"
"1992-09-26 09:00","1992","09","26","09:00","15.7","","12.2","","80","","10","","11","","24.1","","100.17","","","","","","Mostly Cloudy"
"1992-09-26 10:00","1992","09","26","10:00","16.0","","12.7","","81","","12","","19","","24.1","","100.11","","","","","","Mostly Cloudy"
"1992-09-26 11:00","1992","09","26","11:00","16.0","","12.3","","79","","10","","19","","24.1","","100.07","","","","","","Mostly Cloudy"
"1992-09-26 12:00","1992","09","26","12:00","14.7","","12.8","","88","","8","","15","","19.3","","100.01","","","","","","Cloudy"
"1992-09-26 13:00","1992","09","26","13:00","14.8","","13.0","","89","","10","","15","","19.3","","99.91","","","","","","Cloudy"
"1992-09-26 14:00","1992","09","26","14:00","14.5","","13.5","","94","","8","","13","","9.7","","99.87","","","","","","Fog"
"1992-09-26 15:00","1992","09","26","15:00","14.3","","13.5","","95","","9","","19","","6.4","","99.77","","","","","","Drizzle,Fog"
"1992-09-26 16:00","1992","09","26","16:00","14.2","","13.0","","92","","9","","17","","8.0","","99.71","","","","","","Fog"
"1992-09-26 17:00","1992","09","26","17:00","14.2","","13.0","","92","","11","","13","","6.4","","99.71","","","","","","Drizzle,Fog"
"1992-09-26 18:00","1992","09","26","18:00","14.1","","13.3","","95","","9","","9","","3.2","","99.64","","","","","","Drizzle,Fog"
"1992-09-26 19:00","1992","09","26","19:00","14.1","","13.7","","98","","9","","9","","4.0","","99.61","","","","","","Drizzle,Fog"
"1992-09-26 20:00","1992","09","26","20:00","14.5","","14.2","","98","","9","","9","","4.8","","99.57","","","","","","Drizzle,Fog"
"1992-09-26 21:00","1992","09","26","21:00","14.7","","14.2","","97","","9","","7","","6.4","","99.51","","","","","","Fog"
"1992-09-26 22:00","1992","09","26","22:00","14.9","","14.4","","97","","10","","4","","6.4","","99.47","","","","","","Fog"
"1992-09-26 23:00","1992","09","26","23:00","14.9","","14.4","","97","","13","","4","","6.4","","99.41","","","","","","Fog"
"1992-09-27 00:00","1992","09","27","00:00","14.9","","14.7","","99","","12","","4","","4.0","","99.31","","","","","","Fog"
"1992-09-27 01:00","1992","09","27","01:00","15.0","","14.7","","98","","13","","4","","4.0","","99.27","","","","","","Fog"
"1992-09-27 02:00","1992","09","27","02:00","15.1","","14.7","","98","","","","0","","2.8","","99.21","","","","","","Drizzle,Fog"
"1992-09-27 03:00","1992","09","27","03:00","15.2","","15.2","","100","","13","","9","","2.4","","99.11","","","","","","Rain,Drizzle,Fog"
"1992-09-27 04:00","1992","09","27","04:00","15.2","","15.2","","100","","14","","13","","2.8","","99.01","","","","","","Rain,Drizzle,Fog"
"1992-09-27 05:00","1992","09","27","05:00","15.5","","15.5","","100","","14","","11","","0.4","","98.94","","","","","","Fog"
"1992-09-27 06:00","1992","09","27","06:00","16.1","","16.1","","100","","15","","13","","0.8","","98.87","","","","","","Drizzle,Fog"
"1992-09-27 07:00","1992","09","27","07:00","17.0","","17.0","","100","","16","","15","","1.6","","98.81","","","","","","Fog"
"1992-09-27 08:00","1992","09","27","08:00","17.2","","17.2","","100","","18","","26","","2.0","","98.74","","","","","","Rain,Fog"
"1992-09-27 09:00","1992","09","27","09:00","18.5","","17.0","","91","","23","","22","","9.7","","98.74","","","","","","Fog"
"1992-09-27 10:00","1992","09","27","10:00","19.0","","13.5","","70","","24","","44","","40.2","","98.74","","","","","","Mainly Clear"
"1992-09-27 11:00","1992","09","27","11:00","17.5","","12.6","","73","","27","","44","","32.2","","98.84","","","","","","Rain Showers"
"1992-09-27 12:00","1992","09","27","12:00","18.0","","10.9","","63","","26","","48","","32.2","","98.94","","","","","","Mainly Clear"
"1992-09-27 13:00","1992","09","27","13:00","17.7","","9.9","","60","","28","","44","","32.2","","98.97","","","","","","Mostly Cloudy"
"1992-09-27 14:00","1992","09","27","14:00","18.7","","9.9","","56","","28","","33","","32.2","","99.04","","","","","","Mainly Clear"
"1992-09-27 15:00","1992","09","27","15:00","19.0","","10.1","","56","","26","","30","","32.2","","99.11","","","","","","Mainly Clear"
"1992-09-27 16:00","1992","09","27","16:00","18.5","","9.9","","57","","26","","37","","32.2","","99.14","","","","","","Mainly Clear"
"1992-09-27 17:00","1992","09","27","17:00","18.3","","10.3","","60","","27","","19","","32.2","","99.24","","","","","","Mostly Cloudy"
"1992-09-27 18:00","1992","09","27","18:00","16.8","","9.7","","63","","28","","19","","32.2","","99.37","","","","","","Mainly Clear"
"1992-09-27 19:00","1992","09","27","19:00","15.1","","9.8","","70","","28","","17","","25.0","","99.47","","","","","","Mainly Clear"
"1992-09-27 20:00","1992","09","27","20:00","14.0","","9.4","","74","","26","","15","","25.0","","99.54","","","","","","Clear"
"1992-09-27 21:00","1992","09","27","21:00","12.8","","9.4","","80","","28","","9","","25.0","","99.61","","","","","","Clear"
"1992-09-27 22:00","1992","09","27","22:00","12.2","","8.7","","79","","30","","11","","25.0","","99.64","","","","","","Mainly Clear"
"1992-09-27 23:00","1992","09","27","23:00","10.1","","8.1","","87","","","","0","","25.0","","99.64","","","","","","Clear"
"1992-09-28 00:00","1992","09","28","00:00","10.0","","8.1","","88","","","","0","","25.0","","99.64","","","","","","Clear"
"1992-09-28 01:00","1992","09","28","01:00","9.8","","8.1","","89","","","","0","","25.0","","99.67","","","","","","Clear"
"1992-09-28 02:00","1992","09","28","02:00","10.2","","7.4","","83","","","","0","","25.0","","99.71","","","","","","Clear"
"1992-09-28 03:00","1992","09","28","03:00","9.6","","7.6","","87","","","","0","","25.0","","99.71","","","","","","Clear"
"1992-09-28 04:00","1992","09","28","04:00","8.6","","7.0","","90","","","","0","","25.0","","99.77","","","","","","Mainly Clear"
"1992-09-28 05:00","1992","09","28","05:00","6.8","","6.2","","96","","","","0","","25.0","","99.74","","","","","","Clear"
"1992-09-28 06:00","1992","09","28","06:00","6.2","","5.6","","96","","27","","6","","25.0","","99.77","","","","","","Clear"
"1992-09-28 07:00","1992","09","28","07:00","7.6","","6.7","","94","","","","0","","8.0","","99.77","","","","","","Fog"
"1992-09-28 08:00","1992","09","28","08:00","11.0","","9.6","","91","","","","0","","12.9","","99.77","","","","","","Clear"
"1992-09-28 09:00","1992","09","28","09:00","13.7","","9.2","","74","","24","","9","","16.1","","99.74","","","","","","Clear"
"1992-09-28 10:00","1992","09","28","10:00","15.2","","7.7","","61","","21","","20","","24.1","","99.67","","","","","","Clear"
"1992-09-28 11:00","1992","09","28","11:00","16.6","","8.3","","58","","23","","19","","24.1","","99.61","","","","","","Clear"
"1992-09-28 12:00","1992","09","28","12:00","18.2","","8.5","","53","","22","","22","","40.2","","99.54","","","","","","Clear"
"1992-09-28 13:00","1992","09","28","13:00","19.7","","9.1","","50","","21","","20","","40.2","","99.41","","","","","","Clear"
"1992-09-28 14:00","1992","09","28","14:00","20.0","","9.3","","50","","23","","22","","40.2","","99.37","","","","","","Mainly Clear"
"1992-09-28 15:00","1992","09","28","15:00","17.3","","12.6","","74","","24","","20","","24.1","","99.34","","","","","","Rain Showers"
"1992-09-28 16:00","1992","09","28","16:00","17.4","","11.1","","67","","28","","26","","40.2","","99.37","","","","","","Mostly Cloudy"
"1992-09-28 17:00","1992","09","28","17:00","17.2","","10.1","","63","","27","","13","","24.1","","99.37","","","","","","Mainly Clear"
"1992-09-28 18:00","1992","09","28","18:00","14.2","","7.4","","63","","31","","35","","24.1","","99.51","","","","","","Mainly Clear"
"1992-09-28 19:00","1992","09","28","19:00","11.2","","4.6","","64","","30","","26","","25.0","","99.67","","","","","","Mainly Clear"
"1992-09-28 20:00","1992","09","28","20:00","10.0","","3.9","","66","","29","","19","","25.0","","99.74","","","","","","Clear"
"1992-09-28 21:00","1992","09","28","21:00","9.5","","4.2","","70","","30","","26","","25.0","","99.77","","","","","","Mainly Clear"
"1992-09-28 22:00","1992","09","28","22:00","8.6","","3.5","","70","","30","","22","","25.0","","99.87","","","","","","Mainly Clear"
"1992-09-28 23:00","1992","09","28","23:00","7.4","","3.3","","75","","31","","30","","25.0","","99.87","","","","","","Mainly Clear"
"1992-09-29 00:00","1992","09","29","00:00","6.9","","2.7","","75","","31","","22","","25.0","","99.87","","","","","","Clear"
"1992-09-29 01:00","1992","09","29","01:00","6.3","","2.6","","77","","30","","22","","25.0","","99.91","","","","","","Mainly Clear"
"1992-09-29 02:00","1992","09","29","02:00","6.7","","2.6","","75","","30","","24","","25.0","","99.91","","","","","","Mostly Cloudy"
"1992-09-29 03:00","1992","09","29","03:00","6.0","","1.5","","73","","30","","39","","25.0","","99.94","","","","","","Mainly Clear"
"1992-09-29 04:00","1992","09","29","04:00","5.3","","2.0","","79","","30","","20","","25.0","","99.97","","","","","","Clear"
"1992-09-29 05:00","1992","09","29","05:00","4.8","","0.9","","76","","30","","24","","25.0","","100.01","","","","","","Clear"
"1992-09-29 06:00","1992","09","29","06:00","4.6","","0.3","","73","","31","","28","","24.1","","100.07","","","","","","Clear"
"1992-09-29 07:00","1992","09","29","07:00","4.6","","0.3","","73","","30","","24","","32.2","","100.17","","","","","","Mainly Clear"
"1992-09-29 08:00","1992","09","29","08:00","5.6","","0.4","","69","","30","","24","","32.2","","100.21","","","","","","Mainly Clear"
"1992-09-29 09:00","1992","09","29","09:00","6.9","","0.2","","62","","31","","26","","32.2","","100.31","","","","","","Mainly Clear"
"1992-09-29 10:00","1992","09","29","10:00","8.4","","1.0","","60","","33","","31","","32.2","","100.34","","","","","","Mostly Cloudy"
"1992-09-29 11:00","1992","09","29","11:00","8.0","","0.9","","61","","34","","30","","40.2","","100.37","","","","","","Mostly Cloudy"
"1992-09-29 12:00","1992","09","29","12:00","9.2","","1.1","","57","","32","","22","","40.2","","100.37","","","","","","Mostly Cloudy"
"1992-09-29 13:00","1992","09","29","13:00","9.2","","1.1","","57","","32","","19","","40.2","","100.34","","","","","","Mostly Cloudy"
"1992-09-29 14:00","1992","09","29","14:00","10.7","","1.0","","51","","32","","20","","40.2","","100.31","","","","","","Mostly Cloudy"
"1992-09-29 15:00","1992","09","29","15:00","10.2","","0.3","","50","","32","","26","","40.2","","100.31","","","","","","Mostly Cloudy"
"1992-09-29 16:00","1992","09","29","16:00","9.5","","0.2","","52","","29","","26","","40.2","","100.34","","","","","","Mainly Clear"
"1992-09-29 17:00","1992","09","29","17:00","7.8","","-0.2","","57","","32","","26","","40.2","","100.37","","","","","","Mainly Clear"
"1992-09-29 18:00","1992","09","29","18:00","7.0","","-0.4","","59","","31","","26","","40.2","","100.37","","","","","","Mainly Clear"
"1992-09-29 19:00","1992","09","29","19:00","4.9","","0.4","","73","","32","","20","","25.0","","100.41","","","","","","Mostly Cloudy"
"1992-09-29 20:00","1992","09","29","20:00","4.9","","-0.2","","69","","31","","22","","25.0","","100.44","","","","","","Mostly Cloudy"
"1992-09-29 21:00","1992","09","29","21:00","4.7","","-0.8","","67","","32","","17","","25.0","","100.41","","","","","","Mostly Cloudy"
"1992-09-29 22:00","1992","09","29","22:00","4.5","","0.8","","77","","30","","7","","25.0","","100.37","","","","","","Cloudy"
"1992-09-29 23:00","1992","09","29","23:00","4.6","","0.8","","76","","29","","7","","25.0","","100.41","","","","","","Cloudy"
"1992-09-30 00:00","1992","09","30","00:00","4.1","","1.3","","82","","26","","4","","25.0","","100.41","","","","","","Cloudy"
"1992-09-30 01:00","1992","09","30","01:00","4.2","","1.7","","84","","32","","7","","25.0","","100.41","","","","","","Cloudy"
"1992-09-30 02:00","1992","09","30","02:00","4.7","","0.8","","76","","32","","7","","25.0","","100.41","","","","","","Cloudy"
"1992-09-30 03:00","1992","09","30","03:00","4.4","","1.3","","80","","32","","9","","25.0","","100.41","","","","","","Cloudy"
"1992-09-30 04:00","1992","09","30","04:00","3.8","","0.8","","81","","32","","7","","25.0","","100.37","","","","","","Mostly Cloudy"
"1992-09-30 05:00","1992","09","30","05:00","4.0","","0.3","","77","","33","","7","","25.0","","100.41","","","","","","Cloudy"
"1992-09-30 06:00","1992","09","30","06:00","3.7","","0.2","","78","","33","","7","","24.1","","100.41","","","","","","Mostly Cloudy"
"1992-09-30 07:00","1992","09","30","07:00","3.2","","0.2","","81","","34","","6","","40.2","","100.44","","","","","","Mostly Cloudy"
"1992-09-30 08:00","1992","09","30","08:00","5.0","","-0.7","","66","","29","","4","","40.2","","100.47","","","","","","Mainly Clear"
"1992-09-30 09:00","1992","09","30","09:00","6.3","","0.6","","67","","28","","6","","40.2","","100.47","","","","","","Mostly Cloudy"
"1992-09-30 10:00","1992","09","30","10:00","7.5","","1.3","","65","","27","","11","","40.2","","100.41","","","","","","Mostly Cloudy"
"1992-09-30 11:00","1992","09","30","11:00","8.8","","2.2","","63","","29","","19","","40.2","","100.37","","","","","","Mostly Cloudy"
"1992-09-30 12:00","1992","09","30","12:00","9.5","","1.3","","56","","30","","19","","40.2","","100.34","","","","","","Mostly Cloudy"
"1992-09-30 13:00","1992","09","30","13:00","9.3","","2.3","","62","","36","","15","","40.2","","100.27","","","","","","Mostly Cloudy"
"1992-09-30 14:00","1992","09","30","14:00","9.2","","4.1","","70","","1","","19","","40.2","","100.27","","","","","","Mostly Cloudy"
"1992-09-30 15:00","1992","09","30","15:00","8.0","","3.9","","75","","36","","20","","40.2","","100.21","","","","","","Mostly Cloudy"
"1992-09-30 16:00","1992","09","30","16:00","9.2","","3.2","","66","","34","","11","","40.2","","100.14","","","","","","Mostly Cloudy"
"1992-09-30 17:00","1992","09","30","17:00","8.7","","2.0","","63","","34","","17","","40.2","","100.14","","","","","","Mainly Clear"
"1992-09-30 18:00","1992","09","30","18:00","7.0","","2.7","","74","","33","","7","","40.2","","100.21","","","","","","Mostly Cloudy"
"1992-09-30 19:00","1992","09","30","19:00","6.0","","2.0","","75","","34","","7","","25.0","","100.27","","","","","","Mainly Clear"
"1992-09-30 20:00","1992","09","30","20:00","5.7","","2.9","","82","","25","","4","","25.0","","100.27","","","","","","Mostly Cloudy"
"1992-09-30 21:00","1992","09","30","21:00","5.4","","3.4","","87","","28","","6","","25.0","","100.24","","","","","","Mostly Cloudy"
"1992-09-30 22:00","1992","09","30","22:00","4.6","","2.7","","88","","26","","7","","25.0","","100.17","","","","","","Mainly Clear"
"1992-09-30 23:00","1992","09","30","23:00","4.0","","2.7","","91","","27","","4","","25.0","","100.21","","","","","","Mainly Clear"
