"Station Name","TORONTO LESTER B. PEARSON INT'L A"
"Province","ONTARIO"
"Latitude","43.68"
"Longitude","-79.63"
"Elevation","173.40"
"Climate Identifier","6158733"
"WMO Identifier","71624"
"TC Identifier","YYZ"
"All times are specified in Local Standard Time (LST). Add 1 hour to adjust for Daylight Saving Time where and when it is observed."

"Legend"
"E","Estimated"
"M","Missing"
"NA","Not Available"

"Date/Time","Year","Month","Day","Time","Temp (°C)","Temp Flag","Dew Point Temp (°C)","Dew Point Temp Flag","Rel Hum (%)","Rel Hum Flag","Wind Dir (10s deg)","Wind Dir Flag","Wind Spd (km/h)","Wind Spd Flag","Visibility (km)","Visibility Flag","Stn Press (kPa)","Stn Press Flag","Hmdx","Hmdx Flag","Wind Chill","Wind Chill Flag","Weather"
"2006-01-01 00:00","2006","01","01","00:00","-5.2","","-7.4","","84","","31","","7","","19.3","","98.90","","","","-8","","Cloudy"
"2006-01-01 01:00","2006","01","01","01:00","-5.0","","-7.0","","86","","","","0","","19.3","","98.96","","","","","","Cloudy"
"2006-01-01 02:00","2006","01","01","02:00","-5.4","","-6.3","","93","","4","","4","","4.0","","99.01","","","","-7","","Fog"
"2006-01-01 03:00","2006","01","01","03:00","-5.0","","-5.6","","96","","5","","4","","2.0","","99.05","","","","-7","","Fog"
"2006-01-01 04:00","2006","01","01","04:00","-4.6","","-5.2","","96","","","","0","","2.0","","99.08","","","","","","Fog"
"2006-01-01 05:00","2006","01","01","05:00","-4.7","","-5.2","","96","","34","","4","","3.2","","99.13","","","","-6","","Fog"
"2006-01-01 06:00","2006","01","01","06:00","-4.2","","-4.8","","96","","32","","6","","2.8","","99.19","","","","-7","","Fog"
"2006-01-01 07:00","2006","01","01","07:00","-3.9","","-4.5","","96","","36","","6","","3.6","","99.27","","","","-7","","Fog"
"2006-01-01 08:00","2006","01","01","08:00","-3.8","","-4.2","","97","","4","","4","","2.0","","99.33","","","","-5","","Fog"
"2006-01-01 09:00","2006","01","01","09:00","-3.3","","-3.7","","97","","","","0","","2.8","","99.42","","","","","","Fog"
"2006-01-01 10:00","2006","01","01","10:00","-2.6","","-3.0","","97","","","","0","","3.2","","99.49","","","","","","Fog"
"2006-01-01 11:00","2006","01","01","11:00","-1.9","","-2.3","","97","","18","","6","","3.2","","99.49","","","","-4","","Fog"
"2006-01-01 12:00","2006","01","01","12:00","-1.4","","-2.0","","96","","","","0","","3.2","","99.49","","","","","","Fog"
"2006-01-01 13:00","2006","01","01","13:00","-0.9","","-1.4","","96","","17","","6","","3.2","","99.50","","","","-3","","Fog"
"2006-01-01 14:00","2006","01","01","14:00","-0.4","","-1.0","","96","","13","","6","","3.2","","99.48","","","","-2","","Fog"
"2006-01-01 15:00","2006","01","01","15:00","0.2","","-0.5","","95","","16","","6","","3.2","","99.57","","","","","","Fog"
"2006-01-01 16:00","2006","01","01","16:00","-0.2","","-0.6","","97","","14","","9","","2.4","","99.64","","","","-3","","Fog"
"2006-01-01 17:00","2006","01","01","17:00","-0.1","","-0.5","","97","","15","","7","","1.6","","99.70","","","","-3","","Fog"
"2006-01-01 18:00","2006","01","01","18:00","0.1","","-0.2","","98","","15","","9","","3.6","","99.76","","","","","","Fog"
"2006-01-01 19:00","2006","01","01","19:00","0.5","","0.3","","99","","12","","6","","2.8","","99.80","","","","","","Fog"
"2006-01-01 20:00","2006","01","01","20:00","0.8","","0.7","","99","","13","","6","","3.2","","99.81","","","","","","Fog"
"2006-01-01 21:00","2006","01","01","21:00","1.1","","0.9","","99","","12","","4","","4.0","","99.80","","","","","","Fog"
"2006-01-01 22:00","2006","01","01","22:00","1.1","","0.9","","99","","8","","6","","4.0","","99.79","","","","","","Fog"
"2006-01-01 23:00","2006","01","01","23:00","1.1","","0.8","","98","","9","","6","","4.0","","99.83","","","","","","Fog"
"2006-01-02 00:00","2006","01","02","00:00","0.6","","0.3","","98","","6","","6","","4.0","","99.80","","","","","","Fog"
"2006-01-02 01:00","2006","01","02","01:00","0.5","","0.3","","99","","6","","6","","3.2","","99.81","","","","","","Fog"
"2006-01-02 02:00","2006","01","02","02:00","0.0","","-0.1","","99","","4","","4","","2.8","","99.87","","","","-1","","Fog"
"2006-01-02 03:00","2006","01","02","03:00","0.1","","-0.1","","99","","5","","7","","4.0","","99.88","","","","","","Fog"
"2006-01-02 04:00","2006","01","02","04:00","0.4","","0.2","","99","","6","","11","","0.8","","99.86","","","","","","Fog"
"2006-01-02 05:00","2006","01","02","05:00","0.8","","0.7","","99","","8","","9","","1.0","","99.79","","","","","","Fog"
"2006-01-02 06:00","2006","01","02","06:00","1.0","","0.9","","99","","9","","13","","4.0","","99.72","","","","","","Fog"
"2006-01-02 07:00","2006","01","02","07:00","1.4","","1.3","","99","","8","","13","","3.2","","99.71","","","","","","Fog"
"2006-01-02 08:00","2006","01","02","08:00","1.3","","1.1","","99","","9","","13","","3.2","","99.73","","","","","","Fog"
"2006-01-02 09:00","2006","01","02","09:00","1.6","","1.4","","99","","8","","19","","4.0","","99.73","","","","","","Drizzle,Fog"
"2006-01-02 10:00","2006","01","02","10:00","2.0","","1.7","","98","","10","","15","","4.8","","99.73","","","","","","Drizzle,Fog"
"2006-01-02 11:00","2006","01","02","11:00","2.2","","1.6","","96","","8","","15","","6.4","","99.69","","","","","","Drizzle,Fog"
"2006-01-02 12:00","2006","01","02","12:00","2.4","","1.6","","94","","9","","19","","6.4","","99.59","","","","","","Rain,Drizzle,Fog"
"2006-01-02 13:00","2006","01","02","13:00","2.4","","1.5","","94","","9","","32","","6.4","","99.43","","","","","","Rain,Fog"
"2006-01-02 14:00","2006","01","02","14:00","2.4","","1.5","","94","","8","","32","","6.4","","99.38","","","","","","Rain,Fog"
"2006-01-02 15:00","2006","01","02","15:00","2.1","","1.3","","94","","9","","33","","8.0","","99.31","","","","","","Rain"
"2006-01-02 16:00","2006","01","02","16:00","2.1","","0.7","","90","","9","","30","","12.9","","99.37","","","","","","Cloudy"
"2006-01-02 17:00","2006","01","02","17:00","2.1","","0.8","","91","","9","","35","","11.3","","99.35","","","","","","Cloudy"
"2006-01-02 18:00","2006","01","02","18:00","2.0","","0.5","","90","","8","","28","","12.9","","99.35","","","","","","Cloudy"
"2006-01-02 19:00","2006","01","02","19:00","1.9","","0.3","","89","","8","","30","","14.5","","99.29","","","","","","Cloudy"
"2006-01-02 20:00","2006","01","02","20:00","2.1","","0.5","","89","","8","","30","","16.1","","99.24","","","","","","Cloudy"
"2006-01-02 21:00","2006","01","02","21:00","2.4","","1.2","","92","","8","","30","","12.9","","99.20","","","","","","Cloudy"
"2006-01-02 22:00","2006","01","02","22:00","2.2","","1.2","","93","","8","","32","","14.5","","99.19","","","","","","Cloudy"
"2006-01-02 23:00","2006","01","02","23:00","2.4","","1.5","","94","","8","","33","","12.9","","99.17","","","","","","Cloudy"
"2006-01-03 00:00","2006","01","03","00:00","2.0","","1.3","","95","","9","","28","","12.9","","99.15","","","","","","Cloudy"
"2006-01-03 01:00","2006","01","03","01:00","1.9","","1.1","","94","","8","","24","","11.3","","99.12","","","","","","Cloudy"
"2006-01-03 02:00","2006","01","03","02:00","1.9","","1.1","","94","","9","","26","","11.3","","99.16","","","","","","Cloudy"
"2006-01-03 03:00","2006","01","03","03:00","1.8","","1.0","","94","","9","","24","","11.3","","99.20","","","","","","Cloudy"
"2006-01-03 04:00","2006","01","03","04:00","1.5","","0.4","","92","","9","","24","","12.9","","99.22","","","","","","Cloudy"
"2006-01-03 05:00","2006","01","03","05:00","1.6","","0.6","","93","","9","","22","","12.9","","99.19","","","","","","Cloudy"
"2006-01-03 06:00","2006","01","03","06:00","1.8","","0.8","","93","","8","","20","","12.9","","99.24","","","","","","Cloudy"
"2006-01-03 07:00","2006","01","03","07:00","1.6","","0.5","","92","","8","","24","","9.7","","99.30","","","","","","Drizzle"
"2006-01-03 08:00","2006","01","03","08:00","1.7","","0.3","","90","","9","","19","","9.7","","99.33","","","","","","Drizzle"
"2006-01-03 09:00","2006","01","03","09:00","1.6","","0.0","","89","","9","","19","","9.7","","99.43","","","","","","Drizzle"
"2006-01-03 10:00","2006","01","03","10:00","1.9","","0.4","","90","","10","","24","","12.9","","99.47","","","","","","Cloudy"
"2006-01-03 11:00","2006","01","03","11:00","1.9","","0.3","","89","","10","","17","","12.9","","99.50","","","","","","Cloudy"
"2006-01-03 12:00","2006","01","03","12:00","1.5","","0.0","","90","","9","","19","","9.7","","99.47","","","","","","Drizzle"
"2006-01-03 13:00","2006","01","03","13:00","1.5","","0.0","","90","","9","","15","","9.7","","99.46","","","","","","Drizzle"
"2006-01-03 14:00","2006","01","03","14:00","1.5","","-0.1","","89","","10","","15","","12.9","","99.48","","","","","","Cloudy"
"2006-01-03 15:00","2006","01","03","15:00","1.5","","-0.4","","87","","10","","15","","14.5","","99.56","","","","","","Cloudy"
"2006-01-03 16:00","2006","01","03","16:00","1.4","","-0.4","","88","","8","","15","","14.5","","99.62","","","","","","Cloudy"
"2006-01-03 17:00","2006","01","03","17:00","1.6","","-0.3","","87","","10","","9","","11.3","","99.66","","","","","","Drizzle"
"2006-01-03 18:00","2006","01","03","18:00","1.4","","0.1","","91","","10","","17","","12.9","","99.55","","","","","","Cloudy"
"2006-01-03 19:00","2006","01","03","19:00","1.4","","0.3","","92","","10","","20","","14.5","","99.59","","","","","","Cloudy"
"2006-01-03 20:00","2006","01","03","20:00","1.7","","0.7","","93","","11","","13","","14.5","","99.62","","","","","","Cloudy"
"2006-01-03 21:00","2006","01","03","21:00","2.1","","1.4","","95","","11","","9","","12.9","","99.60","","","","","","Cloudy"
"2006-01-03 22:00","2006","01","03","22:00","2.4","","1.5","","94","","8","","11","","12.9","","99.57","","","","","","Cloudy"
"2006-01-03 23:00","2006","01","03","23:00","2.5","","1.9","","96","","9","","7","","11.3","","99.57","","","","","","Cloudy"
"2006-01-04 00:00","2006","01","04","00:00","2.5","","1.9","","96","","9","","9","","9.7","","99.49","","","","","","Fog"
"2006-01-04 01:00","2006","01","04","01:00","2.2","","1.4","","94","","10","","13","","8.0","","99.44","","","","","","Fog"
"2006-01-04 02:00","2006","01","04","02:00","1.6","","0.8","","94","","11","","15","","16.1","","99.41","","","","","","Cloudy"
"2006-01-04 03:00","2006","01","04","03:00","1.7","","1.1","","96","","11","","9","","16.1","","99.37","","","","","","Cloudy"
"2006-01-04 04:00","2006","01","04","04:00","2.5","","2.0","","96","","12","","9","","14.5","","99.32","","","","","","Cloudy"
"2006-01-04 05:00","2006","01","04","05:00","2.7","","2.3","","97","","11","","9","","14.5","","99.20","","","","","","Cloudy"
"2006-01-04 06:00","2006","01","04","06:00","3.2","","2.2","","93","","14","","9","","14.5","","99.20","","","","","","Cloudy"
"2006-01-04 07:00","2006","01","04","07:00","3.3","","2.2","","92","","12","","13","","16.1","","99.10","","","","","","Cloudy"
"2006-01-04 08:00","2006","01","04","08:00","3.5","","2.3","","92","","13","","13","","8.0","","99.08","","","","","","Drizzle,Fog"
"2006-01-04 09:00","2006","01","04","09:00","3.3","","2.8","","97","","13","","11","","3.6","","99.03","","","","","","Rain,Drizzle,Fog"
"2006-01-04 10:00","2006","01","04","10:00","3.3","","3.0","","98","","13","","13","","2.4","","98.88","","","","","","Rain,Fog"
"2006-01-04 11:00","2006","01","04","11:00","3.6","","3.4","","99","","14","","11","","4.8","","98.79","","","","","","Rain,Fog"
"2006-01-04 12:00","2006","01","04","12:00","3.6","","3.4","","99","","15","","13","","3.2","","98.64","","","","","","Rain,Fog"
"2006-01-04 13:00","2006","01","04","13:00","3.8","","3.7","","99","","17","","9","","2.8","","98.51","","","","","","Rain,Fog"
"2006-01-04 14:00","2006","01","04","14:00","4.2","","4.2","","100","","16","","7","","1.6","","98.38","","","","","","Drizzle,Fog"
"2006-01-04 15:00","2006","01","04","15:00","4.4","","4.4","","100","","13","","9","","0.4","","98.30","","","","","","Drizzle,Fog"
"2006-01-04 16:00","2006","01","04","16:00","4.4","","4.4","","100","","12","","11","","0.2","","98.30","","","","","","Fog"
"2006-01-04 17:00","2006","01","04","17:00","4.4","","4.4","","100","","12","","7","","0.6","","98.24","","","","","","Drizzle,Fog"
"2006-01-04 18:00","2006","01","04","18:00","4.7","","4.7","","100","","15","","9","","1.2","","98.20","","","","","","Drizzle,Fog"
"2006-01-04 19:00","2006","01","04","19:00","4.5","","4.5","","100","","14","","9","","1.6","","98.18","","","","","","Drizzle,Fog"
"2006-01-04 20:00","2006","01","04","20:00","4.5","","4.5","","100","","16","","7","","3.2","","98.12","","","","","","Drizzle,Fog"
"2006-01-04 21:00","2006","01","04","21:00","4.8","","4.8","","100","","19","","6","","4.8","","98.06","","","","","","Fog"
"2006-01-04 22:00","2006","01","04","22:00","5.0","","5.0","","100","","24","","7","","6.4","","98.02","","","","","","Fog"
"2006-01-04 23:00","2006","01","04","23:00","5.1","","5.0","","99","","21","","7","","11.3","","98.00","","","","","","Rain"
"2006-01-05 00:00","2006","01","05","00:00","4.8","","4.7","","99","","24","","11","","11.3","","97.97","","","","","","Rain"
"2006-01-05 01:00","2006","01","05","01:00","4.2","","3.9","","98","","27","","11","","12.9","","97.94","","","","","","Rain"
"2006-01-05 02:00","2006","01","05","02:00","3.9","","3.6","","98","","25","","13","","6.4","","97.94","","","","","","Rain"
"2006-01-05 03:00","2006","01","05","03:00","3.7","","3.0","","95","","26","","20","","9.7","","97.96","","","","","","Rain"
"2006-01-05 04:00","2006","01","05","04:00","3.0","","2.4","","96","","26","","20","","9.7","","97.97","","","","","","Rain"
"2006-01-05 05:00","2006","01","05","05:00","1.9","","1.2","","95","","26","","20","","9.7","","97.97","","","","","","Rain"
"2006-01-05 06:00","2006","01","05","06:00","1.8","","1.2","","96","","27","","22","","9.7","","98.00","","","","","","Rain"
"2006-01-05 07:00","2006","01","05","07:00","1.9","","1.2","","95","","28","","22","","9.7","","98.07","","","","","","Rain"
"2006-01-05 08:00","2006","01","05","08:00","2.0","","1.1","","94","","29","","17","","24.1","","98.14","","","","","","Mostly Cloudy"
"2006-01-05 09:00","2006","01","05","09:00","2.4","","0.7","","89","","34","","20","","24.1","","98.25","","","","","","Cloudy"
"2006-01-05 10:00","2006","01","05","10:00","2.0","","0.0","","87","","33","","33","","24.1","","98.34","","","","","","Cloudy"
"2006-01-05 11:00","2006","01","05","11:00","2.1","","-0.9","","80","","34","","30","","24.1","","98.40","","","","","","Cloudy"
"2006-01-05 12:00","2006","01","05","12:00","2.2","","-1.7","","75","","34","","33","","24.1","","98.40","","","","","","Mostly Cloudy"
"2006-01-05 13:00","2006","01","05","13:00","1.8","","-2.0","","76","","34","","22","","24.1","","98.42","","","","","","Cloudy"
"2006-01-05 14:00","2006","01","05","14:00","1.8","","-2.7","","72","","35","","20","","24.1","","98.46","","","","","","Cloudy"
"2006-01-05 15:00","2006","01","05","15:00","1.4","","-1.8","","79","","34","","28","","24.1","","98.53","","","","","","Cloudy"
"2006-01-05 16:00","2006","01","05","16:00","0.7","","-2.1","","81","","33","","30","","24.1","","98.61","","","","","","Cloudy"
"2006-01-05 17:00","2006","01","05","17:00","0.6","","-2.8","","78","","34","","24","","24.1","","98.68","","","","","","Snow Grains"
"2006-01-05 18:00","2006","01","05","18:00","0.4","","-3.2","","77","","34","","33","","24.1","","98.77","","","","","","Cloudy"
"2006-01-05 19:00","2006","01","05","19:00","-0.1","","-3.7","","77","","34","","32","","24.1","","98.83","","","","-7","","Mostly Cloudy"
"2006-01-05 20:00","2006","01","05","20:00","-0.3","","-3.7","","78","","34","","30","","24.1","","98.86","","","","-7","","Mostly Cloudy"
"2006-01-05 21:00","2006","01","05","21:00","-0.9","","-3.8","","81","","35","","32","","24.1","","98.89","","","","-8","","Mostly Cloudy"
"2006-01-05 22:00","2006","01","05","22:00","-1.6","","-4.5","","81","","36","","26","","24.1","","98.92","","","","-8","","Mostly Cloudy"
"2006-01-05 23:00","2006","01","05","23:00","-1.6","","-5.1","","77","","34","","33","","24.1","","98.92","","","","-9","","Mostly Cloudy"
"2006-01-06 00:00","2006","01","06","00:00","-2.4","","-6.0","","76","","33","","30","","24.1","","98.93","","","","-10","","Mostly Cloudy"
"2006-01-06 01:00","2006","01","06","01:00","-3.4","","-8.0","","70","","34","","37","","24.1","","98.91","","","","-12","","Mainly Clear"
"2006-01-06 02:00","2006","01","06","02:00","-4.5","","-9.4","","69","","34","","32","","24.1","","99.03","","","","-13","","Mainly Clear"
"2006-01-06 03:00","2006","01","06","03:00","-5.2","","-8.8","","76","","33","","24","","24.1","","99.10","","","","-12","","Mainly Clear"
"2006-01-06 04:00","2006","01","06","04:00","-6.1","","-10.0","","74","","33","","28","","24.1","","99.13","","","","-14","","Snow Showers"
"2006-01-06 05:00","2006","01","06","05:00","-6.1","","-9.4","","77","","33","","24","","24.1","","99.13","","","","-14","","Snow Showers"
"2006-01-06 06:00","2006","01","06","06:00","-7.5","","-10.4","","80","","36","","28","","24.1","","99.19","","","","-16","","Snow Showers"
"2006-01-06 07:00","2006","01","06","07:00","-8.7","","-11.7","","79","","35","","26","","24.1","","99.28","","","","-17","","Mainly Clear"
"2006-01-06 08:00","2006","01","06","08:00","-9.2","","-13.1","","73","","35","","20","","24.1","","99.32","","","","-17","","Clear"
"2006-01-06 09:00","2006","01","06","09:00","-9.1","","-13.2","","72","","34","","30","","24.1","","99.35","","","","-18","","Clear"
"2006-01-06 10:00","2006","01","06","10:00","-8.2","","-12.9","","69","","34","","22","","24.1","","99.37","","","","-16","","Mostly Cloudy"
"2006-01-06 11:00","2006","01","06","11:00","-8.1","","-12.5","","71","","33","","24","","24.1","","99.35","","","","-16","","Mostly Cloudy"
"2006-01-06 12:00","2006","01","06","12:00","-6.8","","-11.9","","67","","34","","20","","24.1","","99.27","","","","-14","","Clear"
"2006-01-06 13:00","2006","01","06","13:00","-5.5","","-11.6","","62","","34","","19","","24.1","","99.18","","","","-12","","Clear"
"2006-01-06 14:00","2006","01","06","14:00","-5.4","","-11.3","","63","","32","","20","","24.1","","99.15","","","","-12","","Mostly Cloudy"
"2006-01-06 15:00","2006","01","06","15:00","-5.7","","-10.2","","71","","34","","11","","24.1","","99.17","","","","-10","","Snow"
"2006-01-06 16:00","2006","01","06","16:00","-5.2","","-11.9","","59","","29","","28","","24.1","","99.22","","","","-13","","Mostly Cloudy"
"2006-01-06 17:00","2006","01","06","17:00","-6.2","","-12.2","","62","","31","","28","","24.1","","99.26","","","","-14","","Mainly Clear"
"2006-01-06 18:00","2006","01","06","18:00","-6.7","","-12.0","","66","","31","","24","","24.1","","99.26","","","","-14","","Clear"
"2006-01-06 19:00","2006","01","06","19:00","-6.9","","-11.9","","67","","30","","17","","24.1","","99.23","","","","-13","","Clear"
"2006-01-06 20:00","2006","01","06","20:00","-6.9","","-11.5","","70","","31","","7","","24.1","","99.22","","","","-10","","Mostly Cloudy"
"2006-01-06 21:00","2006","01","06","21:00","-6.4","","-11.5","","67","","29","","19","","24.1","","99.19","","","","-13","","Mainly Clear"
"2006-01-06 22:00","2006","01","06","22:00","-8.1","","-12.0","","73","","27","","11","","24.1","","99.17","","","","-13","","Mainly Clear"
"2006-01-06 23:00","2006","01","06","23:00","-7.6","","-11.5","","74","","25","","9","","24.1","","99.13","","","","-12","","Mostly Cloudy"
"2006-01-07 00:00","2006","01","07","00:00","-5.9","","-10.7","","69","","24","","13","","24.1","","99.05","","","","-11","","Mostly Cloudy"
"2006-01-07 01:00","2006","01","07","01:00","-5.3","","-9.5","","72","","23","","11","","24.1","","98.97","","","","-10","","Mostly Cloudy"
"2006-01-07 02:00","2006","01","07","02:00","-5.4","","-9.6","","72","","23","","15","","24.1","","98.98","","","","-11","","Mostly Cloudy"
"2006-01-07 03:00","2006","01","07","03:00","-5.8","","-9.7","","74","","22","","11","","24.1","","98.96","","","","-11","","Mostly Cloudy"
"2006-01-07 04:00","2006","01","07","04:00","-5.5","","-9.7","","72","","18","","7","","24.1","","98.89","","","","-9","","Mostly Cloudy"
"2006-01-07 05:00","2006","01","07","05:00","-5.2","","-10.3","","67","","18","","9","","24.1","","98.79","","","","-9","","Mostly Cloudy"
"2006-01-07 06:00","2006","01","07","06:00","-4.9","","-8.5","","76","","19","","7","","12.9","","98.80","","","","-8","","Snow"
"2006-01-07 07:00","2006","01","07","07:00","-4.8","","-6.9","","85","","21","","7","","6.4","","98.81","","","","-8","","Snow"
"2006-01-07 08:00","2006","01","07","08:00","-4.8","","-6.1","","91","","17","","7","","6.4","","98.79","","","","-8","","Snow"
"2006-01-07 09:00","2006","01","07","09:00","-3.9","","-5.2","","91","","15","","6","","3.6","","98.78","","","","-7","","Snow"
"2006-01-07 10:00","2006","01","07","10:00","-2.8","","-3.8","","93","","17","","13","","4.8","","98.74","","","","-7","","Snow"
"2006-01-07 11:00","2006","01","07","11:00","-1.4","","-3.1","","88","","19","","13","","11.3","","98.68","","","","-6","","Snow"
"2006-01-07 12:00","2006","01","07","12:00","-1.3","","-2.8","","90","","18","","13","","9.7","","98.56","","","","-6","","Snow"
"2006-01-07 13:00","2006","01","07","13:00","-0.9","","-2.7","","88","","19","","13","","9.7","","98.48","","","","-5","","Snow"
"2006-01-07 14:00","2006","01","07","14:00","-1.3","","-2.5","","92","","20","","17","","3.2","","98.45","","","","-6","","Snow"
"2006-01-07 15:00","2006","01","07","15:00","-1.2","","-2.1","","94","","18","","7","","3.2","","98.47","","","","-4","","Snow"
"2006-01-07 16:00","2006","01","07","16:00","-0.8","","-1.8","","93","","18","","9","","11.3","","98.48","","","","-4","","Snow"
"2006-01-07 17:00","2006","01","07","17:00","-0.8","","-1.9","","92","","20","","9","","12.9","","98.51","","","","-4","","Snow"
"2006-01-07 18:00","2006","01","07","18:00","-0.7","","-1.8","","92","","19","","7","","11.3","","98.54","","","","-3","","Snow"
"2006-01-07 19:00","2006","01","07","19:00","-0.6","","-1.7","","92","","19","","7","","12.9","","98.58","","","","-3","","Snow"
"2006-01-07 20:00","2006","01","07","20:00","-0.6","","-1.7","","92","","19","","11","","12.9","","98.59","","","","-4","","Snow"
"2006-01-07 21:00","2006","01","07","21:00","-0.4","","-1.5","","92","","20","","9","","9.7","","98.60","","","","-4","","Snow"
"2006-01-07 22:00","2006","01","07","22:00","-0.6","","-1.8","","92","","21","","9","","12.9","","98.59","","","","-4","","Snow"
"2006-01-07 23:00","2006","01","07","23:00","-0.7","","-2.0","","91","","23","","9","","16.1","","98.61","","","","-4","","Cloudy"
"2006-01-08 00:00","2006","01","08","00:00","-0.9","","-2.0","","92","","24","","9","","9.7","","98.62","","","","-4","","Snow"
"2006-01-08 01:00","2006","01","08","01:00","-1.6","","-2.6","","93","","24","","9","","9.7","","98.65","","","","-5","","Fog"
"2006-01-08 02:00","2006","01","08","02:00","-1.4","","-2.5","","92","","25","","11","","9.7","","98.73","","","","-5","","Fog"
"2006-01-08 03:00","2006","01","08","03:00","-1.4","","-2.7","","91","","30","","11","","12.9","","98.82","","","","-5","","Cloudy"
"2006-01-08 04:00","2006","01","08","04:00","-2.4","","-3.7","","91","","26","","11","","16.1","","98.91","","","","-6","","Mostly Cloudy"
"2006-01-08 05:00","2006","01","08","05:00","-4.2","","-5.1","","93","","26","","9","","19.3","","98.98","","","","-8","","Mainly Clear"
"2006-01-08 06:00","2006","01","08","06:00","-4.3","","-5.2","","93","","28","","6","","19.3","","99.08","","","","-7","","Mainly Clear"
"2006-01-08 07:00","2006","01","08","07:00","-4.4","","-5.0","","96","","27","","11","","16.1","","99.18","","","","-9","","Clear"
"2006-01-08 08:00","2006","01","08","08:00","-3.1","","-4.0","","93","","3","","4","","9.7","","99.29","","","","-5","","Fog"
"2006-01-08 09:00","2006","01","08","09:00","-1.6","","-3.0","","90","","28","","4","","12.9","","99.35","","","","-3","","Mostly Cloudy"
"2006-01-08 10:00","2006","01","08","10:00","-0.4","","-1.6","","92","","28","","4","","16.1","","99.40","","","","-2","","Mostly Cloudy"
"2006-01-08 11:00","2006","01","08","11:00","1.4","","-1.2","","83","","","","0","","12.9","","99.47","","","","","","Mostly Cloudy"
"2006-01-08 12:00","2006","01","08","12:00","1.3","","-1.6","","81","","17","","7","","12.9","","99.42","","","","","","Mostly Cloudy"
"2006-01-08 13:00","2006","01","08","13:00","0.7","","-2.0","","82","","15","","7","","12.9","","99.33","","","","","","Mostly Cloudy"
"2006-01-08 14:00","2006","01","08","14:00","0.4","","-2.0","","84","","13","","9","","14.5","","99.26","","","","","","Cloudy"
"2006-01-08 15:00","2006","01","08","15:00","0.7","","-1.6","","85","","12","","13","","12.9","","99.18","","","","","","Mostly Cloudy"
"2006-01-08 16:00","2006","01","08","16:00","1.0","","-1.4","","84","","11","","13","","12.9","","99.11","","","","","","Cloudy"
"2006-01-08 17:00","2006","01","08","17:00","0.9","","-2.3","","79","","12","","19","","24.1","","99.07","","","","","","Mostly Cloudy"
"2006-01-08 18:00","2006","01","08","18:00","1.4","","-2.2","","77","","11","","19","","24.1","","99.03","","","","","","Mostly Cloudy"
"2006-01-08 19:00","2006","01","08","19:00","1.7","","-2.5","","74","","11","","24","","19.3","","99.03","","","","","","Mostly Cloudy"
"2006-01-08 20:00","2006","01","08","20:00","2.2","","-3.1","","68","","10","","26","","24.1","","98.90","","","","","","Cloudy"
"2006-01-08 21:00","2006","01","08","21:00","2.4","","-2.7","","69","","10","","22","","24.1","","98.82","","","","","","Mostly Cloudy"
"2006-01-08 22:00","2006","01","08","22:00","2.2","","-2.3","","72","","11","","22","","24.1","","98.73","","","","","","Mostly Cloudy"
"2006-01-08 23:00","2006","01","08","23:00","2.5","","-1.6","","74","","10","","20","","24.1","","98.64","","","","","","Mostly Cloudy"
"2006-01-09 00:00","2006","01","09","00:00","2.5","","-1.0","","78","","9","","17","","24.1","","98.52","","","","","","Cloudy"
"2006-01-09 01:00","2006","01","09","01:00","2.5","","-0.6","","80","","9","","13","","24.1","","98.42","","","","","","Cloudy"
"2006-01-09 02:00","2006","01","09","02:00","2.6","","-0.3","","81","","9","","17","","19.3","","98.34","","","","","","Rain"
"2006-01-09 03:00","2006","01","09","03:00","2.5","","-0.1","","83","","8","","9","","24.1","","98.33","","","","","","Cloudy"
"2006-01-09 04:00","2006","01","09","04:00","2.6","","0.2","","84","","4","","4","","24.1","","98.32","","","","","","Cloudy"
"2006-01-09 05:00","2006","01","09","05:00","1.3","","0.3","","93","","1","","15","","9.7","","98.29","","","","","","Rain Showers,Snow Showers"
"2006-01-09 06:00","2006","01","09","06:00","1.0","","0.3","","95","","35","","9","","12.9","","98.38","","","","","","Rain Showers,Snow Showers"
"2006-01-09 07:00","2006","01","09","07:00","1.2","","0.4","","94","","34","","15","","12.9","","98.47","","","","","","Cloudy"
"2006-01-09 08:00","2006","01","09","08:00","1.0","","0.1","","94","","33","","19","","8.0","","98.65","","","","","","Fog"
"2006-01-09 09:00","2006","01","09","09:00","0.9","","-0.2","","92","","33","","17","","8.0","","98.88","","","","","","Fog"
"2006-01-09 10:00","2006","01","09","10:00","1.4","","0.1","","91","","31","","15","","24.1","","99.08","","","","","","Cloudy"
"2006-01-09 11:00","2006","01","09","11:00","2.0","","0.1","","87","","35","","11","","11.3","","99.24","","","","","","Cloudy"
"2006-01-09 12:00","2006","01","09","12:00","2.6","","-0.8","","78","","31","","22","","19.3","","99.34","","","","","","Cloudy"
"2006-01-09 13:00","2006","01","09","13:00","2.5","","-0.5","","81","","29","","24","","19.3","","99.47","","","","","","Cloudy"
"2006-01-09 14:00","2006","01","09","14:00","2.6","","-0.9","","78","","30","","28","","24.1","","99.54","","","","","","Cloudy"
"2006-01-09 15:00","2006","01","09","15:00","2.5","","-1.6","","74","","29","","28","","24.1","","99.74","","","","","","Mostly Cloudy"
"2006-01-09 16:00","2006","01","09","16:00","2.4","","-1.5","","75","","28","","15","","24.1","","99.87","","","","","","Mostly Cloudy"
"2006-01-09 17:00","2006","01","09","17:00","2.5","","-1.6","","74","","28","","17","","24.1","","99.99","","","","","","Cloudy"
"2006-01-09 18:00","2006","01","09","18:00","1.6","","-0.8","","84","","28","","17","","16.1","","100.13","","","","","","Snow"
"2006-01-09 19:00","2006","01","09","19:00","1.4","","-0.2","","89","","27","","9","","19.3","","100.21","","","","","","Snow"
"2006-01-09 20:00","2006","01","09","20:00","1.4","","0.1","","91","","25","","13","","19.3","","100.29","","","","","","Cloudy"
"2006-01-09 21:00","2006","01","09","21:00","1.4","","0.2","","92","","24","","15","","19.3","","100.35","","","","","","Cloudy"
"2006-01-09 22:00","2006","01","09","22:00","1.6","","-0.7","","85","","26","","15","","24.1","","100.41","","","","","","Cloudy"
"2006-01-09 23:00","2006","01","09","23:00","1.3","","-1.1","","84","","25","","15","","24.1","","100.47","","","","","","Mostly Cloudy"
"2006-01-10 00:00","2006","01","10","00:00","1.2","","-1.1","","85","","26","","15","","24.1","","100.51","","","","","","Mostly Cloudy"
"2006-01-10 01:00","2006","01","10","01:00","1.3","","-1.1","","84","","26","","19","","24.1","","100.52","","","","","","Cloudy"
"2006-01-10 02:00","2006","01","10","02:00","1.2","","-1.3","","83","","27","","15","","24.1","","100.59","","","","","","Mostly Cloudy"
"2006-01-10 03:00","2006","01","10","03:00","1.1","","-1.6","","82","","27","","19","","24.1","","100.66","","","","","","Cloudy"
"2006-01-10 04:00","2006","01","10","04:00","1.0","","-2.1","","80","","26","","15","","24.1","","100.70","","","","","","Cloudy"
"2006-01-10 05:00","2006","01","10","05:00","1.0","","-3.2","","73","","26","","17","","24.1","","100.71","","","","","","Cloudy"
"2006-01-10 06:00","2006","01","10","06:00","0.9","","-4.0","","70","","27","","15","","24.1","","100.77","","","","","","Cloudy"
"2006-01-10 07:00","2006","01","10","07:00","1.1","","-5.9","","60","","26","","17","","24.1","","100.87","","","","","","Mostly Cloudy"
"2006-01-10 08:00","2006","01","10","08:00","0.6","","-6.3","","60","","27","","19","","24.1","","100.92","","","","","","Mostly Cloudy"
"2006-01-10 09:00","2006","01","10","09:00","0.8","","-6.3","","59","","27","","20","","24.1","","100.97","","","","","","Mostly Cloudy"
"2006-01-10 10:00","2006","01","10","10:00","1.8","","-6.1","","56","","23","","15","","24.1","","100.98","","","","","","Mostly Cloudy"
"2006-01-10 11:00","2006","01","10","11:00","2.3","","-6.2","","53","","26","","20","","24.1","","100.94","","","","","","Clear"
"2006-01-10 12:00","2006","01","10","12:00","2.5","","-6.0","","53","","25","","20","","24.1","","100.86","","","","","","Clear"
"2006-01-10 13:00","2006","01","10","13:00","3.3","","-5.8","","51","","24","","13","","24.1","","100.72","","","","","","Mainly Clear"
"2006-01-10 14:00","2006","01","10","14:00","3.4","","-4.9","","54","","24","","13","","24.1","","100.68","","","","","","Mostly Cloudy"
"2006-01-10 15:00","2006","01","10","15:00","2.4","","-5.4","","56","","22","","17","","24.1","","100.64","","","","","","Mostly Cloudy"
"2006-01-10 16:00","2006","01","10","16:00","1.6","","-5.5","","59","","23","","17","","24.1","","100.66","","","","","","Mostly Cloudy"
"2006-01-10 17:00","2006","01","10","17:00","1.1","","-5.9","","60","","22","","13","","24.1","","100.58","","","","","","Cloudy"
"2006-01-10 18:00","2006","01","10","18:00","0.9","","-6.0","","60","","19","","6","","24.1","","100.57","","","","","","Cloudy"
"2006-01-10 19:00","2006","01","10","19:00","0.8","","-5.8","","61","","11","","4","","24.1","","100.47","","","","","","Mostly Cloudy"
"2006-01-10 20:00","2006","01","10","20:00","0.7","","-5.5","","63","","11","","7","","24.1","","100.37","","","","","","Cloudy"
"2006-01-10 21:00","2006","01","10","21:00","1.0","","-4.6","","66","","14","","6","","24.1","","100.32","","","","","","Cloudy"
"2006-01-10 22:00","2006","01","10","22:00","1.4","","-3.0","","72","","14","","7","","24.1","","100.25","","","","","","Cloudy"
"2006-01-10 23:00","2006","01","10","23:00","1.7","","-1.5","","79","","15","","11","","19.3","","100.16","","","","","","Rain"
"2006-01-11 00:00","2006","01","11","00:00","1.8","","-1.2","","80","","15","","11","","24.1","","100.04","","","","","","Cloudy"
"2006-01-11 01:00","2006","01","11","01:00","1.8","","-0.6","","84","","14","","9","","19.3","","99.94","","","","","","Rain"
"2006-01-11 02:00","2006","01","11","02:00","1.9","","-0.3","","85","","13","","6","","19.3","","99.88","","","","","","Rain"
"2006-01-11 03:00","2006","01","11","03:00","2.0","","0.5","","90","","13","","9","","11.3","","99.76","","","","","","Rain"
"2006-01-11 04:00","2006","01","11","04:00","1.8","","0.8","","93","","14","","7","","6.4","","99.62","","","","","","Rain"
"2006-01-11 05:00","2006","01","11","05:00","1.8","","1.4","","97","","11","","6","","4.8","","99.52","","","","","","Rain,Fog"
"2006-01-11 06:00","2006","01","11","06:00","2.0","","1.7","","98","","14","","6","","2.8","","99.45","","","","","","Fog"
"2006-01-11 07:00","2006","01","11","07:00","2.6","","2.3","","98","","13","","9","","2.8","","99.39","","","","","","Fog"
"2006-01-11 08:00","2006","01","11","08:00","3.3","","2.9","","97","","14","","6","","4.0","","99.33","","","","","","Fog"
"2006-01-11 09:00","2006","01","11","09:00","3.9","","3.2","","95","","13","","6","","8.0","","99.29","","","","","","Fog"
"2006-01-11 10:00","2006","01","11","10:00","4.5","","3.7","","95","","15","","6","","9.7","","99.23","","","","","","Fog"
"2006-01-11 11:00","2006","01","11","11:00","5.4","","4.3","","93","","15","","6","","6.4","","99.17","","","","","","Fog"
"2006-01-11 12:00","2006","01","11","12:00","6.1","","4.6","","90","","18","","4","","8.0","","99.01","","","","","","Fog"
"2006-01-11 13:00","2006","01","11","13:00","8.0","","5.6","","85","","","","0","","9.7","","98.89","","","","","","Haze"
"2006-01-11 14:00","2006","01","11","14:00","8.0","","5.6","","85","","14","","4","","9.7","","98.79","","","","","","Haze"
"2006-01-11 15:00","2006","01","11","15:00","8.5","","5.8","","83","","14","","6","","8.0","","98.71","","","","","","Haze"
"2006-01-11 16:00","2006","01","11","16:00","8.2","","5.7","","84","","15","","7","","11.3","","98.72","","","","","","Mostly Cloudy"
"2006-01-11 17:00","2006","01","11","17:00","5.9","","4.3","","89","","15","","9","","8.0","","98.68","","","","","","Fog"
"2006-01-11 18:00","2006","01","11","18:00","5.1","","3.9","","92","","18","","11","","9.7","","98.73","","","","","","Fog"
"2006-01-11 19:00","2006","01","11","19:00","6.3","","5.0","","91","","21","","17","","11.3","","98.77","","","","","","Cloudy"
"2006-01-11 20:00","2006","01","11","20:00","6.2","","4.3","","88","","22","","20","","16.1","","98.76","","","","","","Cloudy"
"2006-01-11 21:00","2006","01","11","21:00","5.7","","3.6","","86","","23","","20","","19.3","","98.79","","","","","","Cloudy"
"2006-01-11 22:00","2006","01","11","22:00","4.7","","2.0","","83","","24","","32","","24.1","","98.85","","","","","","Cloudy"
"2006-01-11 23:00","2006","01","11","23:00","4.2","","1.4","","82","","25","","22","","24.1","","98.88","","","","","","Cloudy"
"2006-01-12 00:00","2006","01","12","00:00","3.9","","1.3","","83","","22","","15","","24.1","","98.92","","","","","","Cloudy"
"2006-01-12 01:00","2006","01","12","01:00","3.9","","1.5","","84","","24","","17","","24.1","","98.93","","","","","","Cloudy"
"2006-01-12 02:00","2006","01","12","02:00","3.5","","2.1","","91","","25","","26","","24.1","","98.96","","","","","","Cloudy"
"2006-01-12 03:00","2006","01","12","03:00","3.7","","2.4","","91","","26","","28","","24.1","","98.98","","","","","","Cloudy"
"2006-01-12 04:00","2006","01","12","04:00","4.0","","1.9","","86","","25","","26","","24.1","","99.00","","","","","","Cloudy"
"2006-01-12 05:00","2006","01","12","05:00","4.1","","1.7","","84","","26","","24","","24.1","","99.00","","","","","","Cloudy"
"2006-01-12 06:00","2006","01","12","06:00","4.4","","1.8","","83","","22","","17","","24.1","","98.99","","","","","","Cloudy"
"2006-01-12 07:00","2006","01","12","07:00","4.4","","1.8","","83","","22","","15","","24.1","","98.99","","","","","","Cloudy"
"2006-01-12 08:00","2006","01","12","08:00","4.5","","1.9","","83","","22","","17","","14.5","","99.04","","","","","","Cloudy"
"2006-01-12 09:00","2006","01","12","09:00","4.4","","1.7","","83","","22","","15","","19.3","","99.09","","","","","","Cloudy"
"2006-01-12 10:00","2006","01","12","10:00","4.8","","1.9","","81","","23","","20","","19.3","","99.09","","","","","","Cloudy"
"2006-01-12 11:00","2006","01","12","11:00","4.9","","1.9","","81","","25","","19","","14.5","","99.08","","","","","","Mostly Cloudy"
"2006-01-12 12:00","2006","01","12","12:00","6.8","","2.3","","73","","24","","17","","16.1","","98.99","","","","","","Mainly Clear"
"2006-01-12 13:00","2006","01","12","13:00","7.7","","2.4","","69","","23","","15","","19.3","","98.91","","","","","","Mainly Clear"
"2006-01-12 14:00","2006","01","12","14:00","8.8","","2.9","","66","","23","","19","","19.3","","98.89","","","","","","Mainly Clear"
"2006-01-12 15:00","2006","01","12","15:00","9.1","","2.9","","65","","22","","19","","24.1","","98.91","","","","","","Mainly Clear"
"2006-01-12 16:00","2006","01","12","16:00","8.4","","2.4","","66","","22","","17","","24.1","","98.96","","","","","","Mostly Cloudy"
"2006-01-12 17:00","2006","01","12","17:00","7.2","","1.8","","69","","21","","15","","24.1","","98.96","","","","","","Mainly Clear"
"2006-01-12 18:00","2006","01","12","18:00","6.6","","1.5","","70","","20","","11","","24.1","","98.97","","","","","","Mainly Clear"
"2006-01-12 19:00","2006","01","12","19:00","6.1","","1.4","","72","","18","","7","","24.1","","98.95","","","","","","Mainly Clear"
"2006-01-12 20:00","2006","01","12","20:00","5.8","","1.3","","73","","15","","6","","24.1","","98.92","","","","","","Mainly Clear"
"2006-01-12 21:00","2006","01","12","21:00","4.9","","1.4","","78","","15","","7","","24.1","","98.92","","","","","","Clear"
"2006-01-12 22:00","2006","01","12","22:00","4.4","","1.6","","82","","15","","9","","24.1","","98.89","","","","","","Clear"
"2006-01-12 23:00","2006","01","12","23:00","4.3","","1.7","","83","","13","","7","","24.1","","98.88","","","","","","Clear"
"2006-01-13 00:00","2006","01","13","00:00","3.5","","1.3","","85","","13","","6","","24.1","","98.87","","","","","","Clear"
"2006-01-13 01:00","2006","01","13","01:00","3.8","","0.8","","81","","15","","7","","24.1","","98.79","","","","","","Mainly Clear"
"2006-01-13 02:00","2006","01","13","02:00","3.8","","0.6","","80","","15","","7","","24.1","","98.80","","","","","","Clear"
"2006-01-13 03:00","2006","01","13","03:00","3.9","","0.3","","77","","16","","9","","24.1","","98.78","","","","","","Mainly Clear"
"2006-01-13 04:00","2006","01","13","04:00","3.3","","0.2","","80","","16","","11","","24.1","","98.70","","","","","","Mainly Clear"
"2006-01-13 05:00","2006","01","13","05:00","4.0","","0.4","","77","","16","","9","","24.1","","98.60","","","","","","Mainly Clear"
"2006-01-13 06:00","2006","01","13","06:00","4.0","","0.7","","79","","15","","9","","24.1","","98.55","","","","","","Mostly Cloudy"
"2006-01-13 07:00","2006","01","13","07:00","4.1","","0.5","","77","","15","","9","","24.1","","98.55","","","","","","Mostly Cloudy"
"2006-01-13 08:00","2006","01","13","08:00","4.2","","0.4","","76","","15","","6","","19.3","","98.51","","","","","","Cloudy"
"2006-01-13 09:00","2006","01","13","09:00","6.9","","1.8","","70","","19","","9","","24.1","","98.53","","","","","","Cloudy"
"2006-01-13 10:00","2006","01","13","10:00","7.2","","2.4","","72","","16","","6","","24.1","","98.48","","","","","","Cloudy"
"2006-01-13 11:00","2006","01","13","11:00","8.1","","3.4","","72","","16","","6","","24.1","","98.43","","","","","","Cloudy"
"2006-01-13 12:00","2006","01","13","12:00","8.2","","3.6","","73","","16","","7","","24.1","","98.35","","","","","","Cloudy"
"2006-01-13 13:00","2006","01","13","13:00","9.0","","4.5","","73","","10","","7","","19.3","","98.15","","","","","","Cloudy"
"2006-01-13 14:00","2006","01","13","14:00","9.6","","4.6","","71","","13","","7","","24.1","","98.06","","","","","","Cloudy"
"2006-01-13 15:00","2006","01","13","15:00","9.7","","4.8","","71","","14","","11","","24.1","","98.01","","","","","","Mostly Cloudy"
"2006-01-13 16:00","2006","01","13","16:00","9.2","","4.4","","72","","15","","7","","24.1","","97.95","","","","","","Cloudy"
"2006-01-13 17:00","2006","01","13","17:00","8.7","","4.7","","76","","12","","9","","24.1","","97.84","","","","","","Cloudy"
"2006-01-13 18:00","2006","01","13","18:00","8.7","","4.8","","76","","17","","6","","24.1","","97.84","","","","","","Rain Showers"
"2006-01-13 19:00","2006","01","13","19:00","8.6","","4.8","","77","","12","","7","","24.1","","97.74","","","","","","Cloudy"
"2006-01-13 20:00","2006","01","13","20:00","7.1","","4.9","","86","","25","","7","","24.1","","97.71","","","","","","Cloudy"
"2006-01-13 21:00","2006","01","13","21:00","7.7","","5.1","","84","","14","","7","","24.1","","97.64","","","","","","Rain Showers"
"2006-01-13 22:00","2006","01","13","22:00","8.1","","5.7","","85","","17","","9","","24.1","","97.62","","","","","","Cloudy"
"2006-01-13 23:00","2006","01","13","23:00","6.6","","5.3","","91","","14","","6","","16.1","","97.54","","","","","","Rain"
"2006-01-14 00:00","2006","01","14","00:00","6.6","","5.9","","95","","15","","6","","16.1","","97.47","","","","","","Cloudy"
"2006-01-14 01:00","2006","01","14","01:00","6.5","","6.2","","98","","","","0","","9.7","","97.44","","","","","","Rain,Fog"
"2006-01-14 02:00","2006","01","14","02:00","5.8","","5.6","","99","","35","","41","","12.9","","97.37","","","","","","Rain"
"2006-01-14 03:00","2006","01","14","03:00","4.7","","3.6","","93","","36","","32","","24.1","","97.44","","","","","","Cloudy"
"2006-01-14 04:00","2006","01","14","04:00","3.6","","2.8","","94","","35","","41","","12.9","","97.40","","","","","","Rain"
"2006-01-14 05:00","2006","01","14","05:00","2.4","","1.1","","91","","35","","46","","16.1","","97.39","","","","","","Rain"
"2006-01-14 06:00","2006","01","14","06:00","1.6","","-0.1","","88","","34","","48","","12.9","","97.51","","","","","","Rain,Snow"
"2006-01-14 07:00","2006","01","14","07:00","0.1","","-1.7","","88","","34","","61","","6.4","","97.66","","","","","","Rain,Snow"
"2006-01-14 08:00","2006","01","14","08:00","-1.3","","-3.3","","86","","34","","56","","4.8","","97.77","","","","-10","","Snow"
"2006-01-14 09:00","2006","01","14","09:00","-2.1","","-5.5","","77","","35","","59","","19.3","","97.99","","","","-12","","Snow"
"2006-01-14 10:00","2006","01","14","10:00","-2.4","","-5.7","","78","","35","","56","","24.1","","98.14","","","","-12","","Cloudy"
"2006-01-14 11:00","2006","01","14","11:00","-2.4","","-6.4","","74","","34","","41","","24.1","","98.31","","","","-11","","Cloudy"
"2006-01-14 12:00","2006","01","14","12:00","-2.7","","-7.0","","72","","34","","57","","24.1","","98.39","","","","-12","","Mostly Cloudy"
"2006-01-14 13:00","2006","01","14","13:00","-2.7","","-6.9","","73","","33","","54","","24.1","","98.46","","","","-12","","Mostly Cloudy"
"2006-01-14 14:00","2006","01","14","14:00","-2.9","","-8.6","","65","","34","","57","","24.1","","98.56","","","","-13","","Mainly Clear"
"2006-01-14 15:00","2006","01","14","15:00","-3.2","","-8.9","","65","","33","","59","","24.1","","98.71","","","","-13","","Mainly Clear"
"2006-01-14 16:00","2006","01","14","16:00","-3.7","","-9.1","","66","","34","","41","","24.1","","98.86","","","","-12","","Mainly Clear"
"2006-01-14 17:00","2006","01","14","17:00","-4.1","","-9.1","","68","","34","","46","","24.1","","99.00","","","","-13","","Mainly Clear"
"2006-01-14 18:00","2006","01","14","18:00","-4.4","","-9.2","","69","","34","","43","","24.1","","99.12","","","","-14","","Mainly Clear"
"2006-01-14 19:00","2006","01","14","19:00","-5.0","","-10.3","","66","","34","","37","","24.1","","99.20","","","","-14","","Clear"
"2006-01-14 20:00","2006","01","14","20:00","-5.6","","-13.0","","56","","35","","43","","24.1","","99.27","","","","-15","","Clear"
"2006-01-14 21:00","2006","01","14","21:00","-6.3","","-13.4","","57","","36","","37","","24.1","","99.34","","","","-16","","Clear"
"2006-01-14 22:00","2006","01","14","22:00","-6.9","","-12.5","","64","","1","","30","","24.1","","99.39","","","","-15","","Clear"
"2006-01-14 23:00","2006","01","14","23:00","-7.5","","-13.1","","64","","35","","28","","24.1","","99.45","","","","-16","","Clear"
"2006-01-15 00:00","2006","01","15","00:00","-8.0","","-13.3","","66","","35","","26","","24.1","","99.40","","","","-16","","Clear"
"2006-01-15 01:00","2006","01","15","01:00","-8.3","","-13.2","","68","","35","","28","","24.1","","99.38","","","","-17","","Clear"
"2006-01-15 02:00","2006","01","15","02:00","-8.3","","-12.7","","71","","32","","24","","24.1","","99.40","","","","-16","","Mainly Clear"
"2006-01-15 03:00","2006","01","15","03:00","-8.2","","-11.4","","78","","32","","17","","19.3","","99.45","","","","-15","","Snow Showers"
"2006-01-15 04:00","2006","01","15","04:00","-8.2","","-10.6","","83","","36","","9","","16.1","","99.43","","","","-13","","Snow Showers"
"2006-01-15 05:00","2006","01","15","05:00","-8.1","","-10.3","","84","","36","","24","","12.9","","99.49","","","","-16","","Snow Showers"
"2006-01-15 06:00","2006","01","15","06:00","-9.7","","-13.0","","77","","1","","19","","19.3","","99.54","","","","-17","","Snow Showers"
"2006-01-15 07:00","2006","01","15","07:00","-10.8","","-14.2","","76","","1","","26","","19.3","","99.59","","","","-20","","Snow Showers"
"2006-01-15 08:00","2006","01","15","08:00","-11.5","","-15.3","","73","","34","","32","","24.1","","99.66","","","","-22","","Mainly Clear"
"2006-01-15 09:00","2006","01","15","09:00","-11.7","","-15.9","","71","","1","","32","","24.1","","99.72","","","","-22","","Mainly Clear"
"2006-01-15 10:00","2006","01","15","10:00","-12.0","","-16.8","","67","","1","","24","","24.1","","99.78","","","","-21","","Clear"
"2006-01-15 11:00","2006","01","15","11:00","-12.1","","-17.6","","64","","36","","20","","24.1","","99.82","","","","-21","","Clear"
"2006-01-15 12:00","2006","01","15","12:00","-11.2","","-17.3","","61","","33","","20","","24.1","","99.76","","","","-19","","Clear"
"2006-01-15 13:00","2006","01","15","13:00","-9.7","","-16.1","","60","","35","","24","","24.1","","99.68","","","","-18","","Clear"
"2006-01-15 14:00","2006","01","15","14:00","-9.2","","-16.0","","58","","35","","19","","24.1","","99.63","","","","-17","","Clear"
"2006-01-15 15:00","2006","01","15","15:00","-8.6","","-15.6","","57","","1","","22","","24.1","","99.65","","","","-16","","Clear"
"2006-01-15 16:00","2006","01","15","16:00","-8.3","","-15.7","","55","","36","","19","","24.1","","99.67","","","","-16","","Clear"
"2006-01-15 17:00","2006","01","15","17:00","-9.6","","-15.9","","60","","36","","22","","24.1","","99.65","","","","-18","","Clear"
"2006-01-15 18:00","2006","01","15","18:00","-10.4","","-14.8","","70","","36","","20","","24.1","","99.70","","","","-18","","Clear"
"2006-01-15 19:00","2006","01","15","19:00","-10.9","","-14.5","","75","","2","","28","","24.1","","99.71","","","","-20","","Clear"
"2006-01-15 20:00","2006","01","15","20:00","-11.5","","-15.1","","75","","36","","24","","24.1","","99.72","","","","-21","","Mainly Clear"
"2006-01-15 21:00","2006","01","15","21:00","-12.0","","-16.9","","67","","36","","20","","24.1","","99.70","","","","-20","","Mainly Clear"
"2006-01-15 22:00","2006","01","15","22:00","-11.8","","-18.0","","60","","1","","19","","24.1","","99.69","","","","-20","","Mostly Cloudy"
"2006-01-15 23:00","2006","01","15","23:00","-11.8","","-18.1","","59","","2","","15","","24.1","","99.67","","","","-19","","Mainly Clear"
"2006-01-16 00:00","2006","01","16","00:00","-12.2","","-18.4","","60","","2","","17","","24.1","","99.67","","","","-20","","Mainly Clear"
"2006-01-16 01:00","2006","01","16","01:00","-12.3","","-17.7","","64","","36","","19","","24.1","","99.65","","","","-21","","Mostly Cloudy"
"2006-01-16 02:00","2006","01","16","02:00","-12.3","","-17.7","","64","","36","","13","","24.1","","99.68","","","","-19","","Mostly Cloudy"
"2006-01-16 03:00","2006","01","16","03:00","-12.5","","-17.4","","67","","36","","11","","24.1","","99.67","","","","-19","","Mostly Cloudy"
"2006-01-16 04:00","2006","01","16","04:00","-12.8","","-17.0","","71","","3","","13","","24.1","","99.65","","","","-20","","Mainly Clear"
"2006-01-16 05:00","2006","01","16","05:00","-12.8","","-17.0","","71","","3","","15","","24.1","","99.58","","","","-20","","Mostly Cloudy"
"2006-01-16 06:00","2006","01","16","06:00","-12.9","","-17.9","","66","","1","","11","","24.1","","99.61","","","","-19","","Mostly Cloudy"
"2006-01-16 07:00","2006","01","16","07:00","-12.9","","-18.2","","64","","2","","11","","24.1","","99.59","","","","-19","","Mostly Cloudy"
"2006-01-16 08:00","2006","01","16","08:00","-12.7","","-18.2","","63","","1","","11","","24.1","","99.58","","","","-19","","Mostly Cloudy"
"2006-01-16 09:00","2006","01","16","09:00","-12.2","","-17.9","","62","","3","","9","","24.1","","99.61","","","","-17","","Mostly Cloudy"
"2006-01-16 10:00","2006","01","16","10:00","-11.0","","-17.5","","59","","4","","15","","24.1","","99.63","","","","-18","","Mostly Cloudy"
"2006-01-16 11:00","2006","01","16","11:00","-9.0","","-17.8","","49","","5","","9","","24.1","","99.61","","","","-14","","Mostly Cloudy"
"2006-01-16 12:00","2006","01","16","12:00","-7.6","","-17.3","","46","","10","","13","","24.1","","99.53","","","","-13","","Mostly Cloudy"
"2006-01-16 13:00","2006","01","16","13:00","-6.9","","-16.2","","47","","9","","15","","24.1","","99.44","","","","-13","","Mostly Cloudy"
"2006-01-16 14:00","2006","01","16","14:00","-5.6","","-14.0","","52","","11","","9","","24.1","","99.38","","","","-10","","Mostly Cloudy"
"2006-01-16 15:00","2006","01","16","15:00","-5.0","","-12.4","","56","","11","","15","","24.1","","99.37","","","","-11","","Mostly Cloudy"
"2006-01-16 16:00","2006","01","16","16:00","-5.1","","-11.7","","60","","11","","15","","24.1","","99.35","","","","-11","","Mostly Cloudy"
"2006-01-16 17:00","2006","01","16","17:00","-5.7","","-11.5","","64","","9","","19","","24.1","","99.33","","","","-12","","Mostly Cloudy"
"2006-01-16 18:00","2006","01","16","18:00","-5.9","","-12.0","","62","","9","","13","","24.1","","99.39","","","","-11","","Mostly Cloudy"
"2006-01-16 19:00","2006","01","16","19:00","-5.7","","-11.5","","64","","7","","19","","24.1","","99.40","","","","-12","","Mostly Cloudy"
"2006-01-16 20:00","2006","01","16","20:00","-5.2","","-9.4","","72","","7","","11","","24.1","","99.39","","","","-10","","Mostly Cloudy"
"2006-01-16 21:00","2006","01","16","21:00","-4.8","","-8.6","","75","","10","","9","","24.1","","99.42","","","","-9","","Mainly Clear"
"2006-01-16 22:00","2006","01","16","22:00","-5.7","","-10.0","","72","","7","","13","","24.1","","99.45","","","","-11","","Mainly Clear"
"2006-01-16 23:00","2006","01","16","23:00","-6.0","","-10.2","","72","","5","","11","","24.1","","99.47","","","","-11","","Mainly Clear"
"2006-01-17 00:00","2006","01","17","00:00","-6.1","","-9.8","","75","","6","","11","","24.1","","99.41","","","","-11","","Mainly Clear"
"2006-01-17 01:00","2006","01","17","01:00","-6.0","","-9.4","","77","","8","","11","","24.1","","99.40","","","","-11","","Mainly Clear"
"2006-01-17 02:00","2006","01","17","02:00","-5.6","","-9.1","","76","","6","","15","","24.1","","99.36","","","","-11","","Clear"
"2006-01-17 03:00","2006","01","17","03:00","-5.4","","-8.6","","78","","6","","11","","24.1","","99.31","","","","-10","","Mostly Cloudy"
"2006-01-17 04:00","2006","01","17","04:00","-2.4","","-6.5","","73","","10","","30","","24.1","","99.27","","","","-10","","Mostly Cloudy"
"2006-01-17 05:00","2006","01","17","05:00","-2.1","","-7.8","","65","","11","","28","","24.1","","99.28","","","","-9","","Mostly Cloudy"
"2006-01-17 06:00","2006","01","17","06:00","-1.9","","-8.3","","62","","11","","32","","24.1","","99.26","","","","-9","","Mostly Cloudy"
"2006-01-17 07:00","2006","01","17","07:00","-1.8","","-8.2","","62","","11","","30","","24.1","","99.26","","","","-9","","Mostly Cloudy"
"2006-01-17 08:00","2006","01","17","08:00","-1.4","","-7.6","","63","","10","","28","","24.1","","99.27","","","","-8","","Mostly Cloudy"
"2006-01-17 09:00","2006","01","17","09:00","-0.7","","-7.4","","60","","10","","32","","24.1","","99.17","","","","-8","","Cloudy"
"2006-01-17 10:00","2006","01","17","10:00","0.0","","-6.1","","63","","10","","33","","24.1","","99.12","","","","-7","","Cloudy"
"2006-01-17 11:00","2006","01","17","11:00","0.2","","-6.1","","63","","10","","35","","24.1","","99.02","","","","","","Cloudy"
"2006-01-17 12:00","2006","01","17","12:00","0.3","","-4.7","","69","","10","","30","","24.1","","98.85","","","","","","Rain"
"2006-01-17 13:00","2006","01","17","13:00","0.2","","-4.0","","73","","10","","28","","24.1","","98.64","","","","","","Cloudy"
"2006-01-17 14:00","2006","01","17","14:00","-0.1","","-2.2","","86","","10","","24","","8.0","","98.47","","","","-6","","Freezing Rain"
"2006-01-17 15:00","2006","01","17","15:00","0.3","","-1.2","","90","","9","","26","","6.4","","98.34","","","","","","Rain,Fog"
"2006-01-17 16:00","2006","01","17","16:00","0.7","","-0.4","","92","","10","","26","","8.0","","98.26","","","","","","Rain,Fog"
"2006-01-17 17:00","2006","01","17","17:00","1.2","","0.4","","94","","10","","22","","6.4","","98.18","","","","","","Rain,Fog"
"2006-01-17 18:00","2006","01","17","18:00","1.8","","1.4","","97","","10","","24","","6.4","","98.10","","","","","","Rain,Fog"
"2006-01-17 19:00","2006","01","17","19:00","2.4","","2.3","","99","","10","","26","","6.4","","98.04","","","","","","Rain,Fog"
"2006-01-17 20:00","2006","01","17","20:00","2.7","","2.6","","99","","11","","20","","6.4","","98.00","","","","","","Rain,Fog"
"2006-01-17 21:00","2006","01","17","21:00","3.5","","3.5","","100","","12","","20","","4.8","","97.91","","","","","","Rain,Fog"
"2006-01-17 22:00","2006","01","17","22:00","3.9","","3.9","","100","","12","","26","","4.0","","97.87","","","","","","Rain,Fog"
"2006-01-17 23:00","2006","01","17","23:00","4.2","","4.2","","100","","13","","17","","4.0","","97.62","","","","","","Rain,Fog"
"2006-01-18 00:00","2006","01","18","00:00","4.2","","4.2","","100","","11","","15","","4.0","","97.59","","","","","","Rain,Fog"
"2006-01-18 01:00","2006","01","18","01:00","4.4","","4.4","","100","","13","","11","","6.4","","97.49","","","","","","Rain,Fog"
"2006-01-18 02:00","2006","01","18","02:00","4.3","","4.3","","100","","16","","4","","19.3","","97.39","","","","","","Cloudy"
"2006-01-18 03:00","2006","01","18","03:00","4.4","","4.2","","99","","11","","4","","9.7","","97.41","","","","","","Rain,Fog"
"2006-01-18 04:00","2006","01","18","04:00","4.3","","4.3","","100","","12","","11","","12.9","","97.30","","","","","","Rain"
"2006-01-18 05:00","2006","01","18","05:00","4.4","","4.4","","100","","12","","15","","4.0","","97.09","","","","","","Rain,Fog"
"2006-01-18 06:00","2006","01","18","06:00","4.5","","4.4","","99","","16","","13","","2.8","","97.07","","","","","","Drizzle"
"2006-01-18 07:00","2006","01","18","07:00","4.5","","4.5","","100","","22","","15","","8.0","","97.09","","","","","","Fog"
"2006-01-18 08:00","2006","01","18","08:00","2.7","","2.0","","95","","27","","20","","24.1","","97.13","","","","","","Cloudy"
"2006-01-18 09:00","2006","01","18","09:00","2.0","","0.8","","92","","26","","24","","24.1","","97.27","","","","","","Cloudy"
"2006-01-18 10:00","2006","01","18","10:00","1.7","","0.0","","88","","25","","24","","19.3","","97.36","","","","","","Rain,Snow"
"2006-01-18 11:00","2006","01","18","11:00","1.1","","0.0","","92","","27","","26","","4.8","","97.49","","","","","","Snow"
"2006-01-18 12:00","2006","01","18","12:00","0.4","","-0.6","","93","","27","","32","","2.8","","97.54","","","","","","Snow"
"2006-01-18 13:00","2006","01","18","13:00","0.6","","-0.9","","90","","27","","35","","4.8","","97.61","","","","","","Snow"
"2006-01-18 14:00","2006","01","18","14:00","1.3","","-0.4","","88","","26","","30","","9.7","","97.73","","","","","","Snow"
"2006-01-18 15:00","2006","01","18","15:00","1.5","","-1.3","","82","","27","","43","","19.3","","97.89","","","","","","Snow"
"2006-01-18 16:00","2006","01","18","16:00","0.5","","-2.4","","81","","26","","44","","24.1","","98.11","","","","","","Snow"
"2006-01-18 17:00","2006","01","18","17:00","0.1","","-3.1","","79","","26","","39","","16.1","","98.27","","","","","","Snow"
"2006-01-18 18:00","2006","01","18","18:00","-0.7","","-2.7","","86","","27","","50","","3.6","","98.42","","","","-9","","Snow"
"2006-01-18 19:00","2006","01","18","19:00","-0.8","","-4.1","","78","","26","","37","","8.0","","98.57","","","","-8","","Snow"
"2006-01-18 20:00","2006","01","18","20:00","-1.3","","-5.1","","75","","27","","50","","16.1","","98.74","","","","-10","","Snow"
"2006-01-18 21:00","2006","01","18","21:00","-2.0","","-7.0","","69","","27","","39","","24.1","","98.93","","","","-10","","Snow"
"2006-01-18 22:00","2006","01","18","22:00","-2.8","","-6.2","","77","","26","","30","","19.3","","99.07","","","","-10","","Snow"
"2006-01-18 23:00","2006","01","18","23:00","-2.4","","-5.8","","77","","25","","30","","12.9","","99.18","","","","-10","","Snow"
"2006-01-19 00:00","2006","01","19","00:00","-2.8","","-6.0","","79","","25","","28","","11.3","","99.28","","","","-10","","Snow"
"2006-01-19 01:00","2006","01","19","01:00","-2.3","","-6.3","","74","","25","","32","","24.1","","99.39","","","","-10","","Snow"
"2006-01-19 02:00","2006","01","19","02:00","-2.5","","-6.5","","74","","25","","22","","24.1","","99.49","","","","-9","","Snow"
"2006-01-19 03:00","2006","01","19","03:00","-2.3","","-6.5","","73","","25","","24","","24.1","","99.57","","","","-9","","Cloudy"
"2006-01-19 04:00","2006","01","19","04:00","-2.4","","-6.7","","72","","24","","22","","24.1","","99.65","","","","-9","","Mostly Cloudy"
"2006-01-19 05:00","2006","01","19","05:00","-3.2","","-6.4","","79","","26","","20","","24.1","","99.72","","","","-9","","Mostly Cloudy"
"2006-01-19 06:00","2006","01","19","06:00","-2.8","","-6.0","","79","","26","","13","","24.1","","99.76","","","","-7","","Mostly Cloudy"
"2006-01-19 07:00","2006","01","19","07:00","-2.9","","-5.8","","80","","23","","13","","24.1","","99.81","","","","-8","","Mainly Clear"
"2006-01-19 08:00","2006","01","19","08:00","-3.1","","-6.0","","80","","22","","7","","12.9","","99.91","","","","-6","","Mainly Clear"
"2006-01-19 09:00","2006","01","19","09:00","-2.0","","-4.9","","81","","24","","13","","14.5","","99.94","","","","-6","","Mostly Cloudy"
"2006-01-19 10:00","2006","01","19","10:00","-0.9","","-4.3","","78","","25","","9","","16.1","","99.89","","","","-4","","Mostly Cloudy"
"2006-01-19 11:00","2006","01","19","11:00","1.1","","-2.7","","76","","21","","11","","14.5","","99.83","","","","","","Mostly Cloudy"
"2006-01-19 12:00","2006","01","19","12:00","3.3","","-2.1","","68","","19","","13","","16.1","","99.72","","","","","","Mostly Cloudy"
"2006-01-19 13:00","2006","01","19","13:00","2.8","","-2.2","","70","","17","","13","","19.3","","99.65","","","","","","Mostly Cloudy"
"2006-01-19 14:00","2006","01","19","14:00","3.2","","-1.6","","71","","18","","13","","19.3","","99.60","","","","","","Mostly Cloudy"
"2006-01-19 15:00","2006","01","19","15:00","3.6","","-1.3","","70","","16","","20","","19.3","","99.48","","","","","","Mostly Cloudy"
"2006-01-19 16:00","2006","01","19","16:00","3.6","","-1.7","","68","","14","","15","","19.3","","99.46","","","","","","Mostly Cloudy"
"2006-01-19 17:00","2006","01","19","17:00","2.6","","-1.5","","74","","14","","13","","19.3","","99.36","","","","","","Mainly Clear"
"2006-01-19 18:00","2006","01","19","18:00","2.4","","-1.8","","74","","14","","9","","24.1","","99.40","","","","","","Mainly Clear"
"2006-01-19 19:00","2006","01","19","19:00","3.0","","-1.3","","73","","13","","13","","24.1","","99.39","","","","","","Mostly Cloudy"
"2006-01-19 20:00","2006","01","19","20:00","3.4","","-1.7","","69","","11","","9","","24.1","","99.36","","","","","","Cloudy"
"2006-01-19 21:00","2006","01","19","21:00","3.6","","-1.3","","70","","13","","6","","24.1","","99.30","","","","","","Cloudy"
"2006-01-19 22:00","2006","01","19","22:00","3.6","","-0.7","","73","","12","","13","","24.1","","99.24","","","","","","Cloudy"
"2006-01-19 23:00","2006","01","19","23:00","3.6","","-0.2","","76","","14","","7","","24.1","","99.17","","","","","","Mostly Cloudy"
"2006-01-20 00:00","2006","01","20","00:00","3.5","","0.1","","78","","14","","4","","24.1","","99.13","","","","","","Mostly Cloudy"
"2006-01-20 01:00","2006","01","20","01:00","3.5","","0.5","","81","","14","","4","","24.1","","99.07","","","","","","Mostly Cloudy"
"2006-01-20 02:00","2006","01","20","02:00","3.0","","0.6","","84","","11","","4","","24.1","","99.07","","","","","","Mostly Cloudy"
"2006-01-20 03:00","2006","01","20","03:00","3.8","","0.7","","80","","11","","7","","24.1","","99.07","","","","","","Mostly Cloudy"
"2006-01-20 04:00","2006","01","20","04:00","4.8","","1.2","","77","","15","","7","","24.1","","99.08","","","","","","Mostly Cloudy"
"2006-01-20 05:00","2006","01","20","05:00","5.7","","2.1","","78","","18","","6","","24.1","","99.09","","","","","","Mainly Clear"
"2006-01-20 06:00","2006","01","20","06:00","6.8","","3.6","","80","","20","","9","","24.1","","99.10","","","","","","Mainly Clear"
"2006-01-20 07:00","2006","01","20","07:00","6.8","","3.6","","80","","22","","13","","24.1","","99.13","","","","","","Mainly Clear"
"2006-01-20 08:00","2006","01","20","08:00","7.5","","4.1","","79","","22","","17","","24.1","","99.17","","","","","","Mostly Cloudy"
"2006-01-20 09:00","2006","01","20","09:00","8.2","","5.0","","80","","22","","15","","24.1","","99.24","","","","","","Mostly Cloudy"
"2006-01-20 10:00","2006","01","20","10:00","9.3","","5.9","","79","","23","","13","","24.1","","99.28","","","","","","Mostly Cloudy"
"2006-01-20 11:00","2006","01","20","11:00","10.7","","7.1","","78","","25","","22","","24.1","","99.29","","","","","","Mostly Cloudy"
"2006-01-20 12:00","2006","01","20","12:00","10.8","","7.4","","79","","27","","30","","24.1","","99.35","","","","","","Mostly Cloudy"
"2006-01-20 13:00","2006","01","20","13:00","9.6","","6.2","","79","","29","","24","","24.1","","99.38","","","","","","Cloudy"
"2006-01-20 14:00","2006","01","20","14:00","9.6","","5.4","","75","","28","","30","","16.1","","99.45","","","","","","Mostly Cloudy"
"2006-01-20 15:00","2006","01","20","15:00","7.9","","4.2","","77","","29","","35","","12.9","","99.52","","","","","","Mostly Cloudy"
"2006-01-20 16:00","2006","01","20","16:00","6.2","","2.7","","78","","32","","28","","9.7","","99.62","","","","","","Haze"
"2006-01-20 17:00","2006","01","20","17:00","4.1","","1.0","","80","","34","","17","","11.3","","99.65","","","","","","Mostly Cloudy"
"2006-01-20 18:00","2006","01","20","18:00","2.8","","0.0","","82","","32","","15","","12.9","","99.76","","","","","","Mostly Cloudy"
"2006-01-20 19:00","2006","01","20","19:00","2.6","","0.0","","83","","34","","7","","12.9","","99.73","","","","","","Cloudy"
"2006-01-20 20:00","2006","01","20","20:00","2.5","","0.1","","84","","36","","6","","12.9","","99.71","","","","","","Cloudy"
"2006-01-20 21:00","2006","01","20","21:00","2.3","","-0.2","","84","","4","","11","","14.5","","99.54","","","","","","Cloudy"
"2006-01-20 22:00","2006","01","20","22:00","2.4","","-0.1","","84","","7","","9","","12.9","","99.47","","","","","","Cloudy"
"2006-01-20 23:00","2006","01","20","23:00","1.7","","1.0","","95","","9","","6","","2.8","","99.41","","","","","","Rain,Drizzle,Fog"
"2006-01-21 00:00","2006","01","21","00:00","0.9","","0.4","","96","","3","","20","","4.0","","99.33","","","","","","Rain,Drizzle,Fog"
"2006-01-21 01:00","2006","01","21","01:00","0.6","","0.1","","96","","3","","15","","3.6","","99.16","","","","","","Drizzle,Fog"
"2006-01-21 02:00","2006","01","21","02:00","0.6","","0.2","","97","","6","","15","","6.4","","98.97","","","","","","Drizzle,Fog"
"2006-01-21 03:00","2006","01","21","03:00","0.7","","0.3","","97","","2","","11","","6.4","","98.91","","","","","","Rain,Drizzle,Fog"
"2006-01-21 04:00","2006","01","21","04:00","0.6","","0.3","","98","","1","","15","","6.4","","98.80","","","","","","Rain,Drizzle,Fog"
"2006-01-21 05:00","2006","01","21","05:00","0.6","","0.1","","96","","2","","19","","11.3","","98.64","","","","","","Rain,Drizzle"
"2006-01-21 06:00","2006","01","21","06:00","0.3","","-0.1","","97","","35","","28","","4.0","","98.67","","","","","","Rain,Fog"
"2006-01-21 07:00","2006","01","21","07:00","0.2","","-0.5","","95","","36","","22","","8.0","","98.60","","","","","","Rain"
"2006-01-21 08:00","2006","01","21","08:00","-0.2","","-0.6","","97","","34","","22","","4.0","","98.73","","","","-6","","Snow,Fog"
"2006-01-21 09:00","2006","01","21","09:00","-0.1","","-0.5","","97","","34","","37","","0.8","","98.86","","","","-7","","Moderate Snow"
"2006-01-21 10:00","2006","01","21","10:00","0.1","","-0.7","","94","","33","","43","","8.0","","99.27","","","","","","Snow,Fog"
"2006-01-21 11:00","2006","01","21","11:00","0.1","","-1.2","","91","","34","","37","","24.1","","99.49","","","","","","Mostly Cloudy"
"2006-01-21 12:00","2006","01","21","12:00","0.1","","-2.1","","85","","33","","39","","24.1","","99.71","","","","","","Mostly Cloudy"
"2006-01-21 13:00","2006","01","21","13:00","0.2","","-2.1","","84","","34","","28","","24.1","","99.95","","","","","","Mostly Cloudy"
"2006-01-21 14:00","2006","01","21","14:00","0.2","","-2.8","","80","","32","","33","","24.1","","100.14","","","","","","Mainly Clear"
"2006-01-21 15:00","2006","01","21","15:00","0.4","","-3.8","","73","","31","","44","","24.1","","100.31","","","","","","Mainly Clear"
"2006-01-21 16:00","2006","01","21","16:00","1.1","","-3.7","","70","","32","","33","","24.1","","100.48","","","","","","Mostly Cloudy"
"2006-01-21 17:00","2006","01","21","17:00","0.2","","-4.8","","69","","31","","30","","24.1","","100.66","","","","","","Mainly Clear"
"2006-01-21 18:00","2006","01","21","18:00","-1.1","","-6.6","","66","","31","","28","","24.1","","100.87","","","","-8","","Mainly Clear"
"2006-01-21 19:00","2006","01","21","19:00","-1.9","","-7.4","","66","","31","","17","","24.1","","100.98","","","","-7","","Clear"
"2006-01-21 20:00","2006","01","21","20:00","-3.5","","-7.1","","76","","28","","11","","24.1","","101.08","","","","-8","","Clear"
"2006-01-21 21:00","2006","01","21","21:00","-3.4","","-6.5","","79","","27","","9","","24.1","","101.18","","","","-7","","Mainly Clear"
"2006-01-21 22:00","2006","01","21","22:00","-2.5","","-5.6","","79","","24","","7","","24.1","","101.24","","","","-5","","Mostly Cloudy"
"2006-01-21 23:00","2006","01","21","23:00","-3.8","","-6.3","","83","","27","","7","","24.1","","101.26","","","","-7","","Clear"
"2006-01-22 00:00","2006","01","22","00:00","-3.6","","-6.0","","83","","27","","9","","24.1","","101.32","","","","-7","","Clear"
"2006-01-22 01:00","2006","01","22","01:00","-4.3","","-6.4","","85","","26","","6","","24.1","","101.33","","","","-7","","Clear"
"2006-01-22 02:00","2006","01","22","02:00","-3.9","","-6.4","","83","","22","","6","","24.1","","101.35","","","","-7","","Clear"
"2006-01-22 03:00","2006","01","22","03:00","-3.9","","-6.4","","83","","28","","4","","24.1","","101.44","","","","-6","","Clear"
"2006-01-22 04:00","2006","01","22","04:00","-4.5","","-6.7","","85","","28","","6","","24.1","","101.47","","","","-7","","Clear"
"2006-01-22 05:00","2006","01","22","05:00","-4.7","","-6.9","","85","","30","","6","","24.1","","101.49","","","","-7","","Clear"
"2006-01-22 06:00","2006","01","22","06:00","-5.7","","-7.4","","88","","33","","7","","24.1","","101.52","","","","-9","","Clear"
"2006-01-22 07:00","2006","01","22","07:00","-5.1","","-6.7","","89","","11","","7","","24.1","","101.51","","","","-8","","Clear"
"2006-01-22 08:00","2006","01","22","08:00","-5.5","","-7.0","","89","","9","","4","","24.1","","101.50","","","","-7","","Mainly Clear"
"2006-01-22 09:00","2006","01","22","09:00","-3.3","","-5.1","","87","","","","0","","24.1","","101.56","","","","","","Mostly Cloudy"
"2006-01-22 10:00","2006","01","22","10:00","-1.3","","-4.3","","80","","17","","6","","24.1","","101.51","","","","-4","","Mostly Cloudy"
"2006-01-22 11:00","2006","01","22","11:00","0.3","","-3.5","","76","","17","","15","","19.3","","101.50","","","","","","Mostly Cloudy"
"2006-01-22 12:00","2006","01","22","12:00","1.3","","-3.4","","71","","19","","11","","24.1","","101.40","","","","","","Mostly Cloudy"
"2006-01-22 13:00","2006","01","22","13:00","2.3","","-3.1","","67","","17","","15","","24.1","","101.25","","","","","","Mostly Cloudy"
"2006-01-22 14:00","2006","01","22","14:00","2.4","","-1.9","","73","","17","","17","","24.1","","101.18","","","","","","Mostly Cloudy"
"2006-01-22 15:00","2006","01","22","15:00","2.3","","-2.5","","71","","17","","11","","24.1","","101.14","","","","","","Mostly Cloudy"
"2006-01-22 16:00","2006","01","22","16:00","2.0","","-2.9","","70","","14","","9","","24.1","","101.06","","","","","","Mostly Cloudy"
"2006-01-22 17:00","2006","01","22","17:00","1.1","","-3.2","","73","","14","","11","","24.1","","100.97","","","","","","Mostly Cloudy"
"2006-01-22 18:00","2006","01","22","18:00","0.5","","-3.3","","76","","12","","7","","24.1","","100.92","","","","","","Cloudy"
"2006-01-22 19:00","2006","01","22","19:00","0.4","","-3.2","","77","","9","","7","","24.1","","100.87","","","","","","Mostly Cloudy"
"2006-01-22 20:00","2006","01","22","20:00","0.5","","-2.8","","78","","6","","7","","24.1","","100.81","","","","","","Mostly Cloudy"
"2006-01-22 21:00","2006","01","22","21:00","-0.1","","-2.5","","84","","5","","9","","24.1","","100.68","","","","-3","","Mostly Cloudy"
"2006-01-22 22:00","2006","01","22","22:00","-0.2","","-2.0","","88","","5","","6","","24.1","","100.57","","","","-2","","Mostly Cloudy"
"2006-01-22 23:00","2006","01","22","23:00","-0.2","","-1.9","","88","","5","","6","","24.1","","100.43","","","","-2","","Cloudy"
"2006-01-23 00:00","2006","01","23","00:00","-0.3","","-1.8","","90","","5","","7","","24.1","","100.27","","","","-3","","Cloudy"
"2006-01-23 01:00","2006","01","23","01:00","-0.7","","-1.2","","96","","3","","6","","19.3","","100.14","","","","-3","","Cloudy"
"2006-01-23 02:00","2006","01","23","02:00","-1.5","","-2.7","","92","","33","","7","","19.3","","100.09","","","","-4","","Cloudy"
"2006-01-23 03:00","2006","01","23","03:00","-0.9","","-2.0","","92","","4","","4","","19.3","","99.94","","","","-2","","Cloudy"
"2006-01-23 04:00","2006","01","23","04:00","-0.9","","-2.1","","92","","34","","9","","19.3","","99.91","","","","-4","","Cloudy"
"2006-01-23 05:00","2006","01","23","05:00","-1.0","","-2.2","","92","","35","","7","","19.3","","99.79","","","","-4","","Cloudy"
"2006-01-23 06:00","2006","01","23","06:00","-1.6","","-2.7","","92","","31","","9","","19.3","","99.75","","","","-5","","Cloudy"
"2006-01-23 07:00","2006","01","23","07:00","-1.7","","-2.8","","92","","34","","7","","19.3","","99.68","","","","-4","","Cloudy"
"2006-01-23 08:00","2006","01","23","08:00","-2.0","","-3.4","","90","","35","","11","","16.1","","99.67","","","","-6","","Mostly Cloudy"
"2006-01-23 09:00","2006","01","23","09:00","-1.4","","-2.9","","89","","35","","6","","16.1","","99.66","","","","-4","","Mostly Cloudy"
"2006-01-23 10:00","2006","01","23","10:00","-0.1","","-2.4","","84","","33","","13","","24.1","","99.65","","","","-4","","Mainly Clear"
"2006-01-23 11:00","2006","01","23","11:00","1.9","","-3.5","","67","","32","","17","","24.1","","99.62","","","","","","Clear"
"2006-01-23 12:00","2006","01","23","12:00","2.3","","-3.8","","64","","34","","9","","24.1","","99.55","","","","","","Clear"
"2006-01-23 13:00","2006","01","23","13:00","2.9","","-4.2","","60","","32","","22","","19.3","","99.48","","","","","","Clear"
"2006-01-23 14:00","2006","01","23","14:00","3.1","","-2.9","","65","","32","","20","","19.3","","99.43","","","","","","Mainly Clear"
"2006-01-23 15:00","2006","01","23","15:00","3.0","","-3.5","","62","","30","","20","","19.3","","99.41","","","","","","Mainly Clear"
"2006-01-23 16:00","2006","01","23","16:00","2.2","","-3.2","","67","","30","","22","","19.3","","99.43","","","","","","Mostly Cloudy"
"2006-01-23 17:00","2006","01","23","17:00","1.3","","-3.8","","69","","28","","20","","19.3","","99.44","","","","","","Mainly Clear"
"2006-01-23 18:00","2006","01","23","18:00","0.0","","-4.4","","72","","27","","15","","19.3","","99.46","","","","-4","","Mainly Clear"
"2006-01-23 19:00","2006","01","23","19:00","0.0","","-4.3","","73","","27","","15","","19.3","","99.48","","","","-4","","Mostly Cloudy"
"2006-01-23 20:00","2006","01","23","20:00","0.1","","-4.8","","70","","27","","20","","24.1","","99.48","","","","","","Mostly Cloudy"
"2006-01-23 21:00","2006","01","23","21:00","-0.5","","-5.1","","71","","27","","26","","24.1","","99.47","","","","-7","","Cloudy"
"2006-01-23 22:00","2006","01","23","22:00","-1.1","","-5.6","","71","","27","","28","","24.1","","99.43","","","","-8","","Cloudy"
"2006-01-23 23:00","2006","01","23","23:00","-1.3","","-6.0","","70","","28","","28","","24.1","","99.37","","","","-8","","Mostly Cloudy"
"2006-01-24 00:00","2006","01","24","00:00","-2.5","","-6.0","","77","","25","","6","","24.1","","99.31","","","","-5","","Clear"
"2006-01-24 01:00","2006","01","24","01:00","-2.5","","-6.1","","76","","19","","9","","24.1","","99.22","","","","-6","","Clear"
"2006-01-24 02:00","2006","01","24","02:00","-2.8","","-5.8","","80","","20","","13","","24.1","","99.15","","","","-7","","Clear"
"2006-01-24 03:00","2006","01","24","03:00","-3.2","","-5.5","","84","","19","","9","","19.3","","99.04","","","","-7","","Clear"
"2006-01-24 04:00","2006","01","24","04:00","-3.1","","-4.9","","87","","22","","11","","19.3","","98.93","","","","-7","","Clear"
"2006-01-24 05:00","2006","01","24","05:00","-2.5","","-4.5","","86","","21","","9","","16.1","","98.80","","","","-6","","Mainly Clear"
"2006-01-24 06:00","2006","01","24","06:00","-2.1","","-4.0","","87","","16","","6","","16.1","","98.67","","","","-4","","Clear"
"2006-01-24 07:00","2006","01","24","07:00","-0.6","","-3.1","","83","","20","","19","","19.3","","98.54","","","","-6","","Mainly Clear"
"2006-01-24 08:00","2006","01","24","08:00","0.2","","-3.4","","77","","19","","22","","19.3","","98.40","","","","","","Mainly Clear"
"2006-01-24 09:00","2006","01","24","09:00","1.4","","-4.3","","66","","19","","19","","24.1","","98.26","","","","","","Mostly Cloudy"
"2006-01-24 10:00","2006","01","24","10:00","2.6","","-5.1","","57","","20","","19","","24.1","","98.16","","","","","","Mostly Cloudy"
"2006-01-24 11:00","2006","01","24","11:00","3.4","","-5.3","","53","","22","","28","","24.1","","98.05","","","","","","Mostly Cloudy"
"2006-01-24 12:00","2006","01","24","12:00","4.8","","-3.9","","53","","24","","39","","24.1","","97.90","","","","","","Mostly Cloudy"
"2006-01-24 13:00","2006","01","24","13:00","2.7","","-1.7","","73","","22","","39","","6.4","","97.73","","","","","","Snow Showers"
"2006-01-24 14:00","2006","01","24","14:00","1.0","","0.0","","93","","22","","24","","3.2","","97.71","","","","","","Snow Showers"
"2006-01-24 15:00","2006","01","24","15:00","1.5","","0.2","","91","","22","","24","","6.4","","97.66","","","","","","Snow Showers"
"2006-01-24 16:00","2006","01","24","16:00","1.3","","-0.5","","88","","22","","22","","6.4","","97.65","","","","","","Snow Showers"
"2006-01-24 17:00","2006","01","24","17:00","1.5","","-0.2","","88","","23","","24","","9.7","","97.63","","","","","","Fog"
"2006-01-24 18:00","2006","01","24","18:00","1.8","","0.0","","88","","22","","26","","8.0","","97.65","","","","","","Snow Showers"
"2006-01-24 19:00","2006","01","24","19:00","1.6","","0.0","","89","","22","","20","","6.4","","97.65","","","","","","Snow Showers"
"2006-01-24 20:00","2006","01","24","20:00","1.7","","0.3","","90","","23","","19","","8.0","","97.67","","","","","","Snow Showers"
"2006-01-24 21:00","2006","01","24","21:00","2.0","","0.4","","89","","25","","20","","11.3","","97.67","","","","","","Cloudy"
"2006-01-24 22:00","2006","01","24","22:00","1.9","","0.0","","87","","25","","26","","19.3","","97.67","","","","","","Cloudy"
"2006-01-24 23:00","2006","01","24","23:00","1.7","","0.0","","88","","25","","30","","24.1","","97.69","","","","","","Mostly Cloudy"
"2006-01-25 00:00","2006","01","25","00:00","1.6","","-0.2","","88","","27","","24","","24.1","","97.72","","","","","","Mostly Cloudy"
"2006-01-25 01:00","2006","01","25","01:00","1.6","","0.0","","89","","28","","28","","24.1","","97.77","","","","","","Rain"
"2006-01-25 02:00","2006","01","25","02:00","1.8","","-0.1","","87","","29","","39","","24.1","","97.83","","","","","","Mostly Cloudy"
"2006-01-25 03:00","2006","01","25","03:00","1.1","","-1.1","","85","","29","","35","","24.1","","97.91","","","","","","Mostly Cloudy"
"2006-01-25 04:00","2006","01","25","04:00","0.9","","-1.4","","85","","28","","26","","24.1","","97.96","","","","","","Mostly Cloudy"
"2006-01-25 05:00","2006","01","25","05:00","0.4","","-2.0","","84","","27","","26","","24.1","","97.97","","","","","","Mostly Cloudy"
"2006-01-25 06:00","2006","01","25","06:00","0.2","","-2.2","","84","","27","","22","","24.1","","98.02","","","","","","Cloudy"
"2006-01-25 07:00","2006","01","25","07:00","0.1","","-2.1","","85","","28","","17","","24.1","","98.09","","","","","","Cloudy"
"2006-01-25 08:00","2006","01","25","08:00","0.3","","-1.4","","88","","32","","28","","6.4","","98.23","","","","","","Snow"
"2006-01-25 09:00","2006","01","25","09:00","0.6","","-2.4","","80","","34","","41","","19.3","","98.41","","","","","","Mostly Cloudy"
"2006-01-25 10:00","2006","01","25","10:00","0.2","","-2.7","","81","","33","","43","","24.1","","98.56","","","","","","Mostly Cloudy"
"2006-01-25 11:00","2006","01","25","11:00","-0.6","","-4.3","","76","","33","","44","","24.1","","98.73","","","","-9","","Mostly Cloudy"
"2006-01-25 12:00","2006","01","25","12:00","-0.8","","-5.1","","73","","34","","54","","24.1","","98.82","","","","-10","","Mostly Cloudy"
"2006-01-25 13:00","2006","01","25","13:00","-1.3","","-6.0","","70","","32","","39","","24.1","","98.89","","","","-9","","Mostly Cloudy"
"2006-01-25 14:00","2006","01","25","14:00","-1.8","","-7.0","","68","","32","","43","","24.1","","98.99","","","","-10","","Mostly Cloudy"
"2006-01-25 15:00","2006","01","25","15:00","-1.7","","-7.0","","67","","32","","48","","24.1","","99.11","","","","-10","","Mostly Cloudy"
"2006-01-25 16:00","2006","01","25","16:00","-2.8","","-7.9","","68","","31","","37","","24.1","","99.27","","","","-11","","Mostly Cloudy"
"2006-01-25 17:00","2006","01","25","17:00","-2.9","","-8.1","","67","","31","","37","","24.1","","99.39","","","","-11","","Cloudy"
"2006-01-25 18:00","2006","01","25","18:00","-4.0","","-9.0","","68","","31","","35","","24.1","","99.51","","","","-12","","Mostly Cloudy"
"2006-01-25 19:00","2006","01","25","19:00","-4.6","","-9.4","","69","","31","","39","","24.1","","99.60","","","","-13","","Mostly Cloudy"
"2006-01-25 20:00","2006","01","25","20:00","-5.1","","-9.9","","69","","31","","37","","24.1","","99.71","","","","-14","","Mainly Clear"
"2006-01-25 21:00","2006","01","25","21:00","-5.4","","-9.9","","71","","32","","41","","24.1","","99.80","","","","-15","","Snow Showers"
"2006-01-25 22:00","2006","01","25","22:00","-5.4","","-9.8","","71","","32","","37","","24.1","","99.87","","","","-14","","Snow Showers"
"2006-01-25 23:00","2006","01","25","23:00","-5.8","","-10.1","","72","","33","","35","","24.1","","99.96","","","","-15","","Snow Showers"
"2006-01-26 00:00","2006","01","26","00:00","-7.1","","-10.9","","74","","36","","24","","24.1","","100.03","","","","-15","","Snow Showers"
"2006-01-26 01:00","2006","01","26","01:00","-7.5","","-11.2","","75","","34","","32","","24.1","","100.07","","","","-17","","Snow Showers"
"2006-01-26 02:00","2006","01","26","02:00","-8.5","","-12.1","","75","","34","","30","","24.1","","100.16","","","","-18","","Snow Showers"
"2006-01-26 03:00","2006","01","26","03:00","-9.1","","-12.8","","74","","33","","32","","16.1","","100.25","","","","-19","","Snow Showers"
"2006-01-26 04:00","2006","01","26","04:00","-10.1","","-13.1","","79","","36","","19","","19.3","","100.31","","","","-18","","Snow Showers"
"2006-01-26 05:00","2006","01","26","05:00","-11.4","","-14.0","","81","","35","","22","","24.1","","100.40","","","","-20","","Mainly Clear"
"2006-01-26 06:00","2006","01","26","06:00","-12.3","","-14.7","","82","","35","","15","","24.1","","100.50","","","","-20","","Clear"
"2006-01-26 07:00","2006","01","26","07:00","-12.2","","-14.7","","82","","34","","19","","24.1","","100.60","","","","-20","","Clear"
"2006-01-26 08:00","2006","01","26","08:00","-12.1","","-14.6","","82","","35","","15","","24.1","","100.74","","","","-19","","Clear"
"2006-01-26 09:00","2006","01","26","09:00","-11.9","","-14.5","","81","","35","","17","","24.1","","100.85","","","","-20","","Clear"
"2006-01-26 10:00","2006","01","26","10:00","-11.0","","-14.3","","77","","35","","26","","24.1","","100.96","","","","-20","","Clear"
"2006-01-26 11:00","2006","01","26","11:00","-9.0","","-13.4","","70","","34","","30","","24.1","","101.03","","","","-18","","Clear"
"2006-01-26 12:00","2006","01","26","12:00","-7.9","","-13.3","","65","","34","","32","","24.1","","101.04","","","","-17","","Clear"
"2006-01-26 13:00","2006","01","26","13:00","-7.1","","-12.5","","65","","33","","20","","24.1","","101.07","","","","-14","","Clear"
"2006-01-26 14:00","2006","01","26","14:00","-5.3","","-10.7","","66","","33","","13","","24.1","","101.05","","","","-10","","Clear"
"2006-01-26 15:00","2006","01","26","15:00","-3.9","","-11.7","","55","","34","","9","","24.1","","101.07","","","","-8","","Clear"
"2006-01-26 16:00","2006","01","26","16:00","-3.7","","-10.4","","60","","29","","15","","24.1","","101.12","","","","-9","","Clear"
"2006-01-26 17:00","2006","01","26","17:00","-4.8","","-12.0","","57","","32","","15","","24.1","","101.13","","","","-10","","Clear"
"2006-01-26 18:00","2006","01","26","18:00","-6.0","","-12.6","","60","","32","","15","","24.1","","101.20","","","","-12","","Clear"
"2006-01-26 19:00","2006","01","26","19:00","-7.1","","-12.2","","67","","1","","11","","24.1","","101.26","","","","-12","","Clear"
"2006-01-26 20:00","2006","01","26","20:00","-8.2","","-12.4","","72","","1","","7","","24.1","","101.27","","","","-12","","Clear"
"2006-01-26 21:00","2006","01","26","21:00","-8.4","","-12.5","","72","","27","","9","","24.1","","101.33","","","","-13","","Clear"
"2006-01-26 22:00","2006","01","26","22:00","-9.1","","-13.4","","71","","27","","7","","24.1","","101.34","","","","-13","","Clear"
"2006-01-26 23:00","2006","01","26","23:00","-9.5","","-13.6","","72","","27","","9","","24.1","","101.36","","","","-14","","Clear"
"2006-01-27 00:00","2006","01","27","00:00","-8.8","","-12.9","","72","","26","","6","","24.1","","101.33","","","","-12","","Clear"
"2006-01-27 01:00","2006","01","27","01:00","-8.6","","-12.8","","72","","23","","4","","24.1","","101.28","","","","-11","","Clear"
"2006-01-27 02:00","2006","01","27","02:00","-8.2","","-12.6","","71","","20","","6","","24.1","","101.28","","","","-11","","Clear"
"2006-01-27 03:00","2006","01","27","03:00","-8.1","","-11.9","","74","","19","","4","","24.1","","101.26","","","","-10","","Clear"
"2006-01-27 04:00","2006","01","27","04:00","-7.9","","-12.2","","71","","20","","6","","24.1","","101.25","","","","-11","","Clear"
"2006-01-27 05:00","2006","01","27","05:00","-7.6","","-11.8","","72","","21","","7","","24.1","","101.22","","","","-11","","Clear"
"2006-01-27 06:00","2006","01","27","06:00","-6.6","","-11.0","","71","","20","","9","","24.1","","101.17","","","","-11","","Clear"
"2006-01-27 07:00","2006","01","27","07:00","-5.0","","-8.9","","74","","21","","11","","24.1","","101.17","","","","-10","","Clear"
"2006-01-27 08:00","2006","01","27","08:00","-4.3","","-8.0","","75","","19","","9","","24.1","","101.17","","","","-8","","Clear"
"2006-01-27 09:00","2006","01","27","09:00","-2.3","","-5.8","","77","","22","","13","","24.1","","101.15","","","","-7","","Clear"
"2006-01-27 10:00","2006","01","27","10:00","-0.6","","-4.0","","78","","21","","19","","24.1","","101.09","","","","-6","","Clear"
"2006-01-27 11:00","2006","01","27","11:00","2.0","","-2.2","","74","","23","","17","","24.1","","101.01","","","","","","Clear"
"2006-01-27 12:00","2006","01","27","12:00","3.5","","-1.7","","69","","23","","19","","24.1","","100.91","","","","","","Mainly Clear"
"2006-01-27 13:00","2006","01","27","13:00","4.9","","-1.4","","64","","22","","15","","24.1","","100.76","","","","","","Mainly Clear"
"2006-01-27 14:00","2006","01","27","14:00","5.7","","-1.8","","58","","23","","22","","24.1","","100.64","","","","","","Mostly Cloudy"
"2006-01-27 15:00","2006","01","27","15:00","6.2","","-1.9","","56","","23","","19","","24.1","","100.58","","","","","","Mostly Cloudy"
"2006-01-27 16:00","2006","01","27","16:00","5.5","","-2.8","","55","","22","","22","","24.1","","100.55","","","","","","Mostly Cloudy"
"2006-01-27 17:00","2006","01","27","17:00","4.3","","-3.5","","57","","23","","15","","24.1","","100.57","","","","","","Cloudy"
"2006-01-27 18:00","2006","01","27","18:00","3.7","","-3.6","","59","","22","","22","","24.1","","100.53","","","","","","Cloudy"
"2006-01-27 19:00","2006","01","27","19:00","3.3","","-3.6","","61","","21","","20","","24.1","","100.47","","","","","","Cloudy"
"2006-01-27 20:00","2006","01","27","20:00","2.9","","-4.2","","60","","21","","15","","24.1","","100.40","","","","","","Mostly Cloudy"
"2006-01-27 21:00","2006","01","27","21:00","2.8","","-3.9","","61","","22","","22","","24.1","","100.31","","","","","","Mostly Cloudy"
"2006-01-27 22:00","2006","01","27","22:00","2.9","","-3.6","","62","","22","","17","","24.1","","100.21","","","","","","Mostly Cloudy"
"2006-01-27 23:00","2006","01","27","23:00","2.7","","-3.4","","64","","23","","15","","24.1","","100.17","","","","","","Cloudy"
"2006-01-28 00:00","2006","01","28","00:00","3.4","","-3.2","","62","","24","","22","","24.1","","100.11","","","","","","Cloudy"
"2006-01-28 01:00","2006","01","28","01:00","4.0","","-3.0","","60","","24","","19","","24.1","","100.09","","","","","","Cloudy"
"2006-01-28 02:00","2006","01","28","02:00","3.9","","-3.0","","61","","24","","17","","24.1","","100.07","","","","","","Mostly Cloudy"
"2006-01-28 03:00","2006","01","28","03:00","4.4","","-2.4","","61","","26","","19","","24.1","","100.08","","","","","","Cloudy"
"2006-01-28 04:00","2006","01","28","04:00","4.1","","-2.6","","62","","26","","15","","24.1","","100.07","","","","","","Cloudy"
"2006-01-28 05:00","2006","01","28","05:00","2.3","","-3.6","","65","","26","","13","","24.1","","100.13","","","","","","Mainly Clear"
"2006-01-28 06:00","2006","01","28","06:00","2.6","","-3.4","","65","","24","","19","","19.3","","100.10","","","","","","Mostly Cloudy"
"2006-01-28 07:00","2006","01","28","07:00","2.0","","-3.3","","68","","24","","17","","19.3","","100.10","","","","","","Clear"
"2006-01-28 08:00","2006","01","28","08:00","1.5","","-3.5","","69","","24","","17","","24.1","","100.12","","","","","","Clear"
"2006-01-28 09:00","2006","01","28","09:00","2.9","","-1.6","","72","","25","","17","","24.1","","100.12","","","","","","Clear"
"2006-01-28 10:00","2006","01","28","10:00","5.0","","0.2","","71","","27","","19","","24.1","","100.16","","","","","","Clear"
"2006-01-28 11:00","2006","01","28","11:00","6.7","","1.4","","69","","29","","15","","24.1","","100.15","","","","","","Clear"
"2006-01-28 12:00","2006","01","28","12:00","8.1","","1.2","","62","","29","","17","","24.1","","100.07","","","","","","Clear"
"2006-01-28 13:00","2006","01","28","13:00","8.6","","1.2","","60","","28","","11","","24.1","","99.99","","","","","","Clear"
"2006-01-28 14:00","2006","01","28","14:00","9.6","","1.3","","56","","26","","15","","24.1","","99.95","","","","","","Clear"
"2006-01-28 15:00","2006","01","28","15:00","10.2","","1.4","","54","","26","","13","","24.1","","99.89","","","","","","Clear"
"2006-01-28 16:00","2006","01","28","16:00","10.0","","1.2","","54","","28","","9","","24.1","","99.90","","","","","","Mainly Clear"
"2006-01-28 17:00","2006","01","28","17:00","6.8","","-1.2","","57","","31","","9","","19.3","","99.88","","","","","","Mainly Clear"
"2006-01-28 18:00","2006","01","28","18:00","6.1","","-0.7","","62","","28","","7","","24.1","","99.87","","","","","","Mostly Cloudy"
"2006-01-28 19:00","2006","01","28","19:00","5.3","","-0.8","","65","","27","","6","","24.1","","99.87","","","","","","Mainly Clear"
"2006-01-28 20:00","2006","01","28","20:00","5.7","","-0.9","","62","","22","","6","","24.1","","99.87","","","","","","Mostly Cloudy"
"2006-01-28 21:00","2006","01","28","21:00","5.0","","-0.2","","69","","9","","4","","24.1","","99.78","","","","","","Mostly Cloudy"
"2006-01-28 22:00","2006","01","28","22:00","5.5","","0.3","","69","","24","","4","","19.3","","99.78","","","","","","Rain Showers"
"2006-01-28 23:00","2006","01","28","23:00","5.0","","1.1","","76","","7","","6","","19.3","","99.71","","","","","","Cloudy"
"2006-01-29 00:00","2006","01","29","00:00","4.6","","1.0","","77","","13","","6","","19.3","","99.64","","","","","","Rain Showers"
"2006-01-29 01:00","2006","01","29","01:00","4.1","","1.4","","83","","8","","7","","19.3","","99.49","","","","","","Rain Showers"
"2006-01-29 02:00","2006","01","29","02:00","4.3","","1.1","","80","","20","","13","","19.3","","99.44","","","","","","Cloudy"
"2006-01-29 03:00","2006","01","29","03:00","3.1","","0.5","","83","","11","","11","","19.3","","99.35","","","","","","Cloudy"
"2006-01-29 04:00","2006","01","29","04:00","3.3","","1.9","","91","","11","","4","","19.3","","99.29","","","","","","Cloudy"
"2006-01-29 05:00","2006","01","29","05:00","4.1","","1.4","","83","","10","","19","","19.3","","99.14","","","","","","Cloudy"
"2006-01-29 06:00","2006","01","29","06:00","4.1","","1.4","","83","","10","","24","","19.3","","98.98","","","","","","Cloudy"
"2006-01-29 07:00","2006","01","29","07:00","4.0","","1.6","","84","","12","","17","","19.3","","98.98","","","","","","Cloudy"
"2006-01-29 08:00","2006","01","29","08:00","3.5","","0.9","","83","","10","","32","","16.1","","98.73","","","","","","Cloudy"
"2006-01-29 09:00","2006","01","29","09:00","3.2","","1.3","","87","","10","","30","","6.4","","98.63","","","","","","Rain,Fog"
"2006-01-29 10:00","2006","01","29","10:00","3.3","","1.8","","90","","11","","24","","4.8","","98.53","","","","","","Rain,Fog"
"2006-01-29 11:00","2006","01","29","11:00","3.2","","2.2","","93","","9","","24","","3.2","","98.34","","","","","","Rain,Fog"
"2006-01-29 12:00","2006","01","29","12:00","3.5","","2.9","","96","","11","","19","","2.8","","98.11","","","","","","Rain,Fog"
"2006-01-29 13:00","2006","01","29","13:00","3.7","","2.8","","94","","9","","30","","3.6","","97.81","","","","","","Rain,Fog"
"2006-01-29 14:00","2006","01","29","14:00","3.6","","2.9","","95","","9","","24","","4.8","","97.67","","","","","","Rain,Fog"
"2006-01-29 15:00","2006","01","29","15:00","4.2","","3.2","","93","","10","","24","","4.0","","97.57","","","","","","Rain,Fog"
"2006-01-29 16:00","2006","01","29","16:00","4.6","","3.6","","93","","11","","17","","4.0","","97.54","","","","","","Rain,Fog"
"2006-01-29 17:00","2006","01","29","17:00","4.6","","3.8","","95","","10","","19","","3.6","","97.53","","","","","","Rain,Fog"
"2006-01-29 18:00","2006","01","29","18:00","4.8","","3.9","","94","","11","","11","","4.8","","97.59","","","","","","Rain,Fog"
"2006-01-29 19:00","2006","01","29","19:00","4.9","","4.1","","95","","11","","7","","4.8","","97.60","","","","","","Fog"
"2006-01-29 20:00","2006","01","29","20:00","5.3","","4.8","","97","","14","","4","","4.8","","97.64","","","","","","Fog"
"2006-01-29 21:00","2006","01","29","21:00","5.4","","5.2","","99","","16","","9","","4.0","","97.68","","","","","","Fog"
"2006-01-29 22:00","2006","01","29","22:00","6.9","","6.3","","96","","21","","13","","9.7","","97.74","","","","","","Fog"
"2006-01-29 23:00","2006","01","29","23:00","7.8","","7.2","","96","","23","","17","","14.5","","97.76","","","","","","Cloudy"
"2006-01-30 00:00","2006","01","30","00:00","8.0","","7.5","","97","","23","","20","","12.9","","97.79","","","","","","Drizzle"
"2006-01-30 01:00","2006","01","30","01:00","8.0","","7.3","","95","","24","","24","","14.5","","97.82","","","","","","Cloudy"
"2006-01-30 02:00","2006","01","30","02:00","6.9","","6.1","","95","","23","","15","","14.5","","97.89","","","","","","Cloudy"
"2006-01-30 03:00","2006","01","30","03:00","6.6","","5.8","","95","","23","","17","","12.9","","97.95","","","","","","Rain"
"2006-01-30 04:00","2006","01","30","04:00","6.4","","5.6","","95","","22","","17","","12.9","","98.02","","","","","","Cloudy"
"2006-01-30 05:00","2006","01","30","05:00","6.4","","5.3","","93","","25","","20","","8.0","","98.08","","","","","","Rain,Drizzle"
"2006-01-30 06:00","2006","01","30","06:00","6.2","","5.5","","95","","20","","11","","12.9","","98.12","","","","","","Cloudy"
"2006-01-30 07:00","2006","01","30","07:00","6.5","","5.7","","95","","20","","13","","12.9","","98.17","","","","","","Cloudy"
"2006-01-30 08:00","2006","01","30","08:00","6.4","","5.4","","93","","22","","17","","14.5","","98.24","","","","","","Cloudy"
"2006-01-30 09:00","2006","01","30","09:00","5.9","","4.7","","92","","22","","19","","14.5","","98.33","","","","","","Mostly Cloudy"
"2006-01-30 10:00","2006","01","30","10:00","6.1","","4.6","","90","","20","","15","","14.5","","98.31","","","","","","Mostly Cloudy"
"2006-01-30 11:00","2006","01","30","11:00","6.6","","5.0","","90","","20","","20","","16.1","","98.33","","","","","","Mostly Cloudy"
"2006-01-30 12:00","2006","01","30","12:00","7.9","","5.3","","84","","21","","17","","16.1","","98.30","","","","","","Mostly Cloudy"
"2006-01-30 13:00","2006","01","30","13:00","8.5","","4.4","","75","","23","","35","","19.3","","98.28","","","","","","Mostly Cloudy"
"2006-01-30 14:00","2006","01","30","14:00","8.4","","3.6","","72","","23","","35","","24.1","","98.28","","","","","","Mostly Cloudy"
"2006-01-30 15:00","2006","01","30","15:00","8.3","","2.5","","67","","22","","28","","24.1","","98.27","","","","","","Mostly Cloudy"
"2006-01-30 16:00","2006","01","30","16:00","7.4","","1.6","","67","","22","","28","","24.1","","98.30","","","","","","Mostly Cloudy"
"2006-01-30 17:00","2006","01","30","17:00","7.0","","1.4","","67","","21","","17","","24.1","","98.34","","","","","","Mostly Cloudy"
"2006-01-30 18:00","2006","01","30","18:00","6.6","","1.1","","68","","23","","9","","24.1","","98.34","","","","","","Cloudy"
"2006-01-30 19:00","2006","01","30","19:00","6.2","","0.8","","68","","24","","11","","19.3","","98.35","","","","","","Rain"
"2006-01-30 20:00","2006","01","30","20:00","5.7","","0.6","","70","","25","","11","","24.1","","98.37","","","","","","Mostly Cloudy"
"2006-01-30 21:00","2006","01","30","21:00","5.2","","0.9","","74","","24","","17","","19.3","","98.40","","","","","","Rain"
"2006-01-30 22:00","2006","01","30","22:00","3.9","","0.2","","77","","22","","9","","16.1","","98.39","","","","","","Rain"
"2006-01-30 23:00","2006","01","30","23:00","3.7","","0.5","","80","","21","","11","","11.3","","98.41","","","","","","Rain"
"2006-01-31 00:00","2006","01","31","00:00","3.4","","0.7","","82","","22","","7","","12.9","","98.45","","","","","","Rain"
"2006-01-31 01:00","2006","01","31","01:00","3.2","","1.2","","87","","21","","9","","14.5","","98.44","","","","","","Cloudy"
"2006-01-31 02:00","2006","01","31","02:00","2.5","","0.8","","89","","26","","13","","19.3","","98.45","","","","","","Mostly Cloudy"
"2006-01-31 03:00","2006","01","31","03:00","2.6","","1.0","","89","","26","","13","","24.1","","98.45","","","","","","Cloudy"
"2006-01-31 04:00","2006","01","31","04:00","2.4","","0.9","","90","","29","","15","","24.1","","98.44","","","","","","Cloudy"
"2006-01-31 05:00","2006","01","31","05:00","1.8","","0.3","","90","","29","","11","","24.1","","98.48","","","","","","Cloudy"
"2006-01-31 06:00","2006","01","31","06:00","1.0","","-0.9","","87","","30","","20","","24.1","","98.58","","","","","","Mostly Cloudy"
"2006-01-31 07:00","2006","01","31","07:00","-0.1","","-2.3","","85","","29","","22","","24.1","","98.66","","","","-6","","Mainly Clear"
"2006-01-31 08:00","2006","01","31","08:00","-0.2","","-3.0","","81","","27","","13","","24.1","","98.71","","","","-4","","Mostly Cloudy"
"2006-01-31 09:00","2006","01","31","09:00","0.0","","-2.8","","81","","28","","15","","24.1","","98.78","","","","-4","","Cloudy"
"2006-01-31 10:00","2006","01","31","10:00","0.4","","-2.7","","80","","29","","15","","24.1","","98.82","","","","","","Cloudy"
"2006-01-31 11:00","2006","01","31","11:00","0.8","","-2.7","","77","","28","","17","","24.1","","98.86","","","","","","Cloudy"
"2006-01-31 12:00","2006","01","31","12:00","1.1","","-3.0","","74","","29","","19","","24.1","","98.86","","","","","","Cloudy"
"2006-01-31 13:00","2006","01","31","13:00","1.3","","-3.2","","72","","28","","22","","24.1","","98.85","","","","","","Cloudy"
"2006-01-31 14:00","2006","01","31","14:00","1.0","","-3.0","","75","","27","","20","","24.1","","98.85","","","","","","Snow Pellets"
"2006-01-31 15:00","2006","01","31","15:00","0.6","","-3.2","","76","","27","","24","","19.3","","98.91","","","","","","Snow Pellets"
"2006-01-31 16:00","2006","01","31","16:00","0.6","","-3.1","","76","","28","","26","","19.3","","98.97","","","","","","Snow Pellets"
"2006-01-31 17:00","2006","01","31","17:00","0.6","","-3.6","","73","","27","","28","","19.3","","99.01","","","","","","Cloudy"
"2006-01-31 18:00","2006","01","31","18:00","-0.2","","-4.4","","73","","31","","33","","24.1","","99.12","","","","-7","","Cloudy"
"2006-01-31 19:00","2006","01","31","19:00","-0.2","","-4.8","","71","","28","","24","","24.1","","99.17","","","","-6","","Cloudy"
"2006-01-31 20:00","2006","01","31","20:00","-0.1","","-4.8","","71","","27","","17","","24.1","","99.18","","","","-5","","Cloudy"
"2006-01-31 21:00","2006","01","31","21:00","-0.3","","-4.4","","74","","27","","19","","24.1","","99.19","","","","-5","","Snow Showers"
"2006-01-31 22:00","2006","01","31","22:00","-0.3","","-3.9","","77","","27","","19","","24.1","","99.23","","","","-5","","Snow Showers"
"2006-01-31 23:00","2006","01","31","23:00","-0.6","","-3.7","","80","","25","","15","","24.1","","99.26","","","","-5","","Snow Showers"
