"Station Name","TORONTO LESTER B. PEARSON INT'L A"
"Province","ONTARIO"
"Latitude","43.68"
"Longitude","-79.63"
"Elevation","173.40"
"Climate Identifier","6158733"
"WMO Identifier","71624"
"TC Identifier","YYZ"
"All times are specified in Local Standard Time (LST). Add 1 hour to adjust for Daylight Saving Time where and when it is observed."

"Legend"
"E","Estimated"
"M","Missing"
"NA","Not Available"

"Date/Time","Year","Month","Day","Time","Temp (°C)","Temp Flag","Dew Point Temp (°C)","Dew Point Temp Flag","Rel Hum (%)","Rel Hum Flag","Wind Dir (10s deg)","Wind Dir Flag","Wind Spd (km/h)","Wind Spd Flag","Visibility (km)","Visibility Flag","Stn Press (kPa)","Stn Press Flag","Hmdx","Hmdx Flag","Wind Chill","Wind Chill Flag","Weather"
"2002-11-01 00:00","2002","11","01","00:00","3.4","","2.3","","92","","25","","19","","19.3","","99.33","","","","","","Mostly Cloudy"
"2002-11-01 01:00","2002","11","01","01:00","3.2","","1.9","","91","","27","","15","","24.1","","99.29","","","","","","Mostly Cloudy"
"2002-11-01 02:00","2002","11","01","02:00","2.1","","1.1","","93","","27","","15","","24.1","","99.27","","","","","","Cloudy"
"2002-11-01 03:00","2002","11","01","03:00","2.3","","0.8","","90","","26","","13","","24.1","","99.23","","","","","","Cloudy"
"2002-11-01 04:00","2002","11","01","04:00","2.0","","0.1","","87","","27","","15","","24.1","","99.21","","","","","","Mostly Cloudy"
"2002-11-01 05:00","2002","11","01","05:00","0.9","","-0.6","","90","","27","","15","","24.1","","99.21","","","","","","Clear"
"2002-11-01 06:00","2002","11","01","06:00","0.3","","-1.1","","90","","25","","17","","24.1","","99.20","","","","","","Mostly Cloudy"
"2002-11-01 07:00","2002","11","01","07:00","0.7","","-0.9","","89","","25","","15","","24.1","","99.19","","","","","","Mostly Cloudy"
"2002-11-01 08:00","2002","11","01","08:00","1.5","","-1.2","","82","","24","","22","","24.1","","99.20","","","","","","Mostly Cloudy"
"2002-11-01 09:00","2002","11","01","09:00","1.8","","-1.4","","79","","26","","20","","19.3","","99.19","","","","","","Mostly Cloudy"
"2002-11-01 10:00","2002","11","01","10:00","2.9","","-0.6","","78","","25","","30","","19.3","","99.15","","","","","","Mainly Clear"
"2002-11-01 11:00","2002","11","01","11:00","3.4","","-1.0","","73","","28","","28","","4.0","","99.13","","","","","","Snow Showers"
"2002-11-01 12:00","2002","11","01","12:00","0.4","","-1.1","","90","","34","","19","","11.3","","99.23","","","","","","Mostly Cloudy"
"2002-11-01 13:00","2002","11","01","13:00","2.4","","-1.3","","77","","32","","30","","24.1","","99.21","","","","","","Mostly Cloudy"
"2002-11-01 14:00","2002","11","01","14:00","2.7","","-4.1","","61","","34","","26","","24.1","","99.23","","","","","","Mostly Cloudy"
"2002-11-01 15:00","2002","11","01","15:00","3.3","","-6.0","","50","","31","","33","","24.1","","99.24","","","","","","Mostly Cloudy"
"2002-11-01 16:00","2002","11","01","16:00","1.6","","-3.8","","67","","30","","28","","16.1","","99.33","","","","","","Snow Showers"
"2002-11-01 17:00","2002","11","01","17:00","0.5","","-3.4","","75","","31","","24","","16.1","","99.40","","","","","","Mostly Cloudy"
"2002-11-01 18:00","2002","11","01","18:00","0.7","","-3.6","","73","","30","","24","","24.1","","99.44","","","","","","Mostly Cloudy"
"2002-11-01 19:00","2002","11","01","19:00","-0.4","","-4.1","","76","","30","","19","","24.1","","99.52","","","","-6","","Mainly Clear"
"2002-11-01 20:00","2002","11","01","20:00","-0.1","","-4.1","","74","","30","","17","","24.1","","99.52","","","","-5","","Mostly Cloudy"
"2002-11-01 21:00","2002","11","01","21:00","-0.8","","-5.0","","73","","27","","19","","24.1","","99.51","","","","-6","","Mainly Clear"
"2002-11-01 22:00","2002","11","01","22:00","-0.6","","-3.8","","79","","26","","17","","24.1","","99.52","","","","-6","","Mostly Cloudy"
"2002-11-01 23:00","2002","11","01","23:00","-0.3","","-5.0","","71","","27","","20","","24.1","","99.48","","","","-6","","Mostly Cloudy"
"2002-11-02 00:00","2002","11","02","00:00","-0.3","","-5.2","","69","","27","","24","","24.1","","99.46","","","","-6","","Snow Showers"
"2002-11-02 01:00","2002","11","02","01:00","-0.6","","-4.0","","78","","26","","19","","24.1","","99.41","","","","-6","","Snow Showers"
"2002-11-02 02:00","2002","11","02","02:00","-0.5","","-3.8","","78","","24","","9","","24.1","","99.39","","","","-4","","Cloudy"
"2002-11-02 03:00","2002","11","02","03:00","-1.3","","-2.0","","95","","24","","7","","11.3","","99.35","","","","-4","","Snow Showers"
"2002-11-02 04:00","2002","11","02","04:00","-1.0","","-1.8","","94","","24","","9","","14.5","","99.28","","","","-4","","Snow Showers"
"2002-11-02 05:00","2002","11","02","05:00","-0.1","","-2.2","","86","","25","","17","","24.1","","99.23","","","","-5","","Snow"
"2002-11-02 06:00","2002","11","02","06:00","-0.1","","-3.3","","79","","24","","17","","24.1","","99.20","","","","-5","","Cloudy"
"2002-11-02 07:00","2002","11","02","07:00","-0.2","","-3.5","","78","","26","","19","","24.1","","99.16","","","","-5","","Cloudy"
"2002-11-02 08:00","2002","11","02","08:00","0.2","","-3.2","","78","","25","","20","","19.3","","99.12","","","","","","Mostly Cloudy"
"2002-11-02 09:00","2002","11","02","09:00","2.0","","-2.0","","75","","25","","22","","19.3","","99.12","","","","","","Mostly Cloudy"
"2002-11-02 10:00","2002","11","02","10:00","3.4","","-1.4","","71","","26","","37","","16.1","","99.03","","","","","","Mostly Cloudy"
"2002-11-02 11:00","2002","11","02","11:00","4.1","","-1.2","","68","","26","","32","","19.3","","99.01","","","","","","Mainly Clear"
"2002-11-02 12:00","2002","11","02","12:00","4.7","","-1.4","","65","","25","","35","","24.1","","98.97","","","","","","Mainly Clear"
"2002-11-02 13:00","2002","11","02","13:00","4.7","","-1.7","","63","","26","","30","","19.3","","98.95","","","","","","Mostly Cloudy"
"2002-11-02 14:00","2002","11","02","14:00","2.8","","-1.2","","75","","25","","33","","11.3","","98.94","","","","","","Snow Showers"
"2002-11-02 15:00","2002","11","02","15:00","4.4","","-0.4","","71","","26","","28","","16.1","","99.00","","","","","","Mostly Cloudy"
"2002-11-02 16:00","2002","11","02","16:00","3.9","","-1.1","","70","","28","","28","","24.1","","99.05","","","","","","Cloudy"
"2002-11-02 17:00","2002","11","02","17:00","3.8","","-1.0","","71","","26","","22","","24.1","","99.11","","","","","","Cloudy"
"2002-11-02 18:00","2002","11","02","18:00","3.0","","0.3","","82","","29","","28","","16.1","","99.19","","","","","","Rain Showers"
"2002-11-02 19:00","2002","11","02","19:00","2.5","","-0.4","","81","","27","","22","","24.1","","99.27","","","","","","Mostly Cloudy"
"2002-11-02 20:00","2002","11","02","20:00","2.3","","-1.7","","75","","28","","17","","24.1","","99.33","","","","","","Mainly Clear"
"2002-11-02 21:00","2002","11","02","21:00","1.9","","-3.5","","67","","30","","20","","24.1","","99.42","","","","","","Mainly Clear"
"2002-11-02 22:00","2002","11","02","22:00","0.2","","-4.5","","71","","33","","9","","24.1","","99.50","","","","","","Mainly Clear"
"2002-11-02 23:00","2002","11","02","23:00","0.5","","-2.2","","82","","32","","11","","24.1","","99.59","","","","","","Mostly Cloudy"
"2002-11-03 00:00","2002","11","03","00:00","0.1","","-2.5","","83","","31","","13","","24.1","","99.64","","","","","","Mostly Cloudy"
"2002-11-03 01:00","2002","11","03","01:00","-0.6","","-2.9","","84","","30","","7","","24.1","","99.69","","","","-3","","Mostly Cloudy"
"2002-11-03 02:00","2002","11","03","02:00","0.0","","-2.1","","86","","31","","9","","24.1","","99.74","","","","-3","","Mostly Cloudy"
"2002-11-03 03:00","2002","11","03","03:00","-0.1","","-3.0","","81","","32","","11","","24.1","","99.81","","","","-4","","Cloudy"
"2002-11-03 04:00","2002","11","03","04:00","-0.4","","-4.8","","72","","31","","15","","24.1","","99.83","","","","-5","","Mostly Cloudy"
"2002-11-03 05:00","2002","11","03","05:00","-0.8","","-5.0","","73","","35","","15","","24.1","","99.88","","","","-5","","Cloudy"
"2002-11-03 06:00","2002","11","03","06:00","-0.8","","-4.9","","74","","32","","11","","24.1","","99.94","","","","-5","","Cloudy"
"2002-11-03 07:00","2002","11","03","07:00","-0.9","","-5.0","","74","","33","","11","","24.1","","99.96","","","","-5","","Cloudy"
"2002-11-03 08:00","2002","11","03","08:00","-0.6","","-5.0","","72","","5","","7","","24.1","","99.99","","","","-3","","Cloudy"
"2002-11-03 09:00","2002","11","03","09:00","-0.3","","-4.6","","73","","1","","6","","24.1","","100.04","","","","-2","","Cloudy"
"2002-11-03 10:00","2002","11","03","10:00","0.5","","-4.2","","71","","","","0","","24.1","","100.04","","","","","","Cloudy"
"2002-11-03 11:00","2002","11","03","11:00","1.6","","-4.4","","64","","","","0","","24.1","","100.04","","","","","","Cloudy"
"2002-11-03 12:00","2002","11","03","12:00","2.5","","-4.8","","59","","15","","6","","24.1","","99.98","","","","","","Cloudy"
"2002-11-03 13:00","2002","11","03","13:00","2.3","","-4.9","","59","","17","","9","","24.1","","99.94","","","","","","Cloudy"
"2002-11-03 14:00","2002","11","03","14:00","2.6","","-3.6","","64","","15","","9","","24.1","","99.85","","","","","","Cloudy"
"2002-11-03 15:00","2002","11","03","15:00","2.6","","-3.2","","66","","16","","11","","24.1","","99.83","","","","","","Cloudy"
"2002-11-03 16:00","2002","11","03","16:00","2.5","","-2.9","","67","","15","","11","","24.1","","99.79","","","","","","Cloudy"
"2002-11-03 17:00","2002","11","03","17:00","2.5","","-2.7","","69","","14","","11","","24.1","","99.71","","","","","","Mostly Cloudy"
"2002-11-03 18:00","2002","11","03","18:00","2.8","","-2.3","","69","","13","","9","","24.1","","99.73","","","","","","Cloudy"
"2002-11-03 19:00","2002","11","03","19:00","3.3","","-1.8","","69","","12","","13","","24.1","","99.68","","","","","","Mostly Cloudy"
"2002-11-03 20:00","2002","11","03","20:00","3.7","","-1.1","","71","","14","","6","","24.1","","99.64","","","","","","Cloudy"
"2002-11-03 21:00","2002","11","03","21:00","3.8","","-1.1","","70","","16","","4","","24.1","","99.59","","","","","","Cloudy"
"2002-11-03 22:00","2002","11","03","22:00","4.1","","-0.4","","72","","17","","4","","24.1","","99.51","","","","","","Cloudy"
"2002-11-03 23:00","2002","11","03","23:00","4.0","","-0.1","","75","","17","","4","","24.1","","99.47","","","","","","Cloudy"
"2002-11-04 00:00","2002","11","04","00:00","3.9","","-0.4","","73","","","","0","","24.1","","99.40","","","","","","Cloudy"
"2002-11-04 01:00","2002","11","04","01:00","3.8","","-0.1","","76","","","","0","","24.1","","99.34","","","","","","Cloudy"
"2002-11-04 02:00","2002","11","04","02:00","3.6","","0.2","","78","","","","0","","24.1","","99.28","","","","","","Cloudy"
"2002-11-04 03:00","2002","11","04","03:00","3.8","","0.6","","80","","17","","6","","24.1","","99.18","","","","","","Cloudy"
"2002-11-04 04:00","2002","11","04","04:00","3.7","","0.9","","82","","20","","4","","24.1","","99.15","","","","","","Cloudy"
"2002-11-04 05:00","2002","11","04","05:00","3.1","","0.4","","82","","24","","7","","24.1","","99.12","","","","","","Cloudy"
"2002-11-04 06:00","2002","11","04","06:00","3.4","","0.0","","78","","23","","9","","19.3","","99.09","","","","","","Rain"
"2002-11-04 07:00","2002","11","04","07:00","3.2","","0.1","","80","","25","","11","","14.5","","99.06","","","","","","Cloudy"
"2002-11-04 08:00","2002","11","04","08:00","3.5","","0.3","","80","","25","","15","","9.7","","99.11","","","","","","Rain Showers"
"2002-11-04 09:00","2002","11","04","09:00","4.5","","1.1","","79","","25","","20","","12.9","","99.15","","","","","","Mostly Cloudy"
"2002-11-04 10:00","2002","11","04","10:00","6.8","","2.4","","73","","26","","37","","11.3","","99.13","","","","","","Mostly Cloudy"
"2002-11-04 11:00","2002","11","04","11:00","6.9","","2.1","","71","","28","","39","","11.3","","99.19","","","","","","Cloudy"
"2002-11-04 12:00","2002","11","04","12:00","6.8","","2.1","","72","","28","","32","","12.9","","99.22","","","","","","Mostly Cloudy"
"2002-11-04 13:00","2002","11","04","13:00","8.8","","1.4","","60","","29","","37","","16.1","","99.19","","","","","","Mostly Cloudy"
"2002-11-04 14:00","2002","11","04","14:00","6.7","","0.7","","66","","31","","35","","16.1","","99.29","","","","","","Mostly Cloudy"
"2002-11-04 15:00","2002","11","04","15:00","7.0","","-0.6","","58","","30","","37","","19.3","","99.34","","","","","","Mostly Cloudy"
"2002-11-04 16:00","2002","11","04","16:00","6.6","","-1.3","","57","","31","","33","","24.1","","99.42","","","","","","Cloudy"
"2002-11-04 17:00","2002","11","04","17:00","5.7","","-0.7","","63","","28","","24","","24.1","","99.54","","","","","","Mostly Cloudy"
"2002-11-04 18:00","2002","11","04","18:00","5.0","","0.6","","73","","29","","28","","24.1","","99.63","","","","","","Mostly Cloudy"
"2002-11-04 19:00","2002","11","04","19:00","4.7","","0.5","","74","","29","","22","","24.1","","99.68","","","","","","Cloudy"
"2002-11-04 20:00","2002","11","04","20:00","4.4","","0.1","","74","","31","","24","","24.1","","99.74","","","","","","Mostly Cloudy"
"2002-11-04 21:00","2002","11","04","21:00","3.9","","-0.5","","73","","30","","26","","24.1","","99.80","","","","","","Mostly Cloudy"
"2002-11-04 22:00","2002","11","04","22:00","3.8","","-0.5","","73","","30","","15","","24.1","","99.90","","","","","","Mostly Cloudy"
"2002-11-04 23:00","2002","11","04","23:00","3.4","","-1.2","","72","","29","","15","","24.1","","99.99","","","","","","Mostly Cloudy"
"2002-11-05 00:00","2002","11","05","00:00","2.8","","-1.7","","72","","28","","15","","24.1","","100.04","","","","","","Mostly Cloudy"
"2002-11-05 01:00","2002","11","05","01:00","1.5","","-3.7","","68","","29","","13","","24.1","","100.06","","","","","","Mainly Clear"
"2002-11-05 02:00","2002","11","05","02:00","0.7","","-3.9","","71","","33","","11","","24.1","","100.07","","","","","","Clear"
"2002-11-05 03:00","2002","11","05","03:00","-0.7","","-4.1","","78","","33","","9","","24.1","","100.10","","","","-4","","Clear"
"2002-11-05 04:00","2002","11","05","04:00","-1.6","","-4.4","","81","","35","","6","","24.1","","100.09","","","","-4","","Clear"
"2002-11-05 05:00","2002","11","05","05:00","-0.8","","-4.2","","78","","1","","6","","24.1","","100.11","","","","-3","","Clear"
"2002-11-05 06:00","2002","11","05","06:00","-2.1","","-4.4","","84","","2","","6","","24.1","","100.14","","","","-4","","Clear"
"2002-11-05 07:00","2002","11","05","07:00","-2.2","","-4.3","","85","","2","","7","","19.3","","100.13","","","","-5","","Mainly Clear"
"2002-11-05 08:00","2002","11","05","08:00","-0.2","","-3.3","","80","","4","","6","","16.1","","100.14","","","","-2","","Mainly Clear"
"2002-11-05 09:00","2002","11","05","09:00","1.1","","-4.1","","68","","7","","15","","19.3","","100.10","","","","","","Mostly Cloudy"
"2002-11-05 10:00","2002","11","05","10:00","2.5","","-3.2","","66","","9","","22","","19.3","","99.90","","","","","","Mostly Cloudy"
"2002-11-05 11:00","2002","11","05","11:00","3.4","","-2.2","","67","","8","","20","","24.1","","99.92","","","","","","Cloudy"
"2002-11-05 12:00","2002","11","05","12:00","3.6","","-1.5","","69","","10","","19","","24.1","","99.77","","","","","","Cloudy"
"2002-11-05 13:00","2002","11","05","13:00","3.9","","-0.9","","71","","9","","15","","24.1","","99.63","","","","","","Cloudy"
"2002-11-05 14:00","2002","11","05","14:00","4.4","","-1.1","","67","","9","","22","","24.1","","99.40","","","","","","Cloudy"
"2002-11-05 15:00","2002","11","05","15:00","4.7","","-0.3","","70","","10","","22","","19.3","","99.33","","","","","","Cloudy"
"2002-11-05 16:00","2002","11","05","16:00","5.0","","-0.1","","70","","10","","28","","19.3","","99.17","","","","","","Cloudy"
"2002-11-05 17:00","2002","11","05","17:00","4.8","","-0.1","","71","","9","","26","","16.1","","98.98","","","","","","Cloudy"
"2002-11-05 18:00","2002","11","05","18:00","5.2","","0.3","","71","","10","","28","","19.3","","98.90","","","","","","Cloudy"
"2002-11-05 19:00","2002","11","05","19:00","4.5","","1.7","","82","","10","","26","","12.9","","98.84","","","","","","Rain"
"2002-11-05 20:00","2002","11","05","20:00","3.0","","2.0","","93","","12","","20","","4.8","","98.73","","","","","","Rain"
"2002-11-05 21:00","2002","11","05","21:00","2.4","","1.9","","96","","10","","19","","6.4","","98.58","","","","","","Rain"
"2002-11-05 22:00","2002","11","05","22:00","2.6","","2.4","","99","","10","","17","","6.4","","98.42","","","","","","Rain"
"2002-11-05 23:00","2002","11","05","23:00","2.8","","2.5","","98","","10","","17","","6.4","","98.34","","","","","","Rain"
"2002-11-06 00:00","2002","11","06","00:00","3.4","","3.0","","97","","7","","6","","6.4","","98.25","","","","","","Rain"
"2002-11-06 01:00","2002","11","06","01:00","3.4","","3.3","","99","","3","","7","","4.8","","98.20","","","","","","Rain,Fog"
"2002-11-06 02:00","2002","11","06","02:00","2.0","","1.7","","98","","36","","17","","9.7","","98.17","","","","","","Rain"
"2002-11-06 03:00","2002","11","06","03:00","1.5","","1.2","","98","","35","","19","","8.0","","98.11","","","","","","Rain"
"2002-11-06 04:00","2002","11","06","04:00","1.1","","0.6","","96","","34","","22","","8.0","","98.12","","","","","","Fog"
"2002-11-06 05:00","2002","11","06","05:00","1.1","","0.5","","96","","34","","20","","8.0","","98.13","","","","","","Fog"
"2002-11-06 06:00","2002","11","06","06:00","1.1","","0.8","","98","","34","","17","","4.8","","98.18","","","","","","Fog"
"2002-11-06 07:00","2002","11","06","07:00","1.0","","0.3","","95","","34","","28","","8.0","","98.26","","","","","","Fog"
"2002-11-06 08:00","2002","11","06","08:00","1.7","","0.5","","92","","33","","24","","16.1","","98.34","","","","","","Cloudy"
"2002-11-06 09:00","2002","11","06","09:00","2.3","","0.9","","90","","34","","19","","16.1","","98.41","","","","","","Cloudy"
"2002-11-06 10:00","2002","11","06","10:00","2.8","","0.6","","85","","34","","17","","19.3","","98.45","","","","","","Cloudy"
"2002-11-06 11:00","2002","11","06","11:00","4.5","","1.8","","83","","35","","19","","19.3","","98.47","","","","","","Mostly Cloudy"
"2002-11-06 12:00","2002","11","06","12:00","6.2","","2.4","","77","","33","","17","","24.1","","98.43","","","","","","Mainly Clear"
"2002-11-06 13:00","2002","11","06","13:00","7.2","","1.9","","69","","31","","26","","24.1","","98.37","","","","","","Mostly Cloudy"
"2002-11-06 14:00","2002","11","06","14:00","6.3","","1.5","","71","","31","","28","","24.1","","98.41","","","","","","Cloudy"
"2002-11-06 15:00","2002","11","06","15:00","7.3","","1.3","","66","","31","","30","","24.1","","98.42","","","","","","Mainly Clear"
"2002-11-06 16:00","2002","11","06","16:00","6.5","","1.4","","70","","29","","28","","24.1","","98.48","","","","","","Mostly Cloudy"
"2002-11-06 17:00","2002","11","06","17:00","5.4","","2.8","","83","","28","","20","","19.3","","98.55","","","","","","Cloudy"
"2002-11-06 18:00","2002","11","06","18:00","5.4","","2.4","","81","","28","","26","","24.1","","98.63","","","","","","Cloudy"
"2002-11-06 19:00","2002","11","06","19:00","5.3","","2.2","","80","","28","","26","","19.3","","98.71","","","","","","Cloudy"
"2002-11-06 20:00","2002","11","06","20:00","5.0","","1.9","","80","","27","","32","","19.3","","98.72","","","","","","Cloudy"
"2002-11-06 21:00","2002","11","06","21:00","4.9","","2.0","","81","","27","","22","","19.3","","98.78","","","","","","Cloudy"
"2002-11-06 22:00","2002","11","06","22:00","4.6","","1.8","","82","","28","","19","","19.3","","98.81","","","","","","Cloudy"
"2002-11-06 23:00","2002","11","06","23:00","3.7","","2.4","","91","","30","","17","","16.1","","98.86","","","","","","Rain"
"2002-11-07 00:00","2002","11","07","00:00","2.7","","0.2","","84","","34","","37","","19.3","","98.96","","","","","","Rain"
"2002-11-07 01:00","2002","11","07","01:00","1.3","","-2.5","","76","","35","","39","","24.1","","99.06","","","","","","Mostly Cloudy"
"2002-11-07 02:00","2002","11","07","02:00","-0.9","","-6.9","","64","","33","","35","","24.1","","99.21","","","","-8","","Clear"
"2002-11-07 03:00","2002","11","07","03:00","-2.4","","-8.6","","62","","36","","35","","24.1","","99.38","","","","-10","","Clear"
"2002-11-07 04:00","2002","11","07","04:00","-4.2","","-16.8","","37","","34","","26","","24.1","","99.53","","","","-11","","Clear"
"2002-11-07 05:00","2002","11","07","05:00","-5.4","","-13.8","","52","","34","","24","","24.1","","99.63","","","","-13","","Clear"
"2002-11-07 06:00","2002","11","07","06:00","-6.0","","-12.7","","59","","34","","24","","24.1","","99.80","","","","-13","","Clear"
"2002-11-07 07:00","2002","11","07","07:00","-6.6","","-12.4","","63","","35","","22","","24.1","","99.81","","","","-14","","Clear"
"2002-11-07 08:00","2002","11","07","08:00","-6.0","","-12.0","","62","","35","","19","","24.1","","99.90","","","","-13","","Clear"
"2002-11-07 09:00","2002","11","07","09:00","-4.8","","-10.5","","64","","34","","11","","24.1","","99.97","","","","-9","","Clear"
"2002-11-07 10:00","2002","11","07","10:00","-3.6","","-10.0","","61","","33","","9","","24.1","","99.98","","","","-7","","Clear"
"2002-11-07 11:00","2002","11","07","11:00","-2.2","","-9.6","","57","","34","","6","","24.1","","100.01","","","","-5","","Mostly Cloudy"
"2002-11-07 12:00","2002","11","07","12:00","-0.6","","-9.9","","49","","21","","9","","24.1","","99.91","","","","-4","","Mainly Clear"
"2002-11-07 13:00","2002","11","07","13:00","1.1","","-9.5","","45","","17","","11","","24.1","","99.85","","","","","","Clear"
"2002-11-07 14:00","2002","11","07","14:00","0.3","","-9.7","","47","","15","","15","","24.1","","99.73","","","","","","Mainly Clear"
"2002-11-07 15:00","2002","11","07","15:00","1.4","","-8.9","","46","","16","","13","","24.1","","99.73","","","","","","Mostly Cloudy"
"2002-11-07 16:00","2002","11","07","16:00","1.6","","-6.8","","54","","19","","13","","24.1","","99.62","","","","","","Mostly Cloudy"
"2002-11-07 17:00","2002","11","07","17:00","1.4","","-6.6","","55","","20","","11","","24.1","","99.56","","","","","","Mostly Cloudy"
"2002-11-07 18:00","2002","11","07","18:00","1.4","","-9.2","","45","","20","","17","","24.1","","99.50","","","","","","Mostly Cloudy"
"2002-11-07 19:00","2002","11","07","19:00","2.2","","-7.2","","50","","19","","15","","24.1","","99.36","","","","","","Cloudy"
"2002-11-07 20:00","2002","11","07","20:00","2.6","","-4.6","","59","","18","","15","","24.1","","99.16","","","","","","Cloudy"
"2002-11-07 21:00","2002","11","07","21:00","4.4","","-0.4","","71","","20","","24","","24.1","","99.00","","","","","","Cloudy"
"2002-11-07 22:00","2002","11","07","22:00","6.2","","2.7","","78","","22","","28","","16.1","","98.89","","","","","","Cloudy"
"2002-11-07 23:00","2002","11","07","23:00","6.9","","3.8","","81","","23","","41","","11.3","","98.77","","","","","","Clear"
"2002-11-08 00:00","2002","11","08","00:00","6.8","","4.2","","83","","23","","32","","8.0","","98.76","","","","","","Haze"
"2002-11-08 01:00","2002","11","08","01:00","7.4","","4.5","","82","","23","","30","","16.1","","98.78","","","","","","Clear"
"2002-11-08 02:00","2002","11","08","02:00","7.9","","4.4","","79","","22","","32","","16.1","","98.77","","","","","","Clear"
"2002-11-08 03:00","2002","11","08","03:00","7.7","","4.4","","80","","22","","28","","16.1","","98.73","","","","","","Clear"
"2002-11-08 04:00","2002","11","08","04:00","8.0","","4.9","","81","","22","","20","","16.1","","98.72","","","","","","Clear"
"2002-11-08 05:00","2002","11","08","05:00","7.8","","4.7","","81","","22","","22","","19.3","","98.69","","","","","","Clear"
"2002-11-08 06:00","2002","11","08","06:00","8.0","","5.1","","82","","22","","28","","19.3","","98.64","","","","","","Clear"
"2002-11-08 07:00","2002","11","08","07:00","8.3","","5.0","","80","","22","","30","","16.1","","98.63","","","","","","Mostly Cloudy"
"2002-11-08 08:00","2002","11","08","08:00","9.1","","5.4","","78","","21","","24","","16.1","","98.63","","","","","","Mostly Cloudy"
"2002-11-08 09:00","2002","11","08","09:00","10.7","","5.9","","72","","21","","24","","19.3","","98.63","","","","","","Mainly Clear"
"2002-11-08 10:00","2002","11","08","10:00","12.5","","6.0","","65","","23","","35","","24.1","","98.62","","","","","","Mostly Cloudy"
"2002-11-08 11:00","2002","11","08","11:00","13.7","","5.8","","59","","24","","37","","24.1","","98.60","","","","","","Mainly Clear"
"2002-11-08 12:00","2002","11","08","12:00","14.8","","6.0","","56","","24","","43","","24.1","","98.55","","","","","","Mainly Clear"
"2002-11-08 13:00","2002","11","08","13:00","16.4","","6.4","","52","","24","","35","","24.1","","98.47","","","","","","Mainly Clear"
"2002-11-08 14:00","2002","11","08","14:00","16.1","","6.6","","53","","22","","39","","24.1","","98.43","","","","","","Mainly Clear"
"2002-11-08 15:00","2002","11","08","15:00","15.5","","6.5","","55","","22","","35","","24.1","","98.45","","","","","","Mainly Clear"
"2002-11-08 16:00","2002","11","08","16:00","14.2","","5.9","","57","","23","","37","","24.1","","98.50","","","","","","Mainly Clear"
"2002-11-08 17:00","2002","11","08","17:00","13.9","","5.4","","56","","23","","32","","24.1","","98.55","","","","","","Mostly Cloudy"
"2002-11-08 18:00","2002","11","08","18:00","13.5","","5.1","","57","","23","","22","","24.1","","98.60","","","","","","Mainly Clear"
"2002-11-08 19:00","2002","11","08","19:00","13.4","","4.9","","56","","23","","24","","24.1","","98.67","","","","","","Mainly Clear"
"2002-11-08 20:00","2002","11","08","20:00","13.2","","4.8","","57","","23","","24","","24.1","","98.71","","","","","","Mainly Clear"
"2002-11-08 21:00","2002","11","08","21:00","12.7","","4.6","","58","","24","","20","","24.1","","98.75","","","","","","Clear"
"2002-11-08 22:00","2002","11","08","22:00","12.5","","4.2","","57","","24","","20","","24.1","","98.79","","","","","","Mainly Clear"
"2002-11-08 23:00","2002","11","08","23:00","12.1","","3.9","","57","","21","","13","","24.1","","98.82","","","","","","Mainly Clear"
"2002-11-09 00:00","2002","11","09","00:00","11.9","","4.0","","58","","22","","15","","24.1","","98.84","","","","","","Mainly Clear"
"2002-11-09 01:00","2002","11","09","01:00","11.8","","4.4","","60","","22","","15","","24.1","","98.85","","","","","","Mostly Cloudy"
"2002-11-09 02:00","2002","11","09","02:00","10.3","","4.3","","66","","16","","7","","24.1","","98.85","","","","","","Mostly Cloudy"
"2002-11-09 03:00","2002","11","09","03:00","9.6","","4.0","","68","","15","","7","","24.1","","98.82","","","","","","Mostly Cloudy"
"2002-11-09 04:00","2002","11","09","04:00","9.0","","4.3","","72","","17","","6","","24.1","","98.78","","","","","","Mostly Cloudy"
"2002-11-09 05:00","2002","11","09","05:00","9.2","","4.7","","73","","21","","37","","24.1","","98.79","","","","","","Mainly Clear"
"2002-11-09 06:00","2002","11","09","06:00","9.5","","5.0","","73","","22","","11","","24.1","","98.80","","","","","","Mostly Cloudy"
"2002-11-09 07:00","2002","11","09","07:00","10.0","","5.1","","72","","22","","15","","24.1","","98.81","","","","","","Mostly Cloudy"
"2002-11-09 08:00","2002","11","09","08:00","10.5","","5.2","","70","","21","","13","","24.1","","98.85","","","","","","Mostly Cloudy"
"2002-11-09 09:00","2002","11","09","09:00","12.5","","6.1","","65","","21","","15","","24.1","","98.84","","","","","","Mainly Clear"
"2002-11-09 10:00","2002","11","09","10:00","13.6","","6.4","","62","","21","","19","","24.1","","98.82","","","","","","Mostly Cloudy"
"2002-11-09 11:00","2002","11","09","11:00","15.6","","7.3","","58","","23","","35","","24.1","","98.78","","","","","","Mostly Cloudy"
"2002-11-09 12:00","2002","11","09","12:00","15.0","","7.0","","59","","22","","28","","24.1","","98.72","","","","","","Cloudy"
"2002-11-09 13:00","2002","11","09","13:00","15.1","","7.3","","60","","23","","32","","24.1","","98.65","","","","","","Cloudy"
"2002-11-09 14:00","2002","11","09","14:00","15.0","","7.7","","62","","22","","37","","19.3","","98.62","","","","","","Cloudy"
"2002-11-09 15:00","2002","11","09","15:00","15.0","","8.2","","64","","19","","19","","19.3","","98.62","","","","","","Cloudy"
"2002-11-09 16:00","2002","11","09","16:00","14.6","","7.8","","64","","20","","19","","24.1","","98.64","","","","","","Cloudy"
"2002-11-09 17:00","2002","11","09","17:00","14.5","","8.0","","65","","19","","19","","19.3","","98.61","","","","","","Cloudy"
"2002-11-09 18:00","2002","11","09","18:00","14.8","","8.5","","66","","19","","17","","19.3","","98.63","","","","","","Cloudy"
"2002-11-09 19:00","2002","11","09","19:00","14.8","","9.2","","69","","20","","17","","19.3","","98.61","","","","","","Cloudy"
"2002-11-09 20:00","2002","11","09","20:00","14.8","","9.7","","71","","21","","20","","19.3","","98.59","","","","","","Cloudy"
"2002-11-09 21:00","2002","11","09","21:00","14.6","","9.5","","71","","20","","17","","19.3","","98.58","","","","","","Mostly Cloudy"
"2002-11-09 22:00","2002","11","09","22:00","14.2","","9.4","","73","","19","","15","","16.1","","98.53","","","","","","Cloudy"
"2002-11-09 23:00","2002","11","09","23:00","14.8","","9.4","","70","","20","","20","","19.3","","98.49","","","","","","Cloudy"
"2002-11-10 00:00","2002","11","10","00:00","15.0","","9.2","","68","","19","","20","","19.3","","98.43","","","","","","Cloudy"
"2002-11-10 01:00","2002","11","10","01:00","15.0","","8.9","","67","","18","","15","","19.3","","98.35","","","","","","Cloudy"
"2002-11-10 02:00","2002","11","10","02:00","14.2","","8.6","","69","","15","","11","","19.3","","98.27","","","","","","Cloudy"
"2002-11-10 03:00","2002","11","10","03:00","13.0","","8.3","","73","","15","","11","","24.1","","98.20","","","","","","Cloudy"
"2002-11-10 04:00","2002","11","10","04:00","12.5","","9.5","","82","","14","","11","","14.5","","98.08","","","","","","Rain"
"2002-11-10 05:00","2002","11","10","05:00","14.0","","9.6","","75","","18","","13","","19.3","","98.02","","","","","","Cloudy"
"2002-11-10 06:00","2002","11","10","06:00","12.5","","9.0","","79","","15","","11","","19.3","","97.96","","","","","","Cloudy"
"2002-11-10 07:00","2002","11","10","07:00","13.3","","8.7","","74","","17","","13","","19.3","","97.89","","","","","","Cloudy"
"2002-11-10 08:00","2002","11","10","08:00","13.8","","9.8","","77","","19","","15","","12.9","","97.86","","","","","","Rain Showers"
"2002-11-10 09:00","2002","11","10","09:00","13.3","","10.6","","84","","18","","22","","9.7","","97.80","","","","","","Rain Showers"
"2002-11-10 10:00","2002","11","10","10:00","12.7","","11.3","","91","","18","","19","","8.0","","97.71","","","","","","Rain,Fog"
"2002-11-10 11:00","2002","11","10","11:00","13.2","","11.9","","92","","18","","17","","11.3","","97.65","","","","","","Rain"
"2002-11-10 12:00","2002","11","10","12:00","13.4","","12.7","","96","","20","","15","","4.8","","97.59","","","","","","Rain,Fog"
"2002-11-10 13:00","2002","11","10","13:00","13.8","","13.7","","99","","21","","17","","11.3","","97.53","","","","","","Rain"
"2002-11-10 14:00","2002","11","10","14:00","15.2","","14.5","","96","","22","","22","","16.1","","97.59","","","","","","Cloudy"
"2002-11-10 15:00","2002","11","10","15:00","15.7","","14.7","","94","","23","","22","","14.5","","97.64","","","","","","Cloudy"
"2002-11-10 16:00","2002","11","10","16:00","16.8","","14.7","","87","","21","","19","","16.1","","97.66","","","","","","Mostly Cloudy"
"2002-11-10 17:00","2002","11","10","17:00","16.2","","14.3","","89","","19","","13","","16.1","","97.65","","","","","","Mostly Cloudy"
"2002-11-10 18:00","2002","11","10","18:00","16.3","","14.1","","87","","18","","11","","19.3","","97.63","","","","","","Rain Showers"
"2002-11-10 19:00","2002","11","10","19:00","15.1","","14.6","","97","","22","","7","","2.4","","97.59","","","","","","Thunderstorms,Heavy Rain Showers"
"2002-11-10 20:00","2002","11","10","20:00","15.6","","14.6","","94","","13","","11","","19.3","","97.40","","","","","","Cloudy"
"2002-11-10 21:00","2002","11","10","21:00","15.1","","14.6","","97","","30","","11","","4.8","","97.49","","","","","","Thunderstorms,Moderate Rain Showers"
"2002-11-10 22:00","2002","11","10","22:00","14.5","","14.5","","100","","18","","6","","11.3","","97.42","","","","","","Rain"
"2002-11-10 23:00","2002","11","10","23:00","14.4","","14.4","","100","","12","","11","","11.3","","97.34","","","","","","Rain"
"2002-11-11 00:00","2002","11","11","00:00","15.4","","13.9","","91","","21","","28","","24.1","","97.27","","","","","","Cloudy"
"2002-11-11 01:00","2002","11","11","01:00","14.9","","13.7","","93","","22","","30","","24.1","","97.29","","","","","","Cloudy"
"2002-11-11 02:00","2002","11","11","02:00","14.8","","13.4","","91","","23","","24","","24.1","","97.34","","","","","","Cloudy"
"2002-11-11 03:00","2002","11","11","03:00","14.6","","13.5","","93","","22","","22","","24.1","","97.38","","","","","","Cloudy"
"2002-11-11 04:00","2002","11","11","04:00","14.2","","13.7","","97","","23","","17","","19.3","","97.49","","","","","","Rain"
"2002-11-11 05:00","2002","11","11","05:00","13.3","","12.0","","92","","29","","24","","24.1","","97.66","","","","","","Cloudy"
"2002-11-11 06:00","2002","11","11","06:00","10.6","","9.6","","94","","28","","15","","24.1","","97.79","","","","","","Rain Showers"
"2002-11-11 07:00","2002","11","11","07:00","10.0","","8.5","","90","","29","","20","","19.3","","97.99","","","","","","Rain Showers"
"2002-11-11 08:00","2002","11","11","08:00","9.5","","7.7","","89","","30","","20","","24.1","","98.23","","","","","","Cloudy"
"2002-11-11 09:00","2002","11","11","09:00","8.9","","7.2","","89","","31","","19","","24.1","","98.39","","","","","","Cloudy"
"2002-11-11 10:00","2002","11","11","10:00","9.0","","6.8","","86","","30","","26","","24.1","","98.55","","","","","","Cloudy"
"2002-11-11 11:00","2002","11","11","11:00","9.0","","6.5","","84","","29","","17","","24.1","","98.69","","","","","","Cloudy"
"2002-11-11 12:00","2002","11","11","12:00","9.2","","6.6","","84","","29","","20","","24.1","","98.76","","","","","","Cloudy"
"2002-11-11 13:00","2002","11","11","13:00","9.6","","6.2","","79","","27","","22","","24.1","","98.82","","","","","","Cloudy"
"2002-11-11 14:00","2002","11","11","14:00","9.7","","5.8","","77","","25","","24","","24.1","","98.92","","","","","","Cloudy"
"2002-11-11 15:00","2002","11","11","15:00","10.0","","5.9","","76","","27","","19","","24.1","","98.99","","","","","","Mostly Cloudy"
"2002-11-11 16:00","2002","11","11","16:00","9.7","","6.1","","78","","26","","15","","24.1","","99.12","","","","","","Mostly Cloudy"
"2002-11-11 17:00","2002","11","11","17:00","9.1","","5.2","","77","","28","","17","","19.3","","99.21","","","","","","Cloudy"
"2002-11-11 18:00","2002","11","11","18:00","8.4","","5.3","","81","","31","","20","","19.3","","99.32","","","","","","Rain Showers"
"2002-11-11 19:00","2002","11","11","19:00","7.9","","4.9","","81","","32","","13","","24.1","","99.40","","","","","","Mostly Cloudy"
"2002-11-11 20:00","2002","11","11","20:00","7.5","","4.7","","82","","33","","9","","24.1","","99.48","","","","","","Cloudy"
"2002-11-11 21:00","2002","11","11","21:00","6.9","","4.8","","86","","31","","13","","19.3","","99.58","","","","","","Rain Showers"
"2002-11-11 22:00","2002","11","11","22:00","6.6","","4.9","","89","","31","","9","","24.1","","99.66","","","","","","Cloudy"
"2002-11-11 23:00","2002","11","11","23:00","6.4","","4.4","","87","","32","","9","","24.1","","99.71","","","","","","Cloudy"
"2002-11-12 00:00","2002","11","12","00:00","6.0","","3.8","","86","","29","","11","","24.1","","99.80","","","","","","Mostly Cloudy"
"2002-11-12 01:00","2002","11","12","01:00","5.9","","3.9","","87","","28","","6","","24.1","","99.86","","","","","","Cloudy"
"2002-11-12 02:00","2002","11","12","02:00","5.9","","3.4","","84","","32","","13","","24.1","","99.89","","","","","","Cloudy"
"2002-11-12 03:00","2002","11","12","03:00","5.7","","2.8","","82","","32","","13","","24.1","","99.94","","","","","","Mostly Cloudy"
"2002-11-12 04:00","2002","11","12","04:00","4.6","","1.4","","80","","32","","17","","24.1","","99.98","","","","","","Mainly Clear"
"2002-11-12 05:00","2002","11","12","05:00","5.0","","0.8","","74","","33","","17","","24.1","","100.02","","","","","","Mostly Cloudy"
"2002-11-12 06:00","2002","11","12","06:00","4.2","","0.5","","77","","31","","13","","24.1","","100.09","","","","","","Mostly Cloudy"
"2002-11-12 07:00","2002","11","12","07:00","4.4","","0.5","","76","","31","","15","","24.1","","100.09","","","","","","Cloudy"
"2002-11-12 08:00","2002","11","12","08:00","4.8","","-0.1","","71","","31","","7","","24.1","","100.17","","","","","","Cloudy"
"2002-11-12 09:00","2002","11","12","09:00","4.9","","0.4","","73","","32","","11","","24.1","","100.13","","","","","","Mostly Cloudy"
"2002-11-12 10:00","2002","11","12","10:00","5.5","","0.1","","68","","34","","7","","24.1","","100.10","","","","","","Mostly Cloudy"
"2002-11-12 11:00","2002","11","12","11:00","5.7","","-0.4","","65","","31","","4","","24.1","","100.10","","","","","","Cloudy"
"2002-11-12 12:00","2002","11","12","12:00","5.7","","0.2","","68","","28","","7","","24.1","","100.06","","","","","","Cloudy"
"2002-11-12 13:00","2002","11","12","13:00","5.7","","0.6","","70","","28","","9","","24.1","","99.98","","","","","","Cloudy"
"2002-11-12 14:00","2002","11","12","14:00","5.6","","0.8","","71","","28","","13","","24.1","","99.93","","","","","","Cloudy"
"2002-11-12 15:00","2002","11","12","15:00","5.3","","0.4","","71","","29","","13","","24.1","","99.88","","","","","","Cloudy"
"2002-11-12 16:00","2002","11","12","16:00","5.0","","0.4","","72","","32","","11","","24.1","","99.89","","","","","","Cloudy"
"2002-11-12 17:00","2002","11","12","17:00","5.0","","0.3","","72","","32","","7","","24.1","","99.89","","","","","","Cloudy"
"2002-11-12 18:00","2002","11","12","18:00","5.4","","-0.1","","68","","10","","4","","24.1","","99.92","","","","","","Cloudy"
"2002-11-12 19:00","2002","11","12","19:00","5.2","","0.7","","73","","19","","4","","24.1","","99.87","","","","","","Cloudy"
"2002-11-12 20:00","2002","11","12","20:00","5.1","","0.3","","71","","12","","6","","24.1","","99.82","","","","","","Cloudy"
"2002-11-12 21:00","2002","11","12","21:00","4.9","","1.3","","77","","25","","9","","24.1","","99.83","","","","","","Cloudy"
"2002-11-12 22:00","2002","11","12","22:00","5.0","","1.6","","79","","24","","13","","24.1","","99.81","","","","","","Cloudy"
"2002-11-12 23:00","2002","11","12","23:00","5.0","","2.2","","82","","25","","9","","24.1","","99.79","","","","","","Cloudy"
"2002-11-13 00:00","2002","11","13","00:00","4.5","","1.7","","82","","27","","13","","19.3","","99.79","","","","","","Mostly Cloudy"
"2002-11-13 01:00","2002","11","13","01:00","4.1","","1.1","","81","","27","","15","","19.3","","99.80","","","","","","Cloudy"
"2002-11-13 02:00","2002","11","13","02:00","4.1","","1.0","","80","","24","","6","","19.3","","99.76","","","","","","Cloudy"
"2002-11-13 03:00","2002","11","13","03:00","4.4","","0.5","","76","","23","","9","","19.3","","99.72","","","","","","Cloudy"
"2002-11-13 04:00","2002","11","13","04:00","4.4","","0.5","","76","","22","","9","","19.3","","99.72","","","","","","Cloudy"
"2002-11-13 05:00","2002","11","13","05:00","4.4","","0.7","","77","","23","","9","","16.1","","99.73","","","","","","Cloudy"
"2002-11-13 06:00","2002","11","13","06:00","4.6","","0.8","","76","","24","","9","","19.3","","99.77","","","","","","Cloudy"
"2002-11-13 07:00","2002","11","13","07:00","4.5","","0.8","","77","","25","","7","","14.5","","99.76","","","","","","Cloudy"
"2002-11-13 08:00","2002","11","13","08:00","4.9","","0.3","","72","","25","","9","","14.5","","99.76","","","","","","Cloudy"
"2002-11-13 09:00","2002","11","13","09:00","5.3","","0.3","","70","","25","","13","","16.1","","99.82","","","","","","Cloudy"
"2002-11-13 10:00","2002","11","13","10:00","5.8","","0.2","","67","","22","","11","","14.5","","99.77","","","","","","Cloudy"
"2002-11-13 11:00","2002","11","13","11:00","6.2","","0.4","","66","","16","","13","","14.5","","99.74","","","","","","Cloudy"
"2002-11-13 12:00","2002","11","13","12:00","6.5","","0.7","","66","","21","","15","","14.5","","99.69","","","","","","Cloudy"
"2002-11-13 13:00","2002","11","13","13:00","7.1","","1.0","","65","","20","","24","","12.9","","99.64","","","","","","Mostly Cloudy"
"2002-11-13 14:00","2002","11","13","14:00","7.6","","1.5","","65","","24","","22","","9.7","","99.61","","","","","","Haze"
"2002-11-13 15:00","2002","11","13","15:00","8.2","","2.2","","66","","24","","20","","8.0","","99.57","","","","","","Haze"
"2002-11-13 16:00","2002","11","13","16:00","6.9","","1.8","","70","","26","","22","","6.4","","99.59","","","","","","Haze"
"2002-11-13 17:00","2002","11","13","17:00","7.1","","2.0","","70","","24","","13","","8.0","","99.59","","","","","","Haze"
"2002-11-13 18:00","2002","11","13","18:00","7.2","","2.3","","71","","22","","11","","9.7","","99.58","","","","","","Haze"
"2002-11-13 19:00","2002","11","13","19:00","6.4","","2.5","","76","","22","","9","","14.5","","99.58","","","","","","Mostly Cloudy"
"2002-11-13 20:00","2002","11","13","20:00","4.7","","2.1","","83","","27","","7","","12.9","","99.59","","","","","","Mostly Cloudy"
"2002-11-13 21:00","2002","11","13","21:00","4.4","","2.0","","84","","26","","9","","11.3","","99.62","","","","","","Mostly Cloudy"
"2002-11-13 22:00","2002","11","13","22:00","3.4","","1.4","","87","","26","","11","","9.7","","99.61","","","","","","Fog"
"2002-11-13 23:00","2002","11","13","23:00","3.0","","1.3","","89","","24","","7","","8.0","","99.59","","","","","","Fog"
"2002-11-14 00:00","2002","11","14","00:00","3.5","","1.7","","88","","22","","7","","6.4","","99.54","","","","","","Fog"
"2002-11-14 01:00","2002","11","14","01:00","3.4","","2.0","","91","","20","","6","","6.4","","99.51","","","","","","Fog"
"2002-11-14 02:00","2002","11","14","02:00","3.6","","2.3","","91","","18","","9","","4.8","","99.41","","","","","","Fog"
"2002-11-14 03:00","2002","11","14","03:00","3.9","","2.7","","92","","18","","9","","4.8","","99.35","","","","","","Fog"
"2002-11-14 04:00","2002","11","14","04:00","4.8","","3.9","","94","","17","","7","","4.8","","99.28","","","","","","Fog"
"2002-11-14 05:00","2002","11","14","05:00","5.1","","3.7","","91","","17","","9","","4.8","","99.22","","","","","","Fog"
"2002-11-14 06:00","2002","11","14","06:00","5.7","","4.7","","93","","16","","11","","4.8","","99.10","","","","","","Fog"
"2002-11-14 07:00","2002","11","14","07:00","6.3","","5.5","","95","","19","","11","","4.8","","99.06","","","","","","Fog"
"2002-11-14 08:00","2002","11","14","08:00","7.6","","5.7","","88","","20","","15","","6.4","","99.03","","","","","","Fog"
"2002-11-14 09:00","2002","11","14","09:00","8.8","","6.0","","83","","22","","19","","11.3","","99.01","","","","","","Mostly Cloudy"
"2002-11-14 10:00","2002","11","14","10:00","10.0","","6.0","","76","","23","","20","","14.5","","98.95","","","","","","Mostly Cloudy"
"2002-11-14 11:00","2002","11","14","11:00","11.4","","6.1","","70","","23","","30","","19.3","","98.93","","","","","","Mostly Cloudy"
"2002-11-14 12:00","2002","11","14","12:00","11.6","","5.1","","64","","23","","24","","24.1","","98.88","","","","","","Mostly Cloudy"
"2002-11-14 13:00","2002","11","14","13:00","12.4","","5.2","","61","","24","","24","","24.1","","98.81","","","","","","Mostly Cloudy"
"2002-11-14 14:00","2002","11","14","14:00","12.5","","5.6","","63","","22","","19","","24.1","","98.80","","","","","","Mostly Cloudy"
"2002-11-14 15:00","2002","11","14","15:00"
"2002-11-14 16:00","2002","11","14","16:00","11.6","","5.6","","67","","25","","20","","19.3","","98.86","","","","","","Cloudy"
"2002-11-14 17:00","2002","11","14","17:00","11.2","","5.3","","67","","24","","22","","16.1","","98.85","","","","","","Cloudy"
"2002-11-14 18:00","2002","11","14","18:00","10.7","","5.6","","71","","23","","19","","19.3","","98.89","","","","","","Cloudy"
"2002-11-14 19:00","2002","11","14","19:00","10.0","","5.6","","74","","24","","24","","19.3","","98.89","","","","","","Rain"
"2002-11-14 20:00","2002","11","14","20:00","9.3","","6.6","","83","","24","","19","","19.3","","98.86","","","","","","Cloudy"
"2002-11-14 21:00","2002","11","14","21:00","8.8","","6.8","","87","","25","","20","","19.3","","98.87","","","","","","Cloudy"
"2002-11-14 22:00","2002","11","14","22:00","8.9","","7.1","","88","","26","","19","","16.1","","98.90","","","","","","Cloudy"
"2002-11-14 23:00","2002","11","14","23:00","5.5","","3.7","","88","","35","","28","","12.9","","98.97","","","","","","Rain"
"2002-11-15 00:00","2002","11","15","00:00","4.4","","3.2","","92","","33","","24","","8.0","","99.02","","","","","","Rain"
"2002-11-15 01:00","2002","11","15","01:00","3.8","","2.7","","93","","34","","15","","9.7","","99.04","","","","","","Rain"
"2002-11-15 02:00","2002","11","15","02:00","3.4","","2.4","","93","","32","","22","","12.9","","99.06","","","","","","Rain"
"2002-11-15 03:00","2002","11","15","03:00","3.2","","1.8","","91","","33","","22","","12.9","","99.10","","","","","","Rain"
"2002-11-15 04:00","2002","11","15","04:00","3.1","","1.8","","91","","33","","22","","14.5","","99.11","","","","","","Rain"
"2002-11-15 05:00","2002","11","15","05:00","3.1","","1.7","","91","","33","","19","","12.9","","99.18","","","","","","Rain"
"2002-11-15 06:00","2002","11","15","06:00","3.0","","1.6","","90","","33","","19","","19.3","","99.23","","","","","","Rain"
"2002-11-15 07:00","2002","11","15","07:00","2.7","","1.5","","92","","1","","15","","12.9","","99.31","","","","","","Rain"
"2002-11-15 08:00","2002","11","15","08:00","1.7","","0.7","","93","","1","","17","","4.8","","99.43","","","","","","Snow"
"2002-11-15 09:00","2002","11","15","09:00","1.8","","0.2","","89","","36","","17","","16.1","","99.53","","","","","","Cloudy"
"2002-11-15 10:00","2002","11","15","10:00","2.4","","-0.4","","82","","2","","19","","16.1","","99.57","","","","","","Cloudy"
"2002-11-15 11:00","2002","11","15","11:00","2.1","","-0.4","","83","","36","","24","","19.3","","99.66","","","","","","Cloudy"
"2002-11-15 12:00","2002","11","15","12:00","1.8","","-2.2","","75","","35","","26","","24.1","","99.72","","","","","","Cloudy"
"2002-11-15 13:00","2002","11","15","13:00","1.5","","-2.8","","73","","36","","28","","24.1","","99.75","","","","","","Mostly Cloudy"
"2002-11-15 14:00","2002","11","15","14:00","0.6","","-4.9","","67","","34","","26","","24.1","","99.82","","","","","","Mostly Cloudy"
"2002-11-15 15:00","2002","11","15","15:00","0.7","","-4.9","","66","","35","","35","","24.1","","99.86","","","","","","Mostly Cloudy"
"2002-11-15 16:00","2002","11","15","16:00","-0.2","","-5.6","","67","","1","","32","","24.1","","99.96","","","","-7","","Mainly Clear"
"2002-11-15 17:00","2002","11","15","17:00","-1.2","","-6.1","","69","","35","","24","","24.1","","100.05","","","","-7","","Mainly Clear"
"2002-11-15 18:00","2002","11","15","18:00","-1.4","","-6.4","","69","","36","","24","","24.1","","100.09","","","","-8","","Clear"
"2002-11-15 19:00","2002","11","15","19:00","-1.8","","-6.3","","71","","36","","19","","24.1","","100.19","","","","-7","","Mainly Clear"
"2002-11-15 20:00","2002","11","15","20:00","-1.9","","-7.1","","68","","1","","20","","24.1","","100.24","","","","-8","","Clear"
"2002-11-15 21:00","2002","11","15","21:00","-2.0","","-8.4","","62","","4","","24","","24.1","","100.26","","","","-8","","Clear"
"2002-11-15 22:00","2002","11","15","22:00","-2.6","","-9.2","","60","","4","","20","","24.1","","100.35","","","","-9","","Mainly Clear"
"2002-11-15 23:00","2002","11","15","23:00","-3.2","","-9.6","","61","","5","","22","","24.1","","100.38","","","","-10","","Mainly Clear"
"2002-11-16 00:00","2002","11","16","00:00","-3.6","","-9.9","","62","","5","","19","","24.1","","100.42","","","","-10","","Mostly Cloudy"
"2002-11-16 01:00","2002","11","16","01:00","-3.9","","-10.3","","61","","4","","17","","24.1","","100.41","","","","-10","","Mostly Cloudy"
"2002-11-16 02:00","2002","11","16","02:00","-4.4","","-12.0","","55","","6","","15","","24.1","","100.44","","","","-10","","Mostly Cloudy"
"2002-11-16 03:00","2002","11","16","03:00","-4.8","","-12.3","","56","","4","","20","","24.1","","100.43","","","","-11","","Mostly Cloudy"
"2002-11-16 04:00","2002","11","16","04:00","-5.0","","-12.5","","56","","5","","22","","24.1","","100.39","","","","-12","","Mostly Cloudy"
"2002-11-16 05:00","2002","11","16","05:00","-5.3","","-12.2","","58","","5","","17","","24.1","","100.43","","","","-11","","Mostly Cloudy"
"2002-11-16 06:00","2002","11","16","06:00","-5.6","","-12.0","","61","","4","","17","","24.1","","100.45","","","","-12","","Mainly Clear"
"2002-11-16 07:00","2002","11","16","07:00","-5.6","","-12.1","","60","","4","","20","","24.1","","100.47","","","","-12","","Mostly Cloudy"
"2002-11-16 08:00","2002","11","16","08:00","-5.9","","-11.6","","64","","5","","22","","24.1","","100.49","","","","-13","","Mostly Cloudy"
"2002-11-16 09:00","2002","11","16","09:00","-5.7","","-11.2","","65","","5","","22","","24.1","","100.50","","","","-13","","Mostly Cloudy"
"2002-11-16 10:00","2002","11","16","10:00","-4.9","","-10.5","","65","","5","","20","","24.1","","100.52","","","","-11","","Mostly Cloudy"
"2002-11-16 11:00","2002","11","16","11:00","-4.3","","-10.3","","63","","5","","20","","24.1","","100.42","","","","-11","","Mostly Cloudy"
"2002-11-16 12:00","2002","11","16","12:00","-3.5","","-10.8","","57","","6","","22","","24.1","","100.37","","","","-10","","Cloudy"
"2002-11-16 13:00","2002","11","16","13:00","-2.8","","-11.4","","52","","4","","20","","24.1","","100.28","","","","-9","","Cloudy"
"2002-11-16 14:00","2002","11","16","14:00","-2.4","","-11.3","","50","","5","","19","","19.3","","100.19","","","","-8","","Snow Showers"
"2002-11-16 15:00","2002","11","16","15:00","-3.1","","-8.5","","66","","6","","19","","8.0","","100.16","","","","-9","","Snow Showers"
"2002-11-16 16:00","2002","11","16","16:00","-2.9","","-7.5","","71","","5","","19","","4.8","","100.18","","","","-9","","Snow Showers"
"2002-11-16 17:00","2002","11","16","17:00","-3.5","","-5.5","","86","","4","","19","","3.6","","100.10","","","","-9","","Snow"
"2002-11-16 18:00","2002","11","16","18:00","-3.4","","-5.1","","88","","4","","19","","4.0","","100.06","","","","-9","","Snow,Snow Grains"
"2002-11-16 19:00","2002","11","16","19:00","-3.6","","-5.2","","89","","4","","19","","4.0","","99.99","","","","-10","","Snow"
"2002-11-16 20:00","2002","11","16","20:00","-3.6","","-5.3","","88","","4","","17","","4.0","","99.97","","","","-9","","Snow"
"2002-11-16 21:00","2002","11","16","21:00","-3.3","","-5.3","","86","","5","","15","","4.8","","99.93","","","","-8","","Snow"
"2002-11-16 22:00","2002","11","16","22:00","-3.5","","-5.3","","87","","5","","22","","4.8","","99.84","","","","-10","","Snow"
"2002-11-16 23:00","2002","11","16","23:00","-3.3","","-5.3","","86","","4","","20","","12.9","","99.74","","","","-9","","Snow"
"2002-11-17 00:00","2002","11","17","00:00","-3.4","","-4.8","","90","","4","","20","","3.2","","99.65","","","","-10","","Snow,Snow Grains"
"2002-11-17 01:00","2002","11","17","01:00","-3.4","","-4.4","","93","","3","","22","","2.4","","99.55","","","","-10","","Snow"
"2002-11-17 02:00","2002","11","17","02:00","-3.3","","-4.2","","93","","2","","22","","1.6","","99.47","","","","-10","","Snow"
"2002-11-17 03:00","2002","11","17","03:00","-3.4","","-4.2","","94","","1","","19","","1.6","","99.42","","","","-9","","Snow"
"2002-11-17 04:00","2002","11","17","04:00","-3.5","","-4.3","","94","","1","","19","","2.0","","99.31","","","","-9","","Snow"
"2002-11-17 05:00","2002","11","17","05:00","-3.2","","-4.2","","93","","2","","20","","2.4","","99.26","","","","-9","","Snow"
"2002-11-17 06:00","2002","11","17","06:00","-3.0","","-4.1","","92","","1","","19","","4.0","","99.19","","","","-9","","Snow"
"2002-11-17 07:00","2002","11","17","07:00","-2.8","","-4.0","","91","","1","","22","","3.2","","99.18","","","","-9","","Snow"
"2002-11-17 08:00","2002","11","17","08:00","-2.8","","-3.8","","93","","36","","22","","1.6","","99.11","","","","-9","","Snow"
"2002-11-17 09:00","2002","11","17","09:00","-2.4","","-3.5","","92","","1","","20","","2.8","","99.04","","","","-8","","Snow"
"2002-11-17 10:00","2002","11","17","10:00","-2.1","","-3.1","","93","","36","","19","","1.6","","99.07","","","","-8","","Snow"
"2002-11-17 11:00","2002","11","17","11:00","-2.0","","-2.8","","94","","1","","19","","1.0","","99.05","","","","-8","","Snow"
"2002-11-17 12:00","2002","11","17","12:00","-1.8","","-2.4","","96","","36","","17","","1.2","","98.95","","","","-7","","Snow"
"2002-11-17 13:00","2002","11","17","13:00","-1.6","","-2.5","","94","","1","","19","","2.4","","98.86","","","","-7","","Snow"
"2002-11-17 14:00","2002","11","17","14:00","-1.3","","-2.1","","94","","36","","19","","1.2","","98.78","","","","-7","","Snow"
"2002-11-17 15:00","2002","11","17","15:00","-1.3","","-2.2","","94","","36","","15","","2.4","","98.80","","","","-6","","Snow"
"2002-11-17 16:00","2002","11","17","16:00","-1.2","","-1.8","","96","","1","","13","","2.0","","98.83","","","","-5","","Snow"
"2002-11-17 17:00","2002","11","17","17:00","-1.3","","-2.2","","94","","35","","13","","4.0","","98.84","","","","-6","","Snow"
"2002-11-17 18:00","2002","11","17","18:00","-1.5","","-2.2","","95","","32","","15","","6.4","","98.88","","","","-6","","Snow"
"2002-11-17 19:00","2002","11","17","19:00","-1.5","","-2.8","","91","","32","","17","","19.3","","98.91","","","","-7","","Snow"
"2002-11-17 20:00","2002","11","17","20:00","-1.5","","-3.1","","89","","34","","17","","19.3","","98.85","","","","-7","","Snow"
"2002-11-17 21:00","2002","11","17","21:00","-1.3","","-3.0","","88","","32","","11","","24.1","","98.80","","","","-5","","Cloudy"
"2002-11-17 22:00","2002","11","17","22:00","-1.1","","-2.9","","88","","31","","7","","24.1","","98.79","","","","-4","","Cloudy"
"2002-11-17 23:00","2002","11","17","23:00","-1.3","","-3.2","","87","","32","","9","","24.1","","98.77","","","","-5","","Cloudy"
"2002-11-18 00:00","2002","11","18","00:00","-1.2","","-2.8","","89","","32","","11","","24.1","","98.76","","","","-5","","Cloudy"
"2002-11-18 01:00","2002","11","18","01:00","-0.1","","-2.4","","84","","30","","22","","24.1","","98.75","","","","-6","","Snow"
"2002-11-18 02:00","2002","11","18","02:00","-0.1","","-2.5","","84","","30","","20","","24.1","","98.78","","","","-5","","Cloudy"
"2002-11-18 03:00","2002","11","18","03:00","-0.2","","-2.8","","83","","29","","26","","24.1","","98.82","","","","-6","","Cloudy"
"2002-11-18 04:00","2002","11","18","04:00","-0.2","","-3.0","","81","","29","","28","","24.1","","98.85","","","","-7","","Snow"
"2002-11-18 05:00","2002","11","18","05:00","-0.4","","-3.0","","83","","29","","22","","24.1","","98.95","","","","-6","","Cloudy"
"2002-11-18 06:00","2002","11","18","06:00","-0.4","","-3.1","","82","","29","","20","","24.1","","99.02","","","","-6","","Mostly Cloudy"
"2002-11-18 07:00","2002","11","18","07:00","0.2","","-2.2","","84","","29","","26","","24.1","","99.11","","","","","","Mostly Cloudy"
"2002-11-18 08:00","2002","11","18","08:00","0.8","","-2.0","","82","","30","","24","","24.1","","99.23","","","","","","Cloudy"
"2002-11-18 09:00","2002","11","18","09:00","1.4","","-1.1","","83","","29","","15","","24.1","","99.37","","","","","","Mostly Cloudy"
"2002-11-18 10:00","2002","11","18","10:00","2.4","","-0.2","","83","","27","","15","","24.1","","99.46","","","","","","Mostly Cloudy"
"2002-11-18 11:00","2002","11","18","11:00","2.6","","-0.5","","80","","27","","28","","24.1","","99.57","","","","","","Mostly Cloudy"
"2002-11-18 12:00","2002","11","18","12:00","2.4","","-1.0","","78","","27","","30","","19.3","","99.66","","","","","","Cloudy"
"2002-11-18 13:00","2002","11","18","13:00","2.6","","-1.7","","73","","28","","35","","24.1","","99.73","","","","","","Mostly Cloudy"
"2002-11-18 14:00","2002","11","18","14:00","2.8","","-2.3","","69","","28","","41","","24.1","","99.76","","","","","","Mainly Clear"
"2002-11-18 15:00","2002","11","18","15:00","2.6","","-2.5","","69","","27","","30","","24.1","","99.86","","","","","","Mainly Clear"
"2002-11-18 16:00","2002","11","18","16:00","2.3","","-3.2","","67","","29","","26","","24.1","","99.98","","","","","","Mainly Clear"
"2002-11-18 17:00","2002","11","18","17:00","1.1","","-4.1","","68","","28","","15","","24.1","","100.08","","","","","","Mainly Clear"
"2002-11-18 18:00","2002","11","18","18:00","0.0","","-4.5","","72","","25","","13","","24.1","","100.17","","","","-4","","Mostly Cloudy"
"2002-11-18 19:00","2002","11","18","19:00","-0.3","","-4.9","","71","","25","","15","","24.1","","100.19","","","","-5","","Mainly Clear"
"2002-11-18 20:00","2002","11","18","20:00","0.3","","-4.3","","71","","18","","4","","24.1","","100.20","","","","","","Mostly Cloudy"
"2002-11-18 21:00","2002","11","18","21:00","0.2","","-4.3","","72","","15","","4","","24.1","","100.20","","","","","","Mainly Clear"
"2002-11-18 22:00","2002","11","18","22:00","0.0","","-4.0","","74","","17","","4","","24.1","","100.17","","","","-1","","Mostly Cloudy"
"2002-11-18 23:00","2002","11","18","23:00","0.1","","-4.0","","74","","15","","6","","24.1","","100.14","","","","","","Mostly Cloudy"
"2002-11-19 00:00","2002","11","19","00:00","0.5","","-3.6","","74","","12","","6","","24.1","","100.09","","","","","","Mainly Clear"
"2002-11-19 01:00","2002","11","19","01:00","1.0","","-2.4","","78","","14","","7","","24.1","","100.08","","","","","","Mostly Cloudy"
"2002-11-19 02:00","2002","11","19","02:00","1.9","","-0.9","","82","","13","","7","","24.1","","100.01","","","","","","Cloudy"
"2002-11-19 03:00","2002","11","19","03:00","3.0","","0.1","","81","","15","","9","","24.1","","99.97","","","","","","Cloudy"
"2002-11-19 04:00","2002","11","19","04:00","3.2","","0.1","","80","","16","","13","","24.1","","99.93","","","","","","Cloudy"
"2002-11-19 05:00","2002","11","19","05:00","3.3","","0.5","","82","","13","","17","","24.1","","99.78","","","","","","Cloudy"
"2002-11-19 06:00","2002","11","19","06:00","3.2","","0.4","","82","","11","","19","","24.1","","99.71","","","","","","Cloudy"
"2002-11-19 07:00","2002","11","19","07:00","2.9","","0.7","","85","","13","","17","","16.1","","99.65","","","","","","Rain Showers,Snow Showers"
"2002-11-19 08:00","2002","11","19","08:00","3.1","","0.3","","82","","13","","15","","19.3","","99.58","","","","","","Mostly Cloudy"
"2002-11-19 09:00","2002","11","19","09:00","3.5","","0.2","","79","","11","","20","","19.3","","99.50","","","","","","Mostly Cloudy"
"2002-11-19 10:00","2002","11","19","10:00","3.9","","0.5","","78","","12","","13","","19.3","","99.44","","","","","","Cloudy"
"2002-11-19 11:00","2002","11","19","11:00","4.0","","-0.1","","75","","13","","13","","19.3","","99.36","","","","","","Rain Showers"
"2002-11-19 12:00","2002","11","19","12:00","4.0","","2.1","","87","","13","","9","","19.3","","99.29","","","","","","Rain Showers"
"2002-11-19 13:00","2002","11","19","13:00","4.8","","4.0","","95","","15","","9","","12.9","","99.22","","","","","","Rain"
"2002-11-19 14:00","2002","11","19","14:00","5.2","","4.6","","96","","16","","9","","12.9","","99.16","","","","","","Cloudy"
"2002-11-19 15:00","2002","11","19","15:00","5.5","","5.1","","97","","20","","7","","9.7","","99.17","","","","","","Fog"
"2002-11-19 16:00","2002","11","19","16:00","4.9","","4.7","","99","","25","","13","","6.4","","99.22","","","","","","Fog"
"2002-11-19 17:00","2002","11","19","17:00","4.8","","3.8","","93","","26","","28","","12.9","","99.32","","","","","","Cloudy"
"2002-11-19 18:00","2002","11","19","18:00","4.6","","2.7","","87","","26","","22","","16.1","","99.39","","","","","","Mostly Cloudy"
"2002-11-19 19:00","2002","11","19","19:00","3.8","","2.2","","89","","23","","11","","19.3","","99.47","","","","","","Mainly Clear"
"2002-11-19 20:00","2002","11","19","20:00","4.9","","2.9","","87","","21","","13","","19.3","","99.49","","","","","","Mostly Cloudy"
"2002-11-19 21:00","2002","11","19","21:00","4.7","","3.2","","90","","21","","9","","14.5","","99.46","","","","","","Mostly Cloudy"
"2002-11-19 22:00","2002","11","19","22:00","4.9","","3.5","","91","","22","","19","","11.3","","99.47","","","","","","Mainly Clear"
"2002-11-19 23:00","2002","11","19","23:00","5.1","","3.9","","92","","22","","24","","8.0","","99.46","","","","","","Fog"
"2002-11-20 00:00","2002","11","20","00:00","5.4","","4.0","","91","","22","","13","","8.0","","99.49","","","","","","Fog"
"2002-11-20 01:00","2002","11","20","01:00","4.6","","3.5","","93","","22","","6","","8.0","","99.49","","","","","","Fog"
"2002-11-20 02:00","2002","11","20","02:00","4.0","","2.9","","93","","22","","7","","12.9","","99.52","","","","","","Mostly Cloudy"
"2002-11-20 03:00","2002","11","20","03:00","3.7","","2.1","","89","","22","","7","","16.1","","99.55","","","","","","Mostly Cloudy"
"2002-11-20 04:00","2002","11","20","04:00","2.7","","1.5","","92","","23","","4","","14.5","","99.57","","","","","","Mainly Clear"
"2002-11-20 05:00","2002","11","20","05:00","2.4","","1.7","","95","","24","","7","","14.5","","99.62","","","","","","Cloudy"
"2002-11-20 06:00","2002","11","20","06:00","2.5","","1.1","","90","","25","","9","","16.1","","99.67","","","","","","Mostly Cloudy"
"2002-11-20 07:00","2002","11","20","07:00","1.3","","0.4","","94","","25","","9","","16.1","","99.72","","","","","","Mostly Cloudy"
"2002-11-20 08:00","2002","11","20","08:00","2.3","","1.1","","92","","24","","11","","9.7","","99.75","","","","","","Fog"
"2002-11-20 09:00","2002","11","20","09:00","4.1","","2.3","","88","","25","","13","","12.9","","99.78","","","","","","Mainly Clear"
"2002-11-20 10:00","2002","11","20","10:00","5.8","","2.9","","82","","25","","13","","16.1","","99.80","","","","","","Mainly Clear"
"2002-11-20 11:00","2002","11","20","11:00","7.8","","3.8","","76","","25","","11","","16.1","","99.77","","","","","","Mostly Cloudy"
"2002-11-20 12:00","2002","11","20","12:00","7.7","","3.6","","75","","20","","11","","16.1","","99.69","","","","","","Mostly Cloudy"
"2002-11-20 13:00","2002","11","20","13:00","9.6","","4.4","","70","","23","","19","","16.1","","99.65","","","","","","Mostly Cloudy"
"2002-11-20 14:00","2002","11","20","14:00","11.4","","4.2","","61","","21","","24","","16.1","","99.59","","","","","","Mostly Cloudy"
"2002-11-20 15:00","2002","11","20","15:00","11.8","","4.3","","60","","21","","17","","16.1","","99.55","","","","","","Mainly Clear"
"2002-11-20 16:00","2002","11","20","16:00","9.9","","5.8","","76","","15","","9","","16.1","","99.55","","","","","","Mostly Cloudy"
"2002-11-20 17:00","2002","11","20","17:00","9.9","","5.4","","74","","18","","9","","16.1","","99.53","","","","","","Cloudy"
"2002-11-20 18:00","2002","11","20","18:00","9.7","","3.7","","66","","22","","17","","19.3","","99.53","","","","","","Cloudy"
"2002-11-20 19:00","2002","11","20","19:00","9.1","","3.3","","67","","22","","9","","19.3","","99.50","","","","","","Mostly Cloudy"
"2002-11-20 20:00","2002","11","20","20:00","8.3","","2.7","","68","","18","","7","","24.1","","99.45","","","","","","Mostly Cloudy"
"2002-11-20 21:00","2002","11","20","21:00","7.5","","2.0","","68","","15","","6","","24.1","","99.43","","","","","","Mostly Cloudy"
"2002-11-20 22:00","2002","11","20","22:00","7.1","","2.7","","74","","15","","7","","19.3","","99.39","","","","","","Cloudy"
"2002-11-20 23:00","2002","11","20","23:00","7.1","","2.8","","74","","17","","7","","19.3","","99.36","","","","","","Mostly Cloudy"
"2002-11-21 00:00","2002","11","21","00:00","7.1","","2.8","","74","","15","","6","","19.3","","99.28","","","","","","Mostly Cloudy"
"2002-11-21 01:00","2002","11","21","01:00","7.4","","1.4","","66","","18","","6","","19.3","","99.19","","","","","","Mostly Cloudy"
"2002-11-21 02:00","2002","11","21","02:00","6.7","","1.9","","71","","16","","7","","19.3","","99.11","","","","","","Mostly Cloudy"
"2002-11-21 03:00","2002","11","21","03:00","6.4","","2.5","","76","","18","","11","","19.3","","99.03","","","","","","Mostly Cloudy"
"2002-11-21 04:00","2002","11","21","04:00","6.5","","2.9","","78","","15","","7","","19.3","","98.95","","","","","","Cloudy"
"2002-11-21 05:00","2002","11","21","05:00","6.4","","3.0","","79","","15","","6","","19.3","","98.91","","","","","","Mostly Cloudy"
"2002-11-21 06:00","2002","11","21","06:00","6.8","","3.3","","78","","17","","6","","19.3","","98.85","","","","","","Cloudy"
"2002-11-21 07:00","2002","11","21","07:00","7.1","","3.4","","77","","18","","7","","19.3","","98.84","","","","","","Cloudy"
"2002-11-21 08:00","2002","11","21","08:00","7.1","","3.6","","78","","18","","7","","16.1","","98.84","","","","","","Mostly Cloudy"
"2002-11-21 09:00","2002","11","21","09:00","7.6","","4.2","","79","","19","","6","","14.5","","98.82","","","","","","Cloudy"
"2002-11-21 10:00","2002","11","21","10:00","8.4","","4.9","","79","","25","","11","","11.3","","98.79","","","","","","Cloudy"
"2002-11-21 11:00","2002","11","21","11:00","8.6","","5.4","","80","","20","","9","","11.3","","98.76","","","","","","Cloudy"
"2002-11-21 12:00","2002","11","21","12:00","8.9","","5.7","","80","","22","","7","","9.7","","98.68","","","","","","Haze"
"2002-11-21 13:00","2002","11","21","13:00","8.6","","5.9","","83","","27","","6","","8.0","","98.63","","","","","","Haze"
"2002-11-21 14:00","2002","11","21","14:00","8.8","","5.8","","81","","34","","6","","8.0","","98.57","","","","","","Haze"
"2002-11-21 15:00","2002","11","21","15:00","9.8","","6.1","","78","","15","","4","","8.0","","98.57","","","","","","Haze"
"2002-11-21 16:00","2002","11","21","16:00","9.0","","6.0","","81","","14","","6","","6.4","","98.60","","","","","","Haze"
"2002-11-21 17:00","2002","11","21","17:00","8.6","","5.6","","81","","14","","6","","6.4","","98.60","","","","","","Haze"
"2002-11-21 18:00","2002","11","21","18:00","6.7","","4.6","","86","","36","","17","","8.0","","98.62","","","","","","Haze"
"2002-11-21 19:00","2002","11","21","19:00","6.1","","4.0","","86","","1","","24","","14.5","","98.63","","","","","","Cloudy"
"2002-11-21 20:00","2002","11","21","20:00","5.7","","3.8","","88","","1","","24","","16.1","","98.62","","","","","","Cloudy"
"2002-11-21 21:00","2002","11","21","21:00","5.5","","3.7","","88","","1","","22","","14.5","","98.59","","","","","","Cloudy"
"2002-11-21 22:00","2002","11","21","22:00","5.4","","3.5","","88","","1","","20","","16.1","","98.59","","","","","","Cloudy"
"2002-11-21 23:00","2002","11","21","23:00","5.0","","3.0","","87","","2","","30","","16.1","","98.52","","","","","","Cloudy"
"2002-11-22 00:00","2002","11","22","00:00","4.9","","2.7","","86","","1","","20","","16.1","","98.48","","","","","","Cloudy"
"2002-11-22 01:00","2002","11","22","01:00","4.6","","1.7","","81","","1","","22","","24.1","","98.45","","","","","","Cloudy"
"2002-11-22 02:00","2002","11","22","02:00","4.6","","1.2","","79","","2","","28","","19.3","","98.41","","","","","","Cloudy"
"2002-11-22 03:00","2002","11","22","03:00","4.7","","1.2","","78","","2","","22","","14.5","","98.38","","","","","","Cloudy"
"2002-11-22 04:00","2002","11","22","04:00","4.4","","1.6","","82","","36","","32","","16.1","","98.32","","","","","","Cloudy"
"2002-11-22 05:00","2002","11","22","05:00","3.9","","2.0","","87","","36","","35","","16.1","","98.29","","","","","","Rain"
"2002-11-22 06:00","2002","11","22","06:00","3.4","","1.7","","89","","1","","28","","14.5","","98.30","","","","","","Rain"
"2002-11-22 07:00","2002","11","22","07:00","3.0","","1.3","","89","","36","","32","","12.9","","98.30","","","","","","Rain"
"2002-11-22 08:00","2002","11","22","08:00","2.9","","1.4","","90","","1","","32","","9.7","","98.30","","","","","","Rain,Fog"
"2002-11-22 09:00","2002","11","22","09:00","2.6","","1.0","","89","","36","","41","","16.1","","98.27","","","","","","Rain"
"2002-11-22 10:00","2002","11","22","10:00","2.7","","0.8","","87","","36","","39","","16.1","","98.26","","","","","","Rain"
"2002-11-22 11:00","2002","11","22","11:00","2.4","","0.8","","89","","36","","39","","8.0","","98.25","","","","","","Rain,Snow"
"2002-11-22 12:00","2002","11","22","12:00","1.7","","0.6","","92","","35","","37","","4.8","","98.21","","","","","","Rain,Snow"
"2002-11-22 13:00","2002","11","22","13:00","0.9","","-0.2","","92","","36","","35","","4.8","","98.20","","","","","","Rain,Snow"
"2002-11-22 14:00","2002","11","22","14:00","0.8","","-0.6","","90","","35","","37","","4.8","","98.23","","","","","","Snow"
"2002-11-22 15:00","2002","11","22","15:00","0.6","","-0.9","","90","","34","","39","","16.1","","98.27","","","","","","Snow"
"2002-11-22 16:00","2002","11","22","16:00","1.1","","-1.8","","81","","34","","39","","24.1","","98.35","","","","","","Cloudy"
"2002-11-22 17:00","2002","11","22","17:00","0.8","","-2.7","","77","","34","","41","","24.1","","98.40","","","","","","Cloudy"
"2002-11-22 18:00","2002","11","22","18:00","-0.1","","-3.8","","76","","34","","39","","24.1","","98.46","","","","-7","","Mostly Cloudy"
"2002-11-22 19:00","2002","11","22","19:00","-0.3","","-4.7","","72","","34","","44","","24.1","","98.46","","","","-8","","Mainly Clear"
"2002-11-22 20:00","2002","11","22","20:00","-0.4","","-4.8","","72","","34","","46","","24.1","","98.50","","","","-8","","Mostly Cloudy"
"2002-11-22 21:00","2002","11","22","21:00","-1.2","","-5.9","","70","","33","","35","","24.1","","98.57","","","","-9","","Clear"
"2002-11-22 22:00","2002","11","22","22:00","-1.5","","-5.7","","73","","33","","28","","24.1","","98.66","","","","-8","","Mainly Clear"
"2002-11-22 23:00","2002","11","22","23:00","-2.0","","-5.6","","76","","34","","33","","24.1","","98.69","","","","-9","","Mostly Cloudy"
"2002-11-23 00:00","2002","11","23","00:00","-2.0","","-5.5","","77","","32","","37","","24.1","","98.73","","","","-10","","Mainly Clear"
"2002-11-23 01:00","2002","11","23","01:00","-2.1","","-5.3","","79","","32","","35","","24.1","","98.74","","","","-10","","Mainly Clear"
"2002-11-23 02:00","2002","11","23","02:00","-2.2","","-4.7","","83","","33","","33","","24.1","","98.84","","","","-10","","Clear"
"2002-11-23 03:00","2002","11","23","03:00","-2.2","","-6.3","","73","","30","","32","","24.1","","98.88","","","","-10","","Mainly Clear"
"2002-11-23 04:00","2002","11","23","04:00","-2.4","","-6.0","","76","","30","","26","","24.1","","98.94","","","","-9","","Mainly Clear"
"2002-11-23 05:00","2002","11","23","05:00","-2.8","","-6.7","","74","","29","","28","","24.1","","99.03","","","","-10","","Mainly Clear"
"2002-11-23 06:00","2002","11","23","06:00","-2.9","","-7.3","","72","","29","","30","","24.1","","99.06","","","","-10","","Clear"
"2002-11-23 07:00","2002","11","23","07:00","-2.8","","-7.6","","69","","29","","30","","24.1","","99.12","","","","-10","","Clear"
"2002-11-23 08:00","2002","11","23","08:00","-1.9","","-7.2","","67","","30","","33","","24.1","","99.14","","","","-9","","Mainly Clear"
"2002-11-23 09:00","2002","11","23","09:00","-0.8","","-6.1","","67","","32","","30","","24.1","","99.16","","","","-8","","Mainly Clear"
"2002-11-23 10:00","2002","11","23","10:00","0.2","","-5.6","","65","","31","","28","","24.1","","99.17","","","","","","Mainly Clear"
"2002-11-23 11:00","2002","11","23","11:00","1.4","","-4.7","","64","","29","","26","","24.1","","99.15","","","","","","Mostly Cloudy"
"2002-11-23 12:00","2002","11","23","12:00","1.3","","-3.6","","70","","29","","26","","24.1","","99.12","","","","","","Cloudy"
"2002-11-23 13:00","2002","11","23","13:00","1.8","","-3.7","","67","","28","","22","","24.1","","99.05","","","","","","Cloudy"
"2002-11-23 14:00","2002","11","23","14:00","2.2","","-2.8","","69","","26","","22","","24.1","","99.02","","","","","","Cloudy"
"2002-11-23 15:00","2002","11","23","15:00","2.3","","-2.8","","69","","26","","26","","24.1","","98.99","","","","","","Cloudy"
"2002-11-23 16:00","2002","11","23","16:00","2.0","","-2.7","","71","","24","","17","","24.1","","98.96","","","","","","Cloudy"
"2002-11-23 17:00","2002","11","23","17:00","2.0","","-3.0","","69","","22","","17","","19.3","","98.88","","","","","","Cloudy"
"2002-11-23 18:00","2002","11","23","18:00","2.1","","-2.8","","70","","24","","28","","19.3","","98.86","","","","","","Cloudy"
"2002-11-23 19:00","2002","11","23","19:00","2.4","","-2.4","","71","","23","","17","","19.3","","98.86","","","","","","Cloudy"
"2002-11-23 20:00","2002","11","23","20:00","2.9","","-1.9","","71","","24","","30","","16.1","","98.85","","","","","","Cloudy"
"2002-11-23 21:00","2002","11","23","21:00","2.8","","-1.8","","72","","25","","33","","16.1","","98.86","","","","","","Cloudy"
"2002-11-23 22:00","2002","11","23","22:00","2.5","","-1.5","","75","","25","","17","","16.1","","98.88","","","","","","Cloudy"
"2002-11-23 23:00","2002","11","23","23:00","3.0","","-1.1","","74","","24","","22","","16.1","","98.87","","","","","","Cloudy"
"2002-11-24 00:00","2002","11","24","00:00","3.3","","-0.8","","74","","25","","26","","16.1","","98.92","","","","","","Cloudy"
"2002-11-24 01:00","2002","11","24","01:00","3.3","","-0.3","","77","","25","","24","","16.1","","98.93","","","","","","Cloudy"
"2002-11-24 02:00","2002","11","24","02:00","3.7","","0.0","","77","","25","","28","","14.5","","98.97","","","","","","Mostly Cloudy"
"2002-11-24 03:00","2002","11","24","03:00","3.2","","0.1","","80","","25","","22","","16.1","","99.05","","","","","","Cloudy"
"2002-11-24 04:00","2002","11","24","04:00","3.5","","0.3","","80","","25","","22","","11.3","","99.11","","","","","","Cloudy"
"2002-11-24 05:00","2002","11","24","05:00","3.0","","0.3","","82","","25","","19","","11.3","","99.17","","","","","","Cloudy"
"2002-11-24 06:00","2002","11","24","06:00","3.3","","0.1","","80","","25","","20","","14.5","","99.26","","","","","","Cloudy"
"2002-11-24 07:00","2002","11","24","07:00","3.2","","0.2","","81","","25","","19","","11.3","","99.32","","","","","","Cloudy"
"2002-11-24 08:00","2002","11","24","08:00","3.2","","0.1","","80","","25","","13","","12.9","","99.38","","","","","","Cloudy"
"2002-11-24 09:00","2002","11","24","09:00","3.4","","0.2","","80","","26","","13","","14.5","","99.44","","","","","","Cloudy"
"2002-11-24 10:00","2002","11","24","10:00","3.8","","0.4","","78","","27","","9","","14.5","","99.50","","","","","","Cloudy"
"2002-11-24 11:00","2002","11","24","11:00","4.5","","-0.6","","69","","28","","15","","16.1","","99.54","","","","","","Mostly Cloudy"
"2002-11-24 12:00","2002","11","24","12:00","4.0","","-0.2","","74","","31","","20","","24.1","","99.57","","","","","","Mostly Cloudy"
"2002-11-24 13:00","2002","11","24","13:00","4.4","","-0.3","","71","","29","","17","","24.1","","99.55","","","","","","Cloudy"
"2002-11-24 14:00","2002","11","24","14:00","3.9","","-1.0","","70","","28","","20","","24.1","","99.61","","","","","","Cloudy"
"2002-11-24 15:00","2002","11","24","15:00","3.6","","-0.9","","72","","29","","15","","24.1","","99.65","","","","","","Cloudy"
"2002-11-24 16:00","2002","11","24","16:00","3.5","","-0.6","","74","","28","","9","","24.1","","99.69","","","","","","Cloudy"
"2002-11-24 17:00","2002","11","24","17:00","3.2","","-1.3","","72","","27","","13","","24.1","","99.75","","","","","","Cloudy"
"2002-11-24 18:00","2002","11","24","18:00","3.2","","-1.6","","71","","27","","11","","24.1","","99.79","","","","","","Cloudy"
"2002-11-24 19:00","2002","11","24","19:00","2.8","","-1.5","","73","","32","","13","","24.1","","99.79","","","","","","Mostly Cloudy"
"2002-11-24 20:00","2002","11","24","20:00","2.4","","-1.2","","77","","28","","9","","24.1","","99.81","","","","","","Cloudy"
"2002-11-24 21:00","2002","11","24","21:00","2.2","","-1.3","","78","","28","","9","","24.1","","99.82","","","","","","Cloudy"
"2002-11-24 22:00","2002","11","24","22:00","2.2","","-1.3","","78","","28","","7","","24.1","","99.81","","","","","","Cloudy"
"2002-11-24 23:00","2002","11","24","23:00","1.8","","-0.9","","82","","26","","7","","14.5","","99.82","","","","","","Snow"
"2002-11-25 00:00","2002","11","25","00:00","1.0","","0.0","","93","","26","","7","","6.4","","99.84","","","","","","Snow"
"2002-11-25 01:00","2002","11","25","01:00","0.5","","0.1","","97","","","","0","","4.8","","99.82","","","","","","Snow"
"2002-11-25 02:00","2002","11","25","02:00","0.5","","0.2","","98","","","","0","","9.7","","99.79","","","","","","Snow"
"2002-11-25 03:00","2002","11","25","03:00","0.7","","0.4","","98","","15","","4","","12.9","","99.81","","","","","","Cloudy"
"2002-11-25 04:00","2002","11","25","04:00","0.9","","0.5","","97","","","","0","","16.1","","99.78","","","","","","Rain,Snow"
"2002-11-25 05:00","2002","11","25","05:00","0.7","","0.4","","98","","","","0","","12.9","","99.77","","","","","","Rain,Snow"
"2002-11-25 06:00","2002","11","25","06:00","0.7","","0.3","","97","","","","0","","8.0","","99.77","","","","","","Rain,Snow"
"2002-11-25 07:00","2002","11","25","07:00","0.6","","0.3","","98","","26","","4","","6.4","","99.78","","","","","","Rain,Snow"
"2002-11-25 08:00","2002","11","25","08:00","0.7","","0.3","","97","","27","","7","","6.4","","99.82","","","","","","Fog"
"2002-11-25 09:00","2002","11","25","09:00","1.4","","0.6","","94","","29","","13","","8.0","","99.85","","","","","","Fog"
"2002-11-25 10:00","2002","11","25","10:00","2.0","","0.7","","91","","29","","13","","16.1","","99.87","","","","","","Mostly Cloudy"
"2002-11-25 11:00","2002","11","25","11:00","2.6","","0.4","","85","","29","","13","","19.3","","99.87","","","","","","Mostly Cloudy"
"2002-11-25 12:00","2002","11","25","12:00","3.2","","0.2","","81","","31","","17","","19.3","","99.85","","","","","","Mostly Cloudy"
"2002-11-25 13:00","2002","11","25","13:00","4.0","","-0.6","","72","","31","","15","","24.1","","99.84","","","","","","Mostly Cloudy"
"2002-11-25 14:00","2002","11","25","14:00","3.7","","-1.6","","68","","30","","20","","24.1","","99.87","","","","","","Cloudy"
"2002-11-25 15:00","2002","11","25","15:00","3.3","","-2.2","","67","","29","","22","","24.1","","99.95","","","","","","Cloudy"
"2002-11-25 16:00","2002","11","25","16:00","2.9","","-2.6","","67","","29","","15","","24.1","","100.03","","","","","","Cloudy"
"2002-11-25 17:00","2002","11","25","17:00","2.4","","-3.4","","65","","28","","17","","24.1","","100.12","","","","","","Cloudy"
"2002-11-25 18:00","2002","11","25","18:00","2.2","","-2.8","","69","","27","","20","","24.1","","100.18","","","","","","Cloudy"
"2002-11-25 19:00","2002","11","25","19:00","1.4","","-2.4","","76","","27","","19","","24.1","","100.25","","","","","","Mostly Cloudy"
"2002-11-25 20:00","2002","11","25","20:00","0.3","","-2.6","","81","","27","","13","","24.1","","100.26","","","","","","Mainly Clear"
"2002-11-25 21:00","2002","11","25","21:00","-0.5","","-3.2","","82","","27","","15","","24.1","","100.29","","","","-5","","Mainly Clear"
"2002-11-25 22:00","2002","11","25","22:00","0.0","","-4.1","","74","","27","","24","","24.1","","100.32","","","","-6","","Mainly Clear"
"2002-11-25 23:00","2002","11","25","23:00","-0.6","","-3.7","","80","","27","","15","","24.1","","100.34","","","","-5","","Mainly Clear"
"2002-11-26 00:00","2002","11","26","00:00","-1.0","","-3.7","","82","","27","","17","","24.1","","100.38","","","","-6","","Clear"
"2002-11-26 01:00","2002","11","26","01:00","-1.5","","-3.7","","85","","29","","11","","24.1","","100.40","","","","-5","","Clear"
"2002-11-26 02:00","2002","11","26","02:00","-2.0","","-3.8","","87","","27","","17","","24.1","","100.43","","","","-7","","Clear"
"2002-11-26 03:00","2002","11","26","03:00","-2.7","","-4.1","","90","","28","","9","","24.1","","100.47","","","","-6","","Clear"
"2002-11-26 04:00","2002","11","26","04:00","-2.6","","-4.3","","88","","29","","13","","24.1","","100.49","","","","-7","","Clear"
"2002-11-26 05:00","2002","11","26","05:00","-2.4","","-4.5","","85","","30","","13","","24.1","","100.56","","","","-7","","Clear"
"2002-11-26 06:00","2002","11","26","06:00","-3.1","","-4.9","","87","","28","","13","","24.1","","100.57","","","","-8","","Clear"
"2002-11-26 07:00","2002","11","26","07:00","-3.8","","-5.5","","88","","28","","15","","24.1","","100.61","","","","-9","","Clear"
"2002-11-26 08:00","2002","11","26","08:00","-2.6","","-5.1","","83","","31","","17","","24.1","","100.62","","","","-8","","Mainly Clear"
"2002-11-26 09:00","2002","11","26","09:00","-1.6","","-3.7","","86","","36","","13","","24.1","","100.64","","","","-6","","Mostly Cloudy"
"2002-11-26 10:00","2002","11","26","10:00","-0.7","","-3.3","","83","","1","","15","","24.1","","100.65","","","","-5","","Mostly Cloudy"
"2002-11-26 11:00","2002","11","26","11:00","0.2","","-4.2","","72","","35","","17","","24.1","","100.64","","","","","","Mostly Cloudy"
"2002-11-26 12:00","2002","11","26","12:00","0.3","","-4.9","","68","","1","","9","","24.1","","100.58","","","","","","Cloudy"
"2002-11-26 13:00","2002","11","26","13:00","0.8","","-5.8","","61","","36","","13","","24.1","","100.48","","","","","","Cloudy"
"2002-11-26 14:00","2002","11","26","14:00","0.6","","-6.6","","58","","2","","15","","24.1","","100.44","","","","","","Cloudy"
"2002-11-26 15:00","2002","11","26","15:00","-0.2","","-6.8","","61","","36","","13","","24.1","","100.44","","","","-4","","Cloudy"
"2002-11-26 16:00","2002","11","26","16:00","-0.6","","-6.8","","63","","34","","17","","24.1","","100.45","","","","-6","","Cloudy"
"2002-11-26 17:00","2002","11","26","17:00","-1.2","","-6.6","","67","","35","","20","","24.1","","100.44","","","","-7","","Cloudy"
"2002-11-26 18:00","2002","11","26","18:00","-1.7","","-6.6","","69","","36","","19","","24.1","","100.42","","","","-7","","Cloudy"
"2002-11-26 19:00","2002","11","26","19:00","-2.0","","-6.5","","71","","35","","19","","24.1","","100.36","","","","-8","","Cloudy"
"2002-11-26 20:00","2002","11","26","20:00","-2.0","","-6.2","","73","","36","","20","","24.1","","100.33","","","","-8","","Cloudy"
"2002-11-26 21:00","2002","11","26","21:00","-2.6","","-7.0","","72","","34","","17","","24.1","","100.30","","","","-8","","Cloudy"
"2002-11-26 22:00","2002","11","26","22:00","-2.8","","-6.8","","74","","34","","17","","24.1","","100.28","","","","-8","","Cloudy"
"2002-11-26 23:00","2002","11","26","23:00","-2.9","","-6.7","","75","","35","","19","","24.1","","100.27","","","","-9","","Cloudy"
"2002-11-27 00:00","2002","11","27","00:00","-3.4","","-7.2","","75","","34","","20","","24.1","","100.27","","","","-10","","Cloudy"
"2002-11-27 01:00","2002","11","27","01:00","-3.9","","-7.0","","79","","35","","17","","24.1","","100.25","","","","-10","","Cloudy"
"2002-11-27 02:00","2002","11","27","02:00","-4.4","","-7.2","","81","","34","","20","","24.1","","100.26","","","","-11","","Mostly Cloudy"
"2002-11-27 03:00","2002","11","27","03:00","-5.1","","-7.5","","83","","35","","20","","24.1","","100.29","","","","-12","","Mostly Cloudy"
"2002-11-27 04:00","2002","11","27","04:00","-5.2","","-7.5","","84","","34","","17","","24.1","","100.28","","","","-11","","Mostly Cloudy"
"2002-11-27 05:00","2002","11","27","05:00","-5.9","","-8.2","","84","","35","","22","","24.1","","100.29","","","","-13","","Mainly Clear"
"2002-11-27 06:00","2002","11","27","06:00","-6.5","","-8.5","","86","","35","","17","","24.1","","100.35","","","","-13","","Mainly Clear"
"2002-11-27 07:00","2002","11","27","07:00","-6.9","","-8.8","","86","","34","","20","","24.1","","100.38","","","","-14","","Mainly Clear"
"2002-11-27 08:00","2002","11","27","08:00","-7.1","","-9.3","","84","","35","","15","","24.1","","100.44","","","","-13","","Clear"
"2002-11-27 09:00","2002","11","27","09:00","-6.1","","-9.0","","80","","34","","13","","24.1","","100.45","","","","-11","","Clear"
"2002-11-27 10:00","2002","11","27","10:00","-4.5","","-8.6","","73","","36","","15","","24.1","","100.44","","","","-10","","Mainly Clear"
"2002-11-27 11:00","2002","11","27","11:00","-3.2","","-9.1","","64","","1","","15","","24.1","","100.42","","","","-8","","Mainly Clear"
"2002-11-27 12:00","2002","11","27","12:00","-2.4","","-9.5","","58","","34","","13","","24.1","","100.37","","","","-7","","Mainly Clear"
"2002-11-27 13:00","2002","11","27","13:00","-1.9","","-9.6","","56","","36","","22","","24.1","","100.34","","","","-8","","Mainly Clear"
"2002-11-27 14:00","2002","11","27","14:00","-2.0","","-9.7","","56","","34","","15","","24.1","","100.30","","","","-7","","Mainly Clear"
"2002-11-27 15:00","2002","11","27","15:00","-1.9","","-10.3","","53","","33","","13","","24.1","","100.29","","","","-6","","Mainly Clear"
"2002-11-27 16:00","2002","11","27","16:00","-2.6","","-10.2","","56","","1","","6","","24.1","","100.29","","","","-5","","Mainly Clear"
"2002-11-27 17:00","2002","11","27","17:00","-3.0","","-9.5","","61","","29","","6","","24.1","","100.31","","","","-5","","Mostly Cloudy"
"2002-11-27 18:00","2002","11","27","18:00","-3.3","","-9.1","","64","","34","","9","","24.1","","100.32","","","","-7","","Snow Showers"
"2002-11-27 19:00","2002","11","27","19:00","-3.9","","-8.5","","70","","31","","17","","24.1","","100.32","","","","-10","","Clear"
"2002-11-27 20:00","2002","11","27","20:00","-4.8","","-8.5","","75","","30","","15","","24.1","","100.32","","","","-10","","Clear"
"2002-11-27 21:00","2002","11","27","21:00","-5.3","","-9.0","","75","","27","","15","","24.1","","100.30","","","","-11","","Mostly Cloudy"
"2002-11-27 22:00","2002","11","27","22:00","-5.1","","-8.7","","76","","31","","4","","24.1","","100.23","","","","-7","","Cloudy"
"2002-11-27 23:00","2002","11","27","23:00","-4.8","","-9.2","","71","","27","","7","","24.1","","100.24","","","","-8","","Cloudy"
"2002-11-28 00:00","2002","11","28","00:00","-4.5","","-9.1","","70","","26","","9","","24.1","","100.21","","","","-8","","Cloudy"
"2002-11-28 01:00","2002","11","28","01:00","-4.0","","-9.7","","64","","25","","11","","24.1","","100.16","","","","-8","","Cloudy"
"2002-11-28 02:00","2002","11","28","02:00","-3.7","","-9.7","","63","","26","","11","","24.1","","100.11","","","","-8","","Snow"
"2002-11-28 03:00","2002","11","28","03:00","-3.7","","-9.3","","65","","25","","6","","24.1","","100.08","","","","-6","","Mostly Cloudy"
"2002-11-28 04:00","2002","11","28","04:00","-5.1","","-8.0","","80","","21","","7","","24.1","","99.97","","","","-8","","Mostly Cloudy"
"2002-11-28 05:00","2002","11","28","05:00","-5.7","","-8.3","","82","","27","","6","","24.1","","99.89","","","","-9","","Mainly Clear"
"2002-11-28 06:00","2002","11","28","06:00","-5.7","","-7.6","","86","","27","","9","","19.3","","99.84","","","","-10","","Mostly Cloudy"
"2002-11-28 07:00","2002","11","28","07:00","-4.3","","-6.3","","86","","27","","9","","16.1","","99.83","","","","-8","","Mostly Cloudy"
"2002-11-28 08:00","2002","11","28","08:00","-2.8","","-5.6","","81","","27","","19","","24.1","","99.77","","","","-9","","Mostly Cloudy"
"2002-11-28 09:00","2002","11","28","09:00","-2.5","","-5.9","","77","","25","","22","","19.3","","99.72","","","","-9","","Mostly Cloudy"
"2002-11-28 10:00","2002","11","28","10:00","-1.8","","-6.5","","70","","26","","28","","19.3","","99.67","","","","-9","","Mostly Cloudy"
"2002-11-28 11:00","2002","11","28","11:00","-0.9","","-6.3","","67","","26","","35","","19.3","","99.63","","","","-8","","Mostly Cloudy"
"2002-11-28 12:00","2002","11","28","12:00","0.0","","-6.3","","63","","26","","32","","16.1","","99.52","","","","-7","","Mostly Cloudy"
"2002-11-28 13:00","2002","11","28","13:00","0.1","","-6.4","","62","","27","","43","","14.5","","99.44","","","","","","Mostly Cloudy"
"2002-11-28 14:00","2002","11","28","14:00","-0.1","","-6.6","","62","","25","","35","","16.1","","99.39","","","","-7","","Mostly Cloudy"
"2002-11-28 15:00","2002","11","28","15:00","-0.3","","-5.8","","66","","25","","30","","14.5","","99.36","","","","-7","","Snow Showers"
"2002-11-28 16:00","2002","11","28","16:00","-0.6","","-5.6","","69","","26","","26","","9.7","","99.31","","","","-7","","Snow Showers"
"2002-11-28 17:00","2002","11","28","17:00","-1.3","","-5.7","","72","","25","","26","","11.3","","99.29","","","","-8","","Snow Showers"
"2002-11-28 18:00","2002","11","28","18:00","-1.2","","-5.8","","71","","25","","26","","12.9","","99.22","","","","-8","","Cloudy"
"2002-11-28 19:00","2002","11","28","19:00","-1.5","","-5.5","","74","","23","","20","","12.9","","99.16","","","","-7","","Cloudy"
"2002-11-28 20:00","2002","11","28","20:00","-1.3","","-5.2","","75","","25","","28","","12.9","","99.13","","","","-8","","Cloudy"
"2002-11-28 21:00","2002","11","28","21:00","-1.1","","-5.4","","73","","25","","26","","12.9","","99.06","","","","-7","","Cloudy"
"2002-11-28 22:00","2002","11","28","22:00","-1.1","","-5.7","","71","","25","","30","","12.9","","99.00","","","","-8","","Cloudy"
"2002-11-28 23:00","2002","11","28","23:00","-1.0","","-6.5","","66","","24","","32","","12.9","","98.94","","","","-8","","Cloudy"
"2002-11-29 00:00","2002","11","29","00:00","-1.3","","-7.5","","63","","24","","30","","12.9","","98.82","","","","-8","","Cloudy"
"2002-11-29 01:00","2002","11","29","01:00","-1.3","","-7.7","","62","","22","","19","","14.5","","98.68","","","","-7","","Cloudy"
"2002-11-29 02:00","2002","11","29","02:00","-1.6","","-7.5","","64","","22","","22","","14.5","","98.52","","","","-8","","Cloudy"
"2002-11-29 03:00","2002","11","29","03:00","-1.3","","-6.7","","67","","23","","24","","14.5","","98.38","","","","-7","","Cloudy"
"2002-11-29 04:00","2002","11","29","04:00","-0.6","","-5.5","","69","","23","","30","","11.3","","98.15","","","","-7","","Cloudy"
"2002-11-29 05:00","2002","11","29","05:00","0.8","","-4.6","","67","","22","","28","","9.7","","97.95","","","","","","Haze"
"2002-11-29 06:00","2002","11","29","06:00","1.3","","-3.7","","69","","22","","28","","11.3","","97.83","","","","","","Cloudy"
"2002-11-29 07:00","2002","11","29","07:00","0.1","","-0.9","","93","","21","","24","","4.0","","97.61","","","","","","Snow Showers"
"2002-11-29 08:00","2002","11","29","08:00","1.0","","-0.1","","92","","20","","35","","4.0","","97.35","","","","","","Snow Showers"
"2002-11-29 09:00","2002","11","29","09:00","1.0","","0.3","","95","","23","","24","","3.6","","97.29","","","","","","Snow Showers,Snow Pellets"
"2002-11-29 10:00","2002","11","29","10:00","1.7","","0.6","","92","","22","","22","","4.8","","97.26","","","","","","Snow Showers,Snow Pellets"
"2002-11-29 11:00","2002","11","29","11:00","2.6","","0.7","","87","","23","","30","","11.3","","97.15","","","","","","Rain Showers"
"2002-11-29 12:00","2002","11","29","12:00","2.8","","0.0","","82","","24","","39","","11.3","","97.01","","","","","","Cloudy"
"2002-11-29 13:00","2002","11","29","13:00","3.1","","-0.1","","79","","25","","33","","11.3","","97.00","","","","","","Cloudy"
"2002-11-29 14:00","2002","11","29","14:00","3.5","","0.0","","78","","25","","22","","9.7","","96.99","","","","","","Haze"
"2002-11-29 15:00","2002","11","29","15:00","3.5","","0.2","","79","","24","","28","","11.3","","97.00","","","","","","Cloudy"
"2002-11-29 16:00","2002","11","29","16:00","3.7","","-0.1","","76","","24","","33","","12.9","","97.02","","","","","","Cloudy"
"2002-11-29 17:00","2002","11","29","17:00","3.5","","-0.1","","77","","24","","26","","11.3","","97.05","","","","","","Cloudy"
"2002-11-29 18:00","2002","11","29","18:00","3.5","","0.0","","78","","23","","30","","14.5","","97.05","","","","","","Cloudy"
"2002-11-29 19:00","2002","11","29","19:00","4.1","","0.5","","77","","23","","33","","24.1","","97.02","","","","","","Cloudy"
"2002-11-29 20:00","2002","11","29","20:00","4.7","","1.2","","78","","23","","33","","24.1","","96.92","","","","","","Mostly Cloudy"
"2002-11-29 21:00","2002","11","29","21:00","4.8","","1.1","","77","","25","","32","","24.1","","96.95","","","","","","Mainly Clear"
"2002-11-29 22:00","2002","11","29","22:00","4.4","","0.9","","78","","25","","26","","24.1","","97.02","","","","","","Mainly Clear"
"2002-11-29 23:00","2002","11","29","23:00","4.0","","0.9","","80","","25","","24","","24.1","","97.04","","","","","","Mainly Clear"
"2002-11-30 00:00","2002","11","30","00:00","3.1","","0.6","","84","","25","","20","","24.1","","97.05","","","","","","Clear"
"2002-11-30 01:00","2002","11","30","01:00","3.0","","0.3","","82","","23","","22","","24.1","","97.04","","","","","","Clear"
"2002-11-30 02:00","2002","11","30","02:00","2.4","","-0.1","","84","","24","","22","","24.1","","97.04","","","","","","Clear"
"2002-11-30 03:00","2002","11","30","03:00","2.1","","-0.3","","84","","24","","22","","24.1","","97.04","","","","","","Mainly Clear"
"2002-11-30 04:00","2002","11","30","04:00","2.4","","-0.2","","83","","24","","24","","24.1","","96.99","","","","","","Cloudy"
"2002-11-30 05:00","2002","11","30","05:00","2.7","","-0.3","","81","","24","","28","","24.1","","96.99","","","","","","Cloudy"
"2002-11-30 06:00","2002","11","30","06:00","2.8","","-0.1","","81","","24","","28","","24.1","","96.98","","","","","","Cloudy"
"2002-11-30 07:00","2002","11","30","07:00","2.7","","0.1","","83","","24","","33","","24.1","","96.97","","","","","","Cloudy"
"2002-11-30 08:00","2002","11","30","08:00","2.6","","0.1","","84","","25","","28","","19.3","","96.99","","","","","","Rain"
"2002-11-30 09:00","2002","11","30","09:00","2.8","","1.0","","88","","26","","30","","16.1","","97.01","","","","","","Rain"
"2002-11-30 10:00","2002","11","30","10:00","2.5","","0.9","","89","","27","","32","","19.3","","97.06","","","","","","Rain"
"2002-11-30 11:00","2002","11","30","11:00","2.4","","-1.2","","77","","30","","24","","24.1","","97.11","","","","","","Cloudy"
"2002-11-30 12:00","2002","11","30","12:00","2.7","","-2.4","","69","","29","","32","","24.1","","97.08","","","","","","Cloudy"
"2002-11-30 13:00","2002","11","30","13:00","2.5","","-3.1","","67","","29","","28","","24.1","","97.08","","","","","","Cloudy"
"2002-11-30 14:00","2002","11","30","14:00","2.6","","-3.3","","65","","28","","32","","24.1","","97.11","","","","","","Cloudy"
"2002-11-30 15:00","2002","11","30","15:00","2.1","","-2.7","","70","","27","","30","","24.1","","97.17","","","","","","Cloudy"
"2002-11-30 16:00","2002","11","30","16:00","1.1","","-2.4","","77","","31","","30","","9.7","","97.31","","","","","","Snow Showers"
"2002-11-30 17:00","2002","11","30","17:00","0.2","","-3.4","","77","","31","","37","","24.1","","97.48","","","","","","Cloudy"
"2002-11-30 18:00","2002","11","30","18:00","-0.7","","-5.3","","71","","31","","33","","24.1","","97.62","","","","-8","","Cloudy"
"2002-11-30 19:00","2002","11","30","19:00","-1.5","","-7.0","","66","","31","","46","","24.1","","97.73","","","","-10","","Cloudy"
"2002-11-30 20:00","2002","11","30","20:00","-2.1","","-7.4","","67","","31","","35","","24.1","","97.88","","","","-10","","Cloudy"
"2002-11-30 21:00","2002","11","30","21:00","-2.9","","-8.1","","67","","31","","35","","24.1","","97.97","","","","-11","","Mostly Cloudy"
"2002-11-30 22:00","2002","11","30","22:00","-4.5","","-6.2","","88","","34","","33","","3.2","","98.10","","","","-13","","Snow Showers"
"2002-11-30 23:00","2002","11","30","23:00","-5.1","","-6.8","","88","","34","","24","","1.2","","98.18","","","","-12","","Snow"
