"Station Name","TORONTO LESTER B. PEARSON INT'L A"
"Province","ONTARIO"
"Latitude","43.68"
"Longitude","-79.63"
"Elevation","173.40"
"Climate Identifier","6158733"
"WMO Identifier","71624"
"TC Identifier","YYZ"
"All times are specified in Local Standard Time (LST). Add 1 hour to adjust for Daylight Saving Time where and when it is observed."

"Legend"
"E","Estimated"
"M","Missing"
"NA","Not Available"

"Date/Time","Year","Month","Day","Time","Temp (°C)","Temp Flag","Dew Point Temp (°C)","Dew Point Temp Flag","Rel Hum (%)","Rel Hum Flag","Wind Dir (10s deg)","Wind Dir Flag","Wind Spd (km/h)","Wind Spd Flag","Visibility (km)","Visibility Flag","Stn Press (kPa)","Stn Press Flag","Hmdx","Hmdx Flag","Wind Chill","Wind Chill Flag","Weather"
"1978-06-01 00:00","1978","06","01","00:00","14.8","","13.0","","89","","32","","13","","24.1","","99.29","","","","","","Mainly Clear"
"1978-06-01 01:00","1978","06","01","01:00","14.7","","12.8","","88","","31","","13","","24.1","","99.29","","","","","","Mainly Clear"
"1978-06-01 02:00","1978","06","01","02:00","15.7","","13.2","","85","","32","","13","","24.1","","99.29","","","","","","Mostly Cloudy"
"1978-06-01 03:00","1978","06","01","03:00","15.1","","12.7","","86","","33","","17","","24.1","","99.32","","","","","","Mostly Cloudy"
"1978-06-01 04:00","1978","06","01","04:00","13.2","","11.3","","88","","34","","13","","24.1","","99.39","","","","","","Mainly Clear"
"1978-06-01 05:00","1978","06","01","05:00","12.2","","10.6","","90","","35","","13","","24.1","","99.46","","","","","","Mainly Clear"
"1978-06-01 06:00","1978","06","01","06:00","12.7","","10.4","","86","","34","","19","","24.1","","99.56","","","","","","Mostly Cloudy"
"1978-06-01 07:00","1978","06","01","07:00","12.6","","9.7","","83","","36","","17","","40.2","","99.56","","","","","","Mostly Cloudy"
"1978-06-01 08:00","1978","06","01","08:00","12.9","","10.2","","84","","31","","9","","40.2","","99.59","","","","","","Mostly Cloudy"
"1978-06-01 09:00","1978","06","01","09:00","14.9","","10.9","","77","","36","","7","","40.2","","99.59","","","","","","Mostly Cloudy"
"1978-06-01 10:00","1978","06","01","10:00","15.5","","11.1","","75","","34","","4","","40.2","","99.56","","","","","","Mainly Clear"
"1978-06-01 11:00","1978","06","01","11:00","17.6","","12.2","","71","","23","","2","","32.2","","99.49","","","","","","Clear"
"1978-06-01 12:00","1978","06","01","12:00","19.0","","12.1","","64","","16","","11","","24.1","","99.46","","","","","","Mainly Clear"
"1978-06-01 13:00","1978","06","01","13:00","18.8","","12.8","","68","","13","","9","","16.1","","99.39","","","","","","Mostly Cloudy"
"1978-06-01 14:00","1978","06","01","14:00","21.1","","13.3","","61","","16","","11","","9.7","","99.36","","","","","","Haze"
"1978-06-01 15:00","1978","06","01","15:00","21.2","","13.7","","62","","15","","11","","9.7","","99.32","","","","","","Haze"
"1978-06-01 16:00","1978","06","01","16:00","21.0","","13.7","","63","","14","","17","","12.9","","99.29","","","","","","Mainly Clear"
"1978-06-01 17:00","1978","06","01","17:00","20.0","","13.2","","65","","14","","17","","12.9","","99.26","","","","","","Mainly Clear"
"1978-06-01 18:00","1978","06","01","18:00","17.6","","12.6","","73","","14","","19","","12.9","","99.19","","","","","","Mostly Cloudy"
"1978-06-01 19:00","1978","06","01","19:00","14.8","","11.6","","81","","15","","9","","12.9","","99.19","","","","","","Cloudy"
"1978-06-01 20:00","1978","06","01","20:00","14.6","","11.1","","80","","13","","6","","12.9","","99.19","","","","","","Cloudy"
"1978-06-01 21:00","1978","06","01","21:00","15.7","","12.2","","80","","13","","4","","12.9","","99.19","","","","","","Cloudy"
"1978-06-01 22:00","1978","06","01","22:00","16.4","","12.5","","78","","13","","2","","12.9","","99.19","","","","","","Cloudy"
"1978-06-01 23:00","1978","06","01","23:00","15.2","","13.4","","89","","25","","9","","8.0","","99.29","","","","","","Thunderstorms,Rain Showers,Fog"
"1978-06-02 00:00","1978","06","02","00:00","16.0","","14.7","","92","","13","","9","","12.9","","99.06","","","","","","Thunderstorms,Rain Showers"
"1978-06-02 01:00","1978","06","02","01:00","15.0","","14.0","","94","","16","","2","","8.0","","99.02","","","","","","Fog"
"1978-06-02 02:00","1978","06","02","02:00","14.4","","13.5","","94","","17","","6","","6.4","","99.06","","","","","","Fog"
"1978-06-02 03:00","1978","06","02","03:00","13.7","","12.5","","92","","10","","2","","8.0","","99.09","","","","","","Fog"
"1978-06-02 04:00","1978","06","02","04:00","14.2","","13.3","","94","","15","","2","","6.4","","99.09","","","","","","Fog"
"1978-06-02 05:00","1978","06","02","05:00","15.2","","13.4","","89","","17","","4","","9.7","","99.12","","","","","","Fog"
"1978-06-02 06:00","1978","06","02","06:00","15.5","","14.2","","92","","17","","2","","9.7","","99.16","","","","","","Fog"
"1978-06-02 07:00","1978","06","02","07:00","19.1","","15.9","","82","","24","","2","","8.0","","99.16","","","","","","Haze"
"1978-06-02 08:00","1978","06","02","08:00","21.2","","17.7","","80","","27","","9","","8.0","","99.26","","27","","","","Haze"
"1978-06-02 09:00","1978","06","02","09:00","21.5","","17.0","","76","","25","","6","","9.7","","99.22","","27","","","","Haze"
"1978-06-02 10:00","1978","06","02","10:00","22.6","","16.4","","68","","26","","15","","12.9","","99.26","","27","","","","Mostly Cloudy"
"1978-06-02 11:00","1978","06","02","11:00","21.9","","12.3","","54","","25","","15","","40.2","","99.26","","","","","","Rain Showers"
"1978-06-02 12:00","1978","06","02","12:00","21.6","","11.3","","52","","26","","22","","40.2","","99.32","","","","","","Rain Showers"
"1978-06-02 13:00","1978","06","02","13:00","20.5","","12.4","","60","","27","","19","","40.2","","99.32","","","","","","Cloudy"
"1978-06-02 14:00","1978","06","02","14:00","20.6","","11.6","","56","","25","","17","","40.2","","99.29","","","","","","Cloudy"
"1978-06-02 15:00","1978","06","02","15:00","19.6","","10.0","","54","","25","","15","","40.2","","99.26","","","","","","Cloudy"
"1978-06-02 16:00","1978","06","02","16:00","19.5","","10.0","","54","","25","","13","","40.2","","99.29","","","","","","Cloudy"
"1978-06-02 17:00","1978","06","02","17:00","18.0","","9.3","","57","","29","","7","","40.2","","99.29","","","","","","Rain Showers"
"1978-06-02 18:00","1978","06","02","18:00","16.9","","10.9","","68","","29","","19","","40.2","","99.39","","","","","","Mostly Cloudy"
"1978-06-02 19:00","1978","06","02","19:00","16.8","","11.3","","70","","27","","13","","40.2","","99.39","","","","","","Mostly Cloudy"
"1978-06-02 20:00","1978","06","02","20:00","15.0","","10.5","","74","","24","","7","","25.0","","99.36","","","","","","Mostly Cloudy"
"1978-06-02 21:00","1978","06","02","21:00","14.2","","10.5","","78","","23","","4","","25.0","","99.49","","","","","","Mostly Cloudy"
"1978-06-02 22:00","1978","06","02","22:00","11.9","","9.9","","88","","26","","4","","25.0","","99.49","","","","","","Mostly Cloudy"
"1978-06-02 23:00","1978","06","02","23:00","12.3","","9.7","","84","","36","","17","","25.0","","99.59","","","","","","Mainly Clear"
"1978-06-03 00:00","1978","06","03","00:00","11.0","","8.8","","86","","35","","13","","25.0","","99.59","","","","","","Mainly Clear"
"1978-06-03 01:00","1978","06","03","01:00","10.3","","8.7","","90","","34","","13","","25.0","","99.62","","","","","","Mainly Clear"
"1978-06-03 02:00","1978","06","03","02:00","10.0","","6.1","","77","","35","","9","","25.0","","99.62","","","","","","Mostly Cloudy"
"1978-06-03 03:00","1978","06","03","03:00","8.2","","4.8","","79","","2","","4","","25.0","","99.62","","","","","","Mostly Cloudy"
"1978-06-03 04:00","1978","06","03","04:00","7.3","","5.5","","88","","32","","6","","25.0","","99.62","","","","","","Mostly Cloudy"
"1978-06-03 05:00","1978","06","03","05:00","7.3","","4.6","","83","","33","","13","","40.2","","99.59","","","","","","Mostly Cloudy"
"1978-06-03 06:00","1978","06","03","06:00","7.6","","4.2","","79","","33","","13","","40.2","","99.62","","","","","","Mostly Cloudy"
"1978-06-03 07:00","1978","06","03","07:00","9.1","","3.6","","68","","32","","11","","40.2","","99.66","","","","","","Mostly Cloudy"
"1978-06-03 08:00","1978","06","03","08:00","11.0","","2.7","","57","","33","","17","","40.2","","99.66","","","","","","Mostly Cloudy"
"1978-06-03 09:00","1978","06","03","09:00","12.4","","3.7","","55","","34","","9","","40.2","","99.62","","","","","","Mostly Cloudy"
"1978-06-03 10:00","1978","06","03","10:00","14.8","","5.0","","52","","33","","6","","40.2","","99.59","","","","","","Mostly Cloudy"
"1978-06-03 11:00","1978","06","03","11:00","16.5","","2.5","","39","","29","","19","","40.2","","99.56","","","","","","Mainly Clear"
"1978-06-03 12:00","1978","06","03","12:00","16.6","","3.6","","42","","31","","22","","40.2","","99.52","","","","","","Mostly Cloudy"
"1978-06-03 13:00","1978","06","03","13:00","17.6","","6.5","","48","","30","","19","","40.2","","99.46","","","","","","Mostly Cloudy"
"1978-06-03 14:00","1978","06","03","14:00","19.0","","4.2","","38","","31","","20","","40.2","","99.39","","","","","","Mostly Cloudy"
"1978-06-03 15:00","1978","06","03","15:00","18.3","","3.4","","37","","33","","24","","40.2","","99.39","","","","","","Mostly Cloudy"
"1978-06-03 16:00","1978","06","03","16:00","18.0","","2.0","","34","","32","","24","","40.2","","99.42","","","","","","Mostly Cloudy"
"1978-06-03 17:00","1978","06","03","17:00","17.1","","2.2","","37","","30","","24","","40.2","","99.42","","","","","","Mostly Cloudy"
"1978-06-03 18:00","1978","06","03","18:00","16.6","","2.0","","37","","32","","24","","40.2","","99.39","","","","","","Mainly Clear"
"1978-06-03 19:00","1978","06","03","19:00","15.0","","3.5","","46","","35","","17","","40.2","","99.46","","","","","","Clear"
"1978-06-03 20:00","1978","06","03","20:00","11.8","","4.0","","59","","34","","13","","40.2","","99.46","","","","","","Mainly Clear"
"1978-06-03 21:00","1978","06","03","21:00","11.3","","2.3","","54","","36","","11","","25.0","","99.52","","","","","","Mainly Clear"
"1978-06-03 22:00","1978","06","03","22:00","8.4","","2.0","","64","","33","","7","","25.0","","99.56","","","","","","Mainly Clear"
"1978-06-03 23:00","1978","06","03","23:00","8.1","","2.9","","70","","32","","6","","25.0","","99.56","","","","","","Mainly Clear"
"1978-06-04 00:00","1978","06","04","00:00","8.5","","2.5","","66","","","","0","","25.0","","99.56","","","","","","Mainly Clear"
"1978-06-04 01:00","1978","06","04","01:00","7.5","","2.8","","72","","2","","4","","25.0","","99.56","","","","","","Mainly Clear"
"1978-06-04 02:00","1978","06","04","02:00","4.6","","2.3","","85","","28","","6","","25.0","","99.52","","","","","","Mainly Clear"
"1978-06-04 03:00","1978","06","04","03:00","4.4","","2.3","","86","","26","","6","","25.0","","99.49","","","","","","Mainly Clear"
"1978-06-04 04:00","1978","06","04","04:00","4.6","","2.3","","85","","27","","6","","25.0","","99.46","","","","","","Mainly Clear"
"1978-06-04 05:00","1978","06","04","05:00","3.5","","1.7","","88","","29","","6","","40.2","","99.46","","","","","","Mainly Clear"
"1978-06-04 06:00","1978","06","04","06:00","6.2","","3.4","","82","","31","","2","","40.2","","99.49","","","","","","Mainly Clear"
"1978-06-04 07:00","1978","06","04","07:00","9.5","","4.2","","70","","","","0","","40.2","","99.52","","","","","","Mainly Clear"
"1978-06-04 08:00","1978","06","04","08:00","13.6","","2.5","","47","","","","0","","40.2","","99.49","","","","","","Mainly Clear"
"1978-06-04 09:00","1978","06","04","09:00","15.1","","5.0","","51","","10","","2","","40.2","","99.46","","","","","","Mainly Clear"
"1978-06-04 10:00","1978","06","04","10:00","16.1","","2.9","","41","","16","","4","","40.2","","99.39","","","","","","Mostly Cloudy"
"1978-06-04 11:00","1978","06","04","11:00","17.0","","4.8","","44","","16","","13","","40.2","","99.36","","","","","","Mostly Cloudy"
"1978-06-04 12:00","1978","06","04","12:00","16.1","","3.9","","44","","15","","15","","40.2","","99.32","","","","","","Mostly Cloudy"
"1978-06-04 13:00","1978","06","04","13:00","17.1","","5.3","","46","","14","","15","","32.2","","99.26","","","","","","Mostly Cloudy"
"1978-06-04 14:00","1978","06","04","14:00","17.8","","5.7","","45","","15","","17","","32.2","","99.16","","","","","","Mostly Cloudy"
"1978-06-04 15:00","1978","06","04","15:00","18.8","","7.6","","48","","17","","19","","32.2","","99.09","","","","","","Mostly Cloudy"
"1978-06-04 16:00","1978","06","04","16:00","16.3","","7.4","","56","","15","","13","","32.2","","99.06","","","","","","Rain Showers"
"1978-06-04 17:00","1978","06","04","17:00","17.4","","8.3","","55","","15","","13","","24.1","","99.02","","","","","","Mostly Cloudy"
"1978-06-04 18:00","1978","06","04","18:00","17.9","","9.7","","59","","16","","13","","24.1","","98.99","","","","","","Rain"
"1978-06-04 19:00","1978","06","04","19:00","18.3","","8.7","","54","","19","","11","","24.1","","98.96","","","","","","Rain Showers"
"1978-06-04 20:00","1978","06","04","20:00","15.4","","10.7","","74","","","","0","","24.1","","98.89","","","","","","Rain Showers"
"1978-06-04 21:00","1978","06","04","21:00","15.5","","11.1","","75","","13","","9","","24.1","","98.82","","","","","","Cloudy"
"1978-06-04 22:00","1978","06","04","22:00","15.1","","9.8","","70","","17","","4","","24.1","","98.79","","","","","","Rain"
"1978-06-04 23:00","1978","06","04","23:00","13.5","","10.4","","81","","12","","4","","19.3","","98.69","","","","","","Rain"
"1978-06-05 00:00","1978","06","05","00:00","13.1","","10.6","","85","","9","","2","","12.9","","98.66","","","","","","Rain"
"1978-06-05 01:00","1978","06","05","01:00","13.2","","10.6","","84","","31","","11","","9.7","","98.66","","","","","","Rain,Fog"
"1978-06-05 02:00","1978","06","05","02:00","12.8","","11.6","","93","","23","","4","","9.7","","98.59","","","","","","Rain,Fog"
"1978-06-05 03:00","1978","06","05","03:00","12.7","","11.5","","92","","28","","9","","12.9","","98.59","","","","","","Rain"
"1978-06-05 04:00","1978","06","05","04:00","12.2","","11.0","","92","","26","","7","","24.1","","98.59","","","","","","Mostly Cloudy"
"1978-06-05 05:00","1978","06","05","05:00","11.6","","9.3","","86","","30","","20","","24.1","","98.62","","","","","","Mostly Cloudy"
"1978-06-05 06:00","1978","06","05","06:00","11.5","","7.8","","78","","30","","22","","32.2","","98.72","","","","","","Mainly Clear"
"1978-06-05 07:00","1978","06","05","07:00","12.2","","8.3","","77","","29","","20","","24.1","","98.79","","","","","","Mostly Cloudy"
"1978-06-05 08:00","1978","06","05","08:00","12.0","","6.7","","70","","29","","22","","32.2","","98.89","","","","","","Mostly Cloudy"
"1978-06-05 09:00","1978","06","05","09:00","12.6","","7.3","","70","","30","","30","","40.2","","98.96","","","","","","Mostly Cloudy"
"1978-06-05 10:00","1978","06","05","10:00","13.0","","7.4","","69","","30","","28","","40.2","","99.06","","","","","","Mostly Cloudy"
"1978-06-05 11:00","1978","06","05","11:00","13.0","","7.4","","69","","32","","28","","40.2","","99.12","","","","","","Mostly Cloudy"
"1978-06-05 12:00","1978","06","05","12:00","13.0","","6.6","","65","","29","","31","","32.2","","99.19","","","","","","Mostly Cloudy"
"1978-06-05 13:00","1978","06","05","13:00","13.3","","6.8","","65","","31","","24","","32.2","","99.26","","","","","","Mostly Cloudy"
"1978-06-05 14:00","1978","06","05","14:00","13.9","","6.5","","61","","31","","24","","32.2","","99.26","","","","","","Mostly Cloudy"
"1978-06-05 15:00","1978","06","05","15:00","15.2","","5.0","","50","","32","","30","","32.2","","99.26","","","","","","Mainly Clear"
"1978-06-05 16:00","1978","06","05","16:00","15.9","","4.9","","48","","34","","22","","40.2","","99.29","","","","","","Mainly Clear"
"1978-06-05 17:00","1978","06","05","17:00","15.7","","4.7","","48","","33","","20","","40.2","","99.36","","","","","","Mainly Clear"
"1978-06-05 18:00","1978","06","05","18:00","15.0","","3.0","","44","","33","","26","","40.2","","99.40","","","","","","Mainly Clear"
"1978-06-05 19:00","1978","06","05","19:00","13.8","","2.6","","47","","34","","17","","40.2","","99.46","","","","","","Mainly Clear"
"1978-06-05 20:00","1978","06","05","20:00","11.4","","3.3","","57","","36","","7","","40.2","","99.49","","","","","","Mainly Clear"
"1978-06-05 21:00","1978","06","05","21:00","10.6","","2.6","","58","","30","","6","","25.0","","99.59","","","","","","Mainly Clear"
"1978-06-05 22:00","1978","06","05","22:00","10.2","","3.4","","63","","28","","4","","25.0","","99.59","","","","","","Mainly Clear"
"1978-06-05 23:00","1978","06","05","23:00","7.7","","3.7","","76","","29","","6","","25.0","","99.59","","","","","","Clear"
"1978-06-06 00:00","1978","06","06","00:00","7.7","","4.2","","78","","29","","7","","25.0","","99.62","","","","","","Clear"
"1978-06-06 01:00","1978","06","06","01:00","6.8","","4.1","","83","","28","","2","","25.0","","99.59","","","","","","Clear"
"1978-06-06 02:00","1978","06","06","02:00","5.8","","3.9","","88","","","","0","","25.0","","99.59","","","","","","Clear"
"1978-06-06 03:00","1978","06","06","03:00","4.1","","2.7","","91","","31","","4","","25.0","","99.62","","","","","","Clear"
"1978-06-06 04:00","1978","06","06","04:00","4.9","","2.8","","86","","25","","2","","25.0","","99.66","","","","","","Mainly Clear"
"1978-06-06 05:00","1978","06","06","05:00","4.4","","2.7","","89","","27","","4","","32.2","","99.69","","","","","","Mainly Clear"
"1978-06-06 06:00","1978","06","06","06:00","6.0","","4.3","","89","","33","","4","","32.2","","99.69","","","","","","Mainly Clear"
"1978-06-06 07:00","1978","06","06","07:00","10.5","","5.8","","73","","","","0","","40.2","","99.76","","","","","","Mainly Clear"
"1978-06-06 08:00","1978","06","06","08:00","13.2","","5.3","","59","","21","","7","","40.2","","99.72","","","","","","Mainly Clear"
"1978-06-06 09:00","1978","06","06","09:00","17.0","","6.7","","51","","23","","13","","40.2","","99.72","","","","","","Clear"
"1978-06-06 10:00","1978","06","06","10:00","18.4","","6.4","","45","","21","","15","","40.2","","99.69","","","","","","Clear"
"1978-06-06 11:00","1978","06","06","11:00","19.9","","7.6","","45","","20","","17","","40.2","","99.66","","","","","","Mainly Clear"
"1978-06-06 12:00","1978","06","06","12:00","20.9","","8.9","","46","","21","","13","","40.2","","99.62","","","","","","Mainly Clear"
"1978-06-06 13:00","1978","06","06","13:00","21.0","","7.6","","42","","17","","20","","40.2","","99.56","","","","","","Mainly Clear"
"1978-06-06 14:00","1978","06","06","14:00","22.2","","7.6","","39","","16","","22","","40.2","","99.56","","","","","","Mainly Clear"
"1978-06-06 15:00","1978","06","06","15:00","21.6","","7.4","","40","","17","","20","","40.2","","99.56","","","","","","Mainly Clear"
"1978-06-06 16:00","1978","06","06","16:00","22.2","","6.7","","37","","17","","22","","40.2","","99.46","","","","","","Mainly Clear"
"1978-06-06 17:00","1978","06","06","17:00","22.9","","6.7","","35","","19","","28","","32.2","","99.46","","","","","","Mainly Clear"
"1978-06-06 18:00","1978","06","06","18:00","22.1","","5.1","","33","","19","","28","","32.2","","99.42","","","","","","Mainly Clear"
"1978-06-06 19:00","1978","06","06","19:00","21.0","","3.5","","32","","17","","15","","32.2","","99.39","","","","","","Mainly Clear"
"1978-06-06 20:00","1978","06","06","20:00","18.5","","4.5","","40","","18","","13","","32.2","","99.39","","","","","","Mainly Clear"
"1978-06-06 21:00","1978","06","06","21:00","17.1","","4.8","","44","","18","","11","","25.0","","99.39","","","","","","Mainly Clear"
"1978-06-06 22:00","1978","06","06","22:00","16.0","","5.4","","49","","19","","6","","25.0","","99.39","","","","","","Clear"
"1978-06-06 23:00","1978","06","06","23:00","15.0","","6.0","","55","","16","","7","","25.0","","99.39","","","","","","Mainly Clear"
"1978-06-07 00:00","1978","06","07","00:00","13.1","","7.0","","66","","15","","6","","24.1","","99.42","","","","","","Mainly Clear"
"1978-06-07 01:00","1978","06","07","01:00","12.9","","7.4","","69","","15","","4","","19.3","","99.36","","","","","","Mainly Clear"
"1978-06-07 02:00","1978","06","07","02:00","11.9","","7.5","","74","","12","","2","","19.3","","99.29","","","","","","Mainly Clear"
"1978-06-07 03:00","1978","06","07","03:00","10.0","","7.4","","84","","","","0","","16.1","","99.26","","","","","","Mostly Cloudy"
"1978-06-07 04:00","1978","06","07","04:00","11.2","","7.2","","76","","15","","6","","12.9","","99.22","","","","","","Mostly Cloudy"
"1978-06-07 05:00","1978","06","07","05:00","10.7","","7.1","","78","","22","","2","","8.0","","99.19","","","","","","Haze"
"1978-06-07 06:00","1978","06","07","06:00","12.0","","7.5","","74","","","","0","","8.0","","99.12","","","","","","Haze"
"1978-06-07 07:00","1978","06","07","07:00","13.5","","8.0","","69","","15","","2","","8.0","","99.16","","","","","","Haze"
"1978-06-07 08:00","1978","06","07","08:00","14.6","","9.2","","70","","16","","2","","8.0","","99.16","","","","","","Haze"
"1978-06-07 09:00","1978","06","07","09:00","15.5","","9.9","","69","","18","","2","","6.4","","99.06","","","","","","Haze"
"1978-06-07 10:00","1978","06","07","10:00","15.9","","10.1","","69","","16","","6","","8.0","","99.02","","","","","","Rain Showers,Haze"
"1978-06-07 11:00","1978","06","07","11:00","15.7","","11.1","","74","","16","","4","","4.8","","99.02","","","","","","Rain Showers,Haze"
"1978-06-07 12:00","1978","06","07","12:00","14.8","","12.7","","88","","17","","9","","4.0","","98.99","","","","","","Rain,Haze"
"1978-06-07 13:00","1978","06","07","13:00","13.5","","12.5","","94","","13","","9","","3.6","","98.89","","","","","","Rain,Fog"
"1978-06-07 14:00","1978","06","07","14:00","13.5","","12.8","","95","","17","","6","","2.8","","98.82","","","","","","Rain,Fog"
"1978-06-07 15:00","1978","06","07","15:00","14.1","","13.3","","95","","13","","11","","2.0","","98.76","","","","","","Rain,Fog"
"1978-06-07 16:00","1978","06","07","16:00","15.4","","15.2","","99","","12","","11","","1.2","","98.66","","","","","","Rain,Fog"
"1978-06-07 17:00","1978","06","07","17:00","16.1","","16.1","","100","","11","","7","","0.6","","98.56","","","","","","Rain,Fog"
"1978-06-07 18:00","1978","06","07","18:00","16.4","","16.2","","99","","8","","4","","0.6","","98.52","","","","","","Fog"
"1978-06-07 19:00","1978","06","07","19:00","16.0","","16.0","","100","","3","","4","","0.4","","98.52","","","","","","Fog"
"1978-06-07 20:00","1978","06","07","20:00","15.5","","15.5","","100","","5","","2","","0.2","","98.49","","","","","","Fog"
"1978-06-07 21:00","1978","06","07","21:00","15.5","","15.5","","100","","8","","4","","0.0","","98.49","","","","","","Fog"
"1978-06-07 22:00","1978","06","07","22:00","15.5","","15.5","","100","","","","0","","0.0","","98.49","","","","","","Fog"
"1978-06-07 23:00","1978","06","07","23:00","15.5","","15.5","","100","","","","0","","0.0","","98.46","","","","","","Fog"
"1978-06-08 00:00","1978","06","08","00:00","15.8","","15.8","","100","","18","","7","","0.0","","98.46","","","","","","Fog"
"1978-06-08 01:00","1978","06","08","01:00","14.9","","14.9","","100","","18","","4","","0.0","","98.39","","","","","","Drizzle,Fog"
"1978-06-08 02:00","1978","06","08","02:00","15.0","","15.0","","100","","19","","4","","0.0","","98.39","","","","","","Fog"
"1978-06-08 03:00","1978","06","08","03:00","14.9","","14.9","","100","","16","","7","","0.2","","98.39","","","","","","Fog"
"1978-06-08 04:00","1978","06","08","04:00","15.2","","15.2","","100","","18","","7","","0.2","","98.39","","","","","","Fog"
"1978-06-08 05:00","1978","06","08","05:00","15.0","","15.0","","100","","17","","6","","0.2","","98.36","","","","","","Fog"
"1978-06-08 06:00","1978","06","08","06:00","15.4","","15.4","","100","","16","","7","","0.2","","98.36","","","","","","Fog"
"1978-06-08 07:00","1978","06","08","07:00","15.5","","15.5","","100","","18","","11","","0.4","","98.36","","","","","","Fog"
"1978-06-08 08:00","1978","06","08","08:00","18.5","","17.6","","95","","26","","11","","9.7","","98.42","","","","","","Fog"
"1978-06-08 09:00","1978","06","08","09:00","21.2","","17.1","","77","","27","","19","","12.9","","98.42","","27","","","","Cloudy"
"1978-06-08 10:00","1978","06","08","10:00","21.6","","17.0","","75","","27","","19","","12.9","","98.49","","27","","","","Mostly Cloudy"
"1978-06-08 11:00","1978","06","08","11:00","21.0","","17.1","","78","","29","","19","","19.3","","98.56","","26","","","","Cloudy"
"1978-06-08 12:00","1978","06","08","12:00","19.6","","17.1","","86","","36","","11","","16.1","","98.59","","","","","","Cloudy"
"1978-06-08 13:00","1978","06","08","13:00","20.1","","16.0","","77","","34","","20","","19.3","","98.59","","25","","","","Mostly Cloudy"
"1978-06-08 14:00","1978","06","08","14:00","18.4","","13.7","","74","","35","","17","","24.1","","98.66","","","","","","Mostly Cloudy"
"1978-06-08 15:00","1978","06","08","15:00","18.0","","12.4","","70","","36","","20","","16.1","","98.69","","","","","","Mostly Cloudy"
"1978-06-08 16:00","1978","06","08","16:00","17.4","","12.2","","72","","35","","22","","16.1","","98.69","","","","","","Mostly Cloudy"
"1978-06-08 17:00","1978","06","08","17:00","15.4","","9.9","","70","","35","","24","","12.9","","98.72","","","","","","Cloudy"
"1978-06-08 18:00","1978","06","08","18:00","14.0","","9.4","","74","","34","","22","","12.9","","98.72","","","","","","Cloudy"
"1978-06-08 19:00","1978","06","08","19:00","13.3","","9.6","","78","","33","","20","","12.9","","98.76","","","","","","Cloudy"
"1978-06-08 20:00","1978","06","08","20:00","11.6","","9.3","","86","","33","","22","","12.9","","98.79","","","","","","Cloudy"
"1978-06-08 21:00","1978","06","08","21:00","12.0","","9.1","","82","","31","","9","","12.9","","98.79","","","","","","Cloudy"
"1978-06-08 22:00","1978","06","08","22:00","12.0","","9.1","","82","","33","","9","","12.9","","98.82","","","","","","Cloudy"
"1978-06-08 23:00","1978","06","08","23:00","12.1","","9.1","","82","","32","","9","","12.9","","98.86","","","","","","Cloudy"
"1978-06-09 00:00","1978","06","09","00:00","12.1","","9.5","","84","","30","","9","","12.9","","98.86","","","","","","Cloudy"
"1978-06-09 01:00","1978","06","09","01:00","12.2","","8.7","","79","","34","","11","","12.9","","98.86","","","","","","Cloudy"
"1978-06-09 02:00","1978","06","09","02:00","12.2","","9.1","","81","","31","","9","","12.9","","98.82","","","","","","Cloudy"
"1978-06-09 03:00","1978","06","09","03:00","12.1","","8.7","","80","","33","","11","","16.1","","98.79","","","","","","Cloudy"
"1978-06-09 04:00","1978","06","09","04:00","12.4","","8.9","","79","","33","","17","","19.3","","98.86","","","","","","Mostly Cloudy"
"1978-06-09 05:00","1978","06","09","05:00","9.9","","7.7","","86","","34","","11","","32.2","","98.89","","","","","","Mainly Clear"
"1978-06-09 06:00","1978","06","09","06:00","10.1","","7.7","","85","","33","","11","","24.1","","98.99","","","","","","Clear"
"1978-06-09 07:00","1978","06","09","07:00","13.1","","8.7","","75","","31","","17","","32.2","","99.09","","","","","","Clear"
"1978-06-09 08:00","1978","06","09","08:00","14.9","","8.6","","66","","28","","13","","40.2","","99.09","","","","","","Clear"
"1978-06-09 09:00","1978","06","09","09:00","18.0","","8.5","","54","","32","","19","","40.2","","99.09","","","","","","Clear"
"1978-06-09 10:00","1978","06","09","10:00","18.8","","9.3","","54","","29","","19","","40.2","","99.09","","","","","","Clear"
"1978-06-09 11:00","1978","06","09","11:00","20.2","","8.0","","45","","27","","17","","40.2","","99.16","","","","","","Mainly Clear"
"1978-06-09 12:00","1978","06","09","12:00","21.0","","7.6","","42","","27","","28","","40.2","","99.16","","","","","","Mostly Cloudy"
"1978-06-09 13:00","1978","06","09","13:00","21.0","","8.9","","46","","27","","24","","40.2","","99.16","","","","","","Mostly Cloudy"
"1978-06-09 14:00","1978","06","09","14:00","21.5","","7.4","","40","","28","","24","","40.2","","99.16","","","","","","Mostly Cloudy"
"1978-06-09 15:00","1978","06","09","15:00","21.1","","8.5","","44","","28","","41","","40.2","","99.22","","","","","","Mostly Cloudy"
"1978-06-09 16:00","1978","06","09","16:00","19.5","","8.3","","48","","30","","33","","40.2","","99.29","","","","","","Mainly Clear"
"1978-06-09 17:00","1978","06","09","17:00","18.8","","8.9","","53","","29","","28","","40.2","","99.36","","","","","","Mainly Clear"
"1978-06-09 18:00","1978","06","09","18:00","17.3","","7.8","","54","","30","","28","","40.2","","99.46","","","","","","Mainly Clear"
"1978-06-09 19:00","1978","06","09","19:00","16.1","","2.9","","41","","30","","33","","40.2","","99.52","","","","","","Clear"
"1978-06-09 20:00","1978","06","09","20:00","12.6","","6.9","","68","","35","","17","","25.0","","99.62","","","","","","Clear"
"1978-06-09 21:00","1978","06","09","21:00","10.7","","6.3","","74","","35","","17","","25.0","","99.76","","","","","","Clear"
"1978-06-09 22:00","1978","06","09","22:00","8.2","","5.6","","84","","32","","11","","25.0","","99.79","","","","","","Clear"
"1978-06-09 23:00","1978","06","09","23:00","6.6","","4.4","","86","","32","","11","","25.0","","99.86","","","","","","Clear"
"1978-06-10 00:00","1978","06","10","00:00","6.7","","4.4","","85","","32","","4","","25.0","","99.86","","","","","","Clear"
"1978-06-10 01:00","1978","06","10","01:00","5.0","","3.3","","89","","30","","6","","25.0","","99.92","","","","","","Clear"
"1978-06-10 02:00","1978","06","10","02:00","6.1","","3.9","","86","","","","0","","25.0","","99.96","","","","","","Mainly Clear"
"1978-06-10 03:00","1978","06","10","03:00","3.9","","3.1","","95","","25","","7","","25.0","","99.99","","","","","","Mainly Clear"
"1978-06-10 04:00","1978","06","10","04:00","3.2","","2.1","","92","","","","0","","25.0","","100.02","","","","","","Clear"
"1978-06-10 05:00","1978","06","10","05:00","2.9","","2.1","","95","","30","","4","","40.2","","100.06","","","","","","Clear"
"1978-06-10 06:00","1978","06","10","06:00","6.7","","4.4","","85","","2","","4","","40.2","","100.09","","","","","","Clear"
"1978-06-10 07:00","1978","06","10","07:00","9.4","","5.6","","77","","36","","2","","40.2","","100.16","","","","","","Mainly Clear"
"1978-06-10 08:00","1978","06","10","08:00","12.2","","4.9","","61","","13","","2","","40.2","","100.16","","","","","","Mostly Cloudy"
"1978-06-10 09:00","1978","06","10","09:00","14.0","","6.1","","59","","19","","6","","40.2","","100.19","","","","","","Mainly Clear"
"1978-06-10 10:00","1978","06","10","10:00","15.4","","5.2","","51","","18","","11","","40.2","","100.09","","","","","","Mostly Cloudy"
"1978-06-10 11:00","1978","06","10","11:00","16.5","","6.1","","50","","14","","11","","40.2","","100.09","","","","","","Mostly Cloudy"
"1978-06-10 12:00","1978","06","10","12:00","16.7","","6.1","","50","","16","","17","","32.2","","100.06","","","","","","Mostly Cloudy"
"1978-06-10 13:00","1978","06","10","13:00","17.7","","6.0","","46","","15","","17","","32.2","","99.96","","","","","","Mostly Cloudy"
"1978-06-10 14:00","1978","06","10","14:00","18.9","","8.5","","51","","15","","19","","32.2","","99.86","","","","","","Mostly Cloudy"
"1978-06-10 15:00","1978","06","10","15:00","17.9","","7.2","","50","","16","","20","","24.1","","99.76","","","","","","Mostly Cloudy"
"1978-06-10 16:00","1978","06","10","16:00","17.1","","8.1","","55","","17","","19","","24.1","","99.72","","","","","","Mostly Cloudy"
"1978-06-10 17:00","1978","06","10","17:00","17.0","","8.1","","56","","15","","15","","24.1","","99.69","","","","","","Mostly Cloudy"
"1978-06-10 18:00","1978","06","10","18:00","16.2","","7.2","","55","","14","","19","","24.1","","99.62","","","","","","Mostly Cloudy"
"1978-06-10 19:00","1978","06","10","19:00","15.6","","8.3","","62","","15","","11","","24.1","","99.59","","","","","","Mostly Cloudy"
"1978-06-10 20:00","1978","06","10","20:00","14.0","","8.6","","70","","16","","7","","24.1","","99.66","","","","","","Mostly Cloudy"
"1978-06-10 21:00","1978","06","10","21:00","13.1","","7.9","","71","","16","","9","","19.3","","99.69","","","","","","Mainly Clear"
"1978-06-10 22:00","1978","06","10","22:00","12.0","","7.9","","76","","15","","9","","19.3","","99.66","","","","","","Mainly Clear"
"1978-06-10 23:00","1978","06","10","23:00","11.9","","9.9","","88","","14","","7","","19.3","","99.66","","","","","","Mainly Clear"
"1978-06-11 00:00","1978","06","11","00:00","12.1","","8.3","","77","","16","","7","","19.3","","99.59","","","","","","Mainly Clear"
"1978-06-11 01:00","1978","06","11","01:00","13.1","","8.7","","75","","19","","4","","19.3","","99.56","","","","","","Mainly Clear"
"1978-06-11 02:00","1978","06","11","02:00","12.0","","8.7","","80","","15","","9","","19.3","","99.52","","","","","","Mostly Cloudy"
"1978-06-11 03:00","1978","06","11","03:00","13.0","","8.7","","75","","16","","7","","19.3","","99.49","","","","","","Mostly Cloudy"
"1978-06-11 04:00","1978","06","11","04:00","12.9","","8.7","","76","","14","","9","","19.3","","99.52","","","","","","Cloudy"
"1978-06-11 05:00","1978","06","11","05:00","13.8","","8.2","","69","","16","","7","","19.3","","99.56","","","","","","Cloudy"
"1978-06-11 06:00","1978","06","11","06:00","14.1","","10.2","","77","","16","","7","","19.3","","99.56","","","","","","Cloudy"
"1978-06-11 07:00","1978","06","11","07:00","17.5","","12.2","","71","","22","","19","","19.3","","99.62","","","","","","Mostly Cloudy"
"1978-06-11 08:00","1978","06","11","08:00","20.5","","12.7","","61","","23","","20","","19.3","","99.62","","","","","","Mostly Cloudy"
"1978-06-11 09:00","1978","06","11","09:00","22.6","","12.5","","53","","24","","19","","19.3","","99.59","","25","","","","Mostly Cloudy"
"1978-06-11 10:00","1978","06","11","10:00","24.5","","12.7","","48","","22","","24","","19.3","","99.56","","27","","","","Mostly Cloudy"
"1978-06-11 11:00","1978","06","11","11:00","25.6","","12.0","","43","","23","","26","","24.1","","99.49","","28","","","","Mostly Cloudy"
"1978-06-11 12:00","1978","06","11","12:00","26.7","","12.5","","41","","19","","26","","24.1","","99.49","","29","","","","Mostly Cloudy"
"1978-06-11 13:00","1978","06","11","13:00","27.6","","11.4","","37","","22","","26","","24.1","","99.39","","30","","","","Mostly Cloudy"
"1978-06-11 14:00","1978","06","11","14:00","27.8","","11.7","","37","","22","","26","","24.1","","99.36","","30","","","","Mostly Cloudy"
"1978-06-11 15:00","1978","06","11","15:00","27.9","","9.0","","31","","23","","35","","19.3","","99.32","","29","","","","Mostly Cloudy"
"1978-06-11 16:00","1978","06","11","16:00","27.7","","9.6","","32","","23","","33","","16.1","","99.29","","29","","","","Mostly Cloudy"
"1978-06-11 17:00","1978","06","11","17:00","27.2","","11.1","","37","","23","","35","","16.1","","99.32","","29","","","","Mostly Cloudy"
"1978-06-11 18:00","1978","06","11","18:00","27.0","","11.6","","38","","23","","28","","16.1","","99.36","","29","","","","Mainly Clear"
"1978-06-11 19:00","1978","06","11","19:00","26.1","","12.3","","42","","23","","26","","16.1","","99.36","","29","","","","Mainly Clear"
"1978-06-11 20:00","1978","06","11","20:00","24.0","","12.8","","50","","19","","15","","16.1","","99.39","","27","","","","Mainly Clear"
"1978-06-11 21:00","1978","06","11","21:00","22.5","","12.9","","55","","20","","11","","16.1","","99.39","","25","","","","Mainly Clear"
"1978-06-11 22:00","1978","06","11","22:00","22.5","","12.9","","55","","19","","11","","16.1","","99.42","","25","","","","Mainly Clear"
"1978-06-11 23:00","1978","06","11","23:00","20.7","","13.1","","62","","19","","11","","16.1","","99.42","","","","","","Mainly Clear"
"1978-06-12 00:00","1978","06","12","00:00","20.2","","13.6","","66","","18","","13","","12.9","","99.36","","","","","","Mainly Clear"
"1978-06-12 01:00","1978","06","12","01:00","20.0","","15.0","","73","","18","","11","","12.9","","99.29","","","","","","Clear"
"1978-06-12 02:00","1978","06","12","02:00","19.5","","15.5","","78","","19","","13","","9.7","","99.26","","","","","","Haze"
"1978-06-12 03:00","1978","06","12","03:00","19.3","","16.1","","82","","19","","9","","8.0","","99.22","","","","","","Haze"
"1978-06-12 04:00","1978","06","12","04:00","19.0","","15.9","","82","","21","","11","","8.0","","99.26","","","","","","Haze"
"1978-06-12 05:00","1978","06","12","05:00","19.5","","15.8","","79","","21","","13","","6.4","","99.26","","","","","","Haze"
"1978-06-12 06:00","1978","06","12","06:00","20.1","","16.0","","77","","21","","17","","4.8","","99.22","","25","","","","Haze"
"1978-06-12 07:00","1978","06","12","07:00","22.0","","16.5","","71","","22","","22","","9.7","","99.19","","27","","","","Haze"
"1978-06-12 08:00","1978","06","12","08:00","23.6","","16.6","","65","","22","","22","","12.9","","99.16","","29","","","","Clear"
"1978-06-12 09:00","1978","06","12","09:00","25.4","","16.5","","58","","20","","22","","12.9","","99.06","","30","","","","Clear"
"1978-06-12 10:00","1978","06","12","10:00","27.1","","16.6","","53","","21","","30","","16.1","","98.99","","32","","","","Mostly Cloudy"
"1978-06-12 11:00","1978","06","12","11:00","28.1","","16.4","","49","","22","","33","","16.1","","98.96","","33","","","","Mostly Cloudy"
"1978-06-12 12:00","1978","06","12","12:00","28.5","","17.7","","52","","22","","37","","16.1","","98.92","","34","","","","Mostly Cloudy"
"1978-06-12 13:00","1978","06","12","13:00","25.6","","16.8","","58","","27","","20","","32.2","","98.89","","31","","","","Mostly Cloudy"
"1978-06-12 14:00","1978","06","12","14:00","26.4","","18.3","","61","","25","","15","","24.1","","98.89","","33","","","","Mostly Cloudy"
"1978-06-12 15:00","1978","06","12","15:00","27.8","","17.8","","55","","23","","26","","12.9","","98.82","","34","","","","Mostly Cloudy"
"1978-06-12 16:00","1978","06","12","16:00","21.0","","18.6","","86","","25","","26","","9.7","","98.89","","27","","","","Rain Showers,Fog"
"1978-06-12 17:00","1978","06","12","17:00","20.0","","17.6","","86","","23","","9","","9.7","","98.76","","26","","","","Rain Showers,Fog"
"1978-06-12 18:00","1978","06","12","18:00","20.0","","17.6","","86","","22","","11","","6.4","","98.79","","26","","","","Rain Showers,Fog"
"1978-06-12 19:00","1978","06","12","19:00","19.1","","17.8","","92","","25","","11","","4.0","","98.82","","","","","","Rain Showers,Fog"
"1978-06-12 20:00","1978","06","12","20:00","17.0","","16.7","","98","","35","","19","","2.0","","98.96","","","","","","Heavy Rain Showers,Fog"
"1978-06-12 21:00","1978","06","12","21:00","16.0","","15.7","","98","","35","","22","","8.0","","98.89","","","","","","Rain Showers,Fog"
"1978-06-12 22:00","1978","06","12","22:00","13.8","","13.0","","95","","34","","20","","12.9","","99.06","","","","","","Cloudy"
"1978-06-12 23:00","1978","06","12","23:00","12.5","","11.1","","91","","35","","26","","16.1","","99.06","","","","","","Cloudy"
"1978-06-13 00:00","1978","06","13","00:00","11.6","","10.1","","91","","34","","22","","16.1","","99.09","","","","","","Cloudy"
"1978-06-13 01:00","1978","06","13","01:00","10.0","","7.7","","86","","34","","37","","19.3","","99.19","","","","","","Cloudy"
"1978-06-13 02:00","1978","06","13","02:00","8.9","","6.7","","86","","33","","28","","24.1","","99.26","","","","","","Cloudy"
"1978-06-13 03:00","1978","06","13","03:00","8.5","","5.7","","83","","33","","20","","25.0","","99.26","","","","","","Cloudy"
"1978-06-13 04:00","1978","06","13","04:00","8.0","","5.2","","83","","32","","24","","25.0","","99.32","","","","","","Cloudy"
"1978-06-13 05:00","1978","06","13","05:00","7.8","","4.8","","81","","34","","19","","24.1","","99.46","","","","","","Cloudy"
"1978-06-13 06:00","1978","06","13","06:00","7.7","","4.2","","78","","32","","19","","32.2","","99.52","","","","","","Cloudy"
"1978-06-13 07:00","1978","06","13","07:00","8.2","","4.8","","79","","31","","26","","40.2","","99.52","","","","","","Mostly Cloudy"
"1978-06-13 08:00","1978","06","13","08:00","8.7","","5.3","","79","","32","","33","","40.2","","99.56","","","","","","Mostly Cloudy"
"1978-06-13 09:00","1978","06","13","09:00","8.8","","5.0","","77","","32","","35","","40.2","","99.56","","","","","","Mostly Cloudy"
"1978-06-13 10:00","1978","06","13","10:00","9.6","","5.1","","74","","33","","33","","40.2","","99.59","","","","","","Cloudy"
"1978-06-13 11:00","1978","06","13","11:00","9.9","","5.3","","73","","32","","30","","40.2","","99.66","","","","","","Cloudy"
"1978-06-13 12:00","1978","06","13","12:00","11.0","","5.5","","69","","33","","30","","40.2","","99.69","","","","","","Cloudy"
"1978-06-13 13:00","1978","06","13","13:00","11.5","","4.8","","63","","32","","31","","40.2","","99.72","","","","","","Cloudy"
"1978-06-13 14:00","1978","06","13","14:00","13.2","","4.3","","55","","33","","37","","40.2","","99.72","","","","","","Mostly Cloudy"
"1978-06-13 15:00","1978","06","13","15:00","12.5","","3.7","","55","","32","","30","","40.2","","99.76","","","","","","Mostly Cloudy"
"1978-06-13 16:00","1978","06","13","16:00","13.4","","3.5","","51","","35","","28","","40.2","","99.79","","","","","","Mostly Cloudy"
"1978-06-13 17:00","1978","06","13","17:00","13.9","","1.5","","43","","34","","33","","40.2","","99.86","","","","","","Mostly Cloudy"
"1978-06-13 18:00","1978","06","13","18:00","12.9","","1.7","","47","","31","","30","","40.2","","99.86","","","","","","Mainly Clear"
"1978-06-13 19:00","1978","06","13","19:00","12.3","","-0.2","","42","","32","","20","","40.2","","99.89","","","","","","Clear"
"1978-06-13 20:00","1978","06","13","20:00","10.1","","-0.9","","46","","29","","15","","40.2","","99.89","","","","","","Clear"
"1978-06-13 21:00","1978","06","13","21:00","8.6","","1.5","","61","","28","","19","","25.0","","99.89","","","","","","Clear"
"1978-06-13 22:00","1978","06","13","22:00","8.0","","1.9","","65","","29","","19","","25.0","","99.96","","","","","","Clear"
"1978-06-13 23:00","1978","06","13","23:00","6.6","","2.6","","76","","28","","15","","25.0","","99.96","","","","","","Clear"
"1978-06-14 00:00","1978","06","14","00:00","7.4","","2.8","","73","","30","","19","","25.0","","99.99","","","","","","Mostly Cloudy"
"1978-06-14 01:00","1978","06","14","01:00","6.7","","2.6","","75","","29","","19","","25.0","","99.99","","","","","","Mainly Clear"
"1978-06-14 02:00","1978","06","14","02:00","5.5","","2.0","","78","","29","","17","","25.0","","99.99","","","","","","Mainly Clear"
"1978-06-14 03:00","1978","06","14","03:00","4.5","","2.3","","85","","29","","15","","25.0","","100.02","","","","","","Mainly Clear"
"1978-06-14 04:00","1978","06","14","04:00","5.3","","2.4","","82","","29","","19","","25.0","","100.06","","","","","","Clear"
"1978-06-14 05:00","1978","06","14","05:00","5.3","","1.5","","77","","30","","19","","32.2","","100.16","","","","","","Clear"
"1978-06-14 06:00","1978","06","14","06:00","6.8","","1.7","","70","","30","","19","","40.2","","100.19","","","","","","Clear"
"1978-06-14 07:00","1978","06","14","07:00","8.9","","1.1","","58","","30","","26","","40.2","","100.26","","","","","","Mainly Clear"
"1978-06-14 08:00","1978","06","14","08:00","10.8","","0.6","","49","","32","","28","","40.2","","100.29","","","","","","Mainly Clear"
"1978-06-14 09:00","1978","06","14","09:00","11.9","","-0.9","","41","","31","","33","","40.2","","100.32","","","","","","Mainly Clear"
"1978-06-14 10:00","1978","06","14","10:00","12.8","","-1.9","","36","","33","","37","","40.2","","100.36","","","","","","Mainly Clear"
"1978-06-14 11:00","1978","06","14","11:00","13.7","","0.2","","40","","33","","35","","40.2","","100.36","","","","","","Mainly Clear"
"1978-06-14 12:00","1978","06","14","12:00","14.6","","1.7","","42","","31","","30","","40.2","","100.32","","","","","","Mainly Clear"
"1978-06-14 13:00","1978","06","14","13:00","15.3","","1.5","","39","","34","","26","","40.2","","100.29","","","","","","Mainly Clear"
"1978-06-14 14:00","1978","06","14","14:00","16.6","","2.0","","37","","33","","33","","40.2","","100.26","","","","","","Mainly Clear"
"1978-06-14 15:00","1978","06","14","15:00","15.6","","3.2","","43","","29","","28","","40.2","","100.26","","","","","","Mostly Cloudy"
"1978-06-14 16:00","1978","06","14","16:00","17.0","","3.3","","40","","30","","28","","40.2","","100.22","","","","","","Mostly Cloudy"
"1978-06-14 17:00","1978","06","14","17:00","16.4","","2.0","","38","","30","","20","","40.2","","100.22","","","","","","Mainly Clear"
"1978-06-14 18:00","1978","06","14","18:00","15.6","","2.1","","40","","30","","28","","40.2","","100.26","","","","","","Mainly Clear"
"1978-06-14 19:00","1978","06","14","19:00","14.6","","2.8","","45","","31","","19","","40.2","","100.26","","","","","","Mainly Clear"
"1978-06-14 20:00","1978","06","14","20:00","12.0","","4.0","","58","","31","","15","","40.2","","100.29","","","","","","Mainly Clear"
"1978-06-14 21:00","1978","06","14","21:00","9.6","","4.2","","69","","27","","9","","25.0","","100.29","","","","","","Mainly Clear"
"1978-06-14 22:00","1978","06","14","22:00","9.1","","4.1","","71","","26","","11","","25.0","","100.36","","","","","","Mainly Clear"
"1978-06-14 23:00","1978","06","14","23:00","7.7","","3.7","","76","","29","","9","","25.0","","100.36","","","","","","Mainly Clear"
"1978-06-15 00:00","1978","06","15","00:00","7.3","","3.7","","78","","34","","7","","25.0","","100.36","","","","","","Mainly Clear"
"1978-06-15 01:00","1978","06","15","01:00","7.5","","3.3","","75","","29","","13","","25.0","","100.36","","","","","","Mainly Clear"
"1978-06-15 02:00","1978","06","15","02:00","6.5","","3.1","","79","","31","","7","","25.0","","100.36","","","","","","Mainly Clear"
"1978-06-15 03:00","1978","06","15","03:00","6.6","","2.6","","76","","33","","7","","25.0","","100.36","","","","","","Clear"
"1978-06-15 04:00","1978","06","15","04:00","7.2","","2.2","","70","","29","","9","","25.0","","100.39","","","","","","Clear"
"1978-06-15 05:00","1978","06","15","05:00","6.4","","3.1","","80","","29","","6","","40.2","","100.46","","","","","","Mainly Clear"
"1978-06-15 06:00","1978","06","15","06:00","9.0","","5.0","","76","","29","","4","","40.2","","100.52","","","","","","Mostly Cloudy"
"1978-06-15 07:00","1978","06","15","07:00","11.5","","5.7","","68","","29","","15","","40.2","","100.56","","","","","","Mostly Cloudy"
"1978-06-15 08:00","1978","06","15","08:00","15.0","","6.9","","58","","28","","9","","40.2","","100.56","","","","","","Mostly Cloudy"
"1978-06-15 09:00","1978","06","15","09:00","17.3","","6.0","","47","","31","","22","","40.2","","100.56","","","","","","Mostly Cloudy"
"1978-06-15 10:00","1978","06","15","10:00","17.7","","5.5","","45","","29","","17","","40.2","","100.52","","","","","","Mostly Cloudy"
"1978-06-15 11:00","1978","06","15","11:00","19.6","","6.9","","44","","31","","13","","40.2","","100.49","","","","","","Mainly Clear"
"1978-06-15 12:00","1978","06","15","12:00","19.7","","5.9","","40","","30","","15","","40.2","","100.42","","","","","","Mainly Clear"
"1978-06-15 13:00","1978","06","15","13:00","20.0","","7.6","","45","","27","","17","","40.2","","100.39","","","","","","Mainly Clear"
"1978-06-15 14:00","1978","06","15","14:00","20.2","","8.0","","45","","27","","22","","40.2","","100.39","","","","","","Mainly Clear"
"1978-06-15 15:00","1978","06","15","15:00","19.0","","6.7","","45","","26","","22","","32.2","","100.42","","","","","","Mostly Cloudy"
"1978-06-15 16:00","1978","06","15","16:00","18.5","","6.9","","47","","25","","17","","32.2","","100.42","","","","","","Mostly Cloudy"
"1978-06-15 17:00","1978","06","15","17:00","19.1","","7.1","","46","","27","","13","","32.2","","100.39","","","","","","Mostly Cloudy"
"1978-06-15 18:00","1978","06","15","18:00","18.5","","7.8","","50","","24","","11","","32.2","","100.36","","","","","","Mainly Clear"
"1978-06-15 19:00","1978","06","15","19:00","16.9","","8.5","","58","","26","","9","","32.2","","100.39","","","","","","Mostly Cloudy"
"1978-06-15 20:00","1978","06","15","20:00","15.5","","7.9","","61","","30","","4","","24.1","","100.42","","","","","","Mostly Cloudy"
"1978-06-15 21:00","1978","06","15","21:00","15.6","","7.9","","60","","","","0","","24.1","","100.42","","","","","","Mostly Cloudy"
"1978-06-15 22:00","1978","06","15","22:00","14.6","","8.4","","66","","26","","4","","24.1","","100.46","","","","","","Cloudy"
"1978-06-15 23:00","1978","06","15","23:00","15.0","","8.6","","66","","23","","4","","24.1","","100.49","","","","","","Cloudy"
"1978-06-16 00:00","1978","06","16","00:00","15.2","","7.7","","61","","18","","2","","24.1","","100.49","","","","","","Cloudy"
"1978-06-16 01:00","1978","06","16","01:00","14.5","","8.0","","65","","14","","4","","24.1","","100.49","","","","","","Cloudy"
"1978-06-16 02:00","1978","06","16","02:00","15.0","","7.7","","62","","17","","4","","24.1","","100.49","","","","","","Cloudy"
"1978-06-16 03:00","1978","06","16","03:00","14.5","","8.0","","65","","14","","4","","24.1","","100.49","","","","","","Mostly Cloudy"
"1978-06-16 04:00","1978","06","16","04:00","14.0","","7.4","","64","","14","","7","","24.1","","100.49","","","","","","Mostly Cloudy"
"1978-06-16 05:00","1978","06","16","05:00","13.0","","5.7","","61","","14","","9","","24.1","","100.46","","","","","","Cloudy"
"1978-06-16 06:00","1978","06","16","06:00","13.4","","5.9","","60","","13","","6","","32.2","","100.56","","","","","","Cloudy"
"1978-06-16 07:00","1978","06","16","07:00","14.4","","8.4","","67","","13","","7","","24.1","","100.59","","","","","","Cloudy"
"1978-06-16 08:00","1978","06","16","08:00","16.4","","7.4","","55","","13","","15","","12.9","","100.49","","","","","","Cloudy"
"1978-06-16 09:00","1978","06","16","09:00","16.2","","7.2","","55","","15","","15","","16.1","","100.49","","","","","","Mostly Cloudy"
"1978-06-16 10:00","1978","06","16","10:00","18.0","","8.5","","54","","12","","9","","19.3","","100.56","","","","","","Mostly Cloudy"
"1978-06-16 11:00","1978","06","16","11:00","19.8","","8.0","","47","","15","","15","","24.1","","100.46","","","","","","Mostly Cloudy"
"1978-06-16 12:00","1978","06","16","12:00","19.5","","9.1","","51","","13","","17","","24.1","","100.39","","","","","","Mostly Cloudy"
"1978-06-16 13:00","1978","06","16","13:00","19.3","","10.0","","55","","13","","20","","19.3","","100.26","","","","","","Mostly Cloudy"
"1978-06-16 14:00","1978","06","16","14:00","20.5","","9.1","","48","","13","","17","","19.3","","100.22","","","","","","Mostly Cloudy"
"1978-06-16 15:00","1978","06","16","15:00","19.5","","9.1","","51","","13","","17","","19.3","","100.12","","","","","","Cloudy"
"1978-06-16 16:00","1978","06","16","16:00","19.6","","9.1","","51","","11","","19","","19.3","","100.06","","","","","","Cloudy"
"1978-06-16 17:00","1978","06","16","17:00","19.0","","10.1","","56","","12","","9","","16.1","","100.09","","","","","","Rain"
"1978-06-16 18:00","1978","06","16","18:00","17.2","","12.0","","71","","7","","13","","16.1","","100.12","","","","","","Rain"
"1978-06-16 19:00","1978","06","16","19:00","16.4","","11.8","","74","","10","","11","","16.1","","100.02","","","","","","Rain"
"1978-06-16 20:00","1978","06","16","20:00","16.0","","12.7","","81","","14","","11","","12.9","","99.99","","","","","","Mostly Cloudy"
"1978-06-16 21:00","1978","06","16","21:00","16.2","","11.3","","73","","10","","7","","16.1","","100.02","","","","","","Cloudy"
"1978-06-16 22:00","1978","06","16","22:00","15.0","","13.0","","88","","26","","4","","16.1","","99.99","","","","","","Cloudy"
"1978-06-16 23:00","1978","06","16","23:00","14.7","","10.7","","77","","14","","4","","16.1","","99.96","","","","","","Cloudy"
"1978-06-17 00:00","1978","06","17","00:00","15.2","","11.6","","79","","13","","7","","12.9","","99.89","","","","","","Mostly Cloudy"
"1978-06-17 01:00","1978","06","17","01:00","14.9","","12.0","","83","","17","","2","","8.0","","99.82","","","","","","Haze"
"1978-06-17 02:00","1978","06","17","02:00","15.0","","11.6","","80","","","","0","","8.0","","99.79","","","","","","Haze"
"1978-06-17 03:00","1978","06","17","03:00","15.0","","12.0","","82","","15","","2","","8.0","","99.76","","","","","","Haze"
"1978-06-17 04:00","1978","06","17","04:00","14.9","","12.0","","83","","12","","6","","8.0","","99.79","","","","","","Haze"
"1978-06-17 05:00","1978","06","17","05:00","14.9","","12.7","","87","","10","","7","","6.4","","99.79","","","","","","Haze"
"1978-06-17 06:00","1978","06","17","06:00","15.4","","13.5","","89","","15","","4","","4.8","","99.76","","","","","","Fog"
"1978-06-17 07:00","1978","06","17","07:00","16.6","","14.6","","88","","15","","6","","3.2","","99.79","","","","","","Fog"
"1978-06-17 08:00","1978","06","17","08:00","18.1","","15.2","","83","","17","","9","","4.0","","99.76","","","","","","Haze"
"1978-06-17 09:00","1978","06","17","09:00","17.9","","15.2","","84","","18","","6","","4.0","","99.76","","","","","","Haze"
"1978-06-17 10:00","1978","06","17","10:00","20.0","","16.7","","81","","16","","7","","3.2","","99.69","","25","","","","Haze"
"1978-06-17 11:00","1978","06","17","11:00","22.0","","17.5","","76","","17","","9","","2.4","","99.66","","28","","","","Haze"
"1978-06-17 12:00","1978","06","17","12:00","21.0","","17.7","","82","","15","","15","","2.4","","99.59","","27","","","","Rain Showers,Haze"
"1978-06-17 13:00","1978","06","17","13:00","20.9","","18.0","","84","","16","","11","","2.4","","99.66","","27","","","","Haze"
"1978-06-17 14:00","1978","06","17","14:00","21.8","","18.2","","80","","17","","13","","3.2","","99.59","","28","","","","Haze"
"1978-06-17 15:00","1978","06","17","15:00","26.0","","19.4","","67","","22","","24","","6.4","","99.59","","33","","","","Haze"
"1978-06-17 16:00","1978","06","17","16:00","27.0","","19.2","","63","","21","","19","","8.0","","99.52","","34","","","","Haze"
"1978-06-17 17:00","1978","06","17","17:00","28.0","","18.4","","56","","20","","24","","8.0","","99.49","","34","","","","Haze"
"1978-06-17 18:00","1978","06","17","18:00","27.1","","19.2","","62","","20","","22","","9.7","","99.46","","34","","","","Haze"
"1978-06-17 19:00","1978","06","17","19:00","26.5","","18.7","","62","","22","","20","","8.0","","99.42","","33","","","","Haze"
"1978-06-17 20:00","1978","06","17","20:00","25.3","","18.8","","67","","18","","11","","8.0","","99.32","","32","","","","Haze"
"1978-06-17 21:00","1978","06","17","21:00","24.6","","18.0","","67","","23","","11","","9.7","","99.39","","31","","","","Haze"
"1978-06-17 22:00","1978","06","17","22:00","24.1","","17.8","","68","","21","","13","","9.7","","99.36","","30","","","","Haze"
"1978-06-17 23:00","1978","06","17","23:00","22.9","","18.0","","74","","19","","6","","12.9","","99.39","","29","","","","Mostly Cloudy"
"1978-06-18 00:00","1978","06","18","00:00","19.9","","16.7","","82","","13","","9","","12.9","","99.36","","","","","","Mostly Cloudy"
"1978-06-18 01:00","1978","06","18","01:00","21.5","","17.3","","77","","15","","9","","12.9","","99.32","","27","","","","Mostly Cloudy"
"1978-06-18 02:00","1978","06","18","02:00","20.2","","17.0","","82","","19","","4","","16.1","","99.29","","25","","","","Mainly Clear"
"1978-06-18 03:00","1978","06","18","03:00","20.9","","18.3","","85","","21","","11","","12.9","","99.26","","27","","","","Mostly Cloudy"
"1978-06-18 04:00","1978","06","18","04:00","19.3","","16.4","","83","","32","","13","","25.0","","99.32","","","","","","Mostly Cloudy"
"1978-06-18 05:00","1978","06","18","05:00","19.3","","16.4","","83","","24","","7","","32.2","","99.32","","","","","","Cloudy"
"1978-06-18 06:00","1978","06","18","06:00","18.4","","16.3","","88","","32","","13","","40.2","","99.36","","","","","","Cloudy"
"1978-06-18 07:00","1978","06","18","07:00","20.0","","16.3","","79","","16","","11","","32.2","","99.22","","25","","","","Cloudy"
"1978-06-18 08:00","1978","06","18","08:00","21.9","","16.2","","70","","18","","11","","32.2","","99.32","","27","","","","Mostly Cloudy"
"1978-06-18 09:00","1978","06","18","09:00","24.6","","19.3","","72","","24","","15","","9.7","","99.26","","32","","","","Haze"
"1978-06-18 10:00","1978","06","18","10:00","27.5","","20.4","","65","","26","","26","","8.0","","99.26","","35","","","","Haze"
"1978-06-18 11:00","1978","06","18","11:00","28.0","","18.4","","56","","26","","33","","16.1","","99.26","","34","","","","Mostly Cloudy"
"1978-06-18 12:00","1978","06","18","12:00","27.6","","18.8","","59","","27","","28","","24.1","","99.26","","34","","","","Mostly Cloudy"
"1978-06-18 13:00","1978","06","18","13:00","27.0","","18.6","","60","","27","","28","","32.2","","99.26","","33","","","","Mostly Cloudy"
"1978-06-18 14:00","1978","06","18","14:00","24.8","","19.2","","71","","28","","31","","12.9","","99.29","","32","","","","Mostly Cloudy"
"1978-06-18 15:00","1978","06","18","15:00","24.6","","17.7","","66","","27","","28","","12.9","","99.36","","30","","","","Mostly Cloudy"
"1978-06-18 16:00","1978","06","18","16:00","23.3","","19.1","","77","","27","","20","","12.9","","99.39","","30","","","","Mostly Cloudy"
"1978-06-18 17:00","1978","06","18","17:00","23.7","","16.1","","62","","28","","22","","16.1","","99.32","","28","","","","Mostly Cloudy"
"1978-06-18 18:00","1978","06","18","18:00","23.0","","16.7","","68","","30","","19","","32.2","","99.39","","28","","","","Mostly Cloudy"
"1978-06-18 19:00","1978","06","18","19:00","22.5","","16.4","","68","","30","","22","","32.2","","99.46","","27","","","","Mostly Cloudy"
"1978-06-18 20:00","1978","06","18","20:00","20.5","","15.9","","75","","32","","19","","32.2","","99.46","","25","","","","Mostly Cloudy"
"1978-06-18 21:00","1978","06","18","21:00","16.4","","14.3","","87","","32","","13","","25.0","","99.56","","","","","","Mostly Cloudy"
"1978-06-18 22:00","1978","06","18","22:00","15.4","","14.5","","94","","31","","7","","25.0","","99.56","","","","","","Mostly Cloudy"
"1978-06-18 23:00","1978","06","18","23:00","15.6","","14.5","","93","","28","","4","","25.0","","99.59","","","","","","Mostly Cloudy"
"1978-06-19 00:00","1978","06","19","00:00","14.8","","14.4","","98","","30","","7","","25.0","","99.62","","","","","","Mostly Cloudy"
"1978-06-19 01:00","1978","06","19","01:00","14.8","","14.4","","98","","26","","2","","24.1","","99.66","","","","","","Mostly Cloudy"
"1978-06-19 02:00","1978","06","19","02:00","15.0","","14.0","","94","","25","","4","","19.3","","99.66","","","","","","Cloudy"
"1978-06-19 03:00","1978","06","19","03:00","14.4","","13.8","","96","","27","","4","","19.3","","99.66","","","","","","Cloudy"
"1978-06-19 04:00","1978","06","19","04:00","15.1","","13.7","","91","","24","","2","","19.3","","99.66","","","","","","Mostly Cloudy"
"1978-06-19 05:00","1978","06","19","05:00","16.2","","13.4","","83","","33","","6","","16.1","","99.66","","","","","","Rain"
"1978-06-19 06:00","1978","06","19","06:00","15.5","","14.5","","94","","34","","6","","19.3","","99.76","","","","","","Rain"
"1978-06-19 07:00","1978","06","19","07:00","16.0","","14.4","","90","","30","","4","","19.3","","99.79","","","","","","Rain Showers"
"1978-06-19 08:00","1978","06","19","08:00","17.2","","14.8","","86","","34","","9","","40.2","","99.86","","","","","","Mostly Cloudy"
"1978-06-19 09:00","1978","06","19","09:00","18.8","","14.9","","78","","33","","7","","40.2","","99.89","","","","","","Mostly Cloudy"
"1978-06-19 10:00","1978","06","19","10:00","19.1","","14.2","","73","","26","","4","","40.2","","99.86","","","","","","Mostly Cloudy"
"1978-06-19 11:00","1978","06","19","11:00","21.3","","15.7","","71","","28","","9","","40.2","","99.89","","26","","","","Mostly Cloudy"
"1978-06-19 12:00","1978","06","19","12:00","22.5","","13.6","","57","","30","","7","","40.2","","99.86","","26","","","","Mainly Clear"
"1978-06-19 13:00","1978","06","19","13:00","24.3","","15.4","","58","","24","","13","","40.2","","99.86","","29","","","","Mainly Clear"
"1978-06-19 14:00","1978","06","19","14:00","25.0","","15.6","","56","","30","","13","","40.2","","99.79","","29","","","","Mainly Clear"
"1978-06-19 15:00","1978","06","19","15:00","24.5","","12.7","","48","","32","","15","","40.2","","99.79","","27","","","","Mostly Cloudy"
"1978-06-19 16:00","1978","06","19","16:00","24.5","","13.5","","50","","30","","13","","40.2","","99.76","","28","","","","Mostly Cloudy"
"1978-06-19 17:00","1978","06","19","17:00","24.4","","12.3","","47","","31","","15","","40.2","","99.79","","27","","","","Mainly Clear"
"1978-06-19 18:00","1978","06","19","18:00","23.5","","13.0","","52","","30","","19","","40.2","","99.76","","26","","","","Mainly Clear"
"1978-06-19 19:00","1978","06","19","19:00","22.1","","11.9","","52","","33","","15","","40.2","","99.79","","","","","","Clear"
"1978-06-19 20:00","1978","06","19","20:00","20.0","","9.8","","52","","36","","17","","40.2","","99.79","","","","","","Mainly Clear"
"1978-06-19 21:00","1978","06","19","21:00","17.2","","8.5","","57","","2","","7","","40.2","","99.86","","","","","","Mainly Clear"
"1978-06-19 22:00","1978","06","19","22:00","13.6","","8.0","","69","","30","","4","","25.0","","99.86","","","","","","Clear"
"1978-06-19 23:00","1978","06","19","23:00","13.0","","8.7","","75","","33","","6","","24.1","","99.89","","","","","","Clear"
"1978-06-20 00:00","1978","06","20","00:00","11.6","","7.4","","75","","29","","7","","25.0","","99.89","","","","","","Clear"
"1978-06-20 01:00","1978","06","20","01:00","10.4","","8.7","","89","","28","","6","","25.0","","99.89","","","","","","Clear"
"1978-06-20 02:00","1978","06","20","02:00","10.2","","8.1","","87","","35","","4","","25.0","","99.86","","","","","","Clear"
"1978-06-20 03:00","1978","06","20","03:00","8.8","","7.5","","92","","35","","6","","25.0","","99.79","","","","","","Clear"
"1978-06-20 04:00","1978","06","20","04:00","8.0","","6.8","","92","","34","","6","","25.0","","99.86","","","","","","Clear"
"1978-06-20 05:00","1978","06","20","05:00","7.6","","6.3","","91","","34","","6","","40.2","","99.89","","","","","","Mainly Clear"
"1978-06-20 06:00","1978","06","20","06:00","11.1","","8.8","","86","","","","0","","40.2","","99.92","","","","","","Mainly Clear"
"1978-06-20 07:00","1978","06","20","07:00","14.0","","9.8","","76","","34","","4","","32.2","","99.96","","","","","","Mainly Clear"
"1978-06-20 08:00","1978","06","20","08:00","18.6","","10.7","","60","","29","","4","","32.2","","99.92","","","","","","Mainly Clear"
"1978-06-20 09:00","1978","06","20","09:00","21.0","","10.6","","51","","30","","4","","40.2","","99.86","","","","","","Mainly Clear"
"1978-06-20 10:00","1978","06","20","10:00","23.3","","10.2","","44","","34","","6","","40.2","","99.82","","25","","","","Mostly Cloudy"
"1978-06-20 11:00","1978","06","20","11:00","24.1","","10.4","","42","","2","","11","","40.2","","99.79","","26","","","","Cloudy"
"1978-06-20 12:00","1978","06","20","12:00","24.5","","8.9","","37","","33","","6","","40.2","","99.72","","25","","","","Cloudy"
"1978-06-20 13:00","1978","06","20","13:00","26.0","","11.5","","40","","11","","9","","40.2","","99.76","","28","","","","Cloudy"
"1978-06-20 14:00","1978","06","20","14:00","25.4","","11.6","","42","","13","","17","","24.1","","99.66","","27","","","","Cloudy"
"1978-06-20 15:00","1978","06","20","15:00","25.8","","12.3","","43","","15","","11","","24.1","","99.62","","28","","","","Mostly Cloudy"
"1978-06-20 16:00","1978","06","20","16:00","25.9","","12.3","","43","","15","","11","","24.1","","99.56","","28","","","","Mostly Cloudy"
"1978-06-20 17:00","1978","06","20","17:00","25.3","","12.0","","44","","15","","13","","24.1","","99.52","","28","","","","Mostly Cloudy"
"1978-06-20 18:00","1978","06","20","18:00","24.8","","11.8","","44","","15","","13","","24.1","","99.46","","27","","","","Mostly Cloudy"
"1978-06-20 19:00","1978","06","20","19:00","23.0","","10.3","","45","","14","","13","","24.1","","99.42","","","","","","Cloudy"
"1978-06-20 20:00","1978","06","20","20:00","20.1","","8.0","","46","","16","","9","","24.1","","99.42","","","","","","Cloudy"
"1978-06-20 21:00","1978","06","20","21:00","18.9","","6.7","","45","","17","","7","","24.1","","99.49","","","","","","Cloudy"
"1978-06-20 22:00","1978","06","20","22:00","18.5","","6.9","","47","","18","","2","","24.1","","99.49","","","","","","Cloudy"
"1978-06-20 23:00","1978","06","20","23:00","17.0","","8.5","","57","","11","","2","","19.3","","99.46","","","","","","Mostly Cloudy"
"1978-06-21 00:00","1978","06","21","00:00","14.1","","10.2","","77","","","","0","","19.3","","99.39","","","","","","Cloudy"
"1978-06-21 01:00","1978","06","21","01:00","14.3","","10.0","","75","","6","","2","","19.3","","99.36","","","","","","Cloudy"
"1978-06-21 02:00","1978","06","21","02:00","12.5","","10.0","","85","","31","","6","","16.1","","99.36","","","","","","Cloudy"
"1978-06-21 03:00","1978","06","21","03:00","14.2","","9.8","","75","","3","","4","","16.1","","99.32","","","","","","Cloudy"
"1978-06-21 04:00","1978","06","21","04:00","12.1","","9.5","","84","","36","","6","","16.1","","99.26","","","","","","Mostly Cloudy"
"1978-06-21 05:00","1978","06","21","05:00","11.5","","9.7","","89","","34","","4","","12.9","","99.26","","","","","","Mostly Cloudy"
"1978-06-21 06:00","1978","06","21","06:00","15.5","","11.1","","75","","3","","4","","16.1","","99.19","","","","","","Cloudy"
"1978-06-21 07:00","1978","06","21","07:00","16.7","","12.2","","75","","25","","17","","6.4","","99.26","","","","","","Rain Showers,Haze"
"1978-06-21 08:00","1978","06","21","08:00","15.0","","13.4","","90","","","","0","","4.0","","99.26","","","","","","Rain Showers,Fog"
"1978-06-21 09:00","1978","06","21","09:00","16.6","","13.9","","84","","","","0","","4.0","","99.19","","","","","","Haze"
"1978-06-21 10:00","1978","06","21","10:00","18.1","","14.8","","81","","13","","9","","4.0","","99.16","","","","","","Haze"
"1978-06-21 11:00","1978","06","21","11:00","19.1","","14.9","","77","","17","","7","","4.0","","99.19","","","","","","Haze"
"1978-06-21 12:00","1978","06","21","12:00","20.9","","16.8","","77","","17","","4","","4.0","","99.16","","26","","","","Haze"
"1978-06-21 13:00","1978","06","21","13:00","23.0","","18.6","","76","","24","","15","","4.8","","99.12","","29","","","","Haze"
"1978-06-21 14:00","1978","06","21","14:00","23.6","","17.6","","69","","25","","11","","8.0","","99.09","","29","","","","Haze"
"1978-06-21 15:00","1978","06","21","15:00","25.1","","16.9","","60","","30","","19","","12.9","","99.09","","30","","","","Mostly Cloudy"
"1978-06-21 16:00","1978","06","21","16:00","25.4","","15.8","","55","","27","","9","","12.9","","99.06","","30","","","","Mostly Cloudy"
"1978-06-21 17:00","1978","06","21","17:00","23.6","","17.2","","67","","32","","30","","12.9","","99.09","","29","","","","Mostly Cloudy"
"1978-06-21 18:00","1978","06","21","18:00","20.3","","15.9","","76","","33","","28","","12.9","","99.19","","25","","","","Mostly Cloudy"
"1978-06-21 19:00","1978","06","21","19:00","19.1","","12.5","","66","","33","","24","","32.2","","99.26","","","","","","Mostly Cloudy"
"1978-06-21 20:00","1978","06","21","20:00","16.8","","10.5","","67","","35","","15","","40.2","","99.32","","","","","","Mostly Cloudy"
"1978-06-21 21:00","1978","06","21","21:00","13.3","","10.7","","85","","32","","9","","40.2","","99.42","","","","","","Mostly Cloudy"
"1978-06-21 22:00","1978","06","21","22:00","12.2","","9.5","","83","","31","","9","","25.0","","99.46","","","","","","Mostly Cloudy"
"1978-06-21 23:00","1978","06","21","23:00","12.6","","9.7","","83","","28","","6","","25.0","","99.46","","","","","","Mainly Clear"
"1978-06-22 00:00","1978","06","22","00:00","10.9","","8.8","","87","","31","","11","","25.0","","99.49","","","","","","Mainly Clear"
"1978-06-22 01:00","1978","06","22","01:00","10.3","","8.3","","87","","29","","7","","25.0","","99.52","","","","","","Mainly Clear"
"1978-06-22 02:00","1978","06","22","02:00","9.9","","7.7","","86","","28","","7","","25.0","","99.56","","","","","","Mainly Clear"
"1978-06-22 03:00","1978","06","22","03:00","9.4","","7.6","","89","","30","","7","","25.0","","99.52","","","","","","Clear"
"1978-06-22 04:00","1978","06","22","04:00","8.0","","5.6","","85","","31","","6","","25.0","","99.56","","","","","","Mainly Clear"
"1978-06-22 05:00","1978","06","22","05:00","8.8","","7.5","","92","","32","","4","","40.2","","99.62","","","","","","Mainly Clear"
"1978-06-22 06:00","1978","06","22","06:00","11.1","","8.4","","83","","29","","13","","40.2","","99.66","","","","","","Mainly Clear"
"1978-06-22 07:00","1978","06","22","07:00","13.6","","8.0","","69","","30","","19","","40.2","","99.69","","","","","","Mainly Clear"
"1978-06-22 08:00","1978","06","22","08:00","16.0","","7.7","","58","","29","","17","","40.2","","99.69","","","","","","Mainly Clear"
"1978-06-22 09:00","1978","06","22","09:00","17.6","","8.3","","54","","27","","20","","40.2","","99.69","","","","","","Mainly Clear"
"1978-06-22 10:00","1978","06","22","10:00","18.8","","8.0","","50","","27","","19","","40.2","","99.69","","","","","","Mainly Clear"
"1978-06-22 11:00","1978","06","22","11:00","19.8","","8.9","","49","","27","","19","","40.2","","99.66","","","","","","Mostly Cloudy"
"1978-06-22 12:00","1978","06","22","12:00","20.1","","7.6","","44","","28","","24","","40.2","","99.62","","","","","","Mostly Cloudy"
"1978-06-22 13:00","1978","06","22","13:00","21.7","","7.8","","41","","29","","31","","40.2","","99.59","","","","","","Mostly Cloudy"
"1978-06-22 14:00","1978","06","22","14:00","21.5","","8.7","","44","","27","","24","","40.2","","99.56","","","","","","Mostly Cloudy"
"1978-06-22 15:00","1978","06","22","15:00","22.1","","7.6","","39","","28","","22","","40.2","","99.56","","","","","","Mostly Cloudy"
"1978-06-22 16:00","1978","06","22","16:00","22.1","","7.6","","39","","27","","31","","40.2","","99.49","","","","","","Mostly Cloudy"
"1978-06-22 17:00","1978","06","22","17:00","22.0","","8.5","","42","","29","","22","","40.2","","99.56","","","","","","Mainly Clear"
"1978-06-22 18:00","1978","06","22","18:00","21.1","","9.8","","48","","29","","19","","40.2","","99.59","","","","","","Mainly Clear"
"1978-06-22 19:00","1978","06","22","19:00","21.0","","7.1","","41","","29","","11","","40.2","","99.56","","","","","","Mainly Clear"
"1978-06-22 20:00","1978","06","22","20:00","18.0","","8.0","","52","","24","","7","","40.2","","99.56","","","","","","Mainly Clear"
"1978-06-22 21:00","1978","06","22","21:00","16.5","","8.7","","60","","23","","7","","25.0","","99.56","","","","","","Mainly Clear"
"1978-06-22 22:00","1978","06","22","22:00","14.0","","9.4","","74","","22","","11","","25.0","","99.56","","","","","","Mainly Clear"
"1978-06-22 23:00","1978","06","22","23:00","13.3","","10.4","","83","","33","","15","","25.0","","99.59","","","","","","Mainly Clear"
"1978-06-23 00:00","1978","06","23","00:00","12.0","","7.9","","76","","32","","6","","25.0","","99.59","","","","","","Clear"
"1978-06-23 01:00","1978","06","23","01:00","11.8","","7.9","","77","","29","","4","","25.0","","99.62","","","","","","Clear"
"1978-06-23 02:00","1978","06","23","02:00","10.5","","8.3","","86","","33","","11","","25.0","","99.66","","","","","","Clear"
"1978-06-23 03:00","1978","06","23","03:00","10.0","","7.7","","86","","32","","13","","25.0","","99.69","","","","","","Clear"
"1978-06-23 04:00","1978","06","23","04:00","8.5","","6.6","","88","","33","","9","","25.0","","99.76","","","","","","Mainly Clear"
"1978-06-23 05:00","1978","06","23","05:00","9.1","","7.1","","87","","30","","4","","40.2","","99.82","","","","","","Mainly Clear"
"1978-06-23 06:00","1978","06","23","06:00","10.5","","8.3","","86","","32","","9","","40.2","","99.89","","","","","","Mainly Clear"
"1978-06-23 07:00","1978","06","23","07:00","12.0","","7.1","","72","","34","","17","","40.2","","99.92","","","","","","Clear"
"1978-06-23 08:00","1978","06","23","08:00","13.6","","7.2","","65","","33","","22","","40.2","","99.92","","","","","","Mainly Clear"
"1978-06-23 09:00","1978","06","23","09:00","14.9","","7.7","","62","","35","","22","","40.2","","99.92","","","","","","Mainly Clear"
"1978-06-23 10:00","1978","06","23","10:00","16.3","","8.7","","61","","33","","19","","40.2","","99.92","","","","","","Mainly Clear"
"1978-06-23 11:00","1978","06","23","11:00","17.1","","7.6","","54","","33","","13","","40.2","","99.96","","","","","","Mainly Clear"
"1978-06-23 12:00","1978","06","23","12:00","18.2","","7.6","","50","","1","","15","","40.2","","99.92","","","","","","Mainly Clear"
"1978-06-23 13:00","1978","06","23","13:00","19.1","","8.5","","50","","2","","15","","40.2","","99.89","","","","","","Mainly Clear"
"1978-06-23 14:00","1978","06","23","14:00","19.5","","8.3","","48","","35","","17","","40.2","","99.89","","","","","","Mainly Clear"
"1978-06-23 15:00","1978","06","23","15:00","21.0","","9.4","","47","","33","","15","","40.2","","99.89","","","","","","Mainly Clear"
"1978-06-23 16:00","1978","06","23","16:00","20.2","","9.3","","49","","36","","15","","40.2","","99.86","","","","","","Mainly Clear"
"1978-06-23 17:00","1978","06","23","17:00","19.9","","8.9","","49","","1","","22","","40.2","","99.86","","","","","","Mainly Clear"
"1978-06-23 18:00","1978","06","23","18:00","18.7","","7.8","","49","","36","","20","","40.2","","99.89","","","","","","Mostly Cloudy"
"1978-06-23 19:00","1978","06","23","19:00","16.4","","6.5","","52","","1","","19","","40.2","","99.89","","","","","","Mostly Cloudy"
"1978-06-23 20:00","1978","06","23","20:00","14.1","","6.5","","60","","1","","7","","40.2","","99.89","","","","","","Mostly Cloudy"
"1978-06-23 21:00","1978","06","23","21:00","13.6","","6.8","","63","","36","","9","","25.0","","99.89","","","","","","Mostly Cloudy"
"1978-06-23 22:00","1978","06","23","22:00","11.2","","6.8","","74","","32","","7","","25.0","","99.89","","","","","","Mainly Clear"
"1978-06-23 23:00","1978","06","23","23:00","10.1","","7.4","","83","","34","","7","","25.0","","99.89","","","","","","Mostly Cloudy"
"1978-06-24 00:00","1978","06","24","00:00","10.0","","6.9","","81","","35","","7","","25.0","","99.89","","","","","","Mainly Clear"
"1978-06-24 01:00","1978","06","24","01:00","8.6","","6.6","","87","","34","","9","","25.0","","99.89","","","","","","Mostly Cloudy"
"1978-06-24 02:00","1978","06","24","02:00","8.4","","7.0","","91","","31","","7","","25.0","","99.89","","","","","","Mainly Clear"
"1978-06-24 03:00","1978","06","24","03:00","8.5","","7.0","","90","","24","","7","","25.0","","99.89","","","","","","Mainly Clear"
"1978-06-24 04:00","1978","06","24","04:00","8.1","","6.0","","87","","34","","9","","25.0","","99.96","","","","","","Mainly Clear"
"1978-06-24 05:00","1978","06","24","05:00","7.9","","6.4","","90","","31","","4","","32.2","","99.96","","","","","","Mainly Clear"
"1978-06-24 06:00","1978","06","24","06:00","9.1","","7.5","","90","","31","","7","","40.2","","99.99","","","","","","Mainly Clear"
"1978-06-24 07:00","1978","06","24","07:00","12.4","","8.9","","79","","34","","7","","40.2","","99.99","","","","","","Clear"
"1978-06-24 08:00","1978","06","24","08:00","16.0","","8.9","","63","","35","","4","","40.2","","99.99","","","","","","Clear"
"1978-06-24 09:00","1978","06","24","09:00","18.6","","7.8","","49","","1","","2","","40.2","","99.99","","","","","","Clear"
"1978-06-24 10:00","1978","06","24","10:00","20.0","","8.5","","48","","","","0","","40.2","","99.96","","","","","","Clear"
"1978-06-24 11:00","1978","06","24","11:00","20.7","","6.4","","39","","8","","2","","40.2","","99.92","","","","","","Clear"
"1978-06-24 12:00","1978","06","24","12:00","22.0","","6.7","","37","","18","","11","","40.2","","99.86","","","","","","Clear"
"1978-06-24 13:00","1978","06","24","13:00","22.4","","7.4","","38","","15","","13","","40.2","","99.82","","","","","","Clear"
"1978-06-24 14:00","1978","06","24","14:00","22.2","","6.7","","37","","14","","20","","40.2","","99.79","","","","","","Clear"
"1978-06-24 15:00","1978","06","24","15:00","22.9","","7.2","","37","","16","","17","","40.2","","99.76","","","","","","Clear"
"1978-06-24 16:00","1978","06","24","16:00","22.2","","6.2","","35","","17","","15","","40.2","","99.76","","","","","","Clear"
"1978-06-24 17:00","1978","06","24","17:00","22.7","","4.9","","31","","15","","19","","40.2","","99.72","","","","","","Clear"
"1978-06-24 18:00","1978","06","24","18:00","22.0","","1.7","","26","","17","","13","","40.2","","99.72","","","","","","Clear"
"1978-06-24 19:00","1978","06","24","19:00","21.4","","1.4","","27","","16","","7","","40.2","","99.69","","","","","","Mainly Clear"
"1978-06-24 20:00","1978","06","24","20:00","19.6","","0.3","","27","","16","","6","","40.2","","99.69","","","","","","Mainly Clear"
"1978-06-24 21:00","1978","06","24","21:00","18.1","","0.8","","31","","17","","6","","25.0","","99.66","","","","","","Mainly Clear"
"1978-06-24 22:00","1978","06","24","22:00","14.5","","2.8","","45","","","","0","","25.0","","99.69","","","","","","Mainly Clear"
"1978-06-24 23:00","1978","06","24","23:00","13.6","","4.5","","54","","29","","6","","25.0","","99.69","","","","","","Mainly Clear"
"1978-06-25 00:00","1978","06","25","00:00","12.8","","5.7","","62","","30","","6","","25.0","","99.69","","","","","","Mainly Clear"
"1978-06-25 01:00","1978","06","25","01:00","12.7","","5.5","","61","","31","","6","","24.1","","99.69","","","","","","Clear"
"1978-06-25 02:00","1978","06","25","02:00","12.0","","8.3","","78","","35","","2","","24.1","","99.66","","","","","","Mainly Clear"
"1978-06-25 03:00","1978","06","25","03:00","11.8","","7.5","","75","","16","","7","","24.1","","99.62","","","","","","Mainly Clear"
"1978-06-25 04:00","1978","06","25","04:00","11.0","","7.6","","80","","","","0","","24.1","","99.66","","","","","","Mostly Cloudy"
"1978-06-25 05:00","1978","06","25","05:00","10.2","","7.7","","84","","","","0","","19.3","","99.66","","","","","","Mostly Cloudy"
"1978-06-25 06:00","1978","06","25","06:00","13.0","","9.8","","81","","","","0","","19.3","","99.62","","","","","","Mostly Cloudy"
"1978-06-25 07:00","1978","06","25","07:00","16.5","","9.9","","65","","15","","4","","19.3","","99.62","","","","","","Mostly Cloudy"
"1978-06-25 08:00","1978","06","25","08:00","19.2","","9.7","","54","","21","","4","","19.3","","99.66","","","","","","Mostly Cloudy"
"1978-06-25 09:00","1978","06","25","09:00","21.0","","9.8","","49","","15","","7","","19.3","","99.56","","","","","","Mainly Clear"
"1978-06-25 10:00","1978","06","25","10:00","22.0","","10.3","","47","","13","","11","","16.1","","99.56","","","","","","Mainly Clear"
"1978-06-25 11:00","1978","06","25","11:00","22.6","","10.5","","46","","16","","11","","16.1","","99.59","","","","","","Mainly Clear"
"1978-06-25 12:00","1978","06","25","12:00","23.5","","11.0","","45","","14","","15","","12.9","","99.49","","25","","","","Mostly Cloudy"
"1978-06-25 13:00","1978","06","25","13:00","24.5","","11.1","","43","","15","","15","","32.2","","99.39","","26","","","","Mostly Cloudy"
"1978-06-25 14:00","1978","06","25","14:00","24.6","","10.2","","40","","12","","15","","32.2","","99.36","","26","","","","Cloudy"
"1978-06-25 15:00","1978","06","25","15:00","25.0","","10.1","","39","","14","","17","","32.2","","99.36","","26","","","","Cloudy"
"1978-06-25 16:00","1978","06","25","16:00","24.0","","9.5","","40","","15","","17","","24.1","","99.36","","25","","","","Cloudy"
"1978-06-25 17:00","1978","06","25","17:00","23.2","","9.5","","42","","14","","13","","19.3","","99.29","","","","","","Cloudy"
"1978-06-25 18:00","1978","06","25","18:00","22.0","","9.8","","46","","16","","13","","16.1","","99.26","","","","","","Mostly Cloudy"
"1978-06-25 19:00","1978","06","25","19:00","20.0","","8.5","","48","","14","","13","","16.1","","99.19","","","","","","Mostly Cloudy"
"1978-06-25 20:00","1978","06","25","20:00","18.8","","9.7","","56","","15","","9","","16.1","","99.12","","","","","","Mostly Cloudy"
"1978-06-25 21:00","1978","06","25","21:00","18.8","","11.3","","62","","17","","4","","12.9","","99.16","","","","","","Mostly Cloudy"
"1978-06-25 22:00","1978","06","25","22:00","18.6","","11.1","","62","","16","","4","","12.9","","99.12","","","","","","Mostly Cloudy"
"1978-06-25 23:00","1978","06","25","23:00","18.4","","12.2","","67","","12","","6","","9.7","","99.12","","","","","","Haze"
"1978-06-26 00:00","1978","06","26","00:00","19.3","","13.4","","69","","13","","4","","9.7","","99.12","","","","","","Haze"
"1978-06-26 01:00","1978","06","26","01:00","18.6","","13.7","","73","","13","","2","","9.7","","99.06","","","","","","Haze"
"1978-06-26 02:00","1978","06","26","02:00","18.4","","15.0","","81","","","","0","","6.4","","99.06","","","","","","Rain Showers,Haze"
"1978-06-26 03:00","1978","06","26","03:00","18.0","","16.5","","91","","11","","7","","4.0","","98.99","","","","","","Rain Showers,Fog"
"1978-06-26 04:00","1978","06","26","04:00","18.1","","16.5","","90","","13","","7","","4.0","","98.89","","","","","","Rain Showers,Fog"
"1978-06-26 05:00","1978","06","26","05:00","17.9","","16.5","","92","","14","","7","","3.2","","98.92","","","","","","Fog"
"1978-06-26 06:00","1978","06","26","06:00","18.0","","15.8","","87","","17","","15","","2.4","","98.89","","","","","","Fog"
"1978-06-26 07:00","1978","06","26","07:00","18.1","","16.1","","88","","14","","13","","3.2","","98.89","","","","","","Fog"
"1978-06-26 08:00","1978","06","26","08:00","18.6","","16.7","","89","","14","","13","","2.4","","98.89","","","","","","Fog"
"1978-06-26 09:00","1978","06","26","09:00","19.3","","17.1","","87","","14","","7","","3.2","","98.86","","","","","","Fog"
"1978-06-26 10:00","1978","06","26","10:00","21.3","","17.6","","80","","17","","9","","4.0","","98.79","","27","","","","Haze"
"1978-06-26 11:00","1978","06","26","11:00","23.9","","19.4","","76","","23","","7","","4.0","","98.76","","31","","","","Haze"
"1978-06-26 12:00","1978","06","26","12:00","23.6","","19.1","","76","","15","","7","","4.0","","98.76","","30","","","","Haze"
"1978-06-26 13:00","1978","06","26","13:00","26.4","","20.6","","71","","19","","19","","4.8","","98.76","","34","","","","Haze"
"1978-06-26 14:00","1978","06","26","14:00","26.5","","20.2","","68","","15","","13","","4.8","","98.76","","34","","","","Haze"
"1978-06-26 15:00","1978","06","26","15:00","26.9","","19.2","","63","","14","","15","","9.7","","98.72","","34","","","","Haze"
"1978-06-26 16:00","1978","06","26","16:00","28.8","","19.3","","57","","21","","9","","19.3","","98.59","","36","","","","Cloudy"
"1978-06-26 17:00","1978","06","26","17:00","28.7","","18.7","","55","","16","","7","","24.1","","98.59","","35","","","","Cloudy"
"1978-06-26 18:00","1978","06","26","18:00","27.6","","19.2","","60","","24","","9","","19.3","","98.76","","35","","","","Cloudy"
"1978-06-26 19:00","1978","06","26","19:00","26.5","","19.9","","67","","22","","9","","24.1","","98.76","","34","","","","Rain Showers"
"1978-06-26 20:00","1978","06","26","20:00","24.6","","19.9","","75","","24","","13","","32.2","","98.79","","32","","","","Mostly Cloudy"
"1978-06-26 21:00","1978","06","26","21:00","23.1","","19.8","","82","","24","","11","","24.1","","98.89","","31","","","","Mostly Cloudy"
"1978-06-26 22:00","1978","06","26","22:00","22.2","","19.7","","86","","21","","9","","24.1","","98.96","","30","","","","Mostly Cloudy"
"1978-06-26 23:00","1978","06","26","23:00","21.9","","19.4","","86","","24","","13","","25.0","","98.96","","29","","","","Mainly Clear"
"1978-06-27 00:00","1978","06","27","00:00","20.7","","18.4","","87","","25","","9","","25.0","","98.96","","27","","","","Mostly Cloudy"
"1978-06-27 01:00","1978","06","27","01:00","20.0","","18.5","","91","","26","","7","","25.0","","98.96","","26","","","","Mainly Clear"
"1978-06-27 02:00","1978","06","27","02:00","21.0","","18.6","","86","","25","","9","","25.0","","98.99","","27","","","","Mainly Clear"
"1978-06-27 03:00","1978","06","27","03:00","21.0","","18.9","","88","","26","","20","","12.9","","98.99","","28","","","","Mainly Clear"
"1978-06-27 04:00","1978","06","27","04:00","20.8","","19.5","","92","","26","","11","","9.7","","99.06","","28","","","","Fog"
"1978-06-27 05:00","1978","06","27","05:00","19.8","","19.1","","96","","22","","9","","4.0","","98.99","","","","","","Fog"
"1978-06-27 06:00","1978","06","27","06:00","20.5","","19.3","","93","","25","","11","","4.0","","98.99","","28","","","","Fog"
"1978-06-27 07:00","1978","06","27","07:00","22.5","","20.5","","88","","24","","13","","4.8","","99.02","","30","","","","Fog"
"1978-06-27 08:00","1978","06","27","08:00","25.3","","21.3","","79","","22","","11","","6.4","","99.09","","34","","","","Haze"
"1978-06-27 09:00","1978","06","27","09:00","26.5","","21.2","","73","","23","","20","","8.0","","99.06","","35","","","","Haze"
"1978-06-27 10:00","1978","06","27","10:00","26.7","","21.5","","73","","22","","22","","8.0","","98.99","","36","","","","Haze"
"1978-06-27 11:00","1978","06","27","11:00","27.9","","21.6","","69","","21","","19","","4.8","","99.06","","37","","","","Haze"
"1978-06-27 12:00","1978","06","27","12:00","30.2","","22.0","","62","","23","","24","","6.4","","98.99","","40","","","","Haze"
"1978-06-27 13:00","1978","06","27","13:00","29.5","","22.0","","64","","25","","26","","8.0","","98.96","","39","","","","Haze"
"1978-06-27 14:00","1978","06","27","14:00","32.3","","20.1","","49","","27","","31","","12.9","","98.92","","40","","","","Mostly Cloudy"
"1978-06-27 15:00","1978","06","27","15:00","32.1","","17.1","","41","","28","","35","","32.2","","98.82","","37","","","","Mainly Clear"
"1978-06-27 16:00","1978","06","27","16:00","31.6","","16.1","","39","","29","","28","","32.2","","98.79","","36","","","","Mostly Cloudy"
"1978-06-27 17:00","1978","06","27","17:00","30.8","","16.2","","42","","30","","28","","40.2","","98.89","","36","","","","Mostly Cloudy"
"1978-06-27 18:00","1978","06","27","18:00","29.6","","15.3","","42","","28","","30","","40.2","","98.96","","34","","","","Mainly Clear"
"1978-06-27 19:00","1978","06","27","19:00","27.6","","13.9","","43","","29","","22","","40.2","","99.02","","31","","","","Mainly Clear"
"1978-06-27 20:00","1978","06","27","20:00","25.2","","14.1","","50","","29","","17","","40.2","","99.06","","29","","","","Mainly Clear"
"1978-06-27 21:00","1978","06","27","21:00","21.7","","15.3","","67","","34","","17","","40.2","","99.19","","26","","","","Mainly Clear"
"1978-06-27 22:00","1978","06","27","22:00","21.1","","13.3","","61","","32","","24","","25.0","","99.22","","","","","","Clear"
"1978-06-27 23:00","1978","06","27","23:00","19.4","","14.1","","72","","30","","17","","25.0","","99.29","","","","","","Clear"
"1978-06-28 00:00","1978","06","28","00:00","18.6","","13.7","","73","","32","","19","","25.0","","99.29","","","","","","Clear"
"1978-06-28 01:00","1978","06","28","01:00","16.7","","13.6","","82","","31","","15","","25.0","","99.29","","","","","","Clear"
"1978-06-28 02:00","1978","06","28","02:00","15.0","","13.4","","90","","30","","9","","25.0","","99.32","","","","","","Clear"
"1978-06-28 03:00","1978","06","28","03:00","14.8","","13.7","","93","","29","","11","","25.0","","99.32","","","","","","Clear"
"1978-06-28 04:00","1978","06","28","04:00","14.8","","13.7","","93","","28","","9","","25.0","","99.36","","","","","","Clear"
"1978-06-28 05:00","1978","06","28","05:00","15.1","","14.0","","93","","30","","11","","24.1","","99.42","","","","","","Mainly Clear"
"1978-06-28 06:00","1978","06","28","06:00","16.5","","14.9","","90","","33","","13","","24.1","","99.46","","","","","","Clear"
"1978-06-28 07:00","1978","06","28","07:00","19.1","","15.3","","78","","32","","20","","32.2","","99.56","","","","","","Clear"
"1978-06-28 08:00","1978","06","28","08:00","21.5","","15.7","","70","","33","","20","","40.2","","99.56","","26","","","","Clear"
"1978-06-28 09:00","1978","06","28","09:00","23.3","","15.2","","61","","32","","22","","40.2","","99.59","","27","","","","Mainly Clear"
"1978-06-28 10:00","1978","06","28","10:00","24.1","","16.1","","61","","29","","20","","32.2","","99.62","","29","","","","Mainly Clear"
"1978-06-28 11:00","1978","06","28","11:00","24.4","","15.0","","56","","31","","15","","32.2","","99.66","","28","","","","Mainly Clear"
"1978-06-28 12:00","1978","06","28","12:00","25.8","","15.3","","52","","34","","31","","40.2","","99.66","","30","","","","Mostly Cloudy"
"1978-06-28 13:00","1978","06","28","13:00","25.6","","14.0","","49","","34","","22","","40.2","","99.66","","29","","","","Mostly Cloudy"
"1978-06-28 14:00","1978","06","28","14:00","26.6","","12.9","","43","","32","","17","","40.2","","99.59","","29","","","","Mostly Cloudy"
"1978-06-28 15:00","1978","06","28","15:00","27.3","","14.6","","46","","31","","19","","40.2","","99.59","","31","","","","Mostly Cloudy"
"1978-06-28 16:00","1978","06","28","16:00","26.6","","11.7","","40","","32","","17","","40.2","","99.56","","29","","","","Mostly Cloudy"
"1978-06-28 17:00","1978","06","28","17:00","26.1","","12.3","","42","","29","","20","","40.2","","99.59","","29","","","","Mostly Cloudy"
"1978-06-28 18:00","1978","06","28","18:00","24.6","","11.1","","43","","30","","22","","40.2","","99.59","","26","","","","Mostly Cloudy"
"1978-06-28 19:00","1978","06","28","19:00","24.5","","12.7","","48","","28","","17","","40.2","","99.59","","27","","","","Mainly Clear"
"1978-06-28 20:00","1978","06","28","20:00","21.8","","12.7","","56","","28","","13","","40.2","","99.56","","","","","","Mostly Cloudy"
"1978-06-28 21:00","1978","06","28","21:00","20.5","","12.7","","61","","26","","7","","25.0","","99.59","","","","","","Mostly Cloudy"
"1978-06-28 22:00","1978","06","28","22:00","20.5","","12.7","","61","","25","","7","","25.0","","99.59","","","","","","Mostly Cloudy"
"1978-06-28 23:00","1978","06","28","23:00","19.0","","13.2","","69","","27","","9","","25.0","","99.56","","","","","","Mainly Clear"
"1978-06-29 00:00","1978","06","29","00:00","19.0","","12.5","","66","","27","","2","","25.0","","99.52","","","","","","Mainly Clear"
"1978-06-29 01:00","1978","06","29","01:00","18.4","","12.6","","69","","24","","4","","25.0","","99.49","","","","","","Mostly Cloudy"
"1978-06-29 02:00","1978","06","29","02:00","18.7","","12.6","","68","","26","","2","","25.0","","99.49","","","","","","Mostly Cloudy"
"1978-06-29 03:00","1978","06","29","03:00","19.0","","13.5","","70","","29","","7","","25.0","","99.46","","","","","","Mostly Cloudy"
"1978-06-29 04:00","1978","06","29","04:00","18.8","","14.2","","75","","29","","11","","25.0","","99.46","","","","","","Mostly Cloudy"
"1978-06-29 05:00","1978","06","29","05:00","17.4","","14.0","","81","","28","","7","","32.2","","99.46","","","","","","Mainly Clear"
"1978-06-29 06:00","1978","06","29","06:00","20.1","","14.7","","71","","28","","13","","32.2","","99.49","","","","","","Mostly Cloudy"
"1978-06-29 07:00","1978","06","29","07:00","21.4","","15.0","","67","","29","","17","","40.2","","99.49","","25","","","","Mainly Clear"
"1978-06-29 08:00","1978","06","29","08:00","24.2","","16.1","","61","","31","","20","","40.2","","99.46","","29","","","","Mainly Clear"
"1978-06-29 09:00","1978","06","29","09:00","25.6","","15.1","","52","","28","","17","","40.2","","99.46","","30","","","","Mainly Clear"
"1978-06-29 10:00","1978","06","29","10:00","27.5","","15.0","","46","","31","","19","","40.2","","99.46","","31","","","","Mainly Clear"
"1978-06-29 11:00","1978","06","29","11:00","28.2","","12.9","","39","","31","","24","","40.2","","99.39","","31","","","","Mainly Clear"
"1978-06-29 12:00","1978","06","29","12:00","29.4","","13.4","","38","","30","","24","","40.2","","99.39","","32","","","","Mainly Clear"
"1978-06-29 13:00","1978","06","29","13:00","29.6","","11.7","","33","","31","","24","","40.2","","99.32","","32","","","","Mainly Clear"
"1978-06-29 14:00","1978","06","29","14:00","28.4","","12.8","","38","","31","","20","","40.2","","99.32","","31","","","","Mainly Clear"
"1978-06-29 15:00","1978","06","29","15:00","29.9","","12.0","","33","","29","","28","","32.2","","99.32","","32","","","","Mostly Cloudy"
"1978-06-29 16:00","1978","06","29","16:00","29.5","","13.4","","37","","32","","20","","32.2","","99.29","","33","","","","Mostly Cloudy"
"1978-06-29 17:00","1978","06","29","17:00","29.0","","12.7","","37","","30","","24","","32.2","","99.29","","32","","","","Mainly Clear"
"1978-06-29 18:00","1978","06","29","18:00","27.8","","12.9","","40","","31","","30","","40.2","","99.26","","31","","","","Mainly Clear"
"1978-06-29 19:00","1978","06","29","19:00","26.5","","13.3","","44","","31","","28","","40.2","","99.29","","29","","","","Mainly Clear"
"1978-06-29 20:00","1978","06","29","20:00","24.6","","14.6","","54","","32","","15","","40.2","","99.32","","28","","","","Mainly Clear"
"1978-06-29 21:00","1978","06","29","21:00","21.4","","16.3","","73","","33","","11","","25.0","","99.39","","26","","","","Mainly Clear"
"1978-06-29 22:00","1978","06","29","22:00","19.5","","15.8","","79","","33","","11","","25.0","","99.39","","","","","","Clear"
"1978-06-29 23:00","1978","06","29","23:00","18.8","","16.2","","85","","33","","13","","25.0","","99.46","","","","","","Clear"
"1978-06-30 00:00","1978","06","30","00:00","17.7","","15.0","","84","","34","","9","","25.0","","99.39","","","","","","Clear"
"1978-06-30 01:00","1978","06","30","01:00","16.8","","15.4","","92","","34","","11","","24.1","","99.46","","","","","","Clear"
"1978-06-30 02:00","1978","06","30","02:00","16.4","","15.2","","93","","35","","11","","19.3","","99.49","","","","","","Clear"
"1978-06-30 03:00","1978","06","30","03:00","16.6","","14.9","","90","","35","","17","","24.1","","99.49","","","","","","Mainly Clear"
"1978-06-30 04:00","1978","06","30","04:00","16.3","","14.6","","90","","35","","15","","25.0","","99.52","","","","","","Mainly Clear"
"1978-06-30 05:00","1978","06","30","05:00","15.6","","13.9","","90","","35","","15","","32.2","","99.66","","","","","","Mainly Clear"
"1978-06-30 06:00","1978","06","30","06:00","16.0","","13.0","","82","","36","","15","","40.2","","99.69","","","","","","Mainly Clear"
"1978-06-30 07:00","1978","06","30","07:00","17.1","","12.0","","72","","36","","17","","40.2","","99.69","","","","","","Mainly Clear"
"1978-06-30 08:00","1978","06","30","08:00","19.0","","10.1","","56","","2","","15","","40.2","","99.79","","","","","","Mainly Clear"
"1978-06-30 09:00","1978","06","30","09:00","20.0","","9.3","","50","","1","","17","","40.2","","99.79","","","","","","Mainly Clear"
"1978-06-30 10:00","1978","06","30","10:00","21.0","","8.5","","45","","36","","19","","40.2","","99.79","","","","","","Mainly Clear"
"1978-06-30 11:00","1978","06","30","11:00","21.5","","3.2","","30","","33","","20","","40.2","","99.79","","","","","","Mainly Clear"
"1978-06-30 12:00","1978","06","30","12:00","23.3","","4.3","","29","","35","","22","","40.2","","99.79","","","","","","Mainly Clear"
"1978-06-30 13:00","1978","06","30","13:00","23.7","","2.6","","25","","35","","19","","40.2","","99.76","","","","","","Mainly Clear"
"1978-06-30 14:00","1978","06","30","14:00","24.0","","4.6","","28","","1","","22","","40.2","","99.72","","","","","","Mainly Clear"
"1978-06-30 15:00","1978","06","30","15:00","23.9","","6.2","","32","","34","","22","","40.2","","99.72","","","","","","Mainly Clear"
"1978-06-30 16:00","1978","06","30","16:00","23.0","","5.1","","31","","34","","26","","40.2","","99.69","","","","","","Mainly Clear"
"1978-06-30 17:00","1978","06","30","17:00","22.6","","5.4","","33","","35","","26","","40.2","","99.66","","","","","","Mostly Cloudy"
"1978-06-30 18:00","1978","06","30","18:00","21.1","","6.2","","38","","35","","22","","40.2","","99.66","","","","","","Mostly Cloudy"
"1978-06-30 19:00","1978","06","30","19:00","19.6","","5.9","","41","","35","","22","","40.2","","99.72","","","","","","Mostly Cloudy"
"1978-06-30 20:00","1978","06","30","20:00","17.8","","5.3","","44","","35","","17","","40.2","","99.72","","","","","","Mostly Cloudy"
"1978-06-30 21:00","1978","06","30","21:00","16.1","","4.9","","47","","34","","15","","25.0","","99.79","","","","","","Mostly Cloudy"
"1978-06-30 22:00","1978","06","30","22:00","15.9","","3.4","","43","","36","","20","","25.0","","99.76","","","","","","Mostly Cloudy"
"1978-06-30 23:00","1978","06","30","23:00","14.8","","4.0","","48","","36","","19","","25.0","","99.76","","","","","","Mostly Cloudy"
