"Station Name","TORONTO LESTER B. PEARSON INT'L A"
"Province","ONTARIO"
"Latitude","43.68"
"Longitude","-79.63"
"Elevation","173.40"
"Climate Identifier","6158733"
"WMO Identifier","71624"
"TC Identifier","YYZ"
"All times are specified in Local Standard Time (LST). Add 1 hour to adjust for Daylight Saving Time where and when it is observed."

"Legend"
"E","Estimated"
"M","Missing"
"NA","Not Available"

"Date/Time","Year","Month","Day","Time","Temp (°C)","Temp Flag","Dew Point Temp (°C)","Dew Point Temp Flag","Rel Hum (%)","Rel Hum Flag","Wind Dir (10s deg)","Wind Dir Flag","Wind Spd (km/h)","Wind Spd Flag","Visibility (km)","Visibility Flag","Stn Press (kPa)","Stn Press Flag","Hmdx","Hmdx Flag","Wind Chill","Wind Chill Flag","Weather"
"1971-12-01 00:00","1971","12","01","00:00","-10.0","","-12.2","","85","","30","","13","","25.0","","100.00","","","","-16","","Clear"
"1971-12-01 01:00","1971","12","01","01:00","-11.1","","-13.3","","83","","29","","11","","25.0","","100.05","","","","-17","","Mainly Clear"
"1971-12-01 02:00","1971","12","01","02:00","-11.1","","-13.3","","83","","30","","14","","25.0","","100.12","","","","-18","","Clear"
"1971-12-01 03:00","1971","12","01","03:00","-11.1","","-13.3","","85","","28","","14","","25.0","","100.19","","","","-18","","Clear"
"1971-12-01 04:00","1971","12","01","04:00","-12.2","","-13.9","","85","","30","","14","","25.0","","100.24","","","","-19","","Mainly Clear"
"1971-12-01 05:00","1971","12","01","05:00","-12.8","","-15.0","","85","","31","","10","","25.0","","100.32","","","","-19","","Mainly Clear"
"1971-12-01 06:00","1971","12","01","06:00","-10.6","","-12.2","","87","","31","","13","","24.1","","100.42","","","","-17","","Snow Showers"
"1971-12-01 07:00","1971","12","01","07:00","-9.4","","-11.1","","88","","28","","11","","11.3","","100.51","","","","-15","","Snow Showers"
"1971-12-01 08:00","1971","12","01","08:00","-8.3","","-11.1","","81","","33","","21","","40.2","","100.61","","","","-16","","Mainly Clear"
"1971-12-01 09:00","1971","12","01","09:00","-8.9","","-11.7","","79","","33","","21","","40.2","","100.70","","","","-17","","Mainly Clear"
"1971-12-01 10:00","1971","12","01","10:00","-7.2","","-11.7","","72","","35","","24","","40.2","","100.80","","","","-15","","Mainly Clear"
"1971-12-01 11:00","1971","12","01","11:00","-6.7","","-11.1","","71","","35","","24","","40.2","","100.86","","","","-14","","Mainly Clear"
"1971-12-01 12:00","1971","12","01","12:00","-5.6","","-10.0","","71","","35","","24","","40.2","","100.92","","","","-13","","Mainly Clear"
"1971-12-01 13:00","1971","12","01","13:00","-5.6","","-10.0","","69","","33","","23","","40.2","","100.94","","","","-13","","Mainly Clear"
"1971-12-01 14:00","1971","12","01","14:00","-5.0","","-11.1","","62","","34","","21","","40.2","","100.97","","","","-12","","Mainly Clear"
"1971-12-01 15:00","1971","12","01","15:00","-5.0","","-10.0","","67","","35","","16","","40.2","","101.03","","","","-11","","Clear"
"1971-12-01 16:00","1971","12","01","16:00","-5.6","","-10.6","","67","","34","","19","","40.2","","101.09","","","","-12","","Mainly Clear"
"1971-12-01 17:00","1971","12","01","17:00","-8.3","","-12.8","","70","","34","","16","","40.2","","101.14","","","","-15","","Mainly Clear"
"1971-12-01 18:00","1971","12","01","18:00","-11.1","","-15.0","","75","","32","","13","","25.0","","101.20","","","","-18","","Clear"
"1971-12-01 19:00","1971","12","01","19:00","-10.6","","-13.3","","82","","31","","10","","25.0","","101.23","","","","-16","","Clear"
"1971-12-01 20:00","1971","12","01","20:00","-10.6","","-12.8","","82","","30","","6","","25.0","","101.30","","","","-14","","Clear"
"1971-12-01 21:00","1971","12","01","21:00","-11.7","","-13.9","","84","","32","","8","","25.0","","101.33","","","","-16","","Clear"
"1971-12-01 22:00","1971","12","01","22:00","-12.2","","-13.9","","87","","28","","6","","25.0","","101.37","","","","-16","","Clear"
"1971-12-01 23:00","1971","12","01","23:00","-12.8","","-14.4","","88","","32","","10","","25.0","","101.37","","","","-19","","Clear"
"1971-12-02 00:00","1971","12","02","00:00","-13.3","","-15.0","","88","","30","","6","","25.0","","101.41","","","","-17","","Mainly Clear"
"1971-12-02 01:00","1971","12","02","01:00","-12.2","","-13.9","","87","","1","","8","","25.0","","101.40","","","","-17","","Clear"
"1971-12-02 02:00","1971","12","02","02:00","-13.3","","-15.6","","86","","34","","6","","25.0","","101.42","","","","-17","","Clear"
"1971-12-02 03:00","1971","12","02","03:00","-14.4","","-16.1","","87","","32","","6","","25.0","","101.46","","","","-19","","Mainly Clear"
"1971-12-02 04:00","1971","12","02","04:00","-14.4","","-16.1","","87","","1","","6","","25.0","","101.47","","","","-19","","Clear"
"1971-12-02 05:00","1971","12","02","05:00","-15.6","","-17.2","","88","","34","","8","","25.0","","101.44","","","","-21","","Clear"
"1971-12-02 06:00","1971","12","02","06:00","-15.0","","-16.1","","89","","28","","8","","25.0","","101.45","","","","-20","","Clear"
"1971-12-02 07:00","1971","12","02","07:00","-15.6","","-17.2","","86","","29","","10","","25.0","","101.49","","","","-22","","Mainly Clear"
"1971-12-02 08:00","1971","12","02","08:00","-13.3","","-16.1","","80","","28","","8","","40.2","","101.47","","","","-18","","Mainly Clear"
"1971-12-02 09:00","1971","12","02","09:00","-12.2","","-14.4","","84","","32","","8","","40.2","","101.46","","","","-17","","Mainly Clear"
"1971-12-02 10:00","1971","12","02","10:00","-8.3","","-11.7","","80","","28","","3","","32.2","","101.47","","","","-10","","Mainly Clear"
"1971-12-02 11:00","1971","12","02","11:00","-5.6","","-8.3","","79","","23","","8","","32.2","","101.44","","","","-9","","Mainly Clear"
"1971-12-02 12:00","1971","12","02","12:00","-2.8","","-6.7","","75","","23","","10","","40.2","","101.34","","","","-7","","Mainly Clear"
"1971-12-02 13:00","1971","12","02","13:00","-2.8","","-6.1","","75","","24","","23","","40.2","","101.25","","","","-9","","Mainly Clear"
"1971-12-02 14:00","1971","12","02","14:00","-2.2","","-6.1","","75","","26","","18","","40.2","","101.20","","","","-8","","Mostly Cloudy"
"1971-12-02 15:00","1971","12","02","15:00","-1.7","","-6.1","","70","","23","","13","","40.2","","101.14","","","","-6","","Mainly Clear"
"1971-12-02 16:00","1971","12","02","16:00","-2.8","","-6.7","","75","","23","","13","","40.2","","101.10","","","","-7","","Mainly Clear"
"1971-12-02 17:00","1971","12","02","17:00","-6.1","","-9.4","","79","","24","","13","","32.2","","101.08","","","","-11","","Mainly Clear"
"1971-12-02 18:00","1971","12","02","18:00","-6.1","","-10.6","","72","","22","","14","","25.0","","101.03","","","","-12","","Mainly Clear"
"1971-12-02 19:00","1971","12","02","19:00","-7.8","","-11.1","","77","","23","","18","","25.0","","101.02","","","","-15","","Mainly Clear"
"1971-12-02 20:00","1971","12","02","20:00","-6.1","","-8.9","","80","","24","","14","","25.0","","100.97","","","","-12","","Mostly Cloudy"
"1971-12-02 21:00","1971","12","02","21:00","-5.0","","-7.8","","78","","24","","14","","19.3","","100.94","","","","-10","","Cloudy"
"1971-12-02 22:00","1971","12","02","22:00","-3.9","","-7.2","","78","","20","","13","","19.3","","100.90","","","","-9","","Cloudy"
"1971-12-02 23:00","1971","12","02","23:00","-3.9","","-7.2","","77","","18","","16","","19.3","","100.82","","","","-9","","Cloudy"
"1971-12-03 00:00","1971","12","03","00:00","-3.3","","-6.7","","80","","18","","13","","19.3","","100.74","","","","-8","","Cloudy"
"1971-12-03 01:00","1971","12","03","01:00","-3.9","","-6.7","","81","","18","","13","","19.3","","100.71","","","","-9","","Cloudy"
"1971-12-03 02:00","1971","12","03","02:00","-3.3","","-6.1","","83","","18","","13","","19.3","","100.65","","","","-8","","Cloudy"
"1971-12-03 03:00","1971","12","03","03:00","-3.3","","-6.1","","83","","19","","16","","24.1","","100.64","","","","-9","","Cloudy"
"1971-12-03 04:00","1971","12","03","04:00","-3.3","","-6.1","","82","","20","","18","","19.3","","100.60","","","","-9","","Cloudy"
"1971-12-03 05:00","1971","12","03","05:00","-3.3","","-5.6","","82","","20","","19","","16.1","","100.61","","","","-9","","Cloudy"
"1971-12-03 06:00","1971","12","03","06:00","-2.8","","-5.6","","80","","24","","23","","19.3","","100.50","","","","-9","","Cloudy"
"1971-12-03 07:00","1971","12","03","07:00","-2.2","","-5.0","","81","","25","","21","","19.3","","100.46","","","","-8","","Cloudy"
"1971-12-03 08:00","1971","12","03","08:00","-1.7","","-5.0","","80","","26","","21","","19.3","","100.38","","","","-8","","Cloudy"
"1971-12-03 09:00","1971","12","03","09:00","-1.7","","-4.4","","80","","25","","23","","16.1","","100.38","","","","-8","","Mostly Cloudy"
"1971-12-03 10:00","1971","12","03","10:00","-0.6","","-3.9","","80","","26","","27","","16.1","","100.37","","","","-7","","Mostly Cloudy"
"1971-12-03 11:00","1971","12","03","11:00","0.0","","-2.8","","82","","26","","26","","16.1","","100.41","","","","-6","","Mostly Cloudy"
"1971-12-03 12:00","1971","12","03","12:00","0.6","","-3.3","","76","","25","","23","","16.1","","100.38","","","","","","Mostly Cloudy"
"1971-12-03 13:00","1971","12","03","13:00","1.1","","-2.8","","78","","26","","18","","16.1","","100.30","","","","","","Mostly Cloudy"
"1971-12-03 14:00","1971","12","03","14:00","1.1","","-1.7","","81","","24","","19","","19.3","","100.27","","","","","","Mainly Clear"
"1971-12-03 15:00","1971","12","03","15:00","1.1","","-1.7","","84","","25","","23","","19.3","","100.25","","","","","","Mainly Clear"
"1971-12-03 16:00","1971","12","03","16:00","0.6","","-3.3","","78","","28","","21","","24.1","","100.25","","","","","","Mainly Clear"
"1971-12-03 17:00","1971","12","03","17:00","-0.6","","-2.8","","85","","26","","19","","19.3","","100.21","","","","-6","","Mainly Clear"
"1971-12-03 18:00","1971","12","03","18:00","-1.7","","-3.9","","83","","25","","19","","19.3","","100.27","","","","-7","","Mainly Clear"
"1971-12-03 19:00","1971","12","03","19:00","-1.1","","-3.9","","82","","26","","16","","19.3","","100.28","","","","-6","","Mostly Cloudy"
"1971-12-03 20:00","1971","12","03","20:00","-1.7","","-5.0","","79","","28","","16","","19.3","","100.28","","","","-7","","Mainly Clear"
"1971-12-03 21:00","1971","12","03","21:00","-1.1","","-3.9","","82","","26","","16","","19.3","","100.32","","","","-6","","Mostly Cloudy"
"1971-12-03 22:00","1971","12","03","22:00","-0.6","","-3.3","","81","","27","","16","","19.3","","100.32","","","","-5","","Cloudy"
"1971-12-03 23:00","1971","12","03","23:00","-0.6","","-3.3","","81","","28","","18","","19.3","","100.34","","","","-6","","Cloudy"
"1971-12-04 00:00","1971","12","04","00:00","-0.6","","-3.3","","81","","28","","11","","19.3","","100.36","","","","-4","","Cloudy"
"1971-12-04 01:00","1971","12","04","01:00","0.0","","-2.8","","82","","22","","10","","19.3","","100.37","","","","-3","","Cloudy"
"1971-12-04 02:00","1971","12","04","02:00","-1.1","","-3.3","","84","","25","","10","","16.1","","100.39","","","","-5","","Cloudy"
"1971-12-04 03:00","1971","12","04","03:00","-1.1","","-3.3","","84","","27","","8","","16.1","","100.45","","","","-4","","Cloudy"
"1971-12-04 04:00","1971","12","04","04:00","-1.1","","-2.8","","88","","26","","5","","16.1","","100.49","","","","-3","","Cloudy"
"1971-12-04 05:00","1971","12","04","05:00","-0.6","","-2.2","","86","","31","","13","","16.1","","100.52","","","","-5","","Cloudy"
"1971-12-04 06:00","1971","12","04","06:00","0.0","","-1.7","","89","","34","","11","","14.5","","100.54","","","","-4","","Cloudy"
"1971-12-04 07:00","1971","12","04","07:00","0.0","","-2.2","","85","","32","","8","","14.5","","100.62","","","","-3","","Cloudy"
"1971-12-04 08:00","1971","12","04","08:00","0.0","","-2.2","","87","","36","","10","","9.7","","100.64","","","","-3","","Fog"
"1971-12-04 09:00","1971","12","04","09:00","0.6","","-2.2","","84","","36","","10","","12.9","","100.73","","","","","","Cloudy"
"1971-12-04 10:00","1971","12","04","10:00","1.1","","-1.7","","82","","7","","14","","12.9","","100.79","","","","","","Cloudy"
"1971-12-04 11:00","1971","12","04","11:00","1.1","","-1.7","","83","","10","","16","","16.1","","100.84","","","","","","Cloudy"
"1971-12-04 12:00","1971","12","04","12:00","0.0","","-1.7","","90","","10","","24","","24.1","","100.84","","","","-6","","Cloudy"
"1971-12-04 13:00","1971","12","04","13:00","-0.6","","-3.3","","82","","9","","24","","24.1","","100.87","","","","-7","","Cloudy"
"1971-12-04 14:00","1971","12","04","14:00","-0.6","","-3.3","","81","","10","","19","","24.1","","100.87","","","","-6","","Cloudy"
"1971-12-04 15:00","1971","12","04","15:00","-1.1","","-3.9","","82","","10","","19","","24.1","","100.94","","","","-6","","Cloudy"
"1971-12-04 16:00","1971","12","04","16:00","-1.1","","-3.9","","82","","9","","18","","24.1","","101.02","","","","-6","","Cloudy"
"1971-12-04 17:00","1971","12","04","17:00","-1.7","","-3.9","","83","","11","","14","","24.1","","101.06","","","","-6","","Cloudy"
"1971-12-04 18:00","1971","12","04","18:00","-1.7","","-4.4","","81","","10","","19","","24.1","","101.03","","","","-7","","Cloudy"
"1971-12-04 19:00","1971","12","04","19:00","-1.7","","-5.0","","79","","11","","13","","24.1","","101.07","","","","-6","","Cloudy"
"1971-12-04 20:00","1971","12","04","20:00","-1.7","","-4.4","","81","","11","","16","","24.1","","101.14","","","","-7","","Cloudy"
"1971-12-04 21:00","1971","12","04","21:00","-1.7","","-5.0","","77","","9","","16","","24.1","","101.14","","","","-7","","Cloudy"
"1971-12-04 22:00","1971","12","04","22:00","-2.2","","-5.6","","77","","7","","16","","24.1","","101.15","","","","-7","","Cloudy"
"1971-12-04 23:00","1971","12","04","23:00","-2.8","","-6.7","","75","","6","","16","","24.1","","101.17","","","","-8","","Mostly Cloudy"
"1971-12-05 00:00","1971","12","05","00:00","-3.9","","-7.8","","73","","7","","18","","24.1","","101.21","","","","-10","","Mostly Cloudy"
"1971-12-05 01:00","1971","12","05","01:00","-4.4","","-8.9","","73","","5","","19","","24.1","","101.17","","","","-11","","Mostly Cloudy"
"1971-12-05 02:00","1971","12","05","02:00","-5.0","","-7.8","","79","","7","","18","","24.1","","101.24","","","","-11","","Mostly Cloudy"
"1971-12-05 03:00","1971","12","05","03:00","-5.0","","-7.8","","81","","7","","18","","25.0","","101.24","","","","-11","","Mostly Cloudy"
"1971-12-05 04:00","1971","12","05","04:00","-4.4","","-7.2","","82","","7","","19","","25.0","","101.21","","","","-11","","Mostly Cloudy"
"1971-12-05 05:00","1971","12","05","05:00","-4.4","","-6.7","","86","","6","","18","","24.1","","101.18","","","","-10","","Mostly Cloudy"
"1971-12-05 06:00","1971","12","05","06:00","-4.4","","-6.7","","85","","6","","16","","24.1","","101.17","","","","-10","","Mainly Clear"
"1971-12-05 07:00","1971","12","05","07:00","-5.0","","-6.1","","91","","6","","14","","24.1","","101.16","","","","-10","","Mostly Cloudy"
"1971-12-05 08:00","1971","12","05","08:00","-5.6","","-7.2","","89","","4","","13","","16.1","","101.14","","","","-11","","Mostly Cloudy"
"1971-12-05 09:00","1971","12","05","09:00","-1.7","","-5.6","","73","","11","","26","","12.9","","101.13","","","","-8","","Mostly Cloudy"
"1971-12-05 10:00","1971","12","05","10:00","-0.6","","-5.0","","72","","11","","32","","16.1","","101.02","","","","-7","","Mostly Cloudy"
"1971-12-05 11:00","1971","12","05","11:00","-0.6","","-5.0","","70","","12","","31","","16.1","","100.93","","","","-7","","Mostly Cloudy"
"1971-12-05 12:00","1971","12","05","12:00","0.0","","-4.4","","74","","12","","26","","19.3","","100.86","","","","-6","","Mostly Cloudy"
"1971-12-05 13:00","1971","12","05","13:00","0.0","","-3.9","","77","","12","","26","","19.3","","100.74","","","","-6","","Mostly Cloudy"
"1971-12-05 14:00","1971","12","05","14:00","0.0","","-3.9","","78","","11","","29","","19.3","","100.61","","","","-6","","Mostly Cloudy"
"1971-12-05 15:00","1971","12","05","15:00","0.0","","-3.9","","75","","12","","26","","19.3","","100.62","","","","-6","","Mostly Cloudy"
"1971-12-05 16:00","1971","12","05","16:00","0.0","","-2.8","","82","","12","","26","","19.3","","100.59","","","","-6","","Mostly Cloudy"
"1971-12-05 17:00","1971","12","05","17:00","0.6","","-2.8","","77","","11","","16","","19.3","","100.58","","","","","","Mostly Cloudy"
"1971-12-05 18:00","1971","12","05","18:00","1.1","","-2.8","","75","","11","","23","","19.3","","100.53","","","","","","Mostly Cloudy"
"1971-12-05 19:00","1971","12","05","19:00","1.7","","-2.8","","73","","12","","24","","24.1","","100.45","","","","","","Mostly Cloudy"
"1971-12-05 20:00","1971","12","05","20:00","1.7","","-2.2","","73","","12","","21","","24.1","","100.39","","","","","","Cloudy"
"1971-12-05 21:00","1971","12","05","21:00","2.2","","-1.7","","75","","12","","21","","24.1","","100.34","","","","","","Rain"
"1971-12-05 22:00","1971","12","05","22:00","1.7","","-1.1","","82","","13","","13","","19.3","","100.30","","","","","","Rain"
"1971-12-05 23:00","1971","12","05","23:00","1.7","","-1.1","","82","","14","","14","","16.1","","100.25","","","","","","Rain"
"1971-12-06 00:00","1971","12","06","00:00","1.7","","0.0","","87","","15","","13","","12.9","","100.18","","","","","","Rain"
"1971-12-06 01:00","1971","12","06","01:00","1.7","","0.0","","90","","16","","8","","6.4","","100.14","","","","","","Rain,Fog"
"1971-12-06 02:00","1971","12","06","02:00","1.1","","1.1","","99","","15","","10","","3.6","","100.10","","","","","","Rain,Fog"
"1971-12-06 03:00","1971","12","06","03:00","1.7","","1.7","","99","","16","","8","","1.6","","100.08","","","","","","Rain,Fog"
"1971-12-06 04:00","1971","12","06","04:00","1.7","","1.7","","99","","13","","11","","0.4","","99.97","","","","","","Rain,Fog"
"1971-12-06 05:00","1971","12","06","05:00","1.7","","1.7","","100","","13","","10","","0.2","","99.96","","","","","","Rain,Fog"
"1971-12-06 06:00","1971","12","06","06:00","2.2","","2.2","","100","","13","","13","","0.2","","99.87","","","","","","Rain,Fog"
"1971-12-06 07:00","1971","12","06","07:00","2.2","","2.2","","100","","16","","8","","0.2","","99.89","","","","","","Rain,Fog"
"1971-12-06 08:00","1971","12","06","08:00","2.8","","2.8","","100","","14","","11","","0.2","","99.79","","","","","","Rain,Fog"
"1971-12-06 09:00","1971","12","06","09:00","2.8","","2.8","","99","","13","","11","","0.2","","99.67","","","","","","Rain,Fog"
"1971-12-06 10:00","1971","12","06","10:00","3.3","","3.3","","100","","15","","13","","0.2","","99.61","","","","","","Rain,Fog"
"1971-12-06 11:00","1971","12","06","11:00","3.9","","3.9","","99","","17","","10","","0.2","","99.62","","","","","","Rain,Fog"
"1971-12-06 12:00","1971","12","06","12:00","3.3","","3.3","","99","","6","","3","","0.2","","99.52","","","","","","Rain,Fog"
"1971-12-06 13:00","1971","12","06","13:00","3.9","","3.9","","99","","12","","11","","0.2","","99.39","","","","","","Rain,Fog"
"1971-12-06 14:00","1971","12","06","14:00","3.9","","3.3","","99","","14","","10","","0.2","","99.30","","","","","","Rain,Fog"
"1971-12-06 15:00","1971","12","06","15:00","3.9","","3.9","","99","","14","","10","","0.4","","99.29","","","","","","Rain,Fog"
"1971-12-06 16:00","1971","12","06","16:00","3.3","","3.3","","99","","11","","11","","0.4","","99.19","","","","","","Rain,Fog"
"1971-12-06 17:00","1971","12","06","17:00","3.3","","3.3","","98","","10","","11","","0.8","","99.14","","","","","","Rain,Fog"
"1971-12-06 18:00","1971","12","06","18:00","3.3","","3.3","","100","","11","","10","","0.2","","99.15","","","","","","Fog"
"1971-12-06 19:00","1971","12","06","19:00","3.9","","3.9","","98","","11","","6","","1.6","","99.13","","","","","","Rain,Fog"
"1971-12-06 20:00","1971","12","06","20:00","3.9","","3.9","","99","","12","","3","","0.4","","99.11","","","","","","Rain,Fog"
"1971-12-06 21:00","1971","12","06","21:00","2.8","","2.2","","98","","34","","10","","0.8","","99.10","","","","","","Rain,Fog"
"1971-12-06 22:00","1971","12","06","22:00","2.2","","1.7","","98","","31","","6","","0.4","","99.14","","","","","","Rain,Fog"
"1971-12-06 23:00","1971","12","06","23:00","2.2","","1.7","","99","","33","","10","","0.4","","99.21","","","","","","Fog"
"1971-12-07 00:00","1971","12","07","00:00","1.1","","1.1","","100","","35","","6","","3.2","","99.21","","","","","","Fog"
"1971-12-07 01:00","1971","12","07","01:00","0.6","","0.6","","99","","34","","6","","3.2","","99.27","","","","","","Fog"
"1971-12-07 02:00","1971","12","07","02:00","0.6","","0.0","","98","","34","","11","","11.3","","99.33","","","","","","Mainly Clear"
"1971-12-07 03:00","1971","12","07","03:00","1.1","","0.6","","97","","33","","11","","24.1","","99.36","","","","","","Mainly Clear"
"1971-12-07 04:00","1971","12","07","04:00","0.6","","0.6","","98","","33","","8","","24.1","","99.35","","","","","","Cloudy"
"1971-12-07 05:00","1971","12","07","05:00","1.7","","1.1","","96","","34","","10","","24.1","","99.36","","","","","","Cloudy"
"1971-12-07 06:00","1971","12","07","06:00","1.7","","1.1","","96","","33","","3","","19.3","","99.47","","","","","","Cloudy"
"1971-12-07 07:00","1971","12","07","07:00","2.2","","1.7","","96","","2","","10","","12.9","","99.44","","","","","","Cloudy"
"1971-12-07 08:00","1971","12","07","08:00","2.2","","2.2","","97","","3","","10","","4.8","","99.44","","","","","","Fog"
"1971-12-07 09:00","1971","12","07","09:00","3.3","","2.2","","94","","4","","13","","8.0","","99.45","","","","","","Fog"
"1971-12-07 10:00","1971","12","07","10:00","2.8","","1.7","","91","","6","","18","","8.0","","99.45","","","","","","Fog"
"1971-12-07 11:00","1971","12","07","11:00","2.2","","1.7","","94","","5","","13","","8.0","","99.48","","","","","","Fog"
"1971-12-07 12:00","1971","12","07","12:00","2.8","","1.7","","91","","6","","16","","8.0","","99.42","","","","","","Fog"
"1971-12-07 13:00","1971","12","07","13:00","2.8","","1.7","","91","","7","","16","","8.0","","99.38","","","","","","Fog"
"1971-12-07 14:00","1971","12","07","14:00","2.8","","2.2","","94","","6","","16","","8.0","","99.38","","","","","","Fog"
"1971-12-07 15:00","1971","12","07","15:00","3.3","","1.7","","89","","4","","16","","11.3","","99.35","","","","","","Cloudy"
"1971-12-07 16:00","1971","12","07","16:00","2.8","","1.1","","90","","4","","19","","12.9","","99.38","","","","","","Cloudy"
"1971-12-07 17:00","1971","12","07","17:00","2.8","","1.1","","90","","4","","19","","12.9","","99.45","","","","","","Cloudy"
"1971-12-07 18:00","1971","12","07","18:00","2.8","","1.1","","90","","3","","16","","16.1","","99.58","","","","","","Cloudy"
"1971-12-07 19:00","1971","12","07","19:00","2.8","","1.1","","90","","4","","14","","16.1","","99.63","","","","","","Cloudy"
"1971-12-07 20:00","1971","12","07","20:00","3.3","","1.1","","86","","3","","18","","19.3","","99.73","","","","","","Cloudy"
"1971-12-07 21:00","1971","12","07","21:00","2.8","","0.6","","88","","2","","11","","19.3","","99.77","","","","","","Cloudy"
"1971-12-07 22:00","1971","12","07","22:00","2.8","","0.6","","84","","5","","19","","19.3","","99.79","","","","","","Cloudy"
"1971-12-07 23:00","1971","12","07","23:00","2.2","","0.6","","87","","7","","16","","19.3","","99.84","","","","","","Cloudy"
"1971-12-08 00:00","1971","12","08","00:00","2.2","","0.0","","87","","7","","14","","16.1","","99.84","","","","","","Cloudy"
"1971-12-08 01:00","1971","12","08","01:00","1.7","","0.0","","90","","7","","16","","11.3","","99.88","","","","","","Drizzle"
"1971-12-08 02:00","1971","12","08","02:00","1.1","","0.6","","93","","7","","11","","9.7","","99.92","","","","","","Drizzle,Fog"
"1971-12-08 03:00","1971","12","08","03:00","1.1","","0.0","","93","","6","","6","","8.0","","99.96","","","","","","Drizzle,Fog"
"1971-12-08 04:00","1971","12","08","04:00","1.1","","0.0","","92","","8","","11","","8.0","","99.96","","","","","","Drizzle,Fog"
"1971-12-08 05:00","1971","12","08","05:00","1.1","","0.0","","92","","2","","6","","8.0","","99.99","","","","","","Drizzle,Fog"
"1971-12-08 06:00","1971","12","08","06:00","0.6","","0.0","","93","","1","","6","","6.4","","100.03","","","","","","Drizzle,Fog"
"1971-12-08 07:00","1971","12","08","07:00","0.6","","0.0","","98","","3","","10","","4.0","","100.05","","","","","","Drizzle,Fog"
"1971-12-08 08:00","1971","12","08","08:00","0.6","","0.6","","98","","3","","11","","2.4","","100.08","","","","","","Drizzle,Fog"
"1971-12-08 09:00","1971","12","08","09:00","1.1","","0.6","","98","","4","","10","","2.8","","100.09","","","","","","Drizzle,Fog"
"1971-12-08 10:00","1971","12","08","10:00","1.1","","0.0","","93","","3","","6","","2.8","","100.11","","","","","","Drizzle,Fog"
"1971-12-08 11:00","1971","12","08","11:00","1.1","","0.6","","96","","1","","5","","3.2","","100.11","","","","","","Drizzle,Fog"
"1971-12-08 12:00","1971","12","08","12:00","1.7","","0.6","","93","","11","","3","","3.2","","100.08","","","","","","Drizzle,Fog"
"1971-12-08 13:00","1971","12","08","13:00","1.7","","0.6","","94","","27","","3","","1.6","","100.06","","","","","","Drizzle,Fog"
"1971-12-08 14:00","1971","12","08","14:00","1.7","","0.6","","95","","27","","3","","1.2","","100.07","","","","","","Drizzle,Fog"
"1971-12-08 15:00","1971","12","08","15:00","1.7","","1.1","","96","","19","","5","","2.0","","100.09","","","","","","Drizzle,Fog"
"1971-12-08 16:00","1971","12","08","16:00","2.2","","1.1","","95","","21","","8","","1.6","","100.12","","","","","","Drizzle,Fog"
"1971-12-08 17:00","1971","12","08","17:00","1.7","","1.7","","98","","24","","6","","1.2","","100.19","","","","","","Rain,Fog"
"1971-12-08 18:00","1971","12","08","18:00","2.2","","1.7","","98","","20","","5","","1.6","","100.20","","","","","","Drizzle,Fog"
"1971-12-08 19:00","1971","12","08","19:00","2.2","","1.7","","97","","19","","10","","2.4","","100.23","","","","","","Fog"
"1971-12-08 20:00","1971","12","08","20:00","2.2","","1.7","","98","","18","","11","","0.8","","100.19","","","","","","Fog"
"1971-12-08 21:00","1971","12","08","21:00","2.2","","2.2","","99","","18","","10","","1.2","","100.16","","","","","","Fog"
"1971-12-08 22:00","1971","12","08","22:00","2.8","","2.2","","99","","16","","6","","0.6","","100.14","","","","","","Fog"
"1971-12-08 23:00","1971","12","08","23:00","2.8","","2.8","","99","","15","","8","","0.2","","100.10","","","","","","Fog"
"1971-12-09 00:00","1971","12","09","00:00","2.8","","2.8","","100","","17","","8","","0.2","","100.10","","","","","","Fog"
"1971-12-09 01:00","1971","12","09","01:00","2.8","","2.8","","100","","15","","6","","0.6","","100.02","","","","","","Fog"
"1971-12-09 02:00","1971","12","09","02:00","3.3","","3.3","","100","","14","","11","","1.0","","99.89","","","","","","Drizzle,Fog"
"1971-12-09 03:00","1971","12","09","03:00","3.3","","3.3","","99","","14","","5","","0.8","","99.96","","","","","","Drizzle,Fog"
"1971-12-09 04:00","1971","12","09","04:00","3.3","","3.3","","100","","16","","5","","0.2","","99.93","","","","","","Drizzle,Fog"
"1971-12-09 05:00","1971","12","09","05:00","3.9","","3.9","","100","","15","","11","","0.2","","99.78","","","","","","Fog"
"1971-12-09 06:00","1971","12","09","06:00","4.4","","4.4","","100","","18","","10","","0.2","","99.78","","","","","","Fog"
"1971-12-09 07:00","1971","12","09","07:00","3.9","","3.9","","99","","23","","3","","1.2","","99.80","","","","","","Drizzle,Fog"
"1971-12-09 08:00","1971","12","09","08:00","3.9","","3.9","","100","","15","","8","","0.6","","99.75","","","","","","Drizzle,Fog"
"1971-12-09 09:00","1971","12","09","09:00","4.4","","4.4","","100","","15","","10","","0.8","","99.66","","","","","","Drizzle,Fog"
"1971-12-09 10:00","1971","12","09","10:00","5.0","","5.0","","100","","16","","13","","1.6","","99.56","","","","","","Rain,Fog"
"1971-12-09 11:00","1971","12","09","11:00","5.0","","5.0","","100","","16","","16","","2.4","","99.49","","","","","","Rain,Fog"
"1971-12-09 12:00","1971","12","09","12:00","5.0","","5.0","","98","","19","","16","","4.8","","99.44","","","","","","Rain,Fog"
"1971-12-09 13:00","1971","12","09","13:00","4.4","","2.8","","89","","24","","16","","8.0","","99.35","","","","","","Rain,Fog"
"1971-12-09 14:00","1971","12","09","14:00","4.4","","3.9","","96","","21","","21","","6.4","","99.23","","","","","","Rain,Fog"
"1971-12-09 15:00","1971","12","09","15:00","4.4","","3.3","","96","","25","","5","","4.8","","99.24","","","","","","Rain,Fog"
"1971-12-09 16:00","1971","12","09","16:00","4.4","","3.9","","98","","24","","2","","8.0","","99.24","","","","","","Rain,Fog"
"1971-12-09 17:00","1971","12","09","17:00","4.4","","3.3","","93","","15","","2","","4.0","","99.33","","","","","","Rain,Fog"
"1971-12-09 18:00","1971","12","09","18:00","3.9","","3.3","","97","","15","","8","","4.0","","99.36","","","","","","Rain,Fog"
"1971-12-09 19:00","1971","12","09","19:00","4.4","","3.9","","97","","18","","8","","4.0","","99.44","","","","","","Fog"
"1971-12-09 20:00","1971","12","09","20:00","4.4","","3.9","","98","","12","","8","","1.6","","99.45","","","","","","Fog"
"1971-12-09 21:00","1971","12","09","21:00","4.4","","4.4","","98","","16","","10","","1.6","","99.39","","","","","","Fog"
"1971-12-09 22:00","1971","12","09","22:00","5.0","","4.4","","99","","15","","11","","0.6","","99.44","","","","","","Fog"
"1971-12-09 23:00","1971","12","09","23:00","5.0","","4.4","","99","","13","","3","","0.2","","99.46","","","","","","Fog"
"1971-12-10 00:00","1971","12","10","00:00","4.4","","4.4","","99","","2","","2","","0.0","","99.48","","","","","","Fog"
"1971-12-10 01:00","1971","12","10","01:00","4.4","","4.4","","99","","35","","2","","0.2","","99.51","","","","","","Fog"
"1971-12-10 02:00","1971","12","10","02:00","4.4","","4.4","","99","","9","","6","","0.6","","99.53","","","","","","Fog"
"1971-12-10 03:00","1971","12","10","03:00","5.0","","5.0","","100","","13","","5","","0.4","","99.54","","","","","","Fog"
"1971-12-10 04:00","1971","12","10","04:00","5.0","","5.0","","100","","14","","10","","0.0","","99.50","","","","","","Fog"
"1971-12-10 05:00","1971","12","10","05:00","5.0","","5.0","","100","","12","","11","","0.0","","99.45","","","","","","Fog"
"1971-12-10 06:00","1971","12","10","06:00","5.0","","5.0","","99","","9","","13","","0.4","","99.41","","","","","","Fog"
"1971-12-10 07:00","1971","12","10","07:00","5.0","","5.0","","100","","12","","11","","0.4","","99.45","","","","","","Drizzle,Fog"
"1971-12-10 08:00","1971","12","10","08:00","6.1","","6.1","","99","","10","","19","","0.2","","99.36","","","","","","Drizzle,Fog"
"1971-12-10 09:00","1971","12","10","09:00","6.1","","6.1","","99","","10","","19","","0.8","","99.28","","","","","","Drizzle,Fog"
"1971-12-10 10:00","1971","12","10","10:00","6.7","","6.1","","98","","12","","21","","0.8","","99.15","","","","","","Drizzle,Fog"
"1971-12-10 11:00","1971","12","10","11:00","6.1","","6.1","","99","","11","","24","","1.2","","99.08","","","","","","Rain,Fog"
"1971-12-10 12:00","1971","12","10","12:00","7.2","","7.2","","99","","13","","27","","2.0","","98.76","","","","","","Rain,Fog"
"1971-12-10 13:00","1971","12","10","13:00","7.2","","7.2","","99","","11","","32","","2.0","","98.55","","","","","","Rain,Fog"
"1971-12-10 14:00","1971","12","10","14:00","7.8","","7.2","","98","","10","","29","","1.6","","98.20","","","","","","Rain,Fog"
"1971-12-10 15:00","1971","12","10","15:00","7.8","","7.2","","98","","9","","35","","1.6","","97.88","","","","","","Rain,Fog"
"1971-12-10 16:00","1971","12","10","16:00","8.3","","7.8","","97","","10","","32","","1.6","","97.75","","","","","","Rain,Fog"
"1971-12-10 17:00","1971","12","10","17:00","8.9","","8.3","","96","","10","","27","","2.0","","97.52","","","","","","Moderate Rain,Fog"
"1971-12-10 18:00","1971","12","10","18:00","9.4","","8.9","","97","","12","","23","","4.8","","97.36","","","","","","Fog"
"1971-12-10 19:00","1971","12","10","19:00","10.6","","8.9","","92","","13","","32","","12.9","","97.17","","","","","","Cloudy"
"1971-12-10 20:00","1971","12","10","20:00","12.8","","10.0","","84","","17","","27","","24.1","","97.24","","","","","","Cloudy"
"1971-12-10 21:00","1971","12","10","21:00","15.0","","10.6","","75","","22","","51","","25.0","","97.29","","","","","","Mainly Clear"
"1971-12-10 22:00","1971","12","10","22:00","13.3","","9.4","","78","","23","","50","","25.0","","97.43","","","","","","Mainly Clear"
"1971-12-10 23:00","1971","12","10","23:00","12.8","","9.4","","81","","23","","40","","25.0","","97.52","","","","","","Mostly Cloudy"
"1971-12-11 00:00","1971","12","11","00:00","12.2","","9.4","","82","","22","","32","","25.0","","97.55","","","","","","Mainly Clear"
"1971-12-11 01:00","1971","12","11","01:00","12.2","","9.4","","82","","22","","32","","25.0","","97.57","","","","","","Mostly Cloudy"
"1971-12-11 02:00","1971","12","11","02:00","11.7","","10.0","","87","","22","","37","","24.1","","97.64","","","","","","Rain Showers"
"1971-12-11 03:00","1971","12","11","03:00","10.6","","7.8","","83","","26","","48","","11.3","","97.80","","","","","","Rain Showers"
"1971-12-11 04:00","1971","12","11","04:00","8.9","","3.3","","67","","26","","53","","25.0","","97.98","","","","","","Mostly Cloudy"
"1971-12-11 05:00","1971","12","11","05:00","7.2","","1.7","","69","","26","","47","","25.0","","98.24","","","","","","Mostly Cloudy"
"1971-12-11 06:00","1971","12","11","06:00","5.6","","0.0","","66","","27","","45","","25.0","","98.58","","","","","","Cloudy"
"1971-12-11 07:00","1971","12","11","07:00","4.4","","-1.1","","67","","26","","50","","25.0","","98.84","","","","","","Mostly Cloudy"
"1971-12-11 08:00","1971","12","11","08:00","3.3","","-0.6","","75","","26","","37","","40.2","","99.08","","","","","","Mainly Clear"
"1971-12-11 09:00","1971","12","11","09:00","3.9","","-3.3","","60","","26","","42","","40.2","","99.27","","","","","","Mainly Clear"
"1971-12-11 10:00","1971","12","11","10:00","4.4","","-2.2","","61","","27","","47","","40.2","","99.48","","","","","","Mainly Clear"
"1971-12-11 11:00","1971","12","11","11:00","5.6","","-3.3","","53","","26","","35","","40.2","","99.56","","","","","","Mainly Clear"
"1971-12-11 12:00","1971","12","11","12:00","6.7","","-3.3","","50","","26","","39","","40.2","","99.60","","","","","","Mainly Clear"
"1971-12-11 13:00","1971","12","11","13:00","7.2","","-3.3","","47","","25","","35","","40.2","","99.58","","","","","","Clear"
"1971-12-11 14:00","1971","12","11","14:00","7.2","","-3.9","","45","","26","","37","","40.2","","99.63","","","","","","Mainly Clear"
"1971-12-11 15:00","1971","12","11","15:00","7.2","","-4.4","","44","","26","","37","","40.2","","99.66","","","","","","Clear"
"1971-12-11 16:00","1971","12","11","16:00","6.1","","-5.0","","45","","25","","39","","40.2","","99.69","","","","","","Mainly Clear"
"1971-12-11 17:00","1971","12","11","17:00","5.0","","-5.0","","48","","24","","29","","40.2","","99.73","","","","","","Mainly Clear"
"1971-12-11 18:00","1971","12","11","18:00","3.3","","-4.4","","57","","22","","23","","25.0","","99.75","","","","","","Mainly Clear"
"1971-12-11 19:00","1971","12","11","19:00","2.8","","-1.1","","77","","22","","27","","25.0","","99.76","","","","","","Mainly Clear"
"1971-12-11 20:00","1971","12","11","20:00","2.8","","0.0","","81","","23","","27","","25.0","","99.78","","","","","","Clear"
"1971-12-11 21:00","1971","12","11","21:00","2.2","","-1.1","","79","","23","","26","","24.1","","99.79","","","","","","Clear"
"1971-12-11 22:00","1971","12","11","22:00","1.7","","-1.7","","77","","23","","26","","25.0","","99.77","","","","","","Clear"
"1971-12-11 23:00","1971","12","11","23:00","1.7","","-2.2","","77","","23","","19","","25.0","","99.79","","","","","","Mainly Clear"
"1971-12-12 00:00","1971","12","12","00:00","1.1","","-1.7","","80","","22","","13","","25.0","","99.81","","","","","","Clear"
"1971-12-12 01:00","1971","12","12","01:00","0.6","","-2.8","","79","","15","","11","","25.0","","99.82","","","","","","Clear"
"1971-12-12 02:00","1971","12","12","02:00","1.7","","-2.2","","76","","18","","8","","25.0","","99.79","","","","","","Clear"
"1971-12-12 03:00","1971","12","12","03:00","-0.6","","-3.3","","81","","11","","8","","25.0","","99.77","","","","-3","","Clear"
"1971-12-12 04:00","1971","12","12","04:00","0.0","","-2.8","","83","","13","","8","","25.0","","99.68","","","","-3","","Mainly Clear"
"1971-12-12 05:00","1971","12","12","05:00","0.0","","-2.2","","84","","16","","11","","25.0","","99.54","","","","-4","","Mainly Clear"
"1971-12-12 06:00","1971","12","12","06:00","0.0","","-2.8","","83","","28","","3","","19.3","","99.52","","","","-1","","Mainly Clear"
"1971-12-12 07:00","1971","12","12","07:00","-3.9","","-5.0","","93","","30","","11","","19.3","","99.52","","","","-8","","Mainly Clear"
"1971-12-12 08:00","1971","12","12","08:00","-3.3","","-4.4","","93","","34","","5","","11.3","","99.48","","","","-5","","Mainly Clear"
"1971-12-12 09:00","1971","12","12","09:00","-1.7","","-2.8","","93","","30","","10","","11.3","","99.44","","","","-5","","Mainly Clear"
"1971-12-12 10:00","1971","12","12","10:00","1.1","","0.0","","92","","22","","10","","11.3","","99.39","","","","","","Mainly Clear"
"1971-12-12 11:00","1971","12","12","11:00","3.9","","1.1","","84","","23","","11","","16.1","","99.34","","","","","","Mostly Cloudy"
"1971-12-12 12:00","1971","12","12","12:00","5.6","","1.7","","75","","22","","13","","16.1","","99.19","","","","","","Mostly Cloudy"
"1971-12-12 13:00","1971","12","12","13:00","7.2","","0.0","","60","","24","","16","","16.1","","99.11","","","","","","Mainly Clear"
"1971-12-12 14:00","1971","12","12","14:00","6.7","","-1.1","","57","","26","","19","","19.3","","99.07","","","","","","Mainly Clear"
"1971-12-12 15:00","1971","12","12","15:00","6.7","","-1.1","","57","","26","","14","","19.3","","99.03","","","","","","Mostly Cloudy"
"1971-12-12 16:00","1971","12","12","16:00","4.4","","-1.1","","67","","29","","10","","19.3","","99.04","","","","","","Mostly Cloudy"
"1971-12-12 17:00","1971","12","12","17:00","3.3","","-1.7","","70","","27","","6","","19.3","","99.08","","","","","","Cloudy"
"1971-12-12 18:00","1971","12","12","18:00","1.7","","-1.7","","81","","23","","10","","16.1","","99.11","","","","","","Mostly Cloudy"
"1971-12-12 19:00","1971","12","12","19:00","1.7","","-2.2","","76","","26","","11","","16.1","","99.11","","","","","","Cloudy"
"1971-12-12 20:00","1971","12","12","20:00","1.7","","-1.7","","78","","24","","10","","12.9","","99.06","","","","","","Cloudy"
"1971-12-12 21:00","1971","12","12","21:00","1.1","","-1.1","","84","","24","","8","","11.3","","99.06","","","","","","Cloudy"
"1971-12-12 22:00","1971","12","12","22:00","1.1","","-0.6","","88","","26","","8","","9.7","","99.04","","","","","","Fog"
"1971-12-12 23:00","1971","12","12","23:00","1.1","","-0.6","","90","","26","","11","","9.7","","99.06","","","","","","Fog"
"1971-12-13 00:00","1971","12","13","00:00","1.7","","-0.6","","86","","25","","13","","11.3","","99.09","","","","","","Cloudy"
"1971-12-13 01:00","1971","12","13","01:00","1.1","","-0.6","","89","","26","","13","","11.3","","99.09","","","","","","Cloudy"
"1971-12-13 02:00","1971","12","13","02:00","1.7","","-2.2","","75","","29","","19","","25.0","","99.12","","","","","","Mostly Cloudy"
"1971-12-13 03:00","1971","12","13","03:00","0.6","","-3.3","","74","","29","","19","","25.0","","99.28","","","","","","Mainly Clear"
"1971-12-13 04:00","1971","12","13","04:00","-0.6","","-5.6","","69","","29","","24","","25.0","","99.38","","","","-7","","Mainly Clear"
"1971-12-13 05:00","1971","12","13","05:00","-1.1","","-5.0","","76","","30","","21","","25.0","","99.42","","","","-7","","Mainly Clear"
"1971-12-13 06:00","1971","12","13","06:00","-1.1","","-6.1","","69","","28","","27","","25.0","","99.53","","","","-8","","Mainly Clear"
"1971-12-13 07:00","1971","12","13","07:00","-1.1","","-7.2","","62","","28","","27","","25.0","","99.66","","","","-8","","Mainly Clear"
"1971-12-13 08:00","1971","12","13","08:00","-1.1","","-6.7","","66","","28","","29","","40.2","","99.74","","","","-8","","Mostly Cloudy"
"1971-12-13 09:00","1971","12","13","09:00","-1.1","","-7.2","","63","","28","","32","","40.2","","99.84","","","","-8","","Mostly Cloudy"
"1971-12-13 10:00","1971","12","13","10:00","-0.6","","-6.7","","64","","28","","27","","40.2","","99.94","","","","-7","","Mostly Cloudy"
"1971-12-13 11:00","1971","12","13","11:00","0.0","","-7.2","","59","","29","","29","","40.2","","100.06","","","","-6","","Mostly Cloudy"
"1971-12-13 12:00","1971","12","13","12:00","0.0","","-7.2","","58","","30","","31","","40.2","","100.02","","","","-7","","Mostly Cloudy"
"1971-12-13 13:00","1971","12","13","13:00","0.6","","-7.2","","57","","28","","31","","40.2","","99.98","","","","","","Mostly Cloudy"
"1971-12-13 14:00","1971","12","13","14:00","0.6","","-7.2","","57","","29","","32","","40.2","","100.02","","","","","","Mostly Cloudy"
"1971-12-13 15:00","1971","12","13","15:00","-0.6","","-7.2","","60","","27","","32","","40.2","","100.09","","","","-7","","Mostly Cloudy"
"1971-12-13 16:00","1971","12","13","16:00","-1.1","","-6.7","","64","","29","","29","","32.2","","100.14","","","","-8","","Mainly Clear"
"1971-12-13 17:00","1971","12","13","17:00","-1.7","","-7.2","","66","","29","","23","","32.2","","100.19","","","","-8","","Mainly Clear"
"1971-12-13 18:00","1971","12","13","18:00","-1.7","","-6.7","","69","","28","","13","","25.0","","100.24","","","","-6","","Mostly Cloudy"
"1971-12-13 19:00","1971","12","13","19:00","-1.7","","-6.7","","67","","28","","19","","25.0","","100.28","","","","-7","","Mostly Cloudy"
"1971-12-13 20:00","1971","12","13","20:00","-1.7","","-7.2","","66","","29","","21","","25.0","","100.32","","","","-8","","Cloudy"
"1971-12-13 21:00","1971","12","13","21:00","-1.7","","-6.7","","67","","29","","14","","25.0","","100.36","","","","-6","","Cloudy"
"1971-12-13 22:00","1971","12","13","22:00","-1.7","","-6.1","","72","","29","","14","","25.0","","100.37","","","","-6","","Mostly Cloudy"
"1971-12-13 23:00","1971","12","13","23:00","-1.7","","-7.2","","68","","28","","14","","25.0","","100.41","","","","-6","","Mostly Cloudy"
"1971-12-14 00:00","1971","12","14","00:00","-1.7","","-7.2","","66","","27","","11","","25.0","","100.42","","","","-6","","Mostly Cloudy"
"1971-12-14 01:00","1971","12","14","01:00","-2.8","","-6.7","","76","","27","","8","","25.0","","100.36","","","","-6","","Mostly Cloudy"
"1971-12-14 02:00","1971","12","14","02:00","-3.9","","-6.7","","80","","23","","8","","25.0","","100.40","","","","-7","","Mainly Clear"
"1971-12-14 03:00","1971","12","14","03:00","-4.4","","-7.2","","80","","24","","10","","25.0","","100.43","","","","-9","","Mainly Clear"
"1971-12-14 04:00","1971","12","14","04:00","-4.4","","-7.2","","84","","23","","11","","25.0","","100.41","","","","-9","","Mainly Clear"
"1971-12-14 05:00","1971","12","14","05:00","-5.0","","-7.2","","86","","24","","8","","25.0","","100.39","","","","-9","","Mainly Clear"
"1971-12-14 06:00","1971","12","14","06:00","-5.6","","-7.2","","87","","25","","6","","25.0","","100.33","","","","-8","","Mainly Clear"
"1971-12-14 07:00","1971","12","14","07:00","-5.6","","-7.8","","85","","","","0","","25.0","","100.31","","","","","","Mainly Clear"
"1971-12-14 08:00","1971","12","14","08:00","-5.0","","-7.2","","84","","","","0","","19.3","","100.31","","","","","","Cloudy"
"1971-12-14 09:00","1971","12","14","09:00","-3.3","","-6.1","","84","","","","0","","12.9","","100.32","","","","","","Cloudy"
"1971-12-14 10:00","1971","12","14","10:00","-1.7","","-5.0","","80","","36","","3","","9.7","","100.29","","","","-3","","Smoke,Haze"
"1971-12-14 11:00","1971","12","14","11:00","-1.1","","-5.0","","78","","11","","6","","8.0","","100.17","","","","-3","","Haze"
"1971-12-14 12:00","1971","12","14","12:00","0.0","","-5.0","","69","","14","","23","","12.9","","100.08","","","","-6","","Mostly Cloudy"
"1971-12-14 13:00","1971","12","14","13:00","0.0","","-5.0","","70","","12","","23","","40.2","","99.88","","","","-6","","Cloudy"
"1971-12-14 14:00","1971","12","14","14:00","0.0","","-3.9","","74","","8","","21","","40.2","","99.72","","","","-5","","Cloudy"
"1971-12-14 15:00","1971","12","14","15:00","0.6","","-3.9","","71","","8","","29","","32.2","","99.67","","","","","","Cloudy"
"1971-12-14 16:00","1971","12","14","16:00","1.1","","-4.4","","68","","9","","23","","32.2","","99.70","","","","","","Snow"
"1971-12-14 17:00","1971","12","14","17:00","0.6","","-3.3","","77","","9","","23","","8.0","","99.58","","","","","","Snow"
"1971-12-14 18:00","1971","12","14","18:00","0.0","","-1.7","","87","","8","","21","","8.0","","99.54","","","","-5","","Ice Pellets"
"1971-12-14 19:00","1971","12","14","19:00","0.0","","-0.6","","95","","7","","21","","6.4","","99.55","","","","-5","","Freezing Rain,Fog"
"1971-12-14 20:00","1971","12","14","20:00","0.0","","-0.6","","96","","7","","21","","6.4","","99.56","","","","-5","","Freezing Rain,Fog"
"1971-12-14 21:00","1971","12","14","21:00","0.6","","-0.6","","94","","4","","19","","4.8","","99.58","","","","","","Drizzle,Fog"
"1971-12-14 22:00","1971","12","14","22:00","0.0","","0.0","","100","","5","","24","","4.8","","99.65","","","","-6","","Freezing Drizzle,Fog"
"1971-12-14 23:00","1971","12","14","23:00","-1.1","","-1.7","","95","","7","","19","","6.4","","99.57","","","","-6","","Freezing Drizzle,Fog"
"1971-12-15 00:00","1971","12","15","00:00","-0.6","","-1.1","","96","","6","","19","","6.4","","99.60","","","","-6","","Fog"
"1971-12-15 01:00","1971","12","15","01:00","-0.6","","-1.1","","98","","6","","18","","3.2","","99.55","","","","-6","","Fog"
"1971-12-15 02:00","1971","12","15","02:00","-0.6","","-1.7","","95","","6","","23","","4.8","","99.51","","","","-6","","Freezing Drizzle,Fog"
"1971-12-15 03:00","1971","12","15","03:00","-0.6","","-1.1","","97","","7","","26","","4.8","","99.49","","","","-7","","Freezing Rain,Fog"
"1971-12-15 04:00","1971","12","15","04:00","-0.6","","-1.1","","97","","8","","21","","6.4","","99.38","","","","-6","","Freezing Rain,Fog"
"1971-12-15 05:00","1971","12","15","05:00","0.0","","-1.1","","94","","8","","24","","6.4","","99.28","","","","-6","","Rain,Fog"
"1971-12-15 06:00","1971","12","15","06:00","0.0","","-1.1","","93","","9","","26","","8.0","","99.23","","","","-6","","Rain,Fog"
"1971-12-15 07:00","1971","12","15","07:00","0.0","","-0.6","","96","","8","","23","","8.0","","99.06","","","","-6","","Rain,Fog"
"1971-12-15 08:00","1971","12","15","08:00","0.0","","-0.6","","94","","7","","23","","3.2","","98.92","","","","-6","","Moderate Rain,Fog"
"1971-12-15 09:00","1971","12","15","09:00","0.0","","-0.6","","94","","8","","21","","2.4","","98.76","","","","-5","","Moderate Rain,Fog"
"1971-12-15 10:00","1971","12","15","10:00","0.6","","0.0","","97","","9","","26","","8.0","","98.56","","","","","","Rain,Fog"
"1971-12-15 11:00","1971","12","15","11:00","1.1","","1.1","","98","","7","","32","","2.0","","98.28","","","","","","Rain,Fog"
"1971-12-15 12:00","1971","12","15","12:00","2.2","","-0.6","","81","","8","","26","","0.4","","98.01","","","","","","Fog"
"1971-12-15 13:00","1971","12","15","13:00","3.3","","3.3","","100","","7","","32","","0.8","","97.60","","","","","","Rain Showers,Fog"
"1971-12-15 14:00","1971","12","15","14:00","3.9","","3.9","","98","","8","","23","","1.6","","97.56","","","","","","Moderate Rain Showers,Fog"
"1971-12-15 15:00","1971","12","15","15:00","5.0","","5.0","","98","","7","","34","","2.0","","97.11","","","","","","Fog"
"1971-12-15 16:00","1971","12","15","16:00","6.1","","6.1","","99","","25","","3","","1.0","","97.11","","","","","","Heavy Rain Showers,Fog"
"1971-12-15 17:00","1971","12","15","17:00","8.3","","7.2","","91","","21","","27","","8.0","","97.20","","","","","","Rain,Fog"
"1971-12-15 18:00","1971","12","15","18:00","9.4","","7.8","","91","","22","","32","","8.0","","97.18","","","","","","Rain,Fog"
"1971-12-15 19:00","1971","12","15","19:00","9.4","","8.3","","92","","22","","39","","8.0","","97.30","","","","","","Rain,Fog"
"1971-12-15 20:00","1971","12","15","20:00","9.4","","7.2","","89","","25","","32","","8.0","","97.45","","","","","","Rain Showers,Fog"
"1971-12-15 21:00","1971","12","15","21:00","8.9","","6.1","","84","","23","","32","","25.0","","97.65","","","","","","Cloudy"
"1971-12-15 22:00","1971","12","15","22:00","8.3","","6.1","","85","","23","","43","","25.0","","97.80","","","","","","Cloudy"
"1971-12-15 23:00","1971","12","15","23:00","8.3","","5.0","","81","","24","","40","","24.1","","97.93","","","","","","Cloudy"
"1971-12-16 00:00","1971","12","16","00:00","7.8","","5.0","","83","","23","","35","","24.1","","98.08","","","","","","Cloudy"
"1971-12-16 01:00","1971","12","16","01:00","7.2","","4.4","","83","","24","","35","","25.0","","98.17","","","","","","Cloudy"
"1971-12-16 02:00","1971","12","16","02:00","6.7","","3.9","","82","","23","","24","","25.0","","98.25","","","","","","Cloudy"
"1971-12-16 03:00","1971","12","16","03:00","7.2","","3.3","","77","","24","","31","","25.0","","98.33","","","","","","Cloudy"
"1971-12-16 04:00","1971","12","16","04:00","6.7","","3.3","","79","","23","","32","","25.0","","98.35","","","","","","Cloudy"
"1971-12-16 05:00","1971","12","16","05:00","6.1","","1.7","","73","","24","","40","","25.0","","98.35","","","","","","Mostly Cloudy"
"1971-12-16 06:00","1971","12","16","06:00","5.0","","0.6","","74","","23","","32","","25.0","","98.41","","","","","","Mainly Clear"
"1971-12-16 07:00","1971","12","16","07:00","4.4","","0.0","","73","","25","","27","","25.0","","98.49","","","","","","Mainly Clear"
"1971-12-16 08:00","1971","12","16","08:00","3.9","","-0.6","","73","","24","","32","","25.0","","98.59","","","","","","Mostly Cloudy"
"1971-12-16 09:00","1971","12","16","09:00","4.4","","-0.6","","70","","24","","37","","19.3","","98.67","","","","","","Mostly Cloudy"
"1971-12-16 10:00","1971","12","16","10:00","4.4","","-0.6","","70","","25","","35","","24.1","","98.76","","","","","","Mostly Cloudy"
"1971-12-16 11:00","1971","12","16","11:00","4.4","","-0.6","","70","","25","","42","","32.2","","98.82","","","","","","Mostly Cloudy"
"1971-12-16 12:00","1971","12","16","12:00","4.4","","-1.1","","70","","26","","34","","32.2","","98.86","","","","","","Mostly Cloudy"
"1971-12-16 13:00","1971","12","16","13:00","3.9","","0.0","","74","","25","","35","","32.2","","98.90","","","","","","Mostly Cloudy"
"1971-12-16 14:00","1971","12","16","14:00","3.9","","-1.1","","69","","25","","35","","40.2","","98.95","","","","","","Cloudy"
"1971-12-16 15:00","1971","12","16","15:00","3.9","","-1.7","","69","","26","","32","","40.2","","99.05","","","","","","Mostly Cloudy"
"1971-12-16 16:00","1971","12","16","16:00","3.3","","-1.7","","71","","26","","21","","40.2","","99.13","","","","","","Mostly Cloudy"
"1971-12-16 17:00","1971","12","16","17:00","2.2","","-2.2","","73","","26","","19","","24.1","","99.20","","","","","","Cloudy"
"1971-12-16 18:00","1971","12","16","18:00","2.2","","-1.7","","75","","26","","21","","25.0","","99.23","","","","","","Cloudy"
"1971-12-16 19:00","1971","12","16","19:00","2.2","","-1.7","","74","","26","","24","","24.1","","99.23","","","","","","Cloudy"
"1971-12-16 20:00","1971","12","16","20:00","1.7","","-1.7","","78","","26","","18","","24.1","","99.28","","","","","","Cloudy"
"1971-12-16 21:00","1971","12","16","21:00","1.7","","-2.2","","76","","25","","16","","24.1","","99.26","","","","","","Cloudy"
"1971-12-16 22:00","1971","12","16","22:00","1.7","","-2.2","","78","","26","","18","","24.1","","99.26","","","","","","Mostly Cloudy"
"1971-12-16 23:00","1971","12","16","23:00","1.1","","-2.8","","77","","26","","10","","25.0","","99.26","","","","","","Mainly Clear"
"1971-12-17 00:00","1971","12","17","00:00","0.6","","-2.8","","79","","26","","10","","25.0","","99.26","","","","","","Mostly Cloudy"
"1971-12-17 01:00","1971","12","17","01:00","-0.6","","-2.8","","86","","23","","11","","25.0","","99.20","","","","-4","","Clear"
"1971-12-17 02:00","1971","12","17","02:00","-1.1","","-3.3","","85","","24","","13","","25.0","","99.22","","","","-5","","Clear"
"1971-12-17 03:00","1971","12","17","03:00","-1.7","","-3.3","","88","","23","","10","","25.0","","99.21","","","","-5","","Clear"
"1971-12-17 04:00","1971","12","17","04:00","-1.7","","-3.3","","87","","22","","11","","25.0","","99.16","","","","-6","","Clear"
"1971-12-17 05:00","1971","12","17","05:00","-1.7","","-3.9","","84","","20","","10","","25.0","","99.12","","","","-5","","Mainly Clear"
"1971-12-17 06:00","1971","12","17","06:00","-1.7","","-3.9","","87","","22","","13","","24.1","","99.11","","","","-6","","Mostly Cloudy"
"1971-12-17 07:00","1971","12","17","07:00","-1.7","","-3.9","","87","","22","","13","","24.1","","99.07","","","","-6","","Mostly Cloudy"
"1971-12-17 08:00","1971","12","17","08:00","-1.1","","-3.9","","81","","22","","14","","24.1","","99.05","","","","-6","","Cloudy"
"1971-12-17 09:00","1971","12","17","09:00","-0.6","","-4.4","","76","","23","","11","","24.1","","99.01","","","","-4","","Cloudy"
"1971-12-17 10:00","1971","12","17","10:00","0.0","","-3.3","","77","","18","","10","","24.1","","98.91","","","","-3","","Cloudy"
"1971-12-17 11:00","1971","12","17","11:00","-1.1","","-1.7","","96","","18","","8","","1.6","","98.83","","","","-4","","Snow Showers"
"1971-12-17 12:00","1971","12","17","12:00","0.0","","-1.7","","89","","16","","11","","11.3","","98.65","","","","-4","","Cloudy"
"1971-12-17 13:00","1971","12","17","13:00","0.6","","-1.1","","87","","21","","23","","4.8","","98.53","","","","","","Snow Showers"
"1971-12-17 14:00","1971","12","17","14:00","-0.6","","-3.3","","81","","26","","40","","24.1","","98.53","","","","-8","","Mostly Cloudy"
"1971-12-17 15:00","1971","12","17","15:00","-0.6","","-4.4","","76","","26","","37","","32.2","","98.54","","","","-8","","Mostly Cloudy"
"1971-12-17 16:00","1971","12","17","16:00","-2.2","","-7.2","","67","","26","","35","","32.2","","98.61","","","","-10","","Mostly Cloudy"
"1971-12-17 17:00","1971","12","17","17:00","-3.3","","-7.2","","73","","26","","24","","32.2","","98.64","","","","-10","","Mainly Clear"
"1971-12-17 18:00","1971","12","17","18:00","-3.9","","-8.9","","67","","25","","24","","25.0","","98.65","","","","-11","","Mainly Clear"
"1971-12-17 19:00","1971","12","17","19:00","-4.4","","-10.0","","67","","26","","24","","25.0","","98.63","","","","-11","","Mainly Clear"
"1971-12-17 20:00","1971","12","17","20:00","-5.0","","-10.0","","68","","27","","34","","25.0","","98.58","","","","-13","","Mainly Clear"
"1971-12-17 21:00","1971","12","17","21:00","-5.6","","-9.4","","72","","25","","32","","25.0","","98.53","","","","-14","","Mainly Clear"
"1971-12-17 22:00","1971","12","17","22:00","-5.6","","-9.4","","75","","23","","24","","25.0","","98.52","","","","-13","","Mainly Clear"
"1971-12-17 23:00","1971","12","17","23:00","-5.6","","-8.9","","77","","24","","23","","25.0","","98.52","","","","-13","","Mainly Clear"
"1971-12-18 00:00","1971","12","18","00:00","-5.0","","-7.2","","82","","29","","21","","19.3","","98.55","","","","-12","","Mostly Cloudy"
"1971-12-18 01:00","1971","12","18","01:00","-4.4","","-7.8","","79","","31","","35","","24.1","","98.63","","","","-13","","Cloudy"
"1971-12-18 02:00","1971","12","18","02:00","-5.6","","-7.8","","85","","33","","40","","3.2","","98.84","","","","-15","","Snow Showers"
"1971-12-18 03:00","1971","12","18","03:00","-7.2","","-10.6","","79","","33","","32","","25.0","","99.13","","","","-16","","Mainly Clear"
"1971-12-18 04:00","1971","12","18","04:00","-8.3","","-12.2","","73","","32","","26","","25.0","","99.29","","","","-17","","Mainly Clear"
"1971-12-18 05:00","1971","12","18","05:00","-8.9","","-12.2","","76","","32","","23","","25.0","","99.41","","","","-17","","Clear"
"1971-12-18 06:00","1971","12","18","06:00","-8.9","","-11.7","","82","","32","","19","","25.0","","99.55","","","","-16","","Mainly Clear"
"1971-12-18 07:00","1971","12","18","07:00","-8.9","","-11.7","","80","","32","","26","","25.0","","99.69","","","","-18","","Snow Showers"
"1971-12-18 08:00","1971","12","18","08:00","-10.0","","-13.3","","80","","32","","29","","32.2","","99.81","","","","-19","","Mainly Clear"
"1971-12-18 09:00","1971","12","18","09:00","-10.0","","-13.9","","75","","32","","29","","32.2","","99.93","","","","-19","","Mainly Clear"
"1971-12-18 10:00","1971","12","18","10:00","-9.4","","-13.3","","74","","31","","19","","32.2","","100.05","","","","-17","","Mainly Clear"
"1971-12-18 11:00","1971","12","18","11:00","-8.3","","-12.8","","70","","32","","24","","32.2","","100.16","","","","-16","","Mainly Clear"
"1971-12-18 12:00","1971","12","18","12:00","-7.8","","-12.2","","71","","33","","24","","32.2","","100.15","","","","-16","","Mainly Clear"
"1971-12-18 13:00","1971","12","18","13:00","-6.7","","-10.6","","74","","30","","21","","24.1","","100.14","","","","-14","","Mainly Clear"
"1971-12-18 14:00","1971","12","18","14:00","-6.7","","-10.0","","76","","32","","21","","32.2","","100.16","","","","-14","","Mainly Clear"
"1971-12-18 15:00","1971","12","18","15:00","-6.7","","-11.7","","68","","31","","26","","32.2","","100.21","","","","-15","","Mainly Clear"
"1971-12-18 16:00","1971","12","18","16:00","-7.2","","-12.8","","64","","30","","23","","32.2","","100.25","","","","-15","","Mainly Clear"
"1971-12-18 17:00","1971","12","18","17:00","-8.9","","-13.9","","67","","31","","13","","32.2","","100.25","","","","-15","","Mainly Clear"
"1971-12-18 18:00","1971","12","18","18:00","-9.4","","-13.9","","70","","30","","13","","25.0","","100.31","","","","-15","","Mostly Cloudy"
"1971-12-18 19:00","1971","12","18","19:00","-9.4","","-13.9","","69","","26","","8","","25.0","","100.37","","","","-14","","Mostly Cloudy"
"1971-12-18 20:00","1971","12","18","20:00","-8.9","","-12.8","","74","","24","","10","","25.0","","100.36","","","","-14","","Cloudy"
"1971-12-18 21:00","1971","12","18","21:00","-8.9","","-12.2","","78","","22","","6","","25.0","","100.33","","","","-12","","Cloudy"
"1971-12-18 22:00","1971","12","18","22:00","-8.9","","-12.2","","78","","24","","5","","25.0","","100.33","","","","-12","","Mostly Cloudy"
"1971-12-18 23:00","1971","12","18","23:00","-7.8","","-12.2","","72","","25","","2","","25.0","","100.33","","","","-9","","Snow Showers"
"1971-12-19 00:00","1971","12","19","00:00","-7.8","","-11.7","","76","","","","0","","25.0","","100.21","","","","","","Mostly Cloudy"
"1971-12-19 01:00","1971","12","19","01:00","-7.2","","-11.7","","73","","","","0","","25.0","","100.13","","","","","","Cloudy"
"1971-12-19 02:00","1971","12","19","02:00","-7.2","","-10.6","","77","","6","","5","","4.8","","100.08","","","","-10","","Snow"
"1971-12-19 03:00","1971","12","19","03:00","-7.2","","-9.4","","83","","11","","8","","2.4","","100.09","","","","-11","","Snow"
"1971-12-19 04:00","1971","12","19","04:00","-6.1","","-7.8","","88","","8","","10","","3.6","","99.97","","","","-11","","Snow"
"1971-12-19 05:00","1971","12","19","05:00","-6.1","","-7.2","","91","","7","","13","","2.0","","99.83","","","","-11","","Snow"
"1971-12-19 06:00","1971","12","19","06:00","-5.0","","-6.1","","93","","4","","11","","3.6","","99.75","","","","-10","","Snow"
"1971-12-19 07:00","1971","12","19","07:00","-6.1","","-7.2","","92","","4","","13","","2.0","","99.73","","","","-11","","Snow"
"1971-12-19 08:00","1971","12","19","08:00","-6.1","","-7.8","","89","","5","","13","","1.6","","99.65","","","","-11","","Snow"
"1971-12-19 09:00","1971","12","19","09:00","-5.6","","-6.7","","92","","7","","11","","1.6","","99.60","","","","-10","","Snow"
"1971-12-19 10:00","1971","12","19","10:00","-3.3","","-4.4","","93","","14","","18","","2.4","","99.49","","","","-9","","Snow"
"1971-12-19 11:00","1971","12","19","11:00","-2.2","","-3.9","","91","","15","","18","","3.6","","99.37","","","","-8","","Snow"
"1971-12-19 12:00","1971","12","19","12:00","-2.2","","-3.3","","91","","15","","14","","1.2","","99.23","","","","-7","","Snow"
"1971-12-19 13:00","1971","12","19","13:00","-1.7","","-2.8","","93","","14","","14","","2.4","","99.06","","","","-6","","Snow"
"1971-12-19 14:00","1971","12","19","14:00","-1.7","","-2.8","","92","","12","","19","","2.4","","98.99","","","","-7","","Snow"
"1971-12-19 15:00","1971","12","19","15:00","-1.7","","-2.8","","92","","12","","16","","1.2","","98.95","","","","-7","","Snow"
"1971-12-19 16:00","1971","12","19","16:00","-1.7","","-2.2","","97","","12","","18","","2.0","","98.91","","","","-7","","Snow"
"1971-12-19 17:00","1971","12","19","17:00","-1.1","","-2.8","","89","","12","","23","","6.4","","98.88","","","","-7","","Fog"
"1971-12-19 18:00","1971","12","19","18:00","-0.6","","-2.8","","86","","12","","23","","16.1","","98.90","","","","-6","","Cloudy"
"1971-12-19 19:00","1971","12","19","19:00","0.0","","-1.7","","86","","12","","13","","16.1","","98.85","","","","-4","","Cloudy"
"1971-12-19 20:00","1971","12","19","20:00","0.6","","-2.8","","78","","16","","11","","16.1","","98.85","","","","","","Cloudy"
"1971-12-19 21:00","1971","12","19","21:00","0.6","","-2.8","","79","","14","","11","","16.1","","98.79","","","","","","Cloudy"
"1971-12-19 22:00","1971","12","19","22:00","0.6","","-2.8","","79","","18","","10","","16.1","","98.79","","","","","","Cloudy"
"1971-12-19 23:00","1971","12","19","23:00","1.1","","-2.8","","76","","19","","16","","19.3","","98.78","","","","","","Cloudy"
"1971-12-20 00:00","1971","12","20","00:00","1.1","","-2.2","","78","","19","","14","","19.3","","98.71","","","","","","Cloudy"
"1971-12-20 01:00","1971","12","20","01:00","1.7","","0.0","","90","","19","","19","","19.3","","98.66","","","","","","Rain"
"1971-12-20 02:00","1971","12","20","02:00","1.7","","0.6","","92","","19","","14","","11.3","","98.67","","","","","","Rain"
"1971-12-20 03:00","1971","12","20","03:00","1.7","","0.0","","91","","19","","11","","19.3","","98.66","","","","","","Rain"
"1971-12-20 04:00","1971","12","20","04:00","1.1","","0.0","","93","","18","","11","","16.1","","98.60","","","","","","Rain"
"1971-12-20 05:00","1971","12","20","05:00","1.1","","0.0","","93","","15","","6","","12.9","","98.55","","","","","","Rain"
"1971-12-20 06:00","1971","12","20","06:00","1.1","","0.0","","94","","15","","8","","11.3","","98.56","","","","","","Rain,Snow"
"1971-12-20 07:00","1971","12","20","07:00","1.1","","0.0","","94","","15","","10","","8.0","","98.58","","","","","","Snow"
"1971-12-20 08:00","1971","12","20","08:00","1.1","","0.6","","96","","16","","8","","4.8","","98.61","","","","","","Snow"
"1971-12-20 09:00","1971","12","20","09:00","1.1","","0.0","","94","","17","","10","","4.8","","98.64","","","","","","Fog"
"1971-12-20 10:00","1971","12","20","10:00","1.1","","0.6","","94","","18","","6","","4.8","","98.67","","","","","","Fog"
"1971-12-20 11:00","1971","12","20","11:00","1.7","","0.6","","92","","20","","5","","8.0","","98.67","","","","","","Fog"
"1971-12-20 12:00","1971","12","20","12:00","1.7","","0.0","","89","","19","","10","","9.7","","98.67","","","","","","Fog"
"1971-12-20 13:00","1971","12","20","13:00","1.7","","0.0","","89","","23","","11","","9.7","","98.65","","","","","","Fog"
"1971-12-20 14:00","1971","12","20","14:00","2.2","","0.0","","88","","20","","8","","12.9","","98.64","","","","","","Cloudy"
"1971-12-20 15:00","1971","12","20","15:00","2.2","","0.0","","87","","22","","10","","9.7","","98.66","","","","","","Fog"
"1971-12-20 16:00","1971","12","20","16:00","1.7","","0.0","","89","","22","","8","","6.4","","98.74","","","","","","Fog"
"1971-12-20 17:00","1971","12","20","17:00","1.7","","0.0","","89","","20","","8","","6.4","","98.79","","","","","","Fog"
"1971-12-20 18:00","1971","12","20","18:00","1.1","","0.0","","93","","21","","8","","6.4","","98.86","","","","","","Fog"
"1971-12-20 19:00","1971","12","20","19:00","1.1","","0.0","","93","","21","","8","","6.4","","98.92","","","","","","Fog"
"1971-12-20 20:00","1971","12","20","20:00","1.7","","0.0","","92","","19","","11","","6.4","","98.97","","","","","","Fog"
"1971-12-20 21:00","1971","12","20","21:00","1.1","","0.0","","92","","19","","11","","4.8","","98.97","","","","","","Fog"
"1971-12-20 22:00","1971","12","20","22:00","1.1","","0.0","","92","","21","","11","","4.8","","99.01","","","","","","Fog"
"1971-12-20 23:00","1971","12","20","23:00","1.1","","0.0","","92","","21","","6","","4.8","","99.04","","","","","","Fog"
"1971-12-21 00:00","1971","12","21","00:00","1.1","","0.0","","92","","20","","13","","6.4","","99.05","","","","","","Fog"
"1971-12-21 01:00","1971","12","21","01:00","1.1","","-0.6","","89","","22","","11","","11.3","","99.05","","","","","","Mostly Cloudy"
"1971-12-21 02:00","1971","12","21","02:00","1.7","","-1.1","","83","","24","","8","","16.1","","99.12","","","","","","Cloudy"
"1971-12-21 03:00","1971","12","21","03:00","1.7","","-2.2","","76","","24","","16","","16.1","","99.17","","","","","","Mostly Cloudy"
"1971-12-21 04:00","1971","12","21","04:00","1.1","","-1.7","","83","","21","","8","","19.3","","99.18","","","","","","Cloudy"
"1971-12-21 05:00","1971","12","21","05:00","1.1","","-1.7","","82","","17","","8","","16.1","","99.18","","","","","","Cloudy"
"1971-12-21 06:00","1971","12","21","06:00","0.6","","-1.1","","89","","18","","8","","11.3","","99.22","","","","","","Cloudy"
"1971-12-21 07:00","1971","12","21","07:00","0.6","","-1.1","","88","","19","","13","","11.3","","99.29","","","","","","Mostly Cloudy"
"1971-12-21 08:00","1971","12","21","08:00","1.1","","-0.6","","88","","21","","11","","9.7","","99.30","","","","","","Fog"
"1971-12-21 09:00","1971","12","21","09:00","1.7","","-0.6","","86","","20","","11","","6.4","","99.37","","","","","","Fog"
"1971-12-21 10:00","1971","12","21","10:00","1.7","","-0.6","","85","","24","","11","","6.4","","99.48","","","","","","Fog"
"1971-12-21 11:00","1971","12","21","11:00","2.2","","-2.2","","72","","28","","32","","12.9","","99.54","","","","","","Cloudy"
"1971-12-21 12:00","1971","12","21","12:00","2.2","","-1.7","","77","","28","","26","","16.1","","99.57","","","","","","Cloudy"
"1971-12-21 13:00","1971","12","21","13:00","1.7","","-2.8","","72","","29","","26","","40.2","","99.60","","","","","","Mostly Cloudy"
"1971-12-21 14:00","1971","12","21","14:00","2.2","","-3.3","","67","","29","","27","","40.2","","99.68","","","","","","Mostly Cloudy"
"1971-12-21 15:00","1971","12","21","15:00","1.7","","-3.9","","67","","27","","23","","40.2","","99.78","","","","","","Mostly Cloudy"
"1971-12-21 16:00","1971","12","21","16:00","1.7","","-4.4","","64","","28","","31","","40.2","","99.92","","","","","","Mostly Cloudy"
"1971-12-21 17:00","1971","12","21","17:00","0.6","","-5.0","","66","","26","","21","","32.2","","100.02","","","","","","Mostly Cloudy"
"1971-12-21 18:00","1971","12","21","18:00","-0.6","","-5.0","","71","","26","","19","","25.0","","100.14","","","","-6","","Mainly Clear"
"1971-12-21 19:00","1971","12","21","19:00","-1.1","","-5.6","","72","","25","","18","","25.0","","100.23","","","","-6","","Mainly Clear"
"1971-12-21 20:00","1971","12","21","20:00","-1.1","","-5.6","","71","","28","","32","","25.0","","100.37","","","","-8","","Mainly Clear"
"1971-12-21 21:00","1971","12","21","21:00","-2.2","","-6.7","","72","","30","","32","","25.0","","100.53","","","","-10","","Mainly Clear"
"1971-12-21 22:00","1971","12","21","22:00","-3.3","","-6.7","","76","","29","","32","","25.0","","100.73","","","","-11","","Mostly Cloudy"
"1971-12-21 23:00","1971","12","21","23:00","-3.9","","-7.8","","73","","29","","23","","25.0","","100.91","","","","-11","","Mostly Cloudy"
"1971-12-22 00:00","1971","12","22","00:00","-5.0","","-8.9","","75","","31","","29","","25.0","","101.10","","","","-13","","Mainly Clear"
"1971-12-22 01:00","1971","12","22","01:00","-5.6","","-11.1","","65","","29","","27","","25.0","","101.24","","","","-13","","Mainly Clear"
"1971-12-22 02:00","1971","12","22","02:00","-6.1","","-13.9","","55","","29","","35","","25.0","","101.37","","","","-15","","Mainly Clear"
"1971-12-22 03:00","1971","12","22","03:00","-7.8","","-15.0","","57","","29","","27","","25.0","","101.54","","","","-16","","Clear"
"1971-12-22 04:00","1971","12","22","04:00","-8.3","","-14.4","","61","","29","","26","","25.0","","101.65","","","","-17","","Clear"
"1971-12-22 05:00","1971","12","22","05:00","-8.9","","-15.0","","61","","29","","24","","25.0","","101.76","","","","-17","","Clear"
"1971-12-22 06:00","1971","12","22","06:00","-9.4","","-15.0","","64","","29","","24","","25.0","","101.84","","","","-18","","Clear"
"1971-12-22 07:00","1971","12","22","07:00","-10.0","","-15.6","","64","","28","","16","","25.0","","101.97","","","","-17","","Mainly Clear"
"1971-12-22 08:00","1971","12","22","08:00","-10.6","","-15.0","","69","","29","","21","","40.2","","102.00","","","","-19","","Mainly Clear"
"1971-12-22 09:00","1971","12","22","09:00","-9.4","","-15.6","","63","","27","","16","","40.2","","102.17","","","","-16","","Mainly Clear"
"1971-12-22 10:00","1971","12","22","10:00","-8.3","","-14.4","","60","","28","","14","","40.2","","102.32","","","","-14","","Mainly Clear"
"1971-12-22 11:00","1971","12","22","11:00","-7.2","","-12.8","","63","","35","","11","","40.2","","102.33","","","","-12","","Mainly Clear"
"1971-12-22 12:00","1971","12","22","12:00","-5.6","","-12.2","","61","","33","","18","","40.2","","102.32","","","","-12","","Mainly Clear"
"1971-12-22 13:00","1971","12","22","13:00","-6.1","","-12.8","","58","","33","","5","","40.2","","102.30","","","","-9","","Mainly Clear"
"1971-12-22 14:00","1971","12","22","14:00","-5.0","","-11.1","","62","","24","","5","","40.2","","102.31","","","","-7","","Mainly Clear"
"1971-12-22 15:00","1971","12","22","15:00","-4.4","","-9.4","","67","","","","0","","40.2","","102.28","","","","","","Mainly Clear"
"1971-12-22 16:00","1971","12","22","16:00","-4.4","","-11.1","","60","","","","0","","40.2","","102.29","","","","","","Mainly Clear"
"1971-12-22 17:00","1971","12","22","17:00","-6.1","","-12.2","","62","","35","","5","","32.2","","102.33","","","","-9","","Mainly Clear"
"1971-12-22 18:00","1971","12","22","18:00","-7.8","","-12.2","","69","","2","","6","","25.0","","102.32","","","","-11","","Mainly Clear"
"1971-12-22 19:00","1971","12","22","19:00","-8.3","","-12.2","","73","","36","","8","","25.0","","102.37","","","","-12","","Mainly Clear"
"1971-12-22 20:00","1971","12","22","20:00","-8.9","","-12.2","","76","","34","","3","","25.0","","102.32","","","","-11","","Mainly Clear"
"1971-12-22 21:00","1971","12","22","21:00","-10.6","","-13.3","","82","","33","","5","","24.1","","102.26","","","","-14","","Mainly Clear"
"1971-12-22 22:00","1971","12","22","22:00","-9.4","","-12.2","","79","","1","","5","","19.3","","102.14","","","","-12","","Mainly Clear"
"1971-12-22 23:00","1971","12","22","23:00","-10.0","","-12.2","","83","","35","","5","","19.3","","102.10","","","","-13","","Mainly Clear"
"1971-12-23 00:00","1971","12","23","00:00","-12.2","","-14.4","","82","","","","0","","19.3","","102.02","","","","","","Mainly Clear"
"1971-12-23 01:00","1971","12","23","01:00","-11.1","","-13.3","","85","","27","","5","","19.3","","101.94","","","","-14","","Mainly Clear"
"1971-12-23 02:00","1971","12","23","02:00","-10.0","","-11.7","","86","","","","0","","19.3","","101.86","","","","","","Mostly Cloudy"
"1971-12-23 03:00","1971","12","23","03:00","-7.2","","-10.0","","79","","11","","13","","19.3","","101.77","","","","-13","","Mostly Cloudy"
"1971-12-23 04:00","1971","12","23","04:00","-4.4","","-9.4","","67","","12","","13","","25.0","","101.71","","","","-9","","Mainly Clear"
"1971-12-23 05:00","1971","12","23","05:00","-2.8","","-8.3","","67","","12","","13","","25.0","","101.66","","","","-7","","Mostly Cloudy"
"1971-12-23 06:00","1971","12","23","06:00","-3.3","","-7.2","","75","","12","","13","","25.0","","101.62","","","","-8","","Mostly Cloudy"
"1971-12-23 07:00","1971","12","23","07:00","-3.9","","-6.7","","79","","11","","14","","25.0","","101.51","","","","-9","","Mostly Cloudy"
"1971-12-23 08:00","1971","12","23","08:00","-3.3","","-8.3","","69","","12","","16","","24.1","","101.40","","","","-9","","Mostly Cloudy"
"1971-12-23 09:00","1971","12","23","09:00","-2.2","","-6.7","","71","","14","","11","","24.1","","101.35","","","","-6","","Mostly Cloudy"
"1971-12-23 10:00","1971","12","23","10:00","-1.1","","-5.6","","69","","14","","19","","24.1","","101.26","","","","-6","","Cloudy"
"1971-12-23 11:00","1971","12","23","11:00","-0.6","","-5.0","","72","","15","","14","","19.3","","101.16","","","","-5","","Cloudy"
"1971-12-23 12:00","1971","12","23","12:00","0.6","","-3.9","","72","","14","","14","","12.9","","100.99","","","","","","Cloudy"
"1971-12-23 13:00","1971","12","23","13:00","1.1","","-3.3","","72","","15","","14","","11.3","","100.86","","","","","","Cloudy"
"1971-12-23 14:00","1971","12","23","14:00","1.7","","-2.8","","71","","14","","13","","12.9","","100.70","","","","","","Cloudy"
"1971-12-23 15:00","1971","12","23","15:00","2.2","","-3.3","","66","","15","","11","","16.1","","100.60","","","","","","Cloudy"
"1971-12-23 16:00","1971","12","23","16:00","3.3","","-5.6","","53","","16","","18","","19.3","","100.53","","","","","","Cloudy"
"1971-12-23 17:00","1971","12","23","17:00","3.3","","-5.6","","53","","16","","13","","19.3","","100.40","","","","","","Cloudy"
"1971-12-23 18:00","1971","12","23","18:00","3.3","","-4.4","","57","","17","","13","","19.3","","100.39","","","","","","Cloudy"
"1971-12-23 19:00","1971","12","23","19:00","3.3","","-3.3","","62","","15","","10","","16.1","","100.34","","","","","","Cloudy"
"1971-12-23 20:00","1971","12","23","20:00","3.9","","-3.3","","60","","16","","13","","19.3","","100.25","","","","","","Cloudy"
"1971-12-23 21:00","1971","12","23","21:00","4.4","","-3.9","","56","","17","","19","","19.3","","100.08","","","","","","Cloudy"
"1971-12-23 22:00","1971","12","23","22:00","5.0","","-5.0","","49","","17","","19","","19.3","","100.01","","","","","","Cloudy"
"1971-12-23 23:00","1971","12","23","23:00","4.4","","-4.4","","53","","17","","21","","24.1","","99.93","","","","","","Cloudy"
"1971-12-24 00:00","1971","12","24","00:00","5.0","","-4.4","","52","","19","","27","","24.1","","99.80","","","","","","Cloudy"
"1971-12-24 01:00","1971","12","24","01:00","5.6","","-3.3","","54","","18","","23","","25.0","","99.63","","","","","","Cloudy"
"1971-12-24 02:00","1971","12","24","02:00","5.6","","-2.2","","57","","19","","18","","25.0","","99.52","","","","","","Cloudy"
"1971-12-24 03:00","1971","12","24","03:00","6.1","","-1.7","","58","","20","","29","","25.0","","99.44","","","","","","Cloudy"
"1971-12-24 04:00","1971","12","24","04:00","6.1","","1.1","","70","","21","","27","","25.0","","99.29","","","","","","Cloudy"
"1971-12-24 05:00","1971","12","24","05:00","5.6","","2.8","","82","","21","","21","","16.1","","99.19","","","","","","Rain Showers"
"1971-12-24 06:00","1971","12","24","06:00","5.6","","2.8","","82","","21","","29","","16.1","","99.12","","","","","","Cloudy"
"1971-12-24 07:00","1971","12","24","07:00","5.0","","2.8","","85","","21","","24","","16.1","","99.12","","","","","","Cloudy"
"1971-12-24 08:00","1971","12","24","08:00","5.6","","3.3","","85","","22","","23","","16.1","","99.09","","","","","","Cloudy"
"1971-12-24 09:00","1971","12","24","09:00","5.0","","3.9","","91","","22","","21","","8.0","","99.09","","","","","","Fog"
"1971-12-24 10:00","1971","12","24","10:00","5.6","","2.2","","81","","24","","23","","9.7","","99.15","","","","","","Rain Showers,Fog"
"1971-12-24 11:00","1971","12","24","11:00","4.4","","2.2","","89","","24","","16","","8.0","","99.18","","","","","","Rain,Fog"
"1971-12-24 12:00","1971","12","24","12:00","3.9","","2.2","","88","","26","","18","","16.1","","99.14","","","","","","Cloudy"
"1971-12-24 13:00","1971","12","24","13:00","4.4","","0.6","","78","","27","","37","","12.9","","99.14","","","","","","Cloudy"
"1971-12-24 14:00","1971","12","24","14:00","4.4","","0.0","","74","","27","","34","","19.3","","99.19","","","","","","Mostly Cloudy"
"1971-12-24 15:00","1971","12","24","15:00","4.4","","0.6","","78","","28","","37","","19.3","","99.28","","","","","","Rain Showers"
"1971-12-24 16:00","1971","12","24","16:00","3.9","","0.6","","77","","28","","39","","19.3","","99.35","","","","","","Mostly Cloudy"
"1971-12-24 17:00","1971","12","24","17:00","3.3","","-0.6","","75","","27","","27","","24.1","","99.42","","","","","","Mostly Cloudy"
"1971-12-24 18:00","1971","12","24","18:00","2.8","","0.0","","83","","29","","26","","19.3","","99.59","","","","","","Rain Showers"
"1971-12-24 19:00","1971","12","24","19:00","2.2","","-0.6","","82","","27","","24","","19.3","","99.71","","","","","","Rain Showers"
"1971-12-24 20:00","1971","12","24","20:00","2.8","","-2.2","","70","","30","","40","","24.1","","99.83","","","","","","Rain Showers"
"1971-12-24 21:00","1971","12","24","21:00","0.6","","-5.0","","64","","30","","50","","25.0","","100.05","","","","","","Mostly Cloudy"
"1971-12-24 22:00","1971","12","24","22:00","-0.6","","-6.7","","62","","30","","43","","25.0","","100.18","","","","-8","","Mostly Cloudy"
"1971-12-24 23:00","1971","12","24","23:00","-1.7","","-8.9","","59","","30","","47","","25.0","","100.29","","","","-10","","Mainly Clear"
"1971-12-25 00:00","1971","12","25","00:00","-3.3","","-10.0","","60","","31","","39","","25.0","","100.40","","","","-12","","Mainly Clear"
"1971-12-25 01:00","1971","12","25","01:00","-4.4","","-10.0","","65","","33","","27","","25.0","","100.55","","","","-12","","Mainly Clear"
"1971-12-25 02:00","1971","12","25","02:00","-5.6","","-10.0","","72","","32","","31","","25.0","","100.73","","","","-14","","Mainly Clear"
"1971-12-25 03:00","1971","12","25","03:00","-6.1","","-10.6","","71","","32","","23","","25.0","","100.88","","","","-13","","Mostly Cloudy"
"1971-12-25 04:00","1971","12","25","04:00","-8.3","","-11.7","","75","","1","","18","","25.0","","100.92","","","","-15","","Mainly Clear"
"1971-12-25 05:00","1971","12","25","05:00","-9.4","","-12.2","","78","","36","","13","","25.0","","100.98","","","","-15","","Mainly Clear"
"1971-12-25 06:00","1971","12","25","06:00","-10.0","","-13.3","","78","","1","","19","","25.0","","101.02","","","","-18","","Clear"
"1971-12-25 07:00","1971","12","25","07:00","-10.6","","-14.4","","73","","36","","18","","25.0","","100.99","","","","-18","","Mainly Clear"
"1971-12-25 08:00","1971","12","25","08:00","-11.1","","-15.6","","69","","2","","11","","40.2","","100.97","","","","-17","","Mostly Cloudy"
"1971-12-25 09:00","1971","12","25","09:00","-10.6","","-15.6","","67","","6","","6","","40.2","","100.97","","","","-14","","Mostly Cloudy"
"1971-12-25 10:00","1971","12","25","10:00","-9.4","","-15.0","","62","","9","","6","","40.2","","100.92","","","","-13","","Mostly Cloudy"
"1971-12-25 11:00","1971","12","25","11:00","-7.8","","-13.9","","61","","9","","8","","32.2","","100.77","","","","-12","","Cloudy"
"1971-12-25 12:00","1971","12","25","12:00","-7.2","","-12.2","","70","","9","","11","","12.9","","100.62","","","","-12","","Snow Showers"
"1971-12-25 13:00","1971","12","25","13:00","-7.2","","-10.6","","75","","11","","6","","9.7","","100.54","","","","-10","","Snow"
"1971-12-25 14:00","1971","12","25","14:00","-6.1","","-8.9","","81","","11","","11","","9.7","","100.41","","","","-11","","Snow"
"1971-12-25 15:00","1971","12","25","15:00","-5.0","","-8.3","","76","","8","","13","","12.9","","100.25","","","","-10","","Snow"
"1971-12-25 16:00","1971","12","25","16:00","-4.4","","-6.7","","83","","9","","14","","12.9","","100.18","","","","-10","","Snow"
"1971-12-25 17:00","1971","12","25","17:00","-3.9","","-6.7","","81","","14","","14","","24.1","","100.06","","","","-9","","Cloudy"
"1971-12-25 18:00","1971","12","25","18:00","-3.3","","-5.6","","84","","13","","13","","24.1","","99.90","","","","-8","","Cloudy"
"1971-12-25 19:00","1971","12","25","19:00","-2.8","","-5.0","","83","","14","","11","","19.3","","99.79","","","","-7","","Snow"
"1971-12-25 20:00","1971","12","25","20:00","-1.7","","-3.9","","85","","11","","16","","24.1","","99.57","","","","-7","","Cloudy"
"1971-12-25 21:00","1971","12","25","21:00","-1.7","","-4.4","","81","","11","","13","","24.1","","99.34","","","","-6","","Cloudy"
"1971-12-25 22:00","1971","12","25","22:00","-1.1","","-3.9","","83","","15","","3","","24.1","","99.30","","","","-2","","Cloudy"
"1971-12-25 23:00","1971","12","25","23:00","-0.6","","-2.8","","86","","14","","5","","24.1","","99.12","","","","-2","","Cloudy"
"1971-12-26 00:00","1971","12","26","00:00","-0.6","","-2.2","","87","","","","0","","19.3","","98.95","","","","","","Cloudy"
"1971-12-26 01:00","1971","12","26","01:00","-0.6","","-2.2","","88","","","","0","","16.1","","98.82","","","","","","Freezing Drizzle"
"1971-12-26 02:00","1971","12","26","02:00","-0.6","","-1.7","","92","","","","0","","16.1","","98.72","","","","","","Cloudy"
"1971-12-26 03:00","1971","12","26","03:00","-0.6","","-1.7","","91","","","","0","","11.3","","98.69","","","","","","Drizzle"
"1971-12-26 04:00","1971","12","26","04:00","-0.6","","-1.7","","93","","","","0","","11.3","","98.58","","","","","","Rain"
"1971-12-26 05:00","1971","12","26","05:00","-0.6","","-1.1","","93","","22","","3","","12.9","","98.50","","","","-2","","Cloudy"
"1971-12-26 06:00","1971","12","26","06:00","0.0","","-1.1","","94","","26","","6","","9.7","","98.50","","","","-2","","Fog"
"1971-12-26 07:00","1971","12","26","07:00","0.6","","-1.1","","91","","25","","6","","9.7","","98.60","","","","","","Fog"
"1971-12-26 08:00","1971","12","26","08:00","1.7","","0.6","","94","","22","","6","","11.3","","98.63","","","","","","Cloudy"
"1971-12-26 09:00","1971","12","26","09:00","2.2","","1.1","","91","","20","","11","","11.3","","98.68","","","","","","Cloudy"
"1971-12-26 10:00","1971","12","26","10:00","2.2","","1.1","","94","","22","","11","","11.3","","98.75","","","","","","Cloudy"
"1971-12-26 11:00","1971","12","26","11:00","2.8","","1.7","","93","","23","","6","","4.8","","98.81","","","","","","Drizzle,Fog"
"1971-12-26 12:00","1971","12","26","12:00","2.8","","1.7","","93","","22","","10","","6.4","","98.78","","","","","","Fog"
"1971-12-26 13:00","1971","12","26","13:00","3.3","","1.1","","83","","28","","18","","12.9","","98.74","","","","","","Cloudy"
"1971-12-26 14:00","1971","12","26","14:00","3.3","","0.0","","81","","27","","16","","16.1","","98.76","","","","","","Cloudy"
"1971-12-26 15:00","1971","12","26","15:00","2.8","","-0.6","","78","","27","","26","","16.1","","98.83","","","","","","Cloudy"
"1971-12-26 16:00","1971","12","26","16:00","2.2","","-0.6","","81","","28","","23","","16.1","","98.90","","","","","","Cloudy"
"1971-12-26 17:00","1971","12","26","17:00","1.1","","-0.6","","90","","30","","18","","19.3","","98.98","","","","","","Cloudy"
"1971-12-26 18:00","1971","12","26","18:00","1.1","","-1.7","","83","","29","","18","","25.0","","99.07","","","","","","Cloudy"
"1971-12-26 19:00","1971","12","26","19:00","-0.6","","-2.8","","85","","33","","18","","25.0","","99.16","","","","-6","","Cloudy"
"1971-12-26 20:00","1971","12","26","20:00","-1.1","","-3.3","","86","","34","","16","","25.0","","99.26","","","","-6","","Cloudy"
"1971-12-26 21:00","1971","12","26","21:00","-2.2","","-3.9","","89","","34","","23","","12.9","","99.33","","","","-8","","Cloudy"
"1971-12-26 22:00","1971","12","26","22:00","-3.3","","-5.6","","85","","34","","26","","12.9","","99.41","","","","-10","","Cloudy"
"1971-12-26 23:00","1971","12","26","23:00","-3.9","","-5.6","","87","","35","","19","","16.1","","99.45","","","","-10","","Cloudy"
"1971-12-27 00:00","1971","12","27","00:00","-5.0","","-7.2","","85","","35","","23","","16.1","","99.55","","","","-12","","Cloudy"
"1971-12-27 01:00","1971","12","27","01:00","-5.6","","-7.8","","83","","35","","16","","25.0","","99.62","","","","-12","","Cloudy"
"1971-12-27 02:00","1971","12","27","02:00","-6.1","","-9.4","","76","","36","","18","","24.1","","99.58","","","","-13","","Snow Grains"
"1971-12-27 03:00","1971","12","27","03:00","-6.1","","-9.4","","77","","34","","13","","25.0","","99.63","","","","-11","","Cloudy"
"1971-12-27 04:00","1971","12","27","04:00","-6.1","","-9.4","","78","","34","","10","","25.0","","99.66","","","","-11","","Cloudy"
"1971-12-27 05:00","1971","12","27","05:00","-6.1","","-10.6","","71","","2","","8","","25.0","","99.67","","","","-10","","Snow Pellets"
"1971-12-27 06:00","1971","12","27","06:00","-6.1","","-10.0","","72","","3","","11","","25.0","","99.69","","","","-11","","Cloudy"
"1971-12-27 07:00","1971","12","27","07:00","-6.1","","-10.0","","75","","7","","5","","25.0","","99.71","","","","-9","","Cloudy"
"1971-12-27 08:00","1971","12","27","08:00","-6.1","","-10.0","","75","","3","","6","","32.2","","99.75","","","","-9","","Cloudy"
"1971-12-27 09:00","1971","12","27","09:00","-5.6","","-10.0","","72","","3","","6","","16.1","","99.71","","","","-8","","Cloudy"
"1971-12-27 10:00","1971","12","27","10:00","-5.0","","-8.3","","78","","4","","11","","4.0","","99.67","","","","-10","","Snow,Fog"
"1971-12-27 11:00","1971","12","27","11:00","-5.0","","-6.1","","92","","6","","14","","3.6","","99.59","","","","-10","","Snow"
"1971-12-27 12:00","1971","12","27","12:00","-3.9","","-5.0","","92","","8","","16","","2.8","","99.45","","","","-9","","Snow"
"1971-12-27 13:00","1971","12","27","13:00","-3.3","","-4.4","","91","","8","","19","","3.2","","99.23","","","","-9","","Snow"
"1971-12-27 14:00","1971","12","27","14:00","-2.8","","-3.3","","96","","9","","21","","3.2","","99.07","","","","-9","","Freezing Rain,Snow"
"1971-12-27 15:00","1971","12","27","15:00","-1.7","","-2.2","","96","","8","","23","","3.2","","99.02","","","","-8","","Freezing Rain,Fog"
"1971-12-27 16:00","1971","12","27","16:00","-1.1","","-1.7","","98","","8","","14","","2.8","","98.89","","","","-6","","Freezing Rain,Fog"
"1971-12-27 17:00","1971","12","27","17:00","0.0","","-0.6","","98","","10","","21","","4.8","","98.71","","","","-5","","Freezing Drizzle,Fog"
"1971-12-27 18:00","1971","12","27","18:00","0.0","","0.0","","97","","12","","24","","3.2","","98.55","","","","-6","","Drizzle,Fog"
"1971-12-27 19:00","1971","12","27","19:00","0.0","","0.0","","97","","12","","21","","0.8","","98.33","","","","-5","","Rain,Drizzle,Fog"
"1971-12-27 20:00","1971","12","27","20:00","0.0","","0.0","","97","","13","","11","","2.4","","98.22","","","","-4","","Rain,Fog"
"1971-12-27 21:00","1971","12","27","21:00","0.6","","0.0","","98","","11","","5","","2.4","","98.10","","","","","","Rain,Fog"
"1971-12-27 22:00","1971","12","27","22:00","0.6","","0.0","","96","","","","0","","0.8","","97.98","","","","","","Fog"
"1971-12-27 23:00","1971","12","27","23:00","4.4","","3.9","","96","","24","","32","","9.7","","97.98","","","","","","Rain,Fog"
"1971-12-28 00:00","1971","12","28","00:00","6.7","","3.9","","83","","25","","47","","25.0","","98.07","","","","","","Mostly Cloudy"
"1971-12-28 01:00","1971","12","28","01:00","3.9","","1.7","","84","","28","","43","","25.0","","98.21","","","","","","Mostly Cloudy"
"1971-12-28 02:00","1971","12","28","02:00","2.8","","0.0","","84","","28","","29","","25.0","","98.41","","","","","","Cloudy"
"1971-12-28 03:00","1971","12","28","03:00","2.8","","-0.6","","79","","27","","23","","25.0","","98.58","","","","","","Mostly Cloudy"
"1971-12-28 04:00","1971","12","28","04:00","2.2","","-1.7","","74","","28","","19","","25.0","","98.72","","","","","","Mostly Cloudy"
"1971-12-28 05:00","1971","12","28","05:00","1.7","","-2.2","","76","","27","","11","","25.0","","98.83","","","","","","Mostly Cloudy"
"1971-12-28 06:00","1971","12","28","06:00","1.1","","-1.1","","84","","28","","6","","25.0","","98.93","","","","","","Cloudy"
"1971-12-28 07:00","1971","12","28","07:00","1.1","","-1.1","","87","","33","","8","","25.0","","99.05","","","","","","Cloudy"
"1971-12-28 08:00","1971","12","28","08:00","0.6","","-0.6","","91","","30","","8","","12.9","","99.11","","","","","","Snow Pellets"
"1971-12-28 09:00","1971","12","28","09:00","0.0","","0.0","","100","","32","","13","","1.2","","99.23","","","","-4","","Ice Pellet Showers"
"1971-12-28 10:00","1971","12","28","10:00","0.0","","-1.7","","91","","31","","8","","8.0","","99.34","","","","-3","","Snow"
"1971-12-28 11:00","1971","12","28","11:00","0.0","","-1.7","","89","","27","","16","","9.7","","99.43","","","","-5","","Ice Pellet Showers"
"1971-12-28 12:00","1971","12","28","12:00","0.6","","-3.3","","75","","27","","19","","16.1","","99.44","","","","","","Mostly Cloudy"
"1971-12-28 13:00","1971","12","28","13:00","1.1","","-4.4","","68","","27","","21","","16.1","","99.45","","","","","","Mostly Cloudy"
"1971-12-28 14:00","1971","12","28","14:00","1.1","","-3.9","","70","","26","","19","","16.1","","99.49","","","","","","Mostly Cloudy"
"1971-12-28 15:00","1971","12","28","15:00","0.6","","-3.3","","75","","28","","19","","16.1","","99.58","","","","","","Mostly Cloudy"
"1971-12-28 16:00","1971","12","28","16:00","0.0","","-4.4","","73","","23","","19","","16.1","","99.69","","","","-5","","Cloudy"
"1971-12-28 17:00","1971","12","28","17:00","-0.6","","-6.1","","67","","29","","19","","32.2","","99.81","","","","-6","","Mostly Cloudy"
"1971-12-28 18:00","1971","12","28","18:00","-1.7","","-5.6","","75","","30","","18","","25.0","","99.89","","","","-7","","Mostly Cloudy"
"1971-12-28 19:00","1971","12","28","19:00","-1.7","","-5.6","","76","","27","","18","","25.0","","99.94","","","","-7","","Mostly Cloudy"
"1971-12-28 20:00","1971","12","28","20:00","-2.8","","-6.7","","76","","25","","13","","25.0","","99.99","","","","-7","","Mainly Clear"
"1971-12-28 21:00","1971","12","28","21:00","-3.9","","-6.7","","83","","23","","11","","25.0","","99.99","","","","-8","","Mainly Clear"
"1971-12-28 22:00","1971","12","28","22:00","-2.8","","-7.2","","72","","26","","23","","25.0","","99.96","","","","-9","","Mostly Cloudy"
"1971-12-28 23:00","1971","12","28","23:00","-2.8","","-7.2","","73","","23","","18","","25.0","","99.92","","","","-8","","Cloudy"
"1971-12-29 00:00","1971","12","29","00:00","-3.3","","-7.2","","74","","23","","29","","25.0","","99.88","","","","-11","","Mostly Cloudy"
"1971-12-29 01:00","1971","12","29","01:00","-3.9","","-7.2","","77","","24","","31","","25.0","","99.81","","","","-12","","Mostly Cloudy"
"1971-12-29 02:00","1971","12","29","02:00","-5.0","","-8.9","","73","","24","","23","","25.0","","99.76","","","","-12","","Mainly Clear"
"1971-12-29 03:00","1971","12","29","03:00","-3.9","","-8.3","","73","","23","","27","","25.0","","99.86","","","","-11","","Cloudy"
"1971-12-29 04:00","1971","12","29","04:00","-3.9","","-6.7","","80","","23","","24","","25.0","","99.71","","","","-11","","Snow Showers"
"1971-12-29 05:00","1971","12","29","05:00","-3.3","","-6.7","","78","","23","","29","","25.0","","99.67","","","","-11","","Cloudy"
"1971-12-29 06:00","1971","12","29","06:00","-3.3","","-7.2","","75","","27","","40","","25.0","","99.57","","","","-12","","Mainly Clear"
"1971-12-29 07:00","1971","12","29","07:00","-3.9","","-7.8","","73","","23","","35","","25.0","","99.60","","","","-12","","Mainly Clear"
"1971-12-29 08:00","1971","12","29","08:00","-3.9","","-7.8","","77","","22","","24","","24.1","","99.59","","","","-11","","Mostly Cloudy"
"1971-12-29 09:00","1971","12","29","09:00","-3.9","","-9.4","","66","","20","","26","","24.1","","99.52","","","","-11","","Mainly Clear"
"1971-12-29 10:00","1971","12","29","10:00","-3.3","","-7.2","","74","","22","","18","","19.3","","99.59","","","","-9","","Mainly Clear"
"1971-12-29 11:00","1971","12","29","11:00","-1.7","","-6.1","","71","","25","","19","","19.3","","99.58","","","","-7","","Mostly Cloudy"
"1971-12-29 12:00","1971","12","29","12:00","-0.6","","-5.0","","72","","25","","32","","19.3","","99.58","","","","-7","","Cloudy"
"1971-12-29 13:00","1971","12","29","13:00","-0.6","","-3.9","","79","","26","","21","","16.1","","99.53","","","","-6","","Snow Grains"
"1971-12-29 14:00","1971","12","29","14:00","0.0","","-3.3","","79","","23","","29","","16.1","","99.51","","","","-6","","Snow Grains"
"1971-12-29 15:00","1971","12","29","15:00","0.0","","-3.3","","78","","24","","24","","19.3","","99.52","","","","-6","","Cloudy"
"1971-12-29 16:00","1971","12","29","16:00","0.6","","-2.8","","77","","25","","21","","19.3","","99.59","","","","","","Cloudy"
"1971-12-29 17:00","1971","12","29","17:00","0.6","","-2.2","","81","","25","","13","","16.1","","99.71","","","","","","Mostly Cloudy"
"1971-12-29 18:00","1971","12","29","18:00","0.6","","-2.8","","77","","26","","11","","19.3","","99.73","","","","","","Mostly Cloudy"
"1971-12-29 19:00","1971","12","29","19:00","0.6","","-4.4","","70","","32","","16","","24.1","","99.83","","","","","","Mostly Cloudy"
"1971-12-29 20:00","1971","12","29","20:00","-0.6","","-5.6","","67","","32","","16","","25.0","","99.85","","","","-5","","Mostly Cloudy"
"1971-12-29 21:00","1971","12","29","21:00","-1.1","","-6.1","","67","","29","","14","","25.0","","99.87","","","","-6","","Mostly Cloudy"
"1971-12-29 22:00","1971","12","29","22:00","-2.2","","-6.7","","72","","29","","10","","25.0","","99.83","","","","-6","","Mostly Cloudy"
"1971-12-29 23:00","1971","12","29","23:00","-1.7","","-6.7","","71","","24","","3","","25.0","","99.79","","","","-3","","Cloudy"
"1971-12-30 00:00","1971","12","30","00:00","-1.7","","-6.7","","70","","33","","3","","25.0","","99.72","","","","-3","","Cloudy"
"1971-12-30 01:00","1971","12","30","01:00","-1.7","","-6.7","","70","","2","","8","","24.1","","99.68","","","","-5","","Cloudy"
"1971-12-30 02:00","1971","12","30","02:00","-1.7","","-5.0","","80","","3","","10","","24.1","","99.63","","","","-5","","Cloudy"
"1971-12-30 03:00","1971","12","30","03:00","-1.1","","-5.6","","74","","8","","19","","24.1","","99.58","","","","-6","","Cloudy"
"1971-12-30 04:00","1971","12","30","04:00","-1.7","","-5.6","","74","","7","","18","","12.9","","99.48","","","","-7","","Snow"
"1971-12-30 05:00","1971","12","30","05:00","-2.8","","-4.4","","88","","6","","23","","2.0","","99.23","","","","-9","","Snow"
"1971-12-30 06:00","1971","12","30","06:00","-2.8","","-3.9","","91","","8","","32","","1.2","","99.15","","","","-10","","Snow"
"1971-12-30 07:00","1971","12","30","07:00","-3.9","","-5.0","","94","","6","","35","","0.8","","99.04","","","","-12","","Moderate Snow"
"1971-12-30 08:00","1971","12","30","08:00","-6.1","","-7.2","","91","","7","","29","","0.8","","98.84","","","","-14","","Moderate Snow"
"1971-12-30 09:00","1971","12","30","09:00","-7.8","","-8.9","","90","","5","","31","","0.4","","98.62","","","","-17","","Heavy Snow"
"1971-12-30 10:00","1971","12","30","10:00","-8.3","","-10.6","","85","","5","","37","","0.6","","98.35","","","","-18","","Moderate Snow"
"1971-12-30 11:00","1971","12","30","11:00","-8.9","","-10.6","","86","","5","","29","","0.8","","98.09","","","","-18","","Moderate Snow"
"1971-12-30 12:00","1971","12","30","12:00","-8.3","","-10.0","","85","","5","","37","","1.0","","97.82","","","","-18","","Snow,Ice Pellets"
"1971-12-30 13:00","1971","12","30","13:00","-7.8","","-10.0","","85","","4","","27","","0.8","","97.62","","","","-16","","Freezing Rain,Ice Pellets"
"1971-12-30 14:00","1971","12","30","14:00","-7.8","","-10.0","","85","","4","","23","","1.6","","97.48","","","","-16","","Freezing Rain,Ice Pellets"
"1971-12-30 15:00","1971","12","30","15:00","-7.8","","-10.0","","85","","5","","26","","4.8","","97.47","","","","-16","","Freezing Drizzle,Snow Grains"
"1971-12-30 16:00","1971","12","30","16:00","-7.8","","-10.0","","84","","36","","21","","2.0","","97.64","","","","-15","","Snow Grains"
"1971-12-30 17:00","1971","12","30","17:00","-8.9","","-10.6","","86","","36","","24","","2.0","","97.66","","","","-17","","Snow,Snow Grains"
"1971-12-30 18:00","1971","12","30","18:00","-10.0","","-11.7","","85","","1","","27","","3.2","","97.73","","","","-19","","Snow,Snow Grains"
"1971-12-30 19:00","1971","12","30","19:00","-10.6","","-12.8","","83","","2","","21","","6.4","","97.90","","","","-19","","Snow"
"1971-12-30 20:00","1971","12","30","20:00","-11.1","","-14.4","","75","","2","","21","","25.0","","98.06","","","","-19","","Cloudy"
"1971-12-30 21:00","1971","12","30","21:00","-11.7","","-14.4","","81","","2","","21","","4.8","","98.19","","","","-20","","Snow,Ice Pellets"
"1971-12-30 22:00","1971","12","30","22:00","-12.2","","-14.4","","82","","35","","27","","4.8","","98.36","","","","-22","","Freezing Rain,Ice Pellets"
"1971-12-30 23:00","1971","12","30","23:00","-12.8","","-15.0","","83","","35","","29","","3.2","","98.58","","","","-23","","Snow"
"1971-12-31 00:00","1971","12","31","00:00","-12.2","","-15.6","","78","","34","","27","","9.7","","98.76","","","","-22","","Snow"
"1971-12-31 01:00","1971","12","31","01:00","-12.8","","-15.0","","83","","32","","23","","16.1","","98.97","","","","-22","","Snow"
"1971-12-31 02:00","1971","12","31","02:00","-13.3","","-17.2","","71","","32","","23","","25.0","","99.28","","","","-23","","Mostly Cloudy"
"1971-12-31 03:00","1971","12","31","03:00","-14.4","","-19.4","","65","","33","","14","","25.0","","99.46","","","","-22","","Mainly Clear"
"1971-12-31 04:00","1971","12","31","04:00","-16.7","","-20.0","","73","","30","","14","","25.0","","99.57","","","","-25","","Mainly Clear"
"1971-12-31 05:00","1971","12","31","05:00","-16.7","","-20.6","","69","","27","","6","","25.0","","99.67","","","","-21","","Mainly Clear"
"1971-12-31 06:00","1971","12","31","06:00","-15.6","","-19.4","","73","","33","","8","","25.0","","99.73","","","","-21","","Mainly Clear"
"1971-12-31 07:00","1971","12","31","07:00","-17.8","","-22.2","","71","","33","","8","","25.0","","99.80","","","","-24","","Mainly Clear"
"1971-12-31 08:00","1971","12","31","08:00","-15.6","","-19.4","","73","","36","","6","","40.2","","99.86","","","","-20","","Mostly Cloudy"
"1971-12-31 09:00","1971","12","31","09:00","-17.8","","-20.6","","79","","33","","3","","40.2","","99.96","","","","-20","","Mostly Cloudy"
"1971-12-31 10:00","1971","12","31","10:00","-15.0","","-19.4","","68","","3","","5","","40.2","","100.00","","","","-19","","Mainly Clear"
"1971-12-31 11:00","1971","12","31","11:00","-13.3","","-19.4","","60","","","","0","","32.2","","100.02","","","","","","Mostly Cloudy"
"1971-12-31 12:00","1971","12","31","12:00","-11.7","","-17.2","","63","","","","0","","32.2","","99.92","","","","","","Mainly Clear"
"1971-12-31 13:00","1971","12","31","13:00","-9.4","","-16.1","","59","","","","0","","32.2","","99.88","","","","","","Mostly Cloudy"
"1971-12-31 14:00","1971","12","31","14:00","-8.9","","-13.9","","65","","","","0","","24.1","","99.87","","","","","","Mostly Cloudy"
"1971-12-31 15:00","1971","12","31","15:00","-7.8","","-12.2","","69","","18","","3","","16.1","","99.90","","","","-9","","Mostly Cloudy"
"1971-12-31 16:00","1971","12","31","16:00","-7.8","","-11.7","","74","","15","","6","","19.3","","99.95","","","","-11","","Cloudy"
"1971-12-31 17:00","1971","12","31","17:00","-7.8","","-11.1","","75","","15","","6","","19.3","","99.95","","","","-11","","Mostly Cloudy"
"1971-12-31 18:00","1971","12","31","18:00","-8.9","","-12.2","","79","","24","","5","","16.1","","99.97","","","","-12","","Mainly Clear"
"1971-12-31 19:00","1971","12","31","19:00","-10.0","","-13.3","","78","","22","","5","","12.9","","99.97","","","","-13","","Mostly Cloudy"
"1971-12-31 20:00","1971","12","31","20:00","-8.9","","-11.1","","85","","","","0","","12.9","","99.97","","","","","","Mostly Cloudy"
"1971-12-31 21:00","1971","12","31","21:00","-9.4","","-11.1","","87","","16","","6","","12.9","","99.94","","","","-13","","Mainly Clear"
"1971-12-31 22:00","1971","12","31","22:00","-10.6","","-12.2","","87","","14","","8","","12.9","","99.89","","","","-15","","Mostly Cloudy"
"1971-12-31 23:00","1971","12","31","23:00","-10.0","","-11.7","","89","","","","0","","16.1","","99.91","","","","","","Cloudy"
