"Station Name","TORONTO LESTER B. PEARSON INT'L A"
"Province","ONTARIO"
"Latitude","43.68"
"Longitude","-79.63"
"Elevation","173.40"
"Climate Identifier","6158733"
"WMO Identifier","71624"
"TC Identifier","YYZ"
"All times are specified in Local Standard Time (LST). Add 1 hour to adjust for Daylight Saving Time where and when it is observed."

"Legend"
"E","Estimated"
"M","Missing"
"NA","Not Available"

"Date/Time","Year","Month","Day","Time","Temp (°C)","Temp Flag","Dew Point Temp (°C)","Dew Point Temp Flag","Rel Hum (%)","Rel Hum Flag","Wind Dir (10s deg)","Wind Dir Flag","Wind Spd (km/h)","Wind Spd Flag","Visibility (km)","Visibility Flag","Stn Press (kPa)","Stn Press Flag","Hmdx","Hmdx Flag","Wind Chill","Wind Chill Flag","Weather"
"2003-10-01 00:00","2003","10","01","00:00","6.0","","2.4","","78","","27","","13","","24.1","","99.96","","","","","","Mainly Clear"
"2003-10-01 01:00","2003","10","01","01:00","5.3","","2.3","","81","","25","","13","","24.1","","99.96","","","","","","Mainly Clear"
"2003-10-01 02:00","2003","10","01","02:00","5.1","","2.2","","82","","25","","17","","24.1","","99.95","","","","","","Mainly Clear"
"2003-10-01 03:00","2003","10","01","03:00","4.5","","2.4","","86","","25","","17","","24.1","","99.93","","","","","","Mainly Clear"
"2003-10-01 04:00","2003","10","01","04:00","3.7","","2.1","","89","","24","","15","","24.1","","99.90","","","","","","Clear"
"2003-10-01 05:00","2003","10","01","05:00","3.9","","1.3","","83","","24","","17","","24.1","","99.87","","","","","","Clear"
"2003-10-01 06:00","2003","10","01","06:00","3.1","","0.7","","84","","28","","22","","24.1","","99.91","","","","","","Mainly Clear"
"2003-10-01 07:00","2003","10","01","07:00","3.8","","1.1","","83","","27","","19","","24.1","","99.91","","","","","","Mainly Clear"
"2003-10-01 08:00","2003","10","01","08:00","5.8","","1.8","","75","","26","","17","","24.1","","99.89","","","","","","Clear"
"2003-10-01 09:00","2003","10","01","09:00","8.3","","2.9","","69","","28","","19","","24.1","","99.89","","","","","","Clear"
"2003-10-01 10:00","2003","10","01","10:00","10.2","","1.2","","54","","28","","19","","24.1","","99.85","","","","","","Mainly Clear"
"2003-10-01 11:00","2003","10","01","11:00","10.9","","-1.0","","44","","27","","30","","24.1","","99.81","","","","","","Mostly Cloudy"
"2003-10-01 12:00","2003","10","01","12:00","11.1","","-1.2","","42","","24","","20","","24.1","","99.75","","","","","","Mostly Cloudy"
"2003-10-01 13:00","2003","10","01","13:00","11.4","","-1.0","","42","","30","","26","","24.1","","99.68","","","","","","Mostly Cloudy"
"2003-10-01 14:00","2003","10","01","14:00","9.9","","1.9","","57","","29","","26","","24.1","","99.64","","","","","","Mostly Cloudy"
"2003-10-01 15:00","2003","10","01","15:00","10.3","","1.3","","54","","26","","19","","24.1","","99.59","","","","","","Mostly Cloudy"
"2003-10-01 16:00","2003","10","01","16:00","10.4","","1.3","","53","","24","","13","","24.1","","99.54","","","","","","Mainly Clear"
"2003-10-01 17:00","2003","10","01","17:00","6.9","","3.2","","77","","28","","22","","12.9","","99.62","","","","","","Mostly Cloudy"
"2003-10-01 18:00","2003","10","01","18:00","6.6","","2.9","","77","","28","","33","","19.3","","99.65","","","","","","Rain Showers"
"2003-10-01 19:00","2003","10","01","19:00","4.8","","2.8","","87","","29","","11","","24.1","","99.60","","","","","","Mostly Cloudy"
"2003-10-01 20:00","2003","10","01","20:00","4.4","","2.5","","87","","26","","7","","24.1","","99.59","","","","","","Mostly Cloudy"
"2003-10-01 21:00","2003","10","01","21:00","3.2","","1.8","","91","","26","","6","","24.1","","99.55","","","","","","Clear"
"2003-10-01 22:00","2003","10","01","22:00","4.0","","2.2","","88","","24","","7","","24.1","","99.56","","","","","","Mainly Clear"
"2003-10-01 23:00","2003","10","01","23:00","3.0","","1.4","","89","","24","","19","","24.1","","99.52","","","","","","Clear"
"2003-10-02 00:00","2003","10","02","00:00","2.5","","1.3","","92","","25","","13","","24.1","","99.51","","","","","","Mainly Clear"
"2003-10-02 01:00","2003","10","02","01:00","2.5","","1.2","","91","","24","","15","","24.1","","99.47","","","","","","Mainly Clear"
"2003-10-02 02:00","2003","10","02","02:00","2.0","","1.0","","93","","24","","15","","24.1","","99.48","","","","","","Clear"
"2003-10-02 03:00","2003","10","02","03:00","2.0","","0.8","","92","","24","","19","","24.1","","99.44","","","","","","Mainly Clear"
"2003-10-02 04:00","2003","10","02","04:00","1.9","","0.6","","91","","24","","15","","24.1","","99.44","","","","","","Mainly Clear"
"2003-10-02 05:00","2003","10","02","05:00","1.5","","0.2","","91","","25","","15","","24.1","","99.46","","","","","","Clear"
"2003-10-02 06:00","2003","10","02","06:00","2.0","","0.4","","89","","25","","19","","24.1","","99.45","","","","","","Mainly Clear"
"2003-10-02 07:00","2003","10","02","07:00","3.0","","0.9","","86","","27","","19","","24.1","","99.46","","","","","","Mostly Cloudy"
"2003-10-02 08:00","2003","10","02","08:00","4.2","","1.6","","83","","28","","30","","24.1","","99.52","","","","","","Mostly Cloudy"
"2003-10-02 09:00","2003","10","02","09:00","5.3","","2.2","","80","","32","","30","","24.1","","99.62","","","","","","Mostly Cloudy"
"2003-10-02 10:00","2003","10","02","10:00","5.5","","1.6","","76","","32","","37","","24.1","","99.71","","","","","","Mostly Cloudy"
"2003-10-02 11:00","2003","10","02","11:00","6.9","","1.3","","67","","34","","28","","24.1","","99.78","","","","","","Mostly Cloudy"
"2003-10-02 12:00","2003","10","02","12:00","7.3","","0.8","","63","","35","","30","","24.1","","99.84","","","","","","Mostly Cloudy"
"2003-10-02 13:00","2003","10","02","13:00","7.9","","-0.4","","56","","33","","37","","24.1","","99.85","","","","","","Mostly Cloudy"
"2003-10-02 14:00","2003","10","02","14:00","9.4","","-2.6","","43","","31","","30","","24.1","","99.87","","","","","","Mainly Clear"
"2003-10-02 15:00","2003","10","02","15:00","7.4","","2.4","","71","","32","","48","","24.1","","99.90","","","","","","Rain Showers"
"2003-10-02 16:00","2003","10","02","16:00","8.4","","1.5","","62","","33","","22","","24.1","","99.92","","","","","","Mainly Clear"
"2003-10-02 17:00","2003","10","02","17:00","7.3","","0.4","","62","","34","","26","","24.1","","99.96","","","","","","Mainly Clear"
"2003-10-02 18:00","2003","10","02","18:00","6.3","","-0.5","","62","","31","","20","","24.1","","100.01","","","","","","Clear"
"2003-10-02 19:00","2003","10","02","19:00","5.7","","-0.5","","64","","32","","19","","24.1","","100.02","","","","","","Clear"
"2003-10-02 20:00","2003","10","02","20:00","4.4","","-0.4","","71","","28","","13","","24.1","","100.03","","","","","","Clear"
"2003-10-02 21:00","2003","10","02","21:00","3.1","","-0.9","","75","","28","","17","","24.1","","100.04","","","","","","Clear"
"2003-10-02 22:00","2003","10","02","22:00","2.2","","-1.5","","76","","27","","11","","24.1","","100.01","","","","","","Clear"
"2003-10-02 23:00","2003","10","02","23:00","1.5","","-1.3","","82","","25","","11","","24.1","","100.00","","","","","","Clear"
"2003-10-03 00:00","2003","10","03","00:00","1.6","","-1.3","","81","","23","","7","","24.1","","99.94","","","","","","Mainly Clear"
"2003-10-03 01:00","2003","10","03","01:00","1.9","","-1.2","","80","","19","","6","","24.1","","99.94","","","","","","Clear"
"2003-10-03 02:00","2003","10","03","02:00","2.0","","-1.2","","79","","21","","9","","24.1","","99.88","","","","","","Mostly Cloudy"
"2003-10-03 03:00","2003","10","03","03:00","2.7","","-1.1","","76","","18","","7","","24.1","","99.82","","","","","","Mostly Cloudy"
"2003-10-03 04:00","2003","10","03","04:00","3.4","","-0.9","","73","","20","","13","","24.1","","99.74","","","","","","Mostly Cloudy"
"2003-10-03 05:00","2003","10","03","05:00","4.1","","-0.7","","71","","21","","9","","24.1","","99.66","","","","","","Mostly Cloudy"
"2003-10-03 06:00","2003","10","03","06:00","4.3","","-0.9","","69","","22","","17","","24.1","","99.63","","","","","","Cloudy"
"2003-10-03 07:00","2003","10","03","07:00","5.2","","-0.4","","67","","21","","13","","24.1","","99.58","","","","","","Cloudy"
"2003-10-03 08:00","2003","10","03","08:00","6.4","","0.2","","64","","20","","9","","24.1","","99.51","","","","","","Cloudy"
"2003-10-03 09:00","2003","10","03","09:00","9.1","","0.9","","56","","21","","20","","24.1","","99.41","","","","","","Cloudy"
"2003-10-03 10:00","2003","10","03","10:00","9.6","","0.4","","53","","20","","24","","24.1","","99.35","","","","","","Cloudy"
"2003-10-03 11:00","2003","10","03","11:00","11.0","","2.8","","57","","21","","30","","24.1","","99.21","","","","","","Mostly Cloudy"
"2003-10-03 12:00","2003","10","03","12:00","11.0","","1.2","","51","","22","","41","","24.1","","99.10","","","","","","Cloudy"
"2003-10-03 13:00","2003","10","03","13:00","11.4","","0.6","","47","","21","","37","","24.1","","98.94","","","","","","Cloudy"
"2003-10-03 14:00","2003","10","03","14:00","11.8","","0.2","","45","","22","","46","","24.1","","98.84","","","","","","Cloudy"
"2003-10-03 15:00","2003","10","03","15:00","11.6","","1.1","","48","","20","","32","","24.1","","98.76","","","","","","Cloudy"
"2003-10-03 16:00","2003","10","03","16:00","11.5","","-0.2","","44","","19","","28","","24.1","","98.65","","","","","","Cloudy"
"2003-10-03 17:00","2003","10","03","17:00","11.4","","0.1","","46","","19","","20","","24.1","","98.56","","","","","","Cloudy"
"2003-10-03 18:00","2003","10","03","18:00","11.4","","-0.8","","43","","20","","22","","24.1","","98.52","","","","","","Cloudy"
"2003-10-03 19:00","2003","10","03","19:00","11.5","","-0.4","","44","","20","","33","","24.1","","98.48","","","","","","Cloudy"
"2003-10-03 20:00","2003","10","03","20:00","8.6","","4.0","","73","","22","","39","","19.3","","98.53","","","","","","Rain Showers"
"2003-10-03 21:00","2003","10","03","21:00","8.1","","5.0","","81","","21","","28","","19.3","","98.39","","","","","","Rain Showers"
"2003-10-03 22:00","2003","10","03","22:00","7.8","","6.1","","89","","20","","26","","16.1","","98.34","","","","","","Rain"
"2003-10-03 23:00","2003","10","03","23:00","7.8","","6.7","","93","","19","","19","","12.9","","98.21","","","","","","Rain"
"2003-10-04 00:00","2003","10","04","00:00","7.8","","7.3","","97","","18","","17","","9.7","","98.05","","","","","","Rain,Fog"
"2003-10-04 01:00","2003","10","04","01:00","8.0","","7.7","","98","","20","","15","","9.7","","97.98","","","","","","Rain,Fog"
"2003-10-04 02:00","2003","10","04","02:00","8.6","","8.1","","97","","24","","15","","16.1","","97.97","","","","","","Cloudy"
"2003-10-04 03:00","2003","10","04","03:00","8.1","","6.8","","91","","29","","24","","24.1","","98.00","","","","","","Mostly Cloudy"
"2003-10-04 04:00","2003","10","04","04:00","7.0","","5.5","","90","","28","","11","","24.1","","98.03","","","","","","Mostly Cloudy"
"2003-10-04 05:00","2003","10","04","05:00","6.5","","5.4","","93","","27","","13","","24.1","","98.11","","","","","","Mostly Cloudy"
"2003-10-04 06:00","2003","10","04","06:00","6.4","","4.9","","90","","28","","9","","24.1","","98.15","","","","","","Mostly Cloudy"
"2003-10-04 07:00","2003","10","04","07:00","6.0","","4.7","","91","","24","","7","","24.1","","98.23","","","","","","Mostly Cloudy"
"2003-10-04 08:00","2003","10","04","08:00","6.7","","4.9","","88","","27","","13","","24.1","","98.31","","","","","","Mostly Cloudy"
"2003-10-04 09:00","2003","10","04","09:00","6.8","","4.1","","83","","27","","9","","24.1","","98.36","","","","","","Mostly Cloudy"
"2003-10-04 10:00","2003","10","04","10:00","8.6","","3.8","","72","","27","","33","","24.1","","98.36","","","","","","Mostly Cloudy"
"2003-10-04 11:00","2003","10","04","11:00","9.1","","3.0","","66","","28","","32","","24.1","","98.39","","","","","","Mostly Cloudy"
"2003-10-04 12:00","2003","10","04","12:00","9.2","","1.8","","60","","29","","33","","24.1","","98.42","","","","","","Mostly Cloudy"
"2003-10-04 13:00","2003","10","04","13:00","8.3","","3.9","","74","","28","","26","","24.1","","98.44","","","","","","Mainly Clear"
"2003-10-04 14:00","2003","10","04","14:00","10.4","","2.3","","57","","27","","41","","24.1","","98.48","","","","","","Mostly Cloudy"
"2003-10-04 15:00","2003","10","04","15:00","8.6","","1.5","","61","","27","","35","","24.1","","98.53","","","","","","Mostly Cloudy"
"2003-10-04 16:00","2003","10","04","16:00","9.1","","1.5","","59","","28","","20","","24.1","","98.59","","","","","","Mainly Clear"
"2003-10-04 17:00","2003","10","04","17:00","9.2","","0.1","","53","","28","","33","","24.1","","98.66","","","","","","Mainly Clear"
"2003-10-04 18:00","2003","10","04","18:00","6.9","","1.9","","70","","30","","28","","24.1","","98.79","","","","","","Mostly Cloudy"
"2003-10-04 19:00","2003","10","04","19:00","6.5","","2.0","","73","","27","","22","","24.1","","98.90","","","","","","Mostly Cloudy"
"2003-10-04 20:00","2003","10","04","20:00","5.1","","2.0","","80","","27","","20","","24.1","","98.92","","","","","","Mainly Clear"
"2003-10-04 21:00","2003","10","04","21:00","5.3","","2.3","","81","","27","","22","","24.1","","98.95","","","","","","Mostly Cloudy"
"2003-10-04 22:00","2003","10","04","22:00","4.8","","2.4","","84","","27","","22","","24.1","","98.97","","","","","","Mostly Cloudy"
"2003-10-04 23:00","2003","10","04","23:00","4.4","","2.4","","87","","27","","15","","24.1","","98.92","","","","","","Mostly Cloudy"
"2003-10-05 00:00","2003","10","05","00:00","4.2","","2.2","","87","","28","","15","","24.1","","98.91","","","","","","Mostly Cloudy"
"2003-10-05 01:00","2003","10","05","01:00","4.4","","2.4","","87","","28","","19","","24.1","","98.92","","","","","","Mostly Cloudy"
"2003-10-05 02:00","2003","10","05","02:00","4.3","","1.8","","84","","28","","24","","24.1","","98.91","","","","","","Mainly Clear"
"2003-10-05 03:00","2003","10","05","03:00","3.7","","1.3","","84","","27","","20","","24.1","","98.94","","","","","","Clear"
"2003-10-05 04:00","2003","10","05","04:00","2.5","","0.8","","89","","26","","17","","24.1","","98.97","","","","","","Clear"
"2003-10-05 05:00","2003","10","05","05:00","2.3","","1.1","","92","","26","","15","","24.1","","99.05","","","","","","Clear"
"2003-10-05 06:00","2003","10","05","06:00","2.7","","1.3","","90","","26","","19","","24.1","","99.10","","","","","","Clear"
"2003-10-05 07:00","2003","10","05","07:00","3.0","","1.3","","89","","27","","19","","24.1","","99.16","","","","","","Clear"
"2003-10-05 08:00","2003","10","05","08:00","5.1","","2.3","","82","","26","","20","","24.1","","99.23","","","","","","Mainly Clear"
"2003-10-05 09:00","2003","10","05","09:00","7.4","","2.2","","70","","29","","26","","24.1","","99.28","","","","","","Mainly Clear"
"2003-10-05 10:00","2003","10","05","10:00","8.1","","2.5","","68","","29","","28","","24.1","","99.33","","","","","","Mostly Cloudy"
"2003-10-05 11:00","2003","10","05","11:00","9.4","","1.9","","59","","29","","26","","24.1","","99.36","","","","","","Mostly Cloudy"
"2003-10-05 12:00","2003","10","05","12:00","11.2","","1.8","","52","","28","","22","","24.1","","99.36","","","","","","Mostly Cloudy"
"2003-10-05 13:00","2003","10","05","13:00","10.4","","1.5","","54","","28","","22","","24.1","","99.35","","","","","","Mostly Cloudy"
"2003-10-05 14:00","2003","10","05","14:00","12.3","","1.1","","46","","27","","33","","24.1","","99.36","","","","","","Rain Showers"
"2003-10-05 15:00","2003","10","05","15:00","11.4","","0.8","","48","","29","","28","","24.1","","99.42","","","","","","Mostly Cloudy"
"2003-10-05 16:00","2003","10","05","16:00","9.3","","0.7","","55","","30","","32","","24.1","","99.48","","","","","","Mostly Cloudy"
"2003-10-05 17:00","2003","10","05","17:00","9.3","","1.4","","58","","30","","35","","24.1","","99.53","","","","","","Mostly Cloudy"
"2003-10-05 18:00","2003","10","05","18:00","8.1","","1.3","","62","","28","","28","","24.1","","99.61","","","","","","Mostly Cloudy"
"2003-10-05 19:00","2003","10","05","19:00","6.8","","1.3","","68","","28","","22","","24.1","","99.64","","","","","","Mainly Clear"
"2003-10-05 20:00","2003","10","05","20:00","6.3","","1.3","","70","","29","","19","","24.1","","99.70","","","","","","Mainly Clear"
"2003-10-05 21:00","2003","10","05","21:00","4.4","","1.2","","80","","27","","17","","24.1","","99.72","","","","","","Clear"
"2003-10-05 22:00","2003","10","05","22:00","4.2","","1.4","","82","","28","","20","","24.1","","99.74","","","","","","Clear"
"2003-10-05 23:00","2003","10","05","23:00","3.5","","1.2","","85","","32","","11","","24.1","","99.76","","","","","","Clear"
"2003-10-06 00:00","2003","10","06","00:00","3.0","","1.1","","87","","31","","11","","24.1","","99.77","","","","","","Mainly Clear"
"2003-10-06 01:00","2003","10","06","01:00","2.4","","0.8","","89","","30","","11","","24.1","","99.78","","","","","","Clear"
"2003-10-06 02:00","2003","10","06","02:00","1.2","","0.1","","92","","27","","11","","24.1","","99.80","","","","","","Clear"
"2003-10-06 03:00","2003","10","06","03:00","1.2","","-0.2","","90","","28","","7","","24.1","","99.81","","","","","","Clear"
"2003-10-06 04:00","2003","10","06","04:00","1.6","","0.3","","91","","30","","7","","24.1","","99.88","","","","","","Clear"
"2003-10-06 05:00","2003","10","06","05:00","1.2","","0.0","","92","","36","","9","","24.1","","99.92","","","","","","Clear"
"2003-10-06 06:00","2003","10","06","06:00","1.1","","-0.1","","92","","31","","7","","24.1","","99.97","","","","","","Clear"
"2003-10-06 07:00","2003","10","06","07:00","1.5","","0.1","","90","","31","","7","","19.3","","100.02","","","","","","Clear"
"2003-10-06 08:00","2003","10","06","08:00","3.8","","1.5","","85","","30","","7","","24.1","","100.07","","","","","","Clear"
"2003-10-06 09:00","2003","10","06","09:00","6.6","","2.9","","77","","33","","6","","24.1","","100.11","","","","","","Clear"
"2003-10-06 10:00","2003","10","06","10:00","7.9","","2.3","","68","","35","","4","","24.1","","100.12","","","","","","Mainly Clear"
"2003-10-06 11:00","2003","10","06","11:00","9.3","","2.2","","61","","30","","7","","24.1","","100.09","","","","","","Mainly Clear"
"2003-10-06 12:00","2003","10","06","12:00","9.8","","1.0","","54","","36","","4","","24.1","","100.06","","","","","","Mostly Cloudy"
"2003-10-06 13:00","2003","10","06","13:00","9.6","","2.2","","60","","13","","9","","24.1","","99.99","","","","","","Mostly Cloudy"
"2003-10-06 14:00","2003","10","06","14:00","9.9","","3.0","","62","","14","","13","","24.1","","99.94","","","","","","Mostly Cloudy"
"2003-10-06 15:00","2003","10","06","15:00","11.3","","3.1","","57","","16","","11","","24.1","","99.92","","","","","","Mainly Clear"
"2003-10-06 16:00","2003","10","06","16:00","10.2","","1.3","","54","","14","","15","","24.1","","99.89","","","","","","Mainly Clear"
"2003-10-06 17:00","2003","10","06","17:00","9.7","","0.6","","53","","13","","11","","24.1","","99.88","","","","","","Mainly Clear"
"2003-10-06 18:00","2003","10","06","18:00","8.0","","0.1","","57","","15","","7","","24.1","","99.90","","","","","","Mainly Clear"
"2003-10-06 19:00","2003","10","06","19:00","7.4","","0.9","","63","","16","","6","","24.1","","99.93","","","","","","Clear"
"2003-10-06 20:00","2003","10","06","20:00","7.6","","1.4","","65","","17","","4","","24.1","","99.92","","","","","","Clear"
"2003-10-06 21:00","2003","10","06","21:00","7.1","","1.6","","68","","","","0","","24.1","","99.93","","","","","","Mainly Clear"
"2003-10-06 22:00","2003","10","06","22:00","6.0","","1.5","","73","","30","","6","","24.1","","99.93","","","","","","Clear"
"2003-10-06 23:00","2003","10","06","23:00","5.8","","1.5","","74","","","","0","","24.1","","99.93","","","","","","Mainly Clear"
"2003-10-07 00:00","2003","10","07","00:00","4.4","","1.6","","82","","31","","9","","24.1","","99.90","","","","","","Clear"
"2003-10-07 01:00","2003","10","07","01:00","4.0","","1.6","","84","","31","","9","","24.1","","99.93","","","","","","Mainly Clear"
"2003-10-07 02:00","2003","10","07","02:00","3.8","","1.6","","86","","32","","4","","24.1","","99.94","","","","","","Clear"
"2003-10-07 03:00","2003","10","07","03:00","2.9","","1.2","","89","","27","","9","","24.1","","99.92","","","","","","Clear"
"2003-10-07 04:00","2003","10","07","04:00","3.0","","1.1","","87","","27","","4","","24.1","","99.95","","","","","","Clear"
"2003-10-07 05:00","2003","10","07","05:00","2.7","","1.1","","89","","","","0","","24.1","","99.98","","","","","","Clear"
"2003-10-07 06:00","2003","10","07","06:00","1.8","","0.6","","92","","26","","7","","19.3","","100.01","","","","","","Clear"
"2003-10-07 07:00","2003","10","07","07:00","2.2","","0.8","","90","","28","","4","","19.3","","100.02","","","","","","Clear"
"2003-10-07 08:00","2003","10","07","08:00","5.5","","2.1","","79","","27","","7","","19.3","","100.07","","","","","","Clear"
"2003-10-07 09:00","2003","10","07","09:00","9.6","","2.4","","61","","24","","13","","24.1","","100.09","","","","","","Mainly Clear"
"2003-10-07 10:00","2003","10","07","10:00","12.1","","3.0","","54","","25","","11","","24.1","","100.06","","","","","","Mainly Clear"
"2003-10-07 11:00","2003","10","07","11:00","14.2","","2.1","","44","","26","","22","","24.1","","100.02","","","","","","Mainly Clear"
"2003-10-07 12:00","2003","10","07","12:00","14.9","","2.2","","42","","22","","20","","24.1","","99.97","","","","","","Clear"
"2003-10-07 13:00","2003","10","07","13:00","15.6","","1.9","","40","","24","","20","","24.1","","99.90","","","","","","Clear"
"2003-10-07 14:00","2003","10","07","14:00","16.6","","2.4","","38","","22","","13","","24.1","","99.84","","","","","","Clear"
"2003-10-07 15:00","2003","10","07","15:00","16.8","","3.3","","40","","24","","11","","24.1","","99.79","","","","","","Clear"
"2003-10-07 16:00","2003","10","07","16:00","16.8","","3.6","","41","","17","","6","","24.1","","99.77","","","","","","Clear"
"2003-10-07 17:00","2003","10","07","17:00","14.0","","4.5","","53","","16","","13","","24.1","","99.77","","","","","","Clear"
"2003-10-07 18:00","2003","10","07","18:00","12.4","","6.3","","66","","17","","9","","24.1","","99.78","","","","","","Clear"
"2003-10-07 19:00","2003","10","07","19:00","12.0","","6.4","","69","","18","","9","","24.1","","99.79","","","","","","Clear"
"2003-10-07 20:00","2003","10","07","20:00","11.8","","6.4","","69","","22","","15","","24.1","","99.81","","","","","","Clear"
"2003-10-07 21:00","2003","10","07","21:00","10.4","","6.2","","75","","24","","9","","24.1","","99.84","","","","","","Clear"
"2003-10-07 22:00","2003","10","07","22:00","8.7","","5.8","","82","","25","","7","","24.1","","99.85","","","","","","Clear"
"2003-10-07 23:00","2003","10","07","23:00","10.3","","5.9","","74","","19","","4","","24.1","","99.85","","","","","","Clear"
"2003-10-08 00:00","2003","10","08","00:00","9.7","","5.8","","77","","19","","4","","24.1","","99.86","","","","","","Clear"
"2003-10-08 01:00","2003","10","08","01:00","9.5","","5.7","","77","","18","","6","","24.1","","99.88","","","","","","Clear"
"2003-10-08 02:00","2003","10","08","02:00","9.7","","6.1","","78","","20","","4","","19.3","","99.86","","","","","","Clear"
"2003-10-08 03:00","2003","10","08","03:00","9.4","","6.4","","82","","17","","4","","19.3","","99.83","","","","","","Mainly Clear"
"2003-10-08 04:00","2003","10","08","04:00","8.6","","6.4","","86","","","","0","","19.3","","99.82","","","","","","Clear"
"2003-10-08 05:00","2003","10","08","05:00","8.3","","6.4","","88","","11","","4","","16.1","","99.82","","","","","","Clear"
"2003-10-08 06:00","2003","10","08","06:00","9.5","","7.3","","86","","16","","7","","16.1","","99.80","","","","","","Clear"
"2003-10-08 07:00","2003","10","08","07:00","9.0","","7.1","","88","","16","","6","","9.7","","99.82","","","","","","Fog"
"2003-10-08 08:00","2003","10","08","08:00","12.2","","9.2","","82","","22","","7","","11.3","","99.84","","","","","","Clear"
"2003-10-08 09:00","2003","10","08","09:00","15.6","","11.3","","76","","23","","13","","12.9","","99.84","","","","","","Clear"
"2003-10-08 10:00","2003","10","08","10:00","18.2","","12.0","","67","","24","","9","","16.1","","99.82","","","","","","Clear"
"2003-10-08 11:00","2003","10","08","11:00","21.7","","13.0","","58","","24","","7","","19.3","","99.80","","","","","","Clear"
"2003-10-08 12:00","2003","10","08","12:00","23.6","","14.5","","57","","19","","9","","19.3","","99.78","","27","","","","Clear"
"2003-10-08 13:00","2003","10","08","13:00","25.2","","13.8","","49","","24","","19","","24.1","","99.72","","28","","","","Clear"
"2003-10-08 14:00","2003","10","08","14:00","26.0","","14.0","","48","","25","","20","","24.1","","99.70","","29","","","","Clear"
"2003-10-08 15:00","2003","10","08","15:00","26.5","","13.0","","43","","26","","28","","24.1","","99.68","","29","","","","Clear"
"2003-10-08 16:00","2003","10","08","16:00","26.0","","12.8","","44","","27","","28","","24.1","","99.70","","29","","","","Clear"
"2003-10-08 17:00","2003","10","08","17:00","24.6","","12.7","","47","","25","","26","","24.1","","99.70","","27","","","","Clear"
"2003-10-08 18:00","2003","10","08","18:00","22.6","","12.3","","52","","25","","19","","24.1","","99.72","","25","","","","Clear"
"2003-10-08 19:00","2003","10","08","19:00","21.7","","12.8","","57","","19","","4","","24.1","","99.80","","","","","","Clear"
"2003-10-08 20:00","2003","10","08","20:00","18.4","","13.8","","75","","24","","9","","24.1","","99.83","","","","","","Clear"
"2003-10-08 21:00","2003","10","08","21:00","17.2","","13.8","","80","","24","","13","","24.1","","99.86","","","","","","Clear"
"2003-10-08 22:00","2003","10","08","22:00","16.2","","13.5","","84","","25","","7","","24.1","","99.90","","","","","","Clear"
"2003-10-08 23:00","2003","10","08","23:00","16.0","","13.4","","85","","24","","11","","24.1","","99.91","","","","","","Clear"
"2003-10-09 00:00","2003","10","09","00:00","14.8","","12.8","","88","","28","","9","","24.1","","99.94","","","","","","Clear"
"2003-10-09 01:00","2003","10","09","01:00","14.3","","12.3","","88","","28","","11","","24.1","","99.95","","","","","","Clear"
"2003-10-09 02:00","2003","10","09","02:00","14.7","","12.2","","85","","27","","6","","24.1","","99.98","","","","","","Clear"
"2003-10-09 03:00","2003","10","09","03:00","13.7","","11.8","","88","","","","0","","24.1","","99.97","","","","","","Clear"
"2003-10-09 04:00","2003","10","09","04:00","11.6","","10.7","","94","","29","","6","","24.1","","99.99","","","","","","Clear"
"2003-10-09 05:00","2003","10","09","05:00","13.1","","11.4","","89","","30","","7","","19.3","","100.03","","","","","","Clear"
"2003-10-09 06:00","2003","10","09","06:00","11.9","","11.0","","94","","","","0","","19.3","","100.07","","","","","","Clear"
"2003-10-09 07:00","2003","10","09","07:00","13.2","","11.1","","87","","","","0","","19.3","","100.09","","","","","","Mainly Clear"
"2003-10-09 08:00","2003","10","09","08:00","16.0","","12.8","","81","","","","0","","16.1","","100.16","","","","","","Clear"
"2003-10-09 09:00","2003","10","09","09:00","18.8","","13.1","","69","","","","0","","16.1","","100.22","","","","","","Mainly Clear"
"2003-10-09 10:00","2003","10","09","10:00","21.0","","13.6","","63","","","","0","","16.1","","100.22","","","","","","Mainly Clear"
"2003-10-09 11:00","2003","10","09","11:00","22.4","","13.7","","58","","13","","6","","16.1","","100.21","","26","","","","Mainly Clear"
"2003-10-09 12:00","2003","10","09","12:00","23.6","","14.4","","56","","17","","11","","16.1","","100.19","","27","","","","Mostly Cloudy"
"2003-10-09 13:00","2003","10","09","13:00","21.6","","13.7","","61","","14","","11","","16.1","","100.15","","25","","","","Mostly Cloudy"
"2003-10-09 14:00","2003","10","09","14:00","22.0","","13.8","","60","","13","","9","","16.1","","100.10","","25","","","","Mostly Cloudy"
"2003-10-09 15:00","2003","10","09","15:00","22.9","","13.9","","57","","14","","9","","16.1","","100.07","","26","","","","Mainly Clear"
"2003-10-09 16:00","2003","10","09","16:00","22.7","","13.8","","57","","12","","9","","16.1","","100.05","","26","","","","Mainly Clear"
"2003-10-09 17:00","2003","10","09","17:00","22.1","","13.4","","58","","17","","9","","16.1","","100.08","","25","","","","Mainly Clear"
"2003-10-09 18:00","2003","10","09","18:00","17.7","","12.4","","71","","16","","7","","16.1","","100.07","","","","","","Mainly Clear"
"2003-10-09 19:00","2003","10","09","19:00","16.3","","12.1","","76","","14","","4","","16.1","","100.08","","","","","","Mainly Clear"
"2003-10-09 20:00","2003","10","09","20:00","15.2","","12.1","","82","","14","","6","","12.9","","100.09","","","","","","Mostly Cloudy"
"2003-10-09 21:00","2003","10","09","21:00","14.6","","12.2","","86","","","","0","","12.9","","100.12","","","","","","Mostly Cloudy"
"2003-10-09 22:00","2003","10","09","22:00","14.1","","12.2","","88","","3","","6","","11.3","","100.13","","","","","","Mostly Cloudy"
"2003-10-09 23:00","2003","10","09","23:00","14.8","","12.5","","86","","4","","6","","11.3","","100.13","","","","","","Mostly Cloudy"
"2003-10-10 00:00","2003","10","10","00:00","14.7","","12.6","","87","","1","","7","","11.3","","100.10","","","","","","Mostly Cloudy"
"2003-10-10 01:00","2003","10","10","01:00","14.6","","12.6","","88","","35","","7","","9.7","","100.10","","","","","","Fog"
"2003-10-10 02:00","2003","10","10","02:00","14.4","","12.6","","89","","1","","4","","9.7","","100.06","","","","","","Fog"
"2003-10-10 03:00","2003","10","10","03:00","14.3","","12.7","","90","","1","","7","","9.7","","100.04","","","","","","Fog"
"2003-10-10 04:00","2003","10","10","04:00","13.5","","12.1","","91","","","","0","","8.0","","100.08","","","","","","Fog"
"2003-10-10 05:00","2003","10","10","05:00","13.5","","11.9","","90","","","","0","","8.0","","100.08","","","","","","Fog"
"2003-10-10 06:00","2003","10","10","06:00","12.9","","11.9","","94","","","","0","","4.8","","100.11","","","","","","Fog"
"2003-10-10 07:00","2003","10","10","07:00","15.1","","12.8","","86","","7","","7","","4.8","","100.12","","","","","","Haze"
"2003-10-10 08:00","2003","10","10","08:00","15.9","","13.7","","87","","6","","9","","4.8","","100.15","","","","","","Haze"
"2003-10-10 09:00","2003","10","10","09:00","16.7","","14.0","","84","","12","","6","","6.4","","100.20","","","","","","Haze"
"2003-10-10 10:00","2003","10","10","10:00","18.2","","14.7","","80","","7","","6","","6.4","","100.20","","","","","","Haze"
"2003-10-10 11:00","2003","10","10","11:00","19.8","","15.1","","74","","12","","11","","6.4","","100.18","","","","","","Haze"
"2003-10-10 12:00","2003","10","10","12:00","20.6","","15.1","","71","","15","","9","","8.0","","100.14","","25","","","","Haze"
"2003-10-10 13:00","2003","10","10","13:00","21.1","","15.1","","69","","16","","13","","6.4","","100.09","","25","","","","Haze"
"2003-10-10 14:00","2003","10","10","14:00","20.9","","14.8","","68","","14","","7","","8.0","","100.05","","25","","","","Haze"
"2003-10-10 15:00","2003","10","10","15:00","21.6","","14.1","","62","","12","","9","","11.3","","100.02","","25","","","","Mainly Clear"
"2003-10-10 16:00","2003","10","10","16:00","21.8","","13.5","","59","","14","","9","","14.5","","100.00","","25","","","","Mainly Clear"
"2003-10-10 17:00","2003","10","10","17:00","20.6","","12.9","","61","","14","","7","","16.1","","99.99","","","","","","Mainly Clear"
"2003-10-10 18:00","2003","10","10","18:00","16.7","","12.8","","78","","16","","6","","9.7","","100.02","","","","","","Haze"
"2003-10-10 19:00","2003","10","10","19:00","15.4","","12.5","","83","","16","","4","","9.7","","100.03","","","","","","Haze"
"2003-10-10 20:00","2003","10","10","20:00","15.0","","12.4","","84","","","","0","","8.0","","100.04","","","","","","Haze"
"2003-10-10 21:00","2003","10","10","21:00","14.6","","12.3","","86","","","","0","","6.4","","100.06","","","","","","Haze"
"2003-10-10 22:00","2003","10","10","22:00","14.7","","12.5","","87","","","","0","","6.4","","100.08","","","","","","Haze"
"2003-10-10 23:00","2003","10","10","23:00","14.5","","12.6","","88","","2","","9","","8.0","","100.06","","","","","","Fog"
"2003-10-11 00:00","2003","10","11","00:00","14.2","","12.3","","88","","5","","7","","8.0","","100.05","","","","","","Fog"
"2003-10-11 01:00","2003","10","11","01:00","13.3","","12.1","","92","","2","","9","","6.4","","100.07","","","","","","Fog"
"2003-10-11 02:00","2003","10","11","02:00","13.4","","12.3","","93","","4","","4","","6.4","","100.06","","","","","","Fog"
"2003-10-11 03:00","2003","10","11","03:00","12.5","","11.9","","96","","36","","4","","6.4","","100.08","","","","","","Fog"
"2003-10-11 04:00","2003","10","11","04:00","11.7","","11.2","","97","","","","0","","4.8","","100.08","","","","","","Fog"
"2003-10-11 05:00","2003","10","11","05:00","12.4","","11.9","","97","","","","0","","4.8","","100.10","","","","","","Fog"
"2003-10-11 06:00","2003","10","11","06:00","10.9","","10.2","","95","","35","","4","","4.0","","100.14","","","","","","Fog"
"2003-10-11 07:00","2003","10","11","07:00","11.9","","11.7","","99","","","","0","","3.2","","100.17","","","","","","Fog"
"2003-10-11 08:00","2003","10","11","08:00","13.2","","13.2","","100","","8","","6","","0.4","","100.22","","","","","","Fog"
"2003-10-11 09:00","2003","10","11","09:00","13.4","","13.4","","100","","","","0","","0.2","","100.21","","","","","","Fog"
"2003-10-11 10:00","2003","10","11","10:00","15.2","","14.8","","97","","19","","4","","4.0","","100.20","","","","","","Fog"
"2003-10-11 11:00","2003","10","11","11:00","18.7","","14.2","","75","","16","","6","","6.4","","100.17","","","","","","Haze"
"2003-10-11 12:00","2003","10","11","12:00","19.6","","14.1","","71","","14","","15","","8.0","","100.09","","","","","","Haze"
"2003-10-11 13:00","2003","10","11","13:00","19.2","","13.2","","68","","15","","13","","9.7","","99.98","","","","","","Haze"
"2003-10-11 14:00","2003","10","11","14:00","19.3","","12.2","","63","","12","","15","","11.3","","99.93","","","","","","Clear"
"2003-10-11 15:00","2003","10","11","15:00","19.1","","12.2","","64","","14","","13","","14.5","","99.87","","","","","","Clear"
"2003-10-11 16:00","2003","10","11","16:00","18.5","","11.9","","65","","14","","11","","14.5","","99.82","","","","","","Clear"
"2003-10-11 17:00","2003","10","11","17:00","18.3","","11.5","","65","","12","","9","","16.1","","99.80","","","","","","Clear"
"2003-10-11 18:00","2003","10","11","18:00","16.9","","10.4","","66","","10","","9","","16.1","","99.78","","","","","","Clear"
"2003-10-11 19:00","2003","10","11","19:00","16.1","","10.5","","69","","9","","11","","19.3","","99.74","","","","","","Clear"
"2003-10-11 20:00","2003","10","11","20:00","14.4","","11.1","","81","","4","","4","","19.3","","99.67","","","","","","Clear"
"2003-10-11 21:00","2003","10","11","21:00","15.8","","11.1","","74","","9","","9","","19.3","","99.59","","","","","","Clear"
"2003-10-11 22:00","2003","10","11","22:00","14.2","","10.9","","81","","","","0","","19.3","","99.54","","","","","","Mainly Clear"
"2003-10-11 23:00","2003","10","11","23:00","14.2","","11.8","","85","","13","","7","","16.1","","99.48","","","","","","Clear"
"2003-10-12 00:00","2003","10","12","00:00","13.0","","11.8","","92","","16","","4","","16.1","","99.46","","","","","","Clear"
"2003-10-12 01:00","2003","10","12","01:00","12.0","","11.4","","96","","14","","4","","8.0","","99.39","","","","","","Fog"
"2003-10-12 02:00","2003","10","12","02:00","11.4","","11.0","","97","","15","","6","","4.8","","99.31","","","","","","Fog"
"2003-10-12 03:00","2003","10","12","03:00","10.8","","10.7","","99","","15","","6","","3.6","","99.25","","","","","","Fog"
"2003-10-12 04:00","2003","10","12","04:00","11.2","","10.6","","96","","13","","7","","6.4","","99.13","","","","","","Fog"
"2003-10-12 05:00","2003","10","12","05:00","11.1","","10.5","","96","","13","","4","","6.4","","99.14","","","","","","Fog"
"2003-10-12 06:00","2003","10","12","06:00","11.5","","10.6","","94","","13","","7","","6.4","","99.07","","","","","","Fog"
"2003-10-12 07:00","2003","10","12","07:00","12.1","","10.9","","92","","15","","7","","6.4","","99.05","","","","","","Fog"
"2003-10-12 08:00","2003","10","12","08:00","12.7","","11.1","","90","","18","","6","","12.9","","99.05","","","","","","Cloudy"
"2003-10-12 09:00","2003","10","12","09:00","14.1","","12.5","","90","","18","","6","","8.0","","99.03","","","","","","Fog"
"2003-10-12 10:00","2003","10","12","10:00","16.4","","14.4","","88","","24","","13","","9.7","","99.00","","","","","","Fog"
"2003-10-12 11:00","2003","10","12","11:00","16.3","","11.3","","72","","31","","28","","16.1","","99.05","","","","","","Mostly Cloudy"
"2003-10-12 12:00","2003","10","12","12:00","16.8","","11.2","","70","","30","","26","","24.1","","99.04","","","","","","Mostly Cloudy"
"2003-10-12 13:00","2003","10","12","13:00","18.8","","9.5","","55","","27","","24","","24.1","","99.03","","","","","","Mainly Clear"
"2003-10-12 14:00","2003","10","12","14:00","18.9","","7.2","","47","","29","","32","","24.1","","99.05","","","","","","Mainly Clear"
"2003-10-12 15:00","2003","10","12","15:00","18.3","","5.7","","44","","30","","24","","24.1","","99.08","","","","","","Clear"
"2003-10-12 16:00","2003","10","12","16:00","17.6","","6.1","","47","","29","","24","","24.1","","99.15","","","","","","Clear"
"2003-10-12 17:00","2003","10","12","17:00","16.4","","6.0","","50","","30","","20","","24.1","","99.20","","","","","","Clear"
"2003-10-12 18:00","2003","10","12","18:00","14.6","","6.1","","57","","29","","17","","24.1","","99.26","","","","","","Clear"
"2003-10-12 19:00","2003","10","12","19:00","12.3","","6.4","","67","","29","","11","","24.1","","99.35","","","","","","Clear"
"2003-10-12 20:00","2003","10","12","20:00","12.1","","6.3","","68","","28","","7","","24.1","","99.37","","","","","","Clear"
"2003-10-12 21:00","2003","10","12","21:00","11.4","","6.3","","71","","26","","7","","24.1","","99.40","","","","","","Clear"
"2003-10-12 22:00","2003","10","12","22:00","10.5","","6.1","","74","","25","","6","","24.1","","99.40","","","","","","Clear"
"2003-10-12 23:00","2003","10","12","23:00","10.7","","5.9","","72","","25","","6","","24.1","","99.42","","","","","","Clear"
"2003-10-13 00:00","2003","10","13","00:00","9.9","","6.0","","77","","25","","7","","24.1","","99.39","","","","","","Clear"
"2003-10-13 01:00","2003","10","13","01:00","9.0","","6.0","","81","","29","","13","","24.1","","99.43","","","","","","Clear"
"2003-10-13 02:00","2003","10","13","02:00","8.8","","6.0","","83","","31","","7","","24.1","","99.42","","","","","","Clear"
"2003-10-13 03:00","2003","10","13","03:00","7.8","","5.8","","87","","32","","13","","24.1","","99.43","","","","","","Clear"
"2003-10-13 04:00","2003","10","13","04:00","7.6","","5.9","","89","","32","","7","","24.1","","99.43","","","","","","Clear"
"2003-10-13 05:00","2003","10","13","05:00","7.1","","5.8","","91","","29","","9","","24.1","","99.49","","","","","","Clear"
"2003-10-13 06:00","2003","10","13","06:00","7.2","","5.6","","90","","","","0","","24.1","","99.50","","","","","","Clear"
"2003-10-13 07:00","2003","10","13","07:00","7.0","","5.3","","89","","","","0","","24.1","","99.52","","","","","","Clear"
"2003-10-13 08:00","2003","10","13","08:00","9.3","","7.1","","86","","23","","4","","24.1","","99.59","","","","","","Clear"
"2003-10-13 09:00","2003","10","13","09:00","11.9","","8.4","","79","","26","","13","","24.1","","99.61","","","","","","Clear"
"2003-10-13 10:00","2003","10","13","10:00","13.8","","8.8","","72","","22","","9","","24.1","","99.59","","","","","","Clear"
"2003-10-13 11:00","2003","10","13","11:00","16.9","","8.7","","58","","19","","13","","24.1","","99.54","","","","","","Clear"
"2003-10-13 12:00","2003","10","13","12:00","17.2","","9.4","","60","","16","","11","","24.1","","99.51","","","","","","Clear"
"2003-10-13 13:00","2003","10","13","13:00","17.6","","8.3","","54","","14","","9","","24.1","","99.42","","","","","","Clear"
"2003-10-13 14:00","2003","10","13","14:00","19.0","","6.5","","44","","23","","19","","24.1","","99.40","","","","","","Clear"
"2003-10-13 15:00","2003","10","13","15:00","19.1","","5.9","","42","","22","","11","","24.1","","99.33","","","","","","Clear"
"2003-10-13 16:00","2003","10","13","16:00","18.3","","7.2","","48","","16","","15","","24.1","","99.29","","","","","","Clear"
"2003-10-13 17:00","2003","10","13","17:00","15.8","","6.3","","53","","16","","13","","24.1","","99.28","","","","","","Clear"
"2003-10-13 18:00","2003","10","13","18:00","14.0","","7.2","","64","","17","","9","","24.1","","99.27","","","","","","Mainly Clear"
"2003-10-13 19:00","2003","10","13","19:00","14.1","","7.9","","66","","18","","11","","24.1","","99.28","","","","","","Clear"
"2003-10-13 20:00","2003","10","13","20:00","13.0","","8.3","","73","","19","","7","","24.1","","99.31","","","","","","Mainly Clear"
"2003-10-13 21:00","2003","10","13","21:00","11.8","","8.3","","79","","26","","11","","24.1","","99.32","","","","","","Mainly Clear"
"2003-10-13 22:00","2003","10","13","22:00","11.3","","8.3","","82","","24","","13","","24.1","","99.30","","","","","","Clear"
"2003-10-13 23:00","2003","10","13","23:00","11.6","","8.6","","82","","","","0","","24.1","","99.25","","","","","","Clear"
"2003-10-14 00:00","2003","10","14","00:00","10.1","","8.0","","87","","14","","7","","24.1","","99.21","","","","","","Mainly Clear"
"2003-10-14 01:00","2003","10","14","01:00","9.5","","7.9","","90","","","","0","","24.1","","99.15","","","","","","Mainly Clear"
"2003-10-14 02:00","2003","10","14","02:00","8.6","","7.6","","93","","","","0","","24.1","","99.08","","","","","","Mainly Clear"
"2003-10-14 03:00","2003","10","14","03:00","8.4","","7.6","","95","","","","0","","24.1","","99.01","","","","","","Mainly Clear"
"2003-10-14 04:00","2003","10","14","04:00","8.0","","7.4","","96","","","","0","","24.1","","98.97","","","","","","Mainly Clear"
"2003-10-14 05:00","2003","10","14","05:00","8.8","","8.2","","96","","","","0","","16.1","","98.92","","","","","","Mostly Cloudy"
"2003-10-14 06:00","2003","10","14","06:00","8.5","","8.0","","97","","8","","4","","16.1","","98.88","","","","","","Mainly Clear"
"2003-10-14 07:00","2003","10","14","07:00","7.7","","7.4","","98","","2","","11","","6.4","","98.83","","","","","","Fog"
"2003-10-14 08:00","2003","10","14","08:00","8.3","","8.1","","99","","4","","9","","3.6","","98.70","","","","","","Fog"
"2003-10-14 09:00","2003","10","14","09:00","11.3","","9.9","","91","","6","","11","","12.9","","98.53","","","","","","Mostly Cloudy"
"2003-10-14 10:00","2003","10","14","10:00","15.0","","9.5","","70","","11","","7","","16.1","","98.37","","","","","","Mostly Cloudy"
"2003-10-14 11:00","2003","10","14","11:00","16.2","","11.3","","73","","13","","13","","16.1","","98.20","","","","","","Mostly Cloudy"
"2003-10-14 12:00","2003","10","14","12:00","15.8","","10.2","","69","","9","","19","","19.3","","98.05","","","","","","Cloudy"
"2003-10-14 13:00","2003","10","14","13:00","13.7","","8.5","","71","","10","","11","","24.1","","97.92","","","","","","Cloudy"
"2003-10-14 14:00","2003","10","14","14:00","13.5","","8.5","","72","","4","","17","","24.1","","97.70","","","","","","Cloudy"
"2003-10-14 15:00","2003","10","14","15:00","12.5","","10.3","","86","","3","","17","","11.3","","97.50","","","","","","Rain"
"2003-10-14 16:00","2003","10","14","16:00","12.5","","11.0","","91","","3","","20","","8.0","","97.24","","","","","","Rain,Fog"
"2003-10-14 17:00","2003","10","14","17:00","12.8","","11.6","","92","","6","","19","","6.4","","97.03","","","","","","Rain,Fog"
"2003-10-14 18:00","2003","10","14","18:00","13.3","","13.1","","99","","14","","17","","4.8","","96.96","","","","","","Heavy Rain,Fog"
"2003-10-14 19:00","2003","10","14","19:00","12.4","","12.3","","99","","14","","20","","4.8","","96.79","","","","","","Rain,Fog"
"2003-10-14 20:00","2003","10","14","20:00","12.2","","12.2","","100","","17","","15","","3.2","","96.80","","","","","","Rain,Fog"
"2003-10-14 21:00","2003","10","14","21:00","13.2","","13.0","","99","","23","","17","","8.0","","96.75","","","","","","Rain,Fog"
"2003-10-14 22:00","2003","10","14","22:00","12.1","","11.2","","94","","31","","17","","24.1","","96.79","","","","","","Cloudy"
"2003-10-14 23:00","2003","10","14","23:00","11.6","","10.6","","94","","29","","20","","24.1","","96.77","","","","","","Cloudy"
"2003-10-15 00:00","2003","10","15","00:00","11.2","","9.7","","90","","33","","39","","8.0","","96.75","","","","","","Rain,Fog"
"2003-10-15 01:00","2003","10","15","01:00","9.9","","9.1","","95","","32","","41","","14.5","","96.74","","","","","","Rain"
"2003-10-15 02:00","2003","10","15","02:00","9.8","","8.7","","93","","31","","39","","9.7","","96.82","","","","","","Rain"
"2003-10-15 03:00","2003","10","15","03:00","10.0","","8.9","","93","","31","","39","","9.7","","96.85","","","","","","Rain"
"2003-10-15 04:00","2003","10","15","04:00","9.6","","7.7","","88","","31","","41","","16.1","","96.92","","","","","","Rain"
"2003-10-15 05:00","2003","10","15","05:00","9.9","","6.9","","82","","31","","50","","24.1","","97.02","","","","","","Cloudy"
"2003-10-15 06:00","2003","10","15","06:00","9.7","","6.0","","78","","32","","59","","24.1","","97.13","","","","","","Mainly Clear"
"2003-10-15 07:00","2003","10","15","07:00","9.7","","6.3","","79","","31","","54","","24.1","","97.29","","","","","","Cloudy"
"2003-10-15 08:00","2003","10","15","08:00","9.9","","5.5","","74","","30","","59","","24.1","","97.43","","","","","","Cloudy"
"2003-10-15 09:00","2003","10","15","09:00","10.1","","4.6","","69","","31","","70","","24.1","","97.53","","","","","","Mostly Cloudy"
"2003-10-15 10:00","2003","10","15","10:00","10.6","","3.5","","61","","31","","59","","24.1","","97.63","","","","","","Mainly Clear"
"2003-10-15 11:00","2003","10","15","11:00","11.4","","2.2","","53","","30","","63","","24.1","","97.76","","","","","","Mainly Clear"
"2003-10-15 12:00","2003","10","15","12:00","11.5","","0.8","","48","","29","","76","","24.1","","97.89","","","","","","Mainly Clear"
"2003-10-15 13:00","2003","10","15","13:00","11.4","","-0.4","","44","","30","","65","","24.1","","98.05","","","","","","Mainly Clear"
"2003-10-15 14:00","2003","10","15","14:00","11.1","","-0.7","","44","","31","","65","","24.1","","98.18","","","","","","Mainly Clear"
"2003-10-15 15:00","2003","10","15","15:00","10.7","","-0.2","","47","","29","","70","","24.1","","98.30","","","","","","Mainly Clear"
"2003-10-15 16:00","2003","10","15","16:00","10.6","","-1.1","","44","","31","","61","","24.1","","98.45","","","","","","Mainly Clear"
"2003-10-15 17:00","2003","10","15","17:00","10.0","","0.6","","52","","29","","46","","24.1","","98.55","","","","","","Mainly Clear"
"2003-10-15 18:00","2003","10","15","18:00","9.1","","1.0","","57","","29","","30","","24.1","","98.65","","","","","","Mainly Clear"
"2003-10-15 19:00","2003","10","15","19:00","8.8","","1.6","","61","","28","","26","","24.1","","98.77","","","","","","Mostly Cloudy"
"2003-10-15 20:00","2003","10","15","20:00","8.9","","2.5","","64","","26","","22","","24.1","","98.85","","","","","","Cloudy"
"2003-10-15 21:00","2003","10","15","21:00","8.7","","3.0","","67","","26","","20","","24.1","","98.86","","","","","","Cloudy"
"2003-10-15 22:00","2003","10","15","22:00","8.4","","3.1","","69","","25","","17","","24.1","","98.88","","","","","","Cloudy"
"2003-10-15 23:00","2003","10","15","23:00","8.1","","3.8","","74","","25","","17","","24.1","","98.88","","","","","","Mostly Cloudy"
"2003-10-16 00:00","2003","10","16","00:00","7.4","","3.2","","75","","24","","15","","24.1","","98.84","","","","","","Mostly Cloudy"
"2003-10-16 01:00","2003","10","16","01:00","6.5","","4.2","","85","","27","","13","","24.1","","98.87","","","","","","Mostly Cloudy"
"2003-10-16 02:00","2003","10","16","02:00","6.0","","4.3","","89","","28","","15","","24.1","","98.91","","","","","","Clear"
"2003-10-16 03:00","2003","10","16","03:00","5.1","","3.2","","88","","26","","13","","24.1","","98.97","","","","","","Clear"
"2003-10-16 04:00","2003","10","16","04:00","4.6","","3.0","","89","","24","","15","","24.1","","99.05","","","","","","Mainly Clear"
"2003-10-16 05:00","2003","10","16","05:00","4.7","","2.8","","87","","24","","15","","24.1","","99.06","","","","","","Clear"
"2003-10-16 06:00","2003","10","16","06:00","5.0","","2.7","","85","","22","","11","","24.1","","99.14","","","","","","Mainly Clear"
"2003-10-16 07:00","2003","10","16","07:00","4.9","","2.7","","86","","24","","15","","24.1","","99.20","","","","","","Mainly Clear"
"2003-10-16 08:00","2003","10","16","08:00","6.2","","2.2","","76","","25","","20","","24.1","","99.29","","","","","","Mainly Clear"
"2003-10-16 09:00","2003","10","16","09:00","7.9","","1.9","","66","","27","","33","","24.1","","99.32","","","","","","Mainly Clear"
"2003-10-16 10:00","2003","10","16","10:00","8.8","","0.4","","56","","28","","32","","24.1","","99.35","","","","","","Mainly Clear"
"2003-10-16 11:00","2003","10","16","11:00","9.8","","0.3","","52","","28","","39","","24.1","","99.38","","","","","","Mostly Cloudy"
"2003-10-16 12:00","2003","10","16","12:00","10.5","","1.0","","52","","29","","33","","24.1","","99.40","","","","","","Mostly Cloudy"
"2003-10-16 13:00","2003","10","16","13:00","9.7","","0.9","","54","","27","","30","","24.1","","99.42","","","","","","Mostly Cloudy"
"2003-10-16 14:00","2003","10","16","14:00","10.4","","-0.6","","46","","28","","28","","24.1","","99.43","","","","","","Mostly Cloudy"
"2003-10-16 15:00","2003","10","16","15:00","10.1","","-0.4","","48","","29","","28","","24.1","","99.49","","","","","","Mostly Cloudy"
"2003-10-16 16:00","2003","10","16","16:00","9.4","","-1.3","","47","","29","","22","","24.1","","99.56","","","","","","Mostly Cloudy"
"2003-10-16 17:00","2003","10","16","17:00","8.9","","-1.8","","47","","29","","24","","24.1","","99.62","","","","","","Mostly Cloudy"
"2003-10-16 18:00","2003","10","16","18:00","8.1","","-1.0","","53","","28","","15","","24.1","","99.67","","","","","","Mostly Cloudy"
"2003-10-16 19:00","2003","10","16","19:00","7.8","","-0.2","","57","","29","","11","","24.1","","99.75","","","","","","Mostly Cloudy"
"2003-10-16 20:00","2003","10","16","20:00","7.2","","0.6","","63","","27","","11","","24.1","","99.81","","","","","","Mostly Cloudy"
"2003-10-16 21:00","2003","10","16","21:00","7.1","","0.4","","62","","27","","15","","24.1","","99.78","","","","","","Mostly Cloudy"
"2003-10-16 22:00","2003","10","16","22:00","6.1","","0.8","","69","","27","","11","","24.1","","99.81","","","","","","Mostly Cloudy"
"2003-10-16 23:00","2003","10","16","23:00","6.7","","0.4","","64","","26","","13","","24.1","","99.83","","","","","","Mostly Cloudy"
"2003-10-17 00:00","2003","10","17","00:00","5.8","","0.4","","68","","29","","13","","24.1","","99.80","","","","","","Mainly Clear"
"2003-10-17 01:00","2003","10","17","01:00","3.6","","0.2","","78","","26","","9","","24.1","","99.80","","","","","","Clear"
"2003-10-17 02:00","2003","10","17","02:00","4.3","","0.8","","78","","27","","13","","24.1","","99.82","","","","","","Mostly Cloudy"
"2003-10-17 03:00","2003","10","17","03:00","3.8","","0.1","","77","","29","","7","","24.1","","99.85","","","","","","Mainly Clear"
"2003-10-17 04:00","2003","10","17","04:00","3.0","","0.2","","82","","27","","6","","24.1","","99.87","","","","","","Mainly Clear"
"2003-10-17 05:00","2003","10","17","05:00","2.5","","-0.1","","83","","27","","11","","24.1","","99.89","","","","","","Mainly Clear"
"2003-10-17 06:00","2003","10","17","06:00","2.5","","0.0","","84","","27","","13","","24.1","","99.98","","","","","","Clear"
"2003-10-17 07:00","2003","10","17","07:00","3.4","","0.5","","81","","27","","11","","24.1","","100.01","","","","","","Clear"
"2003-10-17 08:00","2003","10","17","08:00","5.2","","1.2","","75","","28","","15","","24.1","","100.06","","","","","","Clear"
"2003-10-17 09:00","2003","10","17","09:00","7.3","","1.3","","66","","27","","17","","24.1","","100.09","","","","","","Clear"
"2003-10-17 10:00","2003","10","17","10:00","9.3","","1.4","","58","","27","","17","","24.1","","100.08","","","","","","Mainly Clear"
"2003-10-17 11:00","2003","10","17","11:00","8.9","","-0.6","","51","","27","","24","","24.1","","100.07","","","","","","Mostly Cloudy"
"2003-10-17 12:00","2003","10","17","12:00","9.8","","-0.2","","50","","30","","19","","24.1","","100.04","","","","","","Mostly Cloudy"
"2003-10-17 13:00","2003","10","17","13:00","9.8","","-1.5","","45","","29","","19","","24.1","","99.96","","","","","","Mostly Cloudy"
"2003-10-17 14:00","2003","10","17","14:00","8.9","","-0.4","","52","","26","","22","","24.1","","99.95","","","","","","Mostly Cloudy"
"2003-10-17 15:00","2003","10","17","15:00","8.4","","-0.3","","54","","26","","19","","24.1","","99.97","","","","","","Cloudy"
"2003-10-17 16:00","2003","10","17","16:00","8.7","","0.3","","56","","27","","11","","24.1","","99.96","","","","","","Mostly Cloudy"
"2003-10-17 17:00","2003","10","17","17:00","7.9","","1.0","","62","","26","","11","","24.1","","99.96","","","","","","Rain Showers"
"2003-10-17 18:00","2003","10","17","18:00","7.6","","1.2","","64","","28","","15","","24.1","","99.99","","","","","","Mostly Cloudy"
"2003-10-17 19:00","2003","10","17","19:00","6.6","","0.9","","67","","31","","13","","24.1","","100.01","","","","","","Mostly Cloudy"
"2003-10-17 20:00","2003","10","17","20:00","5.4","","0.7","","72","","29","","7","","24.1","","100.02","","","","","","Mostly Cloudy"
"2003-10-17 21:00","2003","10","17","21:00","5.1","","1.1","","75","","30","","13","","24.1","","100.03","","","","","","Mostly Cloudy"
"2003-10-17 22:00","2003","10","17","22:00","3.5","","-0.7","","74","","31","","7","","24.1","","100.01","","","","","","Mostly Cloudy"
"2003-10-17 23:00","2003","10","17","23:00","4.1","","-0.3","","73","","","","0","","24.1","","99.96","","","","","","Mostly Cloudy"
"2003-10-18 00:00","2003","10","18","00:00","4.1","","0.1","","75","","27","","4","","24.1","","99.96","","","","","","Mostly Cloudy"
"2003-10-18 01:00","2003","10","18","01:00","4.5","","-0.3","","71","","29","","6","","24.1","","99.93","","","","","","Cloudy"
"2003-10-18 02:00","2003","10","18","02:00","4.1","","-0.1","","74","","28","","6","","24.1","","99.87","","","","","","Cloudy"
"2003-10-18 03:00","2003","10","18","03:00","3.8","","-0.4","","74","","26","","6","","24.1","","99.84","","","","","","Cloudy"
"2003-10-18 04:00","2003","10","18","04:00","4.3","","0.0","","74","","","","0","","24.1","","99.82","","","","","","Cloudy"
"2003-10-18 05:00","2003","10","18","05:00","4.1","","0.4","","77","","24","","6","","24.1","","99.81","","","","","","Cloudy"
"2003-10-18 06:00","2003","10","18","06:00","3.8","","-0.7","","72","","","","0","","24.1","","99.79","","","","","","Mostly Cloudy"
"2003-10-18 07:00","2003","10","18","07:00","4.3","","-0.4","","71","","","","0","","19.3","","99.76","","","","","","Mostly Cloudy"
"2003-10-18 08:00","2003","10","18","08:00","5.9","","0.5","","68","","","","0","","19.3","","99.79","","","","","","Mostly Cloudy"
"2003-10-18 09:00","2003","10","18","09:00","7.2","","0.3","","61","","20","","6","","24.1","","99.76","","","","","","Mostly Cloudy"
"2003-10-18 10:00","2003","10","18","10:00","7.7","","0.9","","62","","22","","9","","24.1","","99.74","","","","","","Cloudy"
"2003-10-18 11:00","2003","10","18","11:00","7.6","","1.2","","64","","24","","9","","24.1","","99.70","","","","","","Cloudy"
"2003-10-18 12:00","2003","10","18","12:00","7.9","","3.4","","73","","","","0","","19.3","","99.62","","","","","","Rain Showers"
"2003-10-18 13:00","2003","10","18","13:00","7.4","","4.7","","83","","15","","11","","12.9","","99.56","","","","","","Rain"
"2003-10-18 14:00","2003","10","18","14:00","6.5","","5.3","","92","","15","","7","","16.1","","99.49","","","","","","Rain"
"2003-10-18 15:00","2003","10","18","15:00","8.1","","6.2","","88","","22","","9","","12.9","","99.42","","","","","","Rain"
"2003-10-18 16:00","2003","10","18","16:00","7.4","","6.5","","94","","14","","11","","14.5","","99.36","","","","","","Rain"
"2003-10-18 17:00","2003","10","18","17:00","6.9","","6.0","","94","","10","","6","","8.0","","99.37","","","","","","Rain,Fog"
"2003-10-18 18:00","2003","10","18","18:00","6.8","","5.7","","93","","18","","6","","9.7","","99.36","","","","","","Rain"
"2003-10-18 19:00","2003","10","18","19:00","6.3","","5.9","","97","","15","","9","","6.4","","99.29","","","","","","Rain,Fog"
"2003-10-18 20:00","2003","10","18","20:00","6.1","","5.7","","97","","14","","11","","8.0","","99.26","","","","","","Rain"
"2003-10-18 21:00","2003","10","18","21:00","6.6","","6.4","","99","","11","","11","","4.8","","99.19","","","","","","Rain,Fog"
"2003-10-18 22:00","2003","10","18","22:00","6.8","","6.8","","100","","13","","11","","4.8","","99.07","","","","","","Rain,Fog"
"2003-10-18 23:00","2003","10","18","23:00","7.1","","7.0","","99","","13","","9","","4.8","","99.01","","","","","","Rain,Fog"
"2003-10-19 00:00","2003","10","19","00:00","7.2","","7.0","","99","","7","","7","","6.4","","98.96","","","","","","Fog"
"2003-10-19 01:00","2003","10","19","01:00","7.2","","7.0","","99","","6","","9","","4.8","","98.92","","","","","","Fog"
"2003-10-19 02:00","2003","10","19","02:00","7.2","","6.9","","98","","3","","9","","4.8","","98.94","","","","","","Fog"
"2003-10-19 03:00","2003","10","19","03:00","7.3","","6.9","","97","","7","","6","","6.4","","98.95","","","","","","Fog"
"2003-10-19 04:00","2003","10","19","04:00","7.2","","6.9","","98","","1","","6","","4.0","","99.04","","","","","","Rain,Fog"
"2003-10-19 05:00","2003","10","19","05:00","7.1","","6.8","","98","","1","","11","","4.8","","99.18","","","","","","Drizzle"
"2003-10-19 06:00","2003","10","19","06:00","6.7","","5.7","","93","","4","","19","","6.4","","99.33","","","","","","Fog"
"2003-10-19 07:00","2003","10","19","07:00","5.7","","4.3","","91","","1","","15","","19.3","","99.47","","","","","","Cloudy"
"2003-10-19 08:00","2003","10","19","08:00","5.7","","4.3","","91","","1","","17","","19.3","","99.59","","","","","","Cloudy"
"2003-10-19 09:00","2003","10","19","09:00","5.8","","4.6","","92","","4","","15","","24.1","","99.65","","","","","","Cloudy"
"2003-10-19 10:00","2003","10","19","10:00","5.5","","3.2","","85","","3","","9","","24.1","","99.76","","","","","","Cloudy"
"2003-10-19 11:00","2003","10","19","11:00","5.8","","3.2","","83","","1","","7","","24.1","","99.85","","","","","","Cloudy"
"2003-10-19 12:00","2003","10","19","12:00","6.6","","3.0","","78","","1","","6","","24.1","","99.89","","","","","","Cloudy"
"2003-10-19 13:00","2003","10","19","13:00","7.2","","3.1","","75","","33","","6","","24.1","","99.89","","","","","","Cloudy"
"2003-10-19 14:00","2003","10","19","14:00","7.3","","3.4","","76","","29","","9","","24.1","","99.88","","","","","","Mostly Cloudy"
"2003-10-19 15:00","2003","10","19","15:00","8.5","","2.6","","66","","33","","17","","24.1","","99.90","","","","","","Mostly Cloudy"
"2003-10-19 16:00","2003","10","19","16:00","8.4","","2.2","","65","","1","","9","","24.1","","99.92","","","","","","Mostly Cloudy"
"2003-10-19 17:00","2003","10","19","17:00","7.8","","1.4","","64","","19","","6","","24.1","","99.92","","","","","","Mostly Cloudy"
"2003-10-19 18:00","2003","10","19","18:00","7.1","","3.5","","78","","19","","6","","24.1","","99.98","","","","","","Mostly Cloudy"
"2003-10-19 19:00","2003","10","19","19:00","6.7","","3.0","","77","","23","","4","","24.1","","100.02","","","","","","Mainly Clear"
"2003-10-19 20:00","2003","10","19","20:00","5.7","","3.1","","83","","22","","7","","24.1","","100.02","","","","","","Mainly Clear"
"2003-10-19 21:00","2003","10","19","21:00","5.2","","2.7","","84","","20","","6","","24.1","","100.03","","","","","","Mostly Cloudy"
"2003-10-19 22:00","2003","10","19","22:00","5.6","","2.2","","79","","23","","6","","24.1","","100.00","","","","","","Cloudy"
"2003-10-19 23:00","2003","10","19","23:00","5.2","","1.6","","78","","22","","6","","24.1","","99.98","","","","","","Mainly Clear"
"2003-10-20 00:00","2003","10","20","00:00","5.4","","1.6","","76","","20","","6","","24.1","","99.97","","","","","","Mostly Cloudy"
"2003-10-20 01:00","2003","10","20","01:00","4.4","","1.8","","83","","","","0","","24.1","","99.94","","","","","","Mostly Cloudy"
"2003-10-20 02:00","2003","10","20","02:00","4.9","","2.7","","86","","","","0","","24.1","","99.97","","","","","","Mostly Cloudy"
"2003-10-20 03:00","2003","10","20","03:00","5.1","","2.2","","82","","","","0","","24.1","","99.92","","","","","","Mostly Cloudy"
"2003-10-20 04:00","2003","10","20","04:00","5.5","","2.9","","83","","","","0","","24.1","","99.94","","","","","","Cloudy"
"2003-10-20 05:00","2003","10","20","05:00","5.3","","3.3","","87","","","","0","","24.1","","99.93","","","","","","Mostly Cloudy"
"2003-10-20 06:00","2003","10","20","06:00","5.2","","2.4","","82","","","","0","","24.1","","99.94","","","","","","Mainly Clear"
"2003-10-20 07:00","2003","10","20","07:00","5.3","","2.3","","81","","21","","4","","24.1","","99.88","","","","","","Mainly Clear"
"2003-10-20 08:00","2003","10","20","08:00","6.5","","4.0","","84","","26","","4","","24.1","","99.88","","","","","","Mostly Cloudy"
"2003-10-20 09:00","2003","10","20","09:00","9.1","","4.7","","74","","18","","7","","24.1","","99.86","","","","","","Mostly Cloudy"
"2003-10-20 10:00","2003","10","20","10:00","10.5","","5.9","","73","","18","","15","","24.1","","99.76","","","","","","Mostly Cloudy"
"2003-10-20 11:00","2003","10","20","11:00","10.9","","6.9","","76","","16","","13","","24.1","","99.67","","","","","","Mostly Cloudy"
"2003-10-20 12:00","2003","10","20","12:00","13.7","","8.5","","71","","16","","11","","24.1","","99.51","","","","","","Mostly Cloudy"
"2003-10-20 13:00","2003","10","20","13:00","14.7","","7.9","","64","","17","","22","","24.1","","99.31","","","","","","Mostly Cloudy"
"2003-10-20 14:00","2003","10","20","14:00","15.2","","7.1","","58","","17","","22","","24.1","","99.14","","","","","","Mostly Cloudy"
"2003-10-20 15:00","2003","10","20","15:00","13.9","","6.8","","62","","15","","19","","24.1","","98.99","","","","","","Mostly Cloudy"
"2003-10-20 16:00","2003","10","20","16:00","14.9","","6.3","","56","","18","","20","","24.1","","98.79","","","","","","Mostly Cloudy"
"2003-10-20 17:00","2003","10","20","17:00","15.2","","5.8","","53","","18","","15","","24.1","","98.62","","","","","","Mainly Clear"
"2003-10-20 18:00","2003","10","20","18:00","12.1","","6.0","","66","","14","","13","","24.1","","98.47","","","","","","Mainly Clear"
"2003-10-20 19:00","2003","10","20","19:00","11.4","","6.6","","72","","15","","13","","24.1","","98.35","","","","","","Mainly Clear"
"2003-10-20 20:00","2003","10","20","20:00","13.9","","8.2","","68","","19","","11","","24.1","","98.24","","","","","","Mainly Clear"
"2003-10-20 21:00","2003","10","20","21:00","17.3","","10.4","","64","","23","","26","","24.1","","98.11","","","","","","Mostly Cloudy"
"2003-10-20 22:00","2003","10","20","22:00","17.8","","11.0","","64","","22","","33","","24.1","","97.95","","","","","","Mostly Cloudy"
"2003-10-20 23:00","2003","10","20","23:00","17.8","","11.9","","68","","23","","30","","19.3","","97.78","","","","","","Rain Showers"
"2003-10-21 00:00","2003","10","21","00:00","18.8","","11.7","","63","","23","","33","","24.1","","97.62","","","","","","Mostly Cloudy"
"2003-10-21 01:00","2003","10","21","01:00","19.0","","11.5","","62","","23","","43","","24.1","","97.45","","","","","","Mostly Cloudy"
"2003-10-21 02:00","2003","10","21","02:00","17.6","","11.5","","67","","24","","37","","24.1","","97.36","","","","","","Mainly Clear"
"2003-10-21 03:00","2003","10","21","03:00","16.9","","11.1","","69","","26","","33","","24.1","","97.36","","","","","","Mainly Clear"
"2003-10-21 04:00","2003","10","21","04:00","16.8","","10.8","","68","","27","","26","","24.1","","97.43","","","","","","Mostly Cloudy"
"2003-10-21 05:00","2003","10","21","05:00","15.7","","10.8","","73","","28","","33","","24.1","","97.48","","","","","","Mainly Clear"
"2003-10-21 06:00","2003","10","21","06:00","13.5","","10.2","","80","","30","","35","","19.3","","97.62","","","","","","Mostly Cloudy"
"2003-10-21 07:00","2003","10","21","07:00","12.3","","9.8","","85","","31","","35","","14.5","","97.73","","","","","","Cloudy"
"2003-10-21 08:00","2003","10","21","08:00","10.8","","8.2","","84","","32","","41","","16.1","","97.85","","","","","","Cloudy"
"2003-10-21 09:00","2003","10","21","09:00","10.1","","7.4","","83","","31","","32","","24.1","","98.00","","","","","","Cloudy"
"2003-10-21 10:00","2003","10","21","10:00","10.1","","6.5","","78","","31","","33","","24.1","","98.07","","","","","","Cloudy"
"2003-10-21 11:00","2003","10","21","11:00","9.9","","6.5","","79","","33","","24","","24.1","","98.14","","","","","","Cloudy"
"2003-10-21 12:00","2003","10","21","12:00","9.6","","6.1","","79","","34","","20","","24.1","","98.19","","","","","","Cloudy"
"2003-10-21 13:00","2003","10","21","13:00","9.3","","6.0","","80","","34","","26","","24.1","","98.21","","","","","","Cloudy"
"2003-10-21 14:00","2003","10","21","14:00","9.2","","6.3","","82","","33","","17","","24.1","","98.23","","","","","","Cloudy"
"2003-10-21 15:00","2003","10","21","15:00","9.3","","5.7","","78","","32","","22","","24.1","","98.24","","","","","","Cloudy"
"2003-10-21 16:00","2003","10","21","16:00","8.6","","5.1","","79","","33","","22","","24.1","","98.28","","","","","","Cloudy"
"2003-10-21 17:00","2003","10","21","17:00","8.4","","4.6","","77","","33","","26","","24.1","","98.33","","","","","","Cloudy"
"2003-10-21 18:00","2003","10","21","18:00","7.9","","4.9","","81","","35","","28","","24.1","","98.41","","","","","","Mostly Cloudy"
"2003-10-21 19:00","2003","10","21","19:00","7.1","","5.1","","87","","36","","17","","24.1","","98.48","","","","","","Rain Showers"
"2003-10-21 20:00","2003","10","21","20:00","6.9","","4.9","","87","","36","","20","","24.1","","98.49","","","","","","Rain Showers"
"2003-10-21 21:00","2003","10","21","21:00","6.7","","4.8","","88","","36","","17","","24.1","","98.52","","","","","","Drizzle"
"2003-10-21 22:00","2003","10","21","22:00","5.7","","5.0","","95","","2","","17","","16.1","","98.54","","","","","","Drizzle"
"2003-10-21 23:00","2003","10","21","23:00","5.2","","4.2","","93","","2","","15","","24.1","","98.56","","","","","","Drizzle"
"2003-10-22 00:00","2003","10","22","00:00","4.7","","3.3","","91","","2","","15","","24.1","","98.54","","","","","","Drizzle"
"2003-10-22 01:00","2003","10","22","01:00","4.3","","2.5","","88","","2","","15","","24.1","","98.56","","","","","","Rain"
"2003-10-22 02:00","2003","10","22","02:00","3.9","","2.2","","89","","2","","17","","24.1","","98.56","","","","","","Rain"
"2003-10-22 03:00","2003","10","22","03:00","3.4","","2.0","","91","","1","","15","","16.1","","98.57","","","","","","Rain"
"2003-10-22 04:00","2003","10","22","04:00","2.7","","1.5","","92","","3","","17","","16.1","","98.58","","","","","","Rain"
"2003-10-22 05:00","2003","10","22","05:00","2.8","","1.4","","90","","36","","17","","24.1","","98.63","","","","","","Rain"
"2003-10-22 06:00","2003","10","22","06:00","2.8","","1.8","","93","","34","","17","","16.1","","98.68","","","","","","Rain"
"2003-10-22 07:00","2003","10","22","07:00","2.9","","1.3","","89","","34","","19","","24.1","","98.74","","","","","","Cloudy"
"2003-10-22 08:00","2003","10","22","08:00","2.4","","0.5","","87","","36","","24","","24.1","","98.79","","","","","","Cloudy"
"2003-10-22 09:00","2003","10","22","09:00","3.1","","0.7","","84","","34","","24","","24.1","","98.86","","","","","","Mostly Cloudy"
"2003-10-22 10:00","2003","10","22","10:00","4.2","","0.4","","76","","34","","20","","24.1","","98.82","","","","","","Mostly Cloudy"
"2003-10-22 11:00","2003","10","22","11:00","3.6","","-1.1","","71","","35","","26","","24.1","","98.81","","","","","","Mostly Cloudy"
"2003-10-22 12:00","2003","10","22","12:00","4.9","","-1.9","","61","","35","","24","","24.1","","98.79","","","","","","Mostly Cloudy"
"2003-10-22 13:00","2003","10","22","13:00","4.0","","-2.6","","62","","36","","20","","24.1","","98.80","","","","","","Cloudy"
"2003-10-22 14:00","2003","10","22","14:00","4.4","","-3.4","","57","","34","","30","","24.1","","98.77","","","","","","Cloudy"
"2003-10-22 15:00","2003","10","22","15:00","3.9","","-3.8","","57","","34","","22","","24.1","","98.77","","","","","","Cloudy"
"2003-10-22 16:00","2003","10","22","16:00","3.7","","-4.3","","56","","35","","24","","24.1","","98.80","","","","","","Cloudy"
"2003-10-22 17:00","2003","10","22","17:00","3.5","","-4.4","","56","","36","","26","","24.1","","98.87","","","","","","Cloudy"
"2003-10-22 18:00","2003","10","22","18:00","3.2","","-4.7","","56","","1","","24","","24.1","","98.91","","","","","","Cloudy"
"2003-10-22 19:00","2003","10","22","19:00","3.0","","-5.0","","56","","35","","19","","24.1","","98.91","","","","","","Cloudy"
"2003-10-22 20:00","2003","10","22","20:00","2.7","","-4.9","","57","","35","","19","","24.1","","98.92","","","","","","Cloudy"
"2003-10-22 21:00","2003","10","22","21:00","2.8","","-5.5","","54","","36","","28","","24.1","","98.92","","","","","","Cloudy"
"2003-10-22 22:00","2003","10","22","22:00","2.6","","-5.2","","56","","35","","19","","24.1","","98.93","","","","","","Cloudy"
"2003-10-22 23:00","2003","10","22","23:00","2.5","","-5.4","","56","","35","","20","","24.1","","98.91","","","","","","Mostly Cloudy"
"2003-10-23 00:00","2003","10","23","00:00","1.9","","-5.1","","60","","33","","20","","24.1","","98.90","","","","","","Mostly Cloudy"
"2003-10-23 01:00","2003","10","23","01:00","1.1","","-4.6","","66","","34","","15","","24.1","","98.85","","","","","","Mostly Cloudy"
"2003-10-23 02:00","2003","10","23","02:00","0.9","","-4.7","","66","","33","","17","","24.1","","98.86","","","","","","Mostly Cloudy"
"2003-10-23 03:00","2003","10","23","03:00","1.1","","-5.1","","63","","34","","20","","24.1","","98.80","","","","","","Mostly Cloudy"
"2003-10-23 04:00","2003","10","23","04:00","0.9","","-5.8","","61","","34","","20","","24.1","","98.82","","","","","","Mostly Cloudy"
"2003-10-23 05:00","2003","10","23","05:00","-0.2","","-5.4","","68","","35","","13","","24.1","","98.84","","","","-4","","Mostly Cloudy"
"2003-10-23 06:00","2003","10","23","06:00","-0.6","","-4.9","","73","","32","","15","","24.1","","98.88","","","","-5","","Mostly Cloudy"
"2003-10-23 07:00","2003","10","23","07:00","-0.1","","-5.2","","68","","34","","15","","24.1","","98.89","","","","-5","","Mostly Cloudy"
"2003-10-23 08:00","2003","10","23","08:00","0.7","","-4.3","","69","","35","","17","","24.1","","98.92","","","","","","Mostly Cloudy"
"2003-10-23 09:00","2003","10","23","09:00","2.3","","-3.2","","67","","34","","19","","24.1","","98.93","","","","","","Mainly Clear"
"2003-10-23 10:00","2003","10","23","10:00","4.5","","-4.4","","52","","2","","26","","24.1","","98.90","","","","","","Mainly Clear"
"2003-10-23 11:00","2003","10","23","11:00","5.4","","-4.3","","50","","34","","28","","24.1","","98.90","","","","","","Mostly Cloudy"
"2003-10-23 12:00","2003","10","23","12:00","5.0","","-3.8","","53","","34","","28","","24.1","","98.91","","","","","","Mostly Cloudy"
"2003-10-23 13:00","2003","10","23","13:00","5.0","","-4.6","","50","","32","","35","","24.1","","98.85","","","","","","Mostly Cloudy"
"2003-10-23 14:00","2003","10","23","14:00","4.8","","-5.3","","48","","36","","20","","24.1","","98.83","","","","","","Mostly Cloudy"
"2003-10-23 15:00","2003","10","23","15:00","4.7","","-4.1","","53","","34","","22","","24.1","","98.89","","","","","","Mostly Cloudy"
"2003-10-23 16:00","2003","10","23","16:00","4.8","","-4.2","","52","","33","","24","","24.1","","98.89","","","","","","Mostly Cloudy"
"2003-10-23 17:00","2003","10","23","17:00","4.1","","-3.8","","56","","31","","24","","24.1","","98.97","","","","","","Mostly Cloudy"
"2003-10-23 18:00","2003","10","23","18:00","3.7","","-3.6","","59","","31","","17","","24.1","","99.03","","","","","","Mostly Cloudy"
"2003-10-23 19:00","2003","10","23","19:00","1.9","","-3.9","","65","","28","","13","","24.1","","99.07","","","","","","Mainly Clear"
"2003-10-23 20:00","2003","10","23","20:00","2.6","","-3.1","","66","","28","","17","","24.1","","99.16","","","","","","Mostly Cloudy"
"2003-10-23 21:00","2003","10","23","21:00","3.1","","-2.3","","68","","28","","15","","24.1","","99.24","","","","","","Snow"
"2003-10-23 22:00","2003","10","23","22:00","3.1","","-2.2","","68","","30","","15","","24.1","","99.28","","","","","","Cloudy"
"2003-10-23 23:00","2003","10","23","23:00","3.1","","-2.3","","68","","28","","9","","24.1","","99.28","","","","","","Cloudy"
"2003-10-24 00:00","2003","10","24","00:00","3.2","","-2.2","","68","","27","","11","","24.1","","99.31","","","","","","Cloudy"
"2003-10-24 01:00","2003","10","24","01:00","3.1","","-1.6","","71","","27","","13","","24.1","","99.32","","","","","","Mostly Cloudy"
"2003-10-24 02:00","2003","10","24","02:00","3.6","","-1.6","","69","","32","","17","","24.1","","99.39","","","","","","Mostly Cloudy"
"2003-10-24 03:00","2003","10","24","03:00","2.3","","-1.6","","75","","34","","17","","24.1","","99.44","","","","","","Mostly Cloudy"
"2003-10-24 04:00","2003","10","24","04:00","0.8","","-1.4","","85","","32","","9","","24.1","","99.51","","","","","","Mainly Clear"
"2003-10-24 05:00","2003","10","24","05:00","0.9","","-0.6","","90","","30","","11","","24.1","","99.59","","","","","","Mostly Cloudy"
"2003-10-24 06:00","2003","10","24","06:00","1.3","","-1.1","","84","","31","","6","","24.1","","99.71","","","","","","Mostly Cloudy"
"2003-10-24 07:00","2003","10","24","07:00","1.1","","-1.3","","84","","31","","7","","24.1","","99.81","","","","","","Clear"
"2003-10-24 08:00","2003","10","24","08:00","3.0","","-0.2","","79","","29","","4","","24.1","","99.93","","","","","","Clear"
"2003-10-24 09:00","2003","10","24","09:00","4.3","","-0.5","","71","","33","","4","","24.1","","100.00","","","","","","Clear"
"2003-10-24 10:00","2003","10","24","10:00","5.9","","-2.0","","57","","27","","4","","24.1","","100.04","","","","","","Clear"
"2003-10-24 11:00","2003","10","24","11:00","6.7","","-2.5","","52","","","","0","","24.1","","100.11","","","","","","Clear"
"2003-10-24 12:00","2003","10","24","12:00","7.7","","-1.9","","51","","","","0","","24.1","","100.08","","","","","","Mainly Clear"
"2003-10-24 13:00","2003","10","24","13:00","7.4","","0.0","","59","","14","","17","","24.1","","100.06","","","","","","Mainly Clear"
"2003-10-24 14:00","2003","10","24","14:00","7.1","","-0.4","","59","","16","","19","","24.1","","100.08","","","","","","Mainly Clear"
"2003-10-24 15:00","2003","10","24","15:00","7.3","","-0.1","","59","","16","","13","","24.1","","100.10","","","","","","Mainly Clear"
"2003-10-24 16:00","2003","10","24","16:00","6.8","","-0.1","","61","","16","","15","","24.1","","100.10","","","","","","Mostly Cloudy"
"2003-10-24 17:00","2003","10","24","17:00","6.2","","0.5","","67","","15","","13","","24.1","","100.09","","","","","","Mostly Cloudy"
"2003-10-24 18:00","2003","10","24","18:00","5.8","","0.4","","68","","14","","11","","24.1","","100.15","","","","","","Mainly Clear"
"2003-10-24 19:00","2003","10","24","19:00","5.7","","1.5","","74","","14","","7","","24.1","","100.20","","","","","","Mostly Cloudy"
"2003-10-24 20:00","2003","10","24","20:00","6.1","","2.6","","78","","14","","9","","24.1","","100.16","","","","","","Mostly Cloudy"
"2003-10-24 21:00","2003","10","24","21:00","6.3","","3.1","","80","","13","","7","","24.1","","100.26","","","","","","Mostly Cloudy"
"2003-10-24 22:00","2003","10","24","22:00","6.7","","3.8","","82","","15","","11","","24.1","","100.22","","","","","","Mostly Cloudy"
"2003-10-24 23:00","2003","10","24","23:00","6.7","","4.1","","83","","14","","7","","24.1","","100.23","","","","","","Mostly Cloudy"
"2003-10-25 00:00","2003","10","25","00:00","6.9","","4.2","","83","","14","","7","","24.1","","100.22","","","","","","Mostly Cloudy"
"2003-10-25 01:00","2003","10","25","01:00","7.1","","4.6","","84","","11","","6","","24.1","","100.20","","","","","","Cloudy"
"2003-10-25 02:00","2003","10","25","02:00","7.2","","4.9","","85","","11","","4","","24.1","","100.25","","","","","","Cloudy"
"2003-10-25 03:00","2003","10","25","03:00","7.2","","5.0","","86","","9","","9","","24.1","","100.17","","","","","","Cloudy"
"2003-10-25 04:00","2003","10","25","04:00","7.3","","5.0","","85","","9","","13","","24.1","","100.10","","","","","","Mostly Cloudy"
"2003-10-25 05:00","2003","10","25","05:00","7.8","","4.1","","77","","11","","9","","24.1","","100.09","","","","","","Cloudy"
"2003-10-25 06:00","2003","10","25","06:00","7.3","","4.4","","82","","10","","13","","19.3","","100.01","","","","","","Cloudy"
"2003-10-25 07:00","2003","10","25","07:00","7.3","","4.6","","83","","10","","13","","19.3","","99.94","","","","","","Cloudy"
"2003-10-25 08:00","2003","10","25","08:00","7.5","","4.1","","79","","8","","9","","16.1","","99.98","","","","","","Rain"
"2003-10-25 09:00","2003","10","25","09:00","7.7","","4.6","","81","","12","","9","","16.1","","99.98","","","","","","Rain"
"2003-10-25 10:00","2003","10","25","10:00","8.2","","4.0","","75","","10","","7","","19.3","","99.91","","","","","","Cloudy"
"2003-10-25 11:00","2003","10","25","11:00","8.2","","4.8","","79","","13","","9","","16.1","","99.88","","","","","","Rain"
"2003-10-25 12:00","2003","10","25","12:00","8.9","","6.0","","82","","32","","6","","19.3","","99.90","","","","","","Cloudy"
"2003-10-25 13:00","2003","10","25","13:00","9.7","","5.8","","77","","","","0","","19.3","","99.87","","","","","","Cloudy"
"2003-10-25 14:00","2003","10","25","14:00","10.9","","6.7","","75","","23","","6","","19.3","","99.87","","","","","","Cloudy"
"2003-10-25 15:00","2003","10","25","15:00","11.3","","7.4","","77","","23","","7","","19.3","","99.95","","","","","","Cloudy"
"2003-10-25 16:00","2003","10","25","16:00","11.2","","7.5","","78","","22","","7","","24.1","","99.97","","","","","","Cloudy"
"2003-10-25 17:00","2003","10","25","17:00","10.9","","7.7","","81","","29","","7","","19.3","","100.08","","","","","","Cloudy"
"2003-10-25 18:00","2003","10","25","18:00","9.4","","6.6","","83","","14","","7","","14.5","","100.12","","","","","","Cloudy"
"2003-10-25 19:00","2003","10","25","19:00","9.3","","6.0","","80","","11","","4","","14.5","","100.14","","","","","","Cloudy"
"2003-10-25 20:00","2003","10","25","20:00","8.4","","6.0","","85","","15","","7","","12.9","","100.17","","","","","","Cloudy"
"2003-10-25 21:00","2003","10","25","21:00","8.2","","6.5","","89","","15","","6","","11.3","","100.16","","","","","","Cloudy"
"2003-10-25 22:00","2003","10","25","22:00","8.4","","6.8","","90","","","","0","","9.7","","100.14","","","","","","Rain"
"2003-10-25 23:00","2003","10","25","23:00","8.4","","7.0","","91","","","","0","","9.7","","100.05","","","","","","Rain"
"2003-10-26 00:00","2003","10","26","00:00","8.3","","7.5","","95","","","","0","","6.4","","100.02","","","","","","Rain,Fog"
"2003-10-26 01:00","2003","10","26","01:00","8.2","","7.9","","98","","8","","6","","4.8","","99.97","","","","","","Rain,Fog"
"2003-10-26 02:00","2003","10","26","02:00","8.3","","8.1","","99","","6","","4","","4.0","","99.93","","","","","","Rain,Fog"
"2003-10-26 03:00","2003","10","26","03:00","8.3","","8.3","","100","","1","","6","","3.2","","99.84","","","","","","Rain,Fog"
"2003-10-26 04:00","2003","10","26","04:00","8.1","","8.1","","100","","35","","6","","3.2","","99.77","","","","","","Rain,Fog"
"2003-10-26 05:00","2003","10","26","05:00","8.2","","8.2","","100","","6","","6","","3.6","","99.66","","","","","","Rain,Fog"
"2003-10-26 06:00","2003","10","26","06:00","8.2","","8.2","","100","","","","0","","4.0","","99.63","","","","","","Rain,Fog"
"2003-10-26 07:00","2003","10","26","07:00","8.2","","8.2","","100","","4","","6","","3.2","","99.60","","","","","","Rain,Fog"
"2003-10-26 08:00","2003","10","26","08:00","8.3","","8.3","","100","","1","","6","","2.4","","99.59","","","","","","Rain,Fog"
"2003-10-26 09:00","2003","10","26","09:00","8.3","","8.2","","99","","33","","9","","2.4","","99.57","","","","","","Rain,Fog"
"2003-10-26 10:00","2003","10","26","10:00","8.3","","8.1","","99","","34","","19","","8.0","","99.55","","","","","","Rain,Fog"
"2003-10-26 11:00","2003","10","26","11:00","8.3","","8.0","","98","","34","","24","","11.3","","99.51","","","","","","Rain"
"2003-10-26 12:00","2003","10","26","12:00","8.2","","7.8","","97","","34","","11","","14.5","","99.48","","","","","","Rain"
"2003-10-26 13:00","2003","10","26","13:00","8.5","","7.7","","95","","34","","13","","19.3","","99.43","","","","","","Cloudy"
"2003-10-26 14:00","2003","10","26","14:00","8.4","","7.6","","95","","31","","13","","19.3","","99.43","","","","","","Rain"
"2003-10-26 15:00","2003","10","26","15:00","8.9","","7.7","","92","","23","","4","","24.1","","99.46","","","","","","Mostly Cloudy"
"2003-10-26 16:00","2003","10","26","16:00","9.5","","7.7","","89","","26","","7","","24.1","","99.45","","","","","","Mostly Cloudy"
"2003-10-26 17:00","2003","10","26","17:00","8.9","","7.5","","91","","24","","9","","24.1","","99.47","","","","","","Mostly Cloudy"
"2003-10-26 18:00","2003","10","26","18:00","8.3","","7.3","","93","","18","","6","","24.1","","99.47","","","","","","Mainly Clear"
"2003-10-26 19:00","2003","10","26","19:00","7.7","","7.0","","95","","18","","7","","19.3","","99.47","","","","","","Mainly Clear"
"2003-10-26 20:00","2003","10","26","20:00","7.6","","6.8","","95","","23","","9","","19.3","","99.47","","","","","","Mostly Cloudy"
"2003-10-26 21:00","2003","10","26","21:00","6.8","","6.3","","97","","24","","7","","16.1","","99.47","","","","","","Cloudy"
"2003-10-26 22:00","2003","10","26","22:00","6.7","","6.2","","97","","27","","4","","16.1","","99.44","","","","","","Mainly Clear"
"2003-10-26 23:00","2003","10","26","23:00","6.5","","6.1","","97","","20","","6","","16.1","","99.39","","","","","","Mostly Cloudy"
"2003-10-27 00:00","2003","10","27","00:00","5.8","","5.4","","97","","","","0","","16.1","","99.34","","","","","","Mostly Cloudy"
"2003-10-27 01:00","2003","10","27","01:00","5.4","","5.0","","97","","30","","7","","12.9","","99.32","","","","","","Mostly Cloudy"
"2003-10-27 02:00","2003","10","27","02:00","5.0","","4.9","","99","","29","","6","","6.4","","99.32","","","","","","Fog"
"2003-10-27 03:00","2003","10","27","03:00","5.4","","4.9","","97","","35","","15","","6.4","","99.27","","","","","","Fog"
"2003-10-27 04:00","2003","10","27","04:00","4.7","","4.1","","96","","35","","11","","9.7","","99.18","","","","","","Fog"
"2003-10-27 05:00","2003","10","27","05:00","4.7","","3.9","","95","","35","","6","","24.1","","99.16","","","","","","Cloudy"
"2003-10-27 06:00","2003","10","27","06:00","4.8","","3.8","","93","","34","","11","","24.1","","99.15","","","","","","Mostly Cloudy"
"2003-10-27 07:00","2003","10","27","07:00","4.5","","3.5","","93","","36","","13","","19.3","","99.08","","","","","","Cloudy"
"2003-10-27 08:00","2003","10","27","08:00","4.9","","3.4","","90","","36","","13","","24.1","","99.04","","","","","","Cloudy"
"2003-10-27 09:00","2003","10","27","09:00","5.3","","3.4","","88","","36","","11","","24.1","","98.96","","","","","","Cloudy"
"2003-10-27 10:00","2003","10","27","10:00","6.1","","4.1","","87","","1","","11","","24.1","","98.91","","","","","","Cloudy"
"2003-10-27 11:00","2003","10","27","11:00","6.7","","4.2","","84","","34","","9","","24.1","","98.85","","","","","","Cloudy"
"2003-10-27 12:00","2003","10","27","12:00","7.4","","4.7","","83","","3","","9","","24.1","","98.73","","","","","","Cloudy"
"2003-10-27 13:00","2003","10","27","13:00","8.0","","5.4","","84","","36","","9","","24.1","","98.63","","","","","","Cloudy"
"2003-10-27 14:00","2003","10","27","14:00","8.1","","5.2","","82","","27","","6","","19.3","","98.57","","","","","","Cloudy"
"2003-10-27 15:00","2003","10","27","15:00","7.9","","5.4","","84","","29","","7","","14.5","","98.54","","","","","","Rain Showers"
"2003-10-27 16:00","2003","10","27","16:00","6.6","","4.6","","87","","24","","7","","16.1","","98.51","","","","","","Rain Showers"
"2003-10-27 17:00","2003","10","27","17:00","6.2","","3.9","","85","","35","","9","","19.3","","98.51","","","","","","Rain Showers"
"2003-10-27 18:00","2003","10","27","18:00","5.8","","4.0","","88","","34","","20","","24.1","","98.55","","","","","","Cloudy"
"2003-10-27 19:00","2003","10","27","19:00","5.3","","2.9","","84","","32","","28","","24.1","","98.63","","","","","","Cloudy"
"2003-10-27 20:00","2003","10","27","20:00","4.7","","1.7","","81","","31","","17","","24.1","","98.67","","","","","","Mostly Cloudy"
"2003-10-27 21:00","2003","10","27","21:00","3.9","","1.2","","83","","30","","19","","24.1","","98.73","","","","","","Mainly Clear"
"2003-10-27 22:00","2003","10","27","22:00","2.7","","0.7","","87","","27","","13","","24.1","","98.76","","","","","","Mostly Cloudy"
"2003-10-27 23:00","2003","10","27","23:00","1.4","","0.0","","90","","26","","13","","24.1","","98.79","","","","","","Mainly Clear"
"2003-10-28 00:00","2003","10","28","00:00","2.0","","0.4","","89","","27","","7","","24.1","","98.82","","","","","","Mainly Clear"
"2003-10-28 01:00","2003","10","28","01:00","1.4","","0.2","","92","","25","","6","","24.1","","98.83","","","","","","Clear"
"2003-10-28 02:00","2003","10","28","02:00","0.4","","-0.7","","92","","24","","9","","24.1","","98.85","","","","","","Clear"
"2003-10-28 03:00","2003","10","28","03:00","1.2","","0.3","","94","","","","0","","24.1","","98.81","","","","","","Cloudy"
"2003-10-28 04:00","2003","10","28","04:00","1.7","","0.7","","93","","15","","4","","24.1","","98.83","","","","","","Mostly Cloudy"
"2003-10-28 05:00","2003","10","28","05:00","2.1","","1.1","","93","","15","","4","","24.1","","98.89","","","","","","Cloudy"
"2003-10-28 06:00","2003","10","28","06:00","3.0","","1.6","","90","","7","","4","","24.1","","98.87","","","","","","Rain"
"2003-10-28 07:00","2003","10","28","07:00","3.0","","2.3","","95","","","","0","","9.7","","98.93","","","","","","Rain"
"2003-10-28 08:00","2003","10","28","08:00","4.5","","3.4","","93","","11","","11","","16.1","","98.89","","","","","","Cloudy"
"2003-10-28 09:00","2003","10","28","09:00","5.8","","5.1","","95","","10","","9","","11.3","","98.88","","","","","","Cloudy"
"2003-10-28 10:00","2003","10","28","10:00","7.6","","6.3","","91","","14","","9","","12.9","","98.87","","","","","","Cloudy"
"2003-10-28 11:00","2003","10","28","11:00","9.0","","5.5","","79","","16","","13","","16.1","","98.84","","","","","","Cloudy"
"2003-10-28 12:00","2003","10","28","12:00","9.6","","5.5","","76","","14","","17","","16.1","","98.75","","","","","","Cloudy"
"2003-10-28 13:00","2003","10","28","13:00","9.4","","4.5","","71","","16","","17","","19.3","","98.68","","","","","","Cloudy"
"2003-10-28 14:00","2003","10","28","14:00","9.7","","4.7","","71","","16","","17","","19.3","","98.64","","","","","","Cloudy"
"2003-10-28 15:00","2003","10","28","15:00","9.6","","4.9","","72","","17","","15","","24.1","","98.63","","","","","","Cloudy"
"2003-10-28 16:00","2003","10","28","16:00","9.5","","4.9","","73","","16","","9","","19.3","","98.58","","","","","","Rain"
"2003-10-28 17:00","2003","10","28","17:00","9.6","","4.6","","71","","16","","15","","24.1","","98.56","","","","","","Cloudy"
"2003-10-28 18:00","2003","10","28","18:00","9.7","","4.2","","69","","15","","15","","24.1","","98.60","","","","","","Cloudy"
"2003-10-28 19:00","2003","10","28","19:00","9.7","","4.4","","70","","14","","15","","24.1","","98.57","","","","","","Rain Showers"
"2003-10-28 20:00","2003","10","28","20:00","9.6","","4.8","","72","","14","","11","","24.1","","98.51","","","","","","Rain Showers"
"2003-10-28 21:00","2003","10","28","21:00","9.6","","4.6","","71","","14","","9","","24.1","","98.53","","","","","","Rain"
"2003-10-28 22:00","2003","10","28","22:00","8.8","","5.2","","78","","16","","7","","24.1","","98.49","","","","","","Rain"
"2003-10-28 23:00","2003","10","28","23:00","8.2","","5.7","","84","","16","","6","","14.5","","98.44","","","","","","Rain"
"2003-10-29 00:00","2003","10","29","00:00","8.0","","6.1","","88","","13","","9","","12.9","","98.39","","","","","","Rain"
"2003-10-29 01:00","2003","10","29","01:00","8.6","","6.4","","86","","14","","9","","16.1","","98.32","","","","","","Rain"
"2003-10-29 02:00","2003","10","29","02:00","8.6","","6.7","","88","","17","","11","","16.1","","98.29","","","","","","Rain"
"2003-10-29 03:00","2003","10","29","03:00","8.8","","6.5","","85","","14","","9","","16.1","","98.26","","","","","","Cloudy"
"2003-10-29 04:00","2003","10","29","04:00","7.9","","6.9","","93","","13","","9","","6.4","","98.31","","","","","","Rain,Fog"
"2003-10-29 05:00","2003","10","29","05:00","7.5","","7.2","","98","","14","","11","","6.4","","98.26","","","","","","Rain,Fog"
"2003-10-29 06:00","2003","10","29","06:00","7.8","","7.7","","99","","15","","4","","6.4","","98.21","","","","","","Fog"
"2003-10-29 07:00","2003","10","29","07:00","8.0","","8.0","","100","","","","0","","2.4","","98.22","","","","","","Drizzle,Fog"
"2003-10-29 08:00","2003","10","29","08:00","8.1","","8.0","","99","","27","","4","","4.0","","98.24","","","","","","Fog"
"2003-10-29 09:00","2003","10","29","09:00","9.0","","8.5","","97","","29","","9","","8.0","","98.24","","","","","","Fog"
"2003-10-29 10:00","2003","10","29","10:00","9.8","","7.8","","87","","31","","11","","9.7","","98.23","","","","","","Fog"
"2003-10-29 11:00","2003","10","29","11:00","11.1","","5.4","","68","","26","","17","","24.1","","98.27","","","","","","Mostly Cloudy"
"2003-10-29 12:00","2003","10","29","12:00","10.4","","2.2","","57","","26","","22","","24.1","","98.31","","","","","","Mostly Cloudy"
"2003-10-29 13:00","2003","10","29","13:00","10.0","","3.6","","64","","28","","28","","24.1","","98.34","","","","","","Mostly Cloudy"
"2003-10-29 14:00","2003","10","29","14:00","8.9","","2.6","","65","","27","","30","","24.1","","98.42","","","","","","Cloudy"
"2003-10-29 15:00","2003","10","29","15:00","8.5","","1.3","","60","","28","","30","","24.1","","98.54","","","","","","Cloudy"
"2003-10-29 16:00","2003","10","29","16:00","8.1","","2.0","","65","","28","","22","","24.1","","98.59","","","","","","Cloudy"
"2003-10-29 17:00","2003","10","29","17:00","7.9","","1.5","","64","","26","","22","","24.1","","98.66","","","","","","Cloudy"
"2003-10-29 18:00","2003","10","29","18:00","7.4","","1.2","","65","","26","","17","","24.1","","98.76","","","","","","Cloudy"
"2003-10-29 19:00","2003","10","29","19:00","7.5","","1.5","","66","","25","","20","","24.1","","98.82","","","","","","Cloudy"
"2003-10-29 20:00","2003","10","29","20:00","6.9","","2.6","","74","","26","","20","","24.1","","98.89","","","","","","Cloudy"
"2003-10-29 21:00","2003","10","29","21:00","6.8","","2.5","","74","","26","","30","","24.1","","98.95","","","","","","Cloudy"
"2003-10-29 22:00","2003","10","29","22:00","5.8","","3.8","","87","","25","","17","","24.1","","99.02","","","","","","Rain"
"2003-10-29 23:00","2003","10","29","23:00","6.5","","3.5","","81","","27","","20","","24.1","","99.11","","","","","","Cloudy"
"2003-10-30 00:00","2003","10","30","00:00","6.6","","3.4","","80","","25","","19","","24.1","","99.21","","","","","","Cloudy"
"2003-10-30 01:00","2003","10","30","01:00","6.2","","4.2","","87","","25","","19","","24.1","","99.31","","","","","","Rain"
"2003-10-30 02:00","2003","10","30","02:00","5.8","","3.9","","88","","24","","11","","24.1","","99.42","","","","","","Mostly Cloudy"
"2003-10-30 03:00","2003","10","30","03:00","6.5","","3.8","","83","","24","","9","","24.1","","99.49","","","","","","Cloudy"
"2003-10-30 04:00","2003","10","30","04:00","6.6","","3.6","","81","","23","","13","","24.1","","99.54","","","","","","Cloudy"
"2003-10-30 05:00","2003","10","30","05:00","6.2","","3.5","","83","","22","","13","","24.1","","99.61","","","","","","Mostly Cloudy"
"2003-10-30 06:00","2003","10","30","06:00","6.1","","3.6","","84","","21","","11","","24.1","","99.65","","","","","","Mostly Cloudy"
"2003-10-30 07:00","2003","10","30","07:00","5.8","","3.7","","86","","22","","13","","19.3","","99.73","","","","","","Mostly Cloudy"
"2003-10-30 08:00","2003","10","30","08:00","6.7","","4.0","","83","","22","","17","","19.3","","99.84","","","","","","Mostly Cloudy"
"2003-10-30 09:00","2003","10","30","09:00","7.7","","4.1","","78","","24","","11","","19.3","","99.90","","","","","","Mostly Cloudy"
"2003-10-30 10:00","2003","10","30","10:00","9.0","","4.3","","72","","25","","11","","24.1","","99.95","","","","","","Mostly Cloudy"
"2003-10-30 11:00","2003","10","30","11:00","10.4","","3.5","","62","","24","","7","","24.1","","99.99","","","","","","Mostly Cloudy"
"2003-10-30 12:00","2003","10","30","12:00","10.7","","2.9","","58","","21","","15","","24.1","","99.97","","","","","","Mostly Cloudy"
"2003-10-30 13:00","2003","10","30","13:00","10.5","","4.0","","64","","15","","7","","24.1","","99.99","","","","","","Mostly Cloudy"
"2003-10-30 14:00","2003","10","30","14:00","12.2","","5.3","","63","","17","","9","","24.1","","99.88","","","","","","Mainly Clear"
"2003-10-30 15:00","2003","10","30","15:00","11.9","","5.9","","67","","13","","13","","24.1","","99.86","","","","","","Mainly Clear"
"2003-10-30 16:00","2003","10","30","16:00","11.4","","5.4","","67","","14","","13","","24.1","","99.85","","","","","","Mainly Clear"
"2003-10-30 17:00","2003","10","30","17:00","10.5","","5.0","","69","","12","","7","","24.1","","99.81","","","","","","Clear"
"2003-10-30 18:00","2003","10","30","18:00","9.9","","4.8","","71","","10","","11","","19.3","","99.78","","","","","","Clear"
"2003-10-30 19:00","2003","10","30","19:00","8.6","","4.3","","74","","10","","13","","24.1","","99.77","","","","","","Mainly Clear"
"2003-10-30 20:00","2003","10","30","20:00","8.5","","4.1","","74","","9","","6","","24.1","","99.76","","","","","","Clear"
"2003-10-30 21:00","2003","10","30","21:00","8.5","","4.8","","78","","8","","6","","24.1","","99.73","","","","","","Clear"
"2003-10-30 22:00","2003","10","30","22:00","8.8","","5.6","","80","","8","","7","","24.1","","99.71","","","","","","Clear"
"2003-10-30 23:00","2003","10","30","23:00","7.6","","5.3","","85","","","","0","","24.1","","99.73","","","","","","Clear"
"2003-10-31 00:00","2003","10","31","00:00","8.3","","6.1","","86","","10","","7","","24.1","","99.68","","","","","","Clear"
"2003-10-31 01:00","2003","10","31","01:00","8.0","","6.4","","90","","13","","6","","24.1","","99.65","","","","","","Clear"
"2003-10-31 02:00","2003","10","31","02:00","5.4","","4.4","","93","","","","0","","24.1","","99.62","","","","","","Clear"
"2003-10-31 03:00","2003","10","31","03:00","6.7","","6.2","","97","","","","0","","24.1","","99.58","","","","","","Clear"
"2003-10-31 04:00","2003","10","31","04:00","5.9","","5.0","","94","","","","0","","19.3","","99.56","","","","","","Clear"
"2003-10-31 05:00","2003","10","31","05:00","6.5","","5.6","","94","","","","0","","19.3","","99.56","","","","","","Clear"
"2003-10-31 06:00","2003","10","31","06:00","5.0","","4.2","","95","","","","0","","16.1","","99.56","","","","","","Clear"
"2003-10-31 07:00","2003","10","31","07:00","6.4","","5.3","","93","","","","0","","16.1","","99.57","","","","","","Mostly Cloudy"
"2003-10-31 08:00","2003","10","31","08:00","10.7","","8.3","","85","","15","","7","","19.3","","99.59","","","","","","Mostly Cloudy"
"2003-10-31 09:00","2003","10","31","09:00","12.5","","9.0","","79","","18","","6","","19.3","","99.62","","","","","","Mostly Cloudy"
"2003-10-31 10:00","2003","10","31","10:00","17.0","","10.6","","66","","22","","19","","24.1","","99.60","","","","","","Mostly Cloudy"
"2003-10-31 11:00","2003","10","31","11:00","18.4","","11.3","","63","","22","","24","","24.1","","99.58","","","","","","Mainly Clear"
"2003-10-31 12:00","2003","10","31","12:00","20.4","","12.3","","60","","22","","30","","24.1","","99.57","","","","","","Mostly Cloudy"
"2003-10-31 13:00","2003","10","31","13:00","19.7","","12.4","","63","","21","","28","","24.1","","99.51","","","","","","Mostly Cloudy"
"2003-10-31 14:00","2003","10","31","14:00","20.4","","12.6","","61","","23","","33","","24.1","","99.51","","","","","","Mainly Clear"
"2003-10-31 15:00","2003","10","31","15:00","20.2","","12.4","","61","","22","","26","","24.1","","99.49","","","","","","Mostly Cloudy"
"2003-10-31 16:00","2003","10","31","16:00","19.8","","13.0","","65","","21","","20","","24.1","","99.55","","","","","","Cloudy"
"2003-10-31 17:00","2003","10","31","17:00","18.8","","13.4","","71","","22","","22","","19.3","","99.59","","","","","","Cloudy"
"2003-10-31 18:00","2003","10","31","18:00","18.9","","13.1","","69","","22","","22","","19.3","","99.62","","","","","","Mostly Cloudy"
"2003-10-31 19:00","2003","10","31","19:00","18.7","","13.2","","70","","22","","17","","24.1","","99.62","","","","","","Mainly Clear"
"2003-10-31 20:00","2003","10","31","20:00","18.1","","13.3","","74","","22","","17","","24.1","","99.58","","","","","","Clear"
"2003-10-31 21:00","2003","10","31","21:00","18.1","","13.7","","75","","22","","17","","24.1","","99.59","","","","","","Clear"
"2003-10-31 22:00","2003","10","31","22:00","18.2","","13.9","","76","","22","","17","","24.1","","99.61","","","","","","Mainly Clear"
"2003-10-31 23:00","2003","10","31","23:00","18.4","","14.3","","77","","22","","19","","24.1","","99.59","","","","","","Mostly Cloudy"
