"Station Name","TORONTO LESTER B. PEARSON INT'L A"
"Province","ONTARIO"
"Latitude","43.68"
"Longitude","-79.63"
"Elevation","173.40"
"Climate Identifier","6158733"
"WMO Identifier","71624"
"TC Identifier","YYZ"
"All times are specified in Local Standard Time (LST). Add 1 hour to adjust for Daylight Saving Time where and when it is observed."

"Legend"
"E","Estimated"
"M","Missing"
"NA","Not Available"

"Date/Time","Year","Month","Day","Time","Temp (°C)","Temp Flag","Dew Point Temp (°C)","Dew Point Temp Flag","Rel Hum (%)","Rel Hum Flag","Wind Dir (10s deg)","Wind Dir Flag","Wind Spd (km/h)","Wind Spd Flag","Visibility (km)","Visibility Flag","Stn Press (kPa)","Stn Press Flag","Hmdx","Hmdx Flag","Wind Chill","Wind Chill Flag","Weather"
"2011-08-01 00:00","2011","08","01","00:00","25.4","","20.2","","73","","26","","15","","24.1","","99.35","","33","","","","Mainly Clear"
"2011-08-01 01:00","2011","08","01","01:00","24.9","","20.0","","74","","28","","15","","24.1","","99.34","","32","","","","Mainly Clear"
"2011-08-01 02:00","2011","08","01","02:00","24.6","","19.5","","73","","30","","17","","24.1","","99.29","","32","","","","Mainly Clear"
"2011-08-01 03:00","2011","08","01","03:00","23.6","","19.5","","78","","31","","15","","24.1","","99.27","","31","","","","Mainly Clear"
"2011-08-01 04:00","2011","08","01","04:00","23.5","","19.0","","76","","30","","11","","24.1","","99.27","","30","","","","Mainly Clear"
"2011-08-01 05:00","2011","08","01","05:00","22.1","","18.9","","82","","29","","9","","24.1","","99.31","","29","","","","Mainly Clear"
"2011-08-01 06:00","2011","08","01","06:00","22.9","","19.2","","80","","30","","9","","24.1","","99.32","","30","","","","Mainly Clear"
"2011-08-01 07:00","2011","08","01","07:00","24.8","","18.9","","70","","31","","7","","24.1","","99.31","","31","","","","Mainly Clear"
"2011-08-01 08:00","2011","08","01","08:00","26.8","","18.7","","61","","29","","11","","24.1","","99.34","","33","","","","Mostly Cloudy"
"2011-08-01 09:00","2011","08","01","09:00","27.8","","19.1","","59","","29","","17","","24.1","","99.34","","35","","","","Mostly Cloudy"
"2011-08-01 10:00","2011","08","01","10:00","29.6","","19.6","","55","","30","","17","","24.1","","99.29","","37","","","","Mostly Cloudy"
"2011-08-01 11:00","2011","08","01","11:00","29.4","","19.9","","57","","29","","17","","24.1","","99.25","","37","","","","Mostly Cloudy"
"2011-08-01 12:00","2011","08","01","12:00","30.7","","18.6","","49","","32","","22","","24.1","","99.16","","37","","","","Mostly Cloudy"
"2011-08-01 13:00","2011","08","01","13:00","31.3","","18.4","","46","","32","","28","","24.1","","99.14","","38","","","","Mainly Clear"
"2011-08-01 14:00","2011","08","01","14:00","31.3","","15.2","","38","","30","","26","","24.1","","99.12","","35","","","","Mainly Clear"
"2011-08-01 15:00","2011","08","01","15:00","30.9","","13.1","","34","","34","","22","","24.1","","99.08","","34","","","","Mainly Clear"
"2011-08-01 16:00","2011","08","01","16:00","31.0","","13.3","","34","","32","","20","","24.1","","99.04","","34","","","","Clear"
"2011-08-01 17:00","2011","08","01","17:00","29.9","","13.6","","37","","36","","22","","24.1","","99.05","","33","","","","Clear"
"2011-08-01 18:00","2011","08","01","18:00","28.2","","14.7","","44","","35","","26","","24.1","","99.07","","32","","","","Clear"
"2011-08-01 19:00","2011","08","01","19:00","27.5","","11.6","","37","","32","","37","","24.1","","99.12","","30","","","","Clear"
"2011-08-01 20:00","2011","08","01","20:00","25.8","","11.8","","42","","31","","19","","24.1","","99.15","","28","","","","Mainly Clear"
"2011-08-01 21:00","2011","08","01","21:00","23.7","","12.1","","48","","29","","9","","24.1","","99.13","","26","","","","Mainly Clear"
"2011-08-01 22:00","2011","08","01","22:00","22.7","","12.3","","52","","28","","9","","24.1","","99.12","","25","","","","Clear"
"2011-08-01 23:00","2011","08","01","23:00","21.8","","12.3","","55","","29","","13","","24.1","","99.14","","","","","","Clear"
"2011-08-02 00:00","2011","08","02","00:00","20.6","","12.3","","59","","30","","11","","24.1","","99.12","","","","","","Clear"
"2011-08-02 01:00","2011","08","02","01:00","20.8","","12.3","","58","","32","","20","","24.1","","99.08","","","","","","Clear"
"2011-08-02 02:00","2011","08","02","02:00","20.7","","12.4","","59","","31","","15","","24.1","","99.03","","","","","","Clear"
"2011-08-02 03:00","2011","08","02","03:00","20.3","","12.8","","62","","31","","19","","24.1","","98.99","","","","","","Clear"
"2011-08-02 04:00","2011","08","02","04:00","20.3","","12.7","","62","","30","","17","","24.1","","98.99","","","","","","Clear"
"2011-08-02 05:00","2011","08","02","05:00","20.2","","13.0","","63","","31","","19","","24.1","","99.04","","","","","","Clear"
"2011-08-02 06:00","2011","08","02","06:00","20.4","","13.5","","65","","32","","15","","24.1","","99.03","","","","","","Mainly Clear"
"2011-08-02 07:00","2011","08","02","07:00","22.1","","13.8","","59","","31","","20","","24.1","","99.07","","25","","","","Mainly Clear"
"2011-08-02 08:00","2011","08","02","08:00","25.0","","14.8","","53","","32","","17","","24.1","","99.08","","29","","","","Mostly Cloudy"
"2011-08-02 09:00","2011","08","02","09:00","25.7","","15.2","","52","","36","","13","","24.1","","99.06","","30","","","","Mostly Cloudy"
"2011-08-02 10:00","2011","08","02","10:00","26.7","","15.2","","49","","27","","6","","24.1","","99.01","","31","","","","Mostly Cloudy"
"2011-08-02 11:00","2011","08","02","11:00","28.7","","13.8","","40","","28","","6","","24.1","","98.98","","32","","","","Mostly Cloudy"
"2011-08-02 12:00","2011","08","02","12:00","29.4","","13.0","","37","","34","","9","","24.1","","98.90","","32","","","","Mostly Cloudy"
"2011-08-02 13:00","2011","08","02","13:00","29.3","","15.2","","42","","14","","17","","24.1","","98.84","","33","","","","Mostly Cloudy"
"2011-08-02 14:00","2011","08","02","14:00","29.9","","14.5","","39","","16","","19","","24.1","","98.78","","34","","","","Mostly Cloudy"
"2011-08-02 15:00","2011","08","02","15:00","30.0","","14.4","","39","","16","","15","","24.1","","98.76","","34","","","","Mostly Cloudy"
"2011-08-02 16:00","2011","08","02","16:00","31.3","","12.6","","32","","30","","33","","24.1","","98.73","","34","","","","Mostly Cloudy"
"2011-08-02 17:00","2011","08","02","17:00","30.0","","13.1","","36","","31","","24","","24.1","","98.71","","33","","","","Mostly Cloudy"
"2011-08-02 18:00","2011","08","02","18:00","28.7","","16.2","","47","","27","","28","","24.1","","98.71","","33","","","","Mostly Cloudy"
"2011-08-02 19:00","2011","08","02","19:00","27.1","","15.2","","48","","28","","22","","24.1","","98.69","","31","","","","Mostly Cloudy"
"2011-08-02 20:00","2011","08","02","20:00","26.5","","14.2","","47","","32","","22","","24.1","","98.71","","30","","","","Mostly Cloudy"
"2011-08-02 21:00","2011","08","02","21:00","25.5","","15.2","","53","","31","","15","","24.1","","98.73","","30","","","","Mostly Cloudy"
"2011-08-02 22:00","2011","08","02","22:00","25.2","","16.3","","58","","35","","11","","24.1","","98.69","","30","","","","Mostly Cloudy"
"2011-08-02 23:00","2011","08","02","23:00","24.7","","16.0","","58","","27","","7","","24.1","","98.68","","29","","","","Cloudy"
"2011-08-03 00:00","2011","08","03","00:00","23.3","","16.3","","65","","27","","13","","24.1","","98.67","","28","","","","Cloudy"
"2011-08-03 01:00","2011","08","03","01:00","23.7","","16.9","","66","","29","","13","","24.1","","98.61","","29","","","","Cloudy"
"2011-08-03 02:00","2011","08","03","02:00","23.6","","17.4","","68","","31","","6","","24.1","","98.56","","29","","","","Cloudy"
"2011-08-03 03:00","2011","08","03","03:00","21.9","","18.5","","81","","2","","17","","24.1","","98.55","","28","","","","Rain Showers"
"2011-08-03 04:00","2011","08","03","04:00","19.7","","18.4","","92","","29","","7","","9.7","","98.55","","","","","","Heavy Rain Showers"
"2011-08-03 05:00","2011","08","03","05:00","19.3","","18.6","","96","","","","0","","4.8","","98.54","","","","","","Heavy Rain Showers,Fog"
"2011-08-03 06:00","2011","08","03","06:00","19.8","","18.9","","95","","11","","9","","9.7","","98.47","","","","","","Fog"
"2011-08-03 07:00","2011","08","03","07:00","20.5","","19.3","","93","","13","","13","","16.1","","98.47","","28","","","","Cloudy"
"2011-08-03 08:00","2011","08","03","08:00","20.8","","19.2","","91","","12","","13","","16.1","","98.43","","28","","","","Cloudy"
"2011-08-03 09:00","2011","08","03","09:00","20.9","","19.1","","89","","12","","11","","16.1","","98.40","","28","","","","Cloudy"
"2011-08-03 10:00","2011","08","03","10:00","21.7","","19.6","","88","","11","","17","","16.1","","98.37","","29","","","","Cloudy"
"2011-08-03 11:00","2011","08","03","11:00","21.8","","19.7","","88","","13","","13","","16.1","","98.41","","29","","","","Cloudy"
"2011-08-03 12:00","2011","08","03","12:00","21.8","","20.2","","91","","11","","13","","8.0","","98.39","","30","","","","Drizzle,Fog"
"2011-08-03 13:00","2011","08","03","13:00","21.9","","20.3","","91","","11","","11","","9.7","","98.39","","30","","","","Fog"
"2011-08-03 14:00","2011","08","03","14:00","21.2","","19.6","","91","","8","","15","","9.7","","98.41","","28","","","","Fog"
"2011-08-03 15:00","2011","08","03","15:00","20.1","","18.6","","91","","7","","19","","8.0","","98.45","","27","","","","Drizzle,Fog"
"2011-08-03 16:00","2011","08","03","16:00","20.1","","18.8","","92","","9","","15","","9.7","","98.47","","27","","","","Drizzle,Fog"
"2011-08-03 17:00","2011","08","03","17:00","19.8","","18.1","","90","","7","","19","","12.9","","98.55","","","","","","Cloudy"
"2011-08-03 18:00","2011","08","03","18:00","18.7","","17.2","","91","","6","","19","","4.0","","98.65","","","","","","Rain,Fog"
"2011-08-03 19:00","2011","08","03","19:00","17.9","","16.7","","93","","5","","17","","6.4","","98.73","","","","","","Drizzle,Fog"
"2011-08-03 20:00","2011","08","03","20:00","18.0","","17.1","","94","","4","","13","","4.8","","98.82","","","","","","Drizzle,Fog"
"2011-08-03 21:00","2011","08","03","21:00","18.3","","17.3","","94","","5","","19","","24.1","","98.88","","","","","","Drizzle"
"2011-08-03 22:00","2011","08","03","22:00","18.5","","16.3","","87","","4","","11","","24.1","","98.92","","","","","","Cloudy"
"2011-08-03 23:00","2011","08","03","23:00","18.6","","16.2","","86","","1","","13","","24.1","","98.94","","","","","","Cloudy"
"2011-08-04 00:00","2011","08","04","00:00","18.0","","16.1","","89","","1","","11","","24.1","","98.95","","","","","","Mainly Clear"
"2011-08-04 01:00","2011","08","04","01:00","17.7","","15.8","","89","","1","","17","","24.1","","99.01","","","","","","Clear"
"2011-08-04 02:00","2011","08","04","02:00","17.3","","15.7","","90","","3","","15","","24.1","","99.02","","","","","","Clear"
"2011-08-04 03:00","2011","08","04","03:00","17.3","","15.7","","90","","36","","13","","24.1","","99.06","","","","","","Clear"
"2011-08-04 04:00","2011","08","04","04:00","16.9","","15.5","","91","","1","","11","","24.1","","99.11","","","","","","Clear"
"2011-08-04 05:00","2011","08","04","05:00","16.9","","15.4","","91","","36","","15","","24.1","","99.22","","","","","","Clear"
"2011-08-04 06:00","2011","08","04","06:00","17.3","","15.6","","90","","36","","13","","24.1","","99.35","","","","","","Clear"
"2011-08-04 07:00","2011","08","04","07:00","18.6","","16.1","","85","","36","","11","","24.1","","99.40","","","","","","Clear"
"2011-08-04 08:00","2011","08","04","08:00","20.2","","16.9","","81","","2","","13","","24.1","","99.41","","25","","","","Clear"
"2011-08-04 09:00","2011","08","04","09:00","22.4","","16.8","","71","","6","","9","","24.1","","99.41","","28","","","","Clear"
"2011-08-04 10:00","2011","08","04","10:00","24.4","","16.5","","61","","9","","11","","24.1","","99.42","","29","","","","Mainly Clear"
"2011-08-04 11:00","2011","08","04","11:00","25.1","","16.0","","57","","9","","17","","24.1","","99.48","","30","","","","Mainly Clear"
"2011-08-04 12:00","2011","08","04","12:00","25.7","","16.9","","58","","16","","15","","24.1","","99.47","","31","","","","Mainly Clear"
"2011-08-04 13:00","2011","08","04","13:00","26.0","","16.6","","56","","16","","17","","24.1","","99.51","","31","","","","Mainly Clear"
"2011-08-04 14:00","2011","08","04","14:00","25.8","","16.0","","55","","15","","15","","24.1","","99.51","","30","","","","Mainly Clear"
"2011-08-04 15:00","2011","08","04","15:00","25.8","","15.8","","54","","15","","15","","24.1","","99.52","","30","","","","Mainly Clear"
"2011-08-04 16:00","2011","08","04","16:00","25.5","","15.6","","54","","16","","13","","24.1","","99.51","","30","","","","Mainly Clear"
"2011-08-04 17:00","2011","08","04","17:00","25.6","","16.0","","55","","15","","13","","24.1","","99.52","","30","","","","Mainly Clear"
"2011-08-04 18:00","2011","08","04","18:00","25.3","","15.4","","54","","16","","11","","24.1","","99.51","","30","","","","Mainly Clear"
"2011-08-04 19:00","2011","08","04","19:00","24.4","","15.2","","57","","15","","11","","24.1","","99.53","","28","","","","Mainly Clear"
"2011-08-04 20:00","2011","08","04","20:00","23.5","","14.5","","57","","17","","6","","24.1","","99.55","","27","","","","Mainly Clear"
"2011-08-04 21:00","2011","08","04","21:00","22.5","","16.3","","68","","16","","4","","24.1","","99.57","","27","","","","Mainly Clear"
"2011-08-04 22:00","2011","08","04","22:00","21.6","","17.5","","78","","","","0","","24.1","","99.56","","27","","","","Mainly Clear"
"2011-08-04 23:00","2011","08","04","23:00","21.3","","16.5","","74","","4","","4","","24.1","","99.58","","26","","","","Mainly Clear"
"2011-08-05 00:00","2011","08","05","00:00","20.7","","16.5","","77","","2","","7","","24.1","","99.60","","26","","","","Mainly Clear"
"2011-08-05 01:00","2011","08","05","01:00","19.4","","15.5","","78","","34","","6","","24.1","","99.63","","","","","","Mainly Clear"
"2011-08-05 02:00","2011","08","05","02:00","19.7","","15.5","","77","","3","","4","","24.1","","99.63","","","","","","Clear"
"2011-08-05 03:00","2011","08","05","03:00","18.6","","15.4","","82","","3","","6","","24.1","","99.62","","","","","","Mainly Clear"
"2011-08-05 04:00","2011","08","05","04:00","18.1","","15.4","","84","","3","","6","","24.1","","99.61","","","","","","Mainly Clear"
"2011-08-05 05:00","2011","08","05","05:00","17.5","","15.5","","88","","3","","7","","24.1","","99.64","","","","","","Mainly Clear"
"2011-08-05 06:00","2011","08","05","06:00","19.1","","16.3","","84","","4","","7","","24.1","","99.67","","","","","","Mainly Clear"
"2011-08-05 07:00","2011","08","05","07:00","21.2","","16.6","","75","","5","","4","","24.1","","99.71","","26","","","","Mainly Clear"
"2011-08-05 08:00","2011","08","05","08:00","23.6","","17.6","","69","","10","","11","","24.1","","99.73","","29","","","","Mainly Clear"
"2011-08-05 09:00","2011","08","05","09:00","25.1","","17.6","","63","","13","","9","","24.1","","99.75","","31","","","","Mainly Clear"
"2011-08-05 10:00","2011","08","05","10:00","25.0","","17.1","","62","","9","","13","","24.1","","99.73","","30","","","","Mostly Cloudy"
"2011-08-05 11:00","2011","08","05","11:00","25.9","","17.6","","60","","13","","17","","24.1","","99.72","","32","","","","Mostly Cloudy"
"2011-08-05 12:00","2011","08","05","12:00","26.3","","16.4","","54","","10","","15","","24.1","","99.72","","31","","","","Mostly Cloudy"
"2011-08-05 13:00","2011","08","05","13:00","26.2","","15.7","","52","","11","","15","","24.1","","99.70","","31","","","","Mostly Cloudy"
"2011-08-05 14:00","2011","08","05","14:00","26.7","","14.3","","47","","11","","17","","24.1","","99.67","","30","","","","Mostly Cloudy"
"2011-08-05 15:00","2011","08","05","15:00","27.5","","15.3","","47","","9","","17","","24.1","","99.60","","32","","","","Mostly Cloudy"
"2011-08-05 16:00","2011","08","05","16:00","26.5","","15.3","","50","","11","","6","","24.1","","99.57","","31","","","","Mostly Cloudy"
"2011-08-05 17:00","2011","08","05","17:00","26.3","","15.2","","50","","9","","13","","24.1","","99.55","","30","","","","Mostly Cloudy"
"2011-08-05 18:00","2011","08","05","18:00","25.9","","14.6","","50","","11","","15","","24.1","","99.52","","30","","","","Mostly Cloudy"
"2011-08-05 19:00","2011","08","05","19:00","25.4","","14.7","","52","","12","","9","","24.1","","99.52","","29","","","","Mostly Cloudy"
"2011-08-05 20:00","2011","08","05","20:00","24.5","","14.7","","54","","10","","6","","24.1","","99.50","","28","","","","Mostly Cloudy"
"2011-08-05 21:00","2011","08","05","21:00","23.7","","13.7","","53","","9","","7","","24.1","","99.50","","27","","","","Mostly Cloudy"
"2011-08-05 22:00","2011","08","05","22:00","22.6","","14.3","","59","","7","","6","","24.1","","99.47","","26","","","","Mainly Clear"
"2011-08-05 23:00","2011","08","05","23:00","22.7","","14.6","","60","","8","","6","","24.1","","99.47","","26","","","","Mainly Clear"
"2011-08-06 00:00","2011","08","06","00:00","22.3","","15.2","","64","","","","0","","24.1","","99.45","","26","","","","Mostly Cloudy"
"2011-08-06 01:00","2011","08","06","01:00","21.9","","16.1","","70","","3","","6","","24.1","","99.40","","27","","","","Mostly Cloudy"
"2011-08-06 02:00","2011","08","06","02:00","21.1","","15.4","","70","","1","","9","","24.1","","99.36","","25","","","","Mostly Cloudy"
"2011-08-06 03:00","2011","08","06","03:00","20.7","","15.8","","74","","36","","7","","24.1","","99.34","","25","","","","Mostly Cloudy"
"2011-08-06 04:00","2011","08","06","04:00","21.1","","15.8","","72","","36","","6","","24.1","","99.32","","26","","","","Mostly Cloudy"
"2011-08-06 05:00","2011","08","06","05:00","20.2","","15.8","","76","","35","","9","","19.3","","99.30","","25","","","","Mostly Cloudy"
"2011-08-06 06:00","2011","08","06","06:00","20.6","","16.2","","76","","2","","9","","24.1","","99.29","","25","","","","Mostly Cloudy"
"2011-08-06 07:00","2011","08","06","07:00","22.7","","18.1","","75","","4","","9","","24.1","","99.25","","29","","","","Mostly Cloudy"
"2011-08-06 08:00","2011","08","06","08:00","23.6","","19.0","","75","","3","","6","","24.1","","99.24","","30","","","","Mostly Cloudy"
"2011-08-06 09:00","2011","08","06","09:00","24.9","","19.9","","74","","5","","7","","24.1","","99.22","","32","","","","Mostly Cloudy"
"2011-08-06 10:00","2011","08","06","10:00","27.1","","20.8","","68","","4","","9","","24.1","","99.20","","35","","","","Mostly Cloudy"
"2011-08-06 11:00","2011","08","06","11:00","26.4","","20.9","","72","","15","","15","","24.1","","99.17","","35","","","","Mostly Cloudy"
"2011-08-06 12:00","2011","08","06","12:00","26.1","","21.1","","74","","13","","9","","24.1","","99.17","","35","","","","Mostly Cloudy"
"2011-08-06 13:00","2011","08","06","13:00","27.2","","21.4","","71","","12","","13","","24.1","","99.07","","36","","","","Mostly Cloudy"
"2011-08-06 14:00","2011","08","06","14:00","28.7","","20.2","","60","","7","","9","","24.1","","99.03","","36","","","","Mostly Cloudy"
"2011-08-06 15:00","2011","08","06","15:00","28.8","","20.9","","62","","10","","11","","24.1","","98.95","","37","","","","Mostly Cloudy"
"2011-08-06 16:00","2011","08","06","16:00","28.2","","20.5","","63","","17","","13","","24.1","","98.93","","36","","","","Mainly Clear"
"2011-08-06 17:00","2011","08","06","17:00","26.5","","20.8","","71","","17","","15","","24.1","","98.90","","35","","","","Mostly Cloudy"
"2011-08-06 18:00","2011","08","06","18:00","25.2","","21.0","","78","","15","","13","","19.3","","98.87","","34","","","","Mostly Cloudy"
"2011-08-06 19:00","2011","08","06","19:00","24.0","","22.0","","89","","16","","9","","16.1","","98.87","","33","","","","Rain Showers"
"2011-08-06 20:00","2011","08","06","20:00","23.7","","22.3","","92","","17","","11","","12.9","","98.87","","33","","","","Rain Showers"
"2011-08-06 21:00","2011","08","06","21:00","23.5","","22.3","","93","","16","","4","","16.1","","98.87","","33","","","","Rain Showers"
"2011-08-06 22:00","2011","08","06","22:00","23.5","","22.3","","93","","15","","6","","16.1","","98.85","","33","","","","Cloudy"
"2011-08-06 23:00","2011","08","06","23:00","23.4","","22.3","","94","","","","0","","16.1","","98.81","","33","","","","Cloudy"
"2011-08-07 00:00","2011","08","07","00:00","23.5","","22.3","","93","","","","0","","16.1","","98.77","","33","","","","Cloudy"
"2011-08-07 01:00","2011","08","07","01:00","23.4","","21.9","","91","","16","","6","","16.1","","98.69","","33","","","","Cloudy"
"2011-08-07 02:00","2011","08","07","02:00","23.2","","22.0","","93","","","","0","","16.1","","98.62","","33","","","","Cloudy"
"2011-08-07 03:00","2011","08","07","03:00","23.3","","21.9","","92","","19","","6","","16.1","","98.59","","33","","","","Cloudy"
"2011-08-07 04:00","2011","08","07","04:00","23.3","","21.7","","91","","","","0","","16.1","","98.57","","32","","","","Cloudy"
"2011-08-07 05:00","2011","08","07","05:00","23.2","","21.9","","92","","16","","6","","9.7","","98.56","","32","","","","Rain Showers,Fog"
"2011-08-07 06:00","2011","08","07","06:00","23.3","","22.3","","94","","","","0","","8.0","","98.56","","33","","","","Fog"
"2011-08-07 07:00","2011","08","07","07:00","23.5","","22.3","","93","","","","0","","8.0","","98.53","","33","","","","Fog"
"2011-08-07 08:00","2011","08","07","08:00","22.9","","21.9","","94","","20","","4","","6.4","","98.53","","32","","","","Rain Showers,Fog"
"2011-08-07 09:00","2011","08","07","09:00","22.0","","21.4","","96","","12","","4","","8.0","","98.49","","31","","","","Thunderstorms,Rain Showers,Fog"
"2011-08-07 10:00","2011","08","07","10:00","23.1","","21.5","","91","","18","","4","","16.1","","98.50","","32","","","","Cloudy"
"2011-08-07 11:00","2011","08","07","11:00","24.5","","21.5","","83","","","","0","","19.3","","98.44","","33","","","","Mostly Cloudy"
"2011-08-07 12:00","2011","08","07","12:00","25.8","","22.1","","80","","26","","6","","16.1","","98.39","","35","","","","Mostly Cloudy"
"2011-08-07 13:00","2011","08","07","13:00","27.1","","21.8","","73","","26","","9","","19.3","","98.33","","36","","","","Mostly Cloudy"
"2011-08-07 14:00","2011","08","07","14:00","29.1","","21.9","","65","","25","","19","","19.3","","98.27","","38","","","","Mostly Cloudy"
"2011-08-07 15:00","2011","08","07","15:00","27.5","","21.5","","70","","3","","13","","19.3","","98.23","","36","","","","Mostly Cloudy"
"2011-08-07 16:00","2011","08","07","16:00","25.1","","22.0","","83","","13","","9","","19.3","","98.24","","34","","","","Rain Showers"
"2011-08-07 17:00","2011","08","07","17:00","26.6","","20.8","","71","","3","","15","","19.3","","98.25","","35","","","","Mostly Cloudy"
"2011-08-07 18:00","2011","08","07","18:00","25.9","","19.9","","70","","36","","11","","24.1","","98.27","","33","","","","Mostly Cloudy"
"2011-08-07 19:00","2011","08","07","19:00","24.9","","20.5","","77","","33","","19","","19.3","","98.29","","33","","","","Cloudy"
"2011-08-07 20:00","2011","08","07","20:00","23.6","","20.5","","83","","36","","15","","24.1","","98.29","","32","","","","Cloudy"
"2011-08-07 21:00","2011","08","07","21:00","22.6","","19.5","","83","","34","","15","","24.1","","98.37","","30","","","","Rain Showers"
"2011-08-07 22:00","2011","08","07","22:00","21.8","","18.5","","82","","35","","13","","24.1","","98.35","","28","","","","Mostly Cloudy"
"2011-08-07 23:00","2011","08","07","23:00","21.0","","18.7","","87","","31","","11","","24.1","","98.36","","28","","","","Mainly Clear"
"2011-08-08 00:00","2011","08","08","00:00","21.1","","18.8","","87","","31","","11","","24.1","","98.34","","28","","","","Mostly Cloudy"
"2011-08-08 01:00","2011","08","08","01:00","20.8","","19.0","","89","","34","","15","","24.1","","98.34","","28","","","","Mostly Cloudy"
"2011-08-08 02:00","2011","08","08","02:00","20.6","","19.1","","91","","36","","19","","24.1","","98.35","","27","","","","Mainly Clear"
"2011-08-08 03:00","2011","08","08","03:00","20.2","","18.8","","92","","36","","20","","24.1","","98.38","","27","","","","Mainly Clear"
"2011-08-08 04:00","2011","08","08","04:00","19.9","","18.3","","91","","36","","17","","24.1","","98.41","","","","","","Mainly Clear"
"2011-08-08 05:00","2011","08","08","05:00","19.7","","18.0","","90","","36","","17","","24.1","","98.42","","","","","","Clear"
"2011-08-08 06:00","2011","08","08","06:00","19.9","","18.1","","89","","34","","13","","24.1","","98.49","","","","","","Mainly Clear"
"2011-08-08 07:00","2011","08","08","07:00","20.5","","18.5","","88","","1","","15","","24.1","","98.53","","27","","","","Mainly Clear"
"2011-08-08 08:00","2011","08","08","08:00","21.9","","18.8","","83","","36","","15","","24.1","","98.59","","29","","","","Mainly Clear"
"2011-08-08 09:00","2011","08","08","09:00","23.4","","19.1","","77","","36","","17","","24.1","","98.60","","30","","","","Mainly Clear"
"2011-08-08 10:00","2011","08","08","10:00","23.7","","18.3","","72","","1","","15","","24.1","","98.58","","30","","","","Mostly Cloudy"
"2011-08-08 11:00","2011","08","08","11:00","25.4","","18.0","","64","","35","","20","","24.1","","98.63","","31","","","","Mostly Cloudy"
"2011-08-08 12:00","2011","08","08","12:00","25.4","","17.5","","62","","35","","19","","24.1","","98.65","","31","","","","Mostly Cloudy"
"2011-08-08 13:00","2011","08","08","13:00","25.5","","17.2","","60","","3","","13","","24.1","","98.60","","31","","","","Mostly Cloudy"
"2011-08-08 14:00","2011","08","08","14:00","25.8","","19.8","","70","","14","","9","","24.1","","98.55","","33","","","","Mainly Clear"
"2011-08-08 15:00","2011","08","08","15:00","25.2","","19.5","","71","","13","","15","","24.1","","98.54","","32","","","","Mainly Clear"
"2011-08-08 16:00","2011","08","08","16:00","26.2","","19.5","","67","","14","","7","","24.1","","98.52","","33","","","","Mainly Clear"
"2011-08-08 17:00","2011","08","08","17:00","25.2","","18.7","","67","","16","","15","","24.1","","98.48","","32","","","","Mainly Clear"
"2011-08-08 18:00","2011","08","08","18:00","24.1","","18.6","","71","","17","","11","","24.1","","98.48","","31","","","","Mainly Clear"
"2011-08-08 19:00","2011","08","08","19:00","23.4","","17.8","","71","","16","","7","","24.1","","98.52","","29","","","","Mostly Cloudy"
"2011-08-08 20:00","2011","08","08","20:00","23.5","","17.7","","70","","17","","4","","24.1","","98.54","","29","","","","Mostly Cloudy"
"2011-08-08 21:00","2011","08","08","21:00","23.5","","18.0","","71","","","","0","","24.1","","98.58","","30","","","","Mostly Cloudy"
"2011-08-08 22:00","2011","08","08","22:00","22.0","","15.8","","68","","34","","13","","24.1","","98.52","","26","","","","Mostly Cloudy"
"2011-08-08 23:00","2011","08","08","23:00","20.9","","15.8","","73","","2","","6","","24.1","","98.46","","25","","","","Mostly Cloudy"
"2011-08-09 00:00","2011","08","09","00:00","20.9","","16.0","","74","","","","0","","24.1","","98.44","","26","","","","Cloudy"
"2011-08-09 01:00","2011","08","09","01:00","21.2","","16.3","","74","","4","","4","","24.1","","98.37","","26","","","","Cloudy"
"2011-08-09 02:00","2011","08","09","02:00","20.7","","16.7","","78","","2","","6","","24.1","","98.29","","26","","","","Cloudy"
"2011-08-09 03:00","2011","08","09","03:00","21.1","","17.0","","77","","6","","4","","24.1","","98.29","","26","","","","Cloudy"
"2011-08-09 04:00","2011","08","09","04:00","21.7","","19.0","","85","","11","","7","","24.1","","98.21","","28","","","","Cloudy"
"2011-08-09 05:00","2011","08","09","05:00","21.8","","18.8","","83","","9","","11","","24.1","","98.11","","28","","","","Cloudy"
"2011-08-09 06:00","2011","08","09","06:00","21.5","","18.4","","83","","10","","13","","24.1","","98.12","","28","","","","Rain"
"2011-08-09 07:00","2011","08","09","07:00","21.5","","18.7","","84","","10","","9","","19.3","","98.06","","28","","","","Rain"
"2011-08-09 08:00","2011","08","09","08:00","21.1","","19.0","","88","","9","","7","","12.9","","98.05","","28","","","","Rain"
"2011-08-09 09:00","2011","08","09","09:00","21.0","","19.1","","89","","4","","7","","16.1","","98.01","","28","","","","Rain"
"2011-08-09 10:00","2011","08","09","10:00","21.3","","19.9","","92","","2","","6","","9.7","","97.97","","29","","","","Rain,Fog"
"2011-08-09 11:00","2011","08","09","11:00","18.8","","18.0","","95","","17","","13","","4.8","","97.95","","","","","","Thunderstorms,Moderate Rain Showers,Fog"
"2011-08-09 12:00","2011","08","09","12:00","19.8","","18.7","","93","","20","","7","","12.9","","97.92","","","","","","Rain Showers"
"2011-08-09 13:00","2011","08","09","13:00","21.1","","19.2","","89","","1","","9","","14.5","","97.93","","28","","","","Cloudy"
"2011-08-09 14:00","2011","08","09","14:00","22.5","","19.0","","81","","1","","26","","16.1","","97.94","","29","","","","Cloudy"
"2011-08-09 15:00","2011","08","09","15:00","23.6","","18.9","","75","","1","","24","","24.1","","97.94","","30","","","","Mostly Cloudy"
"2011-08-09 16:00","2011","08","09","16:00","23.1","","18.0","","73","","36","","20","","24.1","","97.96","","29","","","","Mostly Cloudy"
"2011-08-09 17:00","2011","08","09","17:00","24.0","","18.0","","69","","2","","17","","24.1","","97.97","","30","","","","Mainly Clear"
"2011-08-09 18:00","2011","08","09","18:00","23.5","","18.1","","72","","3","","11","","24.1","","97.99","","30","","","","Clear"
"2011-08-09 19:00","2011","08","09","19:00","22.7","","17.5","","72","","16","","7","","24.1","","98.02","","28","","","","Mainly Clear"
"2011-08-09 20:00","2011","08","09","20:00","20.8","","18.7","","88","","16","","11","","24.1","","98.01","","27","","","","Mainly Clear"
"2011-08-09 21:00","2011","08","09","21:00","20.5","","18.8","","90","","18","","4","","24.1","","97.99","","27","","","","Mostly Cloudy"
"2011-08-09 22:00","2011","08","09","22:00","20.6","","18.7","","89","","14","","6","","24.1","","98.00","","27","","","","Cloudy"
"2011-08-09 23:00","2011","08","09","23:00","20.4","","19.3","","93","","25","","9","","16.1","","97.96","","27","","","","Thunderstorms,Rain Showers"
"2011-08-10 00:00","2011","08","10","00:00","19.4","","18.0","","92","","29","","7","","24.1","","97.90","","","","","","Mostly Cloudy"
"2011-08-10 01:00","2011","08","10","01:00","18.0","","16.7","","92","","27","","11","","24.1","","97.92","","","","","","Mainly Clear"
"2011-08-10 02:00","2011","08","10","02:00","17.9","","16.5","","92","","28","","9","","24.1","","97.96","","","","","","Clear"
"2011-08-10 03:00","2011","08","10","03:00","17.5","","15.9","","90","","28","","11","","24.1","","97.97","","","","","","Clear"
"2011-08-10 04:00","2011","08","10","04:00","16.9","","15.5","","91","","27","","15","","24.1","","98.00","","","","","","Clear"
"2011-08-10 05:00","2011","08","10","05:00","17.9","","16.7","","93","","27","","15","","24.1","","98.03","","","","","","Mostly Cloudy"
"2011-08-10 06:00","2011","08","10","06:00","17.9","","16.3","","90","","26","","11","","24.1","","98.05","","","","","","Mainly Clear"
"2011-08-10 07:00","2011","08","10","07:00","19.4","","17.0","","86","","26","","17","","24.1","","98.05","","","","","","Mainly Clear"
"2011-08-10 08:00","2011","08","10","08:00","20.2","","17.2","","83","","27","","28","","24.1","","98.05","","26","","","","Mainly Clear"
"2011-08-10 09:00","2011","08","10","09:00","22.6","","17.2","","72","","28","","28","","24.1","","98.07","","28","","","","Mainly Clear"
"2011-08-10 10:00","2011","08","10","10:00","24.0","","16.1","","61","","28","","28","","24.1","","98.09","","29","","","","Mainly Clear"
"2011-08-10 11:00","2011","08","10","11:00","21.8","","15.6","","68","","27","","32","","24.1","","98.14","","26","","","","Rain Showers"
"2011-08-10 12:00","2011","08","10","12:00","18.8","","15.8","","83","","29","","26","","24.1","","98.21","","","","","","Rain Showers"
"2011-08-10 13:00","2011","08","10","13:00","22.8","","15.1","","62","","29","","41","","24.1","","98.21","","27","","","","Mainly Clear"
"2011-08-10 14:00","2011","08","10","14:00","24.0","","12.8","","50","","29","","50","","24.1","","98.24","","27","","","","Mainly Clear"
"2011-08-10 15:00","2011","08","10","15:00","24.0","","12.2","","48","","29","","41","","24.1","","98.26","","26","","","","Mainly Clear"
"2011-08-10 16:00","2011","08","10","16:00","21.9","","12.5","","55","","28","","39","","24.1","","98.33","","","","","","Mostly Cloudy"
"2011-08-10 17:00","2011","08","10","17:00","21.2","","12.8","","59","","30","","43","","24.1","","98.41","","","","","","Mostly Cloudy"
"2011-08-10 18:00","2011","08","10","18:00","21.2","","10.8","","51","","30","","41","","24.1","","98.46","","","","","","Mainly Clear"
"2011-08-10 19:00","2011","08","10","19:00","20.2","","8.6","","47","","30","","37","","24.1","","98.52","","","","","","Mainly Clear"
"2011-08-10 20:00","2011","08","10","20:00","18.6","","9.3","","55","","28","","17","","24.1","","98.58","","","","","","Mainly Clear"
"2011-08-10 21:00","2011","08","10","21:00","17.2","","10.0","","63","","25","","15","","24.1","","98.66","","","","","","Mainly Clear"
"2011-08-10 22:00","2011","08","10","22:00","16.1","","10.4","","69","","27","","15","","24.1","","98.70","","","","","","Mainly Clear"
"2011-08-10 23:00","2011","08","10","23:00","15.5","","10.6","","73","","28","","7","","24.1","","98.75","","","","","","Mainly Clear"
"2011-08-11 00:00","2011","08","11","00:00","15.7","","11.3","","75","","29","","15","","24.1","","98.77","","","","","","Mainly Clear"
"2011-08-11 01:00","2011","08","11","01:00","14.3","","11.3","","82","","27","","15","","24.1","","98.75","","","","","","Clear"
"2011-08-11 02:00","2011","08","11","02:00","13.9","","11.1","","83","","27","","17","","24.1","","98.77","","","","","","Clear"
"2011-08-11 03:00","2011","08","11","03:00","13.0","","10.7","","86","","26","","15","","24.1","","98.79","","","","","","Clear"
"2011-08-11 04:00","2011","08","11","04:00","12.8","","10.6","","86","","25","","13","","24.1","","98.80","","","","","","Clear"
"2011-08-11 05:00","2011","08","11","05:00","12.1","","10.2","","88","","26","","11","","24.1","","98.86","","","","","","Mainly Clear"
"2011-08-11 06:00","2011","08","11","06:00","13.4","","10.8","","84","","25","","11","","24.1","","98.93","","","","","","Clear"
"2011-08-11 07:00","2011","08","11","07:00","15.3","","11.3","","77","","27","","19","","24.1","","98.95","","","","","","Clear"
"2011-08-11 08:00","2011","08","11","08:00","18.1","","12.5","","70","","27","","19","","24.1","","98.97","","","","","","Clear"
"2011-08-11 09:00","2011","08","11","09:00","20.8","","12.4","","59","","29","","35","","24.1","","98.98","","","","","","Clear"
"2011-08-11 10:00","2011","08","11","10:00","20.8","","10.4","","51","","32","","35","","24.1","","99.00","","","","","","Mostly Cloudy"
"2011-08-11 11:00","2011","08","11","11:00","23.3","","9.7","","42","","31","","33","","24.1","","99.04","","","","","","Mostly Cloudy"
"2011-08-11 12:00","2011","08","11","12:00","23.7","","8.6","","38","","28","","33","","24.1","","99.07","","","","","","Mainly Clear"
"2011-08-11 13:00","2011","08","11","13:00","24.3","","8.8","","37","","29","","33","","24.1","","99.07","","25","","","","Mainly Clear"
"2011-08-11 14:00","2011","08","11","14:00","24.6","","8.4","","36","","31","","32","","24.1","","99.09","","25","","","","Mainly Clear"
"2011-08-11 15:00","2011","08","11","15:00","24.7","","8.6","","36","","31","","20","","24.1","","99.08","","25","","","","Mainly Clear"
"2011-08-11 16:00","2011","08","11","16:00","24.8","","8.5","","35","","32","","30","","24.1","","99.09","","25","","","","Mainly Clear"
"2011-08-11 17:00","2011","08","11","17:00","24.4","","8.5","","36","","31","","35","","24.1","","99.13","","25","","","","Mainly Clear"
"2011-08-11 18:00","2011","08","11","18:00","23.6","","7.7","","36","","31","","33","","24.1","","99.16","","","","","","Mainly Clear"
"2011-08-11 19:00","2011","08","11","19:00","22.4","","8.2","","40","","32","","22","","24.1","","99.20","","","","","","Clear"
"2011-08-11 20:00","2011","08","11","20:00","20.2","","9.6","","50","","32","","15","","24.1","","99.24","","","","","","Clear"
"2011-08-11 21:00","2011","08","11","21:00","19.3","","9.8","","54","","29","","9","","24.1","","99.30","","","","","","Clear"
"2011-08-11 22:00","2011","08","11","22:00","18.1","","9.8","","58","","27","","11","","24.1","","99.32","","","","","","Clear"
"2011-08-11 23:00","2011","08","11","23:00","17.9","","10.0","","60","","29","","11","","24.1","","99.34","","","","","","Clear"
"2011-08-12 00:00","2011","08","12","00:00","16.9","","10.4","","66","","25","","4","","24.1","","99.40","","","","","","Mainly Clear"
"2011-08-12 01:00","2011","08","12","01:00","17.2","","10.1","","63","","23","","6","","24.1","","99.39","","","","","","Mainly Clear"
"2011-08-12 02:00","2011","08","12","02:00","16.4","","10.4","","68","","30","","6","","24.1","","99.38","","","","","","Mainly Clear"
"2011-08-12 03:00","2011","08","12","03:00","16.4","","9.3","","63","","","","0","","24.1","","99.38","","","","","","Mainly Clear"
"2011-08-12 04:00","2011","08","12","04:00","15.1","","10.9","","76","","36","","4","","24.1","","99.43","","","","","","Mainly Clear"
"2011-08-12 05:00","2011","08","12","05:00","15.3","","10.6","","74","","4","","4","","24.1","","99.42","","","","","","Mainly Clear"
"2011-08-12 06:00","2011","08","12","06:00","16.2","","10.4","","68","","","","0","","24.1","","99.47","","","","","","Clear"
"2011-08-12 07:00","2011","08","12","07:00","18.4","","10.6","","60","","27","","4","","24.1","","99.52","","","","","","Clear"
"2011-08-12 08:00","2011","08","12","08:00","20.3","","13.4","","65","","30","","6","","24.1","","99.54","","","","","","Clear"
"2011-08-12 09:00","2011","08","12","09:00","23.2","","14.8","","59","","","","0","","24.1","","99.58","","27","","","","Clear"
"2011-08-12 10:00","2011","08","12","10:00","25.1","","13.8","","49","","14","","4","","24.1","","99.59","","28","","","","Clear"
"2011-08-12 11:00","2011","08","12","11:00","25.1","","13.7","","49","","27","","9","","24.1","","99.60","","28","","","","Mainly Clear"
"2011-08-12 12:00","2011","08","12","12:00","25.8","","15.9","","54","","15","","20","","24.1","","99.57","","30","","","","Mostly Cloudy"
"2011-08-12 13:00","2011","08","12","13:00","26.7","","16.3","","53","","14","","13","","24.1","","99.53","","32","","","","Mostly Cloudy"
"2011-08-12 14:00","2011","08","12","14:00","25.3","","16.0","","56","","14","","19","","24.1","","99.53","","30","","","","Mostly Cloudy"
"2011-08-12 15:00","2011","08","12","15:00","25.6","","17.0","","59","","13","","11","","24.1","","99.49","","31","","","","Mostly Cloudy"
"2011-08-12 16:00","2011","08","12","16:00","27.5","","13.9","","43","","29","","28","","24.1","","99.47","","31","","","","Mostly Cloudy"
"2011-08-12 17:00","2011","08","12","17:00","27.1","","13.8","","44","","27","","22","","24.1","","99.44","","30","","","","Mostly Cloudy"
"2011-08-12 18:00","2011","08","12","18:00","26.5","","14.1","","46","","27","","22","","24.1","","99.43","","30","","","","Mostly Cloudy"
"2011-08-12 19:00","2011","08","12","19:00","25.0","","13.7","","49","","28","","13","","24.1","","99.46","","28","","","","Mainly Clear"
"2011-08-12 20:00","2011","08","12","20:00","23.4","","13.4","","53","","27","","9","","24.1","","99.47","","26","","","","Mainly Clear"
"2011-08-12 21:00","2011","08","12","21:00","22.5","","14.3","","60","","25","","11","","24.1","","99.54","","26","","","","Mainly Clear"
"2011-08-12 22:00","2011","08","12","22:00","21.2","","15.6","","70","","26","","15","","24.1","","99.57","","26","","","","Mostly Cloudy"
"2011-08-12 23:00","2011","08","12","23:00","20.4","","15.3","","73","","26","","11","","24.1","","99.58","","25","","","","Mainly Clear"
"2011-08-13 00:00","2011","08","13","00:00","18.7","","15.0","","79","","27","","11","","24.1","","99.59","","","","","","Clear"
"2011-08-13 01:00","2011","08","13","01:00","19.3","","14.9","","76","","27","","6","","24.1","","99.55","","","","","","Mainly Clear"
"2011-08-13 02:00","2011","08","13","02:00","18.9","","15.0","","78","","30","","6","","24.1","","99.49","","","","","","Cloudy"
"2011-08-13 03:00","2011","08","13","03:00","18.8","","15.1","","79","","","","0","","24.1","","99.47","","","","","","Mostly Cloudy"
"2011-08-13 04:00","2011","08","13","04:00","18.5","","15.0","","80","","","","0","","24.1","","99.47","","","","","","Mostly Cloudy"
"2011-08-13 05:00","2011","08","13","05:00","18.2","","15.0","","82","","31","","4","","24.1","","99.48","","","","","","Mostly Cloudy"
"2011-08-13 06:00","2011","08","13","06:00","18.4","","15.1","","81","","4","","7","","19.3","","99.50","","","","","","Mostly Cloudy"
"2011-08-13 07:00","2011","08","13","07:00","19.4","","15.7","","79","","1","","6","","24.1","","99.49","","","","","","Mostly Cloudy"
"2011-08-13 08:00","2011","08","13","08:00","21.2","","15.8","","71","","4","","6","","24.1","","99.46","","26","","","","Mostly Cloudy"
"2011-08-13 09:00","2011","08","13","09:00","23.1","","15.8","","63","","5","","4","","24.1","","99.43","","28","","","","Mostly Cloudy"
"2011-08-13 10:00","2011","08","13","10:00","25.4","","15.9","","56","","10","","7","","24.1","","99.40","","30","","","","Mostly Cloudy"
"2011-08-13 11:00","2011","08","13","11:00","25.8","","15.5","","53","","11","","13","","24.1","","99.36","","30","","","","Mostly Cloudy"
"2011-08-13 12:00","2011","08","13","12:00","26.2","","15.8","","53","","15","","15","","24.1","","99.31","","31","","","","Mostly Cloudy"
"2011-08-13 13:00","2011","08","13","13:00","25.3","","16.6","","59","","14","","11","","24.1","","99.29","","30","","","","Mostly Cloudy"
"2011-08-13 14:00","2011","08","13","14:00","25.2","","15.7","","56","","11","","11","","24.1","","99.21","","30","","","","Mostly Cloudy"
"2011-08-13 15:00","2011","08","13","15:00","26.8","","14.6","","47","","16","","11","","24.1","","99.15","","31","","","","Mainly Clear"
"2011-08-13 16:00","2011","08","13","16:00","26.0","","16.0","","54","","16","","13","","24.1","","99.13","","31","","","","Mainly Clear"
"2011-08-13 17:00","2011","08","13","17:00","24.9","","16.8","","61","","15","","13","","24.1","","99.12","","30","","","","Mostly Cloudy"
"2011-08-13 18:00","2011","08","13","18:00","24.2","","16.9","","64","","16","","11","","24.1","","99.10","","29","","","","Mainly Clear"
"2011-08-13 19:00","2011","08","13","19:00","23.3","","16.8","","67","","13","","7","","24.1","","99.05","","28","","","","Mainly Clear"
"2011-08-13 20:00","2011","08","13","20:00","22.4","","16.8","","71","","17","","4","","24.1","","99.07","","28","","","","Mainly Clear"
"2011-08-13 21:00","2011","08","13","21:00","21.6","","17.6","","78","","","","0","","24.1","","99.09","","27","","","","Mainly Clear"
"2011-08-13 22:00","2011","08","13","22:00","21.6","","17.6","","78","","18","","4","","24.1","","99.08","","27","","","","Mainly Clear"
"2011-08-13 23:00","2011","08","13","23:00","21.4","","17.9","","80","","","","0","","24.1","","99.07","","27","","","","Mainly Clear"
"2011-08-14 00:00","2011","08","14","00:00","21.2","","18.1","","82","","11","","6","","24.1","","99.03","","27","","","","Mainly Clear"
"2011-08-14 01:00","2011","08","14","01:00","21.1","","18.1","","83","","1","","4","","24.1","","99.00","","27","","","","Mainly Clear"
"2011-08-14 02:00","2011","08","14","02:00","19.2","","16.5","","84","","","","0","","24.1","","98.95","","","","","","Mainly Clear"
"2011-08-14 03:00","2011","08","14","03:00","18.8","","16.6","","87","","2","","6","","24.1","","98.94","","","","","","Mostly Cloudy"
"2011-08-14 04:00","2011","08","14","04:00","18.9","","16.6","","87","","34","","6","","24.1","","98.94","","","","","","Mostly Cloudy"
"2011-08-14 05:00","2011","08","14","05:00","18.4","","16.3","","88","","36","","6","","24.1","","98.94","","","","","","Mostly Cloudy"
"2011-08-14 06:00","2011","08","14","06:00","18.4","","16.7","","90","","35","","11","","24.1","","98.97","","","","","","Mostly Cloudy"
"2011-08-14 07:00","2011","08","14","07:00","19.3","","17.0","","87","","36","","7","","24.1","","98.96","","","","","","Mostly Cloudy"
"2011-08-14 08:00","2011","08","14","08:00","21.1","","17.3","","79","","1","","6","","24.1","","99.01","","27","","","","Cloudy"
"2011-08-14 09:00","2011","08","14","09:00","21.9","","17.4","","76","","","","0","","24.1","","99.01","","27","","","","Mostly Cloudy"
"2011-08-14 10:00","2011","08","14","10:00","22.6","","17.4","","72","","9","","7","","24.1","","98.99","","28","","","","Cloudy"
"2011-08-14 11:00","2011","08","14","11:00","24.3","","18.2","","69","","3","","15","","24.1","","98.98","","30","","","","Mostly Cloudy"
"2011-08-14 12:00","2011","08","14","12:00","24.7","","17.7","","65","","8","","9","","24.1","","98.96","","30","","","","Mostly Cloudy"
"2011-08-14 13:00","2011","08","14","13:00","24.6","","18.7","","70","","15","","9","","24.1","","98.92","","31","","","","Cloudy"
"2011-08-14 14:00","2011","08","14","14:00","23.6","","17.8","","70","","12","","19","","24.1","","98.93","","29","","","","Cloudy"
"2011-08-14 15:00","2011","08","14","15:00","21.4","","15.6","","70","","2","","20","","24.1","","98.94","","26","","","","Cloudy"
"2011-08-14 16:00","2011","08","14","16:00","21.5","","17.3","","77","","2","","15","","24.1","","98.93","","27","","","","Cloudy"
"2011-08-14 17:00","2011","08","14","17:00","20.9","","17.7","","82","","35","","17","","24.1","","98.96","","27","","","","Rain"
"2011-08-14 18:00","2011","08","14","18:00","20.7","","17.7","","83","","36","","13","","24.1","","98.98","","26","","","","Rain"
"2011-08-14 19:00","2011","08","14","19:00","20.3","","17.1","","82","","34","","22","","24.1","","98.99","","26","","","","Rain"
"2011-08-14 20:00","2011","08","14","20:00","19.3","","17.0","","87","","36","","20","","24.1","","98.97","","","","","","Cloudy"
"2011-08-14 21:00","2011","08","14","21:00","19.7","","17.4","","87","","1","","20","","24.1","","98.94","","","","","","Cloudy"
"2011-08-14 22:00","2011","08","14","22:00","19.4","","17.0","","86","","36","","20","","24.1","","98.91","","","","","","Rain"
"2011-08-14 23:00","2011","08","14","23:00","19.6","","18.0","","90","","2","","15","","24.1","","98.95","","","","","","Rain"
"2011-08-15 00:00","2011","08","15","00:00","19.5","","18.3","","93","","2","","13","","24.1","","98.97","","","","","","Mostly Cloudy"
"2011-08-15 01:00","2011","08","15","01:00","19.7","","18.3","","92","","36","","9","","24.1","","98.94","","","","","","Mostly Cloudy"
"2011-08-15 02:00","2011","08","15","02:00","19.3","","18.0","","92","","36","","13","","24.1","","98.91","","","","","","Mostly Cloudy"
"2011-08-15 03:00","2011","08","15","03:00","18.9","","17.7","","93","","4","","9","","24.1","","98.90","","","","","","Mostly Cloudy"
"2011-08-15 04:00","2011","08","15","04:00","18.9","","17.6","","92","","36","","15","","19.3","","98.92","","","","","","Mostly Cloudy"
"2011-08-15 05:00","2011","08","15","05:00","18.8","","17.5","","92","","36","","13","","19.3","","98.96","","","","","","Mostly Cloudy"
"2011-08-15 06:00","2011","08","15","06:00","18.8","","17.5","","92","","35","","22","","19.3","","98.98","","","","","","Mostly Cloudy"
"2011-08-15 07:00","2011","08","15","07:00","19.3","","17.8","","91","","36","","13","","19.3","","99.00","","","","","","Mostly Cloudy"
"2011-08-15 08:00","2011","08","15","08:00","20.7","","18.0","","85","","4","","11","","19.3","","99.01","","27","","","","Mostly Cloudy"
"2011-08-15 09:00","2011","08","15","09:00","21.6","","18.3","","82","","35","","17","","24.1","","99.01","","28","","","","Mostly Cloudy"
"2011-08-15 10:00","2011","08","15","10:00","22.6","","18.0","","75","","34","","11","","24.1","","99.03","","29","","","","Mostly Cloudy"
"2011-08-15 11:00","2011","08","15","11:00","24.0","","17.6","","67","","36","","17","","24.1","","99.02","","30","","","","Mostly Cloudy"
"2011-08-15 12:00","2011","08","15","12:00","25.5","","17.7","","62","","36","","24","","24.1","","98.99","","31","","","","Mostly Cloudy"
"2011-08-15 13:00","2011","08","15","13:00","26.5","","17.3","","57","","36","","24","","24.1","","98.94","","32","","","","Mostly Cloudy"
"2011-08-15 14:00","2011","08","15","14:00","27.3","","16.7","","52","","1","","30","","24.1","","98.92","","32","","","","Mostly Cloudy"
"2011-08-15 15:00","2011","08","15","15:00","26.9","","16.7","","54","","36","","26","","24.1","","98.87","","32","","","","Mostly Cloudy"
"2011-08-15 16:00","2011","08","15","16:00","25.7","","16.3","","56","","35","","41","","24.1","","98.90","","31","","","","Mostly Cloudy"
"2011-08-15 17:00","2011","08","15","17:00","25.1","","15.8","","56","","36","","24","","24.1","","98.93","","30","","","","Mostly Cloudy"
"2011-08-15 18:00","2011","08","15","18:00","24.2","","14.8","","56","","1","","28","","24.1","","98.96","","28","","","","Mostly Cloudy"
"2011-08-15 19:00","2011","08","15","19:00","23.7","","14.8","","57","","36","","22","","24.1","","99.01","","28","","","","Mostly Cloudy"
"2011-08-15 20:00","2011","08","15","20:00","22.6","","12.9","","54","","1","","19","","24.1","","99.05","","25","","","","Mostly Cloudy"
"2011-08-15 21:00","2011","08","15","21:00","21.4","","12.3","","56","","34","","20","","24.1","","99.05","","","","","","Mainly Clear"
"2011-08-15 22:00","2011","08","15","22:00","20.9","","12.8","","60","","35","","26","","24.1","","99.10","","","","","","Mostly Cloudy"
"2011-08-15 23:00","2011","08","15","23:00","19.8","","11.7","","60","","35","","20","","24.1","","99.06","","","","","","Mainly Clear"
"2011-08-16 00:00","2011","08","16","00:00","18.7","","11.9","","65","","34","","22","","24.1","","99.07","","","","","","Mainly Clear"
"2011-08-16 01:00","2011","08","16","01:00","18.0","","11.4","","65","","35","","22","","24.1","","99.11","","","","","","Clear"
"2011-08-16 02:00","2011","08","16","02:00","17.8","","12.1","","69","","35","","19","","24.1","","99.13","","","","","","Clear"
"2011-08-16 03:00","2011","08","16","03:00","18.0","","11.8","","67","","34","","22","","24.1","","99.18","","","","","","Clear"
"2011-08-16 04:00","2011","08","16","04:00","17.6","","11.7","","68","","35","","22","","24.1","","99.23","","","","","","Clear"
"2011-08-16 05:00","2011","08","16","05:00","17.0","","11.9","","72","","35","","20","","24.1","","99.29","","","","","","Mainly Clear"
"2011-08-16 06:00","2011","08","16","06:00","17.3","","12.4","","73","","35","","19","","24.1","","99.32","","","","","","Clear"
"2011-08-16 07:00","2011","08","16","07:00","18.8","","13.6","","72","","35","","20","","24.1","","99.38","","","","","","Clear"
"2011-08-16 08:00","2011","08","16","08:00","21.8","","15.1","","66","","36","","20","","24.1","","99.43","","26","","","","Clear"
"2011-08-16 09:00","2011","08","16","09:00","23.5","","15.0","","59","","36","","20","","24.1","","99.45","","27","","","","Clear"
"2011-08-16 10:00","2011","08","16","10:00","25.7","","14.8","","51","","1","","22","","24.1","","99.47","","30","","","","Clear"
"2011-08-16 11:00","2011","08","16","11:00","26.8","","14.1","","46","","36","","20","","24.1","","99.46","","30","","","","Mainly Clear"
"2011-08-16 12:00","2011","08","16","12:00","27.2","","14.3","","45","","36","","6","","24.1","","99.44","","31","","","","Mainly Clear"
"2011-08-16 13:00","2011","08","16","13:00","28.0","","13.8","","42","","36","","19","","24.1","","99.47","","31","","","","Mainly Clear"
"2011-08-16 14:00","2011","08","16","14:00","28.8","","14.0","","40","","2","","17","","24.1","","99.46","","32","","","","Mainly Clear"
"2011-08-16 15:00","2011","08","16","15:00","28.5","","13.2","","39","","2","","7","","24.1","","99.47","","31","","","","Mainly Clear"
"2011-08-16 16:00","2011","08","16","16:00","29.0","","13.7","","39","","34","","26","","24.1","","99.52","","32","","","","Mainly Clear"
"2011-08-16 17:00","2011","08","16","17:00","27.9","","13.3","","41","","2","","22","","24.1","","99.55","","31","","","","Mainly Clear"
"2011-08-16 18:00","2011","08","16","18:00","26.7","","13.0","","43","","1","","19","","24.1","","99.59","","29","","","","Mainly Clear"
"2011-08-16 19:00","2011","08","16","19:00","26.3","","13.0","","44","","1","","15","","24.1","","99.59","","29","","","","Mainly Clear"
"2011-08-16 20:00","2011","08","16","20:00","23.8","","13.4","","52","","3","","11","","24.1","","99.62","","27","","","","Mainly Clear"
"2011-08-16 21:00","2011","08","16","21:00","23.5","","12.8","","51","","","","0","","24.1","","99.68","","26","","","","Mainly Clear"
"2011-08-16 22:00","2011","08","16","22:00","22.4","","13.2","","56","","2","","9","","24.1","","99.72","","25","","","","Mainly Clear"
"2011-08-16 23:00","2011","08","16","23:00","20.7","","13.5","","63","","1","","7","","24.1","","99.76","","","","","","Mainly Clear"
"2011-08-17 00:00","2011","08","17","00:00","19.9","","13.9","","68","","1","","9","","24.1","","99.76","","","","","","Mainly Clear"
"2011-08-17 01:00","2011","08","17","01:00","19.6","","14.1","","71","","2","","4","","24.1","","99.79","","","","","","Mainly Clear"
"2011-08-17 02:00","2011","08","17","02:00","19.1","","13.4","","70","","34","","6","","24.1","","99.84","","","","","","Mainly Clear"
"2011-08-17 03:00","2011","08","17","03:00","17.9","","13.3","","74","","36","","7","","24.1","","99.84","","","","","","Clear"
"2011-08-17 04:00","2011","08","17","04:00","17.3","","13.2","","77","","31","","9","","24.1","","99.87","","","","","","Clear"
"2011-08-17 05:00","2011","08","17","05:00","17.8","","13.0","","73","","28","","4","","24.1","","99.89","","","","","","Clear"
"2011-08-17 06:00","2011","08","17","06:00","17.6","","13.7","","78","","29","","7","","24.1","","99.91","","","","","","Clear"
"2011-08-17 07:00","2011","08","17","07:00","20.4","","14.3","","68","","","","0","","24.1","","99.88","","","","","","Clear"
"2011-08-17 08:00","2011","08","17","08:00","23.3","","14.5","","58","","28","","6","","24.1","","99.93","","27","","","","Clear"
"2011-08-17 09:00","2011","08","17","09:00","25.6","","14.5","","50","","21","","13","","24.1","","99.92","","29","","","","Mainly Clear"
"2011-08-17 10:00","2011","08","17","10:00","26.8","","13.0","","42","","25","","13","","24.1","","99.89","","30","","","","Mainly Clear"
"2011-08-17 11:00","2011","08","17","11:00","27.8","","12.6","","39","","26","","24","","24.1","","99.89","","30","","","","Mostly Cloudy"
"2011-08-17 12:00","2011","08","17","12:00","27.6","","12.6","","39","","21","","22","","24.1","","99.82","","30","","","","Mostly Cloudy"
"2011-08-17 13:00","2011","08","17","13:00","27.2","","10.3","","35","","22","","19","","24.1","","99.78","","29","","","","Mostly Cloudy"
"2011-08-17 14:00","2011","08","17","14:00","28.5","","11.4","","35","","23","","20","","24.1","","99.72","","30","","","","Mainly Clear"
"2011-08-17 15:00","2011","08","17","15:00","28.0","","11.4","","36","","21","","19","","24.1","","99.68","","30","","","","Mostly Cloudy"
"2011-08-17 16:00","2011","08","17","16:00","27.4","","12.6","","40","","18","","13","","24.1","","99.62","","30","","","","Cloudy"
"2011-08-17 17:00","2011","08","17","17:00","26.3","","15.7","","52","","23","","20","","24.1","","99.60","","31","","","","Mostly Cloudy"
"2011-08-17 18:00","2011","08","17","18:00","26.0","","16.5","","56","","27","","17","","24.1","","99.58","","31","","","","Mostly Cloudy"
"2011-08-17 19:00","2011","08","17","19:00","24.7","","16.2","","59","","24","","15","","24.1","","99.56","","29","","","","Mostly Cloudy"
"2011-08-17 20:00","2011","08","17","20:00","23.5","","16.1","","63","","25","","17","","24.1","","99.55","","28","","","","Mostly Cloudy"
"2011-08-17 21:00","2011","08","17","21:00","24.1","","14.9","","56","","22","","15","","24.1","","99.54","","28","","","","Mostly Cloudy"
"2011-08-17 22:00","2011","08","17","22:00","23.2","","14.5","","58","","24","","15","","24.1","","99.50","","27","","","","Mostly Cloudy"
"2011-08-17 23:00","2011","08","17","23:00","22.7","","14.6","","60","","23","","11","","24.1","","99.48","","26","","","","Mostly Cloudy"
"2011-08-18 00:00","2011","08","18","00:00","20.9","","14.5","","67","","26","","13","","24.1","","99.50","","25","","","","Mainly Clear"
"2011-08-18 01:00","2011","08","18","01:00","20.8","","14.9","","69","","26","","17","","24.1","","99.49","","25","","","","Mainly Clear"
"2011-08-18 02:00","2011","08","18","02:00","19.3","","14.9","","76","","25","","13","","24.1","","99.48","","","","","","Mainly Clear"
"2011-08-18 03:00","2011","08","18","03:00","19.1","","15.2","","78","","25","","4","","24.1","","99.49","","","","","","Mainly Clear"
"2011-08-18 04:00","2011","08","18","04:00","19.4","","15.7","","79","","27","","9","","24.1","","99.45","","","","","","Mainly Clear"
"2011-08-18 05:00","2011","08","18","05:00","19.0","","16.0","","83","","","","0","","24.1","","99.44","","","","","","Mainly Clear"
"2011-08-18 06:00","2011","08","18","06:00","19.1","","16.6","","85","","27","","11","","24.1","","99.42","","","","","","Clear"
"2011-08-18 07:00","2011","08","18","07:00","21.2","","16.9","","76","","28","","11","","24.1","","99.45","","26","","","","Clear"
"2011-08-18 08:00","2011","08","18","08:00","23.6","","17.5","","69","","27","","11","","24.1","","99.45","","29","","","","Clear"
"2011-08-18 09:00","2011","08","18","09:00","25.3","","17.8","","63","","27","","11","","24.1","","99.42","","31","","","","Clear"
"2011-08-18 10:00","2011","08","18","10:00","26.5","","17.1","","56","","27","","22","","24.1","","99.39","","32","","","","Mainly Clear"
"2011-08-18 11:00","2011","08","18","11:00","27.1","","16.9","","54","","28","","20","","24.1","","99.34","","32","","","","Mostly Cloudy"
"2011-08-18 12:00","2011","08","18","12:00","27.1","","15.2","","48","","28","","20","","24.1","","99.29","","31","","","","Mostly Cloudy"
"2011-08-18 13:00","2011","08","18","13:00","29.5","","16.3","","45","","28","","22","","24.1","","99.23","","34","","","","Mostly Cloudy"
"2011-08-18 14:00","2011","08","18","14:00","29.9","","16.5","","44","","28","","24","","24.1","","99.17","","35","","","","Mainly Clear"
"2011-08-18 15:00","2011","08","18","15:00","28.7","","15.6","","45","","28","","20","","24.1","","99.11","","33","","","","Mostly Cloudy"
"2011-08-18 16:00","2011","08","18","16:00","29.5","","16.1","","44","","27","","17","","24.1","","99.03","","34","","","","Mainly Clear"
"2011-08-18 17:00","2011","08","18","17:00","28.6","","16.5","","48","","24","","20","","24.1","","99.05","","34","","","","Mostly Cloudy"
"2011-08-18 18:00","2011","08","18","18:00","25.8","","16.6","","57","","24","","22","","24.1","","99.11","","31","","","","Mostly Cloudy"
"2011-08-18 19:00","2011","08","18","19:00","24.4","","17.5","","65","","24","","22","","24.1","","99.09","","30","","","","Mostly Cloudy"
"2011-08-18 20:00","2011","08","18","20:00","23.7","","17.4","","68","","2","","13","","24.1","","99.13","","29","","","","Mainly Clear"
"2011-08-18 21:00","2011","08","18","21:00","22.8","","15.5","","63","","1","","9","","24.1","","99.16","","27","","","","Mainly Clear"
"2011-08-18 22:00","2011","08","18","22:00","21.1","","15.2","","69","","2","","11","","24.1","","99.13","","25","","","","Mainly Clear"
"2011-08-18 23:00","2011","08","18","23:00","21.2","","15.5","","70","","29","","6","","24.1","","99.16","","25","","","","Clear"
"2011-08-19 00:00","2011","08","19","00:00","20.2","","15.9","","76","","30","","7","","24.1","","99.16","","25","","","","Mainly Clear"
"2011-08-19 01:00","2011","08","19","01:00","18.8","","14.8","","78","","31","","7","","24.1","","99.14","","","","","","Mainly Clear"
"2011-08-19 02:00","2011","08","19","02:00","17.3","","12.9","","75","","31","","6","","24.1","","99.15","","","","","","Mainly Clear"
"2011-08-19 03:00","2011","08","19","03:00","17.0","","12.7","","76","","30","","7","","24.1","","99.15","","","","","","Mainly Clear"
"2011-08-19 04:00","2011","08","19","04:00","17.1","","11.9","","71","","","","0","","24.1","","99.14","","","","","","Clear"
"2011-08-19 05:00","2011","08","19","05:00","16.6","","11.5","","72","","","","0","","24.1","","99.13","","","","","","Clear"
"2011-08-19 06:00","2011","08","19","06:00","16.8","","11.4","","70","","26","","4","","24.1","","99.18","","","","","","Mainly Clear"
"2011-08-19 07:00","2011","08","19","07:00","19.3","","12.6","","65","","29","","6","","24.1","","99.23","","","","","","Mainly Clear"
"2011-08-19 08:00","2011","08","19","08:00","22.4","","12.6","","54","","31","","6","","24.1","","99.25","","25","","","","Mainly Clear"
"2011-08-19 09:00","2011","08","19","09:00","26.1","","11.4","","40","","11","","4","","24.1","","99.22","","28","","","","Clear"
"2011-08-19 10:00","2011","08","19","10:00","27.3","","12.9","","41","","27","","13","","24.1","","99.23","","30","","","","Clear"
"2011-08-19 11:00","2011","08","19","11:00","27.5","","12.8","","40","","13","","9","","24.1","","99.20","","30","","","","Mainly Clear"
"2011-08-19 12:00","2011","08","19","12:00","27.2","","14.0","","44","","16","","19","","24.1","","99.17","","31","","","","Mainly Clear"
"2011-08-19 13:00","2011","08","19","13:00","27.9","","12.5","","39","","17","","19","","24.1","","99.17","","30","","","","Mainly Clear"
"2011-08-19 14:00","2011","08","19","14:00","27.8","","13.0","","40","","12","","13","","24.1","","99.14","","31","","","","Mainly Clear"
"2011-08-19 15:00","2011","08","19","15:00","29.2","","14.3","","40","","15","","13","","24.1","","99.06","","33","","","","Mainly Clear"
"2011-08-19 16:00","2011","08","19","16:00","27.9","","13.4","","41","","17","","15","","24.1","","99.04","","31","","","","Mostly Cloudy"
"2011-08-19 17:00","2011","08","19","17:00","27.1","","13.3","","43","","16","","11","","24.1","","99.05","","30","","","","Mostly Cloudy"
"2011-08-19 18:00","2011","08","19","18:00","26.9","","14.1","","45","","17","","11","","24.1","","99.05","","30","","","","Mainly Clear"
"2011-08-19 19:00","2011","08","19","19:00","26.7","","13.7","","45","","11","","6","","24.1","","99.12","","30","","","","Mostly Cloudy"
"2011-08-19 20:00","2011","08","19","20:00","25.4","","14.5","","51","","10","","7","","24.1","","99.17","","29","","","","Mostly Cloudy"
"2011-08-19 21:00","2011","08","19","21:00","23.3","","14.0","","56","","5","","6","","24.1","","99.18","","27","","","","Mainly Clear"
"2011-08-19 22:00","2011","08","19","22:00","23.6","","15.1","","59","","18","","4","","24.1","","99.21","","28","","","","Mainly Clear"
"2011-08-19 23:00","2011","08","19","23:00","23.6","","14.6","","57","","14","","6","","24.1","","99.22","","27","","","","Mainly Clear"
"2011-08-20 00:00","2011","08","20","00:00","23.1","","16.0","","64","","","","0","","24.1","","99.23","","28","","","","Mostly Cloudy"
"2011-08-20 01:00","2011","08","20","01:00","22.8","","16.6","","68","","","","0","","24.1","","99.21","","28","","","","Mostly Cloudy"
"2011-08-20 02:00","2011","08","20","02:00","21.4","","15.6","","70","","1","","7","","24.1","","99.21","","26","","","","Mostly Cloudy"
"2011-08-20 03:00","2011","08","20","03:00","21.6","","15.8","","70","","27","","4","","24.1","","99.20","","26","","","","Mostly Cloudy"
"2011-08-20 04:00","2011","08","20","04:00","21.4","","16.1","","72","","28","","4","","24.1","","99.23","","26","","","","Mainly Clear"
"2011-08-20 05:00","2011","08","20","05:00","20.2","","15.2","","73","","28","","7","","24.1","","99.30","","","","","","Mainly Clear"
"2011-08-20 06:00","2011","08","20","06:00","21.0","","14.8","","68","","31","","6","","24.1","","99.35","","25","","","","Mainly Clear"
"2011-08-20 07:00","2011","08","20","07:00","22.0","","15.2","","65","","25","","4","","24.1","","99.35","","26","","","","Mainly Clear"
"2011-08-20 08:00","2011","08","20","08:00","25.3","","15.5","","55","","22","","7","","24.1","","99.36","","30","","","","Mainly Clear"
"2011-08-20 09:00","2011","08","20","09:00","26.7","","15.3","","50","","22","","17","","24.1","","99.38","","31","","","","Mainly Clear"
"2011-08-20 10:00","2011","08","20","10:00","26.9","","15.1","","48","","24","","26","","24.1","","99.40","","31","","","","Mostly Cloudy"
"2011-08-20 11:00","2011","08","20","11:00","29.0","","15.1","","43","","22","","26","","24.1","","99.34","","33","","","","Mostly Cloudy"
"2011-08-20 12:00","2011","08","20","12:00","28.8","","14.4","","41","","22","","20","","24.1","","99.30","","32","","","","Mostly Cloudy"
"2011-08-20 13:00","2011","08","20","13:00","28.3","","14.3","","42","","28","","20","","24.1","","99.34","","32","","","","Mostly Cloudy"
"2011-08-20 14:00","2011","08","20","14:00","28.2","","15.0","","45","","28","","15","","24.1","","99.31","","32","","","","Cloudy"
"2011-08-20 15:00","2011","08","20","15:00","28.7","","15.2","","44","","29","","22","","24.1","","99.31","","33","","","","Cloudy"
"2011-08-20 16:00","2011","08","20","16:00","24.9","","16.5","","60","","3","","15","","24.1","","99.21","","30","","","","Cloudy"
"2011-08-20 17:00","2011","08","20","17:00","25.2","","16.9","","60","","4","","11","","24.1","","99.18","","30","","","","Cloudy"
"2011-08-20 18:00","2011","08","20","18:00","25.2","","17.4","","62","","27","","4","","24.1","","99.23","","31","","","","Rain Showers"
"2011-08-20 19:00","2011","08","20","19:00","23.0","","17.9","","73","","29","","17","","24.1","","99.26","","29","","","","Rain Showers"
"2011-08-20 20:00","2011","08","20","20:00","20.4","","16.6","","79","","31","","19","","24.1","","99.28","","25","","","","Rain Showers"
"2011-08-20 21:00","2011","08","20","21:00","19.4","","16.9","","85","","23","","13","","24.1","","99.29","","","","","","Cloudy"
"2011-08-20 22:00","2011","08","20","22:00","19.5","","16.9","","85","","22","","7","","24.1","","99.17","","","","","","Cloudy"
"2011-08-20 23:00","2011","08","20","23:00","20.1","","16.7","","81","","21","","7","","24.1","","99.14","","25","","","","Rain Showers"
"2011-08-21 00:00","2011","08","21","00:00","19.5","","17.1","","86","","23","","6","","24.1","","99.15","","","","","","Rain Showers"
"2011-08-21 01:00","2011","08","21","01:00","19.4","","16.7","","84","","32","","7","","24.1","","99.18","","","","","","Cloudy"
"2011-08-21 02:00","2011","08","21","02:00","19.1","","16.5","","85","","24","","4","","24.1","","99.17","","","","","","Mostly Cloudy"
"2011-08-21 03:00","2011","08","21","03:00","18.6","","16.6","","88","","25","","9","","24.1","","99.19","","","","","","Mostly Cloudy"
"2011-08-21 04:00","2011","08","21","04:00","18.5","","16.8","","90","","23","","6","","24.1","","99.16","","","","","","Rain Showers"
"2011-08-21 05:00","2011","08","21","05:00","18.5","","16.7","","89","","32","","4","","24.1","","99.12","","","","","","Rain Showers"
"2011-08-21 06:00","2011","08","21","06:00","18.6","","16.9","","90","","2","","4","","24.1","","99.15","","","","","","Mostly Cloudy"
"2011-08-21 07:00","2011","08","21","07:00","19.3","","16.8","","85","","2","","7","","24.1","","99.16","","","","","","Mostly Cloudy"
"2011-08-21 08:00","2011","08","21","08:00","20.1","","16.8","","81","","","","0","","24.1","","99.15","","25","","","","Mostly Cloudy"
"2011-08-21 09:00","2011","08","21","09:00","20.5","","16.9","","80","","2","","6","","24.1","","99.11","","26","","","","Mostly Cloudy"
"2011-08-21 10:00","2011","08","21","10:00","20.9","","16.8","","77","","4","","6","","24.1","","99.07","","26","","","","Mostly Cloudy"
"2011-08-21 11:00","2011","08","21","11:00","21.2","","16.9","","76","","30","","6","","24.1","","99.05","","26","","","","Cloudy"
"2011-08-21 12:00","2011","08","21","12:00","22.9","","17.4","","71","","31","","6","","24.1","","98.90","","28","","","","Mostly Cloudy"
"2011-08-21 13:00","2011","08","21","13:00","23.5","","16.5","","65","","","","0","","24.1","","98.77","","28","","","","Mostly Cloudy"
"2011-08-21 14:00","2011","08","21","14:00","15.9","","14.8","","93","","30","","11","","16.1","","98.83","","","","","","Thunderstorms,Rain Showers"
"2011-08-21 15:00","2011","08","21","15:00","19.9","","17.6","","87","","27","","7","","24.1","","98.80","","","","","","Mostly Cloudy"
"2011-08-21 16:00","2011","08","21","16:00","18.8","","14.4","","76","","34","","32","","24.1","","98.84","","","","","","Mostly Cloudy"
"2011-08-21 17:00","2011","08","21","17:00","17.2","","15.1","","87","","35","","17","","24.1","","98.92","","","","","","Rain Showers"
"2011-08-21 18:00","2011","08","21","18:00","17.5","","14.4","","82","","33","","22","","24.1","","98.90","","","","","","Mainly Clear"
"2011-08-21 19:00","2011","08","21","19:00","17.6","","14.6","","83","","31","","13","","24.1","","98.91","","","","","","Mostly Cloudy"
"2011-08-21 20:00","2011","08","21","20:00","16.9","","13.9","","82","","28","","15","","24.1","","98.92","","","","","","Mainly Clear"
"2011-08-21 21:00","2011","08","21","21:00","16.2","","13.6","","85","","28","","15","","24.1","","98.98","","","","","","Mainly Clear"
"2011-08-21 22:00","2011","08","21","22:00","15.3","","13.3","","88","","28","","11","","24.1","","99.01","","","","","","Clear"
"2011-08-21 23:00","2011","08","21","23:00","14.9","","13.0","","88","","28","","11","","24.1","","98.99","","","","","","Mainly Clear"
"2011-08-22 00:00","2011","08","22","00:00","14.7","","12.3","","86","","27","","17","","24.1","","99.01","","","","","","Clear"
"2011-08-22 01:00","2011","08","22","01:00","14.0","","11.7","","86","","29","","15","","24.1","","99.05","","","","","","Mainly Clear"
"2011-08-22 02:00","2011","08","22","02:00","14.5","","11.5","","82","","30","","20","","24.1","","99.03","","","","","","Clear"
"2011-08-22 03:00","2011","08","22","03:00","14.3","","11.5","","83","","30","","19","","24.1","","99.07","","","","","","Clear"
"2011-08-22 04:00","2011","08","22","04:00","14.2","","11.5","","84","","29","","24","","24.1","","99.10","","","","","","Clear"
"2011-08-22 05:00","2011","08","22","05:00","14.2","","11.4","","83","","30","","26","","24.1","","99.16","","","","","","Clear"
"2011-08-22 06:00","2011","08","22","06:00","14.1","","11.5","","84","","30","","24","","24.1","","99.22","","","","","","Clear"
"2011-08-22 07:00","2011","08","22","07:00","15.6","","11.9","","79","","31","","30","","24.1","","99.28","","","","","","Clear"
"2011-08-22 08:00","2011","08","22","08:00","17.1","","12.0","","72","","32","","30","","24.1","","99.34","","","","","","Clear"
"2011-08-22 09:00","2011","08","22","09:00","18.7","","11.7","","64","","34","","35","","24.1","","99.38","","","","","","Clear"
"2011-08-22 10:00","2011","08","22","10:00","20.2","","11.3","","57","","33","","33","","24.1","","99.41","","","","","","Mainly Clear"
"2011-08-22 11:00","2011","08","22","11:00","21.1","","10.6","","51","","34","","35","","24.1","","99.42","","","","","","Mainly Clear"
"2011-08-22 12:00","2011","08","22","12:00","21.4","","10.4","","49","","33","","32","","24.1","","99.42","","","","","","Mainly Clear"
"2011-08-22 13:00","2011","08","22","13:00","21.6","","9.2","","45","","2","","30","","24.1","","99.38","","","","","","Mainly Clear"
"2011-08-22 14:00","2011","08","22","14:00","21.2","","7.6","","41","","30","","11","","24.1","","99.37","","","","","","Mainly Clear"
"2011-08-22 15:00","2011","08","22","15:00","21.8","","7.9","","41","","33","","22","","24.1","","99.36","","","","","","Mostly Cloudy"
"2011-08-22 16:00","2011","08","22","16:00","22.3","","7.9","","40","","32","","28","","24.1","","99.34","","","","","","Mostly Cloudy"
"2011-08-22 17:00","2011","08","22","17:00","22.3","","7.5","","38","","31","","28","","24.1","","99.35","","","","","","Mostly Cloudy"
"2011-08-22 18:00","2011","08","22","18:00","21.2","","8.4","","44","","29","","32","","24.1","","99.37","","","","","","Mostly Cloudy"
"2011-08-22 19:00","2011","08","22","19:00","20.0","","8.0","","46","","30","","20","","24.1","","99.39","","","","","","Mostly Cloudy"
"2011-08-22 20:00","2011","08","22","20:00","18.1","","8.1","","52","","29","","17","","24.1","","99.43","","","","","","Mainly Clear"
"2011-08-22 21:00","2011","08","22","21:00","16.8","","8.6","","58","","27","","9","","24.1","","99.46","","","","","","Mainly Clear"
"2011-08-22 22:00","2011","08","22","22:00","16.1","","8.6","","61","","28","","17","","24.1","","99.47","","","","","","Mainly Clear"
"2011-08-22 23:00","2011","08","22","23:00","16.2","","9.1","","63","","29","","7","","24.1","","99.48","","","","","","Mostly Cloudy"
"2011-08-23 00:00","2011","08","23","00:00","14.9","","9.0","","68","","28","","6","","24.1","","99.49","","","","","","Mainly Clear"
"2011-08-23 01:00","2011","08","23","01:00","15.5","","9.5","","67","","28","","6","","24.1","","99.46","","","","","","Mainly Clear"
"2011-08-23 02:00","2011","08","23","02:00","14.9","","9.8","","72","","25","","4","","24.1","","99.44","","","","","","Mainly Clear"
"2011-08-23 03:00","2011","08","23","03:00","14.3","","9.9","","75","","26","","6","","24.1","","99.45","","","","","","Mainly Clear"
"2011-08-23 04:00","2011","08","23","04:00","13.2","","9.8","","80","","29","","11","","24.1","","99.46","","","","","","Clear"
"2011-08-23 05:00","2011","08","23","05:00","13.7","","9.9","","78","","32","","11","","24.1","","99.49","","","","","","Mainly Clear"
"2011-08-23 06:00","2011","08","23","06:00","12.7","","10.1","","84","","27","","7","","24.1","","99.53","","","","","","Mainly Clear"
"2011-08-23 07:00","2011","08","23","07:00","15.7","","11.7","","77","","29","","11","","24.1","","99.54","","","","","","Mainly Clear"
"2011-08-23 08:00","2011","08","23","08:00","19.4","","12.9","","66","","27","","9","","24.1","","99.53","","","","","","Clear"
"2011-08-23 09:00","2011","08","23","09:00","21.2","","13.3","","61","","27","","17","","24.1","","99.50","","","","","","Clear"
"2011-08-23 10:00","2011","08","23","10:00","23.6","","11.8","","48","","27","","17","","24.1","","99.51","","26","","","","Clear"
"2011-08-23 11:00","2011","08","23","11:00","23.6","","10.3","","43","","26","","20","","24.1","","99.49","","25","","","","Clear"
"2011-08-23 12:00","2011","08","23","12:00","25.7","","11.1","","40","","24","","17","","24.1","","99.45","","28","","","","Mainly Clear"
"2011-08-23 13:00","2011","08","23","13:00","26.3","","11.6","","40","","29","","13","","24.1","","99.39","","28","","","","Clear"
"2011-08-23 14:00","2011","08","23","14:00","27.4","","13.2","","42","","26","","20","","24.1","","99.37","","30","","","","Mainly Clear"
"2011-08-23 15:00","2011","08","23","15:00","27.4","","12.9","","41","","23","","20","","24.1","","99.32","","30","","","","Mainly Clear"
"2011-08-23 16:00","2011","08","23","16:00","26.5","","13.6","","45","","24","","19","","24.1","","99.28","","30","","","","Mostly Cloudy"
"2011-08-23 17:00","2011","08","23","17:00","25.8","","14.4","","49","","23","","26","","24.1","","99.29","","29","","","","Mostly Cloudy"
"2011-08-23 18:00","2011","08","23","18:00","24.4","","13.9","","52","","23","","30","","24.1","","99.29","","28","","","","Cloudy"
"2011-08-23 19:00","2011","08","23","19:00","23.3","","13.2","","53","","22","","20","","24.1","","99.29","","26","","","","Mostly Cloudy"
"2011-08-23 20:00","2011","08","23","20:00","22.6","","11.7","","50","","21","","17","","24.1","","99.31","","25","","","","Mostly Cloudy"
"2011-08-23 21:00","2011","08","23","21:00","21.7","","12.4","","55","","19","","9","","24.1","","99.34","","","","","","Mostly Cloudy"
"2011-08-23 22:00","2011","08","23","22:00","21.1","","13.8","","63","","17","","13","","24.1","","99.29","","","","","","Cloudy"
"2011-08-23 23:00","2011","08","23","23:00","20.5","","14.9","","70","","17","","11","","24.1","","99.23","","","","","","Cloudy"
"2011-08-24 00:00","2011","08","24","00:00","20.6","","15.6","","73","","18","","13","","24.1","","99.21","","25","","","","Cloudy"
"2011-08-24 01:00","2011","08","24","01:00","20.3","","16.1","","77","","16","","11","","24.1","","99.12","","25","","","","Mostly Cloudy"
"2011-08-24 02:00","2011","08","24","02:00","20.0","","16.0","","78","","17","","13","","24.1","","99.00","","25","","","","Mainly Clear"
"2011-08-24 03:00","2011","08","24","03:00","20.7","","16.1","","75","","18","","17","","24.1","","98.93","","25","","","","Mostly Cloudy"
"2011-08-24 04:00","2011","08","24","04:00","20.9","","15.9","","73","","19","","20","","24.1","","98.88","","25","","","","Mainly Clear"
"2011-08-24 05:00","2011","08","24","05:00","21.2","","15.8","","71","","18","","17","","24.1","","98.80","","26","","","","Mostly Cloudy"
"2011-08-24 06:00","2011","08","24","06:00","21.8","","15.6","","68","","18","","19","","24.1","","98.76","","26","","","","Mostly Cloudy"
"2011-08-24 07:00","2011","08","24","07:00","22.1","","16.4","","70","","21","","17","","24.1","","98.76","","27","","","","Rain"
"2011-08-24 08:00","2011","08","24","08:00","22.3","","16.8","","71","","21","","15","","24.1","","98.73","","27","","","","Mostly Cloudy"
"2011-08-24 09:00","2011","08","24","09:00","22.1","","16.9","","72","","20","","19","","24.1","","98.71","","27","","","","Cloudy"
"2011-08-24 10:00","2011","08","24","10:00","20.7","","18.2","","86","","19","","11","","12.9","","98.66","","27","","","","Rain"
"2011-08-24 11:00","2011","08","24","11:00","20.5","","18.6","","89","","18","","11","","24.1","","98.61","","27","","","","Cloudy"
"2011-08-24 12:00","2011","08","24","12:00","22.4","","18.5","","79","","21","","26","","24.1","","98.54","","29","","","","Cloudy"
"2011-08-24 13:00","2011","08","24","13:00","23.8","","18.7","","73","","21","","30","","24.1","","98.45","","30","","","","Cloudy"
"2011-08-24 14:00","2011","08","24","14:00","25.8","","19.2","","67","","21","","32","","24.1","","98.37","","33","","","","Mostly Cloudy"
"2011-08-24 15:00","2011","08","24","15:00","27.2","","19.4","","62","","21","","30","","24.1","","98.30","","34","","","","Mainly Clear"
"2011-08-24 16:00","2011","08","24","16:00","27.9","","19.5","","60","","23","","30","","24.1","","98.26","","35","","","","Clear"
"2011-08-24 17:00","2011","08","24","17:00","27.3","","19.6","","63","","22","","30","","24.1","","98.21","","35","","","","Mostly Cloudy"
"2011-08-24 18:00","2011","08","24","18:00","27.1","","19.9","","65","","21","","28","","19.3","","98.15","","35","","","","Mostly Cloudy"
"2011-08-24 19:00","2011","08","24","19:00","26.7","","19.7","","66","","20","","17","","24.1","","98.21","","34","","","","Cloudy"
"2011-08-24 20:00","2011","08","24","20:00","25.2","","20.4","","75","","21","","20","","16.1","","98.11","","33","","","","Thunderstorms,Rain Showers"
"2011-08-24 21:00","2011","08","24","21:00","20.5","","18.0","","86","","23","","35","","16.1","","98.19","","27","","","","Thunderstorms,Moderate Rain Showers"
"2011-08-24 22:00","2011","08","24","22:00","19.1","","17.6","","91","","20","","22","","16.1","","98.22","","","","","","Thunderstorms,Rain Showers"
"2011-08-24 23:00","2011","08","24","23:00","19.2","","17.8","","92","","24","","7","","24.1","","98.16","","","","","","Cloudy"
"2011-08-25 00:00","2011","08","25","00:00","19.3","","17.5","","89","","21","","17","","24.1","","98.22","","","","","","Cloudy"
"2011-08-25 01:00","2011","08","25","01:00","19.0","","17.5","","91","","20","","9","","24.1","","98.23","","","","","","Cloudy"
"2011-08-25 02:00","2011","08","25","02:00","19.1","","17.5","","90","","21","","15","","24.1","","98.27","","","","","","Mostly Cloudy"
"2011-08-25 03:00","2011","08","25","03:00","19.1","","17.6","","91","","21","","11","","24.1","","98.31","","","","","","Cloudy"
"2011-08-25 04:00","2011","08","25","04:00","19.3","","18.3","","94","","24","","13","","24.1","","98.28","","","","","","Cloudy"
"2011-08-25 05:00","2011","08","25","05:00","19.7","","18.6","","93","","27","","9","","24.1","","98.36","","","","","","Cloudy"
"2011-08-25 06:00","2011","08","25","06:00","19.4","","18.0","","92","","29","","17","","24.1","","98.42","","","","","","Mostly Cloudy"
"2011-08-25 07:00","2011","08","25","07:00","20.1","","17.8","","87","","32","","17","","24.1","","98.54","","26","","","","Mainly Clear"
"2011-08-25 08:00","2011","08","25","08:00","21.4","","17.6","","79","","31","","11","","24.1","","98.60","","27","","","","Mainly Clear"
"2011-08-25 09:00","2011","08","25","09:00","23.0","","15.7","","63","","32","","20","","24.1","","98.67","","27","","","","Mainly Clear"
"2011-08-25 10:00","2011","08","25","10:00","23.7","","16.5","","64","","29","","20","","24.1","","98.78","","29","","","","Mainly Clear"
"2011-08-25 11:00","2011","08","25","11:00","23.5","","16.3","","64","","28","","19","","24.1","","98.83","","28","","","","Mostly Cloudy"
"2011-08-25 12:00","2011","08","25","12:00","23.6","","16.6","","65","","30","","22","","24.1","","98.83","","29","","","","Rain Showers"
"2011-08-25 13:00","2011","08","25","13:00","24.8","","17.0","","62","","31","","22","","24.1","","98.88","","30","","","","Mostly Cloudy"
"2011-08-25 14:00","2011","08","25","14:00","25.2","","16.9","","60","","30","","24","","24.1","","98.91","","30","","","","Mostly Cloudy"
"2011-08-25 15:00","2011","08","25","15:00","25.1","","16.2","","58","","34","","26","","24.1","","98.96","","30","","","","Mostly Cloudy"
"2011-08-25 16:00","2011","08","25","16:00","24.7","","16.4","","60","","31","","30","","24.1","","99.01","","30","","","","Mostly Cloudy"
"2011-08-25 17:00","2011","08","25","17:00","23.6","","15.8","","62","","31","","28","","24.1","","99.09","","28","","","","Mainly Clear"
"2011-08-25 18:00","2011","08","25","18:00","22.9","","15.4","","63","","31","","26","","24.1","","99.15","","27","","","","Mainly Clear"
"2011-08-25 19:00","2011","08","25","19:00","21.6","","15.2","","67","","31","","26","","24.1","","99.20","","26","","","","Mainly Clear"
"2011-08-25 20:00","2011","08","25","20:00","20.5","","15.2","","72","","31","","20","","24.1","","99.29","","25","","","","Mainly Clear"
"2011-08-25 21:00","2011","08","25","21:00","19.6","","15.2","","76","","31","","17","","24.1","","99.37","","","","","","Mainly Clear"
"2011-08-25 22:00","2011","08","25","22:00","19.4","","15.3","","77","","32","","19","","24.1","","99.42","","","","","","Mainly Clear"
"2011-08-25 23:00","2011","08","25","23:00","19.0","","15.4","","80","","32","","15","","24.1","","99.49","","","","","","Mainly Clear"
"2011-08-26 00:00","2011","08","26","00:00","19.1","","15.5","","80","","31","","13","","24.1","","99.53","","","","","","Mostly Cloudy"
"2011-08-26 01:00","2011","08","26","01:00","19.5","","15.5","","78","","31","","9","","24.1","","99.55","","","","","","Mostly Cloudy"
"2011-08-26 02:00","2011","08","26","02:00","19.3","","15.7","","80","","31","","7","","24.1","","99.57","","","","","","Mostly Cloudy"
"2011-08-26 03:00","2011","08","26","03:00","19.4","","15.5","","78","","36","","11","","24.1","","99.57","","","","","","Cloudy"
"2011-08-26 04:00","2011","08","26","04:00","19.1","","15.5","","80","","36","","9","","24.1","","99.58","","","","","","Mostly Cloudy"
"2011-08-26 05:00","2011","08","26","05:00","19.1","","15.6","","80","","1","","9","","24.1","","99.61","","","","","","Mostly Cloudy"
"2011-08-26 06:00","2011","08","26","06:00","19.2","","15.5","","79","","2","","13","","24.1","","99.64","","","","","","Mostly Cloudy"
"2011-08-26 07:00","2011","08","26","07:00","19.5","","15.8","","79","","3","","9","","24.1","","99.66","","","","","","Cloudy"
"2011-08-26 08:00","2011","08","26","08:00","20.1","","15.5","","75","","7","","11","","24.1","","99.71","","","","","","Cloudy"
"2011-08-26 09:00","2011","08","26","09:00","20.1","","15.9","","77","","10","","7","","24.1","","99.75","","25","","","","Cloudy"
"2011-08-26 10:00","2011","08","26","10:00","20.2","","15.7","","75","","13","","11","","24.1","","99.79","","25","","","","Cloudy"
"2011-08-26 11:00","2011","08","26","11:00","20.9","","16.9","","78","","15","","9","","24.1","","99.76","","26","","","","Mostly Cloudy"
"2011-08-26 12:00","2011","08","26","12:00","20.9","","16.9","","78","","12","","13","","24.1","","99.72","","26","","","","Mostly Cloudy"
"2011-08-26 13:00","2011","08","26","13:00","21.9","","17.3","","75","","14","","15","","24.1","","99.69","","27","","","","Mostly Cloudy"
"2011-08-26 14:00","2011","08","26","14:00","23.3","","16.5","","66","","14","","7","","24.1","","99.62","","28","","","","Mainly Clear"
"2011-08-26 15:00","2011","08","26","15:00","22.9","","16.7","","68","","16","","15","","24.1","","99.55","","28","","","","Mainly Clear"
"2011-08-26 16:00","2011","08","26","16:00","22.3","","16.6","","70","","13","","11","","24.1","","99.48","","27","","","","Mainly Clear"
"2011-08-26 17:00","2011","08","26","17:00","21.7","","16.2","","71","","14","","15","","24.1","","99.43","","26","","","","Clear"
"2011-08-26 18:00","2011","08","26","18:00","20.9","","16.5","","76","","14","","13","","24.1","","99.42","","26","","","","Clear"
"2011-08-26 19:00","2011","08","26","19:00","19.8","","16.7","","82","","15","","15","","24.1","","99.36","","","","","","Clear"
"2011-08-26 20:00","2011","08","26","20:00","19.1","","16.8","","87","","15","","6","","24.1","","99.38","","","","","","Clear"
"2011-08-26 21:00","2011","08","26","21:00","18.8","","16.9","","89","","17","","6","","24.1","","99.40","","","","","","Clear"
"2011-08-26 22:00","2011","08","26","22:00","18.4","","17.1","","92","","","","0","","24.1","","99.39","","","","","","Mainly Clear"
"2011-08-26 23:00","2011","08","26","23:00","18.1","","16.7","","92","","","","0","","24.1","","99.35","","","","","","Clear"
"2011-08-27 00:00","2011","08","27","00:00","18.0","","16.7","","92","","","","0","","24.1","","99.33","","","","","","Clear"
"2011-08-27 01:00","2011","08","27","01:00","17.5","","16.7","","95","","","","0","","24.1","","99.29","","","","","","Mainly Clear"
"2011-08-27 02:00","2011","08","27","02:00","17.4","","16.7","","96","","","","0","","24.1","","99.28","","","","","","Clear"
"2011-08-27 03:00","2011","08","27","03:00","16.7","","15.7","","94","","","","0","","24.1","","99.24","","","","","","Clear"
"2011-08-27 04:00","2011","08","27","04:00","16.5","","15.5","","94","","28","","4","","24.1","","99.22","","","","","","Mostly Cloudy"
"2011-08-27 05:00","2011","08","27","05:00","15.2","","15.2","","100","","28","","4","","1.6","","99.20","","","","","","Fog"
"2011-08-27 06:00","2011","08","27","06:00","16.4","","15.9","","97","","32","","4","","0.8","","99.21","","","","","","Fog"
"2011-08-27 07:00","2011","08","27","07:00","17.0","","16.6","","97","","32","","11","","19.3","","99.22","","","","","","Mainly Clear"
"2011-08-27 08:00","2011","08","27","08:00","19.8","","16.3","","80","","31","","4","","24.1","","99.23","","","","","","Mainly Clear"
"2011-08-27 09:00","2011","08","27","09:00","21.4","","15.7","","70","","","","0","","24.1","","99.21","","26","","","","Mainly Clear"
"2011-08-27 10:00","2011","08","27","10:00","23.3","","16.0","","64","","","","0","","24.1","","99.20","","28","","","","Mainly Clear"
"2011-08-27 11:00","2011","08","27","11:00","25.1","","16.0","","57","","29","","4","","24.1","","99.15","","30","","","","Mainly Clear"
"2011-08-27 12:00","2011","08","27","12:00","24.9","","17.6","","64","","14","","15","","24.1","","99.10","","31","","","","Mainly Clear"
"2011-08-27 13:00","2011","08","27","13:00","23.2","","16.8","","67","","14","","17","","24.1","","99.11","","28","","","","Mostly Cloudy"
"2011-08-27 14:00","2011","08","27","14:00","24.5","","15.8","","58","","15","","15","","24.1","","99.07","","29","","","","Mainly Clear"
"2011-08-27 15:00","2011","08","27","15:00","24.4","","15.2","","57","","16","","15","","24.1","","99.00","","28","","","","Mainly Clear"
"2011-08-27 16:00","2011","08","27","16:00","24.8","","15.0","","54","","14","","15","","24.1","","98.96","","29","","","","Mainly Clear"
"2011-08-27 17:00","2011","08","27","17:00","24.9","","14.7","","53","","9","","11","","24.1","","98.93","","29","","","","Mainly Clear"
"2011-08-27 18:00","2011","08","27","18:00","24.6","","14.4","","53","","14","","9","","24.1","","98.96","","28","","","","Mainly Clear"
"2011-08-27 19:00","2011","08","27","19:00","22.6","","13.4","","56","","15","","7","","24.1","","98.99","","26","","","","Mostly Cloudy"
"2011-08-27 20:00","2011","08","27","20:00","21.3","","14.1","","64","","13","","7","","24.1","","99.02","","25","","","","Mainly Clear"
"2011-08-27 21:00","2011","08","27","21:00","21.4","","16.1","","72","","35","","22","","24.1","","99.04","","26","","","","Clear"
"2011-08-27 22:00","2011","08","27","22:00","20.0","","17.0","","83","","36","","22","","24.1","","98.97","","25","","","","Mostly Cloudy"
"2011-08-27 23:00","2011","08","27","23:00","19.5","","17.3","","87","","36","","19","","24.1","","98.88","","","","","","Mainly Clear"
"2011-08-28 00:00","2011","08","28","00:00","19.3","","17.3","","88","","36","","20","","24.1","","98.83","","","","","","Mainly Clear"
"2011-08-28 01:00","2011","08","28","01:00","19.1","","17.2","","89","","36","","22","","24.1","","98.72","","","","","","Mostly Cloudy"
"2011-08-28 02:00","2011","08","28","02:00","19.3","","16.9","","86","","36","","15","","24.1","","98.68","","","","","","Mostly Cloudy"
"2011-08-28 03:00","2011","08","28","03:00","19.7","","16.5","","82","","3","","24","","24.1","","98.65","","","","","","Cloudy"
"2011-08-28 04:00","2011","08","28","04:00","19.5","","15.8","","79","","1","","24","","24.1","","98.62","","","","","","Cloudy"
"2011-08-28 05:00","2011","08","28","05:00","19.3","","15.3","","78","","2","","22","","24.1","","98.63","","","","","","Mostly Cloudy"
"2011-08-28 06:00","2011","08","28","06:00","19.4","","14.1","","71","","2","","28","","24.1","","98.61","","","","","","Mostly Cloudy"
"2011-08-28 07:00","2011","08","28","07:00","19.4","","13.2","","67","","2","","28","","24.1","","98.62","","","","","","Mostly Cloudy"
"2011-08-28 08:00","2011","08","28","08:00","19.5","","12.7","","65","","2","","32","","24.1","","98.59","","","","","","Mostly Cloudy"
"2011-08-28 09:00","2011","08","28","09:00","19.8","","11.8","","60","","1","","26","","24.1","","98.56","","","","","","Mostly Cloudy"
"2011-08-28 10:00","2011","08","28","10:00","19.8","","11.5","","59","","1","","35","","24.1","","98.63","","","","","","Mostly Cloudy"
"2011-08-28 11:00","2011","08","28","11:00","20.2","","11.1","","56","","1","","26","","24.1","","98.56","","","","","","Mostly Cloudy"
"2011-08-28 12:00","2011","08","28","12:00","20.9","","10.1","","50","","1","","39","","24.1","","98.53","","","","","","Mostly Cloudy"
"2011-08-28 13:00","2011","08","28","13:00","21.0","","10.0","","49","","2","","39","","24.1","","98.56","","","","","","Mostly Cloudy"
"2011-08-28 14:00","2011","08","28","14:00","21.4","","10.5","","50","","36","","28","","24.1","","98.59","","","","","","Mostly Cloudy"
"2011-08-28 15:00","2011","08","28","15:00","20.8","","9.9","","50","","35","","35","","24.1","","98.61","","","","","","Mostly Cloudy"
"2011-08-28 16:00","2011","08","28","16:00","22.1","","10.4","","47","","35","","28","","24.1","","98.68","","","","","","Mostly Cloudy"
"2011-08-28 17:00","2011","08","28","17:00","20.6","","9.9","","50","","36","","30","","24.1","","98.74","","","","","","Mostly Cloudy"
"2011-08-28 18:00","2011","08","28","18:00","20.5","","9.1","","48","","34","","39","","24.1","","98.81","","","","","","Mainly Clear"
"2011-08-28 19:00","2011","08","28","19:00","19.3","","9.6","","53","","34","","28","","24.1","","98.84","","","","","","Mainly Clear"
"2011-08-28 20:00","2011","08","28","20:00","18.3","","9.4","","56","","34","","24","","24.1","","98.89","","","","","","Mainly Clear"
"2011-08-28 21:00","2011","08","28","21:00","17.7","","8.9","","56","","34","","20","","24.1","","98.92","","","","","","Clear"
"2011-08-28 22:00","2011","08","28","22:00","15.8","","9.3","","65","","32","","13","","24.1","","98.94","","","","","","Clear"
"2011-08-28 23:00","2011","08","28","23:00","15.3","","9.1","","66","","32","","15","","24.1","","98.98","","","","","","Clear"
"2011-08-29 00:00","2011","08","29","00:00","14.7","","9.4","","71","","30","","15","","24.1","","99.02","","","","","","Clear"
"2011-08-29 01:00","2011","08","29","01:00","14.0","","9.6","","75","","30","","11","","24.1","","99.05","","","","","","Clear"
"2011-08-29 02:00","2011","08","29","02:00","14.0","","9.6","","75","","31","","13","","24.1","","99.07","","","","","","Clear"
"2011-08-29 03:00","2011","08","29","03:00","12.6","","9.7","","82","","29","","11","","24.1","","99.13","","","","","","Clear"
"2011-08-29 04:00","2011","08","29","04:00","13.6","","10.4","","81","","29","","7","","24.1","","99.18","","","","","","Mainly Clear"
"2011-08-29 05:00","2011","08","29","05:00","12.9","","10.4","","85","","29","","7","","24.1","","99.24","","","","","","Mainly Clear"
"2011-08-29 06:00","2011","08","29","06:00","14.3","","11.1","","81","","30","","6","","24.1","","99.33","","","","","","Mainly Clear"
"2011-08-29 07:00","2011","08","29","07:00","15.4","","12.2","","81","","28","","4","","24.1","","99.39","","","","","","Mostly Cloudy"
"2011-08-29 08:00","2011","08","29","08:00","17.8","","13.8","","77","","26","","4","","24.1","","99.42","","","","","","Mostly Cloudy"
"2011-08-29 09:00","2011","08","29","09:00","20.3","","14.5","","69","","18","","6","","24.1","","99.44","","","","","","Mainly Clear"
"2011-08-29 10:00","2011","08","29","10:00","22.4","","14.6","","61","","25","","9","","24.1","","99.46","","26","","","","Mainly Clear"
"2011-08-29 11:00","2011","08","29","11:00","23.4","","12.2","","49","","34","","7","","24.1","","99.45","","26","","","","Mostly Cloudy"
"2011-08-29 12:00","2011","08","29","12:00","21.7","","15.0","","66","","13","","19","","24.1","","99.44","","26","","","","Mostly Cloudy"
"2011-08-29 13:00","2011","08","29","13:00","23.1","","14.8","","60","","17","","9","","24.1","","99.45","","27","","","","Mostly Cloudy"
"2011-08-29 14:00","2011","08","29","14:00","25.8","","14.8","","51","","17","","15","","24.1","","99.41","","30","","","","Mostly Cloudy"
"2011-08-29 15:00","2011","08","29","15:00","23.5","","13.8","","54","","11","","11","","24.1","","99.38","","27","","","","Mostly Cloudy"
"2011-08-29 16:00","2011","08","29","16:00","25.6","","11.5","","41","","29","","19","","24.1","","99.39","","28","","","","Mostly Cloudy"
"2011-08-29 17:00","2011","08","29","17:00","24.3","","11.3","","44","","29","","24","","24.1","","99.40","","26","","","","Mostly Cloudy"
"2011-08-29 18:00","2011","08","29","18:00","24.4","","11.0","","43","","29","","15","","24.1","","99.42","","26","","","","Mainly Clear"
"2011-08-29 19:00","2011","08","29","19:00","23.0","","9.8","","43","","31","","24","","24.1","","99.45","","","","","","Mainly Clear"
"2011-08-29 20:00","2011","08","29","20:00","20.6","","10.1","","51","","29","","13","","24.1","","99.52","","","","","","Clear"
"2011-08-29 21:00","2011","08","29","21:00","18.6","","10.4","","59","","28","","13","","24.1","","99.57","","","","","","Clear"
"2011-08-29 22:00","2011","08","29","22:00","17.4","","10.3","","63","","28","","9","","24.1","","99.58","","","","","","Clear"
"2011-08-29 23:00","2011","08","29","23:00","16.1","","10.0","","67","","28","","9","","24.1","","99.62","","","","","","Clear"
"2011-08-30 00:00","2011","08","30","00:00","16.7","","9.8","","64","","27","","4","","24.1","","99.66","","","","","","Clear"
"2011-08-30 01:00","2011","08","30","01:00","15.8","","9.3","","65","","27","","6","","24.1","","99.67","","","","","","Clear"
"2011-08-30 02:00","2011","08","30","02:00","15.1","","9.6","","70","","27","","6","","24.1","","99.65","","","","","","Clear"
"2011-08-30 03:00","2011","08","30","03:00","14.8","","9.8","","72","","28","","7","","24.1","","99.66","","","","","","Clear"
"2011-08-30 04:00","2011","08","30","04:00","14.7","","10.1","","74","","27","","9","","24.1","","99.68","","","","","","Clear"
"2011-08-30 05:00","2011","08","30","05:00","16.0","","11.4","","74","","30","","13","","24.1","","99.73","","","","","","Mainly Clear"
"2011-08-30 06:00","2011","08","30","06:00","15.1","","11.1","","77","","27","","9","","24.1","","99.76","","","","","","Mainly Clear"
"2011-08-30 07:00","2011","08","30","07:00","18.2","","13.1","","72","","28","","17","","24.1","","99.81","","","","","","Mainly Clear"
"2011-08-30 08:00","2011","08","30","08:00","20.5","","13.5","","64","","26","","15","","24.1","","99.82","","","","","","Mainly Clear"
"2011-08-30 09:00","2011","08","30","09:00","22.8","","12.3","","52","","28","","15","","24.1","","99.83","","25","","","","Mainly Clear"
"2011-08-30 10:00","2011","08","30","10:00","25.3","","13.2","","47","","25","","22","","24.1","","99.87","","28","","","","Mainly Clear"
"2011-08-30 11:00","2011","08","30","11:00","25.5","","12.8","","45","","27","","22","","24.1","","99.85","","28","","","","Mainly Clear"
"2011-08-30 12:00","2011","08","30","12:00","26.5","","12.5","","42","","27","","32","","24.1","","99.83","","29","","","","Mainly Clear"
"2011-08-30 13:00","2011","08","30","13:00","26.5","","12.0","","40","","28","","30","","24.1","","99.79","","29","","","","Mainly Clear"
"2011-08-30 14:00","2011","08","30","14:00","27.5","","12.2","","39","","27","","17","","24.1","","99.77","","30","","","","Mainly Clear"
"2011-08-30 15:00","2011","08","30","15:00","27.1","","12.8","","41","","29","","19","","24.1","","99.74","","30","","","","Mainly Clear"
"2011-08-30 16:00","2011","08","30","16:00","27.3","","12.9","","41","","29","","19","","24.1","","99.74","","30","","","","Mainly Clear"
"2011-08-30 17:00","2011","08","30","17:00","27.0","","12.8","","41","","29","","20","","24.1","","99.75","","30","","","","Mainly Clear"
"2011-08-30 18:00","2011","08","30","18:00","25.7","","12.1","","43","","28","","19","","24.1","","99.77","","28","","","","Mainly Clear"
"2011-08-30 19:00","2011","08","30","19:00","23.8","","12.8","","50","","29","","13","","24.1","","99.81","","26","","","","Mainly Clear"
"2011-08-30 20:00","2011","08","30","20:00","22.6","","13.2","","55","","29","","13","","24.1","","99.87","","26","","","","Clear"
"2011-08-30 21:00","2011","08","30","21:00","22.1","","13.3","","57","","29","","13","","24.1","","99.91","","25","","","","Mostly Cloudy"
"2011-08-30 22:00","2011","08","30","22:00","21.9","","13.1","","57","","32","","9","","24.1","","99.91","","25","","","","Cloudy"
"2011-08-30 23:00","2011","08","30","23:00","19.1","","13.5","","70","","24","","7","","24.1","","99.98","","","","","","Cloudy"
"2011-08-31 00:00","2011","08","31","00:00","18.4","","13.3","","72","","27","","9","","24.1","","100.01","","","","","","Mostly Cloudy"
"2011-08-31 01:00","2011","08","31","01:00","19.0","","12.8","","67","","30","","4","","24.1","","99.99","","","","","","Mainly Clear"
"2011-08-31 02:00","2011","08","31","02:00","18.2","","13.2","","73","","31","","4","","24.1","","100.04","","","","","","Mostly Cloudy"
"2011-08-31 03:00","2011","08","31","03:00","18.4","","13.2","","72","","35","","6","","24.1","","100.07","","","","","","Cloudy"
"2011-08-31 04:00","2011","08","31","04:00","18.7","","13.3","","71","","36","","7","","24.1","","100.03","","","","","","Cloudy"
"2011-08-31 05:00","2011","08","31","05:00","17.7","","13.4","","76","","35","","7","","24.1","","100.06","","","","","","Mostly Cloudy"
"2011-08-31 06:00","2011","08","31","06:00","18.6","","13.5","","72","","","","0","","24.1","","100.10","","","","","","Mostly Cloudy"
"2011-08-31 07:00","2011","08","31","07:00","19.7","","13.8","","69","","17","","4","","24.1","","100.12","","","","","","Mostly Cloudy"
"2011-08-31 08:00","2011","08","31","08:00","20.0","","13.7","","67","","12","","7","","24.1","","100.11","","","","","","Mostly Cloudy"
"2011-08-31 09:00","2011","08","31","09:00","21.3","","14.3","","64","","11","","6","","24.1","","100.13","","25","","","","Mostly Cloudy"
"2011-08-31 10:00","2011","08","31","10:00","22.6","","15.1","","63","","11","","7","","24.1","","100.13","","27","","","","Mostly Cloudy"
"2011-08-31 11:00","2011","08","31","11:00","24.1","","15.3","","58","","17","","13","","24.1","","100.12","","28","","","","Mostly Cloudy"
"2011-08-31 12:00","2011","08","31","12:00","23.7","","14.3","","56","","13","","20","","24.1","","100.01","","27","","","","Mostly Cloudy"
"2011-08-31 13:00","2011","08","31","13:00","24.2","","14.1","","53","","10","","17","","24.1","","100.02","","28","","","","Mostly Cloudy"
"2011-08-31 14:00","2011","08","31","14:00","24.9","","13.4","","49","","10","","19","","24.1","","99.96","","28","","","","Mostly Cloudy"
"2011-08-31 15:00","2011","08","31","15:00","25.1","","13.7","","49","","12","","17","","24.1","","99.92","","28","","","","Mostly Cloudy"
"2011-08-31 16:00","2011","08","31","16:00","25.1","","14.5","","52","","11","","20","","24.1","","99.87","","29","","","","Mostly Cloudy"
"2011-08-31 17:00","2011","08","31","17:00","24.0","","14.3","","55","","9","","17","","24.1","","99.86","","28","","","","Mostly Cloudy"
"2011-08-31 18:00","2011","08","31","18:00","23.0","","14.6","","59","","8","","13","","24.1","","99.84","","27","","","","Mainly Clear"
"2011-08-31 19:00","2011","08","31","19:00","22.3","","14.8","","63","","10","","15","","24.1","","99.79","","26","","","","Mostly Cloudy"
"2011-08-31 20:00","2011","08","31","20:00","22.0","","15.5","","67","","11","","15","","24.1","","99.79","","26","","","","Mostly Cloudy"
"2011-08-31 21:00","2011","08","31","21:00","21.6","","16.0","","70","","10","","11","","24.1","","99.81","","26","","","","Clear"
"2011-08-31 22:00","2011","08","31","22:00","20.9","","16.7","","77","","10","","9","","24.1","","99.81","","26","","","","Mainly Clear"
"2011-08-31 23:00","2011","08","31","23:00","20.5","","17.4","","82","","8","","9","","24.1","","99.82","","26","","","","Mainly Clear"
