"Station Name","TORONTO INTL A"
"Province","ONTARIO"
"Latitude","43.68"
"Longitude","-79.63"
"Elevation","173.40"
"Climate Identifier","6158731"
"WMO Identifier","71624"
"TC Identifier","YYZ"
"All times are specified in Local Standard Time (LST). Add 1 hour to adjust for Daylight Saving Time where and when it is observed."

"Legend"
"E","Estimated"
"M","Missing"
"NA","Not Available"

"Date/Time","Year","Month","Day","Time","Temp (°C)","Temp Flag","Dew Point Temp (°C)","Dew Point Temp Flag","Rel Hum (%)","Rel Hum Flag","Wind Dir (10s deg)","Wind Dir Flag","Wind Spd (km/h)","Wind Spd Flag","Visibility (km)","Visibility Flag","Stn Press (kPa)","Stn Press Flag","Hmdx","Hmdx Flag","Wind Chill","Wind Chill Flag","Weather"
"2016-12-01 00:00","2016","12","01","00:00","8.3","","6.9","","91","","26","","15","","24.1","","97.68","","","","","","Rain"
"2016-12-01 01:00","2016","12","01","01:00","7.7","","6.2","","90","","25","","19","","24.1","","97.73","","","","","","Mostly Cloudy"
"2016-12-01 02:00","2016","12","01","02:00","5.9","","2.2","","77","","27","","32","","24.1","","97.82","","","","","","NA"
"2016-12-01 03:00","2016","12","01","03:00","4.8","","1.3","","78","","26","","29","","24.1","","97.94","","","","","","NA"
"2016-12-01 04:00","2016","12","01","04:00","4.1","","0.8","","79","","25","","21","","24.1","","97.98","","","","","","Mainly Clear"
"2016-12-01 05:00","2016","12","01","05:00","5.2","","1.0","","74","","26","","35","","24.1","","98.04","","","","","","NA"
"2016-12-01 06:00","2016","12","01","06:00","4.7","","1.7","","81","","26","","24","","24.1","","98.11","","","","","","Rain Showers"
"2016-12-01 07:00","2016","12","01","07:00","4.5","","0.5","","75","","25","","26","","24.1","","98.14","","","","","","Cloudy"
"2016-12-01 08:00","2016","12","01","08:00","4.4","","0.4","","75","","25","","25","","24.1","","98.17","","","","","","NA"
"2016-12-01 09:00","2016","12","01","09:00","4.2","","0.7","","78","","24","","30","","24.1","","98.20","","","","","","NA"
"2016-12-01 10:00","2016","12","01","10:00","4.2","","0.5","","77","","24","","27","","24.1","","98.24","","","","","","Cloudy"
"2016-12-01 11:00","2016","12","01","11:00","5.0","","0.2","","71","","24","","32","","24.1","","98.23","","","","","","NA"
"2016-12-01 12:00","2016","12","01","12:00","5.7","","0.5","","69","","26","","40","","24.1","","98.22","","","","","","NA"
"2016-12-01 13:00","2016","12","01","13:00","5.0","","0.4","","72","","26","","33","","24.1","","98.24","","","","","","Cloudy"
"2016-12-01 14:00","2016","12","01","14:00","5.6","","0.4","","69","","26","","28","","24.1","","98.28","","","","","","NA"
"2016-12-01 15:00","2016","12","01","15:00","5.1","","0.1","","70","","25","","31","","24.1","","98.32","","","","","","NA"
"2016-12-01 16:00","2016","12","01","16:00","4.8","","0.2","","72","","25","","28","","24.1","","98.41","","","","","","Cloudy"
"2016-12-01 17:00","2016","12","01","17:00","4.8","","0.2","","72","","25","","22","","24.1","","98.45","","","","","","NA"
"2016-12-01 18:00","2016","12","01","18:00","4.8","","0.4","","73","","25","","27","","24.1","","98.50","","","","","","NA"
"2016-12-01 19:00","2016","12","01","19:00","4.9","","0.5","","73","","24","","22","","24.1","","98.52","","","","","","Mostly Cloudy"
"2016-12-01 20:00","2016","12","01","20:00","4.7","","0.8","","76","","24","","27","","24.1","","98.53","","","","","","NA"
"2016-12-01 21:00","2016","12","01","21:00","4.7","","0.8","","76","","24","","23","","24.1","","98.54","","","","","","NA"
"2016-12-01 22:00","2016","12","01","22:00","4.8","","1.1","","77","","24","","27","","24.1","","98.53","","","","","","Mostly Cloudy"
"2016-12-01 23:00","2016","12","01","23:00","4.4","","1.4","","81","","26","","34","","24.1","","98.54","","","","","","NA"
"2016-12-02 00:00","2016","12","02","00:00","4.8","","1.5","","79","","25","","35","","24.1","","98.57","","","","","","NA"
"2016-12-02 01:00","2016","12","02","01:00","4.2","","1.4","","82","","26","","32","","24.1","","98.61","","","","","","Mostly Cloudy"
"2016-12-02 02:00","2016","12","02","02:00","4.5","","0.5","","75","","26","","27","","24.1","","98.68","","","","","","NA"
"2016-12-02 03:00","2016","12","02","03:00","3.7","","0.2","","78","","27","","32","","24.1","","98.71","","","","","","NA"
"2016-12-02 04:00","2016","12","02","04:00","3.7","","-0.1","","76","","27","","30","","24.1","","98.74","","","","","","Mainly Clear"
"2016-12-02 05:00","2016","12","02","05:00","3.4","","-1.0","","73","","27","","26","","24.1","","98.79","","","","","","NA"
"2016-12-02 06:00","2016","12","02","06:00","3.1","","-0.7","","76","","27","","25","","24.1","","98.86","","","","","","NA"
"2016-12-02 07:00","2016","12","02","07:00","3.0","","-0.6","","77","","26","","25","","24.1","","98.91","","","","","","Mostly Cloudy"
"2016-12-02 08:00","2016","12","02","08:00","2.9","","-0.7","","77","","27","","34","","24.1","","98.95","","","","","","NA"
"2016-12-02 09:00","2016","12","02","09:00","3.9","","-1.1","","70","","27","","32","","24.1","","98.99","","","","","","NA"
"2016-12-02 10:00","2016","12","02","10:00","4.7","","-1.1","","66","","27","","40","","24.1","","99.00","","","","","","Mostly Cloudy"
"2016-12-02 11:00","2016","12","02","11:00","5.3","","-1.4","","62","","27","","42","","24.1","","99.02","","","","","","NA"
"2016-12-02 12:00","2016","12","02","12:00","4.6","","-1.4","","65","","27","","45","","24.1","","99.02","","","","","","NA"
"2016-12-02 13:00","2016","12","02","13:00","4.5","","-1.3","","66","","26","","36","","24.1","","99.01","","","","","","Rain Showers"
"2016-12-02 14:00","2016","12","02","14:00","4.4","","-0.8","","69","","26","","34","","24.1","","99.02","","","","","","NA"
"2016-12-02 15:00","2016","12","02","15:00","4.4","","-0.4","","71","","27","","28","","24.1","","99.07","","","","","","NA"
"2016-12-02 16:00","2016","12","02","16:00","2.8","","1.2","","89","","26","","29","","12.9","","99.16","","","","","","Rain Showers"
"2016-12-02 17:00","2016","12","02","17:00","3.1","","1.2","","87","","28","","25","","24.1","","99.23","","","","","","NA"
"2016-12-02 18:00","2016","12","02","18:00","3.3","","-0.5","","76","","29","","19","","24.1","","99.31","","","","","","NA"
"2016-12-02 19:00","2016","12","02","19:00","2.7","","-1.8","","72","","29","","23","","24.1","","99.37","","","","","","Mostly Cloudy"
"2016-12-02 20:00","2016","12","02","20:00","2.4","","-2.3","","71","","30","","22","","24.1","","99.43","","","","","","NA"
"2016-12-02 21:00","2016","12","02","21:00","2.5","","-2.6","","69","","30","","19","","24.1","","99.49","","","","","","NA"
"2016-12-02 22:00","2016","12","02","22:00","2.4","","-2.9","","68","","29","","21","","24.1","","99.59","","","","","","Mostly Cloudy"
"2016-12-02 23:00","2016","12","02","23:00","2.9","","-3.0","","65","","30","","21","","24.1","","99.63","","","","","","NA"
"2016-12-03 00:00","2016","12","03","00:00","2.2","","-2.9","","69","","30","","20","","24.1","","99.69","","","","","","NA"
"2016-12-03 01:00","2016","12","03","01:00","2.5","","-3.0","","67","","31","","20","","24.1","","99.71","","","","","","Mostly Cloudy"
"2016-12-03 02:00","2016","12","03","02:00","1.7","","-2.4","","74","","28","","20","","24.1","","99.77","","","","","","NA"
"2016-12-03 03:00","2016","12","03","03:00","1.7","","-2.3","","75","","31","","20","","24.1","","99.81","","","","","","NA"
"2016-12-03 04:00","2016","12","03","04:00","1.4","","-2.2","","77","","30","","19","","24.1","","99.83","","","","","","Clear"
"2016-12-03 05:00","2016","12","03","05:00","1.0","","-1.9","","81","","30","","15","","24.1","","99.88","","","","","","NA"
"2016-12-03 06:00","2016","12","03","06:00","1.6","","-1.8","","78","","31","","18","","24.1","","99.94","","","","","","NA"
"2016-12-03 07:00","2016","12","03","07:00","1.3","","-2.1","","78","","29","","14","","24.1","","99.97","","","","","","Mainly Clear"
"2016-12-03 08:00","2016","12","03","08:00","1.7","","-0.9","","83","","25","","12","","24.1","","100.05","","","","","","NA"
"2016-12-03 09:00","2016","12","03","09:00","2.7","","-1.5","","74","","28","","18","","24.1","","100.06","","","","","","NA"
"2016-12-03 10:00","2016","12","03","10:00","4.0","","-2.4","","63","","31","","28","","24.1","","100.09","","","","","","Mainly Clear"
"2016-12-03 11:00","2016","12","03","11:00","5.1","","-2.7","","57","","30","","20","","24.1","","100.11","","","","","","NA"
"2016-12-03 12:00","2016","12","03","12:00","5.7","","-4.2","","49","","31","","34","","24.1","","100.06","","","","","","NA"
"2016-12-03 13:00","2016","12","03","13:00","5.4","","-5.3","","46","","30","","37","","24.1","","100.02","","","","","","Mostly Cloudy"
"2016-12-03 14:00","2016","12","03","14:00","4.8","","-5.6","","47","","32","","34","","24.1","","100.03","","","","","","NA"
"2016-12-03 15:00","2016","12","03","15:00","4.4","","-4.9","","51","","32","","31","","24.1","","100.10","","","","","","NA"
"2016-12-03 16:00","2016","12","03","16:00","4.2","","-3.3","","58","","29","","23","","24.1","","100.23","","","","","","Cloudy"
"2016-12-03 17:00","2016","12","03","17:00","4.0","","-2.6","","62","","31","","18","","24.1","","100.24","","","","","","NA"
"2016-12-03 18:00","2016","12","03","18:00","3.6","","-2.2","","66","","30","","24","","24.1","","100.26","","","","","","NA"
"2016-12-03 19:00","2016","12","03","19:00","3.5","","-1.7","","69","","30","","23","","24.1","","100.28","","","","","","Cloudy"
"2016-12-03 20:00","2016","12","03","20:00","3.1","","-1.5","","72","","28","","15","","24.1","","100.26","","","","","","NA"
"2016-12-03 21:00","2016","12","03","21:00","2.9","","-1.5","","73","","28","","14","","24.1","","100.21","","","","","","NA"
"2016-12-03 22:00","2016","12","03","22:00","2.8","","-1.2","","75","","28","","10","","24.1","","100.25","","","","","","Mostly Cloudy"
"2016-12-03 23:00","2016","12","03","23:00","2.5","","-0.8","","79","","29","","9","","24.1","","100.29","","","","","","NA"
"2016-12-04 00:00","2016","12","04","00:00","2.1","","-1.3","","78","","2","","10","","24.1","","100.37","","","","","","NA"
"2016-12-04 01:00","2016","12","04","01:00","1.4","","-1.0","","84","","3","","9","","24.1","","100.33","","","","","","Mostly Cloudy"
"2016-12-04 02:00","2016","12","04","02:00","1.6","","-1.3","","81","","2","","11","","24.1","","100.36","","","","","","NA"
"2016-12-04 03:00","2016","12","04","03:00","1.5","","-1.8","","79","","36","","13","","24.1","","100.42","","","","","","NA"
"2016-12-04 04:00","2016","12","04","04:00","1.4","","-1.7","","80","","35","","6","","24.1","","100.39","","","","","","Mostly Cloudy"
"2016-12-04 05:00","2016","12","04","05:00","1.2","","-2.9","","74","","35","","7","","24.1","","100.35","","","","","","NA"
"2016-12-04 06:00","2016","12","04","06:00","0.8","","-3.7","","72","","36","","8","","24.1","","100.32","","","","","","NA"
"2016-12-04 07:00","2016","12","04","07:00","0.9","","-3.8","","71","","36","","11","","24.1","","100.33","","","","","","Mostly Cloudy"
"2016-12-04 08:00","2016","12","04","08:00","0.8","","-3.5","","73","","4","","3","","24.1","","100.37","","","","","","NA"
"2016-12-04 09:00","2016","12","04","09:00","1.0","","-3.5","","72","","5","","7","","24.1","","100.40","","","","","","NA"
"2016-12-04 10:00","2016","12","04","10:00","1.0","","-4.1","","69","","4","","6","","24.1","","100.44","","","","","","Mostly Cloudy"
"2016-12-04 11:00","2016","12","04","11:00","1.4","","-3.9","","68","","11","","9","","24.1","","100.39","","","","","","NA"
"2016-12-04 12:00","2016","12","04","12:00","1.8","","-3.5","","68","","13","","9","","24.1","","100.31","","","","","","NA"
"2016-12-04 13:00","2016","12","04","13:00","1.7","","-3.2","","70","","7","","13","","24.1","","100.22","","","","","","Cloudy"
"2016-12-04 14:00","2016","12","04","14:00","1.9","","-2.6","","72","","8","","13","","24.1","","100.14","","","","","","NA"
"2016-12-04 15:00","2016","12","04","15:00","1.7","","-2.1","","76","","9","","13","","24.1","","100.09","","","","","","NA"
"2016-12-04 16:00","2016","12","04","16:00","1.5","","-2.3","","76","","10","","14","","24.1","","99.98","","","","","","Mostly Cloudy"
"2016-12-04 17:00","2016","12","04","17:00","1.5","","-2.1","","77","","10","","17","","24.1","","99.91","","","","","","NA"
"2016-12-04 18:00","2016","12","04","18:00","1.6","","-1.8","","78","","9","","12","","24.1","","99.86","","","","","","NA"
"2016-12-04 19:00","2016","12","04","19:00","1.8","","-1.8","","77","","8","","16","","24.1","","99.75","","","","","","Cloudy"
"2016-12-04 20:00","2016","12","04","20:00","2.0","","-1.3","","79","","8","","15","","24.1","","99.62","","","","","","NA"
"2016-12-04 21:00","2016","12","04","21:00","2.7","","-1.1","","76","","11","","23","","19.3","","99.49","","","","","","Rain,Snow"
"2016-12-04 22:00","2016","12","04","22:00","1.9","","-1.4","","79","","8","","16","","16.1","","99.28","","","","","","Snow"
"2016-12-04 23:00","2016","12","04","23:00","0.4","","-0.6","","93","","12","","20","","1.6","","99.22","","","","","","Snow"
"2016-12-05 00:00","2016","12","05","00:00","0.5","","-0.2","","95","","11","","22","","2.8","","99.07","","","","","","Snow"
"2016-12-05 01:00","2016","12","05","01:00","0.6","","-0.1","","95","","11","","18","","3.2","","98.95","","","","","","Snow"
"2016-12-05 02:00","2016","12","05","02:00","1.1","","0.4","","95","","12","","16","","4.0","","98.88","","","","","","Snow"
"2016-12-05 03:00","2016","12","05","03:00","0.8","","0.1","","95","","14","","16","","4.0","","98.85","","","","","","Snow"
"2016-12-05 04:00","2016","12","05","04:00","0.8","","0.1","","95","","15","","10","","4.0","","98.82","","","","","","Snow"
"2016-12-05 05:00","2016","12","05","05:00","0.8","","0.2","","96","","16","","6","","2.8","","98.78","","","","","","Snow,Fog"
"2016-12-05 06:00","2016","12","05","06:00","0.8","","0.2","","96","","24","","12","","6.4","","98.82","","","","","","Fog"
"2016-12-05 07:00","2016","12","05","07:00","0.7","","0.1","","96","","25","","20","","24.1","","98.88","","","","","","Mostly Cloudy"
"2016-12-05 08:00","2016","12","05","08:00","1.5","","-0.1","","89","","26","","25","","24.1","","99.01","","","","","","NA"
"2016-12-05 09:00","2016","12","05","09:00","2.6","","-0.2","","82","","27","","23","","24.1","","99.07","","","","","","NA"
"2016-12-05 10:00","2016","12","05","10:00","3.8","","0.0","","76","","25","","40","","24.1","","99.16","","","","","","Mostly Cloudy"
"2016-12-05 11:00","2016","12","05","11:00","4.1","","0.6","","78","","26","","28","","24.1","","99.26","","","","","","NA"
"2016-12-05 12:00","2016","12","05","12:00","4.7","","0.3","","73","","28","","20","","24.1","","99.26","","","","","","NA"
"2016-12-05 13:00","2016","12","05","13:00","5.2","","-0.6","","66","","28","","25","","24.1","","99.27","","","","","","Mostly Cloudy"
"2016-12-05 14:00","2016","12","05","14:00","5.4","","-0.9","","64","","27","","31","","24.1","","99.35","","","","","","NA"
"2016-12-05 15:00","2016","12","05","15:00","4.9","","-0.9","","66","","27","","21","","24.1","","99.43","","","","","","NA"
"2016-12-05 16:00","2016","12","05","16:00","4.8","","-1.6","","63","","25","","27","","24.1","","99.48","","","","","","Mostly Cloudy"
"2016-12-05 17:00","2016","12","05","17:00","3.5","","-1.9","","68","","26","","16","","24.1","","99.54","","","","","","NA"
"2016-12-05 18:00","2016","12","05","18:00","3.6","","-1.2","","71","","25","","14","","24.1","","99.63","","","","","","NA"
"2016-12-05 19:00","2016","12","05","19:00","3.8","","-1.2","","70","","25","","18","","24.1","","99.66","","","","","","Mostly Cloudy"
"2016-12-05 20:00","2016","12","05","20:00","4.0","","-0.8","","71","","25","","15","","24.1","","99.70","","","","","","NA"
"2016-12-05 21:00","2016","12","05","21:00","3.8","","-0.4","","74","","24","","22","","24.1","","99.70","","","","","","NA"
"2016-12-05 22:00","2016","12","05","22:00","3.3","","-0.5","","76","","26","","19","","24.1","","99.74","","","","","","Mostly Cloudy"
"2016-12-05 23:00","2016","12","05","23:00","3.0","","-0.6","","77","","26","","18","","24.1","","99.78","","","","","","NA"
"2016-12-06 00:00","2016","12","06","00:00","1.6","","-1.3","","81","","26","","15","","24.1","","99.79","","","","","","NA"
"2016-12-06 01:00","2016","12","06","01:00","0.5","","-1.6","","86","","27","","12","","24.1","","99.78","","","","","","Mainly Clear"
"2016-12-06 02:00","2016","12","06","02:00","0.6","","-1.3","","87","","28","","3","","24.1","","99.81","","","","","","NA"
"2016-12-06 03:00","2016","12","06","03:00","0.0","","-1.9","","87","","29","","8","","24.1","","99.78","","","","-3","","NA"
"2016-12-06 04:00","2016","12","06","04:00","0.2","","-1.4","","89","","3","","5","","24.1","","99.76","","","","","","Mainly Clear"
"2016-12-06 05:00","2016","12","06","05:00","0.3","","-1.5","","88","","17","","5","","24.1","","99.71","","","","","","NA"
"2016-12-06 06:00","2016","12","06","06:00","-0.1","","-1.7","","89","","36","","3","","24.1","","99.67","","","","-1","","NA"
"2016-12-06 07:00","2016","12","06","07:00","0.1","","-1.8","","87","","4","","11","","24.1","","99.70","","","","","","Mostly Cloudy"
"2016-12-06 08:00","2016","12","06","08:00","1.3","","-0.8","","86","","8","","13","","16.1","","99.60","","","","","","NA"
"2016-12-06 09:00","2016","12","06","09:00","2.4","","1.1","","91","","8","","15","","9.7","","99.53","","","","","","Fog"
"2016-12-06 10:00","2016","12","06","10:00","4.0","","2.5","","90","","11","","15","","9.7","","99.55","","","","","","Fog"
"2016-12-06 11:00","2016","12","06","11:00","4.7","","1.9","","82","","11","","25","","19.3","","99.36","","","","","","NA"
"2016-12-06 12:00","2016","12","06","12:00","5.1","","0.9","","74","","10","","31","","24.1","","99.22","","","","","","NA"
"2016-12-06 13:00","2016","12","06","13:00","5.0","","0.6","","73","","9","","23","","24.1","","99.09","","","","","","Mostly Cloudy"
"2016-12-06 14:00","2016","12","06","14:00","5.0","","0.2","","71","","11","","27","","24.1","","99.00","","","","","","NA"
"2016-12-06 15:00","2016","12","06","15:00","4.8","","0.2","","72","","10","","29","","24.1","","98.91","","","","","","NA"
"2016-12-06 16:00","2016","12","06","16:00","4.7","","-0.1","","71","","11","","25","","24.1","","98.87","","","","","","Cloudy"
"2016-12-06 17:00","2016","12","06","17:00","4.8","","0.8","","75","","10","","27","","24.1","","98.90","","","","","","NA"
"2016-12-06 18:00","2016","12","06","18:00","2.5","","0.7","","88","","13","","21","","19.3","","98.88","","","","","","Rain"
"2016-12-06 19:00","2016","12","06","19:00","1.6","","0.7","","94","","11","","28","","16.1","","98.78","","","","","","Rain,Snow"
"2016-12-06 20:00","2016","12","06","20:00","2.2","","1.3","","94","","12","","21","","16.1","","98.74","","","","","","Rain,Snow"
"2016-12-06 21:00","2016","12","06","21:00","2.3","","1.6","","95","","12","","26","","16.1","","98.67","","","","","","Rain"
"2016-12-06 22:00","2016","12","06","22:00","2.6","","1.9","","95","","13","","18","","9.7","","98.69","","","","","","Drizzle,Fog"
"2016-12-06 23:00","2016","12","06","23:00","2.3","","1.6","","95","","15","","15","","9.7","","98.68","","","","","","Rain,Fog"
"2016-12-07 00:00","2016","12","07","00:00","2.3","","1.7","","96","","16","","13","","9.7","","98.66","","","","","","Drizzle,Fog"
"2016-12-07 01:00","2016","12","07","01:00","2.5","","1.9","","96","","19","","8","","9.7","","98.66","","","","","","Drizzle,Fog"
"2016-12-07 02:00","2016","12","07","02:00","2.6","","2.0","","96","","20","","7","","16.1","","98.68","","","","","","NA"
"2016-12-07 03:00","2016","12","07","03:00","2.5","","1.9","","96","","23","","13","","16.1","","98.75","","","","","","NA"
"2016-12-07 04:00","2016","12","07","04:00","2.6","","1.6","","93","","26","","17","","24.1","","98.83","","","","","","Cloudy"
"2016-12-07 05:00","2016","12","07","05:00","2.5","","0.1","","84","","26","","22","","24.1","","98.95","","","","","","NA"
"2016-12-07 06:00","2016","12","07","06:00","2.4","","-2.9","","68","","27","","27","","24.1","","99.02","","","","","","NA"
"2016-12-07 07:00","2016","12","07","07:00","1.9","","-4.2","","64","","26","","32","","24.1","","99.10","","","","","","Mostly Cloudy"
"2016-12-07 08:00","2016","12","07","08:00","1.5","","-4.8","","63","","26","","39","","24.1","","99.18","","","","","","NA"
"2016-12-07 09:00","2016","12","07","09:00","1.7","","-4.6","","63","","26","","21","","24.1","","99.25","","","","","","NA"
"2016-12-07 10:00","2016","12","07","10:00","1.6","","-5.4","","60","","28","","30","","24.1","","99.30","","","","","","Cloudy"
"2016-12-07 11:00","2016","12","07","11:00","1.8","","-4.1","","65","","25","","28","","24.1","","99.34","","","","","","NA"
"2016-12-07 12:00","2016","12","07","12:00","1.9","","-4.4","","63","","26","","28","","24.1","","99.29","","","","","","NA"
"2016-12-07 13:00","2016","12","07","13:00","1.8","","-4.7","","62","","27","","29","","24.1","","99.29","","","","","","Mostly Cloudy"
"2016-12-07 14:00","2016","12","07","14:00","2.4","","-5.0","","58","","25","","29","","24.1","","99.29","","","","","","NA"
"2016-12-07 15:00","2016","12","07","15:00","2.8","","-4.4","","59","","25","","21","","24.1","","99.29","","","","","","NA"
"2016-12-07 16:00","2016","12","07","16:00","2.2","","-4.6","","61","","24","","19","","24.1","","99.28","","","","","","Mostly Cloudy"
"2016-12-07 17:00","2016","12","07","17:00","1.8","","-3.5","","68","","22","","22","","24.1","","99.32","","","","","","NA"
"2016-12-07 18:00","2016","12","07","18:00","1.3","","-4.0","","68","","21","","10","","24.1","","99.38","","","","","","NA"
"2016-12-07 19:00","2016","12","07","19:00","0.8","","-4.1","","70","","22","","13","","24.1","","99.39","","","","","","Mainly Clear"
"2016-12-07 20:00","2016","12","07","20:00","0.3","","-3.4","","76","","23","","15","","24.1","","99.32","","","","","","NA"
"2016-12-07 21:00","2016","12","07","21:00","-0.2","","-3.4","","79","","24","","21","","24.1","","99.32","","","","-6","","NA"
"2016-12-07 22:00","2016","12","07","22:00","-0.4","","-3.8","","78","","25","","18","","24.1","","99.26","","","","-5","","Mainly Clear"
"2016-12-07 23:00","2016","12","07","23:00","0.0","","-4.1","","74","","25","","20","","24.1","","99.23","","","","-5","","NA"
"2016-12-08 00:00","2016","12","08","00:00","-0.8","","-4.3","","77","","25","","14","","24.1","","99.21","","","","-5","","NA"
"2016-12-08 01:00","2016","12","08","01:00","-1.0","","-4.2","","79","","24","","13","","24.1","","99.21","","","","-5","","Mostly Cloudy"
"2016-12-08 02:00","2016","12","08","02:00","-0.8","","-4.0","","79","","22","","15","","24.1","","99.20","","","","-5","","NA"
"2016-12-08 03:00","2016","12","08","03:00","-1.4","","-4.3","","81","","21","","13","","24.1","","99.18","","","","-6","","NA"
"2016-12-08 04:00","2016","12","08","04:00","-1.7","","-4.9","","79","","19","","10","","24.1","","99.13","","","","-5","","Mostly Cloudy"
"2016-12-08 05:00","2016","12","08","05:00","-1.2","","-5.1","","75","","21","","11","","24.1","","99.10","","","","-5","","NA"
"2016-12-08 06:00","2016","12","08","06:00","-0.4","","-5.2","","70","","23","","21","","24.1","","99.10","","","","-6","","NA"
"2016-12-08 07:00","2016","12","08","07:00","-0.5","","-5.3","","70","","25","","17","","24.1","","99.12","","","","-5","","Mostly Cloudy"
"2016-12-08 08:00","2016","12","08","08:00","-0.2","","-5.4","","68","","25","","21","","24.1","","99.14","","","","-6","","Snow Showers"
"2016-12-08 09:00","2016","12","08","09:00","-0.4","","-7.3","","60","","27","","28","","24.1","","99.20","","","","-7","","Snow Showers"
"2016-12-08 10:00","2016","12","08","10:00","-0.7","","-6.9","","63","","27","","28","","24.1","","99.25","","","","-7","","Snow Showers"
"2016-12-08 11:00","2016","12","08","11:00","-1.0","","-7.6","","61","","28","","26","","24.1","","99.28","","","","-7","","Snow Showers"
"2016-12-08 12:00","2016","12","08","12:00","-1.1","","-8.1","","59","","26","","44","","24.1","","99.26","","","","-9","","Snow Showers"
"2016-12-08 13:00","2016","12","08","13:00","-0.9","","-8.6","","56","","27","","32","","24.1","","99.23","","","","-8","","Snow Showers"
"2016-12-08 14:00","2016","12","08","14:00","-0.8","","-9.5","","52","","27","","34","","24.1","","99.24","","","","-8","","NA"
"2016-12-08 15:00","2016","12","08","15:00","-1.1","","-8.8","","56","","27","","37","","24.1","","99.26","","","","-9","","NA"
"2016-12-08 16:00","2016","12","08","16:00","-1.3","","-7.9","","61","","26","","39","","24.1","","99.30","","","","-9","","Cloudy"
"2016-12-08 17:00","2016","12","08","17:00","-1.8","","-7.3","","66","","25","","35","","24.1","","99.32","","","","-9","","NA"
"2016-12-08 18:00","2016","12","08","18:00","-2.0","","-6.8","","70","","26","","36","","24.1","","99.32","","","","-10","","NA"
"2016-12-08 19:00","2016","12","08","19:00","-2.0","","-7.0","","69","","25","","37","","24.1","","99.38","","","","-10","","Mainly Clear"
"2016-12-08 20:00","2016","12","08","20:00","-1.9","","-5.8","","75","","26","","28","","6.4","","99.41","","","","-9","","Snow Showers,Blowing Snow"
"2016-12-08 21:00","2016","12","08","21:00","-1.8","","-3.8","","86","","26","","27","","1.2","","99.47","","","","-8","","Snow Showers,Blowing Snow"
"2016-12-08 22:00","2016","12","08","22:00","-2.0","","-5.5","","77","","30","","21","","24.1","","99.52","","","","-8","","Snow Showers"
"2016-12-08 23:00","2016","12","08","23:00","-2.4","","-7.9","","66","","30","","19","","24.1","","99.60","","","","-8","","NA"
"2016-12-09 00:00","2016","12","09","00:00","-3.7","","-8.6","","69","","29","","16","","24.1","","99.66","","","","-9","","NA"
"2016-12-09 01:00","2016","12","09","01:00","-4.4","","-9.1","","70","","28","","16","","24.1","","99.71","","","","-10","","Clear"
"2016-12-09 02:00","2016","12","09","02:00","-3.9","","-9.0","","68","","31","","23","","24.1","","99.77","","","","-11","","NA"
"2016-12-09 03:00","2016","12","09","03:00","-4.9","","-10.1","","67","","31","","14","","24.1","","99.84","","","","-10","","NA"
"2016-12-09 04:00","2016","12","09","04:00","-4.9","","-10.3","","66","","33","","17","","24.1","","99.90","","","","-11","","Mainly Clear"
"2016-12-09 05:00","2016","12","09","05:00","-5.8","","-11.0","","67","","31","","15","","24.1","","99.96","","","","-12","","NA"
"2016-12-09 06:00","2016","12","09","06:00","-5.8","","-11.0","","67","","30","","15","","24.1","","100.03","","","","-12","","NA"
"2016-12-09 07:00","2016","12","09","07:00","-5.9","","-10.9","","68","","32","","12","","24.1","","100.11","","","","-11","","Mainly Clear"
"2016-12-09 08:00","2016","12","09","08:00","-5.8","","-9.0","","78","","36","","15","","9.7","","100.23","","","","-12","","Snow"
"2016-12-09 09:00","2016","12","09","09:00","-5.8","","-9.0","","78","","1","","16","","9.7","","100.27","","","","-12","","Snow"
"2016-12-09 10:00","2016","12","09","10:00","-4.7","","-9.2","","71","","34","","6","","24.1","","100.35","","","","-7","","Mainly Clear"
"2016-12-09 11:00","2016","12","09","11:00","-3.4","","-9.1","","65","","25","","15","","24.1","","100.36","","","","-9","","NA"
"2016-12-09 12:00","2016","12","09","12:00","-2.0","","-10.6","","52","","25","","15","","24.1","","100.29","","","","-7","","NA"
"2016-12-09 13:00","2016","12","09","13:00","-1.4","","-11.3","","47","","30","","34","","24.1","","100.25","","","","-9","","Mostly Cloudy"
"2016-12-09 14:00","2016","12","09","14:00","-1.6","","-11.3","","48","","29","","33","","24.1","","100.27","","","","-9","","NA"
"2016-12-09 15:00","2016","12","09","15:00","-1.8","","-11.4","","48","","30","","22","","24.1","","100.33","","","","-8","","NA"
"2016-12-09 16:00","2016","12","09","16:00","-1.9","","-11.8","","47","","30","","30","","24.1","","100.40","","","","-9","","Mostly Cloudy"
"2016-12-09 17:00","2016","12","09","17:00","-3.5","","-9.2","","65","","1","","15","","24.1","","100.46","","","","-9","","NA"
"2016-12-09 18:00","2016","12","09","18:00","-4.6","","-9.3","","70","","35","","12","","24.1","","100.53","","","","-9","","NA"
"2016-12-09 19:00","2016","12","09","19:00","-5.2","","-9.3","","73","","1","","14","","24.1","","100.58","","","","-11","","Mainly Clear"
"2016-12-09 20:00","2016","12","09","20:00","-5.4","","-9.0","","76","","33","","10","","24.1","","100.61","","","","-10","","NA"
"2016-12-09 21:00","2016","12","09","21:00","-6.1","","-9.2","","79","","36","","2","","24.1","","100.59","","","","-7","","NA"
"2016-12-09 22:00","2016","12","09","22:00","-6.2","","-9.8","","76","","28","","7","","24.1","","100.59","","","","-10","","Mainly Clear"
"2016-12-09 23:00","2016","12","09","23:00","-6.1","","-9.7","","76","","36","","2","","24.1","","100.59","","","","-7","","NA"
"2016-12-10 00:00","2016","12","10","00:00","-6.3","","-9.9","","76","","0","","1","","24.1","","100.60","","","","-7","","NA"
"2016-12-10 01:00","2016","12","10","01:00","-7.1","","-10.2","","79","","36","","3","","24.1","","100.59","","","","-9","","Mostly Cloudy"
"2016-12-10 02:00","2016","12","10","02:00","-6.8","","-10.4","","76","","1","","4","","24.1","","100.60","","","","-9","","NA"
"2016-12-10 03:00","2016","12","10","03:00","-6.5","","-9.9","","77","","32","","5","","24.1","","100.61","","","","-9","","NA"
"2016-12-10 04:00","2016","12","10","04:00","-6.3","","-9.7","","77","","31","","4","","24.1","","100.58","","","","-8","","Cloudy"
"2016-12-10 05:00","2016","12","10","05:00","-5.8","","-9.2","","77","","3","","7","","24.1","","100.59","","","","-9","","NA"
"2016-12-10 06:00","2016","12","10","06:00","-5.7","","-9.3","","76","","3","","7","","24.1","","100.60","","","","-9","","Snow"
"2016-12-10 07:00","2016","12","10","07:00","-5.0","","-9.1","","73","","23","","4","","24.1","","100.63","","","","-7","","Snow"
"2016-12-10 08:00","2016","12","10","08:00","-5.0","","-8.8","","75","","3","","3","","11.3","","100.65","","","","-6","","Snow"
"2016-12-10 09:00","2016","12","10","09:00","-4.8","","-8.6","","75","","36","","2","","6.4","","100.64","","","","-6","","Snow"
"2016-12-10 10:00","2016","12","10","10:00","-4.6","","-7.7","","79","","36","","1","","11.3","","100.68","","","","-5","","Snow"
"2016-12-10 11:00","2016","12","10","11:00","-4.4","","-7.4","","80","","13","","4","","16.1","","100.66","","","","-6","","Snow"
"2016-12-10 12:00","2016","12","10","12:00","-2.9","","-6.2","","78","","24","","11","","24.1","","100.60","","","","-7","","NA"
"2016-12-10 13:00","2016","12","10","13:00","-2.3","","-8.4","","63","","28","","28","","24.1","","100.54","","","","-9","","Cloudy"
"2016-12-10 14:00","2016","12","10","14:00","-1.6","","-9.5","","55","","27","","41","","24.1","","100.52","","","","-10","","NA"
"2016-12-10 15:00","2016","12","10","15:00","-1.9","","-10.0","","54","","28","","29","","24.1","","100.57","","","","-9","","NA"
"2016-12-10 16:00","2016","12","10","16:00","-3.4","","-11.4","","54","","26","","28","","24.1","","100.61","","","","-11","","Clear"
"2016-12-10 17:00","2016","12","10","17:00","-4.2","","-10.4","","62","","26","","23","","24.1","","100.67","","","","-11","","NA"
"2016-12-10 18:00","2016","12","10","18:00","-4.9","","-9.9","","68","","25","","21","","24.1","","100.72","","","","-12","","NA"
"2016-12-10 19:00","2016","12","10","19:00","-5.4","","-9.5","","73","","24","","19","","24.1","","100.70","","","","-12","","Mainly Clear"
"2016-12-10 20:00","2016","12","10","20:00","-5.3","","-8.9","","76","","24","","19","","24.1","","100.70","","","","-12","","NA"
"2016-12-10 21:00","2016","12","10","21:00","-5.8","","-9.0","","78","","24","","16","","24.1","","100.68","","","","-12","","NA"
"2016-12-10 22:00","2016","12","10","22:00","-6.0","","-8.8","","81","","25","","14","","24.1","","100.68","","","","-12","","Clear"
"2016-12-10 23:00","2016","12","10","23:00","-5.9","","-8.5","","82","","25","","19","","24.1","","100.70","","","","-13","","NA"
"2016-12-11 00:00","2016","12","11","00:00","-5.7","","-8.6","","80","","26","","17","","24.1","","100.69","","","","-12","","NA"
"2016-12-11 01:00","2016","12","11","01:00","-6.0","","-9.1","","79","","26","","16","","24.1","","100.69","","","","-12","","Mainly Clear"
"2016-12-11 02:00","2016","12","11","02:00","-6.9","","-9.8","","80","","26","","11","","24.1","","100.71","","","","-12","","NA"
"2016-12-11 03:00","2016","12","11","03:00","-6.2","","-9.4","","78","","28","","14","","24.1","","100.71","","","","-12","","NA"
"2016-12-11 04:00","2016","12","11","04:00","-6.0","","-9.6","","76","","26","","14","","24.1","","100.73","","","","-12","","Mostly Cloudy"
"2016-12-11 05:00","2016","12","11","05:00","-5.6","","-9.5","","74","","27","","14","","24.1","","100.72","","","","-11","","NA"
"2016-12-11 06:00","2016","12","11","06:00","-5.5","","-9.3","","75","","28","","11","","24.1","","100.71","","","","-10","","NA"
"2016-12-11 07:00","2016","12","11","07:00","-5.6","","-9.4","","75","","36","","2","","24.1","","100.67","","","","-7","","Cloudy"
"2016-12-11 08:00","2016","12","11","08:00","-5.0","","-8.9","","74","","14","","8","","24.1","","100.70","","","","-9","","NA"
"2016-12-11 09:00","2016","12","11","09:00","-4.5","","-8.1","","76","","21","","11","","9.7","","100.70","","","","-9","","Snow"
"2016-12-11 10:00","2016","12","11","10:00","-4.3","","-6.9","","82","","18","","8","","3.6","","100.67","","","","-8","","Snow"
"2016-12-11 11:00","2016","12","11","11:00","-3.4","","-5.7","","84","","16","","9","","8.1","","100.56","","","","-7","","Snow"
"2016-12-11 12:00","2016","12","11","12:00","-3.0","","-5.0","","86","","15","","12","","3.6","","100.45","","","","-7","","Snow"
"2016-12-11 13:00","2016","12","11","13:00","-2.8","","-4.7","","87","","12","","13","","2.4","","100.27","","","","-7","","Snow"
"2016-12-11 14:00","2016","12","11","14:00","-2.3","","-3.6","","91","","13","","11","","2.4","","100.16","","","","-6","","Snow"
"2016-12-11 15:00","2016","12","11","15:00","-2.0","","-3.1","","92","","17","","15","","1.6","","100.05","","","","-7","","Snow"
"2016-12-11 16:00","2016","12","11","16:00","-2.1","","-3.2","","92","","15","","21","","1.2","","99.97","","","","-8","","Snow"
"2016-12-11 17:00","2016","12","11","17:00","-2.3","","-3.3","","93","","14","","19","","1.6","","99.83","","","","-8","","Snow"
"2016-12-11 18:00","2016","12","11","18:00","-2.0","","-3.0","","93","","14","","22","","1.6","","99.67","","","","-8","","Snow"
"2016-12-11 19:00","2016","12","11","19:00","-1.5","","-2.5","","93","","14","","18","","2.0","","99.56","","","","-7","","Snow"
"2016-12-11 20:00","2016","12","11","20:00","-1.2","","-2.0","","94","","13","","16","","2.0","","99.41","","","","-6","","Snow"
"2016-12-11 21:00","2016","12","11","21:00","-0.9","","-1.8","","94","","13","","19","","1.2","","99.25","","","","-6","","Snow"
"2016-12-11 22:00","2016","12","11","22:00","-0.2","","-0.9","","95","","13","","18","","1.2","","99.10","","","","-5","","Snow"
"2016-12-11 23:00","2016","12","11","23:00","-0.3","","-1.0","","95","","15","","18","","1.2","","98.97","","","","-5","","Snow"
"2016-12-12 00:00","2016","12","12","00:00","-0.2","","-0.9","","95","","15","","15","","1.2","","98.81","","","","-5","","Snow"
"2016-12-12 01:00","2016","12","12","01:00","-0.1","","-0.8","","95","","14","","12","","1.2","","98.65","","","","-4","","Snow"
"2016-12-12 02:00","2016","12","12","02:00","0.0","","-0.6","","96","","14","","10","","1.6","","98.54","","","","-3","","Snow"
"2016-12-12 03:00","2016","12","12","03:00","0.0","","-0.6","","96","","14","","9","","1.6","","98.47","","","","-3","","Snow"
"2016-12-12 04:00","2016","12","12","04:00","0.1","","-0.5","","96","","17","","9","","1.6","","98.40","","","","","","Snow"
"2016-12-12 05:00","2016","12","12","05:00","0.3","","-0.3","","96","","22","","7","","4.8","","98.37","","","","","","Snow"
"2016-12-12 06:00","2016","12","12","06:00","-0.5","","-1.1","","96","","23","","9","","19.3","","98.37","","","","-4","","NA"
"2016-12-12 07:00","2016","12","12","07:00","-0.9","","-1.5","","96","","25","","14","","16.1","","98.43","","","","-5","","Mostly Cloudy"
"2016-12-12 08:00","2016","12","12","08:00","0.6","","-1.2","","88","","22","","14","","16.1","","98.48","","","","","","NA"
"2016-12-12 09:00","2016","12","12","09:00","1.0","","-1.2","","85","","22","","19","","16.1","","98.53","","","","","","NA"
"2016-12-12 10:00","2016","12","12","10:00","1.1","","-1.3","","84","","24","","21","","16.1","","98.56","","","","","","Cloudy"
"2016-12-12 11:00","2016","12","12","11:00","1.2","","-0.6","","88","","22","","18","","16.1","","98.59","","","","","","Snow"
"2016-12-12 12:00","2016","12","12","12:00","2.3","","-2.8","","69","","26","","32","","24.1","","98.62","","","","","","NA"
"2016-12-12 13:00","2016","12","12","13:00","1.4","","-3.7","","69","","27","","40","","24.1","","98.68","","","","","","Mostly Cloudy"
"2016-12-12 14:00","2016","12","12","14:00","0.9","","-4.4","","68","","26","","37","","24.1","","98.76","","","","","","NA"
"2016-12-12 15:00","2016","12","12","15:00","0.6","","-4.3","","70","","27","","33","","24.1","","98.85","","","","","","NA"
"2016-12-12 16:00","2016","12","12","16:00","0.3","","-4.0","","73","","26","","32","","24.1","","98.97","","","","","","Mostly Cloudy"
"2016-12-12 17:00","2016","12","12","17:00","-0.3","","-4.4","","74","","26","","30","","24.1","","99.05","","","","-7","","NA"
"2016-12-12 18:00","2016","12","12","18:00","-0.3","","-4.0","","76","","25","","31","","24.1","","99.20","","","","-7","","NA"
"2016-12-12 19:00","2016","12","12","19:00","-0.1","","-4.0","","75","","25","","24","","24.1","","99.31","","","","-6","","Mostly Cloudy"
"2016-12-12 20:00","2016","12","12","20:00","-0.3","","-4.0","","76","","24","","22","","24.1","","99.42","","","","-6","","NA"
"2016-12-12 21:00","2016","12","12","21:00","-0.5","","-4.2","","76","","24","","18","","24.1","","99.46","","","","-6","","NA"
"2016-12-12 22:00","2016","12","12","22:00","-0.6","","-4.5","","75","","24","","21","","24.1","","99.51","","","","-6","","Cloudy"
"2016-12-12 23:00","2016","12","12","23:00","-1.4","","-4.8","","78","","24","","24","","24.1","","99.57","","","","-8","","NA"
"2016-12-13 00:00","2016","12","13","00:00","-2.3","","-5.3","","80","","23","","22","","24.1","","99.60","","","","-8","","NA"
"2016-12-13 01:00","2016","12","13","01:00","-2.7","","-5.5","","81","","24","","19","","24.1","","99.62","","","","-8","","Mostly Cloudy"
"2016-12-13 02:00","2016","12","13","02:00","-2.9","","-6.0","","79","","23","","20","","24.1","","99.60","","","","-9","","NA"
"2016-12-13 03:00","2016","12","13","03:00","-2.8","","-6.5","","76","","24","","26","","24.1","","99.64","","","","-10","","NA"
"2016-12-13 04:00","2016","12","13","04:00","-2.7","","-7.3","","71","","25","","31","","24.1","","99.59","","","","-10","","Mainly Clear"
"2016-12-13 05:00","2016","12","13","05:00","-2.1","","-6.9","","70","","26","","21","","24.1","","99.60","","","","-8","","NA"
"2016-12-13 06:00","2016","12","13","06:00","-1.9","","-6.9","","69","","22","","12","","24.1","","99.63","","","","-6","","NA"
"2016-12-13 07:00","2016","12","13","07:00","-2.3","","-7.1","","70","","24","","16","","24.1","","99.58","","","","-7","","Mostly Cloudy"
"2016-12-13 08:00","2016","12","13","08:00","-2.2","","-7.0","","70","","24","","23","","24.1","","99.55","","","","-8","","NA"
"2016-12-13 09:00","2016","12","13","09:00","-2.4","","-6.6","","73","","22","","18","","24.1","","99.65","","","","-8","","NA"
"2016-12-13 10:00","2016","12","13","10:00","-2.7","","-7.8","","68","","23","","28","","24.1","","99.63","","","","-10","","Mostly Cloudy"
"2016-12-13 11:00","2016","12","13","11:00","-2.8","","-9.5","","60","","23","","25","","24.1","","99.56","","","","-10","","NA"
"2016-12-13 12:00","2016","12","13","12:00","-3.0","","-6.7","","76","","22","","30","","9.7","","99.50","","","","-10","","Snow Showers"
"2016-12-13 13:00","2016","12","13","13:00","-2.4","","-7.0","","71","","24","","28","","19.3","","99.44","","","","-9","","Snow Showers"
"2016-12-13 14:00","2016","12","13","14:00","-1.4","","-6.6","","68","","23","","19","","24.1","","99.38","","","","-7","","NA"
"2016-12-13 15:00","2016","12","13","15:00","-1.4","","-6.2","","70","","24","","27","","24.1","","99.35","","","","-8","","NA"
"2016-12-13 16:00","2016","12","13","16:00","-1.6","","-6.2","","71","","26","","18","","24.1","","99.34","","","","-7","","Cloudy"
"2016-12-13 17:00","2016","12","13","17:00","-2.0","","-6.4","","72","","25","","27","","24.1","","99.29","","","","-9","","NA"
"2016-12-13 18:00","2016","12","13","18:00","-2.2","","-6.8","","71","","25","","29","","24.1","","99.30","","","","-9","","NA"
"2016-12-13 19:00","2016","12","13","19:00","-2.6","","-7.9","","67","","24","","27","","24.1","","99.33","","","","-10","","Mostly Cloudy"
"2016-12-13 20:00","2016","12","13","20:00","-2.8","","-8.3","","66","","23","","21","","19.3","","99.32","","","","-9","","NA"
"2016-12-13 21:00","2016","12","13","21:00","-3.1","","-8.4","","67","","25","","19","","19.3","","99.37","","","","-9","","Snow"
"2016-12-13 22:00","2016","12","13","22:00","-3.7","","-10.2","","61","","26","","32","","19.3","","99.39","","","","-12","","Snow,Blowing Snow"
"2016-12-13 23:00","2016","12","13","23:00","-5.6","","-13.3","","55","","27","","26","","24.1","","99.47","","","","-13","","NA"
"2016-12-14 00:00","2016","12","14","00:00","-6.0","","-12.8","","59","","27","","22","","24.1","","99.51","","","","-13","","NA"
"2016-12-14 01:00","2016","12","14","01:00","-6.6","","-13.8","","57","","27","","26","","19.3","","99.55","","","","-15","","Snow"
"2016-12-14 02:00","2016","12","14","02:00","-7.8","","-14.5","","59","","26","","30","","24.1","","99.60","","","","-17","","NA"
"2016-12-14 03:00","2016","12","14","03:00","-8.2","","-15.1","","58","","26","","23","","24.1","","99.67","","","","-16","","NA"
"2016-12-14 04:00","2016","12","14","04:00","-8.5","","-14.4","","63","","25","","24","","24.1","","99.63","","","","-17","","Mostly Cloudy"
"2016-12-14 05:00","2016","12","14","05:00","-9.5","","-15.3","","63","","24","","18","","24.1","","99.63","","","","-17","","NA"
"2016-12-14 06:00","2016","12","14","06:00","-9.6","","-14.8","","66","","22","","21","","24.1","","99.62","","","","-18","","NA"
"2016-12-14 07:00","2016","12","14","07:00","-10.0","","-14.7","","69","","21","","18","","24.1","","99.63","","","","-17","","Clear"
"2016-12-14 08:00","2016","12","14","08:00","-10.6","","-15.4","","68","","22","","19","","24.1","","99.61","","","","-18","","NA"
"2016-12-14 09:00","2016","12","14","09:00","-9.7","","-15.9","","61","","20","","18","","24.1","","99.60","","","","-17","","NA"
"2016-12-14 10:00","2016","12","14","10:00","-8.5","","-15.2","","59","","23","","36","","24.1","","99.54","","","","-18","","Mainly Clear"
"2016-12-14 11:00","2016","12","14","11:00","-7.1","","-14.3","","57","","24","","44","","24.1","","99.40","","","","-17","","NA"
"2016-12-14 12:00","2016","12","14","12:00","-6.4","","-13.6","","57","","24","","53","","24.1","","99.32","","","","-17","","Blowing Snow"
"2016-12-14 13:00","2016","12","14","13:00","-5.2","","-12.9","","55","","23","","41","","24.1","","99.18","","","","-14","","Blowing Snow"
"2016-12-14 14:00","2016","12","14","14:00","-5.5","","-13.2","","55","","23","","53","","24.1","","99.08","","","","-16","","Blowing Snow"
"2016-12-14 15:00","2016","12","14","15:00","-6.1","","-13.8","","55","","24","","37","","24.1","","99.01","","","","-15","","NA"
"2016-12-14 16:00","2016","12","14","16:00","-6.3","","-14.4","","53","","23","","34","","24.1","","98.96","","","","-15","","Mainly Clear"
"2016-12-14 17:00","2016","12","14","17:00","-6.9","","-14.5","","55","","24","","34","","24.1","","98.89","","","","-16","","NA"
"2016-12-14 18:00","2016","12","14","18:00","-7.3","","-13.8","","60","","24","","35","","24.1","","98.84","","","","-17","","NA"
"2016-12-14 19:00","2016","12","14","19:00","-7.6","","-12.0","","71","","25","","42","","8.1","","98.81","","","","-18","","Snow,Blowing Snow"
"2016-12-14 20:00","2016","12","14","20:00","-8.4","","-11.6","","78","","25","","30","","12.9","","98.79","","","","-17","","Snow,Blowing Snow"
"2016-12-14 21:00","2016","12","14","21:00","-8.3","","-11.0","","81","","25","","21","","2.0","","98.78","","","","-16","","Snow"
"2016-12-14 22:00","2016","12","14","22:00","-8.4","","-12.8","","71","","27","","33","","9.7","","98.75","","","","-18","","Snow Showers,Blowing Snow"
"2016-12-14 23:00","2016","12","14","23:00","-9.9","","-15.5","","64","","26","","32","","24.1","","98.75","","","","-20","","Blowing Snow"
"2016-12-15 00:00","2016","12","15","00:00","-10.4","","-15.8","","65","","26","","31","","24.1","","98.77","","","","-20","","Blowing Snow"
"2016-12-15 01:00","2016","12","15","01:00","-10.5","","-15.7","","66","","25","","30","","24.1","","98.79","","","","-20","","Mostly Cloudy"
"2016-12-15 02:00","2016","12","15","02:00","-10.5","","-15.3","","68","","25","","38","","16.1","","98.80","","","","-21","","Snow,Blowing Snow"
"2016-12-15 03:00","2016","12","15","03:00","-10.6","","-13.7","","78","","25","","31","","4.8","","98.87","","","","-20","","Snow,Blowing Snow"
"2016-12-15 04:00","2016","12","15","04:00","-10.3","","-13.6","","77","","28","","32","","8.1","","98.92","","","","-20","","Snow,Blowing Snow"
"2016-12-15 05:00","2016","12","15","05:00","-11.0","","-16.4","","65","","27","","40","","24.1","","98.95","","","","-22","","Blowing Snow"
"2016-12-15 06:00","2016","12","15","06:00","-11.2","","-17.3","","61","","28","","30","","24.1","","99.10","","","","-21","","NA"
"2016-12-15 07:00","2016","12","15","07:00","-11.2","","-15.8","","69","","30","","26","","12.9","","99.21","","","","-20","","Cloudy"
"2016-12-15 08:00","2016","12","15","08:00","-12.6","","-17.5","","67","","27","","21","","24.1","","99.27","","","","-21","","NA"
"2016-12-15 09:00","2016","12","15","09:00","-12.1","","-17.1","","67","","25","","25","","24.1","","99.32","","","","-21","","NA"
"2016-12-15 10:00","2016","12","15","10:00","-10.4","","-15.6","","66","","25","","38","","24.1","","99.29","","","","-21","","Blowing Snow"
"2016-12-15 11:00","2016","12","15","11:00","-9.7","","-14.7","","67","","25","","58","","8.1","","99.26","","","","-22","","Blowing Snow"
"2016-12-15 12:00","2016","12","15","12:00","-9.1","","-13.8","","69","","26","","55","","11.3","","99.23","","","","-21","","Blowing Snow"
"2016-12-15 13:00","2016","12","15","13:00","-8.4","","-13.5","","67","","26","","55","","12.9","","99.27","","","","-20","","Blowing Snow"
"2016-12-15 14:00","2016","12","15","14:00","-8.1","","-13.0","","68","","27","","45","","16.1","","99.34","","","","-19","","Blowing Snow"
"2016-12-15 15:00","2016","12","15","15:00","-8.3","","-13.2","","68","","27","","44","","12.9","","99.43","","","","-19","","Blowing Snow"
"2016-12-15 16:00","2016","12","15","16:00","-8.4","","-13.5","","67","","28","","43","","11.3","","99.56","","","","-19","","Snow Showers,Blowing Snow"
"2016-12-15 17:00","2016","12","15","17:00","-8.9","","-11.0","","85","","31","","33","","0.2","","99.73","","","","-18","","Heavy Snow Showers,Blowing Snow"
"2016-12-15 18:00","2016","12","15","18:00","-8.8","","-11.2","","83","","26","","34","","4.8","","99.80","","","","-18","","Snow,Blowing Snow"
"2016-12-15 19:00","2016","12","15","19:00","-9.2","","-13.4","","72","","27","","24","","16.1","","99.92","","","","-18","","Blowing Snow"
"2016-12-15 20:00","2016","12","15","20:00","-10.3","","-15.0","","69","","27","","23","","24.1","","99.98","","","","-19","","Blowing Snow"
"2016-12-15 21:00","2016","12","15","21:00","-10.7","","-16.3","","64","","26","","24","","24.1","","100.01","","","","-19","","Blowing Snow"
"2016-12-15 22:00","2016","12","15","22:00","-11.2","","-15.8","","69","","24","","22","","24.1","","100.05","","","","-20","","Mainly Clear"
"2016-12-15 23:00","2016","12","15","23:00","-9.5","","-12.5","","79","","24","","23","","19.3","","100.12","","","","-18","","Snow Showers"
"2016-12-16 00:00","2016","12","16","00:00","-10.2","","-12.6","","83","","23","","25","","2.4","","100.14","","","","-19","","Snow"
"2016-12-16 01:00","2016","12","16","01:00","-9.9","","-12.3","","83","","24","","18","","3.2","","100.15","","","","-17","","Snow"
"2016-12-16 02:00","2016","12","16","02:00","-9.5","","-11.7","","84","","24","","13","","3.2","","100.18","","","","-16","","Snow"
"2016-12-16 03:00","2016","12","16","03:00","-9.7","","-12.4","","81","","26","","13","","16.1","","100.22","","","","-16","","Snow"
"2016-12-16 04:00","2016","12","16","04:00","-11.2","","-14.0","","80","","25","","12","","24.1","","100.21","","","","-17","","Mainly Clear"
"2016-12-16 05:00","2016","12","16","05:00","-9.5","","-13.0","","76","","26","","28","","24.1","","100.21","","","","-19","","NA"
"2016-12-16 06:00","2016","12","16","06:00","-9.7","","-13.2","","76","","25","","28","","24.1","","100.25","","","","-19","","Blowing Snow"
"2016-12-16 07:00","2016","12","16","07:00","-9.2","","-12.9","","75","","26","","31","","24.1","","100.30","","","","-19","","Blowing Snow"
"2016-12-16 08:00","2016","12","16","08:00","-9.6","","-13.8","","72","","25","","24","","24.1","","100.37","","","","-18","","Blowing Snow"
"2016-12-16 09:00","2016","12","16","09:00","-9.6","","-13.8","","72","","25","","23","","24.1","","100.43","","","","-18","","Blowing Snow"
"2016-12-16 10:00","2016","12","16","10:00","-9.1","","-13.8","","69","","25","","27","","24.1","","100.43","","","","-18","","Mostly Cloudy"
"2016-12-16 11:00","2016","12","16","11:00","-8.5","","-13.6","","67","","26","","29","","24.1","","100.45","","","","-17","","NA"
"2016-12-16 12:00","2016","12","16","12:00","-7.3","","-15.8","","51","","25","","29","","24.1","","100.38","","","","-16","","NA"
"2016-12-16 13:00","2016","12","16","13:00","-7.0","","-15.5","","51","","26","","21","","24.1","","100.27","","","","-14","","Blowing Snow"
"2016-12-16 14:00","2016","12","16","14:00","-6.8","","-14.2","","56","","25","","20","","24.1","","100.24","","","","-14","","Blowing Snow"
"2016-12-16 15:00","2016","12","16","15:00","-7.6","","-14.7","","57","","25","","22","","24.1","","100.26","","","","-15","","Blowing Snow"
"2016-12-16 16:00","2016","12","16","16:00","-7.7","","-15.0","","56","","25","","15","","24.1","","100.21","","","","-14","","Cloudy"
"2016-12-16 17:00","2016","12","16","17:00","-7.4","","-14.5","","57","","20","","9","","24.1","","100.17","","","","-12","","NA"
"2016-12-16 18:00","2016","12","16","18:00","-7.2","","-14.4","","57","","18","","7","","24.1","","100.10","","","","-11","","NA"
"2016-12-16 19:00","2016","12","16","19:00","-7.3","","-14.0","","59","","18","","5","","24.1","","100.09","","","","-10","","Cloudy"
"2016-12-16 20:00","2016","12","16","20:00","-7.4","","-12.5","","67","","19","","9","","16.1","","100.04","","","","-12","","Snow"
"2016-12-16 21:00","2016","12","16","21:00","-7.6","","-9.9","","84","","18","","5","","4.8","","99.96","","","","-10","","Snow"
"2016-12-16 22:00","2016","12","16","22:00","-7.3","","-9.1","","87","","17","","8","","2.8","","99.83","","","","-11","","Snow"
"2016-12-16 23:00","2016","12","16","23:00","-6.7","","-8.2","","89","","16","","4","","0.6","","99.76","","","","-9","","Snow"
"2016-12-17 00:00","2016","12","17","00:00","-6.0","","-7.4","","90","","15","","12","","4.8","","99.63","","","","-11","","Snow"
"2016-12-17 01:00","2016","12","17","01:00","-6.2","","-7.7","","89","","16","","21","","6.4","","99.45","","","","-13","","Snow"
"2016-12-17 02:00","2016","12","17","02:00","-6.2","","-7.7","","89","","13","","17","","9.7","","99.27","","","","-12","","Snow"
"2016-12-17 03:00","2016","12","17","03:00","-6.1","","-7.6","","89","","12","","15","","6.4","","99.12","","","","-12","","Snow"
"2016-12-17 04:00","2016","12","17","04:00","-5.0","","-6.4","","90","","13","","18","","4.8","","98.90","","","","-11","","Snow"
"2016-12-17 05:00","2016","12","17","05:00","-4.5","","-5.8","","91","","13","","11","","0.4","","98.80","","","","-9","","Heavy Snow"
"2016-12-17 06:00","2016","12","17","06:00","-4.3","","-5.4","","92","","13","","16","","4.8","","98.65","","","","-10","","Snow"
"2016-12-17 07:00","2016","12","17","07:00","-4.0","","-5.3","","91","","12","","14","","8.1","","98.61","","","","-9","","Snow"
"2016-12-17 08:00","2016","12","17","08:00","-3.5","","-4.8","","91","","14","","10","","6.4","","98.60","","","","-7","","Snow"
"2016-12-17 09:00","2016","12","17","09:00","-3.2","","-4.5","","91","","15","","11","","4.0","","98.59","","","","-7","","Snow"
"2016-12-17 10:00","2016","12","17","10:00","-2.8","","-3.9","","92","","13","","11","","8.1","","98.61","","","","-7","","Snow,Snow Grains"
"2016-12-17 11:00","2016","12","17","11:00","-2.1","","-3.7","","89","","13","","9","","11.3","","98.51","","","","-6","","Snow"
"2016-12-17 12:00","2016","12","17","12:00","-1.7","","-3.1","","90","","14","","8","","11.3","","98.48","","","","-5","","Snow"
"2016-12-17 13:00","2016","12","17","13:00","-1.0","","-2.4","","90","","17","","5","","12.9","","98.42","","","","-3","","Cloudy"
"2016-12-17 14:00","2016","12","17","14:00","-0.7","","-2.4","","88","","15","","4","","12.9","","98.38","","","","-2","","NA"
"2016-12-17 15:00","2016","12","17","15:00","-0.6","","-2.7","","86","","13","","3","","8.1","","98.38","","","","-2","","Freezing Drizzle,Fog"
"2016-12-17 16:00","2016","12","17","16:00","-0.7","","-1.8","","92","","12","","4","","4.8","","98.42","","","","-2","","Freezing Rain,Fog"
"2016-12-17 17:00","2016","12","17","17:00","-0.6","","-1.6","","93","","13","","4","","3.2","","98.39","","","","-2","","Freezing Rain,Fog"
"2016-12-17 18:00","2016","12","17","18:00","-0.5","","-1.4","","94","","18","","4","","4.0","","98.37","","","","-2","","Freezing Rain,Snow,Fog"
"2016-12-17 19:00","2016","12","17","19:00","-0.4","","-1.3","","94","","25","","3","","4.8","","98.42","","","","-1","","Freezing Rain,Fog"
"2016-12-17 20:00","2016","12","17","20:00","-0.4","","-1.3","","94","","25","","4","","6.4","","98.41","","","","-2","","Freezing Drizzle,Fog"
"2016-12-17 21:00","2016","12","17","21:00","-0.6","","-1.5","","94","","27","","8","","9.7","","98.34","","","","-3","","Freezing Drizzle,Fog"
"2016-12-17 22:00","2016","12","17","22:00","-0.6","","-2.0","","90","","24","","6","","11.3","","98.33","","","","-3","","Snow"
"2016-12-17 23:00","2016","12","17","23:00","-0.6","","-3.0","","84","","27","","11","","9.7","","98.29","","","","-4","","Freezing Rain"
"2016-12-18 00:00","2016","12","18","00:00","-0.9","","-2.8","","87","","28","","13","","8.1","","98.33","","","","-5","","Freezing Rain"
"2016-12-18 01:00","2016","12","18","01:00","-1.1","","-3.3","","85","","30","","13","","11.3","","98.22","","","","-5","","Freezing Rain"
"2016-12-18 02:00","2016","12","18","02:00","-1.6","","-4.4","","81","","29","","17","","12.9","","98.26","","","","-7","","NA"
"2016-12-18 03:00","2016","12","18","03:00","-2.0","","-5.2","","79","","31","","18","","19.3","","98.29","","","","-7","","NA"
"2016-12-18 04:00","2016","12","18","04:00","-2.1","","-4.8","","82","","28","","14","","12.9","","98.31","","","","-7","","Freezing Rain"
"2016-12-18 05:00","2016","12","18","05:00","-2.7","","-4.4","","88","","27","","16","","9.7","","98.38","","","","-8","","Snow"
"2016-12-18 06:00","2016","12","18","06:00","-2.4","","-4.4","","86","","29","","13","","16.1","","98.37","","","","-7","","Snow"
"2016-12-18 07:00","2016","12","18","07:00","-3.2","","-7.0","","75","","32","","34","","19.3","","98.62","","","","-11","","Snow"
"2016-12-18 08:00","2016","12","18","08:00","-3.7","","-8.6","","69","","30","","31","","24.1","","98.88","","","","-11","","NA"
"2016-12-18 09:00","2016","12","18","09:00","-4.3","","-9.5","","67","","31","","29","","24.1","","99.17","","","","-12","","NA"
"2016-12-18 10:00","2016","12","18","10:00","-4.7","","-11.1","","61","","30","","35","","24.1","","99.42","","","","-13","","Mainly Clear"
"2016-12-18 11:00","2016","12","18","11:00","-4.8","","-11.6","","59","","30","","34","","24.1","","99.70","","","","-13","","NA"
"2016-12-18 12:00","2016","12","18","12:00","-4.9","","-12.2","","57","","32","","34","","24.1","","99.85","","","","-13","","NA"
"2016-12-18 13:00","2016","12","18","13:00","-5.7","","-12.9","","57","","31","","44","","24.1","","100.03","","","","-15","","Mostly Cloudy"
"2016-12-18 14:00","2016","12","18","14:00","-6.8","","-14.0","","57","","31","","39","","24.1","","100.22","","","","-16","","NA"
"2016-12-18 15:00","2016","12","18","15:00","-7.8","","-15.4","","55","","32","","38","","24.1","","100.44","","","","-18","","NA"
"2016-12-18 16:00","2016","12","18","16:00","-8.8","","-16.3","","55","","31","","30","","24.1","","100.62","","","","-18","","Clear"
"2016-12-18 17:00","2016","12","18","17:00","-10.0","","-16.8","","58","","32","","24","","24.1","","100.81","","","","-19","","NA"
"2016-12-18 18:00","2016","12","18","18:00","-10.7","","-17.7","","57","","31","","22","","24.1","","100.96","","","","-19","","NA"
"2016-12-18 19:00","2016","12","18","19:00","-11.2","","-17.7","","59","","28","","12","","24.1","","101.09","","","","-17","","Mainly Clear"
"2016-12-18 20:00","2016","12","18","20:00","-11.9","","-17.4","","64","","31","","12","","24.1","","101.22","","","","-18","","NA"
"2016-12-18 21:00","2016","12","18","21:00","-12.7","","-17.8","","66","","25","","11","","24.1","","101.33","","","","-19","","NA"
"2016-12-18 22:00","2016","12","18","22:00","-11.3","","-16.5","","66","","25","","7","","24.1","","101.36","","","","-16","","Cloudy"
"2016-12-18 23:00","2016","12","18","23:00","-10.8","","-16.0","","66","","25","","8","","24.1","","101.43","","","","-15","","NA"
"2016-12-19 00:00","2016","12","19","00:00","-9.8","","-14.8","","67","","22","","9","","24.1","","101.44","","","","-15","","NA"
"2016-12-19 01:00","2016","12","19","01:00","-8.7","","-14.5","","63","","18","","8","","24.1","","101.46","","","","-13","","Cloudy"
"2016-12-19 02:00","2016","12","19","02:00","-8.4","","-14.9","","60","","20","","8","","24.1","","101.49","","","","-13","","NA"
"2016-12-19 03:00","2016","12","19","03:00","-8.9","","-15.1","","61","","21","","14","","24.1","","101.57","","","","-15","","NA"
"2016-12-19 04:00","2016","12","19","04:00","-9.4","","-15.0","","64","","24","","18","","24.1","","101.54","","","","-17","","Cloudy"
"2016-12-19 05:00","2016","12","19","05:00","-9.4","","-14.8","","65","","24","","17","","24.1","","101.59","","","","-16","","NA"
"2016-12-19 06:00","2016","12","19","06:00","-10.6","","-15.8","","66","","24","","8","","24.1","","101.59","","","","-15","","NA"
"2016-12-19 07:00","2016","12","19","07:00","-11.6","","-16.6","","67","","25","","15","","24.1","","101.67","","","","-19","","Mainly Clear"
"2016-12-19 08:00","2016","12","19","08:00","-12.6","","-17.5","","67","","25","","19","","24.1","","101.75","","","","-21","","NA"
"2016-12-19 09:00","2016","12","19","09:00","-11.0","","-16.4","","65","","26","","16","","24.1","","101.80","","","","-18","","NA"
"2016-12-19 10:00","2016","12","19","10:00","-9.8","","-15.8","","62","","26","","17","","24.1","","101.82","","","","-17","","Mainly Clear"
"2016-12-19 11:00","2016","12","19","11:00","-9.3","","-15.7","","60","","27","","16","","24.1","","101.78","","","","-16","","NA"
"2016-12-19 12:00","2016","12","19","12:00","-8.7","","-15.6","","58","","24","","22","","24.1","","101.73","","","","-17","","NA"
"2016-12-19 13:00","2016","12","19","13:00","-8.3","","-15.4","","57","","24","","18","","24.1","","101.68","","","","-15","","Clear"
"2016-12-19 14:00","2016","12","19","14:00","-8.0","","-15.6","","55","","24","","19","","24.1","","101.64","","","","-15","","NA"
"2016-12-19 15:00","2016","12","19","15:00","-7.8","","-16.5","","50","","24","","24","","24.1","","101.55","","","","-16","","NA"
"2016-12-19 16:00","2016","12","19","16:00","-8.0","","-16.7","","50","","23","","15","","24.1","","101.52","","","","-14","","Mainly Clear"
"2016-12-19 17:00","2016","12","19","17:00","-8.6","","-17.5","","49","","22","","14","","24.1","","101.53","","","","-15","","NA"
"2016-12-19 18:00","2016","12","19","18:00","-9.3","","-18.2","","49","","23","","16","","24.1","","101.52","","","","-16","","NA"
"2016-12-19 19:00","2016","12","19","19:00","-9.4","","-15.8","","60","","23","","20","","24.1","","101.48","","","","-17","","Mainly Clear"
"2016-12-19 20:00","2016","12","19","20:00","-9.3","","-15.1","","63","","23","","19","","24.1","","101.42","","","","-17","","NA"
"2016-12-19 21:00","2016","12","19","21:00","-9.7","","-14.9","","66","","21","","12","","24.1","","101.36","","","","-16","","NA"
"2016-12-19 22:00","2016","12","19","22:00","-9.4","","-15.2","","63","","21","","14","","24.1","","101.35","","","","-16","","Mainly Clear"
"2016-12-19 23:00","2016","12","19","23:00","-9.2","","-16.2","","57","","20","","10","","24.1","","101.32","","","","-14","","NA"
"2016-12-20 00:00","2016","12","20","00:00","-9.6","","-15.4","","63","","21","","13","","24.1","","101.22","","","","-16","","NA"
"2016-12-20 01:00","2016","12","20","01:00","-9.6","","-15.8","","61","","21","","13","","24.1","","101.16","","","","-16","","Clear"
"2016-12-20 02:00","2016","12","20","02:00","-9.3","","-15.5","","61","","19","","9","","24.1","","101.18","","","","-14","","NA"
"2016-12-20 03:00","2016","12","20","03:00","-9.8","","-15.0","","66","","15","","9","","24.1","","101.11","","","","-15","","NA"
"2016-12-20 04:00","2016","12","20","04:00","-9.8","","-14.5","","69","","14","","7","","24.1","","101.04","","","","-14","","Mainly Clear"
"2016-12-20 05:00","2016","12","20","05:00","-9.7","","-14.2","","70","","17","","8","","24.1","","100.92","","","","-14","","NA"
"2016-12-20 06:00","2016","12","20","06:00","-8.6","","-13.1","","70","","21","","18","","24.1","","100.87","","","","-16","","NA"
"2016-12-20 07:00","2016","12","20","07:00","-7.8","","-12.4","","70","","19","","18","","24.1","","100.75","","","","-15","","Mainly Clear"
"2016-12-20 08:00","2016","12","20","08:00","-7.9","","-11.9","","73","","20","","16","","24.1","","100.72","","","","-14","","NA"
"2016-12-20 09:00","2016","12","20","09:00","-7.2","","-11.1","","74","","21","","17","","24.1","","100.69","","","","-14","","NA"
"2016-12-20 10:00","2016","12","20","10:00","-5.7","","-10.2","","71","","21","","18","","24.1","","100.58","","","","-12","","Mostly Cloudy"
"2016-12-20 11:00","2016","12","20","11:00","-3.4","","-8.3","","69","","21","","21","","24.1","","100.39","","","","-10","","NA"
"2016-12-20 12:00","2016","12","20","12:00","-2.2","","-8.3","","63","","20","","18","","24.1","","100.12","","","","-8","","NA"
"2016-12-20 13:00","2016","12","20","13:00","-1.2","","-10.9","","48","","21","","32","","24.1","","99.88","","","","-8","","Mostly Cloudy"
"2016-12-20 14:00","2016","12","20","14:00","-0.7","","-9.4","","52","","20","","26","","24.1","","99.65","","","","-7","","NA"
"2016-12-20 15:00","2016","12","20","15:00","-0.5","","-9.0","","53","","20","","20","","24.1","","99.52","","","","-6","","NA"
"2016-12-20 16:00","2016","12","20","16:00","-0.3","","-9.0","","52","","21","","33","","24.1","","99.33","","","","-7","","Mainly Clear"
"2016-12-20 17:00","2016","12","20","17:00","-0.6","","-8.3","","56","","22","","25","","24.1","","99.33","","","","-7","","NA"
"2016-12-20 18:00","2016","12","20","18:00","-0.1","","-8.1","","55","","24","","46","","24.1","","99.30","","","","-8","","NA"
"2016-12-20 19:00","2016","12","20","19:00","-1.0","","-9.4","","53","","25","","37","","24.1","","99.36","","","","-8","","Mainly Clear"
"2016-12-20 20:00","2016","12","20","20:00","-1.8","","-9.7","","55","","24","","37","","24.1","","99.41","","","","-10","","NA"
"2016-12-20 21:00","2016","12","20","21:00","-2.3","","-9.9","","56","","24","","30","","24.1","","99.44","","","","-9","","NA"
"2016-12-20 22:00","2016","12","20","22:00","-2.9","","-10.3","","57","","24","","24","","24.1","","99.44","","","","-10","","Mainly Clear"
"2016-12-20 23:00","2016","12","20","23:00","-3.7","","-10.6","","59","","24","","17","","24.1","","99.46","","","","-9","","NA"
"2016-12-21 00:00","2016","12","21","00:00","-4.2","","-11.1","","59","","23","","5","","24.1","","99.50","","","","-6","","NA"
"2016-12-21 01:00","2016","12","21","01:00","-4.3","","-11.0","","60","","36","","2","","24.1","","99.49","","","","-5","","Clear"
"2016-12-21 02:00","2016","12","21","02:00","-5.3","","-11.3","","63","","36","","3","","24.1","","99.50","","","","-7","","NA"
"2016-12-21 03:00","2016","12","21","03:00","-5.1","","-10.5","","66","","23","","9","","24.1","","99.55","","","","-9","","NA"
"2016-12-21 04:00","2016","12","21","04:00","-5.2","","-10.2","","68","","25","","6","","24.1","","99.56","","","","-8","","Clear"
"2016-12-21 05:00","2016","12","21","05:00","-5.6","","-9.7","","73","","27","","10","","24.1","","99.58","","","","-10","","NA"
"2016-12-21 06:00","2016","12","21","06:00","-7.9","","-11.4","","76","","26","","13","","24.1","","99.60","","","","-14","","NA"
"2016-12-21 07:00","2016","12","21","07:00","-5.6","","-9.0","","77","","26","","6","","24.1","","99.68","","","","-8","","Clear"
"2016-12-21 08:00","2016","12","21","08:00","-7.0","","-10.2","","78","","27","","13","","20.9","","99.73","","","","-13","","NA"
"2016-12-21 09:00","2016","12","21","09:00","-4.8","","-7.9","","79","","24","","7","","19.3","","99.77","","","","-8","","NA"
"2016-12-21 10:00","2016","12","21","10:00","-3.7","","-7.5","","75","","21","","13","","16.1","","99.88","","","","-9","","Mostly Cloudy"
"2016-12-21 11:00","2016","12","21","11:00","-3.1","","-7.5","","72","","19","","9","","16.1","","99.91","","","","-7","","NA"
"2016-12-21 12:00","2016","12","21","12:00","-1.6","","-6.4","","70","","20","","12","","16.1","","99.88","","","","-6","","NA"
"2016-12-21 13:00","2016","12","21","13:00","-1.2","","-6.0","","70","","19","","8","","16.1","","99.79","","","","-4","","Cloudy"
"2016-12-21 14:00","2016","12","21","14:00","-1.2","","-5.8","","71","","22","","16","","12.9","","99.74","","","","-6","","NA"
"2016-12-21 15:00","2016","12","21","15:00","-1.1","","-5.7","","71","","21","","19","","12.9","","99.79","","","","-6","","NA"
"2016-12-21 16:00","2016","12","21","16:00","-1.1","","-5.3","","73","","21","","21","","12.9","","99.83","","","","-7","","Cloudy"
"2016-12-21 17:00","2016","12","21","17:00","-1.0","","-4.7","","76","","21","","13","","12.9","","99.82","","","","-5","","NA"
"2016-12-21 18:00","2016","12","21","18:00","-1.3","","-4.7","","78","","21","","11","","12.9","","99.82","","","","-5","","NA"
"2016-12-21 19:00","2016","12","21","19:00","-1.4","","-4.4","","80","","24","","12","","12.9","","99.77","","","","-5","","Cloudy"
"2016-12-21 20:00","2016","12","21","20:00","-1.1","","-4.3","","79","","18","","4","","12.9","","99.71","","","","-2","","NA"
"2016-12-21 21:00","2016","12","21","21:00","-0.7","","-3.4","","82","","23","","12","","3.2","","99.65","","","","-5","","Snow"
"2016-12-21 22:00","2016","12","21","22:00","-0.9","","-1.9","","93","","11","","8","","1.2","","99.52","","","","-4","","Snow"
"2016-12-21 23:00","2016","12","21","23:00","-0.8","","-1.7","","94","","20","","7","","1.6","","99.50","","","","-3","","Snow Grains,Fog"
"2016-12-22 00:00","2016","12","22","00:00","-0.6","","-1.3","","95","","9","","4","","1.2","","99.37","","","","-2","","Fog"
"2016-12-22 01:00","2016","12","22","01:00","-0.7","","-1.4","","95","","10","","10","","1.6","","99.14","","","","-4","","Fog"
"2016-12-22 02:00","2016","12","22","02:00","0.3","","-0.3","","96","","13","","8","","9.7","","99.12","","","","","","Fog"
"2016-12-22 03:00","2016","12","22","03:00","0.8","","-1.0","","88","","19","","16","","19.3","","99.07","","","","","","NA"
"2016-12-22 04:00","2016","12","22","04:00","0.7","","-0.6","","91","","19","","11","","12.9","","99.02","","","","","","Cloudy"
"2016-12-22 05:00","2016","12","22","05:00","0.5","","-1.1","","89","","21","","10","","12.9","","98.97","","","","","","NA"
"2016-12-22 06:00","2016","12","22","06:00","0.2","","-1.6","","88","","23","","15","","14.5","","99.01","","","","","","NA"
"2016-12-22 07:00","2016","12","22","07:00","-0.1","","-2.3","","85","","25","","18","","14.5","","99.07","","","","-5","","Cloudy"
"2016-12-22 08:00","2016","12","22","08:00","-0.1","","-2.6","","83","","24","","18","","11.3","","99.15","","","","-5","","NA"
"2016-12-22 09:00","2016","12","22","09:00","0.1","","-2.5","","83","","24","","18","","11.3","","99.23","","","","","","Snow,Fog"
"2016-12-22 10:00","2016","12","22","10:00","0.4","","-2.2","","83","","25","","16","","8.1","","99.34","","","","","","Snow"
"2016-12-22 11:00","2016","12","22","11:00","0.9","","-1.2","","86","","25","","20","","8.1","","99.40","","","","","","Snow"
"2016-12-22 12:00","2016","12","22","12:00","1.7","","-0.7","","84","","26","","20","","9.7","","99.44","","","","","","Snow,Fog"
"2016-12-22 13:00","2016","12","22","13:00","2.0","","-0.8","","82","","27","","18","","14.5","","99.50","","","","","","Cloudy"
"2016-12-22 14:00","2016","12","22","14:00","3.0","","-1.2","","74","","29","","19","","16.1","","99.57","","","","","","NA"
"2016-12-22 15:00","2016","12","22","15:00","3.1","","-2.2","","68","","30","","33","","24.1","","99.70","","","","","","NA"
"2016-12-22 16:00","2016","12","22","16:00","2.6","","-2.3","","70","","29","","19","","20.9","","99.80","","","","","","Mostly Cloudy"
"2016-12-22 17:00","2016","12","22","17:00","2.7","","-2.4","","69","","28","","15","","19.3","","99.93","","","","","","NA"
"2016-12-22 18:00","2016","12","22","18:00","1.9","","-3.8","","66","","30","","23","","24.1","","100.09","","","","","","NA"
"2016-12-22 19:00","2016","12","22","19:00","1.6","","-3.5","","69","","28","","13","","24.1","","100.15","","","","","","Mostly Cloudy"
"2016-12-22 20:00","2016","12","22","20:00","1.6","","-2.7","","73","","26","","16","","24.1","","100.19","","","","","","NA"
"2016-12-22 21:00","2016","12","22","21:00","1.3","","-3.4","","71","","25","","19","","24.1","","100.27","","","","","","NA"
"2016-12-22 22:00","2016","12","22","22:00","1.5","","-3.2","","71","","23","","16","","24.1","","100.30","","","","","","Mostly Cloudy"
"2016-12-22 23:00","2016","12","22","23:00","1.3","","-3.2","","72","","22","","16","","24.1","","100.31","","","","","","NA"
"2016-12-23 00:00","2016","12","23","00:00","0.7","","-3.8","","72","","22","","13","","24.1","","100.29","","","","","","NA"
"2016-12-23 01:00","2016","12","23","01:00","-0.1","","-4.4","","73","","22","","13","","24.1","","100.27","","","","-4","","Mainly Clear"
"2016-12-23 02:00","2016","12","23","02:00","-0.3","","-4.4","","74","","23","","16","","24.1","","100.29","","","","-5","","NA"
"2016-12-23 03:00","2016","12","23","03:00","-0.9","","-4.8","","75","","24","","13","","24.1","","100.34","","","","-5","","NA"
"2016-12-23 04:00","2016","12","23","04:00","-1.7","","-5.0","","78","","25","","18","","24.1","","100.34","","","","-7","","Clear"
"2016-12-23 05:00","2016","12","23","05:00","-1.9","","-4.9","","80","","25","","26","","24.1","","100.31","","","","-8","","NA"
"2016-12-23 06:00","2016","12","23","06:00","-2.1","","-5.1","","80","","24","","23","","24.1","","100.33","","","","-8","","NA"
"2016-12-23 07:00","2016","12","23","07:00","-2.5","","-5.2","","82","","25","","31","","24.1","","100.37","","","","-10","","Clear"
"2016-12-23 08:00","2016","12","23","08:00","-2.2","","-5.0","","81","","24","","21","","19.3","","100.39","","","","-8","","NA"
"2016-12-23 09:00","2016","12","23","09:00","-0.6","","-3.6","","80","","24","","27","","19.3","","100.43","","","","-7","","NA"
"2016-12-23 10:00","2016","12","23","10:00","0.1","","-3.1","","79","","23","","28","","19.3","","100.46","","","","","","Mostly Cloudy"
"2016-12-23 11:00","2016","12","23","11:00","1.0","","-2.8","","76","","24","","31","","19.3","","100.51","","","","","","NA"
"2016-12-23 12:00","2016","12","23","12:00","1.6","","-2.9","","72","","23","","21","","24.1","","100.45","","","","","","NA"
"2016-12-23 13:00","2016","12","23","13:00","2.0","","-4.3","","63","","24","","26","","24.1","","100.39","","","","","","Cloudy"
"2016-12-23 14:00","2016","12","23","14:00","2.5","","-5.2","","57","","23","","28","","24.1","","100.35","","","","","","NA"
"2016-12-23 15:00","2016","12","23","15:00","2.6","","-5.3","","56","","22","","17","","24.1","","100.33","","","","","","NA"
"2016-12-23 16:00","2016","12","23","16:00","2.2","","-6.2","","54","","22","","18","","24.1","","100.36","","","","","","Cloudy"
"2016-12-23 17:00","2016","12","23","17:00","2.0","","-5.4","","58","","22","","22","","24.1","","100.35","","","","","","NA"
"2016-12-23 18:00","2016","12","23","18:00","2.0","","-4.3","","63","","20","","14","","24.1","","100.33","","","","","","NA"
"2016-12-23 19:00","2016","12","23","19:00","1.8","","-2.3","","74","","21","","10","","24.1","","100.24","","","","","","Cloudy"
"2016-12-23 20:00","2016","12","23","20:00","1.7","","-1.6","","79","","21","","15","","24.1","","100.21","","","","","","NA"
"2016-12-23 21:00","2016","12","23","21:00","1.6","","-1.7","","79","","23","","11","","24.1","","100.10","","","","","","NA"
"2016-12-23 22:00","2016","12","23","22:00","1.5","","-1.9","","78","","17","","7","","24.1","","99.98","","","","","","Cloudy"
"2016-12-23 23:00","2016","12","23","23:00","1.3","","-2.1","","78","","16","","5","","24.1","","99.88","","","","","","NA"
"2016-12-24 00:00","2016","12","24","00:00","1.2","","-1.9","","80","","12","","7","","24.1","","99.75","","","","","","NA"
"2016-12-24 01:00","2016","12","24","01:00","1.4","","-1.2","","83","","14","","5","","24.1","","99.67","","","","","","Cloudy"
"2016-12-24 02:00","2016","12","24","02:00","1.5","","-0.4","","87","","12","","8","","19.3","","99.51","","","","","","Rain"
"2016-12-24 03:00","2016","12","24","03:00","1.1","","-0.4","","90","","14","","11","","19.3","","99.49","","","","","","Rain,Snow"
"2016-12-24 04:00","2016","12","24","04:00","0.9","","-0.1","","93","","14","","12","","16.1","","99.34","","","","","","Rain,Snow"
"2016-12-24 05:00","2016","12","24","05:00","1.2","","0.3","","94","","15","","9","","16.1","","99.17","","","","","","Rain,Snow"
"2016-12-24 06:00","2016","12","24","06:00","1.1","","0.2","","94","","29","","4","","16.1","","99.21","","","","","","Rain"
"2016-12-24 07:00","2016","12","24","07:00","1.4","","0.7","","95","","24","","8","","16.1","","99.25","","","","","","Rain"
"2016-12-24 08:00","2016","12","24","08:00","1.7","","1.0","","95","","24","","12","","19.3","","99.31","","","","","","NA"
"2016-12-24 09:00","2016","12","24","09:00","2.5","","0.6","","87","","28","","20","","19.3","","99.47","","","","","","NA"
"2016-12-24 10:00","2016","12","24","10:00","2.2","","0.3","","87","","28","","14","","19.3","","99.62","","","","","","Cloudy"
"2016-12-24 11:00","2016","12","24","11:00","2.8","","0.5","","85","","27","","12","","24.1","","99.70","","","","","","NA"
"2016-12-24 12:00","2016","12","24","12:00","3.2","","0.3","","81","","26","","18","","24.1","","99.73","","","","","","NA"
"2016-12-24 13:00","2016","12","24","13:00","2.8","","0.2","","83","","26","","15","","24.1","","99.82","","","","","","Cloudy"
"2016-12-24 14:00","2016","12","24","14:00","2.6","","0.3","","85","","27","","16","","24.1","","99.91","","","","","","NA"
"2016-12-24 15:00","2016","12","24","15:00","2.8","","-0.1","","81","","28","","19","","24.1","","99.99","","","","","","NA"
"2016-12-24 16:00","2016","12","24","16:00","2.6","","-0.5","","80","","27","","16","","24.1","","100.07","","","","","","Cloudy"
"2016-12-24 17:00","2016","12","24","17:00","2.7","","-0.2","","81","","28","","14","","24.1","","100.18","","","","","","NA"
"2016-12-24 18:00","2016","12","24","18:00","2.2","","-0.2","","84","","27","","14","","24.1","","100.29","","","","","","NA"
"2016-12-24 19:00","2016","12","24","19:00","2.6","","-0.9","","78","","29","","21","","24.1","","100.38","","","","","","Mostly Cloudy"
"2016-12-24 20:00","2016","12","24","20:00","2.5","","-0.9","","78","","28","","13","","24.1","","100.43","","","","","","NA"
"2016-12-24 21:00","2016","12","24","21:00","2.4","","-0.7","","80","","28","","15","","24.1","","100.54","","","","","","NA"
"2016-12-24 22:00","2016","12","24","22:00","2.2","","-0.9","","80","","27","","14","","24.1","","100.63","","","","","","Cloudy"
"2016-12-24 23:00","2016","12","24","23:00","2.3","","-0.5","","82","","24","","16","","24.1","","100.65","","","","","","NA"
"2016-12-25 00:00","2016","12","25","00:00","2.0","","-0.1","","86","","24","","14","","24.1","","100.66","","","","","","NA"
"2016-12-25 01:00","2016","12","25","01:00","1.8","","-0.5","","85","","25","","13","","24.1","","100.71","","","","","","Cloudy"
"2016-12-25 02:00","2016","12","25","02:00","1.7","","-0.4","","86","","25","","14","","24.1","","100.76","","","","","","NA"
"2016-12-25 03:00","2016","12","25","03:00","1.7","","-0.4","","86","","25","","10","","24.1","","100.84","","","","","","NA"
"2016-12-25 04:00","2016","12","25","04:00","2.2","","-0.7","","81","","30","","12","","24.1","","100.89","","","","","","Cloudy"
"2016-12-25 05:00","2016","12","25","05:00","2.2","","-1.6","","76","","33","","13","","24.1","","100.95","","","","","","NA"
"2016-12-25 06:00","2016","12","25","06:00","2.0","","-2.5","","72","","35","","10","","24.1","","101.06","","","","","","NA"
"2016-12-25 07:00","2016","12","25","07:00","1.8","","-3.3","","69","","31","","10","","24.1","","101.17","","","","","","Mostly Cloudy"
"2016-12-25 08:00","2016","12","25","08:00","1.9","","-2.8","","71","","34","","16","","24.1","","101.29","","","","","","NA"
"2016-12-25 09:00","2016","12","25","09:00","1.0","","-2.6","","77","","2","","17","","24.1","","101.40","","","","","","NA"
"2016-12-25 10:00","2016","12","25","10:00","0.5","","-4.0","","72","","4","","23","","24.1","","101.49","","","","","","Mostly Cloudy"
"2016-12-25 11:00","2016","12","25","11:00","0.0","","-4.6","","71","","1","","17","","24.1","","101.52","","","","-5","","NA"
"2016-12-25 12:00","2016","12","25","12:00","0.3","","-4.7","","69","","4","","14","","24.1","","101.49","","","","","","NA"
"2016-12-25 13:00","2016","12","25","13:00","0.0","","-4.6","","71","","4","","18","","24.1","","101.44","","","","-5","","Mostly Cloudy"
"2016-12-25 14:00","2016","12","25","14:00","0.2","","-5.4","","66","","7","","13","","24.1","","101.46","","","","","","NA"
"2016-12-25 15:00","2016","12","25","15:00","-0.5","","-6.9","","62","","9","","17","","24.1","","101.49","","","","-5","","NA"
"2016-12-25 16:00","2016","12","25","16:00","-1.0","","-7.0","","64","","8","","20","","24.1","","101.53","","","","-7","","Mostly Cloudy"
"2016-12-25 17:00","2016","12","25","17:00","-1.1","","-6.7","","66","","9","","19","","24.1","","101.58","","","","-6","","NA"
"2016-12-25 18:00","2016","12","25","18:00","-1.5","","-7.1","","66","","8","","14","","24.1","","101.63","","","","-6","","NA"
"2016-12-25 19:00","2016","12","25","19:00","-1.6","","-6.8","","68","","10","","22","","24.1","","101.61","","","","-8","","Mostly Cloudy"
"2016-12-25 20:00","2016","12","25","20:00","-1.6","","-6.6","","69","","10","","24","","24.1","","101.58","","","","-8","","NA"
"2016-12-25 21:00","2016","12","25","21:00","-1.8","","-6.8","","69","","10","","20","","24.1","","101.60","","","","-8","","NA"
"2016-12-25 22:00","2016","12","25","22:00","-2.3","","-7.1","","70","","10","","23","","24.1","","101.57","","","","-9","","Mostly Cloudy"
"2016-12-25 23:00","2016","12","25","23:00","-2.5","","-6.7","","73","","10","","29","","24.1","","101.50","","","","-10","","NA"
"2016-12-26 00:00","2016","12","26","00:00","-2.8","","-6.5","","76","","9","","22","","24.1","","101.50","","","","-9","","NA"
"2016-12-26 01:00","2016","12","26","01:00","-2.9","","-5.9","","80","","8","","25","","24.1","","101.28","","","","-10","","Cloudy"
"2016-12-26 02:00","2016","12","26","02:00","-2.5","","-5.0","","83","","8","","19","","24.1","","101.18","","","","-8","","NA"
"2016-12-26 03:00","2016","12","26","03:00","-2.8","","-5.0","","85","","8","","17","","24.1","","101.10","","","","-8","","NA"
"2016-12-26 04:00","2016","12","26","04:00","-3.5","","-5.8","","84","","4","","15","","24.1","","100.95","","","","-9","","Cloudy"
"2016-12-26 05:00","2016","12","26","05:00","-1.3","","-2.9","","89","","10","","11","","24.1","","100.80","","","","-5","","NA"
"2016-12-26 06:00","2016","12","26","06:00","-2.1","","-3.7","","89","","1","","15","","6.4","","100.69","","","","-7","","Moderate Freezing Rain"
"2016-12-26 07:00","2016","12","26","07:00","0.1","","-0.8","","94","","11","","20","","6.4","","100.55","","","","","","Freezing Rain,Fog"
"2016-12-26 08:00","2016","12","26","08:00","0.4","","-0.3","","95","","11","","13","","24.1","","100.43","","","","","","NA"
"2016-12-26 09:00","2016","12","26","09:00","0.9","","0.2","","95","","12","","17","","12.9","","100.29","","","","","","NA"
"2016-12-26 10:00","2016","12","26","10:00","1.7","","1.0","","95","","14","","10","","12.9","","100.18","","","","","","Cloudy"
"2016-12-26 11:00","2016","12","26","11:00","2.5","","1.5","","93","","13","","16","","12.9","","100.00","","","","","","Rain"
"2016-12-26 12:00","2016","12","26","12:00","2.5","","1.6","","94","","13","","14","","16.1","","99.75","","","","","","NA"
"2016-12-26 13:00","2016","12","26","13:00","2.8","","1.9","","94","","15","","10","","9.7","","99.60","","","","","","Rain,Fog"
"2016-12-26 14:00","2016","12","26","14:00","3.0","","2.3","","95","","15","","10","","9.7","","99.39","","","","","","Fog"
"2016-12-26 15:00","2016","12","26","15:00","3.5","","2.9","","96","","13","","9","","6.4","","99.27","","","","","","Rain,Fog"
"2016-12-26 16:00","2016","12","26","16:00","5.2","","4.8","","97","","17","","11","","3.2","","99.20","","","","","","Rain,Fog"
"2016-12-26 17:00","2016","12","26","17:00","6.3","","5.9","","97","","17","","13","","1.6","","99.04","","","","","","Rain,Fog"
"2016-12-26 18:00","2016","12","26","18:00","9.0","","8.6","","97","","19","","20","","16.1","","98.80","","","","","","Rain Showers"
"2016-12-26 19:00","2016","12","26","19:00","9.5","","9.1","","97","","21","","21","","16.1","","98.67","","","","","","Rain Showers"
"2016-12-26 20:00","2016","12","26","20:00","8.7","","8.3","","97","","24","","23","","16.1","","98.70","","","","","","Rain"
"2016-12-26 21:00","2016","12","26","21:00","9.4","","9.0","","97","","22","","31","","24.1","","98.50","","","","","","Rain"
"2016-12-26 22:00","2016","12","26","22:00","8.6","","5.7","","82","","24","","27","","24.1","","98.42","","","","","","Mostly Cloudy"
"2016-12-26 23:00","2016","12","26","23:00","7.7","","2.8","","71","","25","","34","","24.1","","98.41","","","","","","NA"
"2016-12-27 00:00","2016","12","27","00:00","7.1","","2.4","","72","","25","","27","","24.1","","98.45","","","","","","NA"
"2016-12-27 01:00","2016","12","27","01:00","6.5","","1.6","","71","","26","","40","","24.1","","98.47","","","","","","Mainly Clear"
"2016-12-27 02:00","2016","12","27","02:00","4.5","","-3.3","","57","","26","","35","","24.1","","98.57","","","","","","NA"
"2016-12-27 03:00","2016","12","27","03:00","2.8","","-3.1","","65","","29","","17","","24.1","","98.76","","","","","","NA"
"2016-12-27 04:00","2016","12","27","04:00","2.4","","-3.5","","65","","27","","40","","24.1","","98.74","","","","","","Mostly Cloudy"
"2016-12-27 05:00","2016","12","27","05:00","1.5","","-4.6","","64","","28","","42","","24.1","","98.94","","","","","","NA"
"2016-12-27 06:00","2016","12","27","06:00","1.1","","-4.6","","66","","28","","40","","24.1","","98.98","","","","","","NA"
"2016-12-27 07:00","2016","12","27","07:00","0.7","","-4.9","","66","","30","","31","","24.1","","99.07","","","","","","Cloudy"
"2016-12-27 08:00","2016","12","27","08:00","0.2","","-4.8","","69","","27","","38","","24.1","","99.13","","","","","","NA"
"2016-12-27 09:00","2016","12","27","09:00","-0.1","","-4.9","","70","","28","","29","","24.1","","99.17","","","","-6","","NA"
"2016-12-27 10:00","2016","12","27","10:00","-0.1","","-4.9","","70","","27","","33","","24.1","","99.21","","","","-7","","Cloudy"
"2016-12-27 11:00","2016","12","27","11:00","-0.3","","-4.8","","72","","28","","34","","24.1","","99.27","","","","-7","","NA"
"2016-12-27 12:00","2016","12","27","12:00","-0.5","","-4.9","","72","","26","","35","","24.1","","99.29","","","","-8","","NA"
"2016-12-27 13:00","2016","12","27","13:00","-0.4","","-5.0","","71","","27","","28","","24.1","","99.28","","","","-7","","Cloudy"
"2016-12-27 14:00","2016","12","27","14:00","-0.6","","-5.4","","70","","26","","41","","24.1","","99.26","","","","-8","","NA"
"2016-12-27 15:00","2016","12","27","15:00","-0.5","","-5.1","","71","","28","","27","","24.1","","99.24","","","","-7","","NA"
"2016-12-27 16:00","2016","12","27","16:00","-0.5","","-5.1","","71","","26","","33","","24.1","","99.30","","","","-7","","Cloudy"
"2016-12-27 17:00","2016","12","27","17:00","-0.7","","-5.3","","71","","27","","35","","24.1","","99.34","","","","-8","","NA"
"2016-12-27 18:00","2016","12","27","18:00","-1.1","","-5.2","","74","","28","","22","","24.1","","99.37","","","","-7","","NA"
"2016-12-27 19:00","2016","12","27","19:00","-1.6","","-3.8","","85","","27","","17","","24.1","","99.39","","","","-7","","Cloudy"
"2016-12-27 20:00","2016","12","27","20:00","-1.7","","-3.1","","90","","28","","20","","24.1","","99.42","","","","-7","","Snow Showers"
"2016-12-27 21:00","2016","12","27","21:00","-1.7","","-5.0","","78","","28","","25","","24.1","","99.42","","","","-8","","Snow Showers"
"2016-12-27 22:00","2016","12","27","22:00","-1.9","","-5.6","","76","","27","","25","","24.1","","99.48","","","","-8","","Snow Showers"
"2016-12-27 23:00","2016","12","27","23:00","-2.2","","-6.4","","73","","25","","27","","24.1","","99.51","","","","-9","","Snow Showers"
"2016-12-28 00:00","2016","12","28","00:00","-2.9","","-6.0","","79","","26","","22","","19.3","","99.52","","","","-9","","Snow"
"2016-12-28 01:00","2016","12","28","01:00","-3.1","","-6.2","","79","","25","","24","","24.1","","99.53","","","","-10","","Snow"
"2016-12-28 02:00","2016","12","28","02:00","-2.8","","-6.8","","74","","26","","29","","24.1","","99.59","","","","-10","","Snow"
"2016-12-28 03:00","2016","12","28","03:00","-2.7","","-6.9","","73","","26","","26","","24.1","","99.69","","","","-10","","Snow"
"2016-12-28 04:00","2016","12","28","04:00","-3.1","","-6.8","","76","","25","","30","","24.1","","99.71","","","","-11","","Snow"
"2016-12-28 05:00","2016","12","28","05:00","-3.4","","-7.0","","76","","26","","27","","24.1","","99.77","","","","-11","","NA"
"2016-12-28 06:00","2016","12","28","06:00","-3.1","","-6.9","","75","","26","","23","","24.1","","99.83","","","","-10","","NA"
"2016-12-28 07:00","2016","12","28","07:00","-3.0","","-6.7","","76","","26","","24","","24.1","","99.89","","","","-10","","Mostly Cloudy"
"2016-12-28 08:00","2016","12","28","08:00","-3.5","","-7.0","","77","","25","","19","","24.1","","99.92","","","","-9","","NA"
"2016-12-28 09:00","2016","12","28","09:00","-2.3","","-7.1","","70","","26","","19","","24.1","","99.96","","","","-8","","NA"
"2016-12-28 10:00","2016","12","28","10:00","-2.0","","-7.0","","69","","25","","17","","24.1","","99.96","","","","-7","","Mostly Cloudy"
"2016-12-28 11:00","2016","12","28","11:00","-2.0","","-7.3","","67","","26","","23","","24.1","","99.96","","","","-8","","NA"
"2016-12-28 12:00","2016","12","28","12:00","-1.9","","-7.8","","64","","28","","22","","24.1","","99.88","","","","-8","","NA"
"2016-12-28 13:00","2016","12","28","13:00","-1.9","","-7.4","","66","","27","","20","","24.1","","99.85","","","","-8","","Cloudy"
"2016-12-28 14:00","2016","12","28","14:00","-1.8","","-7.9","","63","","25","","15","","24.1","","99.80","","","","-7","","NA"
"2016-12-28 15:00","2016","12","28","15:00","-1.8","","-8.6","","60","","26","","14","","24.1","","99.75","","","","-6","","NA"
"2016-12-28 16:00","2016","12","28","16:00","-1.8","","-8.8","","59","","19","","14","","24.1","","99.72","","","","-6","","Cloudy"
"2016-12-28 17:00","2016","12","28","17:00","-1.8","","-8.4","","61","","19","","12","","24.1","","99.68","","","","-6","","NA"
"2016-12-28 18:00","2016","12","28","18:00","-1.4","","-7.6","","63","","20","","9","","24.1","","99.70","","","","-5","","NA"
"2016-12-28 19:00","2016","12","28","19:00","-1.3","","-7.3","","64","","17","","7","","24.1","","99.61","","","","-4","","Cloudy"
"2016-12-28 20:00","2016","12","28","20:00","-1.2","","-6.6","","67","","15","","8","","24.1","","99.53","","","","-4","","NA"
"2016-12-28 21:00","2016","12","28","21:00","-0.6","","-4.1","","77","","15","","14","","24.1","","99.30","","","","-5","","NA"
"2016-12-28 22:00","2016","12","28","22:00","-0.2","","-3.2","","80","","15","","12","","24.1","","99.15","","","","-4","","Cloudy"
"2016-12-28 23:00","2016","12","28","23:00","0.1","","-3.3","","78","","14","","13","","24.1","","99.09","","","","","","NA"
"2016-12-29 00:00","2016","12","29","00:00","0.4","","-3.3","","76","","13","","12","","24.1","","98.96","","","","","","NA"
"2016-12-29 01:00","2016","12","29","01:00","0.6","","-3.3","","75","","14","","16","","24.1","","98.88","","","","","","Cloudy"
"2016-12-29 02:00","2016","12","29","02:00","0.7","","-3.1","","76","","14","","16","","24.1","","98.75","","","","","","NA"
"2016-12-29 03:00","2016","12","29","03:00","-0.1","","-1.7","","89","","12","","15","","3.2","","98.60","","","","-5","","Snow"
"2016-12-29 04:00","2016","12","29","04:00","0.1","","-0.8","","94","","15","","15","","2.0","","98.40","","","","","","Snow"
"2016-12-29 05:00","2016","12","29","05:00","0.0","","-0.7","","95","","15","","16","","2.0","","98.26","","","","-5","","Snow"
"2016-12-29 06:00","2016","12","29","06:00","0.1","","-0.5","","96","","17","","12","","2.0","","98.17","","","","","","Snow"
"2016-12-29 07:00","2016","12","29","07:00","0.1","","-0.5","","96","","17","","13","","1.6","","98.08","","","","","","Snow"
"2016-12-29 08:00","2016","12","29","08:00","0.1","","-0.5","","96","","18","","7","","1.0","","97.99","","","","","","Snow"
"2016-12-29 09:00","2016","12","29","09:00","0.3","","-0.3","","96","","22","","13","","6.4","","97.93","","","","","","Snow"
"2016-12-29 10:00","2016","12","29","10:00","0.9","","0.3","","96","","24","","20","","14.5","","97.91","","","","","","Mostly Cloudy"
"2016-12-29 11:00","2016","12","29","11:00","1.6","","-0.2","","88","","25","","23","","12.9","","97.89","","","","","","NA"
"2016-12-29 12:00","2016","12","29","12:00","1.8","","-0.3","","86","","25","","25","","14.5","","97.87","","","","","","NA"
"2016-12-29 13:00","2016","12","29","13:00","1.9","","-1.0","","81","","26","","23","","19.3","","97.85","","","","","","Cloudy"
"2016-12-29 14:00","2016","12","29","14:00","1.6","","-1.7","","79","","25","","27","","24.1","","97.83","","","","","","NA"
"2016-12-29 15:00","2016","12","29","15:00","1.6","","-1.5","","80","","26","","30","","12.9","","97.89","","","","","","Snow"
"2016-12-29 16:00","2016","12","29","16:00","1.5","","-1.4","","81","","26","","30","","24.1","","97.97","","","","","","Mostly Cloudy"
"2016-12-29 17:00","2016","12","29","17:00","1.5","","-1.9","","78","","27","","26","","19.3","","98.04","","","","","","NA"
"2016-12-29 18:00","2016","12","29","18:00","1.2","","-2.0","","79","","26","","23","","24.1","","98.10","","","","","","NA"
"2016-12-29 19:00","2016","12","29","19:00","0.8","","-3.0","","76","","29","","22","","24.1","","98.13","","","","","","Snow"
"2016-12-29 20:00","2016","12","29","20:00","-0.2","","-3.4","","79","","25","","13","","24.1","","98.08","","","","-4","","NA"
"2016-12-29 21:00","2016","12","29","21:00","0.2","","-3.2","","78","","27","","19","","24.1","","98.07","","","","","","NA"
"2016-12-29 22:00","2016","12","29","22:00","-0.3","","-2.8","","83","","26","","17","","19.3","","98.02","","","","-5","","Snow Showers"
"2016-12-29 23:00","2016","12","29","23:00","-0.6","","-2.8","","85","","28","","16","","24.1","","98.00","","","","-5","","NA"
"2016-12-30 00:00","2016","12","30","00:00","-1.3","","-3.7","","84","","26","","19","","24.1","","97.99","","","","-7","","NA"
"2016-12-30 01:00","2016","12","30","01:00","-0.8","","-3.0","","85","","26","","18","","24.1","","97.98","","","","-6","","Mostly Cloudy"
"2016-12-30 02:00","2016","12","30","02:00","-0.1","","-3.8","","76","","29","","24","","24.1","","98.01","","","","-6","","NA"
"2016-12-30 03:00","2016","12","30","03:00","-0.5","","-3.9","","78","","28","","21","","16.1","","98.04","","","","-6","","Snow Showers"
"2016-12-30 04:00","2016","12","30","04:00","-1.2","","-3.4","","85","","27","","24","","16.1","","98.06","","","","-7","","Snow Showers"
"2016-12-30 05:00","2016","12","30","05:00","-1.0","","-5.2","","73","","31","","25","","24.1","","98.10","","","","-7","","NA"
"2016-12-30 06:00","2016","12","30","06:00","-1.7","","-7.4","","65","","30","","30","","24.1","","98.20","","","","-9","","NA"
"2016-12-30 07:00","2016","12","30","07:00","-2.2","","-7.7","","66","","29","","27","","24.1","","98.28","","","","-9","","Mostly Cloudy"
"2016-12-30 08:00","2016","12","30","08:00","-2.9","","-8.2","","67","","29","","26","","24.1","","98.31","","","","-10","","NA"
"2016-12-30 09:00","2016","12","30","09:00","-3.0","","-8.1","","68","","29","","23","","24.1","","98.39","","","","-9","","NA"
"2016-12-30 10:00","2016","12","30","10:00","-2.5","","-7.8","","67","","30","","27","","24.1","","98.51","","","","-9","","Cloudy"
"2016-12-30 11:00","2016","12","30","11:00","-2.2","","-7.5","","67","","29","","26","","24.1","","98.57","","","","-9","","NA"
"2016-12-30 12:00","2016","12","30","12:00","-2.0","","-7.7","","65","","28","","22","","24.1","","98.56","","","","-8","","NA"
"2016-12-30 13:00","2016","12","30","13:00","-2.0","","-7.1","","68","","27","","25","","24.1","","98.60","","","","-8","","Mostly Cloudy"
"2016-12-30 14:00","2016","12","30","14:00","-1.8","","-7.7","","64","","29","","26","","24.1","","98.66","","","","-8","","NA"
"2016-12-30 15:00","2016","12","30","15:00","-2.2","","-8.1","","64","","29","","27","","24.1","","98.73","","","","-9","","NA"
"2016-12-30 16:00","2016","12","30","16:00","-2.4","","-8.3","","64","","31","","29","","24.1","","98.83","","","","-9","","Mostly Cloudy"
"2016-12-30 17:00","2016","12","30","17:00","-3.1","","-8.4","","67","","30","","23","","24.1","","98.93","","","","-10","","NA"
"2016-12-30 18:00","2016","12","30","18:00","-3.6","","-7.2","","76","","26","","11","","24.1","","99.03","","","","-8","","NA"
"2016-12-30 19:00","2016","12","30","19:00","-3.2","","-6.9","","76","","26","","22","","24.1","","99.07","","","","-10","","Mostly Cloudy"
"2016-12-30 20:00","2016","12","30","20:00","-3.2","","-6.7","","77","","25","","19","","24.1","","99.11","","","","-9","","NA"
"2016-12-30 21:00","2016","12","30","21:00","-3.1","","-6.9","","75","","26","","21","","24.1","","99.16","","","","-9","","NA"
"2016-12-30 22:00","2016","12","30","22:00","-3.0","","-7.4","","72","","23","","17","","24.1","","99.18","","","","-9","","Snow Showers"
"2016-12-30 23:00","2016","12","30","23:00","-3.0","","-7.7","","70","","24","","20","","24.1","","99.20","","","","-9","","Snow Showers"
"2016-12-31 00:00","2016","12","31","00:00","-3.0","","-7.5","","71","","24","","23","","24.1","","99.24","","","","-9","","NA"
"2016-12-31 01:00","2016","12","31","01:00","-2.9","","-7.8","","69","","23","","16","","24.1","","99.22","","","","-8","","Cloudy"
"2016-12-31 02:00","2016","12","31","02:00","-3.0","","-7.9","","69","","21","","11","","24.1","","99.16","","","","-7","","NA"
"2016-12-31 03:00","2016","12","31","03:00","-2.7","","-8.2","","66","","21","","9","","24.1","","99.12","","","","-6","","NA"
"2016-12-31 04:00","2016","12","31","04:00","-2.6","","-7.3","","70","","21","","19","","24.1","","99.04","","","","-8","","Cloudy"
"2016-12-31 05:00","2016","12","31","05:00","-3.2","","-5.2","","86","","18","","10","","9.7","","98.91","","","","-7","","Snow"
"2016-12-31 06:00","2016","12","31","06:00","-3.4","","-4.7","","91","","12","","9","","19.3","","98.73","","","","-7","","NA"
"2016-12-31 07:00","2016","12","31","07:00","-1.2","","-2.5","","91","","15","","19","","12.9","","98.55","","","","-7","","Cloudy"
"2016-12-31 08:00","2016","12","31","08:00","-0.4","","-3.8","","78","","15","","19","","24.1","","98.46","","","","-6","","NA"
"2016-12-31 09:00","2016","12","31","09:00","0.3","","-4.9","","68","","17","","15","","24.1","","98.36","","","","","","NA"
"2016-12-31 10:00","2016","12","31","10:00","1.2","","-5.3","","62","","16","","18","","24.1","","98.24","","","","","","Mostly Cloudy"
"2016-12-31 11:00","2016","12","31","11:00","2.4","","-5.3","","57","","20","","19","","24.1","","98.20","","","","","","NA"
"2016-12-31 12:00","2016","12","31","12:00","2.7","","-5.0","","57","","21","","25","","24.1","","98.08","","","","","","NA"
"2016-12-31 13:00","2016","12","31","13:00","3.3","","-4.4","","57","","21","","26","","24.1","","98.02","","","","","","Cloudy"
"2016-12-31 14:00","2016","12","31","14:00","3.5","","-4.0","","58","","24","","32","","24.1","","97.99","","","","","","NA"
"2016-12-31 15:00","2016","12","31","15:00","3.6","","-3.9","","58","","23","","32","","24.1","","98.02","","","","","","NA"
"2016-12-31 16:00","2016","12","31","16:00","3.6","","-3.2","","61","","23","","38","","24.1","","98.01","","","","","","Cloudy"
"2016-12-31 17:00","2016","12","31","17:00","2.5","","-1.7","","74","","23","","33","","16.1","","98.06","","","","","","Rain"
"2016-12-31 18:00","2016","12","31","18:00","1.6","","-0.2","","88","","22","","17","","16.1","","98.06","","","","","","Rain,Snow"
"2016-12-31 19:00","2016","12","31","19:00","1.7","","0.4","","91","","22","","29","","3.2","","98.11","","","","","","Rain,Snow"
"2016-12-31 20:00","2016","12","31","20:00","2.0","","0.2","","88","","22","","23","","24.1","","98.14","","","","","","NA"
"2016-12-31 21:00","2016","12","31","21:00","2.0","","-1.8","","76","","27","","37","","24.1","","98.28","","","","","","Snow"
"2016-12-31 22:00","2016","12","31","22:00","1.4","","-3.9","","68","","27","","31","","24.1","","98.42","","","","","","Mostly Cloudy"
"2016-12-31 23:00","2016","12","31","23:00","0.9","","-4.0","","70","","27","","28","","24.1","","98.52","","","","","","Snow Showers"
