"Station Name","TORONTO LESTER B. PEARSON INT'L A"
"Province","ONTARIO"
"Latitude","43.68"
"Longitude","-79.63"
"Elevation","173.40"
"Climate Identifier","6158733"
"WMO Identifier","71624"
"TC Identifier","YYZ"
"All times are specified in Local Standard Time (LST). Add 1 hour to adjust for Daylight Saving Time where and when it is observed."

"Legend"
"E","Estimated"
"M","Missing"
"NA","Not Available"

"Date/Time","Year","Month","Day","Time","Temp (°C)","Temp Flag","Dew Point Temp (°C)","Dew Point Temp Flag","Rel Hum (%)","Rel Hum Flag","Wind Dir (10s deg)","Wind Dir Flag","Wind Spd (km/h)","Wind Spd Flag","Visibility (km)","Visibility Flag","Stn Press (kPa)","Stn Press Flag","Hmdx","Hmdx Flag","Wind Chill","Wind Chill Flag","Weather"
"2001-04-01 00:00","2001","04","01","00:00","1.5","","-2.1","","77","","12","","7","","19.3","","98.93","","","","","","Cloudy"
"2001-04-01 01:00","2001","04","01","01:00","1.4","","-2.2","","77","","11","","7","","19.3","","98.88","","","","","","Cloudy"
"2001-04-01 02:00","2001","04","01","02:00","1.5","","-2.0","","78","","10","","7","","14.5","","98.79","","","","","","Cloudy"
"2001-04-01 03:00","2001","04","01","03:00","1.3","","-2.0","","79","","9","","11","","14.5","","98.72","","","","","","Cloudy"
"2001-04-01 04:00","2001","04","01","04:00","1.3","","-2.0","","79","","9","","7","","14.5","","98.72","","","","","","Cloudy"
"2001-04-01 05:00","2001","04","01","05:00","1.2","","-1.6","","82","","10","","11","","12.9","","98.72","","","","","","Snow"
"2001-04-01 06:00","2001","04","01","06:00","1.2","","-0.7","","87","","12","","9","","9.7","","98.75","","","","","","Snow Grains"
"2001-04-01 07:00","2001","04","01","07:00","0.9","","-1.2","","86","","11","","9","","4.8","","98.76","","","","","","Snow Grains"
"2001-04-01 08:00","2001","04","01","08:00","0.9","","-1.1","","86","","9","","7","","6.4","","98.76","","","","","","Snow Grains,Fog"
"2001-04-01 09:00","2001","04","01","09:00","0.9","","-1.4","","85","","9","","15","","6.4","","98.75","","","","","","Snow Grains"
"2001-04-01 10:00","2001","04","01","10:00","1.5","","-1.5","","80","","8","","15","","8.0","","98.76","","","","","","Snow Grains"
"2001-04-01 11:00","2001","04","01","11:00","1.5","","-1.4","","81","","8","","13","","9.7","","98.75","","","","","","Snow Grains"
"2001-04-01 12:00","2001","04","01","12:00","1.8","","-1.9","","76","","10","","15","","9.7","","98.76","","","","","","Snow Grains"
"2001-04-01 13:00","2001","04","01","13:00","1.2","","-1.5","","82","","9","","11","","8.0","","98.75","","","","","","Snow Grains"
"2001-04-01 14:00","2001","04","01","14:00","1.7","","-1.5","","79","","10","","13","","8.0","","98.75","","","","","","Snow Grains"
"2001-04-01 15:00","2001","04","01","15:00","2.1","","-1.9","","75","","","","0","","9.7","","98.76","","","","","","Haze"
"2001-04-01 16:00","2001","04","01","16:00","2.5","","-2.1","","72","","8","","7","","9.7","","98.81","","","","","","Haze"
"2001-04-01 17:00","2001","04","01","17:00","2.6","","-2.4","","70","","6","","13","","12.9","","98.86","","","","","","Cloudy"
"2001-04-01 18:00","2001","04","01","18:00","2.5","","-2.6","","69","","7","","9","","16.1","","98.92","","","","","","Cloudy"
"2001-04-01 19:00","2001","04","01","19:00","2.3","","-2.9","","68","","4","","6","","14.5","","98.98","","","","","","Cloudy"
"2001-04-01 20:00","2001","04","01","20:00","1.4","","-1.5","","81","","19","","6","","14.5","","99.05","","","","","","Cloudy"
"2001-04-01 21:00","2001","04","01","21:00","1.4","","-1.4","","82","","18","","4","","14.5","","99.14","","","","","","Cloudy"
"2001-04-01 22:00","2001","04","01","22:00","1.3","","-1.2","","83","","22","","6","","14.5","","99.16","","","","","","Cloudy"
"2001-04-01 23:00","2001","04","01","23:00","1.4","","-1.2","","83","","","","0","","14.5","","99.18","","","","","","Cloudy"
"2001-04-02 00:00","2001","04","02","00:00","1.2","","-2.2","","78","","36","","6","","14.5","","99.21","","","","","","Cloudy"
"2001-04-02 01:00","2001","04","02","01:00","1.1","","-2.4","","77","","36","","6","","16.1","","99.21","","","","","","Cloudy"
"2001-04-02 02:00","2001","04","02","02:00","1.3","","-2.3","","77","","36","","6","","12.9","","99.22","","","","","","Cloudy"
"2001-04-02 03:00","2001","04","02","03:00","1.1","","-2.3","","78","","36","","11","","12.9","","99.23","","","","","","Cloudy"
"2001-04-02 04:00","2001","04","02","04:00","0.9","","-2.3","","79","","35","","7","","16.1","","99.26","","","","","","Cloudy"
"2001-04-02 05:00","2001","04","02","05:00","1.1","","-2.3","","78","","31","","7","","19.3","","99.34","","","","","","Cloudy"
"2001-04-02 06:00","2001","04","02","06:00","1.2","","-2.8","","75","","27","","4","","16.1","","99.41","","","","","","Cloudy"
"2001-04-02 07:00","2001","04","02","07:00","1.8","","-2.5","","73","","25","","11","","16.1","","99.48","","","","","","Cloudy"
"2001-04-02 08:00","2001","04","02","08:00","2.3","","-2.7","","69","","26","","7","","16.1","","99.49","","","","","","Cloudy"
"2001-04-02 09:00","2001","04","02","09:00","2.9","","-3.3","","64","","25","","9","","16.1","","99.50","","","","","","Cloudy"
"2001-04-02 10:00","2001","04","02","10:00","3.4","","-2.3","","66","","25","","6","","12.9","","99.53","","","","","","Cloudy"
"2001-04-02 11:00","2001","04","02","11:00","4.0","","-2.0","","65","","24","","7","","11.3","","99.55","","","","","","Cloudy"
"2001-04-02 12:00","2001","04","02","12:00","4.8","","-3.1","","57","","22","","6","","16.1","","99.55","","","","","","Cloudy"
"2001-04-02 13:00","2001","04","02","13:00","6.0","","-2.7","","54","","","","0","","16.1","","99.57","","","","","","Cloudy"
"2001-04-02 14:00","2001","04","02","14:00","5.6","","-2.6","","56","","26","","6","","16.1","","99.56","","","","","","Cloudy"
"2001-04-02 15:00","2001","04","02","15:00","4.7","","-1.2","","66","","15","","11","","11.3","","99.55","","","","","","Cloudy"
"2001-04-02 16:00","2001","04","02","16:00","5.0","","-0.3","","69","","25","","9","","6.4","","99.57","","","","","","Haze"
"2001-04-02 17:00","2001","04","02","17:00","5.1","","0.1","","70","","25","","9","","6.4","","99.57","","","","","","Haze"
"2001-04-02 18:00","2001","04","02","18:00","5.0","","-0.6","","67","","28","","7","","12.9","","99.57","","","","","","Cloudy"
"2001-04-02 19:00","2001","04","02","19:00","3.6","","-1.3","","70","","26","","7","","12.9","","99.60","","","","","","Cloudy"
"2001-04-02 20:00","2001","04","02","20:00","3.8","","-1.1","","70","","28","","6","","12.9","","99.69","","","","","","Mostly Cloudy"
"2001-04-02 21:00","2001","04","02","21:00","3.7","","-1.1","","71","","35","","4","","12.9","","99.70","","","","","","Mostly Cloudy"
"2001-04-02 22:00","2001","04","02","22:00","3.2","","-1.4","","72","","30","","6","","14.5","","99.69","","","","","","Mostly Cloudy"
"2001-04-02 23:00","2001","04","02","23:00","1.7","","-1.7","","78","","29","","4","","14.5","","99.69","","","","","","Mainly Clear"
"2001-04-03 00:00","2001","04","03","00:00","1.1","","-1.9","","80","","","","0","","14.5","","99.67","","","","","","Clear"
"2001-04-03 01:00","2001","04","03","01:00","0.2","","-3.3","","77","","33","","9","","12.9","","99.69","","","","","","Clear"
"2001-04-03 02:00","2001","04","03","02:00","-0.8","","-3.7","","81","","35","","7","","12.9","","99.69","","","","-3","","Clear"
"2001-04-03 03:00","2001","04","03","03:00","-0.6","","-3.8","","79","","","","0","","16.1","","99.69","","","","","","Clear"
"2001-04-03 04:00","2001","04","03","04:00","-0.8","","-4.2","","78","","2","","9","","19.3","","99.70","","","","-4","","Clear"
"2001-04-03 05:00","2001","04","03","05:00","-1.6","","-4.9","","78","","30","","6","","19.3","","99.75","","","","-4","","Clear"
"2001-04-03 06:00","2001","04","03","06:00","-1.3","","-4.3","","80","","36","","11","","9.7","","99.80","","","","-5","","Haze"
"2001-04-03 07:00","2001","04","03","07:00","0.4","","-3.2","","77","","1","","9","","12.9","","99.86","","","","","","Mainly Clear"
"2001-04-03 08:00","2001","04","03","08:00","3.1","","-2.2","","68","","36","","9","","12.9","","99.94","","","","","","Mostly Cloudy"
"2001-04-03 09:00","2001","04","03","09:00","5.3","","-2.6","","57","","2","","11","","19.3","","99.95","","","","","","Mostly Cloudy"
"2001-04-03 10:00","2001","04","03","10:00","6.9","","-2.7","","50","","2","","17","","24.1","","99.97","","","","","","Mostly Cloudy"
"2001-04-03 11:00","2001","04","03","11:00"
"2001-04-03 12:00","2001","04","03","12:00","9.4","","-1.9","","45","","35","","15","","24.1","","99.97","","","","","","Mainly Clear"
"2001-04-03 13:00","2001","04","03","13:00","9.4","","-2.5","","43","","1","","20","","24.1","","99.95","","","","","","Mostly Cloudy"
"2001-04-03 14:00","2001","04","03","14:00","8.8","","-2.7","","44","","36","","19","","24.1","","99.94","","","","","","Mostly Cloudy"
"2001-04-03 15:00","2001","04","03","15:00","9.9","","-2.8","","41","","34","","22","","24.1","","99.96","","","","","","Mainly Clear"
"2001-04-03 16:00","2001","04","03","16:00","9.6","","-3.5","","39","","36","","28","","24.1","","100.03","","","","","","Mainly Clear"
"2001-04-03 17:00","2001","04","03","17:00","8.7","","-3.6","","42","","1","","20","","24.1","","100.03","","","","","","Mainly Clear"
"2001-04-03 18:00","2001","04","03","18:00","8.2","","-2.9","","45","","36","","15","","24.1","","100.11","","","","","","Mainly Clear"
"2001-04-03 19:00","2001","04","03","19:00","6.6","","-2.6","","52","","35","","22","","24.1","","100.22","","","","","","Mainly Clear"
"2001-04-03 20:00","2001","04","03","20:00","5.7","","-2.4","","56","","35","","15","","24.1","","100.29","","","","","","Clear"
"2001-04-03 21:00","2001","04","03","21:00","4.2","","-2.6","","61","","36","","13","","24.1","","100.35","","","","","","Clear"
"2001-04-03 22:00","2001","04","03","22:00","3.8","","-3.5","","59","","32","","13","","24.1","","100.38","","","","","","Clear"
"2001-04-03 23:00","2001","04","03","23:00","3.4","","-4.2","","57","","34","","20","","24.1","","100.39","","","","","","Clear"
"2001-04-04 00:00","2001","04","04","00:00","2.6","","-4.5","","59","","35","","19","","24.1","","100.42","","","","","","Clear"
"2001-04-04 01:00","2001","04","04","01:00","1.8","","-4.2","","64","","36","","22","","24.1","","100.45","","","","","","Clear"
"2001-04-04 02:00","2001","04","04","02:00","1.3","","-4.0","","68","","35","","15","","24.1","","100.48","","","","","","Mainly Clear"
"2001-04-04 03:00","2001","04","04","03:00","0.9","","-4.4","","68","","36","","17","","24.1","","100.48","","","","","","Mainly Clear"
"2001-04-04 04:00","2001","04","04","04:00","0.9","","-4.8","","66","","35","","13","","24.1","","100.51","","","","","","Clear"
"2001-04-04 05:00","2001","04","04","05:00","0.6","","-4.8","","67","","36","","15","","24.1","","100.55","","","","","","Clear"
"2001-04-04 06:00","2001","04","04","06:00","1.1","","-4.3","","67","","35","","17","","24.1","","100.63","","","","","","Clear"
"2001-04-04 07:00","2001","04","04","07:00","2.7","","-3.4","","64","","35","","19","","24.1","","100.72","","","","","","Clear"
"2001-04-04 08:00","2001","04","04","08:00","5.1","","-2.7","","57","","35","","17","","24.1","","100.75","","","","","","Clear"
"2001-04-04 09:00","2001","04","04","09:00","8.4","","-2.5","","46","","34","","15","","24.1","","100.79","","","","","","Clear"
"2001-04-04 10:00","2001","04","04","10:00","9.9","","-4.0","","37","","36","","15","","24.1","","100.82","","","","","","Clear"
"2001-04-04 11:00","2001","04","04","11:00","11.4","","-7.4","","26","","36","","19","","24.1","","100.80","","","","","","Clear"
"2001-04-04 12:00","2001","04","04","12:00","12.6","","-8.0","","23","","36","","13","","24.1","","100.74","","","","","","Clear"
"2001-04-04 13:00","2001","04","04","13:00","12.6","","-8.5","","22","","35","","17","","24.1","","100.72","","","","","","Clear"
"2001-04-04 14:00","2001","04","04","14:00","12.6","","-8.1","","23","","3","","11","","24.1","","100.66","","","","","","Clear"
"2001-04-04 15:00","2001","04","04","15:00","13.1","","-6.1","","26","","5","","4","","24.1","","100.64","","","","","","Clear"
"2001-04-04 16:00","2001","04","04","16:00","13.1","","-6.0","","26","","34","","6","","24.1","","100.60","","","","","","Mainly Clear"
"2001-04-04 17:00","2001","04","04","17:00","12.9","","-4.8","","29","","36","","17","","24.1","","100.62","","","","","","Clear"
"2001-04-04 18:00","2001","04","04","18:00","11.1","","-5.1","","32","","2","","22","","24.1","","100.63","","","","","","Mainly Clear"
"2001-04-04 19:00","2001","04","04","19:00","9.6","","-5.0","","35","","2","","17","","24.1","","100.64","","","","","","Mainly Clear"
"2001-04-04 20:00","2001","04","04","20:00","7.3","","-5.1","","41","","1","","15","","24.1","","100.65","","","","","","Clear"
"2001-04-04 21:00","2001","04","04","21:00","6.5","","-5.2","","43","","35","","13","","24.1","","100.69","","","","","","Clear"
"2001-04-04 22:00","2001","04","04","22:00","5.7","","-5.1","","46","","35","","13","","24.1","","100.71","","","","","","Mainly Clear"
"2001-04-04 23:00","2001","04","04","23:00","4.4","","-6.6","","45","","36","","17","","24.1","","100.71","","","","","","Clear"
"2001-04-05 00:00","2001","04","05","00:00","2.7","","-7.4","","47","","31","","4","","24.1","","100.70","","","","","","Clear"
"2001-04-05 01:00","2001","04","05","01:00","3.0","","-6.3","","50","","27","","6","","24.1","","100.72","","","","","","Clear"
"2001-04-05 02:00","2001","04","05","02:00","2.4","","-6.0","","54","","30","","6","","24.1","","100.72","","","","","","Clear"
"2001-04-05 03:00","2001","04","05","03:00","1.9","","-6.4","","54","","31","","6","","24.1","","100.70","","","","","","Clear"
"2001-04-05 04:00","2001","04","05","04:00","1.9","","-6.8","","52","","33","","9","","24.1","","100.68","","","","","","Clear"
"2001-04-05 05:00","2001","04","05","05:00","1.3","","-7.1","","54","","34","","13","","24.1","","100.72","","","","","","Clear"
"2001-04-05 06:00","2001","04","05","06:00","1.1","","-7.1","","54","","36","","7","","24.1","","100.73","","","","","","Mainly Clear"
"2001-04-05 07:00","2001","04","05","07:00","2.9","","-6.1","","52","","34","","7","","24.1","","100.77","","","","","","Mainly Clear"
"2001-04-05 08:00","2001","04","05","08:00","4.8","","-5.0","","49","","30","","6","","24.1","","100.81","","","","","","Mainly Clear"
"2001-04-05 09:00","2001","04","05","09:00","8.5","","-5.2","","37","","6","","4","","19.3","","100.81","","","","","","Mostly Cloudy"
"2001-04-05 10:00","2001","04","05","10:00","9.7","","-6.1","","32","","18","","7","","16.1","","100.79","","","","","","Mostly Cloudy"
"2001-04-05 11:00","2001","04","05","11:00","10.0","","-6.6","","30","","14","","11","","19.3","","100.74","","","","","","Mostly Cloudy"
"2001-04-05 12:00","2001","04","05","12:00","11.2","","-6.5","","28","","15","","11","","24.1","","100.67","","","","","","Mainly Clear"
"2001-04-05 13:00","2001","04","05","13:00","11.4","","-6.7","","27","","16","","13","","24.1","","100.55","","","","","","Mostly Cloudy"
"2001-04-05 14:00","2001","04","05","14:00","12.2","","-7.3","","25","","14","","13","","24.1","","100.48","","","","","","Mostly Cloudy"
"2001-04-05 15:00","2001","04","05","15:00","11.9","","-8.2","","24","","13","","13","","24.1","","100.34","","","","","","Mostly Cloudy"
"2001-04-05 16:00","2001","04","05","16:00","12.0","","-7.6","","25","","14","","13","","24.1","","100.22","","","","","","Mostly Cloudy"
"2001-04-05 17:00","2001","04","05","17:00","12.4","","-6.2","","27","","16","","11","","24.1","","100.21","","","","","","Mostly Cloudy"
"2001-04-05 18:00","2001","04","05","18:00","10.2","","-8.2","","27","","13","","13","","24.1","","100.10","","","","","","Cloudy"
"2001-04-05 19:00","2001","04","05","19:00","9.0","","-8.4","","28","","12","","13","","24.1","","100.06","","","","","","Mainly Clear"
"2001-04-05 20:00","2001","04","05","20:00","8.7","","-8.2","","29","","11","","13","","24.1","","100.01","","","","","","Mostly Cloudy"
"2001-04-05 21:00","2001","04","05","21:00","8.3","","-8.0","","31","","11","","9","","24.1","","99.94","","","","","","Mostly Cloudy"
"2001-04-05 22:00","2001","04","05","22:00","8.1","","-7.7","","32","","10","","9","","24.1","","99.91","","","","","","Mostly Cloudy"
"2001-04-05 23:00","2001","04","05","23:00","8.5","","-7.4","","32","","7","","11","","24.1","","99.94","","","","","","Cloudy"
"2001-04-06 00:00","2001","04","06","00:00","7.7","","-6.5","","36","","32","","6","","24.1","","99.94","","","","","","Cloudy"
"2001-04-06 01:00","2001","04","06","01:00","8.2","","-6.1","","36","","7","","15","","19.3","","99.75","","","","","","Rain"
"2001-04-06 02:00","2001","04","06","02:00","7.3","","-3.4","","47","","8","","6","","19.3","","99.63","","","","","","Rain"
"2001-04-06 03:00","2001","04","06","03:00","7.0","","-2.4","","51","","9","","4","","16.1","","99.56","","","","","","Rain"
"2001-04-06 04:00","2001","04","06","04:00","6.5","","-1.2","","58","","12","","7","","19.3","","99.46","","","","","","Rain"
"2001-04-06 05:00","2001","04","06","05:00","6.2","","-1.0","","60","","14","","7","","19.3","","99.38","","","","","","Rain"
"2001-04-06 06:00","2001","04","06","06:00","5.9","","-1.1","","61","","14","","7","","16.1","","99.34","","","","","","Rain"
"2001-04-06 07:00","2001","04","06","07:00","5.6","","-0.5","","65","","13","","7","","14.5","","99.27","","","","","","Rain"
"2001-04-06 08:00","2001","04","06","08:00","4.4","","1.2","","80","","9","","7","","4.8","","99.22","","","","","","Rain Showers"
"2001-04-06 09:00","2001","04","06","09:00","4.8","","2.8","","87","","3","","15","","4.0","","99.26","","","","","","Rain,Fog"
"2001-04-06 10:00","2001","04","06","10:00","5.1","","3.3","","88","","17","","9","","4.0","","99.03","","","","","","Fog"
"2001-04-06 11:00","2001","04","06","11:00","6.7","","4.9","","88","","14","","7","","3.2","","99.02","","","","","","Fog"
"2001-04-06 12:00","2001","04","06","12:00","6.6","","4.9","","89","","16","","7","","2.4","","98.97","","","","","","Fog"
"2001-04-06 13:00","2001","04","06","13:00","6.9","","5.4","","90","","13","","9","","2.8","","98.89","","","","","","Fog"
"2001-04-06 14:00","2001","04","06","14:00","7.1","","5.5","","90","","17","","9","","2.0","","98.83","","","","","","Fog"
"2001-04-06 15:00","2001","04","06","15:00","6.9","","5.3","","90","","18","","9","","2.0","","98.86","","","","","","Fog"
"2001-04-06 16:00","2001","04","06","16:00","6.4","","4.6","","88","","","","0","","2.4","","98.92","","","","","","Fog"
"2001-04-06 17:00","2001","04","06","17:00","6.4","","4.6","","88","","6","","7","","1.6","","98.98","","","","","","Drizzle,Fog"
"2001-04-06 18:00","2001","04","06","18:00","6.0","","4.5","","90","","9","","6","","1.6","","99.06","","","","","","Drizzle,Fog"
"2001-04-06 19:00","2001","04","06","19:00","6.0","","4.5","","90","","15","","4","","2.0","","99.15","","","","","","Drizzle,Fog"
"2001-04-06 20:00","2001","04","06","20:00","5.8","","4.2","","89","","19","","6","","3.2","","99.31","","","","","","Fog"
"2001-04-06 21:00","2001","04","06","21:00","5.8","","4.7","","93","","","","0","","1.6","","99.35","","","","","","Drizzle,Fog"
"2001-04-06 22:00","2001","04","06","22:00","5.9","","4.7","","92","","20","","7","","2.0","","99.45","","","","","","Drizzle,Fog"
"2001-04-06 23:00","2001","04","06","23:00","5.9","","4.8","","93","","","","0","","3.6","","99.52","","","","","","Fog"
"2001-04-07 00:00","2001","04","07","00:00","5.9","","4.4","","90","","2","","17","","4.8","","99.59","","","","","","Fog"
"2001-04-07 01:00","2001","04","07","01:00","5.7","","3.6","","86","","3","","13","","4.8","","99.63","","","","","","Fog"
"2001-04-07 02:00","2001","04","07","02:00","5.6","","3.8","","88","","4","","9","","4.0","","99.66","","","","","","Fog"
"2001-04-07 03:00","2001","04","07","03:00","5.3","","3.8","","90","","5","","11","","3.6","","99.73","","","","","","Drizzle,Fog"
"2001-04-07 04:00","2001","04","07","04:00","5.3","","3.3","","87","","9","","7","","4.8","","99.80","","","","","","Fog"
"2001-04-07 05:00","2001","04","07","05:00","3.9","","2.4","","90","","13","","13","","2.4","","99.84","","","","","","Fog"
"2001-04-07 06:00","2001","04","07","06:00","3.5","","1.6","","87","","15","","15","","3.2","","99.96","","","","","","Fog"
"2001-04-07 07:00","2001","04","07","07:00","3.0","","1.2","","88","","11","","19","","6.4","","100.04","","","","","","Rain,Fog"
"2001-04-07 08:00","2001","04","07","08:00","2.5","","0.5","","87","","11","","19","","4.0","","99.98","","","","","","Rain,Fog"
"2001-04-07 09:00","2001","04","07","09:00","2.5","","0.7","","88","","10","","15","","2.8","","99.97","","","","","","Rain,Fog"
"2001-04-07 10:00","2001","04","07","10:00","2.7","","0.9","","88","","10","","24","","6.4","","99.99","","","","","","Rain,Fog"
"2001-04-07 11:00","2001","04","07","11:00","3.0","","1.2","","88","","11","","20","","6.4","","99.91","","","","","","Rain,Fog"
"2001-04-07 12:00","2001","04","07","12:00","3.0","","1.3","","89","","10","","24","","6.4","","99.85","","","","","","Fog"
"2001-04-07 13:00","2001","04","07","13:00","3.5","","1.5","","87","","9","","24","","8.0","","99.70","","","","","","Fog"
"2001-04-07 14:00","2001","04","07","14:00","4.6","","2.6","","87","","10","","26","","8.0","","99.61","","","","","","Fog"
"2001-04-07 15:00","2001","04","07","15:00","4.4","","1.6","","82","","10","","24","","11.3","","99.50","","","","","","Cloudy"
"2001-04-07 16:00","2001","04","07","16:00","4.0","","1.2","","82","","11","","30","","11.3","","99.39","","","","","","Cloudy"
"2001-04-07 17:00","2001","04","07","17:00","4.1","","2.1","","87","","9","","30","","4.8","","99.29","","","","","","Fog"
"2001-04-07 18:00","2001","04","07","18:00","5.0","","2.6","","84","","9","","26","","6.4","","99.30","","","","","","Fog"
"2001-04-07 19:00","2001","04","07","19:00","5.7","","3.2","","84","","9","","26","","6.4","","99.02","","","","","","Haze"
"2001-04-07 20:00","2001","04","07","20:00","5.8","","2.9","","82","","9","","26","","8.0","","99.15","","","","","","Haze"
"2001-04-07 21:00","2001","04","07","21:00","5.8","","3.3","","84","","9","","22","","6.4","","98.95","","","","","","Thunderstorms,Rain Showers,Haze"
"2001-04-07 22:00","2001","04","07","22:00","5.8","","4.0","","88","","11","","17","","6.4","","98.90","","","","","","Rain Showers,Fog"
"2001-04-07 23:00","2001","04","07","23:00","5.8","","4.4","","91","","12","","13","","4.8","","98.80","","","","","","Thunderstorms,Rain Showers,Fog"
"2001-04-08 00:00","2001","04","08","00:00","5.7","","4.4","","91","","9","","6","","4.8","","98.81","","","","","","Fog"
"2001-04-08 01:00","2001","04","08","01:00","5.6","","4.3","","91","","1","","6","","3.6","","98.77","","","","","","Fog"
"2001-04-08 02:00","2001","04","08","02:00","5.8","","4.9","","94","","","","0","","3.2","","98.74","","","","","","Fog"
"2001-04-08 03:00","2001","04","08","03:00","6.2","","5.4","","95","","14","","4","","2.8","","98.72","","","","","","Fog"
"2001-04-08 04:00","2001","04","08","04:00","6.2","","5.5","","95","","","","0","","0.4","","98.72","","","","","","Fog"
"2001-04-08 05:00","2001","04","08","05:00","6.2","","5.5","","95","","15","","6","","0.2","","98.70","","","","","","Fog"
"2001-04-08 06:00","2001","04","08","06:00","5.9","","5.4","","97","","15","","4","","0.2","","98.72","","","","","","Fog"
"2001-04-08 07:00","2001","04","08","07:00","5.8","","5.2","","96","","18","","7","","0.2","","98.69","","","","","","Fog"
"2001-04-08 08:00","2001","04","08","08:00","7.1","","6.6","","97","","17","","11","","0.2","","98.64","","","","","","Fog"
"2001-04-08 09:00","2001","04","08","09:00","10.6","","10.0","","96","","15","","15","","6.4","","98.58","","","","","","Fog"
"2001-04-08 10:00","2001","04","08","10:00","20.4","","13.8","","66","","22","","32","","24.1","","98.53","","","","","","Clear"
"2001-04-08 11:00","2001","04","08","11:00","22.3","","12.7","","55","","25","","43","","24.1","","98.50","","25","","","","Mainly Clear"
"2001-04-08 12:00","2001","04","08","12:00","23.2","","9.8","","43","","27","","52","","24.1","","98.46","","","","","","Mainly Clear"
"2001-04-08 13:00","2001","04","08","13:00","23.6","","8.3","","38","","26","","52","","24.1","","98.47","","","","","","Clear"
"2001-04-08 14:00","2001","04","08","14:00","24.4","","6.4","","31","","25","","61","","24.1","","98.46","","","","","","Clear"
"2001-04-08 15:00","2001","04","08","15:00","23.7","","4.7","","29","","26","","67","","24.1","","98.48","","","","","","Clear"
"2001-04-08 16:00","2001","04","08","16:00","23.3","","5.2","","31","","27","","48","","24.1","","98.53","","","","","","Clear"
"2001-04-08 17:00","2001","04","08","17:00","22.0","","4.7","","32","","27","","52","","24.1","","98.63","","","","","","Clear"
"2001-04-08 18:00","2001","04","08","18:00","19.7","","6.0","","41","","29","","35","","24.1","","98.69","","","","","","Clear"
"2001-04-08 19:00","2001","04","08","19:00","17.1","","6.0","","48","","30","","28","","24.1","","98.81","","","","","","Clear"
"2001-04-08 20:00","2001","04","08","20:00","10.3","","4.0","","65","","35","","30","","24.1","","99.02","","","","","","Clear"
"2001-04-08 21:00","2001","04","08","21:00","8.1","","2.3","","67","","35","","28","","24.1","","99.11","","","","","","Clear"
"2001-04-08 22:00","2001","04","08","22:00","7.2","","2.1","","70","","33","","28","","24.1","","99.16","","","","","","Clear"
"2001-04-08 23:00","2001","04","08","23:00","6.9","","1.4","","68","","33","","32","","24.1","","99.18","","","","","","Clear"
"2001-04-09 00:00","2001","04","09","00:00","6.7","","0.7","","66","","32","","22","","24.1","","99.23","","","","","","Clear"
"2001-04-09 01:00","2001","04","09","01:00","5.8","","0.5","","69","","32","","13","","24.1","","99.25","","","","","","Clear"
"2001-04-09 02:00","2001","04","09","02:00","6.2","","0.3","","66","","32","","17","","24.1","","99.17","","","","","","Clear"
"2001-04-09 03:00","2001","04","09","03:00","5.5","","0.0","","68","","36","","9","","24.1","","99.24","","","","","","Clear"
"2001-04-09 04:00","2001","04","09","04:00","4.4","","-0.2","","72","","5","","9","","24.1","","99.26","","","","","","Clear"
"2001-04-09 05:00","2001","04","09","05:00","3.4","","-1.1","","72","","2","","9","","24.1","","99.28","","","","","","Clear"
"2001-04-09 06:00","2001","04","09","06:00","3.5","","-1.2","","71","","36","","13","","24.1","","99.37","","","","","","Mainly Clear"
"2001-04-09 07:00","2001","04","09","07:00","4.5","","-0.3","","71","","35","","13","","24.1","","99.39","","","","","","Mostly Cloudy"
"2001-04-09 08:00","2001","04","09","08:00","4.7","","-0.5","","69","","3","","6","","24.1","","99.33","","","","","","Rain Showers"
"2001-04-09 09:00","2001","04","09","09:00","5.7","","0.4","","69","","4","","9","","24.1","","99.26","","","","","","Mostly Cloudy"
"2001-04-09 10:00","2001","04","09","10:00","6.8","","0.5","","64","","3","","9","","24.1","","99.21","","","","","","Cloudy"
"2001-04-09 11:00","2001","04","09","11:00","6.4","","1.7","","72","","12","","4","","8.0","","99.22","","","","","","Rain Showers"
"2001-04-09 12:00","2001","04","09","12:00","5.9","","2.6","","79","","5","","7","","11.3","","99.14","","","","","","Rain Showers"
"2001-04-09 13:00","2001","04","09","13:00","5.8","","2.9","","82","","8","","9","","3.6","","99.10","","","","","","Heavy Rain Showers"
"2001-04-09 14:00","2001","04","09","14:00","6.0","","2.9","","80","","2","","24","","12.9","","99.07","","","","","","Rain Showers"
"2001-04-09 15:00","2001","04","09","15:00","5.2","","2.3","","82","","2","","28","","9.7","","99.11","","","","","","Rain Showers"
"2001-04-09 16:00","2001","04","09","16:00","5.7","","2.2","","78","","1","","24","","19.3","","99.10","","","","","","Cloudy"
"2001-04-09 17:00","2001","04","09","17:00","5.8","","2.3","","78","","1","","22","","24.1","","99.22","","","","","","Cloudy"
"2001-04-09 18:00","2001","04","09","18:00","5.7","","2.5","","80","","36","","17","","24.1","","99.34","","","","","","Mostly Cloudy"
"2001-04-09 19:00","2001","04","09","19:00","5.6","","2.1","","78","","36","","17","","24.1","","99.41","","","","","","Mostly Cloudy"
"2001-04-09 20:00","2001","04","09","20:00","4.8","","1.5","","79","","2","","19","","24.1","","99.40","","","","","","Clear"
"2001-04-09 21:00","2001","04","09","21:00","4.2","","0.7","","78","","36","","19","","24.1","","99.40","","","","","","Clear"
"2001-04-09 22:00","2001","04","09","22:00","3.6","","-0.1","","77","","35","","13","","24.1","","99.45","","","","","","Clear"
"2001-04-09 23:00","2001","04","09","23:00","3.1","","-0.4","","78","","34","","9","","24.1","","99.53","","","","","","Clear"
"2001-04-10 00:00","2001","04","10","00:00","2.4","","-0.7","","80","","1","","9","","24.1","","99.58","","","","","","Clear"
"2001-04-10 01:00","2001","04","10","01:00","2.2","","-0.7","","81","","2","","15","","24.1","","99.56","","","","","","Clear"
"2001-04-10 02:00","2001","04","10","02:00","2.4","","-0.8","","79","","4","","11","","24.1","","99.52","","","","","","Clear"
"2001-04-10 03:00","2001","04","10","03:00","2.6","","-1.1","","77","","3","","6","","24.1","","99.63","","","","","","Clear"
"2001-04-10 04:00","2001","04","10","04:00","1.7","","-1.2","","81","","9","","4","","24.1","","99.68","","","","","","Mostly Cloudy"
"2001-04-10 05:00","2001","04","10","05:00","2.5","","-1.2","","77","","4","","7","","24.1","","99.74","","","","","","Mostly Cloudy"
"2001-04-10 06:00","2001","04","10","06:00","2.4","","-1.1","","78","","2","","7","","24.1","","99.81","","","","","","Mostly Cloudy"
"2001-04-10 07:00","2001","04","10","07:00","3.3","","-0.5","","76","","5","","7","","24.1","","99.87","","","","","","Mostly Cloudy"
"2001-04-10 08:00","2001","04","10","08:00","6.1","","0.4","","67","","11","","22","","24.1","","99.85","","","","","","Mainly Clear"
"2001-04-10 09:00","2001","04","10","09:00","6.9","","0.8","","65","","10","","19","","24.1","","99.89","","","","","","Mostly Cloudy"
"2001-04-10 10:00","2001","04","10","10:00","7.0","","0.9","","65","","11","","22","","24.1","","99.92","","","","","","Mostly Cloudy"
"2001-04-10 11:00","2001","04","10","11:00","7.2","","0.9","","64","","12","","22","","24.1","","99.80","","","","","","Mostly Cloudy"
"2001-04-10 12:00","2001","04","10","12:00","7.7","","1.1","","63","","11","","24","","24.1","","99.75","","","","","","Cloudy"
"2001-04-10 13:00","2001","04","10","13:00","7.8","","0.9","","62","","9","","13","","24.1","","99.79","","","","","","Mostly Cloudy"
"2001-04-10 14:00","2001","04","10","14:00","8.6","","0.6","","57","","11","","17","","24.1","","99.78","","","","","","Cloudy"
"2001-04-10 15:00","2001","04","10","15:00","10.0","","1.4","","55","","9","","22","","24.1","","99.75","","","","","","Mostly Cloudy"
"2001-04-10 16:00","2001","04","10","16:00","9.9","","0.4","","52","","8","","19","","24.1","","99.77","","","","","","Mostly Cloudy"
"2001-04-10 17:00","2001","04","10","17:00","9.8","","-0.3","","49","","9","","20","","24.1","","99.81","","","","","","Mostly Cloudy"
"2001-04-10 18:00","2001","04","10","18:00","9.3","","-0.5","","50","","11","","20","","24.1","","99.79","","","","","","Mostly Cloudy"
"2001-04-10 19:00","2001","04","10","19:00","8.2","","-0.8","","53","","13","","9","","24.1","","99.78","","","","","","Mainly Clear"
"2001-04-10 20:00","2001","04","10","20:00","7.2","","-0.5","","58","","4","","9","","24.1","","99.84","","","","","","Clear"
"2001-04-10 21:00","2001","04","10","21:00","6.9","","-0.5","","59","","4","","6","","24.1","","99.84","","","","","","Mainly Clear"
"2001-04-10 22:00","2001","04","10","22:00","6.9","","-0.2","","61","","7","","7","","24.1","","99.83","","","","","","Clear"
"2001-04-10 23:00","2001","04","10","23:00","6.5","","0.2","","64","","7","","6","","24.1","","99.77","","","","","","Clear"
"2001-04-11 00:00","2001","04","11","00:00","5.1","","0.0","","70","","36","","6","","24.1","","99.79","","","","","","Mainly Clear"
"2001-04-11 01:00","2001","04","11","01:00","4.4","","0.4","","75","","36","","9","","24.1","","99.82","","","","","","Mainly Clear"
"2001-04-11 02:00","2001","04","11","02:00","4.4","","0.5","","76","","2","","13","","24.1","","99.74","","","","","","Mainly Clear"
"2001-04-11 03:00","2001","04","11","03:00","4.4","","0.5","","76","","2","","7","","24.1","","99.73","","","","","","Mostly Cloudy"
"2001-04-11 04:00","2001","04","11","04:00","4.3","","0.4","","76","","2","","4","","24.1","","99.76","","","","","","Mostly Cloudy"
"2001-04-11 05:00","2001","04","11","05:00","5.8","","1.5","","74","","3","","7","","24.1","","99.79","","","","","","Mostly Cloudy"
"2001-04-11 06:00","2001","04","11","06:00","6.2","","1.4","","71","","3","","7","","19.3","","99.81","","","","","","Cloudy"
"2001-04-11 07:00","2001","04","11","07:00","7.6","","1.2","","64","","10","","11","","24.1","","99.81","","","","","","Cloudy"
"2001-04-11 08:00","2001","04","11","08:00","8.8","","0.6","","56","","8","","17","","19.3","","99.85","","","","","","Cloudy"
"2001-04-11 09:00","2001","04","11","09:00","9.7","","1.4","","56","","9","","17","","19.3","","99.85","","","","","","Cloudy"
"2001-04-11 10:00","2001","04","11","10:00","10.8","","1.6","","53","","10","","13","","19.3","","99.83","","","","","","Cloudy"
"2001-04-11 11:00","2001","04","11","11:00","11.0","","1.9","","53","","10","","22","","24.1","","99.71","","","","","","Mostly Cloudy"
"2001-04-11 12:00","2001","04","11","12:00","11.2","","2.4","","55","","11","","22","","24.1","","99.70","","","","","","Mostly Cloudy"
"2001-04-11 13:00","2001","04","11","13:00","10.3","","2.7","","59","","10","","17","","24.1","","99.69","","","","","","Cloudy"
"2001-04-11 14:00","2001","04","11","14:00","11.6","","4.1","","60","","9","","17","","19.3","","99.69","","","","","","Cloudy"
"2001-04-11 15:00","2001","04","11","15:00","11.4","","5.2","","66","","10","","24","","19.3","","99.66","","","","","","Cloudy"
"2001-04-11 16:00","2001","04","11","16:00","12.0","","6.9","","71","","11","","22","","12.9","","99.61","","","","","","Cloudy"
"2001-04-11 17:00","2001","04","11","17:00","11.5","","7.0","","74","","10","","22","","8.0","","99.59","","","","","","Haze"
"2001-04-11 18:00","2001","04","11","18:00","11.7","","7.1","","73","","10","","22","","8.0","","99.55","","","","","","Haze"
"2001-04-11 19:00","2001","04","11","19:00","11.8","","6.7","","71","","9","","26","","14.5","","99.49","","","","","","Cloudy"
"2001-04-11 20:00","2001","04","11","20:00","11.4","","6.6","","72","","10","","17","","16.1","","99.51","","","","","","Cloudy"
"2001-04-11 21:00","2001","04","11","21:00","11.0","","6.7","","75","","10","","20","","14.5","","99.30","","","","","","Cloudy"
"2001-04-11 22:00","2001","04","11","22:00","10.4","","6.8","","78","","12","","11","","16.1","","99.38","","","","","","Cloudy"
"2001-04-11 23:00","2001","04","11","23:00","10.1","","6.7","","79","","10","","11","","16.1","","99.28","","","","","","Cloudy"
"2001-04-12 00:00","2001","04","12","00:00","9.9","","6.9","","82","","9","","9","","19.3","","99.15","","","","","","Mostly Cloudy"
"2001-04-12 01:00","2001","04","12","01:00","9.8","","6.9","","82","","9","","13","","19.3","","99.08","","","","","","Cloudy"
"2001-04-12 02:00","2001","04","12","02:00","9.2","","6.7","","84","","10","","15","","11.3","","98.93","","","","","","Cloudy"
"2001-04-12 03:00","2001","04","12","03:00","9.3","","7.2","","87","","10","","15","","6.4","","98.86","","","","","","Thunderstorms,Rain Showers,Fog"
"2001-04-12 04:00","2001","04","12","04:00","9.1","","7.8","","92","","9","","7","","6.4","","98.91","","","","","","Thunderstorms,Rain Showers,Fog"
"2001-04-12 05:00","2001","04","12","05:00","8.9","","7.6","","92","","11","","9","","6.4","","98.80","","","","","","Fog"
"2001-04-12 06:00","2001","04","12","06:00","9.0","","7.9","","93","","9","","9","","1.6","","98.77","","","","","","Fog"
"2001-04-12 07:00","2001","04","12","07:00","9.5","","8.5","","93","","","","0","","3.6","","98.79","","","","","","Fog"
"2001-04-12 08:00","2001","04","12","08:00","10.3","","8.9","","91","","10","","9","","2.4","","98.73","","","","","","Rain Showers,Fog"
"2001-04-12 09:00","2001","04","12","09:00","11.2","","9.8","","91","","13","","22","","4.8","","98.50","","","","","","Rain Showers,Fog"
"2001-04-12 10:00","2001","04","12","10:00","11.8","","10.5","","92","","12","","24","","8.0","","98.38","","","","","","Fog"
"2001-04-12 11:00","2001","04","12","11:00","14.9","","11.8","","82","","14","","22","","11.3","","98.26","","","","","","Clear"
"2001-04-12 12:00","2001","04","12","12:00","16.0","","11.7","","76","","13","","19","","11.3","","98.08","","","","","","Clear"
"2001-04-12 13:00","2001","04","12","13:00","18.2","","12.8","","71","","18","","15","","12.9","","97.93","","","","","","Mainly Clear"
"2001-04-12 14:00","2001","04","12","14:00","22.6","","12.3","","52","","23","","46","","19.3","","97.87","","25","","","","Mainly Clear"
"2001-04-12 15:00","2001","04","12","15:00","24.6","","10.2","","40","","23","","63","","19.3","","97.84","","26","","","","Clear"
"2001-04-12 16:00","2001","04","12","16:00","24.6","","9.9","","39","","24","","59","","24.1","","97.82","","26","","","","Clear"
"2001-04-12 17:00","2001","04","12","17:00","22.6","","7.8","","39","","25","","76","","19.3","","97.90","","","","","","Clear"
"2001-04-12 18:00","2001","04","12","18:00","19.0","","5.7","","42","","25","","65","","24.1","","98.01","","","","","","Clear"
"2001-04-12 19:00","2001","04","12","19:00","14.9","","5.4","","53","","27","","46","","24.1","","98.22","","","","","","Clear"
"2001-04-12 20:00","2001","04","12","20:00","13.1","","4.5","","56","","27","","39","","24.1","","98.37","","","","","","Mainly Clear"
"2001-04-12 21:00","2001","04","12","21:00","12.9","","4.1","","55","","27","","39","","24.1","","98.51","","","","","","Cloudy"
"2001-04-12 22:00","2001","04","12","22:00","12.1","","3.4","","55","","27","","41","","24.1","","98.59","","","","","","Cloudy"
"2001-04-12 23:00","2001","04","12","23:00","11.8","","3.4","","56","","25","","24","","24.1","","98.58","","","","","","Cloudy"
"2001-04-13 00:00","2001","04","13","00:00","11.9","","3.2","","55","","25","","37","","24.1","","98.60","","","","","","Cloudy"
"2001-04-13 01:00","2001","04","13","01:00","11.1","","2.2","","54","","26","","54","","24.1","","98.61","","","","","","Mostly Cloudy"
"2001-04-13 02:00","2001","04","13","02:00","10.1","","1.4","","55","","25","","59","","24.1","","98.59","","","","","","Mostly Cloudy"
"2001-04-13 03:00","2001","04","13","03:00","8.7","","1.3","","60","","26","","41","","24.1","","98.71","","","","","","Clear"
"2001-04-13 04:00","2001","04","13","04:00","9.1","","1.4","","59","","26","","33","","24.1","","98.78","","","","","","Mostly Cloudy"
"2001-04-13 05:00","2001","04","13","05:00","8.8","","1.1","","58","","28","","32","","24.1","","98.84","","","","","","Mostly Cloudy"
"2001-04-13 06:00","2001","04","13","06:00","8.5","","1.4","","61","","28","","37","","24.1","","98.96","","","","","","Mostly Cloudy"
"2001-04-13 07:00","2001","04","13","07:00","7.8","","-0.4","","56","","30","","41","","24.1","","99.07","","","","","","Mostly Cloudy"
"2001-04-13 08:00","2001","04","13","08:00","8.3","","0.8","","59","","29","","41","","24.1","","99.15","","","","","","Mostly Cloudy"
"2001-04-13 09:00","2001","04","13","09:00","7.2","","2.2","","70","","28","","41","","24.1","","99.22","","","","","","Mostly Cloudy"
"2001-04-13 10:00","2001","04","13","10:00","8.5","","-0.4","","53","","30","","48","","24.1","","99.27","","","","","","Mostly Cloudy"
"2001-04-13 11:00","2001","04","13","11:00","10.2","","0.2","","50","","29","","50","","24.1","","99.26","","","","","","Mostly Cloudy"
"2001-04-13 12:00","2001","04","13","12:00","11.6","","0.6","","47","","30","","44","","24.1","","99.28","","","","","","Mainly Clear"
"2001-04-13 13:00","2001","04","13","13:00","11.9","","0.7","","46","","31","","52","","24.1","","99.34","","","","","","Mainly Clear"
"2001-04-13 14:00","2001","04","13","14:00","12.5","","0.8","","45","","29","","46","","24.1","","99.41","","","","","","Mainly Clear"
"2001-04-13 15:00","2001","04","13","15:00","11.7","","0.2","","45","","30","","43","","24.1","","99.49","","","","","","Mainly Clear"
"2001-04-13 16:00","2001","04","13","16:00","11.2","","-0.2","","45","","30","","43","","24.1","","99.50","","","","","","Mainly Clear"
"2001-04-13 17:00","2001","04","13","17:00","10.9","","0.1","","47","","29","","39","","24.1","","99.55","","","","","","Clear"
"2001-04-13 18:00","2001","04","13","18:00","9.5","","-1.4","","46","","30","","37","","24.1","","99.63","","","","","","Clear"
"2001-04-13 19:00","2001","04","13","19:00","7.9","","-2.5","","48","","30","","30","","24.1","","99.68","","","","","","Clear"
"2001-04-13 20:00","2001","04","13","20:00","6.9","","-3.5","","47","","30","","26","","24.1","","99.75","","","","","","Clear"
"2001-04-13 21:00","2001","04","13","21:00","5.9","","-3.2","","52","","31","","13","","24.1","","99.78","","","","","","Clear"
"2001-04-13 22:00","2001","04","13","22:00","5.2","","-3.1","","55","","32","","13","","24.1","","99.77","","","","","","Clear"
"2001-04-13 23:00","2001","04","13","23:00","4.3","","-3.2","","58","","30","","13","","24.1","","99.78","","","","","","Clear"
"2001-04-14 00:00","2001","04","14","00:00","3.1","","-3.5","","62","","32","","11","","24.1","","99.79","","","","","","Clear"
"2001-04-14 01:00","2001","04","14","01:00","3.0","","-3.9","","60","","35","","11","","24.1","","99.77","","","","","","Clear"
"2001-04-14 02:00","2001","04","14","02:00","1.8","","-4.1","","65","","36","","11","","24.1","","99.74","","","","","","Clear"
"2001-04-14 03:00","2001","04","14","03:00","1.9","","-4.2","","64","","","","0","","24.1","","99.75","","","","","","Clear"
"2001-04-14 04:00","2001","04","14","04:00","0.3","","-4.6","","70","","33","","6","","24.1","","99.73","","","","","","Clear"
"2001-04-14 05:00","2001","04","14","05:00","0.8","","-4.2","","69","","28","","6","","24.1","","99.73","","","","","","Clear"
"2001-04-14 06:00","2001","04","14","06:00","0.5","","-4.2","","71","","26","","7","","24.1","","99.75","","","","","","Clear"
"2001-04-14 07:00","2001","04","14","07:00","2.4","","-2.7","","69","","28","","6","","24.1","","99.73","","","","","","Clear"
"2001-04-14 08:00","2001","04","14","08:00","4.9","","-2.4","","59","","24","","4","","24.1","","99.71","","","","","","Clear"
"2001-04-14 09:00","2001","04","14","09:00","7.0","","-2.2","","52","","18","","9","","24.1","","99.67","","","","","","Clear"
"2001-04-14 10:00","2001","04","14","10:00","9.2","","-1.8","","46","","15","","11","","24.1","","99.61","","","","","","Clear"
"2001-04-14 11:00","2001","04","14","11:00","9.8","","-2.2","","43","","17","","11","","24.1","","99.53","","","","","","Clear"
"2001-04-14 12:00","2001","04","14","12:00","10.4","","-1.8","","42","","16","","13","","24.1","","99.46","","","","","","Mostly Cloudy"
"2001-04-14 13:00","2001","04","14","13:00","11.4","","0.0","","45","","17","","17","","24.1","","99.38","","","","","","Mostly Cloudy"
"2001-04-14 14:00","2001","04","14","14:00","11.5","","0.4","","46","","16","","13","","24.1","","99.32","","","","","","Mostly Cloudy"
"2001-04-14 15:00","2001","04","14","15:00","12.0","","0.8","","46","","16","","13","","24.1","","99.27","","","","","","Mostly Cloudy"
"2001-04-14 16:00","2001","04","14","16:00","13.5","","1.9","","45","","17","","20","","24.1","","99.20","","","","","","Mainly Clear"
"2001-04-14 17:00","2001","04","14","17:00","8.3","","-0.1","","55","","17","","19","","24.1","","99.22","","","","","","Mostly Cloudy"
"2001-04-14 18:00","2001","04","14","18:00","7.2","","-0.3","","59","","15","","13","","24.1","","99.24","","","","","","Mostly Cloudy"
"2001-04-14 19:00","2001","04","14","19:00","6.5","","-0.1","","63","","17","","11","","24.1","","99.25","","","","","","Mainly Clear"
"2001-04-14 20:00","2001","04","14","20:00","6.7","","0.4","","64","","8","","7","","24.1","","99.30","","","","","","Mostly Cloudy"
"2001-04-14 21:00","2001","04","14","21:00","6.6","","0.2","","64","","9","","11","","24.1","","99.29","","","","","","Mainly Clear"
"2001-04-14 22:00","2001","04","14","22:00","6.0","","0.5","","68","","12","","6","","24.1","","99.29","","","","","","Mainly Clear"
"2001-04-14 23:00","2001","04","14","23:00","6.2","","0.6","","67","","8","","6","","24.1","","99.24","","","","","","Mostly Cloudy"
"2001-04-15 00:00","2001","04","15","00:00","5.8","","0.1","","67","","35","","7","","24.1","","99.27","","","","","","Mainly Clear"
"2001-04-15 01:00","2001","04","15","01:00","5.4","","0.4","","70","","30","","7","","24.1","","99.29","","","","","","Mainly Clear"
"2001-04-15 02:00","2001","04","15","02:00","6.0","","2.4","","78","","34","","13","","19.3","","99.31","","","","","","Clear"
"2001-04-15 03:00","2001","04","15","03:00","5.2","","2.2","","81","","35","","19","","19.3","","99.30","","","","","","Clear"
"2001-04-15 04:00","2001","04","15","04:00","4.5","","1.6","","81","","35","","17","","19.3","","99.28","","","","","","Clear"
"2001-04-15 05:00","2001","04","15","05:00","4.1","","1.2","","81","","34","","11","","19.3","","99.25","","","","","","Mainly Clear"
"2001-04-15 06:00","2001","04","15","06:00","4.5","","0.9","","77","","34","","17","","24.1","","99.28","","","","","","Mainly Clear"
"2001-04-15 07:00","2001","04","15","07:00","4.8","","0.8","","75","","36","","19","","24.1","","99.25","","","","","","Mostly Cloudy"
"2001-04-15 08:00","2001","04","15","08:00","5.7","","1.4","","74","","36","","22","","24.1","","99.24","","","","","","Cloudy"
"2001-04-15 09:00","2001","04","15","09:00","7.0","","1.6","","68","","1","","15","","24.1","","99.19","","","","","","Cloudy"
"2001-04-15 10:00","2001","04","15","10:00","8.9","","1.5","","60","","1","","6","","24.1","","99.18","","","","","","Cloudy"
"2001-04-15 11:00","2001","04","15","11:00","9.6","","0.8","","54","","5","","7","","24.1","","99.11","","","","","","Cloudy"
"2001-04-15 12:00","2001","04","15","12:00","10.1","","0.8","","52","","3","","11","","24.1","","99.07","","","","","","Cloudy"
"2001-04-15 13:00","2001","04","15","13:00","11.2","","1.0","","49","","9","","9","","24.1","","99.06","","","","","","Cloudy"
"2001-04-15 14:00","2001","04","15","14:00","11.1","","2.2","","54","","9","","26","","24.1","","98.94","","","","","","Cloudy"
"2001-04-15 15:00","2001","04","15","15:00","10.1","","1.5","","55","","9","","19","","24.1","","98.88","","","","","","Cloudy"
"2001-04-15 16:00","2001","04","15","16:00","10.0","","1.3","","55","","9","","17","","24.1","","98.83","","","","","","Cloudy"
"2001-04-15 17:00","2001","04","15","17:00","10.0","","1.6","","56","","8","","15","","24.1","","98.81","","","","","","Cloudy"
"2001-04-15 18:00","2001","04","15","18:00","9.5","","1.6","","58","","8","","9","","24.1","","98.84","","","","","","Cloudy"
"2001-04-15 19:00","2001","04","15","19:00","9.0","","1.0","","57","","7","","7","","24.1","","98.86","","","","","","Cloudy"
"2001-04-15 20:00","2001","04","15","20:00","8.9","","0.4","","55","","7","","6","","24.1","","98.91","","","","","","Cloudy"
"2001-04-15 21:00","2001","04","15","21:00","7.8","","2.1","","67","","34","","22","","24.1","","98.94","","","","","","Cloudy"
"2001-04-15 22:00","2001","04","15","22:00","6.7","","0.9","","66","","35","","20","","24.1","","98.95","","","","","","Cloudy"
"2001-04-15 23:00","2001","04","15","23:00","6.5","","0.5","","65","","36","","20","","24.1","","98.95","","","","","","Cloudy"
"2001-04-16 00:00","2001","04","16","00:00","6.0","","0.2","","66","","36","","20","","24.1","","98.96","","","","","","Cloudy"
"2001-04-16 01:00","2001","04","16","01:00","5.9","","0.2","","67","","36","","15","","24.1","","98.95","","","","","","Cloudy"
"2001-04-16 02:00","2001","04","16","02:00","5.5","","0.2","","69","","36","","13","","24.1","","98.93","","","","","","Cloudy"
"2001-04-16 03:00","2001","04","16","03:00","5.5","","0.3","","69","","36","","7","","24.1","","98.95","","","","","","Cloudy"
"2001-04-16 04:00","2001","04","16","04:00","4.9","","0.1","","71","","1","","6","","24.1","","98.98","","","","","","Cloudy"
"2001-04-16 05:00","2001","04","16","05:00","5.1","","0.4","","72","","34","","9","","24.1","","99.00","","","","","","Mostly Cloudy"
"2001-04-16 06:00","2001","04","16","06:00","5.7","","0.2","","68","","1","","7","","19.3","","99.04","","","","","","Cloudy"
"2001-04-16 07:00","2001","04","16","07:00","6.6","","0.1","","63","","2","","6","","19.3","","99.06","","","","","","Cloudy"
"2001-04-16 08:00","2001","04","16","08:00","8.1","","-2.4","","47","","16","","6","","19.3","","99.07","","","","","","Cloudy"
"2001-04-16 09:00","2001","04","16","09:00","8.5","","-6.4","","34","","15","","15","","24.1","","99.05","","","","","","Cloudy"
"2001-04-16 10:00","2001","04","16","10:00","8.5","","-6.9","","33","","15","","15","","24.1","","99.07","","","","","","Cloudy"
"2001-04-16 11:00","2001","04","16","11:00","8.1","","-6.7","","34","","14","","13","","24.1","","99.03","","","","","","Cloudy"
"2001-04-16 12:00","2001","04","16","12:00","9.5","","-6.1","","33","","14","","17","","24.1","","98.96","","","","","","Mostly Cloudy"
"2001-04-16 13:00","2001","04","16","13:00","10.7","","-5.2","","32","","16","","11","","24.1","","98.88","","","","","","Mostly Cloudy"
"2001-04-16 14:00","2001","04","16","14:00","11.0","","-3.3","","37","","15","","13","","24.1","","98.81","","","","","","Mostly Cloudy"
"2001-04-16 15:00","2001","04","16","15:00","10.9","","-2.2","","40","","16","","17","","19.3","","98.76","","","","","","Mostly Cloudy"
"2001-04-16 16:00","2001","04","16","16:00","9.1","","-3.0","","42","","14","","17","","19.3","","98.75","","","","","","Cloudy"
"2001-04-16 17:00","2001","04","16","17:00","7.6","","-3.1","","47","","12","","15","","24.1","","98.72","","","","","","Cloudy"
"2001-04-16 18:00","2001","04","16","18:00","7.8","","-1.3","","53","","26","","22","","19.3","","98.74","","","","","","Cloudy"
"2001-04-16 19:00","2001","04","16","19:00","5.7","","2.9","","82","","29","","24","","9.7","","98.79","","","","","","Rain Showers,Fog"
"2001-04-16 20:00","2001","04","16","20:00","3.1","","0.5","","83","","28","","30","","24.1","","98.84","","","","","","Rain"
"2001-04-16 21:00","2001","04","16","21:00","3.2","","0.7","","84","","30","","17","","24.1","","98.91","","","","","","Rain"
"2001-04-16 22:00","2001","04","16","22:00","3.4","","0.3","","80","","30","","20","","24.1","","98.88","","","","","","Cloudy"
"2001-04-16 23:00","2001","04","16","23:00","3.1","","0.1","","81","","30","","22","","24.1","","98.88","","","","","","Cloudy"
"2001-04-17 00:00","2001","04","17","00:00","2.9","","-0.5","","78","","32","","19","","24.1","","98.90","","","","","","Cloudy"
"2001-04-17 01:00","2001","04","17","01:00","2.7","","-1.1","","76","","32","","24","","24.1","","98.92","","","","","","Cloudy"
"2001-04-17 02:00","2001","04","17","02:00","2.3","","-1.4","","77","","31","","20","","24.1","","98.87","","","","","","Cloudy"
"2001-04-17 03:00","2001","04","17","03:00","2.3","","-1.3","","77","","32","","22","","24.1","","98.86","","","","","","Cloudy"
"2001-04-17 04:00","2001","04","17","04:00","2.2","","-1.1","","79","","30","","13","","24.1","","98.88","","","","","","Cloudy"
"2001-04-17 05:00","2001","04","17","05:00","2.3","","-1.1","","78","","31","","13","","24.1","","98.90","","","","","","Mostly Cloudy"
"2001-04-17 06:00","2001","04","17","06:00","2.7","","-1.1","","76","","33","","22","","24.1","","98.93","","","","","","Cloudy"
"2001-04-17 07:00","2001","04","17","07:00","2.8","","-1.2","","75","","36","","28","","24.1","","98.97","","","","","","Mainly Clear"
"2001-04-17 08:00","2001","04","17","08:00","5.4","","-4.0","","51","","4","","28","","24.1","","99.01","","","","","","Mostly Cloudy"
"2001-04-17 09:00","2001","04","17","09:00","6.0","","-5.9","","42","","5","","24","","24.1","","99.05","","","","","","Mostly Cloudy"
"2001-04-17 10:00","2001","04","17","10:00","6.8","","-6.5","","38","","3","","20","","24.1","","99.12","","","","","","Cloudy"
"2001-04-17 11:00","2001","04","17","11:00","8.1","","-6.7","","34","","36","","28","","24.1","","99.15","","","","","","Cloudy"
"2001-04-17 12:00","2001","04","17","12:00","7.5","","-6.6","","36","","2","","32","","24.1","","99.18","","","","","","Cloudy"
"2001-04-17 13:00","2001","04","17","13:00","7.9","","-6.8","","34","","36","","33","","24.1","","99.20","","","","","","Cloudy"
"2001-04-17 14:00","2001","04","17","14:00","8.2","","-7.7","","32","","3","","28","","24.1","","99.22","","","","","","Cloudy"
"2001-04-17 15:00","2001","04","17","15:00","8.5","","-6.7","","33","","34","","41","","24.1","","99.22","","","","","","Mostly Cloudy"
"2001-04-17 16:00","2001","04","17","16:00","6.7","","-8.9","","32","","34","","44","","24.1","","99.27","","","","","","Mostly Cloudy"
"2001-04-17 17:00","2001","04","17","17:00","5.4","","-10.4","","31","","35","","44","","24.1","","99.36","","","","","","Mostly Cloudy"
"2001-04-17 18:00","2001","04","17","18:00","4.5","","-10.0","","34","","34","","39","","24.1","","99.39","","","","","","Mostly Cloudy"
"2001-04-17 19:00","2001","04","17","19:00","3.5","","-10.0","","36","","34","","39","","24.1","","99.44","","","","","","Mainly Clear"
"2001-04-17 20:00","2001","04","17","20:00","2.7","","-10.5","","37","","34","","33","","24.1","","99.52","","","","","","Mainly Clear"
"2001-04-17 21:00","2001","04","17","21:00","1.8","","-9.0","","45","","34","","33","","24.1","","99.60","","","","","","Clear"
"2001-04-17 22:00","2001","04","17","22:00","1.3","","-9.1","","46","","35","","30","","24.1","","99.64","","","","","","Clear"
"2001-04-17 23:00","2001","04","17","23:00","1.1","","-10.3","","42","","35","","22","","24.1","","99.66","","","","","","Mainly Clear"
"2001-04-18 00:00","2001","04","18","00:00","0.6","","-10.7","","42","","35","","20","","24.1","","99.69","","","","","","Mainly Clear"
"2001-04-18 01:00","2001","04","18","01:00","-0.2","","-10.3","","46","","35","","19","","24.1","","99.69","","","","-5","","Clear"
"2001-04-18 02:00","2001","04","18","02:00","-0.8","","-9.7","","51","","34","","19","","24.1","","99.67","","","","-6","","Clear"
"2001-04-18 03:00","2001","04","18","03:00","-1.0","","-9.6","","52","","35","","19","","24.1","","99.67","","","","-6","","Clear"
"2001-04-18 04:00","2001","04","18","04:00","-1.5","","-9.5","","54","","34","","20","","24.1","","99.69","","","","-7","","Clear"
"2001-04-18 05:00","2001","04","18","05:00","-1.5","","-9.4","","55","","33","","19","","24.1","","99.71","","","","-7","","Clear"
"2001-04-18 06:00","2001","04","18","06:00","-1.4","","-8.7","","58","","34","","24","","24.1","","99.76","","","","-8","","Clear"
"2001-04-18 07:00","2001","04","18","07:00","-0.6","","-8.1","","57","","34","","22","","24.1","","99.80","","","","-6","","Mainly Clear"
"2001-04-18 08:00","2001","04","18","08:00","0.7","","-7.9","","53","","36","","26","","24.1","","99.82","","","","","","Mostly Cloudy"
"2001-04-18 09:00","2001","04","18","09:00","1.4","","-8.0","","50","","34","","30","","24.1","","99.82","","","","","","Mostly Cloudy"
"2001-04-18 10:00","2001","04","18","10:00","0.8","","-9.0","","48","","34","","30","","24.1","","99.84","","","","","","Snow Showers"
"2001-04-18 11:00","2001","04","18","11:00","2.0","","-9.3","","43","","33","","28","","24.1","","99.81","","","","","","Snow Showers"
"2001-04-18 12:00","2001","04","18","12:00","3.1","","-9.3","","40","","34","","32","","24.1","","99.74","","","","","","Mostly Cloudy"
"2001-04-18 13:00","2001","04","18","13:00","2.9","","-9.4","","40","","31","","24","","24.1","","99.70","","","","","","Mostly Cloudy"
"2001-04-18 14:00","2001","04","18","14:00","5.3","","-9.5","","33","","31","","30","","24.1","","99.69","","","","","","Mainly Clear"
"2001-04-18 15:00","2001","04","18","15:00","5.3","","-10.1","","32","","33","","19","","24.1","","99.65","","","","","","Mainly Clear"
"2001-04-18 16:00","2001","04","18","16:00","4.6","","-10.7","","32","","36","","22","","24.1","","99.64","","","","","","Mainly Clear"
"2001-04-18 17:00","2001","04","18","17:00","4.3","","-11.7","","30","","36","","33","","24.1","","99.68","","","","","","Clear"
"2001-04-18 18:00","2001","04","18","18:00","3.4","","-12.6","","30","","1","","30","","24.1","","99.73","","","","","","Mainly Clear"
"2001-04-18 19:00","2001","04","18","19:00","2.3","","-12.9","","31","","35","","24","","24.1","","99.75","","","","","","Mainly Clear"
"2001-04-18 20:00","2001","04","18","20:00","1.3","","-12.2","","36","","35","","17","","24.1","","99.80","","","","","","Clear"
"2001-04-18 21:00","2001","04","18","21:00","0.6","","-11.7","","39","","33","","15","","24.1","","99.84","","","","","","Clear"
"2001-04-18 22:00","2001","04","18","22:00","0.2","","-11.2","","42","","31","","11","","24.1","","99.84","","","","","","Clear"
"2001-04-18 23:00","2001","04","18","23:00","-0.4","","-11.0","","45","","30","","15","","24.1","","99.86","","","","-5","","Clear"
"2001-04-19 00:00","2001","04","19","00:00","-1.2","","-10.1","","51","","32","","11","","24.1","","99.88","","","","-5","","Clear"
"2001-04-19 01:00","2001","04","19","01:00","-1.6","","-9.1","","57","","32","","13","","24.1","","99.86","","","","-6","","Clear"
"2001-04-19 02:00","2001","04","19","02:00","-2.2","","-8.6","","61","","31","","6","","24.1","","99.87","","","","-5","","Clear"
"2001-04-19 03:00","2001","04","19","03:00","-2.8","","-8.3","","66","","","","0","","24.1","","99.91","","","","","","Clear"
"2001-04-19 04:00","2001","04","19","04:00","-2.0","","-8.5","","61","","29","","9","","24.1","","99.92","","","","-5","","Clear"
"2001-04-19 05:00","2001","04","19","05:00","-3.1","","-8.8","","65","","29","","9","","24.1","","99.95","","","","-7","","Clear"
"2001-04-19 06:00","2001","04","19","06:00","-2.4","","-8.5","","63","","27","","4","","24.1","","100.02","","","","-4","","Clear"
"2001-04-19 07:00","2001","04","19","07:00","-0.2","","-7.2","","59","","28","","6","","24.1","","100.09","","","","-2","","Clear"
"2001-04-19 08:00","2001","04","19","08:00","3.2","","-8.6","","42","","24","","9","","24.1","","100.12","","","","","","Clear"
"2001-04-19 09:00","2001","04","19","09:00","5.4","","-9.4","","33","","26","","13","","24.1","","100.13","","","","","","Clear"
"2001-04-19 10:00","2001","04","19","10:00","6.6","","-9.0","","32","","19","","7","","24.1","","100.14","","","","","","Mainly Clear"
"2001-04-19 11:00","2001","04","19","11:00","7.7","","-8.3","","31","","22","","9","","24.1","","100.14","","","","","","Mainly Clear"
"2001-04-19 12:00","2001","04","19","12:00","9.0","","-8.0","","29","","24","","9","","24.1","","100.11","","","","","","Mainly Clear"
"2001-04-19 13:00","2001","04","19","13:00","10.4","","-6.5","","30","","24","","11","","24.1","","100.09","","","","","","Mainly Clear"
"2001-04-19 14:00","2001","04","19","14:00","11.7","","-5.8","","29","","19","","17","","24.1","","100.08","","","","","","Mainly Clear"
"2001-04-19 15:00","2001","04","19","15:00","10.1","","-6.4","","31","","14","","22","","24.1","","100.05","","","","","","Mainly Clear"
"2001-04-19 16:00","2001","04","19","16:00","9.9","","-5.5","","33","","17","","19","","24.1","","100.01","","","","","","Mostly Cloudy"
"2001-04-19 17:00","2001","04","19","17:00","10.4","","-4.2","","36","","17","","15","","24.1","","100.02","","","","","","Mainly Clear"
"2001-04-19 18:00","2001","04","19","18:00","9.5","","-4.9","","36","","17","","19","","24.1","","100.02","","","","","","Mostly Cloudy"
"2001-04-19 19:00","2001","04","19","19:00","8.1","","-5.8","","37","","17","","19","","24.1","","100.05","","","","","","Mainly Clear"
"2001-04-19 20:00","2001","04","19","20:00","7.2","","-6.4","","37","","19","","19","","24.1","","100.13","","","","","","Clear"
"2001-04-19 21:00","2001","04","19","21:00","6.4","","-6.4","","39","","18","","11","","24.1","","100.16","","","","","","Clear"
"2001-04-19 22:00","2001","04","19","22:00","6.3","","-7.2","","37","","20","","7","","24.1","","100.17","","","","","","Clear"
"2001-04-19 23:00","2001","04","19","23:00","5.2","","-7.6","","39","","20","","7","","24.1","","100.16","","","","","","Clear"
"2001-04-20 00:00","2001","04","20","00:00","4.6","","-8.5","","38","","19","","4","","24.1","","100.17","","","","","","Clear"
"2001-04-20 01:00","2001","04","20","01:00","4.2","","-8.2","","40","","18","","4","","24.1","","100.17","","","","","","Mainly Clear"
"2001-04-20 02:00","2001","04","20","02:00","3.4","","-8.2","","42","","","","0","","24.1","","100.17","","","","","","Clear"
"2001-04-20 03:00","2001","04","20","03:00","2.8","","-5.9","","53","","9","","6","","24.1","","100.15","","","","","","Mostly Cloudy"
"2001-04-20 04:00","2001","04","20","04:00","3.0","","-4.6","","57","","8","","6","","24.1","","100.15","","","","","","Mostly Cloudy"
"2001-04-20 05:00","2001","04","20","05:00","4.4","","-5.1","","50","","7","","6","","24.1","","100.13","","","","","","Mostly Cloudy"
"2001-04-20 06:00","2001","04","20","06:00","4.4","","-6.4","","45","","10","","11","","24.1","","100.16","","","","","","Mostly Cloudy"
"2001-04-20 07:00","2001","04","20","07:00","5.2","","-5.3","","47","","8","","7","","19.3","","100.18","","","","","","Mainly Clear"
"2001-04-20 08:00","2001","04","20","08:00","7.8","","-3.9","","43","","13","","11","","24.1","","100.13","","","","","","Mostly Cloudy"
"2001-04-20 09:00","2001","04","20","09:00","9.3","","-4.6","","37","","14","","17","","24.1","","100.13","","","","","","Mostly Cloudy"
"2001-04-20 10:00","2001","04","20","10:00","8.5","","-5.3","","37","","14","","11","","24.1","","100.11","","","","","","Cloudy"
"2001-04-20 11:00","2001","04","20","11:00","9.0","","-4.4","","38","","15","","13","","24.1","","100.10","","","","","","Cloudy"
"2001-04-20 12:00","2001","04","20","12:00","9.3","","-3.4","","41","","16","","11","","24.1","","100.11","","","","","","Cloudy"
"2001-04-20 13:00","2001","04","20","13:00","9.8","","-2.7","","41","","14","","15","","19.3","","100.09","","","","","","Cloudy"
"2001-04-20 14:00","2001","04","20","14:00","9.6","","-0.7","","49","","16","","13","","19.3","","100.09","","","","","","Cloudy"
"2001-04-20 15:00","2001","04","20","15:00","10.4","","1.9","","56","","18","","17","","24.1","","100.04","","","","","","Cloudy"
"2001-04-20 16:00","2001","04","20","16:00","10.0","","3.5","","64","","18","","17","","16.1","","100.00","","","","","","Cloudy"
"2001-04-20 17:00","2001","04","20","17:00","9.6","","3.8","","67","","17","","20","","24.1","","100.01","","","","","","Cloudy"
"2001-04-20 18:00","2001","04","20","18:00","9.4","","3.9","","68","","17","","19","","24.1","","100.00","","","","","","Cloudy"
"2001-04-20 19:00","2001","04","20","19:00","9.0","","3.9","","70","","17","","19","","24.1","","100.00","","","","","","Cloudy"
"2001-04-20 20:00","2001","04","20","20:00","8.6","","3.8","","72","","16","","15","","19.3","","100.01","","","","","","Cloudy"
"2001-04-20 21:00","2001","04","20","21:00","8.3","","3.8","","73","","14","","15","","19.3","","100.02","","","","","","Cloudy"
"2001-04-20 22:00","2001","04","20","22:00","7.9","","4.1","","77","","14","","11","","16.1","","100.03","","","","","","Cloudy"
"2001-04-20 23:00","2001","04","20","23:00","7.9","","4.3","","78","","14","","11","","16.1","","100.02","","","","","","Cloudy"
"2001-04-21 00:00","2001","04","21","00:00","7.9","","4.6","","80","","14","","9","","12.9","","100.00","","","","","","Cloudy"
"2001-04-21 01:00","2001","04","21","01:00","7.5","","4.8","","83","","11","","9","","8.0","","99.97","","","","","","Drizzle"
"2001-04-21 02:00","2001","04","21","02:00","7.2","","5.2","","87","","11","","11","","6.4","","99.93","","","","","","Rain,Fog"
"2001-04-21 03:00","2001","04","21","03:00","7.5","","5.6","","88","","12","","15","","8.0","","99.89","","","","","","Fog"
"2001-04-21 04:00","2001","04","21","04:00","7.2","","5.7","","90","","13","","11","","4.8","","99.91","","","","","","Drizzle,Fog"
"2001-04-21 05:00","2001","04","21","05:00","7.5","","6.3","","92","","13","","11","","2.4","","99.93","","","","","","Drizzle,Fog"
"2001-04-21 06:00","2001","04","21","06:00","7.5","","6.4","","93","","13","","11","","1.0","","99.91","","","","","","Drizzle,Fog"
"2001-04-21 07:00","2001","04","21","07:00","8.0","","7.1","","94","","13","","9","","1.0","","99.91","","","","","","Fog"
"2001-04-21 08:00","2001","04","21","08:00","8.4","","7.2","","92","","13","","13","","2.4","","99.95","","","","","","Rain Showers,Fog"
"2001-04-21 09:00","2001","04","21","09:00","9.4","","7.7","","89","","13","","15","","4.8","","99.87","","","","","","Fog"
"2001-04-21 10:00","2001","04","21","10:00","10.3","","8.4","","88","","15","","17","","4.8","","99.90","","","","","","Fog"
"2001-04-21 11:00","2001","04","21","11:00","10.1","","8.2","","88","","13","","11","","4.8","","99.84","","","","","","Fog"
"2001-04-21 12:00","2001","04","21","12:00","11.0","","8.3","","83","","18","","13","","8.0","","99.79","","","","","","Haze"
"2001-04-21 13:00","2001","04","21","13:00","11.2","","8.2","","82","","15","","13","","8.0","","99.72","","","","","","Haze"
"2001-04-21 14:00","2001","04","21","14:00","10.5","","8.2","","86","","16","","15","","4.8","","99.68","","","","","","Rain Showers,Haze"
"2001-04-21 15:00","2001","04","21","15:00","10.3","","8.9","","91","","16","","13","","2.4","","99.58","","","","","","Rain Showers,Fog"
"2001-04-21 16:00","2001","04","21","16:00","10.5","","9.4","","93","","15","","11","","1.6","","99.57","","","","","","Rain Showers,Fog"
"2001-04-21 17:00","2001","04","21","17:00","11.9","","10.8","","93","","18","","17","","2.8","","99.55","","","","","","Fog"
"2001-04-21 18:00","2001","04","21","18:00","12.9","","11.1","","89","","18","","13","","6.4","","99.53","","","","","","Fog"
"2001-04-21 19:00","2001","04","21","19:00","12.2","","10.5","","89","","15","","9","","6.4","","99.46","","","","","","Fog"
"2001-04-21 20:00","2001","04","21","20:00","12.0","","10.3","","89","","15","","9","","6.4","","99.48","","","","","","Fog"
"2001-04-21 21:00","2001","04","21","21:00","11.8","","10.1","","89","","14","","7","","6.4","","99.50","","","","","","Fog"
"2001-04-21 22:00","2001","04","21","22:00","12.1","","10.1","","88","","18","","11","","8.0","","99.47","","","","","","Fog"
"2001-04-21 23:00","2001","04","21","23:00","13.5","","11.0","","85","","20","","17","","8.0","","99.45","","","","","","Haze"
"2001-04-22 00:00","2001","04","22","00:00","17.0","","13.1","","78","","22","","22","","9.7","","99.43","","","","","","Haze"
"2001-04-22 01:00","2001","04","22","01:00","17.7","","13.7","","77","","23","","33","","14.5","","99.38","","","","","","Clear"
"2001-04-22 02:00","2001","04","22","02:00","17.5","","13.8","","79","","24","","32","","16.1","","99.36","","","","","","Clear"
"2001-04-22 03:00","2001","04","22","03:00","18.3","","13.8","","75","","26","","39","","16.1","","99.45","","","","","","Mainly Clear"
"2001-04-22 04:00","2001","04","22","04:00","16.7","","11.0","","69","","28","","33","","19.3","","99.57","","","","","","Clear"
"2001-04-22 05:00","2001","04","22","05:00","14.4","","8.8","","69","","30","","30","","19.3","","99.74","","","","","","Mainly Clear"
"2001-04-22 06:00","2001","04","22","06:00","12.6","","7.5","","71","","29","","46","","24.1","","99.87","","","","","","Clear"
"2001-04-22 07:00","2001","04","22","07:00","12.3","","6.8","","69","","29","","39","","24.1","","99.97","","","","","","Clear"
"2001-04-22 08:00","2001","04","22","08:00","13.2","","6.7","","65","","30","","41","","24.1","","100.06","","","","","","Clear"
"2001-04-22 09:00","2001","04","22","09:00","14.2","","7.2","","63","","31","","32","","24.1","","100.16","","","","","","Mainly Clear"
"2001-04-22 10:00","2001","04","22","10:00","14.8","","7.0","","60","","30","","26","","24.1","","100.24","","","","","","Mostly Cloudy"
"2001-04-22 11:00","2001","04","22","11:00","15.3","","7.3","","59","","31","","24","","24.1","","100.29","","","","","","Mostly Cloudy"
"2001-04-22 12:00","2001","04","22","12:00","16.7","","7.8","","56","","29","","17","","24.1","","100.29","","","","","","Mostly Cloudy"
"2001-04-22 13:00","2001","04","22","13:00","18.2","","8.2","","52","","35","","11","","24.1","","100.31","","","","","","Mostly Cloudy"
"2001-04-22 14:00","2001","04","22","14:00","19.3","","8.4","","49","","30","","7","","24.1","","100.29","","","","","","Mostly Cloudy"
"2001-04-22 15:00","2001","04","22","15:00","20.2","","8.1","","46","","","","0","","24.1","","100.24","","","","","","Mostly Cloudy"
"2001-04-22 16:00","2001","04","22","16:00","18.1","","8.2","","52","","16","","15","","24.1","","100.28","","","","","","Mostly Cloudy"
"2001-04-22 17:00","2001","04","22","17:00","16.8","","7.6","","55","","12","","13","","24.1","","100.28","","","","","","Mostly Cloudy"
"2001-04-22 18:00","2001","04","22","18:00","16.5","","7.1","","54","","14","","9","","24.1","","100.29","","","","","","Mostly Cloudy"
"2001-04-22 19:00","2001","04","22","19:00","13.5","","6.6","","63","","17","","11","","24.1","","100.24","","","","","","Mostly Cloudy"
"2001-04-22 20:00","2001","04","22","20:00","12.1","","6.2","","67","","10","","6","","24.1","","100.27","","","","","","Mostly Cloudy"
"2001-04-22 21:00","2001","04","22","21:00","12.5","","6.5","","67","","","","0","","24.1","","100.31","","","","","","Mainly Clear"
"2001-04-22 22:00","2001","04","22","22:00","12.4","","6.7","","68","","14","","7","","24.1","","100.27","","","","","","Mostly Cloudy"
"2001-04-22 23:00","2001","04","22","23:00","11.7","","6.2","","69","","15","","9","","24.1","","100.22","","","","","","Mostly Cloudy"
"2001-04-23 00:00","2001","04","23","00:00","11.7","","5.8","","67","","10","","13","","24.1","","100.15","","","","","","Mostly Cloudy"
"2001-04-23 01:00","2001","04","23","01:00","12.2","","6.1","","66","","14","","9","","24.1","","100.12","","","","","","Cloudy"
"2001-04-23 02:00","2001","04","23","02:00","13.1","","6.2","","63","","11","","9","","24.1","","100.01","","","","","","Mostly Cloudy"
"2001-04-23 03:00","2001","04","23","03:00","13.6","","5.7","","59","","13","","11","","24.1","","99.92","","","","","","Mainly Clear"
"2001-04-23 04:00","2001","04","23","04:00","12.4","","6.7","","68","","15","","4","","24.1","","99.87","","","","","","Clear"
"2001-04-23 05:00","2001","04","23","05:00","11.7","","6.6","","71","","9","","4","","24.1","","99.82","","","","","","Mainly Clear"
"2001-04-23 06:00","2001","04","23","06:00","11.8","","6.6","","70","","10","","6","","19.3","","99.82","","","","","","Mostly Cloudy"
"2001-04-23 07:00","2001","04","23","07:00","12.3","","6.5","","68","","10","","11","","19.3","","99.81","","","","","","Mostly Cloudy"
"2001-04-23 08:00","2001","04","23","08:00","13.3","","7.2","","67","","18","","7","","16.1","","99.72","","","","","","Mostly Cloudy"
"2001-04-23 09:00","2001","04","23","09:00","13.5","","8.0","","69","","18","","9","","16.1","","99.66","","","","","","Mostly Cloudy"
"2001-04-23 10:00","2001","04","23","10:00","15.3","","9.0","","66","","16","","11","","12.9","","99.54","","","","","","Mostly Cloudy"
"2001-04-23 11:00","2001","04","23","11:00","16.6","","9.6","","63","","15","","13","","12.9","","99.47","","","","","","Mostly Cloudy"
"2001-04-23 12:00","2001","04","23","12:00","18.2","","10.6","","61","","17","","20","","12.9","","99.38","","","","","","Cloudy"
"2001-04-23 13:00","2001","04","23","13:00","19.7","","10.8","","56","","17","","15","","19.3","","99.26","","","","","","Mostly Cloudy"
"2001-04-23 14:00","2001","04","23","14:00","22.1","","11.4","","51","","16","","17","","19.3","","99.14","","","","","","Mostly Cloudy"
"2001-04-23 15:00","2001","04","23","15:00","26.5","","13.8","","46","","23","","43","","19.3","","99.05","","30","","","","Mostly Cloudy"
"2001-04-23 16:00","2001","04","23","16:00","27.1","","13.7","","44","","23","","37","","16.1","","98.90","","30","","","","Mostly Cloudy"
"2001-04-23 17:00","2001","04","23","17:00","26.4","","13.4","","45","","23","","39","","19.3","","98.83","","29","","","","Mainly Clear"
"2001-04-23 18:00","2001","04","23","18:00","25.5","","13.4","","47","","23","","37","","19.3","","98.77","","29","","","","Mainly Clear"
"2001-04-23 19:00","2001","04","23","19:00","24.6","","13.1","","49","","22","","32","","19.3","","98.72","","27","","","","Mainly Clear"
"2001-04-23 20:00","2001","04","23","20:00","23.6","","12.1","","48","","22","","19","","19.3","","98.69","","26","","","","Clear"
"2001-04-23 21:00","2001","04","23","21:00","22.7","","11.1","","48","","22","","24","","19.3","","98.65","","25","","","","Mainly Clear"
"2001-04-23 22:00","2001","04","23","22:00","22.4","","10.4","","47","","22","","30","","24.1","","98.57","","","","","","Mostly Cloudy"
"2001-04-23 23:00","2001","04","23","23:00","21.7","","10.8","","50","","22","","22","","24.1","","98.50","","","","","","Mostly Cloudy"
"2001-04-24 00:00","2001","04","24","00:00","21.2","","11.4","","54","","23","","37","","24.1","","98.44","","","","","","Mostly Cloudy"
"2001-04-24 01:00","2001","04","24","01:00","20.2","","11.3","","57","","24","","43","","24.1","","98.40","","","","","","Mainly Clear"
"2001-04-24 02:00","2001","04","24","02:00","18.7","","12.1","","65","","24","","28","","24.1","","98.40","","","","","","Mostly Cloudy"
"2001-04-24 03:00","2001","04","24","03:00","15.8","","10.8","","72","","27","","32","","24.1","","98.49","","","","","","Mostly Cloudy"
"2001-04-24 04:00","2001","04","24","04:00","12.3","","6.0","","65","","28","","37","","24.1","","98.56","","","","","","Cloudy"
"2001-04-24 05:00","2001","04","24","05:00","10.5","","3.4","","61","","29","","30","","24.1","","98.67","","","","","","Cloudy"
"2001-04-24 06:00","2001","04","24","06:00","9.8","","2.9","","62","","27","","32","","24.1","","98.81","","","","","","Mostly Cloudy"
"2001-04-24 07:00","2001","04","24","07:00","9.9","","2.7","","61","","27","","43","","24.1","","98.89","","","","","","Cloudy"
"2001-04-24 08:00","2001","04","24","08:00","10.5","","1.3","","53","","25","","35","","24.1","","98.92","","","","","","Mostly Cloudy"
"2001-04-24 09:00","2001","04","24","09:00","11.5","","1.9","","52","","24","","30","","24.1","","98.94","","","","","","Mostly Cloudy"
"2001-04-24 10:00","2001","04","24","10:00","10.2","","1.3","","54","","27","","46","","24.1","","99.01","","","","","","Rain Showers"
"2001-04-24 11:00","2001","04","24","11:00","9.4","","2.2","","61","","28","","48","","24.1","","99.13","","","","","","Rain Showers"
"2001-04-24 12:00","2001","04","24","12:00","8.5","","-0.1","","55","","29","","54","","24.1","","99.24","","","","","","Mostly Cloudy"
"2001-04-24 13:00","2001","04","24","13:00","8.4","","-1.4","","50","","28","","48","","24.1","","99.39","","","","","","Mostly Cloudy"
"2001-04-24 14:00","2001","04","24","14:00","7.0","","-2.4","","51","","28","","54","","24.1","","99.52","","","","","","Mostly Cloudy"
"2001-04-24 15:00","2001","04","24","15:00","6.8","","-2.8","","50","","30","","48","","24.1","","99.61","","","","","","Rain Showers"
"2001-04-24 16:00","2001","04","24","16:00","7.1","","-2.3","","51","","29","","56","","24.1","","99.76","","","","","","Mostly Cloudy"
"2001-04-24 17:00","2001","04","24","17:00","6.7","","-3.0","","50","","29","","50","","24.1","","99.87","","","","","","Mostly Cloudy"
"2001-04-24 18:00","2001","04","24","18:00","5.7","","-1.7","","59","","32","","43","","24.1","","99.98","","","","","","Mostly Cloudy"
"2001-04-24 19:00","2001","04","24","19:00","5.8","","-2.0","","57","","32","","33","","24.1","","100.04","","","","","","Mainly Clear"
"2001-04-24 20:00","2001","04","24","20:00","4.3","","-3.2","","58","","32","","26","","24.1","","100.21","","","","","","Clear"
"2001-04-24 21:00","2001","04","24","21:00","3.7","","-3.2","","61","","33","","22","","24.1","","100.32","","","","","","Clear"
"2001-04-24 22:00","2001","04","24","22:00","3.0","","-3.5","","62","","32","","15","","24.1","","100.41","","","","","","Clear"
"2001-04-24 23:00","2001","04","24","23:00","2.1","","-4.0","","64","","29","","9","","24.1","","100.39","","","","","","Clear"
"2001-04-25 00:00","2001","04","25","00:00","1.3","","-4.0","","68","","26","","7","","24.1","","100.43","","","","","","Clear"
"2001-04-25 01:00","2001","04","25","01:00","0.2","","-4.1","","73","","26","","9","","24.1","","100.46","","","","","","Clear"
"2001-04-25 02:00","2001","04","25","02:00","0.6","","-3.9","","72","","27","","7","","24.1","","100.42","","","","","","Clear"
"2001-04-25 03:00","2001","04","25","03:00","1.1","","-3.6","","71","","28","","4","","24.1","","100.41","","","","","","Clear"
"2001-04-25 04:00","2001","04","25","04:00","0.4","","-3.8","","73","","27","","4","","24.1","","100.42","","","","","","Clear"
"2001-04-25 05:00","2001","04","25","05:00","-0.1","","-4.5","","72","","30","","9","","24.1","","100.40","","","","-3","","Clear"
"2001-04-25 06:00","2001","04","25","06:00","1.1","","-4.0","","69","","1","","4","","24.1","","100.43","","","","","","Clear"
"2001-04-25 07:00","2001","04","25","07:00","3.4","","-3.2","","62","","25","","4","","24.1","","100.51","","","","","","Clear"
"2001-04-25 08:00","2001","04","25","08:00","7.2","","-3.8","","45","","24","","15","","24.1","","100.56","","","","","","Clear"
"2001-04-25 09:00","2001","04","25","09:00","9.1","","-4.2","","39","","24","","7","","24.1","","100.59","","","","","","Clear"
"2001-04-25 10:00","2001","04","25","10:00","10.0","","-3.8","","38","","35","","7","","24.1","","100.58","","","","","","Mainly Clear"
"2001-04-25 11:00","2001","04","25","11:00","11.1","","-5.3","","31","","30","","6","","24.1","","100.56","","","","","","Mainly Clear"
"2001-04-25 12:00","2001","04","25","12:00","12.8","","-4.0","","31","","14","","7","","24.1","","100.50","","","","","","Mostly Cloudy"
"2001-04-25 13:00","2001","04","25","13:00","11.8","","-4.4","","32","","18","","22","","24.1","","100.45","","","","","","Mainly Clear"
"2001-04-25 14:00","2001","04","25","14:00","12.8","","-5.2","","28","","17","","28","","24.1","","100.45","","","","","","Mainly Clear"
"2001-04-25 15:00","2001","04","25","15:00","13.2","","-5.4","","27","","16","","22","","24.1","","100.40","","","","","","Mainly Clear"
"2001-04-25 16:00","2001","04","25","16:00","12.9","","-5.3","","28","","17","","17","","24.1","","100.36","","","","","","Mainly Clear"
"2001-04-25 17:00","2001","04","25","17:00","12.8","","-4.4","","30","","16","","17","","24.1","","100.34","","","","","","Clear"
"2001-04-25 18:00","2001","04","25","18:00","12.5","","-3.9","","32","","18","","13","","24.1","","100.33","","","","","","Clear"
"2001-04-25 19:00","2001","04","25","19:00","11.3","","-4.4","","33","","18","","13","","24.1","","100.35","","","","","","Clear"
"2001-04-25 20:00","2001","04","25","20:00","10.4","","-3.7","","37","","22","","20","","24.1","","100.38","","","","","","Clear"
"2001-04-25 21:00","2001","04","25","21:00","9.3","","-4.4","","38","","22","","19","","24.1","","100.42","","","","","","Clear"
"2001-04-25 22:00","2001","04","25","22:00","8.1","","-4.2","","41","","23","","17","","24.1","","100.45","","","","","","Clear"
"2001-04-25 23:00","2001","04","25","23:00","7.2","","-4.1","","44","","24","","13","","24.1","","100.42","","","","","","Clear"
"2001-04-26 00:00","2001","04","26","00:00","6.8","","-4.9","","43","","25","","17","","24.1","","100.39","","","","","","Clear"
"2001-04-26 01:00","2001","04","26","01:00","5.9","","-5.0","","45","","24","","13","","24.1","","100.35","","","","","","Clear"
"2001-04-26 02:00","2001","04","26","02:00","5.9","","-5.0","","45","","24","","13","","24.1","","100.31","","","","","","Clear"
"2001-04-26 03:00","2001","04","26","03:00","4.7","","-4.9","","50","","26","","6","","24.1","","100.30","","","","","","Clear"
"2001-04-26 04:00","2001","04","26","04:00","4.5","","-4.8","","51","","27","","9","","24.1","","100.30","","","","","","Clear"
"2001-04-26 05:00","2001","04","26","05:00","3.8","","-4.3","","55","","25","","6","","24.1","","100.31","","","","","","Mainly Clear"
"2001-04-26 06:00","2001","04","26","06:00","5.9","","-4.3","","48","","18","","7","","24.1","","100.35","","","","","","Mainly Clear"
"2001-04-26 07:00","2001","04","26","07:00","7.5","","-3.0","","47","","16","","7","","24.1","","100.40","","","","","","Clear"
"2001-04-26 08:00","2001","04","26","08:00","10.4","","-3.1","","39","","22","","11","","24.1","","100.42","","","","","","Clear"
"2001-04-26 09:00","2001","04","26","09:00","12.8","","-4.2","","30","","22","","26","","24.1","","100.39","","","","","","Mainly Clear"
"2001-04-26 10:00","2001","04","26","10:00","15.1","","-3.0","","29","","21","","22","","24.1","","100.34","","","","","","Clear"
"2001-04-26 11:00","2001","04","26","11:00","16.0","","-1.7","","30","","20","","20","","24.1","","100.26","","","","","","Clear"
"2001-04-26 12:00","2001","04","26","12:00","16.4","","-0.6","","31","","19","","22","","24.1","","100.17","","","","","","Clear"
"2001-04-26 13:00","2001","04","26","13:00","16.5","","-0.7","","31","","17","","26","","24.1","","100.07","","","","","","Mainly Clear"
"2001-04-26 14:00","2001","04","26","14:00","16.9","","-1.1","","29","","17","","32","","24.1","","99.99","","","","","","Mostly Cloudy"
"2001-04-26 15:00","2001","04","26","15:00","17.3","","-0.9","","29","","19","","22","","24.1","","99.91","","","","","","Mostly Cloudy"
"2001-04-26 16:00","2001","04","26","16:00","16.5","","-2.0","","28","","17","","32","","24.1","","99.81","","","","","","Mostly Cloudy"
"2001-04-26 17:00","2001","04","26","17:00","17.3","","-2.8","","25","","22","","22","","24.1","","99.77","","","","","","Mostly Cloudy"
"2001-04-26 18:00","2001","04","26","18:00","15.9","","-3.7","","26","","22","","28","","24.1","","99.72","","","","","","Mostly Cloudy"
"2001-04-26 19:00","2001","04","26","19:00","15.1","","-4.6","","25","","23","","22","","24.1","","99.72","","","","","","Cloudy"
"2001-04-26 20:00","2001","04","26","20:00","14.6","","-3.8","","28","","25","","20","","24.1","","99.70","","","","","","Cloudy"
"2001-04-26 21:00","2001","04","26","21:00","13.8","","-1.2","","35","","26","","19","","19.3","","99.75","","","","","","Rain"
"2001-04-26 22:00","2001","04","26","22:00","11.4","","5.7","","68","","9","","7","","16.1","","99.76","","","","","","Rain"
"2001-04-26 23:00","2001","04","26","23:00","10.6","","5.3","","70","","20","","11","","9.7","","99.71","","","","","","Rain"
"2001-04-27 00:00","2001","04","27","00:00","8.9","","5.6","","80","","17","","17","","11.3","","99.64","","","","","","Rain"
"2001-04-27 01:00","2001","04","27","01:00","8.3","","5.8","","84","","19","","15","","8.0","","99.65","","","","","","Rain"
"2001-04-27 02:00","2001","04","27","02:00","8.3","","6.0","","85","","19","","13","","8.0","","99.53","","","","","","Rain"
"2001-04-27 03:00","2001","04","27","03:00","9.8","","7.1","","83","","27","","9","","12.9","","99.53","","","","","","Cloudy"
"2001-04-27 04:00","2001","04","27","04:00","10.0","","7.1","","82","","26","","4","","16.1","","99.51","","","","","","Mostly Cloudy"
"2001-04-27 05:00","2001","04","27","05:00","9.1","","6.4","","83","","23","","6","","8.0","","99.53","","","","","","Haze"
"2001-04-27 06:00","2001","04","27","06:00","9.0","","6.4","","84","","27","","7","","8.0","","99.57","","","","","","Haze"
"2001-04-27 07:00","2001","04","27","07:00","10.8","","6.8","","76","","36","","20","","16.1","","99.65","","","","","","Clear"
"2001-04-27 08:00","2001","04","27","08:00","11.2","","6.2","","71","","36","","30","","14.5","","99.68","","","","","","Clear"
"2001-04-27 09:00","2001","04","27","09:00","12.4","","6.4","","67","","34","","24","","14.5","","99.72","","","","","","Clear"
"2001-04-27 10:00","2001","04","27","10:00","13.5","","6.9","","64","","36","","32","","16.1","","99.78","","","","","","Clear"
"2001-04-27 11:00","2001","04","27","11:00","14.1","","6.8","","61","","36","","30","","16.1","","99.83","","","","","","Clear"
"2001-04-27 12:00","2001","04","27","12:00","12.3","","5.4","","63","","35","","22","","16.1","","99.87","","","","","","Clear"
"2001-04-27 13:00","2001","04","27","13:00","15.3","","2.2","","41","","36","","24","","24.1","","99.84","","","","","","Clear"
"2001-04-27 14:00","2001","04","27","14:00","15.7","","-1.2","","31","","2","","35","","24.1","","99.83","","","","","","Clear"
"2001-04-27 15:00","2001","04","27","15:00","15.0","","-5.4","","24","","1","","33","","24.1","","99.82","","","","","","Clear"
"2001-04-27 16:00","2001","04","27","16:00","14.1","","-6.3","","24","","36","","35","","24.1","","99.87","","","","","","Clear"
"2001-04-27 17:00","2001","04","27","17:00","11.8","","-7.7","","25","","36","","43","","24.1","","99.93","","","","","","Clear"
"2001-04-27 18:00","2001","04","27","18:00","10.4","","-11.1","","21","","34","","33","","24.1","","100.00","","","","","","Clear"
"2001-04-27 19:00","2001","04","27","19:00","9.0","","-6.5","","33","","34","","39","","24.1","","100.06","","","","","","Clear"
"2001-04-27 20:00","2001","04","27","20:00","8.4","","-6.7","","34","","34","","28","","24.1","","100.14","","","","","","Clear"
"2001-04-27 21:00","2001","04","27","21:00","7.6","","-6.7","","35","","35","","30","","24.1","","100.20","","","","","","Clear"
"2001-04-27 22:00","2001","04","27","22:00","6.9","","-6.2","","39","","36","","26","","24.1","","100.25","","","","","","Clear"
"2001-04-27 23:00","2001","04","27","23:00","6.2","","-4.5","","46","","36","","22","","24.1","","100.32","","","","","","Clear"
"2001-04-28 00:00","2001","04","28","00:00","4.9","","-4.3","","51","","35","","17","","24.1","","100.40","","","","","","Clear"
"2001-04-28 01:00","2001","04","28","01:00","4.5","","-4.2","","53","","34","","15","","24.1","","100.46","","","","","","Clear"
"2001-04-28 02:00","2001","04","28","02:00","3.3","","-4.3","","57","","35","","15","","24.1","","100.51","","","","","","Clear"
"2001-04-28 03:00","2001","04","28","03:00","2.4","","-4.9","","59","","35","","13","","24.1","","100.60","","","","","","Clear"
"2001-04-28 04:00","2001","04","28","04:00","2.5","","-4.7","","59","","35","","13","","24.1","","100.68","","","","","","Clear"
"2001-04-28 05:00","2001","04","28","05:00","1.8","","-5.1","","60","","36","","15","","24.1","","100.77","","","","","","Clear"
"2001-04-28 06:00","2001","04","28","06:00","2.1","","-4.8","","60","","36","","13","","24.1","","100.87","","","","","","Clear"
"2001-04-28 07:00","2001","04","28","07:00","4.0","","-4.9","","52","","35","","13","","24.1","","100.94","","","","","","Clear"
"2001-04-28 08:00","2001","04","28","08:00","5.9","","-4.6","","47","","34","","15","","24.1","","101.02","","","","","","Clear"
"2001-04-28 09:00","2001","04","28","09:00","6.9","","-7.8","","34","","36","","19","","24.1","","101.04","","","","","","Clear"
"2001-04-28 10:00","2001","04","28","10:00","8.5","","-7.5","","31","","1","","13","","24.1","","101.04","","","","","","Clear"
"2001-04-28 11:00","2001","04","28","11:00","9.0","","-7.2","","31","","35","","20","","24.1","","101.05","","","","","","Clear"
"2001-04-28 12:00","2001","04","28","12:00","9.9","","-8.9","","26","","33","","24","","24.1","","101.03","","","","","","Clear"
"2001-04-28 13:00","2001","04","28","13:00","11.0","","-7.5","","27","","32","","11","","24.1","","101.00","","","","","","Clear"
"2001-04-28 14:00","2001","04","28","14:00","11.4","","-8.5","","24","","33","","13","","24.1","","100.99","","","","","","Clear"
"2001-04-28 15:00","2001","04","28","15:00","11.8","","-8.3","","24","","34","","30","","24.1","","100.96","","","","","","Clear"
"2001-04-28 16:00","2001","04","28","16:00","12.1","","-7.1","","25","","36","","30","","24.1","","100.95","","","","","","Clear"
"2001-04-28 17:00","2001","04","28","17:00","11.0","","-7.9","","26","","36","","24","","24.1","","100.98","","","","","","Clear"
"2001-04-28 18:00","2001","04","28","18:00","9.8","","-8.9","","26","","36","","30","","24.1","","100.98","","","","","","Clear"
"2001-04-28 19:00","2001","04","28","19:00","8.5","","-7.8","","31","","36","","26","","24.1","","101.02","","","","","","Clear"
"2001-04-28 20:00","2001","04","28","20:00","6.9","","-7.8","","34","","1","","19","","24.1","","101.05","","","","","","Clear"
"2001-04-28 21:00","2001","04","28","21:00","6.0","","-8.1","","36","","36","","19","","24.1","","101.10","","","","","","Clear"
"2001-04-28 22:00","2001","04","28","22:00","5.0","","-7.9","","39","","35","","15","","24.1","","101.13","","","","","","Clear"
"2001-04-28 23:00","2001","04","28","23:00","4.5","","-7.7","","41","","35","","19","","24.1","","101.17","","","","","","Clear"
"2001-04-29 00:00","2001","04","29","00:00","3.0","","-7.8","","45","","36","","11","","24.1","","101.20","","","","","","Clear"
"2001-04-29 01:00","2001","04","29","01:00","2.9","","-7.9","","45","","2","","7","","24.1","","101.19","","","","","","Clear"
"2001-04-29 02:00","2001","04","29","02:00","2.4","","-8.0","","46","","34","","9","","24.1","","101.22","","","","","","Clear"
"2001-04-29 03:00","2001","04","29","03:00","1.5","","-7.7","","50","","32","","11","","24.1","","101.27","","","","","","Clear"
"2001-04-29 04:00","2001","04","29","04:00","1.3","","-8.1","","50","","2","","11","","24.1","","101.30","","","","","","Clear"
"2001-04-29 05:00","2001","04","29","05:00","1.4","","-8.3","","48","","34","","7","","24.1","","101.34","","","","","","Clear"
"2001-04-29 06:00","2001","04","29","06:00","2.0","","-7.7","","49","","1","","4","","24.1","","101.42","","","","","","Mainly Clear"
"2001-04-29 07:00","2001","04","29","07:00","4.9","","-6.8","","42","","33","","4","","24.1","","101.45","","","","","","Mainly Clear"
"2001-04-29 08:00","2001","04","29","08:00","7.4","","-5.9","","38","","","","0","","24.1","","101.46","","","","","","Mainly Clear"
"2001-04-29 09:00","2001","04","29","09:00","10.0","","-6.2","","31","","17","","11","","24.1","","101.47","","","","","","Mainly Clear"
"2001-04-29 10:00","2001","04","29","10:00","11.5","","-7.6","","25","","17","","13","","24.1","","101.47","","","","","","Mainly Clear"
"2001-04-29 11:00","2001","04","29","11:00","12.3","","-7.1","","25","","19","","15","","24.1","","101.43","","","","","","Mainly Clear"
"2001-04-29 12:00","2001","04","29","12:00","12.8","","-8.5","","22","","14","","17","","24.1","","101.39","","","","","","Clear"
"2001-04-29 13:00","2001","04","29","13:00","13.4","","-8.2","","21","","16","","11","","24.1","","101.35","","","","","","Clear"
"2001-04-29 14:00","2001","04","29","14:00","13.9","","-8.4","","20","","16","","4","","24.1","","101.24","","","","","","Clear"
"2001-04-29 15:00","2001","04","29","15:00","14.2","","-5.7","","25","","14","","13","","24.1","","101.16","","","","","","Clear"
"2001-04-29 16:00","2001","04","29","16:00","14.1","","-4.5","","27","","14","","15","","24.1","","101.08","","","","","","Clear"
"2001-04-29 17:00","2001","04","29","17:00","13.5","","-4.5","","28","","13","","15","","24.1","","101.05","","","","","","Mainly Clear"
"2001-04-29 18:00","2001","04","29","18:00","11.0","","-6.5","","29","","15","","17","","24.1","","100.97","","","","","","Mainly Clear"
"2001-04-29 19:00","2001","04","29","19:00","9.4","","-8.0","","28","","16","","15","","24.1","","100.91","","","","","","Mainly Clear"
"2001-04-29 20:00","2001","04","29","20:00","8.0","","-7.5","","32","","15","","6","","24.1","","100.90","","","","","","Mainly Clear"
"2001-04-29 21:00","2001","04","29","21:00","7.8","","-6.9","","34","","16","","4","","24.1","","100.88","","","","","","Mainly Clear"
"2001-04-29 22:00","2001","04","29","22:00","7.9","","-5.9","","37","","","","0","","24.1","","100.83","","","","","","Mostly Cloudy"
"2001-04-29 23:00","2001","04","29","23:00","8.3","","-5.7","","37","","","","0","","24.1","","100.76","","","","","","Cloudy"
"2001-04-30 00:00","2001","04","30","00:00","9.0","","-4.0","","40","","","","0","","24.1","","100.77","","","","","","Cloudy"
"2001-04-30 01:00","2001","04","30","01:00","9.3","","-3.2","","41","","9","","6","","24.1","","100.71","","","","","","Mostly Cloudy"
"2001-04-30 02:00","2001","04","30","02:00","9.2","","-4.0","","39","","14","","4","","24.1","","100.65","","","","","","Mostly Cloudy"
"2001-04-30 03:00","2001","04","30","03:00","8.3","","-2.2","","48","","17","","7","","24.1","","100.65","","","","","","Cloudy"
"2001-04-30 04:00","2001","04","30","04:00","7.5","","-1.9","","51","","18","","4","","24.1","","100.62","","","","","","Mostly Cloudy"
"2001-04-30 05:00","2001","04","30","05:00","7.3","","-2.1","","51","","","","0","","24.1","","100.61","","","","","","Mostly Cloudy"
"2001-04-30 06:00","2001","04","30","06:00","8.1","","-1.4","","51","","16","","4","","19.3","","100.62","","","","","","Mostly Cloudy"
"2001-04-30 07:00","2001","04","30","07:00","10.0","","-1.3","","45","","16","","6","","19.3","","100.64","","","","","","Mostly Cloudy"
"2001-04-30 08:00","2001","04","30","08:00","11.8","","-2.0","","38","","18","","6","","19.3","","100.63","","","","","","Mostly Cloudy"
"2001-04-30 09:00","2001","04","30","09:00","15.8","","-1.9","","30","","22","","11","","19.3","","100.61","","","","","","Mainly Clear"
"2001-04-30 10:00","2001","04","30","10:00","18.8","","0.8","","30","","25","","13","","19.3","","100.56","","","","","","Mainly Clear"
"2001-04-30 11:00","2001","04","30","11:00","18.7","","3.8","","37","","15","","15","","19.3","","100.50","","","","","","Clear"
"2001-04-30 12:00","2001","04","30","12:00","19.6","","2.2","","31","","16","","13","","19.3","","100.44","","","","","","Clear"
"2001-04-30 13:00","2001","04","30","13:00","20.5","","2.6","","31","","16","","19","","19.3","","100.36","","","","","","Clear"
"2001-04-30 14:00","2001","04","30","14:00","21.6","","2.5","","28","","15","","19","","19.3","","100.29","","","","","","Clear"
"2001-04-30 15:00","2001","04","30","15:00","23.2","","2.4","","26","","15","","17","","16.1","","100.18","","","","","","Clear"
"2001-04-30 16:00","2001","04","30","16:00","21.9","","1.9","","27","","16","","19","","19.3","","100.13","","","","","","Clear"
"2001-04-30 17:00","2001","04","30","17:00","22.1","","3.9","","30","","17","","26","","19.3","","100.09","","","","","","Clear"
"2001-04-30 18:00","2001","04","30","18:00","21.9","","3.2","","29","","17","","17","","24.1","","100.03","","","","","","Clear"
"2001-04-30 19:00","2001","04","30","19:00","20.2","","2.2","","30","","17","","11","","24.1","","100.00","","","","","","Clear"
"2001-04-30 20:00","2001","04","30","20:00","19.5","","1.7","","30","","18","","11","","16.1","","100.00","","","","","","Clear"
"2001-04-30 21:00","2001","04","30","21:00","18.9","","0.7","","29","","21","","9","","19.3","","99.99","","","","","","Clear"
"2001-04-30 22:00","2001","04","30","22:00","18.3","","-0.3","","28","","20","","7","","19.3","","99.94","","","","","","Clear"
"2001-04-30 23:00","2001","04","30","23:00","17.1","","-1.5","","28","","22","","7","","19.3","","99.90","","","","","","Clear"
