"Station Name","TORONTO LESTER B. PEARSON INT'L A"
"Province","ONTARIO"
"Latitude","43.68"
"Longitude","-79.63"
"Elevation","173.40"
"Climate Identifier","6158733"
"WMO Identifier","71624"
"TC Identifier","YYZ"
"All times are specified in Local Standard Time (LST). Add 1 hour to adjust for Daylight Saving Time where and when it is observed."

"Legend"
"E","Estimated"
"M","Missing"
"NA","Not Available"

"Date/Time","Year","Month","Day","Time","Temp (°C)","Temp Flag","Dew Point Temp (°C)","Dew Point Temp Flag","Rel Hum (%)","Rel Hum Flag","Wind Dir (10s deg)","Wind Dir Flag","Wind Spd (km/h)","Wind Spd Flag","Visibility (km)","Visibility Flag","Stn Press (kPa)","Stn Press Flag","Hmdx","Hmdx Flag","Wind Chill","Wind Chill Flag","Weather"
"1969-11-01 00:00","1969","11","01","00:00","6.7","","2.8","","76","","","","0","","8.0","","99.72","","","","","","Haze"
"1969-11-01 01:00","1969","11","01","01:00","7.2","","5.0","","85","","14","","3","","8.0","","99.69","","","","","","Haze"
"1969-11-01 02:00","1969","11","01","02:00","7.2","","5.0","","85","","11","","6","","12.9","","99.67","","","","","","Mostly Cloudy"
"1969-11-01 03:00","1969","11","01","03:00","7.2","","5.0","","85","","11","","8","","16.1","","99.64","","","","","","Mostly Cloudy"
"1969-11-01 04:00","1969","11","01","04:00","7.2","","5.0","","85","","9","","8","","12.9","","99.60","","","","","","Mostly Cloudy"
"1969-11-01 05:00","1969","11","01","05:00","7.8","","5.6","","85","","11","","8","","19.3","","99.63","","","","","","Mostly Cloudy"
"1969-11-01 06:00","1969","11","01","06:00","8.3","","5.6","","83","","11","","11","","19.3","","99.62","","","","","","Cloudy"
"1969-11-01 07:00","1969","11","01","07:00","8.9","","6.7","","86","","11","","13","","8.0","","99.63","","","","","","Rain Showers,Haze"
"1969-11-01 08:00","1969","11","01","08:00","10.0","","7.8","","86","","14","","16","","8.0","","99.64","","","","","","Haze"
"1969-11-01 09:00","1969","11","01","09:00","10.6","","8.3","","85","","14","","19","","8.0","","99.61","","","","","","Fog"
"1969-11-01 10:00","1969","11","01","10:00","10.6","","8.9","","88","","11","","19","","8.0","","99.58","","","","","","Fog"
"1969-11-01 11:00","1969","11","01","11:00","12.2","","9.4","","82","","14","","16","","8.0","","99.54","","","","","","Haze"
"1969-11-01 12:00","1969","11","01","12:00","11.7","","10.0","","89","","14","","13","","8.0","","99.50","","","","","","Rain,Fog"
"1969-11-01 13:00","1969","11","01","13:00","11.7","","10.0","","89","","14","","16","","9.7","","99.39","","","","","","Rain,Fog"
"1969-11-01 14:00","1969","11","01","14:00","11.7","","10.0","","89","","14","","16","","6.4","","99.39","","","","","","Rain,Fog"
"1969-11-01 15:00","1969","11","01","15:00","11.1","","9.4","","90","","14","","16","","6.4","","99.40","","","","","","Rain Showers,Fog"
"1969-11-01 16:00","1969","11","01","16:00","10.6","","10.0","","96","","14","","14","","4.8","","99.38","","","","","","Rain,Fog"
"1969-11-01 17:00","1969","11","01","17:00","10.6","","9.4","","94","","14","","16","","4.8","","99.38","","","","","","Rain,Fog"
"1969-11-01 18:00","1969","11","01","18:00","10.6","","9.4","","94","","11","","16","","4.8","","99.39","","","","","","Rain,Fog"
"1969-11-01 19:00","1969","11","01","19:00","11.1","","10.0","","94","","11","","16","","6.4","","99.34","","","","","","Rain,Fog"
"1969-11-01 20:00","1969","11","01","20:00","11.1","","10.0","","92","","14","","16","","8.0","","99.33","","","","","","Rain,Fog"
"1969-11-01 21:00","1969","11","01","21:00","10.6","","9.4","","94","","11","","16","","6.4","","99.30","","","","","","Rain,Fog"
"1969-11-01 22:00","1969","11","01","22:00","10.6","","10.0","","96","","11","","19","","6.4","","99.24","","","","","","Rain,Fog"
"1969-11-01 23:00","1969","11","01","23:00","10.6","","10.0","","96","","11","","18","","4.0","","99.18","","","","","","Rain,Fog"
"1969-11-02 00:00","1969","11","02","00:00","10.6","","9.4","","94","","11","","16","","4.0","","99.17","","","","","","Rain,Fog"
"1969-11-02 01:00","1969","11","02","01:00","10.0","","9.4","","98","","9","","23","","4.0","","99.12","","","","","","Moderate Rain,Fog"
"1969-11-02 02:00","1969","11","02","02:00","10.6","","10.0","","96","","11","","21","","4.0","","99.05","","","","","","Rain,Fog"
"1969-11-02 03:00","1969","11","02","03:00","10.6","","10.0","","96","","11","","24","","4.0","","99.00","","","","","","Rain,Fog"
"1969-11-02 04:00","1969","11","02","04:00","10.6","","10.0","","96","","11","","21","","4.0","","98.97","","","","","","Rain,Fog"
"1969-11-02 05:00","1969","11","02","05:00","10.6","","10.0","","96","","11","","21","","8.0","","98.95","","","","","","Rain,Fog"
"1969-11-02 06:00","1969","11","02","06:00","10.6","","10.0","","96","","11","","13","","4.8","","98.98","","","","","","Rain,Fog"
"1969-11-02 07:00","1969","11","02","07:00","10.6","","10.0","","98","","9","","13","","4.0","","98.97","","","","","","Rain,Fog"
"1969-11-02 08:00","1969","11","02","08:00","10.6","","10.0","","98","","9","","14","","2.0","","98.99","","","","","","Rain,Fog"
"1969-11-02 09:00","1969","11","02","09:00","10.6","","10.0","","98","","9","","13","","3.2","","98.95","","","","","","Drizzle,Fog"
"1969-11-02 10:00","1969","11","02","10:00","11.7","","10.6","","94","","11","","11","","2.0","","98.94","","","","","","Drizzle,Fog"
"1969-11-02 11:00","1969","11","02","11:00","11.7","","10.6","","94","","11","","11","","3.2","","98.94","","","","","","Drizzle,Fog"
"1969-11-02 12:00","1969","11","02","12:00","11.7","","10.6","","94","","9","","18","","2.8","","98.89","","","","","","Drizzle,Fog"
"1969-11-02 13:00","1969","11","02","13:00","11.7","","11.1","","96","","11","","13","","2.4","","98.84","","","","","","Drizzle,Fog"
"1969-11-02 14:00","1969","11","02","14:00","11.7","","11.7","","100","","9","","11","","1.6","","98.81","","","","","","Fog"
"1969-11-02 15:00","1969","11","02","15:00","11.7","","11.7","","100","","11","","10","","1.2","","98.81","","","","","","Fog"
"1969-11-02 16:00","1969","11","02","16:00","11.7","","11.1","","98","","11","","8","","1.0","","98.83","","","","","","Drizzle,Fog"
"1969-11-02 17:00","1969","11","02","17:00","11.7","","11.1","","98","","9","","6","","0.6","","98.84","","","","","","Rain Showers,Fog"
"1969-11-02 18:00","1969","11","02","18:00","11.1","","10.6","","98","","9","","10","","2.0","","98.86","","","","","","Drizzle,Fog"
"1969-11-02 19:00","1969","11","02","19:00","11.1","","10.6","","98","","9","","6","","2.0","","98.88","","","","","","Fog"
"1969-11-02 20:00","1969","11","02","20:00","10.6","","10.0","","98","","","","0","","0.2","","98.89","","","","","","Rain Showers,Fog"
"1969-11-02 21:00","1969","11","02","21:00","10.6","","10.0","","98","","","","0","","0.0","","98.90","","","","","","Fog"
"1969-11-02 22:00","1969","11","02","22:00","11.1","","10.6","","98","","25","","6","","0.4","","98.93","","","","","","Drizzle,Fog"
"1969-11-02 23:00","1969","11","02","23:00","10.6","","10.0","","98","","23","","5","","1.2","","98.92","","","","","","Fog"
"1969-11-03 00:00","1969","11","03","00:00","10.6","","10.0","","98","","27","","5","","12.9","","98.93","","","","","","Cloudy"
"1969-11-03 01:00","1969","11","03","01:00","10.6","","10.0","","96","","27","","11","","19.3","","98.92","","","","","","Cloudy"
"1969-11-03 02:00","1969","11","03","02:00","10.0","","8.9","","94","","20","","8","","12.9","","98.94","","","","","","Mostly Cloudy"
"1969-11-03 03:00","1969","11","03","03:00","8.9","","8.3","","96","","25","","10","","12.9","","98.95","","","","","","Mostly Cloudy"
"1969-11-03 04:00","1969","11","03","04:00","9.4","","8.9","","96","","25","","8","","12.9","","98.97","","","","","","Mostly Cloudy"
"1969-11-03 05:00","1969","11","03","05:00","8.9","","7.8","","94","","27","","3","","16.1","","98.98","","","","","","Mostly Cloudy"
"1969-11-03 06:00","1969","11","03","06:00","8.3","","7.8","","96","","27","","6","","16.1","","98.99","","","","","","Mostly Cloudy"
"1969-11-03 07:00","1969","11","03","07:00","8.3","","7.2","","92","","27","","6","","8.0","","99.04","","","","","","Haze"
"1969-11-03 08:00","1969","11","03","08:00","8.9","","7.8","","94","","23","","6","","9.7","","99.09","","","","","","Haze"
"1969-11-03 09:00","1969","11","03","09:00","9.4","","7.8","","88","","23","","8","","8.0","","99.08","","","","","","Haze"
"1969-11-03 10:00","1969","11","03","10:00","10.0","","7.8","","86","","25","","10","","9.7","","99.07","","","","","","Haze"
"1969-11-03 11:00","1969","11","03","11:00","10.6","","6.7","","77","","25","","8","","9.7","","99.06","","","","","","Haze"
"1969-11-03 12:00","1969","11","03","12:00","11.7","","7.8","","76","","27","","6","","11.3","","99.01","","","","","","Mostly Cloudy"
"1969-11-03 13:00","1969","11","03","13:00","12.8","","7.8","","70","","27","","14","","11.3","","98.96","","","","","","Mostly Cloudy"
"1969-11-03 14:00","1969","11","03","14:00","12.8","","6.7","","67","","25","","14","","11.3","","98.92","","","","","","Mostly Cloudy"
"1969-11-03 15:00","1969","11","03","15:00","11.7","","7.8","","76","","16","","21","","6.4","","98.95","","","","","","Haze"
"1969-11-03 16:00","1969","11","03","16:00","10.6","","7.2","","81","","18","","14","","4.8","","98.94","","","","","","Rain Showers,Haze"
"1969-11-03 17:00","1969","11","03","17:00","10.0","","8.3","","88","","18","","11","","4.0","","98.94","","","","","","Rain Showers,Fog"
"1969-11-03 18:00","1969","11","03","18:00","10.0","","8.3","","90","","20","","18","","4.8","","98.99","","","","","","Rain Showers,Fog"
"1969-11-03 19:00","1969","11","03","19:00","8.9","","7.2","","90","","20","","16","","9.7","","99.00","","","","","","Rain Showers,Fog"
"1969-11-03 20:00","1969","11","03","20:00","8.9","","8.3","","96","","20","","16","","8.0","","99.04","","","","","","Rain Showers,Fog"
"1969-11-03 21:00","1969","11","03","21:00","8.3","","7.2","","92","","18","","6","","8.0","","99.06","","","","","","Rain Showers,Fog"
"1969-11-03 22:00","1969","11","03","22:00","7.8","","6.7","","91","","18","","13","","9.7","","99.07","","","","","","Fog"
"1969-11-03 23:00","1969","11","03","23:00","7.8","","6.1","","89","","23","","11","","8.0","","98.93","","","","","","Fog"
"1969-11-04 00:00","1969","11","04","00:00","6.7","","5.6","","93","","16","","11","","8.0","","98.98","","","","","","Fog"
"1969-11-04 01:00","1969","11","04","01:00","6.1","","5.0","","93","","20","","8","","8.0","","99.01","","","","","","Fog"
"1969-11-04 02:00","1969","11","04","02:00","6.1","","5.0","","91","","20","","8","","8.0","","98.98","","","","","","Fog"
"1969-11-04 03:00","1969","11","04","03:00","5.6","","4.4","","93","","20","","5","","8.0","","98.92","","","","","","Fog"
"1969-11-04 04:00","1969","11","04","04:00","5.6","","4.4","","93","","18","","6","","8.0","","98.93","","","","","","Fog"
"1969-11-04 05:00","1969","11","04","05:00","5.6","","4.4","","93","","18","","13","","6.4","","98.93","","","","","","Fog"
"1969-11-04 06:00","1969","11","04","06:00","5.0","","3.9","","93","","20","","6","","6.4","","98.89","","","","","","Fog"
"1969-11-04 07:00","1969","11","04","07:00","3.3","","2.8","","95","","27","","6","","3.2","","98.89","","","","","","Fog"
"1969-11-04 08:00","1969","11","04","08:00","3.9","","3.3","","95","","27","","6","","3.2","","98.92","","","","","","Fog"
"1969-11-04 09:00","1969","11","04","09:00","5.0","","4.4","","98","","29","","8","","4.0","","98.91","","","","","","Fog"
"1969-11-04 10:00","1969","11","04","10:00","6.1","","4.4","","89","","23","","10","","9.7","","98.91","","","","","","Fog"
"1969-11-04 11:00","1969","11","04","11:00","7.2","","3.9","","81","","20","","13","","16.1","","98.91","","","","","","Mostly Cloudy"
"1969-11-04 12:00","1969","11","04","12:00","7.2","","3.3","","76","","23","","13","","16.1","","98.89","","","","","","Cloudy"
"1969-11-04 13:00","1969","11","04","13:00","6.7","","3.9","","82","","20","","10","","19.3","","98.86","","","","","","Cloudy"
"1969-11-04 14:00","1969","11","04","14:00","7.2","","3.3","","76","","18","","16","","19.3","","98.82","","","","","","Mostly Cloudy"
"1969-11-04 15:00","1969","11","04","15:00","7.8","","2.8","","71","","23","","14","","19.3","","98.79","","","","","","Mostly Cloudy"
"1969-11-04 16:00","1969","11","04","16:00","7.2","","1.7","","68","","16","","10","","19.3","","98.75","","","","","","Mostly Cloudy"
"1969-11-04 17:00","1969","11","04","17:00","6.7","","3.3","","78","","18","","6","","19.3","","98.73","","","","","","Mostly Cloudy"
"1969-11-04 18:00","1969","11","04","18:00","5.0","","2.2","","81","","18","","5","","24.1","","98.77","","","","","","Mostly Cloudy"
"1969-11-04 19:00","1969","11","04","19:00","5.6","","2.2","","79","","20","","6","","24.1","","98.80","","","","","","Cloudy"
"1969-11-04 20:00","1969","11","04","20:00","5.0","","1.7","","79","","","","0","","24.1","","98.80","","","","","","Mostly Cloudy"
"1969-11-04 21:00","1969","11","04","21:00","5.0","","1.7","","79","","","","0","","24.1","","98.80","","","","","","Mainly Clear"
"1969-11-04 22:00","1969","11","04","22:00","3.9","","1.1","","83","","","","0","","24.1","","98.79","","","","","","Mostly Cloudy"
"1969-11-04 23:00","1969","11","04","23:00","4.4","","1.7","","83","","11","","5","","24.1","","98.74","","","","","","Mostly Cloudy"
"1969-11-05 00:00","1969","11","05","00:00","3.9","","1.7","","85","","11","","5","","24.1","","98.75","","","","","","Mainly Clear"
"1969-11-05 01:00","1969","11","05","01:00","2.2","","1.1","","92","","36","","6","","24.1","","98.76","","","","","","Mostly Cloudy"
"1969-11-05 02:00","1969","11","05","02:00","2.2","","1.7","","95","","36","","6","","24.1","","98.76","","","","","","Mostly Cloudy"
"1969-11-05 03:00","1969","11","05","03:00","1.7","","1.1","","97","","36","","6","","12.9","","98.74","","","","","","Mainly Clear"
"1969-11-05 04:00","1969","11","05","04:00","0.0","","0.0","","100","","36","","6","","12.9","","98.78","","","","-2","","Mostly Cloudy"
"1969-11-05 05:00","1969","11","05","05:00","1.1","","0.6","","97","","32","","10","","9.7","","98.81","","","","","","Fog"
"1969-11-05 06:00","1969","11","05","06:00","1.7","","1.1","","94","","36","","6","","12.9","","98.82","","","","","","Mostly Cloudy"
"1969-11-05 07:00","1969","11","05","07:00","0.6","","0.0","","94","","36","","5","","4.8","","98.81","","","","","","Fog"
"1969-11-05 08:00","1969","11","05","08:00","0.6","","0.0","","97","","34","","6","","4.8","","98.90","","","","","","Fog"
"1969-11-05 09:00","1969","11","05","09:00","3.9","","2.2","","88","","34","","14","","11.3","","98.92","","","","","","Mainly Clear"
"1969-11-05 10:00","1969","11","05","10:00","5.6","","2.2","","79","","36","","16","","16.1","","98.96","","","","","","Mainly Clear"
"1969-11-05 11:00","1969","11","05","11:00","6.7","","1.7","","72","","36","","14","","24.1","","98.95","","","","","","Mainly Clear"
"1969-11-05 12:00","1969","11","05","12:00","8.3","","2.2","","66","","36","","18","","32.2","","98.85","","","","","","Mainly Clear"
"1969-11-05 13:00","1969","11","05","13:00","9.4","","2.2","","60","","34","","24","","40.2","","98.69","","","","","","Mostly Cloudy"
"1969-11-05 14:00","1969","11","05","14:00","8.9","","1.7","","61","","34","","29","","40.2","","98.68","","","","","","Mostly Cloudy"
"1969-11-05 15:00","1969","11","05","15:00","7.2","","2.8","","72","","34","","29","","40.2","","98.66","","","","","","Mostly Cloudy"
"1969-11-05 16:00","1969","11","05","16:00","6.7","","2.8","","76","","34","","24","","40.2","","98.59","","","","","","Mostly Cloudy"
"1969-11-05 17:00","1969","11","05","17:00","6.7","","2.2","","74","","34","","29","","32.2","","98.55","","","","","","Mostly Cloudy"
"1969-11-05 18:00","1969","11","05","18:00","6.1","","1.7","","73","","34","","35","","25.0","","98.56","","","","","","Mostly Cloudy"
"1969-11-05 19:00","1969","11","05","19:00","5.6","","0.6","","70","","32","","34","","25.0","","98.56","","","","","","Mostly Cloudy"
"1969-11-05 20:00","1969","11","05","20:00","5.6","","0.0","","68","","34","","32","","25.0","","98.54","","","","","","Mostly Cloudy"
"1969-11-05 21:00","1969","11","05","21:00","5.0","","0.0","","70","","34","","35","","25.0","","98.49","","","","","","Mainly Clear"
"1969-11-05 22:00","1969","11","05","22:00","5.0","","0.0","","70","","34","","39","","25.0","","98.39","","","","","","Mostly Cloudy"
"1969-11-05 23:00","1969","11","05","23:00","5.0","","0.6","","74","","34","","40","","25.0","","98.25","","","","","","Mostly Cloudy"
"1969-11-06 00:00","1969","11","06","00:00","5.0","","1.1","","77","","34","","45","","25.0","","98.16","","","","","","Mainly Clear"
"1969-11-06 01:00","1969","11","06","01:00","4.4","","0.6","","76","","34","","43","","25.0","","98.15","","","","","","Mainly Clear"
"1969-11-06 02:00","1969","11","06","02:00","4.4","","0.6","","76","","34","","53","","25.0","","98.10","","","","","","Mainly Clear"
"1969-11-06 03:00","1969","11","06","03:00","4.4","","0.0","","74","","34","","55","","25.0","","98.09","","","","","","Clear"
"1969-11-06 04:00","1969","11","06","04:00","3.9","","-0.6","","73","","34","","55","","25.0","","98.04","","","","","","Clear"
"1969-11-06 05:00","1969","11","06","05:00","3.3","","-1.1","","72","","34","","55","","25.0","","98.10","","","","","","Clear"
"1969-11-06 06:00","1969","11","06","06:00","3.3","","-1.7","","70","","34","","45","","25.0","","98.17","","","","","","Mainly Clear"
"1969-11-06 07:00","1969","11","06","07:00","3.3","","-1.7","","70","","34","","45","","25.0","","98.30","","","","","","Mostly Cloudy"
"1969-11-06 08:00","1969","11","06","08:00","3.3","","-1.7","","70","","34","","40","","40.2","","98.40","","","","","","Mostly Cloudy"
"1969-11-06 09:00","1969","11","06","09:00","3.9","","-1.7","","68","","36","","39","","40.2","","98.49","","","","","","Mostly Cloudy"
"1969-11-06 10:00","1969","11","06","10:00","4.4","","-1.1","","67","","36","","42","","40.2","","98.54","","","","","","Mostly Cloudy"
"1969-11-06 11:00","1969","11","06","11:00","4.4","","-1.1","","67","","36","","39","","40.2","","98.60","","","","","","Mostly Cloudy"
"1969-11-06 12:00","1969","11","06","12:00","4.4","","-1.1","","67","","36","","35","","40.2","","98.62","","","","","","Cloudy"
"1969-11-06 13:00","1969","11","06","13:00","5.0","","0.0","","70","","34","","31","","40.2","","98.66","","","","","","Cloudy"
"1969-11-06 14:00","1969","11","06","14:00","5.0","","-0.6","","67","","36","","31","","40.2","","98.75","","","","","","Cloudy"
"1969-11-06 15:00","1969","11","06","15:00","5.0","","0.0","","70","","34","","27","","40.2","","98.79","","","","","","Cloudy"
"1969-11-06 16:00","1969","11","06","16:00","5.6","","0.0","","68","","36","","26","","40.2","","98.86","","","","","","Mostly Cloudy"
"1969-11-06 17:00","1969","11","06","17:00","5.6","","0.0","","68","","36","","23","","40.2","","98.95","","","","","","Mostly Cloudy"
"1969-11-06 18:00","1969","11","06","18:00","5.0","","0.6","","72","","36","","21","","25.0","","99.03","","","","","","Mostly Cloudy"
"1969-11-06 19:00","1969","11","06","19:00","4.4","","0.0","","74","","36","","24","","25.0","","99.05","","","","","","Mostly Cloudy"
"1969-11-06 20:00","1969","11","06","20:00","3.3","","0.0","","77","","36","","13","","25.0","","99.11","","","","","","Mainly Clear"
"1969-11-06 21:00","1969","11","06","21:00","3.3","","0.0","","80","","36","","14","","25.0","","99.16","","","","","","Mostly Cloudy"
"1969-11-06 22:00","1969","11","06","22:00","0.6","","-0.6","","91","","34","","6","","25.0","","99.18","","","","","","Mainly Clear"
"1969-11-06 23:00","1969","11","06","23:00","0.6","","0.0","","94","","32","","13","","25.0","","99.20","","","","","","Mainly Clear"
"1969-11-07 00:00","1969","11","07","00:00","1.7","","0.6","","92","","34","","14","","25.0","","99.20","","","","","","Clear"
"1969-11-07 01:00","1969","11","07","01:00","1.7","","0.6","","92","","34","","18","","25.0","","99.18","","","","","","Mainly Clear"
"1969-11-07 02:00","1969","11","07","02:00","2.2","","1.1","","92","","36","","23","","25.0","","99.21","","","","","","Clear"
"1969-11-07 03:00","1969","11","07","03:00","2.2","","1.1","","92","","36","","26","","25.0","","99.21","","","","","","Clear"
"1969-11-07 04:00","1969","11","07","04:00","2.2","","0.6","","89","","36","","29","","25.0","","99.23","","","","","","Mainly Clear"
"1969-11-07 05:00","1969","11","07","05:00","1.7","","0.0","","89","","36","","24","","25.0","","99.30","","","","","","Mainly Clear"
"1969-11-07 06:00","1969","11","07","06:00","2.2","","1.1","","92","","36","","24","","25.0","","99.34","","","","","","Mostly Cloudy"
"1969-11-07 07:00","1969","11","07","07:00","2.2","","1.1","","92","","36","","23","","19.3","","99.40","","","","","","Mostly Cloudy"
"1969-11-07 08:00","1969","11","07","08:00","2.8","","1.7","","92","","36","","27","","16.1","","99.48","","","","","","Mostly Cloudy"
"1969-11-07 09:00","1969","11","07","09:00","3.3","","2.2","","92","","34","","29","","16.1","","99.46","","","","","","Mostly Cloudy"
"1969-11-07 10:00","1969","11","07","10:00","5.0","","3.3","","88","","36","","31","","16.1","","99.45","","","","","","Mostly Cloudy"
"1969-11-07 11:00","1969","11","07","11:00","5.6","","2.8","","84","","36","","26","","19.3","","99.48","","","","","","Mostly Cloudy"
"1969-11-07 12:00","1969","11","07","12:00","6.7","","3.9","","82","","36","","26","","19.3","","99.44","","","","","","Mostly Cloudy"
"1969-11-07 13:00","1969","11","07","13:00","7.2","","3.9","","81","","36","","23","","19.3","","99.47","","","","","","Cloudy"
"1969-11-07 14:00","1969","11","07","14:00","6.7","","4.4","","85","","36","","27","","16.1","","99.47","","","","","","Cloudy"
"1969-11-07 15:00","1969","11","07","15:00","7.2","","4.4","","83","","36","","29","","16.1","","99.49","","","","","","Cloudy"
"1969-11-07 16:00","1969","11","07","16:00","6.7","","4.4","","85","","36","","26","","16.1","","99.53","","","","","","Cloudy"
"1969-11-07 17:00","1969","11","07","17:00","6.1","","3.9","","84","","34","","23","","16.1","","99.58","","","","","","Cloudy"
"1969-11-07 18:00","1969","11","07","18:00","6.1","","3.9","","86","","34","","21","","16.1","","99.63","","","","","","Cloudy"
"1969-11-07 19:00","1969","11","07","19:00","6.7","","4.4","","87","","36","","21","","16.1","","99.66","","","","","","Cloudy"
"1969-11-07 20:00","1969","11","07","20:00","6.7","","4.4","","85","","34","","19","","19.3","","99.64","","","","","","Cloudy"
"1969-11-07 21:00","1969","11","07","21:00","7.2","","5.0","","85","","36","","26","","19.3","","99.64","","","","","","Cloudy"
"1969-11-07 22:00","1969","11","07","22:00","7.2","","5.0","","87","","36","","24","","19.3","","99.60","","","","","","Cloudy"
"1969-11-07 23:00","1969","11","07","23:00","6.7","","5.6","","91","","36","","21","","24.1","","99.54","","","","","","Mostly Cloudy"
"1969-11-08 00:00","1969","11","08","00:00","6.1","","5.0","","93","","34","","24","","24.1","","99.47","","","","","","Mainly Clear"
"1969-11-08 01:00","1969","11","08","01:00","6.7","","5.6","","91","","36","","24","","24.1","","99.41","","","","","","Mostly Cloudy"
"1969-11-08 02:00","1969","11","08","02:00","6.7","","5.6","","91","","36","","29","","19.3","","99.42","","","","","","Mostly Cloudy"
"1969-11-08 03:00","1969","11","08","03:00","7.2","","6.1","","91","","36","","31","","16.1","","99.42","","","","","","Cloudy"
"1969-11-08 04:00","1969","11","08","04:00","7.2","","6.1","","91","","36","","27","","19.3","","99.39","","","","","","Cloudy"
"1969-11-08 05:00","1969","11","08","05:00","7.2","","6.1","","91","","36","","29","","24.1","","99.42","","","","","","Cloudy"
"1969-11-08 06:00","1969","11","08","06:00","7.2","","6.1","","91","","36","","26","","19.3","","99.44","","","","","","Cloudy"
"1969-11-08 07:00","1969","11","08","07:00","7.2","","6.1","","93","","36","","23","","12.9","","99.45","","","","","","Cloudy"
"1969-11-08 08:00","1969","11","08","08:00","7.2","","6.1","","93","","36","","27","","11.3","","99.44","","","","","","Mostly Cloudy"
"1969-11-08 09:00","1969","11","08","09:00","7.8","","6.1","","89","","36","","26","","12.9","","99.40","","","","","","Cloudy"
"1969-11-08 10:00","1969","11","08","10:00","8.9","","6.1","","84","","36","","35","","16.1","","99.33","","","","","","Mainly Clear"
"1969-11-08 11:00","1969","11","08","11:00","10.0","","6.7","","79","","34","","35","","16.1","","99.24","","","","","","Mainly Clear"
"1969-11-08 12:00","1969","11","08","12:00","11.7","","6.1","","69","","36","","29","","16.1","","99.22","","","","","","Mainly Clear"
"1969-11-08 13:00","1969","11","08","13:00","13.3","","6.7","","64","","36","","27","","19.3","","99.15","","","","","","Mainly Clear"
"1969-11-08 14:00","1969","11","08","14:00","15.0","","8.3","","63","","36","","23","","19.3","","99.14","","","","","","Mainly Clear"
"1969-11-08 15:00","1969","11","08","15:00","13.9","","7.2","","65","","34","","29","","19.3","","99.12","","","","","","Mainly Clear"
"1969-11-08 16:00","1969","11","08","16:00","11.7","","6.7","","71","","34","","27","","19.3","","99.13","","","","","","Mainly Clear"
"1969-11-08 17:00","1969","11","08","17:00","10.0","","6.1","","77","","36","","27","","19.3","","99.18","","","","","","Mostly Cloudy"
"1969-11-08 18:00","1969","11","08","18:00","9.4","","6.1","","78","","36","","14","","19.3","","99.30","","","","","","Cloudy"
"1969-11-08 19:00","1969","11","08","19:00","8.9","","6.1","","84","","36","","13","","16.1","","99.34","","","","","","Drizzle"
"1969-11-08 20:00","1969","11","08","20:00","8.3","","7.2","","94","","36","","10","","12.9","","99.33","","","","","","Drizzle"
"1969-11-08 21:00","1969","11","08","21:00","8.3","","7.2","","94","","36","","6","","6.4","","99.36","","","","","","Drizzle,Fog"
"1969-11-08 22:00","1969","11","08","22:00","8.9","","8.3","","98","","2","","6","","4.8","","99.40","","","","","","Drizzle,Fog"
"1969-11-08 23:00","1969","11","08","23:00","9.4","","8.9","","96","","36","","3","","2.4","","99.40","","","","","","Drizzle,Fog"
"1969-11-09 00:00","1969","11","09","00:00","9.4","","8.9","","98","","2","","8","","2.4","","99.42","","","","","","Drizzle,Fog"
"1969-11-09 01:00","1969","11","09","01:00","8.9","","8.3","","98","","36","","10","","3.6","","99.42","","","","","","Drizzle,Fog"
"1969-11-09 02:00","1969","11","09","02:00","8.9","","8.3","","98","","36","","10","","4.8","","99.42","","","","","","Fog"
"1969-11-09 03:00","1969","11","09","03:00","8.9","","8.3","","98","","36","","10","","9.7","","99.42","","","","","","Fog"
"1969-11-09 04:00","1969","11","09","04:00","8.9","","8.3","","98","","36","","10","","9.7","","99.40","","","","","","Fog"
"1969-11-09 05:00","1969","11","09","05:00","8.9","","8.3","","98","","5","","8","","9.7","","99.41","","","","","","Fog"
"1969-11-09 06:00","1969","11","09","06:00","8.9","","8.3","","98","","5","","6","","12.9","","99.43","","","","","","Cloudy"
"1969-11-09 07:00","1969","11","09","07:00","9.4","","8.3","","94","","2","","13","","12.9","","99.44","","","","","","Cloudy"
"1969-11-09 08:00","1969","11","09","08:00","9.4","","8.3","","92","","36","","8","","17.7","","99.50","","","","","","Cloudy"
"1969-11-09 09:00","1969","11","09","09:00","8.3","","7.2","","92","","36","","13","","16.1","","99.53","","","","","","Drizzle"
"1969-11-09 10:00","1969","11","09","10:00","8.3","","7.2","","92","","34","","10","","19.3","","99.52","","","","","","Cloudy"
"1969-11-09 11:00","1969","11","09","11:00","8.9","","7.2","","90","","36","","11","","24.1","","99.53","","","","","","Cloudy"
"1969-11-09 12:00","1969","11","09","12:00","9.4","","7.2","","86","","36","","13","","24.1","","99.47","","","","","","Cloudy"
"1969-11-09 13:00","1969","11","09","13:00","10.0","","7.8","","86","","36","","8","","24.1","","99.37","","","","","","Cloudy"
"1969-11-09 14:00","1969","11","09","14:00","10.6","","7.8","","83","","36","","6","","24.1","","99.33","","","","","","Cloudy"
"1969-11-09 15:00","1969","11","09","15:00","11.1","","7.8","","79","","34","","8","","19.3","","99.35","","","","","","Mostly Cloudy"
"1969-11-09 16:00","1969","11","09","16:00","11.1","","8.3","","83","","34","","11","","24.1","","99.38","","","","","","Cloudy"
"1969-11-09 17:00","1969","11","09","17:00","10.0","","8.3","","88","","14","","11","","19.3","","99.41","","","","","","Cloudy"
"1969-11-09 18:00","1969","11","09","18:00","8.9","","7.8","","94","","","","0","","16.1","","99.41","","","","","","Cloudy"
"1969-11-09 19:00","1969","11","09","19:00","8.3","","7.8","","98","","14","","5","","19.3","","99.43","","","","","","Cloudy"
"1969-11-09 20:00","1969","11","09","20:00","8.3","","7.8","","98","","18","","6","","16.1","","99.44","","","","","","Cloudy"
"1969-11-09 21:00","1969","11","09","21:00","8.3","","7.8","","98","","","","0","","8.0","","99.43","","","","","","Fog"
"1969-11-09 22:00","1969","11","09","22:00","8.3","","7.8","","96","","34","","6","","12.9","","99.42","","","","","","Cloudy"
"1969-11-09 23:00","1969","11","09","23:00","8.3","","7.2","","94","","32","","8","","12.9","","99.41","","","","","","Cloudy"
"1969-11-10 00:00","1969","11","10","00:00","8.3","","7.2","","92","","36","","10","","16.1","","99.38","","","","","","Cloudy"
"1969-11-10 01:00","1969","11","10","01:00","8.3","","7.2","","92","","34","","10","","24.1","","99.36","","","","","","Cloudy"
"1969-11-10 02:00","1969","11","10","02:00","7.8","","6.7","","91","","36","","5","","25.0","","99.38","","","","","","Cloudy"
"1969-11-10 03:00","1969","11","10","03:00","7.8","","6.7","","91","","36","","8","","25.0","","99.34","","","","","","Cloudy"
"1969-11-10 04:00","1969","11","10","04:00","7.8","","6.7","","91","","34","","8","","25.0","","99.34","","","","","","Cloudy"
"1969-11-10 05:00","1969","11","10","05:00","7.8","","6.7","","94","","32","","6","","25.0","","99.34","","","","","","Cloudy"
"1969-11-10 06:00","1969","11","10","06:00","7.8","","6.7","","94","","34","","6","","25.0","","99.34","","","","","","Cloudy"
"1969-11-10 07:00","1969","11","10","07:00","7.8","","6.7","","94","","32","","6","","12.9","","99.36","","","","","","Cloudy"
"1969-11-10 08:00","1969","11","10","08:00","8.3","","7.2","","94","","34","","3","","11.3","","99.38","","","","","","Cloudy"
"1969-11-10 09:00","1969","11","10","09:00","8.3","","7.8","","96","","","","0","","3.2","","99.38","","","","","","Drizzle,Fog"
"1969-11-10 10:00","1969","11","10","10:00","8.3","","7.8","","96","","36","","6","","4.0","","99.36","","","","","","Drizzle,Fog"
"1969-11-10 11:00","1969","11","10","11:00","8.9","","8.3","","96","","","","0","","4.8","","99.36","","","","","","Fog"
"1969-11-10 12:00","1969","11","10","12:00","8.9","","8.3","","98","","","","0","","3.2","","99.34","","","","","","Fog"
"1969-11-10 13:00","1969","11","10","13:00","8.9","","8.3","","98","","11","","10","","1.6","","99.26","","","","","","Drizzle,Fog"
"1969-11-10 14:00","1969","11","10","14:00","8.3","","7.8","","98","","14","","10","","0.8","","99.22","","","","","","Drizzle,Fog"
"1969-11-10 15:00","1969","11","10","15:00","7.8","","7.8","","100","","14","","14","","0.4","","99.20","","","","","","Drizzle,Fog"
"1969-11-10 16:00","1969","11","10","16:00","6.7","","6.7","","100","","14","","19","","0.4","","99.18","","","","","","Drizzle,Fog"
"1969-11-10 17:00","1969","11","10","17:00","6.7","","6.7","","100","","14","","11","","0.2","","99.22","","","","","","Drizzle,Fog"
"1969-11-10 18:00","1969","11","10","18:00","6.7","","6.7","","100","","14","","11","","0.8","","99.24","","","","","","Drizzle,Fog"
"1969-11-10 19:00","1969","11","10","19:00","6.7","","6.7","","100","","11","","8","","1.2","","99.26","","","","","","Drizzle,Fog"
"1969-11-10 20:00","1969","11","10","20:00","6.7","","6.7","","100","","14","","6","","1.6","","99.23","","","","","","Fog"
"1969-11-10 21:00","1969","11","10","21:00","6.7","","6.7","","100","","14","","8","","2.4","","99.21","","","","","","Drizzle,Fog"
"1969-11-10 22:00","1969","11","10","22:00","6.7","","6.7","","100","","16","","5","","3.2","","99.18","","","","","","Fog"
"1969-11-10 23:00","1969","11","10","23:00","6.7","","6.7","","100","","16","","3","","2.4","","99.18","","","","","","Drizzle,Fog"
"1969-11-11 00:00","1969","11","11","00:00","6.7","","6.7","","100","","14","","5","","2.0","","99.17","","","","","","Drizzle,Fog"
"1969-11-11 01:00","1969","11","11","01:00","6.7","","6.7","","100","","14","","6","","4.8","","99.13","","","","","","Fog"
"1969-11-11 02:00","1969","11","11","02:00","6.7","","6.7","","100","","11","","6","","4.0","","99.13","","","","","","Fog"
"1969-11-11 03:00","1969","11","11","03:00","6.7","","6.1","","98","","14","","6","","4.0","","99.12","","","","","","Fog"
"1969-11-11 04:00","1969","11","11","04:00","6.7","","6.1","","98","","14","","5","","3.6","","99.08","","","","","","Fog"
"1969-11-11 05:00","1969","11","11","05:00","6.7","","6.1","","98","","14","","6","","3.2","","99.09","","","","","","Fog"
"1969-11-11 06:00","1969","11","11","06:00","6.7","","6.7","","100","","11","","8","","0.4","","99.04","","","","","","Fog"
"1969-11-11 07:00","1969","11","11","07:00","6.7","","6.7","","100","","11","","5","","0.6","","99.05","","","","","","Rain Showers,Fog"
"1969-11-11 08:00","1969","11","11","08:00","6.7","","6.7","","100","","16","","5","","0.4","","99.08","","","","","","Fog"
"1969-11-11 09:00","1969","11","11","09:00","7.2","","7.2","","100","","","","0","","0.2","","99.10","","","","","","Fog"
"1969-11-11 10:00","1969","11","11","10:00","7.2","","7.2","","100","","14","","10","","0.2","","99.06","","","","","","Fog"
"1969-11-11 11:00","1969","11","11","11:00","7.2","","7.2","","100","","14","","6","","0.2","","99.02","","","","","","Fog"
"1969-11-11 12:00","1969","11","11","12:00","7.8","","7.8","","100","","18","","8","","0.6","","98.96","","","","","","Fog"
"1969-11-11 13:00","1969","11","11","13:00","7.8","","7.8","","100","","16","","6","","0.4","","98.89","","","","","","Fog"
"1969-11-11 14:00","1969","11","11","14:00","8.3","","7.8","","98","","16","","10","","1.2","","98.83","","","","","","Fog"
"1969-11-11 15:00","1969","11","11","15:00","8.3","","7.8","","98","","11","","14","","1.2","","98.77","","","","","","Fog"
"1969-11-11 16:00","1969","11","11","16:00","7.8","","7.8","","100","","14","","10","","0.4","","98.70","","","","","","Fog"
"1969-11-11 17:00","1969","11","11","17:00","7.2","","7.2","","100","","14","","13","","0.0","","98.66","","","","","","Fog"
"1969-11-11 18:00","1969","11","11","18:00","7.2","","7.2","","100","","14","","13","","0.0","","98.67","","","","","","Fog"
"1969-11-11 19:00","1969","11","11","19:00","7.2","","7.2","","100","","16","","10","","0.0","","98.62","","","","","","Fog"
"1969-11-11 20:00","1969","11","11","20:00","6.7","","6.7","","100","","16","","8","","0.0","","98.59","","","","","","Fog"
"1969-11-11 21:00","1969","11","11","21:00","6.7","","6.7","","100","","14","","8","","3.2","","98.53","","","","","","Fog"
"1969-11-11 22:00","1969","11","11","22:00","6.7","","6.7","","100","","11","","10","","3.2","","98.39","","","","","","Fog"
"1969-11-11 23:00","1969","11","11","23:00","6.7","","6.7","","100","","14","","10","","1.6","","98.35","","","","","","Fog"
"1969-11-12 00:00","1969","11","12","00:00","6.7","","6.7","","100","","14","","8","","4.8","","98.29","","","","","","Fog"
"1969-11-12 01:00","1969","11","12","01:00","7.2","","6.7","","98","","14","","16","","3.2","","98.17","","","","","","Fog"
"1969-11-12 02:00","1969","11","12","02:00","7.2","","6.7","","96","","14","","14","","4.0","","98.07","","","","","","Rain Showers,Fog"
"1969-11-12 03:00","1969","11","12","03:00","7.2","","6.1","","93","","16","","16","","3.6","","98.02","","","","","","Rain,Fog"
"1969-11-12 04:00","1969","11","12","04:00","6.7","","6.7","","100","","14","","14","","2.8","","97.90","","","","","","Rain,Fog"
"1969-11-12 05:00","1969","11","12","05:00","6.7","","6.7","","100","","14","","14","","2.4","","97.83","","","","","","Rain,Fog"
"1969-11-12 06:00","1969","11","12","06:00","6.7","","6.7","","100","","14","","13","","2.0","","97.78","","","","","","Rain,Drizzle,Fog"
"1969-11-12 07:00","1969","11","12","07:00","6.7","","6.7","","100","","14","","13","","2.0","","97.71","","","","","","Rain,Drizzle,Fog"
"1969-11-12 08:00","1969","11","12","08:00","6.7","","6.7","","100","","14","","13","","1.2","","97.66","","","","","","Rain,Fog"
"1969-11-12 09:00","1969","11","12","09:00","7.2","","6.7","","98","","14","","14","","1.2","","97.62","","","","","","Fog"
"1969-11-12 10:00","1969","11","12","10:00","7.2","","6.7","","98","","16","","8","","1.2","","97.59","","","","","","Fog"
"1969-11-12 11:00","1969","11","12","11:00","7.8","","7.2","","98","","27","","14","","1.6","","97.60","","","","","","Drizzle,Fog"
"1969-11-12 12:00","1969","11","12","12:00","8.9","","5.6","","80","","27","","23","","11.3","","97.58","","","","","","Mostly Cloudy"
"1969-11-12 13:00","1969","11","12","13:00","10.0","","5.0","","71","","27","","26","","12.9","","97.58","","","","","","Cloudy"
"1969-11-12 14:00","1969","11","12","14:00","8.3","","4.4","","77","","27","","32","","16.1","","97.64","","","","","","Cloudy"
"1969-11-12 15:00","1969","11","12","15:00","7.2","","2.8","","72","","29","","34","","32.2","","97.68","","","","","","Mostly Cloudy"
"1969-11-12 16:00","1969","11","12","16:00","6.7","","1.7","","70","","29","","35","","32.2","","97.78","","","","","","Mainly Clear"
"1969-11-12 17:00","1969","11","12","17:00","4.4","","0.0","","74","","27","","24","","32.2","","97.91","","","","","","Mainly Clear"
"1969-11-12 18:00","1969","11","12","18:00","2.8","","0.0","","82","","25","","6","","25.0","","98.01","","","","","","Mainly Clear"
"1969-11-12 19:00","1969","11","12","19:00","2.8","","-1.1","","74","","25","","14","","25.0","","98.07","","","","","","Mainly Clear"
"1969-11-12 20:00","1969","11","12","20:00","1.7","","-1.7","","78","","25","","10","","25.0","","98.09","","","","","","Clear"
"1969-11-12 21:00","1969","11","12","21:00","1.7","","-1.7","","78","","23","","16","","25.0","","98.09","","","","","","Mainly Clear"
"1969-11-12 22:00","1969","11","12","22:00","1.7","","-1.7","","78","","23","","16","","25.0","","98.08","","","","","","Clear"
"1969-11-12 23:00","1969","11","12","23:00","1.7","","-1.7","","78","","23","","14","","25.0","","98.09","","","","","","Clear"
"1969-11-13 00:00","1969","11","13","00:00","0.6","","-2.2","","81","","23","","14","","25.0","","98.12","","","","","","Clear"
"1969-11-13 01:00","1969","11","13","01:00","0.0","","-3.3","","80","","23","","14","","25.0","","98.16","","","","-4","","Clear"
"1969-11-13 02:00","1969","11","13","02:00","-0.6","","-2.8","","85","","23","","14","","25.0","","98.16","","","","-5","","Mainly Clear"
"1969-11-13 03:00","1969","11","13","03:00","0.6","","-1.7","","86","","25","","14","","25.0","","98.18","","","","","","Mainly Clear"
"1969-11-13 04:00","1969","11","13","04:00","0.0","","-1.7","","88","","23","","14","","25.0","","98.17","","","","-4","","Mainly Clear"
"1969-11-13 05:00","1969","11","13","05:00","-1.1","","-2.2","","93","","23","","13","","25.0","","98.16","","","","-5","","Mainly Clear"
"1969-11-13 06:00","1969","11","13","06:00","-0.6","","-1.7","","93","","23","","13","","25.0","","98.16","","","","-5","","Clear"
"1969-11-13 07:00","1969","11","13","07:00","-0.6","","-1.7","","91","","23","","11","","19.3","","98.18","","","","-4","","Mainly Clear"
"1969-11-13 08:00","1969","11","13","08:00","-0.6","","-1.7","","93","","23","","13","","19.3","","98.22","","","","-5","","Mainly Clear"
"1969-11-13 09:00","1969","11","13","09:00","1.7","","-1.1","","81","","23","","23","","19.3","","98.25","","","","","","Mainly Clear"
"1969-11-13 10:00","1969","11","13","10:00","2.8","","-0.6","","79","","23","","21","","19.3","","98.24","","","","","","Mostly Cloudy"
"1969-11-13 11:00","1969","11","13","11:00","3.9","","-1.7","","68","","27","","26","","24.1","","98.27","","","","","","Mostly Cloudy"
"1969-11-13 12:00","1969","11","13","12:00","5.0","","-1.1","","65","","27","","24","","32.2","","98.22","","","","","","Mostly Cloudy"
"1969-11-13 13:00","1969","11","13","13:00","4.4","","-1.7","","64","","27","","24","","32.2","","98.20","","","","","","Mainly Clear"
"1969-11-13 14:00","1969","11","13","14:00","5.6","","-2.2","","57","","25","","24","","32.2","","98.18","","","","","","Mostly Cloudy"
"1969-11-13 15:00","1969","11","13","15:00","5.0","","-1.7","","61","","25","","18","","32.2","","98.16","","","","","","Mostly Cloudy"
"1969-11-13 16:00","1969","11","13","16:00","4.4","","-2.8","","60","","27","","13","","32.2","","98.18","","","","","","Mostly Cloudy"
"1969-11-13 17:00","1969","11","13","17:00","3.3","","-2.2","","68","","25","","6","","32.2","","98.18","","","","","","Mostly Cloudy"
"1969-11-13 18:00","1969","11","13","18:00","2.8","","-4.4","","60","","11","","5","","25.0","","98.21","","","","","","Mostly Cloudy"
"1969-11-13 19:00","1969","11","13","19:00","3.3","","-3.9","","58","","9","","6","","25.0","","98.18","","","","","","Cloudy"
"1969-11-13 20:00","1969","11","13","20:00","3.9","","-2.2","","64","","9","","10","","25.0","","98.12","","","","","","Mostly Cloudy"
"1969-11-13 21:00","1969","11","13","21:00","3.9","","-0.6","","73","","9","","18","","12.9","","98.07","","","","","","Rain"
"1969-11-13 22:00","1969","11","13","22:00","3.3","","2.2","","92","","11","","11","","11.3","","98.02","","","","","","Rain"
"1969-11-13 23:00","1969","11","13","23:00","2.8","","2.2","","95","","32","","3","","12.9","","97.89","","","","","","Rain"
"1969-11-14 00:00","1969","11","14","00:00","1.7","","1.7","","100","","27","","6","","6.4","","97.85","","","","","","Rain,Fog"
"1969-11-14 01:00","1969","11","14","01:00","0.6","","0.6","","100","","23","","2","","4.0","","97.81","","","","","","Snow"
"1969-11-14 02:00","1969","11","14","02:00","0.6","","0.6","","100","","20","","3","","3.2","","97.78","","","","","","Snow"
"1969-11-14 03:00","1969","11","14","03:00","0.6","","0.6","","100","","","","0","","1.6","","97.73","","","","","","Snow"
"1969-11-14 04:00","1969","11","14","04:00","0.6","","0.6","","100","","","","0","","2.4","","97.69","","","","","","Snow"
"1969-11-14 05:00","1969","11","14","05:00","0.6","","0.6","","100","","","","0","","4.0","","97.63","","","","","","Drizzle,Fog"
"1969-11-14 06:00","1969","11","14","06:00","0.6","","0.6","","100","","32","","10","","3.2","","97.58","","","","","","Fog"
"1969-11-14 07:00","1969","11","14","07:00","0.6","","0.6","","100","","34","","8","","2.4","","97.60","","","","","","Fog"
"1969-11-14 08:00","1969","11","14","08:00","0.6","","0.6","","100","","29","","6","","3.2","","97.66","","","","","","Fog"
"1969-11-14 09:00","1969","11","14","09:00","0.6","","0.6","","100","","27","","10","","4.8","","97.64","","","","","","Fog"
"1969-11-14 10:00","1969","11","14","10:00","1.7","","0.6","","92","","29","","13","","16.1","","97.59","","","","","","Mostly Cloudy"
"1969-11-14 11:00","1969","11","14","11:00","1.7","","-0.6","","86","","32","","10","","19.3","","97.55","","","","","","Mostly Cloudy"
"1969-11-14 12:00","1969","11","14","12:00","2.2","","0.6","","89","","34","","10","","19.3","","97.49","","","","","","Mostly Cloudy"
"1969-11-14 13:00","1969","11","14","13:00","2.2","","0.0","","84","","29","","11","","19.3","","97.49","","","","","","Mostly Cloudy"
"1969-11-14 14:00","1969","11","14","14:00","2.2","","0.6","","89","","36","","10","","19.3","","97.44","","","","","","Snow"
"1969-11-14 15:00","1969","11","14","15:00","2.2","","1.1","","92","","32","","10","","16.1","","97.42","","","","","","Cloudy"
"1969-11-14 16:00","1969","11","14","16:00","2.2","","0.6","","89","","34","","11","","19.3","","97.40","","","","","","Cloudy"
"1969-11-14 17:00","1969","11","14","17:00","2.2","","0.0","","87","","32","","11","","19.3","","97.39","","","","","","Mostly Cloudy"
"1969-11-14 18:00","1969","11","14","18:00","1.7","","-1.1","","81","","32","","14","","25.0","","97.42","","","","","","Cloudy"
"1969-11-14 19:00","1969","11","14","19:00","1.1","","-1.7","","82","","29","","16","","25.0","","97.44","","","","","","Cloudy"
"1969-11-14 20:00","1969","11","14","20:00","1.1","","-2.2","","79","","29","","18","","25.0","","97.48","","","","","","Cloudy"
"1969-11-14 21:00","1969","11","14","21:00","1.1","","-2.8","","76","","27","","18","","25.0","","97.47","","","","","","Cloudy"
"1969-11-14 22:00","1969","11","14","22:00","0.6","","-3.9","","73","","27","","24","","25.0","","97.44","","","","","","Cloudy"
"1969-11-14 23:00","1969","11","14","23:00","0.0","","-5.0","","69","","27","","24","","25.0","","97.45","","","","-6","","Mostly Cloudy"
"1969-11-15 00:00","1969","11","15","00:00","0.0","","-3.9","","74","","27","","26","","25.0","","97.50","","","","-6","","Mostly Cloudy"
"1969-11-15 01:00","1969","11","15","01:00","-0.6","","-3.9","","79","","27","","27","","25.0","","97.50","","","","-7","","Mainly Clear"
"1969-11-15 02:00","1969","11","15","02:00","-0.6","","-3.9","","79","","27","","35","","25.0","","97.56","","","","-8","","Mainly Clear"
"1969-11-15 03:00","1969","11","15","03:00","-1.1","","-4.4","","78","","27","","34","","25.0","","97.61","","","","-8","","Mainly Clear"
"1969-11-15 04:00","1969","11","15","04:00","-1.7","","-5.6","","74","","27","","32","","25.0","","97.67","","","","-9","","Mainly Clear"
"1969-11-15 05:00","1969","11","15","05:00","-2.2","","-6.7","","72","","27","","31","","25.0","","97.73","","","","-9","","Mainly Clear"
"1969-11-15 06:00","1969","11","15","06:00","-2.2","","-7.2","","70","","27","","35","","25.0","","97.79","","","","-10","","Mainly Clear"
"1969-11-15 07:00","1969","11","15","07:00","-2.8","","-7.2","","71","","27","","31","","25.0","","97.88","","","","-10","","Mainly Clear"
"1969-11-15 08:00","1969","11","15","08:00","-3.3","","-6.7","","77","","27","","24","","24.1","","98.01","","","","-10","","Mainly Clear"
"1969-11-15 09:00","1969","11","15","09:00","-2.8","","-6.7","","76","","27","","34","","32.2","","98.07","","","","-11","","Mainly Clear"
"1969-11-15 10:00","1969","11","15","10:00","-2.8","","-6.7","","76","","25","","34","","32.2","","98.15","","","","-11","","Mainly Clear"
"1969-11-15 11:00","1969","11","15","11:00","-2.2","","-6.7","","72","","25","","19","","32.2","","98.19","","","","-8","","Mainly Clear"
"1969-11-15 12:00","1969","11","15","12:00","-1.1","","-6.7","","65","","25","","24","","32.2","","98.19","","","","-7","","Mainly Clear"
"1969-11-15 13:00","1969","11","15","13:00","-1.1","","-6.1","","68","","23","","24","","32.2","","98.24","","","","-7","","Mainly Clear"
"1969-11-15 14:00","1969","11","15","14:00","-1.1","","-5.6","","71","","25","","23","","32.2","","98.31","","","","-7","","Mainly Clear"
"1969-11-15 15:00","1969","11","15","15:00","-1.7","","-6.7","","69","","23","","26","","32.2","","98.38","","","","-8","","Mainly Clear"
"1969-11-15 16:00","1969","11","15","16:00","-1.1","","-7.2","","64","","25","","16","","32.2","","98.45","","","","-6","","Mainly Clear"
"1969-11-15 17:00","1969","11","15","17:00","-2.2","","-8.3","","64","","25","","11","","32.2","","98.53","","","","-6","","Mainly Clear"
"1969-11-15 18:00","1969","11","15","18:00","-3.9","","-7.2","","77","","23","","8","","25.0","","98.61","","","","-7","","Mainly Clear"
"1969-11-15 19:00","1969","11","15","19:00","-3.9","","-6.7","","83","","18","","11","","24.1","","98.69","","","","-8","","Mostly Cloudy"
"1969-11-15 20:00","1969","11","15","20:00","-3.3","","-6.1","","80","","18","","13","","19.3","","98.72","","","","-8","","Mostly Cloudy"
"1969-11-15 21:00","1969","11","15","21:00","-3.3","","-6.7","","78","","20","","10","","24.1","","98.78","","","","-7","","Mostly Cloudy"
"1969-11-15 22:00","1969","11","15","22:00","-3.3","","-6.1","","82","","25","","10","","24.1","","98.81","","","","-7","","Mostly Cloudy"
"1969-11-15 23:00","1969","11","15","23:00","-3.9","","-6.7","","82","","18","","13","","25.0","","98.88","","","","-9","","Mainly Clear"
"1969-11-16 00:00","1969","11","16","00:00","-3.9","","-6.7","","80","","23","","8","","25.0","","98.94","","","","-7","","Mostly Cloudy"
"1969-11-16 01:00","1969","11","16","01:00","-3.9","","-6.7","","80","","18","","11","","25.0","","99.03","","","","-8","","Clear"
"1969-11-16 02:00","1969","11","16","02:00","-5.0","","-7.2","","86","","18","","6","","25.0","","99.11","","","","-8","","Mainly Clear"
"1969-11-16 03:00","1969","11","16","03:00","-3.3","","-5.6","","86","","23","","13","","24.1","","99.18","","","","-8","","Cloudy"
"1969-11-16 04:00","1969","11","16","04:00","-2.2","","-3.9","","87","","23","","13","","19.3","","99.23","","","","-7","","Cloudy"
"1969-11-16 05:00","1969","11","16","05:00","-1.7","","-3.3","","90","","23","","16","","16.1","","99.36","","","","-7","","Snow Showers"
"1969-11-16 06:00","1969","11","16","06:00","-1.1","","-2.8","","90","","23","","23","","16.1","","99.43","","","","-7","","Snow Showers"
"1969-11-16 07:00","1969","11","16","07:00","-0.6","","-1.7","","91","","23","","18","","19.3","","99.53","","","","-6","","Mostly Cloudy"
"1969-11-16 08:00","1969","11","16","08:00","-0.6","","-2.8","","85","","23","","23","","19.3","","99.68","","","","-6","","Snow Showers"
"1969-11-16 09:00","1969","11","16","09:00","0.0","","-2.8","","83","","25","","19","","19.3","","99.81","","","","-5","","Mostly Cloudy"
"1969-11-16 10:00","1969","11","16","10:00","1.1","","-2.8","","76","","27","","29","","19.3","","99.93","","","","","","Snow Showers"
"1969-11-16 11:00","1969","11","16","11:00","1.7","","-2.8","","73","","25","","26","","20.9","","100.06","","","","","","Snow Showers"
"1969-11-16 12:00","1969","11","16","12:00","2.8","","-3.9","","62","","27","","24","","32.2","","100.13","","","","","","Mostly Cloudy"
"1969-11-16 13:00","1969","11","16","13:00","2.2","","-3.3","","66","","27","","26","","32.2","","100.23","","","","","","Mostly Cloudy"
"1969-11-16 14:00","1969","11","16","14:00","3.3","","-3.9","","60","","25","","24","","32.2","","100.27","","","","","","Mostly Cloudy"
"1969-11-16 15:00","1969","11","16","15:00","2.8","","-3.9","","62","","25","","23","","32.2","","100.36","","","","","","Mostly Cloudy"
"1969-11-16 16:00","1969","11","16","16:00","1.1","","-3.3","","71","","23","","13","","32.2","","100.45","","","","","","Mostly Cloudy"
"1969-11-16 17:00","1969","11","16","17:00","1.1","","-3.9","","68","","23","","10","","32.2","","100.52","","","","","","Mainly Clear"
"1969-11-16 18:00","1969","11","16","18:00","0.0","","-4.4","","71","","16","","10","","25.0","","100.57","","","","-3","","Mainly Clear"
"1969-11-16 19:00","1969","11","16","19:00","0.0","","-4.4","","71","","16","","8","","25.0","","100.57","","","","-3","","Mainly Clear"
"1969-11-16 20:00","1969","11","16","20:00","0.6","","-5.0","","67","","16","","10","","25.0","","100.63","","","","","","Mainly Clear"
"1969-11-16 21:00","1969","11","16","21:00","-0.6","","-4.4","","76","","16","","10","","25.0","","100.65","","","","-4","","Mostly Cloudy"
"1969-11-16 22:00","1969","11","16","22:00","0.0","","-2.8","","83","","14","","10","","25.0","","100.68","","","","-3","","Cloudy"
"1969-11-16 23:00","1969","11","16","23:00","0.6","","-1.7","","86","","11","","11","","25.0","","100.66","","","","","","Mostly Cloudy"
"1969-11-17 00:00","1969","11","17","00:00","1.1","","-0.6","","89","","11","","11","","25.0","","100.64","","","","","","Cloudy"
"1969-11-17 01:00","1969","11","17","01:00","1.1","","-0.6","","89","","14","","10","","19.3","","100.65","","","","","","Cloudy"
"1969-11-17 02:00","1969","11","17","02:00","1.1","","-0.6","","89","","14","","14","","19.3","","100.63","","","","","","Mostly Cloudy"
"1969-11-17 03:00","1969","11","17","03:00","1.7","","0.0","","89","","14","","13","","19.3","","100.61","","","","","","Mainly Clear"
"1969-11-17 04:00","1969","11","17","04:00","1.7","","0.0","","89","","14","","16","","16.1","","100.58","","","","","","Mainly Clear"
"1969-11-17 05:00","1969","11","17","05:00","2.2","","0.0","","87","","14","","16","","16.1","","100.55","","","","","","Mainly Clear"
"1969-11-17 06:00","1969","11","17","06:00","2.2","","-0.6","","81","","14","","14","","16.1","","100.51","","","","","","Mainly Clear"
"1969-11-17 07:00","1969","11","17","07:00","1.7","","-0.6","","86","","14","","14","","6.4","","100.49","","","","","","Haze"
"1969-11-17 08:00","1969","11","17","08:00","3.3","","0.6","","82","","14","","16","","8.0","","100.49","","","","","","Haze"
"1969-11-17 09:00","1969","11","17","09:00","4.4","","1.1","","78","","14","","23","","8.0","","100.46","","","","","","Haze"
"1969-11-17 10:00","1969","11","17","10:00","5.0","","1.1","","77","","14","","21","","11.3","","100.42","","","","","","Mainly Clear"
"1969-11-17 11:00","1969","11","17","11:00","6.7","","1.7","","70","","16","","19","","19.3","","100.37","","","","","","Mainly Clear"
"1969-11-17 12:00","1969","11","17","12:00","9.4","","3.3","","65","","18","","26","","19.3","","100.29","","","","","","Mostly Cloudy"
"1969-11-17 13:00","1969","11","17","13:00","10.6","","2.2","","56","","18","","23","","16.1","","100.16","","","","","","Mostly Cloudy"
"1969-11-17 14:00","1969","11","17","14:00","11.1","","2.2","","53","","16","","26","","16.1","","100.04","","","","","","Mostly Cloudy"
"1969-11-17 15:00","1969","11","17","15:00","10.6","","2.2","","56","","18","","21","","16.1","","100.08","","","","","","Mostly Cloudy"
"1969-11-17 16:00","1969","11","17","16:00","10.6","","2.8","","58","","18","","18","","16.1","","100.11","","","","","","Cloudy"
"1969-11-17 17:00","1969","11","17","17:00","10.0","","2.8","","60","","18","","18","","11.3","","100.11","","","","","","Rain Showers"
"1969-11-17 18:00","1969","11","17","18:00","8.9","","3.9","","72","","18","","10","","19.3","","100.15","","","","","","Rain"
"1969-11-17 19:00","1969","11","17","19:00","7.8","","5.0","","83","","18","","11","","24.1","","100.18","","","","","","Rain"
"1969-11-17 20:00","1969","11","17","20:00","8.9","","4.4","","74","","20","","16","","19.3","","100.16","","","","","","Rain"
"1969-11-17 21:00","1969","11","17","21:00","8.9","","4.4","","74","","16","","10","","16.1","","100.18","","","","","","Rain"
"1969-11-17 22:00","1969","11","17","22:00","8.3","","5.0","","79","","18","","13","","11.3","","100.21","","","","","","Rain"
"1969-11-17 23:00","1969","11","17","23:00","7.8","","5.6","","87","","18","","13","","11.3","","100.21","","","","","","Rain"
"1969-11-18 00:00","1969","11","18","00:00","7.8","","6.7","","91","","18","","11","","11.3","","100.21","","","","","","Rain"
"1969-11-18 01:00","1969","11","18","01:00","7.8","","6.7","","91","","18","","13","","16.1","","100.23","","","","","","Rain"
"1969-11-18 02:00","1969","11","18","02:00","7.2","","6.7","","96","","16","","16","","11.3","","100.23","","","","","","Cloudy"
"1969-11-18 03:00","1969","11","18","03:00","7.8","","6.7","","91","","18","","18","","16.1","","100.20","","","","","","Cloudy"
"1969-11-18 04:00","1969","11","18","04:00","8.3","","7.2","","94","","18","","19","","9.7","","100.14","","","","","","Rain,Fog"
"1969-11-18 05:00","1969","11","18","05:00","7.8","","7.2","","96","","16","","19","","9.7","","100.14","","","","","","Fog"
"1969-11-18 06:00","1969","11","18","06:00","7.2","","6.1","","93","","16","","19","","9.7","","100.17","","","","","","Fog"
"1969-11-18 07:00","1969","11","18","07:00","6.7","","6.1","","96","","16","","13","","8.0","","100.13","","","","","","Fog"
"1969-11-18 08:00","1969","11","18","08:00","8.3","","7.2","","94","","18","","16","","4.8","","100.12","","","","","","Rain,Fog"
"1969-11-18 09:00","1969","11","18","09:00","8.3","","7.2","","94","","18","","16","","3.2","","100.09","","","","","","Rain,Fog"
"1969-11-18 10:00","1969","11","18","10:00","8.9","","7.8","","94","","18","","16","","4.8","","100.07","","","","","","Rain,Fog"
"1969-11-18 11:00","1969","11","18","11:00","9.4","","8.3","","94","","18","","19","","6.4","","100.03","","","","","","Rain,Fog"
"1969-11-18 12:00","1969","11","18","12:00","9.4","","7.8","","90","","18","","23","","6.4","","99.94","","","","","","Fog"
"1969-11-18 13:00","1969","11","18","13:00","9.4","","8.3","","92","","18","","23","","6.4","","99.87","","","","","","Rain,Fog"
"1969-11-18 14:00","1969","11","18","14:00","9.4","","8.3","","94","","18","","21","","6.4","","99.83","","","","","","Rain,Fog"
"1969-11-18 15:00","1969","11","18","15:00","9.4","","8.3","","94","","18","","19","","4.8","","99.77","","","","","","Rain,Fog"
"1969-11-18 16:00","1969","11","18","16:00","9.4","","8.9","","96","","14","","16","","2.4","","99.73","","","","","","Rain,Fog"
"1969-11-18 17:00","1969","11","18","17:00","8.3","","8.3","","100","","14","","19","","3.6","","99.70","","","","","","Fog"
"1969-11-18 18:00","1969","11","18","18:00","8.3","","7.2","","94","","14","","18","","11.3","","99.67","","","","","","Cloudy"
"1969-11-18 19:00","1969","11","18","19:00","8.3","","7.2","","92","","11","","16","","11.3","","99.58","","","","","","Cloudy"
"1969-11-18 20:00","1969","11","18","20:00","8.3","","7.2","","92","","14","","16","","16.1","","99.51","","","","","","Cloudy"
"1969-11-18 21:00","1969","11","18","21:00","8.9","","7.2","","88","","14","","18","","19.3","","99.44","","","","","","Cloudy"
"1969-11-18 22:00","1969","11","18","22:00","9.4","","6.7","","84","","16","","16","","24.1","","99.39","","","","","","Cloudy"
"1969-11-18 23:00","1969","11","18","23:00","10.6","","6.7","","77","","18","","21","","24.1","","99.33","","","","","","Rain Showers"
"1969-11-19 00:00","1969","11","19","00:00","10.6","","7.2","","79","","16","","26","","25.0","","99.18","","","","","","Rain Showers"
"1969-11-19 01:00","1969","11","19","01:00","11.1","","7.2","","76","","16","","27","","24.1","","99.11","","","","","","Rain Showers"
"1969-11-19 02:00","1969","11","19","02:00","10.0","","6.7","","81","","16","","21","","24.1","","99.03","","","","","","Rain Showers"
"1969-11-19 03:00","1969","11","19","03:00","10.0","","6.7","","81","","18","","27","","24.1","","98.96","","","","","","Rain Showers"
"1969-11-19 04:00","1969","11","19","04:00","10.0","","7.2","","84","","18","","27","","24.1","","98.82","","","","","","Rain Showers"
"1969-11-19 05:00","1969","11","19","05:00","8.9","","7.8","","92","","14","","21","","24.1","","98.64","","","","","","Cloudy"
"1969-11-19 06:00","1969","11","19","06:00","8.9","","7.2","","90","","14","","16","","24.1","","98.53","","","","","","Rain Showers"
"1969-11-19 07:00","1969","11","19","07:00","9.4","","7.8","","90","","16","","23","","24.1","","98.45","","","","","","Rain Showers"
"1969-11-19 08:00","1969","11","19","08:00","9.4","","8.3","","92","","16","","24","","6.4","","98.30","","","","","","Rain,Fog"
"1969-11-19 09:00","1969","11","19","09:00","10.0","","8.9","","94","","16","","29","","4.8","","98.15","","","","","","Rain,Fog"
"1969-11-19 10:00","1969","11","19","10:00","10.0","","8.9","","94","","16","","37","","4.8","","97.95","","","","","","Moderate Rain,Fog"
"1969-11-19 11:00","1969","11","19","11:00","10.0","","9.4","","98","","16","","31","","6.4","","97.74","","","","","","Rain,Fog"
"1969-11-19 12:00","1969","11","19","12:00","10.6","","10.0","","96","","16","","32","","6.4","","97.52","","","","","","Rain,Fog"
"1969-11-19 13:00","1969","11","19","13:00","11.7","","10.0","","89","","18","","31","","9.7","","97.42","","","","","","Rain,Fog"
"1969-11-19 14:00","1969","11","19","14:00","4.4","","3.3","","93","","32","","48","","9.7","","97.61","","","","","","Rain,Fog"
"1969-11-19 15:00","1969","11","19","15:00","2.8","","1.7","","92","","29","","31","","16.1","","98.01","","","","","","Rain"
"1969-11-19 16:00","1969","11","19","16:00","1.7","","1.1","","97","","27","","29","","16.1","","98.27","","","","","","Snow"
"1969-11-19 17:00","1969","11","19","17:00","2.2","","0.0","","87","","27","","34","","40.2","","98.63","","","","","","Mostly Cloudy"
"1969-11-19 18:00","1969","11","19","18:00","1.1","","0.6","","94","","27","","29","","25.0","","98.79","","","","","","Snow Showers"
"1969-11-19 19:00","1969","11","19","19:00","0.6","","0.0","","97","","25","","35","","25.0","","98.90","","","","","","Mostly Cloudy"
"1969-11-19 20:00","1969","11","19","20:00","0.6","","-3.9","","73","","25","","23","","25.0","","98.94","","","","","","Mostly Cloudy"
"1969-11-19 21:00","1969","11","19","21:00","0.0","","-3.3","","80","","25","","35","","25.0","","98.98","","","","-7","","Cloudy"
"1969-11-19 22:00","1969","11","19","22:00","-0.6","","-4.4","","76","","25","","24","","25.0","","99.03","","","","-7","","Mostly Cloudy"
"1969-11-19 23:00","1969","11","19","23:00","-0.6","","-5.6","","70","","25","","35","","25.0","","99.08","","","","-8","","Cloudy"
"1969-11-20 00:00","1969","11","20","00:00","-1.1","","-5.6","","73","","25","","23","","25.0","","99.09","","","","-7","","Mostly Cloudy"
"1969-11-20 01:00","1969","11","20","01:00","-1.7","","-5.6","","74","","23","","19","","25.0","","99.07","","","","-7","","Mostly Cloudy"
"1969-11-20 02:00","1969","11","20","02:00","-1.7","","-4.4","","80","","23","","19","","24.1","","99.07","","","","-7","","Snow Showers"
"1969-11-20 03:00","1969","11","20","03:00","-2.2","","-6.1","","76","","25","","26","","25.0","","99.04","","","","-9","","Mostly Cloudy"
"1969-11-20 04:00","1969","11","20","04:00","-2.8","","-5.6","","81","","27","","26","","25.0","","99.00","","","","-10","","Mainly Clear"
"1969-11-20 05:00","1969","11","20","05:00","-2.8","","-6.1","","79","","27","","18","","25.0","","98.97","","","","-8","","Mostly Cloudy"
"1969-11-20 06:00","1969","11","20","06:00","-3.3","","-6.7","","77","","25","","14","","25.0","","98.99","","","","-8","","Cloudy"
"1969-11-20 07:00","1969","11","20","07:00","-3.3","","-6.7","","79","","27","","19","","25.0","","99.08","","","","-9","","Mostly Cloudy"
"1969-11-20 08:00","1969","11","20","08:00","-3.3","","-6.7","","79","","25","","19","","40.2","","99.15","","","","-9","","Mostly Cloudy"
"1969-11-20 09:00","1969","11","20","09:00","-2.8","","-7.8","","68","","25","","24","","40.2","","99.19","","","","-9","","Mainly Clear"
"1969-11-20 10:00","1969","11","20","10:00","-2.8","","-4.4","","86","","25","","21","","24.1","","99.26","","","","-9","","Snow Showers"
"1969-11-20 11:00","1969","11","20","11:00","-1.1","","-5.6","","71","","32","","27","","40.2","","99.32","","","","-8","","Mostly Cloudy"
"1969-11-20 12:00","1969","11","20","12:00","-0.6","","-5.0","","73","","29","","40","","40.2","","99.37","","","","-8","","Mainly Clear"
"1969-11-20 13:00","1969","11","20","13:00","-0.6","","-6.7","","65","","32","","37","","40.2","","99.42","","","","-8","","Mainly Clear"
"1969-11-20 14:00","1969","11","20","14:00","0.0","","-6.1","","63","","32","","31","","40.2","","99.49","","","","-7","","Mainly Clear"
"1969-11-20 15:00","1969","11","20","15:00","-1.1","","-6.7","","67","","29","","29","","32.2","","99.54","","","","-8","","Snow Showers"
"1969-11-20 16:00","1969","11","20","16:00","-2.2","","-6.1","","76","","29","","24","","32.2","","99.64","","","","-9","","Mainly Clear"
"1969-11-20 17:00","1969","11","20","17:00","-3.3","","-6.1","","80","","29","","19","","40.2","","99.69","","","","-9","","Mostly Cloudy"
"1969-11-20 18:00","1969","11","20","18:00","-3.3","","-6.1","","81","","29","","14","","25.0","","99.76","","","","-8","","Mainly Clear"
"1969-11-20 19:00","1969","11","20","19:00","-5.0","","-7.8","","82","","29","","10","","25.0","","99.81","","","","-9","","Mainly Clear"
"1969-11-20 20:00","1969","11","20","20:00","-4.4","","-7.2","","82","","27","","16","","25.0","","99.84","","","","-10","","Mainly Clear"
"1969-11-20 21:00","1969","11","20","21:00","-4.4","","-7.2","","81","","27","","18","","25.0","","99.86","","","","-10","","Mainly Clear"
"1969-11-20 22:00","1969","11","20","22:00","-4.4","","-6.7","","83","","25","","16","","25.0","","99.86","","","","-10","","Mainly Clear"
"1969-11-20 23:00","1969","11","20","23:00","-4.4","","-7.2","","82","","27","","19","","25.0","","99.86","","","","-11","","Mainly Clear"
"1969-11-21 00:00","1969","11","21","00:00","-5.0","","-7.2","","84","","27","","16","","25.0","","99.87","","","","-11","","Mostly Cloudy"
"1969-11-21 01:00","1969","11","21","01:00","-5.0","","-7.2","","83","","27","","18","","25.0","","99.89","","","","-11","","Mostly Cloudy"
"1969-11-21 02:00","1969","11","21","02:00","-5.0","","-7.2","","83","","27","","16","","25.0","","99.94","","","","-11","","Mostly Cloudy"
"1969-11-21 03:00","1969","11","21","03:00","-5.6","","-7.8","","85","","34","","11","","25.0","","100.02","","","","-10","","Cloudy"
"1969-11-21 04:00","1969","11","21","04:00","-6.1","","-8.3","","85","","32","","6","","25.0","","100.05","","","","-9","","Mostly Cloudy"
"1969-11-21 05:00","1969","11","21","05:00","-7.8","","-10.0","","86","","36","","10","","25.0","","100.12","","","","-13","","Mainly Clear"
"1969-11-21 06:00","1969","11","21","06:00","-9.4","","-11.1","","88","","32","","13","","25.0","","100.18","","","","-15","","Clear"
"1969-11-21 07:00","1969","11","21","07:00","-9.4","","-11.7","","85","","32","","11","","25.0","","100.23","","","","-15","","Mainly Clear"
"1969-11-21 08:00","1969","11","21","08:00","-9.4","","-11.1","","87","","34","","10","","32.2","","100.32","","","","-15","","Mainly Clear"
"1969-11-21 09:00","1969","11","21","09:00","-7.2","","-10.0","","80","","34","","10","","40.2","","100.36","","","","-12","","Mainly Clear"
"1969-11-21 10:00","1969","11","21","10:00","-6.1","","-10.0","","74","","32","","13","","40.2","","100.40","","","","-11","","Mainly Clear"
"1969-11-21 11:00","1969","11","21","11:00","-4.4","","-8.9","","70","","34","","14","","40.2","","100.42","","","","-10","","Mainly Clear"
"1969-11-21 12:00","1969","11","21","12:00","-3.9","","-8.9","","69","","32","","13","","40.2","","100.38","","","","-9","","Mainly Clear"
"1969-11-21 13:00","1969","11","21","13:00","-2.8","","-9.4","","61","","18","","3","","40.2","","100.33","","","","-4","","Mainly Clear"
"1969-11-21 14:00","1969","11","21","14:00","-1.1","","-7.8","","61","","32","","23","","40.2","","100.34","","","","-7","","Mainly Clear"
"1969-11-21 15:00","1969","11","21","15:00","-1.1","","-5.6","","71","","29","","23","","40.2","","100.39","","","","-7","","Mainly Clear"
"1969-11-21 16:00","1969","11","21","16:00","-2.8","","-8.3","","66","","27","","23","","40.2","","100.43","","","","-9","","Mostly Cloudy"
"1969-11-21 17:00","1969","11","21","17:00","-3.3","","-8.3","","69","","27","","13","","40.2","","100.45","","","","-8","","Mainly Clear"
"1969-11-21 18:00","1969","11","21","18:00","-5.0","","-8.9","","74","","27","","14","","25.0","","100.48","","","","-10","","Mainly Clear"
"1969-11-21 19:00","1969","11","21","19:00","-6.1","","-8.9","","80","","27","","13","","25.0","","100.53","","","","-11","","Mainly Clear"
"1969-11-21 20:00","1969","11","21","20:00","-6.7","","-9.4","","79","","27","","10","","25.0","","100.53","","","","-11","","Mainly Clear"
"1969-11-21 21:00","1969","11","21","21:00","-6.7","","-8.9","","86","","27","","8","","25.0","","100.54","","","","-11","","Mainly Clear"
"1969-11-21 22:00","1969","11","21","22:00","-7.2","","-10.0","","80","","25","","6","","25.0","","100.51","","","","-10","","Mainly Clear"
"1969-11-21 23:00","1969","11","21","23:00","-6.7","","-9.4","","79","","23","","5","","25.0","","100.46","","","","-9","","Mainly Clear"
"1969-11-22 00:00","1969","11","22","00:00","-7.2","","-9.4","","83","","27","","5","","25.0","","100.47","","","","-10","","Mainly Clear"
"1969-11-22 01:00","1969","11","22","01:00","-7.8","","-10.0","","86","","","","0","","25.0","","100.40","","","","","","Mostly Cloudy"
"1969-11-22 02:00","1969","11","22","02:00","-6.1","","-8.9","","79","","","","0","","25.0","","100.34","","","","","","Cloudy"
"1969-11-22 03:00","1969","11","22","03:00","-6.1","","-8.9","","80","","","","0","","25.0","","100.34","","","","","","Mostly Cloudy"
"1969-11-22 04:00","1969","11","22","04:00","-6.1","","-9.4","","77","","11","","6","","25.0","","100.25","","","","-9","","Cloudy"
"1969-11-22 05:00","1969","11","22","05:00","-5.6","","-8.9","","78","","16","","6","","25.0","","100.19","","","","-8","","Mostly Cloudy"
"1969-11-22 06:00","1969","11","22","06:00","-5.0","","-8.9","","73","","14","","3","","25.0","","100.16","","","","-6","","Cloudy"
"1969-11-22 07:00","1969","11","22","07:00","-4.4","","-8.3","","75","","","","0","","25.0","","100.08","","","","","","Cloudy"
"1969-11-22 08:00","1969","11","22","08:00","-3.3","","-6.1","","82","","18","","6","","24.1","","100.06","","","","-6","","Mostly Cloudy"
"1969-11-22 09:00","1969","11","22","09:00","-1.7","","-5.6","","76","","20","","13","","16.1","","100.00","","","","-6","","Mostly Cloudy"
"1969-11-22 10:00","1969","11","22","10:00","-0.6","","-3.9","","79","","18","","23","","12.9","","99.90","","","","-6","","Mostly Cloudy"
"1969-11-22 11:00","1969","11","22","11:00","1.1","","-3.3","","71","","18","","29","","12.9","","99.82","","","","","","Mostly Cloudy"
"1969-11-22 12:00","1969","11","22","12:00","2.2","","-3.3","","66","","16","","16","","16.1","","99.65","","","","","","Mostly Cloudy"
"1969-11-22 13:00","1969","11","22","13:00","3.3","","-3.9","","60","","16","","16","","16.1","","99.47","","","","","","Mostly Cloudy"
"1969-11-22 14:00","1969","11","22","14:00","4.4","","-2.2","","62","","18","","23","","19.3","","99.36","","","","","","Mostly Cloudy"
"1969-11-22 15:00","1969","11","22","15:00","4.4","","-1.1","","67","","18","","14","","19.3","","99.33","","","","","","Mostly Cloudy"
"1969-11-22 16:00","1969","11","22","16:00","5.0","","0.0","","70","","16","","16","","24.1","","99.29","","","","","","Mostly Cloudy"
"1969-11-22 17:00","1969","11","22","17:00","3.3","","0.0","","80","","14","","8","","9.7","","99.31","","","","","","Haze"
"1969-11-22 18:00","1969","11","22","18:00","2.8","","-0.6","","79","","14","","8","","9.7","","99.34","","","","","","Haze"
"1969-11-22 19:00","1969","11","22","19:00","2.8","","0.0","","82","","18","","13","","9.7","","99.35","","","","","","Haze"
"1969-11-22 20:00","1969","11","22","20:00","2.2","","0.6","","89","","23","","11","","12.9","","99.36","","","","","","Mostly Cloudy"
"1969-11-22 21:00","1969","11","22","21:00","2.2","","0.0","","87","","25","","10","","12.9","","99.40","","","","","","Cloudy"
"1969-11-22 22:00","1969","11","22","22:00","2.2","","0.0","","87","","25","","6","","12.9","","99.41","","","","","","Cloudy"
"1969-11-22 23:00","1969","11","22","23:00","1.7","","0.0","","89","","27","","6","","12.9","","99.46","","","","","","Cloudy"
"1969-11-23 00:00","1969","11","23","00:00","1.1","","0.0","","92","","32","","2","","9.7","","99.48","","","","","","Fog"
"1969-11-23 01:00","1969","11","23","01:00","0.0","","-0.6","","94","","25","","6","","9.7","","99.48","","","","-2","","Fog"
"1969-11-23 02:00","1969","11","23","02:00","0.0","","-0.6","","94","","20","","10","","8.0","","99.50","","","","-3","","Fog"
"1969-11-23 03:00","1969","11","23","03:00","0.6","","0.0","","94","","20","","10","","6.4","","99.51","","","","","","Fog"
"1969-11-23 04:00","1969","11","23","04:00","0.0","","-1.1","","91","","25","","6","","8.0","","99.49","","","","-2","","Fog"
"1969-11-23 05:00","1969","11","23","05:00","-0.6","","-1.7","","93","","32","","5","","6.4","","99.48","","","","-2","","Fog"
"1969-11-23 06:00","1969","11","23","06:00","-0.6","","-1.7","","93","","27","","6","","6.4","","99.50","","","","-3","","Fog"
"1969-11-23 07:00","1969","11","23","07:00","0.0","","-0.6","","97","","2","","3","","4.0","","99.48","","","","-1","","Fog"
"1969-11-23 08:00","1969","11","23","08:00","-0.6","","-1.7","","93","","23","","10","","2.0","","99.60","","","","-4","","Fog"
"1969-11-23 09:00","1969","11","23","09:00","0.6","","0.0","","94","","34","","5","","2.4","","99.56","","","","","","Fog"
"1969-11-23 10:00","1969","11","23","10:00","2.2","","1.1","","92","","","","0","","3.2","","99.57","","","","","","Fog"
"1969-11-23 11:00","1969","11","23","11:00","3.3","","1.7","","90","","","","0","","3.2","","99.59","","","","","","Fog"
"1969-11-23 12:00","1969","11","23","12:00","4.4","","2.2","","85","","","","0","","4.8","","99.55","","","","","","Fog"
"1969-11-23 13:00","1969","11","23","13:00","4.4","","1.7","","81","","27","","5","","9.7","","99.57","","","","","","Haze"
"1969-11-23 14:00","1969","11","23","14:00","4.4","","1.7","","81","","32","","6","","9.7","","99.57","","","","","","Haze"
"1969-11-23 15:00","1969","11","23","15:00","5.0","","1.7","","79","","32","","8","","9.7","","99.57","","","","","","Haze"
"1969-11-23 16:00","1969","11","23","16:00","4.4","","1.7","","81","","27","","6","","9.7","","99.66","","","","","","Haze"
"1969-11-23 17:00","1969","11","23","17:00","3.9","","1.7","","85","","29","","19","","8.0","","99.74","","","","","","Haze"
"1969-11-23 18:00","1969","11","23","18:00","2.8","","1.1","","90","","29","","13","","24.1","","99.82","","","","","","Mostly Cloudy"
"1969-11-23 19:00","1969","11","23","19:00","2.8","","0.6","","84","","29","","16","","25.0","","99.91","","","","","","Mostly Cloudy"
"1969-11-23 20:00","1969","11","23","20:00","2.2","","0.0","","87","","34","","19","","25.0","","100.01","","","","","","Mostly Cloudy"
"1969-11-23 21:00","1969","11","23","21:00","1.1","","0.6","","94","","32","","10","","25.0","","100.08","","","","","","Cloudy"
"1969-11-23 22:00","1969","11","23","22:00","2.2","","0.0","","87","","32","","19","","24.1","","100.17","","","","","","Rain"
"1969-11-23 23:00","1969","11","23","23:00","1.1","","-0.6","","89","","36","","13","","25.0","","100.20","","","","","","Cloudy"
"1969-11-24 00:00","1969","11","24","00:00","0.6","","-1.7","","84","","34","","14","","25.0","","100.30","","","","","","Mostly Cloudy"
"1969-11-24 01:00","1969","11","24","01:00","0.0","","-3.3","","77","","36","","14","","25.0","","100.37","","","","-4","","Cloudy"
"1969-11-24 02:00","1969","11","24","02:00","-0.6","","-3.9","","79","","34","","11","","25.0","","100.38","","","","-4","","Mostly Cloudy"
"1969-11-24 03:00","1969","11","24","03:00","-2.8","","-4.4","","86","","32","","10","","25.0","","100.48","","","","-7","","Mainly Clear"
"1969-11-24 04:00","1969","11","24","04:00","-2.8","","-5.0","","85","","29","","10","","25.0","","100.53","","","","-7","","Mainly Clear"
"1969-11-24 05:00","1969","11","24","05:00","-3.3","","-5.0","","87","","32","","13","","25.0","","100.59","","","","-8","","Mainly Clear"
"1969-11-24 06:00","1969","11","24","06:00","-3.9","","-5.0","","93","","","","0","","25.0","","100.64","","","","","","Mainly Clear"
"1969-11-24 07:00","1969","11","24","07:00","-3.9","","-5.0","","92","","27","","10","","25.0","","100.71","","","","-8","","Mostly Cloudy"
"1969-11-24 08:00","1969","11","24","08:00","-2.8","","-3.9","","92","","29","","10","","25.0","","100.81","","","","-7","","Mostly Cloudy"
"1969-11-24 09:00","1969","11","24","09:00","-1.1","","-2.2","","91","","2","","10","","25.0","","100.83","","","","-5","","Mostly Cloudy"
"1969-11-24 10:00","1969","11","24","10:00","-0.6","","-2.8","","85","","36","","11","","25.0","","100.89","","","","-4","","Mostly Cloudy"
"1969-11-24 11:00","1969","11","24","11:00","1.7","","-3.3","","70","","36","","11","","25.0","","100.89","","","","","","Mainly Clear"
"1969-11-24 12:00","1969","11","24","12:00","2.2","","-5.6","","56","","9","","6","","25.0","","100.85","","","","","","Mainly Clear"
"1969-11-24 13:00","1969","11","24","13:00","3.3","","-6.1","","50","","23","","3","","25.0","","100.85","","","","","","Mainly Clear"
"1969-11-24 14:00","1969","11","24","14:00","4.4","","-6.1","","46","","18","","5","","25.0","","100.79","","","","","","Mainly Clear"
"1969-11-24 15:00","1969","11","24","15:00","3.3","","-3.9","","58","","16","","14","","25.0","","100.79","","","","","","Mainly Clear"
"1969-11-24 16:00","1969","11","24","16:00","2.2","","-5.6","","56","","16","","14","","19.3","","100.79","","","","","","Mostly Cloudy"
"1969-11-24 17:00","1969","11","24","17:00","1.7","","-6.7","","54","","14","","10","","24.1","","100.89","","","","","","Mostly Cloudy"
"1969-11-24 18:00","1969","11","24","18:00","1.7","","-4.4","","64","","16","","10","","25.0","","100.84","","","","","","Cloudy"
"1969-11-24 19:00","1969","11","24","19:00","1.7","","-3.9","","67","","16","","11","","25.0","","100.82","","","","","","Mostly Cloudy"
"1969-11-24 20:00","1969","11","24","20:00","1.7","","-3.9","","67","","16","","14","","25.0","","100.78","","","","","","Mainly Clear"
"1969-11-24 21:00","1969","11","24","21:00","1.7","","-2.8","","73","","16","","10","","25.0","","100.78","","","","","","Cloudy"
"1969-11-24 22:00","1969","11","24","22:00","1.1","","-1.7","","82","","16","","11","","24.1","","100.70","","","","","","Mainly Clear"
"1969-11-24 23:00","1969","11","24","23:00","1.7","","-1.1","","81","","16","","13","","25.0","","100.61","","","","","","Cloudy"
"1969-11-25 00:00","1969","11","25","00:00","2.2","","0.0","","84","","16","","13","","25.0","","100.59","","","","","","Cloudy"
"1969-11-25 01:00","1969","11","25","01:00","2.2","","-1.7","","76","","18","","14","","24.1","","100.53","","","","","","Mostly Cloudy"
"1969-11-25 02:00","1969","11","25","02:00","2.2","","-1.1","","79","","18","","14","","24.1","","100.53","","","","","","Mostly Cloudy"
"1969-11-25 03:00","1969","11","25","03:00","2.2","","-1.7","","76","","18","","18","","24.1","","100.46","","","","","","Mostly Cloudy"
"1969-11-25 04:00","1969","11","25","04:00","2.2","","-0.6","","81","","18","","19","","19.3","","100.35","","","","","","Mostly Cloudy"
"1969-11-25 05:00","1969","11","25","05:00","2.2","","1.1","","92","","18","","16","","16.1","","100.25","","","","","","Mostly Cloudy"
"1969-11-25 06:00","1969","11","25","06:00","2.8","","0.6","","87","","18","","21","","16.1","","100.17","","","","","","Mostly Cloudy"
"1969-11-25 07:00","1969","11","25","07:00","2.8","","0.6","","84","","18","","19","","12.9","","100.10","","","","","","Cloudy"
"1969-11-25 08:00","1969","11","25","08:00","2.8","","0.6","","84","","18","","18","","6.4","","100.07","","","","","","Haze"
"1969-11-25 09:00","1969","11","25","09:00","3.3","","1.1","","85","","18","","19","","9.7","","99.99","","","","","","Haze"
"1969-11-25 10:00","1969","11","25","10:00","4.4","","1.7","","81","","20","","27","","9.7","","99.93","","","","","","Haze"
"1969-11-25 11:00","1969","11","25","11:00","5.6","","1.7","","77","","20","","32","","9.7","","99.83","","","","","","Haze"
"1969-11-25 12:00","1969","11","25","12:00","7.8","","3.3","","73","","23","","27","","9.7","","99.73","","","","","","Haze"
"1969-11-25 13:00","1969","11","25","13:00","8.9","","2.8","","66","","23","","29","","9.7","","99.63","","","","","","Haze"
"1969-11-25 14:00","1969","11","25","14:00","8.9","","2.8","","64","","25","","23","","12.9","","99.59","","","","","","Mostly Cloudy"
"1969-11-25 15:00","1969","11","25","15:00","8.3","","2.2","","66","","23","","19","","12.9","","99.54","","","","","","Mostly Cloudy"
"1969-11-25 16:00","1969","11","25","16:00","7.8","","2.2","","69","","25","","19","","9.7","","99.57","","","","","","Haze"
"1969-11-25 17:00","1969","11","25","17:00","6.7","","2.2","","74","","27","","13","","8.0","","99.61","","","","","","Haze"
"1969-11-25 18:00","1969","11","25","18:00","6.1","","2.2","","78","","29","","21","","9.7","","99.67","","","","","","Haze"
"1969-11-25 19:00","1969","11","25","19:00","4.4","","1.7","","83","","27","","11","","8.0","","99.70","","","","","","Haze"
"1969-11-25 20:00","1969","11","25","20:00","3.9","","1.7","","85","","27","","11","","8.0","","99.72","","","","","","Haze"
"1969-11-25 21:00","1969","11","25","21:00","4.4","","2.2","","85","","27","","19","","6.4","","99.74","","","","","","Haze"
"1969-11-25 22:00","1969","11","25","22:00","3.9","","2.2","","88","","27","","14","","6.4","","99.73","","","","","","Fog"
"1969-11-25 23:00","1969","11","25","23:00","3.3","","1.7","","87","","25","","13","","6.4","","99.73","","","","","","Fog"
"1969-11-26 00:00","1969","11","26","00:00","3.3","","1.7","","90","","25","","13","","6.4","","99.74","","","","","","Fog"
"1969-11-26 01:00","1969","11","26","01:00","2.8","","1.7","","92","","27","","10","","8.0","","99.73","","","","","","Fog"
"1969-11-26 02:00","1969","11","26","02:00","2.2","","1.1","","92","","27","","13","","9.7","","99.78","","","","","","Rain Showers,Fog"
"1969-11-26 03:00","1969","11","26","03:00","2.8","","1.1","","90","","27","","19","","19.3","","99.86","","","","","","Snow Pellets"
"1969-11-26 04:00","1969","11","26","04:00","2.2","","1.1","","92","","29","","16","","24.1","","99.91","","","","","","Mostly Cloudy"
"1969-11-26 05:00","1969","11","26","05:00","1.1","","-0.6","","89","","32","","23","","24.1","","100.02","","","","","","Mainly Clear"
"1969-11-26 06:00","1969","11","26","06:00","1.7","","-0.6","","84","","29","","21","","25.0","","100.11","","","","","","Mainly Clear"
"1969-11-26 07:00","1969","11","26","07:00","0.0","","-2.8","","83","","32","","16","","25.0","","100.21","","","","-5","","Mainly Clear"
"1969-11-26 08:00","1969","11","26","08:00","0.6","","-3.9","","73","","29","","19","","40.2","","100.26","","","","","","Mainly Clear"
"1969-11-26 09:00","1969","11","26","09:00","1.7","","-2.8","","73","","29","","23","","40.2","","100.30","","","","","","Mainly Clear"
"1969-11-26 10:00","1969","11","26","10:00","2.8","","-1.7","","72","","29","","32","","40.2","","100.35","","","","","","Mainly Clear"
"1969-11-26 11:00","1969","11","26","11:00","2.8","","-3.3","","64","","27","","34","","40.2","","100.41","","","","","","Mostly Cloudy"
"1969-11-26 12:00","1969","11","26","12:00","2.8","","-4.4","","59","","29","","26","","40.2","","100.39","","","","","","Mostly Cloudy"
"1969-11-26 13:00","1969","11","26","13:00","2.8","","-3.3","","64","","29","","27","","40.2","","100.38","","","","","","Mostly Cloudy"
"1969-11-26 14:00","1969","11","26","14:00","3.3","","-3.9","","60","","29","","24","","40.2","","100.36","","","","","","Mainly Clear"
"1969-11-26 15:00","1969","11","26","15:00","2.8","","-3.3","","64","","29","","27","","40.2","","100.40","","","","","","Mostly Cloudy"
"1969-11-26 16:00","1969","11","26","16:00","1.1","","-3.9","","68","","29","","23","","40.2","","100.47","","","","","","Mostly Cloudy"
"1969-11-26 17:00","1969","11","26","17:00","-1.1","","-6.1","","68","","27","","10","","40.2","","100.47","","","","-5","","Mainly Clear"
"1969-11-26 18:00","1969","11","26","18:00","-1.7","","-5.0","","78","","29","","13","","40.2","","100.52","","","","-6","","Mainly Clear"
"1969-11-26 19:00","1969","11","26","19:00","-1.7","","-4.4","","80","","29","","11","","25.0","","100.55","","","","-6","","Mostly Cloudy"
"1969-11-26 20:00","1969","11","26","20:00","-1.7","","-5.6","","76","","27","","13","","25.0","","100.56","","","","-6","","Mostly Cloudy"
"1969-11-26 21:00","1969","11","26","21:00","-1.1","","-4.4","","77","","29","","8","","25.0","","100.57","","","","-4","","Cloudy"
"1969-11-26 22:00","1969","11","26","22:00","-1.7","","-5.0","","78","","27","","8","","25.0","","100.54","","","","-5","","Cloudy"
"1969-11-26 23:00","1969","11","26","23:00","-2.2","","-5.6","","78","","25","","6","","25.0","","100.53","","","","-5","","Cloudy"
"1969-11-27 00:00","1969","11","27","00:00","-2.2","","-5.0","","80","","27","","5","","25.0","","100.52","","","","-4","","Cloudy"
"1969-11-27 01:00","1969","11","27","01:00","-2.8","","-6.1","","79","","27","","6","","25.0","","100.51","","","","-5","","Mostly Cloudy"
"1969-11-27 02:00","1969","11","27","02:00","-3.3","","-6.1","","80","","29","","13","","25.0","","100.53","","","","-8","","Mostly Cloudy"
"1969-11-27 03:00","1969","11","27","03:00","-3.9","","-6.1","","85","","29","","11","","25.0","","100.55","","","","-8","","Mostly Cloudy"
"1969-11-27 04:00","1969","11","27","04:00","-4.4","","-6.1","","90","","32","","10","","25.0","","100.53","","","","-9","","Mostly Cloudy"
"1969-11-27 05:00","1969","11","27","05:00","-3.3","","-5.6","","84","","36","","8","","25.0","","100.55","","","","-7","","Mostly Cloudy"
"1969-11-27 06:00","1969","11","27","06:00","-2.8","","-5.0","","84","","2","","10","","25.0","","100.60","","","","-7","","Mostly Cloudy"
"1969-11-27 07:00","1969","11","27","07:00","-2.8","","-5.6","","81","","36","","13","","25.0","","100.62","","","","-7","","Mostly Cloudy"
"1969-11-27 08:00","1969","11","27","08:00","-2.8","","-5.0","","84","","2","","16","","24.1","","100.68","","","","-8","","Snow Showers"
"1969-11-27 09:00","1969","11","27","09:00","-2.8","","-5.0","","85","","2","","19","","4.0","","100.69","","","","-9","","Snow Showers"
"1969-11-27 10:00","1969","11","27","10:00","-2.8","","-5.0","","85","","2","","16","","4.8","","100.71","","","","-8","","Snow"
"1969-11-27 11:00","1969","11","27","11:00","-2.2","","-3.9","","88","","2","","18","","9.7","","100.70","","","","-8","","Snow"
"1969-11-27 12:00","1969","11","27","12:00","-2.2","","-4.4","","84","","5","","11","","11.3","","100.64","","","","-6","","Snow"
"1969-11-27 13:00","1969","11","27","13:00","-1.7","","-4.4","","83","","2","","14","","8.0","","100.59","","","","-6","","Snow"
"1969-11-27 14:00","1969","11","27","14:00","-1.1","","-4.4","","79","","2","","13","","6.4","","100.55","","","","-5","","Snow"
"1969-11-27 15:00","1969","11","27","15:00","-1.7","","-3.3","","87","","5","","11","","4.0","","100.54","","","","-6","","Snow"
"1969-11-27 16:00","1969","11","27","16:00","-2.2","","-3.9","","88","","36","","16","","2.0","","100.54","","","","-7","","Snow"
"1969-11-27 17:00","1969","11","27","17:00","-2.8","","-3.9","","92","","36","","18","","2.0","","100.57","","","","-8","","Snow"
"1969-11-27 18:00","1969","11","27","18:00","-2.8","","-3.9","","92","","2","","13","","4.0","","100.61","","","","-7","","Snow"
"1969-11-27 19:00","1969","11","27","19:00","-3.3","","-5.0","","89","","36","","13","","4.8","","100.63","","","","-8","","Snow"
"1969-11-27 20:00","1969","11","27","20:00","-3.9","","-5.6","","87","","36","","13","","19.3","","100.63","","","","-9","","Mainly Clear"
"1969-11-27 21:00","1969","11","27","21:00","-3.9","","-5.6","","88","","36","","19","","25.0","","100.62","","","","-10","","Cloudy"
"1969-11-27 22:00","1969","11","27","22:00","-3.9","","-6.1","","84","","36","","14","","25.0","","100.59","","","","-9","","Mostly Cloudy"
"1969-11-27 23:00","1969","11","27","23:00","-3.9","","-6.7","","80","","36","","13","","25.0","","100.56","","","","-9","","Mostly Cloudy"
"1969-11-28 00:00","1969","11","28","00:00","-3.9","","-6.7","","83","","36","","13","","25.0","","100.55","","","","-9","","Cloudy"
"1969-11-28 01:00","1969","11","28","01:00","-3.9","","-7.2","","78","","36","","11","","25.0","","100.52","","","","-8","","Mostly Cloudy"
"1969-11-28 02:00","1969","11","28","02:00","-4.4","","-7.2","","81","","36","","10","","25.0","","100.50","","","","-9","","Mostly Cloudy"
"1969-11-28 03:00","1969","11","28","03:00","-5.6","","-8.3","","81","","34","","10","","25.0","","100.51","","","","-10","","Mainly Clear"
"1969-11-28 04:00","1969","11","28","04:00","-7.8","","-10.6","","82","","32","","8","","25.0","","100.45","","","","-12","","Mainly Clear"
"1969-11-28 05:00","1969","11","28","05:00","-8.9","","-10.6","","89","","34","","8","","25.0","","100.47","","","","-13","","Mainly Clear"
"1969-11-28 06:00","1969","11","28","06:00","-5.6","","-7.8","","86","","34","","8","","25.0","","100.49","","","","-9","","Mostly Cloudy"
"1969-11-28 07:00","1969","11","28","07:00","-5.0","","-7.2","","86","","32","","6","","25.0","","100.50","","","","-8","","Mostly Cloudy"
"1969-11-28 08:00","1969","11","28","08:00","-3.9","","-6.7","","83","","34","","8","","32.2","","100.46","","","","-7","","Mostly Cloudy"
"1969-11-28 09:00","1969","11","28","09:00","-3.9","","-6.7","","79","","29","","5","","32.2","","100.46","","","","-6","","Mostly Cloudy"
"1969-11-28 10:00","1969","11","28","10:00","-2.8","","-6.1","","77","","27","","10","","32.2","","100.43","","","","-7","","Mostly Cloudy"
"1969-11-28 11:00","1969","11","28","11:00","-1.7","","-5.6","","74","","25","","16","","32.2","","100.37","","","","-7","","Mainly Clear"
"1969-11-28 12:00","1969","11","28","12:00","-0.6","","-5.6","","70","","27","","23","","40.2","","100.25","","","","-6","","Mainly Clear"
"1969-11-28 13:00","1969","11","28","13:00","0.0","","-3.9","","74","","25","","21","","40.2","","100.18","","","","-5","","Mostly Cloudy"
"1969-11-28 14:00","1969","11","28","14:00","-0.6","","-4.4","","76","","25","","21","","32.2","","100.10","","","","-6","","Mainly Clear"
"1969-11-28 15:00","1969","11","28","15:00","-1.1","","-5.0","","76","","25","","21","","24.1","","100.07","","","","-7","","Mainly Clear"
"1969-11-28 16:00","1969","11","28","16:00","-1.7","","-5.0","","78","","25","","21","","24.1","","100.08","","","","-8","","Mainly Clear"
"1969-11-28 17:00","1969","11","28","17:00","-2.8","","-6.1","","77","","20","","18","","24.1","","99.98","","","","-8","","Mainly Clear"
"1969-11-28 18:00","1969","11","28","18:00","-2.8","","-6.1","","77","","20","","14","","24.1","","99.93","","","","-8","","Mainly Clear"
"1969-11-28 19:00","1969","11","28","19:00","-2.2","","-5.6","","78","","20","","13","","24.1","","99.88","","","","-7","","Mostly Cloudy"
"1969-11-28 20:00","1969","11","28","20:00","-1.7","","-5.0","","78","","23","","14","","24.1","","99.88","","","","-6","","Cloudy"
"1969-11-28 21:00","1969","11","28","21:00","-1.7","","-3.9","","84","","23","","18","","24.1","","99.80","","","","-7","","Cloudy"
"1969-11-28 22:00","1969","11","28","22:00","-1.7","","-4.4","","82","","23","","16","","24.1","","99.74","","","","-7","","Cloudy"
"1969-11-28 23:00","1969","11","28","23:00","-1.1","","-3.9","","81","","23","","13","","24.1","","99.69","","","","-5","","Cloudy"
"1969-11-29 00:00","1969","11","29","00:00","-1.1","","-3.9","","80","","25","","16","","24.1","","99.66","","","","-6","","Cloudy"
"1969-11-29 01:00","1969","11","29","01:00","-1.1","","-3.9","","80","","25","","24","","25.0","","99.65","","","","-7","","Cloudy"
"1969-11-29 02:00","1969","11","29","02:00","-1.1","","-3.9","","83","","27","","21","","24.1","","99.63","","","","-7","","Cloudy"
"1969-11-29 03:00","1969","11","29","03:00","-1.1","","-3.3","","86","","25","","19","","24.1","","99.58","","","","-6","","Cloudy"
"1969-11-29 04:00","1969","11","29","04:00","-1.1","","-2.8","","89","","23","","19","","24.1","","99.51","","","","-6","","Cloudy"
"1969-11-29 05:00","1969","11","29","05:00","-1.1","","-2.2","","92","","23","","24","","24.1","","99.49","","","","-7","","Cloudy"
"1969-11-29 06:00","1969","11","29","06:00","-1.1","","-2.2","","94","","23","","24","","24.1","","99.50","","","","-7","","Cloudy"
"1969-11-29 07:00","1969","11","29","07:00","-1.1","","-1.7","","96","","23","","19","","24.1","","99.49","","","","-6","","Cloudy"
"1969-11-29 08:00","1969","11","29","08:00","-1.1","","-1.7","","95","","23","","19","","8.0","","99.48","","","","-6","","Fog"
"1969-11-29 09:00","1969","11","29","09:00","-0.6","","-2.8","","85","","25","","14","","11.3","","99.51","","","","-5","","Snow Showers"
"1969-11-29 10:00","1969","11","29","10:00","-0.6","","-2.8","","85","","25","","19","","4.8","","99.49","","","","-6","","Snow"
"1969-11-29 11:00","1969","11","29","11:00","-0.6","","-2.2","","88","","25","","19","","11.3","","99.43","","","","-6","","Snow"
"1969-11-29 12:00","1969","11","29","12:00","0.0","","-2.2","","86","","25","","21","","11.3","","99.35","","","","-5","","Snow Showers"
"1969-11-29 13:00","1969","11","29","13:00","0.6","","-2.2","","81","","25","","24","","12.9","","99.28","","","","","","Mostly Cloudy"
"1969-11-29 14:00","1969","11","29","14:00","1.7","","-2.2","","76","","27","","24","","12.9","","99.24","","","","","","Mainly Clear"
"1969-11-29 15:00","1969","11","29","15:00","2.2","","-2.2","","74","","27","","23","","16.1","","99.22","","","","","","Mostly Cloudy"
"1969-11-29 16:00","1969","11","29","16:00","1.1","","-2.8","","76","","27","","21","","16.1","","99.22","","","","","","Mainly Clear"
"1969-11-29 17:00","1969","11","29","17:00","-0.6","","-3.9","","79","","25","","18","","12.9","","99.23","","","","-6","","Mainly Clear"
"1969-11-29 18:00","1969","11","29","18:00","-0.6","","-3.3","","82","","27","","19","","12.9","","99.24","","","","-6","","Mainly Clear"
"1969-11-29 19:00","1969","11","29","19:00","0.0","","-2.2","","86","","27","","18","","24.1","","99.25","","","","-5","","Mostly Cloudy"
"1969-11-29 20:00","1969","11","29","20:00","0.0","","-3.3","","80","","29","","29","","25.0","","99.25","","","","-6","","Mostly Cloudy"
"1969-11-29 21:00","1969","11","29","21:00","0.0","","-2.8","","83","","29","","23","","25.0","","99.27","","","","-6","","Mostly Cloudy"
"1969-11-29 22:00","1969","11","29","22:00","-0.6","","-3.9","","79","","29","","29","","25.0","","99.27","","","","-7","","Cloudy"
"1969-11-29 23:00","1969","11","29","23:00","-2.2","","-5.6","","79","","29","","14","","25.0","","99.26","","","","-7","","Mainly Clear"
"1969-11-30 00:00","1969","11","30","00:00","-2.8","","-6.1","","77","","27","","18","","25.0","","99.24","","","","-8","","Mostly Cloudy"
"1969-11-30 01:00","1969","11","30","01:00","-2.2","","-6.1","","76","","29","","19","","25.0","","99.15","","","","-8","","Mostly Cloudy"
"1969-11-30 02:00","1969","11","30","02:00","-2.8","","-5.6","","81","","29","","23","","25.0","","99.10","","","","-9","","Mostly Cloudy"
"1969-11-30 03:00","1969","11","30","03:00","-2.8","","-6.7","","76","","27","","21","","25.0","","99.00","","","","-9","","Cloudy"
"1969-11-30 04:00","1969","11","30","04:00","-3.3","","-7.2","","75","","25","","16","","25.0","","98.92","","","","-9","","Cloudy"
"1969-11-30 05:00","1969","11","30","05:00","-2.8","","-6.7","","76","","25","","24","","25.0","","98.81","","","","-9","","Cloudy"
"1969-11-30 06:00","1969","11","30","06:00","-3.3","","-7.2","","75","","25","","23","","25.0","","98.73","","","","-10","","Cloudy"
"1969-11-30 07:00","1969","11","30","07:00","-3.3","","-6.7","","77","","25","","16","","25.0","","98.70","","","","-9","","Cloudy"
"1969-11-30 08:00","1969","11","30","08:00","-3.9","","-7.2","","77","","23","","23","","11.3","","98.52","","","","-11","","Snow Showers"
"1969-11-30 09:00","1969","11","30","09:00","-3.9","","-6.7","","79","","20","","29","","3.2","","98.40","","","","-11","","Snow"
"1969-11-30 10:00","1969","11","30","10:00","-4.4","","-6.1","","88","","18","","18","","1.2","","98.28","","","","-10","","Snow"
"1969-11-30 11:00","1969","11","30","11:00","-3.9","","-5.0","","91","","16","","14","","1.2","","98.07","","","","-9","","Snow"
"1969-11-30 12:00","1969","11","30","12:00","-2.8","","-3.9","","93","","18","","14","","8.0","","97.86","","","","-8","","Snow"
"1969-11-30 13:00","1969","11","30","13:00","-1.7","","-2.8","","91","","23","","23","","11.3","","97.75","","","","-8","","Snow"
"1969-11-30 14:00","1969","11","30","14:00","-1.1","","-3.9","","82","","23","","19","","16.1","","97.65","","","","-6","","Snow"
"1969-11-30 15:00","1969","11","30","15:00","-1.1","","-3.9","","81","","25","","21","","12.9","","97.58","","","","-7","","Snow"
"1969-11-30 16:00","1969","11","30","16:00","-0.6","","-3.9","","79","","23","","13","","16.1","","97.56","","","","-5","","Cloudy"
"1969-11-30 17:00","1969","11","30","17:00","-0.6","","-4.4","","76","","23","","13","","19.3","","97.54","","","","-5","","Cloudy"
"1969-11-30 18:00","1969","11","30","18:00","-0.6","","-2.8","","85","","25","","16","","16.1","","97.51","","","","-5","","Snow"
"1969-11-30 19:00","1969","11","30","19:00","-1.1","","-2.8","","88","","23","","13","","12.9","","97.48","","","","-5","","Snow"
"1969-11-30 20:00","1969","11","30","20:00","-1.1","","-2.8","","88","","20","","11","","16.1","","97.44","","","","-5","","Snow"
"1969-11-30 21:00","1969","11","30","21:00","-1.1","","-2.2","","93","","23","","21","","9.7","","97.34","","","","-7","","Snow"
"1969-11-30 22:00","1969","11","30","22:00","-0.6","","-2.2","","88","","25","","16","","24.1","","97.29","","","","-5","","Mostly Cloudy"
"1969-11-30 23:00","1969","11","30","23:00","0.0","","-1.7","","88","","29","","21","","24.1","","97.29","","","","-5","","Mostly Cloudy"
