"Station Name","TORONTO INTL A"
"Province","ONTARIO"
"Latitude","43.68"
"Longitude","-79.63"
"Elevation","173.40"
"Climate Identifier","6158731"
"WMO Identifier","71624"
"TC Identifier","YYZ"
"All times are specified in Local Standard Time (LST). Add 1 hour to adjust for Daylight Saving Time where and when it is observed."

"Legend"
"E","Estimated"
"M","Missing"
"NA","Not Available"

"Date/Time","Year","Month","Day","Time","Temp (°C)","Temp Flag","Dew Point Temp (°C)","Dew Point Temp Flag","Rel Hum (%)","Rel Hum Flag","Wind Dir (10s deg)","Wind Dir Flag","Wind Spd (km/h)","Wind Spd Flag","Visibility (km)","Visibility Flag","Stn Press (kPa)","Stn Press Flag","Hmdx","Hmdx Flag","Wind Chill","Wind Chill Flag","Weather"
"2014-09-01 00:00","2014","09","01","00:00","19.7","","17.3","","86","","31","","9","","24.1","","99.37","","","","","","NA"
"2014-09-01 01:00","2014","09","01","01:00","19.2","","17.0","","87","","36","","2","","24.1","","99.38","","","","","","Clear"
"2014-09-01 02:00","2014","09","01","02:00","19.3","","16.9","","86","","3","","4","","24.1","","99.39","","","","","","NA"
"2014-09-01 03:00","2014","09","01","03:00","18.0","","16.2","","89","","28","","5","","24.1","","99.42","","","","","","NA"
"2014-09-01 04:00","2014","09","01","04:00","18.6","","16.6","","88","","26","","5","","24.1","","99.43","","","","","","Mainly Clear"
"2014-09-01 05:00","2014","09","01","05:00","19.4","","17.0","","86","","36","","2","","24.1","","99.40","","","","","","NA"
"2014-09-01 06:00","2014","09","01","06:00","19.5","","17.5","","88","","10","","8","","9.7","","99.40","","","","","","Fog"
"2014-09-01 07:00","2014","09","01","07:00","19.9","","18.4","","91","","13","","9","","6.4","","99.39","","","","","","Fog"
"2014-09-01 08:00","2014","09","01","08:00","20.2","","19.4","","95","","15","","5","","1.2","","99.37","","27","","","","Drizzle,Fog"
"2014-09-01 09:00","2014","09","01","09:00","21.0","","20.4","","96","","15","","5","","3.2","","99.35","","29","","","","Fog"
"2014-09-01 10:00","2014","09","01","10:00","21.9","","20.6","","92","","15","","10","","6.4","","99.29","","30","","","","Fog"
"2014-09-01 11:00","2014","09","01","11:00","25.8","","21.1","","75","","18","","11","","9.7","","99.23","","34","","","","Fog"
"2014-09-01 12:00","2014","09","01","12:00","26.1","","21.4","","75","","17","","19","","16.1","","99.17","","35","","","","NA"
"2014-09-01 13:00","2014","09","01","13:00","24.4","","21.4","","83","","15","","20","","16.1","","99.12","","33","","","","Mostly Cloudy"
"2014-09-01 14:00","2014","09","01","14:00","26.9","","20.9","","69","","18","","21","","24.1","","99.03","","35","","","","NA"
"2014-09-01 15:00","2014","09","01","15:00","29.0","","21.7","","64","","20","","20","","24.1","","98.97","","38","","","","NA"
"2014-09-01 16:00","2014","09","01","16:00","28.1","","20.3","","62","","20","","30","","24.1","","98.91","","36","","","","Mostly Cloudy"
"2014-09-01 17:00","2014","09","01","17:00","28.4","","20.6","","62","","20","","18","","24.1","","98.90","","36","","","","NA"
"2014-09-01 18:00","2014","09","01","18:00","27.2","","19.9","","64","","22","","26","","24.1","","98.91","","35","","","","NA"
"2014-09-01 19:00","2014","09","01","19:00","26.2","","20.2","","69","","20","","18","","24.1","","98.95","","34","","","","Mostly Cloudy"
"2014-09-01 20:00","2014","09","01","20:00","25.9","","20.1","","70","","20","","17","","24.1","","98.94","","34","","","","NA"
"2014-09-01 21:00","2014","09","01","21:00","25.0","","20.6","","76","","18","","13","","24.1","","98.87","","33","","","","Thunderstorms,Rain Showers"
"2014-09-01 22:00","2014","09","01","22:00","23.0","","20.9","","88","","19","","14","","19.3","","98.84","","31","","","","Rain Showers"
"2014-09-01 23:00","2014","09","01","23:00","23.6","","21.2","","86","","21","","27","","24.1","","98.78","","32","","","","NA"
"2014-09-02 00:00","2014","09","02","00:00","22.0","","20.0","","88","","24","","21","","24.1","","98.81","","30","","","","NA"
"2014-09-02 01:00","2014","09","02","01:00","21.2","","19.5","","90","","25","","17","","24.1","","98.84","","28","","","","Clear"
"2014-09-02 02:00","2014","09","02","02:00","20.9","","19.2","","90","","26","","14","","24.1","","98.84","","28","","","","NA"
"2014-09-02 03:00","2014","09","02","03:00","20.4","","19.1","","92","","24","","8","","19.3","","98.88","","27","","","","NA"
"2014-09-02 04:00","2014","09","02","04:00","20.4","","19.3","","93","","22","","8","","19.3","","98.89","","27","","","","Mainly Clear"
"2014-09-02 05:00","2014","09","02","05:00","20.9","","19.6","","92","","21","","3","","24.1","","98.94","","28","","","","NA"
"2014-09-02 06:00","2014","09","02","06:00","20.8","","19.3","","91","","25","","15","","16.1","","99.00","","28","","","","NA"
"2014-09-02 07:00","2014","09","02","07:00","22.3","","19.9","","86","","23","","10","","16.1","","99.02","","30","","","","Cloudy"
"2014-09-02 08:00","2014","09","02","08:00","23.6","","20.4","","82","","24","","9","","24.1","","98.99","","32","","","","NA"
"2014-09-02 09:00","2014","09","02","09:00","24.4","","20.6","","79","","23","","14","","24.1","","98.99","","32","","","","NA"
"2014-09-02 10:00","2014","09","02","10:00","24.4","","20.0","","76","","24","","14","","19.3","","99.00","","32","","","","Cloudy"
"2014-09-02 11:00","2014","09","02","11:00","24.4","","19.6","","74","","22","","18","","19.3","","98.96","","32","","","","NA"
"2014-09-02 12:00","2014","09","02","12:00","23.8","","20.6","","82","","21","","11","","19.3","","98.89","","32","","","","Rain Showers"
"2014-09-02 13:00","2014","09","02","13:00","23.6","","21.2","","86","","18","","10","","9.7","","98.84","","32","","","","Rain Showers,Fog"
"2014-09-02 14:00","2014","09","02","14:00","18.0","","16.9","","93","","27","","11","","6.4","","98.87","","","","","","Thunderstorms,Moderate Rain Showers,Fog"
"2014-09-02 15:00","2014","09","02","15:00","19.2","","17.9","","92","","15","","4","","24.1","","98.87","","","","","","Rain Showers"
"2014-09-02 16:00","2014","09","02","16:00","20.0","","18.3","","90","","21","","14","","24.1","","98.91","","26","","","","Cloudy"
"2014-09-02 17:00","2014","09","02","17:00","20.5","","18.8","","90","","24","","8","","24.1","","98.92","","27","","","","NA"
"2014-09-02 18:00","2014","09","02","18:00","21.6","","19.0","","85","","30","","14","","24.1","","98.94","","28","","","","NA"
"2014-09-02 19:00","2014","09","02","19:00","20.9","","17.2","","79","","31","","19","","24.1","","98.99","","26","","","","Mainly Clear"
"2014-09-02 20:00","2014","09","02","20:00","18.4","","16.6","","89","","27","","10","","24.1","","99.09","","","","","","NA"
"2014-09-02 21:00","2014","09","02","21:00","17.9","","15.9","","88","","26","","12","","24.1","","99.12","","","","","","NA"
"2014-09-02 22:00","2014","09","02","22:00","17.7","","15.5","","87","","28","","13","","24.1","","99.15","","","","","","Clear"
"2014-09-02 23:00","2014","09","02","23:00","16.6","","15.1","","91","","25","","10","","24.1","","99.23","","","","","","NA"
"2014-09-03 00:00","2014","09","03","00:00","17.0","","15.0","","88","","27","","17","","24.1","","99.27","","","","","","NA"
"2014-09-03 01:00","2014","09","03","01:00","15.8","","14.4","","91","","26","","13","","24.1","","99.30","","","","","","Clear"
"2014-09-03 02:00","2014","09","03","02:00","15.7","","14.4","","92","","29","","12","","24.1","","99.30","","","","","","NA"
"2014-09-03 03:00","2014","09","03","03:00","16.0","","14.2","","89","","28","","15","","24.1","","99.34","","","","","","NA"
"2014-09-03 04:00","2014","09","03","04:00","15.7","","13.9","","89","","30","","10","","24.1","","99.38","","","","","","Clear"
"2014-09-03 05:00","2014","09","03","05:00","14.8","","13.2","","90","","27","","14","","24.1","","99.44","","","","","","NA"
"2014-09-03 06:00","2014","09","03","06:00","15.3","","13.4","","88","","25","","8","","24.1","","99.50","","","","","","NA"
"2014-09-03 07:00","2014","09","03","07:00","17.1","","14.4","","84","","25","","9","","24.1","","99.58","","","","","","Clear"
"2014-09-03 08:00","2014","09","03","08:00","19.8","","14.5","","71","","27","","7","","24.1","","99.60","","","","","","NA"
"2014-09-03 09:00","2014","09","03","09:00","22.0","","15.0","","64","","27","","9","","24.1","","99.64","","26","","","","NA"
"2014-09-03 10:00","2014","09","03","10:00","23.6","","14.7","","57","","25","","8","","24.1","","99.67","","27","","","","Clear"
"2014-09-03 11:00","2014","09","03","11:00","24.8","","14.2","","51","","27","","11","","24.1","","99.65","","28","","","","NA"
"2014-09-03 12:00","2014","09","03","12:00","24.6","","14.6","","53","","29","","10","","24.1","","99.61","","28","","","","NA"
"2014-09-03 13:00","2014","09","03","13:00","26.0","","14.7","","49","","28","","11","","24.1","","99.60","","30","","","","Mostly Cloudy"
"2014-09-03 14:00","2014","09","03","14:00","27.1","","13.7","","43","","29","","23","","24.1","","99.61","","30","","","","NA"
"2014-09-03 15:00","2014","09","03","15:00","27.2","","14.5","","45","","26","","15","","24.1","","99.62","","31","","","","NA"
"2014-09-03 16:00","2014","09","03","16:00","27.4","","12.8","","40","","28","","20","","24.1","","99.59","","30","","","","Mostly Cloudy"
"2014-09-03 17:00","2014","09","03","17:00","26.8","","13.7","","44","","28","","17","","24.1","","99.60","","30","","","","NA"
"2014-09-03 18:00","2014","09","03","18:00","25.4","","15.6","","54","","21","","13","","24.1","","99.62","","30","","","","NA"
"2014-09-03 19:00","2014","09","03","19:00","24.4","","17.0","","63","","21","","15","","24.1","","99.63","","30","","","","Mostly Cloudy"
"2014-09-03 20:00","2014","09","03","20:00","22.6","","17.0","","70","","22","","9","","24.1","","99.70","","28","","","","NA"
"2014-09-03 21:00","2014","09","03","21:00","21.0","","16.9","","77","","26","","11","","24.1","","99.72","","26","","","","NA"
"2014-09-03 22:00","2014","09","03","22:00","20.6","","16.3","","76","","28","","11","","24.1","","99.73","","25","","","","Mainly Clear"
"2014-09-03 23:00","2014","09","03","23:00","20.0","","15.3","","74","","28","","6","","24.1","","99.76","","","","","","NA"
"2014-09-04 00:00","2014","09","04","00:00","20.0","","16.3","","79","","18","","7","","24.1","","99.77","","25","","","","NA"
"2014-09-04 01:00","2014","09","04","01:00","18.9","","15.8","","82","","20","","3","","24.1","","99.78","","","","","","Clear"
"2014-09-04 02:00","2014","09","04","02:00","18.1","","15.6","","85","","23","","8","","24.1","","99.80","","","","","","NA"
"2014-09-04 03:00","2014","09","04","03:00","17.5","","15.5","","88","","23","","7","","24.1","","99.80","","","","","","NA"
"2014-09-04 04:00","2014","09","04","04:00","17.7","","15.4","","86","","30","","3","","24.1","","99.77","","","","","","Mainly Clear"
"2014-09-04 05:00","2014","09","04","05:00","17.8","","15.6","","87","","36","","3","","24.1","","99.78","","","","","","NA"
"2014-09-04 06:00","2014","09","04","06:00","17.3","","15.5","","89","","36","","2","","16.1","","99.79","","","","","","NA"
"2014-09-04 07:00","2014","09","04","07:00","18.8","","16.4","","86","","0","","1","","19.3","","99.79","","","","","","Mainly Clear"
"2014-09-04 08:00","2014","09","04","08:00","20.9","","16.8","","77","","17","","8","","19.3","","99.76","","26","","","","NA"
"2014-09-04 09:00","2014","09","04","09:00","22.9","","18.1","","74","","17","","10","","24.1","","99.78","","29","","","","NA"
"2014-09-04 10:00","2014","09","04","10:00","24.7","","19.4","","72","","18","","10","","24.1","","99.76","","32","","","","Mainly Clear"
"2014-09-04 11:00","2014","09","04","11:00","26.4","","20.1","","68","","14","","15","","24.1","","99.77","","34","","","","NA"
"2014-09-04 12:00","2014","09","04","12:00","27.0","","18.7","","60","","15","","14","","24.1","","99.72","","34","","","","NA"
"2014-09-04 13:00","2014","09","04","13:00","28.4","","15.9","","46","","23","","29","","24.1","","99.70","","33","","","","Mostly Cloudy"
"2014-09-04 14:00","2014","09","04","14:00","28.8","","15.6","","44","","23","","21","","24.1","","99.71","","33","","","","NA"
"2014-09-04 15:00","2014","09","04","15:00","29.5","","16.2","","44","","21","","20","","24.1","","99.64","","34","","","","NA"
"2014-09-04 16:00","2014","09","04","16:00","28.2","","15.7","","46","","23","","26","","24.1","","99.64","","33","","","","Mainly Clear"
"2014-09-04 17:00","2014","09","04","17:00","28.3","","16.1","","47","","22","","18","","24.1","","99.61","","33","","","","NA"
"2014-09-04 18:00","2014","09","04","18:00","27.1","","15.7","","49","","22","","26","","24.1","","99.62","","32","","","","NA"
"2014-09-04 19:00","2014","09","04","19:00","26.1","","15.7","","52","","20","","20","","24.1","","99.52","","31","","","","Mostly Cloudy"
"2014-09-04 20:00","2014","09","04","20:00","25.7","","16.2","","55","","20","","23","","24.1","","99.45","","30","","","","NA"
"2014-09-04 21:00","2014","09","04","21:00","24.3","","16.7","","62","","16","","22","","24.1","","99.41","","29","","","","NA"
"2014-09-04 22:00","2014","09","04","22:00","23.2","","17.1","","68","","20","","8","","24.1","","99.61","","29","","","","Mostly Cloudy"
"2014-09-04 23:00","2014","09","04","23:00","23.6","","17.0","","66","","32","","4","","24.1","","99.72","","29","","","","NA"
"2014-09-05 00:00","2014","09","05","00:00","24.0","","16.7","","63","","18","","10","","24.1","","99.69","","29","","","","NA"
"2014-09-05 01:00","2014","09","05","01:00","23.8","","17.2","","66","","18","","9","","24.1","","99.61","","29","","","","Mostly Cloudy"
"2014-09-05 02:00","2014","09","05","02:00","21.9","","18.0","","78","","15","","13","","24.1","","99.49","","28","","","","NA"
"2014-09-05 03:00","2014","09","05","03:00","21.5","","18.4","","82","","16","","13","","24.1","","99.37","","28","","","","NA"
"2014-09-05 04:00","2014","09","05","04:00","21.5","","18.2","","81","","29","","9","","24.1","","99.49","","28","","","","Mainly Clear"
"2014-09-05 05:00","2014","09","05","05:00","22.4","","18.8","","80","","29","","4","","24.1","","99.57","","29","","","","NA"
"2014-09-05 06:00","2014","09","05","06:00","23.0","","19.6","","81","","20","","7","","24.1","","99.62","","30","","","","NA"
"2014-09-05 07:00","2014","09","05","07:00","23.4","","19.8","","80","","17","","11","","24.1","","99.62","","31","","","","Mostly Cloudy"
"2014-09-05 08:00","2014","09","05","08:00","23.1","","19.9","","82","","15","","11","","24.1","","99.56","","31","","","","NA"
"2014-09-05 09:00","2014","09","05","09:00","24.4","","20.6","","79","","18","","16","","16.1","","99.54","","32","","","","NA"
"2014-09-05 10:00","2014","09","05","10:00","25.3","","21.3","","78","","23","","26","","16.1","","99.46","","34","","","","Cloudy"
"2014-09-05 11:00","2014","09","05","11:00","26.6","","21.7","","74","","20","","19","","16.1","","99.46","","36","","","","NA"
"2014-09-05 12:00","2014","09","05","12:00","28.3","","22.4","","70","","22","","30","","19.3","","99.46","","38","","","","NA"
"2014-09-05 13:00","2014","09","05","13:00","29.6","","23.9","","71","","22","","24","","19.3","","99.36","","41","","","","Mostly Cloudy"
"2014-09-05 14:00","2014","09","05","14:00","30.6","","22.9","","63","","23","","36","","19.3","","99.25","","41","","","","NA"
"2014-09-05 15:00","2014","09","05","15:00","31.4","","23.2","","61","","20","","25","","19.3","","99.19","","42","","","","NA"
"2014-09-05 16:00","2014","09","05","16:00","31.0","","22.8","","61","","22","","26","","24.1","","99.12","","41","","","","Mainly Clear"
"2014-09-05 17:00","2014","09","05","17:00","30.2","","22.3","","62","","22","","27","","24.1","","99.06","","40","","","","NA"
"2014-09-05 18:00","2014","09","05","18:00","29.4","","22.3","","65","","22","","19","","24.1","","99.17","","39","","","","NA"
"2014-09-05 19:00","2014","09","05","19:00","23.8","","17.7","","68","","32","","50","","19.3","","99.18","","30","","","","Thunderstorms,Rain Showers"
"2014-09-05 20:00","2014","09","05","20:00","20.5","","18.5","","88","","24","","9","","24.1","","99.39","","27","","","","Thunderstorms,Rain Showers"
"2014-09-05 21:00","2014","09","05","21:00","20.0","","18.7","","92","","21","","7","","19.3","","99.37","","27","","","","Thunderstorms,Moderate Rain Showers"
"2014-09-05 22:00","2014","09","05","22:00","19.7","","18.7","","94","","24","","6","","16.1","","99.42","","","","","","Thunderstorms,Moderate Rain Showers"
"2014-09-05 23:00","2014","09","05","23:00","19.7","","18.7","","94","","19","","13","","16.1","","99.26","","","","","","Moderate Rain Showers"
"2014-09-06 00:00","2014","09","06","00:00","20.1","","19.1","","94","","20","","14","","19.3","","99.25","","27","","","","Moderate Rain Showers"
"2014-09-06 01:00","2014","09","06","01:00","20.1","","19.3","","95","","20","","7","","24.1","","99.18","","27","","","","Cloudy"
"2014-09-06 02:00","2014","09","06","02:00","20.3","","19.2","","93","","22","","18","","24.1","","99.19","","27","","","","Rain"
"2014-09-06 03:00","2014","09","06","03:00","20.3","","19.3","","94","","25","","12","","24.1","","99.10","","27","","","","Rain"
"2014-09-06 04:00","2014","09","06","04:00","17.7","","15.9","","89","","32","","37","","11.3","","99.08","","","","","","Rain"
"2014-09-06 05:00","2014","09","06","05:00","16.0","","14.6","","91","","34","","26","","19.3","","99.15","","","","","","Rain"
"2014-09-06 06:00","2014","09","06","06:00","16.1","","14.7","","91","","32","","18","","19.3","","99.18","","","","","","Rain"
"2014-09-06 07:00","2014","09","06","07:00","16.5","","14.5","","88","","31","","15","","24.1","","99.22","","","","","","Rain"
"2014-09-06 08:00","2014","09","06","08:00","16.6","","14.8","","89","","26","","16","","24.1","","99.29","","","","","","NA"
"2014-09-06 09:00","2014","09","06","09:00","17.5","","14.6","","83","","31","","19","","24.1","","99.37","","","","","","NA"
"2014-09-06 10:00","2014","09","06","10:00","18.6","","14.7","","78","","28","","17","","24.1","","99.41","","","","","","Mostly Cloudy"
"2014-09-06 11:00","2014","09","06","11:00","21.2","","14.0","","63","","32","","21","","24.1","","99.42","","25","","","","NA"
"2014-09-06 12:00","2014","09","06","12:00","22.3","","14.5","","61","","29","","18","","24.1","","99.42","","26","","","","NA"
"2014-09-06 13:00","2014","09","06","13:00","20.2","","14.0","","67","","35","","24","","24.1","","99.46","","","","","","Mostly Cloudy"
"2014-09-06 14:00","2014","09","06","14:00","20.5","","12.6","","60","","34","","27","","24.1","","99.51","","","","","","NA"
"2014-09-06 15:00","2014","09","06","15:00","20.9","","12.7","","59","","34","","16","","24.1","","99.48","","","","","","NA"
"2014-09-06 16:00","2014","09","06","16:00","20.4","","10.1","","51","","35","","27","","24.1","","99.49","","","","","","Mostly Cloudy"
"2014-09-06 17:00","2014","09","06","17:00","19.9","","7.4","","44","","34","","20","","24.1","","99.52","","","","","","NA"
"2014-09-06 18:00","2014","09","06","18:00","19.2","","7.7","","47","","36","","19","","24.1","","99.53","","","","","","NA"
"2014-09-06 19:00","2014","09","06","19:00","17.8","","7.4","","50","","33","","17","","24.1","","99.63","","","","","","Mostly Cloudy"
"2014-09-06 20:00","2014","09","06","20:00","17.0","","8.3","","56","","31","","18","","24.1","","99.74","","","","","","NA"
"2014-09-06 21:00","2014","09","06","21:00","15.2","","8.5","","64","","29","","14","","24.1","","99.77","","","","","","NA"
"2014-09-06 22:00","2014","09","06","22:00","14.0","","8.7","","70","","28","","12","","24.1","","99.79","","","","","","Clear"
"2014-09-06 23:00","2014","09","06","23:00","14.0","","9.1","","72","","29","","7","","24.1","","99.80","","","","","","NA"
"2014-09-07 00:00","2014","09","07","00:00","14.0","","9.1","","72","","29","","8","","24.1","","99.81","","","","","","NA"
"2014-09-07 01:00","2014","09","07","01:00","13.2","","9.3","","77","","27","","8","","24.1","","99.82","","","","","","Mainly Clear"
"2014-09-07 02:00","2014","09","07","02:00","13.8","","9.5","","75","","29","","13","","24.1","","99.83","","","","","","NA"
"2014-09-07 03:00","2014","09","07","03:00","14.1","","10.2","","77","","31","","17","","24.1","","99.87","","","","","","NA"
"2014-09-07 04:00","2014","09","07","04:00","12.8","","9.8","","82","","30","","11","","24.1","","99.89","","","","","","Clear"
"2014-09-07 05:00","2014","09","07","05:00","12.5","","9.5","","82","","31","","13","","24.1","","99.94","","","","","","NA"
"2014-09-07 06:00","2014","09","07","06:00","12.1","","9.2","","82","","30","","12","","24.1","","100.03","","","","","","NA"
"2014-09-07 07:00","2014","09","07","07:00","13.2","","9.5","","78","","28","","11","","24.1","","100.09","","","","","","Clear"
"2014-09-07 08:00","2014","09","07","08:00","15.4","","9.2","","66","","32","","17","","24.1","","100.12","","","","","","NA"
"2014-09-07 09:00","2014","09","07","09:00","16.6","","10.5","","67","","32","","12","","24.1","","100.16","","","","","","NA"
"2014-09-07 10:00","2014","09","07","10:00","17.6","","10.1","","61","","36","","14","","24.1","","100.19","","","","","","Clear"
"2014-09-07 11:00","2014","09","07","11:00","19.2","","10.6","","57","","34","","5","","24.1","","100.23","","","","","","NA"
"2014-09-07 12:00","2014","09","07","12:00","19.6","","9.0","","50","","29","","6","","24.1","","100.23","","","","","","NA"
"2014-09-07 13:00","2014","09","07","13:00","20.7","","9.7","","49","","1","","5","","24.1","","100.21","","","","","","Clear"
"2014-09-07 14:00","2014","09","07","14:00","21.9","","9.9","","46","","25","","7","","24.1","","100.16","","","","","","NA"
"2014-09-07 15:00","2014","09","07","15:00","21.9","","8.6","","42","","8","","3","","24.1","","100.14","","","","","","NA"
"2014-09-07 16:00","2014","09","07","16:00","21.4","","11.6","","53","","15","","16","","24.1","","100.12","","","","","","Clear"
"2014-09-07 17:00","2014","09","07","17:00","21.0","","10.0","","49","","15","","16","","24.1","","100.14","","","","","","NA"
"2014-09-07 18:00","2014","09","07","18:00","20.0","","9.1","","49","","15","","12","","24.1","","100.12","","","","","","NA"
"2014-09-07 19:00","2014","09","07","19:00","18.5","","9.7","","56","","16","","10","","24.1","","100.14","","","","","","Clear"
"2014-09-07 20:00","2014","09","07","20:00","17.9","","10.4","","61","","16","","9","","24.1","","100.19","","","","","","NA"
"2014-09-07 21:00","2014","09","07","21:00","17.5","","10.0","","61","","16","","7","","24.1","","100.24","","","","","","NA"
"2014-09-07 22:00","2014","09","07","22:00","17.6","","9.6","","59","","14","","4","","24.1","","100.25","","","","","","Clear"
"2014-09-07 23:00","2014","09","07","23:00","16.7","","10.4","","66","","12","","5","","24.1","","100.26","","","","","","NA"
"2014-09-08 00:00","2014","09","08","00:00","16.3","","10.5","","68","","10","","3","","24.1","","100.27","","","","","","NA"
"2014-09-08 01:00","2014","09","08","01:00","15.7","","10.5","","71","","36","","1","","24.1","","100.30","","","","","","Clear"
"2014-09-08 02:00","2014","09","08","02:00","15.1","","10.8","","75","","3","","5","","24.1","","100.32","","","","","","NA"
"2014-09-08 03:00","2014","09","08","03:00","13.9","","10.5","","80","","2","","8","","24.1","","100.34","","","","","","NA"
"2014-09-08 04:00","2014","09","08","04:00","13.2","","10.2","","82","","36","","2","","24.1","","100.35","","","","","","Clear"
"2014-09-08 05:00","2014","09","08","05:00","12.6","","10.0","","84","","3","","4","","24.1","","100.37","","","","","","NA"
"2014-09-08 06:00","2014","09","08","06:00","12.8","","10.2","","84","","4","","10","","24.1","","100.39","","","","","","NA"
"2014-09-08 07:00","2014","09","08","07:00","15.0","","12.2","","83","","4","","8","","24.1","","100.40","","","","","","Mainly Clear"
"2014-09-08 08:00","2014","09","08","08:00","17.8","","13.0","","73","","11","","10","","24.1","","100.42","","","","","","NA"
"2014-09-08 09:00","2014","09","08","09:00","19.6","","11.7","","60","","11","","17","","24.1","","100.45","","","","","","NA"
"2014-09-08 10:00","2014","09","08","10:00","20.5","","9.9","","50","","10","","19","","24.1","","100.44","","","","","","Mainly Clear"
"2014-09-08 11:00","2014","09","08","11:00","20.9","","10.2","","50","","12","","16","","24.1","","100.41","","","","","","NA"
"2014-09-08 12:00","2014","09","08","12:00","21.9","","10.2","","47","","14","","12","","24.1","","100.34","","","","","","NA"
"2014-09-08 13:00","2014","09","08","13:00","22.4","","9.0","","42","","10","","13","","24.1","","100.29","","","","","","Mainly Clear"
"2014-09-08 14:00","2014","09","08","14:00","22.9","","10.8","","46","","13","","13","","24.1","","100.23","","25","","","","NA"
"2014-09-08 15:00","2014","09","08","15:00","23.0","","8.9","","40","","11","","12","","24.1","","100.16","","","","","","NA"
"2014-09-08 16:00","2014","09","08","16:00","22.6","","11.5","","49","","11","","18","","24.1","","100.15","","25","","","","Mainly Clear"
"2014-09-08 17:00","2014","09","08","17:00","21.3","","13.6","","61","","10","","16","","24.1","","100.12","","","","","","NA"
"2014-09-08 18:00","2014","09","08","18:00","20.5","","13.3","","63","","8","","16","","24.1","","100.07","","","","","","NA"
"2014-09-08 19:00","2014","09","08","19:00","19.2","","14.3","","73","","9","","14","","24.1","","100.02","","","","","","Mainly Clear"
"2014-09-08 20:00","2014","09","08","20:00","18.8","","15.3","","80","","9","","14","","24.1","","100.03","","","","","","NA"
"2014-09-08 21:00","2014","09","08","21:00","18.8","","15.9","","83","","8","","10","","24.1","","100.01","","","","","","NA"
"2014-09-08 22:00","2014","09","08","22:00","18.7","","16.2","","85","","11","","10","","24.1","","100.00","","","","","","Mainly Clear"
"2014-09-08 23:00","2014","09","08","23:00","18.8","","15.5","","81","","16","","10","","24.1","","100.02","","","","","","NA"
"2014-09-09 00:00","2014","09","09","00:00","18.5","","15.2","","81","","15","","10","","24.1","","100.01","","","","","","NA"
"2014-09-09 01:00","2014","09","09","01:00","18.2","","15.7","","85","","16","","10","","24.1","","100.01","","","","","","Mostly Cloudy"
"2014-09-09 02:00","2014","09","09","02:00","18.2","","14.6","","79","","15","","13","","24.1","","100.01","","","","","","NA"
"2014-09-09 03:00","2014","09","09","03:00","18.3","","15.2","","82","","15","","14","","24.1","","100.04","","","","","","NA"
"2014-09-09 04:00","2014","09","09","04:00","18.2","","14.4","","78","","15","","13","","24.1","","100.01","","","","","","Cloudy"
"2014-09-09 05:00","2014","09","09","05:00","18.4","","14.4","","77","","15","","9","","24.1","","100.04","","","","","","NA"
"2014-09-09 06:00","2014","09","09","06:00","18.0","","14.2","","78","","13","","10","","24.1","","100.02","","","","","","NA"
"2014-09-09 07:00","2014","09","09","07:00","18.5","","14.5","","77","","13","","11","","24.1","","100.03","","","","","","Mostly Cloudy"
"2014-09-09 08:00","2014","09","09","08:00","19.6","","14.5","","72","","13","","16","","24.1","","100.05","","","","","","NA"
"2014-09-09 09:00","2014","09","09","09:00","20.0","","14.4","","70","","13","","16","","24.1","","100.00","","","","","","NA"
"2014-09-09 10:00","2014","09","09","10:00","20.8","","15.0","","69","","14","","17","","24.1","","99.98","","25","","","","Mostly Cloudy"
"2014-09-09 11:00","2014","09","09","11:00","21.3","","15.7","","70","","13","","17","","24.1","","99.95","","26","","","","NA"
"2014-09-09 12:00","2014","09","09","12:00","20.5","","15.4","","72","","14","","15","","24.1","","99.93","","25","","","","NA"
"2014-09-09 13:00","2014","09","09","13:00","20.0","","15.1","","73","","15","","16","","24.1","","99.90","","","","","","Cloudy"
"2014-09-09 14:00","2014","09","09","14:00","20.5","","15.4","","72","","13","","10","","24.1","","99.84","","25","","","","NA"
"2014-09-09 15:00","2014","09","09","15:00","21.1","","15.5","","70","","10","","10","","24.1","","99.80","","25","","","","NA"
"2014-09-09 16:00","2014","09","09","16:00","21.2","","15.6","","70","","9","","12","","24.1","","99.76","","26","","","","Mostly Cloudy"
"2014-09-09 17:00","2014","09","09","17:00","20.7","","15.8","","73","","12","","11","","24.1","","99.77","","25","","","","NA"
"2014-09-09 18:00","2014","09","09","18:00","19.9","","15.4","","75","","10","","13","","24.1","","99.72","","","","","","NA"
"2014-09-09 19:00","2014","09","09","19:00","19.4","","15.3","","77","","9","","9","","24.1","","99.69","","","","","","Mostly Cloudy"
"2014-09-09 20:00","2014","09","09","20:00","19.5","","15.6","","78","","10","","9","","24.1","","99.69","","","","","","NA"
"2014-09-09 21:00","2014","09","09","21:00","19.0","","16.3","","84","","9","","6","","24.1","","99.68","","","","","","NA"
"2014-09-09 22:00","2014","09","09","22:00","18.8","","16.4","","86","","3","","7","","24.1","","99.76","","","","","","Mostly Cloudy"
"2014-09-09 23:00","2014","09","09","23:00","18.7","","16.4","","86","","1","","5","","24.1","","99.73","","","","","","NA"
"2014-09-10 00:00","2014","09","10","00:00","18.4","","16.6","","89","","8","","9","","24.1","","99.60","","","","","","NA"
"2014-09-10 01:00","2014","09","10","01:00","17.9","","16.4","","91","","12","","5","","24.1","","99.57","","","","","","Mainly Clear"
"2014-09-10 02:00","2014","09","10","02:00","18.2","","16.9","","92","","14","","5","","24.1","","99.59","","","","","","NA"
"2014-09-10 03:00","2014","09","10","03:00","18.3","","16.8","","91","","13","","5","","24.1","","99.53","","","","","","NA"
"2014-09-10 04:00","2014","09","10","04:00","18.3","","17.0","","92","","10","","5","","24.1","","99.53","","","","","","Mostly Cloudy"
"2014-09-10 05:00","2014","09","10","05:00","18.5","","17.2","","92","","1","","5","","19.3","","99.50","","","","","","NA"
"2014-09-10 06:00","2014","09","10","06:00","18.8","","17.3","","91","","14","","7","","24.1","","99.50","","","","","","NA"
"2014-09-10 07:00","2014","09","10","07:00","19.3","","17.3","","88","","12","","9","","24.1","","99.49","","","","","","Cloudy"
"2014-09-10 08:00","2014","09","10","08:00","19.9","","17.7","","87","","12","","9","","24.1","","99.47","","","","","","NA"
"2014-09-10 09:00","2014","09","10","09:00","20.8","","17.9","","83","","15","","10","","24.1","","99.45","","27","","","","NA"
"2014-09-10 10:00","2014","09","10","10:00","21.6","","18.3","","81","","14","","11","","24.1","","99.43","","28","","","","Cloudy"
"2014-09-10 11:00","2014","09","10","11:00","21.7","","17.8","","78","","15","","15","","24.1","","99.36","","28","","","","NA"
"2014-09-10 12:00","2014","09","10","12:00","22.7","","18.5","","77","","13","","17","","24.1","","99.27","","29","","","","NA"
"2014-09-10 13:00","2014","09","10","13:00","22.1","","18.2","","78","","13","","18","","24.1","","99.18","","28","","","","Cloudy"
"2014-09-10 14:00","2014","09","10","14:00","22.1","","18.4","","79","","12","","16","","24.1","","99.08","","28","","","","NA"
"2014-09-10 15:00","2014","09","10","15:00","21.8","","18.3","","80","","9","","20","","24.1","","98.96","","28","","","","NA"
"2014-09-10 16:00","2014","09","10","16:00","21.8","","19.2","","85","","11","","15","","8.1","","98.80","","29","","","","Heavy Rain Showers"
"2014-09-10 17:00","2014","09","10","17:00","21.2","","19.7","","91","","12","","18","","9.7","","98.64","","29","","","","Rain Showers"
"2014-09-10 18:00","2014","09","10","18:00","21.5","","19.5","","88","","14","","23","","6.4","","98.48","","29","","","","Heavy Rain Showers,Fog"
"2014-09-10 19:00","2014","09","10","19:00","21.0","","19.5","","91","","14","","26","","8.1","","98.30","","28","","","","Moderate Rain Showers,Fog"
"2014-09-10 20:00","2014","09","10","20:00","20.9","","19.8","","93","","16","","19","","8.1","","98.26","","28","","","","Heavy Rain Showers,Fog"
"2014-09-10 21:00","2014","09","10","21:00","22.2","","20.0","","87","","19","","32","","12.9","","98.19","","30","","","","Rain Showers"
"2014-09-10 22:00","2014","09","10","22:00","21.6","","20.1","","91","","19","","35","","9.7","","98.13","","29","","","","Rain Showers"
"2014-09-10 23:00","2014","09","10","23:00","22.1","","20.6","","91","","20","","23","","16.1","","98.12","","30","","","","NA"
"2014-09-11 00:00","2014","09","11","00:00","22.2","","21.0","","93","","20","","19","","16.1","","98.07","","31","","","","NA"
"2014-09-11 01:00","2014","09","11","01:00","22.2","","21.0","","93","","20","","24","","16.1","","98.05","","31","","","","Cloudy"
"2014-09-11 02:00","2014","09","11","02:00","22.5","","21.3","","93","","20","","13","","9.7","","97.98","","31","","","","Rain Showers"
"2014-09-11 03:00","2014","09","11","03:00","22.8","","21.3","","91","","21","","17","","16.1","","97.96","","31","","","","NA"
"2014-09-11 04:00","2014","09","11","04:00","22.0","","20.0","","88","","25","","26","","16.1","","98.01","","30","","","","Mostly Cloudy"
"2014-09-11 05:00","2014","09","11","05:00","20.0","","17.1","","83","","26","","32","","24.1","","98.15","","25","","","","NA"
"2014-09-11 06:00","2014","09","11","06:00","16.9","","13.3","","79","","30","","39","","24.1","","98.31","","","","","","NA"
"2014-09-11 07:00","2014","09","11","07:00","15.3","","10.9","","75","","30","","32","","24.1","","98.52","","","","","","Mostly Cloudy"
"2014-09-11 08:00","2014","09","11","08:00","13.8","","9.1","","73","","30","","44","","24.1","","98.71","","","","","","NA"
"2014-09-11 09:00","2014","09","11","09:00","13.8","","8.7","","71","","30","","32","","24.1","","98.91","","","","","","NA"
"2014-09-11 10:00","2014","09","11","10:00","13.7","","8.6","","71","","30","","37","","24.1","","99.04","","","","","","Mostly Cloudy"
"2014-09-11 11:00","2014","09","11","11:00","15.1","","9.3","","68","","31","","31","","24.1","","99.12","","","","","","NA"
"2014-09-11 12:00","2014","09","11","12:00","15.4","","9.4","","67","","29","","29","","24.1","","99.19","","","","","","NA"
"2014-09-11 13:00","2014","09","11","13:00","15.7","","9.9","","68","","29","","31","","24.1","","99.27","","","","","","Cloudy"
"2014-09-11 14:00","2014","09","11","14:00","15.7","","9.7","","67","","30","","25","","24.1","","99.35","","","","","","NA"
"2014-09-11 15:00","2014","09","11","15:00","15.4","","9.4","","67","","32","","22","","24.1","","99.46","","","","","","NA"
"2014-09-11 16:00","2014","09","11","16:00","14.2","","9.3","","72","","1","","27","","24.1","","99.56","","","","","","Cloudy"
"2014-09-11 17:00","2014","09","11","17:00","13.7","","8.4","","70","","1","","23","","24.1","","99.65","","","","","","NA"
"2014-09-11 18:00","2014","09","11","18:00","13.1","","7.8","","70","","1","","23","","24.1","","99.72","","","","","","NA"
"2014-09-11 19:00","2014","09","11","19:00","12.4","","7.5","","72","","32","","24","","24.1","","99.81","","","","","","Cloudy"
"2014-09-11 20:00","2014","09","11","20:00","12.5","","7.4","","71","","31","","20","","24.1","","99.89","","","","","","NA"
"2014-09-11 21:00","2014","09","11","21:00","12.4","","7.3","","71","","36","","20","","24.1","","99.96","","","","","","NA"
"2014-09-11 22:00","2014","09","11","22:00","11.7","","7.1","","73","","36","","18","","24.1","","100.01","","","","","","Cloudy"
"2014-09-11 23:00","2014","09","11","23:00","11.4","","6.2","","70","","1","","16","","24.1","","100.08","","","","","","NA"
"2014-09-12 00:00","2014","09","12","00:00","11.4","","6.4","","71","","1","","5","","24.1","","100.11","","","","","","NA"
"2014-09-12 01:00","2014","09","12","01:00","11.3","","6.3","","71","","11","","6","","24.1","","100.18","","","","","","Cloudy"
"2014-09-12 02:00","2014","09","12","02:00","11.3","","6.1","","70","","36","","10","","24.1","","100.16","","","","","","NA"
"2014-09-12 03:00","2014","09","12","03:00","11.1","","7.1","","76","","36","","12","","24.1","","100.20","","","","","","NA"
"2014-09-12 04:00","2014","09","12","04:00","9.4","","8.3","","93","","4","","15","","9.7","","100.26","","","","","","Drizzle"
"2014-09-12 05:00","2014","09","12","05:00","9.0","","7.3","","89","","1","","7","","24.1","","100.31","","","","","","NA"
"2014-09-12 06:00","2014","09","12","06:00","9.3","","6.6","","83","","36","","9","","24.1","","100.37","","","","","","NA"
"2014-09-12 07:00","2014","09","12","07:00","10.1","","6.5","","78","","36","","10","","24.1","","100.42","","","","","","Mostly Cloudy"
"2014-09-12 08:00","2014","09","12","08:00","11.0","","5.6","","69","","3","","14","","24.1","","100.43","","","","","","NA"
"2014-09-12 09:00","2014","09","12","09:00","11.2","","4.9","","65","","5","","14","","24.1","","100.49","","","","","","NA"
"2014-09-12 10:00","2014","09","12","10:00","11.5","","5.2","","65","","36","","13","","24.1","","100.53","","","","","","Cloudy"
"2014-09-12 11:00","2014","09","12","11:00","12.0","","5.5","","64","","6","","12","","24.1","","100.49","","","","","","NA"
"2014-09-12 12:00","2014","09","12","12:00","12.7","","5.0","","59","","35","","13","","24.1","","100.46","","","","","","NA"
"2014-09-12 13:00","2014","09","12","13:00","13.3","","4.0","","53","","11","","3","","24.1","","100.42","","","","","","Mostly Cloudy"
"2014-09-12 14:00","2014","09","12","14:00","13.8","","5.0","","55","","36","","7","","24.1","","100.43","","","","","","NA"
"2014-09-12 15:00","2014","09","12","15:00","14.1","","5.0","","54","","4","","10","","24.1","","100.40","","","","","","NA"
"2014-09-12 16:00","2014","09","12","16:00","13.4","","6.6","","63","","17","","11","","24.1","","100.39","","","","","","Mostly Cloudy"
"2014-09-12 17:00","2014","09","12","17:00","13.2","","6.6","","64","","14","","10","","24.1","","100.36","","","","","","NA"
"2014-09-12 18:00","2014","09","12","18:00","12.5","","6.8","","68","","15","","11","","24.1","","100.35","","","","","","NA"
"2014-09-12 19:00","2014","09","12","19:00","11.7","","6.7","","71","","16","","7","","24.1","","100.34","","","","","","Mainly Clear"
"2014-09-12 20:00","2014","09","12","20:00","11.6","","6.8","","72","","21","","6","","24.1","","100.39","","","","","","NA"
"2014-09-12 21:00","2014","09","12","21:00","11.6","","6.4","","70","","36","","3","","24.1","","100.38","","","","","","NA"
"2014-09-12 22:00","2014","09","12","22:00","11.2","","6.6","","73","","8","","5","","24.1","","100.32","","","","","","Mainly Clear"
"2014-09-12 23:00","2014","09","12","23:00","10.8","","6.8","","76","","9","","7","","24.1","","100.27","","","","","","NA"
"2014-09-13 00:00","2014","09","13","00:00","10.7","","7.6","","81","","5","","7","","24.1","","100.20","","","","","","NA"
"2014-09-13 01:00","2014","09","13","01:00","10.7","","7.6","","81","","4","","8","","24.1","","100.15","","","","","","Mostly Cloudy"
"2014-09-13 02:00","2014","09","13","02:00","11.4","","7.5","","77","","9","","13","","24.1","","100.07","","","","","","NA"
"2014-09-13 03:00","2014","09","13","03:00","10.8","","7.7","","81","","5","","13","","24.1","","100.02","","","","","","NA"
"2014-09-13 04:00","2014","09","13","04:00","10.6","","7.1","","79","","4","","13","","24.1","","100.00","","","","","","Cloudy"
"2014-09-13 05:00","2014","09","13","05:00","10.4","","6.4","","76","","4","","12","","24.1","","99.92","","","","","","NA"
"2014-09-13 06:00","2014","09","13","06:00","10.2","","6.0","","75","","6","","11","","24.1","","99.90","","","","","","NA"
"2014-09-13 07:00","2014","09","13","07:00","9.9","","7.5","","85","","6","","15","","24.1","","99.80","","","","","","Rain Showers"
"2014-09-13 08:00","2014","09","13","08:00","9.3","","7.6","","89","","4","","15","","24.1","","99.79","","","","","","Rain Showers"
"2014-09-13 09:00","2014","09","13","09:00","8.9","","7.4","","90","","4","","12","","24.1","","99.73","","","","","","Rain Showers"
"2014-09-13 10:00","2014","09","13","10:00","9.9","","8.0","","88","","35","","11","","24.1","","99.71","","","","","","Rain Showers"
"2014-09-13 11:00","2014","09","13","11:00","11.1","","8.9","","86","","33","","14","","24.1","","99.76","","","","","","Rain Showers"
"2014-09-13 12:00","2014","09","13","12:00","11.3","","8.9","","85","","33","","20","","24.1","","99.79","","","","","","NA"
"2014-09-13 13:00","2014","09","13","13:00","12.2","","8.7","","79","","35","","21","","24.1","","99.84","","","","","","Mostly Cloudy"
"2014-09-13 14:00","2014","09","13","14:00","11.6","","8.5","","81","","33","","21","","24.1","","99.94","","","","","","Rain Showers"
"2014-09-13 15:00","2014","09","13","15:00","13.7","","8.2","","69","","31","","19","","24.1","","100.01","","","","","","NA"
"2014-09-13 16:00","2014","09","13","16:00","13.6","","7.4","","66","","33","","22","","24.1","","100.13","","","","","","Mostly Cloudy"
"2014-09-13 17:00","2014","09","13","17:00","12.5","","7.0","","69","","32","","22","","24.1","","100.21","","","","","","NA"
"2014-09-13 18:00","2014","09","13","18:00","11.9","","6.9","","71","","33","","22","","24.1","","100.27","","","","","","NA"
"2014-09-13 19:00","2014","09","13","19:00","11.4","","6.8","","73","","34","","17","","24.1","","100.34","","","","","","Mostly Cloudy"
"2014-09-13 20:00","2014","09","13","20:00","10.4","","6.6","","77","","33","","13","","24.1","","100.43","","","","","","NA"
"2014-09-13 21:00","2014","09","13","21:00","9.9","","6.3","","78","","34","","19","","24.1","","100.47","","","","","","NA"
"2014-09-13 22:00","2014","09","13","22:00","9.0","","5.9","","81","","34","","8","","24.1","","100.53","","","","","","Mainly Clear"
"2014-09-13 23:00","2014","09","13","23:00","8.7","","5.6","","81","","31","","9","","24.1","","100.59","","","","","","NA"
"2014-09-14 00:00","2014","09","14","00:00","8.8","","5.2","","78","","33","","5","","24.1","","100.59","","","","","","NA"
"2014-09-14 01:00","2014","09","14","01:00","7.6","","5.1","","84","","0","","1","","24.1","","100.59","","","","","","Mainly Clear"
"2014-09-14 02:00","2014","09","14","02:00","7.3","","5.3","","87","","4","","4","","24.1","","100.59","","","","","","NA"
"2014-09-14 03:00","2014","09","14","03:00","7.4","","5.4","","87","","28","","5","","24.1","","100.63","","","","","","NA"
"2014-09-14 04:00","2014","09","14","04:00","6.8","","5.1","","89","","36","","2","","24.1","","100.64","","","","","","Mainly Clear"
"2014-09-14 05:00","2014","09","14","05:00","6.6","","5.1","","90","","1","","6","","24.1","","100.61","","","","","","NA"
"2014-09-14 06:00","2014","09","14","06:00","6.4","","4.9","","90","","6","","4","","24.1","","100.66","","","","","","NA"
"2014-09-14 07:00","2014","09","14","07:00","7.5","","5.5","","87","","36","","1","","24.1","","100.69","","","","","","Mainly Clear"
"2014-09-14 08:00","2014","09","14","08:00","9.8","","6.4","","79","","36","","2","","24.1","","100.70","","","","","","NA"
"2014-09-14 09:00","2014","09","14","09:00","11.8","","7.4","","74","","16","","7","","24.1","","100.68","","","","","","NA"
"2014-09-14 10:00","2014","09","14","10:00","13.6","","6.3","","61","","13","","9","","24.1","","100.64","","","","","","Mostly Cloudy"
"2014-09-14 11:00","2014","09","14","11:00","12.9","","6.1","","63","","14","","13","","24.1","","100.59","","","","","","NA"
"2014-09-14 12:00","2014","09","14","12:00","13.5","","6.4","","62","","17","","7","","24.1","","100.56","","","","","","NA"
"2014-09-14 13:00","2014","09","14","13:00","14.2","","5.9","","57","","13","","13","","24.1","","100.51","","","","","","Mostly Cloudy"
"2014-09-14 14:00","2014","09","14","14:00","14.3","","4.9","","53","","16","","12","","24.1","","100.43","","","","","","NA"
"2014-09-14 15:00","2014","09","14","15:00","14.4","","5.0","","53","","16","","14","","24.1","","100.37","","","","","","NA"
"2014-09-14 16:00","2014","09","14","16:00","14.3","","5.5","","55","","16","","16","","24.1","","100.32","","","","","","Mostly Cloudy"
"2014-09-14 17:00","2014","09","14","17:00","13.9","","5.8","","58","","15","","16","","24.1","","100.28","","","","","","NA"
"2014-09-14 18:00","2014","09","14","18:00","13.6","","6.8","","63","","15","","11","","24.1","","100.26","","","","","","NA"
"2014-09-14 19:00","2014","09","14","19:00","13.6","","7.6","","67","","17","","10","","24.1","","100.26","","","","","","Mostly Cloudy"
"2014-09-14 20:00","2014","09","14","20:00","13.6","","7.9","","68","","17","","7","","24.1","","100.25","","","","","","NA"
"2014-09-14 21:00","2014","09","14","21:00","13.7","","8.2","","69","","19","","8","","24.1","","100.25","","","","","","NA"
"2014-09-14 22:00","2014","09","14","22:00","13.2","","8.1","","71","","24","","8","","24.1","","100.22","","","","","","Mostly Cloudy"
"2014-09-14 23:00","2014","09","14","23:00","12.3","","9.0","","80","","24","","5","","24.1","","100.21","","","","","","NA"
"2014-09-15 00:00","2014","09","15","00:00","12.7","","7.6","","71","","22","","5","","24.1","","100.19","","","","","","NA"
"2014-09-15 01:00","2014","09","15","01:00","12.6","","7.5","","71","","18","","7","","24.1","","100.18","","","","","","Mostly Cloudy"
"2014-09-15 02:00","2014","09","15","02:00","11.9","","7.7","","75","","26","","3","","24.1","","100.16","","","","","","NA"
"2014-09-15 03:00","2014","09","15","03:00","11.8","","7.4","","74","","24","","8","","24.1","","100.16","","","","","","NA"
"2014-09-15 04:00","2014","09","15","04:00","11.6","","7.0","","73","","20","","3","","24.1","","100.16","","","","","","Mainly Clear"
"2014-09-15 05:00","2014","09","15","05:00","10.6","","7.0","","78","","24","","4","","24.1","","100.19","","","","","","NA"
"2014-09-15 06:00","2014","09","15","06:00","9.7","","6.3","","79","","25","","7","","24.1","","100.19","","","","","","NA"
"2014-09-15 07:00","2014","09","15","07:00","11.1","","6.5","","73","","23","","7","","24.1","","100.16","","","","","","Clear"
"2014-09-15 08:00","2014","09","15","08:00","13.9","","7.0","","63","","24","","14","","24.1","","100.12","","","","","","NA"
"2014-09-15 09:00","2014","09","15","09:00","16.5","","7.8","","56","","25","","21","","24.1","","100.11","","","","","","NA"
"2014-09-15 10:00","2014","09","15","10:00","16.9","","7.6","","54","","24","","22","","24.1","","100.03","","","","","","Mostly Cloudy"
"2014-09-15 11:00","2014","09","15","11:00","17.4","","8.4","","55","","23","","17","","24.1","","100.01","","","","","","NA"
"2014-09-15 12:00","2014","09","15","12:00","17.8","","8.2","","53","","21","","25","","24.1","","99.94","","","","","","NA"
"2014-09-15 13:00","2014","09","15","13:00","17.4","","8.6","","56","","22","","17","","24.1","","99.85","","","","","","Cloudy"
"2014-09-15 14:00","2014","09","15","14:00","17.4","","9.1","","58","","23","","16","","24.1","","99.82","","","","","","NA"
"2014-09-15 15:00","2014","09","15","15:00","16.5","","9.7","","64","","23","","19","","16.1","","99.79","","","","","","Rain Showers"
"2014-09-15 16:00","2014","09","15","16:00","13.7","","12.3","","91","","23","","15","","16.1","","99.79","","","","","","Rain Showers"
"2014-09-15 17:00","2014","09","15","17:00","13.8","","11.9","","88","","23","","18","","19.3","","99.77","","","","","","Rain Showers"
"2014-09-15 18:00","2014","09","15","18:00","13.6","","11.7","","88","","20","","10","","24.1","","99.74","","","","","","Rain Showers"
"2014-09-15 19:00","2014","09","15","19:00","13.3","","11.7","","90","","18","","7","","24.1","","99.71","","","","","","Cloudy"
"2014-09-15 20:00","2014","09","15","20:00","12.9","","11.7","","92","","24","","7","","24.1","","99.69","","","","","","NA"
"2014-09-15 21:00","2014","09","15","21:00","12.8","","11.7","","93","","25","","8","","24.1","","99.70","","","","","","Rain Showers"
"2014-09-15 22:00","2014","09","15","22:00","12.9","","11.8","","93","","28","","8","","24.1","","99.68","","","","","","Rain Showers"
"2014-09-15 23:00","2014","09","15","23:00","12.7","","11.3","","91","","29","","12","","24.1","","99.68","","","","","","Rain Showers"
"2014-09-16 00:00","2014","09","16","00:00","12.6","","11.0","","90","","32","","10","","24.1","","99.65","","","","","","NA"
"2014-09-16 01:00","2014","09","16","01:00","12.6","","10.0","","84","","33","","20","","24.1","","99.63","","","","","","Mostly Cloudy"
"2014-09-16 02:00","2014","09","16","02:00","11.4","","9.2","","86","","31","","14","","24.1","","99.62","","","","","","NA"
"2014-09-16 03:00","2014","09","16","03:00","11.0","","9.1","","88","","30","","14","","24.1","","99.65","","","","","","NA"
"2014-09-16 04:00","2014","09","16","04:00","9.4","","8.2","","92","","28","","9","","24.1","","99.68","","","","","","Mainly Clear"
"2014-09-16 05:00","2014","09","16","05:00","9.9","","8.4","","90","","31","","14","","24.1","","99.70","","","","","","NA"
"2014-09-16 06:00","2014","09","16","06:00","9.8","","7.8","","87","","31","","14","","24.1","","99.77","","","","","","NA"
"2014-09-16 07:00","2014","09","16","07:00","10.8","","8.1","","83","","30","","13","","24.1","","99.78","","","","","","Clear"
"2014-09-16 08:00","2014","09","16","08:00","12.9","","7.0","","67","","31","","21","","24.1","","99.82","","","","","","NA"
"2014-09-16 09:00","2014","09","16","09:00","14.7","","6.3","","57","","32","","20","","24.1","","99.86","","","","","","NA"
"2014-09-16 10:00","2014","09","16","10:00","15.7","","5.1","","49","","33","","25","","24.1","","99.84","","","","","","Clear"
"2014-09-16 11:00","2014","09","16","11:00","16.6","","5.0","","46","","32","","19","","24.1","","99.79","","","","","","NA"
"2014-09-16 12:00","2014","09","16","12:00","17.6","","5.6","","45","","30","","25","","24.1","","99.73","","","","","","NA"
"2014-09-16 13:00","2014","09","16","13:00","18.2","","5.9","","44","","30","","19","","24.1","","99.71","","","","","","Mostly Cloudy"
"2014-09-16 14:00","2014","09","16","14:00","18.2","","5.9","","44","","29","","24","","24.1","","99.67","","","","","","NA"
"2014-09-16 15:00","2014","09","16","15:00","17.0","","5.4","","46","","31","","20","","24.1","","99.66","","","","","","NA"
"2014-09-16 16:00","2014","09","16","16:00","17.3","","5.4","","45","","31","","19","","24.1","","99.64","","","","","","Mostly Cloudy"
"2014-09-16 17:00","2014","09","16","17:00","17.5","","6.5","","48","","32","","21","","24.1","","99.63","","","","","","NA"
"2014-09-16 18:00","2014","09","16","18:00","16.1","","4.9","","47","","31","","22","","24.1","","99.65","","","","","","NA"
"2014-09-16 19:00","2014","09","16","19:00","14.9","","5.2","","52","","31","","17","","24.1","","99.69","","","","","","Clear"
"2014-09-16 20:00","2014","09","16","20:00","13.1","","5.8","","61","","29","","12","","24.1","","99.70","","","","","","NA"
"2014-09-16 21:00","2014","09","16","21:00","12.1","","6.0","","66","","28","","10","","24.1","","99.70","","","","","","NA"
"2014-09-16 22:00","2014","09","16","22:00","10.7","","5.9","","72","","27","","9","","24.1","","99.68","","","","","","Clear"
"2014-09-16 23:00","2014","09","16","23:00","9.8","","6.0","","77","","28","","8","","24.1","","99.69","","","","","","NA"
"2014-09-17 00:00","2014","09","17","00:00","9.6","","6.5","","81","","28","","8","","24.1","","99.66","","","","","","NA"
"2014-09-17 01:00","2014","09","17","01:00","10.2","","6.8","","79","","29","","5","","24.1","","99.64","","","","","","Clear"
"2014-09-17 02:00","2014","09","17","02:00","8.9","","6.5","","85","","25","","5","","24.1","","99.64","","","","","","NA"
"2014-09-17 03:00","2014","09","17","03:00","8.6","","6.1","","84","","28","","8","","24.1","","99.62","","","","","","NA"
"2014-09-17 04:00","2014","09","17","04:00","8.1","","5.9","","86","","25","","12","","24.1","","99.60","","","","","","Clear"
"2014-09-17 05:00","2014","09","17","05:00","7.8","","5.8","","87","","26","","12","","24.1","","99.61","","","","","","NA"
"2014-09-17 06:00","2014","09","17","06:00","8.5","","6.3","","86","","26","","10","","24.1","","99.61","","","","","","NA"
"2014-09-17 07:00","2014","09","17","07:00","10.3","","7.7","","84","","25","","7","","24.1","","99.63","","","","","","Mainly Clear"
"2014-09-17 08:00","2014","09","17","08:00","13.4","","8.9","","74","","25","","9","","24.1","","99.61","","","","","","NA"
"2014-09-17 09:00","2014","09","17","09:00","15.8","","8.8","","63","","26","","16","","24.1","","99.58","","","","","","NA"
"2014-09-17 10:00","2014","09","17","10:00","17.1","","8.4","","56","","23","","21","","24.1","","99.54","","","","","","Mainly Clear"
"2014-09-17 11:00","2014","09","17","11:00","18.2","","8.0","","51","","25","","18","","24.1","","99.50","","","","","","NA"
"2014-09-17 12:00","2014","09","17","12:00","18.9","","8.1","","49","","28","","18","","24.1","","99.44","","","","","","NA"
"2014-09-17 13:00","2014","09","17","13:00","19.6","","8.7","","49","","23","","16","","24.1","","99.38","","","","","","Mainly Clear"
"2014-09-17 14:00","2014","09","17","14:00","20.2","","8.0","","45","","25","","19","","24.1","","99.33","","","","","","NA"
"2014-09-17 15:00","2014","09","17","15:00","20.5","","8.3","","45","","25","","16","","24.1","","99.33","","","","","","NA"
"2014-09-17 16:00","2014","09","17","16:00","19.6","","7.2","","44","","26","","21","","24.1","","99.31","","","","","","Mostly Cloudy"
"2014-09-17 17:00","2014","09","17","17:00","19.4","","7.3","","45","","25","","17","","24.1","","99.32","","","","","","NA"
"2014-09-17 18:00","2014","09","17","18:00","18.6","","6.9","","46","","25","","21","","24.1","","99.32","","","","","","NA"
"2014-09-17 19:00","2014","09","17","19:00","16.3","","8.6","","60","","28","","11","","24.1","","99.34","","","","","","Mainly Clear"
"2014-09-17 20:00","2014","09","17","20:00","15.5","","8.6","","63","","28","","10","","24.1","","99.38","","","","","","NA"
"2014-09-17 21:00","2014","09","17","21:00","13.7","","8.2","","69","","28","","12","","24.1","","99.40","","","","","","NA"
"2014-09-17 22:00","2014","09","17","22:00","12.2","","7.9","","75","","27","","10","","24.1","","99.42","","","","","","Clear"
"2014-09-17 23:00","2014","09","17","23:00","12.4","","7.9","","74","","27","","8","","24.1","","99.44","","","","","","NA"
"2014-09-18 00:00","2014","09","18","00:00","12.4","","7.5","","72","","28","","8","","24.1","","99.44","","","","","","NA"
"2014-09-18 01:00","2014","09","18","01:00","11.4","","7.5","","77","","28","","10","","24.1","","99.44","","","","","","Clear"
"2014-09-18 02:00","2014","09","18","02:00","10.8","","7.0","","77","","31","","4","","24.1","","99.45","","","","","","NA"
"2014-09-18 03:00","2014","09","18","03:00","10.8","","7.5","","80","","33","","14","","24.1","","99.46","","","","","","NA"
"2014-09-18 04:00","2014","09","18","04:00","10.5","","7.2","","80","","32","","14","","24.1","","99.51","","","","","","Mainly Clear"
"2014-09-18 05:00","2014","09","18","05:00","12.1","","9.3","","83","","33","","19","","24.1","","99.56","","","","","","NA"
"2014-09-18 06:00","2014","09","18","06:00","12.2","","9.8","","85","","36","","23","","24.1","","99.66","","","","","","NA"
"2014-09-18 07:00","2014","09","18","07:00","11.6","","8.7","","82","","35","","20","","24.1","","99.75","","","","","","Mostly Cloudy"
"2014-09-18 08:00","2014","09","18","08:00","12.9","","8.8","","76","","1","","22","","24.1","","99.82","","","","","","NA"
"2014-09-18 09:00","2014","09","18","09:00","12.3","","6.4","","67","","34","","27","","24.1","","99.91","","","","","","NA"
"2014-09-18 10:00","2014","09","18","10:00","11.4","","6.6","","72","","35","","19","","24.1","","99.96","","","","","","Cloudy"
"2014-09-18 11:00","2014","09","18","11:00","11.5","","7.5","","76","","36","","19","","24.1","","99.98","","","","","","NA"
"2014-09-18 12:00","2014","09","18","12:00","11.2","","6.6","","73","","2","","17","","24.1","","100.04","","","","","","NA"
"2014-09-18 13:00","2014","09","18","13:00","11.4","","5.7","","68","","32","","14","","24.1","","100.07","","","","","","Mostly Cloudy"
"2014-09-18 14:00","2014","09","18","14:00","12.6","","5.6","","62","","36","","17","","24.1","","100.05","","","","","","NA"
"2014-09-18 15:00","2014","09","18","15:00","13.9","","5.6","","57","","34","","14","","24.1","","100.03","","","","","","NA"
"2014-09-18 16:00","2014","09","18","16:00","14.1","","5.0","","54","","1","","18","","24.1","","100.03","","","","","","Mainly Clear"
"2014-09-18 17:00","2014","09","18","17:00","13.3","","4.5","","55","","3","","16","","24.1","","100.04","","","","","","NA"
"2014-09-18 18:00","2014","09","18","18:00","12.5","","4.5","","58","","2","","18","","24.1","","100.06","","","","","","NA"
"2014-09-18 19:00","2014","09","18","19:00","10.7","","3.8","","62","","36","","21","","24.1","","100.12","","","","","","Mainly Clear"
"2014-09-18 20:00","2014","09","18","20:00","9.5","","3.7","","67","","1","","21","","24.1","","100.20","","","","","","NA"
"2014-09-18 21:00","2014","09","18","21:00","8.5","","3.2","","69","","36","","22","","24.1","","100.25","","","","","","NA"
"2014-09-18 22:00","2014","09","18","22:00","7.1","","2.8","","74","","36","","15","","24.1","","100.29","","","","","","Clear"
"2014-09-18 23:00","2014","09","18","23:00","6.6","","2.9","","77","","36","","17","","24.1","","100.33","","","","","","NA"
"2014-09-19 00:00","2014","09","19","00:00","5.7","","2.7","","81","","1","","10","","24.1","","100.37","","","","","","NA"
"2014-09-19 01:00","2014","09","19","01:00","5.4","","2.6","","82","","3","","10","","24.1","","100.42","","","","","","Clear"
"2014-09-19 02:00","2014","09","19","02:00","6.1","","2.0","","75","","4","","11","","24.1","","100.46","","","","","","NA"
"2014-09-19 03:00","2014","09","19","03:00","5.8","","1.7","","75","","5","","11","","24.1","","100.46","","","","","","NA"
"2014-09-19 04:00","2014","09","19","04:00","5.4","","1.7","","77","","5","","10","","24.1","","100.49","","","","","","Mainly Clear"
"2014-09-19 05:00","2014","09","19","05:00","4.9","","1.8","","80","","5","","12","","24.1","","100.53","","","","","","NA"
"2014-09-19 06:00","2014","09","19","06:00","4.9","","1.9","","81","","4","","11","","24.1","","100.55","","","","","","NA"
"2014-09-19 07:00","2014","09","19","07:00","6.4","","2.5","","76","","6","","16","","24.1","","100.59","","","","","","Mostly Cloudy"
"2014-09-19 08:00","2014","09","19","08:00","7.9","","4.0","","76","","7","","13","","24.1","","100.61","","","","","","NA"
"2014-09-19 09:00","2014","09","19","09:00","9.6","","5.2","","74","","5","","9","","24.1","","100.66","","","","","","NA"
"2014-09-19 10:00","2014","09","19","10:00","11.9","","5.1","","63","","12","","20","","24.1","","100.63","","","","","","Mostly Cloudy"
"2014-09-19 11:00","2014","09","19","11:00","12.8","","5.0","","59","","12","","14","","24.1","","100.63","","","","","","NA"
"2014-09-19 12:00","2014","09","19","12:00","13.1","","5.1","","58","","14","","22","","24.1","","100.58","","","","","","NA"
"2014-09-19 13:00","2014","09","19","13:00","12.8","","5.0","","59","","12","","23","","24.1","","100.51","","","","","","Mostly Cloudy"
"2014-09-19 14:00","2014","09","19","14:00","13.4","","5.9","","60","","11","","20","","24.1","","100.39","","","","","","NA"
"2014-09-19 15:00","2014","09","19","15:00","13.6","","6.5","","62","","14","","15","","24.1","","100.31","","","","","","NA"
"2014-09-19 16:00","2014","09","19","16:00","13.3","","6.2","","62","","11","","18","","24.1","","100.29","","","","","","Mostly Cloudy"
"2014-09-19 17:00","2014","09","19","17:00","13.1","","6.5","","64","","9","","18","","24.1","","100.23","","","","","","NA"
"2014-09-19 18:00","2014","09","19","18:00","11.8","","6.8","","71","","9","","14","","24.1","","100.13","","","","","","NA"
"2014-09-19 19:00","2014","09","19","19:00","11.2","","7.4","","77","","8","","10","","24.1","","100.10","","","","","","Mostly Cloudy"
"2014-09-19 20:00","2014","09","19","20:00","11.0","","7.9","","81","","11","","11","","22.5","","99.98","","","","","","NA"
"2014-09-19 21:00","2014","09","19","21:00","11.7","","9.1","","84","","11","","7","","24.1","","99.92","","","","","","NA"
"2014-09-19 22:00","2014","09","19","22:00","11.9","","9.7","","86","","11","","5","","24.1","","99.87","","","","","","Mainly Clear"
"2014-09-19 23:00","2014","09","19","23:00","11.6","","9.4","","86","","36","","1","","24.1","","99.78","","","","","","NA"
"2014-09-20 00:00","2014","09","20","00:00","10.4","","8.0","","85","","31","","7","","24.1","","99.74","","","","","","NA"
"2014-09-20 01:00","2014","09","20","01:00","10.1","","7.7","","85","","36","","3","","24.1","","99.70","","","","","","Mainly Clear"
"2014-09-20 02:00","2014","09","20","02:00","9.3","","7.4","","88","","0","","1","","24.1","","99.65","","","","","","NA"
"2014-09-20 03:00","2014","09","20","03:00","11.4","","9.2","","86","","17","","7","","24.1","","99.57","","","","","","NA"
"2014-09-20 04:00","2014","09","20","04:00","11.7","","9.8","","88","","26","","3","","24.1","","99.59","","","","","","Mostly Cloudy"
"2014-09-20 05:00","2014","09","20","05:00","10.9","","9.0","","88","","36","","2","","19.3","","99.58","","","","","","NA"
"2014-09-20 06:00","2014","09","20","06:00","13.0","","11.7","","92","","21","","11","","9.7","","99.56","","","","","","Fog"
"2014-09-20 07:00","2014","09","20","07:00","15.6","","14.0","","90","","19","","13","","9.7","","99.52","","","","","","Fog"
"2014-09-20 08:00","2014","09","20","08:00","16.3","","14.5","","89","","19","","13","","9.7","","99.51","","","","","","Fog"
"2014-09-20 09:00","2014","09","20","09:00","18.9","","15.4","","80","","20","","24","","24.1","","99.44","","","","","","NA"
"2014-09-20 10:00","2014","09","20","10:00","20.9","","15.3","","70","","23","","32","","24.1","","99.40","","25","","","","Cloudy"
"2014-09-20 11:00","2014","09","20","11:00","22.5","","15.0","","62","","20","","32","","24.1","","99.27","","26","","","","NA"
"2014-09-20 12:00","2014","09","20","12:00","23.4","","15.1","","59","","20","","33","","24.1","","99.14","","27","","","","NA"
"2014-09-20 13:00","2014","09","20","13:00","24.2","","14.5","","54","","23","","38","","24.1","","99.07","","28","","","","Mainly Clear"
"2014-09-20 14:00","2014","09","20","14:00","24.6","","14.8","","54","","22","","36","","24.1","","99.03","","28","","","","NA"
"2014-09-20 15:00","2014","09","20","15:00","25.0","","15.2","","54","","22","","29","","24.1","","99.02","","29","","","","NA"
"2014-09-20 16:00","2014","09","20","16:00","24.8","","14.2","","51","","22","","36","","24.1","","98.98","","28","","","","Mostly Cloudy"
"2014-09-20 17:00","2014","09","20","17:00","23.7","","14.8","","57","","22","","33","","24.1","","98.92","","28","","","","NA"
"2014-09-20 18:00","2014","09","20","18:00","23.3","","15.5","","61","","21","","24","","24.1","","98.84","","28","","","","NA"
"2014-09-20 19:00","2014","09","20","19:00","22.7","","16.1","","66","","21","","18","","24.1","","98.84","","27","","","","Mostly Cloudy"
"2014-09-20 20:00","2014","09","20","20:00","22.2","","16.6","","70","","20","","17","","24.1","","98.82","","27","","","","NA"
"2014-09-20 21:00","2014","09","20","21:00","22.1","","16.9","","72","","20","","26","","24.1","","98.79","","27","","","","NA"
"2014-09-20 22:00","2014","09","20","22:00","21.5","","17.4","","77","","22","","24","","24.1","","98.75","","27","","","","Mostly Cloudy"
"2014-09-20 23:00","2014","09","20","23:00","20.7","","17.6","","82","","22","","11","","24.1","","98.66","","26","","","","NA"
"2014-09-21 00:00","2014","09","21","00:00","20.5","","17.4","","82","","23","","17","","24.1","","98.67","","26","","","","NA"
"2014-09-21 01:00","2014","09","21","01:00","19.9","","16.2","","79","","23","","20","","24.1","","98.59","","","","","","Mostly Cloudy"
"2014-09-21 02:00","2014","09","21","02:00","18.9","","16.0","","83","","25","","27","","24.1","","98.54","","","","","","NA"
"2014-09-21 03:00","2014","09","21","03:00","19.2","","16.1","","82","","23","","15","","24.1","","98.48","","","","","","NA"
"2014-09-21 04:00","2014","09","21","04:00","18.8","","16.1","","84","","21","","14","","24.1","","98.45","","","","","","Cloudy"
"2014-09-21 05:00","2014","09","21","05:00","18.8","","16.1","","84","","20","","8","","24.1","","98.38","","","","","","NA"
"2014-09-21 06:00","2014","09","21","06:00","18.7","","16.7","","88","","17","","8","","9.7","","98.31","","","","","","Moderate Rain Showers"
"2014-09-21 07:00","2014","09","21","07:00","18.0","","17.2","","95","","15","","14","","4.8","","98.15","","","","","","Rain Showers,Fog"
"2014-09-21 08:00","2014","09","21","08:00","18.1","","17.5","","96","","16","","21","","8.1","","98.01","","","","","","Rain Showers,Fog"
"2014-09-21 09:00","2014","09","21","09:00","20.1","","19.1","","94","","22","","16","","16.1","","97.99","","27","","","","NA"
"2014-09-21 10:00","2014","09","21","10:00","21.7","","17.4","","76","","24","","32","","24.1","","98.01","","27","","","","Mostly Cloudy"
"2014-09-21 11:00","2014","09","21","11:00","22.8","","16.0","","65","","27","","34","","24.1","","98.03","","27","","","","NA"
"2014-09-21 12:00","2014","09","21","12:00","23.8","","15.4","","59","","25","","35","","24.1","","98.04","","28","","","","NA"
"2014-09-21 13:00","2014","09","21","13:00","23.6","","13.3","","52","","25","","36","","24.1","","98.04","","27","","","","Mainly Clear"
"2014-09-21 14:00","2014","09","21","14:00","23.6","","11.8","","47","","26","","31","","24.1","","98.06","","26","","","","NA"
"2014-09-21 15:00","2014","09","21","15:00","22.9","","11.8","","49","","29","","28","","24.1","","98.05","","25","","","","NA"
"2014-09-21 16:00","2014","09","21","16:00","22.1","","12.5","","54","","27","","27","","24.1","","98.11","","25","","","","Mainly Clear"
"2014-09-21 17:00","2014","09","21","17:00","20.0","","10.8","","55","","28","","20","","24.1","","98.15","","","","","","NA"
"2014-09-21 18:00","2014","09","21","18:00","19.0","","10.7","","58","","27","","25","","24.1","","98.21","","","","","","NA"
"2014-09-21 19:00","2014","09","21","19:00","16.1","","13.4","","84","","34","","12","","24.1","","98.33","","","","","","Rain Showers"
"2014-09-21 20:00","2014","09","21","20:00","13.1","","10.7","","85","","34","","34","","24.1","","98.46","","","","","","NA"
"2014-09-21 21:00","2014","09","21","21:00","11.8","","9.6","","86","","34","","41","","24.1","","98.54","","","","","","NA"
"2014-09-21 22:00","2014","09","21","22:00","11.2","","8.3","","82","","32","","40","","24.1","","98.70","","","","","","Mostly Cloudy"
"2014-09-21 23:00","2014","09","21","23:00","10.2","","6.9","","80","","34","","39","","24.1","","98.79","","","","","","NA"
"2014-09-22 00:00","2014","09","22","00:00","9.9","","6.3","","78","","34","","31","","24.1","","98.90","","","","","","NA"
"2014-09-22 01:00","2014","09","22","01:00","9.6","","5.8","","77","","33","","25","","24.1","","99.01","","","","","","Mostly Cloudy"
"2014-09-22 02:00","2014","09","22","02:00","9.4","","5.4","","76","","34","","26","","24.1","","99.06","","","","","","NA"
"2014-09-22 03:00","2014","09","22","03:00","9.3","","6.6","","83","","33","","29","","24.1","","99.10","","","","","","Rain"
"2014-09-22 04:00","2014","09","22","04:00","9.1","","6.4","","83","","32","","31","","24.1","","99.20","","","","","","Mostly Cloudy"
"2014-09-22 05:00","2014","09","22","05:00","9.9","","5.5","","74","","31","","28","","24.1","","99.29","","","","","","NA"
"2014-09-22 06:00","2014","09","22","06:00","9.9","","4.9","","71","","30","","22","","24.1","","99.39","","","","","","NA"
"2014-09-22 07:00","2014","09","22","07:00","9.7","","4.1","","68","","30","","26","","24.1","","99.51","","","","","","Mostly Cloudy"
"2014-09-22 08:00","2014","09","22","08:00","9.9","","4.1","","67","","31","","21","","24.1","","99.60","","","","","","NA"
"2014-09-22 09:00","2014","09","22","09:00","10.0","","4.2","","67","","33","","26","","24.1","","99.68","","","","","","NA"
"2014-09-22 10:00","2014","09","22","10:00","9.7","","5.3","","74","","2","","9","","24.1","","99.74","","","","","","Mostly Cloudy"
"2014-09-22 11:00","2014","09","22","11:00","11.8","","4.3","","60","","30","","28","","24.1","","99.75","","","","","","NA"
"2014-09-22 12:00","2014","09","22","12:00","12.8","","4.3","","56","","32","","26","","24.1","","99.80","","","","","","NA"
"2014-09-22 13:00","2014","09","22","13:00","13.5","","3.6","","51","","30","","23","","24.1","","99.80","","","","","","Mostly Cloudy"
"2014-09-22 14:00","2014","09","22","14:00","13.6","","4.3","","53","","29","","32","","24.1","","99.82","","","","","","NA"
"2014-09-22 15:00","2014","09","22","15:00","14.6","","4.7","","51","","30","","20","","24.1","","99.85","","","","","","NA"
"2014-09-22 16:00","2014","09","22","16:00","14.5","","5.4","","54","","30","","20","","24.1","","99.86","","","","","","Mostly Cloudy"
"2014-09-22 17:00","2014","09","22","17:00","13.2","","4.2","","54","","28","","28","","24.1","","99.94","","","","","","NA"
"2014-09-22 18:00","2014","09","22","18:00","12.0","","3.8","","57","","29","","21","","24.1","","99.98","","","","","","NA"
"2014-09-22 19:00","2014","09","22","19:00","10.4","","3.9","","64","","28","","17","","24.1","","100.03","","","","","","Mainly Clear"
"2014-09-22 20:00","2014","09","22","20:00","9.9","","4.3","","68","","27","","16","","24.1","","100.08","","","","","","NA"
"2014-09-22 21:00","2014","09","22","21:00","8.3","","4.5","","77","","25","","10","","24.1","","100.14","","","","","","NA"
"2014-09-22 22:00","2014","09","22","22:00","8.1","","4.5","","78","","27","","12","","24.1","","100.20","","","","","","Clear"
"2014-09-22 23:00","2014","09","22","23:00","8.3","","4.5","","77","","27","","8","","24.1","","100.22","","","","","","NA"
"2014-09-23 00:00","2014","09","23","00:00","8.5","","4.5","","76","","27","","8","","24.1","","100.24","","","","","","NA"
"2014-09-23 01:00","2014","09","23","01:00","7.9","","5.0","","82","","23","","10","","24.1","","100.28","","","","","","Mainly Clear"
"2014-09-23 02:00","2014","09","23","02:00","7.7","","5.4","","85","","25","","12","","24.1","","100.27","","","","","","NA"
"2014-09-23 03:00","2014","09","23","03:00","7.6","","5.3","","85","","26","","12","","24.1","","100.30","","","","","","NA"
"2014-09-23 04:00","2014","09","23","04:00","9.2","","6.0","","80","","27","","23","","24.1","","100.30","","","","","","Mainly Clear"
"2014-09-23 05:00","2014","09","23","05:00","8.6","","6.1","","84","","27","","12","","24.1","","100.33","","","","","","NA"
"2014-09-23 06:00","2014","09","23","06:00","9.2","","6.7","","84","","28","","13","","24.1","","100.36","","","","","","NA"
"2014-09-23 07:00","2014","09","23","07:00","10.6","","7.9","","83","","27","","10","","24.1","","100.39","","","","","","Mostly Cloudy"
"2014-09-23 08:00","2014","09","23","08:00","13.8","","9.5","","75","","24","","13","","24.1","","100.43","","","","","","NA"
"2014-09-23 09:00","2014","09","23","09:00","16.7","","9.5","","62","","26","","19","","24.1","","100.41","","","","","","NA"
"2014-09-23 10:00","2014","09","23","10:00","18.7","","10.4","","58","","26","","16","","24.1","","100.44","","","","","","Mainly Clear"
"2014-09-23 11:00","2014","09","23","11:00","19.9","","10.4","","54","","26","","17","","24.1","","100.46","","","","","","NA"
"2014-09-23 12:00","2014","09","23","12:00","21.2","","11.4","","53","","28","","18","","24.1","","100.49","","","","","","NA"
"2014-09-23 13:00","2014","09","23","13:00","21.4","","10.4","","49","","26","","18","","24.1","","100.49","","","","","","Mainly Clear"
"2014-09-23 14:00","2014","09","23","14:00","22.2","","10.8","","48","","27","","23","","24.1","","100.50","","","","","","NA"
"2014-09-23 15:00","2014","09","23","15:00","22.1","","10.7","","48","","32","","14","","24.1","","100.50","","","","","","NA"
"2014-09-23 16:00","2014","09","23","16:00","21.9","","10.6","","48","","31","","13","","24.1","","100.51","","","","","","Mainly Clear"
"2014-09-23 17:00","2014","09","23","17:00","21.3","","10.6","","50","","29","","13","","24.1","","100.53","","","","","","NA"
"2014-09-23 18:00","2014","09","23","18:00","20.1","","10.6","","54","","28","","12","","24.1","","100.58","","","","","","NA"
"2014-09-23 19:00","2014","09","23","19:00","16.9","","10.8","","67","","25","","13","","24.1","","100.64","","","","","","Mainly Clear"
"2014-09-23 20:00","2014","09","23","20:00","15.9","","10.5","","70","","27","","9","","24.1","","100.68","","","","","","NA"
"2014-09-23 21:00","2014","09","23","21:00","16.6","","10.5","","67","","26","","5","","24.1","","100.72","","","","","","NA"
"2014-09-23 22:00","2014","09","23","22:00","16.7","","10.8","","68","","30","","5","","24.1","","100.76","","","","","","Clear"
"2014-09-23 23:00","2014","09","23","23:00","14.8","","11.0","","78","","36","","6","","24.1","","100.82","","","","","","NA"
"2014-09-24 00:00","2014","09","24","00:00","13.9","","10.4","","79","","31","","10","","24.1","","100.82","","","","","","NA"
"2014-09-24 01:00","2014","09","24","01:00","13.7","","10.5","","81","","34","","9","","24.1","","100.88","","","","","","Clear"
"2014-09-24 02:00","2014","09","24","02:00","12.9","","10.3","","84","","32","","8","","24.1","","100.88","","","","","","NA"
"2014-09-24 03:00","2014","09","24","03:00","12.0","","9.8","","86","","29","","5","","24.1","","100.92","","","","","","NA"
"2014-09-24 04:00","2014","09","24","04:00","11.4","","9.3","","87","","30","","4","","24.1","","100.98","","","","","","Clear"
"2014-09-24 05:00","2014","09","24","05:00","10.7","","8.8","","88","","31","","8","","24.1","","101.02","","","","","","NA"
"2014-09-24 06:00","2014","09","24","06:00","11.6","","9.5","","87","","3","","8","","24.1","","101.07","","","","","","NA"
"2014-09-24 07:00","2014","09","24","07:00","12.3","","10.2","","87","","1","","5","","24.1","","101.12","","","","","","Clear"
"2014-09-24 08:00","2014","09","24","08:00","15.2","","12.7","","85","","4","","7","","24.1","","101.16","","","","","","NA"
"2014-09-24 09:00","2014","09","24","09:00","17.7","","13.5","","76","","11","","6","","24.1","","101.21","","","","","","NA"
"2014-09-24 10:00","2014","09","24","10:00","18.1","","12.6","","70","","15","","14","","24.1","","101.22","","","","","","Clear"
"2014-09-24 11:00","2014","09","24","11:00","19.4","","12.3","","63","","12","","16","","24.1","","101.21","","","","","","NA"
"2014-09-24 12:00","2014","09","24","12:00","19.5","","11.6","","60","","12","","15","","24.1","","101.19","","","","","","NA"
"2014-09-24 13:00","2014","09","24","13:00","20.4","","12.2","","59","","13","","14","","24.1","","101.13","","","","","","Clear"
"2014-09-24 14:00","2014","09","24","14:00","21.5","","12.5","","56","","14","","12","","24.1","","101.07","","","","","","NA"
"2014-09-24 15:00","2014","09","24","15:00","22.0","","11.3","","50","","15","","15","","24.1","","101.02","","","","","","NA"
"2014-09-24 16:00","2014","09","24","16:00","21.8","","11.7","","52","","12","","10","","24.1","","101.01","","","","","","Clear"
"2014-09-24 17:00","2014","09","24","17:00","20.5","","12.8","","61","","13","","11","","24.1","","100.97","","","","","","NA"
"2014-09-24 18:00","2014","09","24","18:00","18.7","","11.8","","64","","9","","12","","24.1","","100.98","","","","","","NA"
"2014-09-24 19:00","2014","09","24","19:00","17.3","","10.7","","65","","10","","7","","24.1","","100.98","","","","","","Clear"
"2014-09-24 20:00","2014","09","24","20:00","16.3","","10.9","","70","","5","","8","","24.1","","100.97","","","","","","NA"
"2014-09-24 21:00","2014","09","24","21:00","16.7","","11.5","","71","","4","","8","","24.1","","100.94","","","","","","NA"
"2014-09-24 22:00","2014","09","24","22:00","16.2","","11.6","","74","","6","","7","","24.1","","100.92","","","","","","Clear"
"2014-09-24 23:00","2014","09","24","23:00","16.0","","12.0","","77","","4","","5","","24.1","","100.90","","","","","","NA"
"2014-09-25 00:00","2014","09","25","00:00","15.5","","12.1","","80","","5","","4","","24.1","","100.89","","","","","","NA"
"2014-09-25 01:00","2014","09","25","01:00","14.1","","11.3","","83","","36","","3","","24.1","","100.87","","","","","","Clear"
"2014-09-25 02:00","2014","09","25","02:00","12.6","","10.0","","84","","31","","9","","24.1","","100.85","","","","","","NA"
"2014-09-25 03:00","2014","09","25","03:00","12.3","","10.2","","87","","3","","6","","24.1","","100.85","","","","","","NA"
"2014-09-25 04:00","2014","09","25","04:00","12.9","","10.3","","84","","4","","3","","24.1","","100.86","","","","","","Clear"
"2014-09-25 05:00","2014","09","25","05:00","11.3","","9.4","","88","","3","","3","","24.1","","100.86","","","","","","NA"
"2014-09-25 06:00","2014","09","25","06:00","12.3","","10.2","","87","","36","","1","","24.1","","100.89","","","","","","NA"
"2014-09-25 07:00","2014","09","25","07:00","11.9","","9.8","","87","","33","","4","","19.3","","100.89","","","","","","Mainly Clear"
"2014-09-25 08:00","2014","09","25","08:00","15.0","","12.4","","84","","2","","4","","9.7","","100.90","","","","","","Haze"
"2014-09-25 09:00","2014","09","25","09:00","17.8","","13.6","","76","","13","","9","","12.9","","100.90","","","","","","NA"
"2014-09-25 10:00","2014","09","25","10:00","18.7","","14.0","","74","","18","","5","","24.1","","100.88","","","","","","Mainly Clear"
"2014-09-25 11:00","2014","09","25","11:00","19.8","","13.8","","68","","13","","12","","24.1","","100.85","","","","","","NA"
"2014-09-25 12:00","2014","09","25","12:00","20.0","","13.1","","64","","14","","8","","24.1","","100.83","","","","","","NA"
"2014-09-25 13:00","2014","09","25","13:00","20.6","","13.2","","62","","14","","10","","24.1","","100.75","","","","","","Mainly Clear"
"2014-09-25 14:00","2014","09","25","14:00","20.7","","12.0","","57","","15","","9","","24.1","","100.69","","","","","","NA"
"2014-09-25 15:00","2014","09","25","15:00","20.9","","12.5","","58","","13","","10","","24.1","","100.65","","","","","","NA"
"2014-09-25 16:00","2014","09","25","16:00","20.5","","10.7","","53","","14","","13","","24.1","","100.59","","","","","","Mainly Clear"
"2014-09-25 17:00","2014","09","25","17:00","19.3","","11.4","","60","","13","","12","","24.1","","100.56","","","","","","NA"
"2014-09-25 18:00","2014","09","25","18:00","17.4","","11.1","","66","","14","","9","","24.1","","100.54","","","","","","NA"
"2014-09-25 19:00","2014","09","25","19:00","16.9","","11.0","","68","","15","","7","","24.1","","100.55","","","","","","Mainly Clear"
"2014-09-25 20:00","2014","09","25","20:00","16.3","","10.5","","68","","36","","3","","24.1","","100.57","","","","","","NA"
"2014-09-25 21:00","2014","09","25","21:00","16.2","","9.9","","66","","36","","3","","24.1","","100.57","","","","","","NA"
"2014-09-25 22:00","2014","09","25","22:00","16.1","","9.8","","66","","7","","3","","24.1","","100.58","","","","","","Clear"
"2014-09-25 23:00","2014","09","25","23:00","13.6","","10.1","","79","","30","","4","","24.1","","100.57","","","","","","NA"
"2014-09-26 00:00","2014","09","26","00:00","13.6","","9.7","","77","","30","","4","","24.1","","100.54","","","","","","NA"
"2014-09-26 01:00","2014","09","26","01:00","12.2","","9.4","","83","","34","","7","","24.1","","100.54","","","","","","Clear"
"2014-09-26 02:00","2014","09","26","02:00","11.9","","9.1","","83","","36","","3","","24.1","","100.51","","","","","","NA"
"2014-09-26 03:00","2014","09","26","03:00","11.2","","8.6","","84","","1","","7","","24.1","","100.50","","","","","","NA"
"2014-09-26 04:00","2014","09","26","04:00","11.4","","8.6","","83","","35","","10","","24.1","","100.54","","","","","","Clear"
"2014-09-26 05:00","2014","09","26","05:00","11.3","","8.5","","83","","1","","4","","24.1","","100.56","","","","","","NA"
"2014-09-26 06:00","2014","09","26","06:00","11.6","","8.8","","83","","31","","5","","12.9","","100.59","","","","","","NA"
"2014-09-26 07:00","2014","09","26","07:00","12.6","","9.8","","83","","31","","4","","16.1","","100.62","","","","","","Mainly Clear"
"2014-09-26 08:00","2014","09","26","08:00","15.9","","11.3","","74","","33","","4","","24.1","","100.65","","","","","","NA"
"2014-09-26 09:00","2014","09","26","09:00","18.6","","11.3","","62","","33","","3","","24.1","","100.64","","","","","","NA"
"2014-09-26 10:00","2014","09","26","10:00","20.4","","11.7","","57","","11","","4","","24.1","","100.65","","","","","","Clear"
"2014-09-26 11:00","2014","09","26","11:00","21.0","","12.8","","59","","15","","6","","19.3","","100.62","","","","","","NA"
"2014-09-26 12:00","2014","09","26","12:00","22.2","","12.0","","52","","16","","9","","19.3","","100.60","","","","","","NA"
"2014-09-26 13:00","2014","09","26","13:00","22.9","","12.4","","51","","19","","8","","24.1","","100.53","","25","","","","Clear"
"2014-09-26 14:00","2014","09","26","14:00","23.0","","12.2","","50","","14","","12","","24.1","","100.48","","25","","","","NA"
"2014-09-26 15:00","2014","09","26","15:00","22.5","","12.3","","52","","14","","16","","24.1","","100.42","","25","","","","NA"
"2014-09-26 16:00","2014","09","26","16:00","22.7","","12.2","","51","","17","","13","","24.1","","100.39","","25","","","","Mainly Clear"
"2014-09-26 17:00","2014","09","26","17:00","21.7","","11.6","","52","","14","","12","","24.1","","100.39","","","","","","NA"
"2014-09-26 18:00","2014","09","26","18:00","19.8","","11.7","","59","","14","","9","","24.1","","100.40","","","","","","NA"
"2014-09-26 19:00","2014","09","26","19:00","19.1","","11.7","","62","","11","","3","","24.1","","100.42","","","","","","Clear"
"2014-09-26 20:00","2014","09","26","20:00","18.4","","11.3","","63","","36","","2","","24.1","","100.47","","","","","","NA"
"2014-09-26 21:00","2014","09","26","21:00","18.4","","13.3","","72","","36","","14","","24.1","","100.48","","","","","","NA"
"2014-09-26 22:00","2014","09","26","22:00","17.1","","13.1","","77","","36","","16","","24.1","","100.51","","","","","","Clear"
"2014-09-26 23:00","2014","09","26","23:00","16.1","","12.3","","78","","36","","15","","24.1","","100.50","","","","","","NA"
"2014-09-27 00:00","2014","09","27","00:00","15.1","","12.1","","82","","33","","11","","24.1","","100.49","","","","","","NA"
"2014-09-27 01:00","2014","09","27","01:00","15.2","","12.2","","82","","34","","14","","24.1","","100.48","","","","","","Clear"
"2014-09-27 02:00","2014","09","27","02:00","14.3","","11.7","","84","","32","","8","","24.1","","100.45","","","","","","NA"
"2014-09-27 03:00","2014","09","27","03:00","13.6","","11.2","","85","","27","","7","","24.1","","100.48","","","","","","NA"
"2014-09-27 04:00","2014","09","27","04:00","14.1","","11.6","","85","","33","","8","","24.1","","100.49","","","","","","Clear"
"2014-09-27 05:00","2014","09","27","05:00","13.1","","10.8","","86","","33","","7","","24.1","","100.53","","","","","","NA"
"2014-09-27 06:00","2014","09","27","06:00","13.8","","11.4","","85","","34","","7","","24.1","","100.57","","","","","","NA"
"2014-09-27 07:00","2014","09","27","07:00","13.5","","10.7","","83","","30","","8","","24.1","","100.61","","","","","","Clear"
"2014-09-27 08:00","2014","09","27","08:00","16.9","","12.3","","74","","33","","10","","24.1","","100.61","","","","","","NA"
"2014-09-27 09:00","2014","09","27","09:00","18.5","","13.6","","73","","1","","11","","24.1","","100.61","","","","","","NA"
"2014-09-27 10:00","2014","09","27","10:00","20.2","","14.2","","68","","35","","5","","24.1","","100.59","","","","","","Clear"
"2014-09-27 11:00","2014","09","27","11:00","21.9","","13.1","","57","","5","","4","","24.1","","100.57","","25","","","","NA"
"2014-09-27 12:00","2014","09","27","12:00","23.3","","14.2","","56","","5","","4","","24.1","","100.52","","27","","","","NA"
"2014-09-27 13:00","2014","09","27","13:00","24.2","","13.6","","51","","6","","6","","24.1","","100.45","","27","","","","Clear"
"2014-09-27 14:00","2014","09","27","14:00","25.0","","11.8","","43","","3","","7","","24.1","","100.40","","27","","","","NA"
"2014-09-27 15:00","2014","09","27","15:00","23.8","","13.8","","53","","16","","14","","24.1","","100.36","","27","","","","NA"
"2014-09-27 16:00","2014","09","27","16:00","23.6","","14.2","","55","","16","","13","","24.1","","100.30","","27","","","","Clear"
"2014-09-27 17:00","2014","09","27","17:00","22.3","","13.2","","56","","13","","9","","24.1","","100.26","","25","","","","NA"
"2014-09-27 18:00","2014","09","27","18:00","20.5","","12.6","","60","","14","","10","","24.1","","100.24","","","","","","NA"
"2014-09-27 19:00","2014","09","27","19:00","19.9","","11.8","","59","","15","","6","","24.1","","100.24","","","","","","Mainly Clear"
"2014-09-27 20:00","2014","09","27","20:00","19.4","","11.0","","58","","19","","3","","24.1","","100.26","","","","","","NA"
"2014-09-27 21:00","2014","09","27","21:00","18.7","","11.6","","63","","29","","5","","24.1","","100.26","","","","","","NA"
"2014-09-27 22:00","2014","09","27","22:00","17.5","","12.3","","71","","31","","12","","24.1","","100.25","","","","","","Clear"
"2014-09-27 23:00","2014","09","27","23:00","16.0","","11.8","","76","","31","","11","","24.1","","100.24","","","","","","NA"
"2014-09-28 00:00","2014","09","28","00:00","16.7","","11.9","","73","","34","","3","","24.1","","100.22","","","","","","NA"
"2014-09-28 01:00","2014","09","28","01:00","16.3","","11.7","","74","","34","","8","","24.1","","100.23","","","","","","Clear"
"2014-09-28 02:00","2014","09","28","02:00","14.2","","11.0","","81","","32","","7","","24.1","","100.20","","","","","","NA"
"2014-09-28 03:00","2014","09","28","03:00","14.7","","11.0","","78","","34","","9","","24.1","","100.19","","","","","","NA"
"2014-09-28 04:00","2014","09","28","04:00","13.9","","10.5","","80","","33","","8","","24.1","","100.17","","","","","","Mainly Clear"
"2014-09-28 05:00","2014","09","28","05:00","13.9","","10.4","","79","","2","","4","","24.1","","100.14","","","","","","NA"
"2014-09-28 06:00","2014","09","28","06:00","13.4","","10.4","","82","","36","","3","","24.1","","100.14","","","","","","NA"
"2014-09-28 07:00","2014","09","28","07:00","14.1","","10.7","","80","","31","","8","","24.1","","100.16","","","","","","Mostly Cloudy"
"2014-09-28 08:00","2014","09","28","08:00","17.5","","12.5","","72","","36","","3","","24.1","","100.16","","","","","","NA"
"2014-09-28 09:00","2014","09","28","09:00","20.0","","13.3","","65","","36","","2","","24.1","","100.13","","","","","","NA"
"2014-09-28 10:00","2014","09","28","10:00","22.1","","13.6","","58","","16","","3","","24.1","","100.12","","25","","","","Mostly Cloudy"
"2014-09-28 11:00","2014","09","28","11:00","22.5","","13.2","","55","","11","","4","","24.1","","100.07","","25","","","","NA"
"2014-09-28 12:00","2014","09","28","12:00","23.8","","14.1","","54","","36","","2","","24.1","","100.03","","27","","","","NA"
"2014-09-28 13:00","2014","09","28","13:00","24.8","","14.2","","51","","6","","7","","24.1","","99.94","","28","","","","Mostly Cloudy"
"2014-09-28 14:00","2014","09","28","14:00","23.7","","13.1","","51","","15","","13","","24.1","","99.85","","27","","","","NA"
"2014-09-28 15:00","2014","09","28","15:00","23.7","","12.8","","50","","15","","14","","24.1","","99.79","","26","","","","NA"
"2014-09-28 16:00","2014","09","28","16:00","23.0","","12.8","","52","","13","","12","","24.1","","99.76","","26","","","","Mostly Cloudy"
"2014-09-28 17:00","2014","09","28","17:00","21.5","","10.8","","50","","15","","9","","24.1","","99.75","","","","","","NA"
"2014-09-28 18:00","2014","09","28","18:00","21.4","","10.4","","49","","16","","7","","24.1","","99.71","","","","","","NA"
"2014-09-28 19:00","2014","09","28","19:00","20.5","","11.5","","56","","18","","3","","24.1","","99.72","","","","","","Mostly Cloudy"
"2014-09-28 20:00","2014","09","28","20:00","19.6","","11.5","","59","","16","","4","","24.1","","99.73","","","","","","NA"
"2014-09-28 21:00","2014","09","28","21:00","18.7","","11.6","","63","","28","","7","","24.1","","99.71","","","","","","NA"
"2014-09-28 22:00","2014","09","28","22:00","18.5","","12.6","","68","","28","","6","","24.1","","99.70","","","","","","Mostly Cloudy"
"2014-09-28 23:00","2014","09","28","23:00","17.6","","13.6","","77","","34","","9","","24.1","","99.64","","","","","","NA"
"2014-09-29 00:00","2014","09","29","00:00","16.9","","13.3","","79","","34","","5","","24.1","","99.60","","","","","","NA"
"2014-09-29 01:00","2014","09","29","01:00","15.5","","12.1","","80","","3","","3","","24.1","","99.58","","","","","","Mostly Cloudy"
"2014-09-29 02:00","2014","09","29","02:00","15.7","","12.5","","81","","34","","10","","24.1","","99.55","","","","","","NA"
"2014-09-29 03:00","2014","09","29","03:00","15.1","","12.5","","84","","35","","7","","24.1","","99.55","","","","","","NA"
"2014-09-29 04:00","2014","09","29","04:00","14.6","","12.1","","85","","3","","8","","24.1","","99.53","","","","","","Mainly Clear"
"2014-09-29 05:00","2014","09","29","05:00","14.4","","12.1","","86","","34","","9","","24.1","","99.55","","","","","","NA"
"2014-09-29 06:00","2014","09","29","06:00","13.9","","11.6","","86","","36","","3","","24.1","","99.56","","","","","","NA"
"2014-09-29 07:00","2014","09","29","07:00","14.1","","12.0","","87","","30","","8","","24.1","","99.54","","","","","","Mainly Clear"
"2014-09-29 08:00","2014","09","29","08:00","16.6","","13.4","","81","","1","","8","","24.1","","99.55","","","","","","NA"
"2014-09-29 09:00","2014","09","29","09:00","19.3","","13.1","","67","","11","","6","","24.1","","99.50","","","","","","NA"
"2014-09-29 10:00","2014","09","29","10:00","21.1","","13.2","","60","","15","","9","","24.1","","99.45","","","","","","Mainly Clear"
"2014-09-29 11:00","2014","09","29","11:00","22.1","","12.5","","54","","14","","7","","24.1","","99.43","","25","","","","NA"
"2014-09-29 12:00","2014","09","29","12:00","23.2","","12.4","","50","","15","","8","","24.1","","99.39","","26","","","","NA"
"2014-09-29 13:00","2014","09","29","13:00","23.9","","15.0","","57","","14","","12","","24.1","","99.31","","28","","","","Mainly Clear"
"2014-09-29 14:00","2014","09","29","14:00","23.2","","14.6","","58","","15","","15","","24.1","","99.26","","27","","","","NA"
"2014-09-29 15:00","2014","09","29","15:00","23.1","","14.5","","58","","15","","11","","24.1","","99.20","","27","","","","NA"
"2014-09-29 16:00","2014","09","29","16:00","22.8","","13.2","","54","","16","","13","","24.1","","99.15","","26","","","","Mainly Clear"
"2014-09-29 17:00","2014","09","29","17:00","22.1","","13.3","","57","","16","","10","","24.1","","99.13","","25","","","","NA"
"2014-09-29 18:00","2014","09","29","18:00","19.5","","14.8","","74","","15","","12","","24.1","","99.14","","","","","","NA"
"2014-09-29 19:00","2014","09","29","19:00","18.9","","16.2","","84","","15","","9","","24.1","","99.14","","","","","","Mostly Cloudy"
"2014-09-29 20:00","2014","09","29","20:00","18.4","","16.1","","86","","15","","5","","24.1","","99.13","","","","","","NA"
"2014-09-29 21:00","2014","09","29","21:00","18.4","","15.9","","85","","13","","4","","24.1","","99.13","","","","","","NA"
"2014-09-29 22:00","2014","09","29","22:00","18.1","","15.6","","85","","36","","2","","24.1","","99.11","","","","","","Mostly Cloudy"
"2014-09-29 23:00","2014","09","29","23:00","17.6","","15.1","","85","","30","","5","","16.1","","99.05","","","","","","NA"
"2014-09-30 00:00","2014","09","30","00:00","16.5","","14.9","","90","","36","","3","","16.1","","99.03","","","","","","NA"
"2014-09-30 01:00","2014","09","30","01:00","16.2","","14.6","","90","","36","","1","","16.1","","99.04","","","","","","Mostly Cloudy"
"2014-09-30 02:00","2014","09","30","02:00","16.3","","13.8","","85","","31","","8","","16.1","","99.06","","","","","","NA"
"2014-09-30 03:00","2014","09","30","03:00","15.6","","14.0","","90","","2","","7","","16.1","","99.06","","","","","","NA"
"2014-09-30 04:00","2014","09","30","04:00","15.6","","14.0","","90","","1","","5","","9.7","","99.06","","","","","","Fog"
"2014-09-30 05:00","2014","09","30","05:00","15.6","","14.3","","92","","31","","8","","6.4","","99.10","","","","","","Fog"
"2014-09-30 06:00","2014","09","30","06:00","16.1","","14.8","","92","","1","","8","","6.4","","99.10","","","","","","Fog"
"2014-09-30 07:00","2014","09","30","07:00","16.5","","15.2","","92","","16","","4","","4.0","","99.13","","","","","","Fog"
"2014-09-30 08:00","2014","09","30","08:00","16.8","","15.2","","90","","14","","11","","6.4","","99.08","","","","","","Fog"
"2014-09-30 09:00","2014","09","30","09:00","18.0","","15.7","","86","","26","","7","","6.4","","99.15","","","","","","Fog"
"2014-09-30 10:00","2014","09","30","10:00","19.1","","15.4","","79","","16","","4","","12.9","","99.14","","","","","","Mostly Cloudy"
"2014-09-30 11:00","2014","09","30","11:00","19.3","","15.4","","78","","10","","4","","8.1","","99.20","","","","","","Haze"
"2014-09-30 12:00","2014","09","30","12:00","18.9","","15.8","","82","","12","","14","","9.7","","99.22","","","","","","Haze"
"2014-09-30 13:00","2014","09","30","13:00","18.2","","15.3","","83","","10","","21","","12.9","","99.23","","","","","","Cloudy"
"2014-09-30 14:00","2014","09","30","14:00","17.6","","15.4","","87","","12","","10","","12.9","","99.24","","","","","","NA"
"2014-09-30 15:00","2014","09","30","15:00","17.4","","15.4","","88","","11","","5","","9.7","","99.26","","","","","","Fog"
"2014-09-30 16:00","2014","09","30","16:00","17.4","","15.2","","87","","18","","4","","9.7","","99.26","","","","","","Fog"
"2014-09-30 17:00","2014","09","30","17:00","17.5","","15.3","","87","","16","","8","","12.9","","99.30","","","","","","NA"
"2014-09-30 18:00","2014","09","30","18:00","16.9","","15.3","","90","","15","","10","","6.4","","99.35","","","","","","Fog"
"2014-09-30 19:00","2014","09","30","19:00","15.9","","14.8","","93","","13","","7","","6.4","","99.36","","","","","","Fog"
"2014-09-30 20:00","2014","09","30","20:00","16.2","","14.6","","90","","13","","7","","6.4","","99.44","","","","","","Fog"
"2014-09-30 21:00","2014","09","30","21:00","16.6","","14.5","","87","","5","","3","","9.7","","99.47","","","","","","Haze"
"2014-09-30 22:00","2014","09","30","22:00","17.1","","13.9","","81","","8","","10","","16.1","","99.53","","","","","","Cloudy"
"2014-09-30 23:00","2014","09","30","23:00","16.7","","13.8","","83","","10","","14","","16.1","","99.57","","","","","","NA"
