"Station Name","TORONTO LESTER B. PEARSON INT'L A"
"Province","ONTARIO"
"Latitude","43.68"
"Longitude","-79.63"
"Elevation","173.40"
"Climate Identifier","6158733"
"WMO Identifier","71624"
"TC Identifier","YYZ"
"All times are specified in Local Standard Time (LST). Add 1 hour to adjust for Daylight Saving Time where and when it is observed."

"Legend"
"E","Estimated"
"M","Missing"
"NA","Not Available"

"Date/Time","Year","Month","Day","Time","Temp (°C)","Temp Flag","Dew Point Temp (°C)","Dew Point Temp Flag","Rel Hum (%)","Rel Hum Flag","Wind Dir (10s deg)","Wind Dir Flag","Wind Spd (km/h)","Wind Spd Flag","Visibility (km)","Visibility Flag","Stn Press (kPa)","Stn Press Flag","Hmdx","Hmdx Flag","Wind Chill","Wind Chill Flag","Weather"
"1964-12-01 00:00","1964","12","01","00:00","-12.2","","-14.4","","82","","34","","16","","25.0","","100.34","","","","-20","","Clear"
"1964-12-01 01:00","1964","12","01","01:00","-12.2","","-15.6","","76","","32","","19","","25.0","","100.29","","","","-20","","Clear"
"1964-12-01 02:00","1964","12","01","02:00","-12.8","","-16.1","","77","","32","","14","","25.0","","100.29","","","","-20","","Clear"
"1964-12-01 03:00","1964","12","01","03:00","-12.8","","-15.6","","81","","32","","13","","25.0","","100.27","","","","-20","","Clear"
"1964-12-01 04:00","1964","12","01","04:00","-13.3","","-15.6","","82","","34","","14","","25.0","","100.23","","","","-21","","Clear"
"1964-12-01 05:00","1964","12","01","05:00","-13.3","","-16.1","","80","","34","","10","","25.0","","100.25","","","","-19","","Clear"
"1964-12-01 06:00","1964","12","01","06:00","-14.4","","-17.2","","81","","32","","8","","25.0","","100.25","","","","-20","","Clear"
"1964-12-01 07:00","1964","12","01","07:00","-13.9","","-16.1","","83","","34","","10","","25.0","","100.28","","","","-20","","Mainly Clear"
"1964-12-01 08:00","1964","12","01","08:00","-13.9","","-16.1","","81","","34","","13","","40.2","","100.26","","","","-21","","Mainly Clear"
"1964-12-01 09:00","1964","12","01","09:00","-12.2","","-14.4","","83","","34","","14","","40.2","","100.25","","","","-19","","Mainly Clear"
"1964-12-01 10:00","1964","12","01","10:00","-11.1","","-13.9","","80","","34","","11","","40.2","","100.24","","","","-17","","Mainly Clear"
"1964-12-01 11:00","1964","12","01","11:00","-10.0","","-13.3","","75","","36","","10","","40.2","","100.20","","","","-15","","Mainly Clear"
"1964-12-01 12:00","1964","12","01","12:00","-8.9","","-12.2","","76","","29","","13","","40.2","","100.10","","","","-15","","Mainly Clear"
"1964-12-01 13:00","1964","12","01","13:00","-7.2","","-11.7","","71","","32","","10","","40.2","","100.00","","","","-12","","Mainly Clear"
"1964-12-01 14:00","1964","12","01","14:00","-6.7","","-11.1","","72","","36","","13","","40.2","","99.95","","","","-12","","Snow Showers"
"1964-12-01 15:00","1964","12","01","15:00","-6.7","","-10.6","","73","","36","","13","","40.2","","99.89","","","","-12","","Mostly Cloudy"
"1964-12-01 16:00","1964","12","01","16:00","-6.7","","-11.1","","72","","36","","16","","40.2","","99.82","","","","-13","","Mainly Clear"
"1964-12-01 17:00","1964","12","01","17:00","-7.8","","-11.1","","76","","36","","14","","25.0","","99.79","","","","-14","","Mostly Cloudy"
"1964-12-01 18:00","1964","12","01","18:00","-8.9","","-11.7","","79","","34","","10","","25.0","","99.79","","","","-14","","Mostly Cloudy"
"1964-12-01 19:00","1964","12","01","19:00","-8.9","","-12.2","","76","","36","","6","","25.0","","99.76","","","","-12","","Cloudy"
"1964-12-01 20:00","1964","12","01","20:00","-8.9","","-12.2","","76","","36","","8","","25.0","","99.72","","","","-13","","Ice Crystals"
"1964-12-01 21:00","1964","12","01","21:00","-8.9","","-12.2","","77","","2","","8","","25.0","","99.70","","","","-13","","Ice Crystals"
"1964-12-01 22:00","1964","12","01","22:00","-9.4","","-12.2","","79","","2","","10","","25.0","","99.66","","","","-15","","Mostly Cloudy"
"1964-12-01 23:00","1964","12","01","23:00","-8.9","","-11.7","","80","","34","","5","","25.0","","99.63","","","","-12","","Cloudy"
"1964-12-02 00:00","1964","12","02","00:00","-8.9","","-12.2","","77","","2","","6","","25.0","","99.59","","","","-12","","Cloudy"
"1964-12-02 01:00","1964","12","02","01:00","-8.3","","-10.6","","82","","","","0","","16.1","","99.57","","","","","","Snow Grains"
"1964-12-02 02:00","1964","12","02","02:00","-8.3","","-10.6","","84","","36","","5","","11.3","","99.52","","","","-11","","Snow"
"1964-12-02 03:00","1964","12","02","03:00","-7.2","","-9.4","","84","","14","","11","","4.0","","99.48","","","","-12","","Snow"
"1964-12-02 04:00","1964","12","02","04:00","-7.2","","-8.9","","89","","16","","5","","4.8","","99.44","","","","-10","","Snow"
"1964-12-02 05:00","1964","12","02","05:00","-7.2","","-8.3","","93","","16","","3","","3.2","","99.39","","","","-9","","Snow"
"1964-12-02 06:00","1964","12","02","06:00","-6.7","","-7.8","","92","","","","0","","3.2","","99.39","","","","","","Snow"
"1964-12-02 07:00","1964","12","02","07:00","-6.7","","-7.8","","92","","","","0","","3.2","","99.36","","","","","","Snow"
"1964-12-02 08:00","1964","12","02","08:00","-6.7","","-7.8","","94","","","","0","","1.2","","99.34","","","","","","Snow"
"1964-12-02 09:00","1964","12","02","09:00","-6.1","","-7.2","","92","","","","0","","1.6","","99.32","","","","","","Snow"
"1964-12-02 10:00","1964","12","02","10:00","-5.0","","-6.7","","88","","","","0","","1.6","","99.29","","","","","","Snow"
"1964-12-02 11:00","1964","12","02","11:00","-5.0","","-6.1","","92","","","","0","","3.2","","99.27","","","","","","Snow"
"1964-12-02 12:00","1964","12","02","12:00","-4.4","","-6.1","","90","","","","0","","1.6","","99.21","","","","","","Snow"
"1964-12-02 13:00","1964","12","02","13:00","-3.9","","-6.1","","85","","","","0","","3.2","","99.15","","","","","","Snow"
"1964-12-02 14:00","1964","12","02","14:00","-2.8","","-5.6","","81","","","","0","","4.8","","99.11","","","","","","Snow"
"1964-12-02 15:00","1964","12","02","15:00","-3.3","","-5.6","","85","","","","0","","4.8","","99.10","","","","","","Snow"
"1964-12-02 16:00","1964","12","02","16:00","-3.9","","-5.6","","88","","","","0","","1.6","","99.10","","","","","","Snow"
"1964-12-02 17:00","1964","12","02","17:00","-3.9","","-5.0","","91","","","","0","","2.4","","99.11","","","","","","Snow,Fog"
"1964-12-02 18:00","1964","12","02","18:00","-3.9","","-5.0","","93","","","","0","","2.4","","99.11","","","","","","Snow,Fog"
"1964-12-02 19:00","1964","12","02","19:00","-4.4","","-5.0","","95","","","","0","","2.8","","99.12","","","","","","Snow,Fog"
"1964-12-02 20:00","1964","12","02","20:00","-4.4","","-5.0","","95","","","","0","","3.2","","99.12","","","","","","Snow,Fog"
"1964-12-02 21:00","1964","12","02","21:00","-4.4","","-5.0","","96","","","","0","","3.2","","99.08","","","","","","Snow,Fog"
"1964-12-02 22:00","1964","12","02","22:00","-4.4","","-5.6","","93","","","","0","","3.2","","99.09","","","","","","Snow,Fog"
"1964-12-02 23:00","1964","12","02","23:00","-4.4","","-5.0","","95","","","","0","","2.0","","99.13","","","","","","Snow,Fog"
"1964-12-03 00:00","1964","12","03","00:00","-3.9","","-4.4","","95","","34","","6","","1.6","","99.11","","","","-7","","Snow,Fog"
"1964-12-03 01:00","1964","12","03","01:00","-3.9","","-4.4","","94","","36","","11","","2.8","","99.12","","","","-8","","Snow"
"1964-12-03 02:00","1964","12","03","02:00","-4.4","","-5.6","","93","","34","","13","","4.8","","99.16","","","","-9","","Snow"
"1964-12-03 03:00","1964","12","03","03:00","-4.4","","-5.6","","92","","36","","13","","3.2","","99.19","","","","-9","","Snow"
"1964-12-03 04:00","1964","12","03","04:00","-4.4","","-5.6","","91","","36","","11","","6.4","","99.20","","","","-9","","Snow"
"1964-12-03 05:00","1964","12","03","05:00","-5.0","","-6.7","","87","","36","","13","","8.0","","99.27","","","","-10","","Snow,Fog"
"1964-12-03 06:00","1964","12","03","06:00","-5.6","","-6.7","","92","","36","","18","","8.0","","99.30","","","","-12","","Snow,Fog"
"1964-12-03 07:00","1964","12","03","07:00","-6.7","","-7.8","","91","","36","","19","","8.0","","99.41","","","","-14","","Snow,Fog"
"1964-12-03 08:00","1964","12","03","08:00","-5.6","","-6.7","","93","","36","","14","","4.8","","99.53","","","","-11","","Fog"
"1964-12-03 09:00","1964","12","03","09:00","-4.4","","-5.6","","93","","36","","14","","4.8","","99.60","","","","-10","","Fog"
"1964-12-03 10:00","1964","12","03","10:00","-3.9","","-4.4","","94","","36","","13","","4.8","","99.68","","","","-9","","Snow Grains,Fog"
"1964-12-03 11:00","1964","12","03","11:00","-3.9","","-5.0","","92","","36","","16","","2.4","","99.71","","","","-9","","Snow Grains,Fog"
"1964-12-03 12:00","1964","12","03","12:00","-3.3","","-4.4","","91","","36","","16","","1.6","","99.68","","","","-9","","Snow Grains,Fog"
"1964-12-03 13:00","1964","12","03","13:00","-3.3","","-5.0","","88","","2","","16","","4.0","","99.67","","","","-9","","Snow Grains,Fog"
"1964-12-03 14:00","1964","12","03","14:00","-2.8","","-4.4","","90","","2","","13","","2.4","","99.68","","","","-7","","Snow Grains,Fog"
"1964-12-03 15:00","1964","12","03","15:00","-3.3","","-5.0","","89","","2","","13","","4.8","","99.74","","","","-8","","Snow Grains,Fog"
"1964-12-03 16:00","1964","12","03","16:00","-3.3","","-5.0","","88","","2","","11","","8.0","","99.81","","","","-8","","Fog"
"1964-12-03 17:00","1964","12","03","17:00","-3.3","","-5.6","","86","","2","","13","","11.3","","99.87","","","","-8","","Cloudy"
"1964-12-03 18:00","1964","12","03","18:00","-3.9","","-5.0","","91","","36","","14","","3.2","","99.91","","","","-9","","Snow Grains"
"1964-12-03 19:00","1964","12","03","19:00","-3.9","","-5.0","","92","","2","","16","","4.8","","99.95","","","","-9","","Snow Grains"
"1964-12-03 20:00","1964","12","03","20:00","-3.9","","-5.6","","88","","2","","16","","12.9","","99.96","","","","-9","","Snow Grains"
"1964-12-03 21:00","1964","12","03","21:00","-3.9","","-5.6","","87","","5","","19","","16.1","","100.00","","","","-10","","Cloudy"
"1964-12-03 22:00","1964","12","03","22:00","-3.9","","-6.1","","86","","5","","16","","16.1","","100.09","","","","-9","","Cloudy"
"1964-12-03 23:00","1964","12","03","23:00","-4.4","","-6.7","","85","","5","","19","","19.3","","100.12","","","","-11","","Cloudy"
"1964-12-04 00:00","1964","12","04","00:00","-4.4","","-6.7","","84","","5","","16","","19.3","","100.08","","","","-10","","Cloudy"
"1964-12-04 01:00","1964","12","04","01:00","-5.0","","-7.2","","86","","5","","16","","19.3","","100.06","","","","-11","","Cloudy"
"1964-12-04 02:00","1964","12","04","02:00","-5.6","","-7.8","","86","","5","","21","","16.1","","100.07","","","","-12","","Cloudy"
"1964-12-04 03:00","1964","12","04","03:00","-6.1","","-8.9","","80","","5","","21","","16.1","","100.05","","","","-13","","Cloudy"
"1964-12-04 04:00","1964","12","04","04:00","-6.1","","-8.9","","82","","2","","19","","16.1","","100.07","","","","-13","","Cloudy"
"1964-12-04 05:00","1964","12","04","05:00","-6.1","","-8.9","","82","","2","","23","","16.1","","100.05","","","","-13","","Cloudy"
"1964-12-04 06:00","1964","12","04","06:00","-6.7","","-8.3","","89","","2","","21","","4.8","","100.03","","","","-14","","Snow"
"1964-12-04 07:00","1964","12","04","07:00","-6.7","","-8.9","","83","","2","","23","","4.8","","100.06","","","","-14","","Snow"
"1964-12-04 08:00","1964","12","04","08:00","-6.7","","-8.9","","85","","2","","23","","3.2","","100.03","","","","-14","","Snow"
"1964-12-04 09:00","1964","12","04","09:00","-6.7","","-8.9","","85","","5","","29","","2.4","","100.00","","","","-15","","Snow"
"1964-12-04 10:00","1964","12","04","10:00","-6.7","","-8.9","","86","","2","","16","","1.6","","99.93","","","","-13","","Snow"
"1964-12-04 11:00","1964","12","04","11:00","-6.1","","-8.3","","85","","5","","26","","4.8","","99.83","","","","-14","","Snow,Ice Pellets"
"1964-12-04 12:00","1964","12","04","12:00","-6.1","","-8.3","","85","","2","","26","","4.8","","99.76","","","","-14","","Freezing Rain,Ice Pellets"
"1964-12-04 13:00","1964","12","04","13:00","-6.1","","-8.3","","85","","2","","27","","3.2","","99.66","","","","-14","","Freezing Rain,Ice Pellets"
"1964-12-04 14:00","1964","12","04","14:00","-6.1","","-8.3","","84","","2","","29","","4.8","","99.59","","","","-14","","Freezing Rain"
"1964-12-04 15:00","1964","12","04","15:00","-6.1","","-8.3","","85","","2","","29","","3.2","","99.58","","","","-14","","Freezing Rain"
"1964-12-04 16:00","1964","12","04","16:00","-6.7","","-8.3","","89","","2","","24","","4.8","","99.54","","","","-14","","Freezing Rain"
"1964-12-04 17:00","1964","12","04","17:00","-6.7","","-8.3","","87","","2","","24","","3.6","","99.56","","","","-14","","Freezing Rain,Ice Pellets"
"1964-12-04 18:00","1964","12","04","18:00","-7.8","","-10.0","","84","","2","","24","","4.8","","99.51","","","","-16","","Freezing Drizzle"
"1964-12-04 19:00","1964","12","04","19:00","-7.8","","-9.4","","87","","2","","19","","4.0","","99.54","","","","-15","","Ice Pellets"
"1964-12-04 20:00","1964","12","04","20:00","-8.3","","-10.6","","84","","2","","27","","4.0","","99.48","","","","-17","","Ice Pellets"
"1964-12-04 21:00","1964","12","04","21:00","-8.3","","-10.0","","89","","36","","24","","4.0","","99.58","","","","-16","","Freezing Drizzle"
"1964-12-04 22:00","1964","12","04","22:00","-7.8","","-10.0","","84","","36","","24","","16.1","","99.64","","","","-16","","Snow"
"1964-12-04 23:00","1964","12","04","23:00","-7.8","","-10.0","","83","","36","","24","","4.0","","99.64","","","","-16","","Snow Grains"
"1964-12-05 00:00","1964","12","05","00:00","-7.8","","-10.6","","79","","36","","27","","24.1","","99.71","","","","-16","","Cloudy"
"1964-12-05 01:00","1964","12","05","01:00","-7.8","","-10.0","","86","","36","","24","","19.3","","99.71","","","","-16","","Cloudy"
"1964-12-05 02:00","1964","12","05","02:00","-7.8","","-10.0","","86","","36","","26","","19.3","","99.78","","","","-16","","Cloudy"
"1964-12-05 03:00","1964","12","05","03:00","-8.3","","-10.6","","82","","36","","19","","19.3","","99.79","","","","-16","","Cloudy"
"1964-12-05 04:00","1964","12","05","04:00","-8.3","","-11.1","","81","","36","","18","","19.3","","99.86","","","","-15","","Cloudy"
"1964-12-05 05:00","1964","12","05","05:00","-8.9","","-11.1","","84","","34","","16","","19.3","","99.96","","","","-16","","Cloudy"
"1964-12-05 06:00","1964","12","05","06:00","-8.9","","-11.1","","83","","36","","13","","19.3","","99.97","","","","-15","","Cloudy"
"1964-12-05 07:00","1964","12","05","07:00","-8.3","","-11.7","","78","","36","","13","","19.3","","100.02","","","","-14","","Cloudy"
"1964-12-05 08:00","1964","12","05","08:00","-8.9","","-11.7","","81","","36","","14","","16.1","","100.06","","","","-15","","Cloudy"
"1964-12-05 09:00","1964","12","05","09:00","-8.9","","-11.7","","80","","36","","16","","32.2","","100.09","","","","-16","","Cloudy"
"1964-12-05 10:00","1964","12","05","10:00","-8.9","","-11.7","","80","","36","","16","","32.2","","100.12","","","","-16","","Snow"
"1964-12-05 11:00","1964","12","05","11:00","-8.3","","-11.1","","81","","32","","13","","9.7","","100.18","","","","-14","","Snow"
"1964-12-05 12:00","1964","12","05","12:00","-8.3","","-11.7","","78","","32","","13","","24.1","","100.15","","","","-14","","Snow"
"1964-12-05 13:00","1964","12","05","13:00","-7.8","","-10.6","","79","","34","","16","","19.3","","100.11","","","","-14","","Snow Showers"
"1964-12-05 14:00","1964","12","05","14:00","-7.8","","-11.1","","78","","34","","11","","40.2","","100.10","","","","-13","","Mostly Cloudy"
"1964-12-05 15:00","1964","12","05","15:00","-7.2","","-10.0","","80","","36","","18","","40.2","","100.11","","","","-14","","Mostly Cloudy"
"1964-12-05 16:00","1964","12","05","16:00","-7.8","","-10.6","","80","","36","","19","","40.2","","100.19","","","","-15","","Mostly Cloudy"
"1964-12-05 17:00","1964","12","05","17:00","-8.3","","-11.1","","81","","36","","11","","40.2","","100.26","","","","-14","","Mostly Cloudy"
"1964-12-05 18:00","1964","12","05","18:00","-10.0","","-12.8","","80","","34","","14","","25.0","","100.28","","","","-16","","Mostly Cloudy"
"1964-12-05 19:00","1964","12","05","19:00","-10.6","","-12.8","","84","","36","","14","","25.0","","100.21","","","","-17","","Mostly Cloudy"
"1964-12-05 20:00","1964","12","05","20:00","-9.4","","-12.2","","79","","36","","10","","25.0","","100.32","","","","-15","","Cloudy"
"1964-12-05 21:00","1964","12","05","21:00","-10.6","","-12.8","","82","","34","","10","","25.0","","100.29","","","","-16","","Mostly Cloudy"
"1964-12-05 22:00","1964","12","05","22:00","-11.1","","-13.9","","80","","36","","14","","25.0","","100.22","","","","-18","","Mostly Cloudy"
"1964-12-05 23:00","1964","12","05","23:00","-10.6","","-13.9","","77","","36","","13","","25.0","","100.28","","","","-17","","Mostly Cloudy"
"1964-12-06 00:00","1964","12","06","00:00","-9.4","","-12.8","","76","","34","","14","","25.0","","100.27","","","","-16","","Cloudy"
"1964-12-06 01:00","1964","12","06","01:00","-9.4","","-12.2","","79","","34","","21","","24.1","","100.20","","","","-17","","Snow"
"1964-12-06 02:00","1964","12","06","02:00","-9.4","","-12.2","","79","","34","","26","","19.3","","100.19","","","","-18","","Snow"
"1964-12-06 03:00","1964","12","06","03:00","-10.0","","-12.8","","78","","34","","14","","19.3","","100.25","","","","-16","","Snow"
"1964-12-06 04:00","1964","12","06","04:00","-10.0","","-13.3","","75","","34","","18","","19.3","","100.23","","","","-17","","Snow"
"1964-12-06 05:00","1964","12","06","05:00","-10.6","","-13.3","","79","","34","","16","","19.3","","100.25","","","","-18","","Snow"
"1964-12-06 06:00","1964","12","06","06:00","-12.8","","-15.0","","83","","32","","8","","25.0","","100.27","","","","-18","","Mainly Clear"
"1964-12-06 07:00","1964","12","06","07:00","-14.4","","-17.2","","81","","32","","10","","25.0","","100.29","","","","-21","","Mainly Clear"
"1964-12-06 08:00","1964","12","06","08:00","-16.1","","-17.8","","88","","34","","11","","25.0","","100.31","","","","-23","","Mainly Clear"
"1964-12-06 09:00","1964","12","06","09:00","-13.9","","-16.1","","81","","32","","16","","40.2","","100.35","","","","-22","","Mainly Clear"
"1964-12-06 10:00","1964","12","06","10:00","-12.2","","-15.0","","80","","32","","16","","40.2","","100.37","","","","-20","","Mainly Clear"
"1964-12-06 11:00","1964","12","06","11:00","-11.1","","-15.0","","73","","32","","16","","40.2","","100.37","","","","-18","","Mainly Clear"
"1964-12-06 12:00","1964","12","06","12:00","-10.0","","-13.9","","72","","32","","8","","40.2","","100.30","","","","-14","","Mainly Clear"
"1964-12-06 13:00","1964","12","06","13:00","-9.4","","-14.4","","67","","32","","6","","40.2","","100.26","","","","-13","","Mainly Clear"
"1964-12-06 14:00","1964","12","06","14:00","-7.2","","-13.9","","59","","","","0","","40.2","","100.22","","","","","","Mainly Clear"
"1964-12-06 15:00","1964","12","06","15:00","-6.7","","-12.2","","65","","29","","16","","40.2","","100.24","","","","-13","","Mainly Clear"
"1964-12-06 16:00","1964","12","06","16:00","-7.8","","-11.1","","76","","29","","13","","40.2","","100.28","","","","-14","","Mainly Clear"
"1964-12-06 17:00","1964","12","06","17:00","-9.4","","-12.2","","81","","29","","11","","40.2","","100.30","","","","-15","","Mainly Clear"
"1964-12-06 18:00","1964","12","06","18:00","-11.1","","-14.4","","75","","27","","10","","40.2","","100.32","","","","-17","","Mainly Clear"
"1964-12-06 19:00","1964","12","06","19:00","-11.7","","-15.0","","77","","27","","6","","40.2","","100.34","","","","-15","","Clear"
"1964-12-06 20:00","1964","12","06","20:00","-12.2","","-16.1","","73","","27","","10","","25.0","","100.34","","","","-18","","Clear"
"1964-12-06 21:00","1964","12","06","21:00","-12.8","","-16.1","","76","","27","","5","","25.0","","100.34","","","","-16","","Clear"
"1964-12-06 22:00","1964","12","06","22:00","-13.3","","-16.1","","78","","25","","11","","25.0","","100.35","","","","-20","","Clear"
"1964-12-06 23:00","1964","12","06","23:00","-12.8","","-15.6","","81","","25","","6","","25.0","","100.32","","","","-17","","Mostly Cloudy"
"1964-12-07 00:00","1964","12","07","00:00","-12.2","","-14.4","","85","","25","","5","","25.0","","100.26","","","","-15","","Snow"
"1964-12-07 01:00","1964","12","07","01:00","-11.1","","-13.3","","83","","","","0","","16.1","","100.20","","","","","","Snow"
"1964-12-07 02:00","1964","12","07","02:00","-10.6","","-12.8","","82","","","","0","","24.1","","100.18","","","","","","Mostly Cloudy"
"1964-12-07 03:00","1964","12","07","03:00","-11.1","","-13.3","","85","","27","","3","","16.1","","100.17","","","","-13","","Mostly Cloudy"
"1964-12-07 04:00","1964","12","07","04:00","-12.2","","-14.4","","85","","27","","3","","19.3","","100.11","","","","-14","","Mainly Clear"
"1964-12-07 05:00","1964","12","07","05:00","-12.2","","-14.4","","85","","27","","10","","19.3","","100.10","","","","-18","","Mostly Cloudy"
"1964-12-07 06:00","1964","12","07","06:00","-10.0","","-12.8","","78","","23","","10","","16.1","","100.11","","","","-15","","Cloudy"
"1964-12-07 07:00","1964","12","07","07:00","-9.4","","-11.7","","84","","20","","13","","16.1","","100.06","","","","-15","","Snow Showers"
"1964-12-07 08:00","1964","12","07","08:00","-8.9","","-12.2","","77","","20","","11","","11.3","","100.05","","","","-14","","Mostly Cloudy"
"1964-12-07 09:00","1964","12","07","09:00","-7.8","","-11.7","","75","","20","","3","","16.1","","100.02","","","","-9","","Mostly Cloudy"
"1964-12-07 10:00","1964","12","07","10:00","-6.7","","-10.6","","74","","25","","10","","16.1","","99.98","","","","-11","","Mostly Cloudy"
"1964-12-07 11:00","1964","12","07","11:00","-5.6","","-10.6","","69","","25","","10","","16.1","","99.90","","","","-10","","Mostly Cloudy"
"1964-12-07 12:00","1964","12","07","12:00","-3.9","","-9.4","","66","","23","","16","","24.1","","99.79","","","","-9","","Mostly Cloudy"
"1964-12-07 13:00","1964","12","07","13:00","-3.9","","-8.9","","69","","23","","19","","32.2","","99.70","","","","-10","","Cloudy"
"1964-12-07 14:00","1964","12","07","14:00","-3.9","","-6.7","","79","","23","","29","","32.2","","99.62","","","","-11","","Cloudy"
"1964-12-07 15:00","1964","12","07","15:00","-3.9","","-7.8","","76","","20","","24","","32.2","","99.57","","","","-11","","Cloudy"
"1964-12-07 16:00","1964","12","07","16:00","-3.9","","-7.2","","78","","20","","19","","24.1","","99.56","","","","-10","","Cloudy"
"1964-12-07 17:00","1964","12","07","17:00","-3.9","","-6.1","","85","","20","","14","","6.4","","99.55","","","","-9","","Snow"
"1964-12-07 18:00","1964","12","07","18:00","-4.4","","-6.1","","90","","18","","8","","4.0","","99.52","","","","-8","","Snow"
"1964-12-07 19:00","1964","12","07","19:00","-5.0","","-6.1","","90","","18","","11","","8.0","","99.49","","","","-10","","Snow"
"1964-12-07 20:00","1964","12","07","20:00","-4.4","","-5.6","","91","","18","","11","","11.3","","99.44","","","","-9","","Snow"
"1964-12-07 21:00","1964","12","07","21:00","-4.4","","-5.6","","91","","18","","11","","6.4","","99.40","","","","-9","","Snow"
"1964-12-07 22:00","1964","12","07","22:00","-4.4","","-6.1","","90","","18","","11","","9.7","","99.36","","","","-9","","Snow"
"1964-12-07 23:00","1964","12","07","23:00","-4.4","","-6.1","","89","","20","","10","","9.7","","99.33","","","","-9","","Snow"
"1964-12-08 00:00","1964","12","08","00:00","-4.4","","-6.1","","88","","20","","11","","6.4","","99.28","","","","-9","","Snow"
"1964-12-08 01:00","1964","12","08","01:00","-4.4","","-6.1","","90","","16","","8","","11.3","","99.19","","","","-8","","Snow"
"1964-12-08 02:00","1964","12","08","02:00","-4.4","","-6.1","","88","","18","","8","","9.7","","99.18","","","","-8","","Snow,Fog"
"1964-12-08 03:00","1964","12","08","03:00","-5.0","","-6.1","","90","","18","","10","","9.7","","99.16","","","","-9","","Fog"
"1964-12-08 04:00","1964","12","08","04:00","-5.0","","-6.1","","90","","20","","10","","11.3","","99.12","","","","-9","","Cloudy"
"1964-12-08 05:00","1964","12","08","05:00","-4.4","","-6.1","","88","","23","","10","","11.3","","99.11","","","","-9","","Snow"
"1964-12-08 06:00","1964","12","08","06:00","-4.4","","-6.1","","90","","25","","13","","11.3","","99.12","","","","-9","","Cloudy"
"1964-12-08 07:00","1964","12","08","07:00","-3.9","","-5.6","","88","","25","","10","","9.7","","99.17","","","","-8","","Fog"
"1964-12-08 08:00","1964","12","08","08:00","-3.9","","-5.6","","88","","25","","10","","6.4","","99.21","","","","-8","","Fog"
"1964-12-08 09:00","1964","12","08","09:00","-5.6","","-8.9","","79","","27","","10","","16.1","","99.23","","","","-10","","Mainly Clear"
"1964-12-08 10:00","1964","12","08","10:00","-3.9","","-7.2","","77","","27","","13","","24.1","","99.26","","","","-9","","Mainly Clear"
"1964-12-08 11:00","1964","12","08","11:00","-2.8","","-7.2","","72","","27","","21","","32.2","","99.27","","","","-9","","Mainly Clear"
"1964-12-08 12:00","1964","12","08","12:00","-2.2","","-6.1","","74","","27","","24","","32.2","","99.23","","","","-9","","Mainly Clear"
"1964-12-08 13:00","1964","12","08","13:00","-1.7","","-6.1","","73","","27","","19","","32.2","","99.20","","","","-7","","Mainly Clear"
"1964-12-08 14:00","1964","12","08","14:00","-1.7","","-5.6","","75","","29","","19","","32.2","","99.20","","","","-7","","Mainly Clear"
"1964-12-08 15:00","1964","12","08","15:00","-2.2","","-3.9","","87","","29","","16","","32.2","","99.25","","","","-7","","Mainly Clear"
"1964-12-08 16:00","1964","12","08","16:00","-2.8","","-5.0","","83","","27","","13","","32.2","","99.31","","","","-7","","Mainly Clear"
"1964-12-08 17:00","1964","12","08","17:00","-5.6","","-7.2","","87","","29","","10","","32.2","","99.38","","","","-10","","Mainly Clear"
"1964-12-08 18:00","1964","12","08","18:00","-7.2","","-9.4","","83","","27","","13","","32.2","","99.44","","","","-13","","Mainly Clear"
"1964-12-08 19:00","1964","12","08","19:00","-8.3","","-10.0","","87","","27","","11","","25.0","","99.50","","","","-14","","Clear"
"1964-12-08 20:00","1964","12","08","20:00","-9.4","","-11.7","","85","","29","","11","","25.0","","99.58","","","","-15","","Clear"
"1964-12-08 21:00","1964","12","08","21:00","-8.9","","-10.6","","86","","27","","8","","25.0","","99.62","","","","-13","","Mainly Clear"
"1964-12-08 22:00","1964","12","08","22:00","-9.4","","-11.1","","88","","29","","6","","24.1","","99.68","","","","-13","","Mainly Clear"
"1964-12-08 23:00","1964","12","08","23:00","-8.9","","-11.7","","81","","29","","8","","24.1","","99.72","","","","-13","","Mainly Clear"
"1964-12-09 00:00","1964","12","09","00:00","-12.8","","-14.4","","86","","29","","10","","24.1","","99.80","","","","-19","","Mainly Clear"
"1964-12-09 01:00","1964","12","09","01:00","-13.3","","-15.6","","84","","29","","11","","24.1","","99.80","","","","-20","","Mainly Clear"
"1964-12-09 02:00","1964","12","09","02:00","-12.2","","-15.0","","80","","32","","8","","25.0","","99.86","","","","-17","","Clear"
"1964-12-09 03:00","1964","12","09","03:00","-11.1","","-13.3","","83","","34","","5","","25.0","","99.93","","","","-14","","Mainly Clear"
"1964-12-09 04:00","1964","12","09","04:00","-9.4","","-12.8","","78","","34","","6","","25.0","","99.96","","","","-13","","Mostly Cloudy"
"1964-12-09 05:00","1964","12","09","05:00","-10.0","","-12.8","","80","","29","","6","","25.0","","100.05","","","","-14","","Mostly Cloudy"
"1964-12-09 06:00","1964","12","09","06:00","-10.6","","-13.3","","79","","29","","5","","25.0","","100.12","","","","-14","","Mainly Clear"
"1964-12-09 07:00","1964","12","09","07:00","-11.1","","-13.9","","80","","29","","6","","25.0","","100.22","","","","-15","","Mostly Cloudy"
"1964-12-09 08:00","1964","12","09","08:00","-8.9","","-11.7","","79","","27","","6","","9.7","","100.32","","","","-12","","Haze"
"1964-12-09 09:00","1964","12","09","09:00","-7.2","","-10.0","","81","","32","","3","","9.7","","100.39","","","","-9","","Haze"
"1964-12-09 10:00","1964","12","09","10:00","-5.0","","-8.3","","79","","9","","3","","9.7","","100.44","","","","-6","","Haze"
"1964-12-09 11:00","1964","12","09","11:00","-2.8","","-7.2","","72","","","","0","","9.7","","100.51","","","","","","Haze"
"1964-12-09 12:00","1964","12","09","12:00","-2.8","","-6.7","","75","","16","","3","","9.7","","100.51","","","","-4","","Haze"
"1964-12-09 13:00","1964","12","09","13:00","-1.7","","-5.0","","78","","18","","6","","12.9","","100.49","","","","-4","","Mostly Cloudy"
"1964-12-09 14:00","1964","12","09","14:00","-1.1","","-5.6","","72","","20","","5","","19.3","","100.50","","","","-3","","Mostly Cloudy"
"1964-12-09 15:00","1964","12","09","15:00","-1.1","","-5.6","","73","","14","","3","","19.3","","100.52","","","","-2","","Mostly Cloudy"
"1964-12-09 16:00","1964","12","09","16:00","-1.1","","-5.0","","76","","18","","6","","19.3","","100.57","","","","-3","","Mostly Cloudy"
"1964-12-09 17:00","1964","12","09","17:00","-1.7","","-5.0","","77","","18","","6","","16.1","","100.64","","","","-4","","Mostly Cloudy"
"1964-12-09 18:00","1964","12","09","18:00","-1.7","","-6.1","","71","","16","","5","","19.3","","100.69","","","","-4","","Mostly Cloudy"
"1964-12-09 19:00","1964","12","09","19:00","-2.8","","-6.7","","75","","20","","10","","24.1","","100.72","","","","-7","","Mainly Clear"
"1964-12-09 20:00","1964","12","09","20:00","-5.0","","-10.0","","69","","25","","6","","24.1","","100.74","","","","-8","","Mainly Clear"
"1964-12-09 21:00","1964","12","09","21:00","-7.8","","-10.0","","83","","27","","5","","24.1","","100.77","","","","-10","","Clear"
"1964-12-09 22:00","1964","12","09","22:00","-9.4","","-11.1","","87","","27","","3","","24.1","","100.80","","","","-11","","Mainly Clear"
"1964-12-09 23:00","1964","12","09","23:00","-10.6","","-12.2","","89","","34","","3","","24.1","","100.83","","","","-12","","Mainly Clear"
"1964-12-10 00:00","1964","12","10","00:00","-9.4","","-11.7","","84","","7","","6","","16.1","","100.80","","","","-13","","Mainly Clear"
"1964-12-10 01:00","1964","12","10","01:00","-13.9","","-17.2","","78","","32","","6","","16.1","","100.80","","","","-18","","Mainly Clear"
"1964-12-10 02:00","1964","12","10","02:00","-13.9","","-16.1","","83","","32","","6","","8.0","","100.85","","","","-18","","Fog"
"1964-12-10 03:00","1964","12","10","03:00","-10.6","","-12.8","","82","","36","","6","","8.0","","100.79","","","","-14","","Fog"
"1964-12-10 04:00","1964","12","10","04:00","-12.8","","-15.0","","85","","29","","5","","8.0","","100.81","","","","-16","","Fog"
"1964-12-10 05:00","1964","12","10","05:00","-12.8","","-15.0","","83","","32","","3","","6.4","","100.85","","","","-15","","Fog"
"1964-12-10 06:00","1964","12","10","06:00","-13.3","","-15.6","","82","","29","","3","","4.8","","100.88","","","","-15","","Fog"
"1964-12-10 07:00","1964","12","10","07:00","-12.2","","-14.4","","83","","29","","6","","6.4","","100.90","","","","-16","","Fog"
"1964-12-10 08:00","1964","12","10","08:00","-12.8","","-15.0","","85","","34","","5","","4.0","","100.92","","","","-16","","Fog"
"1964-12-10 09:00","1964","12","10","09:00","-12.2","","-13.9","","87","","27","","5","","2.4","","100.96","","","","-15","","Fog"
"1964-12-10 10:00","1964","12","10","10:00","-9.4","","-11.1","","87","","","","0","","2.4","","100.99","","","","","","Fog"
"1964-12-10 11:00","1964","12","10","11:00","-2.2","","-5.0","","82","","20","","3","","3.2","","100.93","","","","-3","","Haze"
"1964-12-10 12:00","1964","12","10","12:00","-0.6","","-3.3","","82","","20","","11","","4.8","","100.86","","","","-4","","Haze"
"1964-12-10 13:00","1964","12","10","13:00","0.0","","-3.3","","77","","18","","6","","4.8","","100.74","","","","-2","","Haze"
"1964-12-10 14:00","1964","12","10","14:00","1.7","","-2.8","","73","","18","","6","","4.8","","100.71","","","","","","Haze"
"1964-12-10 15:00","1964","12","10","15:00","0.6","","-2.2","","81","","14","","10","","2.8","","100.69","","","","","","Haze"
"1964-12-10 16:00","1964","12","10","16:00","0.0","","-2.8","","83","","16","","10","","3.2","","100.76","","","","-3","","Haze"
"1964-12-10 17:00","1964","12","10","17:00","-1.1","","-2.8","","89","","11","","6","","3.2","","100.63","","","","-3","","Fog,Haze"
"1964-12-10 18:00","1964","12","10","18:00","-2.2","","-3.3","","93","","14","","10","","3.2","","100.68","","","","-6","","Fog"
"1964-12-10 19:00","1964","12","10","19:00","-0.6","","-1.7","","91","","14","","8","","4.0","","100.63","","","","-3","","Fog"
"1964-12-10 20:00","1964","12","10","20:00","-1.1","","-2.8","","89","","16","","10","","4.0","","100.58","","","","-5","","Fog"
"1964-12-10 21:00","1964","12","10","21:00","-1.1","","-2.2","","91","","","","0","","3.2","","100.53","","","","","","Fog"
"1964-12-10 22:00","1964","12","10","22:00","-4.4","","-5.6","","92","","","","0","","1.6","","100.45","","","","","","Fog"
"1964-12-10 23:00","1964","12","10","23:00","-3.3","","-4.4","","92","","","","0","","2.4","","100.36","","","","","","Fog"
"1964-12-11 00:00","1964","12","11","00:00","-3.9","","-5.0","","92","","","","0","","2.4","","100.30","","","","","","Fog"
"1964-12-11 01:00","1964","12","11","01:00","-3.3","","-4.4","","93","","11","","6","","3.2","","100.14","","","","-6","","Fog"
"1964-12-11 02:00","1964","12","11","02:00","-1.7","","-3.3","","90","","14","","5","","3.6","","100.09","","","","-4","","Fog"
"1964-12-11 03:00","1964","12","11","03:00","-1.7","","-2.8","","93","","","","0","","3.6","","100.13","","","","","","Fog"
"1964-12-11 04:00","1964","12","11","04:00","-1.1","","-2.2","","94","","11","","6","","4.0","","99.99","","","","-3","","Fog"
"1964-12-11 05:00","1964","12","11","05:00","1.1","","-0.6","","89","","14","","10","","4.8","","99.90","","","","","","Rain Showers,Fog"
"1964-12-11 06:00","1964","12","11","06:00","1.7","","0.6","","92","","14","","13","","6.4","","99.79","","","","","","Rain,Fog"
"1964-12-11 07:00","1964","12","11","07:00","1.7","","1.1","","94","","14","","13","","4.8","","99.72","","","","","","Rain,Fog"
"1964-12-11 08:00","1964","12","11","08:00","1.7","","1.1","","97","","11","","11","","2.0","","99.62","","","","","","Rain,Fog"
"1964-12-11 09:00","1964","12","11","09:00","1.7","","1.1","","97","","14","","14","","2.0","","99.54","","","","","","Rain,Fog"
"1964-12-11 10:00","1964","12","11","10:00","1.7","","1.1","","97","","14","","13","","1.6","","99.52","","","","","","Rain,Fog"
"1964-12-11 11:00","1964","12","11","11:00","1.7","","1.7","","100","","14","","13","","0.6","","99.42","","","","","","Rain,Fog"
"1964-12-11 12:00","1964","12","11","12:00","2.2","","2.2","","100","","16","","13","","0.2","","99.25","","","","","","Rain,Fog"
"1964-12-11 13:00","1964","12","11","13:00","2.8","","2.8","","100","","16","","11","","0.2","","99.13","","","","","","Rain,Fog"
"1964-12-11 14:00","1964","12","11","14:00","4.4","","4.4","","100","","18","","18","","1.6","","99.01","","","","","","Rain,Fog"
"1964-12-11 15:00","1964","12","11","15:00","5.0","","5.0","","100","","18","","19","","2.4","","98.93","","","","","","Rain,Drizzle,Fog"
"1964-12-11 16:00","1964","12","11","16:00","5.6","","5.6","","100","","18","","21","","2.0","","98.94","","","","","","Rain,Drizzle,Fog"
"1964-12-11 17:00","1964","12","11","17:00","5.6","","5.0","","98","","20","","19","","3.2","","98.91","","","","","","Drizzle,Fog"
"1964-12-11 18:00","1964","12","11","18:00","5.6","","5.0","","98","","20","","21","","6.4","","98.86","","","","","","Rain,Fog"
"1964-12-11 19:00","1964","12","11","19:00","5.6","","5.0","","98","","20","","23","","4.8","","98.88","","","","","","Rain,Fog"
"1964-12-11 20:00","1964","12","11","20:00","5.6","","5.0","","98","","23","","24","","8.0","","98.90","","","","","","Rain,Fog"
"1964-12-11 21:00","1964","12","11","21:00","5.6","","5.0","","98","","23","","19","","8.0","","98.93","","","","","","Rain,Fog"
"1964-12-11 22:00","1964","12","11","22:00","5.0","","4.4","","98","","23","","13","","9.7","","98.97","","","","","","Fog"
"1964-12-11 23:00","1964","12","11","23:00","5.6","","4.4","","93","","25","","23","","9.7","","98.95","","","","","","Fog"
"1964-12-12 00:00","1964","12","12","00:00","5.0","","3.9","","93","","34","","13","","9.7","","99.08","","","","","","Fog"
"1964-12-12 01:00","1964","12","12","01:00","4.4","","2.8","","90","","27","","16","","12.9","","99.09","","","","","","Cloudy"
"1964-12-12 02:00","1964","12","12","02:00","4.4","","2.8","","90","","27","","16","","11.3","","99.18","","","","","","Cloudy"
"1964-12-12 03:00","1964","12","12","03:00","3.9","","2.2","","90","","27","","19","","11.3","","99.25","","","","","","Cloudy"
"1964-12-12 04:00","1964","12","12","04:00","2.8","","1.1","","90","","27","","8","","12.9","","99.32","","","","","","Cloudy"
"1964-12-12 05:00","1964","12","12","05:00","2.2","","0.6","","89","","27","","10","","12.9","","99.31","","","","","","Mostly Cloudy"
"1964-12-12 06:00","1964","12","12","06:00","1.7","","0.0","","89","","27","","6","","12.9","","99.30","","","","","","Mostly Cloudy"
"1964-12-12 07:00","1964","12","12","07:00","1.7","","0.0","","89","","23","","6","","11.3","","99.36","","","","","","Mostly Cloudy"
"1964-12-12 08:00","1964","12","12","08:00","1.7","","-0.6","","86","","27","","6","","11.3","","99.40","","","","","","Mostly Cloudy"
"1964-12-12 09:00","1964","12","12","09:00","1.7","","-0.6","","84","","27","","8","","12.9","","99.49","","","","","","Mostly Cloudy"
"1964-12-12 10:00","1964","12","12","10:00","2.2","","0.0","","84","","25","","5","","14.5","","99.52","","","","","","Mostly Cloudy"
"1964-12-12 11:00","1964","12","12","11:00","2.2","","0.0","","84","","23","","5","","11.3","","99.54","","","","","","Cloudy"
"1964-12-12 12:00","1964","12","12","12:00","2.2","","0.0","","84","","20","","10","","11.3","","99.47","","","","","","Mostly Cloudy"
"1964-12-12 13:00","1964","12","12","13:00","2.2","","0.0","","84","","18","","14","","9.7","","99.42","","","","","","Haze"
"1964-12-12 14:00","1964","12","12","14:00","2.2","","0.0","","87","","20","","14","","9.7","","99.36","","","","","","Haze"
"1964-12-12 15:00","1964","12","12","15:00","1.7","","0.0","","89","","20","","14","","8.0","","99.41","","","","","","Fog"
"1964-12-12 16:00","1964","12","12","16:00","1.7","","1.1","","94","","25","","10","","6.4","","99.45","","","","","","Fog"
"1964-12-12 17:00","1964","12","12","17:00","2.2","","1.1","","92","","","","0","","4.8","","99.49","","","","","","Fog"
"1964-12-12 18:00","1964","12","12","18:00","2.2","","1.7","","95","","14","","6","","4.8","","99.50","","","","","","Drizzle,Fog"
"1964-12-12 19:00","1964","12","12","19:00","2.8","","2.2","","97","","20","","8","","2.4","","99.52","","","","","","Drizzle,Fog"
"1964-12-12 20:00","1964","12","12","20:00","2.8","","2.2","","95","","20","","3","","8.0","","99.48","","","","","","Fog"
"1964-12-12 21:00","1964","12","12","21:00","3.3","","2.8","","95","","18","","10","","8.0","","99.51","","","","","","Fog"
"1964-12-12 22:00","1964","12","12","22:00","3.3","","2.8","","95","","18","","10","","6.4","","99.49","","","","","","Fog"
"1964-12-12 23:00","1964","12","12","23:00","2.2","","1.7","","97","","18","","6","","6.4","","99.44","","","","","","Fog"
"1964-12-13 00:00","1964","12","13","00:00","1.7","","1.7","","100","","20","","3","","4.0","","99.40","","","","","","Fog"
"1964-12-13 01:00","1964","12","13","01:00","1.1","","1.1","","100","","","","0","","0.2","","99.34","","","","","","Fog"
"1964-12-13 02:00","1964","12","13","02:00","1.1","","1.1","","100","","","","0","","0.2","","99.29","","","","","","Fog"
"1964-12-13 03:00","1964","12","13","03:00","1.7","","1.7","","100","","9","","6","","1.2","","99.28","","","","","","Fog"
"1964-12-13 04:00","1964","12","13","04:00","1.7","","1.7","","100","","9","","10","","1.2","","99.14","","","","","","Fog"
"1964-12-13 05:00","1964","12","13","05:00","2.2","","2.2","","100","","11","","6","","0.2","","99.07","","","","","","Fog"
"1964-12-13 06:00","1964","12","13","06:00","1.7","","1.7","","100","","2","","3","","0.2","","99.02","","","","","","Fog"
"1964-12-13 07:00","1964","12","13","07:00","1.7","","1.7","","100","","2","","5","","0.2","","98.91","","","","","","Fog"
"1964-12-13 08:00","1964","12","13","08:00","2.2","","2.2","","100","","2","","11","","0.2","","98.75","","","","","","Fog"
"1964-12-13 09:00","1964","12","13","09:00","3.9","","3.9","","100","","14","","10","","0.6","","98.68","","","","","","Fog"
"1964-12-13 10:00","1964","12","13","10:00","5.6","","5.0","","98","","18","","11","","2.0","","98.63","","","","","","Fog"
"1964-12-13 11:00","1964","12","13","11:00","6.1","","5.6","","95","","18","","16","","2.8","","98.55","","","","","","Fog"
"1964-12-13 12:00","1964","12","13","12:00","7.2","","5.6","","89","","20","","19","","4.8","","98.39","","","","","","Rain,Fog"
"1964-12-13 13:00","1964","12","13","13:00","7.2","","6.1","","91","","20","","27","","4.8","","98.29","","","","","","Rain,Fog"
"1964-12-13 14:00","1964","12","13","14:00","7.2","","6.1","","93","","23","","26","","4.8","","98.28","","","","","","Rain,Fog"
"1964-12-13 15:00","1964","12","13","15:00","4.4","","2.8","","88","","27","","32","","24.1","","98.40","","","","","","Rain"
"1964-12-13 16:00","1964","12","13","16:00","3.3","","1.1","","85","","27","","27","","25.0","","98.51","","","","","","Cloudy"
"1964-12-13 17:00","1964","12","13","17:00","2.8","","0.0","","82","","27","","24","","25.0","","98.66","","","","","","Cloudy"
"1964-12-13 18:00","1964","12","13","18:00","2.2","","-0.6","","81","","27","","23","","25.0","","98.79","","","","","","Cloudy"
"1964-12-13 19:00","1964","12","13","19:00","1.7","","-2.8","","73","","27","","32","","25.0","","98.93","","","","","","Mostly Cloudy"
"1964-12-13 20:00","1964","12","13","20:00","1.1","","-4.4","","66","","27","","29","","25.0","","99.03","","","","","","Clear"
"1964-12-13 21:00","1964","12","13","21:00","0.0","","-5.0","","69","","27","","31","","25.0","","99.10","","","","-7","","Clear"
"1964-12-13 22:00","1964","12","13","22:00","-0.6","","-5.6","","67","","27","","29","","25.0","","99.18","","","","-7","","Clear"
"1964-12-13 23:00","1964","12","13","23:00","-1.1","","-5.0","","76","","25","","21","","25.0","","99.27","","","","-7","","Mainly Clear"
"1964-12-14 00:00","1964","12","14","00:00","-1.1","","-5.0","","74","","27","","23","","25.0","","99.32","","","","-7","","Clear"
"1964-12-14 01:00","1964","12","14","01:00","-1.7","","-5.6","","74","","27","","13","","25.0","","99.36","","","","-6","","Mainly Clear"
"1964-12-14 02:00","1964","12","14","02:00","-2.2","","-6.1","","75","","25","","16","","25.0","","99.38","","","","-7","","Clear"
"1964-12-14 03:00","1964","12","14","03:00","-3.3","","-7.2","","74","","23","","14","","25.0","","99.36","","","","-8","","Clear"
"1964-12-14 04:00","1964","12","14","04:00","-3.3","","-6.1","","80","","20","","13","","25.0","","99.31","","","","-8","","Clear"
"1964-12-14 05:00","1964","12","14","05:00","-3.9","","-6.1","","84","","20","","16","","14.5","","99.26","","","","-9","","Clear"
"1964-12-14 06:00","1964","12","14","06:00","-3.9","","-6.1","","85","","18","","14","","14.5","","99.17","","","","-9","","Clear"
"1964-12-14 07:00","1964","12","14","07:00","-3.3","","-6.1","","80","","20","","19","","25.0","","99.09","","","","-9","","Mainly Clear"
"1964-12-14 08:00","1964","12","14","08:00","-2.2","","-5.6","","79","","20","","19","","19.3","","99.03","","","","-8","","Mainly Clear"
"1964-12-14 09:00","1964","12","14","09:00","-0.6","","-2.8","","85","","20","","29","","19.3","","98.98","","","","-7","","Mainly Clear"
"1964-12-14 10:00","1964","12","14","10:00","0.6","","-2.2","","81","","20","","32","","6.4","","98.92","","","","","","Snow Showers"
"1964-12-14 11:00","1964","12","14","11:00","1.1","","-1.7","","82","","20","","32","","2.0","","98.85","","","","","","Snow Showers"
"1964-12-14 12:00","1964","12","14","12:00","-0.6","","-1.7","","91","","23","","32","","1.6","","98.76","","","","-7","","Snow Showers"
"1964-12-14 13:00","1964","12","14","13:00","0.6","","-4.4","","70","","25","","45","","6.4","","98.65","","","","","","Snow Showers"
"1964-12-14 14:00","1964","12","14","14:00","0.6","","-2.2","","81","","25","","32","","0.8","","98.60","","","","","","Moderate Snow Showers"
"1964-12-14 15:00","1964","12","14","15:00","-1.7","","-4.4","","82","","27","","32","","19.3","","98.70","","","","-9","","Mainly Clear"
"1964-12-14 16:00","1964","12","14","16:00","-2.8","","-6.1","","79","","27","","35","","19.3","","98.83","","","","-11","","Mainly Clear"
"1964-12-14 17:00","1964","12","14","17:00","-3.9","","-7.8","","76","","27","","29","","32.2","","98.86","","","","-11","","Mainly Clear"
"1964-12-14 18:00","1964","12","14","18:00","-4.4","","-10.6","","64","","27","","32","","25.0","","98.96","","","","-12","","Mainly Clear"
"1964-12-14 19:00","1964","12","14","19:00","-5.6","","-10.6","","67","","27","","27","","25.0","","99.02","","","","-13","","Mainly Clear"
"1964-12-14 20:00","1964","12","14","20:00","-6.1","","-10.0","","74","","27","","29","","25.0","","99.11","","","","-14","","Clear"
"1964-12-14 21:00","1964","12","14","21:00","-6.7","","-10.6","","74","","27","","29","","25.0","","99.15","","","","-15","","Mainly Clear"
"1964-12-14 22:00","1964","12","14","22:00","-7.2","","-11.7","","72","","27","","26","","25.0","","99.20","","","","-15","","Clear"
"1964-12-14 23:00","1964","12","14","23:00","-7.2","","-11.7","","72","","25","","26","","25.0","","99.25","","","","-15","","Mainly Clear"
"1964-12-15 00:00","1964","12","15","00:00","-7.2","","-11.7","","72","","25","","29","","25.0","","99.22","","","","-16","","Mainly Clear"
"1964-12-15 01:00","1964","12","15","01:00","-7.2","","-11.1","","73","","27","","27","","25.0","","99.27","","","","-15","","Mainly Clear"
"1964-12-15 02:00","1964","12","15","02:00","-7.2","","-11.1","","75","","25","","24","","25.0","","99.31","","","","-15","","Mainly Clear"
"1964-12-15 03:00","1964","12","15","03:00","-7.2","","-10.6","","79","","27","","40","","25.0","","99.31","","","","-17","","Clear"
"1964-12-15 04:00","1964","12","15","04:00","-7.2","","-10.6","","77","","27","","32","","25.0","","99.38","","","","-16","","Clear"
"1964-12-15 05:00","1964","12","15","05:00","-7.2","","-10.0","","80","","27","","27","","25.0","","99.44","","","","-15","","Clear"
"1964-12-15 06:00","1964","12","15","06:00","-7.2","","-10.0","","80","","27","","27","","16.1","","99.55","","","","-15","","Snow Showers"
"1964-12-15 07:00","1964","12","15","07:00","-7.2","","-10.0","","80","","27","","24","","16.1","","99.64","","","","-15","","Snow Showers"
"1964-12-15 08:00","1964","12","15","08:00","-7.2","","-11.1","","73","","29","","24","","32.2","","99.79","","","","-15","","Mainly Clear"
"1964-12-15 09:00","1964","12","15","09:00","-6.7","","-11.1","","72","","29","","27","","32.2","","99.95","","","","-15","","Mainly Clear"
"1964-12-15 10:00","1964","12","15","10:00","-5.6","","-9.4","","73","","29","","27","","32.2","","100.08","","","","-13","","Mainly Clear"
"1964-12-15 11:00","1964","12","15","11:00","-5.6","","-9.4","","74","","29","","32","","40.2","","100.14","","","","-14","","Mainly Clear"
"1964-12-15 12:00","1964","12","15","12:00","-6.1","","-9.4","","77","","34","","18","","40.2","","100.21","","","","-13","","Mainly Clear"
"1964-12-15 13:00","1964","12","15","13:00","-5.0","","-8.3","","76","","29","","32","","40.2","","100.24","","","","-13","","Mainly Clear"
"1964-12-15 14:00","1964","12","15","14:00","-5.0","","-7.8","","81","","32","","29","","40.2","","100.30","","","","-13","","Mainly Clear"
"1964-12-15 15:00","1964","12","15","15:00","-5.0","","-8.3","","79","","29","","24","","40.2","","100.36","","","","-12","","Mainly Clear"
"1964-12-15 16:00","1964","12","15","16:00","-5.0","","-8.3","","76","","29","","19","","40.2","","100.40","","","","-11","","Mainly Clear"
"1964-12-15 17:00","1964","12","15","17:00","-6.7","","-10.0","","77","","27","","11","","40.2","","100.44","","","","-12","","Mainly Clear"
"1964-12-15 18:00","1964","12","15","18:00","-8.3","","-11.1","","79","","27","","8","","40.2","","100.46","","","","-12","","Mainly Clear"
"1964-12-15 19:00","1964","12","15","19:00","-8.3","","-11.7","","77","","25","","6","","40.2","","100.47","","","","-12","","Mostly Cloudy"
"1964-12-15 20:00","1964","12","15","20:00","-8.3","","-11.7","","75","","5","","3","","40.2","","100.45","","","","-10","","Mainly Clear"
"1964-12-15 21:00","1964","12","15","21:00","-7.8","","-10.0","","83","","","","0","","40.2","","100.43","","","","","","Mainly Clear"
"1964-12-15 22:00","1964","12","15","22:00","-8.9","","-11.1","","83","","20","","3","","40.2","","100.40","","","","-11","","Mostly Cloudy"
"1964-12-15 23:00","1964","12","15","23:00","-10.0","","-11.7","","86","","27","","3","","40.2","","100.46","","","","-12","","Mainly Clear"
"1964-12-16 00:00","1964","12","16","00:00","-9.4","","-11.7","","85","","23","","3","","32.2","","100.48","","","","-11","","Mostly Cloudy"
"1964-12-16 01:00","1964","12","16","01:00","-8.3","","-10.6","","84","","","","0","","25.0","","100.37","","","","","","Cloudy"
"1964-12-16 02:00","1964","12","16","02:00","-7.2","","-8.9","","87","","5","","5","","25.0","","100.38","","","","-10","","Cloudy"
"1964-12-16 03:00","1964","12","16","03:00","-7.2","","-8.9","","87","","11","","10","","25.0","","100.38","","","","-12","","Cloudy"
"1964-12-16 04:00","1964","12","16","04:00","-6.1","","-8.3","","83","","9","","10","","11.3","","100.22","","","","-11","","Snow"
"1964-12-16 05:00","1964","12","16","05:00","-3.9","","-6.7","","83","","16","","16","","14.5","","100.12","","","","-9","","Cloudy"
"1964-12-16 06:00","1964","12","16","06:00","-3.9","","-7.8","","76","","16","","19","","19.3","","100.00","","","","-10","","Cloudy"
"1964-12-16 07:00","1964","12","16","07:00","-3.9","","-7.2","","78","","16","","26","","25.0","","99.93","","","","-11","","Mostly Cloudy"
"1964-12-16 08:00","1964","12","16","08:00","-3.9","","-6.7","","80","","14","","24","","12.9","","99.79","","","","-11","","Mostly Cloudy"
"1964-12-16 09:00","1964","12","16","09:00","-3.9","","-6.7","","82","","14","","31","","12.9","","99.61","","","","-12","","Mostly Cloudy"
"1964-12-16 10:00","1964","12","16","10:00","-3.3","","-6.1","","82","","14","","29","","19.3","","99.52","","","","-11","","Mostly Cloudy"
"1964-12-16 11:00","1964","12","16","11:00","-2.2","","-6.1","","76","","14","","24","","19.3","","99.37","","","","-9","","Mainly Clear"
"1964-12-16 12:00","1964","12","16","12:00","-1.1","","-4.4","","79","","14","","24","","19.3","","99.22","","","","-7","","Mainly Clear"
"1964-12-16 13:00","1964","12","16","13:00","0.0","","-2.8","","83","","14","","23","","19.3","","99.05","","","","-6","","Mainly Clear"
"1964-12-16 14:00","1964","12","16","14:00","2.8","","-2.2","","69","","18","","16","","24.1","","98.91","","","","","","Mostly Cloudy"
"1964-12-16 15:00","1964","12","16","15:00","3.3","","-3.3","","63","","20","","29","","19.3","","98.91","","","","","","Mostly Cloudy"
"1964-12-16 16:00","1964","12","16","16:00","3.3","","-3.9","","60","","20","","26","","16.1","","98.93","","","","","","Mostly Cloudy"
"1964-12-16 17:00","1964","12","16","17:00","3.3","","-2.8","","65","","20","","23","","16.1","","98.95","","","","","","Cloudy"
"1964-12-16 18:00","1964","12","16","18:00","2.8","","-1.7","","72","","23","","16","","24.1","","98.95","","","","","","Mostly Cloudy"
"1964-12-16 19:00","1964","12","16","19:00","2.8","","-1.7","","72","","20","","16","","24.1","","98.98","","","","","","Mostly Cloudy"
"1964-12-16 20:00","1964","12","16","20:00","2.2","","0.0","","84","","18","","18","","24.1","","98.99","","","","","","Mostly Cloudy"
"1964-12-16 21:00","1964","12","16","21:00","2.2","","-1.7","","76","","18","","16","","24.1","","98.95","","","","","","Clear"
"1964-12-16 22:00","1964","12","16","22:00","2.2","","-2.2","","74","","20","","19","","24.1","","98.94","","","","","","Clear"
"1964-12-16 23:00","1964","12","16","23:00","1.7","","-2.8","","73","","20","","19","","24.1","","98.92","","","","","","Clear"
"1964-12-17 00:00","1964","12","17","00:00","1.7","","-2.8","","73","","18","","14","","24.1","","98.91","","","","","","Mainly Clear"
"1964-12-17 01:00","1964","12","17","01:00","2.2","","-2.2","","74","","23","","19","","25.0","","98.85","","","","","","Mostly Cloudy"
"1964-12-17 02:00","1964","12","17","02:00","3.9","","-1.7","","68","","20","","24","","24.1","","98.80","","","","","","Cloudy"
"1964-12-17 03:00","1964","12","17","03:00","4.4","","0.0","","74","","20","","26","","24.1","","98.81","","","","","","Cloudy"
"1964-12-17 04:00","1964","12","17","04:00","4.4","","0.6","","76","","23","","24","","24.1","","98.75","","","","","","Cloudy"
"1964-12-17 05:00","1964","12","17","05:00","3.9","","1.1","","83","","23","","26","","24.1","","98.65","","","","","","Cloudy"
"1964-12-17 06:00","1964","12","17","06:00","3.9","","2.2","","88","","23","","24","","16.1","","98.63","","","","","","Cloudy"
"1964-12-17 07:00","1964","12","17","07:00","3.9","","1.7","","85","","23","","27","","16.1","","98.70","","","","","","Rain Showers"
"1964-12-17 08:00","1964","12","17","08:00","3.9","","2.2","","88","","25","","19","","12.9","","98.75","","","","","","Rain Showers"
"1964-12-17 09:00","1964","12","17","09:00","3.9","","1.1","","83","","25","","27","","9.7","","98.79","","","","","","Rain Showers,Haze"
"1964-12-17 10:00","1964","12","17","10:00","2.2","","-0.6","","81","","27","","27","","19.3","","98.87","","","","","","Snow Showers"
"1964-12-17 11:00","1964","12","17","11:00","0.6","","-3.9","","73","","27","","34","","40.2","","98.96","","","","","","Mostly Cloudy"
"1964-12-17 12:00","1964","12","17","12:00","0.0","","-3.9","","74","","27","","32","","40.2","","98.95","","","","-7","","Mostly Cloudy"
"1964-12-17 13:00","1964","12","17","13:00","-0.6","","-5.6","","67","","29","","27","","40.2","","98.96","","","","-7","","Mostly Cloudy"
"1964-12-17 14:00","1964","12","17","14:00","-0.6","","-5.6","","70","","27","","27","","40.2","","99.01","","","","-7","","Mostly Cloudy"
"1964-12-17 15:00","1964","12","17","15:00","-1.1","","-8.3","","59","","27","","29","","40.2","","99.05","","","","-8","","Mostly Cloudy"
"1964-12-17 16:00","1964","12","17","16:00","-2.2","","-7.2","","69","","29","","24","","40.2","","99.21","","","","-9","","Mainly Clear"
"1964-12-17 17:00","1964","12","17","17:00","-4.4","","-7.2","","79","","29","","27","","40.2","","99.35","","","","-12","","Mainly Clear"
"1964-12-17 18:00","1964","12","17","18:00","-6.1","","-10.0","","75","","27","","24","","25.0","","99.37","","","","-14","","Mainly Clear"
"1964-12-17 19:00","1964","12","17","19:00","-6.7","","-9.4","","81","","27","","24","","25.0","","99.43","","","","-14","","Mainly Clear"
"1964-12-17 20:00","1964","12","17","20:00","-6.7","","-9.4","","79","","27","","31","","25.0","","99.47","","","","-15","","Mostly Cloudy"
"1964-12-17 21:00","1964","12","17","21:00","-6.7","","-10.6","","74","","27","","24","","25.0","","99.48","","","","-14","","Mostly Cloudy"
"1964-12-17 22:00","1964","12","17","22:00","-7.2","","-10.6","","76","","27","","21","","25.0","","99.52","","","","-15","","Mostly Cloudy"
"1964-12-17 23:00","1964","12","17","23:00","-7.2","","-10.6","","77","","27","","26","","25.0","","99.56","","","","-15","","Mostly Cloudy"
"1964-12-18 00:00","1964","12","18","00:00","-7.2","","-10.6","","77","","27","","26","","25.0","","99.54","","","","-15","","Cloudy"
"1964-12-18 01:00","1964","12","18","01:00","-7.8","","-10.6","","80","","27","","24","","25.0","","99.57","","","","-16","","Mainly Clear"
"1964-12-18 02:00","1964","12","18","02:00","-7.8","","-11.1","","78","","27","","24","","25.0","","99.63","","","","-16","","Mostly Cloudy"
"1964-12-18 03:00","1964","12","18","03:00","-7.8","","-10.6","","79","","27","","29","","25.0","","99.75","","","","-17","","Mostly Cloudy"
"1964-12-18 04:00","1964","12","18","04:00","-7.8","","-10.6","","79","","27","","26","","25.0","","99.84","","","","-16","","Mostly Cloudy"
"1964-12-18 05:00","1964","12","18","05:00","-8.3","","-10.6","","84","","32","","32","","1.2","","99.96","","","","-18","","Snow Showers"
"1964-12-18 06:00","1964","12","18","06:00","-10.6","","-14.4","","74","","34","","21","","25.0","","100.16","","","","-19","","Mainly Clear"
"1964-12-18 07:00","1964","12","18","07:00","-11.7","","-14.4","","79","","34","","24","","25.0","","100.37","","","","-21","","Mainly Clear"
"1964-12-18 08:00","1964","12","18","08:00","-13.9","","-17.8","","74","","36","","29","","32.2","","100.60","","","","-24","","Mainly Clear"
"1964-12-18 09:00","1964","12","18","09:00","-14.4","","-18.3","","73","","34","","29","","40.2","","100.76","","","","-25","","Mainly Clear"
"1964-12-18 10:00","1964","12","18","10:00","-13.3","","-17.2","","71","","34","","32","","40.2","","100.98","","","","-24","","Mainly Clear"
"1964-12-18 11:00","1964","12","18","11:00","-11.7","","-16.1","","71","","34","","29","","40.2","","101.11","","","","-22","","Mainly Clear"
"1964-12-18 12:00","1964","12","18","12:00","-10.0","","-15.0","","68","","34","","29","","40.2","","101.17","","","","-19","","Mainly Clear"
"1964-12-18 13:00","1964","12","18","13:00","-8.9","","-13.9","","67","","36","","21","","40.2","","101.24","","","","-17","","Mainly Clear"
"1964-12-18 14:00","1964","12","18","14:00","-8.3","","-12.8","","71","","34","","16","","40.2","","101.30","","","","-15","","Clear"
"1964-12-18 15:00","1964","12","18","15:00","-7.2","","-12.2","","68","","27","","8","","40.2","","101.36","","","","-11","","Clear"
"1964-12-18 16:00","1964","12","18","16:00","-6.7","","-11.7","","68","","27","","16","","40.2","","101.40","","","","-13","","Mainly Clear"
"1964-12-18 17:00","1964","12","18","17:00","-8.3","","-12.8","","70","","27","","11","","40.2","","101.46","","","","-14","","Mainly Clear"
"1964-12-18 18:00","1964","12","18","18:00","-10.0","","-15.0","","66","","25","","8","","25.0","","101.48","","","","-14","","Mainly Clear"
"1964-12-18 19:00","1964","12","18","19:00","-10.0","","-13.9","","72","","25","","13","","25.0","","101.45","","","","-16","","Mainly Clear"
"1964-12-18 20:00","1964","12","18","20:00","-10.0","","-14.4","","71","","20","","10","","25.0","","101.47","","","","-15","","Mainly Clear"
"1964-12-18 21:00","1964","12","18","21:00","-10.6","","-14.4","","73","","25","","6","","25.0","","101.47","","","","-14","","Mainly Clear"
"1964-12-18 22:00","1964","12","18","22:00","-10.0","","-13.9","","72","","20","","8","","25.0","","101.45","","","","-14","","Mainly Clear"
"1964-12-18 23:00","1964","12","18","23:00","-9.4","","-13.3","","72","","23","","13","","25.0","","101.46","","","","-15","","Mainly Clear"
"1964-12-19 00:00","1964","12","19","00:00","-8.9","","-12.8","","73","","23","","16","","25.0","","101.41","","","","-16","","Mainly Clear"
"1964-12-19 01:00","1964","12","19","01:00","-8.3","","-11.7","","77","","23","","14","","25.0","","101.41","","","","-14","","Mainly Clear"
"1964-12-19 02:00","1964","12","19","02:00","-8.3","","-11.7","","75","","25","","16","","25.0","","101.36","","","","-15","","Mainly Clear"
"1964-12-19 03:00","1964","12","19","03:00","-8.9","","-11.7","","80","","25","","13","","25.0","","101.44","","","","-15","","Clear"
"1964-12-19 04:00","1964","12","19","04:00","-8.9","","-11.7","","80","","23","","13","","25.0","","101.41","","","","-15","","Mainly Clear"
"1964-12-19 05:00","1964","12","19","05:00","-9.4","","-12.2","","81","","25","","16","","25.0","","101.43","","","","-16","","Mainly Clear"
"1964-12-19 06:00","1964","12","19","06:00","-9.4","","-12.2","","81","","23","","16","","25.0","","101.43","","","","-16","","Clear"
"1964-12-19 07:00","1964","12","19","07:00","-9.4","","-12.2","","79","","20","","13","","19.3","","101.42","","","","-15","","Mainly Clear"
"1964-12-19 08:00","1964","12","19","08:00","-9.4","","-12.8","","78","","20","","13","","16.1","","101.46","","","","-15","","Cloudy"
"1964-12-19 09:00","1964","12","19","09:00","-8.9","","-12.2","","76","","23","","23","","12.9","","101.48","","","","-17","","Cloudy"
"1964-12-19 10:00","1964","12","19","10:00","-7.2","","-11.7","","69","","23","","23","","16.1","","101.45","","","","-15","","Cloudy"
"1964-12-19 11:00","1964","12","19","11:00","-5.6","","-9.4","","74","","23","","23","","24.1","","101.40","","","","-13","","Mostly Cloudy"
"1964-12-19 12:00","1964","12","19","12:00","-5.0","","-8.9","","74","","23","","23","","32.2","","101.32","","","","-12","","Cloudy"
"1964-12-19 13:00","1964","12","19","13:00","-4.4","","-8.3","","74","","23","","21","","32.2","","101.21","","","","-11","","Cloudy"
"1964-12-19 14:00","1964","12","19","14:00","-4.4","","-7.2","","79","","20","","19","","32.2","","101.19","","","","-11","","Cloudy"
"1964-12-19 15:00","1964","12","19","15:00","-3.9","","-6.7","","83","","23","","19","","32.2","","101.06","","","","-10","","Cloudy"
"1964-12-19 16:00","1964","12","19","16:00","-4.4","","-8.3","","75","","23","","19","","32.2","","101.04","","","","-11","","Cloudy"
"1964-12-19 17:00","1964","12","19","17:00","-5.0","","-8.9","","74","","23","","6","","32.2","","100.98","","","","-8","","Cloudy"
"1964-12-19 18:00","1964","12","19","18:00","-5.0","","-10.0","","69","","14","","3","","25.0","","100.84","","","","-6","","Cloudy"
"1964-12-19 19:00","1964","12","19","19:00","-5.0","","-10.0","","69","","18","","3","","24.1","","100.80","","","","-6","","Cloudy"
"1964-12-19 20:00","1964","12","19","20:00","-4.4","","-8.3","","74","","18","","13","","19.3","","100.73","","","","-9","","Cloudy"
"1964-12-19 21:00","1964","12","19","21:00","-4.4","","-8.3","","75","","18","","8","","19.3","","100.59","","","","-8","","Cloudy"
"1964-12-19 22:00","1964","12","19","22:00","-4.4","","-8.3","","75","","20","","6","","4.0","","100.55","","","","-7","","Snow"
"1964-12-19 23:00","1964","12","19","23:00","-5.0","","-6.7","","89","","11","","10","","4.0","","100.40","","","","-9","","Snow"
"1964-12-20 00:00","1964","12","20","00:00","-5.0","","-6.1","","93","","14","","8","","2.0","","100.30","","","","-9","","Snow"
"1964-12-20 01:00","1964","12","20","01:00","-5.0","","-6.1","","93","","14","","2","","4.0","","100.19","","","","-6","","Snow"
"1964-12-20 02:00","1964","12","20","02:00","-3.9","","-4.4","","95","","11","","2","","2.4","","100.15","","","","-5","","Snow"
"1964-12-20 03:00","1964","12","20","03:00","-3.3","","-3.9","","95","","11","","5","","1.6","","100.10","","","","-5","","Snow"
"1964-12-20 04:00","1964","12","20","04:00","-2.8","","-3.3","","96","","14","","10","","1.6","","99.98","","","","-7","","Snow"
"1964-12-20 05:00","1964","12","20","05:00","-2.8","","-3.3","","97","","9","","8","","3.2","","99.92","","","","-6","","Snow"
"1964-12-20 06:00","1964","12","20","06:00","-2.8","","-3.3","","97","","9","","8","","4.0","","99.90","","","","-6","","Snow,Fog"
"1964-12-20 07:00","1964","12","20","07:00","-2.2","","-2.8","","95","","5","","8","","4.0","","99.91","","","","-5","","Fog"
"1964-12-20 08:00","1964","12","20","08:00","-2.8","","-3.3","","97","","2","","5","","2.4","","99.96","","","","-5","","Snow,Fog"
"1964-12-20 09:00","1964","12","20","09:00","-2.8","","-3.3","","95","","29","","3","","4.0","","100.01","","","","-4","","Snow,Fog"
"1964-12-20 10:00","1964","12","20","10:00","-2.8","","-3.3","","94","","32","","14","","2.0","","100.14","","","","-8","","Snow,Fog"
"1964-12-20 11:00","1964","12","20","11:00","-2.2","","-3.3","","94","","34","","11","","3.2","","100.15","","","","-6","","Snow Showers,Fog"
"1964-12-20 12:00","1964","12","20","12:00","-2.2","","-3.9","","89","","32","","11","","6.4","","100.16","","","","-6","","Snow,Fog"
"1964-12-20 13:00","1964","12","20","13:00","-2.2","","-3.9","","87","","32","","6","","6.4","","100.16","","","","-5","","Fog"
"1964-12-20 14:00","1964","12","20","14:00","-2.2","","-4.4","","85","","34","","11","","6.4","","100.20","","","","-6","","Fog"
"1964-12-20 15:00","1964","12","20","15:00","-2.8","","-4.4","","86","","36","","10","","6.4","","100.31","","","","-7","","Fog"
"1964-12-20 16:00","1964","12","20","16:00","-2.2","","-3.9","","87","","36","","10","","6.4","","100.40","","","","-6","","Fog"
"1964-12-20 17:00","1964","12","20","17:00","-3.3","","-5.6","","85","","2","","8","","6.4","","100.41","","","","-7","","Fog"
"1964-12-20 18:00","1964","12","20","18:00","-5.0","","-7.2","","83","","34","","10","","6.4","","100.51","","","","-9","","Fog"
"1964-12-20 19:00","1964","12","20","19:00","-3.9","","-6.7","","82","","36","","8","","6.4","","100.58","","","","-7","","Haze"
"1964-12-20 20:00","1964","12","20","20:00","-3.9","","-5.0","","93","","32","","3","","4.0","","100.67","","","","-5","","Fog"
"1964-12-20 21:00","1964","12","20","21:00","-9.4","","-11.1","","87","","32","","6","","4.0","","100.65","","","","-13","","Fog"
"1964-12-20 22:00","1964","12","20","22:00","-11.1","","-12.8","","86","","27","","10","","3.6","","100.68","","","","-17","","Fog"
"1964-12-20 23:00","1964","12","20","23:00","-8.9","","-10.6","","87","","34","","13","","6.4","","100.79","","","","-15","","Fog"
"1964-12-21 00:00","1964","12","21","00:00","-6.7","","-7.8","","91","","2","","10","","4.8","","100.75","","","","-11","","Fog"
"1964-12-21 01:00","1964","12","21","01:00","-6.1","","-7.2","","92","","34","","8","","6.4","","100.77","","","","-10","","Fog"
"1964-12-21 02:00","1964","12","21","02:00","-7.8","","-8.9","","90","","34","","8","","6.4","","100.83","","","","-12","","Fog"
"1964-12-21 03:00","1964","12","21","03:00","-8.3","","-10.0","","88","","34","","8","","6.4","","100.89","","","","-12","","Fog"
"1964-12-21 04:00","1964","12","21","04:00","-7.2","","-8.3","","92","","36","","6","","6.4","","100.83","","","","-10","","Fog"
"1964-12-21 05:00","1964","12","21","05:00","-6.1","","-7.2","","92","","36","","5","","6.4","","100.78","","","","-9","","Fog"
"1964-12-21 06:00","1964","12","21","06:00","-5.6","","-6.7","","92","","","","0","","6.4","","100.79","","","","","","Fog"
"1964-12-21 07:00","1964","12","21","07:00","-3.3","","-3.9","","96","","9","","10","","8.0","","100.81","","","","-7","","Snow,Fog"
"1964-12-21 08:00","1964","12","21","08:00","-2.8","","-3.3","","95","","7","","10","","4.0","","100.81","","","","-7","","Snow,Fog"
"1964-12-21 09:00","1964","12","21","09:00","-3.3","","-4.4","","93","","9","","18","","3.2","","100.79","","","","-9","","Snow Grains,Fog"
"1964-12-21 10:00","1964","12","21","10:00","-3.3","","-4.4","","92","","7","","14","","2.0","","100.75","","","","-8","","Snow Grains,Fog"
"1964-12-21 11:00","1964","12","21","11:00","-2.8","","-3.3","","94","","7","","5","","1.6","","100.65","","","","-5","","Snow Grains,Fog"
"1964-12-21 12:00","1964","12","21","12:00","-1.1","","-2.8","","88","","","","0","","4.0","","100.48","","","","","","Fog"
"1964-12-21 13:00","1964","12","21","13:00","-1.1","","-3.3","","85","","18","","6","","6.4","","100.36","","","","-3","","Fog"
"1964-12-21 14:00","1964","12","21","14:00","-0.6","","-2.2","","88","","18","","11","","4.8","","100.29","","","","-4","","Fog"
"1964-12-21 15:00","1964","12","21","15:00","-0.6","","-3.3","","82","","18","","13","","4.8","","100.22","","","","-5","","Snow Grains"
"1964-12-21 16:00","1964","12","21","16:00","-1.1","","-2.2","","91","","16","","14","","2.4","","100.09","","","","-6","","Snow Grains,Fog"
"1964-12-21 17:00","1964","12","21","17:00","-1.1","","-2.2","","92","","18","","18","","4.8","","100.04","","","","-6","","Fog"
"1964-12-21 18:00","1964","12","21","18:00","-0.6","","-3.9","","79","","16","","19","","11.3","","99.89","","","","-6","","Cloudy"
"1964-12-21 19:00","1964","12","21","19:00","-1.1","","-4.4","","77","","16","","16","","11.3","","99.79","","","","-6","","Cloudy"
"1964-12-21 20:00","1964","12","21","20:00","-0.6","","-3.3","","82","","18","","19","","11.3","","99.71","","","","-6","","Cloudy"
"1964-12-21 21:00","1964","12","21","21:00","-0.6","","-3.3","","82","","18","","19","","11.3","","99.59","","","","-6","","Cloudy"
"1964-12-21 22:00","1964","12","21","22:00","-1.1","","-3.9","","83","","18","","18","","11.3","","99.47","","","","-6","","Cloudy"
"1964-12-21 23:00","1964","12","21","23:00","-1.1","","-3.3","","84","","18","","16","","11.3","","99.39","","","","-6","","Mostly Cloudy"
"1964-12-22 00:00","1964","12","22","00:00","-1.1","","-3.3","","84","","20","","18","","8.0","","99.34","","","","-6","","Fog"
"1964-12-22 01:00","1964","12","22","01:00","-1.1","","-3.3","","86","","18","","16","","9.7","","99.27","","","","-6","","Fog"
"1964-12-22 02:00","1964","12","22","02:00","-1.1","","-3.3","","86","","18","","19","","11.3","","99.18","","","","-6","","Snow"
"1964-12-22 03:00","1964","12","22","03:00","-1.1","","-2.2","","91","","20","","21","","6.4","","99.20","","","","-7","","Freezing Drizzle,Fog"
"1964-12-22 04:00","1964","12","22","04:00","-1.1","","-2.2","","91","","18","","24","","6.4","","99.14","","","","-7","","Freezing Drizzle,Fog"
"1964-12-22 05:00","1964","12","22","05:00","-1.1","","-2.2","","94","","20","","19","","4.8","","99.09","","","","-6","","Freezing Drizzle,Fog"
"1964-12-22 06:00","1964","12","22","06:00","-0.6","","-1.7","","91","","18","","10","","6.4","","99.12","","","","-4","","Fog"
"1964-12-22 07:00","1964","12","22","07:00","0.0","","-0.6","","94","","16","","13","","8.0","","99.16","","","","-4","","Fog"
"1964-12-22 08:00","1964","12","22","08:00","0.0","","-1.1","","91","","18","","13","","8.0","","99.20","","","","-4","","Fog"
"1964-12-22 09:00","1964","12","22","09:00","0.0","","-1.7","","88","","16","","13","","4.8","","99.26","","","","-4","","Fog"
"1964-12-22 10:00","1964","12","22","10:00","0.6","","-1.7","","86","","20","","16","","6.4","","99.32","","","","","","Fog"
"1964-12-22 11:00","1964","12","22","11:00","1.1","","-1.1","","86","","20","","16","","6.4","","99.24","","","","","","Fog"
"1964-12-22 12:00","1964","12","22","12:00","1.7","","-0.6","","84","","23","","16","","6.4","","99.18","","","","","","Fog"
"1964-12-22 13:00","1964","12","22","13:00","1.7","","-0.6","","84","","23","","14","","6.4","","99.09","","","","","","Fog"
"1964-12-22 14:00","1964","12","22","14:00","1.7","","-0.6","","84","","25","","14","","6.4","","99.09","","","","","","Fog"
"1964-12-22 15:00","1964","12","22","15:00","1.7","","-1.1","","81","","25","","13","","6.4","","99.10","","","","","","Haze"
"1964-12-22 16:00","1964","12","22","16:00","1.7","","-0.6","","84","","16","","8","","6.4","","99.05","","","","","","Haze"
"1964-12-22 17:00","1964","12","22","17:00","1.1","","-1.1","","86","","20","","16","","4.0","","99.10","","","","","","Haze"
"1964-12-22 18:00","1964","12","22","18:00","1.1","","0.0","","92","","18","","14","","4.8","","98.89","","","","","","Fog"
"1964-12-22 19:00","1964","12","22","19:00","1.1","","-0.6","","89","","18","","23","","4.8","","98.72","","","","","","Fog"
"1964-12-22 20:00","1964","12","22","20:00","1.1","","0.0","","92","","18","","16","","4.8","","98.63","","","","","","Fog"
"1964-12-22 21:00","1964","12","22","21:00","1.7","","0.0","","89","","18","","16","","6.4","","98.60","","","","","","Fog"
"1964-12-22 22:00","1964","12","22","22:00","1.7","","0.0","","89","","20","","16","","6.4","","98.56","","","","","","Fog"
"1964-12-22 23:00","1964","12","22","23:00","1.7","","0.6","","92","","18","","21","","6.4","","98.39","","","","","","Fog"
"1964-12-23 00:00","1964","12","23","00:00","1.7","","0.6","","92","","20","","34","","6.4","","98.23","","","","","","Fog"
"1964-12-23 01:00","1964","12","23","01:00","2.2","","1.1","","92","","23","","29","","8.0","","98.28","","","","","","Fog"
"1964-12-23 02:00","1964","12","23","02:00","2.2","","1.1","","92","","23","","24","","8.0","","98.34","","","","","","Drizzle,Fog"
"1964-12-23 03:00","1964","12","23","03:00","1.7","","1.1","","97","","20","","18","","4.0","","98.31","","","","","","Drizzle,Fog"
"1964-12-23 04:00","1964","12","23","04:00","2.2","","1.7","","97","","18","","14","","2.4","","98.13","","","","","","Drizzle,Fog"
"1964-12-23 05:00","1964","12","23","05:00","1.7","","1.1","","97","","18","","11","","2.4","","98.13","","","","","","Drizzle,Fog"
"1964-12-23 06:00","1964","12","23","06:00","2.2","","1.7","","97","","18","","11","","2.0","","98.13","","","","","","Drizzle,Fog"
"1964-12-23 07:00","1964","12","23","07:00","2.2","","1.7","","97","","18","","14","","2.4","","97.98","","","","","","Drizzle,Fog"
"1964-12-23 08:00","1964","12","23","08:00","2.8","","2.8","","100","","18","","18","","2.0","","97.94","","","","","","Drizzle,Fog"
"1964-12-23 09:00","1964","12","23","09:00","2.8","","2.2","","97","","18","","16","","2.0","","97.95","","","","","","Drizzle,Fog"
"1964-12-23 10:00","1964","12","23","10:00","3.3","","3.3","","100","","18","","16","","2.0","","97.94","","","","","","Drizzle,Fog"
"1964-12-23 11:00","1964","12","23","11:00","3.3","","3.3","","100","","18","","11","","1.6","","97.89","","","","","","Drizzle,Fog"
"1964-12-23 12:00","1964","12","23","12:00","3.3","","3.3","","100","","20","","6","","1.2","","97.82","","","","","","Drizzle,Fog"
"1964-12-23 13:00","1964","12","23","13:00","3.9","","3.9","","100","","18","","10","","1.0","","97.77","","","","","","Drizzle,Fog"
"1964-12-23 14:00","1964","12","23","14:00","3.9","","3.9","","100","","18","","6","","0.8","","97.76","","","","","","Fog"
"1964-12-23 15:00","1964","12","23","15:00","3.3","","3.3","","100","","16","","6","","0.4","","97.73","","","","","","Drizzle,Fog"
"1964-12-23 16:00","1964","12","23","16:00","3.3","","3.3","","100","","16","","6","","0.2","","97.75","","","","","","Fog"
"1964-12-23 17:00","1964","12","23","17:00","3.3","","3.3","","100","","14","","8","","0.2","","97.81","","","","","","Drizzle,Fog"
"1964-12-23 18:00","1964","12","23","18:00","3.3","","3.3","","100","","14","","6","","0.0","","97.78","","","","","","Drizzle,Fog"
"1964-12-23 19:00","1964","12","23","19:00","3.3","","3.3","","100","","11","","10","","0.0","","97.75","","","","","","Drizzle,Fog"
"1964-12-23 20:00","1964","12","23","20:00","3.9","","3.9","","100","","14","","13","","0.0","","97.71","","","","","","Drizzle,Fog"
"1964-12-23 21:00","1964","12","23","21:00","4.4","","4.4","","100","","14","","16","","0.0","","97.60","","","","","","Drizzle,Fog"
"1964-12-23 22:00","1964","12","23","22:00","5.0","","5.0","","100","","14","","16","","0.0","","97.61","","","","","","Drizzle,Fog"
"1964-12-23 23:00","1964","12","23","23:00","4.4","","4.4","","100","","14","","10","","0.2","","97.58","","","","","","Rain,Fog"
"1964-12-24 00:00","1964","12","24","00:00","4.4","","4.4","","100","","14","","10","","0.2","","97.53","","","","","","Rain,Fog"
"1964-12-24 01:00","1964","12","24","01:00","4.4","","4.4","","100","","14","","8","","0.2","","97.50","","","","","","Rain,Drizzle,Fog"
"1964-12-24 02:00","1964","12","24","02:00","4.4","","4.4","","100","","11","","11","","0.2","","97.43","","","","","","Rain,Drizzle,Fog"
"1964-12-24 03:00","1964","12","24","03:00","5.6","","5.6","","100","","14","","13","","0.8","","97.45","","","","","","Rain,Fog"
"1964-12-24 04:00","1964","12","24","04:00","5.6","","5.6","","100","","11","","13","","3.2","","97.39","","","","","","Fog"
"1964-12-24 05:00","1964","12","24","05:00","5.6","","5.6","","100","","11","","13","","4.0","","97.35","","","","","","Fog"
"1964-12-24 06:00","1964","12","24","06:00","6.1","","5.6","","98","","14","","13","","4.8","","97.38","","","","","","Fog"
"1964-12-24 07:00","1964","12","24","07:00","6.7","","6.1","","98","","14","","13","","4.8","","97.38","","","","","","Rain,Fog"
"1964-12-24 08:00","1964","12","24","08:00","6.7","","6.1","","98","","14","","13","","2.8","","97.38","","","","","","Rain,Fog"
"1964-12-24 09:00","1964","12","24","09:00","6.7","","6.1","","98","","14","","11","","1.6","","97.43","","","","","","Rain,Fog"
"1964-12-24 10:00","1964","12","24","10:00","8.3","","7.8","","98","","16","","13","","2.0","","97.43","","","","","","Rain,Fog"
"1964-12-24 11:00","1964","12","24","11:00","8.9","","8.9","","100","","18","","13","","2.0","","97.40","","","","","","Fog"
"1964-12-24 12:00","1964","12","24","12:00","11.1","","10.6","","96","","18","","11","","4.0","","97.30","","","","","","Fog"
"1964-12-24 13:00","1964","12","24","13:00","11.7","","10.6","","93","","18","","14","","4.8","","97.21","","","","","","Fog"
"1964-12-24 14:00","1964","12","24","14:00","8.9","","8.9","","100","","14","","13","","0.8","","97.19","","","","","","Rain Showers,Fog"
"1964-12-24 15:00","1964","12","24","15:00","8.9","","8.9","","100","","14","","13","","0.0","","97.18","","","","","","Drizzle,Fog"
"1964-12-24 16:00","1964","12","24","16:00","8.3","","8.3","","100","","16","","13","","0.0","","97.21","","","","","","Rain Showers,Fog"
"1964-12-24 17:00","1964","12","24","17:00","8.9","","8.9","","100","","16","","8","","0.0","","97.23","","","","","","Fog"
"1964-12-24 18:00","1964","12","24","18:00","8.9","","8.9","","100","","16","","11","","0.0","","97.21","","","","","","Rain Showers,Fog"
"1964-12-24 19:00","1964","12","24","19:00","7.8","","7.8","","100","","14","","11","","0.0","","97.22","","","","","","Fog"
"1964-12-24 20:00","1964","12","24","20:00","8.3","","8.3","","100","","16","","11","","3.2","","97.17","","","","","","Drizzle,Fog"
"1964-12-24 21:00","1964","12","24","21:00","9.4","","9.4","","100","","16","","19","","4.0","","97.11","","","","","","Fog"
"1964-12-24 22:00","1964","12","24","22:00","9.4","","8.9","","98","","16","","23","","6.4","","97.01","","","","","","Fog"
"1964-12-24 23:00","1964","12","24","23:00","10.6","","9.4","","94","","16","","13","","14.5","","96.96","","","","","","Cloudy"
"1964-12-25 00:00","1964","12","25","00:00","10.0","","9.4","","96","","25","","14","","6.4","","97.06","","","","","","Rain Showers,Fog"
"1964-12-25 01:00","1964","12","25","01:00","10.6","","9.4","","94","","16","","10","","6.4","","97.08","","","","","","Fog"
"1964-12-25 02:00","1964","12","25","02:00","9.4","","8.9","","98","","32","","19","","4.8","","97.16","","","","","","Rain Showers,Fog"
"1964-12-25 03:00","1964","12","25","03:00","8.3","","7.8","","98","","36","","19","","4.8","","97.27","","","","","","Rain,Fog"
"1964-12-25 04:00","1964","12","25","04:00","7.2","","6.7","","98","","34","","19","","4.8","","97.39","","","","","","Rain,Fog"
"1964-12-25 05:00","1964","12","25","05:00","6.1","","5.6","","95","","34","","26","","12.9","","97.46","","","","","","Rain"
"1964-12-25 06:00","1964","12","25","06:00","5.0","","4.4","","95","","36","","26","","12.9","","97.58","","","","","","Rain"
"1964-12-25 07:00","1964","12","25","07:00","4.4","","3.9","","98","","2","","13","","16.1","","97.66","","","","","","Rain"
"1964-12-25 08:00","1964","12","25","08:00","3.9","","3.3","","97","","36","","26","","11.3","","97.82","","","","","","Rain"
"1964-12-25 09:00","1964","12","25","09:00","3.9","","2.8","","93","","34","","19","","8.0","","98.00","","","","","","Fog"
"1964-12-25 10:00","1964","12","25","10:00","3.9","","2.2","","90","","36","","24","","11.3","","98.10","","","","","","Cloudy"
"1964-12-25 11:00","1964","12","25","11:00","3.9","","2.2","","90","","34","","27","","11.3","","98.22","","","","","","Cloudy"
"1964-12-25 12:00","1964","12","25","12:00","3.9","","2.2","","90","","34","","23","","9.7","","98.26","","","","","","Fog"
"1964-12-25 13:00","1964","12","25","13:00","4.4","","2.2","","85","","34","","29","","11.3","","98.29","","","","","","Mostly Cloudy"
"1964-12-25 14:00","1964","12","25","14:00","3.9","","1.7","","85","","34","","19","","12.9","","98.36","","","","","","Mostly Cloudy"
"1964-12-25 15:00","1964","12","25","15:00","4.4","","2.2","","85","","27","","10","","11.3","","98.54","","","","","","Cloudy"
"1964-12-25 16:00","1964","12","25","16:00","3.9","","2.2","","88","","27","","13","","11.3","","98.59","","","","","","Cloudy"
"1964-12-25 17:00","1964","12","25","17:00","3.3","","1.7","","87","","29","","8","","11.3","","98.65","","","","","","Cloudy"
"1964-12-25 18:00","1964","12","25","18:00","2.8","","1.7","","92","","29","","8","","16.1","","98.72","","","","","","Cloudy"
"1964-12-25 19:00","1964","12","25","19:00","2.2","","1.7","","95","","","","0","","14.5","","98.77","","","","","","Cloudy"
"1964-12-25 20:00","1964","12","25","20:00","1.7","","1.1","","94","","36","","6","","16.1","","98.81","","","","","","Cloudy"
"1964-12-25 21:00","1964","12","25","21:00","1.7","","1.1","","94","","5","","3","","11.3","","98.86","","","","","","Cloudy"
"1964-12-25 22:00","1964","12","25","22:00","1.7","","1.1","","94","","14","","3","","8.0","","98.92","","","","","","Fog"
"1964-12-25 23:00","1964","12","25","23:00","1.7","","1.1","","97","","9","","5","","8.0","","98.87","","","","","","Fog"
"1964-12-26 00:00","1964","12","26","00:00","2.2","","1.7","","97","","9","","13","","6.4","","98.72","","","","","","Drizzle,Fog"
"1964-12-26 01:00","1964","12","26","01:00","2.2","","1.7","","95","","9","","16","","8.0","","98.66","","","","","","Fog"
"1964-12-26 02:00","1964","12","26","02:00","1.7","","1.1","","97","","9","","13","","8.0","","98.70","","","","","","Fog"
"1964-12-26 03:00","1964","12","26","03:00","2.2","","1.7","","97","","9","","11","","4.8","","98.60","","","","","","Drizzle,Fog"
"1964-12-26 04:00","1964","12","26","04:00","2.8","","2.8","","100","","7","","10","","2.8","","98.50","","","","","","Drizzle,Fog"
"1964-12-26 05:00","1964","12","26","05:00","3.3","","3.3","","100","","9","","14","","2.0","","98.47","","","","","","Fog"
"1964-12-26 06:00","1964","12","26","06:00","3.3","","3.3","","100","","9","","3","","0.4","","98.46","","","","","","Rain,Fog"
"1964-12-26 07:00","1964","12","26","07:00","2.8","","2.8","","100","","36","","8","","0.8","","98.40","","","","","","Rain,Fog"
"1964-12-26 08:00","1964","12","26","08:00","2.2","","2.2","","100","","","","0","","0.4","","98.40","","","","","","Rain,Fog"
"1964-12-26 09:00","1964","12","26","09:00","2.2","","2.2","","100","","32","","10","","0.4","","98.42","","","","","","Drizzle,Fog"
"1964-12-26 10:00","1964","12","26","10:00","2.2","","2.2","","100","","32","","10","","0.4","","98.49","","","","","","Fog"
"1964-12-26 11:00","1964","12","26","11:00","3.3","","3.3","","100","","32","","8","","0.8","","98.52","","","","","","Fog"
"1964-12-26 12:00","1964","12","26","12:00","4.4","","3.9","","98","","32","","6","","4.8","","98.51","","","","","","Rain Showers,Fog"
"1964-12-26 13:00","1964","12","26","13:00","5.6","","5.0","","95","","25","","10","","6.4","","98.55","","","","","","Fog"
"1964-12-26 14:00","1964","12","26","14:00","6.1","","5.0","","91","","27","","23","","9.7","","98.66","","","","","","Fog"
"1964-12-26 15:00","1964","12","26","15:00","5.0","","2.8","","86","","27","","26","","12.9","","98.85","","","","","","Cloudy"
"1964-12-26 16:00","1964","12","26","16:00","3.3","","0.6","","82","","27","","24","","11.3","","99.04","","","","","","Mostly Cloudy"
"1964-12-26 17:00","1964","12","26","17:00","3.3","","0.6","","82","","27","","19","","19.3","","99.24","","","","","","Cloudy"
"1964-12-26 18:00","1964","12","26","18:00","3.3","","0.0","","77","","27","","24","","25.0","","99.42","","","","","","Cloudy"
"1964-12-26 19:00","1964","12","26","19:00","2.2","","-0.6","","81","","27","","24","","25.0","","99.59","","","","","","Cloudy"
"1964-12-26 20:00","1964","12","26","20:00","2.2","","-0.6","","81","","27","","13","","25.0","","99.68","","","","","","Mostly Cloudy"
"1964-12-26 21:00","1964","12","26","21:00","1.7","","-1.1","","81","","27","","16","","25.0","","99.84","","","","","","Mostly Cloudy"
"1964-12-26 22:00","1964","12","26","22:00","1.1","","-1.1","","86","","27","","10","","25.0","","100.01","","","","","","Cloudy"
"1964-12-26 23:00","1964","12","26","23:00","1.1","","-1.7","","82","","32","","19","","25.0","","100.04","","","","","","Cloudy"
"1964-12-27 00:00","1964","12","27","00:00","0.6","","-2.2","","81","","32","","14","","25.0","","100.04","","","","","","Mainly Clear"
"1964-12-27 01:00","1964","12","27","01:00","0.0","","-2.8","","83","","","","0","","25.0","","100.18","","","","","","Mostly Cloudy"
"1964-12-27 02:00","1964","12","27","02:00","0.0","","-3.3","","80","","36","","13","","25.0","","100.28","","","","-4","","Mostly Cloudy"
"1964-12-27 03:00","1964","12","27","03:00","-0.6","","-3.9","","79","","2","","11","","25.0","","100.34","","","","-4","","Mostly Cloudy"
"1964-12-27 04:00","1964","12","27","04:00","-1.1","","-3.9","","81","","2","","10","","25.0","","100.37","","","","-5","","Mostly Cloudy"
"1964-12-27 05:00","1964","12","27","05:00","-1.1","","-3.9","","82","","2","","14","","25.0","","100.39","","","","-6","","Mostly Cloudy"
"1964-12-27 06:00","1964","12","27","06:00","-1.7","","-4.4","","83","","5","","18","","25.0","","100.44","","","","-7","","Mostly Cloudy"
"1964-12-27 07:00","1964","12","27","07:00","-2.2","","-5.6","","78","","2","","21","","25.0","","100.46","","","","-8","","Mostly Cloudy"
"1964-12-27 08:00","1964","12","27","08:00","-2.8","","-6.1","","79","","5","","19","","32.2","","100.56","","","","-9","","Mostly Cloudy"
"1964-12-27 09:00","1964","12","27","09:00","-2.8","","-6.1","","79","","5","","19","","32.2","","100.66","","","","-9","","Snow Showers"
"1964-12-27 10:00","1964","12","27","10:00","-2.8","","-6.7","","75","","2","","16","","32.2","","100.64","","","","-8","","Mostly Cloudy"
"1964-12-27 11:00","1964","12","27","11:00","-3.3","","-6.7","","77","","2","","23","","32.2","","100.62","","","","-10","","Cloudy"
"1964-12-27 12:00","1964","12","27","12:00","-3.3","","-6.1","","81","","36","","26","","32.2","","100.57","","","","-10","","Cloudy"
"1964-12-27 13:00","1964","12","27","13:00","-3.3","","-6.7","","77","","2","","21","","32.2","","100.51","","","","-10","","Cloudy"
"1964-12-27 14:00","1964","12","27","14:00","-3.3","","-6.7","","79","","2","","27","","32.2","","100.49","","","","-10","","Cloudy"
"1964-12-27 15:00","1964","12","27","15:00","-3.3","","-6.7","","77","","2","","27","","32.2","","100.52","","","","-10","","Mostly Cloudy"
"1964-12-27 16:00","1964","12","27","16:00","-3.9","","-7.2","","78","","2","","24","","32.2","","100.53","","","","-11","","Mostly Cloudy"
"1964-12-27 17:00","1964","12","27","17:00","-5.0","","-9.4","","70","","36","","29","","40.2","","100.49","","","","-13","","Mostly Cloudy"
"1964-12-27 18:00","1964","12","27","18:00","-5.6","","-9.4","","75","","2","","21","","25.0","","100.59","","","","-12","","Mainly Clear"
"1964-12-27 19:00","1964","12","27","19:00","-5.6","","-8.9","","76","","36","","26","","25.0","","100.53","","","","-13","","Mostly Cloudy"
"1964-12-27 20:00","1964","12","27","20:00","-6.1","","-9.4","","78","","36","","19","","25.0","","100.60","","","","-13","","Mostly Cloudy"
"1964-12-27 21:00","1964","12","27","21:00","-6.7","","-10.0","","77","","2","","19","","25.0","","100.60","","","","-14","","Mostly Cloudy"
"1964-12-27 22:00","1964","12","27","22:00","-6.7","","-10.6","","74","","2","","19","","25.0","","100.51","","","","-14","","Mainly Clear"
"1964-12-27 23:00","1964","12","27","23:00","-7.2","","-10.6","","79","","36","","16","","25.0","","100.59","","","","-14","","Mainly Clear"
"1964-12-28 00:00","1964","12","28","00:00","-7.2","","-11.7","","71","","36","","19","","25.0","","100.54","","","","-14","","Mostly Cloudy"
"1964-12-28 01:00","1964","12","28","01:00","-7.2","","-10.6","","76","","36","","16","","25.0","","100.54","","","","-14","","Mainly Clear"
"1964-12-28 02:00","1964","12","28","02:00","-7.8","","-11.7","","75","","36","","18","","25.0","","100.58","","","","-15","","Mainly Clear"
"1964-12-28 03:00","1964","12","28","03:00","-7.8","","-11.7","","75","","36","","13","","25.0","","100.64","","","","-14","","Mainly Clear"
"1964-12-28 04:00","1964","12","28","04:00","-8.9","","-12.2","","77","","34","","13","","25.0","","100.64","","","","-15","","Mainly Clear"
"1964-12-28 05:00","1964","12","28","05:00","-8.9","","-11.7","","80","","34","","16","","25.0","","100.63","","","","-16","","Mainly Clear"
"1964-12-28 06:00","1964","12","28","06:00","-8.9","","-12.2","","77","","36","","14","","25.0","","100.64","","","","-15","","Mainly Clear"
"1964-12-28 07:00","1964","12","28","07:00","-8.9","","-12.2","","77","","36","","13","","25.0","","100.66","","","","-15","","Mainly Clear"
"1964-12-28 08:00","1964","12","28","08:00","-8.9","","-12.2","","77","","36","","11","","25.0","","100.70","","","","-14","","Mainly Clear"
"1964-12-28 09:00","1964","12","28","09:00","-8.3","","-12.8","","71","","36","","14","","32.2","","100.74","","","","-14","","Mostly Cloudy"
"1964-12-28 10:00","1964","12","28","10:00","-7.8","","-13.3","","64","","36","","11","","32.2","","100.80","","","","-13","","Mostly Cloudy"
"1964-12-28 11:00","1964","12","28","11:00","-7.2","","-12.8","","64","","36","","8","","32.2","","100.80","","","","-11","","Mostly Cloudy"
"1964-12-28 12:00","1964","12","28","12:00","-6.7","","-12.2","","65","","36","","6","","32.2","","100.75","","","","-10","","Mainly Clear"
"1964-12-28 13:00","1964","12","28","13:00","-5.6","","-11.7","","63","","34","","3","","32.2","","100.64","","","","-7","","Mainly Clear"
"1964-12-28 14:00","1964","12","28","14:00","-5.0","","-12.2","","58","","36","","6","","32.2","","100.62","","","","-8","","Mainly Clear"
"1964-12-28 15:00","1964","12","28","15:00","-4.4","","-10.6","","61","","7","","5","","32.2","","100.64","","","","-7","","Mainly Clear"
"1964-12-28 16:00","1964","12","28","16:00","-4.4","","-9.4","","67","","7","","8","","24.1","","100.67","","","","-8","","Mainly Clear"
"1964-12-28 17:00","1964","12","28","17:00","-5.6","","-8.3","","80","","7","","10","","19.3","","100.69","","","","-10","","Mainly Clear"
"1964-12-28 18:00","1964","12","28","18:00","-5.0","","-8.9","","74","","7","","3","","24.1","","100.73","","","","-6","","Mainly Clear"
"1964-12-28 19:00","1964","12","28","19:00","-5.0","","-7.2","","83","","7","","11","","19.3","","100.72","","","","-10","","Snow Showers"
"1964-12-28 20:00","1964","12","28","20:00","-5.0","","-8.3","","79","","7","","8","","19.3","","100.72","","","","-9","","Mostly Cloudy"
"1964-12-28 21:00","1964","12","28","21:00","-5.0","","-8.3","","79","","7","","6","","19.3","","100.69","","","","-8","","Snow Showers"
"1964-12-28 22:00","1964","12","28","22:00","-4.4","","-7.2","","81","","7","","11","","24.1","","100.69","","","","-9","","Mostly Cloudy"
"1964-12-28 23:00","1964","12","28","23:00","-5.0","","-7.8","","82","","7","","16","","24.1","","100.60","","","","-11","","Mostly Cloudy"
"1964-12-29 00:00","1964","12","29","00:00","-4.4","","-7.8","","78","","7","","11","","24.1","","100.57","","","","-9","","Cloudy"
"1964-12-29 01:00","1964","12","29","01:00","-4.4","","-7.8","","77","","7","","16","","24.1","","100.55","","","","-10","","Cloudy"
"1964-12-29 02:00","1964","12","29","02:00","-4.4","","-7.8","","77","","7","","14","","24.1","","100.56","","","","-10","","Cloudy"
"1964-12-29 03:00","1964","12","29","03:00","-3.9","","-5.6","","87","","14","","10","","9.7","","100.60","","","","-8","","Snow Showers"
"1964-12-29 04:00","1964","12","29","04:00","-3.9","","-6.1","","84","","14","","13","","24.1","","100.57","","","","-9","","Cloudy"
"1964-12-29 05:00","1964","12","29","05:00","-3.3","","-5.0","","88","","14","","19","","24.1","","100.51","","","","-9","","Cloudy"
"1964-12-29 06:00","1964","12","29","06:00","-4.4","","-6.1","","90","","7","","13","","24.1","","100.42","","","","-9","","Cloudy"
"1964-12-29 07:00","1964","12","29","07:00","-3.9","","-5.6","","89","","14","","26","","24.1","","100.35","","","","-11","","Cloudy"
"1964-12-29 08:00","1964","12","29","08:00","-3.3","","-5.0","","88","","14","","27","","24.1","","100.34","","","","-10","","Freezing Rain"
"1964-12-29 09:00","1964","12","29","09:00","-3.3","","-5.0","","89","","11","","29","","8.0","","100.34","","","","-11","","Fog"
"1964-12-29 10:00","1964","12","29","10:00","-3.3","","-4.4","","91","","11","","24","","11.3","","100.25","","","","-10","","Cloudy"
"1964-12-29 11:00","1964","12","29","11:00","-2.8","","-4.4","","89","","11","","26","","11.3","","100.12","","","","-10","","Cloudy"
"1964-12-29 12:00","1964","12","29","12:00","-2.8","","-4.4","","86","","11","","34","","11.3","","99.88","","","","-11","","Cloudy"
"1964-12-29 13:00","1964","12","29","13:00","-2.2","","-4.4","","86","","11","","27","","12.9","","99.74","","","","-9","","Cloudy"
"1964-12-29 14:00","1964","12","29","14:00","-1.7","","-3.9","","86","","11","","29","","16.1","","99.60","","","","-9","","Cloudy"
"1964-12-29 15:00","1964","12","29","15:00","-1.7","","-3.3","","87","","11","","35","","16.1","","99.51","","","","-9","","Mostly Cloudy"
"1964-12-29 16:00","1964","12","29","16:00","-1.1","","-3.3","","86","","11","","23","","16.1","","99.56","","","","-7","","Mostly Cloudy"
"1964-12-29 17:00","1964","12","29","17:00","-1.1","","-2.8","","89","","11","","24","","9.7","","99.41","","","","-7","","Fog"
"1964-12-29 18:00","1964","12","29","18:00","-0.6","","-2.8","","85","","11","","18","","12.9","","99.44","","","","-6","","Rain Showers"
"1964-12-29 19:00","1964","12","29","19:00","0.0","","-2.2","","86","","9","","8","","12.9","","99.44","","","","-3","","Cloudy"
"1964-12-29 20:00","1964","12","29","20:00","0.0","","-1.7","","88","","11","","11","","12.9","","99.37","","","","-4","","Cloudy"
"1964-12-29 21:00","1964","12","29","21:00","0.0","","-0.6","","97","","11","","14","","6.4","","99.36","","","","-4","","Drizzle,Fog"
"1964-12-29 22:00","1964","12","29","22:00","0.0","","-0.6","","97","","14","","8","","4.8","","99.32","","","","-3","","Rain,Drizzle,Fog"
"1964-12-29 23:00","1964","12","29","23:00","0.6","","0.0","","97","","14","","5","","4.8","","99.26","","","","","","Rain,Drizzle,Fog"
"1964-12-30 00:00","1964","12","30","00:00","0.6","","0.6","","100","","16","","5","","3.2","","99.19","","","","","","Drizzle,Fog"
"1964-12-30 01:00","1964","12","30","01:00","0.6","","0.6","","100","","16","","5","","1.2","","99.13","","","","","","Drizzle,Fog"
"1964-12-30 02:00","1964","12","30","02:00","0.6","","0.6","","100","","","","0","","0.6","","99.08","","","","","","Drizzle,Fog"
"1964-12-30 03:00","1964","12","30","03:00","0.6","","0.6","","100","","","","0","","0.0","","99.08","","","","","","Fog"
"1964-12-30 04:00","1964","12","30","04:00","0.6","","0.6","","100","","","","0","","0.0","","99.04","","","","","","Fog"
"1964-12-30 05:00","1964","12","30","05:00","0.6","","0.6","","100","","14","","3","","0.0","","99.01","","","","","","Fog"
"1964-12-30 06:00","1964","12","30","06:00","1.1","","1.1","","100","","","","0","","0.0","","99.04","","","","","","Fog"
"1964-12-30 07:00","1964","12","30","07:00","1.1","","1.1","","100","","","","0","","0.0","","99.04","","","","","","Fog"
"1964-12-30 08:00","1964","12","30","08:00","0.6","","0.6","","100","","","","0","","0.0","","99.02","","","","","","Fog"
"1964-12-30 09:00","1964","12","30","09:00","1.7","","1.7","","100","","16","","5","","0.2","","99.04","","","","","","Fog"
"1964-12-30 10:00","1964","12","30","10:00","2.8","","2.8","","100","","20","","3","","0.4","","99.08","","","","","","Fog"
"1964-12-30 11:00","1964","12","30","11:00","3.9","","3.9","","100","","20","","6","","0.8","","99.09","","","","","","Fog"
"1964-12-30 12:00","1964","12","30","12:00","5.6","","5.6","","100","","18","","6","","1.6","","98.99","","","","","","Fog"
"1964-12-30 13:00","1964","12","30","13:00","6.1","","5.6","","98","","20","","6","","4.0","","98.90","","","","","","Fog"
"1964-12-30 14:00","1964","12","30","14:00","5.6","","4.4","","93","","27","","11","","8.0","","98.90","","","","","","Fog"
"1964-12-30 15:00","1964","12","30","15:00","6.1","","3.9","","86","","25","","19","","8.0","","98.96","","","","","","Fog"
"1964-12-30 16:00","1964","12","30","16:00","5.6","","3.3","","86","","27","","14","","8.0","","98.98","","","","","","Fog"
"1964-12-30 17:00","1964","12","30","17:00","5.0","","2.8","","86","","27","","16","","8.0","","99.04","","","","","","Haze"
"1964-12-30 18:00","1964","12","30","18:00","3.9","","2.2","","88","","25","","8","","11.3","","99.06","","","","","","Cloudy"
"1964-12-30 19:00","1964","12","30","19:00","3.9","","1.7","","85","","25","","11","","12.9","","99.08","","","","","","Cloudy"
"1964-12-30 20:00","1964","12","30","20:00","3.3","","1.1","","85","","27","","24","","16.1","","99.12","","","","","","Mostly Cloudy"
"1964-12-30 21:00","1964","12","30","21:00","2.8","","0.0","","82","","27","","29","","19.3","","99.17","","","","","","Mostly Cloudy"
"1964-12-30 22:00","1964","12","30","22:00","2.8","","0.0","","82","","27","","29","","19.3","","99.25","","","","","","Mainly Clear"
"1964-12-30 23:00","1964","12","30","23:00","2.8","","-1.1","","74","","27","","40","","24.1","","99.37","","","","","","Mostly Cloudy"
"1964-12-31 00:00","1964","12","31","00:00","1.7","","-2.8","","73","","29","","32","","25.0","","99.53","","","","","","Mostly Cloudy"
"1964-12-31 01:00","1964","12","31","01:00","1.1","","-2.8","","74","","29","","35","","25.0","","99.67","","","","","","Mainly Clear"
"1964-12-31 02:00","1964","12","31","02:00","1.1","","-3.3","","71","","29","","32","","25.0","","99.77","","","","","","Mostly Cloudy"
"1964-12-31 03:00","1964","12","31","03:00","1.1","","-2.8","","74","","29","","32","","25.0","","99.91","","","","","","Mostly Cloudy"
"1964-12-31 04:00","1964","12","31","04:00","0.6","","-3.3","","75","","29","","29","","25.0","","100.00","","","","","","Mainly Clear"
"1964-12-31 05:00","1964","12","31","05:00","0.0","","-3.3","","80","","29","","29","","25.0","","100.05","","","","-6","","Mainly Clear"
"1964-12-31 06:00","1964","12","31","06:00","0.0","","-3.3","","80","","29","","26","","25.0","","100.17","","","","-6","","Mainly Clear"
"1964-12-31 07:00","1964","12","31","07:00","0.0","","-3.9","","74","","32","","23","","25.0","","100.30","","","","-6","","Mostly Cloudy"
"1964-12-31 08:00","1964","12","31","08:00","0.0","","-3.3","","80","","32","","23","","25.0","","100.38","","","","-6","","Cloudy"
"1964-12-31 09:00","1964","12","31","09:00","0.6","","-2.2","","81","","32","","29","","25.0","","100.52","","","","","","Mostly Cloudy"
"1964-12-31 10:00","1964","12","31","10:00","0.6","","-1.7","","84","","34","","26","","25.0","","100.61","","","","","","Cloudy"
"1964-12-31 11:00","1964","12","31","11:00","0.6","","-2.2","","81","","32","","29","","25.0","","100.67","","","","","","Mostly Cloudy"
"1964-12-31 12:00","1964","12","31","12:00","0.0","","-2.8","","83","","32","","32","","25.0","","100.76","","","","-7","","Mostly Cloudy"
"1964-12-31 13:00","1964","12","31","13:00","-0.6","","-2.2","","88","","32","","35","","25.0","","100.75","","","","-8","","Mostly Cloudy"
"1964-12-31 14:00","1964","12","31","14:00","-0.6","","-1.7","","91","","32","","29","","25.0","","100.83","","","","-7","","Mostly Cloudy"
"1964-12-31 15:00","1964","12","31","15:00","-0.6","","-4.4","","76","","34","","32","","25.0","","100.88","","","","-7","","Mainly Clear"
"1964-12-31 16:00","1964","12","31","16:00","-1.1","","-5.0","","76","","32","","18","","40.2","","101.02","","","","-6","","Mostly Cloudy"
"1964-12-31 17:00","1964","12","31","17:00","-1.1","","-2.8","","88","","34","","13","","40.2","","101.12","","","","-5","","Mostly Cloudy"
"1964-12-31 18:00","1964","12","31","18:00","-1.7","","-2.8","","91","","34","","13","","40.2","","101.15","","","","-6","","Mostly Cloudy"
"1964-12-31 19:00","1964","12","31","19:00","-1.7","","-4.4","","83","","34","","16","","40.2","","101.18","","","","-7","","Mostly Cloudy"
"1964-12-31 20:00","1964","12","31","20:00","-2.8","","-5.0","","84","","2","","6","","40.2","","101.27","","","","-5","","Mostly Cloudy"
"1964-12-31 21:00","1964","12","31","21:00","-2.8","","-4.4","","88","","2","","11","","40.2","","101.31","","","","-7","","Cloudy"
"1964-12-31 22:00","1964","12","31","22:00","-2.8","","-6.1","","78","","5","","6","","40.2","","101.34","","","","-5","","Cloudy"
"1964-12-31 23:00","1964","12","31","23:00","-2.8","","-6.1","","78","","36","","3","","40.2","","101.36","","","","-4","","Cloudy"
