"Station Name","TORONTO INTL A"
"Province","ONTARIO"
"Current Station Operator","NAV Canada"
"Latitude","43.68"
"Longitude","-79.63"
"Elevation","173.40"
"Climate Identifier","6158731"
"WMO Identifier","71624"
"TC Identifier","YYZ"
"All times are specified in Local Standard Time (LST). Add 1 hour to adjust for Daylight Saving Time where and when it is observed."

"Legend"
"E","Estimated"
"M","Missing"
"NA","Not Available"

"Date/Time","Year","Month","Day","Time","Temp (°C)","Temp Flag","Dew Point Temp (°C)","Dew Point Temp Flag","Rel Hum (%)","Rel Hum Flag","Wind Dir (10s deg)","Wind Dir Flag","Wind Spd (km/h)","Wind Spd Flag","Visibility (km)","Visibility Flag","Stn Press (kPa)","Stn Press Flag","Hmdx","Hmdx Flag","Wind Chill","Wind Chill Flag","Weather"
"2018-08-01 00:00","2018","08","01","00:00","22.3","","19.9","","86","","13","","6","","24.1","","99.32","","30","","","","NA"
"2018-08-01 01:00","2018","08","01","01:00","22.7","","19.2","","80","","14","","13","","24.1","","99.30","","30","","","","Mostly Cloudy"
"2018-08-01 02:00","2018","08","01","02:00","22.5","","19.2","","82","","13","","10","","24.1","","99.23","","29","","","","NA"
"2018-08-01 03:00","2018","08","01","03:00","22.3","","19.2","","82","","12","","10","","24.1","","99.20","","29","","","","NA"
"2018-08-01 04:00","2018","08","01","04:00","22.3","","19.4","","83","","14","","11","","24.1","","99.17","","29","","","","Mostly Cloudy"
"2018-08-01 05:00","2018","08","01","05:00","22.0","","19.7","","86","","14","","10","","24.1","","99.13","","29","","","","NA"
"2018-08-01 06:00","2018","08","01","06:00","22.3","","19.9","","86","","16","","12","","24.1","","99.14","","30","","","","NA"
"2018-08-01 07:00","2018","08","01","07:00","22.8","","20.1","","85","","19","","13","","24.1","","99.15","","30","","","","Mostly Cloudy"
"2018-08-01 08:00","2018","08","01","08:00","23.6","","20.1","","81","","18","","13","","24.1","","99.10","","31","","","","NA"
"2018-08-01 09:00","2018","08","01","09:00","24.1","","20.2","","79","","18","","12","","24.1","","99.09","","32","","","","NA"
"2018-08-01 10:00","2018","08","01","10:00","25.2","","20.1","","73","","19","","18","","24.1","","99.10","","33","","","","Mostly Cloudy"
"2018-08-01 11:00","2018","08","01","11:00","25.4","","19.8","","71","","22","","26","","24.1","","99.12","","33","","","","NA"
"2018-08-01 12:00","2018","08","01","12:00","25.3","","19.4","","70","","22","","28","","24.1","","99.10","","32","","","","NA"
"2018-08-01 13:00","2018","08","01","13:00","25.6","","19.2","","68","","21","","24","","24.1","","99.09","","33","","","","Mostly Cloudy"
"2018-08-01 14:00","2018","08","01","14:00","25.8","","18.8","","65","","20","","22","","24.1","","99.06","","32","","","","NA"
"2018-08-01 15:00","2018","08","01","15:00","26.4","","18.9","","63","","23","","26","","24.1","","99.06","","33","","","","NA"
"2018-08-01 16:00","2018","08","01","16:00","26.4","","19.0","","63","","23","","30","","24.1","","99.09","","33","","","","Cloudy"
"2018-08-01 17:00","2018","08","01","17:00","25.7","","18.7","","65","","22","","27","","19.3","","99.11","","32","","","","NA"
"2018-08-01 18:00","2018","08","01","18:00","22.4","","19.9","","85","","26","","17","","24.1","","99.16","","30","","","","NA"
"2018-08-01 19:00","2018","08","01","19:00","22.3","","19.7","","85","","25","","19","","24.1","","99.18","","30","","","","Cloudy"
"2018-08-01 20:00","2018","08","01","20:00","22.1","","19.6","","86","","26","","19","","24.1","","99.30","","29","","","","NA"
"2018-08-01 21:00","2018","08","01","21:00","21.8","","19.0","","84","","26","","14","","24.1","","99.34","","29","","","","NA"
"2018-08-01 22:00","2018","08","01","22:00","21.2","","18.4","","84","","24","","9","","24.1","","99.36","","28","","","","Cloudy"
"2018-08-01 23:00","2018","08","01","23:00","20.9","","18.1","","84","","25","","16","","24.1","","99.39","","27","","","","NA"
"2018-08-02 00:00","2018","08","02","00:00","20.3","","17.8","","85","","24","","10","","24.1","","99.40","","26","","","","NA"
"2018-08-02 01:00","2018","08","02","01:00","20.5","","18.2","","86","","25","","13","","24.1","","99.43","","27","","","","Mostly Cloudy"
"2018-08-02 02:00","2018","08","02","02:00","19.8","","17.7","","87","","22","","7","","24.1","","99.44","","","","","","NA"
"2018-08-02 03:00","2018","08","02","03:00","19.5","","17.3","","87","","22","","9","","24.1","","99.45","","","","","","NA"
"2018-08-02 04:00","2018","08","02","04:00","19.5","","17.3","","87","","23","","9","","24.1","","99.47","","","","","","Mostly Cloudy"
"2018-08-02 05:00","2018","08","02","05:00","18.5","","16.7","","89","","28","","10","","24.1","","99.50","","","","","","NA"
"2018-08-02 06:00","2018","08","02","06:00","19.0","","17.5","","91","","24","","6","","19.3","","99.55","","","","","","NA"
"2018-08-02 07:00","2018","08","02","07:00","20.3","","18.1","","87","","23","","10","","19.3","","99.63","","26","","","","Mostly Cloudy"
"2018-08-02 08:00","2018","08","02","08:00","22.0","","17.6","","76","","25","","15","","24.1","","99.65","","28","","","","NA"
"2018-08-02 09:00","2018","08","02","09:00","24.0","","17.0","","65","","24","","16","","24.1","","99.64","","29","","","","NA"
"2018-08-02 10:00","2018","08","02","10:00","26.2","","16.3","","54","","23","","11","","24.1","","99.64","","31","","","","Mostly Cloudy"
"2018-08-02 11:00","2018","08","02","11:00","27.1","","15.9","","50","","25","","9","","24.1","","99.63","","32","","","","NA"
"2018-08-02 12:00","2018","08","02","12:00","28.8","","15.2","","43","","25","","17","","24.1","","99.62","","33","","","","NA"
"2018-08-02 13:00","2018","08","02","13:00","28.3","","15.4","","45","","24","","13","","24.1","","99.61","","33","","","","Mostly Cloudy"
"2018-08-02 14:00","2018","08","02","14:00","28.9","","14.2","","40","","21","","21","","24.1","","99.58","","32","","","","NA"
"2018-08-02 15:00","2018","08","02","15:00","29.6","","14.8","","40","","21","","19","","24.1","","99.57","","33","","","","NA"
"2018-08-02 16:00","2018","08","02","16:00","27.7","","19.0","","58","","18","","14","","24.1","","99.54","","34","","","","Mostly Cloudy"
"2018-08-02 17:00","2018","08","02","17:00","27.2","","18.3","","58","","19","","20","","24.1","","99.53","","33","","","","NA"
"2018-08-02 18:00","2018","08","02","18:00","26.9","","17.0","","54","","18","","20","","24.1","","99.52","","32","","","","NA"
"2018-08-02 19:00","2018","08","02","19:00","25.7","","16.5","","56","","25","","19","","24.1","","99.57","","31","","","","Mostly Cloudy"
"2018-08-02 20:00","2018","08","02","20:00","24.5","","16.7","","61","","24","","16","","24.1","","99.64","","30","","","","NA"
"2018-08-02 21:00","2018","08","02","21:00","23.9","","17.1","","65","","24","","14","","24.1","","99.67","","29","","","","NA"
"2018-08-02 22:00","2018","08","02","22:00","23.9","","16.8","","64","","21","","13","","24.1","","99.69","","29","","","","Mostly Cloudy"
"2018-08-02 23:00","2018","08","02","23:00","22.3","","16.3","","68","","24","","8","","24.1","","99.72","","27","","","","NA"
"2018-08-03 00:00","2018","08","03","00:00","21.7","","16.5","","72","","24","","6","","24.1","","99.71","","27","","","","NA"
"2018-08-03 01:00","2018","08","03","01:00","22.4","","16.7","","70","","17","","4","","24.1","","99.70","","27","","","","Mostly Cloudy"
"2018-08-03 02:00","2018","08","03","02:00","21.1","","16.1","","73","","30","","7","","24.1","","99.69","","26","","","","NA"
"2018-08-03 03:00","2018","08","03","03:00","20.7","","16.4","","76","","21","","4","","24.1","","99.70","","26","","","","NA"
"2018-08-03 04:00","2018","08","03","04:00","20.5","","15.7","","74","","36","","3","","24.1","","99.68","","25","","","","Mostly Cloudy"
"2018-08-03 05:00","2018","08","03","05:00","20.8","","15.9","","73","","33","","3","","24.1","","99.72","","25","","","","NA"
"2018-08-03 06:00","2018","08","03","06:00","20.5","","16.5","","78","","24","","4","","19.3","","99.77","","25","","","","NA"
"2018-08-03 07:00","2018","08","03","07:00","22.4","","17.0","","71","","19","","3","","24.1","","99.80","","28","","","","Mostly Cloudy"
"2018-08-03 08:00","2018","08","03","08:00","23.2","","16.5","","66","","18","","5","","24.1","","99.83","","28","","","","NA"
"2018-08-03 09:00","2018","08","03","09:00","24.6","","16.7","","61","","12","","8","","24.1","","99.84","","30","","","","NA"
"2018-08-03 10:00","2018","08","03","10:00","25.6","","16.9","","58","","17","","5","","24.1","","99.82","","31","","","","Mostly Cloudy"
"2018-08-03 11:00","2018","08","03","11:00","26.0","","18.2","","62","","16","","7","","24.1","","99.84","","32","","","","NA"
"2018-08-03 12:00","2018","08","03","12:00","27.4","","19.7","","63","","14","","9","","24.1","","99.82","","35","","","","NA"
"2018-08-03 13:00","2018","08","03","13:00","27.5","","19.2","","60","","14","","15","","24.1","","99.78","","34","","","","Mostly Cloudy"
"2018-08-03 14:00","2018","08","03","14:00","28.5","","19.9","","59","","16","","15","","24.1","","99.72","","36","","","","NA"
"2018-08-03 15:00","2018","08","03","15:00","28.4","","19.8","","59","","15","","18","","24.1","","99.67","","36","","","","NA"
"2018-08-03 16:00","2018","08","03","16:00","27.3","","20.6","","66","","15","","13","","24.1","","99.64","","35","","","","Mostly Cloudy"
"2018-08-03 17:00","2018","08","03","17:00","26.9","","20.4","","67","","14","","17","","24.1","","99.65","","35","","","","NA"
"2018-08-03 18:00","2018","08","03","18:00","25.2","","19.5","","70","","13","","14","","24.1","","99.67","","32","","","","NA"
"2018-08-03 19:00","2018","08","03","19:00","24.5","","20.1","","76","","12","","10","","24.1","","99.70","","32","","","","Mostly Cloudy"
"2018-08-03 20:00","2018","08","03","20:00","23.5","","19.7","","79","","12","","11","","24.1","","99.71","","31","","","","NA"
"2018-08-03 21:00","2018","08","03","21:00","23.1","","19.8","","81","","16","","11","","24.1","","99.72","","31","","","","NA"
"2018-08-03 22:00","2018","08","03","22:00","22.6","","19.6","","83","","15","","8","","24.1","","99.73","","30","","","","Mainly Clear"
"2018-08-03 23:00","2018","08","03","23:00","22.3","","19.3","","83","","9","","5","","24.1","","99.76","","29","","","","NA"
"2018-08-04 00:00","2018","08","04","00:00","22.3","","19.5","","84","","6","","4","","24.1","","99.77","","29","","","","NA"
"2018-08-04 01:00","2018","08","04","01:00","21.6","","19.1","","85","","13","","4","","24.1","","99.71","","28","","","","Clear"
"2018-08-04 02:00","2018","08","04","02:00","20.4","","18.7","","90","","23","","4","","24.1","","99.73","","27","","","","NA"
"2018-08-04 03:00","2018","08","04","03:00","20.1","","18.4","","90","","30","","3","","24.1","","99.71","","26","","","","NA"
"2018-08-04 04:00","2018","08","04","04:00","20.2","","18.6","","90","","35","","8","","24.1","","99.73","","27","","","","Mainly Clear"
"2018-08-04 05:00","2018","08","04","05:00","19.6","","17.8","","89","","2","","8","","19.3","","99.76","","","","","","NA"
"2018-08-04 06:00","2018","08","04","06:00","19.9","","17.9","","88","","28","","4","","24.1","","99.79","","","","","","NA"
"2018-08-04 07:00","2018","08","04","07:00","21.7","","19.1","","85","","15","","5","","24.1","","99.85","","29","","","","Mainly Clear"
"2018-08-04 08:00","2018","08","04","08:00","23.6","","18.7","","74","","36","","2","","16.1","","99.87","","30","","","","NA"
"2018-08-04 09:00","2018","08","04","09:00","25.9","","19.6","","68","","12","","9","","16.1","","99.86","","33","","","","NA"
"2018-08-04 10:00","2018","08","04","10:00","27.2","","19.0","","60","","33","","7","","17.7","","99.86","","34","","","","Cloudy"
"2018-08-04 11:00","2018","08","04","11:00","27.2","","17.9","","56","","14","","4","","19.3","","99.83","","33","","","","NA"
"2018-08-04 12:00","2018","08","04","12:00","28.2","","20.7","","63","","18","","9","","17.7","","99.82","","36","","","","NA"
"2018-08-04 13:00","2018","08","04","13:00","28.6","","20.4","","61","","17","","13","","24.1","","99.79","","37","","","","Cloudy"
"2018-08-04 14:00","2018","08","04","14:00","28.7","","19.8","","58","","13","","15","","24.1","","99.78","","36","","","","NA"
"2018-08-04 15:00","2018","08","04","15:00","31.5","","15.4","","37","","26","","16","","24.1","","99.75","","36","","","","NA"
"2018-08-04 16:00","2018","08","04","16:00","31.1","","15.6","","38","","26","","15","","24.1","","99.75","","35","","","","Mostly Cloudy"
"2018-08-04 17:00","2018","08","04","17:00","30.7","","15.8","","40","","26","","15","","24.1","","99.76","","35","","","","NA"
"2018-08-04 18:00","2018","08","04","18:00","30.1","","15.7","","41","","28","","14","","24.1","","99.76","","35","","","","NA"
"2018-08-04 19:00","2018","08","04","19:00","28.4","","15.7","","45","","28","","14","","24.1","","99.78","","33","","","","Clear"
"2018-08-04 20:00","2018","08","04","20:00","26.9","","14.6","","46","","28","","10","","24.1","","99.80","","31","","","","NA"
"2018-08-04 21:00","2018","08","04","21:00","26.3","","17.5","","58","","36","","2","","24.1","","99.86","","32","","","","NA"
"2018-08-04 22:00","2018","08","04","22:00","25.2","","15.4","","54","","27","","9","","24.1","","99.90","","29","","","","Clear"
"2018-08-04 23:00","2018","08","04","23:00","22.7","","15.9","","65","","26","","9","","24.1","","99.86","","27","","","","NA"
"2018-08-05 00:00","2018","08","05","00:00","22.0","","17.3","","74","","27","","11","","24.1","","99.86","","27","","","","NA"
"2018-08-05 01:00","2018","08","05","01:00","21.7","","17.1","","75","","28","","12","","24.1","","99.88","","27","","","","Clear"
"2018-08-05 02:00","2018","08","05","02:00","21.8","","17.5","","77","","23","","8","","24.1","","99.86","","27","","","","NA"
"2018-08-05 03:00","2018","08","05","03:00","20.1","","16.7","","80","","25","","10","","24.1","","99.86","","25","","","","NA"
"2018-08-05 04:00","2018","08","05","04:00","19.6","","16.6","","83","","25","","10","","24.1","","99.87","","","","","","Clear"
"2018-08-05 05:00","2018","08","05","05:00","19.4","","16.3","","82","","26","","7","","24.1","","99.91","","","","","","NA"
"2018-08-05 06:00","2018","08","05","06:00","20.0","","16.3","","79","","26","","8","","24.1","","99.94","","25","","","","NA"
"2018-08-05 07:00","2018","08","05","07:00","22.7","","17.0","","70","","24","","10","","24.1","","99.96","","28","","","","Cloudy"
"2018-08-05 08:00","2018","08","05","08:00","25.6","","15.8","","54","","24","","11","","24.1","","99.98","","30","","","","NA"
"2018-08-05 09:00","2018","08","05","09:00","28.1","","16.5","","49","","25","","11","","24.1","","99.94","","33","","","","NA"
"2018-08-05 10:00","2018","08","05","10:00","30.0","","18.7","","50","","22","","14","","24.1","","99.91","","37","","","","Cloudy"
"2018-08-05 11:00","2018","08","05","11:00","30.4","","20.3","","54","","15","","10","","24.1","","99.88","","38","","","","NA"
"2018-08-05 12:00","2018","08","05","12:00","30.5","","21.3","","57","","14","","17","","24.1","","99.85","","39","","","","NA"
"2018-08-05 13:00","2018","08","05","13:00","31.5","","21.7","","56","","20","","10","","24.1","","99.84","","41","","","","Cloudy"
"2018-08-05 14:00","2018","08","05","14:00","33.8","","19.0","","41","","24","","18","","24.1","","99.76","","41","","","","NA"
"2018-08-05 15:00","2018","08","05","15:00","34.3","","18.1","","38","","24","","23","","24.1","","99.70","","40","","","","NA"
"2018-08-05 16:00","2018","08","05","16:00","34.2","","18.1","","38","","26","","24","","24.1","","99.69","","40","","","","Mostly Cloudy"
"2018-08-05 17:00","2018","08","05","17:00","33.1","","19.2","","43","","23","","21","","24.1","","99.66","","40","","","","NA"
"2018-08-05 18:00","2018","08","05","18:00","32.0","","19.2","","46","","23","","22","","24.1","","99.62","","39","","","","NA"
"2018-08-05 19:00","2018","08","05","19:00","30.6","","18.2","","47","","23","","24","","24.1","","99.61","","37","","","","Mostly Cloudy"
"2018-08-05 20:00","2018","08","05","20:00","29.0","","18.8","","53","","22","","21","","24.1","","99.65","","36","","","","NA"
"2018-08-05 21:00","2018","08","05","21:00","27.9","","18.4","","56","","22","","18","","24.1","","99.72","","34","","","","NA"
"2018-08-05 22:00","2018","08","05","22:00","26.9","","19.2","","62","","22","","23","","24.1","","99.69","","34","","","","Mainly Clear"
"2018-08-05 23:00","2018","08","05","23:00","26.1","","19.4","","66","","21","","19","","24.1","","99.70","","33","","","","NA"
"2018-08-06 00:00","2018","08","06","00:00","26.0","","19.5","","67","","23","","18","","24.1","","99.71","","33","","","","NA"
"2018-08-06 01:00","2018","08","06","01:00","25.5","","19.6","","69","","22","","17","","24.1","","99.67","","33","","","","Mainly Clear"
"2018-08-06 02:00","2018","08","06","02:00","25.0","","19.6","","72","","24","","14","","24.1","","99.61","","32","","","","NA"
"2018-08-06 03:00","2018","08","06","03:00","24.3","","19.5","","74","","24","","12","","24.1","","99.57","","31","","","","NA"
"2018-08-06 04:00","2018","08","06","04:00","24.3","","19.5","","74","","24","","15","","24.1","","99.55","","31","","","","Mainly Clear"
"2018-08-06 05:00","2018","08","06","05:00","24.1","","19.4","","75","","24","","14","","24.1","","99.59","","31","","","","NA"
"2018-08-06 06:00","2018","08","06","06:00","24.2","","19.9","","76","","25","","13","","24.1","","99.60","","32","","","","NA"
"2018-08-06 07:00","2018","08","06","07:00","25.9","","20.3","","71","","25","","14","","24.1","","99.65","","34","","","","Mostly Cloudy"
"2018-08-06 08:00","2018","08","06","08:00","27.8","","21.0","","66","","25","","17","","24.1","","99.63","","36","","","","NA"
"2018-08-06 09:00","2018","08","06","09:00","29.8","","21.0","","58","","24","","13","","24.1","","99.61","","38","","","","NA"
"2018-08-06 10:00","2018","08","06","10:00","31.2","","20.9","","53","","24","","19","","24.1","","99.56","","40","","","","Cloudy"
"2018-08-06 11:00","2018","08","06","11:00","33.0","","19.3","","44","","25","","21","","24.1","","99.57","","40","","","","NA"
"2018-08-06 12:00","2018","08","06","12:00","32.9","","18.3","","41","","26","","29","","24.1","","99.56","","39","","","","NA"
"2018-08-06 13:00","2018","08","06","13:00","32.3","","18.6","","44","","27","","15","","24.1","","99.47","","39","","","","Mostly Cloudy"
"2018-08-06 14:00","2018","08","06","14:00","24.6","","18.2","","67","","21","","44","","16.1","","99.64","","31","","","","Thunderstorms,Rain Showers"
"2018-08-06 15:00","2018","08","06","15:00","22.5","","20.9","","90","","12","","4","","24.1","","99.61","","31","","","","Thunderstorms,Moderate Rain Showers"
"2018-08-06 16:00","2018","08","06","16:00","25.0","","22.9","","88","","21","","9","","24.1","","99.52","","35","","","","Cloudy"
"2018-08-06 17:00","2018","08","06","17:00","26.7","","21.6","","73","","24","","10","","24.1","","99.49","","36","","","","NA"
"2018-08-06 18:00","2018","08","06","18:00","26.1","","20.7","","72","","22","","10","","24.1","","99.47","","34","","","","NA"
"2018-08-06 19:00","2018","08","06","19:00","24.8","","21.8","","83","","16","","8","","19.3","","99.41","","34","","","","Mostly Cloudy"
"2018-08-06 20:00","2018","08","06","20:00","24.6","","21.8","","85","","20","","9","","24.1","","99.42","","34","","","","NA"
"2018-08-06 21:00","2018","08","06","21:00","24.7","","20.7","","78","","22","","7","","24.1","","99.41","","33","","","","NA"
"2018-08-06 22:00","2018","08","06","22:00","24.6","","19.8","","74","","23","","10","","24.1","","99.37","","32","","","","Mostly Cloudy"
"2018-08-06 23:00","2018","08","06","23:00","22.7","","19.9","","84","","24","","18","","16.1","","99.39","","30","","","","Thunderstorms,Rain Showers"
"2018-08-07 00:00","2018","08","07","00:00","22.3","","20.7","","91","","22","","18","","24.1","","99.32","","30","","","","NA"
"2018-08-07 01:00","2018","08","07","01:00","22.0","","20.5","","91","","24","","12","","24.1","","99.32","","30","","","","Mostly Cloudy"
"2018-08-07 02:00","2018","08","07","02:00","21.8","","20.2","","91","","30","","15","","24.1","","99.27","","30","","","","NA"
"2018-08-07 03:00","2018","08","07","03:00","21.6","","19.8","","89","","31","","10","","24.1","","99.30","","29","","","","NA"
"2018-08-07 04:00","2018","08","07","04:00","21.4","","19.7","","89","","32","","6","","24.1","","99.31","","29","","","","Rain"
"2018-08-07 05:00","2018","08","07","05:00","21.4","","19.8","","90","","26","","3","","24.1","","99.32","","29","","","","NA"
"2018-08-07 06:00","2018","08","07","06:00","21.6","","19.7","","88","","27","","7","","24.1","","99.35","","29","","","","NA"
"2018-08-07 07:00","2018","08","07","07:00","21.9","","19.3","","85","","28","","9","","24.1","","99.37","","29","","","","Mostly Cloudy"
"2018-08-07 08:00","2018","08","07","08:00","22.9","","19.2","","80","","31","","13","","24.1","","99.35","","30","","","","NA"
"2018-08-07 09:00","2018","08","07","09:00","23.5","","19.5","","78","","31","","6","","24.1","","99.38","","31","","","","NA"
"2018-08-07 10:00","2018","08","07","10:00","24.8","","19.5","","72","","29","","6","","24.1","","99.40","","32","","","","Mostly Cloudy"
"2018-08-07 11:00","2018","08","07","11:00","25.4","","19.1","","68","","36","","2","","24.1","","99.40","","32","","","","NA"
"2018-08-07 12:00","2018","08","07","12:00","26.6","","19.3","","64","","36","","2","","24.1","","99.39","","34","","","","NA"
"2018-08-07 13:00","2018","08","07","13:00","26.4","","19.7","","66","","14","","13","","24.1","","99.34","","34","","","","Mostly Cloudy"
"2018-08-07 14:00","2018","08","07","14:00","27.5","","20.7","","66","","14","","17","","24.1","","99.29","","36","","","","NA"
"2018-08-07 15:00","2018","08","07","15:00","26.8","","20.0","","66","","15","","13","","24.1","","99.24","","34","","","","NA"
"2018-08-07 16:00","2018","08","07","16:00","27.3","","20.0","","64","","13","","13","","24.1","","99.19","","35","","","","Mostly Cloudy"
"2018-08-07 17:00","2018","08","07","17:00","26.6","","19.6","","65","","15","","14","","24.1","","99.18","","34","","","","NA"
"2018-08-07 18:00","2018","08","07","18:00","26.2","","20.3","","69","","16","","12","","24.1","","99.16","","34","","","","NA"
"2018-08-07 19:00","2018","08","07","19:00","25.1","","21.3","","79","","14","","12","","24.1","","99.21","","34","","","","Rain Showers"
"2018-08-07 20:00","2018","08","07","20:00","23.5","","20.8","","84","","2","","24","","19.3","","99.28","","32","","","","Heavy Rain Showers"
"2018-08-07 21:00","2018","08","07","21:00","21.1","","19.0","","87","","8","","16","","24.1","","99.32","","28","","","","Rain Showers"
"2018-08-07 22:00","2018","08","07","22:00","20.8","","18.2","","85","","7","","8","","24.1","","99.28","","27","","","","Mostly Cloudy"
"2018-08-07 23:00","2018","08","07","23:00","20.9","","18.6","","86","","35","","7","","24.1","","99.23","","27","","","","NA"
"2018-08-08 00:00","2018","08","08","00:00","21.4","","18.7","","84","","35","","12","","24.1","","99.23","","28","","","","NA"
"2018-08-08 01:00","2018","08","08","01:00","21.1","","18.5","","85","","4","","5","","24.1","","99.23","","27","","","","Mainly Clear"
"2018-08-08 02:00","2018","08","08","02:00","21.7","","19.1","","85","","6","","3","","24.1","","99.20","","29","","","","NA"
"2018-08-08 03:00","2018","08","08","03:00","21.3","","19.2","","88","","33","","10","","19.3","","99.15","","28","","","","NA"
"2018-08-08 04:00","2018","08","08","04:00","21.7","","19.3","","86","","1","","7","","19.3","","99.08","","29","","","","Cloudy"
"2018-08-08 05:00","2018","08","08","05:00","21.8","","19.9","","89","","36","","2","","12.9","","99.11","","29","","","","NA"
"2018-08-08 06:00","2018","08","08","06:00","22.1","","20.6","","91","","34","","5","","9.7","","99.15","","30","","","","Rain"
"2018-08-08 07:00","2018","08","08","07:00","21.7","","20.4","","92","","2","","9","","8.1","","99.11","","30","","","","Moderate Rain"
"2018-08-08 08:00","2018","08","08","08:00","22.3","","21.2","","93","","6","","4","","8.1","","99.12","","31","","","","Fog"
"2018-08-08 09:00","2018","08","08","09:00","22.1","","21.1","","94","","32","","14","","8.1","","99.10","","31","","","","Rain,Fog"
"2018-08-08 10:00","2018","08","08","10:00","22.7","","21.8","","94","","11","","14","","9.7","","99.03","","32","","","","Fog"
"2018-08-08 11:00","2018","08","08","11:00","23.6","","22.5","","93","","17","","11","","12.9","","99.02","","33","","","","NA"
"2018-08-08 12:00","2018","08","08","12:00","24.6","","21.5","","83","","19","","3","","16.1","","99.01","","33","","","","NA"
"2018-08-08 13:00","2018","08","08","13:00","24.0","","20.8","","82","","27","","9","","19.3","","98.95","","32","","","","Heavy Rain Showers"
"2018-08-08 14:00","2018","08","08","14:00","22.6","","21.1","","91","","3","","12","","16.1","","98.93","","31","","","","Thunderstorms"
"2018-08-08 15:00","2018","08","08","15:00","23.4","","21.6","","90","","5","","7","","16.1","","98.87","","32","","","","NA"
"2018-08-08 16:00","2018","08","08","16:00","24.1","","21.6","","85","","36","","2","","16.1","","98.83","","33","","","","Mostly Cloudy"
"2018-08-08 17:00","2018","08","08","17:00","25.2","","21.2","","78","","6","","8","","19.3","","98.82","","34","","","","NA"
"2018-08-08 18:00","2018","08","08","18:00","24.0","","20.2","","79","","34","","9","","1.2","","98.85","","32","","","","Thunderstorms,Heavy Rain Showers"
"2018-08-08 19:00","2018","08","08","19:00","22.0","","20.6","","92","","35","","17","","24.1","","98.87","","30","","","","Mostly Cloudy"
"2018-08-08 20:00","2018","08","08","20:00","22.4","","19.7","","85","","35","","14","","24.1","","98.93","","30","","","","NA"
"2018-08-08 21:00","2018","08","08","21:00","22.3","","18.7","","80","","35","","13","","24.1","","98.98","","29","","","","NA"
"2018-08-08 22:00","2018","08","08","22:00","21.7","","18.5","","81","","31","","10","","24.1","","99.01","","28","","","","Mostly Cloudy"
"2018-08-08 23:00","2018","08","08","23:00","21.4","","19.0","","86","","34","","14","","24.1","","99.01","","28","","","","NA"
"2018-08-09 00:00","2018","08","09","00:00","19.9","","17.5","","86","","31","","9","","24.1","","99.02","","","","","","NA"
"2018-08-09 01:00","2018","08","09","01:00","17.4","","15.3","","87","","28","","11","","24.1","","99.04","","","","","","Mostly Cloudy"
"2018-08-09 02:00","2018","08","09","02:00","17.8","","15.3","","85","","30","","9","","24.1","","99.05","","","","","","NA"
"2018-08-09 03:00","2018","08","09","03:00","17.4","","14.7","","84","","29","","10","","24.1","","99.02","","","","","","NA"
"2018-08-09 04:00","2018","08","09","04:00","17.2","","14.8","","86","","30","","10","","24.1","","99.00","","","","","","Mostly Cloudy"
"2018-08-09 05:00","2018","08","09","05:00","17.3","","14.6","","84","","30","","12","","24.1","","99.01","","","","","","NA"
"2018-08-09 06:00","2018","08","09","06:00","18.4","","14.3","","77","","30","","12","","24.1","","99.07","","","","","","NA"
"2018-08-09 07:00","2018","08","09","07:00","19.9","","14.9","","73","","25","","5","","24.1","","99.10","","","","","","Clear"
"2018-08-09 08:00","2018","08","09","08:00","23.0","","15.3","","61","","26","","8","","24.1","","99.12","","27","","","","NA"
"2018-08-09 09:00","2018","08","09","09:00","24.7","","19.0","","70","","24","","16","","24.1","","99.10","","31","","","","NA"
"2018-08-09 10:00","2018","08","09","10:00","25.8","","19.6","","68","","25","","18","","24.1","","99.11","","33","","","","Clear"
"2018-08-09 11:00","2018","08","09","11:00","26.9","","18.4","","59","","27","","17","","24.1","","99.09","","33","","","","NA"
"2018-08-09 12:00","2018","08","09","12:00","28.3","","18.6","","55","","26","","21","","24.1","","99.04","","35","","","","NA"
"2018-08-09 13:00","2018","08","09","13:00","28.9","","18.1","","52","","27","","21","","24.1","","99.03","","35","","","","Mainly Clear"
"2018-08-09 14:00","2018","08","09","14:00","28.4","","17.9","","52","","25","","19","","24.1","","99.00","","34","","","","NA"
"2018-08-09 15:00","2018","08","09","15:00","29.3","","18.4","","51","","24","","21","","24.1","","98.98","","36","","","","NA"
"2018-08-09 16:00","2018","08","09","16:00","28.5","","17.6","","51","","23","","22","","24.1","","98.93","","34","","","","Mostly Cloudy"
"2018-08-09 17:00","2018","08","09","17:00","28.6","","17.4","","50","","24","","26","","24.1","","98.94","","34","","","","NA"
"2018-08-09 18:00","2018","08","09","18:00","26.9","","16.7","","53","","28","","25","","24.1","","98.97","","32","","","","NA"
"2018-08-09 19:00","2018","08","09","19:00","25.5","","17.2","","60","","1","","9","","24.1","","98.99","","31","","","","Mostly Cloudy"
"2018-08-09 20:00","2018","08","09","20:00","23.9","","18.7","","72","","3","","13","","24.1","","99.02","","30","","","","NA"
"2018-08-09 21:00","2018","08","09","21:00","22.1","","19.5","","85","","32","","8","","16.1","","99.14","","29","","","","NA"
"2018-08-09 22:00","2018","08","09","22:00","22.1","","19.7","","86","","34","","14","","24.1","","99.17","","29","","","","Mostly Cloudy"
"2018-08-09 23:00","2018","08","09","23:00","21.6","","19.3","","87","","34","","19","","24.1","","99.18","","29","","","","NA"
"2018-08-10 00:00","2018","08","10","00:00","21.1","","19.0","","88","","34","","21","","24.1","","99.20","","28","","","","NA"
"2018-08-10 01:00","2018","08","10","01:00","20.4","","18.6","","89","","1","","20","","24.1","","99.21","","27","","","","Clear"
"2018-08-10 02:00","2018","08","10","02:00","19.7","","16.6","","82","","3","","17","","24.1","","99.25","","","","","","NA"
"2018-08-10 03:00","2018","08","10","03:00","18.8","","14.6","","76","","2","","13","","24.1","","99.30","","","","","","NA"
"2018-08-10 04:00","2018","08","10","04:00","18.0","","14.0","","77","","2","","10","","24.1","","99.36","","","","","","Clear"
"2018-08-10 05:00","2018","08","10","05:00","17.3","","14.4","","83","","35","","14","","24.1","","99.39","","","","","","NA"
"2018-08-10 06:00","2018","08","10","06:00","17.6","","14.5","","82","","36","","13","","24.1","","99.44","","","","","","NA"
"2018-08-10 07:00","2018","08","10","07:00","19.1","","14.3","","74","","2","","13","","24.1","","99.49","","","","","","Mainly Clear"
"2018-08-10 08:00","2018","08","10","08:00","21.1","","14.1","","64","","5","","19","","24.1","","99.50","","25","","","","NA"
"2018-08-10 09:00","2018","08","10","09:00","22.4","","13.2","","56","","6","","16","","24.1","","99.51","","25","","","","NA"
"2018-08-10 10:00","2018","08","10","10:00","23.1","","12.5","","51","","6","","12","","24.1","","99.50","","26","","","","Mostly Cloudy"
"2018-08-10 11:00","2018","08","10","11:00","24.3","","12.3","","47","","5","","17","","24.1","","99.50","","27","","","","NA"
"2018-08-10 12:00","2018","08","10","12:00","24.1","","12.9","","49","","15","","16","","24.1","","99.50","","27","","","","NA"
"2018-08-10 13:00","2018","08","10","13:00","23.9","","12.7","","49","","14","","18","","24.1","","99.48","","27","","","","Mostly Cloudy"
"2018-08-10 14:00","2018","08","10","14:00","24.4","","13.8","","51","","14","","16","","24.1","","99.45","","28","","","","NA"
"2018-08-10 15:00","2018","08","10","15:00","24.3","","13.5","","50","","14","","14","","24.1","","99.41","","27","","","","NA"
"2018-08-10 16:00","2018","08","10","16:00","23.9","","13.2","","51","","14","","16","","24.1","","99.38","","27","","","","Mainly Clear"
"2018-08-10 17:00","2018","08","10","17:00","24.2","","12.6","","48","","13","","11","","24.1","","99.34","","27","","","","NA"
"2018-08-10 18:00","2018","08","10","18:00","23.9","","12.7","","49","","14","","11","","24.1","","99.33","","27","","","","NA"
"2018-08-10 19:00","2018","08","10","19:00","22.9","","12.7","","52","","14","","11","","24.1","","99.33","","26","","","","Mainly Clear"
"2018-08-10 20:00","2018","08","10","20:00","22.0","","12.5","","55","","16","","5","","24.1","","99.38","","25","","","","NA"
"2018-08-10 21:00","2018","08","10","21:00","21.6","","13.1","","58","","16","","4","","24.1","","99.40","","","","","","NA"
"2018-08-10 22:00","2018","08","10","22:00","21.0","","13.6","","62","","23","","3","","24.1","","99.41","","","","","","Mainly Clear"
"2018-08-10 23:00","2018","08","10","23:00","21.1","","13.9","","63","","","","0","","24.1","","99.42","","","","","","NA"
"2018-08-11 00:00","2018","08","11","00:00","21.5","","13.9","","62","","21","","7","","24.1","","99.42","","25","","","","NA"
"2018-08-11 01:00","2018","08","11","01:00","19.2","","13.2","","68","","2","","7","","24.1","","99.42","","","","","","Clear"
"2018-08-11 02:00","2018","08","11","02:00","18.8","","13.6","","71","","34","","5","","24.1","","99.39","","","","","","NA"
"2018-08-11 03:00","2018","08","11","03:00","16.9","","13.0","","77","","2","","8","","24.1","","99.37","","","","","","NA"
"2018-08-11 04:00","2018","08","11","04:00","16.8","","12.9","","78","","1","","5","","24.1","","99.35","","","","","","Clear"
"2018-08-11 05:00","2018","08","11","05:00","16.0","","12.5","","79","","36","","9","","24.1","","99.37","","","","","","NA"
"2018-08-11 06:00","2018","08","11","06:00","17.8","","13.2","","74","","35","","4","","24.1","","99.40","","","","","","NA"
"2018-08-11 07:00","2018","08","11","07:00","19.7","","13.9","","69","","31","","3","","24.1","","99.43","","","","","","Mainly Clear"
"2018-08-11 08:00","2018","08","11","08:00","21.9","","14.3","","61","","30","","7","","24.1","","99.45","","25","","","","NA"
"2018-08-11 09:00","2018","08","11","09:00","23.4","","12.2","","49","","36","","2","","24.1","","99.47","","26","","","","NA"
"2018-08-11 10:00","2018","08","11","10:00","24.9","","12.1","","44","","14","","4","","24.1","","99.52","","27","","","","Mainly Clear"
"2018-08-11 11:00","2018","08","11","11:00","25.5","","12.2","","43","","13","","7","","24.1","","99.52","","28","","","","NA"
"2018-08-11 12:00","2018","08","11","12:00","25.7","","13.4","","46","","16","","14","","24.1","","99.52","","29","","","","NA"
"2018-08-11 13:00","2018","08","11","13:00","25.8","","13.2","","45","","17","","13","","24.1","","99.49","","29","","","","Mainly Clear"
"2018-08-11 14:00","2018","08","11","14:00","26.2","","12.8","","43","","17","","15","","24.1","","99.49","","29","","","","NA"
"2018-08-11 15:00","2018","08","11","15:00","26.4","","13.2","","44","","14","","13","","24.1","","99.44","","29","","","","NA"
"2018-08-11 16:00","2018","08","11","16:00","25.1","","11.9","","43","","16","","14","","24.1","","99.43","","27","","","","Mainly Clear"
"2018-08-11 17:00","2018","08","11","17:00","25.3","","10.9","","40","","15","","14","","24.1","","99.42","","27","","","","NA"
"2018-08-11 18:00","2018","08","11","18:00","24.1","","10.8","","43","","16","","11","","24.1","","99.43","","26","","","","NA"
"2018-08-11 19:00","2018","08","11","19:00","23.6","","10.3","","42","","34","","12","","24.1","","99.56","","25","","","","Rain Showers"
"2018-08-11 20:00","2018","08","11","20:00","19.1","","15.2","","78","","20","","4","","16.1","","99.55","","","","","","Rain Showers"
"2018-08-11 21:00","2018","08","11","21:00","19.7","","16.6","","82","","23","","7","","24.1","","99.59","","","","","","NA"
"2018-08-11 22:00","2018","08","11","22:00","20.1","","17.1","","82","","30","","9","","24.1","","99.61","","25","","","","Mostly Cloudy"
"2018-08-11 23:00","2018","08","11","23:00","20.2","","16.5","","79","","1","","11","","24.1","","99.61","","25","","","","NA"
"2018-08-12 00:00","2018","08","12","00:00","20.0","","16.5","","80","","36","","12","","24.1","","99.66","","25","","","","NA"
"2018-08-12 01:00","2018","08","12","01:00","19.8","","16.0","","79","","2","","4","","24.1","","99.64","","","","","","Mostly Cloudy"
"2018-08-12 02:00","2018","08","12","02:00","19.7","","15.4","","76","","1","","12","","24.1","","99.65","","","","","","NA"
"2018-08-12 03:00","2018","08","12","03:00","19.8","","15.3","","75","","35","","7","","24.1","","99.68","","","","","","NA"
"2018-08-12 04:00","2018","08","12","04:00","18.6","","15.3","","81","","32","","10","","24.1","","99.70","","","","","","Mostly Cloudy"
"2018-08-12 05:00","2018","08","12","05:00","18.9","","14.9","","77","","35","","9","","24.1","","99.76","","","","","","NA"
"2018-08-12 06:00","2018","08","12","06:00","19.0","","15.3","","79","","34","","12","","24.1","","99.80","","","","","","NA"
"2018-08-12 07:00","2018","08","12","07:00","19.8","","16.2","","79","","4","","8","","24.1","","99.85","","","","","","Mainly Clear"
"2018-08-12 08:00","2018","08","12","08:00","22.1","","16.2","","69","","36","","1","","24.1","","99.89","","27","","","","NA"
"2018-08-12 09:00","2018","08","12","09:00","23.9","","16.9","","64","","10","","3","","24.1","","99.90","","29","","","","NA"
"2018-08-12 10:00","2018","08","12","10:00","25.3","","16.9","","59","","2","","5","","24.1","","99.94","","31","","","","Clear"
"2018-08-12 11:00","2018","08","12","11:00","26.7","","17.3","","56","","25","","5","","24.1","","99.92","","32","","","","NA"
"2018-08-12 12:00","2018","08","12","12:00","27.0","","17.1","","54","","17","","6","","24.1","","99.90","","32","","","","NA"
"2018-08-12 13:00","2018","08","12","13:00","27.1","","16.4","","51","","17","","12","","24.1","","99.89","","32","","","","Mainly Clear"
"2018-08-12 14:00","2018","08","12","14:00","27.2","","15.2","","47","","15","","13","","24.1","","99.87","","31","","","","NA"
"2018-08-12 15:00","2018","08","12","15:00","26.7","","15.0","","48","","16","","13","","24.1","","99.84","","31","","","","NA"
"2018-08-12 16:00","2018","08","12","16:00","26.6","","15.3","","49","","16","","14","","24.1","","99.80","","31","","","","Mainly Clear"
"2018-08-12 17:00","2018","08","12","17:00","26.1","","15.5","","51","","14","","10","","24.1","","99.81","","30","","","","NA"
"2018-08-12 18:00","2018","08","12","18:00","25.3","","14.2","","50","","14","","11","","24.1","","99.80","","29","","","","NA"
"2018-08-12 19:00","2018","08","12","19:00","24.6","","14.0","","51","","14","","8","","24.1","","99.82","","28","","","","Mainly Clear"
"2018-08-12 20:00","2018","08","12","20:00","24.6","","13.8","","50","","14","","4","","24.1","","99.85","","28","","","","NA"
"2018-08-12 21:00","2018","08","12","21:00","24.2","","14.1","","53","","17","","3","","24.1","","99.90","","28","","","","NA"
"2018-08-12 22:00","2018","08","12","22:00","23.2","","14.2","","57","","30","","3","","24.1","","99.90","","27","","","","Clear"
"2018-08-12 23:00","2018","08","12","23:00","21.7","","14.8","","64","","33","","8","","24.1","","99.92","","26","","","","NA"
"2018-08-13 00:00","2018","08","13","00:00","21.2","","15.8","","71","","34","","11","","24.1","","99.95","","26","","","","NA"
"2018-08-13 01:00","2018","08","13","01:00","20.8","","16.9","","78","","36","","1","","24.1","","99.91","","26","","","","Mainly Clear"
"2018-08-13 02:00","2018","08","13","02:00","20.4","","17.3","","82","","34","","9","","24.1","","99.87","","26","","","","NA"
"2018-08-13 03:00","2018","08","13","03:00","19.9","","17.4","","85","","34","","14","","24.1","","99.83","","","","","","NA"
"2018-08-13 04:00","2018","08","13","04:00","19.6","","17.4","","87","","36","","15","","24.1","","99.81","","","","","","Clear"
"2018-08-13 05:00","2018","08","13","05:00","19.3","","17.3","","88","","35","","8","","24.1","","99.80","","","","","","NA"
"2018-08-13 06:00","2018","08","13","06:00","19.5","","17.3","","87","","34","","8","","24.1","","99.85","","","","","","NA"
"2018-08-13 07:00","2018","08","13","07:00","20.6","","18.0","","85","","33","","11","","24.1","","99.87","","27","","","","Mostly Cloudy"
"2018-08-13 08:00","2018","08","13","08:00","23.1","","17.8","","72","","1","","8","","24.1","","99.86","","29","","","","NA"
"2018-08-13 09:00","2018","08","13","09:00","25.0","","17.8","","64","","7","","3","","24.1","","99.84","","31","","","","NA"
"2018-08-13 10:00","2018","08","13","10:00","26.6","","15.5","","50","","35","","6","","24.1","","99.84","","31","","","","Mostly Cloudy"
"2018-08-13 11:00","2018","08","13","11:00","25.5","","16.6","","58","","17","","11","","24.1","","99.81","","31","","","","NA"
"2018-08-13 12:00","2018","08","13","12:00","26.1","","16.3","","54","","13","","5","","24.1","","99.73","","31","","","","NA"
"2018-08-13 13:00","2018","08","13","13:00","26.7","","16.1","","52","","2","","12","","24.1","","99.71","","31","","","","Mostly Cloudy"
"2018-08-13 14:00","2018","08","13","14:00","26.6","","15.3","","49","","4","","13","","24.1","","99.64","","31","","","","NA"
"2018-08-13 15:00","2018","08","13","15:00","25.9","","17.0","","57","","16","","11","","24.1","","99.57","","31","","","","NA"
"2018-08-13 16:00","2018","08","13","16:00","25.5","","17.7","","62","","16","","5","","24.1","","99.54","","31","","","","Mostly Cloudy"
"2018-08-13 17:00","2018","08","13","17:00","25.2","","17.2","","60","","17","","8","","24.1","","99.51","","31","","","","NA"
"2018-08-13 18:00","2018","08","13","18:00","25.2","","17.2","","61","","18","","9","","24.1","","99.49","","31","","","","NA"
"2018-08-13 19:00","2018","08","13","19:00","24.7","","17.2","","62","","25","","12","","24.1","","99.45","","30","","","","Mostly Cloudy"
"2018-08-13 20:00","2018","08","13","20:00","23.4","","16.7","","66","","25","","8","","24.1","","99.44","","28","","","","NA"
"2018-08-13 21:00","2018","08","13","21:00","23.8","","18.0","","70","","27","","9","","24.1","","99.47","","30","","","","NA"
"2018-08-13 22:00","2018","08","13","22:00","24.6","","17.1","","62","","35","","15","","24.1","","99.43","","30","","","","Cloudy"
"2018-08-13 23:00","2018","08","13","23:00","24.0","","16.6","","63","","35","","13","","24.1","","99.43","","29","","","","NA"
"2018-08-14 00:00","2018","08","14","00:00","23.2","","17.0","","68","","32","","13","","24.1","","99.42","","28","","","","NA"
"2018-08-14 01:00","2018","08","14","01:00","23.0","","15.8","","63","","32","","12","","24.1","","99.39","","27","","","","Mostly Cloudy"
"2018-08-14 02:00","2018","08","14","02:00","23.0","","15.1","","61","","34","","18","","24.1","","99.32","","27","","","","NA"
"2018-08-14 03:00","2018","08","14","03:00","21.8","","15.4","","66","","34","","13","","24.1","","99.30","","26","","","","NA"
"2018-08-14 04:00","2018","08","14","04:00","21.4","","15.3","","68","","34","","13","","24.1","","99.30","","26","","","","Mostly Cloudy"
"2018-08-14 05:00","2018","08","14","05:00","21.2","","14.6","","66","","34","","18","","24.1","","99.28","","25","","","","NA"
"2018-08-14 06:00","2018","08","14","06:00","20.6","","14.9","","70","","35","","16","","24.1","","99.30","","25","","","","NA"
"2018-08-14 07:00","2018","08","14","07:00","21.4","","15.6","","69","","34","","18","","24.1","","99.29","","26","","","","Mostly Cloudy"
"2018-08-14 08:00","2018","08","14","08:00","22.1","","15.6","","66","","35","","22","","24.1","","99.29","","26","","","","NA"
"2018-08-14 09:00","2018","08","14","09:00","22.9","","16.5","","67","","34","","22","","24.1","","99.27","","28","","","","NA"
"2018-08-14 10:00","2018","08","14","10:00","25.1","","16.1","","57","","34","","16","","24.1","","99.25","","30","","","","Mostly Cloudy"
"2018-08-14 11:00","2018","08","14","11:00","27.1","","16.6","","52","","34","","7","","24.1","","99.24","","32","","","","NA"
"2018-08-14 12:00","2018","08","14","12:00","29.1","","15.7","","43","","30","","9","","24.1","","99.19","","34","","","","NA"
"2018-08-14 13:00","2018","08","14","13:00","29.6","","14.8","","40","","21","","8","","24.1","","99.16","","33","","","","Mostly Cloudy"
"2018-08-14 14:00","2018","08","14","14:00","30.1","","13.8","","36","","35","","12","","24.1","","99.08","","33","","","","NA"
"2018-08-14 15:00","2018","08","14","15:00","29.6","","13.6","","37","","30","","16","","24.1","","99.03","","33","","","","NA"
"2018-08-14 16:00","2018","08","14","16:00","30.8","","14.1","","35","","29","","23","","24.1","","99.00","","34","","","","Mostly Cloudy"
"2018-08-14 17:00","2018","08","14","17:00","30.4","","15.0","","39","","32","","21","","24.1","","98.98","","34","","","","NA"
"2018-08-14 18:00","2018","08","14","18:00","29.5","","17.4","","48","","32","","30","","24.1","","99.03","","35","","","","NA"
"2018-08-14 19:00","2018","08","14","19:00","28.2","","16.8","","49","","31","","23","","24.1","","99.07","","33","","","","Mainly Clear"
"2018-08-14 20:00","2018","08","14","20:00","26.4","","16.2","","53","","30","","19","","24.1","","99.07","","31","","","","NA"
"2018-08-14 21:00","2018","08","14","21:00","24.2","","15.4","","58","","28","","15","","24.1","","99.09","","28","","","","NA"
"2018-08-14 22:00","2018","08","14","22:00","23.2","","15.5","","61","","28","","9","","24.1","","99.13","","27","","","","Mainly Clear"
"2018-08-14 23:00","2018","08","14","23:00","22.9","","16.3","","66","","30","","15","","24.1","","99.16","","28","","","","NA"
"2018-08-15 00:00","2018","08","15","00:00","22.0","","16.4","","70","","27","","8","","24.1","","99.17","","27","","","","NA"
"2018-08-15 01:00","2018","08","15","01:00","21.9","","16.7","","72","","28","","11","","24.1","","99.14","","27","","","","Mainly Clear"
"2018-08-15 02:00","2018","08","15","02:00","20.6","","16.7","","78","","26","","9","","24.1","","99.13","","26","","","","NA"
"2018-08-15 03:00","2018","08","15","03:00","20.5","","17.0","","80","","27","","7","","24.1","","99.13","","26","","","","NA"
"2018-08-15 04:00","2018","08","15","04:00","20.5","","16.6","","78","","28","","8","","24.1","","99.14","","26","","","","Clear"
"2018-08-15 05:00","2018","08","15","05:00","20.7","","17.0","","79","","28","","10","","24.1","","99.16","","26","","","","NA"
"2018-08-15 06:00","2018","08","15","06:00","21.7","","18.0","","79","","28","","14","","24.1","","99.19","","28","","","","NA"
"2018-08-15 07:00","2018","08","15","07:00","24.1","","18.3","","69","","32","","17","","24.1","","99.25","","30","","","","Mostly Cloudy"
"2018-08-15 08:00","2018","08","15","08:00","26.1","","18.4","","62","","31","","18","","24.1","","99.28","","32","","","","NA"
"2018-08-15 09:00","2018","08","15","09:00","27.8","","18.7","","57","","31","","17","","24.1","","99.28","","34","","","","NA"
"2018-08-15 10:00","2018","08","15","10:00","29.5","","18.2","","50","","31","","18","","24.1","","99.30","","36","","","","Cloudy"
"2018-08-15 11:00","2018","08","15","11:00","30.4","","18.4","","48","","28","","19","","24.1","","99.29","","37","","","","NA"
"2018-08-15 12:00","2018","08","15","12:00","30.4","","19.2","","51","","26","","23","","24.1","","99.29","","37","","","","NA"
"2018-08-15 13:00","2018","08","15","13:00","30.9","","19.7","","51","","28","","22","","24.1","","99.31","","38","","","","Cloudy"
"2018-08-15 14:00","2018","08","15","14:00","30.4","","18.6","","48","","27","","23","","24.1","","99.31","","37","","","","NA"
"2018-08-15 15:00","2018","08","15","15:00","30.8","","18.0","","46","","28","","21","","24.1","","99.29","","37","","","","NA"
"2018-08-15 16:00","2018","08","15","16:00","29.9","","16.6","","44","","26","","25","","24.1","","99.26","","35","","","","Cloudy"
"2018-08-15 17:00","2018","08","15","17:00","29.1","","16.7","","46","","27","","29","","24.1","","99.28","","34","","","","NA"
"2018-08-15 18:00","2018","08","15","18:00","28.5","","17.8","","52","","28","","20","","24.1","","99.28","","34","","","","NA"
"2018-08-15 19:00","2018","08","15","19:00","27.6","","17.7","","54","","28","","22","","24.1","","99.34","","33","","","","Mainly Clear"
"2018-08-15 20:00","2018","08","15","20:00","26.4","","17.9","","59","","28","","18","","24.1","","99.42","","32","","","","NA"
"2018-08-15 21:00","2018","08","15","21:00","24.4","","17.6","","65","","27","","9","","24.1","","99.47","","30","","","","NA"
"2018-08-15 22:00","2018","08","15","22:00","23.4","","18.3","","73","","28","","10","","24.1","","99.48","","30","","","","Mainly Clear"
"2018-08-15 23:00","2018","08","15","23:00","22.7","","18.0","","75","","24","","12","","24.1","","99.49","","29","","","","NA"
"2018-08-16 00:00","2018","08","16","00:00","21.8","","17.8","","78","","26","","10","","24.1","","99.52","","28","","","","NA"
"2018-08-16 01:00","2018","08","16","01:00","22.0","","18.6","","81","","28","","9","","24.1","","99.54","","28","","","","Clear"
"2018-08-16 02:00","2018","08","16","02:00","20.6","","17.5","","82","","27","","9","","24.1","","99.55","","26","","","","NA"
"2018-08-16 03:00","2018","08","16","03:00","22.4","","18.8","","80","","31","","5","","24.1","","99.54","","29","","","","NA"
"2018-08-16 04:00","2018","08","16","04:00","21.8","","18.2","","80","","32","","4","","19.3","","99.55","","28","","","","Clear"
"2018-08-16 05:00","2018","08","16","05:00","21.1","","18.4","","85","","26","","3","","16.1","","99.59","","27","","","","NA"
"2018-08-16 06:00","2018","08","16","06:00","21.8","","18.3","","81","","5","","7","","16.1","","99.62","","28","","","","NA"
"2018-08-16 07:00","2018","08","16","07:00","23.0","","19.1","","78","","15","","5","","16.1","","99.67","","30","","","","Clear"
"2018-08-16 08:00","2018","08","16","08:00","24.3","","19.7","","75","","16","","6","","16.1","","99.68","","32","","","","NA"
"2018-08-16 09:00","2018","08","16","09:00","26.2","","20.9","","72","","15","","7","","12.9","","99.67","","35","","","","NA"
"2018-08-16 10:00","2018","08","16","10:00","26.9","","21.1","","70","","16","","9","","12.9","","99.68","","35","","","","Mainly Clear"
"2018-08-16 11:00","2018","08","16","11:00","28.1","","21.2","","66","","14","","10","","16.1","","99.65","","37","","","","NA"
"2018-08-16 12:00","2018","08","16","12:00","29.1","","20.8","","61","","16","","17","","16.1","","99.64","","37","","","","NA"
"2018-08-16 13:00","2018","08","16","13:00","26.9","","20.3","","67","","19","","16","","19.3","","99.65","","35","","","","Mostly Cloudy"
"2018-08-16 14:00","2018","08","16","14:00","28.1","","21.4","","67","","17","","13","","24.1","","99.61","","37","","","","NA"
"2018-08-16 15:00","2018","08","16","15:00","27.9","","20.9","","65","","16","","25","","19.3","","99.55","","36","","","","NA"
"2018-08-16 16:00","2018","08","16","16:00","23.8","","20.2","","80","","16","","5","","19.3","","99.57","","32","","","","Rain Showers"
"2018-08-16 17:00","2018","08","16","17:00","24.9","","22.0","","84","","15","","7","","24.1","","99.55","","34","","","","NA"
"2018-08-16 18:00","2018","08","16","18:00","25.2","","22.2","","83","","14","","7","","24.1","","99.55","","35","","","","NA"
"2018-08-16 19:00","2018","08","16","19:00","24.7","","22.6","","88","","12","","10","","16.1","","99.52","","35","","","","Mostly Cloudy"
"2018-08-16 20:00","2018","08","16","20:00","24.6","","22.1","","86","","12","","8","","19.3","","99.51","","34","","","","NA"
"2018-08-16 21:00","2018","08","16","21:00","24.6","","22.4","","87","","13","","8","","19.3","","99.53","","34","","","","NA"
"2018-08-16 22:00","2018","08","16","22:00","24.6","","21.4","","82","","20","","12","","24.1","","99.52","","33","","","","Mostly Cloudy"
"2018-08-16 23:00","2018","08","16","23:00","24.3","","20.6","","79","","21","","8","","24.1","","99.50","","32","","","","Rain Showers"
"2018-08-17 00:00","2018","08","17","00:00","23.7","","21.1","","85","","15","","9","","16.1","","99.47","","32","","","","Rain Showers"
"2018-08-17 01:00","2018","08","17","01:00","23.0","","21.4","","91","","17","","9","","24.1","","99.42","","32","","","","Rain Showers"
"2018-08-17 02:00","2018","08","17","02:00","22.7","","21.5","","93","","18","","9","","24.1","","99.38","","32","","","","NA"
"2018-08-17 03:00","2018","08","17","03:00","22.6","","21.5","","93","","14","","9","","24.1","","99.31","","31","","","","NA"
"2018-08-17 04:00","2018","08","17","04:00","22.6","","21.5","","94","","16","","9","","19.3","","99.28","","31","","","","Rain"
"2018-08-17 05:00","2018","08","17","05:00","22.8","","21.7","","93","","17","","7","","19.3","","99.28","","32","","","","NA"
"2018-08-17 06:00","2018","08","17","06:00","23.0","","21.7","","92","","15","","7","","12.9","","99.28","","32","","","","NA"
"2018-08-17 07:00","2018","08","17","07:00","23.1","","21.8","","92","","17","","8","","16.1","","99.26","","32","","","","Rain"
"2018-08-17 08:00","2018","08","17","08:00","23.8","","22.1","","90","","18","","10","","12.9","","99.23","","33","","","","NA"
"2018-08-17 09:00","2018","08","17","09:00","24.9","","22.3","","85","","19","","9","","16.1","","99.21","","35","","","","NA"
"2018-08-17 10:00","2018","08","17","10:00","26.1","","22.0","","78","","22","","13","","24.1","","99.17","","35","","","","Mostly Cloudy"
"2018-08-17 11:00","2018","08","17","11:00","26.0","","22.2","","79","","14","","15","","16.1","","99.10","","36","","","","NA"
"2018-08-17 12:00","2018","08","17","12:00","26.1","","22.1","","78","","26","","15","","19.3","","99.07","","36","","","","NA"
"2018-08-17 13:00","2018","08","17","13:00","28.8","","21.8","","65","","23","","21","","19.3","","99.05","","38","","","","Mostly Cloudy"
"2018-08-17 14:00","2018","08","17","14:00","26.3","","21.8","","76","","29","","13","","19.3","","99.05","","35","","","","NA"
"2018-08-17 15:00","2018","08","17","15:00","26.9","","21.7","","73","","34","","17","","19.3","","99.00","","36","","","","Rain Showers"
"2018-08-17 16:00","2018","08","17","16:00","24.8","","22.5","","87","","36","","18","","19.3","","99.05","","35","","","","Cloudy"
"2018-08-17 17:00","2018","08","17","17:00","24.2","","21.8","","86","","34","","19","","19.3","","99.05","","33","","","","Thunderstorms"
"2018-08-17 18:00","2018","08","17","18:00","22.3","","20.8","","91","","36","","21","","16.1","","99.11","","31","","","","Thunderstorms,Moderate Rain Showers"
"2018-08-17 19:00","2018","08","17","19:00","21.8","","20.3","","91","","34","","17","","24.1","","99.16","","30","","","","Rain Showers"
"2018-08-17 20:00","2018","08","17","20:00","21.6","","19.8","","89","","36","","10","","24.1","","99.21","","29","","","","NA"
"2018-08-17 21:00","2018","08","17","21:00","22.0","","19.9","","88","","1","","16","","24.1","","99.24","","29","","","","NA"
"2018-08-17 22:00","2018","08","17","22:00","21.9","","20.1","","89","","36","","16","","24.1","","99.25","","30","","","","Rain"
"2018-08-17 23:00","2018","08","17","23:00","21.9","","20.0","","89","","5","","11","","24.1","","99.23","","29","","","","NA"
"2018-08-18 00:00","2018","08","18","00:00","21.6","","19.7","","89","","3","","10","","24.1","","99.22","","29","","","","Rain"
"2018-08-18 01:00","2018","08","18","01:00","21.2","","19.5","","90","","2","","14","","24.1","","99.24","","28","","","","Rain"
"2018-08-18 02:00","2018","08","18","02:00","21.0","","19.1","","88","","6","","12","","24.1","","99.24","","28","","","","Rain"
"2018-08-18 03:00","2018","08","18","03:00","20.8","","18.8","","88","","4","","10","","24.1","","99.26","","27","","","","NA"
"2018-08-18 04:00","2018","08","18","04:00","20.6","","18.7","","89","","4","","10","","24.1","","99.28","","27","","","","Cloudy"
"2018-08-18 05:00","2018","08","18","05:00","19.9","","18.0","","89","","4","","13","","24.1","","99.33","","","","","","NA"
"2018-08-18 06:00","2018","08","18","06:00","19.1","","17.2","","88","","4","","10","","24.1","","99.37","","","","","","NA"
"2018-08-18 07:00","2018","08","18","07:00","20.3","","18.0","","86","","3","","12","","24.1","","99.41","","26","","","","Clear"
"2018-08-18 08:00","2018","08","18","08:00","21.2","","17.0","","77","","4","","15","","24.1","","99.42","","26","","","","NA"
"2018-08-18 09:00","2018","08","18","09:00","22.1","","15.3","","65","","6","","16","","24.1","","99.46","","26","","","","NA"
"2018-08-18 10:00","2018","08","18","10:00","22.9","","15.6","","63","","4","","9","","24.1","","99.44","","27","","","","Clear"
"2018-08-18 11:00","2018","08","18","11:00","23.4","","15.5","","61","","1","","13","","24.1","","99.45","","28","","","","NA"
"2018-08-18 12:00","2018","08","18","12:00","24.2","","16.7","","62","","4","","11","","24.1","","99.43","","29","","","","NA"
"2018-08-18 13:00","2018","08","18","13:00","24.5","","15.0","","55","","7","","15","","24.1","","99.41","","28","","","","Cloudy"
"2018-08-18 14:00","2018","08","18","14:00","24.0","","16.2","","61","","16","","8","","24.1","","99.43","","29","","","","NA"
"2018-08-18 15:00","2018","08","18","15:00","23.2","","16.7","","67","","15","","11","","24.1","","99.43","","28","","","","NA"
"2018-08-18 16:00","2018","08","18","16:00","23.1","","16.8","","67","","15","","9","","24.1","","99.41","","28","","","","Cloudy"
"2018-08-18 17:00","2018","08","18","17:00","23.4","","17.1","","67","","14","","9","","24.1","","99.40","","29","","","","NA"
"2018-08-18 18:00","2018","08","18","18:00","22.8","","16.9","","69","","16","","10","","24.1","","99.39","","28","","","","NA"
"2018-08-18 19:00","2018","08","18","19:00","22.1","","16.6","","71","","17","","5","","24.1","","99.40","","27","","","","Cloudy"
"2018-08-18 20:00","2018","08","18","20:00","21.4","","16.6","","74","","14","","7","","24.1","","99.44","","26","","","","NA"
"2018-08-18 21:00","2018","08","18","21:00","20.9","","16.5","","76","","25","","4","","24.1","","99.48","","26","","","","NA"
"2018-08-18 22:00","2018","08","18","22:00","20.8","","17.6","","82","","1","","9","","24.1","","99.51","","27","","","","Cloudy"
"2018-08-18 23:00","2018","08","18","23:00","20.0","","17.5","","85","","6","","7","","24.1","","99.50","","26","","","","NA"
"2018-08-19 00:00","2018","08","19","00:00","20.3","","16.4","","78","","7","","7","","24.1","","99.50","","25","","","","NA"
"2018-08-19 01:00","2018","08","19","01:00","19.2","","15.3","","78","","5","","8","","24.1","","99.50","","","","","","Cloudy"
"2018-08-19 02:00","2018","08","19","02:00","18.8","","14.6","","76","","3","","8","","24.1","","99.50","","","","","","NA"
"2018-08-19 03:00","2018","08","19","03:00","17.9","","14.8","","82","","36","","10","","24.1","","99.50","","","","","","NA"
"2018-08-19 04:00","2018","08","19","04:00","17.8","","15.1","","84","","34","","13","","24.1","","99.52","","","","","","Mainly Clear"
"2018-08-19 05:00","2018","08","19","05:00","17.4","","15.1","","86","","33","","13","","24.1","","99.57","","","","","","NA"
"2018-08-19 06:00","2018","08","19","06:00","17.4","","15.0","","86","","33","","11","","24.1","","99.61","","","","","","NA"
"2018-08-19 07:00","2018","08","19","07:00","18.3","","15.6","","84","","36","","6","","24.1","","99.64","","","","","","Clear"
"2018-08-19 08:00","2018","08","19","08:00","19.9","","16.5","","80","","2","","8","","24.1","","99.66","","","","","","NA"
"2018-08-19 09:00","2018","08","19","09:00","21.8","","16.6","","72","","4","","4","","24.1","","99.68","","27","","","","NA"
"2018-08-19 10:00","2018","08","19","10:00","23.4","","16.3","","64","","7","","9","","24.1","","99.67","","28","","","","Mainly Clear"
"2018-08-19 11:00","2018","08","19","11:00","23.5","","15.2","","59","","9","","9","","24.1","","99.66","","28","","","","NA"
"2018-08-19 12:00","2018","08","19","12:00","24.5","","17.7","","66","","14","","10","","24.1","","99.65","","30","","","","NA"
"2018-08-19 13:00","2018","08","19","13:00","23.8","","17.4","","67","","12","","13","","24.1","","99.66","","29","","","","Cloudy"
"2018-08-19 14:00","2018","08","19","14:00","24.0","","17.3","","66","","14","","11","","24.1","","99.66","","29","","","","NA"
"2018-08-19 15:00","2018","08","19","15:00","24.4","","16.9","","63","","15","","18","","24.1","","99.63","","30","","","","NA"
"2018-08-19 16:00","2018","08","19","16:00","23.9","","15.8","","60","","13","","16","","24.1","","99.62","","28","","","","Mainly Clear"
"2018-08-19 17:00","2018","08","19","17:00","23.4","","16.5","","65","","11","","14","","24.1","","99.64","","28","","","","NA"
"2018-08-19 18:00","2018","08","19","18:00","22.5","","16.6","","69","","12","","11","","24.1","","99.64","","28","","","","NA"
"2018-08-19 19:00","2018","08","19","19:00","21.7","","15.9","","69","","12","","12","","24.1","","99.64","","26","","","","Cloudy"
"2018-08-19 20:00","2018","08","19","20:00","20.8","","15.6","","72","","8","","5","","24.1","","99.73","","25","","","","NA"
"2018-08-19 21:00","2018","08","19","21:00","20.7","","16.1","","75","","6","","6","","24.1","","99.77","","25","","","","NA"
"2018-08-19 22:00","2018","08","19","22:00","20.5","","16.5","","77","","6","","4","","24.1","","99.76","","25","","","","Mainly Clear"
"2018-08-19 23:00","2018","08","19","23:00","20.2","","16.6","","80","","10","","9","","24.1","","99.72","","25","","","","NA"
"2018-08-20 00:00","2018","08","20","00:00","20.1","","16.8","","81","","5","","4","","24.1","","99.76","","25","","","","NA"
"2018-08-20 01:00","2018","08","20","01:00","19.8","","16.8","","83","","6","","6","","24.1","","99.72","","","","","","Cloudy"
"2018-08-20 02:00","2018","08","20","02:00","19.0","","16.5","","85","","1","","8","","24.1","","99.72","","","","","","NA"
"2018-08-20 03:00","2018","08","20","03:00","18.7","","16.6","","87","","2","","10","","24.1","","99.74","","","","","","NA"
"2018-08-20 04:00","2018","08","20","04:00","18.2","","16.4","","89","","2","","11","","24.1","","99.76","","","","","","Mostly Cloudy"
"2018-08-20 05:00","2018","08","20","05:00","18.0","","16.4","","90","","4","","8","","24.1","","99.78","","","","","","NA"
"2018-08-20 06:00","2018","08","20","06:00","18.7","","17.3","","91","","4","","8","","24.1","","99.82","","","","","","NA"
"2018-08-20 07:00","2018","08","20","07:00","20.0","","18.4","","90","","4","","8","","24.1","","99.83","","26","","","","Mostly Cloudy"
"2018-08-20 08:00","2018","08","20","08:00","21.5","","19.3","","87","","8","","11","","24.1","","99.84","","29","","","","NA"
"2018-08-20 09:00","2018","08","20","09:00","22.7","","19.6","","83","","9","","11","","24.1","","99.82","","30","","","","NA"
"2018-08-20 10:00","2018","08","20","10:00","23.4","","19.0","","76","","11","","14","","24.1","","99.80","","30","","","","Mostly Cloudy"
"2018-08-20 11:00","2018","08","20","11:00","24.5","","18.8","","70","","12","","13","","24.1","","99.77","","31","","","","NA"
"2018-08-20 12:00","2018","08","20","12:00","24.8","","17.2","","62","","13","","21","","24.1","","99.75","","30","","","","NA"
"2018-08-20 13:00","2018","08","20","13:00","24.5","","18.2","","67","","10","","16","","24.1","","99.72","","31","","","","Mostly Cloudy"
"2018-08-20 14:00","2018","08","20","14:00","25.0","","17.6","","63","","14","","13","","24.1","","99.66","","31","","","","NA"
"2018-08-20 15:00","2018","08","20","15:00","25.0","","18.2","","65","","13","","14","","24.1","","99.61","","31","","","","NA"
"2018-08-20 16:00","2018","08","20","16:00","24.4","","18.9","","71","","10","","17","","24.1","","99.60","","31","","","","Cloudy"
"2018-08-20 17:00","2018","08","20","17:00","24.0","","18.8","","72","","9","","13","","24.1","","99.60","","31","","","","NA"
"2018-08-20 18:00","2018","08","20","18:00","23.3","","18.7","","75","","8","","15","","24.1","","99.57","","30","","","","NA"
"2018-08-20 19:00","2018","08","20","19:00","23.1","","18.5","","75","","8","","16","","24.1","","99.58","","29","","","","Mostly Cloudy"
"2018-08-20 20:00","2018","08","20","20:00","22.9","","18.9","","77","","8","","10","","24.1","","99.58","","30","","","","NA"
"2018-08-20 21:00","2018","08","20","21:00","22.7","","19.5","","82","","9","","13","","24.1","","99.55","","30","","","","NA"
"2018-08-20 22:00","2018","08","20","22:00","23.0","","19.7","","81","","11","","14","","24.1","","99.52","","30","","","","Mostly Cloudy"
"2018-08-20 23:00","2018","08","20","23:00","22.6","","19.4","","82","","11","","8","","24.1","","99.49","","30","","","","NA"
"2018-08-21 00:00","2018","08","21","00:00","22.4","","18.8","","80","","14","","13","","24.1","","99.45","","29","","","","NA"
"2018-08-21 01:00","2018","08","21","01:00","22.1","","18.9","","82","","13","","10","","24.1","","99.40","","29","","","","Mostly Cloudy"
"2018-08-21 02:00","2018","08","21","02:00","21.9","","19.0","","83","","13","","7","","24.1","","99.36","","29","","","","NA"
"2018-08-21 03:00","2018","08","21","03:00","21.6","","19.3","","86","","14","","10","","24.1","","99.31","","29","","","","NA"
"2018-08-21 04:00","2018","08","21","04:00","21.4","","19.1","","87","","9","","10","","24.1","","99.23","","28","","","","Mostly Cloudy"
"2018-08-21 05:00","2018","08","21","05:00","21.5","","19.3","","87","","12","","10","","24.1","","99.20","","29","","","","NA"
"2018-08-21 06:00","2018","08","21","06:00","21.6","","19.2","","86","","12","","16","","24.1","","99.17","","29","","","","NA"
"2018-08-21 07:00","2018","08","21","07:00","20.8","","19.2","","90","","10","","10","","6.4","","99.14","","28","","","","Heavy Rain Showers"
"2018-08-21 08:00","2018","08","21","08:00","20.6","","19.6","","94","","9","","12","","9.7","","99.08","","28","","","","Rain,Fog"
"2018-08-21 09:00","2018","08","21","09:00","20.9","","20.0","","95","","9","","14","","9.7","","98.99","","28","","","","Heavy Rain Showers"
"2018-08-21 10:00","2018","08","21","10:00","20.9","","20.1","","95","","10","","25","","9.7","","98.92","","29","","","","Rain Showers"
"2018-08-21 11:00","2018","08","21","11:00","21.4","","20.7","","95","","13","","14","","12.9","","98.84","","30","","","","Rain"
"2018-08-21 12:00","2018","08","21","12:00","22.2","","21.4","","95","","15","","18","","24.1","","98.74","","31","","","","NA"
"2018-08-21 13:00","2018","08","21","13:00","23.4","","22.3","","93","","14","","14","","24.1","","98.64","","33","","","","Cloudy"
"2018-08-21 14:00","2018","08","21","14:00","23.6","","21.6","","89","","14","","12","","24.1","","98.54","","33","","","","NA"
"2018-08-21 15:00","2018","08","21","15:00","25.6","","22.8","","84","","16","","23","","24.1","","98.39","","36","","","","NA"
"2018-08-21 16:00","2018","08","21","16:00","25.8","","23.0","","84","","20","","13","","24.1","","98.33","","36","","","","Thunderstorms"
"2018-08-21 17:00","2018","08","21","17:00","23.5","","20.6","","83","","20","","13","","8.1","","98.34","","32","","","","Heavy Rain Showers"
"2018-08-21 18:00","2018","08","21","18:00","23.6","","21.0","","85","","23","","10","","24.1","","98.30","","32","","","","NA"
"2018-08-21 19:00","2018","08","21","19:00","23.3","","20.8","","86","","20","","12","","24.1","","98.27","","32","","","","Mostly Cloudy"
"2018-08-21 20:00","2018","08","21","20:00","22.8","","20.6","","88","","22","","9","","19.3","","98.31","","31","","","","Rain Showers"
"2018-08-21 21:00","2018","08","21","21:00","22.7","","20.3","","86","","22","","17","","24.1","","98.32","","31","","","","NA"
"2018-08-21 22:00","2018","08","21","22:00","21.9","","20.0","","89","","26","","23","","24.1","","98.31","","29","","","","Mostly Cloudy"
"2018-08-21 23:00","2018","08","21","23:00","20.1","","17.8","","86","","35","","30","","24.1","","98.34","","26","","","","NA"
"2018-08-22 00:00","2018","08","22","00:00","20.0","","17.3","","84","","30","","23","","24.1","","98.44","","25","","","","NA"
"2018-08-22 01:00","2018","08","22","01:00","19.7","","16.5","","81","","31","","28","","24.1","","98.48","","","","","","Mostly Cloudy"
"2018-08-22 02:00","2018","08","22","02:00","18.9","","16.5","","86","","29","","16","","24.1","","98.50","","","","","","NA"
"2018-08-22 03:00","2018","08","22","03:00","18.8","","16.6","","87","","28","","15","","24.1","","98.53","","","","","","NA"
"2018-08-22 04:00","2018","08","22","04:00","18.9","","16.5","","85","","27","","17","","24.1","","98.57","","","","","","Rain"
"2018-08-22 05:00","2018","08","22","05:00","18.6","","16.7","","88","","27","","15","","24.1","","98.61","","","","","","NA"
"2018-08-22 06:00","2018","08","22","06:00","18.6","","16.3","","87","","28","","16","","24.1","","98.70","","","","","","NA"
"2018-08-22 07:00","2018","08","22","07:00","19.0","","17.0","","88","","30","","18","","24.1","","98.74","","","","","","Mostly Cloudy"
"2018-08-22 08:00","2018","08","22","08:00","19.2","","17.1","","88","","31","","15","","24.1","","98.71","","","","","","NA"
"2018-08-22 09:00","2018","08","22","09:00","20.4","","17.7","","84","","29","","26","","24.1","","98.84","","26","","","","NA"
"2018-08-22 10:00","2018","08","22","10:00","19.0","","15.6","","81","","35","","26","","24.1","","98.91","","","","","","Mostly Cloudy"
"2018-08-22 11:00","2018","08","22","11:00","20.0","","15.5","","75","","33","","31","","24.1","","98.94","","","","","","NA"
"2018-08-22 12:00","2018","08","22","12:00","21.2","","15.4","","69","","32","","24","","24.1","","98.93","","25","","","","NA"
"2018-08-22 13:00","2018","08","22","13:00","21.1","","15.0","","68","","34","","29","","24.1","","99.01","","25","","","","Mostly Cloudy"
"2018-08-22 14:00","2018","08","22","14:00","20.0","","13.6","","66","","33","","34","","24.1","","99.04","","","","","","NA"
"2018-08-22 15:00","2018","08","22","15:00","19.9","","12.1","","60","","32","","32","","24.1","","99.07","","","","","","NA"
"2018-08-22 16:00","2018","08","22","16:00","20.8","","9.5","","48","","33","","33","","24.1","","99.09","","","","","","Mainly Clear"
"2018-08-22 17:00","2018","08","22","17:00","20.0","","6.9","","42","","34","","32","","24.1","","99.20","","","","","","NA"
"2018-08-22 18:00","2018","08","22","18:00","19.8","","7.5","","44","","33","","25","","24.1","","99.24","","","","","","NA"
"2018-08-22 19:00","2018","08","22","19:00","18.6","","8.1","","50","","32","","18","","24.1","","99.30","","","","","","Mainly Clear"
"2018-08-22 20:00","2018","08","22","20:00","17.2","","8.9","","58","","29","","10","","24.1","","99.38","","","","","","NA"
"2018-08-22 21:00","2018","08","22","21:00","17.0","","9.6","","61","","29","","13","","24.1","","99.42","","","","","","NA"
"2018-08-22 22:00","2018","08","22","22:00","15.8","","10.6","","71","","29","","13","","24.1","","99.41","","","","","","Mostly Cloudy"
"2018-08-22 23:00","2018","08","22","23:00","16.0","","11.3","","73","","29","","14","","24.1","","99.42","","","","","","NA"
"2018-08-23 00:00","2018","08","23","00:00","15.7","","11.2","","75","","29","","14","","24.1","","99.42","","","","","","NA"
"2018-08-23 01:00","2018","08","23","01:00","15.4","","11.7","","78","","29","","14","","24.1","","99.38","","","","","","Clear"
"2018-08-23 02:00","2018","08","23","02:00","15.7","","12.0","","79","","29","","15","","24.1","","99.39","","","","","","NA"
"2018-08-23 03:00","2018","08","23","03:00","15.7","","11.9","","78","","30","","15","","24.1","","99.40","","","","","","NA"
"2018-08-23 04:00","2018","08","23","04:00","15.1","","11.9","","81","","28","","10","","24.1","","99.43","","","","","","Clear"
"2018-08-23 05:00","2018","08","23","05:00","15.5","","12.3","","81","","29","","17","","24.1","","99.44","","","","","","NA"
"2018-08-23 06:00","2018","08","23","06:00","16.3","","12.4","","77","","30","","18","","24.1","","99.51","","","","","","NA"
"2018-08-23 07:00","2018","08","23","07:00","18.0","","13.1","","73","","30","","17","","24.1","","99.57","","","","","","Clear"
"2018-08-23 08:00","2018","08","23","08:00","20.1","","14.1","","68","","29","","18","","24.1","","99.63","","","","","","NA"
"2018-08-23 09:00","2018","08","23","09:00","22.0","","11.7","","51","","31","","23","","24.1","","99.65","","","","","","NA"
"2018-08-23 10:00","2018","08","23","10:00","23.1","","10.8","","45","","29","","16","","24.1","","99.67","","25","","","","Mainly Clear"
"2018-08-23 11:00","2018","08","23","11:00","24.3","","10.8","","42","","27","","18","","24.1","","99.66","","26","","","","NA"
"2018-08-23 12:00","2018","08","23","12:00","25.3","","11.1","","40","","28","","22","","24.1","","99.61","","27","","","","NA"
"2018-08-23 13:00","2018","08","23","13:00","25.9","","12.1","","41","","27","","24","","24.1","","99.59","","28","","","","Mainly Clear"
"2018-08-23 14:00","2018","08","23","14:00","25.4","","11.9","","42","","26","","29","","24.1","","99.57","","28","","","","NA"
"2018-08-23 15:00","2018","08","23","15:00","26.3","","11.6","","39","","28","","31","","24.1","","99.52","","28","","","","NA"
"2018-08-23 16:00","2018","08","23","16:00","26.0","","11.1","","39","","28","","28","","24.1","","99.52","","28","","","","Mainly Clear"
"2018-08-23 17:00","2018","08","23","17:00","25.4","","10.5","","39","","28","","29","","24.1","","99.56","","27","","","","NA"
"2018-08-23 18:00","2018","08","23","18:00","24.2","","10.2","","41","","27","","19","","24.1","","99.58","","26","","","","NA"
"2018-08-23 19:00","2018","08","23","19:00","22.8","","10.4","","45","","27","","16","","24.1","","99.62","","","","","","Mainly Clear"
"2018-08-23 20:00","2018","08","23","20:00","20.7","","11.6","","55","","26","","16","","24.1","","99.70","","","","","","NA"
"2018-08-23 21:00","2018","08","23","21:00","20.7","","11.9","","57","","23","","7","","24.1","","99.76","","","","","","NA"
"2018-08-23 22:00","2018","08","23","22:00","20.8","","11.8","","56","","21","","7","","24.1","","99.79","","","","","","Clear"
"2018-08-23 23:00","2018","08","23","23:00","19.8","","11.6","","59","","28","","7","","24.1","","99.79","","","","","","NA"
"2018-08-24 00:00","2018","08","24","00:00","19.1","","11.9","","63","","36","","3","","24.1","","99.80","","","","","","NA"
"2018-08-24 01:00","2018","08","24","01:00","18.1","","12.3","","68","","17","","4","","24.1","","99.81","","","","","","Clear"
"2018-08-24 02:00","2018","08","24","02:00","17.1","","12.4","","73","","19","","5","","24.1","","99.84","","","","","","NA"
"2018-08-24 03:00","2018","08","24","03:00","17.4","","13.4","","77","","36","","2","","24.1","","99.85","","","","","","NA"
"2018-08-24 04:00","2018","08","24","04:00","14.8","","11.9","","83","","26","","11","","24.1","","99.86","","","","","","Clear"
"2018-08-24 05:00","2018","08","24","05:00","16.0","","13.2","","83","","24","","7","","24.1","","99.89","","","","","","NA"
"2018-08-24 06:00","2018","08","24","06:00","16.1","","13.1","","82","","28","","8","","24.1","","99.92","","","","","","NA"
"2018-08-24 07:00","2018","08","24","07:00","18.4","","14.8","","79","","28","","6","","24.1","","99.94","","","","","","Clear"
"2018-08-24 08:00","2018","08","24","08:00","20.8","","15.2","","70","","23","","7","","24.1","","100.01","","25","","","","NA"
"2018-08-24 09:00","2018","08","24","09:00","23.0","","15.3","","62","","26","","7","","24.1","","100.06","","27","","","","NA"
"2018-08-24 10:00","2018","08","24","10:00","25.1","","14.8","","53","","24","","17","","24.1","","100.08","","29","","","","Mainly Clear"
"2018-08-24 11:00","2018","08","24","11:00","25.5","","13.5","","47","","24","","16","","24.1","","100.09","","29","","","","NA"
"2018-08-24 12:00","2018","08","24","12:00","24.9","","13.8","","50","","22","","19","","24.1","","100.06","","28","","","","NA"
"2018-08-24 13:00","2018","08","24","13:00","26.8","","15.3","","49","","22","","14","","24.1","","100.03","","31","","","","Mostly Cloudy"
"2018-08-24 14:00","2018","08","24","14:00","26.6","","14.7","","47","","22","","16","","24.1","","99.99","","30","","","","NA"
"2018-08-24 15:00","2018","08","24","15:00","26.0","","14.6","","49","","14","","16","","24.1","","99.94","","30","","","","NA"
"2018-08-24 16:00","2018","08","24","16:00","26.0","","11.6","","40","","17","","19","","24.1","","99.90","","28","","","","Mostly Cloudy"
"2018-08-24 17:00","2018","08","24","17:00","24.7","","11.9","","44","","18","","21","","24.1","","99.91","","27","","","","NA"
"2018-08-24 18:00","2018","08","24","18:00","24.4","","12.0","","45","","18","","15","","24.1","","99.90","","27","","","","NA"
"2018-08-24 19:00","2018","08","24","19:00","23.4","","13.2","","52","","15","","9","","24.1","","99.90","","26","","","","Mostly Cloudy"
"2018-08-24 20:00","2018","08","24","20:00","22.8","","13.9","","57","","16","","8","","24.1","","99.91","","26","","","","NA"
"2018-08-24 21:00","2018","08","24","21:00","22.4","","15.6","","65","","17","","7","","24.1","","99.94","","27","","","","NA"
"2018-08-24 22:00","2018","08","24","22:00","22.0","","16.4","","70","","14","","13","","24.1","","99.92","","27","","","","Mostly Cloudy"
"2018-08-24 23:00","2018","08","24","23:00","22.0","","17.2","","74","","13","","9","","24.1","","99.94","","27","","","","NA"
"2018-08-25 00:00","2018","08","25","00:00","21.6","","17.3","","76","","13","","11","","24.1","","99.90","","27","","","","NA"
"2018-08-25 01:00","2018","08","25","01:00","21.4","","18.0","","80","","14","","12","","24.1","","99.88","","27","","","","Mostly Cloudy"
"2018-08-25 02:00","2018","08","25","02:00","21.1","","16.9","","77","","17","","10","","24.1","","99.88","","26","","","","NA"
"2018-08-25 03:00","2018","08","25","03:00","21.0","","16.3","","74","","17","","10","","24.1","","99.89","","26","","","","NA"
"2018-08-25 04:00","2018","08","25","04:00","20.8","","16.1","","74","","17","","9","","24.1","","99.88","","25","","","","Mostly Cloudy"
"2018-08-25 05:00","2018","08","25","05:00","20.7","","16.1","","75","","17","","10","","24.1","","99.86","","25","","","","NA"
"2018-08-25 06:00","2018","08","25","06:00","20.9","","16.3","","75","","17","","12","","24.1","","99.88","","26","","","","NA"
"2018-08-25 07:00","2018","08","25","07:00","22.0","","17.0","","73","","17","","15","","24.1","","99.85","","27","","","","Mostly Cloudy"
"2018-08-25 08:00","2018","08","25","08:00","22.7","","17.0","","70","","16","","18","","24.1","","99.81","","28","","","","NA"
"2018-08-25 09:00","2018","08","25","09:00","23.9","","17.3","","66","","17","","16","","24.1","","99.80","","29","","","","NA"
"2018-08-25 10:00","2018","08","25","10:00","24.4","","17.6","","65","","18","","19","","24.1","","99.82","","30","","","","Mostly Cloudy"
"2018-08-25 11:00","2018","08","25","11:00","24.9","","17.4","","63","","16","","27","","24.1","","99.79","","30","","","","NA"
"2018-08-25 12:00","2018","08","25","12:00","24.2","","17.1","","64","","17","","22","","24.1","","99.78","","30","","","","NA"
"2018-08-25 13:00","2018","08","25","13:00","21.9","","18.2","","79","","22","","16","","19.3","","99.80","","28","","","","Rain Showers"
"2018-08-25 14:00","2018","08","25","14:00","20.2","","18.3","","89","","22","","17","","12.9","","99.83","","26","","","","Rain Showers"
"2018-08-25 15:00","2018","08","25","15:00","20.3","","18.8","","91","","17","","13","","24.1","","99.76","","27","","","","NA"
"2018-08-25 16:00","2018","08","25","16:00","21.7","","19.9","","89","","16","","9","","24.1","","99.71","","29","","","","Mostly Cloudy"
"2018-08-25 17:00","2018","08","25","17:00","22.8","","19.6","","82","","15","","13","","24.1","","99.67","","30","","","","NA"
"2018-08-25 18:00","2018","08","25","18:00","23.0","","19.2","","79","","16","","12","","24.1","","99.64","","30","","","","NA"
"2018-08-25 19:00","2018","08","25","19:00","22.3","","19.2","","83","","14","","9","","24.1","","99.63","","29","","","","Mostly Cloudy"
"2018-08-25 20:00","2018","08","25","20:00","22.1","","19.3","","84","","16","","10","","24.1","","99.64","","29","","","","NA"
"2018-08-25 21:00","2018","08","25","21:00","22.2","","19.4","","84","","16","","11","","24.1","","99.62","","29","","","","NA"
"2018-08-25 22:00","2018","08","25","22:00","22.0","","19.1","","83","","16","","9","","24.1","","99.59","","29","","","","Cloudy"
"2018-08-25 23:00","2018","08","25","23:00","21.0","","18.8","","87","","20","","10","","4.8","","99.60","","28","","","","Heavy Rain Showers"
"2018-08-26 00:00","2018","08","26","00:00","20.9","","19.3","","91","","18","","8","","24.1","","99.56","","28","","","","NA"
"2018-08-26 01:00","2018","08","26","01:00","20.9","","19.3","","91","","20","","10","","24.1","","99.53","","28","","","","Mostly Cloudy"
"2018-08-26 02:00","2018","08","26","02:00","21.1","","19.6","","91","","20","","15","","24.1","","99.49","","28","","","","NA"
"2018-08-26 03:00","2018","08","26","03:00","20.9","","19.5","","92","","21","","11","","24.1","","99.46","","28","","","","NA"
"2018-08-26 04:00","2018","08","26","04:00","20.7","","19.5","","93","","22","","9","","14.5","","99.47","","28","","","","Mainly Clear"
"2018-08-26 05:00","2018","08","26","05:00","20.4","","19.4","","94","","24","","7","","14.5","","99.48","","27","","","","NA"
"2018-08-26 06:00","2018","08","26","06:00","20.6","","19.6","","94","","23","","12","","9.7","","99.52","","28","","","","Fog"
"2018-08-26 07:00","2018","08","26","07:00","21.8","","20.7","","94","","24","","19","","9.7","","99.56","","30","","","","Fog"
"2018-08-26 08:00","2018","08","26","08:00","23.1","","21.5","","90","","25","","21","","9.7","","99.56","","32","","","","Fog"
"2018-08-26 09:00","2018","08","26","09:00","24.4","","21.5","","83","","26","","21","","16.1","","99.60","","33","","","","NA"
"2018-08-26 10:00","2018","08","26","10:00","24.9","","20.9","","78","","25","","17","","16.1","","99.59","","33","","","","Mostly Cloudy"
"2018-08-26 11:00","2018","08","26","11:00","25.7","","20.4","","72","","25","","21","","19.3","","99.56","","34","","","","NA"
"2018-08-26 12:00","2018","08","26","12:00","26.6","","20.5","","69","","26","","23","","19.3","","99.57","","35","","","","NA"
"2018-08-26 13:00","2018","08","26","13:00","27.1","","20.2","","65","","29","","22","","19.3","","99.56","","35","","","","Mostly Cloudy"
"2018-08-26 14:00","2018","08","26","14:00","27.5","","19.8","","63","","29","","21","","24.1","","99.56","","35","","","","NA"
"2018-08-26 15:00","2018","08","26","15:00","28.6","","19.3","","57","","27","","26","","24.1","","99.52","","36","","","","NA"
"2018-08-26 16:00","2018","08","26","16:00","28.3","","19.1","","57","","26","","19","","24.1","","99.54","","35","","","","Mainly Clear"
"2018-08-26 17:00","2018","08","26","17:00","27.6","","18.7","","58","","29","","17","","24.1","","99.55","","34","","","","NA"
"2018-08-26 18:00","2018","08","26","18:00","26.6","","18.2","","59","","28","","17","","24.1","","99.55","","33","","","","NA"
"2018-08-26 19:00","2018","08","26","19:00","24.7","","17.5","","64","","29","","11","","24.1","","99.56","","30","","","","Mainly Clear"
"2018-08-26 20:00","2018","08","26","20:00","23.5","","17.6","","69","","27","","13","","24.1","","99.59","","29","","","","NA"
"2018-08-26 21:00","2018","08","26","21:00","23.2","","18.2","","73","","29","","8","","24.1","","99.64","","29","","","","NA"
"2018-08-26 22:00","2018","08","26","22:00","22.6","","18.6","","78","","34","","10","","24.1","","99.69","","29","","","","Mostly Cloudy"
"2018-08-26 23:00","2018","08","26","23:00","20.8","","18.0","","84","","29","","3","","24.1","","99.71","","27","","","","NA"
"2018-08-27 00:00","2018","08","27","00:00","21.0","","17.9","","83","","31","","6","","24.1","","99.70","","27","","","","NA"
"2018-08-27 01:00","2018","08","27","01:00","21.2","","18.6","","84","","4","","3","","24.1","","99.64","","28","","","","Mostly Cloudy"
"2018-08-27 02:00","2018","08","27","02:00","21.1","","18.3","","84","","5","","6","","24.1","","99.60","","27","","","","NA"
"2018-08-27 03:00","2018","08","27","03:00","21.0","","18.4","","85","","2","","5","","24.1","","99.59","","27","","","","NA"
"2018-08-27 04:00","2018","08","27","04:00","20.3","","18.5","","89","","30","","4","","24.1","","99.63","","27","","","","Cloudy"
"2018-08-27 05:00","2018","08","27","05:00","21.1","","19.0","","87","","13","","3","","24.1","","99.61","","28","","","","NA"
"2018-08-27 06:00","2018","08","27","06:00","21.7","","19.2","","86","","17","","7","","16.1","","99.68","","29","","","","NA"
"2018-08-27 07:00","2018","08","27","07:00","21.6","","19.6","","88","","17","","17","","9.7","","99.55","","29","","","","Rain"
"2018-08-27 08:00","2018","08","27","08:00","21.8","","20.4","","92","","34","","8","","4.8","","99.73","","30","","","","Thunderstorms,Rain Showers,Fog"
"2018-08-27 09:00","2018","08","27","09:00","22.1","","20.9","","93","","12","","11","","9.7","","99.63","","30","","","","Fog"
"2018-08-27 10:00","2018","08","27","10:00","23.8","","21.9","","89","","13","","10","","9.7","","99.61","","33","","","","Fog"
"2018-08-27 11:00","2018","08","27","11:00","23.8","","21.7","","88","","17","","12","","9.7","","99.61","","33","","","","Fog"
"2018-08-27 12:00","2018","08","27","12:00","23.9","","21.8","","88","","14","","12","","16.1","","99.53","","33","","","","Rain"
"2018-08-27 13:00","2018","08","27","13:00","24.2","","21.4","","84","","15","","7","","24.1","","99.51","","33","","","","Cloudy"
"2018-08-27 14:00","2018","08","27","14:00","25.4","","22.2","","82","","14","","9","","24.1","","99.45","","35","","","","NA"
"2018-08-27 15:00","2018","08","27","15:00","26.4","","23.0","","81","","15","","9","","24.1","","99.41","","37","","","","NA"
"2018-08-27 16:00","2018","08","27","16:00","27.9","","23.8","","78","","22","","17","","16.1","","99.36","","39","","","","Cloudy"
"2018-08-27 17:00","2018","08","27","17:00","28.3","","23.1","","73","","22","","22","","16.1","","99.32","","39","","","","NA"
"2018-08-27 18:00","2018","08","27","18:00","28.2","","23.1","","73","","22","","18","","16.1","","99.29","","39","","","","NA"
"2018-08-27 19:00","2018","08","27","19:00","27.4","","23.2","","77","","20","","15","","19.3","","99.25","","38","","","","Mostly Cloudy"
"2018-08-27 20:00","2018","08","27","20:00","26.9","","22.9","","78","","22","","14","","19.3","","99.28","","37","","","","NA"
"2018-08-27 21:00","2018","08","27","21:00","26.7","","22.5","","77","","22","","12","","19.3","","99.29","","36","","","","NA"
"2018-08-27 22:00","2018","08","27","22:00","26.4","","22.2","","77","","24","","13","","19.3","","99.35","","36","","","","Mostly Cloudy"
"2018-08-27 23:00","2018","08","27","23:00","26.6","","22.1","","76","","23","","14","","19.3","","99.34","","36","","","","NA"
"2018-08-28 00:00","2018","08","28","00:00","26.4","","22.1","","77","","19","","8","","24.1","","99.34","","36","","","","NA"
"2018-08-28 01:00","2018","08","28","01:00","25.8","","22.1","","80","","20","","13","","24.1","","99.31","","35","","","","Mostly Cloudy"
"2018-08-28 02:00","2018","08","28","02:00","25.5","","21.9","","80","","22","","17","","24.1","","99.30","","35","","","","NA"
"2018-08-28 03:00","2018","08","28","03:00","24.6","","21.7","","84","","22","","19","","24.1","","99.25","","34","","","","NA"
"2018-08-28 04:00","2018","08","28","04:00","24.3","","21.6","","84","","22","","19","","24.1","","99.23","","33","","","","Mostly Cloudy"
"2018-08-28 05:00","2018","08","28","05:00","24.5","","21.6","","83","","23","","19","","24.1","","99.24","","33","","","","NA"
"2018-08-28 06:00","2018","08","28","06:00","24.9","","21.8","","83","","23","","28","","24.1","","99.27","","34","","","","NA"
"2018-08-28 07:00","2018","08","28","07:00","25.2","","21.7","","81","","23","","26","","24.1","","99.29","","34","","","","Mostly Cloudy"
"2018-08-28 08:00","2018","08","28","08:00","25.9","","21.9","","78","","23","","22","","24.1","","99.29","","35","","","","NA"
"2018-08-28 09:00","2018","08","28","09:00","27.0","","22.1","","74","","22","","24","","24.1","","99.22","","36","","","","NA"
"2018-08-28 10:00","2018","08","28","10:00","27.0","","21.9","","73","","21","","39","","24.1","","99.03","","36","","","","Cloudy"
"2018-08-28 11:00","2018","08","28","11:00","27.2","","22.2","","74","","24","","21","","24.1","","99.19","","37","","","","NA"
"2018-08-28 12:00","2018","08","28","12:00","28.5","","22.6","","70","","26","","22","","24.1","","99.24","","38","","","","NA"
"2018-08-28 13:00","2018","08","28","13:00","29.6","","22.9","","67","","27","","21","","24.1","","99.31","","40","","","","Mostly Cloudy"
"2018-08-28 14:00","2018","08","28","14:00","30.2","","21.3","","58","","28","","34","","24.1","","99.29","","39","","","","NA"
"2018-08-28 15:00","2018","08","28","15:00","31.7","","22.1","","56","","29","","28","","24.1","","99.25","","41","","","","NA"
"2018-08-28 16:00","2018","08","28","16:00","29.8","","20.6","","57","","27","","23","","24.1","","99.27","","38","","","","Mostly Cloudy"
"2018-08-28 17:00","2018","08","28","17:00","29.4","","20.4","","58","","28","","16","","24.1","","99.25","","37","","","","NA"
"2018-08-28 18:00","2018","08","28","18:00","28.9","","20.0","","58","","28","","18","","24.1","","99.26","","36","","","","NA"
"2018-08-28 19:00","2018","08","28","19:00","28.0","","20.3","","63","","30","","14","","24.1","","99.33","","36","","","","Mostly Cloudy"
"2018-08-28 20:00","2018","08","28","20:00","26.1","","19.7","","67","","24","","11","","24.1","","99.40","","33","","","","NA"
"2018-08-28 21:00","2018","08","28","21:00","26.8","","20.6","","68","","23","","6","","24.1","","99.36","","35","","","","NA"
"2018-08-28 22:00","2018","08","28","22:00","26.5","","20.8","","70","","18","","5","","24.1","","99.32","","35","","","","Mainly Clear"
"2018-08-28 23:00","2018","08","28","23:00","26.3","","22.7","","81","","19","","9","","24.1","","99.29","","36","","","","NA"
"2018-08-29 00:00","2018","08","29","00:00","26.2","","22.4","","79","","21","","18","","24.1","","99.27","","36","","","","NA"
"2018-08-29 01:00","2018","08","29","01:00","25.6","","22.1","","81","","22","","14","","24.1","","99.22","","35","","","","Mostly Cloudy"
"2018-08-29 02:00","2018","08","29","02:00","24.9","","21.8","","83","","25","","19","","24.1","","99.24","","34","","","","NA"
"2018-08-29 03:00","2018","08","29","03:00","24.5","","20.4","","77","","29","","21","","24.1","","99.29","","32","","","","Rain Showers"
"2018-08-29 04:00","2018","08","29","04:00","22.8","","19.0","","79","","25","","6","","24.1","","99.17","","30","","","","Mostly Cloudy"
"2018-08-29 05:00","2018","08","29","05:00","23.1","","19.4","","80","","20","","9","","24.1","","99.12","","30","","","","NA"
"2018-08-29 06:00","2018","08","29","06:00","23.0","","20.2","","84","","18","","8","","24.1","","99.11","","31","","","","NA"
"2018-08-29 07:00","2018","08","29","07:00","24.4","","21.2","","82","","18","","13","","24.1","","99.06","","33","","","","Mostly Cloudy"
"2018-08-29 08:00","2018","08","29","08:00","26.1","","22.6","","81","","24","","25","","24.1","","99.03","","36","","","","NA"
"2018-08-29 09:00","2018","08","29","09:00","26.5","","22.6","","78","","25","","36","","24.1","","99.09","","36","","","","NA"
"2018-08-29 10:00","2018","08","29","10:00","27.6","","21.9","","71","","26","","32","","24.1","","99.13","","37","","","","Mostly Cloudy"
"2018-08-29 11:00","2018","08","29","11:00","26.3","","19.3","","65","","28","","33","","24.1","","99.16","","33","","","","NA"
"2018-08-29 12:00","2018","08","29","12:00","27.3","","20.3","","65","","27","","24","","24.1","","99.15","","35","","","","NA"
"2018-08-29 13:00","2018","08","29","13:00","27.7","","19.8","","62","","26","","27","","24.1","","99.16","","35","","","","Mostly Cloudy"
"2018-08-29 14:00","2018","08","29","14:00","26.5","","19.2","","64","","27","","19","","24.1","","99.17","","33","","","","NA"
"2018-08-29 15:00","2018","08","29","15:00","25.7","","19.2","","67","","26","","23","","24.1","","99.14","","33","","","","Rain"
"2018-08-29 16:00","2018","08","29","16:00","27.6","","19.9","","62","","26","","22","","24.1","","99.11","","35","","","","Mostly Cloudy"
"2018-08-29 17:00","2018","08","29","17:00","26.3","","19.0","","64","","26","","22","","24.1","","99.14","","33","","","","NA"
"2018-08-29 18:00","2018","08","29","18:00","26.0","","18.8","","64","","27","","27","","24.1","","99.18","","33","","","","NA"
"2018-08-29 19:00","2018","08","29","19:00","24.0","","19.5","","76","","35","","16","","24.1","","99.26","","31","","","","Mostly Cloudy"
"2018-08-29 20:00","2018","08","29","20:00","24.1","","18.6","","71","","31","","20","","24.1","","99.34","","31","","","","NA"
"2018-08-29 21:00","2018","08","29","21:00","23.1","","18.1","","73","","32","","22","","24.1","","99.44","","29","","","","NA"
"2018-08-29 22:00","2018","08","29","22:00","20.8","","17.5","","81","","32","","26","","24.1","","99.56","","26","","","","Cloudy"
"2018-08-29 23:00","2018","08","29","23:00","20.0","","14.9","","72","","32","","22","","24.1","","99.62","","","","","","NA"
"2018-08-30 00:00","2018","08","30","00:00","18.2","","14.0","","76","","29","","20","","24.1","","99.65","","","","","","NA"
"2018-08-30 01:00","2018","08","30","01:00","17.7","","14.2","","80","","29","","16","","24.1","","99.70","","","","","","Clear"
"2018-08-30 02:00","2018","08","30","02:00","17.7","","14.3","","80","","31","","23","","24.1","","99.74","","","","","","NA"
"2018-08-30 03:00","2018","08","30","03:00","17.3","","14.5","","83","","33","","20","","24.1","","99.78","","","","","","NA"
"2018-08-30 04:00","2018","08","30","04:00","16.9","","14.1","","83","","35","","20","","24.1","","99.85","","","","","","Mainly Clear"
"2018-08-30 05:00","2018","08","30","05:00","16.1","","13.3","","83","","35","","26","","24.1","","99.90","","","","","","NA"
"2018-08-30 06:00","2018","08","30","06:00","15.1","","12.3","","83","","36","","23","","24.1","","100.01","","","","","","NA"
"2018-08-30 07:00","2018","08","30","07:00","15.8","","11.8","","77","","35","","29","","24.1","","100.07","","","","","","Mainly Clear"
"2018-08-30 08:00","2018","08","30","08:00","15.9","","11.2","","73","","35","","28","","24.1","","100.14","","","","","","NA"
"2018-08-30 09:00","2018","08","30","09:00","15.7","","11.6","","76","","35","","17","","24.1","","100.21","","","","","","NA"
"2018-08-30 10:00","2018","08","30","10:00","16.6","","12.4","","76","","35","","18","","24.1","","100.23","","","","","","Mostly Cloudy"
"2018-08-30 11:00","2018","08","30","11:00","16.4","","12.1","","75","","1","","16","","24.1","","100.25","","","","","","NA"
"2018-08-30 12:00","2018","08","30","12:00","16.9","","12.2","","73","","1","","14","","24.1","","100.26","","","","","","NA"
"2018-08-30 13:00","2018","08","30","13:00","17.6","","12.9","","73","","2","","12","","24.1","","100.26","","","","","","Cloudy"
"2018-08-30 14:00","2018","08","30","14:00","17.8","","12.5","","71","","35","","11","","24.1","","100.22","","","","","","NA"
"2018-08-30 15:00","2018","08","30","15:00","18.3","","12.6","","69","","34","","5","","24.1","","100.18","","","","","","NA"
"2018-08-30 16:00","2018","08","30","16:00","18.4","","13.0","","70","","15","","9","","24.1","","100.16","","","","","","Mostly Cloudy"
"2018-08-30 17:00","2018","08","30","17:00","18.3","","12.5","","69","","16","","10","","24.1","","100.17","","","","","","NA"
"2018-08-30 18:00","2018","08","30","18:00","18.1","","12.4","","69","","13","","7","","24.1","","100.20","","","","","","NA"
"2018-08-30 19:00","2018","08","30","19:00","18.1","","12.4","","69","","9","","7","","24.1","","100.23","","","","","","Mostly Cloudy"
"2018-08-30 20:00","2018","08","30","20:00","17.8","","12.8","","72","","11","","8","","24.1","","100.25","","","","","","NA"
"2018-08-30 21:00","2018","08","30","21:00","17.4","","12.7","","73","","6","","6","","24.1","","100.26","","","","","","NA"
"2018-08-30 22:00","2018","08","30","22:00","17.2","","12.5","","74","","12","","4","","24.1","","100.23","","","","","","Mainly Clear"
"2018-08-30 23:00","2018","08","30","23:00","16.8","","12.3","","74","","36","","3","","24.1","","100.26","","","","","","NA"
"2018-08-31 00:00","2018","08","31","00:00","17.0","","12.6","","75","","6","","5","","24.1","","100.26","","","","","","NA"
"2018-08-31 01:00","2018","08","31","01:00","16.6","","12.9","","79","","4","","8","","24.1","","100.23","","","","","","Mostly Cloudy"
"2018-08-31 02:00","2018","08","31","02:00","16.6","","13.0","","79","","3","","8","","24.1","","100.25","","","","","","NA"
"2018-08-31 03:00","2018","08","31","03:00","16.8","","13.3","","80","","4","","8","","24.1","","100.23","","","","","","NA"
"2018-08-31 04:00","2018","08","31","04:00","16.9","","13.2","","78","","8","","5","","24.1","","100.21","","","","","","Mostly Cloudy"
"2018-08-31 05:00","2018","08","31","05:00","16.3","","13.0","","80","","6","","8","","24.1","","100.22","","","","","","NA"
"2018-08-31 06:00","2018","08","31","06:00","16.6","","13.2","","80","","4","","9","","24.1","","100.27","","","","","","NA"
"2018-08-31 07:00","2018","08","31","07:00","17.4","","13.9","","80","","7","","11","","24.1","","100.27","","","","","","Mostly Cloudy"
"2018-08-31 08:00","2018","08","31","08:00","18.1","","13.9","","76","","6","","15","","24.1","","100.27","","","","","","NA"
"2018-08-31 09:00","2018","08","31","09:00","19.6","","14.3","","71","","10","","14","","24.1","","100.23","","","","","","NA"
"2018-08-31 10:00","2018","08","31","10:00","20.1","","15.0","","72","","12","","12","","24.1","","100.22","","","","","","Mostly Cloudy"
"2018-08-31 11:00","2018","08","31","11:00","19.8","","14.4","","71","","8","","10","","24.1","","100.24","","","","","","NA"
"2018-08-31 12:00","2018","08","31","12:00","21.4","","15.0","","67","","12","","10","","24.1","","100.26","","25","","","","NA"
"2018-08-31 13:00","2018","08","31","13:00","21.4","","15.0","","67","","10","","12","","24.1","","100.26","","25","","","","Mostly Cloudy"
"2018-08-31 14:00","2018","08","31","14:00","22.8","","15.1","","61","","13","","13","","24.1","","100.22","","27","","","","NA"
"2018-08-31 15:00","2018","08","31","15:00","22.1","","14.7","","63","","13","","13","","24.1","","100.17","","26","","","","NA"
"2018-08-31 16:00","2018","08","31","16:00","21.9","","14.2","","61","","14","","16","","24.1","","100.14","","25","","","","Mainly Clear"
"2018-08-31 17:00","2018","08","31","17:00","21.3","","14.5","","65","","13","","11","","24.1","","100.13","","25","","","","NA"
"2018-08-31 18:00","2018","08","31","18:00","20.9","","14.4","","66","","14","","9","","24.1","","100.12","","25","","","","NA"
"2018-08-31 19:00","2018","08","31","19:00","20.1","","14.2","","69","","14","","6","","24.1","","100.11","","","","","","Mainly Clear"
"2018-08-31 20:00","2018","08","31","20:00","19.4","","14.4","","72","","13","","9","","24.1","","100.11","","","","","","NA"
"2018-08-31 21:00","2018","08","31","21:00","18.9","","14.7","","76","","14","","7","","24.1","","100.13","","","","","","NA"
"2018-08-31 22:00","2018","08","31","22:00","18.7","","15.0","","79","","13","","5","","24.1","","100.12","","","","","","Clear"
"2018-08-31 23:00","2018","08","31","23:00","18.5","","15.1","","80","","15","","4","","24.1","","100.10","","","","","","NA"
