"Station Name","TORONTO LESTER B. PEARSON INT'L A"
"Province","ONTARIO"
"Latitude","43.68"
"Longitude","-79.63"
"Elevation","173.40"
"Climate Identifier","6158733"
"WMO Identifier","71624"
"TC Identifier","YYZ"
"All times are specified in Local Standard Time (LST). Add 1 hour to adjust for Daylight Saving Time where and when it is observed."

"Legend"
"E","Estimated"
"M","Missing"
"NA","Not Available"

"Date/Time","Year","Month","Day","Time","Temp (°C)","Temp Flag","Dew Point Temp (°C)","Dew Point Temp Flag","Rel Hum (%)","Rel Hum Flag","Wind Dir (10s deg)","Wind Dir Flag","Wind Spd (km/h)","Wind Spd Flag","Visibility (km)","Visibility Flag","Stn Press (kPa)","Stn Press Flag","Hmdx","Hmdx Flag","Wind Chill","Wind Chill Flag","Weather"
"1954-12-01 00:00","1954","12","01","00:00","1.1","","-2.2","","78","","27","","16","","25.0","","100.69","","","","","","Cloudy"
"1954-12-01 01:00","1954","12","01","01:00","1.7","","-1.7","","78","","2","","13","","25.0","","100.68","","","","","","Cloudy"
"1954-12-01 02:00","1954","12","01","02:00","0.0","","0.0","","100","","2","","11","","25.0","","100.67","","","","-4","","Cloudy"
"1954-12-01 03:00","1954","12","01","03:00","-0.6","","-2.2","","88","","5","","10","","25.0","","100.63","","","","-4","","Snow Showers"
"1954-12-01 04:00","1954","12","01","04:00","-0.6","","-3.3","","81","","5","","6","","25.0","","100.56","","","","-3","","Snow"
"1954-12-01 05:00","1954","12","01","05:00","-1.1","","-2.2","","92","","5","","6","","2.4","","100.52","","","","-3","","Snow"
"1954-12-01 06:00","1954","12","01","06:00","-1.1","","-2.8","","88","","5","","6","","4.8","","100.47","","","","-3","","Snow"
"1954-12-01 07:00","1954","12","01","07:00","-1.7","","-1.7","","100","","2","","6","","2.4","","100.44","","","","-4","","Snow"
"1954-12-01 08:00","1954","12","01","08:00","-1.1","","-1.7","","90","","5","","6","","1.6","","100.41","","","","-3","","Snow"
"1954-12-01 09:00","1954","12","01","09:00","-1.1","","-2.8","","88","","7","","8","","2.0","","100.36","","","","-4","","Snow"
"1954-12-01 10:00","1954","12","01","10:00","-0.6","","-2.2","","88","","5","","6","","1.6","","100.34","","","","-3","","Snow"
"1954-12-01 11:00","1954","12","01","11:00","-1.1","","-2.8","","88","","2","","6","","1.2","","100.27","","","","-3","","Snow"
"1954-12-01 12:00","1954","12","01","12:00","-1.1","","-2.2","","92","","2","","6","","2.4","","100.15","","","","-3","","Snow"
"1954-12-01 13:00","1954","12","01","13:00","-0.6","","-1.7","","92","","5","","6","","2.4","","100.10","","","","-3","","Snow"
"1954-12-01 14:00","1954","12","01","14:00","-0.6","","-1.7","","92","","5","","6","","1.6","","100.03","","","","-3","","Snow"
"1954-12-01 15:00","1954","12","01","15:00","-1.1","","-2.2","","92","","2","","5","","12.9","","100.03","","","","-3","","Snow"
"1954-12-01 16:00","1954","12","01","16:00","-0.6","","-1.7","","92","","32","","11","","16.1","","100.01","","","","-4","","Cloudy"
"1954-12-01 17:00","1954","12","01","17:00","-1.1","","-2.2","","92","","29","","8","","16.1","","100.02","","","","-4","","Cloudy"
"1954-12-01 18:00","1954","12","01","18:00","-1.7","","-2.8","","92","","27","","6","","25.0","","100.00","","","","-4","","Cloudy"
"1954-12-01 19:00","1954","12","01","19:00","-1.7","","-3.3","","88","","27","","8","","25.0","","99.99","","","","-5","","Cloudy"
"1954-12-01 20:00","1954","12","01","20:00","-1.1","","-2.2","","92","","32","","6","","25.0","","99.94","","","","-3","","Cloudy"
"1954-12-01 21:00","1954","12","01","21:00","-1.1","","-2.8","","88","","29","","14","","25.0","","99.94","","","","-6","","Cloudy"
"1954-12-01 22:00","1954","12","01","22:00","-1.7","","-3.3","","88","","29","","14","","25.0","","99.93","","","","-6","","Cloudy"
"1954-12-01 23:00","1954","12","01","23:00","-1.7","","-3.9","","85","","29","","10","","25.0","","99.93","","","","-5","","Cloudy"
"1954-12-02 00:00","1954","12","02","00:00","-2.8","","-4.4","","88","","36","","13","","25.0","","99.90","","","","-7","","Mainly Clear"
"1954-12-02 01:00","1954","12","02","01:00","-2.8","","-5.0","","85","","34","","10","","25.0","","99.88","","","","-7","","Mainly Clear"
"1954-12-02 02:00","1954","12","02","02:00","-3.9","","-5.6","","88","","2","","10","","25.0","","99.86","","","","-8","","Mainly Clear"
"1954-12-02 03:00","1954","12","02","03:00","-4.4","","-6.7","","84","","34","","6","","25.0","","99.84","","","","-7","","Mainly Clear"
"1954-12-02 04:00","1954","12","02","04:00","-4.4","","-5.6","","92","","32","","8","","25.0","","99.82","","","","-8","","Mostly Cloudy"
"1954-12-02 05:00","1954","12","02","05:00","-3.9","","-5.0","","92","","36","","8","","25.0","","99.77","","","","-7","","Snow Showers"
"1954-12-02 06:00","1954","12","02","06:00","-3.3","","-5.6","","85","","27","","6","","25.0","","99.78","","","","-6","","Mostly Cloudy"
"1954-12-02 07:00","1954","12","02","07:00","-3.9","","-5.6","","88","","36","","8","","25.0","","99.75","","","","-7","","Mostly Cloudy"
"1954-12-02 08:00","1954","12","02","08:00","-3.9","","-5.6","","88","","36","","6","","19.3","","99.73","","","","-7","","Mostly Cloudy"
"1954-12-02 09:00","1954","12","02","09:00","-4.4","","-6.1","","88","","5","","5","","19.3","","99.71","","","","-7","","Mostly Cloudy"
"1954-12-02 10:00","1954","12","02","10:00","-3.3","","-6.7","","78","","36","","5","","16.1","","99.70","","","","-5","","Mostly Cloudy"
"1954-12-02 11:00","1954","12","02","11:00","-2.2","","-5.6","","78","","2","","6","","19.3","","99.64","","","","-5","","Snow Showers"
"1954-12-02 12:00","1954","12","02","12:00","-2.2","","-5.6","","78","","36","","10","","24.1","","99.56","","","","-6","","Mostly Cloudy"
"1954-12-02 13:00","1954","12","02","13:00","-1.7","","-5.6","","75","","2","","10","","25.0","","99.49","","","","-5","","Mostly Cloudy"
"1954-12-02 14:00","1954","12","02","14:00","-1.7","","-5.6","","75","","5","","6","","25.0","","99.45","","","","-4","","Mostly Cloudy"
"1954-12-02 15:00","1954","12","02","15:00","-1.1","","-5.0","","75","","7","","6","","25.0","","99.43","","","","-3","","Mostly Cloudy"
"1954-12-02 16:00","1954","12","02","16:00","-1.7","","-3.9","","85","","9","","6","","25.0","","99.40","","","","-4","","Snow Showers"
"1954-12-02 17:00","1954","12","02","17:00","-2.2","","-4.4","","85","","9","","6","","16.1","","99.40","","","","-5","","Snow Showers"
"1954-12-02 18:00","1954","12","02","18:00","-3.3","","-5.0","","88","","5","","6","","16.1","","99.41","","","","-6","","Snow Showers"
"1954-12-02 19:00","1954","12","02","19:00","-3.3","","-4.4","","92","","5","","6","","25.0","","99.39","","","","-6","","Mostly Cloudy"
"1954-12-02 20:00","1954","12","02","20:00","-3.3","","-6.1","","81","","2","","6","","25.0","","99.35","","","","-6","","Mainly Clear"
"1954-12-02 21:00","1954","12","02","21:00","-4.4","","-6.7","","84","","2","","8","","25.0","","99.33","","","","-8","","Mainly Clear"
"1954-12-02 22:00","1954","12","02","22:00","-5.0","","-7.8","","81","","36","","6","","25.0","","99.30","","","","-8","","Mainly Clear"
"1954-12-02 23:00","1954","12","02","23:00","-5.6","","-6.7","","92","","34","","6","","25.0","","99.31","","","","-8","","Mainly Clear"
"1954-12-03 00:00","1954","12","03","00:00","-5.6","","-6.7","","92","","36","","8","","25.0","","99.34","","","","-9","","Clear"
"1954-12-03 01:00","1954","12","03","01:00","-6.7","","-7.8","","92","","5","","6","","25.0","","99.34","","","","-10","","Clear"
"1954-12-03 02:00","1954","12","03","02:00","-5.6","","-6.1","","96","","5","","6","","24.1","","99.39","","","","-8","","Snow Showers"
"1954-12-03 03:00","1954","12","03","03:00","-5.6","","-7.2","","88","","36","","6","","25.0","","99.39","","","","-8","","Cloudy"
"1954-12-03 04:00","1954","12","03","04:00","-6.1","","-7.8","","88","","36","","6","","25.0","","99.37","","","","-9","","Mainly Clear"
"1954-12-03 05:00","1954","12","03","05:00","-7.2","","-7.8","","96","","34","","13","","25.0","","99.36","","","","-13","","Clear"
"1954-12-03 06:00","1954","12","03","06:00","-7.8","","-9.4","","88","","36","","10","","25.0","","99.40","","","","-13","","Clear"
"1954-12-03 07:00","1954","12","03","07:00","-7.8","","-9.4","","88","","36","","6","","16.1","","99.41","","","","-11","","Clear"
"1954-12-03 08:00","1954","12","03","08:00","-7.8","","-9.4","","88","","36","","6","","19.3","","99.43","","","","-11","","Clear"
"1954-12-03 09:00","1954","12","03","09:00","-6.1","","-8.9","","81","","23","","5","","19.3","","99.42","","","","-9","","Mainly Clear"
"1954-12-03 10:00","1954","12","03","10:00","-3.9","","-7.2","","78","","23","","5","","19.3","","99.42","","","","-6","","Mainly Clear"
"1954-12-03 11:00","1954","12","03","11:00","-2.8","","-6.7","","75","","20","","10","","19.3","","99.38","","","","-7","","Mostly Cloudy"
"1954-12-03 12:00","1954","12","03","12:00","-1.7","","-6.7","","69","","20","","18","","19.3","","99.31","","","","-7","","Mostly Cloudy"
"1954-12-03 13:00","1954","12","03","13:00","-1.1","","-5.0","","75","","20","","19","","19.3","","99.23","","","","-6","","Mostly Cloudy"
"1954-12-03 14:00","1954","12","03","14:00","-1.1","","-5.0","","75","","20","","19","","24.1","","99.17","","","","-6","","Mostly Cloudy"
"1954-12-03 15:00","1954","12","03","15:00","-1.1","","-5.0","","75","","20","","16","","25.0","","99.15","","","","-6","","Mostly Cloudy"
"1954-12-03 16:00","1954","12","03","16:00","-1.1","","-5.0","","75","","20","","16","","25.0","","99.14","","","","-6","","Cloudy"
"1954-12-03 17:00","1954","12","03","17:00","-2.2","","-5.0","","81","","20","","16","","25.0","","99.06","","","","-7","","Cloudy"
"1954-12-03 18:00","1954","12","03","18:00","-2.8","","-5.6","","81","","20","","13","","25.0","","99.04","","","","-7","","Cloudy"
"1954-12-03 19:00","1954","12","03","19:00","-2.8","","-5.6","","81","","20","","10","","25.0","","99.00","","","","-7","","Cloudy"
"1954-12-03 20:00","1954","12","03","20:00","-2.8","","-5.6","","81","","18","","13","","25.0","","98.99","","","","-7","","Cloudy"
"1954-12-03 21:00","1954","12","03","21:00","-2.8","","-5.6","","81","","18","","13","","25.0","","98.97","","","","-7","","Cloudy"
"1954-12-03 22:00","1954","12","03","22:00","-2.2","","-5.0","","81","","18","","13","","25.0","","98.92","","","","-7","","Cloudy"
"1954-12-03 23:00","1954","12","03","23:00","-2.2","","-5.0","","81","","20","","14","","25.0","","98.87","","","","-7","","Cloudy"
"1954-12-04 00:00","1954","12","04","00:00","-2.8","","-4.4","","88","","23","","19","","16.1","","98.84","","","","-9","","Snow Showers"
"1954-12-04 01:00","1954","12","04","01:00","-2.8","","-4.4","","88","","23","","13","","25.0","","98.80","","","","-7","","Cloudy"
"1954-12-04 02:00","1954","12","04","02:00","-2.8","","-4.4","","88","","23","","13","","19.3","","98.79","","","","-7","","Snow Showers"
"1954-12-04 03:00","1954","12","04","03:00","-2.8","","-4.4","","88","","23","","19","","16.1","","98.78","","","","-9","","Snow Showers"
"1954-12-04 04:00","1954","12","04","04:00","-2.8","","-4.4","","88","","23","","13","","16.1","","98.70","","","","-7","","Snow Showers"
"1954-12-04 05:00","1954","12","04","05:00","-2.2","","-3.3","","92","","23","","16","","19.3","","98.69","","","","-7","","Snow"
"1954-12-04 06:00","1954","12","04","06:00","-1.7","","-2.8","","92","","23","","19","","19.3","","98.66","","","","-7","","Snow"
"1954-12-04 07:00","1954","12","04","07:00","-1.7","","-3.3","","88","","23","","23","","16.1","","98.65","","","","-8","","Cloudy"
"1954-12-04 08:00","1954","12","04","08:00","-1.1","","-2.8","","88","","25","","19","","12.9","","98.68","","","","-6","","Snow"
"1954-12-04 09:00","1954","12","04","09:00","-1.1","","-2.2","","92","","25","","13","","4.8","","98.65","","","","-5","","Snow,Fog"
"1954-12-04 10:00","1954","12","04","10:00","0.0","","-2.2","","85","","23","","13","","6.4","","98.63","","","","-4","","Haze"
"1954-12-04 11:00","1954","12","04","11:00","1.1","","-3.3","","72","","25","","24","","9.7","","98.60","","","","","","Haze"
"1954-12-04 12:00","1954","12","04","12:00","1.1","","-1.7","","82","","25","","29","","16.1","","98.55","","","","","","Mostly Cloudy"
"1954-12-04 13:00","1954","12","04","13:00","1.1","","-2.2","","78","","25","","32","","12.9","","98.54","","","","","","Cloudy"
"1954-12-04 14:00","1954","12","04","14:00","1.1","","-1.1","","85","","27","","23","","4.0","","98.54","","","","","","Snow Showers"
"1954-12-04 15:00","1954","12","04","15:00","-0.6","","-2.2","","88","","36","","13","","4.8","","98.61","","","","-5","","Snow Showers"
"1954-12-04 16:00","1954","12","04","16:00","-1.1","","-2.8","","88","","36","","8","","16.1","","98.66","","","","-4","","Snow Showers"
"1954-12-04 17:00","1954","12","04","17:00","-1.1","","-2.2","","92","","34","","8","","25.0","","98.70","","","","-4","","Cloudy"
"1954-12-04 18:00","1954","12","04","18:00","-1.1","","-2.2","","92","","32","","8","","25.0","","98.75","","","","-4","","Cloudy"
"1954-12-04 19:00","1954","12","04","19:00","-1.1","","-2.2","","92","","34","","13","","25.0","","98.83","","","","-5","","Cloudy"
"1954-12-04 20:00","1954","12","04","20:00","-2.2","","-4.4","","85","","34","","10","","25.0","","98.94","","","","-6","","Mainly Clear"
"1954-12-04 21:00","1954","12","04","21:00","-2.2","","-4.4","","85","","34","","10","","25.0","","98.97","","","","-6","","Mainly Clear"
"1954-12-04 22:00","1954","12","04","22:00","-2.8","","-5.6","","81","","34","","14","","25.0","","99.01","","","","-8","","Mostly Cloudy"
"1954-12-04 23:00","1954","12","04","23:00","-3.9","","-6.1","","85","","36","","10","","25.0","","99.10","","","","-8","","Snow Showers"
"1954-12-05 00:00","1954","12","05","00:00","-5.0","","-6.7","","88","","36","","10","","25.0","","99.09","","","","-9","","Mainly Clear"
"1954-12-05 01:00","1954","12","05","01:00","-5.6","","-6.1","","96","","36","","10","","25.0","","99.24","","","","-10","","Mainly Clear"
"1954-12-05 02:00","1954","12","05","02:00","-6.1","","-6.7","","96","","36","","10","","25.0","","99.28","","","","-11","","Mainly Clear"
"1954-12-05 03:00","1954","12","05","03:00","-7.2","","-8.9","","88","","34","","19","","25.0","","99.38","","","","-14","","Mainly Clear"
"1954-12-05 04:00","1954","12","05","04:00","-8.3","","-10.0","","88","","36","","19","","25.0","","99.50","","","","-16","","Mainly Clear"
"1954-12-05 05:00","1954","12","05","05:00","-9.4","","-10.6","","92","","36","","23","","25.0","","99.62","","","","-18","","Clear"
"1954-12-05 06:00","1954","12","05","06:00","-10.0","","-11.1","","92","","36","","16","","25.0","","99.74","","","","-17","","Clear"
"1954-12-05 07:00","1954","12","05","07:00","-10.6","","-11.7","","91","","36","","14","","25.0","","99.82","","","","-17","","Clear"
"1954-12-05 08:00","1954","12","05","08:00","-11.1","","-12.8","","87","","36","","16","","25.0","","99.95","","","","-18","","Clear"
"1954-12-05 09:00","1954","12","05","09:00","-10.6","","-13.3","","80","","36","","16","","25.0","","99.98","","","","-18","","Clear"
"1954-12-05 10:00","1954","12","05","10:00","-9.4","","-12.8","","77","","2","","11","","25.0","","100.02","","","","-15","","Clear"
"1954-12-05 11:00","1954","12","05","11:00","-7.8","","-11.7","","74","","32","","14","","25.0","","100.04","","","","-14","","Clear"
"1954-12-05 12:00","1954","12","05","12:00","-6.7","","-11.1","","71","","32","","19","","25.0","","100.04","","","","-14","","Mainly Clear"
"1954-12-05 13:00","1954","12","05","13:00","-6.7","","-10.6","","74","","29","","18","","25.0","","100.07","","","","-13","","Mainly Clear"
"1954-12-05 14:00","1954","12","05","14:00","-6.1","","-10.0","","74","","34","","18","","25.0","","100.06","","","","-13","","Mainly Clear"
"1954-12-05 15:00","1954","12","05","15:00","-6.1","","-9.4","","77","","36","","21","","24.1","","100.08","","","","-13","","Mainly Clear"
"1954-12-05 16:00","1954","12","05","16:00","-7.8","","-10.6","","81","","36","","16","","25.0","","100.16","","","","-14","","Mainly Clear"
"1954-12-05 17:00","1954","12","05","17:00","-8.3","","-12.2","","74","","34","","16","","25.0","","100.28","","","","-15","","Mainly Clear"
"1954-12-05 18:00","1954","12","05","18:00","-8.9","","-13.3","","70","","32","","16","","25.0","","100.31","","","","-16","","Clear"
"1954-12-05 19:00","1954","12","05","19:00","-9.4","","-12.2","","80","","29","","19","","25.0","","100.40","","","","-17","","Clear"
"1954-12-05 20:00","1954","12","05","20:00","-10.0","","-12.8","","80","","27","","13","","25.0","","100.48","","","","-16","","Clear"
"1954-12-05 21:00","1954","12","05","21:00","-9.4","","-12.2","","80","","32","","13","","25.0","","100.52","","","","-15","","Clear"
"1954-12-05 22:00","1954","12","05","22:00","-10.0","","-12.8","","80","","32","","19","","25.0","","100.59","","","","-18","","Clear"
"1954-12-05 23:00","1954","12","05","23:00","-9.4","","-11.7","","84","","34","","23","","25.0","","100.64","","","","-18","","Clear"
"1954-12-06 00:00","1954","12","06","00:00","-10.6","","-12.2","","87","","36","","29","","25.0","","100.71","","","","-20","","Clear"
"1954-12-06 01:00","1954","12","06","01:00","-11.1","","-12.8","","87","","36","","26","","25.0","","100.76","","","","-20","","Clear"
"1954-12-06 02:00","1954","12","06","02:00","-11.1","","-12.8","","87","","36","","24","","25.0","","100.87","","","","-20","","Clear"
"1954-12-06 03:00","1954","12","06","03:00","-10.6","","-12.2","","87","","34","","24","","25.0","","100.92","","","","-19","","Clear"
"1954-12-06 04:00","1954","12","06","04:00","-11.1","","-12.2","","91","","36","","23","","25.0","","100.99","","","","-20","","Clear"
"1954-12-06 05:00","1954","12","06","05:00","-11.7","","-12.8","","91","","36","","16","","25.0","","101.03","","","","-19","","Clear"
"1954-12-06 06:00","1954","12","06","06:00","-11.7","","-13.3","","87","","36","","23","","25.0","","101.10","","","","-21","","Clear"
"1954-12-06 07:00","1954","12","06","07:00","-11.7","","-12.8","","91","","36","","19","","25.0","","101.15","","","","-20","","Clear"
"1954-12-06 08:00","1954","12","06","08:00","-11.7","","-12.8","","91","","36","","24","","25.0","","101.21","","","","-21","","Clear"
"1954-12-06 09:00","1954","12","06","09:00","-11.1","","-13.3","","84","","36","","24","","25.0","","101.27","","","","-20","","Clear"
"1954-12-06 10:00","1954","12","06","10:00","-10.0","","-11.7","","88","","36","","26","","25.0","","101.28","","","","-19","","Clear"
"1954-12-06 11:00","1954","12","06","11:00","-7.8","","-9.4","","88","","36","","24","","25.0","","101.29","","","","-16","","Clear"
"1954-12-06 12:00","1954","12","06","12:00","-8.3","","-9.4","","92","","36","","24","","25.0","","101.20","","","","-16","","Mainly Clear"
"1954-12-06 13:00","1954","12","06","13:00","-8.3","","-10.6","","84","","36","","27","","25.0","","101.18","","","","-17","","Mainly Clear"
"1954-12-06 14:00","1954","12","06","14:00","-7.2","","-8.9","","88","","36","","32","","25.0","","101.11","","","","-16","","Mainly Clear"
"1954-12-06 15:00","1954","12","06","15:00","-6.7","","-7.8","","92","","36","","27","","25.0","","101.09","","","","-15","","Clear"
"1954-12-06 16:00","1954","12","06","16:00","-6.7","","-8.9","","84","","36","","26","","25.0","","101.09","","","","-15","","Clear"
"1954-12-06 17:00","1954","12","06","17:00","-7.2","","-8.9","","88","","36","","24","","25.0","","101.09","","","","-15","","Mainly Clear"
"1954-12-06 18:00","1954","12","06","18:00","-7.2","","-9.4","","84","","34","","29","","25.0","","101.06","","","","-16","","Clear"
"1954-12-06 19:00","1954","12","06","19:00","-7.8","","-9.4","","88","","34","","27","","25.0","","101.04","","","","-16","","Clear"
"1954-12-06 20:00","1954","12","06","20:00","-7.8","","-9.4","","88","","34","","27","","25.0","","101.06","","","","-16","","Clear"
"1954-12-06 21:00","1954","12","06","21:00","-8.3","","-9.4","","92","","34","","24","","25.0","","101.08","","","","-16","","Clear"
"1954-12-06 22:00","1954","12","06","22:00","-8.3","","-10.0","","92","","34","","27","","25.0","","101.02","","","","-17","","Clear"
"1954-12-06 23:00","1954","12","06","23:00","-8.3","","-10.0","","92","","34","","29","","25.0","","101.01","","","","-17","","Clear"
"1954-12-07 00:00","1954","12","07","00:00","-8.9","","-10.0","","92","","34","","16","","25.0","","100.92","","","","-16","","Clear"
"1954-12-07 01:00","1954","12","07","01:00","-8.9","","-10.6","","88","","36","","19","","25.0","","100.85","","","","-16","","Clear"
"1954-12-07 02:00","1954","12","07","02:00","-8.9","","-10.6","","88","","34","","29","","25.0","","100.75","","","","-18","","Clear"
"1954-12-07 03:00","1954","12","07","03:00","-8.9","","-10.6","","88","","34","","32","","25.0","","100.70","","","","-18","","Clear"
"1954-12-07 04:00","1954","12","07","04:00","-8.9","","-10.0","","92","","36","","32","","25.0","","100.60","","","","-18","","Clear"
"1954-12-07 05:00","1954","12","07","05:00","-8.9","","-10.6","","88","","36","","35","","25.0","","100.50","","","","-19","","Clear"
"1954-12-07 06:00","1954","12","07","06:00","-8.3","","-11.7","","77","","36","","32","","25.0","","100.46","","","","-18","","Clear"
"1954-12-07 07:00","1954","12","07","07:00","-8.3","","-9.4","","92","","36","","24","","25.0","","100.42","","","","-16","","Mainly Clear"
"1954-12-07 08:00","1954","12","07","08:00","-7.2","","-8.9","","88","","34","","26","","25.0","","100.36","","","","-15","","Mainly Clear"
"1954-12-07 09:00","1954","12","07","09:00","-7.2","","-8.9","","88","","36","","32","","25.0","","100.29","","","","-16","","Snow Showers"
"1954-12-07 10:00","1954","12","07","10:00","-7.2","","-9.4","","84","","36","","32","","25.0","","100.18","","","","-16","","Mainly Clear"
"1954-12-07 11:00","1954","12","07","11:00","-6.1","","-7.2","","92","","34","","32","","25.0","","100.07","","","","-15","","Mainly Clear"
"1954-12-07 12:00","1954","12","07","12:00","-5.0","","-6.1","","92","","32","","35","","25.0","","99.91","","","","-14","","Mainly Clear"
"1954-12-07 13:00","1954","12","07","13:00","-3.9","","-5.0","","92","","34","","32","","25.0","","99.84","","","","-12","","Mostly Cloudy"
"1954-12-07 14:00","1954","12","07","14:00","-3.9","","-5.0","","92","","34","","31","","25.0","","99.72","","","","-12","","Mostly Cloudy"
"1954-12-07 15:00","1954","12","07","15:00","-4.4","","-5.6","","92","","32","","42","","25.0","","99.68","","","","-13","","Mostly Cloudy"
"1954-12-07 16:00","1954","12","07","16:00","-5.0","","-6.7","","88","","29","","40","","25.0","","99.63","","","","-14","","Mostly Cloudy"
"1954-12-07 17:00","1954","12","07","17:00","-5.6","","-7.8","","88","","29","","37","","25.0","","99.57","","","","-15","","Mostly Cloudy"
"1954-12-07 18:00","1954","12","07","18:00","-6.1","","-7.8","","92","","29","","32","","25.0","","99.53","","","","-15","","Mainly Clear"
"1954-12-07 19:00","1954","12","07","19:00","-5.6","","-7.8","","88","","29","","32","","25.0","","99.49","","","","-14","","Mainly Clear"
"1954-12-07 20:00","1954","12","07","20:00","-6.1","","-8.3","","84","","29","","27","","25.0","","99.48","","","","-14","","Mainly Clear"
"1954-12-07 21:00","1954","12","07","21:00","-6.7","","-8.3","","88","","27","","21","","25.0","","99.44","","","","-14","","Mainly Clear"
"1954-12-07 22:00","1954","12","07","22:00","-6.7","","-8.9","","84","","27","","19","","25.0","","99.39","","","","-14","","Mainly Clear"
"1954-12-07 23:00","1954","12","07","23:00","-5.6","","-7.2","","88","","25","","23","","25.0","","99.35","","","","-13","","Mostly Cloudy"
"1954-12-08 00:00","1954","12","08","00:00","-5.6","","-7.2","","88","","27","","26","","25.0","","99.36","","","","-13","","Mainly Clear"
"1954-12-08 01:00","1954","12","08","01:00","-3.9","","-6.7","","81","","25","","29","","25.0","","99.35","","","","-11","","Mostly Cloudy"
"1954-12-08 02:00","1954","12","08","02:00","-3.3","","-5.0","","88","","25","","32","","25.0","","99.36","","","","-11","","Cloudy"
"1954-12-08 03:00","1954","12","08","03:00","-3.3","","-5.0","","88","","25","","32","","25.0","","99.38","","","","-11","","Cloudy"
"1954-12-08 04:00","1954","12","08","04:00","-2.8","","-3.9","","92","","25","","29","","19.3","","99.40","","","","-10","","Snow"
"1954-12-08 05:00","1954","12","08","05:00","-2.8","","-3.9","","92","","25","","29","","19.3","","99.40","","","","-10","","Snow"
"1954-12-08 06:00","1954","12","08","06:00","-2.8","","-3.9","","92","","25","","26","","19.3","","99.36","","","","-10","","Snow"
"1954-12-08 07:00","1954","12","08","07:00","-2.2","","-3.3","","92","","25","","32","","19.3","","99.38","","","","-10","","Snow"
"1954-12-08 08:00","1954","12","08","08:00","-2.2","","-3.3","","92","","23","","32","","24.1","","99.38","","","","-10","","Mostly Cloudy"
"1954-12-08 09:00","1954","12","08","09:00","-2.8","","-3.9","","92","","23","","27","","9.7","","99.39","","","","-10","","Haze"
"1954-12-08 10:00","1954","12","08","10:00","-2.2","","-3.9","","88","","23","","26","","9.7","","99.41","","","","-9","","Haze"
"1954-12-08 11:00","1954","12","08","11:00","-1.1","","-2.2","","92","","25","","32","","11.3","","99.36","","","","-8","","Mainly Clear"
"1954-12-08 12:00","1954","12","08","12:00","0.0","","-2.8","","82","","23","","29","","11.3","","99.22","","","","-6","","Mainly Clear"
"1954-12-08 13:00","1954","12","08","13:00","0.6","","-2.8","","78","","25","","45","","11.3","","99.17","","","","","","Clear"
"1954-12-08 14:00","1954","12","08","14:00","1.1","","-3.3","","72","","25","","48","","16.1","","99.09","","","","","","Mainly Clear"
"1954-12-08 15:00","1954","12","08","15:00","1.1","","-3.3","","72","","23","","29","","19.3","","99.08","","","","","","Mainly Clear"
"1954-12-08 16:00","1954","12","08","16:00","-0.6","","-4.4","","75","","23","","21","","19.3","","99.02","","","","-6","","Mainly Clear"
"1954-12-08 17:00","1954","12","08","17:00","0.6","","-1.7","","85","","23","","39","","16.1","","98.98","","","","","","Mostly Cloudy"
"1954-12-08 18:00","1954","12","08","18:00","0.6","","-1.7","","85","","23","","40","","16.1","","98.98","","","","","","Mostly Cloudy"
"1954-12-08 19:00","1954","12","08","19:00","0.6","","-1.1","","88","","23","","40","","16.1","","98.90","","","","","","Cloudy"
"1954-12-08 20:00","1954","12","08","20:00","1.1","","-0.6","","89","","23","","42","","16.1","","98.87","","","","","","Cloudy"
"1954-12-08 21:00","1954","12","08","21:00","0.0","","-2.2","","85","","23","","29","","16.1","","98.84","","","","-6","","Mostly Cloudy"
"1954-12-08 22:00","1954","12","08","22:00","0.0","","-2.2","","85","","23","","24","","16.1","","98.79","","","","-6","","Mostly Cloudy"
"1954-12-08 23:00","1954","12","08","23:00","0.0","","-1.1","","92","","20","","19","","16.1","","98.77","","","","-5","","Mostly Cloudy"
"1954-12-09 00:00","1954","12","09","00:00","-0.6","","-2.2","","88","","18","","16","","16.1","","98.71","","","","-5","","Mostly Cloudy"
"1954-12-09 01:00","1954","12","09","01:00","0.6","","-1.7","","92","","18","","19","","16.1","","98.64","","","","","","Cloudy"
"1954-12-09 02:00","1954","12","09","02:00","0.6","","-1.7","","92","","18","","16","","16.1","","98.60","","","","","","Snow Showers"
"1954-12-09 03:00","1954","12","09","03:00","1.7","","0.6","","92","","20","","13","","16.1","","98.52","","","","","","Snow Showers"
"1954-12-09 04:00","1954","12","09","04:00","2.2","","0.0","","85","","18","","16","","16.1","","98.46","","","","","","Snow Showers"
"1954-12-09 05:00","1954","12","09","05:00","2.2","","0.0","","85","","18","","16","","4.8","","98.42","","","","","","Snow"
"1954-12-09 06:00","1954","12","09","06:00","2.2","","0.0","","85","","18","","16","","16.1","","98.30","","","","","","Cloudy"
"1954-12-09 07:00","1954","12","09","07:00","2.2","","0.6","","89","","18","","16","","16.1","","98.20","","","","","","Cloudy"
"1954-12-09 08:00","1954","12","09","08:00","2.2","","1.7","","96","","18","","16","","4.0","","98.20","","","","","","Drizzle,Fog"
"1954-12-09 09:00","1954","12","09","09:00","2.2","","1.7","","96","","18","","13","","2.4","","98.13","","","","","","Drizzle,Fog"
"1954-12-09 10:00","1954","12","09","10:00","3.3","","2.2","","92","","20","","19","","11.3","","98.10","","","","","","Mostly Cloudy"
"1954-12-09 11:00","1954","12","09","11:00","3.3","","2.8","","96","","18","","16","","2.4","","98.03","","","","","","Drizzle,Fog"
"1954-12-09 12:00","1954","12","09","12:00","4.4","","3.9","","96","","20","","13","","2.4","","97.94","","","","","","Fog"
"1954-12-09 13:00","1954","12","09","13:00","3.9","","2.8","","92","","18","","13","","3.2","","97.91","","","","","","Fog"
"1954-12-09 14:00","1954","12","09","14:00","3.9","","2.8","","92","","23","","13","","9.7","","97.89","","","","","","Fog"
"1954-12-09 15:00","1954","12","09","15:00","3.3","","1.1","","85","","20","","16","","11.3","","97.93","","","","","","Cloudy"
"1954-12-09 16:00","1954","12","09","16:00","2.2","","1.1","","92","","20","","19","","9.7","","97.97","","","","","","Fog"
"1954-12-09 17:00","1954","12","09","17:00","1.7","","0.6","","92","","20","","23","","12.9","","98.00","","","","","","Rain Showers"
"1954-12-09 18:00","1954","12","09","18:00","1.1","","0.0","","92","","20","","14","","9.7","","98.03","","","","","","Snow Showers"
"1954-12-09 19:00","1954","12","09","19:00","1.1","","0.0","","92","","20","","16","","6.4","","98.03","","","","","","Snow Showers"
"1954-12-09 20:00","1954","12","09","20:00","0.6","","0.0","","96","","20","","19","","2.4","","98.00","","","","","","Snow"
"1954-12-09 21:00","1954","12","09","21:00","0.6","","0.0","","96","","20","","19","","3.2","","97.96","","","","","","Snow"
"1954-12-09 22:00","1954","12","09","22:00","0.6","","0.0","","96","","23","","19","","6.4","","97.96","","","","","","Snow"
"1954-12-09 23:00","1954","12","09","23:00","1.1","","0.6","","96","","23","","23","","6.4","","97.95","","","","","","Snow"
"1954-12-10 00:00","1954","12","10","00:00","0.6","","0.0","","92","","20","","16","","2.4","","97.98","","","","","","Snow"
"1954-12-10 01:00","1954","12","10","01:00","0.6","","0.0","","92","","25","","16","","2.4","","97.97","","","","","","Snow"
"1954-12-10 02:00","1954","12","10","02:00","0.6","","0.0","","92","","25","","13","","2.4","","97.99","","","","","","Snow"
"1954-12-10 03:00","1954","12","10","03:00","1.7","","0.6","","89","","34","","23","","12.9","","97.99","","","","","","Rain,Snow"
"1954-12-10 04:00","1954","12","10","04:00","1.1","","0.0","","92","","34","","29","","25.0","","98.00","","","","","","Cloudy"
"1954-12-10 05:00","1954","12","10","05:00","0.6","","-1.1","","88","","34","","29","","25.0","","98.04","","","","","","Cloudy"
"1954-12-10 06:00","1954","12","10","06:00","-0.6","","-1.1","","96","","34","","29","","12.9","","98.12","","","","-7","","Snow"
"1954-12-10 07:00","1954","12","10","07:00","-1.1","","-2.2","","92","","34","","29","","12.9","","98.24","","","","-8","","Snow"
"1954-12-10 08:00","1954","12","10","08:00","-1.7","","-3.9","","85","","36","","29","","12.9","","98.35","","","","-9","","Snow"
"1954-12-10 09:00","1954","12","10","09:00","-2.2","","-3.9","","88","","36","","42","","19.3","","98.50","","","","-11","","Mainly Clear"
"1954-12-10 10:00","1954","12","10","10:00","-1.7","","-3.9","","85","","36","","32","","24.1","","98.64","","","","-9","","Mostly Cloudy"
"1954-12-10 11:00","1954","12","10","11:00","-1.1","","-4.4","","78","","36","","32","","24.1","","98.68","","","","-8","","Cloudy"
"1954-12-10 12:00","1954","12","10","12:00","-1.7","","-4.4","","81","","34","","29","","25.0","","98.73","","","","-9","","Snow Showers"
"1954-12-10 13:00","1954","12","10","13:00","-1.1","","-3.3","","85","","36","","42","","25.0","","98.77","","","","-9","","Mostly Cloudy"
"1954-12-10 14:00","1954","12","10","14:00","0.0","","-2.2","","85","","36","","32","","25.0","","98.85","","","","-7","","Mostly Cloudy"
"1954-12-10 15:00","1954","12","10","15:00","-0.6","","-2.2","","88","","36","","29","","25.0","","98.97","","","","-7","","Mostly Cloudy"
"1954-12-10 16:00","1954","12","10","16:00","-0.6","","-2.2","","88","","32","","24","","25.0","","99.05","","","","-7","","Cloudy"
"1954-12-10 17:00","1954","12","10","17:00","-0.6","","-2.2","","88","","32","","29","","25.0","","99.14","","","","-7","","Cloudy"
"1954-12-10 18:00","1954","12","10","18:00","-1.1","","-2.8","","88","","29","","26","","25.0","","99.23","","","","-7","","Cloudy"
"1954-12-10 19:00","1954","12","10","19:00","-1.1","","-2.8","","88","","29","","23","","25.0","","99.29","","","","-7","","Cloudy"
"1954-12-10 20:00","1954","12","10","20:00","-1.1","","-2.8","","88","","34","","19","","25.0","","99.35","","","","-6","","Snow Showers"
"1954-12-10 21:00","1954","12","10","21:00","-1.1","","-2.8","","88","","29","","19","","25.0","","99.41","","","","-6","","Snow Showers"
"1954-12-10 22:00","1954","12","10","22:00","-1.1","","-2.2","","92","","29","","14","","25.0","","99.45","","","","-6","","Snow Showers"
"1954-12-10 23:00","1954","12","10","23:00","-1.1","","-2.2","","92","","29","","19","","25.0","","99.53","","","","-6","","Snow Showers"
"1954-12-11 00:00","1954","12","11","00:00","-1.1","","-2.2","","92","","32","","16","","25.0","","99.53","","","","-6","","Cloudy"
"1954-12-11 01:00","1954","12","11","01:00","-1.1","","-2.2","","92","","32","","16","","25.0","","99.55","","","","-6","","Snow Showers"
"1954-12-11 02:00","1954","12","11","02:00","-0.6","","-1.1","","96","","36","","8","","25.0","","99.61","","","","-3","","Snow Showers"
"1954-12-11 03:00","1954","12","11","03:00","-1.1","","-2.2","","92","","20","","8","","25.0","","99.70","","","","-4","","Snow Showers"
"1954-12-11 04:00","1954","12","11","04:00","-1.1","","-2.2","","92","","34","","8","","25.0","","99.69","","","","-4","","Snow Showers"
"1954-12-11 05:00","1954","12","11","05:00","-1.1","","-2.8","","88","","34","","8","","25.0","","99.71","","","","-4","","Snow Showers"
"1954-12-11 06:00","1954","12","11","06:00","-1.1","","-2.8","","88","","29","","16","","25.0","","99.79","","","","-6","","Cloudy"
"1954-12-11 07:00","1954","12","11","07:00","-1.1","","-2.8","","88","","34","","16","","25.0","","99.79","","","","-6","","Cloudy"
"1954-12-11 08:00","1954","12","11","08:00","-1.1","","-2.8","","88","","34","","10","","25.0","","99.80","","","","-5","","Cloudy"
"1954-12-11 09:00","1954","12","11","09:00","-1.1","","-2.8","","88","","32","","10","","25.0","","99.98","","","","-5","","Snow Grains"
"1954-12-11 10:00","1954","12","11","10:00","-1.1","","-2.8","","88","","5","","10","","25.0","","100.06","","","","-5","","Snow Grains"
"1954-12-11 11:00","1954","12","11","11:00","-1.1","","-1.1","","100","","36","","10","","24.1","","100.06","","","","-5","","Snow"
"1954-12-11 12:00","1954","12","11","12:00","-0.6","","-1.7","","92","","36","","8","","25.0","","100.06","","","","-3","","Cloudy"
"1954-12-11 13:00","1954","12","11","13:00","0.6","","-1.1","","88","","32","","29","","25.0","","100.03","","","","","","Cloudy"
"1954-12-11 14:00","1954","12","11","14:00","1.1","","-0.6","","89","","32","","23","","25.0","","100.06","","","","","","Cloudy"
"1954-12-11 15:00","1954","12","11","15:00","0.6","","-1.1","","88","","29","","23","","25.0","","100.15","","","","","","Cloudy"
"1954-12-11 16:00","1954","12","11","16:00","0.6","","-1.7","","85","","29","","23","","25.0","","100.17","","","","","","Cloudy"
"1954-12-11 17:00","1954","12","11","17:00","0.6","","-1.7","","85","","29","","19","","25.0","","100.16","","","","","","Cloudy"
"1954-12-11 18:00","1954","12","11","18:00","0.6","","-1.7","","85","","29","","18","","25.0","","100.17","","","","","","Cloudy"
"1954-12-11 19:00","1954","12","11","19:00","0.6","","-2.2","","82","","27","","18","","25.0","","100.17","","","","","","Cloudy"
"1954-12-11 20:00","1954","12","11","20:00","0.0","","-2.2","","85","","27","","19","","25.0","","100.22","","","","-5","","Cloudy"
"1954-12-11 21:00","1954","12","11","21:00","0.0","","-2.2","","85","","25","","13","","25.0","","100.19","","","","-4","","Cloudy"
"1954-12-11 22:00","1954","12","11","22:00","0.0","","-2.2","","85","","25","","14","","25.0","","100.15","","","","-4","","Cloudy"
"1954-12-11 23:00","1954","12","11","23:00","0.0","","-2.2","","85","","27","","16","","25.0","","100.25","","","","-5","","Cloudy"
"1954-12-12 00:00","1954","12","12","00:00","-0.6","","-2.2","","88","","25","","13","","25.0","","100.27","","","","-5","","Cloudy"
"1954-12-12 01:00","1954","12","12","01:00","-0.6","","-2.2","","88","","25","","10","","25.0","","100.15","","","","-4","","Cloudy"
"1954-12-12 02:00","1954","12","12","02:00","-0.6","","-2.2","","88","","23","","10","","25.0","","100.20","","","","-4","","Mostly Cloudy"
"1954-12-12 03:00","1954","12","12","03:00","-2.2","","-4.4","","85","","23","","10","","25.0","","100.20","","","","-6","","Mostly Cloudy"
"1954-12-12 04:00","1954","12","12","04:00","-2.2","","-4.4","","85","","18","","10","","25.0","","100.10","","","","-6","","Mostly Cloudy"
"1954-12-12 05:00","1954","12","12","05:00","-2.2","","-4.4","","85","","18","","10","","25.0","","100.07","","","","-6","","Cloudy"
"1954-12-12 06:00","1954","12","12","06:00","-2.2","","-4.4","","85","","20","","10","","12.9","","100.02","","","","-6","","Cloudy"
"1954-12-12 07:00","1954","12","12","07:00","-2.2","","-3.9","","88","","25","","3","","12.9","","100.01","","","","-3","","Snow Showers"
"1954-12-12 08:00","1954","12","12","08:00","-1.7","","-2.8","","92","","18","","10","","1.2","","100.01","","","","-5","","Snow,Fog"
"1954-12-12 09:00","1954","12","12","09:00","-1.7","","-2.2","","96","","18","","6","","1.2","","99.97","","","","-4","","Snow"
"1954-12-12 10:00","1954","12","12","10:00","-1.7","","-2.8","","92","","","","0","","1.2","","100.02","","","","","","Snow"
"1954-12-12 11:00","1954","12","12","11:00","-0.6","","-1.7","","92","","27","","5","","0.8","","100.00","","","","-2","","Moderate Snow"
"1954-12-12 12:00","1954","12","12","12:00","-0.6","","-1.7","","92","","29","","6","","1.2","","99.94","","","","-3","","Snow"
"1954-12-12 13:00","1954","12","12","13:00","-1.1","","-1.7","","96","","23","","6","","1.6","","99.90","","","","-3","","Snow"
"1954-12-12 14:00","1954","12","12","14:00","0.6","","-1.1","","88","","32","","5","","2.4","","99.88","","","","","","Fog"
"1954-12-12 15:00","1954","12","12","15:00","0.6","","-0.6","","92","","36","","5","","2.4","","100.00","","","","","","Fog"
"1954-12-12 16:00","1954","12","12","16:00","0.6","","-0.6","","92","","36","","18","","12.9","","100.05","","","","","","Mostly Cloudy"
"1954-12-12 17:00","1954","12","12","17:00","-1.1","","-2.8","","88","","36","","13","","24.1","","100.15","","","","-5","","Mainly Clear"
"1954-12-12 18:00","1954","12","12","18:00","-2.8","","-4.4","","88","","32","","16","","25.0","","100.19","","","","-8","","Mainly Clear"
"1954-12-12 19:00","1954","12","12","19:00","-3.3","","-5.6","","85","","34","","11","","25.0","","100.23","","","","-8","","Clear"
"1954-12-12 20:00","1954","12","12","20:00","-3.9","","-5.6","","88","","36","","10","","25.0","","100.31","","","","-8","","Clear"
"1954-12-12 21:00","1954","12","12","21:00","-3.9","","-5.6","","88","","36","","10","","25.0","","100.35","","","","-8","","Mainly Clear"
"1954-12-12 22:00","1954","12","12","22:00","-5.6","","-7.2","","88","","34","","11","","25.0","","100.37","","","","-10","","Mainly Clear"
"1954-12-12 23:00","1954","12","12","23:00","-5.6","","-7.2","","88","","34","","11","","25.0","","100.39","","","","-10","","Mainly Clear"
"1954-12-13 00:00","1954","12","13","00:00","-6.7","","-8.3","","88","","34","","10","","25.0","","100.39","","","","-11","","Mainly Clear"
"1954-12-13 01:00","1954","12","13","01:00","-7.8","","-9.4","","88","","34","","10","","25.0","","100.40","","","","-13","","Clear"
"1954-12-13 02:00","1954","12","13","02:00","-7.8","","-9.4","","88","","34","","8","","25.0","","100.42","","","","-12","","Clear"
"1954-12-13 03:00","1954","12","13","03:00","-9.4","","-11.1","","88","","34","","3","","25.0","","100.44","","","","-11","","Clear"
"1954-12-13 04:00","1954","12","13","04:00","-11.1","","-12.8","","87","","32","","6","","25.0","","100.44","","","","-15","","Clear"
"1954-12-13 05:00","1954","12","13","05:00","-12.2","","-13.9","","87","","29","","5","","25.0","","100.41","","","","-15","","Clear"
"1954-12-13 06:00","1954","12","13","06:00","-11.1","","-13.3","","84","","36","","8","","25.0","","100.42","","","","-16","","Clear"
"1954-12-13 07:00","1954","12","13","07:00","-10.0","","-11.7","","88","","36","","16","","25.0","","100.43","","","","-17","","Mostly Cloudy"
"1954-12-13 08:00","1954","12","13","08:00","-10.0","","-11.7","","88","","36","","13","","25.0","","100.44","","","","-16","","Cloudy"
"1954-12-13 09:00","1954","12","13","09:00","-6.7","","-7.2","","96","","36","","10","","16.1","","100.50","","","","-11","","Cloudy"
"1954-12-13 10:00","1954","12","13","10:00","-5.0","","-7.2","","84","","36","","10","","24.1","","100.48","","","","-9","","Mostly Cloudy"
"1954-12-13 11:00","1954","12","13","11:00","-2.8","","-4.4","","92","","5","","10","","19.3","","100.40","","","","-7","","Mainly Clear"
"1954-12-13 12:00","1954","12","13","12:00","-2.8","","-4.4","","92","","5","","8","","19.3","","100.30","","","","-6","","Mostly Cloudy"
"1954-12-13 13:00","1954","12","13","13:00","0.0","","-2.2","","85","","5","","10","","25.0","","100.11","","","","-3","","Mainly Clear"
"1954-12-13 14:00","1954","12","13","14:00","0.0","","-1.7","","88","","5","","10","","25.0","","100.14","","","","-3","","Mainly Clear"
"1954-12-13 15:00","1954","12","13","15:00","0.0","","-1.1","","92","","7","","11","","25.0","","100.11","","","","-4","","Mostly Cloudy"
"1954-12-13 16:00","1954","12","13","16:00","-0.6","","-2.2","","88","","7","","10","","12.9","","100.06","","","","-4","","Mostly Cloudy"
"1954-12-13 17:00","1954","12","13","17:00","-1.7","","-3.9","","85","","7","","8","","12.9","","100.01","","","","-5","","Mainly Clear"
"1954-12-13 18:00","1954","12","13","18:00","-3.3","","-5.0","","88","","7","","8","","12.9","","100.00","","","","-7","","Mainly Clear"
"1954-12-13 19:00","1954","12","13","19:00","-3.9","","-5.6","","88","","2","","6","","12.9","","99.98","","","","-7","","Mostly Cloudy"
"1954-12-13 20:00","1954","12","13","20:00","-3.9","","-5.6","","88","","2","","6","","11.3","","99.94","","","","-7","","Mainly Clear"
"1954-12-13 21:00","1954","12","13","21:00","-4.4","","-5.6","","92","","2","","10","","12.9","","99.91","","","","-9","","Clear"
"1954-12-13 22:00","1954","12","13","22:00","-5.0","","-6.7","","88","","5","","10","","12.9","","99.89","","","","-9","","Mainly Clear"
"1954-12-13 23:00","1954","12","13","23:00","-5.0","","-5.6","","96","","5","","10","","12.9","","99.84","","","","-9","","Mainly Clear"
"1954-12-14 00:00","1954","12","14","00:00","-5.0","","-6.1","","92","","2","","10","","11.3","","99.78","","","","-9","","Mainly Clear"
"1954-12-14 01:00","1954","12","14","01:00","-5.6","","-6.7","","92","","2","","10","","11.3","","99.78","","","","-10","","Clear"
"1954-12-14 02:00","1954","12","14","02:00","-5.0","","-6.1","","92","","36","","8","","11.3","","99.70","","","","-9","","Clear"
"1954-12-14 03:00","1954","12","14","03:00","-6.7","","-8.3","","88","","36","","11","","8.0","","99.54","","","","-12","","Haze"
"1954-12-14 04:00","1954","12","14","04:00","-6.1","","-7.8","","88","","36","","11","","12.9","","99.50","","","","-11","","Clear"
"1954-12-14 05:00","1954","12","14","05:00","-6.7","","-8.9","","84","","2","","10","","8.0","","99.44","","","","-11","","Fog,Smoke"
"1954-12-14 06:00","1954","12","14","06:00","-6.1","","-7.8","","88","","2","","11","","8.0","","99.41","","","","-11","","Fog,Smoke"
"1954-12-14 07:00","1954","12","14","07:00","-6.1","","-7.2","","92","","36","","11","","4.8","","99.40","","","","-11","","Fog,Smoke"
"1954-12-14 08:00","1954","12","14","08:00","-6.1","","-7.2","","92","","36","","10","","8.0","","99.34","","","","-11","","Fog,Smoke"
"1954-12-14 09:00","1954","12","14","09:00","-6.1","","-7.2","","92","","36","","11","","4.8","","99.32","","","","-11","","Fog"
"1954-12-14 10:00","1954","12","14","10:00","-2.2","","-3.3","","92","","36","","13","","4.8","","99.27","","","","-7","","Fog"
"1954-12-14 11:00","1954","12","14","11:00","-0.6","","-1.1","","96","","36","","5","","3.2","","99.15","","","","-2","","Fog"
"1954-12-14 12:00","1954","12","14","12:00","0.6","","-0.6","","92","","36","","3","","2.4","","99.00","","","","","","Fog"
"1954-12-14 13:00","1954","12","14","13:00","1.7","","1.1","","96","","5","","8","","2.4","","98.90","","","","","","Fog"
"1954-12-14 14:00","1954","12","14","14:00","1.7","","1.1","","96","","5","","13","","2.4","","98.76","","","","","","Fog"
"1954-12-14 15:00","1954","12","14","15:00","1.7","","1.1","","96","","7","","13","","2.4","","98.70","","","","","","Fog"
"1954-12-14 16:00","1954","12","14","16:00","1.1","","1.1","","100","","7","","11","","2.4","","98.70","","","","","","Fog"
"1954-12-14 17:00","1954","12","14","17:00","1.7","","0.6","","92","","2","","10","","3.2","","98.61","","","","","","Fog"
"1954-12-14 18:00","1954","12","14","18:00","1.1","","0.0","","92","","2","","8","","3.2","","98.53","","","","","","Fog"
"1954-12-14 19:00","1954","12","14","19:00","1.1","","0.6","","96","","36","","8","","3.2","","98.46","","","","","","Fog"
"1954-12-14 20:00","1954","12","14","20:00","0.6","","-0.6","","92","","36","","8","","3.2","","98.33","","","","","","Drizzle,Fog"
"1954-12-14 21:00","1954","12","14","21:00","0.0","","0.0","","100","","36","","11","","3.2","","98.21","","","","-4","","Drizzle,Fog"
"1954-12-14 22:00","1954","12","14","22:00","0.0","","-0.6","","96","","36","","13","","3.2","","98.11","","","","-4","","Drizzle,Fog"
"1954-12-14 23:00","1954","12","14","23:00","0.0","","-0.6","","96","","34","","19","","2.4","","98.05","","","","-5","","Ice Pellets,Fog"
"1954-12-15 00:00","1954","12","15","00:00","0.0","","-0.6","","96","","32","","19","","2.4","","97.96","","","","-5","","Rain,Ice Pellets,Fog"
"1954-12-15 01:00","1954","12","15","01:00","0.0","","-0.6","","96","","32","","13","","2.4","","97.90","","","","-4","","Snow,Ice Pellets,Fog"
"1954-12-15 02:00","1954","12","15","02:00","0.0","","-0.6","","96","","32","","16","","2.0","","97.83","","","","-5","","Snow"
"1954-12-15 03:00","1954","12","15","03:00","0.0","","-0.6","","96","","32","","13","","1.6","","97.76","","","","-4","","Snow"
"1954-12-15 04:00","1954","12","15","04:00","0.0","","-0.6","","96","","34","","14","","1.6","","97.67","","","","-4","","Snow"
"1954-12-15 05:00","1954","12","15","05:00","0.0","","-0.6","","96","","32","","13","","3.2","","97.60","","","","-4","","Snow"
"1954-12-15 06:00","1954","12","15","06:00","0.0","","-0.6","","96","","34","","13","","3.2","","97.59","","","","-4","","Snow"
"1954-12-15 07:00","1954","12","15","07:00","0.6","","-0.6","","92","","34","","13","","2.0","","97.57","","","","","","Snow"
"1954-12-15 08:00","1954","12","15","08:00","0.6","","0.0","","96","","27","","10","","1.6","","97.56","","","","","","Snow"
"1954-12-15 09:00","1954","12","15","09:00","0.6","","0.0","","96","","32","","10","","1.2","","97.60","","","","","","Snow"
"1954-12-15 10:00","1954","12","15","10:00","0.6","","0.0","","96","","32","","16","","1.2","","97.60","","","","","","Snow"
"1954-12-15 11:00","1954","12","15","11:00","0.0","","-0.6","","96","","32","","29","","1.2","","97.60","","","","-6","","Snow"
"1954-12-15 12:00","1954","12","15","12:00","0.6","","0.0","","96","","32","","23","","12.9","","97.56","","","","","","Snow"
"1954-12-15 13:00","1954","12","15","13:00","0.6","","-1.1","","88","","32","","23","","16.1","","97.52","","","","","","Cloudy"
"1954-12-15 14:00","1954","12","15","14:00","0.6","","0.0","","96","","32","","23","","3.2","","97.53","","","","","","Snow"
"1954-12-15 15:00","1954","12","15","15:00","0.0","","-0.6","","96","","34","","29","","1.6","","97.58","","","","-6","","Snow"
"1954-12-15 16:00","1954","12","15","16:00","0.0","","-0.6","","96","","34","","23","","1.2","","97.62","","","","-6","","Snow"
"1954-12-15 17:00","1954","12","15","17:00","0.0","","-0.6","","96","","34","","27","","12.9","","97.69","","","","-6","","Snow"
"1954-12-15 18:00","1954","12","15","18:00","-0.6","","-0.6","","100","","36","","27","","16.1","","97.76","","","","-7","","Snow"
"1954-12-15 19:00","1954","12","15","19:00","-1.1","","-2.2","","92","","36","","27","","16.1","","97.81","","","","-8","","Snow"
"1954-12-15 20:00","1954","12","15","20:00","-1.1","","-2.2","","92","","34","","24","","25.0","","97.89","","","","-7","","Cloudy"
"1954-12-15 21:00","1954","12","15","21:00","-2.2","","-3.9","","88","","34","","26","","25.0","","97.98","","","","-9","","Mostly Cloudy"
"1954-12-15 22:00","1954","12","15","22:00","-2.8","","-5.0","","85","","34","","21","","25.0","","98.03","","","","-9","","Mainly Clear"
"1954-12-15 23:00","1954","12","15","23:00","-2.2","","-4.4","","85","","34","","23","","25.0","","98.14","","","","-8","","Mainly Clear"
"1954-12-16 00:00","1954","12","16","00:00","-2.8","","-4.4","","88","","34","","26","","25.0","","98.19","","","","-10","","Mainly Clear"
"1954-12-16 01:00","1954","12","16","01:00","-2.2","","-4.4","","85","","34","","26","","25.0","","98.29","","","","-9","","Mostly Cloudy"
"1954-12-16 02:00","1954","12","16","02:00","-1.7","","-4.4","","81","","34","","18","","25.0","","98.47","","","","-7","","Cloudy"
"1954-12-16 03:00","1954","12","16","03:00","-1.7","","-3.9","","85","","34","","19","","25.0","","98.57","","","","-7","","Cloudy"
"1954-12-16 04:00","1954","12","16","04:00","-1.7","","-4.4","","81","","34","","16","","25.0","","98.62","","","","-7","","Cloudy"
"1954-12-16 05:00","1954","12","16","05:00","-1.7","","-4.4","","81","","34","","18","","25.0","","98.69","","","","-7","","Cloudy"
"1954-12-16 06:00","1954","12","16","06:00","-2.2","","-4.4","","85","","34","","13","","25.0","","98.81","","","","-7","","Mostly Cloudy"
"1954-12-16 07:00","1954","12","16","07:00","-3.3","","-5.6","","85","","36","","6","","25.0","","98.91","","","","-6","","Mostly Cloudy"
"1954-12-16 08:00","1954","12","16","08:00","-2.8","","-5.6","","81","","32","","16","","25.0","","99.08","","","","-8","","Mainly Clear"
"1954-12-16 09:00","1954","12","16","09:00","-2.8","","-4.4","","88","","32","","23","","25.0","","99.20","","","","-9","","Mainly Clear"
"1954-12-16 10:00","1954","12","16","10:00","-2.2","","-4.4","","85","","32","","24","","25.0","","99.33","","","","-9","","Mainly Clear"
"1954-12-16 11:00","1954","12","16","11:00","-1.7","","-5.6","","75","","32","","23","","25.0","","99.36","","","","-8","","Mainly Clear"
"1954-12-16 12:00","1954","12","16","12:00","-1.1","","-4.4","","78","","34","","23","","25.0","","99.39","","","","-7","","Mostly Cloudy"
"1954-12-16 13:00","1954","12","16","13:00","-1.1","","-3.3","","85","","34","","19","","25.0","","99.42","","","","-6","","Mainly Clear"
"1954-12-16 14:00","1954","12","16","14:00","-1.1","","-3.3","","85","","34","","13","","25.0","","99.46","","","","-5","","Mostly Cloudy"
"1954-12-16 15:00","1954","12","16","15:00","-1.1","","-3.3","","85","","36","","11","","25.0","","99.55","","","","-5","","Mainly Clear"
"1954-12-16 16:00","1954","12","16","16:00","-2.2","","-8.3","","63","","34","","16","","25.0","","99.62","","","","-7","","Clear"
"1954-12-16 17:00","1954","12","16","17:00","-4.4","","-6.1","","88","","36","","14","","25.0","","99.64","","","","-10","","Clear"
"1954-12-16 18:00","1954","12","16","18:00","-7.8","","-10.0","","84","","36","","11","","25.0","","99.76","","","","-13","","Clear"
"1954-12-16 19:00","1954","12","16","19:00","-6.7","","-10.6","","74","","27","","11","","25.0","","99.80","","","","-12","","Clear"
"1954-12-16 20:00","1954","12","16","20:00","-9.4","","-11.1","","88","","27","","11","","25.0","","99.87","","","","-15","","Clear"
"1954-12-16 21:00","1954","12","16","21:00","-12.2","","-13.3","","91","","27","","10","","25.0","","99.91","","","","-18","","Clear"
"1954-12-16 22:00","1954","12","16","22:00","-10.0","","-11.7","","88","","25","","8","","25.0","","99.91","","","","-14","","Clear"
"1954-12-16 23:00","1954","12","16","23:00","-13.3","","-15.6","","83","","18","","8","","25.0","","99.99","","","","-18","","Clear"
"1954-12-17 00:00","1954","12","17","00:00","-13.3","","-16.1","","80","","27","","6","","25.0","","99.98","","","","-17","","Clear"
"1954-12-17 01:00","1954","12","17","01:00","-12.8","","-14.4","","87","","27","","6","","25.0","","99.98","","","","-17","","Clear"
"1954-12-17 02:00","1954","12","17","02:00","-13.3","","-16.1","","80","","29","","5","","25.0","","100.00","","","","-17","","Clear"
"1954-12-17 03:00","1954","12","17","03:00","-14.4","","-18.3","","72","","36","","5","","25.0","","99.99","","","","-18","","Clear"
"1954-12-17 04:00","1954","12","17","04:00","-13.9","","-17.2","","76","","36","","3","","25.0","","99.98","","","","-16","","Clear"
"1954-12-17 05:00","1954","12","17","05:00","-13.9","","-16.7","","80","","36","","3","","25.0","","99.93","","","","-16","","Mainly Clear"
"1954-12-17 06:00","1954","12","17","06:00","-14.4","","-16.7","","83","","36","","6","","25.0","","99.91","","","","-19","","Clear"
"1954-12-17 07:00","1954","12","17","07:00","-14.4","","-16.1","","87","","36","","8","","24.1","","99.90","","","","-20","","Mostly Cloudy"
"1954-12-17 08:00","1954","12","17","08:00","-12.2","","-13.9","","87","","36","","6","","16.1","","99.88","","","","-16","","Mostly Cloudy"
"1954-12-17 09:00","1954","12","17","09:00","-11.7","","-13.9","","84","","36","","3","","9.7","","99.83","","","","-14","","Haze"
"1954-12-17 10:00","1954","12","17","10:00","-6.7","","-8.3","","88","","2","","3","","12.9","","99.81","","","","-8","","Cloudy"
"1954-12-17 11:00","1954","12","17","11:00","-6.1","","-7.8","","88","","2","","10","","6.4","","99.62","","","","-11","","Haze"
"1954-12-17 12:00","1954","12","17","12:00","-1.1","","-2.2","","92","","11","","24","","12.9","","99.40","","","","-7","","Cloudy"
"1954-12-17 13:00","1954","12","17","13:00","0.0","","-0.6","","96","","11","","23","","16.1","","99.31","","","","-6","","Cloudy"
"1954-12-17 14:00","1954","12","17","14:00","0.0","","-0.6","","96","","5","","26","","16.1","","99.13","","","","-6","","Cloudy"
"1954-12-17 15:00","1954","12","17","15:00","1.1","","-1.7","","82","","11","","29","","16.1","","99.01","","","","","","Cloudy"
"1954-12-17 16:00","1954","12","17","16:00","0.6","","0.0","","96","","11","","29","","16.1","","98.86","","","","","","Cloudy"
"1954-12-17 17:00","1954","12","17","17:00","1.1","","0.6","","96","","11","","26","","16.1","","98.76","","","","","","Snow"
"1954-12-17 18:00","1954","12","17","18:00","0.0","","-0.6","","96","","11","","29","","2.8","","98.68","","","","-6","","Snow"
"1954-12-17 19:00","1954","12","17","19:00","0.0","","-0.6","","96","","11","","26","","4.8","","98.60","","","","-6","","Snow"
"1954-12-17 20:00","1954","12","17","20:00","1.1","","0.6","","96","","11","","18","","4.0","","98.50","","","","","","Snow"
"1954-12-17 21:00","1954","12","17","21:00","1.1","","0.6","","96","","11","","18","","2.8","","98.41","","","","","","Rain,Fog"
"1954-12-17 22:00","1954","12","17","22:00","2.2","","2.2","","100","","14","","18","","2.0","","98.37","","","","","","Rain,Fog"
"1954-12-17 23:00","1954","12","17","23:00","2.8","","2.8","","100","","16","","24","","3.2","","98.29","","","","","","Rain,Fog"
"1954-12-18 00:00","1954","12","18","00:00","2.8","","2.2","","96","","18","","23","","4.0","","98.27","","","","","","Rain,Drizzle,Fog"
"1954-12-18 01:00","1954","12","18","01:00","2.8","","2.2","","96","","18","","23","","4.0","","98.22","","","","","","Rain,Drizzle,Fog"
"1954-12-18 02:00","1954","12","18","02:00","2.8","","2.2","","96","","18","","26","","4.0","","98.23","","","","","","Rain,Fog"
"1954-12-18 03:00","1954","12","18","03:00","2.8","","2.2","","96","","18","","23","","6.4","","98.15","","","","","","Rain,Fog"
"1954-12-18 04:00","1954","12","18","04:00","2.8","","2.2","","96","","18","","24","","8.0","","98.05","","","","","","Rain,Fog"
"1954-12-18 05:00","1954","12","18","05:00","2.8","","2.2","","96","","18","","19","","11.3","","97.95","","","","","","Rain"
"1954-12-18 06:00","1954","12","18","06:00","2.8","","2.2","","96","","18","","16","","11.3","","97.91","","","","","","Rain"
"1954-12-18 07:00","1954","12","18","07:00","2.2","","1.7","","96","","18","","16","","11.3","","97.91","","","","","","Rain"
"1954-12-18 08:00","1954","12","18","08:00","2.2","","1.7","","96","","18","","13","","6.4","","97.83","","","","","","Rain,Fog"
"1954-12-18 09:00","1954","12","18","09:00","1.7","","1.7","","100","","16","","13","","6.4","","97.84","","","","","","Rain,Fog"
"1954-12-18 10:00","1954","12","18","10:00","1.7","","1.1","","96","","14","","13","","6.4","","97.83","","","","","","Rain,Fog"
"1954-12-18 11:00","1954","12","18","11:00","1.7","","1.1","","96","","16","","13","","6.4","","97.79","","","","","","Fog"
"1954-12-18 12:00","1954","12","18","12:00","1.7","","1.1","","96","","23","","24","","6.4","","97.70","","","","","","Fog"
"1954-12-18 13:00","1954","12","18","13:00","2.2","","0.6","","89","","23","","24","","25.0","","97.65","","","","","","Mostly Cloudy"
"1954-12-18 14:00","1954","12","18","14:00","1.7","","0.6","","92","","23","","29","","25.0","","97.66","","","","","","Cloudy"
"1954-12-18 15:00","1954","12","18","15:00","1.7","","0.0","","89","","23","","24","","25.0","","97.70","","","","","","Cloudy"
"1954-12-18 16:00","1954","12","18","16:00","1.1","","0.6","","96","","23","","24","","12.9","","97.70","","","","","","Cloudy"
"1954-12-18 17:00","1954","12","18","17:00","0.6","","0.0","","96","","23","","26","","12.9","","97.69","","","","","","Cloudy"
"1954-12-18 18:00","1954","12","18","18:00","0.6","","-1.1","","88","","23","","23","","19.3","","97.69","","","","","","Cloudy"
"1954-12-18 19:00","1954","12","18","19:00","0.6","","-0.6","","92","","23","","19","","16.1","","97.69","","","","","","Cloudy"
"1954-12-18 20:00","1954","12","18","20:00","0.6","","-0.6","","92","","23","","19","","16.1","","99.70","","","","","","Cloudy"
"1954-12-18 21:00","1954","12","18","21:00","0.6","","-0.6","","92","","23","","19","","14.5","","97.67","","","","","","Snow Showers"
"1954-12-18 22:00","1954","12","18","22:00","0.6","","-1.1","","88","","27","","16","","16.1","","97.65","","","","","","Cloudy"
"1954-12-18 23:00","1954","12","18","23:00","0.0","","-0.6","","96","","27","","19","","24.1","","97.63","","","","-5","","Cloudy"
"1954-12-19 00:00","1954","12","19","00:00","-1.1","","-2.2","","92","","29","","23","","25.0","","97.62","","","","-7","","Cloudy"
"1954-12-19 01:00","1954","12","19","01:00","-1.1","","-2.2","","92","","29","","23","","25.0","","97.61","","","","-7","","Cloudy"
"1954-12-19 02:00","1954","12","19","02:00","-1.7","","-2.8","","92","","29","","26","","25.0","","97.69","","","","-8","","Snow Showers"
"1954-12-19 03:00","1954","12","19","03:00","-2.2","","-5.6","","78","","34","","26","","25.0","","97.74","","","","-9","","Cloudy"
"1954-12-19 04:00","1954","12","19","04:00","-3.3","","-5.6","","85","","32","","29","","25.0","","97.79","","","","-11","","Snow Showers"
"1954-12-19 05:00","1954","12","19","05:00","-3.3","","-6.1","","81","","32","","23","","25.0","","97.85","","","","-10","","Snow Showers"
"1954-12-19 06:00","1954","12","19","06:00","-5.0","","-7.8","","81","","34","","24","","12.9","","97.95","","","","-12","","Snow"
"1954-12-19 07:00","1954","12","19","07:00","-6.1","","-7.8","","92","","34","","29","","11.3","","98.03","","","","-14","","Snow"
"1954-12-19 08:00","1954","12","19","08:00","-6.1","","-8.3","","84","","36","","16","","1.6","","98.14","","","","-12","","Snow"
"1954-12-19 09:00","1954","12","19","09:00","-6.7","","-9.4","","81","","34","","19","","8.0","","98.22","","","","-14","","Snow"
"1954-12-19 10:00","1954","12","19","10:00","-6.7","","-9.4","","81","","32","","26","","12.9","","98.36","","","","-15","","Mostly Cloudy"
"1954-12-19 11:00","1954","12","19","11:00","-6.7","","-9.4","","81","","32","","29","","25.0","","98.39","","","","-15","","Mainly Clear"
"1954-12-19 12:00","1954","12","19","12:00","-6.7","","-9.4","","81","","34","","26","","25.0","","98.41","","","","-15","","Mainly Clear"
"1954-12-19 13:00","1954","12","19","13:00","-7.2","","-9.4","","84","","34","","23","","25.0","","98.45","","","","-15","","Snow"
"1954-12-19 14:00","1954","12","19","14:00","-6.7","","-9.4","","81","","34","","26","","25.0","","98.51","","","","-15","","Snow"
"1954-12-19 15:00","1954","12","19","15:00","-6.7","","-9.4","","81","","32","","26","","25.0","","98.63","","","","-15","","Mostly Cloudy"
"1954-12-19 16:00","1954","12","19","16:00","-7.2","","-9.4","","84","","32","","24","","25.0","","98.77","","","","-15","","Mainly Clear"
"1954-12-19 17:00","1954","12","19","17:00","-7.8","","-10.0","","84","","36","","10","","25.0","","98.87","","","","-13","","Mostly Cloudy"
"1954-12-19 18:00","1954","12","19","18:00","-8.3","","-10.0","","88","","36","","13","","25.0","","98.96","","","","-14","","Snow Showers"
"1954-12-19 19:00","1954","12","19","19:00","-8.3","","-10.0","","88","","36","","13","","16.1","","99.00","","","","-14","","Snow Showers"
"1954-12-19 20:00","1954","12","19","20:00","-8.3","","-11.1","","80","","32","","16","","25.0","","99.05","","","","-15","","Cloudy"
"1954-12-19 21:00","1954","12","19","21:00","-8.9","","-11.1","","84","","34","","13","","19.3","","99.10","","","","-15","","Snow Showers"
"1954-12-19 22:00","1954","12","19","22:00","-8.9","","-11.1","","84","","34","","13","","24.1","","99.16","","","","-15","","Snow Showers"
"1954-12-19 23:00","1954","12","19","23:00","-10.0","","-11.7","","88","","36","","16","","25.0","","99.17","","","","-17","","Cloudy"
"1954-12-20 00:00","1954","12","20","00:00","-10.0","","-11.7","","88","","2","","13","","25.0","","99.17","","","","-16","","Snow Showers"
"1954-12-20 01:00","1954","12","20","01:00","-10.0","","-11.7","","88","","36","","13","","24.1","","99.18","","","","-16","","Snow Showers"
"1954-12-20 02:00","1954","12","20","02:00","-10.0","","-12.2","","84","","32","","13","","24.1","","99.23","","","","-16","","Snow"
"1954-12-20 03:00","1954","12","20","03:00","-10.0","","-12.2","","84","","34","","16","","25.0","","99.25","","","","-17","","Ice Crystals"
"1954-12-20 04:00","1954","12","20","04:00","-11.1","","-13.9","","80","","36","","16","","25.0","","99.25","","","","-18","","Mostly Cloudy"
"1954-12-20 05:00","1954","12","20","05:00","-11.1","","-14.4","","76","","36","","16","","25.0","","99.27","","","","-18","","Cloudy"
"1954-12-20 06:00","1954","12","20","06:00","-11.1","","-15.0","","73","","34","","18","","25.0","","99.32","","","","-19","","Mostly Cloudy"
"1954-12-20 07:00","1954","12","20","07:00","-12.8","","-16.7","","73","","34","","18","","25.0","","99.38","","","","-21","","Mainly Clear"
"1954-12-20 08:00","1954","12","20","08:00","-13.3","","-17.2","","73","","34","","16","","25.0","","99.42","","","","-21","","Mainly Clear"
"1954-12-20 09:00","1954","12","20","09:00","-13.3","","-16.7","","76","","32","","23","","25.0","","99.48","","","","-23","","Mainly Clear"
"1954-12-20 10:00","1954","12","20","10:00","-12.8","","-16.1","","76","","36","","19","","25.0","","99.50","","","","-21","","Mainly Clear"
"1954-12-20 11:00","1954","12","20","11:00","-12.8","","-16.1","","76","","36","","13","","25.0","","99.50","","","","-20","","Mainly Clear"
"1954-12-20 12:00","1954","12","20","12:00","-11.7","","-13.9","","84","","34","","16","","25.0","","99.41","","","","-19","","Snow"
"1954-12-20 13:00","1954","12","20","13:00","-11.1","","-13.9","","80","","34","","19","","25.0","","99.38","","","","-19","","Mainly Clear"
"1954-12-20 14:00","1954","12","20","14:00","-11.1","","-13.9","","80","","34","","23","","25.0","","99.40","","","","-20","","Mainly Clear"
"1954-12-20 15:00","1954","12","20","15:00","-11.1","","-13.9","","80","","34","","23","","25.0","","99.46","","","","-20","","Mainly Clear"
"1954-12-20 16:00","1954","12","20","16:00","-11.7","","-13.3","","87","","34","","16","","25.0","","99.48","","","","-19","","Clear"
"1954-12-20 17:00","1954","12","20","17:00","-12.2","","-13.9","","87","","32","","14","","25.0","","99.54","","","","-19","","Clear"
"1954-12-20 18:00","1954","12","20","18:00","-12.8","","-17.2","","69","","29","","13","","25.0","","99.62","","","","-20","","Clear"
"1954-12-20 19:00","1954","12","20","19:00","-13.3","","-16.7","","76","","32","","10","","25.0","","99.64","","","","-19","","Clear"
"1954-12-20 20:00","1954","12","20","20:00","-13.9","","-16.7","","80","","29","","10","","25.0","","99.69","","","","-20","","Clear"
"1954-12-20 21:00","1954","12","20","21:00","-13.9","","-17.2","","76","","32","","18","","25.0","","99.74","","","","-22","","Mainly Clear"
"1954-12-20 22:00","1954","12","20","22:00","-13.9","","-17.2","","76","","32","","16","","25.0","","99.75","","","","-22","","Mainly Clear"
"1954-12-20 23:00","1954","12","20","23:00","-12.2","","-17.8","","63","","34","","19","","25.0","","99.73","","","","-20","","Cloudy"
"1954-12-21 00:00","1954","12","21","00:00","-13.3","","-17.2","","73","","34","","10","","25.0","","99.68","","","","-19","","Mostly Cloudy"
"1954-12-21 01:00","1954","12","21","01:00","-13.9","","-17.2","","76","","34","","21","","25.0","","99.70","","","","-23","","Cloudy"
"1954-12-21 02:00","1954","12","21","02:00","-13.9","","-17.2","","76","","34","","23","","25.0","","99.77","","","","-23","","Cloudy"
"1954-12-21 03:00","1954","12","21","03:00","-15.0","","-18.3","","76","","34","","13","","25.0","","99.75","","","","-22","","Mainly Clear"
"1954-12-21 04:00","1954","12","21","04:00","-15.6","","-19.4","","72","","34","","14","","25.0","","99.78","","","","-23","","Clear"
"1954-12-21 05:00","1954","12","21","05:00","-15.6","","-18.3","","79","","36","","10","","25.0","","99.78","","","","-22","","Clear"
"1954-12-21 06:00","1954","12","21","06:00","-15.6","","-17.2","","87","","36","","10","","25.0","","99.81","","","","-22","","Clear"
"1954-12-21 07:00","1954","12","21","07:00","-15.0","","-17.2","","83","","34","","14","","25.0","","99.86","","","","-23","","Clear"
"1954-12-21 08:00","1954","12","21","08:00","-15.0","","-17.2","","83","","34","","18","","25.0","","99.87","","","","-24","","Clear"
"1954-12-21 09:00","1954","12","21","09:00","-14.4","","-17.2","","79","","34","","24","","25.0","","99.90","","","","-24","","Clear"
"1954-12-21 10:00","1954","12","21","10:00","-12.8","","-16.1","","76","","34","","29","","25.0","","99.89","","","","-23","","Clear"
"1954-12-21 11:00","1954","12","21","11:00","-12.8","","-16.1","","76","","34","","29","","25.0","","99.80","","","","-23","","Clear"
"1954-12-21 12:00","1954","12","21","12:00","-10.6","","-13.3","","76","","34","","24","","25.0","","99.79","","","","-19","","Clear"
"1954-12-21 13:00","1954","12","21","13:00","-10.0","","-11.7","","88","","34","","29","","25.0","","99.70","","","","-19","","Clear"
"1954-12-21 14:00","1954","12","21","14:00","-10.0","","-11.7","","88","","34","","26","","25.0","","99.70","","","","-19","","Clear"
"1954-12-21 15:00","1954","12","21","15:00","-9.4","","-11.7","","84","","34","","26","","25.0","","99.69","","","","-18","","Clear"
"1954-12-21 16:00","1954","12","21","16:00","-9.4","","-11.1","","88","","32","","26","","25.0","","99.66","","","","-18","","Clear"
"1954-12-21 17:00","1954","12","21","17:00","-10.6","","-12.8","","84","","29","","19","","25.0","","99.65","","","","-18","","Clear"
"1954-12-21 18:00","1954","12","21","18:00","-11.7","","-14.4","","80","","27","","16","","25.0","","99.64","","","","-19","","Clear"
"1954-12-21 19:00","1954","12","21","19:00","-11.7","","-13.3","","87","","27","","19","","25.0","","99.63","","","","-20","","Clear"
"1954-12-21 20:00","1954","12","21","20:00","-11.7","","-14.4","","80","","32","","19","","25.0","","99.60","","","","-20","","Clear"
"1954-12-21 21:00","1954","12","21","21:00","-11.7","","-15.0","","76","","34","","16","","25.0","","99.55","","","","-19","","Clear"
"1954-12-21 22:00","1954","12","21","22:00","-12.8","","-15.6","","80","","34","","19","","25.0","","99.55","","","","-21","","Clear"
"1954-12-21 23:00","1954","12","21","23:00","-14.4","","-16.1","","87","","34","","14","","25.0","","99.47","","","","-22","","Clear"
"1954-12-22 00:00","1954","12","22","00:00","-15.0","","-17.8","","79","","29","","10","","25.0","","99.45","","","","-21","","Clear"
"1954-12-22 01:00","1954","12","22","01:00","-15.0","","-17.8","","79","","32","","10","","25.0","","99.44","","","","-21","","Clear"
"1954-12-22 02:00","1954","12","22","02:00","-15.0","","-18.3","","76","","32","","6","","25.0","","99.41","","","","-19","","Clear"
"1954-12-22 03:00","1954","12","22","03:00","-15.6","","-18.9","","75","","25","","5","","25.0","","99.39","","","","-19","","Clear"
"1954-12-22 04:00","1954","12","22","04:00","-16.1","","-18.3","","83","","25","","6","","25.0","","99.34","","","","-21","","Clear"
"1954-12-22 05:00","1954","12","22","05:00","-16.1","","-18.3","","83","","25","","3","","25.0","","99.31","","","","-18","","Clear"
"1954-12-22 06:00","1954","12","22","06:00","-16.1","","-18.3","","83","","20","","5","","25.0","","99.27","","","","-20","","Clear"
"1954-12-22 07:00","1954","12","22","07:00","-16.1","","-17.8","","87","","25","","8","","25.0","","99.26","","","","-22","","Clear"
"1954-12-22 08:00","1954","12","22","08:00","-13.9","","-16.1","","83","","25","","8","","25.0","","99.27","","","","-19","","Mainly Clear"
"1954-12-22 09:00","1954","12","22","09:00","-12.2","","-13.9","","87","","23","","10","","25.0","","99.27","","","","-18","","Clear"
"1954-12-22 10:00","1954","12","22","10:00","-8.9","","-10.6","","88","","25","","6","","25.0","","99.24","","","","-12","","Mainly Clear"
"1954-12-22 11:00","1954","12","22","11:00","-6.7","","-8.9","","84","","25","","16","","25.0","","99.15","","","","-13","","Mainly Clear"
"1954-12-22 12:00","1954","12","22","12:00","-4.4","","-5.6","","92","","25","","23","","25.0","","99.00","","","","-11","","Mostly Cloudy"
"1954-12-22 13:00","1954","12","22","13:00","-3.3","","-5.6","","85","","25","","16","","25.0","","98.94","","","","-9","","Mostly Cloudy"
"1954-12-22 14:00","1954","12","22","14:00","-3.3","","-5.6","","85","","23","","23","","25.0","","98.92","","","","-10","","Cloudy"
"1954-12-22 15:00","1954","12","22","15:00","-3.9","","-5.6","","88","","25","","23","","25.0","","98.89","","","","-11","","Cloudy"
"1954-12-22 16:00","1954","12","22","16:00","-4.4","","-5.6","","92","","20","","14","","24.1","","98.81","","","","-10","","Snow Showers"
"1954-12-22 17:00","1954","12","22","17:00","-4.4","","-9.4","","68","","20","","18","","25.0","","98.77","","","","-10","","Snow Showers"
"1954-12-22 18:00","1954","12","22","18:00","-5.6","","-8.3","","81","","18","","10","","16.1","","98.73","","","","-10","","Snow"
"1954-12-22 19:00","1954","12","22","19:00","-5.0","","-7.2","","84","","20","","14","","16.1","","98.66","","","","-10","","Snow"
"1954-12-22 20:00","1954","12","22","20:00","-4.4","","-7.2","","81","","20","","13","","16.1","","98.60","","","","-9","","Cloudy"
"1954-12-22 21:00","1954","12","22","21:00","-3.3","","-5.6","","85","","23","","19","","16.1","","98.52","","","","-9","","Cloudy"
"1954-12-22 22:00","1954","12","22","22:00","-3.3","","-5.6","","85","","23","","21","","4.8","","98.44","","","","-10","","Snow Showers"
"1954-12-22 23:00","1954","12","22","23:00","-2.8","","-4.4","","88","","23","","29","","4.8","","98.36","","","","-10","","Snow Showers"
"1954-12-23 00:00","1954","12","23","00:00","-2.8","","-5.0","","85","","20","","19","","12.9","","98.24","","","","-9","","Cloudy"
"1954-12-23 01:00","1954","12","23","01:00","-2.2","","-5.0","","81","","20","","26","","12.9","","98.20","","","","-9","","Cloudy"
"1954-12-23 02:00","1954","12","23","02:00","-2.2","","-3.9","","88","","20","","24","","12.9","","98.17","","","","-9","","Cloudy"
"1954-12-23 03:00","1954","12","23","03:00","-2.2","","-2.8","","96","","20","","21","","12.9","","98.05","","","","-8","","Cloudy"
"1954-12-23 04:00","1954","12","23","04:00","-2.2","","-3.3","","92","","20","","26","","12.9","","97.93","","","","-9","","Cloudy"
"1954-12-23 05:00","1954","12","23","05:00","-1.7","","-2.8","","92","","23","","27","","12.9","","97.85","","","","-8","","Cloudy"
"1954-12-23 06:00","1954","12","23","06:00","-1.7","","-2.8","","92","","23","","16","","12.9","","97.77","","","","-7","","Cloudy"
"1954-12-23 07:00","1954","12","23","07:00","-1.1","","-2.2","","92","","23","","18","","12.9","","97.72","","","","-6","","Cloudy"
"1954-12-23 08:00","1954","12","23","08:00","-1.1","","-1.7","","96","","23","","26","","8.0","","97.62","","","","-7","","Fog"
"1954-12-23 09:00","1954","12","23","09:00","-1.1","","-2.2","","92","","23","","23","","8.0","","97.55","","","","-7","","Fog"
"1954-12-23 10:00","1954","12","23","10:00","-1.1","","-2.8","","88","","23","","24","","8.0","","97.52","","","","-7","","Fog"
"1954-12-23 11:00","1954","12","23","11:00","-0.6","","-2.2","","88","","23","","29","","4.0","","97.35","","","","-7","","Snow Showers"
"1954-12-23 12:00","1954","12","23","12:00","-1.1","","-2.8","","88","","23","","32","","1.6","","97.21","","","","-8","","Snow"
"1954-12-23 13:00","1954","12","23","13:00","-1.1","","-2.2","","92","","23","","26","","4.8","","97.20","","","","-7","","Snow Showers"
"1954-12-23 14:00","1954","12","23","14:00","0.0","","-1.1","","92","","23","","19","","8.0","","97.19","","","","-5","","Snow,Fog"
"1954-12-23 15:00","1954","12","23","15:00","0.0","","-0.6","","96","","23","","18","","8.0","","97.19","","","","-5","","Snow,Fog"
"1954-12-23 16:00","1954","12","23","16:00","0.6","","-0.6","","92","","23","","16","","4.8","","97.19","","","","","","Snow,Fog"
"1954-12-23 17:00","1954","12","23","17:00","0.6","","-0.6","","92","","23","","14","","6.4","","97.23","","","","","","Snow,Fog"
"1954-12-23 18:00","1954","12","23","18:00","0.6","","0.0","","96","","23","","18","","8.0","","97.29","","","","","","Snow,Fog"
"1954-12-23 19:00","1954","12","23","19:00","1.1","","0.0","","92","","23","","11","","12.9","","97.31","","","","","","Cloudy"
"1954-12-23 20:00","1954","12","23","20:00","1.7","","0.6","","92","","25","","26","","19.3","","97.33","","","","","","Cloudy"
"1954-12-23 21:00","1954","12","23","21:00","1.7","","0.6","","92","","25","","26","","24.1","","97.38","","","","","","Snow"
"1954-12-23 22:00","1954","12","23","22:00","1.7","","0.6","","92","","25","","23","","25.0","","97.44","","","","","","Snow"
"1954-12-23 23:00","1954","12","23","23:00","1.7","","0.6","","92","","25","","21","","25.0","","97.48","","","","","","Cloudy"
"1954-12-24 00:00","1954","12","24","00:00","2.2","","1.1","","92","","27","","23","","25.0","","97.56","","","","","","Cloudy"
"1954-12-24 01:00","1954","12","24","01:00","2.2","","0.6","","89","","27","","19","","25.0","","97.64","","","","","","Cloudy"
"1954-12-24 02:00","1954","12","24","02:00","2.2","","0.6","","89","","34","","23","","25.0","","97.85","","","","","","Cloudy"
"1954-12-24 03:00","1954","12","24","03:00","1.1","","0.6","","96","","34","","23","","25.0","","97.99","","","","","","Cloudy"
"1954-12-24 04:00","1954","12","24","04:00","1.1","","0.0","","92","","34","","13","","25.0","","98.07","","","","","","Cloudy"
"1954-12-24 05:00","1954","12","24","05:00","0.6","","-0.6","","92","","34","","10","","25.0","","98.16","","","","","","Cloudy"
"1954-12-24 06:00","1954","12","24","06:00","1.1","","-0.6","","89","","32","","11","","25.0","","98.36","","","","","","Cloudy"
"1954-12-24 07:00","1954","12","24","07:00","0.0","","-0.6","","96","","36","","16","","1.2","","98.48","","","","-5","","Snow Showers"
"1954-12-24 08:00","1954","12","24","08:00","-0.6","","-1.1","","96","","34","","13","","2.4","","98.68","","","","-5","","Snow Grains"
"1954-12-24 09:00","1954","12","24","09:00","-0.6","","-1.7","","92","","32","","26","","16.1","","98.82","","","","-7","","Mostly Cloudy"
"1954-12-24 10:00","1954","12","24","10:00","-0.6","","-3.3","","81","","32","","29","","16.1","","98.94","","","","-7","","Mostly Cloudy"
"1954-12-24 11:00","1954","12","24","11:00","-1.1","","-4.4","","78","","32","","35","","25.0","","99.04","","","","-8","","Mainly Clear"
"1954-12-24 12:00","1954","12","24","12:00","-1.7","","-6.1","","72","","32","","32","","25.0","","99.12","","","","-9","","Mainly Clear"
"1954-12-24 13:00","1954","12","24","13:00","-2.2","","-6.1","","75","","34","","32","","25.0","","99.21","","","","-10","","Mainly Clear"
"1954-12-24 14:00","1954","12","24","14:00","-1.7","","-5.0","","78","","34","","26","","25.0","","99.36","","","","-8","","Mainly Clear"
"1954-12-24 15:00","1954","12","24","15:00","-2.2","","-6.1","","75","","34","","32","","25.0","","99.46","","","","-10","","Mainly Clear"
"1954-12-24 16:00","1954","12","24","16:00","-2.8","","-6.1","","78","","32","","32","","25.0","","99.58","","","","-10","","Mostly Cloudy"
"1954-12-24 17:00","1954","12","24","17:00","-3.9","","-7.2","","78","","29","","21","","25.0","","99.71","","","","-10","","Mostly Cloudy"
"1954-12-24 18:00","1954","12","24","18:00","-4.4","","-7.8","","78","","29","","19","","25.0","","99.82","","","","-11","","Mostly Cloudy"
"1954-12-24 19:00","1954","12","24","19:00","-5.6","","-8.3","","81","","29","","16","","25.0","","99.91","","","","-12","","Mostly Cloudy"
"1954-12-24 20:00","1954","12","24","20:00","-7.2","","-9.4","","84","","27","","14","","25.0","","100.04","","","","-13","","Mainly Clear"
"1954-12-24 21:00","1954","12","24","21:00","-7.8","","-10.0","","84","","29","","13","","25.0","","100.10","","","","-14","","Mainly Clear"
"1954-12-24 22:00","1954","12","24","22:00","-7.8","","-10.0","","84","","29","","8","","25.0","","100.21","","","","-12","","Mainly Clear"
"1954-12-24 23:00","1954","12","24","23:00","-8.9","","-11.1","","84","","36","","3","","25.0","","100.30","","","","-11","","Mainly Clear"
"1954-12-25 00:00","1954","12","25","00:00","-10.0","","-11.7","","88","","36","","3","","25.0","","100.36","","","","-12","","Clear"
"1954-12-25 01:00","1954","12","25","01:00","-10.6","","-12.2","","87","","36","","3","","25.0","","100.39","","","","-12","","Clear"
"1954-12-25 02:00","1954","12","25","02:00","-10.6","","-13.9","","76","","36","","3","","25.0","","100.56","","","","-12","","Clear"
"1954-12-25 03:00","1954","12","25","03:00","-11.1","","-13.3","","84","","34","","5","","25.0","","100.61","","","","-14","","Clear"
"1954-12-25 04:00","1954","12","25","04:00","-10.0","","-11.7","","88","","2","","6","","25.0","","100.58","","","","-14","","Mostly Cloudy"
"1954-12-25 05:00","1954","12","25","05:00","-9.4","","-11.1","","88","","36","","5","","25.0","","100.63","","","","-12","","Cloudy"
"1954-12-25 06:00","1954","12","25","06:00","-8.3","","-10.0","","88","","2","","5","","25.0","","100.69","","","","-11","","Cloudy"
"1954-12-25 07:00","1954","12","25","07:00","-8.3","","-9.4","","92","","2","","5","","19.3","","100.75","","","","-11","","Cloudy"
"1954-12-25 08:00","1954","12","25","08:00","-7.8","","-8.9","","92","","5","","5","","16.1","","100.84","","","","-10","","Cloudy"
"1954-12-25 09:00","1954","12","25","09:00","-7.2","","-8.3","","92","","5","","5","","12.9","","100.84","","","","-10","","Cloudy"
"1954-12-25 10:00","1954","12","25","10:00","-5.0","","-6.7","","88","","","","0","","8.0","","100.79","","","","","","Haze"
"1954-12-25 11:00","1954","12","25","11:00","-3.3","","-5.6","","85","","14","","8","","6.4","","100.75","","","","-7","","Snow,Haze"
"1954-12-25 12:00","1954","12","25","12:00","-1.7","","-3.3","","88","","18","","11","","6.4","","100.73","","","","-6","","Snow,Haze"
"1954-12-25 13:00","1954","12","25","13:00","-1.7","","-3.9","","85","","16","","23","","8.0","","100.64","","","","-8","","Haze"
"1954-12-25 14:00","1954","12","25","14:00","-1.1","","-2.8","","88","","16","","21","","12.9","","100.58","","","","-7","","Mostly Cloudy"
"1954-12-25 15:00","1954","12","25","15:00","-1.1","","-3.3","","85","","16","","23","","6.4","","100.59","","","","-7","","Haze"
"1954-12-25 16:00","1954","12","25","16:00","-0.6","","-2.2","","88","","16","","19","","8.0","","100.56","","","","-6","","Haze"
"1954-12-25 17:00","1954","12","25","17:00","-1.1","","-2.2","","92","","16","","21","","25.0","","100.56","","","","-7","","Cloudy"
"1954-12-25 18:00","1954","12","25","18:00","-0.6","","-2.8","","85","","16","","21","","25.0","","100.53","","","","-6","","Cloudy"
"1954-12-25 19:00","1954","12","25","19:00","-0.6","","-2.8","","85","","16","","21","","25.0","","100.51","","","","-6","","Cloudy"
"1954-12-25 20:00","1954","12","25","20:00","-1.1","","-2.8","","88","","16","","21","","25.0","","100.45","","","","-7","","Mainly Clear"
"1954-12-25 21:00","1954","12","25","21:00","-2.2","","-3.9","","88","","14","","14","","25.0","","100.38","","","","-7","","Mainly Clear"
"1954-12-25 22:00","1954","12","25","22:00","-2.2","","-3.9","","88","","14","","16","","25.0","","100.30","","","","-7","","Mainly Clear"
"1954-12-25 23:00","1954","12","25","23:00","-2.2","","-4.4","","85","","14","","16","","25.0","","100.29","","","","-7","","Mainly Clear"
"1954-12-26 00:00","1954","12","26","00:00","-1.7","","-3.3","","88","","14","","10","","19.3","","100.27","","","","-5","","Mainly Clear"
"1954-12-26 01:00","1954","12","26","01:00","-2.2","","-3.3","","92","","16","","11","","16.1","","100.22","","","","-6","","Mainly Clear"
"1954-12-26 02:00","1954","12","26","02:00","-2.2","","-3.3","","92","","16","","8","","12.9","","100.21","","","","-5","","Mainly Clear"
"1954-12-26 03:00","1954","12","26","03:00","-1.7","","-2.8","","92","","16","","16","","12.9","","100.14","","","","-7","","Clear"
"1954-12-26 04:00","1954","12","26","04:00","-1.7","","-2.8","","92","","16","","13","","12.9","","100.05","","","","-6","","Mainly Clear"
"1954-12-26 05:00","1954","12","26","05:00","-1.1","","-1.7","","96","","14","","10","","12.9","","100.03","","","","-5","","Mostly Cloudy"
"1954-12-26 06:00","1954","12","26","06:00","-0.6","","-1.7","","92","","18","","13","","16.1","","100.03","","","","-5","","Mostly Cloudy"
"1954-12-26 07:00","1954","12","26","07:00","-1.1","","-2.8","","88","","18","","10","","12.9","","100.06","","","","-5","","Mostly Cloudy"
"1954-12-26 08:00","1954","12","26","08:00","-1.7","","-3.3","","88","","18","","10","","11.3","","100.08","","","","-5","","Mostly Cloudy"
"1954-12-26 09:00","1954","12","26","09:00","0.6","","-1.7","","85","","20","","19","","8.0","","100.09","","","","","","Fog,Smoke"
"1954-12-26 10:00","1954","12","26","10:00","2.2","","0.0","","85","","23","","23","","8.0","","100.05","","","","","","Fog,Smoke"
"1954-12-26 11:00","1954","12","26","11:00","4.4","","1.1","","79","","23","","23","","8.0","","99.97","","","","","","Smoke,Haze"
"1954-12-26 12:00","1954","12","26","12:00","5.6","","2.2","","79","","23","","21","","9.7","","99.90","","","","","","Smoke,Haze"
"1954-12-26 13:00","1954","12","26","13:00","5.6","","1.7","","76","","23","","19","","9.7","","99.89","","","","","","Smoke,Haze"
"1954-12-26 14:00","1954","12","26","14:00","6.1","","2.8","","79","","23","","19","","11.3","","99.96","","","","","","Mostly Cloudy"
"1954-12-26 15:00","1954","12","26","15:00","5.6","","3.3","","86","","23","","23","","8.0","","100.02","","","","","","Smoke,Haze"
"1954-12-26 16:00","1954","12","26","16:00","5.0","","2.2","","82","","23","","16","","8.0","","100.03","","","","","","Smoke,Haze"
"1954-12-26 17:00","1954","12","26","17:00","4.4","","2.2","","85","","23","","16","","8.0","","100.02","","","","","","Smoke,Haze"
"1954-12-26 18:00","1954","12","26","18:00","3.9","","2.2","","89","","23","","16","","12.9","","100.05","","","","","","Drizzle"
"1954-12-26 19:00","1954","12","26","19:00","3.9","","1.7","","85","","25","","13","","12.9","","100.15","","","","","","Rain"
"1954-12-26 20:00","1954","12","26","20:00","3.9","","1.7","","85","","27","","13","","12.9","","100.16","","","","","","Rain"
"1954-12-26 21:00","1954","12","26","21:00","5.0","","2.8","","86","","25","","6","","12.9","","100.16","","","","","","Rain"
"1954-12-26 22:00","1954","12","26","22:00","3.9","","2.8","","92","","25","","6","","12.9","","100.15","","","","","","Rain"
"1954-12-26 23:00","1954","12","26","23:00","4.4","","2.8","","89","","20","","5","","12.9","","100.22","","","","","","Cloudy"
"1954-12-27 00:00","1954","12","27","00:00","3.9","","2.2","","89","","20","","5","","12.9","","100.18","","","","","","Cloudy"
"1954-12-27 01:00","1954","12","27","01:00","3.9","","2.8","","92","","18","","3","","12.9","","100.22","","","","","","Rain Showers"
"1954-12-27 02:00","1954","12","27","02:00","2.8","","1.7","","92","","20","","6","","9.7","","100.28","","","","","","Rain,Fog"
"1954-12-27 03:00","1954","12","27","03:00","2.2","","1.1","","92","","20","","5","","4.8","","100.27","","","","","","Rain,Fog"
"1954-12-27 04:00","1954","12","27","04:00","2.2","","1.7","","96","","25","","5","","2.4","","100.24","","","","","","Rain,Fog"
"1954-12-27 05:00","1954","12","27","05:00","2.2","","1.7","","96","","36","","5","","1.2","","100.23","","","","","","Fog"
"1954-12-27 06:00","1954","12","27","06:00","1.7","","1.7","","100","","36","","5","","2.0","","100.33","","","","","","Rain Showers,Fog"
"1954-12-27 07:00","1954","12","27","07:00","2.2","","1.7","","96","","36","","6","","2.4","","100.36","","","","","","Fog"
"1954-12-27 08:00","1954","12","27","08:00","2.2","","1.7","","96","","34","","6","","1.2","","100.43","","","","","","Rain Showers,Fog"
"1954-12-27 09:00","1954","12","27","09:00","2.2","","1.7","","96","","34","","10","","1.2","","100.45","","","","","","Rain,Fog"
"1954-12-27 10:00","1954","12","27","10:00","2.2","","1.7","","96","","36","","13","","1.6","","100.41","","","","","","Fog"
"1954-12-27 11:00","1954","12","27","11:00","2.2","","2.2","","100","","36","","11","","2.0","","100.35","","","","","","Fog"
"1954-12-27 12:00","1954","12","27","12:00","2.2","","2.2","","100","","36","","10","","2.0","","100.31","","","","","","Fog"
"1954-12-27 13:00","1954","12","27","13:00","2.2","","1.7","","96","","36","","10","","1.6","","100.28","","","","","","Fog"
"1954-12-27 14:00","1954","12","27","14:00","2.2","","1.7","","96","","36","","10","","2.4","","100.30","","","","","","Rain Showers,Fog"
"1954-12-27 15:00","1954","12","27","15:00","1.7","","1.7","","100","","36","","10","","1.6","","100.33","","","","","","Rain,Fog"
"1954-12-27 16:00","1954","12","27","16:00","1.7","","1.1","","96","","2","","10","","1.2","","100.36","","","","","","Rain,Fog"
"1954-12-27 17:00","1954","12","27","17:00","1.7","","1.1","","96","","2","","11","","2.0","","100.32","","","","","","Rain,Fog"
"1954-12-27 18:00","1954","12","27","18:00","1.7","","1.1","","96","","2","","8","","2.4","","100.33","","","","","","Rain,Fog"
"1954-12-27 19:00","1954","12","27","19:00","1.1","","1.1","","100","","36","","6","","2.4","","100.31","","","","","","Rain,Fog"
"1954-12-27 20:00","1954","12","27","20:00","1.1","","1.1","","100","","2","","10","","2.4","","100.31","","","","","","Rain,Fog"
"1954-12-27 21:00","1954","12","27","21:00","1.7","","1.1","","96","","5","","8","","1.6","","100.25","","","","","","Rain,Fog"
"1954-12-27 22:00","1954","12","27","22:00","1.7","","1.1","","96","","5","","8","","2.4","","100.20","","","","","","Rain,Fog"
"1954-12-27 23:00","1954","12","27","23:00","1.7","","1.1","","96","","7","","10","","0.4","","100.10","","","","","","Rain,Fog"
"1954-12-28 00:00","1954","12","28","00:00","1.7","","1.7","","100","","7","","13","","0.4","","100.02","","","","","","Rain,Fog"
"1954-12-28 01:00","1954","12","28","01:00","1.7","","1.7","","100","","7","","13","","1.2","","99.96","","","","","","Rain,Fog"
"1954-12-28 02:00","1954","12","28","02:00","1.7","","1.1","","96","","5","","13","","1.2","","99.90","","","","","","Rain,Fog"
"1954-12-28 03:00","1954","12","28","03:00","1.7","","1.1","","96","","9","","14","","2.4","","99.83","","","","","","Rain,Fog"
"1954-12-28 04:00","1954","12","28","04:00","1.7","","1.1","","96","","7","","14","","2.4","","99.68","","","","","","Rain,Drizzle,Fog"
"1954-12-28 05:00","1954","12","28","05:00","1.7","","1.1","","96","","5","","8","","2.0","","99.57","","","","","","Rain,Drizzle,Fog"
"1954-12-28 06:00","1954","12","28","06:00","2.2","","1.7","","96","","7","","11","","1.6","","99.48","","","","","","Rain,Drizzle,Fog"
"1954-12-28 07:00","1954","12","28","07:00","2.2","","1.7","","96","","9","","8","","1.2","","99.50","","","","","","Rain,Drizzle,Fog"
"1954-12-28 08:00","1954","12","28","08:00","1.7","","1.1","","96","","5","","8","","1.2","","99.38","","","","","","Moderate Rain,Fog"
"1954-12-28 09:00","1954","12","28","09:00","1.7","","1.7","","100","","36","","6","","1.2","","99.34","","","","","","Rain,Fog"
"1954-12-28 10:00","1954","12","28","10:00","1.7","","1.7","","100","","36","","6","","1.6","","99.29","","","","","","Rain,Fog"
"1954-12-28 11:00","1954","12","28","11:00","1.7","","1.7","","100","","36","","6","","1.6","","99.15","","","","","","Rain,Fog"
"1954-12-28 12:00","1954","12","28","12:00","2.2","","1.7","","96","","36","","6","","2.4","","99.03","","","","","","Rain,Fog"
"1954-12-28 13:00","1954","12","28","13:00","2.2","","1.7","","96","","","","0","","2.0","","98.92","","","","","","Fog"
"1954-12-28 14:00","1954","12","28","14:00","2.2","","1.7","","96","","32","","16","","3.2","","99.00","","","","","","Fog"
"1954-12-28 15:00","1954","12","28","15:00","1.7","","1.7","","100","","34","","13","","2.0","","99.03","","","","","","Fog"
"1954-12-28 16:00","1954","12","28","16:00","1.7","","1.1","","96","","34","","13","","3.2","","99.03","","","","","","Fog"
"1954-12-28 17:00","1954","12","28","17:00","1.7","","1.1","","96","","32","","16","","12.9","","99.09","","","","","","Cloudy"
"1954-12-28 18:00","1954","12","28","18:00","1.1","","0.6","","96","","34","","19","","9.7","","99.18","","","","","","Rain,Snow"
"1954-12-28 19:00","1954","12","28","19:00","1.1","","0.0","","92","","34","","16","","9.7","","99.24","","","","","","Rain,Snow"
"1954-12-28 20:00","1954","12","28","20:00","1.1","","0.0","","92","","32","","32","","25.0","","99.37","","","","","","Cloudy"
"1954-12-28 21:00","1954","12","28","21:00","-0.6","","-2.2","","88","","32","","29","","25.0","","99.49","","","","-7","","Cloudy"
"1954-12-28 22:00","1954","12","28","22:00","-1.1","","-2.8","","88","","34","","29","","25.0","","99.60","","","","-8","","Cloudy"
"1954-12-28 23:00","1954","12","28","23:00","-1.1","","-2.8","","88","","32","","21","","25.0","","99.73","","","","-7","","Cloudy"
"1954-12-29 00:00","1954","12","29","00:00","-0.6","","-1.7","","92","","32","","21","","25.0","","99.86","","","","-6","","Cloudy"
"1954-12-29 01:00","1954","12","29","01:00","-0.6","","-1.7","","92","","29","","21","","25.0","","99.91","","","","-6","","Cloudy"
"1954-12-29 02:00","1954","12","29","02:00","-1.1","","-3.3","","85","","32","","27","","25.0","","100.03","","","","-8","","Mostly Cloudy"
"1954-12-29 03:00","1954","12","29","03:00","-2.2","","-3.9","","88","","32","","21","","25.0","","100.08","","","","-8","","Mainly Clear"
"1954-12-29 04:00","1954","12","29","04:00","-3.3","","-5.6","","85","","32","","21","","25.0","","100.15","","","","-10","","Clear"
"1954-12-29 05:00","1954","12","29","05:00","-4.4","","-6.7","","84","","34","","21","","25.0","","100.18","","","","-11","","Clear"
"1954-12-29 06:00","1954","12","29","06:00","-5.0","","-6.7","","88","","34","","24","","25.0","","100.26","","","","-12","","Clear"
"1954-12-29 07:00","1954","12","29","07:00","-5.0","","-6.7","","88","","34","","14","","25.0","","100.35","","","","-10","","Mainly Clear"
"1954-12-29 08:00","1954","12","29","08:00","-5.6","","-7.2","","88","","2","","24","","25.0","","100.41","","","","-13","","Mainly Clear"
"1954-12-29 09:00","1954","12","29","09:00","-5.6","","-7.2","","88","","5","","13","","25.0","","100.43","","","","-11","","Mainly Clear"
"1954-12-29 10:00","1954","12","29","10:00","-5.0","","-7.2","","84","","5","","13","","25.0","","100.42","","","","-10","","Mostly Cloudy"
"1954-12-29 11:00","1954","12","29","11:00","-5.0","","-6.7","","88","","5","","18","","25.0","","100.34","","","","-11","","Mostly Cloudy"
"1954-12-29 12:00","1954","12","29","12:00","-4.4","","-6.7","","84","","5","","18","","25.0","","100.16","","","","-10","","Mostly Cloudy"
"1954-12-29 13:00","1954","12","29","13:00","-3.9","","-5.6","","88","","5","","18","","25.0","","100.11","","","","-10","","Mostly Cloudy"
"1954-12-29 14:00","1954","12","29","14:00","-3.3","","-3.9","","96","","7","","18","","24.1","","100.06","","","","-9","","Cloudy"
"1954-12-29 15:00","1954","12","29","15:00","-3.3","","-4.4","","92","","7","","24","","25.0","","100.00","","","","-10","","Cloudy"
"1954-12-29 16:00","1954","12","29","16:00","-3.3","","-4.4","","92","","7","","24","","25.0","","99.93","","","","-10","","Cloudy"
"1954-12-29 17:00","1954","12","29","17:00","-3.3","","-4.4","","92","","7","","23","","19.3","","99.75","","","","-10","","Cloudy"
"1954-12-29 18:00","1954","12","29","18:00","-2.2","","-2.8","","96","","9","","26","","2.0","","99.59","","","","-9","","Snow"
"1954-12-29 19:00","1954","12","29","19:00","-3.3","","-4.4","","92","","7","","24","","2.4","","99.42","","","","-10","","Snow,Ice Pellets"
"1954-12-29 20:00","1954","12","29","20:00","-2.2","","-3.3","","92","","9","","24","","12.9","","99.17","","","","-9","","Freezing Rain"
"1954-12-29 21:00","1954","12","29","21:00","-1.1","","-1.1","","100","","11","","35","","11.3","","98.90","","","","-8","","Freezing Rain"
"1954-12-29 22:00","1954","12","29","22:00","0.0","","-0.6","","96","","9","","32","","4.8","","98.58","","","","-7","","Freezing Rain,Fog"
"1954-12-29 23:00","1954","12","29","23:00","-1.1","","-2.2","","92","","7","","35","","1.6","","98.52","","","","-8","","Freezing Rain,Ice Pellets"
"1954-12-30 00:00","1954","12","30","00:00","0.0","","-0.6","","96","","11","","43","","12.9","","98.25","","","","-8","","Freezing Rain"
"1954-12-30 01:00","1954","12","30","01:00","0.6","","0.0","","96","","9","","40","","12.9","","98.17","","","","","","Cloudy"
"1954-12-30 02:00","1954","12","30","02:00","1.7","","0.0","","89","","11","","27","","25.0","","98.14","","","","","","Cloudy"
"1954-12-30 03:00","1954","12","30","03:00","2.2","","1.7","","96","","11","","19","","12.9","","98.02","","","","","","Rain Showers"
"1954-12-30 04:00","1954","12","30","04:00","1.7","","1.1","","96","","14","","18","","16.1","","97.99","","","","","","Rain Showers"
"1954-12-30 05:00","1954","12","30","05:00","1.7","","0.6","","92","","20","","31","","24.1","","98.01","","","","","","Rain Showers"
"1954-12-30 06:00","1954","12","30","06:00","1.7","","0.6","","92","","20","","27","","24.1","","98.11","","","","","","Rain"
"1954-12-30 07:00","1954","12","30","07:00","1.1","","0.0","","92","","20","","31","","24.1","","98.14","","","","","","Rain"
"1954-12-30 08:00","1954","12","30","08:00","1.1","","0.0","","92","","20","","35","","4.0","","99.20","","","","","","Rain,Snow Showers"
"1954-12-30 09:00","1954","12","30","09:00","1.1","","0.0","","92","","23","","35","","2.4","","98.24","","","","","","Rain,Snow"
"1954-12-30 10:00","1954","12","30","10:00","0.6","","-0.6","","92","","23","","39","","2.8","","98.29","","","","","","Snow"
"1954-12-30 11:00","1954","12","30","11:00","0.6","","-0.6","","92","","23","","34","","19.3","","98.36","","","","","","Cloudy"
"1954-12-30 12:00","1954","12","30","12:00","0.6","","-0.6","","92","","27","","40","","25.0","","98.48","","","","","","Cloudy"
"1954-12-30 13:00","1954","12","30","13:00","0.6","","-0.6","","92","","27","","51","","25.0","","98.62","","","","","","Cloudy"
"1954-12-30 14:00","1954","12","30","14:00","0.0","","-1.1","","92","","27","","42","","25.0","","98.88","","","","-8","","Snow"
"1954-12-30 15:00","1954","12","30","15:00","0.0","","-1.7","","88","","27","","37","","25.0","","99.09","","","","-7","","Snow Showers"
"1954-12-30 16:00","1954","12","30","16:00","0.0","","-2.2","","85","","27","","35","","25.0","","99.29","","","","-7","","Cloudy"
"1954-12-30 17:00","1954","12","30","17:00","0.0","","-1.1","","92","","29","","32","","25.0","","99.45","","","","-7","","Mostly Cloudy"
"1954-12-30 18:00","1954","12","30","18:00","0.0","","-1.1","","92","","27","","24","","25.0","","99.62","","","","-6","","Mainly Clear"
"1954-12-30 19:00","1954","12","30","19:00","0.0","","-1.1","","92","","27","","16","","25.0","","99.72","","","","-5","","Mainly Clear"
"1954-12-30 20:00","1954","12","30","20:00","-0.6","","-1.7","","92","","25","","24","","25.0","","99.77","","","","-7","","Mainly Clear"
"1954-12-30 21:00","1954","12","30","21:00","-0.6","","-1.7","","92","","23","","16","","25.0","","99.75","","","","-5","","Mainly Clear"
"1954-12-30 22:00","1954","12","30","22:00","-0.6","","-1.7","","92","","23","","24","","25.0","","99.79","","","","-7","","Mainly Clear"
"1954-12-30 23:00","1954","12","30","23:00","0.0","","-0.6","","96","","23","","24","","25.0","","99.81","","","","-6","","Cloudy"
"1954-12-31 00:00","1954","12","31","00:00","-1.1","","-2.2","","92","","25","","18","","25.0","","99.82","","","","-6","","Mainly Clear"
"1954-12-31 01:00","1954","12","31","01:00","-1.1","","-2.2","","92","","25","","24","","25.0","","99.84","","","","-7","","Mainly Clear"
"1954-12-31 02:00","1954","12","31","02:00","-1.1","","-2.8","","88","","23","","27","","25.0","","99.87","","","","-8","","Mainly Clear"
"1954-12-31 03:00","1954","12","31","03:00","-1.7","","-2.8","","92","","23","","31","","25.0","","99.85","","","","-9","","Clear"
"1954-12-31 04:00","1954","12","31","04:00","-1.7","","-2.8","","92","","23","","23","","25.0","","99.80","","","","-8","","Clear"
"1954-12-31 05:00","1954","12","31","05:00","-1.1","","-1.7","","96","","23","","24","","25.0","","99.79","","","","-7","","Mostly Cloudy"
"1954-12-31 06:00","1954","12","31","06:00","-0.6","","-1.1","","96","","23","","29","","25.0","","99.87","","","","-7","","Cloudy"
"1954-12-31 07:00","1954","12","31","07:00","-1.1","","-1.7","","96","","25","","27","","25.0","","99.90","","","","-8","","Mostly Cloudy"
"1954-12-31 08:00","1954","12","31","08:00","-1.1","","-2.2","","92","","23","","19","","25.0","","99.92","","","","-6","","Mostly Cloudy"
"1954-12-31 09:00","1954","12","31","09:00","0.0","","-0.6","","96","","23","","26","","19.3","","99.95","","","","-6","","Cloudy"
"1954-12-31 10:00","1954","12","31","10:00","0.6","","-0.6","","92","","23","","27","","19.3","","99.97","","","","","","Cloudy"
"1954-12-31 11:00","1954","12","31","11:00","0.6","","-0.6","","92","","23","","27","","19.3","","99.88","","","","","","Mostly Cloudy"
"1954-12-31 12:00","1954","12","31","12:00","1.1","","-1.7","","82","","23","","26","","19.3","","99.80","","","","","","Mainly Clear"
"1954-12-31 13:00","1954","12","31","13:00","1.1","","-1.1","","85","","23","","26","","19.3","","99.76","","","","","","Mainly Clear"
"1954-12-31 14:00","1954","12","31","14:00","1.7","","-1.1","","82","","25","","18","","19.3","","99.77","","","","","","Mainly Clear"
"1954-12-31 15:00","1954","12","31","15:00","1.7","","-1.7","","78","","25","","16","","19.3","","99.81","","","","","","Mainly Clear"
"1954-12-31 16:00","1954","12","31","16:00","1.1","","-1.1","","85","","20","","16","","19.3","","99.81","","","","","","Mostly Cloudy"
"1954-12-31 17:00","1954","12","31","17:00","1.1","","-1.1","","85","","23","","16","","16.1","","99.85","","","","","","Cloudy"
"1954-12-31 18:00","1954","12","31","18:00","0.6","","-1.1","","88","","23","","16","","16.1","","99.90","","","","","","Mostly Cloudy"
"1954-12-31 19:00","1954","12","31","19:00","0.0","","-2.2","","85","","23","","13","","16.1","","99.89","","","","-4","","Mostly Cloudy"
"1954-12-31 20:00","1954","12","31","20:00","0.0","","-2.2","","85","","27","","13","","16.1","","99.92","","","","-4","","Mostly Cloudy"
"1954-12-31 21:00","1954","12","31","21:00","0.0","","-3.9","","75","","23","","13","","16.1","","99.89","","","","-4","","Mainly Clear"
"1954-12-31 22:00","1954","12","31","22:00","-0.6","","-3.3","","81","","","","0","","16.1","","99.86","","","","","","Mainly Clear"
"1954-12-31 23:00","1954","12","31","23:00","-3.3","","-5.6","","85","","","","0","","16.1","","99.87","","","","","","Clear"
