"Station Name","TORONTO LESTER B. PEARSON INT'L A"
"Province","ONTARIO"
"Latitude","43.68"
"Longitude","-79.63"
"Elevation","173.40"
"Climate Identifier","6158733"
"WMO Identifier","71624"
"TC Identifier","YYZ"
"All times are specified in Local Standard Time (LST). Add 1 hour to adjust for Daylight Saving Time where and when it is observed."

"Legend"
"E","Estimated"
"M","Missing"
"NA","Not Available"

"Date/Time","Year","Month","Day","Time","Temp (°C)","Temp Flag","Dew Point Temp (°C)","Dew Point Temp Flag","Rel Hum (%)","Rel Hum Flag","Wind Dir (10s deg)","Wind Dir Flag","Wind Spd (km/h)","Wind Spd Flag","Visibility (km)","Visibility Flag","Stn Press (kPa)","Stn Press Flag","Hmdx","Hmdx Flag","Wind Chill","Wind Chill Flag","Weather"
"2012-04-01 00:00","2012","04","01","00:00","3.5","","-0.2","","77","","21","","11","","24.1","","99.15","","","","","","Mostly Cloudy"
"2012-04-01 01:00","2012","04","01","01:00","2.0","","-1.0","","80","","28","","7","","24.1","","99.11","","","","","","Mainly Clear"
"2012-04-01 02:00","2012","04","01","02:00","1.9","","-1.3","","79","","29","","6","","24.1","","99.08","","","","","","Mostly Cloudy"
"2012-04-01 03:00","2012","04","01","03:00","2.9","","-1.7","","72","","31","","9","","24.1","","99.08","","","","","","Mostly Cloudy"
"2012-04-01 04:00","2012","04","01","04:00","3.2","","-2.3","","67","","25","","4","","24.1","","99.01","","","","","","Cloudy"
"2012-04-01 05:00","2012","04","01","05:00","3.3","","-0.8","","74","","28","","6","","24.1","","99.01","","","","","","Cloudy"
"2012-04-01 06:00","2012","04","01","06:00","3.3","","0.2","","80","","20","","4","","19.3","","98.95","","","","","","Cloudy"
"2012-04-01 07:00","2012","04","01","07:00","3.7","","0.8","","81","","20","","6","","24.1","","98.97","","","","","","Cloudy"
"2012-04-01 08:00","2012","04","01","08:00","3.1","","1.3","","88","","23","","15","","8.0","","98.92","","","","","","Rain"
"2012-04-01 09:00","2012","04","01","09:00","3.6","","2.0","","89","","22","","11","","12.9","","98.81","","","","","","Cloudy"
"2012-04-01 10:00","2012","04","01","10:00","4.2","","2.9","","91","","19","","9","","9.7","","98.68","","","","","","Rain"
"2012-04-01 11:00","2012","04","01","11:00","3.6","","2.6","","93","","23","","9","","6.4","","98.71","","","","","","Rain,Fog"
"2012-04-01 12:00","2012","04","01","12:00","4.0","","2.8","","92","","13","","4","","3.2","","98.64","","","","","","Drizzle,Fog"
"2012-04-01 13:00","2012","04","01","13:00","4.7","","3.8","","94","","25","","9","","6.4","","98.55","","","","","","Drizzle,Fog"
"2012-04-01 14:00","2012","04","01","14:00","5.1","","3.8","","91","","24","","7","","9.7","","98.50","","","","","","Fog"
"2012-04-01 15:00","2012","04","01","15:00","5.5","","4.1","","91","","25","","7","","11.3","","98.46","","","","","","Cloudy"
"2012-04-01 16:00","2012","04","01","16:00","6.1","","4.1","","87","","28","","9","","9.7","","98.46","","","","","","Drizzle"
"2012-04-01 17:00","2012","04","01","17:00","6.1","","3.9","","86","","1","","9","","19.3","","98.50","","","","","","Cloudy"
"2012-04-01 18:00","2012","04","01","18:00","5.8","","3.8","","87","","1","","19","","8.0","","98.57","","","","","","Drizzle,Fog"
"2012-04-01 19:00","2012","04","01","19:00","5.2","","3.3","","88","","35","","15","","9.7","","98.66","","","","","","Drizzle,Fog"
"2012-04-01 20:00","2012","04","01","20:00","4.8","","1.9","","81","","35","","19","","19.3","","98.75","","","","","","Mostly Cloudy"
"2012-04-01 21:00","2012","04","01","21:00","4.1","","1.9","","86","","1","","19","","24.1","","98.84","","","","","","Mostly Cloudy"
"2012-04-01 22:00","2012","04","01","22:00","4.2","","2.3","","87","","36","","13","","24.1","","98.87","","","","","","Cloudy"
"2012-04-01 23:00","2012","04","01","23:00","3.5","","1.5","","87","","1","","13","","24.1","","98.92","","","","","","Mainly Clear"
"2012-04-02 00:00","2012","04","02","00:00","2.7","","1.1","","89","","36","","17","","24.1","","98.99","","","","","","Mainly Clear"
"2012-04-02 01:00","2012","04","02","01:00","2.7","","0.9","","88","","1","","13","","24.1","","99.02","","","","","","Mainly Clear"
"2012-04-02 02:00","2012","04","02","02:00","2.7","","1.0","","89","","35","","17","","24.1","","99.04","","","","","","Mainly Clear"
"2012-04-02 03:00","2012","04","02","03:00","2.6","","0.8","","88","","35","","17","","24.1","","99.12","","","","","","Mainly Clear"
"2012-04-02 04:00","2012","04","02","04:00","1.8","","-0.1","","87","","35","","19","","24.1","","99.21","","","","","","Clear"
"2012-04-02 05:00","2012","04","02","05:00","1.5","","-0.4","","87","","35","","17","","24.1","","99.30","","","","","","Clear"
"2012-04-02 06:00","2012","04","02","06:00","1.2","","-1.1","","85","","34","","20","","24.1","","99.40","","","","","","Clear"
"2012-04-02 07:00","2012","04","02","07:00","2.2","","-0.8","","81","","36","","20","","24.1","","99.49","","","","","","Clear"
"2012-04-02 08:00","2012","04","02","08:00","3.7","","-0.6","","73","","36","","17","","24.1","","99.55","","","","","","Clear"
"2012-04-02 09:00","2012","04","02","09:00","5.8","","-0.9","","62","","34","","17","","24.1","","99.63","","","","","","Clear"
"2012-04-02 10:00","2012","04","02","10:00","7.6","","-3.8","","44","","35","","17","","24.1","","99.62","","","","","","Clear"
"2012-04-02 11:00","2012","04","02","11:00","9.4","","-3.7","","39","","36","","15","","24.1","","99.64","","","","","","Clear"
"2012-04-02 12:00","2012","04","02","12:00","9.3","","-4.0","","39","","34","","19","","24.1","","99.64","","","","","","Clear"
"2012-04-02 13:00","2012","04","02","13:00","9.8","","-5.5","","34","","34","","11","","24.1","","99.60","","","","","","Clear"
"2012-04-02 14:00","2012","04","02","14:00","11.5","","-4.6","","32","","34","","22","","24.1","","99.55","","","","","","Clear"
"2012-04-02 15:00","2012","04","02","15:00","12.1","","-7.4","","25","","1","","26","","24.1","","99.51","","","","","","Clear"
"2012-04-02 16:00","2012","04","02","16:00","11.7","","-11.0","","19","","36","","20","","24.1","","99.51","","","","","","Clear"
"2012-04-02 17:00","2012","04","02","17:00","11.0","","-12.6","","18","","35","","26","","24.1","","99.52","","","","","","Clear"
"2012-04-02 18:00","2012","04","02","18:00","9.4","","-11.6","","21","","36","","20","","24.1","","99.53","","","","","","Clear"
"2012-04-02 19:00","2012","04","02","19:00","7.5","","-10.1","","27","","35","","17","","24.1","","99.52","","","","","","Clear"
"2012-04-02 20:00","2012","04","02","20:00","6.1","","-9.7","","31","","35","","17","","24.1","","99.57","","","","","","Clear"
"2012-04-02 21:00","2012","04","02","21:00","5.5","","-9.9","","32","","34","","20","","24.1","","99.62","","","","","","Clear"
"2012-04-02 22:00","2012","04","02","22:00","3.9","","-9.0","","38","","35","","19","","24.1","","99.65","","","","","","Clear"
"2012-04-02 23:00","2012","04","02","23:00","3.2","","-9.2","","40","","35","","13","","24.1","","99.63","","","","","","Clear"
"2012-04-03 00:00","2012","04","03","00:00","2.9","","-9.7","","39","","35","","17","","24.1","","99.62","","","","","","Clear"
"2012-04-03 01:00","2012","04","03","01:00","2.5","","-9.6","","40","","36","","15","","24.1","","99.61","","","","","","Clear"
"2012-04-03 02:00","2012","04","03","02:00","2.6","","-9.6","","40","","35","","15","","24.1","","99.60","","","","","","Clear"
"2012-04-03 03:00","2012","04","03","03:00","1.7","","-9.4","","43","","35","","9","","24.1","","99.62","","","","","","Clear"
"2012-04-03 04:00","2012","04","03","04:00","1.3","","-8.7","","47","","36","","9","","24.1","","99.67","","","","","","Clear"
"2012-04-03 05:00","2012","04","03","05:00","0.2","","-8.1","","54","","1","","7","","24.1","","99.64","","","","","","Clear"
"2012-04-03 06:00","2012","04","03","06:00","-0.1","","-6.6","","62","","36","","9","","24.1","","99.63","","","","-3","","Mainly Clear"
"2012-04-03 07:00","2012","04","03","07:00","2.4","","-5.3","","57","","2","","11","","24.1","","99.67","","","","","","Mainly Clear"
"2012-04-03 08:00","2012","04","03","08:00","4.7","","-4.6","","51","","36","","6","","24.1","","99.65","","","","","","Mainly Clear"
"2012-04-03 09:00","2012","04","03","09:00","7.7","","-5.7","","38","","22","","4","","24.1","","99.63","","","","","","Mostly Cloudy"
"2012-04-03 10:00","2012","04","03","10:00","7.8","","-7.6","","33","","16","","7","","24.1","","99.63","","","","","","Mostly Cloudy"
"2012-04-03 11:00","2012","04","03","11:00","8.6","","-7.5","","31","","18","","7","","24.1","","99.64","","","","","","Mostly Cloudy"
"2012-04-03 12:00","2012","04","03","12:00","10.7","","-4.3","","35","","19","","7","","24.1","","99.54","","","","","","Mostly Cloudy"
"2012-04-03 13:00","2012","04","03","13:00","10.3","","-5.7","","32","","14","","13","","24.1","","99.29","","","","","","Mostly Cloudy"
"2012-04-03 14:00","2012","04","03","14:00","9.6","","-5.5","","34","","18","","9","","24.1","","99.28","","","","","","Mostly Cloudy"
"2012-04-03 15:00","2012","04","03","15:00","9.7","","-3.4","","40","","11","","9","","24.1","","99.21","","","","","","Mostly Cloudy"
"2012-04-03 16:00","2012","04","03","16:00","9.7","","-4.2","","37","","16","","7","","24.1","","99.09","","","","","","Mostly Cloudy"
"2012-04-03 17:00","2012","04","03","17:00","10.9","","-3.3","","37","","21","","11","","24.1","","99.07","","","","","","Mainly Clear"
"2012-04-03 18:00","2012","04","03","18:00","10.3","","-4.6","","35","","18","","9","","24.1","","99.04","","","","","","Mostly Cloudy"
"2012-04-03 19:00","2012","04","03","19:00","9.5","","-5.0","","36","","13","","4","","24.1","","98.98","","","","","","Mostly Cloudy"
"2012-04-03 20:00","2012","04","03","20:00","8.6","","-3.3","","43","","18","","4","","24.1","","98.98","","","","","","Cloudy"
"2012-04-03 21:00","2012","04","03","21:00","7.7","","-1.8","","51","","17","","9","","24.1","","98.95","","","","","","Cloudy"
"2012-04-03 22:00","2012","04","03","22:00","7.2","","-2.6","","50","","18","","6","","24.1","","98.94","","","","","","Mostly Cloudy"
"2012-04-03 23:00","2012","04","03","23:00","6.2","","-2.6","","53","","29","","7","","24.1","","98.96","","","","","","Mainly Clear"
"2012-04-04 00:00","2012","04","04","00:00","7.8","","-0.4","","56","","32","","17","","24.1","","98.94","","","","","","Mainly Clear"
"2012-04-04 01:00","2012","04","04","01:00","6.5","","0.6","","66","","32","","17","","24.1","","98.89","","","","","","Clear"
"2012-04-04 02:00","2012","04","04","02:00","5.6","","-0.3","","66","","33","","17","","24.1","","98.90","","","","","","Clear"
"2012-04-04 03:00","2012","04","04","03:00","3.5","","-1.1","","72","","32","","17","","24.1","","98.93","","","","","","Clear"
"2012-04-04 04:00","2012","04","04","04:00","2.3","","-2.0","","73","","31","","11","","24.1","","98.92","","","","","","Clear"
"2012-04-04 05:00","2012","04","04","05:00","2.2","","-2.3","","72","","28","","9","","24.1","","98.92","","","","","","Clear"
"2012-04-04 06:00","2012","04","04","06:00","2.6","","-1.1","","77","","29","","9","","24.1","","98.94","","","","","","Mainly Clear"
"2012-04-04 07:00","2012","04","04","07:00","4.3","","0.3","","75","","27","","7","","24.1","","98.92","","","","","","Mainly Clear"
"2012-04-04 08:00","2012","04","04","08:00","8.1","","2.2","","66","","27","","15","","24.1","","98.84","","","","","","Mainly Clear"
"2012-04-04 09:00","2012","04","04","09:00","8.0","","1.9","","65","","31","","20","","24.1","","98.86","","","","","","Mainly Clear"
"2012-04-04 10:00","2012","04","04","10:00","10.6","","1.8","","54","","33","","28","","24.1","","98.84","","","","","","Mainly Clear"
"2012-04-04 11:00","2012","04","04","11:00","10.7","","1.3","","52","","30","","24","","24.1","","98.86","","","","","","Mostly Cloudy"
"2012-04-04 12:00","2012","04","04","12:00","9.4","","-0.3","","51","","36","","33","","24.1","","98.86","","","","","","Mostly Cloudy"
"2012-04-04 13:00","2012","04","04","13:00","9.7","","-4.5","","36","","36","","33","","24.1","","98.84","","","","","","Mostly Cloudy"
"2012-04-04 14:00","2012","04","04","14:00","10.4","","-5.3","","33","","35","","43","","24.1","","98.88","","","","","","Mainly Clear"
"2012-04-04 15:00","2012","04","04","15:00","10.4","","-3.9","","36","","35","","37","","24.1","","98.90","","","","","","Mainly Clear"
"2012-04-04 16:00","2012","04","04","16:00","9.7","","-4.6","","36","","35","","39","","24.1","","98.92","","","","","","Mainly Clear"
"2012-04-04 17:00","2012","04","04","17:00","9.3","","-5.0","","36","","34","","37","","24.1","","98.94","","","","","","Mainly Clear"
"2012-04-04 18:00","2012","04","04","18:00","8.1","","-5.2","","38","","35","","28","","24.1","","98.99","","","","","","Mainly Clear"
"2012-04-04 19:00","2012","04","04","19:00","7.2","","-5.6","","40","","34","","26","","24.1","","99.02","","","","","","Mainly Clear"
"2012-04-04 20:00","2012","04","04","20:00","6.3","","-5.2","","44","","33","","19","","24.1","","99.10","","","","","","Clear"
"2012-04-04 21:00","2012","04","04","21:00","5.6","","-5.3","","45","","31","","17","","24.1","","99.14","","","","","","Clear"
"2012-04-04 22:00","2012","04","04","22:00","4.7","","-4.8","","50","","32","","19","","24.1","","99.12","","","","","","Clear"
"2012-04-04 23:00","2012","04","04","23:00","3.9","","-4.7","","53","","32","","19","","24.1","","99.17","","","","","","Mainly Clear"
"2012-04-05 00:00","2012","04","05","00:00","3.9","","-4.3","","55","","34","","17","","24.1","","99.19","","","","","","Mainly Clear"
"2012-04-05 01:00","2012","04","05","01:00","3.0","","-3.6","","62","","34","","17","","24.1","","99.23","","","","","","Mainly Clear"
"2012-04-05 02:00","2012","04","05","02:00","2.4","","-4.4","","61","","36","","19","","24.1","","99.25","","","","","","Mainly Clear"
"2012-04-05 03:00","2012","04","05","03:00","1.0","","-4.9","","65","","35","","17","","24.1","","99.29","","","","","","Clear"
"2012-04-05 04:00","2012","04","05","04:00","0.5","","-5.4","","65","","35","","17","","24.1","","99.30","","","","","","Mainly Clear"
"2012-04-05 05:00","2012","04","05","05:00","0.1","","-5.4","","66","","35","","22","","24.1","","99.35","","","","","","Mainly Clear"
"2012-04-05 06:00","2012","04","05","06:00","-0.3","","-5.2","","69","","36","","17","","24.1","","99.40","","","","-5","","Mainly Clear"
"2012-04-05 07:00","2012","04","05","07:00","0.9","","-4.8","","66","","36","","22","","24.1","","99.48","","","","","","Mostly Cloudy"
"2012-04-05 08:00","2012","04","05","08:00","1.9","","-5.3","","59","","36","","20","","24.1","","99.55","","","","","","Mostly Cloudy"
"2012-04-05 09:00","2012","04","05","09:00","1.9","","-5.4","","58","","1","","19","","24.1","","99.63","","","","","","Mostly Cloudy"
"2012-04-05 10:00","2012","04","05","10:00","3.0","","-4.4","","58","","34","","17","","24.1","","99.67","","","","","","Mostly Cloudy"
"2012-04-05 11:00","2012","04","05","11:00","4.4","","-4.6","","52","","36","","11","","24.1","","99.68","","","","","","Mostly Cloudy"
"2012-04-05 12:00","2012","04","05","12:00","4.6","","-5.7","","47","","2","","19","","24.1","","99.65","","","","","","Mostly Cloudy"
"2012-04-05 13:00","2012","04","05","13:00","6.4","","-4.1","","47","","34","","13","","24.1","","99.57","","","","","","Mainly Clear"
"2012-04-05 14:00","2012","04","05","14:00","7.1","","-3.9","","45","","35","","20","","24.1","","99.55","","","","","","Mainly Clear"
"2012-04-05 15:00","2012","04","05","15:00","8.6","","-3.2","","43","","2","","20","","24.1","","99.52","","","","","","Mainly Clear"
"2012-04-05 16:00","2012","04","05","16:00","7.9","","-3.5","","44","","36","","26","","24.1","","99.52","","","","","","Mainly Clear"
"2012-04-05 17:00","2012","04","05","17:00","7.2","","-4.3","","44","","2","","20","","24.1","","99.55","","","","","","Mainly Clear"
"2012-04-05 18:00","2012","04","05","18:00","6.4","","-4.8","","45","","36","","20","","24.1","","99.59","","","","","","Mainly Clear"
"2012-04-05 19:00","2012","04","05","19:00","4.9","","-5.2","","48","","34","","22","","24.1","","99.65","","","","","","Mainly Clear"
"2012-04-05 20:00","2012","04","05","20:00","3.4","","-5.3","","53","","35","","19","","24.1","","99.72","","","","","","Clear"
"2012-04-05 21:00","2012","04","05","21:00","3.1","","-6.1","","51","","36","","24","","24.1","","99.74","","","","","","Mainly Clear"
"2012-04-05 22:00","2012","04","05","22:00","2.6","","-5.3","","56","","35","","26","","24.1","","99.76","","","","","","Mainly Clear"
"2012-04-05 23:00","2012","04","05","23:00","2.4","","-4.3","","61","","35","","19","","24.1","","99.81","","","","","","Mainly Clear"
"2012-04-06 00:00","2012","04","06","00:00","1.7","","-3.8","","67","","35","","20","","24.1","","99.83","","","","","","Clear"
"2012-04-06 01:00","2012","04","06","01:00","1.2","","-3.4","","71","","32","","17","","24.1","","99.88","","","","","","Clear"
"2012-04-06 02:00","2012","04","06","02:00","1.2","","-3.1","","73","","35","","15","","24.1","","99.87","","","","","","Clear"
"2012-04-06 03:00","2012","04","06","03:00","1.1","","-3.0","","74","","35","","19","","24.1","","99.88","","","","","","Clear"
"2012-04-06 04:00","2012","04","06","04:00","1.1","","-4.3","","67","","35","","15","","24.1","","99.90","","","","","","Clear"
"2012-04-06 05:00","2012","04","06","05:00","0.3","","-4.6","","70","","35","","20","","24.1","","99.97","","","","","","Clear"
"2012-04-06 06:00","2012","04","06","06:00","0.6","","-5.9","","62","","35","","22","","24.1","","100.00","","","","","","Clear"
"2012-04-06 07:00","2012","04","06","07:00","1.6","","-5.8","","58","","36","","26","","24.1","","100.11","","","","","","Clear"
"2012-04-06 08:00","2012","04","06","08:00","3.2","","-6.1","","50","","35","","26","","24.1","","100.16","","","","","","Clear"
"2012-04-06 09:00","2012","04","06","09:00","5.3","","-5.3","","46","","35","","22","","24.1","","100.20","","","","","","Clear"
"2012-04-06 10:00","2012","04","06","10:00","6.2","","-6.3","","40","","1","","26","","24.1","","100.24","","","","","","Clear"
"2012-04-06 11:00","2012","04","06","11:00","8.2","","-6.7","","34","","35","","20","","24.1","","100.18","","","","","","Clear"
"2012-04-06 12:00","2012","04","06","12:00","9.4","","-6.5","","32","","35","","28","","24.1","","100.15","","","","","","Clear"
"2012-04-06 13:00","2012","04","06","13:00","10.6","","-5.5","","32","","35","","24","","24.1","","100.12","","","","","","Clear"
"2012-04-06 14:00","2012","04","06","14:00","10.8","","-5.6","","31","","35","","30","","24.1","","100.10","","","","","","Clear"
"2012-04-06 15:00","2012","04","06","15:00","11.3","","-6.3","","29","","36","","28","","24.1","","100.08","","","","","","Clear"
"2012-04-06 16:00","2012","04","06","16:00","11.2","","-8.4","","24","","35","","28","","24.1","","100.05","","","","","","Clear"
"2012-04-06 17:00","2012","04","06","17:00","10.4","","-8.4","","26","","36","","26","","24.1","","100.05","","","","","","Clear"
"2012-04-06 18:00","2012","04","06","18:00","9.6","","-8.8","","26","","36","","24","","24.1","","100.06","","","","","","Clear"
"2012-04-06 19:00","2012","04","06","19:00","7.8","","-9.8","","27","","35","","26","","24.1","","100.08","","","","","","Clear"
"2012-04-06 20:00","2012","04","06","20:00","6.4","","-9.6","","31","","35","","19","","24.1","","100.14","","","","","","Clear"
"2012-04-06 21:00","2012","04","06","21:00","5.1","","-9.3","","34","","34","","15","","24.1","","100.17","","","","","","Clear"
"2012-04-06 22:00","2012","04","06","22:00","4.8","","-9.0","","36","","34","","19","","24.1","","100.19","","","","","","Clear"
"2012-04-06 23:00","2012","04","06","23:00","4.1","","-9.5","","36","","33","","15","","24.1","","100.19","","","","","","Clear"
"2012-04-07 00:00","2012","04","07","00:00","3.6","","-8.8","","40","","35","","20","","24.1","","100.18","","","","","","Clear"
"2012-04-07 01:00","2012","04","07","01:00","2.0","","-8.0","","47","","32","","15","","24.1","","100.21","","","","","","Clear"
"2012-04-07 02:00","2012","04","07","02:00","1.0","","-7.6","","53","","32","","17","","24.1","","100.21","","","","","","Clear"
"2012-04-07 03:00","2012","04","07","03:00","0.4","","-7.5","","55","","32","","17","","24.1","","100.20","","","","","","Clear"
"2012-04-07 04:00","2012","04","07","04:00","1.7","","-8.0","","48","","35","","19","","24.1","","100.23","","","","","","Clear"
"2012-04-07 05:00","2012","04","07","05:00","2.2","","-8.0","","47","","34","","19","","24.1","","100.26","","","","","","Clear"
"2012-04-07 06:00","2012","04","07","06:00","2.0","","-7.5","","49","","34","","19","","24.1","","100.35","","","","","","Mainly Clear"
"2012-04-07 07:00","2012","04","07","07:00","3.4","","-6.3","","49","","35","","17","","24.1","","100.42","","","","","","Mainly Clear"
"2012-04-07 08:00","2012","04","07","08:00","6.1","","-4.6","","46","","35","","15","","24.1","","100.43","","","","","","Clear"
"2012-04-07 09:00","2012","04","07","09:00","7.9","","-4.3","","42","","34","","11","","24.1","","100.45","","","","","","Clear"
"2012-04-07 10:00","2012","04","07","10:00","10.1","","-5.3","","33","","34","","11","","24.1","","100.41","","","","","","Clear"
"2012-04-07 11:00","2012","04","07","11:00","12.4","","-6.9","","25","","34","","22","","24.1","","100.36","","","","","","Clear"
"2012-04-07 12:00","2012","04","07","12:00","12.9","","-6.8","","25","","31","","9","","24.1","","100.29","","","","","","Clear"
"2012-04-07 13:00","2012","04","07","13:00","13.9","","-6.9","","23","","32","","15","","24.1","","100.20","","","","","","Clear"
"2012-04-07 14:00","2012","04","07","14:00","15.1","","-7.3","","21","","1","","30","","24.1","","100.11","","","","","","Clear"
"2012-04-07 15:00","2012","04","07","15:00","15.2","","-7.1","","21","","36","","19","","24.1","","100.08","","","","","","Clear"
"2012-04-07 16:00","2012","04","07","16:00","15.0","","-8.8","","18","","36","","22","","24.1","","100.05","","","","","","Clear"
"2012-04-07 17:00","2012","04","07","17:00","14.1","","-10.2","","18","","35","","24","","24.1","","100.02","","","","","","Clear"
"2012-04-07 18:00","2012","04","07","18:00","12.8","","-10.3","","19","","36","","15","","24.1","","99.97","","","","","","Clear"
"2012-04-07 19:00","2012","04","07","19:00","10.7","","-11.0","","21","","36","","17","","24.1","","99.95","","","","","","Clear"
"2012-04-07 20:00","2012","04","07","20:00","9.6","","-9.8","","24","","35","","19","","24.1","","99.98","","","","","","Clear"
"2012-04-07 21:00","2012","04","07","21:00","8.3","","-9.1","","28","","34","","19","","24.1","","100.02","","","","","","Clear"
"2012-04-07 22:00","2012","04","07","22:00","7.5","","-8.6","","31","","32","","17","","24.1","","100.00","","","","","","Clear"
"2012-04-07 23:00","2012","04","07","23:00","6.0","","-8.2","","35","","35","","15","","24.1","","99.92","","","","","","Clear"
"2012-04-08 00:00","2012","04","08","00:00","4.3","","-8.2","","40","","35","","4","","24.1","","99.84","","","","","","Clear"
"2012-04-08 01:00","2012","04","08","01:00","4.2","","-7.2","","43","","29","","6","","24.1","","99.84","","","","","","Clear"
"2012-04-08 02:00","2012","04","08","02:00","3.7","","-6.9","","46","","35","","7","","24.1","","99.77","","","","","","Clear"
"2012-04-08 03:00","2012","04","08","03:00","2.3","","-6.7","","51","","31","","4","","24.1","","99.74","","","","","","Mainly Clear"
"2012-04-08 04:00","2012","04","08","04:00","3.3","","-7.5","","45","","33","","6","","24.1","","99.66","","","","","","Mainly Clear"
"2012-04-08 05:00","2012","04","08","05:00","3.6","","-7.8","","43","","36","","4","","24.1","","99.62","","","","","","Mainly Clear"
"2012-04-08 06:00","2012","04","08","06:00","1.4","","-7.3","","52","","33","","4","","24.1","","99.60","","","","","","Mostly Cloudy"
"2012-04-08 07:00","2012","04","08","07:00","3.9","","-5.0","","52","","36","","4","","24.1","","99.56","","","","","","Mostly Cloudy"
"2012-04-08 08:00","2012","04","08","08:00","7.3","","-5.9","","39","","28","","4","","24.1","","99.52","","","","","","Mostly Cloudy"
"2012-04-08 09:00","2012","04","08","09:00","9.7","","-6.0","","32","","26","","7","","24.1","","99.49","","","","","","Mostly Cloudy"
"2012-04-08 10:00","2012","04","08","10:00","12.3","","-5.4","","29","","","","0","","24.1","","99.36","","","","","","Mainly Clear"
"2012-04-08 11:00","2012","04","08","11:00","14.0","","-5.8","","25","","16","","9","","24.1","","99.21","","","","","","Mainly Clear"
"2012-04-08 12:00","2012","04","08","12:00","13.5","","-5.5","","26","","20","","13","","24.1","","99.14","","","","","","Mostly Cloudy"
"2012-04-08 13:00","2012","04","08","13:00","14.1","","-2.2","","32","","21","","19","","24.1","","99.06","","","","","","Cloudy"
"2012-04-08 14:00","2012","04","08","14:00","11.8","","4.1","","59","","27","","37","","24.1","","99.00","","","","","","Cloudy"
"2012-04-08 15:00","2012","04","08","15:00","11.5","","6.0","","69","","27","","43","","24.1","","98.97","","","","","","Mostly Cloudy"
"2012-04-08 16:00","2012","04","08","16:00","10.4","","4.3","","66","","30","","43","","24.1","","99.02","","","","","","Mostly Cloudy"
"2012-04-08 17:00","2012","04","08","17:00","11.5","","-0.9","","42","","31","","44","","24.1","","99.01","","","","","","Clear"
"2012-04-08 18:00","2012","04","08","18:00","10.5","","-1.0","","45","","31","","37","","24.1","","99.01","","","","","","Mainly Clear"
"2012-04-08 19:00","2012","04","08","19:00","9.5","","-0.4","","50","","31","","28","","24.1","","99.04","","","","","","Mainly Clear"
"2012-04-08 20:00","2012","04","08","20:00","8.4","","-0.1","","55","","30","","37","","24.1","","99.09","","","","","","Mainly Clear"
"2012-04-08 21:00","2012","04","08","21:00","7.2","","-0.7","","57","","30","","32","","24.1","","99.05","","","","","","Clear"
"2012-04-08 22:00","2012","04","08","22:00","6.6","","-2.4","","53","","31","","28","","24.1","","99.04","","","","","","Clear"
"2012-04-08 23:00","2012","04","08","23:00","5.5","","-3.1","","54","","30","","20","","24.1","","98.98","","","","","","Clear"
"2012-04-09 00:00","2012","04","09","00:00","5.1","","-3.5","","54","","30","","26","","24.1","","98.97","","","","","","Mainly Clear"
"2012-04-09 01:00","2012","04","09","01:00","4.4","","-4.2","","54","","28","","26","","24.1","","98.87","","","","","","Mainly Clear"
"2012-04-09 02:00","2012","04","09","02:00","3.9","","-4.6","","54","","30","","33","","24.1","","98.83","","","","","","Mainly Clear"
"2012-04-09 03:00","2012","04","09","03:00","3.3","","-4.8","","55","","29","","28","","24.1","","98.77","","","","","","Clear"
"2012-04-09 04:00","2012","04","09","04:00","3.3","","-4.2","","58","","30","","32","","24.1","","98.73","","","","","","Mainly Clear"
"2012-04-09 05:00","2012","04","09","05:00","3.2","","-3.6","","61","","30","","33","","24.1","","98.69","","","","","","Mainly Clear"
"2012-04-09 06:00","2012","04","09","06:00","2.9","","-3.1","","65","","30","","28","","24.1","","98.68","","","","","","Mainly Clear"
"2012-04-09 07:00","2012","04","09","07:00","3.6","","-3.2","","61","","29","","33","","24.1","","98.73","","","","","","Mainly Clear"
"2012-04-09 08:00","2012","04","09","08:00","4.9","","-3.2","","56","","30","","28","","24.1","","98.70","","","","","","Mainly Clear"
"2012-04-09 09:00","2012","04","09","09:00","7.2","","-3.2","","48","","31","","33","","24.1","","98.65","","","","","","Mainly Clear"
"2012-04-09 10:00","2012","04","09","10:00","9.2","","-3.5","","41","","30","","43","","24.1","","98.61","","","","","","Mainly Clear"
"2012-04-09 11:00","2012","04","09","11:00","11.1","","-4.9","","32","","31","","41","","24.1","","98.57","","","","","","Mostly Cloudy"
"2012-04-09 12:00","2012","04","09","12:00","11.4","","-6.7","","27","","31","","56","","24.1","","98.55","","","","","","Mostly Cloudy"
"2012-04-09 13:00","2012","04","09","13:00","12.3","","-6.7","","26","","31","","50","","24.1","","98.50","","","","","","Mostly Cloudy"
"2012-04-09 14:00","2012","04","09","14:00","12.6","","-6.8","","25","","32","","54","","24.1","","98.50","","","","","","Mostly Cloudy"
"2012-04-09 15:00","2012","04","09","15:00","11.7","","-6.9","","27","","30","","52","","24.1","","98.48","","","","","","Mostly Cloudy"
"2012-04-09 16:00","2012","04","09","16:00","11.3","","-7.5","","26","","31","","44","","24.1","","98.51","","","","","","Mostly Cloudy"
"2012-04-09 17:00","2012","04","09","17:00","11.1","","-6.7","","28","","30","","39","","24.1","","98.52","","","","","","Mostly Cloudy"
"2012-04-09 18:00","2012","04","09","18:00","10.0","","-6.3","","31","","29","","33","","24.1","","98.52","","","","","","Mostly Cloudy"
"2012-04-09 19:00","2012","04","09","19:00","9.2","","-7.5","","30","","30","","30","","24.1","","98.53","","","","","","Mostly Cloudy"
"2012-04-09 20:00","2012","04","09","20:00","8.4","","-7.3","","32","","29","","20","","24.1","","98.59","","","","","","Mostly Cloudy"
"2012-04-09 21:00","2012","04","09","21:00","6.8","","-6.9","","37","","28","","22","","24.1","","98.58","","","","","","Mostly Cloudy"
"2012-04-09 22:00","2012","04","09","22:00","6.5","","-6.5","","39","","28","","24","","24.1","","98.55","","","","","","Mostly Cloudy"
"2012-04-09 23:00","2012","04","09","23:00","6.3","","-6.0","","41","","28","","26","","24.1","","98.51","","","","","","Mainly Clear"
"2012-04-10 00:00","2012","04","10","00:00","5.4","","-5.5","","45","","28","","26","","24.1","","98.48","","","","","","Mainly Clear"
"2012-04-10 01:00","2012","04","10","01:00","5.1","","-5.0","","48","","29","","24","","24.1","","98.47","","","","","","Mostly Cloudy"
"2012-04-10 02:00","2012","04","10","02:00","4.7","","-4.1","","53","","30","","22","","24.1","","98.43","","","","","","Mostly Cloudy"
"2012-04-10 03:00","2012","04","10","03:00","3.7","","-3.1","","61","","29","","22","","24.1","","98.42","","","","","","Mostly Cloudy"
"2012-04-10 04:00","2012","04","10","04:00","3.1","","-2.5","","67","","29","","22","","24.1","","98.43","","","","","","Mostly Cloudy"
"2012-04-10 05:00","2012","04","10","05:00","2.6","","-1.9","","72","","29","","22","","24.1","","98.43","","","","","","Mostly Cloudy"
"2012-04-10 06:00","2012","04","10","06:00","2.6","","-1.6","","74","","29","","19","","24.1","","98.47","","","","","","Mostly Cloudy"
"2012-04-10 07:00","2012","04","10","07:00","3.8","","-1.1","","70","","29","","26","","24.1","","98.50","","","","","","Mostly Cloudy"
"2012-04-10 08:00","2012","04","10","08:00","5.5","","-1.2","","62","","29","","32","","24.1","","98.50","","","","","","Mostly Cloudy"
"2012-04-10 09:00","2012","04","10","09:00","6.5","","-1.6","","56","","29","","28","","24.1","","98.52","","","","","","Mostly Cloudy"
"2012-04-10 10:00","2012","04","10","10:00","7.5","","-1.1","","54","","30","","32","","24.1","","98.54","","","","","","Mostly Cloudy"
"2012-04-10 11:00","2012","04","10","11:00","7.5","","-2.2","","50","","29","","33","","24.1","","98.55","","","","","","Mostly Cloudy"
"2012-04-10 12:00","2012","04","10","12:00","8.0","","-2.3","","48","","28","","37","","24.1","","98.54","","","","","","Cloudy"
"2012-04-10 13:00","2012","04","10","13:00","7.5","","-1.7","","52","","29","","35","","24.1","","98.55","","","","","","Rain Showers"
"2012-04-10 14:00","2012","04","10","14:00","6.6","","-1.4","","57","","30","","37","","24.1","","98.58","","","","","","Rain Showers"
"2012-04-10 15:00","2012","04","10","15:00","6.9","","-1.7","","54","","28","","32","","24.1","","98.61","","","","","","Cloudy"
"2012-04-10 16:00","2012","04","10","16:00","6.1","","-1.1","","60","","27","","30","","24.1","","98.68","","","","","","Rain Showers"
"2012-04-10 17:00","2012","04","10","17:00","5.8","","-1.1","","61","","29","","41","","24.1","","98.76","","","","","","Cloudy"
"2012-04-10 18:00","2012","04","10","18:00","5.1","","-1.2","","64","","30","","30","","24.1","","98.84","","","","","","Mostly Cloudy"
"2012-04-10 19:00","2012","04","10","19:00","4.4","","-1.4","","66","","29","","26","","24.1","","98.93","","","","","","Mostly Cloudy"
"2012-04-10 20:00","2012","04","10","20:00","4.0","","-2.0","","65","","30","","24","","24.1","","98.98","","","","","","Rain Showers"
"2012-04-10 21:00","2012","04","10","21:00","3.7","","-1.5","","69","","30","","24","","24.1","","99.00","","","","","","Rain Showers"
"2012-04-10 22:00","2012","04","10","22:00","3.4","","-1.5","","70","","31","","17","","24.1","","99.00","","","","","","Cloudy"
"2012-04-10 23:00","2012","04","10","23:00","3.2","","-1.3","","72","","30","","20","","24.1","","99.01","","","","","","Mostly Cloudy"
"2012-04-11 00:00","2012","04","11","00:00","2.6","","-1.1","","77","","30","","15","","24.1","","99.02","","","","","","Mostly Cloudy"
"2012-04-11 01:00","2012","04","11","01:00","2.9","","-0.9","","76","","31","","17","","24.1","","99.05","","","","","","Rain Showers"
"2012-04-11 02:00","2012","04","11","02:00","3.0","","-0.4","","78","","33","","20","","24.1","","99.04","","","","","","Mostly Cloudy"
"2012-04-11 03:00","2012","04","11","03:00","3.0","","0.6","","84","","33","","20","","24.1","","99.07","","","","","","Rain Showers"
"2012-04-11 04:00","2012","04","11","04:00","2.8","","0.4","","84","","33","","20","","24.1","","99.11","","","","","","Rain Showers"
"2012-04-11 05:00","2012","04","11","05:00","3.1","","0.5","","83","","33","","15","","24.1","","99.18","","","","","","Mostly Cloudy"
"2012-04-11 06:00","2012","04","11","06:00","3.0","","-0.5","","78","","34","","28","","24.1","","99.27","","","","","","Rain Showers"
"2012-04-11 07:00","2012","04","11","07:00","3.5","","-0.2","","77","","35","","22","","24.1","","99.36","","","","","","Mostly Cloudy"
"2012-04-11 08:00","2012","04","11","08:00","4.4","","0.4","","75","","34","","22","","24.1","","99.42","","","","","","Rain Showers"
"2012-04-11 09:00","2012","04","11","09:00","4.9","","0.1","","71","","36","","24","","24.1","","99.49","","","","","","Mostly Cloudy"
"2012-04-11 10:00","2012","04","11","10:00","6.0","","0.9","","70","","36","","24","","24.1","","99.55","","","","","","Mostly Cloudy"
"2012-04-11 11:00","2012","04","11","11:00","7.6","","0.4","","60","","1","","26","","24.1","","99.55","","","","","","Mostly Cloudy"
"2012-04-11 12:00","2012","04","11","12:00","8.8","","1.4","","60","","35","","30","","24.1","","99.56","","","","","","Mostly Cloudy"
"2012-04-11 13:00","2012","04","11","13:00","8.6","","1.1","","59","","32","","35","","24.1","","99.59","","","","","","Rain Showers"
"2012-04-11 14:00","2012","04","11","14:00","9.6","","-0.1","","51","","35","","30","","24.1","","99.59","","","","","","Mainly Clear"
"2012-04-11 15:00","2012","04","11","15:00","9.0","","-0.7","","51","","34","","30","","24.1","","99.62","","","","","","Mainly Clear"
"2012-04-11 16:00","2012","04","11","16:00","9.1","","-0.4","","51","","34","","35","","24.1","","99.67","","","","","","Mainly Clear"
"2012-04-11 17:00","2012","04","11","17:00","9.5","","-1.1","","47","","36","","30","","24.1","","99.71","","","","","","Mainly Clear"
"2012-04-11 18:00","2012","04","11","18:00","8.1","","-1.8","","50","","34","","33","","24.1","","99.77","","","","","","Mainly Clear"
"2012-04-11 19:00","2012","04","11","19:00","6.9","","-2.8","","50","","35","","28","","24.1","","99.81","","","","","","Mainly Clear"
"2012-04-11 20:00","2012","04","11","20:00","6.4","","-3.2","","50","","34","","22","","24.1","","99.88","","","","","","Mainly Clear"
"2012-04-11 21:00","2012","04","11","21:00","5.9","","-3.4","","51","","35","","20","","24.1","","99.92","","","","","","Mainly Clear"
"2012-04-11 22:00","2012","04","11","22:00","5.1","","-3.1","","55","","35","","19","","24.1","","99.97","","","","","","Mainly Clear"
"2012-04-11 23:00","2012","04","11","23:00","4.3","","-2.9","","59","","35","","19","","24.1","","99.96","","","","","","Mainly Clear"
"2012-04-12 00:00","2012","04","12","00:00","3.8","","-2.7","","62","","36","","15","","24.1","","99.99","","","","","","Clear"
"2012-04-12 01:00","2012","04","12","01:00","3.4","","-2.4","","66","","34","","13","","24.1","","100.00","","","","","","Clear"
"2012-04-12 02:00","2012","04","12","02:00","2.9","","-2.2","","69","","33","","17","","24.1","","99.98","","","","","","Clear"
"2012-04-12 03:00","2012","04","12","03:00","3.0","","-2.2","","69","","34","","15","","24.1","","99.99","","","","","","Clear"
"2012-04-12 04:00","2012","04","12","04:00","2.6","","-2.5","","69","","34","","13","","24.1","","100.03","","","","","","Clear"
"2012-04-12 05:00","2012","04","12","05:00","2.1","","-2.7","","70","","34","","15","","24.1","","100.08","","","","","","Clear"
"2012-04-12 06:00","2012","04","12","06:00","3.1","","-2.7","","66","","34","","19","","24.1","","100.15","","","","","","Clear"
"2012-04-12 07:00","2012","04","12","07:00","4.2","","-2.2","","63","","34","","20","","24.1","","100.21","","","","","","Clear"
"2012-04-12 08:00","2012","04","12","08:00","6.4","","-1.3","","58","","35","","17","","24.1","","100.22","","","","","","Mainly Clear"
"2012-04-12 09:00","2012","04","12","09:00","7.0","","-2.4","","51","","5","","9","","24.1","","100.24","","","","","","Mainly Clear"
"2012-04-12 10:00","2012","04","12","10:00","8.4","","-1.9","","48","","36","","6","","24.1","","100.23","","","","","","Mainly Clear"
"2012-04-12 11:00","2012","04","12","11:00","10.0","","-2.0","","43","","26","","11","","24.1","","100.20","","","","","","Mostly Cloudy"
"2012-04-12 12:00","2012","04","12","12:00","10.7","","-1.5","","43","","29","","9","","24.1","","100.16","","","","","","Mostly Cloudy"
"2012-04-12 13:00","2012","04","12","13:00","10.9","","-2.2","","40","","31","","13","","24.1","","100.10","","","","","","Mostly Cloudy"
"2012-04-12 14:00","2012","04","12","14:00","11.0","","-1.2","","43","","15","","15","","24.1","","100.03","","","","","","Mostly Cloudy"
"2012-04-12 15:00","2012","04","12","15:00","11.0","","-1.6","","41","","13","","13","","24.1","","99.98","","","","","","Mostly Cloudy"
"2012-04-12 16:00","2012","04","12","16:00","10.4","","-2.0","","42","","14","","13","","24.1","","99.97","","","","","","Mostly Cloudy"
"2012-04-12 17:00","2012","04","12","17:00","10.8","","-2.0","","41","","36","","15","","24.1","","100.00","","","","","","Mostly Cloudy"
"2012-04-12 18:00","2012","04","12","18:00","9.8","","-3.1","","40","","36","","20","","24.1","","100.02","","","","","","Mostly Cloudy"
"2012-04-12 19:00","2012","04","12","19:00","8.6","","-3.2","","43","","1","","19","","24.1","","100.07","","","","","","Mostly Cloudy"
"2012-04-12 20:00","2012","04","12","20:00","6.9","","-4.7","","43","","36","","17","","24.1","","100.15","","","","","","Mostly Cloudy"
"2012-04-12 21:00","2012","04","12","21:00","5.3","","-4.9","","48","","36","","13","","24.1","","100.21","","","","","","Mainly Clear"
"2012-04-12 22:00","2012","04","12","22:00","4.4","","-4.6","","52","","34","","13","","24.1","","100.20","","","","","","Clear"
"2012-04-12 23:00","2012","04","12","23:00","3.8","","-4.5","","55","","34","","15","","24.1","","100.22","","","","","","Clear"
"2012-04-13 00:00","2012","04","13","00:00","3.4","","-4.3","","57","","34","","15","","24.1","","100.23","","","","","","Clear"
"2012-04-13 01:00","2012","04","13","01:00","2.6","","-4.4","","60","","34","","13","","24.1","","100.21","","","","","","Clear"
"2012-04-13 02:00","2012","04","13","02:00","2.3","","-4.3","","62","","35","","13","","24.1","","100.22","","","","","","Clear"
"2012-04-13 03:00","2012","04","13","03:00","1.9","","-4.2","","64","","33","","13","","24.1","","100.21","","","","","","Clear"
"2012-04-13 04:00","2012","04","13","04:00","1.0","","-4.3","","68","","33","","11","","24.1","","100.26","","","","","","Clear"
"2012-04-13 05:00","2012","04","13","05:00","2.5","","-3.7","","64","","34","","15","","24.1","","100.32","","","","","","Clear"
"2012-04-13 06:00","2012","04","13","06:00","2.5","","-3.5","","65","","34","","17","","24.1","","100.40","","","","","","Clear"
"2012-04-13 07:00","2012","04","13","07:00","3.7","","-2.8","","62","","34","","17","","24.1","","100.46","","","","","","Clear"
"2012-04-13 08:00","2012","04","13","08:00","6.3","","-2.0","","55","","35","","17","","24.1","","100.46","","","","","","Clear"
"2012-04-13 09:00","2012","04","13","09:00","8.7","","-1.4","","49","","34","","9","","24.1","","100.45","","","","","","Clear"
"2012-04-13 10:00","2012","04","13","10:00","10.6","","-1.3","","43","","","","0","","24.1","","100.42","","","","","","Clear"
"2012-04-13 11:00","2012","04","13","11:00","11.8","","-1.2","","40","","27","","13","","24.1","","100.37","","","","","","Clear"
"2012-04-13 12:00","2012","04","13","12:00","12.3","","-0.9","","40","","16","","15","","24.1","","100.31","","","","","","Clear"
"2012-04-13 13:00","2012","04","13","13:00","12.5","","-1.0","","39","","14","","17","","24.1","","100.26","","","","","","Clear"
"2012-04-13 14:00","2012","04","13","14:00","13.7","","-1.1","","36","","17","","15","","24.1","","100.21","","","","","","Clear"
"2012-04-13 15:00","2012","04","13","15:00","14.7","","-0.4","","35","","15","","20","","24.1","","100.14","","","","","","Mainly Clear"
"2012-04-13 16:00","2012","04","13","16:00","16.3","","-3.2","","26","","27","","11","","24.1","","100.12","","","","","","Mainly Clear"
"2012-04-13 17:00","2012","04","13","17:00","16.2","","-3.3","","26","","27","","20","","24.1","","100.07","","","","","","Mainly Clear"
"2012-04-13 18:00","2012","04","13","18:00","15.3","","-4.6","","25","","27","","17","","24.1","","100.04","","","","","","Mainly Clear"
"2012-04-13 19:00","2012","04","13","19:00","13.4","","-4.5","","28","","29","","13","","24.1","","100.01","","","","","","Mainly Clear"
"2012-04-13 20:00","2012","04","13","20:00","11.7","","-1.6","","40","","36","","22","","24.1","","100.06","","","","","","Mainly Clear"
"2012-04-13 21:00","2012","04","13","21:00","8.9","","-2.5","","45","","36","","15","","24.1","","100.08","","","","","","Mainly Clear"
"2012-04-13 22:00","2012","04","13","22:00","7.0","","-2.6","","50","","34","","7","","24.1","","100.10","","","","","","Mainly Clear"
"2012-04-13 23:00","2012","04","13","23:00","5.8","","-2.7","","54","","27","","7","","24.1","","100.10","","","","","","Mainly Clear"
"2012-04-14 00:00","2012","04","14","00:00","6.6","","-2.8","","51","","27","","7","","24.1","","100.08","","","","","","Mostly Cloudy"
"2012-04-14 01:00","2012","04","14","01:00","6.2","","-2.4","","54","","28","","4","","24.1","","100.02","","","","","","Mostly Cloudy"
"2012-04-14 02:00","2012","04","14","02:00","6.1","","-2.2","","55","","","","0","","24.1","","99.91","","","","","","Mostly Cloudy"
"2012-04-14 03:00","2012","04","14","03:00","6.4","","-2.0","","55","","23","","6","","24.1","","99.95","","","","","","Cloudy"
"2012-04-14 04:00","2012","04","14","04:00","5.3","","-2.3","","58","","25","","4","","24.1","","99.92","","","","","","Mostly Cloudy"
"2012-04-14 05:00","2012","04","14","05:00","4.5","","-2.9","","59","","","","0","","24.1","","99.92","","","","","","Mainly Clear"
"2012-04-14 06:00","2012","04","14","06:00","5.2","","-3.6","","53","","25","","4","","24.1","","99.96","","","","","","Mostly Cloudy"
"2012-04-14 07:00","2012","04","14","07:00","7.5","","-2.8","","48","","15","","4","","24.1","","99.97","","","","","","Mostly Cloudy"
"2012-04-14 08:00","2012","04","14","08:00","9.1","","-1.1","","49","","14","","7","","24.1","","99.84","","","","","","Cloudy"
"2012-04-14 09:00","2012","04","14","09:00","9.2","","0.9","","56","","16","","9","","24.1","","99.81","","","","","","Cloudy"
"2012-04-14 10:00","2012","04","14","10:00","9.6","","0.8","","54","","15","","7","","24.1","","99.76","","","","","","Cloudy"
"2012-04-14 11:00","2012","04","14","11:00","10.1","","2.0","","57","","13","","7","","24.1","","99.78","","","","","","Mostly Cloudy"
"2012-04-14 12:00","2012","04","14","12:00","12.2","","2.8","","53","","16","","9","","24.1","","99.58","","","","","","Mostly Cloudy"
"2012-04-14 13:00","2012","04","14","13:00","14.8","","3.9","","48","","18","","15","","24.1","","99.52","","","","","","Mostly Cloudy"
"2012-04-14 14:00","2012","04","14","14:00","14.9","","4.2","","49","","17","","17","","24.1","","99.42","","","","","","Mostly Cloudy"
"2012-04-14 15:00","2012","04","14","15:00","13.4","","4.2","","54","","18","","13","","24.1","","99.34","","","","","","Cloudy"
"2012-04-14 16:00","2012","04","14","16:00","15.9","","7.7","","58","","22","","24","","24.1","","99.28","","","","","","Mostly Cloudy"
"2012-04-14 17:00","2012","04","14","17:00","14.7","","8.0","","64","","21","","24","","24.1","","99.26","","","","","","Mostly Cloudy"
"2012-04-14 18:00","2012","04","14","18:00","13.4","","8.7","","73","","23","","22","","16.1","","99.26","","","","","","Cloudy"
"2012-04-14 19:00","2012","04","14","19:00","13.2","","8.5","","73","","21","","17","","24.1","","99.22","","","","","","Cloudy"
"2012-04-14 20:00","2012","04","14","20:00","13.2","","8.8","","75","","20","","13","","24.1","","99.22","","","","","","Cloudy"
"2012-04-14 21:00","2012","04","14","21:00","13.2","","9.8","","80","","21","","15","","19.3","","99.23","","","","","","Cloudy"
"2012-04-14 22:00","2012","04","14","22:00","13.1","","10.4","","84","","24","","17","","19.3","","99.24","","","","","","Cloudy"
"2012-04-14 23:00","2012","04","14","23:00","13.1","","10.8","","86","","24","","13","","16.1","","99.21","","","","","","Cloudy"
"2012-04-15 00:00","2012","04","15","00:00","13.1","","11.3","","89","","23","","17","","11.3","","99.18","","","","","","Cloudy"
"2012-04-15 01:00","2012","04","15","01:00","13.1","","11.4","","89","","20","","9","","11.3","","99.13","","","","","","Cloudy"
"2012-04-15 02:00","2012","04","15","02:00","12.9","","11.3","","90","","22","","11","","11.3","","99.15","","","","","","Cloudy"
"2012-04-15 03:00","2012","04","15","03:00","13.0","","11.3","","89","","24","","6","","11.3","","99.12","","","","","","Cloudy"
"2012-04-15 04:00","2012","04","15","04:00","13.1","","11.4","","89","","16","","6","","12.9","","99.09","","","","","","Cloudy"
"2012-04-15 05:00","2012","04","15","05:00","12.0","","10.5","","91","","16","","7","","9.7","","99.10","","","","","","Fog"
"2012-04-15 06:00","2012","04","15","06:00","12.3","","10.8","","91","","15","","7","","9.7","","99.15","","","","","","Fog"
"2012-04-15 07:00","2012","04","15","07:00","12.3","","10.9","","91","","18","","6","","9.7","","99.20","","","","","","Fog"
"2012-04-15 08:00","2012","04","15","08:00","12.9","","11.1","","89","","18","","7","","9.7","","99.19","","","","","","Fog"
"2012-04-15 09:00","2012","04","15","09:00","13.2","","12.4","","95","","22","","13","","4.8","","99.20","","","","","","Rain,Fog"
"2012-04-15 10:00","2012","04","15","10:00","13.6","","12.8","","95","","14","","9","","6.4","","99.06","","","","","","Rain,Fog"
"2012-04-15 11:00","2012","04","15","11:00","14.4","","13.6","","95","","19","","13","","8.0","","99.06","","","","","","Rain,Fog"
"2012-04-15 12:00","2012","04","15","12:00","14.6","","13.7","","94","","20","","17","","11.3","","99.07","","","","","","Cloudy"
"2012-04-15 13:00","2012","04","15","13:00","15.2","","14.2","","94","","21","","15","","14.5","","99.00","","","","","","Cloudy"
"2012-04-15 14:00","2012","04","15","14:00","17.0","","14.9","","87","","22","","26","","11.3","","98.96","","","","","","Cloudy"
"2012-04-15 15:00","2012","04","15","15:00","18.6","","15.0","","80","","24","","28","","24.1","","98.90","","","","","","Cloudy"
"2012-04-15 16:00","2012","04","15","16:00","19.1","","14.8","","76","","25","","19","","16.1","","98.93","","","","","","Cloudy"
"2012-04-15 17:00","2012","04","15","17:00","19.4","","15.2","","77","","25","","19","","24.1","","98.95","","","","","","Cloudy"
"2012-04-15 18:00","2012","04","15","18:00","19.3","","15.1","","77","","27","","11","","19.3","","98.96","","","","","","Cloudy"
"2012-04-15 19:00","2012","04","15","19:00","18.8","","15.2","","80","","24","","7","","6.4","","98.96","","","","","","Haze"
"2012-04-15 20:00","2012","04","15","20:00","19.0","","15.2","","79","","15","","7","","16.1","","99.01","","","","","","Cloudy"
"2012-04-15 21:00","2012","04","15","21:00","15.4","","12.8","","84","","14","","7","","16.1","","99.01","","","","","","Rain Showers"
"2012-04-15 22:00","2012","04","15","22:00","13.1","","11.6","","91","","14","","13","","16.1","","98.97","","","","","","Cloudy"
"2012-04-15 23:00","2012","04","15","23:00","13.6","","12.2","","91","","16","","7","","16.1","","98.96","","","","","","Cloudy"
"2012-04-16 00:00","2012","04","16","00:00","14.2","","12.5","","90","","15","","7","","16.1","","98.94","","","","","","Mostly Cloudy"
"2012-04-16 01:00","2012","04","16","01:00","13.5","","11.5","","88","","14","","9","","19.3","","98.89","","","","","","Mostly Cloudy"
"2012-04-16 02:00","2012","04","16","02:00","13.0","","10.9","","87","","14","","11","","24.1","","98.86","","","","","","Mainly Clear"
"2012-04-16 03:00","2012","04","16","03:00","13.1","","10.6","","85","","14","","7","","19.3","","98.90","","","","","","Mainly Clear"
"2012-04-16 04:00","2012","04","16","04:00","12.6","","10.2","","85","","16","","9","","24.1","","98.82","","","","","","Mostly Cloudy"
"2012-04-16 05:00","2012","04","16","05:00","13.4","","10.2","","81","","16","","7","","24.1","","98.80","","","","","","Mostly Cloudy"
"2012-04-16 06:00","2012","04","16","06:00","14.1","","10.4","","78","","17","","4","","19.3","","98.82","","","","","","Mostly Cloudy"
"2012-04-16 07:00","2012","04","16","07:00","15.6","","11.0","","74","","16","","7","","19.3","","98.83","","","","","","Cloudy"
"2012-04-16 08:00","2012","04","16","08:00","18.1","","12.0","","68","","20","","15","","19.3","","98.75","","","","","","Cloudy"
"2012-04-16 09:00","2012","04","16","09:00","20.9","","13.3","","62","","20","","17","","24.1","","98.65","","","","","","Mostly Cloudy"
"2012-04-16 10:00","2012","04","16","10:00","23.0","","14.0","","57","","21","","26","","24.1","","98.62","","26","","","","Mostly Cloudy"
"2012-04-16 11:00","2012","04","16","11:00","25.5","","15.5","","54","","21","","33","","24.1","","98.53","","30","","","","Mostly Cloudy"
"2012-04-16 12:00","2012","04","16","12:00","25.4","","15.1","","53","","19","","22","","24.1","","98.48","","29","","","","Mostly Cloudy"
"2012-04-16 13:00","2012","04","16","13:00","25.1","","15.2","","54","","23","","35","","24.1","","98.49","","29","","","","Mostly Cloudy"
"2012-04-16 14:00","2012","04","16","14:00","24.8","","14.9","","54","","23","","48","","24.1","","98.54","","29","","","","Mostly Cloudy"
"2012-04-16 15:00","2012","04","16","15:00","25.1","","14.6","","52","","24","","44","","24.1","","98.51","","29","","","","Mostly Cloudy"
"2012-04-16 16:00","2012","04","16","16:00","25.2","","11.3","","42","","24","","54","","24.1","","98.52","","27","","","","Mainly Clear"
"2012-04-16 17:00","2012","04","16","17:00","24.2","","8.6","","37","","23","","61","","24.1","","98.59","","25","","","","Mainly Clear"
"2012-04-16 18:00","2012","04","16","18:00","22.0","","9.5","","45","","25","","41","","24.1","","98.69","","","","","","Mainly Clear"
"2012-04-16 19:00","2012","04","16","19:00","19.3","","7.4","","46","","25","","46","","24.1","","98.83","","","","","","Mainly Clear"
"2012-04-16 20:00","2012","04","16","20:00","17.7","","6.9","","49","","26","","43","","24.1","","98.95","","","","","","Clear"
"2012-04-16 21:00","2012","04","16","21:00","16.6","","5.7","","48","","26","","46","","24.1","","99.10","","","","","","Mainly Clear"
"2012-04-16 22:00","2012","04","16","22:00","12.8","","3.3","","52","","28","","41","","24.1","","99.36","","","","","","Mostly Cloudy"
"2012-04-16 23:00","2012","04","16","23:00","10.8","","2.1","","55","","27","","32","","24.1","","99.51","","","","","","Mostly Cloudy"
"2012-04-17 00:00","2012","04","17","00:00","9.7","","0.9","","54","","27","","35","","24.1","","99.66","","","","","","Mostly Cloudy"
"2012-04-17 01:00","2012","04","17","01:00","8.2","","-0.5","","54","","28","","33","","24.1","","99.78","","","","","","Mostly Cloudy"
"2012-04-17 02:00","2012","04","17","02:00","7.6","","-1.5","","52","","27","","30","","24.1","","99.91","","","","","","Mostly Cloudy"
"2012-04-17 03:00","2012","04","17","03:00","6.7","","-1.2","","57","","28","","20","","24.1","","99.98","","","","","","Mostly Cloudy"
"2012-04-17 04:00","2012","04","17","04:00","5.8","","-1.0","","62","","29","","22","","24.1","","100.04","","","","","","Mostly Cloudy"
"2012-04-17 05:00","2012","04","17","05:00","5.2","","-1.1","","64","","29","","17","","24.1","","100.11","","","","","","Mostly Cloudy"
"2012-04-17 06:00","2012","04","17","06:00","4.9","","-0.9","","66","","27","","9","","24.1","","100.21","","","","","","Mostly Cloudy"
"2012-04-17 07:00","2012","04","17","07:00","5.2","","-1.3","","63","","29","","13","","24.1","","100.27","","","","","","Mostly Cloudy"
"2012-04-17 08:00","2012","04","17","08:00","5.7","","-1.3","","61","","28","","30","","24.1","","100.33","","","","","","Mostly Cloudy"
"2012-04-17 09:00","2012","04","17","09:00","6.3","","-1.3","","58","","30","","20","","24.1","","100.42","","","","","","Mostly Cloudy"
"2012-04-17 10:00","2012","04","17","10:00","6.9","","-1.8","","54","","28","","22","","24.1","","100.51","","","","","","Mostly Cloudy"
"2012-04-17 11:00","2012","04","17","11:00","8.7","","-0.7","","52","","29","","26","","24.1","","100.50","","","","","","Mostly Cloudy"
"2012-04-17 12:00","2012","04","17","12:00","8.6","","-1.4","","49","","30","","28","","24.1","","100.51","","","","","","Mostly Cloudy"
"2012-04-17 13:00","2012","04","17","13:00","8.9","","-2.2","","46","","31","","26","","24.1","","100.50","","","","","","Mostly Cloudy"
"2012-04-17 14:00","2012","04","17","14:00","9.6","","-1.8","","45","","29","","22","","24.1","","100.53","","","","","","Mostly Cloudy"
"2012-04-17 15:00","2012","04","17","15:00","10.1","","-2.4","","41","","31","","20","","24.1","","100.45","","","","","","Mainly Clear"
"2012-04-17 16:00","2012","04","17","16:00","10.4","","-2.7","","40","","29","","20","","24.1","","100.50","","","","","","Mostly Cloudy"
"2012-04-17 17:00","2012","04","17","17:00","9.6","","-3.4","","40","","32","","26","","24.1","","100.55","","","","","","Mainly Clear"
"2012-04-17 18:00","2012","04","17","18:00","8.3","","-4.1","","41","","33","","20","","24.1","","100.58","","","","","","Mainly Clear"
"2012-04-17 19:00","2012","04","17","19:00","6.1","","-3.2","","51","","2","","19","","24.1","","100.64","","","","","","Mostly Cloudy"
"2012-04-17 20:00","2012","04","17","20:00","3.7","","-3.8","","58","","35","","24","","24.1","","100.73","","","","","","Mostly Cloudy"
"2012-04-17 21:00","2012","04","17","21:00","2.4","","-4.4","","61","","36","","24","","24.1","","100.75","","","","","","Mostly Cloudy"
"2012-04-17 22:00","2012","04","17","22:00","1.4","","-4.6","","64","","2","","17","","24.1","","100.74","","","","","","Mainly Clear"
"2012-04-17 23:00","2012","04","17","23:00","0.9","","-4.6","","67","","36","","17","","24.1","","100.72","","","","","","Mainly Clear"
"2012-04-18 00:00","2012","04","18","00:00","0.3","","-4.6","","70","","2","","15","","24.1","","100.73","","","","","","Mainly Clear"
"2012-04-18 01:00","2012","04","18","01:00","-0.1","","-4.6","","72","","1","","11","","24.1","","100.72","","","","-4","","Clear"
"2012-04-18 02:00","2012","04","18","02:00","-0.8","","-5.1","","73","","36","","7","","24.1","","100.72","","","","-3","","Clear"
"2012-04-18 03:00","2012","04","18","03:00","-0.9","","-4.8","","75","","35","","9","","24.1","","100.72","","","","-4","","Clear"
"2012-04-18 04:00","2012","04","18","04:00","-1.8","","-5.2","","78","","2","","6","","24.1","","100.73","","","","-4","","Clear"
"2012-04-18 05:00","2012","04","18","05:00","-1.9","","-5.3","","78","","36","","7","","24.1","","100.73","","","","-5","","Clear"
"2012-04-18 06:00","2012","04","18","06:00","-1.4","","-4.7","","78","","1","","7","","24.1","","100.72","","","","-4","","Mainly Clear"
"2012-04-18 07:00","2012","04","18","07:00","1.1","","-4.6","","66","","3","","6","","24.1","","100.72","","","","","","Mainly Clear"
"2012-04-18 08:00","2012","04","18","08:00","3.3","","-4.8","","55","","11","","11","","24.1","","100.69","","","","","","Mainly Clear"
"2012-04-18 09:00","2012","04","18","09:00","5.2","","-4.8","","48","","13","","17","","24.1","","100.62","","","","","","Mainly Clear"
"2012-04-18 10:00","2012","04","18","10:00","5.9","","-2.1","","56","","11","","17","","24.1","","100.58","","","","","","Mainly Clear"
"2012-04-18 11:00","2012","04","18","11:00","5.9","","-3.9","","49","","13","","15","","24.1","","100.57","","","","","","Mainly Clear"
"2012-04-18 12:00","2012","04","18","12:00","7.3","","-3.3","","47","","15","","13","","24.1","","100.47","","","","","","Mainly Clear"
"2012-04-18 13:00","2012","04","18","13:00","9.0","","-3.4","","41","","16","","13","","24.1","","100.39","","","","","","Mainly Clear"
"2012-04-18 14:00","2012","04","18","14:00","8.7","","-3.2","","43","","14","","17","","24.1","","100.27","","","","","","Mainly Clear"
"2012-04-18 15:00","2012","04","18","15:00","8.6","","-2.2","","47","","12","","11","","24.1","","100.15","","","","","","Mainly Clear"
"2012-04-18 16:00","2012","04","18","16:00","8.6","","-0.5","","53","","15","","9","","24.1","","100.03","","","","","","Mainly Clear"
"2012-04-18 17:00","2012","04","18","17:00","8.5","","-0.4","","53","","18","","15","","24.1","","99.98","","","","","","Mainly Clear"
"2012-04-18 18:00","2012","04","18","18:00","6.7","","-3.8","","47","","16","","17","","24.1","","99.88","","","","","","Mainly Clear"
"2012-04-18 19:00","2012","04","18","19:00","5.2","","-2.5","","57","","15","","15","","24.1","","99.84","","","","","","Mainly Clear"
"2012-04-18 20:00","2012","04","18","20:00","4.4","","-2.7","","60","","14","","11","","24.1","","99.79","","","","","","Mainly Clear"
"2012-04-18 21:00","2012","04","18","21:00","4.0","","-1.5","","67","","14","","9","","24.1","","99.74","","","","","","Clear"
"2012-04-18 22:00","2012","04","18","22:00","3.6","","-0.8","","73","","27","","7","","24.1","","99.76","","","","","","Clear"
"2012-04-18 23:00","2012","04","18","23:00","3.9","","-0.9","","71","","","","0","","24.1","","99.68","","","","","","Mainly Clear"
"2012-04-19 00:00","2012","04","19","00:00","4.8","","0.3","","73","","12","","6","","24.1","","99.60","","","","","","Mostly Cloudy"
"2012-04-19 01:00","2012","04","19","01:00","4.6","","-0.3","","70","","","","0","","24.1","","99.57","","","","","","Mostly Cloudy"
"2012-04-19 02:00","2012","04","19","02:00","5.1","","-0.4","","68","","","","0","","24.1","","99.50","","","","","","Mostly Cloudy"
"2012-04-19 03:00","2012","04","19","03:00","4.6","","0.3","","74","","17","","4","","24.1","","99.46","","","","","","Mainly Clear"
"2012-04-19 04:00","2012","04","19","04:00","4.5","","1.8","","83","","17","","4","","24.1","","99.44","","","","","","Mostly Cloudy"
"2012-04-19 05:00","2012","04","19","05:00","4.5","","2.3","","86","","17","","6","","24.1","","99.40","","","","","","Mostly Cloudy"
"2012-04-19 06:00","2012","04","19","06:00","4.4","","2.2","","86","","6","","4","","24.1","","99.43","","","","","","Mostly Cloudy"
"2012-04-19 07:00","2012","04","19","07:00","6.9","","3.1","","77","","16","","6","","24.1","","99.45","","","","","","Mostly Cloudy"
"2012-04-19 08:00","2012","04","19","08:00","9.7","","4.1","","68","","17","","7","","24.1","","99.43","","","","","","Mainly Clear"
"2012-04-19 09:00","2012","04","19","09:00","13.5","","4.9","","56","","23","","6","","24.1","","99.40","","","","","","Mostly Cloudy"
"2012-04-19 10:00","2012","04","19","10:00","16.0","","6.5","","53","","17","","9","","24.1","","99.39","","","","","","Mostly Cloudy"
"2012-04-19 11:00","2012","04","19","11:00","16.7","","6.4","","51","","15","","13","","24.1","","99.38","","","","","","Mainly Clear"
"2012-04-19 12:00","2012","04","19","12:00","18.4","","7.6","","49","","15","","15","","24.1","","99.35","","","","","","Mostly Cloudy"
"2012-04-19 13:00","2012","04","19","13:00","21.1","","8.4","","44","","27","","17","","24.1","","99.30","","","","","","Mostly Cloudy"
"2012-04-19 14:00","2012","04","19","14:00","23.6","","7.9","","37","","28","","20","","24.1","","99.23","","","","","","Mostly Cloudy"
"2012-04-19 15:00","2012","04","19","15:00","23.3","","6.4","","34","","29","","20","","24.1","","99.18","","","","","","Mostly Cloudy"
"2012-04-19 16:00","2012","04","19","16:00","22.1","","5.6","","34","","29","","19","","24.1","","99.17","","","","","","Mostly Cloudy"
"2012-04-19 17:00","2012","04","19","17:00","20.6","","7.4","","42","","1","","19","","24.1","","99.18","","","","","","Mostly Cloudy"
"2012-04-19 18:00","2012","04","19","18:00","18.7","","7.3","","47","","35","","20","","24.1","","99.20","","","","","","Mostly Cloudy"
"2012-04-19 19:00","2012","04","19","19:00","15.6","","6.1","","53","","34","","30","","24.1","","99.28","","","","","","Mostly Cloudy"
"2012-04-19 20:00","2012","04","19","20:00","13.2","","5.2","","58","","36","","19","","24.1","","99.36","","","","","","Mostly Cloudy"
"2012-04-19 21:00","2012","04","19","21:00","11.8","","4.4","","60","","36","","17","","24.1","","99.35","","","","","","Rain Showers"
"2012-04-19 22:00","2012","04","19","22:00","10.5","","3.6","","62","","35","","20","","24.1","","99.31","","","","","","Mostly Cloudy"
"2012-04-19 23:00","2012","04","19","23:00","9.9","","3.3","","63","","35","","17","","24.1","","99.26","","","","","","Mostly Cloudy"
"2012-04-20 00:00","2012","04","20","00:00","10.1","","3.7","","64","","34","","7","","24.1","","99.25","","","","","","Mostly Cloudy"
"2012-04-20 01:00","2012","04","20","01:00","9.7","","3.4","","65","","35","","11","","24.1","","99.21","","","","","","Mostly Cloudy"
"2012-04-20 02:00","2012","04","20","02:00","9.3","","3.1","","65","","4","","7","","24.1","","99.12","","","","","","Mostly Cloudy"
"2012-04-20 03:00","2012","04","20","03:00","9.7","","3.2","","64","","33","","15","","24.1","","99.15","","","","","","Cloudy"
"2012-04-20 04:00","2012","04","20","04:00","8.1","","3.9","","75","","3","","22","","24.1","","99.07","","","","","","Rain Showers"
"2012-04-20 05:00","2012","04","20","05:00","8.0","","4.7","","80","","36","","15","","24.1","","99.08","","","","","","Rain Showers"
"2012-04-20 06:00","2012","04","20","06:00","8.4","","5.2","","80","","3","","6","","24.1","","99.04","","","","","","Rain"
"2012-04-20 07:00","2012","04","20","07:00","8.7","","5.2","","79","","1","","6","","24.1","","99.08","","","","","","Cloudy"
"2012-04-20 08:00","2012","04","20","08:00","11.0","","6.3","","73","","16","","6","","24.1","","99.02","","","","","","Cloudy"
"2012-04-20 09:00","2012","04","20","09:00","13.0","","5.3","","59","","13","","20","","24.1","","98.96","","","","","","Cloudy"
"2012-04-20 10:00","2012","04","20","10:00","13.4","","5.3","","58","","13","","20","","24.1","","98.90","","","","","","Cloudy"
"2012-04-20 11:00","2012","04","20","11:00","14.6","","6.1","","57","","13","","19","","24.1","","98.84","","","","","","Mostly Cloudy"
"2012-04-20 12:00","2012","04","20","12:00","16.8","","7.9","","56","","14","","13","","24.1","","98.74","","","","","","Mostly Cloudy"
"2012-04-20 13:00","2012","04","20","13:00","16.0","","7.3","","56","","15","","20","","24.1","","98.62","","","","","","Mostly Cloudy"
"2012-04-20 14:00","2012","04","20","14:00","16.2","","7.3","","56","","15","","19","","24.1","","98.55","","","","","","Cloudy"
"2012-04-20 15:00","2012","04","20","15:00","16.6","","7.6","","55","","15","","15","","24.1","","98.46","","","","","","Mostly Cloudy"
"2012-04-20 16:00","2012","04","20","16:00","18.7","","8.0","","50","","18","","13","","24.1","","98.40","","","","","","Cloudy"
"2012-04-20 17:00","2012","04","20","17:00","18.5","","7.7","","49","","18","","13","","24.1","","98.35","","","","","","Cloudy"
"2012-04-20 18:00","2012","04","20","18:00","17.9","","7.8","","52","","16","","9","","24.1","","98.31","","","","","","Cloudy"
"2012-04-20 19:00","2012","04","20","19:00","16.7","","7.4","","54","","15","","6","","24.1","","98.31","","","","","","Cloudy"
"2012-04-20 20:00","2012","04","20","20:00","14.2","","8.2","","67","","35","","22","","24.1","","98.53","","","","","","Cloudy"
"2012-04-20 21:00","2012","04","20","21:00","12.3","","8.4","","77","","35","","24","","24.1","","98.52","","","","","","Cloudy"
"2012-04-20 22:00","2012","04","20","22:00","9.6","","6.8","","83","","34","","32","","24.1","","98.60","","","","","","Cloudy"
"2012-04-20 23:00","2012","04","20","23:00","6.8","","5.2","","90","","35","","30","","8.0","","98.60","","","","","","Rain"
"2012-04-21 00:00","2012","04","21","00:00","4.9","","3.6","","91","","34","","32","","9.7","","98.67","","","","","","Rain"
"2012-04-21 01:00","2012","04","21","01:00","4.4","","3.3","","93","","32","","26","","9.7","","98.79","","","","","","Rain"
"2012-04-21 02:00","2012","04","21","02:00","3.9","","2.5","","91","","34","","28","","9.7","","98.75","","","","","","Rain"
"2012-04-21 03:00","2012","04","21","03:00","3.8","","2.6","","92","","34","","22","","9.7","","98.79","","","","","","Rain"
"2012-04-21 04:00","2012","04","21","04:00","3.8","","2.4","","91","","34","","26","","11.3","","98.87","","","","","","Rain"
"2012-04-21 05:00","2012","04","21","05:00","3.8","","2.3","","90","","35","","26","","12.9","","98.84","","","","","","Rain"
"2012-04-21 06:00","2012","04","21","06:00","3.1","","1.9","","92","","36","","26","","19.3","","98.93","","","","","","Rain"
"2012-04-21 07:00","2012","04","21","07:00","3.3","","1.6","","89","","35","","28","","19.3","","98.98","","","","","","Drizzle"
"2012-04-21 08:00","2012","04","21","08:00","3.6","","1.2","","84","","1","","22","","24.1","","99.01","","","","","","Cloudy"
"2012-04-21 09:00","2012","04","21","09:00","4.1","","1.1","","81","","1","","24","","24.1","","99.11","","","","","","Cloudy"
"2012-04-21 10:00","2012","04","21","10:00","4.4","","1.0","","79","","1","","24","","24.1","","99.17","","","","","","Cloudy"
"2012-04-21 11:00","2012","04","21","11:00","4.9","","0.9","","75","","1","","22","","24.1","","99.21","","","","","","Cloudy"
"2012-04-21 12:00","2012","04","21","12:00","5.7","","1.0","","72","","36","","22","","24.1","","99.20","","","","","","Cloudy"
"2012-04-21 13:00","2012","04","21","13:00","6.7","","1.4","","69","","2","","20","","24.1","","99.20","","","","","","Cloudy"
"2012-04-21 14:00","2012","04","21","14:00","6.8","","0.7","","65","","36","","17","","24.1","","99.23","","","","","","Cloudy"
"2012-04-21 15:00","2012","04","21","15:00","7.1","","0.7","","64","","2","","22","","24.1","","99.24","","","","","","Cloudy"
"2012-04-21 16:00","2012","04","21","16:00","7.0","","1.6","","68","","34","","17","","24.1","","99.29","","","","","","Cloudy"
"2012-04-21 17:00","2012","04","21","17:00","7.6","","1.4","","65","","35","","20","","24.1","","99.29","","","","","","Cloudy"
"2012-04-21 18:00","2012","04","21","18:00","7.2","","1.1","","65","","36","","19","","24.1","","99.31","","","","","","Cloudy"
"2012-04-21 19:00","2012","04","21","19:00","6.9","","0.7","","65","","35","","13","","24.1","","99.34","","","","","","Cloudy"
"2012-04-21 20:00","2012","04","21","20:00","6.8","","1.0","","66","","36","","15","","24.1","","99.40","","","","","","Cloudy"
"2012-04-21 21:00","2012","04","21","21:00","7.0","","-0.5","","59","","5","","11","","24.1","","99.49","","","","","","Cloudy"
"2012-04-21 22:00","2012","04","21","22:00","6.3","","0.5","","66","","2","","20","","24.1","","99.49","","","","","","Mostly Cloudy"
"2012-04-21 23:00","2012","04","21","23:00","5.6","","0.9","","72","","2","","17","","24.1","","99.49","","","","","","Cloudy"
"2012-04-22 00:00","2012","04","22","00:00","5.4","","0.6","","71","","3","","19","","24.1","","99.48","","","","","","Cloudy"
"2012-04-22 01:00","2012","04","22","01:00","5.1","","0.1","","70","","4","","13","","24.1","","99.47","","","","","","Cloudy"
"2012-04-22 02:00","2012","04","22","02:00","4.9","","-0.7","","67","","4","","20","","24.1","","99.43","","","","","","Cloudy"
"2012-04-22 03:00","2012","04","22","03:00","4.4","","-0.9","","68","","4","","19","","24.1","","99.42","","","","","","Cloudy"
"2012-04-22 04:00","2012","04","22","04:00","4.4","","-1.7","","65","","5","","9","","24.1","","99.46","","","","","","Cloudy"
"2012-04-22 05:00","2012","04","22","05:00","3.9","","-1.1","","70","","4","","17","","24.1","","99.42","","","","","","Mostly Cloudy"
"2012-04-22 06:00","2012","04","22","06:00","3.7","","-2.5","","64","","4","","15","","24.1","","99.48","","","","","","Cloudy"
"2012-04-22 07:00","2012","04","22","07:00","3.7","","-2.1","","66","","3","","26","","24.1","","99.53","","","","","","Cloudy"
"2012-04-22 08:00","2012","04","22","08:00","4.4","","-1.6","","65","","3","","19","","24.1","","99.55","","","","","","Cloudy"
"2012-04-22 09:00","2012","04","22","09:00","5.4","","-1.4","","62","","3","","24","","24.1","","99.48","","","","","","Cloudy"
"2012-04-22 10:00","2012","04","22","10:00","5.0","","-1.5","","63","","4","","22","","24.1","","99.53","","","","","","Cloudy"
"2012-04-22 11:00","2012","04","22","11:00","5.5","","-1.2","","62","","4","","19","","24.1","","99.51","","","","","","Mostly Cloudy"
"2012-04-22 12:00","2012","04","22","12:00","7.2","","-0.7","","57","","3","","20","","24.1","","99.44","","","","","","Mostly Cloudy"
"2012-04-22 13:00","2012","04","22","13:00","8.6","","-1.2","","50","","6","","24","","24.1","","99.36","","","","","","Mostly Cloudy"
"2012-04-22 14:00","2012","04","22","14:00","9.3","","1.2","","57","","16","","15","","24.1","","99.30","","","","","","Mostly Cloudy"
"2012-04-22 15:00","2012","04","22","15:00","8.3","","0.7","","59","","15","","19","","24.1","","99.26","","","","","","Mostly Cloudy"
"2012-04-22 16:00","2012","04","22","16:00","7.6","","0.5","","61","","15","","15","","24.1","","99.23","","","","","","Mostly Cloudy"
"2012-04-22 17:00","2012","04","22","17:00","7.5","","1.2","","64","","17","","9","","24.1","","99.23","","","","","","Mostly Cloudy"
"2012-04-22 18:00","2012","04","22","18:00","6.7","","0.1","","63","","15","","6","","24.1","","99.21","","","","","","Mostly Cloudy"
"2012-04-22 19:00","2012","04","22","19:00","6.3","","0.4","","66","","16","","4","","24.1","","99.22","","","","","","Mostly Cloudy"
"2012-04-22 20:00","2012","04","22","20:00","5.9","","0.1","","66","","","","0","","24.1","","99.25","","","","","","Mostly Cloudy"
"2012-04-22 21:00","2012","04","22","21:00","5.8","","0.2","","67","","31","","4","","24.1","","99.18","","","","","","Mostly Cloudy"
"2012-04-22 22:00","2012","04","22","22:00","6.8","","0.3","","63","","34","","11","","24.1","","99.09","","","","","","Mostly Cloudy"
"2012-04-22 23:00","2012","04","22","23:00","7.9","","-5.0","","40","","2","","30","","24.1","","98.98","","","","","","Mostly Cloudy"
"2012-04-23 00:00","2012","04","23","00:00","7.8","","-5.1","","40","","3","","30","","24.1","","98.89","","","","","","Mostly Cloudy"
"2012-04-23 01:00","2012","04","23","01:00","7.0","","-4.6","","43","","2","","28","","24.1","","98.72","","","","","","Mostly Cloudy"
"2012-04-23 02:00","2012","04","23","02:00","6.7","","-4.2","","46","","1","","28","","24.1","","98.57","","","","","","Cloudy"
"2012-04-23 03:00","2012","04","23","03:00","6.6","","-4.0","","47","","1","","30","","24.1","","98.45","","","","","","Cloudy"
"2012-04-23 04:00","2012","04","23","04:00","6.0","","-4.5","","47","","36","","22","","24.1","","98.38","","","","","","Cloudy"
"2012-04-23 05:00","2012","04","23","05:00","6.0","","-5.0","","45","","36","","32","","24.1","","98.24","","","","","","Mostly Cloudy"
"2012-04-23 06:00","2012","04","23","06:00","5.5","","-5.2","","46","","36","","32","","24.1","","98.15","","","","","","Cloudy"
"2012-04-23 07:00","2012","04","23","07:00","5.7","","-5.3","","45","","36","","33","","24.1","","98.09","","","","","","Cloudy"
"2012-04-23 08:00","2012","04","23","08:00","6.0","","-5.2","","44","","36","","37","","24.1","","97.97","","","","","","Cloudy"
"2012-04-23 09:00","2012","04","23","09:00","6.7","","-4.9","","43","","35","","35","","24.1","","97.87","","","","","","Cloudy"
"2012-04-23 10:00","2012","04","23","10:00","5.6","","-2.9","","54","","36","","46","","24.1","","97.80","","","","","","Cloudy"
"2012-04-23 11:00","2012","04","23","11:00","4.1","","1.0","","80","","36","","30","","19.3","","97.77","","","","","","Rain"
"2012-04-23 12:00","2012","04","23","12:00","3.6","","1.4","","86","","35","","30","","19.3","","97.71","","","","","","Rain"
"2012-04-23 13:00","2012","04","23","13:00","2.4","","1.4","","93","","34","","32","","12.9","","97.69","","","","","","Rain,Snow"
"2012-04-23 14:00","2012","04","23","14:00","3.0","","1.9","","92","","34","","33","","8.0","","97.67","","","","","","Rain,Fog"
"2012-04-23 15:00","2012","04","23","15:00","2.8","","1.4","","90","","34","","30","","8.0","","97.62","","","","","","Rain,Fog"
"2012-04-23 16:00","2012","04","23","16:00","2.6","","1.2","","90","","33","","32","","8.0","","97.56","","","","","","Rain,Fog"
"2012-04-23 17:00","2012","04","23","17:00","2.9","","1.3","","89","","33","","37","","16.1","","97.55","","","","","","Rain"
"2012-04-23 18:00","2012","04","23","18:00","2.6","","0.9","","89","","34","","35","","9.7","","97.53","","","","","","Rain,Snow"
"2012-04-23 19:00","2012","04","23","19:00","2.0","","0.7","","91","","33","","41","","9.7","","97.51","","","","","","Rain,Snow"
"2012-04-23 20:00","2012","04","23","20:00","2.0","","0.7","","91","","33","","33","","9.7","","97.46","","","","","","Rain,Snow,Ice Pellets"
"2012-04-23 21:00","2012","04","23","21:00","2.4","","0.8","","89","","33","","33","","12.9","","97.40","","","","","","Rain,Ice Pellets"
"2012-04-23 22:00","2012","04","23","22:00","2.1","","0.7","","90","","33","","37","","12.9","","97.29","","","","","","Rain,Ice Pellets"
"2012-04-23 23:00","2012","04","23","23:00","2.3","","0.5","","88","","33","","39","","16.1","","97.23","","","","","","Rain,Ice Pellets"
"2012-04-24 00:00","2012","04","24","00:00","2.2","","0.5","","89","","33","","35","","12.9","","97.18","","","","","","Rain,Snow"
"2012-04-24 01:00","2012","04","24","01:00","1.7","","0.4","","91","","31","","33","","12.9","","97.15","","","","","","Rain,Snow"
"2012-04-24 02:00","2012","04","24","02:00","1.7","","0.4","","91","","30","","30","","16.1","","97.06","","","","","","Rain,Snow"
"2012-04-24 03:00","2012","04","24","03:00","1.6","","0.6","","93","","29","","24","","16.1","","97.03","","","","","","Rain,Snow"
"2012-04-24 04:00","2012","04","24","04:00","2.0","","0.1","","87","","29","","20","","16.1","","97.04","","","","","","Rain,Snow"
"2012-04-24 05:00","2012","04","24","05:00","1.6","","0.1","","90","","31","","20","","19.3","","97.03","","","","","","Rain,Snow"
"2012-04-24 06:00","2012","04","24","06:00","1.7","","0.4","","91","","29","","15","","16.1","","97.03","","","","","","Rain,Snow"
"2012-04-24 07:00","2012","04","24","07:00","2.6","","0.7","","87","","29","","20","","24.1","","97.05","","","","","","Mostly Cloudy"
"2012-04-24 08:00","2012","04","24","08:00","3.8","","1.0","","82","","28","","28","","24.1","","97.08","","","","","","Mostly Cloudy"
"2012-04-24 09:00","2012","04","24","09:00","5.3","","0.6","","72","","28","","41","","24.1","","97.11","","","","","","Mostly Cloudy"
"2012-04-24 10:00","2012","04","24","10:00","6.3","","0.4","","66","","29","","35","","24.1","","97.17","","","","","","Mostly Cloudy"
"2012-04-24 11:00","2012","04","24","11:00","6.6","","-0.4","","61","","30","","35","","24.1","","97.22","","","","","","Mostly Cloudy"
"2012-04-24 12:00","2012","04","24","12:00","5.9","","0.1","","66","","27","","33","","24.1","","97.31","","","","","","Rain Showers"
"2012-04-24 13:00","2012","04","24","13:00","6.1","","0.2","","66","","30","","33","","24.1","","97.38","","","","","","Rain Showers"
"2012-04-24 14:00","2012","04","24","14:00","6.8","","0.3","","63","","30","","28","","24.1","","97.47","","","","","","Rain Showers"
"2012-04-24 15:00","2012","04","24","15:00","5.8","","1.7","","75","","29","","37","","24.1","","97.56","","","","","","Cloudy"
"2012-04-24 16:00","2012","04","24","16:00","6.5","","-0.4","","61","","31","","33","","24.1","","97.65","","","","","","Mostly Cloudy"
"2012-04-24 17:00","2012","04","24","17:00","5.2","","2.9","","85","","31","","30","","24.1","","97.79","","","","","","Rain Showers"
"2012-04-24 18:00","2012","04","24","18:00","4.8","","1.4","","79","","30","","30","","24.1","","97.88","","","","","","Rain Showers"
"2012-04-24 19:00","2012","04","24","19:00","4.7","","1.5","","80","","30","","20","","24.1","","97.94","","","","","","Rain Showers"
"2012-04-24 20:00","2012","04","24","20:00","3.9","","0.8","","80","","29","","11","","24.1","","98.00","","","","","","Mainly Clear"
"2012-04-24 21:00","2012","04","24","21:00","2.8","","0.3","","84","","36","","11","","24.1","","98.09","","","","","","Mainly Clear"
"2012-04-24 22:00","2012","04","24","22:00","3.6","","0.8","","82","","31","","13","","24.1","","98.20","","","","","","Mostly Cloudy"
"2012-04-24 23:00","2012","04","24","23:00","4.1","","0.2","","76","","30","","19","","24.1","","98.21","","","","","","Mostly Cloudy"
"2012-04-25 00:00","2012","04","25","00:00","3.9","","-0.1","","75","","29","","20","","24.1","","98.26","","","","","","Mostly Cloudy"
"2012-04-25 01:00","2012","04","25","01:00","2.7","","-1.1","","76","","28","","13","","24.1","","98.32","","","","","","Mainly Clear"
"2012-04-25 02:00","2012","04","25","02:00","1.9","","-1.8","","76","","28","","13","","24.1","","98.38","","","","","","Mainly Clear"
"2012-04-25 03:00","2012","04","25","03:00","2.5","","-2.2","","71","","27","","17","","24.1","","98.41","","","","","","Mainly Clear"
"2012-04-25 04:00","2012","04","25","04:00","2.5","","-2.3","","71","","27","","19","","24.1","","98.47","","","","","","Clear"
"2012-04-25 05:00","2012","04","25","05:00","2.2","","-2.5","","71","","29","","19","","24.1","","98.55","","","","","","Mainly Clear"
"2012-04-25 06:00","2012","04","25","06:00","2.0","","-2.2","","74","","28","","11","","24.1","","98.64","","","","","","Mainly Clear"
"2012-04-25 07:00","2012","04","25","07:00","3.7","","-1.3","","70","","29","","11","","24.1","","98.73","","","","","","Mainly Clear"
"2012-04-25 08:00","2012","04","25","08:00","5.8","","-1.3","","60","","29","","17","","24.1","","98.78","","","","","","Mainly Clear"
"2012-04-25 09:00","2012","04","25","09:00","8.6","","-0.6","","52","","28","","24","","24.1","","98.80","","","","","","Mainly Clear"
"2012-04-25 10:00","2012","04","25","10:00","9.7","","-2.2","","43","","31","","30","","24.1","","98.84","","","","","","Mainly Clear"
"2012-04-25 11:00","2012","04","25","11:00","10.3","","-1.7","","43","","32","","20","","24.1","","98.91","","","","","","Mainly Clear"
"2012-04-25 12:00","2012","04","25","12:00","11.5","","-1.3","","41","","31","","19","","24.1","","98.90","","","","","","Mainly Clear"
"2012-04-25 13:00","2012","04","25","13:00","12.4","","-2.1","","36","","33","","22","","24.1","","98.93","","","","","","Mainly Clear"
"2012-04-25 14:00","2012","04","25","14:00","12.8","","-1.7","","37","","30","","13","","24.1","","98.95","","","","","","Mainly Clear"
"2012-04-25 15:00","2012","04","25","15:00","13.2","","-0.4","","39","","29","","17","","24.1","","98.95","","","","","","Mostly Cloudy"
"2012-04-25 16:00","2012","04","25","16:00","13.8","","-0.1","","38","","29","","15","","24.1","","98.89","","","","","","Mostly Cloudy"
"2012-04-25 17:00","2012","04","25","17:00","12.3","","-2.4","","36","","14","","15","","24.1","","98.92","","","","","","Mostly Cloudy"
"2012-04-25 18:00","2012","04","25","18:00","11.1","","-2.6","","38","","15","","15","","24.1","","98.94","","","","","","Mostly Cloudy"
"2012-04-25 19:00","2012","04","25","19:00","10.1","","-3.1","","39","","14","","7","","24.1","","98.98","","","","","","Mostly Cloudy"
"2012-04-25 20:00","2012","04","25","20:00","8.6","","-0.3","","54","","12","","7","","24.1","","98.99","","","","","","Mainly Clear"
"2012-04-25 21:00","2012","04","25","21:00","8.1","","-0.5","","55","","14","","9","","24.1","","98.98","","","","","","Mainly Clear"
"2012-04-25 22:00","2012","04","25","22:00","7.2","","-0.2","","59","","14","","9","","24.1","","98.93","","","","","","Mainly Clear"
"2012-04-25 23:00","2012","04","25","23:00","6.4","","0.1","","64","","14","","9","","24.1","","98.89","","","","","","Clear"
"2012-04-26 00:00","2012","04","26","00:00","5.8","","0.4","","68","","8","","6","","24.1","","98.85","","","","","","Mainly Clear"
"2012-04-26 01:00","2012","04","26","01:00","5.3","","0.3","","70","","16","","4","","24.1","","98.84","","","","","","Clear"
"2012-04-26 02:00","2012","04","26","02:00","5.5","","-0.3","","66","","12","","6","","24.1","","98.78","","","","","","Mostly Cloudy"
"2012-04-26 03:00","2012","04","26","03:00","5.9","","-0.6","","63","","11","","6","","24.1","","98.70","","","","","","Mostly Cloudy"
"2012-04-26 04:00","2012","04","26","04:00","6.4","","-0.6","","61","","8","","4","","24.1","","98.65","","","","","","Mostly Cloudy"
"2012-04-26 05:00","2012","04","26","05:00","6.7","","-0.2","","61","","7","","4","","24.1","","98.60","","","","","","Cloudy"
"2012-04-26 06:00","2012","04","26","06:00","6.9","","0.3","","63","","8","","7","","24.1","","98.56","","","","","","Cloudy"
"2012-04-26 07:00","2012","04","26","07:00","7.4","","0.9","","63","","13","","6","","24.1","","98.52","","","","","","Cloudy"
"2012-04-26 08:00","2012","04","26","08:00","8.2","","1.1","","61","","14","","9","","24.1","","98.44","","","","","","Cloudy"
"2012-04-26 09:00","2012","04","26","09:00","8.3","","0.2","","57","","8","","6","","24.1","","98.39","","","","","","Cloudy"
"2012-04-26 10:00","2012","04","26","10:00","8.7","","1.3","","60","","18","","4","","24.1","","98.31","","","","","","Cloudy"
"2012-04-26 11:00","2012","04","26","11:00","8.8","","1.3","","59","","32","","4","","24.1","","98.24","","","","","","Rain Showers"
"2012-04-26 12:00","2012","04","26","12:00","9.3","","2.5","","62","","29","","7","","24.1","","98.22","","","","","","Cloudy"
"2012-04-26 13:00","2012","04","26","13:00","10.0","","3.6","","64","","31","","6","","24.1","","98.20","","","","","","Cloudy"
"2012-04-26 14:00","2012","04","26","14:00","10.7","","5.6","","71","","28","","15","","24.1","","98.22","","","","","","Cloudy"
"2012-04-26 15:00","2012","04","26","15:00","9.3","","4.9","","74","","33","","35","","24.1","","98.29","","","","","","Cloudy"
"2012-04-26 16:00","2012","04","26","16:00","10.2","","3.4","","63","","32","","39","","24.1","","98.36","","","","","","Mostly Cloudy"
"2012-04-26 17:00","2012","04","26","17:00","8.6","","1.8","","62","","34","","35","","24.1","","98.46","","","","","","Mostly Cloudy"
"2012-04-26 18:00","2012","04","26","18:00","8.2","","1.4","","62","","34","","44","","24.1","","98.59","","","","","","Mainly Clear"
"2012-04-26 19:00","2012","04","26","19:00","7.3","","1.4","","66","","34","","28","","24.1","","98.71","","","","","","Mainly Clear"
"2012-04-26 20:00","2012","04","26","20:00","6.5","","0.8","","67","","33","","30","","24.1","","98.85","","","","","","Mostly Cloudy"
"2012-04-26 21:00","2012","04","26","21:00","5.0","","-1.2","","64","","34","","32","","24.1","","98.95","","","","","","Mostly Cloudy"
"2012-04-26 22:00","2012","04","26","22:00","3.8","","-2.1","","65","","34","","35","","24.1","","99.02","","","","","","Mainly Clear"
"2012-04-26 23:00","2012","04","26","23:00","3.6","","-3.1","","62","","35","","32","","24.1","","99.12","","","","","","Mostly Cloudy"
"2012-04-27 00:00","2012","04","27","00:00","2.7","","-4.6","","59","","33","","28","","24.1","","99.20","","","","","","Mainly Clear"
"2012-04-27 01:00","2012","04","27","01:00","1.7","","-3.5","","68","","32","","33","","24.1","","99.26","","","","","","Mainly Clear"
"2012-04-27 02:00","2012","04","27","02:00","1.5","","-4.2","","66","","33","","30","","24.1","","99.35","","","","","","Mostly Cloudy"
"2012-04-27 03:00","2012","04","27","03:00","1.3","","-5.9","","59","","32","","26","","24.1","","99.41","","","","","","Mostly Cloudy"
"2012-04-27 04:00","2012","04","27","04:00","1.1","","-4.9","","64","","33","","26","","24.1","","99.50","","","","","","Mostly Cloudy"
"2012-04-27 05:00","2012","04","27","05:00","0.9","","-5.1","","64","","32","","28","","24.1","","99.55","","","","","","Mostly Cloudy"
"2012-04-27 06:00","2012","04","27","06:00","1.0","","-5.1","","64","","34","","24","","24.1","","99.64","","","","","","Mostly Cloudy"
"2012-04-27 07:00","2012","04","27","07:00","0.7","","-4.3","","69","","35","","19","","24.1","","99.68","","","","","","Snow Showers"
"2012-04-27 08:00","2012","04","27","08:00","2.0","","-5.5","","58","","32","","22","","24.1","","99.74","","","","","","Mostly Cloudy"
"2012-04-27 09:00","2012","04","27","09:00","2.9","","-5.5","","54","","32","","26","","24.1","","99.80","","","","","","Mostly Cloudy"
"2012-04-27 10:00","2012","04","27","10:00","3.5","","-4.9","","54","","32","","30","","24.1","","99.84","","","","","","Mostly Cloudy"
"2012-04-27 11:00","2012","04","27","11:00","5.3","","-4.2","","50","","34","","22","","24.1","","99.84","","","","","","Mostly Cloudy"
"2012-04-27 12:00","2012","04","27","12:00","6.2","","-4.8","","45","","32","","32","","24.1","","99.86","","","","","","Mostly Cloudy"
"2012-04-27 13:00","2012","04","27","13:00","7.6","","-4.1","","43","","31","","22","","24.1","","99.87","","","","","","Mainly Clear"
"2012-04-27 14:00","2012","04","27","14:00","8.2","","-5.3","","38","","33","","32","","24.1","","99.90","","","","","","Mainly Clear"
"2012-04-27 15:00","2012","04","27","15:00","8.5","","-6.6","","34","","35","","22","","24.1","","99.89","","","","","","Mainly Clear"
"2012-04-27 16:00","2012","04","27","16:00","7.4","","-5.7","","39","","36","","22","","24.1","","99.92","","","","","","Mainly Clear"
"2012-04-27 17:00","2012","04","27","17:00","6.8","","-4.5","","44","","36","","28","","24.1","","99.96","","","","","","Mainly Clear"
"2012-04-27 18:00","2012","04","27","18:00","5.7","","-6.3","","42","","36","","28","","24.1","","100.02","","","","","","Mainly Clear"
"2012-04-27 19:00","2012","04","27","19:00","4.7","","-9.2","","36","","35","","26","","24.1","","100.10","","","","","","Clear"
"2012-04-27 20:00","2012","04","27","20:00","3.6","","-10.0","","36","","34","","24","","24.1","","100.22","","","","","","Clear"
"2012-04-27 21:00","2012","04","27","21:00","3.3","","-10.0","","37","","32","","15","","24.1","","100.27","","","","","","Clear"
"2012-04-27 22:00","2012","04","27","22:00","1.8","","-9.0","","45","","31","","15","","24.1","","100.30","","","","","","Clear"
"2012-04-27 23:00","2012","04","27","23:00","2.0","","-8.0","","47","","32","","13","","24.1","","100.30","","","","","","Mainly Clear"
"2012-04-28 00:00","2012","04","28","00:00","0.6","","-6.6","","58","","32","","15","","24.1","","100.36","","","","","","Mainly Clear"
"2012-04-28 01:00","2012","04","28","01:00","0.2","","-7.1","","58","","32","","15","","24.1","","100.35","","","","","","Mainly Clear"
"2012-04-28 02:00","2012","04","28","02:00","-0.6","","-7.3","","60","","31","","9","","24.1","","100.33","","","","-4","","Mainly Clear"
"2012-04-28 03:00","2012","04","28","03:00","-1.1","","-7.8","","60","","33","","7","","24.1","","100.31","","","","-4","","Mainly Clear"
"2012-04-28 04:00","2012","04","28","04:00","-0.6","","-7.7","","59","","31","","7","","24.1","","100.36","","","","-3","","Mainly Clear"
"2012-04-28 05:00","2012","04","28","05:00","-1.2","","-7.2","","64","","","","0","","24.1","","100.42","","","","","","Mainly Clear"
"2012-04-28 06:00","2012","04","28","06:00","-0.2","","-5.3","","68","","31","","6","","24.1","","100.50","","","","-2","","Mostly Cloudy"
"2012-04-28 07:00","2012","04","28","07:00","1.5","","-4.3","","65","","32","","9","","24.1","","100.56","","","","","","Mostly Cloudy"
"2012-04-28 08:00","2012","04","28","08:00","3.3","","-5.4","","53","","35","","7","","24.1","","100.53","","","","","","Mostly Cloudy"
"2012-04-28 09:00","2012","04","28","09:00","4.7","","-6.5","","44","","32","","11","","24.1","","100.47","","","","","","Mostly Cloudy"
"2012-04-28 10:00","2012","04","28","10:00","5.0","","-8.6","","37","","5","","4","","24.1","","100.47","","","","","","Mostly Cloudy"
"2012-04-28 11:00","2012","04","28","11:00","6.2","","-7.3","","37","","28","","7","","24.1","","100.46","","","","","","Mostly Cloudy"
"2012-04-28 12:00","2012","04","28","12:00","7.4","","-7.6","","34","","25","","4","","24.1","","100.37","","","","","","Mostly Cloudy"
"2012-04-28 13:00","2012","04","28","13:00","8.3","","-8.9","","29","","","","0","","24.1","","100.28","","","","","","Mostly Cloudy"
"2012-04-28 14:00","2012","04","28","14:00","9.4","","-7.5","","30","","30","","4","","24.1","","100.26","","","","","","Mostly Cloudy"
"2012-04-28 15:00","2012","04","28","15:00","8.6","","-4.3","","40","","14","","13","","24.1","","100.22","","","","","","Mostly Cloudy"
"2012-04-28 16:00","2012","04","28","16:00","8.9","","-4.4","","39","","16","","13","","24.1","","100.14","","","","","","Mostly Cloudy"
"2012-04-28 17:00","2012","04","28","17:00","9.2","","-4.1","","39","","17","","13","","24.1","","100.13","","","","","","Mostly Cloudy"
"2012-04-28 18:00","2012","04","28","18:00","8.6","","-4.9","","38","","19","","4","","24.1","","100.13","","","","","","Mostly Cloudy"
"2012-04-28 19:00","2012","04","28","19:00","7.4","","-10.0","","28","","36","","13","","24.1","","100.14","","","","","","Mostly Cloudy"
"2012-04-28 20:00","2012","04","28","20:00","5.4","","-14.7","","22","","36","","24","","24.1","","100.20","","","","","","Mainly Clear"
"2012-04-28 21:00","2012","04","28","21:00","3.5","","-13.8","","27","","1","","13","","24.1","","100.29","","","","","","Mainly Clear"
"2012-04-28 22:00","2012","04","28","22:00","3.0","","-13.5","","29","","35","","13","","24.1","","100.28","","","","","","Clear"
"2012-04-28 23:00","2012","04","28","23:00","1.6","","-9.5","","43","","36","","19","","24.1","","100.27","","","","","","Clear"
"2012-04-29 00:00","2012","04","29","00:00","1.1","","-8.9","","47","","35","","13","","24.1","","100.29","","","","","","Clear"
"2012-04-29 01:00","2012","04","29","01:00","0.5","","-7.6","","55","","34","","13","","24.1","","100.26","","","","","","Clear"
"2012-04-29 02:00","2012","04","29","02:00","-0.4","","-7.5","","59","","33","","9","","24.1","","100.25","","","","-4","","Clear"
"2012-04-29 03:00","2012","04","29","03:00","0.2","","-8.5","","52","","35","","7","","24.1","","100.26","","","","","","Clear"
"2012-04-29 04:00","2012","04","29","04:00","-0.4","","-8.5","","54","","27","","4","","24.1","","100.25","","","","-2","","Clear"
"2012-04-29 05:00","2012","04","29","05:00","-0.6","","-8.4","","56","","30","","4","","24.1","","100.29","","","","-2","","Clear"
"2012-04-29 06:00","2012","04","29","06:00","-0.4","","-7.1","","61","","30","","7","","24.1","","100.36","","","","-3","","Clear"
"2012-04-29 07:00","2012","04","29","07:00","4.4","","-8.1","","40","","34","","15","","24.1","","100.45","","","","","","Clear"
"2012-04-29 08:00","2012","04","29","08:00","6.8","","-7.8","","34","","35","","13","","24.1","","100.49","","","","","","Clear"
"2012-04-29 09:00","2012","04","29","09:00","8.3","","-6.1","","35","","36","","24","","24.1","","100.54","","","","","","Clear"
"2012-04-29 10:00","2012","04","29","10:00","9.8","","-5.9","","33","","33","","15","","24.1","","100.52","","","","","","Clear"
"2012-04-29 11:00","2012","04","29","11:00","11.7","","-7.3","","26","","30","","19","","24.1","","100.50","","","","","","Mainly Clear"
"2012-04-29 12:00","2012","04","29","12:00","12.3","","-7.1","","25","","36","","28","","24.1","","100.41","","","","","","Mainly Clear"
"2012-04-29 13:00","2012","04","29","13:00","13.9","","-6.4","","24","","35","","24","","24.1","","100.41","","","","","","Mainly Clear"
"2012-04-29 14:00","2012","04","29","14:00","13.7","","-8.5","","21","","35","","24","","24.1","","100.40","","","","","","Mainly Clear"
"2012-04-29 15:00","2012","04","29","15:00","13.9","","-9.9","","18","","34","","26","","24.1","","100.36","","","","","","Mainly Clear"
"2012-04-29 16:00","2012","04","29","16:00","13.0","","-10.9","","18","","36","","22","","24.1","","100.32","","","","","","Mainly Clear"
"2012-04-29 17:00","2012","04","29","17:00","12.1","","-10.6","","19","","35","","24","","24.1","","100.37","","","","","","Mainly Clear"
"2012-04-29 18:00","2012","04","29","18:00","10.8","","-11.0","","20","","1","","20","","24.1","","100.39","","","","","","Mostly Cloudy"
"2012-04-29 19:00","2012","04","29","19:00","9.6","","-9.3","","25","","36","","17","","24.1","","100.42","","","","","","Mostly Cloudy"
"2012-04-29 20:00","2012","04","29","20:00","8.5","","-10.1","","26","","36","","19","","24.1","","100.46","","","","","","Mostly Cloudy"
"2012-04-29 21:00","2012","04","29","21:00","6.8","","-9.1","","31","","2","","19","","24.1","","100.45","","","","","","Mostly Cloudy"
"2012-04-29 22:00","2012","04","29","22:00","6.1","","-9.7","","31","","2","","13","","24.1","","100.49","","","","","","Mainly Clear"
"2012-04-29 23:00","2012","04","29","23:00","3.9","","-8.5","","40","","36","","7","","24.1","","100.46","","","","","","Mostly Cloudy"
"2012-04-30 00:00","2012","04","30","00:00","4.0","","-8.0","","41","","32","","11","","24.1","","100.50","","","","","","Mostly Cloudy"
"2012-04-30 01:00","2012","04","30","01:00","2.4","","-7.4","","48","","35","","4","","24.1","","100.45","","","","","","Mostly Cloudy"
"2012-04-30 02:00","2012","04","30","02:00","3.1","","-8.1","","44","","1","","6","","24.1","","100.45","","","","","","Mainly Clear"
"2012-04-30 03:00","2012","04","30","03:00","2.3","","-8.1","","46","","","","0","","24.1","","100.43","","","","","","Mainly Clear"
"2012-04-30 04:00","2012","04","30","04:00","1.1","","-7.8","","51","","","","0","","24.1","","100.42","","","","","","Mainly Clear"
"2012-04-30 05:00","2012","04","30","05:00","2.9","","-7.3","","47","","8","","7","","24.1","","100.31","","","","","","Mainly Clear"
"2012-04-30 06:00","2012","04","30","06:00","4.7","","-5.7","","47","","9","","4","","24.1","","100.37","","","","","","Mostly Cloudy"
"2012-04-30 07:00","2012","04","30","07:00","6.1","","-1.4","","59","","13","","6","","24.1","","100.31","","","","","","Mostly Cloudy"
"2012-04-30 08:00","2012","04","30","08:00","7.1","","-1.1","","56","","11","","13","","24.1","","100.21","","","","","","Cloudy"
"2012-04-30 09:00","2012","04","30","09:00","8.3","","-1.2","","51","","11","","11","","24.1","","100.20","","","","","","Cloudy"
"2012-04-30 10:00","2012","04","30","10:00","9.0","","-4.9","","37","","10","","7","","24.1","","100.20","","","","","","Cloudy"
"2012-04-30 11:00","2012","04","30","11:00","9.4","","-5.0","","36","","8","","7","","24.1","","100.15","","","","","","Cloudy"
"2012-04-30 12:00","2012","04","30","12:00","9.3","","-2.4","","44","","10","","19","","24.1","","100.05","","","","","","Rain Showers"
"2012-04-30 13:00","2012","04","30","13:00","9.0","","-1.0","","49","","11","","20","","24.1","","99.88","","","","","","Cloudy"
"2012-04-30 14:00","2012","04","30","14:00","7.9","","-0.5","","55","","10","","17","","24.1","","99.84","","","","","","Rain Showers"
"2012-04-30 15:00","2012","04","30","15:00","5.9","","2.3","","78","","9","","17","","11.3","","99.80","","","","","","Rain Showers"
"2012-04-30 16:00","2012","04","30","16:00","5.5","","2.7","","82","","10","","15","","12.9","","99.71","","","","","","Rain Showers"
"2012-04-30 17:00","2012","04","30","17:00","5.7","","2.2","","78","","9","","17","","24.1","","99.56","","","","","","Rain"
"2012-04-30 18:00","2012","04","30","18:00","5.2","","2.9","","85","","9","","13","","9.7","","99.57","","","","","","Rain,Fog"
"2012-04-30 19:00","2012","04","30","19:00","4.8","","3.3","","90","","9","","11","","9.7","","99.45","","","","","","Rain,Fog"
"2012-04-30 20:00","2012","04","30","20:00","5.5","","3.8","","89","","8","","7","","9.7","","99.43","","","","","","Rain,Fog"
"2012-04-30 21:00","2012","04","30","21:00","5.7","","4.3","","91","","7","","11","","19.3","","99.43","","","","","","Rain"
"2012-04-30 22:00","2012","04","30","22:00","5.7","","4.5","","92","","7","","7","","19.3","","99.32","","","","","","Rain"
"2012-04-30 23:00","2012","04","30","23:00","5.8","","4.6","","92","","9","","7","","16.1","","99.25","","","","","","Rain"
