"Station Name","TORONTO LESTER B. PEARSON INT'L A"
"Province","ONTARIO"
"Latitude","43.68"
"Longitude","-79.63"
"Elevation","173.40"
"Climate Identifier","6158733"
"WMO Identifier","71624"
"TC Identifier","YYZ"
"All times are specified in Local Standard Time (LST). Add 1 hour to adjust for Daylight Saving Time where and when it is observed."

"Legend"
"E","Estimated"
"M","Missing"
"NA","Not Available"

"Date/Time","Year","Month","Day","Time","Temp (°C)","Temp Flag","Dew Point Temp (°C)","Dew Point Temp Flag","Rel Hum (%)","Rel Hum Flag","Wind Dir (10s deg)","Wind Dir Flag","Wind Spd (km/h)","Wind Spd Flag","Visibility (km)","Visibility Flag","Stn Press (kPa)","Stn Press Flag","Hmdx","Hmdx Flag","Wind Chill","Wind Chill Flag","Weather"
"2001-12-01 00:00","2001","12","01","00:00","7.8","","4.9","","82","","23","","24","","24.1","","98.88","","","","","","Cloudy"
"2001-12-01 01:00","2001","12","01","01:00","7.9","","4.9","","81","","23","","19","","24.1","","98.91","","","","","","Cloudy"
"2001-12-01 02:00","2001","12","01","02:00","7.8","","4.4","","79","","24","","19","","24.1","","98.94","","","","","","Cloudy"
"2001-12-01 03:00","2001","12","01","03:00","7.6","","4.4","","80","","23","","30","","24.1","","98.95","","","","","","Cloudy"
"2001-12-01 04:00","2001","12","01","04:00","7.3","","4.1","","80","","23","","24","","24.1","","99.00","","","","","","Cloudy"
"2001-12-01 05:00","2001","12","01","05:00","6.8","","4.6","","86","","23","","19","","6.4","","99.06","","","","","","Drizzle"
"2001-12-01 06:00","2001","12","01","06:00","6.8","","4.5","","85","","24","","17","","12.9","","99.11","","","","","","Drizzle"
"2001-12-01 07:00","2001","12","01","07:00","7.0","","3.9","","81","","25","","33","","16.1","","99.19","","","","","","Drizzle"
"2001-12-01 08:00","2001","12","01","08:00","6.8","","3.2","","78","","24","","30","","16.1","","99.29","","","","","","Cloudy"
"2001-12-01 09:00","2001","12","01","09:00","6.8","","2.6","","75","","24","","20","","19.3","","99.38","","","","","","Cloudy"
"2001-12-01 10:00","2001","12","01","10:00","7.2","","2.7","","73","","24","","28","","16.1","","99.45","","","","","","Cloudy"
"2001-12-01 11:00","2001","12","01","11:00","7.5","","2.7","","72","","25","","26","","16.1","","99.53","","","","","","Cloudy"
"2001-12-01 12:00","2001","12","01","12:00","7.7","","2.5","","70","","25","","22","","16.1","","99.54","","","","","","Cloudy"
"2001-12-01 13:00","2001","12","01","13:00","7.9","","2.4","","68","","25","","22","","24.1","","99.55","","","","","","Cloudy"
"2001-12-01 14:00","2001","12","01","14:00","8.1","","2.5","","68","","25","","32","","19.3","","99.59","","","","","","Cloudy"
"2001-12-01 15:00","2001","12","01","15:00","7.6","","2.2","","69","","24","","22","","19.3","","99.66","","","","","","Cloudy"
"2001-12-01 16:00","2001","12","01","16:00","7.6","","2.1","","68","","25","","19","","16.1","","99.74","","","","","","Cloudy"
"2001-12-01 17:00","2001","12","01","17:00","7.6","","2.0","","68","","24","","24","","16.1","","99.81","","","","","","Cloudy"
"2001-12-01 18:00","2001","12","01","18:00","7.4","","1.8","","68","","23","","24","","16.1","","99.86","","","","","","Cloudy"
"2001-12-01 19:00","2001","12","01","19:00","7.2","","1.9","","69","","24","","17","","24.1","","99.91","","","","","","Cloudy"
"2001-12-01 20:00","2001","12","01","20:00","7.0","","1.9","","70","","24","","17","","24.1","","99.96","","","","","","Cloudy"
"2001-12-01 21:00","2001","12","01","21:00","6.8","","1.9","","71","","25","","15","","24.1","","100.00","","","","","","Cloudy"
"2001-12-01 22:00","2001","12","01","22:00","6.7","","1.4","","69","","26","","20","","19.3","","100.01","","","","","","Mostly Cloudy"
"2001-12-01 23:00","2001","12","01","23:00","6.7","","1.3","","68","","25","","13","","19.3","","100.10","","","","","","Cloudy"
"2001-12-02 00:00","2001","12","02","00:00","6.5","","1.3","","69","","25","","15","","19.3","","100.11","","","","","","Cloudy"
"2001-12-02 01:00","2001","12","02","01:00","6.3","","0.2","","65","","27","","30","","19.3","","100.15","","","","","","Cloudy"
"2001-12-02 02:00","2001","12","02","02:00","5.8","","-0.3","","65","","27","","17","","19.3","","100.17","","","","","","Cloudy"
"2001-12-02 03:00","2001","12","02","03:00","5.8","","-0.6","","63","","28","","19","","19.3","","100.19","","","","","","Cloudy"
"2001-12-02 04:00","2001","12","02","04:00","5.5","","-0.6","","65","","27","","19","","19.3","","100.19","","","","","","Cloudy"
"2001-12-02 05:00","2001","12","02","05:00","5.2","","-0.8","","65","","27","","20","","19.3","","100.26","","","","","","Cloudy"
"2001-12-02 06:00","2001","12","02","06:00","5.1","","-0.9","","65","","28","","22","","16.1","","100.28","","","","","","Cloudy"
"2001-12-02 07:00","2001","12","02","07:00","5.0","","-1.1","","65","","27","","19","","19.3","","100.32","","","","","","Cloudy"
"2001-12-02 08:00","2001","12","02","08:00","4.6","","-1.2","","66","","27","","15","","19.3","","100.37","","","","","","Mostly Cloudy"
"2001-12-02 09:00","2001","12","02","09:00","5.7","","-0.6","","64","","24","","13","","24.1","","100.40","","","","","","Mainly Clear"
"2001-12-02 10:00","2001","12","02","10:00","6.6","","0.0","","63","","25","","19","","19.3","","100.44","","","","","","Mainly Clear"
"2001-12-02 11:00","2001","12","02","11:00","7.4","","1.0","","64","","28","","24","","16.1","","100.45","","","","","","Mainly Clear"
"2001-12-02 12:00","2001","12","02","12:00","7.5","","0.9","","63","","27","","20","","16.1","","100.40","","","","","","Clear"
"2001-12-02 13:00","2001","12","02","13:00","8.1","","0.6","","59","","27","","20","","16.1","","100.41","","","","","","Clear"
"2001-12-02 14:00","2001","12","02","14:00","7.9","","0.8","","61","","28","","17","","16.1","","100.40","","","","","","Mainly Clear"
"2001-12-02 15:00","2001","12","02","15:00","8.3","","0.4","","57","","26","","13","","16.1","","100.37","","","","","","Mainly Clear"
"2001-12-02 16:00","2001","12","02","16:00","7.4","","0.2","","60","","27","","13","","16.1","","100.41","","","","","","Mainly Clear"
"2001-12-02 17:00","2001","12","02","17:00","5.9","","-0.2","","65","","24","","9","","16.1","","100.41","","","","","","Clear"
"2001-12-02 18:00","2001","12","02","18:00","5.7","","-0.4","","65","","25","","7","","16.1","","100.45","","","","","","Clear"
"2001-12-02 19:00","2001","12","02","19:00","5.8","","-0.4","","64","","23","","6","","19.3","","100.42","","","","","","Mainly Clear"
"2001-12-02 20:00","2001","12","02","20:00","5.2","","-0.3","","68","","19","","7","","19.3","","100.39","","","","","","Clear"
"2001-12-02 21:00","2001","12","02","21:00","4.4","","0.2","","74","","18","","6","","16.1","","100.35","","","","","","Clear"
"2001-12-02 22:00","2001","12","02","22:00","4.1","","0.6","","78","","21","","7","","14.5","","100.33","","","","","","Clear"
"2001-12-02 23:00","2001","12","02","23:00","3.6","","0.5","","80","","18","","6","","9.7","","100.32","","","","","","Haze"
"2001-12-03 00:00","2001","12","03","00:00","3.0","","0.3","","82","","18","","9","","8.0","","100.24","","","","","","Haze"
"2001-12-03 01:00","2001","12","03","01:00","2.9","","0.8","","86","","17","","6","","6.4","","100.17","","","","","","Haze"
"2001-12-03 02:00","2001","12","03","02:00","3.0","","1.0","","87","","","","0","","6.4","","100.15","","","","","","Fog"
"2001-12-03 03:00","2001","12","03","03:00","3.0","","1.1","","87","","14","","9","","3.2","","100.07","","","","","","Fog"
"2001-12-03 04:00","2001","12","03","04:00","3.9","","2.0","","87","","14","","13","","0.4","","99.94","","","","","","Fog"
"2001-12-03 05:00","2001","12","03","05:00","3.9","","2.3","","89","","16","","13","","6.4","","99.86","","","","","","Fog"
"2001-12-03 06:00","2001","12","03","06:00","5.3","","2.2","","80","","18","","15","","12.9","","99.80","","","","","","Mostly Cloudy"
"2001-12-03 07:00","2001","12","03","07:00","5.8","","1.7","","75","","20","","13","","24.1","","99.76","","","","","","Mostly Cloudy"
"2001-12-03 08:00","2001","12","03","08:00","6.8","","1.4","","68","","21","","15","","24.1","","99.77","","","","","","Mostly Cloudy"
"2001-12-03 09:00","2001","12","03","09:00","7.4","","1.9","","68","","23","","17","","24.1","","99.79","","","","","","Mostly Cloudy"
"2001-12-03 10:00","2001","12","03","10:00","8.7","","3.1","","68","","23","","20","","19.3","","99.75","","","","","","Mainly Clear"
"2001-12-03 11:00","2001","12","03","11:00","10.4","","3.9","","64","","24","","19","","16.1","","99.79","","","","","","Clear"
"2001-12-03 12:00","2001","12","03","12:00","11.3","","4.2","","62","","27","","26","","16.1","","99.76","","","","","","Clear"
"2001-12-03 13:00","2001","12","03","13:00","11.8","","4.9","","63","","29","","30","","16.1","","99.74","","","","","","Clear"
"2001-12-03 14:00","2001","12","03","14:00","12.2","","5.3","","63","","25","","15","","19.3","","99.72","","","","","","Clear"
"2001-12-03 15:00","2001","12","03","15:00","12.4","","5.2","","61","","24","","20","","19.3","","99.74","","","","","","Clear"
"2001-12-03 16:00","2001","12","03","16:00","11.6","","4.9","","63","","24","","22","","19.3","","99.78","","","","","","Clear"
"2001-12-03 17:00","2001","12","03","17:00","10.1","","4.4","","68","","26","","20","","16.1","","99.84","","","","","","Clear"
"2001-12-03 18:00","2001","12","03","18:00","8.9","","4.2","","72","","27","","15","","14.5","","99.94","","","","","","Clear"
"2001-12-03 19:00","2001","12","03","19:00","8.3","","3.9","","74","","29","","13","","12.9","","100.04","","","","","","Clear"
"2001-12-03 20:00","2001","12","03","20:00","7.0","","3.3","","77","","28","","13","","12.9","","100.07","","","","","","Clear"
"2001-12-03 21:00","2001","12","03","21:00","6.9","","3.5","","79","","31","","4","","12.9","","100.12","","","","","","Clear"
"2001-12-03 22:00","2001","12","03","22:00","5.5","","2.8","","83","","29","","4","","12.9","","100.12","","","","","","Clear"
"2001-12-03 23:00","2001","12","03","23:00","5.8","","3.0","","82","","17","","4","","12.9","","100.15","","","","","","Clear"
"2001-12-04 00:00","2001","12","04","00:00","5.7","","3.0","","83","","20","","4","","11.3","","100.19","","","","","","Clear"
"2001-12-04 01:00","2001","12","04","01:00","5.4","","2.6","","82","","","","0","","11.3","","100.18","","","","","","Clear"
"2001-12-04 02:00","2001","12","04","02:00","5.1","","2.8","","85","","19","","4","","8.0","","100.23","","","","","","Haze"
"2001-12-04 03:00","2001","12","04","03:00","1.8","","0.4","","90","","","","0","","1.6","","100.30","","","","","","Fog"
"2001-12-04 04:00","2001","12","04","04:00","3.2","","1.7","","90","","","","0","","4.0","","100.29","","","","","","Fog"
"2001-12-04 05:00","2001","12","04","05:00","-0.3","","-2.2","","87","","29","","4","","3.2","","100.34","","","","-2","","Fog"
"2001-12-04 06:00","2001","12","04","06:00","-0.1","","-2.0","","87","","28","","7","","1.2","","100.29","","","","-3","","Fog"
"2001-12-04 07:00","2001","12","04","07:00","1.1","","-0.8","","87","","","","0","","0.2","","100.30","","","","","","Fog"
"2001-12-04 08:00","2001","12","04","08:00","1.7","","0.1","","89","","","","0","","2.0","","100.31","","","","","","Fog"
"2001-12-04 09:00","2001","12","04","09:00","4.4","","2.8","","89","","13","","7","","0.6","","100.29","","","","","","Fog"
"2001-12-04 10:00","2001","12","04","10:00","5.5","","3.9","","89","","10","","6","","0.4","","100.24","","","","","","Fog"
"2001-12-04 11:00","2001","12","04","11:00","6.5","","5.0","","90","","9","","7","","1.6","","100.16","","","","","","Fog"
"2001-12-04 12:00","2001","12","04","12:00","7.7","","5.7","","87","","15","","9","","3.2","","100.06","","","","","","Fog"
"2001-12-04 13:00","2001","12","04","13:00","7.7","","4.8","","82","","15","","6","","4.8","","99.99","","","","","","Haze"
"2001-12-04 14:00","2001","12","04","14:00","8.6","","4.7","","76","","15","","9","","6.4","","99.87","","","","","","Haze"
"2001-12-04 15:00","2001","12","04","15:00","8.9","","4.7","","75","","16","","11","","8.0","","99.82","","","","","","Haze"
"2001-12-04 16:00","2001","12","04","16:00","8.9","","4.6","","74","","16","","4","","6.4","","99.84","","","","","","Haze"
"2001-12-04 17:00","2001","12","04","17:00","8.6","","5.3","","80","","15","","9","","6.4","","99.85","","","","","","Haze"
"2001-12-04 18:00","2001","12","04","18:00","9.6","","6.2","","79","","20","","6","","11.3","","99.89","","","","","","Cloudy"
"2001-12-04 19:00","2001","12","04","19:00","10.3","","7.1","","81","","14","","4","","16.1","","99.91","","","","","","Cloudy"
"2001-12-04 20:00","2001","12","04","20:00","11.4","","8.2","","81","","24","","9","","19.3","","99.95","","","","","","Rain Showers"
"2001-12-04 21:00","2001","12","04","21:00","11.4","","8.0","","80","","25","","11","","16.1","","99.97","","","","","","Cloudy"
"2001-12-04 22:00","2001","12","04","22:00","11.8","","8.5","","80","","23","","13","","14.5","","99.98","","","","","","Cloudy"
"2001-12-04 23:00","2001","12","04","23:00","11.8","","8.6","","81","","24","","15","","16.1","","100.04","","","","","","Cloudy"
"2001-12-05 00:00","2001","12","05","00:00","11.7","","8.8","","82","","25","","11","","16.1","","100.06","","","","","","Cloudy"
"2001-12-05 01:00","2001","12","05","01:00","11.4","","8.9","","85","","28","","11","","16.1","","100.11","","","","","","Cloudy"
"2001-12-05 02:00","2001","12","05","02:00","10.9","","8.6","","86","","26","","9","","16.1","","100.12","","","","","","Mostly Cloudy"
"2001-12-05 03:00","2001","12","05","03:00","10.1","","7.9","","86","","","","0","","16.1","","100.13","","","","","","Mostly Cloudy"
"2001-12-05 04:00","2001","12","05","04:00","11.2","","8.5","","83","","20","","4","","14.5","","100.14","","","","","","Cloudy"
"2001-12-05 05:00","2001","12","05","05:00","11.1","","8.3","","83","","22","","7","","12.9","","100.17","","","","","","Cloudy"
"2001-12-05 06:00","2001","12","05","06:00","10.7","","8.1","","84","","25","","4","","11.3","","100.20","","","","","","Cloudy"
"2001-12-05 07:00","2001","12","05","07:00","11.1","","8.3","","83","","20","","6","","11.3","","100.21","","","","","","Mostly Cloudy"
"2001-12-05 08:00","2001","12","05","08:00","11.4","","8.4","","82","","19","","7","","4.8","","100.20","","","","","","Haze"
"2001-12-05 09:00","2001","12","05","09:00","12.4","","9.0","","80","","22","","6","","4.8","","100.19","","","","","","Haze"
"2001-12-05 10:00","2001","12","05","10:00","13.0","","9.6","","80","","22","","7","","4.0","","100.20","","","","","","Haze"
"2001-12-05 11:00","2001","12","05","11:00","11.5","","9.0","","85","","16","","4","","3.2","","100.15","","","","","","Rain Showers,Haze"
"2001-12-05 12:00","2001","12","05","12:00","11.7","","9.8","","88","","13","","7","","2.8","","100.03","","","","","","Fog"
"2001-12-05 13:00","2001","12","05","13:00","13.3","","9.9","","80","","18","","9","","4.8","","99.88","","","","","","Haze"
"2001-12-05 14:00","2001","12","05","14:00","14.9","","9.8","","72","","15","","15","","8.0","","99.75","","","","","","Haze"
"2001-12-05 15:00","2001","12","05","15:00","15.4","","9.5","","68","","16","","7","","8.0","","99.71","","","","","","Haze"
"2001-12-05 16:00","2001","12","05","16:00","16.7","","9.4","","62","","19","","15","","16.1","","99.64","","","","","","Mainly Clear"
"2001-12-05 17:00","2001","12","05","17:00","16.2","","7.9","","58","","22","","17","","16.1","","99.62","","","","","","Mainly Clear"
"2001-12-05 18:00","2001","12","05","18:00","16.0","","6.5","","53","","22","","19","","19.3","","99.60","","","","","","Mainly Clear"
"2001-12-05 19:00","2001","12","05","19:00","15.7","","5.7","","51","","18","","11","","24.1","","99.51","","","","","","Mostly Cloudy"
"2001-12-05 20:00","2001","12","05","20:00","13.9","","5.4","","56","","17","","9","","24.1","","99.41","","","","","","Mostly Cloudy"
"2001-12-05 21:00","2001","12","05","21:00","16.0","","4.2","","45","","22","","20","","24.1","","99.35","","","","","","Cloudy"
"2001-12-05 22:00","2001","12","05","22:00","16.8","","3.8","","42","","23","","28","","24.1","","99.25","","","","","","Mostly Cloudy"
"2001-12-05 23:00","2001","12","05","23:00","17.5","","3.3","","39","","22","","26","","24.1","","99.15","","","","","","Cloudy"
"2001-12-06 00:00","2001","12","06","00:00","18.0","","3.0","","37","","22","","39","","24.1","","99.05","","","","","","Cloudy"
"2001-12-06 01:00","2001","12","06","01:00","17.8","","3.0","","37","","24","","37","","24.1","","99.05","","","","","","Mostly Cloudy"
"2001-12-06 02:00","2001","12","06","02:00","17.7","","3.4","","38","","23","","48","","24.1","","98.98","","","","","","Cloudy"
"2001-12-06 03:00","2001","12","06","03:00","16.7","","4.2","","43","","24","","41","","24.1","","98.96","","","","","","Mostly Cloudy"
"2001-12-06 04:00","2001","12","06","04:00","15.9","","5.1","","49","","24","","35","","24.1","","99.01","","","","","","Mostly Cloudy"
"2001-12-06 05:00","2001","12","06","05:00","13.5","","7.6","","67","","27","","50","","14.5","","99.05","","","","","","Rain"
"2001-12-06 06:00","2001","12","06","06:00","11.7","","7.6","","76","","25","","28","","19.3","","99.13","","","","","","Cloudy"
"2001-12-06 07:00","2001","12","06","07:00","12.5","","6.8","","68","","26","","41","","19.3","","99.24","","","","","","Cloudy"
"2001-12-06 08:00","2001","12","06","08:00","10.6","","-3.4","","37","","27","","44","","24.1","","99.36","","","","","","Cloudy"
"2001-12-06 09:00","2001","12","06","09:00","10.0","","-3.7","","38","","26","","33","","24.1","","99.47","","","","","","Cloudy"
"2001-12-06 10:00","2001","12","06","10:00","9.6","","-4.2","","37","","27","","39","","24.1","","99.51","","","","","","Cloudy"
"2001-12-06 11:00","2001","12","06","11:00","9.3","","-3.6","","40","","26","","39","","24.1","","99.52","","","","","","Cloudy"
"2001-12-06 12:00","2001","12","06","12:00","8.7","","-4.4","","39","","27","","37","","24.1","","99.48","","","","","","Cloudy"
"2001-12-06 13:00","2001","12","06","13:00","8.8","","-3.6","","41","","27","","32","","24.1","","99.46","","","","","","Mostly Cloudy"
"2001-12-06 14:00","2001","12","06","14:00","8.7","","-3.2","","43","","26","","32","","24.1","","99.46","","","","","","Mostly Cloudy"
"2001-12-06 15:00","2001","12","06","15:00","8.1","","-3.7","","43","","27","","39","","24.1","","99.40","","","","","","Mostly Cloudy"
"2001-12-06 16:00","2001","12","06","16:00","8.3","","-3.3","","44","","26","","28","","24.1","","99.38","","","","","","Mainly Clear"
"2001-12-06 17:00","2001","12","06","17:00","6.4","","-3.8","","48","","27","","9","","24.1","","99.47","","","","","","Clear"
"2001-12-06 18:00","2001","12","06","18:00","6.9","","-4.7","","43","","21","","7","","24.1","","99.53","","","","","","Clear"
"2001-12-06 19:00","2001","12","06","19:00","4.7","","-4.1","","53","","26","","13","","24.1","","99.51","","","","","","Clear"
"2001-12-06 20:00","2001","12","06","20:00","5.8","","-4.3","","48","","22","","6","","24.1","","99.51","","","","","","Clear"
"2001-12-06 21:00","2001","12","06","21:00","3.9","","-4.5","","54","","22","","11","","24.1","","99.40","","","","","","Clear"
"2001-12-06 22:00","2001","12","06","22:00","3.4","","-4.3","","57","","25","","11","","24.1","","99.32","","","","","","Clear"
"2001-12-06 23:00","2001","12","06","23:00","2.2","","-4.2","","63","","26","","9","","24.1","","99.30","","","","","","Clear"
"2001-12-07 00:00","2001","12","07","00:00","1.1","","-4.6","","66","","26","","9","","24.1","","99.27","","","","","","Clear"
"2001-12-07 01:00","2001","12","07","01:00","-0.1","","-5.0","","70","","27","","11","","24.1","","99.25","","","","-4","","Clear"
"2001-12-07 02:00","2001","12","07","02:00","0.6","","-4.5","","69","","28","","15","","24.1","","99.24","","","","","","Clear"
"2001-12-07 03:00","2001","12","07","03:00","0.7","","-4.1","","70","","29","","9","","24.1","","99.29","","","","","","Mainly Clear"
"2001-12-07 04:00","2001","12","07","04:00","0.5","","-3.6","","74","","28","","11","","24.1","","99.29","","","","","","Mainly Clear"
"2001-12-07 05:00","2001","12","07","05:00","0.6","","-3.2","","76","","29","","9","","24.1","","99.32","","","","","","Clear"
"2001-12-07 06:00","2001","12","07","06:00","0.8","","-2.7","","77","","29","","9","","24.1","","99.35","","","","","","Mainly Clear"
"2001-12-07 07:00","2001","12","07","07:00","-0.1","","-3.3","","79","","29","","11","","24.1","","99.44","","","","-4","","Clear"
"2001-12-07 08:00","2001","12","07","08:00","-0.5","","-3.6","","80","","27","","11","","16.1","","99.51","","","","-4","","Mainly Clear"
"2001-12-07 09:00","2001","12","07","09:00","1.8","","-2.2","","75","","29","","11","","16.1","","99.58","","","","","","Clear"
"2001-12-07 10:00","2001","12","07","10:00","5.4","","-0.2","","67","","30","","13","","16.1","","99.66","","","","","","Mainly Clear"
"2001-12-07 11:00","2001","12","07","11:00","6.6","","0.1","","63","","32","","22","","24.1","","99.71","","","","","","Clear"
"2001-12-07 12:00","2001","12","07","12:00","7.2","","0.0","","60","","32","","28","","24.1","","99.72","","","","","","Mostly Cloudy"
"2001-12-07 13:00","2001","12","07","13:00","6.8","","-0.7","","59","","32","","30","","24.1","","99.74","","","","","","Mostly Cloudy"
"2001-12-07 14:00","2001","12","07","14:00","6.5","","-1.9","","55","","31","","33","","24.1","","99.80","","","","","","Mostly Cloudy"
"2001-12-07 15:00","2001","12","07","15:00","6.2","","-2.6","","53","","33","","33","","24.1","","99.82","","","","","","Mainly Clear"
"2001-12-07 16:00","2001","12","07","16:00","5.2","","-3.6","","53","","32","","26","","24.1","","99.86","","","","","","Clear"
"2001-12-07 17:00","2001","12","07","17:00","3.6","","-4.7","","55","","31","","19","","24.1","","99.95","","","","","","Clear"
"2001-12-07 18:00","2001","12","07","18:00","2.9","","-5.2","","55","","31","","15","","24.1","","100.03","","","","","","Clear"
"2001-12-07 19:00","2001","12","07","19:00","1.7","","-5.2","","60","","33","","11","","24.1","","100.10","","","","","","Clear"
"2001-12-07 20:00","2001","12","07","20:00","0.5","","-6.1","","61","","31","","15","","24.1","","100.15","","","","","","Clear"
"2001-12-07 21:00","2001","12","07","21:00","-0.1","","-6.4","","62","","32","","15","","24.1","","100.17","","","","-5","","Clear"
"2001-12-07 22:00","2001","12","07","22:00","-0.3","","-6.6","","62","","30","","9","","24.1","","100.20","","","","-3","","Mainly Clear"
"2001-12-07 23:00","2001","12","07","23:00","-0.8","","-6.8","","64","","32","","15","","24.1","","100.21","","","","-5","","Mainly Clear"
"2001-12-08 00:00","2001","12","08","00:00","-1.2","","-7.4","","63","","36","","7","","24.1","","100.25","","","","-4","","Clear"
"2001-12-08 01:00","2001","12","08","01:00","-1.9","","-7.2","","67","","1","","7","","24.1","","100.26","","","","-5","","Mainly Clear"
"2001-12-08 02:00","2001","12","08","02:00","-1.7","","-7.1","","67","","2","","7","","24.1","","100.26","","","","-4","","Mainly Clear"
"2001-12-08 03:00","2001","12","08","03:00","-1.7","","-7.1","","67","","5","","7","","24.1","","100.24","","","","-4","","Mainly Clear"
"2001-12-08 04:00","2001","12","08","04:00","-1.8","","-7.8","","64","","8","","6","","24.1","","100.25","","","","-4","","Clear"
"2001-12-08 05:00","2001","12","08","05:00","-1.7","","-8.6","","59","","7","","7","","24.1","","100.20","","","","-4","","Clear"
"2001-12-08 06:00","2001","12","08","06:00","-1.9","","-8.4","","61","","6","","9","","24.1","","100.18","","","","-5","","Clear"
"2001-12-08 07:00","2001","12","08","07:00","-2.0","","-8.1","","63","","6","","11","","24.1","","100.17","","","","-6","","Clear"
"2001-12-08 08:00","2001","12","08","08:00","-1.9","","-8.0","","63","","6","","11","","24.1","","100.19","","","","-6","","Mainly Clear"
"2001-12-08 09:00","2001","12","08","09:00","-1.1","","-7.4","","62","","7","","11","","24.1","","100.11","","","","-5","","Mainly Clear"
"2001-12-08 10:00","2001","12","08","10:00","0.6","","-5.8","","62","","9","","13","","24.1","","100.06","","","","","","Mostly Cloudy"
"2001-12-08 11:00","2001","12","08","11:00","1.8","","-5.5","","58","","11","","20","","24.1","","99.99","","","","","","Cloudy"
"2001-12-08 12:00","2001","12","08","12:00","2.1","","-5.7","","56","","10","","15","","24.1","","99.88","","","","","","Cloudy"
"2001-12-08 13:00","2001","12","08","13:00","2.4","","-5.2","","57","","11","","24","","24.1","","99.77","","","","","","Mostly Cloudy"
"2001-12-08 14:00","2001","12","08","14:00","2.4","","-5.1","","58","","10","","19","","24.1","","99.68","","","","","","Mostly Cloudy"
"2001-12-08 15:00","2001","12","08","15:00","2.3","","-4.1","","63","","11","","20","","24.1","","99.64","","","","","","Cloudy"
"2001-12-08 16:00","2001","12","08","16:00","2.0","","-4.1","","64","","9","","17","","24.1","","99.58","","","","","","Mostly Cloudy"
"2001-12-08 17:00","2001","12","08","17:00","1.4","","-4.0","","67","","6","","15","","24.1","","99.57","","","","","","Mostly Cloudy"
"2001-12-08 18:00","2001","12","08","18:00","2.1","","-4.8","","60","","8","","15","","24.1","","99.56","","","","","","Mostly Cloudy"
"2001-12-08 19:00","2001","12","08","19:00","1.1","","-4.1","","68","","7","","20","","24.1","","99.51","","","","","","Cloudy"
"2001-12-08 20:00","2001","12","08","20:00","0.2","","-5.2","","67","","7","","15","","24.1","","99.47","","","","","","Cloudy"
"2001-12-08 21:00","2001","12","08","21:00","-0.1","","-6.0","","64","","5","","13","","24.1","","99.47","","","","-4","","Cloudy"
"2001-12-08 22:00","2001","12","08","22:00","-0.1","","-6.3","","63","","4","","11","","24.1","","99.44","","","","-4","","Cloudy"
"2001-12-08 23:00","2001","12","08","23:00","0.2","","-6.0","","63","","5","","13","","24.1","","99.37","","","","","","Cloudy"
"2001-12-09 00:00","2001","12","09","00:00","0.3","","-5.3","","66","","36","","11","","24.1","","99.41","","","","","","Cloudy"
"2001-12-09 01:00","2001","12","09","01:00","0.2","","-5.5","","65","","35","","11","","24.1","","99.42","","","","","","Cloudy"
"2001-12-09 02:00","2001","12","09","02:00","-0.2","","-5.8","","66","","35","","22","","24.1","","99.48","","","","-6","","Cloudy"
"2001-12-09 03:00","2001","12","09","03:00","-0.2","","-5.9","","65","","35","","13","","24.1","","99.57","","","","-4","","Cloudy"
"2001-12-09 04:00","2001","12","09","04:00","-0.6","","-5.8","","68","","35","","9","","24.1","","99.58","","","","-4","","Mostly Cloudy"
"2001-12-09 05:00","2001","12","09","05:00","-1.5","","-6.2","","70","","34","","6","","24.1","","99.66","","","","-4","","Mostly Cloudy"
"2001-12-09 06:00","2001","12","09","06:00","-1.1","","-6.4","","67","","","","0","","24.1","","99.71","","","","","","Mainly Clear"
"2001-12-09 07:00","2001","12","09","07:00","-0.7","","-6.3","","66","","","","0","","24.1","","99.82","","","","","","Mainly Clear"
"2001-12-09 08:00","2001","12","09","08:00","-2.0","","-6.4","","72","","26","","7","","24.1","","99.94","","","","-5","","Mainly Clear"
"2001-12-09 09:00","2001","12","09","09:00","0.2","","-3.5","","76","","29","","9","","16.1","","100.00","","","","","","Mainly Clear"
"2001-12-09 10:00","2001","12","09","10:00","3.4","","-2.4","","66","","30","","22","","19.3","","100.07","","","","","","Clear"
"2001-12-09 11:00","2001","12","09","11:00","4.8","","-3.2","","56","","29","","17","","24.1","","100.11","","","","","","Clear"
"2001-12-09 12:00","2001","12","09","12:00","5.7","","-3.6","","51","","30","","17","","24.1","","100.13","","","","","","Mainly Clear"
"2001-12-09 13:00","2001","12","09","13:00","5.4","","-4.6","","48","","32","","22","","24.1","","100.14","","","","","","Mainly Clear"
"2001-12-09 14:00","2001","12","09","14:00","4.4","","-5.1","","50","","29","","13","","24.1","","100.16","","","","","","Mainly Clear"
"2001-12-09 15:00","2001","12","09","15:00","5.5","","-5.2","","46","","29","","7","","24.1","","100.17","","","","","","Mainly Clear"
"2001-12-09 16:00","2001","12","09","16:00","4.2","","-4.9","","52","","27","","15","","24.1","","100.23","","","","","","Clear"
"2001-12-09 17:00","2001","12","09","17:00","1.8","","-5.7","","57","","27","","15","","24.1","","100.29","","","","","","Clear"
"2001-12-09 18:00","2001","12","09","18:00","1.6","","-6.0","","57","","26","","7","","24.1","","100.34","","","","","","Clear"
"2001-12-09 19:00","2001","12","09","19:00","0.7","","-6.0","","61","","26","","7","","24.1","","100.35","","","","","","Clear"
"2001-12-09 20:00","2001","12","09","20:00","0.3","","-5.9","","63","","23","","11","","24.1","","100.37","","","","","","Clear"
"2001-12-09 21:00","2001","12","09","21:00","0.0","","-6.1","","63","","26","","9","","24.1","","100.41","","","","-3","","Clear"
"2001-12-09 22:00","2001","12","09","22:00","-0.1","","-5.8","","65","","22","","9","","24.1","","100.42","","","","-3","","Clear"
"2001-12-09 23:00","2001","12","09","23:00","-0.3","","-5.9","","66","","21","","7","","24.1","","100.42","","","","-3","","Clear"
"2001-12-10 00:00","2001","12","10","00:00","-0.5","","-5.9","","67","","20","","4","","24.1","","100.41","","","","-2","","Clear"
"2001-12-10 01:00","2001","12","10","01:00","-0.6","","-5.9","","67","","21","","4","","24.1","","100.39","","","","-2","","Clear"
"2001-12-10 02:00","2001","12","10","02:00","-0.7","","-5.8","","68","","16","","4","","24.1","","100.36","","","","-2","","Clear"
"2001-12-10 03:00","2001","12","10","03:00","-0.8","","-5.8","","69","","16","","6","","24.1","","100.36","","","","-3","","Clear"
"2001-12-10 04:00","2001","12","10","04:00","-0.8","","-5.9","","68","","19","","6","","24.1","","100.29","","","","-3","","Mostly Cloudy"
"2001-12-10 05:00","2001","12","10","05:00","0.5","","-4.6","","69","","18","","7","","24.1","","100.31","","","","","","Cloudy"
"2001-12-10 06:00","2001","12","10","06:00","0.6","","-4.2","","70","","16","","7","","19.3","","100.30","","","","","","Cloudy"
"2001-12-10 07:00","2001","12","10","07:00","1.0","","-4.1","","69","","16","","4","","19.3","","100.29","","","","","","Cloudy"
"2001-12-10 08:00","2001","12","10","08:00","1.6","","-3.3","","70","","15","","6","","16.1","","100.28","","","","","","Cloudy"
"2001-12-10 09:00","2001","12","10","09:00","2.6","","-2.7","","68","","18","","7","","9.7","","100.30","","","","","","Haze"
"2001-12-10 10:00","2001","12","10","10:00","3.7","","-1.2","","70","","18","","7","","9.7","","100.28","","","","","","Haze"
"2001-12-10 11:00","2001","12","10","11:00","5.5","","-0.7","","64","","22","","7","","9.7","","100.21","","","","","","Haze"
"2001-12-10 12:00","2001","12","10","12:00","6.1","","-0.5","","63","","24","","26","","16.1","","100.11","","","","","","Mostly Cloudy"
"2001-12-10 13:00","2001","12","10","13:00","6.3","","-0.8","","60","","23","","17","","16.1","","100.06","","","","","","Cloudy"
"2001-12-10 14:00","2001","12","10","14:00","6.9","","-0.4","","60","","25","","17","","16.1","","100.00","","","","","","Mostly Cloudy"
"2001-12-10 15:00","2001","12","10","15:00","6.9","","-0.5","","59","","27","","15","","16.1","","99.95","","","","","","Mainly Clear"
"2001-12-10 16:00","2001","12","10","16:00","6.1","","-1.0","","60","","24","","7","","16.1","","99.93","","","","","","Clear"
"2001-12-10 17:00","2001","12","10","17:00","5.7","","-1.4","","60","","22","","6","","16.1","","99.93","","","","","","Mainly Clear"
"2001-12-10 18:00","2001","12","10","18:00","5.1","","-1.5","","62","","19","","6","","19.3","","99.97","","","","","","Clear"
"2001-12-10 19:00","2001","12","10","19:00","4.4","","-1.7","","65","","18","","6","","19.3","","99.95","","","","","","Clear"
"2001-12-10 20:00","2001","12","10","20:00","3.2","","-2.2","","68","","23","","9","","19.3","","100.02","","","","","","Clear"
"2001-12-10 21:00","2001","12","10","21:00","2.8","","-2.4","","69","","22","","9","","19.3","","100.02","","","","","","Clear"
"2001-12-10 22:00","2001","12","10","22:00","1.3","","-3.0","","73","","24","","11","","19.3","","100.00","","","","","","Clear"
"2001-12-10 23:00","2001","12","10","23:00","1.6","","-2.3","","75","","21","","9","","16.1","","100.00","","","","","","Clear"
"2001-12-11 00:00","2001","12","11","00:00","1.1","","-2.9","","75","","24","","7","","16.1","","100.11","","","","","","Clear"
"2001-12-11 01:00","2001","12","11","01:00","0.0","","-3.0","","80","","25","","4","","14.5","","100.13","","","","-1","","Clear"
"2001-12-11 02:00","2001","12","11","02:00","-0.1","","-3.7","","77","","","","0","","14.5","","100.20","","","","","","Clear"
"2001-12-11 03:00","2001","12","11","03:00","0.5","","-3.5","","75","","26","","7","","14.5","","100.24","","","","","","Clear"
"2001-12-11 04:00","2001","12","11","04:00","-0.6","","-4.0","","78","","30","","4","","11.3","","100.25","","","","-2","","Clear"
"2001-12-11 05:00","2001","12","11","05:00","-0.9","","-4.3","","78","","","","0","","9.7","","100.31","","","","","","Haze"
"2001-12-11 06:00","2001","12","11","06:00","-1.6","","-4.7","","79","","32","","15","","8.0","","100.34","","","","-6","","Haze"
"2001-12-11 07:00","2001","12","11","07:00","-2.4","","-5.3","","80","","29","","4","","6.4","","100.45","","","","-4","","Haze"
"2001-12-11 08:00","2001","12","11","08:00","-1.4","","-3.6","","85","","27","","4","","3.2","","100.54","","","","-3","","Haze"
"2001-12-11 09:00","2001","12","11","09:00","0.6","","-2.4","","80","","30","","4","","4.8","","100.63","","","","","","Haze"
"2001-12-11 10:00","2001","12","11","10:00","3.4","","-0.5","","76","","2","","6","","4.8","","100.71","","","","","","Haze"
"2001-12-11 11:00","2001","12","11","11:00","4.4","","-0.4","","71","","5","","6","","6.4","","100.71","","","","","","Haze"
"2001-12-11 12:00","2001","12","11","12:00","5.9","","0.2","","67","","2","","4","","6.4","","100.71","","","","","","Haze"
"2001-12-11 13:00","2001","12","11","13:00","7.6","","0.7","","62","","8","","6","","8.0","","100.70","","","","","","Haze"
"2001-12-11 14:00","2001","12","11","14:00","7.7","","1.0","","63","","16","","9","","6.4","","100.68","","","","","","Haze"
"2001-12-11 15:00","2001","12","11","15:00","6.9","","0.4","","63","","16","","11","","8.0","","100.73","","","","","","Haze"
"2001-12-11 16:00","2001","12","11","16:00","5.8","","-0.2","","65","","14","","11","","6.4","","100.80","","","","","","Haze"
"2001-12-11 17:00","2001","12","11","17:00","4.5","","-0.7","","69","","13","","7","","6.4","","100.84","","","","","","Haze"
"2001-12-11 18:00","2001","12","11","18:00","4.3","","-0.3","","72","","10","","9","","6.4","","100.88","","","","","","Haze"
"2001-12-11 19:00","2001","12","11","19:00","3.7","","-0.7","","73","","11","","7","","8.0","","100.89","","","","","","Haze"
"2001-12-11 20:00","2001","12","11","20:00","3.6","","-0.4","","75","","11","","7","","6.4","","100.95","","","","","","Haze"
"2001-12-11 21:00","2001","12","11","21:00","3.0","","-0.3","","79","","7","","6","","6.4","","100.93","","","","","","Haze"
"2001-12-11 22:00","2001","12","11","22:00","2.9","","0.0","","81","","7","","6","","4.8","","100.93","","","","","","Haze"
"2001-12-11 23:00","2001","12","11","23:00","2.4","","-0.1","","84","","7","","9","","4.8","","100.93","","","","","","Haze"
"2001-12-12 00:00","2001","12","12","00:00","3.0","","0.5","","84","","9","","6","","3.6","","100.87","","","","","","Haze"
"2001-12-12 01:00","2001","12","12","01:00","3.6","","1.1","","84","","9","","6","","4.8","","100.88","","","","","","Haze"
"2001-12-12 02:00","2001","12","12","02:00","2.7","","0.3","","84","","2","","6","","4.0","","100.93","","","","","","Haze"
"2001-12-12 03:00","2001","12","12","03:00","2.3","","-0.1","","84","","8","","4","","4.0","","100.94","","","","","","Haze"
"2001-12-12 04:00","2001","12","12","04:00","1.1","","-1.3","","84","","5","","4","","3.6","","100.82","","","","","","Haze"
"2001-12-12 05:00","2001","12","12","05:00","2.0","","0.2","","88","","9","","6","","2.8","","100.75","","","","","","Fog"
"2001-12-12 06:00","2001","12","12","06:00","3.5","","0.8","","82","","12","","9","","8.0","","100.73","","","","","","Haze"
"2001-12-12 07:00","2001","12","12","07:00","3.7","","0.6","","80","","10","","9","","6.4","","100.69","","","","","","Haze"
"2001-12-12 08:00","2001","12","12","08:00","4.1","","0.9","","80","","10","","11","","6.4","","100.67","","","","","","Haze"
"2001-12-12 09:00","2001","12","12","09:00","5.0","","1.2","","76","","11","","7","","6.4","","100.64","","","","","","Haze"
"2001-12-12 10:00","2001","12","12","10:00","5.5","","1.4","","75","","10","","11","","6.4","","100.57","","","","","","Haze"
"2001-12-12 11:00","2001","12","12","11:00","5.8","","0.4","","68","","10","","15","","8.0","","100.52","","","","","","Haze"
"2001-12-12 12:00","2001","12","12","12:00","6.2","","0.9","","69","","14","","6","","6.4","","100.39","","","","","","Haze"
"2001-12-12 13:00","2001","12","12","13:00","6.6","","0.5","","65","","10","","6","","8.0","","100.28","","","","","","Haze"
"2001-12-12 14:00","2001","12","12","14:00","7.3","","2.1","","70","","10","","9","","8.0","","100.14","","","","","","Haze"
"2001-12-12 15:00","2001","12","12","15:00","6.9","","1.9","","70","","13","","7","","8.0","","100.09","","","","","","Haze"
"2001-12-12 16:00","2001","12","12","16:00","6.6","","0.2","","64","","13","","7","","9.7","","100.04","","","","","","Haze"
"2001-12-12 17:00","2001","12","12","17:00","6.2","","3.0","","80","","15","","9","","8.0","","99.96","","","","","","Rain Showers,Haze"
"2001-12-12 18:00","2001","12","12","18:00","5.8","","3.1","","83","","10","","4","","8.0","","99.97","","","","","","Rain Showers"
"2001-12-12 19:00","2001","12","12","19:00","5.3","","3.9","","91","","15","","4","","8.0","","99.91","","","","","","Rain"
"2001-12-12 20:00","2001","12","12","20:00","5.7","","4.3","","91","","11","","6","","4.8","","99.85","","","","","","Rain,Fog"
"2001-12-12 21:00","2001","12","12","21:00","6.2","","5.1","","93","","13","","9","","4.8","","99.76","","","","","","Rain,Fog"
"2001-12-12 22:00","2001","12","12","22:00","6.4","","5.6","","95","","14","","9","","4.8","","99.67","","","","","","Rain,Fog"
"2001-12-12 23:00","2001","12","12","23:00","6.5","","6.0","","97","","14","","9","","4.8","","99.59","","","","","","Rain,Fog"
"2001-12-13 00:00","2001","12","13","00:00","6.2","","6.1","","99","","15","","9","","4.0","","99.55","","","","","","Rain,Fog"
"2001-12-13 01:00","2001","12","13","01:00","6.3","","6.2","","99","","15","","9","","3.2","","99.40","","","","","","Moderate Rain,Fog"
"2001-12-13 02:00","2001","12","13","02:00","6.4","","6.3","","99","","16","","11","","3.2","","99.33","","","","","","Rain,Fog"
"2001-12-13 03:00","2001","12","13","03:00","6.4","","6.4","","100","","15","","9","","2.8","","99.23","","","","","","Rain,Fog"
"2001-12-13 04:00","2001","12","13","04:00","6.2","","6.2","","100","","15","","13","","1.6","","99.08","","","","","","Drizzle,Fog"
"2001-12-13 05:00","2001","12","13","05:00","6.5","","6.5","","100","","15","","11","","2.0","","99.01","","","","","","Drizzle,Fog"
"2001-12-13 06:00","2001","12","13","06:00","6.7","","6.7","","100","","15","","7","","2.4","","98.95","","","","","","Drizzle,Fog"
"2001-12-13 07:00","2001","12","13","07:00","6.8","","6.8","","100","","15","","9","","2.0","","98.90","","","","","","Fog"
"2001-12-13 08:00","2001","12","13","08:00","7.1","","7.1","","100","","15","","9","","0.6","","98.80","","","","","","Drizzle,Fog"
"2001-12-13 09:00","2001","12","13","09:00","7.4","","7.4","","100","","16","","7","","0.6","","98.77","","","","","","Drizzle,Fog"
"2001-12-13 10:00","2001","12","13","10:00","8.5","","8.5","","100","","18","","11","","1.2","","98.75","","","","","","Drizzle,Fog"
"2001-12-13 11:00","2001","12","13","11:00","9.8","","9.7","","99","","19","","13","","3.2","","98.71","","","","","","Drizzle,Fog"
"2001-12-13 12:00","2001","12","13","12:00","11.4","","10.6","","95","","23","","20","","8.0","","98.61","","","","","","Drizzle,Fog"
"2001-12-13 13:00","2001","12","13","13:00","11.7","","10.9","","95","","25","","19","","9.7","","98.59","","","","","","Drizzle,Fog"
"2001-12-13 14:00","2001","12","13","14:00","12.0","","9.5","","85","","27","","30","","16.1","","98.60","","","","","","Cloudy"
"2001-12-13 15:00","2001","12","13","15:00","11.2","","8.3","","82","","27","","30","","24.1","","98.68","","","","","","Cloudy"
"2001-12-13 16:00","2001","12","13","16:00","10.9","","7.4","","79","","28","","28","","24.1","","98.82","","","","","","Cloudy"
"2001-12-13 17:00","2001","12","13","17:00","10.6","","6.6","","76","","27","","17","","24.1","","98.89","","","","","","Mostly Cloudy"
"2001-12-13 18:00","2001","12","13","18:00","10.1","","6.7","","79","","26","","15","","24.1","","98.98","","","","","","Mostly Cloudy"
"2001-12-13 19:00","2001","12","13","19:00","9.2","","7.1","","87","","29","","11","","24.1","","99.03","","","","","","Cloudy"
"2001-12-13 20:00","2001","12","13","20:00","8.6","","6.1","","84","","29","","20","","24.1","","99.15","","","","","","Cloudy"
"2001-12-13 21:00","2001","12","13","21:00","7.9","","4.5","","79","","29","","24","","24.1","","99.26","","","","","","Drizzle"
"2001-12-13 22:00","2001","12","13","22:00","7.5","","4.1","","79","","29","","19","","24.1","","99.31","","","","","","Cloudy"
"2001-12-13 23:00","2001","12","13","23:00","7.1","","3.7","","79","","29","","15","","24.1","","99.40","","","","","","Cloudy"
"2001-12-14 00:00","2001","12","14","00:00","6.7","","3.5","","80","","28","","13","","24.1","","99.45","","","","","","Cloudy"
"2001-12-14 01:00","2001","12","14","01:00","6.6","","2.1","","73","","29","","17","","24.1","","99.48","","","","","","Cloudy"
"2001-12-14 02:00","2001","12","14","02:00","5.6","","2.1","","78","","29","","13","","19.3","","99.47","","","","","","Cloudy"
"2001-12-14 03:00","2001","12","14","03:00","4.8","","1.9","","81","","31","","13","","19.3","","99.49","","","","","","Cloudy"
"2001-12-14 04:00","2001","12","14","04:00","4.2","","1.6","","83","","35","","7","","19.3","","99.45","","","","","","Cloudy"
"2001-12-14 05:00","2001","12","14","05:00","4.0","","1.4","","83","","27","","4","","19.3","","99.45","","","","","","Cloudy"
"2001-12-14 06:00","2001","12","14","06:00","4.3","","0.8","","78","","4","","7","","19.3","","99.44","","","","","","Cloudy"
"2001-12-14 07:00","2001","12","14","07:00","4.5","","1.1","","79","","3","","13","","19.3","","99.45","","","","","","Mostly Cloudy"
"2001-12-14 08:00","2001","12","14","08:00","4.7","","1.3","","79","","5","","17","","16.1","","99.46","","","","","","Cloudy"
"2001-12-14 09:00","2001","12","14","09:00","4.3","","0.7","","77","","5","","17","","16.1","","99.45","","","","","","Cloudy"
"2001-12-14 10:00","2001","12","14","10:00","3.6","","-1.3","","70","","5","","20","","24.1","","99.41","","","","","","Cloudy"
"2001-12-14 11:00","2001","12","14","11:00","4.1","","-1.6","","66","","6","","13","","24.1","","99.41","","","","","","Cloudy"
"2001-12-14 12:00","2001","12","14","12:00","3.9","","-4.0","","56","","7","","17","","24.1","","99.24","","","","","","Cloudy"
"2001-12-14 13:00","2001","12","14","13:00","3.7","","-4.1","","57","","5","","24","","24.1","","99.02","","","","","","Cloudy"
"2001-12-14 14:00","2001","12","14","14:00","3.4","","-4.3","","57","","5","","22","","12.9","","98.93","","","","","","Snow Showers"
"2001-12-14 15:00","2001","12","14","15:00","3.0","","-3.9","","60","","7","","20","","12.9","","98.81","","","","","","Snow Showers"
"2001-12-14 16:00","2001","12","14","16:00","1.9","","-2.2","","74","","5","","28","","1.6","","98.66","","","","","","Snow Showers"
"2001-12-14 17:00","2001","12","14","17:00","0.1","","-1.1","","92","","5","","33","","2.4","","98.67","","","","","","Snow"
"2001-12-14 18:00","2001","12","14","18:00","0.0","","-1.1","","92","","5","","22","","2.4","","98.75","","","","-6","","Snow"
"2001-12-14 19:00","2001","12","14","19:00","-0.2","","-0.7","","96","","3","","28","","0.8","","98.84","","","","-7","","Thunderstorms,Moderate Snow Showers"
"2001-12-14 20:00","2001","12","14","20:00","-0.3","","-0.8","","96","","36","","28","","1.2","","99.00","","","","-7","","Snow Showers"
"2001-12-14 21:00","2001","12","14","21:00","-0.2","","-0.7","","96","","35","","19","","1.2","","99.14","","","","-5","","Snow Showers"
"2001-12-14 22:00","2001","12","14","22:00","-0.4","","-1.6","","92","","35","","30","","19.3","","99.30","","","","-7","","Cloudy"
"2001-12-14 23:00","2001","12","14","23:00","-0.2","","-1.9","","88","","35","","22","","24.1","","99.46","","","","-6","","Cloudy"
"2001-12-15 00:00","2001","12","15","00:00","-0.5","","-2.0","","90","","35","","17","","4.8","","99.58","","","","-5","","Snow Showers"
"2001-12-15 01:00","2001","12","15","01:00","-0.7","","-2.1","","90","","32","","20","","16.1","","99.71","","","","-6","","Cloudy"
"2001-12-15 02:00","2001","12","15","02:00","-0.6","","-2.1","","90","","31","","19","","16.1","","99.84","","","","-6","","Cloudy"
"2001-12-15 03:00","2001","12","15","03:00","-0.3","","-2.2","","87","","30","","13","","24.1","","99.99","","","","-4","","Cloudy"
"2001-12-15 04:00","2001","12","15","04:00","-0.5","","-2.4","","87","","27","","7","","24.1","","100.09","","","","-3","","Cloudy"
"2001-12-15 05:00","2001","12","15","05:00","-0.6","","-2.0","","90","","27","","7","","24.1","","100.18","","","","-3","","Cloudy"
"2001-12-15 06:00","2001","12","15","06:00","0.2","","-1.5","","88","","34","","11","","24.1","","100.28","","","","","","Cloudy"
"2001-12-15 07:00","2001","12","15","07:00","0.2","","-2.2","","84","","35","","13","","24.1","","100.45","","","","","","Cloudy"
"2001-12-15 08:00","2001","12","15","08:00","-0.2","","-3.1","","81","","35","","11","","24.1","","100.54","","","","-4","","Cloudy"
"2001-12-15 09:00","2001","12","15","09:00","-0.5","","-3.2","","82","","34","","17","","24.1","","100.64","","","","-5","","Mostly Cloudy"
"2001-12-15 10:00","2001","12","15","10:00","-0.6","","-3.0","","84","","32","","15","","24.1","","100.78","","","","-5","","Mostly Cloudy"
"2001-12-15 11:00","2001","12","15","11:00","-0.2","","-3.3","","80","","1","","11","","24.1","","100.79","","","","-4","","Mainly Clear"
"2001-12-15 12:00","2001","12","15","12:00","0.2","","-3.0","","79","","31","","7","","24.1","","100.78","","","","","","Clear"
"2001-12-15 13:00","2001","12","15","13:00","0.7","","-2.7","","78","","32","","15","","24.1","","100.81","","","","","","Clear"
"2001-12-15 14:00","2001","12","15","14:00","1.2","","-2.5","","76","","35","","9","","24.1","","100.82","","","","","","Clear"
"2001-12-15 15:00","2001","12","15","15:00","1.4","","-2.7","","74","","30","","6","","24.1","","100.91","","","","","","Clear"
"2001-12-15 16:00","2001","12","15","16:00","2.3","","-2.9","","68","","","","0","","24.1","","101.01","","","","","","Clear"
"2001-12-15 17:00","2001","12","15","17:00","0.6","","-3.2","","76","","35","","11","","24.1","","101.10","","","","","","Clear"
"2001-12-15 18:00","2001","12","15","18:00","0.2","","-3.5","","76","","36","","11","","24.1","","101.17","","","","","","Clear"
"2001-12-15 19:00","2001","12","15","19:00","-0.5","","-3.7","","79","","36","","11","","24.1","","101.16","","","","-4","","Clear"
"2001-12-15 20:00","2001","12","15","20:00","-1.3","","-4.0","","82","","35","","11","","24.1","","101.15","","","","-5","","Clear"
"2001-12-15 21:00","2001","12","15","21:00","-1.9","","-4.0","","86","","32","","9","","24.1","","101.15","","","","-5","","Mainly Clear"
"2001-12-15 22:00","2001","12","15","22:00","-2.5","","-4.2","","88","","","","0","","24.1","","101.07","","","","","","Mainly Clear"
"2001-12-15 23:00","2001","12","15","23:00","-2.1","","-4.1","","86","","32","","7","","24.1","","101.09","","","","-5","","Mostly Cloudy"
"2001-12-16 00:00","2001","12","16","00:00","-3.0","","-5.2","","85","","31","","6","","24.1","","101.10","","","","-5","","Mainly Clear"
"2001-12-16 01:00","2001","12","16","01:00","-3.5","","-5.2","","88","","31","","7","","24.1","","101.17","","","","-6","","Mainly Clear"
"2001-12-16 02:00","2001","12","16","02:00","-4.2","","-5.8","","89","","34","","6","","24.1","","101.14","","","","-7","","Clear"
"2001-12-16 03:00","2001","12","16","03:00","-3.3","","-5.6","","84","","36","","6","","24.1","","101.26","","","","-6","","Mostly Cloudy"
"2001-12-16 04:00","2001","12","16","04:00","-3.8","","-5.5","","88","","35","","6","","24.1","","101.25","","","","-6","","Mostly Cloudy"
"2001-12-16 05:00","2001","12","16","05:00","-4.0","","-5.8","","87","","32","","6","","24.1","","101.23","","","","-7","","Mostly Cloudy"
"2001-12-16 06:00","2001","12","16","06:00","-3.4","","-5.3","","87","","4","","7","","24.1","","101.15","","","","-6","","Mostly Cloudy"
"2001-12-16 07:00","2001","12","16","07:00","-3.3","","-5.3","","86","","5","","11","","19.3","","101.16","","","","-8","","Cloudy"
"2001-12-16 08:00","2001","12","16","08:00","-2.7","","-5.0","","84","","4","","7","","16.1","","101.19","","","","-6","","Cloudy"
"2001-12-16 09:00","2001","12","16","09:00","-2.6","","-4.9","","84","","4","","9","","16.1","","101.17","","","","-6","","Cloudy"
"2001-12-16 10:00","2001","12","16","10:00","-1.6","","-3.7","","86","","5","","7","","14.5","","101.16","","","","-4","","Cloudy"
"2001-12-16 11:00","2001","12","16","11:00","-0.2","","-2.4","","85","","9","","11","","16.1","","101.01","","","","-4","","Cloudy"
"2001-12-16 12:00","2001","12","16","12:00","1.3","","-1.4","","82","","13","","19","","24.1","","100.87","","","","","","Cloudy"
"2001-12-16 13:00","2001","12","16","13:00","1.4","","-1.8","","79","","11","","24","","24.1","","100.76","","","","","","Cloudy"
"2001-12-16 14:00","2001","12","16","14:00","1.3","","-1.9","","79","","10","","17","","24.1","","100.72","","","","","","Cloudy"
"2001-12-16 15:00","2001","12","16","15:00","1.6","","-1.6","","79","","10","","15","","24.1","","100.72","","","","","","Cloudy"
"2001-12-16 16:00","2001","12","16","16:00","1.7","","-0.6","","85","","10","","17","","24.1","","100.64","","","","","","Cloudy"
"2001-12-16 17:00","2001","12","16","17:00","1.9","","-1.3","","79","","10","","17","","19.3","","100.63","","","","","","Cloudy"
"2001-12-16 18:00","2001","12","16","18:00","1.9","","-1.2","","80","","10","","17","","24.1","","100.55","","","","","","Cloudy"
"2001-12-16 19:00","2001","12","16","19:00","2.1","","-1.3","","78","","12","","20","","24.1","","100.51","","","","","","Cloudy"
"2001-12-16 20:00","2001","12","16","20:00","2.0","","-1.2","","79","","11","","19","","24.1","","100.39","","","","","","Cloudy"
"2001-12-16 21:00","2001","12","16","21:00","2.5","","-0.7","","79","","11","","19","","24.1","","100.29","","","","","","Cloudy"
"2001-12-16 22:00","2001","12","16","22:00","2.5","","-0.3","","82","","11","","20","","24.1","","100.17","","","","","","Rain"
"2001-12-16 23:00","2001","12","16","23:00","2.5","","-0.1","","83","","12","","20","","19.3","","100.06","","","","","","Rain"
"2001-12-17 00:00","2001","12","17","00:00","2.4","","0.3","","86","","13","","11","","19.3","","99.96","","","","","","Rain"
"2001-12-17 01:00","2001","12","17","01:00","2.4","","0.4","","87","","13","","13","","19.3","","99.89","","","","","","Rain"
"2001-12-17 02:00","2001","12","17","02:00","1.9","","0.4","","90","","12","","9","","16.1","","99.72","","","","","","Rain"
"2001-12-17 03:00","2001","12","17","03:00","1.9","","1.1","","94","","12","","7","","14.5","","99.63","","","","","","Rain"
"2001-12-17 04:00","2001","12","17","04:00","1.8","","1.2","","96","","9","","7","","6.4","","99.48","","","","","","Rain,Fog"
"2001-12-17 05:00","2001","12","17","05:00","2.0","","1.3","","95","","8","","6","","6.4","","99.41","","","","","","Rain,Fog"
"2001-12-17 06:00","2001","12","17","06:00","2.0","","1.3","","95","","9","","7","","6.4","","99.30","","","","","","Rain,Fog"
"2001-12-17 07:00","2001","12","17","07:00","2.2","","1.6","","96","","10","","7","","4.8","","99.21","","","","","","Rain"
"2001-12-17 08:00","2001","12","17","08:00","2.6","","2.0","","96","","10","","9","","4.0","","99.05","","","","","","Rain,Fog"
"2001-12-17 09:00","2001","12","17","09:00","3.1","","2.6","","97","","11","","7","","2.4","","98.97","","","","","","Rain,Fog"
"2001-12-17 10:00","2001","12","17","10:00","3.5","","2.9","","96","","12","","6","","3.2","","98.91","","","","","","Rain,Fog"
"2001-12-17 11:00","2001","12","17","11:00","3.8","","3.2","","96","","14","","6","","2.4","","98.78","","","","","","Rain,Drizzle,Fog"
"2001-12-17 12:00","2001","12","17","12:00","3.8","","3.3","","97","","","","0","","2.4","","98.62","","","","","","Drizzle,Fog"
"2001-12-17 13:00","2001","12","17","13:00","3.9","","3.2","","95","","9","","6","","2.4","","98.47","","","","","","Rain,Drizzle,Fog"
"2001-12-17 14:00","2001","12","17","14:00","4.1","","3.4","","95","","2","","4","","2.4","","98.41","","","","","","Drizzle,Fog"
"2001-12-17 15:00","2001","12","17","15:00","3.8","","3.1","","95","","5","","6","","3.2","","98.34","","","","","","Drizzle,Fog"
"2001-12-17 16:00","2001","12","17","16:00","3.7","","2.9","","94","","6","","7","","4.0","","98.24","","","","","","Drizzle,Fog"
"2001-12-17 17:00","2001","12","17","17:00","3.7","","2.9","","94","","5","","4","","4.0","","98.25","","","","","","Rain,Fog"
"2001-12-17 18:00","2001","12","17","18:00","3.4","","2.6","","94","","32","","9","","6.4","","98.25","","","","","","Rain,Fog"
"2001-12-17 19:00","2001","12","17","19:00","2.7","","2.0","","95","","36","","15","","8.0","","98.20","","","","","","Rain,Fog"
"2001-12-17 20:00","2001","12","17","20:00","2.6","","1.7","","94","","35","","17","","11.3","","98.13","","","","","","Rain"
"2001-12-17 21:00","2001","12","17","21:00","2.4","","1.3","","92","","35","","15","","14.5","","98.05","","","","","","Rain"
"2001-12-17 22:00","2001","12","17","22:00","2.3","","1.3","","93","","36","","11","","14.5","","98.00","","","","","","Rain"
"2001-12-17 23:00","2001","12","17","23:00","2.4","","1.3","","92","","35","","19","","24.1","","97.99","","","","","","Cloudy"
"2001-12-18 00:00","2001","12","18","00:00","2.3","","1.3","","93","","36","","17","","16.1","","97.92","","","","","","Cloudy"
"2001-12-18 01:00","2001","12","18","01:00","2.4","","1.4","","93","","35","","13","","16.1","","97.96","","","","","","Cloudy"
"2001-12-18 02:00","2001","12","18","02:00","2.9","","1.4","","90","","35","","17","","19.3","","97.98","","","","","","Cloudy"
"2001-12-18 03:00","2001","12","18","03:00","2.9","","1.9","","93","","33","","20","","19.3","","98.02","","","","","","Cloudy"
"2001-12-18 04:00","2001","12","18","04:00","3.0","","2.1","","94","","33","","20","","19.3","","98.03","","","","","","Cloudy"
"2001-12-18 05:00","2001","12","18","05:00","3.2","","2.4","","94","","32","","11","","19.3","","98.07","","","","","","Cloudy"
"2001-12-18 06:00","2001","12","18","06:00","4.0","","2.2","","88","","31","","19","","19.3","","98.14","","","","","","Cloudy"
"2001-12-18 07:00","2001","12","18","07:00","4.1","","1.3","","82","","31","","22","","24.1","","98.22","","","","","","Cloudy"
"2001-12-18 08:00","2001","12","18","08:00","3.7","","-0.1","","76","","31","","20","","24.1","","98.24","","","","","","Mostly Cloudy"
"2001-12-18 09:00","2001","12","18","09:00","3.9","","-0.1","","75","","30","","24","","24.1","","98.28","","","","","","Mostly Cloudy"
"2001-12-18 10:00","2001","12","18","10:00","4.2","","0.1","","75","","31","","26","","24.1","","98.34","","","","","","Mostly Cloudy"
"2001-12-18 11:00","2001","12","18","11:00","4.6","","0.4","","74","","30","","22","","24.1","","98.36","","","","","","Mostly Cloudy"
"2001-12-18 12:00","2001","12","18","12:00","5.3","","0.0","","69","","31","","28","","24.1","","98.35","","","","","","Mostly Cloudy"
"2001-12-18 13:00","2001","12","18","13:00","5.6","","0.6","","70","","29","","28","","24.1","","98.38","","","","","","Mostly Cloudy"
"2001-12-18 14:00","2001","12","18","14:00","6.6","","0.1","","63","","30","","30","","24.1","","98.40","","","","","","Mostly Cloudy"
"2001-12-18 15:00","2001","12","18","15:00","5.8","","1.1","","72","","29","","35","","24.1","","98.46","","","","","","Mostly Cloudy"
"2001-12-18 16:00","2001","12","18","16:00","5.6","","1.4","","74","","30","","30","","24.1","","98.51","","","","","","Mostly Cloudy"
"2001-12-18 17:00","2001","12","18","17:00","4.7","","0.4","","74","","30","","26","","24.1","","98.56","","","","","","Rain Showers"
"2001-12-18 18:00","2001","12","18","18:00","3.9","","0.6","","79","","27","","20","","24.1","","98.64","","","","","","Mostly Cloudy"
"2001-12-18 19:00","2001","12","18","19:00","3.7","","0.8","","81","","28","","22","","24.1","","98.70","","","","","","Mostly Cloudy"
"2001-12-18 20:00","2001","12","18","20:00","2.6","","-0.3","","81","","27","","17","","24.1","","98.71","","","","","","Mainly Clear"
"2001-12-18 21:00","2001","12","18","21:00","3.7","","0.0","","77","","26","","19","","24.1","","98.76","","","","","","Mostly Cloudy"
"2001-12-18 22:00","2001","12","18","22:00","3.7","","-0.4","","75","","26","","19","","24.1","","98.78","","","","","","Cloudy"
"2001-12-18 23:00","2001","12","18","23:00","3.4","","-0.8","","74","","26","","22","","24.1","","98.79","","","","","","Cloudy"
"2001-12-19 00:00","2001","12","19","00:00","3.2","","-1.5","","71","","25","","20","","24.1","","98.82","","","","","","Cloudy"
"2001-12-19 01:00","2001","12","19","01:00","2.7","","-1.1","","76","","24","","15","","24.1","","98.78","","","","","","Mostly Cloudy"
"2001-12-19 02:00","2001","12","19","02:00","2.9","","-1.0","","75","","22","","11","","24.1","","98.77","","","","","","Cloudy"
"2001-12-19 03:00","2001","12","19","03:00","1.9","","-1.5","","78","","22","","7","","24.1","","98.80","","","","","","Mainly Clear"
"2001-12-19 04:00","2001","12","19","04:00","1.5","","-1.5","","80","","22","","4","","24.1","","98.77","","","","","","Mostly Cloudy"
"2001-12-19 05:00","2001","12","19","05:00","1.4","","-1.5","","81","","19","","4","","24.1","","98.72","","","","","","Mainly Clear"
"2001-12-19 06:00","2001","12","19","06:00","1.3","","-1.4","","82","","20","","4","","24.1","","98.77","","","","","","Clear"
"2001-12-19 07:00","2001","12","19","07:00","1.3","","-1.1","","84","","13","","4","","19.3","","98.71","","","","","","Mostly Cloudy"
"2001-12-19 08:00","2001","12","19","08:00","1.0","","-0.8","","88","","14","","6","","8.0","","98.68","","","","","","Fog"
"2001-12-19 09:00","2001","12","19","09:00","1.6","","-0.3","","87","","13","","6","","8.0","","98.68","","","","","","Fog"
"2001-12-19 10:00","2001","12","19","10:00","2.8","","0.5","","85","","16","","6","","6.4","","98.70","","","","","","Haze"
"2001-12-19 11:00","2001","12","19","11:00","3.9","","2.1","","88","","18","","13","","6.4","","98.63","","","","","","Rain Showers,Fog"
"2001-12-19 12:00","2001","12","19","12:00","4.4","","3.0","","91","","24","","13","","4.0","","98.54","","","","","","Rain Showers,Fog"
"2001-12-19 13:00","2001","12","19","13:00","4.8","","3.3","","90","","19","","9","","4.8","","98.44","","","","","","Fog"
"2001-12-19 14:00","2001","12","19","14:00","5.6","","4.0","","89","","15","","7","","4.8","","98.33","","","","","","Fog"
"2001-12-19 15:00","2001","12","19","15:00","5.8","","3.0","","82","","18","","11","","8.0","","98.28","","","","","","Haze"
"2001-12-19 16:00","2001","12","19","16:00","5.8","","2.7","","80","","17","","9","","8.0","","98.23","","","","","","Haze"
"2001-12-19 17:00","2001","12","19","17:00","5.7","","2.7","","81","","18","","7","","8.0","","98.24","","","","","","Haze"
"2001-12-19 18:00","2001","12","19","18:00","5.6","","2.2","","79","","21","","9","","9.7","","98.26","","","","","","Haze"
"2001-12-19 19:00","2001","12","19","19:00","5.7","","2.1","","78","","18","","9","","12.9","","98.20","","","","","","Rain"
"2001-12-19 20:00","2001","12","19","20:00","5.0","","3.2","","88","","16","","6","","8.0","","98.14","","","","","","Rain"
"2001-12-19 21:00","2001","12","19","21:00","5.1","","3.5","","89","","18","","11","","8.0","","98.05","","","","","","Rain"
"2001-12-19 22:00","2001","12","19","22:00","5.2","","3.7","","90","","21","","11","","6.4","","98.01","","","","","","Rain,Fog"
"2001-12-19 23:00","2001","12","19","23:00","4.1","","2.0","","86","","29","","22","","12.9","","98.01","","","","","","Rain"
"2001-12-20 00:00","2001","12","20","00:00","3.3","","0.7","","83","","29","","26","","19.3","","98.04","","","","","","Rain"
"2001-12-20 01:00","2001","12","20","01:00","2.8","","0.6","","85","","27","","28","","24.1","","98.08","","","","","","Cloudy"
"2001-12-20 02:00","2001","12","20","02:00","2.6","","0.5","","86","","27","","26","","19.3","","98.17","","","","","","Rain"
"2001-12-20 03:00","2001","12","20","03:00","2.1","","-1.7","","76","","28","","32","","24.1","","98.27","","","","","","Cloudy"
"2001-12-20 04:00","2001","12","20","04:00","1.8","","-1.7","","78","","27","","26","","24.1","","98.32","","","","","","Cloudy"
"2001-12-20 05:00","2001","12","20","05:00","1.5","","-2.6","","74","","28","","39","","24.1","","98.36","","","","","","Cloudy"
"2001-12-20 06:00","2001","12","20","06:00","1.0","","-3.2","","73","","27","","28","","24.1","","98.46","","","","","","Mostly Cloudy"
"2001-12-20 07:00","2001","12","20","07:00","1.0","","-3.4","","72","","27","","35","","24.1","","98.51","","","","","","Mostly Cloudy"
"2001-12-20 08:00","2001","12","20","08:00","1.0","","-3.8","","70","","27","","33","","24.1","","98.55","","","","","","Mostly Cloudy"
"2001-12-20 09:00","2001","12","20","09:00","0.6","","-3.7","","73","","27","","35","","24.1","","98.58","","","","","","Mainly Clear"
"2001-12-20 10:00","2001","12","20","10:00","1.9","","-2.9","","70","","26","","46","","24.1","","98.54","","","","","","Mostly Cloudy"
"2001-12-20 11:00","2001","12","20","11:00","2.4","","-2.3","","71","","27","","43","","24.1","","98.55","","","","","","Mostly Cloudy"
"2001-12-20 12:00","2001","12","20","12:00","2.7","","-1.6","","73","","27","","44","","24.1","","98.49","","","","","","Cloudy"
"2001-12-20 13:00","2001","12","20","13:00","2.2","","-0.4","","83","","28","","35","","12.9","","98.50","","","","","","Rain Showers,Snow Showers"
"2001-12-20 14:00","2001","12","20","14:00","2.8","","0.4","","84","","28","","35","","24.1","","98.52","","","","","","Mostly Cloudy"
"2001-12-20 15:00","2001","12","20","15:00","3.7","","-1.1","","71","","30","","39","","24.1","","98.63","","","","","","Mostly Cloudy"
"2001-12-20 16:00","2001","12","20","16:00","3.7","","-2.8","","62","","30","","43","","24.1","","98.73","","","","","","Mostly Cloudy"
"2001-12-20 17:00","2001","12","20","17:00","2.9","","-3.0","","65","","29","","26","","24.1","","98.85","","","","","","Mostly Cloudy"
"2001-12-20 18:00","2001","12","20","18:00","2.1","","-3.1","","68","","31","","35","","24.1","","98.95","","","","","","Mostly Cloudy"
"2001-12-20 19:00","2001","12","20","19:00","1.4","","-3.4","","70","","31","","28","","24.1","","99.07","","","","","","Mainly Clear"
"2001-12-20 20:00","2001","12","20","20:00","1.3","","-3.5","","70","","31","","26","","24.1","","99.14","","","","","","Mainly Clear"
"2001-12-20 21:00","2001","12","20","21:00","0.8","","-3.9","","71","","31","","28","","24.1","","99.18","","","","","","Clear"
"2001-12-20 22:00","2001","12","20","22:00","0.7","","-4.4","","69","","31","","28","","24.1","","99.24","","","","","","Clear"
"2001-12-20 23:00","2001","12","20","23:00","0.5","","-5.2","","66","","31","","35","","24.1","","99.27","","","","","","Mostly Cloudy"
"2001-12-21 00:00","2001","12","21","00:00","0.2","","-5.5","","65","","32","","32","","24.1","","99.32","","","","","","Mainly Clear"
"2001-12-21 01:00","2001","12","21","01:00","-0.7","","-5.8","","68","","32","","26","","24.1","","99.37","","","","-7","","Mainly Clear"
"2001-12-21 02:00","2001","12","21","02:00","-1.7","","-6.0","","72","","32","","19","","24.1","","99.47","","","","-7","","Mainly Clear"
"2001-12-21 03:00","2001","12","21","03:00","-1.6","","-6.0","","72","","31","","17","","24.1","","99.55","","","","-7","","Mainly Clear"
"2001-12-21 04:00","2001","12","21","04:00","-2.3","","-6.1","","75","","28","","15","","24.1","","99.60","","","","-7","","Mainly Clear"
"2001-12-21 05:00","2001","12","21","05:00","-3.0","","-6.6","","76","","28","","15","","24.1","","99.66","","","","-8","","Mostly Cloudy"
"2001-12-21 06:00","2001","12","21","06:00","-2.7","","-7.5","","69","","31","","19","","24.1","","99.72","","","","-8","","Mainly Clear"
"2001-12-21 07:00","2001","12","21","07:00","-2.8","","-7.5","","70","","30","","20","","24.1","","99.77","","","","-9","","Clear"
"2001-12-21 08:00","2001","12","21","08:00","-3.6","","-7.3","","75","","29","","15","","19.3","","99.87","","","","-9","","Mainly Clear"
"2001-12-21 09:00","2001","12","21","09:00","-2.2","","-6.9","","70","","32","","15","","24.1","","99.98","","","","-7","","Mainly Clear"
"2001-12-21 10:00","2001","12","21","10:00","-1.4","","-6.1","","70","","32","","17","","24.1","","100.06","","","","-7","","Mainly Clear"
"2001-12-21 11:00","2001","12","21","11:00","-0.2","","-5.9","","65","","30","","19","","24.1","","100.09","","","","-5","","Mainly Clear"
"2001-12-21 12:00","2001","12","21","12:00","-0.2","","-6.5","","62","","35","","17","","24.1","","100.10","","","","-5","","Mostly Cloudy"
"2001-12-21 13:00","2001","12","21","13:00","0.6","","-6.3","","60","","1","","22","","24.1","","100.16","","","","","","Mostly Cloudy"
"2001-12-21 14:00","2001","12","21","14:00","0.4","","-5.8","","63","","35","","24","","24.1","","100.18","","","","","","Mainly Clear"
"2001-12-21 15:00","2001","12","21","15:00","-0.2","","-6.1","","64","","35","","11","","24.1","","100.27","","","","-4","","Mainly Clear"
"2001-12-21 16:00","2001","12","21","16:00","0.2","","-6.8","","59","","32","","13","","24.1","","100.34","","","","","","Mainly Clear"
"2001-12-21 17:00","2001","12","21","17:00","-0.6","","-7.7","","59","","34","","20","","24.1","","100.43","","","","-6","","Mainly Clear"
"2001-12-21 18:00","2001","12","21","18:00","-0.6","","-7.2","","61","","32","","15","","24.1","","100.48","","","","-5","","Mostly Cloudy"
"2001-12-21 19:00","2001","12","21","19:00","-0.8","","-6.8","","64","","32","","9","","24.1","","100.53","","","","-4","","Mostly Cloudy"
"2001-12-21 20:00","2001","12","21","20:00","-0.9","","-6.6","","65","","28","","11","","24.1","","100.55","","","","-5","","Cloudy"
"2001-12-21 21:00","2001","12","21","21:00","-0.9","","-6.5","","66","","28","","13","","24.1","","100.59","","","","-5","","Mostly Cloudy"
"2001-12-21 22:00","2001","12","21","22:00","-1.2","","-5.8","","71","","29","","11","","24.1","","100.62","","","","-5","","Cloudy"
"2001-12-21 23:00","2001","12","21","23:00","-2.1","","-5.9","","75","","26","","13","","24.1","","100.63","","","","-7","","Mostly Cloudy"
"2001-12-22 00:00","2001","12","22","00:00","-3.2","","-6.1","","80","","26","","13","","24.1","","100.64","","","","-8","","Clear"
"2001-12-22 01:00","2001","12","22","01:00","-4.0","","-6.4","","83","","27","","9","","24.1","","100.64","","","","-8","","Clear"
"2001-12-22 02:00","2001","12","22","02:00","-3.5","","-5.7","","85","","25","","7","","24.1","","100.69","","","","-6","","Clear"
"2001-12-22 03:00","2001","12","22","03:00","-3.9","","-6.0","","85","","1","","7","","19.3","","100.75","","","","-7","","Clear"
"2001-12-22 04:00","2001","12","22","04:00","-3.9","","-6.1","","85","","3","","7","","24.1","","100.75","","","","-7","","Clear"
"2001-12-22 05:00","2001","12","22","05:00","-3.9","","-6.5","","82","","5","","6","","24.1","","100.76","","","","-7","","Clear"
"2001-12-22 06:00","2001","12","22","06:00","-5.0","","-7.1","","85","","36","","4","","24.1","","100.83","","","","-7","","Mostly Cloudy"
"2001-12-22 07:00","2001","12","22","07:00","-4.1","","-6.5","","83","","5","","6","","24.1","","100.88","","","","-7","","Mostly Cloudy"
"2001-12-22 08:00","2001","12","22","08:00","-3.9","","-6.8","","80","","6","","6","","19.3","","100.89","","","","-7","","Mostly Cloudy"
"2001-12-22 09:00","2001","12","22","09:00","-3.1","","-6.1","","80","","4","","9","","19.3","","100.91","","","","-7","","Mostly Cloudy"
"2001-12-22 10:00","2001","12","22","10:00","-2.4","","-5.4","","80","","8","","9","","19.3","","100.87","","","","-6","","Mostly Cloudy"
"2001-12-22 11:00","2001","12","22","11:00","-0.8","","-3.5","","82","","12","","13","","24.1","","100.83","","","","-5","","Mostly Cloudy"
"2001-12-22 12:00","2001","12","22","12:00","-0.3","","-3.5","","79","","10","","9","","24.1","","100.72","","","","-3","","Cloudy"
"2001-12-22 13:00","2001","12","22","13:00","0.3","","-3.0","","78","","13","","17","","24.1","","100.65","","","","","","Mostly Cloudy"
"2001-12-22 14:00","2001","12","22","14:00","1.1","","-3.6","","71","","14","","13","","24.1","","100.54","","","","","","Mostly Cloudy"
"2001-12-22 15:00","2001","12","22","15:00","1.0","","-4.0","","69","","14","","11","","24.1","","100.48","","","","","","Mostly Cloudy"
"2001-12-22 16:00","2001","12","22","16:00","0.9","","-3.7","","71","","12","","15","","24.1","","100.43","","","","","","Mostly Cloudy"
"2001-12-22 17:00","2001","12","22","17:00","0.3","","-3.5","","76","","12","","15","","19.3","","100.40","","","","","","Cloudy"
"2001-12-22 18:00","2001","12","22","18:00","0.8","","-2.9","","76","","12","","15","","24.1","","100.30","","","","","","Cloudy"
"2001-12-22 19:00","2001","12","22","19:00","1.3","","-3.4","","71","","13","","19","","24.1","","100.18","","","","","","Cloudy"
"2001-12-22 20:00","2001","12","22","20:00","1.2","","-3.6","","70","","12","","26","","24.1","","100.01","","","","","","Mostly Cloudy"
"2001-12-22 21:00","2001","12","22","21:00","1.1","","-3.5","","71","","12","","24","","24.1","","99.96","","","","","","Mostly Cloudy"
"2001-12-22 22:00","2001","12","22","22:00","1.7","","-2.8","","72","","11","","22","","24.1","","99.82","","","","","","Cloudy"
"2001-12-22 23:00","2001","12","22","23:00","1.8","","-2.6","","73","","11","","17","","24.1","","99.75","","","","","","Mostly Cloudy"
"2001-12-23 00:00","2001","12","23","00:00","2.0","","-2.2","","74","","11","","19","","24.1","","99.64","","","","","","Mostly Cloudy"
"2001-12-23 01:00","2001","12","23","01:00","2.4","","-1.9","","73","","12","","19","","24.1","","99.61","","","","","","Cloudy"
"2001-12-23 02:00","2001","12","23","02:00","2.4","","-1.7","","74","","11","","13","","24.1","","99.51","","","","","","Cloudy"
"2001-12-23 03:00","2001","12","23","03:00","2.6","","-2.1","","71","","9","","4","","24.1","","99.45","","","","","","Mostly Cloudy"
"2001-12-23 04:00","2001","12","23","04:00","2.7","","-2.1","","71","","13","","11","","24.1","","99.31","","","","","","Cloudy"
"2001-12-23 05:00","2001","12","23","05:00","3.2","","-1.3","","72","","16","","9","","24.1","","99.27","","","","","","Cloudy"
"2001-12-23 06:00","2001","12","23","06:00","3.6","","-0.2","","76","","14","","13","","19.3","","99.15","","","","","","Rain"
"2001-12-23 07:00","2001","12","23","07:00","3.1","","0.8","","85","","15","","13","","8.0","","99.11","","","","","","Rain"
"2001-12-23 08:00","2001","12","23","08:00","3.3","","2.0","","91","","13","","11","","8.0","","99.02","","","","","","Rain,Fog"
"2001-12-23 09:00","2001","12","23","09:00","4.8","","4.1","","95","","18","","15","","4.8","","99.03","","","","","","Rain,Fog"
"2001-12-23 10:00","2001","12","23","10:00","5.4","","4.5","","94","","19","","15","","8.0","","98.96","","","","","","Fog"
"2001-12-23 11:00","2001","12","23","11:00","6.0","","4.9","","93","","21","","15","","8.0","","98.83","","","","","","Rain,Fog"
"2001-12-23 12:00","2001","12","23","12:00","6.5","","5.2","","91","","21","","17","","11.3","","98.70","","","","","","Rain"
"2001-12-23 13:00","2001","12","23","13:00","6.8","","5.0","","88","","20","","17","","12.9","","98.58","","","","","","Rain"
"2001-12-23 14:00","2001","12","23","14:00","6.8","","5.2","","90","","19","","15","","12.9","","98.54","","","","","","Rain"
"2001-12-23 15:00","2001","12","23","15:00","6.6","","5.3","","91","","18","","11","","8.0","","98.50","","","","","","Rain,Fog"
"2001-12-23 16:00","2001","12","23","16:00","6.6","","5.2","","91","","19","","19","","11.3","","98.44","","","","","","Rain"
"2001-12-23 17:00","2001","12","23","17:00","6.7","","5.2","","90","","20","","13","","8.0","","98.44","","","","","","Rain,Fog"
"2001-12-23 18:00","2001","12","23","18:00","6.8","","5.3","","90","","19","","13","","11.3","","98.41","","","","","","Rain"
"2001-12-23 19:00","2001","12","23","19:00","6.5","","5.1","","91","","18","","13","","16.1","","98.33","","","","","","Cloudy"
"2001-12-23 20:00","2001","12","23","20:00","5.6","","3.7","","88","","26","","35","","12.9","","98.30","","","","","","Rain"
"2001-12-23 21:00","2001","12","23","21:00","3.2","","0.3","","81","","24","","32","","16.1","","98.40","","","","","","Rain"
"2001-12-23 22:00","2001","12","23","22:00","0.8","","-3.2","","75","","25","","28","","19.3","","98.45","","","","","","Mostly Cloudy"
"2001-12-23 23:00","2001","12","23","23:00","-0.6","","-7.4","","60","","26","","33","","24.1","","98.63","","","","-8","","Mainly Clear"
"2001-12-24 00:00","2001","12","24","00:00","-1.3","","-7.1","","65","","25","","19","","24.1","","98.61","","","","-7","","Clear"
"2001-12-24 01:00","2001","12","24","01:00","-1.4","","-7.1","","65","","23","","13","","24.1","","98.57","","","","-6","","Mostly Cloudy"
"2001-12-24 02:00","2001","12","24","02:00","-1.7","","-5.4","","76","","23","","20","","24.1","","98.53","","","","-7","","Mainly Clear"
"2001-12-24 03:00","2001","12","24","03:00","-1.3","","-7.7","","62","","24","","30","","24.1","","98.54","","","","-8","","Mostly Cloudy"
"2001-12-24 04:00","2001","12","24","04:00","-2.0","","-9.3","","57","","25","","26","","24.1","","98.49","","","","-9","","Mainly Clear"
"2001-12-24 05:00","2001","12","24","05:00","-3.0","","-9.1","","63","","24","","19","","24.1","","98.49","","","","-9","","Clear"
"2001-12-24 06:00","2001","12","24","06:00","-3.5","","-9.0","","66","","24","","13","","24.1","","98.51","","","","-8","","Clear"
"2001-12-24 07:00","2001","12","24","07:00","-2.9","","-8.8","","64","","21","","11","","24.1","","98.49","","","","-7","","Mostly Cloudy"
"2001-12-24 08:00","2001","12","24","08:00","-2.6","","-8.5","","64","","21","","11","","19.3","","98.47","","","","-7","","Cloudy"
"2001-12-24 09:00","2001","12","24","09:00","-2.1","","-7.7","","65","","24","","13","","24.1","","98.48","","","","-7","","Cloudy"
"2001-12-24 10:00","2001","12","24","10:00","-1.7","","-7.4","","65","","22","","13","","24.1","","98.48","","","","-6","","Mostly Cloudy"
"2001-12-24 11:00","2001","12","24","11:00","-0.6","","-6.8","","63","","24","","20","","24.1","","98.43","","","","-6","","Mainly Clear"
"2001-12-24 12:00","2001","12","24","12:00","-0.3","","-6.7","","62","","25","","19","","24.1","","98.40","","","","-5","","Mostly Cloudy"
"2001-12-24 13:00","2001","12","24","13:00","-0.1","","-6.8","","61","","23","","26","","24.1","","98.38","","","","-6","","Mostly Cloudy"
"2001-12-24 14:00","2001","12","24","14:00","0.4","","-7.7","","55","","24","","28","","24.1","","98.40","","","","","","Mostly Cloudy"
"2001-12-24 15:00","2001","12","24","15:00","-0.4","","-5.9","","66","","26","","35","","16.1","","98.42","","","","-7","","Snow Showers"
"2001-12-24 16:00","2001","12","24","16:00","-1.3","","-6.8","","66","","24","","32","","19.3","","98.46","","","","-8","","Mostly Cloudy"
"2001-12-24 17:00","2001","12","24","17:00","-2.0","","-7.6","","65","","24","","32","","24.1","","98.52","","","","-9","","Mostly Cloudy"
"2001-12-24 18:00","2001","12","24","18:00","-2.1","","-8.1","","63","","25","","22","","24.1","","98.56","","","","-8","","Cloudy"
"2001-12-24 19:00","2001","12","24","19:00","-2.4","","-7.4","","68","","24","","28","","24.1","","98.61","","","","-9","","Cloudy"
"2001-12-24 20:00","2001","12","24","20:00","-2.4","","-7.4","","68","","23","","30","","24.1","","98.62","","","","-10","","Cloudy"
"2001-12-24 21:00","2001","12","24","21:00","-2.4","","-7.3","","69","","24","","26","","24.1","","98.63","","","","-9","","Mostly Cloudy"
"2001-12-24 22:00","2001","12","24","22:00","-2.5","","-7.1","","71","","24","","24","","24.1","","98.61","","","","-9","","Mostly Cloudy"
"2001-12-24 23:00","2001","12","24","23:00","-2.8","","-6.9","","73","","25","","20","","24.1","","98.63","","","","-9","","Mostly Cloudy"
"2001-12-25 00:00","2001","12","25","00:00","-2.4","","-6.8","","72","","25","","28","","24.1","","98.61","","","","-9","","Mostly Cloudy"
"2001-12-25 01:00","2001","12","25","01:00","-2.3","","-6.7","","72","","25","","28","","24.1","","98.64","","","","-9","","Mostly Cloudy"
"2001-12-25 02:00","2001","12","25","02:00","-2.4","","-6.5","","73","","25","","26","","24.1","","98.67","","","","-9","","Mostly Cloudy"
"2001-12-25 03:00","2001","12","25","03:00","-2.3","","-6.4","","73","","26","","32","","24.1","","98.72","","","","-10","","Mostly Cloudy"
"2001-12-25 04:00","2001","12","25","04:00","-2.7","","-6.5","","75","","26","","24","","24.1","","98.76","","","","-9","","Clear"
"2001-12-25 05:00","2001","12","25","05:00","-3.6","","-6.6","","80","","24","","11","","24.1","","98.81","","","","-8","","Mainly Clear"
"2001-12-25 06:00","2001","12","25","06:00","-2.7","","-6.4","","76","","25","","20","","24.1","","98.90","","","","-9","","Mostly Cloudy"
"2001-12-25 07:00","2001","12","25","07:00","-3.4","","-6.9","","77","","24","","20","","24.1","","98.98","","","","-10","","Mainly Clear"
"2001-12-25 08:00","2001","12","25","08:00","-3.9","","-6.9","","80","","24","","15","","16.1","","99.07","","","","-9","","Mainly Clear"
"2001-12-25 09:00","2001","12","25","09:00","-3.8","","-6.7","","80","","22","","17","","19.3","","99.11","","","","-10","","Mainly Clear"
"2001-12-25 10:00","2001","12","25","10:00","-3.3","","-6.8","","77","","23","","20","","24.1","","99.17","","","","-9","","Mainly Clear"
"2001-12-25 11:00","2001","12","25","11:00","-1.4","","-6.6","","68","","25","","24","","24.1","","99.16","","","","-8","","Mainly Clear"
"2001-12-25 12:00","2001","12","25","12:00","-0.7","","-6.6","","64","","25","","24","","24.1","","99.12","","","","-7","","Mainly Clear"
"2001-12-25 13:00","2001","12","25","13:00","-1.7","","-6.9","","68","","24","","22","","24.1","","99.08","","","","-8","","Mainly Clear"
"2001-12-25 14:00","2001","12","25","14:00","-1.4","","-7.5","","63","","24","","20","","24.1","","99.09","","","","-7","","Mostly Cloudy"
"2001-12-25 15:00","2001","12","25","15:00","-1.3","","-8.1","","60","","26","","22","","24.1","","99.12","","","","-7","","Mostly Cloudy"
"2001-12-25 16:00","2001","12","25","16:00","-1.5","","-8.1","","61","","24","","28","","24.1","","99.12","","","","-8","","Cloudy"
"2001-12-25 17:00","2001","12","25","17:00","-1.9","","-7.8","","64","","24","","17","","24.1","","99.15","","","","-7","","Cloudy"
"2001-12-25 18:00","2001","12","25","18:00","-2.0","","-7.4","","66","","22","","15","","24.1","","99.21","","","","-7","","Cloudy"
"2001-12-25 19:00","2001","12","25","19:00","-2.4","","-6.4","","74","","23","","19","","12.9","","99.24","","","","-8","","Snow"
"2001-12-25 20:00","2001","12","25","20:00","-3.5","","-7.5","","74","","25","","24","","24.1","","99.25","","","","-10","","Mostly Cloudy"
"2001-12-25 21:00","2001","12","25","21:00","-3.9","","-7.5","","76","","24","","17","","24.1","","99.21","","","","-10","","Mostly Cloudy"
"2001-12-25 22:00","2001","12","25","22:00","-4.4","","-8.1","","75","","24","","22","","24.1","","99.19","","","","-11","","Mostly Cloudy"
"2001-12-25 23:00","2001","12","25","23:00","-5.1","","-8.3","","78","","24","","13","","24.1","","99.19","","","","-10","","Mainly Clear"
"2001-12-26 00:00","2001","12","26","00:00","-5.6","","-8.6","","79","","22","","7","","24.1","","99.16","","","","-9","","Mainly Clear"
"2001-12-26 01:00","2001","12","26","01:00","-5.4","","-8.2","","81","","22","","6","","24.1","","99.12","","","","-8","","Mostly Cloudy"
"2001-12-26 02:00","2001","12","26","02:00","-6.1","","-8.7","","82","","22","","6","","24.1","","99.08","","","","-9","","Mostly Cloudy"
"2001-12-26 03:00","2001","12","26","03:00","-5.6","","-8.3","","81","","23","","9","","24.1","","99.06","","","","-10","","Cloudy"
"2001-12-26 04:00","2001","12","26","04:00","-5.6","","-8.7","","79","","24","","7","","24.1","","98.99","","","","-9","","Cloudy"
"2001-12-26 05:00","2001","12","26","05:00","-5.6","","-8.6","","79","","23","","9","","24.1","","98.92","","","","-10","","Cloudy"
"2001-12-26 06:00","2001","12","26","06:00","-5.2","","-8.6","","77","","20","","7","","24.1","","98.89","","","","-8","","Cloudy"
"2001-12-26 07:00","2001","12","26","07:00","-5.4","","-8.7","","78","","24","","11","","24.1","","98.88","","","","-10","","Cloudy"
"2001-12-26 08:00","2001","12","26","08:00","-5.4","","-8.7","","78","","21","","7","","12.9","","98.87","","","","-9","","Snow Showers"
"2001-12-26 09:00","2001","12","26","09:00","-5.2","","-9.1","","74","","22","","11","","4.8","","98.85","","","","-10","","Snow Showers"
"2001-12-26 10:00","2001","12","26","10:00","-5.0","","-9.0","","73","","21","","11","","16.1","","98.80","","","","-10","","Cloudy"
"2001-12-26 11:00","2001","12","26","11:00","-4.7","","-8.9","","72","","21","","9","","16.1","","98.71","","","","-9","","Cloudy"
"2001-12-26 12:00","2001","12","26","12:00","-4.7","","-7.6","","80","","25","","13","","1.6","","98.59","","","","-10","","Snow Showers"
"2001-12-26 13:00","2001","12","26","13:00","-4.7","","-7.7","","79","","24","","13","","11.3","","98.51","","","","-10","","Snow Showers"
"2001-12-26 14:00","2001","12","26","14:00","-4.2","","-8.5","","72","","24","","15","","19.3","","98.41","","","","-10","","Mostly Cloudy"
"2001-12-26 15:00","2001","12","26","15:00","-4.4","","-9.7","","66","","26","","26","","24.1","","98.40","","","","-12","","Clear"
"2001-12-26 16:00","2001","12","26","16:00","-4.5","","-10.9","","61","","26","","22","","24.1","","98.39","","","","-11","","Clear"
"2001-12-26 17:00","2001","12","26","17:00","-5.5","","-11.6","","62","","26","","22","","24.1","","98.39","","","","-13","","Clear"
"2001-12-26 18:00","2001","12","26","18:00","-6.6","","-11.5","","68","","26","","13","","24.1","","98.40","","","","-12","","Mainly Clear"
"2001-12-26 19:00","2001","12","26","19:00","-7.0","","-11.5","","70","","25","","9","","24.1","","98.39","","","","-11","","Mainly Clear"
"2001-12-26 20:00","2001","12","26","20:00","-6.7","","-11.0","","71","","25","","13","","24.1","","98.34","","","","-12","","Mostly Cloudy"
"2001-12-26 21:00","2001","12","26","21:00","-7.1","","-11.1","","73","","24","","11","","24.1","","98.30","","","","-12","","Mostly Cloudy"
"2001-12-26 22:00","2001","12","26","22:00","-7.4","","-11.5","","72","","26","","15","","24.1","","98.24","","","","-14","","Cloudy"
"2001-12-26 23:00","2001","12","26","23:00","-6.5","","-11.2","","69","","27","","26","","24.1","","98.17","","","","-14","","Cloudy"
"2001-12-27 00:00","2001","12","27","00:00","-6.9","","-11.4","","70","","26","","24","","24.1","","98.15","","","","-15","","Mostly Cloudy"
"2001-12-27 01:00","2001","12","27","01:00","-6.8","","-11.4","","70","","26","","22","","24.1","","98.12","","","","-14","","Cloudy"
"2001-12-27 02:00","2001","12","27","02:00","-6.9","","-11.6","","69","","26","","24","","24.1","","98.06","","","","-15","","Cloudy"
"2001-12-27 03:00","2001","12","27","03:00","-7.1","","-12.1","","67","","26","","19","","24.1","","98.02","","","","-14","","Mostly Cloudy"
"2001-12-27 04:00","2001","12","27","04:00","-7.1","","-12.0","","68","","27","","20","","24.1","","97.95","","","","-14","","Mostly Cloudy"
"2001-12-27 05:00","2001","12","27","05:00","-7.2","","-11.8","","70","","25","","15","","24.1","","97.90","","","","-13","","Cloudy"
"2001-12-27 06:00","2001","12","27","06:00","-7.2","","-12.0","","69","","25","","22","","24.1","","97.91","","","","-15","","Cloudy"
"2001-12-27 07:00","2001","12","27","07:00","-7.3","","-11.4","","72","","26","","26","","19.3","","97.93","","","","-15","","Cloudy"
"2001-12-27 08:00","2001","12","27","08:00","-7.1","","-11.3","","72","","26","","22","","19.3","","97.95","","","","-15","","Cloudy"
"2001-12-27 09:00","2001","12","27","09:00","-6.8","","-11.1","","71","","25","","19","","19.3","","97.94","","","","-14","","Cloudy"
"2001-12-27 10:00","2001","12","27","10:00","-6.2","","-10.7","","70","","25","","20","","16.1","","97.93","","","","-13","","Cloudy"
"2001-12-27 11:00","2001","12","27","11:00","-5.6","","-10.5","","68","","26","","28","","19.3","","97.88","","","","-14","","Cloudy"
"2001-12-27 12:00","2001","12","27","12:00","-4.7","","-9.6","","69","","27","","28","","11.3","","97.79","","","","-12","","Cloudy"
"2001-12-27 13:00","2001","12","27","13:00","-4.8","","-9.0","","72","","25","","24","","6.4","","97.75","","","","-12","","Snow Showers"
"2001-12-27 14:00","2001","12","27","14:00","-4.2","","-10.2","","63","","26","","24","","12.9","","97.75","","","","-11","","Snow Showers"
"2001-12-27 15:00","2001","12","27","15:00","-4.3","","-10.8","","60","","26","","28","","11.3","","97.80","","","","-12","","Snow Showers"
"2001-12-27 16:00","2001","12","27","16:00","-4.3","","-11.1","","59","","26","","20","","24.1","","97.83","","","","-11","","Mostly Cloudy"
"2001-12-27 17:00","2001","12","27","17:00","-5.2","","-10.7","","65","","27","","20","","24.1","","97.90","","","","-12","","Mainly Clear"
"2001-12-27 18:00","2001","12","27","18:00","-5.7","","-9.9","","72","","25","","13","","24.1","","97.95","","","","-11","","Clear"
"2001-12-27 19:00","2001","12","27","19:00","-6.1","","-10.0","","74","","26","","15","","24.1","","97.99","","","","-12","","Clear"
"2001-12-27 20:00","2001","12","27","20:00","-6.0","","-9.9","","74","","24","","15","","24.1","","97.99","","","","-12","","Mainly Clear"
"2001-12-27 21:00","2001","12","27","21:00","-5.8","","-9.9","","73","","22","","9","","24.1","","97.97","","","","-10","","Cloudy"
"2001-12-27 22:00","2001","12","27","22:00","-5.8","","-8.8","","79","","24","","9","","24.1","","97.96","","","","-10","","Cloudy"
"2001-12-27 23:00","2001","12","27","23:00","-4.7","","-7.8","","79","","25","","15","","24.1","","97.90","","","","-10","","Cloudy"
"2001-12-28 00:00","2001","12","28","00:00","-4.2","","-7.5","","78","","22","","11","","24.1","","97.87","","","","-9","","Cloudy"
"2001-12-28 01:00","2001","12","28","01:00","-3.5","","-7.0","","77","","24","","19","","24.1","","97.87","","","","-9","","Cloudy"
"2001-12-28 02:00","2001","12","28","02:00","-3.6","","-7.4","","75","","24","","24","","24.1","","97.85","","","","-10","","Cloudy"
"2001-12-28 03:00","2001","12","28","03:00","-3.8","","-7.4","","76","","24","","17","","16.1","","97.85","","","","-10","","Cloudy"
"2001-12-28 04:00","2001","12","28","04:00","-3.9","","-7.4","","77","","25","","20","","16.1","","97.76","","","","-10","","Cloudy"
"2001-12-28 05:00","2001","12","28","05:00","-3.9","","-7.3","","77","","23","","15","","19.3","","97.70","","","","-9","","Cloudy"
"2001-12-28 06:00","2001","12","28","06:00","-3.9","","-7.4","","77","","24","","7","","19.3","","97.63","","","","-7","","Cloudy"
"2001-12-28 07:00","2001","12","28","07:00","-3.8","","-7.3","","77","","24","","9","","12.9","","97.65","","","","-8","","Snow Showers"
"2001-12-28 08:00","2001","12","28","08:00","-3.5","","-7.2","","75","","22","","11","","16.1","","97.63","","","","-8","","Mostly Cloudy"
"2001-12-28 09:00","2001","12","28","09:00","-3.3","","-6.7","","77","","20","","9","","14.5","","97.65","","","","-7","","Mostly Cloudy"
"2001-12-28 10:00","2001","12","28","10:00","-2.7","","-6.2","","77","","21","","13","","11.3","","97.63","","","","-7","","Snow Showers"
"2001-12-28 11:00","2001","12","28","11:00","-1.4","","-6.7","","67","","26","","26","","16.1","","97.60","","","","-8","","Mostly Cloudy"
"2001-12-28 12:00","2001","12","28","12:00","-0.4","","-7.2","","60","","27","","28","","19.3","","97.53","","","","-7","","Mostly Cloudy"
"2001-12-28 13:00","2001","12","28","13:00","-0.9","","-8.3","","57","","26","","30","","16.1","","97.53","","","","-8","","Mostly Cloudy"
"2001-12-28 14:00","2001","12","28","14:00","-2.1","","-6.8","","70","","28","","26","","24.1","","97.60","","","","-9","","Mostly Cloudy"
"2001-12-28 15:00","2001","12","28","15:00","-2.1","","-9.0","","59","","27","","41","","16.1","","97.69","","","","-10","","Mostly Cloudy"
"2001-12-28 16:00","2001","12","28","16:00","-3.4","","-9.5","","63","","26","","32","","16.1","","97.77","","","","-11","","Snow Showers"
"2001-12-28 17:00","2001","12","28","17:00","-4.1","","-10.0","","63","","25","","28","","24.1","","97.86","","","","-12","","Mainly Clear"
"2001-12-28 18:00","2001","12","28","18:00","-5.1","","-9.8","","70","","25","","26","","24.1","","97.94","","","","-13","","Mainly Clear"
"2001-12-28 19:00","2001","12","28","19:00","-5.0","","-9.2","","72","","25","","20","","24.1","","98.02","","","","-12","","Clear"
"2001-12-28 20:00","2001","12","28","20:00","-5.0","","-9.8","","69","","26","","26","","24.1","","98.04","","","","-12","","Clear"
"2001-12-28 21:00","2001","12","28","21:00","-5.3","","-9.9","","70","","27","","22","","24.1","","98.08","","","","-12","","Mainly Clear"
"2001-12-28 22:00","2001","12","28","22:00","-5.5","","-10.1","","70","","26","","24","","24.1","","98.11","","","","-13","","Clear"
"2001-12-28 23:00","2001","12","28","23:00","-5.8","","-10.8","","68","","27","","26","","24.1","","98.12","","","","-14","","Clear"
"2001-12-29 00:00","2001","12","29","00:00","-6.3","","-11.2","","68","","27","","24","","24.1","","98.13","","","","-14","","Clear"
"2001-12-29 01:00","2001","12","29","01:00","-6.4","","-11.1","","69","","29","","15","","24.1","","98.10","","","","-12","","Clear"
"2001-12-29 02:00","2001","12","29","02:00","-6.6","","-10.9","","71","","27","","15","","24.1","","98.15","","","","-13","","Mainly Clear"
"2001-12-29 03:00","2001","12","29","03:00","-7.1","","-10.9","","74","","28","","9","","24.1","","98.17","","","","-11","","Mostly Cloudy"
"2001-12-29 04:00","2001","12","29","04:00","-7.1","","-10.6","","76","","31","","11","","24.1","","98.18","","","","-12","","Mainly Clear"
"2001-12-29 05:00","2001","12","29","05:00","-6.9","","-10.5","","75","","29","","7","","24.1","","98.18","","","","-10","","Mostly Cloudy"
"2001-12-29 06:00","2001","12","29","06:00","-5.8","","-10.3","","70","","28","","15","","24.1","","98.19","","","","-12","","Cloudy"
"2001-12-29 07:00","2001","12","29","07:00","-5.8","","-10.4","","70","","27","","19","","24.1","","98.22","","","","-12","","Mostly Cloudy"
"2001-12-29 08:00","2001","12","29","08:00","-6.7","","-10.5","","74","","27","","22","","19.3","","98.27","","","","-14","","Mainly Clear"
"2001-12-29 09:00","2001","12","29","09:00","-5.4","","-9.9","","71","","28","","24","","24.1","","98.35","","","","-13","","Mostly Cloudy"
"2001-12-29 10:00","2001","12","29","10:00","-5.2","","-9.7","","71","","29","","30","","19.3","","98.41","","","","-13","","Snow Showers"
"2001-12-29 11:00","2001","12","29","11:00","-4.8","","-9.6","","69","","27","","24","","24.1","","98.42","","","","-12","","Mostly Cloudy"
"2001-12-29 12:00","2001","12","29","12:00","-3.9","","-9.6","","65","","28","","20","","24.1","","98.40","","","","-10","","Mostly Cloudy"
"2001-12-29 13:00","2001","12","29","13:00","-2.3","","-10.5","","53","","27","","28","","24.1","","98.38","","","","-9","","Mainly Clear"
"2001-12-29 14:00","2001","12","29","14:00","-2.2","","-9.3","","58","","28","","32","","24.1","","98.43","","","","-10","","Mainly Clear"
"2001-12-29 15:00","2001","12","29","15:00","-2.8","","-10.0","","58","","27","","32","","24.1","","98.50","","","","-10","","Mainly Clear"
"2001-12-29 16:00","2001","12","29","16:00","-3.5","","-11.0","","56","","28","","28","","24.1","","98.56","","","","-11","","Mainly Clear"
"2001-12-29 17:00","2001","12","29","17:00","-4.2","","-11.0","","59","","27","","41","","24.1","","98.62","","","","-13","","Mainly Clear"
"2001-12-29 18:00","2001","12","29","18:00","-5.1","","-10.8","","64","","27","","28","","24.1","","98.71","","","","-13","","Mainly Clear"
"2001-12-29 19:00","2001","12","29","19:00","-5.9","","-9.8","","74","","26","","24","","24.1","","98.77","","","","-13","","Mainly Clear"
"2001-12-29 20:00","2001","12","29","20:00","-6.5","","-10.2","","75","","26","","24","","24.1","","98.82","","","","-14","","Mainly Clear"
"2001-12-29 21:00","2001","12","29","21:00","-6.7","","-10.5","","74","","26","","28","","24.1","","98.78","","","","-15","","Clear"
"2001-12-29 22:00","2001","12","29","22:00","-6.8","","-10.3","","76","","26","","22","","24.1","","98.77","","","","-14","","Clear"
"2001-12-29 23:00","2001","12","29","23:00","-6.6","","-10.0","","77","","25","","28","","24.1","","98.74","","","","-15","","Clear"
"2001-12-30 00:00","2001","12","30","00:00","-7.0","","-10.9","","74","","25","","35","","24.1","","98.71","","","","-16","","Clear"
"2001-12-30 01:00","2001","12","30","01:00","-6.6","","-10.2","","76","","25","","37","","24.1","","98.69","","","","-16","","Mainly Clear"
"2001-12-30 02:00","2001","12","30","02:00","-6.3","","-9.4","","79","","25","","35","","24.1","","98.72","","","","-15","","Clear"
"2001-12-30 03:00","2001","12","30","03:00","-5.9","","-8.6","","81","","25","","24","","12.9","","98.79","","","","-13","","Snow Showers"
"2001-12-30 04:00","2001","12","30","04:00","-5.3","","-9.7","","71","","26","","32","","24.1","","98.78","","","","-14","","Mainly Clear"
"2001-12-30 05:00","2001","12","30","05:00","-5.2","","-9.5","","72","","26","","32","","24.1","","98.78","","","","-13","","Mainly Clear"
"2001-12-30 06:00","2001","12","30","06:00","-5.1","","-9.8","","70","","27","","35","","24.1","","98.80","","","","-14","","Mostly Cloudy"
"2001-12-30 07:00","2001","12","30","07:00","-5.2","","-10.2","","68","","24","","22","","24.1","","98.81","","","","-12","","Mostly Cloudy"
"2001-12-30 08:00","2001","12","30","08:00","-5.7","","-9.9","","72","","25","","30","","24.1","","98.83","","","","-14","","Mostly Cloudy"
"2001-12-30 09:00","2001","12","30","09:00","-6.2","","-9.6","","77","","24","","30","","16.1","","98.87","","","","-15","","Snow Showers"
"2001-12-30 10:00","2001","12","30","10:00","-5.2","","-9.6","","71","","26","","28","","24.1","","98.89","","","","-13","","Snow Showers"
"2001-12-30 11:00","2001","12","30","11:00","-4.0","","-9.7","","64","","26","","37","","24.1","","98.86","","","","-12","","Mostly Cloudy"
"2001-12-30 12:00","2001","12","30","12:00","-3.8","","-10.6","","59","","26","","41","","24.1","","98.81","","","","-13","","Snow Showers"
"2001-12-30 13:00","2001","12","30","13:00","-3.5","","-10.2","","60","","27","","43","","24.1","","98.76","","","","-12","","Snow Showers"
"2001-12-30 14:00","2001","12","30","14:00","-3.0","","-10.3","","57","","27","","48","","24.1","","98.74","","","","-12","","Mainly Clear"
"2001-12-30 15:00","2001","12","30","15:00","-3.5","","-10.2","","60","","26","","44","","24.1","","98.83","","","","-12","","Mainly Clear"
"2001-12-30 16:00","2001","12","30","16:00","-4.5","","-10.1","","65","","25","","35","","16.1","","98.91","","","","-13","","Snow Showers"
"2001-12-30 17:00","2001","12","30","17:00","-5.4","","-9.9","","71","","24","","35","","16.1","","98.93","","","","-14","","Mostly Cloudy"
"2001-12-30 18:00","2001","12","30","18:00","-5.7","","-10.2","","71","","25","","32","","16.1","","98.94","","","","-14","","Mostly Cloudy"
"2001-12-30 19:00","2001","12","30","19:00","-5.8","","-10.2","","71","","25","","35","","24.1","","98.97","","","","-15","","Snow"
"2001-12-30 20:00","2001","12","30","20:00","-5.7","","-10.3","","70","","25","","28","","24.1","","99.00","","","","-14","","Snow"
"2001-12-30 21:00","2001","12","30","21:00","-5.7","","-10.3","","70","","25","","32","","24.1","","99.02","","","","-14","","Snow"
"2001-12-30 22:00","2001","12","30","22:00","-6.0","","-10.3","","72","","25","","30","","24.1","","98.99","","","","-14","","Snow"
"2001-12-30 23:00","2001","12","30","23:00","-6.1","","-9.7","","76","","25","","30","","11.3","","98.98","","","","-14","","Snow"
"2001-12-31 00:00","2001","12","31","00:00","-6.4","","-9.8","","77","","25","","24","","19.3","","98.99","","","","-14","","Snow"
"2001-12-31 01:00","2001","12","31","01:00","-6.0","","-9.6","","76","","25","","26","","16.1","","98.99","","","","-14","","Snow"
"2001-12-31 02:00","2001","12","31","02:00","-6.5","","-10.4","","74","","25","","20","","24.1","","99.01","","","","-13","","Clear"
"2001-12-31 03:00","2001","12","31","03:00","-6.6","","-10.5","","74","","25","","26","","24.1","","99.04","","","","-15","","Mainly Clear"
"2001-12-31 04:00","2001","12","31","04:00","-6.5","","-10.4","","74","","25","","24","","24.1","","99.01","","","","-14","","Mostly Cloudy"
"2001-12-31 05:00","2001","12","31","05:00","-6.4","","-10.2","","74","","25","","30","","16.1","","98.97","","","","-15","","Snow Showers"
"2001-12-31 06:00","2001","12","31","06:00","-6.1","","-10.0","","74","","25","","26","","12.9","","99.02","","","","-14","","Snow Showers"
"2001-12-31 07:00","2001","12","31","07:00","-5.8","","-10.1","","72","","25","","30","","12.9","","99.06","","","","-14","","Snow Showers"
"2001-12-31 08:00","2001","12","31","08:00","-5.9","","-10.3","","71","","25","","35","","14.5","","99.10","","","","-15","","Snow Showers"
"2001-12-31 09:00","2001","12","31","09:00","-5.5","","-10.2","","69","","25","","30","","16.1","","99.15","","","","-14","","Snow Showers"
"2001-12-31 10:00","2001","12","31","10:00","-4.8","","-9.6","","69","","26","","32","","12.9","","99.17","","","","-13","","Snow Showers"
"2001-12-31 11:00","2001","12","31","11:00","-3.7","","-9.5","","64","","26","","44","","19.3","","99.18","","","","-13","","Mainly Clear"
"2001-12-31 12:00","2001","12","31","12:00","-2.6","","-9.2","","60","","26","","39","","24.1","","99.18","","","","-11","","Snow Showers"
"2001-12-31 13:00","2001","12","31","13:00","-2.4","","-9.4","","59","","27","","41","","19.3","","99.14","","","","-11","","Snow Showers"
"2001-12-31 14:00","2001","12","31","14:00","-3.1","","-9.1","","63","","27","","41","","14.5","","99.14","","","","-12","","Snow Showers"
"2001-12-31 15:00","2001","12","31","15:00","-3.2","","-9.1","","64","","27","","39","","14.5","","99.19","","","","-12","","Snow Showers"
"2001-12-31 16:00","2001","12","31","16:00","-3.7","","-9.1","","66","","25","","30","","19.3","","99.20","","","","-11","","Mainly Clear"
"2001-12-31 17:00","2001","12","31","17:00","-4.4","","-8.9","","71","","26","","35","","12.9","","99.28","","","","-13","","Snow Showers"
"2001-12-31 18:00","2001","12","31","18:00","-5.1","","-9.2","","73","","25","","32","","24.1","","99.35","","","","-13","","Snow Showers"
"2001-12-31 19:00","2001","12","31","19:00","-5.7","","-9.8","","73","","25","","22","","24.1","","99.43","","","","-13","","Snow Showers"
"2001-12-31 20:00","2001","12","31","20:00","-6.1","","-10.2","","73","","25","","22","","24.1","","99.48","","","","-13","","Mainly Clear"
"2001-12-31 21:00","2001","12","31","21:00","-5.8","","-10.1","","72","","25","","20","","24.1","","99.48","","","","-13","","Mostly Cloudy"
"2001-12-31 22:00","2001","12","31","22:00","-6.0","","-10.3","","72","","26","","17","","24.1","","99.44","","","","-12","","Mainly Clear"
"2001-12-31 23:00","2001","12","31","23:00","-6.1","","-10.3","","72","","26","","20","","24.1","","99.42","","","","-13","","Mainly Clear"
