"Station Name","TORONTO LESTER B. PEARSON INT'L A"
"Province","ONTARIO"
"Latitude","43.68"
"Longitude","-79.63"
"Elevation","173.40"
"Climate Identifier","6158733"
"WMO Identifier","71624"
"TC Identifier","YYZ"
"All times are specified in Local Standard Time (LST). Add 1 hour to adjust for Daylight Saving Time where and when it is observed."

"Legend"
"E","Estimated"
"M","Missing"
"NA","Not Available"

"Date/Time","Year","Month","Day","Time","Temp (°C)","Temp Flag","Dew Point Temp (°C)","Dew Point Temp Flag","Rel Hum (%)","Rel Hum Flag","Wind Dir (10s deg)","Wind Dir Flag","Wind Spd (km/h)","Wind Spd Flag","Visibility (km)","Visibility Flag","Stn Press (kPa)","Stn Press Flag","Hmdx","Hmdx Flag","Wind Chill","Wind Chill Flag","Weather"
"1965-09-01 00:00","1965","09","01","00:00","15.0","","15.0","","98","","34","","5","","4.8","","98.85","","","","","","Fog"
"1965-09-01 01:00","1965","09","01","01:00","14.4","","14.4","","98","","2","","3","","4.8","","98.81","","","","","","Fog"
"1965-09-01 02:00","1965","09","01","02:00","15.0","","14.4","","97","","20","","3","","4.8","","98.73","","","","","","Rain Showers,Fog"
"1965-09-01 03:00","1965","09","01","03:00","14.4","","14.4","","98","","34","","6","","4.8","","98.74","","","","","","Rain Showers,Fog"
"1965-09-01 04:00","1965","09","01","04:00","15.0","","15.0","","98","","20","","8","","4.8","","98.76","","","","","","Rain Showers,Fog"
"1965-09-01 05:00","1965","09","01","05:00","15.0","","15.0","","98","","29","","6","","4.0","","98.72","","","","","","Rain,Fog"
"1965-09-01 06:00","1965","09","01","06:00","15.0","","15.0","","98","","18","","3","","2.0","","98.66","","","","","","Rain,Fog"
"1965-09-01 07:00","1965","09","01","07:00","14.4","","14.4","","98","","25","","6","","2.0","","98.70","","","","","","Drizzle,Fog"
"1965-09-01 08:00","1965","09","01","08:00","15.0","","15.0","","98","","23","","6","","2.0","","98.74","","","","","","Rain Showers,Fog"
"1965-09-01 09:00","1965","09","01","09:00","15.0","","14.4","","97","","20","","3","","3.2","","98.77","","","","","","Rain,Fog"
"1965-09-01 10:00","1965","09","01","10:00","15.6","","14.4","","93","","27","","13","","3.2","","98.76","","","","","","Rain,Fog"
"1965-09-01 11:00","1965","09","01","11:00","16.1","","14.4","","91","","27","","13","","4.8","","98.80","","","","","","Fog"
"1965-09-01 12:00","1965","09","01","12:00","17.2","","14.4","","83","","23","","18","","9.7","","98.84","","","","","","Haze"
"1965-09-01 13:00","1965","09","01","13:00","18.9","","14.4","","75","","25","","19","","9.7","","98.87","","","","","","Haze"
"1965-09-01 14:00","1965","09","01","14:00","19.4","","13.3","","68","","25","","19","","11.3","","98.88","","","","","","Rain Showers"
"1965-09-01 15:00","1965","09","01","15:00","19.4","","14.4","","73","","23","","16","","24.1","","98.86","","","","","","Mostly Cloudy"
"1965-09-01 16:00","1965","09","01","16:00","19.4","","13.9","","71","","36","","11","","40.2","","98.87","","","","","","Mostly Cloudy"
"1965-09-01 17:00","1965","09","01","17:00","20.0","","9.4","","50","","27","","23","","40.2","","98.91","","","","","","Mostly Cloudy"
"1965-09-01 18:00","1965","09","01","18:00","18.3","","8.3","","53","","27","","23","","40.2","","98.99","","","","","","Mostly Cloudy"
"1965-09-01 19:00","1965","09","01","19:00","16.7","","10.0","","64","","25","","13","","40.2","","99.07","","","","","","Mostly Cloudy"
"1965-09-01 20:00","1965","09","01","20:00","15.0","","9.4","","69","","25","","19","","40.2","","99.16","","","","","","Mostly Cloudy"
"1965-09-01 21:00","1965","09","01","21:00","13.3","","9.4","","78","","27","","13","","40.2","","99.27","","","","","","Mainly Clear"
"1965-09-01 22:00","1965","09","01","22:00","12.2","","10.0","","87","","27","","16","","40.2","","99.35","","","","","","Mainly Clear"
"1965-09-01 23:00","1965","09","01","23:00","12.2","","10.0","","85","","27","","16","","40.2","","99.40","","","","","","Mainly Clear"
"1965-09-02 00:00","1965","09","02","00:00","11.1","","8.9","","87","","25","","14","","25.0","","99.46","","","","","","Clear"
"1965-09-02 01:00","1965","09","02","01:00","10.6","","8.9","","88","","27","","13","","25.0","","99.52","","","","","","Clear"
"1965-09-02 02:00","1965","09","02","02:00","10.6","","8.9","","90","","27","","14","","25.0","","99.56","","","","","","Clear"
"1965-09-02 03:00","1965","09","02","03:00","9.4","","8.3","","94","","29","","16","","25.0","","99.61","","","","","","Clear"
"1965-09-02 04:00","1965","09","02","04:00","9.4","","8.3","","92","","27","","13","","25.0","","99.69","","","","","","Clear"
"1965-09-02 05:00","1965","09","02","05:00","10.6","","8.9","","88","","27","","16","","25.0","","99.77","","","","","","Clear"
"1965-09-02 06:00","1965","09","02","06:00","9.4","","8.3","","92","","27","","8","","40.2","","99.85","","","","","","Mainly Clear"
"1965-09-02 07:00","1965","09","02","07:00","10.6","","8.9","","90","","27","","10","","40.2","","99.93","","","","","","Mainly Clear"
"1965-09-02 08:00","1965","09","02","08:00","14.4","","11.7","","85","","27","","13","","40.2","","99.97","","","","","","Mainly Clear"
"1965-09-02 09:00","1965","09","02","09:00","17.2","","12.2","","74","","27","","19","","32.2","","100.00","","","","","","Mainly Clear"
"1965-09-02 10:00","1965","09","02","10:00","18.9","","11.7","","62","","27","","23","","32.2","","100.02","","","","","","Mainly Clear"
"1965-09-02 11:00","1965","09","02","11:00","20.6","","10.6","","52","","27","","19","","32.2","","100.03","","","","","","Mainly Clear"
"1965-09-02 12:00","1965","09","02","12:00","20.0","","10.0","","52","","27","","13","","32.2","","100.03","","","","","","Mostly Cloudy"
"1965-09-02 13:00","1965","09","02","13:00","20.6","","10.0","","51","","25","","13","","32.2","","100.02","","","","","","Mostly Cloudy"
"1965-09-02 14:00","1965","09","02","14:00","20.6","","9.4","","49","","25","","13","","32.2","","100.00","","","","","","Mostly Cloudy"
"1965-09-02 15:00","1965","09","02","15:00","21.1","","8.9","","45","","27","","10","","32.2","","99.97","","","","","","Mostly Cloudy"
"1965-09-02 16:00","1965","09","02","16:00","21.7","","8.9","","45","","23","","19","","40.2","","99.96","","","","","","Mostly Cloudy"
"1965-09-02 17:00","1965","09","02","17:00","19.4","","11.1","","58","","18","","19","","40.2","","99.94","","","","","","Mainly Clear"
"1965-09-02 18:00","1965","09","02","18:00","20.0","","10.6","","55","","23","","13","","40.2","","99.94","","","","","","Mainly Clear"
"1965-09-02 19:00","1965","09","02","19:00","17.8","","12.2","","70","","18","","13","","40.2","","99.95","","","","","","Mainly Clear"
"1965-09-02 20:00","1965","09","02","20:00","16.1","","12.2","","77","","18","","10","","40.2","","100.02","","","","","","Mainly Clear"
"1965-09-02 21:00","1965","09","02","21:00","13.9","","11.1","","85","","23","","8","","40.2","","100.03","","","","","","Clear"
"1965-09-02 22:00","1965","09","02","22:00","13.9","","11.1","","83","","27","","6","","40.2","","100.04","","","","","","Clear"
"1965-09-02 23:00","1965","09","02","23:00","12.8","","10.6","","87","","29","","8","","25.0","","100.04","","","","","","Clear"
"1965-09-03 00:00","1965","09","03","00:00","11.7","","10.0","","89","","34","","6","","25.0","","100.05","","","","","","Clear"
"1965-09-03 01:00","1965","09","03","01:00","8.9","","7.2","","90","","32","","5","","25.0","","100.06","","","","","","Clear"
"1965-09-03 02:00","1965","09","03","02:00","9.4","","8.9","","98","","27","","3","","25.0","","100.09","","","","","","Clear"
"1965-09-03 03:00","1965","09","03","03:00","8.9","","8.3","","98","","34","","3","","8.0","","100.08","","","","","","Fog"
"1965-09-03 04:00","1965","09","03","04:00","6.7","","6.7","","100","","32","","5","","6.4","","100.08","","","","","","Fog"
"1965-09-03 05:00","1965","09","03","05:00","6.7","","6.7","","100","","34","","6","","11.3","","100.09","","","","","","Mostly Cloudy"
"1965-09-03 06:00","1965","09","03","06:00","7.8","","7.2","","98","","34","","13","","9.7","","100.11","","","","","","Fog"
"1965-09-03 07:00","1965","09","03","07:00","9.4","","8.9","","96","","2","","6","","4.8","","100.15","","","","","","Fog"
"1965-09-03 08:00","1965","09","03","08:00","12.8","","11.1","","89","","2","","3","","4.0","","100.13","","","","","","Fog"
"1965-09-03 09:00","1965","09","03","09:00","16.7","","12.2","","75","","14","","5","","4.0","","100.13","","","","","","Haze"
"1965-09-03 10:00","1965","09","03","10:00","17.8","","12.8","","72","","16","","10","","4.0","","100.13","","","","","","Haze"
"1965-09-03 11:00","1965","09","03","11:00","19.4","","12.8","","66","","11","","10","","8.0","","100.08","","","","","","Haze"
"1965-09-03 12:00","1965","09","03","12:00","20.6","","11.1","","56","","16","","10","","9.7","","100.01","","","","","","Haze"
"1965-09-03 13:00","1965","09","03","13:00","21.1","","11.7","","55","","14","","16","","9.7","","99.98","","","","","","Haze"
"1965-09-03 14:00","1965","09","03","14:00","21.1","","12.2","","56","","11","","13","","9.7","","99.93","","","","","","Haze"
"1965-09-03 15:00","1965","09","03","15:00","22.2","","11.1","","50","","14","","16","","9.7","","99.88","","","","","","Haze"
"1965-09-03 16:00","1965","09","03","16:00","21.7","","10.6","","49","","14","","16","","12.9","","99.88","","","","","","Mostly Cloudy"
"1965-09-03 17:00","1965","09","03","17:00","20.6","","11.1","","54","","14","","16","","11.3","","99.91","","","","","","Mostly Cloudy"
"1965-09-03 18:00","1965","09","03","18:00","18.9","","11.7","","64","","11","","16","","12.9","","99.93","","","","","","Mostly Cloudy"
"1965-09-03 19:00","1965","09","03","19:00","17.2","","12.2","","72","","14","","3","","12.9","","99.96","","","","","","Mostly Cloudy"
"1965-09-03 20:00","1965","09","03","20:00","16.7","","11.1","","69","","","","0","","16.1","","100.01","","","","","","Mostly Cloudy"
"1965-09-03 21:00","1965","09","03","21:00","13.9","","11.1","","85","","2","","6","","19.3","","100.02","","","","","","Mostly Cloudy"
"1965-09-03 22:00","1965","09","03","22:00","11.7","","10.6","","93","","29","","10","","12.9","","100.03","","","","","","Mainly Clear"
"1965-09-03 23:00","1965","09","03","23:00","11.1","","10.0","","94","","36","","10","","12.9","","100.03","","","","","","Mainly Clear"
"1965-09-04 00:00","1965","09","04","00:00","10.6","","9.4","","94","","32","","10","","12.9","","100.03","","","","","","Mainly Clear"
"1965-09-04 01:00","1965","09","04","01:00","10.6","","10.0","","96","","32","","8","","12.9","","100.01","","","","","","Mainly Clear"
"1965-09-04 02:00","1965","09","04","02:00","11.1","","10.6","","96","","36","","11","","11.3","","99.99","","","","","","Mostly Cloudy"
"1965-09-04 03:00","1965","09","04","03:00","10.6","","10.0","","96","","34","","11","","11.3","","99.99","","","","","","Mostly Cloudy"
"1965-09-04 04:00","1965","09","04","04:00","10.0","","9.4","","96","","29","","10","","11.3","","100.03","","","","","","Mostly Cloudy"
"1965-09-04 05:00","1965","09","04","05:00","11.1","","10.0","","94","","2","","8","","11.3","","100.06","","","","","","Mostly Cloudy"
"1965-09-04 06:00","1965","09","04","06:00","10.0","","9.4","","96","","2","","6","","4.8","","100.09","","","","","","Fog"
"1965-09-04 07:00","1965","09","04","07:00","11.1","","10.6","","98","","29","","3","","4.8","","100.13","","","","","","Fog"
"1965-09-04 08:00","1965","09","04","08:00","13.9","","12.8","","93","","","","0","","4.0","","100.20","","","","","","Fog"
"1965-09-04 09:00","1965","09","04","09:00","17.2","","15.0","","85","","9","","5","","4.0","","100.22","","","","","","Fog"
"1965-09-04 10:00","1965","09","04","10:00","20.0","","15.0","","72","","16","","6","","8.0","","100.24","","","","","","Haze"
"1965-09-04 11:00","1965","09","04","11:00","20.6","","15.0","","71","","14","","13","","9.7","","100.24","","25","","","","Haze"
"1965-09-04 12:00","1965","09","04","12:00","21.1","","15.0","","68","","14","","16","","9.7","","100.24","","25","","","","Haze"
"1965-09-04 13:00","1965","09","04","13:00","21.1","","15.0","","68","","14","","16","","8.0","","100.19","","25","","","","Haze"
"1965-09-04 14:00","1965","09","04","14:00","21.7","","15.0","","65","","11","","19","","8.0","","100.17","","26","","","","Haze"
"1965-09-04 15:00","1965","09","04","15:00","23.3","","15.6","","61","","11","","18","","8.0","","100.11","","28","","","","Haze"
"1965-09-04 16:00","1965","09","04","16:00","23.3","","15.6","","61","","11","","14","","8.0","","100.11","","28","","","","Haze"
"1965-09-04 17:00","1965","09","04","17:00","21.7","","14.4","","63","","9","","18","","8.0","","100.10","","25","","","","Haze"
"1965-09-04 18:00","1965","09","04","18:00","20.6","","14.4","","67","","9","","16","","8.0","","100.06","","","","","","Haze"
"1965-09-04 19:00","1965","09","04","19:00","20.0","","13.9","","68","","9","","13","","8.0","","99.99","","","","","","Haze"
"1965-09-04 20:00","1965","09","04","20:00","18.3","","13.9","","76","","9","","10","","8.0","","99.99","","","","","","Haze"
"1965-09-04 21:00","1965","09","04","21:00","17.8","","14.4","","80","","9","","6","","9.7","","99.99","","","","","","Haze"
"1965-09-04 22:00","1965","09","04","22:00","16.1","","13.3","","85","","","","0","","8.0","","100.01","","","","","","Haze"
"1965-09-04 23:00","1965","09","04","23:00","16.7","","14.4","","87","","","","0","","8.0","","100.00","","","","","","Haze"
"1965-09-05 00:00","1965","09","05","00:00","16.1","","14.4","","91","","14","","11","","8.0","","99.98","","","","","","Fog"
"1965-09-05 01:00","1965","09","05","01:00","16.1","","14.4","","89","","14","","13","","8.0","","99.96","","","","","","Fog"
"1965-09-05 02:00","1965","09","05","02:00","16.1","","13.3","","85","","11","","16","","11.3","","99.90","","","","","","Cloudy"
"1965-09-05 03:00","1965","09","05","03:00","15.6","","13.3","","87","","11","","16","","12.9","","99.90","","","","","","Mostly Cloudy"
"1965-09-05 04:00","1965","09","05","04:00","16.1","","13.3","","83","","11","","16","","16.1","","99.91","","","","","","Mostly Cloudy"
"1965-09-05 05:00","1965","09","05","05:00","15.6","","13.3","","85","","11","","16","","16.1","","99.92","","","","","","Mostly Cloudy"
"1965-09-05 06:00","1965","09","05","06:00","15.6","","13.3","","85","","11","","18","","9.7","","99.92","","","","","","Haze"
"1965-09-05 07:00","1965","09","05","07:00","15.6","","13.3","","85","","14","","13","","9.7","","99.96","","","","","","Rain Showers,Haze"
"1965-09-05 08:00","1965","09","05","08:00","16.7","","13.3","","81","","14","","13","","8.0","","99.93","","","","","","Rain Showers,Haze"
"1965-09-05 09:00","1965","09","05","09:00","16.7","","15.0","","89","","14","","16","","8.0","","99.91","","","","","","Rain,Fog"
"1965-09-05 10:00","1965","09","05","10:00","16.7","","15.6","","94","","11","","6","","4.0","","99.97","","","","","","Rain,Fog"
"1965-09-05 11:00","1965","09","05","11:00","16.7","","15.6","","94","","14","","11","","4.8","","99.98","","","","","","Rain Showers,Fog"
"1965-09-05 12:00","1965","09","05","12:00","17.2","","16.1","","94","","16","","10","","4.0","","99.96","","","","","","Rain,Fog"
"1965-09-05 13:00","1965","09","05","13:00","17.2","","16.7","","96","","18","","14","","4.8","","99.96","","","","","","Rain,Fog"
"1965-09-05 14:00","1965","09","05","14:00","17.8","","17.2","","96","","18","","16","","4.8","","99.95","","","","","","Rain,Fog"
"1965-09-05 15:00","1965","09","05","15:00","18.3","","17.8","","96","","18","","16","","4.8","","99.98","","","","","","Rain,Fog"
"1965-09-05 16:00","1965","09","05","16:00","18.9","","17.8","","94","","23","","13","","6.4","","100.02","","","","","","Fog"
"1965-09-05 17:00","1965","09","05","17:00","19.4","","18.3","","92","","20","","18","","4.8","","100.03","","","","","","Fog"
"1965-09-05 18:00","1965","09","05","18:00","19.4","","18.3","","92","","20","","13","","4.8","","100.06","","","","","","Fog"
"1965-09-05 19:00","1965","09","05","19:00","19.4","","18.3","","92","","20","","13","","4.8","","100.10","","","","","","Fog"
"1965-09-05 20:00","1965","09","05","20:00","18.9","","17.8","","94","","18","","6","","6.4","","100.15","","","","","","Fog"
"1965-09-05 21:00","1965","09","05","21:00","18.3","","17.8","","96","","20","","5","","9.7","","100.21","","","","","","Fog"
"1965-09-05 22:00","1965","09","05","22:00","16.7","","16.1","","98","","32","","6","","4.0","","100.24","","","","","","Fog"
"1965-09-05 23:00","1965","09","05","23:00","17.2","","16.7","","98","","27","","5","","6.4","","100.28","","","","","","Fog"
"1965-09-06 00:00","1965","09","06","00:00","16.1","","15.6","","98","","34","","16","","9.7","","100.36","","","","","","Fog"
"1965-09-06 01:00","1965","09","06","01:00","15.6","","13.3","","87","","34","","24","","25.0","","100.41","","","","","","Mainly Clear"
"1965-09-06 02:00","1965","09","06","02:00","15.0","","13.9","","92","","36","","19","","25.0","","100.46","","","","","","Clear"
"1965-09-06 03:00","1965","09","06","03:00","13.9","","11.1","","85","","34","","23","","25.0","","100.51","","","","","","Clear"
"1965-09-06 04:00","1965","09","06","04:00","12.8","","10.0","","82","","36","","21","","25.0","","100.58","","","","","","Clear"
"1965-09-06 05:00","1965","09","06","05:00","11.1","","8.9","","85","","36","","13","","25.0","","100.62","","","","","","Mainly Clear"
"1965-09-06 06:00","1965","09","06","06:00","11.1","","7.8","","81","","34","","23","","40.2","","100.72","","","","","","Mainly Clear"
"1965-09-06 07:00","1965","09","06","07:00","11.1","","7.8","","79","","34","","21","","40.2","","100.74","","","","","","Mostly Cloudy"
"1965-09-06 08:00","1965","09","06","08:00","12.2","","8.9","","80","","36","","24","","40.2","","100.77","","","","","","Mostly Cloudy"
"1965-09-06 09:00","1965","09","06","09:00","13.9","","8.9","","71","","34","","23","","40.2","","100.84","","","","","","Mainly Clear"
"1965-09-06 10:00","1965","09","06","10:00","15.6","","10.6","","71","","36","","19","","40.2","","100.84","","","","","","Mainly Clear"
"1965-09-06 11:00","1965","09","06","11:00","17.2","","10.6","","64","","36","","16","","40.2","","100.79","","","","","","Mainly Clear"
"1965-09-06 12:00","1965","09","06","12:00","18.3","","11.1","","62","","2","","16","","40.2","","100.73","","","","","","Mostly Cloudy"
"1965-09-06 13:00","1965","09","06","13:00","20.6","","12.2","","59","","36","","16","","40.2","","100.74","","","","","","Mostly Cloudy"
"1965-09-06 14:00","1965","09","06","14:00","19.4","","10.0","","54","","36","","14","","40.2","","100.72","","","","","","Mostly Cloudy"
"1965-09-06 15:00","1965","09","06","15:00","20.6","","10.0","","51","","36","","14","","40.2","","100.69","","","","","","Mostly Cloudy"
"1965-09-06 16:00","1965","09","06","16:00","20.0","","8.3","","47","","36","","14","","40.2","","100.69","","","","","","Mostly Cloudy"
"1965-09-06 17:00","1965","09","06","17:00","18.9","","9.4","","54","","36","","16","","40.2","","100.68","","","","","","Mostly Cloudy"
"1965-09-06 18:00","1965","09","06","18:00","17.8","","9.4","","57","","36","","11","","40.2","","100.67","","","","","","Cloudy"
"1965-09-06 19:00","1965","09","06","19:00","16.7","","11.7","","71","","36","","16","","40.2","","100.64","","","","","","Cloudy"
"1965-09-06 20:00","1965","09","06","20:00","15.6","","11.7","","77","","36","","10","","40.2","","100.66","","","","","","Cloudy"
"1965-09-06 21:00","1965","09","06","21:00","14.4","","11.1","","81","","32","","10","","25.0","","100.63","","","","","","Mostly Cloudy"
"1965-09-06 22:00","1965","09","06","22:00","13.3","","11.1","","88","","32","","3","","25.0","","100.61","","","","","","Cloudy"
"1965-09-06 23:00","1965","09","06","23:00","13.3","","11.7","","89","","32","","6","","25.0","","100.62","","","","","","Cloudy"
"1965-09-07 00:00","1965","09","07","00:00","13.3","","11.1","","88","","36","","11","","25.0","","100.58","","","","","","Mostly Cloudy"
"1965-09-07 01:00","1965","09","07","01:00","15.0","","11.1","","77","","9","","13","","25.0","","100.52","","","","","","Mostly Cloudy"
"1965-09-07 02:00","1965","09","07","02:00","15.0","","11.1","","77","","11","","8","","25.0","","100.46","","","","","","Cloudy"
"1965-09-07 03:00","1965","09","07","03:00","15.0","","10.6","","74","","9","","11","","25.0","","100.39","","","","","","Cloudy"
"1965-09-07 04:00","1965","09","07","04:00","14.4","","10.6","","78","","11","","14","","25.0","","100.31","","","","","","Mostly Cloudy"
"1965-09-07 05:00","1965","09","07","05:00","14.4","","12.2","","86","","11","","8","","25.0","","100.33","","","","","","Mostly Cloudy"
"1965-09-07 06:00","1965","09","07","06:00","14.4","","12.8","","90","","11","","10","","32.2","","100.32","","","","","","Mostly Cloudy"
"1965-09-07 07:00","1965","09","07","07:00","15.6","","13.9","","90","","9","","11","","24.1","","100.29","","","","","","Mostly Cloudy"
"1965-09-07 08:00","1965","09","07","08:00","16.7","","14.4","","85","","9","","5","","11.3","","100.28","","","","","","Mostly Cloudy"
"1965-09-07 09:00","1965","09","07","09:00","17.8","","14.4","","80","","14","","14","","11.3","","100.23","","","","","","Mostly Cloudy"
"1965-09-07 10:00","1965","09","07","10:00","18.3","","13.9","","74","","16","","6","","11.3","","100.20","","","","","","Mostly Cloudy"
"1965-09-07 11:00","1965","09","07","11:00","20.0","","15.0","","72","","14","","8","","12.9","","100.14","","","","","","Mostly Cloudy"
"1965-09-07 12:00","1965","09","07","12:00","20.0","","15.0","","72","","16","","13","","11.3","","100.07","","","","","","Mostly Cloudy"
"1965-09-07 13:00","1965","09","07","13:00","18.9","","15.0","","78","","16","","14","","11.3","","100.01","","","","","","Mostly Cloudy"
"1965-09-07 14:00","1965","09","07","14:00","18.3","","15.0","","80","","14","","14","","11.3","","99.93","","","","","","Cloudy"
"1965-09-07 15:00","1965","09","07","15:00","19.4","","15.6","","79","","16","","11","","9.7","","99.90","","","","","","Haze"
"1965-09-07 16:00","1965","09","07","16:00","18.9","","15.6","","80","","14","","14","","6.4","","99.79","","","","","","Haze"
"1965-09-07 17:00","1965","09","07","17:00","17.8","","14.4","","82","","18","","13","","6.4","","99.80","","","","","","Haze"
"1965-09-07 18:00","1965","09","07","18:00","17.8","","15.6","","86","","16","","13","","6.4","","99.75","","","","","","Rain Showers,Haze"
"1965-09-07 19:00","1965","09","07","19:00","17.2","","15.0","","87","","20","","5","","6.4","","99.72","","","","","","Rain Showers,Haze"
"1965-09-07 20:00","1965","09","07","20:00","16.7","","15.0","","89","","14","","8","","8.0","","99.74","","","","","","Fog"
"1965-09-07 21:00","1965","09","07","21:00","16.7","","15.0","","89","","18","","5","","11.3","","99.69","","","","","","Cloudy"
"1965-09-07 22:00","1965","09","07","22:00","17.2","","15.6","","90","","18","","3","","11.3","","99.63","","","","","","Cloudy"
"1965-09-07 23:00","1965","09","07","23:00","17.2","","15.6","","90","","18","","3","","6.4","","99.61","","","","","","Fog"
"1965-09-08 00:00","1965","09","08","00:00","17.8","","16.1","","90","","36","","5","","6.4","","99.58","","","","","","Fog"
"1965-09-08 01:00","1965","09","08","01:00","17.8","","16.7","","92","","","","0","","6.4","","99.55","","","","","","Fog"
"1965-09-08 02:00","1965","09","08","02:00","17.8","","16.7","","94","","20","","5","","6.4","","99.52","","","","","","Fog"
"1965-09-08 03:00","1965","09","08","03:00","18.3","","17.8","","96","","29","","6","","4.8","","99.51","","","","","","Fog"
"1965-09-08 04:00","1965","09","08","04:00","17.2","","16.7","","96","","36","","21","","4.8","","99.57","","","","","","Thunderstorms,Rain Showers,Fog"
"1965-09-08 05:00","1965","09","08","05:00","16.1","","15.0","","93","","34","","19","","19.3","","99.61","","","","","","Rain Showers"
"1965-09-08 06:00","1965","09","08","06:00","16.1","","15.0","","93","","34","","16","","9.7","","99.66","","","","","","Rain Showers,Fog"
"1965-09-08 07:00","1965","09","08","07:00","16.1","","14.4","","91","","34","","26","","9.7","","99.75","","","","","","Fog"
"1965-09-08 08:00","1965","09","08","08:00","16.1","","14.4","","89","","34","","19","","24.1","","99.81","","","","","","Mostly Cloudy"
"1965-09-08 09:00","1965","09","08","09:00","16.7","","14.4","","87","","34","","23","","32.2","","99.84","","","","","","Mostly Cloudy"
"1965-09-08 10:00","1965","09","08","10:00","17.8","","13.3","","74","","36","","19","","32.2","","99.90","","","","","","Mostly Cloudy"
"1965-09-08 11:00","1965","09","08","11:00","20.0","","13.9","","68","","36","","19","","40.2","","99.91","","","","","","Mostly Cloudy"
"1965-09-08 12:00","1965","09","08","12:00","19.4","","12.2","","63","","36","","21","","40.2","","99.91","","","","","","Mainly Clear"
"1965-09-08 13:00","1965","09","08","13:00","20.6","","11.7","","57","","2","","16","","40.2","","99.91","","","","","","Mainly Clear"
"1965-09-08 14:00","1965","09","08","14:00","20.6","","12.2","","59","","2","","13","","40.2","","99.88","","","","","","Mainly Clear"
"1965-09-08 15:00","1965","09","08","15:00","21.1","","12.2","","58","","2","","11","","40.2","","99.84","","","","","","Mainly Clear"
"1965-09-08 16:00","1965","09","08","16:00","21.1","","12.2","","56","","5","","6","","40.2","","99.83","","","","","","Mainly Clear"
"1965-09-08 17:00","1965","09","08","17:00","18.9","","14.4","","77","","16","","13","","40.2","","99.85","","","","","","Mostly Cloudy"
"1965-09-08 18:00","1965","09","08","18:00","17.8","","14.4","","80","","16","","13","","24.1","","99.86","","","","","","Mostly Cloudy"
"1965-09-08 19:00","1965","09","08","19:00","16.7","","14.4","","85","","18","","8","","12.9","","99.85","","","","","","Mostly Cloudy"
"1965-09-08 20:00","1965","09","08","20:00","15.6","","14.4","","93","","16","","5","","12.9","","99.88","","","","","","Mostly Cloudy"
"1965-09-08 21:00","1965","09","08","21:00","14.4","","13.9","","95","","","","0","","6.4","","99.89","","","","","","Fog"
"1965-09-08 22:00","1965","09","08","22:00","13.9","","13.3","","96","","34","","10","","6.4","","99.88","","","","","","Fog"
"1965-09-08 23:00","1965","09","08","23:00","12.8","","11.7","","95","","34","","10","","9.7","","99.88","","","","","","Fog"
"1965-09-09 00:00","1965","09","09","00:00","12.2","","11.1","","93","","36","","10","","24.1","","99.84","","","","","","Mostly Cloudy"
"1965-09-09 01:00","1965","09","09","01:00","10.6","","10.0","","96","","34","","6","","19.3","","99.84","","","","","","Mainly Clear"
"1965-09-09 02:00","1965","09","09","02:00","9.4","","8.9","","98","","32","","5","","19.3","","99.84","","","","","","Mainly Clear"
"1965-09-09 03:00","1965","09","09","03:00","10.0","","9.4","","98","","","","0","","12.9","","99.80","","","","","","Mainly Clear"
"1965-09-09 04:00","1965","09","09","04:00","11.1","","10.6","","98","","","","0","","3.2","","99.78","","","","","","Fog"
"1965-09-09 05:00","1965","09","09","05:00","12.2","","11.7","","98","","36","","3","","4.0","","99.79","","","","","","Fog"
"1965-09-09 06:00","1965","09","09","06:00","12.2","","11.7","","98","","2","","2","","2.4","","99.78","","","","","","Fog"
"1965-09-09 07:00","1965","09","09","07:00","13.3","","13.3","","98","","36","","5","","4.0","","99.74","","","","","","Fog"
"1965-09-09 08:00","1965","09","09","08:00","15.6","","15.0","","95","","11","","3","","4.0","","99.74","","","","","","Fog"
"1965-09-09 09:00","1965","09","09","09:00","17.2","","14.4","","83","","14","","13","","8.0","","99.67","","","","","","Haze"
"1965-09-09 10:00","1965","09","09","10:00","18.3","","15.0","","80","","14","","14","","9.7","","99.62","","","","","","Haze"
"1965-09-09 11:00","1965","09","09","11:00","17.8","","15.6","","86","","16","","13","","6.4","","99.60","","","","","","Rain,Fog"
"1965-09-09 12:00","1965","09","09","12:00","16.7","","15.6","","94","","11","","14","","3.2","","99.53","","","","","","Rain,Fog"
"1965-09-09 13:00","1965","09","09","13:00","16.7","","15.6","","94","","16","","11","","1.2","","99.47","","","","","","Rain,Fog"
"1965-09-09 14:00","1965","09","09","14:00","16.7","","16.1","","96","","14","","13","","0.8","","99.33","","","","","","Rain,Fog"
"1965-09-09 15:00","1965","09","09","15:00","16.1","","15.6","","98","","14","","14","","0.8","","99.29","","","","","","Rain,Fog"
"1965-09-09 16:00","1965","09","09","16:00","16.1","","15.6","","98","","11","","11","","0.2","","99.12","","","","","","Fog"
"1965-09-09 17:00","1965","09","09","17:00","16.7","","16.7","","100","","16","","10","","0.2","","99.11","","","","","","Fog"
"1965-09-09 18:00","1965","09","09","18:00","17.8","","17.8","","100","","14","","10","","0.8","","99.09","","","","","","Fog"
"1965-09-09 19:00","1965","09","09","19:00","18.3","","18.3","","100","","18","","10","","0.8","","99.09","","","","","","Thunderstorms,Rain Showers,Fog"
"1965-09-09 20:00","1965","09","09","20:00","20.6","","20.0","","96","","20","","14","","6.4","","99.04","","28","","","","Fog"
"1965-09-09 21:00","1965","09","09","21:00","18.9","","18.3","","98","","16","","14","","0.8","","98.92","","","","","","Fog"
"1965-09-09 22:00","1965","09","09","22:00","19.4","","18.9","","98","","16","","13","","1.2","","98.94","","","","","","Fog"
"1965-09-09 23:00","1965","09","09","23:00","21.7","","20.6","","92","","20","","23","","3.2","","98.95","","30","","","","Fog"
"1965-09-10 00:00","1965","09","10","00:00","22.2","","20.6","","89","","20","","23","","6.4","","98.91","","30","","","","Fog"
"1965-09-10 01:00","1965","09","10","01:00","22.2","","19.4","","85","","23","","24","","6.4","","98.88","","29","","","","Haze"
"1965-09-10 02:00","1965","09","10","02:00","22.2","","19.4","","85","","23","","24","","8.0","","98.87","","29","","","","Haze"
"1965-09-10 03:00","1965","09","10","03:00","22.2","","19.4","","85","","23","","21","","8.0","","98.80","","29","","","","Haze"
"1965-09-10 04:00","1965","09","10","04:00","22.8","","19.4","","80","","25","","26","","12.9","","98.86","","30","","","","Mainly Clear"
"1965-09-10 05:00","1965","09","10","05:00","22.2","","18.9","","80","","25","","13","","12.9","","98.88","","29","","","","Mainly Clear"
"1965-09-10 06:00","1965","09","10","06:00","21.1","","18.3","","85","","25","","11","","4.8","","98.92","","27","","","","Haze"
"1965-09-10 07:00","1965","09","10","07:00","20.6","","18.3","","87","","25","","8","","4.8","","99.02","","27","","","","Haze"
"1965-09-10 08:00","1965","09","10","08:00","22.2","","19.4","","84","","23","","11","","8.0","","99.07","","29","","","","Haze"
"1965-09-10 09:00","1965","09","10","09:00","23.3","","18.9","","76","","27","","23","","16.1","","99.13","","30","","","","Mostly Cloudy"
"1965-09-10 10:00","1965","09","10","10:00","23.9","","18.9","","73","","27","","24","","24.1","","99.17","","31","","","","Mostly Cloudy"
"1965-09-10 11:00","1965","09","10","11:00","24.4","","18.9","","71","","27","","24","","32.2","","99.19","","31","","","","Mostly Cloudy"
"1965-09-10 12:00","1965","09","10","12:00","24.4","","19.4","","75","","27","","27","","32.2","","99.21","","31","","","","Mostly Cloudy"
"1965-09-10 13:00","1965","09","10","13:00","24.4","","18.3","","68","","27","","21","","32.2","","99.25","","31","","","","Cloudy"
"1965-09-10 14:00","1965","09","10","14:00","22.8","","19.4","","82","","27","","16","","24.1","","99.28","","30","","","","Rain Showers"
"1965-09-10 15:00","1965","09","10","15:00","23.9","","16.1","","62","","27","","14","","32.2","","99.23","","29","","","","Mostly Cloudy"
"1965-09-10 16:00","1965","09","10","16:00","22.8","","18.9","","79","","32","","26","","24.1","","99.31","","29","","","","Rain Showers"
"1965-09-10 17:00","1965","09","10","17:00","20.6","","16.7","","78","","32","","23","","32.2","","99.45","","26","","","","Mostly Cloudy"
"1965-09-10 18:00","1965","09","10","18:00","18.9","","15.0","","78","","32","","19","","32.2","","99.54","","","","","","Mostly Cloudy"
"1965-09-10 19:00","1965","09","10","19:00","17.8","","13.3","","76","","32","","24","","32.2","","99.60","","","","","","Mostly Cloudy"
"1965-09-10 20:00","1965","09","10","20:00","15.6","","11.7","","79","","32","","23","","25.0","","99.71","","","","","","Mostly Cloudy"
"1965-09-10 21:00","1965","09","10","21:00","13.3","","8.9","","74","","29","","29","","25.0","","99.82","","","","","","Mostly Cloudy"
"1965-09-10 22:00","1965","09","10","22:00","12.2","","8.3","","78","","32","","24","","25.0","","99.89","","","","","","Mostly Cloudy"
"1965-09-10 23:00","1965","09","10","23:00","11.1","","6.1","","70","","32","","18","","25.0","","99.97","","","","","","Mostly Cloudy"
"1965-09-11 00:00","1965","09","11","00:00","8.9","","6.7","","86","","32","","11","","25.0","","100.07","","","","","","Mainly Clear"
"1965-09-11 01:00","1965","09","11","01:00","8.3","","6.1","","87","","29","","16","","25.0","","100.12","","","","","","Mostly Cloudy"
"1965-09-11 02:00","1965","09","11","02:00","7.8","","6.1","","89","","27","","8","","25.0","","100.14","","","","","","Mostly Cloudy"
"1965-09-11 03:00","1965","09","11","03:00","7.2","","6.1","","93","","32","","8","","25.0","","100.20","","","","","","Mostly Cloudy"
"1965-09-11 04:00","1965","09","11","04:00","6.7","","5.6","","93","","32","","11","","25.0","","100.27","","","","","","Mainly Clear"
"1965-09-11 05:00","1965","09","11","05:00","7.2","","5.6","","89","","34","","13","","25.0","","100.33","","","","","","Mainly Clear"
"1965-09-11 06:00","1965","09","11","06:00","7.2","","5.0","","85","","34","","14","","40.2","","100.47","","","","","","Mainly Clear"
"1965-09-11 07:00","1965","09","11","07:00","7.2","","5.0","","85","","36","","13","","40.2","","100.56","","","","","","Mostly Cloudy"
"1965-09-11 08:00","1965","09","11","08:00","10.0","","5.0","","71","","36","","16","","40.2","","100.63","","","","","","Mostly Cloudy"
"1965-09-11 09:00","1965","09","11","09:00","12.2","","3.3","","55","","36","","21","","40.2","","100.66","","","","","","Mostly Cloudy"
"1965-09-11 10:00","1965","09","11","10:00","13.9","","2.8","","47","","5","","16","","40.2","","100.68","","","","","","Mostly Cloudy"
"1965-09-11 11:00","1965","09","11","11:00","15.0","","2.8","","44","","7","","14","","40.2","","100.66","","","","","","Mostly Cloudy"
"1965-09-11 12:00","1965","09","11","12:00","15.6","","2.2","","41","","36","","10","","40.2","","100.66","","","","","","Mostly Cloudy"
"1965-09-11 13:00","1965","09","11","13:00","16.7","","3.9","","42","","9","","6","","40.2","","100.64","","","","","","Mostly Cloudy"
"1965-09-11 14:00","1965","09","11","14:00","15.6","","5.0","","50","","11","","11","","40.2","","100.61","","","","","","Mostly Cloudy"
"1965-09-11 15:00","1965","09","11","15:00","14.4","","3.9","","49","","16","","13","","40.2","","100.55","","","","","","Mostly Cloudy"
"1965-09-11 16:00","1965","09","11","16:00","13.9","","3.3","","50","","16","","14","","40.2","","100.55","","","","","","Mostly Cloudy"
"1965-09-11 17:00","1965","09","11","17:00","13.9","","4.4","","53","","16","","11","","40.2","","100.55","","","","","","Mostly Cloudy"
"1965-09-11 18:00","1965","09","11","18:00","13.3","","5.6","","58","","18","","6","","40.2","","100.58","","","","","","Cloudy"
"1965-09-11 19:00","1965","09","11","19:00","12.2","","5.6","","65","","20","","2","","40.2","","100.59","","","","","","Cloudy"
"1965-09-11 20:00","1965","09","11","20:00","11.1","","3.9","","62","","","","0","","25.0","","100.60","","","","","","Mostly Cloudy"
"1965-09-11 21:00","1965","09","11","21:00","8.3","","6.1","","85","","34","","6","","25.0","","100.64","","","","","","Mostly Cloudy"
"1965-09-11 22:00","1965","09","11","22:00","7.8","","5.6","","87","","34","","6","","25.0","","100.61","","","","","","Mostly Cloudy"
"1965-09-11 23:00","1965","09","11","23:00","7.8","","6.1","","89","","","","0","","25.0","","100.61","","","","","","Mostly Cloudy"
"1965-09-12 00:00","1965","09","12","00:00","7.8","","6.1","","89","","34","","8","","24.1","","100.62","","","","","","Mostly Cloudy"
"1965-09-12 01:00","1965","09","12","01:00","7.2","","5.0","","87","","34","","10","","24.1","","100.62","","","","","","Mostly Cloudy"
"1965-09-12 02:00","1965","09","12","02:00","6.7","","5.6","","91","","36","","11","","25.0","","100.59","","","","","","Cloudy"
"1965-09-12 03:00","1965","09","12","03:00","6.7","","5.0","","89","","36","","11","","25.0","","100.57","","","","","","Cloudy"
"1965-09-12 04:00","1965","09","12","04:00","6.1","","4.4","","89","","34","","8","","25.0","","100.59","","","","","","Cloudy"
"1965-09-12 05:00","1965","09","12","05:00","5.0","","3.9","","93","","36","","13","","25.0","","100.57","","","","","","Cloudy"
"1965-09-12 06:00","1965","09","12","06:00","5.6","","3.9","","91","","34","","11","","40.2","","100.58","","","","","","Mostly Cloudy"
"1965-09-12 07:00","1965","09","12","07:00","6.7","","5.0","","89","","36","","11","","40.2","","100.62","","","","","","Mostly Cloudy"
"1965-09-12 08:00","1965","09","12","08:00","10.6","","7.2","","79","","5","","13","","40.2","","100.59","","","","","","Mostly Cloudy"
"1965-09-12 09:00","1965","09","12","09:00","14.4","","10.0","","73","","9","","16","","40.2","","100.58","","","","","","Mainly Clear"
"1965-09-12 10:00","1965","09","12","10:00","16.7","","10.0","","65","","9","","21","","40.2","","100.58","","","","","","Mainly Clear"
"1965-09-12 11:00","1965","09","12","11:00","16.7","","8.3","","58","","9","","23","","40.2","","100.55","","","","","","Mainly Clear"
"1965-09-12 12:00","1965","09","12","12:00","17.2","","7.8","","53","","9","","23","","40.2","","100.51","","","","","","Mainly Clear"
"1965-09-12 13:00","1965","09","12","13:00","18.3","","8.3","","53","","9","","23","","40.2","","100.43","","","","","","Mainly Clear"
"1965-09-12 14:00","1965","09","12","14:00","18.3","","9.4","","56","","9","","21","","40.2","","100.33","","","","","","Mainly Clear"
"1965-09-12 15:00","1965","09","12","15:00","18.9","","10.0","","55","","9","","23","","40.2","","100.35","","","","","","Mainly Clear"
"1965-09-12 16:00","1965","09","12","16:00","18.3","","10.6","","60","","9","","19","","40.2","","100.30","","","","","","Mainly Clear"
"1965-09-12 17:00","1965","09","12","17:00","17.2","","8.3","","55","","9","","23","","40.2","","100.28","","","","","","Mainly Clear"
"1965-09-12 18:00","1965","09","12","18:00","16.1","","8.3","","59","","9","","23","","40.2","","100.25","","","","","","Mainly Clear"
"1965-09-12 19:00","1965","09","12","19:00","15.0","","11.7","","82","","9","","19","","40.2","","100.22","","","","","","Mainly Clear"
"1965-09-12 20:00","1965","09","12","20:00","14.4","","12.8","","90","","7","","18","","25.0","","100.25","","","","","","Mainly Clear"
"1965-09-12 21:00","1965","09","12","21:00","15.0","","13.3","","88","","7","","13","","25.0","","100.22","","","","","","Mostly Cloudy"
"1965-09-12 22:00","1965","09","12","22:00","15.0","","13.3","","90","","9","","19","","24.1","","100.21","","","","","","Cloudy"
"1965-09-12 23:00","1965","09","12","23:00","15.0","","13.3","","90","","9","","18","","16.1","","100.16","","","","","","Cloudy"
"1965-09-13 00:00","1965","09","13","00:00","15.0","","13.9","","92","","7","","16","","16.1","","100.09","","","","","","Cloudy"
"1965-09-13 01:00","1965","09","13","01:00","15.0","","13.9","","92","","9","","18","","16.1","","100.03","","","","","","Cloudy"
"1965-09-13 02:00","1965","09","13","02:00","14.4","","13.3","","91","","7","","19","","16.1","","100.01","","","","","","Cloudy"
"1965-09-13 03:00","1965","09","13","03:00","14.4","","13.3","","91","","7","","16","","12.9","","99.95","","","","","","Cloudy"
"1965-09-13 04:00","1965","09","13","04:00","14.4","","12.8","","90","","7","","16","","12.9","","99.90","","","","","","Cloudy"
"1965-09-13 05:00","1965","09","13","05:00","14.4","","13.3","","91","","7","","10","","12.9","","99.84","","","","","","Cloudy"
"1965-09-13 06:00","1965","09","13","06:00","14.4","","13.3","","91","","9","","14","","11.3","","99.84","","","","","","Cloudy"
"1965-09-13 07:00","1965","09","13","07:00","15.0","","13.3","","90","","9","","13","","11.3","","99.88","","","","","","Cloudy"
"1965-09-13 08:00","1965","09","13","08:00","15.0","","13.3","","90","","5","","13","","11.3","","99.84","","","","","","Cloudy"
"1965-09-13 09:00","1965","09","13","09:00","15.0","","13.9","","93","","5","","13","","4.8","","99.81","","","","","","Drizzle,Fog"
"1965-09-13 10:00","1965","09","13","10:00","16.1","","13.3","","85","","2","","13","","4.8","","99.81","","","","","","Haze"
"1965-09-13 11:00","1965","09","13","11:00","16.1","","13.3","","85","","2","","14","","6.4","","99.74","","","","","","Haze"
"1965-09-13 12:00","1965","09","13","12:00","15.6","","13.9","","90","","7","","10","","6.4","","99.70","","","","","","Drizzle,Fog"
"1965-09-13 13:00","1965","09","13","13:00","16.1","","14.4","","89","","5","","13","","6.4","","99.70","","","","","","Drizzle,Fog"
"1965-09-13 14:00","1965","09","13","14:00","16.1","","13.9","","87","","5","","6","","6.4","","99.60","","","","","","Haze"
"1965-09-13 15:00","1965","09","13","15:00","16.1","","13.3","","85","","9","","8","","6.4","","99.57","","","","","","Haze"
"1965-09-13 16:00","1965","09","13","16:00","16.7","","13.9","","83","","5","","3","","6.4","","99.54","","","","","","Haze"
"1965-09-13 17:00","1965","09","13","17:00","16.7","","13.9","","83","","","","0","","4.8","","99.58","","","","","","Drizzle,Haze"
"1965-09-13 18:00","1965","09","13","18:00","15.0","","14.4","","97","","16","","10","","2.4","","99.54","","","","","","Drizzle,Fog"
"1965-09-13 19:00","1965","09","13","19:00","15.0","","14.4","","95","","16","","10","","2.4","","99.52","","","","","","Fog"
"1965-09-13 20:00","1965","09","13","20:00","15.0","","14.4","","95","","18","","10","","4.0","","99.54","","","","","","Fog"
"1965-09-13 21:00","1965","09","13","21:00","15.0","","14.4","","97","","23","","8","","4.0","","99.57","","","","","","Fog"
"1965-09-13 22:00","1965","09","13","22:00","15.0","","14.4","","95","","18","","8","","4.0","","99.53","","","","","","Fog"
"1965-09-13 23:00","1965","09","13","23:00","14.4","","13.9","","97","","18","","10","","4.0","","99.49","","","","","","Fog"
"1965-09-14 00:00","1965","09","14","00:00","15.0","","14.4","","97","","20","","11","","3.2","","99.49","","","","","","Fog"
"1965-09-14 01:00","1965","09","14","01:00","14.4","","13.9","","97","","18","","6","","3.2","","99.40","","","","","","Fog"
"1965-09-14 02:00","1965","09","14","02:00","14.4","","13.9","","97","","18","","6","","4.0","","99.34","","","","","","Fog"
"1965-09-14 03:00","1965","09","14","03:00","14.4","","13.9","","97","","18","","6","","3.2","","99.33","","","","","","Fog"
"1965-09-14 04:00","1965","09","14","04:00","15.0","","14.4","","97","","18","","10","","3.2","","99.33","","","","","","Fog"
"1965-09-14 05:00","1965","09","14","05:00","15.0","","14.4","","95","","18","","6","","2.8","","99.34","","","","","","Fog"
"1965-09-14 06:00","1965","09","14","06:00","15.0","","14.4","","97","","","","0","","2.0","","99.39","","","","","","Fog"
"1965-09-14 07:00","1965","09","14","07:00","15.0","","14.4","","97","","","","0","","2.0","","99.43","","","","","","Fog"
"1965-09-14 08:00","1965","09","14","08:00","16.1","","15.6","","96","","","","0","","2.0","","99.43","","","","","","Fog"
"1965-09-14 09:00","1965","09","14","09:00","17.2","","14.4","","83","","23","","5","","4.8","","99.43","","","","","","Haze"
"1965-09-14 10:00","1965","09","14","10:00","17.8","","15.0","","84","","","","0","","4.8","","99.44","","","","","","Haze"
"1965-09-14 11:00","1965","09","14","11:00","20.6","","15.6","","72","","18","","10","","6.4","","99.40","","25","","","","Haze"
"1965-09-14 12:00","1965","09","14","12:00","20.6","","15.6","","72","","","","0","","6.4","","99.34","","25","","","","Haze"
"1965-09-14 13:00","1965","09","14","13:00","20.6","","16.1","","76","","16","","13","","4.8","","99.31","","25","","","","Haze"
"1965-09-14 14:00","1965","09","14","14:00","21.1","","16.1","","74","","16","","10","","4.8","","99.27","","26","","","","Haze"
"1965-09-14 15:00","1965","09","14","15:00","21.1","","15.6","","71","","18","","10","","6.4","","99.24","","25","","","","Haze"
"1965-09-14 16:00","1965","09","14","16:00","21.7","","15.6","","68","","16","","10","","6.4","","99.22","","26","","","","Haze"
"1965-09-14 17:00","1965","09","14","17:00","21.7","","16.1","","70","","14","","11","","6.4","","99.18","","26","","","","Haze"
"1965-09-14 18:00","1965","09","14","18:00","20.0","","16.1","","77","","16","","10","","6.4","","99.19","","25","","","","Haze"
"1965-09-14 19:00","1965","09","14","19:00","17.8","","15.6","","86","","14","","10","","4.0","","99.11","","","","","","Haze"
"1965-09-14 20:00","1965","09","14","20:00","18.3","","16.1","","86","","11","","10","","4.8","","99.14","","","","","","Haze"
"1965-09-14 21:00","1965","09","14","21:00","17.2","","15.6","","90","","11","","8","","4.8","","99.01","","","","","","Fog"
"1965-09-14 22:00","1965","09","14","22:00","17.2","","15.0","","87","","9","","11","","4.8","","98.96","","","","","","Haze"
"1965-09-14 23:00","1965","09","14","23:00","17.8","","16.7","","94","","11","","14","","4.0","","98.87","","","","","","Fog"
"1965-09-15 00:00","1965","09","15","00:00","17.8","","17.2","","96","","11","","16","","3.2","","98.72","","","","","","Fog"
"1965-09-15 01:00","1965","09","15","01:00","17.8","","16.7","","94","","14","","18","","3.2","","98.62","","","","","","Rain Showers,Fog"
"1965-09-15 02:00","1965","09","15","02:00","17.8","","17.2","","96","","14","","19","","3.2","","98.45","","","","","","Fog"
"1965-09-15 03:00","1965","09","15","03:00","18.9","","16.7","","88","","16","","19","","6.4","","98.33","","","","","","Haze"
"1965-09-15 04:00","1965","09","15","04:00","18.9","","15.6","","82","","16","","16","","8.0","","98.26","","","","","","Haze"
"1965-09-15 05:00","1965","09","15","05:00","17.8","","15.6","","88","","14","","13","","8.0","","98.13","","","","","","Haze"
"1965-09-15 06:00","1965","09","15","06:00","17.8","","16.1","","90","","14","","11","","6.4","","98.11","","","","","","Fog"
"1965-09-15 07:00","1965","09","15","07:00","18.3","","16.1","","86","","14","","11","","6.4","","98.06","","","","","","Haze"
"1965-09-15 08:00","1965","09","15","08:00","18.9","","16.7","","86","","16","","14","","4.8","","98.03","","","","","","Haze"
"1965-09-15 09:00","1965","09","15","09:00","20.6","","17.8","","83","","20","","24","","4.8","","98.01","","26","","","","Haze"
"1965-09-15 10:00","1965","09","15","10:00","21.7","","17.8","","78","","23","","26","","6.4","","98.03","","28","","","","Haze"
"1965-09-15 11:00","1965","09","15","11:00","21.7","","17.2","","76","","23","","26","","11.3","","98.04","","27","","","","Cloudy"
"1965-09-15 12:00","1965","09","15","12:00","21.1","","17.2","","78","","23","","27","","11.3","","98.05","","27","","","","Rain Showers"
"1965-09-15 13:00","1965","09","15","13:00","21.7","","17.2","","75","","23","","26","","12.9","","98.08","","27","","","","Rain Showers"
"1965-09-15 14:00","1965","09","15","14:00","23.3","","17.2","","68","","23","","29","","12.9","","98.09","","29","","","","Mostly Cloudy"
"1965-09-15 15:00","1965","09","15","15:00","25.0","","16.1","","58","","25","","27","","19.3","","98.09","","30","","","","Mostly Cloudy"
"1965-09-15 16:00","1965","09","15","16:00","24.4","","13.3","","49","","27","","32","","24.1","","98.14","","27","","","","Mainly Clear"
"1965-09-15 17:00","1965","09","15","17:00","21.1","","10.6","","51","","27","","39","","32.2","","98.33","","","","","","Mainly Clear"
"1965-09-15 18:00","1965","09","15","18:00","18.9","","8.9","","52","","27","","39","","32.2","","98.51","","","","","","Mainly Clear"
"1965-09-15 19:00","1965","09","15","19:00","17.8","","9.4","","57","","27","","24","","25.0","","98.59","","","","","","Mostly Cloudy"
"1965-09-15 20:00","1965","09","15","20:00","16.7","","10.0","","64","","27","","29","","25.0","","98.73","","","","","","Cloudy"
"1965-09-15 21:00","1965","09","15","21:00","15.6","","7.8","","61","","27","","26","","25.0","","98.86","","","","","","Cloudy"
"1965-09-15 22:00","1965","09","15","22:00","15.6","","10.0","","68","","27","","19","","25.0","","98.89","","","","","","Cloudy"
"1965-09-15 23:00","1965","09","15","23:00","15.0","","10.0","","72","","27","","18","","25.0","","98.97","","","","","","Cloudy"
"1965-09-16 00:00","1965","09","16","00:00","13.9","","10.0","","78","","29","","19","","25.0","","99.06","","","","","","Cloudy"
"1965-09-16 01:00","1965","09","16","01:00","13.3","","9.4","","78","","29","","24","","25.0","","99.20","","","","","","Cloudy"
"1965-09-16 02:00","1965","09","16","02:00","12.8","","7.8","","72","","32","","27","","25.0","","99.29","","","","","","Mostly Cloudy"
"1965-09-16 03:00","1965","09","16","03:00","12.2","","6.7","","70","","29","","26","","25.0","","99.39","","","","","","Mostly Cloudy"
"1965-09-16 04:00","1965","09","16","04:00","11.7","","7.2","","75","","32","","21","","25.0","","99.50","","","","","","Mostly Cloudy"
"1965-09-16 05:00","1965","09","16","05:00","10.6","","6.7","","75","","32","","10","","25.0","","99.65","","","","","","Cloudy"
"1965-09-16 06:00","1965","09","16","06:00","9.4","","6.1","","80","","32","","11","","32.2","","99.78","","","","","","Mostly Cloudy"
"1965-09-16 07:00","1965","09","16","07:00","10.6","","6.1","","74","","32","","14","","40.2","","99.87","","","","","","Mostly Cloudy"
"1965-09-16 08:00","1965","09","16","08:00","10.6","","5.6","","72","","34","","14","","40.2","","99.98","","","","","","Mostly Cloudy"
"1965-09-16 09:00","1965","09","16","09:00","10.0","","4.4","","69","","34","","19","","40.2","","100.09","","","","","","Cloudy"
"1965-09-16 10:00","1965","09","16","10:00","10.6","","5.0","","68","","36","","21","","40.2","","100.16","","","","","","Cloudy"
"1965-09-16 11:00","1965","09","16","11:00","10.0","","5.0","","71","","36","","13","","40.2","","100.26","","","","","","Mostly Cloudy"
"1965-09-16 12:00","1965","09","16","12:00","11.1","","5.0","","67","","36","","16","","40.2","","100.28","","","","","","Mostly Cloudy"
"1965-09-16 13:00","1965","09","16","13:00","11.1","","5.0","","65","","5","","13","","40.2","","100.29","","","","","","Mostly Cloudy"
"1965-09-16 14:00","1965","09","16","14:00","12.2","","5.0","","62","","5","","10","","32.2","","100.29","","","","","","Mostly Cloudy"
"1965-09-16 15:00","1965","09","16","15:00","12.2","","5.0","","62","","9","","13","","32.2","","100.38","","","","","","Cloudy"
"1965-09-16 16:00","1965","09","16","16:00","12.2","","5.0","","62","","11","","6","","32.2","","100.41","","","","","","Cloudy"
"1965-09-16 17:00","1965","09","16","17:00","12.2","","6.7","","68","","14","","11","","32.2","","100.50","","","","","","Cloudy"
"1965-09-16 18:00","1965","09","16","18:00","11.7","","6.1","","69","","9","","13","","32.2","","100.43","","","","","","Cloudy"
"1965-09-16 19:00","1965","09","16","19:00","11.1","","6.7","","74","","9","","8","","25.0","","100.40","","","","","","Cloudy"
"1965-09-16 20:00","1965","09","16","20:00","11.7","","6.7","","71","","9","","11","","25.0","","100.46","","","","","","Mostly Cloudy"
"1965-09-16 21:00","1965","09","16","21:00","11.7","","7.8","","76","","9","","21","","25.0","","100.49","","","","","","Cloudy"
"1965-09-16 22:00","1965","09","16","22:00","12.2","","8.3","","78","","9","","14","","25.0","","100.53","","","","","","Cloudy"
"1965-09-16 23:00","1965","09","16","23:00","11.7","","8.9","","82","","9","","14","","25.0","","100.53","","","","","","Mostly Cloudy"
"1965-09-17 00:00","1965","09","17","00:00","12.2","","8.3","","77","","9","","13","","25.0","","100.52","","","","","","Mostly Cloudy"
"1965-09-17 01:00","1965","09","17","01:00","13.3","","9.4","","76","","9","","16","","25.0","","100.49","","","","","","Cloudy"
"1965-09-17 02:00","1965","09","17","02:00","13.3","","10.0","","79","","11","","13","","25.0","","100.46","","","","","","Cloudy"
"1965-09-17 03:00","1965","09","17","03:00","12.8","","10.0","","82","","11","","19","","25.0","","100.42","","","","","","Mostly Cloudy"
"1965-09-17 04:00","1965","09","17","04:00","12.2","","10.0","","87","","11","","11","","25.0","","100.39","","","","","","Mainly Clear"
"1965-09-17 05:00","1965","09","17","05:00","8.9","","7.8","","92","","2","","10","","25.0","","100.37","","","","","","Clear"
"1965-09-17 06:00","1965","09","17","06:00","8.3","","7.2","","94","","36","","10","","24.1","","100.37","","","","","","Mainly Clear"
"1965-09-17 07:00","1965","09","17","07:00","8.9","","7.8","","94","","36","","6","","19.3","","100.37","","","","","","Mainly Clear"
"1965-09-17 08:00","1965","09","17","08:00","12.2","","10.0","","85","","","","0","","19.3","","100.33","","","","","","Mainly Clear"
"1965-09-17 09:00","1965","09","17","09:00","15.0","","10.6","","75","","","","0","","11.3","","100.33","","","","","","Mostly Cloudy"
"1965-09-17 10:00","1965","09","17","10:00","16.7","","11.7","","71","","14","","10","","11.3","","100.32","","","","","","Mostly Cloudy"
"1965-09-17 11:00","1965","09","17","11:00","16.7","","12.2","","75","","14","","6","","11.3","","100.25","","","","","","Cloudy"
"1965-09-17 12:00","1965","09","17","12:00","16.7","","11.7","","73","","11","","10","","9.7","","100.19","","","","","","Rain Showers,Haze"
"1965-09-17 13:00","1965","09","17","13:00","15.6","","12.8","","82","","14","","13","","4.8","","100.18","","","","","","Thunderstorms,Rain Showers,Haze"
"1965-09-17 14:00","1965","09","17","14:00","15.0","","13.9","","93","","7","","5","","4.8","","100.26","","","","","","Rain Showers,Fog"
"1965-09-17 15:00","1965","09","17","15:00","15.6","","14.4","","93","","25","","6","","1.6","","100.29","","","","","","Thunderstorms,Rain Showers,Fog"
"1965-09-17 16:00","1965","09","17","16:00","15.6","","15.0","","97","","16","","16","","1.2","","99.93","","","","","","Fog"
"1965-09-17 17:00","1965","09","17","17:00","15.6","","15.0","","97","","18","","14","","2.4","","100.01","","","","","","Fog"
"1965-09-17 18:00","1965","09","17","18:00","15.0","","15.0","","98","","20","","11","","1.2","","99.99","","","","","","Fog"
"1965-09-17 19:00","1965","09","17","19:00","14.4","","14.4","","98","","","","0","","4.0","","99.99","","","","","","Fog"
"1965-09-17 20:00","1965","09","17","20:00","14.4","","14.4","","98","","36","","8","","4.8","","100.09","","","","","","Fog"
"1965-09-17 21:00","1965","09","17","21:00","15.0","","15.0","","98","","","","0","","3.2","","100.16","","","","","","Fog"
"1965-09-17 22:00","1965","09","17","22:00","15.0","","14.4","","97","","14","","5","","3.2","","100.19","","","","","","Fog"
"1965-09-17 23:00","1965","09","17","23:00","15.6","","15.0","","97","","9","","3","","3.2","","100.22","","","","","","Fog"
"1965-09-18 00:00","1965","09","18","00:00","15.6","","15.0","","97","","16","","5","","1.6","","100.21","","","","","","Fog"
"1965-09-18 01:00","1965","09","18","01:00","15.6","","15.6","","100","","11","","6","","0.2","","100.27","","","","","","Fog"
"1965-09-18 02:00","1965","09","18","02:00","15.6","","15.6","","100","","","","0","","0.2","","100.26","","","","","","Fog"
"1965-09-18 03:00","1965","09","18","03:00","15.0","","15.0","","100","","","","0","","0.2","","100.24","","","","","","Fog"
"1965-09-18 04:00","1965","09","18","04:00","15.0","","15.0","","100","","","","0","","0.2","","100.25","","","","","","Fog"
"1965-09-18 05:00","1965","09","18","05:00","14.4","","14.4","","100","","","","0","","0.2","","100.27","","","","","","Fog"
"1965-09-18 06:00","1965","09","18","06:00","14.4","","14.4","","100","","","","0","","0.2","","100.27","","","","","","Fog"
"1965-09-18 07:00","1965","09","18","07:00","15.6","","15.6","","100","","","","0","","0.4","","100.31","","","","","","Fog"
"1965-09-18 08:00","1965","09","18","08:00","16.7","","16.7","","100","","23","","6","","0.2","","100.31","","","","","","Fog"
"1965-09-18 09:00","1965","09","18","09:00","18.3","","18.3","","100","","","","0","","0.2","","100.32","","","","","","Fog"
"1965-09-18 10:00","1965","09","18","10:00","20.0","","19.4","","98","","11","","3","","1.6","","100.34","","27","","","","Fog"
"1965-09-18 11:00","1965","09","18","11:00","22.8","","21.1","","91","","14","","10","","3.2","","100.29","","31","","","","Fog"
"1965-09-18 12:00","1965","09","18","12:00","23.3","","20.0","","82","","14","","18","","4.8","","100.27","","31","","","","Haze"
"1965-09-18 13:00","1965","09","18","13:00","23.9","","20.6","","81","","11","","8","","3.2","","100.21","","32","","","","Thunderstorms,Rain Showers,Haze"
"1965-09-18 14:00","1965","09","18","14:00","23.3","","20.6","","84","","9","","13","","2.4","","100.19","","31","","","","Haze"
"1965-09-18 15:00","1965","09","18","15:00","23.9","","21.1","","84","","11","","10","","2.4","","100.12","","32","","","","Haze"
"1965-09-18 16:00","1965","09","18","16:00","23.3","","20.0","","82","","16","","13","","2.8","","100.15","","31","","","","Haze"
"1965-09-18 17:00","1965","09","18","17:00","19.4","","17.8","","90","","16","","11","","2.4","","100.18","","","","","","Haze"
"1965-09-18 18:00","1965","09","18","18:00","19.4","","17.8","","90","","18","","5","","2.4","","100.14","","","","","","Haze"
"1965-09-18 19:00","1965","09","18","19:00","18.9","","17.8","","92","","","","0","","2.8","","100.17","","","","","","Fog"
"1965-09-18 20:00","1965","09","18","20:00","18.3","","17.8","","96","","","","0","","2.8","","100.23","","","","","","Fog"
"1965-09-18 21:00","1965","09","18","21:00","17.8","","17.2","","98","","","","0","","2.4","","100.20","","","","","","Fog"
"1965-09-18 22:00","1965","09","18","22:00","17.2","","16.7","","98","","25","","3","","2.4","","100.22","","","","","","Fog"
"1965-09-18 23:00","1965","09","18","23:00","17.2","","16.7","","98","","","","0","","2.8","","100.22","","","","","","Fog"
"1965-09-19 00:00","1965","09","19","00:00","16.7","","16.1","","98","","34","","3","","2.4","","100.20","","","","","","Fog"
"1965-09-19 01:00","1965","09","19","01:00","16.7","","16.1","","98","","2","","6","","2.0","","100.18","","","","","","Fog"
"1965-09-19 02:00","1965","09","19","02:00","16.7","","16.1","","98","","18","","8","","1.2","","100.16","","","","","","Fog"
"1965-09-19 03:00","1965","09","19","03:00","16.7","","16.7","","100","","16","","5","","0.2","","100.15","","","","","","Fog"
"1965-09-19 04:00","1965","09","19","04:00","16.1","","16.1","","100","","16","","3","","0.0","","100.13","","","","","","Fog"
"1965-09-19 05:00","1965","09","19","05:00","15.6","","15.6","","100","","","","0","","0.2","","100.13","","","","","","Fog"
"1965-09-19 06:00","1965","09","19","06:00","15.6","","15.6","","100","","","","0","","0.6","","100.17","","","","","","Fog"
"1965-09-19 07:00","1965","09","19","07:00","15.6","","15.6","","100","","","","0","","1.2","","100.19","","","","","","Fog"
"1965-09-19 08:00","1965","09","19","08:00","18.3","","18.3","","100","","","","0","","1.6","","100.18","","","","","","Fog"
"1965-09-19 09:00","1965","09","19","09:00","21.7","","20.6","","94","","32","","6","","4.8","","100.18","","30","","","","Fog"
"1965-09-19 10:00","1965","09","19","10:00","25.0","","21.7","","81","","14","","8","","9.7","","100.19","","34","","","","Haze"
"1965-09-19 11:00","1965","09","19","11:00","25.6","","21.1","","77","","14","","11","","9.7","","100.13","","34","","","","Haze"
"1965-09-19 12:00","1965","09","19","12:00","26.1","","20.6","","71","","16","","11","","9.7","","100.07","","34","","","","Haze"
"1965-09-19 13:00","1965","09","19","13:00","27.2","","22.2","","73","","16","","16","","9.7","","100.03","","37","","","","Haze"
"1965-09-19 14:00","1965","09","19","14:00","26.7","","21.1","","73","","16","","14","","9.7","","99.97","","35","","","","Haze"
"1965-09-19 15:00","1965","09","19","15:00","26.7","","21.1","","73","","14","","13","","8.0","","99.90","","35","","","","Haze"
"1965-09-19 16:00","1965","09","19","16:00","25.6","","21.1","","77","","16","","16","","9.7","","99.87","","34","","","","Haze"
"1965-09-19 17:00","1965","09","19","17:00","26.7","","22.2","","76","","18","","14","","9.7","","99.85","","36","","","","Haze"
"1965-09-19 18:00","1965","09","19","18:00","25.6","","21.7","","78","","18","","10","","6.4","","99.82","","35","","","","Haze"
"1965-09-19 19:00","1965","09","19","19:00","25.0","","21.7","","81","","18","","13","","8.0","","99.82","","34","","","","Haze"
"1965-09-19 20:00","1965","09","19","20:00","23.9","","21.1","","84","","20","","11","","8.0","","99.87","","32","","","","Haze"
"1965-09-19 21:00","1965","09","19","21:00","23.3","","20.6","","84","","20","","13","","9.7","","99.87","","31","","","","Haze"
"1965-09-19 22:00","1965","09","19","22:00","22.8","","20.6","","87","","20","","11","","8.0","","99.87","","31","","","","Haze"
"1965-09-19 23:00","1965","09","19","23:00","21.1","","19.4","","91","","23","","8","","6.4","","99.87","","28","","","","Haze"
"1965-09-20 00:00","1965","09","20","00:00","21.7","","20.0","","89","","23","","10","","8.0","","99.84","","29","","","","Haze"
"1965-09-20 01:00","1965","09","20","01:00","21.1","","19.4","","91","","23","","11","","8.0","","99.81","","28","","","","Fog"
"1965-09-20 02:00","1965","09","20","02:00","21.7","","20.0","","89","","23","","14","","6.4","","99.81","","29","","","","Fog"
"1965-09-20 03:00","1965","09","20","03:00","21.7","","20.0","","89","","23","","14","","6.4","","99.76","","29","","","","Fog"
"1965-09-20 04:00","1965","09","20","04:00","21.7","","20.0","","91","","23","","14","","6.4","","99.74","","29","","","","Fog"
"1965-09-20 05:00","1965","09","20","05:00","21.1","","19.4","","91","","20","","11","","4.8","","99.75","","28","","","","Fog"
"1965-09-20 06:00","1965","09","20","06:00","20.6","","19.4","","94","","18","","8","","2.4","","99.75","","28","","","","Fog"
"1965-09-20 07:00","1965","09","20","07:00","20.6","","19.4","","94","","20","","11","","3.2","","99.77","","28","","","","Fog"
"1965-09-20 08:00","1965","09","20","08:00","22.8","","20.6","","87","","25","","16","","4.8","","99.76","","31","","","","Haze"
"1965-09-20 09:00","1965","09","20","09:00","25.0","","21.1","","78","","23","","18","","9.7","","99.76","","34","","","","Haze"
"1965-09-20 10:00","1965","09","20","10:00","26.7","","21.1","","71","","23","","18","","11.3","","99.77","","35","","","","Mainly Clear"
"1965-09-20 11:00","1965","09","20","11:00","27.2","","20.6","","67","","23","","27","","16.1","","99.75","","35","","","","Mostly Cloudy"
"1965-09-20 12:00","1965","09","20","12:00","28.9","","20.6","","62","","23","","23","","16.1","","99.68","","37","","","","Mostly Cloudy"
"1965-09-20 13:00","1965","09","20","13:00","29.4","","20.0","","57","","20","","26","","16.1","","99.63","","37","","","","Mostly Cloudy"
"1965-09-20 14:00","1965","09","20","14:00","28.9","","20.6","","60","","23","","21","","16.1","","99.55","","37","","","","Mainly Clear"
"1965-09-20 15:00","1965","09","20","15:00","30.0","","20.6","","57","","23","","26","","16.1","","99.49","","38","","","","Mostly Cloudy"
"1965-09-20 16:00","1965","09","20","16:00","28.9","","20.0","","59","","25","","23","","16.1","","99.47","","36","","","","Mainly Clear"
"1965-09-20 17:00","1965","09","20","17:00","28.3","","18.9","","57","","23","","26","","16.1","","99.48","","35","","","","Mainly Clear"
"1965-09-20 18:00","1965","09","20","18:00","26.1","","18.9","","65","","20","","23","","16.1","","99.49","","33","","","","Mainly Clear"
"1965-09-20 19:00","1965","09","20","19:00","25.0","","19.4","","70","","23","","19","","16.1","","99.49","","32","","","","Mainly Clear"
"1965-09-20 20:00","1965","09","20","20:00","23.9","","18.9","","74","","23","","13","","16.1","","99.52","","31","","","","Mainly Clear"
"1965-09-20 21:00","1965","09","20","21:00","23.3","","18.9","","77","","20","","10","","19.3","","99.52","","30","","","","Clear"
"1965-09-20 22:00","1965","09","20","22:00","22.8","","19.4","","80","","18","","11","","19.3","","99.54","","30","","","","Clear"
"1965-09-20 23:00","1965","09","20","23:00","22.8","","19.4","","82","","20","","13","","16.1","","99.53","","30","","","","Mainly Clear"
"1965-09-21 00:00","1965","09","21","00:00","22.2","","18.9","","82","","20","","13","","24.1","","99.47","","29","","","","Mainly Clear"
"1965-09-21 01:00","1965","09","21","01:00","22.2","","18.9","","80","","20","","19","","24.1","","99.42","","29","","","","Clear"
"1965-09-21 02:00","1965","09","21","02:00","22.2","","18.9","","82","","20","","16","","19.3","","99.42","","29","","","","Mainly Clear"
"1965-09-21 03:00","1965","09","21","03:00","22.2","","19.4","","84","","23","","16","","19.3","","99.40","","29","","","","Mostly Cloudy"
"1965-09-21 04:00","1965","09","21","04:00","21.7","","18.9","","85","","20","","13","","19.3","","99.40","","28","","","","Mainly Clear"
"1965-09-21 05:00","1965","09","21","05:00","21.7","","19.4","","87","","18","","21","","19.3","","99.42","","29","","","","Mainly Clear"
"1965-09-21 06:00","1965","09","21","06:00","21.7","","19.4","","87","","18","","13","","16.1","","99.50","","29","","","","Mainly Clear"
"1965-09-21 07:00","1965","09","21","07:00","21.7","","19.4","","87","","18","","16","","9.7","","99.53","","29","","","","Haze"
"1965-09-21 08:00","1965","09","21","08:00","23.3","","20.0","","81","","20","","27","","19.3","","99.53","","31","","","","Mainly Clear"
"1965-09-21 09:00","1965","09","21","09:00","25.0","","20.0","","73","","20","","31","","19.3","","99.54","","33","","","","Mainly Clear"
"1965-09-21 10:00","1965","09","21","10:00","27.2","","20.0","","65","","20","","26","","24.1","","99.54","","35","","","","Mainly Clear"
"1965-09-21 11:00","1965","09","21","11:00","28.9","","19.4","","58","","20","","27","","32.2","","99.53","","36","","","","Mostly Cloudy"
"1965-09-21 12:00","1965","09","21","12:00","28.9","","19.4","","56","","20","","32","","32.2","","99.47","","36","","","","Mostly Cloudy"
"1965-09-21 13:00","1965","09","21","13:00","28.9","","19.4","","56","","23","","34","","32.2","","99.41","","36","","","","Mostly Cloudy"
"1965-09-21 14:00","1965","09","21","14:00","29.4","","18.9","","53","","23","","32","","32.2","","99.36","","36","","","","Mostly Cloudy"
"1965-09-21 15:00","1965","09","21","15:00","30.0","","18.3","","50","","23","","45","","32.2","","99.31","","36","","","","Mostly Cloudy"
"1965-09-21 16:00","1965","09","21","16:00","28.9","","18.9","","55","","23","","45","","24.1","","99.33","","36","","","","Mostly Cloudy"
"1965-09-21 17:00","1965","09","21","17:00","28.3","","18.3","","55","","23","","42","","19.3","","99.33","","35","","","","Mostly Cloudy"
"1965-09-21 18:00","1965","09","21","18:00","27.2","","18.3","","59","","20","","29","","19.3","","99.34","","33","","","","Mainly Clear"
"1965-09-21 19:00","1965","09","21","19:00","26.7","","18.3","","61","","20","","23","","19.3","","99.37","","33","","","","Mainly Clear"
"1965-09-21 20:00","1965","09","21","20:00","26.1","","19.4","","67","","20","","19","","24.1","","99.42","","33","","","","Mainly Clear"
"1965-09-21 21:00","1965","09","21","21:00","25.6","","18.9","","68","","20","","18","","24.1","","99.46","","32","","","","Clear"
"1965-09-21 22:00","1965","09","21","22:00","25.0","","18.9","","69","","20","","16","","24.1","","99.49","","32","","","","Clear"
"1965-09-21 23:00","1965","09","21","23:00","23.3","","18.9","","77","","18","","8","","24.1","","99.47","","30","","","","Clear"
"1965-09-22 00:00","1965","09","22","00:00","23.3","","18.9","","77","","18","","14","","24.1","","99.46","","30","","","","Clear"
"1965-09-22 01:00","1965","09","22","01:00","23.9","","18.9","","74","","20","","16","","24.1","","99.46","","31","","","","Mainly Clear"
"1965-09-22 02:00","1965","09","22","02:00","22.8","","19.4","","80","","23","","14","","24.1","","99.49","","30","","","","Mainly Clear"
"1965-09-22 03:00","1965","09","22","03:00","22.8","","19.4","","82","","20","","13","","24.1","","99.50","","30","","","","Mainly Clear"
"1965-09-22 04:00","1965","09","22","04:00","22.2","","18.9","","82","","20","","10","","24.1","","99.51","","29","","","","Mainly Clear"
"1965-09-22 05:00","1965","09","22","05:00","21.7","","18.9","","85","","18","","10","","24.1","","99.51","","28","","","","Mainly Clear"
"1965-09-22 06:00","1965","09","22","06:00","21.1","","19.4","","91","","20","","10","","9.7","","99.55","","28","","","","Fog"
"1965-09-22 07:00","1965","09","22","07:00","21.1","","19.4","","91","","14","","10","","9.7","","99.55","","28","","","","Fog"
"1965-09-22 08:00","1965","09","22","08:00","22.2","","20.0","","87","","18","","10","","9.7","","99.57","","30","","","","Fog"
"1965-09-22 09:00","1965","09","22","09:00","23.9","","20.0","","78","","16","","14","","12.9","","99.54","","31","","","","Mainly Clear"
"1965-09-22 10:00","1965","09","22","10:00","24.4","","19.4","","75","","16","","19","","11.3","","99.49","","31","","","","Mainly Clear"
"1965-09-22 11:00","1965","09","22","11:00","26.1","","19.4","","67","","16","","23","","11.3","","99.44","","33","","","","Mainly Clear"
"1965-09-22 12:00","1965","09","22","12:00","28.3","","18.9","","57","","18","","29","","19.3","","99.40","","35","","","","Mainly Clear"
"1965-09-22 13:00","1965","09","22","13:00","29.4","","18.3","","52","","18","","32","","24.1","","99.34","","36","","","","Mainly Clear"
"1965-09-22 14:00","1965","09","22","14:00","29.4","","17.2","","48","","18","","37","","32.2","","99.28","","35","","","","Mainly Clear"
"1965-09-22 15:00","1965","09","22","15:00","30.0","","17.8","","48","","18","","37","","32.2","","99.24","","36","","","","Mainly Clear"
"1965-09-22 16:00","1965","09","22","16:00","29.4","","17.8","","50","","18","","34","","19.3","","99.21","","35","","","","Mainly Clear"
"1965-09-22 17:00","1965","09","22","17:00","28.9","","17.8","","51","","20","","26","","19.3","","99.19","","35","","","","Mainly Clear"
"1965-09-22 18:00","1965","09","22","18:00","27.2","","17.2","","55","","20","","21","","16.1","","99.15","","33","","","","Mainly Clear"
"1965-09-22 19:00","1965","09","22","19:00","26.1","","17.8","","61","","18","","16","","16.1","","99.18","","32","","","","Mainly Clear"
"1965-09-22 20:00","1965","09","22","20:00","24.4","","17.8","","65","","18","","16","","16.1","","99.18","","30","","","","Mainly Clear"
"1965-09-22 21:00","1965","09","22","21:00","23.9","","17.8","","68","","25","","16","","24.1","","99.23","","30","","","","Rain Showers"
"1965-09-22 22:00","1965","09","22","22:00","21.1","","19.4","","91","","27","","16","","16.1","","99.25","","28","","","","Rain Showers"
"1965-09-22 23:00","1965","09","22","23:00","20.6","","18.9","","90","","23","","10","","16.1","","99.24","","27","","","","Rain Showers"
"1965-09-23 00:00","1965","09","23","00:00","20.0","","18.9","","94","","16","","6","","19.3","","99.22","","27","","","","Mainly Clear"
"1965-09-23 01:00","1965","09","23","01:00","19.4","","18.9","","98","","16","","6","","11.3","","99.19","","","","","","Mostly Cloudy"
"1965-09-23 02:00","1965","09","23","02:00","18.9","","18.3","","98","","","","0","","8.0","","99.15","","","","","","Rain Showers,Fog"
"1965-09-23 03:00","1965","09","23","03:00","20.0","","19.4","","96","","27","","8","","11.3","","99.22","","27","","","","Cloudy"
"1965-09-23 04:00","1965","09","23","04:00","19.4","","18.9","","96","","27","","5","","11.3","","99.21","","","","","","Rain Showers"
"1965-09-23 05:00","1965","09","23","05:00","19.4","","18.3","","92","","20","","10","","12.9","","99.23","","","","","","Rain Showers"
"1965-09-23 06:00","1965","09","23","06:00","18.9","","17.8","","94","","18","","10","","8.0","","99.30","","","","","","Rain Showers,Fog"
"1965-09-23 07:00","1965","09","23","07:00","19.4","","18.9","","96","","18","","16","","6.4","","99.31","","","","","","Rain Showers,Fog"
"1965-09-23 08:00","1965","09","23","08:00","19.4","","18.3","","92","","18","","16","","8.0","","99.37","","","","","","Rain Showers,Fog"
"1965-09-23 09:00","1965","09","23","09:00","19.4","","17.8","","90","","20","","19","","16.1","","99.37","","","","","","Mostly Cloudy"
"1965-09-23 10:00","1965","09","23","10:00","20.6","","17.8","","85","","23","","19","","16.1","","99.43","","26","","","","Mostly Cloudy"
"1965-09-23 11:00","1965","09","23","11:00","21.7","","17.2","","75","","27","","19","","40.2","","99.39","","27","","","","Mostly Cloudy"
"1965-09-23 12:00","1965","09","23","12:00","22.2","","15.0","","64","","27","","21","","40.2","","99.38","","26","","","","Mostly Cloudy"
"1965-09-23 13:00","1965","09","23","13:00","23.3","","15.0","","60","","25","","19","","40.2","","99.35","","27","","","","Mostly Cloudy"
"1965-09-23 14:00","1965","09","23","14:00","22.8","","13.9","","56","","25","","23","","40.2","","99.31","","26","","","","Mostly Cloudy"
"1965-09-23 15:00","1965","09","23","15:00","23.3","","13.3","","53","","25","","24","","40.2","","99.26","","26","","","","Mostly Cloudy"
"1965-09-23 16:00","1965","09","23","16:00","22.2","","10.6","","48","","27","","21","","40.2","","99.29","","","","","","Mostly Cloudy"
"1965-09-23 17:00","1965","09","23","17:00","21.1","","12.2","","56","","25","","11","","40.2","","99.27","","","","","","Mostly Cloudy"
"1965-09-23 18:00","1965","09","23","18:00","20.0","","13.3","","65","","27","","6","","40.2","","99.30","","","","","","Mostly Cloudy"
"1965-09-23 19:00","1965","09","23","19:00","18.9","","13.3","","69","","23","","3","","40.2","","99.31","","","","","","Mostly Cloudy"
"1965-09-23 20:00","1965","09","23","20:00","17.8","","12.8","","72","","20","","11","","40.2","","99.35","","","","","","Mostly Cloudy"
"1965-09-23 21:00","1965","09","23","21:00","16.1","","13.3","","85","","23","","10","","25.0","","99.36","","","","","","Mainly Clear"
"1965-09-23 22:00","1965","09","23","22:00","15.0","","13.9","","92","","20","","10","","25.0","","99.36","","","","","","Mainly Clear"
"1965-09-23 23:00","1965","09","23","23:00","15.6","","13.9","","90","","20","","10","","25.0","","99.36","","","","","","Mainly Clear"
"1965-09-24 00:00","1965","09","24","00:00","14.4","","12.2","","88","","25","","11","","25.0","","99.34","","","","","","Clear"
"1965-09-24 01:00","1965","09","24","01:00","13.3","","11.1","","88","","27","","6","","25.0","","99.34","","","","","","Mainly Clear"
"1965-09-24 02:00","1965","09","24","02:00","12.2","","10.0","","85","","27","","8","","25.0","","99.36","","","","","","Clear"
"1965-09-24 03:00","1965","09","24","03:00","12.2","","8.9","","80","","27","","3","","25.0","","99.34","","","","","","Clear"
"1965-09-24 04:00","1965","09","24","04:00","11.1","","8.3","","83","","","","0","","25.0","","99.31","","","","","","Clear"
"1965-09-24 05:00","1965","09","24","05:00","9.4","","7.2","","86","","27","","10","","25.0","","99.30","","","","","","Clear"
"1965-09-24 06:00","1965","09","24","06:00","9.4","","6.7","","84","","27","","5","","24.1","","99.31","","","","","","Mainly Clear"
"1965-09-24 07:00","1965","09","24","07:00","9.4","","7.8","","88","","27","","5","","16.1","","99.31","","","","","","Mainly Clear"
"1965-09-24 08:00","1965","09","24","08:00","13.9","","6.7","","62","","29","","5","","19.3","","99.34","","","","","","Mainly Clear"
"1965-09-24 09:00","1965","09","24","09:00","11.7","","7.2","","75","","27","","10","","32.2","","99.33","","","","","","Mostly Cloudy"
"1965-09-24 10:00","1965","09","24","10:00","12.2","","7.8","","73","","25","","5","","40.2","","99.30","","","","","","Cloudy"
"1965-09-24 11:00","1965","09","24","11:00","13.3","","7.2","","66","","27","","11","","40.2","","99.22","","","","","","Cloudy"
"1965-09-24 12:00","1965","09","24","12:00","12.8","","7.2","","69","","25","","10","","40.2","","99.19","","","","","","Rain Showers"
"1965-09-24 13:00","1965","09","24","13:00","12.8","","7.8","","70","","25","","11","","40.2","","99.09","","","","","","Cloudy"
"1965-09-24 14:00","1965","09","24","14:00","13.3","","6.7","","64","","27","","16","","40.2","","99.04","","","","","","Mostly Cloudy"
"1965-09-24 15:00","1965","09","24","15:00","13.3","","7.2","","66","","27","","19","","40.2","","99.03","","","","","","Cloudy"
"1965-09-24 16:00","1965","09","24","16:00","12.2","","6.7","","70","","27","","11","","40.2","","98.99","","","","","","Cloudy"
"1965-09-24 17:00","1965","09","24","17:00","12.2","","6.7","","70","","27","","13","","40.2","","98.97","","","","","","Cloudy"
"1965-09-24 18:00","1965","09","24","18:00","11.7","","7.2","","75","","25","","8","","40.2","","98.97","","","","","","Mostly Cloudy"
"1965-09-24 19:00","1965","09","24","19:00","11.1","","7.2","","78","","25","","11","","25.0","","98.98","","","","","","Mostly Cloudy"
"1965-09-24 20:00","1965","09","24","20:00","10.6","","7.2","","79","","25","","11","","25.0","","98.99","","","","","","Mostly Cloudy"
"1965-09-24 21:00","1965","09","24","21:00","8.9","","6.7","","86","","25","","6","","25.0","","99.02","","","","","","Mainly Clear"
"1965-09-24 22:00","1965","09","24","22:00","8.3","","6.1","","87","","27","","6","","25.0","","99.01","","","","","","Mainly Clear"
"1965-09-24 23:00","1965","09","24","23:00","7.2","","6.1","","91","","27","","10","","25.0","","99.03","","","","","","Clear"
"1965-09-25 00:00","1965","09","25","00:00","6.7","","5.6","","93","","27","","10","","25.0","","99.03","","","","","","Clear"
"1965-09-25 01:00","1965","09","25","01:00","5.6","","3.9","","88","","27","","10","","25.0","","99.02","","","","","","Clear"
"1965-09-25 02:00","1965","09","25","02:00","5.6","","5.0","","95","","27","","10","","25.0","","99.03","","","","","","Clear"
"1965-09-25 03:00","1965","09","25","03:00","5.6","","5.0","","95","","27","","10","","25.0","","99.01","","","","","","Clear"
"1965-09-25 04:00","1965","09","25","04:00","5.6","","5.0","","95","","25","","8","","25.0","","99.03","","","","","","Clear"
"1965-09-25 05:00","1965","09","25","05:00","5.0","","4.4","","95","","23","","8","","25.0","","99.06","","","","","","Clear"
"1965-09-25 06:00","1965","09","25","06:00","4.4","","3.9","","95","","25","","10","","12.9","","99.12","","","","","","Mainly Clear"
"1965-09-25 07:00","1965","09","25","07:00","5.0","","4.4","","95","","23","","10","","11.3","","99.16","","","","","","Mainly Clear"
"1965-09-25 08:00","1965","09","25","08:00","7.8","","6.7","","91","","25","","13","","12.9","","99.22","","","","","","Mainly Clear"
"1965-09-25 09:00","1965","09","25","09:00","11.1","","7.2","","76","","23","","19","","32.2","","99.25","","","","","","Mainly Clear"
"1965-09-25 10:00","1965","09","25","10:00","12.8","","5.6","","61","","25","","27","","40.2","","99.25","","","","","","Mostly Cloudy"
"1965-09-25 11:00","1965","09","25","11:00","13.9","","3.3","","50","","25","","24","","40.2","","99.25","","","","","","Mainly Clear"
"1965-09-25 12:00","1965","09","25","12:00","15.0","","5.6","","53","","25","","24","","40.2","","99.21","","","","","","Mainly Clear"
"1965-09-25 13:00","1965","09","25","13:00","15.0","","5.0","","52","","27","","26","","40.2","","99.19","","","","","","Mainly Clear"
"1965-09-25 14:00","1965","09","25","14:00","16.1","","5.6","","50","","25","","23","","40.2","","99.14","","","","","","Mainly Clear"
"1965-09-25 15:00","1965","09","25","15:00","16.7","","6.1","","49","","25","","24","","40.2","","99.15","","","","","","Mainly Clear"
"1965-09-25 16:00","1965","09","25","16:00","16.1","","4.4","","46","","23","","26","","32.2","","99.16","","","","","","Mainly Clear"
"1965-09-25 17:00","1965","09","25","17:00","16.1","","5.6","","50","","25","","21","","32.2","","99.17","","","","","","Clear"
"1965-09-25 18:00","1965","09","25","18:00","14.4","","5.0","","52","","23","","16","","24.1","","99.19","","","","","","Clear"
"1965-09-25 19:00","1965","09","25","19:00","12.8","","5.6","","61","","20","","11","","25.0","","99.24","","","","","","Clear"
"1965-09-25 20:00","1965","09","25","20:00","11.7","","6.1","","68","","18","","8","","25.0","","99.32","","","","","","Clear"
"1965-09-25 21:00","1965","09","25","21:00","10.6","","6.7","","75","","18","","11","","25.0","","99.32","","","","","","Clear"
"1965-09-25 22:00","1965","09","25","22:00","10.0","","6.7","","79","","18","","8","","25.0","","99.36","","","","","","Clear"
"1965-09-25 23:00","1965","09","25","23:00","9.4","","6.1","","80","","25","","10","","25.0","","99.39","","","","","","Clear"
"1965-09-26 00:00","1965","09","26","00:00","9.4","","5.6","","76","","18","","6","","25.0","","99.40","","","","","","Clear"
"1965-09-26 01:00","1965","09","26","01:00","10.0","","5.6","","73","","20","","8","","25.0","","99.42","","","","","","Clear"
"1965-09-26 02:00","1965","09","26","02:00","9.4","","5.0","","74","","25","","13","","25.0","","99.44","","","","","","Clear"
"1965-09-26 03:00","1965","09","26","03:00","7.8","","5.0","","81","","23","","10","","25.0","","99.45","","","","","","Clear"
"1965-09-26 04:00","1965","09","26","04:00","8.3","","5.6","","81","","25","","6","","25.0","","99.45","","","","","","Clear"
"1965-09-26 05:00","1965","09","26","05:00","7.8","","5.0","","83","","25","","5","","25.0","","99.43","","","","","","Clear"
"1965-09-26 06:00","1965","09","26","06:00","7.2","","5.0","","85","","","","0","","19.3","","99.45","","","","","","Mainly Clear"
"1965-09-26 07:00","1965","09","26","07:00","7.2","","5.0","","85","","","","0","","11.3","","99.52","","","","","","Mainly Clear"
"1965-09-26 08:00","1965","09","26","08:00","9.4","","6.7","","82","","32","","6","","11.3","","99.61","","","","","","Mainly Clear"
"1965-09-26 09:00","1965","09","26","09:00","12.2","","7.2","","72","","27","","13","","19.3","","99.65","","","","","","Mostly Cloudy"
"1965-09-26 10:00","1965","09","26","10:00","13.3","","8.3","","73","","36","","23","","24.1","","99.70","","","","","","Mostly Cloudy"
"1965-09-26 11:00","1965","09","26","11:00","9.4","","6.1","","80","","36","","26","","24.1","","99.80","","","","","","Cloudy"
"1965-09-26 12:00","1965","09","26","12:00","8.3","","5.0","","79","","36","","26","","24.1","","99.89","","","","","","Cloudy"
"1965-09-26 13:00","1965","09","26","13:00","7.2","","5.0","","87","","36","","32","","24.1","","99.99","","","","","","Cloudy"
"1965-09-26 14:00","1965","09","26","14:00","6.7","","2.8","","76","","34","","34","","40.2","","100.06","","","","","","Cloudy"
"1965-09-26 15:00","1965","09","26","15:00","5.6","","2.8","","82","","34","","32","","40.2","","100.11","","","","","","Cloudy"
"1965-09-26 16:00","1965","09","26","16:00","5.6","","1.1","","73","","34","","26","","40.2","","100.17","","","","","","Mostly Cloudy"
"1965-09-26 17:00","1965","09","26","17:00","6.1","","-1.7","","58","","34","","29","","40.2","","100.27","","","","","","Mostly Cloudy"
"1965-09-26 18:00","1965","09","26","18:00","6.1","","-1.1","","60","","34","","23","","40.2","","100.36","","","","","","Mostly Cloudy"
"1965-09-26 19:00","1965","09","26","19:00","5.6","","-2.2","","57","","34","","19","","40.2","","100.50","","","","","","Mostly Cloudy"
"1965-09-26 20:00","1965","09","26","20:00","2.2","","-1.7","","76","","34","","13","","25.0","","100.60","","","","","","Clear"
"1965-09-26 21:00","1965","09","26","21:00","0.0","","-1.7","","88","","29","","6","","25.0","","100.69","","","","-2","","Clear"
"1965-09-26 22:00","1965","09","26","22:00","0.6","","-1.7","","84","","32","","6","","25.0","","100.78","","","","","","Clear"
"1965-09-26 23:00","1965","09","26","23:00","1.1","","-2.2","","79","","2","","5","","25.0","","100.85","","","","","","Clear"
"1965-09-27 00:00","1965","09","27","00:00","-2.2","","-3.9","","89","","32","","5","","25.0","","100.92","","","","-4","","Clear"
"1965-09-27 01:00","1965","09","27","01:00","-2.8","","-4.4","","89","","29","","6","","25.0","","100.97","","","","-5","","Clear"
"1965-09-27 02:00","1965","09","27","02:00","-2.8","","-4.4","","90","","32","","8","","25.0","","101.04","","","","-6","","Clear"
"1965-09-27 03:00","1965","09","27","03:00","-3.9","","-5.0","","91","","32","","10","","25.0","","101.07","","","","-8","","Clear"
"1965-09-27 04:00","1965","09","27","04:00","-3.3","","-5.0","","88","","34","","8","","25.0","","101.14","","","","-7","","Clear"
"1965-09-27 05:00","1965","09","27","05:00","-2.2","","-3.9","","88","","36","","10","","25.0","","101.17","","","","-6","","Clear"
"1965-09-27 06:00","1965","09","27","06:00","-2.8","","-4.4","","90","","36","","10","","32.2","","101.24","","","","-7","","Mainly Clear"
"1965-09-27 07:00","1965","09","27","07:00","-2.8","","-4.4","","89","","32","","8","","32.2","","101.30","","","","-6","","Mainly Clear"
"1965-09-27 08:00","1965","09","27","08:00","1.1","","-1.7","","82","","36","","10","","40.2","","101.33","","","","","","Mainly Clear"
"1965-09-27 09:00","1965","09","27","09:00","5.6","","-1.7","","59","","7","","13","","40.2","","101.34","","","","","","Mainly Clear"
"1965-09-27 10:00","1965","09","27","10:00","7.2","","-5.6","","40","","7","","16","","40.2","","101.39","","","","","","Mainly Clear"
"1965-09-27 11:00","1965","09","27","11:00","7.8","","-4.4","","42","","5","","13","","40.2","","101.35","","","","","","Mainly Clear"
"1965-09-27 12:00","1965","09","27","12:00","8.3","","-2.8","","45","","16","","13","","40.2","","101.32","","","","","","Mainly Clear"
"1965-09-27 13:00","1965","09","27","13:00","7.8","","0.0","","59","","14","","16","","40.2","","101.28","","","","","","Mainly Clear"
"1965-09-27 14:00","1965","09","27","14:00","8.3","","0.0","","56","","18","","14","","40.2","","101.20","","","","","","Mainly Clear"
"1965-09-27 15:00","1965","09","27","15:00","8.3","","-1.7","","48","","14","","13","","40.2","","101.13","","","","","","Mostly Cloudy"
"1965-09-27 16:00","1965","09","27","16:00","7.8","","-2.2","","49","","14","","10","","40.2","","101.10","","","","","","Mainly Clear"
"1965-09-27 17:00","1965","09","27","17:00","7.8","","-2.2","","49","","14","","13","","40.2","","101.10","","","","","","Mainly Clear"
"1965-09-27 18:00","1965","09","27","18:00","6.7","","-1.1","","57","","14","","11","","40.2","","101.09","","","","","","Mainly Clear"
"1965-09-27 19:00","1965","09","27","19:00","6.7","","-0.6","","59","","11","","6","","25.0","","101.08","","","","","","Mostly Cloudy"
"1965-09-27 20:00","1965","09","27","20:00","5.6","","0.0","","68","","7","","6","","25.0","","101.06","","","","","","Mostly Cloudy"
"1965-09-27 21:00","1965","09","27","21:00","6.1","","0.0","","65","","2","","6","","25.0","","101.05","","","","","","Mostly Cloudy"
"1965-09-27 22:00","1965","09","27","22:00","5.0","","1.1","","77","","2","","10","","25.0","","100.99","","","","","","Mostly Cloudy"
"1965-09-27 23:00","1965","09","27","23:00","4.4","","1.1","","78","","36","","8","","25.0","","100.99","","","","","","Mostly Cloudy"
"1965-09-28 00:00","1965","09","28","00:00","3.3","","0.6","","82","","2","","10","","25.0","","100.94","","","","","","Mainly Clear"
"1965-09-28 01:00","1965","09","28","01:00","2.8","","0.6","","84","","2","","10","","25.0","","100.85","","","","","","Mainly Clear"
"1965-09-28 02:00","1965","09","28","02:00","1.1","","-0.6","","89","","2","","10","","25.0","","100.80","","","","","","Mainly Clear"
"1965-09-28 03:00","1965","09","28","03:00","1.7","","0.0","","89","","2","","10","","25.0","","100.75","","","","","","Mostly Cloudy"
"1965-09-28 04:00","1965","09","28","04:00","2.2","","0.6","","89","","36","","5","","25.0","","100.72","","","","","","Mostly Cloudy"
"1965-09-28 05:00","1965","09","28","05:00","3.3","","1.7","","87","","2","","8","","25.0","","100.64","","","","","","Mostly Cloudy"
"1965-09-28 06:00","1965","09","28","06:00","3.9","","2.2","","88","","","","0","","24.1","","100.61","","","","","","Mostly Cloudy"
"1965-09-28 07:00","1965","09","28","07:00","7.2","","3.3","","76","","9","","6","","19.3","","100.60","","","","","","Mostly Cloudy"
"1965-09-28 08:00","1965","09","28","08:00","8.9","","3.3","","68","","11","","11","","16.1","","100.55","","","","","","Mostly Cloudy"
"1965-09-28 09:00","1965","09","28","09:00","9.4","","2.8","","63","","11","","11","","16.1","","100.49","","","","","","Mostly Cloudy"
"1965-09-28 10:00","1965","09","28","10:00","11.1","","2.8","","57","","9","","8","","24.1","","100.45","","","","","","Mostly Cloudy"
"1965-09-28 11:00","1965","09","28","11:00","11.7","","3.3","","57","","11","","6","","24.1","","100.30","","","","","","Mostly Cloudy"
"1965-09-28 12:00","1965","09","28","12:00","11.7","","3.3","","56","","16","","10","","19.3","","100.23","","","","","","Mostly Cloudy"
"1965-09-28 13:00","1965","09","28","13:00","11.7","","3.9","","59","","11","","11","","16.1","","100.15","","","","","","Cloudy"
"1965-09-28 14:00","1965","09","28","14:00","12.2","","4.4","","60","","11","","11","","16.1","","100.05","","","","","","Cloudy"
"1965-09-28 15:00","1965","09","28","15:00","12.2","","5.0","","62","","14","","10","","16.1","","99.99","","","","","","Cloudy"
"1965-09-28 16:00","1965","09","28","16:00","11.7","","5.0","","63","","14","","11","","16.1","","99.89","","","","","","Mostly Cloudy"
"1965-09-28 17:00","1965","09","28","17:00","11.7","","5.0","","64","","16","","8","","16.1","","99.87","","","","","","Cloudy"
"1965-09-28 18:00","1965","09","28","18:00","10.6","","6.7","","77","","20","","3","","9.7","","99.88","","","","","","Rain Showers,Haze"
"1965-09-28 19:00","1965","09","28","19:00","10.6","","6.7","","77","","9","","6","","12.9","","99.82","","","","","","Cloudy"
"1965-09-28 20:00","1965","09","28","20:00","10.0","","6.7","","79","","7","","5","","12.9","","99.81","","","","","","Rain Showers"
"1965-09-28 21:00","1965","09","28","21:00","10.0","","7.8","","86","","5","","6","","12.9","","99.75","","","","","","Rain Showers"
"1965-09-28 22:00","1965","09","28","22:00","10.0","","8.3","","88","","14","","6","","11.3","","99.71","","","","","","Mostly Cloudy"
"1965-09-28 23:00","1965","09","28","23:00","9.4","","8.3","","94","","","","0","","9.7","","99.73","","","","","","Fog"
"1965-09-29 00:00","1965","09","29","00:00","8.9","","7.8","","94","","34","","6","","9.7","","99.70","","","","","","Fog"
"1965-09-29 01:00","1965","09","29","01:00","8.3","","7.2","","94","","34","","10","","8.0","","99.67","","","","","","Fog"
"1965-09-29 02:00","1965","09","29","02:00","8.3","","7.8","","96","","36","","10","","6.4","","99.62","","","","","","Rain Showers,Fog"
"1965-09-29 03:00","1965","09","29","03:00","8.3","","7.8","","96","","32","","10","","6.4","","99.59","","","","","","Rain Showers,Fog"
"1965-09-29 04:00","1965","09","29","04:00","7.8","","7.2","","98","","32","","8","","4.8","","99.59","","","","","","Fog"
"1965-09-29 05:00","1965","09","29","05:00","8.9","","7.8","","94","","36","","5","","3.2","","99.56","","","","","","Fog"
"1965-09-29 06:00","1965","09","29","06:00","9.4","","8.9","","96","","","","0","","3.2","","99.60","","","","","","Rain Showers,Fog"
"1965-09-29 07:00","1965","09","29","07:00","10.0","","9.4","","96","","","","0","","2.4","","99.64","","","","","","Rain Showers,Fog"
"1965-09-29 08:00","1965","09","29","08:00","10.6","","9.4","","94","","","","0","","2.8","","99.65","","","","","","Rain Showers,Fog"
"1965-09-29 09:00","1965","09","29","09:00","11.1","","10.6","","96","","","","0","","2.8","","99.74","","","","","","Rain Showers,Fog"
"1965-09-29 10:00","1965","09","29","10:00","11.7","","10.6","","94","","5","","5","","2.8","","99.75","","","","","","Rain Showers,Fog"
"1965-09-29 11:00","1965","09","29","11:00","11.7","","10.6","","94","","9","","6","","2.8","","99.75","","","","","","Rain Showers,Fog"
"1965-09-29 12:00","1965","09","29","12:00","12.2","","11.1","","94","","14","","6","","1.2","","99.75","","","","","","Rain,Fog"
"1965-09-29 13:00","1965","09","29","13:00","12.2","","11.1","","94","","9","","8","","1.6","","99.77","","","","","","Rain,Fog"
"1965-09-29 14:00","1965","09","29","14:00","11.7","","11.1","","98","","9","","10","","1.6","","99.79","","","","","","Rain,Drizzle,Fog"
"1965-09-29 15:00","1965","09","29","15:00","11.7","","11.7","","100","","7","","10","","1.2","","99.78","","","","","","Drizzle,Fog"
"1965-09-29 16:00","1965","09","29","16:00","11.7","","11.1","","96","","9","","8","","0.8","","99.78","","","","","","Drizzle,Fog"
"1965-09-29 17:00","1965","09","29","17:00","11.7","","11.1","","96","","9","","13","","1.2","","99.79","","","","","","Drizzle,Fog"
"1965-09-29 18:00","1965","09","29","18:00","11.1","","10.6","","96","","9","","16","","2.4","","99.81","","","","","","Drizzle,Fog"
"1965-09-29 19:00","1965","09","29","19:00","11.1","","10.0","","94","","9","","16","","6.4","","99.84","","","","","","Fog"
"1965-09-29 20:00","1965","09","29","20:00","11.7","","10.0","","89","","9","","14","","4.8","","99.89","","","","","","Fog"
"1965-09-29 21:00","1965","09","29","21:00","11.7","","10.6","","93","","9","","19","","3.2","","99.90","","","","","","Drizzle,Fog"
"1965-09-29 22:00","1965","09","29","22:00","11.1","","10.0","","92","","9","","14","","4.8","","99.89","","","","","","Drizzle,Fog"
"1965-09-29 23:00","1965","09","29","23:00","10.6","","9.4","","92","","9","","18","","4.8","","99.91","","","","","","Fog"
"1965-09-30 00:00","1965","09","30","00:00","10.6","","9.4","","92","","9","","14","","6.4","","99.93","","","","","","Fog"
"1965-09-30 01:00","1965","09","30","01:00","10.0","","8.9","","94","","9","","16","","6.4","","99.92","","","","","","Fog"
"1965-09-30 02:00","1965","09","30","02:00","9.4","","8.3","","94","","7","","16","","6.4","","99.88","","","","","","Fog"
"1965-09-30 03:00","1965","09","30","03:00","10.0","","8.9","","94","","7","","6","","4.8","","99.88","","","","","","Fog"
"1965-09-30 04:00","1965","09","30","04:00","10.6","","9.4","","94","","9","","14","","4.8","","99.85","","","","","","Fog"
"1965-09-30 05:00","1965","09","30","05:00","11.1","","10.0","","92","","9","","18","","4.8","","99.81","","","","","","Drizzle,Fog"
"1965-09-30 06:00","1965","09","30","06:00","10.6","","9.4","","94","","9","","13","","4.8","","99.81","","","","","","Fog"
"1965-09-30 07:00","1965","09","30","07:00","11.7","","10.6","","94","","9","","13","","4.0","","99.77","","","","","","Fog"
"1965-09-30 08:00","1965","09","30","08:00","12.2","","11.1","","94","","9","","18","","3.6","","99.70","","","","","","Fog"
"1965-09-30 09:00","1965","09","30","09:00","12.8","","11.7","","95","","9","","19","","3.2","","99.68","","","","","","Fog"
"1965-09-30 10:00","1965","09","30","10:00","13.3","","11.7","","91","","11","","19","","2.8","","99.61","","","","","","Fog"
"1965-09-30 11:00","1965","09","30","11:00","14.4","","13.3","","91","","9","","19","","2.8","","99.53","","","","","","Fog"
"1965-09-30 12:00","1965","09","30","12:00","14.4","","12.8","","90","","9","","16","","2.8","","99.43","","","","","","Fog"
"1965-09-30 13:00","1965","09","30","13:00","14.4","","12.8","","90","","9","","18","","2.8","","99.32","","","","","","Fog"
"1965-09-30 14:00","1965","09","30","14:00","14.4","","12.8","","90","","9","","19","","2.8","","99.23","","","","","","Fog"
"1965-09-30 15:00","1965","09","30","15:00","16.1","","13.3","","85","","9","","14","","2.8","","99.14","","","","","","Haze"
"1965-09-30 16:00","1965","09","30","16:00","17.2","","13.9","","81","","9","","19","","3.2","","99.01","","","","","","Haze"
"1965-09-30 17:00","1965","09","30","17:00","17.2","","13.9","","81","","9","","10","","3.2","","98.90","","","","","","Haze"
"1965-09-30 18:00","1965","09","30","18:00","16.7","","14.4","","85","","9","","6","","3.2","","98.83","","","","","","Haze"
"1965-09-30 19:00","1965","09","30","19:00","16.7","","14.4","","85","","16","","8","","4.8","","98.73","","","","","","Rain Showers,Haze"
"1965-09-30 20:00","1965","09","30","20:00","17.2","","14.4","","83","","18","","8","","6.4","","98.72","","","","","","Haze"
"1965-09-30 21:00","1965","09","30","21:00","16.7","","14.4","","87","","18","","18","","6.4","","98.71","","","","","","Rain Showers,Haze"
"1965-09-30 22:00","1965","09","30","22:00","16.7","","16.1","","96","","18","","26","","3.2","","98.62","","","","","","Rain Showers,Fog"
"1965-09-30 23:00","1965","09","30","23:00","16.7","","16.1","","96","","18","","24","","4.8","","98.52","","","","","","Rain,Fog"
