"Station Name","TORONTO LESTER B. PEARSON INT'L A"
"Province","ONTARIO"
"Latitude","43.68"
"Longitude","-79.63"
"Elevation","173.40"
"Climate Identifier","6158733"
"WMO Identifier","71624"
"TC Identifier","YYZ"
"All times are specified in Local Standard Time (LST). Add 1 hour to adjust for Daylight Saving Time where and when it is observed."

"Legend"
"E","Estimated"
"M","Missing"
"NA","Not Available"

"Date/Time","Year","Month","Day","Time","Temp (°C)","Temp Flag","Dew Point Temp (°C)","Dew Point Temp Flag","Rel Hum (%)","Rel Hum Flag","Wind Dir (10s deg)","Wind Dir Flag","Wind Spd (km/h)","Wind Spd Flag","Visibility (km)","Visibility Flag","Stn Press (kPa)","Stn Press Flag","Hmdx","Hmdx Flag","Wind Chill","Wind Chill Flag","Weather"
"2004-10-01 00:00","2004","10","01","00:00","11.9","","6.0","","67","","30","","9","","24.1","","99.91","","","","","","Clear"
"2004-10-01 01:00","2004","10","01","01:00","10.6","","5.9","","73","","27","","4","","24.1","","99.95","","","","","","Clear"
"2004-10-01 02:00","2004","10","01","02:00","10.7","","6.8","","77","","28","","4","","24.1","","99.97","","","","","","Clear"
"2004-10-01 03:00","2004","10","01","03:00","10.7","","7.1","","78","","29","","7","","24.1","","99.99","","","","","","Clear"
"2004-10-01 04:00","2004","10","01","04:00","8.6","","6.0","","84","","27","","7","","24.1","","100.02","","","","","","Clear"
"2004-10-01 05:00","2004","10","01","05:00","7.9","","5.2","","83","","29","","6","","24.1","","100.04","","","","","","Clear"
"2004-10-01 06:00","2004","10","01","06:00","8.4","","4.8","","78","","32","","4","","24.1","","100.05","","","","","","Clear"
"2004-10-01 07:00","2004","10","01","07:00","8.1","","4.2","","76","","36","","4","","24.1","","100.09","","","","","","Clear"
"2004-10-01 08:00","2004","10","01","08:00","12.2","","5.1","","62","","","","0","","19.3","","100.11","","","","","","Clear"
"2004-10-01 09:00","2004","10","01","09:00","15.6","","5.6","","51","","16","","4","","16.1","","100.11","","","","","","Clear"
"2004-10-01 10:00","2004","10","01","10:00","18.4","","5.7","","43","","14","","7","","19.3","","100.08","","","","","","Clear"
"2004-10-01 11:00","2004","10","01","11:00","19.7","","5.6","","40","","14","","11","","24.1","","100.05","","","","","","Mainly Clear"
"2004-10-01 12:00","2004","10","01","12:00","20.5","","7.2","","42","","15","","13","","24.1","","100.03","","","","","","Mainly Clear"
"2004-10-01 13:00","2004","10","01","13:00","21.0","","8.3","","44","","14","","15","","24.1","","99.98","","","","","","Mostly Cloudy"
"2004-10-01 14:00","2004","10","01","14:00","21.3","","10.2","","49","","13","","20","","24.1","","99.90","","","","","","Mostly Cloudy"
"2004-10-01 15:00","2004","10","01","15:00","20.9","","10.0","","50","","15","","20","","24.1","","99.84","","","","","","Mostly Cloudy"
"2004-10-01 16:00","2004","10","01","16:00","20.5","","9.1","","48","","15","","22","","24.1","","99.77","","","","","","Mostly Cloudy"
"2004-10-01 17:00","2004","10","01","17:00","19.3","","9.5","","53","","13","","17","","24.1","","99.72","","","","","","Mostly Cloudy"
"2004-10-01 18:00","2004","10","01","18:00","17.5","","10.4","","63","","13","","15","","24.1","","99.67","","","","","","Mainly Clear"
"2004-10-01 19:00","2004","10","01","19:00","16.7","","10.5","","67","","12","","11","","24.1","","99.67","","","","","","Mainly Clear"
"2004-10-01 20:00","2004","10","01","20:00","16.3","","11.1","","71","","12","","9","","24.1","","99.62","","","","","","Mostly Cloudy"
"2004-10-01 21:00","2004","10","01","21:00","16.4","","12.5","","78","","10","","9","","24.1","","99.54","","","","","","Mostly Cloudy"
"2004-10-01 22:00","2004","10","01","22:00","16.3","","13.1","","81","","27","","4","","24.1","","99.48","","","","","","Mostly Cloudy"
"2004-10-01 23:00","2004","10","01","23:00","16.9","","13.9","","82","","15","","7","","24.1","","99.41","","","","","","Mostly Cloudy"
"2004-10-02 00:00","2004","10","02","00:00","17.4","","14.3","","82","","15","","7","","24.1","","99.36","","","","","","Mostly Cloudy"
"2004-10-02 01:00","2004","10","02","01:00","17.4","","14.3","","82","","16","","11","","24.1","","99.33","","","","","","Mostly Cloudy"
"2004-10-02 02:00","2004","10","02","02:00","18.2","","15.2","","83","","18","","11","","19.3","","99.27","","","","","","Cloudy"
"2004-10-02 03:00","2004","10","02","03:00","18.6","","15.7","","83","","20","","13","","16.1","","99.24","","","","","","Cloudy"
"2004-10-02 04:00","2004","10","02","04:00","19.0","","15.4","","80","","21","","17","","16.1","","99.25","","","","","","Rain"
"2004-10-02 05:00","2004","10","02","05:00","19.0","","13.8","","72","","22","","20","","19.3","","99.18","","","","","","Cloudy"
"2004-10-02 06:00","2004","10","02","06:00","18.5","","13.7","","74","","20","","20","","16.1","","99.17","","","","","","Cloudy"
"2004-10-02 07:00","2004","10","02","07:00","18.4","","14.5","","78","","21","","26","","14.5","","99.16","","","","","","Mostly Cloudy"
"2004-10-02 08:00","2004","10","02","08:00","18.6","","14.7","","78","","22","","26","","12.9","","99.15","","","","","","Cloudy"
"2004-10-02 09:00","2004","10","02","09:00","18.4","","14.6","","79","","22","","20","","9.7","","99.14","","","","","","Haze"
"2004-10-02 10:00","2004","10","02","10:00","17.4","","14.0","","80","","24","","20","","11.3","","99.14","","","","","","Cloudy"
"2004-10-02 11:00","2004","10","02","11:00","13.2","","10.9","","86","","31","","39","","19.3","","99.29","","","","","","Rain"
"2004-10-02 12:00","2004","10","02","12:00","12.9","","9.8","","81","","31","","37","","24.1","","99.43","","","","","","Mostly Cloudy"
"2004-10-02 13:00","2004","10","02","13:00","12.9","","7.2","","68","","31","","39","","24.1","","99.51","","","","","","Mostly Cloudy"
"2004-10-02 14:00","2004","10","02","14:00","15.3","","5.3","","51","","31","","37","","24.1","","99.57","","","","","","Clear"
"2004-10-02 15:00","2004","10","02","15:00","16.1","","3.6","","43","","29","","41","","24.1","","99.67","","","","","","Clear"
"2004-10-02 16:00","2004","10","02","16:00","14.9","","1.3","","40","","29","","30","","24.1","","99.78","","","","","","Clear"
"2004-10-02 17:00","2004","10","02","17:00","13.7","","2.0","","45","","28","","26","","24.1","","99.90","","","","","","Clear"
"2004-10-02 18:00","2004","10","02","18:00","12.1","","2.5","","52","","28","","17","","24.1","","100.01","","","","","","Clear"
"2004-10-02 19:00","2004","10","02","19:00","11.4","","2.8","","55","","29","","19","","24.1","","100.08","","","","","","Clear"
"2004-10-02 20:00","2004","10","02","20:00","9.2","","2.5","","63","","26","","7","","24.1","","100.14","","","","","","Clear"
"2004-10-02 21:00","2004","10","02","21:00","8.3","","2.7","","68","","25","","6","","24.1","","100.18","","","","","","Clear"
"2004-10-02 22:00","2004","10","02","22:00","8.1","","2.6","","68","","27","","7","","24.1","","100.21","","","","","","Clear"
"2004-10-02 23:00","2004","10","02","23:00","8.0","","3.0","","71","","24","","4","","24.1","","100.23","","","","","","Clear"
"2004-10-03 00:00","2004","10","03","00:00","7.4","","3.0","","74","","26","","4","","24.1","","100.23","","","","","","Clear"
"2004-10-03 01:00","2004","10","03","01:00","8.0","","2.9","","70","","24","","6","","24.1","","100.26","","","","","","Clear"
"2004-10-03 02:00","2004","10","03","02:00","6.0","","2.1","","76","","25","","11","","24.1","","100.25","","","","","","Clear"
"2004-10-03 03:00","2004","10","03","03:00","4.8","","1.7","","80","","26","","9","","24.1","","100.22","","","","","","Clear"
"2004-10-03 04:00","2004","10","03","04:00","3.9","","1.2","","83","","27","","15","","24.1","","100.23","","","","","","Clear"
"2004-10-03 05:00","2004","10","03","05:00","4.9","","2.0","","81","","28","","7","","24.1","","100.23","","","","","","Clear"
"2004-10-03 06:00","2004","10","03","06:00","5.7","","1.8","","76","","30","","6","","24.1","","100.25","","","","","","Clear"
"2004-10-03 07:00","2004","10","03","07:00","5.2","","1.8","","79","","28","","7","","24.1","","100.25","","","","","","Clear"
"2004-10-03 08:00","2004","10","03","08:00","7.9","","4.4","","79","","26","","7","","24.1","","100.28","","","","","","Clear"
"2004-10-03 09:00","2004","10","03","09:00","11.5","","4.2","","61","","25","","13","","24.1","","100.27","","","","","","Clear"
"2004-10-03 10:00","2004","10","03","10:00","13.4","","2.5","","48","","21","","22","","24.1","","100.21","","","","","","Mainly Clear"
"2004-10-03 11:00","2004","10","03","11:00","14.6","","1.7","","42","","22","","20","","24.1","","100.12","","","","","","Mainly Clear"
"2004-10-03 12:00","2004","10","03","12:00","15.9","","1.6","","38","","22","","22","","24.1","","100.04","","","","","","Mainly Clear"
"2004-10-03 13:00","2004","10","03","13:00","17.0","","0.8","","33","","23","","17","","24.1","","99.93","","","","","","Mainly Clear"
"2004-10-03 14:00","2004","10","03","14:00","17.9","","-0.1","","30","","22","","28","","24.1","","99.82","","","","","","Mainly Clear"
"2004-10-03 15:00","2004","10","03","15:00","17.7","","-0.8","","28","","24","","26","","24.1","","99.73","","","","","","Mainly Clear"
"2004-10-03 16:00","2004","10","03","16:00","17.4","","-0.9","","29","","23","","20","","24.1","","99.64","","","","","","Mainly Clear"
"2004-10-03 17:00","2004","10","03","17:00","16.3","","0.3","","34","","22","","26","","24.1","","99.64","","","","","","Mostly Cloudy"
"2004-10-03 18:00","2004","10","03","18:00","15.1","","1.3","","39","","22","","17","","24.1","","99.59","","","","","","Mainly Clear"
"2004-10-03 19:00","2004","10","03","19:00","13.8","","2.7","","47","","21","","19","","24.1","","99.55","","","","","","Mainly Clear"
"2004-10-03 20:00","2004","10","03","20:00","12.6","","2.1","","49","","22","","17","","24.1","","99.54","","","","","","Clear"
"2004-10-03 21:00","2004","10","03","21:00","12.0","","2.6","","53","","20","","15","","24.1","","99.45","","","","","","Clear"
"2004-10-03 22:00","2004","10","03","22:00","11.3","","3.9","","60","","22","","9","","24.1","","99.39","","","","","","Clear"
"2004-10-03 23:00","2004","10","03","23:00","12.9","","5.6","","61","","24","","22","","24.1","","99.38","","","","","","Mostly Cloudy"
"2004-10-04 00:00","2004","10","04","00:00","13.2","","6.2","","62","","24","","20","","24.1","","99.30","","","","","","Mostly Cloudy"
"2004-10-04 01:00","2004","10","04","01:00","13.2","","5.7","","60","","23","","24","","24.1","","99.23","","","","","","Mostly Cloudy"
"2004-10-04 02:00","2004","10","04","02:00","13.0","","5.7","","61","","22","","11","","24.1","","99.12","","","","","","Mostly Cloudy"
"2004-10-04 03:00","2004","10","04","03:00","13.7","","5.8","","59","","20","","20","","24.1","","99.03","","","","","","Mainly Clear"
"2004-10-04 04:00","2004","10","04","04:00","13.5","","6.2","","61","","22","","19","","24.1","","98.98","","","","","","Mainly Clear"
"2004-10-04 05:00","2004","10","04","05:00","13.6","","6.2","","61","","22","","19","","24.1","","98.91","","","","","","Mainly Clear"
"2004-10-04 06:00","2004","10","04","06:00","14.0","","5.7","","57","","23","","22","","24.1","","98.93","","","","","","Mostly Cloudy"
"2004-10-04 07:00","2004","10","04","07:00","14.0","","3.6","","49","","25","","20","","24.1","","98.96","","","","","","Mostly Cloudy"
"2004-10-04 08:00","2004","10","04","08:00","13.5","","3.5","","51","","30","","30","","24.1","","99.11","","","","","","Cloudy"
"2004-10-04 09:00","2004","10","04","09:00","10.7","","4.1","","64","","33","","33","","24.1","","99.30","","","","","","Cloudy"
"2004-10-04 10:00","2004","10","04","10:00","11.8","","3.9","","58","","30","","28","","24.1","","99.39","","","","","","Mostly Cloudy"
"2004-10-04 11:00","2004","10","04","11:00","12.8","","2.4","","49","","30","","33","","24.1","","99.47","","","","","","Mostly Cloudy"
"2004-10-04 12:00","2004","10","04","12:00","14.9","","-2.1","","31","","30","","33","","24.1","","99.52","","","","","","Mainly Clear"
"2004-10-04 13:00","2004","10","04","13:00","14.0","","-1.1","","35","","32","","35","","24.1","","99.59","","","","","","Mostly Cloudy"
"2004-10-04 14:00","2004","10","04","14:00","12.7","","1.3","","46","","35","","24","","24.1","","99.68","","","","","","Mostly Cloudy"
"2004-10-04 15:00","2004","10","04","15:00","12.4","","2.3","","50","","35","","24","","24.1","","99.77","","","","","","Rain Showers"
"2004-10-04 16:00","2004","10","04","16:00","11.8","","1.0","","47","","36","","30","","24.1","","99.86","","","","","","Mainly Clear"
"2004-10-04 17:00","2004","10","04","17:00","11.1","","0.5","","48","","34","","30","","24.1","","99.97","","","","","","Mostly Cloudy"
"2004-10-04 18:00","2004","10","04","18:00","9.4","","0.1","","52","","35","","24","","24.1","","100.08","","","","","","Clear"
"2004-10-04 19:00","2004","10","04","19:00","8.6","","-0.2","","54","","34","","24","","24.1","","100.19","","","","","","Clear"
"2004-10-04 20:00","2004","10","04","20:00","7.9","","0.3","","59","","31","","15","","24.1","","100.29","","","","","","Clear"
"2004-10-04 21:00","2004","10","04","21:00","5.7","","-0.1","","66","","29","","11","","24.1","","100.34","","","","","","Clear"
"2004-10-04 22:00","2004","10","04","22:00","6.4","","0.6","","66","","32","","17","","24.1","","100.41","","","","","","Clear"
"2004-10-04 23:00","2004","10","04","23:00","5.2","","0.4","","71","","31","","13","","24.1","","100.44","","","","","","Clear"
"2004-10-05 00:00","2004","10","05","00:00","4.8","","-0.3","","70","","33","","7","","24.1","","100.45","","","","","","Clear"
"2004-10-05 01:00","2004","10","05","01:00","4.5","","-0.4","","70","","28","","7","","24.1","","100.48","","","","","","Clear"
"2004-10-05 02:00","2004","10","05","02:00","3.9","","-0.3","","74","","34","","11","","24.1","","100.51","","","","","","Clear"
"2004-10-05 03:00","2004","10","05","03:00","4.3","","-0.2","","73","","30","","13","","24.1","","100.54","","","","","","Mainly Clear"
"2004-10-05 04:00","2004","10","05","04:00","4.2","","0.1","","75","","32","","11","","24.1","","100.56","","","","","","Clear"
"2004-10-05 05:00","2004","10","05","05:00","3.9","","0.1","","76","","30","","15","","24.1","","100.65","","","","","","Mainly Clear"
"2004-10-05 06:00","2004","10","05","06:00","4.1","","0.0","","75","","32","","19","","24.1","","100.74","","","","","","Mainly Clear"
"2004-10-05 07:00","2004","10","05","07:00","4.4","","0.2","","74","","31","","13","","24.1","","100.81","","","","","","Mainly Clear"
"2004-10-05 08:00","2004","10","05","08:00","6.7","","1.6","","70","","32","","11","","24.1","","100.83","","","","","","Mainly Clear"
"2004-10-05 09:00","2004","10","05","09:00","7.8","","0.9","","62","","34","","13","","24.1","","100.87","","","","","","Clear"
"2004-10-05 10:00","2004","10","05","10:00","8.8","","0.1","","54","","1","","7","","24.1","","100.86","","","","","","Mainly Clear"
"2004-10-05 11:00","2004","10","05","11:00","9.2","","-1.7","","46","","31","","7","","24.1","","100.84","","","","","","Mainly Clear"
"2004-10-05 12:00","2004","10","05","12:00","11.0","","-0.9","","44","","27","","9","","24.1","","100.81","","","","","","Mainly Clear"
"2004-10-05 13:00","2004","10","05","13:00","12.6","","-1.1","","39","","26","","17","","24.1","","100.72","","","","","","Mainly Clear"
"2004-10-05 14:00","2004","10","05","14:00","13.3","","-0.9","","37","","28","","22","","24.1","","100.67","","","","","","Mainly Clear"
"2004-10-05 15:00","2004","10","05","15:00","13.4","","-0.8","","38","","27","","24","","24.1","","100.62","","","","","","Clear"
"2004-10-05 16:00","2004","10","05","16:00","13.2","","-0.5","","39","","26","","20","","24.1","","100.57","","","","","","Clear"
"2004-10-05 17:00","2004","10","05","17:00","12.8","","0.0","","41","","26","","17","","24.1","","100.55","","","","","","Clear"
"2004-10-05 18:00","2004","10","05","18:00","11.3","","-0.6","","44","","26","","15","","24.1","","100.54","","","","","","Clear"
"2004-10-05 19:00","2004","10","05","19:00","9.0","","-0.4","","52","","26","","11","","24.1","","100.52","","","","","","Clear"
"2004-10-05 20:00","2004","10","05","20:00","8.9","","-0.3","","52","","25","","15","","24.1","","100.51","","","","","","Mainly Clear"
"2004-10-05 21:00","2004","10","05","21:00","8.5","","-0.4","","53","","22","","17","","24.1","","100.51","","","","","","Mainly Clear"
"2004-10-05 22:00","2004","10","05","22:00","6.6","","-0.2","","62","","25","","11","","24.1","","100.50","","","","","","Clear"
"2004-10-05 23:00","2004","10","05","23:00","6.3","","0.6","","67","","23","","9","","24.1","","100.52","","","","","","Clear"
"2004-10-06 00:00","2004","10","06","00:00","6.7","","0.1","","63","","23","","13","","24.1","","100.48","","","","","","Mainly Clear"
"2004-10-06 01:00","2004","10","06","01:00","7.1","","-1.0","","56","","22","","15","","24.1","","100.46","","","","","","Clear"
"2004-10-06 02:00","2004","10","06","02:00","6.3","","-1.1","","59","","23","","13","","24.1","","100.47","","","","","","Clear"
"2004-10-06 03:00","2004","10","06","03:00","7.0","","-0.9","","57","","21","","9","","24.1","","100.41","","","","","","Mainly Clear"
"2004-10-06 04:00","2004","10","06","04:00","6.2","","-0.6","","62","","","","0","","24.1","","100.43","","","","","","Mostly Cloudy"
"2004-10-06 05:00","2004","10","06","05:00","6.8","","-0.4","","60","","25","","20","","24.1","","100.43","","","","","","Clear"
"2004-10-06 06:00","2004","10","06","06:00","7.4","","-0.1","","59","","24","","24","","24.1","","100.42","","","","","","Mostly Cloudy"
"2004-10-06 07:00","2004","10","06","07:00","9.5","","1.4","","57","","24","","20","","24.1","","100.43","","","","","","Mostly Cloudy"
"2004-10-06 08:00","2004","10","06","08:00","10.1","","1.8","","56","","22","","15","","24.1","","100.47","","","","","","Mostly Cloudy"
"2004-10-06 09:00","2004","10","06","09:00","13.6","","2.2","","46","","24","","22","","24.1","","100.48","","","","","","Mostly Cloudy"
"2004-10-06 10:00","2004","10","06","10:00","15.3","","2.7","","43","","26","","28","","24.1","","100.46","","","","","","Mostly Cloudy"
"2004-10-06 11:00","2004","10","06","11:00","16.5","","3.2","","41","","26","","33","","24.1","","100.43","","","","","","Mostly Cloudy"
"2004-10-06 12:00","2004","10","06","12:00","18.9","","4.4","","38","","26","","30","","24.1","","100.39","","","","","","Mainly Clear"
"2004-10-06 13:00","2004","10","06","13:00","19.9","","4.8","","37","","27","","26","","24.1","","100.34","","","","","","Mostly Cloudy"
"2004-10-06 14:00","2004","10","06","14:00","21.3","","5.2","","35","","24","","24","","24.1","","100.30","","","","","","Mainly Clear"
"2004-10-06 15:00","2004","10","06","15:00","21.6","","5.2","","34","","24","","32","","24.1","","100.28","","","","","","Mainly Clear"
"2004-10-06 16:00","2004","10","06","16:00","21.3","","5.3","","35","","25","","30","","24.1","","100.27","","","","","","Mainly Clear"
"2004-10-06 17:00","2004","10","06","17:00","20.4","","5.1","","37","","25","","24","","24.1","","100.28","","","","","","Mostly Cloudy"
"2004-10-06 18:00","2004","10","06","18:00","18.8","","5.7","","42","","23","","13","","24.1","","100.32","","","","","","Mostly Cloudy"
"2004-10-06 19:00","2004","10","06","19:00","17.0","","7.1","","52","","24","","20","","24.1","","100.40","","","","","","Clear"
"2004-10-06 20:00","2004","10","06","20:00","15.8","","7.6","","58","","24","","13","","24.1","","100.41","","","","","","Clear"
"2004-10-06 21:00","2004","10","06","21:00","15.3","","7.2","","58","","21","","7","","24.1","","100.42","","","","","","Clear"
"2004-10-06 22:00","2004","10","06","22:00","14.8","","6.7","","58","","21","","4","","24.1","","100.43","","","","","","Clear"
"2004-10-06 23:00","2004","10","06","23:00","13.9","","5.5","","57","","24","","11","","24.1","","100.44","","","","","","Clear"
"2004-10-07 00:00","2004","10","07","00:00","13.5","","5.2","","57","","26","","9","","24.1","","100.45","","","","","","Clear"
"2004-10-07 01:00","2004","10","07","01:00","12.7","","5.5","","62","","27","","11","","24.1","","100.46","","","","","","Clear"
"2004-10-07 02:00","2004","10","07","02:00","13.3","","6.2","","62","","30","","7","","24.1","","100.49","","","","","","Clear"
"2004-10-07 03:00","2004","10","07","03:00","12.2","","6.0","","66","","26","","15","","24.1","","100.49","","","","","","Clear"
"2004-10-07 04:00","2004","10","07","04:00","12.0","","6.1","","67","","27","","7","","24.1","","100.55","","","","","","Clear"
"2004-10-07 05:00","2004","10","07","05:00","11.4","","6.2","","70","","27","","11","","24.1","","100.59","","","","","","Clear"
"2004-10-07 06:00","2004","10","07","06:00","12.8","","7.3","","69","","28","","15","","24.1","","100.62","","","","","","Clear"
"2004-10-07 07:00","2004","10","07","07:00","12.8","","7.0","","68","","28","","7","","24.1","","100.66","","","","","","Clear"
"2004-10-07 08:00","2004","10","07","08:00","16.0","","8.5","","61","","28","","6","","24.1","","100.71","","","","","","Clear"
"2004-10-07 09:00","2004","10","07","09:00","18.8","","8.7","","52","","29","","9","","24.1","","100.72","","","","","","Clear"
"2004-10-07 10:00","2004","10","07","10:00","21.0","","9.7","","48","","23","","6","","24.1","","100.72","","","","","","Clear"
"2004-10-07 11:00","2004","10","07","11:00","23.8","","11.0","","45","","18","","7","","24.1","","100.70","","26","","","","Clear"
"2004-10-07 12:00","2004","10","07","12:00","23.6","","10.9","","45","","14","","15","","24.1","","100.68","","25","","","","Mainly Clear"
"2004-10-07 13:00","2004","10","07","13:00","26.2","","12.3","","42","","26","","20","","24.1","","100.62","","29","","","","Mainly Clear"
"2004-10-07 14:00","2004","10","07","14:00","26.7","","11.5","","39","","27","","24","","24.1","","100.58","","29","","","","Mostly Cloudy"
"2004-10-07 15:00","2004","10","07","15:00","26.8","","11.5","","38","","27","","17","","24.1","","100.55","","29","","","","Mostly Cloudy"
"2004-10-07 16:00","2004","10","07","16:00","26.0","","10.7","","38","","29","","19","","24.1","","100.53","","28","","","","Mostly Cloudy"
"2004-10-07 17:00","2004","10","07","17:00","23.7","","10.2","","42","","28","","17","","24.1","","100.54","","25","","","","Mostly Cloudy"
"2004-10-07 18:00","2004","10","07","18:00","21.6","","9.5","","46","","25","","9","","24.1","","100.58","","","","","","Mostly Cloudy"
"2004-10-07 19:00","2004","10","07","19:00","20.9","","9.2","","47","","25","","13","","24.1","","100.61","","","","","","Mostly Cloudy"
"2004-10-07 20:00","2004","10","07","20:00","18.7","","8.5","","51","","25","","17","","24.1","","100.65","","","","","","Mainly Clear"
"2004-10-07 21:00","2004","10","07","21:00","17.4","","7.3","","51","","25","","11","","24.1","","100.65","","","","","","Mainly Clear"
"2004-10-07 22:00","2004","10","07","22:00","16.8","","6.2","","50","","24","","9","","24.1","","100.63","","","","","","Mostly Cloudy"
"2004-10-07 23:00","2004","10","07","23:00","15.5","","5.5","","51","","25","","7","","24.1","","100.61","","","","","","Mainly Clear"
"2004-10-08 00:00","2004","10","08","00:00","16.6","","5.5","","48","","18","","6","","24.1","","100.58","","","","","","Mainly Clear"
"2004-10-08 01:00","2004","10","08","01:00","15.2","","6.0","","54","","15","","7","","24.1","","100.57","","","","","","Mostly Cloudy"
"2004-10-08 02:00","2004","10","08","02:00","13.3","","6.1","","62","","","","0","","24.1","","100.53","","","","","","Mainly Clear"
"2004-10-08 03:00","2004","10","08","03:00","13.7","","5.7","","58","","","","0","","24.1","","100.48","","","","","","Mainly Clear"
"2004-10-08 04:00","2004","10","08","04:00","12.1","","5.6","","64","","18","","4","","24.1","","100.45","","","","","","Mainly Clear"
"2004-10-08 05:00","2004","10","08","05:00","12.3","","6.1","","66","","","","0","","24.1","","100.44","","","","","","Mainly Clear"
"2004-10-08 06:00","2004","10","08","06:00","13.4","","7.1","","66","","16","","6","","24.1","","100.42","","","","","","Mostly Cloudy"
"2004-10-08 07:00","2004","10","08","07:00","13.3","","7.9","","70","","17","","4","","16.1","","100.42","","","","","","Mostly Cloudy"
"2004-10-08 08:00","2004","10","08","08:00","14.1","","8.9","","71","","16","","7","","16.1","","100.43","","","","","","Mostly Cloudy"
"2004-10-08 09:00","2004","10","08","09:00","16.3","","11.6","","74","","17","","9","","14.5","","100.38","","","","","","Mostly Cloudy"
"2004-10-08 10:00","2004","10","08","10:00","18.5","","11.9","","65","","17","","15","","16.1","","100.31","","","","","","Mostly Cloudy"
"2004-10-08 11:00","2004","10","08","11:00","19.8","","12.9","","64","","15","","15","","19.3","","100.19","","","","","","Mostly Cloudy"
"2004-10-08 12:00","2004","10","08","12:00","21.2","","12.2","","56","","16","","17","","19.3","","100.09","","","","","","Mostly Cloudy"
"2004-10-08 13:00","2004","10","08","13:00","22.2","","11.6","","51","","18","","20","","19.3","","99.98","","","","","","Mostly Cloudy"
"2004-10-08 14:00","2004","10","08","14:00","23.6","","11.9","","48","","16","","26","","19.3","","99.87","","26","","","","Mostly Cloudy"
"2004-10-08 15:00","2004","10","08","15:00","23.9","","11.3","","45","","21","","17","","19.3","","99.80","","26","","","","Cloudy"
"2004-10-08 16:00","2004","10","08","16:00","22.8","","9.8","","44","","22","","20","","19.3","","99.76","","","","","","Cloudy"
"2004-10-08 17:00","2004","10","08","17:00","21.8","","11.3","","51","","18","","20","","19.3","","99.77","","","","","","Cloudy"
"2004-10-08 18:00","2004","10","08","18:00","21.1","","10.8","","52","","20","","20","","19.3","","99.75","","","","","","Cloudy"
"2004-10-08 19:00","2004","10","08","19:00","20.6","","10.4","","52","","19","","13","","19.3","","99.70","","","","","","Cloudy"
"2004-10-08 20:00","2004","10","08","20:00","20.4","","10.4","","53","","19","","15","","24.1","","99.65","","","","","","Cloudy"
"2004-10-08 21:00","2004","10","08","21:00","20.2","","10.5","","54","","21","","22","","19.3","","99.59","","","","","","Cloudy"
"2004-10-08 22:00","2004","10","08","22:00","20.1","","10.5","","54","","20","","22","","19.3","","99.50","","","","","","Cloudy"
"2004-10-08 23:00","2004","10","08","23:00","20.0","","11.0","","56","","21","","33","","24.1","","99.44","","","","","","Cloudy"
"2004-10-09 00:00","2004","10","09","00:00","19.9","","11.4","","58","","22","","33","","24.1","","99.39","","","","","","Cloudy"
"2004-10-09 01:00","2004","10","09","01:00","19.5","","11.8","","61","","22","","20","","19.3","","99.32","","","","","","Cloudy"
"2004-10-09 02:00","2004","10","09","02:00","19.5","","12.2","","63","","21","","26","","19.3","","99.24","","","","","","Cloudy"
"2004-10-09 03:00","2004","10","09","03:00","19.6","","13.8","","69","","22","","24","","19.3","","99.14","","","","","","Cloudy"
"2004-10-09 04:00","2004","10","09","04:00","19.6","","13.7","","69","","23","","35","","16.1","","99.13","","","","","","Rain Showers"
"2004-10-09 05:00","2004","10","09","05:00","17.4","","14.8","","85","","22","","32","","16.1","","99.10","","","","","","Rain Showers"
"2004-10-09 06:00","2004","10","09","06:00","17.7","","15.1","","85","","22","","26","","12.9","","99.10","","","","","","Cloudy"
"2004-10-09 07:00","2004","10","09","07:00","15.2","","11.0","","76","","25","","35","","24.1","","99.14","","","","","","Rain Showers"
"2004-10-09 08:00","2004","10","09","08:00","15.3","","11.5","","78","","26","","35","","24.1","","99.21","","","","","","Mostly Cloudy"
"2004-10-09 09:00","2004","10","09","09:00","14.6","","8.9","","69","","26","","24","","24.1","","99.27","","","","","","Mostly Cloudy"
"2004-10-09 10:00","2004","10","09","10:00","16.4","","8.4","","59","","25","","39","","24.1","","99.28","","","","","","Mostly Cloudy"
"2004-10-09 11:00","2004","10","09","11:00","18.4","","8.0","","51","","25","","46","","24.1","","99.27","","","","","","Mostly Cloudy"
"2004-10-09 12:00","2004","10","09","12:00","16.3","","6.9","","54","","27","","44","","24.1","","99.33","","","","","","Mostly Cloudy"
"2004-10-09 13:00","2004","10","09","13:00","15.5","","7.2","","58","","26","","37","","24.1","","99.37","","","","","","Cloudy"
"2004-10-09 14:00","2004","10","09","14:00","15.6","","7.6","","59","","27","","41","","24.1","","99.40","","","","","","Mostly Cloudy"
"2004-10-09 15:00","2004","10","09","15:00","17.7","","6.5","","48","","28","","32","","24.1","","99.42","","","","","","Mostly Cloudy"
"2004-10-09 16:00","2004","10","09","16:00","16.0","","5.3","","49","","28","","39","","24.1","","99.44","","","","","","Mainly Clear"
"2004-10-09 17:00","2004","10","09","17:00","15.8","","5.1","","49","","28","","30","","24.1","","99.52","","","","","","Mainly Clear"
"2004-10-09 18:00","2004","10","09","18:00","14.5","","4.2","","50","","27","","32","","24.1","","99.59","","","","","","Mainly Clear"
"2004-10-09 19:00","2004","10","09","19:00","14.2","","4.5","","52","","27","","26","","24.1","","99.61","","","","","","Mainly Clear"
"2004-10-09 20:00","2004","10","09","20:00","12.9","","5.6","","61","","30","","28","","24.1","","99.70","","","","","","Clear"
"2004-10-09 21:00","2004","10","09","21:00","11.8","","6.2","","69","","29","","22","","24.1","","99.74","","","","","","Clear"
"2004-10-09 22:00","2004","10","09","22:00","11.1","","6.5","","73","","29","","19","","24.1","","99.74","","","","","","Clear"
"2004-10-09 23:00","2004","10","09","23:00","11.4","","6.6","","72","","31","","35","","24.1","","99.74","","","","","","Mostly Cloudy"
"2004-10-10 00:00","2004","10","10","00:00","10.5","","5.6","","72","","31","","30","","24.1","","99.77","","","","","","Mainly Clear"
"2004-10-10 01:00","2004","10","10","01:00","10.4","","5.9","","74","","31","","28","","24.1","","99.80","","","","","","Mostly Cloudy"
"2004-10-10 02:00","2004","10","10","02:00","9.2","","4.6","","73","","31","","19","","24.1","","99.82","","","","","","Mainly Clear"
"2004-10-10 03:00","2004","10","10","03:00","9.9","","5.2","","73","","31","","26","","24.1","","99.83","","","","","","Mostly Cloudy"
"2004-10-10 04:00","2004","10","10","04:00","10.0","","4.9","","71","","32","","26","","24.1","","99.87","","","","","","Mostly Cloudy"
"2004-10-10 05:00","2004","10","10","05:00","9.6","","4.8","","72","","36","","22","","24.1","","99.94","","","","","","Cloudy"
"2004-10-10 06:00","2004","10","10","06:00","9.1","","3.5","","68","","36","","22","","24.1","","100.03","","","","","","Mostly Cloudy"
"2004-10-10 07:00","2004","10","10","07:00","9.1","","3.8","","69","","35","","9","","24.1","","100.10","","","","","","Mostly Cloudy"
"2004-10-10 08:00","2004","10","10","08:00","9.7","","4.7","","71","","29","","4","","24.1","","100.13","","","","","","Mostly Cloudy"
"2004-10-10 09:00","2004","10","10","09:00","10.7","","5.6","","71","","35","","6","","24.1","","100.19","","","","","","Mostly Cloudy"
"2004-10-10 10:00","2004","10","10","10:00","11.7","","6.4","","70","","35","","19","","24.1","","100.19","","","","","","Mostly Cloudy"
"2004-10-10 11:00","2004","10","10","11:00","13.8","","6.5","","61","","35","","26","","24.1","","100.16","","","","","","Mainly Clear"
"2004-10-10 12:00","2004","10","10","12:00","14.2","","5.7","","57","","35","","22","","24.1","","100.18","","","","","","Clear"
"2004-10-10 13:00","2004","10","10","13:00","14.8","","5.3","","53","","35","","22","","24.1","","100.13","","","","","","Clear"
"2004-10-10 14:00","2004","10","10","14:00","15.1","","5.4","","52","","35","","20","","24.1","","100.11","","","","","","Clear"
"2004-10-10 15:00","2004","10","10","15:00","15.1","","4.6","","49","","34","","20","","24.1","","100.09","","","","","","Clear"
"2004-10-10 16:00","2004","10","10","16:00","14.3","","4.1","","50","","35","","24","","24.1","","100.13","","","","","","Clear"
"2004-10-10 17:00","2004","10","10","17:00","12.8","","4.2","","56","","35","","20","","24.1","","100.14","","","","","","Clear"
"2004-10-10 18:00","2004","10","10","18:00","10.9","","4.9","","66","","36","","19","","24.1","","100.18","","","","","","Clear"
"2004-10-10 19:00","2004","10","10","19:00","9.4","","4.6","","72","","35","","19","","24.1","","100.27","","","","","","Clear"
"2004-10-10 20:00","2004","10","10","20:00","8.2","","4.5","","77","","35","","19","","24.1","","100.28","","","","","","Clear"
"2004-10-10 21:00","2004","10","10","21:00","7.5","","4.3","","80","","35","","17","","24.1","","100.29","","","","","","Clear"
"2004-10-10 22:00","2004","10","10","22:00","7.0","","4.3","","83","","34","","19","","24.1","","100.30","","","","","","Clear"
"2004-10-10 23:00","2004","10","10","23:00","6.5","","4.2","","85","","34","","19","","24.1","","100.30","","","","","","Clear"
"2004-10-11 00:00","2004","10","11","00:00","6.1","","4.0","","86","","34","","13","","24.1","","100.34","","","","","","Clear"
"2004-10-11 01:00","2004","10","11","01:00","5.5","","3.5","","87","","35","","13","","24.1","","100.35","","","","","","Clear"
"2004-10-11 02:00","2004","10","11","02:00","4.9","","3.0","","87","","34","","11","","24.1","","100.32","","","","","","Clear"
"2004-10-11 03:00","2004","10","11","03:00","4.4","","2.6","","88","","35","","13","","24.1","","100.31","","","","","","Clear"
"2004-10-11 04:00","2004","10","11","04:00","3.8","","2.6","","92","","35","","11","","24.1","","100.35","","","","","","Mainly Clear"
"2004-10-11 05:00","2004","10","11","05:00","4.9","","3.3","","89","","35","","13","","24.1","","100.37","","","","","","Mostly Cloudy"
"2004-10-11 06:00","2004","10","11","06:00","5.3","","3.4","","88","","36","","19","","24.1","","100.40","","","","","","Mostly Cloudy"
"2004-10-11 07:00","2004","10","11","07:00","5.3","","3.2","","86","","36","","17","","24.1","","100.42","","","","","","Mostly Cloudy"
"2004-10-11 08:00","2004","10","11","08:00","5.8","","2.8","","81","","36","","17","","24.1","","100.45","","","","","","Cloudy"
"2004-10-11 09:00","2004","10","11","09:00","6.3","","2.9","","79","","1","","13","","24.1","","100.45","","","","","","Cloudy"
"2004-10-11 10:00","2004","10","11","10:00","6.8","","2.1","","72","","1","","13","","24.1","","100.45","","","","","","Cloudy"
"2004-10-11 11:00","2004","10","11","11:00","7.1","","2.4","","72","","32","","7","","24.1","","100.41","","","","","","Cloudy"
"2004-10-11 12:00","2004","10","11","12:00","7.6","","2.4","","70","","","","0","","24.1","","100.38","","","","","","Cloudy"
"2004-10-11 13:00","2004","10","11","13:00","8.1","","2.4","","67","","32","","7","","24.1","","100.33","","","","","","Mostly Cloudy"
"2004-10-11 14:00","2004","10","11","14:00","9.6","","2.9","","63","","32","","9","","24.1","","100.26","","","","","","Mostly Cloudy"
"2004-10-11 15:00","2004","10","11","15:00","10.5","","2.8","","59","","2","","7","","24.1","","100.18","","","","","","Clear"
"2004-10-11 16:00","2004","10","11","16:00","10.7","","2.9","","58","","4","","11","","24.1","","100.13","","","","","","Clear"
"2004-10-11 17:00","2004","10","11","17:00","9.0","","2.4","","63","","14","","13","","24.1","","100.14","","","","","","Clear"
"2004-10-11 18:00","2004","10","11","18:00","7.1","","2.4","","72","","14","","7","","24.1","","100.12","","","","","","Clear"
"2004-10-11 19:00","2004","10","11","19:00","6.8","","2.6","","75","","14","","4","","24.1","","100.13","","","","","","Clear"
"2004-10-11 20:00","2004","10","11","20:00","6.1","","2.5","","78","","","","0","","24.1","","100.09","","","","","","Clear"
"2004-10-11 21:00","2004","10","11","21:00","6.1","","2.7","","79","","29","","11","","24.1","","100.09","","","","","","Clear"
"2004-10-11 22:00","2004","10","11","22:00","5.5","","2.5","","81","","32","","13","","24.1","","100.02","","","","","","Clear"
"2004-10-11 23:00","2004","10","11","23:00","5.1","","2.5","","83","","32","","15","","24.1","","99.95","","","","","","Clear"
"2004-10-12 00:00","2004","10","12","00:00","4.4","","2.3","","86","","33","","15","","24.1","","99.89","","","","","","Clear"
"2004-10-12 01:00","2004","10","12","01:00","4.1","","2.4","","89","","32","","15","","24.1","","99.85","","","","","","Clear"
"2004-10-12 02:00","2004","10","12","02:00","3.7","","2.0","","89","","32","","11","","24.1","","99.80","","","","","","Clear"
"2004-10-12 03:00","2004","10","12","03:00","3.7","","2.3","","91","","","","0","","24.1","","99.78","","","","","","Clear"
"2004-10-12 04:00","2004","10","12","04:00","3.2","","1.5","","89","","32","","9","","24.1","","99.76","","","","","","Clear"
"2004-10-12 05:00","2004","10","12","05:00","3.7","","2.5","","92","","32","","9","","24.1","","99.71","","","","","","Clear"
"2004-10-12 06:00","2004","10","12","06:00","3.7","","2.9","","94","","33","","7","","24.1","","99.69","","","","","","Clear"
"2004-10-12 07:00","2004","10","12","07:00","4.2","","3.0","","92","","35","","11","","24.1","","99.64","","","","","","Mainly Clear"
"2004-10-12 08:00","2004","10","12","08:00","5.5","","4.4","","93","","34","","15","","24.1","","99.63","","","","","","Mainly Clear"
"2004-10-12 09:00","2004","10","12","09:00","8.0","","4.9","","81","","36","","15","","24.1","","99.58","","","","","","Mainly Clear"
"2004-10-12 10:00","2004","10","12","10:00","10.0","","4.5","","69","","2","","7","","24.1","","99.55","","","","","","Clear"
"2004-10-12 11:00","2004","10","12","11:00","12.8","","3.8","","54","","35","","7","","24.1","","99.49","","","","","","Clear"
"2004-10-12 12:00","2004","10","12","12:00","14.2","","3.4","","48","","2","","13","","24.1","","99.41","","","","","","Clear"
"2004-10-12 13:00","2004","10","12","13:00","15.4","","1.9","","40","","34","","7","","24.1","","99.31","","","","","","Clear"
"2004-10-12 14:00","2004","10","12","14:00","16.7","","1.7","","36","","33","","6","","24.1","","99.23","","","","","","Mainly Clear"
"2004-10-12 15:00","2004","10","12","15:00","17.7","","1.7","","34","","36","","13","","24.1","","99.17","","","","","","Mainly Clear"
"2004-10-12 16:00","2004","10","12","16:00","17.6","","1.6","","34","","34","","15","","24.1","","99.11","","","","","","Mainly Clear"
"2004-10-12 17:00","2004","10","12","17:00","16.6","","2.4","","38","","36","","15","","24.1","","99.08","","","","","","Mainly Clear"
"2004-10-12 18:00","2004","10","12","18:00","13.7","","0.9","","42","","36","","15","","24.1","","99.08","","","","","","Mainly Clear"
"2004-10-12 19:00","2004","10","12","19:00","12.8","","0.7","","43","","35","","17","","24.1","","99.05","","","","","","Clear"
"2004-10-12 20:00","2004","10","12","20:00","11.0","","3.3","","59","","36","","11","","24.1","","99.00","","","","","","Clear"
"2004-10-12 21:00","2004","10","12","21:00","9.9","","4.4","","69","","36","","17","","24.1","","98.96","","","","","","Clear"
"2004-10-12 22:00","2004","10","12","22:00","8.3","","4.6","","77","","36","","11","","24.1","","98.94","","","","","","Clear"
"2004-10-12 23:00","2004","10","12","23:00","7.3","","4.9","","85","","32","","9","","24.1","","98.93","","","","","","Mainly Clear"
"2004-10-13 00:00","2004","10","13","00:00","7.7","","5.3","","85","","34","","11","","24.1","","98.92","","","","","","Mainly Clear"
"2004-10-13 01:00","2004","10","13","01:00","7.3","","5.2","","87","","33","","13","","24.1","","98.87","","","","","","Mostly Cloudy"
"2004-10-13 02:00","2004","10","13","02:00","6.8","","5.0","","88","","34","","9","","24.1","","98.83","","","","","","Mainly Clear"
"2004-10-13 03:00","2004","10","13","03:00","6.4","","4.3","","86","","33","","7","","24.1","","98.79","","","","","","Mainly Clear"
"2004-10-13 04:00","2004","10","13","04:00","6.1","","4.5","","89","","33","","7","","24.1","","98.75","","","","","","Mostly Cloudy"
"2004-10-13 05:00","2004","10","13","05:00","5.8","","4.2","","89","","34","","7","","24.1","","98.73","","","","","","Mostly Cloudy"
"2004-10-13 06:00","2004","10","13","06:00","5.7","","4.4","","91","","1","","9","","24.1","","98.69","","","","","","Mostly Cloudy"
"2004-10-13 07:00","2004","10","13","07:00","5.7","","4.2","","90","","32","","11","","24.1","","98.72","","","","","","Mostly Cloudy"
"2004-10-13 08:00","2004","10","13","08:00","8.3","","6.1","","86","","3","","7","","19.3","","98.68","","","","","","Mostly Cloudy"
"2004-10-13 09:00","2004","10","13","09:00","12.1","","7.4","","73","","9","","6","","19.3","","98.68","","","","","","Mostly Cloudy"
"2004-10-13 10:00","2004","10","13","10:00","12.9","","7.9","","72","","12","","4","","19.3","","98.61","","","","","","Mostly Cloudy"
"2004-10-13 11:00","2004","10","13","11:00","16.2","","7.6","","57","","12","","7","","24.1","","98.57","","","","","","Mostly Cloudy"
"2004-10-13 12:00","2004","10","13","12:00","16.0","","7.8","","58","","15","","15","","24.1","","98.54","","","","","","Mostly Cloudy"
"2004-10-13 13:00","2004","10","13","13:00","17.1","","5.3","","46","","11","","17","","24.1","","98.43","","","","","","Mostly Cloudy"
"2004-10-13 14:00","2004","10","13","14:00","16.2","","5.7","","50","","12","","17","","24.1","","98.38","","","","","","Mostly Cloudy"
"2004-10-13 15:00","2004","10","13","15:00","15.7","","5.9","","52","","10","","13","","24.1","","98.35","","","","","","Mostly Cloudy"
"2004-10-13 16:00","2004","10","13","16:00","15.0","","3.1","","45","","8","","17","","24.1","","98.32","","","","","","Mostly Cloudy"
"2004-10-13 17:00","2004","10","13","17:00","14.6","","3.4","","47","","7","","15","","24.1","","98.32","","","","","","Mostly Cloudy"
"2004-10-13 18:00","2004","10","13","18:00","13.8","","4.2","","52","","9","","11","","24.1","","98.30","","","","","","Mostly Cloudy"
"2004-10-13 19:00","2004","10","13","19:00","13.7","","1.6","","44","","8","","15","","24.1","","98.28","","","","","","Mostly Cloudy"
"2004-10-13 20:00","2004","10","13","20:00","13.0","","3.0","","51","","7","","7","","24.1","","98.29","","","","","","Mostly Cloudy"
"2004-10-13 21:00","2004","10","13","21:00","13.0","","4.5","","56","","9","","7","","24.1","","98.26","","","","","","Mostly Cloudy"
"2004-10-13 22:00","2004","10","13","22:00","12.4","","6.3","","66","","5","","7","","24.1","","98.22","","","","","","Cloudy"
"2004-10-13 23:00","2004","10","13","23:00","11.9","","7.4","","74","","4","","6","","24.1","","98.20","","","","","","Mostly Cloudy"
"2004-10-14 00:00","2004","10","14","00:00","11.4","","8.0","","80","","3","","9","","24.1","","98.16","","","","","","Mostly Cloudy"
"2004-10-14 01:00","2004","10","14","01:00","10.9","","7.7","","81","","2","","7","","24.1","","98.13","","","","","","Mostly Cloudy"
"2004-10-14 02:00","2004","10","14","02:00","9.3","","6.0","","80","","36","","6","","24.1","","98.11","","","","","","Mostly Cloudy"
"2004-10-14 03:00","2004","10","14","03:00","9.6","","5.9","","78","","5","","7","","24.1","","98.08","","","","","","Mostly Cloudy"
"2004-10-14 04:00","2004","10","14","04:00","10.1","","7.3","","83","","4","","9","","24.1","","98.03","","","","","","Mostly Cloudy"
"2004-10-14 05:00","2004","10","14","05:00","11.5","","7.5","","76","","5","","9","","24.1","","98.01","","","","","","Cloudy"
"2004-10-14 06:00","2004","10","14","06:00","11.9","","7.7","","75","","5","","9","","24.1","","98.01","","","","","","Cloudy"
"2004-10-14 07:00","2004","10","14","07:00","11.5","","7.8","","78","","2","","6","","24.1","","98.04","","","","","","Cloudy"
"2004-10-14 08:00","2004","10","14","08:00","11.8","","7.3","","74","","5","","7","","24.1","","98.05","","","","","","Cloudy"
"2004-10-14 09:00","2004","10","14","09:00","12.1","","8.6","","79","","8","","6","","24.1","","98.06","","","","","","Rain"
"2004-10-14 10:00","2004","10","14","10:00","12.3","","9.7","","84","","7","","7","","24.1","","98.04","","","","","","Cloudy"
"2004-10-14 11:00","2004","10","14","11:00","12.7","","9.5","","81","","10","","9","","24.1","","98.03","","","","","","Cloudy"
"2004-10-14 12:00","2004","10","14","12:00","13.0","","9.7","","80","","12","","9","","24.1","","98.00","","","","","","Cloudy"
"2004-10-14 13:00","2004","10","14","13:00","12.9","","9.1","","78","","7","","11","","24.1","","97.93","","","","","","Cloudy"
"2004-10-14 14:00","2004","10","14","14:00","13.4","","8.6","","73","","9","","11","","24.1","","97.88","","","","","","Cloudy"
"2004-10-14 15:00","2004","10","14","15:00","13.0","","8.6","","75","","8","","15","","24.1","","97.88","","","","","","Cloudy"
"2004-10-14 16:00","2004","10","14","16:00","13.1","","8.6","","74","","11","","11","","24.1","","97.89","","","","","","Cloudy"
"2004-10-14 17:00","2004","10","14","17:00","12.4","","9.5","","82","","12","","13","","24.1","","97.87","","","","","","Cloudy"
"2004-10-14 18:00","2004","10","14","18:00","12.2","","9.9","","86","","11","","11","","16.1","","97.90","","","","","","Cloudy"
"2004-10-14 19:00","2004","10","14","19:00","12.3","","10.6","","89","","11","","9","","16.1","","97.92","","","","","","Cloudy"
"2004-10-14 20:00","2004","10","14","20:00","12.8","","11.6","","92","","11","","9","","12.9","","97.92","","","","","","Mostly Cloudy"
"2004-10-14 21:00","2004","10","14","21:00","13.1","","12.0","","93","","16","","9","","12.9","","97.91","","","","","","Mostly Cloudy"
"2004-10-14 22:00","2004","10","14","22:00","13.3","","11.0","","86","","15","","9","","16.1","","97.92","","","","","","Cloudy"
"2004-10-14 23:00","2004","10","14","23:00","13.4","","10.6","","83","","15","","9","","16.1","","97.86","","","","","","Cloudy"
"2004-10-15 00:00","2004","10","15","00:00","13.2","","11.3","","88","","15","","7","","16.1","","97.85","","","","","","Cloudy"
"2004-10-15 01:00","2004","10","15","01:00","13.1","","11.7","","91","","13","","6","","14.5","","97.83","","","","","","Cloudy"
"2004-10-15 02:00","2004","10","15","02:00","13.1","","11.7","","91","","14","","6","","12.9","","97.80","","","","","","Cloudy"
"2004-10-15 03:00","2004","10","15","03:00","13.1","","11.9","","92","","14","","11","","8.0","","97.75","","","","","","Fog"
"2004-10-15 04:00","2004","10","15","04:00","13.2","","12.1","","93","","12","","9","","8.0","","97.70","","","","","","Fog"
"2004-10-15 05:00","2004","10","15","05:00","13.4","","12.2","","92","","14","","6","","8.0","","97.66","","","","","","Fog"
"2004-10-15 06:00","2004","10","15","06:00","13.5","","12.1","","91","","13","","9","","6.4","","97.63","","","","","","Fog"
"2004-10-15 07:00","2004","10","15","07:00","13.7","","12.4","","92","","13","","13","","9.7","","97.58","","","","","","Fog"
"2004-10-15 08:00","2004","10","15","08:00","14.0","","12.6","","91","","12","","13","","9.7","","97.53","","","","","","Fog"
"2004-10-15 09:00","2004","10","15","09:00","14.3","","12.6","","90","","10","","17","","9.7","","97.43","","","","","","Fog"
"2004-10-15 10:00","2004","10","15","10:00","14.1","","12.4","","89","","11","","19","","8.0","","97.34","","","","","","Fog"
"2004-10-15 11:00","2004","10","15","11:00","13.3","","12.5","","95","","7","","13","","6.4","","97.16","","","","","","Rain,Fog"
"2004-10-15 12:00","2004","10","15","12:00","13.5","","13.0","","97","","10","","22","","6.4","","97.07","","","","","","Rain,Fog"
"2004-10-15 13:00","2004","10","15","13:00","11.9","","10.4","","91","","21","","15","","24.1","","97.16","","","","","","Rain"
"2004-10-15 14:00","2004","10","15","14:00","12.4","","11.4","","94","","17","","9","","24.1","","97.10","","","","","","Rain"
"2004-10-15 15:00","2004","10","15","15:00","13.4","","11.8","","90","","19","","15","","24.1","","97.09","","","","","","Cloudy"
"2004-10-15 16:00","2004","10","15","16:00","13.7","","10.6","","82","","20","","17","","24.1","","97.12","","","","","","Mostly Cloudy"
"2004-10-15 17:00","2004","10","15","17:00","13.0","","7.9","","71","","22","","26","","24.1","","97.20","","","","","","Mostly Cloudy"
"2004-10-15 18:00","2004","10","15","18:00","12.7","","7.4","","70","","21","","13","","24.1","","97.19","","","","","","Mostly Cloudy"
"2004-10-15 19:00","2004","10","15","19:00","11.8","","5.8","","67","","21","","17","","24.1","","97.20","","","","","","Mainly Clear"
"2004-10-15 20:00","2004","10","15","20:00","11.0","","6.4","","73","","20","","17","","24.1","","97.18","","","","","","Mainly Clear"
"2004-10-15 21:00","2004","10","15","21:00","10.2","","6.3","","77","","20","","11","","24.1","","97.15","","","","","","Mainly Clear"
"2004-10-15 22:00","2004","10","15","22:00","9.8","","6.5","","80","","19","","15","","24.1","","97.10","","","","","","Mainly Clear"
"2004-10-15 23:00","2004","10","15","23:00","10.4","","7.3","","81","","18","","13","","24.1","","97.06","","","","","","Mostly Cloudy"
"2004-10-16 00:00","2004","10","16","00:00","9.9","","7.4","","84","","22","","9","","24.1","","97.03","","","","","","Mainly Clear"
"2004-10-16 01:00","2004","10","16","01:00","9.6","","7.5","","87","","22","","13","","24.1","","97.04","","","","","","Mostly Cloudy"
"2004-10-16 02:00","2004","10","16","02:00","9.6","","7.8","","89","","21","","13","","24.1","","97.02","","","","","","Mostly Cloudy"
"2004-10-16 03:00","2004","10","16","03:00","10.1","","8.0","","87","","25","","22","","24.1","","97.06","","","","","","Mostly Cloudy"
"2004-10-16 04:00","2004","10","16","04:00","9.7","","6.4","","80","","25","","26","","24.1","","97.13","","","","","","Mostly Cloudy"
"2004-10-16 05:00","2004","10","16","05:00","8.4","","4.9","","79","","25","","28","","24.1","","97.15","","","","","","Mainly Clear"
"2004-10-16 06:00","2004","10","16","06:00","7.9","","4.7","","80","","24","","30","","24.1","","97.17","","","","","","Mostly Cloudy"
"2004-10-16 07:00","2004","10","16","07:00","7.8","","4.5","","80","","23","","22","","24.1","","97.22","","","","","","Mostly Cloudy"
"2004-10-16 08:00","2004","10","16","08:00","8.6","","5.0","","78","","24","","19","","19.3","","97.20","","","","","","Mainly Clear"
"2004-10-16 09:00","2004","10","16","09:00","9.0","","5.2","","77","","24","","17","","16.1","","97.24","","","","","","Mostly Cloudy"
"2004-10-16 10:00","2004","10","16","10:00","9.6","","5.0","","73","","23","","17","","16.1","","97.23","","","","","","Cloudy"
"2004-10-16 11:00","2004","10","16","11:00","10.5","","4.6","","67","","23","","20","","19.3","","97.20","","","","","","Cloudy"
"2004-10-16 12:00","2004","10","16","12:00","11.1","","4.1","","62","","24","","32","","19.3","","97.21","","","","","","Cloudy"
"2004-10-16 13:00","2004","10","16","13:00","10.3","","5.4","","72","","22","","30","","9.7","","97.24","","","","","","Rain Showers"
"2004-10-16 14:00","2004","10","16","14:00","10.8","","4.8","","66","","23","","39","","19.3","","97.25","","","","","","Rain Showers"
"2004-10-16 15:00","2004","10","16","15:00","11.2","","4.6","","64","","23","","33","","24.1","","97.29","","","","","","Mostly Cloudy"
"2004-10-16 16:00","2004","10","16","16:00","9.8","","5.2","","73","","26","","26","","24.1","","97.38","","","","","","Mainly Clear"
"2004-10-16 17:00","2004","10","16","17:00","8.4","","3.8","","73","","25","","30","","16.1","","97.49","","","","","","Mostly Cloudy"
"2004-10-16 18:00","2004","10","16","18:00","7.3","","3.5","","77","","23","","19","","24.1","","97.52","","","","","","Mostly Cloudy"
"2004-10-16 19:00","2004","10","16","19:00","7.1","","3.5","","78","","22","","17","","24.1","","97.56","","","","","","Mainly Clear"
"2004-10-16 20:00","2004","10","16","20:00","6.8","","2.8","","76","","25","","30","","24.1","","97.59","","","","","","Mostly Cloudy"
"2004-10-16 21:00","2004","10","16","21:00","5.8","","2.2","","78","","24","","19","","24.1","","97.65","","","","","","Mainly Clear"
"2004-10-16 22:00","2004","10","16","22:00","6.1","","2.3","","77","","24","","30","","24.1","","97.68","","","","","","Mostly Cloudy"
"2004-10-16 23:00","2004","10","16","23:00","5.8","","1.5","","74","","25","","35","","24.1","","97.70","","","","","","Mostly Cloudy"
"2004-10-17 00:00","2004","10","17","00:00","5.5","","2.4","","80","","25","","32","","24.1","","97.69","","","","","","Mostly Cloudy"
"2004-10-17 01:00","2004","10","17","01:00","5.1","","1.7","","79","","24","","30","","24.1","","97.72","","","","","","Mostly Cloudy"
"2004-10-17 02:00","2004","10","17","02:00","5.0","","2.2","","82","","24","","30","","19.3","","97.74","","","","","","Rain Showers"
"2004-10-17 03:00","2004","10","17","03:00","5.0","","2.0","","81","","23","","32","","24.1","","97.77","","","","","","Mainly Clear"
"2004-10-17 04:00","2004","10","17","04:00","5.0","","2.0","","81","","24","","33","","24.1","","97.79","","","","","","Rain Showers"
"2004-10-17 05:00","2004","10","17","05:00","5.0","","2.0","","81","","24","","28","","24.1","","97.84","","","","","","Mostly Cloudy"
"2004-10-17 06:00","2004","10","17","06:00","4.9","","1.7","","80","","25","","41","","24.1","","97.88","","","","","","Cloudy"
"2004-10-17 07:00","2004","10","17","07:00","4.5","","1.8","","83","","24","","32","","19.3","","97.92","","","","","","Mostly Cloudy"
"2004-10-17 08:00","2004","10","17","08:00","5.1","","2.2","","82","","25","","43","","24.1","","97.98","","","","","","Mostly Cloudy"
"2004-10-17 09:00","2004","10","17","09:00","5.5","","2.4","","80","","25","","43","","24.1","","98.06","","","","","","Rain Showers"
"2004-10-17 10:00","2004","10","17","10:00","4.9","","2.6","","85","","26","","39","","6.4","","98.15","","","","","","Rain Showers"
"2004-10-17 11:00","2004","10","17","11:00","5.0","","3.3","","89","","25","","33","","9.7","","98.23","","","","","","Rain Showers"
"2004-10-17 12:00","2004","10","17","12:00","6.1","","3.8","","85","","27","","44","","24.1","","98.26","","","","","","Mostly Cloudy"
"2004-10-17 13:00","2004","10","17","13:00","6.9","","3.6","","79","","26","","39","","24.1","","98.35","","","","","","Mostly Cloudy"
"2004-10-17 14:00","2004","10","17","14:00","6.3","","4.1","","86","","27","","28","","24.1","","98.43","","","","","","Mostly Cloudy"
"2004-10-17 15:00","2004","10","17","15:00","6.6","","3.5","","81","","28","","48","","16.1","","98.51","","","","","","Rain Showers"
"2004-10-17 16:00","2004","10","17","16:00","6.5","","3.2","","79","","27","","37","","24.1","","98.60","","","","","","Mostly Cloudy"
"2004-10-17 17:00","2004","10","17","17:00","6.4","","2.9","","78","","27","","39","","24.1","","98.69","","","","","","Mostly Cloudy"
"2004-10-17 18:00","2004","10","17","18:00","6.1","","2.7","","79","","27","","22","","24.1","","98.81","","","","","","Mostly Cloudy"
"2004-10-17 19:00","2004","10","17","19:00","6.0","","2.9","","80","","26","","19","","24.1","","98.90","","","","","","Mostly Cloudy"
"2004-10-17 20:00","2004","10","17","20:00","4.9","","2.4","","84","","26","","17","","24.1","","98.99","","","","","","Mainly Clear"
"2004-10-17 21:00","2004","10","17","21:00","4.8","","2.5","","85","","24","","15","","24.1","","99.09","","","","","","Mostly Cloudy"
"2004-10-17 22:00","2004","10","17","22:00","5.1","","2.8","","85","","27","","20","","24.1","","99.16","","","","","","Mostly Cloudy"
"2004-10-17 23:00","2004","10","17","23:00","4.4","","2.3","","86","","27","","17","","24.1","","99.21","","","","","","Mainly Clear"
"2004-10-18 00:00","2004","10","18","00:00","4.7","","2.6","","86","","26","","17","","24.1","","99.28","","","","","","Mostly Cloudy"
"2004-10-18 01:00","2004","10","18","01:00","4.1","","2.0","","86","","27","","15","","24.1","","99.32","","","","","","Mostly Cloudy"
"2004-10-18 02:00","2004","10","18","02:00","3.0","","1.2","","88","","28","","9","","24.1","","99.37","","","","","","Mainly Clear"
"2004-10-18 03:00","2004","10","18","03:00","2.0","","0.3","","88","","26","","11","","24.1","","99.43","","","","","","Clear"
"2004-10-18 04:00","2004","10","18","04:00","2.4","","1.0","","90","","25","","7","","24.1","","99.46","","","","","","Clear"
"2004-10-18 05:00","2004","10","18","05:00","2.0","","0.5","","90","","28","","7","","24.1","","99.53","","","","","","Mostly Cloudy"
"2004-10-18 06:00","2004","10","18","06:00","2.7","","1.4","","91","","24","","11","","24.1","","99.63","","","","","","Mostly Cloudy"
"2004-10-18 07:00","2004","10","18","07:00","2.9","","1.6","","91","","25","","9","","24.1","","99.65","","","","","","Mostly Cloudy"
"2004-10-18 08:00","2004","10","18","08:00","4.2","","2.5","","89","","26","","11","","24.1","","99.74","","","","","","Mostly Cloudy"
"2004-10-18 09:00","2004","10","18","09:00","5.1","","2.7","","84","","28","","11","","24.1","","99.82","","","","","","Mostly Cloudy"
"2004-10-18 10:00","2004","10","18","10:00","6.8","","3.6","","80","","29","","9","","24.1","","99.84","","","","","","Mostly Cloudy"
"2004-10-18 11:00","2004","10","18","11:00","8.0","","2.9","","70","","35","","7","","24.1","","99.86","","","","","","Mostly Cloudy"
"2004-10-18 12:00","2004","10","18","12:00","8.8","","2.4","","64","","25","","6","","24.1","","99.88","","","","","","Mostly Cloudy"
"2004-10-18 13:00","2004","10","18","13:00","8.6","","2.3","","65","","31","","6","","24.1","","99.80","","","","","","Cloudy"
"2004-10-18 14:00","2004","10","18","14:00","8.6","","2.2","","64","","4","","4","","24.1","","99.71","","","","","","Mostly Cloudy"
"2004-10-18 15:00","2004","10","18","15:00","8.8","","2.5","","65","","10","","17","","24.1","","99.72","","","","","","Cloudy"
"2004-10-18 16:00","2004","10","18","16:00","7.7","","1.8","","66","","11","","13","","24.1","","99.78","","","","","","Cloudy"
"2004-10-18 17:00","2004","10","18","17:00","7.3","","1.8","","68","","12","","13","","24.1","","99.82","","","","","","Cloudy"
"2004-10-18 18:00","2004","10","18","18:00","6.8","","2.4","","73","","11","","11","","24.1","","99.85","","","","","","Mostly Cloudy"
"2004-10-18 19:00","2004","10","18","19:00","6.8","","2.3","","73","","7","","17","","24.1","","99.83","","","","","","Mostly Cloudy"
"2004-10-18 20:00","2004","10","18","20:00","6.6","","2.2","","73","","7","","20","","24.1","","99.78","","","","","","Mostly Cloudy"
"2004-10-18 21:00","2004","10","18","21:00","6.2","","1.9","","74","","6","","17","","24.1","","99.80","","","","","","Mainly Clear"
"2004-10-18 22:00","2004","10","18","22:00","6.1","","1.3","","71","","7","","15","","24.1","","99.82","","","","","","Cloudy"
"2004-10-18 23:00","2004","10","18","23:00","6.3","","1.2","","70","","7","","17","","24.1","","99.76","","","","","","Cloudy"
"2004-10-19 00:00","2004","10","19","00:00","6.7","","1.4","","69","","7","","24","","24.1","","99.71","","","","","","Cloudy"
"2004-10-19 01:00","2004","10","19","01:00","7.0","","2.3","","72","","7","","24","","24.1","","99.68","","","","","","Cloudy"
"2004-10-19 02:00","2004","10","19","02:00","6.6","","1.5","","70","","6","","26","","24.1","","99.67","","","","","","Cloudy"
"2004-10-19 03:00","2004","10","19","03:00","6.1","","1.0","","70","","6","","26","","24.1","","99.65","","","","","","Cloudy"
"2004-10-19 04:00","2004","10","19","04:00","6.2","","0.7","","68","","6","","24","","24.1","","99.67","","","","","","Cloudy"
"2004-10-19 05:00","2004","10","19","05:00","5.8","","-0.5","","64","","6","","28","","24.1","","99.70","","","","","","Cloudy"
"2004-10-19 06:00","2004","10","19","06:00","5.6","","-0.7","","64","","7","","28","","24.1","","99.75","","","","","","Cloudy"
"2004-10-19 07:00","2004","10","19","07:00","5.5","","-0.8","","64","","6","","26","","24.1","","99.75","","","","","","Cloudy"
"2004-10-19 08:00","2004","10","19","08:00","5.8","","-0.8","","63","","6","","26","","24.1","","99.80","","","","","","Cloudy"
"2004-10-19 09:00","2004","10","19","09:00","5.8","","-0.7","","63","","7","","33","","24.1","","99.80","","","","","","Cloudy"
"2004-10-19 10:00","2004","10","19","10:00","6.6","","-0.1","","62","","7","","26","","24.1","","99.81","","","","","","Cloudy"
"2004-10-19 11:00","2004","10","19","11:00","7.2","","0.8","","64","","7","","19","","24.1","","99.87","","","","","","Cloudy"
"2004-10-19 12:00","2004","10","19","12:00","7.9","","2.3","","68","","7","","22","","24.1","","99.81","","","","","","Cloudy"
"2004-10-19 13:00","2004","10","19","13:00","8.6","","2.8","","67","","8","","30","","24.1","","99.77","","","","","","Cloudy"
"2004-10-19 14:00","2004","10","19","14:00","9.3","","2.3","","62","","8","","26","","24.1","","99.77","","","","","","Cloudy"
"2004-10-19 15:00","2004","10","19","15:00","9.4","","2.3","","61","","9","","26","","24.1","","99.79","","","","","","Cloudy"
"2004-10-19 16:00","2004","10","19","16:00","9.3","","2.8","","64","","9","","30","","24.1","","99.81","","","","","","Cloudy"
"2004-10-19 17:00","2004","10","19","17:00","9.2","","3.1","","66","","9","","22","","24.1","","99.83","","","","","","Cloudy"
"2004-10-19 18:00","2004","10","19","18:00","9.3","","3.0","","65","","9","","35","","24.1","","99.81","","","","","","Mostly Cloudy"
"2004-10-19 19:00","2004","10","19","19:00","9.2","","2.9","","65","","9","","33","","24.1","","99.84","","","","","","Cloudy"
"2004-10-19 20:00","2004","10","19","20:00","8.5","","3.6","","71","","8","","32","","24.1","","99.84","","","","","","Rain Showers"
"2004-10-19 21:00","2004","10","19","21:00","8.6","","3.4","","70","","8","","26","","24.1","","99.84","","","","","","Cloudy"
"2004-10-19 22:00","2004","10","19","22:00","8.5","","3.4","","70","","8","","33","","24.1","","99.83","","","","","","Cloudy"
"2004-10-19 23:00","2004","10","19","23:00","8.6","","4.0","","73","","9","","28","","24.1","","99.83","","","","","","Cloudy"
"2004-10-20 00:00","2004","10","20","00:00","7.9","","5.0","","82","","8","","24","","24.1","","99.80","","","","","","Cloudy"
"2004-10-20 01:00","2004","10","20","01:00","7.8","","5.0","","82","","9","","22","","24.1","","99.78","","","","","","Cloudy"
"2004-10-20 02:00","2004","10","20","02:00","7.2","","5.3","","88","","8","","20","","11.3","","99.78","","","","","","Drizzle"
"2004-10-20 03:00","2004","10","20","03:00","7.1","","5.9","","92","","7","","20","","12.9","","99.74","","","","","","Drizzle"
"2004-10-20 04:00","2004","10","20","04:00","7.2","","6.2","","93","","8","","24","","19.3","","99.73","","","","","","Drizzle"
"2004-10-20 05:00","2004","10","20","05:00","7.3","","6.4","","94","","8","","26","","16.1","","99.73","","","","","","Drizzle"
"2004-10-20 06:00","2004","10","20","06:00","7.2","","6.3","","94","","8","","26","","8.0","","99.76","","","","","","Drizzle"
"2004-10-20 07:00","2004","10","20","07:00","7.2","","6.6","","96","","8","","15","","6.4","","99.80","","","","","","Drizzle"
"2004-10-20 08:00","2004","10","20","08:00","7.3","","6.8","","97","","8","","20","","4.8","","99.82","","","","","","Drizzle,Fog"
"2004-10-20 09:00","2004","10","20","09:00","7.5","","7.1","","97","","7","","15","","3.6","","99.82","","","","","","Drizzle,Fog"
"2004-10-20 10:00","2004","10","20","10:00","7.6","","7.3","","98","","7","","15","","6.4","","99.82","","","","","","Drizzle,Fog"
"2004-10-20 11:00","2004","10","20","11:00","7.6","","7.4","","99","","4","","15","","8.0","","99.79","","","","","","Drizzle,Fog"
"2004-10-20 12:00","2004","10","20","12:00","7.5","","7.3","","99","","6","","15","","3.2","","99.77","","","","","","Drizzle,Fog"
"2004-10-20 13:00","2004","10","20","13:00","7.7","","7.5","","99","","5","","9","","2.4","","99.77","","","","","","Drizzle,Fog"
"2004-10-20 14:00","2004","10","20","14:00","7.8","","7.6","","99","","4","","15","","2.4","","99.75","","","","","","Drizzle,Fog"
"2004-10-20 15:00","2004","10","20","15:00","7.8","","7.7","","99","","4","","13","","2.8","","99.73","","","","","","Drizzle,Fog"
"2004-10-20 16:00","2004","10","20","16:00","7.7","","7.5","","99","","5","","17","","3.2","","99.72","","","","","","Drizzle,Fog"
"2004-10-20 17:00","2004","10","20","17:00","7.8","","7.6","","99","","5","","13","","3.2","","99.75","","","","","","Drizzle,Fog"
"2004-10-20 18:00","2004","10","20","18:00","7.8","","7.6","","99","","5","","13","","4.8","","99.77","","","","","","Drizzle,Fog"
"2004-10-20 19:00","2004","10","20","19:00","7.5","","7.3","","99","","2","","13","","4.0","","99.82","","","","","","Drizzle,Fog"
"2004-10-20 20:00","2004","10","20","20:00","7.2","","7.0","","99","","1","","15","","3.2","","99.82","","","","","","Drizzle,Fog"
"2004-10-20 21:00","2004","10","20","21:00","7.1","","6.9","","99","","36","","13","","3.2","","99.83","","","","","","Drizzle,Fog"
"2004-10-20 22:00","2004","10","20","22:00","7.0","","6.8","","99","","3","","13","","4.8","","99.80","","","","","","Drizzle,Fog"
"2004-10-20 23:00","2004","10","20","23:00","6.8","","6.5","","98","","34","","13","","4.0","","99.85","","","","","","Drizzle,Fog"
"2004-10-21 00:00","2004","10","21","00:00","6.7","","6.4","","98","","35","","17","","4.0","","99.80","","","","","","Drizzle,Fog"
"2004-10-21 01:00","2004","10","21","01:00","6.7","","6.4","","98","","35","","17","","3.2","","99.81","","","","","","Drizzle,Fog"
"2004-10-21 02:00","2004","10","21","02:00","6.6","","6.4","","99","","36","","15","","2.4","","99.83","","","","","","Drizzle,Fog"
"2004-10-21 03:00","2004","10","21","03:00","6.6","","6.4","","99","","34","","17","","2.4","","99.84","","","","","","Drizzle,Fog"
"2004-10-21 04:00","2004","10","21","04:00","6.7","","6.5","","99","","35","","13","","1.6","","99.85","","","","","","Drizzle,Fog"
"2004-10-21 05:00","2004","10","21","05:00","6.8","","6.7","","99","","36","","19","","4.8","","99.91","","","","","","Drizzle,Fog"
"2004-10-21 06:00","2004","10","21","06:00","7.0","","6.9","","99","","1","","19","","6.4","","99.97","","","","","","Fog"
"2004-10-21 07:00","2004","10","21","07:00","7.2","","6.9","","98","","1","","13","","8.0","","100.01","","","","","","Fog"
"2004-10-21 08:00","2004","10","21","08:00","7.4","","7.0","","97","","1","","15","","9.7","","100.05","","","","","","Fog"
"2004-10-21 09:00","2004","10","21","09:00","8.2","","7.3","","94","","1","","20","","11.3","","100.07","","","","","","Mostly Cloudy"
"2004-10-21 10:00","2004","10","21","10:00","8.8","","7.2","","90","","2","","13","","12.9","","100.08","","","","","","Cloudy"
"2004-10-21 11:00","2004","10","21","11:00","9.0","","6.6","","85","","2","","17","","16.1","","100.09","","","","","","Cloudy"
"2004-10-21 12:00","2004","10","21","12:00","9.8","","6.9","","82","","36","","15","","16.1","","100.10","","","","","","Cloudy"
"2004-10-21 13:00","2004","10","21","13:00","10.1","","6.9","","80","","36","","11","","19.3","","100.07","","","","","","Cloudy"
"2004-10-21 14:00","2004","10","21","14:00","10.2","","6.5","","78","","35","","19","","19.3","","100.12","","","","","","Cloudy"
"2004-10-21 15:00","2004","10","21","15:00","9.5","","6.3","","80","","2","","17","","19.3","","100.15","","","","","","Cloudy"
"2004-10-21 16:00","2004","10","21","16:00","9.1","","6.5","","84","","2","","9","","16.1","","100.20","","","","","","Cloudy"
"2004-10-21 17:00","2004","10","21","17:00","8.5","","6.4","","87","","3","","17","","16.1","","100.23","","","","","","Cloudy"
"2004-10-21 18:00","2004","10","21","18:00","8.1","","6.5","","90","","5","","11","","14.5","","100.26","","","","","","Cloudy"
"2004-10-21 19:00","2004","10","21","19:00","7.9","","6.8","","93","","6","","11","","14.5","","100.28","","","","","","Cloudy"
"2004-10-21 20:00","2004","10","21","20:00","7.5","","6.7","","95","","7","","7","","4.8","","100.31","","","","","","Drizzle,Fog"
"2004-10-21 21:00","2004","10","21","21:00","7.2","","6.6","","96","","6","","11","","8.0","","100.34","","","","","","Drizzle,Fog"
"2004-10-21 22:00","2004","10","21","22:00","7.2","","6.5","","95","","5","","9","","11.3","","100.36","","","","","","Cloudy"
"2004-10-21 23:00","2004","10","21","23:00","6.9","","6.0","","94","","8","","15","","12.9","","100.33","","","","","","Cloudy"
"2004-10-22 00:00","2004","10","22","00:00","6.9","","5.7","","92","","8","","13","","11.3","","100.32","","","","","","Cloudy"
"2004-10-22 01:00","2004","10","22","01:00","6.9","","5.7","","92","","","","0","","11.3","","100.33","","","","","","Cloudy"
"2004-10-22 02:00","2004","10","22","02:00","7.0","","5.7","","91","","6","","7","","12.9","","100.37","","","","","","Cloudy"
"2004-10-22 03:00","2004","10","22","03:00","6.9","","5.6","","91","","6","","9","","12.9","","100.37","","","","","","Cloudy"
"2004-10-22 04:00","2004","10","22","04:00","6.9","","5.5","","91","","6","","7","","12.9","","100.37","","","","","","Cloudy"
"2004-10-22 05:00","2004","10","22","05:00","6.8","","5.7","","93","","5","","7","","6.4","","100.37","","","","","","Drizzle,Fog"
"2004-10-22 06:00","2004","10","22","06:00","6.6","","6.0","","96","","5","","7","","6.4","","100.42","","","","","","Drizzle,Fog"
"2004-10-22 07:00","2004","10","22","07:00","6.7","","6.0","","95","","5","","13","","4.8","","100.43","","","","","","Drizzle,Fog"
"2004-10-22 08:00","2004","10","22","08:00","6.9","","6.3","","96","","6","","13","","6.4","","100.47","","","","","","Fog"
"2004-10-22 09:00","2004","10","22","09:00","7.0","","6.4","","96","","8","","11","","4.0","","100.49","","","","","","Drizzle,Fog"
"2004-10-22 10:00","2004","10","22","10:00","7.3","","6.6","","95","","6","","9","","6.4","","100.47","","","","","","Fog"
"2004-10-22 11:00","2004","10","22","11:00","9.2","","7.5","","89","","7","","15","","8.0","","100.47","","","","","","Fog"
"2004-10-22 12:00","2004","10","22","12:00","9.6","","6.9","","83","","7","","9","","16.1","","100.46","","","","","","Cloudy"
"2004-10-22 13:00","2004","10","22","13:00","8.8","","7.4","","91","","6","","15","","8.0","","100.41","","","","","","Fog"
"2004-10-22 14:00","2004","10","22","14:00","9.1","","7.6","","90","","9","","11","","8.0","","100.37","","","","","","Drizzle,Fog"
"2004-10-22 15:00","2004","10","22","15:00","9.5","","7.6","","88","","9","","20","","16.1","","100.35","","","","","","Cloudy"
"2004-10-22 16:00","2004","10","22","16:00","9.7","","7.5","","86","","8","","19","","19.3","","100.36","","","","","","Cloudy"
"2004-10-22 17:00","2004","10","22","17:00","9.8","","7.5","","86","","8","","20","","19.3","","100.33","","","","","","Cloudy"
"2004-10-22 18:00","2004","10","22","18:00","9.7","","7.4","","86","","9","","15","","16.1","","100.30","","","","","","Cloudy"
"2004-10-22 19:00","2004","10","22","19:00","10.0","","7.9","","87","","11","","13","","19.3","","100.31","","","","","","Cloudy"
"2004-10-22 20:00","2004","10","22","20:00","10.0","","8.2","","89","","9","","7","","19.3","","100.36","","","","","","Cloudy"
"2004-10-22 21:00","2004","10","22","21:00","10.5","","7.7","","83","","11","","19","","24.1","","100.35","","","","","","Cloudy"
"2004-10-22 22:00","2004","10","22","22:00","10.5","","7.2","","80","","11","","19","","24.1","","100.33","","","","","","Cloudy"
"2004-10-22 23:00","2004","10","22","23:00","10.4","","6.5","","77","","12","","22","","24.1","","100.28","","","","","","Cloudy"
"2004-10-23 00:00","2004","10","23","00:00","10.2","","6.3","","77","","11","","20","","24.1","","100.24","","","","","","Mostly Cloudy"
"2004-10-23 01:00","2004","10","23","01:00","10.0","","6.1","","77","","11","","22","","24.1","","100.24","","","","","","Mostly Cloudy"
"2004-10-23 02:00","2004","10","23","02:00","9.2","","5.7","","79","","12","","15","","24.1","","100.23","","","","","","Mostly Cloudy"
"2004-10-23 03:00","2004","10","23","03:00","8.6","","5.7","","82","","11","","15","","24.1","","100.16","","","","","","Mainly Clear"
"2004-10-23 04:00","2004","10","23","04:00","8.1","","5.7","","85","","10","","13","","24.1","","100.13","","","","","","Mostly Cloudy"
"2004-10-23 05:00","2004","10","23","05:00","7.6","","5.5","","87","","10","","13","","24.1","","100.07","","","","","","Mainly Clear"
"2004-10-23 06:00","2004","10","23","06:00","7.2","","5.6","","90","","12","","9","","24.1","","100.01","","","","","","Clear"
"2004-10-23 07:00","2004","10","23","07:00","7.2","","5.7","","90","","13","","7","","16.1","","100.08","","","","","","Mainly Clear"
"2004-10-23 08:00","2004","10","23","08:00","8.9","","6.8","","87","","13","","13","","19.3","","100.10","","","","","","Mostly Cloudy"
"2004-10-23 09:00","2004","10","23","09:00","9.6","","6.0","","78","","13","","19","","19.3","","100.01","","","","","","Mostly Cloudy"
"2004-10-23 10:00","2004","10","23","10:00","10.4","","6.1","","75","","13","","19","","19.3","","99.95","","","","","","Mostly Cloudy"
"2004-10-23 11:00","2004","10","23","11:00","10.2","","5.9","","75","","14","","15","","24.1","","99.98","","","","","","Mostly Cloudy"
"2004-10-23 12:00","2004","10","23","12:00","10.0","","5.7","","75","","13","","15","","24.1","","99.90","","","","","","Mostly Cloudy"
"2004-10-23 13:00","2004","10","23","13:00","10.8","","5.5","","70","","12","","28","","24.1","","99.83","","","","","","Mostly Cloudy"
"2004-10-23 14:00","2004","10","23","14:00","11.8","","5.7","","66","","11","","26","","24.1","","99.70","","","","","","Mostly Cloudy"
"2004-10-23 15:00","2004","10","23","15:00","11.7","","5.3","","65","","10","","17","","24.1","","99.60","","","","","","Mostly Cloudy"
"2004-10-23 16:00","2004","10","23","16:00","11.4","","6.2","","70","","11","","20","","24.1","","99.52","","","","","","Cloudy"
"2004-10-23 17:00","2004","10","23","17:00","10.8","","5.7","","71","","9","","26","","24.1","","99.39","","","","","","Cloudy"
"2004-10-23 18:00","2004","10","23","18:00","10.9","","7.0","","77","","10","","26","","24.1","","99.33","","","","","","Cloudy"
"2004-10-23 19:00","2004","10","23","19:00","11.2","","6.0","","70","","11","","24","","24.1","","99.33","","","","","","Cloudy"
"2004-10-23 20:00","2004","10","23","20:00","11.3","","5.2","","66","","11","","32","","24.1","","99.23","","","","","","Cloudy"
"2004-10-23 21:00","2004","10","23","21:00","10.6","","5.1","","69","","11","","20","","24.1","","99.23","","","","","","Cloudy"
"2004-10-23 22:00","2004","10","23","22:00","10.2","","5.4","","72","","11","","20","","24.1","","99.23","","","","","","Cloudy"
"2004-10-23 23:00","2004","10","23","23:00","10.1","","5.2","","72","","11","","19","","24.1","","99.15","","","","","","Cloudy"
"2004-10-24 00:00","2004","10","24","00:00","9.7","","5.6","","76","","11","","15","","24.1","","99.07","","","","","","Cloudy"
"2004-10-24 01:00","2004","10","24","01:00","9.6","","5.6","","76","","10","","17","","24.1","","98.96","","","","","","Rain Showers"
"2004-10-24 02:00","2004","10","24","02:00","8.9","","6.3","","84","","12","","11","","19.3","","98.94","","","","","","Rain Showers"
"2004-10-24 03:00","2004","10","24","03:00","8.9","","6.5","","85","","12","","11","","19.3","","98.86","","","","","","Rain"
"2004-10-24 04:00","2004","10","24","04:00","9.2","","6.5","","83","","11","","9","","24.1","","98.88","","","","","","Cloudy"
"2004-10-24 05:00","2004","10","24","05:00","9.3","","6.2","","81","","12","","19","","24.1","","98.87","","","","","","Cloudy"
"2004-10-24 06:00","2004","10","24","06:00","9.4","","6.0","","79","","12","","15","","24.1","","98.90","","","","","","Cloudy"
"2004-10-24 07:00","2004","10","24","07:00","9.6","","6.2","","79","","13","","15","","19.3","","98.91","","","","","","Cloudy"
"2004-10-24 08:00","2004","10","24","08:00","9.7","","6.3","","79","","12","","13","","24.1","","98.93","","","","","","Cloudy"
"2004-10-24 09:00","2004","10","24","09:00","10.1","","6.7","","79","","11","","19","","19.3","","98.94","","","","","","Cloudy"
"2004-10-24 10:00","2004","10","24","10:00","10.2","","7.4","","83","","12","","19","","16.1","","98.95","","","","","","Cloudy"
"2004-10-24 11:00","2004","10","24","11:00","9.6","","7.6","","87","","11","","20","","6.4","","98.98","","","","","","Drizzle,Fog"
"2004-10-24 12:00","2004","10","24","12:00","9.3","","7.9","","91","","10","","11","","6.4","","98.98","","","","","","Drizzle,Fog"
"2004-10-24 13:00","2004","10","24","13:00","9.4","","8.6","","95","","11","","9","","1.6","","98.95","","","","","","Drizzle,Fog"
"2004-10-24 14:00","2004","10","24","14:00","9.6","","9.0","","96","","9","","11","","2.0","","98.98","","","","","","Drizzle,Fog"
"2004-10-24 15:00","2004","10","24","15:00","9.7","","9.4","","98","","9","","9","","1.6","","99.04","","","","","","Drizzle,Fog"
"2004-10-24 16:00","2004","10","24","16:00","9.9","","9.6","","98","","9","","7","","4.0","","99.08","","","","","","Drizzle,Fog"
"2004-10-24 17:00","2004","10","24","17:00","9.7","","9.6","","99","","7","","7","","2.0","","99.14","","","","","","Drizzle,Fog"
"2004-10-24 18:00","2004","10","24","18:00","9.6","","9.4","","99","","6","","11","","2.8","","99.18","","","","","","Drizzle,Fog"
"2004-10-24 19:00","2004","10","24","19:00","9.6","","9.5","","99","","6","","7","","2.8","","99.22","","","","","","Drizzle,Fog"
"2004-10-24 20:00","2004","10","24","20:00","9.5","","9.5","","100","","2","","4","","2.4","","99.27","","","","","","Drizzle,Fog"
"2004-10-24 21:00","2004","10","24","21:00","9.3","","9.2","","99","","34","","7","","1.2","","99.32","","","","","","Fog"
"2004-10-24 22:00","2004","10","24","22:00","9.3","","9.3","","100","","36","","9","","1.2","","99.35","","","","","","Fog"
"2004-10-24 23:00","2004","10","24","23:00","9.3","","9.2","","99","","33","","4","","4.8","","99.36","","","","","","Fog"
"2004-10-25 00:00","2004","10","25","00:00","9.2","","9.1","","99","","32","","6","","4.8","","99.38","","","","","","Fog"
"2004-10-25 01:00","2004","10","25","01:00","9.0","","8.9","","99","","1","","6","","6.4","","99.40","","","","","","Fog"
"2004-10-25 02:00","2004","10","25","02:00","9.1","","9.0","","99","","3","","6","","6.4","","99.43","","","","","","Fog"
"2004-10-25 03:00","2004","10","25","03:00","9.2","","9.0","","99","","","","0","","4.8","","99.45","","","","","","Fog"
"2004-10-25 04:00","2004","10","25","04:00","9.1","","9.0","","99","","","","0","","6.4","","99.49","","","","","","Fog"
"2004-10-25 05:00","2004","10","25","05:00","9.0","","8.9","","99","","27","","6","","6.4","","99.55","","","","","","Fog"
"2004-10-25 06:00","2004","10","25","06:00","9.3","","9.3","","100","","28","","6","","6.4","","99.59","","","","","","Fog"
"2004-10-25 07:00","2004","10","25","07:00","9.6","","9.4","","99","","36","","7","","4.8","","99.66","","","","","","Fog"
"2004-10-25 08:00","2004","10","25","08:00","9.8","","9.6","","99","","35","","6","","6.4","","99.72","","","","","","Fog"
"2004-10-25 09:00","2004","10","25","09:00","10.6","","9.9","","95","","36","","7","","8.0","","99.74","","","","","","Fog"
"2004-10-25 10:00","2004","10","25","10:00","10.9","","9.6","","92","","33","","4","","11.3","","99.74","","","","","","Cloudy"
"2004-10-25 11:00","2004","10","25","11:00","11.4","","9.7","","89","","32","","7","","12.9","","99.76","","","","","","Mostly Cloudy"
"2004-10-25 12:00","2004","10","25","12:00","11.8","","9.6","","86","","32","","6","","12.9","","99.76","","","","","","Cloudy"
"2004-10-25 13:00","2004","10","25","13:00","12.5","","9.8","","84","","","","0","","14.5","","99.73","","","","","","Mostly Cloudy"
"2004-10-25 14:00","2004","10","25","14:00","14.3","","9.8","","74","","","","0","","12.9","","99.69","","","","","","Mostly Cloudy"
"2004-10-25 15:00","2004","10","25","15:00","14.1","","9.4","","73","","16","","4","","16.1","","99.73","","","","","","Mostly Cloudy"
"2004-10-25 16:00","2004","10","25","16:00","11.9","","9.7","","86","","16","","11","","8.0","","99.75","","","","","","Haze"
"2004-10-25 17:00","2004","10","25","17:00","11.4","","9.6","","89","","16","","7","","8.0","","99.82","","","","","","Fog"
"2004-10-25 18:00","2004","10","25","18:00","11.2","","9.4","","89","","14","","7","","14.5","","99.87","","","","","","Cloudy"
"2004-10-25 19:00","2004","10","25","19:00","10.8","","9.4","","91","","15","","9","","12.9","","99.91","","","","","","Mostly Cloudy"
"2004-10-25 20:00","2004","10","25","20:00","10.4","","9.7","","95","","17","","6","","12.9","","99.93","","","","","","Mostly Cloudy"
"2004-10-25 21:00","2004","10","25","21:00","10.3","","9.6","","95","","16","","7","","12.9","","99.93","","","","","","Mostly Cloudy"
"2004-10-25 22:00","2004","10","25","22:00","10.0","","9.3","","95","","14","","4","","14.5","","99.97","","","","","","Mostly Cloudy"
"2004-10-25 23:00","2004","10","25","23:00","9.1","","9.0","","99","","","","0","","9.7","","100.01","","","","","","Fog"
"2004-10-26 00:00","2004","10","26","00:00","7.8","","7.8","","100","","","","0","","2.0","","100.03","","","","","","Fog"
"2004-10-26 01:00","2004","10","26","01:00","7.3","","7.2","","99","","","","0","","4.0","","100.07","","","","","","Fog"
"2004-10-26 02:00","2004","10","26","02:00","8.6","","8.6","","100","","","","0","","0.8","","100.10","","","","","","Fog"
"2004-10-26 03:00","2004","10","26","03:00","8.2","","8.2","","100","","27","","4","","0.0","","100.12","","","","","","Fog"
"2004-10-26 04:00","2004","10","26","04:00","8.2","","8.2","","100","","","","0","","0.0","","100.11","","","","","","Fog"
"2004-10-26 05:00","2004","10","26","05:00","7.9","","7.9","","100","","32","","6","","0.0","","100.19","","","","","","Fog"
"2004-10-26 06:00","2004","10","26","06:00","7.7","","7.7","","100","","34","","4","","0.2","","100.23","","","","","","Fog"
"2004-10-26 07:00","2004","10","26","07:00","7.4","","7.4","","100","","","","0","","0.2","","100.26","","","","","","Fog"
"2004-10-26 08:00","2004","10","26","08:00","6.9","","6.9","","100","","26","","4","","0.6","","100.33","","","","","","Fog"
"2004-10-26 09:00","2004","10","26","09:00","8.5","","8.5","","100","","","","0","","4.0","","100.34","","","","","","Fog"
"2004-10-26 10:00","2004","10","26","10:00","10.7","","10.4","","98","","18","","7","","4.8","","100.32","","","","","","Fog"
"2004-10-26 11:00","2004","10","26","11:00","13.5","","10.8","","84","","20","","4","","8.0","","100.31","","","","","","Haze"
"2004-10-26 12:00","2004","10","26","12:00","15.6","","10.7","","73","","16","","7","","11.3","","100.24","","","","","","Clear"
"2004-10-26 13:00","2004","10","26","13:00","15.3","","10.6","","74","","16","","9","","11.3","","100.21","","","","","","Mostly Cloudy"
"2004-10-26 14:00","2004","10","26","14:00","15.5","","10.3","","71","","14","","11","","12.9","","100.17","","","","","","Mainly Clear"
"2004-10-26 15:00","2004","10","26","15:00","14.2","","9.4","","73","","15","","11","","12.9","","100.18","","","","","","Mostly Cloudy"
"2004-10-26 16:00","2004","10","26","16:00","13.0","","8.9","","76","","16","","7","","12.9","","100.20","","","","","","Mostly Cloudy"
"2004-10-26 17:00","2004","10","26","17:00","11.4","","8.6","","83","","16","","6","","12.9","","100.22","","","","","","Mostly Cloudy"
"2004-10-26 18:00","2004","10","26","18:00","10.8","","8.6","","86","","12","","9","","16.1","","100.20","","","","","","Mostly Cloudy"
"2004-10-26 19:00","2004","10","26","19:00","10.2","","8.6","","90","","18","","6","","14.5","","100.29","","","","","","Mostly Cloudy"
"2004-10-26 20:00","2004","10","26","20:00","10.2","","8.5","","89","","","","0","","16.1","","100.30","","","","","","Mostly Cloudy"
"2004-10-26 21:00","2004","10","26","21:00","10.1","","8.7","","91","","","","0","","14.5","","100.29","","","","","","Mostly Cloudy"
"2004-10-26 22:00","2004","10","26","22:00","10.7","","9.1","","90","","35","","6","","12.9","","100.27","","","","","","Mostly Cloudy"
"2004-10-26 23:00","2004","10","26","23:00","10.2","","9.1","","93","","1","","7","","12.9","","100.22","","","","","","Mostly Cloudy"
"2004-10-27 00:00","2004","10","27","00:00","10.1","","9.4","","95","","34","","7","","12.9","","100.26","","","","","","Mostly Cloudy"
"2004-10-27 01:00","2004","10","27","01:00","10.3","","9.6","","95","","35","","6","","12.9","","100.28","","","","","","Cloudy"
"2004-10-27 02:00","2004","10","27","02:00","10.7","","9.9","","95","","36","","7","","12.9","","100.29","","","","","","Cloudy"
"2004-10-27 03:00","2004","10","27","03:00","10.5","","9.8","","95","","36","","9","","12.9","","100.25","","","","","","Cloudy"
"2004-10-27 04:00","2004","10","27","04:00","10.2","","9.7","","97","","36","","7","","12.9","","100.25","","","","","","Mostly Cloudy"
"2004-10-27 05:00","2004","10","27","05:00","10.1","","9.6","","97","","1","","6","","12.9","","100.30","","","","","","Cloudy"
"2004-10-27 06:00","2004","10","27","06:00","10.0","","9.0","","93","","36","","19","","16.1","","100.36","","","","","","Cloudy"
"2004-10-27 07:00","2004","10","27","07:00","10.0","","8.8","","92","","3","","9","","11.3","","100.34","","","","","","Cloudy"
"2004-10-27 08:00","2004","10","27","08:00","10.6","","9.8","","95","","2","","11","","8.0","","100.43","","","","","","Rain Showers,Fog"
"2004-10-27 09:00","2004","10","27","09:00","10.8","","9.5","","92","","5","","9","","8.0","","100.48","","","","","","Fog"
"2004-10-27 10:00","2004","10","27","10:00","11.3","","9.6","","89","","5","","11","","8.0","","100.50","","","","","","Fog"
"2004-10-27 11:00","2004","10","27","11:00","11.4","","9.0","","85","","2","","15","","9.7","","100.55","","","","","","Haze"
"2004-10-27 12:00","2004","10","27","12:00","11.3","","9.0","","86","","4","","13","","14.5","","100.52","","","","","","Cloudy"
"2004-10-27 13:00","2004","10","27","13:00","11.2","","8.9","","86","","3","","11","","16.1","","100.52","","","","","","Cloudy"
"2004-10-27 14:00","2004","10","27","14:00","10.8","","8.8","","87","","2","","13","","16.1","","100.50","","","","","","Cloudy"
"2004-10-27 15:00","2004","10","27","15:00","10.8","","9.1","","89","","6","","11","","14.5","","100.53","","","","","","Cloudy"
"2004-10-27 16:00","2004","10","27","16:00","10.9","","8.5","","85","","4","","19","","16.1","","100.54","","","","","","Cloudy"
"2004-10-27 17:00","2004","10","27","17:00","10.4","","7.5","","82","","5","","15","","24.1","","100.58","","","","","","Cloudy"
"2004-10-27 18:00","2004","10","27","18:00","10.2","","5.6","","73","","5","","11","","24.1","","100.62","","","","","","Mostly Cloudy"
"2004-10-27 19:00","2004","10","27","19:00","10.0","","5.6","","74","","4","","13","","24.1","","100.62","","","","","","Cloudy"
"2004-10-27 20:00","2004","10","27","20:00","9.9","","5.3","","73","","4","","11","","24.1","","100.65","","","","","","Cloudy"
"2004-10-27 21:00","2004","10","27","21:00","10.0","","5.6","","74","","5","","7","","24.1","","100.67","","","","","","Cloudy"
"2004-10-27 22:00","2004","10","27","22:00","10.0","","5.1","","72","","6","","13","","24.1","","100.70","","","","","","Cloudy"
"2004-10-27 23:00","2004","10","27","23:00","9.7","","2.1","","59","","8","","19","","24.1","","100.72","","","","","","Cloudy"
"2004-10-28 00:00","2004","10","28","00:00","8.8","","0.0","","54","","7","","13","","24.1","","100.73","","","","","","Cloudy"
"2004-10-28 01:00","2004","10","28","01:00","7.9","","-1.2","","53","","9","","17","","24.1","","100.71","","","","","","Cloudy"
"2004-10-28 02:00","2004","10","28","02:00","9.6","","-0.5","","49","","7","","9","","24.1","","100.72","","","","","","Mostly Cloudy"
"2004-10-28 03:00","2004","10","28","03:00","5.2","","-0.6","","66","","4","","9","","24.1","","100.70","","","","","","Clear"
"2004-10-28 04:00","2004","10","28","04:00","4.7","","-0.8","","67","","4","","7","","24.1","","100.72","","","","","","Clear"
"2004-10-28 05:00","2004","10","28","05:00","4.1","","-0.5","","72","","3","","9","","24.1","","100.73","","","","","","Clear"
"2004-10-28 06:00","2004","10","28","06:00","4.1","","-0.5","","72","","4","","9","","24.1","","100.74","","","","","","Mainly Clear"
"2004-10-28 07:00","2004","10","28","07:00","4.1","","-0.4","","72","","5","","9","","24.1","","100.72","","","","","","Mainly Clear"
"2004-10-28 08:00","2004","10","28","08:00","6.2","","1.5","","72","","7","","9","","24.1","","100.72","","","","","","Mostly Cloudy"
"2004-10-28 09:00","2004","10","28","09:00","7.6","","3.0","","73","","8","","13","","24.1","","100.69","","","","","","Mainly Clear"
"2004-10-28 10:00","2004","10","28","10:00","8.5","","4.3","","75","","11","","11","","24.1","","100.69","","","","","","Mostly Cloudy"
"2004-10-28 11:00","2004","10","28","11:00","8.6","","4.2","","74","","8","","13","","24.1","","100.64","","","","","","Mostly Cloudy"
"2004-10-28 12:00","2004","10","28","12:00","9.6","","4.3","","69","","6","","13","","24.1","","100.59","","","","","","Mostly Cloudy"
"2004-10-28 13:00","2004","10","28","13:00","10.7","","4.4","","65","","13","","9","","24.1","","100.52","","","","","","Mostly Cloudy"
"2004-10-28 14:00","2004","10","28","14:00","10.7","","4.8","","67","","14","","9","","24.1","","100.42","","","","","","Mostly Cloudy"
"2004-10-28 15:00","2004","10","28","15:00","10.9","","4.4","","64","","14","","13","","24.1","","100.36","","","","","","Mostly Cloudy"
"2004-10-28 16:00","2004","10","28","16:00","10.1","","2.7","","60","","11","","13","","24.1","","100.32","","","","","","Mostly Cloudy"
"2004-10-28 17:00","2004","10","28","17:00","9.2","","4.0","","70","","9","","13","","24.1","","100.29","","","","","","Mostly Cloudy"
"2004-10-28 18:00","2004","10","28","18:00","8.4","","4.8","","78","","9","","11","","24.1","","100.27","","","","","","Mostly Cloudy"
"2004-10-28 19:00","2004","10","28","19:00","8.2","","5.1","","81","","9","","9","","24.1","","100.24","","","","","","Mostly Cloudy"
"2004-10-28 20:00","2004","10","28","20:00","8.2","","5.3","","82","","9","","9","","24.1","","100.15","","","","","","Cloudy"
"2004-10-28 21:00","2004","10","28","21:00","8.2","","5.8","","85","","9","","6","","24.1","","100.11","","","","","","Cloudy"
"2004-10-28 22:00","2004","10","28","22:00","8.1","","6.6","","90","","8","","6","","24.1","","100.06","","","","","","Cloudy"
"2004-10-28 23:00","2004","10","28","23:00","8.3","","6.5","","88","","9","","6","","24.1","","100.02","","","","","","Cloudy"
"2004-10-29 00:00","2004","10","29","00:00","8.3","","5.8","","84","","8","","6","","19.3","","99.96","","","","","","Cloudy"
"2004-10-29 01:00","2004","10","29","01:00","7.7","","5.6","","87","","5","","7","","24.1","","99.94","","","","","","Cloudy"
"2004-10-29 02:00","2004","10","29","02:00","7.6","","5.6","","87","","5","","6","","24.1","","99.88","","","","","","Cloudy"
"2004-10-29 03:00","2004","10","29","03:00","7.3","","4.8","","84","","2","","7","","24.1","","99.82","","","","","","Cloudy"
"2004-10-29 04:00","2004","10","29","04:00","8.0","","4.6","","79","","9","","4","","24.1","","99.75","","","","","","Cloudy"
"2004-10-29 05:00","2004","10","29","05:00","8.1","","4.3","","77","","9","","6","","24.1","","99.71","","","","","","Cloudy"
"2004-10-29 06:00","2004","10","29","06:00","8.5","","4.1","","74","","9","","7","","24.1","","99.65","","","","","","Cloudy"
"2004-10-29 07:00","2004","10","29","07:00","8.9","","3.8","","70","","11","","7","","24.1","","99.63","","","","","","Mostly Cloudy"
"2004-10-29 08:00","2004","10","29","08:00","10.1","","2.9","","61","","10","","13","","24.1","","99.58","","","","","","Mostly Cloudy"
"2004-10-29 09:00","2004","10","29","09:00","10.5","","6.6","","77","","9","","13","","24.1","","99.56","","","","","","Mostly Cloudy"
"2004-10-29 10:00","2004","10","29","10:00","11.3","","7.1","","75","","9","","19","","24.1","","99.51","","","","","","Cloudy"
"2004-10-29 11:00","2004","10","29","11:00","12.8","","7.2","","69","","11","","20","","24.1","","99.42","","","","","","Mostly Cloudy"
"2004-10-29 12:00","2004","10","29","12:00","11.2","","6.1","","71","","12","","19","","24.1","","99.37","","","","","","Cloudy"
"2004-10-29 13:00","2004","10","29","13:00","11.1","","6.3","","72","","11","","20","","24.1","","99.21","","","","","","Cloudy"
"2004-10-29 14:00","2004","10","29","14:00","11.1","","7.4","","78","","10","","17","","16.1","","99.16","","","","","","Cloudy"
"2004-10-29 15:00","2004","10","29","15:00","11.0","","8.0","","82","","9","","19","","14.5","","99.05","","","","","","Cloudy"
"2004-10-29 16:00","2004","10","29","16:00","10.8","","8.1","","83","","9","","15","","12.9","","99.03","","","","","","Rain Showers"
"2004-10-29 17:00","2004","10","29","17:00","10.8","","8.9","","88","","10","","9","","8.0","","99.05","","","","","","Rain Showers,Fog"
"2004-10-29 18:00","2004","10","29","18:00","10.2","","9.4","","95","","9","","17","","4.0","","99.00","","","","","","Rain,Drizzle,Fog"
"2004-10-29 19:00","2004","10","29","19:00","10.5","","9.9","","96","","10","","17","","4.8","","98.98","","","","","","Drizzle,Fog"
"2004-10-29 20:00","2004","10","29","20:00","10.5","","10.2","","98","","11","","13","","4.0","","98.90","","","","","","Rain,Drizzle,Fog"
"2004-10-29 21:00","2004","10","29","21:00","10.7","","10.5","","99","","9","","7","","2.4","","98.86","","","","","","Drizzle,Fog"
"2004-10-29 22:00","2004","10","29","22:00","10.9","","10.8","","99","","9","","9","","2.4","","98.79","","","","","","Drizzle,Fog"
"2004-10-29 23:00","2004","10","29","23:00","11.0","","11.0","","100","","8","","6","","1.2","","98.73","","","","","","Drizzle,Fog"
"2004-10-30 00:00","2004","10","30","00:00","11.1","","11.1","","100","","13","","6","","0.6","","98.66","","","","","","Fog"
"2004-10-30 01:00","2004","10","30","01:00","11.4","","11.4","","100","","14","","4","","0.2","","98.64","","","","","","Fog"
"2004-10-30 02:00","2004","10","30","02:00","11.4","","11.4","","100","","15","","9","","0.2","","98.55","","","","","","Rain,Fog"
"2004-10-30 03:00","2004","10","30","03:00","11.4","","11.4","","100","","15","","7","","0.2","","98.42","","","","","","Fog"
"2004-10-30 04:00","2004","10","30","04:00","11.5","","11.5","","100","","13","","7","","0.2","","98.38","","","","","","Fog"
"2004-10-30 05:00","2004","10","30","05:00","11.9","","11.9","","100","","11","","7","","0.2","","98.33","","","","","","Fog"
"2004-10-30 06:00","2004","10","30","06:00","12.1","","12.1","","100","","12","","9","","0.4","","98.26","","","","","","Fog"
"2004-10-30 07:00","2004","10","30","07:00","12.7","","12.7","","100","","14","","7","","0.2","","98.20","","","","","","Fog"
"2004-10-30 08:00","2004","10","30","08:00","13.2","","13.2","","100","","14","","6","","0.2","","98.17","","","","","","Fog"
"2004-10-30 09:00","2004","10","30","09:00","14.2","","14.2","","100","","17","","9","","0.8","","98.09","","","","","","Fog"
"2004-10-30 10:00","2004","10","30","10:00","15.0","","15.0","","100","","19","","13","","2.4","","98.02","","","","","","Rain,Fog"
"2004-10-30 11:00","2004","10","30","11:00","17.2","","17.2","","100","","19","","19","","4.8","","97.89","","","","","","Fog"
"2004-10-30 12:00","2004","10","30","12:00","19.0","","18.6","","98","","19","","20","","9.7","","97.79","","","","","","Fog"
"2004-10-30 13:00","2004","10","30","13:00","19.4","","17.6","","89","","23","","22","","1.6","","97.69","","","","","","Heavy Rain Showers,Fog"
"2004-10-30 14:00","2004","10","30","14:00","16.8","","14.9","","89","","21","","19","","11.3","","97.61","","","","","","Rain Showers"
"2004-10-30 15:00","2004","10","30","15:00","17.5","","14.2","","81","","21","","22","","24.1","","97.54","","","","","","Mainly Clear"
"2004-10-30 16:00","2004","10","30","16:00","18.6","","13.7","","73","","22","","20","","24.1","","97.52","","","","","","Mainly Clear"
"2004-10-30 17:00","2004","10","30","17:00","18.6","","14.6","","78","","21","","24","","19.3","","97.46","","","","","","Mainly Clear"
"2004-10-30 18:00","2004","10","30","18:00","19.3","","11.7","","61","","23","","30","","24.1","","97.50","","","","","","Mainly Clear"
"2004-10-30 19:00","2004","10","30","19:00","19.1","","9.5","","54","","25","","32","","24.1","","97.56","","","","","","Cloudy"
"2004-10-30 20:00","2004","10","30","20:00","15.7","","8.3","","61","","30","","33","","24.1","","97.75","","","","","","Cloudy"
"2004-10-30 21:00","2004","10","30","21:00","14.1","","6.8","","61","","28","","35","","24.1","","97.86","","","","","","Mostly Cloudy"
"2004-10-30 22:00","2004","10","30","22:00","12.4","","6.0","","65","","27","","32","","24.1","","97.96","","","","","","Mainly Clear"
"2004-10-30 23:00","2004","10","30","23:00","12.8","","6.1","","64","","26","","24","","24.1","","98.02","","","","","","Cloudy"
"2004-10-31 00:00","2004","10","31","00:00","12.8","","6.1","","64","","26","","37","","24.1","","98.04","","","","","","Cloudy"
"2004-10-31 01:00","2004","10","31","01:00","12.3","","6.5","","68","","25","","19","","24.1","","98.11","","","","","","Cloudy"
"2004-10-31 02:00","2004","10","31","02:00","12.4","","6.5","","67","","24","","28","","24.1","","98.19","","","","","","Cloudy"
"2004-10-31 03:00","2004","10","31","03:00","10.5","","8.3","","86","","26","","19","","24.1","","98.21","","","","","","Cloudy"
"2004-10-31 04:00","2004","10","31","04:00","11.0","","7.4","","78","","25","","24","","24.1","","98.25","","","","","","Mostly Cloudy"
"2004-10-31 05:00","2004","10","31","05:00","11.0","","7.7","","80","","25","","20","","24.1","","98.27","","","","","","Cloudy"
"2004-10-31 06:00","2004","10","31","06:00","11.3","","7.9","","80","","24","","20","","24.1","","98.29","","","","","","Cloudy"
"2004-10-31 07:00","2004","10","31","07:00","11.2","","7.8","","80","","26","","28","","24.1","","98.34","","","","","","Cloudy"
"2004-10-31 08:00","2004","10","31","08:00","10.6","","8.2","","85","","25","","30","","16.1","","98.42","","","","","","Rain Showers"
"2004-10-31 09:00","2004","10","31","09:00","12.0","","7.7","","75","","26","","39","","24.1","","98.46","","","","","","Mostly Cloudy"
"2004-10-31 10:00","2004","10","31","10:00","11.4","","7.6","","77","","27","","33","","19.3","","98.52","","","","","","Rain Showers"
"2004-10-31 11:00","2004","10","31","11:00","12.0","","7.1","","72","","25","","41","","24.1","","98.57","","","","","","Mostly Cloudy"
"2004-10-31 12:00","2004","10","31","12:00","12.4","","6.2","","66","","27","","44","","24.1","","98.61","","","","","","Cloudy"
"2004-10-31 13:00","2004","10","31","13:00","11.9","","5.6","","65","","28","","30","","24.1","","98.70","","","","","","Cloudy"
"2004-10-31 14:00","2004","10","31","14:00","11.0","","5.8","","70","","29","","28","","24.1","","98.76","","","","","","Rain Showers"
"2004-10-31 15:00","2004","10","31","15:00","11.5","","5.7","","68","","28","","44","","24.1","","98.84","","","","","","Cloudy"
"2004-10-31 16:00","2004","10","31","16:00","10.5","","6.1","","74","","28","","35","","24.1","","98.96","","","","","","Mostly Cloudy"
"2004-10-31 17:00","2004","10","31","17:00","9.0","","5.6","","79","","28","","39","","19.3","","99.08","","","","","","Rain Showers"
"2004-10-31 18:00","2004","10","31","18:00","9.6","","5.2","","74","","28","","41","","24.1","","99.18","","","","","","Rain Showers"
"2004-10-31 19:00","2004","10","31","19:00","9.0","","5.9","","81","","29","","24","","24.1","","99.22","","","","","","Mostly Cloudy"
"2004-10-31 20:00","2004","10","31","20:00","8.6","","5.3","","80","","27","","22","","24.1","","99.33","","","","","","Mostly Cloudy"
"2004-10-31 21:00","2004","10","31","21:00","8.1","","4.7","","79","","29","","15","","24.1","","99.41","","","","","","Mostly Cloudy"
"2004-10-31 22:00","2004","10","31","22:00","7.1","","4.5","","84","","27","","15","","24.1","","99.51","","","","","","Mostly Cloudy"
"2004-10-31 23:00","2004","10","31","23:00","7.8","","4.3","","79","","29","","15","","24.1","","99.54","","","","","","Mostly Cloudy"
