"Station Name","TORONTO LESTER B. PEARSON INT'L A"
"Province","ONTARIO"
"Latitude","43.68"
"Longitude","-79.63"
"Elevation","173.40"
"Climate Identifier","6158733"
"WMO Identifier","71624"
"TC Identifier","YYZ"
"All times are specified in Local Standard Time (LST). Add 1 hour to adjust for Daylight Saving Time where and when it is observed."

"Legend"
"E","Estimated"
"M","Missing"
"NA","Not Available"

"Date/Time","Year","Month","Day","Time","Temp (°C)","Temp Flag","Dew Point Temp (°C)","Dew Point Temp Flag","Rel Hum (%)","Rel Hum Flag","Wind Dir (10s deg)","Wind Dir Flag","Wind Spd (km/h)","Wind Spd Flag","Visibility (km)","Visibility Flag","Stn Press (kPa)","Stn Press Flag","Hmdx","Hmdx Flag","Wind Chill","Wind Chill Flag","Weather"
"1998-05-01 00:00","1998","05","01","00:00","12.5","","4.0","","56","","","","0","","19.3","","99.06","","","","","","Mostly Cloudy"
"1998-05-01 01:00","1998","05","01","01:00","12.1","","5.1","","62","","4","","7","","19.3","","98.99","","","","","","Mostly Cloudy"
"1998-05-01 02:00","1998","05","01","02:00","10.5","","5.3","","70","","1","","4","","19.3","","98.96","","","","","","Mostly Cloudy"
"1998-05-01 03:00","1998","05","01","03:00","11.6","","5.8","","68","","","","0","","24.1","","98.92","","","","","","Cloudy"
"1998-05-01 04:00","1998","05","01","04:00","11.5","","6.3","","70","","36","","4","","24.1","","98.89","","","","","","Cloudy"
"1998-05-01 05:00","1998","05","01","05:00","12.1","","5.3","","63","","5","","9","","19.3","","98.82","","","","","","Rain"
"1998-05-01 06:00","1998","05","01","06:00","12.7","","5.3","","61","","5","","6","","19.3","","98.86","","","","","","Rain"
"1998-05-01 07:00","1998","05","01","07:00","13.3","","4.6","","56","","8","","9","","19.3","","98.82","","","","","","Rain"
"1998-05-01 08:00","1998","05","01","08:00","13.8","","4.6","","54","","10","","6","","19.3","","98.79","","","","","","Cloudy"
"1998-05-01 09:00","1998","05","01","09:00","14.4","","6.2","","58","","7","","9","","19.3","","98.76","","","","","","Cloudy"
"1998-05-01 10:00","1998","05","01","10:00","14.9","","6.7","","58","","10","","6","","12.9","","98.72","","","","","","Cloudy"
"1998-05-01 11:00","1998","05","01","11:00","16.7","","9.6","","63","","10","","13","","12.9","","98.69","","","","","","Cloudy"
"1998-05-01 12:00","1998","05","01","12:00","17.1","","11.4","","69","","10","","11","","11.3","","98.62","","","","","","Cloudy"
"1998-05-01 13:00","1998","05","01","13:00","17.8","","12.4","","71","","9","","9","","11.3","","98.59","","","","","","Mostly Cloudy"
"1998-05-01 14:00","1998","05","01","14:00","19.0","","12.6","","66","","12","","4","","11.3","","98.49","","","","","","Mostly Cloudy"
"1998-05-01 15:00","1998","05","01","15:00","19.3","","12.8","","66","","11","","13","","11.3","","98.46","","","","","","Mostly Cloudy"
"1998-05-01 16:00","1998","05","01","16:00","18.4","","12.3","","68","","16","","13","","9.7","","98.42","","","","","","Haze"
"1998-05-01 17:00","1998","05","01","17:00","18.3","","12.7","","70","","11","","13","","8.0","","98.39","","","","","","Haze"
"1998-05-01 18:00","1998","05","01","18:00","17.7","","12.9","","73","","8","","15","","9.7","","98.36","","","","","","Haze"
"1998-05-01 19:00","1998","05","01","19:00","17.7","","12.7","","73","","8","","17","","8.0","","98.32","","","","","","Rain Showers,Haze"
"1998-05-01 20:00","1998","05","01","20:00","16.3","","12.2","","77","","12","","11","","11.3","","98.36","","","","","","Mostly Cloudy"
"1998-05-01 21:00","1998","05","01","21:00","15.8","","12.9","","83","","10","","15","","8.0","","98.36","","","","","","Rain Showers,Haze"
"1998-05-01 22:00","1998","05","01","22:00","15.4","","13.3","","87","","7","","20","","4.8","","98.29","","","","","","Rain Showers,Fog"
"1998-05-01 23:00","1998","05","01","23:00","14.9","","13.0","","88","","9","","15","","11.3","","98.26","","","","","","Cloudy"
"1998-05-02 00:00","1998","05","02","00:00","14.0","","12.1","","88","","8","","13","","11.3","","98.22","","","","","","Cloudy"
"1998-05-02 01:00","1998","05","02","01:00","13.2","","11.2","","88","","7","","13","","11.3","","98.19","","","","","","Cloudy"
"1998-05-02 02:00","1998","05","02","02:00","13.0","","11.0","","88","","8","","11","","9.7","","98.16","","","","","","Fog"
"1998-05-02 03:00","1998","05","02","03:00","12.8","","11.1","","89","","9","","7","","9.7","","98.12","","","","","","Fog"
"1998-05-02 04:00","1998","05","02","04:00","12.6","","11.0","","90","","2","","6","","8.0","","98.12","","","","","","Fog"
"1998-05-02 05:00","1998","05","02","05:00","12.8","","11.4","","91","","3","","9","","6.4","","98.09","","","","","","Fog"
"1998-05-02 06:00","1998","05","02","06:00","13.0","","11.4","","90","","10","","7","","6.4","","98.16","","","","","","Fog"
"1998-05-02 07:00","1998","05","02","07:00","13.5","","11.5","","88","","6","","11","","6.4","","98.16","","","","","","Fog"
"1998-05-02 08:00","1998","05","02","08:00","15.3","","12.3","","82","","7","","11","","8.0","","98.16","","","","","","Haze"
"1998-05-02 09:00","1998","05","02","09:00","16.0","","11.9","","77","","9","","13","","9.7","","98.16","","","","","","Haze"
"1998-05-02 10:00","1998","05","02","10:00","16.7","","11.9","","73","","7","","17","","19.3","","98.19","","","","","","Cloudy"
"1998-05-02 11:00","1998","05","02","11:00","16.5","","11.1","","70","","10","","26","","24.1","","98.22","","","","","","Cloudy"
"1998-05-02 12:00","1998","05","02","12:00","17.1","","10.4","","65","","9","","28","","32.2","","98.19","","","","","","Mostly Cloudy"
"1998-05-02 13:00","1998","05","02","13:00","17.1","","10.7","","66","","9","","22","","32.2","","98.19","","","","","","Cloudy"
"1998-05-02 14:00","1998","05","02","14:00","17.0","","10.6","","66","","9","","22","","32.2","","98.16","","","","","","Rain Showers"
"1998-05-02 15:00","1998","05","02","15:00","17.9","","10.8","","63","","11","","20","","32.2","","98.09","","","","","","Cloudy"
"1998-05-02 16:00","1998","05","02","16:00","17.4","","11.1","","66","","10","","17","","32.2","","98.09","","","","","","Cloudy"
"1998-05-02 17:00","1998","05","02","17:00","16.6","","10.8","","69","","8","","13","","24.1","","98.12","","","","","","Cloudy"
"1998-05-02 18:00","1998","05","02","18:00","14.0","","12.7","","92","","11","","13","","9.7","","98.16","","","","","","Rain Showers,Fog"
"1998-05-02 19:00","1998","05","02","19:00","14.0","","12.9","","93","","12","","7","","9.7","","98.19","","","","","","Rain Showers,Fog"
"1998-05-02 20:00","1998","05","02","20:00","13.7","","12.3","","91","","5","","7","","9.7","","98.22","","","","","","Rain Showers,Fog"
"1998-05-02 21:00","1998","05","02","21:00","13.7","","12.3","","91","","2","","6","","9.7","","98.26","","","","","","Rain Showers,Fog"
"1998-05-02 22:00","1998","05","02","22:00","13.8","","12.7","","93","","35","","9","","8.0","","98.26","","","","","","Rain Showers,Fog"
"1998-05-02 23:00","1998","05","02","23:00","13.8","","12.8","","94","","5","","13","","6.4","","98.26","","","","","","Rain Showers,Fog"
"1998-05-03 00:00","1998","05","03","00:00","13.6","","12.6","","94","","6","","11","","8.0","","98.26","","","","","","Rain Showers,Fog"
"1998-05-03 01:00","1998","05","03","01:00","13.6","","12.7","","94","","6","","11","","9.7","","98.26","","","","","","Rain Showers,Fog"
"1998-05-03 02:00","1998","05","03","02:00","13.6","","12.3","","92","","6","","9","","9.7","","98.26","","","","","","Fog"
"1998-05-03 03:00","1998","05","03","03:00","13.4","","12.4","","94","","36","","7","","11.3","","98.29","","","","","","Cloudy"
"1998-05-03 04:00","1998","05","03","04:00","13.4","","12.2","","92","","4","","7","","12.9","","98.32","","","","","","Cloudy"
"1998-05-03 05:00","1998","05","03","05:00","13.3","","12.2","","93","","5","","9","","9.7","","98.32","","","","","","Fog"
"1998-05-03 06:00","1998","05","03","06:00","13.2","","12.2","","94","","1","","6","","16.1","","98.39","","","","","","Mostly Cloudy"
"1998-05-03 07:00","1998","05","03","07:00","13.1","","12.0","","93","","36","","11","","16.1","","98.46","","","","","","Mostly Cloudy"
"1998-05-03 08:00","1998","05","03","08:00","14.4","","12.7","","90","","36","","11","","16.1","","98.49","","","","","","Mostly Cloudy"
"1998-05-03 09:00","1998","05","03","09:00","15.7","","12.5","","81","","3","","7","","19.3","","98.49","","","","","","Mainly Clear"
"1998-05-03 10:00","1998","05","03","10:00","17.8","","12.2","","70","","6","","13","","32.2","","98.52","","","","","","Mostly Cloudy"
"1998-05-03 11:00","1998","05","03","11:00","16.9","","10.6","","66","","6","","4","","32.2","","98.52","","","","","","Mostly Cloudy"
"1998-05-03 12:00","1998","05","03","12:00","15.4","","11.0","","75","","15","","15","","32.2","","98.56","","","","","","Cloudy"
"1998-05-03 13:00","1998","05","03","13:00","16.9","","12.0","","73","","18","","13","","32.2","","98.56","","","","","","Mostly Cloudy"
"1998-05-03 14:00","1998","05","03","14:00","16.9","","12.1","","73","","18","","13","","24.1","","98.52","","","","","","Mostly Cloudy"
"1998-05-03 15:00","1998","05","03","15:00","16.9","","11.4","","70","","18","","7","","24.1","","98.52","","","","","","Rain Showers"
"1998-05-03 16:00","1998","05","03","16:00","17.7","","12.1","","70","","18","","9","","24.1","","98.49","","","","","","Mostly Cloudy"
"1998-05-03 17:00","1998","05","03","17:00","17.5","","11.7","","69","","16","","7","","24.1","","98.52","","","","","","Mostly Cloudy"
"1998-05-03 18:00","1998","05","03","18:00","18.0","","11.5","","66","","13","","4","","24.1","","98.52","","","","","","Mostly Cloudy"
"1998-05-03 19:00","1998","05","03","19:00","16.4","","10.6","","69","","15","","7","","24.1","","98.56","","","","","","Mostly Cloudy"
"1998-05-03 20:00","1998","05","03","20:00","15.9","","9.9","","68","","17","","7","","24.1","","98.62","","","","","","Mostly Cloudy"
"1998-05-03 21:00","1998","05","03","21:00","15.3","","11.1","","76","","18","","7","","19.3","","98.69","","","","","","Rain Showers"
"1998-05-03 22:00","1998","05","03","22:00","14.9","","10.8","","76","","","","0","","24.1","","98.66","","","","","","Cloudy"
"1998-05-03 23:00","1998","05","03","23:00","15.0","","10.0","","72","","18","","6","","24.1","","98.69","","","","","","Cloudy"
"1998-05-04 00:00","1998","05","04","00:00","14.4","","10.1","","75","","","","0","","19.3","","98.69","","","","","","Mostly Cloudy"
"1998-05-04 01:00","1998","05","04","01:00","14.4","","9.7","","73","","","","0","","19.3","","98.66","","","","","","Mostly Cloudy"
"1998-05-04 02:00","1998","05","04","02:00","13.2","","9.8","","80","","16","","7","","19.3","","98.66","","","","","","Mostly Cloudy"
"1998-05-04 03:00","1998","05","04","03:00","12.2","","9.6","","84","","6","","6","","16.1","","98.66","","","","","","Mainly Clear"
"1998-05-04 04:00","1998","05","04","04:00","11.6","","9.6","","88","","6","","4","","16.1","","98.66","","","","","","Mostly Cloudy"
"1998-05-04 05:00","1998","05","04","05:00","11.7","","9.6","","87","","6","","6","","16.1","","98.69","","","","","","Cloudy"
"1998-05-04 06:00","1998","05","04","06:00","12.1","","10.1","","88","","9","","6","","16.1","","98.76","","","","","","Mostly Cloudy"
"1998-05-04 07:00","1998","05","04","07:00","12.9","","10.6","","86","","7","","9","","16.1","","98.79","","","","","","Cloudy"
"1998-05-04 08:00","1998","05","04","08:00","13.6","","11.1","","85","","7","","9","","12.9","","98.82","","","","","","Cloudy"
"1998-05-04 09:00","1998","05","04","09:00","14.8","","12.1","","84","","7","","9","","14.5","","98.82","","","","","","Cloudy"
"1998-05-04 10:00","1998","05","04","10:00","14.9","","11.8","","82","","9","","13","","16.1","","98.86","","","","","","Rain Showers"
"1998-05-04 11:00","1998","05","04","11:00","15.6","","12.7","","83","","9","","9","","16.1","","98.82","","","","","","Rain Showers"
"1998-05-04 12:00","1998","05","04","12:00","16.9","","12.1","","73","","9","","19","","19.3","","98.82","","","","","","Cloudy"
"1998-05-04 13:00","1998","05","04","13:00","16.2","","11.9","","76","","10","","24","","19.3","","98.82","","","","","","Cloudy"
"1998-05-04 14:00","1998","05","04","14:00","15.6","","12.3","","81","","9","","19","","12.9","","98.82","","","","","","Rain Showers"
"1998-05-04 15:00","1998","05","04","15:00","16.0","","12.3","","79","","8","","13","","16.1","","98.76","","","","","","Cloudy"
"1998-05-04 16:00","1998","05","04","16:00","15.5","","12.3","","81","","8","","15","","16.1","","98.76","","","","","","Cloudy"
"1998-05-04 17:00","1998","05","04","17:00","15.3","","12.6","","84","","10","","9","","16.1","","98.76","","","","","","Cloudy"
"1998-05-04 18:00","1998","05","04","18:00","14.8","","12.3","","85","","7","","13","","12.9","","98.72","","","","","","Cloudy"
"1998-05-04 19:00","1998","05","04","19:00","14.9","","12.5","","86","","10","","11","","9.7","","98.76","","","","","","Haze"
"1998-05-04 20:00","1998","05","04","20:00","14.2","","12.5","","90","","10","","11","","9.7","","98.79","","","","","","Fog"
"1998-05-04 21:00","1998","05","04","21:00","13.8","","12.5","","92","","11","","13","","8.0","","98.86","","","","","","Fog"
"1998-05-04 22:00","1998","05","04","22:00","13.3","","12.7","","96","","9","","11","","4.0","","98.86","","","","","","Fog"
"1998-05-04 23:00","1998","05","04","23:00","13.5","","12.6","","94","","6","","6","","6.4","","98.86","","","","","","Fog"
"1998-05-05 00:00","1998","05","05","00:00","13.7","","12.4","","92","","11","","6","","8.0","","98.86","","","","","","Fog"
"1998-05-05 01:00","1998","05","05","01:00","13.3","","12.2","","93","","","","0","","8.0","","98.79","","","","","","Fog"
"1998-05-05 02:00","1998","05","05","02:00","13.8","","12.5","","92","","","","0","","8.0","","98.79","","","","","","Fog"
"1998-05-05 03:00","1998","05","05","03:00","13.8","","12.8","","94","","3","","2","","8.0","","98.79","","","","","","Fog"
"1998-05-05 04:00","1998","05","05","04:00","13.9","","12.6","","92","","35","","6","","8.0","","98.86","","","","","","Fog"
"1998-05-05 05:00","1998","05","05","05:00","13.9","","12.5","","91","","35","","6","","6.4","","98.86","","","","","","Fog"
"1998-05-05 06:00","1998","05","05","06:00","14.2","","12.9","","92","","10","","7","","4.0","","98.92","","","","","","Fog"
"1998-05-05 07:00","1998","05","05","07:00","12.8","","12.0","","95","","13","","6","","2.0","","98.99","","","","","","Fog"
"1998-05-05 08:00","1998","05","05","08:00","13.7","","13.0","","96","","","","0","","2.4","","99.02","","","","","","Fog"
"1998-05-05 09:00","1998","05","05","09:00","15.3","","13.6","","90","","14","","4","","4.0","","99.09","","","","","","Fog"
"1998-05-05 10:00","1998","05","05","10:00","16.3","","13.1","","81","","10","","6","","4.8","","99.09","","","","","","Haze"
"1998-05-05 11:00","1998","05","05","11:00","17.4","","14.1","","81","","15","","7","","6.4","","99.09","","","","","","Haze"
"1998-05-05 12:00","1998","05","05","12:00","18.4","","13.7","","74","","14","","17","","9.7","","99.09","","","","","","Haze"
"1998-05-05 13:00","1998","05","05","13:00","17.2","","13.1","","77","","16","","9","","12.9","","99.09","","","","","","Mainly Clear"
"1998-05-05 14:00","1998","05","05","14:00","19.3","","12.1","","63","","19","","11","","19.3","","99.09","","","","","","Clear"
"1998-05-05 15:00","1998","05","05","15:00","19.8","","13.0","","65","","16","","15","","19.3","","99.02","","","","","","Clear"
"1998-05-05 16:00","1998","05","05","16:00","19.5","","12.8","","65","","17","","13","","19.3","","99.02","","","","","","Clear"
"1998-05-05 17:00","1998","05","05","17:00","18.1","","12.3","","69","","16","","15","","19.3","","99.09","","","","","","Mainly Clear"
"1998-05-05 18:00","1998","05","05","18:00","17.1","","12.4","","74","","14","","15","","11.3","","99.12","","","","","","Mostly Cloudy"
"1998-05-05 19:00","1998","05","05","19:00","16.3","","11.4","","73","","18","","15","","12.9","","99.19","","","","","","Mostly Cloudy"
"1998-05-05 20:00","1998","05","05","20:00","14.1","","11.1","","82","","15","","7","","11.3","","99.19","","","","","","Mostly Cloudy"
"1998-05-05 21:00","1998","05","05","21:00","15.0","","11.3","","79","","13","","7","","16.1","","99.22","","","","","","Mainly Clear"
"1998-05-05 22:00","1998","05","05","22:00","14.6","","11.3","","81","","15","","4","","16.1","","99.19","","","","","","Mainly Clear"
"1998-05-05 23:00","1998","05","05","23:00","13.3","","11.0","","86","","26","","6","","11.3","","99.22","","","","","","Clear"
"1998-05-06 00:00","1998","05","06","00:00","13.3","","11.1","","87","","","","0","","11.3","","99.19","","","","","","Clear"
"1998-05-06 01:00","1998","05","06","01:00","13.5","","11.1","","85","","33","","4","","11.3","","99.19","","","","","","Clear"
"1998-05-06 02:00","1998","05","06","02:00","11.4","","10.1","","92","","32","","6","","8.0","","99.16","","","","","","Fog"
"1998-05-06 03:00","1998","05","06","03:00","10.7","","9.9","","95","","34","","6","","6.4","","99.16","","","","","","Fog"
"1998-05-06 04:00","1998","05","06","04:00","11.2","","10.1","","93","","35","","4","","4.8","","99.19","","","","","","Fog"
"1998-05-06 05:00","1998","05","06","05:00","11.0","","9.8","","92","","33","","2","","4.0","","99.22","","","","","","Fog"
"1998-05-06 06:00","1998","05","06","06:00","10.5","","9.7","","95","","","","0","","2.4","","99.29","","","","","","Fog"
"1998-05-06 07:00","1998","05","06","07:00","12.3","","10.9","","91","","","","0","","3.2","","99.32","","","","","","Fog"
"1998-05-06 08:00","1998","05","06","08:00","14.5","","11.7","","83","","","","0","","3.6","","99.35","","","","","","Haze"
"1998-05-06 09:00","1998","05","06","09:00","17.0","","13.0","","77","","17","","4","","4.0","","99.32","","","","","","Haze"
"1998-05-06 10:00","1998","05","06","10:00","18.9","","12.9","","68","","22","","4","","8.0","","99.29","","","","","","Haze"
"1998-05-06 11:00","1998","05","06","11:00","20.3","","11.7","","58","","17","","4","","9.7","","99.29","","","","","","Haze"
"1998-05-06 12:00","1998","05","06","12:00","20.0","","13.3","","65","","16","","13","","9.7","","99.26","","","","","","Haze"
"1998-05-06 13:00","1998","05","06","13:00","20.6","","12.6","","60","","14","","17","","11.3","","99.22","","","","","","Clear"
"1998-05-06 14:00","1998","05","06","14:00","21.3","","10.6","","50","","14","","15","","24.1","","99.19","","","","","","Clear"
"1998-05-06 15:00","1998","05","06","15:00","21.7","","10.0","","47","","15","","15","","24.1","","99.12","","","","","","Clear"
"1998-05-06 16:00","1998","05","06","16:00","22.3","","10.6","","47","","16","","13","","24.1","","99.12","","","","","","Clear"
"1998-05-06 17:00","1998","05","06","17:00","21.2","","11.1","","52","","14","","15","","24.1","","99.09","","","","","","Clear"
"1998-05-06 18:00","1998","05","06","18:00","18.8","","10.9","","60","","13","","19","","24.1","","99.12","","","","","","Clear"
"1998-05-06 19:00","1998","05","06","19:00","16.3","","11.0","","71","","13","","13","","19.3","","99.16","","","","","","Mainly Clear"
"1998-05-06 20:00","1998","05","06","20:00","16.0","","11.3","","74","","13","","7","","16.1","","99.19","","","","","","Mainly Clear"
"1998-05-06 21:00","1998","05","06","21:00","15.4","","11.3","","77","","21","","6","","12.9","","99.22","","","","","","Mainly Clear"
"1998-05-06 22:00","1998","05","06","22:00","16.0","","11.3","","74","","10","","2","","11.3","","99.22","","","","","","Clear"
"1998-05-06 23:00","1998","05","06","23:00","13.5","","10.5","","82","","31","","6","","11.3","","99.22","","","","","","Clear"
"1998-05-07 00:00","1998","05","07","00:00","14.8","","11.3","","80","","10","","2","","9.7","","99.26","","","","","","Haze"
"1998-05-07 01:00","1998","05","07","01:00","13.5","","11.3","","87","","19","","6","","9.7","","99.22","","","","","","Haze"
"1998-05-07 02:00","1998","05","07","02:00","12.6","","11.0","","90","","","","0","","8.0","","99.19","","","","","","Fog"
"1998-05-07 03:00","1998","05","07","03:00","13.2","","11.4","","89","","6","","6","","6.4","","99.16","","","","","","Fog"
"1998-05-07 04:00","1998","05","07","04:00","12.0","","10.8","","92","","","","0","","4.8","","99.16","","","","","","Fog"
"1998-05-07 05:00","1998","05","07","05:00","11.5","","10.4","","93","","4","","6","","4.0","","99.16","","","","","","Fog"
"1998-05-07 06:00","1998","05","07","06:00","12.8","","11.4","","91","","6","","7","","3.2","","99.16","","","","","","Fog"
"1998-05-07 07:00","1998","05","07","07:00","14.2","","12.0","","87","","8","","4","","4.0","","99.19","","","","","","Haze"
"1998-05-07 08:00","1998","05","07","08:00","16.5","","12.3","","76","","11","","4","","4.8","","99.16","","","","","","Haze"
"1998-05-07 09:00","1998","05","07","09:00","18.3","","12.6","","69","","16","","6","","8.0","","99.22","","","","","","Haze"
"1998-05-07 10:00","1998","05","07","10:00","20.1","","13.4","","65","","10","","11","","9.7","","99.16","","","","","","Haze"
"1998-05-07 11:00","1998","05","07","11:00","20.9","","13.0","","61","","12","","13","","12.9","","99.09","","","","","","Clear"
"1998-05-07 12:00","1998","05","07","12:00","21.9","","13.2","","58","","11","","17","","16.1","","99.02","","25","","","","Mainly Clear"
"1998-05-07 13:00","1998","05","07","13:00","22.1","","12.6","","55","","14","","19","","19.3","","98.96","","25","","","","Mainly Clear"
"1998-05-07 14:00","1998","05","07","14:00","22.8","","10.2","","45","","11","","15","","24.1","","98.89","","","","","","Mainly Clear"
"1998-05-07 15:00","1998","05","07","15:00","22.7","","11.6","","49","","11","","19","","24.1","","98.79","","25","","","","Mostly Cloudy"
"1998-05-07 16:00","1998","05","07","16:00","22.8","","11.1","","48","","11","","19","","24.1","","98.72","","25","","","","Mostly Cloudy"
"1998-05-07 17:00","1998","05","07","17:00","22.3","","9.6","","44","","9","","20","","24.1","","98.66","","","","","","Mostly Cloudy"
"1998-05-07 18:00","1998","05","07","18:00","21.2","","10.4","","50","","9","","19","","24.1","","98.66","","","","","","Mostly Cloudy"
"1998-05-07 19:00","1998","05","07","19:00","20.2","","8.6","","47","","7","","19","","24.1","","98.62","","","","","","Mostly Cloudy"
"1998-05-07 20:00","1998","05","07","20:00","19.0","","8.8","","52","","8","","15","","24.1","","98.62","","","","","","Mostly Cloudy"
"1998-05-07 21:00","1998","05","07","21:00","18.6","","9.0","","54","","8","","17","","19.3","","98.62","","","","","","Mostly Cloudy"
"1998-05-07 22:00","1998","05","07","22:00","18.8","","9.3","","54","","8","","19","","19.3","","98.59","","","","","","Mostly Cloudy"
"1998-05-07 23:00","1998","05","07","23:00","19.0","","8.9","","52","","9","","30","","16.1","","98.56","","","","","","Mostly Cloudy"
"1998-05-08 00:00","1998","05","08","00:00","17.5","","8.9","","57","","8","","22","","24.1","","98.52","","","","","","Cloudy"
"1998-05-08 01:00","1998","05","08","01:00","17.3","","9.4","","60","","9","","28","","24.1","","98.49","","","","","","Mostly Cloudy"
"1998-05-08 02:00","1998","05","08","02:00","16.4","","9.9","","65","","8","","22","","24.1","","98.46","","","","","","Mostly Cloudy"
"1998-05-08 03:00","1998","05","08","03:00","16.3","","10.5","","69","","8","","19","","24.1","","98.42","","","","","","Mostly Cloudy"
"1998-05-08 04:00","1998","05","08","04:00","15.5","","10.5","","72","","5","","20","","19.3","","98.39","","","","","","Mostly Cloudy"
"1998-05-08 05:00","1998","05","08","05:00","15.6","","11.1","","75","","7","","20","","16.1","","98.42","","","","","","Mostly Cloudy"
"1998-05-08 06:00","1998","05","08","06:00","16.3","","11.4","","73","","8","","22","","19.3","","98.42","","","","","","Cloudy"
"1998-05-08 07:00","1998","05","08","07:00","16.8","","11.6","","71","","7","","22","","19.3","","98.49","","","","","","Cloudy"
"1998-05-08 08:00","1998","05","08","08:00","17.7","","12.5","","72","","9","","24","","19.3","","98.52","","","","","","Cloudy"
"1998-05-08 09:00","1998","05","08","09:00","18.7","","12.5","","67","","9","","30","","19.3","","98.52","","","","","","Cloudy"
"1998-05-08 10:00","1998","05","08","10:00","19.4","","12.8","","66","","10","","26","","16.1","","98.56","","","","","","Cloudy"
"1998-05-08 11:00","1998","05","08","11:00","19.1","","12.8","","67","","9","","24","","16.1","","98.59","","","","","","Cloudy"
"1998-05-08 12:00","1998","05","08","12:00","19.5","","12.5","","64","","9","","26","","19.3","","98.59","","","","","","Cloudy"
"1998-05-08 13:00","1998","05","08","13:00","20.8","","12.7","","60","","7","","28","","19.3","","98.59","","","","","","Cloudy"
"1998-05-08 14:00","1998","05","08","14:00","20.8","","12.8","","60","","9","","30","","16.1","","98.62","","","","","","Cloudy"
"1998-05-08 15:00","1998","05","08","15:00","20.3","","12.8","","62","","9","","22","","16.1","","98.66","","","","","","Cloudy"
"1998-05-08 16:00","1998","05","08","16:00","20.3","","13.0","","63","","12","","20","","16.1","","98.66","","","","","","Mostly Cloudy"
"1998-05-08 17:00","1998","05","08","17:00","19.4","","12.2","","63","","11","","17","","16.1","","98.69","","","","","","Mostly Cloudy"
"1998-05-08 18:00","1998","05","08","18:00","19.4","","11.6","","61","","9","","17","","16.1","","98.72","","","","","","Cloudy"
"1998-05-08 19:00","1998","05","08","19:00","18.9","","11.6","","63","","7","","13","","16.1","","98.82","","","","","","Cloudy"
"1998-05-08 20:00","1998","05","08","20:00","18.2","","12.0","","67","","7","","6","","12.9","","98.86","","","","","","Cloudy"
"1998-05-08 21:00","1998","05","08","21:00","18.2","","12.2","","68","","36","","7","","12.9","","98.89","","","","","","Cloudy"
"1998-05-08 22:00","1998","05","08","22:00","16.8","","13.4","","80","","35","","13","","12.9","","98.96","","","","","","Cloudy"
"1998-05-08 23:00","1998","05","08","23:00","16.6","","13.3","","81","","1","","13","","12.9","","98.99","","","","","","Cloudy"
"1998-05-09 00:00","1998","05","09","00:00","16.6","","13.6","","82","","36","","13","","11.3","","98.99","","","","","","Cloudy"
"1998-05-09 01:00","1998","05","09","01:00","16.4","","13.6","","84","","35","","9","","11.3","","98.99","","","","","","Cloudy"
"1998-05-09 02:00","1998","05","09","02:00","17.0","","10.6","","66","","2","","19","","16.1","","99.02","","","","","","Rain Showers"
"1998-05-09 03:00","1998","05","09","03:00","16.2","","8.4","","60","","2","","19","","19.3","","99.06","","","","","","Mostly Cloudy"
"1998-05-09 04:00","1998","05","09","04:00","15.3","","6.2","","55","","2","","20","","24.1","","99.09","","","","","","Mostly Cloudy"
"1998-05-09 05:00","1998","05","09","05:00","14.2","","5.6","","56","","36","","19","","24.1","","99.12","","","","","","Mostly Cloudy"
"1998-05-09 06:00","1998","05","09","06:00","13.5","","5.9","","60","","35","","19","","40.2","","99.22","","","","","","Mostly Cloudy"
"1998-05-09 07:00","1998","05","09","07:00","14.1","","6.3","","59","","36","","20","","40.2","","99.26","","","","","","Mostly Cloudy"
"1998-05-09 08:00","1998","05","09","08:00","15.6","","7.0","","57","","36","","20","","40.2","","99.32","","","","","","Mostly Cloudy"
"1998-05-09 09:00","1998","05","09","09:00","17.1","","8.8","","58","","2","","17","","40.2","","99.35","","","","","","Mainly Clear"
"1998-05-09 10:00","1998","05","09","10:00","18.5","","9.8","","57","","36","","17","","40.2","","99.35","","","","","","Mainly Clear"
"1998-05-09 11:00","1998","05","09","11:00","19.7","","11.1","","58","","1","","17","","40.2","","99.35","","","","","","Mostly Cloudy"
"1998-05-09 12:00","1998","05","09","12:00","19.9","","10.9","","56","","36","","13","","40.2","","99.29","","","","","","Mostly Cloudy"
"1998-05-09 13:00","1998","05","09","13:00","19.6","","10.5","","56","","15","","17","","40.2","","99.29","","","","","","Mostly Cloudy"
"1998-05-09 14:00","1998","05","09","14:00","20.7","","11.4","","55","","15","","11","","40.2","","99.29","","","","","","Mostly Cloudy"
"1998-05-09 15:00","1998","05","09","15:00","20.6","","12.1","","58","","16","","9","","40.2","","99.26","","","","","","Mostly Cloudy"
"1998-05-09 16:00","1998","05","09","16:00","21.2","","11.2","","53","","14","","13","","40.2","","99.26","","","","","","Mostly Cloudy"
"1998-05-09 17:00","1998","05","09","17:00","20.4","","11.0","","55","","14","","17","","40.2","","99.26","","","","","","Mostly Cloudy"
"1998-05-09 18:00","1998","05","09","18:00","18.8","","11.3","","62","","14","","20","","40.2","","99.29","","","","","","Mostly Cloudy"
"1998-05-09 19:00","1998","05","09","19:00","17.4","","11.4","","68","","12","","13","","40.2","","99.39","","","","","","Mostly Cloudy"
"1998-05-09 20:00","1998","05","09","20:00","16.6","","11.3","","71","","12","","13","","24.1","","99.42","","","","","","Mostly Cloudy"
"1998-05-09 21:00","1998","05","09","21:00","16.1","","11.4","","74","","14","","11","","24.1","","99.42","","","","","","Mostly Cloudy"
"1998-05-09 22:00","1998","05","09","22:00","15.1","","11.4","","79","","16","","9","","24.1","","99.42","","","","","","Mostly Cloudy"
"1998-05-09 23:00","1998","05","09","23:00","14.6","","11.1","","80","","","","0","","24.1","","99.39","","","","","","Mostly Cloudy"
"1998-05-10 00:00","1998","05","10","00:00","14.8","","11.2","","79","","","","0","","24.1","","99.39","","","","","","Cloudy"
"1998-05-10 01:00","1998","05","10","01:00","15.2","","11.2","","77","","","","0","","24.1","","99.39","","","","","","Cloudy"
"1998-05-10 02:00","1998","05","10","02:00","15.5","","11.5","","77","","9","","13","","24.1","","99.35","","","","","","Cloudy"
"1998-05-10 03:00","1998","05","10","03:00","15.3","","11.2","","77","","11","","9","","24.1","","99.32","","","","","","Cloudy"
"1998-05-10 04:00","1998","05","10","04:00","15.0","","11.0","","77","","9","","11","","24.1","","99.35","","","","","","Cloudy"
"1998-05-10 05:00","1998","05","10","05:00","14.9","","11.1","","78","","11","","9","","25.0","","99.35","","","","","","Cloudy"
"1998-05-10 06:00","1998","05","10","06:00","14.9","","11.3","","79","","8","","15","","19.3","","99.35","","","","","","Cloudy"
"1998-05-10 07:00","1998","05","10","07:00","14.4","","12.0","","85","","9","","13","","12.9","","99.39","","","","","","Rain"
"1998-05-10 08:00","1998","05","10","08:00","13.9","","12.0","","88","","10","","13","","16.1","","99.39","","","","","","Rain"
"1998-05-10 09:00","1998","05","10","09:00","14.4","","12.2","","87","","8","","11","","19.3","","99.39","","","","","","Rain"
"1998-05-10 10:00","1998","05","10","10:00","14.1","","12.6","","91","","11","","9","","9.7","","99.39","","","","","","Rain,Fog"
"1998-05-10 11:00","1998","05","10","11:00","13.2","","12.6","","96","","16","","7","","8.0","","99.39","","","","","","Rain,Fog"
"1998-05-10 12:00","1998","05","10","12:00","13.0","","12.5","","97","","16","","11","","4.8","","99.32","","","","","","Rain,Fog"
"1998-05-10 13:00","1998","05","10","13:00","12.5","","12.0","","97","","13","","7","","8.0","","99.29","","","","","","Rain,Fog"
"1998-05-10 14:00","1998","05","10","14:00","12.9","","12.3","","96","","15","","6","","6.4","","99.29","","","","","","Rain,Fog"
"1998-05-10 15:00","1998","05","10","15:00","13.6","","13.0","","96","","15","","4","","4.8","","99.22","","","","","","Rain,Fog"
"1998-05-10 16:00","1998","05","10","16:00","14.1","","13.3","","95","","9","","4","","6.4","","99.19","","","","","","Rain,Fog"
"1998-05-10 17:00","1998","05","10","17:00","14.5","","13.1","","91","","4","","13","","11.3","","99.19","","","","","","Rain"
"1998-05-10 18:00","1998","05","10","18:00","14.7","","13.4","","92","","3","","17","","9.7","","99.19","","","","","","Rain,Fog"
"1998-05-10 19:00","1998","05","10","19:00","14.0","","12.9","","93","","3","","17","","6.4","","99.19","","","","","","Rain,Fog"
"1998-05-10 20:00","1998","05","10","20:00","13.3","","12.6","","96","","1","","15","","4.8","","99.16","","","","","","Rain,Fog"
"1998-05-10 21:00","1998","05","10","21:00","13.3","","12.8","","97","","1","","17","","6.4","","99.16","","","","","","Rain,Fog"
"1998-05-10 22:00","1998","05","10","22:00","13.5","","12.9","","96","","3","","11","","6.4","","99.09","","","","","","Rain,Fog"
"1998-05-10 23:00","1998","05","10","23:00","13.5","","12.9","","96","","6","","17","","8.0","","99.06","","","","","","Rain,Fog"
"1998-05-11 00:00","1998","05","11","00:00","13.5","","13.0","","97","","5","","13","","6.4","","99.02","","","","","","Rain,Fog"
"1998-05-11 01:00","1998","05","11","01:00","13.4","","12.9","","97","","5","","15","","6.4","","98.96","","","","","","Rain,Fog"
"1998-05-11 02:00","1998","05","11","02:00","13.4","","13.0","","97","","6","","17","","4.8","","98.89","","","","","","Rain,Fog"
"1998-05-11 03:00","1998","05","11","03:00","13.4","","12.8","","96","","7","","20","","4.8","","98.89","","","","","","Rain,Fog"
"1998-05-11 04:00","1998","05","11","04:00","13.2","","12.7","","97","","8","","33","","4.8","","98.86","","","","","","Moderate Rain,Fog"
"1998-05-11 05:00","1998","05","11","05:00","12.5","","12.2","","98","","9","","26","","4.8","","98.89","","","","","","Rain,Fog"
"1998-05-11 06:00","1998","05","11","06:00","12.1","","11.9","","99","","10","","37","","8.0","","98.92","","","","","","Moderate Rain,Fog"
"1998-05-11 07:00","1998","05","11","07:00","11.9","","11.7","","99","","10","","37","","6.4","","98.99","","","","","","Rain,Fog"
"1998-05-11 08:00","1998","05","11","08:00","12.2","","12.0","","99","","10","","28","","8.0","","98.99","","","","","","Rain,Fog"
"1998-05-11 09:00","1998","05","11","09:00","12.2","","12.0","","99","","10","","35","","4.8","","99.06","","","","","","Rain,Fog"
"1998-05-11 10:00","1998","05","11","10:00","12.8","","12.6","","99","","9","","30","","6.4","","99.06","","","","","","Rain,Fog"
"1998-05-11 11:00","1998","05","11","11:00","12.5","","12.3","","99","","9","","26","","6.4","","99.06","","","","","","Rain,Fog"
"1998-05-11 12:00","1998","05","11","12:00","12.5","","12.1","","97","","9","","30","","9.7","","99.06","","","","","","Rain,Fog"
"1998-05-11 13:00","1998","05","11","13:00","13.2","","12.3","","94","","10","","22","","19.3","","99.09","","","","","","Rain"
"1998-05-11 14:00","1998","05","11","14:00","13.6","","12.8","","95","","9","","20","","12.9","","99.09","","","","","","Rain"
"1998-05-11 15:00","1998","05","11","15:00","13.6","","12.7","","94","","10","","19","","11.3","","99.09","","","","","","Rain"
"1998-05-11 16:00","1998","05","11","16:00","14.2","","12.6","","90","","9","","20","","19.3","","99.06","","","","","","Rain"
"1998-05-11 17:00","1998","05","11","17:00","15.7","","12.2","","80","","10","","19","","24.1","","99.06","","","","","","Cloudy"
"1998-05-11 18:00","1998","05","11","18:00","15.2","","12.8","","86","","10","","17","","19.3","","99.09","","","","","","Rain"
"1998-05-11 19:00","1998","05","11","19:00","14.4","","12.6","","89","","10","","11","","12.9","","99.12","","","","","","Rain"
"1998-05-11 20:00","1998","05","11","20:00","13.8","","12.7","","93","","12","","7","","8.0","","99.16","","","","","","Rain,Fog"
"1998-05-11 21:00","1998","05","11","21:00","13.4","","12.8","","96","","30","","6","","11.3","","99.16","","","","","","Cloudy"
"1998-05-11 22:00","1998","05","11","22:00","13.9","","12.6","","92","","5","","13","","14.5","","99.19","","","","","","Rain Showers"
"1998-05-11 23:00","1998","05","11","23:00","12.2","","10.7","","91","","8","","32","","19.3","","99.19","","","","","","Cloudy"
"1998-05-12 00:00","1998","05","12","00:00","11.6","","11.0","","96","","9","","28","","4.8","","99.19","","","","","","Rain,Fog"
"1998-05-12 01:00","1998","05","12","01:00","11.0","","9.9","","93","","8","","35","","19.3","","99.19","","","","","","Cloudy"
"1998-05-12 02:00","1998","05","12","02:00","10.3","","9.3","","94","","10","","28","","19.3","","99.16","","","","","","Cloudy"
"1998-05-12 03:00","1998","05","12","03:00","10.1","","8.9","","92","","8","","28","","19.3","","99.19","","","","","","Cloudy"
"1998-05-12 04:00","1998","05","12","04:00","10.0","","8.8","","92","","9","","26","","19.3","","99.22","","","","","","Cloudy"
"1998-05-12 05:00","1998","05","12","05:00","10.0","","8.3","","89","","9","","26","","19.3","","99.29","","","","","","Cloudy"
"1998-05-12 06:00","1998","05","12","06:00","10.3","","8.6","","89","","9","","30","","19.3","","99.39","","","","","","Cloudy"
"1998-05-12 07:00","1998","05","12","07:00","10.2","","8.4","","89","","10","","26","","11.3","","99.45","","","","","","Drizzle"
"1998-05-12 08:00","1998","05","12","08:00","10.0","","8.2","","89","","10","","22","","8.0","","99.52","","","","","","Rain,Fog"
"1998-05-12 09:00","1998","05","12","09:00","10.4","","8.6","","89","","10","","20","","16.1","","99.49","","","","","","Rain"
"1998-05-12 10:00","1998","05","12","10:00","13.6","","7.8","","68","","10","","32","","32.2","","99.52","","","","","","Mostly Cloudy"
"1998-05-12 11:00","1998","05","12","11:00","14.4","","6.3","","58","","10","","28","","32.2","","99.52","","","","","","Mostly Cloudy"
"1998-05-12 12:00","1998","05","12","12:00","14.6","","6.0","","56","","10","","33","","32.2","","99.52","","","","","","Mostly Cloudy"
"1998-05-12 13:00","1998","05","12","13:00","15.6","","5.2","","50","","9","","30","","32.2","","99.55","","","","","","Mostly Cloudy"
"1998-05-12 14:00","1998","05","12","14:00","16.1","","5.5","","49","","9","","24","","40.2","","99.59","","","","","","Mainly Clear"
"1998-05-12 15:00","1998","05","12","15:00","16.3","","7.0","","54","","10","","26","","40.2","","99.59","","","","","","Mainly Clear"
"1998-05-12 16:00","1998","05","12","16:00","16.9","","7.2","","53","","9","","20","","40.2","","99.55","","","","","","Mostly Cloudy"
"1998-05-12 17:00","1998","05","12","17:00","16.4","","5.6","","49","","9","","28","","40.2","","99.52","","","","","","Mainly Clear"
"1998-05-12 18:00","1998","05","12","18:00","15.7","","5.6","","51","","9","","19","","40.2","","99.55","","","","","","Mainly Clear"
"1998-05-12 19:00","1998","05","12","19:00","15.6","","5.5","","51","","9","","15","","24.1","","99.59","","","","","","Mostly Cloudy"
"1998-05-12 20:00","1998","05","12","20:00","15.3","","6.3","","55","","9","","17","","24.1","","99.59","","","","","","Mostly Cloudy"
"1998-05-12 21:00","1998","05","12","21:00","15.4","","6.8","","56","","8","","9","","24.1","","99.62","","","","","","Mostly Cloudy"
"1998-05-12 22:00","1998","05","12","22:00","15.2","","7.2","","59","","9","","15","","25.0","","99.59","","","","","","Cloudy"
"1998-05-12 23:00","1998","05","12","23:00","14.9","","8.0","","63","","10","","15","","25.0","","99.55","","","","","","Mostly Cloudy"
"1998-05-13 00:00","1998","05","13","00:00","14.8","","9.2","","69","","13","","11","","25.0","","99.59","","","","","","Cloudy"
"1998-05-13 01:00","1998","05","13","01:00","13.7","","9.3","","75","","13","","6","","25.0","","99.59","","","","","","Mostly Cloudy"
"1998-05-13 02:00","1998","05","13","02:00","13.8","","9.4","","75","","","","0","","25.0","","99.65","","","","","","Cloudy"
"1998-05-13 03:00","1998","05","13","03:00","13.9","","9.6","","75","","","","0","","25.0","","99.65","","","","","","Mostly Cloudy"
"1998-05-13 04:00","1998","05","13","04:00","13.8","","9.6","","76","","13","","6","","25.0","","99.69","","","","","","Mostly Cloudy"
"1998-05-13 05:00","1998","05","13","05:00","13.3","","9.8","","79","","14","","4","","24.1","","99.75","","","","","","Mostly Cloudy"
"1998-05-13 06:00","1998","05","13","06:00","13.4","","10.0","","80","","13","","9","","24.1","","99.75","","","","","","Mostly Cloudy"
"1998-05-13 07:00","1998","05","13","07:00","13.8","","10.2","","79","","13","","9","","24.1","","99.82","","","","","","Mostly Cloudy"
"1998-05-13 08:00","1998","05","13","08:00","15.1","","10.4","","73","","14","","11","","24.1","","99.82","","","","","","Mostly Cloudy"
"1998-05-13 09:00","1998","05","13","09:00","15.8","","11.6","","76","","14","","13","","24.1","","99.79","","","","","","Mainly Clear"
"1998-05-13 10:00","1998","05","13","10:00","18.0","","12.4","","70","","15","","15","","24.1","","99.82","","","","","","Mostly Cloudy"
"1998-05-13 11:00","1998","05","13","11:00","18.3","","12.6","","69","","14","","17","","32.2","","99.82","","","","","","Mostly Cloudy"
"1998-05-13 12:00","1998","05","13","12:00","19.2","","12.6","","66","","14","","17","","32.2","","99.79","","","","","","Mostly Cloudy"
"1998-05-13 13:00","1998","05","13","13:00","19.2","","11.8","","62","","13","","15","","32.2","","99.79","","","","","","Mostly Cloudy"
"1998-05-13 14:00","1998","05","13","14:00","19.7","","11.5","","59","","14","","11","","24.1","","99.75","","","","","","Mostly Cloudy"
"1998-05-13 15:00","1998","05","13","15:00","19.8","","11.6","","59","","13","","11","","24.1","","99.72","","","","","","Mostly Cloudy"
"1998-05-13 16:00","1998","05","13","16:00","19.8","","10.3","","54","","14","","15","","24.1","","99.69","","","","","","Mostly Cloudy"
"1998-05-13 17:00","1998","05","13","17:00","19.6","","10.4","","55","","11","","13","","24.1","","99.72","","","","","","Mostly Cloudy"
"1998-05-13 18:00","1998","05","13","18:00","19.0","","10.0","","56","","12","","13","","24.1","","99.72","","","","","","Mostly Cloudy"
"1998-05-13 19:00","1998","05","13","19:00","17.6","","6.2","","47","","11","","9","","24.1","","99.75","","","","","","Mainly Clear"
"1998-05-13 20:00","1998","05","13","20:00","16.1","","2.2","","39","","10","","11","","24.1","","99.75","","","","","","Clear"
"1998-05-13 21:00","1998","05","13","21:00","14.9","","0.8","","38","","10","","9","","24.1","","99.79","","","","","","Clear"
"1998-05-13 22:00","1998","05","13","22:00","15.1","","0.2","","36","","7","","4","","25.0","","99.79","","","","","","Mostly Cloudy"
"1998-05-13 23:00","1998","05","13","23:00","15.3","","-0.3","","34","","9","","6","","25.0","","99.79","","","","","","Mostly Cloudy"
"1998-05-14 00:00","1998","05","14","00:00","16.2","","-1.9","","29","","11","","4","","25.0","","99.79","","","","","","Mostly Cloudy"
"1998-05-14 01:00","1998","05","14","01:00","15.3","","-0.7","","33","","8","","6","","25.0","","99.79","","","","","","Mostly Cloudy"
"1998-05-14 02:00","1998","05","14","02:00","14.6","","0.0","","37","","10","","6","","25.0","","99.75","","","","","","Mostly Cloudy"
"1998-05-14 03:00","1998","05","14","03:00","14.8","","-1.2","","33","","","","0","","25.0","","99.75","","","","","","Mostly Cloudy"
"1998-05-14 04:00","1998","05","14","04:00","13.9","","0.7","","40","","","","0","","25.0","","99.79","","","","","","Mostly Cloudy"
"1998-05-14 05:00","1998","05","14","05:00","12.5","","7.9","","74","","32","","4","","32.2","","99.85","","","","","","Mostly Cloudy"
"1998-05-14 06:00","1998","05","14","06:00","12.7","","9.0","","78","","33","","4","","19.3","","99.89","","","","","","Mostly Cloudy"
"1998-05-14 07:00","1998","05","14","07:00","15.0","","8.4","","65","","","","0","","19.3","","99.92","","","","","","Mostly Cloudy"
"1998-05-14 08:00","1998","05","14","08:00","17.6","","6.4","","48","","","","0","","19.3","","99.89","","","","","","Mostly Cloudy"
"1998-05-14 09:00","1998","05","14","09:00","20.0","","9.3","","50","","16","","4","","19.3","","99.89","","","","","","Mainly Clear"
"1998-05-14 10:00","1998","05","14","10:00","21.2","","10.3","","50","","14","","11","","24.1","","99.89","","","","","","Mainly Clear"
"1998-05-14 11:00","1998","05","14","11:00","21.7","","9.7","","46","","12","","7","","24.1","","99.92","","","","","","Mainly Clear"
"1998-05-14 12:00","1998","05","14","12:00","23.4","","11.2","","46","","15","","9","","24.1","","99.85","","25","","","","Mainly Clear"
"1998-05-14 13:00","1998","05","14","13:00","24.4","","12.6","","48","","16","","13","","24.1","","99.85","","27","","","","Mainly Clear"
"1998-05-14 14:00","1998","05","14","14:00","25.4","","15.0","","53","","16","","19","","16.1","","99.79","","29","","","","Mainly Clear"
"1998-05-14 15:00","1998","05","14","15:00","25.6","","15.1","","52","","15","","20","","16.1","","99.75","","30","","","","Mainly Clear"
"1998-05-14 16:00","1998","05","14","16:00","25.6","","15.4","","53","","16","","17","","16.1","","99.75","","30","","","","Mainly Clear"
"1998-05-14 17:00","1998","05","14","17:00","24.8","","15.3","","56","","17","","13","","19.3","","99.75","","29","","","","Mainly Clear"
"1998-05-14 18:00","1998","05","14","18:00","23.2","","15.0","","60","","16","","11","","16.1","","99.75","","27","","","","Mainly Clear"
"1998-05-14 19:00","1998","05","14","19:00","20.9","","13.8","","64","","16","","9","","16.1","","99.72","","","","","","Mainly Clear"
"1998-05-14 20:00","1998","05","14","20:00","19.8","","13.8","","68","","11","","6","","16.1","","99.72","","","","","","Mainly Clear"
"1998-05-14 21:00","1998","05","14","21:00","20.5","","13.8","","65","","","","0","","16.1","","99.75","","","","","","Mainly Clear"
"1998-05-14 22:00","1998","05","14","22:00","18.5","","14.6","","78","","35","","7","","16.1","","99.75","","","","","","Mainly Clear"
"1998-05-14 23:00","1998","05","14","23:00","17.9","","15.0","","83","","33","","7","","9.7","","99.79","","","","","","Haze"
"1998-05-15 00:00","1998","05","15","00:00","17.4","","14.5","","83","","34","","15","","9.7","","99.79","","","","","","Haze"
"1998-05-15 01:00","1998","05","15","01:00","17.5","","14.3","","81","","34","","11","","9.7","","99.79","","","","","","Haze"
"1998-05-15 02:00","1998","05","15","02:00","17.0","","14.3","","84","","35","","11","","9.7","","99.82","","","","","","Haze"
"1998-05-15 03:00","1998","05","15","03:00","15.3","","13.7","","90","","34","","6","","9.7","","99.82","","","","","","Haze"
"1998-05-15 04:00","1998","05","15","04:00","15.5","","13.4","","87","","33","","6","","8.0","","99.82","","","","","","Haze"
"1998-05-15 05:00","1998","05","15","05:00","15.7","","12.9","","83","","35","","7","","6.4","","99.85","","","","","","Haze"
"1998-05-15 06:00","1998","05","15","06:00","15.4","","13.6","","89","","34","","7","","8.0","","99.89","","","","","","Fog"
"1998-05-15 07:00","1998","05","15","07:00","18.1","","14.6","","80","","33","","7","","8.0","","99.95","","","","","","Haze"
"1998-05-15 08:00","1998","05","15","08:00","20.9","","15.3","","70","","","","0","","9.7","","99.95","","25","","","","Haze"
"1998-05-15 09:00","1998","05","15","09:00","23.8","","15.1","","58","","","","0","","12.9","","99.92","","28","","","","Clear"
"1998-05-15 10:00","1998","05","15","10:00","25.7","","17.2","","59","","","","0","","12.9","","99.92","","31","","","","Clear"
"1998-05-15 11:00","1998","05","15","11:00","27.1","","16.1","","51","","35","","6","","12.9","","99.85","","32","","","","Clear"
"1998-05-15 12:00","1998","05","15","12:00","27.3","","16.2","","51","","15","","7","","9.7","","99.79","","32","","","","Haze"
"1998-05-15 13:00","1998","05","15","13:00","27.6","","16.2","","50","","14","","15","","9.7","","99.72","","32","","","","Haze"
"1998-05-15 14:00","1998","05","15","14:00","26.4","","16.0","","53","","13","","17","","9.7","","99.69","","31","","","","Haze"
"1998-05-15 15:00","1998","05","15","15:00","26.5","","16.3","","54","","14","","15","","11.3","","99.69","","31","","","","Clear"
"1998-05-15 16:00","1998","05","15","16:00","26.6","","16.3","","53","","15","","15","","11.3","","99.69","","31","","","","Clear"
"1998-05-15 17:00","1998","05","15","17:00","26.4","","16.0","","53","","15","","15","","11.3","","99.65","","31","","","","Clear"
"1998-05-15 18:00","1998","05","15","18:00","25.2","","15.5","","55","","15","","13","","12.9","","99.59","","29","","","","Mainly Clear"
"1998-05-15 19:00","1998","05","15","19:00","24.2","","15.2","","57","","14","","9","","9.7","","99.59","","28","","","","Haze"
"1998-05-15 20:00","1998","05","15","20:00","23.4","","14.8","","58","","13","","9","","8.0","","99.55","","27","","","","Haze"
"1998-05-15 21:00","1998","05","15","21:00","22.0","","14.3","","62","","13","","9","","11.3","","99.49","","26","","","","Mainly Clear"
"1998-05-15 22:00","1998","05","15","22:00","19.8","","13.7","","68","","20","","6","","11.3","","99.52","","","","","","Mainly Clear"
"1998-05-15 23:00","1998","05","15","23:00","19.3","","13.5","","69","","16","","6","","11.3","","99.49","","","","","","Mainly Clear"
"1998-05-16 00:00","1998","05","16","00:00","18.7","","13.0","","69","","","","0","","11.3","","99.49","","","","","","Mainly Clear"
"1998-05-16 01:00","1998","05","16","01:00","19.4","","12.2","","63","","13","","4","","11.3","","99.42","","","","","","Mainly Clear"
"1998-05-16 02:00","1998","05","16","02:00","17.6","","13.1","","75","","","","0","","11.3","","99.42","","","","","","Mainly Clear"
"1998-05-16 03:00","1998","05","16","03:00","17.0","","12.8","","76","","13","","4","","11.3","","99.45","","","","","","Mainly Clear"
"1998-05-16 04:00","1998","05","16","04:00","16.7","","12.9","","78","","13","","4","","9.7","","99.42","","","","","","Haze"
"1998-05-16 05:00","1998","05","16","05:00","16.3","","12.8","","80","","14","","4","","8.0","","99.42","","","","","","Haze"
"1998-05-16 06:00","1998","05","16","06:00","16.0","","13.5","","85","","14","","6","","4.8","","99.35","","","","","","Haze"
"1998-05-16 07:00","1998","05","16","07:00","17.6","","14.0","","79","","18","","7","","6.4","","99.39","","","","","","Haze"
"1998-05-16 08:00","1998","05","16","08:00","19.2","","15.2","","78","","12","","9","","4.8","","99.39","","","","","","Haze"
"1998-05-16 09:00","1998","05","16","09:00","21.1","","14.9","","68","","16","","9","","8.0","","99.35","","25","","","","Haze"
"1998-05-16 10:00","1998","05","16","10:00","22.3","","15.9","","67","","16","","13","","8.0","","99.29","","27","","","","Haze"
"1998-05-16 11:00","1998","05","16","11:00","23.5","","15.8","","62","","14","","17","","8.0","","99.22","","28","","","","Haze"
"1998-05-16 12:00","1998","05","16","12:00","23.6","","16.0","","62","","14","","17","","9.7","","99.19","","28","","","","Haze"
"1998-05-16 13:00","1998","05","16","13:00","23.5","","16.0","","63","","14","","17","","9.7","","99.16","","28","","","","Haze"
"1998-05-16 14:00","1998","05","16","14:00","22.5","","15.4","","64","","14","","17","","8.0","","99.12","","27","","","","Haze"
"1998-05-16 15:00","1998","05","16","15:00","22.7","","15.9","","65","","15","","15","","8.0","","99.09","","27","","","","Haze"
"1998-05-16 16:00","1998","05","16","16:00","23.4","","16.7","","66","","15","","11","","6.4","","99.06","","28","","","","Haze"
"1998-05-16 17:00","1998","05","16","17:00","25.2","","18.5","","66","","16","","13","","6.4","","98.99","","32","","","","Haze"
"1998-05-16 18:00","1998","05","16","18:00","25.0","","17.9","","65","","16","","15","","6.4","","99.06","","31","","","","Haze"
"1998-05-16 19:00","1998","05","16","19:00","24.4","","17.3","","65","","19","","7","","9.7","","99.09","","30","","","","Haze"
"1998-05-16 20:00","1998","05","16","20:00","24.7","","14.7","","54","","28","","13","","14.5","","99.16","","28","","","","Mostly Cloudy"
"1998-05-16 21:00","1998","05","16","21:00","21.6","","13.8","","61","","32","","17","","24.1","","99.26","","25","","","","Mainly Clear"
"1998-05-16 22:00","1998","05","16","22:00","19.4","","12.8","","66","","31","","11","","25.0","","99.29","","","","","","Clear"
"1998-05-16 23:00","1998","05","16","23:00","20.1","","12.2","","60","","25","","7","","25.0","","99.32","","","","","","Clear"
"1998-05-17 00:00","1998","05","17","00:00","19.2","","12.4","","65","","24","","6","","25.0","","99.35","","","","","","Clear"
"1998-05-17 01:00","1998","05","17","01:00","17.1","","12.1","","72","","27","","9","","25.0","","99.35","","","","","","Clear"
"1998-05-17 02:00","1998","05","17","02:00","16.6","","11.6","","72","","27","","13","","25.0","","99.39","","","","","","Clear"
"1998-05-17 03:00","1998","05","17","03:00","15.7","","11.3","","75","","26","","11","","25.0","","99.42","","","","","","Clear"
"1998-05-17 04:00","1998","05","17","04:00","14.9","","10.8","","76","","27","","13","","25.0","","99.45","","","","","","Clear"
"1998-05-17 05:00","1998","05","17","05:00","15.1","","10.6","","74","","27","","15","","24.1","","99.52","","","","","","Clear"
"1998-05-17 06:00","1998","05","17","06:00","16.2","","11.0","","71","","27","","17","","40.2","","99.59","","","","","","Clear"
"1998-05-17 07:00","1998","05","17","07:00","18.5","","11.1","","62","","29","","17","","40.2","","99.62","","","","","","Clear"
"1998-05-17 08:00","1998","05","17","08:00","20.5","","11.4","","56","","31","","19","","40.2","","99.69","","","","","","Clear"
"1998-05-17 09:00","1998","05","17","09:00","22.5","","12.7","","54","","31","","15","","40.2","","99.65","","25","","","","Clear"
"1998-05-17 10:00","1998","05","17","10:00","23.2","","11.3","","47","","30","","22","","40.2","","99.65","","25","","","","Clear"
"1998-05-17 11:00","1998","05","17","11:00","24.4","","11.4","","44","","29","","22","","40.2","","99.65","","26","","","","Clear"
"1998-05-17 12:00","1998","05","17","12:00","25.0","","8.4","","35","","30","","28","","40.2","","99.65","","26","","","","Clear"
"1998-05-17 13:00","1998","05","17","13:00","25.3","","7.8","","33","","32","","26","","40.2","","99.65","","26","","","","Clear"
"1998-05-17 14:00","1998","05","17","14:00","25.7","","7.5","","31","","30","","28","","40.2","","99.65","","26","","","","Clear"
"1998-05-17 15:00","1998","05","17","15:00","25.8","","7.0","","30","","30","","28","","40.2","","99.62","","26","","","","Clear"
"1998-05-17 16:00","1998","05","17","16:00","25.5","","5.6","","28","","30","","28","","40.2","","99.62","","25","","","","Clear"
"1998-05-17 17:00","1998","05","17","17:00","25.7","","7.8","","32","","30","","26","","40.2","","99.59","","26","","","","Clear"
"1998-05-17 18:00","1998","05","17","18:00","24.6","","6.1","","30","","30","","35","","40.2","","99.62","","","","","","Clear"
"1998-05-17 19:00","1998","05","17","19:00","23.7","","5.4","","31","","30","","28","","40.2","","99.65","","","","","","Clear"
"1998-05-17 20:00","1998","05","17","20:00","21.1","","6.5","","39","","30","","17","","40.2","","99.72","","","","","","Clear"
"1998-05-17 21:00","1998","05","17","21:00","19.3","","7.2","","45","","30","","15","","25.0","","99.75","","","","","","Clear"
"1998-05-17 22:00","1998","05","17","22:00","18.4","","6.2","","45","","30","","13","","25.0","","99.75","","","","","","Clear"
"1998-05-17 23:00","1998","05","17","23:00","16.2","","6.9","","54","","31","","11","","25.0","","99.75","","","","","","Clear"
"1998-05-18 00:00","1998","05","18","00:00","17.4","","6.3","","48","","32","","13","","25.0","","99.75","","","","","","Mainly Clear"
"1998-05-18 01:00","1998","05","18","01:00","19.2","","5.8","","41","","29","","11","","25.0","","99.75","","","","","","Mostly Cloudy"
"1998-05-18 02:00","1998","05","18","02:00","17.7","","7.3","","50","","32","","7","","25.0","","99.75","","","","","","Mostly Cloudy"
"1998-05-18 03:00","1998","05","18","03:00","18.0","","7.6","","51","","28","","7","","25.0","","99.72","","","","","","Mostly Cloudy"
"1998-05-18 04:00","1998","05","18","04:00","17.3","","8.0","","54","","29","","6","","25.0","","99.75","","","","","","Mostly Cloudy"
"1998-05-18 05:00","1998","05","18","05:00","16.3","","9.0","","62","","29","","6","","32.2","","99.79","","","","","","Mostly Cloudy"
"1998-05-18 06:00","1998","05","18","06:00","16.6","","10.0","","65","","30","","7","","24.1","","99.95","","","","","","Mostly Cloudy"
"1998-05-18 07:00","1998","05","18","07:00","17.1","","11.3","","69","","26","","4","","40.2","","99.82","","","","","","Rain Showers"
"1998-05-18 08:00","1998","05","18","08:00","18.8","","12.1","","65","","29","","4","","40.2","","99.85","","","","","","Mostly Cloudy"
"1998-05-18 09:00","1998","05","18","09:00","20.0","","12.9","","64","","27","","13","","40.2","","99.82","","","","","","Mostly Cloudy"
"1998-05-18 10:00","1998","05","18","10:00","22.0","","14.0","","60","","30","","24","","40.2","","99.72","","25","","","","Mostly Cloudy"
"1998-05-18 11:00","1998","05","18","11:00","23.5","","13.2","","52","","31","","17","","40.2","","99.65","","26","","","","Mainly Clear"
"1998-05-18 12:00","1998","05","18","12:00","24.9","","14.1","","51","","27","","17","","40.2","","99.65","","28","","","","Mainly Clear"
"1998-05-18 13:00","1998","05","18","13:00","26.1","","14.3","","48","","30","","17","","40.2","","99.59","","30","","","","Mostly Cloudy"
"1998-05-18 14:00","1998","05","18","14:00","27.4","","14.8","","46","","31","","17","","40.2","","99.55","","31","","","","Mainly Clear"
"1998-05-18 15:00","1998","05","18","15:00","27.8","","15.2","","46","","31","","13","","40.2","","99.45","","32","","","","Mostly Cloudy"
"1998-05-18 16:00","1998","05","18","16:00","26.8","","14.8","","48","","17","","17","","40.2","","99.42","","31","","","","Mostly Cloudy"
"1998-05-18 17:00","1998","05","18","17:00","26.4","","14.8","","49","","18","","13","","40.2","","99.39","","30","","","","Mainly Clear"
"1998-05-18 18:00","1998","05","18","18:00","25.7","","13.8","","48","","18","","11","","40.2","","99.39","","29","","","","Mainly Clear"
"1998-05-18 19:00","1998","05","18","19:00","24.9","","13.6","","49","","14","","6","","40.2","","99.35","","28","","","","Mainly Clear"
"1998-05-18 20:00","1998","05","18","20:00","23.7","","13.5","","53","","13","","4","","25.0","","99.35","","27","","","","Clear"
"1998-05-18 21:00","1998","05","18","21:00","22.6","","13.3","","56","","21","","2","","25.0","","99.35","","26","","","","Clear"
"1998-05-18 22:00","1998","05","18","22:00","21.8","","12.6","","56","","24","","7","","25.0","","99.32","","","","","","Clear"
"1998-05-18 23:00","1998","05","18","23:00","21.4","","12.6","","57","","29","","6","","24.1","","99.32","","","","","","Clear"
"1998-05-19 00:00","1998","05","19","00:00","19.4","","13.3","","68","","30","","4","","24.1","","99.29","","","","","","Clear"
"1998-05-19 01:00","1998","05","19","01:00","19.0","","12.6","","66","","26","","9","","24.1","","99.22","","","","","","Mainly Clear"
"1998-05-19 02:00","1998","05","19","02:00","19.3","","11.8","","62","","26","","13","","24.1","","99.19","","","","","","Mostly Cloudy"
"1998-05-19 03:00","1998","05","19","03:00","20.2","","10.8","","55","","27","","17","","24.1","","99.16","","","","","","Mostly Cloudy"
"1998-05-19 04:00","1998","05","19","04:00","21.2","","10.4","","50","","29","","11","","19.3","","99.16","","","","","","Mostly Cloudy"
"1998-05-19 05:00","1998","05","19","05:00","19.3","","11.8","","62","","35","","6","","24.1","","99.16","","","","","","Mostly Cloudy"
"1998-05-19 06:00","1998","05","19","06:00","18.9","","12.9","","68","","35","","17","","32.2","","99.22","","","","","","Cloudy"
"1998-05-19 07:00","1998","05","19","07:00","20.0","","12.5","","62","","28","","4","","32.2","","99.16","","","","","","Mostly Cloudy"
"1998-05-19 08:00","1998","05","19","08:00","21.4","","14.2","","64","","","","0","","24.1","","99.19","","25","","","","Cloudy"
"1998-05-19 09:00","1998","05","19","09:00","23.1","","14.0","","57","","19","","4","","24.1","","99.19","","26","","","","Cloudy"
"1998-05-19 10:00","1998","05","19","10:00","24.1","","15.3","","58","","15","","9","","19.3","","99.12","","28","","","","Mostly Cloudy"
"1998-05-19 11:00","1998","05","19","11:00","25.1","","15.5","","55","","18","","6","","19.3","","99.09","","29","","","","Mostly Cloudy"
"1998-05-19 12:00","1998","05","19","12:00","27.6","","13.3","","41","","22","","13","","19.3","","99.02","","31","","","","Mainly Clear"
"1998-05-19 13:00","1998","05","19","13:00","28.6","","16.5","","48","","23","","9","","19.3","","98.92","","34","","","","Mainly Clear"
"1998-05-19 14:00","1998","05","19","14:00","29.6","","18.2","","50","","28","","19","","19.3","","98.89","","36","","","","Mostly Cloudy"
"1998-05-19 15:00","1998","05","19","15:00","26.2","","16.5","","55","","10","","11","","19.3","","98.86","","31","","","","Mainly Clear"
"1998-05-19 16:00","1998","05","19","16:00","27.5","","16.9","","52","","10","","6","","19.3","","98.92","","33","","","","Mainly Clear"
"1998-05-19 17:00","1998","05","19","17:00","22.6","","18.0","","75","","12","","11","","19.3","","98.86","","29","","","","Thunderstorms,Rain Showers"
"1998-05-19 18:00","1998","05","19","18:00","18.6","","16.2","","86","","13","","9","","11.3","","98.82","","","","","","Thunderstorms,Rain Showers"
"1998-05-19 19:00","1998","05","19","19:00","17.9","","15.0","","83","","13","","11","","9.7","","98.89","","","","","","Rain Showers"
"1998-05-19 20:00","1998","05","19","20:00","17.6","","14.8","","84","","12","","6","","8.0","","98.86","","","","","","Haze"
"1998-05-19 21:00","1998","05","19","21:00","18.0","","15.1","","83","","","","0","","8.0","","98.89","","","","","","Haze"
"1998-05-19 22:00","1998","05","19","22:00","18.8","","15.3","","80","","","","0","","9.7","","98.89","","","","","","Haze"
"1998-05-19 23:00","1998","05","19","23:00","17.7","","14.9","","84","","25","","6","","9.7","","98.89","","","","","","Haze"
"1998-05-20 00:00","1998","05","20","00:00","17.7","","15.7","","88","","29","","7","","9.7","","98.89","","","","","","Fog"
"1998-05-20 01:00","1998","05","20","01:00","17.9","","14.8","","82","","34","","6","","12.9","","98.89","","","","","","Mainly Clear"
"1998-05-20 02:00","1998","05","20","02:00","18.4","","14.4","","78","","30","","6","","16.1","","98.89","","","","","","Clear"
"1998-05-20 03:00","1998","05","20","03:00","17.0","","14.1","","83","","33","","11","","16.1","","98.86","","","","","","Clear"
"1998-05-20 04:00","1998","05","20","04:00","16.7","","13.8","","83","","30","","7","","16.1","","98.86","","","","","","Clear"
"1998-05-20 05:00","1998","05","20","05:00","16.8","","13.7","","82","","29","","7","","19.3","","98.89","","","","","","Mostly Cloudy"
"1998-05-20 06:00","1998","05","20","06:00","16.7","","13.4","","81","","28","","6","","32.2","","98.96","","","","","","Mainly Clear"
"1998-05-20 07:00","1998","05","20","07:00","19.3","","12.9","","66","","28","","6","","32.2","","98.99","","","","","","Mainly Clear"
"1998-05-20 08:00","1998","05","20","08:00","21.1","","11.7","","55","","31","","7","","32.2","","98.96","","","","","","Clear"
"1998-05-20 09:00","1998","05","20","09:00","23.3","","9.9","","43","","31","","15","","40.2","","98.99","","25","","","","Clear"
"1998-05-20 10:00","1998","05","20","10:00","24.6","","10.2","","40","","29","","15","","40.2","","98.99","","26","","","","Clear"
"1998-05-20 11:00","1998","05","20","11:00","25.8","","10.4","","38","","28","","20","","40.2","","99.02","","27","","","","Clear"
"1998-05-20 12:00","1998","05","20","12:00","26.4","","11.7","","40","","27","","20","","40.2","","98.96","","29","","","","Clear"
"1998-05-20 13:00","1998","05","20","13:00","26.1","","11.4","","40","","26","","26","","40.2","","98.92","","28","","","","Clear"
"1998-05-20 14:00","1998","05","20","14:00","26.5","","12.0","","40","","29","","26","","40.2","","98.86","","29","","","","Clear"
"1998-05-20 15:00","1998","05","20","15:00","26.5","","10.5","","37","","30","","33","","40.2","","98.82","","28","","","","Clear"
"1998-05-20 16:00","1998","05","20","16:00","25.7","","11.7","","42","","28","","30","","40.2","","98.86","","28","","","","Clear"
"1998-05-20 17:00","1998","05","20","17:00","23.5","","11.0","","45","","31","","33","","40.2","","98.89","","25","","","","Mostly Cloudy"
"1998-05-20 18:00","1998","05","20","18:00","21.5","","9.1","","45","","29","","32","","40.2","","98.89","","","","","","Mostly Cloudy"
"1998-05-20 19:00","1998","05","20","19:00","20.2","","9.5","","50","","30","","24","","40.2","","98.89","","","","","","Mostly Cloudy"
"1998-05-20 20:00","1998","05","20","20:00","19.6","","9.7","","53","","29","","22","","40.2","","98.96","","","","","","Mostly Cloudy"
"1998-05-20 21:00","1998","05","20","21:00","18.4","","9.6","","56","","29","","24","","25.0","","98.99","","","","","","Mostly Cloudy"
"1998-05-20 22:00","1998","05","20","22:00","16.5","","6.5","","52","","32","","26","","25.0","","98.99","","","","","","Mostly Cloudy"
"1998-05-20 23:00","1998","05","20","23:00","14.2","","4.6","","52","","31","","20","","25.0","","98.96","","","","","","Mostly Cloudy"
"1998-05-21 00:00","1998","05","21","00:00","13.2","","2.6","","49","","30","","22","","25.0","","98.89","","","","","","Clear"
"1998-05-21 01:00","1998","05","21","01:00","12.1","","3.0","","54","","28","","20","","25.0","","98.89","","","","","","Clear"
"1998-05-21 02:00","1998","05","21","02:00","10.8","","3.7","","61","","30","","17","","25.0","","98.89","","","","","","Clear"
"1998-05-21 03:00","1998","05","21","03:00","10.0","","5.2","","72","","30","","13","","25.0","","98.89","","","","","","Clear"
"1998-05-21 04:00","1998","05","21","04:00","9.6","","6.1","","79","","31","","15","","25.0","","98.92","","","","","","Mostly Cloudy"
"1998-05-21 05:00","1998","05","21","05:00","9.1","","6.4","","83","","31","","13","","40.2","","98.99","","","","","","Mainly Clear"
"1998-05-21 06:00","1998","05","21","06:00","10.2","","7.3","","82","","32","","17","","40.2","","99.06","","","","","","Mainly Clear"
"1998-05-21 07:00","1998","05","21","07:00","12.1","","7.9","","75","","32","","26","","40.2","","99.12","","","","","","Mainly Clear"
"1998-05-21 08:00","1998","05","21","08:00","13.4","","7.3","","67","","31","","30","","40.2","","99.12","","","","","","Mainly Clear"
"1998-05-21 09:00","1998","05","21","09:00","14.4","","5.3","","54","","32","","33","","40.2","","99.19","","","","","","Mainly Clear"
"1998-05-21 10:00","1998","05","21","10:00","14.1","","3.9","","50","","33","","35","","40.2","","99.19","","","","","","Mainly Clear"
"1998-05-21 11:00","1998","05","21","11:00","14.1","","5.2","","55","","33","","24","","40.2","","99.19","","","","","","Mainly Clear"
"1998-05-21 12:00","1998","05","21","12:00","14.4","","6.3","","58","","34","","26","","40.2","","99.19","","","","","","Mainly Clear"
"1998-05-21 13:00","1998","05","21","13:00","15.0","","5.2","","52","","33","","28","","40.2","","99.22","","","","","","Mainly Clear"
"1998-05-21 14:00","1998","05","21","14:00","14.3","","3.6","","49","","34","","28","","40.2","","99.26","","","","","","Mainly Clear"
"1998-05-21 15:00","1998","05","21","15:00","14.2","","4.3","","51","","34","","26","","40.2","","99.26","","","","","","Mainly Clear"
"1998-05-21 16:00","1998","05","21","16:00","12.9","","3.3","","52","","30","","28","","32.2","","99.29","","","","","","Mostly Cloudy"
"1998-05-21 17:00","1998","05","21","17:00","11.8","","2.9","","54","","32","","30","","40.2","","99.39","","","","","","Mostly Cloudy"
"1998-05-21 18:00","1998","05","21","18:00","11.5","","1.8","","51","","31","","28","","32.2","","99.42","","","","","","Mostly Cloudy"
"1998-05-21 19:00","1998","05","21","19:00","10.9","","1.5","","52","","34","","24","","32.2","","99.42","","","","","","Mainly Clear"
"1998-05-21 20:00","1998","05","21","20:00","10.0","","1.2","","54","","33","","19","","40.2","","99.42","","","","","","Clear"
"1998-05-21 21:00","1998","05","21","21:00","8.4","","1.8","","63","","33","","13","","25.0","","99.49","","","","","","Clear"
"1998-05-21 22:00","1998","05","21","22:00","7.9","","1.8","","65","","33","","13","","25.0","","99.49","","","","","","Clear"
"1998-05-21 23:00","1998","05","21","23:00","6.6","","2.0","","72","","34","","11","","25.0","","99.49","","","","","","Clear"
"1998-05-22 00:00","1998","05","22","00:00","6.3","","2.3","","76","","32","","13","","25.0","","99.59","","","","","","Clear"
"1998-05-22 01:00","1998","05","22","01:00","6.8","","2.9","","76","","32","","13","","25.0","","99.59","","","","","","Clear"
"1998-05-22 02:00","1998","05","22","02:00","6.9","","3.5","","79","","31","","13","","25.0","","99.59","","","","","","Mostly Cloudy"
"1998-05-22 03:00","1998","05","22","03:00","7.6","","3.8","","77","","34","","17","","25.0","","99.59","","","","","","Mostly Cloudy"
"1998-05-22 04:00","1998","05","22","04:00","7.2","","4.2","","81","","34","","15","","25.0","","99.59","","","","","","Mostly Cloudy"
"1998-05-22 05:00","1998","05","22","05:00","7.5","","4.3","","80","","34","","15","","40.2","","99.62","","","","","","Mostly Cloudy"
"1998-05-22 06:00","1998","05","22","06:00","8.6","","3.1","","68","","35","","13","","40.2","","99.65","","","","","","Mostly Cloudy"
"1998-05-22 07:00","1998","05","22","07:00","10.1","","3.2","","62","","1","","15","","40.2","","99.69","","","","","","Mainly Clear"
"1998-05-22 08:00","1998","05","22","08:00","11.1","","2.8","","57","","34","","17","","40.2","","99.72","","","","","","Mainly Clear"
"1998-05-22 09:00","1998","05","22","09:00","11.7","","3.8","","58","","34","","19","","40.2","","99.72","","","","","","Mainly Clear"
"1998-05-22 10:00","1998","05","22","10:00","13.0","","4.6","","57","","33","","15","","40.2","","99.69","","","","","","Mainly Clear"
"1998-05-22 11:00","1998","05","22","11:00","13.2","","4.0","","54","","33","","15","","40.2","","99.69","","","","","","Mainly Clear"
"1998-05-22 12:00","1998","05","22","12:00","14.2","","4.4","","52","","30","","17","","40.2","","99.62","","","","","","Mainly Clear"
"1998-05-22 13:00","1998","05","22","13:00","15.3","","4.4","","48","","28","","9","","40.2","","99.55","","","","","","Mostly Cloudy"
"1998-05-22 14:00","1998","05","22","14:00","16.2","","5.1","","48","","36","","17","","40.2","","99.52","","","","","","Mostly Cloudy"
"1998-05-22 15:00","1998","05","22","15:00","16.4","","4.7","","46","","36","","19","","40.2","","99.49","","","","","","Mainly Clear"
"1998-05-22 16:00","1998","05","22","16:00","16.0","","5.0","","48","","1","","13","","40.2","","99.49","","","","","","Mainly Clear"
"1998-05-22 17:00","1998","05","22","17:00","16.0","","4.1","","45","","1","","15","","40.2","","99.52","","","","","","Mainly Clear"
"1998-05-22 18:00","1998","05","22","18:00","16.2","","4.4","","45","","33","","17","","40.2","","99.52","","","","","","Mainly Clear"
"1998-05-22 19:00","1998","05","22","19:00","15.4","","4.6","","48","","33","","13","","40.2","","99.52","","","","","","Clear"
"1998-05-22 20:00","1998","05","22","20:00","12.8","","4.7","","58","","31","","13","","32.2","","99.55","","","","","","Clear"
"1998-05-22 21:00","1998","05","22","21:00","13.2","","4.2","","54","","34","","15","","25.0","","99.59","","","","","","Clear"
"1998-05-22 22:00","1998","05","22","22:00","11.4","","4.2","","61","","32","","11","","25.0","","99.62","","","","","","Clear"
"1998-05-22 23:00","1998","05","22","23:00","9.7","","4.1","","68","","31","","9","","25.0","","99.59","","","","","","Clear"
"1998-05-23 00:00","1998","05","23","00:00","9.3","","3.7","","68","","33","","11","","25.0","","99.59","","","","","","Clear"
"1998-05-23 01:00","1998","05","23","01:00","8.6","","3.8","","72","","32","","13","","25.0","","99.59","","","","","","Clear"
"1998-05-23 02:00","1998","05","23","02:00","7.7","","3.3","","74","","35","","15","","25.0","","99.52","","","","","","Clear"
"1998-05-23 03:00","1998","05","23","03:00","7.9","","3.0","","71","","34","","19","","25.0","","99.49","","","","","","Clear"
"1998-05-23 04:00","1998","05","23","04:00","7.5","","2.9","","73","","34","","17","","25.0","","99.55","","","","","","Clear"
"1998-05-23 05:00","1998","05","23","05:00","7.0","","2.5","","73","","34","","15","","40.2","","99.55","","","","","","Clear"
"1998-05-23 06:00","1998","05","23","06:00","8.4","","2.9","","68","","34","","15","","40.2","","99.59","","","","","","Clear"
"1998-05-23 07:00","1998","05","23","07:00","11.2","","4.5","","63","","34","","19","","40.2","","99.62","","","","","","Clear"
"1998-05-23 08:00","1998","05","23","08:00","14.1","","4.9","","54","","34","","15","","40.2","","99.65","","","","","","Clear"
"1998-05-23 09:00","1998","05","23","09:00","16.5","","4.0","","43","","36","","13","","40.2","","99.62","","","","","","Clear"
"1998-05-23 10:00","1998","05","23","10:00","17.8","","0.5","","31","","31","","17","","40.2","","99.62","","","","","","Clear"
"1998-05-23 11:00","1998","05","23","11:00","18.4","","0.9","","31","","32","","11","","40.2","","99.62","","","","","","Clear"
"1998-05-23 12:00","1998","05","23","12:00","19.6","","2.8","","33","","30","","11","","40.2","","99.62","","","","","","Clear"
"1998-05-23 13:00","1998","05","23","13:00","19.8","","2.5","","32","","36","","17","","40.2","","99.52","","","","","","Clear"
"1998-05-23 14:00","1998","05","23","14:00","20.6","","1.7","","28","","35","","17","","40.2","","99.49","","","","","","Clear"
"1998-05-23 15:00","1998","05","23","15:00","21.2","","2.0","","28","","35","","15","","40.2","","99.42","","","","","","Clear"
"1998-05-23 16:00","1998","05","23","16:00","20.8","","3.4","","32","","34","","20","","40.2","","99.42","","","","","","Mainly Clear"
"1998-05-23 17:00","1998","05","23","17:00","20.6","","2.3","","30","","35","","17","","40.2","","99.39","","","","","","Mainly Clear"
"1998-05-23 18:00","1998","05","23","18:00","19.8","","1.8","","30","","34","","17","","40.2","","99.39","","","","","","Mainly Clear"
"1998-05-23 19:00","1998","05","23","19:00","19.1","","2.0","","32","","35","","19","","40.2","","99.42","","","","","","Clear"
"1998-05-23 20:00","1998","05","23","20:00","16.0","","2.4","","40","","34","","11","","32.2","","99.45","","","","","","Clear"
"1998-05-23 21:00","1998","05","23","21:00","15.4","","1.4","","39","","36","","13","","25.0","","99.52","","","","","","Clear"
"1998-05-23 22:00","1998","05","23","22:00","11.8","","2.8","","54","","34","","11","","25.0","","99.55","","","","","","Clear"
"1998-05-23 23:00","1998","05","23","23:00","11.1","","2.2","","54","","33","","13","","25.0","","99.52","","","","","","Clear"
"1998-05-24 00:00","1998","05","24","00:00","9.7","","2.8","","62","","33","","11","","25.0","","99.52","","","","","","Clear"
"1998-05-24 01:00","1998","05","24","01:00","9.6","","2.0","","59","","34","","11","","25.0","","99.52","","","","","","Clear"
"1998-05-24 02:00","1998","05","24","02:00","9.4","","2.0","","60","","34","","13","","25.0","","99.52","","","","","","Clear"
"1998-05-24 03:00","1998","05","24","03:00","9.5","","2.2","","60","","34","","13","","25.0","","99.49","","","","","","Clear"
"1998-05-24 04:00","1998","05","24","04:00","9.1","","3.0","","66","","35","","13","","25.0","","99.49","","","","","","Clear"
"1998-05-24 05:00","1998","05","24","05:00","8.3","","3.4","","71","","32","","7","","25.0","","99.55","","","","","","Mainly Clear"
"1998-05-24 06:00","1998","05","24","06:00","10.6","","4.1","","64","","34","","11","","40.2","","99.55","","","","","","Clear"
"1998-05-24 07:00","1998","05","24","07:00","12.8","","5.4","","61","","34","","9","","40.2","","99.59","","","","","","Clear"
"1998-05-24 08:00","1998","05","24","08:00","16.3","","6.1","","51","","","","0","","40.2","","99.59","","","","","","Clear"
"1998-05-24 09:00","1998","05","24","09:00","18.8","","6.7","","45","","","","0","","40.2","","99.59","","","","","","Mainly Clear"
"1998-05-24 10:00","1998","05","24","10:00","21.2","","5.6","","36","","14","","9","","40.2","","99.55","","","","","","Mainly Clear"
"1998-05-24 11:00","1998","05","24","11:00","21.9","","5.0","","33","","12","","13","","40.2","","99.52","","","","","","Mostly Cloudy"
"1998-05-24 12:00","1998","05","24","12:00","22.3","","3.8","","30","","16","","13","","40.2","","99.49","","","","","","Mostly Cloudy"
"1998-05-24 13:00","1998","05","24","13:00","22.7","","4.2","","30","","16","","17","","40.2","","99.45","","","","","","Mainly Clear"
"1998-05-24 14:00","1998","05","24","14:00","23.1","","4.6","","30","","15","","17","","40.2","","99.39","","","","","","Mostly Cloudy"
"1998-05-24 15:00","1998","05","24","15:00","22.8","","4.3","","30","","14","","11","","40.2","","99.29","","","","","","Mostly Cloudy"
"1998-05-24 16:00","1998","05","24","16:00","23.2","","3.7","","28","","16","","13","","40.2","","99.22","","","","","","Mostly Cloudy"
"1998-05-24 17:00","1998","05","24","17:00","22.2","","4.6","","32","","13","","7","","32.2","","99.22","","","","","","Mostly Cloudy"
"1998-05-24 18:00","1998","05","24","18:00","21.8","","3.4","","30","","12","","9","","32.2","","99.19","","","","","","Cloudy"
"1998-05-24 19:00","1998","05","24","19:00","21.4","","1.6","","27","","14","","9","","32.2","","99.16","","","","","","Cloudy"
"1998-05-24 20:00","1998","05","24","20:00","20.0","","1.0","","28","","15","","7","","24.1","","99.12","","","","","","Cloudy"
"1998-05-24 21:00","1998","05","24","21:00","19.3","","0.7","","29","","18","","7","","25.0","","99.16","","","","","","Cloudy"
"1998-05-24 22:00","1998","05","24","22:00","18.3","","1.2","","32","","18","","7","","25.0","","99.16","","","","","","Cloudy"
"1998-05-24 23:00","1998","05","24","23:00","17.6","","3.3","","38","","26","","7","","25.0","","99.16","","","","","","Cloudy"
"1998-05-25 00:00","1998","05","25","00:00","16.9","","6.1","","49","","31","","7","","25.0","","99.09","","","","","","Cloudy"
"1998-05-25 01:00","1998","05","25","01:00","16.4","","7.6","","56","","32","","9","","25.0","","99.06","","","","","","Rain Showers"
"1998-05-25 02:00","1998","05","25","02:00","17.0","","5.9","","48","","1","","15","","25.0","","99.02","","","","","","Cloudy"
"1998-05-25 03:00","1998","05","25","03:00","16.1","","7.0","","55","","35","","17","","25.0","","98.99","","","","","","Rain Showers"
"1998-05-25 04:00","1998","05","25","04:00","14.6","","8.9","","69","","2","","13","","19.3","","99.02","","","","","","Rain Showers"
"1998-05-25 05:00","1998","05","25","05:00","15.1","","8.2","","63","","1","","17","","24.1","","98.92","","","","","","Rain Showers"
"1998-05-25 06:00","1998","05","25","06:00","14.3","","10.7","","79","","34","","7","","32.2","","98.99","","","","","","Mostly Cloudy"
"1998-05-25 07:00","1998","05","25","07:00","15.3","","8.7","","65","","3","","13","","32.2","","98.92","","","","","","Mostly Cloudy"
"1998-05-25 08:00","1998","05","25","08:00","16.2","","8.6","","61","","34","","13","","32.2","","99.02","","","","","","Mostly Cloudy"
"1998-05-25 09:00","1998","05","25","09:00","16.9","","8.8","","59","","1","","15","","32.2","","98.99","","","","","","Mostly Cloudy"
"1998-05-25 10:00","1998","05","25","10:00","18.1","","9.7","","58","","32","","7","","32.2","","98.99","","","","","","Cloudy"
"1998-05-25 11:00","1998","05","25","11:00","19.9","","9.3","","50","","36","","9","","32.2","","98.92","","","","","","Mostly Cloudy"
"1998-05-25 12:00","1998","05","25","12:00","20.0","","8.8","","48","","31","","7","","32.2","","98.92","","","","","","Cloudy"
"1998-05-25 13:00","1998","05","25","13:00","19.8","","10.4","","55","","25","","6","","32.2","","98.89","","","","","","Cloudy"
"1998-05-25 14:00","1998","05","25","14:00","18.4","","11.4","","64","","26","","15","","32.2","","98.92","","","","","","Cloudy"
"1998-05-25 15:00","1998","05","25","15:00","18.4","","9.6","","56","","28","","13","","24.1","","98.92","","","","","","Rain Showers"
"1998-05-25 16:00","1998","05","25","16:00","14.9","","11.7","","81","","26","","15","","16.1","","98.99","","","","","","Rain Showers"
"1998-05-25 17:00","1998","05","25","17:00","13.1","","11.8","","92","","26","","13","","12.9","","98.99","","","","","","Rain Showers"
"1998-05-25 18:00","1998","05","25","18:00","13.6","","12.4","","92","","25","","9","","16.1","","98.92","","","","","","Rain Showers"
"1998-05-25 19:00","1998","05","25","19:00","13.8","","12.6","","92","","26","","7","","24.1","","98.96","","","","","","Rain Showers"
"1998-05-25 20:00","1998","05","25","20:00","13.8","","12.9","","94","","27","","9","","19.3","","98.96","","","","","","Mostly Cloudy"
"1998-05-25 21:00","1998","05","25","21:00","13.4","","12.4","","94","","25","","9","","19.3","","99.02","","","","","","Mostly Cloudy"
"1998-05-25 22:00","1998","05","25","22:00","13.5","","12.2","","92","","25","","13","","24.1","","99.06","","","","","","Mostly Cloudy"
"1998-05-25 23:00","1998","05","25","23:00","14.4","","12.0","","85","","28","","11","","25.0","","99.06","","","","","","Mostly Cloudy"
"1998-05-26 00:00","1998","05","26","00:00","12.9","","10.8","","87","","29","","7","","25.0","","99.06","","","","","","Mainly Clear"
"1998-05-26 01:00","1998","05","26","01:00","12.1","","9.9","","86","","30","","9","","25.0","","99.06","","","","","","Clear"
"1998-05-26 02:00","1998","05","26","02:00","11.2","","9.0","","86","","31","","11","","25.0","","99.02","","","","","","Clear"
"1998-05-26 03:00","1998","05","26","03:00","10.1","","8.0","","87","","32","","13","","25.0","","99.09","","","","","","Clear"
"1998-05-26 04:00","1998","05","26","04:00","10.2","","7.4","","83","","34","","13","","25.0","","99.12","","","","","","Clear"
"1998-05-26 05:00","1998","05","26","05:00","9.9","","7.4","","84","","34","","9","","24.1","","99.16","","","","","","Mainly Clear"
"1998-05-26 06:00","1998","05","26","06:00","10.8","","7.3","","79","","34","","2","","32.2","","99.26","","","","","","Clear"
"1998-05-26 07:00","1998","05","26","07:00","12.7","","8.8","","77","","34","","7","","32.2","","99.32","","","","","","Clear"
"1998-05-26 08:00","1998","05","26","08:00","14.2","","10.5","","78","","36","","11","","24.1","","99.32","","","","","","Clear"
"1998-05-26 09:00","1998","05","26","09:00","16.3","","11.1","","71","","34","","9","","19.3","","99.32","","","","","","Clear"
"1998-05-26 10:00","1998","05","26","10:00","17.5","","11.5","","68","","34","","7","","19.3","","99.32","","","","","","Clear"
"1998-05-26 11:00","1998","05","26","11:00","19.1","","13.0","","68","","30","","4","","19.3","","99.32","","","","","","Clear"
"1998-05-26 12:00","1998","05","26","12:00","20.7","","13.8","","65","","6","","4","","19.3","","99.29","","","","","","Mainly Clear"
"1998-05-26 13:00","1998","05","26","13:00","19.6","","12.3","","63","","15","","11","","19.3","","99.29","","","","","","Mostly Cloudy"
"1998-05-26 14:00","1998","05","26","14:00","19.9","","12.8","","64","","13","","7","","19.3","","99.29","","","","","","Mostly Cloudy"
"1998-05-26 15:00","1998","05","26","15:00","21.7","","12.2","","55","","35","","15","","19.3","","99.29","","","","","","Mostly Cloudy"
"1998-05-26 16:00","1998","05","26","16:00","22.0","","11.3","","51","","36","","19","","16.1","","99.29","","","","","","Mainly Clear"
"1998-05-26 17:00","1998","05","26","17:00","20.9","","10.3","","51","","36","","22","","19.3","","99.35","","","","","","Mainly Clear"
"1998-05-26 18:00","1998","05","26","18:00","19.6","","9.2","","51","","1","","22","","25.0","","99.42","","","","","","Mainly Clear"
"1998-05-26 19:00","1998","05","26","19:00","17.9","","7.8","","52","","1","","22","","32.2","","99.45","","","","","","Clear"
"1998-05-26 20:00","1998","05","26","20:00","16.2","","6.0","","51","","36","","15","","25.0","","99.49","","","","","","Mainly Clear"
"1998-05-26 21:00","1998","05","26","21:00","14.1","","5.5","","56","","35","","13","","25.0","","99.52","","","","","","Mainly Clear"
"1998-05-26 22:00","1998","05","26","22:00","12.2","","3.6","","56","","34","","9","","25.0","","99.59","","","","","","Clear"
"1998-05-26 23:00","1998","05","26","23:00","11.1","","2.7","","56","","33","","13","","25.0","","99.59","","","","","","Clear"
"1998-05-27 00:00","1998","05","27","00:00","10.0","","2.5","","60","","35","","13","","25.0","","99.55","","","","","","Mainly Clear"
"1998-05-27 01:00","1998","05","27","01:00","8.2","","3.1","","70","","30","","9","","25.0","","99.59","","","","","","Mainly Clear"
"1998-05-27 02:00","1998","05","27","02:00","7.7","","3.3","","74","","34","","9","","25.0","","99.62","","","","","","Mainly Clear"
"1998-05-27 03:00","1998","05","27","03:00","8.9","","3.4","","68","","28","","4","","25.0","","99.65","","","","","","Mainly Clear"
"1998-05-27 04:00","1998","05","27","04:00","8.2","","2.9","","69","","32","","6","","25.0","","99.65","","","","","","Mainly Clear"
"1998-05-27 05:00","1998","05","27","05:00","6.8","","3.5","","79","","33","","6","","40.2","","99.69","","","","","","Mainly Clear"
"1998-05-27 06:00","1998","05","27","06:00","9.0","","4.8","","75","","32","","6","","40.2","","99.72","","","","","","Mainly Clear"
"1998-05-27 07:00","1998","05","27","07:00","12.6","","2.6","","50","","36","","7","","40.2","","99.75","","","","","","Clear"
"1998-05-27 08:00","1998","05","27","08:00","15.2","","3.8","","46","","","","0","","40.2","","99.75","","","","","","Clear"
"1998-05-27 09:00","1998","05","27","09:00","17.7","","7.4","","51","","22","","7","","40.2","","99.72","","","","","","Mainly Clear"
"1998-05-27 10:00","1998","05","27","10:00","19.6","","7.7","","46","","21","","9","","40.2","","99.69","","","","","","Clear"
"1998-05-27 11:00","1998","05","27","11:00","20.3","","9.2","","49","","17","","11","","32.2","","99.69","","","","","","Clear"
"1998-05-27 12:00","1998","05","27","12:00","20.8","","8.2","","44","","14","","13","","32.2","","99.65","","","","","","Clear"
"1998-05-27 13:00","1998","05","27","13:00","22.3","","9.0","","43","","14","","13","","32.2","","99.62","","","","","","Clear"
"1998-05-27 14:00","1998","05","27","14:00","23.9","","10.8","","44","","17","","17","","24.1","","99.55","","26","","","","Mainly Clear"
"1998-05-27 15:00","1998","05","27","15:00","24.0","","10.6","","43","","13","","17","","24.1","","99.52","","26","","","","Mainly Clear"
"1998-05-27 16:00","1998","05","27","16:00","23.1","","10.7","","46","","15","","19","","24.1","","99.49","","25","","","","Mainly Clear"
"1998-05-27 17:00","1998","05","27","17:00","23.6","","11.6","","47","","17","","17","","24.1","","99.45","","26","","","","Mainly Clear"
"1998-05-27 18:00","1998","05","27","18:00","22.9","","11.7","","49","","15","","11","","24.1","","99.45","","25","","","","Mainly Clear"
"1998-05-27 19:00","1998","05","27","19:00","22.3","","11.1","","49","","17","","9","","24.1","","99.45","","","","","","Clear"
"1998-05-27 20:00","1998","05","27","20:00","20.6","","11.2","","55","","19","","7","","24.1","","99.49","","","","","","Clear"
"1998-05-27 21:00","1998","05","27","21:00","20.2","","11.7","","58","","24","","6","","24.1","","99.49","","","","","","Clear"
"1998-05-27 22:00","1998","05","27","22:00","19.5","","11.8","","61","","26","","4","","24.1","","99.52","","","","","","Clear"
"1998-05-27 23:00","1998","05","27","23:00","19.0","","11.6","","62","","24","","4","","24.1","","99.49","","","","","","Clear"
"1998-05-28 00:00","1998","05","28","00:00","17.1","","10.5","","65","","28","","7","","25.0","","99.52","","","","","","Clear"
"1998-05-28 01:00","1998","05","28","01:00","16.0","","10.2","","68","","29","","6","","25.0","","99.52","","","","","","Clear"
"1998-05-28 02:00","1998","05","28","02:00","15.4","","9.6","","68","","30","","6","","25.0","","99.52","","","","","","Clear"
"1998-05-28 03:00","1998","05","28","03:00","15.5","","9.1","","66","","","","0","","24.1","","99.52","","","","","","Clear"
"1998-05-28 04:00","1998","05","28","04:00","15.8","","8.1","","60","","","","0","","25.0","","99.52","","","","","","Mainly Clear"
"1998-05-28 05:00","1998","05","28","05:00","15.5","","8.1","","61","","","","0","","19.3","","99.52","","","","","","Mainly Clear"
"1998-05-28 06:00","1998","05","28","06:00","16.3","","8.8","","61","","17","","4","","19.3","","99.52","","","","","","Mainly Clear"
"1998-05-28 07:00","1998","05","28","07:00","18.2","","9.6","","57","","20","","4","","24.1","","99.52","","","","","","Mainly Clear"
"1998-05-28 08:00","1998","05","28","08:00","21.0","","11.6","","55","","17","","7","","24.1","","99.55","","","","","","Mainly Clear"
"1998-05-28 09:00","1998","05","28","09:00","23.2","","11.0","","46","","21","","17","","24.1","","99.49","","25","","","","Mainly Clear"
"1998-05-28 10:00","1998","05","28","10:00","24.8","","12.6","","47","","22","","24","","24.1","","99.45","","27","","","","Mainly Clear"
"1998-05-28 11:00","1998","05","28","11:00","25.8","","12.7","","44","","21","","28","","24.1","","99.42","","28","","","","Mainly Clear"
"1998-05-28 12:00","1998","05","28","12:00","27.2","","12.7","","41","","25","","30","","19.3","","99.35","","30","","","","Mostly Cloudy"
"1998-05-28 13:00","1998","05","28","13:00","26.7","","12.8","","42","","22","","19","","19.3","","99.26","","29","","","","Mostly Cloudy"
"1998-05-28 14:00","1998","05","28","14:00","27.3","","13.7","","43","","23","","28","","19.3","","99.19","","30","","","","Mostly Cloudy"
"1998-05-28 15:00","1998","05","28","15:00","27.5","","13.7","","43","","21","","35","","16.1","","99.09","","31","","","","Mostly Cloudy"
"1998-05-28 16:00","1998","05","28","16:00","27.1","","12.7","","41","","22","","32","","16.1","","99.09","","30","","","","Mostly Cloudy"
"1998-05-28 17:00","1998","05","28","17:00","27.5","","12.4","","39","","23","","33","","16.1","","99.06","","30","","","","Mostly Cloudy"
"1998-05-28 18:00","1998","05","28","18:00","26.4","","13.6","","45","","22","","28","","19.3","","98.99","","30","","","","Mostly Cloudy"
"1998-05-28 19:00","1998","05","28","19:00","26.2","","14.0","","47","","22","","33","","16.1","","98.96","","30","","","","Mostly Cloudy"
"1998-05-28 20:00","1998","05","28","20:00","24.9","","13.9","","50","","24","","24","","16.1","","98.99","","28","","","","Mainly Clear"
"1998-05-28 21:00","1998","05","28","21:00","24.3","","14.2","","53","","24","","24","","12.9","","99.02","","28","","","","Clear"
"1998-05-28 22:00","1998","05","28","22:00","23.6","","14.3","","56","","23","","19","","16.1","","99.02","","27","","","","Clear"
"1998-05-28 23:00","1998","05","28","23:00","22.7","","14.3","","59","","24","","20","","16.1","","99.02","","26","","","","Clear"
"1998-05-29 00:00","1998","05","29","00:00","21.9","","14.3","","62","","24","","17","","16.1","","99.02","","25","","","","Clear"
"1998-05-29 01:00","1998","05","29","01:00","20.3","","14.5","","69","","26","","9","","12.9","","99.02","","","","","","Mainly Clear"
"1998-05-29 02:00","1998","05","29","02:00","19.5","","15.0","","75","","25","","9","","12.9","","99.02","","","","","","Mainly Clear"
"1998-05-29 03:00","1998","05","29","03:00","19.8","","15.3","","75","","25","","7","","12.9","","98.99","","","","","","Mainly Clear"
"1998-05-29 04:00","1998","05","29","04:00","19.1","","15.4","","79","","23","","7","","11.3","","98.99","","","","","","Clear"
"1998-05-29 05:00","1998","05","29","05:00","19.3","","15.3","","78","","26","","13","","8.0","","98.99","","","","","","Haze"
"1998-05-29 06:00","1998","05","29","06:00","20.2","","15.7","","75","","27","","28","","6.4","","99.16","","25","","","","Haze"
"1998-05-29 07:00","1998","05","29","07:00","21.2","","16.6","","75","","34","","15","","11.3","","98.99","","26","","","","Cloudy"
"1998-05-29 08:00","1998","05","29","08:00","21.9","","15.8","","68","","16","","6","","19.3","","98.92","","26","","","","Mostly Cloudy"
"1998-05-29 09:00","1998","05","29","09:00","23.0","","15.4","","62","","23","","11","","24.1","","98.89","","27","","","","Mostly Cloudy"
"1998-05-29 10:00","1998","05","29","10:00","24.9","","15.6","","56","","25","","22","","24.1","","99.02","","29","","","","Mostly Cloudy"
"1998-05-29 11:00","1998","05","29","11:00","27.8","","14.6","","44","","25","","26","","32.2","","98.96","","32","","","","Mostly Cloudy"
"1998-05-29 12:00","1998","05","29","12:00","27.6","","13.8","","43","","29","","30","","32.2","","98.92","","31","","","","Mostly Cloudy"
"1998-05-29 13:00","1998","05","29","13:00","26.3","","14.3","","48","","28","","19","","32.2","","98.96","","30","","","","Mostly Cloudy"
"1998-05-29 14:00","1998","05","29","14:00","26.5","","15.7","","52","","28","","17","","40.2","","98.89","","31","","","","Mostly Cloudy"
"1998-05-29 15:00","1998","05","29","15:00","28.2","","15.2","","45","","28","","28","","40.2","","98.82","","32","","","","Mostly Cloudy"
"1998-05-29 16:00","1998","05","29","16:00","27.3","","14.5","","45","","27","","33","","32.2","","98.86","","31","","","","Mostly Cloudy"
"1998-05-29 17:00","1998","05","29","17:00","25.9","","15.3","","52","","30","","32","","32.2","","98.89","","30","","","","Mostly Cloudy"
"1998-05-29 18:00","1998","05","29","18:00","25.1","","15.8","","56","","29","","22","","32.2","","98.92","","30","","","","Mostly Cloudy"
"1998-05-29 19:00","1998","05","29","19:00","24.6","","15.5","","57","","31","","19","","32.2","","98.99","","29","","","","Mostly Cloudy"
"1998-05-29 20:00","1998","05","29","20:00","22.8","","14.3","","59","","30","","15","","32.2","","99.09","","26","","","","Mostly Cloudy"
"1998-05-29 21:00","1998","05","29","21:00","20.9","","14.0","","65","","35","","17","","25.0","","99.19","","","","","","Clear"
"1998-05-29 22:00","1998","05","29","22:00","18.1","","14.5","","79","","33","","11","","25.0","","99.26","","","","","","Clear"
"1998-05-29 23:00","1998","05","29","23:00","17.4","","13.5","","78","","34","","11","","25.0","","99.32","","","","","","Clear"
"1998-05-30 00:00","1998","05","30","00:00","16.2","","12.8","","80","","32","","17","","25.0","","99.42","","","","","","Clear"
"1998-05-30 01:00","1998","05","30","01:00","15.0","","4.7","","50","","31","","13","","25.0","","99.39","","","","","","Clear"
"1998-05-30 02:00","1998","05","30","02:00","14.2","","-0.6","","36","","31","","19","","25.0","","99.39","","","","","","Clear"
"1998-05-30 03:00","1998","05","30","03:00","13.3","","-0.3","","39","","33","","20","","25.0","","99.45","","","","","","Clear"
"1998-05-30 04:00","1998","05","30","04:00","11.2","","1.2","","50","","32","","17","","25.0","","99.45","","","","","","Clear"
"1998-05-30 05:00","1998","05","30","05:00","10.9","","-1.5","","42","","33","","17","","40.2","","99.49","","","","","","Clear"
"1998-05-30 06:00","1998","05","30","06:00","10.8","","0.7","","50","","34","","19","","40.2","","99.59","","","","","","Mainly Clear"
"1998-05-30 07:00","1998","05","30","07:00","12.0","","2.8","","53","","36","","19","","40.2","","99.65","","","","","","Mainly Clear"
"1998-05-30 08:00","1998","05","30","08:00","13.7","","5.2","","56","","36","","9","","40.2","","99.65","","","","","","Mainly Clear"
"1998-05-30 09:00","1998","05","30","09:00","15.3","","6.4","","55","","34","","13","","40.2","","99.65","","","","","","Mainly Clear"
"1998-05-30 10:00","1998","05","30","10:00","17.0","","6.8","","51","","","","0","","40.2","","99.62","","","","","","Mainly Clear"
"1998-05-30 11:00","1998","05","30","11:00","18.4","","8.2","","51","","36","","9","","40.2","","99.62","","","","","","Mostly Cloudy"
"1998-05-30 12:00","1998","05","30","12:00","20.0","","9.0","","49","","1","","9","","40.2","","99.62","","","","","","Mostly Cloudy"
"1998-05-30 13:00","1998","05","30","13:00","21.2","","9.8","","48","","36","","4","","40.2","","99.49","","","","","","Mostly Cloudy"
"1998-05-30 14:00","1998","05","30","14:00","21.7","","8.6","","43","","14","","15","","40.2","","99.45","","","","","","Mainly Clear"
"1998-05-30 15:00","1998","05","30","15:00","21.6","","8.0","","42","","14","","11","","40.2","","99.39","","","","","","Clear"
"1998-05-30 16:00","1998","05","30","16:00","22.3","","8.6","","41","","15","","7","","40.2","","99.39","","","","","","Mainly Clear"
"1998-05-30 17:00","1998","05","30","17:00","21.6","","8.0","","42","","16","","15","","40.2","","99.35","","","","","","Mainly Clear"
"1998-05-30 18:00","1998","05","30","18:00","21.0","","8.2","","44","","14","","11","","32.2","","99.39","","","","","","Mainly Clear"
"1998-05-30 19:00","1998","05","30","19:00","20.4","","8.7","","47","","13","","9","","24.1","","99.32","","","","","","Mostly Cloudy"
"1998-05-30 20:00","1998","05","30","20:00","18.3","","8.5","","53","","12","","11","","24.1","","99.26","","","","","","Mostly Cloudy"
"1998-05-30 21:00","1998","05","30","21:00","18.1","","7.6","","50","","","","0","","25.0","","99.29","","","","","","Mostly Cloudy"
"1998-05-30 22:00","1998","05","30","22:00","17.7","","8.2","","54","","6","","7","","25.0","","99.26","","","","","","Mostly Cloudy"
"1998-05-30 23:00","1998","05","30","23:00","17.7","","8.0","","53","","11","","9","","25.0","","99.19","","","","","","Cloudy"
"1998-05-31 00:00","1998","05","31","00:00","17.9","","9.0","","56","","14","","20","","25.0","","98.92","","","","","","Cloudy"
"1998-05-31 01:00","1998","05","31","01:00","17.5","","9.1","","58","","14","","13","","25.0","","98.89","","","","","","Cloudy"
"1998-05-31 02:00","1998","05","31","02:00","17.2","","10.0","","63","","13","","17","","25.0","","98.72","","","","","","Cloudy"
"1998-05-31 03:00","1998","05","31","03:00","15.0","","12.9","","87","","12","","13","","24.1","","98.46","","","","","","Cloudy"
"1998-05-31 04:00","1998","05","31","04:00","15.5","","13.3","","87","","13","","11","","24.1","","98.32","","","","","","Cloudy"
"1998-05-31 05:00","1998","05","31","05:00","15.5","","12.8","","84","","15","","11","","16.1","","98.16","","","","","","Cloudy"
"1998-05-31 06:00","1998","05","31","06:00","16.2","","13.8","","86","","13","","7","","16.1","","97.99","","","","","","Cloudy"
"1998-05-31 07:00","1998","05","31","07:00","19.0","","16.0","","83","","19","","13","","11.3","","97.92","","","","","","Cloudy"
"1998-05-31 08:00","1998","05","31","08:00","23.5","","19.1","","76","","22","","37","","8.0","","97.79","","30","","","","Haze"
"1998-05-31 09:00","1998","05","31","09:00","19.8","","16.2","","80","","20","","32","","11.3","","97.42","","","","","","Thunderstorms,Rain Showers"
"1998-05-31 10:00","1998","05","31","10:00","22.3","","15.4","","65","","23","","43","","40.2","","97.42","","27","","","","Mostly Cloudy"
"1998-05-31 11:00","1998","05","31","11:00","25.1","","16.0","","57","","25","","48","","32.2","","97.56","","30","","","","Mostly Cloudy"
"1998-05-31 12:00","1998","05","31","12:00","23.9","","17.5","","67","","24","","35","","19.3","","97.62","","30","","","","Mostly Cloudy"
"1998-05-31 13:00","1998","05","31","13:00","25.7","","17.9","","62","","25","","32","","24.1","","97.62","","32","","","","Mostly Cloudy"
"1998-05-31 14:00","1998","05","31","14:00","27.4","","16.4","","51","","27","","41","","24.1","","97.62","","32","","","","Mostly Cloudy"
"1998-05-31 15:00","1998","05","31","15:00","27.1","","14.9","","47","","29","","41","","24.1","","97.62","","31","","","","Mostly Cloudy"
"1998-05-31 16:00","1998","05","31","16:00","25.4","","15.2","","53","","31","","46","","24.1","","97.69","","29","","","","Mostly Cloudy"
"1998-05-31 17:00","1998","05","31","17:00","20.8","","13.7","","64","","33","","44","","24.1","","97.89","","","","","","Mostly Cloudy"
"1998-05-31 18:00","1998","05","31","18:00","17.7","","11.2","","66","","32","","33","","32.2","","97.96","","","","","","Mainly Clear"
"1998-05-31 19:00","1998","05","31","19:00","15.8","","9.3","","65","","33","","37","","32.2","","97.99","","","","","","Mainly Clear"
"1998-05-31 20:00","1998","05","31","20:00","14.0","","8.4","","69","","33","","24","","32.2","","98.16","","","","","","Mainly Clear"
"1998-05-31 21:00","1998","05","31","21:00","12.2","","7.4","","72","","31","","28","","25.0","","98.32","","","","","","Clear"
"1998-05-31 22:00","1998","05","31","22:00","11.4","","6.0","","69","","31","","30","","25.0","","98.39","","","","","","Clear"
"1998-05-31 23:00","1998","05","31","23:00","10.2","","4.6","","68","","31","","26","","25.0","","98.46","","","","","","Clear"
