"Station Name","TORONTO LESTER B. PEARSON INT'L A"
"Province","ONTARIO"
"Latitude","43.68"
"Longitude","-79.63"
"Elevation","173.40"
"Climate Identifier","6158733"
"WMO Identifier","71624"
"TC Identifier","YYZ"
"All times are specified in Local Standard Time (LST). Add 1 hour to adjust for Daylight Saving Time where and when it is observed."

"Legend"
"E","Estimated"
"M","Missing"
"NA","Not Available"

"Date/Time","Year","Month","Day","Time","Temp (°C)","Temp Flag","Dew Point Temp (°C)","Dew Point Temp Flag","Rel Hum (%)","Rel Hum Flag","Wind Dir (10s deg)","Wind Dir Flag","Wind Spd (km/h)","Wind Spd Flag","Visibility (km)","Visibility Flag","Stn Press (kPa)","Stn Press Flag","Hmdx","Hmdx Flag","Wind Chill","Wind Chill Flag","Weather"
"1983-05-01 00:00","1983","05","01","00:00","8.3","","7.0","","92","","29","","9","","25.0","","99.32","","","","","","Mostly Cloudy"
"1983-05-01 01:00","1983","05","01","01:00","8.1","","6.4","","89","","34","","13","","25.0","","99.39","","","","","","Mostly Cloudy"
"1983-05-01 02:00","1983","05","01","02:00","7.2","","5.8","","91","","30","","4","","25.0","","99.42","","","","","","Mostly Cloudy"
"1983-05-01 03:00","1983","05","01","03:00","7.8","","6.4","","91","","31","","11","","25.0","","99.52","","","","","","Mostly Cloudy"
"1983-05-01 04:00","1983","05","01","04:00","7.7","","6.3","","91","","31","","9","","25.0","","99.59","","","","","","Mostly Cloudy"
"1983-05-01 05:00","1983","05","01","05:00","7.2","","5.4","","88","","33","","11","","24.1","","99.62","","","","","","Mainly Clear"
"1983-05-01 06:00","1983","05","01","06:00","7.7","","5.5","","86","","34","","15","","32.2","","99.69","","","","","","Mainly Clear"
"1983-05-01 07:00","1983","05","01","07:00","8.9","","6.7","","86","","35","","9","","32.2","","99.76","","","","","","Mostly Cloudy"
"1983-05-01 08:00","1983","05","01","08:00","9.6","","6.4","","80","","5","","6","","32.2","","99.86","","","","","","Mostly Cloudy"
"1983-05-01 09:00","1983","05","01","09:00","11.1","","7.2","","77","","5","","7","","32.2","","99.86","","","","","","Cloudy"
"1983-05-01 10:00","1983","05","01","10:00","10.8","","7.6","","81","","15","","9","","32.2","","99.89","","","","","","Cloudy"
"1983-05-01 11:00","1983","05","01","11:00","11.5","","7.4","","76","","16","","6","","32.2","","99.89","","","","","","Cloudy"
"1983-05-01 12:00","1983","05","01","12:00","11.5","","7.4","","76","","18","","11","","32.2","","99.86","","","","","","Mostly Cloudy"
"1983-05-01 13:00","1983","05","01","13:00","11.0","","7.2","","78","","12","","17","","32.2","","99.72","","","","","","Cloudy"
"1983-05-01 14:00","1983","05","01","14:00","10.3","","7.1","","81","","15","","6","","32.2","","99.76","","","","","","Cloudy"
"1983-05-01 15:00","1983","05","01","15:00","11.0","","7.2","","78","","13","","11","","24.1","","99.69","","","","","","Cloudy"
"1983-05-01 16:00","1983","05","01","16:00","11.5","","7.4","","76","","15","","15","","24.1","","99.66","","","","","","Rain Showers"
"1983-05-01 17:00","1983","05","01","17:00","10.4","","7.5","","82","","10","","11","","16.1","","99.62","","","","","","Rain Showers"
"1983-05-01 18:00","1983","05","01","18:00","9.6","","7.6","","87","","10","","13","","12.9","","99.62","","","","","","Rain"
"1983-05-01 19:00","1983","05","01","19:00","9.5","","8.0","","90","","9","","17","","12.9","","99.49","","","","","","Cloudy"
"1983-05-01 20:00","1983","05","01","20:00","9.4","","8.0","","91","","10","","13","","9.7","","99.46","","","","","","Rain,Fog"
"1983-05-01 21:00","1983","05","01","21:00","9.5","","8.0","","90","","9","","24","","19.3","","99.22","","","","","","Cloudy"
"1983-05-01 22:00","1983","05","01","22:00","10.0","","8.1","","88","","11","","24","","16.1","","99.19","","","","","","Cloudy"
"1983-05-01 23:00","1983","05","01","23:00","9.6","","9.1","","97","","10","","26","","4.0","","99.09","","","","","","Rain,Drizzle,Fog"
"1983-05-02 00:00","1983","05","02","00:00","9.3","","9.1","","99","","11","","24","","4.8","","98.96","","","","","","Rain,Fog"
"1983-05-02 01:00","1983","05","02","01:00","9.1","","9.1","","100","","11","","24","","4.8","","98.82","","","","","","Moderate Rain,Fog"
"1983-05-02 02:00","1983","05","02","02:00","8.9","","8.6","","98","","11","","20","","3.2","","98.56","","","","","","Rain,Fog"
"1983-05-02 03:00","1983","05","02","03:00","9.0","","9.0","","100","","13","","11","","3.2","","98.42","","","","","","Rain,Fog"
"1983-05-02 04:00","1983","05","02","04:00","10.5","","10.5","","100","","12","","22","","2.4","","98.26","","","","","","Fog"
"1983-05-02 05:00","1983","05","02","05:00","11.3","","11.2","","100","","14","","24","","3.2","","98.16","","","","","","Rain,Fog"
"1983-05-02 06:00","1983","05","02","06:00","11.6","","10.4","","92","","17","","24","","4.8","","98.12","","","","","","Fog"
"1983-05-02 07:00","1983","05","02","07:00","12.0","","11.0","","94","","18","","15","","9.7","","97.99","","","","","","Fog"
"1983-05-02 08:00","1983","05","02","08:00","15.5","","12.9","","84","","22","","19","","24.1","","98.09","","","","","","Mostly Cloudy"
"1983-05-02 09:00","1983","05","02","09:00","17.3","","13.3","","77","","20","","33","","40.2","","98.06","","","","","","Mostly Cloudy"
"1983-05-02 10:00","1983","05","02","10:00","19.1","","12.8","","67","","22","","35","","40.2","","97.99","","","","","","Mainly Clear"
"1983-05-02 11:00","1983","05","02","11:00","20.1","","12.5","","62","","21","","35","","40.2","","97.99","","","","","","Mainly Clear"
"1983-05-02 12:00","1983","05","02","12:00","20.5","","13.8","","65","","21","","37","","32.2","","97.89","","","","","","Mostly Cloudy"
"1983-05-02 13:00","1983","05","02","13:00","21.4","","14.6","","65","","21","","39","","32.2","","97.72","","25","","","","Mostly Cloudy"
"1983-05-02 14:00","1983","05","02","14:00","20.3","","13.5","","65","","21","","33","","19.3","","97.72","","","","","","Thunderstorms"
"1983-05-02 15:00","1983","05","02","15:00","12.9","","11.3","","90","","27","","39","","9.7","","97.79","","","","","","Thunderstorms,Moderate Rain Showers,Fog"
"1983-05-02 16:00","1983","05","02","16:00","14.4","","12.5","","88","","23","","15","","24.1","","97.72","","","","","","Thunderstorms"
"1983-05-02 17:00","1983","05","02","17:00","14.9","","13.7","","93","","16","","22","","24.1","","97.62","","","","","","Mostly Cloudy"
"1983-05-02 18:00","1983","05","02","18:00","15.5","","12.9","","84","","19","","20","","24.1","","97.59","","","","","","Thunderstorms"
"1983-05-02 19:00","1983","05","02","19:00","14.8","","12.7","","88","","25","","11","","24.1","","97.62","","","","","","Mainly Clear"
"1983-05-02 20:00","1983","05","02","20:00","13.9","","11.3","","84","","26","","9","","25.0","","97.72","","","","","","Mainly Clear"
"1983-05-02 21:00","1983","05","02","21:00","13.0","","9.4","","79","","27","","17","","25.0","","97.82","","","","","","Mainly Clear"
"1983-05-02 22:00","1983","05","02","22:00","12.7","","8.9","","78","","26","","13","","25.0","","97.89","","","","","","Mostly Cloudy"
"1983-05-02 23:00","1983","05","02","23:00","12.5","","8.9","","79","","22","","13","","24.1","","97.96","","","","","","Mostly Cloudy"
"1983-05-03 00:00","1983","05","03","00:00","12.5","","8.9","","79","","27","","20","","24.1","","97.96","","","","","","Rain Showers"
"1983-05-03 01:00","1983","05","03","01:00","11.2","","7.2","","76","","26","","30","","24.1","","98.02","","","","","","Mostly Cloudy"
"1983-05-03 02:00","1983","05","03","02:00","9.6","","6.4","","80","","27","","20","","24.1","","98.06","","","","","","Cloudy"
"1983-05-03 03:00","1983","05","03","03:00","9.0","","5.4","","78","","27","","19","","25.0","","98.12","","","","","","Cloudy"
"1983-05-03 04:00","1983","05","03","04:00","8.6","","5.3","","80","","27","","17","","25.0","","98.12","","","","","","Mostly Cloudy"
"1983-05-03 05:00","1983","05","03","05:00","7.6","","4.2","","79","","28","","17","","25.0","","98.19","","","","","","Mostly Cloudy"
"1983-05-03 06:00","1983","05","03","06:00","7.0","","4.1","","82","","26","","20","","32.2","","98.22","","","","","","Cloudy"
"1983-05-03 07:00","1983","05","03","07:00","7.3","","5.1","","86","","25","","20","","32.2","","98.29","","","","","","Cloudy"
"1983-05-03 08:00","1983","05","03","08:00","7.6","","4.6","","81","","31","","13","","32.2","","98.19","","","","","","Cloudy"
"1983-05-03 09:00","1983","05","03","09:00","8.5","","5.3","","80","","36","","11","","32.2","","97.96","","","","","","Mostly Cloudy"
"1983-05-03 10:00","1983","05","03","10:00","9.1","","5.9","","80","","34","","7","","40.2","","98.12","","","","","","Mostly Cloudy"
"1983-05-03 11:00","1983","05","03","11:00","8.7","","5.3","","79","","36","","11","","32.2","","98.09","","","","","","Cloudy"
"1983-05-03 12:00","1983","05","03","12:00","8.9","","7.1","","89","","1","","13","","32.2","","97.96","","","","","","Rain Showers"
"1983-05-03 13:00","1983","05","03","13:00","9.3","","6.4","","82","","5","","11","","32.2","","97.92","","","","","","Cloudy"
"1983-05-03 14:00","1983","05","03","14:00","8.7","","6.1","","84","","2","","11","","32.2","","97.79","","","","","","Cloudy"
"1983-05-03 15:00","1983","05","03","15:00","8.7","","6.6","","87","","1","","9","","16.1","","97.79","","","","","","Rain Showers"
"1983-05-03 16:00","1983","05","03","16:00","8.5","","6.6","","88","","9","","2","","16.1","","97.72","","","","","","Rain Showers"
"1983-05-03 17:00","1983","05","03","17:00","8.4","","7.4","","93","","2","","9","","8.0","","97.72","","","","","","Rain Showers,Fog"
"1983-05-03 18:00","1983","05","03","18:00","7.6","","7.1","","97","","34","","19","","11.3","","97.72","","","","","","Rain"
"1983-05-03 19:00","1983","05","03","19:00","7.5","","6.7","","95","","35","","15","","16.1","","97.69","","","","","","Cloudy"
"1983-05-03 20:00","1983","05","03","20:00","7.2","","5.8","","91","","34","","15","","16.1","","97.69","","","","","","Cloudy"
"1983-05-03 21:00","1983","05","03","21:00","6.9","","5.8","","93","","33","","15","","16.1","","97.76","","","","","","Cloudy"
"1983-05-03 22:00","1983","05","03","22:00","6.8","","5.8","","93","","31","","9","","16.1","","97.76","","","","","","Cloudy"
"1983-05-03 23:00","1983","05","03","23:00","7.0","","5.8","","92","","31","","6","","19.3","","97.76","","","","","","Rain Showers"
"1983-05-04 00:00","1983","05","04","00:00","7.1","","6.2","","94","","29","","11","","19.3","","97.72","","","","","","Cloudy"
"1983-05-04 01:00","1983","05","04","01:00","6.9","","5.4","","90","","28","","13","","19.3","","97.72","","","","","","Cloudy"
"1983-05-04 02:00","1983","05","04","02:00","6.5","","4.9","","89","","26","","13","","19.3","","97.69","","","","","","Cloudy"
"1983-05-04 03:00","1983","05","04","03:00","6.1","","3.9","","86","","27","","20","","24.1","","97.76","","","","","","Cloudy"
"1983-05-04 04:00","1983","05","04","04:00","5.8","","4.3","","90","","28","","20","","24.1","","97.76","","","","","","Rain"
"1983-05-04 05:00","1983","05","04","05:00","5.4","","4.2","","92","","29","","20","","12.9","","97.79","","","","","","Rain,Drizzle"
"1983-05-04 06:00","1983","05","04","06:00","5.5","","3.8","","89","","28","","17","","32.2","","97.89","","","","","","Rain"
"1983-05-04 07:00","1983","05","04","07:00","6.0","","4.3","","89","","29","","19","","32.2","","97.96","","","","","","Cloudy"
"1983-05-04 08:00","1983","05","04","08:00","7.3","","4.6","","83","","29","","22","","32.2","","98.02","","","","","","Cloudy"
"1983-05-04 09:00","1983","05","04","09:00","8.9","","5.4","","79","","28","","22","","32.2","","98.02","","","","","","Mostly Cloudy"
"1983-05-04 10:00","1983","05","04","10:00","10.4","","5.8","","73","","26","","30","","40.2","","98.02","","","","","","Mainly Clear"
"1983-05-04 11:00","1983","05","04","11:00","12.0","","5.8","","66","","28","","26","","40.2","","98.09","","","","","","Mainly Clear"
"1983-05-04 12:00","1983","05","04","12:00","13.6","","4.0","","52","","29","","20","","40.2","","98.09","","","","","","Mostly Cloudy"
"1983-05-04 13:00","1983","05","04","13:00","13.1","","3.8","","53","","28","","26","","40.2","","98.12","","","","","","Mainly Clear"
"1983-05-04 14:00","1983","05","04","14:00","13.8","","2.1","","45","","26","","24","","40.2","","98.09","","","","","","Mainly Clear"
"1983-05-04 15:00","1983","05","04","15:00","15.1","","3.5","","46","","27","","24","","40.2","","98.09","","","","","","Mainly Clear"
"1983-05-04 16:00","1983","05","04","16:00","15.1","","4.0","","47","","26","","28","","40.2","","98.12","","","","","","Mostly Cloudy"
"1983-05-04 17:00","1983","05","04","17:00","14.2","","3.2","","48","","26","","17","","40.2","","98.16","","","","","","Mostly Cloudy"
"1983-05-04 18:00","1983","05","04","18:00","13.8","","2.6","","47","","27","","11","","40.2","","98.16","","","","","","Mostly Cloudy"
"1983-05-04 19:00","1983","05","04","19:00","12.8","","3.8","","54","","29","","2","","40.2","","98.16","","","","","","Mainly Clear"
"1983-05-04 20:00","1983","05","04","20:00","12.2","","5.8","","65","","23","","13","","25.0","","98.22","","","","","","Mostly Cloudy"
"1983-05-04 21:00","1983","05","04","21:00","11.0","","8.0","","82","","27","","11","","12.9","","98.29","","","","","","Moderate Rain Showers"
"1983-05-04 22:00","1983","05","04","22:00","9.5","","8.0","","90","","2","","15","","12.9","","98.29","","","","","","Rain Showers"
"1983-05-04 23:00","1983","05","04","23:00","8.9","","7.1","","89","","36","","9","","16.1","","98.29","","","","","","Mostly Cloudy"
"1983-05-05 00:00","1983","05","05","00:00","8.2","","6.4","","88","","35","","11","","24.1","","98.32","","","","","","Mostly Cloudy"
"1983-05-05 01:00","1983","05","05","01:00","8.0","","6.0","","87","","33","","7","","25.0","","98.32","","","","","","Cloudy"
"1983-05-05 02:00","1983","05","05","02:00","7.7","","5.9","","88","","32","","7","","25.0","","98.36","","","","","","Cloudy"
"1983-05-05 03:00","1983","05","05","03:00","6.9","","3.6","","80","","32","","19","","25.0","","98.39","","","","","","Mostly Cloudy"
"1983-05-05 04:00","1983","05","05","04:00","5.0","","2.8","","86","","31","","13","","25.0","","98.42","","","","","","Mainly Clear"
"1983-05-05 05:00","1983","05","05","05:00","3.5","","1.2","","85","","31","","19","","25.0","","98.52","","","","","","Mainly Clear"
"1983-05-05 06:00","1983","05","05","06:00","3.4","","1.2","","86","","31","","20","","32.2","","98.62","","","","","","Mainly Clear"
"1983-05-05 07:00","1983","05","05","07:00","3.6","","1.2","","84","","32","","28","","32.2","","98.72","","","","","","Mostly Cloudy"
"1983-05-05 08:00","1983","05","05","08:00","4.4","","1.8","","83","","31","","22","","32.2","","98.79","","","","","","Mostly Cloudy"
"1983-05-05 09:00","1983","05","05","09:00","5.6","","2.0","","78","","31","","22","","40.2","","98.86","","","","","","Mostly Cloudy"
"1983-05-05 10:00","1983","05","05","10:00","6.4","","2.6","","77","","30","","24","","40.2","","98.92","","","","","","Mostly Cloudy"
"1983-05-05 11:00","1983","05","05","11:00","8.2","","2.9","","69","","29","","22","","40.2","","98.96","","","","","","Mostly Cloudy"
"1983-05-05 12:00","1983","05","05","12:00","9.8","","5.3","","74","","28","","19","","40.2","","98.99","","","","","","Mostly Cloudy"
"1983-05-05 13:00","1983","05","05","13:00","10.4","","3.1","","61","","30","","28","","40.2","","99.02","","","","","","Mostly Cloudy"
"1983-05-05 14:00","1983","05","05","14:00","10.2","","0.8","","52","","30","","26","","40.2","","99.09","","","","","","Mainly Clear"
"1983-05-05 15:00","1983","05","05","15:00","10.5","","1.0","","52","","29","","33","","40.2","","99.12","","","","","","Mainly Clear"
"1983-05-05 16:00","1983","05","05","16:00","10.0","","1.4","","55","","29","","31","","40.2","","99.22","","","","","","Mainly Clear"
"1983-05-05 17:00","1983","05","05","17:00","9.4","","0.7","","55","","29","","31","","40.2","","99.32","","","","","","Mainly Clear"
"1983-05-05 18:00","1983","05","05","18:00","8.0","","-2.6","","47","","30","","28","","40.2","","99.39","","","","","","Clear"
"1983-05-05 19:00","1983","05","05","19:00","7.0","","-2.2","","52","","31","","20","","40.2","","99.46","","","","","","Clear"
"1983-05-05 20:00","1983","05","05","20:00","5.1","","-3.1","","55","","30","","15","","25.0","","99.56","","","","","","Clear"
"1983-05-05 21:00","1983","05","05","21:00","4.1","","-3.8","","56","","30","","15","","25.0","","99.66","","","","","","Clear"
"1983-05-05 22:00","1983","05","05","22:00","3.0","","-3.2","","64","","29","","13","","25.0","","99.69","","","","","","Clear"
"1983-05-05 23:00","1983","05","05","23:00","2.2","","-3.2","","67","","30","","9","","25.0","","99.72","","","","","","Clear"
"1983-05-06 00:00","1983","05","06","00:00","1.6","","-2.4","","75","","31","","13","","25.0","","99.76","","","","","","Clear"
"1983-05-06 01:00","1983","05","06","01:00","1.5","","-2.4","","75","","20","","9","","25.0","","99.79","","","","","","Clear"
"1983-05-06 02:00","1983","05","06","02:00","1.0","","-2.4","","78","","24","","7","","25.0","","99.79","","","","","","Clear"
"1983-05-06 03:00","1983","05","06","03:00","0.9","","-2.4","","79","","","","0","","25.0","","99.82","","","","","","Clear"
"1983-05-06 04:00","1983","05","06","04:00","0.6","","-2.5","","80","","24","","4","","25.0","","99.86","","","","","","Clear"
"1983-05-06 05:00","1983","05","06","05:00","0.2","","-2.3","","83","","27","","7","","25.0","","99.96","","","","","","Clear"
"1983-05-06 06:00","1983","05","06","06:00","1.0","","-1.9","","81","","","","0","","32.2","","99.96","","","","","","Clear"
"1983-05-06 07:00","1983","05","06","07:00","4.1","","-0.3","","73","","","","0","","32.2","","99.99","","","","","","Clear"
"1983-05-06 08:00","1983","05","06","08:00","6.7","","-5.6","","41","","18","","11","","32.2","","99.99","","","","","","Mainly Clear"
"1983-05-06 09:00","1983","05","06","09:00","8.5","","-1.3","","50","","18","","11","","32.2","","100.02","","","","","","Mainly Clear"
"1983-05-06 10:00","1983","05","06","10:00","9.5","","0.2","","52","","18","","15","","32.2","","100.02","","","","","","Mainly Clear"
"1983-05-06 11:00","1983","05","06","11:00","11.3","","2.8","","56","","17","","15","","32.2","","99.99","","","","","","Mainly Clear"
"1983-05-06 12:00","1983","05","06","12:00","11.7","","2.3","","52","","15","","19","","32.2","","99.96","","","","","","Mostly Cloudy"
"1983-05-06 13:00","1983","05","06","13:00","12.7","","2.1","","48","","16","","19","","32.2","","99.86","","","","","","Mostly Cloudy"
"1983-05-06 14:00","1983","05","06","14:00","12.8","","2.8","","51","","16","","22","","32.2","","99.82","","","","","","Mostly Cloudy"
"1983-05-06 15:00","1983","05","06","15:00","13.0","","2.8","","50","","15","","20","","32.2","","99.76","","","","","","Mostly Cloudy"
"1983-05-06 16:00","1983","05","06","16:00","12.2","","2.0","","50","","14","","17","","19.3","","99.69","","","","","","Mostly Cloudy"
"1983-05-06 17:00","1983","05","06","17:00","11.1","","5.1","","67","","14","","17","","16.1","","99.69","","","","","","Mostly Cloudy"
"1983-05-06 18:00","1983","05","06","18:00","9.1","","2.7","","64","","14","","11","","16.1","","99.69","","","","","","Rain Showers"
"1983-05-06 19:00","1983","05","06","19:00","8.4","","3.5","","71","","11","","17","","16.1","","99.62","","","","","","Cloudy"
"1983-05-06 20:00","1983","05","06","20:00","7.7","","3.3","","73","","12","","13","","25.0","","99.59","","","","","","Mostly Cloudy"
"1983-05-06 21:00","1983","05","06","21:00","8.2","","3.9","","74","","12","","15","","25.0","","99.59","","","","","","Cloudy"
"1983-05-06 22:00","1983","05","06","22:00","8.4","","4.0","","74","","11","","15","","25.0","","99.52","","","","","","Cloudy"
"1983-05-06 23:00","1983","05","06","23:00","8.4","","2.0","","64","","8","","9","","25.0","","99.46","","","","","","Mostly Cloudy"
"1983-05-07 00:00","1983","05","07","00:00","7.9","","2.4","","68","","6","","6","","25.0","","99.39","","","","","","Mostly Cloudy"
"1983-05-07 01:00","1983","05","07","01:00","7.5","","1.8","","67","","14","","6","","25.0","","99.29","","","","","","Mainly Clear"
"1983-05-07 02:00","1983","05","07","02:00","7.2","","1.2","","66","","","","0","","25.0","","99.22","","","","","","Mostly Cloudy"
"1983-05-07 03:00","1983","05","07","03:00","7.1","","3.2","","76","","","","0","","25.0","","99.12","","","","","","Mostly Cloudy"
"1983-05-07 04:00","1983","05","07","04:00","7.4","","4.6","","83","","","","0","","25.0","","99.02","","","","","","Mostly Cloudy"
"1983-05-07 05:00","1983","05","07","05:00","8.1","","3.9","","75","","","","0","","25.0","","98.99","","","","","","Cloudy"
"1983-05-07 06:00","1983","05","07","06:00","7.8","","4.8","","81","","","","0","","19.3","","98.96","","","","","","Cloudy"
"1983-05-07 07:00","1983","05","07","07:00","8.6","","5.3","","80","","15","","7","","32.2","","98.92","","","","","","Cloudy"
"1983-05-07 08:00","1983","05","07","08:00","11.5","","4.8","","63","","18","","9","","32.2","","98.89","","","","","","Cloudy"
"1983-05-07 09:00","1983","05","07","09:00","13.3","","6.3","","63","","17","","11","","32.2","","98.82","","","","","","Cloudy"
"1983-05-07 10:00","1983","05","07","10:00","15.8","","7.7","","59","","15","","11","","32.2","","98.79","","","","","","Cloudy"
"1983-05-07 11:00","1983","05","07","11:00","21.5","","8.3","","43","","22","","30","","32.2","","98.69","","","","","","Cloudy"
"1983-05-07 12:00","1983","05","07","12:00","21.8","","9.8","","46","","21","","35","","32.2","","98.59","","","","","","Rain Showers"
"1983-05-07 13:00","1983","05","07","13:00","22.4","","8.8","","42","","22","","44","","32.2","","98.59","","","","","","Cloudy"
"1983-05-07 14:00","1983","05","07","14:00","21.8","","9.8","","46","","23","","59","","24.1","","98.52","","","","","","Cloudy"
"1983-05-07 15:00","1983","05","07","15:00","20.4","","10.4","","53","","24","","33","","16.1","","98.52","","","","","","Cloudy"
"1983-05-07 16:00","1983","05","07","16:00","20.8","","11.4","","55","","23","","43","","19.3","","98.42","","","","","","Cloudy"
"1983-05-07 17:00","1983","05","07","17:00","20.4","","10.4","","53","","24","","39","","16.1","","98.42","","","","","","Cloudy"
"1983-05-07 18:00","1983","05","07","18:00","19.4","","9.1","","51","","23","","44","","16.1","","98.52","","","","","","Cloudy"
"1983-05-07 19:00","1983","05","07","19:00","17.1","","10.9","","67","","24","","41","","16.1","","98.56","","","","","","Cloudy"
"1983-05-07 20:00","1983","05","07","20:00","15.7","","12.2","","80","","24","","37","","16.1","","98.59","","","","","","Rain Showers"
"1983-05-07 21:00","1983","05","07","21:00","15.0","","13.0","","88","","24","","19","","16.1","","98.52","","","","","","Rain Showers"
"1983-05-07 22:00","1983","05","07","22:00","15.0","","13.4","","90","","24","","19","","16.1","","98.49","","","","","","Rain Showers"
"1983-05-07 23:00","1983","05","07","23:00","15.1","","12.3","","83","","24","","35","","16.1","","98.36","","","","","","Rain Showers"
"1983-05-08 00:00","1983","05","08","00:00","14.8","","12.7","","88","","23","","31","","12.9","","98.26","","","","","","Rain"
"1983-05-08 01:00","1983","05","08","01:00","14.5","","12.8","","89","","22","","19","","12.9","","98.26","","","","","","Rain"
"1983-05-08 02:00","1983","05","08","02:00","14.1","","12.7","","91","","23","","7","","11.3","","98.22","","","","","","Cloudy"
"1983-05-08 03:00","1983","05","08","03:00","6.5","","6.1","","97","","36","","31","","9.7","","98.29","","","","","","Rain,Fog"
"1983-05-08 04:00","1983","05","08","04:00","5.0","","5.0","","100","","34","","33","","9.7","","98.32","","","","","","Rain,Fog"
"1983-05-08 05:00","1983","05","08","05:00","4.9","","4.9","","100","","35","","28","","9.7","","98.36","","","","","","Rain,Fog"
"1983-05-08 06:00","1983","05","08","06:00","4.0","","3.6","","97","","36","","33","","6.4","","98.49","","","","","","Rain,Fog"
"1983-05-08 07:00","1983","05","08","07:00","3.9","","3.1","","95","","35","","37","","24.1","","98.66","","","","","","Rain"
"1983-05-08 08:00","1983","05","08","08:00","3.1","","2.1","","93","","35","","39","","19.3","","98.79","","","","","","Rain"
"1983-05-08 09:00","1983","05","08","09:00","2.3","","1.6","","95","","35","","35","","19.3","","98.89","","","","","","Rain,Ice Pellets"
"1983-05-08 10:00","1983","05","08","10:00","2.6","","0.6","","87","","34","","35","","24.1","","99.06","","","","","","Cloudy"
"1983-05-08 11:00","1983","05","08","11:00","3.1","","0.2","","81","","34","","33","","24.1","","99.19","","","","","","Cloudy"
"1983-05-08 12:00","1983","05","08","12:00","4.1","","0.3","","76","","34","","37","","32.2","","99.22","","","","","","Cloudy"
"1983-05-08 13:00","1983","05","08","13:00","4.8","","1.4","","79","","34","","31","","32.2","","99.29","","","","","","Cloudy"
"1983-05-08 14:00","1983","05","08","14:00","6.7","","2.6","","75","","34","","35","","40.2","","99.32","","","","","","Mostly Cloudy"
"1983-05-08 15:00","1983","05","08","15:00","7.3","","2.3","","71","","34","","37","","40.2","","99.39","","","","","","Mainly Clear"
"1983-05-08 16:00","1983","05","08","16:00","6.9","","1.7","","70","","34","","33","","40.2","","99.46","","","","","","Mainly Clear"
"1983-05-08 17:00","1983","05","08","17:00","6.3","","0.1","","65","","34","","33","","40.2","","99.52","","","","","","Mainly Clear"
"1983-05-08 18:00","1983","05","08","18:00","5.6","","-2.4","","56","","33","","35","","40.2","","99.59","","","","","","Mainly Clear"
"1983-05-08 19:00","1983","05","08","19:00","4.6","","-3.1","","57","","33","","37","","40.2","","99.62","","","","","","Mainly Clear"
"1983-05-08 20:00","1983","05","08","20:00","3.1","","-3.8","","60","","33","","30","","25.0","","99.76","","","","","","Mainly Clear"
"1983-05-08 21:00","1983","05","08","21:00","2.4","","-3.2","","66","","33","","24","","25.0","","99.82","","","","","","Clear"
"1983-05-08 22:00","1983","05","08","22:00","1.8","","-2.6","","73","","33","","20","","25.0","","99.86","","","","","","Clear"
"1983-05-08 23:00","1983","05","08","23:00","1.4","","-2.1","","77","","35","","17","","25.0","","99.86","","","","","","Clear"
"1983-05-09 00:00","1983","05","09","00:00","0.9","","-3.0","","75","","35","","15","","25.0","","99.89","","","","","","Clear"
"1983-05-09 01:00","1983","05","09","01:00","0.8","","-3.6","","72","","34","","15","","25.0","","99.89","","","","","","Clear"
"1983-05-09 02:00","1983","05","09","02:00","0.5","","-3.7","","73","","35","","17","","25.0","","99.89","","","","","","Clear"
"1983-05-09 03:00","1983","05","09","03:00","0.0","","-4.0","","74","","35","","15","","25.0","","99.92","","","","-4","","Clear"
"1983-05-09 04:00","1983","05","09","04:00","-1.0","","-4.1","","79","","33","","15","","25.0","","99.96","","","","-6","","Clear"
"1983-05-09 05:00","1983","05","09","05:00","-0.6","","-4.7","","74","","33","","17","","25.0","","99.96","","","","-6","","Clear"
"1983-05-09 06:00","1983","05","09","06:00","-0.5","","-4.4","","75","","33","","17","","40.2","","99.99","","","","-5","","Clear"
"1983-05-09 07:00","1983","05","09","07:00","0.5","","-4.3","","70","","34","","24","","40.2","","100.06","","","","","","Clear"
"1983-05-09 08:00","1983","05","09","08:00","1.6","","-3.5","","69","","34","","26","","40.2","","100.09","","","","","","Clear"
"1983-05-09 09:00","1983","05","09","09:00","3.2","","-2.6","","65","","34","","28","","40.2","","100.09","","","","","","Mainly Clear"
"1983-05-09 10:00","1983","05","09","10:00","4.9","","-3.7","","54","","33","","31","","40.2","","100.09","","","","","","Mainly Clear"
"1983-05-09 11:00","1983","05","09","11:00","4.9","","-3.7","","54","","34","","30","","40.2","","100.09","","","","","","Mainly Clear"
"1983-05-09 12:00","1983","05","09","12:00","5.8","","-3.6","","51","","32","","30","","40.2","","100.06","","","","","","Mainly Clear"
"1983-05-09 13:00","1983","05","09","13:00","6.8","","-1.5","","55","","35","","35","","40.2","","100.02","","","","","","Mainly Clear"
"1983-05-09 14:00","1983","05","09","14:00","7.6","","-0.3","","57","","34","","31","","40.2","","100.02","","","","","","Mainly Clear"
"1983-05-09 15:00","1983","05","09","15:00","7.6","","-0.9","","55","","35","","30","","40.2","","99.99","","","","","","Clear"
"1983-05-09 16:00","1983","05","09","16:00","7.9","","-2.6","","47","","34","","30","","40.2","","99.96","","","","","","Clear"
"1983-05-09 17:00","1983","05","09","17:00","7.6","","-4.7","","41","","32","","24","","40.2","","99.99","","","","","","Clear"
"1983-05-09 18:00","1983","05","09","18:00","7.6","","-4.0","","43","","31","","24","","40.2","","100.02","","","","","","Clear"
"1983-05-09 19:00","1983","05","09","19:00","6.5","","-4.2","","46","","32","","19","","40.2","","100.06","","","","","","Clear"
"1983-05-09 20:00","1983","05","09","20:00","4.8","","-3.1","","57","","30","","20","","25.0","","100.06","","","","","","Clear"
"1983-05-09 21:00","1983","05","09","21:00","3.8","","-2.5","","63","","28","","15","","25.0","","100.09","","","","","","Clear"
"1983-05-09 22:00","1983","05","09","22:00","2.8","","-3.2","","65","","30","","19","","25.0","","100.09","","","","","","Clear"
"1983-05-09 23:00","1983","05","09","23:00","2.5","","-3.9","","63","","30","","13","","25.0","","100.09","","","","","","Clear"
"1983-05-10 00:00","1983","05","10","00:00","1.6","","-4.1","","66","","30","","11","","25.0","","100.09","","","","","","Clear"
"1983-05-10 01:00","1983","05","10","01:00","1.9","","-4.0","","65","","31","","15","","25.0","","100.09","","","","","","Clear"
"1983-05-10 02:00","1983","05","10","02:00","1.9","","-3.4","","68","","31","","19","","25.0","","100.06","","","","","","Clear"
"1983-05-10 03:00","1983","05","10","03:00","1.5","","-3.5","","69","","28","","20","","25.0","","99.99","","","","","","Clear"
"1983-05-10 04:00","1983","05","10","04:00","1.9","","-3.2","","69","","30","","24","","25.0","","100.02","","","","","","Clear"
"1983-05-10 05:00","1983","05","10","05:00","1.9","","-2.6","","72","","28","","22","","32.2","","100.06","","","","","","Clear"
"1983-05-10 06:00","1983","05","10","06:00","2.0","","-2.6","","71","","29","","19","","40.2","","100.09","","","","","","Clear"
"1983-05-10 07:00","1983","05","10","07:00","4.3","","-0.8","","70","","29","","22","","40.2","","100.16","","","","","","Mainly Clear"
"1983-05-10 08:00","1983","05","10","08:00","6.8","","-1.0","","58","","30","","26","","40.2","","100.19","","","","","","Mainly Clear"
"1983-05-10 09:00","1983","05","10","09:00","8.7","","-1.3","","49","","31","","37","","40.2","","100.19","","","","","","Clear"
"1983-05-10 10:00","1983","05","10","10:00","10.5","","-0.8","","45","","31","","26","","40.2","","100.16","","","","","","Clear"
"1983-05-10 11:00","1983","05","10","11:00","12.0","","-2.2","","37","","32","","30","","40.2","","100.16","","","","","","Mainly Clear"
"1983-05-10 12:00","1983","05","10","12:00","13.0","","-2.6","","34","","34","","26","","40.2","","100.09","","","","","","Mainly Clear"
"1983-05-10 13:00","1983","05","10","13:00","14.0","","-4.4","","28","","32","","35","","40.2","","100.09","","","","","","Mainly Clear"
"1983-05-10 14:00","1983","05","10","14:00","14.7","","-4.2","","27","","33","","22","","40.2","","100.09","","","","","","Mainly Clear"
"1983-05-10 15:00","1983","05","10","15:00","14.4","","-3.4","","29","","1","","30","","40.2","","100.09","","","","","","Mainly Clear"
"1983-05-10 16:00","1983","05","10","16:00","14.0","","-3.6","","29","","35","","33","","40.2","","100.12","","","","","","Mainly Clear"
"1983-05-10 17:00","1983","05","10","17:00","13.9","","-3.6","","29","","36","","24","","40.2","","100.16","","","","","","Mainly Clear"
"1983-05-10 18:00","1983","05","10","18:00","13.5","","-2.4","","33","","33","","20","","40.2","","100.16","","","","","","Clear"
"1983-05-10 19:00","1983","05","10","19:00","12.8","","-3.3","","33","","33","","17","","40.2","","100.16","","","","","","Mostly Cloudy"
"1983-05-10 20:00","1983","05","10","20:00","9.9","","-2.1","","43","","32","","6","","25.0","","100.19","","","","","","Mostly Cloudy"
"1983-05-10 21:00","1983","05","10","21:00","8.5","","-1.9","","48","","33","","7","","25.0","","100.26","","","","","","Mainly Clear"
"1983-05-10 22:00","1983","05","10","22:00","7.8","","-0.8","","55","","28","","7","","25.0","","100.29","","","","","","Mainly Clear"
"1983-05-10 23:00","1983","05","10","23:00","7.2","","-0.4","","58","","31","","11","","25.0","","100.32","","","","","","Mainly Clear"
"1983-05-11 00:00","1983","05","11","00:00","6.5","","0.1","","64","","2","","4","","25.0","","100.32","","","","","","Mainly Clear"
"1983-05-11 01:00","1983","05","11","01:00","4.9","","0.4","","73","","3","","7","","25.0","","100.36","","","","","","Mainly Clear"
"1983-05-11 02:00","1983","05","11","02:00","3.7","","-0.3","","75","","1","","7","","25.0","","100.36","","","","","","Mainly Clear"
"1983-05-11 03:00","1983","05","11","03:00","3.3","","0.2","","80","","34","","9","","25.0","","100.36","","","","","","Clear"
"1983-05-11 04:00","1983","05","11","04:00","2.6","","-1.5","","74","","36","","7","","25.0","","100.32","","","","","","Mainly Clear"
"1983-05-11 05:00","1983","05","11","05:00","2.4","","-0.9","","79","","33","","7","","32.2","","100.32","","","","","","Mainly Clear"
"1983-05-11 06:00","1983","05","11","06:00","3.1","","-0.9","","75","","32","","13","","32.2","","100.39","","","","","","Mainly Clear"
"1983-05-11 07:00","1983","05","11","07:00","6.5","","0.1","","64","","34","","15","","32.2","","100.46","","","","","","Mainly Clear"
"1983-05-11 08:00","1983","05","11","08:00","9.2","","0.6","","55","","36","","15","","32.2","","100.49","","","","","","Clear"
"1983-05-11 09:00","1983","05","11","09:00","11.4","","1.8","","52","","3","","7","","32.2","","100.46","","","","","","Clear"
"1983-05-11 10:00","1983","05","11","10:00","13.5","","3.0","","49","","13","","11","","32.2","","100.49","","","","","","Clear"
"1983-05-11 11:00","1983","05","11","11:00","11.8","","3.0","","55","","15","","17","","32.2","","100.52","","","","","","Clear"
"1983-05-11 12:00","1983","05","11","12:00","12.1","","3.5","","56","","15","","15","","32.2","","100.49","","","","","","Clear"
"1983-05-11 13:00","1983","05","11","13:00","13.7","","1.9","","45","","18","","4","","32.2","","100.46","","","","","","Clear"
"1983-05-11 14:00","1983","05","11","14:00","13.3","","3.5","","52","","15","","19","","32.2","","100.42","","","","","","Clear"
"1983-05-11 15:00","1983","05","11","15:00","13.4","","3.5","","51","","15","","15","","32.2","","100.36","","","","","","Clear"
"1983-05-11 16:00","1983","05","11","16:00","14.6","","2.8","","45","","15","","15","","32.2","","100.29","","","","","","Mainly Clear"
"1983-05-11 17:00","1983","05","11","17:00","13.5","","3.0","","49","","16","","19","","32.2","","100.32","","","","","","Mainly Clear"
"1983-05-11 18:00","1983","05","11","18:00","13.8","","1.5","","43","","18","","13","","32.2","","100.29","","","","","","Mainly Clear"
"1983-05-11 19:00","1983","05","11","19:00","13.4","","1.9","","46","","20","","11","","32.2","","100.29","","","","","","Mainly Clear"
"1983-05-11 20:00","1983","05","11","20:00","12.2","","-0.3","","42","","","","0","","25.0","","100.29","","","","","","Mainly Clear"
"1983-05-11 21:00","1983","05","11","21:00","11.3","","0.7","","48","","12","","4","","25.0","","100.29","","","","","","Mainly Clear"
"1983-05-11 22:00","1983","05","11","22:00","11.0","","0.6","","49","","","","0","","25.0","","100.29","","","","","","Mainly Clear"
"1983-05-11 23:00","1983","05","11","23:00","10.4","","2.0","","56","","15","","6","","25.0","","100.32","","","","","","Clear"
"1983-05-12 00:00","1983","05","12","00:00","9.2","","2.2","","62","","","","0","","25.0","","100.36","","","","","","Clear"
"1983-05-12 01:00","1983","05","12","01:00","6.4","","3.5","","82","","28","","6","","25.0","","100.36","","","","","","Clear"
"1983-05-12 02:00","1983","05","12","02:00","5.1","","1.9","","80","","","","0","","25.0","","100.29","","","","","","Clear"
"1983-05-12 03:00","1983","05","12","03:00","4.2","","1.3","","81","","3","","4","","25.0","","100.29","","","","","","Clear"
"1983-05-12 04:00","1983","05","12","04:00","3.4","","0.7","","83","","2","","4","","25.0","","100.26","","","","","","Clear"
"1983-05-12 05:00","1983","05","12","05:00","2.8","","0.2","","83","","3","","6","","16.1","","100.26","","","","","","Clear"
"1983-05-12 06:00","1983","05","12","06:00","4.2","","2.2","","87","","34","","6","","16.1","","100.32","","","","","","Clear"
"1983-05-12 07:00","1983","05","12","07:00","7.6","","4.6","","81","","3","","6","","19.3","","100.39","","","","","","Mostly Cloudy"
"1983-05-12 08:00","1983","05","12","08:00","10.6","","4.5","","66","","11","","6","","19.3","","100.42","","","","","","Cloudy"
"1983-05-12 09:00","1983","05","12","09:00","12.8","","4.8","","58","","16","","7","","19.3","","100.39","","","","","","Cloudy"
"1983-05-12 10:00","1983","05","12","10:00","13.6","","4.5","","54","","15","","15","","19.3","","100.39","","","","","","Cloudy"
"1983-05-12 11:00","1983","05","12","11:00","14.1","","4.2","","51","","16","","11","","24.1","","100.36","","","","","","Cloudy"
"1983-05-12 12:00","1983","05","12","12:00","14.7","","3.3","","46","","16","","13","","32.2","","100.36","","","","","","Cloudy"
"1983-05-12 13:00","1983","05","12","13:00","16.0","","4.9","","48","","15","","7","","32.2","","100.29","","","","","","Mostly Cloudy"
"1983-05-12 14:00","1983","05","12","14:00","15.5","","4.2","","47","","15","","13","","32.2","","100.26","","","","","","Mainly Clear"
"1983-05-12 15:00","1983","05","12","15:00","15.0","","4.0","","48","","16","","15","","32.2","","100.26","","","","","","Mainly Clear"
"1983-05-12 16:00","1983","05","12","16:00","14.6","","2.8","","45","","15","","17","","32.2","","100.19","","","","","","Mainly Clear"
"1983-05-12 17:00","1983","05","12","17:00","14.1","","3.2","","48","","14","","19","","40.2","","100.22","","","","","","Mainly Clear"
"1983-05-12 18:00","1983","05","12","18:00","13.4","","1.9","","46","","15","","11","","40.2","","100.19","","","","","","Mostly Cloudy"
"1983-05-12 19:00","1983","05","12","19:00","12.8","","3.3","","52","","16","","6","","40.2","","100.19","","","","","","Mostly Cloudy"
"1983-05-12 20:00","1983","05","12","20:00","10.9","","3.7","","61","","","","0","","25.0","","100.19","","","","","","Mainly Clear"
"1983-05-12 21:00","1983","05","12","21:00","10.5","","3.5","","62","","","","0","","25.0","","100.22","","","","","","Mainly Clear"
"1983-05-12 22:00","1983","05","12","22:00","9.4","","3.3","","66","","","","0","","25.0","","100.22","","","","","","Clear"
"1983-05-12 23:00","1983","05","12","23:00","9.0","","3.2","","67","","4","","6","","25.0","","100.22","","","","","","Clear"
"1983-05-13 00:00","1983","05","13","00:00","8.3","","3.5","","72","","","","0","","25.0","","100.26","","","","","","Clear"
"1983-05-13 01:00","1983","05","13","01:00","6.9","","5.0","","88","","","","0","","25.0","","100.22","","","","","","Clear"
"1983-05-13 02:00","1983","05","13","02:00","6.1","","3.9","","86","","","","0","","25.0","","100.22","","","","","","Clear"
"1983-05-13 03:00","1983","05","13","03:00","5.5","","3.4","","86","","32","","4","","25.0","","100.16","","","","","","Clear"
"1983-05-13 04:00","1983","05","13","04:00","4.4","","2.3","","86","","34","","6","","25.0","","100.16","","","","","","Clear"
"1983-05-13 05:00","1983","05","13","05:00","3.4","","1.2","","86","","36","","6","","16.1","","100.16","","","","","","Mainly Clear"
"1983-05-13 06:00","1983","05","13","06:00","3.7","","1.2","","84","","35","","6","","16.1","","100.19","","","","","","Mainly Clear"
"1983-05-13 07:00","1983","05","13","07:00","10.1","","4.4","","68","","1","","2","","16.1","","100.19","","","","","","Mainly Clear"
"1983-05-13 08:00","1983","05","13","08:00","13.1","","3.8","","53","","","","0","","19.3","","100.19","","","","","","Mainly Clear"
"1983-05-13 09:00","1983","05","13","09:00","15.6","","4.7","","48","","18","","4","","24.1","","100.19","","","","","","Mainly Clear"
"1983-05-13 10:00","1983","05","13","10:00","17.1","","4.3","","43","","","","0","","24.1","","100.19","","","","","","Mainly Clear"
"1983-05-13 11:00","1983","05","13","11:00","17.9","","5.3","","43","","15","","13","","24.1","","100.16","","","","","","Mainly Clear"
"1983-05-13 12:00","1983","05","13","12:00","18.1","","4.8","","41","","17","","9","","24.1","","100.09","","","","","","Mainly Clear"
"1983-05-13 13:00","1983","05","13","13:00","19.3","","4.9","","39","","15","","13","","32.2","","100.06","","","","","","Mainly Clear"
"1983-05-13 14:00","1983","05","13","14:00","19.1","","4.2","","37","","15","","13","","32.2","","100.02","","","","","","Mainly Clear"
"1983-05-13 15:00","1983","05","13","15:00","19.5","","3.9","","36","","14","","13","","40.2","","99.92","","","","","","Mostly Cloudy"
"1983-05-13 16:00","1983","05","13","16:00","19.5","","4.4","","37","","13","","15","","40.2","","99.86","","","","","","Mostly Cloudy"
"1983-05-13 17:00","1983","05","13","17:00","19.7","","3.9","","35","","13","","13","","40.2","","99.79","","","","","","Mainly Clear"
"1983-05-13 18:00","1983","05","13","18:00","19.2","","4.2","","37","","13","","13","","40.2","","99.72","","","","","","Mainly Clear"
"1983-05-13 19:00","1983","05","13","19:00","18.0","","4.8","","42","","13","","11","","40.2","","99.69","","","","","","Mainly Clear"
"1983-05-13 20:00","1983","05","13","20:00","16.0","","4.4","","46","","12","","9","","25.0","","99.66","","","","","","Mostly Cloudy"
"1983-05-13 21:00","1983","05","13","21:00","15.6","","4.2","","47","","12","","11","","25.0","","99.66","","","","","","Mainly Clear"
"1983-05-13 22:00","1983","05","13","22:00","15.2","","4.0","","47","","11","","7","","25.0","","99.59","","","","","","Mainly Clear"
"1983-05-13 23:00","1983","05","13","23:00","14.8","","5.5","","54","","9","","7","","25.0","","99.59","","","","","","Clear"
"1983-05-14 00:00","1983","05","14","00:00","14.1","","5.1","","55","","28","","4","","25.0","","99.59","","","","","","Clear"
"1983-05-14 01:00","1983","05","14","01:00","11.3","","7.0","","75","","33","","4","","25.0","","99.59","","","","","","Clear"
"1983-05-14 02:00","1983","05","14","02:00","9.9","","6.1","","77","","","","0","","25.0","","99.46","","","","","","Clear"
"1983-05-14 03:00","1983","05","14","03:00","8.6","","4.9","","77","","33","","6","","25.0","","99.46","","","","","","Clear"
"1983-05-14 04:00","1983","05","14","04:00","7.7","","3.3","","73","","","","0","","25.0","","99.39","","","","","","Clear"
"1983-05-14 05:00","1983","05","14","05:00","6.0","","2.0","","75","","6","","7","","16.1","","99.29","","","","","","Mostly Cloudy"
"1983-05-14 06:00","1983","05","14","06:00","6.6","","4.0","","83","","32","","4","","16.1","","99.32","","","","","","Mostly Cloudy"
"1983-05-14 07:00","1983","05","14","07:00","9.5","","7.2","","86","","","","0","","32.2","","99.32","","","","","","Cloudy"
"1983-05-14 08:00","1983","05","14","08:00","14.6","","8.0","","65","","12","","6","","24.1","","99.29","","","","","","Cloudy"
"1983-05-14 09:00","1983","05","14","09:00","16.8","","7.6","","55","","15","","13","","32.2","","99.26","","","","","","Mostly Cloudy"
"1983-05-14 10:00","1983","05","14","10:00","17.4","","8.3","","55","","14","","13","","32.2","","99.19","","","","","","Mostly Cloudy"
"1983-05-14 11:00","1983","05","14","11:00","17.4","","8.3","","55","","14","","15","","32.2","","99.16","","","","","","Mostly Cloudy"
"1983-05-14 12:00","1983","05","14","12:00","14.7","","7.5","","62","","15","","13","","32.2","","99.12","","","","","","Cloudy"
"1983-05-14 13:00","1983","05","14","13:00","16.8","","8.5","","58","","13","","13","","24.1","","98.99","","","","","","Cloudy"
"1983-05-14 14:00","1983","05","14","14:00","18.4","","8.3","","52","","14","","15","","32.2","","98.92","","","","","","Cloudy"
"1983-05-14 15:00","1983","05","14","15:00","16.8","","8.3","","57","","15","","19","","24.1","","98.82","","","","","","Cloudy"
"1983-05-14 16:00","1983","05","14","16:00","17.0","","8.9","","59","","14","","19","","24.1","","98.76","","","","","","Cloudy"
"1983-05-14 17:00","1983","05","14","17:00","14.6","","8.0","","65","","17","","13","","24.1","","98.69","","","","","","Cloudy"
"1983-05-14 18:00","1983","05","14","18:00","14.2","","8.2","","67","","15","","9","","24.1","","98.59","","","","","","Cloudy"
"1983-05-14 19:00","1983","05","14","19:00","13.5","","9.2","","75","","16","","7","","12.9","","98.52","","","","","","Rain Showers"
"1983-05-14 20:00","1983","05","14","20:00","12.5","","11.1","","91","","14","","7","","6.4","","98.52","","","","","","Rain Showers,Fog"
"1983-05-14 21:00","1983","05","14","21:00","12.7","","11.8","","94","","15","","7","","4.8","","98.46","","","","","","Rain Showers,Fog"
"1983-05-14 22:00","1983","05","14","22:00","13.1","","12.7","","97","","26","","9","","2.0","","98.42","","","","","","Moderate Rain Showers,Fog"
"1983-05-14 23:00","1983","05","14","23:00","13.1","","12.7","","97","","19","","7","","3.2","","98.39","","","","","","Rain Showers,Fog"
"1983-05-15 00:00","1983","05","15","00:00","12.9","","12.3","","96","","31","","20","","6.4","","98.42","","","","","","Rain Showers,Fog"
"1983-05-15 01:00","1983","05","15","01:00","12.2","","11.7","","97","","32","","13","","8.0","","98.42","","","","","","Rain Showers,Fog"
"1983-05-15 02:00","1983","05","15","02:00","12.5","","11.5","","94","","30","","17","","16.1","","98.42","","","","","","Cloudy"
"1983-05-15 03:00","1983","05","15","03:00","12.4","","11.1","","92","","29","","19","","25.0","","98.56","","","","","","Cloudy"
"1983-05-15 04:00","1983","05","15","04:00","12.0","","10.2","","89","","30","","19","","25.0","","98.59","","","","","","Mostly Cloudy"
"1983-05-15 05:00","1983","05","15","05:00","11.5","","9.7","","89","","31","","19","","19.3","","98.72","","","","","","Mainly Clear"
"1983-05-15 06:00","1983","05","15","06:00","9.4","","6.8","","84","","32","","19","","32.2","","98.72","","","","","","Mostly Cloudy"
"1983-05-15 07:00","1983","05","15","07:00","8.0","","4.3","","77","","34","","9","","32.2","","98.76","","","","","","Mostly Cloudy"
"1983-05-15 08:00","1983","05","15","08:00","9.0","","4.5","","73","","28","","6","","40.2","","98.82","","","","","","Mostly Cloudy"
"1983-05-15 09:00","1983","05","15","09:00","9.2","","6.3","","82","","30","","24","","40.2","","98.82","","","","","","Cloudy"
"1983-05-15 10:00","1983","05","15","10:00","9.3","","6.8","","84","","31","","11","","32.2","","98.89","","","","","","Rain Showers"
"1983-05-15 11:00","1983","05","15","11:00","9.0","","6.7","","86","","34","","20","","32.2","","98.92","","","","","","Cloudy"
"1983-05-15 12:00","1983","05","15","12:00","9.6","","7.2","","85","","32","","22","","32.2","","99.02","","","","","","Rain Showers"
"1983-05-15 13:00","1983","05","15","13:00","10.3","","6.7","","79","","33","","20","","32.2","","98.99","","","","","","Cloudy"
"1983-05-15 14:00","1983","05","15","14:00","11.4","","6.5","","72","","35","","31","","32.2","","98.96","","","","","","Cloudy"
"1983-05-15 15:00","1983","05","15","15:00","11.4","","5.7","","68","","35","","13","","32.2","","99.02","","","","","","Cloudy"
"1983-05-15 16:00","1983","05","15","16:00","11.0","","5.1","","67","","33","","26","","40.2","","99.02","","","","","","Cloudy"
"1983-05-15 17:00","1983","05","15","17:00","11.3","","5.2","","66","","34","","19","","40.2","","99.02","","","","","","Cloudy"
"1983-05-15 18:00","1983","05","15","18:00","10.7","","2.6","","57","","33","","19","","40.2","","99.09","","","","","","Cloudy"
"1983-05-15 19:00","1983","05","15","19:00","9.8","","1.4","","56","","34","","20","","40.2","","99.16","","","","","","Mostly Cloudy"
"1983-05-15 20:00","1983","05","15","20:00","7.8","","1.9","","66","","35","","13","","25.0","","99.26","","","","","","Mostly Cloudy"
"1983-05-15 21:00","1983","05","15","21:00","6.1","","2.0","","75","","32","","20","","25.0","","99.32","","","","","","Mainly Clear"
"1983-05-15 22:00","1983","05","15","22:00","4.7","","0.3","","73","","33","","11","","25.0","","99.39","","","","","","Mainly Clear"
"1983-05-15 23:00","1983","05","15","23:00","3.8","","1.7","","86","","33","","15","","25.0","","99.39","","","","","","Mainly Clear"
"1983-05-16 00:00","1983","05","16","00:00","4.1","","1.7","","84","","35","","15","","25.0","","99.42","","","","","","Mainly Clear"
"1983-05-16 01:00","1983","05","16","01:00","4.1","","0.8","","79","","35","","19","","25.0","","99.46","","","","","","Mostly Cloudy"
"1983-05-16 02:00","1983","05","16","02:00","3.5","","0.2","","79","","35","","17","","25.0","","99.46","","","","","","Mainly Clear"
"1983-05-16 03:00","1983","05","16","03:00","3.0","","0.7","","85","","35","","19","","25.0","","99.52","","","","","","Mainly Clear"
"1983-05-16 04:00","1983","05","16","04:00","2.6","","0.6","","87","","35","","19","","25.0","","99.59","","","","","","Mainly Clear"
"1983-05-16 05:00","1983","05","16","05:00","2.5","","0.1","","84","","36","","22","","32.2","","99.62","","","","","","Mainly Clear"
"1983-05-16 06:00","1983","05","16","06:00","2.4","","-1.5","","75","","36","","20","","32.2","","99.69","","","","","","Mainly Clear"
"1983-05-16 07:00","1983","05","16","07:00","3.5","","-2.0","","67","","1","","20","","40.2","","99.76","","","","","","Mostly Cloudy"
"1983-05-16 08:00","1983","05","16","08:00","4.6","","-3.8","","54","","5","","17","","40.2","","99.86","","","","","","Mostly Cloudy"
"1983-05-16 09:00","1983","05","16","09:00","5.5","","-3.7","","51","","5","","17","","40.2","","99.79","","","","","","Mostly Cloudy"
"1983-05-16 10:00","1983","05","16","10:00","6.0","","-3.6","","50","","3","","19","","40.2","","99.79","","","","","","Cloudy"
"1983-05-16 11:00","1983","05","16","11:00","7.0","","-2.2","","52","","1","","19","","40.2","","99.79","","","","","","Cloudy"
"1983-05-16 12:00","1983","05","16","12:00","6.7","","-4.2","","45","","2","","20","","40.2","","99.79","","","","","","Cloudy"
"1983-05-16 13:00","1983","05","16","13:00","7.8","","-1.4","","52","","34","","6","","40.2","","99.79","","","","","","Mostly Cloudy"
"1983-05-16 14:00","1983","05","16","14:00","8.8","","-2.4","","45","","33","","15","","40.2","","99.79","","","","","","Mostly Cloudy"
"1983-05-16 15:00","1983","05","16","15:00","9.2","","-3.0","","42","","1","","17","","40.2","","99.76","","","","","","Mostly Cloudy"
"1983-05-16 16:00","1983","05","16","16:00","9.2","","-3.7","","40","","36","","28","","40.2","","99.72","","","","","","Mostly Cloudy"
"1983-05-16 17:00","1983","05","16","17:00","8.5","","-4.6","","39","","36","","24","","40.2","","99.76","","","","","","Mainly Clear"
"1983-05-16 18:00","1983","05","16","18:00","7.7","","-6.3","","36","","35","","22","","40.2","","99.76","","","","","","Mainly Clear"
"1983-05-16 19:00","1983","05","16","19:00","6.7","","-5.6","","41","","32","","22","","40.2","","99.79","","","","","","Mainly Clear"
"1983-05-16 20:00","1983","05","16","20:00","4.4","","-4.4","","53","","34","","19","","25.0","","99.82","","","","","","Mainly Clear"
"1983-05-16 21:00","1983","05","16","21:00","2.5","","-5.2","","57","","33","","13","","25.0","","99.86","","","","","","Mainly Clear"
"1983-05-16 22:00","1983","05","16","22:00","1.6","","-5.4","","60","","34","","13","","25.0","","99.89","","","","","","Mainly Clear"
"1983-05-16 23:00","1983","05","16","23:00","0.6","","-4.3","","70","","33","","13","","25.0","","99.96","","","","","","Clear"
"1983-05-17 00:00","1983","05","17","00:00","0.4","","-4.4","","70","","33","","15","","25.0","","99.96","","","","","","Clear"
"1983-05-17 01:00","1983","05","17","01:00","0.5","","-4.9","","67","","33","","13","","25.0","","99.99","","","","","","Clear"
"1983-05-17 02:00","1983","05","17","02:00","-0.3","","-5.1","","70","","34","","7","","25.0","","100.06","","","","-3","","Clear"
"1983-05-17 03:00","1983","05","17","03:00","-0.7","","-4.4","","76","","33","","15","","25.0","","100.09","","","","-5","","Clear"
"1983-05-17 04:00","1983","05","17","04:00","-0.6","","-4.4","","76","","34","","13","","25.0","","100.16","","","","-5","","Clear"
"1983-05-17 05:00","1983","05","17","05:00","-0.8","","-4.4","","76","","35","","11","","40.2","","100.22","","","","-5","","Clear"
"1983-05-17 06:00","1983","05","17","06:00","0.8","","-3.6","","72","","34","","15","","40.2","","100.29","","","","","","Clear"
"1983-05-17 07:00","1983","05","17","07:00","3.6","","-3.2","","61","","35","","15","","40.2","","100.36","","","","","","Clear"
"1983-05-17 08:00","1983","05","17","08:00","6.0","","-2.3","","55","","34","","9","","40.2","","100.36","","","","","","Clear"
"1983-05-17 09:00","1983","05","17","09:00","7.5","","-4.0","","44","","36","","9","","40.2","","100.39","","","","","","Clear"
"1983-05-17 10:00","1983","05","17","10:00","9.5","","-4.3","","37","","33","","4","","40.2","","100.39","","","","","","Mainly Clear"
"1983-05-17 11:00","1983","05","17","11:00","10.4","","-4.1","","36","","2","","11","","40.2","","100.46","","","","","","Mainly Clear"
"1983-05-17 12:00","1983","05","17","12:00","10.0","","-5.7","","32","","28","","9","","40.2","","100.42","","","","","","Mostly Cloudy"
"1983-05-17 13:00","1983","05","17","13:00","10.9","","-4.7","","33","","30","","15","","40.2","","100.42","","","","","","Mainly Clear"
"1983-05-17 14:00","1983","05","17","14:00","11.6","","-3.1","","36","","30","","17","","40.2","","100.42","","","","","","Mostly Cloudy"
"1983-05-17 15:00","1983","05","17","15:00","11.2","","-3.9","","34","","36","","11","","40.2","","100.42","","","","","","Mostly Cloudy"
"1983-05-17 16:00","1983","05","17","16:00","11.3","","-2.4","","38","","2","","9","","40.2","","100.36","","","","","","Mainly Clear"
"1983-05-17 17:00","1983","05","17","17:00","12.1","","-2.9","","35","","32","","9","","40.2","","100.39","","","","","","Mainly Clear"
"1983-05-17 18:00","1983","05","17","18:00","11.1","","-3.9","","35","","33","","7","","40.2","","100.42","","","","","","Mainly Clear"
"1983-05-17 19:00","1983","05","17","19:00","11.2","","-3.2","","36","","35","","7","","40.2","","100.46","","","","","","Mainly Clear"
"1983-05-17 20:00","1983","05","17","20:00","7.3","","-1.5","","54","","2","","11","","25.0","","100.46","","","","","","Mainly Clear"
"1983-05-17 21:00","1983","05","17","21:00","6.4","","-1.0","","59","","3","","11","","25.0","","100.56","","","","","","Clear"
"1983-05-17 22:00","1983","05","17","22:00","6.5","","-0.5","","61","","","","0","","25.0","","100.59","","","","","","Clear"
"1983-05-17 23:00","1983","05","17","23:00","3.9","","-0.8","","72","","28","","7","","25.0","","100.59","","","","","","Clear"
"1983-05-18 00:00","1983","05","18","00:00","3.4","","-0.3","","77","","27","","6","","25.0","","100.66","","","","","","Clear"
"1983-05-18 01:00","1983","05","18","01:00","3.4","","-1.4","","71","","28","","6","","25.0","","100.66","","","","","","Clear"
"1983-05-18 02:00","1983","05","18","02:00","3.8","","-0.8","","72","","30","","4","","25.0","","100.69","","","","","","Clear"
"1983-05-18 03:00","1983","05","18","03:00","1.9","","-1.5","","78","","2","","2","","25.0","","100.69","","","","","","Clear"
"1983-05-18 04:00","1983","05","18","04:00","2.0","","-1.0","","80","","36","","4","","25.0","","100.69","","","","","","Clear"
"1983-05-18 05:00","1983","05","18","05:00","0.0","","-1.8","","88","","33","","6","","24.1","","100.76","","","","-2","","Mostly Cloudy"
"1983-05-18 06:00","1983","05","18","06:00","1.6","","-0.5","","86","","","","0","","24.1","","100.85","","","","","","Mostly Cloudy"
"1983-05-18 07:00","1983","05","18","07:00","5.1","","-0.2","","68","","15","","6","","24.1","","100.89","","","","","","Mostly Cloudy"
"1983-05-18 08:00","1983","05","18","08:00","8.0","","-1.4","","51","","17","","7","","24.1","","100.89","","","","","","Mostly Cloudy"
"1983-05-18 09:00","1983","05","18","09:00","10.0","","-2.1","","43","","17","","13","","24.1","","100.89","","","","","","Mostly Cloudy"
"1983-05-18 10:00","1983","05","18","10:00","11.5","","-1.1","","42","","16","","9","","32.2","","100.89","","","","","","Mainly Clear"
"1983-05-18 11:00","1983","05","18","11:00","12.0","","-2.9","","35","","17","","9","","32.2","","100.89","","","","","","Mostly Cloudy"
"1983-05-18 12:00","1983","05","18","12:00","13.0","","-3.3","","32","","18","","15","","32.2","","100.85","","","","","","Mainly Clear"
"1983-05-18 13:00","1983","05","18","13:00","13.5","","-2.4","","33","","14","","15","","32.2","","100.85","","","","","","Mainly Clear"
"1983-05-18 14:00","1983","05","18","14:00","14.7","","-1.3","","33","","18","","11","","32.2","","100.79","","","","","","Mostly Cloudy"
"1983-05-18 15:00","1983","05","18","15:00","14.9","","-0.5","","35","","14","","13","","32.2","","100.72","","","","","","Mostly Cloudy"
"1983-05-18 16:00","1983","05","18","16:00","14.6","","-2.0","","32","","13","","15","","32.2","","100.66","","","","","","Cloudy"
"1983-05-18 17:00","1983","05","18","17:00","13.9","","-1.5","","35","","13","","13","","32.2","","100.62","","","","","","Cloudy"
"1983-05-18 18:00","1983","05","18","18:00","13.2","","-0.6","","38","","14","","11","","32.2","","100.62","","","","","","Cloudy"
"1983-05-18 19:00","1983","05","18","19:00","11.6","","0.7","","47","","13","","11","","32.2","","100.66","","","","","","Cloudy"
"1983-05-18 20:00","1983","05","18","20:00","10.0","","-2.1","","43","","12","","19","","19.3","","100.59","","","","","","Cloudy"
"1983-05-18 21:00","1983","05","18","21:00","9.9","","-3.5","","39","","10","","13","","25.0","","100.59","","","","","","Cloudy"
"1983-05-18 22:00","1983","05","18","22:00","9.4","","-2.9","","42","","10","","17","","25.0","","100.56","","","","","","Cloudy"
"1983-05-18 23:00","1983","05","18","23:00","9.5","","-4.3","","37","","9","","9","","25.0","","100.52","","","","","","Mostly Cloudy"
"1983-05-19 00:00","1983","05","19","00:00","9.5","","-2.9","","42","","9","","13","","25.0","","100.42","","","","","","Cloudy"
"1983-05-19 01:00","1983","05","19","01:00","9.8","","-1.5","","45","","9","","17","","25.0","","100.39","","","","","","Cloudy"
"1983-05-19 02:00","1983","05","19","02:00","10.0","","-0.9","","47","","11","","17","","25.0","","100.29","","","","","","Cloudy"
"1983-05-19 03:00","1983","05","19","03:00","9.0","","0.0","","53","","10","","11","","25.0","","100.19","","","","","","Cloudy"
"1983-05-19 04:00","1983","05","19","04:00","9.0","","1.7","","60","","9","","11","","25.0","","100.16","","","","","","Cloudy"
"1983-05-19 05:00","1983","05","19","05:00","8.8","","3.2","","68","","9","","9","","24.1","","100.09","","","","","","Cloudy"
"1983-05-19 06:00","1983","05","19","06:00","9.2","","3.2","","66","","9","","15","","24.1","","100.06","","","","","","Cloudy"
"1983-05-19 07:00","1983","05","19","07:00","10.1","","4.4","","68","","10","","11","","19.3","","99.99","","","","","","Cloudy"
"1983-05-19 08:00","1983","05","19","08:00","11.4","","6.1","","70","","9","","11","","16.1","","99.89","","","","","","Cloudy"
"1983-05-19 09:00","1983","05","19","09:00","11.9","","6.7","","71","","11","","20","","12.9","","99.86","","","","","","Cloudy"
"1983-05-19 10:00","1983","05","19","10:00","12.8","","7.4","","70","","11","","17","","12.9","","99.72","","","","","","Cloudy"
"1983-05-19 11:00","1983","05","19","11:00","13.9","","8.6","","70","","14","","22","","12.9","","99.69","","","","","","Rain Showers"
"1983-05-19 12:00","1983","05","19","12:00","12.2","","8.3","","77","","16","","17","","9.7","","99.62","","","","","","Rain Showers,Fog"
"1983-05-19 13:00","1983","05","19","13:00","10.5","","9.8","","95","","13","","22","","6.4","","99.56","","","","","","Fog"
"1983-05-19 14:00","1983","05","19","14:00","11.0","","10.3","","95","","14","","22","","4.0","","99.46","","","","","","Rain,Fog"
"1983-05-19 15:00","1983","05","19","15:00","10.3","","10.1","","99","","15","","24","","2.4","","99.39","","","","","","Heavy Rain,Fog"
"1983-05-19 16:00","1983","05","19","16:00","10.4","","10.1","","98","","14","","22","","2.4","","99.29","","","","","","Moderate Rain,Fog"
"1983-05-19 17:00","1983","05","19","17:00","10.5","","10.1","","97","","15","","22","","4.8","","99.19","","","","","","Rain,Fog"
"1983-05-19 18:00","1983","05","19","18:00","10.4","","10.4","","100","","15","","20","","4.8","","99.12","","","","","","Rain,Fog"
"1983-05-19 19:00","1983","05","19","19:00","10.9","","10.6","","98","","16","","17","","2.8","","99.12","","","","","","Rain,Drizzle,Fog"
"1983-05-19 20:00","1983","05","19","20:00","10.8","","10.6","","99","","16","","15","","3.2","","99.09","","","","","","Rain,Drizzle,Fog"
"1983-05-19 21:00","1983","05","19","21:00","11.0","","10.6","","97","","16","","11","","4.8","","99.06","","","","","","Rain,Drizzle,Fog"
"1983-05-19 22:00","1983","05","19","22:00","10.8","","10.6","","99","","17","","17","","6.4","","99.02","","","","","","Rain,Fog"
"1983-05-19 23:00","1983","05","19","23:00","13.7","","12.2","","91","","20","","20","","9.7","","98.99","","","","","","Fog"
"1983-05-20 00:00","1983","05","20","00:00","14.8","","12.3","","85","","21","","17","","12.9","","98.96","","","","","","Cloudy"
"1983-05-20 01:00","1983","05","20","01:00","14.2","","12.7","","91","","21","","19","","12.9","","98.96","","","","","","Cloudy"
"1983-05-20 02:00","1983","05","20","02:00","13.9","","12.7","","93","","22","","17","","12.9","","98.92","","","","","","Mainly Clear"
"1983-05-20 03:00","1983","05","20","03:00","13.3","","12.2","","93","","22","","15","","12.9","","98.99","","","","","","Mainly Clear"
"1983-05-20 04:00","1983","05","20","04:00","13.0","","11.3","","89","","22","","17","","12.9","","98.99","","","","","","Cloudy"
"1983-05-20 05:00","1983","05","20","05:00","12.9","","11.3","","90","","22","","17","","11.3","","99.02","","","","","","Mostly Cloudy"
"1983-05-20 06:00","1983","05","20","06:00","12.9","","11.6","","92","","21","","11","","11.3","","99.06","","","","","","Mostly Cloudy"
"1983-05-20 07:00","1983","05","20","07:00","13.6","","11.8","","89","","22","","15","","8.0","","99.12","","","","","","Fog"
"1983-05-20 08:00","1983","05","20","08:00","14.5","","12.2","","86","","23","","20","","8.0","","99.19","","","","","","Haze"
"1983-05-20 09:00","1983","05","20","09:00","15.1","","12.3","","83","","24","","19","","11.3","","99.19","","","","","","Cloudy"
"1983-05-20 10:00","1983","05","20","10:00","16.7","","12.9","","78","","23","","26","","8.0","","99.19","","","","","","Haze"
"1983-05-20 11:00","1983","05","20","11:00","14.4","","13.2","","93","","27","","20","","4.0","","99.29","","","","","","Rain Showers,Fog"
"1983-05-20 12:00","1983","05","20","12:00","14.7","","13.5","","92","","26","","13","","4.8","","99.36","","","","","","Rain Showers,Fog"
"1983-05-20 13:00","1983","05","20","13:00","14.5","","12.5","","88","","25","","15","","9.7","","99.39","","","","","","Fog"
"1983-05-20 14:00","1983","05","20","14:00","14.9","","13.0","","88","","25","","15","","11.3","","99.46","","","","","","Rain Showers"
"1983-05-20 15:00","1983","05","20","15:00","16.4","","13.2","","82","","26","","19","","11.3","","99.49","","","","","","Cloudy"
"1983-05-20 16:00","1983","05","20","16:00","16.4","","11.4","","72","","29","","24","","12.9","","99.56","","","","","","Rain Showers"
"1983-05-20 17:00","1983","05","20","17:00","15.6","","11.8","","78","","27","","20","","16.1","","99.59","","","","","","Cloudy"
"1983-05-20 18:00","1983","05","20","18:00","15.5","","12.5","","82","","27","","22","","16.1","","99.59","","","","","","Cloudy"
"1983-05-20 19:00","1983","05","20","19:00","14.7","","10.7","","77","","28","","15","","16.1","","99.66","","","","","","Cloudy"
"1983-05-20 20:00","1983","05","20","20:00","14.0","","10.5","","79","","27","","7","","16.1","","99.69","","","","","","Cloudy"
"1983-05-20 21:00","1983","05","20","21:00","13.4","","10.7","","84","","33","","6","","16.1","","99.76","","","","","","Cloudy"
"1983-05-20 22:00","1983","05","20","22:00","12.9","","10.9","","88","","31","","7","","12.9","","99.79","","","","","","Cloudy"
"1983-05-20 23:00","1983","05","20","23:00","12.7","","10.0","","84","","30","","6","","12.9","","99.79","","","","","","Cloudy"
"1983-05-21 00:00","1983","05","21","00:00","12.3","","10.4","","88","","27","","2","","12.9","","99.82","","","","","","Cloudy"
"1983-05-21 01:00","1983","05","21","01:00","12.2","","9.9","","86","","25","","4","","12.9","","99.79","","","","","","Cloudy"
"1983-05-21 02:00","1983","05","21","02:00","11.8","","10.6","","93","","27","","6","","12.9","","99.79","","","","","","Cloudy"
"1983-05-21 03:00","1983","05","21","03:00","11.8","","10.6","","93","","","","0","","9.7","","99.79","","","","","","Fog"
"1983-05-21 04:00","1983","05","21","04:00","11.6","","10.1","","91","","","","0","","8.0","","99.79","","","","","","Fog"
"1983-05-21 05:00","1983","05","21","05:00","12.0","","10.6","","91","","","","0","","6.4","","99.82","","","","","","Fog"
"1983-05-21 06:00","1983","05","21","06:00","11.7","","10.4","","92","","","","0","","6.4","","99.86","","","","","","Fog"
"1983-05-21 07:00","1983","05","21","07:00","12.8","","10.9","","88","","11","","4","","6.4","","99.86","","","","","","Fog"
"1983-05-21 08:00","1983","05","21","08:00","14.0","","10.9","","82","","","","0","","6.4","","99.92","","","","","","Haze"
"1983-05-21 09:00","1983","05","21","09:00","15.1","","11.3","","78","","11","","6","","6.4","","99.89","","","","","","Haze"
"1983-05-21 10:00","1983","05","21","10:00","15.6","","10.7","","73","","14","","9","","8.0","","99.86","","","","","","Haze"
"1983-05-21 11:00","1983","05","21","11:00","16.0","","11.3","","74","","14","","4","","8.0","","99.86","","","","","","Haze"
"1983-05-21 12:00","1983","05","21","12:00","16.4","","11.1","","71","","","","0","","8.0","","99.79","","","","","","Haze"
"1983-05-21 13:00","1983","05","21","13:00","18.1","","12.0","","68","","15","","7","","9.7","","99.72","","","","","","Haze"
"1983-05-21 14:00","1983","05","21","14:00","17.5","","12.2","","71","","17","","17","","11.3","","99.69","","","","","","Cloudy"
"1983-05-21 15:00","1983","05","21","15:00","16.6","","11.8","","73","","16","","13","","11.3","","99.59","","","","","","Mostly Cloudy"
"1983-05-21 16:00","1983","05","21","16:00","16.5","","11.4","","72","","16","","7","","12.9","","99.59","","","","","","Cloudy"
"1983-05-21 17:00","1983","05","21","17:00","17.0","","10.9","","67","","17","","11","","12.9","","99.59","","","","","","Mostly Cloudy"
"1983-05-21 18:00","1983","05","21","18:00","15.1","","10.9","","76","","15","","6","","12.9","","99.59","","","","","","Mostly Cloudy"
"1983-05-21 19:00","1983","05","21","19:00","14.4","","10.7","","79","","16","","7","","12.9","","99.59","","","","","","Mostly Cloudy"
"1983-05-21 20:00","1983","05","21","20:00","13.1","","10.2","","83","","18","","7","","9.7","","99.59","","","","","","Haze"
"1983-05-21 21:00","1983","05","21","21:00","12.4","","10.8","","90","","18","","6","","9.7","","99.66","","","","","","Fog"
"1983-05-21 22:00","1983","05","21","22:00","11.9","","9.9","","88","","10","","7","","8.0","","99.66","","","","","","Fog"
"1983-05-21 23:00","1983","05","21","23:00","12.1","","9.1","","82","","6","","6","","6.4","","99.62","","","","","","Haze"
"1983-05-22 00:00","1983","05","22","00:00","10.9","","9.6","","92","","3","","4","","4.8","","99.62","","","","","","Fog"
"1983-05-22 01:00","1983","05","22","01:00","10.7","","9.0","","89","","3","","6","","4.8","","99.56","","","","","","Fog"
"1983-05-22 02:00","1983","05","22","02:00","9.1","","8.6","","97","","3","","6","","4.0","","99.46","","","","","","Fog"
"1983-05-22 03:00","1983","05","22","03:00","9.5","","8.8","","95","","5","","11","","4.8","","99.39","","","","","","Fog"
"1983-05-22 04:00","1983","05","22","04:00","11.4","","9.3","","87","","8","","11","","6.4","","99.29","","","","","","Haze"
"1983-05-22 05:00","1983","05","22","05:00","11.7","","9.3","","85","","10","","9","","8.0","","99.29","","","","","","Haze"
"1983-05-22 06:00","1983","05","22","06:00","12.0","","9.5","","85","","9","","20","","9.7","","99.22","","","","","","Haze"
"1983-05-22 07:00","1983","05","22","07:00","12.7","","9.3","","80","","9","","22","","9.7","","99.22","","","","","","Haze"
"1983-05-22 08:00","1983","05","22","08:00","13.6","","9.2","","75","","10","","28","","12.9","","99.12","","","","","","Cloudy"
"1983-05-22 09:00","1983","05","22","09:00","14.5","","8.8","","69","","9","","31","","12.9","","98.92","","","","","","Cloudy"
"1983-05-22 10:00","1983","05","22","10:00","13.0","","9.8","","81","","11","","24","","6.4","","98.89","","","","","","Rain Showers,Haze"
"1983-05-22 11:00","1983","05","22","11:00","11.3","","10.4","","94","","10","","30","","2.4","","98.76","","","","","","Moderate Rain Showers,Fog"
"1983-05-22 12:00","1983","05","22","12:00","11.8","","11.3","","97","","10","","35","","4.0","","98.62","","","","","","Rain Showers,Fog"
"1983-05-22 13:00","1983","05","22","13:00","12.0","","11.3","","95","","10","","24","","2.0","","98.52","","","","","","Moderate Rain Showers,Fog"
"1983-05-22 14:00","1983","05","22","14:00","12.1","","12.1","","100","","12","","19","","1.6","","98.46","","","","","","Rain Showers,Fog"
"1983-05-22 15:00","1983","05","22","15:00","13.5","","13.2","","98","","10","","19","","1.6","","98.36","","","","","","Fog"
"1983-05-22 16:00","1983","05","22","16:00","13.9","","13.3","","96","","11","","19","","4.8","","98.22","","","","","","Fog"
"1983-05-22 17:00","1983","05","22","17:00","15.5","","13.9","","90","","14","","17","","11.3","","98.22","","","","","","Cloudy"
"1983-05-22 18:00","1983","05","22","18:00","15.5","","14.2","","92","","15","","13","","12.9","","98.19","","","","","","Mostly Cloudy"
"1983-05-22 19:00","1983","05","22","19:00","14.5","","13.5","","94","","14","","15","","12.9","","98.12","","","","","","Mostly Cloudy"
"1983-05-22 20:00","1983","05","22","20:00","13.9","","13.3","","96","","16","","13","","11.3","","98.12","","","","","","Rain Showers"
"1983-05-22 21:00","1983","05","22","21:00","13.1","","12.7","","97","","15","","15","","9.7","","98.12","","","","","","Fog"
"1983-05-22 22:00","1983","05","22","22:00","13.4","","12.8","","96","","17","","13","","9.7","","98.12","","","","","","Fog"
"1983-05-22 23:00","1983","05","22","23:00","14.1","","13.3","","95","","18","","15","","6.4","","98.12","","","","","","Fog"
"1983-05-23 00:00","1983","05","23","00:00","15.5","","14.5","","94","","19","","15","","8.0","","98.09","","","","","","Fog"
"1983-05-23 01:00","1983","05","23","01:00","15.6","","14.5","","93","","20","","19","","8.0","","98.02","","","","","","Fog"
"1983-05-23 02:00","1983","05","23","02:00","15.6","","14.2","","91","","21","","15","","8.0","","97.99","","","","","","Fog"
"1983-05-23 03:00","1983","05","23","03:00","15.2","","14.4","","95","","21","","15","","8.0","","97.99","","","","","","Fog"
"1983-05-23 04:00","1983","05","23","04:00","15.0","","13.7","","92","","22","","15","","8.0","","97.99","","","","","","Fog"
"1983-05-23 05:00","1983","05","23","05:00","14.5","","13.5","","94","","21","","15","","8.0","","98.02","","","","","","Fog"
"1983-05-23 06:00","1983","05","23","06:00","14.8","","12.3","","85","","28","","22","","9.7","","98.12","","","","","","Haze"
"1983-05-23 07:00","1983","05","23","07:00","14.6","","11.8","","83","","26","","13","","12.9","","98.22","","","","","","Cloudy"
"1983-05-23 08:00","1983","05","23","08:00","14.6","","11.8","","83","","26","","19","","16.1","","98.29","","","","","","Cloudy"
"1983-05-23 09:00","1983","05","23","09:00","16.4","","12.5","","78","","25","","22","","16.1","","98.29","","","","","","Mostly Cloudy"
"1983-05-23 10:00","1983","05","23","10:00","17.8","","13.1","","74","","26","","17","","16.1","","98.32","","","","","","Mostly Cloudy"
"1983-05-23 11:00","1983","05","23","11:00","17.9","","13.1","","74","","26","","24","","16.1","","98.32","","","","","","Mostly Cloudy"
"1983-05-23 12:00","1983","05","23","12:00","18.0","","12.0","","68","","25","","24","","19.3","","98.32","","","","","","Mostly Cloudy"
"1983-05-23 13:00","1983","05","23","13:00","18.9","","11.7","","63","","27","","31","","24.1","","98.39","","","","","","Mainly Clear"
"1983-05-23 14:00","1983","05","23","14:00","19.2","","12.1","","63","","27","","26","","32.2","","98.32","","","","","","Mainly Clear"
"1983-05-23 15:00","1983","05","23","15:00","18.7","","10.7","","60","","27","","28","","32.2","","98.32","","","","","","Mostly Cloudy"
"1983-05-23 16:00","1983","05","23","16:00","18.2","","10.5","","61","","27","","24","","40.2","","98.36","","","","","","Mostly Cloudy"
"1983-05-23 17:00","1983","05","23","17:00","16.7","","12.2","","75","","23","","20","","40.2","","98.42","","","","","","Mostly Cloudy"
"1983-05-23 18:00","1983","05","23","18:00","17.0","","10.1","","64","","29","","22","","40.2","","98.46","","","","","","Mostly Cloudy"
"1983-05-23 19:00","1983","05","23","19:00","15.3","","10.3","","72","","29","","20","","32.2","","98.52","","","","","","Mostly Cloudy"
"1983-05-23 20:00","1983","05","23","20:00","14.1","","8.6","","69","","29","","17","","25.0","","98.61","","","","","","Mainly Clear"
"1983-05-23 21:00","1983","05","23","21:00","13.0","","9.1","","77","","29","","20","","25.0","","98.72","","","","","","Mostly Cloudy"
"1983-05-23 22:00","1983","05","23","22:00","12.1","","8.7","","80","","30","","19","","25.0","","98.82","","","","","","Mostly Cloudy"
"1983-05-23 23:00","1983","05","23","23:00","11.0","","7.2","","78","","30","","22","","25.0","","98.82","","","","","","Mostly Cloudy"
"1983-05-24 00:00","1983","05","24","00:00","10.2","","7.7","","84","","30","","15","","25.0","","98.89","","","","","","Mostly Cloudy"
"1983-05-24 01:00","1983","05","24","01:00","9.6","","7.2","","85","","30","","15","","25.0","","98.92","","","","","","Mostly Cloudy"
"1983-05-24 02:00","1983","05","24","02:00","9.4","","7.2","","86","","31","","22","","25.0","","98.92","","","","","","Cloudy"
"1983-05-24 03:00","1983","05","24","03:00","8.6","","6.6","","87","","30","","15","","25.0","","98.99","","","","","","Mostly Cloudy"
"1983-05-24 04:00","1983","05","24","04:00","8.7","","6.1","","84","","36","","9","","25.0","","99.09","","","","","","Cloudy"
"1983-05-24 05:00","1983","05","24","05:00","8.1","","6.4","","89","","","","0","","25.0","","99.16","","","","","","Cloudy"
"1983-05-24 06:00","1983","05","24","06:00","8.8","","6.3","","84","","29","","15","","32.2","","99.22","","","","","","Cloudy"
"1983-05-24 07:00","1983","05","24","07:00","9.4","","5.6","","77","","29","","17","","32.2","","99.29","","","","","","Mostly Cloudy"
"1983-05-24 08:00","1983","05","24","08:00","9.1","","5.9","","80","","32","","19","","32.2","","99.39","","","","","","Mostly Cloudy"
"1983-05-24 09:00","1983","05","24","09:00","9.7","","5.6","","76","","29","","17","","40.2","","99.39","","","","","","Mostly Cloudy"
"1983-05-24 10:00","1983","05","24","10:00","11.9","","6.3","","69","","28","","11","","40.2","","99.39","","","","","","Mainly Clear"
"1983-05-24 11:00","1983","05","24","11:00","14.0","","4.7","","54","","29","","19","","40.2","","99.42","","","","","","Mainly Clear"
"1983-05-24 12:00","1983","05","24","12:00","15.7","","3.7","","45","","33","","15","","40.2","","99.46","","","","","","Clear"
"1983-05-24 13:00","1983","05","24","13:00","16.2","","0.6","","35","","36","","4","","40.2","","99.39","","","","","","Clear"
"1983-05-24 14:00","1983","05","24","14:00","18.0","","3.2","","37","","29","","11","","40.2","","99.39","","","","","","Mainly Clear"
"1983-05-24 15:00","1983","05","24","15:00","18.6","","0.5","","30","","31","","9","","40.2","","99.36","","","","","","Mainly Clear"
"1983-05-24 16:00","1983","05","24","16:00","18.7","","1.7","","32","","","","0","","40.2","","99.36","","","","","","Mainly Clear"
"1983-05-24 17:00","1983","05","24","17:00","18.8","","3.4","","36","","30","","9","","40.2","","99.32","","","","","","Mostly Cloudy"
"1983-05-24 18:00","1983","05","24","18:00","18.4","","6.0","","44","","29","","11","","40.2","","99.32","","","","","","Mostly Cloudy"
"1983-05-24 19:00","1983","05","24","19:00","17.2","","7.2","","52","","26","","9","","40.2","","99.36","","","","","","Mostly Cloudy"
"1983-05-24 20:00","1983","05","24","20:00","15.8","","6.6","","54","","26","","4","","25.0","","99.32","","","","","","Mostly Cloudy"
"1983-05-24 21:00","1983","05","24","21:00","15.6","","7.0","","57","","23","","4","","25.0","","99.36","","","","","","Mostly Cloudy"
"1983-05-24 22:00","1983","05","24","22:00","13.2","","8.3","","72","","24","","9","","25.0","","99.36","","","","","","Mostly Cloudy"
"1983-05-24 23:00","1983","05","24","23:00","12.4","","8.9","","79","","19","","6","","25.0","","99.29","","","","","","Clear"
"1983-05-25 00:00","1983","05","25","00:00","12.3","","8.1","","76","","18","","11","","25.0","","99.22","","","","","","Clear"
"1983-05-25 01:00","1983","05","25","01:00","12.1","","7.1","","71","","20","","7","","25.0","","99.19","","","","","","Mainly Clear"
"1983-05-25 02:00","1983","05","25","02:00","11.2","","6.8","","74","","19","","9","","25.0","","99.12","","","","","","Mainly Clear"
"1983-05-25 03:00","1983","05","25","03:00","9.5","","7.2","","86","","16","","7","","25.0","","99.09","","","","","","Mainly Clear"
"1983-05-25 04:00","1983","05","25","04:00","9.3","","7.2","","87","","16","","6","","25.0","","99.02","","","","","","Mostly Cloudy"
"1983-05-25 05:00","1983","05","25","05:00","9.1","","6.7","","85","","6","","6","","25.0","","99.02","","","","","","Cloudy"
"1983-05-25 06:00","1983","05","25","06:00","10.1","","6.9","","80","","15","","6","","24.1","","98.99","","","","","","Cloudy"
"1983-05-25 07:00","1983","05","25","07:00","12.0","","8.7","","80","","19","","9","","19.3","","98.99","","","","","","Cloudy"
"1983-05-25 08:00","1983","05","25","08:00","14.0","","9.4","","74","","19","","4","","24.1","","98.96","","","","","","Cloudy"
"1983-05-25 09:00","1983","05","25","09:00","14.4","","10.3","","76","","15","","13","","24.1","","98.89","","","","","","Cloudy"
"1983-05-25 10:00","1983","05","25","10:00","14.6","","9.2","","70","","16","","11","","24.1","","98.89","","","","","","Cloudy"
"1983-05-25 11:00","1983","05","25","11:00","14.8","","10.1","","74","","19","","7","","19.3","","98.86","","","","","","Cloudy"
"1983-05-25 12:00","1983","05","25","12:00","15.8","","12.0","","78","","25","","13","","16.1","","98.86","","","","","","Rain Showers"
"1983-05-25 13:00","1983","05","25","13:00","14.7","","11.8","","83","","26","","30","","4.8","","98.89","","","","","","Moderate Rain Showers,Fog"
"1983-05-25 14:00","1983","05","25","14:00","14.1","","11.6","","85","","24","","17","","16.1","","98.82","","","","","","Rain Showers"
"1983-05-25 15:00","1983","05","25","15:00","14.2","","11.3","","82","","21","","26","","19.3","","98.79","","","","","","Rain Showers"
"1983-05-25 16:00","1983","05","25","16:00","14.1","","11.3","","83","","20","","24","","24.1","","98.72","","","","","","Cloudy"
"1983-05-25 17:00","1983","05","25","17:00","14.5","","10.3","","76","","22","","26","","24.1","","98.69","","","","","","Cloudy"
"1983-05-25 18:00","1983","05","25","18:00","14.2","","10.9","","80","","26","","22","","19.3","","98.69","","","","","","Rain Showers"
"1983-05-25 19:00","1983","05","25","19:00","8.0","","6.4","","90","","32","","22","","19.3","","98.82","","","","","","Rain Showers"
"1983-05-25 20:00","1983","05","25","20:00","7.8","","5.6","","86","","33","","26","","25.0","","98.89","","","","","","Cloudy"
"1983-05-25 21:00","1983","05","25","21:00","7.6","","5.1","","84","","30","","22","","25.0","","98.99","","","","","","Cloudy"
"1983-05-25 22:00","1983","05","25","22:00","7.5","","3.3","","75","","31","","19","","25.0","","99.02","","","","","","Mostly Cloudy"
"1983-05-25 23:00","1983","05","25","23:00","7.4","","3.3","","75","","30","","24","","25.0","","99.02","","","","","","Cloudy"
"1983-05-26 00:00","1983","05","26","00:00","7.1","","2.7","","74","","29","","17","","25.0","","99.02","","","","","","Cloudy"
"1983-05-26 01:00","1983","05","26","01:00","7.0","","2.7","","74","","30","","30","","25.0","","99.02","","","","","","Cloudy"
"1983-05-26 02:00","1983","05","26","02:00","6.9","","3.2","","77","","26","","15","","25.0","","99.02","","","","","","Cloudy"
"1983-05-26 03:00","1983","05","26","03:00","6.8","","3.2","","78","","27","","15","","25.0","","99.02","","","","","","Cloudy"
"1983-05-26 04:00","1983","05","26","04:00","6.2","","2.0","","74","","29","","22","","25.0","","99.02","","","","","","Cloudy"
"1983-05-26 05:00","1983","05","26","05:00","5.8","","2.0","","77","","25","","15","","24.1","","99.09","","","","","","Cloudy"
"1983-05-26 06:00","1983","05","26","06:00","5.7","","2.4","","79","","26","","13","","32.2","","99.12","","","","","","Mostly Cloudy"
"1983-05-26 07:00","1983","05","26","07:00","6.6","","3.1","","78","","28","","19","","40.2","","99.19","","","","","","Mainly Clear"
"1983-05-26 08:00","1983","05","26","08:00","6.5","","1.6","","71","","27","","22","","40.2","","99.19","","","","","","Mainly Clear"
"1983-05-26 09:00","1983","05","26","09:00","7.1","","1.7","","69","","25","","24","","40.2","","99.16","","","","","","Mostly Cloudy"
"1983-05-26 10:00","1983","05","26","10:00","8.2","","2.4","","67","","25","","19","","40.2","","99.19","","","","","","Mostly Cloudy"
"1983-05-26 11:00","1983","05","26","11:00","8.5","","3.0","","68","","24","","22","","40.2","","99.19","","","","","","Mostly Cloudy"
"1983-05-26 12:00","1983","05","26","12:00","8.4","","3.0","","69","","24","","22","","40.2","","99.19","","","","","","Cloudy"
"1983-05-26 13:00","1983","05","26","13:00","9.0","","3.2","","67","","24","","28","","40.2","","99.22","","","","","","Cloudy"
"1983-05-26 14:00","1983","05","26","14:00","8.6","","3.0","","68","","27","","22","","32.2","","99.26","","","","","","Cloudy"
"1983-05-26 15:00","1983","05","26","15:00","8.4","","3.5","","71","","27","","22","","32.2","","99.29","","","","","","Cloudy"
"1983-05-26 16:00","1983","05","26","16:00","8.2","","3.4","","72","","27","","22","","32.2","","99.32","","","","","","Cloudy"
"1983-05-26 17:00","1983","05","26","17:00","8.1","","3.4","","72","","28","","15","","32.2","","99.32","","","","","","Cloudy"
"1983-05-26 18:00","1983","05","26","18:00","7.9","","3.9","","76","","27","","19","","32.2","","99.36","","","","","","Cloudy"
"1983-05-26 19:00","1983","05","26","19:00","7.5","","3.3","","75","","26","","15","","32.2","","99.42","","","","","","Cloudy"
"1983-05-26 20:00","1983","05","26","20:00","6.9","","3.6","","80","","26","","15","","25.0","","99.46","","","","","","Mostly Cloudy"
"1983-05-26 21:00","1983","05","26","21:00","6.1","","3.4","","83","","28","","15","","25.0","","99.46","","","","","","Mostly Cloudy"
"1983-05-26 22:00","1983","05","26","22:00","5.8","","3.9","","88","","27","","11","","25.0","","99.49","","","","","","Mostly Cloudy"
"1983-05-26 23:00","1983","05","26","23:00","5.1","","1.9","","80","","25","","11","","25.0","","99.49","","","","","","Mostly Cloudy"
"1983-05-27 00:00","1983","05","27","00:00","5.5","","2.0","","78","","26","","13","","25.0","","99.52","","","","","","Cloudy"
"1983-05-27 01:00","1983","05","27","01:00","5.4","","1.5","","76","","28","","11","","25.0","","99.52","","","","","","Cloudy"
"1983-05-27 02:00","1983","05","27","02:00","5.0","","1.4","","77","","29","","17","","25.0","","99.49","","","","","","Cloudy"
"1983-05-27 03:00","1983","05","27","03:00","4.0","","0.8","","79","","29","","7","","25.0","","99.49","","","","","","Mainly Clear"
"1983-05-27 04:00","1983","05","27","04:00","2.3","","0.6","","89","","29","","9","","25.0","","99.52","","","","","","Mainly Clear"
"1983-05-27 05:00","1983","05","27","05:00","1.9","","0.6","","91","","29","","9","","24.1","","99.59","","","","","","Mainly Clear"
"1983-05-27 06:00","1983","05","27","06:00","3.2","","1.1","","86","","29","","11","","32.2","","99.66","","","","","","Mainly Clear"
"1983-05-27 07:00","1983","05","27","07:00","5.0","","1.9","","80","","31","","19","","40.2","","99.69","","","","","","Mainly Clear"
"1983-05-27 08:00","1983","05","27","08:00","5.6","","1.0","","72","","30","","15","","40.2","","99.72","","","","","","Mainly Clear"
"1983-05-27 09:00","1983","05","27","09:00","8.7","","2.5","","65","","29","","17","","40.2","","99.72","","","","","","Mainly Clear"
"1983-05-27 10:00","1983","05","27","10:00","9.8","","2.9","","62","","30","","19","","40.2","","99.72","","","","","","Mostly Cloudy"
"1983-05-27 11:00","1983","05","27","11:00","11.1","","2.7","","56","","29","","17","","40.2","","99.76","","","","","","Mostly Cloudy"
"1983-05-27 12:00","1983","05","27","12:00","11.1","","1.7","","52","","28","","15","","40.2","","99.76","","","","","","Mostly Cloudy"
"1983-05-27 13:00","1983","05","27","13:00","11.4","","2.3","","53","","29","","13","","40.2","","99.72","","","","","","Mostly Cloudy"
"1983-05-27 14:00","1983","05","27","14:00","11.2","","1.1","","50","","","","0","","40.2","","99.69","","","","","","Cloudy"
"1983-05-27 15:00","1983","05","27","15:00","12.2","","0.9","","46","","25","","7","","40.2","","99.69","","","","","","Cloudy"
"1983-05-27 16:00","1983","05","27","16:00","12.3","","2.1","","50","","20","","6","","40.2","","99.66","","","","","","Mostly Cloudy"
"1983-05-27 17:00","1983","05","27","17:00","12.4","","3.7","","55","","18","","4","","40.2","","99.66","","","","","","Mostly Cloudy"
"1983-05-27 18:00","1983","05","27","18:00","11.3","","1.3","","50","","12","","7","","40.2","","99.66","","","","","","Mainly Clear"
"1983-05-27 19:00","1983","05","27","19:00","10.1","","1.4","","55","","14","","11","","32.2","","99.69","","","","","","Mainly Clear"
"1983-05-27 20:00","1983","05","27","20:00","9.1","","2.2","","62","","13","","6","","25.0","","99.69","","","","","","Mainly Clear"
"1983-05-27 21:00","1983","05","27","21:00","8.4","","2.0","","64","","11","","9","","25.0","","99.72","","","","","","Mainly Clear"
"1983-05-27 22:00","1983","05","27","22:00","7.0","","2.7","","74","","","","0","","25.0","","99.76","","","","","","Clear"
"1983-05-27 23:00","1983","05","27","23:00","6.0","","2.0","","75","","","","0","","25.0","","99.72","","","","","","Mainly Clear"
"1983-05-28 00:00","1983","05","28","00:00","3.7","","1.7","","87","","32","","6","","25.0","","99.72","","","","","","Clear"
"1983-05-28 01:00","1983","05","28","01:00","3.5","","1.7","","88","","34","","4","","25.0","","99.66","","","","","","Clear"
"1983-05-28 02:00","1983","05","28","02:00","2.9","","2.1","","95","","33","","7","","25.0","","99.66","","","","","","Mainly Clear"
"1983-05-28 03:00","1983","05","28","03:00","4.0","","2.2","","88","","35","","6","","25.0","","99.62","","","","","","Mainly Clear"
"1983-05-28 04:00","1983","05","28","04:00","3.6","","1.7","","87","","31","","7","","25.0","","99.66","","","","","","Mostly Cloudy"
"1983-05-28 05:00","1983","05","28","05:00","4.6","","3.2","","91","","4","","6","","24.1","","99.66","","","","","","Cloudy"
"1983-05-28 06:00","1983","05","28","06:00","5.5","","4.2","","91","","","","0","","19.3","","99.69","","","","","","Cloudy"
"1983-05-28 07:00","1983","05","28","07:00","6.4","","4.9","","90","","15","","4","","16.1","","99.69","","","","","","Mostly Cloudy"
"1983-05-28 08:00","1983","05","28","08:00","8.5","","4.4","","75","","15","","9","","16.1","","99.69","","","","","","Cloudy"
"1983-05-28 09:00","1983","05","28","09:00","10.3","","5.4","","72","","14","","11","","19.3","","99.62","","","","","","Mostly Cloudy"
"1983-05-28 10:00","1983","05","28","10:00","12.0","","5.8","","66","","17","","13","","24.1","","99.59","","","","","","Mostly Cloudy"
"1983-05-28 11:00","1983","05","28","11:00","13.0","","7.0","","67","","15","","19","","32.2","","99.56","","","","","","Mainly Clear"
"1983-05-28 12:00","1983","05","28","12:00","14.6","","5.8","","55","","15","","19","","32.2","","99.46","","","","","","Mainly Clear"
"1983-05-28 13:00","1983","05","28","13:00","14.6","","5.3","","54","","15","","19","","24.1","","99.46","","","","","","Mainly Clear"
"1983-05-28 14:00","1983","05","28","14:00","12.6","","6.4","","66","","14","","19","","19.3","","99.36","","","","","","Rain Showers"
"1983-05-28 15:00","1983","05","28","15:00","12.5","","6.9","","69","","15","","19","","16.1","","99.29","","","","","","Mostly Cloudy"
"1983-05-28 16:00","1983","05","28","16:00","13.6","","6.8","","63","","13","","11","","16.1","","99.26","","","","","","Mostly Cloudy"
"1983-05-28 17:00","1983","05","28","17:00","18.8","","8.5","","51","","24","","28","","16.1","","99.26","","","","","","Mainly Clear"
"1983-05-28 18:00","1983","05","28","18:00","18.2","","6.7","","47","","24","","20","","16.1","","99.26","","","","","","Mainly Clear"
"1983-05-28 19:00","1983","05","28","19:00","16.6","","6.5","","51","","24","","11","","16.1","","99.26","","","","","","Mainly Clear"
"1983-05-28 20:00","1983","05","28","20:00","15.1","","7.3","","59","","","","0","","16.1","","99.22","","","","","","Mainly Clear"
"1983-05-28 21:00","1983","05","28","21:00","15.0","","6.4","","56","","","","0","","25.0","","99.22","","","","","","Mostly Cloudy"
"1983-05-28 22:00","1983","05","28","22:00","12.2","","7.1","","71","","15","","7","","25.0","","99.22","","","","","","Cloudy"
"1983-05-28 23:00","1983","05","28","23:00","11.6","","6.1","","69","","15","","7","","25.0","","99.19","","","","","","Mostly Cloudy"
"1983-05-29 00:00","1983","05","29","00:00","11.4","","7.4","","76","","12","","9","","24.1","","99.12","","","","","","Cloudy"
"1983-05-29 01:00","1983","05","29","01:00","11.1","","6.4","","73","","10","","7","","19.3","","99.02","","","","","","Cloudy"
"1983-05-29 02:00","1983","05","29","02:00","9.9","","7.4","","84","","6","","7","","19.3","","98.96","","","","","","Cloudy"
"1983-05-29 03:00","1983","05","29","03:00","9.8","","6.5","","80","","5","","6","","16.1","","98.96","","","","","","Cloudy"
"1983-05-29 04:00","1983","05","29","04:00","10.0","","6.1","","77","","9","","2","","12.9","","98.92","","","","","","Cloudy"
"1983-05-29 05:00","1983","05","29","05:00","10.5","","5.8","","73","","12","","6","","16.1","","98.82","","","","","","Cloudy"
"1983-05-29 06:00","1983","05","29","06:00","10.7","","6.3","","74","","12","","9","","19.3","","98.79","","","","","","Cloudy"
"1983-05-29 07:00","1983","05","29","07:00","11.4","","7.0","","74","","11","","9","","19.3","","98.72","","","","","","Cloudy"
"1983-05-29 08:00","1983","05","29","08:00","12.5","","6.9","","69","","13","","13","","19.3","","98.69","","","","","","Cloudy"
"1983-05-29 09:00","1983","05","29","09:00","13.3","","7.6","","69","","12","","17","","19.3","","98.59","","","","","","Cloudy"
"1983-05-29 10:00","1983","05","29","10:00","13.3","","8.4","","72","","12","","13","","16.1","","98.52","","","","","","Cloudy"
"1983-05-29 11:00","1983","05","29","11:00","13.0","","8.3","","73","","10","","17","","16.1","","98.49","","","","","","Cloudy"
"1983-05-29 12:00","1983","05","29","12:00","14.0","","9.4","","74","","11","","22","","19.3","","98.39","","","","","","Cloudy"
"1983-05-29 13:00","1983","05","29","13:00","14.8","","10.9","","78","","11","","19","","19.3","","98.32","","","","","","Cloudy"
"1983-05-29 14:00","1983","05","29","14:00","13.7","","11.5","","86","","8","","13","","6.4","","98.32","","","","","","Heavy Rain Showers,Fog"
"1983-05-29 15:00","1983","05","29","15:00","12.5","","11.5","","94","","7","","19","","4.8","","98.32","","","","","","Rain Showers,Fog"
"1983-05-29 16:00","1983","05","29","16:00","12.5","","12.2","","98","","9","","28","","4.0","","98.26","","","","","","Moderate Rain Showers,Fog"
"1983-05-29 17:00","1983","05","29","17:00"
"1983-05-29 18:00","1983","05","29","18:00","12.7","","11.8","","94","","11","","13","","3.2","","98.22","","","","","","Fog"
"1983-05-29 19:00","1983","05","29","19:00","12.7","","12.2","","97","","9","","11","","3.2","","98.16","","","","","","Rain Showers,Fog"
"1983-05-29 20:00","1983","05","29","20:00","12.1","","11.7","","97","","12","","9","","2.0","","98.16","","","","","","Fog"
"1983-05-29 21:00","1983","05","29","21:00","12.4","","12.4","","100","","12","","17","","3.2","","98.16","","","","","","Fog"
"1983-05-29 22:00","1983","05","29","22:00","12.1","","11.7","","97","","13","","9","","3.2","","98.12","","","","","","Fog"
"1983-05-29 23:00","1983","05","29","23:00","12.0","","11.7","","98","","11","","6","","4.0","","98.09","","","","","","Fog"
"1983-05-30 00:00","1983","05","30","00:00","11.9","","11.7","","99","","","","0","","2.4","","98.09","","","","","","Fog"
"1983-05-30 01:00","1983","05","30","01:00","11.4","","11.4","","100","","","","0","","2.4","","98.02","","","","","","Fog"
"1983-05-30 02:00","1983","05","30","02:00","11.5","","11.2","","98","","","","0","","3.2","","98.02","","","","","","Fog"
"1983-05-30 03:00","1983","05","30","03:00","11.0","","11.0","","100","","20","","4","","0.0","","98.06","","","","","","Fog"
"1983-05-30 04:00","1983","05","30","04:00","10.6","","10.6","","100","","17","","4","","0.0","","98.09","","","","","","Fog"
"1983-05-30 05:00","1983","05","30","05:00","10.5","","10.5","","100","","21","","4","","0.0","","98.09","","","","","","Fog"
"1983-05-30 06:00","1983","05","30","06:00","10.1","","10.1","","100","","20","","6","","0.0","","98.12","","","","","","Fog"
"1983-05-30 07:00","1983","05","30","07:00","10.2","","10.2","","100","","17","","4","","0.2","","98.09","","","","","","Fog"
"1983-05-30 08:00","1983","05","30","08:00","12.4","","11.8","","96","","20","","9","","4.8","","98.09","","","","","","Fog"
"1983-05-30 09:00","1983","05","30","09:00","13.2","","12.0","","92","","16","","11","","4.0","","98.09","","","","","","Fog"
"1983-05-30 10:00","1983","05","30","10:00","15.8","","9.7","","67","","22","","20","","16.1","","98.09","","","","","","Mostly Cloudy"
"1983-05-30 11:00","1983","05","30","11:00","16.5","","8.7","","60","","20","","24","","24.1","","98.12","","","","","","Mostly Cloudy"
"1983-05-30 12:00","1983","05","30","12:00","17.7","","8.7","","56","","23","","30","","32.2","","98.12","","","","","","Mostly Cloudy"
"1983-05-30 13:00","1983","05","30","13:00","17.5","","5.5","","45","","22","","19","","32.2","","98.09","","","","","","Mostly Cloudy"
"1983-05-30 14:00","1983","05","30","14:00","18.2","","7.2","","49","","21","","19","","40.2","","98.06","","","","","","Mainly Clear"
"1983-05-30 15:00","1983","05","30","15:00","18.0","","6.7","","48","","22","","24","","32.2","","98.06","","","","","","Mainly Clear"
"1983-05-30 16:00","1983","05","30","16:00","17.9","","7.2","","50","","23","","24","","32.2","","98.09","","","","","","Mainly Clear"
"1983-05-30 17:00","1983","05","30","17:00","16.5","","6.1","","50","","24","","30","","32.2","","98.12","","","","","","Mostly Cloudy"
"1983-05-30 18:00","1983","05","30","18:00","16.0","","6.3","","52","","23","","22","","32.2","","98.16","","","","","","Mainly Clear"
"1983-05-30 19:00","1983","05","30","19:00","15.1","","5.0","","51","","23","","20","","24.1","","98.22","","","","","","Mostly Cloudy"
"1983-05-30 20:00","1983","05","30","20:00","13.1","","8.3","","72","","23","","6","","24.1","","98.22","","","","","","Mostly Cloudy"
"1983-05-30 21:00","1983","05","30","21:00","13.0","","7.4","","69","","25","","7","","25.0","","98.26","","","","","","Mostly Cloudy"
"1983-05-30 22:00","1983","05","30","22:00","12.3","","6.9","","70","","25","","9","","25.0","","98.26","","","","","","Cloudy"
"1983-05-30 23:00","1983","05","30","23:00","10.6","","6.3","","75","","25","","7","","25.0","","98.26","","","","","","Mainly Clear"
"1983-05-31 00:00","1983","05","31","00:00","10.0","","6.9","","81","","24","","6","","25.0","","98.26","","","","","","Mostly Cloudy"
"1983-05-31 01:00","1983","05","31","01:00","10.7","","6.3","","74","","23","","9","","25.0","","98.26","","","","","","Cloudy"
"1983-05-31 02:00","1983","05","31","02:00","10.5","","6.7","","77","","21","","9","","24.1","","98.22","","","","","","Cloudy"
"1983-05-31 03:00","1983","05","31","03:00","10.0","","5.7","","75","","19","","9","","24.1","","98.22","","","","","","Cloudy"
"1983-05-31 04:00","1983","05","31","04:00","10.0","","6.9","","81","","18","","6","","19.3","","98.19","","","","","","Cloudy"
"1983-05-31 05:00","1983","05","31","05:00","9.1","","7.1","","87","","17","","6","","16.1","","98.19","","","","","","Cloudy"
"1983-05-31 06:00","1983","05","31","06:00","9.2","","7.5","","89","","16","","7","","11.3","","98.19","","","","","","Cloudy"
"1983-05-31 07:00","1983","05","31","07:00","10.6","","7.9","","83","","18","","11","","19.3","","98.19","","","","","","Cloudy"
"1983-05-31 08:00","1983","05","31","08:00","12.1","","8.3","","77","","19","","9","","19.3","","98.16","","","","","","Mostly Cloudy"
"1983-05-31 09:00","1983","05","31","09:00","13.3","","8.8","","74","","19","","11","","19.3","","98.12","","","","","","Mostly Cloudy"
"1983-05-31 10:00","1983","05","31","10:00","14.2","","8.6","","69","","17","","13","","19.3","","98.09","","","","","","Mostly Cloudy"
"1983-05-31 11:00","1983","05","31","11:00","13.1","","8.7","","75","","16","","9","","24.1","","98.06","","","","","","Rain Showers"
"1983-05-31 12:00","1983","05","31","12:00","14.4","","9.2","","71","","16","","22","","24.1","","98.02","","","","","","Mostly Cloudy"
"1983-05-31 13:00","1983","05","31","13:00","15.3","","8.3","","63","","22","","30","","24.1","","97.92","","","","","","Mostly Cloudy"
"1983-05-31 14:00","1983","05","31","14:00","15.7","","6.6","","55","","22","","30","","24.1","","97.99","","","","","","Cloudy"
"1983-05-31 15:00","1983","05","31","15:00","11.3","","9.7","","90","","26","","20","","24.1","","98.02","","","","","","Mostly Cloudy"
"1983-05-31 16:00","1983","05","31","16:00","14.0","","9.8","","76","","25","","19","","24.1","","98.06","","","","","","Mostly Cloudy"
"1983-05-31 17:00","1983","05","31","17:00","13.9","","8.6","","70","","26","","13","","24.1","","98.06","","","","","","Cloudy"
"1983-05-31 18:00","1983","05","31","18:00","11.4","","8.6","","83","","26","","15","","24.1","","98.12","","","","","","Mostly Cloudy"
"1983-05-31 19:00","1983","05","31","19:00","11.7","","7.8","","77","","26","","17","","24.1","","98.19","","","","","","Mainly Clear"
"1983-05-31 20:00","1983","05","31","20:00","10.3","","7.1","","81","","26","","15","","24.1","","98.29","","","","","","Mainly Clear"
"1983-05-31 21:00","1983","05","31","21:00","9.0","","7.1","","88","","25","","9","","25.0","","98.36","","","","","","Clear"
"1983-05-31 22:00","1983","05","31","22:00","8.8","","7.1","","89","","25","","11","","25.0","","98.39","","","","","","Mainly Clear"
"1983-05-31 23:00","1983","05","31","23:00","8.6","","6.6","","87","","21","","7","","25.0","","98.46","","","","","","Mostly Cloudy"
