"Station Name","TORONTO LESTER B. PEARSON INT'L A"
"Province","ONTARIO"
"Latitude","43.68"
"Longitude","-79.63"
"Elevation","173.40"
"Climate Identifier","6158733"
"WMO Identifier","71624"
"TC Identifier","YYZ"
"All times are specified in Local Standard Time (LST). Add 1 hour to adjust for Daylight Saving Time where and when it is observed."

"Legend"
"E","Estimated"
"M","Missing"
"NA","Not Available"

"Date/Time","Year","Month","Day","Time","Temp (°C)","Temp Flag","Dew Point Temp (°C)","Dew Point Temp Flag","Rel Hum (%)","Rel Hum Flag","Wind Dir (10s deg)","Wind Dir Flag","Wind Spd (km/h)","Wind Spd Flag","Visibility (km)","Visibility Flag","Stn Press (kPa)","Stn Press Flag","Hmdx","Hmdx Flag","Wind Chill","Wind Chill Flag","Weather"
"1983-11-01 00:00","1983","11","01","00:00","-0.6","","-1.1","","96","","36","","6","","8.0","","100.99","","","","-3","","Fog"
"1983-11-01 01:00","1983","11","01","01:00","-0.6","","-1.1","","96","","36","","7","","6.4","","100.95","","","","-3","","Fog"
"1983-11-01 02:00","1983","11","01","02:00","-0.2","","-1.0","","94","","35","","9","","6.4","","100.92","","","","-3","","Fog"
"1983-11-01 03:00","1983","11","01","03:00","-0.2","","-1.0","","94","","34","","7","","6.4","","100.89","","","","-3","","Fog"
"1983-11-01 04:00","1983","11","01","04:00","-0.5","","-0.5","","100","","34","","6","","6.4","","100.89","","","","-3","","Fog"
"1983-11-01 05:00","1983","11","01","05:00","-0.1","","-0.1","","100","","34","","6","","0.0","","100.89","","","","-2","","Fog"
"1983-11-01 06:00","1983","11","01","06:00","2.0","","2.0","","100","","34","","6","","0.0","","100.89","","","","","","Fog"
"1983-11-01 07:00","1983","11","01","07:00","2.6","","2.6","","100","","35","","6","","0.0","","100.95","","","","","","Fog"
"1983-11-01 08:00","1983","11","01","08:00","3.3","","3.3","","100","","","","0","","0.0","","100.95","","","","","","Fog"
"1983-11-01 09:00","1983","11","01","09:00","4.2","","4.2","","100","","","","0","","0.0","","100.95","","","","","","Fog"
"1983-11-01 10:00","1983","11","01","10:00","5.2","","5.2","","100","","","","0","","0.8","","100.95","","","","","","Fog"
"1983-11-01 11:00","1983","11","01","11:00","9.7","","4.7","","71","","12","","9","","16.1","","100.89","","","","","","Clear"
"1983-11-01 12:00","1983","11","01","12:00","10.7","","4.0","","63","","13","","9","","19.3","","100.82","","","","","","Clear"
"1983-11-01 13:00","1983","11","01","13:00","11.3","","4.3","","62","","13","","11","","19.3","","100.76","","","","","","Clear"
"1983-11-01 14:00","1983","11","01","14:00","12.3","","4.1","","57","","14","","11","","24.1","","100.72","","","","","","Clear"
"1983-11-01 15:00","1983","11","01","15:00","11.3","","3.3","","58","","12","","6","","24.1","","100.69","","","","","","Mainly Clear"
"1983-11-01 16:00","1983","11","01","16:00","11.5","","3.8","","59","","17","","6","","12.9","","100.66","","","","","","Mostly Cloudy"
"1983-11-01 17:00","1983","11","01","17:00","9.9","","5.7","","75","","17","","7","","11.3","","100.66","","","","","","Mostly Cloudy"
"1983-11-01 18:00","1983","11","01","18:00","9.2","","5.9","","80","","15","","4","","11.3","","100.69","","","","","","Cloudy"
"1983-11-01 19:00","1983","11","01","19:00","9.7","","5.1","","73","","13","","4","","11.3","","100.72","","","","","","Cloudy"
"1983-11-01 20:00","1983","11","01","20:00","9.2","","6.3","","82","","","","0","","11.3","","100.69","","","","","","Cloudy"
"1983-11-01 21:00","1983","11","01","21:00","9.2","","5.9","","80","","","","0","","11.3","","100.69","","","","","","Cloudy"
"1983-11-01 22:00","1983","11","01","22:00","9.0","","6.7","","86","","","","0","","9.7","","100.66","","","","","","Haze"
"1983-11-01 23:00","1983","11","01","23:00","9.2","","6.7","","84","","","","0","","8.0","","100.56","","","","","","Haze"
"1983-11-02 00:00","1983","11","02","00:00","9.0","","7.9","","93","","","","0","","8.0","","100.56","","","","","","Rain Showers,Fog"
"1983-11-02 01:00","1983","11","02","01:00","9.0","","7.9","","93","","","","0","","8.0","","100.49","","","","","","Rain Showers,Fog"
"1983-11-02 02:00","1983","11","02","02:00","9.1","","8.6","","97","","15","","4","","8.0","","100.46","","","","","","Rain,Fog"
"1983-11-02 03:00","1983","11","02","03:00","9.0","","9.0","","100","","14","","6","","4.8","","100.46","","","","","","Fog"
"1983-11-02 04:00","1983","11","02","04:00","9.1","","9.1","","100","","","","0","","4.0","","100.39","","","","","","Rain,Fog"
"1983-11-02 05:00","1983","11","02","05:00","9.3","","9.3","","100","","15","","4","","2.8","","100.39","","","","","","Rain,Fog"
"1983-11-02 06:00","1983","11","02","06:00","9.5","","9.5","","100","","","","0","","1.0","","100.36","","","","","","Fog"
"1983-11-02 07:00","1983","11","02","07:00","9.4","","9.4","","100","","15","","7","","0.2","","100.36","","","","","","Fog"
"1983-11-02 08:00","1983","11","02","08:00","9.5","","9.5","","100","","17","","4","","0.4","","100.36","","","","","","Fog"
"1983-11-02 09:00","1983","11","02","09:00","10.0","","10.0","","100","","15","","7","","0.2","","100.36","","","","","","Fog"
"1983-11-02 10:00","1983","11","02","10:00","11.3","","11.3","","100","","16","","7","","2.0","","100.26","","","","","","Fog"
"1983-11-02 11:00","1983","11","02","11:00","13.8","","12.7","","93","","20","","7","","2.8","","100.26","","","","","","Fog"
"1983-11-02 12:00","1983","11","02","12:00","16.1","","13.0","","82","","21","","9","","4.0","","100.12","","","","","","Haze"
"1983-11-02 13:00","1983","11","02","13:00","15.9","","13.0","","83","","15","","7","","4.8","","100.02","","","","","","Haze"
"1983-11-02 14:00","1983","11","02","14:00","16.7","","13.2","","80","","15","","7","","6.4","","99.92","","","","","","Haze"
"1983-11-02 15:00","1983","11","02","15:00","16.5","","13.2","","81","","19","","7","","6.4","","99.89","","","","","","Rain,Haze"
"1983-11-02 16:00","1983","11","02","16:00","15.0","","13.7","","92","","20","","9","","3.2","","99.82","","","","","","Rain,Fog"
"1983-11-02 17:00","1983","11","02","17:00","14.3","","13.5","","95","","19","","11","","2.4","","99.79","","","","","","Rain,Fog"
"1983-11-02 18:00","1983","11","02","18:00","13.7","","12.8","","94","","23","","9","","3.2","","99.76","","","","","","Rain,Fog"
"1983-11-02 19:00","1983","11","02","19:00","13.5","","12.8","","95","","22","","7","","4.0","","99.76","","","","","","Rain,Fog"
"1983-11-02 20:00","1983","11","02","20:00","13.2","","12.7","","97","","22","","4","","3.2","","99.69","","","","","","Rain,Fog"
"1983-11-02 21:00","1983","11","02","21:00","13.2","","12.7","","97","","20","","7","","2.8","","99.66","","","","","","Rain,Fog"
"1983-11-02 22:00","1983","11","02","22:00","13.2","","12.7","","97","","20","","4","","1.6","","99.59","","","","","","Rain,Fog"
"1983-11-02 23:00","1983","11","02","23:00","13.0","","13.0","","100","","19","","6","","1.6","","99.52","","","","","","Rain,Fog"
"1983-11-03 00:00","1983","11","03","00:00","13.4","","12.8","","96","","21","","6","","2.0","","99.46","","","","","","Fog"
"1983-11-03 01:00","1983","11","03","01:00","13.0","","12.7","","98","","21","","6","","2.4","","99.42","","","","","","Fog"
"1983-11-03 02:00","1983","11","03","02:00","12.9","","12.3","","96","","23","","7","","2.8","","99.32","","","","","","Fog"
"1983-11-03 03:00","1983","11","03","03:00","12.5","","12.2","","98","","30","","7","","8.0","","99.32","","","","","","Fog"
"1983-11-03 04:00","1983","11","03","04:00","12.9","","12.0","","94","","31","","17","","9.7","","99.29","","","","","","Fog"
"1983-11-03 05:00","1983","11","03","05:00","12.4","","11.5","","94","","34","","20","","9.7","","99.29","","","","","","Fog"
"1983-11-03 06:00","1983","11","03","06:00","8.1","","6.0","","87","","33","","43","","11.3","","99.42","","","","","","Mostly Cloudy"
"1983-11-03 07:00","1983","11","03","07:00","6.1","","4.3","","88","","33","","28","","16.1","","99.49","","","","","","Cloudy"
"1983-11-03 08:00","1983","11","03","08:00","4.8","","2.8","","87","","33","","48","","24.1","","99.59","","","","","","Mostly Cloudy"
"1983-11-03 09:00","1983","11","03","09:00","3.9","","1.7","","86","","32","","44","","40.2","","99.62","","","","","","Cloudy"
"1983-11-03 10:00","1983","11","03","10:00","4.0","","1.7","","85","","34","","44","","40.2","","99.66","","","","","","Mostly Cloudy"
"1983-11-03 11:00","1983","11","03","11:00","4.7","","0.8","","76","","34","","41","","40.2","","99.76","","","","","","Mostly Cloudy"
"1983-11-03 12:00","1983","11","03","12:00","3.9","","1.3","","83","","34","","30","","40.2","","99.76","","","","","","Rain Showers"
"1983-11-03 13:00","1983","11","03","13:00","4.0","","-0.3","","74","","34","","33","","40.2","","99.76","","","","","","Mostly Cloudy"
"1983-11-03 14:00","1983","11","03","14:00","3.4","","-1.4","","71","","34","","33","","40.2","","99.79","","","","","","Mostly Cloudy"
"1983-11-03 15:00","1983","11","03","15:00","2.2","","-2.1","","73","","36","","33","","40.2","","99.82","","","","","","Cloudy"
"1983-11-03 16:00","1983","11","03","16:00","1.6","","-2.1","","76","","35","","26","","40.2","","99.89","","","","","","Snow Showers"
"1983-11-03 17:00","1983","11","03","17:00","1.0","","-1.5","","83","","34","","30","","40.2","","99.92","","","","","","Mostly Cloudy"
"1983-11-03 18:00","1983","11","03","18:00","0.3","","-1.4","","89","","34","","24","","25.0","","99.96","","","","","","Mostly Cloudy"
"1983-11-03 19:00","1983","11","03","19:00","0.2","","-1.8","","86","","35","","26","","25.0","","99.99","","","","","","Cloudy"
"1983-11-03 20:00","1983","11","03","20:00","0.3","","-3.9","","73","","34","","30","","25.0","","99.96","","","","","","Cloudy"
"1983-11-03 21:00","1983","11","03","21:00","-0.7","","-2.7","","86","","34","","28","","19.3","","99.96","","","","-7","","Cloudy"
"1983-11-03 22:00","1983","11","03","22:00","-1.0","","-3.3","","84","","34","","28","","9.7","","99.89","","","","-8","","Snow Showers"
"1983-11-03 23:00","1983","11","03","23:00","-1.3","","-2.8","","89","","33","","24","","4.0","","99.86","","","","-7","","Snow Showers"
"1983-11-04 00:00","1983","11","04","00:00","-1.5","","-2.5","","93","","32","","28","","4.8","","99.79","","","","-8","","Snow Showers"
"1983-11-04 01:00","1983","11","04","01:00","-1.5","","-2.8","","91","","32","","31","","9.7","","99.76","","","","-9","","Fog"
"1983-11-04 02:00","1983","11","04","02:00","-1.5","","-2.8","","91","","33","","28","","8.0","","99.76","","","","-8","","Snow Showers"
"1983-11-04 03:00","1983","11","04","03:00","-1.8","","-3.1","","91","","33","","30","","16.1","","99.62","","","","-9","","Mainly Clear"
"1983-11-04 04:00","1983","11","04","04:00","-1.6","","-3.0","","90","","33","","30","","16.1","","99.59","","","","-9","","Mainly Clear"
"1983-11-04 05:00","1983","11","04","05:00","-1.5","","-3.0","","89","","33","","28","","16.1","","99.59","","","","-8","","Snow Showers"
"1983-11-04 06:00","1983","11","04","06:00","-1.5","","-3.0","","89","","34","","24","","11.3","","99.59","","","","-8","","Snow Showers"
"1983-11-04 07:00","1983","11","04","07:00","-1.5","","-3.0","","89","","34","","26","","11.3","","99.59","","","","-8","","Snow Showers"
"1983-11-04 08:00","1983","11","04","08:00","-1.1","","-2.2","","92","","35","","30","","12.9","","99.62","","","","-8","","Snow Showers"
"1983-11-04 09:00","1983","11","04","09:00","-0.9","","-2.7","","87","","34","","26","","8.0","","99.62","","","","-7","","Snow Showers"
"1983-11-04 10:00","1983","11","04","10:00","-0.8","","-3.3","","83","","33","","28","","40.2","","99.62","","","","-7","","Snow Showers"
"1983-11-04 11:00","1983","11","04","11:00","-0.1","","-3.0","","81","","36","","22","","40.2","","99.62","","","","-6","","Mostly Cloudy"
"1983-11-04 12:00","1983","11","04","12:00","-0.3","","-2.1","","87","","34","","22","","1.6","","99.59","","","","-6","","Snow Showers"
"1983-11-04 13:00","1983","11","04","13:00","-1.0","","-1.6","","96","","34","","22","","0.8","","99.59","","","","-7","","Moderate Snow Showers"
"1983-11-04 14:00","1983","11","04","14:00","-1.0","","-1.6","","96","","33","","24","","4.0","","99.56","","","","-7","","Snow Showers"
"1983-11-04 15:00","1983","11","04","15:00","-0.5","","-1.1","","96","","35","","22","","2.4","","99.56","","","","-6","","Snow Showers"
"1983-11-04 16:00","1983","11","04","16:00","-0.2","","-1.2","","93","","35","","22","","3.2","","99.56","","","","-6","","Snow"
"1983-11-04 17:00","1983","11","04","17:00","-0.3","","-0.8","","96","","34","","20","","2.4","","99.56","","","","-6","","Snow"
"1983-11-04 18:00","1983","11","04","18:00","-0.5","","-1.1","","96","","35","","20","","3.2","","99.59","","","","-6","","Snow"
"1983-11-04 19:00","1983","11","04","19:00","-0.5","","-1.3","","94","","34","","22","","4.0","","99.56","","","","-6","","Snow"
"1983-11-04 20:00","1983","11","04","20:00","-0.2","","-1.2","","93","","33","","20","","19.3","","99.52","","","","-5","","Cloudy"
"1983-11-04 21:00","1983","11","04","21:00","0.0","","-0.5","","96","","33","","19","","8.0","","99.49","","","","-5","","Snow Showers"
"1983-11-04 22:00","1983","11","04","22:00","0.1","","-0.1","","98","","33","","20","","2.4","","99.49","","","","","","Snow Showers"
"1983-11-04 23:00","1983","11","04","23:00","0.5","","-0.5","","93","","34","","19","","9.7","","99.46","","","","","","Snow Showers"
"1983-11-05 00:00","1983","11","05","00:00","1.2","","0.0","","92","","35","","15","","9.7","","99.42","","","","","","Fog"
"1983-11-05 01:00","1983","11","05","01:00","2.2","","1.5","","95","","35","","17","","19.3","","99.36","","","","","","Cloudy"
"1983-11-05 02:00","1983","11","05","02:00","1.7","","1.0","","95","","34","","17","","19.3","","99.32","","","","","","Cloudy"
"1983-11-05 03:00","1983","11","05","03:00","2.1","","0.6","","90","","35","","20","","24.1","","99.32","","","","","","Cloudy"
"1983-11-05 04:00","1983","11","05","04:00","2.1","","0.6","","90","","2","","22","","24.1","","99.32","","","","","","Cloudy"
"1983-11-05 05:00","1983","11","05","05:00","1.9","","1.1","","95","","1","","15","","12.9","","99.39","","","","","","Drizzle"
"1983-11-05 06:00","1983","11","05","06:00","2.0","","1.1","","94","","1","","22","","9.7","","99.42","","","","","","Drizzle,Fog"
"1983-11-05 07:00","1983","11","05","07:00","2.1","","0.6","","90","","2","","19","","19.3","","99.46","","","","","","Cloudy"
"1983-11-05 08:00","1983","11","05","08:00","2.2","","1.1","","92","","1","","19","","40.2","","99.52","","","","","","Mostly Cloudy"
"1983-11-05 09:00","1983","11","05","09:00","2.9","","1.6","","91","","2","","15","","19.3","","99.56","","","","","","Mostly Cloudy"
"1983-11-05 10:00","1983","11","05","10:00","3.2","","0.2","","81","","1","","19","","32.2","","99.56","","","","","","Cloudy"
"1983-11-05 11:00","1983","11","05","11:00","3.5","","2.2","","91","","1","","19","","40.2","","99.56","","","","","","Cloudy"
"1983-11-05 12:00","1983","11","05","12:00","3.5","","2.2","","91","","36","","20","","40.2","","99.49","","","","","","Cloudy"
"1983-11-05 13:00","1983","11","05","13:00","3.8","","1.7","","86","","1","","19","","40.2","","99.46","","","","","","Cloudy"
"1983-11-05 14:00","1983","11","05","14:00","4.0","","2.2","","88","","36","","19","","40.2","","99.42","","","","","","Cloudy"
"1983-11-05 15:00","1983","11","05","15:00","3.8","","2.7","","93","","36","","19","","40.2","","99.42","","","","","","Cloudy"
"1983-11-05 16:00","1983","11","05","16:00","3.7","","1.7","","87","","35","","15","","19.3","","99.46","","","","","","Rain"
"1983-11-05 17:00","1983","11","05","17:00","3.7","","1.7","","87","","35","","15","","19.3","","99.46","","","","","","Rain"
"1983-11-05 18:00","1983","11","05","18:00","3.4","","2.6","","95","","34","","9","","12.9","","99.46","","","","","","Drizzle"
"1983-11-05 19:00","1983","11","05","19:00","3.3","","3.1","","99","","35","","6","","3.2","","99.46","","","","","","Drizzle,Fog"
"1983-11-05 20:00","1983","11","05","20:00","3.5","","2.6","","94","","35","","7","","4.0","","99.42","","","","","","Drizzle,Fog"
"1983-11-05 21:00","1983","11","05","21:00","3.5","","2.6","","94","","5","","2","","9.7","","99.42","","","","","","Fog"
"1983-11-05 22:00","1983","11","05","22:00","3.5","","2.6","","94","","35","","6","","6.4","","99.39","","","","","","Drizzle,Fog"
"1983-11-05 23:00","1983","11","05","23:00","3.4","","2.6","","95","","1","","7","","9.7","","99.39","","","","","","Drizzle,Fog"
"1983-11-06 00:00","1983","11","06","00:00","3.4","","3.1","","98","","3","","2","","9.7","","99.32","","","","","","Fog"
"1983-11-06 01:00","1983","11","06","01:00","3.5","","3.1","","97","","","","0","","12.9","","99.32","","","","","","Cloudy"
"1983-11-06 02:00","1983","11","06","02:00","3.4","","3.1","","98","","","","0","","16.1","","99.32","","","","","","Cloudy"
"1983-11-06 03:00","1983","11","06","03:00","3.1","","3.1","","100","","","","0","","4.8","","99.29","","","","","","Drizzle,Fog"
"1983-11-06 04:00","1983","11","06","04:00","2.9","","2.9","","100","","5","","6","","4.8","","99.29","","","","","","Drizzle,Fog"
"1983-11-06 05:00","1983","11","06","05:00","2.7","","2.7","","100","","","","0","","4.8","","99.29","","","","","","Drizzle,Fog"
"1983-11-06 06:00","1983","11","06","06:00","2.8","","2.6","","99","","4","","4","","8.0","","99.29","","","","","","Drizzle,Fog"
"1983-11-06 07:00","1983","11","06","07:00","2.9","","2.9","","100","","3","","4","","4.8","","99.32","","","","","","Drizzle,Fog"
"1983-11-06 08:00","1983","11","06","08:00","3.0","","3.0","","100","","4","","4","","6.4","","99.42","","","","","","Drizzle,Fog"
"1983-11-06 09:00","1983","11","06","09:00","3.2","","3.2","","100","","4","","2","","6.4","","99.39","","","","","","Drizzle,Fog"
"1983-11-06 10:00","1983","11","06","10:00","3.7","","2.6","","92","","","","0","","8.0","","99.36","","","","","","Drizzle,Fog"
"1983-11-06 11:00","1983","11","06","11:00","4.6","","3.6","","93","","25","","2","","12.9","","99.36","","","","","","Rain Showers"
"1983-11-06 12:00","1983","11","06","12:00","5.4","","3.4","","87","","24","","2","","19.3","","99.29","","","","","","Cloudy"
"1983-11-06 13:00","1983","11","06","13:00","6.1","","3.4","","83","","26","","7","","32.2","","99.29","","","","","","Cloudy"
"1983-11-06 14:00","1983","11","06","14:00","6.6","","4.4","","86","","25","","4","","32.2","","99.22","","","","","","Cloudy"
"1983-11-06 15:00","1983","11","06","15:00","7.0","","4.5","","84","","27","","9","","32.2","","99.22","","","","","","Cloudy"
"1983-11-06 16:00","1983","11","06","16:00","7.1","","4.1","","81","","26","","6","","32.2","","99.22","","","","","","Cloudy"
"1983-11-06 17:00","1983","11","06","17:00","6.7","","4.0","","83","","24","","7","","24.1","","99.22","","","","","","Cloudy"
"1983-11-06 18:00","1983","11","06","18:00","6.2","","4.3","","87","","24","","6","","25.0","","99.26","","","","","","Cloudy"
"1983-11-06 19:00","1983","11","06","19:00","6.1","","4.8","","91","","21","","7","","19.3","","99.26","","","","","","Rain Showers"
"1983-11-06 20:00","1983","11","06","20:00","6.0","","4.8","","92","","22","","11","","16.1","","99.26","","","","","","Cloudy"
"1983-11-06 21:00","1983","11","06","21:00","6.1","","4.3","","88","","24","","9","","19.3","","99.26","","","","","","Cloudy"
"1983-11-06 22:00","1983","11","06","22:00","6.2","","3.9","","85","","23","","9","","19.3","","99.29","","","","","","Cloudy"
"1983-11-06 23:00","1983","11","06","23:00","6.1","","3.9","","86","","","","0","","19.3","","99.26","","","","","","Cloudy"
"1983-11-07 00:00","1983","11","07","00:00","6.4","","4.4","","87","","28","","4","","9.7","","99.29","","","","","","Haze"
"1983-11-07 01:00","1983","11","07","01:00","6.4","","4.4","","87","","28","","9","","9.7","","99.29","","","","","","Haze"
"1983-11-07 02:00","1983","11","07","02:00","6.5","","4.9","","89","","31","","9","","9.7","","99.32","","","","","","Fog"
"1983-11-07 03:00","1983","11","07","03:00","6.5","","4.9","","89","","29","","6","","8.0","","99.36","","","","","","Fog"
"1983-11-07 04:00","1983","11","07","04:00","6.8","","5.4","","91","","31","","15","","8.0","","99.42","","","","","","Fog"
"1983-11-07 05:00","1983","11","07","05:00","6.9","","5.0","","88","","30","","7","","16.1","","99.46","","","","","","Cloudy"
"1983-11-07 06:00","1983","11","07","06:00","6.0","","3.9","","86","","30","","7","","25.0","","99.49","","","","","","Mostly Cloudy"
"1983-11-07 07:00","1983","11","07","07:00","5.4","","2.9","","84","","27","","6","","32.2","","99.56","","","","","","Mostly Cloudy"
"1983-11-07 08:00","1983","11","07","08:00","5.7","","2.9","","82","","29","","9","","32.2","","99.59","","","","","","Mostly Cloudy"
"1983-11-07 09:00","1983","11","07","09:00","6.8","","3.2","","78","","29","","11","","32.2","","99.66","","","","","","Mostly Cloudy"
"1983-11-07 10:00","1983","11","07","10:00","8.0","","2.9","","70","","30","","11","","32.2","","99.66","","","","","","Mostly Cloudy"
"1983-11-07 11:00","1983","11","07","11:00","8.8","","3.6","","70","","33","","11","","32.2","","99.69","","","","","","Mainly Clear"
"1983-11-07 12:00","1983","11","07","12:00","9.6","","2.8","","62","","28","","9","","32.2","","99.66","","","","","","Mainly Clear"
"1983-11-07 13:00","1983","11","07","13:00","10.1","","1.9","","57","","","","0","","32.2","","99.62","","","","","","Mainly Clear"
"1983-11-07 14:00","1983","11","07","14:00","10.6","","2.6","","58","","33","","6","","32.2","","99.59","","","","","","Mainly Clear"
"1983-11-07 15:00","1983","11","07","15:00","11.2","","2.2","","54","","","","0","","32.2","","99.62","","","","","","Mainly Clear"
"1983-11-07 16:00","1983","11","07","16:00","10.8","","3.2","","60","","17","","13","","32.2","","99.66","","","","","","Mainly Clear"
"1983-11-07 17:00","1983","11","07","17:00","8.7","","3.0","","67","","17","","11","","32.2","","99.69","","","","","","Mainly Clear"
"1983-11-07 18:00","1983","11","07","18:00","8.0","","3.4","","73","","17","","6","","25.0","","99.69","","","","","","Mainly Clear"
"1983-11-07 19:00","1983","11","07","19:00","6.5","","3.5","","81","","","","0","","25.0","","99.72","","","","","","Mostly Cloudy"
"1983-11-07 20:00","1983","11","07","20:00","4.0","","2.7","","91","","30","","4","","16.1","","99.76","","","","","","Mainly Clear"
"1983-11-07 21:00","1983","11","07","21:00","5.2","","3.3","","87","","","","0","","19.3","","99.76","","","","","","Mainly Clear"
"1983-11-07 22:00","1983","11","07","22:00","2.6","","1.6","","93","","31","","4","","16.1","","99.79","","","","","","Mainly Clear"
"1983-11-07 23:00","1983","11","07","23:00","2.7","","2.0","","95","","28","","4","","9.7","","99.72","","","","","","Fog"
"1983-11-08 00:00","1983","11","08","00:00","2.3","","2.0","","98","","","","0","","8.0","","99.72","","","","","","Fog"
"1983-11-08 01:00","1983","11","08","01:00","1.9","","1.5","","97","","","","0","","6.4","","99.72","","","","","","Fog"
"1983-11-08 02:00","1983","11","08","02:00","3.0","","3.0","","100","","","","0","","4.8","","99.76","","","","","","Fog"
"1983-11-08 03:00","1983","11","08","03:00","1.8","","1.5","","98","","","","0","","6.4","","99.76","","","","","","Fog"
"1983-11-08 04:00","1983","11","08","04:00","4.2","","3.6","","96","","16","","4","","6.4","","99.76","","","","","","Fog"
"1983-11-08 05:00","1983","11","08","05:00","5.5","","4.2","","91","","17","","4","","4.8","","99.72","","","","","","Fog"
"1983-11-08 06:00","1983","11","08","06:00","5.7","","4.7","","93","","","","0","","4.8","","99.69","","","","","","Fog"
"1983-11-08 07:00","1983","11","08","07:00","6.5","","5.3","","92","","17","","6","","4.0","","99.69","","","","","","Fog"
"1983-11-08 08:00","1983","11","08","08:00","7.6","","6.3","","91","","19","","7","","4.0","","99.69","","","","","","Fog"
"1983-11-08 09:00","1983","11","08","09:00","9.3","","6.8","","84","","23","","20","","6.4","","99.69","","","","","","Haze"
"1983-11-08 10:00","1983","11","08","10:00","10.9","","6.4","","74","","23","","15","","12.9","","99.76","","","","","","Mostly Cloudy"
"1983-11-08 11:00","1983","11","08","11:00","12.6","","6.0","","64","","22","","17","","16.1","","99.72","","","","","","Cloudy"
"1983-11-08 12:00","1983","11","08","12:00","14.4","","5.3","","54","","21","","19","","16.1","","99.62","","","","","","Cloudy"
"1983-11-08 13:00","1983","11","08","13:00","15.1","","4.0","","47","","23","","22","","19.3","","99.62","","","","","","Cloudy"
"1983-11-08 14:00","1983","11","08","14:00","15.8","","4.9","","48","","25","","20","","19.3","","99.59","","","","","","Cloudy"
"1983-11-08 15:00","1983","11","08","15:00","14.9","","5.5","","53","","24","","17","","24.1","","99.59","","","","","","Cloudy"
"1983-11-08 16:00","1983","11","08","16:00","14.6","","6.2","","57","","23","","11","","24.1","","99.59","","","","","","Cloudy"
"1983-11-08 17:00","1983","11","08","17:00","14.0","","6.9","","62","","22","","17","","24.1","","99.62","","","","","","Mostly Cloudy"
"1983-11-08 18:00","1983","11","08","18:00","12.4","","6.4","","67","","21","","15","","25.0","","99.69","","","","","","Mostly Cloudy"
"1983-11-08 19:00","1983","11","08","19:00","11.1","","6.4","","73","","21","","11","","19.3","","99.76","","","","","","Mainly Clear"
"1983-11-08 20:00","1983","11","08","20:00","11.1","","6.4","","73","","21","","13","","16.1","","99.79","","","","","","Mostly Cloudy"
"1983-11-08 21:00","1983","11","08","21:00","11.0","","6.8","","75","","23","","13","","16.1","","99.79","","","","","","Cloudy"
"1983-11-08 22:00","1983","11","08","22:00","10.9","","7.2","","78","","25","","9","","12.9","","99.79","","","","","","Cloudy"
"1983-11-08 23:00","1983","11","08","23:00","10.8","","7.2","","79","","26","","4","","12.9","","99.79","","","","","","Cloudy"
"1983-11-09 00:00","1983","11","09","00:00","9.8","","7.4","","85","","25","","4","","11.3","","99.82","","","","","","Cloudy"
"1983-11-09 01:00","1983","11","09","01:00","10.1","","6.5","","78","","","","0","","11.3","","99.86","","","","","","Cloudy"
"1983-11-09 02:00","1983","11","09","02:00","10.1","","6.5","","78","","","","0","","9.7","","99.86","","","","","","Haze"
"1983-11-09 03:00","1983","11","09","03:00","10.1","","6.1","","76","","","","0","","9.7","","99.89","","","","","","Haze"
"1983-11-09 04:00","1983","11","09","04:00","9.5","","6.4","","81","","","","0","","9.7","","99.92","","","","","","Haze"
"1983-11-09 05:00","1983","11","09","05:00","9.7","","6.0","","78","","21","","4","","8.0","","99.89","","","","","","Haze"
"1983-11-09 06:00","1983","11","09","06:00","9.5","","6.4","","81","","20","","4","","6.4","","99.92","","","","","","Haze"
"1983-11-09 07:00","1983","11","09","07:00","9.7","","5.6","","76","","17","","4","","4.8","","99.92","","","","","","Haze"
"1983-11-09 08:00","1983","11","09","08:00","9.9","","6.1","","77","","","","0","","4.8","","99.96","","","","","","Haze"
"1983-11-09 09:00","1983","11","09","09:00","10.8","","6.4","","74","","","","0","","4.8","","99.96","","","","","","Haze"
"1983-11-09 10:00","1983","11","09","10:00","11.6","","6.1","","69","","","","0","","4.8","","99.96","","","","","","Haze"
"1983-11-09 11:00","1983","11","09","11:00","13.3","","6.8","","65","","","","0","","8.0","","99.92","","","","","","Haze"
"1983-11-09 12:00","1983","11","09","12:00","14.6","","6.7","","59","","15","","2","","8.0","","99.82","","","","","","Haze"
"1983-11-09 13:00","1983","11","09","13:00","14.8","","8.1","","64","","17","","6","","8.0","","99.72","","","","","","Haze"
"1983-11-09 14:00","1983","11","09","14:00","15.2","","6.9","","58","","14","","15","","9.7","","99.62","","","","","","Haze"
"1983-11-09 15:00","1983","11","09","15:00","14.7","","6.7","","59","","14","","11","","12.9","","99.59","","","","","","Cloudy"
"1983-11-09 16:00","1983","11","09","16:00","13.1","","7.0","","66","","14","","13","","12.9","","99.56","","","","","","Cloudy"
"1983-11-09 17:00","1983","11","09","17:00","10.6","","6.7","","77","","11","","17","","9.7","","99.59","","","","","","Haze"
"1983-11-09 18:00","1983","11","09","18:00","10.2","","6.1","","76","","9","","17","","9.7","","99.59","","","","","","Haze"
"1983-11-09 19:00","1983","11","09","19:00","10.1","","6.1","","76","","9","","11","","9.7","","99.56","","","","","","Haze"
"1983-11-09 20:00","1983","11","09","20:00","9.5","","7.6","","88","","9","","13","","8.0","","99.52","","","","","","Fog"
"1983-11-09 21:00","1983","11","09","21:00","9.0","","7.1","","88","","10","","20","","8.0","","99.52","","","","","","Fog"
"1983-11-09 22:00","1983","11","09","22:00","7.9","","6.8","","93","","10","","15","","8.0","","99.49","","","","","","Fog"
"1983-11-09 23:00","1983","11","09","23:00","8.0","","6.8","","92","","10","","9","","8.0","","99.42","","","","","","Fog"
"1983-11-10 00:00","1983","11","10","00:00","7.0","","5.8","","92","","9","","6","","8.0","","99.39","","","","","","Fog"
"1983-11-10 01:00","1983","11","10","01:00","7.3","","6.7","","96","","7","","9","","8.0","","99.29","","","","","","Fog"
"1983-11-10 02:00","1983","11","10","02:00","7.4","","6.7","","96","","10","","7","","8.0","","99.19","","","","","","Fog"
"1983-11-10 03:00","1983","11","10","03:00","7.5","","6.7","","95","","7","","6","","4.8","","99.12","","","","","","Fog"
"1983-11-10 04:00","1983","11","10","04:00","7.5","","6.7","","95","","2","","6","","4.8","","99.06","","","","","","Fog"
"1983-11-10 05:00","1983","11","10","05:00","7.2","","6.6","","96","","4","","7","","4.0","","99.02","","","","","","Fog"
"1983-11-10 06:00","1983","11","10","06:00","5.9","","5.6","","98","","2","","4","","4.0","","98.99","","","","","","Fog"
"1983-11-10 07:00","1983","11","10","07:00","6.5","","6.5","","100","","36","","4","","4.0","","99.02","","","","","","Fog"
"1983-11-10 08:00","1983","11","10","08:00","6.9","","6.2","","96","","35","","7","","3.2","","98.99","","","","","","Fog"
"1983-11-10 09:00","1983","11","10","09:00","7.6","","6.3","","91","","","","0","","4.8","","98.99","","","","","","Fog"
"1983-11-10 10:00","1983","11","10","10:00","9.1","","7.1","","87","","","","0","","4.8","","98.96","","","","","","Fog"
"1983-11-10 11:00","1983","11","10","11:00","10.2","","6.9","","80","","","","0","","4.8","","98.89","","","","","","Haze"
"1983-11-10 12:00","1983","11","10","12:00","11.4","","7.4","","76","","12","","4","","6.4","","98.82","","","","","","Haze"
"1983-11-10 13:00","1983","11","10","13:00","11.7","","7.4","","75","","12","","7","","8.0","","98.72","","","","","","Rain Showers,Haze"
"1983-11-10 14:00","1983","11","10","14:00","11.3","","7.8","","79","","13","","11","","8.0","","98.69","","","","","","Haze"
"1983-11-10 15:00","1983","11","10","15:00","11.4","","7.8","","78","","11","","11","","6.4","","98.59","","","","","","Rain Showers,Haze"
"1983-11-10 16:00","1983","11","10","16:00","11.4","","9.7","","89","","9","","7","","4.0","","98.52","","","","","","Drizzle,Fog"
"1983-11-10 17:00","1983","11","10","17:00","11.6","","8.2","","80","","6","","9","","4.8","","98.49","","","","","","Haze"
"1983-11-10 18:00","1983","11","10","18:00","11.5","","8.6","","82","","5","","13","","4.8","","98.42","","","","","","Haze"
"1983-11-10 19:00","1983","11","10","19:00","10.6","","9.4","","92","","8","","15","","4.0","","98.39","","","","","","Drizzle,Fog"
"1983-11-10 20:00","1983","11","10","20:00","11.0","","10.3","","95","","10","","17","","4.0","","98.29","","","","","","Rain,Fog"
"1983-11-10 21:00","1983","11","10","21:00","10.2","","9.6","","96","","9","","11","","4.0","","98.29","","","","","","Rain,Fog"
"1983-11-10 22:00","1983","11","10","22:00","9.7","","8.8","","94","","10","","17","","4.0","","98.22","","","","","","Rain,Fog"
"1983-11-10 23:00","1983","11","10","23:00","9.5","","8.8","","95","","9","","15","","4.8","","98.12","","","","","","Rain,Fog"
"1983-11-11 00:00","1983","11","11","00:00","9.4","","8.8","","96","","7","","17","","6.4","","98.09","","","","","","Rain,Fog"
"1983-11-11 01:00","1983","11","11","01:00","8.7","","7.7","","93","","7","","22","","6.4","","97.99","","","","","","Rain,Fog"
"1983-11-11 02:00","1983","11","11","02:00","8.5","","8.1","","97","","6","","19","","4.8","","97.96","","","","","","Rain,Fog"
"1983-11-11 03:00","1983","11","11","03:00","8.4","","8.1","","98","","5","","13","","4.0","","97.89","","","","","","Rain,Fog"
"1983-11-11 04:00","1983","11","11","04:00","8.2","","7.6","","96","","2","","9","","4.8","","97.79","","","","","","Rain,Fog"
"1983-11-11 05:00","1983","11","11","05:00","7.7","","7.1","","96","","36","","19","","4.0","","97.72","","","","","","Drizzle,Fog"
"1983-11-11 06:00","1983","11","11","06:00","6.0","","5.6","","97","","1","","22","","4.0","","97.69","","","","","","Rain,Drizzle,Fog"
"1983-11-11 07:00","1983","11","11","07:00","4.4","","4.1","","98","","36","","33","","4.8","","97.69","","","","","","Rain,Fog"
"1983-11-11 08:00","1983","11","11","08:00","3.1","","3.1","","100","","36","","33","","6.4","","97.66","","","","","","Rain,Fog"
"1983-11-11 09:00","1983","11","11","09:00","2.4","","2.0","","97","","36","","33","","12.9","","97.59","","","","","","Rain"
"1983-11-11 10:00","1983","11","11","10:00","1.5","","1.5","","100","","35","","30","","11.3","","97.59","","","","","","Rain"
"1983-11-11 11:00","1983","11","11","11:00","0.6","","0.6","","100","","35","","26","","4.8","","97.59","","","","","","Snow"
"1983-11-11 12:00","1983","11","11","12:00","0.0","","0.0","","100","","35","","26","","2.0","","97.52","","","","-6","","Snow"
"1983-11-11 13:00","1983","11","11","13:00","-0.3","","-0.3","","100","","35","","28","","2.0","","97.52","","","","-7","","Snow"
"1983-11-11 14:00","1983","11","11","14:00","-1.1","","-1.2","","99","","34","","33","","2.0","","97.52","","","","-8","","Snow"
"1983-11-11 15:00","1983","11","11","15:00","-1.5","","-1.7","","98","","35","","33","","1.6","","97.52","","","","-9","","Snow"
"1983-11-11 16:00","1983","11","11","16:00","-2.0","","-2.3","","98","","35","","39","","1.2","","97.62","","","","-10","","Snow"
"1983-11-11 17:00","1983","11","11","17:00","-2.0","","-2.8","","94","","35","","37","","1.6","","97.69","","","","-10","","Snow"
"1983-11-11 18:00","1983","11","11","18:00","-2.3","","-4.5","","85","","35","","41","","3.2","","97.76","","","","-11","","Snow"
"1983-11-11 19:00","1983","11","11","19:00","-2.3","","-4.5","","85","","34","","39","","8.0","","97.79","","","","-10","","Snow"
"1983-11-11 20:00","1983","11","11","20:00","-2.7","","-3.9","","92","","34","","48","","8.0","","97.89","","","","-12","","Snow,Blowing Snow"
"1983-11-11 21:00","1983","11","11","21:00","-2.7","","-4.2","","89","","34","","43","","19.3","","97.96","","","","-11","","Cloudy"
"1983-11-11 22:00","1983","11","11","22:00","-2.9","","-4.8","","87","","34","","35","","19.3","","98.06","","","","-11","","Cloudy"
"1983-11-11 23:00","1983","11","11","23:00","-2.9","","-5.4","","83","","34","","37","","24.1","","98.12","","","","-11","","Cloudy"
"1983-11-12 00:00","1983","11","12","00:00","-2.6","","-4.8","","85","","34","","39","","24.1","","98.22","","","","-11","","Cloudy"
"1983-11-12 01:00","1983","11","12","01:00","-2.6","","-4.8","","85","","34","","46","","24.1","","98.26","","","","-11","","Cloudy"
"1983-11-12 02:00","1983","11","12","02:00","-2.7","","-5.1","","84","","33","","37","","25.0","","98.32","","","","-11","","Cloudy"
"1983-11-12 03:00","1983","11","12","03:00","-2.7","","-4.8","","86","","33","","39","","25.0","","98.39","","","","-11","","Cloudy"
"1983-11-12 04:00","1983","11","12","04:00","-2.7","","-5.1","","84","","33","","31","","25.0","","98.49","","","","-10","","Cloudy"
"1983-11-12 05:00","1983","11","12","05:00","-2.3","","-5.1","","81","","33","","41","","25.0","","98.56","","","","-11","","Cloudy"
"1983-11-12 06:00","1983","11","12","06:00","-2.5","","-4.8","","84","","33","","43","","25.0","","98.66","","","","-11","","Mostly Cloudy"
"1983-11-12 07:00","1983","11","12","07:00","-2.3","","-5.4","","79","","33","","37","","25.0","","98.76","","","","-10","","Cloudy"
"1983-11-12 08:00","1983","11","12","08:00","-2.7","","-5.1","","84","","32","","37","","40.2","","98.86","","","","-11","","Cloudy"
"1983-11-12 09:00","1983","11","12","09:00","-2.9","","-5.1","","85","","32","","44","","40.2","","98.92","","","","-12","","Mostly Cloudy"
"1983-11-12 10:00","1983","11","12","10:00","-2.6","","-5.1","","83","","32","","41","","40.2","","99.02","","","","-11","","Mostly Cloudy"
"1983-11-12 11:00","1983","11","12","11:00","-2.0","","-4.5","","83","","33","","46","","40.2","","99.09","","","","-11","","Mainly Clear"
"1983-11-12 12:00","1983","11","12","12:00","-1.6","","-3.6","","86","","33","","41","","40.2","","99.09","","","","-10","","Mostly Cloudy"
"1983-11-12 13:00","1983","11","12","13:00","-1.3","","-3.9","","82","","32","","33","","40.2","","99.09","","","","-8","","Mostly Cloudy"
"1983-11-12 14:00","1983","11","12","14:00","-0.8","","-5.0","","73","","33","","30","","40.2","","99.12","","","","-8","","Mostly Cloudy"
"1983-11-12 15:00","1983","11","12","15:00","-0.6","","-3.2","","82","","33","","22","","40.2","","99.19","","","","-6","","Mainly Clear"
"1983-11-12 16:00","1983","11","12","16:00","-1.1","","-5.0","","75","","34","","35","","40.2","","99.26","","","","-8","","Mainly Clear"
"1983-11-12 17:00","1983","11","12","17:00","-1.9","","-6.0","","73","","32","","24","","40.2","","99.42","","","","-8","","Mainly Clear"
"1983-11-12 18:00","1983","11","12","18:00","-3.4","","-6.7","","78","","33","","20","","25.0","","99.42","","","","-10","","Clear"
"1983-11-12 19:00","1983","11","12","19:00","-3.4","","-6.3","","80","","31","","17","","25.0","","99.49","","","","-9","","Clear"
"1983-11-12 20:00","1983","11","12","20:00","-4.0","","-6.6","","82","","32","","13","","25.0","","99.52","","","","-9","","Clear"
"1983-11-12 21:00","1983","11","12","21:00","-3.9","","-6.3","","83","","32","","13","","25.0","","99.56","","","","-9","","Clear"
"1983-11-12 22:00","1983","11","12","22:00","-4.8","","-7.2","","83","","33","","11","","25.0","","99.56","","","","-9","","Clear"
"1983-11-12 23:00","1983","11","12","23:00","-5.6","","-7.5","","86","","34","","9","","25.0","","99.59","","","","-10","","Clear"
"1983-11-13 00:00","1983","11","13","00:00","-5.3","","-7.5","","84","","35","","13","","25.0","","99.62","","","","-10","","Clear"
"1983-11-13 01:00","1983","11","13","01:00","-6.4","","-8.7","","83","","34","","11","","25.0","","99.62","","","","-11","","Clear"
"1983-11-13 02:00","1983","11","13","02:00","-6.7","","-9.0","","84","","34","","9","","25.0","","99.62","","","","-11","","Clear"
"1983-11-13 03:00","1983","11","13","03:00","-7.2","","-9.3","","85","","26","","7","","25.0","","99.72","","","","-11","","Mainly Clear"
"1983-11-13 04:00","1983","11","13","04:00","-7.4","","-9.5","","85","","30","","4","","25.0","","99.72","","","","-9","","Mostly Cloudy"
"1983-11-13 05:00","1983","11","13","05:00","-7.3","","-9.9","","81","","35","","6","","25.0","","99.76","","","","-10","","Mostly Cloudy"
"1983-11-13 06:00","1983","11","13","06:00","-6.5","","-8.7","","84","","","","0","","25.0","","99.76","","","","","","Mostly Cloudy"
"1983-11-13 07:00","1983","11","13","07:00","-5.5","","-7.8","","84","","36","","7","","25.0","","99.76","","","","-9","","Mostly Cloudy"
"1983-11-13 08:00","1983","11","13","08:00","-5.1","","-6.9","","87","","2","","9","","32.2","","99.79","","","","-9","","Cloudy"
"1983-11-13 09:00","1983","11","13","09:00","-4.9","","-6.9","","86","","35","","6","","32.2","","99.79","","","","-8","","Cloudy"
"1983-11-13 10:00","1983","11","13","10:00","-4.5","","-6.9","","83","","","","0","","32.2","","99.79","","","","","","Cloudy"
"1983-11-13 11:00","1983","11","13","11:00","-4.0","","-6.0","","86","","","","0","","32.2","","99.79","","","","","","Cloudy"
"1983-11-13 12:00","1983","11","13","12:00","-3.5","","-8.0","","71","","","","0","","32.2","","99.72","","","","","","Cloudy"
"1983-11-13 13:00","1983","11","13","13:00","-3.2","","-6.0","","81","","24","","7","","32.2","","99.66","","","","-6","","Mostly Cloudy"
"1983-11-13 14:00","1983","11","13","14:00","-3.0","","-5.6","","82","","33","","4","","32.2","","99.59","","","","-5","","Mostly Cloudy"
"1983-11-13 15:00","1983","11","13","15:00","-3.0","","-6.4","","77","","","","0","","24.1","","99.59","","","","","","Cloudy"
"1983-11-13 16:00","1983","11","13","16:00","-3.1","","-5.7","","82","","","","0","","12.9","","99.59","","","","","","Cloudy"
"1983-11-13 17:00","1983","11","13","17:00","-2.7","","-5.1","","84","","17","","6","","11.3","","99.56","","","","-5","","Cloudy"
"1983-11-13 18:00","1983","11","13","18:00","-3.3","","-5.7","","83","","","","0","","9.7","","99.56","","","","","","Haze"
"1983-11-13 19:00","1983","11","13","19:00","-3.6","","-6.0","","83","","","","0","","11.3","","99.56","","","","","","Cloudy"
"1983-11-13 20:00","1983","11","13","20:00","-4.3","","-6.9","","82","","","","0","","11.3","","99.59","","","","","","Cloudy"
"1983-11-13 21:00","1983","11","13","21:00","-4.0","","-6.0","","86","","","","0","","9.7","","99.56","","","","","","Fog"
"1983-11-13 22:00","1983","11","13","22:00","-4.4","","-6.0","","88","","2","","4","","9.7","","99.49","","","","-6","","Fog"
"1983-11-13 23:00","1983","11","13","23:00","-4.6","","-5.7","","92","","4","","6","","9.7","","99.46","","","","-7","","Fog"
"1983-11-14 00:00","1983","11","14","00:00","-4.4","","-6.0","","88","","32","","4","","9.7","","99.46","","","","-6","","Fog"
"1983-11-14 01:00","1983","11","14","01:00","-4.2","","-5.4","","92","","35","","4","","9.7","","99.42","","","","-6","","Fog"
"1983-11-14 02:00","1983","11","14","02:00","-4.2","","-5.7","","89","","34","","6","","9.7","","99.42","","","","-7","","Fog"
"1983-11-14 03:00","1983","11","14","03:00","-3.8","","-5.7","","86","","34","","6","","9.7","","99.42","","","","-6","","Fog"
"1983-11-14 04:00","1983","11","14","04:00","-3.2","","-4.8","","89","","32","","9","","9.7","","99.39","","","","-7","","Fog"
"1983-11-14 05:00","1983","11","14","05:00","-2.4","","-4.5","","85","","3","","6","","12.9","","99.42","","","","-5","","Cloudy"
"1983-11-14 06:00","1983","11","14","06:00","-2.3","","-4.2","","86","","2","","4","","12.9","","99.39","","","","-4","","Cloudy"
"1983-11-14 07:00","1983","11","14","07:00","-2.1","","-3.6","","89","","34","","4","","9.7","","99.49","","","","-4","","Fog"
"1983-11-14 08:00","1983","11","14","08:00","-2.6","","-4.2","","89","","35","","11","","9.7","","99.52","","","","-7","","Fog"
"1983-11-14 09:00","1983","11","14","09:00","-1.8","","-4.2","","83","","2","","7","","16.1","","99.56","","","","-4","","Mostly Cloudy"
"1983-11-14 10:00","1983","11","14","10:00","-0.3","","-3.0","","82","","","","0","","16.1","","99.62","","","","","","Mostly Cloudy"
"1983-11-14 11:00","1983","11","14","11:00","1.8","","-2.1","","75","","8","","7","","16.1","","99.62","","","","","","Mostly Cloudy"
"1983-11-14 12:00","1983","11","14","12:00","2.3","","-1.5","","76","","10","","9","","16.1","","99.56","","","","","","Mostly Cloudy"
"1983-11-14 13:00","1983","11","14","13:00","2.8","","-1.5","","73","","11","","7","","16.1","","99.49","","","","","","Mostly Cloudy"
"1983-11-14 14:00","1983","11","14","14:00","2.5","","-0.9","","78","","10","","9","","16.1","","99.46","","","","","","Mostly Cloudy"
"1983-11-14 15:00","1983","11","14","15:00","2.4","","-0.4","","82","","9","","11","","16.1","","99.42","","","","","","Mainly Clear"
"1983-11-14 16:00","1983","11","14","16:00","2.4","","-1.5","","75","","12","","9","","12.9","","99.49","","","","","","Cloudy"
"1983-11-14 17:00","1983","11","14","17:00","2.2","","-1.5","","76","","14","","13","","19.3","","99.52","","","","","","Mostly Cloudy"
"1983-11-14 18:00","1983","11","14","18:00","1.6","","-1.5","","80","","11","","11","","16.1","","99.52","","","","","","Mostly Cloudy"
"1983-11-14 19:00","1983","11","14","19:00","1.2","","-1.0","","85","","8","","11","","12.9","","99.56","","","","","","Cloudy"
"1983-11-14 20:00","1983","11","14","20:00","0.3","","-1.2","","90","","8","","11","","9.7","","99.59","","","","","","Fog"
"1983-11-14 21:00","1983","11","14","21:00","0.3","","-1.2","","90","","8","","11","","9.7","","99.59","","","","","","Fog"
"1983-11-14 22:00","1983","11","14","22:00","0.4","","-0.8","","92","","7","","9","","9.7","","99.56","","","","","","Fog"
"1983-11-14 23:00","1983","11","14","23:00","0.5","","-0.5","","93","","6","","6","","8.0","","99.52","","","","","","Fog"
"1983-11-15 00:00","1983","11","15","00:00","-0.1","","-0.9","","94","","5","","11","","8.0","","99.52","","","","-4","","Fog"
"1983-11-15 01:00","1983","11","15","01:00","-1.1","","-1.6","","96","","3","","6","","6.4","","99.59","","","","-3","","Fog"
"1983-11-15 02:00","1983","11","15","02:00","0.3","","-0.4","","95","","5","","9","","6.4","","99.52","","","","","","Fog"
"1983-11-15 03:00","1983","11","15","03:00","0.3","","-0.4","","95","","5","","9","","6.4","","99.46","","","","","","Fog"
"1983-11-15 04:00","1983","11","15","04:00","-0.1","","-0.9","","94","","6","","15","","8.0","","99.36","","","","-5","","Fog"
"1983-11-15 05:00","1983","11","15","05:00","0.6","","-0.5","","92","","5","","7","","8.0","","99.36","","","","","","Fog"
"1983-11-15 06:00","1983","11","15","06:00","0.3","","-0.4","","95","","4","","11","","8.0","","99.32","","","","","","Fog"
"1983-11-15 07:00","1983","11","15","07:00","1.5","","0.0","","90","","5","","9","","8.0","","99.29","","","","","","Fog"
"1983-11-15 08:00","1983","11","15","08:00","2.2","","-0.4","","83","","7","","15","","11.3","","99.22","","","","","","Cloudy"
"1983-11-15 09:00","1983","11","15","09:00","3.8","","0.8","","81","","9","","20","","11.3","","99.19","","","","","","Cloudy"
"1983-11-15 10:00","1983","11","15","10:00","4.1","","0.8","","79","","11","","15","","12.9","","99.12","","","","","","Cloudy"
"1983-11-15 11:00","1983","11","15","11:00","4.8","","0.9","","76","","11","","20","","12.9","","99.09","","","","","","Cloudy"
"1983-11-15 12:00","1983","11","15","12:00","4.5","","2.3","","85","","12","","20","","12.9","","99.02","","","","","","Rain"
"1983-11-15 13:00","1983","11","15","13:00","3.9","","2.2","","89","","11","","17","","11.3","","98.92","","","","","","Rain"
"1983-11-15 14:00","1983","11","15","14:00","4.0","","2.7","","91","","12","","15","","11.3","","98.86","","","","","","Rain"
"1983-11-15 15:00","1983","11","15","15:00","4.0","","3.1","","94","","9","","19","","9.7","","98.72","","","","","","Rain,Fog"
"1983-11-15 16:00","1983","11","15","16:00","4.0","","3.1","","94","","9","","20","","9.7","","98.69","","","","","","Rain,Fog"
"1983-11-15 17:00","1983","11","15","17:00","4.5","","3.6","","94","","11","","33","","8.0","","98.59","","","","","","Rain,Fog"
"1983-11-15 18:00","1983","11","15","18:00","3.9","","3.9","","100","","11","","30","","8.0","","98.56","","","","","","Rain,Fog"
"1983-11-15 19:00","1983","11","15","19:00","4.2","","3.6","","96","","9","","31","","8.0","","98.49","","","","","","Rain,Fog"
"1983-11-15 20:00","1983","11","15","20:00","4.7","","4.1","","96","","9","","28","","8.0","","98.39","","","","","","Rain,Fog"
"1983-11-15 21:00","1983","11","15","21:00","3.5","","3.5","","100","","11","","33","","6.4","","98.32","","","","","","Moderate Rain,Fog"
"1983-11-15 22:00","1983","11","15","22:00","3.4","","3.4","","100","","10","","33","","6.4","","98.22","","","","","","Rain,Fog"
"1983-11-15 23:00","1983","11","15","23:00","3.6","","3.6","","100","","10","","31","","8.0","","98.09","","","","","","Rain,Fog"
"1983-11-16 00:00","1983","11","16","00:00","3.7","","3.1","","96","","10","","28","","9.7","","98.02","","","","","","Rain,Fog"
"1983-11-16 01:00","1983","11","16","01:00","4.3","","4.1","","99","","10","","17","","6.4","","97.96","","","","","","Rain,Fog"
"1983-11-16 02:00","1983","11","16","02:00","4.6","","4.1","","97","","12","","19","","6.4","","97.89","","","","","","Rain,Drizzle,Fog"
"1983-11-16 03:00","1983","11","16","03:00","4.6","","4.1","","97","","10","","9","","6.4","","97.86","","","","","","Rain,Fog"
"1983-11-16 04:00","1983","11","16","04:00","4.9","","4.9","","100","","9","","13","","4.8","","97.79","","","","","","Rain,Fog"
"1983-11-16 05:00","1983","11","16","05:00","4.3","","4.1","","99","","5","","13","","6.4","","97.72","","","","","","Rain,Fog"
"1983-11-16 06:00","1983","11","16","06:00","4.4","","4.4","","100","","6","","17","","6.4","","97.72","","","","","","Rain,Fog"
"1983-11-16 07:00","1983","11","16","07:00","4.1","","3.6","","97","","6","","17","","4.8","","97.72","","","","","","Rain,Fog"
"1983-11-16 08:00","1983","11","16","08:00","3.6","","2.6","","93","","7","","22","","4.8","","97.72","","","","","","Rain,Drizzle,Fog"
"1983-11-16 09:00","1983","11","16","09:00","2.9","","2.6","","98","","8","","20","","4.8","","97.72","","","","","","Rain,Fog"
"1983-11-16 10:00","1983","11","16","10:00","2.3","","1.6","","95","","7","","19","","12.9","","97.72","","","","","","Rain"
"1983-11-16 11:00","1983","11","16","11:00","2.4","","1.6","","95","","7","","20","","16.1","","97.69","","","","","","Rain"
"1983-11-16 12:00","1983","11","16","12:00","2.1","","1.1","","93","","3","","17","","8.0","","97.62","","","","","","Rain,Fog"
"1983-11-16 13:00","1983","11","16","13:00","1.1","","0.5","","96","","36","","15","","3.2","","97.62","","","","","","Snow"
"1983-11-16 14:00","1983","11","16","14:00","0.5","","0.0","","96","","35","","17","","1.6","","97.59","","","","","","Snow"
"1983-11-16 15:00","1983","11","16","15:00","0.6","","0.0","","96","","36","","17","","2.4","","97.59","","","","","","Snow"
"1983-11-16 16:00","1983","11","16","16:00","1.3","","1.0","","98","","36","","19","","8.0","","97.59","","","","","","Snow"
"1983-11-16 17:00","1983","11","16","17:00","1.5","","0.5","","93","","35","","19","","12.9","","97.62","","","","","","Cloudy"
"1983-11-16 18:00","1983","11","16","18:00","1.5","","0.5","","93","","34","","20","","11.3","","97.69","","","","","","Rain"
"1983-11-16 19:00","1983","11","16","19:00","1.0","","0.5","","96","","34","","20","","9.7","","97.69","","","","","","Snow"
"1983-11-16 20:00","1983","11","16","20:00","0.8","","0.0","","95","","33","","22","","8.0","","97.69","","","","","","Snow"
"1983-11-16 21:00","1983","11","16","21:00","0.5","","0.0","","96","","33","","26","","8.0","","97.69","","","","","","Snow"
"1983-11-16 22:00","1983","11","16","22:00","0.4","","-0.3","","95","","33","","28","","11.3","","97.69","","","","","","Snow"
"1983-11-16 23:00","1983","11","16","23:00","0.4","","-0.5","","94","","33","","28","","12.9","","97.72","","","","","","Snow"
"1983-11-17 00:00","1983","11","17","00:00","0.1","","-1.1","","91","","34","","30","","8.0","","97.79","","","","","","Snow"
"1983-11-17 01:00","1983","11","17","01:00","-0.2","","-1.2","","93","","33","","33","","4.8","","97.82","","","","-7","","Snow"
"1983-11-17 02:00","1983","11","17","02:00","-0.2","","-1.5","","91","","34","","39","","6.4","","97.89","","","","-8","","Snow"
"1983-11-17 03:00","1983","11","17","03:00","-0.4","","-1.7","","91","","33","","26","","4.8","","97.96","","","","-7","","Snow"
"1983-11-17 04:00","1983","11","17","04:00","-0.6","","-2.1","","90","","34","","26","","4.8","","98.06","","","","-7","","Snow"
"1983-11-17 05:00","1983","11","17","05:00","-0.6","","-2.1","","90","","33","","22","","6.4","","98.12","","","","-6","","Snow"
"1983-11-17 06:00","1983","11","17","06:00","-0.5","","-1.6","","92","","33","","20","","4.8","","98.19","","","","-6","","Snow"
"1983-11-17 07:00","1983","11","17","07:00","-0.1","","-1.4","","91","","31","","22","","9.7","","98.22","","","","-6","","Snow"
"1983-11-17 08:00","1983","11","17","08:00","-0.2","","-1.5","","91","","31","","26","","8.0","","98.32","","","","-6","","Snow"
"1983-11-17 09:00","1983","11","17","09:00","0.6","","-3.1","","76","","32","","41","","32.2","","98.39","","","","","","Mostly Cloudy"
"1983-11-17 10:00","1983","11","17","10:00","0.1","","-3.9","","74","","30","","28","","32.2","","98.49","","","","","","Mostly Cloudy"
"1983-11-17 11:00","1983","11","17","11:00","0.3","","-3.1","","78","","30","","33","","40.2","","98.56","","","","","","Mostly Cloudy"
"1983-11-17 12:00","1983","11","17","12:00","1.1","","-3.0","","74","","30","","35","","40.2","","98.59","","","","","","Mainly Clear"
"1983-11-17 13:00","1983","11","17","13:00","0.8","","-2.4","","79","","31","","30","","40.2","","98.62","","","","","","Mostly Cloudy"
"1983-11-17 14:00","1983","11","17","14:00","1.2","","-2.4","","77","","30","","31","","40.2","","98.62","","","","","","Mostly Cloudy"
"1983-11-17 15:00","1983","11","17","15:00","1.3","","-2.4","","76","","31","","31","","40.2","","98.69","","","","","","Mostly Cloudy"
"1983-11-17 16:00","1983","11","17","16:00","1.8","","-2.1","","75","","31","","31","","40.2","","98.76","","","","","","Mainly Clear"
"1983-11-17 17:00","1983","11","17","17:00","0.3","","-2.5","","82","","31","","26","","40.2","","98.82","","","","","","Mainly Clear"
"1983-11-17 18:00","1983","11","17","18:00","-0.4","","-3.1","","82","","31","","15","","25.0","","98.96","","","","-5","","Clear"
"1983-11-17 19:00","1983","11","17","19:00","-0.7","","-2.9","","85","","31","","15","","25.0","","99.02","","","","-5","","Clear"
"1983-11-17 20:00","1983","11","17","20:00","-1.6","","-4.2","","82","","29","","15","","25.0","","99.09","","","","-6","","Clear"
"1983-11-17 21:00","1983","11","17","21:00","-1.7","","-4.8","","80","","28","","19","","25.0","","99.12","","","","-7","","Clear"
"1983-11-17 22:00","1983","11","17","22:00","-2.1","","-5.1","","80","","28","","17","","25.0","","99.16","","","","-7","","Clear"
"1983-11-17 23:00","1983","11","17","23:00","-2.3","","-5.1","","81","","27","","15","","25.0","","99.16","","","","-7","","Clear"
"1983-11-18 00:00","1983","11","18","00:00","-2.7","","-5.7","","80","","26","","13","","25.0","","99.22","","","","-7","","Mainly Clear"
"1983-11-18 01:00","1983","11","18","01:00","-3.7","","-6.3","","82","","27","","6","","25.0","","99.29","","","","-6","","Mainly Clear"
"1983-11-18 02:00","1983","11","18","02:00","-3.7","","-7.0","","78","","30","","9","","25.0","","99.36","","","","-7","","Mainly Clear"
"1983-11-18 03:00","1983","11","18","03:00","-4.7","","-6.9","","85","","34","","6","","25.0","","99.42","","","","-7","","Mainly Clear"
"1983-11-18 04:00","1983","11","18","04:00","-5.4","","-8.2","","80","","32","","6","","25.0","","99.46","","","","-8","","Mainly Clear"
"1983-11-18 05:00","1983","11","18","05:00","-5.2","","-7.5","","84","","","","0","","25.0","","99.49","","","","","","Mainly Clear"
"1983-11-18 06:00","1983","11","18","06:00","-5.6","","-7.8","","85","","","","0","","25.0","","99.49","","","","","","Mainly Clear"
"1983-11-18 07:00","1983","11","18","07:00","-5.4","","-7.8","","83","","","","0","","25.0","","99.56","","","","","","Mostly Cloudy"
"1983-11-18 08:00","1983","11","18","08:00","-5.4","","-8.2","","80","","","","0","","25.0","","99.56","","","","","","Mostly Cloudy"
"1983-11-18 09:00","1983","11","18","09:00","-3.6","","-7.0","","77","","","","0","","32.2","","99.56","","","","","","Cloudy"
"1983-11-18 10:00","1983","11","18","10:00","-0.8","","-6.7","","64","","","","0","","32.2","","99.62","","","","","","Cloudy"
"1983-11-18 11:00","1983","11","18","11:00","0.6","","-6.2","","60","","","","0","","32.2","","99.62","","","","","","Cloudy"
"1983-11-18 12:00","1983","11","18","12:00","1.4","","-4.8","","63","","","","0","","32.2","","99.49","","","","","","Cloudy"
"1983-11-18 13:00","1983","11","18","13:00","3.0","","-5.2","","55","","","","0","","32.2","","99.49","","","","","","Cloudy"
"1983-11-18 14:00","1983","11","18","14:00","2.4","","-3.9","","63","","","","0","","32.2","","99.46","","","","","","Cloudy"
"1983-11-18 15:00","1983","11","18","15:00","2.2","","-3.2","","67","","12","","9","","32.2","","99.32","","","","","","Cloudy"
"1983-11-18 16:00","1983","11","18","16:00","2.4","","-2.0","","73","","14","","9","","24.1","","99.36","","","","","","Cloudy"
"1983-11-18 17:00","1983","11","18","17:00","1.8","","-1.5","","79","","15","","4","","16.1","","99.39","","","","","","Cloudy"
"1983-11-18 18:00","1983","11","18","18:00","2.0","","-2.1","","74","","12","","4","","19.3","","99.42","","","","","","Cloudy"
"1983-11-18 19:00","1983","11","18","19:00","1.9","","-1.5","","78","","9","","11","","19.3","","99.39","","","","","","Cloudy"
"1983-11-18 20:00","1983","11","18","20:00","2.4","","-1.5","","75","","9","","4","","19.3","","99.42","","","","","","Cloudy"
"1983-11-18 21:00","1983","11","18","21:00","2.4","","0.1","","85","","8","","7","","16.1","","99.46","","","","","","Rain Showers"
"1983-11-18 22:00","1983","11","18","22:00","2.5","","0.1","","84","","5","","9","","16.1","","99.42","","","","","","Cloudy"
"1983-11-18 23:00","1983","11","18","23:00","1.8","","0.1","","89","","5","","11","","16.1","","99.39","","","","","","Cloudy"
"1983-11-19 00:00","1983","11","19","00:00","1.9","","-0.4","","85","","7","","7","","19.3","","99.46","","","","","","Cloudy"
"1983-11-19 01:00","1983","11","19","01:00","2.0","","0.1","","87","","6","","7","","19.3","","99.46","","","","","","Cloudy"
"1983-11-19 02:00","1983","11","19","02:00","2.0","","0.1","","87","","6","","15","","19.3","","99.49","","","","","","Cloudy"
"1983-11-19 03:00","1983","11","19","03:00","1.9","","-0.4","","85","","7","","7","","19.3","","99.49","","","","","","Cloudy"
"1983-11-19 04:00","1983","11","19","04:00","1.8","","0.1","","89","","8","","11","","16.1","","99.49","","","","","","Cloudy"
"1983-11-19 05:00","1983","11","19","05:00","1.7","","0.0","","88","","9","","9","","16.1","","99.52","","","","","","Cloudy"
"1983-11-19 06:00","1983","11","19","06:00","1.6","","0.0","","89","","7","","11","","11.3","","99.52","","","","","","Cloudy"
"1983-11-19 07:00","1983","11","19","07:00","2.0","","0.6","","90","","8","","9","","16.1","","99.56","","","","","","Cloudy"
"1983-11-19 08:00","1983","11","19","08:00","2.7","","0.6","","86","","5","","9","","32.2","","99.59","","","","","","Cloudy"
"1983-11-19 09:00","1983","11","19","09:00","2.5","","0.1","","84","","8","","7","","40.2","","99.62","","","","","","Cloudy"
"1983-11-19 10:00","1983","11","19","10:00","3.0","","0.2","","82","","8","","7","","40.2","","99.69","","","","","","Mostly Cloudy"
"1983-11-19 11:00","1983","11","19","11:00","4.0","","1.7","","85","","9","","9","","40.2","","99.62","","","","","","Cloudy"
"1983-11-19 12:00","1983","11","19","12:00","4.2","","2.2","","87","","9","","19","","40.2","","99.56","","","","","","Cloudy"
"1983-11-19 13:00","1983","11","19","13:00","4.1","","2.7","","91","","10","","20","","16.1","","99.46","","","","","","Rain"
"1983-11-19 14:00","1983","11","19","14:00","4.0","","2.7","","91","","11","","19","","24.1","","99.39","","","","","","Rain"
"1983-11-19 15:00","1983","11","19","15:00","4.0","","2.7","","91","","9","","22","","24.1","","99.32","","","","","","Rain Showers"
"1983-11-19 16:00","1983","11","19","16:00","4.0","","2.7","","91","","10","","15","","32.2","","99.36","","","","","","Cloudy"
"1983-11-19 17:00","1983","11","19","17:00","3.6","","2.2","","91","","7","","13","","24.1","","99.39","","","","","","Cloudy"
"1983-11-19 18:00","1983","11","19","18:00","3.6","","2.2","","91","","9","","17","","19.3","","99.36","","","","","","Cloudy"
"1983-11-19 19:00","1983","11","19","19:00","3.9","","2.2","","89","","10","","15","","19.3","","99.36","","","","","","Cloudy"
"1983-11-19 20:00","1983","11","19","20:00","3.7","","1.7","","87","","10","","20","","19.3","","99.32","","","","","","Cloudy"
"1983-11-19 21:00","1983","11","19","21:00","3.6","","2.6","","93","","9","","15","","9.7","","99.32","","","","","","Fog"
"1983-11-19 22:00","1983","11","19","22:00","3.9","","3.6","","98","","9","","17","","3.2","","99.22","","","","","","Drizzle,Fog"
"1983-11-19 23:00","1983","11","19","23:00","4.1","","3.6","","97","","9","","15","","2.4","","99.22","","","","","","Drizzle,Fog"
"1983-11-20 00:00","1983","11","20","00:00","4.2","","3.6","","96","","10","","22","","4.0","","99.12","","","","","","Drizzle,Fog"
"1983-11-20 01:00","1983","11","20","01:00","4.5","","4.1","","97","","10","","17","","4.8","","99.06","","","","","","Drizzle,Fog"
"1983-11-20 02:00","1983","11","20","02:00","4.9","","4.6","","98","","10","","15","","4.8","","98.99","","","","","","Fog"
"1983-11-20 03:00","1983","11","20","03:00","5.0","","4.6","","97","","11","","15","","4.8","","98.92","","","","","","Fog"
"1983-11-20 04:00","1983","11","20","04:00","4.8","","4.6","","99","","9","","17","","3.6","","98.89","","","","","","Fog"
"1983-11-20 05:00","1983","11","20","05:00","4.8","","4.6","","99","","10","","22","","4.0","","98.82","","","","","","Fog"
"1983-11-20 06:00","1983","11","20","06:00","4.5","","4.1","","97","","9","","22","","3.6","","98.72","","","","","","Fog"
"1983-11-20 07:00","1983","11","20","07:00","4.4","","4.4","","100","","9","","20","","4.0","","98.69","","","","","","Fog"
"1983-11-20 08:00","1983","11","20","08:00","4.7","","4.1","","96","","9","","15","","2.8","","98.62","","","","","","Fog"
"1983-11-20 09:00","1983","11","20","09:00","5.4","","5.4","","100","","9","","19","","2.8","","98.52","","","","","","Fog"
"1983-11-20 10:00","1983","11","20","10:00","6.0","","5.6","","97","","10","","19","","4.0","","98.42","","","","","","Fog"
"1983-11-20 11:00","1983","11","20","11:00","7.1","","5.8","","91","","10","","19","","6.4","","98.32","","","","","","Fog"
"1983-11-20 12:00","1983","11","20","12:00","8.8","","6.7","","87","","10","","17","","8.0","","98.09","","","","","","Haze"
"1983-11-20 13:00","1983","11","20","13:00","10.5","","7.5","","82","","11","","20","","12.9","","97.92","","","","","","Cloudy"
"1983-11-20 14:00","1983","11","20","14:00","10.7","","7.1","","78","","10","","22","","16.1","","97.69","","","","","","Cloudy"
"1983-11-20 15:00","1983","11","20","15:00","10.3","","7.9","","85","","10","","13","","11.3","","97.69","","","","","","Rain"
"1983-11-20 16:00","1983","11","20","16:00","9.9","","7.7","","86","","9","","13","","9.7","","97.56","","","","","","Rain,Haze"
"1983-11-20 17:00","1983","11","20","17:00","10.2","","7.7","","84","","11","","11","","4.8","","97.49","","","","","","Rain,Haze"
"1983-11-20 18:00","1983","11","20","18:00","11.0","","8.0","","82","","11","","15","","16.1","","97.39","","","","","","Cloudy"
"1983-11-20 19:00","1983","11","20","19:00","11.2","","8.8","","85","","14","","17","","6.4","","97.36","","","","","","Rain,Haze"
"1983-11-20 20:00","1983","11","20","20:00","10.1","","8.9","","92","","25","","13","","8.0","","97.42","","","","","","Rain,Fog"
"1983-11-20 21:00","1983","11","20","21:00","10.0","","8.5","","90","","23","","15","","12.9","","97.49","","","","","","Rain"
"1983-11-20 22:00","1983","11","20","22:00","10.0","","8.5","","90","","21","","19","","19.3","","97.52","","","","","","Cloudy"
"1983-11-20 23:00","1983","11","20","23:00","9.7","","8.0","","89","","23","","22","","16.1","","97.59","","","","","","Rain"
"1983-11-21 00:00","1983","11","21","00:00","9.6","","7.6","","87","","26","","22","","19.3","","97.72","","","","","","Mostly Cloudy"
"1983-11-21 01:00","1983","11","21","01:00","3.9","","3.6","","98","","25","","24","","19.3","","97.79","","","","","","Mostly Cloudy"
"1983-11-21 02:00","1983","11","21","02:00","5.4","","2.4","","81","","23","","17","","19.3","","97.92","","","","","","Mainly Clear"
"1983-11-21 03:00","1983","11","21","03:00","5.0","","2.4","","83","","23","","19","","19.3","","97.96","","","","","","Mainly Clear"
"1983-11-21 04:00","1983","11","21","04:00","4.9","","1.9","","81","","23","","22","","16.1","","97.96","","","","","","Mostly Cloudy"
"1983-11-21 05:00","1983","11","21","05:00","5.0","","1.9","","80","","22","","20","","16.1","","97.99","","","","","","Mostly Cloudy"
"1983-11-21 06:00","1983","11","21","06:00","6.2","","2.5","","77","","22","","24","","19.3","","97.96","","","","","","Mostly Cloudy"
"1983-11-21 07:00","1983","11","21","07:00","6.9","","3.6","","80","","23","","30","","19.3","","97.99","","","","","","Mostly Cloudy"
"1983-11-21 08:00","1983","11","21","08:00","7.4","","3.3","","75","","23","","26","","32.2","","98.09","","","","","","Mostly Cloudy"
"1983-11-21 09:00","1983","11","21","09:00","7.4","","3.3","","75","","24","","30","","32.2","","98.12","","","","","","Mostly Cloudy"
"1983-11-21 10:00","1983","11","21","10:00","7.5","","2.8","","72","","24","","26","","32.2","","98.22","","","","","","Mostly Cloudy"
"1983-11-21 11:00","1983","11","21","11:00","7.5","","2.8","","72","","25","","30","","40.2","","98.26","","","","","","Mostly Cloudy"
"1983-11-21 12:00","1983","11","21","12:00","7.8","","2.9","","71","","25","","33","","40.2","","98.29","","","","","","Mostly Cloudy"
"1983-11-21 13:00","1983","11","21","13:00","8.3","","2.0","","65","","25","","43","","40.2","","98.29","","","","","","Mostly Cloudy"
"1983-11-21 14:00","1983","11","21","14:00","9.5","","3.3","","65","","24","","37","","40.2","","98.29","","","","","","Mainly Clear"
"1983-11-21 15:00","1983","11","21","15:00","10.4","","2.6","","59","","25","","33","","40.2","","98.29","","","","","","Clear"
"1983-11-21 16:00","1983","11","21","16:00","10.4","","2.0","","56","","25","","26","","40.2","","98.29","","","","","","Mainly Clear"
"1983-11-21 17:00","1983","11","21","17:00","9.4","","1.8","","59","","25","","19","","40.2","","98.32","","","","","","Mainly Clear"
"1983-11-21 18:00","1983","11","21","18:00","7.9","","2.9","","71","","23","","20","","25.0","","98.36","","","","","","Clear"
"1983-11-21 19:00","1983","11","21","19:00","8.0","","4.3","","77","","25","","19","","25.0","","98.42","","","","","","Clear"
"1983-11-21 20:00","1983","11","21","20:00","8.0","","3.9","","75","","25","","11","","25.0","","98.49","","","","","","Clear"
"1983-11-21 21:00","1983","11","21","21:00","8.0","","3.9","","75","","26","","9","","25.0","","98.59","","","","","","Mainly Clear"
"1983-11-21 22:00","1983","11","21","22:00","6.4","","3.5","","82","","29","","13","","25.0","","98.69","","","","","","Mainly Clear"
"1983-11-21 23:00","1983","11","21","23:00","6.4","","2.6","","77","","29","","19","","25.0","","98.72","","","","","","Mainly Clear"
"1983-11-22 00:00","1983","11","22","00:00","4.4","","1.3","","80","","30","","11","","25.0","","98.82","","","","","","Mainly Clear"
"1983-11-22 01:00","1983","11","22","01:00","3.4","","1.2","","86","","29","","7","","25.0","","98.89","","","","","","Mainly Clear"
"1983-11-22 02:00","1983","11","22","02:00","2.9","","0.2","","83","","23","","4","","24.1","","98.92","","","","","","Mainly Clear"
"1983-11-22 03:00","1983","11","22","03:00","1.7","","-0.5","","85","","24","","4","","24.1","","99.02","","","","","","Mainly Clear"
"1983-11-22 04:00","1983","11","22","04:00","1.8","","0.1","","89","","21","","4","","19.3","","99.06","","","","","","Mainly Clear"
"1983-11-22 05:00","1983","11","22","05:00","0.9","","0.0","","94","","23","","6","","19.3","","99.12","","","","","","Mainly Clear"
"1983-11-22 06:00","1983","11","22","06:00","1.2","","-0.5","","88","","23","","9","","16.1","","99.19","","","","","","Mainly Clear"
"1983-11-22 07:00","1983","11","22","07:00","0.7","","-0.5","","91","","24","","6","","19.3","","99.26","","","","","","Clear"
"1983-11-22 08:00","1983","11","22","08:00","0.7","","0.0","","95","","25","","7","","16.1","","99.32","","","","","","Mostly Cloudy"
"1983-11-22 09:00","1983","11","22","09:00","2.5","","1.1","","91","","24","","11","","19.3","","99.36","","","","","","Mainly Clear"
"1983-11-22 10:00","1983","11","22","10:00","4.2","","1.3","","81","","25","","11","","24.1","","99.42","","","","","","Mostly Cloudy"
"1983-11-22 11:00","1983","11","22","11:00","5.4","","2.4","","81","","31","","7","","24.1","","99.46","","","","","","Mostly Cloudy"
"1983-11-22 12:00","1983","11","22","12:00","7.1","","2.2","","71","","31","","11","","32.2","","99.46","","","","","","Mainly Clear"
"1983-11-22 13:00","1983","11","22","13:00","7.9","","2.4","","68","","28","","20","","32.2","","99.46","","","","","","Mainly Clear"
"1983-11-22 14:00","1983","11","22","14:00","7.9","","2.9","","71","","26","","17","","32.2","","99.39","","","","","","Mainly Clear"
"1983-11-22 15:00","1983","11","22","15:00","8.2","","2.4","","67","","30","","15","","32.2","","99.42","","","","","","Mostly Cloudy"
"1983-11-22 16:00","1983","11","22","16:00","7.5","","1.8","","67","","27","","13","","32.2","","99.52","","","","","","Mainly Clear"
"1983-11-22 17:00","1983","11","22","17:00","5.4","","2.0","","79","","28","","6","","32.2","","99.56","","","","","","Mainly Clear"
"1983-11-22 18:00","1983","11","22","18:00","4.0","","1.3","","82","","30","","11","","25.0","","99.62","","","","","","Mostly Cloudy"
"1983-11-22 19:00","1983","11","22","19:00","3.5","","0.7","","82","","33","","9","","25.0","","99.62","","","","","","Mostly Cloudy"
"1983-11-22 20:00","1983","11","22","20:00","2.8","","0.2","","83","","1","","13","","25.0","","99.66","","","","","","Mainly Clear"
"1983-11-22 21:00","1983","11","22","21:00","1.4","","-1.0","","84","","1","","7","","25.0","","99.69","","","","","","Mainly Clear"
"1983-11-22 22:00","1983","11","22","22:00","0.8","","-1.0","","88","","36","","6","","25.0","","99.69","","","","","","Clear"
"1983-11-22 23:00","1983","11","22","23:00","-0.2","","-1.2","","93","","33","","7","","25.0","","99.76","","","","-3","","Clear"
"1983-11-23 00:00","1983","11","23","00:00","0.2","","-1.8","","86","","36","","4","","25.0","","99.72","","","","","","Clear"
"1983-11-23 01:00","1983","11","23","01:00","-0.2","","-2.6","","84","","","","0","","25.0","","99.76","","","","","","Clear"
"1983-11-23 02:00","1983","11","23","02:00","-0.9","","-2.4","","90","","","","0","","25.0","","99.72","","","","","","Mostly Cloudy"
"1983-11-23 03:00","1983","11","23","03:00","-1.2","","-1.9","","95","","","","0","","25.0","","99.76","","","","","","Mostly Cloudy"
"1983-11-23 04:00","1983","11","23","04:00","-1.6","","-2.5","","94","","4","","6","","24.1","","99.72","","","","-4","","Mostly Cloudy"
"1983-11-23 05:00","1983","11","23","05:00","-0.5","","-1.3","","94","","","","0","","25.0","","99.69","","","","","","Cloudy"
"1983-11-23 06:00","1983","11","23","06:00","1.2","","-2.4","","77","","10","","6","","24.1","","99.66","","","","","","Cloudy"
"1983-11-23 07:00","1983","11","23","07:00","2.1","","-0.4","","83","","7","","9","","19.3","","99.66","","","","","","Cloudy"
"1983-11-23 08:00","1983","11","23","08:00","3.0","","0.7","","85","","","","0","","19.3","","99.62","","","","","","Cloudy"
"1983-11-23 09:00","1983","11","23","09:00","5.0","","1.4","","77","","12","","19","","24.1","","99.59","","","","","","Cloudy"
"1983-11-23 10:00","1983","11","23","10:00","5.2","","1.9","","79","","12","","24","","24.1","","99.52","","","","","","Cloudy"
"1983-11-23 11:00","1983","11","23","11:00","5.4","","2.0","","79","","11","","20","","24.1","","99.49","","","","","","Rain Showers"
"1983-11-23 12:00","1983","11","23","12:00","5.5","","2.9","","83","","10","","20","","24.1","","99.29","","","","","","Cloudy"
"1983-11-23 13:00","1983","11","23","13:00","6.0","","2.5","","78","","10","","24","","24.1","","99.16","","","","","","Cloudy"
"1983-11-23 14:00","1983","11","23","14:00","5.9","","3.0","","82","","10","","31","","24.1","","99.02","","","","","","Cloudy"
"1983-11-23 15:00","1983","11","23","15:00","5.6","","2.9","","83","","10","","26","","11.3","","99.02","","","","","","Rain"
"1983-11-23 16:00","1983","11","23","16:00","5.0","","4.2","","95","","8","","26","","9.7","","98.89","","","","","","Rain,Fog"
"1983-11-23 17:00","1983","11","23","17:00","5.5","","4.2","","91","","11","","26","","8.0","","98.89","","","","","","Rain,Fog"
"1983-11-23 18:00","1983","11","23","18:00","5.8","","5.2","","96","","10","","26","","11.3","","98.72","","","","","","Rain"
"1983-11-23 19:00","1983","11","23","19:00","6.3","","5.3","","93","","10","","28","","9.7","","98.69","","","","","","Rain,Fog"
"1983-11-23 20:00","1983","11","23","20:00","7.0","","6.6","","97","","10","","28","","9.7","","98.49","","","","","","Fog"
"1983-11-23 21:00","1983","11","23","21:00","7.8","","7.2","","96","","10","","26","","8.0","","98.29","","","","","","Fog"
"1983-11-23 22:00","1983","11","23","22:00","9.0","","7.5","","90","","11","","22","","12.9","","98.29","","","","","","Cloudy"
"1983-11-23 23:00","1983","11","23","23:00","10.6","","7.1","","79","","13","","22","","19.3","","98.22","","","","","","Cloudy"
"1983-11-24 00:00","1983","11","24","00:00","10.3","","7.5","","83","","12","","20","","19.3","","98.19","","","","","","Cloudy"
"1983-11-24 01:00","1983","11","24","01:00","10.3","","7.5","","83","","15","","19","","24.1","","98.12","","","","","","Cloudy"
"1983-11-24 02:00","1983","11","24","02:00","10.4","","7.5","","82","","15","","13","","24.1","","98.16","","","","","","Cloudy"
"1983-11-24 03:00","1983","11","24","03:00","10.9","","7.6","","80","","15","","9","","24.1","","98.12","","","","","","Cloudy"
"1983-11-24 04:00","1983","11","24","04:00","12.4","","9.7","","84","","24","","20","","25.0","","98.26","","","","","","Cloudy"
"1983-11-24 05:00","1983","11","24","05:00","11.8","","9.1","","84","","22","","19","","25.0","","98.29","","","","","","Cloudy"
"1983-11-24 06:00","1983","11","24","06:00","10.2","","6.9","","80","","23","","20","","25.0","","98.39","","","","","","Cloudy"
"1983-11-24 07:00","1983","11","24","07:00","8.7","","4.9","","77","","27","","13","","25.0","","98.52","","","","","","Cloudy"
"1983-11-24 08:00","1983","11","24","08:00","7.1","","4.1","","81","","27","","13","","24.1","","98.56","","","","","","Rain Showers"
"1983-11-24 09:00","1983","11","24","09:00","6.2","","3.0","","80","","28","","13","","19.3","","98.62","","","","","","Cloudy"
"1983-11-24 10:00","1983","11","24","10:00","5.5","","2.4","","80","","26","","19","","19.3","","98.72","","","","","","Cloudy"
"1983-11-24 11:00","1983","11","24","11:00","5.4","","2.4","","81","","25","","17","","19.3","","98.69","","","","","","Cloudy"
"1983-11-24 12:00","1983","11","24","12:00","5.0","","0.4","","72","","24","","26","","24.1","","98.69","","","","","","Cloudy"
"1983-11-24 13:00","1983","11","24","13:00","4.6","","0.8","","76","","26","","19","","24.1","","98.59","","","","","","Cloudy"
"1983-11-24 14:00","1983","11","24","14:00","4.5","","0.3","","74","","25","","20","","24.1","","98.62","","","","","","Cloudy"
"1983-11-24 15:00","1983","11","24","15:00","3.9","","-0.8","","72","","26","","22","","24.1","","98.69","","","","","","Cloudy"
"1983-11-24 16:00","1983","11","24","16:00","2.7","","-2.0","","71","","26","","19","","32.2","","98.69","","","","","","Cloudy"
"1983-11-24 17:00","1983","11","24","17:00","2.3","","-2.6","","70","","25","","17","","24.1","","98.76","","","","","","Mostly Cloudy"
"1983-11-24 18:00","1983","11","24","18:00","2.0","","-2.6","","71","","26","","9","","24.1","","98.76","","","","","","Cloudy"
"1983-11-24 19:00","1983","11","24","19:00","2.0","","-2.1","","74","","27","","19","","24.1","","98.76","","","","","","Cloudy"
"1983-11-24 20:00","1983","11","24","20:00","1.3","","-2.9","","74","","28","","13","","24.1","","98.79","","","","","","Cloudy"
"1983-11-24 21:00","1983","11","24","21:00","1.2","","-3.0","","73","","26","","11","","24.1","","98.79","","","","","","Cloudy"
"1983-11-24 22:00","1983","11","24","22:00","1.0","","-3.0","","75","","28","","22","","24.1","","98.72","","","","","","Cloudy"
"1983-11-24 23:00","1983","11","24","23:00","0.7","","-3.7","","72","","26","","17","","24.1","","98.69","","","","","","Cloudy"
"1983-11-25 00:00","1983","11","25","00:00","0.6","","-4.9","","67","","26","","11","","24.1","","98.69","","","","","","Cloudy"
"1983-11-25 01:00","1983","11","25","01:00","0.2","","-4.4","","71","","26","","11","","25.0","","98.59","","","","","","Cloudy"
"1983-11-25 02:00","1983","11","25","02:00","0.2","","-4.4","","71","","26","","13","","25.0","","98.59","","","","","","Cloudy"
"1983-11-25 03:00","1983","11","25","03:00","0.0","","-4.3","","73","","26","","7","","25.0","","98.56","","","","-2","","Cloudy"
"1983-11-25 04:00","1983","11","25","04:00","0.1","","-3.3","","78","","25","","9","","25.0","","98.52","","","","","","Cloudy"
"1983-11-25 05:00","1983","11","25","05:00","0.1","","-2.7","","81","","26","","9","","25.0","","98.49","","","","","","Cloudy"
"1983-11-25 06:00","1983","11","25","06:00","0.0","","-3.4","","78","","24","","13","","25.0","","98.46","","","","-4","","Cloudy"
"1983-11-25 07:00","1983","11","25","07:00","-0.2","","-3.4","","79","","24","","9","","25.0","","98.42","","","","-3","","Cloudy"
"1983-11-25 08:00","1983","11","25","08:00","0.0","","-3.4","","78","","24","","13","","24.1","","98.39","","","","-4","","Snow Showers"
"1983-11-25 09:00","1983","11","25","09:00","-0.2","","-3.1","","81","","26","","15","","12.9","","98.42","","","","-5","","Snow Showers"
"1983-11-25 10:00","1983","11","25","10:00","0.4","","-2.4","","82","","26","","28","","24.1","","98.36","","","","","","Mainly Clear"
"1983-11-25 11:00","1983","11","25","11:00","0.6","","-2.0","","83","","25","","28","","16.1","","98.39","","","","","","Snow Showers"
"1983-11-25 12:00","1983","11","25","12:00","0.9","","-1.5","","84","","26","","28","","24.1","","98.36","","","","","","Snow Showers"
"1983-11-25 13:00","1983","11","25","13:00","0.8","","-1.9","","82","","27","","22","","24.1","","98.29","","","","","","Snow Showers"
"1983-11-25 14:00","1983","11","25","14:00","1.6","","-2.4","","75","","27","","30","","24.1","","98.26","","","","","","Mostly Cloudy"
"1983-11-25 15:00","1983","11","25","15:00","1.5","","-2.4","","75","","27","","31","","32.2","","98.29","","","","","","Snow Showers"
"1983-11-25 16:00","1983","11","25","16:00","0.8","","-1.5","","85","","26","","28","","12.9","","98.32","","","","","","Snow Showers"
"1983-11-25 17:00","1983","11","25","17:00","1.0","","-1.9","","81","","26","","22","","19.3","","98.36","","","","","","Mostly Cloudy"
"1983-11-25 18:00","1983","11","25","18:00","1.1","","-2.4","","77","","26","","19","","19.3","","98.46","","","","","","Cloudy"
"1983-11-25 19:00","1983","11","25","19:00","1.5","","-2.4","","75","","26","","22","","24.1","","98.52","","","","","","Cloudy"
"1983-11-25 20:00","1983","11","25","20:00","1.5","","-2.4","","75","","27","","20","","24.1","","98.59","","","","","","Cloudy"
"1983-11-25 21:00","1983","11","25","21:00","1.5","","-2.9","","73","","26","","20","","24.1","","98.62","","","","","","Cloudy"
"1983-11-25 22:00","1983","11","25","22:00","1.1","","-1.9","","80","","25","","26","","24.1","","98.72","","","","","","Cloudy"
"1983-11-25 23:00","1983","11","25","23:00","1.1","","-2.4","","77","","25","","19","","24.1","","98.79","","","","","","Cloudy"
"1983-11-26 00:00","1983","11","26","00:00","1.1","","-3.0","","74","","25","","19","","25.0","","98.89","","","","","","Cloudy"
"1983-11-26 01:00","1983","11","26","01:00","1.4","","-2.4","","76","","25","","22","","25.0","","98.92","","","","","","Cloudy"
"1983-11-26 02:00","1983","11","26","02:00","1.1","","-3.6","","71","","25","","17","","25.0","","98.99","","","","","","Mostly Cloudy"
"1983-11-26 03:00","1983","11","26","03:00","1.0","","-3.0","","75","","24","","17","","25.0","","99.02","","","","","","Mostly Cloudy"
"1983-11-26 04:00","1983","11","26","04:00","0.7","","-2.0","","82","","23","","7","","25.0","","99.02","","","","","","Cloudy"
"1983-11-26 05:00","1983","11","26","05:00","0.9","","-2.4","","79","","22","","9","","25.0","","99.02","","","","","","Cloudy"
"1983-11-26 06:00","1983","11","26","06:00","1.4","","-2.4","","76","","22","","7","","25.0","","99.09","","","","","","Cloudy"
"1983-11-26 07:00","1983","11","26","07:00","1.6","","-2.1","","76","","19","","4","","19.3","","99.12","","","","","","Cloudy"
"1983-11-26 08:00","1983","11","26","08:00","2.0","","-1.5","","78","","22","","6","","19.3","","99.19","","","","","","Mostly Cloudy"
"1983-11-26 09:00","1983","11","26","09:00","2.2","","-1.5","","76","","23","","7","","19.3","","99.22","","","","","","Mostly Cloudy"
"1983-11-26 10:00","1983","11","26","10:00","2.7","","-0.9","","77","","27","","4","","24.1","","99.29","","","","","","Cloudy"
"1983-11-26 11:00","1983","11","26","11:00","3.6","","-0.3","","76","","25","","7","","24.1","","99.29","","","","","","Cloudy"
"1983-11-26 12:00","1983","11","26","12:00","4.4","","0.3","","75","","27","","15","","24.1","","99.29","","","","","","Mostly Cloudy"
"1983-11-26 13:00","1983","11","26","13:00","5.1","","0.4","","71","","27","","17","","24.1","","99.29","","","","","","Cloudy"
"1983-11-26 14:00","1983","11","26","14:00","5.2","","-0.2","","68","","26","","13","","24.1","","99.29","","","","","","Cloudy"
"1983-11-26 15:00","1983","11","26","15:00","4.4","","-0.2","","72","","26","","22","","24.1","","99.32","","","","","","Rain Showers"
"1983-11-26 16:00","1983","11","26","16:00","3.5","","0.7","","82","","27","","20","","19.3","","99.46","","","","","","Rain Showers"
"1983-11-26 17:00","1983","11","26","17:00","3.0","","1.6","","91","","27","","15","","12.9","","99.49","","","","","","Rain Showers"
"1983-11-26 18:00","1983","11","26","18:00","3.0","","1.1","","87","","27","","13","","19.3","","99.59","","","","","","Cloudy"
"1983-11-26 19:00","1983","11","26","19:00","3.0","","1.1","","87","","28","","11","","19.3","","99.66","","","","","","Cloudy"
"1983-11-26 20:00","1983","11","26","20:00","3.0","","-1.5","","72","","33","","15","","24.1","","99.76","","","","","","Cloudy"
"1983-11-26 21:00","1983","11","26","21:00","2.5","","-2.0","","72","","31","","11","","25.0","","99.79","","","","","","Cloudy"
"1983-11-26 22:00","1983","11","26","22:00","2.3","","-2.0","","73","","31","","9","","25.0","","99.82","","","","","","Cloudy"
"1983-11-26 23:00","1983","11","26","23:00","2.0","","-1.5","","78","","30","","7","","25.0","","99.86","","","","","","Cloudy"
"1983-11-27 00:00","1983","11","27","00:00","2.1","","-2.1","","74","","32","","11","","25.0","","99.86","","","","","","Mostly Cloudy"
"1983-11-27 01:00","1983","11","27","01:00","0.9","","-2.4","","79","","32","","4","","25.0","","99.89","","","","","","Mostly Cloudy"
"1983-11-27 02:00","1983","11","27","02:00","0.1","","-2.5","","83","","32","","7","","25.0","","99.96","","","","","","Mostly Cloudy"
"1983-11-27 03:00","1983","11","27","03:00","-0.3","","-2.7","","83","","1","","6","","25.0","","99.99","","","","-2","","Mostly Cloudy"
"1983-11-27 04:00","1983","11","27","04:00","0.1","","-2.2","","84","","34","","4","","25.0","","100.06","","","","","","Mostly Cloudy"
"1983-11-27 05:00","1983","11","27","05:00","0.3","","-2.8","","80","","2","","6","","25.0","","100.09","","","","","","Cloudy"
"1983-11-27 06:00","1983","11","27","06:00","0.1","","-4.2","","73","","1","","6","","25.0","","100.12","","","","","","Mostly Cloudy"
"1983-11-27 07:00","1983","11","27","07:00","-0.3","","-3.8","","77","","34","","4","","25.0","","100.19","","","","-2","","Mostly Cloudy"
"1983-11-27 08:00","1983","11","27","08:00","0.3","","-4.5","","70","","2","","11","","32.2","","100.19","","","","","","Cloudy"
"1983-11-27 09:00","1983","11","27","09:00","0.8","","-4.2","","69","","36","","6","","40.2","","100.29","","","","","","Mostly Cloudy"
"1983-11-27 10:00","1983","11","27","10:00","1.1","","-5.5","","61","","2","","7","","40.2","","100.26","","","","","","Mostly Cloudy"
"1983-11-27 11:00","1983","11","27","11:00","1.3","","-5.4","","61","","35","","7","","40.2","","100.26","","","","","","Mostly Cloudy"
"1983-11-27 12:00","1983","11","27","12:00","1.8","","-5.3","","59","","36","","9","","40.2","","100.16","","","","","","Mostly Cloudy"
"1983-11-27 13:00","1983","11","27","13:00","3.2","","-4.5","","57","","1","","7","","40.2","","100.12","","","","","","Mainly Clear"
"1983-11-27 14:00","1983","11","27","14:00","3.3","","-4.5","","57","","5","","11","","40.2","","100.09","","","","","","Mostly Cloudy"
"1983-11-27 15:00","1983","11","27","15:00","3.0","","-4.5","","58","","3","","9","","40.2","","100.12","","","","","","Mostly Cloudy"
"1983-11-27 16:00","1983","11","27","16:00","2.7","","-5.2","","56","","36","","7","","40.2","","100.09","","","","","","Cloudy"
"1983-11-27 17:00","1983","11","27","17:00","1.8","","-4.7","","62","","2","","13","","25.0","","100.06","","","","","","Cloudy"
"1983-11-27 18:00","1983","11","27","18:00","1.5","","-4.1","","66","","3","","11","","25.0","","100.09","","","","","","Cloudy"
"1983-11-27 19:00","1983","11","27","19:00","1.5","","-4.8","","63","","4","","13","","25.0","","100.09","","","","","","Cloudy"
"1983-11-27 20:00","1983","11","27","20:00","1.3","","-4.1","","67","","2","","15","","25.0","","100.06","","","","","","Cloudy"
"1983-11-27 21:00","1983","11","27","21:00","1.5","","-4.8","","63","","5","","13","","25.0","","99.99","","","","","","Cloudy"
"1983-11-27 22:00","1983","11","27","22:00","1.7","","-4.8","","62","","5","","13","","25.0","","99.99","","","","","","Cloudy"
"1983-11-27 23:00","1983","11","27","23:00","1.9","","-4.0","","65","","6","","15","","25.0","","99.99","","","","","","Cloudy"
"1983-11-28 00:00","1983","11","28","00:00","1.8","","-5.3","","59","","7","","22","","25.0","","99.99","","","","","","Cloudy"
"1983-11-28 01:00","1983","11","28","01:00","1.6","","-4.8","","62","","8","","20","","25.0","","99.86","","","","","","Cloudy"
"1983-11-28 02:00","1983","11","28","02:00","1.3","","-2.1","","78","","9","","28","","25.0","","99.76","","","","","","Cloudy"
"1983-11-28 03:00","1983","11","28","03:00","1.1","","-1.9","","80","","9","","22","","25.0","","99.69","","","","","","Cloudy"
"1983-11-28 04:00","1983","11","28","04:00","0.6","","-3.7","","73","","8","","22","","25.0","","99.62","","","","","","Cloudy"
"1983-11-28 05:00","1983","11","28","05:00","0.7","","-1.4","","86","","9","","28","","16.1","","99.52","","","","","","Rain"
"1983-11-28 06:00","1983","11","28","06:00","0.6","","-0.9","","90","","9","","30","","9.7","","99.46","","","","","","Rain,Fog"
"1983-11-28 07:00","1983","11","28","07:00","0.8","","0.0","","95","","9","","31","","8.0","","99.39","","","","","","Rain,Fog"
"1983-11-28 08:00","1983","11","28","08:00","1.2","","0.0","","92","","9","","37","","4.8","","99.32","","","","","","Rain,Fog"
"1983-11-28 09:00","1983","11","28","09:00","1.2","","0.0","","92","","9","","41","","9.7","","99.16","","","","","","Rain,Fog"
"1983-11-28 10:00","1983","11","28","10:00","1.5","","0.5","","93","","10","","43","","16.1","","98.99","","","","","","Rain"
"1983-11-28 11:00","1983","11","28","11:00","1.7","","0.5","","92","","10","","44","","16.1","","98.82","","","","","","Rain"
"1983-11-28 12:00","1983","11","28","12:00","2.3","","2.0","","98","","10","","37","","4.8","","98.69","","","","","","Rain,Fog"
"1983-11-28 13:00","1983","11","28","13:00","3.0","","2.6","","97","","10","","37","","6.4","","98.52","","","","","","Rain,Fog"
"1983-11-28 14:00","1983","11","28","14:00","3.5","","3.1","","97","","10","","41","","9.7","","98.36","","","","","","Rain,Fog"
"1983-11-28 15:00","1983","11","28","15:00","3.5","","3.5","","100","","9","","37","","2.8","","98.29","","","","","","Drizzle,Fog"
"1983-11-28 16:00","1983","11","28","16:00","4.1","","3.1","","93","","9","","31","","16.1","","98.12","","","","","","Cloudy"
"1983-11-28 17:00","1983","11","28","17:00","4.3","","3.6","","95","","9","","31","","9.7","","98.06","","","","","","Drizzle,Fog"
"1983-11-28 18:00","1983","11","28","18:00","4.8","","4.2","","96","","9","","31","","9.7","","97.89","","","","","","Drizzle,Fog"
"1983-11-28 19:00","1983","11","28","19:00","5.4","","4.7","","95","","10","","20","","9.7","","97.82","","","","","","Fog"
"1983-11-28 20:00","1983","11","28","20:00","5.9","","5.6","","98","","10","","24","","4.8","","97.86","","","","","","Rain Showers,Fog"
"1983-11-28 21:00","1983","11","28","21:00","5.9","","5.2","","95","","18","","7","","9.7","","97.92","","","","","","Rain Showers,Fog"
"1983-11-28 22:00","1983","11","28","22:00","6.8","","6.2","","96","","22","","13","","12.9","","98.06","","","","","","Rain Showers"
"1983-11-28 23:00","1983","11","28","23:00","6.4","","5.3","","93","","23","","17","","24.1","","98.09","","","","","","Cloudy"
"1983-11-29 00:00","1983","11","29","00:00","4.2","","-0.3","","72","","24","","17","","24.1","","98.22","","","","","","Mainly Clear"
"1983-11-29 01:00","1983","11","29","01:00","2.5","","-0.9","","78","","22","","13","","24.1","","98.29","","","","","","Mainly Clear"
"1983-11-29 02:00","1983","11","29","02:00","1.4","","-2.1","","77","","23","","11","","25.0","","98.29","","","","","","Mostly Cloudy"
"1983-11-29 03:00","1983","11","29","03:00","1.9","","-2.6","","72","","24","","15","","25.0","","98.29","","","","","","Mostly Cloudy"
"1983-11-29 04:00","1983","11","29","04:00","1.9","","-3.4","","68","","24","","15","","25.0","","98.29","","","","","","Cloudy"
"1983-11-29 05:00","1983","11","29","05:00","1.7","","-3.5","","68","","23","","11","","25.0","","98.29","","","","","","Cloudy"
"1983-11-29 06:00","1983","11","29","06:00","1.8","","-2.6","","73","","20","","9","","25.0","","98.29","","","","","","Cloudy"
"1983-11-29 07:00","1983","11","29","07:00","1.8","","-2.6","","73","","22","","11","","25.0","","98.32","","","","","","Cloudy"
"1983-11-29 08:00","1983","11","29","08:00","1.9","","-3.2","","69","","25","","19","","40.2","","98.32","","","","","","Cloudy"
"1983-11-29 09:00","1983","11","29","09:00","2.1","","-3.2","","68","","23","","15","","40.2","","98.32","","","","","","Cloudy"
"1983-11-29 10:00","1983","11","29","10:00","2.0","","-2.6","","71","","23","","19","","40.2","","98.39","","","","","","Snow Showers"
"1983-11-29 11:00","1983","11","29","11:00","1.9","","-1.5","","78","","22","","15","","16.1","","98.39","","","","","","Snow Showers"
"1983-11-29 12:00","1983","11","29","12:00","1.9","","-1.5","","78","","21","","15","","40.2","","98.32","","","","","","Snow Showers"
"1983-11-29 13:00","1983","11","29","13:00","1.9","","-1.5","","78","","22","","19","","40.2","","98.29","","","","","","Snow Showers"
"1983-11-29 14:00","1983","11","29","14:00","2.2","","-1.5","","76","","21","","19","","24.1","","98.26","","","","","","Snow Showers"
"1983-11-29 15:00","1983","11","29","15:00","1.8","","-1.0","","82","","24","","30","","32.2","","98.29","","","","","","Snow Showers"
"1983-11-29 16:00","1983","11","29","16:00","1.5","","-2.1","","77","","24","","26","","32.2","","98.29","","","","","","Snow Showers"
"1983-11-29 17:00","1983","11","29","17:00","1.1","","-1.9","","80","","24","","26","","12.9","","98.32","","","","","","Snow Showers"
"1983-11-29 18:00","1983","11","29","18:00","1.0","","-1.9","","81","","25","","30","","16.1","","98.36","","","","","","Snow Showers"
"1983-11-29 19:00","1983","11","29","19:00","0.6","","-2.0","","83","","24","","31","","16.1","","98.42","","","","","","Snow Showers"
"1983-11-29 20:00","1983","11","29","20:00","0.0","","-2.6","","83","","25","","37","","25.0","","98.42","","","","-7","","Mostly Cloudy"
"1983-11-29 21:00","1983","11","29","21:00","-0.4","","-4.0","","76","","25","","33","","25.0","","98.49","","","","-7","","Mainly Clear"
"1983-11-29 22:00","1983","11","29","22:00","0.0","","-3.7","","76","","24","","33","","25.0","","98.49","","","","-7","","Cloudy"
"1983-11-29 23:00","1983","11","29","23:00","0.2","","-3.8","","74","","24","","33","","25.0","","98.52","","","","","","Cloudy"
"1983-11-30 00:00","1983","11","30","00:00","0.0","","-4.0","","74","","24","","39","","24.1","","98.49","","","","-7","","Mostly Cloudy"
"1983-11-30 01:00","1983","11","30","01:00","-0.6","","-2.9","","85","","24","","37","","24.1","","98.52","","","","-8","","Mostly Cloudy"
"1983-11-30 02:00","1983","11","30","02:00","-1.0","","-3.3","","84","","25","","35","","24.1","","98.59","","","","-8","","Mainly Clear"
"1983-11-30 03:00","1983","11","30","03:00","-0.6","","-3.8","","79","","25","","35","","24.1","","98.62","","","","-8","","Mostly Cloudy"
"1983-11-30 04:00","1983","11","30","04:00","-0.8","","-3.6","","81","","25","","31","","24.1","","98.69","","","","-8","","Mostly Cloudy"
"1983-11-30 05:00","1983","11","30","05:00","-0.6","","-4.1","","77","","25","","28","","24.1","","98.72","","","","-7","","Mostly Cloudy"
"1983-11-30 06:00","1983","11","30","06:00","-1.2","","-4.1","","81","","24","","26","","16.1","","98.72","","","","-8","","Snow Showers"
"1983-11-30 07:00","1983","11","30","07:00","-1.6","","-4.2","","82","","23","","26","","9.7","","98.76","","","","-8","","Snow Showers"
"1983-11-30 08:00","1983","11","30","08:00","-1.6","","-3.9","","84","","24","","22","","8.0","","98.76","","","","-8","","Snow Showers"
"1983-11-30 09:00","1983","11","30","09:00","-1.6","","-4.2","","82","","24","","35","","8.0","","98.79","","","","-9","","Snow Showers"
"1983-11-30 10:00","1983","11","30","10:00","-1.3","","-5.7","","72","","25","","41","","24.1","","98.82","","","","-9","","Snow Showers"
"1983-11-30 11:00","1983","11","30","11:00","-1.2","","-4.7","","77","","26","","37","","32.2","","98.89","","","","-9","","Cloudy"
"1983-11-30 12:00","1983","11","30","12:00","-1.4","","-5.1","","76","","25","","33","","12.9","","98.89","","","","-9","","Snow Showers"
"1983-11-30 13:00","1983","11","30","13:00","-2.1","","-5.4","","78","","25","","26","","11.3","","98.86","","","","-9","","Snow Showers"
"1983-11-30 14:00","1983","11","30","14:00","-2.5","","-5.7","","78","","25","","30","","12.9","","98.89","","","","-10","","Snow Showers"
"1983-11-30 15:00","1983","11","30","15:00","-2.9","","-4.5","","89","","26","","19","","4.8","","98.92","","","","-9","","Snow Showers"
"1983-11-30 16:00","1983","11","30","16:00","-3.1","","-5.1","","86","","26","","30","","40.2","","98.99","","","","-11","","Mostly Cloudy"
"1983-11-30 17:00","1983","11","30","17:00","-3.3","","-6.0","","81","","25","","26","","40.2","","99.09","","","","-10","","Mainly Clear"
"1983-11-30 18:00","1983","11","30","18:00","-3.5","","-4.8","","91","","25","","28","","25.0","","99.12","","","","-11","","Mainly Clear"
"1983-11-30 19:00","1983","11","30","19:00","-2.9","","-6.0","","79","","25","","24","","25.0","","99.16","","","","-10","","Mostly Cloudy"
"1983-11-30 20:00","1983","11","30","20:00","-2.4","","-5.4","","80","","25","","24","","25.0","","99.22","","","","-9","","Cloudy"
"1983-11-30 21:00","1983","11","30","21:00","-2.1","","-5.7","","76","","25","","22","","25.0","","99.29","","","","-8","","Cloudy"
"1983-11-30 22:00","1983","11","30","22:00","-2.1","","-4.8","","82","","25","","31","","25.0","","99.26","","","","-9","","Mostly Cloudy"
"1983-11-30 23:00","1983","11","30","23:00","-2.5","","-4.5","","86","","25","","30","","25.0","","99.22","","","","-10","","Mainly Clear"
