"Station Name","TORONTO LESTER B. PEARSON INT'L A"
"Province","ONTARIO"
"Latitude","43.68"
"Longitude","-79.63"
"Elevation","173.40"
"Climate Identifier","6158733"
"WMO Identifier","71624"
"TC Identifier","YYZ"
"All times are specified in Local Standard Time (LST). Add 1 hour to adjust for Daylight Saving Time where and when it is observed."

"Legend"
"E","Estimated"
"M","Missing"
"NA","Not Available"

"Date/Time","Year","Month","Day","Time","Temp (°C)","Temp Flag","Dew Point Temp (°C)","Dew Point Temp Flag","Rel Hum (%)","Rel Hum Flag","Wind Dir (10s deg)","Wind Dir Flag","Wind Spd (km/h)","Wind Spd Flag","Visibility (km)","Visibility Flag","Stn Press (kPa)","Stn Press Flag","Hmdx","Hmdx Flag","Wind Chill","Wind Chill Flag","Weather"
"2004-02-01 00:00","2004","02","01","00:00","-7.5","","-10.5","","79","","36","","15","","24.1","","100.33","","","","-14","","Cloudy"
"2004-02-01 01:00","2004","02","01","01:00","-7.5","","-10.7","","78","","32","","11","","24.1","","100.40","","","","-13","","Cloudy"
"2004-02-01 02:00","2004","02","01","02:00","-8.6","","-11.2","","81","","1","","13","","24.1","","100.48","","","","-15","","Cloudy"
"2004-02-01 03:00","2004","02","01","03:00","-8.5","","-11.5","","79","","36","","13","","24.1","","100.55","","","","-14","","Cloudy"
"2004-02-01 04:00","2004","02","01","04:00","-8.5","","-11.7","","78","","34","","13","","24.1","","100.66","","","","-14","","Cloudy"
"2004-02-01 05:00","2004","02","01","05:00","-8.4","","-11.6","","78","","36","","15","","24.1","","100.74","","","","-15","","Cloudy"
"2004-02-01 06:00","2004","02","01","06:00","-8.7","","-11.7","","79","","1","","15","","24.1","","100.73","","","","-15","","Mostly Cloudy"
"2004-02-01 07:00","2004","02","01","07:00","-8.8","","-11.8","","79","","35","","11","","24.1","","100.84","","","","-14","","Mostly Cloudy"
"2004-02-01 08:00","2004","02","01","08:00","-9.2","","-12.0","","80","","34","","13","","24.1","","100.95","","","","-15","","Mostly Cloudy"
"2004-02-01 09:00","2004","02","01","09:00","-8.9","","-11.8","","79","","34","","11","","24.1","","101.03","","","","-14","","Mostly Cloudy"
"2004-02-01 10:00","2004","02","01","10:00","-7.6","","-11.0","","77","","34","","11","","24.1","","101.10","","","","-13","","Mainly Clear"
"2004-02-01 11:00","2004","02","01","11:00","-7.1","","-11.1","","73","","36","","11","","24.1","","101.12","","","","-12","","Mainly Clear"
"2004-02-01 12:00","2004","02","01","12:00","-6.5","","-11.5","","68","","36","","13","","24.1","","101.11","","","","-12","","Mainly Clear"
"2004-02-01 13:00","2004","02","01","13:00","-6.1","","-11.4","","66","","1","","17","","24.1","","101.05","","","","-12","","Clear"
"2004-02-01 14:00","2004","02","01","14:00","-5.4","","-11.2","","64","","36","","13","","24.1","","101.04","","","","-11","","Clear"
"2004-02-01 15:00","2004","02","01","15:00","-4.9","","-11.0","","62","","35","","7","","24.1","","101.07","","","","-8","","Clear"
"2004-02-01 16:00","2004","02","01","16:00","-4.8","","-11.0","","62","","1","","9","","24.1","","101.07","","","","-9","","Clear"
"2004-02-01 17:00","2004","02","01","17:00","-5.5","","-11.3","","64","","31","","9","","24.1","","101.12","","","","-10","","Mainly Clear"
"2004-02-01 18:00","2004","02","01","18:00","-6.4","","-11.5","","67","","36","","11","","24.1","","101.12","","","","-11","","Clear"
"2004-02-01 19:00","2004","02","01","19:00","-6.9","","-11.8","","68","","36","","11","","24.1","","101.17","","","","-12","","Clear"
"2004-02-01 20:00","2004","02","01","20:00","-7.7","","-11.6","","74","","34","","7","","24.1","","101.19","","","","-11","","Clear"
"2004-02-01 21:00","2004","02","01","21:00","-8.2","","-11.9","","75","","36","","11","","24.1","","101.19","","","","-13","","Clear"
"2004-02-01 22:00","2004","02","01","22:00","-9.6","","-12.8","","77","","33","","4","","24.1","","101.20","","","","-12","","Clear"
"2004-02-01 23:00","2004","02","01","23:00","-10.9","","-13.8","","79","","32","","6","","24.1","","101.21","","","","-15","","Clear"
"2004-02-02 00:00","2004","02","02","00:00","-11.1","","-13.3","","84","","34","","4","","24.1","","101.20","","","","-14","","Clear"
"2004-02-02 01:00","2004","02","02","01:00","-10.2","","-12.6","","83","","34","","7","","24.1","","101.20","","","","-14","","Clear"
"2004-02-02 02:00","2004","02","02","02:00","-10.9","","-13.5","","81","","36","","7","","24.1","","101.19","","","","-15","","Mainly Clear"
"2004-02-02 03:00","2004","02","02","03:00","-11.3","","-13.4","","84","","2","","6","","24.1","","101.16","","","","-15","","Mainly Clear"
"2004-02-02 04:00","2004","02","02","04:00","-11.5","","-13.8","","83","","","","0","","24.1","","101.16","","","","","","Clear"
"2004-02-02 05:00","2004","02","02","05:00","-11.1","","-13.3","","84","","36","","4","","24.1","","101.15","","","","-14","","Mostly Cloudy"
"2004-02-02 06:00","2004","02","02","06:00","-11.8","","-14.0","","84","","36","","6","","24.1","","101.15","","","","-16","","Mostly Cloudy"
"2004-02-02 07:00","2004","02","02","07:00","-11.2","","-13.3","","84","","2","","11","","24.1","","101.12","","","","-17","","Mainly Clear"
"2004-02-02 08:00","2004","02","02","08:00","-9.2","","-12.0","","80","","","","0","","19.3","","101.14","","","","","","Cloudy"
"2004-02-02 09:00","2004","02","02","09:00","-7.1","","-9.9","","80","","3","","6","","16.1","","101.12","","","","-10","","Cloudy"
"2004-02-02 10:00","2004","02","02","10:00","-3.9","","-6.3","","83","","9","","7","","14.5","","101.09","","","","-7","","Cloudy"
"2004-02-02 11:00","2004","02","02","11:00","-2.6","","-4.1","","89","","10","","15","","8.0","","101.03","","","","-8","","Fog"
"2004-02-02 12:00","2004","02","02","12:00","-2.0","","-3.7","","88","","9","","19","","11.3","","100.96","","","","-8","","Mostly Cloudy"
"2004-02-02 13:00","2004","02","02","13:00","-1.4","","-3.5","","86","","10","","20","","14.5","","100.83","","","","-7","","Mostly Cloudy"
"2004-02-02 14:00","2004","02","02","14:00","-0.7","","-3.1","","84","","9","","19","","14.5","","100.72","","","","-6","","Mostly Cloudy"
"2004-02-02 15:00","2004","02","02","15:00","-0.5","","-3.4","","81","","8","","19","","16.1","","100.62","","","","-6","","Mostly Cloudy"
"2004-02-02 16:00","2004","02","02","16:00","-0.7","","-3.4","","82","","9","","17","","19.3","","100.58","","","","-6","","Mostly Cloudy"
"2004-02-02 17:00","2004","02","02","17:00","-1.3","","-3.6","","84","","8","","24","","19.3","","100.51","","","","-7","","Mostly Cloudy"
"2004-02-02 18:00","2004","02","02","18:00","-1.6","","-3.5","","87","","8","","20","","24.1","","100.42","","","","-7","","Mostly Cloudy"
"2004-02-02 19:00","2004","02","02","19:00","-1.3","","-3.1","","88","","9","","17","","24.1","","100.37","","","","-6","","Mostly Cloudy"
"2004-02-02 20:00","2004","02","02","20:00","-0.9","","-2.8","","87","","9","","24","","24.1","","100.25","","","","-7","","Cloudy"
"2004-02-02 21:00","2004","02","02","21:00","-0.9","","-2.6","","88","","9","","24","","24.1","","100.12","","","","-7","","Cloudy"
"2004-02-02 22:00","2004","02","02","22:00","-0.7","","-2.2","","90","","9","","24","","24.1","","99.98","","","","-7","","Mostly Cloudy"
"2004-02-02 23:00","2004","02","02","23:00","-0.1","","-1.6","","90","","9","","26","","24.1","","99.85","","","","-6","","Mostly Cloudy"
"2004-02-03 00:00","2004","02","03","00:00","0.2","","-1.6","","88","","10","","17","","24.1","","99.79","","","","","","Mostly Cloudy"
"2004-02-03 01:00","2004","02","03","01:00","0.6","","-2.2","","81","","10","","17","","24.1","","99.69","","","","","","Mostly Cloudy"
"2004-02-03 02:00","2004","02","03","02:00","-0.1","","-3.5","","78","","11","","13","","24.1","","99.60","","","","-4","","Mostly Cloudy"
"2004-02-03 03:00","2004","02","03","03:00","0.0","","-3.3","","78","","10","","13","","24.1","","99.51","","","","-4","","Mostly Cloudy"
"2004-02-03 04:00","2004","02","03","04:00","0.5","","-3.1","","77","","14","","15","","24.1","","99.45","","","","","","Ice Pellets"
"2004-02-03 05:00","2004","02","03","05:00","-0.9","","-2.7","","88","","13","","13","","3.2","","99.40","","","","-5","","Snow"
"2004-02-03 06:00","2004","02","03","06:00","-0.4","","-2.2","","88","","14","","11","","4.0","","99.33","","","","-4","","Snow"
"2004-02-03 07:00","2004","02","03","07:00","-0.2","","-1.2","","93","","13","","15","","2.4","","99.29","","","","-5","","Snow,Ice Pellets,Fog"
"2004-02-03 08:00","2004","02","03","08:00","0.0","","-0.5","","96","","12","","15","","1.2","","99.21","","","","-4","","Snow,Ice Pellets,Fog"
"2004-02-03 09:00","2004","02","03","09:00","0.2","","-0.2","","97","","13","","15","","1.0","","99.21","","","","","","Snow,Ice Pellets,Fog"
"2004-02-03 10:00","2004","02","03","10:00","0.6","","0.2","","97","","14","","17","","1.6","","99.16","","","","","","Snow,Ice Pellets,Fog"
"2004-02-03 11:00","2004","02","03","11:00","0.9","","0.5","","97","","14","","15","","3.2","","99.10","","","","","","Ice Pellets,Fog"
"2004-02-03 12:00","2004","02","03","12:00","1.3","","0.9","","97","","14","","11","","4.8","","99.04","","","","","","Ice Pellets,Fog"
"2004-02-03 13:00","2004","02","03","13:00","1.3","","0.9","","97","","16","","11","","4.0","","98.96","","","","","","Rain,Ice Pellets,Fog"
"2004-02-03 14:00","2004","02","03","14:00","1.7","","1.2","","96","","18","","13","","4.0","","98.87","","","","","","Rain,Ice Pellets,Fog"
"2004-02-03 15:00","2004","02","03","15:00","1.8","","1.2","","96","","17","","13","","6.4","","98.84","","","","","","Fog"
"2004-02-03 16:00","2004","02","03","16:00","1.6","","0.8","","94","","18","","13","","6.4","","98.86","","","","","","Rain,Ice Pellets,Fog"
"2004-02-03 17:00","2004","02","03","17:00","1.8","","1.2","","96","","19","","7","","2.8","","98.85","","","","","","Fog"
"2004-02-03 18:00","2004","02","03","18:00","2.1","","1.6","","96","","22","","7","","2.8","","98.88","","","","","","Drizzle,Fog"
"2004-02-03 19:00","2004","02","03","19:00","2.0","","1.5","","96","","23","","13","","6.4","","98.93","","","","","","Fog"
"2004-02-03 20:00","2004","02","03","20:00","2.0","","1.0","","93","","26","","15","","12.9","","98.96","","","","","","Cloudy"
"2004-02-03 21:00","2004","02","03","21:00","2.0","","0.6","","90","","25","","19","","16.1","","99.00","","","","","","Cloudy"
"2004-02-03 22:00","2004","02","03","22:00","1.9","","-0.1","","87","","27","","30","","19.3","","99.10","","","","","","Cloudy"
"2004-02-03 23:00","2004","02","03","23:00","1.6","","-1.3","","81","","28","","32","","19.3","","99.19","","","","","","Cloudy"
"2004-02-04 00:00","2004","02","04","00:00","1.5","","-2.2","","76","","30","","35","","19.3","","99.29","","","","","","Cloudy"
"2004-02-04 01:00","2004","02","04","01:00","0.9","","-2.8","","76","","29","","46","","24.1","","99.41","","","","","","Cloudy"
"2004-02-04 02:00","2004","02","04","02:00","-0.1","","-4.0","","75","","29","","37","","24.1","","99.53","","","","-7","","Cloudy"
"2004-02-04 03:00","2004","02","04","03:00","-1.0","","-5.8","","70","","28","","35","","24.1","","99.66","","","","-8","","Cloudy"
"2004-02-04 04:00","2004","02","04","04:00","-1.4","","-5.9","","71","","28","","33","","19.3","","99.73","","","","-9","","Snow Showers"
"2004-02-04 05:00","2004","02","04","05:00","-3.1","","-7.5","","72","","29","","52","","24.1","","99.88","","","","-13","","Mostly Cloudy"
"2004-02-04 06:00","2004","02","04","06:00","-4.7","","-10.0","","66","","29","","48","","24.1","","100.03","","","","-14","","Mostly Cloudy"
"2004-02-04 07:00","2004","02","04","07:00","-6.0","","-11.1","","67","","29","","43","","24.1","","100.18","","","","-16","","Mainly Clear"
"2004-02-04 08:00","2004","02","04","08:00","-6.9","","-11.9","","67","","29","","35","","24.1","","100.30","","","","-16","","Mainly Clear"
"2004-02-04 09:00","2004","02","04","09:00","-6.6","","-11.4","","69","","28","","33","","24.1","","100.43","","","","-15","","Mainly Clear"
"2004-02-04 10:00","2004","02","04","10:00","-5.7","","-11.1","","66","","28","","33","","24.1","","100.52","","","","-14","","Clear"
"2004-02-04 11:00","2004","02","04","11:00","-4.9","","-10.3","","66","","28","","37","","24.1","","100.61","","","","-14","","Clear"
"2004-02-04 12:00","2004","02","04","12:00","-4.5","","-9.7","","67","","29","","37","","24.1","","100.63","","","","-13","","Mainly Clear"
"2004-02-04 13:00","2004","02","04","13:00","-4.0","","-9.9","","63","","28","","41","","24.1","","100.64","","","","-13","","Mainly Clear"
"2004-02-04 14:00","2004","02","04","14:00","-3.9","","-10.5","","60","","28","","30","","24.1","","100.65","","","","-12","","Mainly Clear"
"2004-02-04 15:00","2004","02","04","15:00","-3.9","","-10.0","","63","","28","","22","","24.1","","100.69","","","","-10","","Mostly Cloudy"
"2004-02-04 16:00","2004","02","04","16:00","-4.3","","-10.4","","62","","27","","32","","24.1","","100.76","","","","-12","","Mainly Clear"
"2004-02-04 17:00","2004","02","04","17:00","-5.5","","-11.1","","65","","27","","26","","24.1","","100.86","","","","-13","","Mainly Clear"
"2004-02-04 18:00","2004","02","04","18:00","-6.1","","-11.3","","67","","29","","33","","24.1","","100.96","","","","-15","","Mostly Cloudy"
"2004-02-04 19:00","2004","02","04","19:00","-6.9","","-11.8","","68","","29","","22","","24.1","","101.07","","","","-14","","Mainly Clear"
"2004-02-04 20:00","2004","02","04","20:00","-7.4","","-11.8","","71","","28","","19","","24.1","","101.14","","","","-14","","Mainly Clear"
"2004-02-04 21:00","2004","02","04","21:00","-9.1","","-12.7","","75","","24","","15","","24.1","","101.17","","","","-16","","Clear"
"2004-02-04 22:00","2004","02","04","22:00","-8.4","","-12.1","","75","","25","","22","","24.1","","101.21","","","","-16","","Clear"
"2004-02-04 23:00","2004","02","04","23:00","-9.6","","-12.9","","77","","27","","7","","24.1","","101.23","","","","-14","","Clear"
"2004-02-05 00:00","2004","02","05","00:00","-10.7","","-13.4","","80","","23","","13","","24.1","","101.30","","","","-17","","Clear"
"2004-02-05 01:00","2004","02","05","01:00","-10.7","","-13.4","","80","","25","","15","","24.1","","101.31","","","","-18","","Clear"
"2004-02-05 02:00","2004","02","05","02:00","-11.6","","-13.8","","84","","26","","15","","24.1","","101.38","","","","-19","","Clear"
"2004-02-05 03:00","2004","02","05","03:00","-10.7","","-13.1","","82","","26","","7","","24.1","","101.37","","","","-15","","Clear"
"2004-02-05 04:00","2004","02","05","04:00","-12.1","","-14.2","","84","","26","","11","","24.1","","101.33","","","","-18","","Clear"
"2004-02-05 05:00","2004","02","05","05:00","-10.6","","-12.5","","86","","23","","6","","24.1","","101.39","","","","-14","","Mainly Clear"
"2004-02-05 06:00","2004","02","05","06:00","-10.2","","-12.5","","83","","25","","7","","24.1","","101.56","","","","-14","","Mostly Cloudy"
"2004-02-05 07:00","2004","02","05","07:00","-9.2","","-11.9","","81","","28","","7","","24.1","","101.65","","","","-13","","Mostly Cloudy"
"2004-02-05 08:00","2004","02","05","08:00","-9.6","","-12.2","","81","","2","","6","","24.1","","101.65","","","","-13","","Mainly Clear"
"2004-02-05 09:00","2004","02","05","09:00","-8.4","","-11.5","","78","","32","","4","","24.1","","101.70","","","","-11","","Mostly Cloudy"
"2004-02-05 10:00","2004","02","05","10:00","-7.1","","-10.5","","77","","5","","4","","24.1","","101.60","","","","-9","","Cloudy"
"2004-02-05 11:00","2004","02","05","11:00","-5.4","","-9.9","","71","","10","","7","","24.1","","101.55","","","","-9","","Cloudy"
"2004-02-05 12:00","2004","02","05","12:00","-4.8","","-10.0","","67","","7","","6","","24.1","","101.52","","","","-8","","Cloudy"
"2004-02-05 13:00","2004","02","05","13:00","-4.1","","-9.7","","65","","12","","4","","24.1","","101.60","","","","-6","","Cloudy"
"2004-02-05 14:00","2004","02","05","14:00","-4.1","","-9.1","","68","","14","","4","","24.1","","101.46","","","","-6","","Cloudy"
"2004-02-05 15:00","2004","02","05","15:00","-3.9","","-9.2","","67","","12","","9","","24.1","","101.43","","","","-8","","Cloudy"
"2004-02-05 16:00","2004","02","05","16:00","-3.7","","-9.7","","63","","7","","15","","24.1","","101.25","","","","-9","","Mostly Cloudy"
"2004-02-05 17:00","2004","02","05","17:00","-3.8","","-10.6","","59","","10","","11","","24.1","","101.39","","","","-8","","Cloudy"
"2004-02-05 18:00","2004","02","05","18:00","-4.3","","-9.6","","66","","8","","15","","24.1","","101.23","","","","-10","","Cloudy"
"2004-02-05 19:00","2004","02","05","19:00","-4.2","","-8.3","","73","","9","","19","","24.1","","101.11","","","","-10","","Cloudy"
"2004-02-05 20:00","2004","02","05","20:00","-3.6","","-7.8","","73","","9","","17","","24.1","","100.94","","","","-9","","Mostly Cloudy"
"2004-02-05 21:00","2004","02","05","21:00","-3.1","","-7.4","","72","","10","","24","","24.1","","100.85","","","","-10","","Cloudy"
"2004-02-05 22:00","2004","02","05","22:00","-2.6","","-6.2","","76","","10","","26","","24.1","","100.66","","","","-9","","Mostly Cloudy"
"2004-02-05 23:00","2004","02","05","23:00","-2.2","","-5.8","","76","","10","","28","","24.1","","100.52","","","","-9","","Cloudy"
"2004-02-06 00:00","2004","02","06","00:00","-2.0","","-6.3","","72","","9","","26","","19.3","","100.44","","","","-9","","Snow"
"2004-02-06 01:00","2004","02","06","01:00","-2.8","","-5.2","","84","","9","","28","","2.8","","100.24","","","","-10","","Snow"
"2004-02-06 02:00","2004","02","06","02:00","-2.6","","-4.0","","90","","9","","33","","1.6","","100.00","","","","-10","","Snow"
"2004-02-06 03:00","2004","02","06","03:00","-2.1","","-3.2","","92","","10","","30","","1.6","","99.88","","","","-9","","Snow"
"2004-02-06 04:00","2004","02","06","04:00","-1.9","","-2.8","","94","","9","","32","","2.4","","99.60","","","","-9","","Snow"
"2004-02-06 05:00","2004","02","06","05:00","-1.3","","-2.3","","93","","11","","32","","2.4","","99.47","","","","-8","","Snow"
"2004-02-06 06:00","2004","02","06","06:00","-1.2","","-2.2","","93","","10","","30","","8.0","","99.25","","","","-8","","Snow"
"2004-02-06 07:00","2004","02","06","07:00","-0.8","","-1.8","","93","","9","","22","","2.8","","99.18","","","","-7","","Freezing Drizzle"
"2004-02-06 08:00","2004","02","06","08:00","-0.4","","-1.2","","94","","11","","24","","6.4","","99.02","","","","-6","","Rain"
"2004-02-06 09:00","2004","02","06","09:00","0.0","","-0.6","","96","","10","","13","","2.4","","98.91","","","","-4","","Rain,Ice Pellets"
"2004-02-06 10:00","2004","02","06","10:00","0.4","","-0.1","","96","","10","","11","","3.2","","98.81","","","","","","Rain,Ice Pellets"
"2004-02-06 11:00","2004","02","06","11:00","0.7","","0.4","","98","","12","","9","","3.2","","98.68","","","","","","Rain"
"2004-02-06 12:00","2004","02","06","12:00","1.1","","0.9","","99","","11","","7","","1.6","","98.66","","","","","","Drizzle,Fog"
"2004-02-06 13:00","2004","02","06","13:00","1.4","","1.3","","99","","14","","9","","0.6","","98.54","","","","","","Drizzle,Fog"
"2004-02-06 14:00","2004","02","06","14:00","1.6","","1.5","","99","","15","","6","","0.6","","98.40","","","","","","Drizzle,Fog"
"2004-02-06 15:00","2004","02","06","15:00","1.6","","1.6","","100","","18","","7","","0.2","","98.47","","","","","","Fog"
"2004-02-06 16:00","2004","02","06","16:00","2.0","","1.8","","99","","20","","13","","2.4","","98.48","","","","","","Fog"
"2004-02-06 17:00","2004","02","06","17:00","2.1","","1.8","","98","","24","","13","","6.4","","98.44","","","","","","Fog"
"2004-02-06 18:00","2004","02","06","18:00","2.4","","1.2","","92","","23","","20","","8.0","","98.43","","","","","","Fog"
"2004-02-06 19:00","2004","02","06","19:00","1.7","","0.3","","90","","25","","20","","12.9","","98.44","","","","","","Cloudy"
"2004-02-06 20:00","2004","02","06","20:00","1.3","","-0.5","","88","","27","","20","","19.3","","98.46","","","","","","Cloudy"
"2004-02-06 21:00","2004","02","06","21:00","1.1","","-1.6","","82","","27","","19","","19.3","","98.44","","","","","","Cloudy"
"2004-02-06 22:00","2004","02","06","22:00","0.3","","-2.9","","79","","26","","22","","19.3","","98.40","","","","","","Cloudy"
"2004-02-06 23:00","2004","02","06","23:00","-0.1","","-2.9","","81","","27","","19","","19.3","","98.37","","","","-5","","Cloudy"
"2004-02-07 00:00","2004","02","07","00:00","-0.3","","-2.7","","84","","25","","19","","19.3","","98.36","","","","-5","","Cloudy"
"2004-02-07 01:00","2004","02","07","01:00","-0.6","","-2.8","","85","","27","","19","","19.3","","98.32","","","","-6","","Cloudy"
"2004-02-07 02:00","2004","02","07","02:00","-1.1","","-4.2","","79","","29","","22","","24.1","","98.30","","","","-7","","Cloudy"
"2004-02-07 03:00","2004","02","07","03:00","-1.9","","-5.2","","78","","28","","22","","24.1","","98.35","","","","-8","","Cloudy"
"2004-02-07 04:00","2004","02","07","04:00","-2.8","","-5.7","","80","","29","","24","","16.1","","98.35","","","","-9","","Snow Showers"
"2004-02-07 05:00","2004","02","07","05:00","-4.0","","-7.5","","77","","29","","26","","19.3","","98.39","","","","-11","","Cloudy"
"2004-02-07 06:00","2004","02","07","06:00","-4.7","","-8.8","","73","","31","","26","","19.3","","98.41","","","","-12","","Mostly Cloudy"
"2004-02-07 07:00","2004","02","07","07:00","-5.2","","-9.6","","71","","31","","35","","24.1","","98.47","","","","-14","","Mostly Cloudy"
"2004-02-07 08:00","2004","02","07","08:00","-5.7","","-9.5","","75","","32","","28","","12.9","","98.55","","","","-14","","Snow Showers"
"2004-02-07 09:00","2004","02","07","09:00","-6.2","","-10.3","","73","","33","","33","","19.3","","98.66","","","","-15","","Cloudy"
"2004-02-07 10:00","2004","02","07","10:00","-6.6","","-10.7","","73","","33","","33","","19.3","","98.74","","","","-15","","Mostly Cloudy"
"2004-02-07 11:00","2004","02","07","11:00","-6.2","","-11.2","","68","","32","","33","","24.1","","98.81","","","","-15","","Mostly Cloudy"
"2004-02-07 12:00","2004","02","07","12:00","-6.0","","-10.8","","69","","33","","39","","19.3","","98.91","","","","-15","","Mostly Cloudy"
"2004-02-07 13:00","2004","02","07","13:00","-6.0","","-11.2","","67","","34","","39","","19.3","","98.94","","","","-15","","Mostly Cloudy"
"2004-02-07 14:00","2004","02","07","14:00","-5.7","","-10.7","","68","","34","","26","","24.1","","98.99","","","","-13","","Mostly Cloudy"
"2004-02-07 15:00","2004","02","07","15:00","-5.9","","-10.9","","68","","36","","28","","24.1","","99.05","","","","-14","","Mainly Clear"
"2004-02-07 16:00","2004","02","07","16:00","-6.3","","-11.4","","67","","35","","33","","24.1","","99.16","","","","-15","","Mainly Clear"
"2004-02-07 17:00","2004","02","07","17:00","-6.8","","-11.9","","67","","34","","33","","24.1","","99.27","","","","-16","","Mainly Clear"
"2004-02-07 18:00","2004","02","07","18:00","-8.5","","-12.7","","72","","34","","35","","24.1","","99.44","","","","-18","","Mainly Clear"
"2004-02-07 19:00","2004","02","07","19:00","-9.0","","-14.0","","67","","33","","37","","24.1","","99.60","","","","-19","","Clear"
"2004-02-07 20:00","2004","02","07","20:00","-9.6","","-14.5","","67","","33","","33","","24.1","","99.72","","","","-19","","Clear"
"2004-02-07 21:00","2004","02","07","21:00","-10.0","","-15.1","","66","","33","","30","","24.1","","99.83","","","","-20","","Clear"
"2004-02-07 22:00","2004","02","07","22:00","-10.3","","-15.6","","65","","34","","28","","24.1","","99.94","","","","-20","","Clear"
"2004-02-07 23:00","2004","02","07","23:00","-11.4","","-16.3","","67","","32","","17","","24.1","","100.04","","","","-19","","Clear"
"2004-02-08 00:00","2004","02","08","00:00","-13.0","","-16.7","","74","","31","","17","","24.1","","100.11","","","","-21","","Clear"
"2004-02-08 01:00","2004","02","08","01:00","-12.6","","-17.9","","65","","34","","24","","24.1","","100.21","","","","-22","","Clear"
"2004-02-08 02:00","2004","02","08","02:00","-13.5","","-18.3","","67","","32","","19","","24.1","","100.32","","","","-22","","Clear"
"2004-02-08 03:00","2004","02","08","03:00","-14.1","","-17.6","","75","","28","","7","","24.1","","100.40","","","","-19","","Clear"
"2004-02-08 04:00","2004","02","08","04:00","-14.1","","-17.5","","75","","28","","7","","24.1","","100.44","","","","-19","","Clear"
"2004-02-08 05:00","2004","02","08","05:00","-14.5","","-17.7","","77","","25","","4","","24.1","","100.49","","","","-17","","Clear"
"2004-02-08 06:00","2004","02","08","06:00","-15.4","","-18.3","","78","","25","","11","","24.1","","100.54","","","","-22","","Clear"
"2004-02-08 07:00","2004","02","08","07:00","-15.4","","-18.6","","76","","25","","15","","24.1","","100.57","","","","-23","","Clear"
"2004-02-08 08:00","2004","02","08","08:00","-15.5","","-18.8","","76","","25","","17","","24.1","","100.60","","","","-24","","Clear"
"2004-02-08 09:00","2004","02","08","09:00","-11.7","","-15.3","","75","","27","","17","","24.1","","100.67","","","","-19","","Clear"
"2004-02-08 10:00","2004","02","08","10:00","-8.2","","-13.1","","68","","29","","22","","24.1","","100.71","","","","-16","","Clear"
"2004-02-08 11:00","2004","02","08","11:00","-6.8","","-14.6","","54","","27","","22","","24.1","","100.72","","","","-14","","Clear"
"2004-02-08 12:00","2004","02","08","12:00","-5.2","","-12.8","","55","","25","","24","","24.1","","100.71","","","","-12","","Mainly Clear"
"2004-02-08 13:00","2004","02","08","13:00","-4.7","","-13.9","","49","","25","","24","","24.1","","100.62","","","","-12","","Mainly Clear"
"2004-02-08 14:00","2004","02","08","14:00","-3.6","","-12.7","","49","","24","","22","","24.1","","100.56","","","","-10","","Mostly Cloudy"
"2004-02-08 15:00","2004","02","08","15:00","-3.9","","-14.5","","44","","24","","30","","24.1","","100.52","","","","-12","","Mainly Clear"
"2004-02-08 16:00","2004","02","08","16:00","-3.7","","-15.4","","40","","23","","26","","24.1","","100.48","","","","-11","","Mostly Cloudy"
"2004-02-08 17:00","2004","02","08","17:00","-3.6","","-14.1","","44","","23","","22","","24.1","","100.45","","","","-10","","Mainly Clear"
"2004-02-08 18:00","2004","02","08","18:00","-4.5","","-12.8","","52","","23","","24","","24.1","","100.40","","","","-12","","Mainly Clear"
"2004-02-08 19:00","2004","02","08","19:00","-4.8","","-12.0","","57","","25","","44","","24.1","","100.39","","","","-14","","Clear"
"2004-02-08 20:00","2004","02","08","20:00","-4.8","","-9.5","","70","","25","","37","","24.1","","100.44","","","","-14","","Clear"
"2004-02-08 21:00","2004","02","08","21:00","-4.7","","-8.8","","73","","25","","39","","24.1","","100.47","","","","-14","","Clear"
"2004-02-08 22:00","2004","02","08","22:00","-5.2","","-8.7","","76","","23","","20","","24.1","","100.48","","","","-12","","Mainly Clear"
"2004-02-08 23:00","2004","02","08","23:00","-4.8","","-8.3","","76","","24","","19","","24.1","","100.45","","","","-11","","Mainly Clear"
"2004-02-09 00:00","2004","02","09","00:00","-4.6","","-8.0","","77","","22","","11","","24.1","","100.38","","","","-9","","Mostly Cloudy"
"2004-02-09 01:00","2004","02","09","01:00","-4.5","","-8.7","","72","","20","","13","","24.1","","100.31","","","","-10","","Mostly Cloudy"
"2004-02-09 02:00","2004","02","09","02:00","-4.7","","-9.1","","71","","16","","9","","24.1","","100.20","","","","-9","","Mostly Cloudy"
"2004-02-09 03:00","2004","02","09","03:00","-5.1","","-8.8","","75","","18","","9","","24.1","","100.09","","","","-9","","Mainly Clear"
"2004-02-09 04:00","2004","02","09","04:00","-5.2","","-8.8","","76","","20","","13","","24.1","","100.01","","","","-10","","Clear"
"2004-02-09 05:00","2004","02","09","05:00","-5.3","","-8.5","","78","","19","","13","","19.3","","99.97","","","","-10","","Mostly Cloudy"
"2004-02-09 06:00","2004","02","09","06:00","-4.8","","-8.1","","78","","20","","15","","19.3","","99.87","","","","-10","","Mostly Cloudy"
"2004-02-09 07:00","2004","02","09","07:00","-4.7","","-8.0","","78","","18","","15","","19.3","","99.72","","","","-10","","Mostly Cloudy"
"2004-02-09 08:00","2004","02","09","08:00","-3.4","","-7.3","","74","","19","","19","","19.3","","99.62","","","","-9","","Cloudy"
"2004-02-09 09:00","2004","02","09","09:00","-2.2","","-6.9","","70","","20","","17","","16.1","","99.55","","","","-8","","Mostly Cloudy"
"2004-02-09 10:00","2004","02","09","10:00","-1.1","","-6.2","","68","","21","","20","","19.3","","99.47","","","","-7","","Cloudy"
"2004-02-09 11:00","2004","02","09","11:00","0.3","","-4.8","","69","","23","","37","","19.3","","99.43","","","","","","Cloudy"
"2004-02-09 12:00","2004","02","09","12:00","1.0","","-4.0","","69","","23","","37","","24.1","","99.38","","","","","","Cloudy"
"2004-02-09 13:00","2004","02","09","13:00","1.4","","-3.6","","69","","24","","41","","24.1","","99.30","","","","","","Cloudy"
"2004-02-09 14:00","2004","02","09","14:00","1.4","","-3.3","","71","","24","","35","","24.1","","99.28","","","","","","Cloudy"
"2004-02-09 15:00","2004","02","09","15:00","1.8","","-3.4","","68","","23","","37","","24.1","","99.29","","","","","","Cloudy"
"2004-02-09 16:00","2004","02","09","16:00","2.1","","-3.3","","67","","23","","35","","19.3","","99.32","","","","","","Cloudy"
"2004-02-09 17:00","2004","02","09","17:00","1.9","","-3.4","","68","","23","","35","","19.3","","99.33","","","","","","Mostly Cloudy"
"2004-02-09 18:00","2004","02","09","18:00","1.5","","-3.3","","70","","23","","35","","19.3","","99.38","","","","","","Mostly Cloudy"
"2004-02-09 19:00","2004","02","09","19:00","1.4","","-3.5","","70","","23","","32","","24.1","","99.42","","","","","","Mostly Cloudy"
"2004-02-09 20:00","2004","02","09","20:00","1.3","","-3.3","","71","","23","","24","","24.1","","99.44","","","","","","Cloudy"
"2004-02-09 21:00","2004","02","09","21:00","1.1","","-3.4","","72","","23","","22","","24.1","","99.43","","","","","","Cloudy"
"2004-02-09 22:00","2004","02","09","22:00","-0.4","","-4.7","","73","","29","","37","","19.3","","99.47","","","","-8","","Cloudy"
"2004-02-09 23:00","2004","02","09","23:00","-0.9","","-5.8","","69","","27","","30","","24.1","","99.53","","","","-8","","Cloudy"
"2004-02-10 00:00","2004","02","10","00:00","-1.1","","-6.0","","69","","26","","26","","24.1","","99.49","","","","-7","","Cloudy"
"2004-02-10 01:00","2004","02","10","01:00","-0.9","","-6.6","","65","","26","","32","","24.1","","99.47","","","","-8","","Cloudy"
"2004-02-10 02:00","2004","02","10","02:00","-1.4","","-6.6","","68","","24","","15","","24.1","","99.43","","","","-6","","Cloudy"
"2004-02-10 03:00","2004","02","10","03:00","-2.0","","-6.6","","71","","23","","15","","19.3","","99.41","","","","-7","","Mostly Cloudy"
"2004-02-10 04:00","2004","02","10","04:00","-1.9","","-6.3","","72","","22","","15","","19.3","","99.39","","","","-7","","Cloudy"
"2004-02-10 05:00","2004","02","10","05:00","-1.7","","-6.5","","70","","21","","13","","24.1","","99.38","","","","-6","","Cloudy"
"2004-02-10 06:00","2004","02","10","06:00","-2.0","","-6.4","","72","","22","","19","","24.1","","99.35","","","","-8","","Cloudy"
"2004-02-10 07:00","2004","02","10","07:00","-2.0","","-6.0","","74","","22","","13","","16.1","","99.30","","","","-6","","Snow Showers"
"2004-02-10 08:00","2004","02","10","08:00","-1.6","","-5.6","","74","","21","","22","","16.1","","99.28","","","","-8","","Snow Showers"
"2004-02-10 09:00","2004","02","10","09:00","-2.1","","-4.5","","84","","22","","19","","2.8","","99.27","","","","-8","","Snow"
"2004-02-10 10:00","2004","02","10","10:00","-2.3","","-3.9","","89","","24","","13","","6.4","","99.25","","","","-7","","Snow"
"2004-02-10 11:00","2004","02","10","11:00","-1.3","","-5.6","","73","","25","","30","","24.1","","99.20","","","","-8","","Cloudy"
"2004-02-10 12:00","2004","02","10","12:00","-1.6","","-4.3","","82","","23","","17","","8.0","","99.15","","","","-7","","Snow Showers"
"2004-02-10 13:00","2004","02","10","13:00","-0.9","","-5.3","","72","","24","","35","","19.3","","99.08","","","","-8","","Cloudy"
"2004-02-10 14:00","2004","02","10","14:00","-0.7","","-5.2","","72","","24","","28","","9.7","","99.01","","","","-7","","Snow Showers"
"2004-02-10 15:00","2004","02","10","15:00","-0.6","","-6.1","","66","","25","","35","","24.1","","98.99","","","","-8","","Mostly Cloudy"
"2004-02-10 16:00","2004","02","10","16:00","-0.7","","-6.2","","66","","27","","35","","24.1","","98.98","","","","-8","","Cloudy"
"2004-02-10 17:00","2004","02","10","17:00","-1.1","","-7.6","","61","","27","","33","","24.1","","98.98","","","","-8","","Cloudy"
"2004-02-10 18:00","2004","02","10","18:00","-1.5","","-7.7","","63","","26","","32","","24.1","","99.03","","","","-9","","Cloudy"
"2004-02-10 19:00","2004","02","10","19:00","-1.7","","-7.4","","65","","26","","32","","24.1","","99.07","","","","-9","","Cloudy"
"2004-02-10 20:00","2004","02","10","20:00","-2.0","","-7.3","","67","","26","","28","","24.1","","99.08","","","","-9","","Cloudy"
"2004-02-10 21:00","2004","02","10","21:00","-2.3","","-7.5","","67","","27","","32","","24.1","","99.08","","","","-10","","Cloudy"
"2004-02-10 22:00","2004","02","10","22:00","-2.8","","-7.8","","68","","27","","33","","24.1","","99.10","","","","-10","","Mostly Cloudy"
"2004-02-10 23:00","2004","02","10","23:00","-3.9","","-8.2","","72","","27","","30","","24.1","","99.17","","","","-12","","Clear"
"2004-02-11 00:00","2004","02","11","00:00","-4.8","","-8.1","","78","","27","","22","","24.1","","99.24","","","","-12","","Mainly Clear"
"2004-02-11 01:00","2004","02","11","01:00","-4.8","","-7.8","","79","","27","","19","","24.1","","99.33","","","","-11","","Mainly Clear"
"2004-02-11 02:00","2004","02","11","02:00","-4.4","","-8.8","","71","","29","","24","","24.1","","99.43","","","","-11","","Mostly Cloudy"
"2004-02-11 03:00","2004","02","11","03:00","-4.7","","-9.7","","68","","31","","33","","24.1","","99.52","","","","-13","","Cloudy"
"2004-02-11 04:00","2004","02","11","04:00","-5.0","","-9.4","","71","","29","","20","","24.1","","99.57","","","","-12","","Cloudy"
"2004-02-11 05:00","2004","02","11","05:00","-5.2","","-9.3","","73","","29","","19","","9.7","","99.61","","","","-12","","Snow"
"2004-02-11 06:00","2004","02","11","06:00","-5.3","","-10.1","","69","","29","","28","","16.1","","99.69","","","","-13","","Snow"
"2004-02-11 07:00","2004","02","11","07:00","-5.8","","-9.5","","75","","30","","17","","9.7","","99.76","","","","-12","","Snow"
"2004-02-11 08:00","2004","02","11","08:00","-5.8","","-9.2","","77","","32","","15","","16.1","","99.85","","","","-12","","Snow"
"2004-02-11 09:00","2004","02","11","09:00","-5.8","","-10.7","","68","","30","","19","","19.3","","99.96","","","","-12","","Snow"
"2004-02-11 10:00","2004","02","11","10:00","-6.6","","-10.1","","76","","36","","15","","12.9","","100.04","","","","-13","","Snow"
"2004-02-11 11:00","2004","02","11","11:00","-6.7","","-10.6","","74","","36","","6","","12.9","","100.11","","","","-10","","Snow"
"2004-02-11 12:00","2004","02","11","12:00","-5.6","","-10.3","","69","","4","","4","","16.1","","100.11","","","","-7","","Snow"
"2004-02-11 13:00","2004","02","11","13:00","-4.2","","-10.0","","64","","","","0","","19.3","","100.10","","","","","","Snow"
"2004-02-11 14:00","2004","02","11","14:00","-3.9","","-10.1","","62","","28","","4","","19.3","","100.10","","","","-6","","Snow"
"2004-02-11 15:00","2004","02","11","15:00","-3.4","","-10.4","","58","","28","","13","","24.1","","100.11","","","","-8","","Mostly Cloudy"
"2004-02-11 16:00","2004","02","11","16:00","-3.2","","-10.7","","56","","29","","15","","24.1","","100.11","","","","-8","","Mostly Cloudy"
"2004-02-11 17:00","2004","02","11","17:00","-3.0","","-9.8","","59","","28","","7","","24.1","","100.10","","","","-6","","Mostly Cloudy"
"2004-02-11 18:00","2004","02","11","18:00","-3.9","","-9.9","","63","","26","","9","","24.1","","100.16","","","","-8","","Mostly Cloudy"
"2004-02-11 19:00","2004","02","11","19:00","-3.8","","-10.1","","62","","24","","15","","24.1","","100.19","","","","-9","","Cloudy"
"2004-02-11 20:00","2004","02","11","20:00","-3.8","","-10.1","","62","","23","","11","","24.1","","100.20","","","","-8","","Cloudy"
"2004-02-11 21:00","2004","02","11","21:00","-4.1","","-9.9","","64","","24","","11","","24.1","","100.17","","","","-9","","Cloudy"
"2004-02-11 22:00","2004","02","11","22:00","-4.2","","-9.4","","67","","24","","9","","24.1","","100.15","","","","-8","","Cloudy"
"2004-02-11 23:00","2004","02","11","23:00","-3.7","","-9.1","","66","","23","","9","","24.1","","100.18","","","","-7","","Cloudy"
"2004-02-12 00:00","2004","02","12","00:00","-3.7","","-8.5","","69","","20","","6","","24.1","","100.14","","","","-6","","Cloudy"
"2004-02-12 01:00","2004","02","12","01:00","-3.6","","-8.2","","70","","22","","9","","24.1","","100.11","","","","-7","","Cloudy"
"2004-02-12 02:00","2004","02","12","02:00","-3.6","","-8.5","","69","","17","","4","","24.1","","100.04","","","","-5","","Snow"
"2004-02-12 03:00","2004","02","12","03:00","-3.5","","-8.1","","70","","19","","9","","24.1","","100.03","","","","-7","","Snow"
"2004-02-12 04:00","2004","02","12","04:00","-3.6","","-7.6","","74","","21","","6","","24.1","","99.99","","","","-6","","Snow"
"2004-02-12 05:00","2004","02","12","05:00","-3.5","","-6.8","","78","","","","0","","24.1","","99.95","","","","","","Cloudy"
"2004-02-12 06:00","2004","02","12","06:00","-3.3","","-6.4","","79","","15","","6","","24.1","","99.88","","","","-6","","Snow"
"2004-02-12 07:00","2004","02","12","07:00","-3.4","","-6.2","","81","","","","0","","12.9","","99.87","","","","","","Snow"
"2004-02-12 08:00","2004","02","12","08:00","-2.8","","-5.8","","80","","9","","6","","11.3","","99.90","","","","-5","","Snow"
"2004-02-12 09:00","2004","02","12","09:00","-2.8","","-5.7","","80","","9","","7","","8.0","","99.90","","","","-6","","Snow"
"2004-02-12 10:00","2004","02","12","10:00","-2.3","","-6.3","","74","","","","0","","9.7","","99.87","","","","","","Haze"
"2004-02-12 11:00","2004","02","12","11:00","-2.0","","-5.8","","75","","8","","6","","11.3","","99.82","","","","-4","","Cloudy"
"2004-02-12 12:00","2004","02","12","12:00","-1.4","","-5.4","","74","","","","0","","8.0","","99.81","","","","","","Snow,Snow Grains"
"2004-02-12 13:00","2004","02","12","13:00","-1.3","","-5.1","","75","","32","","4","","12.9","","99.74","","","","-3","","Cloudy"
"2004-02-12 14:00","2004","02","12","14:00","-1.4","","-5.3","","75","","30","","6","","11.3","","99.68","","","","-4","","Cloudy"
"2004-02-12 15:00","2004","02","12","15:00","-1.5","","-5.0","","77","","32","","9","","9.7","","99.66","","","","-5","","Haze"
"2004-02-12 16:00","2004","02","12","16:00","-1.5","","-5.3","","75","","31","","7","","9.7","","99.66","","","","-4","","Haze"
"2004-02-12 17:00","2004","02","12","17:00","-2.0","","-5.6","","76","","35","","9","","8.0","","99.68","","","","-5","","Snow Showers"
"2004-02-12 18:00","2004","02","12","18:00","-2.1","","-5.6","","77","","35","","4","","8.0","","99.69","","","","-4","","Snow Showers"
"2004-02-12 19:00","2004","02","12","19:00","-2.3","","-6.0","","76","","","","0","","19.3","","99.72","","","","","","Mostly Cloudy"
"2004-02-12 20:00","2004","02","12","20:00","-3.5","","-6.7","","78","","36","","6","","24.1","","99.70","","","","-6","","Mainly Clear"
"2004-02-12 21:00","2004","02","12","21:00","-4.7","","-7.7","","79","","32","","11","","24.1","","99.70","","","","-9","","Clear"
"2004-02-12 22:00","2004","02","12","22:00","-5.2","","-8.8","","76","","29","","19","","24.1","","99.73","","","","-12","","Clear"
"2004-02-12 23:00","2004","02","12","23:00","-6.7","","-9.9","","78","","28","","15","","24.1","","99.70","","","","-13","","Clear"
"2004-02-13 00:00","2004","02","13","00:00","-6.6","","-9.7","","79","","25","","15","","24.1","","99.66","","","","-13","","Cloudy"
"2004-02-13 01:00","2004","02","13","01:00","-5.4","","-8.7","","78","","21","","9","","24.1","","99.61","","","","-9","","Cloudy"
"2004-02-13 02:00","2004","02","13","02:00","-3.9","","-7.8","","74","","24","","15","","24.1","","99.56","","","","-9","","Cloudy"
"2004-02-13 03:00","2004","02","13","03:00","-3.4","","-6.7","","78","","24","","22","","24.1","","99.47","","","","-10","","Cloudy"
"2004-02-13 04:00","2004","02","13","04:00","-2.8","","-6.4","","76","","25","","28","","24.1","","99.44","","","","-10","","Cloudy"
"2004-02-13 05:00","2004","02","13","05:00","-3.2","","-8.2","","68","","27","","46","","24.1","","99.36","","","","-12","","Mainly Clear"
"2004-02-13 06:00","2004","02","13","06:00","-3.2","","-8.2","","68","","26","","37","","24.1","","99.38","","","","-11","","Mostly Cloudy"
"2004-02-13 07:00","2004","02","13","07:00","-3.5","","-8.3","","69","","25","","39","","24.1","","99.36","","","","-12","","Mostly Cloudy"
"2004-02-13 08:00","2004","02","13","08:00","-4.2","","-8.7","","71","","25","","35","","19.3","","99.43","","","","-13","","Mostly Cloudy"
"2004-02-13 09:00","2004","02","13","09:00","-3.6","","-8.5","","69","","24","","35","","19.3","","99.37","","","","-12","","Mostly Cloudy"
"2004-02-13 10:00","2004","02","13","10:00","-2.8","","-8.0","","67","","24","","39","","19.3","","99.31","","","","-11","","Mostly Cloudy"
"2004-02-13 11:00","2004","02","13","11:00","-2.2","","-7.4","","67","","25","","41","","24.1","","99.30","","","","-10","","Mostly Cloudy"
"2004-02-13 12:00","2004","02","13","12:00","-1.1","","-7.3","","63","","25","","48","","24.1","","99.23","","","","-9","","Mainly Clear"
"2004-02-13 13:00","2004","02","13","13:00","-0.7","","-6.6","","64","","25","","48","","24.1","","99.15","","","","-9","","Mainly Clear"
"2004-02-13 14:00","2004","02","13","14:00","-0.3","","-6.8","","61","","23","","32","","24.1","","99.08","","","","-7","","Clear"
"2004-02-13 15:00","2004","02","13","15:00","-0.8","","-6.9","","63","","25","","44","","19.3","","98.99","","","","-9","","Clear"
"2004-02-13 16:00","2004","02","13","16:00","-0.9","","-7.0","","63","","24","","41","","19.3","","98.89","","","","-9","","Clear"
"2004-02-13 17:00","2004","02","13","17:00","-2.0","","-7.3","","67","","24","","41","","19.3","","98.86","","","","-10","","Clear"
"2004-02-13 18:00","2004","02","13","18:00","-2.7","","-7.9","","67","","24","","41","","19.3","","98.86","","","","-11","","Mainly Clear"
"2004-02-13 19:00","2004","02","13","19:00","-3.2","","-7.9","","70","","23","","41","","24.1","","98.86","","","","-12","","Clear"
"2004-02-13 20:00","2004","02","13","20:00","-3.6","","-8.1","","71","","24","","41","","24.1","","98.87","","","","-12","","Mainly Clear"
"2004-02-13 21:00","2004","02","13","21:00","-3.9","","-8.4","","71","","24","","32","","24.1","","98.88","","","","-12","","Clear"
"2004-02-13 22:00","2004","02","13","22:00","-4.2","","-8.7","","71","","26","","32","","24.1","","98.90","","","","-12","","Clear"
"2004-02-13 23:00","2004","02","13","23:00","-4.8","","-9.2","","71","","25","","28","","24.1","","98.92","","","","-12","","Mainly Clear"
"2004-02-14 00:00","2004","02","14","00:00","-4.9","","-9.4","","71","","25","","32","","24.1","","98.91","","","","-13","","Mainly Clear"
"2004-02-14 01:00","2004","02","14","01:00","-4.8","","-9.1","","72","","24","","28","","24.1","","98.92","","","","-12","","Cloudy"
"2004-02-14 02:00","2004","02","14","02:00","-4.8","","-9.1","","72","","24","","33","","19.3","","98.90","","","","-13","","Cloudy"
"2004-02-14 03:00","2004","02","14","03:00","-5.1","","-9.2","","73","","25","","30","","19.3","","98.88","","","","-13","","Mainly Clear"
"2004-02-14 04:00","2004","02","14","04:00","-5.1","","-9.3","","72","","24","","33","","19.3","","98.86","","","","-13","","Clear"
"2004-02-14 05:00","2004","02","14","05:00","-5.4","","-9.3","","74","","25","","26","","19.3","","98.93","","","","-13","","Mostly Cloudy"
"2004-02-14 06:00","2004","02","14","06:00","-5.0","","-8.6","","76","","25","","22","","19.3","","98.96","","","","-12","","Cloudy"
"2004-02-14 07:00","2004","02","14","07:00","-5.2","","-9.0","","75","","24","","28","","19.3","","98.96","","","","-13","","Mainly Clear"
"2004-02-14 08:00","2004","02","14","08:00","-5.4","","-8.9","","76","","25","","24","","19.3","","99.05","","","","-13","","Mainly Clear"
"2004-02-14 09:00","2004","02","14","09:00","-4.6","","-8.2","","76","","25","","30","","14.5","","99.07","","","","-12","","Mostly Cloudy"
"2004-02-14 10:00","2004","02","14","10:00","-4.0","","-7.6","","76","","25","","35","","14.5","","99.07","","","","-12","","Mostly Cloudy"
"2004-02-14 11:00","2004","02","14","11:00","-3.1","","-7.0","","74","","25","","35","","16.1","","99.06","","","","-11","","Mainly Clear"
"2004-02-14 12:00","2004","02","14","12:00","-1.8","","-5.9","","74","","26","","30","","14.5","","99.11","","","","-9","","Mainly Clear"
"2004-02-14 13:00","2004","02","14","13:00","-3.5","","-5.9","","83","","36","","37","","2.4","","99.09","","","","-12","","Snow Showers"
"2004-02-14 14:00","2004","02","14","14:00","-4.9","","-9.0","","73","","35","","32","","12.9","","99.13","","","","-13","","Snow Showers"
"2004-02-14 15:00","2004","02","14","15:00","-6.8","","-11.9","","67","","1","","32","","24.1","","99.26","","","","-16","","Snow Showers"
"2004-02-14 16:00","2004","02","14","16:00","-7.9","","-12.7","","68","","35","","32","","12.9","","99.31","","","","-17","","Snow Showers"
"2004-02-14 17:00","2004","02","14","17:00","-8.4","","-12.3","","73","","35","","30","","4.8","","99.38","","","","-17","","Snow Showers"
"2004-02-14 18:00","2004","02","14","18:00","-8.7","","-13.9","","66","","34","","35","","24.1","","99.48","","","","-18","","Mostly Cloudy"
"2004-02-14 19:00","2004","02","14","19:00","-10.0","","-14.8","","68","","34","","22","","24.1","","99.58","","","","-18","","Clear"
"2004-02-14 20:00","2004","02","14","20:00","-11.0","","-14.7","","74","","33","","24","","24.1","","99.65","","","","-20","","Clear"
"2004-02-14 21:00","2004","02","14","21:00","-11.5","","-15.6","","72","","35","","13","","24.1","","99.69","","","","-18","","Clear"
"2004-02-14 22:00","2004","02","14","22:00","-11.8","","-16.8","","66","","34","","15","","24.1","","99.76","","","","-19","","Clear"
"2004-02-14 23:00","2004","02","14","23:00","-12.1","","-17.4","","65","","32","","19","","24.1","","99.79","","","","-20","","Mainly Clear"
"2004-02-15 00:00","2004","02","15","00:00","-11.0","","-16.9","","62","","33","","24","","24.1","","99.85","","","","-20","","Mostly Cloudy"
"2004-02-15 01:00","2004","02","15","01:00","-11.1","","-16.7","","63","","33","","19","","24.1","","99.95","","","","-19","","Cloudy"
"2004-02-15 02:00","2004","02","15","02:00","-11.3","","-18.2","","57","","34","","33","","24.1","","100.02","","","","-22","","Mostly Cloudy"
"2004-02-15 03:00","2004","02","15","03:00","-11.8","","-18.5","","57","","34","","24","","24.1","","100.11","","","","-21","","Mostly Cloudy"
"2004-02-15 04:00","2004","02","15","04:00","-13.2","","-18.0","","67","","35","","26","","24.1","","100.17","","","","-23","","Mostly Cloudy"
"2004-02-15 05:00","2004","02","15","05:00","-14.8","","-19.2","","69","","34","","19","","24.1","","100.30","","","","-24","","Mainly Clear"
"2004-02-15 06:00","2004","02","15","06:00","-16.7","","-23.5","","56","","1","","24","","24.1","","100.44","","","","-27","","Clear"
"2004-02-15 07:00","2004","02","15","07:00","-18.1","","-25.2","","54","","1","","19","","24.1","","100.55","","","","-28","","Clear"
"2004-02-15 08:00","2004","02","15","08:00","-19.0","","-25.5","","56","","35","","17","","24.1","","100.65","","","","-28","","Clear"
"2004-02-15 09:00","2004","02","15","09:00","-18.4","","-27.3","","46","","1","","13","","24.1","","100.71","","","","-26","","Clear"
"2004-02-15 10:00","2004","02","15","10:00","-17.4","","-28.7","","37","","35","","9","","24.1","","100.76","","","","-24","","Clear"
"2004-02-15 11:00","2004","02","15","11:00","-16.0","","-28.2","","34","","32","","4","","24.1","","100.79","","","","-19","","Clear"
"2004-02-15 12:00","2004","02","15","12:00","-15.0","","-25.8","","39","","29","","9","","24.1","","100.79","","","","-21","","Clear"
"2004-02-15 13:00","2004","02","15","13:00","-13.8","","-24.9","","39","","34","","13","","24.1","","100.76","","","","-21","","Clear"
"2004-02-15 14:00","2004","02","15","14:00","-13.1","","-25.3","","35","","2","","19","","24.1","","100.70","","","","-22","","Clear"
"2004-02-15 15:00","2004","02","15","15:00","-12.2","","-26.2","","30","","35","","9","","24.1","","100.71","","","","-17","","Clear"
"2004-02-15 16:00","2004","02","15","16:00","-11.5","","-25.1","","31","","33","","9","","24.1","","100.72","","","","-17","","Clear"
"2004-02-15 17:00","2004","02","15","17:00","-11.4","","-24.2","","34","","27","","9","","24.1","","100.70","","","","-17","","Clear"
"2004-02-15 18:00","2004","02","15","18:00","-11.5","","-24.7","","33","","30","","4","","24.1","","100.74","","","","-14","","Clear"
"2004-02-15 19:00","2004","02","15","19:00","-13.9","","-24.2","","41","","25","","9","","24.1","","100.80","","","","-20","","Clear"
"2004-02-15 20:00","2004","02","15","20:00","-13.6","","-23.7","","42","","26","","9","","24.1","","100.86","","","","-19","","Clear"
"2004-02-15 21:00","2004","02","15","21:00","-14.5","","-23.1","","48","","24","","9","","24.1","","100.87","","","","-20","","Clear"
"2004-02-15 22:00","2004","02","15","22:00","-15.1","","-23.1","","50","","26","","13","","24.1","","100.96","","","","-22","","Clear"
"2004-02-15 23:00","2004","02","15","23:00","-15.1","","-22.7","","52","","26","","7","","24.1","","100.99","","","","-20","","Clear"
"2004-02-16 00:00","2004","02","16","00:00","-16.1","","-22.4","","58","","25","","7","","24.1","","101.06","","","","-21","","Mainly Clear"
"2004-02-16 01:00","2004","02","16","01:00","-14.9","","-20.8","","61","","25","","9","","24.1","","101.09","","","","-21","","Cloudy"
"2004-02-16 02:00","2004","02","16","02:00","-13.3","","-19.2","","61","","26","","17","","24.1","","101.05","","","","-21","","Mostly Cloudy"
"2004-02-16 03:00","2004","02","16","03:00","-12.5","","-18.5","","61","","28","","15","","24.1","","101.09","","","","-20","","Cloudy"
"2004-02-16 04:00","2004","02","16","04:00","-12.1","","-17.4","","65","","27","","15","","24.1","","101.10","","","","-19","","Cloudy"
"2004-02-16 05:00","2004","02","16","05:00","-11.9","","-17.0","","66","","27","","20","","24.1","","101.13","","","","-20","","Cloudy"
"2004-02-16 06:00","2004","02","16","06:00","-11.7","","-16.5","","68","","27","","22","","24.1","","101.14","","","","-20","","Cloudy"
"2004-02-16 07:00","2004","02","16","07:00","-10.6","","-15.8","","66","","31","","9","","24.1","","101.24","","","","-16","","Cloudy"
"2004-02-16 08:00","2004","02","16","08:00","-10.6","","-15.2","","69","","31","","11","","24.1","","101.30","","","","-16","","Cloudy"
"2004-02-16 09:00","2004","02","16","09:00","-9.4","","-13.8","","70","","31","","7","","24.1","","101.42","","","","-13","","Cloudy"
"2004-02-16 10:00","2004","02","16","10:00","-9.0","","-13.3","","71","","1","","6","","24.1","","101.46","","","","-12","","Cloudy"
"2004-02-16 11:00","2004","02","16","11:00","-8.0","","-12.8","","68","","32","","4","","24.1","","101.48","","","","-10","","Mostly Cloudy"
"2004-02-16 12:00","2004","02","16","12:00","-6.9","","-12.7","","63","","26","","4","","24.1","","101.53","","","","-9","","Mostly Cloudy"
"2004-02-16 13:00","2004","02","16","13:00","-6.9","","-13.2","","61","","32","","4","","24.1","","101.49","","","","-9","","Cloudy"
"2004-02-16 14:00","2004","02","16","14:00","-6.8","","-12.8","","62","","28","","4","","24.1","","101.41","","","","-9","","Mostly Cloudy"
"2004-02-16 15:00","2004","02","16","15:00","-6.2","","-12.8","","59","","26","","4","","24.1","","101.38","","","","-8","","Mostly Cloudy"
"2004-02-16 16:00","2004","02","16","16:00","-5.7","","-13.0","","56","","","","0","","24.1","","101.39","","","","","","Mainly Clear"
"2004-02-16 17:00","2004","02","16","17:00","-5.9","","-13.6","","54","","","","0","","24.1","","101.39","","","","","","Mainly Clear"
"2004-02-16 18:00","2004","02","16","18:00","-7.1","","-13.6","","60","","4","","4","","24.1","","101.39","","","","-9","","Clear"
"2004-02-16 19:00","2004","02","16","19:00","-6.6","","-12.7","","62","","11","","7","","24.1","","101.44","","","","-10","","Mostly Cloudy"
"2004-02-16 20:00","2004","02","16","20:00","-6.8","","-12.2","","65","","11","","7","","24.1","","101.41","","","","-10","","Mainly Clear"
"2004-02-16 21:00","2004","02","16","21:00","-6.7","","-12.2","","65","","10","","7","","24.1","","101.37","","","","-10","","Mostly Cloudy"
"2004-02-16 22:00","2004","02","16","22:00","-6.7","","-12.2","","65","","13","","9","","24.1","","101.35","","","","-11","","Mostly Cloudy"
"2004-02-16 23:00","2004","02","16","23:00","-6.6","","-11.7","","67","","13","","7","","24.1","","101.28","","","","-10","","Mostly Cloudy"
"2004-02-17 00:00","2004","02","17","00:00","-6.3","","-10.3","","73","","15","","9","","24.1","","101.25","","","","-11","","Mostly Cloudy"
"2004-02-17 01:00","2004","02","17","01:00","-6.4","","-11.2","","69","","13","","11","","24.1","","101.20","","","","-11","","Mainly Clear"
"2004-02-17 02:00","2004","02","17","02:00","-6.5","","-11.5","","68","","12","","9","","24.1","","101.14","","","","-11","","Mainly Clear"
"2004-02-17 03:00","2004","02","17","03:00","-6.6","","-11.1","","70","","8","","6","","24.1","","101.15","","","","-10","","Mostly Cloudy"
"2004-02-17 04:00","2004","02","17","04:00","-6.1","","-10.8","","69","","8","","7","","24.1","","101.10","","","","-9","","Mostly Cloudy"
"2004-02-17 05:00","2004","02","17","05:00","-7.9","","-11.7","","74","","4","","6","","24.1","","101.07","","","","-11","","Mostly Cloudy"
"2004-02-17 06:00","2004","02","17","06:00","-8.5","","-11.8","","77","","4","","6","","24.1","","101.01","","","","-12","","Mostly Cloudy"
"2004-02-17 07:00","2004","02","17","07:00","-8.6","","-11.7","","78","","32","","4","","24.1","","101.01","","","","-11","","Mostly Cloudy"
"2004-02-17 08:00","2004","02","17","08:00","-8.0","","-11.4","","76","","32","","4","","9.7","","101.02","","","","-10","","Haze"
"2004-02-17 09:00","2004","02","17","09:00","-7.3","","-10.7","","77","","29","","4","","8.0","","100.99","","","","-9","","Haze"
"2004-02-17 10:00","2004","02","17","10:00","-5.0","","-9.3","","72","","","","0","","8.0","","100.95","","","","","","Haze"
"2004-02-17 11:00","2004","02","17","11:00","-3.2","","-9.4","","62","","20","","7","","12.9","","100.90","","","","-6","","Cloudy"
"2004-02-17 12:00","2004","02","17","12:00","-2.8","","-10.7","","54","","23","","6","","19.3","","100.87","","","","-5","","Cloudy"
"2004-02-17 13:00","2004","02","17","13:00","-2.6","","-14.1","","41","","24","","13","","19.3","","100.75","","","","-7","","Cloudy"
"2004-02-17 14:00","2004","02","17","14:00","-2.0","","-14.0","","39","","21","","9","","24.1","","100.69","","","","-5","","Cloudy"
"2004-02-17 15:00","2004","02","17","15:00","-1.7","","-13.0","","42","","25","","6","","24.1","","100.68","","","","-4","","Cloudy"
"2004-02-17 16:00","2004","02","17","16:00","-1.3","","-13.6","","39","","23","","6","","24.1","","100.68","","","","-4","","Cloudy"
"2004-02-17 17:00","2004","02","17","17:00","-1.7","","-12.4","","44","","24","","7","","24.1","","100.68","","","","-4","","Mostly Cloudy"
"2004-02-17 18:00","2004","02","17","18:00","-1.7","","-13.2","","41","","22","","9","","24.1","","100.72","","","","-5","","Mostly Cloudy"
"2004-02-17 19:00","2004","02","17","19:00","-3.1","","-13.2","","46","","24","","11","","24.1","","100.78","","","","-7","","Cloudy"
"2004-02-17 20:00","2004","02","17","20:00","-3.9","","-12.1","","53","","28","","13","","24.1","","100.79","","","","-9","","Mostly Cloudy"
"2004-02-17 21:00","2004","02","17","21:00","-5.3","","-13.3","","53","","28","","15","","24.1","","100.78","","","","-11","","Mainly Clear"
"2004-02-17 22:00","2004","02","17","22:00","-5.6","","-13.3","","55","","29","","9","","24.1","","100.76","","","","-10","","Mostly Cloudy"
"2004-02-17 23:00","2004","02","17","23:00","-6.5","","-13.6","","57","","28","","11","","24.1","","100.74","","","","-11","","Mainly Clear"
"2004-02-18 00:00","2004","02","18","00:00","-6.3","","-12.5","","61","","31","","15","","24.1","","100.77","","","","-12","","Cloudy"
"2004-02-18 01:00","2004","02","18","01:00","-5.1","","-11.1","","63","","29","","11","","24.1","","100.75","","","","-10","","Cloudy"
"2004-02-18 02:00","2004","02","18","02:00","-6.6","","-10.9","","71","","31","","13","","24.1","","100.77","","","","-12","","Mostly Cloudy"
"2004-02-18 03:00","2004","02","18","03:00","-6.8","","-10.8","","73","","29","","6","","24.1","","100.72","","","","-10","","Mostly Cloudy"
"2004-02-18 04:00","2004","02","18","04:00","-5.9","","-9.4","","76","","32","","7","","19.3","","100.64","","","","-9","","Mostly Cloudy"
"2004-02-18 05:00","2004","02","18","05:00","-4.7","","-8.4","","75","","29","","9","","19.3","","100.66","","","","-9","","Cloudy"
"2004-02-18 06:00","2004","02","18","06:00","-4.2","","-8.1","","74","","27","","6","","19.3","","100.64","","","","-7","","Cloudy"
"2004-02-18 07:00","2004","02","18","07:00","-3.9","","-8.0","","73","","29","","7","","19.3","","100.61","","","","-7","","Cloudy"
"2004-02-18 08:00","2004","02","18","08:00","-3.5","","-8.3","","69","","28","","7","","24.1","","100.63","","","","-6","","Cloudy"
"2004-02-18 09:00","2004","02","18","09:00","-3.4","","-7.9","","71","","28","","6","","24.1","","100.63","","","","-6","","Cloudy"
"2004-02-18 10:00","2004","02","18","10:00","-2.7","","-7.9","","67","","26","","7","","24.1","","100.54","","","","-6","","Cloudy"
"2004-02-18 11:00","2004","02","18","11:00","-2.3","","-7.8","","66","","27","","9","","24.1","","100.54","","","","-6","","Cloudy"
"2004-02-18 12:00","2004","02","18","12:00","-2.1","","-7.4","","67","","24","","7","","24.1","","100.49","","","","-5","","Cloudy"
"2004-02-18 13:00","2004","02","18","13:00","-1.7","","-7.2","","66","","22","","15","","19.3","","100.38","","","","-7","","Mostly Cloudy"
"2004-02-18 14:00","2004","02","18","14:00","-1.0","","-7.0","","64","","19","","11","","19.3","","100.23","","","","-5","","Mostly Cloudy"
"2004-02-18 15:00","2004","02","18","15:00","-0.9","","-7.2","","62","","20","","20","","19.3","","100.02","","","","-6","","Mostly Cloudy"
"2004-02-18 16:00","2004","02","18","16:00","-0.8","","-6.9","","63","","22","","9","","19.3","","100.01","","","","-4","","Mostly Cloudy"
"2004-02-18 17:00","2004","02","18","17:00","-0.9","","-6.6","","65","","20","","11","","19.3","","99.92","","","","-5","","Cloudy"
"2004-02-18 18:00","2004","02","18","18:00","-1.4","","-6.7","","67","","20","","15","","19.3","","99.77","","","","-6","","Cloudy"
"2004-02-18 19:00","2004","02","18","19:00","-1.8","","-6.8","","69","","17","","13","","24.1","","99.61","","","","-6","","Mostly Cloudy"
"2004-02-18 20:00","2004","02","18","20:00","-1.7","","-6.5","","70","","21","","17","","24.1","","99.45","","","","-7","","Cloudy"
"2004-02-18 21:00","2004","02","18","21:00","-1.2","","-5.9","","70","","22","","32","","24.1","","99.29","","","","-8","","Mostly Cloudy"
"2004-02-18 22:00","2004","02","18","22:00","-1.4","","-5.8","","72","","23","","15","","24.1","","99.24","","","","-6","","Mainly Clear"
"2004-02-18 23:00","2004","02","18","23:00","-2.1","","-6.1","","74","","24","","13","","24.1","","99.15","","","","-7","","Clear"
"2004-02-19 00:00","2004","02","19","00:00","-2.8","","-5.9","","79","","","","0","","24.1","","99.08","","","","","","Clear"
"2004-02-19 01:00","2004","02","19","01:00","-2.0","","-5.5","","77","","","","0","","19.3","","99.09","","","","","","Mainly Clear"
"2004-02-19 02:00","2004","02","19","02:00","-1.0","","-4.5","","77","","26","","20","","19.3","","99.04","","","","-7","","Cloudy"
"2004-02-19 03:00","2004","02","19","03:00","-2.0","","-5.5","","77","","24","","13","","19.3","","99.02","","","","-6","","Mainly Clear"
"2004-02-19 04:00","2004","02","19","04:00","-3.0","","-5.9","","80","","25","","11","","19.3","","98.99","","","","-7","","Clear"
"2004-02-19 05:00","2004","02","19","05:00","-2.4","","-5.7","","78","","20","","4","","19.3","","99.02","","","","-4","","Clear"
"2004-02-19 06:00","2004","02","19","06:00","-3.1","","-5.8","","82","","27","","7","","19.3","","99.09","","","","-6","","Mostly Cloudy"
"2004-02-19 07:00","2004","02","19","07:00","-2.1","","-5.1","","80","","28","","7","","9.7","","99.11","","","","-5","","Haze"
"2004-02-19 08:00","2004","02","19","08:00","-3.8","","-6.0","","85","","26","","7","","4.8","","99.22","","","","-7","","Haze"
"2004-02-19 09:00","2004","02","19","09:00","-2.5","","-5.1","","82","","27","","7","","6.4","","99.29","","","","-5","","Haze"
"2004-02-19 10:00","2004","02","19","10:00","0.2","","-3.3","","77","","27","","7","","6.4","","99.31","","","","","","Haze"
"2004-02-19 11:00","2004","02","19","11:00","1.8","","-2.9","","71","","31","","13","","8.0","","99.30","","","","","","Haze"
"2004-02-19 12:00","2004","02","19","12:00","2.4","","-3.0","","67","","2","","7","","9.7","","99.32","","","","","","Haze"
"2004-02-19 13:00","2004","02","19","13:00","2.7","","-3.2","","65","","2","","4","","9.7","","99.27","","","","","","Haze"
"2004-02-19 14:00","2004","02","19","14:00","3.1","","-3.5","","62","","","","0","","11.3","","99.29","","","","","","Mostly Cloudy"
"2004-02-19 15:00","2004","02","19","15:00","2.8","","-2.8","","67","","13","","9","","9.7","","99.29","","","","","","Haze"
"2004-02-19 16:00","2004","02","19","16:00","2.5","","-2.7","","69","","13","","7","","11.3","","99.31","","","","","","Mostly Cloudy"
"2004-02-19 17:00","2004","02","19","17:00","2.3","","-2.8","","69","","11","","9","","8.0","","99.34","","","","","","Haze"
"2004-02-19 18:00","2004","02","19","18:00","1.9","","-2.2","","74","","13","","7","","6.4","","99.39","","","","","","Haze"
"2004-02-19 19:00","2004","02","19","19:00","1.4","","-2.2","","77","","12","","6","","16.1","","99.40","","","","","","Mainly Clear"
"2004-02-19 20:00","2004","02","19","20:00","1.3","","-2.1","","78","","12","","9","","16.1","","99.37","","","","","","Cloudy"
"2004-02-19 21:00","2004","02","19","21:00","0.6","","-2.3","","81","","12","","7","","16.1","","99.38","","","","","","Mostly Cloudy"
"2004-02-19 22:00","2004","02","19","22:00","0.7","","-1.7","","84","","11","","6","","14.5","","99.36","","","","","","Mostly Cloudy"
"2004-02-19 23:00","2004","02","19","23:00","0.9","","-1.6","","83","","11","","6","","12.9","","99.36","","","","","","Cloudy"
"2004-02-20 00:00","2004","02","20","00:00","0.9","","-1.4","","85","","15","","6","","9.7","","99.35","","","","","","Haze"
"2004-02-20 01:00","2004","02","20","01:00","0.8","","-0.9","","88","","14","","6","","8.0","","99.33","","","","","","Haze"
"2004-02-20 02:00","2004","02","20","02:00","0.5","","-0.8","","91","","","","0","","4.0","","99.30","","","","","","Fog"
"2004-02-20 03:00","2004","02","20","03:00","0.5","","-0.9","","90","","7","","4","","4.8","","99.25","","","","","","Fog"
"2004-02-20 04:00","2004","02","20","04:00","0.8","","-1.6","","84","","","","0","","11.3","","99.23","","","","","","Cloudy"
"2004-02-20 05:00","2004","02","20","05:00","0.9","","-1.6","","83","","8","","11","","12.9","","99.18","","","","","","Cloudy"
"2004-02-20 06:00","2004","02","20","06:00","0.3","","-1.6","","87","","11","","26","","2.0","","99.10","","","","","","Snow"
"2004-02-20 07:00","2004","02","20","07:00","0.0","","-1.4","","90","","11","","22","","3.6","","99.00","","","","-6","","Snow"
"2004-02-20 08:00","2004","02","20","08:00","0.1","","-1.7","","88","","11","","24","","6.4","","98.97","","","","","","Fog"
"2004-02-20 09:00","2004","02","20","09:00","0.5","","-1.2","","88","","10","","24","","4.8","","98.87","","","","","","Snow"
"2004-02-20 10:00","2004","02","20","10:00","0.7","","-0.7","","90","","9","","26","","3.6","","98.68","","","","","","Fog"
"2004-02-20 11:00","2004","02","20","11:00","1.0","","-0.3","","91","","9","","30","","3.2","","98.52","","","","","","Fog"
"2004-02-20 12:00","2004","02","20","12:00","1.2","","-0.1","","91","","9","","28","","4.0","","98.40","","","","","","Fog"
"2004-02-20 13:00","2004","02","20","13:00","1.1","","-0.2","","91","","10","","32","","4.0","","98.18","","","","","","Fog"
"2004-02-20 14:00","2004","02","20","14:00","1.6","","-0.3","","87","","9","","24","","4.0","","98.12","","","","","","Fog"
"2004-02-20 15:00","2004","02","20","15:00","1.3","","-0.7","","87","","9","","33","","4.8","","98.00","","","","","","Fog"
"2004-02-20 16:00","2004","02","20","16:00","1.3","","-0.9","","85","","9","","33","","6.4","","97.92","","","","","","Haze"
"2004-02-20 17:00","2004","02","20","17:00","1.3","","-0.8","","86","","9","","28","","6.4","","97.80","","","","","","Haze"
"2004-02-20 18:00","2004","02","20","18:00","1.1","","-0.8","","87","","9","","13","","4.8","","97.79","","","","","","Rain,Ice Pellets"
"2004-02-20 19:00","2004","02","20","19:00","1.0","","-0.5","","90","","9","","15","","4.8","","97.72","","","","","","Rain,Ice Pellets"
"2004-02-20 20:00","2004","02","20","20:00","1.1","","-0.1","","92","","9","","19","","4.8","","97.57","","","","","","Rain"
"2004-02-20 21:00","2004","02","20","21:00","1.2","","0.1","","92","","10","","20","","4.8","","97.40","","","","","","Drizzle,Fog"
"2004-02-20 22:00","2004","02","20","22:00","1.5","","0.6","","94","","11","","15","","4.0","","97.31","","","","","","Drizzle,Fog"
"2004-02-20 23:00","2004","02","20","23:00","1.8","","0.9","","94","","9","","7","","3.6","","97.17","","","","","","Drizzle,Fog"
"2004-02-21 00:00","2004","02","21","00:00","1.7","","1.0","","95","","10","","17","","2.8","","97.08","","","","","","Drizzle,Fog"
"2004-02-21 01:00","2004","02","21","01:00","1.9","","1.3","","96","","","","0","","1.6","","97.04","","","","","","Drizzle,Fog"
"2004-02-21 02:00","2004","02","21","02:00","2.5","","2.1","","97","","20","","15","","2.0","","97.02","","","","","","Fog"
"2004-02-21 03:00","2004","02","21","03:00","2.3","","1.4","","94","","22","","19","","8.0","","97.06","","","","","","Rain"
"2004-02-21 04:00","2004","02","21","04:00","1.9","","0.7","","92","","23","","22","","9.7","","97.10","","","","","","Rain"
"2004-02-21 05:00","2004","02","21","05:00","1.7","","0.1","","89","","23","","28","","11.3","","97.14","","","","","","Rain"
"2004-02-21 06:00","2004","02","21","06:00","1.9","","-0.6","","83","","23","","24","","16.1","","97.18","","","","","","Rain"
"2004-02-21 07:00","2004","02","21","07:00","1.8","","-1.0","","82","","22","","24","","16.1","","97.20","","","","","","Cloudy"
"2004-02-21 08:00","2004","02","21","08:00","1.8","","-1.3","","80","","23","","32","","24.1","","97.23","","","","","","Cloudy"
"2004-02-21 09:00","2004","02","21","09:00","1.8","","-1.7","","78","","23","","30","","24.1","","97.24","","","","","","Cloudy"
"2004-02-21 10:00","2004","02","21","10:00","0.5","","-1.6","","86","","26","","37","","4.8","","97.26","","","","","","Snow"
"2004-02-21 11:00","2004","02","21","11:00","0.5","","-2.3","","81","","26","","33","","8.0","","97.35","","","","","","Snow"
"2004-02-21 12:00","2004","02","21","12:00","0.9","","-2.8","","76","","27","","41","","24.1","","97.45","","","","","","Snow"
"2004-02-21 13:00","2004","02","21","13:00","0.6","","-3.3","","75","","27","","41","","12.9","","97.57","","","","","","Snow"
"2004-02-21 14:00","2004","02","21","14:00","0.2","","-3.3","","77","","28","","41","","12.9","","97.71","","","","","","Snow"
"2004-02-21 15:00","2004","02","21","15:00","-0.9","","-2.7","","88","","29","","48","","2.4","","97.84","","","","-9","","Snow"
"2004-02-21 16:00","2004","02","21","16:00","-1.2","","-2.8","","89","","29","","30","","6.4","","98.02","","","","-8","","Snow"
"2004-02-21 17:00","2004","02","21","17:00","-1.3","","-3.2","","87","","29","","35","","6.4","","98.18","","","","-9","","Snow"
"2004-02-21 18:00","2004","02","21","18:00","-1.5","","-3.2","","88","","29","","30","","2.4","","98.37","","","","-8","","Snow"
"2004-02-21 19:00","2004","02","21","19:00","-0.9","","-4.9","","74","","30","","41","","19.3","","98.52","","","","-9","","Cloudy"
"2004-02-21 20:00","2004","02","21","20:00","-0.2","","-5.3","","68","","30","","43","","19.3","","98.65","","","","-8","","Cloudy"
"2004-02-21 21:00","2004","02","21","21:00","-0.5","","-5.2","","70","","30","","37","","24.1","","98.79","","","","-8","","Cloudy"
"2004-02-21 22:00","2004","02","21","22:00","-0.4","","-5.1","","71","","30","","39","","24.1","","98.90","","","","-8","","Cloudy"
"2004-02-21 23:00","2004","02","21","23:00","-0.5","","-5.1","","71","","31","","41","","24.1","","98.98","","","","-8","","Cloudy"
"2004-02-22 00:00","2004","02","22","00:00","-0.6","","-5.5","","69","","30","","35","","24.1","","99.08","","","","-8","","Cloudy"
"2004-02-22 01:00","2004","02","22","01:00","-0.8","","-5.2","","72","","31","","32","","24.1","","99.22","","","","-8","","Cloudy"
"2004-02-22 02:00","2004","02","22","02:00","-1.1","","-5.0","","75","","31","","17","","24.1","","99.33","","","","-6","","Cloudy"
"2004-02-22 03:00","2004","02","22","03:00","-1.7","","-6.4","","70","","31","","35","","24.1","","99.40","","","","-9","","Mainly Clear"
"2004-02-22 04:00","2004","02","22","04:00","-2.4","","-8.0","","65","","29","","30","","24.1","","99.51","","","","-10","","Mainly Clear"
"2004-02-22 05:00","2004","02","22","05:00","-3.0","","-7.6","","71","","30","","13","","24.1","","99.68","","","","-8","","Mostly Cloudy"
"2004-02-22 06:00","2004","02","22","06:00","-2.8","","-7.3","","71","","30","","17","","24.1","","99.75","","","","-8","","Mostly Cloudy"
"2004-02-22 07:00","2004","02","22","07:00","-2.5","","-7.2","","70","","30","","19","","24.1","","99.81","","","","-8","","Mostly Cloudy"
"2004-02-22 08:00","2004","02","22","08:00","-2.7","","-7.0","","72","","30","","24","","24.1","","99.94","","","","-9","","Mostly Cloudy"
"2004-02-22 09:00","2004","02","22","09:00","-2.1","","-6.9","","70","","31","","24","","24.1","","100.02","","","","-8","","Mainly Clear"
"2004-02-22 10:00","2004","02","22","10:00","-2.0","","-6.9","","69","","32","","26","","24.1","","100.10","","","","-9","","Mainly Clear"
"2004-02-22 11:00","2004","02","22","11:00","-1.6","","-7.0","","67","","31","","20","","24.1","","100.14","","","","-7","","Clear"
"2004-02-22 12:00","2004","02","22","12:00","-0.9","","-7.3","","62","","30","","20","","24.1","","100.18","","","","-6","","Clear"
"2004-02-22 13:00","2004","02","22","13:00","-0.2","","-7.2","","59","","32","","17","","24.1","","100.17","","","","-5","","Clear"
"2004-02-22 14:00","2004","02","22","14:00","0.4","","-6.9","","58","","29","","17","","24.1","","100.16","","","","","","Clear"
"2004-02-22 15:00","2004","02","22","15:00","1.1","","-7.0","","55","","28","","19","","24.1","","100.22","","","","","","Clear"
"2004-02-22 16:00","2004","02","22","16:00","1.2","","-7.0","","54","","31","","19","","24.1","","100.23","","","","","","Clear"
"2004-02-22 17:00","2004","02","22","17:00","0.8","","-6.9","","56","","30","","15","","24.1","","100.26","","","","","","Clear"
"2004-02-22 18:00","2004","02","22","18:00","-0.3","","-6.8","","61","","28","","13","","24.1","","100.29","","","","-4","","Clear"
"2004-02-22 19:00","2004","02","22","19:00","-1.1","","-6.9","","65","","29","","9","","24.1","","100.34","","","","-4","","Clear"
"2004-02-22 20:00","2004","02","22","20:00","-2.1","","-7.4","","67","","31","","9","","24.1","","100.38","","","","-6","","Clear"
"2004-02-22 21:00","2004","02","22","21:00","-3.0","","-8.0","","68","","33","","7","","24.1","","100.38","","","","-6","","Clear"
"2004-02-22 22:00","2004","02","22","22:00","-4.0","","-8.2","","73","","35","","9","","24.1","","100.42","","","","-8","","Clear"
"2004-02-22 23:00","2004","02","22","23:00","-4.4","","-8.5","","73","","34","","9","","24.1","","100.43","","","","-8","","Clear"
"2004-02-23 00:00","2004","02","23","00:00","-4.8","","-8.4","","76","","34","","13","","24.1","","100.45","","","","-10","","Clear"
"2004-02-23 01:00","2004","02","23","01:00","-5.2","","-8.6","","77","","35","","17","","24.1","","100.48","","","","-11","","Clear"
"2004-02-23 02:00","2004","02","23","02:00","-5.4","","-8.5","","79","","35","","15","","24.1","","100.49","","","","-11","","Mostly Cloudy"
"2004-02-23 03:00","2004","02","23","03:00","-5.3","","-8.1","","81","","35","","13","","24.1","","100.49","","","","-10","","Mostly Cloudy"
"2004-02-23 04:00","2004","02","23","04:00","-5.7","","-8.3","","82","","36","","13","","24.1","","100.49","","","","-11","","Mostly Cloudy"
"2004-02-23 05:00","2004","02","23","05:00","-5.7","","-8.3","","82","","34","","11","","24.1","","100.54","","","","-10","","Mostly Cloudy"
"2004-02-23 06:00","2004","02","23","06:00","-6.7","","-9.0","","84","","1","","11","","24.1","","100.54","","","","-12","","Clear"
"2004-02-23 07:00","2004","02","23","07:00","-6.8","","-9.1","","84","","1","","13","","24.1","","100.54","","","","-12","","Mainly Clear"
"2004-02-23 08:00","2004","02","23","08:00","-6.1","","-8.7","","82","","1","","13","","24.1","","100.57","","","","-11","","Mostly Cloudy"
"2004-02-23 09:00","2004","02","23","09:00","-4.5","","-8.3","","75","","4","","9","","24.1","","100.58","","","","-8","","Mostly Cloudy"
"2004-02-23 10:00","2004","02","23","10:00","-2.6","","-7.6","","68","","6","","9","","24.1","","100.54","","","","-6","","Mainly Clear"
"2004-02-23 11:00","2004","02","23","11:00","-1.5","","-6.5","","69","","10","","7","","24.1","","100.53","","","","-4","","Mostly Cloudy"
"2004-02-23 12:00","2004","02","23","12:00","-1.5","","-6.4","","69","","9","","11","","24.1","","100.47","","","","-5","","Mostly Cloudy"
"2004-02-23 13:00","2004","02","23","13:00","-1.4","","-5.7","","72","","13","","13","","24.1","","100.38","","","","-6","","Mostly Cloudy"
"2004-02-23 14:00","2004","02","23","14:00","-1.6","","-6.2","","71","","10","","7","","24.1","","100.30","","","","-4","","Mostly Cloudy"
"2004-02-23 15:00","2004","02","23","15:00","-1.2","","-6.3","","68","","8","","7","","24.1","","100.27","","","","-4","","Mostly Cloudy"
"2004-02-23 16:00","2004","02","23","16:00","-1.5","","-6.3","","70","","13","","9","","24.1","","100.27","","","","-5","","Mostly Cloudy"
"2004-02-23 17:00","2004","02","23","17:00","-1.6","","-6.0","","72","","13","","7","","24.1","","100.23","","","","-4","","Cloudy"
"2004-02-23 18:00","2004","02","23","18:00","-1.5","","-5.8","","72","","8","","6","","24.1","","100.24","","","","-4","","Cloudy"
"2004-02-23 19:00","2004","02","23","19:00","-1.7","","-6.2","","71","","9","","9","","24.1","","100.19","","","","-5","","Mainly Clear"
"2004-02-23 20:00","2004","02","23","20:00","-1.8","","-6.4","","71","","7","","11","","24.1","","100.17","","","","-6","","Cloudy"
"2004-02-23 21:00","2004","02","23","21:00","-1.7","","-6.6","","69","","6","","9","","24.1","","100.15","","","","-5","","Cloudy"
"2004-02-23 22:00","2004","02","23","22:00","-1.9","","-6.7","","70","","5","","7","","24.1","","100.12","","","","-5","","Cloudy"
"2004-02-23 23:00","2004","02","23","23:00","-1.8","","-6.8","","69","","9","","7","","24.1","","100.13","","","","-4","","Cloudy"
"2004-02-24 00:00","2004","02","24","00:00","-1.8","","-7.3","","66","","7","","6","","24.1","","100.11","","","","-4","","Cloudy"
"2004-02-24 01:00","2004","02","24","01:00","-2.4","","-6.0","","76","","4","","7","","4.0","","100.12","","","","-5","","Snow"
"2004-02-24 02:00","2004","02","24","02:00","-3.4","","-4.9","","89","","4","","9","","4.0","","100.08","","","","-7","","Snow"
"2004-02-24 03:00","2004","02","24","03:00","-3.6","","-5.0","","90","","4","","13","","2.0","","100.06","","","","-8","","Snow"
"2004-02-24 04:00","2004","02","24","04:00","-3.9","","-5.2","","91","","4","","13","","2.4","","100.03","","","","-9","","Snow"
"2004-02-24 05:00","2004","02","24","05:00","-4.2","","-5.5","","91","","4","","17","","4.0","","100.05","","","","-10","","Snow"
"2004-02-24 06:00","2004","02","24","06:00","-4.3","","-5.8","","89","","4","","15","","4.8","","100.08","","","","-10","","Snow"
"2004-02-24 07:00","2004","02","24","07:00","-4.3","","-6.0","","88","","6","","11","","4.0","","100.10","","","","-9","","Snow"
"2004-02-24 08:00","2004","02","24","08:00","-5.1","","-7.1","","86","","5","","19","","8.0","","100.17","","","","-12","","Snow"
"2004-02-24 09:00","2004","02","24","09:00","-5.1","","-7.2","","85","","2","","17","","4.0","","100.21","","","","-11","","Snow"
"2004-02-24 10:00","2004","02","24","10:00","-4.5","","-7.0","","83","","4","","11","","6.4","","100.23","","","","-9","","Snow"
"2004-02-24 11:00","2004","02","24","11:00","-3.8","","-6.9","","79","","36","","7","","24.1","","100.24","","","","-7","","Mainly Clear"
"2004-02-24 12:00","2004","02","24","12:00","-2.8","","-8.2","","66","","36","","13","","24.1","","100.24","","","","-7","","Clear"
"2004-02-24 13:00","2004","02","24","13:00","-2.1","","-8.8","","60","","34","","19","","24.1","","100.19","","","","-8","","Clear"
"2004-02-24 14:00","2004","02","24","14:00","-1.5","","-9.6","","54","","35","","19","","24.1","","100.12","","","","-7","","Clear"
"2004-02-24 15:00","2004","02","24","15:00","-0.8","","-9.3","","53","","36","","20","","24.1","","100.10","","","","-6","","Clear"
"2004-02-24 16:00","2004","02","24","16:00","-0.5","","-9.0","","53","","34","","22","","24.1","","100.09","","","","-6","","Clear"
"2004-02-24 17:00","2004","02","24","17:00","-0.9","","-8.7","","55","","33","","22","","24.1","","100.10","","","","-7","","Clear"
"2004-02-24 18:00","2004","02","24","18:00","-1.9","","-13.3","","41","","35","","17","","24.1","","100.14","","","","-7","","Clear"
"2004-02-24 19:00","2004","02","24","19:00","-3.2","","-12.8","","47","","34","","19","","24.1","","100.19","","","","-9","","Clear"
"2004-02-24 20:00","2004","02","24","20:00","-4.5","","-13.9","","48","","33","","17","","24.1","","100.21","","","","-10","","Clear"
"2004-02-24 21:00","2004","02","24","21:00","-4.7","","-13.8","","49","","35","","19","","24.1","","100.23","","","","-11","","Clear"
"2004-02-24 22:00","2004","02","24","22:00","-5.4","","-14.1","","50","","35","","19","","24.1","","100.28","","","","-12","","Clear"
"2004-02-24 23:00","2004","02","24","23:00","-5.7","","-13.0","","56","","35","","17","","24.1","","100.32","","","","-12","","Clear"
"2004-02-25 00:00","2004","02","25","00:00","-5.2","","-13.0","","54","","35","","20","","24.1","","100.34","","","","-12","","Clear"
"2004-02-25 01:00","2004","02","25","01:00","-5.9","","-13.5","","55","","34","","24","","24.1","","100.32","","","","-13","","Clear"
"2004-02-25 02:00","2004","02","25","02:00","-5.5","","-13.6","","53","","34","","20","","24.1","","100.33","","","","-12","","Clear"
"2004-02-25 03:00","2004","02","25","03:00","-5.7","","-12.8","","57","","33","","20","","24.1","","100.34","","","","-12","","Clear"
"2004-02-25 04:00","2004","02","25","04:00","-6.2","","-13.0","","59","","34","","15","","24.1","","100.38","","","","-12","","Clear"
"2004-02-25 05:00","2004","02","25","05:00","-6.3","","-12.3","","62","","34","","17","","24.1","","100.43","","","","-13","","Clear"
"2004-02-25 06:00","2004","02","25","06:00","-8.6","","-12.8","","72","","32","","13","","24.1","","100.48","","","","-15","","Mainly Clear"
"2004-02-25 07:00","2004","02","25","07:00","-8.6","","-12.2","","75","","32","","9","","19.3","","100.51","","","","-13","","Mainly Clear"
"2004-02-25 08:00","2004","02","25","08:00","-5.8","","-10.1","","72","","36","","15","","19.3","","100.55","","","","-12","","Mainly Clear"
"2004-02-25 09:00","2004","02","25","09:00","-3.9","","-8.9","","68","","33","","6","","19.3","","100.59","","","","-7","","Mostly Cloudy"
"2004-02-25 10:00","2004","02","25","10:00","-2.3","","-7.8","","66","","35","","15","","19.3","","100.62","","","","-7","","Mostly Cloudy"
"2004-02-25 11:00","2004","02","25","11:00","-1.3","","-7.4","","63","","33","","9","","19.3","","100.66","","","","-5","","Mostly Cloudy"
"2004-02-25 12:00","2004","02","25","12:00","0.2","","-7.0","","58","","32","","13","","24.1","","100.68","","","","","","Mostly Cloudy"
"2004-02-25 13:00","2004","02","25","13:00","1.2","","-6.4","","57","","32","","19","","24.1","","100.65","","","","","","Mainly Clear"
"2004-02-25 14:00","2004","02","25","14:00","1.5","","-5.2","","61","","35","","19","","24.1","","100.63","","","","","","Mainly Clear"
"2004-02-25 15:00","2004","02","25","15:00","1.9","","-4.4","","63","","36","","13","","24.1","","100.63","","","","","","Mostly Cloudy"
"2004-02-25 16:00","2004","02","25","16:00","2.5","","-4.7","","59","","1","","13","","24.1","","100.64","","","","","","Mainly Clear"
"2004-02-25 17:00","2004","02","25","17:00","2.1","","-4.5","","62","","36","","17","","19.3","","100.65","","","","","","Mainly Clear"
"2004-02-25 18:00","2004","02","25","18:00","1.3","","-4.4","","66","","36","","19","","19.3","","100.65","","","","","","Clear"
"2004-02-25 19:00","2004","02","25","19:00","0.0","","-4.8","","70","","36","","15","","24.1","","100.70","","","","-4","","Clear"
"2004-02-25 20:00","2004","02","25","20:00","-0.5","","-4.9","","72","","36","","20","","24.1","","100.70","","","","-6","","Clear"
"2004-02-25 21:00","2004","02","25","21:00","-0.5","","-4.3","","75","","34","","15","","24.1","","100.73","","","","-5","","Clear"
"2004-02-25 22:00","2004","02","25","22:00","-1.3","","-4.7","","78","","34","","17","","24.1","","100.73","","","","-6","","Mostly Cloudy"
"2004-02-25 23:00","2004","02","25","23:00","-2.2","","-5.3","","79","","33","","17","","24.1","","100.76","","","","-8","","Clear"
"2004-02-26 00:00","2004","02","26","00:00","-2.1","","-5.3","","79","","34","","17","","24.1","","100.79","","","","-7","","Clear"
"2004-02-26 01:00","2004","02","26","01:00","-3.3","","-5.8","","83","","36","","15","","24.1","","100.82","","","","-8","","Clear"
"2004-02-26 02:00","2004","02","26","02:00","-4.3","","-6.3","","86","","1","","9","","24.1","","100.87","","","","-8","","Clear"
"2004-02-26 03:00","2004","02","26","03:00","-3.9","","-6.0","","85","","35","","15","","24.1","","100.88","","","","-9","","Clear"
"2004-02-26 04:00","2004","02","26","04:00","-4.8","","-6.5","","88","","36","","15","","24.1","","100.89","","","","-10","","Clear"
"2004-02-26 05:00","2004","02","26","05:00","-5.2","","-6.8","","88","","36","","11","","24.1","","100.93","","","","-10","","Clear"
"2004-02-26 06:00","2004","02","26","06:00","-5.9","","-7.4","","89","","36","","15","","19.3","","100.96","","","","-12","","Clear"
"2004-02-26 07:00","2004","02","26","07:00","-6.3","","-8.1","","87","","36","","17","","19.3","","100.99","","","","-13","","Clear"
"2004-02-26 08:00","2004","02","26","08:00","-6.1","","-7.9","","87","","36","","7","","16.1","","101.03","","","","-9","","Clear"
"2004-02-26 09:00","2004","02","26","09:00","-4.0","","-7.4","","77","","2","","6","","16.1","","101.09","","","","-7","","Clear"
"2004-02-26 10:00","2004","02","26","10:00","-1.5","","-7.2","","65","","5","","7","","16.1","","101.04","","","","-4","","Mainly Clear"
"2004-02-26 11:00","2004","02","26","11:00","0.6","","-7.4","","55","","","","0","","16.1","","101.06","","","","","","Mainly Clear"
"2004-02-26 12:00","2004","02","26","12:00","0.6","","-7.8","","53","","4","","9","","19.3","","101.00","","","","","","Mainly Clear"
"2004-02-26 13:00","2004","02","26","13:00","1.3","","-8.4","","48","","15","","17","","19.3","","101.02","","","","","","Mostly Cloudy"
"2004-02-26 14:00","2004","02","26","14:00","-0.1","","-5.6","","66","","16","","15","","19.3","","101.02","","","","-5","","Mostly Cloudy"
"2004-02-26 15:00","2004","02","26","15:00","-0.1","","-5.0","","70","","11","","11","","24.1","","100.97","","","","-4","","Mostly Cloudy"
"2004-02-26 16:00","2004","02","26","16:00","1.4","","-5.8","","59","","6","","11","","19.3","","100.94","","","","","","Mostly Cloudy"
"2004-02-26 17:00","2004","02","26","17:00","1.8","","-6.9","","52","","8","","15","","19.3","","100.92","","","","","","Mostly Cloudy"
"2004-02-26 18:00","2004","02","26","18:00","-0.1","","-5.2","","68","","17","","9","","19.3","","100.92","","","","-3","","Mostly Cloudy"
"2004-02-26 19:00","2004","02","26","19:00","-1.4","","-5.5","","74","","19","","6","","24.1","","100.95","","","","-4","","Mainly Clear"
"2004-02-26 20:00","2004","02","26","20:00","-1.5","","-5.5","","74","","16","","4","","24.1","","100.97","","","","-3","","Mainly Clear"
"2004-02-26 21:00","2004","02","26","21:00","-1.7","","-5.6","","75","","14","","4","","24.1","","100.98","","","","-3","","Mainly Clear"
"2004-02-26 22:00","2004","02","26","22:00","-1.9","","-5.8","","75","","15","","4","","24.1","","100.98","","","","-3","","Mainly Clear"
"2004-02-26 23:00","2004","02","26","23:00","-2.9","","-6.2","","78","","","","0","","24.1","","100.95","","","","","","Mainly Clear"
"2004-02-27 00:00","2004","02","27","00:00","-3.2","","-6.6","","77","","5","","4","","24.1","","100.97","","","","-5","","Mainly Clear"
"2004-02-27 01:00","2004","02","27","01:00","-4.4","","-8.2","","75","","36","","6","","24.1","","100.99","","","","-7","","Mainly Clear"
"2004-02-27 02:00","2004","02","27","02:00","-5.8","","-9.6","","74","","36","","4","","24.1","","101.00","","","","-8","","Mainly Clear"
"2004-02-27 03:00","2004","02","27","03:00","-6.1","","-10.1","","73","","35","","7","","24.1","","100.98","","","","-9","","Mainly Clear"
"2004-02-27 04:00","2004","02","27","04:00","-6.5","","-10.1","","76","","34","","6","","24.1","","100.98","","","","-9","","Mainly Clear"
"2004-02-27 05:00","2004","02","27","05:00","-7.3","","-11.1","","74","","33","","9","","24.1","","101.02","","","","-12","","Clear"
"2004-02-27 06:00","2004","02","27","06:00","-6.9","","-12.0","","67","","34","","11","","24.1","","101.03","","","","-12","","Clear"
"2004-02-27 07:00","2004","02","27","07:00","-6.9","","-12.4","","65","","34","","9","","24.1","","101.05","","","","-11","","Clear"
"2004-02-27 08:00","2004","02","27","08:00","-5.9","","-12.0","","62","","36","","13","","24.1","","101.09","","","","-11","","Clear"
"2004-02-27 09:00","2004","02","27","09:00","-3.5","","-10.6","","58","","33","","9","","24.1","","101.11","","","","-7","","Clear"
"2004-02-27 10:00","2004","02","27","10:00","-1.4","","-9.5","","54","","35","","6","","24.1","","101.10","","","","-4","","Clear"
"2004-02-27 11:00","2004","02","27","11:00","1.1","","-8.7","","48","","","","0","","24.1","","101.09","","","","","","Clear"
"2004-02-27 12:00","2004","02","27","12:00","2.5","","-8.4","","44","","26","","6","","24.1","","101.06","","","","","","Clear"
"2004-02-27 13:00","2004","02","27","13:00","3.2","","-7.5","","45","","27","","7","","24.1","","101.00","","","","","","Clear"
"2004-02-27 14:00","2004","02","27","14:00","4.4","","-7.5","","42","","27","","9","","24.1","","100.95","","","","","","Clear"
"2004-02-27 15:00","2004","02","27","15:00","4.7","","-9.0","","36","","31","","13","","24.1","","100.92","","","","","","Clear"
"2004-02-27 16:00","2004","02","27","16:00","4.4","","-9.5","","36","","33","","17","","24.1","","100.96","","","","","","Clear"
"2004-02-27 17:00","2004","02","27","17:00","4.1","","-10.3","","34","","36","","9","","24.1","","100.94","","","","","","Clear"
"2004-02-27 18:00","2004","02","27","18:00","3.2","","-11.3","","34","","1","","7","","24.1","","100.90","","","","","","Clear"
"2004-02-27 19:00","2004","02","27","19:00","3.2","","-11.2","","34","","34","","7","","24.1","","100.93","","","","","","Mainly Clear"
"2004-02-27 20:00","2004","02","27","20:00","1.5","","-10.3","","41","","35","","11","","24.1","","100.96","","","","","","Mostly Cloudy"
"2004-02-27 21:00","2004","02","27","21:00","0.2","","-8.7","","51","","34","","9","","24.1","","100.95","","","","","","Mostly Cloudy"
"2004-02-27 22:00","2004","02","27","22:00","-0.8","","-8.0","","58","","34","","13","","24.1","","100.95","","","","-5","","Mainly Clear"
"2004-02-27 23:00","2004","02","27","23:00","-2.4","","-7.7","","67","","32","","11","","24.1","","100.95","","","","-6","","Clear"
"2004-02-28 00:00","2004","02","28","00:00","-2.7","","-7.6","","69","","31","","7","","24.1","","100.92","","","","-6","","Clear"
"2004-02-28 01:00","2004","02","28","01:00","-3.2","","-7.5","","72","","31","","13","","24.1","","100.93","","","","-8","","Clear"
"2004-02-28 02:00","2004","02","28","02:00","-3.0","","-8.4","","66","","29","","9","","24.1","","100.90","","","","-7","","Clear"
"2004-02-28 03:00","2004","02","28","03:00","-4.5","","-9.9","","66","","29","","6","","24.1","","100.86","","","","-7","","Clear"
"2004-02-28 04:00","2004","02","28","04:00","-3.8","","-9.8","","63","","31","","7","","24.1","","100.85","","","","-7","","Clear"
"2004-02-28 05:00","2004","02","28","05:00","-5.3","","-9.8","","71","","30","","6","","19.3","","100.87","","","","-8","","Clear"
"2004-02-28 06:00","2004","02","28","06:00","-5.4","","-9.8","","71","","30","","6","","19.3","","100.90","","","","-8","","Clear"
"2004-02-28 07:00","2004","02","28","07:00","-3.0","","-11.0","","54","","29","","11","","24.1","","100.92","","","","-7","","Mainly Clear"
"2004-02-28 08:00","2004","02","28","08:00","-2.7","","-10.0","","57","","28","","6","","24.1","","100.93","","","","-5","","Mainly Clear"
"2004-02-28 09:00","2004","02","28","09:00","0.4","","-9.6","","47","","26","","7","","24.1","","100.92","","","","","","Mainly Clear"
"2004-02-28 10:00","2004","02","28","10:00","2.3","","-11.2","","36","","27","","7","","24.1","","100.91","","","","","","Mostly Cloudy"
"2004-02-28 11:00","2004","02","28","11:00","4.7","","-9.9","","34","","25","","7","","24.1","","100.90","","","","","","Mainly Clear"
"2004-02-28 12:00","2004","02","28","12:00","5.8","","-7.6","","37","","24","","17","","24.1","","100.84","","","","","","Mainly Clear"
"2004-02-28 13:00","2004","02","28","13:00","6.6","","-7.2","","37","","26","","17","","24.1","","100.76","","","","","","Mainly Clear"
"2004-02-28 14:00","2004","02","28","14:00","7.2","","-6.6","","37","","24","","19","","24.1","","100.68","","","","","","Mostly Cloudy"
"2004-02-28 15:00","2004","02","28","15:00","7.1","","-5.4","","41","","24","","17","","24.1","","100.61","","","","","","Mostly Cloudy"
"2004-02-28 16:00","2004","02","28","16:00","6.8","","-5.2","","42","","25","","19","","24.1","","100.61","","","","","","Mostly Cloudy"
"2004-02-28 17:00","2004","02","28","17:00","5.9","","-5.8","","43","","27","","11","","24.1","","100.53","","","","","","Mostly Cloudy"
"2004-02-28 18:00","2004","02","28","18:00","4.6","","-6.3","","45","","28","","11","","24.1","","100.50","","","","","","Mostly Cloudy"
"2004-02-28 19:00","2004","02","28","19:00","3.0","","-6.4","","50","","26","","7","","24.1","","100.51","","","","","","Mainly Clear"
"2004-02-28 20:00","2004","02","28","20:00","3.1","","-7.5","","46","","22","","6","","24.1","","100.48","","","","","","Mainly Clear"
"2004-02-28 21:00","2004","02","28","21:00","1.3","","-6.5","","56","","26","","7","","24.1","","100.47","","","","","","Clear"
"2004-02-28 22:00","2004","02","28","22:00","-0.1","","-5.7","","66","","25","","17","","24.1","","100.43","","","","-5","","Clear"
"2004-02-28 23:00","2004","02","28","23:00","0.0","","-5.6","","66","","22","","6","","24.1","","100.41","","","","-2","","Clear"
"2004-02-29 00:00","2004","02","29","00:00","0.7","","-5.6","","63","","20","","7","","24.1","","100.36","","","","","","Clear"
"2004-02-29 01:00","2004","02","29","01:00","0.3","","-5.1","","67","","25","","13","","24.1","","100.31","","","","","","Clear"
"2004-02-29 02:00","2004","02","29","02:00","0.5","","-4.3","","70","","28","","7","","19.3","","100.29","","","","","","Mainly Clear"
"2004-02-29 03:00","2004","02","29","03:00","0.1","","-4.5","","71","","26","","9","","16.1","","100.24","","","","","","Mostly Cloudy"
"2004-02-29 04:00","2004","02","29","04:00","0.8","","-4.3","","69","","36","","17","","16.1","","100.19","","","","","","Mostly Cloudy"
"2004-02-29 05:00","2004","02","29","05:00","1.1","","-4.2","","68","","23","","15","","16.1","","100.24","","","","","","Cloudy"
"2004-02-29 06:00","2004","02","29","06:00","1.1","","-4.4","","67","","23","","17","","16.1","","100.20","","","","","","Mostly Cloudy"
"2004-02-29 07:00","2004","02","29","07:00","1.5","","-3.6","","69","","26","","13","","11.3","","100.20","","","","","","Cloudy"
"2004-02-29 08:00","2004","02","29","08:00","2.3","","-3.2","","67","","28","","17","","11.3","","100.23","","","","","","Mostly Cloudy"
"2004-02-29 09:00","2004","02","29","09:00","4.1","","-2.2","","63","","26","","24","","11.3","","100.20","","","","","","Mostly Cloudy"
"2004-02-29 10:00","2004","02","29","10:00","5.9","","-1.3","","60","","24","","20","","14.5","","100.17","","","","","","Mostly Cloudy"
"2004-02-29 11:00","2004","02","29","11:00","7.2","","-0.5","","58","","26","","22","","16.1","","100.18","","","","","","Mostly Cloudy"
"2004-02-29 12:00","2004","02","29","12:00","9.0","","0.3","","54","","25","","20","","16.1","","100.14","","","","","","Mostly Cloudy"
"2004-02-29 13:00","2004","02","29","13:00","9.4","","-0.6","","50","","24","","15","","19.3","","100.10","","","","","","Mostly Cloudy"
"2004-02-29 14:00","2004","02","29","14:00","9.9","","-1.1","","46","","26","","17","","19.3","","100.04","","","","","","Mostly Cloudy"
"2004-02-29 15:00","2004","02","29","15:00","10.3","","-0.7","","46","","23","","19","","19.3","","100.02","","","","","","Mostly Cloudy"
"2004-02-29 16:00","2004","02","29","16:00","10.5","","-0.3","","47","","27","","15","","19.3","","100.02","","","","","","Mostly Cloudy"
"2004-02-29 17:00","2004","02","29","17:00","8.6","","-0.8","","52","","26","","19","","19.3","","100.01","","","","","","Mostly Cloudy"
"2004-02-29 18:00","2004","02","29","18:00","7.2","","-2.2","","51","","23","","9","","19.3","","100.00","","","","","","Mostly Cloudy"
"2004-02-29 19:00","2004","02","29","19:00","7.4","","-2.2","","51","","21","","11","","19.3","","100.01","","","","","","Mainly Clear"
"2004-02-29 20:00","2004","02","29","20:00","5.0","","-2.4","","59","","36","","4","","24.1","","100.03","","","","","","Clear"
"2004-02-29 21:00","2004","02","29","21:00","5.8","","-2.2","","56","","31","","6","","24.1","","100.06","","","","","","Clear"
"2004-02-29 22:00","2004","02","29","22:00","5.9","","-2.3","","56","","","","0","","24.1","","100.03","","","","","","Clear"
"2004-02-29 23:00","2004","02","29","23:00","3.8","","-2.3","","64","","30","","9","","19.3","","100.08","","","","","","Clear"
