"Station Name","TORONTO LESTER B. PEARSON INT'L A"
"Province","ONTARIO"
"Latitude","43.68"
"Longitude","-79.63"
"Elevation","173.40"
"Climate Identifier","6158733"
"WMO Identifier","71624"
"TC Identifier","YYZ"
"All times are specified in Local Standard Time (LST). Add 1 hour to adjust for Daylight Saving Time where and when it is observed."

"Legend"
"E","Estimated"
"M","Missing"
"NA","Not Available"

"Date/Time","Year","Month","Day","Time","Temp (°C)","Temp Flag","Dew Point Temp (°C)","Dew Point Temp Flag","Rel Hum (%)","Rel Hum Flag","Wind Dir (10s deg)","Wind Dir Flag","Wind Spd (km/h)","Wind Spd Flag","Visibility (km)","Visibility Flag","Stn Press (kPa)","Stn Press Flag","Hmdx","Hmdx Flag","Wind Chill","Wind Chill Flag","Weather"
"1986-08-01 00:00","1986","08","01","00:00","20.1","","18.2","","89","","14","","6","","19.3","","99.14","","26","","","","Mostly Cloudy"
"1986-08-01 01:00","1986","08","01","01:00","20.2","","18.2","","88","","13","","7","","16.1","","99.11","","26","","","","Cloudy"
"1986-08-01 02:00","1986","08","01","02:00","20.1","","18.5","","90","","15","","4","","9.7","","99.07","","26","","","","Fog"
"1986-08-01 03:00","1986","08","01","03:00","19.9","","18.8","","93","","18","","4","","8.0","","99.04","","","","","","Fog"
"1986-08-01 04:00","1986","08","01","04:00","19.7","","18.0","","90","","21","","6","","9.7","","99.04","","","","","","Fog"
"1986-08-01 05:00","1986","08","01","05:00","19.8","","17.9","","89","","19","","4","","9.7","","99.04","","","","","","Fog"
"1986-08-01 06:00","1986","08","01","06:00","19.3","","17.1","","87","","22","","4","","9.7","","99.07","","","","","","Haze"
"1986-08-01 07:00","1986","08","01","07:00","20.0","","17.3","","84","","25","","7","","24.1","","99.11","","25","","","","Mostly Cloudy"
"1986-08-01 08:00","1986","08","01","08:00","20.9","","17.4","","80","","24","","4","","19.3","","99.04","","26","","","","Cloudy"
"1986-08-01 09:00","1986","08","01","09:00","21.0","","17.7","","82","","","","0","","19.3","","99.07","","27","","","","Cloudy"
"1986-08-01 10:00","1986","08","01","10:00","20.8","","18.3","","86","","","","0","","19.3","","99.07","","27","","","","Cloudy"
"1986-08-01 11:00","1986","08","01","11:00","21.5","","17.9","","80","","19","","4","","16.1","","99.11","","27","","","","Cloudy"
"1986-08-01 12:00","1986","08","01","12:00","22.7","","18.1","","75","","20","","7","","12.9","","99.11","","29","","","","Mostly Cloudy"
"1986-08-01 13:00","1986","08","01","13:00","24.5","","16.4","","61","","","","0","","19.3","","99.04","","29","","","","Mainly Clear"
"1986-08-01 14:00","1986","08","01","14:00","25.9","","17.1","","58","","","","0","","24.1","","99.04","","31","","","","Mainly Clear"
"1986-08-01 15:00","1986","08","01","15:00","24.8","","18.3","","67","","16","","17","","24.1","","99.01","","31","","","","Mostly Cloudy"
"1986-08-01 16:00","1986","08","01","16:00","25.0","","19.2","","70","","16","","17","","16.1","","99.01","","32","","","","Mostly Cloudy"
"1986-08-01 17:00","1986","08","01","17:00","20.0","","15.0","","73","","5","","15","","40.2","","99.07","","","","","","Mostly Cloudy"
"1986-08-01 18:00","1986","08","01","18:00","22.6","","14.7","","61","","4","","6","","40.2","","99.11","","26","","","","Mainly Clear"
"1986-08-01 19:00","1986","08","01","19:00","21.2","","15.1","","68","","","","0","","40.2","","99.14","","25","","","","Mainly Clear"
"1986-08-01 20:00","1986","08","01","20:00","21.0","","15.8","","72","","","","0","","24.1","","99.17","","25","","","","Clear"
"1986-08-01 21:00","1986","08","01","21:00","18.5","","14.7","","79","","27","","4","","16.1","","99.27","","","","","","Mainly Clear"
"1986-08-01 22:00","1986","08","01","22:00","17.8","","14.8","","83","","29","","4","","16.1","","99.27","","","","","","Mainly Clear"
"1986-08-01 23:00","1986","08","01","23:00","17.2","","14.4","","83","","31","","6","","25.0","","99.24","","","","","","Mainly Clear"
"1986-08-02 00:00","1986","08","02","00:00","17.5","","14.6","","83","","","","0","","25.0","","99.24","","","","","","Mainly Clear"
"1986-08-02 01:00","1986","08","02","01:00","16.2","","14.1","","87","","3","","4","","25.0","","99.21","","","","","","Mainly Clear"
"1986-08-02 02:00","1986","08","02","02:00","14.9","","13.4","","91","","","","0","","19.3","","99.21","","","","","","Mainly Clear"
"1986-08-02 03:00","1986","08","02","03:00","14.7","","13.2","","91","","35","","6","","19.3","","99.17","","","","","","Mostly Cloudy"
"1986-08-02 04:00","1986","08","02","04:00","16.9","","15.1","","89","","10","","4","","19.3","","99.14","","","","","","Mainly Clear"
"1986-08-02 05:00","1986","08","02","05:00","14.2","","13.0","","92","","32","","6","","19.3","","99.17","","","","","","Mostly Cloudy"
"1986-08-02 06:00","1986","08","02","06:00","14.7","","13.5","","92","","33","","4","","19.3","","99.17","","","","","","Mostly Cloudy"
"1986-08-02 07:00","1986","08","02","07:00","17.2","","15.4","","89","","35","","7","","19.3","","99.17","","","","","","Mostly Cloudy"
"1986-08-02 08:00","1986","08","02","08:00","19.2","","16.2","","83","","","","0","","19.3","","99.17","","","","","","Mostly Cloudy"
"1986-08-02 09:00","1986","08","02","09:00","22.4","","17.7","","75","","","","0","","19.3","","99.14","","28","","","","Mainly Clear"
"1986-08-02 10:00","1986","08","02","10:00","23.2","","16.7","","67","","24","","7","","19.3","","99.14","","28","","","","Mostly Cloudy"
"1986-08-02 11:00","1986","08","02","11:00","24.3","","16.4","","61","","24","","15","","16.1","","99.14","","29","","","","Cloudy"
"1986-08-02 12:00","1986","08","02","12:00","25.5","","15.4","","54","","27","","19","","40.2","","99.14","","30","","","","Mostly Cloudy"
"1986-08-02 13:00","1986","08","02","13:00","25.8","","15.7","","54","","27","","20","","40.2","","99.07","","30","","","","Mainly Clear"
"1986-08-02 14:00","1986","08","02","14:00","26.1","","14.2","","48","","23","","20","","40.2","","99.07","","30","","","","Mainly Clear"
"1986-08-02 15:00","1986","08","02","15:00","26.1","","13.9","","47","","25","","22","","40.2","","99.07","","29","","","","Mainly Clear"
"1986-08-02 16:00","1986","08","02","16:00","26.2","","14.6","","49","","27","","22","","40.2","","99.04","","30","","","","Mainly Clear"
"1986-08-02 17:00","1986","08","02","17:00","24.6","","14.2","","52","","27","","19","","40.2","","99.07","","28","","","","Mostly Cloudy"
"1986-08-02 18:00","1986","08","02","18:00","23.9","","14.7","","57","","26","","9","","32.2","","99.11","","28","","","","Mostly Cloudy"
"1986-08-02 19:00","1986","08","02","19:00","23.0","","15.3","","62","","26","","15","","32.2","","99.14","","27","","","","Mostly Cloudy"
"1986-08-02 20:00","1986","08","02","20:00","19.5","","11.2","","59","","27","","6","","25.0","","99.17","","","","","","Mainly Clear"
"1986-08-02 21:00","1986","08","02","21:00","16.9","","12.7","","76","","28","","7","","25.0","","99.21","","","","","","Clear"
"1986-08-02 22:00","1986","08","02","22:00","16.8","","13.1","","79","","22","","4","","25.0","","99.24","","","","","","Clear"
"1986-08-02 23:00","1986","08","02","23:00","15.5","","12.9","","84","","24","","9","","25.0","","99.24","","","","","","Mainly Clear"
"1986-08-03 00:00","1986","08","03","00:00","15.2","","12.3","","83","","25","","7","","24.1","","99.31","","","","","","Clear"
"1986-08-03 01:00","1986","08","03","01:00","14.9","","12.7","","87","","25","","7","","25.0","","99.31","","","","","","Mainly Clear"
"1986-08-03 02:00","1986","08","03","02:00","13.5","","11.8","","89","","27","","7","","25.0","","99.31","","","","","","Mainly Clear"
"1986-08-03 03:00","1986","08","03","03:00","13.0","","11.6","","91","","28","","6","","25.0","","99.31","","","","","","Mainly Clear"
"1986-08-03 04:00","1986","08","03","04:00","12.8","","11.6","","93","","32","","7","","25.0","","99.34","","","","","","Mostly Cloudy"
"1986-08-03 05:00","1986","08","03","05:00","13.1","","11.3","","89","","32","","6","","25.0","","99.34","","","","","","Mostly Cloudy"
"1986-08-03 06:00","1986","08","03","06:00","13.9","","12.3","","90","","33","","7","","40.2","","99.41","","","","","","Mostly Cloudy"
"1986-08-03 07:00","1986","08","03","07:00","15.8","","13.7","","88","","32","","7","","40.2","","99.44","","","","","","Mainly Clear"
"1986-08-03 08:00","1986","08","03","08:00","18.0","","13.5","","75","","34","","15","","40.2","","99.51","","","","","","Mostly Cloudy"
"1986-08-03 09:00","1986","08","03","09:00","20.1","","13.2","","65","","35","","7","","40.2","","99.54","","","","","","Mostly Cloudy"
"1986-08-03 10:00","1986","08","03","10:00","20.3","","13.8","","66","","","","0","","40.2","","99.57","","","","","","Mostly Cloudy"
"1986-08-03 11:00","1986","08","03","11:00","20.2","","14.3","","69","","20","","7","","40.2","","99.61","","","","","","Mostly Cloudy"
"1986-08-03 12:00","1986","08","03","12:00","23.5","","11.4","","47","","27","","7","","40.2","","99.54","","25","","","","Mostly Cloudy"
"1986-08-03 13:00","1986","08","03","13:00","21.7","","14.6","","64","","15","","19","","40.2","","99.57","","25","","","","Mostly Cloudy"
"1986-08-03 14:00","1986","08","03","14:00","22.0","","15.2","","65","","29","","17","","40.2","","99.57","","26","","","","Rain Showers"
"1986-08-03 15:00","1986","08","03","15:00","22.8","","11.6","","49","","27","","19","","40.2","","99.57","","25","","","","Mostly Cloudy"
"1986-08-03 16:00","1986","08","03","16:00","23.6","","11.0","","45","","28","","20","","40.2","","99.57","","25","","","","Mainly Clear"
"1986-08-03 17:00","1986","08","03","17:00","23.7","","11.0","","45","","26","","15","","40.2","","99.57","","25","","","","Mainly Clear"
"1986-08-03 18:00","1986","08","03","18:00","22.4","","9.2","","43","","27","","20","","40.2","","99.61","","","","","","Mainly Clear"
"1986-08-03 19:00","1986","08","03","19:00","21.0","","8.9","","46","","28","","11","","40.2","","99.67","","","","","","Clear"
"1986-08-03 20:00","1986","08","03","20:00","17.0","","9.3","","60","","28","","9","","25.0","","99.71","","","","","","Clear"
"1986-08-03 21:00","1986","08","03","21:00","16.7","","9.1","","61","","28","","7","","25.0","","99.74","","","","","","Clear"
"1986-08-03 22:00","1986","08","03","22:00","17.0","","9.7","","62","","26","","6","","25.0","","99.77","","","","","","Clear"
"1986-08-03 23:00","1986","08","03","23:00","15.8","","10.1","","69","","29","","7","","25.0","","99.81","","","","","","Mainly Clear"
"1986-08-04 00:00","1986","08","04","00:00","15.4","","11.8","","79","","25","","7","","25.0","","99.84","","","","","","Rain Showers"
"1986-08-04 01:00","1986","08","04","01:00","14.2","","10.5","","78","","29","","4","","25.0","","99.84","","","","","","Mainly Clear"
"1986-08-04 02:00","1986","08","04","02:00","14.7","","10.3","","75","","26","","4","","25.0","","99.84","","","","","","Mostly Cloudy"
"1986-08-04 03:00","1986","08","04","03:00","14.1","","10.9","","81","","27","","6","","25.0","","99.84","","","","","","Mostly Cloudy"
"1986-08-04 04:00","1986","08","04","04:00","13.5","","10.7","","83","","27","","4","","25.0","","99.87","","","","","","Mainly Clear"
"1986-08-04 05:00","1986","08","04","05:00","12.0","","10.2","","89","","28","","7","","25.0","","99.87","","","","","","Mainly Clear"
"1986-08-04 06:00","1986","08","04","06:00","11.8","","10.6","","93","","29","","6","","40.2","","99.91","","","","","","Mainly Clear"
"1986-08-04 07:00","1986","08","04","07:00","15.2","","12.3","","83","","26","","4","","40.2","","99.94","","","","","","Clear"
"1986-08-04 08:00","1986","08","04","08:00","17.7","","13.3","","75","","31","","7","","40.2","","99.97","","","","","","Clear"
"1986-08-04 09:00","1986","08","04","09:00","19.4","","12.7","","65","","30","","9","","40.2","","99.97","","","","","","Mainly Clear"
"1986-08-04 10:00","1986","08","04","10:00","22.0","","13.8","","60","","26","","17","","40.2","","100.01","","25","","","","Mostly Cloudy"
"1986-08-04 11:00","1986","08","04","11:00","23.0","","13.5","","55","","25","","17","","40.2","","100.01","","26","","","","Mostly Cloudy"
"1986-08-04 12:00","1986","08","04","12:00","23.5","","13.7","","54","","23","","20","","40.2","","99.97","","27","","","","Mostly Cloudy"
"1986-08-04 13:00","1986","08","04","13:00","22.9","","12.4","","52","","27","","19","","40.2","","99.94","","25","","","","Mostly Cloudy"
"1986-08-04 14:00","1986","08","04","14:00","24.4","","12.3","","47","","25","","20","","40.2","","99.91","","27","","","","Mostly Cloudy"
"1986-08-04 15:00","1986","08","04","15:00","24.0","","14.7","","56","","23","","11","","32.2","","99.91","","28","","","","Mostly Cloudy"
"1986-08-04 16:00","1986","08","04","16:00","24.3","","13.9","","52","","25","","19","","32.2","","99.87","","28","","","","Mostly Cloudy"
"1986-08-04 17:00","1986","08","04","17:00","25.5","","13.6","","48","","25","","19","","32.2","","99.84","","29","","","","Mainly Clear"
"1986-08-04 18:00","1986","08","04","18:00","24.6","","12.7","","48","","25","","15","","32.2","","99.87","","27","","","","Mainly Clear"
"1986-08-04 19:00","1986","08","04","19:00","23.1","","13.5","","55","","25","","9","","32.2","","99.87","","26","","","","Mainly Clear"
"1986-08-04 20:00","1986","08","04","20:00","20.0","","13.6","","67","","24","","7","","25.0","","99.91","","","","","","Mainly Clear"
"1986-08-04 21:00","1986","08","04","21:00","19.6","","13.4","","67","","22","","7","","25.0","","99.97","","","","","","Clear"
"1986-08-04 22:00","1986","08","04","22:00","19.0","","15.3","","79","","24","","11","","19.3","","99.97","","","","","","Clear"
"1986-08-04 23:00","1986","08","04","23:00","17.9","","15.2","","84","","25","","7","","25.0","","99.97","","","","","","Clear"
"1986-08-05 00:00","1986","08","05","00:00","17.2","","14.8","","86","","26","","9","","25.0","","99.97","","","","","","Clear"
"1986-08-05 01:00","1986","08","05","01:00","16.2","","14.1","","87","","26","","4","","25.0","","99.94","","","","","","Clear"
"1986-08-05 02:00","1986","08","05","02:00","15.5","","13.9","","90","","27","","7","","25.0","","99.94","","","","","","Clear"
"1986-08-05 03:00","1986","08","05","03:00","15.0","","13.7","","92","","28","","6","","19.3","","99.91","","","","","","Clear"
"1986-08-05 04:00","1986","08","05","04:00","14.8","","13.7","","93","","","","0","","19.3","","99.91","","","","","","Clear"
"1986-08-05 05:00","1986","08","05","05:00","16.0","","13.7","","86","","16","","7","","12.9","","99.94","","","","","","Mostly Cloudy"
"1986-08-05 06:00","1986","08","05","06:00","17.0","","14.1","","83","","18","","4","","12.9","","99.97","","","","","","Mainly Clear"
"1986-08-05 07:00","1986","08","05","07:00","18.8","","15.3","","80","","20","","6","","12.9","","99.97","","","","","","Mainly Clear"
"1986-08-05 08:00","1986","08","05","08:00","20.5","","16.9","","80","","24","","13","","12.9","","99.97","","26","","","","Mostly Cloudy"
"1986-08-05 09:00","1986","08","05","09:00","22.1","","18.2","","79","","22","","9","","16.1","","99.91","","28","","","","Mainly Clear"
"1986-08-05 10:00","1986","08","05","10:00","24.0","","16.8","","64","","21","","13","","16.1","","99.91","","29","","","","Clear"
"1986-08-05 11:00","1986","08","05","11:00","25.4","","17.5","","62","","22","","17","","19.3","","99.87","","31","","","","Mainly Clear"
"1986-08-05 12:00","1986","08","05","12:00","26.9","","16.6","","53","","25","","7","","19.3","","99.81","","32","","","","Mostly Cloudy"
"1986-08-05 13:00","1986","08","05","13:00","26.4","","15.9","","53","","21","","24","","19.3","","99.77","","31","","","","Mostly Cloudy"
"1986-08-05 14:00","1986","08","05","14:00","27.3","","15.7","","49","","19","","22","","19.3","","99.71","","32","","","","Mainly Clear"
"1986-08-05 15:00","1986","08","05","15:00","25.9","","15.3","","52","","21","","24","","19.3","","99.64","","30","","","","Mostly Cloudy"
"1986-08-05 16:00","1986","08","05","16:00","20.7","","17.5","","82","","34","","4","","32.2","","99.71","","26","","","","Mostly Cloudy"
"1986-08-05 17:00","1986","08","05","17:00","21.2","","15.4","","69","","15","","11","","24.1","","99.67","","25","","","","Rain Showers"
"1986-08-05 18:00","1986","08","05","18:00","22.2","","15.9","","67","","16","","6","","24.1","","99.67","","27","","","","Mostly Cloudy"
"1986-08-05 19:00","1986","08","05","19:00","22.4","","17.1","","72","","20","","6","","24.1","","99.64","","28","","","","Mostly Cloudy"
"1986-08-05 20:00","1986","08","05","20:00","22.0","","17.5","","76","","18","","7","","16.1","","99.64","","28","","","","Mostly Cloudy"
"1986-08-05 21:00","1986","08","05","21:00","21.1","","16.4","","74","","19","","6","","12.9","","99.71","","26","","","","Mostly Cloudy"
"1986-08-05 22:00","1986","08","05","22:00","19.3","","16.4","","83","","","","0","","12.9","","99.71","","","","","","Mostly Cloudy"
"1986-08-05 23:00","1986","08","05","23:00","19.7","","16.8","","83","","25","","2","","16.1","","99.67","","","","","","Cloudy"
"1986-08-06 00:00","1986","08","06","00:00","20.5","","16.5","","78","","21","","4","","16.1","","99.67","","25","","","","Mostly Cloudy"
"1986-08-06 01:00","1986","08","06","01:00","18.7","","16.0","","84","","26","","6","","16.1","","99.64","","","","","","Mostly Cloudy"
"1986-08-06 02:00","1986","08","06","02:00","17.3","","15.6","","90","","28","","7","","16.1","","99.61","","","","","","Mostly Cloudy"
"1986-08-06 03:00","1986","08","06","03:00","17.7","","15.3","","86","","27","","6","","16.1","","99.61","","","","","","Mostly Cloudy"
"1986-08-06 04:00","1986","08","06","04:00","17.5","","15.3","","87","","","","0","","19.3","","99.61","","","","","","Mainly Clear"
"1986-08-06 05:00","1986","08","06","05:00","17.3","","15.3","","88","","28","","4","","9.7","","99.64","","","","","","Fog"
"1986-08-06 06:00","1986","08","06","06:00","18.5","","15.7","","84","","19","","4","","8.0","","99.67","","","","","","Haze"
"1986-08-06 07:00","1986","08","06","07:00","19.1","","16.6","","85","","17","","4","","8.0","","99.67","","","","","","Haze"
"1986-08-06 08:00","1986","08","06","08:00","20.9","","16.8","","77","","","","0","","8.0","","99.67","","26","","","","Haze"
"1986-08-06 09:00","1986","08","06","09:00","22.0","","16.9","","73","","","","0","","9.7","","99.71","","27","","","","Haze"
"1986-08-06 10:00","1986","08","06","10:00","24.2","","18.4","","70","","23","","6","","9.7","","99.67","","31","","","","Haze"
"1986-08-06 11:00","1986","08","06","11:00","26.2","","18.7","","63","","19","","11","","12.9","","99.71","","33","","","","Cloudy"
"1986-08-06 12:00","1986","08","06","12:00","25.4","","17.5","","62","","21","","7","","12.9","","99.64","","31","","","","Cloudy"
"1986-08-06 13:00","1986","08","06","13:00","25.6","","14.7","","51","","22","","15","","12.9","","99.64","","29","","","","Cloudy"
"1986-08-06 14:00","1986","08","06","14:00","26.3","","14.9","","50","","18","","13","","16.1","","99.61","","30","","","","Cloudy"
"1986-08-06 15:00","1986","08","06","15:00","25.7","","16.5","","57","","18","","4","","16.1","","99.57","","31","","","","Cloudy"
"1986-08-06 16:00","1986","08","06","16:00","22.2","","17.2","","73","","33","","9","","12.9","","99.57","","28","","","","Rain Showers"
"1986-08-06 17:00","1986","08","06","17:00","22.2","","17.2","","73","","4","","7","","19.3","","99.57","","28","","","","Mostly Cloudy"
"1986-08-06 18:00","1986","08","06","18:00","22.7","","16.8","","69","","5","","7","","16.1","","99.54","","28","","","","Mostly Cloudy"
"1986-08-06 19:00","1986","08","06","19:00","22.3","","16.4","","69","","7","","6","","12.9","","99.54","","27","","","","Mostly Cloudy"
"1986-08-06 20:00","1986","08","06","20:00","22.1","","15.2","","65","","7","","7","","12.9","","99.51","","26","","","","Mostly Cloudy"
"1986-08-06 21:00","1986","08","06","21:00","20.1","","16.3","","79","","3","","7","","9.7","","99.51","","25","","","","Haze"
"1986-08-06 22:00","1986","08","06","22:00","19.7","","16.8","","83","","3","","6","","9.7","","99.54","","","","","","Haze"
"1986-08-06 23:00","1986","08","06","23:00","19.8","","17.0","","84","","3","","6","","9.7","","99.44","","","","","","Haze"
"1986-08-07 00:00","1986","08","07","00:00","19.4","","16.4","","83","","2","","7","","11.3","","99.41","","","","","","Cloudy"
"1986-08-07 01:00","1986","08","07","01:00","20.0","","15.3","","74","","3","","6","","9.7","","99.34","","","","","","Haze"
"1986-08-07 02:00","1986","08","07","02:00","18.9","","16.2","","85","","4","","7","","8.0","","99.31","","","","","","Thunderstorms,Rain Showers,Fog"
"1986-08-07 03:00","1986","08","07","03:00","18.7","","17.0","","90","","","","0","","8.0","","99.31","","","","","","Fog"
"1986-08-07 04:00","1986","08","07","04:00","18.5","","17.3","","93","","3","","6","","4.0","","99.24","","","","","","Rain,Fog"
"1986-08-07 05:00","1986","08","07","05:00","18.5","","17.6","","95","","4","","7","","3.2","","99.24","","","","","","Rain,Fog"
"1986-08-07 06:00","1986","08","07","06:00","18.8","","18.4","","98","","11","","7","","4.0","","99.21","","","","","","Rain,Fog"
"1986-08-07 07:00","1986","08","07","07:00","19.0","","17.8","","93","","11","","6","","4.0","","99.17","","","","","","Fog"
"1986-08-07 08:00","1986","08","07","08:00","19.1","","17.5","","90","","13","","4","","2.4","","99.17","","","","","","Rain,Fog"
"1986-08-07 09:00","1986","08","07","09:00","19.2","","17.8","","91","","12","","7","","2.4","","99.14","","","","","","Rain,Fog"
"1986-08-07 10:00","1986","08","07","10:00","19.1","","18.1","","94","","12","","7","","2.4","","99.14","","","","","","Rain,Fog"
"1986-08-07 11:00","1986","08","07","11:00","19.5","","18.9","","96","","11","","9","","2.4","","99.11","","","","","","Rain,Fog"
"1986-08-07 12:00","1986","08","07","12:00","19.7","","18.9","","95","","12","","7","","2.4","","99.07","","","","","","Rain,Fog"
"1986-08-07 13:00","1986","08","07","13:00","19.6","","18.3","","92","","12","","7","","2.4","","99.04","","","","","","Rain,Fog"
"1986-08-07 14:00","1986","08","07","14:00","20.2","","18.8","","91","","","","0","","4.8","","99.01","","27","","","","Rain,Fog"
"1986-08-07 15:00","1986","08","07","15:00","20.5","","18.4","","88","","4","","6","","6.4","","99.01","","27","","","","Fog"
"1986-08-07 16:00","1986","08","07","16:00","20.9","","18.3","","85","","3","","7","","6.4","","98.97","","27","","","","Haze"
"1986-08-07 17:00","1986","08","07","17:00","21.1","","18.3","","84","","4","","7","","6.4","","98.94","","27","","","","Haze"
"1986-08-07 18:00","1986","08","07","18:00","21.5","","18.6","","84","","2","","7","","8.0","","98.94","","28","","","","Haze"
"1986-08-07 19:00","1986","08","07","19:00","20.9","","18.9","","88","","17","","6","","4.8","","98.94","","28","","","","Fog"
"1986-08-07 20:00","1986","08","07","20:00","20.1","","18.2","","89","","16","","4","","4.0","","98.94","","26","","","","Fog"
"1986-08-07 21:00","1986","08","07","21:00","19.9","","17.9","","88","","","","0","","4.8","","98.94","","","","","","Fog"
"1986-08-07 22:00","1986","08","07","22:00","20.2","","18.5","","90","","4","","4","","4.8","","98.94","","27","","","","Fog"
"1986-08-07 23:00","1986","08","07","23:00","18.4","","17.6","","95","","35","","7","","4.8","","98.94","","","","","","Fog"
"1986-08-08 00:00","1986","08","08","00:00","18.3","","17.6","","96","","35","","4","","4.8","","98.94","","","","","","Fog"
"1986-08-08 01:00","1986","08","08","01:00","18.4","","17.9","","97","","33","","6","","4.8","","98.91","","","","","","Fog"
"1986-08-08 02:00","1986","08","08","02:00","18.5","","17.9","","96","","36","","9","","4.0","","98.84","","","","","","Fog"
"1986-08-08 03:00","1986","08","08","03:00","18.6","","17.9","","96","","35","","6","","4.0","","98.81","","","","","","Fog"
"1986-08-08 04:00","1986","08","08","04:00","18.5","","17.9","","96","","33","","7","","4.0","","98.84","","","","","","Fog"
"1986-08-08 05:00","1986","08","08","05:00","17.6","","16.9","","96","","31","","4","","3.2","","98.84","","","","","","Fog"
"1986-08-08 06:00","1986","08","08","06:00","18.0","","17.4","","96","","28","","2","","3.2","","98.84","","","","","","Rain Showers,Fog"
"1986-08-08 07:00","1986","08","08","07:00","18.5","","17.6","","95","","34","","7","","3.2","","98.81","","","","","","Fog"
"1986-08-08 08:00","1986","08","08","08:00","19.7","","18.0","","90","","33","","7","","4.0","","98.81","","","","","","Fog"
"1986-08-08 09:00","1986","08","08","09:00","20.8","","18.6","","87","","","","0","","4.8","","98.84","","27","","","","Fog"
"1986-08-08 10:00","1986","08","08","10:00","21.5","","17.3","","77","","","","0","","12.9","","98.81","","27","","","","Mostly Cloudy"
"1986-08-08 11:00","1986","08","08","11:00","23.2","","17.3","","69","","23","","9","","12.9","","98.81","","29","","","","Mostly Cloudy"
"1986-08-08 12:00","1986","08","08","12:00","23.7","","16.9","","66","","","","0","","16.1","","98.77","","29","","","","Mostly Cloudy"
"1986-08-08 13:00","1986","08","08","13:00","23.9","","17.1","","66","","21","","15","","12.9","","98.74","","29","","","","Mostly Cloudy"
"1986-08-08 14:00","1986","08","08","14:00","22.2","","19.1","","83","","18","","9","","12.9","","98.71","","29","","","","Rain Showers"
"1986-08-08 15:00","1986","08","08","15:00","23.4","","20.7","","85","","15","","15","","9.7","","98.64","","32","","","","Fog"
"1986-08-08 16:00","1986","08","08","16:00","24.6","","17.0","","63","","15","","6","","12.9","","98.61","","30","","","","Mostly Cloudy"
"1986-08-08 17:00","1986","08","08","17:00","23.0","","18.9","","78","","15","","11","","6.4","","98.61","","30","","","","Haze"
"1986-08-08 18:00","1986","08","08","18:00","22.0","","19.4","","85","","15","","7","","4.8","","98.61","","29","","","","Haze"
"1986-08-08 19:00","1986","08","08","19:00","21.5","","19.2","","87","","27","","20","","2.4","","98.64","","28","","","","Thunderstorms,Moderate Rain Showers,Fog"
"1986-08-08 20:00","1986","08","08","20:00","18.8","","17.1","","90","","33","","7","","8.0","","98.61","","","","","","Fog"
"1986-08-08 21:00","1986","08","08","21:00","17.5","","15.9","","90","","35","","7","","16.1","","98.67","","","","","","Mainly Clear"
"1986-08-08 22:00","1986","08","08","22:00","16.9","","15.4","","91","","","","0","","24.1","","98.67","","","","","","Mainly Clear"
"1986-08-08 23:00","1986","08","08","23:00","16.4","","15.6","","95","","24","","4","","25.0","","98.64","","","","","","Mostly Cloudy"
"1986-08-09 00:00","1986","08","09","00:00","17.0","","15.8","","93","","","","0","","25.0","","98.67","","","","","","Mainly Clear"
"1986-08-09 01:00","1986","08","09","01:00","17.2","","15.4","","89","","20","","6","","25.0","","98.71","","","","","","Mostly Cloudy"
"1986-08-09 02:00","1986","08","09","02:00","17.3","","16.3","","94","","20","","4","","19.3","","98.67","","","","","","Mostly Cloudy"
"1986-08-09 03:00","1986","08","09","03:00","17.1","","15.8","","92","","24","","6","","12.9","","98.67","","","","","","Mostly Cloudy"
"1986-08-09 04:00","1986","08","09","04:00","17.3","","16.3","","94","","","","0","","12.9","","98.71","","","","","","Mostly Cloudy"
"1986-08-09 05:00","1986","08","09","05:00","16.8","","15.8","","94","","25","","9","","12.9","","98.74","","","","","","Mostly Cloudy"
"1986-08-09 06:00","1986","08","09","06:00","17.0","","15.4","","90","","23","","13","","19.3","","98.81","","","","","","Mostly Cloudy"
"1986-08-09 07:00","1986","08","09","07:00","18.5","","16.3","","87","","27","","19","","24.1","","98.84","","","","","","Mostly Cloudy"
"1986-08-09 08:00","1986","08","09","08:00","19.7","","15.5","","77","","31","","22","","32.2","","98.87","","","","","","Mostly Cloudy"
"1986-08-09 09:00","1986","08","09","09:00","21.6","","15.7","","69","","30","","19","","24.1","","98.91","","26","","","","Mostly Cloudy"
"1986-08-09 10:00","1986","08","09","10:00","19.9","","17.0","","83","","29","","17","","24.1","","99.01","","","","","","Mostly Cloudy"
"1986-08-09 11:00","1986","08","09","11:00","21.7","","15.3","","67","","28","","22","","24.1","","99.07","","26","","","","Mostly Cloudy"
"1986-08-09 12:00","1986","08","09","12:00","22.2","","16.2","","69","","29","","22","","24.1","","99.11","","27","","","","Mostly Cloudy"
"1986-08-09 13:00","1986","08","09","13:00","24.0","","16.1","","61","","27","","17","","24.1","","99.14","","29","","","","Mostly Cloudy"
"1986-08-09 14:00","1986","08","09","14:00","24.7","","15.3","","56","","29","","19","","24.1","","99.14","","29","","","","Mainly Clear"
"1986-08-09 15:00","1986","08","09","15:00","25.2","","15.2","","54","","28","","26","","24.1","","99.14","","29","","","","Mainly Clear"
"1986-08-09 16:00","1986","08","09","16:00","25.0","","14.8","","53","","29","","22","","32.2","","99.14","","29","","","","Mainly Clear"
"1986-08-09 17:00","1986","08","09","17:00","24.7","","15.0","","55","","28","","15","","32.2","","99.14","","29","","","","Mainly Clear"
"1986-08-09 18:00","1986","08","09","18:00","24.2","","15.1","","57","","28","","13","","32.2","","99.21","","28","","","","Mainly Clear"
"1986-08-09 19:00","1986","08","09","19:00","22.4","","14.7","","62","","28","","11","","32.2","","99.21","","26","","","","Mainly Clear"
"1986-08-09 20:00","1986","08","09","20:00","20.3","","14.9","","71","","29","","7","","25.0","","99.21","","","","","","Mainly Clear"
"1986-08-09 21:00","1986","08","09","21:00","19.3","","15.1","","77","","28","","7","","25.0","","99.24","","","","","","Mainly Clear"
"1986-08-09 22:00","1986","08","09","22:00","17.1","","14.1","","83","","26","","11","","24.1","","99.27","","","","","","Mainly Clear"
"1986-08-09 23:00","1986","08","09","23:00","17.1","","14.1","","83","","25","","7","","25.0","","99.31","","","","","","Clear"
"1986-08-10 00:00","1986","08","10","00:00","16.1","","14.1","","88","","26","","7","","25.0","","99.31","","","","","","Clear"
"1986-08-10 01:00","1986","08","10","01:00","16.6","","13.9","","84","","","","0","","25.0","","99.31","","","","","","Clear"
"1986-08-10 02:00","1986","08","10","02:00","15.4","","13.9","","91","","","","0","","25.0","","99.34","","","","","","Mainly Clear"
"1986-08-10 03:00","1986","08","10","03:00","15.2","","13.4","","89","","","","0","","25.0","","99.31","","","","","","Mostly Cloudy"
"1986-08-10 04:00","1986","08","10","04:00","15.8","","13.7","","88","","","","0","","25.0","","99.31","","","","","","Mostly Cloudy"
"1986-08-10 05:00","1986","08","10","05:00","16.5","","13.2","","81","","","","0","","25.0","","99.27","","","","","","Cloudy"
"1986-08-10 06:00","1986","08","10","06:00","16.8","","14.4","","86","","","","0","","32.2","","99.27","","","","","","Mostly Cloudy"
"1986-08-10 07:00","1986","08","10","07:00","17.8","","15.5","","87","","","","0","","24.1","","99.31","","","","","","Mostly Cloudy"
"1986-08-10 08:00","1986","08","10","08:00","19.5","","17.4","","88","","","","0","","19.3","","99.27","","","","","","Mostly Cloudy"
"1986-08-10 09:00","1986","08","10","09:00","20.7","","17.5","","82","","16","","4","","16.1","","99.24","","26","","","","Mostly Cloudy"
"1986-08-10 10:00","1986","08","10","10:00","22.1","","17.2","","74","","16","","11","","24.1","","99.17","","28","","","","Mostly Cloudy"
"1986-08-10 11:00","1986","08","10","11:00","24.2","","16.8","","63","","16","","17","","32.2","","99.14","","29","","","","Mostly Cloudy"
"1986-08-10 12:00","1986","08","10","12:00","24.6","","16.4","","60","","18","","19","","32.2","","99.11","","29","","","","Mostly Cloudy"
"1986-08-10 13:00","1986","08","10","13:00","24.0","","16.1","","61","","15","","17","","32.2","","99.01","","29","","","","Mostly Cloudy"
"1986-08-10 14:00","1986","08","10","14:00","23.7","","14.5","","56","","14","","13","","24.1","","98.91","","27","","","","Cloudy"
"1986-08-10 15:00","1986","08","10","15:00","23.5","","15.5","","61","","16","","17","","24.1","","98.84","","28","","","","Rain Showers"
"1986-08-10 16:00","1986","08","10","16:00","21.2","","16.8","","76","","12","","13","","24.1","","98.71","","26","","","","Cloudy"
"1986-08-10 17:00","1986","08","10","17:00","21.4","","17.6","","79","","13","","7","","24.1","","98.64","","27","","","","Cloudy"
"1986-08-10 18:00","1986","08","10","18:00","21.5","","17.6","","79","","15","","6","","24.1","","98.57","","27","","","","Cloudy"
"1986-08-10 19:00","1986","08","10","19:00","21.1","","17.7","","81","","17","","9","","9.7","","98.54","","27","","","","Rain Showers,Fog"
"1986-08-10 20:00","1986","08","10","20:00","20.0","","19.4","","96","","18","","11","","8.0","","98.51","","27","","","","Rain,Fog"
"1986-08-10 21:00","1986","08","10","21:00","19.9","","19.4","","97","","24","","6","","6.4","","98.51","","","","","","Rain Showers,Fog"
"1986-08-10 22:00","1986","08","10","22:00","19.0","","17.5","","91","","26","","11","","9.7","","98.51","","","","","","Fog"
"1986-08-10 23:00","1986","08","10","23:00","17.9","","15.8","","87","","29","","15","","25.0","","98.57","","","","","","Mainly Clear"
"1986-08-11 00:00","1986","08","11","00:00","16.3","","13.2","","82","","30","","24","","25.0","","98.64","","","","","","Clear"
"1986-08-11 01:00","1986","08","11","01:00","15.3","","13.2","","88","","28","","13","","25.0","","98.77","","","","","","Clear"
"1986-08-11 02:00","1986","08","11","02:00","14.7","","12.2","","85","","29","","15","","25.0","","98.84","","","","","","Clear"
"1986-08-11 03:00","1986","08","11","03:00","14.7","","12.5","","87","","28","","20","","25.0","","98.87","","","","","","Clear"
"1986-08-11 04:00","1986","08","11","04:00","14.4","","12.5","","88","","25","","13","","25.0","","98.94","","","","","","Clear"
"1986-08-11 05:00","1986","08","11","05:00","14.5","","12.5","","88","","26","","13","","25.0","","99.01","","","","","","Mainly Clear"
"1986-08-11 06:00","1986","08","11","06:00","14.0","","12.3","","89","","29","","11","","32.2","","99.04","","","","","","Mainly Clear"
"1986-08-11 07:00","1986","08","11","07:00","15.5","","12.9","","84","","28","","20","","40.2","","99.14","","","","","","Mainly Clear"
"1986-08-11 08:00","1986","08","11","08:00","16.9","","10.5","","66","","28","","30","","40.2","","99.21","","","","","","Mainly Clear"
"1986-08-11 09:00","1986","08","11","09:00","17.7","","10.3","","62","","29","","28","","40.2","","99.24","","","","","","Mainly Clear"
"1986-08-11 10:00","1986","08","11","10:00","18.6","","9.5","","55","","30","","28","","40.2","","99.31","","","","","","Mostly Cloudy"
"1986-08-11 11:00","1986","08","11","11:00","18.2","","8.9","","54","","29","","26","","40.2","","99.37","","","","","","Mostly Cloudy"
"1986-08-11 12:00","1986","08","11","12:00","16.8","","10.5","","67","","30","","15","","40.2","","99.51","","","","","","Rain Showers"
"1986-08-11 13:00","1986","08","11","13:00","18.0","","10.5","","62","","31","","22","","40.2","","99.57","","","","","","Mostly Cloudy"
"1986-08-11 14:00","1986","08","11","14:00","19.9","","8.5","","48","","31","","19","","40.2","","99.57","","","","","","Mostly Cloudy"
"1986-08-11 15:00","1986","08","11","15:00","19.6","","5.9","","41","","31","","22","","40.2","","99.57","","","","","","Mainly Clear"
"1986-08-11 16:00","1986","08","11","16:00","19.4","","4.9","","39","","29","","24","","40.2","","99.61","","","","","","Mainly Clear"
"1986-08-11 17:00","1986","08","11","17:00","19.5","","4.9","","38","","30","","22","","40.2","","99.64","","","","","","Mainly Clear"
"1986-08-11 18:00","1986","08","11","18:00","18.7","","4.5","","39","","29","","22","","40.2","","99.67","","","","","","Mainly Clear"
"1986-08-11 19:00","1986","08","11","19:00","17.6","","4.0","","40","","30","","15","","40.2","","99.74","","","","","","Mainly Clear"
"1986-08-11 20:00","1986","08","11","20:00","13.2","","6.2","","63","","29","","9","","25.0","","99.81","","","","","","Mainly Clear"
"1986-08-11 21:00","1986","08","11","21:00","12.3","","6.9","","70","","27","","7","","25.0","","99.87","","","","","","Clear"
"1986-08-11 22:00","1986","08","11","22:00","12.2","","6.3","","67","","27","","7","","25.0","","99.91","","","","","","Clear"
"1986-08-11 23:00","1986","08","11","23:00","11.6","","6.5","","71","","25","","7","","25.0","","99.94","","","","","","Clear"
"1986-08-12 00:00","1986","08","12","00:00","10.0","","6.9","","81","","28","","7","","25.0","","99.97","","","","","","Clear"
"1986-08-12 01:00","1986","08","12","01:00","10.4","","7.1","","80","","26","","7","","25.0","","100.01","","","","","","Clear"
"1986-08-12 02:00","1986","08","12","02:00","10.0","","6.5","","79","","27","","7","","25.0","","100.01","","","","","","Clear"
"1986-08-12 03:00","1986","08","12","03:00","10.6","","6.7","","77","","27","","11","","25.0","","100.01","","","","","","Mainly Clear"
"1986-08-12 04:00","1986","08","12","04:00","9.8","","7.4","","85","","27","","7","","25.0","","100.04","","","","","","Mainly Clear"
"1986-08-12 05:00","1986","08","12","05:00","10.2","","6.9","","80","","27","","6","","25.0","","100.11","","","","","","Mainly Clear"
"1986-08-12 06:00","1986","08","12","06:00","9.5","","7.2","","86","","30","","7","","40.2","","100.17","","","","","","Mainly Clear"
"1986-08-12 07:00","1986","08","12","07:00","12.7","","7.7","","72","","29","","7","","40.2","","100.21","","","","","","Mostly Cloudy"
"1986-08-12 08:00","1986","08","12","08:00","16.6","","9.5","","63","","29","","9","","40.2","","100.24","","","","","","Mainly Clear"
"1986-08-12 09:00","1986","08","12","09:00","19.0","","9.3","","53","","30","","15","","40.2","","100.27","","","","","","Mainly Clear"
"1986-08-12 10:00","1986","08","12","10:00","19.9","","5.7","","40","","32","","20","","40.2","","100.27","","","","","","Mainly Clear"
"1986-08-12 11:00","1986","08","12","11:00","19.4","","7.4","","46","","27","","13","","40.2","","100.27","","","","","","Mainly Clear"
"1986-08-12 12:00","1986","08","12","12:00","20.8","","8.9","","47","","30","","15","","40.2","","100.24","","","","","","Mainly Clear"
"1986-08-12 13:00","1986","08","12","13:00","20.7","","8.7","","46","","30","","13","","40.2","","100.24","","","","","","Mostly Cloudy"
"1986-08-12 14:00","1986","08","12","14:00","21.7","","9.2","","45","","29","","17","","40.2","","100.21","","","","","","Mostly Cloudy"
"1986-08-12 15:00","1986","08","12","15:00","21.3","","9.2","","46","","30","","9","","40.2","","100.21","","","","","","Mostly Cloudy"
"1986-08-12 16:00","1986","08","12","16:00","21.7","","9.6","","46","","30","","6","","40.2","","100.21","","","","","","Mostly Cloudy"
"1986-08-12 17:00","1986","08","12","17:00","20.0","","12.1","","60","","25","","7","","40.2","","100.17","","","","","","Mostly Cloudy"
"1986-08-12 18:00","1986","08","12","18:00","21.2","","11.0","","52","","28","","9","","40.2","","100.17","","","","","","Mostly Cloudy"
"1986-08-12 19:00","1986","08","12","19:00","20.0","","11.8","","59","","28","","4","","40.2","","100.21","","","","","","Mostly Cloudy"
"1986-08-12 20:00","1986","08","12","20:00","17.2","","10.5","","65","","33","","7","","25.0","","100.24","","","","","","Mainly Clear"
"1986-08-12 21:00","1986","08","12","21:00","15.0","","10.1","","73","","34","","6","","25.0","","100.27","","","","","","Mainly Clear"
"1986-08-12 22:00","1986","08","12","22:00","13.2","","10.2","","82","","34","","6","","25.0","","100.27","","","","","","Mainly Clear"
"1986-08-12 23:00","1986","08","12","23:00","12.7","","10.4","","86","","34","","9","","25.0","","100.27","","","","","","Mainly Clear"
"1986-08-13 00:00","1986","08","13","00:00","11.8","","9.9","","88","","34","","6","","25.0","","100.31","","","","","","Clear"
"1986-08-13 01:00","1986","08","13","01:00","12.3","","10.4","","88","","34","","7","","25.0","","100.31","","","","","","Clear"
"1986-08-13 02:00","1986","08","13","02:00","10.6","","8.7","","88","","32","","4","","25.0","","100.27","","","","","","Clear"
"1986-08-13 03:00","1986","08","13","03:00","9.8","","8.9","","94","","34","","6","","25.0","","100.27","","","","","","Clear"
"1986-08-13 04:00","1986","08","13","04:00","8.9","","7.9","","93","","34","","6","","25.0","","100.27","","","","","","Clear"
"1986-08-13 05:00","1986","08","13","05:00","8.5","","7.4","","93","","35","","4","","25.0","","100.31","","","","","","Mainly Clear"
"1986-08-13 06:00","1986","08","13","06:00","10.3","","9.0","","92","","36","","4","","40.2","","100.37","","","","","","Mainly Clear"
"1986-08-13 07:00","1986","08","13","07:00","12.2","","10.2","","88","","","","0","","32.2","","100.41","","","","","","Mainly Clear"
"1986-08-13 08:00","1986","08","13","08:00","17.3","","11.8","","70","","","","0","","24.1","","100.37","","","","","","Clear"
"1986-08-13 09:00","1986","08","13","09:00","20.0","","11.4","","58","","17","","4","","32.2","","100.37","","","","","","Clear"
"1986-08-13 10:00","1986","08","13","10:00","21.2","","11.0","","52","","13","","9","","32.2","","100.34","","","","","","Clear"
"1986-08-13 11:00","1986","08","13","11:00","22.7","","11.3","","48","","13","","11","","32.2","","100.34","","25","","","","Mainly Clear"
"1986-08-13 12:00","1986","08","13","12:00","22.3","","10.5","","47","","16","","13","","32.2","","100.31","","","","","","Mainly Clear"
"1986-08-13 13:00","1986","08","13","13:00","23.2","","10.8","","45","","16","","13","","40.2","","100.31","","25","","","","Mainly Clear"
"1986-08-13 14:00","1986","08","13","14:00","22.3","","9.7","","45","","14","","13","","40.2","","100.24","","","","","","Mainly Clear"
"1986-08-13 15:00","1986","08","13","15:00","22.9","","10.3","","45","","14","","9","","40.2","","100.17","","","","","","Mainly Clear"
"1986-08-13 16:00","1986","08","13","16:00","22.9","","8.1","","39","","14","","9","","40.2","","100.14","","","","","","Mainly Clear"
"1986-08-13 17:00","1986","08","13","17:00","23.7","","9.3","","40","","17","","4","","32.2","","100.11","","25","","","","Clear"
"1986-08-13 18:00","1986","08","13","18:00","22.9","","10.8","","46","","14","","9","","32.2","","100.07","","25","","","","Mainly Clear"
"1986-08-13 19:00","1986","08","13","19:00","21.1","","9.8","","48","","14","","7","","32.2","","100.04","","","","","","Mainly Clear"
"1986-08-13 20:00","1986","08","13","20:00","18.1","","9.3","","56","","14","","6","","24.1","","100.04","","","","","","Mainly Clear"
"1986-08-13 21:00","1986","08","13","21:00","18.2","","11.7","","66","","14","","7","","24.1","","100.07","","","","","","Mainly Clear"
"1986-08-13 22:00","1986","08","13","22:00","18.2","","12.0","","67","","13","","7","","24.1","","100.04","","","","","","Mainly Clear"
"1986-08-13 23:00","1986","08","13","23:00","18.1","","12.4","","69","","11","","6","","25.0","","100.01","","","","","","Mainly Clear"
"1986-08-14 00:00","1986","08","14","00:00","14.7","","10.7","","77","","","","0","","25.0","","99.97","","","","","","Mainly Clear"
"1986-08-14 01:00","1986","08","14","01:00","12.4","","10.4","","88","","34","","6","","25.0","","99.94","","","","","","Mainly Clear"
"1986-08-14 02:00","1986","08","14","02:00","12.7","","10.8","","88","","33","","4","","24.1","","99.94","","","","","","Mainly Clear"
"1986-08-14 03:00","1986","08","14","03:00","12.9","","11.6","","92","","","","0","","16.1","","99.87","","","","","","Mostly Cloudy"
"1986-08-14 04:00","1986","08","14","04:00","12.0","","10.6","","91","","","","0","","12.9","","99.84","","","","","","Mostly Cloudy"
"1986-08-14 05:00","1986","08","14","05:00","12.5","","11.1","","91","","2","","4","","8.0","","99.81","","","","","","Fog"
"1986-08-14 06:00","1986","08","14","06:00","12.9","","12.0","","94","","","","0","","8.0","","99.81","","","","","","Fog"
"1986-08-14 07:00","1986","08","14","07:00","16.1","","14.4","","90","","","","0","","8.0","","99.81","","","","","","Fog"
"1986-08-14 08:00","1986","08","14","08:00","19.2","","16.6","","85","","11","","7","","8.0","","99.81","","","","","","Fog"
"1986-08-14 09:00","1986","08","14","09:00","20.8","","17.4","","81","","16","","7","","8.0","","99.81","","26","","","","Haze"
"1986-08-14 10:00","1986","08","14","10:00","22.4","","16.8","","71","","14","","17","","9.7","","99.74","","28","","","","Haze"
"1986-08-14 11:00","1986","08","14","11:00","24.1","","17.8","","68","","16","","13","","9.7","","99.71","","30","","","","Haze"
"1986-08-14 12:00","1986","08","14","12:00","23.4","","17.6","","70","","15","","13","","9.7","","99.64","","29","","","","Haze"
"1986-08-14 13:00","1986","08","14","13:00","24.2","","17.8","","67","","14","","17","","9.7","","99.57","","30","","","","Haze"
"1986-08-14 14:00","1986","08","14","14:00","24.5","","17.0","","63","","16","","15","","11.3","","99.51","","30","","","","Cloudy"
"1986-08-14 15:00","1986","08","14","15:00","23.7","","17.6","","69","","16","","13","","9.7","","99.51","","29","","","","Haze"
"1986-08-14 16:00","1986","08","14","16:00","22.9","","17.6","","72","","14","","17","","9.7","","99.44","","29","","","","Haze"
"1986-08-14 17:00","1986","08","14","17:00","22.2","","17.5","","75","","14","","15","","9.7","","99.41","","28","","","","Haze"
"1986-08-14 18:00","1986","08","14","18:00","22.1","","16.9","","72","","14","","15","","9.7","","99.37","","27","","","","Haze"
"1986-08-14 19:00","1986","08","14","19:00","21.4","","17.9","","80","","14","","7","","9.7","","99.37","","27","","","","Haze"
"1986-08-14 20:00","1986","08","14","20:00","20.8","","18.3","","86","","14","","9","","8.0","","99.34","","27","","","","Haze"
"1986-08-14 21:00","1986","08","14","21:00","20.3","","18.4","","89","","15","","7","","8.0","","99.31","","27","","","","Fog,Haze"
"1986-08-14 22:00","1986","08","14","22:00","20.6","","18.7","","89","","16","","7","","8.0","","99.27","","27","","","","Fog"
"1986-08-14 23:00","1986","08","14","23:00","20.8","","19.2","","91","","18","","9","","6.4","","99.21","","28","","","","Fog"
"1986-08-15 00:00","1986","08","15","00:00","20.0","","18.2","","90","","20","","6","","4.8","","99.21","","26","","","","Fog"
"1986-08-15 01:00","1986","08","15","01:00","20.7","","18.4","","87","","18","","6","","4.8","","99.21","","27","","","","Fog"
"1986-08-15 02:00","1986","08","15","02:00","20.3","","18.7","","91","","15","","7","","4.8","","99.14","","27","","","","Fog"
"1986-08-15 03:00","1986","08","15","03:00","20.6","","18.7","","89","","18","","7","","4.8","","99.11","","27","","","","Fog"
"1986-08-15 04:00","1986","08","15","04:00","21.2","","19.2","","88","","26","","6","","6.4","","99.14","","28","","","","Fog"
"1986-08-15 05:00","1986","08","15","05:00","21.0","","19.8","","93","","28","","11","","4.0","","99.24","","28","","","","Rain Showers,Fog"
"1986-08-15 06:00","1986","08","15","06:00","20.4","","19.0","","92","","33","","9","","4.0","","99.17","","27","","","","Thunderstorms,Heavy Rain Showers,Fog"
"1986-08-15 07:00","1986","08","15","07:00","20.2","","18.5","","90","","14","","4","","4.0","","99.14","","27","","","","Thunderstorms,Rain Showers,Fog"
"1986-08-15 08:00","1986","08","15","08:00","21.4","","20.1","","92","","17","","7","","4.0","","99.14","","29","","","","Fog"
"1986-08-15 09:00","1986","08","15","09:00","23.4","","21.5","","89","","18","","17","","4.8","","99.14","","32","","","","Fog"
"1986-08-15 10:00","1986","08","15","10:00","24.4","","21.7","","85","","21","","11","","6.4","","99.07","","33","","","","Fog"
"1986-08-15 11:00","1986","08","15","11:00","25.5","","22.2","","82","","21","","17","","6.4","","99.01","","35","","","","Haze"
"1986-08-15 12:00","1986","08","15","12:00","26.4","","21.2","","73","","22","","17","","8.0","","98.94","","35","","","","Haze"
"1986-08-15 13:00","1986","08","15","13:00","27.8","","23.4","","77","","19","","28","","8.0","","98.81","","38","","","","Haze"
"1986-08-15 14:00","1986","08","15","14:00","27.9","","22.2","","71","","22","","26","","8.0","","98.74","","37","","","","Haze"
"1986-08-15 15:00","1986","08","15","15:00","26.4","","21.5","","75","","33","","28","","4.8","","98.84","","35","","","","Thunderstorms,Moderate Rain Showers,Haze"
"1986-08-15 16:00","1986","08","15","16:00","20.1","","18.8","","92","","17","","4","","4.8","","98.94","","27","","","","Thunderstorms,Rain Showers,Fog"
"1986-08-15 17:00","1986","08","15","17:00","21.2","","18.9","","87","","14","","4","","16.1","","98.81","","28","","","","Rain Showers"
"1986-08-15 18:00","1986","08","15","18:00","21.8","","20.0","","90","","15","","7","","12.9","","98.91","","29","","","","Mostly Cloudy"
"1986-08-15 19:00","1986","08","15","19:00","21.4","","20.1","","92","","23","","13","","2.4","","98.91","","29","","","","Thunderstorms,Heavy Rain Showers,Fog"
"1986-08-15 20:00","1986","08","15","20:00","21.1","","19.8","","92","","31","","15","","4.8","","98.97","","29","","","","Heavy Thunderstorms,Heavy Rain Showers,Fog"
"1986-08-15 21:00","1986","08","15","21:00","20.7","","19.0","","90","","23","","6","","12.9","","99.01","","27","","","","Cloudy"
"1986-08-15 22:00","1986","08","15","22:00","20.9","","19.2","","90","","","","0","","9.7","","98.94","","28","","","","Fog"
"1986-08-15 23:00","1986","08","15","23:00","20.7","","19.0","","90","","","","0","","8.0","","98.94","","27","","","","Fog"
"1986-08-16 00:00","1986","08","16","00:00","20.3","","19.6","","96","","","","0","","6.4","","98.94","","28","","","","Fog"
"1986-08-16 01:00","1986","08","16","01:00","19.9","","18.8","","93","","","","0","","6.4","","98.94","","","","","","Fog"
"1986-08-16 02:00","1986","08","16","02:00","19.2","","17.8","","91","","23","","4","","6.4","","98.94","","","","","","Fog"
"1986-08-16 03:00","1986","08","16","03:00","19.1","","17.8","","92","","","","0","","8.0","","98.94","","","","","","Fog"
"1986-08-16 04:00","1986","08","16","04:00","18.8","","17.8","","94","","","","0","","6.4","","99.01","","","","","","Fog"
"1986-08-16 05:00","1986","08","16","05:00","18.8","","17.8","","94","","33","","4","","6.4","","99.01","","","","","","Fog"
"1986-08-16 06:00","1986","08","16","06:00","19.4","","18.3","","93","","31","","7","","4.8","","99.01","","","","","","Fog"
"1986-08-16 07:00","1986","08","16","07:00","20.2","","18.5","","90","","31","","9","","8.0","","99.04","","27","","","","Fog"
"1986-08-16 08:00","1986","08","16","08:00","20.8","","18.9","","89","","31","","9","","8.0","","99.11","","27","","","","Fog"
"1986-08-16 09:00","1986","08","16","09:00","21.7","","19.5","","87","","28","","4","","8.0","","99.14","","29","","","","Haze"
"1986-08-16 10:00","1986","08","16","10:00","22.7","","18.4","","77","","","","0","","9.7","","99.14","","29","","","","Haze"
"1986-08-16 11:00","1986","08","16","11:00","24.2","","19.7","","76","","26","","7","","11.3","","99.17","","32","","","","Mostly Cloudy"
"1986-08-16 12:00","1986","08","16","12:00","24.9","","19.8","","73","","","","0","","19.3","","99.14","","32","","","","Mainly Clear"
"1986-08-16 13:00","1986","08","16","13:00","24.9","","19.2","","71","","","","0","","19.3","","99.11","","32","","","","Mainly Clear"
"1986-08-16 14:00","1986","08","16","14:00","26.0","","19.1","","66","","","","0","","24.1","","99.11","","33","","","","Mainly Clear"
"1986-08-16 15:00","1986","08","16","15:00","27.5","","17.5","","55","","22","","7","","32.2","","99.07","","33","","","","Mostly Cloudy"
"1986-08-16 16:00","1986","08","16","16:00","26.7","","18.7","","62","","10","","11","","32.2","","99.07","","33","","","","Mostly Cloudy"
"1986-08-16 17:00","1986","08","16","17:00","25.4","","19.5","","70","","14","","4","","24.1","","99.04","","33","","","","Mostly Cloudy"
"1986-08-16 18:00","1986","08","16","18:00","26.0","","19.1","","66","","13","","6","","24.1","","99.07","","33","","","","Mainly Clear"
"1986-08-16 19:00","1986","08","16","19:00","24.4","","19.0","","72","","12","","11","","16.1","","99.11","","31","","","","Mainly Clear"
"1986-08-16 20:00","1986","08","16","20:00","22.5","","19.3","","82","","13","","7","","9.7","","99.14","","30","","","","Haze"
"1986-08-16 21:00","1986","08","16","21:00","22.4","","18.7","","80","","11","","6","","12.9","","99.17","","29","","","","Mainly Clear"
"1986-08-16 22:00","1986","08","16","22:00","22.1","","18.8","","81","","13","","6","","11.3","","99.17","","29","","","","Clear"
"1986-08-16 23:00","1986","08","16","23:00","20.0","","18.5","","91","","","","0","","8.0","","99.21","","26","","","","Fog"
"1986-08-17 00:00","1986","08","17","00:00","19.0","","18.1","","95","","30","","6","","8.0","","99.24","","","","","","Fog"
"1986-08-17 01:00","1986","08","17","01:00","18.8","","17.8","","94","","34","","7","","8.0","","99.31","","","","","","Fog"
"1986-08-17 02:00","1986","08","17","02:00","18.0","","17.1","","95","","33","","4","","3.2","","99.27","","","","","","Fog"
"1986-08-17 03:00","1986","08","17","03:00","17.2","","16.4","","95","","33","","4","","4.0","","99.24","","","","","","Fog"
"1986-08-17 04:00","1986","08","17","04:00","17.6","","15.6","","88","","34","","4","","6.4","","99.24","","","","","","Fog"
"1986-08-17 05:00","1986","08","17","05:00","17.4","","15.6","","89","","34","","4","","6.4","","99.24","","","","","","Fog"
"1986-08-17 06:00","1986","08","17","06:00","17.0","","16.1","","95","","34","","6","","6.4","","99.24","","","","","","Fog"
"1986-08-17 07:00","1986","08","17","07:00","19.2","","17.2","","88","","32","","6","","12.9","","99.31","","","","","","Clear"
"1986-08-17 08:00","1986","08","17","08:00","21.2","","18.0","","82","","","","0","","12.9","","99.31","","27","","","","Clear"
"1986-08-17 09:00","1986","08","17","09:00","23.9","","18.1","","70","","","","0","","12.9","","99.37","","30","","","","Clear"
"1986-08-17 10:00","1986","08","17","10:00","25.4","","19.5","","70","","","","0","","12.9","","99.41","","33","","","","Clear"
"1986-08-17 11:00","1986","08","17","11:00","26.1","","18.7","","64","","27","","7","","12.9","","99.41","","33","","","","Mainly Clear"
"1986-08-17 12:00","1986","08","17","12:00","27.1","","18.3","","59","","31","","6","","32.2","","99.41","","33","","","","Mainly Clear"
"1986-08-17 13:00","1986","08","17","13:00","28.2","","18.8","","57","","32","","9","","32.2","","99.41","","35","","","","Mainly Clear"
"1986-08-17 14:00","1986","08","17","14:00","28.2","","19.1","","58","","34","","13","","40.2","","99.34","","35","","","","Mainly Clear"
"1986-08-17 15:00","1986","08","17","15:00","28.1","","17.8","","54","","32","","15","","40.2","","99.34","","34","","","","Mainly Clear"
"1986-08-17 16:00","1986","08","17","16:00","28.6","","18.3","","54","","35","","13","","40.2","","99.31","","35","","","","Clear"
"1986-08-17 17:00","1986","08","17","17:00","28.9","","18.9","","55","","1","","15","","40.2","","99.31","","36","","","","Clear"
"1986-08-17 18:00","1986","08","17","18:00","28.0","","16.7","","50","","36","","13","","40.2","","99.31","","33","","","","Mainly Clear"
"1986-08-17 19:00","1986","08","17","19:00","25.8","","17.8","","61","","36","","4","","40.2","","99.34","","32","","","","Mainly Clear"
"1986-08-17 20:00","1986","08","17","20:00","24.0","","18.4","","71","","36","","9","","25.0","","99.41","","30","","","","Mainly Clear"
"1986-08-17 21:00","1986","08","17","21:00","22.6","","19.3","","82","","34","","22","","25.0","","99.51","","30","","","","Mainly Clear"
"1986-08-17 22:00","1986","08","17","22:00","21.5","","18.6","","84","","35","","19","","25.0","","99.51","","28","","","","Mainly Clear"
"1986-08-17 23:00","1986","08","17","23:00","20.5","","18.1","","86","","35","","17","","25.0","","99.51","","27","","","","Mainly Clear"
"1986-08-18 00:00","1986","08","18","00:00","20.0","","17.9","","88","","36","","7","","19.3","","99.51","","26","","","","Mainly Clear"
"1986-08-18 01:00","1986","08","18","01:00","19.5","","18.0","","91","","34","","15","","19.3","","99.47","","","","","","Mainly Clear"
"1986-08-18 02:00","1986","08","18","02:00","19.5","","18.0","","91","","34","","15","","19.3","","99.47","","","","","","Clear"
"1986-08-18 03:00","1986","08","18","03:00","19.5","","18.0","","91","","34","","13","","16.1","","99.47","","","","","","Clear"
"1986-08-18 04:00","1986","08","18","04:00","19.4","","18.0","","92","","36","","15","","16.1","","99.51","","","","","","Clear"
"1986-08-18 05:00","1986","08","18","05:00","19.0","","17.8","","93","","35","","17","","16.1","","99.54","","","","","","Mainly Clear"
"1986-08-18 06:00","1986","08","18","06:00","19.2","","17.2","","88","","35","","20","","24.1","","99.64","","","","","","Mainly Clear"
"1986-08-18 07:00","1986","08","18","07:00","19.6","","16.1","","80","","36","","20","","32.2","","99.67","","","","","","Mainly Clear"
"1986-08-18 08:00","1986","08","18","08:00","21.2","","15.8","","71","","36","","17","","40.2","","99.71","","26","","","","Mainly Clear"
"1986-08-18 09:00","1986","08","18","09:00","22.8","","17.3","","71","","36","","13","","40.2","","99.74","","28","","","","Clear"
"1986-08-18 10:00","1986","08","18","10:00","24.5","","16.4","","61","","2","","19","","40.2","","99.77","","29","","","","Clear"
"1986-08-18 11:00","1986","08","18","11:00","25.8","","16.4","","56","","2","","11","","40.2","","99.77","","31","","","","Clear"
"1986-08-18 12:00","1986","08","18","12:00","26.0","","15.3","","52","","4","","22","","40.2","","99.77","","30","","","","Mainly Clear"
"1986-08-18 13:00","1986","08","18","13:00","26.3","","17.0","","57","","1","","17","","40.2","","99.77","","32","","","","Mainly Clear"
"1986-08-18 14:00","1986","08","18","14:00","26.6","","17.7","","58","","36","","19","","40.2","","99.71","","32","","","","Mainly Clear"
"1986-08-18 15:00","1986","08","18","15:00","26.4","","17.3","","57","","2","","17","","40.2","","99.67","","32","","","","Mainly Clear"
"1986-08-18 16:00","1986","08","18","16:00","26.5","","17.0","","56","","2","","24","","40.2","","99.67","","32","","","","Mainly Clear"
"1986-08-18 17:00","1986","08","18","17:00","26.6","","15.9","","52","","2","","24","","40.2","","99.71","","31","","","","Mainly Clear"
"1986-08-18 18:00","1986","08","18","18:00","24.9","","16.9","","61","","16","","7","","40.2","","99.74","","30","","","","Mostly Cloudy"
"1986-08-18 19:00","1986","08","18","19:00","24.0","","15.8","","60","","35","","15","","40.2","","99.77","","28","","","","Mostly Cloudy"
"1986-08-18 20:00","1986","08","18","20:00","21.3","","15.7","","71","","34","","17","","25.0","","99.84","","26","","","","Mostly Cloudy"
"1986-08-18 21:00","1986","08","18","21:00","19.9","","15.0","","73","","34","","15","","25.0","","99.91","","","","","","Mostly Cloudy"
"1986-08-18 22:00","1986","08","18","22:00","18.6","","14.7","","78","","36","","15","","25.0","","99.94","","","","","","Mostly Cloudy"
"1986-08-18 23:00","1986","08","18","23:00","18.1","","14.5","","79","","36","","15","","25.0","","99.97","","","","","","Mainly Clear"
"1986-08-19 00:00","1986","08","19","00:00","17.8","","14.5","","81","","36","","7","","25.0","","100.01","","","","","","Mainly Clear"
"1986-08-19 01:00","1986","08","19","01:00","15.3","","13.9","","91","","35","","11","","25.0","","100.01","","","","","","Mainly Clear"
"1986-08-19 02:00","1986","08","19","02:00","15.5","","13.2","","86","","34","","11","","25.0","","100.01","","","","","","Mostly Cloudy"
"1986-08-19 03:00","1986","08","19","03:00","14.3","","12.8","","91","","35","","7","","25.0","","100.01","","","","","","Mainly Clear"
"1986-08-19 04:00","1986","08","19","04:00","13.5","","11.8","","89","","33","","7","","25.0","","100.01","","","","","","Mostly Cloudy"
"1986-08-19 05:00","1986","08","19","05:00","12.6","","10.8","","89","","33","","7","","25.0","","100.04","","","","","","Mainly Clear"
"1986-08-19 06:00","1986","08","19","06:00","12.8","","10.9","","88","","34","","11","","32.2","","100.04","","","","","","Mainly Clear"
"1986-08-19 07:00","1986","08","19","07:00","15.3","","11.8","","80","","35","","9","","40.2","","100.11","","","","","","Mostly Cloudy"
"1986-08-19 08:00","1986","08","19","08:00","17.4","","12.2","","72","","34","","11","","40.2","","100.11","","","","","","Mostly Cloudy"
"1986-08-19 09:00","1986","08","19","09:00","18.7","","11.9","","65","","35","","9","","40.2","","100.11","","","","","","Mostly Cloudy"
"1986-08-19 10:00","1986","08","19","10:00","21.2","","13.7","","62","","36","","6","","40.2","","100.17","","","","","","Mostly Cloudy"
"1986-08-19 11:00","1986","08","19","11:00","21.7","","12.8","","57","","1","","6","","40.2","","100.17","","","","","","Mostly Cloudy"
"1986-08-19 12:00","1986","08","19","12:00","22.4","","13.3","","56","","","","0","","40.2","","100.14","","25","","","","Mostly Cloudy"
"1986-08-19 13:00","1986","08","19","13:00","23.3","","14.5","","58","","5","","11","","40.2","","100.11","","27","","","","Mostly Cloudy"
"1986-08-19 14:00","1986","08","19","14:00","23.9","","14.4","","55","","12","","4","","32.2","","100.04","","28","","","","Mostly Cloudy"
"1986-08-19 15:00","1986","08","19","15:00","24.1","","14.4","","55","","12","","15","","32.2","","100.01","","28","","","","Mostly Cloudy"
"1986-08-19 16:00","1986","08","19","16:00","24.3","","13.5","","51","","16","","11","","32.2","","100.01","","27","","","","Mostly Cloudy"
"1986-08-19 17:00","1986","08","19","17:00","23.7","","12.2","","49","","13","","13","","32.2","","100.04","","26","","","","Mainly Clear"
"1986-08-19 18:00","1986","08","19","18:00","22.9","","12.4","","52","","14","","15","","32.2","","100.04","","25","","","","Mainly Clear"
"1986-08-19 19:00","1986","08","19","19:00","21.8","","12.3","","55","","13","","11","","32.2","","100.04","","","","","","Mainly Clear"
"1986-08-19 20:00","1986","08","19","20:00","20.5","","12.7","","61","","12","","7","","25.0","","100.07","","","","","","Mainly Clear"
"1986-08-19 21:00","1986","08","19","21:00","20.2","","12.9","","63","","12","","4","","25.0","","100.11","","","","","","Mainly Clear"
"1986-08-19 22:00","1986","08","19","22:00","17.8","","11.7","","68","","31","","6","","25.0","","100.14","","","","","","Mainly Clear"
"1986-08-19 23:00","1986","08","19","23:00","17.5","","12.6","","73","","2","","4","","25.0","","100.17","","","","","","Clear"
"1986-08-20 00:00","1986","08","20","00:00","15.0","","12.3","","84","","34","","7","","25.0","","100.17","","","","","","Clear"
"1986-08-20 01:00","1986","08","20","01:00","13.7","","12.2","","91","","34","","7","","25.0","","100.17","","","","","","Clear"
"1986-08-20 02:00","1986","08","20","02:00","14.0","","10.5","","79","","34","","4","","25.0","","100.14","","","","","","Clear"
"1986-08-20 03:00","1986","08","20","03:00","13.0","","11.6","","91","","32","","6","","25.0","","100.17","","","","","","Clear"
"1986-08-20 04:00","1986","08","20","04:00","12.5","","11.1","","91","","35","","7","","25.0","","100.14","","","","","","Clear"
"1986-08-20 05:00","1986","08","20","05:00","12.3","","11.1","","93","","34","","7","","25.0","","100.11","","","","","","Clear"
"1986-08-20 06:00","1986","08","20","06:00","13.0","","11.3","","89","","34","","7","","32.2","","100.14","","","","","","Mainly Clear"
"1986-08-20 07:00","1986","08","20","07:00","15.4","","12.9","","85","","35","","4","","32.2","","100.17","","","","","","Mainly Clear"
"1986-08-20 08:00","1986","08","20","08:00","18.9","","13.9","","73","","3","","9","","32.2","","100.17","","","","","","Mainly Clear"
"1986-08-20 09:00","1986","08","20","09:00","21.6","","13.9","","62","","6","","7","","24.1","","100.21","","25","","","","Mainly Clear"
"1986-08-20 10:00","1986","08","20","10:00","22.6","","13.6","","57","","4","","4","","32.2","","100.21","","26","","","","Mainly Clear"
"1986-08-20 11:00","1986","08","20","11:00","24.2","","14.4","","54","","11","","6","","32.2","","100.17","","28","","","","Mainly Clear"
"1986-08-20 12:00","1986","08","20","12:00","24.6","","15.0","","55","","15","","13","","32.2","","100.11","","29","","","","Mainly Clear"
"1986-08-20 13:00","1986","08","20","13:00","24.5","","16.7","","62","","14","","17","","24.1","","100.07","","30","","","","Mainly Clear"
"1986-08-20 14:00","1986","08","20","14:00","23.7","","14.8","","57","","13","","15","","24.1","","100.01","","28","","","","Mainly Clear"
"1986-08-20 15:00","1986","08","20","15:00","24.8","","16.6","","61","","12","","6","","32.2","","99.97","","30","","","","Mainly Clear"
"1986-08-20 16:00","1986","08","20","16:00","25.2","","15.9","","56","","13","","9","","32.2","","99.94","","30","","","","Mainly Clear"
"1986-08-20 17:00","1986","08","20","17:00","24.7","","16.4","","60","","15","","11","","32.2","","99.97","","30","","","","Mainly Clear"
"1986-08-20 18:00","1986","08","20","18:00","24.4","","18.0","","68","","15","","7","","32.2","","99.97","","30","","","","Mainly Clear"
"1986-08-20 19:00","1986","08","20","19:00","23.0","","18.3","","75","","15","","7","","24.1","","100.01","","29","","","","Mainly Clear"
"1986-08-20 20:00","1986","08","20","20:00","21.9","","17.5","","76","","12","","7","","24.1","","100.01","","28","","","","Mainly Clear"
"1986-08-20 21:00","1986","08","20","21:00","21.2","","17.1","","77","","16","","6","","19.3","","100.01","","27","","","","Mainly Clear"
"1986-08-20 22:00","1986","08","20","22:00","21.2","","17.7","","80","","13","","6","","12.9","","100.01","","27","","","","Mainly Clear"
"1986-08-20 23:00","1986","08","20","23:00","18.6","","17.3","","92","","33","","7","","12.9","","100.01","","","","","","Clear"
"1986-08-21 00:00","1986","08","21","00:00","18.0","","16.5","","91","","34","","6","","12.9","","100.01","","","","","","Mainly Clear"
"1986-08-21 01:00","1986","08","21","01:00","18.7","","17.0","","90","","","","0","","12.9","","99.97","","","","","","Mainly Clear"
"1986-08-21 02:00","1986","08","21","02:00","17.5","","16.6","","95","","","","0","","11.3","","99.97","","","","","","Mainly Clear"
"1986-08-21 03:00","1986","08","21","03:00","18.1","","16.1","","88","","","","0","","9.7","","99.94","","","","","","Fog"
"1986-08-21 04:00","1986","08","21","04:00","18.2","","16.8","","91","","","","0","","2.0","","99.91","","","","","","Fog"
"1986-08-21 05:00","1986","08","21","05:00","19.0","","19.0","","100","","","","0","","0.2","","99.97","","","","","","Fog"
"1986-08-21 06:00","1986","08","21","06:00","19.5","","19.5","","100","","19","","6","","0.8","","100.01","","","","","","Fog"
"1986-08-21 07:00","1986","08","21","07:00","19.8","","19.1","","96","","23","","4","","2.4","","100.01","","","","","","Fog"
"1986-08-21 08:00","1986","08","21","08:00","19.9","","18.8","","93","","","","0","","4.0","","100.04","","","","","","Fog"
"1986-08-21 09:00","1986","08","21","09:00","20.3","","18.7","","91","","26","","7","","4.0","","100.04","","27","","","","Rain Showers,Fog"
"1986-08-21 10:00","1986","08","21","10:00","20.5","","19.0","","91","","26","","9","","4.0","","100.07","","27","","","","Rain Showers,Fog"
"1986-08-21 11:00","1986","08","21","11:00","20.3","","19.0","","92","","28","","4","","4.0","","100.07","","27","","","","Rain Showers,Fog"
"1986-08-21 12:00","1986","08","21","12:00","22.8","","19.5","","82","","35","","6","","6.4","","100.04","","30","","","","Haze"
"1986-08-21 13:00","1986","08","21","13:00","23.5","","19.4","","78","","36","","9","","12.9","","100.04","","31","","","","Mostly Cloudy"
"1986-08-21 14:00","1986","08","21","14:00","25.6","","17.2","","60","","35","","7","","32.2","","100.01","","31","","","","Mostly Cloudy"
"1986-08-21 15:00","1986","08","21","15:00","25.0","","16.9","","61","","36","","17","","32.2","","99.97","","30","","","","Mostly Cloudy"
"1986-08-21 16:00","1986","08","21","16:00","24.8","","16.9","","62","","2","","15","","40.2","","99.97","","30","","","","Mainly Clear"
"1986-08-21 17:00","1986","08","21","17:00","24.6","","16.7","","62","","2","","17","","40.2","","99.97","","30","","","","Mainly Clear"
"1986-08-21 18:00","1986","08","21","18:00","22.5","","15.4","","64","","36","","24","","40.2","","100.01","","27","","","","Mostly Cloudy"
"1986-08-21 19:00","1986","08","21","19:00","21.5","","16.3","","72","","1","","24","","40.2","","100.04","","26","","","","Mainly Clear"
"1986-08-21 20:00","1986","08","21","20:00","19.4","","16.4","","83","","35","","19","","25.0","","100.11","","","","","","Mainly Clear"
"1986-08-21 21:00","1986","08","21","21:00","18.6","","16.0","","85","","35","","19","","25.0","","100.17","","","","","","Mainly Clear"
"1986-08-21 22:00","1986","08","21","22:00","17.8","","16.1","","90","","35","","17","","25.0","","100.21","","","","","","Clear"
"1986-08-21 23:00","1986","08","21","23:00","17.6","","15.3","","86","","35","","11","","16.1","","100.27","","","","","","Clear"
"1986-08-22 00:00","1986","08","22","00:00","16.7","","14.6","","87","","1","","11","","16.1","","100.34","","","","","","Clear"
"1986-08-22 01:00","1986","08","22","01:00","16.0","","13.4","","85","","2","","11","","16.1","","100.37","","","","","","Clear"
"1986-08-22 02:00","1986","08","22","02:00","16.0","","13.4","","85","","36","","9","","16.1","","100.44","","","","","","Clear"
"1986-08-22 03:00","1986","08","22","03:00","14.4","","11.8","","84","","36","","7","","24.1","","100.47","","","","","","Clear"
"1986-08-22 04:00","1986","08","22","04:00","13.6","","10.7","","83","","3","","6","","24.1","","100.47","","","","","","Clear"
"1986-08-22 05:00","1986","08","22","05:00","12.7","","10.4","","86","","1","","7","","25.0","","100.51","","","","","","Clear"
"1986-08-22 06:00","1986","08","22","06:00","11.4","","9.7","","89","","35","","7","","32.2","","100.57","","","","","","Mainly Clear"
"1986-08-22 07:00","1986","08","22","07:00","13.8","","10.9","","83","","36","","7","","32.2","","100.61","","","","","","Mostly Cloudy"
"1986-08-22 08:00","1986","08","22","08:00","16.3","","10.3","","68","","5","","17","","40.2","","100.57","","","","","","Mostly Cloudy"
"1986-08-22 09:00","1986","08","22","09:00","17.9","","10.1","","60","","10","","13","","40.2","","100.57","","","","","","Mostly Cloudy"
"1986-08-22 10:00","1986","08","22","10:00","19.0","","10.9","","59","","10","","9","","40.2","","100.57","","","","","","Mostly Cloudy"
"1986-08-22 11:00","1986","08","22","11:00","18.8","","10.5","","59","","10","","11","","40.2","","100.54","","","","","","Mostly Cloudy"
"1986-08-22 12:00","1986","08","22","12:00","19.9","","10.2","","54","","14","","15","","40.2","","100.51","","","","","","Mostly Cloudy"
"1986-08-22 13:00","1986","08","22","13:00","19.2","","9.3","","53","","12","","17","","40.2","","100.47","","","","","","Mostly Cloudy"
"1986-08-22 14:00","1986","08","22","14:00","19.7","","9.1","","50","","13","","13","","40.2","","100.41","","","","","","Mainly Clear"
"1986-08-22 15:00","1986","08","22","15:00","19.7","","9.1","","50","","13","","11","","40.2","","100.37","","","","","","Mostly Cloudy"
"1986-08-22 16:00","1986","08","22","16:00","20.4","","10.4","","53","","14","","15","","40.2","","100.27","","","","","","Mainly Clear"
"1986-08-22 17:00","1986","08","22","17:00","20.4","","10.4","","53","","9","","9","","40.2","","100.21","","","","","","Mostly Cloudy"
"1986-08-22 18:00","1986","08","22","18:00","19.0","","7.1","","46","","15","","13","","40.2","","100.17","","","","","","Mostly Cloudy"
"1986-08-22 19:00","1986","08","22","19:00","18.8","","7.6","","48","","10","","13","","40.2","","100.17","","","","","","Mostly Cloudy"
"1986-08-22 20:00","1986","08","22","20:00","18.0","","8.0","","52","","9","","11","","25.0","","100.17","","","","","","Mostly Cloudy"
"1986-08-22 21:00","1986","08","22","21:00","17.4","","8.7","","57","","12","","6","","25.0","","100.11","","","","","","Mostly Cloudy"
"1986-08-22 22:00","1986","08","22","22:00","17.2","","10.9","","66","","12","","9","","25.0","","100.01","","","","","","Mainly Clear"
"1986-08-22 23:00","1986","08","22","23:00","17.7","","11.8","","68","","13","","11","","25.0","","99.94","","","","","","Mostly Cloudy"
"1986-08-23 00:00","1986","08","23","00:00","17.0","","9.7","","62","","14","","9","","25.0","","99.91","","","","","","Mostly Cloudy"
"1986-08-23 01:00","1986","08","23","01:00","17.0","","11.3","","69","","13","","9","","25.0","","99.81","","","","","","Cloudy"
"1986-08-23 02:00","1986","08","23","02:00","17.1","","11.3","","69","","12","","7","","25.0","","99.71","","","","","","Cloudy"
"1986-08-23 03:00","1986","08","23","03:00","17.2","","10.9","","66","","10","","9","","25.0","","99.67","","","","","","Cloudy"
"1986-08-23 04:00","1986","08","23","04:00","17.4","","11.5","","68","","11","","7","","25.0","","99.57","","","","","","Cloudy"
"1986-08-23 05:00","1986","08","23","05:00","17.7","","12.2","","70","","14","","4","","25.0","","99.44","","","","","","Cloudy"
"1986-08-23 06:00","1986","08","23","06:00","17.6","","14.0","","79","","12","","7","","24.1","","99.34","","","","","","Cloudy"
"1986-08-23 07:00","1986","08","23","07:00","18.1","","14.8","","81","","12","","13","","16.1","","99.24","","","","","","Cloudy"
"1986-08-23 08:00","1986","08","23","08:00","18.6","","15.4","","82","","14","","7","","16.1","","99.17","","","","","","Cloudy"
"1986-08-23 09:00","1986","08","23","09:00","18.2","","16.1","","88","","","","0","","3.6","","99.11","","","","","","Thunderstorms,Moderate Rain Showers,Fog"
"1986-08-23 10:00","1986","08","23","10:00","19.4","","18.3","","93","","17","","9","","4.8","","98.94","","","","","","Fog"
"1986-08-23 11:00","1986","08","23","11:00","20.0","","18.8","","93","","20","","7","","4.0","","98.91","","27","","","","Rain Showers,Fog"
"1986-08-23 12:00","1986","08","23","12:00","20.2","","19.1","","93","","17","","9","","2.8","","98.77","","27","","","","Rain Showers,Fog"
"1986-08-23 13:00","1986","08","23","13:00","21.6","","19.2","","86","","23","","26","","4.0","","98.74","","29","","","","Rain Showers,Fog"
"1986-08-23 14:00","1986","08","23","14:00","21.8","","18.8","","83","","25","","22","","9.7","","98.61","","28","","","","Fog"
"1986-08-23 15:00","1986","08","23","15:00","22.8","","19.2","","80","","24","","19","","9.7","","98.51","","30","","","","Haze"
"1986-08-23 16:00","1986","08","23","16:00","22.7","","17.4","","72","","29","","37","","9.7","","98.47","","28","","","","Haze"
"1986-08-23 17:00","1986","08","23","17:00","18.7","","14.0","","74","","31","","39","","40.2","","98.67","","","","","","Mostly Cloudy"
"1986-08-23 18:00","1986","08","23","18:00","17.8","","12.4","","71","","31","","33","","40.2","","98.67","","","","","","Mostly Cloudy"
"1986-08-23 19:00","1986","08","23","19:00","16.7","","11.8","","73","","30","","30","","40.2","","98.74","","","","","","Mostly Cloudy"
"1986-08-23 20:00","1986","08","23","20:00","16.4","","11.4","","72","","31","","33","","25.0","","98.84","","","","","","Mostly Cloudy"
"1986-08-23 21:00","1986","08","23","21:00","15.9","","10.5","","70","","31","","31","","25.0","","98.91","","","","","","Mainly Clear"
"1986-08-23 22:00","1986","08","23","22:00","15.3","","10.3","","72","","31","","26","","25.0","","98.97","","","","","","Mainly Clear"
"1986-08-23 23:00","1986","08","23","23:00","14.1","","8.6","","69","","30","","19","","25.0","","99.04","","","","","","Mainly Clear"
"1986-08-24 00:00","1986","08","24","00:00","14.5","","9.2","","71","","29","","15","","25.0","","99.07","","","","","","Mostly Cloudy"
"1986-08-24 01:00","1986","08","24","01:00","14.9","","11.3","","79","","30","","17","","25.0","","99.11","","","","","","Mostly Cloudy"
"1986-08-24 02:00","1986","08","24","02:00","14.5","","11.4","","82","","30","","20","","25.0","","99.14","","","","","","Mainly Clear"
"1986-08-24 03:00","1986","08","24","03:00","14.2","","12.0","","87","","32","","22","","19.3","","99.17","","","","","","Rain Showers"
"1986-08-24 04:00","1986","08","24","04:00","14.0","","10.5","","79","","32","","22","","24.1","","99.21","","","","","","Mainly Clear"
"1986-08-24 05:00","1986","08","24","05:00","14.1","","10.9","","81","","34","","15","","25.0","","99.31","","","","","","Mostly Cloudy"
"1986-08-24 06:00","1986","08","24","06:00","13.1","","11.3","","89","","31","","6","","40.2","","99.37","","","","","","Mainly Clear"
"1986-08-24 07:00","1986","08","24","07:00","14.0","","10.9","","82","","31","","13","","40.2","","99.44","","","","","","Mainly Clear"
"1986-08-24 08:00","1986","08","24","08:00","15.6","","11.1","","75","","30","","22","","40.2","","99.51","","","","","","Mainly Clear"
"1986-08-24 09:00","1986","08","24","09:00","16.7","","10.7","","68","","32","","26","","40.2","","99.51","","","","","","Mainly Clear"
"1986-08-24 10:00","1986","08","24","10:00","18.2","","11.4","","64","","33","","35","","40.2","","99.54","","","","","","Mainly Clear"
"1986-08-24 11:00","1986","08","24","11:00","19.1","","9.3","","53","","32","","37","","40.2","","99.54","","","","","","Mainly Clear"
"1986-08-24 12:00","1986","08","24","12:00","19.4","","8.3","","49","","32","","24","","40.2","","99.54","","","","","","Mainly Clear"
"1986-08-24 13:00","1986","08","24","13:00","20.1","","9.8","","51","","35","","30","","40.2","","99.57","","","","","","Mainly Clear"
"1986-08-24 14:00","1986","08","24","14:00","20.3","","8.2","","46","","31","","24","","40.2","","99.57","","","","","","Mainly Clear"
"1986-08-24 15:00","1986","08","24","15:00","20.4","","6.4","","40","","32","","30","","40.2","","99.57","","","","","","Clear"
"1986-08-24 16:00","1986","08","24","16:00","19.5","","7.8","","47","","35","","26","","40.2","","99.61","","","","","","Mainly Clear"
"1986-08-24 17:00","1986","08","24","17:00","18.8","","8.5","","51","","35","","19","","40.2","","99.64","","","","","","Mainly Clear"
"1986-08-24 18:00","1986","08","24","18:00","17.8","","7.6","","51","","34","","20","","40.2","","99.67","","","","","","Mainly Clear"
"1986-08-24 19:00","1986","08","24","19:00","16.2","","6.8","","54","","33","","15","","40.2","","99.71","","","","","","Mainly Clear"
"1986-08-24 20:00","1986","08","24","20:00","14.1","","6.5","","60","","29","","7","","25.0","","99.77","","","","","","Mostly Cloudy"
"1986-08-24 21:00","1986","08","24","21:00","12.2","","7.9","","75","","28","","6","","25.0","","99.81","","","","","","Mainly Clear"
"1986-08-24 22:00","1986","08","24","22:00","11.2","","7.2","","76","","27","","9","","25.0","","99.81","","","","","","Mostly Cloudy"
"1986-08-24 23:00","1986","08","24","23:00","11.5","","8.6","","82","","29","","9","","25.0","","99.81","","","","","","Mostly Cloudy"
"1986-08-25 00:00","1986","08","25","00:00","11.0","","8.8","","86","","28","","6","","25.0","","99.81","","","","","","Mostly Cloudy"
"1986-08-25 01:00","1986","08","25","01:00","10.0","","7.7","","86","","34","","6","","25.0","","99.81","","","","","","Mostly Cloudy"
"1986-08-25 02:00","1986","08","25","02:00","9.7","","8.1","","90","","30","","4","","25.0","","99.81","","","","","","Mostly Cloudy"
"1986-08-25 03:00","1986","08","25","03:00","9.0","","7.5","","90","","28","","7","","25.0","","99.81","","","","","","Mostly Cloudy"
"1986-08-25 04:00","1986","08","25","04:00","8.8","","7.5","","92","","30","","4","","25.0","","99.81","","","","","","Mostly Cloudy"
"1986-08-25 05:00","1986","08","25","05:00","8.8","","7.9","","94","","29","","6","","25.0","","99.84","","","","","","Mostly Cloudy"
"1986-08-25 06:00","1986","08","25","06:00","10.0","","8.1","","88","","36","","4","","40.2","","99.91","","","","","","Mostly Cloudy"
"1986-08-25 07:00","1986","08","25","07:00","12.2","","9.5","","83","","32","","4","","32.2","","99.97","","","","","","Mostly Cloudy"
"1986-08-25 08:00","1986","08","25","08:00","16.2","","11.6","","74","","29","","4","","40.2","","99.97","","","","","","Mostly Cloudy"
"1986-08-25 09:00","1986","08","25","09:00","18.3","","12.6","","70","","27","","6","","40.2","","100.01","","","","","","Mostly Cloudy"
"1986-08-25 10:00","1986","08","25","10:00","19.3","","10.8","","58","","24","","7","","40.2","","99.97","","","","","","Mostly Cloudy"
"1986-08-25 11:00","1986","08","25","11:00","20.2","","6.6","","41","","27","","9","","40.2","","99.94","","","","","","Mostly Cloudy"
"1986-08-25 12:00","1986","08","25","12:00","21.1","","8.5","","44","","25","","11","","40.2","","99.87","","","","","","Mostly Cloudy"
"1986-08-25 13:00","1986","08","25","13:00","22.4","","10.1","","46","","28","","13","","40.2","","99.84","","","","","","Mostly Cloudy"
"1986-08-25 14:00","1986","08","25","14:00","22.6","","9.7","","44","","22","","11","","40.2","","99.81","","","","","","Mostly Cloudy"
"1986-08-25 15:00","1986","08","25","15:00","22.3","","11.3","","50","","26","","11","","40.2","","99.74","","","","","","Mostly Cloudy"
"1986-08-25 16:00","1986","08","25","16:00","21.9","","10.3","","48","","24","","4","","40.2","","99.71","","","","","","Mostly Cloudy"
"1986-08-25 17:00","1986","08","25","17:00","21.7","","10.9","","50","","25","","11","","40.2","","99.71","","","","","","Cloudy"
"1986-08-25 18:00","1986","08","25","18:00","20.7","","10.8","","53","","25","","13","","40.2","","99.71","","","","","","Cloudy"
"1986-08-25 19:00","1986","08","25","19:00","19.6","","11.5","","60","","25","","11","","40.2","","99.71","","","","","","Mostly Cloudy"
"1986-08-25 20:00","1986","08","25","20:00","18.8","","12.1","","65","","24","","11","","25.0","","99.74","","","","","","Rain Showers"
"1986-08-25 21:00","1986","08","25","21:00","17.2","","12.0","","71","","25","","7","","25.0","","99.77","","","","","","Mostly Cloudy"
"1986-08-25 22:00","1986","08","25","22:00","16.9","","12.4","","75","","23","","7","","25.0","","99.74","","","","","","Mostly Cloudy"
"1986-08-25 23:00","1986","08","25","23:00","17.0","","12.7","","76","","21","","4","","25.0","","99.71","","","","","","Mostly Cloudy"
"1986-08-26 00:00","1986","08","26","00:00","16.8","","13.8","","82","","22","","6","","25.0","","99.71","","","","","","Mostly Cloudy"
"1986-08-26 01:00","1986","08","26","01:00","17.0","","13.1","","78","","22","","7","","25.0","","99.71","","","","","","Mostly Cloudy"
"1986-08-26 02:00","1986","08","26","02:00","16.3","","12.5","","78","","21","","6","","25.0","","99.64","","","","","","Mostly Cloudy"
"1986-08-26 03:00","1986","08","26","03:00","15.0","","11.6","","80","","20","","6","","25.0","","99.61","","","","","","Mainly Clear"
"1986-08-26 04:00","1986","08","26","04:00","16.1","","10.9","","71","","17","","6","","25.0","","99.57","","","","","","Mainly Clear"
"1986-08-26 05:00","1986","08","26","05:00","15.0","","12.3","","84","","","","0","","24.1","","99.61","","","","","","Clear"
"1986-08-26 06:00","1986","08","26","06:00","13.9","","12.3","","90","","","","0","","24.1","","99.61","","","","","","Mostly Cloudy"
"1986-08-26 07:00","1986","08","26","07:00","17.3","","11.8","","70","","17","","4","","24.1","","99.61","","","","","","Mostly Cloudy"
"1986-08-26 08:00","1986","08","26","08:00","19.0","","13.2","","69","","19","","9","","24.1","","99.57","","","","","","Mostly Cloudy"
"1986-08-26 09:00","1986","08","26","09:00","20.7","","14.5","","68","","19","","11","","24.1","","99.47","","","","","","Mostly Cloudy"
"1986-08-26 10:00","1986","08","26","10:00","22.6","","15.4","","64","","20","","13","","19.3","","99.41","","27","","","","Cloudy"
"1986-08-26 11:00","1986","08","26","11:00","24.4","","16.0","","60","","21","","13","","19.3","","99.34","","29","","","","Cloudy"
"1986-08-26 12:00","1986","08","26","12:00","25.1","","17.3","","62","","18","","11","","19.3","","99.34","","31","","","","Cloudy"
"1986-08-26 13:00","1986","08","26","13:00","25.9","","15.7","","54","","20","","13","","19.3","","99.21","","30","","","","Cloudy"
"1986-08-26 14:00","1986","08","26","14:00","24.6","","17.0","","63","","14","","13","","19.3","","99.14","","30","","","","Cloudy"
"1986-08-26 15:00","1986","08","26","15:00","25.0","","17.3","","62","","17","","15","","16.1","","99.07","","30","","","","Cloudy"
"1986-08-26 16:00","1986","08","26","16:00","24.8","","18.6","","69","","21","","19","","12.9","","99.01","","31","","","","Cloudy"
"1986-08-26 17:00","1986","08","26","17:00","22.8","","19.5","","82","","24","","20","","3.2","","98.94","","30","","","","Thunderstorms,Rain Showers,Haze"
"1986-08-26 18:00","1986","08","26","18:00","20.5","","18.4","","88","","17","","9","","6.4","","98.81","","27","","","","Rain Showers,Fog"
"1986-08-26 19:00","1986","08","26","19:00","20.2","","18.8","","91","","17","","17","","4.0","","98.71","","27","","","","Rain Showers,Fog"
"1986-08-26 20:00","1986","08","26","20:00","19.2","","18.1","","93","","22","","4","","3.2","","98.64","","","","","","Thunderstorms,Heavy Rain Showers"
"1986-08-26 21:00","1986","08","26","21:00","19.6","","18.6","","94","","18","","15","","4.0","","98.51","","","","","","Heavy Rain Showers"
"1986-08-26 22:00","1986","08","26","22:00","19.9","","18.8","","93","","18","","15","","4.8","","98.37","","","","","","Moderate Rain Showers,Fog"
"1986-08-26 23:00","1986","08","26","23:00","19.9","","19.4","","97","","31","","4","","3.2","","98.24","","","","","","Thunderstorms,Heavy Rain Showers,Fog"
"1986-08-27 00:00","1986","08","27","00:00","18.9","","18.4","","97","","35","","15","","6.4","","98.14","","","","","","Moderate Rain Showers,Fog"
"1986-08-27 01:00","1986","08","27","01:00","18.3","","17.9","","98","","33","","20","","8.0","","98.21","","","","","","Rain Showers,Fog"
"1986-08-27 02:00","1986","08","27","02:00","17.9","","16.8","","93","","33","","26","","11.3","","98.31","","","","","","Mostly Cloudy"
"1986-08-27 03:00","1986","08","27","03:00","17.1","","15.4","","90","","32","","24","","12.9","","98.41","","","","","","Mainly Clear"
"1986-08-27 04:00","1986","08","27","04:00","16.4","","14.9","","91","","30","","30","","12.9","","98.54","","","","","","Mainly Clear"
"1986-08-27 05:00","1986","08","27","05:00","15.4","","13.5","","89","","30","","35","","24.1","","98.71","","","","","","Cloudy"
"1986-08-27 06:00","1986","08","27","06:00","14.5","","11.8","","84","","29","","35","","32.2","","98.77","","","","","","Mostly Cloudy"
"1986-08-27 07:00","1986","08","27","07:00","14.5","","11.1","","80","","29","","24","","40.2","","98.84","","","","","","Mostly Cloudy"
"1986-08-27 08:00","1986","08","27","08:00","15.5","","11.1","","75","","30","","22","","40.2","","98.87","","","","","","Mostly Cloudy"
"1986-08-27 09:00","1986","08","27","09:00","17.1","","11.6","","70","","31","","31","","40.2","","98.94","","","","","","Mostly Cloudy"
"1986-08-27 10:00","1986","08","27","10:00","17.2","","11.6","","70","","30","","28","","40.2","","99.01","","","","","","Mostly Cloudy"
"1986-08-27 11:00","1986","08","27","11:00","17.0","","12.0","","72","","31","","30","","40.2","","99.01","","","","","","Mostly Cloudy"
"1986-08-27 12:00","1986","08","27","12:00","18.0","","10.5","","62","","30","","28","","40.2","","99.04","","","","","","Mostly Cloudy"
"1986-08-27 13:00","1986","08","27","13:00","17.0","","9.3","","60","","29","","30","","40.2","","99.07","","","","","","Mainly Clear"
"1986-08-27 14:00","1986","08","27","14:00","18.0","","9.3","","57","","29","","30","","40.2","","99.11","","","","","","Mostly Cloudy"
"1986-08-27 15:00","1986","08","27","15:00","14.9","","10.1","","73","","35","","26","","40.2","","99.17","","","","","","Mostly Cloudy"
"1986-08-27 16:00","1986","08","27","16:00","13.7","","8.4","","70","","34","","30","","40.2","","99.24","","","","","","Mostly Cloudy"
"1986-08-27 17:00","1986","08","27","17:00","13.5","","8.0","","69","","33","","30","","40.2","","99.27","","","","","","Mostly Cloudy"
"1986-08-27 18:00","1986","08","27","18:00","12.4","","7.3","","71","","33","","28","","40.2","","99.34","","","","","","Mostly Cloudy"
"1986-08-27 19:00","1986","08","27","19:00","10.6","","6.3","","75","","33","","22","","40.2","","99.37","","","","","","Mostly Cloudy"
"1986-08-27 20:00","1986","08","27","20:00","9.7","","6.0","","78","","32","","15","","25.0","","99.47","","","","","","Mostly Cloudy"
"1986-08-27 21:00","1986","08","27","21:00","9.7","","5.6","","76","","33","","17","","25.0","","99.54","","","","","","Mostly Cloudy"
"1986-08-27 22:00","1986","08","27","22:00","9.2","","5.9","","80","","32","","13","","25.0","","99.57","","","","","","Mostly Cloudy"
"1986-08-27 23:00","1986","08","27","23:00","8.1","","5.2","","82","","32","","11","","25.0","","99.54","","","","","","Mainly Clear"
"1986-08-28 00:00","1986","08","28","00:00","7.8","","6.0","","89","","33","","11","","25.0","","99.57","","","","","","Mostly Cloudy"
"1986-08-28 01:00","1986","08","28","01:00","7.9","","5.2","","83","","33","","17","","25.0","","99.57","","","","","","Mainly Clear"
"1986-08-28 02:00","1986","08","28","02:00","6.5","","4.4","","86","","33","","11","","25.0","","99.61","","","","","","Mainly Clear"
"1986-08-28 03:00","1986","08","28","03:00","6.5","","4.4","","86","","33","","4","","25.0","","99.64","","","","","","Clear"
"1986-08-28 04:00","1986","08","28","04:00","6.5","","4.0","","84","","28","","4","","25.0","","99.64","","","","","","Clear"
"1986-08-28 05:00","1986","08","28","05:00","5.5","","3.8","","89","","26","","7","","25.0","","99.71","","","","","","Clear"
"1986-08-28 06:00","1986","08","28","06:00","5.2","","4.2","","93","","26","","4","","40.2","","99.77","","","","","","Mostly Cloudy"
"1986-08-28 07:00","1986","08","28","07:00","7.2","","5.0","","86","","27","","7","","40.2","","99.81","","","","","","Mainly Clear"
"1986-08-28 08:00","1986","08","28","08:00","10.2","","4.4","","67","","31","","17","","40.2","","99.84","","","","","","Mainly Clear"
"1986-08-28 09:00","1986","08","28","09:00","11.7","","5.2","","64","","31","","11","","40.2","","99.84","","","","","","Mainly Clear"
"1986-08-28 10:00","1986","08","28","10:00","13.5","","5.4","","58","","29","","24","","40.2","","99.81","","","","","","Mainly Clear"
"1986-08-28 11:00","1986","08","28","11:00","14.0","","6.1","","59","","29","","26","","40.2","","99.77","","","","","","Mainly Clear"
"1986-08-28 12:00","1986","08","28","12:00","14.0","","6.1","","59","","31","","31","","40.2","","99.77","","","","","","Mostly Cloudy"
"1986-08-28 13:00","1986","08","28","13:00","10.7","","6.3","","74","","27","","19","","40.2","","99.81","","","","","","Mostly Cloudy"
"1986-08-28 14:00","1986","08","28","14:00","13.6","","6.8","","63","","30","","28","","40.2","","99.77","","","","","","Rain Showers"
"1986-08-28 15:00","1986","08","28","15:00","14.0","","7.4","","64","","27","","20","","40.2","","99.77","","","","","","Mostly Cloudy"
"1986-08-28 16:00","1986","08","28","16:00","13.8","","7.8","","67","","29","","30","","40.2","","99.71","","","","","","Mostly Cloudy"
"1986-08-28 17:00","1986","08","28","17:00","13.8","","7.8","","67","","31","","41","","40.2","","99.77","","","","","","Mostly Cloudy"
"1986-08-28 18:00","1986","08","28","18:00","12.3","","4.6","","59","","30","","28","","40.2","","99.87","","","","","","Mainly Clear"
"1986-08-28 19:00","1986","08","28","19:00","9.5","","5.6","","77","","32","","15","","40.2","","99.97","","","","","","Mainly Clear"
"1986-08-28 20:00","1986","08","28","20:00","7.6","","4.2","","79","","29","","11","","25.0","","100.01","","","","","","Mainly Clear"
"1986-08-28 21:00","1986","08","28","21:00","6.4","","4.0","","85","","27","","9","","25.0","","100.11","","","","","","Mainly Clear"
"1986-08-28 22:00","1986","08","28","22:00","6.2","","3.4","","82","","27","","9","","25.0","","100.17","","","","","","Clear"
"1986-08-28 23:00","1986","08","28","23:00","5.8","","3.4","","85","","27","","9","","25.0","","100.21","","","","","","Clear"
"1986-08-29 00:00","1986","08","29","00:00","5.3","","3.4","","88","","25","","7","","25.0","","100.21","","","","","","Clear"
"1986-08-29 01:00","1986","08","29","01:00","5.3","","3.4","","88","","26","","11","","25.0","","100.21","","","","","","Mainly Clear"
"1986-08-29 02:00","1986","08","29","02:00","4.9","","2.8","","86","","24","","7","","25.0","","100.21","","","","","","Clear"
"1986-08-29 03:00","1986","08","29","03:00","5.2","","3.3","","87","","26","","7","","25.0","","100.27","","","","","","Clear"
"1986-08-29 04:00","1986","08","29","04:00","5.9","","3.4","","84","","25","","9","","25.0","","100.27","","","","","","Mainly Clear"
"1986-08-29 05:00","1986","08","29","05:00","6.6","","3.5","","80","","27","","15","","25.0","","100.37","","","","","","Mostly Cloudy"
"1986-08-29 06:00","1986","08","29","06:00","8.1","","5.2","","82","","27","","19","","40.2","","100.37","","","","","","Mainly Clear"
"1986-08-29 07:00","1986","08","29","07:00","9.6","","6.4","","80","","26","","13","","40.2","","100.47","","","","","","Mainly Clear"
"1986-08-29 08:00","1986","08","29","08:00","12.0","","7.1","","72","","24","","9","","40.2","","100.51","","","","","","Clear"
"1986-08-29 09:00","1986","08","29","09:00","13.7","","8.4","","70","","26","","13","","40.2","","100.57","","","","","","Clear"
"1986-08-29 10:00","1986","08","29","10:00","15.5","","9.1","","66","","27","","15","","40.2","","100.57","","","","","","Mainly Clear"
"1986-08-29 11:00","1986","08","29","11:00","16.0","","7.7","","58","","30","","11","","40.2","","100.54","","","","","","Mainly Clear"
"1986-08-29 12:00","1986","08","29","12:00","18.0","","7.6","","51","","27","","19","","40.2","","100.51","","","","","","Mainly Clear"
"1986-08-29 13:00","1986","08","29","13:00","17.4","","6.9","","50","","27","","11","","40.2","","100.47","","","","","","Mainly Clear"
"1986-08-29 14:00","1986","08","29","14:00","18.4","","6.9","","47","","26","","13","","40.2","","100.44","","","","","","Mainly Clear"
"1986-08-29 15:00","1986","08","29","15:00","19.0","","7.1","","46","","28","","15","","40.2","","100.37","","","","","","Mainly Clear"
"1986-08-29 16:00","1986","08","29","16:00","18.7","","6.9","","46","","25","","9","","40.2","","100.37","","","","","","Mainly Clear"
"1986-08-29 17:00","1986","08","29","17:00","19.0","","7.1","","46","","26","","17","","40.2","","100.37","","","","","","Mainly Clear"
"1986-08-29 18:00","1986","08","29","18:00","17.8","","8.0","","53","","26","","7","","40.2","","100.34","","","","","","Mainly Clear"
"1986-08-29 19:00","1986","08","29","19:00","15.0","","6.0","","55","","24","","7","","40.2","","100.37","","","","","","Mainly Clear"
"1986-08-29 20:00","1986","08","29","20:00","12.8","","7.9","","72","","25","","6","","25.0","","100.41","","","","","","Mainly Clear"
"1986-08-29 21:00","1986","08","29","21:00","12.0","","7.5","","74","","25","","7","","25.0","","100.44","","","","","","Mainly Clear"
"1986-08-29 22:00","1986","08","29","22:00","10.5","","7.1","","80","","26","","9","","25.0","","100.47","","","","","","Mainly Clear"
"1986-08-29 23:00","1986","08","29","23:00","9.5","","6.8","","83","","25","","7","","25.0","","100.44","","","","","","Mainly Clear"
"1986-08-30 00:00","1986","08","30","00:00","8.7","","6.1","","84","","26","","7","","25.0","","100.47","","","","","","Mainly Clear"
"1986-08-30 01:00","1986","08","30","01:00","8.3","","5.7","","84","","26","","7","","25.0","","100.47","","","","","","Clear"
"1986-08-30 02:00","1986","08","30","02:00","7.7","","5.1","","84","","26","","7","","25.0","","100.51","","","","","","Clear"
"1986-08-30 03:00","1986","08","30","03:00","7.5","","4.6","","82","","26","","7","","25.0","","100.54","","","","","","Clear"
"1986-08-30 04:00","1986","08","30","04:00","7.5","","5.1","","85","","27","","7","","25.0","","100.57","","","","","","Clear"
"1986-08-30 05:00","1986","08","30","05:00","7.5","","5.1","","85","","27","","7","","25.0","","100.57","","","","","","Mainly Clear"
"1986-08-30 06:00","1986","08","30","06:00","7.8","","6.0","","89","","26","","7","","32.2","","100.64","","","","","","Mainly Clear"
"1986-08-30 07:00","1986","08","30","07:00","10.5","","7.5","","82","","27","","7","","24.1","","100.71","","","","","","Mainly Clear"
"1986-08-30 08:00","1986","08","30","08:00","14.5","","8.8","","69","","26","","7","","24.1","","100.71","","","","","","Clear"
"1986-08-30 09:00","1986","08","30","09:00","17.6","","7.8","","53","","26","","13","","24.1","","100.74","","","","","","Mainly Clear"
"1986-08-30 10:00","1986","08","30","10:00","19.0","","7.1","","46","","26","","19","","40.2","","100.74","","","","","","Mainly Clear"
"1986-08-30 11:00","1986","08","30","11:00","19.6","","6.9","","44","","26","","20","","40.2","","100.71","","","","","","Mainly Clear"
"1986-08-30 12:00","1986","08","30","12:00","19.9","","7.6","","45","","25","","11","","40.2","","100.64","","","","","","Mainly Clear"
"1986-08-30 13:00","1986","08","30","13:00","19.8","","8.5","","48","","25","","17","","40.2","","100.61","","","","","","Mainly Clear"
"1986-08-30 14:00","1986","08","30","14:00","20.0","","7.6","","45","","24","","11","","40.2","","100.57","","","","","","Mainly Clear"
"1986-08-30 15:00","1986","08","30","15:00","20.0","","7.6","","45","","25","","7","","40.2","","100.51","","","","","","Mainly Clear"
"1986-08-30 16:00","1986","08","30","16:00","20.8","","8.9","","47","","25","","17","","40.2","","100.51","","","","","","Mainly Clear"
"1986-08-30 17:00","1986","08","30","17:00","20.3","","8.7","","47","","26","","7","","40.2","","100.51","","","","","","Mainly Clear"
"1986-08-30 18:00","1986","08","30","18:00","19.7","","8.7","","49","","27","","7","","40.2","","100.51","","","","","","Mainly Clear"
"1986-08-30 19:00","1986","08","30","19:00","17.0","","8.5","","57","","27","","7","","40.2","","100.51","","","","","","Mainly Clear"
"1986-08-30 20:00","1986","08","30","20:00","16.1","","7.7","","58","","29","","4","","25.0","","100.57","","","","","","Mainly Clear"
"1986-08-30 21:00","1986","08","30","21:00","16.0","","7.7","","58","","27","","6","","25.0","","100.61","","","","","","Mainly Clear"
"1986-08-30 22:00","1986","08","30","22:00","15.3","","8.3","","63","","29","","4","","25.0","","100.64","","","","","","Mainly Clear"
"1986-08-30 23:00","1986","08","30","23:00","11.7","","7.0","","73","","30","","4","","25.0","","100.67","","","","","","Mainly Clear"
"1986-08-31 00:00","1986","08","31","00:00","10.6","","7.5","","81","","31","","4","","25.0","","100.67","","","","","","Mainly Clear"
"1986-08-31 01:00","1986","08","31","01:00","9.9","","6.9","","82","","35","","7","","25.0","","100.61","","","","","","Mainly Clear"
"1986-08-31 02:00","1986","08","31","02:00","8.5","","6.1","","85","","32","","6","","25.0","","100.61","","","","","","Mainly Clear"
"1986-08-31 03:00","1986","08","31","03:00","8.2","","6.0","","86","","32","","4","","25.0","","100.61","","","","","","Clear"
"1986-08-31 04:00","1986","08","31","04:00","8.0","","6.0","","87","","35","","6","","25.0","","100.61","","","","","","Clear"
"1986-08-31 05:00","1986","08","31","05:00","7.4","","5.9","","90","","34","","4","","25.0","","100.64","","","","","","Clear"
"1986-08-31 06:00","1986","08","31","06:00","7.2","","5.4","","88","","33","","6","","32.2","","100.67","","","","","","Clear"
"1986-08-31 07:00","1986","08","31","07:00","10.4","","8.3","","87","","34","","6","","32.2","","100.71","","","","","","Clear"
"1986-08-31 08:00","1986","08","31","08:00","13.9","","9.4","","74","","35","","4","","32.2","","100.74","","","","","","Clear"
"1986-08-31 09:00","1986","08","31","09:00","17.3","","11.1","","67","","","","0","","32.2","","100.74","","","","","","Clear"
"1986-08-31 10:00","1986","08","31","10:00","19.7","","11.2","","58","","19","","4","","32.2","","100.74","","","","","","Clear"
"1986-08-31 11:00","1986","08","31","11:00","20.5","","6.4","","40","","18","","6","","32.2","","100.71","","","","","","Clear"
"1986-08-31 12:00","1986","08","31","12:00","21.3","","8.7","","45","","14","","7","","32.2","","100.64","","","","","","Clear"
"1986-08-31 13:00","1986","08","31","13:00","20.6","","8.3","","45","","10","","11","","32.2","","100.57","","","","","","Clear"
"1986-08-31 14:00","1986","08","31","14:00","21.9","","10.3","","48","","","","0","","32.2","","100.54","","","","","","Clear"
"1986-08-31 15:00","1986","08","31","15:00","22.0","","8.1","","41","","16","","9","","32.2","","100.47","","","","","","Clear"
"1986-08-31 16:00","1986","08","31","16:00","21.5","","6.9","","39","","15","","9","","32.2","","100.47","","","","","","Clear"
"1986-08-31 17:00","1986","08","31","17:00","20.8","","7.1","","41","","15","","9","","40.2","","100.44","","","","","","Clear"
"1986-08-31 18:00","1986","08","31","18:00","18.9","","8.0","","49","","14","","9","","32.2","","100.41","","","","","","Clear"
"1986-08-31 19:00","1986","08","31","19:00","17.0","","8.1","","56","","15","","9","","32.2","","100.37","","","","","","Clear"
"1986-08-31 20:00","1986","08","31","20:00","15.8","","8.1","","60","","15","","11","","25.0","","100.41","","","","","","Clear"
"1986-08-31 21:00","1986","08","31","21:00","15.8","","11.6","","76","","15","","7","","24.1","","100.41","","","","","","Clear"
"1986-08-31 22:00","1986","08","31","22:00","15.5","","11.8","","79","","14","","6","","24.1","","100.41","","","","","","Clear"
"1986-08-31 23:00","1986","08","31","23:00","12.7","","10.4","","86","","","","0","","16.1","","100.37","","","","","","Clear"
