"Station Name","TORONTO LESTER B. PEARSON INT'L A"
"Province","ONTARIO"
"Latitude","43.68"
"Longitude","-79.63"
"Elevation","173.40"
"Climate Identifier","6158733"
"WMO Identifier","71624"
"TC Identifier","YYZ"
"All times are specified in Local Standard Time (LST). Add 1 hour to adjust for Daylight Saving Time where and when it is observed."

"Legend"
"E","Estimated"
"M","Missing"
"NA","Not Available"

"Date/Time","Year","Month","Day","Time","Temp (°C)","Temp Flag","Dew Point Temp (°C)","Dew Point Temp Flag","Rel Hum (%)","Rel Hum Flag","Wind Dir (10s deg)","Wind Dir Flag","Wind Spd (km/h)","Wind Spd Flag","Visibility (km)","Visibility Flag","Stn Press (kPa)","Stn Press Flag","Hmdx","Hmdx Flag","Wind Chill","Wind Chill Flag","Weather"
"2011-11-01 00:00","2011","11","01","00:00","7.9","","5.7","","86","","19","","7","","24.1","","100.17","","","","","","Cloudy"
"2011-11-01 01:00","2011","11","01","01:00","7.3","","5.9","","91","","15","","6","","24.1","","100.18","","","","","","Mostly Cloudy"
"2011-11-01 02:00","2011","11","01","02:00","7.0","","6.1","","94","","15","","7","","24.1","","100.21","","","","","","Mainly Clear"
"2011-11-01 03:00","2011","11","01","03:00","6.7","","5.9","","95","","15","","6","","24.1","","100.22","","","","","","Mainly Clear"
"2011-11-01 04:00","2011","11","01","04:00","6.6","","5.7","","94","","19","","6","","24.1","","100.24","","","","","","Clear"
"2011-11-01 05:00","2011","11","01","05:00","5.5","","5.0","","97","","25","","7","","24.1","","100.27","","","","","","Clear"
"2011-11-01 06:00","2011","11","01","06:00","5.3","","4.5","","95","","27","","4","","16.1","","100.29","","","","","","Mainly Clear"
"2011-11-01 07:00","2011","11","01","07:00","3.9","","3.3","","96","","2","","4","","8.0","","100.34","","","","","","Fog"
"2011-11-01 08:00","2011","11","01","08:00","5.4","","4.5","","94","","5","","4","","9.7","","100.39","","","","","","Fog"
"2011-11-01 09:00","2011","11","01","09:00","7.5","","6.4","","93","","","","0","","9.7","","100.42","","","","","","Fog"
"2011-11-01 10:00","2011","11","01","10:00","9.5","","6.8","","83","","22","","9","","19.3","","100.46","","","","","","Mostly Cloudy"
"2011-11-01 11:00","2011","11","01","11:00","10.1","","6.9","","80","","22","","15","","19.3","","100.46","","","","","","Mostly Cloudy"
"2011-11-01 12:00","2011","11","01","12:00","11.6","","6.5","","71","","22","","7","","24.1","","100.37","","","","","","Mainly Clear"
"2011-11-01 13:00","2011","11","01","13:00","11.1","","6.1","","71","","22","","6","","24.1","","100.34","","","","","","Mainly Clear"
"2011-11-01 14:00","2011","11","01","14:00","11.3","","6.5","","72","","12","","7","","24.1","","100.29","","","","","","Mostly Cloudy"
"2011-11-01 15:00","2011","11","01","15:00","12.7","","3.5","","53","","22","","15","","24.1","","100.29","","","","","","Mainly Clear"
"2011-11-01 16:00","2011","11","01","16:00","11.6","","5.0","","64","","15","","19","","24.1","","100.29","","","","","","Mainly Clear"
"2011-11-01 17:00","2011","11","01","17:00","10.0","","4.7","","70","","15","","9","","24.1","","100.28","","","","","","Mainly Clear"
"2011-11-01 18:00","2011","11","01","18:00","9.0","","5.1","","77","","16","","9","","24.1","","100.31","","","","","","Clear"
"2011-11-01 19:00","2011","11","01","19:00","9.1","","5.4","","78","","19","","7","","24.1","","100.34","","","","","","Clear"
"2011-11-01 20:00","2011","11","01","20:00","8.9","","4.4","","73","","19","","7","","24.1","","100.33","","","","","","Clear"
"2011-11-01 21:00","2011","11","01","21:00","7.9","","3.5","","74","","17","","7","","24.1","","100.29","","","","","","Clear"
"2011-11-01 22:00","2011","11","01","22:00","6.8","","4.7","","86","","17","","7","","24.1","","100.30","","","","","","Clear"
"2011-11-01 23:00","2011","11","01","23:00","6.8","","5.0","","88","","16","","7","","24.1","","100.28","","","","","","Clear"
"2011-11-02 00:00","2011","11","02","00:00","6.9","","5.5","","91","","17","","6","","24.1","","100.29","","","","","","Clear"
"2011-11-02 01:00","2011","11","02","01:00","6.8","","5.5","","91","","16","","7","","24.1","","100.25","","","","","","Clear"
"2011-11-02 02:00","2011","11","02","02:00","6.8","","5.7","","93","","16","","7","","24.1","","100.25","","","","","","Clear"
"2011-11-02 03:00","2011","11","02","03:00","6.9","","5.8","","93","","15","","7","","24.1","","100.26","","","","","","Clear"
"2011-11-02 04:00","2011","11","02","04:00","6.9","","5.4","","90","","18","","7","","24.1","","100.26","","","","","","Clear"
"2011-11-02 05:00","2011","11","02","05:00","7.2","","5.0","","86","","18","","6","","24.1","","100.29","","","","","","Clear"
"2011-11-02 06:00","2011","11","02","06:00","7.1","","5.0","","86","","16","","6","","24.1","","100.25","","","","","","Mainly Clear"
"2011-11-02 07:00","2011","11","02","07:00","7.2","","5.2","","87","","15","","9","","24.1","","100.24","","","","","","Mainly Clear"
"2011-11-02 08:00","2011","11","02","08:00","8.5","","6.1","","85","","15","","7","","24.1","","100.26","","","","","","Mainly Clear"
"2011-11-02 09:00","2011","11","02","09:00","9.6","","6.6","","82","","17","","6","","24.1","","100.23","","","","","","Mostly Cloudy"
"2011-11-02 10:00","2011","11","02","10:00","12.5","","7.4","","71","","21","","19","","24.1","","100.17","","","","","","Mostly Cloudy"
"2011-11-02 11:00","2011","11","02","11:00","13.9","","7.3","","64","","23","","26","","24.1","","100.14","","","","","","Mostly Cloudy"
"2011-11-02 12:00","2011","11","02","12:00","15.5","","7.5","","59","","22","","17","","24.1","","100.05","","","","","","Mostly Cloudy"
"2011-11-02 13:00","2011","11","02","13:00","17.6","","7.5","","52","","21","","20","","24.1","","99.95","","","","","","Mainly Clear"
"2011-11-02 14:00","2011","11","02","14:00","18.1","","8.1","","52","","20","","17","","24.1","","99.89","","","","","","Mainly Clear"
"2011-11-02 15:00","2011","11","02","15:00","17.3","","7.6","","53","","18","","19","","24.1","","99.84","","","","","","Mostly Cloudy"
"2011-11-02 16:00","2011","11","02","16:00","16.3","","7.2","","55","","17","","11","","24.1","","99.82","","","","","","Mostly Cloudy"
"2011-11-02 17:00","2011","11","02","17:00","15.2","","6.5","","56","","18","","11","","24.1","","99.79","","","","","","Mostly Cloudy"
"2011-11-02 18:00","2011","11","02","18:00","14.0","","5.7","","57","","20","","9","","24.1","","99.78","","","","","","Mostly Cloudy"
"2011-11-02 19:00","2011","11","02","19:00","14.0","","4.8","","54","","21","","9","","24.1","","99.77","","","","","","Mostly Cloudy"
"2011-11-02 20:00","2011","11","02","20:00","14.1","","3.7","","49","","21","","11","","24.1","","99.72","","","","","","Mostly Cloudy"
"2011-11-02 21:00","2011","11","02","21:00","14.2","","4.0","","50","","20","","11","","24.1","","99.67","","","","","","Mostly Cloudy"
"2011-11-02 22:00","2011","11","02","22:00","13.9","","4.4","","53","","22","","15","","24.1","","99.67","","","","","","Mostly Cloudy"
"2011-11-02 23:00","2011","11","02","23:00","13.4","","4.1","","53","","21","","13","","24.1","","99.62","","","","","","Mostly Cloudy"
"2011-11-03 00:00","2011","11","03","00:00","11.8","","3.9","","58","","22","","9","","24.1","","99.60","","","","","","Mostly Cloudy"
"2011-11-03 01:00","2011","11","03","01:00","10.5","","4.0","","64","","22","","6","","24.1","","99.56","","","","","","Mostly Cloudy"
"2011-11-03 02:00","2011","11","03","02:00","10.1","","3.9","","65","","21","","9","","24.1","","99.51","","","","","","Mostly Cloudy"
"2011-11-03 03:00","2011","11","03","03:00","10.1","","3.8","","65","","21","","4","","24.1","","99.46","","","","","","Mostly Cloudy"
"2011-11-03 04:00","2011","11","03","04:00","8.3","","4.1","","75","","28","","7","","24.1","","99.46","","","","","","Mostly Cloudy"
"2011-11-03 05:00","2011","11","03","05:00","9.5","","4.9","","73","","26","","17","","24.1","","99.45","","","","","","Mainly Clear"
"2011-11-03 06:00","2011","11","03","06:00","8.3","","5.0","","80","","27","","13","","24.1","","99.41","","","","","","Mainly Clear"
"2011-11-03 07:00","2011","11","03","07:00","8.5","","5.5","","81","","29","","9","","24.1","","99.44","","","","","","Mostly Cloudy"
"2011-11-03 08:00","2011","11","03","08:00","9.7","","6.3","","79","","30","","6","","24.1","","99.50","","","","","","Mostly Cloudy"
"2011-11-03 09:00","2011","11","03","09:00","10.0","","6.5","","79","","35","","20","","24.1","","99.55","","","","","","Cloudy"
"2011-11-03 10:00","2011","11","03","10:00","10.4","","7.2","","81","","35","","32","","24.1","","99.56","","","","","","Mostly Cloudy"
"2011-11-03 11:00","2011","11","03","11:00","10.7","","6.2","","74","","35","","33","","24.1","","99.63","","","","","","Mostly Cloudy"
"2011-11-03 12:00","2011","11","03","12:00","9.7","","5.4","","75","","35","","26","","24.1","","99.62","","","","","","Cloudy"
"2011-11-03 13:00","2011","11","03","13:00","9.0","","5.2","","77","","36","","35","","24.1","","99.58","","","","","","Cloudy"
"2011-11-03 14:00","2011","11","03","14:00","8.1","","5.1","","81","","1","","20","","24.1","","99.55","","","","","","Cloudy"
"2011-11-03 15:00","2011","11","03","15:00","8.1","","5.1","","81","","36","","15","","24.1","","99.58","","","","","","Cloudy"
"2011-11-03 16:00","2011","11","03","16:00","7.7","","5.7","","87","","36","","22","","24.1","","99.63","","","","","","Rain Showers"
"2011-11-03 17:00","2011","11","03","17:00","7.7","","4.2","","78","","36","","19","","24.1","","99.64","","","","","","Mostly Cloudy"
"2011-11-03 18:00","2011","11","03","18:00","7.5","","4.0","","78","","1","","17","","24.1","","99.73","","","","","","Mostly Cloudy"
"2011-11-03 19:00","2011","11","03","19:00","6.8","","2.9","","76","","36","","19","","24.1","","99.75","","","","","","Mostly Cloudy"
"2011-11-03 20:00","2011","11","03","20:00","5.3","","2.2","","80","","2","","11","","24.1","","99.83","","","","","","Mostly Cloudy"
"2011-11-03 21:00","2011","11","03","21:00","5.5","","2.1","","79","","36","","15","","24.1","","99.87","","","","","","Mostly Cloudy"
"2011-11-03 22:00","2011","11","03","22:00","4.9","","1.5","","79","","3","","19","","24.1","","99.94","","","","","","Mostly Cloudy"
"2011-11-03 23:00","2011","11","03","23:00","4.4","","1.0","","79","","1","","20","","24.1","","99.95","","","","","","Mostly Cloudy"
"2011-11-04 00:00","2011","11","04","00:00","3.2","","0.3","","81","","1","","17","","24.1","","99.97","","","","","","Mainly Clear"
"2011-11-04 01:00","2011","11","04","01:00","1.5","","-1.2","","82","","36","","13","","24.1","","100.03","","","","","","Clear"
"2011-11-04 02:00","2011","11","04","02:00","1.4","","-1.3","","82","","36","","17","","24.1","","100.06","","","","","","Clear"
"2011-11-04 03:00","2011","11","04","03:00","1.1","","-1.9","","80","","1","","15","","24.1","","100.09","","","","","","Clear"
"2011-11-04 04:00","2011","11","04","04:00","0.9","","-1.9","","82","","36","","17","","24.1","","100.12","","","","","","Clear"
"2011-11-04 05:00","2011","11","04","05:00","0.2","","-2.4","","83","","1","","13","","24.1","","100.18","","","","","","Clear"
"2011-11-04 06:00","2011","11","04","06:00","0.4","","-2.6","","80","","34","","9","","24.1","","100.20","","","","","","Clear"
"2011-11-04 07:00","2011","11","04","07:00","0.6","","-2.4","","80","","34","","19","","24.1","","100.27","","","","","","Clear"
"2011-11-04 08:00","2011","11","04","08:00","1.6","","-1.9","","78","","35","","17","","24.1","","100.34","","","","","","Clear"
"2011-11-04 09:00","2011","11","04","09:00","4.1","","-0.7","","71","","1","","11","","24.1","","100.37","","","","","","Clear"
"2011-11-04 10:00","2011","11","04","10:00","6.3","","-0.7","","61","","36","","11","","24.1","","100.37","","","","","","Clear"
"2011-11-04 11:00","2011","11","04","11:00","7.9","","-0.6","","55","","1","","24","","24.1","","100.39","","","","","","Clear"
"2011-11-04 12:00","2011","11","04","12:00","8.3","","-1.2","","51","","2","","26","","24.1","","100.39","","","","","","Mainly Clear"
"2011-11-04 13:00","2011","11","04","13:00","8.5","","-1.9","","48","","36","","28","","24.1","","100.41","","","","","","Mainly Clear"
"2011-11-04 14:00","2011","11","04","14:00","8.4","","-1.6","","49","","1","","24","","24.1","","100.40","","","","","","Clear"
"2011-11-04 15:00","2011","11","04","15:00","8.2","","-2.0","","49","","1","","20","","24.1","","100.45","","","","","","Clear"
"2011-11-04 16:00","2011","11","04","16:00","7.2","","-2.4","","50","","2","","24","","24.1","","100.52","","","","","","Clear"
"2011-11-04 17:00","2011","11","04","17:00","6.1","","-3.3","","51","","5","","13","","24.1","","100.57","","","","","","Clear"
"2011-11-04 18:00","2011","11","04","18:00","5.2","","-3.8","","52","","5","","11","","24.1","","100.64","","","","","","Clear"
"2011-11-04 19:00","2011","11","04","19:00","4.6","","-3.0","","58","","2","","13","","24.1","","100.69","","","","","","Mainly Clear"
"2011-11-04 20:00","2011","11","04","20:00","3.2","","-3.3","","62","","5","","9","","24.1","","100.68","","","","","","Clear"
"2011-11-04 21:00","2011","11","04","21:00","2.4","","-3.6","","65","","5","","7","","24.1","","100.73","","","","","","Clear"
"2011-11-04 22:00","2011","11","04","22:00","3.1","","-4.2","","59","","7","","9","","24.1","","100.76","","","","","","Clear"
"2011-11-04 23:00","2011","11","04","23:00","2.9","","-4.8","","57","","6","","9","","24.1","","100.78","","","","","","Clear"
"2011-11-05 00:00","2011","11","05","00:00","1.4","","-4.7","","64","","2","","7","","24.1","","100.85","","","","","","Clear"
"2011-11-05 01:00","2011","11","05","01:00","0.2","","-4.4","","71","","3","","9","","24.1","","100.89","","","","","","Clear"
"2011-11-05 02:00","2011","11","05","02:00","0.0","","-4.8","","70","","5","","9","","24.1","","100.89","","","","-3","","Clear"
"2011-11-05 03:00","2011","11","05","03:00","0.3","","-4.8","","69","","5","","9","","24.1","","100.89","","","","","","Mainly Clear"
"2011-11-05 04:00","2011","11","05","04:00","0.8","","-4.5","","68","","6","","9","","24.1","","100.89","","","","","","Mainly Clear"
"2011-11-05 05:00","2011","11","05","05:00","0.2","","-4.6","","70","","1","","6","","24.1","","100.92","","","","","","Mainly Clear"
"2011-11-05 06:00","2011","11","05","06:00","0.0","","-4.3","","73","","6","","6","","24.1","","100.93","","","","-2","","Clear"
"2011-11-05 07:00","2011","11","05","07:00","-0.1","","-3.9","","76","","6","","6","","24.1","","100.93","","","","-2","","Clear"
"2011-11-05 08:00","2011","11","05","08:00","1.0","","-2.2","","79","","2","","6","","24.1","","100.97","","","","","","Mainly Clear"
"2011-11-05 09:00","2011","11","05","09:00","3.5","","-1.1","","72","","36","","6","","24.1","","101.04","","","","","","Mainly Clear"
"2011-11-05 10:00","2011","11","05","10:00","5.9","","-0.9","","62","","15","","19","","24.1","","101.02","","","","","","Mainly Clear"
"2011-11-05 11:00","2011","11","05","11:00","6.3","","-1.2","","59","","16","","19","","24.1","","101.01","","","","","","Clear"
"2011-11-05 12:00","2011","11","05","12:00","6.7","","-0.8","","59","","15","","15","","24.1","","100.96","","","","","","Mainly Clear"
"2011-11-05 13:00","2011","11","05","13:00","6.7","","-1.0","","58","","12","","13","","24.1","","100.90","","","","","","Mainly Clear"
"2011-11-05 14:00","2011","11","05","14:00","6.8","","-1.2","","57","","12","","15","","24.1","","100.84","","","","","","Mainly Clear"
"2011-11-05 15:00","2011","11","05","15:00","7.3","","-1.3","","54","","15","","13","","24.1","","100.79","","","","","","Clear"
"2011-11-05 16:00","2011","11","05","16:00","7.0","","-1.8","","53","","13","","7","","24.1","","100.75","","","","","","Clear"
"2011-11-05 17:00","2011","11","05","17:00","6.0","","-1.1","","60","","11","","13","","24.1","","100.70","","","","","","Clear"
"2011-11-05 18:00","2011","11","05","18:00","5.1","","-0.1","","69","","10","","7","","24.1","","100.66","","","","","","Clear"
"2011-11-05 19:00","2011","11","05","19:00","4.6","","0.8","","76","","9","","6","","24.1","","100.64","","","","","","Clear"
"2011-11-05 20:00","2011","11","05","20:00","4.3","","1.3","","81","","10","","6","","24.1","","100.61","","","","","","Clear"
"2011-11-05 21:00","2011","11","05","21:00","3.7","","1.3","","84","","7","","4","","24.1","","100.60","","","","","","Clear"
"2011-11-05 22:00","2011","11","05","22:00","3.6","","1.7","","87","","","","0","","24.1","","100.55","","","","","","Clear"
"2011-11-05 23:00","2011","11","05","23:00","1.5","","-0.4","","87","","","","0","","24.1","","100.51","","","","","","Clear"
"2011-11-06 00:00","2011","11","06","00:00","0.1","","-1.2","","91","","33","","6","","24.1","","100.49","","","","","","Clear"
"2011-11-06 01:00","2011","11","06","01:00","0.6","","-1.3","","87","","3","","6","","24.1","","100.48","","","","","","Clear"
"2011-11-06 02:00","2011","11","06","02:00","-0.6","","-2.2","","89","","","","0","","24.1","","100.47","","","","","","Clear"
"2011-11-06 03:00","2011","11","06","03:00","-0.2","","-1.8","","89","","27","","4","","24.1","","100.46","","","","-1","","Clear"
"2011-11-06 04:00","2011","11","06","04:00","0.3","","-1.2","","90","","","","0","","24.1","","100.46","","","","","","Clear"
"2011-11-06 05:00","2011","11","06","05:00","-1.3","","-3.4","","86","","","","0","","24.1","","100.51","","","","","","Clear"
"2011-11-06 06:00","2011","11","06","06:00","-1.2","","-2.6","","90","","","","0","","24.1","","100.51","","","","","","Clear"
"2011-11-06 07:00","2011","11","06","07:00","0.9","","-0.6","","90","","","","0","","24.1","","100.51","","","","","","Clear"
"2011-11-06 08:00","2011","11","06","08:00","1.7","","0.0","","88","","","","0","","24.1","","100.56","","","","","","Clear"
"2011-11-06 09:00","2011","11","06","09:00","6.5","","2.5","","76","","18","","6","","24.1","","100.55","","","","","","Clear"
"2011-11-06 10:00","2011","11","06","10:00","9.3","","1.5","","58","","22","","17","","24.1","","100.53","","","","","","Clear"
"2011-11-06 11:00","2011","11","06","11:00","11.9","","1.3","","48","","19","","17","","24.1","","100.45","","","","","","Clear"
"2011-11-06 12:00","2011","11","06","12:00","13.2","","1.7","","46","","18","","11","","24.1","","100.36","","","","","","Mainly Clear"
"2011-11-06 13:00","2011","11","06","13:00","13.5","","2.1","","46","","17","","15","","24.1","","100.27","","","","","","Mostly Cloudy"
"2011-11-06 14:00","2011","11","06","14:00","13.9","","2.3","","45","","18","","19","","24.1","","100.19","","","","","","Mainly Clear"
"2011-11-06 15:00","2011","11","06","15:00","13.9","","3.0","","48","","19","","13","","24.1","","100.17","","","","","","Mostly Cloudy"
"2011-11-06 16:00","2011","11","06","16:00","12.7","","3.2","","52","","15","","13","","24.1","","100.15","","","","","","Mostly Cloudy"
"2011-11-06 17:00","2011","11","06","17:00","12.1","","3.1","","54","","17","","13","","24.1","","100.14","","","","","","Mostly Cloudy"
"2011-11-06 18:00","2011","11","06","18:00","10.9","","2.9","","58","","16","","13","","24.1","","100.11","","","","","","Mostly Cloudy"
"2011-11-06 19:00","2011","11","06","19:00","10.4","","3.2","","61","","17","","11","","24.1","","100.11","","","","","","Mainly Clear"
"2011-11-06 20:00","2011","11","06","20:00","9.7","","3.5","","65","","17","","9","","24.1","","100.08","","","","","","Mostly Cloudy"
"2011-11-06 21:00","2011","11","06","21:00","10.0","","3.0","","62","","19","","9","","24.1","","100.10","","","","","","Mostly Cloudy"
"2011-11-06 22:00","2011","11","06","22:00","11.1","","1.4","","51","","21","","13","","24.1","","100.10","","","","","","Mainly Clear"
"2011-11-06 23:00","2011","11","06","23:00","10.8","","1.7","","53","","20","","9","","24.1","","100.06","","","","","","Mostly Cloudy"
"2011-11-07 00:00","2011","11","07","00:00","10.7","","2.5","","57","","22","","11","","24.1","","100.07","","","","","","Mostly Cloudy"
"2011-11-07 01:00","2011","11","07","01:00","10.5","","3.4","","61","","22","","22","","24.1","","100.06","","","","","","Mostly Cloudy"
"2011-11-07 02:00","2011","11","07","02:00","10.3","","4.2","","66","","22","","13","","24.1","","100.07","","","","","","Mostly Cloudy"
"2011-11-07 03:00","2011","11","07","03:00","11.2","","4.9","","65","","23","","17","","24.1","","100.06","","","","","","Mostly Cloudy"
"2011-11-07 04:00","2011","11","07","04:00","11.3","","5.2","","66","","25","","19","","24.1","","100.07","","","","","","Mostly Cloudy"
"2011-11-07 05:00","2011","11","07","05:00","11.2","","5.3","","67","","25","","17","","24.1","","100.09","","","","","","Mostly Cloudy"
"2011-11-07 06:00","2011","11","07","06:00","10.7","","5.2","","69","","25","","17","","24.1","","100.10","","","","","","Mostly Cloudy"
"2011-11-07 07:00","2011","11","07","07:00","11.0","","5.5","","69","","25","","13","","24.1","","100.12","","","","","","Mostly Cloudy"
"2011-11-07 08:00","2011","11","07","08:00","11.1","","5.4","","68","","25","","13","","24.1","","100.18","","","","","","Mainly Clear"
"2011-11-07 09:00","2011","11","07","09:00","12.8","","6.1","","64","","25","","20","","24.1","","100.19","","","","","","Mainly Clear"
"2011-11-07 10:00","2011","11","07","10:00","14.5","","7.1","","61","","25","","17","","24.1","","100.19","","","","","","Mostly Cloudy"
"2011-11-07 11:00","2011","11","07","11:00","15.6","","7.9","","60","","27","","19","","24.1","","100.16","","","","","","Mostly Cloudy"
"2011-11-07 12:00","2011","11","07","12:00","16.0","","8.1","","59","","24","","24","","24.1","","100.13","","","","","","Mostly Cloudy"
"2011-11-07 13:00","2011","11","07","13:00","16.6","","8.5","","59","","26","","26","","24.1","","100.10","","","","","","Mostly Cloudy"
"2011-11-07 14:00","2011","11","07","14:00","16.4","","8.9","","61","","23","","22","","24.1","","100.07","","","","","","Mostly Cloudy"
"2011-11-07 15:00","2011","11","07","15:00","16.5","","9.1","","62","","25","","19","","24.1","","100.06","","","","","","Mostly Cloudy"
"2011-11-07 16:00","2011","11","07","16:00","15.9","","8.6","","62","","23","","20","","24.1","","100.08","","","","","","Mostly Cloudy"
"2011-11-07 17:00","2011","11","07","17:00","14.6","","7.9","","64","","22","","19","","24.1","","100.07","","","","","","Mainly Clear"
"2011-11-07 18:00","2011","11","07","18:00","13.4","","7.9","","69","","22","","17","","24.1","","100.12","","","","","","Mainly Clear"
"2011-11-07 19:00","2011","11","07","19:00","12.5","","8.0","","74","","23","","15","","24.1","","100.12","","","","","","Mainly Clear"
"2011-11-07 20:00","2011","11","07","20:00","10.5","","7.9","","84","","24","","15","","24.1","","100.15","","","","","","Mainly Clear"
"2011-11-07 21:00","2011","11","07","21:00","11.8","","8.9","","82","","23","","17","","24.1","","100.18","","","","","","Mostly Cloudy"
"2011-11-07 22:00","2011","11","07","22:00","10.7","","8.8","","88","","26","","9","","24.1","","100.25","","","","","","Mostly Cloudy"
"2011-11-07 23:00","2011","11","07","23:00","10.8","","9.1","","89","","","","0","","24.1","","100.22","","","","","","Mostly Cloudy"
"2011-11-08 00:00","2011","11","08","00:00","11.0","","9.3","","89","","27","","4","","24.1","","100.25","","","","","","Mostly Cloudy"
"2011-11-08 01:00","2011","11","08","01:00","11.5","","9.7","","89","","16","","4","","24.1","","100.28","","","","","","Cloudy"
"2011-11-08 02:00","2011","11","08","02:00","11.4","","9.8","","90","","","","0","","24.1","","100.25","","","","","","Cloudy"
"2011-11-08 03:00","2011","11","08","03:00","11.1","","9.9","","92","","16","","4","","19.3","","100.25","","","","","","Cloudy"
"2011-11-08 04:00","2011","11","08","04:00","11.1","","9.7","","91","","18","","7","","19.3","","100.26","","","","","","Cloudy"
"2011-11-08 05:00","2011","11","08","05:00","11.2","","9.9","","92","","18","","6","","19.3","","100.26","","","","","","Cloudy"
"2011-11-08 06:00","2011","11","08","06:00","11.1","","10.2","","94","","27","","4","","16.1","","100.26","","","","","","Rain Showers"
"2011-11-08 07:00","2011","11","08","07:00","11.8","","10.5","","92","","17","","4","","9.7","","100.21","","","","","","Fog"
"2011-11-08 08:00","2011","11","08","08:00","11.8","","10.5","","92","","14","","6","","8.0","","100.24","","","","","","Fog"
"2011-11-08 09:00","2011","11","08","09:00","12.1","","10.9","","92","","","","0","","8.0","","100.23","","","","","","Rain Showers,Fog"
"2011-11-08 10:00","2011","11","08","10:00","12.2","","10.8","","91","","10","","4","","8.0","","100.19","","","","","","Fog"
"2011-11-08 11:00","2011","11","08","11:00","11.8","","10.8","","94","","13","","6","","4.8","","100.17","","","","","","Rain,Fog"
"2011-11-08 12:00","2011","11","08","12:00","11.8","","11.1","","95","","8","","7","","6.4","","100.08","","","","","","Drizzle,Fog"
"2011-11-08 13:00","2011","11","08","13:00","12.6","","11.6","","94","","9","","7","","6.4","","100.03","","","","","","Fog"
"2011-11-08 14:00","2011","11","08","14:00","13.0","","11.6","","91","","10","","9","","8.0","","99.98","","","","","","Fog"
"2011-11-08 15:00","2011","11","08","15:00","12.6","","10.9","","89","","9","","11","","8.0","","99.95","","","","","","Fog"
"2011-11-08 16:00","2011","11","08","16:00","12.1","","9.7","","85","","10","","11","","12.9","","99.94","","","","","","Cloudy"
"2011-11-08 17:00","2011","11","08","17:00","11.4","","8.4","","82","","11","","9","","12.9","","99.93","","","","","","Mostly Cloudy"
"2011-11-08 18:00","2011","11","08","18:00","10.7","","8.5","","86","","9","","7","","12.9","","99.94","","","","","","Mostly Cloudy"
"2011-11-08 19:00","2011","11","08","19:00","10.5","","8.6","","88","","10","","6","","16.1","","99.94","","","","","","Mostly Cloudy"
"2011-11-08 20:00","2011","11","08","20:00","10.3","","8.9","","91","","10","","4","","16.1","","99.91","","","","","","Mostly Cloudy"
"2011-11-08 21:00","2011","11","08","21:00","9.6","","8.7","","94","","9","","4","","9.7","","99.93","","","","","","Fog"
"2011-11-08 22:00","2011","11","08","22:00","10.2","","9.6","","96","","11","","6","","9.7","","99.89","","","","","","Fog"
"2011-11-08 23:00","2011","11","08","23:00","9.9","","9.3","","96","","11","","6","","6.4","","99.80","","","","","","Fog"
"2011-11-09 00:00","2011","11","09","00:00","9.6","","9.1","","97","","9","","4","","6.4","","99.76","","","","","","Fog"
"2011-11-09 01:00","2011","11","09","01:00","9.9","","9.6","","98","","9","","6","","6.4","","99.72","","","","","","Fog"
"2011-11-09 02:00","2011","11","09","02:00","9.6","","9.2","","97","","","","0","","6.4","","99.68","","","","","","Fog"
"2011-11-09 03:00","2011","11","09","03:00","9.6","","9.5","","99","","","","0","","2.4","","99.69","","","","","","Fog"
"2011-11-09 04:00","2011","11","09","04:00","9.6","","9.6","","100","","10","","4","","1.2","","99.63","","","","","","Fog"
"2011-11-09 05:00","2011","11","09","05:00","9.8","","9.7","","99","","10","","6","","4.8","","99.57","","","","","","Fog"
"2011-11-09 06:00","2011","11","09","06:00","10.0","","9.7","","98","","15","","6","","9.7","","99.51","","","","","","Fog"
"2011-11-09 07:00","2011","11","09","07:00","9.6","","9.2","","97","","15","","7","","3.2","","99.49","","","","","","Fog"
"2011-11-09 08:00","2011","11","09","08:00","10.3","","9.8","","97","","13","","6","","9.7","","99.48","","","","","","Fog"
"2011-11-09 09:00","2011","11","09","09:00","10.9","","8.5","","85","","14","","7","","12.9","","99.42","","","","","","Mostly Cloudy"
"2011-11-09 10:00","2011","11","09","10:00","11.6","","7.8","","77","","15","","6","","24.1","","99.37","","","","","","Mostly Cloudy"
"2011-11-09 11:00","2011","11","09","11:00","12.5","","7.8","","73","","14","","11","","24.1","","99.27","","","","","","Mostly Cloudy"
"2011-11-09 12:00","2011","11","09","12:00","13.4","","7.8","","69","","16","","9","","24.1","","99.12","","","","","","Cloudy"
"2011-11-09 13:00","2011","11","09","13:00","13.5","","7.3","","66","","14","","9","","24.1","","99.00","","","","","","Cloudy"
"2011-11-09 14:00","2011","11","09","14:00","13.7","","6.7","","63","","14","","9","","24.1","","98.91","","","","","","Cloudy"
"2011-11-09 15:00","2011","11","09","15:00","13.4","","7.7","","68","","13","","9","","24.1","","98.80","","","","","","Rain"
"2011-11-09 16:00","2011","11","09","16:00","12.5","","8.8","","78","","13","","13","","9.7","","98.75","","","","","","Rain,Fog"
"2011-11-09 17:00","2011","11","09","17:00","11.9","","9.8","","87","","12","","7","","9.7","","98.68","","","","","","Rain,Fog"
"2011-11-09 18:00","2011","11","09","18:00","12.0","","10.2","","89","","21","","4","","19.3","","98.65","","","","","","Rain"
"2011-11-09 19:00","2011","11","09","19:00","12.4","","11.2","","92","","14","","7","","16.1","","98.57","","","","","","Rain"
"2011-11-09 20:00","2011","11","09","20:00","12.4","","11.7","","95","","14","","13","","16.1","","98.47","","","","","","Rain"
"2011-11-09 21:00","2011","11","09","21:00","11.9","","11.3","","96","","14","","15","","16.1","","98.41","","","","","","Mostly Cloudy"
"2011-11-09 22:00","2011","11","09","22:00","12.3","","11.3","","94","","16","","19","","19.3","","98.32","","","","","","Mostly Cloudy"
"2011-11-09 23:00","2011","11","09","23:00","11.9","","7.2","","73","","23","","52","","19.3","","98.44","","","","","","Mostly Cloudy"
"2011-11-10 00:00","2011","11","10","00:00","9.2","","3.9","","69","","25","","39","","19.3","","98.60","","","","","","Mostly Cloudy"
"2011-11-10 01:00","2011","11","10","01:00","6.9","","1.5","","68","","24","","35","","24.1","","98.69","","","","","","Mainly Clear"
"2011-11-10 02:00","2011","11","10","02:00","6.4","","0.9","","68","","24","","41","","24.1","","98.77","","","","","","Mainly Clear"
"2011-11-10 03:00","2011","11","10","03:00","5.8","","1.0","","71","","25","","33","","24.1","","98.82","","","","","","Mainly Clear"
"2011-11-10 04:00","2011","11","10","04:00","5.5","","0.9","","72","","24","","41","","24.1","","98.88","","","","","","Mainly Clear"
"2011-11-10 05:00","2011","11","10","05:00","4.9","","0.4","","73","","25","","28","","24.1","","98.95","","","","","","Mainly Clear"
"2011-11-10 06:00","2011","11","10","06:00","5.1","","-0.1","","69","","25","","24","","24.1","","98.98","","","","","","Mainly Clear"
"2011-11-10 07:00","2011","11","10","07:00","5.2","","0.5","","72","","22","","15","","24.1","","99.07","","","","","","Mostly Cloudy"
"2011-11-10 08:00","2011","11","10","08:00","5.5","","0.9","","72","","24","","19","","24.1","","99.12","","","","","","Mostly Cloudy"
"2011-11-10 09:00","2011","11","10","09:00","5.9","","0.4","","68","","26","","20","","24.1","","99.12","","","","","","Mostly Cloudy"
"2011-11-10 10:00","2011","11","10","10:00","6.6","","0.7","","66","","26","","22","","24.1","","99.15","","","","","","Mostly Cloudy"
"2011-11-10 11:00","2011","11","10","11:00","7.2","","0.4","","62","","28","","24","","24.1","","99.11","","","","","","Mostly Cloudy"
"2011-11-10 12:00","2011","11","10","12:00","7.4","","-0.1","","59","","27","","26","","24.1","","99.05","","","","","","Mostly Cloudy"
"2011-11-10 13:00","2011","11","10","13:00","7.4","","-0.2","","58","","26","","20","","24.1","","98.99","","","","","","Mostly Cloudy"
"2011-11-10 14:00","2011","11","10","14:00","8.3","","-0.1","","55","","26","","11","","24.1","","98.92","","","","","","Mostly Cloudy"
"2011-11-10 15:00","2011","11","10","15:00","7.7","","-1.4","","52","","26","","20","","24.1","","98.90","","","","","","Mostly Cloudy"
"2011-11-10 16:00","2011","11","10","16:00","7.3","","-1.1","","55","","28","","15","","24.1","","98.90","","","","","","Mostly Cloudy"
"2011-11-10 17:00","2011","11","10","17:00","5.5","","-0.8","","64","","29","","7","","24.1","","98.87","","","","","","Mainly Clear"
"2011-11-10 18:00","2011","11","10","18:00","4.8","","-0.4","","69","","29","","9","","24.1","","98.85","","","","","","Mainly Clear"
"2011-11-10 19:00","2011","11","10","19:00","4.4","","-0.5","","70","","24","","7","","24.1","","98.83","","","","","","Mainly Clear"
"2011-11-10 20:00","2011","11","10","20:00","3.4","","-1.3","","71","","26","","19","","24.1","","98.83","","","","","","Mainly Clear"
"2011-11-10 21:00","2011","11","10","21:00","2.4","","-1.2","","77","","29","","11","","24.1","","98.80","","","","","","Clear"
"2011-11-10 22:00","2011","11","10","22:00","1.1","","-1.5","","83","","25","","7","","24.1","","98.78","","","","","","Clear"
"2011-11-10 23:00","2011","11","10","23:00","0.5","","-1.7","","85","","25","","11","","24.1","","98.76","","","","","","Mainly Clear"
"2011-11-11 00:00","2011","11","11","00:00","-0.1","","-1.7","","89","","26","","9","","24.1","","98.71","","","","-3","","Mainly Clear"
"2011-11-11 01:00","2011","11","11","01:00","0.6","","-1.3","","87","","26","","15","","24.1","","98.64","","","","","","Clear"
"2011-11-11 02:00","2011","11","11","02:00","0.1","","-1.7","","88","","27","","13","","24.1","","98.61","","","","","","Clear"
"2011-11-11 03:00","2011","11","11","03:00","0.3","","-1.4","","88","","29","","13","","24.1","","98.58","","","","","","Mainly Clear"
"2011-11-11 04:00","2011","11","11","04:00","0.3","","-1.4","","88","","27","","13","","24.1","","98.55","","","","","","Mainly Clear"
"2011-11-11 05:00","2011","11","11","05:00","1.1","","-0.7","","88","","29","","17","","24.1","","98.58","","","","","","Mainly Clear"
"2011-11-11 06:00","2011","11","11","06:00","0.7","","-1.0","","88","","29","","15","","24.1","","98.60","","","","","","Mainly Clear"
"2011-11-11 07:00","2011","11","11","07:00","1.5","","-1.0","","83","","28","","19","","24.1","","98.62","","","","","","Mainly Clear"
"2011-11-11 08:00","2011","11","11","08:00","2.0","","-0.8","","82","","29","","20","","24.1","","98.70","","","","","","Mainly Clear"
"2011-11-11 09:00","2011","11","11","09:00","2.9","","-0.8","","77","","30","","26","","24.1","","98.71","","","","","","Mainly Clear"
"2011-11-11 10:00","2011","11","11","10:00","4.7","","-1.3","","65","","31","","32","","24.1","","98.75","","","","","","Mostly Cloudy"
"2011-11-11 11:00","2011","11","11","11:00","4.6","","-1.8","","63","","31","","37","","24.1","","98.79","","","","","","Mostly Cloudy"
"2011-11-11 12:00","2011","11","11","12:00","5.5","","-2.2","","58","","31","","32","","24.1","","98.79","","","","","","Mostly Cloudy"
"2011-11-11 13:00","2011","11","11","13:00","4.5","","-3.2","","57","","31","","28","","24.1","","98.81","","","","","","Mostly Cloudy"
"2011-11-11 14:00","2011","11","11","14:00","4.5","","-2.9","","59","","29","","28","","24.1","","98.86","","","","","","Mostly Cloudy"
"2011-11-11 15:00","2011","11","11","15:00","5.2","","-1.9","","60","","29","","33","","24.1","","98.90","","","","","","Mostly Cloudy"
"2011-11-11 16:00","2011","11","11","16:00","4.4","","-2.4","","61","","30","","30","","24.1","","98.98","","","","","","Mostly Cloudy"
"2011-11-11 17:00","2011","11","11","17:00","3.3","","-1.9","","69","","28","","28","","24.1","","99.03","","","","","","Mostly Cloudy"
"2011-11-11 18:00","2011","11","11","18:00","3.5","","-1.5","","70","","27","","22","","24.1","","99.06","","","","","","Mostly Cloudy"
"2011-11-11 19:00","2011","11","11","19:00","3.3","","-1.3","","72","","25","","17","","24.1","","99.09","","","","","","Mostly Cloudy"
"2011-11-11 20:00","2011","11","11","20:00","3.4","","-1.9","","68","","25","","17","","24.1","","99.08","","","","","","Mostly Cloudy"
"2011-11-11 21:00","2011","11","11","21:00","3.1","","-2.6","","66","","23","","15","","24.1","","99.10","","","","","","Mostly Cloudy"
"2011-11-11 22:00","2011","11","11","22:00","3.3","","-3.2","","62","","22","","13","","24.1","","99.10","","","","","","Mostly Cloudy"
"2011-11-11 23:00","2011","11","11","23:00","3.4","","-2.9","","63","","24","","17","","24.1","","99.10","","","","","","Mostly Cloudy"
"2011-11-12 00:00","2011","11","12","00:00","3.7","","-2.9","","62","","25","","22","","24.1","","99.05","","","","","","Mostly Cloudy"
"2011-11-12 01:00","2011","11","12","01:00","3.8","","-2.4","","64","","25","","19","","24.1","","99.06","","","","","","Mostly Cloudy"
"2011-11-12 02:00","2011","11","12","02:00","3.3","","-2.7","","65","","24","","15","","24.1","","99.01","","","","","","Mainly Clear"
"2011-11-12 03:00","2011","11","12","03:00","3.4","","-2.7","","64","","19","","7","","24.1","","98.92","","","","","","Mostly Cloudy"
"2011-11-12 04:00","2011","11","12","04:00","3.4","","-2.0","","68","","18","","7","","24.1","","98.85","","","","","","Cloudy"
"2011-11-12 05:00","2011","11","12","05:00","3.2","","-1.4","","72","","17","","7","","24.1","","98.81","","","","","","Cloudy"
"2011-11-12 06:00","2011","11","12","06:00","3.7","","-0.6","","73","","20","","11","","24.1","","98.81","","","","","","Cloudy"
"2011-11-12 07:00","2011","11","12","07:00","4.7","","0.4","","74","","22","","13","","24.1","","98.80","","","","","","Mostly Cloudy"
"2011-11-12 08:00","2011","11","12","08:00","4.7","","0.6","","75","","22","","13","","24.1","","98.80","","","","","","Clear"
"2011-11-12 09:00","2011","11","12","09:00","6.6","","1.2","","68","","24","","26","","24.1","","98.80","","","","","","Clear"
"2011-11-12 10:00","2011","11","12","10:00","7.8","","1.1","","63","","24","","24","","24.1","","98.83","","","","","","Clear"
"2011-11-12 11:00","2011","11","12","11:00","9.2","","1.5","","59","","23","","15","","24.1","","98.93","","","","","","Mainly Clear"
"2011-11-12 12:00","2011","11","12","12:00","10.7","","1.7","","54","","25","","32","","24.1","","98.95","","","","","","Mainly Clear"
"2011-11-12 13:00","2011","11","12","13:00","12.1","","2.5","","52","","26","","26","","24.1","","98.94","","","","","","Mainly Clear"
"2011-11-12 14:00","2011","11","12","14:00","12.5","","2.3","","50","","24","","20","","24.1","","98.95","","","","","","Mainly Clear"
"2011-11-12 15:00","2011","11","12","15:00","12.7","","2.9","","51","","24","","22","","24.1","","98.98","","","","","","Mainly Clear"
"2011-11-12 16:00","2011","11","12","16:00","12.4","","2.7","","52","","23","","20","","24.1","","99.01","","","","","","Mainly Clear"
"2011-11-12 17:00","2011","11","12","17:00","10.9","","4.2","","63","","23","","19","","24.1","","99.05","","","","","","Mainly Clear"
"2011-11-12 18:00","2011","11","12","18:00","10.1","","4.2","","67","","24","","17","","24.1","","99.10","","","","","","Mainly Clear"
"2011-11-12 19:00","2011","11","12","19:00","9.7","","3.8","","67","","23","","19","","24.1","","99.11","","","","","","Mainly Clear"
"2011-11-12 20:00","2011","11","12","20:00","9.0","","3.6","","69","","23","","17","","24.1","","99.09","","","","","","Mainly Clear"
"2011-11-12 21:00","2011","11","12","21:00","9.2","","3.5","","67","","23","","17","","24.1","","99.07","","","","","","Mainly Clear"
"2011-11-12 22:00","2011","11","12","22:00","9.7","","5.0","","72","","23","","22","","24.1","","99.07","","","","","","Clear"
"2011-11-12 23:00","2011","11","12","23:00","9.0","","4.9","","75","","23","","15","","24.1","","99.04","","","","","","Clear"
"2011-11-13 00:00","2011","11","13","00:00","9.3","","4.9","","74","","22","","15","","24.1","","99.03","","","","","","Mostly Cloudy"
"2011-11-13 01:00","2011","11","13","01:00","9.3","","4.0","","69","","18","","6","","24.1","","99.01","","","","","","Mostly Cloudy"
"2011-11-13 02:00","2011","11","13","02:00","9.2","","3.1","","66","","18","","11","","24.1","","99.00","","","","","","Mostly Cloudy"
"2011-11-13 03:00","2011","11","13","03:00","9.7","","2.9","","63","","18","","11","","24.1","","98.93","","","","","","Mostly Cloudy"
"2011-11-13 04:00","2011","11","13","04:00","10.4","","3.3","","61","","19","","15","","24.1","","98.89","","","","","","Cloudy"
"2011-11-13 05:00","2011","11","13","05:00","10.4","","2.9","","60","","19","","13","","24.1","","98.84","","","","","","Cloudy"
"2011-11-13 06:00","2011","11","13","06:00","10.4","","2.7","","59","","19","","15","","24.1","","98.80","","","","","","Mostly Cloudy"
"2011-11-13 07:00","2011","11","13","07:00","11.4","","2.2","","53","","21","","22","","24.1","","98.74","","","","","","Mostly Cloudy"
"2011-11-13 08:00","2011","11","13","08:00","11.6","","2.2","","52","","20","","19","","24.1","","98.77","","","","","","Mostly Cloudy"
"2011-11-13 09:00","2011","11","13","09:00","11.7","","2.4","","53","","20","","24","","24.1","","98.71","","","","","","Mostly Cloudy"
"2011-11-13 10:00","2011","11","13","10:00","12.5","","3.0","","52","","20","","22","","24.1","","98.63","","","","","","Mostly Cloudy"
"2011-11-13 11:00","2011","11","13","11:00","13.6","","3.7","","51","","21","","30","","24.1","","98.58","","","","","","Mostly Cloudy"
"2011-11-13 12:00","2011","11","13","12:00","13.9","","3.9","","51","","22","","37","","24.1","","98.52","","","","","","Mostly Cloudy"
"2011-11-13 13:00","2011","11","13","13:00","14.3","","4.5","","52","","21","","30","","24.1","","98.36","","","","","","Cloudy"
"2011-11-13 14:00","2011","11","13","14:00","14.8","","5.4","","53","","22","","26","","24.1","","98.30","","","","","","Cloudy"
"2011-11-13 15:00","2011","11","13","15:00","14.6","","4.7","","51","","21","","24","","24.1","","98.30","","","","","","Cloudy"
"2011-11-13 16:00","2011","11","13","16:00","14.7","","5.2","","53","","20","","22","","24.1","","98.29","","","","","","Cloudy"
"2011-11-13 17:00","2011","11","13","17:00","14.8","","6.0","","56","","19","","19","","24.1","","98.23","","","","","","Cloudy"
"2011-11-13 18:00","2011","11","13","18:00","15.0","","6.8","","58","","20","","15","","24.1","","98.24","","","","","","Cloudy"
"2011-11-13 19:00","2011","11","13","19:00","15.3","","7.6","","60","","22","","30","","24.1","","98.23","","","","","","Mostly Cloudy"
"2011-11-13 20:00","2011","11","13","20:00","15.3","","8.0","","62","","21","","24","","24.1","","98.12","","","","","","Cloudy"
"2011-11-13 21:00","2011","11","13","21:00","16.2","","8.0","","58","","21","","33","","24.1","","98.09","","","","","","Cloudy"
"2011-11-13 22:00","2011","11","13","22:00","16.5","","8.0","","57","","21","","26","","24.1","","98.03","","","","","","Cloudy"
"2011-11-13 23:00","2011","11","13","23:00","16.7","","8.6","","59","","21","","32","","24.1","","97.98","","","","","","Cloudy"
"2011-11-14 00:00","2011","11","14","00:00","16.9","","9.2","","60","","21","","30","","24.1","","97.95","","","","","","Cloudy"
"2011-11-14 01:00","2011","11","14","01:00","16.8","","9.5","","62","","21","","24","","24.1","","97.92","","","","","","Cloudy"
"2011-11-14 02:00","2011","11","14","02:00","16.4","","10.8","","69","","25","","32","","19.3","","97.99","","","","","","Rain"
"2011-11-14 03:00","2011","11","14","03:00","13.2","","12.1","","93","","24","","19","","19.3","","98.08","","","","","","Mostly Cloudy"
"2011-11-14 04:00","2011","11","14","04:00","13.5","","11.0","","85","","27","","41","","24.1","","98.18","","","","","","Mainly Clear"
"2011-11-14 05:00","2011","11","14","05:00","11.4","","5.9","","69","","27","","24","","24.1","","98.23","","","","","","Clear"
"2011-11-14 06:00","2011","11","14","06:00","10.4","","6.0","","74","","24","","17","","24.1","","98.28","","","","","","Clear"
"2011-11-14 07:00","2011","11","14","07:00","10.0","","6.1","","77","","26","","15","","24.1","","98.33","","","","","","Mostly Cloudy"
"2011-11-14 08:00","2011","11","14","08:00","11.0","","6.2","","72","","22","","6","","24.1","","98.35","","","","","","Mostly Cloudy"
"2011-11-14 09:00","2011","11","14","09:00","13.2","","10.2","","82","","22","","17","","24.1","","98.36","","","","","","Mostly Cloudy"
"2011-11-14 10:00","2011","11","14","10:00","13.7","","9.8","","77","","22","","19","","24.1","","98.40","","","","","","Mostly Cloudy"
"2011-11-14 11:00","2011","11","14","11:00","14.0","","9.5","","74","","24","","28","","24.1","","98.37","","","","","","Mostly Cloudy"
"2011-11-14 12:00","2011","11","14","12:00","14.2","","8.9","","70","","25","","26","","24.1","","98.32","","","","","","Mostly Cloudy"
"2011-11-14 13:00","2011","11","14","13:00","14.5","","7.2","","62","","26","","20","","24.1","","98.26","","","","","","Cloudy"
"2011-11-14 14:00","2011","11","14","14:00","14.0","","7.3","","64","","29","","11","","24.1","","98.18","","","","","","Cloudy"
"2011-11-14 15:00","2011","11","14","15:00","13.3","","6.3","","63","","33","","9","","24.1","","98.09","","","","","","Cloudy"
"2011-11-14 16:00","2011","11","14","16:00","10.4","","6.8","","78","","33","","20","","9.7","","98.12","","","","","","Moderate Rain Showers"
"2011-11-14 17:00","2011","11","14","17:00","9.3","","7.9","","91","","32","","17","","12.9","","98.15","","","","","","Rain Showers"
"2011-11-14 18:00","2011","11","14","18:00","9.6","","7.6","","87","","36","","15","","24.1","","98.07","","","","","","Rain"
"2011-11-14 19:00","2011","11","14","19:00","9.7","","7.9","","89","","6","","7","","24.1","","98.04","","","","","","Cloudy"
"2011-11-14 20:00","2011","11","14","20:00","9.7","","7.8","","88","","32","","15","","24.1","","98.25","","","","","","Cloudy"
"2011-11-14 21:00","2011","11","14","21:00","9.4","","7.5","","88","","34","","13","","24.1","","98.16","","","","","","Mostly Cloudy"
"2011-11-14 22:00","2011","11","14","22:00","9.0","","7.5","","90","","25","","6","","24.1","","98.23","","","","","","Mostly Cloudy"
"2011-11-14 23:00","2011","11","14","23:00","7.8","","6.6","","92","","29","","11","","24.1","","98.27","","","","","","Mainly Clear"
"2011-11-15 00:00","2011","11","15","00:00","6.6","","5.2","","91","","27","","11","","24.1","","98.37","","","","","","Cloudy"
"2011-11-15 01:00","2011","11","15","01:00","6.6","","5.4","","92","","28","","9","","24.1","","98.41","","","","","","Cloudy"
"2011-11-15 02:00","2011","11","15","02:00","5.4","","4.3","","93","","27","","9","","24.1","","98.53","","","","","","Cloudy"
"2011-11-15 03:00","2011","11","15","03:00","5.0","","3.8","","92","","28","","11","","24.1","","98.53","","","","","","Mainly Clear"
"2011-11-15 04:00","2011","11","15","04:00","4.4","","3.5","","94","","29","","7","","24.1","","98.59","","","","","","Mostly Cloudy"
"2011-11-15 05:00","2011","11","15","05:00","5.5","","3.9","","89","","31","","7","","24.1","","98.62","","","","","","Cloudy"
"2011-11-15 06:00","2011","11","15","06:00","5.6","","3.6","","87","","26","","4","","24.1","","98.60","","","","","","Cloudy"
"2011-11-15 07:00","2011","11","15","07:00","6.2","","3.1","","81","","25","","9","","24.1","","98.69","","","","","","Mostly Cloudy"
"2011-11-15 08:00","2011","11","15","08:00","7.6","","3.8","","77","","21","","7","","24.1","","98.79","","","","","","Mostly Cloudy"
"2011-11-15 09:00","2011","11","15","09:00","7.3","","5.0","","85","","24","","9","","24.1","","98.83","","","","","","Mostly Cloudy"
"2011-11-15 10:00","2011","11","15","10:00","8.6","","6.1","","84","","25","","9","","24.1","","98.87","","","","","","Mostly Cloudy"
"2011-11-15 11:00","2011","11","15","11:00","9.2","","6.2","","81","","26","","7","","19.3","","98.93","","","","","","Mostly Cloudy"
"2011-11-15 12:00","2011","11","15","12:00","10.0","","6.0","","76","","36","","6","","19.3","","98.92","","","","","","Mostly Cloudy"
"2011-11-15 13:00","2011","11","15","13:00","11.1","","5.6","","69","","","","0","","24.1","","98.85","","","","","","Mainly Clear"
"2011-11-15 14:00","2011","11","15","14:00","12.6","","4.3","","57","","19","","9","","24.1","","98.85","","","","","","Mainly Clear"
"2011-11-15 15:00","2011","11","15","15:00","11.1","","6.2","","72","","17","","13","","24.1","","98.85","","","","","","Mainly Clear"
"2011-11-15 16:00","2011","11","15","16:00","11.3","","6.7","","73","","15","","9","","24.1","","98.86","","","","","","Mostly Cloudy"
"2011-11-15 17:00","2011","11","15","17:00","10.0","","6.7","","80","","16","","9","","24.1","","98.90","","","","","","Mostly Cloudy"
"2011-11-15 18:00","2011","11","15","18:00","9.3","","6.6","","83","","15","","9","","24.1","","98.92","","","","","","Mainly Clear"
"2011-11-15 19:00","2011","11","15","19:00","9.7","","7.2","","84","","19","","11","","24.1","","98.93","","","","","","Mainly Clear"
"2011-11-15 20:00","2011","11","15","20:00","9.9","","7.2","","83","","20","","15","","24.1","","98.92","","","","","","Mainly Clear"
"2011-11-15 21:00","2011","11","15","21:00","9.7","","7.4","","86","","18","","9","","24.1","","98.94","","","","","","Mainly Clear"
"2011-11-15 22:00","2011","11","15","22:00","10.0","","7.9","","87","","19","","9","","24.1","","98.95","","","","","","Mostly Cloudy"
"2011-11-15 23:00","2011","11","15","23:00","9.7","","7.9","","89","","19","","13","","24.1","","98.88","","","","","","Mainly Clear"
"2011-11-16 00:00","2011","11","16","00:00","9.9","","8.2","","89","","21","","9","","24.1","","98.87","","","","","","Mostly Cloudy"
"2011-11-16 01:00","2011","11","16","01:00","8.6","","7.4","","92","","16","","7","","24.1","","98.85","","","","","","Mainly Clear"
"2011-11-16 02:00","2011","11","16","02:00","9.3","","8.3","","93","","16","","6","","19.3","","98.85","","","","","","Mostly Cloudy"
"2011-11-16 03:00","2011","11","16","03:00","9.4","","8.5","","94","","15","","6","","19.3","","98.80","","","","","","Mostly Cloudy"
"2011-11-16 04:00","2011","11","16","04:00","9.0","","8.3","","95","","17","","6","","16.1","","98.73","","","","","","Mainly Clear"
"2011-11-16 05:00","2011","11","16","05:00","9.2","","8.5","","95","","21","","6","","12.9","","98.74","","","","","","Mostly Cloudy"
"2011-11-16 06:00","2011","11","16","06:00","9.3","","8.4","","94","","20","","6","","19.3","","98.72","","","","","","Mainly Clear"
"2011-11-16 07:00","2011","11","16","07:00","9.6","","8.7","","94","","23","","13","","19.3","","98.77","","","","","","Mostly Cloudy"
"2011-11-16 08:00","2011","11","16","08:00","9.7","","8.9","","95","","23","","11","","16.1","","98.75","","","","","","Cloudy"
"2011-11-16 09:00","2011","11","16","09:00","10.7","","9.6","","93","","26","","15","","12.9","","98.77","","","","","","Cloudy"
"2011-11-16 10:00","2011","11","16","10:00","11.1","","9.0","","87","","25","","17","","12.9","","98.72","","","","","","Cloudy"
"2011-11-16 11:00","2011","11","16","11:00","10.9","","6.8","","76","","27","","26","","19.3","","98.78","","","","","","Cloudy"
"2011-11-16 12:00","2011","11","16","12:00","10.7","","5.4","","70","","27","","28","","24.1","","98.72","","","","","","Cloudy"
"2011-11-16 13:00","2011","11","16","13:00","10.3","","2.6","","59","","29","","28","","24.1","","98.73","","","","","","Cloudy"
"2011-11-16 14:00","2011","11","16","14:00","9.6","","-2.0","","44","","30","","32","","24.1","","98.76","","","","","","Mostly Cloudy"
"2011-11-16 15:00","2011","11","16","15:00","8.7","","-5.0","","37","","30","","32","","24.1","","98.80","","","","","","Mostly Cloudy"
"2011-11-16 16:00","2011","11","16","16:00","7.4","","-6.4","","37","","30","","33","","24.1","","98.92","","","","","","Mostly Cloudy"
"2011-11-16 17:00","2011","11","16","17:00","6.5","","-4.9","","44","","29","","19","","24.1","","99.00","","","","","","Mostly Cloudy"
"2011-11-16 18:00","2011","11","16","18:00","5.4","","-2.8","","55","","30","","24","","24.1","","99.12","","","","","","Mostly Cloudy"
"2011-11-16 19:00","2011","11","16","19:00","4.3","","-3.0","","59","","30","","19","","24.1","","99.23","","","","","","Mostly Cloudy"
"2011-11-16 20:00","2011","11","16","20:00","3.0","","-3.1","","64","","27","","15","","24.1","","99.25","","","","","","Mostly Cloudy"
"2011-11-16 21:00","2011","11","16","21:00","2.4","","-2.8","","68","","25","","11","","24.1","","99.23","","","","","","Mostly Cloudy"
"2011-11-16 22:00","2011","11","16","22:00","2.8","","-2.5","","68","","26","","17","","24.1","","99.22","","","","","","Mostly Cloudy"
"2011-11-16 23:00","2011","11","16","23:00","2.3","","-3.1","","67","","27","","19","","24.1","","99.25","","","","","","Mostly Cloudy"
"2011-11-17 00:00","2011","11","17","00:00","2.2","","-3.7","","65","","27","","19","","24.1","","99.32","","","","","","Mainly Clear"
"2011-11-17 01:00","2011","11","17","01:00","1.0","","-3.8","","70","","26","","15","","24.1","","99.31","","","","","","Mainly Clear"
"2011-11-17 02:00","2011","11","17","02:00","0.9","","-3.8","","71","","27","","19","","24.1","","99.34","","","","","","Mainly Clear"
"2011-11-17 03:00","2011","11","17","03:00","0.0","","-4.0","","74","","26","","19","","24.1","","99.36","","","","-5","","Mainly Clear"
"2011-11-17 04:00","2011","11","17","04:00","0.2","","-4.0","","73","","25","","17","","24.1","","99.34","","","","","","Mainly Clear"
"2011-11-17 05:00","2011","11","17","05:00","-0.1","","-4.4","","73","","25","","15","","24.1","","99.37","","","","-5","","Mainly Clear"
"2011-11-17 06:00","2011","11","17","06:00","-0.5","","-4.6","","74","","25","","17","","24.1","","99.33","","","","-5","","Mainly Clear"
"2011-11-17 07:00","2011","11","17","07:00","-0.2","","-4.3","","74","","25","","19","","24.1","","99.35","","","","-5","","Mostly Cloudy"
"2011-11-17 08:00","2011","11","17","08:00","0.3","","-4.1","","72","","25","","19","","24.1","","99.40","","","","","","Mostly Cloudy"
"2011-11-17 09:00","2011","11","17","09:00","1.5","","-3.9","","67","","26","","22","","24.1","","99.41","","","","","","Mostly Cloudy"
"2011-11-17 10:00","2011","11","17","10:00","3.1","","-4.1","","59","","27","","20","","24.1","","99.39","","","","","","Mainly Clear"
"2011-11-17 11:00","2011","11","17","11:00","3.6","","-5.9","","50","","26","","33","","24.1","","99.36","","","","","","Mostly Cloudy"
"2011-11-17 12:00","2011","11","17","12:00","4.3","","-6.0","","47","","25","","37","","24.1","","99.28","","","","","","Mostly Cloudy"
"2011-11-17 13:00","2011","11","17","13:00","4.1","","-4.8","","52","","27","","33","","24.1","","99.23","","","","","","Mostly Cloudy"
"2011-11-17 14:00","2011","11","17","14:00","4.1","","-4.9","","52","","29","","32","","24.1","","99.16","","","","","","Mostly Cloudy"
"2011-11-17 15:00","2011","11","17","15:00","1.9","","-3.9","","65","","28","","35","","24.1","","99.20","","","","","","Mostly Cloudy"
"2011-11-17 16:00","2011","11","17","16:00","1.7","","-4.2","","65","","30","","26","","24.1","","99.25","","","","","","Mostly Cloudy"
"2011-11-17 17:00","2011","11","17","17:00","0.5","","-5.0","","67","","31","","35","","24.1","","99.32","","","","","","Snow Showers"
"2011-11-17 18:00","2011","11","17","18:00","-0.1","","-5.5","","67","","27","","20","","24.1","","99.38","","","","-5","","Mainly Clear"
"2011-11-17 19:00","2011","11","17","19:00","-0.1","","-5.5","","67","","28","","22","","24.1","","99.47","","","","-6","","Mainly Clear"
"2011-11-17 20:00","2011","11","17","20:00","0.0","","-4.9","","70","","28","","22","","24.1","","99.54","","","","-6","","Mostly Cloudy"
"2011-11-17 21:00","2011","11","17","21:00","-0.9","","-5.3","","72","","28","","20","","24.1","","99.59","","","","-6","","Mainly Clear"
"2011-11-17 22:00","2011","11","17","22:00","-1.3","","-6.0","","70","","27","","19","","24.1","","99.65","","","","-7","","Mainly Clear"
"2011-11-17 23:00","2011","11","17","23:00","-0.9","","-5.0","","74","","27","","30","","24.1","","99.67","","","","-8","","Mainly Clear"
"2011-11-18 00:00","2011","11","18","00:00","-0.7","","-4.9","","73","","27","","33","","24.1","","99.68","","","","-8","","Mainly Clear"
"2011-11-18 01:00","2011","11","18","01:00","-0.2","","-5.5","","67","","27","","33","","24.1","","99.79","","","","-7","","Mainly Clear"
"2011-11-18 02:00","2011","11","18","02:00","-0.1","","-5.4","","67","","27","","30","","24.1","","99.86","","","","-7","","Mainly Clear"
"2011-11-18 03:00","2011","11","18","03:00","-0.6","","-5.3","","70","","27","","28","","24.1","","100.02","","","","-7","","Mainly Clear"
"2011-11-18 04:00","2011","11","18","04:00","-1.0","","-5.4","","72","","27","","20","","24.1","","100.08","","","","-7","","Clear"
"2011-11-18 05:00","2011","11","18","05:00","-1.3","","-5.5","","73","","25","","13","","24.1","","100.16","","","","-6","","Clear"
"2011-11-18 06:00","2011","11","18","06:00","-1.4","","-5.3","","75","","24","","17","","24.1","","100.23","","","","-7","","Mostly Cloudy"
"2011-11-18 07:00","2011","11","18","07:00","-1.4","","-5.4","","74","","25","","20","","24.1","","100.29","","","","-7","","Mainly Clear"
"2011-11-18 08:00","2011","11","18","08:00","-0.8","","-5.6","","70","","21","","11","","24.1","","100.38","","","","-5","","Mostly Cloudy"
"2011-11-18 09:00","2011","11","18","09:00","-0.2","","-5.6","","67","","26","","24","","24.1","","100.41","","","","-6","","Mostly Cloudy"
"2011-11-18 10:00","2011","11","18","10:00","1.1","","-6.0","","59","","26","","24","","24.1","","100.43","","","","","","Mostly Cloudy"
"2011-11-18 11:00","2011","11","18","11:00","1.9","","-6.6","","53","","25","","22","","24.1","","100.40","","","","","","Mostly Cloudy"
"2011-11-18 12:00","2011","11","18","12:00","4.0","","-6.2","","47","","23","","22","","24.1","","100.33","","","","","","Mostly Cloudy"
"2011-11-18 13:00","2011","11","18","13:00","5.2","","-5.8","","45","","22","","20","","24.1","","100.23","","","","","","Mainly Clear"
"2011-11-18 14:00","2011","11","18","14:00","6.7","","-5.6","","41","","21","","24","","24.1","","100.14","","","","","","Mainly Clear"
"2011-11-18 15:00","2011","11","18","15:00","7.6","","-5.1","","40","","21","","24","","24.1","","100.06","","","","","","Mostly Cloudy"
"2011-11-18 16:00","2011","11","18","16:00","6.7","","-4.5","","45","","22","","24","","24.1","","100.03","","","","","","Mostly Cloudy"
"2011-11-18 17:00","2011","11","18","17:00","6.0","","-5.8","","42","","21","","22","","24.1","","100.02","","","","","","Mostly Cloudy"
"2011-11-18 18:00","2011","11","18","18:00","5.3","","-4.8","","48","","19","","19","","24.1","","99.97","","","","","","Mostly Cloudy"
"2011-11-18 19:00","2011","11","18","19:00","5.3","","-4.9","","48","","20","","22","","24.1","","99.92","","","","","","Cloudy"
"2011-11-18 20:00","2011","11","18","20:00","5.4","","-5.4","","46","","20","","13","","24.1","","99.86","","","","","","Cloudy"
"2011-11-18 21:00","2011","11","18","21:00","5.5","","-5.3","","46","","20","","20","","24.1","","99.81","","","","","","Cloudy"
"2011-11-18 22:00","2011","11","18","22:00","5.9","","-5.0","","45","","21","","26","","24.1","","99.80","","","","","","Mostly Cloudy"
"2011-11-18 23:00","2011","11","18","23:00","5.9","","-4.4","","48","","21","","26","","24.1","","99.79","","","","","","Cloudy"
"2011-11-19 00:00","2011","11","19","00:00","5.8","","-4.0","","49","","22","","24","","24.1","","99.82","","","","","","Cloudy"
"2011-11-19 01:00","2011","11","19","01:00","4.9","","-4.1","","52","","21","","15","","24.1","","99.75","","","","","","Mainly Clear"
"2011-11-19 02:00","2011","11","19","02:00","4.7","","-3.9","","54","","20","","13","","24.1","","99.74","","","","","","Mainly Clear"
"2011-11-19 03:00","2011","11","19","03:00","4.7","","-3.6","","55","","22","","13","","24.1","","99.78","","","","","","Mainly Clear"
"2011-11-19 04:00","2011","11","19","04:00","4.7","","-3.6","","55","","21","","11","","24.1","","99.76","","","","","","Mainly Clear"
"2011-11-19 05:00","2011","11","19","05:00","4.2","","-3.4","","58","","20","","9","","24.1","","99.75","","","","","","Mostly Cloudy"
"2011-11-19 06:00","2011","11","19","06:00","4.4","","-2.8","","59","","21","","9","","24.1","","99.78","","","","","","Mostly Cloudy"
"2011-11-19 07:00","2011","11","19","07:00","4.5","","-2.1","","62","","20","","11","","24.1","","99.77","","","","","","Mainly Clear"
"2011-11-19 08:00","2011","11","19","08:00","4.9","","-1.1","","65","","20","","9","","24.1","","99.78","","","","","","Mostly Cloudy"
"2011-11-19 09:00","2011","11","19","09:00","7.1","","0.9","","65","","20","","13","","24.1","","99.75","","","","","","Mostly Cloudy"
"2011-11-19 10:00","2011","11","19","10:00","9.4","","1.3","","57","","22","","28","","24.1","","99.69","","","","","","Mostly Cloudy"
"2011-11-19 11:00","2011","11","19","11:00","11.1","","1.7","","52","","22","","24","","24.1","","99.67","","","","","","Mostly Cloudy"
"2011-11-19 12:00","2011","11","19","12:00","11.9","","1.8","","50","","22","","28","","24.1","","99.57","","","","","","Mostly Cloudy"
"2011-11-19 13:00","2011","11","19","13:00","12.1","","1.9","","50","","23","","32","","24.1","","99.51","","","","","","Mostly Cloudy"
"2011-11-19 14:00","2011","11","19","14:00","11.2","","2.0","","53","","22","","32","","24.1","","99.53","","","","","","Mostly Cloudy"
"2011-11-19 15:00","2011","11","19","15:00","11.0","","1.7","","53","","21","","32","","24.1","","99.41","","","","","","Mostly Cloudy"
"2011-11-19 16:00","2011","11","19","16:00","10.3","","1.3","","54","","23","","28","","24.1","","99.47","","","","","","Mostly Cloudy"
"2011-11-19 17:00","2011","11","19","17:00","10.8","","1.1","","51","","22","","22","","24.1","","99.47","","","","","","Cloudy"
"2011-11-19 18:00","2011","11","19","18:00","11.1","","0.8","","49","","21","","20","","24.1","","99.45","","","","","","Mostly Cloudy"
"2011-11-19 19:00","2011","11","19","19:00","10.9","","1.9","","54","","22","","17","","24.1","","99.43","","","","","","Cloudy"
"2011-11-19 20:00","2011","11","19","20:00","11.2","","3.9","","61","","20","","28","","24.1","","99.34","","","","","","Cloudy"
"2011-11-19 21:00","2011","11","19","21:00","10.7","","5.2","","69","","21","","22","","24.1","","99.27","","","","","","Cloudy"
"2011-11-19 22:00","2011","11","19","22:00","10.9","","5.5","","69","","20","","19","","24.1","","99.18","","","","","","Cloudy"
"2011-11-19 23:00","2011","11","19","23:00","11.1","","5.8","","70","","20","","19","","24.1","","99.07","","","","","","Cloudy"
"2011-11-20 00:00","2011","11","20","00:00","12.2","","5.6","","64","","21","","32","","24.1","","98.93","","","","","","Cloudy"
"2011-11-20 01:00","2011","11","20","01:00","12.5","","5.7","","63","","21","","19","","24.1","","98.93","","","","","","Cloudy"
"2011-11-20 02:00","2011","11","20","02:00","13.5","","6.3","","62","","23","","32","","24.1","","98.87","","","","","","Cloudy"
"2011-11-20 03:00","2011","11","20","03:00","13.5","","7.7","","68","","24","","28","","24.1","","98.91","","","","","","Rain"
"2011-11-20 04:00","2011","11","20","04:00","13.9","","8.5","","70","","24","","24","","24.1","","98.89","","","","","","Cloudy"
"2011-11-20 05:00","2011","11","20","05:00","13.9","","9.0","","72","","24","","35","","24.1","","98.95","","","","","","Cloudy"
"2011-11-20 06:00","2011","11","20","06:00","13.3","","9.4","","77","","24","","24","","24.1","","98.98","","","","","","Cloudy"
"2011-11-20 07:00","2011","11","20","07:00","13.6","","9.7","","77","","24","","28","","24.1","","99.02","","","","","","Cloudy"
"2011-11-20 08:00","2011","11","20","08:00","13.7","","9.7","","77","","26","","35","","24.1","","99.06","","","","","","Mostly Cloudy"
"2011-11-20 09:00","2011","11","20","09:00","12.2","","6.8","","70","","30","","44","","24.1","","99.27","","","","","","Rain Showers"
"2011-11-20 10:00","2011","11","20","10:00","10.2","","5.1","","71","","31","","32","","24.1","","99.48","","","","","","Mostly Cloudy"
"2011-11-20 11:00","2011","11","20","11:00","9.7","","3.6","","66","","30","","37","","24.1","","99.62","","","","","","Mostly Cloudy"
"2011-11-20 12:00","2011","11","20","12:00","8.3","","3.9","","74","","1","","28","","24.1","","99.68","","","","","","Mostly Cloudy"
"2011-11-20 13:00","2011","11","20","13:00","8.2","","3.9","","74","","29","","20","","24.1","","99.74","","","","","","Mostly Cloudy"
"2011-11-20 14:00","2011","11","20","14:00","9.2","","2.5","","63","","30","","22","","24.1","","99.84","","","","","","Mostly Cloudy"
"2011-11-20 15:00","2011","11","20","15:00","7.7","","1.8","","66","","32","","26","","24.1","","99.95","","","","","","Cloudy"
"2011-11-20 16:00","2011","11","20","16:00","6.1","","0.5","","67","","35","","24","","24.1","","100.08","","","","","","Cloudy"
"2011-11-20 17:00","2011","11","20","17:00","4.6","","0.0","","72","","36","","24","","24.1","","100.17","","","","","","Cloudy"
"2011-11-20 18:00","2011","11","20","18:00","3.9","","-0.5","","73","","35","","28","","24.1","","100.23","","","","","","Mostly Cloudy"
"2011-11-20 19:00","2011","11","20","19:00","3.1","","-2.0","","69","","35","","32","","24.1","","100.34","","","","","","Mostly Cloudy"
"2011-11-20 20:00","2011","11","20","20:00","2.4","","-2.9","","68","","34","","28","","24.1","","100.39","","","","","","Mostly Cloudy"
"2011-11-20 21:00","2011","11","20","21:00","2.1","","-3.0","","69","","34","","22","","24.1","","100.43","","","","","","Mostly Cloudy"
"2011-11-20 22:00","2011","11","20","22:00","1.8","","-3.8","","66","","32","","22","","24.1","","100.49","","","","","","Mostly Cloudy"
"2011-11-20 23:00","2011","11","20","23:00","1.4","","-3.9","","68","","32","","13","","24.1","","100.53","","","","","","Mostly Cloudy"
"2011-11-21 00:00","2011","11","21","00:00","0.6","","-4.3","","70","","32","","15","","24.1","","100.56","","","","","","Mostly Cloudy"
"2011-11-21 01:00","2011","11","21","01:00","1.2","","-4.2","","67","","36","","19","","24.1","","100.58","","","","","","Mostly Cloudy"
"2011-11-21 02:00","2011","11","21","02:00","0.2","","-4.2","","72","","2","","15","","24.1","","100.60","","","","","","Mostly Cloudy"
"2011-11-21 03:00","2011","11","21","03:00","0.4","","-4.8","","68","","3","","17","","24.1","","100.62","","","","","","Mostly Cloudy"
"2011-11-21 04:00","2011","11","21","04:00","-0.2","","-5.6","","67","","1","","17","","24.1","","100.67","","","","-5","","Mostly Cloudy"
"2011-11-21 05:00","2011","11","21","05:00","-0.9","","-5.9","","69","","36","","11","","24.1","","100.73","","","","-5","","Mostly Cloudy"
"2011-11-21 06:00","2011","11","21","06:00","-1.0","","-5.5","","71","","4","","11","","24.1","","100.73","","","","-5","","Mostly Cloudy"
"2011-11-21 07:00","2011","11","21","07:00","-1.7","","-6.4","","70","","5","","11","","24.1","","100.80","","","","-6","","Mostly Cloudy"
"2011-11-21 08:00","2011","11","21","08:00","-2.4","","-6.6","","73","","4","","11","","24.1","","100.86","","","","-6","","Mainly Clear"
"2011-11-21 09:00","2011","11","21","09:00","-1.5","","-6.4","","69","","4","","6","","24.1","","100.88","","","","-4","","Mostly Cloudy"
"2011-11-21 10:00","2011","11","21","10:00","0.7","","-5.0","","66","","15","","6","","24.1","","100.88","","","","","","Mostly Cloudy"
"2011-11-21 11:00","2011","11","21","11:00","1.1","","-4.7","","65","","13","","4","","24.1","","100.82","","","","","","Mostly Cloudy"
"2011-11-21 12:00","2011","11","21","12:00","1.9","","-3.8","","66","","9","","4","","24.1","","100.76","","","","","","Mostly Cloudy"
"2011-11-21 13:00","2011","11","21","13:00","2.4","","-3.2","","66","","8","","7","","24.1","","100.69","","","","","","Mostly Cloudy"
"2011-11-21 14:00","2011","11","21","14:00","2.7","","-2.8","","67","","8","","11","","24.1","","100.62","","","","","","Mostly Cloudy"
"2011-11-21 15:00","2011","11","21","15:00","2.6","","-3.0","","67","","11","","9","","24.1","","100.60","","","","","","Mostly Cloudy"
"2011-11-21 16:00","2011","11","21","16:00","2.0","","-3.2","","68","","12","","7","","24.1","","100.63","","","","","","Mostly Cloudy"
"2011-11-21 17:00","2011","11","21","17:00","2.1","","-3.2","","68","","11","","9","","24.1","","100.67","","","","","","Mostly Cloudy"
"2011-11-21 18:00","2011","11","21","18:00","1.3","","-3.2","","72","","11","","9","","24.1","","100.68","","","","","","Mainly Clear"
"2011-11-21 19:00","2011","11","21","19:00","1.1","","-3.1","","74","","10","","7","","24.1","","100.70","","","","","","Mainly Clear"
"2011-11-21 20:00","2011","11","21","20:00","0.8","","-3.1","","75","","11","","6","","24.1","","100.69","","","","","","Clear"
"2011-11-21 21:00","2011","11","21","21:00","-1.3","","-4.1","","81","","5","","6","","24.1","","100.68","","","","-4","","Mainly Clear"
"2011-11-21 22:00","2011","11","21","22:00","-0.2","","-3.5","","78","","3","","4","","24.1","","100.71","","","","-1","","Mainly Clear"
"2011-11-21 23:00","2011","11","21","23:00","-2.4","","-4.8","","84","","36","","6","","24.1","","100.70","","","","-5","","Clear"
"2011-11-22 00:00","2011","11","22","00:00","-3.1","","-5.5","","83","","2","","13","","24.1","","100.65","","","","-8","","Clear"
"2011-11-22 01:00","2011","11","22","01:00","-2.8","","-5.2","","84","","2","","9","","24.1","","100.66","","","","-6","","Clear"
"2011-11-22 02:00","2011","11","22","02:00","-2.9","","-5.4","","83","","1","","13","","24.1","","100.74","","","","-8","","Clear"
"2011-11-22 03:00","2011","11","22","03:00","-2.9","","-5.1","","85","","3","","9","","24.1","","100.83","","","","-6","","Clear"
"2011-11-22 04:00","2011","11","22","04:00","-3.2","","-5.6","","83","","3","","7","","24.1","","100.80","","","","-6","","Clear"
"2011-11-22 05:00","2011","11","22","05:00","-3.2","","-5.8","","82","","3","","11","","24.1","","100.80","","","","-7","","Mainly Clear"
"2011-11-22 06:00","2011","11","22","06:00","-1.8","","-5.8","","74","","6","","11","","24.1","","100.78","","","","-6","","Mainly Clear"
"2011-11-22 07:00","2011","11","22","07:00","-1.3","","-6.5","","68","","5","","15","","24.1","","100.82","","","","-6","","Mainly Clear"
"2011-11-22 08:00","2011","11","22","08:00","-1.2","","-7.4","","63","","7","","17","","24.1","","100.85","","","","-6","","Mostly Cloudy"
"2011-11-22 09:00","2011","11","22","09:00","-0.7","","-7.2","","61","","9","","20","","24.1","","100.78","","","","-6","","Mostly Cloudy"
"2011-11-22 10:00","2011","11","22","10:00","0.3","","-7.1","","58","","9","","26","","24.1","","100.72","","","","","","Mostly Cloudy"
"2011-11-22 11:00","2011","11","22","11:00","1.3","","-6.3","","57","","9","","13","","24.1","","100.68","","","","","","Mostly Cloudy"
"2011-11-22 12:00","2011","11","22","12:00","1.1","","-4.6","","66","","9","","19","","24.1","","100.52","","","","","","Cloudy"
"2011-11-22 13:00","2011","11","22","13:00","1.0","","-4.5","","67","","8","","32","","24.1","","100.38","","","","","","Cloudy"
"2011-11-22 14:00","2011","11","22","14:00","1.1","","-3.2","","73","","8","","28","","24.1","","100.28","","","","","","Cloudy"
"2011-11-22 15:00","2011","11","22","15:00","1.1","","-2.5","","77","","8","","28","","24.1","","100.13","","","","","","Cloudy"
"2011-11-22 16:00","2011","11","22","16:00","1.1","","-2.8","","75","","8","","28","","24.1","","100.06","","","","","","Cloudy"
"2011-11-22 17:00","2011","11","22","17:00","1.3","","-4.3","","66","","8","","26","","24.1","","99.93","","","","","","Cloudy"
"2011-11-22 18:00","2011","11","22","18:00","1.0","","-5.1","","64","","6","","22","","24.1","","99.79","","","","","","Cloudy"
"2011-11-22 19:00","2011","11","22","19:00","0.6","","-4.1","","71","","7","","17","","19.3","","99.74","","","","","","Freezing Rain"
"2011-11-22 20:00","2011","11","22","20:00","0.0","","-2.5","","83","","7","","17","","16.1","","99.65","","","","-5","","Freezing Rain"
"2011-11-22 21:00","2011","11","22","21:00","-0.2","","-2.2","","86","","6","","22","","19.3","","99.45","","","","-6","","Freezing Rain"
"2011-11-22 22:00","2011","11","22","22:00","-0.1","","-1.5","","90","","4","","17","","16.1","","99.32","","","","-5","","Freezing Rain"
"2011-11-22 23:00","2011","11","22","23:00","0.1","","-0.6","","95","","3","","19","","14.5","","99.14","","","","","","Freezing Rain"
"2011-11-23 00:00","2011","11","23","00:00","0.5","","0.0","","96","","1","","19","","19.3","","99.08","","","","","","Rain"
"2011-11-23 01:00","2011","11","23","01:00","0.6","","0.4","","99","","4","","17","","16.1","","98.89","","","","","","Rain"
"2011-11-23 02:00","2011","11","23","02:00","1.1","","0.8","","98","","4","","19","","19.3","","98.84","","","","","","Rain"
"2011-11-23 03:00","2011","11","23","03:00","1.3","","1.0","","98","","2","","20","","24.1","","98.82","","","","","","Rain"
"2011-11-23 04:00","2011","11","23","04:00","1.6","","1.4","","99","","4","","20","","19.3","","98.74","","","","","","Moderate Rain"
"2011-11-23 05:00","2011","11","23","05:00","2.0","","1.7","","98","","1","","20","","24.1","","98.79","","","","","","Rain"
"2011-11-23 06:00","2011","11","23","06:00","1.9","","1.4","","96","","1","","24","","24.1","","98.89","","","","","","Cloudy"
"2011-11-23 07:00","2011","11","23","07:00","2.1","","1.6","","96","","36","","28","","19.3","","99.03","","","","","","Cloudy"
"2011-11-23 08:00","2011","11","23","08:00","1.4","","0.8","","96","","35","","32","","24.1","","99.19","","","","","","Cloudy"
"2011-11-23 09:00","2011","11","23","09:00","2.1","","0.6","","90","","35","","30","","24.1","","99.32","","","","","","Cloudy"
"2011-11-23 10:00","2011","11","23","10:00","2.6","","0.6","","87","","35","","28","","24.1","","99.40","","","","","","Mostly Cloudy"
"2011-11-23 11:00","2011","11","23","11:00","4.4","","1.3","","80","","35","","20","","24.1","","99.44","","","","","","Mostly Cloudy"
"2011-11-23 12:00","2011","11","23","12:00","5.5","","0.9","","72","","35","","26","","24.1","","99.46","","","","","","Mainly Clear"
"2011-11-23 13:00","2011","11","23","13:00","6.8","","1.4","","68","","34","","28","","24.1","","99.47","","","","","","Mainly Clear"
"2011-11-23 14:00","2011","11","23","14:00","7.7","","0.1","","59","","35","","19","","24.1","","99.50","","","","","","Mainly Clear"
"2011-11-23 15:00","2011","11","23","15:00","8.1","","0.2","","57","","34","","17","","24.1","","99.55","","","","","","Clear"
"2011-11-23 16:00","2011","11","23","16:00","7.5","","-2.4","","49","","32","","15","","24.1","","99.62","","","","","","Clear"
"2011-11-23 17:00","2011","11","23","17:00","5.6","","-2.3","","57","","27","","9","","24.1","","99.65","","","","","","Clear"
"2011-11-23 18:00","2011","11","23","18:00","4.6","","-0.9","","67","","29","","17","","24.1","","99.76","","","","","","Clear"
"2011-11-23 19:00","2011","11","23","19:00","4.8","","-1.4","","64","","31","","15","","24.1","","99.79","","","","","","Clear"
"2011-11-23 20:00","2011","11","23","20:00","3.0","","-1.2","","74","","31","","15","","24.1","","99.82","","","","","","Clear"
"2011-11-23 21:00","2011","11","23","21:00","3.0","","-0.4","","78","","30","","15","","24.1","","99.85","","","","","","Mainly Clear"
"2011-11-23 22:00","2011","11","23","22:00","1.4","","-0.8","","85","","31","","9","","24.1","","99.86","","","","","","Clear"
"2011-11-23 23:00","2011","11","23","23:00","1.6","","-0.6","","85","","","","0","","24.1","","99.86","","","","","","Clear"
"2011-11-24 00:00","2011","11","24","00:00","1.5","","-0.5","","87","","18","","7","","24.1","","99.86","","","","","","Clear"
"2011-11-24 01:00","2011","11","24","01:00","0.6","","-0.9","","90","","22","","9","","24.1","","99.83","","","","","","Clear"
"2011-11-24 02:00","2011","11","24","02:00","0.7","","-0.4","","92","","21","","13","","24.1","","99.75","","","","","","Clear"
"2011-11-24 03:00","2011","11","24","03:00","-0.5","","-1.3","","94","","23","","11","","24.1","","99.75","","","","-4","","Clear"
"2011-11-24 04:00","2011","11","24","04:00","-0.3","","-1.0","","95","","22","","9","","24.1","","99.73","","","","-3","","Clear"
"2011-11-24 05:00","2011","11","24","05:00","0.1","","-0.4","","96","","21","","9","","24.1","","99.74","","","","","","Clear"
"2011-11-24 06:00","2011","11","24","06:00","-0.6","","-1.2","","96","","26","","7","","24.1","","99.79","","","","-3","","Clear"
"2011-11-24 07:00","2011","11","24","07:00","0.7","","0.2","","96","","28","","9","","24.1","","99.81","","","","","","Mainly Clear"
"2011-11-24 08:00","2011","11","24","08:00","1.6","","1.2","","97","","27","","17","","9.7","","99.92","","","","","","Fog"
"2011-11-24 09:00","2011","11","24","09:00","3.7","","2.6","","93","","29","","17","","9.7","","100.02","","","","","","Fog"
"2011-11-24 10:00","2011","11","24","10:00","5.6","","4.0","","89","","26","","15","","9.7","","100.01","","","","","","Fog"
"2011-11-24 11:00","2011","11","24","11:00","6.9","","4.5","","85","","27","","24","","16.1","","100.00","","","","","","Mostly Cloudy"
"2011-11-24 12:00","2011","11","24","12:00","8.4","","5.1","","80","","26","","24","","16.1","","99.94","","","","","","Mostly Cloudy"
"2011-11-24 13:00","2011","11","24","13:00","7.8","","4.6","","80","","25","","20","","19.3","","99.93","","","","","","Mostly Cloudy"
"2011-11-24 14:00","2011","11","24","14:00","6.7","","3.6","","81","","24","","24","","16.1","","99.91","","","","","","Cloudy"
"2011-11-24 15:00","2011","11","24","15:00","6.0","","3.5","","84","","24","","24","","11.3","","99.90","","","","","","Cloudy"
"2011-11-24 16:00","2011","11","24","16:00","5.4","","3.2","","86","","24","","28","","11.3","","99.87","","","","","","Cloudy"
"2011-11-24 17:00","2011","11","24","17:00","5.1","","3.0","","86","","25","","26","","9.7","","99.86","","","","","","Haze"
"2011-11-24 18:00","2011","11","24","18:00","5.1","","3.0","","86","","26","","20","","9.7","","99.90","","","","","","Haze"
"2011-11-24 19:00","2011","11","24","19:00","4.8","","2.9","","87","","23","","22","","19.3","","99.81","","","","","","Mostly Cloudy"
"2011-11-24 20:00","2011","11","24","20:00","4.6","","3.0","","89","","23","","17","","16.1","","99.79","","","","","","Mostly Cloudy"
"2011-11-24 21:00","2011","11","24","21:00","4.1","","2.7","","91","","24","","20","","12.9","","99.79","","","","","","Mostly Cloudy"
"2011-11-24 22:00","2011","11","24","22:00","5.0","","3.0","","87","","24","","20","","16.1","","99.80","","","","","","Cloudy"
"2011-11-24 23:00","2011","11","24","23:00","5.6","","3.7","","88","","25","","24","","16.1","","99.74","","","","","","Cloudy"
"2011-11-25 00:00","2011","11","25","00:00","6.2","","4.2","","87","","26","","20","","16.1","","99.73","","","","","","Cloudy"
"2011-11-25 01:00","2011","11","25","01:00","6.7","","4.6","","86","","24","","20","","16.1","","99.66","","","","","","Cloudy"
"2011-11-25 02:00","2011","11","25","02:00","6.8","","4.8","","87","","23","","24","","16.1","","99.64","","","","","","Cloudy"
"2011-11-25 03:00","2011","11","25","03:00","6.8","","4.7","","86","","23","","19","","19.3","","99.64","","","","","","Mostly Cloudy"
"2011-11-25 04:00","2011","11","25","04:00","6.6","","4.7","","88","","22","","15","","16.1","","99.63","","","","","","Mainly Clear"
"2011-11-25 05:00","2011","11","25","05:00","6.4","","4.5","","88","","24","","13","","16.1","","99.64","","","","","","Clear"
"2011-11-25 06:00","2011","11","25","06:00","6.5","","4.6","","88","","23","","20","","19.3","","99.62","","","","","","Mainly Clear"
"2011-11-25 07:00","2011","11","25","07:00","6.5","","4.6","","88","","23","","15","","19.3","","99.61","","","","","","Mainly Clear"
"2011-11-25 08:00","2011","11","25","08:00","6.6","","4.5","","86","","24","","22","","19.3","","99.61","","","","","","Mostly Cloudy"
"2011-11-25 09:00","2011","11","25","09:00","7.5","","4.5","","81","","24","","24","","19.3","","99.60","","","","","","Mostly Cloudy"
"2011-11-25 10:00","2011","11","25","10:00","9.3","","4.5","","72","","22","","24","","19.3","","99.57","","","","","","Mostly Cloudy"
"2011-11-25 11:00","2011","11","25","11:00","11.1","","4.4","","63","","23","","19","","24.1","","99.52","","","","","","Mostly Cloudy"
"2011-11-25 12:00","2011","11","25","12:00","13.0","","4.7","","57","","21","","19","","24.1","","99.43","","","","","","Mostly Cloudy"
"2011-11-25 13:00","2011","11","25","13:00","14.5","","4.9","","52","","23","","19","","24.1","","99.37","","","","","","Mostly Cloudy"
"2011-11-25 14:00","2011","11","25","14:00","15.7","","5.4","","50","","22","","26","","24.1","","99.30","","","","","","Mainly Clear"
"2011-11-25 15:00","2011","11","25","15:00","15.1","","5.0","","51","","22","","28","","24.1","","99.29","","","","","","Mostly Cloudy"
"2011-11-25 16:00","2011","11","25","16:00","13.4","","4.8","","56","","23","","32","","24.1","","99.29","","","","","","Mostly Cloudy"
"2011-11-25 17:00","2011","11","25","17:00","11.8","","4.5","","61","","24","","30","","24.1","","99.34","","","","","","Mainly Clear"
"2011-11-25 18:00","2011","11","25","18:00","11.1","","4.3","","63","","24","","26","","24.1","","99.35","","","","","","Mainly Clear"
"2011-11-25 19:00","2011","11","25","19:00","11.4","","4.4","","62","","25","","39","","24.1","","99.35","","","","","","Mainly Clear"
"2011-11-25 20:00","2011","11","25","20:00","11.5","","4.6","","63","","25","","37","","24.1","","99.41","","","","","","Mainly Clear"
"2011-11-25 21:00","2011","11","25","21:00","11.4","","4.8","","64","","25","","30","","24.1","","99.45","","","","","","Mainly Clear"
"2011-11-25 22:00","2011","11","25","22:00","11.2","","5.1","","66","","25","","26","","24.1","","99.48","","","","","","Mainly Clear"
"2011-11-25 23:00","2011","11","25","23:00","10.9","","5.4","","69","","24","","28","","24.1","","99.52","","","","","","Mainly Clear"
"2011-11-26 00:00","2011","11","26","00:00","10.5","","5.6","","72","","24","","30","","24.1","","99.55","","","","","","Mostly Cloudy"
"2011-11-26 01:00","2011","11","26","01:00","10.4","","5.7","","73","","25","","26","","24.1","","99.57","","","","","","Mostly Cloudy"
"2011-11-26 02:00","2011","11","26","02:00","9.8","","5.5","","75","","","","0","","24.1","","99.61","","","","","","Mostly Cloudy"
"2011-11-26 03:00","2011","11","26","03:00","9.6","","5.4","","75","","12","","6","","24.1","","99.64","","","","","","Mostly Cloudy"
"2011-11-26 04:00","2011","11","26","04:00","9.7","","5.5","","75","","15","","6","","24.1","","99.67","","","","","","Mostly Cloudy"
"2011-11-26 05:00","2011","11","26","05:00","9.3","","5.4","","77","","18","","6","","24.1","","99.69","","","","","","Mostly Cloudy"
"2011-11-26 06:00","2011","11","26","06:00","9.0","","5.4","","78","","16","","4","","24.1","","99.70","","","","","","Mostly Cloudy"
"2011-11-26 07:00","2011","11","26","07:00","8.7","","5.3","","79","","23","","4","","24.1","","99.77","","","","","","Mostly Cloudy"
"2011-11-26 08:00","2011","11","26","08:00","9.2","","5.4","","77","","19","","4","","24.1","","99.76","","","","","","Mostly Cloudy"
"2011-11-26 09:00","2011","11","26","09:00","9.5","","5.6","","77","","18","","6","","24.1","","99.76","","","","","","Mostly Cloudy"
"2011-11-26 10:00","2011","11","26","10:00","9.7","","6.2","","79","","14","","4","","24.1","","99.76","","","","","","Cloudy"
"2011-11-26 11:00","2011","11","26","11:00","11.1","","5.8","","70","","22","","17","","24.1","","99.78","","","","","","Cloudy"
"2011-11-26 12:00","2011","11","26","12:00","11.5","","5.3","","66","","22","","19","","24.1","","99.72","","","","","","Cloudy"
"2011-11-26 13:00","2011","11","26","13:00","12.6","","5.3","","61","","22","","13","","24.1","","99.61","","","","","","Cloudy"
"2011-11-26 14:00","2011","11","26","14:00","12.6","","5.4","","61","","18","","15","","24.1","","99.57","","","","","","Cloudy"
"2011-11-26 15:00","2011","11","26","15:00","12.6","","5.8","","63","","19","","11","","24.1","","99.56","","","","","","Cloudy"
"2011-11-26 16:00","2011","11","26","16:00","12.7","","5.8","","63","","18","","11","","24.1","","99.57","","","","","","Cloudy"
"2011-11-26 17:00","2011","11","26","17:00","12.5","","6.4","","66","","18","","9","","24.1","","99.57","","","","","","Cloudy"
"2011-11-26 18:00","2011","11","26","18:00","12.2","","6.7","","69","","18","","9","","24.1","","99.58","","","","","","Mostly Cloudy"
"2011-11-26 19:00","2011","11","26","19:00","12.6","","6.9","","68","","18","","11","","24.1","","99.55","","","","","","Mostly Cloudy"
"2011-11-26 20:00","2011","11","26","20:00","12.8","","7.5","","70","","19","","13","","24.1","","99.55","","","","","","Mostly Cloudy"
"2011-11-26 21:00","2011","11","26","21:00","12.8","","7.5","","70","","20","","17","","24.1","","99.49","","","","","","Mostly Cloudy"
"2011-11-26 22:00","2011","11","26","22:00","12.7","","7.3","","70","","19","","17","","24.1","","99.43","","","","","","Mostly Cloudy"
"2011-11-26 23:00","2011","11","26","23:00","12.6","","7.1","","69","","20","","15","","24.1","","99.42","","","","","","Mostly Cloudy"
"2011-11-27 00:00","2011","11","27","00:00","12.8","","6.9","","67","","18","","11","","24.1","","99.39","","","","","","Mostly Cloudy"
"2011-11-27 01:00","2011","11","27","01:00","12.7","","6.8","","67","","19","","11","","24.1","","99.33","","","","","","Mostly Cloudy"
"2011-11-27 02:00","2011","11","27","02:00","12.4","","7.0","","70","","18","","9","","19.3","","99.27","","","","","","Mostly Cloudy"
"2011-11-27 03:00","2011","11","27","03:00","11.9","","7.0","","72","","15","","9","","19.3","","99.19","","","","","","Mostly Cloudy"
"2011-11-27 04:00","2011","11","27","04:00","10.7","","6.9","","77","","16","","9","","19.3","","99.11","","","","","","Mostly Cloudy"
"2011-11-27 05:00","2011","11","27","05:00","10.9","","7.1","","77","","16","","7","","19.3","","99.04","","","","","","Mostly Cloudy"
"2011-11-27 06:00","2011","11","27","06:00","10.7","","7.0","","78","","16","","7","","24.1","","99.02","","","","","","Cloudy"
"2011-11-27 07:00","2011","11","27","07:00","11.6","","7.2","","74","","16","","13","","24.1","","98.96","","","","","","Rain"
"2011-11-27 08:00","2011","11","27","08:00","11.5","","7.6","","77","","18","","9","","24.1","","98.99","","","","","","Cloudy"
"2011-11-27 09:00","2011","11","27","09:00","12.0","","9.0","","82","","20","","22","","19.3","","99.01","","","","","","Rain"
"2011-11-27 10:00","2011","11","27","10:00","11.2","","10.2","","94","","20","","20","","16.1","","99.01","","","","","","Rain"
"2011-11-27 11:00","2011","11","27","11:00","11.5","","11.0","","97","","21","","22","","11.3","","98.97","","","","","","Rain"
"2011-11-27 12:00","2011","11","27","12:00","12.0","","11.5","","97","","21","","22","","17.7","","98.91","","","","","","Rain"
"2011-11-27 13:00","2011","11","27","13:00","12.4","","11.7","","95","","21","","24","","19.3","","98.83","","","","","","Rain"
"2011-11-27 14:00","2011","11","27","14:00","12.4","","11.8","","96","","20","","17","","19.3","","98.77","","","","","","Rain"
"2011-11-27 15:00","2011","11","27","15:00","12.6","","12.1","","97","","21","","19","","9.7","","98.77","","","","","","Drizzle,Fog"
"2011-11-27 16:00","2011","11","27","16:00","12.6","","12.0","","96","","21","","22","","8.0","","98.78","","","","","","Drizzle,Fog"
"2011-11-27 17:00","2011","11","27","17:00","12.7","","12.2","","97","","21","","20","","16.1","","98.83","","","","","","Drizzle"
"2011-11-27 18:00","2011","11","27","18:00","12.8","","12.3","","97","","21","","22","","16.1","","98.83","","","","","","Drizzle"
"2011-11-27 19:00","2011","11","27","19:00","12.5","","12.3","","99","","22","","19","","14.5","","98.89","","","","","","Drizzle"
"2011-11-27 20:00","2011","11","27","20:00","9.5","","9.3","","99","","36","","19","","16.1","","98.98","","","","","","Drizzle"
"2011-11-27 21:00","2011","11","27","21:00","8.7","","8.4","","98","","32","","24","","19.3","","99.08","","","","","","Rain"
"2011-11-27 22:00","2011","11","27","22:00","7.4","","6.5","","94","","31","","22","","24.1","","99.15","","","","","","Rain"
"2011-11-27 23:00","2011","11","27","23:00","6.5","","5.5","","93","","32","","24","","24.1","","99.21","","","","","","Rain"
"2011-11-28 00:00","2011","11","28","00:00","6.1","","4.9","","92","","31","","24","","24.1","","99.31","","","","","","Cloudy"
"2011-11-28 01:00","2011","11","28","01:00","5.2","","3.5","","89","","32","","28","","24.1","","99.40","","","","","","Rain"
"2011-11-28 02:00","2011","11","28","02:00","4.7","","3.5","","92","","32","","19","","24.1","","99.47","","","","","","Rain"
"2011-11-28 03:00","2011","11","28","03:00","4.7","","3.0","","89","","33","","19","","24.1","","99.52","","","","","","Cloudy"
"2011-11-28 04:00","2011","11","28","04:00","4.2","","2.1","","86","","32","","26","","24.1","","99.67","","","","","","Cloudy"
"2011-11-28 05:00","2011","11","28","05:00","3.9","","2.0","","87","","32","","15","","24.1","","99.68","","","","","","Cloudy"
"2011-11-28 06:00","2011","11","28","06:00","3.5","","1.1","","84","","30","","19","","24.1","","99.76","","","","","","Cloudy"
"2011-11-28 07:00","2011","11","28","07:00","3.3","","1.0","","85","","32","","11","","24.1","","99.83","","","","","","Mostly Cloudy"
"2011-11-28 08:00","2011","11","28","08:00","3.3","","1.0","","85","","28","","7","","24.1","","99.94","","","","","","Mostly Cloudy"
"2011-11-28 09:00","2011","11","28","09:00","4.1","","1.4","","83","","25","","6","","24.1","","99.94","","","","","","Mostly Cloudy"
"2011-11-28 10:00","2011","11","28","10:00","4.4","","0.5","","76","","31","","4","","24.1","","99.96","","","","","","Mostly Cloudy"
"2011-11-28 11:00","2011","11","28","11:00","4.7","","0.5","","74","","1","","6","","24.1","","99.92","","","","","","Mostly Cloudy"
"2011-11-28 12:00","2011","11","28","12:00","5.8","","1.1","","72","","1","","9","","24.1","","99.83","","","","","","Mostly Cloudy"
"2011-11-28 13:00","2011","11","28","13:00","5.8","","1.5","","74","","2","","6","","24.1","","99.81","","","","","","Mostly Cloudy"
"2011-11-28 14:00","2011","11","28","14:00","6.5","","1.8","","72","","36","","15","","24.1","","99.75","","","","","","Mainly Clear"
"2011-11-28 15:00","2011","11","28","15:00","5.8","","1.7","","75","","3","","9","","24.1","","99.77","","","","","","Mostly Cloudy"
"2011-11-28 16:00","2011","11","28","16:00","5.7","","1.7","","75","","36","","13","","24.1","","99.77","","","","","","Mostly Cloudy"
"2011-11-28 17:00","2011","11","28","17:00","5.4","","1.8","","78","","1","","13","","24.1","","99.77","","","","","","Cloudy"
"2011-11-28 18:00","2011","11","28","18:00","5.5","","2.0","","78","","2","","11","","24.1","","99.75","","","","","","Cloudy"
"2011-11-28 19:00","2011","11","28","19:00","5.5","","2.0","","78","","5","","15","","24.1","","99.71","","","","","","Cloudy"
"2011-11-28 20:00","2011","11","28","20:00","5.9","","2.4","","78","","6","","9","","24.1","","99.73","","","","","","Cloudy"
"2011-11-28 21:00","2011","11","28","21:00","4.7","","3.3","","91","","4","","9","","16.1","","99.60","","","","","","Rain"
"2011-11-28 22:00","2011","11","28","22:00","4.7","","4.0","","95","","4","","7","","16.1","","99.60","","","","","","Rain"
"2011-11-28 23:00","2011","11","28","23:00","4.9","","4.1","","95","","6","","7","","19.3","","99.53","","","","","","Rain"
"2011-11-29 00:00","2011","11","29","00:00","4.8","","4.4","","97","","5","","9","","8.0","","99.46","","","","","","Rain"
"2011-11-29 01:00","2011","11","29","01:00","4.8","","4.6","","99","","3","","11","","12.9","","99.36","","","","","","Rain"
"2011-11-29 02:00","2011","11","29","02:00","4.8","","4.8","","100","","1","","11","","12.9","","99.33","","","","","","Rain"
"2011-11-29 03:00","2011","11","29","03:00","4.7","","4.7","","100","","36","","11","","14.5","","99.27","","","","","","Rain"
"2011-11-29 04:00","2011","11","29","04:00","4.5","","4.5","","100","","1","","13","","14.5","","99.19","","","","","","Rain"
"2011-11-29 05:00","2011","11","29","05:00","4.3","","4.2","","99","","1","","19","","16.1","","99.14","","","","","","Rain"
"2011-11-29 06:00","2011","11","29","06:00","4.4","","4.3","","99","","1","","22","","9.7","","99.12","","","","","","Moderate Rain"
"2011-11-29 07:00","2011","11","29","07:00","4.7","","4.6","","99","","36","","22","","9.7","","99.09","","","","","","Moderate Rain"
"2011-11-29 08:00","2011","11","29","08:00","4.6","","4.5","","99","","36","","20","","8.0","","99.09","","","","","","Rain,Fog"
"2011-11-29 09:00","2011","11","29","09:00","4.6","","4.4","","99","","1","","22","","8.0","","99.08","","","","","","Rain,Fog"
"2011-11-29 10:00","2011","11","29","10:00","4.9","","4.7","","99","","2","","26","","12.9","","99.05","","","","","","Rain"
"2011-11-29 11:00","2011","11","29","11:00","5.6","","5.3","","98","","3","","24","","12.9","","98.94","","","","","","Rain"
"2011-11-29 12:00","2011","11","29","12:00","5.4","","5.1","","98","","2","","20","","12.9","","98.82","","","","","","Rain"
"2011-11-29 13:00","2011","11","29","13:00","5.2","","4.9","","98","","1","","33","","11.3","","98.71","","","","","","Rain"
"2011-11-29 14:00","2011","11","29","14:00","4.9","","4.7","","99","","2","","41","","4.8","","98.51","","","","","","Moderate Rain"
"2011-11-29 15:00","2011","11","29","15:00","4.1","","4.1","","100","","1","","37","","8.0","","98.43","","","","","","Moderate Rain"
"2011-11-29 16:00","2011","11","29","16:00","3.4","","3.4","","100","","2","","43","","11.3","","98.32","","","","","","Rain"
"2011-11-29 17:00","2011","11","29","17:00","3.8","","2.9","","94","","2","","32","","16.1","","98.34","","","","","","Drizzle"
"2011-11-29 18:00","2011","11","29","18:00","4.0","","3.1","","94","","1","","30","","12.9","","98.20","","","","","","Rain"
"2011-11-29 19:00","2011","11","29","19:00","3.8","","3.6","","99","","36","","20","","8.0","","98.17","","","","","","Moderate Rain"
"2011-11-29 20:00","2011","11","29","20:00","3.7","","3.5","","99","","36","","9","","6.4","","98.20","","","","","","Moderate Rain,Fog"
"2011-11-29 21:00","2011","11","29","21:00","3.5","","3.3","","99","","36","","20","","8.0","","98.14","","","","","","Rain"
"2011-11-29 22:00","2011","11","29","22:00","3.6","","2.9","","95","","35","","20","","14.5","","98.06","","","","","","Rain"
"2011-11-29 23:00","2011","11","29","23:00","3.6","","2.9","","95","","35","","17","","14.5","","97.97","","","","","","Rain"
"2011-11-30 00:00","2011","11","30","00:00","3.7","","3.3","","97","","35","","15","","24.1","","97.88","","","","","","Rain"
"2011-11-30 01:00","2011","11","30","01:00","2.7","","2.2","","97","","32","","15","","24.1","","97.82","","","","","","Rain"
"2011-11-30 02:00","2011","11","30","02:00","2.4","","1.9","","96","","32","","15","","24.1","","97.81","","","","","","Rain"
"2011-11-30 03:00","2011","11","30","03:00","2.5","","1.6","","94","","27","","11","","24.1","","97.75","","","","","","Cloudy"
"2011-11-30 04:00","2011","11","30","04:00","2.7","","1.6","","92","","25","","11","","24.1","","97.71","","","","","","Cloudy"
"2011-11-30 05:00","2011","11","30","05:00","3.1","","1.7","","91","","26","","13","","24.1","","97.71","","","","","","Cloudy"
"2011-11-30 06:00","2011","11","30","06:00","2.7","","1.8","","94","","27","","19","","14.5","","97.73","","","","","","Rain"
"2011-11-30 07:00","2011","11","30","07:00","2.3","","1.8","","96","","27","","15","","16.1","","97.75","","","","","","Rain"
"2011-11-30 08:00","2011","11","30","08:00","2.3","","0.9","","90","","31","","33","","24.1","","97.83","","","","","","Rain"
"2011-11-30 09:00","2011","11","30","09:00","2.3","","0.5","","88","","30","","26","","24.1","","97.93","","","","","","Mostly Cloudy"
"2011-11-30 10:00","2011","11","30","10:00","2.3","","-1.0","","79","","31","","33","","24.1","","98.13","","","","","","Cloudy"
"2011-11-30 11:00","2011","11","30","11:00","-0.2","","-0.2","","100","","30","","24","","1.0","","98.32","","","","-6","","Snow Showers"
"2011-11-30 12:00","2011","11","30","12:00","-0.2","","-0.3","","99","","33","","32","","6.4","","98.40","","","","-7","","Snow Showers"
"2011-11-30 13:00","2011","11","30","13:00","1.5","","-1.4","","81","","32","","33","","24.1","","98.49","","","","","","Mostly Cloudy"
"2011-11-30 14:00","2011","11","30","14:00","2.4","","-2.0","","73","","32","","39","","24.1","","98.65","","","","","","Mostly Cloudy"
"2011-11-30 15:00","2011","11","30","15:00","2.7","","-4.4","","59","","34","","41","","24.1","","98.78","","","","","","Mostly Cloudy"
"2011-11-30 16:00","2011","11","30","16:00","2.2","","-4.5","","61","","32","","35","","24.1","","98.98","","","","","","Mostly Cloudy"
"2011-11-30 17:00","2011","11","30","17:00","1.4","","-3.8","","68","","30","","28","","24.1","","99.15","","","","","","Mainly Clear"
"2011-11-30 18:00","2011","11","30","18:00","1.1","","-5.7","","60","","30","","19","","24.1","","99.27","","","","","","Mainly Clear"
"2011-11-30 19:00","2011","11","30","19:00","0.2","","-4.8","","69","","31","","17","","24.1","","99.41","","","","","","Mainly Clear"
"2011-11-30 20:00","2011","11","30","20:00","0.5","","-3.6","","74","","32","","17","","24.1","","99.54","","","","","","Mainly Clear"
"2011-11-30 21:00","2011","11","30","21:00","1.4","","-2.3","","76","","31","","22","","24.1","","99.63","","","","","","Clear"
"2011-11-30 22:00","2011","11","30","22:00","1.6","","-1.4","","80","","27","","19","","24.1","","99.69","","","","","","Mostly Cloudy"
"2011-11-30 23:00","2011","11","30","23:00","1.8","","-0.9","","82","","27","","11","","24.1","","99.78","","","","","","Mostly Cloudy"
