"Station Name","TORONTO LESTER B. PEARSON INT'L A"
"Province","ONTARIO"
"Latitude","43.68"
"Longitude","-79.63"
"Elevation","173.40"
"Climate Identifier","6158733"
"WMO Identifier","71624"
"TC Identifier","YYZ"
"All times are specified in Local Standard Time (LST). Add 1 hour to adjust for Daylight Saving Time where and when it is observed."

"Legend"
"E","Estimated"
"M","Missing"
"NA","Not Available"

"Date/Time","Year","Month","Day","Time","Temp (°C)","Temp Flag","Dew Point Temp (°C)","Dew Point Temp Flag","Rel Hum (%)","Rel Hum Flag","Wind Dir (10s deg)","Wind Dir Flag","Wind Spd (km/h)","Wind Spd Flag","Visibility (km)","Visibility Flag","Stn Press (kPa)","Stn Press Flag","Hmdx","Hmdx Flag","Wind Chill","Wind Chill Flag","Weather"
"1999-08-01 00:00","1999","08","01","00:00","22.3","","19.1","","82","","32","","13","","24.1","","98.62","","29","","","","Mainly Clear"
"1999-08-01 01:00","1999","08","01","01:00","21.8","","17.8","","78","","32","","17","","24.1","","98.66","","28","","","","Mainly Clear"
"1999-08-01 02:00","1999","08","01","02:00","21.2","","16.0","","72","","33","","20","","24.1","","98.72","","26","","","","Mainly Clear"
"1999-08-01 03:00","1999","08","01","03:00","20.9","","15.2","","70","","32","","19","","24.1","","98.76","","25","","","","Mainly Clear"
"1999-08-01 04:00","1999","08","01","04:00","20.5","","14.2","","67","","31","","11","","24.1","","98.82","","","","","","Mainly Clear"
"1999-08-01 05:00","1999","08","01","05:00","20.6","","12.7","","61","","32","","15","","24.1","","98.89","","","","","","Mainly Clear"
"1999-08-01 06:00","1999","08","01","06:00","20.6","","13.0","","62","","31","","11","","24.1","","98.96","","","","","","Mainly Clear"
"1999-08-01 07:00","1999","08","01","07:00","21.0","","15.0","","69","","32","","15","","24.1","","99.02","","25","","","","Mainly Clear"
"1999-08-01 08:00","1999","08","01","08:00","22.0","","16.1","","69","","34","","13","","24.1","","99.06","","27","","","","Mainly Clear"
"1999-08-01 09:00","1999","08","01","09:00","23.4","","16.9","","67","","35","","22","","24.1","","99.09","","29","","","","Mainly Clear"
"1999-08-01 10:00","1999","08","01","10:00","24.3","","16.5","","62","","34","","22","","24.1","","99.16","","29","","","","Mainly Clear"
"1999-08-01 11:00","1999","08","01","11:00","24.9","","14.4","","52","","36","","17","","24.1","","99.19","","29","","","","Mainly Clear"
"1999-08-01 12:00","1999","08","01","12:00","26.3","","14.0","","47","","35","","20","","24.1","","99.26","","30","","","","Mostly Cloudy"
"1999-08-01 13:00","1999","08","01","13:00","26.2","","12.4","","42","","36","","15","E","24.1","","99.26","","29","","","","Mainly Clear"
"1999-08-01 14:00","1999","08","01","14:00","26.4","","12.4","","42","","36","","19","","25.0","","99.29","","29","","","","Mainly Clear"
"1999-08-01 15:00","1999","08","01","15:00","27.2","","12.0","","39","","34","","24","","25.0","","99.29","","29","","","","Mainly Clear"
"1999-08-01 16:00","1999","08","01","16:00","26.9","","11.9","","39","","33","","22","","25.0","","99.26","","29","","","","Mainly Clear"
"1999-08-01 17:00","1999","08","01","17:00","26.8","","10.3","","36","","31","","26","","25.0","","99.29","","28","","","","Mainly Clear"
"1999-08-01 18:00","1999","08","01","18:00","26.3","","9.2","","34","","32","","35","","25.0","","99.32","","27","","","","Mainly Clear"
"1999-08-01 19:00","1999","08","01","19:00","24.7","","10.0","","39","","32","","32","","25.0","","99.39","","26","","","","Clear"
"1999-08-01 20:00","1999","08","01","20:00","22.1","","14.9","","64","","36","","24","","25.0","","99.45","","26","","","","Clear"
"1999-08-01 21:00","1999","08","01","21:00","21.4","","12.6","","57","","32","","19","","24.1","","99.52","","","","","","Clear"
"1999-08-01 22:00","1999","08","01","22:00","20.2","","13.1","","64","","32","","20","","25.0","","99.55","","","","","","Clear"
"1999-08-01 23:00","1999","08","01","23:00","19.4","","13.3","","68","","31","","20","","25.0","","99.55","","","","","","Clear"
"1999-08-02 00:00","1999","08","02","00:00","18.4","","13.0","","71","","31","","17","","25.0","","99.59","","","","","","Clear"
"1999-08-02 01:00","1999","08","02","01:00","17.7","","12.8","","73","","30","","15","","25.0","","99.62","","","","","","Clear"
"1999-08-02 02:00","1999","08","02","02:00","17.0","","12.8","","76","","32","","13","","25.0","","99.62","","","","","","Clear"
"1999-08-02 03:00","1999","08","02","03:00","16.3","","13.0","","81","","31","","13","","25.0","","99.62","","","","","","Clear"
"1999-08-02 04:00","1999","08","02","04:00","16.1","","13.2","","83","","31","","13","","25.0","","99.65","","","","","","Clear"
"1999-08-02 05:00","1999","08","02","05:00","16.0","","13.4","","85","","32","","11","","24.1","","99.69","","","","","","Clear"
"1999-08-02 06:00","1999","08","02","06:00","16.6","","13.6","","82","","34","","19","","25.0","","99.75","","","","","","Clear"
"1999-08-02 07:00","1999","08","02","07:00","17.4","","13.9","","80","","36","","15","","25.0","","99.82","","","","","","Clear"
"1999-08-02 08:00","1999","08","02","08:00","19.6","","14.2","","71","","2","","17","","25.0","","99.85","","","","","","Clear"
"1999-08-02 09:00","1999","08","02","09:00","20.9","","12.4","","58","","4","","11","","25.0","","99.89","","","","","","Clear"
"1999-08-02 10:00","1999","08","02","10:00","22.6","","11.9","","51","","36","","13","","25.0","","99.89","","25","","","","Mainly Clear"
"1999-08-02 11:00","1999","08","02","11:00","23.2","","11.6","","48","","2","","13","","25.0","","99.89","","25","","","","Mainly Clear"
"1999-08-02 12:00","1999","08","02","12:00","23.0","","10.8","","46","","34","","17","","25.0","","99.89","","25","","","","Mostly Cloudy"
"1999-08-02 13:00","1999","08","02","13:00","23.2","","9.9","","43","","33","","19","","25.0","","99.89","","","","","","Mostly Cloudy"
"1999-08-02 14:00","1999","08","02","14:00","23.8","","9.0","","39","","35","","19","","25.0","","99.85","","25","","","","Mostly Cloudy"
"1999-08-02 15:00","1999","08","02","15:00","24.6","","8.7","","36","","34","","26","","25.0","","99.85","","25","","","","Mainly Clear"
"1999-08-02 16:00","1999","08","02","16:00","24.9","","8.2","","35","","36","","24","","25.0","","99.85","","25","","","","Mainly Clear"
"1999-08-02 17:00","1999","08","02","17:00","24.1","","8.3","","36","","1","","22","","24.1","","99.85","","25","","","","Mostly Cloudy"
"1999-08-02 18:00","1999","08","02","18:00","23.6","","7.5","","36","","1","","24","","24.1","","99.85","","","","","","Mainly Clear"
"1999-08-02 19:00","1999","08","02","19:00","22.6","","7.6","","38","","36","","19","","24.1","","99.89","","","","","","Mainly Clear"
"1999-08-02 20:00","1999","08","02","20:00","21.6","","8.8","","44","","2","","13","","24.1","","99.89","","","","","","Mainly Clear"
"1999-08-02 21:00","1999","08","02","21:00","21.2","","9.3","","47","","35","","13","","25.0","","99.95","","","","","","Clear"
"1999-08-02 22:00","1999","08","02","22:00","19.9","","10.2","","54","","35","","13","","25.0","","99.95","","","","","","Clear"
"1999-08-02 23:00","1999","08","02","23:00","19.0","","11.0","","60","","31","","11","","25.0","","99.99","","","","","","Clear"
"1999-08-03 00:00","1999","08","03","00:00","17.7","","11.6","","67","","32","","9","","25.0","","99.99","","","","","","Clear"
"1999-08-03 01:00","1999","08","03","01:00","17.2","","12.1","","72","","30","","13","","25.0","","99.95","","","","","","Clear"
"1999-08-03 02:00","1999","08","03","02:00","16.7","","12.3","","75","","29","","11","","25.0","","99.95","","","","","","Clear"
"1999-08-03 03:00","1999","08","03","03:00","16.0","","12.5","","80","","28","","11","","25.0","","99.95","","","","","","Clear"
"1999-08-03 04:00","1999","08","03","04:00","14.9","","12.5","","86","","26","","9","","25.0","","99.95","","","","","","Clear"
"1999-08-03 05:00","1999","08","03","05:00","15.6","","12.2","","80","","29","","13","","25.0","","99.99","","","","","","Clear"
"1999-08-03 06:00","1999","08","03","06:00","16.5","","11.9","","74","","30","","13","","25.0","","100.02","","","","","","Clear"
"1999-08-03 07:00","1999","08","03","07:00","18.4","","11.8","","65","","32","","19","","25.0","","100.05","","","","","","Clear"
"1999-08-03 08:00","1999","08","03","08:00","20.6","","11.0","","54","","31","","17","","25.0","","100.05","","","","","","Clear"
"1999-08-03 09:00","1999","08","03","09:00","21.7","","12.0","","54","","32","","24","","25.0","","100.05","","","","","","Clear"
"1999-08-03 10:00","1999","08","03","10:00","23.1","","11.3","","47","","29","","22","","25.0","","100.02","","25","","","","Mainly Clear"
"1999-08-03 11:00","1999","08","03","11:00","23.8","","11.2","","45","","32","","15","","25.0","","100.02","","26","","","","Mainly Clear"
"1999-08-03 12:00","1999","08","03","12:00","24.4","","9.8","","40","","30","","20","","25.0","","99.95","","26","","","","Mainly Clear"
"1999-08-03 13:00","1999","08","03","13:00","25.2","","10.2","","39","","27","","19","","25.0","","99.92","","27","","","","Mainly Clear"
"1999-08-03 14:00","1999","08","03","14:00","25.9","","10.7","","38","","29","","17","","25.0","","99.89","","28","","","","Mostly Cloudy"
"1999-08-03 15:00","1999","08","03","15:00","26.0","","10.9","","39","","28","","28","","24.1","","99.82","","28","","","","Mainly Clear"
"1999-08-03 16:00","1999","08","03","16:00","25.7","","11.5","","41","","27","","28","","25.0","","99.72","","28","","","","Mostly Cloudy"
"1999-08-03 17:00","1999","08","03","17:00","24.7","","11.3","","43","","29","","35","","25.0","","99.72","","27","","","","Mostly Cloudy"
"1999-08-03 18:00","1999","08","03","18:00","22.8","","12.5","","52","","28","","30","","25.0","","99.72","","25","","","","Mostly Cloudy"
"1999-08-03 19:00","1999","08","03","19:00","22.3","","12.8","","55","","29","","32","","25.0","","99.75","","25","","","","Cloudy"
"1999-08-03 20:00","1999","08","03","20:00","20.9","","13.7","","63","","29","","22","","25.0","","99.72","","","","","","Rain Showers"
"1999-08-03 21:00","1999","08","03","21:00","20.3","","14.1","","68","","28","","20","","24.1","","99.72","","","","","","Cloudy"
"1999-08-03 22:00","1999","08","03","22:00","18.2","","15.9","","86","","27","","20","","9.7","","99.75","","","","","","Rain Showers"
"1999-08-03 23:00","1999","08","03","23:00","18.1","","16.3","","89","","25","","9","","24.1","","99.65","","","","","","Mostly Cloudy"
"1999-08-04 00:00","1999","08","04","00:00","18.1","","16.4","","90","","33","","4","","24.1","","99.62","","","","","","Cloudy"
"1999-08-04 01:00","1999","08","04","01:00","18.1","","16.4","","90","","","","0","","24.1","","99.59","","","","","","Mostly Cloudy"
"1999-08-04 02:00","1999","08","04","02:00","18.5","","16.4","","88","","12","","4","","16.1","","99.52","","","","","","Cloudy"
"1999-08-04 03:00","1999","08","04","03:00","18.5","","16.4","","88","","18","","4","","16.1","","99.45","","","","","","Cloudy"
"1999-08-04 04:00","1999","08","04","04:00","18.7","","16.3","","86","","11","","6","","16.1","","99.39","","","","","","Cloudy"
"1999-08-04 05:00","1999","08","04","05:00","18.5","","16.5","","88","","36","","4","","6.4","","99.42","","","","","","Rain Showers"
"1999-08-04 06:00","1999","08","04","06:00","17.8","","16.8","","94","","3","","11","","6.4","","99.42","","","","","","Rain Showers,Fog"
"1999-08-04 07:00","1999","08","04","07:00","18.1","","16.6","","91","","10","","4","","9.7","","99.39","","","","","","Rain Showers,Fog"
"1999-08-04 08:00","1999","08","04","08:00","18.2","","16.2","","88","","","","0","","9.7","","99.39","","","","","","Rain Showers,Fog"
"1999-08-04 09:00","1999","08","04","09:00","18.6","","16.6","","88","","9","","6","","12.9","","99.35","","","","","","Cloudy"
"1999-08-04 10:00","1999","08","04","10:00","19.0","","17.0","","88","","12","","9","","12.9","","99.29","","","","","","Cloudy"
"1999-08-04 11:00","1999","08","04","11:00","18.8","","17.4","","92","","14","","9","","11.3","","99.29","","","","","","Rain Showers"
"1999-08-04 12:00","1999","08","04","12:00","19.6","","17.8","","89","","10","","9","","9.7","","99.19","","","","","","Fog"
"1999-08-04 13:00","1999","08","04","13:00","19.1","","17.8","","92","","8","","4","","2.4","","99.16","","","","","","Thunderstorms,Moderate Rain Showers,Fog"
"1999-08-04 14:00","1999","08","04","14:00","19.8","","18.3","","91","","9","","9","","6.4","","99.09","","","","","","Fog"
"1999-08-04 15:00","1999","08","04","15:00","21.6","","17.3","","77","","11","","4","","12.9","","99.02","","27","","","","Mostly Cloudy"
"1999-08-04 16:00","1999","08","04","16:00","21.8","","17.9","","79","","14","","11","","19.3","","98.96","","28","","","","Mostly Cloudy"
"1999-08-04 17:00","1999","08","04","17:00","17.5","","16.3","","93","","11","","9","","24.1","","99.02","","","","","","Heavy Rain Showers"
"1999-08-04 18:00","1999","08","04","18:00","19.4","","16.6","","84","","14","","6","","24.1","","98.99","","","","","","Mainly Clear"
"1999-08-04 19:00","1999","08","04","19:00","19.4","","16.9","","85","","13","","6","","24.1","","98.99","","","","","","Mainly Clear"
"1999-08-04 20:00","1999","08","04","20:00","19.5","","16.9","","85","","","","0","","24.1","","98.99","","","","","","Mainly Clear"
"1999-08-04 21:00","1999","08","04","21:00","19.5","","17.1","","86","","20","","6","","24.1","","99.02","","","","","","Clear"
"1999-08-04 22:00","1999","08","04","22:00","18.8","","17.1","","90","","28","","6","","19.3","","99.02","","","","","","Mainly Clear"
"1999-08-04 23:00","1999","08","04","23:00","18.4","","16.2","","87","","31","","11","","19.3","","98.96","","","","","","Mainly Clear"
"1999-08-05 00:00","1999","08","05","00:00","17.8","","14.9","","83","","32","","11","","25.0","","98.99","","","","","","Mainly Clear"
"1999-08-05 01:00","1999","08","05","01:00","17.2","","14.2","","83","","32","","9","","25.0","","98.96","","","","","","Mainly Clear"
"1999-08-05 02:00","1999","08","05","02:00","16.1","","14.2","","88","","31","","4","","24.1","","98.96","","","","","","Mainly Clear"
"1999-08-05 03:00","1999","08","05","03:00","16.2","","13.8","","86","","31","","6","","25.0","","98.96","","","","","","Mainly Clear"
"1999-08-05 04:00","1999","08","05","04:00","16.3","","14.0","","86","","31","","7","","24.1","","98.96","","","","","","Mostly Cloudy"
"1999-08-05 05:00","1999","08","05","05:00","15.6","","13.8","","89","","27","","4","","24.1","","98.96","","","","","","Mostly Cloudy"
"1999-08-05 06:00","1999","08","05","06:00","16.9","","14.8","","87","","32","","11","","24.1","","98.99","","","","","","Mostly Cloudy"
"1999-08-05 07:00","1999","08","05","07:00","18.4","","14.8","","80","","29","","9","","25.0","","99.02","","","","","","Mainly Clear"
"1999-08-05 08:00","1999","08","05","08:00","19.2","","14.4","","74","","32","","20","","25.0","","99.02","","","","","","Mostly Cloudy"
"1999-08-05 09:00","1999","08","05","09:00","20.3","","14.5","","69","","31","","17","","25.0","","98.99","","","","","","Mainly Clear"
"1999-08-05 10:00","1999","08","05","10:00","21.9","","13.8","","60","","31","","20","","25.0","","99.06","","25","","","","Mainly Clear"
"1999-08-05 11:00","1999","08","05","11:00","22.4","","13.9","","59","","31","","20","","25.0","","99.02","","26","","","","Mostly Cloudy"
"1999-08-05 12:00","1999","08","05","12:00","23.3","","12.4","","50","","30","","17","","25.0","","99.02","","26","","","","Mostly Cloudy"
"1999-08-05 13:00","1999","08","05","13:00","22.9","","12.5","","52","","35","","19","","25.0","","99.02","","25","","","","Mostly Cloudy"
"1999-08-05 14:00","1999","08","05","14:00","23.2","","12.3","","50","","36","","17","","25.0","","99.02","","26","","","","Mainly Clear"
"1999-08-05 15:00","1999","08","05","15:00","22.8","","11.9","","50","","35","","22","","25.0","","99.02","","25","","","","Mainly Clear"
"1999-08-05 16:00","1999","08","05","16:00","23.4","","12.4","","50","","34","","17","","25.0","","99.02","","26","","","","Mainly Clear"
"1999-08-05 17:00","1999","08","05","17:00","22.9","","12.1","","51","","35","","17","","25.0","","99.02","","25","","","","Mainly Clear"
"1999-08-05 18:00","1999","08","05","18:00","21.9","","13.2","","58","","36","","30","","25.0","","99.06","","25","","","","Mostly Cloudy"
"1999-08-05 19:00","1999","08","05","19:00","21.5","","12.8","","58","","31","","24","","25.0","","99.12","","","","","","Clear"
"1999-08-05 20:00","1999","08","05","20:00","19.8","","10.5","","55","","31","","22","","25.0","","99.19","","","","","","Clear"
"1999-08-05 21:00","1999","08","05","21:00","18.6","","10.0","","57","","31","","26","","25.0","","99.26","","","","","","Clear"
"1999-08-05 22:00","1999","08","05","22:00","16.9","","10.4","","66","","29","","15","","25.0","","99.26","","","","","","Clear"
"1999-08-05 23:00","1999","08","05","23:00","15.8","","10.6","","71","","27","","13","","25.0","","99.26","","","","","","Mainly Clear"
"1999-08-06 00:00","1999","08","06","00:00","15.1","","10.6","","74","","27","","15","","25.0","","99.26","","","","","","Clear"
"1999-08-06 01:00","1999","08","06","01:00","14.3","","10.8","","79","","27","","7","","25.0","","99.22","","","","","","Clear"
"1999-08-06 02:00","1999","08","06","02:00","13.8","","10.4","","80","","28","","11","","25.0","","99.19","","","","","","Clear"
"1999-08-06 03:00","1999","08","06","03:00","13.5","","10.5","","82","","28","","9","","24.1","","99.19","","","","","","Clear"
"1999-08-06 04:00","1999","08","06","04:00","13.2","","10.4","","83","","28","","6","","25.0","","99.16","","","","","","Mainly Clear"
"1999-08-06 05:00","1999","08","06","05:00","13.1","","10.5","","84","","27","","7","","25.0","","99.16","","","","","","Mostly Cloudy"
"1999-08-06 06:00","1999","08","06","06:00","14.8","","11.0","","78","","22","","7","","24.1","","99.12","","","","","","Mostly Cloudy"
"1999-08-06 07:00","1999","08","06","07:00","16.2","","11.7","","75","","22","","11","","24.1","","99.06","","","","","","Mostly Cloudy"
"1999-08-06 08:00","1999","08","06","08:00","16.1","","12.1","","77","","21","","11","","19.3","","99.02","","","","","","Rain Showers"
"1999-08-06 09:00","1999","08","06","09:00","16.2","","12.0","","76","","25","","17","","16.1","","98.99","","","","","","Rain Showers"
"1999-08-06 10:00","1999","08","06","10:00","17.5","","13.8","","79","","25","","24","","24.1","","98.99","","","","","","Cloudy"
"1999-08-06 11:00","1999","08","06","11:00","20.3","","15.6","","74","","28","","32","","24.1","","98.99","","25","","","","Mostly Cloudy"
"1999-08-06 12:00","1999","08","06","12:00","22.2","","15.2","","65","","29","","35","","24.1","","98.96","","26","","","","Mainly Clear"
"1999-08-06 13:00","1999","08","06","13:00","24.8","","12.5","","46","","28","","37","","24.1","","98.99","","27","","","","Mostly Cloudy"
"1999-08-06 14:00","1999","08","06","14:00","23.6","","10.5","","44","","31","","33","","25.0","","99.06","","25","","","","Mostly Cloudy"
"1999-08-06 15:00","1999","08","06","15:00","24.3","","10.0","","40","","30","","35","","25.0","","99.09","","26","","","","Mainly Clear"
"1999-08-06 16:00","1999","08","06","16:00","24.1","","10.6","","43","","31","","41","","25.0","","99.16","","26","","","","Mainly Clear"
"1999-08-06 17:00","1999","08","06","17:00","23.2","","8.8","","40","","30","","35","","25.0","","99.22","","","","","","Mainly Clear"
"1999-08-06 18:00","1999","08","06","18:00","21.8","","13.7","","60","","34","","28","","25.0","","99.29","","25","","","","Mainly Clear"
"1999-08-06 19:00","1999","08","06","19:00","20.5","","13.3","","63","","36","","24","","25.0","","99.35","","","","","","Clear"
"1999-08-06 20:00","1999","08","06","20:00","19.1","","12.6","","66","","35","","19","","25.0","","99.39","","","","","","Clear"
"1999-08-06 21:00","1999","08","06","21:00","18.5","","12.1","","66","","35","","19","","25.0","","99.45","","","","","","Clear"
"1999-08-06 22:00","1999","08","06","22:00","17.5","","12.3","","72","","33","","17","","25.0","","99.49","","","","","","Clear"
"1999-08-06 23:00","1999","08","06","23:00","16.3","","12.3","","77","","29","","9","","25.0","","99.55","","","","","","Clear"
"1999-08-07 00:00","1999","08","07","00:00","14.9","","11.0","","77","","29","","11","","25.0","","99.59","","","","","","Clear"
"1999-08-07 01:00","1999","08","07","01:00","14.8","","11.1","","78","","31","","9","","25.0","","99.55","","","","","","Clear"
"1999-08-07 02:00","1999","08","07","02:00","13.7","","11.1","","84","","28","","6","","25.0","","99.59","","","","","","Mainly Clear"
"1999-08-07 03:00","1999","08","07","03:00","13.5","","10.9","","84","","28","","4","","24.1","","99.59","","","","","","Mainly Clear"
"1999-08-07 04:00","1999","08","07","04:00","13.2","","10.5","","84","","36","","7","","24.1","","99.65","","","","","","Clear"
"1999-08-07 05:00","1999","08","07","05:00","13.1","","10.6","","85","","33","","6","","25.0","","99.65","","","","","","Mainly Clear"
"1999-08-07 06:00","1999","08","07","06:00","13.5","","10.6","","83","","35","","6","","24.1","","99.69","","","","","","Mostly Cloudy"
"1999-08-07 07:00","1999","08","07","07:00","15.2","","10.7","","74","","36","","7","","24.1","","99.72","","","","","","Mainly Clear"
"1999-08-07 08:00","1999","08","07","08:00","17.2","","10.6","","65","","36","","4","","24.1","","99.69","","","","","","Mainly Clear"
"1999-08-07 09:00","1999","08","07","09:00","19.3","","12.2","","63","","24","","4","","24.1","","99.69","","","","","","Mainly Clear"
"1999-08-07 10:00","1999","08","07","10:00","20.8","","11.4","","55","","16","","6","","24.1","","99.65","","","","","","Mainly Clear"
"1999-08-07 11:00","1999","08","07","11:00","21.1","","11.3","","54","","13","","11","","24.1","","99.62","","","","","","Mainly Clear"
"1999-08-07 12:00","1999","08","07","12:00","21.4","","10.1","","48","","14","","15","","24.1","","99.55","","","","","","Mainly Clear"
"1999-08-07 13:00","1999","08","07","13:00","22.3","","10.0","","46","","14","","15","","24.1","","99.52","","","","","","Cloudy"
"1999-08-07 14:00","1999","08","07","14:00","23.3","","11.4","","47","","15","","19","","25.0","","99.42","","25","","","","Mostly Cloudy"
"1999-08-07 15:00","1999","08","07","15:00","22.8","","11.1","","48","","14","","17","","25.0","","99.32","","25","","","","Cloudy"
"1999-08-07 16:00","1999","08","07","16:00","22.2","","11.5","","51","","14","","15","","24.1","","99.29","","","","","","Cloudy"
"1999-08-07 17:00","1999","08","07","17:00","20.8","","11.7","","56","","13","","17","","24.1","","99.22","","","","","","Cloudy"
"1999-08-07 18:00","1999","08","07","18:00","20.2","","14.2","","68","","14","","19","","25.0","","99.12","","","","","","Cloudy"
"1999-08-07 19:00","1999","08","07","19:00","19.4","","16.3","","82","","12","","11","","19.3","","99.09","","","","","","Rain Showers"
"1999-08-07 20:00","1999","08","07","20:00","19.3","","17.0","","87","","14","","7","","19.3","","99.06","","","","","","Rain Showers"
"1999-08-07 21:00","1999","08","07","21:00","19.4","","17.6","","89","","20","","9","","16.1","","99.06","","","","","","Rain Showers"
"1999-08-07 22:00","1999","08","07","22:00","19.3","","17.6","","90","","18","","7","","12.9","","98.96","","","","","","Rain Showers"
"1999-08-07 23:00","1999","08","07","23:00","19.1","","17.8","","92","","14","","6","","8.0","","98.92","","","","","","Rain,Fog"
"1999-08-08 00:00","1999","08","08","00:00","18.7","","18.1","","96","","16","","6","","3.6","","98.86","","","","","","Rain,Fog"
"1999-08-08 01:00","1999","08","08","01:00","18.4","","18.0","","98","","16","","7","","4.0","","98.72","","","","","","Rain,Fog"
"1999-08-08 02:00","1999","08","08","02:00","18.3","","17.6","","96","","16","","6","","4.8","","98.62","","","","","","Rain,Fog"
"1999-08-08 03:00","1999","08","08","03:00","17.9","","17.2","","96","","17","","6","","4.8","","98.56","","","","","","Rain,Fog"
"1999-08-08 04:00","1999","08","08","04:00","18.0","","17.5","","97","","3","","6","","4.0","","98.49","","","","","","Rain,Fog"
"1999-08-08 05:00","1999","08","08","05:00","18.1","","17.6","","97","","36","","17","","1.6","","98.49","","","","","","Drizzle,Fog"
"1999-08-08 06:00","1999","08","08","06:00","18.2","","17.5","","96","","1","","7","","3.2","","98.52","","","","","","Fog"
"1999-08-08 07:00","1999","08","08","07:00","18.8","","17.9","","95","","31","","11","","4.8","","98.56","","","","","","Fog"
"1999-08-08 08:00","1999","08","08","08:00","19.9","","17.7","","87","","32","","19","","16.1","","98.59","","","","","","Cloudy"
"1999-08-08 09:00","1999","08","08","09:00","21.2","","18.2","","83","","30","","24","","24.1","","98.62","","27","","","","Mostly Cloudy"
"1999-08-08 10:00","1999","08","08","10:00","22.9","","18.6","","77","","30","","20","","24.1","","98.62","","29","","","","Mostly Cloudy"
"1999-08-08 11:00","1999","08","08","11:00","24.6","","18.1","","67","","32","","28","","24.1","","98.66","","31","","","","Mostly Cloudy"
"1999-08-08 12:00","1999","08","08","12:00","22.0","","16.0","","69","","34","","43","","24.1","","98.76","","27","","","","Mostly Cloudy"
"1999-08-08 13:00","1999","08","08","13:00","22.2","","13.4","","57","","34","","44","","24.1","","98.79","","25","","","","Mainly Clear"
"1999-08-08 14:00","1999","08","08","14:00","21.5","","13.0","","58","","33","","52","","25.0","","98.86","","","","","","Mostly Cloudy"
"1999-08-08 15:00","1999","08","08","15:00","21.2","","12.9","","59","","34","","39","","24.1","","98.92","","","","","","Mostly Cloudy"
"1999-08-08 16:00","1999","08","08","16:00","19.8","","12.4","","62","","33","","46","","25.0","","98.96","","","","","","Mostly Cloudy"
"1999-08-08 17:00","1999","08","08","17:00","20.2","","11.7","","58","","33","","39","","24.1","","99.02","","","","","","Mainly Clear"
"1999-08-08 18:00","1999","08","08","18:00","19.0","","10.8","","59","","35","","30","","24.1","","99.06","","","","","","Mainly Clear"
"1999-08-08 19:00","1999","08","08","19:00","18.5","","10.9","","61","","34","","33","","25.0","","99.12","","","","","","Mainly Clear"
"1999-08-08 20:00","1999","08","08","20:00","17.6","","10.7","","64","","33","","28","","25.0","","99.16","","","","","","Mainly Clear"
"1999-08-08 21:00","1999","08","08","21:00","17.0","","10.2","","64","","34","","28","","25.0","","99.26","","","","","","Clear"
"1999-08-08 22:00","1999","08","08","22:00","15.9","","9.9","","68","","32","","22","","25.0","","99.32","","","","","","Clear"
"1999-08-08 23:00","1999","08","08","23:00","14.8","","9.6","","71","","32","","15","","25.0","","99.32","","","","","","Clear"
"1999-08-09 00:00","1999","08","09","00:00","14.3","","9.5","","73","","32","","11","","25.0","","99.32","","","","","","Clear"
"1999-08-09 01:00","1999","08","09","01:00","13.9","","9.4","","74","","32","","6","","25.0","","99.32","","","","","","Clear"
"1999-08-09 02:00","1999","08","09","02:00","13.3","","9.5","","78","","29","","11","","25.0","","99.35","","","","","","Mainly Clear"
"1999-08-09 03:00","1999","08","09","03:00","12.7","","9.5","","81","","28","","13","","25.0","","99.35","","","","","","Clear"
"1999-08-09 04:00","1999","08","09","04:00","12.2","","9.2","","82","","28","","9","","25.0","","99.35","","","","","","Mainly Clear"
"1999-08-09 05:00","1999","08","09","05:00","12.1","","9.0","","81","","29","","11","","25.0","","99.39","","","","","","Mainly Clear"
"1999-08-09 06:00","1999","08","09","06:00","12.5","","8.9","","79","","31","","11","","25.0","","99.45","","","","","","Clear"
"1999-08-09 07:00","1999","08","09","07:00","14.3","","9.2","","71","","31","","9","","25.0","","99.45","","","","","","Clear"
"1999-08-09 08:00","1999","08","09","08:00","16.4","","8.5","","60","","33","","13","","25.0","","99.45","","","","","","Clear"
"1999-08-09 09:00","1999","08","09","09:00","17.6","","9.4","","59","","35","","17","","25.0","","99.49","","","","","","Clear"
"1999-08-09 10:00","1999","08","09","10:00","18.7","","9.2","","54","","36","","24","","25.0","","99.45","","","","","","Mainly Clear"
"1999-08-09 11:00","1999","08","09","11:00","19.4","","8.8","","50","","36","","19","","25.0","","99.45","","","","","","Mainly Clear"
"1999-08-09 12:00","1999","08","09","12:00","19.6","","7.9","","47","","32","","17","","25.0","","99.42","","","","","","Mainly Clear"
"1999-08-09 13:00","1999","08","09","13:00","19.7","","8.7","","49","","1","","19","","25.0","","99.35","","","","","","Mostly Cloudy"
"1999-08-09 14:00","1999","08","09","14:00","20.9","","6.4","","39","","36","","24","","25.0","","99.32","","","","","","Mainly Clear"
"1999-08-09 15:00","1999","08","09","15:00","21.0","","6.4","","39","","34","","17","","25.0","","99.26","","","","","","Mostly Cloudy"
"1999-08-09 16:00","1999","08","09","16:00","20.9","","6.6","","39","","1","","17","","25.0","","99.29","","","","","","Mostly Cloudy"
"1999-08-09 17:00","1999","08","09","17:00","21.1","","6.9","","40","","35","","17","","25.0","","99.22","","","","","","Mostly Cloudy"
"1999-08-09 18:00","1999","08","09","18:00","20.2","","6.8","","42","","3","","13","","25.0","","99.19","","","","","","Mostly Cloudy"
"1999-08-09 19:00","1999","08","09","19:00","19.3","","6.5","","43","","2","","20","","25.0","","99.16","","","","","","Mostly Cloudy"
"1999-08-09 20:00","1999","08","09","20:00","18.4","","6.8","","47","","4","","11","","25.0","","99.22","","","","","","Cloudy"
"1999-08-09 21:00","1999","08","09","21:00","18.2","","5.4","","43","","5","","4","","25.0","","99.22","","","","","","Mostly Cloudy"
"1999-08-09 22:00","1999","08","09","22:00","18.1","","5.4","","43","","5","","4","","25.0","","99.22","","","","","","Cloudy"
"1999-08-09 23:00","1999","08","09","23:00","17.6","","6.4","","48","","5","","4","","25.0","","99.22","","","","","","Cloudy"
"1999-08-10 00:00","1999","08","10","00:00","17.5","","6.8","","49","","5","","6","","25.0","","99.19","","","","","","Mostly Cloudy"
"1999-08-10 01:00","1999","08","10","01:00","16.7","","8.5","","58","","5","","4","","25.0","","99.16","","","","","","Mostly Cloudy"
"1999-08-10 02:00","1999","08","10","02:00","16.1","","9.1","","63","","5","","4","","25.0","","99.12","","","","","","Mostly Cloudy"
"1999-08-10 03:00","1999","08","10","03:00","16.6","","8.8","","60","","5","","6","","25.0","","99.09","","","","","","Mostly Cloudy"
"1999-08-10 04:00","1999","08","10","04:00","16.7","","9.4","","62","","5","","4","","25.0","","99.06","","","","","","Cloudy"
"1999-08-10 05:00","1999","08","10","05:00","17.0","","9.8","","63","","5","","4","","25.0","","99.06","","","","","","Mostly Cloudy"
"1999-08-10 06:00","1999","08","10","06:00","17.0","","10.7","","66","","","","0","","24.1","","99.06","","","","","","Cloudy"
"1999-08-10 07:00","1999","08","10","07:00","17.5","","11.2","","67","","14","","4","","24.1","","99.02","","","","","","Cloudy"
"1999-08-10 08:00","1999","08","10","08:00","17.1","","12.5","","74","","18","","7","","19.3","","98.99","","","","","","Rain Showers"
"1999-08-10 09:00","1999","08","10","09:00","17.0","","11.7","","71","","17","","7","","16.1","","99.02","","","","","","Rain Showers"
"1999-08-10 10:00","1999","08","10","10:00","16.3","","12.7","","79","","15","","11","","12.9","","98.99","","","","","","Rain"
"1999-08-10 11:00","1999","08","10","11:00","16.0","","12.8","","81","","13","","13","","16.1","","98.96","","","","","","Rain"
"1999-08-10 12:00","1999","08","10","12:00","16.1","","12.3","","78","","10","","11","","19.3","","98.89","","","","","","Cloudy"
"1999-08-10 13:00","1999","08","10","13:00","16.7","","12.1","","74","","12","","17","","19.3","","98.86","","","","","","Cloudy"
"1999-08-10 14:00","1999","08","10","14:00","16.2","","13.8","","86","","11","","19","","16.1","","98.79","","","","","","Cloudy"
"1999-08-10 15:00","1999","08","10","15:00","16.3","","14.3","","88","","9","","17","","16.1","","98.76","","","","","","Cloudy"
"1999-08-10 16:00","1999","08","10","16:00","15.7","","14.5","","93","","9","","20","","6.4","","98.72","","","","","","Rain Showers,Fog"
"1999-08-10 17:00","1999","08","10","17:00","16.0","","14.6","","91","","10","","17","","11.3","","98.69","","","","","","Cloudy"
"1999-08-10 18:00","1999","08","10","18:00","16.2","","14.4","","89","","9","","17","","11.3","","98.66","","","","","","Cloudy"
"1999-08-10 19:00","1999","08","10","19:00","16.8","","15.2","","90","","12","","17","","12.9","","98.66","","","","","","Cloudy"
"1999-08-10 20:00","1999","08","10","20:00","17.3","","16.0","","92","","11","","11","","8.0","","98.66","","","","","","Rain Showers,Fog"
"1999-08-10 21:00","1999","08","10","21:00","17.3","","16.4","","94","","8","","6","","9.7","","98.69","","","","","","Fog"
"1999-08-10 22:00","1999","08","10","22:00","17.6","","16.5","","93","","16","","4","","9.7","","98.69","","","","","","Rain,Fog"
"1999-08-10 23:00","1999","08","10","23:00","17.4","","16.4","","94","","","","0","","4.8","","98.69","","","","","","Rain,Fog"
"1999-08-11 00:00","1999","08","11","00:00","17.5","","16.2","","92","","16","","4","","6.4","","98.66","","","","","","Fog"
"1999-08-11 01:00","1999","08","11","01:00","17.4","","16.5","","94","","","","0","","3.2","","98.66","","","","","","Fog"
"1999-08-11 02:00","1999","08","11","02:00","17.3","","16.4","","94","","","","0","","3.2","","98.69","","","","","","Fog"
"1999-08-11 03:00","1999","08","11","03:00","17.6","","16.6","","94","","31","","6","","6.4","","98.69","","","","","","Fog"
"1999-08-11 04:00","1999","08","11","04:00","17.4","","16.7","","96","","","","0","","4.8","","98.72","","","","","","Fog"
"1999-08-11 05:00","1999","08","11","05:00","17.4","","16.8","","96","","27","","6","","3.6","","98.72","","","","","","Fog"
"1999-08-11 06:00","1999","08","11","06:00","17.7","","16.8","","94","","29","","4","","3.2","","98.79","","","","","","Fog"
"1999-08-11 07:00","1999","08","11","07:00","18.3","","16.5","","89","","28","","4","","4.0","","98.86","","","","","","Fog"
"1999-08-11 08:00","1999","08","11","08:00","19.5","","16.5","","83","","32","","11","","8.0","","98.89","","","","","","Haze"
"1999-08-11 09:00","1999","08","11","09:00","19.9","","16.7","","82","","35","","9","","12.9","","98.96","","","","","","Mostly Cloudy"
"1999-08-11 10:00","1999","08","11","10:00","21.2","","16.5","","75","","3","","11","","12.9","","98.96","","26","","","","Cloudy"
"1999-08-11 11:00","1999","08","11","11:00","21.3","","16.4","","74","","1","","7","","16.1","","99.02","","26","","","","Cloudy"
"1999-08-11 12:00","1999","08","11","12:00","22.2","","16.6","","71","","1","","13","","16.1","","99.06","","27","","","","Mostly Cloudy"
"1999-08-11 13:00","1999","08","11","13:00","22.2","","16.5","","70","","35","","13","","19.3","","99.06","","27","","","","Mostly Cloudy"
"1999-08-11 14:00","1999","08","11","14:00","23.6","","16.4","","64","","32","","6","","19.3","","99.06","","28","","","","Mostly Cloudy"
"1999-08-11 15:00","1999","08","11","15:00","24.4","","15.2","","57","","31","","15","","24.1","","99.09","","28","","","","Mostly Cloudy"
"1999-08-11 16:00","1999","08","11","16:00","23.6","","16.4","","64","","19","","11","","24.1","","99.09","","28","","","","Mostly Cloudy"
"1999-08-11 17:00","1999","08","11","17:00","23.5","","16.5","","65","","18","","13","","19.3","","99.12","","28","","","","Mostly Cloudy"
"1999-08-11 18:00","1999","08","11","18:00","23.6","","16.7","","65","","18","","11","","19.3","","99.12","","29","","","","Mostly Cloudy"
"1999-08-11 19:00","1999","08","11","19:00","23.9","","16.2","","62","","3","","11","","24.1","","99.16","","29","","","","Mostly Cloudy"
"1999-08-11 20:00","1999","08","11","20:00","22.8","","16.3","","67","","36","","4","","24.1","","99.22","","28","","","","Mainly Clear"
"1999-08-11 21:00","1999","08","11","21:00","21.9","","16.5","","71","","36","","9","","24.1","","99.26","","27","","","","Clear"
"1999-08-11 22:00","1999","08","11","22:00","21.1","","16.4","","75","","","","0","","24.1","","99.22","","26","","","","Mainly Clear"
"1999-08-11 23:00","1999","08","11","23:00","19.2","","16.3","","83","","32","","7","","25.0","","99.26","","","","","","Mainly Clear"
"1999-08-12 00:00","1999","08","12","00:00","18.1","","15.0","","82","","28","","6","","24.1","","99.32","","","","","","Mainly Clear"
"1999-08-12 01:00","1999","08","12","01:00","17.8","","14.7","","82","","28","","4","","25.0","","99.32","","","","","","Mostly Cloudy"
"1999-08-12 02:00","1999","08","12","02:00","17.1","","14.6","","85","","27","","6","","24.1","","99.32","","","","","","Mainly Clear"
"1999-08-12 03:00","1999","08","12","03:00","17.1","","14.6","","85","","32","","11","","19.3","","99.35","","","","","","Mainly Clear"
"1999-08-12 04:00","1999","08","12","04:00","16.3","","14.4","","89","","33","","4","","16.1","","99.35","","","","","","Clear"
"1999-08-12 05:00","1999","08","12","05:00","16.0","","14.0","","88","","33","","6","","24.1","","99.35","","","","","","Clear"
"1999-08-12 06:00","1999","08","12","06:00","16.7","","14.5","","87","","","","0","","19.3","","99.35","","","","","","Clear"
"1999-08-12 07:00","1999","08","12","07:00","18.2","","15.0","","82","","","","0","","16.1","","99.39","","","","","","Mainly Clear"
"1999-08-12 08:00","1999","08","12","08:00","20.4","","16.5","","78","","31","","7","","12.9","","99.45","","25","","","","Mainly Clear"
"1999-08-12 09:00","1999","08","12","09:00","22.5","","16.5","","69","","","","0","","16.1","","99.42","","27","","","","Mainly Clear"
"1999-08-12 10:00","1999","08","12","10:00","24.9","","16.3","","59","","29","","4","","19.3","","99.45","","30","","","","Mainly Clear"
"1999-08-12 11:00","1999","08","12","11:00","26.3","","15.3","","51","","29","","15","","24.1","","99.45","","30","","","","Mainly Clear"
"1999-08-12 12:00","1999","08","12","12:00","26.7","","15.1","","49","","23","","9","","24.1","","99.42","","31","","","","Mostly Cloudy"
"1999-08-12 13:00","1999","08","12","13:00","26.7","","16.2","","53","","","","0","","24.1","","99.39","","31","","","","Mostly Cloudy"
"1999-08-12 14:00","1999","08","12","14:00","28.8","","16.0","","46","","32","","17","","24.1","","99.35","","33","","","","Mostly Cloudy"
"1999-08-12 15:00","1999","08","12","15:00","28.2","","15.8","","47","","30","","20","","24.1","","99.35","","33","","","","Mostly Cloudy"
"1999-08-12 16:00","1999","08","12","16:00","28.3","","15.9","","47","","33","","13","","24.1","","99.32","","33","","","","Mostly Cloudy"
"1999-08-12 17:00","1999","08","12","17:00","28.1","","16.1","","48","","","","0","","24.1","","99.32","","33","","","","Mostly Cloudy"
"1999-08-12 18:00","1999","08","12","18:00","26.8","","16.6","","54","","16","","11","","24.1","","99.29","","32","","","","Mostly Cloudy"
"1999-08-12 19:00","1999","08","12","19:00","26.4","","17.2","","57","","14","","7","","24.1","","99.26","","32","","","","Mostly Cloudy"
"1999-08-12 20:00","1999","08","12","20:00","24.9","","17.6","","64","","15","","9","","19.3","","99.22","","31","","","","Mostly Cloudy"
"1999-08-12 21:00","1999","08","12","21:00","24.7","","17.3","","63","","14","","7","","19.3","","99.26","","30","","","","Mostly Cloudy"
"1999-08-12 22:00","1999","08","12","22:00","23.7","","17.5","","68","","16","","11","","19.3","","99.22","","29","","","","Cloudy"
"1999-08-12 23:00","1999","08","12","23:00","22.7","","18.6","","78","","16","","7","","24.1","","99.22","","29","","","","Cloudy"
"1999-08-13 00:00","1999","08","13","00:00","22.2","","18.8","","81","","15","","7","","19.3","","99.19","","29","","","","Cloudy"
"1999-08-13 01:00","1999","08","13","01:00","22.1","","18.9","","82","","16","","6","","19.3","","99.09","","29","","","","Cloudy"
"1999-08-13 02:00","1999","08","13","02:00","22.0","","19.3","","85","","17","","6","","8.0","","99.09","","29","","","","Rain Showers,Fog"
"1999-08-13 03:00","1999","08","13","03:00","21.5","","19.7","","89","","12","","9","","6.4","","99.02","","29","","","","Fog"
"1999-08-13 04:00","1999","08","13","04:00","21.2","","19.9","","92","","13","","6","","4.8","","98.92","","29","","","","Fog"
"1999-08-13 05:00","1999","08","13","05:00","21.3","","19.8","","91","","12","","7","","4.8","","98.82","","29","","","","Rain Showers,Fog"
"1999-08-13 06:00","1999","08","13","06:00","21.4","","19.5","","89","","15","","7","","3.6","","98.79","","29","","","","Fog"
"1999-08-13 07:00","1999","08","13","07:00","21.7","","19.1","","85","","17","","9","","6.4","","98.76","","29","","","","Haze"
"1999-08-13 08:00","1999","08","13","08:00","21.7","","19.2","","86","","18","","11","","4.8","","98.76","","29","","","","Rain Showers,Haze"
"1999-08-13 09:00","1999","08","13","09:00","21.0","","19.1","","89","","20","","15","","4.8","","98.69","","28","","","","Rain Showers,Fog"
"1999-08-13 10:00","1999","08","13","10:00","21.7","","20.1","","91","","18","","13","","4.8","","98.66","","29","","","","Fog"
"1999-08-13 11:00","1999","08","13","11:00","22.2","","19.7","","86","","18","","11","","6.4","","98.59","","30","","","","Haze"
"1999-08-13 12:00","1999","08","13","12:00","24.0","","19.6","","76","","18","","15","","8.0","","98.52","","31","","","","Haze"
"1999-08-13 13:00","1999","08","13","13:00","24.7","","19.5","","73","","15","","11","","8.0","","98.36","","32","","","","Rain Showers,Haze"
"1999-08-13 14:00","1999","08","13","14:00","25.1","","20.2","","74","","16","","11","","8.0","","98.36","","33","","","","Haze"
"1999-08-13 15:00","1999","08","13","15:00","27.4","","20.3","","65","","22","","26","","8.0","","98.32","","35","","","","Haze"
"1999-08-13 16:00","1999","08","13","16:00","27.7","","20.0","","63","","25","","30","","8.0","","98.29","","35","","","","Haze"
"1999-08-13 17:00","1999","08","13","17:00","27.7","","20.2","","64","","25","","28","","11.3","","98.26","","35","","","","Mainly Clear"
"1999-08-13 18:00","1999","08","13","18:00","27.5","","19.7","","62","","24","","17","","11.3","","98.19","","35","","","","Mainly Clear"
"1999-08-13 19:00","1999","08","13","19:00","26.3","","19.6","","67","","26","","15","","16.1","","98.22","","34","","","","Mainly Clear"
"1999-08-13 20:00","1999","08","13","20:00","26.1","","19.9","","69","","23","","15","","11.3","","98.26","","34","","","","Thunderstorms,Rain Showers"
"1999-08-13 21:00","1999","08","13","21:00","23.3","","20.9","","86","","27","","22","","14.5","","98.29","","32","","","","Mostly Cloudy"
"1999-08-13 22:00","1999","08","13","22:00","21.5","","19.3","","87","","28","","20","","24.1","","98.39","","29","","","","Mostly Cloudy"
"1999-08-13 23:00","1999","08","13","23:00","20.6","","19.0","","91","","27","","19","","24.1","","98.42","","27","","","","Mainly Clear"
"1999-08-14 00:00","1999","08","14","00:00","21.2","","19.1","","88","","33","","26","","24.1","","98.46","","28","","","","Cloudy"
"1999-08-14 01:00","1999","08","14","01:00","19.1","","17.0","","88","","35","","35","","25.0","","98.56","","","","","","Mostly Cloudy"
"1999-08-14 02:00","1999","08","14","02:00","17.3","","15.3","","88","","35","","41","","24.1","","98.62","","","","","","Cloudy"
"1999-08-14 03:00","1999","08","14","03:00","17.0","","14.6","","86","","35","","37","","24.1","","98.66","","","","","","Cloudy"
"1999-08-14 04:00","1999","08","14","04:00","16.3","","14.2","","87","","36","","26","","24.1","","98.76","","","","","","Cloudy"
"1999-08-14 05:00","1999","08","14","05:00","15.9","","13.5","","86","","36","","26","","24.1","","98.82","","","","","","Cloudy"
"1999-08-14 06:00","1999","08","14","06:00","15.4","","13.6","","89","","35","","26","","24.1","","98.92","","","","","","Mostly Cloudy"
"1999-08-14 07:00","1999","08","14","07:00","15.6","","13.2","","86","","36","","32","","24.1","","98.99","","","","","","Cloudy"
"1999-08-14 08:00","1999","08","14","08:00","15.6","","12.8","","83","","2","","28","","24.1","","99.09","","","","","","Cloudy"
"1999-08-14 09:00","1999","08","14","09:00","16.0","","12.7","","81","","2","","26","","24.1","","99.16","","","","","","Cloudy"
"1999-08-14 10:00","1999","08","14","10:00","16.3","","12.6","","79","","2","","28","","24.1","","99.26","","","","","","Cloudy"
"1999-08-14 11:00","1999","08","14","11:00","16.5","","12.4","","77","","2","","24","","24.1","","99.32","","","","","","Cloudy"
"1999-08-14 12:00","1999","08","14","12:00","17.4","","12.3","","72","","1","","24","","24.1","","99.35","","","","","","Mostly Cloudy"
"1999-08-14 13:00","1999","08","14","13:00","19.1","","13.2","","69","","2","","17","","24.1","","99.35","","","","","","Mostly Cloudy"
"1999-08-14 14:00","1999","08","14","14:00","20.8","","12.8","","60","","5","","22","","25.0","","99.35","","","","","","Mainly Clear"
"1999-08-14 15:00","1999","08","14","15:00","21.9","","12.3","","54","","36","","30","","25.0","","99.35","","","","","","Mainly Clear"
"1999-08-14 16:00","1999","08","14","16:00","22.5","","11.7","","50","","35","","30","","25.0","","99.39","","25","","","","Mainly Clear"
"1999-08-14 17:00","1999","08","14","17:00","23.0","","11.2","","47","","2","","26","","25.0","","99.45","","25","","","","Mostly Cloudy"
"1999-08-14 18:00","1999","08","14","18:00","22.5","","9.8","","44","","1","","32","","25.0","","99.42","","","","","","Mainly Clear"
"1999-08-14 19:00","1999","08","14","19:00","21.8","","9.1","","44","","1","","28","","25.0","","99.45","","","","","","Mainly Clear"
"1999-08-14 20:00","1999","08","14","20:00","20.4","","9.5","","50","","2","","19","","25.0","","99.52","","","","","","Mainly Clear"
"1999-08-14 21:00","1999","08","14","21:00","19.2","","10.5","","57","","35","","17","","25.0","","99.62","","","","","","Clear"
"1999-08-14 22:00","1999","08","14","22:00","17.2","","11.4","","69","","36","","9","","25.0","","99.69","","","","","","Clear"
"1999-08-14 23:00","1999","08","14","23:00","16.3","","11.3","","72","","35","","17","","25.0","","99.72","","","","","","Mainly Clear"
"1999-08-15 00:00","1999","08","15","00:00","15.5","","11.3","","76","","36","","17","","25.0","","99.79","","","","","","Clear"
"1999-08-15 01:00","1999","08","15","01:00","14.7","","11.2","","80","","36","","15","","25.0","","99.79","","","","","","Clear"
"1999-08-15 02:00","1999","08","15","02:00","13.9","","11.1","","83","","36","","15","","25.0","","99.79","","","","","","Clear"
"1999-08-15 03:00","1999","08","15","03:00","13.9","","11.0","","83","","36","","15","","25.0","","99.79","","","","","","Clear"
"1999-08-15 04:00","1999","08","15","04:00","13.6","","10.7","","83","","35","","17","","25.0","","99.85","","","","","","Clear"
"1999-08-15 05:00","1999","08","15","05:00","13.2","","10.5","","84","","36","","15","","25.0","","99.95","","","","","","Clear"
"1999-08-15 06:00","1999","08","15","06:00","13.1","","10.8","","86","","36","","19","","25.0","","100.02","","","","","","Clear"
"1999-08-15 07:00","1999","08","15","07:00","14.8","","11.1","","78","","36","","17","","25.0","","100.09","","","","","","Clear"
"1999-08-15 08:00","1999","08","15","08:00","17.0","","12.1","","73","","36","","20","","25.0","","100.12","","","","","","Clear"
"1999-08-15 09:00","1999","08","15","09:00","19.3","","12.2","","63","","36","","11","","25.0","","100.12","","","","","","Clear"
"1999-08-15 10:00","1999","08","15","10:00","21.2","","10.7","","51","","2","","13","","25.0","","100.15","","","","","","Mainly Clear"
"1999-08-15 11:00","1999","08","15","11:00","22.3","","9.4","","44","","3","","17","","25.0","","100.15","","","","","","Mainly Clear"
"1999-08-15 12:00","1999","08","15","12:00","22.9","","10.0","","44","","36","","17","","25.0","","100.12","","","","","","Mostly Cloudy"
"1999-08-15 13:00","1999","08","15","13:00","22.6","","9.6","","44","","36","","9","","25.0","","100.05","","","","","","Mostly Cloudy"
"1999-08-15 14:00","1999","08","15","14:00","23.3","","10.0","","43","","1","","9","","25.0","","100.05","","25","","","","Mainly Clear"
"1999-08-15 15:00","1999","08","15","15:00","23.9","","9.6","","40","","3","","11","","25.0","","100.02","","25","","","","Mainly Clear"
"1999-08-15 16:00","1999","08","15","16:00","23.5","","8.3","","38","","2","","7","","25.0","","100.02","","","","","","Clear"
"1999-08-15 17:00","1999","08","15","17:00","23.3","","10.2","","43","","16","","9","","25.0","","100.05","","25","","","","Clear"
"1999-08-15 18:00","1999","08","15","18:00","22.2","","9.9","","46","","15","","13","","25.0","","100.05","","","","","","Clear"
"1999-08-15 19:00","1999","08","15","19:00","21.3","","10.1","","49","","15","","9","","25.0","","100.09","","","","","","Clear"
"1999-08-15 20:00","1999","08","15","20:00","20.2","","10.2","","53","","16","","6","","25.0","","100.15","","","","","","Clear"
"1999-08-15 21:00","1999","08","15","21:00","19.7","","10.2","","54","","","","0","","25.0","","100.19","","","","","","Clear"
"1999-08-15 22:00","1999","08","15","22:00","19.8","","10.7","","56","","16","","4","","25.0","","100.19","","","","","","Clear"
"1999-08-15 23:00","1999","08","15","23:00","18.9","","10.7","","59","","","","0","","25.0","","100.15","","","","","","Clear"
"1999-08-16 00:00","1999","08","16","00:00","18.4","","11.0","","62","","18","","4","","25.0","","100.12","","","","","","Clear"
"1999-08-16 01:00","1999","08","16","01:00","16.3","","11.7","","74","","26","","7","","25.0","","100.15","","","","","","Clear"
"1999-08-16 02:00","1999","08","16","02:00","16.7","","11.7","","72","","31","","9","","25.0","","100.19","","","","","","Clear"
"1999-08-16 03:00","1999","08","16","03:00","15.1","","11.2","","78","","36","","6","","24.1","","100.22","","","","","","Clear"
"1999-08-16 04:00","1999","08","16","04:00","15.0","","10.9","","76","","34","","6","","24.1","","100.25","","","","","","Clear"
"1999-08-16 05:00","1999","08","16","05:00","14.7","","10.9","","78","","","","0","","25.0","","100.29","","","","","","Mostly Cloudy"
"1999-08-16 06:00","1999","08","16","06:00","15.6","","11.6","","77","","32","","7","","24.1","","100.29","","","","","","Mostly Cloudy"
"1999-08-16 07:00","1999","08","16","07:00","17.1","","12.2","","73","","16","","4","","19.3","","100.25","","","","","","Mainly Clear"
"1999-08-16 08:00","1999","08","16","08:00","18.7","","13.5","","72","","23","","6","","19.3","","100.32","","","","","","Mostly Cloudy"
"1999-08-16 09:00","1999","08","16","09:00","20.3","","14.2","","68","","25","","7","","24.1","","100.42","","","","","","Mostly Cloudy"
"1999-08-16 10:00","1999","08","16","10:00","22.5","","14.6","","61","","22","","15","","24.1","","100.35","","26","","","","Mostly Cloudy"
"1999-08-16 11:00","1999","08","16","11:00","23.8","","13.4","","52","","23","","17","","24.1","","100.29","","27","","","","Mostly Cloudy"
"1999-08-16 12:00","1999","08","16","12:00","23.6","","13.9","","55","","15","","11","","24.1","","100.25","","27","","","","Mostly Cloudy"
"1999-08-16 13:00","1999","08","16","13:00","23.7","","13.4","","52","","16","","15","","24.1","","100.15","","27","","","","Mostly Cloudy"
"1999-08-16 14:00","1999","08","16","14:00","25.7","","13.9","","48","","16","","17","","24.1","","100.05","","29","","","","Mostly Cloudy"
"1999-08-16 15:00","1999","08","16","15:00","23.8","","13.8","","54","","17","","17","","24.1","","100.02","","27","","","","Mostly Cloudy"
"1999-08-16 16:00","1999","08","16","16:00","24.4","","13.9","","52","","17","","20","","24.1","","99.92","","28","","","","Mostly Cloudy"
"1999-08-16 17:00","1999","08","16","17:00","22.5","","13.8","","58","","14","","19","","24.1","","99.75","","26","","","","Mostly Cloudy"
"1999-08-16 18:00","1999","08","16","18:00","22.7","","14.3","","59","","17","","9","","24.1","","99.79","","26","","","","Mostly Cloudy"
"1999-08-16 19:00","1999","08","16","19:00","23.0","","13.5","","55","","20","","13","","24.1","","99.72","","26","","","","Mostly Cloudy"
"1999-08-16 20:00","1999","08","16","20:00","23.0","","10.5","","45","","25","","13","","24.1","","99.75","","25","","","","Mostly Cloudy"
"1999-08-16 21:00","1999","08","16","21:00","21.8","","13.0","","57","","26","","9","","24.1","","99.75","","25","","","","Mostly Cloudy"
"1999-08-16 22:00","1999","08","16","22:00","22.3","","14.1","","60","","24","","17","","24.1","","99.65","","26","","","","Mostly Cloudy"
"1999-08-16 23:00","1999","08","16","23:00","22.9","","14.5","","59","","24","","15","","24.1","","99.59","","27","","","","Mostly Cloudy"
"1999-08-17 00:00","1999","08","17","00:00","22.0","","15.0","","64","","23","","11","","25.0","","99.55","","26","","","","Mostly Cloudy"
"1999-08-17 01:00","1999","08","17","01:00","22.1","","15.4","","66","","22","","13","","25.0","","99.45","","26","","","","Mostly Cloudy"
"1999-08-17 02:00","1999","08","17","02:00","21.9","","15.5","","67","","22","","11","","19.3","","99.42","","26","","","","Mostly Cloudy"
"1999-08-17 03:00","1999","08","17","03:00","21.1","","15.6","","71","","21","","11","","19.3","","99.35","","25","","","","Mostly Cloudy"
"1999-08-17 04:00","1999","08","17","04:00","20.5","","16.0","","75","","20","","7","","19.3","","99.32","","25","","","","Mainly Clear"
"1999-08-17 05:00","1999","08","17","05:00","19.7","","16.7","","83","","19","","7","","12.9","","99.26","","","","","","Mainly Clear"
"1999-08-17 06:00","1999","08","17","06:00","20.2","","17.0","","82","","22","","4","","6.4","","99.26","","25","","","","Haze"
"1999-08-17 07:00","1999","08","17","07:00","21.2","","17.2","","78","","26","","17","","8.0","","99.22","","27","","","","Haze"
"1999-08-17 08:00","1999","08","17","08:00","23.2","","17.5","","70","","26","","20","","9.7","","99.19","","29","","","","Haze"
"1999-08-17 09:00","1999","08","17","09:00","24.6","","18.0","","67","","29","","26","","12.9","","99.19","","31","","","","Mainly Clear"
"1999-08-17 10:00","1999","08","17","10:00","25.6","","18.4","","64","","29","","26","","16.1","","99.16","","32","","","","Mainly Clear"
"1999-08-17 11:00","1999","08","17","11:00","27.5","","18.5","","58","","28","","26","","16.1","","99.12","","34","","","","Clear"
"1999-08-17 12:00","1999","08","17","12:00","28.4","","17.3","","51","","27","","43","","16.1","","99.09","","34","","","","Mainly Clear"
"1999-08-17 13:00","1999","08","17","13:00","28.7","","16.2","","47","","28","","22","","19.3","","99.06","","33","","","","Mainly Clear"
"1999-08-17 14:00","1999","08","17","14:00","28.9","","15.9","","45","","31","","35","","19.3","","99.06","","33","","","","Mainly Clear"
"1999-08-17 15:00","1999","08","17","15:00","28.3","","14.5","","43","","28","","30","","19.3","","99.06","","32","","","","Mainly Clear"
"1999-08-17 16:00","1999","08","17","16:00","28.4","","13.8","","41","","32","","35","","19.3","","99.06","","32","","","","Mostly Cloudy"
"1999-08-17 17:00","1999","08","17","17:00","25.6","","15.3","","53","","36","","24","","24.1","","99.12","","30","","","","Mostly Cloudy"
"1999-08-17 18:00","1999","08","17","18:00","24.6","","15.6","","57","","34","","26","","24.1","","99.16","","29","","","","Mostly Cloudy"
"1999-08-17 19:00","1999","08","17","19:00","23.7","","14.0","","55","","33","","24","","24.1","","99.19","","27","","","","Mostly Cloudy"
"1999-08-17 20:00","1999","08","17","20:00","22.3","","14.2","","60","","32","","28","","24.1","","99.22","","26","","","","Mainly Clear"
"1999-08-17 21:00","1999","08","17","21:00","21.2","","14.2","","64","","31","","19","","24.1","","99.26","","25","","","","Clear"
"1999-08-17 22:00","1999","08","17","22:00","19.8","","14.1","","70","","32","","20","","24.1","","99.26","","","","","","Clear"
"1999-08-17 23:00","1999","08","17","23:00","18.8","","14.3","","75","","31","","20","","24.1","","99.26","","","","","","Clear"
"1999-08-18 00:00","1999","08","18","00:00","18.4","","14.6","","79","","32","","15","","24.1","","99.26","","","","","","Clear"
"1999-08-18 01:00","1999","08","18","01:00","18.6","","14.8","","79","","33","","19","","24.1","","99.26","","","","","","Clear"
"1999-08-18 02:00","1999","08","18","02:00","18.0","","14.8","","82","","34","","15","","24.1","","99.29","","","","","","Mainly Clear"
"1999-08-18 03:00","1999","08","18","03:00","16.9","","14.4","","85","","35","","17","","24.1","","99.32","","","","","","Mainly Clear"
"1999-08-18 04:00","1999","08","18","04:00","16.3","","14.3","","88","","34","","20","","24.1","","99.35","","","","","","Mainly Clear"
"1999-08-18 05:00","1999","08","18","05:00","16.2","","13.8","","86","","36","","20","","25.0","","99.39","","","","","","Mainly Clear"
"1999-08-18 06:00","1999","08","18","06:00","16.6","","13.8","","84","","35","","20","","25.0","","99.39","","","","","","Mainly Clear"
"1999-08-18 07:00","1999","08","18","07:00","17.0","","13.8","","81","","35","","22","","25.0","","99.42","","","","","","Mainly Clear"
"1999-08-18 08:00","1999","08","18","08:00","18.0","","13.9","","77","","34","","22","","25.0","","99.49","","","","","","Cloudy"
"1999-08-18 09:00","1999","08","18","09:00","18.7","","13.7","","73","","36","","28","","25.0","","99.49","","","","","","Mostly Cloudy"
"1999-08-18 10:00","1999","08","18","10:00","19.5","","13.7","","69","","35","","22","","25.0","","99.49","","","","","","Mainly Clear"
"1999-08-18 11:00","1999","08","18","11:00","21.1","","13.5","","62","","1","","17","","25.0","","99.49","","","","","","Mostly Cloudy"
"1999-08-18 12:00","1999","08","18","12:00","22.2","","13.3","","57","","34","","19","","25.0","","99.45","","25","","","","Mostly Cloudy"
"1999-08-18 13:00","1999","08","18","13:00","23.5","","12.8","","51","","36","","17","","25.0","","99.45","","26","","","","Mostly Cloudy"
"1999-08-18 14:00","1999","08","18","14:00","23.5","","12.3","","49","","34","","15","","25.0","","99.45","","26","","","","Mostly Cloudy"
"1999-08-18 15:00","1999","08","18","15:00","24.0","","12.1","","47","","31","","13","","24.1","","99.45","","26","","","","Mostly Cloudy"
"1999-08-18 16:00","1999","08","18","16:00","23.7","","11.9","","48","","35","","15","","24.1","","99.45","","26","","","","Mostly Cloudy"
"1999-08-18 17:00","1999","08","18","17:00","23.2","","11.3","","47","","34","","17","","24.1","","99.49","","25","","","","Mostly Cloudy"
"1999-08-18 18:00","1999","08","18","18:00","23.0","","11.5","","48","","35","","19","","24.1","","99.49","","25","","","","Mostly Cloudy"
"1999-08-18 19:00","1999","08","18","19:00","21.3","","12.4","","57","","36","","22","","24.1","","99.49","","","","","","Mostly Cloudy"
"1999-08-18 20:00","1999","08","18","20:00","19.5","","12.5","","64","","36","","20","","24.1","","99.52","","","","","","Mostly Cloudy"
"1999-08-18 21:00","1999","08","18","21:00","18.3","","12.6","","69","","35","","20","","24.1","","99.55","","","","","","Mainly Clear"
"1999-08-18 22:00","1999","08","18","22:00","16.6","","12.2","","75","","36","","20","","24.1","","99.55","","","","","","Clear"
"1999-08-18 23:00","1999","08","18","23:00","15.9","","12.1","","78","","36","","20","","25.0","","99.55","","","","","","Mainly Clear"
"1999-08-19 00:00","1999","08","19","00:00","15.2","","12.0","","81","","36","","15","","25.0","","99.59","","","","","","Mostly Cloudy"
"1999-08-19 01:00","1999","08","19","01:00","15.0","","11.8","","81","","36","","11","","25.0","","99.55","","","","","","Cloudy"
"1999-08-19 02:00","1999","08","19","02:00","15.2","","12.0","","81","","36","","13","","24.1","","99.55","","","","","","Cloudy"
"1999-08-19 03:00","1999","08","19","03:00","15.1","","12.1","","82","","36","","9","","24.1","","99.55","","","","","","Cloudy"
"1999-08-19 04:00","1999","08","19","04:00","15.2","","12.3","","83","","34","","9","","24.1","","99.59","","","","","","Mostly Cloudy"
"1999-08-19 05:00","1999","08","19","05:00","15.3","","12.5","","83","","35","","11","","25.0","","99.62","","","","","","Mostly Cloudy"
"1999-08-19 06:00","1999","08","19","06:00","15.9","","12.6","","81","","36","","9","","24.1","","99.65","","","","","","Mostly Cloudy"
"1999-08-19 07:00","1999","08","19","07:00","16.5","","12.5","","77","","36","","9","","24.1","","99.69","","","","","","Mostly Cloudy"
"1999-08-19 08:00","1999","08","19","08:00","18.2","","12.2","","68","","2","","6","","24.1","","99.72","","","","","","Mostly Cloudy"
"1999-08-19 09:00","1999","08","19","09:00","20.3","","12.1","","59","","9","","7","","24.1","","99.72","","","","","","Mostly Cloudy"
"1999-08-19 10:00","1999","08","19","10:00","21.6","","13.2","","59","","9","","9","","24.1","","99.72","","25","","","","Cloudy"
"1999-08-19 11:00","1999","08","19","11:00","22.2","","13.6","","58","","10","","9","","24.1","","99.69","","25","","","","Mostly Cloudy"
"1999-08-19 12:00","1999","08","19","12:00","22.5","","13.2","","56","","14","","13","","24.1","","99.69","","25","","","","Mostly Cloudy"
"1999-08-19 13:00","1999","08","19","13:00","23.0","","12.6","","52","","15","","13","","24.1","","99.65","","26","","","","Mostly Cloudy"
"1999-08-19 14:00","1999","08","19","14:00","22.6","","12.0","","51","","13","","9","","24.1","","99.65","","25","","","","Cloudy"
"1999-08-19 15:00","1999","08","19","15:00","22.7","","12.8","","54","","12","","9","","24.1","","99.65","","25","","","","Cloudy"
"1999-08-19 16:00","1999","08","19","16:00","22.8","","12.3","","52","","10","","7","","24.1","","99.65","","25","","","","Cloudy"
"1999-08-19 17:00","1999","08","19","17:00","22.2","","12.1","","53","","36","","20","","24.1","","99.65","","25","","","","Cloudy"
"1999-08-19 18:00","1999","08","19","18:00","21.9","","11.2","","51","","4","","17","","24.1","","99.65","","","","","","Cloudy"
"1999-08-19 19:00","1999","08","19","19:00","21.5","","11.0","","51","","4","","13","","24.1","","99.65","","","","","","Cloudy"
"1999-08-19 20:00","1999","08","19","20:00","20.5","","12.6","","60","","36","","13","","24.1","","99.65","","","","","","Cloudy"
"1999-08-19 21:00","1999","08","19","21:00","20.2","","12.5","","61","","4","","7","","24.1","","99.69","","","","","","Cloudy"
"1999-08-19 22:00","1999","08","19","22:00","20.0","","11.7","","59","","4","","7","","25.0","","99.69","","","","","","Cloudy"
"1999-08-19 23:00","1999","08","19","23:00","18.6","","12.8","","69","","36","","11","","25.0","","99.65","","","","","","Cloudy"
"1999-08-20 00:00","1999","08","20","00:00","18.3","","13.1","","72","","35","","9","","25.0","","99.69","","","","","","Cloudy"
"1999-08-20 01:00","1999","08","20","01:00","18.1","","13.3","","74","","35","","9","","25.0","","99.65","","","","","","Cloudy"
"1999-08-20 02:00","1999","08","20","02:00","17.7","","13.4","","76","","35","","6","","25.0","","99.62","","","","","","Cloudy"
"1999-08-20 03:00","1999","08","20","03:00","17.4","","13.6","","78","","35","","7","","24.1","","99.62","","","","","","Cloudy"
"1999-08-20 04:00","1999","08","20","04:00","17.2","","13.5","","79","","34","","15","","24.1","","99.62","","","","","","Cloudy"
"1999-08-20 05:00","1999","08","20","05:00","17.0","","13.7","","81","","36","","13","","24.1","","99.62","","","","","","Rain Showers"
"1999-08-20 06:00","1999","08","20","06:00","17.2","","13.6","","79","","2","","6","","24.1","","99.65","","","","","","Rain Showers"
"1999-08-20 07:00","1999","08","20","07:00","17.0","","14.6","","86","","36","","6","","16.1","","99.69","","","","","","Rain Showers"
"1999-08-20 08:00","1999","08","20","08:00","16.8","","15.0","","89","","2","","7","","4.8","","99.72","","","","","","Moderate Rain Showers,Fog"
"1999-08-20 09:00","1999","08","20","09:00","16.4","","15.3","","93","","35","","19","","9.7","","99.69","","","","","","Rain Showers,Fog"
"1999-08-20 10:00","1999","08","20","10:00","16.8","","15.3","","91","","1","","13","","19.3","","99.72","","","","","","Cloudy"
"1999-08-20 11:00","1999","08","20","11:00","17.3","","15.8","","91","","35","","15","","19.3","","99.72","","","","","","Cloudy"
"1999-08-20 12:00","1999","08","20","12:00","18.6","","16.4","","87","","35","","19","","16.1","","99.65","","","","","","Cloudy"
"1999-08-20 13:00","1999","08","20","13:00","17.7","","16.9","","95","","4","","17","","3.2","","99.65","","","","","","Rain Showers,Fog"
"1999-08-20 14:00","1999","08","20","14:00","18.2","","17.2","","94","","3","","15","","4.8","","99.65","","","","","","Rain Showers,Fog"
"1999-08-20 15:00","1999","08","20","15:00","18.9","","16.3","","85","","5","","20","","16.1","","99.62","","","","","","Cloudy"
"1999-08-20 16:00","1999","08","20","16:00","19.0","","16.9","","88","","5","","22","","19.3","","99.62","","","","","","Cloudy"
"1999-08-20 17:00","1999","08","20","17:00","18.9","","15.9","","83","","5","","19","","19.3","","99.62","","","","","","Cloudy"
"1999-08-20 18:00","1999","08","20","18:00","17.7","","15.9","","89","","4","","22","","11.3","","99.62","","","","","","Cloudy"
"1999-08-20 19:00","1999","08","20","19:00","17.0","","16.1","","94","","1","","17","","4.8","","99.59","","","","","","Rain Showers,Fog"
"1999-08-20 20:00","1999","08","20","20:00","16.7","","16.5","","99","","4","","11","","3.6","","99.65","","","","","","Heavy Rain Showers,Fog"
"1999-08-20 21:00","1999","08","20","21:00","16.6","","16.1","","97","","2","","15","","4.8","","99.65","","","","","","Rain Showers,Fog"
"1999-08-20 22:00","1999","08","20","22:00","17.8","","16.9","","94","","5","","13","","16.1","","99.69","","","","","","Cloudy"
"1999-08-20 23:00","1999","08","20","23:00","17.8","","16.8","","94","","8","","15","","6.4","","99.69","","","","","","Rain Showers,Fog"
"1999-08-21 00:00","1999","08","21","00:00","17.6","","16.4","","93","","5","","11","","9.7","","99.69","","","","","","Fog"
"1999-08-21 01:00","1999","08","21","01:00","17.5","","16.4","","93","","5","","13","","11.3","","99.65","","","","","","Mostly Cloudy"
"1999-08-21 02:00","1999","08","21","02:00","17.1","","16.0","","93","","5","","15","","8.0","","99.62","","","","","","Fog"
"1999-08-21 03:00","1999","08","21","03:00","17.0","","15.5","","91","","5","","17","","11.3","","99.65","","","","","","Mostly Cloudy"
"1999-08-21 04:00","1999","08","21","04:00","17.2","","15.4","","89","","5","","15","","12.9","","99.65","","","","","","Cloudy"
"1999-08-21 05:00","1999","08","21","05:00","17.2","","15.4","","89","","4","","13","","12.9","","99.65","","","","","","Mostly Cloudy"
"1999-08-21 06:00","1999","08","21","06:00","17.3","","15.3","","88","","6","","13","","19.3","","99.72","","","","","","Cloudy"
"1999-08-21 07:00","1999","08","21","07:00","17.3","","15.3","","88","","4","","13","","19.3","","99.75","","","","","","Cloudy"
"1999-08-21 08:00","1999","08","21","08:00","17.9","","15.1","","84","","5","","13","","24.1","","99.79","","","","","","Mostly Cloudy"
"1999-08-21 09:00","1999","08","21","09:00","18.8","","15.5","","81","","8","","15","","24.1","","99.85","","","","","","Cloudy"
"1999-08-21 10:00","1999","08","21","10:00","20.2","","15.2","","73","","8","","19","","24.1","","99.82","","","","","","Mostly Cloudy"
"1999-08-21 11:00","1999","08","21","11:00","21.3","","14.5","","65","","9","","15","","24.1","","99.82","","25","","","","Mainly Clear"
"1999-08-21 12:00","1999","08","21","12:00","22.4","","15.3","","64","","12","","15","","25.0","","99.79","","27","","","","Mainly Clear"
"1999-08-21 13:00","1999","08","21","13:00","22.4","","14.4","","61","","14","","17","","25.0","","99.79","","26","","","","Mainly Clear"
"1999-08-21 14:00","1999","08","21","14:00","22.6","","13.9","","58","","12","","15","","25.0","","99.75","","26","","","","Mainly Clear"
"1999-08-21 15:00","1999","08","21","15:00","22.9","","13.6","","56","","15","","15","","25.0","","99.75","","26","","","","Mainly Clear"
"1999-08-21 16:00","1999","08","21","16:00","22.2","","12.6","","55","","16","","17","","25.0","","99.75","","25","","","","Mostly Cloudy"
"1999-08-21 17:00","1999","08","21","17:00","21.7","","13.2","","58","","16","","13","","25.0","","99.72","","25","","","","Mostly Cloudy"
"1999-08-21 18:00","1999","08","21","18:00","21.3","","13.0","","59","","18","","9","","25.0","","99.69","","","","","","Mainly Clear"
"1999-08-21 19:00","1999","08","21","19:00","20.5","","13.1","","63","","17","","7","","25.0","","99.69","","","","","","Clear"
"1999-08-21 20:00","1999","08","21","20:00","19.7","","13.7","","68","","18","","6","","24.1","","99.75","","","","","","Clear"
"1999-08-21 21:00","1999","08","21","21:00","19.4","","12.7","","65","","","","0","","24.1","","99.75","","","","","","Clear"
"1999-08-21 22:00","1999","08","21","22:00","18.4","","13.8","","75","","18","","7","","24.1","","99.75","","","","","","Mainly Clear"
"1999-08-21 23:00","1999","08","21","23:00","17.9","","13.6","","76","","35","","9","","24.1","","99.75","","","","","","Mainly Clear"
"1999-08-22 00:00","1999","08","22","00:00","17.8","","14.4","","80","","32","","9","","24.1","","99.69","","","","","","Mostly Cloudy"
"1999-08-22 01:00","1999","08","22","01:00","17.2","","14.1","","82","","32","","7","","24.1","","99.69","","","","","","Clear"
"1999-08-22 02:00","1999","08","22","02:00","16.4","","14.1","","86","","32","","7","","24.1","","99.72","","","","","","Clear"
"1999-08-22 03:00","1999","08","22","03:00","15.5","","13.5","","88","","36","","9","","24.1","","99.75","","","","","","Clear"
"1999-08-22 04:00","1999","08","22","04:00","15.3","","13.6","","90","","32","","7","","24.1","","99.75","","","","","","Clear"
"1999-08-22 05:00","1999","08","22","05:00","15.5","","13.2","","86","","31","","11","","24.1","","99.75","","","","","","Clear"
"1999-08-22 06:00","1999","08","22","06:00","16.0","","12.6","","80","","32","","9","","24.1","","99.79","","","","","","Mainly Clear"
"1999-08-22 07:00","1999","08","22","07:00","17.0","","13.3","","79","","29","","7","","24.1","","99.85","","","","","","Mainly Clear"
"1999-08-22 08:00","1999","08","22","08:00","19.7","","14.0","","70","","30","","6","","24.1","","99.82","","","","","","Clear"
"1999-08-22 09:00","1999","08","22","09:00","21.5","","14.6","","65","","36","","11","","24.1","","99.82","","25","","","","Clear"
"1999-08-22 10:00","1999","08","22","10:00","22.9","","14.6","","59","","34","","6","","24.1","","99.82","","27","","","","Clear"
"1999-08-22 11:00","1999","08","22","11:00","24.4","","15.3","","57","","31","","9","","24.1","","99.82","","29","","","","Mainly Clear"
"1999-08-22 12:00","1999","08","22","12:00","24.9","","14.5","","52","","7","","4","","24.1","","99.75","","29","","","","Mostly Cloudy"
"1999-08-22 13:00","1999","08","22","13:00","25.2","","16.4","","58","","14","","19","","24.1","","99.75","","30","","","","Mainly Clear"
"1999-08-22 14:00","1999","08","22","14:00","25.0","","15.6","","56","","16","","15","","24.1","","99.69","","29","","","","Mainly Clear"
"1999-08-22 15:00","1999","08","22","15:00","26.0","","15.3","","52","","16","","13","","24.1","","99.65","","30","","","","Mainly Clear"
"1999-08-22 16:00","1999","08","22","16:00","24.8","","14.8","","54","","17","","19","","24.1","","99.65","","29","","","","Mainly Clear"
"1999-08-22 17:00","1999","08","22","17:00","25.2","","14.2","","51","","18","","19","","24.1","","99.62","","29","","","","Mostly Cloudy"
"1999-08-22 18:00","1999","08","22","18:00","24.5","","13.2","","49","","17","","17","","24.1","","99.62","","27","","","","Mainly Clear"
"1999-08-22 19:00","1999","08","22","19:00","23.9","","13.2","","51","","18","","9","","25.0","","99.62","","27","","","","Mainly Clear"
"1999-08-22 20:00","1999","08","22","20:00","22.8","","13.3","","55","","19","","7","","25.0","","99.62","","26","","","","Mainly Clear"
"1999-08-22 21:00","1999","08","22","21:00","22.1","","13.5","","58","","19","","7","","25.0","","99.65","","25","","","","Clear"
"1999-08-22 22:00","1999","08","22","22:00","20.5","","14.0","","66","","28","","7","","25.0","","99.65","","","","","","Clear"
"1999-08-22 23:00","1999","08","22","23:00","19.8","","14.8","","73","","32","","17","","25.0","","99.65","","","","","","Clear"
"1999-08-23 00:00","1999","08","23","00:00","19.4","","14.6","","74","","33","","13","","24.1","","99.65","","","","","","Clear"
"1999-08-23 01:00","1999","08","23","01:00","19.0","","14.4","","75","","35","","15","","24.1","","99.65","","","","","","Clear"
"1999-08-23 02:00","1999","08","23","02:00","17.7","","14.4","","81","","","","0","","24.1","","99.65","","","","","","Clear"
"1999-08-23 03:00","1999","08","23","03:00","17.3","","14.4","","83","","30","","9","","24.1","","99.65","","","","","","Clear"
"1999-08-23 04:00","1999","08","23","04:00","16.4","","14.2","","87","","28","","4","","24.1","","99.65","","","","","","Clear"
"1999-08-23 05:00","1999","08","23","05:00","16.7","","13.8","","83","","29","","4","","24.1","","99.65","","","","","","Clear"
"1999-08-23 06:00","1999","08","23","06:00","16.4","","14.0","","86","","30","","6","","16.1","","99.72","","","","","","Clear"
"1999-08-23 07:00","1999","08","23","07:00","18.2","","14.8","","81","","31","","6","","19.3","","99.75","","","","","","Clear"
"1999-08-23 08:00","1999","08","23","08:00","20.8","","15.2","","70","","","","0","","19.3","","99.75","","25","","","","Mainly Clear"
"1999-08-23 09:00","1999","08","23","09:00","23.0","","14.6","","59","","22","","4","","19.3","","99.75","","27","","","","Mainly Clear"
"1999-08-23 10:00","1999","08","23","10:00","24.5","","13.5","","50","","17","","7","","24.1","","99.72","","28","","","","Mainly Clear"
"1999-08-23 11:00","1999","08","23","11:00","25.0","","12.6","","46","","17","","19","","24.1","","99.72","","28","","","","Mostly Cloudy"
"1999-08-23 12:00","1999","08","23","12:00","25.6","","12.7","","45","","14","","13","","24.1","","99.69","","28","","","","Mainly Clear"
"1999-08-23 13:00","1999","08","23","13:00","26.2","","12.5","","43","","14","","15","","24.1","","99.65","","29","","","","Mostly Cloudy"
"1999-08-23 14:00","1999","08","23","14:00","27.0","","12.8","","41","","15","","13","","24.1","","99.59","","30","","","","Mostly Cloudy"
"1999-08-23 15:00","1999","08","23","15:00","26.6","","13.2","","44","","16","","19","","24.1","","99.55","","30","","","","Mainly Clear"
"1999-08-23 16:00","1999","08","23","16:00","27.0","","13.4","","43","","16","","15","","24.1","","99.52","","30","","","","Mainly Clear"
"1999-08-23 17:00","1999","08","23","17:00","25.8","","13.7","","47","","14","","17","","24.1","","99.52","","29","","","","Mainly Clear"
"1999-08-23 18:00","1999","08","23","18:00","24.8","","14.4","","52","","15","","11","","24.1","","99.49","","28","","","","Mainly Clear"
"1999-08-23 19:00","1999","08","23","19:00","23.5","","14.8","","58","","12","","9","","25.0","","99.49","","27","","","","Mainly Clear"
"1999-08-23 20:00","1999","08","23","20:00","22.6","","14.6","","61","","14","","9","","25.0","","99.52","","26","","","","Mainly Clear"
"1999-08-23 21:00","1999","08","23","21:00","22.3","","14.8","","63","","13","","9","","25.0","","99.52","","26","","","","Clear"
"1999-08-23 22:00","1999","08","23","22:00","21.8","","15.0","","65","","13","","9","","25.0","","99.52","","26","","","","Clear"
"1999-08-23 23:00","1999","08","23","23:00","21.5","","14.9","","66","","12","","7","","25.0","","99.55","","25","","","","Mainly Clear"
"1999-08-24 00:00","1999","08","24","00:00","20.9","","15.1","","69","","8","","6","","25.0","","99.52","","25","","","","Mostly Cloudy"
"1999-08-24 01:00","1999","08","24","01:00","20.2","","15.0","","72","","4","","6","","24.1","","99.52","","","","","","Mostly Cloudy"
"1999-08-24 02:00","1999","08","24","02:00","20.5","","15.4","","73","","4","","7","","24.1","","99.45","","25","","","","Cloudy"
"1999-08-24 03:00","1999","08","24","03:00","21.2","","16.2","","73","","8","","7","","19.3","","99.45","","26","","","","Cloudy"
"1999-08-24 04:00","1999","08","24","04:00","21.0","","16.8","","77","","9","","7","","19.3","","99.42","","26","","","","Cloudy"
"1999-08-24 05:00","1999","08","24","05:00","21.0","","16.9","","77","","8","","6","","16.1","","99.42","","26","","","","Rain Showers"
"1999-08-24 06:00","1999","08","24","06:00","20.9","","17.4","","80","","7","","7","","16.1","","99.45","","26","","","","Mostly Cloudy"
"1999-08-24 07:00","1999","08","24","07:00","21.0","","17.6","","81","","9","","7","","9.7","","99.49","","27","","","","Rain Showers,Haze"
"1999-08-24 08:00","1999","08","24","08:00","21.9","","18.0","","79","","7","","13","","11.3","","99.49","","28","","","","Mostly Cloudy"
"1999-08-24 09:00","1999","08","24","09:00","23.2","","18.5","","75","","11","","17","","14.5","","99.49","","30","","","","Mostly Cloudy"
"1999-08-24 10:00","1999","08","24","10:00","23.6","","17.1","","67","","13","","11","","14.5","","99.49","","29","","","","Mostly Cloudy"
"1999-08-24 11:00","1999","08","24","11:00","25.0","","17.6","","64","","13","","9","","14.5","","99.49","","31","","","","Mostly Cloudy"
"1999-08-24 12:00","1999","08","24","12:00","24.8","","17.2","","63","","14","","11","","14.5","","99.45","","30","","","","Mostly Cloudy"
"1999-08-24 13:00","1999","08","24","13:00","25.0","","17.3","","62","","12","","11","","14.5","","99.42","","30","","","","Mostly Cloudy"
"1999-08-24 14:00","1999","08","24","14:00","26.2","","17.4","","58","","12","","9","","12.9","","99.42","","32","","","","Mostly Cloudy"
"1999-08-24 15:00","1999","08","24","15:00","25.8","","17.9","","62","","13","","15","","12.9","","99.35","","32","","","","Mostly Cloudy"
"1999-08-24 16:00","1999","08","24","16:00","25.6","","18.0","","63","","10","","17","","11.3","","99.35","","32","","","","Mostly Cloudy"
"1999-08-24 17:00","1999","08","24","17:00","25.5","","18.3","","64","","8","","13","","12.9","","99.32","","32","","","","Mostly Cloudy"
"1999-08-24 18:00","1999","08","24","18:00","25.6","","18.3","","64","","10","","11","","12.9","","99.35","","32","","","","Mostly Cloudy"
"1999-08-24 19:00","1999","08","24","19:00","24.9","","18.7","","68","","9","","13","","12.9","","99.35","","31","","","","Mostly Cloudy"
"1999-08-24 20:00","1999","08","24","20:00","23.8","","18.9","","74","","10","","6","","9.7","","99.35","","30","","","","Haze"
"1999-08-24 21:00","1999","08","24","21:00","23.3","","17.6","","70","","13","","9","","12.9","","99.42","","29","","","","Mostly Cloudy"
"1999-08-24 22:00","1999","08","24","22:00","22.9","","17.9","","73","","15","","9","","11.3","","99.45","","29","","","","Mostly Cloudy"
"1999-08-24 23:00","1999","08","24","23:00","21.8","","18.5","","82","","23","","6","","11.3","","99.42","","28","","","","Mostly Cloudy"
"1999-08-25 00:00","1999","08","25","00:00","21.7","","18.4","","82","","27","","4","","11.3","","99.39","","28","","","","Mostly Cloudy"
"1999-08-25 01:00","1999","08","25","01:00","21.4","","18.4","","83","","16","","9","","11.3","","99.42","","28","","","","Mostly Cloudy"
"1999-08-25 02:00","1999","08","25","02:00","21.0","","18.8","","87","","15","","4","","11.3","","99.39","","28","","","","Mostly Cloudy"
"1999-08-25 03:00","1999","08","25","03:00","20.8","","19.1","","90","","15","","4","","8.0","","99.39","","28","","","","Fog"
"1999-08-25 04:00","1999","08","25","04:00","20.8","","19.2","","91","","10","","7","","6.4","","99.39","","28","","","","Fog"
"1999-08-25 05:00","1999","08","25","05:00","20.7","","18.8","","89","","12","","9","","9.7","","99.39","","27","","","","Fog"
"1999-08-25 06:00","1999","08","25","06:00","21.0","","19.0","","88","","10","","11","","6.4","","99.39","","28","","","","Fog"
"1999-08-25 07:00","1999","08","25","07:00","21.5","","18.6","","84","","10","","7","","6.4","","99.42","","28","","","","Haze"
"1999-08-25 08:00","1999","08","25","08:00","23.0","","19.4","","80","","13","","11","","4.8","","99.45","","30","","","","Haze"
"1999-08-25 09:00","1999","08","25","09:00","23.7","","18.4","","72","","15","","11","","6.4","","99.45","","30","","","","Haze"
"1999-08-25 10:00","1999","08","25","10:00","24.2","","17.6","","67","","16","","11","","8.0","","99.49","","30","","","","Haze"
"1999-08-25 11:00","1999","08","25","11:00","23.9","","17.6","","68","","17","","13","","11.3","","99.49","","30","","","","Cloudy"
"1999-08-25 12:00","1999","08","25","12:00","23.8","","17.7","","69","","17","","15","","11.3","","99.45","","30","","","","Cloudy"
"1999-08-25 13:00","1999","08","25","13:00","23.4","","18.3","","73","","16","","13","","8.0","","99.45","","30","","","","Rain Showers,Haze"
"1999-08-25 14:00","1999","08","25","14:00","24.0","","17.9","","69","","19","","17","","11.3","","99.45","","30","","","","Cloudy"
"1999-08-25 15:00","1999","08","25","15:00","23.2","","17.0","","68","","19","","11","","12.9","","99.39","","28","","","","Cloudy"
"1999-08-25 16:00","1999","08","25","16:00","21.3","","18.6","","85","","14","","7","","8.0","","99.39","","28","","","","Rain Showers,Haze"
"1999-08-25 17:00","1999","08","25","17:00","21.4","","18.8","","85","","8","","6","","9.7","","99.35","","28","","","","Haze"
"1999-08-25 18:00","1999","08","25","18:00","21.6","","19.0","","85","","6","","7","","8.0","","99.35","","28","","","","Rain Showers,Haze"
"1999-08-25 19:00","1999","08","25","19:00","22.0","","18.7","","82","","9","","9","","9.7","","99.32","","29","","","","Haze"
"1999-08-25 20:00","1999","08","25","20:00","22.0","","18.2","","79","","7","","11","","9.7","","99.32","","28","","","","Haze"
"1999-08-25 21:00","1999","08","25","21:00","22.3","","18.2","","78","","9","","11","","14.5","","99.32","","28","","","","Cloudy"
"1999-08-25 22:00","1999","08","25","22:00","22.2","","17.9","","77","","10","","11","","16.1","","99.32","","28","","","","Cloudy"
"1999-08-25 23:00","1999","08","25","23:00","22.3","","18.3","","78","","11","","11","","16.1","","99.32","","29","","","","Cloudy"
"1999-08-26 00:00","1999","08","26","00:00","22.3","","18.3","","78","","13","","11","","16.1","","99.32","","29","","","","Mostly Cloudy"
"1999-08-26 01:00","1999","08","26","01:00","21.9","","18.1","","79","","13","","9","","16.1","","99.29","","28","","","","Cloudy"
"1999-08-26 02:00","1999","08","26","02:00","21.4","","18.0","","81","","11","","9","","12.9","","99.29","","27","","","","Mostly Cloudy"
"1999-08-26 03:00","1999","08","26","03:00","21.4","","18.1","","81","","11","","9","","12.9","","99.26","","27","","","","Cloudy"
"1999-08-26 04:00","1999","08","26","04:00","20.7","","18.3","","86","","9","","11","","12.9","","99.26","","27","","","","Mostly Cloudy"
"1999-08-26 05:00","1999","08","26","05:00","21.0","","18.2","","84","","9","","11","","12.9","","99.22","","27","","","","Mostly Cloudy"
"1999-08-26 06:00","1999","08","26","06:00","20.9","","18.5","","86","","9","","9","","11.3","","99.19","","27","","","","Mostly Cloudy"
"1999-08-26 07:00","1999","08","26","07:00","21.8","","18.3","","81","","10","","15","","9.7","","99.22","","28","","","","Haze"
"1999-08-26 08:00","1999","08","26","08:00","21.1","","18.8","","87","","11","","22","","11.3","","99.29","","28","","","","Cloudy"
"1999-08-26 09:00","1999","08","26","09:00","21.2","","18.9","","87","","11","","19","","11.3","","99.29","","28","","","","Rain Showers"
"1999-08-26 10:00","1999","08","26","10:00","22.2","","19.7","","86","","12","","19","","11.3","","99.29","","30","","","","Rain Showers"
"1999-08-26 11:00","1999","08","26","11:00","23.1","","19.3","","79","","11","","19","","11.3","","99.29","","30","","","","Cloudy"
"1999-08-26 12:00","1999","08","26","12:00","24.8","","18.1","","66","","9","","19","","14.5","","99.26","","31","","","","Mostly Cloudy"
"1999-08-26 13:00","1999","08","26","13:00","25.1","","17.5","","63","","10","","26","","16.1","","99.19","","31","","","","Mostly Cloudy"
"1999-08-26 14:00","1999","08","26","14:00","25.0","","16.9","","61","","11","","24","","19.3","","99.16","","30","","","","Mostly Cloudy"
"1999-08-26 15:00","1999","08","26","15:00","24.6","","15.8","","58","","9","","20","","24.1","","99.12","","29","","","","Mostly Cloudy"
"1999-08-26 16:00","1999","08","26","16:00","24.9","","14.6","","53","","9","","20","","24.1","","99.09","","29","","","","Mostly Cloudy"
"1999-08-26 17:00","1999","08","26","17:00","24.0","","12.9","","50","","11","","19","","24.1","","99.09","","27","","","","Mostly Cloudy"
"1999-08-26 18:00","1999","08","26","18:00","23.5","","14.5","","57","","10","","19","","24.1","","99.12","","27","","","","Mostly Cloudy"
"1999-08-26 19:00","1999","08","26","19:00","22.6","","15.2","","63","","9","","15","","24.1","","99.09","","27","","","","Mostly Cloudy"
"1999-08-26 20:00","1999","08","26","20:00","22.3","","17.0","","72","","9","","15","","24.1","","99.16","","28","","","","Mostly Cloudy"
"1999-08-26 21:00","1999","08","26","21:00","22.3","","15.2","","64","","9","","13","","24.1","","99.16","","26","","","","Mostly Cloudy"
"1999-08-26 22:00","1999","08","26","22:00","20.8","","17.3","","80","","5","","7","","24.1","","99.12","","26","","","","Cloudy"
"1999-08-26 23:00","1999","08","26","23:00","21.4","","17.6","","79","","4","","7","","24.1","","99.12","","27","","","","Cloudy"
"1999-08-27 00:00","1999","08","27","00:00","21.1","","16.4","","75","","4","","4","","24.1","","99.12","","26","","","","Mostly Cloudy"
"1999-08-27 01:00","1999","08","27","01:00","21.1","","16.7","","76","","9","","9","","24.1","","99.09","","26","","","","Mainly Clear"
"1999-08-27 02:00","1999","08","27","02:00","20.8","","16.9","","78","","33","","9","","16.1","","99.12","","26","","","","Cloudy"
"1999-08-27 03:00","1999","08","27","03:00","20.1","","16.4","","79","","36","","11","","16.1","","99.12","","25","","","","Mostly Cloudy"
"1999-08-27 04:00","1999","08","27","04:00","19.8","","16.2","","80","","2","","6","","16.1","","99.09","","","","","","Mostly Cloudy"
"1999-08-27 05:00","1999","08","27","05:00","19.1","","16.2","","83","","35","","11","","16.1","","99.12","","","","","","Mostly Cloudy"
"1999-08-27 06:00","1999","08","27","06:00","18.8","","16.3","","85","","2","","11","","11.3","","99.16","","","","","","Mainly Clear"
"1999-08-27 07:00","1999","08","27","07:00","19.8","","16.9","","83","","3","","7","","8.0","","99.19","","","","","","Haze"
"1999-08-27 08:00","1999","08","27","08:00","21.2","","17.5","","79","","2","","9","","11.3","","99.22","","27","","","","Mainly Clear"
"1999-08-27 09:00","1999","08","27","09:00","22.7","","17.3","","72","","4","","4","","14.5","","99.26","","28","","","","Mainly Clear"
"1999-08-27 10:00","1999","08","27","10:00","24.3","","16.2","","61","","35","","6","","14.5","","99.26","","29","","","","Clear"
"1999-08-27 11:00","1999","08","27","11:00","25.4","","15.3","","54","","7","","7","","16.1","","99.26","","30","","","","Mainly Clear"
"1999-08-27 12:00","1999","08","27","12:00","25.3","","19.5","","70","","17","","15","","16.1","","99.22","","32","","","","Mainly Clear"
"1999-08-27 13:00","1999","08","27","13:00","26.5","","16.0","","52","","2","","6","","19.3","","99.19","","31","","","","Mainly Clear"
"1999-08-27 14:00","1999","08","27","14:00","25.8","","19.4","","68","","16","","17","","19.3","","99.16","","33","","","","Mainly Clear"
"1999-08-27 15:00","1999","08","27","15:00","26.6","","18.5","","61","","18","","11","","19.3","","99.09","","33","","","","Mainly Clear"
"1999-08-27 16:00","1999","08","27","16:00","26.5","","19.2","","64","","13","","17","","19.3","","99.09","","33","","","","Mainly Clear"
"1999-08-27 17:00","1999","08","27","17:00","27.1","","18.2","","58","","19","","11","","19.3","","99.06","","33","","","","Mainly Clear"
"1999-08-27 18:00","1999","08","27","18:00","26.9","","17.7","","57","","18","","11","","19.3","","99.06","","33","","","","Clear"
"1999-08-27 19:00","1999","08","27","19:00","26.1","","17.3","","58","","16","","7","","19.3","","99.06","","32","","","","Clear"
"1999-08-27 20:00","1999","08","27","20:00","24.0","","17.4","","67","","16","","9","","19.3","","99.09","","30","","","","Clear"
"1999-08-27 21:00","1999","08","27","21:00","24.2","","17.4","","66","","35","","20","","19.3","","99.12","","30","","","","Clear"
"1999-08-27 22:00","1999","08","27","22:00","23.2","","16.9","","68","","32","","13","","24.1","","99.16","","28","","","","Clear"
"1999-08-27 23:00","1999","08","27","23:00","22.7","","17.1","","71","","32","","7","","24.1","","99.16","","28","","","","Clear"
"1999-08-28 00:00","1999","08","28","00:00","21.2","","17.0","","77","","29","","11","","24.1","","99.16","","26","","","","Clear"
"1999-08-28 01:00","1999","08","28","01:00","19.8","","17.0","","84","","24","","9","","24.1","","99.12","","","","","","Mainly Clear"
"1999-08-28 02:00","1999","08","28","02:00","19.6","","16.8","","84","","25","","7","","12.9","","99.09","","","","","","Clear"
"1999-08-28 03:00","1999","08","28","03:00","20.9","","17.2","","79","","28","","19","","12.9","","99.06","","26","","","","Mainly Clear"
"1999-08-28 04:00","1999","08","28","04:00","21.0","","17.1","","78","","27","","15","","12.9","","99.06","","26","","","","Mostly Cloudy"
"1999-08-28 05:00","1999","08","28","05:00","21.1","","17.6","","80","","27","","11","","9.7","","99.06","","27","","","","Rain Showers,Fog"
"1999-08-28 06:00","1999","08","28","06:00","21.2","","18.1","","82","","27","","7","","8.0","","99.09","","27","","","","Haze"
"1999-08-28 07:00","1999","08","28","07:00","22.0","","19.0","","83","","29","","15","","8.0","","99.12","","29","","","","Haze"
"1999-08-28 08:00","1999","08","28","08:00","24.2","","20.1","","78","","28","","13","","9.7","","99.12","","32","","","","Haze"
"1999-08-28 09:00","1999","08","28","09:00","26.5","","20.3","","69","","29","","20","","11.3","","99.12","","34","","","","Mostly Cloudy"
"1999-08-28 10:00","1999","08","28","10:00","28.0","","20.0","","62","","29","","24","","14.5","","99.12","","36","","","","Mostly Cloudy"
"1999-08-28 11:00","1999","08","28","11:00","29.0","","18.0","","52","","29","","26","","16.1","","99.12","","35","","","","Mostly Cloudy"
"1999-08-28 12:00","1999","08","28","12:00","29.5","","20.0","","57","","27","","20","","19.3","","99.09","","37","","","","Mostly Cloudy"
"1999-08-28 13:00","1999","08","28","13:00","30.2","","19.0","","51","","25","","28","","19.3","","99.06","","37","","","","Mainly Clear"
"1999-08-28 14:00","1999","08","28","14:00","31.4","","16.8","","42","","29","","35","","16.1","","99.02","","37","","","","Mainly Clear"
"1999-08-28 15:00","1999","08","28","15:00","31.7","","16.2","","39","","28","","39","","19.3","","98.96","","36","","","","Mainly Clear"
"1999-08-28 16:00","1999","08","28","16:00","31.4","","14.2","","35","","28","","44","","19.3","","98.96","","35","","","","Mainly Clear"
"1999-08-28 17:00","1999","08","28","17:00","30.0","","13.5","","36","","31","","37","","24.1","","98.96","","33","","","","Mainly Clear"
"1999-08-28 18:00","1999","08","28","18:00","27.9","","7.5","","28","","32","","32","","24.1","","99.02","","28","","","","Mostly Cloudy"
"1999-08-28 19:00","1999","08","28","19:00","26.2","","9.1","","34","","32","","15","","24.1","","99.06","","27","","","","Mostly Cloudy"
"1999-08-28 20:00","1999","08","28","20:00","24.2","","10.1","","41","","32","","35","","24.1","","99.09","","26","","","","Mainly Clear"
"1999-08-28 21:00","1999","08","28","21:00","22.3","","7.2","","38","","32","","26","","24.1","","99.16","","","","","","Clear"
"1999-08-28 22:00","1999","08","28","22:00","20.4","","8.3","","46","","32","","22","","24.1","","99.19","","","","","","Clear"
"1999-08-28 23:00","1999","08","28","23:00","19.2","","8.3","","49","","31","","22","","24.1","","99.19","","","","","","Clear"
"1999-08-29 00:00","1999","08","29","00:00","18.6","","9.2","","54","","32","","32","","24.1","","99.22","","","","","","Clear"
"1999-08-29 01:00","1999","08","29","01:00","17.5","","9.5","","59","","32","","30","","24.1","","99.22","","","","","","Clear"
"1999-08-29 02:00","1999","08","29","02:00","16.7","","9.9","","64","","32","","24","","24.1","","99.22","","","","","","Clear"
"1999-08-29 03:00","1999","08","29","03:00","16.4","","10.6","","69","","32","","24","","24.1","","99.26","","","","","","Clear"
"1999-08-29 04:00","1999","08","29","04:00","16.3","","10.8","","70","","34","","22","","24.1","","99.32","","","","","","Mainly Clear"
"1999-08-29 05:00","1999","08","29","05:00","15.4","","10.4","","72","","35","","22","","24.1","","99.39","","","","","","Clear"
"1999-08-29 06:00","1999","08","29","06:00","14.6","","10.2","","75","","36","","17","","19.3","","99.45","","","","","","Clear"
"1999-08-29 07:00","1999","08","29","07:00","15.2","","9.4","","68","","36","","17","","19.3","","99.55","","","","","","Clear"
"1999-08-29 08:00","1999","08","29","08:00","16.6","","8.6","","59","","36","","26","","19.3","","99.62","","","","","","Mainly Clear"
"1999-08-29 09:00","1999","08","29","09:00","18.2","","7.7","","50","","35","","26","","24.1","","99.65","","","","","","Mainly Clear"
"1999-08-29 10:00","1999","08","29","10:00","19.5","","6.8","","44","","36","","33","","24.1","","99.72","","","","","","Mainly Clear"
"1999-08-29 11:00","1999","08","29","11:00","19.7","","7.6","","45","","36","","30","","24.1","","99.75","","","","","","Mainly Clear"
"1999-08-29 12:00","1999","08","29","12:00","20.0","","8.8","","48","","1","","30","","24.1","","99.82","","","","","","Mostly Cloudy"
"1999-08-29 13:00","1999","08","29","13:00","19.1","","8.9","","52","","34","","32","","24.1","","99.89","","","","","","Mostly Cloudy"
"1999-08-29 14:00","1999","08","29","14:00","19.7","","7.8","","46","","33","","35","","25.0","","99.92","","","","","","Mostly Cloudy"
"1999-08-29 15:00","1999","08","29","15:00","19.4","","6.4","","43","","35","","35","","25.0","","99.95","","","","","","Mainly Clear"
"1999-08-29 16:00","1999","08","29","16:00","18.5","","6.1","","44","","35","","32","","25.0","","99.99","","","","","","Mostly Cloudy"
"1999-08-29 17:00","1999","08","29","17:00","18.0","","6.0","","45","","34","","33","","25.0","","100.05","","","","","","Mainly Clear"
"1999-08-29 18:00","1999","08","29","18:00","17.0","","7.1","","52","","35","","37","","25.0","","100.12","","","","","","Mostly Cloudy"
"1999-08-29 19:00","1999","08","29","19:00","16.0","","7.1","","55","","36","","32","","25.0","","100.12","","","","","","Mostly Cloudy"
"1999-08-29 20:00","1999","08","29","20:00","15.0","","7.1","","59","","2","","24","","25.0","","100.22","","","","","","Mainly Clear"
"1999-08-29 21:00","1999","08","29","21:00","14.2","","7.2","","63","","36","","20","","25.0","","100.35","","","","","","Clear"
"1999-08-29 22:00","1999","08","29","22:00","13.1","","7.2","","67","","2","","24","","25.0","","100.39","","","","","","Clear"
"1999-08-29 23:00","1999","08","29","23:00","12.9","","7.4","","69","","2","","17","","25.0","","100.42","","","","","","Clear"
"1999-08-30 00:00","1999","08","30","00:00","12.8","","6.9","","67","","2","","20","","25.0","","100.49","","","","","","Mainly Clear"
"1999-08-30 01:00","1999","08","30","01:00","12.6","","6.3","","65","","2","","17","","25.0","","100.49","","","","","","Clear"
"1999-08-30 02:00","1999","08","30","02:00","11.6","","6.3","","70","","2","","17","","25.0","","100.49","","","","","","Clear"
"1999-08-30 03:00","1999","08","30","03:00","11.1","","6.4","","73","","1","","20","","25.0","","100.52","","","","","","Clear"
"1999-08-30 04:00","1999","08","30","04:00","10.1","","6.6","","79","","35","","13","","25.0","","100.55","","","","","","Clear"
"1999-08-30 05:00","1999","08","30","05:00","9.8","","6.7","","81","","1","","13","","25.0","","100.59","","","","","","Clear"
"1999-08-30 06:00","1999","08","30","06:00","10.1","","7.0","","81","","36","","13","","25.0","","100.62","","","","","","Clear"
"1999-08-30 07:00","1999","08","30","07:00","10.8","","7.4","","79","","2","","19","","25.0","","100.69","","","","","","Clear"
"1999-08-30 08:00","1999","08","30","08:00","13.3","","7.5","","68","","4","","22","","25.0","","100.72","","","","","","Clear"
"1999-08-30 09:00","1999","08","30","09:00","15.2","","7.8","","61","","3","","15","","25.0","","100.72","","","","","","Clear"
"1999-08-30 10:00","1999","08","30","10:00","15.8","","7.5","","58","","3","","11","","25.0","","100.72","","","","","","Clear"
"1999-08-30 11:00","1999","08","30","11:00","17.6","","7.2","","50","","9","","9","","25.0","","100.69","","","","","","Mainly Clear"
"1999-08-30 12:00","1999","08","30","12:00","18.2","","6.9","","48","","9","","11","","25.0","","100.69","","","","","","Clear"
"1999-08-30 13:00","1999","08","30","13:00","19.1","","9.4","","53","","16","","19","","25.0","","100.65","","","","","","Clear"
"1999-08-30 14:00","1999","08","30","14:00","18.4","","9.3","","55","","14","","15","","25.0","","100.65","","","","","","Clear"
"1999-08-30 15:00","1999","08","30","15:00","18.6","","9.8","","57","","16","","17","","25.0","","100.59","","","","","","Clear"
"1999-08-30 16:00","1999","08","30","16:00","19.2","","10.2","","56","","17","","7","","25.0","","100.55","","","","","","Clear"
"1999-08-30 17:00","1999","08","30","17:00","18.9","","10.5","","58","","14","","13","","24.1","","100.55","","","","","","Clear"
"1999-08-30 18:00","1999","08","30","18:00","18.7","","10.2","","58","","14","","11","","24.1","","100.52","","","","","","Clear"
"1999-08-30 19:00","1999","08","30","19:00","17.4","","11.1","","66","","13","","6","","24.1","","100.52","","","","","","Clear"
"1999-08-30 20:00","1999","08","30","20:00","16.9","","11.0","","68","","","","0","","24.1","","100.55","","","","","","Clear"
"1999-08-30 21:00","1999","08","30","21:00","16.3","","11.0","","71","","","","0","","24.1","","100.59","","","","","","Clear"
"1999-08-30 22:00","1999","08","30","22:00","15.8","","11.2","","74","","36","","11","","25.0","","100.55","","","","","","Clear"
"1999-08-30 23:00","1999","08","30","23:00","14.2","","10.7","","79","","35","","9","","25.0","","100.52","","","","","","Clear"
"1999-08-31 00:00","1999","08","31","00:00","13.4","","10.6","","83","","35","","9","","25.0","","100.52","","","","","","Clear"
"1999-08-31 01:00","1999","08","31","01:00","12.5","","10.1","","85","","35","","6","","25.0","","100.55","","","","","","Clear"
"1999-08-31 02:00","1999","08","31","02:00","12.0","","10.0","","88","","1","","4","","25.0","","100.55","","","","","","Clear"
"1999-08-31 03:00","1999","08","31","03:00","11.9","","9.8","","87","","34","","9","","25.0","","100.55","","","","","","Clear"
"1999-08-31 04:00","1999","08","31","04:00","11.3","","9.6","","89","","35","","7","","25.0","","100.59","","","","","","Clear"
"1999-08-31 05:00","1999","08","31","05:00","11.2","","9.3","","88","","35","","7","","25.0","","100.62","","","","","","Clear"
"1999-08-31 06:00","1999","08","31","06:00","11.4","","9.5","","88","","36","","7","","24.1","","100.62","","","","","","Mainly Clear"
"1999-08-31 07:00","1999","08","31","07:00","12.5","","10.0","","85","","36","","6","","24.1","","100.65","","","","","","Clear"
"1999-08-31 08:00","1999","08","31","08:00","15.7","","11.5","","76","","4","","7","","24.1","","100.69","","","","","","Mainly Clear"
"1999-08-31 09:00","1999","08","31","09:00","18.5","","12.9","","70","","14","","11","","24.1","","100.69","","","","","","Mainly Clear"
"1999-08-31 10:00","1999","08","31","10:00","19.7","","13.1","","66","","12","","11","","25.0","","100.69","","","","","","Mainly Clear"
"1999-08-31 11:00","1999","08","31","11:00","20.8","","12.9","","61","","16","","9","","25.0","","100.62","","","","","","Mainly Clear"
"1999-08-31 12:00","1999","08","31","12:00","21.4","","12.3","","56","","17","","9","","25.0","","100.55","","","","","","Clear"
"1999-08-31 13:00","1999","08","31","13:00","22.1","","10.7","","48","","14","","9","","25.0","","100.52","","","","","","Mainly Clear"
"1999-08-31 14:00","1999","08","31","14:00","21.9","","10.5","","48","","20","","6","","25.0","","100.49","","","","","","Mainly Clear"
"1999-08-31 15:00","1999","08","31","15:00","22.6","","9.8","","44","","12","","9","","24.1","","100.45","","","","","","Mainly Clear"
"1999-08-31 16:00","1999","08","31","16:00","23.0","","8.2","","39","","13","","11","","24.1","","100.39","","","","","","Mainly Clear"
"1999-08-31 17:00","1999","08","31","17:00","22.5","","10.2","","46","","13","","7","","24.1","","100.35","","","","","","Mainly Clear"
"1999-08-31 18:00","1999","08","31","18:00","21.4","","10.1","","48","","16","","9","","24.1","","100.32","","","","","","Mainly Clear"
"1999-08-31 19:00","1999","08","31","19:00","20.1","","11.2","","57","","15","","7","","24.1","","100.29","","","","","","Mainly Clear"
"1999-08-31 20:00","1999","08","31","20:00","19.2","","11.2","","60","","16","","6","","24.1","","100.29","","","","","","Mainly Clear"
"1999-08-31 21:00","1999","08","31","21:00","18.7","","12.1","","65","","13","","6","","24.1","","100.25","","","","","","Clear"
"1999-08-31 22:00","1999","08","31","22:00","18.1","","12.9","","72","","11","","4","","24.1","","100.25","","","","","","Clear"
"1999-08-31 23:00","1999","08","31","23:00","17.1","","12.8","","76","","11","","4","","24.1","","100.25","","","","","","Clear"
