"Station Name","TORONTO LESTER B. PEARSON INT'L A"
"Province","ONTARIO"
"Latitude","43.68"
"Longitude","-79.63"
"Elevation","173.40"
"Climate Identifier","6158733"
"WMO Identifier","71624"
"TC Identifier","YYZ"
"All times are specified in Local Standard Time (LST). Add 1 hour to adjust for Daylight Saving Time where and when it is observed."

"Legend"
"E","Estimated"
"M","Missing"
"NA","Not Available"

"Date/Time","Year","Month","Day","Time","Temp (°C)","Temp Flag","Dew Point Temp (°C)","Dew Point Temp Flag","Rel Hum (%)","Rel Hum Flag","Wind Dir (10s deg)","Wind Dir Flag","Wind Spd (km/h)","Wind Spd Flag","Visibility (km)","Visibility Flag","Stn Press (kPa)","Stn Press Flag","Hmdx","Hmdx Flag","Wind Chill","Wind Chill Flag","Weather"
"2001-08-01 00:00","2001","08","01","00:00","20.9","","12.5","","59","","","","0","","24.1","","100.47","","","","","","Clear"
"2001-08-01 01:00","2001","08","01","01:00","20.6","","11.7","","57","","9","","4","","24.1","","100.40","","","","","","Clear"
"2001-08-01 02:00","2001","08","01","02:00","20.6","","12.1","","58","","36","","6","","24.1","","100.42","","","","","","Clear"
"2001-08-01 03:00","2001","08","01","03:00","19.1","","12.4","","65","","","","0","","24.1","","100.40","","","","","","Clear"
"2001-08-01 04:00","2001","08","01","04:00","17.8","","12.3","","70","","35","","6","","24.1","","100.39","","","","","","Clear"
"2001-08-01 05:00","2001","08","01","05:00","17.9","","11.7","","67","","7","","6","","24.1","","100.44","","","","","","Mostly Cloudy"
"2001-08-01 06:00","2001","08","01","06:00","18.8","","11.0","","60","","35","","9","","16.1","","100.48","","","","","","Mainly Clear"
"2001-08-01 07:00","2001","08","01","07:00","20.4","","12.4","","60","","1","","4","","16.1","","100.52","","","","","","Mainly Clear"
"2001-08-01 08:00","2001","08","01","08:00","23.3","","14.2","","57","","11","","6","","16.1","","100.54","","27","","","","Mainly Clear"
"2001-08-01 09:00","2001","08","01","09:00","25.5","","15.0","","52","","13","","6","","16.1","","100.55","","29","","","","Mainly Clear"
"2001-08-01 10:00","2001","08","01","10:00","27.5","","16.0","","50","","16","","6","","16.1","","100.57","","32","","","","Mainly Clear"
"2001-08-01 11:00","2001","08","01","11:00","28.6","","16.4","","48","","12","","11","","16.1","","100.54","","33","","","","Clear"
"2001-08-01 12:00","2001","08","01","12:00","28.4","","17.2","","51","","16","","13","","16.1","","100.51","","34","","","","Mostly Cloudy"
"2001-08-01 13:00","2001","08","01","13:00","28.6","","17.0","","49","","15","","15","","16.1","","100.49","","34","","","","Mostly Cloudy"
"2001-08-01 14:00","2001","08","01","14:00","30.2","","16.4","","43","","16","","13","","16.1","","100.38","","35","","","","Mostly Cloudy"
"2001-08-01 15:00","2001","08","01","15:00","30.5","","15.2","","40","","14","","17","","16.1","","100.30","","35","","","","Mostly Cloudy"
"2001-08-01 16:00","2001","08","01","16:00","29.3","","16.0","","45","","16","","13","","16.1","","100.31","","34","","","","Mostly Cloudy"
"2001-08-01 17:00","2001","08","01","17:00","28.5","","16.3","","48","","16","","15","","16.1","","100.28","","33","","","","Mostly Cloudy"
"2001-08-01 18:00","2001","08","01","18:00","26.9","","15.3","","49","","16","","15","","19.3","","100.26","","31","","","","Mainly Clear"
"2001-08-01 19:00","2001","08","01","19:00","25.0","","16.2","","58","","14","","11","","19.3","","100.26","","30","","","","Mainly Clear"
"2001-08-01 20:00","2001","08","01","20:00","23.9","","16.6","","64","","15","","9","","19.3","","100.25","","29","","","","Mainly Clear"
"2001-08-01 21:00","2001","08","01","21:00","23.8","","16.5","","64","","14","","6","","19.3","","100.26","","29","","","","Mainly Clear"
"2001-08-01 22:00","2001","08","01","22:00","23.5","","16.8","","66","","","","0","","19.3","","100.25","","29","","","","Mainly Clear"
"2001-08-01 23:00","2001","08","01","23:00","22.6","","16.9","","70","","","","0","","19.3","","100.21","","28","","","","Clear"
"2001-08-02 00:00","2001","08","02","00:00","21.8","","16.7","","73","","28","","9","","16.1","","100.21","","27","","","","Mostly Cloudy"
"2001-08-02 01:00","2001","08","02","01:00","22.2","","16.5","","70","","27","","6","","12.9","","100.21","","27","","","","Cloudy"
"2001-08-02 02:00","2001","08","02","02:00","22.2","","16.8","","71","","26","","7","","9.7","","100.16","","27","","","","Haze"
"2001-08-02 03:00","2001","08","02","03:00","22.8","","16.5","","68","","25","","7","","9.7","","100.09","","28","","","","Haze"
"2001-08-02 04:00","2001","08","02","04:00","23.6","","16.3","","64","","18","","6","","8.0","","100.07","","28","","","","Haze"
"2001-08-02 05:00","2001","08","02","05:00","23.2","","16.5","","66","","","","0","","6.4","","100.06","","28","","","","Haze"
"2001-08-02 06:00","2001","08","02","06:00","23.0","","17.0","","69","","18","","4","","4.8","","100.03","","28","","","","Haze"
"2001-08-02 07:00","2001","08","02","07:00","23.7","","16.8","","65","","17","","4","","4.8","","100.04","","29","","","","Haze"
"2001-08-02 08:00","2001","08","02","08:00","25.4","","16.0","","56","","26","","17","","6.4","","100.04","","30","","","","Haze"
"2001-08-02 09:00","2001","08","02","09:00","26.3","","16.6","","55","","26","","17","","6.4","","100.01","","31","","","","Haze"
"2001-08-02 10:00","2001","08","02","10:00","27.5","","18.7","","59","","25","","15","","6.4","","99.98","","34","","","","Haze"
"2001-08-02 11:00","2001","08","02","11:00","28.2","","19.7","","60","","24","","13","","6.4","","99.96","","36","","","","Haze"
"2001-08-02 12:00","2001","08","02","12:00","29.3","","20.6","","60","","22","","15","","6.4","","99.92","","37","","","","Haze"
"2001-08-02 13:00","2001","08","02","13:00","30.6","","21.5","","58","","22","","17","","6.4","","99.88","","39","","","","Haze"
"2001-08-02 14:00","2001","08","02","14:00","30.7","","21.6","","58","","22","","13","","8.0","","99.83","","40","","","","Haze"
"2001-08-02 15:00","2001","08","02","15:00","32.3","","21.0","","51","","26","","22","","8.0","","99.75","","41","","","","Haze"
"2001-08-02 16:00","2001","08","02","16:00","31.2","","20.7","","54","","25","","24","","8.0","","99.71","","39","","","","Haze"
"2001-08-02 17:00","2001","08","02","17:00","31.9","","21.6","","55","","26","","26","","8.0","","99.69","","41","","","","Haze"
"2001-08-02 18:00","2001","08","02","18:00","31.0","","21.7","","58","","24","","19","","8.0","","99.65","","40","","","","Haze"
"2001-08-02 19:00","2001","08","02","19:00","29.6","","22.1","","64","","24","","15","","8.0","","99.64","","39","","","","Haze"
"2001-08-02 20:00","2001","08","02","20:00","28.6","","20.5","","62","","28","","13","","11.3","","99.64","","37","","","","Mostly Cloudy"
"2001-08-02 21:00","2001","08","02","21:00","27.1","","21.2","","70","","36","","13","","11.3","","99.69","","36","","","","Mainly Clear"
"2001-08-02 22:00","2001","08","02","22:00","26.4","","20.9","","72","","33","","13","","11.3","","99.69","","35","","","","Mainly Clear"
"2001-08-02 23:00","2001","08","02","23:00","25.9","","20.1","","70","","31","","19","","12.9","","99.66","","34","","","","Mostly Cloudy"
"2001-08-03 00:00","2001","08","03","00:00","24.7","","19.8","","74","","33","","20","","14.5","","99.66","","32","","","","Mostly Cloudy"
"2001-08-03 01:00","2001","08","03","01:00","23.9","","18.8","","73","","33","","19","","16.1","","99.63","","31","","","","Mostly Cloudy"
"2001-08-03 02:00","2001","08","03","02:00","23.5","","16.5","","65","","32","","17","","16.1","","99.61","","28","","","","Mainly Clear"
"2001-08-03 03:00","2001","08","03","03:00","22.3","","15.8","","67","","32","","13","","16.1","","99.56","","27","","","","Mainly Clear"
"2001-08-03 04:00","2001","08","03","04:00","21.0","","15.3","","70","","29","","7","","16.1","","99.53","","25","","","","Mainly Clear"
"2001-08-03 05:00","2001","08","03","05:00","21.1","","14.6","","66","","31","","9","","24.1","","99.53","","25","","","","Mainly Clear"
"2001-08-03 06:00","2001","08","03","06:00","21.2","","14.3","","65","","32","","6","","19.3","","99.55","","25","","","","Mostly Cloudy"
"2001-08-03 07:00","2001","08","03","07:00","22.7","","13.9","","58","","36","","7","","24.1","","99.56","","26","","","","Mostly Cloudy"
"2001-08-03 08:00","2001","08","03","08:00","24.0","","14.4","","55","","36","","6","","24.1","","99.54","","28","","","","Mostly Cloudy"
"2001-08-03 09:00","2001","08","03","09:00","25.5","","15.2","","53","","36","","7","","24.1","","99.49","","30","","","","Mainly Clear"
"2001-08-03 10:00","2001","08","03","10:00","27.6","","15.6","","48","","29","","6","","24.1","","99.46","","32","","","","Mainly Clear"
"2001-08-03 11:00","2001","08","03","11:00","29.2","","15.2","","43","","30","","7","","24.1","","99.41","","33","","","","Mainly Clear"
"2001-08-03 12:00","2001","08","03","12:00","30.0","","14.8","","40","","18","","7","","24.1","","99.38","","34","","","","Mostly Cloudy"
"2001-08-03 13:00","2001","08","03","13:00","28.3","","15.4","","45","","17","","9","","24.1","","99.32","","33","","","","Mostly Cloudy"
"2001-08-03 14:00","2001","08","03","14:00","30.0","","15.6","","42","","13","","15","","24.1","","99.28","","34","","","","Mostly Cloudy"
"2001-08-03 15:00","2001","08","03","15:00","31.8","","16.8","","41","","18","","15","","24.1","","99.23","","37","","","","Mainly Clear"
"2001-08-03 16:00","2001","08","03","16:00","31.0","","17.2","","44","","13","","11","","24.1","","99.15","","36","","","","Mainly Clear"
"2001-08-03 17:00","2001","08","03","17:00","29.6","","17.0","","47","","15","","11","","24.1","","99.13","","35","","","","Mainly Clear"
"2001-08-03 18:00","2001","08","03","18:00","30.7","","17.1","","44","","6","","6","","24.1","","99.14","","36","","","","Mainly Clear"
"2001-08-03 19:00","2001","08","03","19:00","27.9","","17.6","","54","","36","","28","","24.1","","99.19","","34","","","","Clear"
"2001-08-03 20:00","2001","08","03","20:00","25.8","","15.0","","51","","1","","30","","24.1","","99.23","","30","","","","Clear"
"2001-08-03 21:00","2001","08","03","21:00","24.7","","14.9","","54","","36","","26","","24.1","","99.26","","29","","","","Clear"
"2001-08-03 22:00","2001","08","03","22:00","23.6","","13.6","","53","","36","","24","","24.1","","99.26","","27","","","","Mainly Clear"
"2001-08-03 23:00","2001","08","03","23:00","22.5","","14.1","","59","","2","","20","","24.1","","99.30","","26","","","","Mainly Clear"
"2001-08-04 00:00","2001","08","04","00:00","21.7","","14.8","","65","","35","","17","","24.1","","99.28","","26","","","","Clear"
"2001-08-04 01:00","2001","08","04","01:00","20.9","","15.3","","70","","36","","22","","24.1","","99.28","","25","","","","Clear"
"2001-08-04 02:00","2001","08","04","02:00","20.4","","15.8","","75","","1","","17","","24.1","","99.29","","25","","","","Clear"
"2001-08-04 03:00","2001","08","04","03:00","20.1","","16.0","","77","","35","","13","","24.1","","99.29","","25","","","","Clear"
"2001-08-04 04:00","2001","08","04","04:00","20.1","","16.1","","78","","36","","19","","24.1","","99.33","","25","","","","Mainly Clear"
"2001-08-04 05:00","2001","08","04","05:00","19.7","","16.0","","79","","36","","17","","24.1","","99.35","","","","","","Mainly Clear"
"2001-08-04 06:00","2001","08","04","06:00","19.9","","15.9","","78","","35","","19","","24.1","","99.41","","","","","","Mainly Clear"
"2001-08-04 07:00","2001","08","04","07:00","21.0","","16.0","","73","","36","","19","","24.1","","99.46","","26","","","","Mainly Clear"
"2001-08-04 08:00","2001","08","04","08:00","23.3","","16.4","","65","","2","","11","","24.1","","99.50","","28","","","","Mainly Clear"
"2001-08-04 09:00","2001","08","04","09:00","22.6","","16.0","","66","","36","","11","","24.1","","99.55","","27","","","","Mainly Clear"
"2001-08-04 10:00","2001","08","04","10:00","26.1","","17.4","","59","","7","","9","","24.1","","99.56","","32","","","","Mainly Clear"
"2001-08-04 11:00","2001","08","04","11:00","28.3","","16.2","","48","","5","","13","","24.1","","99.54","","33","","","","Mainly Clear"
"2001-08-04 12:00","2001","08","04","12:00","28.9","","17.3","","50","","18","","19","","24.1","","99.56","","34","","","","Mainly Clear"
"2001-08-04 13:00","2001","08","04","13:00","28.4","","14.8","","43","","16","","13","","24.1","","99.55","","32","","","","Mainly Clear"
"2001-08-04 14:00","2001","08","04","14:00","28.9","","14.5","","41","","13","","11","","24.1","","99.53","","33","","","","Mainly Clear"
"2001-08-04 15:00","2001","08","04","15:00","29.3","","14.1","","39","","18","","13","","24.1","","99.49","","33","","","","Mainly Clear"
"2001-08-04 16:00","2001","08","04","16:00","29.0","","13.5","","39","","7","","4","","24.1","","99.48","","32","","","","Mainly Clear"
"2001-08-04 17:00","2001","08","04","17:00","30.4","","10.9","","30","","32","","11","","24.1","","99.48","","32","","","","Clear"
"2001-08-04 18:00","2001","08","04","18:00","27.7","","14.1","","43","","17","","13","","24.1","","99.46","","31","","","","Clear"
"2001-08-04 19:00","2001","08","04","19:00","26.5","","13.8","","46","","19","","9","","24.1","","99.48","","30","","","","Clear"
"2001-08-04 20:00","2001","08","04","20:00","25.2","","13.4","","48","","","","0","","24.1","","99.55","","28","","","","Clear"
"2001-08-04 21:00","2001","08","04","21:00","24.8","","11.3","","43","","2","","13","","24.1","","99.65","","27","","","","Clear"
"2001-08-04 22:00","2001","08","04","22:00","24.0","","10.0","","41","","36","","9","","24.1","","99.69","","25","","","","Clear"
"2001-08-04 23:00","2001","08","04","23:00","23.0","","10.4","","45","","34","","11","","24.1","","99.74","","","","","","Clear"
"2001-08-05 00:00","2001","08","05","00:00","21.6","","10.8","","50","","31","","11","","24.1","","99.72","","","","","","Clear"
"2001-08-05 01:00","2001","08","05","01:00","22.1","","10.6","","48","","35","","15","","24.1","","99.81","","","","","","Clear"
"2001-08-05 02:00","2001","08","05","02:00","19.5","","11.0","","58","","31","","11","","24.1","","99.80","","","","","","Mostly Cloudy"
"2001-08-05 03:00","2001","08","05","03:00","20.1","","10.9","","55","","31","","7","","24.1","","99.83","","","","","","Mainly Clear"
"2001-08-05 04:00","2001","08","05","04:00","19.6","","11.1","","58","","32","","4","","24.1","","99.83","","","","","","Clear"
"2001-08-05 05:00","2001","08","05","05:00","20.3","","11.7","","58","","34","","13","","24.1","","99.84","","","","","","Mainly Clear"
"2001-08-05 06:00","2001","08","05","06:00","21.3","","11.5","","54","","33","","9","","24.1","","99.91","","","","","","Mainly Clear"
"2001-08-05 07:00","2001","08","05","07:00","22.2","","11.2","","50","","33","","9","","24.1","","99.95","","","","","","Mainly Clear"
"2001-08-05 08:00","2001","08","05","08:00","25.2","","12.2","","44","","1","","9","","24.1","","100.01","","28","","","","Mainly Clear"
"2001-08-05 09:00","2001","08","05","09:00","27.6","","12.8","","40","","3","","11","","24.1","","100.08","","30","","","","Mainly Clear"
"2001-08-05 10:00","2001","08","05","10:00","28.9","","13.5","","39","","35","","7","","24.1","","100.10","","32","","","","Mainly Clear"
"2001-08-05 11:00","2001","08","05","11:00","31.4","","13.5","","34","","34","","4","","24.1","","100.12","","34","","","","Mainly Clear"
"2001-08-05 12:00","2001","08","05","12:00","31.0","","12.4","","32","","","","0","","24.1","","100.06","","33","","","","Mainly Clear"
"2001-08-05 13:00","2001","08","05","13:00","31.5","","13.8","","34","","16","","15","","24.1","","100.03","","35","","","","Clear"
"2001-08-05 14:00","2001","08","05","14:00","31.7","","13.4","","33","","17","","19","","24.1","","100.01","","35","","","","Clear"
"2001-08-05 15:00","2001","08","05","15:00","31.5","","12.9","","32","","15","","17","","24.1","","99.98","","34","","","","Clear"
"2001-08-05 16:00","2001","08","05","16:00","31.0","","11.7","","31","","17","","17","","24.1","","99.96","","33","","","","Clear"
"2001-08-05 17:00","2001","08","05","17:00","31.0","","11.2","","30","","16","","17","","24.1","","99.95","","33","","","","Clear"
"2001-08-05 18:00","2001","08","05","18:00","30.4","","11.1","","30","","18","","11","","24.1","","99.92","","32","","","","Clear"
"2001-08-05 19:00","2001","08","05","19:00","29.2","","10.7","","32","","18","","6","","24.1","","99.92","","31","","","","Mainly Clear"
"2001-08-05 20:00","2001","08","05","20:00","27.9","","10.6","","34","","16","","7","","24.1","","99.94","","29","","","","Mainly Clear"
"2001-08-05 21:00","2001","08","05","21:00","26.8","","10.2","","35","","19","","7","","24.1","","99.97","","28","","","","Mainly Clear"
"2001-08-05 22:00","2001","08","05","22:00","26.1","","10.3","","37","","23","","6","","24.1","","99.99","","28","","","","Mainly Clear"
"2001-08-05 23:00","2001","08","05","23:00","23.8","","11.0","","45","","26","","6","","24.1","","99.96","","26","","","","Mainly Clear"
"2001-08-06 00:00","2001","08","06","00:00","23.8","","11.9","","47","","29","","11","","24.1","","99.97","","26","","","","Mainly Clear"
"2001-08-06 01:00","2001","08","06","01:00","23.1","","11.9","","49","","28","","9","","24.1","","99.95","","25","","","","Mainly Clear"
"2001-08-06 02:00","2001","08","06","02:00","23.4","","12.5","","50","","30","","13","","24.1","","99.94","","26","","","","Mainly Clear"
"2001-08-06 03:00","2001","08","06","03:00","22.3","","12.0","","52","","28","","11","","24.1","","99.94","","25","","","","Clear"
"2001-08-06 04:00","2001","08","06","04:00","22.0","","11.9","","53","","31","","9","","24.1","","99.93","","","","","","Clear"
"2001-08-06 05:00","2001","08","06","05:00","21.5","","11.3","","52","","29","","4","","24.1","","99.91","","","","","","Clear"
"2001-08-06 06:00","2001","08","06","06:00","22.2","","11.4","","50","","32","","7","","24.1","","99.93","","","","","","Clear"
"2001-08-06 07:00","2001","08","06","07:00","24.7","","11.9","","45","","27","","6","","24.1","","99.95","","27","","","","Clear"
"2001-08-06 08:00","2001","08","06","08:00","27.5","","13.5","","42","","28","","17","","24.1","","99.99","","31","","","","Clear"
"2001-08-06 09:00","2001","08","06","09:00","29.8","","14.9","","40","","25","","17","","24.1","","99.94","","34","","","","Clear"
"2001-08-06 10:00","2001","08","06","10:00","32.4","","16.2","","38","","29","","19","","24.1","","99.93","","37","","","","Clear"
"2001-08-06 11:00","2001","08","06","11:00","33.3","","15.9","","35","","28","","24","","24.1","","99.92","","38","","","","Clear"
"2001-08-06 12:00","2001","08","06","12:00","33.9","","15.8","","34","","26","","24","","24.1","","99.84","","38","","","","Clear"
"2001-08-06 13:00","2001","08","06","13:00","34.2","","15.6","","33","","26","","20","","24.1","","99.77","","39","","","","Clear"
"2001-08-06 14:00","2001","08","06","14:00","35.4","","14.5","","29","","28","","30","","24.1","","99.70","","39","","","","Clear"
"2001-08-06 15:00","2001","08","06","15:00","35.8","","14.6","","28","","29","","26","","24.1","","99.65","","40","","","","Clear"
"2001-08-06 16:00","2001","08","06","16:00","35.0","","14.5","","29","","26","","22","","24.1","","99.62","","39","","","","Mainly Clear"
"2001-08-06 17:00","2001","08","06","17:00","34.7","","13.8","","29","","27","","33","","24.1","","99.58","","38","","","","Mainly Clear"
"2001-08-06 18:00","2001","08","06","18:00","33.9","","14.0","","30","","27","","30","","24.1","","99.53","","37","","","","Mainly Clear"
"2001-08-06 19:00","2001","08","06","19:00","32.6","","14.0","","32","","27","","17","","24.1","","99.53","","36","","","","Mainly Clear"
"2001-08-06 20:00","2001","08","06","20:00","30.3","","16.7","","44","","23","","22","","24.1","","99.54","","35","","","","Clear"
"2001-08-06 21:00","2001","08","06","21:00","28.6","","16.3","","47","","24","","19","","24.1","","99.54","","33","","","","Clear"
"2001-08-06 22:00","2001","08","06","22:00","27.3","","15.9","","50","","25","","15","","24.1","","99.53","","32","","","","Clear"
"2001-08-06 23:00","2001","08","06","23:00","27.2","","16.2","","51","","26","","24","","24.1","","99.57","","32","","","","Mostly Cloudy"
"2001-08-07 00:00","2001","08","07","00:00","26.6","","16.5","","54","","27","","20","","24.1","","99.58","","32","","","","Mainly Clear"
"2001-08-07 01:00","2001","08","07","01:00","26.6","","16.9","","55","","27","","19","","24.1","","99.53","","32","","","","Mostly Cloudy"
"2001-08-07 02:00","2001","08","07","02:00","26.9","","17.0","","55","","27","","24","","24.1","","99.47","","32","","","","Mostly Cloudy"
"2001-08-07 03:00","2001","08","07","03:00","26.9","","16.9","","54","","27","","22","","24.1","","99.48","","32","","","","Mostly Cloudy"
"2001-08-07 04:00","2001","08","07","04:00","26.3","","17.1","","57","","28","","20","","24.1","","99.45","","32","","","","Mostly Cloudy"
"2001-08-07 05:00","2001","08","07","05:00","26.0","","17.4","","59","","30","","17","","24.1","","99.49","","32","","","","Mostly Cloudy"
"2001-08-07 06:00","2001","08","07","06:00","26.4","","18.2","","61","","30","","22","","19.3","","99.53","","33","","","","Mostly Cloudy"
"2001-08-07 07:00","2001","08","07","07:00","26.9","","18.8","","61","","28","","24","","16.1","","99.53","","34","","","","Mostly Cloudy"
"2001-08-07 08:00","2001","08","07","08:00","27.0","","19.2","","62","","28","","19","","16.1","","99.55","","34","","","","Mostly Cloudy"
"2001-08-07 09:00","2001","08","07","09:00","28.7","","20.4","","61","","30","","13","","16.1","","99.52","","37","","","","Mostly Cloudy"
"2001-08-07 10:00","2001","08","07","10:00","31.4","","21.7","","56","","28","","15","","16.1","","99.51","","40","","","","Mainly Clear"
"2001-08-07 11:00","2001","08","07","11:00","32.6","","22.0","","54","","27","","19","","12.9","","99.49","","42","","","","Mostly Cloudy"
"2001-08-07 12:00","2001","08","07","12:00","33.8","","22.1","","51","","28","","26","","12.9","","99.43","","43","","","","Mostly Cloudy"
"2001-08-07 13:00","2001","08","07","13:00","35.3","","21.9","","46","","32","","32","","12.9","","99.39","","45","","","","Mostly Cloudy"
"2001-08-07 14:00","2001","08","07","14:00","35.2","","20.4","","42","","30","","32","","16.1","","99.38","","43","","","","Mainly Clear"
"2001-08-07 15:00","2001","08","07","15:00","33.6","","20.0","","45","","30","","26","","16.1","","99.34","","41","","","","Mainly Clear"
"2001-08-07 16:00","2001","08","07","16:00","35.0","","17.6","","36","","31","","33","","19.3","","99.25","","41","","","","Clear"
"2001-08-07 17:00","2001","08","07","17:00","34.2","","16.5","","35","","32","","24","","24.1","","99.30","","39","","","","Clear"
"2001-08-07 18:00","2001","08","07","18:00","33.5","","17.2","","38","","30","","28","","24.1","","99.31","","39","","","","Clear"
"2001-08-07 19:00","2001","08","07","19:00","32.0","","16.5","","39","","33","","26","","24.1","","99.32","","37","","","","Clear"
"2001-08-07 20:00","2001","08","07","20:00","30.2","","15.8","","42","","31","","22","","24.1","","99.33","","35","","","","Clear"
"2001-08-07 21:00","2001","08","07","21:00","28.7","","15.8","","46","","31","","17","","24.1","","99.37","","33","","","","Clear"
"2001-08-07 22:00","2001","08","07","22:00","27.3","","15.7","","49","","33","","13","","24.1","","99.40","","32","","","","Clear"
"2001-08-07 23:00","2001","08","07","23:00","25.7","","15.8","","54","","31","","15","","24.1","","99.45","","30","","","","Clear"
"2001-08-08 00:00","2001","08","08","00:00","25.3","","15.8","","56","","32","","11","","24.1","","99.46","","30","","","","Clear"
"2001-08-08 01:00","2001","08","08","01:00","24.8","","15.9","","58","","29","","9","","24.1","","99.45","","29","","","","Clear"
"2001-08-08 02:00","2001","08","08","02:00","24.8","","16.3","","59","","31","","15","","24.1","","99.42","","30","","","","Clear"
"2001-08-08 03:00","2001","08","08","03:00","23.3","","16.3","","65","","28","","9","","24.1","","99.40","","28","","","","Clear"
"2001-08-08 04:00","2001","08","08","04:00","22.1","","16.0","","68","","27","","9","","24.1","","99.42","","27","","","","Clear"
"2001-08-08 05:00","2001","08","08","05:00","21.7","","16.0","","70","","27","","7","","24.1","","99.41","","26","","","","Clear"
"2001-08-08 06:00","2001","08","08","06:00","21.5","","16.2","","72","","27","","9","","24.1","","99.42","","26","","","","Clear"
"2001-08-08 07:00","2001","08","08","07:00","23.7","","16.7","","65","","28","","9","","19.3","","99.47","","29","","","","Clear"
"2001-08-08 08:00","2001","08","08","08:00","26.8","","17.6","","57","","28","","11","","19.3","","99.47","","33","","","","Mainly Clear"
"2001-08-08 09:00","2001","08","08","09:00","30.0","","18.4","","50","","28","","13","","16.1","","99.42","","36","","","","Mainly Clear"
"2001-08-08 10:00","2001","08","08","10:00","32.8","","18.3","","42","","29","","15","","19.3","","99.36","","39","","","","Mainly Clear"
"2001-08-08 11:00","2001","08","08","11:00","34.6","","16.9","","35","","28","","22","","19.3","","99.36","","40","","","","Mostly Cloudy"
"2001-08-08 12:00","2001","08","08","12:00","35.6","","17.6","","35","","30","","22","","24.1","","99.35","","41","","","","Mostly Cloudy"
"2001-08-08 13:00","2001","08","08","13:00","36.6","","17.3","","32","","27","","30","","24.1","","99.29","","42","","","","Mostly Cloudy"
"2001-08-08 14:00","2001","08","08","14:00","36.7","","16.6","","31","","29","","20","","24.1","","99.25","","42","","","","Mostly Cloudy"
"2001-08-08 15:00","2001","08","08","15:00","37.2","","16.1","","29","","27","","28","","24.1","","99.20","","42","","","","Mostly Cloudy"
"2001-08-08 16:00","2001","08","08","16:00","36.1","","17.2","","33","","26","","28","","19.3","","99.13","","42","","","","Mostly Cloudy"
"2001-08-08 17:00","2001","08","08","17:00","35.2","","17.7","","36","","29","","26","","19.3","","99.17","","41","","","","Mostly Cloudy"
"2001-08-08 18:00","2001","08","08","18:00","34.2","","14.8","","31","","31","","24","","24.1","","99.18","","38","","","","Mostly Cloudy"
"2001-08-08 19:00","2001","08","08","19:00","32.8","","14.9","","34","","28","","24","","24.1","","99.15","","37","","","","Mostly Cloudy"
"2001-08-08 20:00","2001","08","08","20:00","30.2","","16.1","","43","","23","","7","","24.1","","99.05","","35","","","","Mostly Cloudy"
"2001-08-08 21:00","2001","08","08","21:00","28.8","","16.7","","48","","24","","13","","24.1","","99.07","","34","","","","Mainly Clear"
"2001-08-08 22:00","2001","08","08","22:00","29.3","","16.1","","45","","20","","9","","24.1","","99.06","","34","","","","Clear"
"2001-08-08 23:00","2001","08","08","23:00","27.5","","16.3","","50","","26","","7","","24.1","","99.09","","32","","","","Clear"
"2001-08-09 00:00","2001","08","09","00:00","25.8","","16.4","","56","","27","","11","","24.1","","99.10","","31","","","","Clear"
"2001-08-09 01:00","2001","08","09","01:00","26.0","","16.6","","56","","27","","9","","24.1","","99.09","","31","","","","Clear"
"2001-08-09 02:00","2001","08","09","02:00","26.5","","16.8","","55","","27","","19","","24.1","","99.05","","32","","","","Clear"
"2001-08-09 03:00","2001","08","09","03:00","26.9","","16.7","","54","","27","","15","","24.1","","99.05","","32","","","","Clear"
"2001-08-09 04:00","2001","08","09","04:00"
"2001-08-09 05:00","2001","08","09","05:00","26.1","","17.4","","59","","27","","9","","19.3","","99.10","","32","","","","Mostly Cloudy"
"2001-08-09 06:00","2001","08","09","06:00","26.2","","18.6","","63","","28","","11","","19.3","","99.11","","33","","","","Mainly Clear"
"2001-08-09 07:00","2001","08","09","07:00","26.6","","19.2","","64","","28","","9","","16.1","","99.14","","34","","","","Mainly Clear"
"2001-08-09 08:00","2001","08","09","08:00","28.7","","19.7","","58","","24","","11","","14.5","","99.11","","36","","","","Clear"
"2001-08-09 09:00","2001","08","09","09:00","31.2","","20.2","","52","","22","","13","","14.5","","99.08","","39","","","","Clear"
"2001-08-09 10:00","2001","08","09","10:00","33.3","","19.2","","43","","25","","24","","12.9","","99.05","","40","","","","Clear"
"2001-08-09 11:00","2001","08","09","11:00","34.4","","18.8","","40","","26","","32","","12.9","","98.98","","41","","","","Mainly Clear"
"2001-08-09 12:00","2001","08","09","12:00","34.5","","18.9","","40","","25","","33","","11.3","","98.93","","41","","","","Mainly Clear"
"2001-08-09 13:00","2001","08","09","13:00","35.0","","18.9","","39","","26","","30","","11.3","","98.89","","42","","","","Mainly Clear"
"2001-08-09 14:00","2001","08","09","14:00","35.4","","19.7","","40","","27","","32","","9.7","","98.81","","43","","","","Haze"
"2001-08-09 15:00","2001","08","09","15:00","35.2","","19.2","","39","","25","","20","","9.7","","98.74","","42","","","","Haze"
"2001-08-09 16:00","2001","08","09","16:00","34.7","","20.5","","44","","21","","35","","8.0","","98.70","","43","","","","Haze"
"2001-08-09 17:00","2001","08","09","17:00","33.8","","20.0","","44","","24","","37","","8.0","","98.64","","41","","","","Haze"
"2001-08-09 18:00","2001","08","09","18:00","32.3","","19.8","","48","","23","","35","","8.0","","98.63","","40","","","","Haze"
"2001-08-09 19:00","2001","08","09","19:00","30.8","","18.9","","49","","24","","30","","8.0","","98.68","","37","","","","Haze"
"2001-08-09 20:00","2001","08","09","20:00","30.1","","18.9","","51","","23","","22","","9.7","","98.65","","37","","","","Haze"
"2001-08-09 21:00","2001","08","09","21:00","29.0","","19.3","","56","","23","","24","","14.5","","98.68","","36","","","","Mostly Cloudy"
"2001-08-09 22:00","2001","08","09","22:00","27.9","","19.2","","59","","24","","20","","16.1","","98.67","","35","","","","Cloudy"
"2001-08-09 23:00","2001","08","09","23:00","26.5","","18.0","","60","","31","","9","","12.9","","98.67","","33","","","","Mostly Cloudy"
"2001-08-10 00:00","2001","08","10","00:00","26.0","","18.0","","61","","27","","9","","11.3","","98.66","","32","","","","Cloudy"
"2001-08-10 01:00","2001","08","10","01:00","24.8","","20.6","","78","","28","","7","","9.7","","98.66","","33","","","","Haze"
"2001-08-10 02:00","2001","08","10","02:00","24.0","","19.4","","75","","28","","17","","9.7","","98.67","","31","","","","Haze"
"2001-08-10 03:00","2001","08","10","03:00","23.3","","18.9","","76","","29","","15","","9.7","","98.72","","30","","","","Haze"
"2001-08-10 04:00","2001","08","10","04:00","22.8","","17.5","","72","","32","","24","","12.9","","98.74","","28","","","","Cloudy"
"2001-08-10 05:00","2001","08","10","05:00","22.3","","13.7","","58","","33","","24","","19.3","","98.86","","25","","","","Mostly Cloudy"
"2001-08-10 06:00","2001","08","10","06:00","22.1","","12.3","","54","","33","","24","","24.1","","98.94","","25","","","","Mostly Cloudy"
"2001-08-10 07:00","2001","08","10","07:00","22.1","","11.8","","52","","34","","24","","24.1","","99.05","","","","","","Mostly Cloudy"
"2001-08-10 08:00","2001","08","10","08:00","22.6","","11.0","","48","","34","","28","","24.1","","99.12","","","","","","Mostly Cloudy"
"2001-08-10 09:00","2001","08","10","09:00","24.3","","11.4","","44","","31","","22","","24.1","","99.16","","26","","","","Mostly Cloudy"
"2001-08-10 10:00","2001","08","10","10:00","25.4","","11.3","","41","","32","","32","","24.1","","99.19","","27","","","","Mainly Clear"
"2001-08-10 11:00","2001","08","10","11:00","26.8","","10.6","","36","","29","","19","","24.1","","99.22","","28","","","","Mainly Clear"
"2001-08-10 12:00","2001","08","10","12:00","27.5","","10.5","","35","","29","","24","","24.1","","99.19","","29","","","","Mainly Clear"
"2001-08-10 13:00","2001","08","10","13:00","27.8","","10.5","","34","","28","","19","","24.1","","99.20","","29","","","","Mainly Clear"
"2001-08-10 14:00","2001","08","10","14:00","29.3","","11.4","","33","","29","","28","","24.1","","99.19","","31","","","","Mainly Clear"
"2001-08-10 15:00","2001","08","10","15:00","28.8","","11.4","","34","","34","","22","","24.1","","99.17","","31","","","","Mainly Clear"
"2001-08-10 16:00","2001","08","10","16:00","27.9","","11.0","","35","","33","","26","","24.1","","99.19","","30","","","","Mainly Clear"
"2001-08-10 17:00","2001","08","10","17:00","27.1","","11.8","","39","","31","","26","","24.1","","99.24","","29","","","","Mainly Clear"
"2001-08-10 18:00","2001","08","10","18:00","25.1","","11.7","","43","","32","","32","","24.1","","99.34","","27","","","","Clear"
"2001-08-10 19:00","2001","08","10","19:00","22.3","","11.6","","51","","31","","33","","24.1","","99.43","","","","","","Clear"
"2001-08-10 20:00","2001","08","10","20:00","21.2","","11.2","","53","","32","","22","","24.1","","99.49","","","","","","Clear"
"2001-08-10 21:00","2001","08","10","21:00","20.5","","11.3","","56","","31","","24","","24.1","","99.55","","","","","","Clear"
"2001-08-10 22:00","2001","08","10","22:00","19.7","","11.4","","59","","33","","20","","24.1","","99.61","","","","","","Clear"
"2001-08-10 23:00","2001","08","10","23:00","18.7","","11.6","","63","","32","","19","","24.1","","99.64","","","","","","Clear"
"2001-08-11 00:00","2001","08","11","00:00","18.1","","11.8","","67","","32","","13","","24.1","","99.66","","","","","","Clear"
"2001-08-11 01:00","2001","08","11","01:00","17.0","","11.6","","70","","35","","13","","24.1","","99.65","","","","","","Clear"
"2001-08-11 02:00","2001","08","11","02:00","16.3","","11.5","","73","","36","","11","","24.1","","99.66","","","","","","Clear"
"2001-08-11 03:00","2001","08","11","03:00","16.5","","11.5","","72","","34","","13","","24.1","","99.68","","","","","","Clear"
"2001-08-11 04:00","2001","08","11","04:00","15.7","","11.2","","75","","35","","11","","24.1","","99.69","","","","","","Clear"
"2001-08-11 05:00","2001","08","11","05:00","15.9","","11.4","","75","","35","","11","","24.1","","99.74","","","","","","Mainly Clear"
"2001-08-11 06:00","2001","08","11","06:00","16.3","","11.8","","75","","35","","7","","24.1","","99.80","","","","","","Mainly Clear"
"2001-08-11 07:00","2001","08","11","07:00","17.7","","12.7","","73","","35","","9","","24.1","","99.84","","","","","","Mainly Clear"
"2001-08-11 08:00","2001","08","11","08:00","19.6","","13.9","","70","","36","","7","","24.1","","99.86","","","","","","Clear"
"2001-08-11 09:00","2001","08","11","09:00","22.1","","14.4","","62","","3","","6","","24.1","","99.87","","26","","","","Mainly Clear"
"2001-08-11 10:00","2001","08","11","10:00","23.7","","13.3","","52","","30","","11","","24.1","","99.86","","27","","","","Mainly Clear"
"2001-08-11 11:00","2001","08","11","11:00","24.0","","12.8","","50","","2","","6","","24.1","","99.84","","27","","","","Mostly Cloudy"
"2001-08-11 12:00","2001","08","11","12:00","26.2","","13.2","","45","","1","","6","","24.1","","99.78","","29","","","","Mostly Cloudy"
"2001-08-11 13:00","2001","08","11","13:00","26.3","","15.2","","50","","15","","17","","24.1","","99.76","","30","","","","Mostly Cloudy"
"2001-08-11 14:00","2001","08","11","14:00","25.3","","15.0","","53","","16","","17","","24.1","","99.72","","29","","","","Mainly Clear"
"2001-08-11 15:00","2001","08","11","15:00","25.9","","13.8","","47","","16","","15","","24.1","","99.67","","29","","","","Mainly Clear"
"2001-08-11 16:00","2001","08","11","16:00","25.8","","13.6","","47","","15","","15","","24.1","","99.64","","29","","","","Clear"
"2001-08-11 17:00","2001","08","11","17:00","25.6","","12.3","","44","","18","","13","","24.1","","99.64","","28","","","","Clear"
"2001-08-11 18:00","2001","08","11","18:00","24.4","","12.7","","48","","13","","11","","24.1","","99.63","","27","","","","Clear"
"2001-08-11 19:00","2001","08","11","19:00","23.4","","12.8","","51","","14","","11","","24.1","","99.66","","26","","","","Clear"
"2001-08-11 20:00","2001","08","11","20:00","22.6","","13.3","","56","","14","","6","","24.1","","99.68","","26","","","","Clear"
"2001-08-11 21:00","2001","08","11","21:00","21.7","","14.0","","62","","12","","4","","24.1","","99.71","","25","","","","Clear"
"2001-08-11 22:00","2001","08","11","22:00","20.8","","13.0","","61","","36","","13","","24.1","","99.76","","","","","","Clear"
"2001-08-11 23:00","2001","08","11","23:00","19.8","","13.4","","67","","36","","7","","24.1","","99.74","","","","","","Clear"
"2001-08-12 00:00","2001","08","12","00:00","19.1","","13.2","","69","","36","","7","","24.1","","99.74","","","","","","Clear"
"2001-08-12 01:00","2001","08","12","01:00","19.3","","12.8","","66","","1","","11","","24.1","","99.73","","","","","","Mostly Cloudy"
"2001-08-12 02:00","2001","08","12","02:00","18.9","","12.8","","68","","36","","11","","24.1","","99.68","","","","","","Mostly Cloudy"
"2001-08-12 03:00","2001","08","12","03:00","18.7","","12.5","","67","","3","","7","","24.1","","99.68","","","","","","Mostly Cloudy"
"2001-08-12 04:00","2001","08","12","04:00","17.9","","12.4","","70","","32","","13","","24.1","","99.71","","","","","","Mostly Cloudy"
"2001-08-12 05:00","2001","08","12","05:00","17.6","","11.2","","66","","33","","13","","24.1","","99.73","","","","","","Mainly Clear"
"2001-08-12 06:00","2001","08","12","06:00","17.5","","9.4","","59","","34","","7","","24.1","","99.78","","","","","","Mainly Clear"
"2001-08-12 07:00","2001","08","12","07:00","17.7","","8.6","","55","","34","","7","","24.1","","99.83","","","","","","Mainly Clear"
"2001-08-12 08:00","2001","08","12","08:00","20.0","","9.4","","50","","2","","4","","24.1","","99.88","","","","","","Mostly Cloudy"
"2001-08-12 09:00","2001","08","12","09:00","22.2","","9.7","","45","","","","0","","24.1","","99.86","","","","","","Mostly Cloudy"
"2001-08-12 10:00","2001","08","12","10:00","22.7","","10.3","","45","","9","","7","","24.1","","99.85","","","","","","Mostly Cloudy"
"2001-08-12 11:00","2001","08","12","11:00","24.5","","10.5","","41","","5","","9","","24.1","","99.80","","26","","","","Mostly Cloudy"
"2001-08-12 12:00","2001","08","12","12:00","25.2","","10.3","","39","","11","","9","","24.1","","99.72","","27","","","","Mainly Clear"
"2001-08-12 13:00","2001","08","12","13:00","26.6","","10.7","","37","","13","","15","","24.1","","99.69","","28","","","","Mostly Cloudy"
"2001-08-12 14:00","2001","08","12","14:00","27.2","","10.6","","35","","15","","19","","24.1","","99.68","","29","","","","Mainly Clear"
"2001-08-12 15:00","2001","08","12","15:00","25.3","","11.8","","43","","15","","17","","24.1","","99.65","","27","","","","Mainly Clear"
"2001-08-12 16:00","2001","08","12","16:00","26.3","","11.3","","39","","16","","15","","24.1","","99.60","","28","","","","Clear"
"2001-08-12 17:00","2001","08","12","17:00","26.2","","10.8","","38","","17","","17","","24.1","","99.54","","28","","","","Mainly Clear"
"2001-08-12 18:00","2001","08","12","18:00","25.0","","11.5","","43","","16","","11","","24.1","","99.52","","27","","","","Mainly Clear"
"2001-08-12 19:00","2001","08","12","19:00","24.1","","12.8","","49","","17","","9","","24.1","","99.53","","27","","","","Mainly Clear"
"2001-08-12 20:00","2001","08","12","20:00","23.5","","14.5","","57","","18","","11","","24.1","","99.53","","27","","","","Mainly Clear"
"2001-08-12 21:00","2001","08","12","21:00","23.5","","14.8","","58","","25","","9","","24.1","","99.56","","27","","","","Clear"
"2001-08-12 22:00","2001","08","12","22:00","22.5","","12.4","","53","","36","","17","","24.1","","99.59","","25","","","","Clear"
"2001-08-12 23:00","2001","08","12","23:00","21.5","","12.4","","56","","1","","9","","24.1","","99.60","","","","","","Clear"
"2001-08-13 00:00","2001","08","13","00:00","20.6","","12.3","","59","","32","","11","","24.1","","99.60","","","","","","Clear"
"2001-08-13 01:00","2001","08","13","01:00","20.3","","12.3","","60","","27","","6","","24.1","","99.58","","","","","","Clear"
"2001-08-13 02:00","2001","08","13","02:00","19.0","","12.2","","65","","27","","7","","24.1","","99.54","","","","","","Clear"
"2001-08-13 03:00","2001","08","13","03:00","18.8","","12.3","","66","","29","","7","","24.1","","99.52","","","","","","Mainly Clear"
"2001-08-13 04:00","2001","08","13","04:00","18.5","","12.5","","68","","28","","9","","24.1","","99.52","","","","","","Mainly Clear"
"2001-08-13 05:00","2001","08","13","05:00","18.8","","12.7","","68","","32","","7","","24.1","","99.51","","","","","","Mainly Clear"
"2001-08-13 06:00","2001","08","13","06:00","19.9","","13.2","","65","","26","","6","","19.3","","99.53","","","","","","Mostly Cloudy"
"2001-08-13 07:00","2001","08","13","07:00","21.8","","13.7","","60","","24","","6","","19.3","","99.57","","25","","","","Mostly Cloudy"
"2001-08-13 08:00","2001","08","13","08:00","23.0","","13.8","","56","","27","","7","","19.3","","99.60","","26","","","","Mostly Cloudy"
"2001-08-13 09:00","2001","08","13","09:00","23.4","","15.0","","59","","30","","4","","19.3","","99.61","","27","","","","Mostly Cloudy"
"2001-08-13 10:00","2001","08","13","10:00","24.1","","15.6","","59","","33","","11","","16.1","","99.64","","28","","","","Mostly Cloudy"
"2001-08-13 11:00","2001","08","13","11:00","24.4","","15.8","","59","","34","","13","","16.1","","99.63","","29","","","","Mostly Cloudy"
"2001-08-13 12:00","2001","08","13","12:00","26.2","","15.1","","50","","34","","22","","16.1","","99.57","","30","","","","Mostly Cloudy"
"2001-08-13 13:00","2001","08","13","13:00","25.9","","14.4","","49","","35","","20","","19.3","","99.53","","30","","","","Rain Showers"
"2001-08-13 14:00","2001","08","13","14:00","27.1","","15.1","","48","","36","","26","","19.3","","99.49","","31","","","","Mainly Clear"
"2001-08-13 15:00","2001","08","13","15:00","24.8","","13.8","","50","","35","","30","","19.3","","99.53","","28","","","","Rain Showers"
"2001-08-13 16:00","2001","08","13","16:00","25.7","","14.6","","50","","1","","30","","24.1","","99.51","","29","","","","Mainly Clear"
"2001-08-13 17:00","2001","08","13","17:00","25.0","","12.6","","46","","35","","30","","24.1","","99.53","","28","","","","Mainly Clear"
"2001-08-13 18:00","2001","08","13","18:00","23.6","","10.8","","44","","1","","30","","24.1","","99.53","","25","","","","Clear"
"2001-08-13 19:00","2001","08","13","19:00","22.1","","8.0","","40","","35","","32","","24.1","","99.59","","","","","","Mainly Clear"
"2001-08-13 20:00","2001","08","13","20:00","20.5","","6.7","","41","","34","","24","","24.1","","99.64","","","","","","Clear"
"2001-08-13 21:00","2001","08","13","21:00","19.3","","7.5","","46","","35","","24","","24.1","","99.70","","","","","","Clear"
"2001-08-13 22:00","2001","08","13","22:00","18.4","","6.9","","47","","34","","17","","24.1","","99.70","","","","","","Clear"
"2001-08-13 23:00","2001","08","13","23:00","17.3","","7.5","","52","","35","","19","","24.1","","99.68","","","","","","Clear"
"2001-08-14 00:00","2001","08","14","00:00","16.7","","8.2","","57","","34","","20","","24.1","","99.67","","","","","","Clear"
"2001-08-14 01:00","2001","08","14","01:00","16.2","","8.3","","59","","35","","22","","24.1","","99.64","","","","","","Clear"
"2001-08-14 02:00","2001","08","14","02:00","16.1","","9.2","","64","","35","","22","","24.1","","99.62","","","","","","Clear"
"2001-08-14 03:00","2001","08","14","03:00","16.1","","9.4","","64","","36","","22","","24.1","","99.63","","","","","","Mainly Clear"
"2001-08-14 04:00","2001","08","14","04:00","15.6","","9.1","","65","","36","","22","","24.1","","99.65","","","","","","Mostly Cloudy"
"2001-08-14 05:00","2001","08","14","05:00","15.6","","8.9","","64","","36","","19","","24.1","","99.68","","","","","","Mostly Cloudy"
"2001-08-14 06:00","2001","08","14","06:00","16.4","","8.7","","60","","35","","19","","24.1","","99.75","","","","","","Mostly Cloudy"
"2001-08-14 07:00","2001","08","14","07:00","17.2","","8.9","","58","","36","","19","","24.1","","99.78","","","","","","Mostly Cloudy"
"2001-08-14 08:00","2001","08","14","08:00","19.5","","8.9","","50","","2","","13","","24.1","","99.79","","","","","","Mostly Cloudy"
"2001-08-14 09:00","2001","08","14","09:00","21.9","","8.6","","43","","3","","13","","24.1","","99.80","","","","","","Mainly Clear"
"2001-08-14 10:00","2001","08","14","10:00","23.2","","6.3","","34","","7","","13","","24.1","","99.79","","","","","","Mainly Clear"
"2001-08-14 11:00","2001","08","14","11:00","24.7","","6.2","","30","","36","","20","","24.1","","99.77","","","","","","Mainly Clear"
"2001-08-14 12:00","2001","08","14","12:00","25.1","","5.3","","28","","36","","19","","24.1","","99.72","","","","","","Mainly Clear"
"2001-08-14 13:00","2001","08","14","13:00","25.6","","5.7","","28","","35","","17","","24.1","","99.66","","25","","","","Mainly Clear"
"2001-08-14 14:00","2001","08","14","14:00","24.9","","5.5","","29","","3","","7","","24.1","","99.63","","","","","","Mainly Clear"
"2001-08-14 15:00","2001","08","14","15:00","25.1","","8.1","","34","","12","","17","","24.1","","99.59","","26","","","","Mainly Clear"
"2001-08-14 16:00","2001","08","14","16:00","25.7","","8.1","","33","","16","","11","","24.1","","99.54","","26","","","","Mainly Clear"
"2001-08-14 17:00","2001","08","14","17:00","24.6","","8.3","","35","","18","","17","","24.1","","99.55","","25","","","","Mainly Clear"
"2001-08-14 18:00","2001","08","14","18:00","23.3","","8.3","","38","","17","","15","","24.1","","99.55","","","","","","Mainly Clear"
"2001-08-14 19:00","2001","08","14","19:00","22.8","","7.9","","38","","16","","9","","24.1","","99.56","","","","","","Mainly Clear"
"2001-08-14 20:00","2001","08","14","20:00","21.5","","8.8","","44","","16","","7","","24.1","","99.59","","","","","","Clear"
"2001-08-14 21:00","2001","08","14","21:00","20.9","","9.8","","49","","","","0","","24.1","","99.62","","","","","","Clear"
"2001-08-14 22:00","2001","08","14","22:00","20.0","","8.3","","47","","3","","6","","24.1","","99.63","","","","","","Clear"
"2001-08-14 23:00","2001","08","14","23:00","18.9","","7.6","","48","","1","","9","","24.1","","99.63","","","","","","Clear"
"2001-08-15 00:00","2001","08","15","00:00","19.0","","6.9","","45","","35","","6","","24.1","","99.64","","","","","","Clear"
"2001-08-15 01:00","2001","08","15","01:00","17.3","","6.8","","50","","35","","4","","24.1","","99.62","","","","","","Clear"
"2001-08-15 02:00","2001","08","15","02:00","16.3","","6.7","","53","","33","","9","","24.1","","99.62","","","","","","Clear"
"2001-08-15 03:00","2001","08","15","03:00","15.9","","6.8","","55","","2","","6","","24.1","","99.60","","","","","","Clear"
"2001-08-15 04:00","2001","08","15","04:00","15.3","","7.1","","58","","","","0","","24.1","","99.56","","","","","","Clear"
"2001-08-15 05:00","2001","08","15","05:00","14.9","","7.0","","59","","28","","7","","24.1","","99.62","","","","","","Clear"
"2001-08-15 06:00","2001","08","15","06:00","14.2","","7.6","","64","","27","","6","","24.1","","99.65","","","","","","Mainly Clear"
"2001-08-15 07:00","2001","08","15","07:00","18.0","","8.6","","54","","","","0","","19.3","","99.68","","","","","","Mainly Clear"
"2001-08-15 08:00","2001","08","15","08:00","20.2","","8.3","","46","","27","","6","","19.3","","99.69","","","","","","Clear"
"2001-08-15 09:00","2001","08","15","09:00","22.6","","7.6","","38","","25","","13","","24.1","","99.68","","","","","","Clear"
"2001-08-15 10:00","2001","08","15","10:00","25.0","","7.9","","34","","26","","11","","24.1","","99.69","","25","","","","Mainly Clear"
"2001-08-15 11:00","2001","08","15","11:00","26.2","","7.4","","30","","","","0","","24.1","","99.63","","26","","","","Mainly Clear"
"2001-08-15 12:00","2001","08","15","12:00","27.2","","7.3","","28","","25","","15","","24.1","","99.59","","27","","","","Mainly Clear"
"2001-08-15 13:00","2001","08","15","13:00","27.4","","8.8","","31","","16","","17","","24.1","","99.54","","28","","","","Clear"
"2001-08-15 14:00","2001","08","15","14:00","28.6","","8.7","","29","","16","","22","","24.1","","99.49","","29","","","","Clear"
"2001-08-15 15:00","2001","08","15","15:00","29.2","","7.9","","26","","20","","13","","24.1","","99.44","","30","","","","Mainly Clear"
"2001-08-15 16:00","2001","08","15","16:00","28.6","","8.8","","29","","18","","19","","24.1","","99.43","","29","","","","Mostly Cloudy"
"2001-08-15 17:00","2001","08","15","17:00","27.5","","9.0","","31","","17","","22","","24.1","","99.43","","28","","","","Mostly Cloudy"
"2001-08-15 18:00","2001","08","15","18:00","26.7","","7.4","","29","","17","","15","","24.1","","99.44","","27","","","","Mostly Cloudy"
"2001-08-15 19:00","2001","08","15","19:00","25.4","","8.4","","34","","18","","13","","24.1","","99.44","","26","","","","Cloudy"
"2001-08-15 20:00","2001","08","15","20:00","24.3","","8.3","","36","","18","","7","","24.1","","99.45","","25","","","","Mostly Cloudy"
"2001-08-15 21:00","2001","08","15","21:00","21.8","","11.4","","52","","22","","7","","24.1","","99.52","","","","","","Mainly Clear"
"2001-08-15 22:00","2001","08","15","22:00","22.3","","9.9","","45","","16","","6","","24.1","","99.50","","","","","","Mostly Cloudy"
"2001-08-15 23:00","2001","08","15","23:00","21.7","","10.5","","49","","16","","7","","24.1","","99.46","","","","","","Mostly Cloudy"
"2001-08-16 00:00","2001","08","16","00:00","21.3","","11.7","","54","","16","","11","","24.1","","99.43","","","","","","Mostly Cloudy"
"2001-08-16 01:00","2001","08","16","01:00","20.8","","13.4","","63","","19","","7","","24.1","","99.39","","","","","","Cloudy"
"2001-08-16 02:00","2001","08","16","02:00","21.1","","13.4","","61","","19","","7","","24.1","","99.37","","","","","","Cloudy"
"2001-08-16 03:00","2001","08","16","03:00","21.2","","12.0","","56","","23","","7","","24.1","","99.37","","","","","","Cloudy"
"2001-08-16 04:00","2001","08","16","04:00","20.0","","10.8","","55","","","","0","","24.1","","99.32","","","","","","Cloudy"
"2001-08-16 05:00","2001","08","16","05:00","19.9","","10.1","","53","","","","0","","24.1","","99.31","","","","","","Cloudy"
"2001-08-16 06:00","2001","08","16","06:00","20.5","","9.9","","51","","31","","4","","24.1","","99.37","","","","","","Cloudy"
"2001-08-16 07:00","2001","08","16","07:00","20.6","","10.5","","52","","2","","6","","19.3","","99.39","","","","","","Cloudy"
"2001-08-16 08:00","2001","08","16","08:00","22.6","","11.1","","48","","17","","4","","12.9","","99.39","","","","","","Cloudy"
"2001-08-16 09:00","2001","08","16","09:00","23.2","","13.8","","55","","17","","9","","16.1","","99.36","","26","","","","Cloudy"
"2001-08-16 10:00","2001","08","16","10:00","22.8","","15.7","","64","","17","","9","","16.1","","99.37","","27","","","","Rain Showers"
"2001-08-16 11:00","2001","08","16","11:00","23.2","","16.0","","64","","18","","9","","12.9","","99.35","","28","","","","Cloudy"
"2001-08-16 12:00","2001","08","16","12:00","23.6","","15.6","","61","","","","0","","16.1","","99.31","","28","","","","Cloudy"
"2001-08-16 13:00","2001","08","16","13:00","21.5","","16.2","","72","","33","","13","","12.9","","99.34","","26","","","","Rain Showers"
"2001-08-16 14:00","2001","08","16","14:00","20.9","","16.0","","74","","3","","7","","9.7","","99.31","","26","","","","Haze"
"2001-08-16 15:00","2001","08","16","15:00","21.2","","16.5","","75","","4","","9","","8.0","","99.23","","26","","","","Rain Showers,Haze"
"2001-08-16 16:00","2001","08","16","16:00","20.9","","16.3","","75","","4","","6","","4.8","","99.22","","26","","","","Rain Showers,Haze"
"2001-08-16 17:00","2001","08","16","17:00","20.8","","17.0","","79","","12","","9","","4.0","","99.23","","26","","","","Rain Showers,Haze"
"2001-08-16 18:00","2001","08","16","18:00","20.2","","17.2","","83","","15","","15","","4.0","","99.20","","26","","","","Rain,Haze"
"2001-08-16 19:00","2001","08","16","19:00","19.9","","16.7","","82","","12","","9","","4.8","","99.06","","","","","","Haze"
"2001-08-16 20:00","2001","08","16","20:00","19.8","","17.2","","85","","15","","17","","4.8","","99.09","","","","","","Rain,Haze"
"2001-08-16 21:00","2001","08","16","21:00","20.0","","17.4","","85","","15","","17","","4.0","","99.04","","26","","","","Rain,Haze"
"2001-08-16 22:00","2001","08","16","22:00","20.0","","17.2","","84","","12","","19","","4.8","","98.94","","25","","","","Haze"
"2001-08-16 23:00","2001","08","16","23:00","20.0","","17.6","","86","","13","","9","","4.8","","98.88","","26","","","","Haze"
"2001-08-17 00:00","2001","08","17","00:00","20.5","","18.0","","86","","17","","11","","4.0","","98.84","","27","","","","Haze"
"2001-08-17 01:00","2001","08","17","01:00","20.7","","18.1","","85","","19","","11","","4.0","","98.80","","27","","","","Haze"
"2001-08-17 02:00","2001","08","17","02:00","20.8","","17.0","","79","","25","","28","","8.0","","98.82","","26","","","","Haze"
"2001-08-17 03:00","2001","08","17","03:00","19.8","","16.1","","79","","23","","15","","14.5","","98.84","","","","","","Mostly Cloudy"
"2001-08-17 04:00","2001","08","17","04:00","19.3","","15.1","","77","","24","","22","","16.1","","98.87","","","","","","Mainly Clear"
"2001-08-17 05:00","2001","08","17","05:00","18.4","","14.6","","79","","25","","19","","24.1","","98.94","","","","","","Clear"
"2001-08-17 06:00","2001","08","17","06:00","18.7","","14.5","","77","","22","","19","","19.3","","99.00","","","","","","Mostly Cloudy"
"2001-08-17 07:00","2001","08","17","07:00","19.1","","14.7","","76","","24","","28","","19.3","","99.04","","","","","","Mostly Cloudy"
"2001-08-17 08:00","2001","08","17","08:00","20.5","","15.0","","71","","24","","30","","19.3","","99.01","","","","","","Mainly Clear"
"2001-08-17 09:00","2001","08","17","09:00","21.6","","15.0","","66","","26","","32","","19.3","","99.02","","26","","","","Mostly Cloudy"
"2001-08-17 10:00","2001","08","17","10:00","22.3","","14.4","","61","","25","","35","","19.3","","99.05","","26","","","","Mostly Cloudy"
"2001-08-17 11:00","2001","08","17","11:00","24.3","","14.8","","55","","25","","30","","19.3","","99.04","","28","","","","Mostly Cloudy"
"2001-08-17 12:00","2001","08","17","12:00","24.9","","13.9","","50","","26","","41","","19.3","","98.99","","28","","","","Mostly Cloudy"
"2001-08-17 13:00","2001","08","17","13:00","21.0","","15.2","","69","","26","","32","","19.3","","99.03","","25","","","","Mostly Cloudy"
"2001-08-17 14:00","2001","08","17","14:00","24.9","","14.5","","52","","27","","43","","24.1","","99.00","","29","","","","Mainly Clear"
"2001-08-17 15:00","2001","08","17","15:00","24.6","","14.3","","53","","26","","41","","24.1","","99.00","","28","","","","Mostly Cloudy"
"2001-08-17 16:00","2001","08","17","16:00","22.2","","15.0","","64","","28","","35","","24.1","","99.06","","26","","","","Mostly Cloudy"
"2001-08-17 17:00","2001","08","17","17:00","20.2","","15.8","","76","","28","","28","","19.3","","99.15","","25","","","","Rain Showers"
"2001-08-17 18:00","2001","08","17","18:00","21.7","","15.2","","67","","27","","30","","24.1","","99.21","","26","","","","Mostly Cloudy"
"2001-08-17 19:00","2001","08","17","19:00","20.7","","14.9","","69","","28","","26","","24.1","","99.25","","25","","","","Mostly Cloudy"
"2001-08-17 20:00","2001","08","17","20:00","20.6","","15.1","","71","","28","","20","","24.1","","99.30","","25","","","","Mostly Cloudy"
"2001-08-17 21:00","2001","08","17","21:00","20.3","","15.1","","72","","26","","24","","24.1","","99.34","","","","","","Mostly Cloudy"
"2001-08-17 22:00","2001","08","17","22:00","19.8","","15.0","","74","","27","","20","","24.1","","99.34","","","","","","Mainly Clear"
"2001-08-17 23:00","2001","08","17","23:00","18.8","","14.8","","78","","27","","13","","24.1","","99.37","","","","","","Mainly Clear"
"2001-08-18 00:00","2001","08","18","00:00","18.7","","14.8","","78","","28","","6","","24.1","","99.37","","","","","","Mainly Clear"
"2001-08-18 01:00","2001","08","18","01:00","18.4","","14.8","","80","","29","","11","","24.1","","99.40","","","","","","Mostly Cloudy"
"2001-08-18 02:00","2001","08","18","02:00","18.6","","14.9","","79","","28","","9","","24.1","","99.39","","","","","","Mostly Cloudy"
"2001-08-18 03:00","2001","08","18","03:00","16.9","","14.1","","84","","27","","9","","24.1","","99.38","","","","","","Mainly Clear"
"2001-08-18 04:00","2001","08","18","04:00","16.5","","14.1","","86","","24","","7","","24.1","","99.38","","","","","","Mostly Cloudy"
"2001-08-18 05:00","2001","08","18","05:00","16.7","","14.2","","85","","27","","9","","24.1","","99.40","","","","","","Mostly Cloudy"
"2001-08-18 06:00","2001","08","18","06:00","16.5","","14.1","","86","","27","","9","","24.1","","99.44","","","","","","Mostly Cloudy"
"2001-08-18 07:00","2001","08","18","07:00","17.4","","14.6","","84","","27","","7","","19.3","","99.46","","","","","","Mostly Cloudy"
"2001-08-18 08:00","2001","08","18","08:00","18.1","","14.4","","79","","28","","7","","24.1","","99.48","","","","","","Mainly Clear"
"2001-08-18 09:00","2001","08","18","09:00","19.7","","14.6","","72","","25","","9","","24.1","","99.50","","","","","","Mostly Cloudy"
"2001-08-18 10:00","2001","08","18","10:00","21.2","","14.5","","66","","30","","9","","24.1","","99.50","","25","","","","Mostly Cloudy"
"2001-08-18 11:00","2001","08","18","11:00","22.3","","14.1","","60","","28","","11","","24.1","","99.49","","26","","","","Mostly Cloudy"
"2001-08-18 12:00","2001","08","18","12:00","22.6","","14.0","","58","","28","","7","","24.1","","99.44","","26","","","","Mostly Cloudy"
"2001-08-18 13:00","2001","08","18","13:00","24.0","","14.0","","54","","26","","9","","24.1","","99.43","","27","","","","Mostly Cloudy"
"2001-08-18 14:00","2001","08","18","14:00","23.9","","13.7","","53","","25","","6","","24.1","","99.37","","27","","","","Mostly Cloudy"
"2001-08-18 15:00","2001","08","18","15:00","24.8","","13.7","","50","","17","","9","","24.1","","99.30","","28","","","","Mostly Cloudy"
"2001-08-18 16:00","2001","08","18","16:00","23.7","","14.1","","55","","18","","11","","24.1","","99.26","","27","","","","Mostly Cloudy"
"2001-08-18 17:00","2001","08","18","17:00","22.7","","14.5","","60","","17","","9","","24.1","","99.25","","26","","","","Mostly Cloudy"
"2001-08-18 18:00","2001","08","18","18:00","22.9","","14.2","","58","","17","","11","","24.1","","99.23","","26","","","","Mostly Cloudy"
"2001-08-18 19:00","2001","08","18","19:00","21.9","","14.2","","62","","13","","9","","24.1","","99.22","","25","","","","Mostly Cloudy"
"2001-08-18 20:00","2001","08","18","20:00","21.6","","14.6","","64","","13","","7","","24.1","","99.23","","25","","","","Mostly Cloudy"
"2001-08-18 21:00","2001","08","18","21:00","21.2","","14.5","","66","","16","","7","","24.1","","99.26","","25","","","","Cloudy"
"2001-08-18 22:00","2001","08","18","22:00","20.9","","14.8","","68","","6","","9","","24.1","","99.26","","25","","","","Cloudy"
"2001-08-18 23:00","2001","08","18","23:00","20.4","","14.9","","71","","8","","7","","24.1","","99.20","","","","","","Mostly Cloudy"
"2001-08-19 00:00","2001","08","19","00:00","19.9","","15.1","","74","","11","","6","","24.1","","99.20","","","","","","Mostly Cloudy"
"2001-08-19 01:00","2001","08","19","01:00","18.8","","15.2","","80","","9","","7","","24.1","","99.16","","","","","","Mainly Clear"
"2001-08-19 02:00","2001","08","19","02:00","18.4","","14.9","","80","","9","","6","","16.1","","99.13","","","","","","Clear"
"2001-08-19 03:00","2001","08","19","03:00","18.0","","14.8","","82","","12","","7","","16.1","","99.12","","","","","","Mainly Clear"
"2001-08-19 04:00","2001","08","19","04:00","18.1","","15.0","","82","","9","","7","","16.1","","99.08","","","","","","Cloudy"
"2001-08-19 05:00","2001","08","19","05:00","18.5","","15.3","","82","","9","","7","","6.4","","99.08","","","","","","Rain"
"2001-08-19 06:00","2001","08","19","06:00","18.3","","15.5","","84","","5","","11","","4.8","","99.07","","","","","","Rain"
"2001-08-19 07:00","2001","08","19","07:00","18.1","","15.3","","84","","7","","11","","4.8","","99.04","","","","","","Rain"
"2001-08-19 08:00","2001","08","19","08:00","17.7","","15.4","","86","","6","","11","","3.6","","99.04","","","","","","Moderate Rain"
"2001-08-19 09:00","2001","08","19","09:00","17.7","","15.3","","86","","6","","19","","3.6","","99.07","","","","","","Moderate Rain"
"2001-08-19 10:00","2001","08","19","10:00","18.0","","15.8","","87","","9","","17","","4.0","","99.08","","","","","","Rain,Fog"
"2001-08-19 11:00","2001","08","19","11:00","18.6","","16.6","","88","","12","","24","","6.4","","99.07","","","","","","Fog"
"2001-08-19 12:00","2001","08","19","12:00","19.8","","16.9","","83","","11","","17","","6.4","","99.02","","","","","","Haze"
"2001-08-19 13:00","2001","08","19","13:00","20.2","","16.4","","79","","13","","17","","11.3","","99.03","","25","","","","Cloudy"
"2001-08-19 14:00","2001","08","19","14:00","19.2","","17.0","","87","","10","","15","","4.0","","99.01","","","","","","Rain Showers,Fog"
"2001-08-19 15:00","2001","08","19","15:00","18.9","","16.8","","88","","9","","15","","3.6","","98.98","","","","","","Moderate Rain Showers,Fog"
"2001-08-19 16:00","2001","08","19","16:00","19.8","","17.1","","84","","10","","17","","6.4","","98.94","","","","","","Haze"
"2001-08-19 17:00","2001","08","19","17:00","20.3","","17.0","","81","","10","","9","","6.4","","98.93","","26","","","","Haze"
"2001-08-19 18:00","2001","08","19","18:00","20.1","","16.4","","79","","9","","13","","9.7","","98.94","","25","","","","Haze"
"2001-08-19 19:00","2001","08","19","19:00","19.5","","16.5","","83","","9","","11","","4.8","","98.95","","","","","","Haze"
"2001-08-19 20:00","2001","08","19","20:00","19.2","","16.7","","85","","9","","7","","6.4","","98.94","","","","","","Haze"
"2001-08-19 21:00","2001","08","19","21:00","19.7","","17.3","","86","","9","","7","","4.8","","98.93","","","","","","Haze"
"2001-08-19 22:00","2001","08","19","22:00","19.8","","17.2","","85","","4","","7","","6.4","","98.91","","","","","","Haze"
"2001-08-19 23:00","2001","08","19","23:00","19.8","","17.4","","86","","3","","6","","6.4","","98.89","","","","","","Haze"
"2001-08-20 00:00","2001","08","20","00:00","19.2","","16.7","","85","","2","","15","","4.8","","98.87","","","","","","Rain Showers,Haze"
"2001-08-20 01:00","2001","08","20","01:00","18.8","","16.8","","88","","2","","7","","6.4","","98.84","","","","","","Fog"
"2001-08-20 02:00","2001","08","20","02:00","19.1","","17.1","","88","","32","","6","","4.8","","98.85","","","","","","Fog"
"2001-08-20 03:00","2001","08","20","03:00","18.8","","16.8","","88","","31","","7","","4.0","","98.85","","","","","","Fog"
"2001-08-20 04:00","2001","08","20","04:00","18.4","","16.7","","90","","","","0","","4.0","","98.80","","","","","","Fog"
"2001-08-20 05:00","2001","08","20","05:00","18.1","","16.2","","89","","35","","4","","4.8","","98.84","","","","","","Fog"
"2001-08-20 06:00","2001","08","20","06:00","17.8","","15.9","","89","","26","","4","","3.6","","98.88","","","","","","Fog"
"2001-08-20 07:00","2001","08","20","07:00","19.0","","17.2","","89","","27","","6","","2.0","","98.92","","","","","","Fog"
"2001-08-20 08:00","2001","08","20","08:00","20.5","","17.0","","80","","24","","7","","4.0","","98.94","","26","","","","Haze"
"2001-08-20 09:00","2001","08","20","09:00","21.2","","16.9","","76","","","","0","","8.0","","99.00","","26","","","","Haze"
"2001-08-20 10:00","2001","08","20","10:00","22.2","","15.2","","65","","17","","7","","12.9","","98.99","","26","","","","Mostly Cloudy"
"2001-08-20 11:00","2001","08","20","11:00","21.9","","16.6","","72","","33","","6","","12.9","","99.01","","27","","","","Mostly Cloudy"
"2001-08-20 12:00","2001","08","20","12:00","19.5","","16.5","","83","","","","0","","11.3","","99.05","","","","","","Thunderstorms,Rain Showers"
"2001-08-20 13:00","2001","08","20","13:00","20.7","","17.2","","80","","23","","7","","12.9","","99.02","","26","","","","Cloudy"
"2001-08-20 14:00","2001","08","20","14:00","22.2","","16.3","","69","","16","","9","","16.1","","99.02","","27","","","","Cloudy"
"2001-08-20 15:00","2001","08","20","15:00","22.8","","15.4","","63","","19","","9","","16.1","","99.00","","27","","","","Mostly Cloudy"
"2001-08-20 16:00","2001","08","20","16:00","22.2","","16.2","","69","","17","","7","","16.1","","99.01","","27","","","","Mostly Cloudy"
"2001-08-20 17:00","2001","08","20","17:00","20.7","","16.4","","76","","22","","13","","4.8","","99.07","","26","","","","Thunderstorms,Rain Showers"
"2001-08-20 18:00","2001","08","20","18:00","19.3","","16.6","","84","","25","","9","","8.0","","99.07","","","","","","Rain Showers"
"2001-08-20 19:00","2001","08","20","19:00","19.3","","16.2","","82","","28","","9","","19.3","","99.09","","","","","","Mostly Cloudy"
"2001-08-20 20:00","2001","08","20","20:00","19.2","","15.4","","79","","36","","9","","19.3","","99.14","","","","","","Mostly Cloudy"
"2001-08-20 21:00","2001","08","20","21:00","18.8","","15.3","","80","","30","","7","","24.1","","99.17","","","","","","Mainly Clear"
"2001-08-20 22:00","2001","08","20","22:00","18.3","","15.1","","82","","29","","7","","24.1","","99.17","","","","","","Clear"
"2001-08-20 23:00","2001","08","20","23:00","17.0","","14.6","","86","","27","","7","","24.1","","99.21","","","","","","Clear"
"2001-08-21 00:00","2001","08","21","00:00","16.8","","14.2","","85","","29","","11","","24.1","","99.24","","","","","","Clear"
"2001-08-21 01:00","2001","08","21","01:00","16.4","","13.9","","85","","28","","11","","24.1","","99.25","","","","","","Mostly Cloudy"
"2001-08-21 02:00","2001","08","21","02:00","16.7","","14.1","","85","","28","","13","","19.3","","99.23","","","","","","Mainly Clear"
"2001-08-21 03:00","2001","08","21","03:00","17.4","","14.6","","84","","29","","13","","19.3","","99.27","","","","","","Mostly Cloudy"
"2001-08-21 04:00","2001","08","21","04:00","18.2","","14.6","","80","","31","","17","","19.3","","99.30","","","","","","Mostly Cloudy"
"2001-08-21 05:00","2001","08","21","05:00","17.4","","14.1","","81","","30","","19","","24.1","","99.35","","","","","","Mainly Clear"
"2001-08-21 06:00","2001","08","21","06:00","17.3","","14.2","","82","","29","","19","","19.3","","99.42","","","","","","Clear"
"2001-08-21 07:00","2001","08","21","07:00","18.2","","14.6","","80","","30","","19","","24.1","","99.47","","","","","","Clear"
"2001-08-21 08:00","2001","08","21","08:00","20.2","","14.9","","72","","30","","15","","24.1","","99.52","","","","","","Clear"
"2001-08-21 09:00","2001","08","21","09:00","21.6","","15.0","","66","","32","","22","","24.1","","99.52","","26","","","","Clear"
"2001-08-21 10:00","2001","08","21","10:00","23.7","","14.4","","56","","33","","19","","24.1","","99.54","","27","","","","Clear"
"2001-08-21 11:00","2001","08","21","11:00","25.2","","14.6","","52","","33","","13","","24.1","","99.55","","29","","","","Clear"
"2001-08-21 12:00","2001","08","21","12:00","26.6","","13.4","","44","","32","","30","","24.1","","99.55","","30","","","","Mostly Cloudy"
"2001-08-21 13:00","2001","08","21","13:00","25.4","","12.8","","46","","31","","24","","24.1","","99.53","","28","","","","Mostly Cloudy"
"2001-08-21 14:00","2001","08","21","14:00","26.7","","12.7","","42","","34","","24","","24.1","","99.52","","29","","","","Mainly Clear"
"2001-08-21 15:00","2001","08","21","15:00","26.6","","12.5","","42","","31","","20","","24.1","","99.51","","29","","","","Mainly Clear"
"2001-08-21 16:00","2001","08","21","16:00","25.7","","13.5","","47","","36","","15","","24.1","","99.48","","29","","","","Mainly Clear"
"2001-08-21 17:00","2001","08","21","17:00","26.5","","13.0","","43","","34","","15","","24.1","","99.48","","29","","","","Mainly Clear"
"2001-08-21 18:00","2001","08","21","18:00","24.7","","12.9","","48","","36","","13","","24.1","","99.50","","27","","","","Mostly Cloudy"
"2001-08-21 19:00","2001","08","21","19:00","23.7","","12.2","","48","","36","","15","","24.1","","99.53","","26","","","","Mainly Clear"
"2001-08-21 20:00","2001","08","21","20:00","23.1","","11.7","","49","","35","","13","","24.1","","99.61","","25","","","","Mainly Clear"
"2001-08-21 21:00","2001","08","21","21:00","22.0","","11.2","","50","","32","","15","","24.1","","99.65","","","","","","Clear"
"2001-08-21 22:00","2001","08","21","22:00","20.1","","11.3","","57","","32","","11","","24.1","","99.65","","","","","","Clear"
"2001-08-21 23:00","2001","08","21","23:00","19.4","","10.9","","58","","32","","13","","24.1","","99.69","","","","","","Clear"
"2001-08-22 00:00","2001","08","22","00:00","17.5","","10.7","","64","","29","","11","","24.1","","99.74","","","","","","Clear"
"2001-08-22 01:00","2001","08","22","01:00","15.9","","10.5","","70","","28","","9","","24.1","","99.75","","","","","","Clear"
"2001-08-22 02:00","2001","08","22","02:00","15.9","","10.5","","70","","29","","7","","24.1","","99.74","","","","","","Clear"
"2001-08-22 03:00","2001","08","22","03:00","16.0","","10.5","","70","","30","","6","","24.1","","99.76","","","","","","Clear"
"2001-08-22 04:00","2001","08","22","04:00","15.3","","10.8","","75","","","","0","","24.1","","99.74","","","","","","Clear"
"2001-08-22 05:00","2001","08","22","05:00","14.1","","10.5","","79","","","","0","","24.1","","99.77","","","","","","Clear"
"2001-08-22 06:00","2001","08","22","06:00","15.6","","10.9","","74","","","","0","","24.1","","99.76","","","","","","Mainly Clear"
"2001-08-22 07:00","2001","08","22","07:00","18.2","","12.0","","67","","","","0","","24.1","","99.76","","","","","","Mainly Clear"
"2001-08-22 08:00","2001","08","22","08:00","20.1","","12.5","","62","","20","","6","","24.1","","99.85","","","","","","Mainly Clear"
"2001-08-22 09:00","2001","08","22","09:00","22.3","","12.5","","54","","18","","9","","24.1","","99.84","","25","","","","Mostly Cloudy"
"2001-08-22 10:00","2001","08","22","10:00","24.4","","13.6","","51","","19","","11","","19.3","","99.83","","28","","","","Mostly Cloudy"
"2001-08-22 11:00","2001","08","22","11:00","24.5","","15.2","","56","","15","","15","","19.3","","99.85","","29","","","","Mostly Cloudy"
"2001-08-22 12:00","2001","08","22","12:00","25.7","","15.6","","54","","14","","15","","19.3","","99.78","","30","","","","Mostly Cloudy"
"2001-08-22 13:00","2001","08","22","13:00","26.8","","14.1","","46","","24","","22","","24.1","","99.76","","30","","","","Mostly Cloudy"
"2001-08-22 14:00","2001","08","22","14:00","26.6","","13.8","","45","","26","","22","","24.1","","99.71","","30","","","","Cloudy"
"2001-08-22 15:00","2001","08","22","15:00","26.8","","13.5","","44","","21","","19","","24.1","","99.63","","30","","","","Mostly Cloudy"
"2001-08-22 16:00","2001","08","22","16:00","26.7","","14.4","","47","","21","","15","","24.1","","99.56","","30","","","","Mostly Cloudy"
"2001-08-22 17:00","2001","08","22","17:00","26.1","","14.0","","47","","24","","13","","24.1","","99.51","","29","","","","Mostly Cloudy"
"2001-08-22 18:00","2001","08","22","18:00","25.5","","13.8","","48","","25","","13","","24.1","","99.51","","29","","","","Mostly Cloudy"
"2001-08-22 19:00","2001","08","22","19:00","24.1","","13.2","","51","","23","","15","","24.1","","99.55","","27","","","","Mostly Cloudy"
"2001-08-22 20:00","2001","08","22","20:00","23.0","","13.3","","54","","22","","15","","24.1","","99.55","","26","","","","Mainly Clear"
"2001-08-22 21:00","2001","08","22","21:00","22.1","","14.0","","60","","24","","13","","19.3","","99.54","","25","","","","Mostly Cloudy"
"2001-08-22 22:00","2001","08","22","22:00","21.0","","14.5","","66","","24","","9","","19.3","","99.57","","25","","","","Mainly Clear"
"2001-08-22 23:00","2001","08","22","23:00","20.5","","14.4","","68","","26","","7","","19.3","","99.51","","","","","","Clear"
"2001-08-23 00:00","2001","08","23","00:00","19.9","","14.4","","71","","26","","6","","19.3","","99.51","","","","","","Mostly Cloudy"
"2001-08-23 01:00","2001","08","23","01:00","19.1","","14.6","","75","","23","","7","","19.3","","99.55","","","","","","Mostly Cloudy"
"2001-08-23 02:00","2001","08","23","02:00","19.3","","15.0","","76","","24","","4","","16.1","","99.46","","","","","","Mainly Clear"
"2001-08-23 03:00","2001","08","23","03:00","18.8","","14.8","","78","","18","","4","","16.1","","99.48","","","","","","Mainly Clear"
"2001-08-23 04:00","2001","08","23","04:00","18.8","","14.9","","78","","","","0","","16.1","","99.43","","","","","","Mainly Clear"
"2001-08-23 05:00","2001","08","23","05:00","18.2","","14.8","","81","","32","","4","","12.9","","99.46","","","","","","Mainly Clear"
"2001-08-23 06:00","2001","08","23","06:00","19.1","","15.2","","78","","","","0","","6.4","","99.51","","","","","","Haze"
"2001-08-23 07:00","2001","08","23","07:00","19.6","","15.8","","79","","1","","6","","4.8","","99.52","","","","","","Haze"
"2001-08-23 08:00","2001","08","23","08:00","21.6","","16.2","","71","","33","","4","","6.4","","99.51","","26","","","","Haze"
"2001-08-23 09:00","2001","08","23","09:00","22.5","","16.7","","70","","27","","4","","9.7","","99.53","","28","","","","Haze"
"2001-08-23 10:00","2001","08","23","10:00","23.7","","16.9","","66","","33","","4","","11.3","","99.51","","29","","","","Mostly Cloudy"
"2001-08-23 11:00","2001","08","23","11:00","26.2","","16.9","","57","","","","0","","12.9","","99.50","","31","","","","Mostly Cloudy"
"2001-08-23 12:00","2001","08","23","12:00","26.0","","16.3","","55","","27","","4","","11.3","","99.47","","31","","","","Mostly Cloudy"
"2001-08-23 13:00","2001","08","23","13:00","26.8","","16.7","","54","","1","","9","","19.3","","99.43","","32","","","","Mostly Cloudy"
"2001-08-23 14:00","2001","08","23","14:00","26.1","","17.5","","59","","15","","9","","16.1","","99.41","","32","","","","Mostly Cloudy"
"2001-08-23 15:00","2001","08","23","15:00","25.3","","16.5","","58","","16","","13","","14.5","","99.42","","30","","","","Mostly Cloudy"
"2001-08-23 16:00","2001","08","23","16:00","25.1","","16.3","","58","","16","","9","","16.1","","99.44","","30","","","","Mostly Cloudy"
"2001-08-23 17:00","2001","08","23","17:00","23.9","","18.0","","70","","21","","11","","14.5","","99.47","","30","","","","Mostly Cloudy"
"2001-08-23 18:00","2001","08","23","18:00","25.3","","17.4","","62","","35","","24","","14.5","","99.49","","31","","","","Mostly Cloudy"
"2001-08-23 19:00","2001","08","23","19:00","22.3","","16.8","","71","","1","","22","","19.3","","99.56","","27","","","","Mainly Clear"
"2001-08-23 20:00","2001","08","23","20:00","21.7","","16.9","","74","","1","","19","","19.3","","99.61","","27","","","","Clear"
"2001-08-23 21:00","2001","08","23","21:00","20.5","","16.7","","79","","36","","17","","19.3","","99.68","","26","","","","Mainly Clear"
"2001-08-23 22:00","2001","08","23","22:00","20.5","","15.8","","74","","2","","17","","19.3","","99.72","","25","","","","Clear"
"2001-08-23 23:00","2001","08","23","23:00","20.1","","15.2","","73","","2","","13","","24.1","","99.76","","","","","","Clear"
"2001-08-24 00:00","2001","08","24","00:00","19.3","","15.2","","77","","36","","15","","19.3","","99.80","","","","","","Clear"
"2001-08-24 01:00","2001","08","24","01:00","18.8","","15.3","","80","","36","","15","","24.1","","99.82","","","","","","Clear"
"2001-08-24 02:00","2001","08","24","02:00","19.5","","14.6","","73","","5","","13","","24.1","","99.86","","","","","","Mostly Cloudy"
"2001-08-24 03:00","2001","08","24","03:00","19.2","","12.7","","66","","5","","17","","24.1","","99.89","","","","","","Mostly Cloudy"
"2001-08-24 04:00","2001","08","24","04:00","18.6","","12.3","","67","","5","","11","","24.1","","99.97","","","","","","Mostly Cloudy"
"2001-08-24 05:00","2001","08","24","05:00","17.9","","12.2","","69","","3","","11","","24.1","","100.02","","","","","","Mostly Cloudy"
"2001-08-24 06:00","2001","08","24","06:00","17.4","","11.6","","69","","4","","13","","24.1","","100.09","","","","","","Mainly Clear"
"2001-08-24 07:00","2001","08","24","07:00","17.5","","11.8","","69","","3","","13","","24.1","","100.16","","","","","","Mainly Clear"
"2001-08-24 08:00","2001","08","24","08:00","18.8","","11.0","","60","","4","","13","","24.1","","100.20","","","","","","Mainly Clear"
"2001-08-24 09:00","2001","08","24","09:00","19.9","","10.8","","56","","6","","13","","24.1","","100.19","","","","","","Mainly Clear"
"2001-08-24 10:00","2001","08","24","10:00","21.2","","11.3","","53","","8","","7","","24.1","","100.21","","","","","","Mainly Clear"
"2001-08-24 11:00","2001","08","24","11:00","21.9","","12.1","","54","","19","","11","","24.1","","100.19","","","","","","Clear"
"2001-08-24 12:00","2001","08","24","12:00","22.2","","12.6","","55","","14","","15","","24.1","","100.14","","25","","","","Clear"
"2001-08-24 13:00","2001","08","24","13:00","22.6","","13.2","","55","","15","","9","","24.1","","100.14","","26","","","","Mainly Clear"
"2001-08-24 14:00","2001","08","24","14:00","23.9","","13.1","","51","","13","","13","","24.1","","100.09","","27","","","","Mainly Clear"
"2001-08-24 15:00","2001","08","24","15:00","23.9","","12.5","","49","","15","","17","","24.1","","100.05","","26","","","","Mainly Clear"
"2001-08-24 16:00","2001","08","24","16:00","23.3","","11.7","","48","","14","","15","","24.1","","100.03","","25","","","","Mainly Clear"
"2001-08-24 17:00","2001","08","24","17:00","22.6","","13.0","","55","","15","","9","","24.1","","100.03","","25","","","","Mainly Clear"
"2001-08-24 18:00","2001","08","24","18:00","21.8","","12.8","","57","","17","","13","","24.1","","100.04","","","","","","Mainly Clear"
"2001-08-24 19:00","2001","08","24","19:00","20.4","","13.0","","62","","15","","7","","24.1","","100.05","","","","","","Mainly Clear"
"2001-08-24 20:00","2001","08","24","20:00","19.5","","14.0","","71","","13","","6","","24.1","","100.06","","","","","","Mainly Clear"
"2001-08-24 21:00","2001","08","24","21:00","19.5","","13.7","","69","","14","","6","","24.1","","100.07","","","","","","Clear"
"2001-08-24 22:00","2001","08","24","22:00","19.1","","14.1","","73","","10","","7","","24.1","","100.07","","","","","","Clear"
"2001-08-24 23:00","2001","08","24","23:00","18.8","","13.9","","73","","","","0","","24.1","","100.10","","","","","","Clear"
"2001-08-25 00:00","2001","08","25","00:00","17.9","","13.1","","73","","4","","6","","24.1","","100.05","","","","","","Clear"
"2001-08-25 01:00","2001","08","25","01:00","17.3","","12.8","","75","","1","","4","","24.1","","100.02","","","","","","Clear"
"2001-08-25 02:00","2001","08","25","02:00","16.0","","11.7","","76","","32","","4","","24.1","","100.03","","","","","","Clear"
"2001-08-25 03:00","2001","08","25","03:00","15.3","","11.7","","79","","","","0","","24.1","","100.01","","","","","","Clear"
"2001-08-25 04:00","2001","08","25","04:00","15.0","","11.6","","80","","6","","6","","24.1","","99.99","","","","","","Clear"
"2001-08-25 05:00","2001","08","25","05:00","14.7","","11.4","","81","","2","","7","","24.1","","100.00","","","","","","Clear"
"2001-08-25 06:00","2001","08","25","06:00","13.9","","11.0","","83","","1","","6","","19.3","","100.06","","","","","","Clear"
"2001-08-25 07:00","2001","08","25","07:00","16.0","","12.4","","79","","4","","6","","19.3","","100.05","","","","","","Mainly Clear"
"2001-08-25 08:00","2001","08","25","08:00","19.6","","12.9","","65","","13","","9","","19.3","","100.05","","","","","","Mainly Clear"
"2001-08-25 09:00","2001","08","25","09:00","21.2","","11.8","","55","","10","","17","","24.1","","100.04","","","","","","Mainly Clear"
"2001-08-25 10:00","2001","08","25","10:00","21.6","","10.9","","51","","14","","15","","24.1","","100.02","","","","","","Mainly Clear"
"2001-08-25 11:00","2001","08","25","11:00","23.2","","10.6","","45","","9","","13","","24.1","","99.98","","25","","","","Mainly Clear"
"2001-08-25 12:00","2001","08","25","12:00","23.3","","11.0","","46","","14","","19","","24.1","","99.91","","25","","","","Mainly Clear"
"2001-08-25 13:00","2001","08","25","13:00","24.1","","11.8","","46","","16","","13","","24.1","","99.88","","26","","","","Mainly Clear"
"2001-08-25 14:00","2001","08","25","14:00","24.2","","8.8","","37","","14","","13","","24.1","","99.81","","25","","","","Mostly Cloudy"
"2001-08-25 15:00","2001","08","25","15:00","24.5","","8.9","","37","","14","","9","","24.1","","99.75","","25","","","","Mostly Cloudy"
"2001-08-25 16:00","2001","08","25","16:00","25.3","","9.6","","37","","14","","13","","24.1","","99.69","","26","","","","Mostly Cloudy"
"2001-08-25 17:00","2001","08","25","17:00","23.3","","11.4","","47","","14","","11","","24.1","","99.66","","25","","","","Mostly Cloudy"
"2001-08-25 18:00","2001","08","25","18:00","21.9","","12.0","","53","","14","","13","","24.1","","99.60","","","","","","Mostly Cloudy"
"2001-08-25 19:00","2001","08","25","19:00","20.4","","12.6","","61","","13","","11","","24.1","","99.57","","","","","","Mostly Cloudy"
"2001-08-25 20:00","2001","08","25","20:00","20.1","","13.4","","65","","13","","7","","24.1","","99.56","","","","","","Mostly Cloudy"
"2001-08-25 21:00","2001","08","25","21:00","20.0","","13.7","","67","","13","","7","","24.1","","99.49","","","","","","Mostly Cloudy"
"2001-08-25 22:00","2001","08","25","22:00","19.8","","14.4","","71","","15","","7","","24.1","","99.46","","","","","","Mainly Clear"
"2001-08-25 23:00","2001","08","25","23:00","20.0","","15.0","","73","","13","","7","","24.1","","99.42","","","","","","Mainly Clear"
"2001-08-26 00:00","2001","08","26","00:00","20.2","","15.4","","74","","13","","7","","19.3","","99.37","","","","","","Clear"
"2001-08-26 01:00","2001","08","26","01:00","20.1","","16.3","","79","","12","","6","","16.1","","99.29","","25","","","","Mostly Cloudy"
"2001-08-26 02:00","2001","08","26","02:00","20.1","","16.4","","79","","15","","9","","16.1","","99.22","","25","","","","Cloudy"
"2001-08-26 03:00","2001","08","26","03:00","20.2","","16.6","","80","","17","","11","","12.9","","99.16","","25","","","","Cloudy"
"2001-08-26 04:00","2001","08","26","04:00","20.4","","16.7","","79","","17","","11","","11.3","","99.10","","25","","","","Cloudy"
"2001-08-26 05:00","2001","08","26","05:00","21.2","","17.0","","77","","18","","11","","11.3","","99.06","","26","","","","Cloudy"
"2001-08-26 06:00","2001","08","26","06:00","21.7","","17.2","","76","","18","","11","","6.4","","99.06","","27","","","","Haze"
"2001-08-26 07:00","2001","08","26","07:00","22.8","","17.7","","73","","22","","20","","8.0","","99.04","","29","","","","Haze"
"2001-08-26 08:00","2001","08","26","08:00","23.7","","18.2","","71","","20","","20","","8.0","","99.00","","30","","","","Haze"
"2001-08-26 09:00","2001","08","26","09:00","24.6","","19.0","","71","","23","","17","","6.4","","98.95","","31","","","","Haze"
"2001-08-26 10:00","2001","08","26","10:00","26.4","","19.5","","66","","23","","19","","11.3","","98.93","","34","","","","Mostly Cloudy"
"2001-08-26 11:00","2001","08","26","11:00","27.5","","19.7","","62","","23","","24","","11.3","","98.89","","35","","","","Mostly Cloudy"
"2001-08-26 12:00","2001","08","26","12:00","28.7","","20.2","","60","","22","","20","","12.9","","98.82","","36","","","","Cloudy"
"2001-08-26 13:00","2001","08","26","13:00","27.6","","20.4","","65","","24","","24","","11.3","","98.77","","36","","","","Cloudy"
"2001-08-26 14:00","2001","08","26","14:00","24.4","","20.2","","77","","22","","22","","8.0","","98.78","","32","","","","Haze"
"2001-08-26 15:00","2001","08","26","15:00","27.2","","20.0","","65","","25","","24","","16.1","","98.71","","35","","","","Mostly Cloudy"
"2001-08-26 16:00","2001","08","26","16:00","26.9","","19.2","","63","","28","","33","","24.1","","98.71","","34","","","","Mostly Cloudy"
"2001-08-26 17:00","2001","08","26","17:00","25.3","","17.6","","62","","32","","35","","24.1","","98.78","","31","","","","Mostly Cloudy"
"2001-08-26 18:00","2001","08","26","18:00","23.4","","16.7","","66","","32","","30","","24.1","","98.85","","28","","","","Mostly Cloudy"
"2001-08-26 19:00","2001","08","26","19:00","21.7","","16.6","","73","","36","","24","","24.1","","98.92","","27","","","","Mostly Cloudy"
"2001-08-26 20:00","2001","08","26","20:00","21.2","","15.7","","71","","34","","24","","24.1","","98.97","","26","","","","Mainly Clear"
"2001-08-26 21:00","2001","08","26","21:00","20.3","","15.5","","74","","34","","22","","24.1","","99.05","","25","","","","Clear"
"2001-08-26 22:00","2001","08","26","22:00","19.8","","15.4","","76","","33","","11","","24.1","","99.06","","","","","","Mainly Clear"
"2001-08-26 23:00","2001","08","26","23:00","19.3","","15.2","","77","","31","","9","","24.1","","99.10","","","","","","Mainly Clear"
"2001-08-27 00:00","2001","08","27","00:00","18.3","","15.0","","81","","29","","7","","19.3","","99.11","","","","","","Mainly Clear"
"2001-08-27 01:00","2001","08","27","01:00","17.8","","14.8","","83","","29","","9","","16.1","","99.12","","","","","","Mainly Clear"
"2001-08-27 02:00","2001","08","27","02:00","17.4","","14.5","","83","","30","","7","","14.5","","99.08","","","","","","Clear"
"2001-08-27 03:00","2001","08","27","03:00","16.3","","13.8","","85","","27","","9","","14.5","","99.10","","","","","","Clear"
"2001-08-27 04:00","2001","08","27","04:00","16.4","","14.0","","86","","28","","7","","14.5","","99.12","","","","","","Clear"
"2001-08-27 05:00","2001","08","27","05:00","16.4","","14.0","","86","","29","","7","","12.9","","99.14","","","","","","Clear"
"2001-08-27 06:00","2001","08","27","06:00","16.7","","14.7","","88","","29","","9","","8.0","","99.19","","","","","","Fog"
"2001-08-27 07:00","2001","08","27","07:00","18.1","","15.3","","84","","27","","7","","11.3","","99.23","","","","","","Clear"
"2001-08-27 08:00","2001","08","27","08:00","19.6","","15.6","","78","","28","","9","","12.9","","99.25","","","","","","Clear"
"2001-08-27 09:00","2001","08","27","09:00","21.0","","15.5","","71","","32","","4","","14.5","","99.24","","25","","","","Clear"
"2001-08-27 10:00","2001","08","27","10:00","23.6","","15.5","","60","","","","0","","19.3","","99.23","","28","","","","Clear"
"2001-08-27 11:00","2001","08","27","11:00","25.9","","13.6","","47","","30","","7","","24.1","","99.21","","29","","","","Clear"
"2001-08-27 12:00","2001","08","27","12:00","27.5","","13.0","","41","","28","","6","","24.1","","99.14","","30","","","","Mainly Clear"
"2001-08-27 13:00","2001","08","27","13:00","27.8","","10.3","","34","","27","","17","","24.1","","99.12","","29","","","","Mainly Clear"
"2001-08-27 14:00","2001","08","27","14:00","27.5","","14.7","","46","","17","","11","","24.1","","99.08","","31","","","","Mainly Clear"
"2001-08-27 15:00","2001","08","27","15:00","29.2","","9.4","","29","","29","","19","","24.1","","99.03","","30","","","","Mainly Clear"
"2001-08-27 16:00","2001","08","27","16:00","28.7","","12.5","","37","","29","","26","","24.1","","99.00","","31","","","","Mainly Clear"
"2001-08-27 17:00","2001","08","27","17:00","27.9","","12.7","","39","","24","","15","","24.1","","98.97","","31","","","","Mostly Cloudy"
"2001-08-27 18:00","2001","08","27","18:00","27.2","","12.8","","41","","25","","15","","24.1","","98.93","","30","","","","Mostly Cloudy"
"2001-08-27 19:00","2001","08","27","19:00","25.8","","12.6","","44","","28","","17","","24.1","","98.93","","28","","","","Mainly Clear"
"2001-08-27 20:00","2001","08","27","20:00","24.0","","12.9","","50","","28","","11","","24.1","","98.97","","27","","","","Clear"
"2001-08-27 21:00","2001","08","27","21:00","23.2","","15.5","","62","","23","","19","","24.1","","98.98","","27","","","","Mainly Clear"
"2001-08-27 22:00","2001","08","27","22:00","22.1","","15.2","","65","","25","","13","","24.1","","99.00","","26","","","","Mainly Clear"
"2001-08-27 23:00","2001","08","27","23:00","21.6","","14.4","","64","","25","","15","","19.3","","98.96","","25","","","","Mainly Clear"
"2001-08-28 00:00","2001","08","28","00:00","22.2","","13.2","","57","","22","","15","","19.3","","98.91","","25","","","","Mostly Cloudy"
"2001-08-28 01:00","2001","08","28","01:00","21.8","","13.7","","60","","22","","11","","19.3","","98.87","","25","","","","Cloudy"
"2001-08-28 02:00","2001","08","28","02:00","21.9","","13.2","","58","","22","","15","","24.1","","98.83","","25","","","","Cloudy"
"2001-08-28 03:00","2001","08","28","03:00","21.3","","14.5","","65","","23","","9","","24.1","","98.82","","25","","","","Cloudy"
"2001-08-28 04:00","2001","08","28","04:00","21.2","","15.2","","69","","33","","6","","24.1","","98.82","","25","","","","Cloudy"
"2001-08-28 05:00","2001","08","28","05:00","19.9","","16.1","","79","","21","","4","","11.3","","98.78","","","","","","Thunderstorms,Rain Showers"
"2001-08-28 06:00","2001","08","28","06:00","19.1","","16.3","","84","","18","","7","","11.3","","98.74","","","","","","Mostly Cloudy"
"2001-08-28 07:00","2001","08","28","07:00","18.9","","16.3","","85","","17","","6","","9.7","","98.83","","","","","","Haze"
"2001-08-28 08:00","2001","08","28","08:00","20.2","","17.2","","83","","28","","4","","9.7","","98.88","","26","","","","Haze"
"2001-08-28 09:00","2001","08","28","09:00","20.9","","16.4","","75","","34","","15","","9.7","","98.94","","26","","","","Haze"
"2001-08-28 10:00","2001","08","28","10:00","22.5","","16.5","","69","","1","","17","","16.1","","98.97","","27","","","","Mostly Cloudy"
"2001-08-28 11:00","2001","08","28","11:00","23.3","","15.9","","63","","32","","20","","19.3","","99.00","","28","","","","Mostly Cloudy"
"2001-08-28 12:00","2001","08","28","12:00","26.2","","14.8","","49","","31","","20","","24.1","","98.98","","30","","","","Mainly Clear"
"2001-08-28 13:00","2001","08","28","13:00","27.2","","12.9","","41","","31","","28","","24.1","","98.96","","30","","","","Mainly Clear"
"2001-08-28 14:00","2001","08","28","14:00","26.1","","13.4","","45","","33","","32","","24.1","","99.00","","29","","","","Mainly Clear"
"2001-08-28 15:00","2001","08","28","15:00","25.5","","11.8","","42","","36","","30","","24.1","","99.04","","28","","","","Mainly Clear"
"2001-08-28 16:00","2001","08","28","16:00","25.4","","11.4","","42","","36","","41","","24.1","","99.12","","27","","","","Clear"
"2001-08-28 17:00","2001","08","28","17:00","24.2","","10.6","","42","","35","","35","","24.1","","99.20","","26","","","","Clear"
"2001-08-28 18:00","2001","08","28","18:00","22.5","","10.5","","47","","34","","32","","24.1","","99.30","","","","","","Clear"
"2001-08-28 19:00","2001","08","28","19:00","21.5","","8.0","","42","","33","","24","","24.1","","99.40","","","","","","Clear"
"2001-08-28 20:00","2001","08","28","20:00","20.1","","7.9","","45","","35","","24","","24.1","","99.47","","","","","","Clear"
"2001-08-28 21:00","2001","08","28","21:00","19.2","","10.2","","56","","34","","28","","24.1","","99.54","","","","","","Clear"
"2001-08-28 22:00","2001","08","28","22:00","18.4","","10.7","","61","","34","","22","","24.1","","99.57","","","","","","Clear"
"2001-08-28 23:00","2001","08","28","23:00","17.2","","10.9","","66","","35","","17","","24.1","","99.58","","","","","","Clear"
"2001-08-29 00:00","2001","08","29","00:00","17.0","","11.0","","68","","33","","15","","24.1","","99.61","","","","","","Clear"
"2001-08-29 01:00","2001","08","29","01:00","16.4","","10.9","","70","","34","","22","","24.1","","99.63","","","","","","Clear"
"2001-08-29 02:00","2001","08","29","02:00","15.5","","10.5","","72","","34","","13","","24.1","","99.65","","","","","","Clear"
"2001-08-29 03:00","2001","08","29","03:00","14.9","","10.2","","73","","32","","15","","24.1","","99.70","","","","","","Clear"
"2001-08-29 04:00","2001","08","29","04:00","13.8","","9.7","","76","","36","","6","","24.1","","99.69","","","","","","Clear"
"2001-08-29 05:00","2001","08","29","05:00","14.0","","9.6","","75","","33","","7","","24.1","","99.74","","","","","","Clear"
"2001-08-29 06:00","2001","08","29","06:00","14.1","","9.7","","75","","36","","11","","24.1","","99.77","","","","","","Clear"
"2001-08-29 07:00","2001","08","29","07:00","15.1","","10.2","","73","","36","","6","","24.1","","99.85","","","","","","Clear"
"2001-08-29 08:00","2001","08","29","08:00","17.8","","10.7","","63","","3","","9","","24.1","","99.88","","","","","","Clear"
"2001-08-29 09:00","2001","08","29","09:00","20.2","","10.6","","54","","33","","6","","24.1","","99.91","","","","","","Clear"
"2001-08-29 10:00","2001","08","29","10:00","20.6","","10.2","","51","","27","","4","","24.1","","99.92","","","","","","Clear"
"2001-08-29 11:00","2001","08","29","11:00","21.9","","9.7","","46","","","","0","","24.1","","99.87","","","","","","Mainly Clear"
"2001-08-29 12:00","2001","08","29","12:00","22.6","","9.0","","42","","","","0","","24.1","","99.85","","","","","","Mainly Clear"
"2001-08-29 13:00","2001","08","29","13:00","21.9","","10.9","","50","","20","","7","","24.1","","99.79","","","","","","Mainly Clear"
"2001-08-29 14:00","2001","08","29","14:00","23.0","","10.8","","46","","18","","19","","24.1","","99.73","","25","","","","Mainly Clear"
"2001-08-29 15:00","2001","08","29","15:00","22.7","","9.7","","44","","17","","13","","24.1","","99.74","","","","","","Mainly Clear"
"2001-08-29 16:00","2001","08","29","16:00","22.6","","9.9","","44","","16","","17","","24.1","","99.75","","","","","","Mostly Cloudy"
"2001-08-29 17:00","2001","08","29","17:00","22.8","","11.0","","47","","16","","13","","24.1","","99.73","","25","","","","Mainly Clear"
"2001-08-29 18:00","2001","08","29","18:00","21.7","","10.8","","50","","12","","9","","24.1","","99.72","","","","","","Mainly Clear"
"2001-08-29 19:00","2001","08","29","19:00","20.9","","10.6","","52","","11","","7","","24.1","","99.71","","","","","","Mainly Clear"
"2001-08-29 20:00","2001","08","29","20:00","20.2","","10.8","","55","","13","","6","","24.1","","99.72","","","","","","Mainly Clear"
"2001-08-29 21:00","2001","08","29","21:00","19.7","","11.5","","59","","11","","6","","24.1","","99.69","","","","","","Clear"
"2001-08-29 22:00","2001","08","29","22:00","18.9","","11.7","","63","","15","","6","","24.1","","99.65","","","","","","Clear"
"2001-08-29 23:00","2001","08","29","23:00","18.0","","12.1","","68","","25","","6","","24.1","","99.62","","","","","","Clear"
"2001-08-30 00:00","2001","08","30","00:00","16.7","","11.0","","69","","29","","9","","24.1","","99.61","","","","","","Clear"
"2001-08-30 01:00","2001","08","30","01:00","17.0","","10.7","","66","","32","","4","","24.1","","99.62","","","","","","Clear"
"2001-08-30 02:00","2001","08","30","02:00","16.4","","10.7","","69","","32","","7","","24.1","","99.61","","","","","","Clear"
"2001-08-30 03:00","2001","08","30","03:00","15.8","","10.6","","71","","","","0","","24.1","","99.56","","","","","","Clear"
"2001-08-30 04:00","2001","08","30","04:00","15.2","","10.7","","74","","14","","4","","24.1","","99.60","","","","","","Clear"
"2001-08-30 05:00","2001","08","30","05:00","15.3","","10.7","","74","","","","0","","24.1","","99.60","","","","","","Clear"
"2001-08-30 06:00","2001","08","30","06:00","15.1","","10.6","","74","","","","0","","19.3","","99.57","","","","","","Clear"
"2001-08-30 07:00","2001","08","30","07:00","18.4","","11.7","","65","","13","","6","","16.1","","99.53","","","","","","Clear"
"2001-08-30 08:00","2001","08","30","08:00","20.1","","13.1","","64","","14","","11","","19.3","","99.49","","","","","","Mainly Clear"
"2001-08-30 09:00","2001","08","30","09:00","21.5","","14.6","","65","","14","","9","","19.3","","99.48","","25","","","","Mainly Clear"
"2001-08-30 10:00","2001","08","30","10:00","22.7","","14.9","","61","","16","","13","","19.3","","99.45","","27","","","","Mainly Clear"
"2001-08-30 11:00","2001","08","30","11:00","23.6","","15.1","","59","","14","","15","","19.3","","99.38","","28","","","","Mainly Clear"
"2001-08-30 12:00","2001","08","30","12:00","25.2","","15.0","","53","","15","","15","","24.1","","99.30","","29","","","","Clear"
"2001-08-30 13:00","2001","08","30","13:00","25.2","","14.4","","51","","15","","17","","24.1","","99.26","","29","","","","Clear"
"2001-08-30 14:00","2001","08","30","14:00","26.3","","14.3","","48","","16","","19","","24.1","","99.15","","30","","","","Clear"
"2001-08-30 15:00","2001","08","30","15:00","26.5","","14.6","","48","","17","","20","","24.1","","99.10","","30","","","","Clear"
"2001-08-30 16:00","2001","08","30","16:00","25.5","","15.0","","52","","16","","17","","24.1","","99.03","","29","","","","Clear"
"2001-08-30 17:00","2001","08","30","17:00","27.2","","15.1","","48","","21","","24","","24.1","","98.98","","31","","","","Clear"
"2001-08-30 18:00","2001","08","30","18:00","26.4","","13.6","","45","","22","","28","","24.1","","98.95","","30","","","","Clear"
"2001-08-30 19:00","2001","08","30","19:00","25.5","","14.3","","50","","22","","22","","24.1","","98.91","","29","","","","Clear"
"2001-08-30 20:00","2001","08","30","20:00","24.8","","14.7","","53","","20","","15","","19.3","","98.96","","29","","","","Mainly Clear"
"2001-08-30 21:00","2001","08","30","21:00","23.8","","14.7","","57","","20","","17","","16.1","","98.90","","28","","","","Clear"
"2001-08-30 22:00","2001","08","30","22:00","23.6","","14.5","","57","","20","","19","","16.1","","98.81","","27","","","","Clear"
"2001-08-30 23:00","2001","08","30","23:00","23.3","","14.5","","58","","21","","19","","16.1","","98.78","","27","","","","Clear"
"2001-08-31 00:00","2001","08","31","00:00","23.2","","14.8","","59","","21","","17","","16.1","","98.77","","27","","","","Mostly Cloudy"
"2001-08-31 01:00","2001","08","31","01:00","23.2","","15.5","","62","","23","","19","","14.5","","98.70","","27","","","","Cloudy"
"2001-08-31 02:00","2001","08","31","02:00","22.8","","16.3","","67","","24","","13","","14.5","","98.71","","28","","","","Cloudy"
"2001-08-31 03:00","2001","08","31","03:00","22.9","","17.2","","70","","25","","22","","12.9","","98.76","","28","","","","Cloudy"
"2001-08-31 04:00","2001","08","31","04:00","22.3","","17.4","","74","","25","","11","","11.3","","98.76","","28","","","","Mostly Cloudy"
"2001-08-31 05:00","2001","08","31","05:00","21.8","","16.6","","72","","26","","13","","11.3","","98.77","","27","","","","Mostly Cloudy"
"2001-08-31 06:00","2001","08","31","06:00","21.3","","16.0","","72","","25","","13","","16.1","","98.77","","26","","","","Mostly Cloudy"
"2001-08-31 07:00","2001","08","31","07:00","21.1","","15.3","","69","","25","","7","","24.1","","98.71","","25","","","","Rain Showers"
"2001-08-31 08:00","2001","08","31","08:00","21.7","","15.4","","67","","22","","9","","19.3","","98.78","","26","","","","Rain Showers"
"2001-08-31 09:00","2001","08","31","09:00","21.2","","16.1","","73","","24","","13","","12.9","","98.84","","26","","","","Rain Showers"
"2001-08-31 10:00","2001","08","31","10:00","21.2","","16.7","","76","","27","","9","","14.5","","98.83","","26","","","","Cloudy"
"2001-08-31 11:00","2001","08","31","11:00","22.2","","17.1","","73","","29","","15","","19.3","","98.81","","28","","","","Cloudy"
"2001-08-31 12:00","2001","08","31","12:00","22.7","","16.9","","70","","25","","7","","16.1","","98.72","","28","","","","Cloudy"
"2001-08-31 13:00","2001","08","31","13:00","23.1","","17.0","","69","","27","","20","","16.1","","98.74","","28","","","","Cloudy"
"2001-08-31 14:00","2001","08","31","14:00","23.6","","17.2","","67","","26","","17","","14.5","","98.70","","29","","","","Cloudy"
"2001-08-31 15:00","2001","08","31","15:00","23.9","","16.6","","64","","27","","22","","19.3","","98.65","","29","","","","Mostly Cloudy"
"2001-08-31 16:00","2001","08","31","16:00","24.8","","16.5","","60","","35","","26","","24.1","","98.63","","30","","","","Mostly Cloudy"
"2001-08-31 17:00","2001","08","31","17:00","23.0","","15.3","","62","","36","","32","","24.1","","98.70","","27","","","","Mostly Cloudy"
"2001-08-31 18:00","2001","08","31","18:00","21.4","","14.8","","66","","35","","20","","24.1","","98.79","","25","","","","Mostly Cloudy"
"2001-08-31 19:00","2001","08","31","19:00","20.2","","11.6","","58","","32","","33","","24.1","","98.84","","","","","","Mostly Cloudy"
"2001-08-31 20:00","2001","08","31","20:00","18.8","","12.5","","67","","35","","24","","24.1","","98.95","","","","","","Mostly Cloudy"
"2001-08-31 21:00","2001","08","31","21:00","17.3","","11.3","","68","","34","","33","","24.1","","99.05","","","","","","Mostly Cloudy"
"2001-08-31 22:00","2001","08","31","22:00","16.7","","10.2","","65","","34","","30","","24.1","","99.09","","","","","","Mostly Cloudy"
"2001-08-31 23:00","2001","08","31","23:00","16.2","","9.6","","65","","34","","28","","24.1","","99.17","","","","","","Mostly Cloudy"
