"Station Name","TORONTO LESTER B. PEARSON INT'L A"
"Province","ONTARIO"
"Latitude","43.68"
"Longitude","-79.63"
"Elevation","173.40"
"Climate Identifier","6158733"
"WMO Identifier","71624"
"TC Identifier","YYZ"
"All times are specified in Local Standard Time (LST). Add 1 hour to adjust for Daylight Saving Time where and when it is observed."

"Legend"
"E","Estimated"
"M","Missing"
"NA","Not Available"

"Date/Time","Year","Month","Day","Time","Temp (°C)","Temp Flag","Dew Point Temp (°C)","Dew Point Temp Flag","Rel Hum (%)","Rel Hum Flag","Wind Dir (10s deg)","Wind Dir Flag","Wind Spd (km/h)","Wind Spd Flag","Visibility (km)","Visibility Flag","Stn Press (kPa)","Stn Press Flag","Hmdx","Hmdx Flag","Wind Chill","Wind Chill Flag","Weather"
"2007-01-01 00:00","2007","01","01","00:00","4.2","","4.0","","99","","12","","13","","6.4","","98.52","","","","","","Rain,Fog"
"2007-01-01 01:00","2007","01","01","01:00","5.0","","4.9","","99","","12","","19","","4.8","","98.40","","","","","","Rain,Fog"
"2007-01-01 02:00","2007","01","01","02:00","5.2","","5.2","","100","","14","","19","","2.4","","98.39","","","","","","Rain,Fog"
"2007-01-01 03:00","2007","01","01","03:00","5.8","","5.7","","99","","16","","17","","0.8","","98.36","","","","","","Fog"
"2007-01-01 04:00","2007","01","01","04:00","7.4","","7.0","","97","","22","","28","","24.1","","98.42","","","","","","Mainly Clear"
"2007-01-01 05:00","2007","01","01","05:00","8.0","","5.1","","82","","21","","26","","24.1","","98.43","","","","","","Mainly Clear"
"2007-01-01 06:00","2007","01","01","06:00","7.9","","4.3","","78","","22","","26","","24.1","","98.47","","","","","","Clear"
"2007-01-01 07:00","2007","01","01","07:00","7.2","","3.3","","76","","23","","26","","24.1","","98.54","","","","","","Clear"
"2007-01-01 08:00","2007","01","01","08:00","5.5","","2.9","","83","","22","","13","","24.1","","98.56","","","","","","Mainly Clear"
"2007-01-01 09:00","2007","01","01","09:00","6.7","","3.6","","81","","22","","20","","24.1","","98.62","","","","","","Mostly Cloudy"
"2007-01-01 10:00","2007","01","01","10:00","7.9","","3.4","","73","","24","","30","","24.1","","98.63","","","","","","Mostly Cloudy"
"2007-01-01 11:00","2007","01","01","11:00","8.7","","3.2","","68","","25","","30","","24.1","","98.58","","","","","","Mostly Cloudy"
"2007-01-01 12:00","2007","01","01","12:00","8.5","","2.2","","65","","25","","37","","24.1","","98.58","","","","","","Mostly Cloudy"
"2007-01-01 13:00","2007","01","01","13:00","8.4","","2.3","","65","","25","","32","","24.1","","98.55","","","","","","Mostly Cloudy"
"2007-01-01 14:00","2007","01","01","14:00","8.0","","2.3","","67","","25","","30","","24.1","","98.52","","","","","","Cloudy"
"2007-01-01 15:00","2007","01","01","15:00","8.1","","1.7","","64","","24","","30","","24.1","","98.55","","","","","","Mostly Cloudy"
"2007-01-01 16:00","2007","01","01","16:00","7.5","","2.2","","69","","25","","24","","24.1","","98.64","","","","","","Cloudy"
"2007-01-01 17:00","2007","01","01","17:00","6.4","","2.9","","78","","27","","22","","24.1","","98.72","","","","","","Rain Showers"
"2007-01-01 18:00","2007","01","01","18:00","5.5","","2.1","","79","","27","","30","","24.1","","98.78","","","","","","Mostly Cloudy"
"2007-01-01 19:00","2007","01","01","19:00","5.1","","1.8","","79","","27","","26","","24.1","","98.87","","","","","","Mostly Cloudy"
"2007-01-01 20:00","2007","01","01","20:00","5.1","","1.5","","78","","30","","30","","24.1","","98.94","","","","","","Mostly Cloudy"
"2007-01-01 21:00","2007","01","01","21:00","4.7","","0.9","","76","","29","","28","","24.1","","99.02","","","","","","Mostly Cloudy"
"2007-01-01 22:00","2007","01","01","22:00","3.9","","0.4","","78","","32","","32","","24.1","","99.16","","","","","","Mostly Cloudy"
"2007-01-01 23:00","2007","01","01","23:00","3.3","","-1.2","","72","","32","","35","","24.1","","99.31","","","","","","Mostly Cloudy"
"2007-01-02 00:00","2007","01","02","00:00","2.6","","-1.8","","73","","33","","37","","24.1","","99.42","","","","","","Mostly Cloudy"
"2007-01-02 01:00","2007","01","02","01:00","1.4","","-4.4","","65","","31","","32","","24.1","","99.53","","","","","","Clear"
"2007-01-02 02:00","2007","01","02","02:00","1.0","","-4.3","","68","","30","","35","","24.1","","99.70","","","","","","Clear"
"2007-01-02 03:00","2007","01","02","03:00","0.2","","-5.5","","65","","30","","20","","24.1","","99.86","","","","","","Clear"
"2007-01-02 04:00","2007","01","02","04:00","-0.9","","-5.3","","72","","31","","11","","24.1","","99.94","","","","-5","","Clear"
"2007-01-02 05:00","2007","01","02","05:00","-0.8","","-4.4","","77","","29","","15","","24.1","","100.01","","","","-5","","Clear"
"2007-01-02 06:00","2007","01","02","06:00","-2.1","","-4.4","","84","","27","","13","","24.1","","100.10","","","","-7","","Mainly Clear"
"2007-01-02 07:00","2007","01","02","07:00","-1.2","","-3.8","","82","","25","","9","","24.1","","100.20","","","","-4","","Mainly Clear"
"2007-01-02 08:00","2007","01","02","08:00","-1.2","","-3.5","","84","","24","","13","","24.1","","100.29","","","","-5","","Mainly Clear"
"2007-01-02 09:00","2007","01","02","09:00","0.8","","-2.0","","82","","26","","15","","24.1","","100.37","","","","","","Clear"
"2007-01-02 10:00","2007","01","02","10:00","2.9","","-1.4","","73","","25","","19","","24.1","","100.45","","","","","","Mainly Clear"
"2007-01-02 11:00","2007","01","02","11:00","3.7","","-1.7","","68","","28","","24","","24.1","","100.50","","","","","","Mostly Cloudy"
"2007-01-02 12:00","2007","01","02","12:00","4.8","","-1.8","","62","","27","","24","","24.1","","100.45","","","","","","Mainly Clear"
"2007-01-02 13:00","2007","01","02","13:00","5.4","","-2.6","","56","","25","","24","","24.1","","100.42","","","","","","Mainly Clear"
"2007-01-02 14:00","2007","01","02","14:00","5.6","","-2.2","","57","","25","","30","","24.1","","100.39","","","","","","Clear"
"2007-01-02 15:00","2007","01","02","15:00","4.4","","-3.7","","56","","25","","22","","24.1","","100.40","","","","","","Mainly Clear"
"2007-01-02 16:00","2007","01","02","16:00","4.2","","-3.2","","59","","25","","19","","24.1","","100.40","","","","","","Mainly Clear"
"2007-01-02 17:00","2007","01","02","17:00","2.6","","-3.4","","65","","24","","17","","24.1","","100.40","","","","","","Mainly Clear"
"2007-01-02 18:00","2007","01","02","18:00","2.7","","-3.8","","62","","23","","19","","24.1","","100.41","","","","","","Clear"
"2007-01-02 19:00","2007","01","02","19:00","2.9","","-2.8","","66","","22","","24","","24.1","","100.44","","","","","","Clear"
"2007-01-02 20:00","2007","01","02","20:00","1.9","","-1.7","","77","","21","","11","","24.1","","100.42","","","","","","Clear"
"2007-01-02 21:00","2007","01","02","21:00","1.1","","-1.7","","82","","20","","9","","24.1","","100.39","","","","","","Clear"
"2007-01-02 22:00","2007","01","02","22:00","0.7","","-1.6","","85","","17","","9","","24.1","","100.33","","","","","","Clear"
"2007-01-02 23:00","2007","01","02","23:00","0.6","","-2.7","","79","","21","","9","","24.1","","100.29","","","","","","Clear"
"2007-01-03 00:00","2007","01","03","00:00","1.5","","-2.1","","77","","22","","19","","24.1","","100.24","","","","","","Clear"
"2007-01-03 01:00","2007","01","03","01:00","1.4","","-2.1","","77","","22","","11","","24.1","","100.24","","","","","","Clear"
"2007-01-03 02:00","2007","01","03","02:00","0.3","","-2.1","","84","","18","","7","","24.1","","100.23","","","","","","Clear"
"2007-01-03 03:00","2007","01","03","03:00","0.4","","-1.7","","86","","18","","11","","24.1","","100.21","","","","","","Clear"
"2007-01-03 04:00","2007","01","03","04:00","0.3","","-1.4","","88","","16","","6","","24.1","","100.14","","","","","","Clear"
"2007-01-03 05:00","2007","01","03","05:00","0.2","","-1.3","","90","","19","","7","","24.1","","100.11","","","","","","Clear"
"2007-01-03 06:00","2007","01","03","06:00","0.7","","-1.1","","88","","21","","13","","24.1","","100.05","","","","","","Clear"
"2007-01-03 07:00","2007","01","03","07:00","0.6","","-1.4","","86","","20","","9","","24.1","","100.01","","","","","","Clear"
"2007-01-03 08:00","2007","01","03","08:00","1.2","","-0.9","","86","","22","","19","","19.3","","99.95","","","","","","Mostly Cloudy"
"2007-01-03 09:00","2007","01","03","09:00","1.8","","-0.5","","85","","23","","22","","24.1","","99.91","","","","","","Mainly Clear"
"2007-01-03 10:00","2007","01","03","10:00","3.7","","0.0","","77","","23","","33","","24.1","","99.88","","","","","","Mainly Clear"
"2007-01-03 11:00","2007","01","03","11:00","5.0","","0.1","","71","","23","","28","","24.1","","99.89","","","","","","Mostly Cloudy"
"2007-01-03 12:00","2007","01","03","12:00","5.8","","-0.4","","64","","23","","24","","24.1","","99.79","","","","","","Mostly Cloudy"
"2007-01-03 13:00","2007","01","03","13:00","7.2","","-0.2","","59","","22","","24","","24.1","","99.70","","","","","","Mostly Cloudy"
"2007-01-03 14:00","2007","01","03","14:00","7.4","","1.4","","66","","23","","30","","24.1","","99.66","","","","","","Mostly Cloudy"
"2007-01-03 15:00","2007","01","03","15:00","7.6","","-0.8","","55","","23","","22","","24.1","","99.68","","","","","","Mostly Cloudy"
"2007-01-03 16:00","2007","01","03","16:00","7.6","","-0.8","","55","","22","","19","","24.1","","99.67","","","","","","Mostly Cloudy"
"2007-01-03 17:00","2007","01","03","17:00","6.7","","-0.1","","62","","21","","19","","24.1","","99.68","","","","","","Mostly Cloudy"
"2007-01-03 18:00","2007","01","03","18:00","5.7","","0.0","","67","","21","","19","","24.1","","99.69","","","","","","Mostly Cloudy"
"2007-01-03 19:00","2007","01","03","19:00","4.5","","0.1","","73","","23","","17","","24.1","","99.73","","","","","","Mostly Cloudy"
"2007-01-03 20:00","2007","01","03","20:00","4.1","","0.0","","75","","23","","26","","24.1","","99.71","","","","","","Mostly Cloudy"
"2007-01-03 21:00","2007","01","03","21:00","4.9","","-0.3","","69","","24","","39","","24.1","","99.65","","","","","","Mainly Clear"
"2007-01-03 22:00","2007","01","03","22:00","5.4","","0.5","","71","","24","","35","","19.3","","99.63","","","","","","Clear"
"2007-01-03 23:00","2007","01","03","23:00","5.3","","0.9","","73","","24","","30","","19.3","","99.64","","","","","","Clear"
"2007-01-04 00:00","2007","01","04","00:00","5.2","","0.9","","74","","22","","19","","24.1","","99.56","","","","","","Clear"
"2007-01-04 01:00","2007","01","04","01:00","4.8","","1.3","","78","","23","","24","","24.1","","99.52","","","","","","Clear"
"2007-01-04 02:00","2007","01","04","02:00","4.7","","1.4","","79","","23","","19","","24.1","","99.51","","","","","","Clear"
"2007-01-04 03:00","2007","01","04","03:00","5.1","","1.7","","79","","20","","7","","24.1","","99.50","","","","","","Mostly Cloudy"
"2007-01-04 04:00","2007","01","04","04:00","5.2","","2.2","","81","","21","","15","","24.1","","99.47","","","","","","Mostly Cloudy"
"2007-01-04 05:00","2007","01","04","05:00","5.2","","2.2","","81","","21","","19","","24.1","","99.41","","","","","","Mostly Cloudy"
"2007-01-04 06:00","2007","01","04","06:00","5.4","","2.1","","79","","20","","17","","24.1","","99.40","","","","","","Mostly Cloudy"
"2007-01-04 07:00","2007","01","04","07:00","5.5","","2.1","","79","","21","","15","","24.1","","99.40","","","","","","Mainly Clear"
"2007-01-04 08:00","2007","01","04","08:00","5.0","","2.0","","81","","20","","11","","24.1","","99.39","","","","","","Mainly Clear"
"2007-01-04 09:00","2007","01","04","09:00","5.7","","2.3","","79","","19","","17","","24.1","","99.37","","","","","","Mostly Cloudy"
"2007-01-04 10:00","2007","01","04","10:00","7.1","","2.9","","75","","22","","30","","24.1","","99.37","","","","","","Mainly Clear"
"2007-01-04 11:00","2007","01","04","11:00","8.5","","3.1","","69","","22","","26","","24.1","","99.34","","","","","","Mainly Clear"
"2007-01-04 12:00","2007","01","04","12:00","10.0","","3.4","","64","","21","","22","","24.1","","99.24","","","","","","Mainly Clear"
"2007-01-04 13:00","2007","01","04","13:00","11.1","","2.9","","57","","22","","24","","24.1","","99.15","","","","","","Mostly Cloudy"
"2007-01-04 14:00","2007","01","04","14:00","11.4","","2.9","","56","","22","","20","","24.1","","99.09","","","","","","Mostly Cloudy"
"2007-01-04 15:00","2007","01","04","15:00","10.2","","2.5","","59","","22","","32","","24.1","","99.09","","","","","","Mostly Cloudy"
"2007-01-04 16:00","2007","01","04","16:00","10.0","","2.6","","60","","22","","22","","24.1","","99.11","","","","","","Cloudy"
"2007-01-04 17:00","2007","01","04","17:00","10.4","","1.8","","55","","21","","28","","24.1","","99.05","","","","","","Cloudy"
"2007-01-04 18:00","2007","01","04","18:00","10.3","","1.8","","56","","20","","26","","24.1","","99.01","","","","","","Mostly Cloudy"
"2007-01-04 19:00","2007","01","04","19:00","9.9","","2.7","","61","","21","","30","","24.1","","99.04","","","","","","Rain Showers"
"2007-01-04 20:00","2007","01","04","20:00","8.5","","5.0","","79","","22","","26","","19.3","","99.03","","","","","","Rain"
"2007-01-04 21:00","2007","01","04","21:00","8.0","","6.1","","88","","20","","20","","16.1","","99.00","","","","","","Rain"
"2007-01-04 22:00","2007","01","04","22:00","8.1","","6.3","","88","","21","","24","","16.1","","98.97","","","","","","Rain"
"2007-01-04 23:00","2007","01","04","23:00","8.6","","6.1","","84","","21","","17","","19.3","","98.84","","","","","","Rain"
"2007-01-05 00:00","2007","01","05","00:00","8.7","","6.1","","84","","21","","22","","24.1","","98.75","","","","","","Rain"
"2007-01-05 01:00","2007","01","05","01:00","8.6","","6.6","","87","","21","","20","","24.1","","98.65","","","","","","Rain"
"2007-01-05 02:00","2007","01","05","02:00","8.5","","6.9","","90","","22","","19","","16.1","","98.59","","","","","","Rain"
"2007-01-05 03:00","2007","01","05","03:00","8.1","","7.5","","96","","17","","11","","16.1","","98.50","","","","","","Rain"
"2007-01-05 04:00","2007","01","05","04:00","8.2","","7.8","","97","","18","","13","","14.5","","98.39","","","","","","Rain"
"2007-01-05 05:00","2007","01","05","05:00","7.9","","7.7","","99","","16","","17","","9.7","","98.33","","","","","","Fog"
"2007-01-05 06:00","2007","01","05","06:00","9.1","","8.9","","99","","21","","13","","9.7","","98.45","","","","","","Fog"
"2007-01-05 07:00","2007","01","05","07:00","9.9","","9.1","","95","","21","","13","","16.1","","98.48","","","","","","Cloudy"
"2007-01-05 08:00","2007","01","05","08:00","10.3","","9.2","","93","","23","","13","","16.1","","98.51","","","","","","Cloudy"
"2007-01-05 09:00","2007","01","05","09:00","10.4","","8.8","","90","","25","","19","","19.3","","98.57","","","","","","Cloudy"
"2007-01-05 10:00","2007","01","05","10:00","10.4","","8.8","","90","","25","","15","","16.1","","98.65","","","","","","Cloudy"
"2007-01-05 11:00","2007","01","05","11:00","10.7","","8.7","","87","","25","","24","","24.1","","98.66","","","","","","Cloudy"
"2007-01-05 12:00","2007","01","05","12:00","10.7","","8.7","","87","","26","","11","","24.1","","98.62","","","","","","Cloudy"
"2007-01-05 13:00","2007","01","05","13:00","10.5","","9.1","","91","","27","","9","","24.1","","98.58","","","","","","Cloudy"
"2007-01-05 14:00","2007","01","05","14:00","10.5","","9.0","","90","","27","","6","","24.1","","98.55","","","","","","Cloudy"
"2007-01-05 15:00","2007","01","05","15:00","10.7","","9.0","","89","","30","","4","","24.1","","98.55","","","","","","Cloudy"
"2007-01-05 16:00","2007","01","05","16:00","10.7","","8.8","","88","","","","0","","19.3","","98.53","","","","","","Cloudy"
"2007-01-05 17:00","2007","01","05","17:00","10.8","","8.9","","88","","11","","6","","14.5","","98.56","","","","","","Cloudy"
"2007-01-05 18:00","2007","01","05","18:00","10.2","","8.8","","91","","","","0","","16.1","","98.58","","","","","","Cloudy"
"2007-01-05 19:00","2007","01","05","19:00","10.2","","9.2","","94","","12","","4","","16.1","","98.56","","","","","","Cloudy"
"2007-01-05 20:00","2007","01","05","20:00","10.0","","9.6","","97","","10","","4","","6.4","","98.50","","","","","","Rain Showers,Fog"
"2007-01-05 21:00","2007","01","05","21:00","9.7","","9.6","","99","","5","","7","","2.4","","98.39","","","","","","Rain Showers,Fog"
"2007-01-05 22:00","2007","01","05","22:00","9.6","","9.5","","99","","4","","4","","1.2","","98.40","","","","","","Drizzle,Fog"
"2007-01-05 23:00","2007","01","05","23:00","9.7","","9.7","","100","","14","","4","","0.4","","98.32","","","","","","Drizzle,Fog"
"2007-01-06 00:00","2007","01","06","00:00","8.8","","8.8","","100","","13","","17","","0.2","","98.09","","","","","","Rain,Fog"
"2007-01-06 01:00","2007","01","06","01:00","8.6","","8.6","","100","","2","","4","","8.0","","98.16","","","","","","Rain,Fog"
"2007-01-06 02:00","2007","01","06","02:00","8.7","","8.7","","100","","15","","6","","4.8","","98.06","","","","","","Rain,Fog"
"2007-01-06 03:00","2007","01","06","03:00","8.7","","8.7","","100","","12","","4","","4.8","","98.03","","","","","","Drizzle,Fog"
"2007-01-06 04:00","2007","01","06","04:00","8.7","","8.7","","100","","13","","6","","6.4","","97.95","","","","","","Fog"
"2007-01-06 05:00","2007","01","06","05:00","8.6","","8.6","","100","","","","0","","8.0","","97.92","","","","","","Rain Showers,Fog"
"2007-01-06 06:00","2007","01","06","06:00","8.5","","8.5","","100","","25","","6","","4.0","","97.94","","","","","","Drizzle,Fog"
"2007-01-06 07:00","2007","01","06","07:00","8.9","","8.9","","100","","","","0","","3.2","","97.90","","","","","","Rain,Fog"
"2007-01-06 08:00","2007","01","06","08:00","8.3","","8.3","","100","","32","","19","","3.6","","97.89","","","","","","Drizzle,Fog"
"2007-01-06 09:00","2007","01","06","09:00","7.9","","7.9","","100","","31","","19","","19.3","","98.03","","","","","","Cloudy"
"2007-01-06 10:00","2007","01","06","10:00","8.1","","7.3","","95","","25","","17","","24.1","","98.18","","","","","","Cloudy"
"2007-01-06 11:00","2007","01","06","11:00","8.1","","7.5","","96","","25","","19","","3.2","","98.21","","","","","","Drizzle,Fog"
"2007-01-06 12:00","2007","01","06","12:00","6.9","","5.1","","88","","31","","32","","24.1","","98.28","","","","","","Rain"
"2007-01-06 13:00","2007","01","06","13:00","6.8","","3.6","","80","","30","","33","","24.1","","98.39","","","","","","Mostly Cloudy"
"2007-01-06 14:00","2007","01","06","14:00","6.8","","2.8","","76","","30","","32","","24.1","","98.54","","","","","","Mostly Cloudy"
"2007-01-06 15:00","2007","01","06","15:00","6.7","","2.2","","73","","29","","32","","24.1","","98.71","","","","","","Mostly Cloudy"
"2007-01-06 16:00","2007","01","06","16:00","5.8","","1.3","","73","","28","","26","","24.1","","98.91","","","","","","Cloudy"
"2007-01-06 17:00","2007","01","06","17:00","5.5","","1.3","","74","","27","","30","","24.1","","99.06","","","","","","Mostly Cloudy"
"2007-01-06 18:00","2007","01","06","18:00","4.4","","0.0","","73","","28","","26","","24.1","","99.21","","","","","","Clear"
"2007-01-06 19:00","2007","01","06","19:00","3.5","","0.1","","78","","27","","17","","24.1","","99.32","","","","","","Mainly Clear"
"2007-01-06 20:00","2007","01","06","20:00","3.2","","-0.1","","79","","28","","19","","24.1","","99.46","","","","","","Mainly Clear"
"2007-01-06 21:00","2007","01","06","21:00","1.9","","-1.1","","80","","27","","15","","24.1","","99.54","","","","","","Mainly Clear"
"2007-01-06 22:00","2007","01","06","22:00","1.3","","-1.4","","82","","25","","15","","24.1","","99.64","","","","","","Mainly Clear"
"2007-01-06 23:00","2007","01","06","23:00","3.6","","-0.3","","76","","30","","13","","24.1","","99.79","","","","","","Mostly Cloudy"
"2007-01-07 00:00","2007","01","07","00:00","3.4","","0.0","","78","","25","","4","","24.1","","99.88","","","","","","Mostly Cloudy"
"2007-01-07 01:00","2007","01","07","01:00","3.7","","-3.1","","61","","29","","28","","24.1","","99.96","","","","","","Mostly Cloudy"
"2007-01-07 02:00","2007","01","07","02:00","3.6","","-3.4","","60","","27","","13","","24.1","","100.05","","","","","","Mostly Cloudy"
"2007-01-07 03:00","2007","01","07","03:00","3.4","","-2.7","","64","","27","","15","","24.1","","100.16","","","","","","Mostly Cloudy"
"2007-01-07 04:00","2007","01","07","04:00","2.9","","-2.8","","66","","23","","13","","24.1","","100.26","","","","","","Cloudy"
"2007-01-07 05:00","2007","01","07","05:00","2.6","","-2.7","","68","","25","","13","","24.1","","100.31","","","","","","Cloudy"
"2007-01-07 06:00","2007","01","07","06:00","2.4","","-2.7","","69","","24","","9","","24.1","","100.36","","","","","","Mostly Cloudy"
"2007-01-07 07:00","2007","01","07","07:00","2.3","","-3.2","","67","","22","","11","","24.1","","100.40","","","","","","Cloudy"
"2007-01-07 08:00","2007","01","07","08:00","2.0","","-3.0","","69","","22","","9","","24.1","","100.39","","","","","","Mostly Cloudy"
"2007-01-07 09:00","2007","01","07","09:00","2.5","","-3.2","","66","","22","","13","","24.1","","100.49","","","","","","Mostly Cloudy"
"2007-01-07 10:00","2007","01","07","10:00","3.0","","-3.8","","61","","23","","15","","24.1","","100.44","","","","","","Mostly Cloudy"
"2007-01-07 11:00","2007","01","07","11:00","3.4","","-4.1","","58","","22","","9","","24.1","","100.39","","","","","","Mostly Cloudy"
"2007-01-07 12:00","2007","01","07","12:00","4.4","","-3.6","","56","","20","","13","","24.1","","100.24","","","","","","Mostly Cloudy"
"2007-01-07 13:00","2007","01","07","13:00","3.8","","-3.0","","61","","18","","11","","24.1","","100.15","","","","","","Cloudy"
"2007-01-07 14:00","2007","01","07","14:00","4.0","","-2.8","","61","","19","","11","","24.1","","100.02","","","","","","Cloudy"
"2007-01-07 15:00","2007","01","07","15:00","3.4","","-2.7","","64","","13","","13","","24.1","","99.89","","","","","","Cloudy"
"2007-01-07 16:00","2007","01","07","16:00","3.1","","-2.7","","66","","12","","7","","24.1","","99.81","","","","","","Cloudy"
"2007-01-07 17:00","2007","01","07","17:00","3.3","","-2.2","","67","","12","","11","","24.1","","99.78","","","","","","Cloudy"
"2007-01-07 18:00","2007","01","07","18:00","3.3","","-1.5","","71","","7","","20","","24.1","","99.58","","","","","","Snow"
"2007-01-07 19:00","2007","01","07","19:00","3.2","","-1.1","","73","","4","","19","","24.1","","99.39","","","","","","Mostly Cloudy"
"2007-01-07 20:00","2007","01","07","20:00","3.5","","-0.8","","73","","9","","11","","24.1","","99.32","","","","","","Cloudy"
"2007-01-07 21:00","2007","01","07","21:00","3.8","","0.0","","76","","8","","20","","24.1","","99.10","","","","","","Cloudy"
"2007-01-07 22:00","2007","01","07","22:00","4.1","","1.2","","81","","9","","17","","24.1","","98.84","","","","","","Cloudy"
"2007-01-07 23:00","2007","01","07","23:00","2.8","","1.7","","92","","12","","30","","16.1","","98.62","","","","","","Rain Showers"
"2007-01-08 00:00","2007","01","08","00:00","2.7","","1.9","","94","","10","","22","","9.7","","98.43","","","","","","Rain Showers,Fog"
"2007-01-08 01:00","2007","01","08","01:00","2.7","","2.2","","97","","10","","19","","9.7","","98.20","","","","","","Rain Showers,Fog"
"2007-01-08 02:00","2007","01","08","02:00","2.8","","2.4","","97","","10","","19","","9.7","","98.04","","","","","","Rain Showers,Fog"
"2007-01-08 03:00","2007","01","08","03:00","3.0","","2.7","","98","","11","","9","","9.7","","97.98","","","","","","Rain Showers,Fog"
"2007-01-08 04:00","2007","01","08","04:00","3.3","","2.9","","97","","18","","6","","9.7","","97.87","","","","","","Rain Showers,Fog"
"2007-01-08 05:00","2007","01","08","05:00","3.2","","2.9","","98","","19","","7","","9.7","","97.73","","","","","","Drizzle,Fog"
"2007-01-08 06:00","2007","01","08","06:00","3.1","","2.9","","99","","23","","17","","9.7","","97.76","","","","","","Rain,Fog"
"2007-01-08 07:00","2007","01","08","07:00","2.6","","1.9","","95","","25","","26","","12.9","","97.78","","","","","","Rain"
"2007-01-08 08:00","2007","01","08","08:00","2.4","","1.1","","91","","25","","35","","24.1","","97.85","","","","","","Cloudy"
"2007-01-08 09:00","2007","01","08","09:00","2.5","","1.0","","90","","24","","33","","24.1","","97.88","","","","","","Mostly Cloudy"
"2007-01-08 10:00","2007","01","08","10:00","2.5","","1.2","","91","","25","","41","","8.0","","97.94","","","","","","Rain Showers,Snow Showers"
"2007-01-08 11:00","2007","01","08","11:00","3.6","","1.4","","86","","26","","39","","24.1","","97.86","","","","","","Mainly Clear"
"2007-01-08 12:00","2007","01","08","12:00","3.1","","-0.5","","77","","25","","48","","24.1","","97.87","","","","","","Mostly Cloudy"
"2007-01-08 13:00","2007","01","08","13:00","3.6","","-1.1","","71","","26","","54","","24.1","","97.86","","","","","","Mainly Clear"
"2007-01-08 14:00","2007","01","08","14:00","3.5","","-2.8","","63","","26","","67","","24.1","","97.94","","","","","","Mostly Cloudy"
"2007-01-08 15:00","2007","01","08","15:00","2.9","","-3.6","","62","","27","","46","","24.1","","98.02","","","","","","Mainly Clear"
"2007-01-08 16:00","2007","01","08","16:00","2.6","","-3.7","","63","","27","","44","","24.1","","98.22","","","","","","Mostly Cloudy"
"2007-01-08 17:00","2007","01","08","17:00","1.5","","-3.9","","67","","26","","35","","24.1","","98.34","","","","","","Cloudy"
"2007-01-08 18:00","2007","01","08","18:00","0.9","","-4.2","","69","","26","","37","","24.1","","98.43","","","","","","Mostly Cloudy"
"2007-01-08 19:00","2007","01","08","19:00","0.6","","-4.3","","70","","26","","41","","24.1","","98.50","","","","","","Mostly Cloudy"
"2007-01-08 20:00","2007","01","08","20:00","0.4","","-5.4","","65","","27","","43","","24.1","","98.58","","","","","","Cloudy"
"2007-01-08 21:00","2007","01","08","21:00","0.0","","-5.3","","67","","27","","35","","24.1","","98.60","","","","-7","","Cloudy"
"2007-01-08 22:00","2007","01","08","22:00","0.2","","-6.6","","60","","27","","33","","24.1","","98.58","","","","","","Mostly Cloudy"
"2007-01-08 23:00","2007","01","08","23:00","0.0","","-6.7","","61","","26","","30","","24.1","","98.55","","","","-6","","Mostly Cloudy"
"2007-01-09 00:00","2007","01","09","00:00","-0.2","","-7.7","","57","","26","","35","","24.1","","98.54","","","","-7","","Mainly Clear"
"2007-01-09 01:00","2007","01","09","01:00","-1.9","","-7.0","","68","","23","","15","","24.1","","98.49","","","","-7","","Clear"
"2007-01-09 02:00","2007","01","09","02:00","-2.3","","-5.8","","77","","23","","13","","24.1","","98.48","","","","-7","","Clear"
"2007-01-09 03:00","2007","01","09","03:00","-2.6","","-6.0","","77","","24","","13","","24.1","","98.45","","","","-7","","Clear"
"2007-01-09 04:00","2007","01","09","04:00","-2.0","","-5.1","","79","","23","","15","","24.1","","98.40","","","","-7","","Mainly Clear"
"2007-01-09 05:00","2007","01","09","05:00","-2.1","","-4.3","","85","","23","","13","","24.1","","98.39","","","","-7","","Mainly Clear"
"2007-01-09 06:00","2007","01","09","06:00","-2.9","","-5.1","","85","","25","","11","","24.1","","98.39","","","","-7","","Clear"
"2007-01-09 07:00","2007","01","09","07:00","-3.2","","-5.6","","83","","26","","15","","24.1","","98.41","","","","-8","","Mainly Clear"
"2007-01-09 08:00","2007","01","09","08:00","-2.0","","-5.9","","75","","25","","19","","24.1","","98.45","","","","-8","","Mainly Clear"
"2007-01-09 09:00","2007","01","09","09:00","-1.0","","-6.3","","67","","26","","20","","24.1","","98.49","","","","-7","","Mostly Cloudy"
"2007-01-09 10:00","2007","01","09","10:00","-0.6","","-6.5","","64","","27","","22","","24.1","","98.52","","","","-6","","Mainly Clear"
"2007-01-09 11:00","2007","01","09","11:00","1.0","","-6.9","","56","","27","","33","","24.1","","98.51","","","","","","Mainly Clear"
"2007-01-09 12:00","2007","01","09","12:00","1.1","","-7.6","","52","","27","","35","","24.1","","98.50","","","","","","Mostly Cloudy"
"2007-01-09 13:00","2007","01","09","13:00","0.7","","-7.7","","53","","29","","43","","24.1","","98.50","","","","","","Mostly Cloudy"
"2007-01-09 14:00","2007","01","09","14:00","0.8","","-7.4","","54","","28","","35","","24.1","","98.54","","","","","","Mostly Cloudy"
"2007-01-09 15:00","2007","01","09","15:00","0.4","","-7.7","","55","","28","","39","","24.1","","98.62","","","","","","Mostly Cloudy"
"2007-01-09 16:00","2007","01","09","16:00","-0.2","","-8.3","","54","","29","","37","","24.1","","98.74","","","","-7","","Mostly Cloudy"
"2007-01-09 17:00","2007","01","09","17:00","-1.0","","-8.2","","58","","29","","33","","24.1","","98.85","","","","-8","","Mostly Cloudy"
"2007-01-09 18:00","2007","01","09","18:00","-1.7","","-8.4","","60","","28","","37","","24.1","","98.95","","","","-9","","Mostly Cloudy"
"2007-01-09 19:00","2007","01","09","19:00","-2.1","","-8.9","","60","","27","","26","","24.1","","99.02","","","","-9","","Mainly Clear"
"2007-01-09 20:00","2007","01","09","20:00","-2.7","","-8.0","","67","","27","","26","","24.1","","99.07","","","","-10","","Mainly Clear"
"2007-01-09 21:00","2007","01","09","21:00","-2.2","","-6.7","","71","","27","","20","","19.3","","99.13","","","","-8","","Snow"
"2007-01-09 22:00","2007","01","09","22:00","-2.8","","-6.3","","77","","29","","26","","24.1","","99.18","","","","-10","","Mostly Cloudy"
"2007-01-09 23:00","2007","01","09","23:00","-3.7","","-10.4","","60","","29","","32","","24.1","","99.28","","","","-12","","Mainly Clear"
"2007-01-10 00:00","2007","01","10","00:00","-4.6","","-11.4","","59","","29","","26","","24.1","","99.29","","","","-12","","Mainly Clear"
"2007-01-10 01:00","2007","01","10","01:00","-5.0","","-11.6","","60","","29","","28","","24.1","","99.31","","","","-13","","Clear"
"2007-01-10 02:00","2007","01","10","02:00","-5.1","","-11.0","","63","","28","","35","","24.1","","99.41","","","","-14","","Clear"
"2007-01-10 03:00","2007","01","10","03:00","-5.4","","-10.8","","66","","27","","30","","24.1","","99.46","","","","-14","","Clear"
"2007-01-10 04:00","2007","01","10","04:00","-5.5","","-10.9","","66","","27","","28","","24.1","","99.52","","","","-13","","Clear"
"2007-01-10 05:00","2007","01","10","05:00","-5.5","","-10.7","","67","","29","","30","","24.1","","99.63","","","","-14","","Mainly Clear"
"2007-01-10 06:00","2007","01","10","06:00","-5.8","","-9.1","","77","","29","","30","","24.1","","99.74","","","","-14","","Mainly Clear"
"2007-01-10 07:00","2007","01","10","07:00","-5.9","","-12.4","","60","","30","","24","","24.1","","99.85","","","","-13","","Clear"
"2007-01-10 08:00","2007","01","10","08:00","-6.6","","-13.2","","59","","29","","22","","24.1","","99.97","","","","-14","","Mostly Cloudy"
"2007-01-10 09:00","2007","01","10","09:00","-6.6","","-13.4","","58","","29","","30","","24.1","","100.11","","","","-15","","Clear"
"2007-01-10 10:00","2007","01","10","10:00","-5.3","","-13.3","","53","","31","","39","","24.1","","100.23","","","","-14","","Clear"
"2007-01-10 11:00","2007","01","10","11:00","-4.4","","-13.7","","48","","31","","33","","24.1","","100.26","","","","-13","","Clear"
"2007-01-10 12:00","2007","01","10","12:00","-3.5","","-13.0","","48","","29","","24","","24.1","","100.28","","","","-10","","Mainly Clear"
"2007-01-10 13:00","2007","01","10","13:00","-3.0","","-11.8","","51","","28","","30","","24.1","","100.30","","","","-10","","Mainly Clear"
"2007-01-10 14:00","2007","01","10","14:00","-3.2","","-11.3","","53","","28","","20","","24.1","","100.35","","","","-9","","Mostly Cloudy"
"2007-01-10 15:00","2007","01","10","15:00","-3.4","","-10.7","","57","","30","","22","","24.1","","100.44","","","","-10","","Mostly Cloudy"
"2007-01-10 16:00","2007","01","10","16:00","-3.8","","-10.1","","62","","28","","19","","24.1","","100.52","","","","-10","","Mostly Cloudy"
"2007-01-10 17:00","2007","01","10","17:00","-4.3","","-9.1","","69","","26","","22","","24.1","","100.58","","","","-11","","Mainly Clear"
"2007-01-10 18:00","2007","01","10","18:00","-3.9","","-7.6","","75","","26","","11","","24.1","","100.65","","","","-8","","Mostly Cloudy"
"2007-01-10 19:00","2007","01","10","19:00","-4.9","","-10.0","","67","","27","","24","","24.1","","100.73","","","","-12","","Mainly Clear"
"2007-01-10 20:00","2007","01","10","20:00","-6.1","","-10.1","","73","","24","","15","","24.1","","100.78","","","","-12","","Clear"
"2007-01-10 21:00","2007","01","10","21:00","-6.6","","-9.8","","78","","25","","17","","24.1","","100.80","","","","-13","","Clear"
"2007-01-10 22:00","2007","01","10","22:00","-7.1","","-10.4","","77","","24","","13","","24.1","","100.80","","","","-13","","Clear"
"2007-01-10 23:00","2007","01","10","23:00","-7.1","","-10.6","","76","","24","","13","","24.1","","100.81","","","","-13","","Clear"
"2007-01-11 00:00","2007","01","11","00:00","-7.6","","-11.0","","77","","25","","7","","24.1","","100.79","","","","-11","","Clear"
"2007-01-11 01:00","2007","01","11","01:00","-6.8","","-11.1","","71","","23","","4","","24.1","","100.78","","","","-9","","Clear"
"2007-01-11 02:00","2007","01","11","02:00","-6.5","","-11.1","","70","","","","0","","24.1","","100.79","","","","","","Mostly Cloudy"
"2007-01-11 03:00","2007","01","11","03:00","-5.5","","-9.5","","73","","20","","4","","24.1","","100.83","","","","-7","","Cloudy"
"2007-01-11 04:00","2007","01","11","04:00","-4.7","","-9.4","","70","","18","","4","","24.1","","100.82","","","","-6","","Mostly Cloudy"
"2007-01-11 05:00","2007","01","11","05:00","-3.7","","-7.6","","74","","16","","7","","24.1","","100.74","","","","-7","","Cloudy"
"2007-01-11 06:00","2007","01","11","06:00","-2.1","","-5.9","","75","","15","","11","","24.1","","100.67","","","","-6","","Cloudy"
"2007-01-11 07:00","2007","01","11","07:00","-0.4","","-4.5","","74","","17","","17","","19.3","","100.61","","","","-5","","Cloudy"
"2007-01-11 08:00","2007","01","11","08:00","0.0","","-4.9","","70","","18","","20","","24.1","","100.51","","","","-5","","Mostly Cloudy"
"2007-01-11 09:00","2007","01","11","09:00","0.8","","-5.4","","63","","17","","15","","24.1","","100.46","","","","","","Mostly Cloudy"
"2007-01-11 10:00","2007","01","11","10:00","2.0","","-5.8","","56","","19","","20","","24.1","","100.41","","","","","","Mostly Cloudy"
"2007-01-11 11:00","2007","01","11","11:00","3.7","","-6.8","","46","","19","","24","","24.1","","100.37","","","","","","Mostly Cloudy"
"2007-01-11 12:00","2007","01","11","12:00","5.4","","-8.8","","35","","20","","32","","24.1","","100.23","","","","","","Mostly Cloudy"
"2007-01-11 13:00","2007","01","11","13:00","5.3","","-8.0","","38","","18","","28","","24.1","","100.03","","","","","","Cloudy"
"2007-01-11 14:00","2007","01","11","14:00","5.2","","-8.5","","36","","20","","33","","24.1","","99.90","","","","","","Cloudy"
"2007-01-11 15:00","2007","01","11","15:00","5.4","","-8.8","","35","","20","","26","","24.1","","99.87","","","","","","Cloudy"
"2007-01-11 16:00","2007","01","11","16:00","5.4","","-9.1","","34","","20","","19","","24.1","","99.83","","","","","","Cloudy"
"2007-01-11 17:00","2007","01","11","17:00","5.5","","-8.4","","36","","20","","19","","24.1","","99.84","","","","","","Cloudy"
"2007-01-11 18:00","2007","01","11","18:00","5.9","","-7.2","","38","","21","","19","","24.1","","99.82","","","","","","Cloudy"
"2007-01-11 19:00","2007","01","11","19:00","6.1","","-6.6","","40","","20","","33","","24.1","","99.78","","","","","","Cloudy"
"2007-01-11 20:00","2007","01","11","20:00","6.3","","-6.2","","40","","22","","30","","24.1","","99.79","","","","","","Cloudy"
"2007-01-11 21:00","2007","01","11","21:00","6.4","","-6.3","","40","","22","","26","","24.1","","99.74","","","","","","Mostly Cloudy"
"2007-01-11 22:00","2007","01","11","22:00","6.3","","-6.0","","41","","22","","24","","24.1","","99.76","","","","","","Mostly Cloudy"
"2007-01-11 23:00","2007","01","11","23:00","6.5","","-6.1","","40","","22","","22","","24.1","","99.74","","","","","","Mostly Cloudy"
"2007-01-12 00:00","2007","01","12","00:00","6.0","","-6.3","","41","","22","","20","","24.1","","99.71","","","","","","Mostly Cloudy"
"2007-01-12 01:00","2007","01","12","01:00","4.7","","-0.1","","71","","23","","39","","16.1","","99.72","","","","","","Rain Showers"
"2007-01-12 02:00","2007","01","12","02:00","2.0","","0.9","","92","","21","","19","","16.1","","99.73","","","","","","Rain Showers"
"2007-01-12 03:00","2007","01","12","03:00","2.4","","1.2","","92","","21","","20","","16.1","","99.77","","","","","","Drizzle"
"2007-01-12 04:00","2007","01","12","04:00","2.6","","1.6","","93","","22","","19","","16.1","","99.78","","","","","","Drizzle"
"2007-01-12 05:00","2007","01","12","05:00","3.3","","2.4","","94","","22","","17","","16.1","","99.77","","","","","","Drizzle"
"2007-01-12 06:00","2007","01","12","06:00","3.9","","3.1","","95","","22","","24","","16.1","","99.76","","","","","","Drizzle"
"2007-01-12 07:00","2007","01","12","07:00","4.4","","3.4","","93","","22","","22","","12.9","","99.80","","","","","","Drizzle"
"2007-01-12 08:00","2007","01","12","08:00","4.6","","3.3","","91","","23","","20","","11.3","","99.85","","","","","","Cloudy"
"2007-01-12 09:00","2007","01","12","09:00","5.0","","3.3","","89","","22","","19","","11.3","","99.90","","","","","","Cloudy"
"2007-01-12 10:00","2007","01","12","10:00","5.4","","3.4","","87","","21","","19","","11.3","","99.94","","","","","","Cloudy"
"2007-01-12 11:00","2007","01","12","11:00","5.8","","3.6","","86","","23","","20","","11.3","","99.96","","","","","","Cloudy"
"2007-01-12 12:00","2007","01","12","12:00","6.5","","3.9","","83","","24","","20","","12.9","","99.88","","","","","","Cloudy"
"2007-01-12 13:00","2007","01","12","13:00","7.0","","4.4","","83","","24","","20","","12.9","","99.85","","","","","","Cloudy"
"2007-01-12 14:00","2007","01","12","14:00","7.0","","4.5","","84","","25","","17","","12.9","","99.81","","","","","","Cloudy"
"2007-01-12 15:00","2007","01","12","15:00","6.9","","4.9","","87","","25","","15","","11.3","","99.81","","","","","","Cloudy"
"2007-01-12 16:00","2007","01","12","16:00","6.8","","4.9","","88","","22","","15","","8.0","","99.86","","","","","","Rain,Fog"
"2007-01-12 17:00","2007","01","12","17:00","6.6","","5.5","","93","","22","","13","","8.0","","99.88","","","","","","Fog"
"2007-01-12 18:00","2007","01","12","18:00","6.4","","5.8","","96","","21","","9","","6.4","","99.89","","","","","","Drizzle,Fog"
"2007-01-12 19:00","2007","01","12","19:00","6.8","","6.4","","97","","21","","6","","6.4","","99.85","","","","","","Drizzle,Fog"
"2007-01-12 20:00","2007","01","12","20:00","7.0","","6.6","","97","","18","","7","","6.4","","99.81","","","","","","Drizzle,Fog"
"2007-01-12 21:00","2007","01","12","21:00","7.4","","7.1","","98","","21","","6","","6.4","","99.77","","","","","","Drizzle,Fog"
"2007-01-12 22:00","2007","01","12","22:00","7.2","","7.0","","99","","23","","9","","4.8","","99.74","","","","","","Rain,Drizzle,Fog"
"2007-01-12 23:00","2007","01","12","23:00","6.9","","6.8","","99","","32","","13","","2.4","","99.74","","","","","","Drizzle,Fog"
"2007-01-13 00:00","2007","01","13","00:00","5.1","","4.3","","95","","34","","26","","4.8","","99.77","","","","","","Drizzle,Fog"
"2007-01-13 01:00","2007","01","13","01:00","3.7","","2.9","","94","","34","","26","","6.4","","99.82","","","","","","Drizzle,Fog"
"2007-01-13 02:00","2007","01","13","02:00","2.0","","0.8","","92","","34","","33","","9.7","","99.93","","","","","","Drizzle,Fog"
"2007-01-13 03:00","2007","01","13","03:00","1.2","","-0.3","","90","","34","","37","","19.3","","100.01","","","","","","Cloudy"
"2007-01-13 04:00","2007","01","13","04:00","0.1","","-2.9","","80","","35","","35","","24.1","","100.09","","","","","","Cloudy"
"2007-01-13 05:00","2007","01","13","05:00","-0.7","","-4.6","","75","","35","","30","","24.1","","100.17","","","","-7","","Cloudy"
"2007-01-13 06:00","2007","01","13","06:00","-1.4","","-5.2","","75","","36","","28","","16.1","","100.32","","","","-8","","Snow"
"2007-01-13 07:00","2007","01","13","07:00","-1.8","","-6.0","","73","","36","","22","","24.1","","100.38","","","","-8","","Cloudy"
"2007-01-13 08:00","2007","01","13","08:00","-2.1","","-6.8","","70","","35","","28","","24.1","","100.48","","","","-9","","Cloudy"
"2007-01-13 09:00","2007","01","13","09:00","-2.8","","-7.6","","69","","34","","28","","24.1","","100.57","","","","-10","","Cloudy"
"2007-01-13 10:00","2007","01","13","10:00","-3.0","","-7.4","","72","","35","","28","","24.1","","100.67","","","","-10","","Cloudy"
"2007-01-13 11:00","2007","01","13","11:00","-2.8","","-7.1","","72","","34","","19","","24.1","","100.72","","","","-9","","Cloudy"
"2007-01-13 12:00","2007","01","13","12:00","-2.7","","-6.9","","73","","34","","20","","24.1","","100.63","","","","-9","","Mostly Cloudy"
"2007-01-13 13:00","2007","01","13","13:00","-2.6","","-7.7","","68","","35","","19","","24.1","","100.55","","","","-8","","Mostly Cloudy"
"2007-01-13 14:00","2007","01","13","14:00","-2.0","","-7.7","","65","","36","","19","","24.1","","100.52","","","","-8","","Mostly Cloudy"
"2007-01-13 15:00","2007","01","13","15:00","-1.9","","-7.9","","63","","3","","9","","24.1","","100.55","","","","-5","","Mostly Cloudy"
"2007-01-13 16:00","2007","01","13","16:00","-2.0","","-7.8","","64","","36","","9","","24.1","","100.56","","","","-5","","Mostly Cloudy"
"2007-01-13 17:00","2007","01","13","17:00","-2.8","","-8.1","","67","","35","","15","","24.1","","100.58","","","","-8","","Mostly Cloudy"
"2007-01-13 18:00","2007","01","13","18:00","-3.3","","-8.3","","68","","36","","15","","24.1","","100.60","","","","-8","","Cloudy"
"2007-01-13 19:00","2007","01","13","19:00","-3.1","","-8.0","","69","","36","","19","","24.1","","100.65","","","","-9","","Cloudy"
"2007-01-13 20:00","2007","01","13","20:00","-3.1","","-8.0","","69","","1","","13","","24.1","","100.56","","","","-8","","Cloudy"
"2007-01-13 21:00","2007","01","13","21:00","-2.8","","-7.6","","69","","1","","11","","24.1","","100.57","","","","-7","","Cloudy"
"2007-01-13 22:00","2007","01","13","22:00","-2.5","","-7.3","","70","","1","","9","","24.1","","100.52","","","","-6","","Cloudy"
"2007-01-13 23:00","2007","01","13","23:00","-2.0","","-6.7","","70","","36","","6","","24.1","","100.51","","","","-4","","Cloudy"
"2007-01-14 00:00","2007","01","14","00:00","-1.5","","-6.1","","71","","8","","7","","24.1","","100.42","","","","-4","","Cloudy"
"2007-01-14 01:00","2007","01","14","01:00","-1.7","","-5.9","","73","","2","","9","","24.1","","100.37","","","","-5","","Cloudy"
"2007-01-14 02:00","2007","01","14","02:00","-1.7","","-5.9","","73","","3","","7","","24.1","","100.38","","","","-4","","Cloudy"
"2007-01-14 03:00","2007","01","14","03:00","-1.7","","-5.5","","75","","3","","9","","24.1","","100.41","","","","-5","","Cloudy"
"2007-01-14 04:00","2007","01","14","04:00","-2.0","","-5.3","","78","","1","","11","","24.1","","100.39","","","","-6","","Cloudy"
"2007-01-14 05:00","2007","01","14","05:00","-2.1","","-4.9","","81","","3","","9","","24.1","","100.40","","","","-6","","Cloudy"
"2007-01-14 06:00","2007","01","14","06:00","-2.1","","-4.1","","86","","7","","7","","24.1","","100.35","","","","-5","","Cloudy"
"2007-01-14 07:00","2007","01","14","07:00","-2.2","","-4.2","","86","","3","","13","","8.0","","100.43","","","","-7","","Snow"
"2007-01-14 08:00","2007","01","14","08:00","-2.4","","-4.4","","86","","1","","13","","11.3","","100.50","","","","-7","","Snow"
"2007-01-14 09:00","2007","01","14","09:00","-2.4","","-4.3","","87","","5","","9","","11.3","","100.50","","","","-6","","Snow"
"2007-01-14 10:00","2007","01","14","10:00","-2.0","","-4.4","","84","","3","","9","","19.3","","100.51","","","","-5","","Cloudy"
"2007-01-14 11:00","2007","01","14","11:00","-1.7","","-4.2","","83","","1","","7","","12.9","","100.52","","","","-4","","Snow,Ice Pellets"
"2007-01-14 12:00","2007","01","14","12:00","-1.9","","-3.3","","90","","1","","9","","2.0","","100.51","","","","-5","","Snow"
"2007-01-14 13:00","2007","01","14","13:00","-1.9","","-3.2","","91","","2","","11","","3.6","","100.43","","","","-6","","Snow"
"2007-01-14 14:00","2007","01","14","14:00","-1.3","","-3.0","","88","","4","","11","","11.3","","100.35","","","","-5","","Cloudy"
"2007-01-14 15:00","2007","01","14","15:00","-1.0","","-3.6","","82","","4","","11","","19.3","","100.36","","","","-5","","Cloudy"
"2007-01-14 16:00","2007","01","14","16:00","-1.0","","-4.1","","79","","1","","11","","24.1","","100.43","","","","-5","","Cloudy"
"2007-01-14 17:00","2007","01","14","17:00","-1.0","","-4.3","","78","","4","","7","","24.1","","100.44","","","","-4","","Cloudy"
"2007-01-14 18:00","2007","01","14","18:00","-1.1","","-4.6","","77","","7","","13","","24.1","","100.43","","","","-5","","Cloudy"
"2007-01-14 19:00","2007","01","14","19:00","-1.2","","-4.7","","77","","4","","9","","24.1","","100.47","","","","-4","","Mostly Cloudy"
"2007-01-14 20:00","2007","01","14","20:00","-1.6","","-4.6","","80","","3","","9","","24.1","","100.53","","","","-5","","Mostly Cloudy"
"2007-01-14 21:00","2007","01","14","21:00","-1.8","","-4.9","","79","","3","","11","","24.1","","100.48","","","","-6","","Mostly Cloudy"
"2007-01-14 22:00","2007","01","14","22:00","-1.8","","-5.1","","78","","2","","13","","24.1","","100.50","","","","-6","","Mostly Cloudy"
"2007-01-14 23:00","2007","01","14","23:00","-1.8","","-5.6","","75","","6","","9","","24.1","","100.35","","","","-5","","Cloudy"
"2007-01-15 00:00","2007","01","15","00:00","-1.9","","-6.0","","74","","5","","17","","24.1","","100.23","","","","-7","","Cloudy"
"2007-01-15 01:00","2007","01","15","01:00","-1.8","","-6.3","","71","","8","","11","","24.1","","100.13","","","","-6","","Cloudy"
"2007-01-15 02:00","2007","01","15","02:00","-1.4","","-4.6","","79","","7","","11","","24.1","","99.99","","","","-5","","Freezing Rain,Snow"
"2007-01-15 03:00","2007","01","15","03:00","-1.2","","-4.3","","79","","9","","20","","24.1","","99.92","","","","-7","","Freezing Rain,Snow"
"2007-01-15 04:00","2007","01","15","04:00","-1.7","","-4.3","","82","","8","","28","","16.1","","99.67","","","","-8","","Freezing Rain,Snow"
"2007-01-15 05:00","2007","01","15","05:00","-2.1","","-4.2","","86","","9","","22","","14.5","","99.49","","","","-8","","Freezing Rain,Snow"
"2007-01-15 06:00","2007","01","15","06:00","-3.0","","-4.4","","90","","5","","20","","3.2","","99.40","","","","-9","","Freezing Rain,Snow Grains"
"2007-01-15 07:00","2007","01","15","07:00","-4.2","","-5.7","","89","","5","","19","","4.0","","99.26","","","","-10","","Freezing Rain,Ice Pellets,Fog"
"2007-01-15 08:00","2007","01","15","08:00","-4.2","","-5.9","","88","","3","","20","","4.8","","99.17","","","","-11","","Freezing Rain,Snow,Ice Pellets"
"2007-01-15 09:00","2007","01","15","09:00","-4.2","","-5.6","","90","","1","","28","","3.2","","99.15","","","","-12","","Freezing Rain,Snow,Ice Pellets"
"2007-01-15 10:00","2007","01","15","10:00","-4.6","","-6.3","","88","","2","","22","","4.0","","99.06","","","","-11","","Snow,Ice Pellets"
"2007-01-15 11:00","2007","01","15","11:00","-4.2","","-6.1","","87","","2","","22","","6.4","","99.07","","","","-11","","Freezing Rain,Snow"
"2007-01-15 12:00","2007","01","15","12:00","-4.3","","-6.1","","87","","1","","22","","19.3","","99.14","","","","-11","","Cloudy"
"2007-01-15 13:00","2007","01","15","13:00","-4.1","","-6.1","","86","","4","","19","","24.1","","99.03","","","","-10","","Cloudy"
"2007-01-15 14:00","2007","01","15","14:00","-4.2","","-6.3","","85","","4","","15","","4.0","","98.90","","","","-10","","Snow"
"2007-01-15 15:00","2007","01","15","15:00","-4.1","","-6.1","","86","","4","","9","","12.9","","98.88","","","","-8","","Snow"
"2007-01-15 16:00","2007","01","15","16:00","-4.3","","-5.6","","91","","36","","13","","4.8","","98.99","","","","-9","","Freezing Drizzle,Snow"
"2007-01-15 17:00","2007","01","15","17:00","-4.2","","-5.3","","92","","36","","15","","3.2","","98.99","","","","-10","","Freezing Drizzle,Snow,Fog"
"2007-01-15 18:00","2007","01","15","18:00","-4.3","","-5.6","","91","","35","","20","","4.8","","99.11","","","","-11","","Freezing Drizzle,Snow,Fog"
"2007-01-15 19:00","2007","01","15","19:00","-4.6","","-6.0","","90","","36","","17","","4.8","","99.09","","","","-10","","Freezing Drizzle,Snow,Fog"
"2007-01-15 20:00","2007","01","15","20:00","-4.8","","-7.0","","85","","36","","19","","24.1","","99.12","","","","-11","","Cloudy"
"2007-01-15 21:00","2007","01","15","21:00","-4.7","","-7.1","","83","","35","","17","","24.1","","99.22","","","","-11","","Mostly Cloudy"
"2007-01-15 22:00","2007","01","15","22:00","-5.0","","-6.9","","86","","33","","20","","6.4","","99.28","","","","-12","","Snow"
"2007-01-15 23:00","2007","01","15","23:00","-5.4","","-6.9","","89","","32","","28","","8.0","","99.31","","","","-13","","Snow"
"2007-01-16 00:00","2007","01","16","00:00","-5.6","","-7.5","","86","","32","","19","","19.3","","99.38","","","","-12","","Snow"
"2007-01-16 01:00","2007","01","16","01:00","-6.5","","-8.8","","84","","34","","22","","19.3","","99.45","","","","-14","","Snow"
"2007-01-16 02:00","2007","01","16","02:00","-7.1","","-9.8","","81","","35","","22","","24.1","","99.54","","","","-15","","Cloudy"
"2007-01-16 03:00","2007","01","16","03:00","-8.5","","-11.6","","78","","34","","22","","24.1","","99.66","","","","-16","","Mainly Clear"
"2007-01-16 04:00","2007","01","16","04:00","-9.6","","-12.4","","80","","33","","15","","24.1","","99.74","","","","-16","","Clear"
"2007-01-16 05:00","2007","01","16","05:00","-10.5","","-13.4","","79","","32","","19","","24.1","","99.84","","","","-18","","Clear"
"2007-01-16 06:00","2007","01","16","06:00","-11.5","","-14.4","","79","","35","","24","","24.1","","99.95","","","","-21","","Clear"
"2007-01-16 07:00","2007","01","16","07:00","-12.1","","-14.9","","80","","35","","24","","24.1","","100.08","","","","-21","","Clear"
"2007-01-16 08:00","2007","01","16","08:00","-12.5","","-15.3","","80","","34","","19","","24.1","","100.16","","","","-21","","Cloudy"
"2007-01-16 09:00","2007","01","16","09:00","-12.3","","-15.3","","78","","34","","20","","24.1","","100.23","","","","-21","","Cloudy"
"2007-01-16 10:00","2007","01","16","10:00","-11.4","","-14.4","","78","","34","","20","","24.1","","100.31","","","","-20","","Mostly Cloudy"
"2007-01-16 11:00","2007","01","16","11:00","-10.3","","-14.0","","74","","34","","15","","24.1","","100.38","","","","-17","","Mostly Cloudy"
"2007-01-16 12:00","2007","01","16","12:00","-9.8","","-13.5","","74","","35","","13","","24.1","","100.40","","","","-16","","Mostly Cloudy"
"2007-01-16 13:00","2007","01","16","13:00","-9.6","","-13.4","","74","","32","","30","","24.1","","100.39","","","","-19","","Mostly Cloudy"
"2007-01-16 14:00","2007","01","16","14:00","-9.1","","-14.0","","68","","34","","28","","24.1","","100.44","","","","-18","","Mainly Clear"
"2007-01-16 15:00","2007","01","16","15:00","-9.4","","-13.3","","73","","35","","19","","24.1","","100.51","","","","-17","","Mainly Clear"
"2007-01-16 16:00","2007","01","16","16:00","-8.6","","-15.5","","57","","30","","33","","24.1","","100.58","","","","-18","","Mainly Clear"
"2007-01-16 17:00","2007","01","16","17:00","-9.6","","-18.0","","50","","30","","33","","24.1","","100.68","","","","-19","","Mainly Clear"
"2007-01-16 18:00","2007","01","16","18:00","-10.0","","-18.3","","51","","30","","28","","24.1","","100.85","","","","-19","","Clear"
"2007-01-16 19:00","2007","01","16","19:00","-9.9","","-17.1","","56","","32","","33","","24.1","","100.95","","","","-20","","Clear"
"2007-01-16 20:00","2007","01","16","20:00","-11.0","","-16.6","","63","","28","","22","","24.1","","101.05","","","","-20","","Clear"
"2007-01-16 21:00","2007","01","16","21:00","-10.7","","-15.9","","66","","28","","22","","24.1","","101.08","","","","-19","","Mainly Clear"
"2007-01-16 22:00","2007","01","16","22:00","-10.6","","-15.3","","68","","26","","19","","24.1","","101.12","","","","-18","","Mostly Cloudy"
"2007-01-16 23:00","2007","01","16","23:00","-10.3","","-14.3","","72","","27","","17","","24.1","","101.22","","","","-18","","Cloudy"
"2007-01-17 00:00","2007","01","17","00:00","-9.9","","-13.0","","78","","31","","13","","16.1","","101.29","","","","-16","","Snow Showers"
"2007-01-17 01:00","2007","01","17","01:00","-10.4","","-13.8","","76","","3","","6","","19.3","","101.32","","","","-14","","Snow Showers"
"2007-01-17 02:00","2007","01","17","02:00","-11.0","","-14.2","","77","","9","","7","","24.1","","101.33","","","","-15","","Mostly Cloudy"
"2007-01-17 03:00","2007","01","17","03:00","-10.8","","-14.0","","77","","5","","6","","24.1","","101.37","","","","-14","","Mostly Cloudy"
"2007-01-17 04:00","2007","01","17","04:00","-10.7","","-14.0","","77","","","","0","","24.1","","101.38","","","","","","Cloudy"
"2007-01-17 05:00","2007","01","17","05:00","-10.1","","-13.0","","79","","","","0","","24.1","","101.42","","","","","","Cloudy"
"2007-01-17 06:00","2007","01","17","06:00","-9.2","","-12.0","","80","","","","0","","24.1","","101.44","","","","","","Snow"
"2007-01-17 07:00","2007","01","17","07:00","-8.3","","-11.6","","77","","18","","4","","16.1","","101.54","","","","-10","","Snow"
"2007-01-17 08:00","2007","01","17","08:00","-7.8","","-11.4","","75","","15","","4","","24.1","","101.55","","","","-10","","Snow"
"2007-01-17 09:00","2007","01","17","09:00","-7.0","","-11.4","","71","","21","","13","","24.1","","101.60","","","","-13","","Cloudy"
"2007-01-17 10:00","2007","01","17","10:00","-6.1","","-10.1","","73","","23","","11","","24.1","","101.67","","","","-11","","Cloudy"
"2007-01-17 11:00","2007","01","17","11:00","-5.6","","-9.1","","76","","21","","19","","16.1","","101.64","","","","-12","","Snow"
"2007-01-17 12:00","2007","01","17","12:00","-4.3","","-10.2","","63","","23","","19","","24.1","","101.58","","","","-10","","Mostly Cloudy"
"2007-01-17 13:00","2007","01","17","13:00","-3.9","","-10.8","","59","","25","","24","","24.1","","101.54","","","","-11","","Mostly Cloudy"
"2007-01-17 14:00","2007","01","17","14:00","-4.1","","-11.0","","59","","26","","24","","24.1","","101.47","","","","-11","","Mostly Cloudy"
"2007-01-17 15:00","2007","01","17","15:00","-4.2","","-10.7","","60","","25","","17","","24.1","","101.48","","","","-10","","Mostly Cloudy"
"2007-01-17 16:00","2007","01","17","16:00","-4.7","","-10.9","","62","","24","","22","","24.1","","101.46","","","","-12","","Mostly Cloudy"
"2007-01-17 17:00","2007","01","17","17:00","-4.5","","-10.0","","65","","22","","22","","24.1","","101.44","","","","-11","","Mostly Cloudy"
"2007-01-17 18:00","2007","01","17","18:00","-4.8","","-9.9","","67","","21","","13","","24.1","","101.43","","","","-10","","Mostly Cloudy"
"2007-01-17 19:00","2007","01","17","19:00","-4.4","","-9.6","","67","","21","","6","","24.1","","101.40","","","","-7","","Mostly Cloudy"
"2007-01-17 20:00","2007","01","17","20:00","-4.6","","-9.7","","67","","19","","9","","24.1","","101.37","","","","-8","","Mostly Cloudy"
"2007-01-17 21:00","2007","01","17","21:00","-4.3","","-8.2","","74","","23","","19","","24.1","","101.34","","","","-10","","Mostly Cloudy"
"2007-01-17 22:00","2007","01","17","22:00","-3.9","","-7.5","","76","","22","","11","","24.1","","101.25","","","","-8","","Mostly Cloudy"
"2007-01-17 23:00","2007","01","17","23:00","-3.5","","-6.9","","77","","21","","11","","24.1","","101.16","","","","-8","","Mostly Cloudy"
"2007-01-18 00:00","2007","01","18","00:00","-3.9","","-7.4","","77","","21","","9","","24.1","","101.13","","","","-8","","Mostly Cloudy"
"2007-01-18 01:00","2007","01","18","01:00","-3.9","","-7.5","","76","","20","","15","","24.1","","101.05","","","","-9","","Mostly Cloudy"
"2007-01-18 02:00","2007","01","18","02:00","-4.3","","-8.0","","75","","20","","13","","24.1","","100.96","","","","-9","","Mainly Clear"
"2007-01-18 03:00","2007","01","18","03:00","-3.9","","-8.2","","72","","20","","19","","24.1","","100.90","","","","-10","","Mostly Cloudy"
"2007-01-18 04:00","2007","01","18","04:00","-3.9","","-8.5","","70","","19","","13","","24.1","","100.78","","","","-9","","Mostly Cloudy"
"2007-01-18 05:00","2007","01","18","05:00","-3.9","","-8.3","","71","","20","","11","","24.1","","100.71","","","","-8","","Mostly Cloudy"
"2007-01-18 06:00","2007","01","18","06:00","-4.1","","-8.1","","74","","20","","11","","24.1","","100.66","","","","-9","","Mainly Clear"
"2007-01-18 07:00","2007","01","18","07:00","-4.3","","-8.0","","75","","18","","7","","24.1","","100.61","","","","-7","","Mostly Cloudy"
"2007-01-18 08:00","2007","01","18","08:00","-3.8","","-7.6","","75","","19","","7","","24.1","","100.54","","","","-7","","Mostly Cloudy"
"2007-01-18 09:00","2007","01","18","09:00","-2.8","","-7.3","","71","","17","","11","","24.1","","100.41","","","","-7","","Mostly Cloudy"
"2007-01-18 10:00","2007","01","18","10:00","-2.0","","-6.7","","70","","20","","15","","24.1","","100.38","","","","-7","","Mostly Cloudy"
"2007-01-18 11:00","2007","01","18","11:00","-0.8","","-6.1","","67","","21","","17","","24.1","","100.28","","","","-6","","Cloudy"
"2007-01-18 12:00","2007","01","18","12:00","-0.6","","-6.4","","65","","22","","19","","24.1","","100.17","","","","-6","","Mostly Cloudy"
"2007-01-18 13:00","2007","01","18","13:00","0.1","","-5.4","","66","","23","","17","","24.1","","100.05","","","","","","Cloudy"
"2007-01-18 14:00","2007","01","18","14:00","0.1","","-5.2","","67","","22","","24","","24.1","","99.95","","","","","","Cloudy"
"2007-01-18 15:00","2007","01","18","15:00","0.4","","-4.4","","70","","19","","15","","24.1","","99.84","","","","","","Cloudy"
"2007-01-18 16:00","2007","01","18","16:00","0.4","","-4.2","","71","","20","","19","","24.1","","99.76","","","","","","Cloudy"
"2007-01-18 17:00","2007","01","18","17:00","0.3","","-3.8","","74","","20","","20","","24.1","","99.71","","","","","","Cloudy"
"2007-01-18 18:00","2007","01","18","18:00","0.3","","-3.7","","74","","20","","13","","19.3","","99.63","","","","","","Cloudy"
"2007-01-18 19:00","2007","01","18","19:00","0.5","","-4.3","","70","","21","","20","","19.3","","99.56","","","","","","Cloudy"
"2007-01-18 20:00","2007","01","18","20:00","0.8","","-4.3","","69","","21","","15","","16.1","","99.44","","","","","","Cloudy"
"2007-01-18 21:00","2007","01","18","21:00","0.7","","-3.6","","73","","21","","15","","16.1","","99.34","","","","","","Snow Showers"
"2007-01-18 22:00","2007","01","18","22:00","0.5","","-2.9","","78","","21","","13","","16.1","","99.26","","","","","","Snow Showers"
"2007-01-18 23:00","2007","01","18","23:00","0.2","","-2.1","","84","","22","","11","","12.9","","99.16","","","","","","Snow Showers"
"2007-01-19 00:00","2007","01","19","00:00","0.2","","-1.3","","90","","20","","9","","9.7","","99.08","","","","","","Snow,Fog"
"2007-01-19 01:00","2007","01","19","01:00","0.2","","-1.2","","90","","19","","7","","9.7","","98.95","","","","","","Snow,Fog"
"2007-01-19 02:00","2007","01","19","02:00","0.0","","-1.1","","92","","21","","11","","8.0","","98.83","","","","-4","","Snow,Fog"
"2007-01-19 03:00","2007","01","19","03:00","-0.2","","-1.3","","92","","26","","19","","2.8","","98.85","","","","-5","","Snow"
"2007-01-19 04:00","2007","01","19","04:00","-0.7","","-2.2","","90","","27","","22","","9.7","","98.82","","","","-6","","Snow"
"2007-01-19 05:00","2007","01","19","05:00","-0.9","","-3.9","","80","","27","","24","","19.3","","98.82","","","","-7","","Snow"
"2007-01-19 06:00","2007","01","19","06:00","-1.3","","-4.6","","78","","27","","32","","24.1","","98.81","","","","-8","","Mostly Cloudy"
"2007-01-19 07:00","2007","01","19","07:00","-1.3","","-5.0","","76","","27","","26","","19.3","","98.86","","","","-8","","Cloudy"
"2007-01-19 08:00","2007","01","19","08:00","-1.3","","-4.5","","79","","26","","28","","11.3","","98.91","","","","-8","","Snow"
"2007-01-19 09:00","2007","01","19","09:00","-1.3","","-3.9","","82","","26","","24","","11.3","","98.94","","","","-7","","Snow"
"2007-01-19 10:00","2007","01","19","10:00","-0.7","","-3.6","","81","","27","","24","","16.1","","98.98","","","","-7","","Snow"
"2007-01-19 11:00","2007","01","19","11:00","-0.5","","-5.4","","69","","27","","41","","24.1","","98.98","","","","-8","","Mostly Cloudy"
"2007-01-19 12:00","2007","01","19","12:00","-0.2","","-5.7","","66","","27","","39","","24.1","","98.95","","","","-8","","Cloudy"
"2007-01-19 13:00","2007","01","19","13:00","-0.2","","-4.8","","71","","27","","37","","24.1","","98.90","","","","-7","","Mostly Cloudy"
"2007-01-19 14:00","2007","01","19","14:00","-0.8","","-7.0","","63","","28","","44","","24.1","","98.96","","","","-9","","Mostly Cloudy"
"2007-01-19 15:00","2007","01","19","15:00","-1.2","","-6.7","","66","","29","","39","","24.1","","99.01","","","","-9","","Cloudy"
"2007-01-19 16:00","2007","01","19","16:00","-2.7","","-4.6","","87","","29","","33","","4.8","","99.09","","","","-10","","Snow Showers"
"2007-01-19 17:00","2007","01","19","17:00","-2.4","","-9.2","","60","","29","","33","","24.1","","99.09","","","","-10","","Mainly Clear"
"2007-01-19 18:00","2007","01","19","18:00","-3.1","","-8.8","","65","","27","","37","","24.1","","99.17","","","","-11","","Mostly Cloudy"
"2007-01-19 19:00","2007","01","19","19:00","-3.3","","-8.4","","68","","28","","35","","24.1","","99.24","","","","-11","","Mostly Cloudy"
"2007-01-19 20:00","2007","01","19","20:00","-3.7","","-9.1","","66","","27","","35","","24.1","","99.30","","","","-12","","Mostly Cloudy"
"2007-01-19 21:00","2007","01","19","21:00","-4.8","","-10.3","","65","","27","","33","","24.1","","99.29","","","","-13","","Mostly Cloudy"
"2007-01-19 22:00","2007","01","19","22:00","-5.2","","-10.6","","66","","27","","33","","24.1","","99.21","","","","-14","","Clear"
"2007-01-19 23:00","2007","01","19","23:00","-5.8","","-10.8","","68","","27","","32","","24.1","","99.22","","","","-14","","Mainly Clear"
"2007-01-20 00:00","2007","01","20","00:00","-6.1","","-10.6","","70","","28","","22","","24.1","","99.28","","","","-13","","Clear"
"2007-01-20 01:00","2007","01","20","01:00","-5.8","","-9.7","","74","","28","","24","","24.1","","99.30","","","","-13","","Mostly Cloudy"
"2007-01-20 02:00","2007","01","20","02:00","-6.3","","-11.8","","65","","30","","35","","24.1","","99.36","","","","-15","","Mainly Clear"
"2007-01-20 03:00","2007","01","20","03:00","-7.1","","-14.0","","58","","29","","30","","24.1","","99.42","","","","-16","","Mainly Clear"
"2007-01-20 04:00","2007","01","20","04:00","-7.9","","-14.4","","60","","30","","24","","24.1","","99.52","","","","-16","","Mainly Clear"
"2007-01-20 05:00","2007","01","20","05:00","-8.4","","-13.9","","64","","29","","20","","24.1","","99.60","","","","-16","","Mainly Clear"
"2007-01-20 06:00","2007","01","20","06:00","-8.6","","-13.8","","66","","31","","26","","24.1","","99.73","","","","-17","","Mainly Clear"
"2007-01-20 07:00","2007","01","20","07:00","-9.2","","-14.2","","67","","32","","26","","24.1","","99.86","","","","-18","","Mainly Clear"
"2007-01-20 08:00","2007","01","20","08:00","-11.4","","-14.4","","78","","35","","32","","16.1","","100.01","","","","-22","","Snow Showers"
"2007-01-20 09:00","2007","01","20","09:00","-12.0","","-15.3","","76","","35","","22","","24.1","","100.12","","","","-21","","Mainly Clear"
"2007-01-20 10:00","2007","01","20","10:00","-11.0","","-15.0","","72","","35","","20","","24.1","","100.25","","","","-19","","Ice Pellet Showers"
"2007-01-20 11:00","2007","01","20","11:00","-10.7","","-14.6","","73","","36","","15","","24.1","","100.36","","","","-18","","Ice Pellet Showers"
"2007-01-20 12:00","2007","01","20","12:00","-9.7","","-14.4","","69","","34","","20","","24.1","","100.41","","","","-17","","Mainly Clear"
"2007-01-20 13:00","2007","01","20","13:00","-8.8","","-13.6","","68","","33","","9","","24.1","","100.42","","","","-13","","Mainly Clear"
"2007-01-20 14:00","2007","01","20","14:00","-7.0","","-14.6","","55","","31","","39","","24.1","","100.41","","","","-17","","Mainly Clear"
"2007-01-20 15:00","2007","01","20","15:00","-6.8","","-15.3","","51","","30","","33","","24.1","","100.46","","","","-16","","Mainly Clear"
"2007-01-20 16:00","2007","01","20","16:00","-7.2","","-16.0","","49","","30","","20","","24.1","","100.55","","","","-14","","Mainly Clear"
"2007-01-20 17:00","2007","01","20","17:00","-8.0","","-16.3","","51","","31","","20","","24.1","","100.62","","","","-15","","Mainly Clear"
"2007-01-20 18:00","2007","01","20","18:00","-8.7","","-16.9","","51","","29","","20","","24.1","","100.72","","","","-16","","Mainly Clear"
"2007-01-20 19:00","2007","01","20","19:00","-9.1","","-16.2","","56","","31","","15","","24.1","","100.76","","","","-16","","Clear"
"2007-01-20 20:00","2007","01","20","20:00","-9.5","","-15.2","","63","","28","","13","","24.1","","100.78","","","","-16","","Clear"
"2007-01-20 21:00","2007","01","20","21:00","-10.2","","-14.7","","70","","29","","15","","24.1","","100.83","","","","-17","","Clear"
"2007-01-20 22:00","2007","01","20","22:00","-10.6","","-14.4","","74","","29","","13","","24.1","","100.85","","","","-17","","Clear"
"2007-01-20 23:00","2007","01","20","23:00","-11.0","","-14.4","","76","","30","","9","","24.1","","100.79","","","","-16","","Clear"
"2007-01-21 00:00","2007","01","21","00:00","-11.6","","-14.6","","78","","","","0","","24.1","","100.85","","","","","","Clear"
"2007-01-21 01:00","2007","01","21","01:00","-12.1","","-15.2","","78","","34","","6","","24.1","","100.86","","","","-16","","Mainly Clear"
"2007-01-21 02:00","2007","01","21","02:00","-12.4","","-15.3","","79","","31","","6","","24.1","","100.90","","","","-16","","Clear"
"2007-01-21 03:00","2007","01","21","03:00","-12.0","","-15.0","","78","","","","0","","24.1","","100.85","","","","","","Clear"
"2007-01-21 04:00","2007","01","21","04:00","-11.9","","-14.9","","78","","","","0","","24.1","","100.77","","","","","","Clear"
"2007-01-21 05:00","2007","01","21","05:00","-12.0","","-15.0","","78","","","","0","","24.1","","100.77","","","","","","Clear"
"2007-01-21 06:00","2007","01","21","06:00","-11.8","","-14.6","","80","","33","","4","","24.1","","100.77","","","","-14","","Mainly Clear"
"2007-01-21 07:00","2007","01","21","07:00","-11.7","","-14.5","","80","","3","","4","","24.1","","100.77","","","","-14","","Mainly Clear"
"2007-01-21 08:00","2007","01","21","08:00","-12.0","","-14.5","","82","","1","","6","","24.1","","100.78","","","","-16","","Mostly Cloudy"
"2007-01-21 09:00","2007","01","21","09:00","-11.5","","-14.1","","81","","32","","7","","24.1","","100.78","","","","-16","","Mostly Cloudy"
"2007-01-21 10:00","2007","01","21","10:00","-10.0","","-12.5","","82","","3","","6","","24.1","","100.69","","","","-14","","Cloudy"
"2007-01-21 11:00","2007","01","21","11:00","-8.5","","-11.3","","80","","","","0","","19.3","","100.69","","","","","","Snow Showers"
"2007-01-21 12:00","2007","01","21","12:00","-7.5","","-10.3","","80","","5","","4","","24.1","","100.48","","","","-10","","Snow Showers"
"2007-01-21 13:00","2007","01","21","13:00","-6.1","","-8.7","","82","","10","","11","","19.3","","100.32","","","","-11","","Snow Showers"
"2007-01-21 14:00","2007","01","21","14:00","-5.5","","-10.1","","70","","11","","22","","24.1","","100.11","","","","-13","","Cloudy"
"2007-01-21 15:00","2007","01","21","15:00","-5.2","","-10.6","","66","","11","","17","","24.1","","100.19","","","","-11","","Cloudy"
"2007-01-21 16:00","2007","01","21","16:00","-5.1","","-10.9","","64","","9","","17","","24.1","","100.13","","","","-11","","Cloudy"
"2007-01-21 17:00","2007","01","21","17:00","-5.0","","-10.6","","65","","10","","22","","24.1","","100.04","","","","-12","","Cloudy"
"2007-01-21 18:00","2007","01","21","18:00","-4.7","","-10.4","","64","","8","","15","","19.3","","99.97","","","","-10","","Cloudy"
"2007-01-21 19:00","2007","01","21","19:00","-4.3","","-10.8","","60","","9","","17","","24.1","","99.90","","","","-10","","Cloudy"
"2007-01-21 20:00","2007","01","21","20:00","-3.9","","-10.7","","59","","10","","20","","12.9","","99.79","","","","-10","","Snow"
"2007-01-21 21:00","2007","01","21","21:00","-4.1","","-10.2","","62","","11","","24","","19.3","","99.69","","","","-11","","Snow"
"2007-01-21 22:00","2007","01","21","22:00","-4.3","","-9.8","","65","","11","","17","","16.1","","99.58","","","","-10","","Snow"
"2007-01-21 23:00","2007","01","21","23:00","-4.1","","-9.7","","65","","10","","20","","24.1","","99.47","","","","-10","","Snow"
"2007-01-22 00:00","2007","01","22","00:00","-4.2","","-9.5","","67","","10","","11","","24.1","","99.44","","","","-9","","Snow"
"2007-01-22 01:00","2007","01","22","01:00","-4.3","","-9.2","","69","","9","","7","","16.1","","99.41","","","","-7","","Snow"
"2007-01-22 02:00","2007","01","22","02:00","-6.0","","-7.6","","88","","1","","15","","3.2","","99.41","","","","-12","","Snow,Fog"
"2007-01-22 03:00","2007","01","22","03:00","-6.8","","-8.4","","88","","3","","17","","4.8","","99.41","","","","-13","","Snow,Fog"
"2007-01-22 04:00","2007","01","22","04:00","-6.9","","-9.0","","85","","4","","19","","16.1","","99.36","","","","-14","","Snow"
"2007-01-22 05:00","2007","01","22","05:00","-7.3","","-9.5","","84","","1","","19","","16.1","","99.36","","","","-14","","Snow"
"2007-01-22 06:00","2007","01","22","06:00","-7.6","","-10.1","","82","","4","","15","","19.3","","99.32","","","","-14","","Cloudy"
"2007-01-22 07:00","2007","01","22","07:00","-7.7","","-10.3","","82","","36","","11","","12.9","","99.38","","","","-13","","Cloudy"
"2007-01-22 08:00","2007","01","22","08:00","-7.7","","-10.3","","82","","36","","17","","16.1","","99.36","","","","-14","","Snow Grains"
"2007-01-22 09:00","2007","01","22","09:00","-8.4","","-10.5","","85","","36","","15","","12.9","","99.37","","","","-15","","Snow Grains"
"2007-01-22 10:00","2007","01","22","10:00","-8.5","","-10.3","","87","","35","","15","","9.7","","99.35","","","","-15","","Snow"
"2007-01-22 11:00","2007","01","22","11:00","-7.3","","-10.3","","79","","36","","11","","24.1","","99.29","","","","-12","","Mostly Cloudy"
"2007-01-22 12:00","2007","01","22","12:00","-6.0","","-9.8","","74","","36","","9","","24.1","","99.21","","","","-10","","Mostly Cloudy"
"2007-01-22 13:00","2007","01","22","13:00","-5.1","","-9.5","","71","","34","","7","","24.1","","99.14","","","","-8","","Mostly Cloudy"
"2007-01-22 14:00","2007","01","22","14:00","-4.3","","-9.2","","69","","36","","7","","24.1","","99.11","","","","-7","","Mostly Cloudy"
"2007-01-22 15:00","2007","01","22","15:00","-4.3","","-9.5","","67","","36","","11","","24.1","","99.09","","","","-9","","Mostly Cloudy"
"2007-01-22 16:00","2007","01","22","16:00","-4.4","","-9.6","","67","","34","","11","","24.1","","99.10","","","","-9","","Mostly Cloudy"
"2007-01-22 17:00","2007","01","22","17:00","-4.6","","-10.2","","65","","36","","11","","24.1","","99.11","","","","-9","","Cloudy"
"2007-01-22 18:00","2007","01","22","18:00","-5.7","","-10.3","","70","","32","","7","","24.1","","99.09","","","","-9","","Mainly Clear"
"2007-01-22 19:00","2007","01","22","19:00","-6.2","","-10.5","","72","","32","","6","","24.1","","99.11","","","","-9","","Mostly Cloudy"
"2007-01-22 20:00","2007","01","22","20:00","-5.8","","-10.3","","70","","29","","6","","24.1","","99.07","","","","-9","","Mostly Cloudy"
"2007-01-22 21:00","2007","01","22","21:00","-6.0","","-10.0","","73","","27","","4","","24.1","","99.09","","","","-8","","Mostly Cloudy"
"2007-01-22 22:00","2007","01","22","22:00","-6.0","","-9.0","","79","","25","","6","","24.1","","99.05","","","","-9","","Cloudy"
"2007-01-22 23:00","2007","01","22","23:00","-6.5","","-8.7","","84","","27","","11","","24.1","","99.05","","","","-11","","Snow"
"2007-01-23 00:00","2007","01","23","00:00","-7.2","","-9.4","","84","","23","","6","","24.1","","99.01","","","","-10","","Mainly Clear"
"2007-01-23 01:00","2007","01","23","01:00","-6.6","","-8.9","","84","","24","","11","","24.1","","98.98","","","","-12","","Mostly Cloudy"
"2007-01-23 02:00","2007","01","23","02:00","-6.6","","-8.7","","85","","23","","7","","24.1","","98.95","","","","-10","","Cloudy"
"2007-01-23 03:00","2007","01","23","03:00","-5.8","","-8.1","","84","","19","","4","","24.1","","98.94","","","","-8","","Cloudy"
"2007-01-23 04:00","2007","01","23","04:00","-4.9","","-7.1","","85","","21","","6","","19.3","","98.90","","","","-8","","Snow"
"2007-01-23 05:00","2007","01","23","05:00","-4.3","","-6.6","","84","","23","","13","","24.1","","98.87","","","","-9","","Cloudy"
"2007-01-23 06:00","2007","01","23","06:00","-4.1","","-6.5","","83","","24","","24","","19.3","","98.82","","","","-11","","Snow"
"2007-01-23 07:00","2007","01","23","07:00","-3.9","","-6.3","","83","","23","","17","","12.9","","98.81","","","","-10","","Snow"
"2007-01-23 08:00","2007","01","23","08:00","-3.7","","-5.9","","85","","22","","17","","9.7","","98.81","","","","-9","","Snow"
"2007-01-23 09:00","2007","01","23","09:00","-2.9","","-5.3","","83","","22","","17","","9.7","","98.80","","","","-8","","Snow"
"2007-01-23 10:00","2007","01","23","10:00","-2.1","","-4.6","","83","","22","","22","","9.7","","98.74","","","","-8","","Snow"
"2007-01-23 11:00","2007","01","23","11:00","-1.2","","-4.5","","78","","23","","30","","12.9","","98.69","","","","-8","","Cloudy"
"2007-01-23 12:00","2007","01","23","12:00","-1.2","","-5.2","","74","","24","","32","","19.3","","98.68","","","","-8","","Cloudy"
"2007-01-23 13:00","2007","01","23","13:00","-2.1","","-4.4","","84","","25","","30","","4.8","","98.65","","","","-9","","Snow"
"2007-01-23 14:00","2007","01","23","14:00","-0.9","","-5.0","","74","","24","","37","","14.5","","98.58","","","","-8","","Mostly Cloudy"
"2007-01-23 15:00","2007","01","23","15:00","-0.7","","-5.3","","71","","26","","28","","19.3","","98.58","","","","-7","","Cloudy"
"2007-01-23 16:00","2007","01","23","16:00","-0.7","","-5.0","","73","","25","","24","","16.1","","98.62","","","","-7","","Cloudy"
"2007-01-23 17:00","2007","01","23","17:00","-1.0","","-4.6","","77","","25","","28","","8.0","","98.67","","","","-8","","Snow"
"2007-01-23 18:00","2007","01","23","18:00","-1.3","","-4.8","","77","","25","","24","","12.9","","98.75","","","","-7","","Snow"
"2007-01-23 19:00","2007","01","23","19:00","-1.5","","-5.5","","74","","25","","30","","24.1","","98.85","","","","-8","","Cloudy"
"2007-01-23 20:00","2007","01","23","20:00","-1.7","","-5.7","","74","","25","","22","","24.1","","98.95","","","","-8","","Cloudy"
"2007-01-23 21:00","2007","01","23","21:00","-1.8","","-5.4","","76","","25","","24","","24.1","","99.00","","","","-8","","Snow"
"2007-01-23 22:00","2007","01","23","22:00","-1.8","","-5.5","","76","","25","","24","","24.1","","98.99","","","","-8","","Snow"
"2007-01-23 23:00","2007","01","23","23:00","-1.8","","-5.3","","77","","25","","20","","24.1","","99.04","","","","-8","","Snow"
"2007-01-24 00:00","2007","01","24","00:00","-2.0","","-5.1","","79","","24","","17","","16.1","","99.05","","","","-7","","Snow"
"2007-01-24 01:00","2007","01","24","01:00","-2.2","","-5.0","","81","","23","","17","","19.3","","99.06","","","","-8","","Snow"
"2007-01-24 02:00","2007","01","24","02:00","-2.2","","-4.8","","82","","25","","17","","19.3","","99.09","","","","-8","","Snow"
"2007-01-24 03:00","2007","01","24","03:00","-2.4","","-7.2","","70","","30","","24","","24.1","","99.14","","","","-9","","Mainly Clear"
"2007-01-24 04:00","2007","01","24","04:00","-3.7","","-8.0","","72","","29","","13","","24.1","","99.18","","","","-9","","Mainly Clear"
"2007-01-24 05:00","2007","01","24","05:00","-5.5","","-8.7","","78","","27","","15","","24.1","","99.23","","","","-11","","Mainly Clear"
"2007-01-24 06:00","2007","01","24","06:00","-5.0","","-8.0","","79","","27","","13","","24.1","","99.27","","","","-10","","Mostly Cloudy"
"2007-01-24 07:00","2007","01","24","07:00","-4.6","","-8.5","","74","","31","","19","","19.3","","99.34","","","","-11","","Snow Showers"
"2007-01-24 08:00","2007","01","24","08:00","-6.5","","-9.5","","79","","35","","20","","19.3","","99.49","","","","-13","","Snow Showers"
"2007-01-24 09:00","2007","01","24","09:00","-7.1","","-10.4","","77","","1","","19","","19.3","","99.64","","","","-14","","Snow Showers"
"2007-01-24 10:00","2007","01","24","10:00","-7.1","","-13.4","","61","","2","","13","","24.1","","99.66","","","","-13","","Snow Showers"
"2007-01-24 11:00","2007","01","24","11:00","-6.5","","-15.0","","51","","35","","9","","24.1","","99.66","","","","-11","","Mostly Cloudy"
"2007-01-24 12:00","2007","01","24","12:00","-6.2","","-15.2","","49","","2","","9","","24.1","","99.60","","","","-10","","Mostly Cloudy"
"2007-01-24 13:00","2007","01","24","13:00","-5.5","","-14.3","","50","","2","","9","","24.1","","99.52","","","","-10","","Mostly Cloudy"
"2007-01-24 14:00","2007","01","24","14:00","-5.2","","-12.6","","56","","34","","6","","24.1","","99.49","","","","-8","","Snow Showers"
"2007-01-24 15:00","2007","01","24","15:00","-5.4","","-12.9","","56","","4","","11","","24.1","","99.49","","","","-10","","Snow Showers"
"2007-01-24 16:00","2007","01","24","16:00","-5.6","","-13.2","","55","","3","","9","","24.1","","99.53","","","","-10","","Snow Showers"
"2007-01-24 17:00","2007","01","24","17:00","-6.7","","-12.5","","63","","3","","13","","24.1","","99.50","","","","-12","","Snow Showers"
"2007-01-24 18:00","2007","01","24","18:00","-7.1","","-13.7","","59","","1","","19","","16.1","","99.54","","","","-14","","Snow Showers"
"2007-01-24 19:00","2007","01","24","19:00","-8.5","","-12.4","","73","","1","","24","","4.0","","99.58","","","","-17","","Snow Showers"
"2007-01-24 20:00","2007","01","24","20:00","-9.2","","-12.3","","78","","1","","17","","4.8","","99.61","","","","-16","","Snow Showers"
"2007-01-24 21:00","2007","01","24","21:00","-9.3","","-12.8","","76","","35","","15","","4.8","","99.59","","","","-16","","Snow Showers"
"2007-01-24 22:00","2007","01","24","22:00","-10.1","","-13.1","","79","","34","","15","","24.1","","99.56","","","","-17","","Mainly Clear"
"2007-01-24 23:00","2007","01","24","23:00","-10.0","","-13.7","","74","","34","","17","","24.1","","99.55","","","","-17","","Mostly Cloudy"
"2007-01-25 00:00","2007","01","25","00:00","-10.5","","-15.6","","66","","36","","17","","24.1","","99.53","","","","-18","","Mostly Cloudy"
"2007-01-25 01:00","2007","01","25","01:00","-10.7","","-15.8","","66","","34","","11","","24.1","","99.53","","","","-16","","Mostly Cloudy"
"2007-01-25 02:00","2007","01","25","02:00","-11.3","","-15.9","","69","","36","","20","","24.1","","99.51","","","","-20","","Cloudy"
"2007-01-25 03:00","2007","01","25","03:00","-11.9","","-17.0","","66","","36","","22","","24.1","","99.53","","","","-21","","Cloudy"
"2007-01-25 04:00","2007","01","25","04:00","-12.4","","-17.8","","64","","34","","19","","24.1","","99.51","","","","-21","","Cloudy"
"2007-01-25 05:00","2007","01","25","05:00","-13.2","","-18.6","","64","","34","","20","","24.1","","99.51","","","","-22","","Mostly Cloudy"
"2007-01-25 06:00","2007","01","25","06:00","-13.7","","-18.5","","67","","36","","15","","24.1","","99.49","","","","-21","","Mostly Cloudy"
"2007-01-25 07:00","2007","01","25","07:00","-14.0","","-18.0","","72","","34","","20","","24.1","","99.54","","","","-23","","Cloudy"
"2007-01-25 08:00","2007","01","25","08:00","-14.3","","-18.6","","70","","36","","15","","24.1","","99.58","","","","-22","","Cloudy"
"2007-01-25 09:00","2007","01","25","09:00","-14.6","","-18.6","","72","","1","","19","","24.1","","99.63","","","","-23","","Cloudy"
"2007-01-25 10:00","2007","01","25","10:00","-14.4","","-19.1","","67","","36","","17","","24.1","","99.67","","","","-23","","Cloudy"
"2007-01-25 11:00","2007","01","25","11:00","-14.0","","-18.3","","70","","34","","13","","16.1","","99.68","","","","-21","","Snow Showers"
"2007-01-25 12:00","2007","01","25","12:00","-13.7","","-18.5","","67","","35","","20","","24.1","","99.64","","","","-23","","Snow Showers"
"2007-01-25 13:00","2007","01","25","13:00","-13.3","","-20.0","","57","","35","","24","","24.1","","99.59","","","","-23","","Snow Showers"
"2007-01-25 14:00","2007","01","25","14:00","-13.3","","-21.7","","49","","34","","32","","24.1","","99.59","","","","-24","","Mainly Clear"
"2007-01-25 15:00","2007","01","25","15:00","-13.1","","-22.7","","44","","34","","37","","24.1","","99.63","","","","-25","","Mainly Clear"
"2007-01-25 16:00","2007","01","25","16:00","-13.5","","-21.7","","50","","34","","33","","24.1","","99.67","","","","-25","","Mainly Clear"
"2007-01-25 17:00","2007","01","25","17:00","-14.6","","-22.3","","52","","34","","33","","24.1","","99.73","","","","-26","","Mainly Clear"
"2007-01-25 18:00","2007","01","25","18:00","-14.9","","-21.8","","56","","33","","26","","24.1","","99.80","","","","-25","","Mainly Clear"
"2007-01-25 19:00","2007","01","25","19:00","-15.6","","-21.2","","62","","34","","22","","24.1","","99.86","","","","-25","","Clear"
"2007-01-25 20:00","2007","01","25","20:00","-16.0","","-21.6","","62","","33","","17","","24.1","","99.89","","","","-25","","Clear"
"2007-01-25 21:00","2007","01","25","21:00","-16.2","","-21.2","","65","","32","","17","","24.1","","99.89","","","","-25","","Mainly Clear"
"2007-01-25 22:00","2007","01","25","22:00","-16.2","","-20.6","","69","","31","","11","","24.1","","99.89","","","","-23","","Clear"
"2007-01-25 23:00","2007","01","25","23:00","-16.5","","-21.0","","68","","29","","6","","24.1","","99.80","","","","-21","","Clear"
"2007-01-26 00:00","2007","01","26","00:00","-16.6","","-21.4","","66","","","","0","","24.1","","99.73","","","","","","Clear"
"2007-01-26 01:00","2007","01","26","01:00","-17.4","","-22.0","","67","","24","","13","","24.1","","99.71","","","","-25","","Mainly Clear"
"2007-01-26 02:00","2007","01","26","02:00","-17.7","","-23.4","","61","","27","","11","","24.1","","99.66","","","","-25","","Mostly Cloudy"
"2007-01-26 03:00","2007","01","26","03:00","-16.7","","-23.2","","57","","31","","11","","24.1","","99.64","","","","-24","","Mostly Cloudy"
"2007-01-26 04:00","2007","01","26","04:00","-16.1","","-22.0","","60","","31","","11","","24.1","","99.60","","","","-23","","Mostly Cloudy"
"2007-01-26 05:00","2007","01","26","05:00","-16.7","","-22.6","","60","","33","","9","","24.1","","99.61","","","","-23","","Mainly Clear"
"2007-01-26 06:00","2007","01","26","06:00","-17.5","","-22.8","","63","","36","","9","","24.1","","99.56","","","","-24","","Mainly Clear"
"2007-01-26 07:00","2007","01","26","07:00","-17.5","","-23.1","","62","","2","","13","","24.1","","99.59","","","","-25","","Mostly Cloudy"
"2007-01-26 08:00","2007","01","26","08:00","-16.8","","-22.7","","60","","36","","7","","24.1","","99.62","","","","-22","","Mostly Cloudy"
"2007-01-26 09:00","2007","01","26","09:00","-16.3","","-22.5","","59","","27","","4","","24.1","","99.66","","","","-19","","Cloudy"
"2007-01-26 10:00","2007","01","26","10:00","-15.5","","-20.9","","63","","","","0","","24.1","","99.63","","","","","","Cloudy"
"2007-01-26 11:00","2007","01","26","11:00","-13.9","","-19.3","","64","","25","","11","","24.1","","99.65","","","","-20","","Cloudy"
"2007-01-26 12:00","2007","01","26","12:00","-12.4","","-17.0","","68","","20","","6","","12.9","","99.57","","","","-16","","Snow Grains"
"2007-01-26 13:00","2007","01","26","13:00","-11.1","","-16.3","","65","","20","","11","","24.1","","99.48","","","","-17","","Cloudy"
"2007-01-26 14:00","2007","01","26","14:00","-10.3","","-16.3","","61","","18","","4","","24.1","","99.38","","","","-13","","Cloudy"
"2007-01-26 15:00","2007","01","26","15:00","-9.8","","-15.7","","62","","15","","9","","24.1","","99.30","","","","-15","","Cloudy"
"2007-01-26 16:00","2007","01","26","16:00","-9.2","","-11.0","","87","","13","","7","","3.6","","99.20","","","","-13","","Snow"
"2007-01-26 17:00","2007","01","26","17:00","-9.1","","-10.5","","90","","14","","9","","1.6","","99.12","","","","-14","","Snow"
"2007-01-26 18:00","2007","01","26","18:00","-8.5","","-9.7","","91","","13","","7","","3.2","","99.09","","","","-12","","Snow"
"2007-01-26 19:00","2007","01","26","19:00","-7.7","","-8.9","","91","","12","","13","","4.8","","99.05","","","","-13","","Snow"
"2007-01-26 20:00","2007","01","26","20:00","-7.1","","-8.7","","88","","13","","22","","6.4","","99.01","","","","-15","","Snow"
"2007-01-26 21:00","2007","01","26","21:00","-6.6","","-8.3","","88","","14","","19","","4.8","","98.91","","","","-13","","Snow"
"2007-01-26 22:00","2007","01","26","22:00","-6.4","","-7.6","","91","","12","","17","","6.4","","98.79","","","","-13","","Snow"
"2007-01-26 23:00","2007","01","26","23:00","-6.1","","-7.0","","93","","13","","19","","4.0","","98.63","","","","-13","","Freezing Drizzle,Snow"
"2007-01-27 00:00","2007","01","27","00:00","-5.7","","-6.5","","94","","13","","24","","4.8","","98.49","","","","-13","","Freezing Drizzle,Snow"
"2007-01-27 01:00","2007","01","27","01:00","-5.3","","-6.1","","94","","12","","22","","6.4","","98.35","","","","-12","","Freezing Drizzle,Snow"
"2007-01-27 02:00","2007","01","27","02:00","-4.7","","-5.6","","93","","11","","20","","6.4","","98.25","","","","-11","","Freezing Drizzle,Snow"
"2007-01-27 03:00","2007","01","27","03:00","-4.3","","-5.0","","95","","12","","20","","6.4","","98.11","","","","-11","","Freezing Drizzle,Snow"
"2007-01-27 04:00","2007","01","27","04:00","-3.7","","-4.3","","96","","11","","13","","6.4","","98.05","","","","-9","","Freezing Drizzle,Snow"
"2007-01-27 05:00","2007","01","27","05:00","-3.2","","-3.7","","96","","9","","9","","4.8","","97.99","","","","-7","","Freezing Drizzle,Snow,Fog"
"2007-01-27 06:00","2007","01","27","06:00","-2.8","","-3.4","","96","","9","","7","","4.8","","97.98","","","","-6","","Freezing Drizzle,Snow,Fog"
"2007-01-27 07:00","2007","01","27","07:00","-2.6","","-3.0","","97","","","","0","","4.0","","98.03","","","","","","Freezing Drizzle,Fog"
"2007-01-27 08:00","2007","01","27","08:00","-2.1","","-2.7","","96","","13","","4","","4.0","","98.08","","","","-4","","Freezing Drizzle,Fog"
"2007-01-27 09:00","2007","01","27","09:00","-1.7","","-2.1","","97","","19","","6","","4.0","","98.15","","","","-4","","Freezing Drizzle,Fog"
"2007-01-27 10:00","2007","01","27","10:00","-2.6","","-3.0","","97","","10","","6","","3.2","","98.21","","","","-5","","Freezing Drizzle,Snow Grains,Fog"
"2007-01-27 11:00","2007","01","27","11:00","-3.1","","-3.7","","96","","12","","7","","4.0","","98.22","","","","-6","","Snow Grains,Fog"
"2007-01-27 12:00","2007","01","27","12:00","-3.2","","-3.9","","95","","12","","7","","3.6","","98.22","","","","-6","","Snow Grains,Fog"
"2007-01-27 13:00","2007","01","27","13:00","-3.0","","-3.7","","95","","14","","9","","4.0","","98.18","","","","-7","","Snow Grains,Fog"
"2007-01-27 14:00","2007","01","27","14:00","-3.1","","-3.8","","95","","15","","15","","4.8","","98.13","","","","-8","","Snow Grains,Fog"
"2007-01-27 15:00","2007","01","27","15:00","-2.7","","-3.3","","96","","14","","11","","6.4","","98.13","","","","-7","","Snow Grains,Fog"
"2007-01-27 16:00","2007","01","27","16:00","-1.0","","-2.2","","92","","26","","15","","14.5","","98.14","","","","-6","","Snow Grains"
"2007-01-27 17:00","2007","01","27","17:00","-1.4","","-2.6","","92","","25","","13","","4.8","","98.23","","","","-6","","Snow Grains,Fog"
"2007-01-27 18:00","2007","01","27","18:00","-1.5","","-2.7","","92","","23","","22","","9.7","","98.31","","","","-7","","Snow Grains"
"2007-01-27 19:00","2007","01","27","19:00","-1.6","","-2.9","","91","","22","","15","","9.7","","98.31","","","","-6","","Snow"
"2007-01-27 20:00","2007","01","27","20:00","-1.9","","-3.2","","91","","23","","17","","11.3","","98.34","","","","-7","","Snow"
"2007-01-27 21:00","2007","01","27","21:00","-1.9","","-3.9","","86","","24","","19","","16.1","","98.32","","","","-7","","Cloudy"
"2007-01-27 22:00","2007","01","27","22:00","-2.1","","-4.0","","87","","24","","17","","19.3","","98.30","","","","-7","","Cloudy"
"2007-01-27 23:00","2007","01","27","23:00","-2.7","","-4.8","","85","","24","","13","","24.1","","98.29","","","","-7","","Mostly Cloudy"
"2007-01-28 00:00","2007","01","28","00:00","-2.8","","-4.6","","87","","25","","17","","24.1","","98.30","","","","-8","","Mostly Cloudy"
"2007-01-28 01:00","2007","01","28","01:00","-3.3","","-4.8","","89","","31","","11","","24.1","","98.32","","","","-8","","Cloudy"
"2007-01-28 02:00","2007","01","28","02:00","-4.1","","-5.8","","88","","35","","26","","24.1","","98.38","","","","-11","","Mainly Clear"
"2007-01-28 03:00","2007","01","28","03:00","-6.1","","-8.0","","86","","35","","19","","24.1","","98.43","","","","-13","","Mainly Clear"
"2007-01-28 04:00","2007","01","28","04:00","-6.2","","-8.1","","86","","34","","19","","24.1","","98.48","","","","-13","","Mostly Cloudy"
"2007-01-28 05:00","2007","01","28","05:00","-7.1","","-9.2","","85","","34","","15","","24.1","","98.50","","","","-13","","Mostly Cloudy"
"2007-01-28 06:00","2007","01","28","06:00","-8.4","","-10.1","","88","","35","","13","","24.1","","98.53","","","","-14","","Mostly Cloudy"
"2007-01-28 07:00","2007","01","28","07:00","-8.2","","-10.2","","85","","1","","11","","24.1","","98.61","","","","-13","","Mostly Cloudy"
"2007-01-28 08:00","2007","01","28","08:00","-8.2","","-10.2","","85","","2","","17","","24.1","","98.67","","","","-15","","Cloudy"
"2007-01-28 09:00","2007","01","28","09:00","-9.0","","-10.8","","87","","3","","13","","2.0","","98.71","","","","-15","","Snow Showers"
"2007-01-28 10:00","2007","01","28","10:00","-9.7","","-11.4","","87","","36","","19","","1.2","","98.70","","","","-17","","Snow"
"2007-01-28 11:00","2007","01","28","11:00","-10.6","","-12.4","","87","","1","","15","","9.7","","98.76","","","","-17","","Snow"
"2007-01-28 12:00","2007","01","28","12:00","-10.5","","-12.5","","85","","36","","13","","4.8","","98.72","","","","-17","","Snow"
"2007-01-28 13:00","2007","01","28","13:00","-10.7","","-12.7","","85","","35","","17","","16.1","","98.68","","","","-18","","Snow"
"2007-01-28 14:00","2007","01","28","14:00","-9.8","","-12.6","","80","","36","","17","","19.3","","98.65","","","","-17","","Snow"
"2007-01-28 15:00","2007","01","28","15:00","-10.0","","-12.2","","84","","34","","19","","2.4","","98.66","","","","-18","","Snow"
"2007-01-28 16:00","2007","01","28","16:00","-10.1","","-12.2","","85","","34","","20","","4.8","","98.68","","","","-18","","Snow"
"2007-01-28 17:00","2007","01","28","17:00","-10.2","","-12.7","","82","","34","","26","","16.1","","98.72","","","","-19","","Snow"
"2007-01-28 18:00","2007","01","28","18:00","-10.3","","-13.0","","81","","36","","20","","16.1","","98.79","","","","-18","","Snow"
"2007-01-28 19:00","2007","01","28","19:00","-10.4","","-13.1","","81","","34","","20","","24.1","","98.86","","","","-18","","Mostly Cloudy"
"2007-01-28 20:00","2007","01","28","20:00","-10.2","","-13.2","","79","","34","","17","","19.3","","98.92","","","","-17","","Snow"
"2007-01-28 21:00","2007","01","28","21:00","-10.2","","-13.2","","79","","34","","15","","16.1","","98.93","","","","-17","","Snow"
"2007-01-28 22:00","2007","01","28","22:00","-10.1","","-12.6","","82","","33","","13","","24.1","","98.99","","","","-16","","Mostly Cloudy"
"2007-01-28 23:00","2007","01","28","23:00","-10.7","","-13.4","","80","","32","","15","","24.1","","99.02","","","","-18","","Mostly Cloudy"
"2007-01-29 00:00","2007","01","29","00:00","-11.8","","-14.8","","78","","33","","17","","24.1","","99.10","","","","-19","","Mainly Clear"
"2007-01-29 01:00","2007","01","29","01:00","-12.9","","-15.8","","79","","32","","19","","24.1","","99.14","","","","-21","","Clear"
"2007-01-29 02:00","2007","01","29","02:00","-13.2","","-16.4","","77","","33","","22","","24.1","","99.22","","","","-22","","Clear"
"2007-01-29 03:00","2007","01","29","03:00","-14.9","","-17.6","","80","","36","","11","","24.1","","99.22","","","","-21","","Mainly Clear"
"2007-01-29 04:00","2007","01","29","04:00","-15.8","","-18.0","","83","","30","","13","","24.1","","99.22","","","","-23","","Mainly Clear"
"2007-01-29 05:00","2007","01","29","05:00","-14.9","","-16.9","","85","","26","","9","","24.1","","99.27","","","","-21","","Mostly Cloudy"
"2007-01-29 06:00","2007","01","29","06:00","-14.9","","-16.8","","85","","25","","6","","24.1","","99.26","","","","-19","","Mainly Clear"
"2007-01-29 07:00","2007","01","29","07:00","-14.6","","-16.6","","85","","27","","9","","24.1","","99.30","","","","-20","","Mostly Cloudy"
"2007-01-29 08:00","2007","01","29","08:00","-13.2","","-15.2","","85","","26","","9","","24.1","","99.33","","","","-19","","Mostly Cloudy"
"2007-01-29 09:00","2007","01","29","09:00","-11.4","","-13.8","","82","","26","","13","","24.1","","99.35","","","","-18","","Mostly Cloudy"
"2007-01-29 10:00","2007","01","29","10:00","-10.3","","-12.9","","81","","24","","15","","24.1","","99.34","","","","-17","","Mostly Cloudy"
"2007-01-29 11:00","2007","01","29","11:00","-9.3","","-12.5","","78","","26","","19","","24.1","","99.35","","","","-17","","Mostly Cloudy"
"2007-01-29 12:00","2007","01","29","12:00","-8.1","","-11.3","","78","","25","","11","","24.1","","99.29","","","","-13","","Snow Showers"
"2007-01-29 13:00","2007","01","29","13:00","-6.8","","-11.0","","72","","27","","26","","24.1","","99.24","","","","-15","","Snow Showers"
"2007-01-29 14:00","2007","01","29","14:00","-6.5","","-11.3","","69","","25","","32","","24.1","","99.20","","","","-15","","Snow Showers"
"2007-01-29 15:00","2007","01","29","15:00","-6.4","","-11.6","","67","","26","","32","","24.1","","99.20","","","","-15","","Mostly Cloudy"
"2007-01-29 16:00","2007","01","29","16:00","-6.3","","-11.7","","65","","28","","22","","24.1","","99.18","","","","-14","","Mostly Cloudy"
"2007-01-29 17:00","2007","01","29","17:00","-6.8","","-12.1","","66","","27","","26","","24.1","","99.18","","","","-15","","Mostly Cloudy"
"2007-01-29 18:00","2007","01","29","18:00","-8.3","","-12.2","","73","","25","","19","","24.1","","99.20","","","","-16","","Mostly Cloudy"
"2007-01-29 19:00","2007","01","29","19:00","-9.1","","-12.3","","78","","24","","15","","24.1","","99.25","","","","-16","","Mainly Clear"
"2007-01-29 20:00","2007","01","29","20:00","-10.1","","-12.8","","81","","25","","13","","24.1","","99.28","","","","-16","","Mainly Clear"
"2007-01-29 21:00","2007","01","29","21:00","-10.0","","-12.4","","83","","25","","13","","24.1","","99.28","","","","-16","","Mainly Clear"
"2007-01-29 22:00","2007","01","29","22:00","-10.1","","-12.8","","81","","25","","17","","24.1","","99.28","","","","-17","","Mainly Clear"
"2007-01-29 23:00","2007","01","29","23:00","-9.6","","-12.6","","79","","27","","13","","24.1","","99.26","","","","-16","","Mostly Cloudy"
"2007-01-30 00:00","2007","01","30","00:00","-9.9","","-12.8","","79","","32","","11","","24.1","","99.26","","","","-15","","Mostly Cloudy"
"2007-01-30 01:00","2007","01","30","01:00","-11.3","","-13.6","","83","","35","","11","","24.1","","99.19","","","","-17","","Mainly Clear"
"2007-01-30 02:00","2007","01","30","02:00","-10.8","","-13.1","","83","","32","","6","","24.1","","99.18","","","","-14","","Mostly Cloudy"
"2007-01-30 03:00","2007","01","30","03:00","-12.4","","-14.0","","88","","27","","4","","24.1","","99.18","","","","-15","","Mostly Cloudy"
"2007-01-30 04:00","2007","01","30","04:00","-11.1","","-12.7","","88","","","","0","","24.1","","99.15","","","","","","Mostly Cloudy"
"2007-01-30 05:00","2007","01","30","05:00","-10.9","","-13.0","","84","","4","","4","","24.1","","99.14","","","","-13","","Mostly Cloudy"
"2007-01-30 06:00","2007","01","30","06:00","-11.3","","-12.9","","88","","","","0","","12.9","","99.13","","","","","","Snow"
"2007-01-30 07:00","2007","01","30","07:00","-10.7","","-12.1","","89","","32","","9","","12.9","","99.13","","","","-16","","Snow"
"2007-01-30 08:00","2007","01","30","08:00","-11.4","","-12.8","","89","","1","","11","","4.0","","99.13","","","","-17","","Snow"
"2007-01-30 09:00","2007","01","30","09:00","-10.7","","-12.4","","87","","36","","9","","12.9","","99.14","","","","-16","","Snow"
"2007-01-30 10:00","2007","01","30","10:00","-10.8","","-12.6","","87","","36","","13","","6.4","","99.09","","","","-17","","Snow"
"2007-01-30 11:00","2007","01","30","11:00","-9.9","","-12.1","","84","","36","","7","","19.3","","99.09","","","","-14","","Snow"
"2007-01-30 12:00","2007","01","30","12:00","-9.2","","-11.6","","83","","1","","7","","24.1","","99.04","","","","-13","","Snow"
"2007-01-30 13:00","2007","01","30","13:00","-8.2","","-11.0","","80","","33","","7","","24.1","","98.99","","","","-12","","Snow"
"2007-01-30 14:00","2007","01","30","14:00","-7.3","","-10.4","","78","","","","0","","24.1","","98.96","","","","","","Cloudy"
"2007-01-30 15:00","2007","01","30","15:00","-7.1","","-10.3","","78","","28","","6","","24.1","","98.96","","","","-10","","Mostly Cloudy"
"2007-01-30 16:00","2007","01","30","16:00","-7.0","","-10.5","","76","","32","","4","","24.1","","98.99","","","","-9","","Mostly Cloudy"
"2007-01-30 17:00","2007","01","30","17:00","-7.1","","-10.9","","74","","","","0","","24.1","","99.01","","","","","","Mostly Cloudy"
"2007-01-30 18:00","2007","01","30","18:00","-7.1","","-10.9","","74","","23","","4","","19.3","","99.07","","","","-9","","Mostly Cloudy"
"2007-01-30 19:00","2007","01","30","19:00","-7.1","","-9.9","","80","","27","","4","","11.3","","99.11","","","","-9","","Snow Showers"
"2007-01-30 20:00","2007","01","30","20:00","-7.1","","-8.6","","89","","","","0","","4.0","","99.12","","","","","","Snow Showers"
"2007-01-30 21:00","2007","01","30","21:00","-7.0","","-8.2","","91","","24","","6","","6.4","","99.12","","","","-10","","Snow Showers"
"2007-01-30 22:00","2007","01","30","22:00","-7.8","","-9.4","","88","","27","","17","","9.7","","99.14","","","","-14","","Fog"
"2007-01-30 23:00","2007","01","30","23:00","-8.5","","-11.4","","80","","31","","17","","19.3","","99.21","","","","-15","","Mainly Clear"
"2007-01-31 00:00","2007","01","31","00:00","-9.9","","-12.9","","79","","28","","15","","24.1","","99.25","","","","-17","","Clear"
"2007-01-31 01:00","2007","01","31","01:00","-11.1","","-13.7","","81","","28","","17","","24.1","","99.27","","","","-19","","Clear"
"2007-01-31 02:00","2007","01","31","02:00","-11.7","","-13.5","","86","","27","","13","","24.1","","99.29","","","","-18","","Mainly Clear"
"2007-01-31 03:00","2007","01","31","03:00","-11.5","","-13.3","","86","","25","","19","","24.1","","99.30","","","","-20","","Mainly Clear"
"2007-01-31 04:00","2007","01","31","04:00","-11.6","","-13.1","","89","","23","","9","","24.1","","99.25","","","","-17","","Mainly Clear"
"2007-01-31 05:00","2007","01","31","05:00","-10.0","","-12.0","","85","","22","","13","","24.1","","99.23","","","","-16","","Mostly Cloudy"
"2007-01-31 06:00","2007","01","31","06:00","-8.7","","-11.4","","81","","21","","17","","24.1","","99.22","","","","-16","","Mostly Cloudy"
"2007-01-31 07:00","2007","01","31","07:00","-8.1","","-10.6","","82","","23","","22","","16.1","","99.23","","","","-16","","Snow"
"2007-01-31 08:00","2007","01","31","08:00","-7.8","","-10.8","","79","","24","","33","","24.1","","99.26","","","","-17","","Mostly Cloudy"
"2007-01-31 09:00","2007","01","31","09:00","-7.3","","-10.3","","79","","24","","28","","24.1","","99.31","","","","-16","","Mostly Cloudy"
"2007-01-31 10:00","2007","01","31","10:00","-6.7","","-10.8","","73","","25","","37","","24.1","","99.36","","","","-16","","Mostly Cloudy"
"2007-01-31 11:00","2007","01","31","11:00","-6.3","","-10.3","","73","","26","","37","","24.1","","99.43","","","","-16","","Mostly Cloudy"
"2007-01-31 12:00","2007","01","31","12:00","-5.7","","-10.9","","67","","27","","43","","24.1","","99.41","","","","-15","","Mostly Cloudy"
"2007-01-31 13:00","2007","01","31","13:00","-5.5","","-11.0","","65","","26","","41","","24.1","","99.37","","","","-15","","Mostly Cloudy"
"2007-01-31 14:00","2007","01","31","14:00","-5.5","","-11.0","","65","","26","","41","","24.1","","99.35","","","","-15","","Mainly Clear"
"2007-01-31 15:00","2007","01","31","15:00","-6.1","","-11.7","","65","","25","","32","","24.1","","99.39","","","","-15","","Mostly Cloudy"
"2007-01-31 16:00","2007","01","31","16:00","-6.0","","-11.9","","63","","26","","30","","24.1","","99.39","","","","-14","","Mainly Clear"
"2007-01-31 17:00","2007","01","31","17:00","-6.6","","-11.1","","70","","25","","26","","24.1","","99.42","","","","-15","","Mostly Cloudy"
"2007-01-31 18:00","2007","01","31","18:00","-6.6","","-11.7","","67","","22","","26","","24.1","","99.43","","","","-15","","Mostly Cloudy"
"2007-01-31 19:00","2007","01","31","19:00","-7.2","","-12.4","","66","","22","","19","","24.1","","99.43","","","","-14","","Mainly Clear"
"2007-01-31 20:00","2007","01","31","20:00","-7.9","","-11.8","","74","","23","","24","","24.1","","99.42","","","","-16","","Mostly Cloudy"
"2007-01-31 21:00","2007","01","31","21:00","-8.1","","-11.8","","75","","23","","22","","24.1","","99.34","","","","-16","","Mostly Cloudy"
"2007-01-31 22:00","2007","01","31","22:00","-8.2","","-12.3","","72","","23","","26","","24.1","","99.28","","","","-17","","Mostly Cloudy"
"2007-01-31 23:00","2007","01","31","23:00","-7.9","","-12.6","","69","","23","","30","","24.1","","99.25","","","","-17","","Mostly Cloudy"
