"Station Name","TORONTO LESTER B. PEARSON INT'L A"
"Province","ONTARIO"
"Latitude","43.68"
"Longitude","-79.63"
"Elevation","173.40"
"Climate Identifier","6158733"
"WMO Identifier","71624"
"TC Identifier","YYZ"
"All times are specified in Local Standard Time (LST). Add 1 hour to adjust for Daylight Saving Time where and when it is observed."

"Legend"
"E","Estimated"
"M","Missing"
"NA","Not Available"

"Date/Time","Year","Month","Day","Time","Temp (°C)","Temp Flag","Dew Point Temp (°C)","Dew Point Temp Flag","Rel Hum (%)","Rel Hum Flag","Wind Dir (10s deg)","Wind Dir Flag","Wind Spd (km/h)","Wind Spd Flag","Visibility (km)","Visibility Flag","Stn Press (kPa)","Stn Press Flag","Hmdx","Hmdx Flag","Wind Chill","Wind Chill Flag","Weather"
"1969-10-01 00:00","1969","10","01","00:00","7.8","","5.0","","83","","32","","5","","25.0","","99.42","","","","","","Clear"
"1969-10-01 01:00","1969","10","01","01:00","5.0","","3.9","","93","","29","","8","","25.0","","99.44","","","","","","Clear"
"1969-10-01 02:00","1969","10","01","02:00","5.0","","3.9","","93","","34","","13","","25.0","","99.54","","","","","","Clear"
"1969-10-01 03:00","1969","10","01","03:00","5.0","","3.9","","93","","36","","8","","25.0","","99.57","","","","","","Clear"
"1969-10-01 04:00","1969","10","01","04:00","6.1","","5.0","","93","","36","","11","","25.0","","99.60","","","","","","Mainly Clear"
"1969-10-01 05:00","1969","10","01","05:00","6.7","","5.6","","93","","34","","10","","25.0","","99.59","","","","","","Mostly Cloudy"
"1969-10-01 06:00","1969","10","01","06:00","5.6","","4.4","","93","","32","","8","","25.0","","99.66","","","","","","Mainly Clear"
"1969-10-01 07:00","1969","10","01","07:00","6.1","","5.0","","93","","20","","3","","25.0","","99.67","","","","","","Mainly Clear"
"1969-10-01 08:00","1969","10","01","08:00","9.4","","7.8","","90","","2","","6","","12.9","","99.68","","","","","","Mainly Clear"
"1969-10-01 09:00","1969","10","01","09:00","12.8","","7.8","","72","","11","","13","","11.3","","99.69","","","","","","Mostly Cloudy"
"1969-10-01 10:00","1969","10","01","10:00","14.4","","8.9","","69","","11","","19","","19.3","","99.73","","","","","","Mostly Cloudy"
"1969-10-01 11:00","1969","10","01","11:00","15.0","","10.6","","74","","14","","18","","19.3","","99.78","","","","","","Mostly Cloudy"
"1969-10-01 12:00","1969","10","01","12:00","16.1","","10.6","","69","","9","","16","","19.3","","99.77","","","","","","Mostly Cloudy"
"1969-10-01 13:00","1969","10","01","13:00","17.2","","10.6","","66","","14","","13","","19.3","","99.74","","","","","","Mainly Clear"
"1969-10-01 14:00","1969","10","01","14:00","17.8","","11.1","","65","","9","","16","","11.3","","99.64","","","","","","Mainly Clear"
"1969-10-01 15:00","1969","10","01","15:00","17.8","","11.1","","65","","11","","19","","11.3","","99.59","","","","","","Mostly Cloudy"
"1969-10-01 16:00","1969","10","01","16:00","16.7","","11.7","","71","","14","","21","","16.1","","99.53","","","","","","Mostly Cloudy"
"1969-10-01 17:00","1969","10","01","17:00","15.6","","11.7","","77","","11","","18","","16.1","","99.48","","","","","","Mostly Cloudy"
"1969-10-01 18:00","1969","10","01","18:00","15.0","","11.7","","82","","9","","14","","8.0","","99.47","","","","","","Haze"
"1969-10-01 19:00","1969","10","01","19:00","13.9","","11.7","","86","","9","","13","","16.1","","99.43","","","","","","Mostly Cloudy"
"1969-10-01 20:00","1969","10","01","20:00","13.9","","11.7","","86","","9","","11","","11.3","","99.38","","","","","","Mainly Clear"
"1969-10-01 21:00","1969","10","01","21:00","13.3","","11.7","","91","","9","","6","","9.7","","99.37","","","","","","Fog"
"1969-10-01 22:00","1969","10","01","22:00","11.7","","10.0","","91","","32","","2","","9.7","","99.33","","","","","","Fog"
"1969-10-01 23:00","1969","10","01","23:00","10.6","","9.4","","94","","32","","6","","6.4","","99.25","","","","","","Fog"
"1969-10-02 00:00","1969","10","02","00:00","10.6","","10.0","","96","","32","","5","","8.0","","99.20","","","","","","Fog"
"1969-10-02 01:00","1969","10","02","01:00","11.1","","10.6","","96","","36","","5","","8.0","","99.12","","","","","","Fog"
"1969-10-02 02:00","1969","10","02","02:00","11.1","","10.6","","98","","","","0","","6.4","","99.12","","","","","","Fog"
"1969-10-02 03:00","1969","10","02","03:00","11.7","","11.1","","96","","29","","11","","6.4","","99.14","","","","","","Fog"
"1969-10-02 04:00","1969","10","02","04:00","12.8","","11.7","","95","","11","","5","","8.0","","99.13","","","","","","Fog"
"1969-10-02 05:00","1969","10","02","05:00","13.9","","12.2","","90","","14","","6","","8.0","","99.05","","","","","","Fog"
"1969-10-02 06:00","1969","10","02","06:00","15.6","","13.3","","87","","16","","10","","8.0","","99.06","","","","","","Fog"
"1969-10-02 07:00","1969","10","02","07:00","15.0","","13.9","","92","","11","","10","","4.8","","99.06","","","","","","Rain,Fog"
"1969-10-02 08:00","1969","10","02","08:00","15.6","","14.4","","92","","11","","6","","4.8","","99.02","","","","","","Fog"
"1969-10-02 09:00","1969","10","02","09:00","16.7","","13.9","","83","","14","","10","","4.8","","98.94","","","","","","Fog"
"1969-10-02 10:00","1969","10","02","10:00","16.7","","14.4","","85","","14","","13","","6.4","","98.90","","","","","","Fog"
"1969-10-02 11:00","1969","10","02","11:00","16.1","","14.4","","89","","9","","16","","4.0","","98.88","","","","","","Rain,Fog"
"1969-10-02 12:00","1969","10","02","12:00","15.6","","15.0","","95","","11","","16","","3.2","","98.77","","","","","","Rain,Fog"
"1969-10-02 13:00","1969","10","02","13:00","15.6","","15.0","","95","","11","","19","","4.0","","98.67","","","","","","Fog"
"1969-10-02 14:00","1969","10","02","14:00","15.6","","15.0","","95","","11","","14","","3.2","","98.59","","","","","","Rain,Fog"
"1969-10-02 15:00","1969","10","02","15:00","16.1","","15.0","","93","","9","","16","","2.4","","98.53","","","","","","Fog"
"1969-10-02 16:00","1969","10","02","16:00","16.1","","15.0","","93","","9","","10","","2.0","","98.52","","","","","","Fog"
"1969-10-02 17:00","1969","10","02","17:00","16.7","","15.6","","94","","9","","13","","2.8","","98.50","","","","","","Fog"
"1969-10-02 18:00","1969","10","02","18:00","16.7","","15.6","","94","","7","","3","","2.0","","98.52","","","","","","Fog"
"1969-10-02 19:00","1969","10","02","19:00","16.1","","15.0","","93","","","","0","","2.8","","98.53","","","","","","Drizzle,Fog"
"1969-10-02 20:00","1969","10","02","20:00","16.1","","15.6","","96","","2","","5","","1.6","","98.55","","","","","","Fog"
"1969-10-02 21:00","1969","10","02","21:00","16.1","","15.6","","96","","5","","5","","2.4","","98.59","","","","","","Fog"
"1969-10-02 22:00","1969","10","02","22:00","16.1","","15.6","","96","","","","0","","2.0","","98.62","","","","","","Rain Showers,Fog"
"1969-10-02 23:00","1969","10","02","23:00","15.0","","15.0","","98","","29","","8","","1.2","","98.64","","","","","","Fog"
"1969-10-03 00:00","1969","10","03","00:00","15.6","","15.0","","97","","36","","6","","1.6","","98.64","","","","","","Fog"
"1969-10-03 01:00","1969","10","03","01:00","15.6","","15.0","","97","","32","","5","","1.6","","98.66","","","","","","Fog"
"1969-10-03 02:00","1969","10","03","02:00","15.6","","15.6","","98","","32","","3","","2.4","","98.68","","","","","","Fog"
"1969-10-03 03:00","1969","10","03","03:00","15.6","","15.6","","98","","34","","6","","2.4","","98.69","","","","","","Fog"
"1969-10-03 04:00","1969","10","03","04:00","16.1","","15.6","","98","","36","","10","","3.6","","98.71","","","","","","Fog"
"1969-10-03 05:00","1969","10","03","05:00","16.1","","15.6","","96","","36","","24","","4.0","","98.82","","","","","","Fog"
"1969-10-03 06:00","1969","10","03","06:00","16.1","","15.0","","93","","36","","26","","4.8","","98.93","","","","","","Fog"
"1969-10-03 07:00","1969","10","03","07:00","16.1","","15.0","","93","","36","","26","","6.4","","99.03","","","","","","Fog"
"1969-10-03 08:00","1969","10","03","08:00","16.1","","14.4","","91","","34","","27","","12.9","","99.12","","","","","","Cloudy"
"1969-10-03 09:00","1969","10","03","09:00","16.1","","13.9","","87","","34","","26","","9.7","","99.24","","","","","","Fog"
"1969-10-03 10:00","1969","10","03","10:00","16.1","","13.9","","87","","34","","29","","12.9","","99.32","","","","","","Cloudy"
"1969-10-03 11:00","1969","10","03","11:00","17.2","","13.9","","81","","34","","23","","11.3","","99.38","","","","","","Cloudy"
"1969-10-03 12:00","1969","10","03","12:00","17.2","","13.9","","79","","34","","26","","12.9","","99.43","","","","","","Cloudy"
"1969-10-03 13:00","1969","10","03","13:00","18.3","","14.4","","78","","34","","29","","12.9","","99.42","","","","","","Mostly Cloudy"
"1969-10-03 14:00","1969","10","03","14:00","20.6","","12.8","","62","","34","","24","","19.3","","99.41","","","","","","Mainly Clear"
"1969-10-03 15:00","1969","10","03","15:00","21.1","","12.2","","58","","34","","23","","19.3","","99.44","","","","","","Mainly Clear"
"1969-10-03 16:00","1969","10","03","16:00","19.4","","11.7","","61","","36","","29","","24.1","","99.51","","","","","","Mainly Clear"
"1969-10-03 17:00","1969","10","03","17:00","16.7","","11.1","","69","","36","","26","","24.1","","99.58","","","","","","Mainly Clear"
"1969-10-03 18:00","1969","10","03","18:00","13.9","","10.0","","78","","36","","26","","24.1","","99.64","","","","","","Mainly Clear"
"1969-10-03 19:00","1969","10","03","19:00","12.8","","9.4","","81","","34","","26","","24.1","","99.78","","","","","","Mainly Clear"
"1969-10-03 20:00","1969","10","03","20:00","10.6","","8.9","","88","","34","","16","","24.1","","99.84","","","","","","Mainly Clear"
"1969-10-03 21:00","1969","10","03","21:00","10.0","","8.3","","88","","36","","19","","24.1","","99.88","","","","","","Mainly Clear"
"1969-10-03 22:00","1969","10","03","22:00","10.0","","8.3","","88","","36","","13","","24.1","","99.95","","","","","","Mainly Clear"
"1969-10-03 23:00","1969","10","03","23:00","8.3","","7.2","","92","","36","","16","","24.1","","99.98","","","","","","Mainly Clear"
"1969-10-04 00:00","1969","10","04","00:00","6.7","","6.1","","96","","34","","18","","25.0","","100.04","","","","","","Clear"
"1969-10-04 01:00","1969","10","04","01:00","6.1","","5.0","","93","","36","","13","","25.0","","100.06","","","","","","Clear"
"1969-10-04 02:00","1969","10","04","02:00","5.6","","5.0","","95","","36","","13","","25.0","","100.10","","","","","","Clear"
"1969-10-04 03:00","1969","10","04","03:00","5.0","","4.4","","95","","36","","13","","25.0","","100.15","","","","","","Clear"
"1969-10-04 04:00","1969","10","04","04:00","3.9","","3.3","","97","","2","","10","","25.0","","100.20","","","","","","Clear"
"1969-10-04 05:00","1969","10","04","05:00","3.3","","3.3","","100","","36","","13","","19.3","","100.26","","","","","","Clear"
"1969-10-04 06:00","1969","10","04","06:00","3.9","","3.3","","95","","36","","16","","19.3","","100.28","","","","","","Mainly Clear"
"1969-10-04 07:00","1969","10","04","07:00","4.4","","3.9","","98","","36","","16","","16.1","","100.31","","","","","","Mostly Cloudy"
"1969-10-04 08:00","1969","10","04","08:00","5.6","","4.4","","93","","36","","16","","19.3","","100.39","","","","","","Mostly Cloudy"
"1969-10-04 09:00","1969","10","04","09:00","7.2","","5.0","","87","","2","","19","","24.1","","100.45","","","","","","Mostly Cloudy"
"1969-10-04 10:00","1969","10","04","10:00","8.9","","5.6","","80","","36","","13","","24.1","","100.48","","","","","","Mostly Cloudy"
"1969-10-04 11:00","1969","10","04","11:00","8.9","","3.9","","72","","36","","11","","32.2","","100.50","","","","","","Mostly Cloudy"
"1969-10-04 12:00","1969","10","04","12:00","10.0","","6.7","","79","","34","","10","","40.2","","100.52","","","","","","Mostly Cloudy"
"1969-10-04 13:00","1969","10","04","13:00","10.0","","5.0","","71","","5","","13","","40.2","","100.48","","","","","","Mostly Cloudy"
"1969-10-04 14:00","1969","10","04","14:00","11.1","","6.1","","70","","2","","11","","40.2","","100.45","","","","","","Mainly Clear"
"1969-10-04 15:00","1969","10","04","15:00","12.2","","5.6","","63","","36","","3","","40.2","","100.39","","","","","","Mainly Clear"
"1969-10-04 16:00","1969","10","04","16:00","12.2","","6.1","","67","","14","","16","","32.2","","100.40","","","","","","Mainly Clear"
"1969-10-04 17:00","1969","10","04","17:00","11.1","","6.1","","70","","14","","14","","24.1","","100.43","","","","","","Clear"
"1969-10-04 18:00","1969","10","04","18:00","9.4","","6.1","","80","","14","","13","","24.1","","100.43","","","","","","Mainly Clear"
"1969-10-04 19:00","1969","10","04","19:00","8.9","","6.1","","82","","11","","10","","24.1","","100.42","","","","","","Mainly Clear"
"1969-10-04 20:00","1969","10","04","20:00","8.9","","6.1","","84","","9","","6","","25.0","","100.47","","","","","","Mainly Clear"
"1969-10-04 21:00","1969","10","04","21:00","6.7","","5.6","","91","","36","","5","","24.1","","100.50","","","","","","Mostly Cloudy"
"1969-10-04 22:00","1969","10","04","22:00","8.3","","6.7","","90","","36","","11","","24.1","","100.50","","","","","","Mostly Cloudy"
"1969-10-04 23:00","1969","10","04","23:00","8.3","","6.7","","90","","36","","8","","24.1","","100.52","","","","","","Mostly Cloudy"
"1969-10-05 00:00","1969","10","05","00:00","8.3","","7.2","","92","","36","","6","","25.0","","100.51","","","","","","Mostly Cloudy"
"1969-10-05 01:00","1969","10","05","01:00","8.3","","7.2","","92","","2","","10","","24.1","","100.49","","","","","","Mostly Cloudy"
"1969-10-05 02:00","1969","10","05","02:00","8.9","","7.2","","88","","2","","10","","25.0","","100.52","","","","","","Mostly Cloudy"
"1969-10-05 03:00","1969","10","05","03:00","9.4","","7.2","","86","","7","","13","","25.0","","100.46","","","","","","Mostly Cloudy"
"1969-10-05 04:00","1969","10","05","04:00","8.9","","7.2","","88","","5","","8","","25.0","","100.42","","","","","","Cloudy"
"1969-10-05 05:00","1969","10","05","05:00","10.0","","7.2","","84","","2","","6","","25.0","","100.48","","","","","","Cloudy"
"1969-10-05 06:00","1969","10","05","06:00","10.6","","8.3","","85","","11","","18","","25.0","","100.49","","","","","","Mostly Cloudy"
"1969-10-05 07:00","1969","10","05","07:00","10.6","","7.8","","83","","11","","11","","24.1","","100.52","","","","","","Mostly Cloudy"
"1969-10-05 08:00","1969","10","05","08:00","10.6","","7.2","","81","","11","","13","","24.1","","100.52","","","","","","Mostly Cloudy"
"1969-10-05 09:00","1969","10","05","09:00","11.1","","7.2","","76","","9","","16","","24.1","","100.52","","","","","","Mainly Clear"
"1969-10-05 10:00","1969","10","05","10:00","11.7","","7.2","","73","","9","","14","","24.1","","100.48","","","","","","Mainly Clear"
"1969-10-05 11:00","1969","10","05","11:00","13.3","","7.2","","68","","14","","16","","24.1","","100.46","","","","","","Mainly Clear"
"1969-10-05 12:00","1969","10","05","12:00","13.3","","7.2","","66","","11","","13","","19.3","","100.44","","","","","","Clear"
"1969-10-05 13:00","1969","10","05","13:00","14.4","","7.2","","61","","16","","13","","19.3","","100.39","","","","","","Mainly Clear"
"1969-10-05 14:00","1969","10","05","14:00","14.4","","7.2","","61","","14","","13","","19.3","","100.32","","","","","","Mainly Clear"
"1969-10-05 15:00","1969","10","05","15:00","15.6","","7.8","","59","","14","","13","","19.3","","100.25","","","","","","Mainly Clear"
"1969-10-05 16:00","1969","10","05","16:00","16.1","","8.3","","59","","14","","11","","16.1","","100.25","","","","","","Clear"
"1969-10-05 17:00","1969","10","05","17:00","15.6","","8.9","","64","","14","","10","","12.9","","100.24","","","","","","Mainly Clear"
"1969-10-05 18:00","1969","10","05","18:00","13.3","","8.3","","71","","16","","8","","12.9","","100.20","","","","","","Mainly Clear"
"1969-10-05 19:00","1969","10","05","19:00","11.7","","8.9","","83","","16","","8","","16.1","","100.20","","","","","","Mainly Clear"
"1969-10-05 20:00","1969","10","05","20:00","11.1","","8.9","","85","","11","","6","","19.3","","100.16","","","","","","Mainly Clear"
"1969-10-05 21:00","1969","10","05","21:00","11.1","","10.0","","92","","","","0","","19.3","","100.13","","","","","","Mainly Clear"
"1969-10-05 22:00","1969","10","05","22:00","7.2","","6.7","","98","","27","","6","","19.3","","100.13","","","","","","Clear"
"1969-10-05 23:00","1969","10","05","23:00","7.8","","7.2","","98","","","","0","","9.7","","100.10","","","","","","Fog"
"1969-10-06 00:00","1969","10","06","00:00","7.2","","6.7","","96","","34","","8","","4.8","","100.07","","","","","","Fog"
"1969-10-06 01:00","1969","10","06","01:00","5.0","","4.4","","95","","36","","5","","4.0","","100.01","","","","","","Fog"
"1969-10-06 02:00","1969","10","06","02:00","5.6","","5.6","","100","","34","","5","","2.4","","99.98","","","","","","Fog"
"1969-10-06 03:00","1969","10","06","03:00","7.2","","6.7","","98","","32","","6","","3.2","","99.93","","","","","","Fog"
"1969-10-06 04:00","1969","10","06","04:00","8.3","","8.3","","100","","","","0","","0.2","","99.93","","","","","","Fog"
"1969-10-06 05:00","1969","10","06","05:00","9.4","","9.4","","100","","","","0","","0.2","","99.95","","","","","","Fog"
"1969-10-06 06:00","1969","10","06","06:00","10.0","","10.0","","100","","","","0","","0.2","","99.95","","","","","","Fog"
"1969-10-06 07:00","1969","10","06","07:00","10.0","","10.0","","100","","","","0","","0.0","","99.93","","","","","","Fog"
"1969-10-06 08:00","1969","10","06","08:00","10.6","","10.6","","100","","29","","5","","0.0","","99.93","","","","","","Fog"
"1969-10-06 09:00","1969","10","06","09:00","11.1","","10.6","","98","","14","","5","","0.8","","99.90","","","","","","Fog"
"1969-10-06 10:00","1969","10","06","10:00","12.8","","11.7","","93","","14","","10","","4.0","","99.86","","","","","","Fog"
"1969-10-06 11:00","1969","10","06","11:00","15.0","","11.1","","79","","16","","11","","6.4","","99.80","","","","","","Haze"
"1969-10-06 12:00","1969","10","06","12:00","15.6","","11.1","","74","","16","","14","","6.4","","99.79","","","","","","Haze"
"1969-10-06 13:00","1969","10","06","13:00","16.7","","11.7","","71","","18","","16","","6.4","","99.73","","","","","","Haze"
"1969-10-06 14:00","1969","10","06","14:00","17.2","","12.2","","72","","16","","16","","6.4","","99.67","","","","","","Haze"
"1969-10-06 15:00","1969","10","06","15:00","16.7","","11.7","","73","","14","","14","","6.4","","99.63","","","","","","Haze"
"1969-10-06 16:00","1969","10","06","16:00","16.7","","11.7","","73","","11","","16","","6.4","","99.61","","","","","","Haze"
"1969-10-06 17:00","1969","10","06","17:00","16.1","","12.2","","77","","14","","16","","6.4","","99.59","","","","","","Haze"
"1969-10-06 18:00","1969","10","06","18:00","15.0","","11.7","","82","","11","","13","","6.4","","99.57","","","","","","Haze"
"1969-10-06 19:00","1969","10","06","19:00","14.4","","11.7","","83","","11","","14","","8.0","","99.58","","","","","","Haze"
"1969-10-06 20:00","1969","10","06","20:00","14.4","","12.2","","86","","11","","10","","8.0","","99.55","","","","","","Haze"
"1969-10-06 21:00","1969","10","06","21:00","14.4","","12.2","","86","","11","","8","","9.7","","99.54","","","","","","Haze"
"1969-10-06 22:00","1969","10","06","22:00","14.4","","12.2","","88","","11","","6","","8.0","","99.51","","","","","","Haze"
"1969-10-06 23:00","1969","10","06","23:00","13.3","","12.2","","95","","14","","10","","6.4","","99.48","","","","","","Fog"
"1969-10-07 00:00","1969","10","07","00:00","13.9","","13.3","","95","","14","","10","","4.8","","99.43","","","","","","Rain Showers,Fog"
"1969-10-07 01:00","1969","10","07","01:00","14.4","","13.3","","91","","16","","11","","6.4","","99.37","","","","","","Fog"
"1969-10-07 02:00","1969","10","07","02:00","13.3","","12.2","","93","","14","","10","","6.4","","99.31","","","","","","Fog"
"1969-10-07 03:00","1969","10","07","03:00","13.9","","12.8","","93","","14","","13","","8.0","","99.24","","","","","","Fog"
"1969-10-07 04:00","1969","10","07","04:00","14.4","","12.2","","88","","18","","8","","8.0","","99.19","","","","","","Fog"
"1969-10-07 05:00","1969","10","07","05:00","13.9","","12.2","","90","","14","","8","","8.0","","99.09","","","","","","Fog"
"1969-10-07 06:00","1969","10","07","06:00","15.0","","12.8","","85","","16","","13","","8.0","","99.10","","","","","","Fog"
"1969-10-07 07:00","1969","10","07","07:00","15.0","","12.8","","85","","16","","11","","4.8","","99.09","","","","","","Fog"
"1969-10-07 08:00","1969","10","07","08:00","15.6","","12.8","","82","","16","","13","","4.8","","99.04","","","","","","Fog"
"1969-10-07 09:00","1969","10","07","09:00","16.1","","13.3","","83","","18","","21","","4.8","","98.99","","","","","","Fog"
"1969-10-07 10:00","1969","10","07","10:00","16.7","","12.8","","79","","18","","19","","4.8","","98.95","","","","","","Haze"
"1969-10-07 11:00","1969","10","07","11:00","17.2","","12.8","","75","","20","","21","","4.8","","98.93","","","","","","Rain Showers,Haze"
"1969-10-07 12:00","1969","10","07","12:00","13.3","","12.2","","95","","27","","16","","6.4","","98.97","","","","","","Rain Showers,Fog"
"1969-10-07 13:00","1969","10","07","13:00","13.3","","12.2","","93","","27","","8","","19.3","","98.95","","","","","","Rain Showers"
"1969-10-07 14:00","1969","10","07","14:00","13.9","","11.7","","88","","20","","11","","19.3","","98.91","","","","","","Rain Showers"
"1969-10-07 15:00","1969","10","07","15:00","14.4","","12.8","","90","","23","","18","","24.1","","98.99","","","","","","Mostly Cloudy"
"1969-10-07 16:00","1969","10","07","16:00","15.6","","13.3","","85","","23","","16","","24.1","","99.02","","","","","","Mostly Cloudy"
"1969-10-07 17:00","1969","10","07","17:00","15.6","","11.1","","76","","23","","16","","40.2","","99.05","","","","","","Mainly Clear"
"1969-10-07 18:00","1969","10","07","18:00","13.3","","10.6","","83","","23","","13","","32.2","","99.13","","","","","","Mostly Cloudy"
"1969-10-07 19:00","1969","10","07","19:00","11.1","","9.4","","89","","23","","11","","25.0","","99.16","","","","","","Clear"
"1969-10-07 20:00","1969","10","07","20:00","11.1","","9.4","","89","","20","","13","","25.0","","99.22","","","","","","Clear"
"1969-10-07 21:00","1969","10","07","21:00","11.1","","9.4","","89","","20","","14","","25.0","","99.25","","","","","","Clear"
"1969-10-07 22:00","1969","10","07","22:00","11.1","","9.4","","90","","20","","16","","24.1","","99.25","","","","","","Clear"
"1969-10-07 23:00","1969","10","07","23:00","11.1","","9.4","","90","","18","","10","","24.1","","99.22","","","","","","Clear"
"1969-10-08 00:00","1969","10","08","00:00","12.2","","10.0","","87","","20","","23","","24.1","","99.16","","","","","","Clear"
"1969-10-08 01:00","1969","10","08","01:00","11.7","","10.0","","91","","18","","16","","24.1","","99.13","","","","","","Clear"
"1969-10-08 02:00","1969","10","08","02:00","12.2","","11.1","","93","","25","","10","","16.1","","99.16","","","","","","Rain Showers"
"1969-10-08 03:00","1969","10","08","03:00","12.8","","11.1","","89","","18","","14","","19.3","","99.08","","","","","","Cloudy"
"1969-10-08 04:00","1969","10","08","04:00","12.8","","10.6","","87","","18","","16","","19.3","","99.06","","","","","","Mostly Cloudy"
"1969-10-08 05:00","1969","10","08","05:00","12.2","","10.6","","89","","18","","13","","16.1","","99.06","","","","","","Mainly Clear"
"1969-10-08 06:00","1969","10","08","06:00","11.7","","10.0","","89","","18","","13","","16.1","","99.07","","","","","","Mainly Clear"
"1969-10-08 07:00","1969","10","08","07:00","11.1","","8.9","","87","","20","","14","","12.9","","99.09","","","","","","Mainly Clear"
"1969-10-08 08:00","1969","10","08","08:00","12.8","","8.9","","77","","23","","24","","16.1","","99.10","","","","","","Mainly Clear"
"1969-10-08 09:00","1969","10","08","09:00","14.4","","8.9","","69","","23","","26","","19.3","","99.09","","","","","","Mainly Clear"
"1969-10-08 10:00","1969","10","08","10:00","15.6","","7.8","","61","","23","","31","","24.1","","99.11","","","","","","Mostly Cloudy"
"1969-10-08 11:00","1969","10","08","11:00","16.7","","8.3","","58","","25","","31","","32.2","","99.03","","","","","","Mainly Clear"
"1969-10-08 12:00","1969","10","08","12:00","16.1","","7.2","","55","","25","","37","","32.2","","99.02","","","","","","Mainly Clear"
"1969-10-08 13:00","1969","10","08","13:00","16.7","","4.4","","44","","25","","35","","40.2","","98.98","","","","","","Mainly Clear"
"1969-10-08 14:00","1969","10","08","14:00","15.6","","3.3","","44","","27","","31","","40.2","","99.02","","","","","","Mostly Cloudy"
"1969-10-08 15:00","1969","10","08","15:00","15.0","","2.2","","42","","25","","31","","40.2","","99.06","","","","","","Mostly Cloudy"
"1969-10-08 16:00","1969","10","08","16:00","11.1","","4.4","","64","","27","","31","","24.1","","99.27","","","","","","Rain Showers"
"1969-10-08 17:00","1969","10","08","17:00","10.0","","3.9","","66","","27","","27","","40.2","","99.29","","","","","","Mostly Cloudy"
"1969-10-08 18:00","1969","10","08","18:00","9.4","","3.9","","69","","25","","19","","24.1","","99.37","","","","","","Mostly Cloudy"
"1969-10-08 19:00","1969","10","08","19:00","8.3","","5.6","","83","","27","","19","","25.0","","99.49","","","","","","Mostly Cloudy"
"1969-10-08 20:00","1969","10","08","20:00","7.2","","5.0","","85","","25","","14","","25.0","","99.55","","","","","","Clear"
"1969-10-08 21:00","1969","10","08","21:00","6.1","","3.9","","86","","34","","6","","25.0","","99.60","","","","","","Clear"
"1969-10-08 22:00","1969","10","08","22:00","5.0","","2.8","","86","","27","","6","","25.0","","99.63","","","","","","Clear"
"1969-10-08 23:00","1969","10","08","23:00","4.4","","2.2","","85","","25","","3","","25.0","","99.66","","","","","","Clear"
"1969-10-09 00:00","1969","10","09","00:00","3.9","","2.2","","88","","25","","10","","25.0","","99.67","","","","","","Clear"
"1969-10-09 01:00","1969","10","09","01:00","2.8","","1.1","","90","","27","","10","","25.0","","99.68","","","","","","Clear"
"1969-10-09 02:00","1969","10","09","02:00","2.2","","0.6","","89","","25","","8","","25.0","","99.70","","","","","","Clear"
"1969-10-09 03:00","1969","10","09","03:00","2.2","","0.6","","89","","25","","6","","25.0","","99.72","","","","","","Clear"
"1969-10-09 04:00","1969","10","09","04:00","2.2","","0.6","","89","","27","","6","","25.0","","99.75","","","","","","Clear"
"1969-10-09 05:00","1969","10","09","05:00","1.1","","0.0","","92","","27","","6","","25.0","","99.78","","","","","","Clear"
"1969-10-09 06:00","1969","10","09","06:00","0.6","","-0.6","","91","","27","","6","","25.0","","99.83","","","","","","Clear"
"1969-10-09 07:00","1969","10","09","07:00","1.1","","0.0","","92","","27","","8","","19.3","","99.86","","","","","","Clear"
"1969-10-09 08:00","1969","10","09","08:00","3.9","","2.2","","88","","32","","3","","16.1","","99.94","","","","","","Mainly Clear"
"1969-10-09 09:00","1969","10","09","09:00","8.9","","3.9","","72","","29","","10","","24.1","","99.97","","","","","","Mainly Clear"
"1969-10-09 10:00","1969","10","09","10:00","12.2","","3.9","","57","","23","","14","","40.2","","99.96","","","","","","Mainly Clear"
"1969-10-09 11:00","1969","10","09","11:00","14.4","","3.3","","46","","18","","13","","32.2","","99.92","","","","","","Mainly Clear"
"1969-10-09 12:00","1969","10","09","12:00","16.7","","5.6","","47","","20","","18","","32.2","","99.84","","","","","","Mainly Clear"
"1969-10-09 13:00","1969","10","09","13:00","17.2","","6.7","","50","","20","","21","","32.2","","99.78","","","","","","Mainly Clear"
"1969-10-09 14:00","1969","10","09","14:00","16.7","","6.7","","52","","16","","19","","32.2","","99.67","","","","","","Mainly Clear"
"1969-10-09 15:00","1969","10","09","15:00","17.8","","8.3","","54","","16","","21","","24.1","","99.60","","","","","","Mainly Clear"
"1969-10-09 16:00","1969","10","09","16:00","16.1","","8.3","","59","","14","","23","","24.1","","99.58","","","","","","Mainly Clear"
"1969-10-09 17:00","1969","10","09","17:00","15.0","","9.4","","69","","11","","16","","24.1","","99.51","","","","","","Mainly Clear"
"1969-10-09 18:00","1969","10","09","18:00","12.8","","8.9","","77","","14","","10","","9.7","","99.49","","","","","","Haze"
"1969-10-09 19:00","1969","10","09","19:00","13.9","","7.2","","64","","18","","10","","25.0","","99.49","","","","","","Mainly Clear"
"1969-10-09 20:00","1969","10","09","20:00","11.7","","6.1","","68","","16","","10","","25.0","","99.48","","","","","","Clear"
"1969-10-09 21:00","1969","10","09","21:00","10.6","","6.1","","74","","16","","10","","25.0","","99.48","","","","","","Clear"
"1969-10-09 22:00","1969","10","09","22:00","10.0","","7.2","","82","","16","","10","","25.0","","99.44","","","","","","Clear"
"1969-10-09 23:00","1969","10","09","23:00","9.4","","7.8","","88","","14","","11","","25.0","","99.43","","","","","","Clear"
"1969-10-10 00:00","1969","10","10","00:00","6.1","","5.0","","93","","","","0","","24.1","","99.41","","","","","","Clear"
"1969-10-10 01:00","1969","10","10","01:00","5.0","","3.9","","93","","","","0","","19.3","","99.41","","","","","","Clear"
"1969-10-10 02:00","1969","10","10","02:00","4.4","","3.3","","93","","","","0","","19.3","","99.39","","","","","","Mainly Clear"
"1969-10-10 03:00","1969","10","10","03:00","3.9","","3.3","","95","","","","0","","19.3","","99.36","","","","","","Mainly Clear"
"1969-10-10 04:00","1969","10","10","04:00","3.9","","3.3","","95","","","","0","","4.0","","99.34","","","","","","Fog"
"1969-10-10 05:00","1969","10","10","05:00","4.4","","3.9","","98","","","","0","","4.0","","99.32","","","","","","Fog"
"1969-10-10 06:00","1969","10","10","06:00","3.3","","2.8","","97","","11","","6","","4.8","","99.29","","","","","","Fog"
"1969-10-10 07:00","1969","10","10","07:00","2.8","","2.8","","100","","","","0","","3.2","","99.30","","","","","","Fog"
"1969-10-10 08:00","1969","10","10","08:00","10.0","","8.3","","88","","16","","5","","6.4","","99.30","","","","","","Fog"
"1969-10-10 09:00","1969","10","10","09:00","15.0","","10.6","","75","","18","","19","","11.3","","99.24","","","","","","Mainly Clear"
"1969-10-10 10:00","1969","10","10","10:00","17.8","","10.0","","61","","18","","24","","16.1","","99.19","","","","","","Mainly Clear"
"1969-10-10 11:00","1969","10","10","11:00","20.0","","10.0","","52","","18","","31","","19.3","","99.15","","","","","","Mainly Clear"
"1969-10-10 12:00","1969","10","10","12:00","20.6","","10.0","","51","","18","","27","","19.3","","99.12","","","","","","Mainly Clear"
"1969-10-10 13:00","1969","10","10","13:00","22.8","","11.1","","48","","20","","32","","19.3","","99.06","","25","","","","Mainly Clear"
"1969-10-10 14:00","1969","10","10","14:00","23.9","","10.0","","42","","20","","39","","24.1","","99.02","","25","","","","Mainly Clear"
"1969-10-10 15:00","1969","10","10","15:00","23.9","","8.3","","37","","20","","35","","24.1","","99.00","","","","","","Mainly Clear"
"1969-10-10 16:00","1969","10","10","16:00","23.3","","8.3","","39","","18","","32","","24.1","","99.01","","","","","","Mainly Clear"
"1969-10-10 17:00","1969","10","10","17:00","22.2","","8.3","","42","","18","","24","","24.1","","99.01","","","","","","Mostly Cloudy"
"1969-10-10 18:00","1969","10","10","18:00","21.7","","8.9","","45","","18","","16","","24.1","","99.06","","","","","","Cloudy"
"1969-10-10 19:00","1969","10","10","19:00","21.1","","10.0","","48","","18","","13","","24.1","","99.08","","","","","","Cloudy"
"1969-10-10 20:00","1969","10","10","20:00","20.0","","10.6","","55","","16","","10","","24.1","","99.10","","","","","","Cloudy"
"1969-10-10 21:00","1969","10","10","21:00","18.3","","11.7","","65","","16","","13","","24.1","","99.10","","","","","","Mostly Cloudy"
"1969-10-10 22:00","1969","10","10","22:00","17.2","","12.2","","72","","14","","13","","24.1","","99.10","","","","","","Mostly Cloudy"
"1969-10-10 23:00","1969","10","10","23:00","18.3","","11.1","","63","","16","","11","","24.1","","99.13","","","","","","Cloudy"
"1969-10-11 00:00","1969","10","11","00:00","18.3","","11.1","","62","","18","","21","","24.1","","99.18","","","","","","Mostly Cloudy"
"1969-10-11 01:00","1969","10","11","01:00","18.3","","10.0","","58","","18","","23","","24.1","","99.18","","","","","","Cloudy"
"1969-10-11 02:00","1969","10","11","02:00","17.8","","10.6","","63","","16","","19","","24.1","","99.17","","","","","","Mostly Cloudy"
"1969-10-11 03:00","1969","10","11","03:00","17.2","","10.6","","66","","16","","14","","24.1","","99.14","","","","","","Mostly Cloudy"
"1969-10-11 04:00","1969","10","11","04:00","16.7","","11.7","","71","","16","","14","","24.1","","99.11","","","","","","Mostly Cloudy"
"1969-10-11 05:00","1969","10","11","05:00","15.0","","11.1","","77","","14","","18","","24.1","","99.09","","","","","","Mainly Clear"
"1969-10-11 06:00","1969","10","11","06:00","14.4","","11.1","","81","","14","","16","","24.1","","99.10","","","","","","Mostly Cloudy"
"1969-10-11 07:00","1969","10","11","07:00","14.4","","11.1","","81","","14","","18","","24.1","","99.08","","","","","","Mostly Cloudy"
"1969-10-11 08:00","1969","10","11","08:00","16.7","","12.2","","75","","14","","23","","19.3","","99.11","","","","","","Mostly Cloudy"
"1969-10-11 09:00","1969","10","11","09:00","17.2","","11.7","","70","","16","","26","","19.3","","99.10","","","","","","Mostly Cloudy"
"1969-10-11 10:00","1969","10","11","10:00","20.6","","11.7","","57","","18","","24","","19.3","","99.08","","","","","","Mostly Cloudy"
"1969-10-11 11:00","1969","10","11","11:00","22.2","","12.8","","54","","18","","32","","19.3","","99.03","","25","","","","Mostly Cloudy"
"1969-10-11 12:00","1969","10","11","12:00","23.3","","13.3","","54","","20","","34","","19.3","","99.04","","26","","","","Mostly Cloudy"
"1969-10-11 13:00","1969","10","11","13:00","23.3","","15.0","","60","","20","","27","","19.3","","99.07","","27","","","","Rain Showers"
"1969-10-11 14:00","1969","10","11","14:00","22.8","","14.4","","59","","20","","32","","19.3","","99.08","","26","","","","Mostly Cloudy"
"1969-10-11 15:00","1969","10","11","15:00","22.8","","15.0","","61","","20","","24","","24.1","","99.14","","27","","","","Cloudy"
"1969-10-11 16:00","1969","10","11","16:00","22.2","","15.6","","65","","23","","24","","19.3","","99.20","","27","","","","Cloudy"
"1969-10-11 17:00","1969","10","11","17:00","22.2","","15.6","","67","","23","","14","","16.1","","99.22","","27","","","","Mostly Cloudy"
"1969-10-11 18:00","1969","10","11","18:00","20.6","","15.6","","72","","25","","6","","19.3","","99.28","","25","","","","Mostly Cloudy"
"1969-10-11 19:00","1969","10","11","19:00","18.9","","14.4","","77","","29","","14","","25.0","","99.35","","","","","","Mainly Clear"
"1969-10-11 20:00","1969","10","11","20:00","16.7","","15.0","","89","","27","","10","","25.0","","99.41","","","","","","Mainly Clear"
"1969-10-11 21:00","1969","10","11","21:00","16.1","","14.4","","91","","29","","14","","25.0","","99.46","","","","","","Mainly Clear"
"1969-10-11 22:00","1969","10","11","22:00","15.0","","12.8","","85","","36","","24","","25.0","","99.62","","","","","","Mostly Cloudy"
"1969-10-11 23:00","1969","10","11","23:00","13.3","","10.6","","83","","36","","18","","25.0","","99.70","","","","","","Mainly Clear"
"1969-10-12 00:00","1969","10","12","00:00","12.8","","9.4","","81","","34","","18","","25.0","","99.76","","","","","","Mostly Cloudy"
"1969-10-12 01:00","1969","10","12","01:00","12.2","","8.3","","77","","34","","27","","25.0","","99.77","","","","","","Mostly Cloudy"
"1969-10-12 02:00","1969","10","12","02:00","12.2","","8.3","","78","","34","","19","","25.0","","99.82","","","","","","Mostly Cloudy"
"1969-10-12 03:00","1969","10","12","03:00","11.7","","8.3","","80","","36","","16","","25.0","","99.85","","","","","","Cloudy"
"1969-10-12 04:00","1969","10","12","04:00","11.7","","7.8","","78","","36","","21","","25.0","","99.91","","","","","","Cloudy"
"1969-10-12 05:00","1969","10","12","05:00","11.1","","7.2","","76","","36","","18","","25.0","","100.02","","","","","","Cloudy"
"1969-10-12 06:00","1969","10","12","06:00","8.9","","7.2","","88","","34","","13","","25.0","","100.07","","","","","","Mostly Cloudy"
"1969-10-12 07:00","1969","10","12","07:00","7.8","","6.7","","91","","34","","16","","32.2","","100.13","","","","","","Mostly Cloudy"
"1969-10-12 08:00","1969","10","12","08:00","8.9","","7.2","","88","","34","","21","","40.2","","100.20","","","","","","Mostly Cloudy"
"1969-10-12 09:00","1969","10","12","09:00","12.8","","7.2","","69","","36","","18","","40.2","","100.25","","","","","","Mostly Cloudy"
"1969-10-12 10:00","1969","10","12","10:00","13.9","","8.3","","68","","34","","19","","40.2","","100.30","","","","","","Mostly Cloudy"
"1969-10-12 11:00","1969","10","12","11:00","13.9","","6.1","","60","","36","","16","","40.2","","100.25","","","","","","Mostly Cloudy"
"1969-10-12 12:00","1969","10","12","12:00","15.0","","8.3","","63","","2","","14","","40.2","","100.24","","","","","","Mostly Cloudy"
"1969-10-12 13:00","1969","10","12","13:00","16.1","","7.8","","57","","2","","8","","40.2","","100.25","","","","","","Mostly Cloudy"
"1969-10-12 14:00","1969","10","12","14:00","15.6","","7.2","","57","","36","","16","","40.2","","100.18","","","","","","Mostly Cloudy"
"1969-10-12 15:00","1969","10","12","15:00","16.1","","6.1","","52","","36","","11","","40.2","","100.17","","","","","","Mostly Cloudy"
"1969-10-12 16:00","1969","10","12","16:00","15.6","","7.2","","57","","2","","14","","40.2","","100.16","","","","","","Mostly Cloudy"
"1969-10-12 17:00","1969","10","12","17:00","14.4","","8.3","","66","","14","","8","","40.2","","100.14","","","","","","Mostly Cloudy"
"1969-10-12 18:00","1969","10","12","18:00","13.3","","8.3","","71","","14","","10","","24.1","","100.14","","","","","","Mostly Cloudy"
"1969-10-12 19:00","1969","10","12","19:00","12.8","","9.4","","79","","11","","11","","25.0","","100.15","","","","","","Mostly Cloudy"
"1969-10-12 20:00","1969","10","12","20:00","12.8","","9.4","","81","","9","","11","","25.0","","100.13","","","","","","Mostly Cloudy"
"1969-10-12 21:00","1969","10","12","21:00","12.8","","10.0","","82","","9","","11","","25.0","","100.12","","","","","","Mostly Cloudy"
"1969-10-12 22:00","1969","10","12","22:00","13.3","","10.0","","81","","9","","11","","25.0","","100.10","","","","","","Mostly Cloudy"
"1969-10-12 23:00","1969","10","12","23:00","13.3","","10.6","","83","","11","","24","","25.0","","100.01","","","","","","Mostly Cloudy"
"1969-10-13 00:00","1969","10","13","00:00","12.8","","9.4","","81","","9","","29","","25.0","","99.98","","","","","","Cloudy"
"1969-10-13 01:00","1969","10","13","01:00","12.2","","8.3","","77","","9","","24","","25.0","","99.93","","","","","","Cloudy"
"1969-10-13 02:00","1969","10","13","02:00","11.7","","7.8","","76","","9","","21","","25.0","","99.87","","","","","","Cloudy"
"1969-10-13 03:00","1969","10","13","03:00","11.1","","7.2","","78","","9","","27","","25.0","","99.78","","","","","","Cloudy"
"1969-10-13 04:00","1969","10","13","04:00","10.6","","7.2","","79","","9","","24","","25.0","","99.71","","","","","","Cloudy"
"1969-10-13 05:00","1969","10","13","05:00","10.6","","7.2","","81","","9","","24","","25.0","","99.60","","","","","","Cloudy"
"1969-10-13 06:00","1969","10","13","06:00","11.1","","8.9","","85","","9","","23","","25.0","","99.54","","","","","","Cloudy"
"1969-10-13 07:00","1969","10","13","07:00","11.1","","8.9","","87","","9","","23","","25.0","","99.51","","","","","","Cloudy"
"1969-10-13 08:00","1969","10","13","08:00","11.7","","9.4","","87","","11","","21","","32.2","","99.43","","","","","","Cloudy"
"1969-10-13 09:00","1969","10","13","09:00","12.2","","10.0","","87","","11","","19","","32.2","","99.35","","","","","","Cloudy"
"1969-10-13 10:00","1969","10","13","10:00","13.3","","11.1","","88","","11","","19","","24.1","","99.23","","","","","","Cloudy"
"1969-10-13 11:00","1969","10","13","11:00","13.9","","11.1","","85","","11","","19","","24.1","","99.13","","","","","","Mostly Cloudy"
"1969-10-13 12:00","1969","10","13","12:00","15.0","","11.7","","82","","14","","19","","16.1","","98.99","","","","","","Mostly Cloudy"
"1969-10-13 13:00","1969","10","13","13:00","16.7","","12.8","","77","","14","","16","","12.9","","98.79","","","","","","Mostly Cloudy"
"1969-10-13 14:00","1969","10","13","14:00","16.7","","12.8","","79","","14","","19","","11.3","","98.63","","","","","","Mostly Cloudy"
"1969-10-13 15:00","1969","10","13","15:00","16.7","","12.8","","79","","14","","19","","11.3","","98.49","","","","","","Mostly Cloudy"
"1969-10-13 16:00","1969","10","13","16:00","17.2","","12.8","","75","","16","","23","","11.3","","98.39","","","","","","Mostly Cloudy"
"1969-10-13 17:00","1969","10","13","17:00","19.4","","15.6","","77","","18","","19","","9.7","","98.28","","","","","","Haze"
"1969-10-13 18:00","1969","10","13","18:00","20.0","","15.0","","72","","18","","18","","8.0","","98.21","","","","","","Haze"
"1969-10-13 19:00","1969","10","13","19:00","23.9","","16.1","","62","","25","","27","","19.3","","98.23","","29","","","","Cloudy"
"1969-10-13 20:00","1969","10","13","20:00","20.6","","18.3","","88","","23","","26","","11.3","","98.20","","27","","","","Rain Showers"
"1969-10-13 21:00","1969","10","13","21:00","20.0","","18.9","","94","","20","","27","","11.3","","98.15","","27","","","","Moderate Rain"
"1969-10-13 22:00","1969","10","13","22:00","18.9","","16.7","","88","","27","","34","","19.3","","98.20","","","","","","Rain"
"1969-10-13 23:00","1969","10","13","23:00","16.1","","13.9","","87","","27","","31","","19.3","","98.29","","","","","","Cloudy"
"1969-10-14 00:00","1969","10","14","00:00","13.9","","11.1","","83","","29","","26","","25.0","","98.42","","","","","","Mostly Cloudy"
"1969-10-14 01:00","1969","10","14","01:00","12.2","","9.4","","82","","29","","29","","11.3","","98.56","","","","","","Rain,Drizzle"
"1969-10-14 02:00","1969","10","14","02:00","10.6","","7.8","","83","","27","","32","","25.0","","98.72","","","","","","Cloudy"
"1969-10-14 03:00","1969","10","14","03:00","10.0","","5.0","","71","","29","","39","","25.0","","98.81","","","","","","Cloudy"
"1969-10-14 04:00","1969","10","14","04:00","10.0","","6.1","","77","","27","","29","","25.0","","98.89","","","","","","Cloudy"
"1969-10-14 05:00","1969","10","14","05:00","8.9","","5.0","","78","","27","","42","","25.0","","99.00","","","","","","Cloudy"
"1969-10-14 06:00","1969","10","14","06:00","8.3","","5.0","","79","","27","","29","","25.0","","99.09","","","","","","Mostly Cloudy"
"1969-10-14 07:00","1969","10","14","07:00","7.2","","3.9","","78","","27","","16","","40.2","","99.16","","","","","","Mostly Cloudy"
"1969-10-14 08:00","1969","10","14","08:00","7.8","","3.3","","75","","27","","26","","40.2","","99.28","","","","","","Mostly Cloudy"
"1969-10-14 09:00","1969","10","14","09:00","7.8","","3.3","","73","","29","","29","","40.2","","99.37","","","","","","Rain Showers"
"1969-10-14 10:00","1969","10","14","10:00","9.4","","2.2","","61","","27","","35","","40.2","","99.39","","","","","","Mainly Clear"
"1969-10-14 11:00","1969","10","14","11:00","10.0","","1.7","","57","","29","","31","","40.2","","99.41","","","","","","Mostly Cloudy"
"1969-10-14 12:00","1969","10","14","12:00","9.4","","1.1","","56","","29","","31","","40.2","","99.45","","","","","","Mostly Cloudy"
"1969-10-14 13:00","1969","10","14","13:00","9.4","","1.1","","56","","29","","35","","40.2","","99.45","","","","","","Mostly Cloudy"
"1969-10-14 14:00","1969","10","14","14:00","9.4","","1.1","","56","","29","","29","","40.2","","99.46","","","","","","Mostly Cloudy"
"1969-10-14 15:00","1969","10","14","15:00","10.0","","1.7","","57","","29","","32","","40.2","","99.51","","","","","","Mostly Cloudy"
"1969-10-14 16:00","1969","10","14","16:00","8.9","","-1.7","","48","","29","","21","","40.2","","99.57","","","","","","Mainly Clear"
"1969-10-14 17:00","1969","10","14","17:00","8.3","","-1.1","","50","","29","","18","","40.2","","99.59","","","","","","Mainly Clear"
"1969-10-14 18:00","1969","10","14","18:00","6.1","","0.0","","65","","27","","11","","32.2","","99.60","","","","","","Mostly Cloudy"
"1969-10-14 19:00","1969","10","14","19:00","6.1","","0.0","","65","","25","","10","","25.0","","99.68","","","","","","Mainly Clear"
"1969-10-14 20:00","1969","10","14","20:00","4.4","","1.7","","81","","25","","10","","25.0","","99.71","","","","","","Mostly Cloudy"
"1969-10-14 21:00","1969","10","14","21:00","3.9","","0.6","","80","","20","","11","","25.0","","99.72","","","","","","Mainly Clear"
"1969-10-14 22:00","1969","10","14","22:00","4.4","","1.1","","78","","23","","11","","25.0","","99.75","","","","","","Mostly Cloudy"
"1969-10-14 23:00","1969","10","14","23:00","5.6","","1.1","","73","","23","","11","","25.0","","99.76","","","","","","Mostly Cloudy"
"1969-10-15 00:00","1969","10","15","00:00","5.6","","1.7","","75","","23","","13","","19.3","","99.80","","","","","","Mostly Cloudy"
"1969-10-15 01:00","1969","10","15","01:00","5.6","","1.7","","77","","23","","13","","19.3","","99.82","","","","","","Mostly Cloudy"
"1969-10-15 02:00","1969","10","15","02:00","5.0","","1.7","","79","","23","","11","","19.3","","99.83","","","","","","Mostly Cloudy"
"1969-10-15 03:00","1969","10","15","03:00","3.3","","0.0","","80","","23","","10","","19.3","","99.83","","","","","","Mostly Cloudy"
"1969-10-15 04:00","1969","10","15","04:00","2.8","","0.6","","84","","23","","8","","19.3","","99.83","","","","","","Mainly Clear"
"1969-10-15 05:00","1969","10","15","05:00","1.1","","-0.6","","89","","27","","10","","19.3","","99.87","","","","","","Clear"
"1969-10-15 06:00","1969","10","15","06:00","1.1","","-0.6","","89","","27","","8","","19.3","","99.94","","","","","","Mainly Clear"
"1969-10-15 07:00","1969","10","15","07:00","1.7","","-0.6","","86","","25","","6","","16.1","","99.94","","","","","","Mainly Clear"
"1969-10-15 08:00","1969","10","15","08:00","3.9","","2.2","","88","","27","","10","","24.1","","99.99","","","","","","Mainly Clear"
"1969-10-15 09:00","1969","10","15","09:00","7.8","","2.2","","69","","25","","13","","40.2","","100.04","","","","","","Mostly Cloudy"
"1969-10-15 10:00","1969","10","15","10:00","8.9","","1.7","","61","","25","","11","","40.2","","100.06","","","","","","Mostly Cloudy"
"1969-10-15 11:00","1969","10","15","11:00","10.0","","1.7","","57","","20","","11","","40.2","","100.03","","","","","","Mainly Clear"
"1969-10-15 12:00","1969","10","15","12:00","10.0","","1.1","","55","","25","","11","","40.2","","100.02","","","","","","Mostly Cloudy"
"1969-10-15 13:00","1969","10","15","13:00","10.0","","0.6","","51","","20","","13","","40.2","","99.97","","","","","","Mostly Cloudy"
"1969-10-15 14:00","1969","10","15","14:00","10.6","","1.1","","52","","20","","13","","40.2","","99.95","","","","","","Mostly Cloudy"
"1969-10-15 15:00","1969","10","15","15:00","11.7","","1.7","","49","","27","","6","","40.2","","99.89","","","","","","Mostly Cloudy"
"1969-10-15 16:00","1969","10","15","16:00","11.7","","1.7","","49","","20","","10","","32.2","","99.85","","","","","","Mostly Cloudy"
"1969-10-15 17:00","1969","10","15","17:00","10.0","","2.2","","59","","14","","10","","32.2","","99.84","","","","","","Mostly Cloudy"
"1969-10-15 18:00","1969","10","15","18:00","7.8","","2.8","","71","","14","","10","","24.1","","99.82","","","","","","Mostly Cloudy"
"1969-10-15 19:00","1969","10","15","19:00","8.3","","2.8","","67","","11","","8","","25.0","","99.82","","","","","","Mostly Cloudy"
"1969-10-15 20:00","1969","10","15","20:00","7.8","","2.8","","71","","","","0","","25.0","","99.80","","","","","","Mainly Clear"
"1969-10-15 21:00","1969","10","15","21:00","5.0","","2.2","","83","","","","0","","25.0","","99.75","","","","","","Clear"
"1969-10-15 22:00","1969","10","15","22:00","2.8","","1.1","","90","","36","","6","","25.0","","99.70","","","","","","Clear"
"1969-10-15 23:00","1969","10","15","23:00","1.7","","1.1","","97","","34","","5","","19.3","","99.65","","","","","","Mainly Clear"
"1969-10-16 00:00","1969","10","16","00:00","2.2","","1.1","","92","","36","","5","","16.1","","99.59","","","","","","Mainly Clear"
"1969-10-16 01:00","1969","10","16","01:00","2.8","","1.7","","92","","5","","8","","11.3","","99.54","","","","","","Mainly Clear"
"1969-10-16 02:00","1969","10","16","02:00","3.3","","2.2","","92","","2","","13","","11.3","","99.44","","","","","","Mainly Clear"
"1969-10-16 03:00","1969","10","16","03:00","3.9","","2.2","","88","","5","","13","","11.3","","99.33","","","","","","Mainly Clear"
"1969-10-16 04:00","1969","10","16","04:00","5.6","","2.8","","82","","5","","13","","11.3","","99.19","","","","","","Mainly Clear"
"1969-10-16 05:00","1969","10","16","05:00","6.7","","4.4","","85","","7","","11","","11.3","","99.05","","","","","","Mostly Cloudy"
"1969-10-16 06:00","1969","10","16","06:00","6.7","","4.4","","85","","5","","14","","16.1","","98.89","","","","","","Mostly Cloudy"
"1969-10-16 07:00","1969","10","16","07:00","7.2","","5.0","","87","","11","","16","","4.8","","98.70","","","","","","Fog"
"1969-10-16 08:00","1969","10","16","08:00","8.3","","6.1","","87","","14","","19","","9.7","","98.58","","","","","","Rain Showers,Fog"
"1969-10-16 09:00","1969","10","16","09:00","7.8","","6.7","","91","","14","","13","","3.2","","98.56","","","","","","Rain,Fog"
"1969-10-16 10:00","1969","10","16","10:00","7.2","","6.7","","96","","9","","8","","3.2","","98.42","","","","","","Rain,Fog"
"1969-10-16 11:00","1969","10","16","11:00","8.3","","7.8","","96","","9","","10","","3.2","","98.26","","","","","","Rain,Fog"
"1969-10-16 12:00","1969","10","16","12:00","8.9","","7.8","","94","","23","","13","","4.8","","98.33","","","","","","Fog"
"1969-10-16 13:00","1969","10","16","13:00","12.2","","8.3","","78","","23","","26","","16.1","","98.27","","","","","","Mostly Cloudy"
"1969-10-16 14:00","1969","10","16","14:00","12.8","","7.8","","70","","25","","26","","16.1","","98.24","","","","","","Mostly Cloudy"
"1969-10-16 15:00","1969","10","16","15:00","12.8","","6.7","","65","","27","","26","","16.1","","98.28","","","","","","Mostly Cloudy"
"1969-10-16 16:00","1969","10","16","16:00","12.2","","5.6","","65","","27","","24","","16.1","","98.35","","","","","","Cloudy"
"1969-10-16 17:00","1969","10","16","17:00","11.7","","6.1","","69","","25","","19","","11.3","","98.38","","","","","","Mostly Cloudy"
"1969-10-16 18:00","1969","10","16","18:00","11.1","","6.7","","74","","25","","19","","6.4","","98.43","","","","","","Rain Showers,Haze"
"1969-10-16 19:00","1969","10","16","19:00","10.6","","7.2","","81","","25","","21","","11.3","","98.48","","","","","","Mostly Cloudy"
"1969-10-16 20:00","1969","10","16","20:00","11.1","","7.2","","76","","25","","24","","19.3","","98.50","","","","","","Mostly Cloudy"
"1969-10-16 21:00","1969","10","16","21:00","9.4","","6.1","","78","","25","","18","","24.1","","98.54","","","","","","Mainly Clear"
"1969-10-16 22:00","1969","10","16","22:00","8.3","","6.1","","85","","27","","18","","25.0","","98.60","","","","","","Mostly Cloudy"
"1969-10-16 23:00","1969","10","16","23:00","8.3","","3.9","","73","","27","","21","","25.0","","98.55","","","","","","Clear"
"1969-10-17 00:00","1969","10","17","00:00","8.3","","3.3","","71","","25","","18","","25.0","","98.62","","","","","","Mostly Cloudy"
"1969-10-17 01:00","1969","10","17","01:00","7.8","","2.2","","69","","27","","24","","25.0","","98.61","","","","","","Cloudy"
"1969-10-17 02:00","1969","10","17","02:00","7.8","","2.2","","69","","25","","23","","25.0","","98.65","","","","","","Cloudy"
"1969-10-17 03:00","1969","10","17","03:00","7.2","","2.2","","70","","25","","21","","25.0","","98.62","","","","","","Mostly Cloudy"
"1969-10-17 04:00","1969","10","17","04:00","6.7","","2.2","","74","","25","","23","","25.0","","98.62","","","","","","Mostly Cloudy"
"1969-10-17 05:00","1969","10","17","05:00","7.2","","2.8","","74","","27","","18","","25.0","","98.65","","","","","","Cloudy"
"1969-10-17 06:00","1969","10","17","06:00","6.7","","3.3","","80","","25","","13","","25.0","","98.67","","","","","","Cloudy"
"1969-10-17 07:00","1969","10","17","07:00","6.7","","3.9","","82","","25","","18","","24.1","","98.70","","","","","","Mostly Cloudy"
"1969-10-17 08:00","1969","10","17","08:00","6.1","","2.2","","78","","27","","16","","24.1","","98.76","","","","","","Mostly Cloudy"
"1969-10-17 09:00","1969","10","17","09:00","7.2","","2.8","","74","","27","","29","","24.1","","98.79","","","","","","Mostly Cloudy"
"1969-10-17 10:00","1969","10","17","10:00","8.3","","3.9","","73","","27","","29","","40.2","","98.83","","","","","","Mostly Cloudy"
"1969-10-17 11:00","1969","10","17","11:00","8.3","","3.3","","69","","27","","26","","40.2","","98.84","","","","","","Mostly Cloudy"
"1969-10-17 12:00","1969","10","17","12:00","9.4","","3.3","","67","","27","","26","","40.2","","98.87","","","","","","Mostly Cloudy"
"1969-10-17 13:00","1969","10","17","13:00","8.9","","2.8","","66","","27","","29","","40.2","","98.89","","","","","","Mostly Cloudy"
"1969-10-17 14:00","1969","10","17","14:00","8.9","","2.8","","66","","27","","24","","24.1","","98.91","","","","","","Mostly Cloudy"
"1969-10-17 15:00","1969","10","17","15:00","7.2","","4.4","","83","","27","","19","","24.1","","98.97","","","","","","Mostly Cloudy"
"1969-10-17 16:00","1969","10","17","16:00","7.2","","2.8","","74","","27","","14","","40.2","","99.03","","","","","","Mainly Clear"
"1969-10-17 17:00","1969","10","17","17:00","8.3","","2.2","","66","","27","","31","","40.2","","99.07","","","","","","Mainly Clear"
"1969-10-17 18:00","1969","10","17","18:00","7.2","","1.1","","64","","25","","23","","25.0","","99.14","","","","","","Mainly Clear"
"1969-10-17 19:00","1969","10","17","19:00","7.2","","0.6","","62","","27","","23","","25.0","","99.21","","","","","","Mostly Cloudy"
"1969-10-17 20:00","1969","10","17","20:00","7.2","","0.0","","60","","25","","24","","25.0","","99.23","","","","","","Mostly Cloudy"
"1969-10-17 21:00","1969","10","17","21:00","7.2","","0.6","","62","","25","","19","","25.0","","99.25","","","","","","Mostly Cloudy"
"1969-10-17 22:00","1969","10","17","22:00","6.7","","0.0","","61","","23","","19","","25.0","","99.24","","","","","","Mainly Clear"
"1969-10-17 23:00","1969","10","17","23:00","6.7","","0.0","","61","","25","","23","","25.0","","99.25","","","","","","Mainly Clear"
"1969-10-18 00:00","1969","10","18","00:00","6.1","","-1.1","","60","","23","","19","","19.3","","99.30","","","","","","Mostly Cloudy"
"1969-10-18 01:00","1969","10","18","01:00","5.0","","2.2","","83","","25","","19","","19.3","","99.35","","","","","","Rain"
"1969-10-18 02:00","1969","10","18","02:00","5.0","","2.2","","83","","25","","19","","19.3","","99.43","","","","","","Mostly Cloudy"
"1969-10-18 03:00","1969","10","18","03:00","3.9","","2.2","","88","","23","","8","","19.3","","99.46","","","","","","Mainly Clear"
"1969-10-18 04:00","1969","10","18","04:00","3.9","","2.2","","90","","25","","13","","19.3","","99.52","","","","","","Mostly Cloudy"
"1969-10-18 05:00","1969","10","18","05:00","2.8","","1.1","","90","","23","","13","","19.3","","99.60","","","","","","Mainly Clear"
"1969-10-18 06:00","1969","10","18","06:00","4.4","","1.7","","83","","23","","16","","19.3","","99.64","","","","","","Mostly Cloudy"
"1969-10-18 07:00","1969","10","18","07:00","3.9","","1.1","","83","","23","","18","","16.1","","99.70","","","","","","Mainly Clear"
"1969-10-18 08:00","1969","10","18","08:00","4.4","","1.7","","81","","23","","16","","16.1","","99.75","","","","","","Mainly Clear"
"1969-10-18 09:00","1969","10","18","09:00","7.2","","2.2","","70","","25","","19","","24.1","","99.77","","","","","","Mainly Clear"
"1969-10-18 10:00","1969","10","18","10:00","10.0","","1.7","","57","","25","","27","","40.2","","99.75","","","","","","Mainly Clear"
"1969-10-18 11:00","1969","10","18","11:00","10.6","","0.6","","49","","25","","35","","40.2","","99.73","","","","","","Mostly Cloudy"
"1969-10-18 12:00","1969","10","18","12:00","12.2","","0.0","","42","","25","","42","","40.2","","99.65","","","","","","Mainly Clear"
"1969-10-18 13:00","1969","10","18","13:00","12.2","","0.6","","44","","25","","42","","40.2","","99.61","","","","","","Mainly Clear"
"1969-10-18 14:00","1969","10","18","14:00","13.3","","1.7","","44","","25","","35","","40.2","","99.55","","","","","","Mainly Clear"
"1969-10-18 15:00","1969","10","18","15:00","13.9","","0.6","","40","","25","","35","","40.2","","99.52","","","","","","Mainly Clear"
"1969-10-18 16:00","1969","10","18","16:00","13.3","","0.0","","40","","25","","29","","40.2","","99.52","","","","","","Mainly Clear"
"1969-10-18 17:00","1969","10","18","17:00","12.8","","1.1","","45","","25","","23","","32.2","","99.53","","","","","","Mainly Clear"
"1969-10-18 18:00","1969","10","18","18:00","10.0","","-0.6","","48","","23","","23","","32.2","","99.56","","","","","","Mainly Clear"
"1969-10-18 19:00","1969","10","18","19:00","9.4","","-0.6","","51","","20","","21","","25.0","","99.60","","","","","","Mainly Clear"
"1969-10-18 20:00","1969","10","18","20:00","8.9","","0.6","","55","","20","","16","","25.0","","99.60","","","","","","Clear"
"1969-10-18 21:00","1969","10","18","21:00","7.8","","0.0","","57","","23","","14","","25.0","","99.67","","","","","","Clear"
"1969-10-18 22:00","1969","10","18","22:00","7.2","","0.6","","62","","23","","16","","25.0","","99.68","","","","","","Clear"
"1969-10-18 23:00","1969","10","18","23:00","7.2","","1.1","","64","","25","","18","","25.0","","99.75","","","","","","Mainly Clear"
"1969-10-19 00:00","1969","10","19","00:00","5.6","","1.1","","73","","25","","10","","25.0","","99.77","","","","","","Mainly Clear"
"1969-10-19 01:00","1969","10","19","01:00","4.4","","1.1","","78","","23","","16","","25.0","","99.78","","","","","","Mainly Clear"
"1969-10-19 02:00","1969","10","19","02:00","5.6","","1.7","","77","","23","","19","","25.0","","99.79","","","","","","Mainly Clear"
"1969-10-19 03:00","1969","10","19","03:00","5.6","","1.7","","75","","23","","21","","25.0","","99.76","","","","","","Mainly Clear"
"1969-10-19 04:00","1969","10","19","04:00","6.1","","2.2","","78","","23","","16","","25.0","","99.76","","","","","","Mostly Cloudy"
"1969-10-19 05:00","1969","10","19","05:00","5.6","","1.7","","77","","23","","16","","25.0","","99.78","","","","","","Mostly Cloudy"
"1969-10-19 06:00","1969","10","19","06:00","5.0","","1.7","","79","","25","","18","","25.0","","99.79","","","","","","Mainly Clear"
"1969-10-19 07:00","1969","10","19","07:00","6.1","","3.9","","84","","25","","14","","24.1","","99.83","","","","","","Mostly Cloudy"
"1969-10-19 08:00","1969","10","19","08:00","7.2","","3.9","","78","","27","","13","","16.1","","99.84","","","","","","Mostly Cloudy"
"1969-10-19 09:00","1969","10","19","09:00","7.8","","3.9","","77","","23","","8","","24.1","","99.88","","","","","","Mostly Cloudy"
"1969-10-19 10:00","1969","10","19","10:00","8.3","","3.3","","71","","23","","11","","16.1","","99.88","","","","","","Mostly Cloudy"
"1969-10-19 11:00","1969","10","19","11:00","9.4","","5.0","","73","","23","","16","","16.1","","99.82","","","","","","Mostly Cloudy"
"1969-10-19 12:00","1969","10","19","12:00","10.0","","4.4","","69","","23","","19","","24.1","","99.75","","","","","","Cloudy"
"1969-10-19 13:00","1969","10","19","13:00","10.6","","5.0","","68","","23","","18","","24.1","","99.68","","","","","","Cloudy"
"1969-10-19 14:00","1969","10","19","14:00","11.1","","5.6","","69","","23","","19","","24.1","","99.66","","","","","","Cloudy"
"1969-10-19 15:00","1969","10","19","15:00","10.0","","4.4","","68","","23","","14","","24.1","","99.57","","","","","","Rain Showers"
"1969-10-19 16:00","1969","10","19","16:00","7.8","","5.6","","87","","23","","14","","16.1","","99.61","","","","","","Rain Showers"
"1969-10-19 17:00","1969","10","19","17:00","7.2","","6.1","","93","","25","","6","","9.7","","99.63","","","","","","Rain,Fog"
"1969-10-19 18:00","1969","10","19","18:00","7.2","","6.7","","96","","18","","6","","8.0","","99.54","","","","","","Rain,Fog"
"1969-10-19 19:00","1969","10","19","19:00","7.2","","6.7","","96","","18","","3","","8.0","","99.52","","","","","","Rain,Fog"
"1969-10-19 20:00","1969","10","19","20:00","7.2","","6.7","","98","","","","0","","4.8","","99.50","","","","","","Rain,Fog"
"1969-10-19 21:00","1969","10","19","21:00","7.8","","7.2","","96","","","","0","","4.8","","99.41","","","","","","Rain,Fog"
"1969-10-19 22:00","1969","10","19","22:00","7.8","","7.2","","98","","18","","6","","4.8","","99.40","","","","","","Drizzle,Fog"
"1969-10-19 23:00","1969","10","19","23:00","7.8","","7.2","","98","","16","","18","","2.0","","99.24","","","","","","Moderate Rain Showers,Fog"
"1969-10-20 00:00","1969","10","20","00:00","9.4","","8.9","","96","","32","","6","","6.4","","99.18","","","","","","Rain Showers,Fog"
"1969-10-20 01:00","1969","10","20","01:00","9.4","","8.9","","96","","9","","5","","4.8","","99.13","","","","","","Rain Showers,Fog"
"1969-10-20 02:00","1969","10","20","02:00","8.9","","8.3","","98","","14","","10","","0.4","","99.03","","","","","","Rain Showers,Fog"
"1969-10-20 03:00","1969","10","20","03:00","8.9","","8.3","","98","","14","","14","","0.6","","98.86","","","","","","Rain Showers,Fog"
"1969-10-20 04:00","1969","10","20","04:00","9.4","","8.9","","98","","16","","11","","0.8","","98.85","","","","","","Fog"
"1969-10-20 05:00","1969","10","20","05:00","8.3","","7.8","","98","","14","","11","","0.2","","98.72","","","","","","Fog"
"1969-10-20 06:00","1969","10","20","06:00","7.8","","7.2","","98","","16","","11","","1.2","","98.58","","","","","","Fog"
"1969-10-20 07:00","1969","10","20","07:00","11.7","","10.0","","89","","23","","19","","4.0","","98.44","","","","","","Rain Showers,Fog"
"1969-10-20 08:00","1969","10","20","08:00","12.2","","10.6","","91","","23","","24","","4.8","","98.44","","","","","","Rain,Fog"
"1969-10-20 09:00","1969","10","20","09:00","12.2","","10.6","","91","","23","","31","","8.0","","98.33","","","","","","Rain Showers,Fog"
"1969-10-20 10:00","1969","10","20","10:00","13.3","","11.7","","91","","23","","32","","11.3","","98.31","","","","","","Cloudy"
"1969-10-20 11:00","1969","10","20","11:00","14.4","","12.2","","88","","23","","27","","16.1","","98.14","","","","","","Cloudy"
"1969-10-20 12:00","1969","10","20","12:00","15.6","","13.3","","85","","25","","35","","8.0","","98.09","","","","","","Rain Showers,Fog"
"1969-10-20 13:00","1969","10","20","13:00","15.0","","13.3","","88","","25","","32","","9.7","","98.08","","","","","","Rain Showers,Fog"
"1969-10-20 14:00","1969","10","20","14:00","15.0","","13.3","","88","","25","","27","","9.7","","98.04","","","","","","Drizzle,Fog"
"1969-10-20 15:00","1969","10","20","15:00","15.0","","12.8","","87","","25","","27","","12.9","","98.08","","","","","","Cloudy"
"1969-10-20 16:00","1969","10","20","16:00","15.0","","12.8","","85","","25","","34","","16.1","","98.05","","","","","","Cloudy"
"1969-10-20 17:00","1969","10","20","17:00","15.0","","11.7","","82","","25","","26","","12.9","","98.03","","","","","","Cloudy"
"1969-10-20 18:00","1969","10","20","18:00","12.2","","8.9","","80","","32","","24","","25.0","","98.06","","","","","","Cloudy"
"1969-10-20 19:00","1969","10","20","19:00","11.7","","8.9","","83","","29","","21","","25.0","","98.12","","","","","","Cloudy"
"1969-10-20 20:00","1969","10","20","20:00","10.6","","8.3","","85","","32","","21","","25.0","","98.08","","","","","","Cloudy"
"1969-10-20 21:00","1969","10","20","21:00","8.9","","7.2","","90","","32","","10","","25.0","","98.07","","","","","","Mainly Clear"
"1969-10-20 22:00","1969","10","20","22:00","8.9","","7.2","","88","","36","","10","","25.0","","98.09","","","","","","Cloudy"
"1969-10-20 23:00","1969","10","20","23:00","8.9","","7.8","","92","","34","","10","","25.0","","98.10","","","","","","Rain Showers"
"1969-10-21 00:00","1969","10","21","00:00","8.9","","7.8","","92","","34","","6","","25.0","","98.11","","","","","","Mostly Cloudy"
"1969-10-21 01:00","1969","10","21","01:00","8.3","","7.2","","94","","32","","8","","25.0","","98.16","","","","","","Rain Showers"
"1969-10-21 02:00","1969","10","21","02:00","7.8","","6.1","","89","","34","","13","","25.0","","98.21","","","","","","Cloudy"
"1969-10-21 03:00","1969","10","21","03:00","7.8","","6.1","","89","","32","","16","","25.0","","98.29","","","","","","Cloudy"
"1969-10-21 04:00","1969","10","21","04:00","6.7","","5.6","","93","","29","","8","","25.0","","98.36","","","","","","Mainly Clear"
"1969-10-21 05:00","1969","10","21","05:00","5.6","","5.0","","98","","27","","8","","25.0","","98.40","","","","","","Mainly Clear"
"1969-10-21 06:00","1969","10","21","06:00","6.1","","5.0","","93","","25","","6","","25.0","","98.40","","","","","","Mostly Cloudy"
"1969-10-21 07:00","1969","10","21","07:00","6.7","","5.6","","91","","25","","6","","24.1","","98.45","","","","","","Mostly Cloudy"
"1969-10-21 08:00","1969","10","21","08:00","7.2","","6.1","","91","","25","","19","","19.3","","98.48","","","","","","Rain Showers"
"1969-10-21 09:00","1969","10","21","09:00","7.8","","5.6","","87","","25","","32","","40.2","","98.55","","","","","","Mostly Cloudy"
"1969-10-21 10:00","1969","10","21","10:00","8.9","","3.3","","68","","29","","29","","40.2","","98.53","","","","","","Mostly Cloudy"
"1969-10-21 11:00","1969","10","21","11:00","8.9","","2.8","","64","","29","","42","","40.2","","98.59","","","","","","Mostly Cloudy"
"1969-10-21 12:00","1969","10","21","12:00","8.3","","1.7","","62","","32","","35","","40.2","","98.70","","","","","","Mostly Cloudy"
"1969-10-21 13:00","1969","10","21","13:00","8.9","","-1.1","","50","","29","","42","","40.2","","98.64","","","","","","Mainly Clear"
"1969-10-21 14:00","1969","10","21","14:00","8.9","","-0.6","","51","","29","","35","","40.2","","98.67","","","","","","Mostly Cloudy"
"1969-10-21 15:00","1969","10","21","15:00","7.2","","-0.6","","58","","29","","27","","40.2","","98.66","","","","","","Mostly Cloudy"
"1969-10-21 16:00","1969","10","21","16:00","6.1","","0.0","","65","","29","","24","","40.2","","98.73","","","","","","Mostly Cloudy"
"1969-10-21 17:00","1969","10","21","17:00","5.0","","0.0","","70","","29","","23","","40.2","","98.75","","","","","","Mostly Cloudy"
"1969-10-21 18:00","1969","10","21","18:00","4.4","","0.0","","74","","32","","10","","25.0","","98.73","","","","","","Cloudy"
"1969-10-21 19:00","1969","10","21","19:00","3.9","","0.0","","75","","34","","6","","25.0","","98.72","","","","","","Cloudy"
"1969-10-21 20:00","1969","10","21","20:00","2.8","","0.0","","82","","36","","16","","19.3","","98.68","","","","","","Snow Showers"
"1969-10-21 21:00","1969","10","21","21:00","0.6","","0.0","","97","","36","","11","","2.0","","98.62","","","","","","Snow Showers"
"1969-10-21 22:00","1969","10","21","22:00","0.0","","0.0","","100","","5","","10","","1.6","","98.51","","","","-3","","Snow Showers"
"1969-10-21 23:00","1969","10","21","23:00","0.0","","0.0","","100","","9","","14","","1.6","","98.34","","","","-4","","Snow Showers"
"1969-10-22 00:00","1969","10","22","00:00","0.0","","0.0","","100","","7","","23","","1.6","","98.18","","","","-6","","Snow Showers"
"1969-10-22 01:00","1969","10","22","01:00","0.0","","0.0","","100","","7","","24","","0.8","","98.22","","","","-6","","Moderate Snow Showers"
"1969-10-22 02:00","1969","10","22","02:00","-0.6","","-0.6","","99","","5","","24","","1.2","","98.23","","","","-7","","Snow Showers"
"1969-10-22 03:00","1969","10","22","03:00","-0.6","","-0.6","","99","","36","","27","","1.6","","98.25","","","","-7","","Snow"
"1969-10-22 04:00","1969","10","22","04:00","-1.1","","-1.1","","99","","36","","27","","2.0","","98.35","","","","-8","","Snow"
"1969-10-22 05:00","1969","10","22","05:00","-0.6","","-1.1","","97","","34","","19","","4.0","","98.49","","","","-6","","Snow"
"1969-10-22 06:00","1969","10","22","06:00","-1.1","","-1.7","","95","","34","","24","","11.3","","98.60","","","","-7","","Snow"
"1969-10-22 07:00","1969","10","22","07:00","-1.7","","-3.3","","90","","34","","29","","19.3","","98.72","","","","-9","","Cloudy"
"1969-10-22 08:00","1969","10","22","08:00","-1.7","","-3.9","","86","","34","","26","","32.2","","98.90","","","","-8","","Mostly Cloudy"
"1969-10-22 09:00","1969","10","22","09:00","-2.2","","-4.4","","83","","34","","21","","40.2","","98.98","","","","-8","","Mostly Cloudy"
"1969-10-22 10:00","1969","10","22","10:00","-2.2","","-5.0","","82","","34","","29","","40.2","","99.07","","","","-9","","Mainly Clear"
"1969-10-22 11:00","1969","10","22","11:00","-2.8","","-5.6","","81","","32","","26","","40.2","","99.17","","","","-10","","Mainly Clear"
"1969-10-22 12:00","1969","10","22","12:00","-2.2","","-6.1","","76","","34","","29","","40.2","","99.22","","","","-9","","Mainly Clear"
"1969-10-22 13:00","1969","10","22","13:00","-2.2","","-5.6","","77","","34","","31","","40.2","","99.23","","","","-9","","Mainly Clear"
"1969-10-22 14:00","1969","10","22","14:00","-1.7","","-6.1","","71","","34","","26","","40.2","","99.26","","","","-8","","Mainly Clear"
"1969-10-22 15:00","1969","10","22","15:00","-1.7","","-5.0","","78","","34","","24","","40.2","","99.30","","","","-8","","Mainly Clear"
"1969-10-22 16:00","1969","10","22","16:00","-2.2","","-5.6","","79","","34","","18","","40.2","","99.37","","","","-8","","Mainly Clear"
"1969-10-22 17:00","1969","10","22","17:00","-2.8","","-6.7","","76","","34","","19","","40.2","","99.43","","","","-9","","Mainly Clear"
"1969-10-22 18:00","1969","10","22","18:00","-5.0","","-6.7","","87","","29","","10","","32.2","","99.54","","","","-9","","Mainly Clear"
"1969-10-22 19:00","1969","10","22","19:00","-5.0","","-7.8","","82","","27","","8","","25.0","","99.59","","","","-9","","Mostly Cloudy"
"1969-10-22 20:00","1969","10","22","20:00","-6.1","","-8.9","","80","","29","","14","","25.0","","99.63","","","","-12","","Mostly Cloudy"
"1969-10-22 21:00","1969","10","22","21:00","-5.0","","-7.8","","80","","36","","19","","25.0","","99.75","","","","-11","","Mainly Clear"
"1969-10-22 22:00","1969","10","22","22:00","-6.1","","-7.8","","89","","25","","11","","25.0","","99.84","","","","-11","","Mainly Clear"
"1969-10-22 23:00","1969","10","22","23:00","-7.2","","-9.4","","83","","25","","11","","25.0","","99.91","","","","-12","","Mainly Clear"
"1969-10-23 00:00","1969","10","23","00:00","-6.1","","-8.9","","80","","27","","13","","25.0","","100.00","","","","-11","","Mainly Clear"
"1969-10-23 01:00","1969","10","23","01:00","-5.6","","-8.3","","81","","27","","13","","25.0","","100.06","","","","-11","","Mainly Clear"
"1969-10-23 02:00","1969","10","23","02:00","-5.6","","-8.3","","82","","27","","16","","25.0","","100.18","","","","-12","","Mostly Cloudy"
"1969-10-23 03:00","1969","10","23","03:00","-3.9","","-6.7","","83","","34","","16","","25.0","","100.26","","","","-9","","Mostly Cloudy"
"1969-10-23 04:00","1969","10","23","04:00","-5.0","","-7.2","","84","","32","","16","","25.0","","100.36","","","","-11","","Mainly Clear"
"1969-10-23 05:00","1969","10","23","05:00","-6.1","","-8.9","","82","","29","","16","","25.0","","100.45","","","","-12","","Mainly Clear"
"1969-10-23 06:00","1969","10","23","06:00","-6.1","","-8.3","","84","","27","","14","","25.0","","100.58","","","","-12","","Mainly Clear"
"1969-10-23 07:00","1969","10","23","07:00","-7.8","","-8.9","","90","","29","","11","","32.2","","100.62","","","","-13","","Mainly Clear"
"1969-10-23 08:00","1969","10","23","08:00","-7.8","","-8.9","","91","","32","","13","","40.2","","100.76","","","","-14","","Mainly Clear"
"1969-10-23 09:00","1969","10","23","09:00","-3.9","","-6.7","","80","","32","","14","","40.2","","100.87","","","","-9","","Mostly Cloudy"
"1969-10-23 10:00","1969","10","23","10:00","-3.3","","-7.8","","73","","34","","18","","40.2","","100.96","","","","-9","","Mostly Cloudy"
"1969-10-23 11:00","1969","10","23","11:00","-3.3","","-7.2","","75","","32","","13","","40.2","","101.00","","","","-8","","Mainly Clear"
"1969-10-23 12:00","1969","10","23","12:00","-2.8","","-6.7","","74","","32","","6","","40.2","","101.05","","","","-5","","Mostly Cloudy"
"1969-10-23 13:00","1969","10","23","13:00","-1.1","","-6.1","","70","","27","","6","","40.2","","101.02","","","","-3","","Mainly Clear"
"1969-10-23 14:00","1969","10","23","14:00","0.0","","-4.4","","71","","29","","16","","40.2","","101.03","","","","-5","","Mostly Cloudy"
"1969-10-23 15:00","1969","10","23","15:00","0.6","","-5.6","","64","","29","","14","","40.2","","101.03","","","","","","Mostly Cloudy"
"1969-10-23 16:00","1969","10","23","16:00","1.1","","-3.9","","68","","29","","23","","40.2","","101.05","","","","","","Mainly Clear"
"1969-10-23 17:00","1969","10","23","17:00","0.0","","-4.4","","71","","27","","10","","40.2","","101.07","","","","-3","","Mainly Clear"
"1969-10-23 18:00","1969","10","23","18:00","-1.7","","-5.0","","77","","25","","10","","40.2","","101.10","","","","-5","","Mostly Cloudy"
"1969-10-23 19:00","1969","10","23","19:00","-1.7","","-5.6","","76","","25","","19","","19.3","","101.12","","","","-7","","Mainly Clear"
"1969-10-23 20:00","1969","10","23","20:00","-1.7","","-4.4","","80","","25","","16","","19.3","","101.16","","","","-7","","Mainly Clear"
"1969-10-23 21:00","1969","10","23","21:00","-2.2","","-5.0","","80","","25","","23","","19.3","","101.17","","","","-8","","Mainly Clear"
"1969-10-23 22:00","1969","10","23","22:00","-2.2","","-5.0","","80","","27","","23","","19.3","","101.16","","","","-8","","Mainly Clear"
"1969-10-23 23:00","1969","10","23","23:00","-1.1","","-3.9","","81","","27","","16","","19.3","","101.16","","","","-6","","Mostly Cloudy"
"1969-10-24 00:00","1969","10","24","00:00","-0.6","","-3.3","","82","","25","","16","","25.0","","101.14","","","","-5","","Cloudy"
"1969-10-24 01:00","1969","10","24","01:00","-0.6","","-2.2","","88","","27","","13","","25.0","","101.15","","","","-5","","Cloudy"
"1969-10-24 02:00","1969","10","24","02:00","-0.6","","-2.8","","85","","23","","16","","25.0","","101.13","","","","-5","","Mostly Cloudy"
"1969-10-24 03:00","1969","10","24","03:00","-0.6","","-3.3","","82","","25","","16","","25.0","","101.12","","","","-5","","Mostly Cloudy"
"1969-10-24 04:00","1969","10","24","04:00","-1.7","","-3.9","","84","","25","","16","","25.0","","101.14","","","","-7","","Mainly Clear"
"1969-10-24 05:00","1969","10","24","05:00","-1.7","","-4.4","","80","","25","","16","","25.0","","101.14","","","","-7","","Mostly Cloudy"
"1969-10-24 06:00","1969","10","24","06:00","-1.7","","-4.4","","82","","23","","11","","25.0","","101.15","","","","-6","","Mostly Cloudy"
"1969-10-24 07:00","1969","10","24","07:00","-0.6","","-4.4","","76","","20","","11","","19.3","","101.07","","","","-4","","Mostly Cloudy"
"1969-10-24 08:00","1969","10","24","08:00","0.0","","-3.3","","77","","25","","13","","19.3","","101.10","","","","-4","","Mostly Cloudy"
"1969-10-24 09:00","1969","10","24","09:00","1.1","","-2.8","","74","","18","","11","","19.3","","101.05","","","","","","Mostly Cloudy"
"1969-10-24 10:00","1969","10","24","10:00","1.7","","-2.8","","72","","23","","11","","19.3","","100.95","","","","","","Mostly Cloudy"
"1969-10-24 11:00","1969","10","24","11:00","3.3","","-2.8","","65","","25","","16","","19.3","","100.89","","","","","","Mainly Clear"
"1969-10-24 12:00","1969","10","24","12:00","3.9","","-3.3","","59","","25","","24","","24.1","","100.80","","","","","","Mostly Cloudy"
"1969-10-24 13:00","1969","10","24","13:00","5.0","","-1.7","","63","","23","","26","","24.1","","100.68","","","","","","Mostly Cloudy"
"1969-10-24 14:00","1969","10","24","14:00","7.2","","0.6","","62","","23","","27","","24.1","","100.54","","","","","","Mainly Clear"
"1969-10-24 15:00","1969","10","24","15:00","8.3","","-0.6","","54","","23","","27","","24.1","","100.48","","","","","","Mainly Clear"
"1969-10-24 16:00","1969","10","24","16:00","8.3","","0.6","","58","","23","","19","","24.1","","100.46","","","","","","Mainly Clear"
"1969-10-24 17:00","1969","10","24","17:00","7.8","","0.6","","61","","23","","24","","19.3","","100.41","","","","","","Mostly Cloudy"
"1969-10-24 18:00","1969","10","24","18:00","6.7","","0.0","","63","","23","","21","","19.3","","100.37","","","","","","Mainly Clear"
"1969-10-24 19:00","1969","10","24","19:00","6.1","","0.6","","67","","23","","23","","19.3","","100.37","","","","","","Mostly Cloudy"
"1969-10-24 20:00","1969","10","24","20:00","6.1","","0.0","","65","","25","","35","","19.3","","100.32","","","","","","Mostly Cloudy"
"1969-10-24 21:00","1969","10","24","21:00","6.1","","-1.7","","58","","25","","29","","19.3","","100.32","","","","","","Mostly Cloudy"
"1969-10-24 22:00","1969","10","24","22:00","5.6","","-1.7","","59","","25","","23","","19.3","","100.34","","","","","","Mostly Cloudy"
"1969-10-24 23:00","1969","10","24","23:00","5.6","","-2.2","","57","","25","","23","","19.3","","100.33","","","","","","Mostly Cloudy"
"1969-10-25 00:00","1969","10","25","00:00","6.1","","-2.2","","56","","25","","18","","19.3","","100.35","","","","","","Mostly Cloudy"
"1969-10-25 01:00","1969","10","25","01:00","6.1","","-2.2","","56","","25","","24","","19.3","","100.32","","","","","","Mostly Cloudy"
"1969-10-25 02:00","1969","10","25","02:00","5.6","","-1.7","","59","","25","","19","","19.3","","100.29","","","","","","Mostly Cloudy"
"1969-10-25 03:00","1969","10","25","03:00","6.1","","-2.2","","56","","25","","10","","19.3","","100.25","","","","","","Mostly Cloudy"
"1969-10-25 04:00","1969","10","25","04:00","6.1","","-2.2","","56","","27","","13","","19.3","","100.27","","","","","","Mostly Cloudy"
"1969-10-25 05:00","1969","10","25","05:00","5.0","","-1.1","","65","","25","","11","","19.3","","100.30","","","","","","Mostly Cloudy"
"1969-10-25 06:00","1969","10","25","06:00","6.1","","0.0","","65","","27","","8","","16.1","","100.26","","","","","","Mostly Cloudy"
"1969-10-25 07:00","1969","10","25","07:00","6.1","","0.0","","65","","34","","13","","12.9","","100.27","","","","","","Rain Showers"
"1969-10-25 08:00","1969","10","25","08:00","6.1","","0.6","","67","","23","","16","","16.1","","100.30","","","","","","Mostly Cloudy"
"1969-10-25 09:00","1969","10","25","09:00","6.7","","0.0","","63","","25","","19","","16.1","","100.29","","","","","","Mostly Cloudy"
"1969-10-25 10:00","1969","10","25","10:00","7.8","","1.1","","63","","25","","24","","16.1","","100.27","","","","","","Mostly Cloudy"
"1969-10-25 11:00","1969","10","25","11:00","11.1","","2.8","","57","","27","","18","","16.1","","100.24","","","","","","Mostly Cloudy"
"1969-10-25 12:00","1969","10","25","12:00","12.8","","1.7","","46","","29","","14","","16.1","","100.20","","","","","","Mainly Clear"
"1969-10-25 13:00","1969","10","25","13:00","13.3","","0.6","","41","","29","","14","","24.1","","100.14","","","","","","Mainly Clear"
"1969-10-25 14:00","1969","10","25","14:00","14.4","","1.7","","42","","27","","24","","32.2","","100.05","","","","","","Mainly Clear"
"1969-10-25 15:00","1969","10","25","15:00","14.4","","0.6","","39","","27","","21","","32.2","","100.04","","","","","","Mainly Clear"
"1969-10-25 16:00","1969","10","25","16:00","13.9","","1.1","","41","","25","","19","","32.2","","100.04","","","","","","Mainly Clear"
"1969-10-25 17:00","1969","10","25","17:00","12.8","","1.1","","45","","25","","13","","32.2","","100.05","","","","","","Mostly Cloudy"
"1969-10-25 18:00","1969","10","25","18:00","10.6","","2.2","","56","","23","","14","","24.1","","100.06","","","","","","Mostly Cloudy"
"1969-10-25 19:00","1969","10","25","19:00","10.6","","0.6","","51","","32","","8","","24.1","","100.10","","","","","","Mostly Cloudy"
"1969-10-25 20:00","1969","10","25","20:00","8.3","","1.1","","60","","25","","3","","24.1","","100.10","","","","","","Mostly Cloudy"
"1969-10-25 21:00","1969","10","25","21:00","8.9","","1.7","","61","","23","","8","","24.1","","100.08","","","","","","Mostly Cloudy"
"1969-10-25 22:00","1969","10","25","22:00","8.9","","2.2","","62","","20","","6","","24.1","","100.06","","","","","","Mostly Cloudy"
"1969-10-25 23:00","1969","10","25","23:00","7.8","","3.3","","73","","20","","10","","24.1","","100.03","","","","","","Mostly Cloudy"
"1969-10-26 00:00","1969","10","26","00:00","8.3","","2.8","","67","","23","","3","","19.3","","99.98","","","","","","Cloudy"
"1969-10-26 01:00","1969","10","26","01:00","7.8","","3.3","","73","","20","","3","","19.3","","99.98","","","","","","Rain Showers"
"1969-10-26 02:00","1969","10","26","02:00","7.8","","3.3","","73","","18","","6","","24.1","","99.95","","","","","","Cloudy"
"1969-10-26 03:00","1969","10","26","03:00","7.2","","3.3","","76","","18","","8","","19.3","","99.92","","","","","","Cloudy"
"1969-10-26 04:00","1969","10","26","04:00","7.8","","2.8","","71","","20","","5","","24.1","","99.90","","","","","","Mostly Cloudy"
"1969-10-26 05:00","1969","10","26","05:00","6.7","","3.3","","78","","25","","5","","24.1","","99.90","","","","","","Cloudy"
"1969-10-26 06:00","1969","10","26","06:00","7.2","","2.8","","72","","20","","8","","19.3","","99.87","","","","","","Cloudy"
"1969-10-26 07:00","1969","10","26","07:00","6.7","","2.8","","76","","20","","6","","9.7","","99.84","","","","","","Haze"
"1969-10-26 08:00","1969","10","26","08:00","7.2","","2.8","","72","","20","","8","","9.7","","99.83","","","","","","Haze"
"1969-10-26 09:00","1969","10","26","09:00","7.2","","2.8","","74","","18","","10","","9.7","","99.78","","","","","","Haze"
"1969-10-26 10:00","1969","10","26","10:00","8.3","","3.9","","73","","20","","8","","9.7","","99.74","","","","","","Haze"
"1969-10-26 11:00","1969","10","26","11:00","10.0","","2.8","","60","","18","","11","","9.7","","99.73","","","","","","Haze"
"1969-10-26 12:00","1969","10","26","12:00","11.1","","2.2","","53","","20","","18","","9.7","","99.63","","","","","","Haze"
"1969-10-26 13:00","1969","10","26","13:00","11.7","","1.7","","51","","20","","16","","9.7","","99.52","","","","","","Haze"
"1969-10-26 14:00","1969","10","26","14:00","12.2","","1.7","","49","","23","","24","","9.7","","99.42","","","","","","Haze"
"1969-10-26 15:00","1969","10","26","15:00","12.2","","2.8","","53","","20","","16","","9.7","","99.34","","","","","","Haze"
"1969-10-26 16:00","1969","10","26","16:00","12.8","","3.3","","53","","20","","18","","9.7","","99.27","","","","","","Haze"
"1969-10-26 17:00","1969","10","26","17:00","12.2","","2.8","","53","","20","","18","","9.7","","99.15","","","","","","Haze"
"1969-10-26 18:00","1969","10","26","18:00","11.1","","3.9","","62","","20","","23","","9.7","","99.10","","","","","","Haze"
"1969-10-26 19:00","1969","10","26","19:00","11.7","","6.1","","69","","20","","26","","11.3","","99.07","","","","","","Rain"
"1969-10-26 20:00","1969","10","26","20:00","11.7","","7.2","","73","","23","","32","","9.7","","98.95","","","","","","Rain Showers,Haze"
"1969-10-26 21:00","1969","10","26","21:00","11.7","","8.9","","82","","23","","27","","6.4","","98.93","","","","","","Rain,Haze"
"1969-10-26 22:00","1969","10","26","22:00","10.6","","8.3","","85","","27","","29","","6.4","","98.93","","","","","","Rain,Fog"
"1969-10-26 23:00","1969","10","26","23:00","8.9","","7.2","","90","","27","","29","","11.3","","98.91","","","","","","Rain"
"1969-10-27 00:00","1969","10","27","00:00","7.8","","4.4","","79","","27","","32","","11.3","","98.93","","","","","","Mostly Cloudy"
"1969-10-27 01:00","1969","10","27","01:00","6.1","","2.8","","80","","27","","37","","25.0","","99.07","","","","","","Cloudy"
"1969-10-27 02:00","1969","10","27","02:00","5.0","","0.6","","74","","27","","40","","25.0","","99.12","","","","","","Cloudy"
"1969-10-27 03:00","1969","10","27","03:00","3.9","","-0.6","","73","","27","","35","","25.0","","99.22","","","","","","Mostly Cloudy"
"1969-10-27 04:00","1969","10","27","04:00","3.3","","-0.6","","75","","27","","26","","25.0","","99.31","","","","","","Mainly Clear"
"1969-10-27 05:00","1969","10","27","05:00","2.8","","-1.1","","77","","27","","24","","25.0","","99.42","","","","","","Mainly Clear"
"1969-10-27 06:00","1969","10","27","06:00","3.3","","-1.7","","70","","27","","19","","25.0","","99.50","","","","","","Mostly Cloudy"
"1969-10-27 07:00","1969","10","27","07:00","1.7","","-1.1","","81","","27","","16","","40.2","","99.58","","","","","","Mainly Clear"
"1969-10-27 08:00","1969","10","27","08:00","3.3","","0.0","","80","","27","","13","","40.2","","99.70","","","","","","Mostly Cloudy"
"1969-10-27 09:00","1969","10","27","09:00","3.9","","0.0","","75","","29","","19","","40.2","","99.74","","","","","","Mostly Cloudy"
"1969-10-27 10:00","1969","10","27","10:00","4.4","","0.6","","76","","32","","16","","32.2","","99.77","","","","","","Snow Pellets"
"1969-10-27 11:00","1969","10","27","11:00","5.0","","-0.6","","67","","29","","24","","32.2","","99.78","","","","","","Mostly Cloudy"
"1969-10-27 12:00","1969","10","27","12:00","3.9","","1.1","","83","","32","","11","","40.2","","99.77","","","","","","Mostly Cloudy"
"1969-10-27 13:00","1969","10","27","13:00","3.9","","0.6","","80","","29","","14","","40.2","","99.74","","","","","","Mostly Cloudy"
"1969-10-27 14:00","1969","10","27","14:00","6.1","","1.1","","71","","29","","19","","40.2","","99.72","","","","","","Mostly Cloudy"
"1969-10-27 15:00","1969","10","27","15:00","6.1","","-2.2","","56","","29","","24","","40.2","","99.74","","","","","","Mostly Cloudy"
"1969-10-27 16:00","1969","10","27","16:00","6.1","","-2.2","","54","","29","","29","","40.2","","99.79","","","","","","Mostly Cloudy"
"1969-10-27 17:00","1969","10","27","17:00","5.0","","-1.7","","63","","27","","16","","24.1","","99.83","","","","","","Mostly Cloudy"
"1969-10-27 18:00","1969","10","27","18:00","4.4","","-1.1","","67","","27","","11","","24.1","","99.92","","","","","","Cloudy"
"1969-10-27 19:00","1969","10","27","19:00","3.9","","0.0","","75","","27","","16","","19.3","","99.96","","","","","","Cloudy"
"1969-10-27 20:00","1969","10","27","20:00","3.3","","0.6","","82","","29","","10","","19.3","","99.98","","","","","","Mostly Cloudy"
"1969-10-27 21:00","1969","10","27","21:00","2.8","","0.6","","84","","27","","5","","19.3","","100.01","","","","","","Snow Showers"
"1969-10-27 22:00","1969","10","27","22:00","2.8","","0.6","","84","","","","0","","19.3","","100.04","","","","","","Cloudy"
"1969-10-27 23:00","1969","10","27","23:00","3.3","","0.6","","82","","36","","3","","19.3","","100.06","","","","","","Cloudy"
"1969-10-28 00:00","1969","10","28","00:00","2.2","","1.1","","92","","32","","3","","19.3","","100.06","","","","","","Cloudy"
"1969-10-28 01:00","1969","10","28","01:00","2.2","","0.6","","89","","34","","5","","24.1","","100.08","","","","","","Cloudy"
"1969-10-28 02:00","1969","10","28","02:00","1.1","","0.6","","94","","27","","3","","24.1","","100.09","","","","","","Mostly Cloudy"
"1969-10-28 03:00","1969","10","28","03:00","0.6","","-1.1","","89","","32","","6","","25.0","","100.12","","","","","","Mostly Cloudy"
"1969-10-28 04:00","1969","10","28","04:00","0.6","","-0.6","","91","","32","","11","","25.0","","100.16","","","","","","Mainly Clear"
"1969-10-28 05:00","1969","10","28","05:00","-0.6","","-1.7","","91","","32","","13","","25.0","","100.27","","","","-5","","Mainly Clear"
"1969-10-28 06:00","1969","10","28","06:00","0.0","","-1.1","","91","","34","","16","","25.0","","100.36","","","","-5","","Mostly Cloudy"
"1969-10-28 07:00","1969","10","28","07:00","0.6","","0.0","","94","","36","","16","","32.2","","100.46","","","","","","Mainly Clear"
"1969-10-28 08:00","1969","10","28","08:00","0.6","","-1.7","","84","","36","","18","","40.2","","100.58","","","","","","Mainly Clear"
"1969-10-28 09:00","1969","10","28","09:00","1.1","","-1.7","","82","","2","","16","","40.2","","100.69","","","","","","Mainly Clear"
"1969-10-28 10:00","1969","10","28","10:00","2.8","","-4.4","","59","","36","","21","","40.2","","100.76","","","","","","Mainly Clear"
"1969-10-28 11:00","1969","10","28","11:00","2.8","","-3.9","","62","","34","","19","","40.2","","100.81","","","","","","Mainly Clear"
"1969-10-28 12:00","1969","10","28","12:00","2.8","","-3.9","","62","","32","","21","","40.2","","100.86","","","","","","Mainly Clear"
"1969-10-28 13:00","1969","10","28","13:00","3.9","","-3.9","","57","","34","","18","","40.2","","100.84","","","","","","Mainly Clear"
"1969-10-28 14:00","1969","10","28","14:00","3.3","","-3.9","","58","","34","","23","","40.2","","100.86","","","","","","Mainly Clear"
"1969-10-28 15:00","1969","10","28","15:00","4.4","","-3.3","","58","","36","","21","","40.2","","100.89","","","","","","Mainly Clear"
"1969-10-28 16:00","1969","10","28","16:00","2.8","","-3.9","","62","","34","","19","","40.2","","100.94","","","","","","Mainly Clear"
"1969-10-28 17:00","1969","10","28","17:00","2.2","","-3.3","","66","","32","","11","","32.2","","100.97","","","","","","Mainly Clear"
"1969-10-28 18:00","1969","10","28","18:00","0.6","","-3.9","","73","","27","","5","","32.2","","101.02","","","","","","Mainly Clear"
"1969-10-28 19:00","1969","10","28","19:00","0.6","","-3.9","","73","","25","","3","","32.2","","101.08","","","","","","Mainly Clear"
"1969-10-28 20:00","1969","10","28","20:00","-1.1","","-2.8","","87","","27","","3","","32.2","","101.11","","","","-2","","Mostly Cloudy"
"1969-10-28 21:00","1969","10","28","21:00","0.0","","-3.3","","80","","27","","5","","32.2","","101.13","","","","-2","","Mainly Clear"
"1969-10-28 22:00","1969","10","28","22:00","-2.2","","-3.9","","87","","25","","8","","19.3","","101.14","","","","-5","","Clear"
"1969-10-28 23:00","1969","10","28","23:00","-2.2","","-3.9","","88","","27","","5","","19.3","","101.14","","","","-4","","Mainly Clear"
"1969-10-29 00:00","1969","10","29","00:00","-2.8","","-3.3","","95","","27","","3","","25.0","","101.17","","","","-4","","Mainly Clear"
"1969-10-29 01:00","1969","10","29","01:00","-2.2","","-3.9","","87","","29","","6","","25.0","","101.19","","","","-5","","Clear"
"1969-10-29 02:00","1969","10","29","02:00","-3.3","","-5.0","","89","","32","","5","","25.0","","101.27","","","","-5","","Clear"
"1969-10-29 03:00","1969","10","29","03:00","-2.2","","-4.4","","85","","29","","6","","25.0","","101.28","","","","-5","","Mainly Clear"
"1969-10-29 04:00","1969","10","29","04:00","-4.4","","-6.1","","90","","29","","6","","25.0","","101.30","","","","-7","","Mainly Clear"
"1969-10-29 05:00","1969","10","29","05:00","-3.3","","-4.4","","90","","27","","6","","25.0","","101.37","","","","-6","","Mostly Cloudy"
"1969-10-29 06:00","1969","10","29","06:00","-0.6","","-2.8","","85","","29","","8","","25.0","","101.40","","","","-3","","Mostly Cloudy"
"1969-10-29 07:00","1969","10","29","07:00","-0.6","","-2.2","","88","","27","","6","","24.1","","101.44","","","","-3","","Mostly Cloudy"
"1969-10-29 08:00","1969","10","29","08:00","0.0","","-1.7","","88","","32","","5","","19.3","","101.49","","","","-2","","Mostly Cloudy"
"1969-10-29 09:00","1969","10","29","09:00","2.2","","0.0","","87","","","","0","","19.3","","101.54","","","","","","Mostly Cloudy"
"1969-10-29 10:00","1969","10","29","10:00","4.4","","-2.2","","62","","5","","8","","32.2","","101.55","","","","","","Mostly Cloudy"
"1969-10-29 11:00","1969","10","29","11:00","5.6","","-2.8","","55","","5","","5","","40.2","","101.53","","","","","","Mostly Cloudy"
"1969-10-29 12:00","1969","10","29","12:00","6.1","","-2.2","","56","","9","","5","","40.2","","101.46","","","","","","Mostly Cloudy"
"1969-10-29 13:00","1969","10","29","13:00","7.2","","-1.7","","54","","11","","5","","40.2","","101.39","","","","","","Cloudy"
"1969-10-29 14:00","1969","10","29","14:00","6.1","","-1.7","","58","","16","","11","","32.2","","101.36","","","","","","Cloudy"
"1969-10-29 15:00","1969","10","29","15:00","5.6","","-1.1","","62","","14","","13","","32.2","","101.34","","","","","","Cloudy"
"1969-10-29 16:00","1969","10","29","16:00","5.6","","-1.1","","62","","16","","13","","24.1","","101.32","","","","","","Mostly Cloudy"
"1969-10-29 17:00","1969","10","29","17:00","4.4","","-1.1","","67","","18","","10","","19.3","","101.31","","","","","","Mostly Cloudy"
"1969-10-29 18:00","1969","10","29","18:00","2.8","","-1.7","","72","","16","","8","","19.3","","101.30","","","","","","Mostly Cloudy"
"1969-10-29 19:00","1969","10","29","19:00","1.7","","-1.1","","81","","","","0","","19.3","","101.32","","","","","","Mainly Clear"
"1969-10-29 20:00","1969","10","29","20:00","1.7","","-1.1","","81","","","","0","","19.3","","101.31","","","","","","Mainly Clear"
"1969-10-29 21:00","1969","10","29","21:00","-1.7","","-3.3","","89","","36","","6","","19.3","","101.30","","","","-4","","Mainly Clear"
"1969-10-29 22:00","1969","10","29","22:00","-1.1","","-3.3","","86","","36","","8","","19.3","","101.29","","","","-4","","Mainly Clear"
"1969-10-29 23:00","1969","10","29","23:00","-2.2","","-3.9","","88","","32","","3","","16.1","","101.28","","","","-3","","Mainly Clear"
"1969-10-30 00:00","1969","10","30","00:00","-2.8","","-4.4","","89","","34","","6","","11.3","","101.27","","","","-5","","Mainly Clear"
"1969-10-30 01:00","1969","10","30","01:00","-3.3","","-5.0","","89","","34","","11","","12.9","","101.28","","","","-8","","Mainly Clear"
"1969-10-30 02:00","1969","10","30","02:00","-3.9","","-5.0","","91","","34","","10","","19.3","","101.27","","","","-8","","Mainly Clear"
"1969-10-30 03:00","1969","10","30","03:00","-3.9","","-5.6","","88","","34","","8","","24.1","","101.24","","","","-7","","Mainly Clear"
"1969-10-30 04:00","1969","10","30","04:00","-3.9","","-6.1","","86","","34","","13","","19.3","","101.21","","","","-9","","Clear"
"1969-10-30 05:00","1969","10","30","05:00","-3.3","","-5.0","","89","","34","","10","","16.1","","101.25","","","","-7","","Clear"
"1969-10-30 06:00","1969","10","30","06:00","-4.4","","-6.1","","90","","34","","10","","16.1","","101.24","","","","-9","","Clear"
"1969-10-30 07:00","1969","10","30","07:00","-5.0","","-6.1","","90","","36","","14","","9.7","","101.23","","","","-10","","Fog"
"1969-10-30 08:00","1969","10","30","08:00","-2.2","","-3.9","","89","","36","","10","","12.9","","101.25","","","","-6","","Mainly Clear"
"1969-10-30 09:00","1969","10","30","09:00","0.6","","-1.1","","89","","36","","6","","11.3","","101.22","","","","","","Mainly Clear"
"1969-10-30 10:00","1969","10","30","10:00","4.4","","1.1","","78","","7","","8","","12.9","","101.17","","","","","","Mainly Clear"
"1969-10-30 11:00","1969","10","30","11:00","6.7","","1.7","","70","","16","","11","","12.9","","101.15","","","","","","Mainly Clear"
"1969-10-30 12:00","1969","10","30","12:00","7.2","","1.1","","64","","9","","6","","16.1","","101.06","","","","","","Mainly Clear"
"1969-10-30 13:00","1969","10","30","13:00","8.3","","1.7","","62","","9","","11","","24.1","","100.97","","","","","","Mainly Clear"
"1969-10-30 14:00","1969","10","30","14:00","8.3","","1.1","","60","","7","","11","","24.1","","100.90","","","","","","Mostly Cloudy"
"1969-10-30 15:00","1969","10","30","15:00","8.3","","1.1","","60","","7","","14","","19.3","","100.86","","","","","","Mostly Cloudy"
"1969-10-30 16:00","1969","10","30","16:00","7.2","","0.6","","62","","9","","14","","19.3","","100.85","","","","","","Mainly Clear"
"1969-10-30 17:00","1969","10","30","17:00","6.1","","1.1","","71","","9","","13","","11.3","","100.82","","","","","","Mostly Cloudy"
"1969-10-30 18:00","1969","10","30","18:00","3.9","","1.1","","83","","9","","11","","8.0","","100.81","","","","","","Haze"
"1969-10-30 19:00","1969","10","30","19:00","3.3","","1.1","","85","","5","","6","","11.3","","100.81","","","","","","Mainly Clear"
"1969-10-30 20:00","1969","10","30","20:00","1.1","","0.0","","92","","36","","8","","11.3","","100.76","","","","","","Mainly Clear"
"1969-10-30 21:00","1969","10","30","21:00","0.6","","0.0","","97","","34","","6","","8.0","","100.74","","","","","","Fog"
"1969-10-30 22:00","1969","10","30","22:00","-0.6","","-1.1","","97","","34","","10","","4.0","","100.69","","","","-4","","Fog"
"1969-10-30 23:00","1969","10","30","23:00","0.0","","-0.6","","97","","36","","10","","4.8","","100.62","","","","-3","","Fog"
"1969-10-31 00:00","1969","10","31","00:00","-1.7","","-2.2","","96","","36","","8","","8.0","","100.54","","","","-5","","Fog"
"1969-10-31 01:00","1969","10","31","01:00","-1.1","","-1.7","","96","","36","","6","","9.7","","100.55","","","","-3","","Fog"
"1969-10-31 02:00","1969","10","31","02:00","-1.7","","-2.8","","93","","5","","6","","11.3","","100.52","","","","-4","","Clear"
"1969-10-31 03:00","1969","10","31","03:00","0.6","","0.0","","94","","5","","6","","9.7","","100.47","","","","","","Fog"
"1969-10-31 04:00","1969","10","31","04:00","2.2","","1.7","","95","","7","","3","","8.0","","100.42","","","","","","Fog"
"1969-10-31 05:00","1969","10","31","05:00","-1.7","","-2.8","","92","","2","","3","","8.0","","100.44","","","","-3","","Fog"
"1969-10-31 06:00","1969","10","31","06:00","-2.2","","-3.3","","94","","32","","6","","6.4","","100.41","","","","-5","","Fog"
"1969-10-31 07:00","1969","10","31","07:00","-2.2","","-2.8","","96","","34","","6","","2.4","","100.41","","","","-5","","Fog"
"1969-10-31 08:00","1969","10","31","08:00","-1.7","","-2.2","","95","","34","","6","","3.2","","100.39","","","","-4","","Fog"
"1969-10-31 09:00","1969","10","31","09:00","2.8","","2.2","","97","","34","","6","","3.2","","100.37","","","","","","Fog"
"1969-10-31 10:00","1969","10","31","10:00","6.1","","5.0","","91","","14","","6","","4.8","","100.30","","","","","","Fog"
"1969-10-31 11:00","1969","10","31","11:00","8.9","","1.7","","61","","11","","10","","8.0","","100.25","","","","","","Haze"
"1969-10-31 12:00","1969","10","31","12:00","10.0","","2.2","","59","","14","","16","","9.7","","100.17","","","","","","Haze"
"1969-10-31 13:00","1969","10","31","13:00","10.0","","2.2","","59","","14","","14","","9.7","","100.08","","","","","","Haze"
"1969-10-31 14:00","1969","10","31","14:00","10.0","","2.8","","60","","14","","14","","9.7","","100.06","","","","","","Haze"
"1969-10-31 15:00","1969","10","31","15:00","10.6","","2.8","","58","","14","","14","","6.4","","100.05","","","","","","Haze"
"1969-10-31 16:00","1969","10","31","16:00","9.4","","0.6","","54","","9","","14","","6.4","","100.02","","","","","","Haze"
"1969-10-31 17:00","1969","10","31","17:00","8.9","","0.6","","57","","7","","13","","4.8","","100.02","","","","","","Haze"
"1969-10-31 18:00","1969","10","31","18:00","8.3","","0.0","","56","","11","","6","","9.7","","99.98","","","","","","Haze"
"1969-10-31 19:00","1969","10","31","19:00","8.9","","1.7","","61","","9","","13","","9.7","","99.90","","","","","","Haze"
"1969-10-31 20:00","1969","10","31","20:00","6.7","","2.2","","74","","29","","6","","9.7","","99.88","","","","","","Haze"
"1969-10-31 21:00","1969","10","31","21:00","5.6","","2.2","","79","","34","","5","","9.7","","99.84","","","","","","Haze"
"1969-10-31 22:00","1969","10","31","22:00","6.1","","2.2","","78","","","","0","","9.7","","99.82","","","","","","Haze"
"1969-10-31 23:00","1969","10","31","23:00","5.0","","2.2","","83","","","","0","","9.7","","99.78","","","","","","Haze"
