"Station Name","TORONTO LESTER B. PEARSON INT'L A"
"Province","ONTARIO"
"Latitude","43.68"
"Longitude","-79.63"
"Elevation","173.40"
"Climate Identifier","6158733"
"WMO Identifier","71624"
"TC Identifier","YYZ"
"All times are specified in Local Standard Time (LST). Add 1 hour to adjust for Daylight Saving Time where and when it is observed."

"Legend"
"E","Estimated"
"M","Missing"
"NA","Not Available"

"Date/Time","Year","Month","Day","Time","Temp (°C)","Temp Flag","Dew Point Temp (°C)","Dew Point Temp Flag","Rel Hum (%)","Rel Hum Flag","Wind Dir (10s deg)","Wind Dir Flag","Wind Spd (km/h)","Wind Spd Flag","Visibility (km)","Visibility Flag","Stn Press (kPa)","Stn Press Flag","Hmdx","Hmdx Flag","Wind Chill","Wind Chill Flag","Weather"
"1988-12-01 00:00","1988","12","01","00:00","0.8","","-1.5","","85","","25","","9","","25.0","","99.11","","","","","","Mostly Cloudy"
"1988-12-01 01:00","1988","12","01","01:00","0.7","","-2.0","","82","","25","","7","","25.0","","99.11","","","","","","Mostly Cloudy"
"1988-12-01 02:00","1988","12","01","02:00","0.2","","-1.5","","88","","27","","13","","25.0","","99.11","","","","","","Mostly Cloudy"
"1988-12-01 03:00","1988","12","01","03:00","0.6","","-1.4","","86","","26","","11","","24.1","","99.14","","","","","","Mostly Cloudy"
"1988-12-01 04:00","1988","12","01","04:00","0.8","","-1.0","","88","","24","","11","","16.1","","99.14","","","","","","Mostly Cloudy"
"1988-12-01 05:00","1988","12","01","05:00","0.8","","-1.0","","88","","29","","11","","16.1","","99.21","","","","","","Mostly Cloudy"
"1988-12-01 06:00","1988","12","01","06:00","0.6","","-2.0","","83","","31","","11","","25.0","","99.24","","","","","","Mostly Cloudy"
"1988-12-01 07:00","1988","12","01","07:00","0.3","","-2.2","","83","","29","","13","","25.0","","99.31","","","","","","Mostly Cloudy"
"1988-12-01 08:00","1988","12","01","08:00","-0.6","","-2.4","","88","","27","","11","","40.2","","99.34","","","","-4","","Mainly Clear"
"1988-12-01 09:00","1988","12","01","09:00","-0.6","","-2.4","","88","","26","","9","","32.2","","99.41","","","","-4","","Mainly Clear"
"1988-12-01 10:00","1988","12","01","10:00","0.2","","-1.5","","88","","26","","13","","40.2","","99.47","","","","","","Mainly Clear"
"1988-12-01 11:00","1988","12","01","11:00","2.2","","-3.4","","66","","27","","17","","40.2","","99.47","","","","","","Mostly Cloudy"
"1988-12-01 12:00","1988","12","01","12:00","2.3","","-2.0","","73","","28","","20","","40.2","","99.47","","","","","","Mostly Cloudy"
"1988-12-01 13:00","1988","12","01","13:00","1.7","","-2.9","","71","","27","","19","","32.2","","99.47","","","","","","Mostly Cloudy"
"1988-12-01 14:00","1988","12","01","14:00","1.2","","-1.9","","80","","29","","24","","32.2","","99.51","","","","","","Snow Showers"
"1988-12-01 15:00","1988","12","01","15:00","0.6","","-5.5","","63","","29","","26","","32.2","","99.61","","","","","","Mostly Cloudy"
"1988-12-01 16:00","1988","12","01","16:00","0.3","","-3.6","","75","","30","","28","","32.2","","99.67","","","","","","Mostly Cloudy"
"1988-12-01 17:00","1988","12","01","17:00","0.1","","-3.9","","74","","30","","24","","25.0","","99.77","","","","","","Mostly Cloudy"
"1988-12-01 18:00","1988","12","01","18:00","-1.9","","-6.0","","73","","31","","26","","25.0","","99.84","","","","-8","","Mainly Clear"
"1988-12-01 19:00","1988","12","01","19:00","-2.4","","-7.0","","70","","31","","19","","25.0","","99.87","","","","-8","","Mainly Clear"
"1988-12-01 20:00","1988","12","01","20:00","-2.0","","-7.0","","68","","31","","22","","25.0","","99.97","","","","-8","","Mainly Clear"
"1988-12-01 21:00","1988","12","01","21:00","-2.2","","-6.0","","75","","29","","15","","25.0","","100.01","","","","-7","","Mostly Cloudy"
"1988-12-01 22:00","1988","12","01","22:00","-2.5","","-5.4","","80","","26","","13","","25.0","","99.97","","","","-7","","Snow Showers"
"1988-12-01 23:00","1988","12","01","23:00","-3.0","","-7.7","","70","","27","","11","","25.0","","99.97","","","","-7","","Mostly Cloudy"
"1988-12-02 00:00","1988","12","02","00:00","-3.0","","-5.7","","81","","25","","15","","25.0","","100.01","","","","-8","","Mostly Cloudy"
"1988-12-02 01:00","1988","12","02","01:00","-3.2","","-5.4","","85","","25","","15","","25.0","","99.97","","","","-8","","Mostly Cloudy"
"1988-12-02 02:00","1988","12","02","02:00","-3.1","","-5.1","","86","","23","","13","","25.0","","99.94","","","","-8","","Mostly Cloudy"
"1988-12-02 03:00","1988","12","02","03:00","-3.3","","-5.1","","87","","20","","11","","24.1","","99.91","","","","-8","","Mostly Cloudy"
"1988-12-02 04:00","1988","12","02","04:00","-2.3","","-4.5","","85","","21","","15","","24.1","","99.81","","","","-7","","Mostly Cloudy"
"1988-12-02 05:00","1988","12","02","05:00","-1.7","","-3.9","","85","","23","","22","","24.1","","99.64","","","","-8","","Cloudy"
"1988-12-02 06:00","1988","12","02","06:00","-1.1","","-4.1","","80","","27","","24","","25.0","","99.81","","","","-7","","Cloudy"
"1988-12-02 07:00","1988","12","02","07:00","-1.3","","-5.4","","73","","25","","33","","25.0","","99.71","","","","-8","","Cloudy"
"1988-12-02 08:00","1988","12","02","08:00","-1.9","","-5.4","","77","","24","","30","","32.2","","99.67","","","","-9","","Mostly Cloudy"
"1988-12-02 09:00","1988","12","02","09:00","-1.5","","-4.5","","80","","24","","30","","32.2","","99.61","","","","-8","","Mostly Cloudy"
"1988-12-02 10:00","1988","12","02","10:00","-1.1","","-4.4","","78","","24","","37","","32.2","","99.47","","","","-9","","Mostly Cloudy"
"1988-12-02 11:00","1988","12","02","11:00","-0.8","","-4.1","","78","","25","","39","","32.2","","99.34","","","","-8","","Cloudy"
"1988-12-02 12:00","1988","12","02","12:00","-0.3","","-3.2","","80","","25","","44","","32.2","","99.31","","","","-8","","Cloudy"
"1988-12-02 13:00","1988","12","02","13:00","0.3","","-3.1","","78","","26","","43","","24.1","","99.34","","","","","","Mostly Cloudy"
"1988-12-02 14:00","1988","12","02","14:00","0.6","","-2.0","","83","","25","","43","","17.7","","99.24","","","","","","Mostly Cloudy"
"1988-12-02 15:00","1988","12","02","15:00","1.0","","-1.9","","81","","25","","31","","16.1","","99.27","","","","","","Mostly Cloudy"
"1988-12-02 16:00","1988","12","02","16:00","1.2","","-1.9","","80","","26","","39","","19.3","","99.31","","","","","","Mostly Cloudy"
"1988-12-02 17:00","1988","12","02","17:00","2.2","","-2.1","","73","","26","","28","","12.9","","99.37","","","","","","Mostly Cloudy"
"1988-12-02 18:00","1988","12","02","18:00","0.4","","-2.4","","82","","25","","20","","12.9","","99.37","","","","","","Clear"
"1988-12-02 19:00","1988","12","02","19:00","0.6","","-1.4","","86","","22","","11","","11.3","","99.47","","","","","","Clear"
"1988-12-02 20:00","1988","12","02","20:00","1.0","","-1.5","","83","","24","","19","","11.3","","99.47","","","","","","Clear"
"1988-12-02 21:00","1988","12","02","21:00","0.5","","-1.4","","87","","22","","11","","9.7","","99.47","","","","","","Fog"
"1988-12-02 22:00","1988","12","02","22:00","0.5","","-1.4","","87","","22","","15","","9.7","","99.34","","","","","","Fog"
"1988-12-02 23:00","1988","12","02","23:00","0.2","","-1.3","","90","","23","","15","","9.7","","99.41","","","","","","Fog"
"1988-12-03 00:00","1988","12","03","00:00","0.2","","-1.8","","86","","25","","15","","11.3","","99.41","","","","","","Clear"
"1988-12-03 01:00","1988","12","03","01:00","0.0","","-2.0","","86","","20","","13","","11.3","","99.31","","","","-4","","Clear"
"1988-12-03 02:00","1988","12","03","02:00","-0.5","","-2.4","","87","","18","","13","","12.9","","99.31","","","","-5","","Clear"
"1988-12-03 03:00","1988","12","03","03:00","0.0","","-2.0","","86","","21","","15","","11.3","","99.24","","","","-4","","Clear"
"1988-12-03 04:00","1988","12","03","04:00","-0.2","","-1.8","","89","","21","","20","","12.9","","99.14","","","","-5","","Clear"
"1988-12-03 05:00","1988","12","03","05:00","0.0","","-1.8","","88","","19","","13","","11.3","","99.07","","","","-4","","Clear"
"1988-12-03 06:00","1988","12","03","06:00","0.2","","-1.5","","88","","21","","20","","11.3","","98.97","","","","","","Clear"
"1988-12-03 07:00","1988","12","03","07:00","0.5","","-1.4","","87","","21","","22","","9.7","","98.87","","","","","","Fog"
"1988-12-03 08:00","1988","12","03","08:00","2.0","","-1.0","","80","","23","","37","","14.5","","98.74","","","","","","Clear"
"1988-12-03 09:00","1988","12","03","09:00","3.0","","0.7","","85","","24","","39","","14.5","","98.64","","","","","","Clear"
"1988-12-03 10:00","1988","12","03","10:00","4.6","","1.8","","82","","25","","43","","19.3","","98.54","","","","","","Clear"
"1988-12-03 11:00","1988","12","03","11:00","6.4","","3.1","","80","","24","","44","","19.3","","98.47","","","","","","Clear"
"1988-12-03 12:00","1988","12","03","12:00","7.9","","0.4","","59","","26","","37","","24.1","","98.51","","","","","","Clear"
"1988-12-03 13:00","1988","12","03","13:00","7.6","","0.3","","60","","28","","37","","24.1","","98.57","","","","","","Mainly Clear"
"1988-12-03 14:00","1988","12","03","14:00","6.1","","1.0","","70","","27","","30","","24.1","","98.61","","","","","","Cloudy"
"1988-12-03 15:00","1988","12","03","15:00","5.9","","1.5","","73","","28","","30","","24.1","","98.64","","","","","","Mostly Cloudy"
"1988-12-03 16:00","1988","12","03","16:00","5.5","","0.4","","70","","30","","39","","32.2","","98.81","","","","","","Cloudy"
"1988-12-03 17:00","1988","12","03","17:00","4.5","","0.3","","74","","29","","35","","19.3","","98.94","","","","","","Rain Showers"
"1988-12-03 18:00","1988","12","03","18:00","4.3","","0.8","","78","","29","","35","","25.0","","99.04","","","","","","Cloudy"
"1988-12-03 19:00","1988","12","03","19:00","3.8","","0.3","","78","","32","","28","","25.0","","99.21","","","","","","Cloudy"
"1988-12-03 20:00","1988","12","03","20:00","1.0","","-3.0","","75","","34","","39","","19.3","","99.44","","","","","","Mostly Cloudy"
"1988-12-03 21:00","1988","12","03","21:00","-0.8","","-7.4","","61","","32","","35","","25.0","","99.64","","","","-8","","Mostly Cloudy"
"1988-12-03 22:00","1988","12","03","22:00","-2.5","","-6.0","","77","","32","","35","","25.0","","99.81","","","","-10","","Mainly Clear"
"1988-12-03 23:00","1988","12","03","23:00","-3.0","","-6.0","","80","","33","","31","","25.0","","100.01","","","","-11","","Snow Showers"
"1988-12-04 00:00","1988","12","04","00:00","-3.1","","-6.0","","80","","32","","30","","25.0","","100.11","","","","-11","","Mainly Clear"
"1988-12-04 01:00","1988","12","04","01:00","-3.0","","-9.2","","62","","30","","33","","25.0","","100.21","","","","-11","","Mostly Cloudy"
"1988-12-04 02:00","1988","12","04","02:00","-4.1","","-7.6","","76","","32","","28","","25.0","","100.31","","","","-12","","Mainly Clear"
"1988-12-04 03:00","1988","12","04","03:00","-5.0","","-8.9","","74","","32","","22","","25.0","","100.37","","","","-12","","Clear"
"1988-12-04 04:00","1988","12","04","04:00","-4.5","","-8.3","","75","","30","","24","","25.0","","100.41","","","","-12","","Clear"
"1988-12-04 05:00","1988","12","04","05:00","-5.6","","-9.2","","76","","30","","22","","25.0","","100.41","","","","-13","","Clear"
"1988-12-04 06:00","1988","12","04","06:00","-5.8","","-11.1","","66","","29","","19","","25.0","","100.51","","","","-12","","Clear"
"1988-12-04 07:00","1988","12","04","07:00","-5.7","","-8.9","","78","","29","","15","","25.0","","100.57","","","","-11","","Clear"
"1988-12-04 08:00","1988","12","04","08:00","-6.2","","-9.5","","77","","28","","13","","40.2","","100.61","","","","-12","","Clear"
"1988-12-04 09:00","1988","12","04","09:00","-4.9","","-9.3","","71","","27","","13","","40.2","","100.57","","","","-10","","Clear"
"1988-12-04 10:00","1988","12","04","10:00","-2.9","","-8.4","","66","","26","","17","","40.2","","100.57","","","","-8","","Mostly Cloudy"
"1988-12-04 11:00","1988","12","04","11:00","0.0","","-5.0","","69","","27","","26","","40.2","","100.41","","","","-6","","Mostly Cloudy"
"1988-12-04 12:00","1988","12","04","12:00","1.5","","-3.5","","69","","27","","37","","40.2","","100.27","","","","","","Mostly Cloudy"
"1988-12-04 13:00","1988","12","04","13:00","2.4","","-3.9","","63","","27","","30","","40.2","","100.11","","","","","","Mostly Cloudy"
"1988-12-04 14:00","1988","12","04","14:00","2.2","","-4.0","","63","","27","","35","","40.2","","99.97","","","","","","Mostly Cloudy"
"1988-12-04 15:00","1988","12","04","15:00","2.1","","-3.4","","67","","26","","31","","40.2","","99.94","","","","","","Mostly Cloudy"
"1988-12-04 16:00","1988","12","04","16:00","1.9","","-4.0","","65","","28","","41","","40.2","","99.94","","","","","","Mainly Clear"
"1988-12-04 17:00","1988","12","04","17:00","1.4","","-4.1","","67","","28","","28","","25.0","","100.01","","","","","","Mainly Clear"
"1988-12-04 18:00","1988","12","04","18:00","0.8","","-3.6","","72","","27","","26","","25.0","","100.01","","","","","","Mainly Clear"
"1988-12-04 19:00","1988","12","04","19:00","0.4","","-4.1","","72","","27","","26","","25.0","","99.94","","","","","","Mostly Cloudy"
"1988-12-04 20:00","1988","12","04","20:00","1.1","","-3.6","","71","","27","","28","","25.0","","100.01","","","","","","Mostly Cloudy"
"1988-12-04 21:00","1988","12","04","21:00","1.2","","-4.2","","67","","27","","28","","25.0","","100.01","","","","","","Mostly Cloudy"
"1988-12-04 22:00","1988","12","04","22:00","0.6","","-4.3","","70","","26","","19","","25.0","","100.01","","","","","","Mainly Clear"
"1988-12-04 23:00","1988","12","04","23:00","-0.3","","-4.7","","72","","25","","19","","25.0","","100.01","","","","-5","","Mostly Cloudy"
"1988-12-05 00:00","1988","12","05","00:00","-0.1","","-3.9","","76","","25","","15","","25.0","","99.97","","","","-5","","Cloudy"
"1988-12-05 01:00","1988","12","05","01:00","-0.1","","-3.6","","77","","24","","15","","25.0","","99.91","","","","-5","","Cloudy"
"1988-12-05 02:00","1988","12","05","02:00","0.0","","-3.4","","78","","25","","11","","25.0","","99.87","","","","-4","","Cloudy"
"1988-12-05 03:00","1988","12","05","03:00","0.0","","-3.7","","76","","25","","6","","25.0","","99.87","","","","-2","","Cloudy"
"1988-12-05 04:00","1988","12","05","04:00","-0.8","","-4.4","","76","","23","","6","","24.1","","99.77","","","","-3","","Cloudy"
"1988-12-05 05:00","1988","12","05","05:00","-0.8","","-4.4","","76","","24","","11","","24.1","","99.74","","","","-5","","Mostly Cloudy"
"1988-12-05 06:00","1988","12","05","06:00","-1.0","","-3.8","","81","","25","","9","","24.1","","99.71","","","","-4","","Mostly Cloudy"
"1988-12-05 07:00","1988","12","05","07:00","-1.1","","-3.6","","83","","2","","6","","25.0","","99.71","","","","-3","","Mostly Cloudy"
"1988-12-05 08:00","1988","12","05","08:00","-0.9","","-4.1","","79","","12","","6","","32.2","","99.74","","","","-3","","Mostly Cloudy"
"1988-12-05 09:00","1988","12","05","09:00","0.1","","-3.3","","78","","","","0","","32.2","","99.77","","","","","","Mostly Cloudy"
"1988-12-05 10:00","1988","12","05","10:00","0.7","","-2.5","","79","","","","0","","24.1","","99.77","","","","","","Snow"
"1988-12-05 11:00","1988","12","05","11:00","1.0","","-1.5","","83","","","","0","","24.1","","99.77","","","","","","Snow"
"1988-12-05 12:00","1988","12","05","12:00","2.1","","-3.2","","68","","21","","9","","24.1","","99.64","","","","","","Cloudy"
"1988-12-05 13:00","1988","12","05","13:00","2.0","","-2.1","","74","","21","","11","","19.3","","99.61","","","","","","Cloudy"
"1988-12-05 14:00","1988","12","05","14:00","2.8","","-1.5","","73","","25","","11","","16.1","","99.51","","","","","","Mostly Cloudy"
"1988-12-05 15:00","1988","12","05","15:00","3.0","","-1.5","","72","","23","","15","","19.3","","99.47","","","","","","Mostly Cloudy"
"1988-12-05 16:00","1988","12","05","16:00","2.7","","-2.6","","68","","22","","15","","16.1","","99.47","","","","","","Mostly Cloudy"
"1988-12-05 17:00","1988","12","05","17:00","2.4","","-1.5","","75","","20","","13","","8.0","","99.51","","","","","","Haze"
"1988-12-05 18:00","1988","12","05","18:00","2.4","","-1.5","","75","","21","","13","","9.7","","99.51","","","","","","Haze"
"1988-12-05 19:00","1988","12","05","19:00","2.4","","-1.5","","75","","20","","9","","8.0","","99.51","","","","","","Haze"
"1988-12-05 20:00","1988","12","05","20:00","2.4","","-1.5","","75","","20","","13","","8.0","","99.51","","","","","","Haze"
"1988-12-05 21:00","1988","12","05","21:00","2.1","","-1.0","","80","","20","","11","","9.7","","99.47","","","","","","Haze"
"1988-12-05 22:00","1988","12","05","22:00","2.3","","-0.4","","82","","21","","11","","9.7","","99.44","","","","","","Haze"
"1988-12-05 23:00","1988","12","05","23:00","2.2","","-0.4","","83","","21","","9","","9.7","","99.47","","","","","","Haze"
"1988-12-06 00:00","1988","12","06","00:00","2.0","","-1.0","","80","","21","","13","","8.0","","99.34","","","","","","Haze"
"1988-12-06 01:00","1988","12","06","01:00","2.2","","-1.0","","79","","21","","11","","6.4","","99.31","","","","","","Haze"
"1988-12-06 02:00","1988","12","06","02:00","2.0","","-1.0","","80","","18","","9","","6.4","","99.27","","","","","","Haze"
"1988-12-06 03:00","1988","12","06","03:00","1.4","","-1.0","","84","","18","","11","","6.4","","99.24","","","","","","Haze"
"1988-12-06 04:00","1988","12","06","04:00","1.9","","-0.4","","85","","18","","9","","6.4","","99.21","","","","","","Haze"
"1988-12-06 05:00","1988","12","06","05:00","1.9","","-0.4","","85","","20","","11","","6.4","","99.14","","","","","","Haze"
"1988-12-06 06:00","1988","12","06","06:00","1.0","","-1.5","","83","","21","","13","","6.4","","99.17","","","","","","Haze"
"1988-12-06 07:00","1988","12","06","07:00","0.9","","-1.5","","84","","23","","17","","6.4","","99.21","","","","","","Haze"
"1988-12-06 08:00","1988","12","06","08:00","0.8","","-1.0","","88","","22","","17","","6.4","","99.21","","","","","","Fog,Haze"
"1988-12-06 09:00","1988","12","06","09:00","2.2","","-1.0","","79","","22","","20","","12.9","","99.14","","","","","","Clear"
"1988-12-06 10:00","1988","12","06","10:00","4.5","","0.3","","74","","22","","22","","12.9","","99.11","","","","","","Clear"
"1988-12-06 11:00","1988","12","06","11:00","6.2","","0.5","","67","","21","","24","","12.9","","99.04","","","","","","Clear"
"1988-12-06 12:00","1988","12","06","12:00","8.2","","0.4","","58","","23","","31","","19.3","","98.91","","","","","","Clear"
"1988-12-06 13:00","1988","12","06","13:00","9.2","","0.0","","52","","23","","33","","19.3","","98.77","","","","","","Clear"
"1988-12-06 14:00","1988","12","06","14:00","9.5","","0.2","","52","","23","","31","","24.1","","98.71","","","","","","Clear"
"1988-12-06 15:00","1988","12","06","15:00","9.1","","0.0","","53","","23","","30","","24.1","","98.64","","","","","","Clear"
"1988-12-06 16:00","1988","12","06","16:00","8.2","","-0.2","","55","","23","","22","","24.1","","98.57","","","","","","Clear"
"1988-12-06 17:00","1988","12","06","17:00","6.8","","0.2","","63","","22","","28","","24.1","","98.51","","","","","","Clear"
"1988-12-06 18:00","1988","12","06","18:00","6.4","","-0.5","","61","","23","","28","","24.1","","98.51","","","","","","Clear"
"1988-12-06 19:00","1988","12","06","19:00","6.4","","0.1","","64","","23","","35","","24.1","","98.44","","","","","","Clear"
"1988-12-06 20:00","1988","12","06","20:00","6.5","","0.1","","64","","24","","33","","24.1","","98.44","","","","","","Clear"
"1988-12-06 21:00","1988","12","06","21:00","6.7","","-0.5","","60","","23","","26","","25.0","","98.41","","","","","","Clear"
"1988-12-06 22:00","1988","12","06","22:00","6.2","","0.0","","64","","23","","28","","19.3","","98.41","","","","","","Clear"
"1988-12-06 23:00","1988","12","06","23:00","6.0","","0.0","","65","","24","","22","","25.0","","98.44","","","","","","Clear"
"1988-12-07 00:00","1988","12","07","00:00","5.9","","0.5","","68","","24","","24","","19.3","","98.41","","","","","","Clear"
"1988-12-07 01:00","1988","12","07","01:00","5.3","","0.4","","71","","25","","15","","19.3","","98.44","","","","","","Clear"
"1988-12-07 02:00","1988","12","07","02:00","4.2","","0.3","","75","","25","","11","","12.9","","98.44","","","","","","Clear"
"1988-12-07 03:00","1988","12","07","03:00","4.0","","0.3","","77","","25","","17","","12.9","","98.47","","","","","","Clear"
"1988-12-07 04:00","1988","12","07","04:00","3.0","","0.7","","85","","25","","15","","11.3","","98.51","","","","","","Clear"
"1988-12-07 05:00","1988","12","07","05:00","3.0","","0.7","","85","","26","","17","","9.7","","98.57","","","","","","Fog"
"1988-12-07 06:00","1988","12","07","06:00","3.4","","1.2","","86","","26","","15","","6.4","","98.67","","","","","","Fog"
"1988-12-07 07:00","1988","12","07","07:00","3.6","","0.7","","81","","24","","15","","6.4","","98.74","","","","","","Haze"
"1988-12-07 08:00","1988","12","07","08:00","4.0","","1.3","","82","","26","","13","","12.9","","98.81","","","","","","Cloudy"
"1988-12-07 09:00","1988","12","07","09:00","4.2","","1.7","","84","","29","","17","","19.3","","98.91","","","","","","Cloudy"
"1988-12-07 10:00","1988","12","07","10:00","4.8","","0.9","","76","","27","","20","","32.2","","99.01","","","","","","Mostly Cloudy"
"1988-12-07 11:00","1988","12","07","11:00","5.0","","0.4","","72","","27","","22","","32.2","","98.97","","","","","","Mostly Cloudy"
"1988-12-07 12:00","1988","12","07","12:00","5.8","","1.0","","71","","28","","24","","40.2","","98.97","","","","","","Mostly Cloudy"
"1988-12-07 13:00","1988","12","07","13:00","5.9","","0.0","","66","","28","","22","","40.2","","98.97","","","","","","Mostly Cloudy"
"1988-12-07 14:00","1988","12","07","14:00","4.6","","-0.8","","68","","32","","20","","40.2","","99.04","","","","","","Mostly Cloudy"
"1988-12-07 15:00","1988","12","07","15:00","4.4","","-2.5","","61","","30","","24","","40.2","","99.11","","","","","","Mostly Cloudy"
"1988-12-07 16:00","1988","12","07","16:00","4.0","","-3.8","","57","","30","","19","","40.2","","99.21","","","","","","Mostly Cloudy"
"1988-12-07 17:00","1988","12","07","17:00","1.2","","-1.9","","80","","33","","24","","40.2","","99.34","","","","","","Mostly Cloudy"
"1988-12-07 18:00","1988","12","07","18:00","0.2","","-1.8","","86","","32","","20","","25.0","","99.47","","","","","","Mostly Cloudy"
"1988-12-07 19:00","1988","12","07","19:00","-0.5","","-2.1","","89","","32","","19","","25.0","","99.57","","","","-6","","Snow Showers"
"1988-12-07 20:00","1988","12","07","20:00","0.0","","-2.0","","86","","29","","15","","24.1","","99.64","","","","-4","","Mostly Cloudy"
"1988-12-07 21:00","1988","12","07","21:00","-0.3","","-3.2","","80","","33","","20","","25.0","","99.71","","","","-6","","Mainly Clear"
"1988-12-07 22:00","1988","12","07","22:00","-1.6","","-3.9","","84","","33","","17","","25.0","","99.77","","","","-7","","Mainly Clear"
"1988-12-07 23:00","1988","12","07","23:00","-2.4","","-4.5","","85","","31","","15","","25.0","","99.87","","","","-7","","Clear"
"1988-12-08 00:00","1988","12","08","00:00","-4.0","","-5.7","","88","","33","","13","","25.0","","99.91","","","","-9","","Clear"
"1988-12-08 01:00","1988","12","08","01:00","-5.1","","-8.6","","76","","32","","11","","25.0","","99.97","","","","-10","","Clear"
"1988-12-08 02:00","1988","12","08","02:00","-5.2","","-7.5","","84","","32","","11","","24.1","","100.01","","","","-10","","Clear"
"1988-12-08 03:00","1988","12","08","03:00","-6.4","","-9.0","","82","","31","","11","","24.1","","100.07","","","","-11","","Clear"
"1988-12-08 04:00","1988","12","08","04:00","-5.8","","-9.1","","77","","29","","6","","25.0","","100.07","","","","-9","","Mostly Cloudy"
"1988-12-08 05:00","1988","12","08","05:00","-6.0","","-9.1","","79","","19","","6","","25.0","","100.07","","","","-9","","Mainly Clear"
"1988-12-08 06:00","1988","12","08","06:00","-5.3","","-7.8","","82","","22","","4","","19.3","","100.11","","","","-7","","Mostly Cloudy"
"1988-12-08 07:00","1988","12","08","07:00","-5.1","","-6.9","","87","","","","0","","25.0","","100.17","","","","","","Mostly Cloudy"
"1988-12-08 08:00","1988","12","08","08:00","-4.4","","-6.3","","87","","28","","6","","19.3","","100.21","","","","-7","","Mostly Cloudy"
"1988-12-08 09:00","1988","12","08","09:00","-3.5","","-5.7","","85","","22","","13","","32.2","","100.21","","","","-8","","Mainly Clear"
"1988-12-08 10:00","1988","12","08","10:00","-1.0","","-3.8","","81","","25","","13","","40.2","","100.27","","","","-5","","Clear"
"1988-12-08 11:00","1988","12","08","11:00","1.2","","-3.6","","70","","31","","28","","40.2","","100.27","","","","","","Mostly Cloudy"
"1988-12-08 12:00","1988","12","08","12:00","1.6","","-5.4","","60","","33","","31","","40.2","","100.34","","","","","","Mainly Clear"
"1988-12-08 13:00","1988","12","08","13:00","-1.5","","-5.7","","73","","35","","22","","40.2","","100.37","","","","-7","","Mainly Clear"
"1988-12-08 14:00","1988","12","08","14:00","-1.0","","-5.0","","74","","34","","17","","40.2","","100.41","","","","-6","","Mainly Clear"
"1988-12-08 15:00","1988","12","08","15:00","-1.5","","-6.0","","71","","34","","11","","32.2","","100.47","","","","-5","","Snow Showers"
"1988-12-08 16:00","1988","12","08","16:00","-1.8","","-5.7","","74","","34","","11","","32.2","","100.47","","","","-6","","Mostly Cloudy"
"1988-12-08 17:00","1988","12","08","17:00","-3.3","","-7.0","","75","","26","","11","","25.0","","100.51","","","","-8","","Mainly Clear"
"1988-12-08 18:00","1988","12","08","18:00","-4.0","","-7.3","","78","","25","","11","","25.0","","100.54","","","","-8","","Mainly Clear"
"1988-12-08 19:00","1988","12","08","19:00","-4.3","","-7.9","","76","","25","","11","","25.0","","100.54","","","","-9","","Clear"
"1988-12-08 20:00","1988","12","08","20:00","-4.8","","-8.6","","74","","24","","9","","25.0","","100.51","","","","-9","","Mainly Clear"
"1988-12-08 21:00","1988","12","08","21:00","-4.3","","-7.6","","77","","22","","9","","25.0","","100.51","","","","-8","","Mostly Cloudy"
"1988-12-08 22:00","1988","12","08","22:00","-4.6","","-7.3","","82","","23","","13","","25.0","","100.44","","","","-10","","Mostly Cloudy"
"1988-12-08 23:00","1988","12","08","23:00","-4.9","","-7.9","","79","","23","","13","","25.0","","100.41","","","","-10","","Mostly Cloudy"
"1988-12-09 00:00","1988","12","09","00:00","-4.7","","-6.6","","87","","22","","15","","25.0","","100.31","","","","-10","","Mostly Cloudy"
"1988-12-09 01:00","1988","12","09","01:00","-4.1","","-7.3","","78","","21","","13","","24.1","","100.27","","","","-9","","Cloudy"
"1988-12-09 02:00","1988","12","09","02:00","-3.7","","-8.0","","72","","21","","11","","19.3","","100.17","","","","-8","","Cloudy"
"1988-12-09 03:00","1988","12","09","03:00","-3.9","","-8.0","","73","","21","","17","","24.1","","100.11","","","","-10","","Cloudy"
"1988-12-09 04:00","1988","12","09","04:00","-3.9","","-8.0","","73","","21","","15","","24.1","","100.01","","","","-9","","Mostly Cloudy"
"1988-12-09 05:00","1988","12","09","05:00","-4.1","","-7.0","","80","","20","","13","","24.1","","99.91","","","","-9","","Mostly Cloudy"
"1988-12-09 06:00","1988","12","09","06:00","-4.5","","-8.7","","72","","21","","13","","19.3","","99.87","","","","-10","","Mostly Cloudy"
"1988-12-09 07:00","1988","12","09","07:00","-4.1","","-7.3","","78","","23","","15","","19.3","","99.87","","","","-9","","Cloudy"
"1988-12-09 08:00","1988","12","09","08:00","-4.1","","-7.3","","78","","24","","19","","19.3","","99.87","","","","-10","","Mostly Cloudy"
"1988-12-09 09:00","1988","12","09","09:00","-3.4","","-8.4","","68","","24","","19","","32.2","","99.87","","","","-9","","Mainly Clear"
"1988-12-09 10:00","1988","12","09","10:00","-2.2","","-8.1","","64","","27","","19","","32.2","","99.91","","","","-8","","Mainly Clear"
"1988-12-09 11:00","1988","12","09","11:00","-1.8","","-6.7","","69","","28","","28","","32.2","","99.84","","","","-9","","Mainly Clear"
"1988-12-09 12:00","1988","12","09","12:00","-1.8","","-6.7","","69","","28","","22","","40.2","","99.77","","","","-8","","Mostly Cloudy"
"1988-12-09 13:00","1988","12","09","13:00","-1.5","","-7.0","","66","","29","","22","","40.2","","99.67","","","","-7","","Mainly Clear"
"1988-12-09 14:00","1988","12","09","14:00","-1.7","","-6.7","","69","","28","","26","","40.2","","99.64","","","","-8","","Mainly Clear"
"1988-12-09 15:00","1988","12","09","15:00","-3.4","","-9.1","","64","","27","","28","","40.2","","99.67","","","","-11","","Mainly Clear"
"1988-12-09 16:00","1988","12","09","16:00","-3.6","","-8.4","","69","","29","","22","","40.2","","99.67","","","","-10","","Mainly Clear"
"1988-12-09 17:00","1988","12","09","17:00","-5.2","","-10.1","","68","","28","","17","","25.0","","99.71","","","","-11","","Mainly Clear"
"1988-12-09 18:00","1988","12","09","18:00","-6.0","","-9.9","","74","","27","","13","","25.0","","99.77","","","","-11","","Mostly Cloudy"
"1988-12-09 19:00","1988","12","09","19:00","-5.4","","-10.4","","68","","27","","13","","25.0","","99.77","","","","-11","","Mostly Cloudy"
"1988-12-09 20:00","1988","12","09","20:00","-5.5","","-10.0","","70","","26","","11","","25.0","","99.77","","","","-10","","Mostly Cloudy"
"1988-12-09 21:00","1988","12","09","21:00","-6.5","","-10.1","","75","","23","","11","","25.0","","99.77","","","","-11","","Mainly Clear"
"1988-12-09 22:00","1988","12","09","22:00","-6.6","","-11.3","","69","","24","","9","","25.0","","99.71","","","","-11","","Mostly Cloudy"
"1988-12-09 23:00","1988","12","09","23:00","-7.0","","-11.2","","72","","23","","11","","25.0","","99.67","","","","-12","","Mostly Cloudy"
"1988-12-10 00:00","1988","12","10","00:00","-6.8","","-10.4","","75","","23","","13","","25.0","","99.67","","","","-12","","Mostly Cloudy"
"1988-12-10 01:00","1988","12","10","01:00","-6.4","","-9.7","","77","","24","","11","","25.0","","99.61","","","","-11","","Mostly Cloudy"
"1988-12-10 02:00","1988","12","10","02:00","-6.1","","-9.5","","77","","24","","11","","24.1","","99.61","","","","-11","","Snow Showers"
"1988-12-10 03:00","1988","12","10","03:00","-6.5","","-7.6","","92","","23","","13","","2.8","","99.61","","","","-12","","Snow Showers"
"1988-12-10 04:00","1988","12","10","04:00","-6.8","","-8.2","","89","","24","","13","","16.1","","99.57","","","","-12","","Snow Showers"
"1988-12-10 05:00","1988","12","10","05:00","-7.3","","-11.0","","75","","24","","20","","16.1","","99.54","","","","-14","","Snow Showers"
"1988-12-10 06:00","1988","12","10","06:00","-8.4","","-11.5","","78","","22","","17","","19.3","","99.54","","","","-15","","Snow Showers"
"1988-12-10 07:00","1988","12","10","07:00","-8.1","","-10.8","","81","","23","","17","","24.1","","99.54","","","","-15","","Mostly Cloudy"
"1988-12-10 08:00","1988","12","10","08:00","-9.5","","-12.3","","80","","23","","15","","32.2","","99.47","","","","-16","","Mainly Clear"
"1988-12-10 09:00","1988","12","10","09:00","-8.7","","-11.5","","80","","22","","17","","32.2","","99.47","","","","-16","","Mainly Clear"
"1988-12-10 10:00","1988","12","10","10:00","-7.3","","-11.8","","70","","25","","20","","32.2","","99.47","","","","-14","","Mainly Clear"
"1988-12-10 11:00","1988","12","10","11:00","-6.2","","-9.9","","75","","25","","22","","32.2","","99.41","","","","-13","","Mainly Clear"
"1988-12-10 12:00","1988","12","10","12:00","-5.5","","-9.6","","73","","25","","20","","32.2","","99.34","","","","-12","","Mainly Clear"
"1988-12-10 13:00","1988","12","10","13:00","-6.3","","-10.1","","74","","33","","15","","8.0","","99.27","","","","-12","","Snow Showers"
"1988-12-10 14:00","1988","12","10","14:00","-7.6","","-10.2","","81","","34","","13","","6.4","","99.24","","","","-13","","Snow Showers"
"1988-12-10 15:00","1988","12","10","15:00","-7.0","","-10.8","","74","","36","","11","","40.2","","99.24","","","","-12","","Mainly Clear"
"1988-12-10 16:00","1988","12","10","16:00","-7.4","","-12.3","","68","","36","","15","","40.2","","99.27","","","","-14","","Mainly Clear"
"1988-12-10 17:00","1988","12","10","17:00","-7.5","","-12.3","","68","","2","","15","","25.0","","99.34","","","","-14","","Cloudy"
"1988-12-10 18:00","1988","12","10","18:00","-8.8","","-14.3","","64","","35","","19","","16.1","","99.47","","","","-16","","Mostly Cloudy"
"1988-12-10 19:00","1988","12","10","19:00","-9.7","","-14.5","","68","","33","","20","","25.0","","99.54","","","","-17","","Mainly Clear"
"1988-12-10 20:00","1988","12","10","20:00","-11.1","","-16.1","","66","","34","","11","","25.0","","99.57","","","","-17","","Clear"
"1988-12-10 21:00","1988","12","10","21:00","-12.0","","-16.9","","67","","32","","11","","25.0","","99.61","","","","-18","","Clear"
"1988-12-10 22:00","1988","12","10","22:00","-12.4","","-17.0","","68","","32","","7","","25.0","","99.64","","","","-17","","Clear"
"1988-12-10 23:00","1988","12","10","23:00","-13.0","","-18.8","","62","","33","","9","","25.0","","99.71","","","","-18","","Mainly Clear"
"1988-12-11 00:00","1988","12","11","00:00","-13.7","","-17.7","","72","","34","","11","","25.0","","99.81","","","","-20","","Mainly Clear"
"1988-12-11 01:00","1988","12","11","01:00","-13.4","","-16.1","","80","","34","","11","","25.0","","99.84","","","","-20","","Mostly Cloudy"
"1988-12-11 02:00","1988","12","11","02:00","-13.3","","-15.5","","83","","33","","11","","24.1","","99.94","","","","-20","","Cloudy"
"1988-12-11 03:00","1988","12","11","03:00","-13.5","","-17.7","","70","","34","","17","","17.7","","100.04","","","","-22","","Mostly Cloudy"
"1988-12-11 04:00","1988","12","11","04:00","-14.1","","-17.8","","74","","35","","11","","24.1","","100.04","","","","-21","","Mainly Clear"
"1988-12-11 05:00","1988","12","11","05:00","-14.5","","-19.0","","69","","34","","13","","25.0","","100.11","","","","-22","","Mainly Clear"
"1988-12-11 06:00","1988","12","11","06:00","-15.0","","-19.0","","71","","35","","15","","25.0","","100.21","","","","-23","","Clear"
"1988-12-11 07:00","1988","12","11","07:00","-15.7","","-19.7","","71","","34","","11","","25.0","","100.27","","","","-22","","Clear"
"1988-12-11 08:00","1988","12","11","08:00","-16.3","","-21.7","","63","","35","","11","","40.2","","100.34","","","","-23","","Clear"
"1988-12-11 09:00","1988","12","11","09:00","-16.0","","-21.0","","65","","35","","15","","40.2","","100.47","","","","-24","","Clear"
"1988-12-11 10:00","1988","12","11","10:00","-15.0","","-19.7","","67","","36","","15","","40.2","","100.54","","","","-23","","Clear"
"1988-12-11 11:00","1988","12","11","11:00","-14.2","","-18.4","","71","","35","","19","","40.2","","100.57","","","","-23","","Clear"
"1988-12-11 12:00","1988","12","11","12:00","-13.7","","-17.7","","72","","34","","15","","40.2","","100.61","","","","-21","","Clear"
"1988-12-11 13:00","1988","12","11","13:00","-13.8","","-19.6","","61","","34","","17","","40.2","","100.61","","","","-22","","Clear"
"1988-12-11 14:00","1988","12","11","14:00","-13.6","","-18.3","","68","","32","","13","","40.2","","100.67","","","","-21","","Mainly Clear"
"1988-12-11 15:00","1988","12","11","15:00","-14.0","","-20.3","","59","","33","","15","","40.2","","100.71","","","","-22","","Clear"
"1988-12-11 16:00","1988","12","11","16:00","-14.3","","-19.6","","64","","35","","11","","40.2","","100.77","","","","-21","","Clear"
"1988-12-11 17:00","1988","12","11","17:00","-14.9","","-19.7","","67","","33","","11","","25.0","","100.87","","","","-21","","Clear"
"1988-12-11 18:00","1988","12","11","18:00","-15.7","","-21.8","","60","","36","","11","","25.0","","100.94","","","","-22","","Clear"
"1988-12-11 19:00","1988","12","11","19:00","-15.9","","-21.7","","61","","1","","11","","25.0","","100.97","","","","-23","","Clear"
"1988-12-11 20:00","1988","12","11","20:00","-16.2","","-21.0","","67","","35","","9","","25.0","","101.01","","","","-22","","Clear"
"1988-12-11 21:00","1988","12","11","21:00","-16.4","","-21.7","","63","","36","","9","","25.0","","101.04","","","","-22","","Clear"
"1988-12-11 22:00","1988","12","11","22:00","-17.0","","-22.4","","63","","36","","7","","25.0","","101.07","","","","-22","","Clear"
"1988-12-11 23:00","1988","12","11","23:00","-18.1","","-22.9","","66","","32","","7","","25.0","","101.11","","","","-23","","Clear"
"1988-12-12 00:00","1988","12","12","00:00","-19.1","","-21.9","","79","","34","","7","","24.1","","101.11","","","","-25","","Clear"
"1988-12-12 01:00","1988","12","12","01:00","-19.5","","-21.7","","83","","32","","7","","25.0","","101.11","","","","-25","","Clear"
"1988-12-12 02:00","1988","12","12","02:00","-19.5","","-21.7","","83","","33","","7","","25.0","","101.11","","","","-25","","Clear"
"1988-12-12 03:00","1988","12","12","03:00","-19.9","","-22.2","","82","","35","","7","","25.0","","101.11","","","","-26","","Clear"
"1988-12-12 04:00","1988","12","12","04:00","-19.9","","-22.2","","82","","34","","9","","25.0","","101.07","","","","-27","","Clear"
"1988-12-12 05:00","1988","12","12","05:00","-19.8","","-23.0","","76","","33","","7","","25.0","","101.04","","","","-25","","Clear"
"1988-12-12 06:00","1988","12","12","06:00","-19.6","","-22.4","","79","","32","","7","","25.0","","101.01","","","","-25","","Clear"
"1988-12-12 07:00","1988","12","12","07:00","-19.5","","-23.2","","72","","32","","4","","24.1","","100.97","","","","-23","","Mainly Clear"
"1988-12-12 08:00","1988","12","12","08:00","-19.5","","-23.2","","72","","32","","4","","24.1","","100.97","","","","-23","","Mainly Clear"
"1988-12-12 09:00","1988","12","12","09:00","-17.4","","-21.5","","70","","","","0","","16.1","","100.91","","","","","","Mainly Clear"
"1988-12-12 10:00","1988","12","12","10:00","-14.7","","-19.0","","70","","23","","6","","11.3","","100.91","","","","-19","","Mostly Cloudy"
"1988-12-12 11:00","1988","12","12","11:00","-11.1","","-15.0","","73","","16","","11","","11.3","","100.84","","","","-17","","Cloudy"
"1988-12-12 12:00","1988","12","12","12:00","-9.8","","-13.3","","75","","17","","17","","12.9","","100.71","","","","-17","","Mostly Cloudy"
"1988-12-12 13:00","1988","12","12","13:00","-9.3","","-14.5","","66","","15","","20","","19.3","","100.57","","","","-17","","Snow Showers"
"1988-12-12 14:00","1988","12","12","14:00","-9.0","","-13.4","","70","","14","","20","","32.2","","100.47","","","","-17","","Cloudy"
"1988-12-12 15:00","1988","12","12","15:00","-8.7","","-11.5","","80","","16","","19","","4.8","","100.31","","","","-16","","Snow Showers"
"1988-12-12 16:00","1988","12","12","16:00","-8.0","","-10.5","","82","","16","","22","","4.8","","100.17","","","","-16","","Snow Showers"
"1988-12-12 17:00","1988","12","12","17:00","-7.6","","-9.5","","86","","16","","20","","6.4","","100.07","","","","-15","","Snow Showers"
"1988-12-12 18:00","1988","12","12","18:00","-7.2","","-10.4","","78","","17","","24","","24.1","","99.97","","","","-15","","Mostly Cloudy"
"1988-12-12 19:00","1988","12","12","19:00","-7.4","","-10.6","","78","","17","","30","","19.3","","99.87","","","","-16","","Cloudy"
"1988-12-12 20:00","1988","12","12","20:00","-7.6","","-10.2","","81","","17","","24","","19.3","","99.67","","","","-16","","Cloudy"
"1988-12-12 21:00","1988","12","12","21:00","-7.1","","-10.4","","77","","19","","19","","25.0","","99.57","","","","-14","","Mostly Cloudy"
"1988-12-12 22:00","1988","12","12","22:00","-7.2","","-10.4","","78","","18","","17","","24.1","","99.41","","","","-14","","Cloudy"
"1988-12-12 23:00","1988","12","12","23:00","-6.5","","-10.9","","71","","19","","20","","25.0","","99.27","","","","-13","","Cloudy"
"1988-12-13 00:00","1988","12","13","00:00","-6.7","","-10.1","","77","","18","","19","","25.0","","99.21","","","","-14","","Cloudy"
"1988-12-13 01:00","1988","12","13","01:00","-6.3","","-10.5","","72","","19","","20","","25.0","","99.04","","","","-13","","Cloudy"
"1988-12-13 02:00","1988","12","13","02:00","-5.9","","-10.3","","71","","19","","19","","24.1","","98.94","","","","-13","","Cloudy"
"1988-12-13 03:00","1988","12","13","03:00","-5.3","","-9.2","","74","","19","","22","","4.8","","98.84","","","","-12","","Snow"
"1988-12-13 04:00","1988","12","13","04:00","-5.7","","-7.5","","87","","17","","17","","4.0","","98.71","","","","-12","","Snow"
"1988-12-13 05:00","1988","12","13","05:00","-5.6","","-6.8","","91","","16","","15","","4.8","","98.61","","","","-11","","Snow"
"1988-12-13 06:00","1988","12","13","06:00","-5.0","","-5.9","","93","","16","","17","","8.0","","98.51","","","","-11","","Snow"
"1988-12-13 07:00","1988","12","13","07:00","-4.4","","-5.4","","93","","17","","20","","6.4","","98.44","","","","-11","","Snow"
"1988-12-13 08:00","1988","12","13","08:00","-4.1","","-5.4","","91","","17","","19","","4.8","","98.41","","","","-10","","Snow"
"1988-12-13 09:00","1988","12","13","09:00","-3.6","","-4.8","","92","","18","","15","","1.6","","98.44","","","","-9","","Snow"
"1988-12-13 10:00","1988","12","13","10:00","-3.4","","-4.5","","92","","19","","13","","1.2","","98.44","","","","-8","","Snow"
"1988-12-13 11:00","1988","12","13","11:00","-2.9","","-4.8","","87","","18","","17","","4.8","","98.44","","","","-8","","Snow"
"1988-12-13 12:00","1988","12","13","12:00","-2.4","","-4.2","","87","","19","","15","","12.9","","98.41","","","","-7","","Mostly Cloudy"
"1988-12-13 13:00","1988","12","13","13:00","-2.3","","-4.2","","86","","21","","9","","12.9","","98.37","","","","-6","","Cloudy"
"1988-12-13 14:00","1988","12","13","14:00","-2.0","","-3.9","","87","","22","","7","","12.9","","98.41","","","","-5","","Cloudy"
"1988-12-13 15:00","1988","12","13","15:00","-1.9","","-3.9","","86","","22","","9","","16.1","","98.44","","","","-5","","Mostly Cloudy"
"1988-12-13 16:00","1988","12","13","16:00","-2.2","","-4.5","","84","","23","","9","","16.1","","98.54","","","","-6","","Cloudy"
"1988-12-13 17:00","1988","12","13","17:00","-3.5","","-6.0","","83","","22","","9","","11.3","","98.57","","","","-7","","Mostly Cloudy"
"1988-12-13 18:00","1988","12","13","18:00","-2.7","","-4.5","","88","","23","","7","","16.1","","98.67","","","","-6","","Mostly Cloudy"
"1988-12-13 19:00","1988","12","13","19:00","-3.9","","-6.0","","85","","22","","11","","11.3","","98.74","","","","-8","","Mostly Cloudy"
"1988-12-13 20:00","1988","12","13","20:00","-3.4","","-5.1","","88","","23","","13","","11.3","","98.81","","","","-8","","Mostly Cloudy"
"1988-12-13 21:00","1988","12","13","21:00","-2.9","","-4.5","","89","","21","","7","","9.7","","98.87","","","","-6","","Fog"
"1988-12-13 22:00","1988","12","13","22:00","-2.8","","-4.5","","88","","24","","7","","9.7","","98.94","","","","-6","","Fog"
"1988-12-13 23:00","1988","12","13","23:00","-2.1","","-3.3","","92","","25","","7","","9.7","","99.04","","","","-5","","Fog"
"1988-12-14 00:00","1988","12","14","00:00","-3.6","","-4.8","","92","","23","","15","","16.1","","99.07","","","","-9","","Clear"
"1988-12-14 01:00","1988","12","14","01:00","-4.4","","-5.4","","93","","25","","11","","19.3","","99.14","","","","-9","","Mainly Clear"
"1988-12-14 02:00","1988","12","14","02:00","-5.6","","-6.2","","95","","26","","6","","12.9","","99.21","","","","-8","","Mainly Clear"
"1988-12-14 03:00","1988","12","14","03:00","-6.9","","-7.6","","95","","26","","6","","9.7","","99.24","","","","-10","","Fog"
"1988-12-14 04:00","1988","12","14","04:00","-6.0","","-6.5","","96","","20","","4","","9.7","","99.21","","","","-8","","Fog"
"1988-12-14 05:00","1988","12","14","05:00","-5.4","","-6.8","","90","","24","","7","","16.1","","99.24","","","","-9","","Clear"
"1988-12-14 06:00","1988","12","14","06:00","-5.4","","-6.5","","92","","16","","6","","16.1","","99.21","","","","-8","","Mostly Cloudy"
"1988-12-14 07:00","1988","12","14","07:00","-4.7","","-6.0","","91","","13","","6","","16.1","","99.21","","","","-7","","Mostly Cloudy"
"1988-12-14 08:00","1988","12","14","08:00","-4.0","","-6.0","","86","","14","","6","","24.1","","99.21","","","","-7","","Cloudy"
"1988-12-14 09:00","1988","12","14","09:00","-2.4","","-5.1","","81","","14","","9","","12.9","","99.21","","","","-6","","Cloudy"
"1988-12-14 10:00","1988","12","14","10:00","-0.6","","-2.9","","85","","15","","13","","12.9","","99.07","","","","-5","","Mostly Cloudy"
"1988-12-14 11:00","1988","12","14","11:00","1.1","","-2.4","","77","","17","","19","","6.4","","99.01","","","","","","Snow"
"1988-12-14 12:00","1988","12","14","12:00","0.4","","-0.5","","94","","15","","24","","1.6","","98.74","","","","","","Snow"
"1988-12-14 13:00","1988","12","14","13:00","0.9","","-1.0","","87","","13","","26","","12.9","","98.51","","","","","","Cloudy"
"1988-12-14 14:00","1988","12","14","14:00","1.1","","-1.9","","80","","14","","26","","16.1","","98.44","","","","","","Cloudy"
"1988-12-14 15:00","1988","12","14","15:00","1.8","","-2.1","","75","","14","","26","","16.1","","98.37","","","","","","Cloudy"
"1988-12-14 16:00","1988","12","14","16:00","2.1","","-2.1","","74","","14","","20","","19.3","","98.31","","","","","","Cloudy"
"1988-12-14 17:00","1988","12","14","17:00","2.1","","-1.0","","80","","14","","26","","8.0","","98.17","","","","","","Rain,Haze"
"1988-12-14 18:00","1988","12","14","18:00","2.6","","0.1","","84","","16","","19","","12.9","","98.11","","","","","","Cloudy"
"1988-12-14 19:00","1988","12","14","19:00","2.5","","1.1","","91","","19","","20","","9.7","","98.07","","","","","","Rain,Fog"
"1988-12-14 20:00","1988","12","14","20:00","2.3","","1.6","","95","","18","","17","","9.7","","98.01","","","","","","Fog"
"1988-12-14 21:00","1988","12","14","21:00","2.8","","2.1","","95","","19","","15","","9.7","","97.91","","","","","","Fog"
"1988-12-14 22:00","1988","12","14","22:00","2.8","","1.6","","92","","23","","13","","11.3","","97.91","","","","","","Cloudy"
"1988-12-14 23:00","1988","12","14","23:00","3.5","","1.7","","88","","24","","17","","11.3","","98.01","","","","","","Rain"
"1988-12-15 00:00","1988","12","15","00:00","3.3","","1.7","","90","","25","","24","","11.3","","98.11","","","","","","Rain"
"1988-12-15 01:00","1988","12","15","01:00","3.3","","1.7","","90","","25","","20","","9.7","","98.21","","","","","","Rain,Fog"
"1988-12-15 02:00","1988","12","15","02:00","3.2","","1.1","","86","","26","","26","","11.3","","98.34","","","","","","Cloudy"
"1988-12-15 03:00","1988","12","15","03:00","1.4","","-1.5","","81","","29","","44","","24.1","","98.54","","","","","","Cloudy"
"1988-12-15 04:00","1988","12","15","04:00","-1.4","","-2.5","","92","","27","","50","","16.1","","98.74","","","","-10","","Mostly Cloudy"
"1988-12-15 05:00","1988","12","15","05:00","-2.6","","-7.0","","72","","28","","50","","25.0","","98.91","","","","-12","","Mainly Clear"
"1988-12-15 06:00","1988","12","15","06:00","-3.6","","-7.7","","73","","29","","31","","25.0","","99.04","","","","-11","","Mainly Clear"
"1988-12-15 07:00","1988","12","15","07:00","-4.2","","-8.7","","71","","28","","35","","25.0","","99.21","","","","-13","","Mainly Clear"
"1988-12-15 08:00","1988","12","15","08:00","-5.2","","-8.2","","79","","29","","28","","19.3","","99.34","","","","-13","","Snow Showers"
"1988-12-15 09:00","1988","12","15","09:00","-6.2","","-9.1","","80","","30","","39","","24.1","","99.51","","","","-16","","Mainly Clear"
"1988-12-15 10:00","1988","12","15","10:00","-7.6","","-12.7","","67","","29","","37","","40.2","","99.67","","","","-17","","Mainly Clear"
"1988-12-15 11:00","1988","12","15","11:00","-7.7","","-12.3","","70","","29","","41","","40.2","","99.74","","","","-18","","Mainly Clear"
"1988-12-15 12:00","1988","12","15","12:00","-7.0","","-13.4","","60","","29","","37","","40.2","","99.84","","","","-16","","Mainly Clear"
"1988-12-15 13:00","1988","12","15","13:00","-6.7","","-13.5","","58","","29","","28","","40.2","","99.87","","","","-15","","Mainly Clear"
"1988-12-15 14:00","1988","12","15","14:00","-7.0","","-14.3","","56","","29","","28","","40.2","","99.97","","","","-15","","Mainly Clear"
"1988-12-15 15:00","1988","12","15","15:00","-8.0","","-14.8","","58","","30","","22","","40.2","","100.07","","","","-16","","Mainly Clear"
"1988-12-15 16:00","1988","12","15","16:00","-8.6","","-14.1","","64","","30","","28","","40.2","","100.21","","","","-17","","Clear"
"1988-12-15 17:00","1988","12","15","17:00","-9.5","","-15.0","","64","","30","","22","","25.0","","100.27","","","","-18","","Clear"
"1988-12-15 18:00","1988","12","15","18:00","-10.5","","-16.4","","62","","29","","17","","25.0","","100.37","","","","-18","","Clear"
"1988-12-15 19:00","1988","12","15","19:00","-10.5","","-16.4","","62","","28","","17","","25.0","","100.41","","","","-18","","Clear"
"1988-12-15 20:00","1988","12","15","20:00","-11.2","","-15.0","","74","","26","","20","","25.0","","100.47","","","","-19","","Clear"
"1988-12-15 21:00","1988","12","15","21:00","-11.4","","-14.7","","76","","26","","19","","25.0","","100.47","","","","-19","","Clear"
"1988-12-15 22:00","1988","12","15","22:00","-11.7","","-14.7","","78","","29","","13","","25.0","","100.47","","","","-18","","Clear"
"1988-12-15 23:00","1988","12","15","23:00","-12.1","","-15.3","","77","","29","","11","","25.0","","100.47","","","","-18","","Clear"
"1988-12-16 00:00","1988","12","16","00:00","-12.4","","-15.4","","78","","28","","4","","25.0","","100.44","","","","-15","","Clear"
"1988-12-16 01:00","1988","12","16","01:00","-12.0","","-14.8","","80","","","","0","","25.0","","100.41","","","","","","Mostly Cloudy"
"1988-12-16 02:00","1988","12","16","02:00","-10.7","","-13.0","","83","","","","0","","25.0","","100.37","","","","","","Mostly Cloudy"
"1988-12-16 03:00","1988","12","16","03:00","-10.6","","-13.5","","79","","","","0","","24.1","","100.34","","","","","","Mostly Cloudy"
"1988-12-16 04:00","1988","12","16","04:00","-9.9","","-13.8","","73","","22","","9","","25.0","","100.27","","","","-15","","Mostly Cloudy"
"1988-12-16 05:00","1988","12","16","05:00","-9.1","","-12.5","","76","","23","","7","","25.0","","100.21","","","","-13","","Mostly Cloudy"
"1988-12-16 06:00","1988","12","16","06:00","-8.9","","-12.1","","77","","23","","11","","25.0","","100.21","","","","-14","","Mostly Cloudy"
"1988-12-16 07:00","1988","12","16","07:00","-8.5","","-11.5","","79","","24","","11","","25.0","","100.21","","","","-14","","Mostly Cloudy"
"1988-12-16 08:00","1988","12","16","08:00","-8.7","","-10.7","","85","","22","","9","","16.1","","100.21","","","","-13","","Snow Showers"
"1988-12-16 09:00","1988","12","16","09:00","-8.3","","-11.1","","80","","23","","17","","16.1","","100.17","","","","-15","","Mainly Clear"
"1988-12-16 10:00","1988","12","16","10:00","-7.6","","-10.6","","79","","24","","20","","24.1","","100.17","","","","-15","","Mainly Clear"
"1988-12-16 11:00","1988","12","16","11:00","-6.5","","-9.7","","78","","24","","24","","24.1","","100.11","","","","-14","","Mainly Clear"
"1988-12-16 12:00","1988","12","16","12:00","-5.9","","-9.9","","73","","24","","19","","24.1","","100.01","","","","-13","","Mainly Clear"
"1988-12-16 13:00","1988","12","16","13:00","-5.8","","-9.1","","77","","26","","22","","24.1","","99.94","","","","-13","","Mostly Cloudy"
"1988-12-16 14:00","1988","12","16","14:00","-6.3","","-10.5","","72","","23","","22","","24.1","","99.87","","","","-14","","Mostly Cloudy"
"1988-12-16 15:00","1988","12","16","15:00","-6.9","","-10.0","","78","","24","","17","","24.1","","99.77","","","","-13","","Cloudy"
"1988-12-16 16:00","1988","12","16","16:00","-7.5","","-13.1","","64","","25","","19","","24.1","","99.74","","","","-15","","Mostly Cloudy"
"1988-12-16 17:00","1988","12","16","17:00","-8.2","","-13.4","","66","","24","","7","","24.1","","99.67","","","","-12","","Cloudy"
"1988-12-16 18:00","1988","12","16","18:00","-8.7","","-13.6","","68","","","","0","","24.1","","99.64","","","","","","Cloudy"
"1988-12-16 19:00","1988","12","16","19:00","-8.0","","-14.3","","60","","18","","7","","24.1","","99.61","","","","-12","","Cloudy"
"1988-12-16 20:00","1988","12","16","20:00","-7.9","","-12.5","","69","","18","","6","","24.1","","99.54","","","","-11","","Cloudy"
"1988-12-16 21:00","1988","12","16","21:00","-7.3","","-11.8","","70","","19","","4","","19.3","","99.47","","","","-9","","Cloudy"
"1988-12-16 22:00","1988","12","16","22:00","-7.8","","-9.7","","86","","","","0","","1.6","","99.41","","","","","","Snow"
"1988-12-16 23:00","1988","12","16","23:00","-7.5","","-9.1","","88","","27","","4","","2.4","","99.34","","","","-10","","Snow"
"1988-12-17 00:00","1988","12","17","00:00","-7.1","","-8.2","","92","","26","","6","","2.0","","99.24","","","","-10","","Snow"
"1988-12-17 01:00","1988","12","17","01:00","-7.6","","-9.5","","86","","28","","7","","6.4","","99.21","","","","-11","","Snow"
"1988-12-17 02:00","1988","12","17","02:00","-7.8","","-9.7","","86","","27","","6","","6.4","","99.14","","","","-11","","Snow"
"1988-12-17 03:00","1988","12","17","03:00","-9.0","","-10.9","","86","","28","","4","","9.7","","99.11","","","","-11","","Fog"
"1988-12-17 04:00","1988","12","17","04:00","-8.3","","-10.3","","85","","","","0","","9.7","","99.04","","","","","","Snow,Fog"
"1988-12-17 05:00","1988","12","17","05:00","-9.0","","-11.3","","83","","","","0","","12.9","","99.01","","","","","","Cloudy"
"1988-12-17 06:00","1988","12","17","06:00","-9.4","","-11.4","","85","","","","0","","12.9","","99.01","","","","","","Cloudy"
"1988-12-17 07:00","1988","12","17","07:00","-9.9","","-12.0","","84","","25","","4","","12.9","","99.01","","","","-12","","Cloudy"
"1988-12-17 08:00","1988","12","17","08:00","-10.0","","-12.0","","85","","24","","4","","12.9","","99.04","","","","-12","","Cloudy"
"1988-12-17 09:00","1988","12","17","09:00","-10.3","","-13.0","","80","","25","","4","","16.1","","99.07","","","","-13","","Mostly Cloudy"
"1988-12-17 10:00","1988","12","17","10:00","-9.2","","-12.9","","75","","26","","7","","16.1","","99.07","","","","-13","","Mostly Cloudy"
"1988-12-17 11:00","1988","12","17","11:00","-8.6","","-11.9","","77","","24","","11","","16.1","","99.07","","","","-14","","Mostly Cloudy"
"1988-12-17 12:00","1988","12","17","12:00","-7.6","","-11.0","","77","","25","","15","","16.1","","99.01","","","","-14","","Mostly Cloudy"
"1988-12-17 13:00","1988","12","17","13:00","-7.2","","-11.2","","73","","26","","9","","19.3","","98.94","","","","-12","","Cloudy"
"1988-12-17 14:00","1988","12","17","14:00","-6.2","","-9.5","","77","","26","","15","","19.3","","98.94","","","","-12","","Cloudy"
"1988-12-17 15:00","1988","12","17","15:00","-6.4","","-10.1","","75","","26","","15","","19.3","","98.97","","","","-12","","Cloudy"
"1988-12-17 16:00","1988","12","17","16:00","-6.8","","-12.0","","66","","27","","15","","19.3","","99.04","","","","-13","","Cloudy"
"1988-12-17 17:00","1988","12","17","17:00","-8.2","","-12.9","","69","","23","","7","","19.3","","99.07","","","","-12","","Mostly Cloudy"
"1988-12-17 18:00","1988","12","17","18:00","-8.0","","-11.8","","74","","25","","11","","19.3","","99.14","","","","-13","","Mostly Cloudy"
"1988-12-17 19:00","1988","12","17","19:00","-8.8","","-12.5","","74","","24","","11","","19.3","","99.17","","","","-14","","Mainly Clear"
"1988-12-17 20:00","1988","12","17","20:00","-9.0","","-12.1","","78","","21","","7","","19.3","","99.17","","","","-13","","Mostly Cloudy"
"1988-12-17 21:00","1988","12","17","21:00","-8.0","","-11.2","","77","","25","","7","","19.3","","99.14","","","","-12","","Mostly Cloudy"
"1988-12-17 22:00","1988","12","17","22:00","-8.2","","-10.8","","82","","27","","4","","19.3","","99.11","","","","-10","","Mostly Cloudy"
"1988-12-17 23:00","1988","12","17","23:00","-8.8","","-12.1","","77","","27","","6","","19.3","","99.14","","","","-12","","Mainly Clear"
"1988-12-18 00:00","1988","12","18","00:00","-10.3","","-13.0","","80","","30","","9","","19.3","","99.11","","","","-15","","Mainly Clear"
"1988-12-18 01:00","1988","12","18","01:00","-10.8","","-13.2","","82","","28","","9","","19.3","","99.07","","","","-16","","Clear"
"1988-12-18 02:00","1988","12","18","02:00","-11.0","","-13.2","","84","","32","","7","","19.3","","99.11","","","","-15","","Clear"
"1988-12-18 03:00","1988","12","18","03:00","-11.4","","-13.3","","86","","33","","11","","19.3","","99.17","","","","-17","","Mainly Clear"
"1988-12-18 04:00","1988","12","18","04:00","-11.4","","-13.3","","86","","32","","7","","11.3","","99.17","","","","-16","","Mainly Clear"
"1988-12-18 05:00","1988","12","18","05:00","-10.4","","-13.0","","81","","30","","4","","12.9","","99.21","","","","-13","","Mostly Cloudy"
"1988-12-18 06:00","1988","12","18","06:00","-11.4","","-13.8","","82","","31","","6","","12.9","","99.31","","","","-15","","Mainly Clear"
"1988-12-18 07:00","1988","12","18","07:00","-11.6","","-14.2","","81","","29","","13","","11.3","","99.31","","","","-18","","Mainly Clear"
"1988-12-18 08:00","1988","12","18","08:00","-11.5","","-13.8","","83","","31","","11","","16.1","","99.34","","","","-17","","Mostly Cloudy"
"1988-12-18 09:00","1988","12","18","09:00","-11.3","","-13.8","","82","","31","","11","","16.1","","99.37","","","","-17","","Mostly Cloudy"
"1988-12-18 10:00","1988","12","18","10:00","-10.0","","-12.0","","85","","27","","9","","19.3","","99.37","","","","-15","","Mostly Cloudy"
"1988-12-18 11:00","1988","12","18","11:00","-8.2","","-11.6","","76","","27","","13","","24.1","","99.34","","","","-14","","Mostly Cloudy"
"1988-12-18 12:00","1988","12","18","12:00","-7.2","","-11.6","","71","","24","","9","","32.2","","99.24","","","","-12","","Mostly Cloudy"
"1988-12-18 13:00","1988","12","18","13:00","-6.6","","-9.4","","81","","22","","17","","12.9","","99.17","","","","-13","","Snow Showers"
"1988-12-18 14:00","1988","12","18","14:00","-6.7","","-9.0","","84","","25","","17","","12.9","","99.11","","","","-13","","Snow Showers"
"1988-12-18 15:00","1988","12","18","15:00","-7.0","","-11.2","","72","","22","","11","","19.3","","99.04","","","","-12","","Cloudy"
"1988-12-18 16:00","1988","12","18","16:00","-6.8","","-11.6","","68","","18","","6","","19.3","","99.01","","","","-10","","Cloudy"
"1988-12-18 17:00","1988","12","18","17:00","-6.7","","-12.2","","65","","16","","9","","24.1","","99.01","","","","-11","","Cloudy"
"1988-12-18 18:00","1988","12","18","18:00","-6.8","","-9.6","","80","","18","","13","","8.0","","98.97","","","","-12","","Snow"
"1988-12-18 19:00","1988","12","18","19:00","-6.7","","-8.0","","91","","17","","11","","3.2","","98.97","","","","-12","","Snow"
"1988-12-18 20:00","1988","12","18","20:00","-6.1","","-7.4","","91","","19","","19","","4.8","","98.97","","","","-13","","Snow"
"1988-12-18 21:00","1988","12","18","21:00","-6.2","","-7.4","","91","","19","","15","","2.4","","98.94","","","","-12","","Snow"
"1988-12-18 22:00","1988","12","18","22:00","-6.2","","-7.4","","91","","20","","19","","8.0","","98.91","","","","-13","","Snow"
"1988-12-18 23:00","1988","12","18","23:00","-5.7","","-6.8","","92","","20","","19","","9.7","","98.87","","","","-12","","Snow"
"1988-12-19 00:00","1988","12","19","00:00","-5.2","","-6.3","","92","","20","","20","","9.7","","98.81","","","","-12","","Snow"
"1988-12-19 01:00","1988","12","19","01:00","-4.6","","-5.7","","92","","19","","19","","9.7","","98.74","","","","-11","","Snow"
"1988-12-19 02:00","1988","12","19","02:00","-4.0","","-5.1","","92","","19","","17","","9.7","","98.81","","","","-10","","Snow"
"1988-12-19 03:00","1988","12","19","03:00","-3.9","","-5.4","","89","","18","","11","","8.0","","98.87","","","","-8","","Snow"
"1988-12-19 04:00","1988","12","19","04:00","-3.3","","-5.1","","87","","20","","9","","9.7","","98.87","","","","-7","","Snow"
"1988-12-19 05:00","1988","12","19","05:00","-5.0","","-6.6","","88","","22","","6","","12.9","","98.97","","","","-8","","Mostly Cloudy"
"1988-12-19 06:00","1988","12","19","06:00","-6.2","","-7.7","","89","","24","","4","","12.9","","99.04","","","","-8","","Mostly Cloudy"
"1988-12-19 07:00","1988","12","19","07:00","-5.5","","-7.5","","86","","","","0","","12.9","","99.11","","","","","","Mostly Cloudy"
"1988-12-19 08:00","1988","12","19","08:00","-3.8","","-5.1","","90","","25","","7","","9.7","","99.24","","","","-7","","Fog"
"1988-12-19 09:00","1988","12","19","09:00","-2.7","","-5.7","","80","","24","","11","","9.7","","99.31","","","","-7","","Haze"
"1988-12-19 10:00","1988","12","19","10:00","-2.2","","-5.1","","80","","21","","11","","9.7","","99.41","","","","-6","","Haze"
"1988-12-19 11:00","1988","12","19","11:00","-1.6","","-4.8","","79","","19","","11","","11.3","","99.41","","","","-5","","Mostly Cloudy"
"1988-12-19 12:00","1988","12","19","12:00","-0.3","","-5.4","","68","","18","","9","","19.3","","99.31","","","","-3","","Mainly Clear"
"1988-12-19 13:00","1988","12","19","13:00","0.4","","-3.8","","74","","20","","19","","24.1","","99.21","","","","","","Mostly Cloudy"
"1988-12-19 14:00","1988","12","19","14:00","1.0","","-3.6","","71","","18","","17","","24.1","","99.21","","","","","","Mostly Cloudy"
"1988-12-19 15:00","1988","12","19","15:00","1.6","","-2.4","","75","","14","","15","","19.3","","99.11","","","","","","Mainly Clear"
"1988-12-19 16:00","1988","12","19","16:00","1.8","","-1.5","","79","","16","","17","","16.1","","99.11","","","","","","Clear"
"1988-12-19 17:00","1988","12","19","17:00","1.1","","-1.9","","80","","15","","13","","12.9","","99.11","","","","","","Clear"
"1988-12-19 18:00","1988","12","19","18:00","0.8","","-1.5","","85","","13","","19","","12.9","","99.04","","","","","","Clear"
"1988-12-19 19:00","1988","12","19","19:00","1.0","","-2.4","","78","","13","","17","","12.9","","99.04","","","","","","Clear"
"1988-12-19 20:00","1988","12","19","20:00","0.9","","-1.9","","82","","13","","15","","12.9","","99.01","","","","","","Mainly Clear"
"1988-12-19 21:00","1988","12","19","21:00","0.5","","-1.4","","87","","15","","15","","16.1","","99.01","","","","","","Mainly Clear"
"1988-12-19 22:00","1988","12","19","22:00","0.8","","-1.0","","88","","15","","13","","16.1","","98.97","","","","","","Mostly Cloudy"
"1988-12-19 23:00","1988","12","19","23:00","2.0","","-1.5","","78","","15","","11","","16.1","","98.97","","","","","","Cloudy"
"1988-12-20 00:00","1988","12","20","00:00","2.1","","0.0","","86","","17","","7","","16.1","","98.94","","","","","","Cloudy"
"1988-12-20 01:00","1988","12","20","01:00","4.7","","-0.2","","70","","16","","11","","16.1","","98.94","","","","","","Cloudy"
"1988-12-20 02:00","1988","12","20","02:00","5.5","","0.4","","70","","19","","15","","16.1","","98.94","","","","","","Rain Showers"
"1988-12-20 03:00","1988","12","20","03:00","6.2","","1.5","","72","","23","","28","","16.1","","98.97","","","","","","Rain Showers"
"1988-12-20 04:00","1988","12","20","04:00","6.7","","0.6","","65","","20","","17","","16.1","","98.97","","","","","","Cloudy"
"1988-12-20 05:00","1988","12","20","05:00","6.6","","0.1","","63","","20","","19","","19.3","","98.91","","","","","","Cloudy"
"1988-12-20 06:00","1988","12","20","06:00","6.2","","-0.6","","62","","17","","13","","19.3","","98.87","","","","","","Cloudy"
"1988-12-20 07:00","1988","12","20","07:00","6.0","","-0.6","","62","","19","","17","","19.3","","98.87","","","","","","Mostly Cloudy"
"1988-12-20 08:00","1988","12","20","08:00","6.3","","-0.5","","62","","19","","17","","24.1","","98.81","","","","","","Cloudy"
"1988-12-20 09:00","1988","12","20","09:00","7.2","","0.2","","61","","20","","24","","32.2","","98.81","","","","","","Cloudy"
"1988-12-20 10:00","1988","12","20","10:00","8.5","","1.0","","59","","20","","30","","40.2","","98.71","","","","","","Rain Showers"
"1988-12-20 11:00","1988","12","20","11:00","8.9","","1.1","","58","","21","","41","","40.2","","98.64","","","","","","Cloudy"
"1988-12-20 12:00","1988","12","20","12:00","8.5","","3.0","","68","","22","","37","","19.3","","98.54","","","","","","Rain Showers"
"1988-12-20 13:00","1988","12","20","13:00","8.5","","4.0","","73","","23","","39","","16.1","","98.54","","","","","","Rain Showers"
"1988-12-20 14:00","1988","12","20","14:00","9.2","","5.0","","75","","23","","46","","16.1","","98.51","","","","","","Rain Showers"
"1988-12-20 15:00","1988","12","20","15:00","10.5","","4.9","","68","","22","","46","","24.1","","98.41","","","","","","Mostly Cloudy"
"1988-12-20 16:00","1988","12","20","16:00","10.8","","5.5","","70","","23","","48","","16.1","","98.41","","","","","","Mostly Cloudy"
"1988-12-20 17:00","1988","12","20","17:00","11.4","","7.0","","74","","23","","41","","12.9","","98.44","","","","","","Mostly Cloudy"
"1988-12-20 18:00","1988","12","20","18:00","10.8","","7.6","","81","","24","","37","","16.1","","98.54","","","","","","Mostly Cloudy"
"1988-12-20 19:00","1988","12","20","19:00","11.0","","7.2","","78","","23","","39","","16.1","","98.61","","","","","","Mainly Clear"
"1988-12-20 20:00","1988","12","20","20:00","10.2","","6.5","","78","","23","","33","","16.1","","98.64","","","","","","Mainly Clear"
"1988-12-20 21:00","1988","12","20","21:00","9.5","","7.2","","86","","23","","33","","12.9","","98.64","","","","","","Clear"
"1988-12-20 22:00","1988","12","20","22:00","9.4","","6.8","","84","","24","","37","","12.9","","98.67","","","","","","Mostly Cloudy"
"1988-12-20 23:00","1988","12","20","23:00","8.5","","6.6","","88","","24","","30","","12.9","","98.74","","","","","","Mostly Cloudy"
"1988-12-21 00:00","1988","12","21","00:00","8.6","","6.1","","84","","25","","35","","12.9","","98.84","","","","","","Cloudy"
"1988-12-21 01:00","1988","12","21","01:00","7.5","","3.3","","75","","27","","41","","12.9","","98.94","","","","","","Cloudy"
"1988-12-21 02:00","1988","12","21","02:00","6.4","","2.1","","74","","27","","33","","12.9","","99.01","","","","","","Cloudy"
"1988-12-21 03:00","1988","12","21","03:00","5.1","","0.4","","71","","27","","31","","12.9","","99.21","","","","","","Cloudy"
"1988-12-21 04:00","1988","12","21","04:00","3.5","","-0.9","","73","","27","","30","","12.9","","99.31","","","","","","Cloudy"
"1988-12-21 05:00","1988","12","21","05:00","3.5","","-0.3","","76","","27","","22","","12.9","","99.37","","","","","","Cloudy"
"1988-12-21 06:00","1988","12","21","06:00","3.2","","-0.4","","77","","28","","15","","11.3","","99.57","","","","","","Cloudy"
"1988-12-21 07:00","1988","12","21","07:00","2.8","","-0.4","","80","","29","","15","","12.9","","99.67","","","","","","Cloudy"
"1988-12-21 08:00","1988","12","21","08:00","2.2","","-3.4","","66","","28","","28","","24.1","","99.81","","","","","","Cloudy"
"1988-12-21 09:00","1988","12","21","09:00","1.4","","-2.9","","73","","29","","20","","40.2","","99.97","","","","","","Mostly Cloudy"
"1988-12-21 10:00","1988","12","21","10:00","1.7","","-4.1","","65","","28","","28","","40.2","","100.07","","","","","","Mostly Cloudy"
"1988-12-21 11:00","1988","12","21","11:00","2.5","","-3.9","","63","","28","","30","","40.2","","100.14","","","","","","Mostly Cloudy"
"1988-12-21 12:00","1988","12","21","12:00","2.0","","-3.4","","67","","29","","30","","40.2","","100.11","","","","","","Mostly Cloudy"
"1988-12-21 13:00","1988","12","21","13:00","2.2","","-4.0","","63","","29","","30","","40.2","","100.14","","","","","","Mostly Cloudy"
"1988-12-21 14:00","1988","12","21","14:00","1.6","","-3.5","","69","","30","","28","","40.2","","100.21","","","","","","Mostly Cloudy"
"1988-12-21 15:00","1988","12","21","15:00","0.1","","-4.2","","73","","29","","26","","40.2","","100.31","","","","","","Mostly Cloudy"
"1988-12-21 16:00","1988","12","21","16:00","-0.8","","-4.1","","78","","29","","30","","40.2","","100.41","","","","-8","","Mainly Clear"
"1988-12-21 17:00","1988","12","21","17:00","-1.5","","-4.8","","78","","27","","19","","25.0","","100.47","","","","-7","","Mainly Clear"
"1988-12-21 18:00","1988","12","21","18:00","-2.1","","-5.1","","80","","29","","11","","25.0","","100.57","","","","-6","","Mainly Clear"
"1988-12-21 19:00","1988","12","21","19:00","-1.5","","-3.6","","85","","28","","17","","25.0","","100.67","","","","-7","","Mostly Cloudy"
"1988-12-21 20:00","1988","12","21","20:00","-1.5","","-4.8","","78","","32","","22","","24.1","","100.77","","","","-7","","Snow Showers"
"1988-12-21 21:00","1988","12","21","21:00","-2.3","","-4.8","","83","","35","","19","","25.0","","100.91","","","","-8","","Cloudy"
"1988-12-21 22:00","1988","12","21","22:00","-2.9","","-5.7","","81","","33","","17","","25.0","","101.01","","","","-8","","Cloudy"
"1988-12-21 23:00","1988","12","21","23:00","-3.0","","-6.0","","80","","33","","20","","25.0","","101.07","","","","-9","","Mostly Cloudy"
"1988-12-22 00:00","1988","12","22","00:00","-3.7","","-7.3","","76","","31","","9","","25.0","","101.14","","","","-7","","Mostly Cloudy"
"1988-12-22 01:00","1988","12","22","01:00","-5.5","","-9.6","","73","","32","","11","","25.0","","101.17","","","","-10","","Mainly Clear"
"1988-12-22 02:00","1988","12","22","02:00","-6.0","","-9.1","","79","","33","","13","","25.0","","101.21","","","","-11","","Mainly Clear"
"1988-12-22 03:00","1988","12","22","03:00","-5.7","","-8.5","","81","","1","","15","","25.0","","101.31","","","","-11","","Mainly Clear"
"1988-12-22 04:00","1988","12","22","04:00","-6.2","","-9.9","","75","","1","","15","","25.0","","101.37","","","","-12","","Mainly Clear"
"1988-12-22 05:00","1988","12","22","05:00","-7.0","","-10.4","","77","","36","","11","","25.0","","101.41","","","","-12","","Clear"
"1988-12-22 06:00","1988","12","22","06:00","-7.7","","-10.6","","80","","35","","7","","25.0","","101.47","","","","-11","","Clear"
"1988-12-22 07:00","1988","12","22","07:00","-7.7","","-11.0","","77","","1","","19","","25.0","","101.51","","","","-15","","Mainly Clear"
"1988-12-22 08:00","1988","12","22","08:00","-8.1","","-12.1","","73","","3","","11","","40.2","","101.51","","","","-13","","Mainly Clear"
"1988-12-22 09:00","1988","12","22","09:00","-7.5","","-13.1","","64","","5","","9","","40.2","","101.61","","","","-12","","Mainly Clear"
"1988-12-22 10:00","1988","12","22","10:00","-6.2","","-11.5","","66","","10","","7","","40.2","","101.67","","","","-10","","Mostly Cloudy"
"1988-12-22 11:00","1988","12","22","11:00","-4.7","","-9.0","","72","","8","","11","","32.2","","101.61","","","","-9","","Cloudy"
"1988-12-22 12:00","1988","12","22","12:00","-4.0","","-7.3","","78","","8","","17","","32.2","","101.51","","","","-10","","Mostly Cloudy"
"1988-12-22 13:00","1988","12","22","13:00","-3.5","","-6.7","","78","","12","","24","","32.2","","101.41","","","","-10","","Snow Showers"
"1988-12-22 14:00","1988","12","22","14:00","-3.6","","-6.7","","79","","11","","24","","32.2","","101.31","","","","-10","","Snow Showers"
"1988-12-22 15:00","1988","12","22","15:00","-3.5","","-6.3","","81","","9","","26","","40.2","","101.17","","","","-11","","Mostly Cloudy"
"1988-12-22 16:00","1988","12","22","16:00","-2.9","","-6.4","","77","","9","","24","","40.2","","101.21","","","","-10","","Mostly Cloudy"
"1988-12-22 17:00","1988","12","22","17:00","-3.0","","-6.4","","77","","11","","24","","25.0","","101.17","","","","-10","","Cloudy"
"1988-12-22 18:00","1988","12","22","18:00","-3.1","","-6.0","","80","","10","","20","","25.0","","101.01","","","","-9","","Mostly Cloudy"
"1988-12-22 19:00","1988","12","22","19:00","-2.6","","-6.7","","73","","11","","31","","25.0","","100.94","","","","-10","","Cloudy"
"1988-12-22 20:00","1988","12","22","20:00","-2.1","","-5.1","","80","","11","","39","","25.0","","100.77","","","","-10","","Cloudy"
"1988-12-22 21:00","1988","12","22","21:00","-1.3","","-7.0","","65","","11","","35","","25.0","","100.57","","","","-9","","Cloudy"
"1988-12-22 22:00","1988","12","22","22:00","-1.0","","-7.0","","64","","11","","37","","25.0","","100.44","","","","-8","","Cloudy"
"1988-12-22 23:00","1988","12","22","23:00","-0.7","","-6.3","","66","","11","","33","","25.0","","100.27","","","","-8","","Cloudy"
"1988-12-23 00:00","1988","12","23","00:00","-0.2","","-3.7","","77","","11","","28","","24.1","","100.17","","","","-7","","Cloudy"
"1988-12-23 01:00","1988","12","23","01:00","-0.2","","-2.3","","86","","11","","31","","9.7","","99.91","","","","-7","","Fog"
"1988-12-23 02:00","1988","12","23","02:00","-0.8","","-3.6","","81","","8","","28","","16.1","","99.47","","","","-7","","Cloudy"
"1988-12-23 03:00","1988","12","23","03:00","0.0","","-2.3","","85","","11","","28","","24.1","","99.47","","","","-6","","Cloudy"
"1988-12-23 04:00","1988","12","23","04:00","0.2","","-1.3","","90","","11","","28","","8.0","","99.17","","","","","","Freezing Rain,Fog"
"1988-12-23 05:00","1988","12","23","05:00","0.5","","-0.9","","90","","12","","33","","8.0","","98.71","","","","","","Rain,Fog"
"1988-12-23 06:00","1988","12","23","06:00","1.3","","0.0","","91","","13","","28","","8.0","","98.64","","","","","","Rain,Fog"
"1988-12-23 07:00","1988","12","23","07:00","1.3","","0.5","","95","","13","","22","","2.4","","98.61","","","","","","Rain,Fog"
"1988-12-23 08:00","1988","12","23","08:00","1.6","","1.5","","99","","17","","13","","2.0","","98.71","","","","","","Rain,Fog"
"1988-12-23 09:00","1988","12","23","09:00","3.0","","3.0","","100","","17","","17","","3.2","","98.61","","","","","","Fog"
"1988-12-23 10:00","1988","12","23","10:00","6.9","","3.6","","80","","22","","37","","32.2","","98.67","","","","","","Clear"
"1988-12-23 11:00","1988","12","23","11:00","7.7","","0.8","","61","","23","","46","","40.2","","98.71","","","","","","Clear"
"1988-12-23 12:00","1988","12","23","12:00","7.6","","0.8","","62","","25","","52","","40.2","","98.74","","","","","","Mainly Clear"
"1988-12-23 13:00","1988","12","23","13:00","7.9","","0.4","","59","","25","","44","","40.2","","98.74","","","","","","Mainly Clear"
"1988-12-23 14:00","1988","12","23","14:00","7.6","","0.3","","60","","26","","41","","40.2","","98.81","","","","","","Mainly Clear"
"1988-12-23 15:00","1988","12","23","15:00","7.8","","0.9","","62","","26","","44","","40.2","","98.91","","","","","","Mainly Clear"
"1988-12-23 16:00","1988","12","23","16:00","7.0","","0.7","","64","","26","","31","","40.2","","99.01","","","","","","Clear"
"1988-12-23 17:00","1988","12","23","17:00","5.8","","0.5","","69","","22","","13","","25.0","","99.14","","","","","","Clear"
"1988-12-23 18:00","1988","12","23","18:00","5.5","","0.4","","70","","17","","7","","25.0","","99.21","","","","","","Clear"
"1988-12-23 19:00","1988","12","23","19:00","4.0","","0.3","","77","","23","","19","","25.0","","99.31","","","","","","Clear"
"1988-12-23 20:00","1988","12","23","20:00","3.9","","0.8","","80","","25","","24","","25.0","","99.34","","","","","","Mainly Clear"
"1988-12-23 21:00","1988","12","23","21:00","3.9","","0.3","","77","","26","","24","","25.0","","99.34","","","","","","Mainly Clear"
"1988-12-23 22:00","1988","12","23","22:00","4.1","","0.3","","76","","22","","11","","25.0","","99.44","","","","","","Mostly Cloudy"
"1988-12-23 23:00","1988","12","23","23:00","3.7","","-0.3","","75","","","","0","","25.0","","99.47","","","","","","Mostly Cloudy"
"1988-12-24 00:00","1988","12","24","00:00","3.3","","-0.3","","77","","18","","11","","25.0","","99.54","","","","","","Mainly Clear"
"1988-12-24 01:00","1988","12","24","01:00","1.8","","-1.0","","82","","17","","7","","25.0","","99.54","","","","","","Mainly Clear"
"1988-12-24 02:00","1988","12","24","02:00","1.5","","-1.0","","83","","20","","15","","25.0","","99.54","","","","","","Mainly Clear"
"1988-12-24 03:00","1988","12","24","03:00","1.2","","-1.0","","85","","20","","6","","25.0","","99.57","","","","","","Mainly Clear"
"1988-12-24 04:00","1988","12","24","04:00","-0.8","","-3.0","","85","","","","0","","25.0","","99.47","","","","","","Mostly Cloudy"
"1988-12-24 05:00","1988","12","24","05:00","0.1","","-1.9","","86","","21","","7","","25.0","","99.37","","","","","","Mostly Cloudy"
"1988-12-24 06:00","1988","12","24","06:00","-0.5","","-2.7","","85","","18","","4","","25.0","","99.37","","","","-2","","Mostly Cloudy"
"1988-12-24 07:00","1988","12","24","07:00","-0.6","","-2.1","","90","","","","0","","25.0","","99.31","","","","","","Mostly Cloudy"
"1988-12-24 08:00","1988","12","24","08:00","-0.2","","-0.7","","96","","","","0","","24.1","","99.24","","","","","","Cloudy"
"1988-12-24 09:00","1988","12","24","09:00","0.7","","-1.4","","86","","12","","9","","24.1","","99.14","","","","","","Mostly Cloudy"
"1988-12-24 10:00","1988","12","24","10:00","1.0","","-0.5","","90","","13","","11","","19.3","","99.01","","","","","","Cloudy"
"1988-12-24 11:00","1988","12","24","11:00","1.6","","0.0","","89","","13","","7","","24.1","","98.84","","","","","","Mostly Cloudy"
"1988-12-24 12:00","1988","12","24","12:00","3.0","","-0.9","","76","","9","","11","","24.1","","98.47","","","","","","Mostly Cloudy"
"1988-12-24 13:00","1988","12","24","13:00","2.3","","0.1","","86","","36","","11","","24.1","","98.37","","","","","","Rain"
"1988-12-24 14:00","1988","12","24","14:00","0.8","","0.5","","98","","36","","22","","3.2","","98.24","","","","","","Rain,Ice Pellets,Fog"
"1988-12-24 15:00","1988","12","24","15:00","0.4","","0.4","","100","","36","","26","","2.0","","98.14","","","","","","Rain,Snow,Ice Pellets"
"1988-12-24 16:00","1988","12","24","16:00","0.2","","0.0","","98","","33","","24","","1.6","","98.21","","","","","","Snow"
"1988-12-24 17:00","1988","12","24","17:00","0.4","","0.2","","99","","36","","28","","3.2","","98.17","","","","","","Snow"
"1988-12-24 18:00","1988","12","24","18:00","0.5","","-0.5","","93","","33","","19","","11.3","","98.31","","","","","","Mostly Cloudy"
"1988-12-24 19:00","1988","12","24","19:00","0.5","","0.0","","96","","29","","11","","19.3","","98.51","","","","","","Snow"
"1988-12-24 20:00","1988","12","24","20:00","0.6","","-0.5","","92","","27","","11","","16.1","","98.61","","","","","","Cloudy"
"1988-12-24 21:00","1988","12","24","21:00","0.6","","-0.9","","90","","26","","11","","24.1","","98.71","","","","","","Mostly Cloudy"
"1988-12-24 22:00","1988","12","24","22:00","0.4","","-1.3","","89","","26","","17","","19.3","","98.71","","","","","","Mostly Cloudy"
"1988-12-24 23:00","1988","12","24","23:00","-1.1","","-2.2","","92","","24","","13","","16.1","","98.77","","","","-5","","Clear"
"1988-12-25 00:00","1988","12","25","00:00","-1.2","","-1.9","","95","","26","","20","","4.0","","98.81","","","","-7","","Fog"
"1988-12-25 01:00","1988","12","25","01:00","-0.4","","-1.0","","96","","25","","15","","12.9","","98.84","","","","-5","","Mostly Cloudy"
"1988-12-25 02:00","1988","12","25","02:00","-0.4","","-1.0","","96","","25","","11","","8.0","","98.87","","","","-4","","Fog"
"1988-12-25 03:00","1988","12","25","03:00","-0.1","","-1.1","","93","","24","","13","","8.0","","98.91","","","","-4","","Fog"
"1988-12-25 04:00","1988","12","25","04:00","-0.5","","-2.1","","89","","24","","13","","8.0","","98.91","","","","-5","","Fog"
"1988-12-25 05:00","1988","12","25","05:00","0.2","","-1.7","","87","","22","","13","","8.0","","98.94","","","","","","Fog"
"1988-12-25 06:00","1988","12","25","06:00","0.6","","-0.9","","90","","23","","13","","6.4","","99.01","","","","","","Snow Showers"
"1988-12-25 07:00","1988","12","25","07:00","1.1","","-1.9","","80","","27","","28","","16.1","","99.11","","","","","","Cloudy"
"1988-12-25 08:00","1988","12","25","08:00","0.4","","-4.0","","72","","26","","41","","19.3","","99.24","","","","","","Cloudy"
"1988-12-25 09:00","1988","12","25","09:00","-0.7","","-4.1","","78","","26","","31","","19.3","","99.31","","","","-7","","Snow"
"1988-12-25 10:00","1988","12","25","10:00","-1.0","","-4.1","","79","","26","","35","","19.3","","99.41","","","","-8","","Snow"
"1988-12-25 11:00","1988","12","25","11:00","-1.3","","-4.8","","77","","27","","24","","19.3","","99.51","","","","-7","","Snow"
"1988-12-25 12:00","1988","12","25","12:00","-1.4","","-5.7","","72","","28","","33","","24.1","","99.54","","","","-9","","Mostly Cloudy"
"1988-12-25 13:00","1988","12","25","13:00","-1.7","","-5.4","","76","","27","","43","","24.1","","99.57","","","","-10","","Mostly Cloudy"
"1988-12-25 14:00","1988","12","25","14:00","-3.2","","-4.2","","93","","28","","28","","9.7","","99.67","","","","-10","","Snow Showers"
"1988-12-25 15:00","1988","12","25","15:00","-3.6","","-8.8","","67","","28","","39","","24.1","","99.81","","","","-12","","Mainly Clear"
"1988-12-25 16:00","1988","12","25","16:00","-4.0","","-7.3","","78","","29","","31","","32.2","","99.97","","","","-12","","Snow Showers"
"1988-12-25 17:00","1988","12","25","17:00","-4.9","","-8.2","","77","","27","","26","","25.0","","100.07","","","","-12","","Mainly Clear"
"1988-12-25 18:00","1988","12","25","18:00","-4.9","","-7.9","","79","","26","","20","","24.1","","100.14","","","","-11","","Snow Showers"
"1988-12-25 19:00","1988","12","25","19:00","-5.1","","-7.9","","81","","26","","24","","24.1","","100.21","","","","-12","","Snow Showers"
"1988-12-25 20:00","1988","12","25","20:00","-4.9","","-7.5","","82","","25","","26","","24.1","","100.31","","","","-12","","Snow Showers"
"1988-12-25 21:00","1988","12","25","21:00","-4.3","","-7.9","","76","","25","","26","","25.0","","100.34","","","","-12","","Snow Showers"
"1988-12-25 22:00","1988","12","25","22:00","-4.0","","-8.0","","74","","26","","24","","25.0","","100.37","","","","-11","","Mostly Cloudy"
"1988-12-25 23:00","1988","12","25","23:00","-4.0","","-7.6","","76","","26","","28","","25.0","","100.37","","","","-11","","Mostly Cloudy"
"1988-12-26 00:00","1988","12","26","00:00","-4.3","","-8.3","","74","","26","","22","","25.0","","100.41","","","","-11","","Mostly Cloudy"
"1988-12-26 01:00","1988","12","26","01:00","-4.8","","-8.9","","73","","27","","26","","25.0","","100.41","","","","-12","","Mainly Clear"
"1988-12-26 02:00","1988","12","26","02:00","-4.9","","-8.9","","73","","27","","28","","25.0","","100.51","","","","-13","","Mainly Clear"
"1988-12-26 03:00","1988","12","26","03:00","-4.9","","-8.9","","73","","27","","26","","25.0","","100.57","","","","-12","","Mainly Clear"
"1988-12-26 04:00","1988","12","26","04:00","-5.7","","-9.6","","74","","26","","22","","25.0","","100.64","","","","-13","","Clear"
"1988-12-26 05:00","1988","12","26","05:00","-5.7","","-9.6","","74","","27","","28","","25.0","","100.67","","","","-14","","Clear"
"1988-12-26 06:00","1988","12","26","06:00","-5.6","","-8.9","","78","","27","","22","","25.0","","100.74","","","","-13","","Clear"
"1988-12-26 07:00","1988","12","26","07:00","-5.6","","-9.6","","73","","27","","19","","25.0","","100.84","","","","-12","","Mainly Clear"
"1988-12-26 08:00","1988","12","26","08:00","-5.5","","-8.2","","81","","27","","19","","40.2","","100.87","","","","-12","","Mostly Cloudy"
"1988-12-26 09:00","1988","12","26","09:00","-5.7","","-7.8","","85","","26","","19","","40.2","","100.97","","","","-12","","Snow Showers"
"1988-12-26 10:00","1988","12","26","10:00","-4.0","","-6.3","","84","","27","","20","","40.2","","101.07","","","","-10","","Snow Showers"
"1988-12-26 11:00","1988","12","26","11:00","-3.0","","-5.4","","83","","27","","15","","40.2","","101.11","","","","-8","","Mostly Cloudy"
"1988-12-26 12:00","1988","12","26","12:00","-2.9","","-7.0","","73","","29","","15","","40.2","","101.14","","","","-8","","Mostly Cloudy"
"1988-12-26 13:00","1988","12","26","13:00","-2.4","","-9.6","","57","","29","","20","","40.2","","101.17","","","","-8","","Mostly Cloudy"
"1988-12-26 14:00","1988","12","26","14:00","-2.7","","-8.1","","66","","30","","20","","40.2","","101.21","","","","-9","","Mostly Cloudy"
"1988-12-26 15:00","1988","12","26","15:00","-2.7","","-7.0","","72","","32","","13","","40.2","","101.21","","","","-7","","Mainly Clear"
"1988-12-26 16:00","1988","12","26","16:00","-4.5","","-8.7","","72","","33","","9","","40.2","","101.27","","","","-8","","Mostly Cloudy"
"1988-12-26 17:00","1988","12","26","17:00","-5.9","","-9.1","","78","","34","","7","","25.0","","101.27","","","","-9","","Mostly Cloudy"
"1988-12-26 18:00","1988","12","26","18:00","-6.2","","-8.4","","85","","36","","9","","25.0","","101.34","","","","-10","","Mostly Cloudy"
"1988-12-26 19:00","1988","12","26","19:00","-6.0","","-8.4","","83","","2","","9","","25.0","","101.34","","","","-10","","Cloudy"
"1988-12-26 20:00","1988","12","26","20:00","-5.8","","-8.8","","79","","3","","7","","25.0","","101.31","","","","-9","","Cloudy"
"1988-12-26 21:00","1988","12","26","21:00","-6.0","","-8.8","","81","","6","","7","","25.0","","101.24","","","","-9","","Cloudy"
"1988-12-26 22:00","1988","12","26","22:00","-5.6","","-8.2","","82","","6","","7","","25.0","","101.21","","","","-9","","Cloudy"
"1988-12-26 23:00","1988","12","26","23:00","-4.7","","-7.3","","82","","7","","9","","25.0","","101.14","","","","-9","","Cloudy"
"1988-12-27 00:00","1988","12","27","00:00","-4.2","","-7.3","","79","","8","","11","","25.0","","101.04","","","","-9","","Cloudy"
"1988-12-27 01:00","1988","12","27","01:00","-3.9","","-6.0","","85","","7","","11","","24.1","","100.97","","","","-8","","Cloudy"
"1988-12-27 02:00","1988","12","27","02:00","-2.6","","-4.5","","87","","12","","28","","24.1","","100.91","","","","-10","","Cloudy"
"1988-12-27 03:00","1988","12","27","03:00","-2.3","","-5.4","","79","","13","","19","","24.1","","100.81","","","","-8","","Cloudy"
"1988-12-27 04:00","1988","12","27","04:00","-2.3","","-5.4","","79","","12","","28","","12.9","","100.67","","","","-9","","Snow"
"1988-12-27 05:00","1988","12","27","05:00","-2.7","","-4.2","","89","","13","","28","","2.4","","100.54","","","","-10","","Snow"
"1988-12-27 06:00","1988","12","27","06:00","-2.9","","-4.2","","90","","13","","22","","1.6","","100.41","","","","-9","","Snow"
"1988-12-27 07:00","1988","12","27","07:00","-2.7","","-3.4","","95","","12","","28","","1.6","","100.17","","","","-10","","Snow"
"1988-12-27 08:00","1988","12","27","08:00","-2.2","","-2.5","","98","","11","","37","","8.0","","99.97","","","","-10","","Snow"
"1988-12-27 09:00","1988","12","27","09:00","-1.4","","-2.2","","94","","11","","19","","8.0","","100.01","","","","-7","","Snow,Ice Pellets"
"1988-12-27 10:00","1988","12","27","10:00","-1.1","","-1.4","","98","","11","","26","","1.6","","99.94","","","","-7","","Snow"
"1988-12-27 11:00","1988","12","27","11:00","-0.4","","-1.0","","96","","13","","31","","6.4","","99.57","","","","-7","","Rain,Fog"
"1988-12-27 12:00","1988","12","27","12:00","0.1","","-0.1","","98","","15","","20","","6.4","","99.37","","","","","","Rain,Fog"
"1988-12-27 13:00","1988","12","27","13:00","0.1","","-0.1","","98","","16","","13","","4.8","","99.21","","","","","","Rain,Fog"
"1988-12-27 14:00","1988","12","27","14:00","0.7","","0.0","","95","","17","","11","","4.8","","99.11","","","","","","Rain,Fog"
"1988-12-27 15:00","1988","12","27","15:00","2.0","","1.1","","94","","20","","17","","9.7","","98.97","","","","","","Rain Showers,Fog"
"1988-12-27 16:00","1988","12","27","16:00","2.9","","1.6","","91","","21","","24","","12.9","","98.91","","","","","","Rain"
"1988-12-27 17:00","1988","12","27","17:00","3.0","","2.1","","94","","22","","28","","9.7","","98.84","","","","","","Rain,Fog"
"1988-12-27 18:00","1988","12","27","18:00","4.1","","2.2","","87","","24","","37","","11.3","","98.87","","","","","","Rain"
"1988-12-27 19:00","1988","12","27","19:00","3.8","","2.7","","93","","24","","30","","11.3","","98.87","","","","","","Rain"
"1988-12-27 20:00","1988","12","27","20:00","3.7","","2.6","","92","","24","","22","","19.3","","98.84","","","","","","Rain"
"1988-12-27 21:00","1988","12","27","21:00","3.3","","2.6","","95","","25","","17","","16.1","","98.71","","","","","","Rain"
"1988-12-27 22:00","1988","12","27","22:00","3.4","","3.1","","98","","20","","22","","8.0","","98.64","","","","","","Rain,Fog"
"1988-12-27 23:00","1988","12","27","23:00","3.4","","3.1","","98","","23","","20","","8.0","","98.57","","","","","","Rain,Fog"
"1988-12-28 00:00","1988","12","28","00:00","3.3","","3.1","","99","","25","","17","","6.4","","98.61","","","","","","Rain,Fog"
"1988-12-28 01:00","1988","12","28","01:00","3.6","","2.6","","93","","26","","19","","9.7","","98.61","","","","","","Rain,Fog"
"1988-12-28 02:00","1988","12","28","02:00","2.8","","1.6","","92","","26","","15","","16.1","","98.61","","","","","","Rain"
"1988-12-28 03:00","1988","12","28","03:00","2.5","","0.6","","87","","26","","19","","24.1","","98.67","","","","","","Cloudy"
"1988-12-28 04:00","1988","12","28","04:00","2.0","","-1.0","","80","","27","","20","","25.0","","98.64","","","","","","Cloudy"
"1988-12-28 05:00","1988","12","28","05:00","1.5","","-1.0","","83","","27","","19","","25.0","","98.61","","","","","","Cloudy"
"1988-12-28 06:00","1988","12","28","06:00","1.5","","-2.1","","77","","28","","19","","25.0","","98.64","","","","","","Cloudy"
"1988-12-28 07:00","1988","12","28","07:00","1.2","","-3.6","","70","","27","","15","","25.0","","98.61","","","","","","Cloudy"
"1988-12-28 08:00","1988","12","28","08:00","0.7","","-3.1","","75","","29","","17","","24.1","","98.47","","","","","","Cloudy"
"1988-12-28 09:00","1988","12","28","09:00","0.1","","-3.6","","76","","27","","19","","32.2","","98.51","","","","","","Cloudy"
"1988-12-28 10:00","1988","12","28","10:00","-0.1","","-3.3","","79","","29","","35","","32.2","","98.67","","","","-7","","Cloudy"
"1988-12-28 11:00","1988","12","28","11:00","-0.7","","-3.8","","80","","30","","28","","32.2","","98.54","","","","-7","","Cloudy"
"1988-12-28 12:00","1988","12","28","12:00","-1.0","","-4.7","","76","","29","","33","","32.2","","98.64","","","","-8","","Cloudy"
"1988-12-28 13:00","1988","12","28","13:00","-1.7","","-6.0","","72","","31","","26","","32.2","","98.54","","","","-8","","Cloudy"
"1988-12-28 14:00","1988","12","28","14:00","-1.3","","-5.7","","72","","29","","31","","32.2","","98.67","","","","-8","","Mostly Cloudy"
"1988-12-28 15:00","1988","12","28","15:00","-1.3","","-5.7","","72","","28","","31","","32.2","","98.84","","","","-8","","Mostly Cloudy"
"1988-12-28 16:00","1988","12","28","16:00","-1.4","","-3.3","","87","","26","","30","","12.9","","99.07","","","","-8","","Snow Showers"
"1988-12-28 17:00","1988","12","28","17:00","-2.0","","-4.5","","83","","27","","31","","6.4","","99.27","","","","-9","","Snow Showers"
"1988-12-28 18:00","1988","12","28","18:00","-2.6","","-5.7","","79","","28","","26","","24.1","","99.44","","","","-9","","Mainly Clear"
"1988-12-28 19:00","1988","12","28","19:00","-2.6","","-5.7","","79","","28","","30","","16.1","","99.54","","","","-10","","Snow Showers"
"1988-12-28 20:00","1988","12","28","20:00","-2.5","","-5.1","","82","","26","","22","","16.1","","99.64","","","","-9","","Snow Showers"
"1988-12-28 21:00","1988","12","28","21:00","-2.8","","-5.7","","80","","26","","24","","19.3","","99.74","","","","-9","","Snow Showers"
"1988-12-28 22:00","1988","12","28","22:00","-2.8","","-5.1","","84","","26","","20","","19.3","","99.91","","","","-9","","Snow Showers"
"1988-12-28 23:00","1988","12","28","23:00","-3.4","","-4.5","","92","","27","","20","","4.0","","99.97","","","","-10","","Snow Showers"
"1988-12-29 00:00","1988","12","29","00:00","-3.7","","-5.7","","86","","26","","22","","8.0","","99.97","","","","-10","","Snow Showers"
"1988-12-29 01:00","1988","12","29","01:00","-3.7","","-6.7","","80","","27","","22","","25.0","","100.07","","","","-10","","Cloudy"
"1988-12-29 02:00","1988","12","29","02:00","-3.7","","-8.0","","72","","26","","26","","25.0","","100.11","","","","-11","","Cloudy"
"1988-12-29 03:00","1988","12","29","03:00","-4.1","","-8.0","","74","","26","","28","","25.0","","100.21","","","","-12","","Mostly Cloudy"
"1988-12-29 04:00","1988","12","29","04:00","-4.9","","-7.9","","79","","26","","30","","25.0","","100.27","","","","-13","","Mostly Cloudy"
"1988-12-29 05:00","1988","12","29","05:00","-5.3","","-9.2","","74","","26","","24","","25.0","","100.31","","","","-13","","Mostly Cloudy"
"1988-12-29 06:00","1988","12","29","06:00","-5.2","","-8.2","","79","","26","","20","","25.0","","100.37","","","","-12","","Snow Showers"
"1988-12-29 07:00","1988","12","29","07:00","-5.4","","-8.9","","76","","26","","28","","25.0","","100.41","","","","-13","","Mainly Clear"
"1988-12-29 08:00","1988","12","29","08:00","-5.4","","-8.5","","79","","26","","20","","40.2","","100.37","","","","-12","","Mainly Clear"
"1988-12-29 09:00","1988","12","29","09:00","-4.7","","-8.3","","76","","24","","26","","40.2","","100.41","","","","-12","","Mainly Clear"
"1988-12-29 10:00","1988","12","29","10:00","-4.6","","-8.7","","73","","24","","28","","40.2","","100.51","","","","-12","","Mostly Cloudy"
"1988-12-29 11:00","1988","12","29","11:00","-3.3","","-9.1","","64","","23","","20","","40.2","","100.47","","","","-9","","Mostly Cloudy"
"1988-12-29 12:00","1988","12","29","12:00","-2.8","","-8.8","","63","","25","","24","","40.2","","100.37","","","","-9","","Mostly Cloudy"
"1988-12-29 13:00","1988","12","29","13:00","-3.9","","-8.0","","73","","24","","20","","32.2","","100.34","","","","-10","","Snow Showers"
"1988-12-29 14:00","1988","12","29","14:00","-2.0","","-9.3","","57","","25","","20","","40.2","","100.31","","","","-8","","Mostly Cloudy"
"1988-12-29 15:00","1988","12","29","15:00","-3.9","","-8.0","","73","","26","","19","","40.2","","100.31","","","","-10","","Mostly Cloudy"
"1988-12-29 16:00","1988","12","29","16:00","-4.9","","-9.3","","71","","25","","20","","24.1","","100.31","","","","-11","","Mostly Cloudy"
"1988-12-29 17:00","1988","12","29","17:00","-5.2","","-9.3","","73","","27","","15","","25.0","","100.31","","","","-11","","Mostly Cloudy"
"1988-12-29 18:00","1988","12","29","18:00","-5.6","","-10.4","","69","","28","","11","","25.0","","100.31","","","","-10","","Mostly Cloudy"
"1988-12-29 19:00","1988","12","29","19:00","-5.9","","-10.6","","69","","25","","11","","25.0","","100.31","","","","-11","","Cloudy"
"1988-12-29 20:00","1988","12","29","20:00","-6.0","","-9.9","","74","","26","","9","","19.3","","100.31","","","","-10","","Snow Showers"
"1988-12-29 21:00","1988","12","29","21:00","-6.2","","-8.4","","85","","27","","11","","11.3","","100.31","","","","-11","","Mostly Cloudy"
"1988-12-29 22:00","1988","12","29","22:00","-6.4","","-9.0","","82","","26","","13","","8.0","","100.27","","","","-12","","Snow Showers"
"1988-12-29 23:00","1988","12","29","23:00","-6.7","","-8.3","","89","","26","","9","","8.0","","100.27","","","","-11","","Snow Showers"
"1988-12-30 00:00","1988","12","30","00:00","-6.8","","-8.9","","85","","24","","7","","11.3","","100.24","","","","-10","","Snow Showers"
"1988-12-30 01:00","1988","12","30","01:00","-6.5","","-9.0","","82","","23","","9","","24.1","","100.27","","","","-11","","Mostly Cloudy"
"1988-12-30 02:00","1988","12","30","02:00","-6.2","","-8.8","","82","","21","","7","","16.1","","100.24","","","","-10","","Cloudy"
"1988-12-30 03:00","1988","12","30","03:00","-6.5","","-9.7","","78","","21","","13","","17.7","","100.24","","","","-12","","Cloudy"
"1988-12-30 04:00","1988","12","30","04:00","-6.9","","-10.0","","78","","21","","11","","19.3","","100.21","","","","-12","","Cloudy"
"1988-12-30 05:00","1988","12","30","05:00","-7.0","","-9.6","","82","","22","","11","","17.7","","100.17","","","","-12","","Mostly Cloudy"
"1988-12-30 06:00","1988","12","30","06:00","-8.2","","-10.1","","86","","22","","11","","16.1","","100.11","","","","-13","","Clear"
"1988-12-30 07:00","1988","12","30","07:00","-8.9","","-10.5","","88","","22","","9","","16.1","","100.11","","","","-14","","Clear"
"1988-12-30 08:00","1988","12","30","08:00","-8.3","","-10.7","","82","","21","","7","","12.9","","100.07","","","","-12","","Mostly Cloudy"
"1988-12-30 09:00","1988","12","30","09:00","-6.9","","-9.6","","81","","23","","9","","19.3","","100.01","","","","-11","","Mostly Cloudy"
"1988-12-30 10:00","1988","12","30","10:00","-5.3","","-8.5","","78","","21","","11","","16.1","","100.01","","","","-10","","Mainly Clear"
"1988-12-30 11:00","1988","12","30","11:00","-3.8","","-7.6","","75","","21","","28","","19.3","","99.91","","","","-11","","Mostly Cloudy"
"1988-12-30 12:00","1988","12","30","12:00","-2.9","","-6.7","","75","","20","","24","","16.1","","99.77","","","","-10","","Mainly Clear"
"1988-12-30 13:00","1988","12","30","13:00","-2.5","","-7.0","","71","","21","","19","","19.3","","99.61","","","","-8","","Clear"
"1988-12-30 14:00","1988","12","30","14:00","-1.2","","-6.3","","68","","21","","22","","24.1","","99.47","","","","-7","","Clear"
"1988-12-30 15:00","1988","12","30","15:00","-0.8","","-6.7","","64","","21","","24","","40.2","","99.44","","","","-7","","Clear"
"1988-12-30 16:00","1988","12","30","16:00","-1.0","","-6.0","","69","","22","","22","","40.2","","99.31","","","","-7","","Clear"
"1988-12-30 17:00","1988","12","30","17:00","-2.0","","-6.7","","70","","19","","17","","25.0","","99.24","","","","-7","","Clear"
"1988-12-30 18:00","1988","12","30","18:00","-2.5","","-6.7","","73","","19","","17","","25.0","","99.21","","","","-8","","Clear"
"1988-12-30 19:00","1988","12","30","19:00","-2.6","","-5.7","","79","","20","","17","","24.1","","99.14","","","","-8","","Mainly Clear"
"1988-12-30 20:00","1988","12","30","20:00","-2.6","","-5.4","","81","","22","","11","","25.0","","99.17","","","","-7","","Cloudy"
"1988-12-30 21:00","1988","12","30","21:00","-2.4","","-5.7","","78","","22","","15","","25.0","","99.14","","","","-7","","Cloudy"
"1988-12-30 22:00","1988","12","30","22:00","-2.1","","-5.4","","78","","25","","20","","24.1","","99.07","","","","-8","","Cloudy"
"1988-12-30 23:00","1988","12","30","23:00","-2.3","","-5.4","","79","","26","","15","","16.1","","99.11","","","","-7","","Mostly Cloudy"
"1988-12-31 00:00","1988","12","31","00:00","-3.2","","-5.1","","87","","27","","11","","19.3","","99.14","","","","-7","","Mainly Clear"
"1988-12-31 01:00","1988","12","31","01:00","-3.0","","-5.4","","83","","28","","20","","16.1","","99.14","","","","-9","","Mainly Clear"
"1988-12-31 02:00","1988","12","31","02:00","-2.5","","-4.8","","84","","26","","19","","11.3","","99.14","","","","-8","","Mostly Cloudy"
"1988-12-31 03:00","1988","12","31","03:00","-2.0","","-4.2","","85","","26","","15","","9.7","","99.24","","","","-7","","Fog"
"1988-12-31 04:00","1988","12","31","04:00","-1.2","","-3.3","","86","","28","","15","","11.3","","99.24","","","","-6","","Cloudy"
"1988-12-31 05:00","1988","12","31","05:00","-0.6","","-3.5","","81","","29","","28","","12.9","","99.31","","","","-7","","Cloudy"
"1988-12-31 06:00","1988","12","31","06:00","-0.8","","-4.4","","76","","30","","24","","16.1","","99.41","","","","-7","","Cloudy"
"1988-12-31 07:00","1988","12","31","07:00","-0.8","","-4.4","","76","","30","","26","","16.1","","99.51","","","","-7","","Cloudy"
"1988-12-31 08:00","1988","12","31","08:00","-0.9","","-5.4","","71","","30","","31","","32.2","","99.64","","","","-8","","Cloudy"
"1988-12-31 09:00","1988","12","31","09:00","-1.0","","-5.4","","72","","27","","22","","32.2","","99.71","","","","-7","","Mostly Cloudy"
"1988-12-31 10:00","1988","12","31","10:00","-0.2","","-5.2","","69","","28","","26","","40.2","","99.77","","","","-6","","Mainly Clear"
"1988-12-31 11:00","1988","12","31","11:00","0.3","","-4.5","","70","","29","","22","","32.2","","99.87","","","","","","Clear"
"1988-12-31 12:00","1988","12","31","12:00","0.4","","-4.4","","70","","31","","33","","32.2","","99.87","","","","","","Mostly Cloudy"
"1988-12-31 13:00","1988","12","31","13:00","0.4","","-3.8","","74","","29","","24","","24.1","","99.87","","","","","","Mainly Clear"
"1988-12-31 14:00","1988","12","31","14:00","-1.0","","-4.1","","79","","34","","26","","24.1","","99.94","","","","-7","","Mostly Cloudy"
"1988-12-31 15:00","1988","12","31","15:00","-2.0","","-6.4","","72","","36","","24","","40.2","","100.01","","","","-8","","Mainly Clear"
"1988-12-31 16:00","1988","12","31","16:00","-2.2","","-7.0","","70","","1","","22","","40.2","","100.07","","","","-8","","Mainly Clear"
"1988-12-31 17:00","1988","12","31","17:00","-3.6","","-7.3","","76","","35","","19","","25.0","","100.14","","","","-10","","Mainly Clear"
"1988-12-31 18:00","1988","12","31","18:00","-4.8","","-8.9","","73","","1","","17","","25.0","","100.24","","","","-11","","Clear"
"1988-12-31 19:00","1988","12","31","19:00","-5.6","","-9.6","","73","","2","","11","","25.0","","100.41","","","","-10","","Clear"
"1988-12-31 20:00","1988","12","31","20:00","-5.8","","-9.9","","73","","36","","22","","25.0","","100.37","","","","-13","","Clear"
"1988-12-31 21:00","1988","12","31","21:00","-6.2","","-10.3","","73","","36","","19","","25.0","","100.31","","","","-13","","Mostly Cloudy"
"1988-12-31 22:00","1988","12","31","22:00","-6.8","","-10.4","","75","","1","","11","","25.0","","100.31","","","","-12","","Mostly Cloudy"
"1988-12-31 23:00","1988","12","31","23:00","-7.5","","-11.0","","76","","3","","7","","25.0","","100.31","","","","-11","","Mostly Cloudy"
