"Station Name","TORONTO LESTER B. PEARSON INT'L A"
"Province","ONTARIO"
"Latitude","43.68"
"Longitude","-79.63"
"Elevation","173.40"
"Climate Identifier","6158733"
"WMO Identifier","71624"
"TC Identifier","YYZ"
"All times are specified in Local Standard Time (LST). Add 1 hour to adjust for Daylight Saving Time where and when it is observed."

"Legend"
"E","Estimated"
"M","Missing"
"NA","Not Available"

"Date/Time","Year","Month","Day","Time","Temp (°C)","Temp Flag","Dew Point Temp (°C)","Dew Point Temp Flag","Rel Hum (%)","Rel Hum Flag","Wind Dir (10s deg)","Wind Dir Flag","Wind Spd (km/h)","Wind Spd Flag","Visibility (km)","Visibility Flag","Stn Press (kPa)","Stn Press Flag","Hmdx","Hmdx Flag","Wind Chill","Wind Chill Flag","Weather"
"1988-06-01 00:00","1988","06","01","00:00","18.8","","15.3","","80","","33","","11","","19.3","","99.27","","","","","","Mainly Clear"
"1988-06-01 01:00","1988","06","01","01:00","18.1","","14.2","","78","","33","","11","","12.9","","99.24","","","","","","Clear"
"1988-06-01 02:00","1988","06","01","02:00","17.6","","13.6","","77","","30","","11","","12.9","","99.21","","","","","","Clear"
"1988-06-01 03:00","1988","06","01","03:00","18.6","","12.6","","68","","31","","11","","12.9","","99.14","","","","","","Clear"
"1988-06-01 04:00","1988","06","01","04:00","18.1","","13.1","","73","","32","","11","","16.1","","99.14","","","","","","Mainly Clear"
"1988-06-01 05:00","1988","06","01","05:00","20.0","","13.6","","67","","30","","19","","16.1","","99.07","","","","","","Mainly Clear"
"1988-06-01 06:00","1988","06","01","06:00","20.6","","14.2","","67","","32","","15","","12.9","","99.04","","","","","","Mainly Clear"
"1988-06-01 07:00","1988","06","01","07:00","22.0","","15.2","","65","","32","","19","","16.1","","99.01","","26","","","","Mainly Clear"
"1988-06-01 08:00","1988","06","01","08:00","24.3","","16.4","","61","","30","","17","","16.1","","98.94","","29","","","","Mainly Clear"
"1988-06-01 09:00","1988","06","01","09:00","26.0","","17.1","","58","","33","","22","","16.1","","98.87","","31","","","","Mostly Cloudy"
"1988-06-01 10:00","1988","06","01","10:00","25.6","","16.8","","58","","34","","19","","19.3","","98.84","","31","","","","Cloudy"
"1988-06-01 11:00","1988","06","01","11:00","24.9","","16.9","","61","","33","","17","","16.1","","98.81","","30","","","","Cloudy"
"1988-06-01 12:00","1988","06","01","12:00","24.5","","16.0","","59","","35","","17","","19.3","","98.77","","29","","","","Cloudy"
"1988-06-01 13:00","1988","06","01","13:00","24.2","","16.1","","61","","36","","30","","19.3","","98.74","","29","","","","Cloudy"
"1988-06-01 14:00","1988","06","01","14:00","24.1","","16.1","","61","","34","","37","","16.1","","98.74","","29","","","","Mostly Cloudy"
"1988-06-01 15:00","1988","06","01","15:00","21.0","","12.2","","57","","34","","33","","24.1","","98.67","","","","","","Rain Showers"
"1988-06-01 16:00","1988","06","01","16:00","19.2","","10.5","","57","","34","","41","","24.1","","98.81","","","","","","Cloudy"
"1988-06-01 17:00","1988","06","01","17:00","15.6","","7.9","","60","","34","","39","","24.1","","98.91","","","","","","Rain Showers"
"1988-06-01 18:00","1988","06","01","18:00","14.8","","7.7","","63","","34","","35","","32.2","","98.94","","","","","","Mostly Cloudy"
"1988-06-01 19:00","1988","06","01","19:00","12.5","","2.6","","51","","34","","31","","32.2","","99.07","","","","","","Mostly Cloudy"
"1988-06-01 20:00","1988","06","01","20:00","11.3","","2.3","","54","","34","","19","","25.0","","99.14","","","","","","Mostly Cloudy"
"1988-06-01 21:00","1988","06","01","21:00","11.0","","3.2","","59","","35","","17","","25.0","","99.24","","","","","","Mostly Cloudy"
"1988-06-01 22:00","1988","06","01","22:00","11.9","","2.0","","51","","3","","20","","25.0","","99.31","","","","","","Mostly Cloudy"
"1988-06-01 23:00","1988","06","01","23:00","11.0","","0.0","","47","","4","","20","","25.0","","99.41","","","","","","Mainly Clear"
"1988-06-02 00:00","1988","06","02","00:00","10.5","","-0.8","","45","","4","","13","","25.0","","99.47","","","","","","Mainly Clear"
"1988-06-02 01:00","1988","06","02","01:00","8.2","","-0.2","","55","","36","","11","","25.0","","99.47","","","","","","Clear"
"1988-06-02 02:00","1988","06","02","02:00","7.2","","0.7","","63","","1","","11","","25.0","","99.47","","","","","","Clear"
"1988-06-02 03:00","1988","06","02","03:00","6.6","","0.6","","65","","2","","11","","25.0","","99.47","","","","","","Mainly Clear"
"1988-06-02 04:00","1988","06","02","04:00","5.5","","0.4","","70","","36","","11","","25.0","","99.54","","","","","","Mainly Clear"
"1988-06-02 05:00","1988","06","02","05:00","4.0","","0.8","","79","","35","","11","","32.2","","99.61","","","","","","Mainly Clear"
"1988-06-02 06:00","1988","06","02","06:00","6.7","","2.1","","72","","35","","11","","40.2","","99.64","","","","","","Mainly Clear"
"1988-06-02 07:00","1988","06","02","07:00","10.1","","0.8","","52","","7","","13","","40.2","","99.64","","","","","","Mainly Clear"
"1988-06-02 08:00","1988","06","02","08:00","14.0","","1.0","","41","","10","","15","","40.2","","99.67","","","","","","Clear"
"1988-06-02 09:00","1988","06","02","09:00","14.1","","2.1","","44","","9","","13","","40.2","","99.67","","","","","","Mainly Clear"
"1988-06-02 10:00","1988","06","02","10:00","14.8","","1.9","","42","","7","","7","","40.2","","99.67","","","","","","Mainly Clear"
"1988-06-02 11:00","1988","06","02","11:00","15.5","","2.1","","40","","14","","13","","40.2","","99.64","","","","","","Mainly Clear"
"1988-06-02 12:00","1988","06","02","12:00","15.3","","2.7","","43","","15","","13","","40.2","","99.61","","","","","","Mainly Clear"
"1988-06-02 13:00","1988","06","02","13:00","15.5","","1.5","","39","","15","","11","","40.2","","99.54","","","","","","Mainly Clear"
"1988-06-02 14:00","1988","06","02","14:00","15.6","","2.1","","40","","15","","17","","40.2","","99.51","","","","","","Mostly Cloudy"
"1988-06-02 15:00","1988","06","02","15:00","15.4","","2.1","","41","","15","","13","","40.2","","99.47","","","","","","Mainly Clear"
"1988-06-02 16:00","1988","06","02","16:00","16.4","","3.1","","41","","14","","11","","40.2","","99.44","","","","","","Mainly Clear"
"1988-06-02 17:00","1988","06","02","17:00","16.4","","3.6","","43","","13","","9","","40.2","","99.37","","","","","","Mostly Cloudy"
"1988-06-02 18:00","1988","06","02","18:00","15.6","","3.2","","43","","14","","9","","40.2","","99.37","","","","","","Cloudy"
"1988-06-02 19:00","1988","06","02","19:00","13.7","","1.9","","45","","20","","4","","40.2","","99.44","","","","","","Mostly Cloudy"
"1988-06-02 20:00","1988","06","02","20:00","13.6","","2.5","","47","","34","","13","","25.0","","99.41","","","","","","Mostly Cloudy"
"1988-06-02 21:00","1988","06","02","21:00","13.0","","2.3","","48","","34","","15","","25.0","","99.44","","","","","","Mostly Cloudy"
"1988-06-02 22:00","1988","06","02","22:00","12.4","","3.7","","55","","33","","13","","25.0","","99.41","","","","","","Cloudy"
"1988-06-02 23:00","1988","06","02","23:00","12.3","","4.1","","57","","3","","15","","25.0","","99.44","","","","","","Cloudy"
"1988-06-03 00:00","1988","06","03","00:00","12.2","","4.0","","57","","6","","15","","24.1","","99.47","","","","","","Rain Showers"
"1988-06-03 01:00","1988","06","03","01:00","10.3","","8.7","","90","","5","","22","","12.9","","99.47","","","","","","Rain Showers"
"1988-06-03 02:00","1988","06","03","02:00","9.4","","7.6","","89","","6","","15","","12.9","","99.51","","","","","","Rain Showers"
"1988-06-03 03:00","1988","06","03","03:00","9.5","","7.6","","88","","10","","9","","24.1","","99.41","","","","","","Mostly Cloudy"
"1988-06-03 04:00","1988","06","03","04:00","7.8","","7.2","","96","","34","","9","","24.1","","99.41","","","","","","Mainly Clear"
"1988-06-03 05:00","1988","06","03","05:00","8.2","","6.8","","91","","36","","15","","40.2","","99.41","","","","","","Mostly Cloudy"
"1988-06-03 06:00","1988","06","03","06:00","9.3","","7.6","","89","","1","","13","","40.2","","99.41","","","","","","Mainly Clear"
"1988-06-03 07:00","1988","06","03","07:00","10.9","","8.8","","87","","1","","15","","40.2","","99.41","","","","","","Mostly Cloudy"
"1988-06-03 08:00","1988","06","03","08:00","12.6","","8.5","","76","","1","","15","","40.2","","99.41","","","","","","Mainly Clear"
"1988-06-03 09:00","1988","06","03","09:00","14.1","","6.9","","62","","3","","13","","40.2","","99.47","","","","","","Mainly Clear"
"1988-06-03 10:00","1988","06","03","10:00","15.2","","5.5","","52","","5","","13","","40.2","","99.51","","","","","","Mostly Cloudy"
"1988-06-03 11:00","1988","06","03","11:00","14.8","","6.9","","59","","13","","24","","40.2","","99.54","","","","","","Mostly Cloudy"
"1988-06-03 12:00","1988","06","03","12:00","14.9","","7.7","","62","","18","","11","","32.2","","99.51","","","","","","Rain Showers"
"1988-06-03 13:00","1988","06","03","13:00","12.0","","8.3","","78","","20","","13","","32.2","","99.47","","","","","","Rain Showers"
"1988-06-03 14:00","1988","06","03","14:00","14.0","","8.2","","68","","15","","7","","40.2","","99.51","","","","","","Mostly Cloudy"
"1988-06-03 15:00","1988","06","03","15:00","12.9","","7.4","","69","","14","","22","","40.2","","99.51","","","","","","Rain Showers"
"1988-06-03 16:00","1988","06","03","16:00","15.4","","8.7","","64","","13","","11","","32.2","","99.54","","","","","","Mostly Cloudy"
"1988-06-03 17:00","1988","06","03","17:00","14.8","","7.3","","61","","26","","6","","40.2","","99.57","","","","","","Mostly Cloudy"
"1988-06-03 18:00","1988","06","03","18:00","13.8","","6.5","","61","","18","","9","","40.2","","99.57","","","","","","Mostly Cloudy"
"1988-06-03 19:00","1988","06","03","19:00","13.7","","5.4","","57","","15","","6","","40.2","","99.61","","","","","","Mostly Cloudy"
"1988-06-03 20:00","1988","06","03","20:00","11.2","","7.2","","76","","29","","4","","25.0","","99.61","","","","","","Mainly Clear"
"1988-06-03 21:00","1988","06","03","21:00","11.3","","6.1","","71","","33","","7","","25.0","","99.64","","","","","","Mainly Clear"
"1988-06-03 22:00","1988","06","03","22:00","10.9","","6.8","","76","","15","","7","","25.0","","99.71","","","","","","Clear"
"1988-06-03 23:00","1988","06","03","23:00","8.8","","6.3","","84","","25","","6","","25.0","","99.71","","","","","","Mainly Clear"
"1988-06-04 00:00","1988","06","04","00:00","7.4","","5.9","","90","","29","","7","","25.0","","99.67","","","","","","Mainly Clear"
"1988-06-04 01:00","1988","06","04","01:00","7.8","","6.4","","91","","31","","6","","25.0","","99.71","","","","","","Clear"
"1988-06-04 02:00","1988","06","04","02:00","5.8","","5.2","","96","","32","","7","","25.0","","99.71","","","","","","Clear"
"1988-06-04 03:00","1988","06","04","03:00","6.0","","4.8","","92","","31","","11","","25.0","","99.67","","","","","","Mainly Clear"
"1988-06-04 04:00","1988","06","04","04:00","5.3","","4.2","","93","","33","","11","","25.0","","99.71","","","","","","Mainly Clear"
"1988-06-04 05:00","1988","06","04","05:00","6.1","","3.9","","86","","33","","11","","40.2","","99.74","","","","","","Mainly Clear"
"1988-06-04 06:00","1988","06","04","06:00","8.0","","5.6","","85","","32","","9","","40.2","","99.74","","","","","","Mainly Clear"
"1988-06-04 07:00","1988","06","04","07:00","12.4","","6.9","","69","","33","","11","","40.2","","99.74","","","","","","Mainly Clear"
"1988-06-04 08:00","1988","06","04","08:00","14.8","","6.0","","56","","33","","11","","40.2","","99.77","","","","","","Clear"
"1988-06-04 09:00","1988","06","04","09:00","17.7","","5.5","","45","","35","","17","","40.2","","99.77","","","","","","Clear"
"1988-06-04 10:00","1988","06","04","10:00","19.0","","3.1","","35","","32","","19","","40.2","","99.77","","","","","","Mainly Clear"
"1988-06-04 11:00","1988","06","04","11:00","20.5","","3.3","","32","","33","","17","","40.2","","99.74","","","","","","Mostly Cloudy"
"1988-06-04 12:00","1988","06","04","12:00","20.3","","2.1","","30","","35","","13","","40.2","","99.71","","","","","","Mostly Cloudy"
"1988-06-04 13:00","1988","06","04","13:00","20.9","","2.4","","29","","34","","9","","40.2","","99.64","","","","","","Mostly Cloudy"
"1988-06-04 14:00","1988","06","04","14:00","21.6","","1.4","","26","","35","","20","","40.2","","99.57","","","","","","Mostly Cloudy"
"1988-06-04 15:00","1988","06","04","15:00","22.0","","3.5","","30","","36","","11","","40.2","","99.51","","","","","","Mainly Clear"
"1988-06-04 16:00","1988","06","04","16:00","22.0","","2.9","","28","","31","","19","","40.2","","99.44","","","","","","Mostly Cloudy"
"1988-06-04 17:00","1988","06","04","17:00","21.6","","3.8","","31","","32","","9","","40.2","","99.41","","","","","","Mostly Cloudy"
"1988-06-04 18:00","1988","06","04","18:00","21.0","","3.5","","32","","34","","22","","40.2","","99.37","","","","","","Mostly Cloudy"
"1988-06-04 19:00","1988","06","04","19:00","19.4","","4.9","","39","","33","","15","","40.2","","99.37","","","","","","Mostly Cloudy"
"1988-06-04 20:00","1988","06","04","20:00","17.9","","4.8","","42","","29","","11","","25.0","","99.34","","","","","","Mostly Cloudy"
"1988-06-04 21:00","1988","06","04","21:00","18.0","","4.2","","40","","30","","15","","25.0","","99.37","","","","","","Mostly Cloudy"
"1988-06-04 22:00","1988","06","04","22:00","17.2","","4.3","","42","","29","","13","","25.0","","99.41","","","","","","Mostly Cloudy"
"1988-06-04 23:00","1988","06","04","23:00","16.9","","4.3","","43","","28","","15","","25.0","","99.37","","","","","","Mostly Cloudy"
"1988-06-05 00:00","1988","06","05","00:00","14.8","","5.0","","52","","26","","7","","25.0","","99.34","","","","","","Mainly Clear"
"1988-06-05 01:00","1988","06","05","01:00","14.4","","4.3","","51","","28","","11","","25.0","","99.31","","","","","","Mostly Cloudy"
"1988-06-05 02:00","1988","06","05","02:00","13.4","","3.5","","51","","29","","11","","25.0","","99.24","","","","","","Mainly Clear"
"1988-06-05 03:00","1988","06","05","03:00","12.7","","3.2","","52","","28","","11","","25.0","","99.17","","","","","","Mainly Clear"
"1988-06-05 04:00","1988","06","05","04:00","14.0","","2.6","","46","","28","","11","","25.0","","99.17","","","","","","Mainly Clear"
"1988-06-05 05:00","1988","06","05","05:00","14.5","","2.3","","44","","28","","17","","40.2","","99.14","","","","","","Mainly Clear"
"1988-06-05 06:00","1988","06","05","06:00","16.3","","3.6","","43","","30","","22","","40.2","","99.11","","","","","","Mostly Cloudy"
"1988-06-05 07:00","1988","06","05","07:00","17.6","","4.0","","40","","31","","28","","40.2","","99.04","","","","","","Mostly Cloudy"
"1988-06-05 08:00","1988","06","05","08:00","18.6","","3.9","","38","","29","","26","","40.2","","99.04","","","","","","Mostly Cloudy"
"1988-06-05 09:00","1988","06","05","09:00","21.4","","7.4","","40","","28","","30","","32.2","","98.97","","","","","","Mostly Cloudy"
"1988-06-05 10:00","1988","06","05","10:00","21.6","","8.7","","44","","31","","26","","32.2","","98.97","","","","","","Mostly Cloudy"
"1988-06-05 11:00","1988","06","05","11:00","24.2","","10.4","","42","","29","","31","","32.2","","98.94","","26","","","","Mainly Clear"
"1988-06-05 12:00","1988","06","05","12:00","25.5","","9.9","","37","","28","","35","","32.2","","98.84","","27","","","","Mainly Clear"
"1988-06-05 13:00","1988","06","05","13:00","26.6","","9.5","","34","","29","","35","","32.2","","98.77","","28","","","","Mainly Clear"
"1988-06-05 14:00","1988","06","05","14:00","26.8","","10.3","","36","","29","","37","","32.2","","98.74","","28","","","","Mainly Clear"
"1988-06-05 15:00","1988","06","05","15:00","27.4","","10.6","","35","","30","","37","","32.2","","98.74","","29","","","","Mostly Cloudy"
"1988-06-05 16:00","1988","06","05","16:00","27.1","","10.3","","35","","30","","43","","32.2","","98.71","","29","","","","Mostly Cloudy"
"1988-06-05 17:00","1988","06","05","17:00","26.6","","10.0","","35","","30","","33","","32.2","","98.74","","28","","","","Cloudy"
"1988-06-05 18:00","1988","06","05","18:00","26.0","","10.2","","37","","30","","30","","32.2","","98.71","","27","","","","Mostly Cloudy"
"1988-06-05 19:00","1988","06","05","19:00","24.8","","10.5","","41","","30","","31","","40.2","","98.74","","26","","","","Cloudy"
"1988-06-05 20:00","1988","06","05","20:00","23.5","","9.7","","42","","29","","26","","25.0","","98.74","","25","","","","Mostly Cloudy"
"1988-06-05 21:00","1988","06","05","21:00","22.0","","10.3","","47","","31","","19","","25.0","","98.84","","","","","","Mostly Cloudy"
"1988-06-05 22:00","1988","06","05","22:00","19.9","","10.6","","55","","32","","15","","25.0","","98.91","","","","","","Mostly Cloudy"
"1988-06-05 23:00","1988","06","05","23:00","17.3","","10.7","","65","","33","","15","","25.0","","98.97","","","","","","Mainly Clear"
"1988-06-06 00:00","1988","06","06","00:00","15.9","","10.1","","69","","33","","15","","25.0","","99.01","","","","","","Mainly Clear"
"1988-06-06 01:00","1988","06","06","01:00","14.6","","8.0","","65","","32","","11","","25.0","","99.04","","","","","","Mainly Clear"
"1988-06-06 02:00","1988","06","06","02:00","14.3","","7.5","","64","","32","","11","","25.0","","99.11","","","","","","Mainly Clear"
"1988-06-06 03:00","1988","06","06","03:00","13.8","","7.8","","67","","28","","11","","25.0","","99.11","","","","","","Mainly Clear"
"1988-06-06 04:00","1988","06","06","04:00","14.0","","6.9","","62","","34","","15","","25.0","","99.14","","","","","","Mainly Clear"
"1988-06-06 05:00","1988","06","06","05:00","13.0","","7.9","","71","","34","","15","","40.2","","99.21","","","","","","Mostly Cloudy"
"1988-06-06 06:00","1988","06","06","06:00","15.5","","7.5","","59","","33","","13","","40.2","","99.27","","","","","","Mostly Cloudy"
"1988-06-06 07:00","1988","06","06","07:00","16.6","","7.9","","56","","33","","17","","40.2","","99.31","","","","","","Mostly Cloudy"
"1988-06-06 08:00","1988","06","06","08:00","17.2","","8.1","","55","","32","","17","","40.2","","99.31","","","","","","Mostly Cloudy"
"1988-06-06 09:00","1988","06","06","09:00","17.6","","7.8","","53","","33","","17","","40.2","","99.34","","","","","","Mostly Cloudy"
"1988-06-06 10:00","1988","06","06","10:00","20.9","","9.4","","48","","33","","15","","40.2","","99.27","","","","","","Mostly Cloudy"
"1988-06-06 11:00","1988","06","06","11:00","22.2","","5.1","","33","","33","","17","","40.2","","99.24","","","","","","Mainly Clear"
"1988-06-06 12:00","1988","06","06","12:00","23.6","","6.9","","34","","33","","15","","40.2","","99.21","","","","","","Mostly Cloudy"
"1988-06-06 13:00","1988","06","06","13:00","24.8","","6.8","","32","","34","","9","","40.2","","99.11","","25","","","","Mainly Clear"
"1988-06-06 14:00","1988","06","06","14:00","26.8","","9.4","","34","","30","","11","","40.2","","99.01","","28","","","","Mainly Clear"
"1988-06-06 15:00","1988","06","06","15:00","27.5","","11.0","","36","","32","","11","","40.2","","98.94","","29","","","","Mainly Clear"
"1988-06-06 16:00","1988","06","06","16:00","26.4","","8.6","","33","","13","","9","","40.2","","98.91","","27","","","","Mostly Cloudy"
"1988-06-06 17:00","1988","06","06","17:00","23.1","","7.7","","37","","36","","20","","40.2","","98.94","","","","","","Cloudy"
"1988-06-06 18:00","1988","06","06","18:00","19.1","","10.5","","57","","30","","7","","40.2","","98.91","","","","","","Cloudy"
"1988-06-06 19:00","1988","06","06","19:00","17.6","","13.3","","76","","19","","9","","24.1","","98.77","","","","","","Cloudy"
"1988-06-06 20:00","1988","06","06","20:00","17.1","","13.4","","79","","36","","11","","25.0","","98.81","","","","","","Cloudy"
"1988-06-06 21:00","1988","06","06","21:00","15.3","","10.3","","72","","34","","11","","25.0","","98.84","","","","","","Cloudy"
"1988-06-06 22:00","1988","06","06","22:00","15.3","","11.4","","78","","32","","11","","25.0","","98.84","","","","","","Cloudy"
"1988-06-06 23:00","1988","06","06","23:00","15.0","","11.3","","78","","33","","11","","25.0","","98.84","","","","","","Mostly Cloudy"
"1988-06-07 00:00","1988","06","07","00:00","14.5","","10.7","","78","","34","","13","","24.1","","98.84","","","","","","Cloudy"
"1988-06-07 01:00","1988","06","07","01:00","14.7","","10.0","","73","","35","","15","","24.1","","98.81","","","","","","Mostly Cloudy"
"1988-06-07 02:00","1988","06","07","02:00","13.9","","10.2","","79","","33","","11","","24.1","","98.77","","","","","","Mostly Cloudy"
"1988-06-07 03:00","1988","06","07","03:00","13.2","","9.8","","80","","31","","9","","24.1","","98.77","","","","","","Mostly Cloudy"
"1988-06-07 04:00","1988","06","07","04:00","14.0","","10.5","","79","","30","","7","","24.1","","98.74","","","","","","Mostly Cloudy"
"1988-06-07 05:00","1988","06","07","05:00","14.0","","10.5","","79","","32","","13","","24.1","","98.87","","","","","","Thunderstorms"
"1988-06-07 06:00","1988","06","07","06:00","12.9","","11.3","","90","","33","","7","","24.1","","98.81","","","","","","Rain Showers"
"1988-06-07 07:00","1988","06","07","07:00","13.8","","11.6","","87","","27","","7","","24.1","","98.74","","","","","","Mostly Cloudy"
"1988-06-07 08:00","1988","06","07","08:00","13.4","","11.8","","90","","33","","9","","11.3","","98.81","","","","","","Rain Showers"
"1988-06-07 09:00","1988","06","07","09:00","14.0","","12.0","","88","","35","","9","","24.1","","98.84","","","","","","Rain Showers"
"1988-06-07 10:00","1988","06","07","10:00","13.6","","10.7","","83","","33","","13","","11.3","","98.91","","","","","","Rain Showers"
"1988-06-07 11:00","1988","06","07","11:00","13.4","","10.0","","80","","32","","7","","32.2","","98.84","","","","","","Rain Showers"
"1988-06-07 12:00","1988","06","07","12:00","15.6","","11.8","","78","","35","","9","","32.2","","98.84","","","","","","Cloudy"
"1988-06-07 13:00","1988","06","07","13:00","16.0","","9.3","","64","","35","","13","","32.2","","98.84","","","","","","Cloudy"
"1988-06-07 14:00","1988","06","07","14:00","16.1","","5.9","","51","","13","","11","","24.1","","98.84","","","","","","Rain Showers"
"1988-06-07 15:00","1988","06","07","15:00","13.6","","8.8","","73","","29","","6","","40.2","","98.81","","","","","","Cloudy"
"1988-06-07 16:00","1988","06","07","16:00","13.8","","10.9","","83","","26","","7","","40.2","","98.77","","","","","","Rain Showers"
"1988-06-07 17:00","1988","06","07","17:00","14.1","","10.5","","79","","27","","7","","32.2","","98.74","","","","","","Cloudy"
"1988-06-07 18:00","1988","06","07","18:00","13.8","","10.5","","81","","28","","9","","40.2","","98.74","","","","","","Cloudy"
"1988-06-07 19:00","1988","06","07","19:00","13.0","","9.8","","81","","32","","13","","40.2","","98.84","","","","","","Rain Showers"
"1988-06-07 20:00","1988","06","07","20:00","12.0","","7.5","","74","","31","","13","","25.0","","98.84","","","","","","Cloudy"
"1988-06-07 21:00","1988","06","07","21:00","12.0","","6.3","","68","","33","","17","","25.0","","98.84","","","","","","Cloudy"
"1988-06-07 22:00","1988","06","07","22:00","12.3","","3.7","","56","","35","","19","","25.0","","98.81","","","","","","Rain Showers"
"1988-06-07 23:00","1988","06","07","23:00","11.2","","4.6","","64","","33","","13","","25.0","","98.87","","","","","","Mostly Cloudy"
"1988-06-08 00:00","1988","06","08","00:00","10.7","","4.5","","65","","33","","13","","25.0","","98.91","","","","","","Mostly Cloudy"
"1988-06-08 01:00","1988","06","08","01:00","9.1","","4.5","","73","","33","","13","","25.0","","98.91","","","","","","Mostly Cloudy"
"1988-06-08 02:00","1988","06","08","02:00","8.6","","4.4","","75","","33","","15","","25.0","","98.91","","","","","","Mainly Clear"
"1988-06-08 03:00","1988","06","08","03:00","7.9","","4.3","","78","","33","","15","","25.0","","98.91","","","","","","Mainly Clear"
"1988-06-08 04:00","1988","06","08","04:00","7.4","","4.6","","83","","33","","15","","25.0","","98.91","","","","","","Mostly Cloudy"
"1988-06-08 05:00","1988","06","08","05:00","8.0","","4.3","","77","","33","","15","","40.2","","98.94","","","","","","Mostly Cloudy"
"1988-06-08 06:00","1988","06","08","06:00","10.4","","5.8","","73","","34","","13","","40.2","","99.01","","","","","","Mostly Cloudy"
"1988-06-08 07:00","1988","06","08","07:00","12.0","","4.5","","60","","36","","15","","40.2","","99.04","","","","","","Mainly Clear"
"1988-06-08 08:00","1988","06","08","08:00","13.9","","-0.2","","38","","1","","11","","40.2","","99.04","","","","","","Mainly Clear"
"1988-06-08 09:00","1988","06","08","09:00","14.4","","0.0","","37","","35","","13","","40.2","","99.04","","","","","","Mostly Cloudy"
"1988-06-08 10:00","1988","06","08","10:00","13.7","","3.0","","48","","31","","17","","40.2","","99.04","","","","","","Mostly Cloudy"
"1988-06-08 11:00","1988","06","08","11:00","13.4","","4.5","","55","","30","","11","","40.2","","99.04","","","","","","Cloudy"
"1988-06-08 12:00","1988","06","08","12:00","13.5","","3.0","","49","","32","","13","","40.2","","98.97","","","","","","Cloudy"
"1988-06-08 13:00","1988","06","08","13:00","14.0","","1.0","","41","","33","","11","","40.2","","98.97","","","","","","Cloudy"
"1988-06-08 14:00","1988","06","08","14:00","12.5","","-0.8","","40","","32","","17","","40.2","","99.01","","","","","","Cloudy"
"1988-06-08 15:00","1988","06","08","15:00","11.2","","-3.2","","36","","32","","17","","40.2","","99.01","","","","","","Mostly Cloudy"
"1988-06-08 16:00","1988","06","08","16:00","11.4","","-1.1","","42","","33","","19","","40.2","","99.01","","","","","","Mostly Cloudy"
"1988-06-08 17:00","1988","06","08","17:00","11.3","","1.3","","50","","31","","17","","40.2","","99.01","","","","","","Mostly Cloudy"
"1988-06-08 18:00","1988","06","08","18:00","11.2","","2.7","","56","","34","","13","","40.2","","99.01","","","","","","Mostly Cloudy"
"1988-06-08 19:00","1988","06","08","19:00","10.5","","2.0","","56","","32","","13","","40.2","","99.01","","","","","","Mostly Cloudy"
"1988-06-08 20:00","1988","06","08","20:00","9.6","","2.3","","60","","32","","11","","25.0","","99.04","","","","","","Mostly Cloudy"
"1988-06-08 21:00","1988","06","08","21:00","8.4","","3.0","","69","","32","","11","","25.0","","99.07","","","","","","Mostly Cloudy"
"1988-06-08 22:00","1988","06","08","22:00","6.8","","3.6","","80","","32","","11","","25.0","","99.07","","","","","","Mostly Cloudy"
"1988-06-08 23:00","1988","06","08","23:00","7.0","","2.7","","74","","32","","20","","25.0","","99.14","","","","","","Mainly Clear"
"1988-06-09 00:00","1988","06","09","00:00","6.6","","2.6","","76","","32","","17","","25.0","","99.14","","","","","","Clear"
"1988-06-09 01:00","1988","06","09","01:00","6.1","","2.5","","78","","33","","15","","25.0","","99.17","","","","","","Mainly Clear"
"1988-06-09 02:00","1988","06","09","02:00","5.5","","2.0","","78","","34","","17","","25.0","","99.14","","","","","","Clear"
"1988-06-09 03:00","1988","06","09","03:00","4.6","","1.3","","79","","33","","11","","24.1","","99.17","","","","","","Clear"
"1988-06-09 04:00","1988","06","09","04:00","3.3","","1.2","","86","","32","","13","","25.0","","99.24","","","","","","Clear"
"1988-06-09 05:00","1988","06","09","05:00","4.0","","1.3","","82","","32","","13","","40.2","","99.34","","","","","","Mainly Clear"
"1988-06-09 06:00","1988","06","09","06:00","5.5","","1.5","","75","","34","","17","","40.2","","99.41","","","","","","Clear"
"1988-06-09 07:00","1988","06","09","07:00","7.7","","0.3","","59","","35","","19","","40.2","","99.47","","","","","","Clear"
"1988-06-09 08:00","1988","06","09","08:00","10.1","","-2.1","","42","","36","","19","","40.2","","99.47","","","","","","Clear"
"1988-06-09 09:00","1988","06","09","09:00","11.0","","0.0","","47","","32","","17","","40.2","","99.44","","","","","","Clear"
"1988-06-09 10:00","1988","06","09","10:00","12.0","","0.9","","46","","33","","17","","40.2","","99.47","","","","","","Clear"
"1988-06-09 11:00","1988","06","09","11:00","13.1","","1.7","","46","","31","","13","","40.2","","99.41","","","","","","Mainly Clear"
"1988-06-09 12:00","1988","06","09","12:00","14.3","","1.2","","41","","35","","22","","40.2","","99.41","","","","","","Mainly Clear"
"1988-06-09 13:00","1988","06","09","13:00","14.1","","1.0","","41","","34","","20","","40.2","","99.41","","","","","","Mainly Clear"
"1988-06-09 14:00","1988","06","09","14:00","14.2","","2.6","","45","","33","","24","","40.2","","99.44","","","","","","Mainly Clear"
"1988-06-09 15:00","1988","06","09","15:00","13.9","","-0.9","","36","","32","","19","","40.2","","99.44","","","","","","Mainly Clear"
"1988-06-09 16:00","1988","06","09","16:00","13.8","","1.5","","43","","35","","19","","40.2","","99.47","","","","","","Mainly Clear"
"1988-06-09 17:00","1988","06","09","17:00","13.2","","1.2","","44","","33","","19","","40.2","","99.51","","","","","","Mainly Clear"
"1988-06-09 18:00","1988","06","09","18:00","13.0","","1.7","","46","","33","","19","","40.2","","99.51","","","","","","Mainly Clear"
"1988-06-09 19:00","1988","06","09","19:00","11.7","","1.3","","49","","32","","22","","40.2","","99.57","","","","","","Mainly Clear"
"1988-06-09 20:00","1988","06","09","20:00","10.2","","0.3","","50","","33","","20","","25.0","","99.61","","","","","","Mainly Clear"
"1988-06-09 21:00","1988","06","09","21:00","8.9","","0.6","","56","","33","","15","","25.0","","99.71","","","","","","Mainly Clear"
"1988-06-09 22:00","1988","06","09","22:00","7.9","","0.4","","59","","33","","15","","25.0","","99.77","","","","","","Clear"
"1988-06-09 23:00","1988","06","09","23:00","6.7","","0.1","","63","","33","","11","","25.0","","99.87","","","","","","Mainly Clear"
"1988-06-10 00:00","1988","06","10","00:00","5.9","","1.5","","73","","33","","9","","25.0","","99.87","","","","","","Mostly Cloudy"
"1988-06-10 01:00","1988","06","10","01:00","5.9","","2.0","","76","","32","","11","","25.0","","99.87","","","","","","Mostly Cloudy"
"1988-06-10 02:00","1988","06","10","02:00","6.6","","3.1","","78","","32","","11","","25.0","","99.87","","","","","","Mostly Cloudy"
"1988-06-10 03:00","1988","06","10","03:00","7.4","","2.8","","73","","32","","11","","25.0","","99.87","","","","","","Mostly Cloudy"
"1988-06-10 04:00","1988","06","10","04:00","6.2","","3.0","","80","","33","","11","","25.0","","99.91","","","","","","Mostly Cloudy"
"1988-06-10 05:00","1988","06","10","05:00","6.5","","3.1","","79","","33","","13","","40.2","","99.97","","","","","","Clear"
"1988-06-10 06:00","1988","06","10","06:00","7.8","","4.3","","79","","33","","15","","40.2","","100.01","","","","","","Mainly Clear"
"1988-06-10 07:00","1988","06","10","07:00","10.3","","4.5","","67","","33","","11","","40.2","","100.04","","","","","","Clear"
"1988-06-10 08:00","1988","06","10","08:00","12.2","","4.5","","59","","31","","13","","40.2","","100.07","","","","","","Clear"
"1988-06-10 09:00","1988","06","10","09:00","14.1","","2.6","","46","","35","","20","","40.2","","100.11","","","","","","Clear"
"1988-06-10 10:00","1988","06","10","10:00","14.9","","0.8","","38","","34","","19","","40.2","","100.11","","","","","","Clear"
"1988-06-10 11:00","1988","06","10","11:00","14.8","","0.1","","37","","32","","20","","40.2","","100.07","","","","","","Mainly Clear"
"1988-06-10 12:00","1988","06","10","12:00","17.1","","0.4","","32","","29","","19","","40.2","","100.01","","","","","","Mainly Clear"
"1988-06-10 13:00","1988","06","10","13:00","17.7","","-1.4","","27","","34","","22","","40.2","","100.01","","","","","","Mostly Cloudy"
"1988-06-10 14:00","1988","06","10","14:00","17.7","","0.0","","30","","33","","19","","40.2","","99.97","","","","","","Mostly Cloudy"
"1988-06-10 15:00","1988","06","10","15:00","18.0","","-2.6","","24","","34","","22","","40.2","","99.91","","","","","","Mostly Cloudy"
"1988-06-10 16:00","1988","06","10","16:00","18.5","","-1.6","","26","","36","","26","","40.2","","99.87","","","","","","Mainly Clear"
"1988-06-10 17:00","1988","06","10","17:00","18.5","","-0.2","","28","","36","","22","","40.2","","99.87","","","","","","Mainly Clear"
"1988-06-10 18:00","1988","06","10","18:00","18.0","","-1.1","","27","","33","","19","","40.2","","99.87","","","","","","Mainly Clear"
"1988-06-10 19:00","1988","06","10","19:00","16.9","","-0.9","","30","","34","","15","","40.2","","99.87","","","","","","Mainly Clear"
"1988-06-10 20:00","1988","06","10","20:00","13.8","","1.5","","43","","32","","11","","25.0","","99.87","","","","","","Mostly Cloudy"
"1988-06-10 21:00","1988","06","10","21:00","11.6","","3.3","","57","","28","","7","","25.0","","99.91","","","","","","Mostly Cloudy"
"1988-06-10 22:00","1988","06","10","22:00","11.1","","3.2","","58","","26","","7","","25.0","","99.91","","","","","","Mainly Clear"
"1988-06-10 23:00","1988","06","10","23:00","10.0","","2.9","","61","","27","","7","","25.0","","99.91","","","","","","Clear"
"1988-06-11 00:00","1988","06","11","00:00","10.0","","2.4","","59","","29","","4","","25.0","","99.91","","","","","","Clear"
"1988-06-11 01:00","1988","06","11","01:00","10.4","","2.0","","56","","26","","4","","25.0","","99.91","","","","","","Mainly Clear"
"1988-06-11 02:00","1988","06","11","02:00","8.9","","2.7","","65","","27","","7","","25.0","","99.91","","","","","","Mainly Clear"
"1988-06-11 03:00","1988","06","11","03:00","9.4","","2.3","","61","","26","","4","","25.0","","99.87","","","","","","Mostly Cloudy"
"1988-06-11 04:00","1988","06","11","04:00","10.8","","2.2","","55","","28","","9","","25.0","","99.81","","","","","","Mostly Cloudy"
"1988-06-11 05:00","1988","06","11","05:00","11.1","","1.7","","52","","27","","9","","40.2","","99.81","","","","","","Mainly Clear"
"1988-06-11 06:00","1988","06","11","06:00","12.6","","2.6","","51","","27","","6","","40.2","","99.84","","","","","","Clear"
"1988-06-11 07:00","1988","06","11","07:00","15.4","","3.7","","46","","25","","11","","40.2","","99.81","","","","","","Clear"
"1988-06-11 08:00","1988","06","11","08:00","18.6","","5.0","","41","","26","","11","","40.2","","99.81","","","","","","Clear"
"1988-06-11 09:00","1988","06","11","09:00","20.8","","8.1","","44","","25","","11","","40.2","","99.81","","","","","","Clear"
"1988-06-11 10:00","1988","06","11","10:00","21.1","","6.2","","38","","28","","22","","40.2","","99.77","","","","","","Clear"
"1988-06-11 11:00","1988","06","11","11:00","23.5","","5.4","","31","","28","","20","","40.2","","99.74","","","","","","Mainly Clear"
"1988-06-11 12:00","1988","06","11","12:00","24.2","","4.6","","28","","26","","17","","40.2","","99.71","","","","","","Mainly Clear"
"1988-06-11 13:00","1988","06","11","13:00","24.8","","5.7","","29","","27","","22","","40.2","","99.61","","","","","","Mostly Cloudy"
"1988-06-11 14:00","1988","06","11","14:00","24.9","","5.7","","29","","26","","20","","40.2","","99.61","","","","","","Cloudy"
"1988-06-11 15:00","1988","06","11","15:00","25.0","","5.2","","28","","26","","22","","40.2","","99.57","","","","","","Cloudy"
"1988-06-11 16:00","1988","06","11","16:00","24.2","","6.7","","33","","25","","17","","32.2","","99.51","","","","","","Cloudy"
"1988-06-11 17:00","1988","06","11","17:00","24.9","","7.8","","34","","28","","17","","32.2","","99.47","","25","","","","Cloudy"
"1988-06-11 18:00","1988","06","11","18:00","24.2","","6.7","","33","","26","","17","","32.2","","99.47","","","","","","Mostly Cloudy"
"1988-06-11 19:00","1988","06","11","19:00","23.4","","7.4","","36","","26","","11","","40.2","","99.44","","","","","","Mostly Cloudy"
"1988-06-11 20:00","1988","06","11","20:00","20.4","","7.8","","44","","26","","9","","25.0","","99.47","","","","","","Mainly Clear"
"1988-06-11 21:00","1988","06","11","21:00","19.5","","7.8","","47","","24","","9","","25.0","","99.51","","","","","","Mainly Clear"
"1988-06-11 22:00","1988","06","11","22:00","18.0","","8.0","","52","","25","","11","","25.0","","99.47","","","","","","Clear"
"1988-06-11 23:00","1988","06","11","23:00","17.0","","8.5","","57","","26","","11","","25.0","","99.47","","","","","","Clear"
"1988-06-12 00:00","1988","06","12","00:00","16.7","","7.9","","56","","27","","15","","25.0","","99.47","","","","","","Clear"
"1988-06-12 01:00","1988","06","12","01:00","15.8","","8.1","","60","","26","","11","","25.0","","99.47","","","","","","Clear"
"1988-06-12 02:00","1988","06","12","02:00","16.0","","7.7","","58","","27","","6","","19.3","","99.47","","","","","","Mostly Cloudy"
"1988-06-12 03:00","1988","06","12","03:00","16.3","","7.4","","56","","27","","6","","19.3","","99.47","","","","","","Mostly Cloudy"
"1988-06-12 04:00","1988","06","12","04:00","15.7","","6.6","","55","","25","","7","","19.3","","99.51","","","","","","Mostly Cloudy"
"1988-06-12 05:00","1988","06","12","05:00","14.1","","6.9","","62","","26","","9","","40.2","","99.54","","","","","","Mostly Cloudy"
"1988-06-12 06:00","1988","06","12","06:00","14.9","","8.1","","64","","25","","7","","40.2","","99.57","","","","","","Mostly Cloudy"
"1988-06-12 07:00","1988","06","12","07:00","18.5","","9.5","","56","","24","","6","","40.2","","99.61","","","","","","Mostly Cloudy"
"1988-06-12 08:00","1988","06","12","08:00","21.3","","10.4","","50","","27","","11","","40.2","","99.61","","","","","","Mostly Cloudy"
"1988-06-12 09:00","1988","06","12","09:00","24.5","","11.9","","45","","24","","9","","40.2","","99.61","","27","","","","Mostly Cloudy"
"1988-06-12 10:00","1988","06","12","10:00","25.6","","12.0","","43","","25","","15","","40.2","","99.57","","28","","","","Cloudy"
"1988-06-12 11:00","1988","06","12","11:00","27.2","","9.4","","33","","26","","19","","40.2","","99.57","","28","","","","Cloudy"
"1988-06-12 12:00","1988","06","12","12:00","27.6","","9.6","","32","","25","","19","","40.2","","99.57","","29","","","","Cloudy"
"1988-06-12 13:00","1988","06","12","13:00","29.6","","9.0","","28","","25","","17","","40.2","","99.51","","30","","","","Mostly Cloudy"
"1988-06-12 14:00","1988","06","12","14:00","30.0","","8.8","","27","","28","","24","","40.2","","99.51","","31","","","","Mostly Cloudy"
"1988-06-12 15:00","1988","06","12","15:00","30.0","","10.7","","30","","26","","19","","40.2","","99.47","","32","","","","Cloudy"
"1988-06-12 16:00","1988","06","12","16:00","29.1","","9.6","","30","","26","","19","","40.2","","99.51","","30","","","","Cloudy"
"1988-06-12 17:00","1988","06","12","17:00","28.2","","9.5","","31","","25","","20","","40.2","","99.51","","29","","","","Cloudy"
"1988-06-12 18:00","1988","06","12","18:00","27.8","","10.4","","34","","27","","19","","40.2","","99.51","","29","","","","Cloudy"
"1988-06-12 19:00","1988","06","12","19:00","25.4","","11.2","","41","","27","","11","","40.2","","99.57","","27","","","","Mainly Clear"
"1988-06-12 20:00","1988","06","12","20:00","23.8","","10.0","","42","","27","","9","","25.0","","99.57","","25","","","","Mainly Clear"
"1988-06-12 21:00","1988","06","12","21:00","23.3","","9.7","","42","","23","","7","","25.0","","99.61","","","","","","Mainly Clear"
"1988-06-12 22:00","1988","06","12","22:00","20.6","","10.0","","51","","24","","7","","25.0","","99.64","","","","","","Clear"
"1988-06-12 23:00","1988","06","12","23:00","19.7","","10.0","","53","","23","","7","","25.0","","99.64","","","","","","Clear"
"1988-06-13 00:00","1988","06","13","00:00","18.7","","9.9","","56","","26","","7","","25.0","","99.67","","","","","","Clear"
"1988-06-13 01:00","1988","06","13","01:00","19.1","","9.3","","53","","30","","6","","24.1","","99.71","","","","","","Mainly Clear"
"1988-06-13 02:00","1988","06","13","02:00","17.1","","9.3","","60","","26","","11","","25.0","","99.71","","","","","","Clear"
"1988-06-13 03:00","1988","06","13","03:00","16.2","","8.5","","60","","26","","7","","25.0","","99.74","","","","","","Clear"
"1988-06-13 04:00","1988","06","13","04:00","17.0","","8.1","","56","","27","","4","","25.0","","99.77","","","","","","Mainly Clear"
"1988-06-13 05:00","1988","06","13","05:00","14.7","","8.0","","64","","25","","6","","40.2","","99.84","","","","","","Mostly Cloudy"
"1988-06-13 06:00","1988","06","13","06:00","17.3","","9.5","","60","","25","","9","","40.2","","99.91","","","","","","Mostly Cloudy"
"1988-06-13 07:00","1988","06","13","07:00","20.2","","11.0","","55","","25","","6","","24.1","","99.97","","","","","","Mostly Cloudy"
"1988-06-13 08:00","1988","06","13","08:00","24.0","","11.7","","46","","26","","9","","32.2","","100.01","","26","","","","Mostly Cloudy"
"1988-06-13 09:00","1988","06","13","09:00","26.5","","12.5","","42","","25","","11","","32.2","","100.07","","29","","","","Mostly Cloudy"
"1988-06-13 10:00","1988","06","13","10:00","27.8","","9.9","","33","","25","","11","","32.2","","100.07","","29","","","","Mostly Cloudy"
"1988-06-13 11:00","1988","06","13","11:00","29.0","","10.5","","32","","23","","17","","32.2","","100.07","","31","","","","Mostly Cloudy"
"1988-06-13 12:00","1988","06","13","12:00","30.7","","10.5","","29","","26","","19","","24.1","","100.01","","32","","","","Cloudy"
"1988-06-13 13:00","1988","06","13","13:00","31.4","","10.2","","27","","21","","19","","24.1","","99.97","","33","","","","Cloudy"
"1988-06-13 14:00","1988","06","13","14:00","31.5","","9.2","","25","","25","","19","","24.1","","99.94","","32","","","","Cloudy"
"1988-06-13 15:00","1988","06","13","15:00","32.0","","10.1","","26","","26","","22","","24.1","","99.91","","33","","","","Cloudy"
"1988-06-13 16:00","1988","06","13","16:00","31.5","","10.2","","27","","27","","20","","32.2","","99.87","","33","","","","Cloudy"
"1988-06-13 17:00","1988","06","13","17:00","31.0","","9.9","","27","","26","","15","","32.2","","99.84","","32","","","","Cloudy"
"1988-06-13 18:00","1988","06","13","18:00","30.3","","9.1","","27","","29","","19","","32.2","","99.87","","31","","","","Cloudy"
"1988-06-13 19:00","1988","06","13","19:00","29.3","","10.4","","31","","23","","17","","32.2","","99.91","","31","","","","Cloudy"
"1988-06-13 20:00","1988","06","13","20:00","26.2","","11.0","","39","","21","","13","","32.2","","99.94","","28","","","","Cloudy"
"1988-06-13 21:00","1988","06","13","21:00","24.8","","10.9","","42","","23","","13","","24.1","","99.97","","27","","","","Mostly Cloudy"
"1988-06-13 22:00","1988","06","13","22:00","23.1","","10.8","","46","","24","","11","","25.0","","100.01","","25","","","","Mostly Cloudy"
"1988-06-13 23:00","1988","06","13","23:00","21.1","","11.0","","52","","25","","9","","19.3","","100.01","","","","","","Mostly Cloudy"
"1988-06-14 00:00","1988","06","14","00:00","19.9","","10.6","","55","","25","","7","","19.3","","100.01","","","","","","Mostly Cloudy"
"1988-06-14 01:00","1988","06","14","01:00","19.6","","10.8","","57","","24","","9","","19.3","","100.01","","","","","","Mainly Clear"
"1988-06-14 02:00","1988","06","14","02:00","18.7","","10.3","","58","","24","","9","","19.3","","100.01","","","","","","Clear"
"1988-06-14 03:00","1988","06","14","03:00","18.5","","10.3","","59","","25","","9","","16.1","","100.04","","","","","","Clear"
"1988-06-14 04:00","1988","06","14","04:00","17.9","","10.9","","64","","25","","9","","16.1","","100.04","","","","","","Mainly Clear"
"1988-06-14 05:00","1988","06","14","05:00","17.1","","10.9","","67","","26","","7","","19.3","","100.07","","","","","","Mostly Cloudy"
"1988-06-14 06:00","1988","06","14","06:00","18.9","","12.1","","65","","26","","7","","19.3","","100.11","","","","","","Mainly Clear"
"1988-06-14 07:00","1988","06","14","07:00","22.1","","12.7","","55","","26","","7","","19.3","","100.11","","25","","","","Mainly Clear"
"1988-06-14 08:00","1988","06","14","08:00","25.1","","14.1","","51","","26","","11","","19.3","","100.11","","29","","","","Mainly Clear"
"1988-06-14 09:00","1988","06","14","09:00","27.9","","14.1","","43","","25","","11","","19.3","","100.14","","31","","","","Clear"
"1988-06-14 10:00","1988","06","14","10:00","29.9","","14.5","","39","","26","","15","","19.3","","100.11","","34","","","","Clear"
"1988-06-14 11:00","1988","06","14","11:00","31.3","","14.9","","37","","25","","19","","32.2","","100.11","","35","","","","Clear"
"1988-06-14 12:00","1988","06","14","12:00","32.2","","14.0","","33","","29","","15","","32.2","","100.11","","36","","","","Clear"
"1988-06-14 13:00","1988","06","14","13:00","33.1","","13.8","","31","","25","","19","","32.2","","100.07","","36","","","","Clear"
"1988-06-14 14:00","1988","06","14","14:00","33.7","","13.3","","29","","24","","22","","32.2","","100.01","","37","","","","Mainly Clear"
"1988-06-14 15:00","1988","06","14","15:00","33.2","","12.5","","28","","25","","19","","24.1","","100.01","","36","","","","Clear"
"1988-06-14 16:00","1988","06","14","16:00","32.4","","12.6","","30","","26","","19","","24.1","","99.97","","35","","","","Clear"
"1988-06-14 17:00","1988","06","14","17:00","32.5","","12.2","","29","","25","","15","","24.1","","99.94","","35","","","","Clear"
"1988-06-14 18:00","1988","06","14","18:00","31.1","","12.6","","32","","27","","17","","24.1","","99.91","","34","","","","Clear"
"1988-06-14 19:00","1988","06","14","19:00","30.1","","12.8","","35","","23","","15","","24.1","","99.91","","33","","","","Clear"
"1988-06-14 20:00","1988","06","14","20:00","28.6","","12.8","","38","","22","","15","","19.3","","99.94","","31","","","","Clear"
"1988-06-14 21:00","1988","06","14","21:00","27.1","","12.4","","40","","22","","11","","19.3","","99.94","","30","","","","Clear"
"1988-06-14 22:00","1988","06","14","22:00","25.4","","12.4","","44","","22","","11","","19.3","","99.97","","28","","","","Clear"
"1988-06-14 23:00","1988","06","14","23:00","24.3","","11.9","","46","","23","","9","","16.1","","99.97","","27","","","","Clear"
"1988-06-15 00:00","1988","06","15","00:00","22.0","","12.3","","54","","25","","9","","16.1","","99.97","","","","","","Clear"
"1988-06-15 01:00","1988","06","15","01:00","20.0","","12.1","","60","","25","","9","","12.9","","99.97","","","","","","Clear"
"1988-06-15 02:00","1988","06","15","02:00","19.6","","11.9","","61","","25","","7","","12.9","","99.94","","","","","","Clear"
"1988-06-15 03:00","1988","06","15","03:00","20.1","","11.4","","57","","29","","11","","12.9","","99.91","","","","","","Clear"
"1988-06-15 04:00","1988","06","15","04:00","19.1","","11.7","","62","","25","","7","","16.1","","99.87","","","","","","Clear"
"1988-06-15 05:00","1988","06","15","05:00","17.8","","12.0","","69","","27","","7","","16.1","","99.87","","","","","","Mainly Clear"
"1988-06-15 06:00","1988","06","15","06:00","19.7","","11.9","","61","","24","","4","","16.1","","99.87","","","","","","Clear"
"1988-06-15 07:00","1988","06","15","07:00","22.1","","13.8","","59","","26","","4","","12.9","","99.87","","25","","","","Clear"
"1988-06-15 08:00","1988","06","15","08:00","25.3","","14.4","","51","","25","","17","","14.5","","99.87","","29","","","","Mainly Clear"
"1988-06-15 09:00","1988","06","15","09:00","27.6","","14.6","","45","","27","","13","","12.9","","99.81","","31","","","","Mainly Clear"
"1988-06-15 10:00","1988","06","15","10:00","29.4","","13.8","","39","","27","","17","","12.9","","99.81","","33","","","","Mainly Clear"
"1988-06-15 11:00","1988","06","15","11:00","31.0","","14.2","","36","","24","","19","","12.9","","99.77","","34","","","","Mainly Clear"
"1988-06-15 12:00","1988","06","15","12:00","31.8","","12.8","","31","","24","","24","","12.9","","99.71","","34","","","","Mainly Clear"
"1988-06-15 13:00","1988","06","15","13:00","32.7","","11.3","","27","","23","","28","","16.1","","99.64","","35","","","","Mainly Clear"
"1988-06-15 14:00","1988","06","15","14:00","32.2","","11.5","","28","","23","","22","","16.1","","99.57","","34","","","","Mainly Clear"
"1988-06-15 15:00","1988","06","15","15:00","32.3","","11.8","","29","","24","","26","","12.9","","99.51","","34","","","","Mainly Clear"
"1988-06-15 16:00","1988","06","15","16:00","32.0","","10.5","","27","","23","","22","","12.9","","99.47","","34","","","","Mainly Clear"
"1988-06-15 17:00","1988","06","15","17:00","31.4","","11.1","","29","","23","","20","","16.1","","99.41","","33","","","","Mostly Cloudy"
"1988-06-15 18:00","1988","06","15","18:00","30.4","","12.7","","34","","22","","20","","12.9","","99.37","","33","","","","Cloudy"
"1988-06-15 19:00","1988","06","15","19:00","29.4","","13.0","","37","","21","","22","","12.9","","99.34","","32","","","","Cloudy"
"1988-06-15 20:00","1988","06","15","20:00","25.0","","17.6","","64","","25","","11","","9.7","","99.47","","31","","","","Rain Showers,Haze"
"1988-06-15 21:00","1988","06","15","21:00","23.8","","15.8","","61","","29","","15","","12.9","","99.51","","28","","","","Cloudy"
"1988-06-15 22:00","1988","06","15","22:00","22.2","","15.5","","66","","30","","15","","12.9","","99.51","","26","","","","Mostly Cloudy"
"1988-06-15 23:00","1988","06","15","23:00","20.7","","17.8","","83","","33","","17","","12.9","","99.54","","27","","","","Rain Showers"
"1988-06-16 00:00","1988","06","16","00:00","19.8","","17.6","","87","","34","","11","","19.3","","99.54","","","","","","Mainly Clear"
"1988-06-16 01:00","1988","06","16","01:00","18.6","","15.0","","80","","33","","13","","19.3","","99.57","","","","","","Mostly Cloudy"
"1988-06-16 02:00","1988","06","16","02:00","18.2","","14.2","","78","","31","","11","","24.1","","99.57","","","","","","Mainly Clear"
"1988-06-16 03:00","1988","06","16","03:00","16.3","","11.8","","75","","30","","13","","25.0","","99.61","","","","","","Mainly Clear"
"1988-06-16 04:00","1988","06","16","04:00","14.2","","9.8","","75","","31","","7","","25.0","","99.61","","","","","","Mainly Clear"
"1988-06-16 05:00","1988","06","16","05:00","14.4","","9.2","","71","","33","","17","","40.2","","99.71","","","","","","Mostly Cloudy"
"1988-06-16 06:00","1988","06","16","06:00","14.3","","9.6","","74","","32","","15","","40.2","","99.77","","","","","","Mostly Cloudy"
"1988-06-16 07:00","1988","06","16","07:00","14.7","","9.2","","70","","34","","17","","40.2","","99.81","","","","","","Mostly Cloudy"
"1988-06-16 08:00","1988","06","16","08:00","16.0","","9.7","","66","","33","","15","","40.2","","99.84","","","","","","Mostly Cloudy"
"1988-06-16 09:00","1988","06","16","09:00","17.6","","10.3","","62","","33","","17","","40.2","","99.87","","","","","","Mainly Clear"
"1988-06-16 10:00","1988","06","16","10:00","18.3","","9.9","","58","","33","","13","","40.2","","99.87","","","","","","Mostly Cloudy"
"1988-06-16 11:00","1988","06","16","11:00","19.8","","8.9","","49","","32","","15","","40.2","","99.87","","","","","","Mostly Cloudy"
"1988-06-16 12:00","1988","06","16","12:00","19.6","","8.7","","49","","34","","17","","40.2","","99.87","","","","","","Mostly Cloudy"
"1988-06-16 13:00","1988","06","16","13:00","20.6","","8.7","","46","","35","","13","","40.2","","99.84","","","","","","Mostly Cloudy"
"1988-06-16 14:00","1988","06","16","14:00","21.3","","7.4","","41","","35","","17","","40.2","","99.77","","","","","","Mostly Cloudy"
"1988-06-16 15:00","1988","06","16","15:00","21.7","","6.4","","37","","35","","22","","40.2","","99.77","","","","","","Mostly Cloudy"
"1988-06-16 16:00","1988","06","16","16:00","20.4","","5.9","","39","","35","","17","","40.2","","99.77","","","","","","Mostly Cloudy"
"1988-06-16 17:00","1988","06","16","17:00","19.0","","5.7","","42","","35","","22","","40.2","","99.77","","","","","","Mostly Cloudy"
"1988-06-16 18:00","1988","06","16","18:00","17.4","","5.0","","44","","35","","17","","40.2","","99.77","","","","","","Mostly Cloudy"
"1988-06-16 19:00","1988","06","16","19:00","16.6","","3.6","","42","","35","","19","","40.2","","99.81","","","","","","Mostly Cloudy"
"1988-06-16 20:00","1988","06","16","20:00","15.8","","5.4","","50","","33","","19","","40.2","","99.81","","","","","","Mostly Cloudy"
"1988-06-16 21:00","1988","06","16","21:00","14.2","","5.6","","56","","35","","15","","25.0","","99.87","","","","","","Mostly Cloudy"
"1988-06-16 22:00","1988","06","16","22:00","12.1","","5.4","","63","","33","","15","","25.0","","99.87","","","","","","Mostly Cloudy"
"1988-06-16 23:00","1988","06","16","23:00","11.0","","5.1","","67","","33","","13","","25.0","","99.84","","","","","","Mainly Clear"
"1988-06-17 00:00","1988","06","17","00:00","9.9","","5.3","","73","","32","","13","","25.0","","99.84","","","","","","Clear"
"1988-06-17 01:00","1988","06","17","01:00","10.0","","5.3","","72","","32","","13","","25.0","","99.81","","","","","","Clear"
"1988-06-17 02:00","1988","06","17","02:00","10.1","","5.7","","74","","34","","15","","25.0","","99.81","","","","","","Clear"
"1988-06-17 03:00","1988","06","17","03:00","9.7","","6.0","","78","","34","","19","","25.0","","99.81","","","","","","Clear"
"1988-06-17 04:00","1988","06","17","04:00","9.4","","7.2","","86","","34","","17","","25.0","","99.81","","","","","","Clear"
"1988-06-17 05:00","1988","06","17","05:00","9.3","","7.2","","87","","34","","13","","40.2","","99.81","","","","","","Clear"
"1988-06-17 06:00","1988","06","17","06:00","10.6","","7.5","","81","","35","","15","","32.2","","99.87","","","","","","Clear"
"1988-06-17 07:00","1988","06","17","07:00","12.8","","8.7","","76","","35","","13","","32.2","","99.91","","","","","","Clear"
"1988-06-17 08:00","1988","06","17","08:00","15.0","","7.7","","62","","35","","11","","32.2","","99.91","","","","","","Clear"
"1988-06-17 09:00","1988","06","17","09:00","16.8","","8.9","","60","","35","","9","","40.2","","99.91","","","","","","Clear"
"1988-06-17 10:00","1988","06","17","10:00","18.3","","8.7","","54","","36","","7","","40.2","","99.87","","","","","","Mostly Cloudy"
"1988-06-17 11:00","1988","06","17","11:00","18.9","","8.5","","51","","12","","6","","32.2","","99.87","","","","","","Mostly Cloudy"
"1988-06-17 12:00","1988","06","17","12:00","19.5","","8.3","","48","","15","","13","","32.2","","99.84","","","","","","Mainly Clear"
"1988-06-17 13:00","1988","06","17","13:00","20.5","","8.3","","45","","20","","7","","40.2","","99.77","","","","","","Mainly Clear"
"1988-06-17 14:00","1988","06","17","14:00","21.1","","8.5","","44","","16","","11","","40.2","","99.77","","","","","","Mainly Clear"
"1988-06-17 15:00","1988","06","17","15:00","20.9","","8.9","","46","","17","","11","","40.2","","99.71","","","","","","Mainly Clear"
"1988-06-17 16:00","1988","06","17","16:00","22.0","","9.0","","43","","16","","11","","40.2","","99.71","","","","","","Mainly Clear"
"1988-06-17 17:00","1988","06","17","17:00","21.1","","8.1","","43","","19","","13","","40.2","","99.67","","","","","","Mainly Clear"
"1988-06-17 18:00","1988","06","17","18:00","20.3","","7.8","","44","","14","","13","","40.2","","99.64","","","","","","Clear"
"1988-06-17 19:00","1988","06","17","19:00","19.4","","6.9","","44","","15","","9","","40.2","","99.71","","","","","","Clear"
"1988-06-17 20:00","1988","06","17","20:00","18.6","","7.4","","48","","","","0","","40.2","","99.71","","","","","","Clear"
"1988-06-17 21:00","1988","06","17","21:00","16.3","","6.1","","51","","35","","11","","25.0","","99.77","","","","","","Clear"
"1988-06-17 22:00","1988","06","17","22:00","14.0","","5.6","","57","","34","","9","","25.0","","99.77","","","","","","Clear"
"1988-06-17 23:00","1988","06","17","23:00","13.6","","5.4","","58","","33","","11","","25.0","","99.81","","","","","","Mainly Clear"
"1988-06-18 00:00","1988","06","18","00:00","11.7","","5.7","","67","","32","","7","","25.0","","99.81","","","","","","Clear"
"1988-06-18 01:00","1988","06","18","01:00","9.2","","5.9","","80","","33","","6","","25.0","","99.81","","","","","","Clear"
"1988-06-18 02:00","1988","06","18","02:00","9.6","","5.6","","76","","33","","7","","25.0","","99.84","","","","","","Clear"
"1988-06-18 03:00","1988","06","18","03:00","9.4","","5.6","","77","","31","","7","","25.0","","99.87","","","","","","Clear"
"1988-06-18 04:00","1988","06","18","04:00","8.8","","5.4","","79","","33","","7","","25.0","","99.87","","","","","","Mainly Clear"
"1988-06-18 05:00","1988","06","18","05:00","8.5","","5.3","","80","","32","","6","","40.2","","99.91","","","","","","Mainly Clear"
"1988-06-18 06:00","1988","06","18","06:00","11.1","","6.0","","71","","33","","4","","40.2","","99.97","","","","","","Mainly Clear"
"1988-06-18 07:00","1988","06","18","07:00","13.9","","6.1","","59","","","","0","","40.2","","100.01","","","","","","Mainly Clear"
"1988-06-18 08:00","1988","06","18","08:00","16.5","","6.1","","50","","16","","4","","40.2","","100.04","","","","","","Mainly Clear"
"1988-06-18 09:00","1988","06","18","09:00","19.5","","7.4","","45","","","","0","","40.2","","100.04","","","","","","Mainly Clear"
"1988-06-18 10:00","1988","06","18","10:00","21.0","","5.1","","35","","26","","4","","40.2","","100.04","","","","","","Mainly Clear"
"1988-06-18 11:00","1988","06","18","11:00","22.4","","2.6","","27","","9","","4","","40.2","","100.07","","","","","","Mainly Clear"
"1988-06-18 12:00","1988","06","18","12:00","24.0","","3.5","","26","","31","","9","","40.2","","100.01","","","","","","Mainly Clear"
"1988-06-18 13:00","1988","06","18","13:00","25.1","","4.6","","27","","35","","9","","40.2","","99.97","","","","","","Mainly Clear"
"1988-06-18 14:00","1988","06","18","14:00","24.7","","6.0","","30","","17","","19","","40.2","","99.94","","","","","","Mainly Clear"
"1988-06-18 15:00","1988","06","18","15:00","24.9","","5.7","","29","","15","","17","","32.2","","99.91","","","","","","Mainly Clear"
"1988-06-18 16:00","1988","06","18","16:00","25.2","","4.6","","26","","16","","17","","32.2","","99.87","","","","","","Mainly Clear"
"1988-06-18 17:00","1988","06","18","17:00","24.4","","4.3","","27","","14","","17","","32.2","","99.84","","","","","","Mainly Clear"
"1988-06-18 18:00","1988","06","18","18:00","24.0","","4.6","","28","","17","","17","","32.2","","99.84","","","","","","Mainly Clear"
"1988-06-18 19:00","1988","06","18","19:00","23.8","","7.7","","36","","18","","17","","32.2","","99.84","","","","","","Mostly Cloudy"
"1988-06-18 20:00","1988","06","18","20:00","22.4","","6.9","","37","","18","","15","","32.2","","99.84","","","","","","Mostly Cloudy"
"1988-06-18 21:00","1988","06","18","21:00","21.4","","6.4","","38","","19","","15","","25.0","","99.87","","","","","","Mainly Clear"
"1988-06-18 22:00","1988","06","18","22:00","20.0","","6.2","","41","","18","","11","","25.0","","99.87","","","","","","Clear"
"1988-06-18 23:00","1988","06","18","23:00","19.3","","6.9","","45","","20","","4","","25.0","","99.87","","","","","","Clear"
"1988-06-19 00:00","1988","06","19","00:00","18.5","","6.0","","44","","21","","4","","25.0","","99.87","","","","","","Clear"
"1988-06-19 01:00","1988","06","19","01:00","18.0","","5.3","","43","","","","0","","25.0","","99.87","","","","","","Clear"
"1988-06-19 02:00","1988","06","19","02:00","17.4","","5.0","","44","","19","","4","","25.0","","99.87","","","","","","Clear"
"1988-06-19 03:00","1988","06","19","03:00","17.1","","4.3","","43","","17","","4","","25.0","","99.87","","","","","","Clear"
"1988-06-19 04:00","1988","06","19","04:00","15.9","","4.9","","48","","","","0","","25.0","","99.87","","","","","","Mostly Cloudy"
"1988-06-19 05:00","1988","06","19","05:00","17.1","","4.3","","43","","14","","4","","40.2","","99.87","","","","","","Mostly Cloudy"
"1988-06-19 06:00","1988","06","19","06:00","17.9","","7.2","","50","","17","","4","","40.2","","99.87","","","","","","Mostly Cloudy"
"1988-06-19 07:00","1988","06","19","07:00","18.5","","6.4","","45","","14","","7","","40.2","","99.87","","","","","","Mainly Clear"
"1988-06-19 08:00","1988","06","19","08:00","22.6","","8.8","","41","","20","","13","","40.2","","99.87","","","","","","Mostly Cloudy"
"1988-06-19 09:00","1988","06","19","09:00","24.8","","9.2","","37","","22","","17","","32.2","","99.84","","26","","","","Mostly Cloudy"
"1988-06-19 10:00","1988","06","19","10:00","26.6","","11.3","","38","","23","","20","","32.2","","99.81","","29","","","","Mostly Cloudy"
"1988-06-19 11:00","1988","06","19","11:00","28.6","","11.6","","35","","23","","20","","24.1","","99.77","","31","","","","Mostly Cloudy"
"1988-06-19 12:00","1988","06","19","12:00","29.4","","11.3","","33","","23","","19","","32.2","","99.74","","31","","","","Mostly Cloudy"
"1988-06-19 13:00","1988","06","19","13:00","30.6","","10.1","","28","","21","","17","","32.2","","99.67","","32","","","","Mostly Cloudy"
"1988-06-19 14:00","1988","06","19","14:00","31.1","","11.7","","30","","22","","19","","32.2","","99.64","","33","","","","Mostly Cloudy"
"1988-06-19 15:00","1988","06","19","15:00","31.7","","11.1","","28","","23","","17","","32.2","","99.57","","34","","","","Mostly Cloudy"
"1988-06-19 16:00","1988","06","19","16:00","30.9","","12.6","","33","","21","","19","","24.1","","99.54","","33","","","","Mainly Clear"
"1988-06-19 17:00","1988","06","19","17:00","30.6","","11.4","","31","","20","","20","","24.1","","99.47","","33","","","","Mainly Clear"
"1988-06-19 18:00","1988","06","19","18:00","30.0","","11.6","","32","","21","","20","","24.1","","99.47","","32","","","","Mainly Clear"
"1988-06-19 19:00","1988","06","19","19:00","28.8","","11.0","","33","","21","","19","","24.1","","99.47","","31","","","","Mainly Clear"
"1988-06-19 20:00","1988","06","19","20:00","26.1","","10.2","","37","","21","","15","","24.1","","99.47","","27","","","","Mainly Clear"
"1988-06-19 21:00","1988","06","19","21:00","25.7","","9.0","","35","","21","","17","","24.1","","99.47","","27","","","","Clear"
"1988-06-19 22:00","1988","06","19","22:00","24.6","","9.4","","38","","21","","15","","24.1","","99.47","","26","","","","Clear"
"1988-06-19 23:00","1988","06","19","23:00","24.1","","9.5","","40","","21","","17","","24.1","","99.47","","25","","","","Mainly Clear"
"1988-06-20 00:00","1988","06","20","00:00","24.4","","9.8","","40","","22","","19","","24.1","","99.47","","26","","","","Mostly Cloudy"
"1988-06-20 01:00","1988","06","20","01:00","23.8","","10.4","","43","","21","","9","","12.9","","99.47","","25","","","","Cloudy"
"1988-06-20 02:00","1988","06","20","02:00","23.2","","10.3","","44","","22","","11","","12.9","","99.44","","25","","","","Mostly Cloudy"
"1988-06-20 03:00","1988","06","20","03:00","22.3","","10.9","","49","","23","","11","","12.9","","99.37","","","","","","Mainly Clear"
"1988-06-20 04:00","1988","06","20","04:00","21.3","","11.3","","53","","22","","7","","12.9","","99.37","","","","","","Mostly Cloudy"
"1988-06-20 05:00","1988","06","20","05:00","21.3","","11.3","","53","","22","","7","","12.9","","99.34","","","","","","Cloudy"
"1988-06-20 06:00","1988","06","20","06:00","22.0","","11.1","","50","","22","","13","","24.1","","99.31","","","","","","Cloudy"
"1988-06-20 07:00","1988","06","20","07:00","22.3","","9.7","","45","","24","","11","","24.1","","99.34","","","","","","Mostly Cloudy"
"1988-06-20 08:00","1988","06","20","08:00","23.9","","12.1","","48","","24","","11","","24.1","","99.34","","26","","","","Mostly Cloudy"
"1988-06-20 09:00","1988","06","20","09:00","28.1","","12.9","","39","","25","","15","","19.3","","99.31","","31","","","","Mostly Cloudy"
"1988-06-20 10:00","1988","06","20","10:00","29.9","","14.1","","38","","24","","20","","19.3","","99.24","","33","","","","Mostly Cloudy"
"1988-06-20 11:00","1988","06","20","11:00","32.1","","14.8","","35","","26","","19","","16.1","","99.21","","36","","","","Mostly Cloudy"
"1988-06-20 12:00","1988","06","20","12:00","31.4","","15.3","","38","","24","","20","","16.1","","99.14","","36","","","","Mostly Cloudy"
"1988-06-20 13:00","1988","06","20","13:00","33.4","","16.1","","36","","25","","26","","16.1","","99.04","","38","","","","Mainly Clear"
"1988-06-20 14:00","1988","06","20","14:00","33.7","","17.9","","39","","27","","30","","16.1","","99.04","","40","","","","Mainly Clear"
"1988-06-20 15:00","1988","06","20","15:00","33.1","","18.7","","43","","26","","30","","19.3","","99.04","","40","","","","Mainly Clear"
"1988-06-20 16:00","1988","06","20","16:00","32.4","","18.1","","43","","27","","28","","16.1","","99.01","","38","","","","Mainly Clear"
"1988-06-20 17:00","1988","06","20","17:00","31.4","","19.3","","49","","30","","30","","12.9","","99.01","","38","","","","Mainly Clear"
"1988-06-20 18:00","1988","06","20","18:00","29.7","","18.2","","50","","29","","24","","16.1","","99.04","","36","","","","Clear"
"1988-06-20 19:00","1988","06","20","19:00","28.6","","14.4","","42","","30","","22","","32.2","","99.11","","32","","","","Mainly Clear"
"1988-06-20 20:00","1988","06","20","20:00","26.7","","10.9","","37","","30","","19","","32.2","","99.17","","28","","","","Mainly Clear"
"1988-06-20 21:00","1988","06","20","21:00","23.7","","9.3","","40","","31","","15","","25.0","","99.24","","25","","","","Mainly Clear"
"1988-06-20 22:00","1988","06","20","22:00","20.8","","9.8","","49","","29","","13","","25.0","","99.27","","","","","","Mainly Clear"
"1988-06-20 23:00","1988","06","20","23:00","20.0","","8.9","","49","","29","","15","","25.0","","99.31","","","","","","Mainly Clear"
"1988-06-21 00:00","1988","06","21","00:00","18.6","","7.8","","49","","29","","9","","25.0","","99.27","","","","","","Mainly Clear"
"1988-06-21 01:00","1988","06","21","01:00","17.8","","7.6","","51","","29","","7","","25.0","","99.31","","","","","","Mainly Clear"
"1988-06-21 02:00","1988","06","21","02:00","15.8","","8.5","","62","","32","","9","","25.0","","99.34","","","","","","Clear"
"1988-06-21 03:00","1988","06","21","03:00","14.9","","7.7","","62","","33","","11","","25.0","","99.34","","","","","","Clear"
"1988-06-21 04:00","1988","06","21","04:00","15.4","","8.3","","63","","33","","11","","25.0","","99.41","","","","","","Clear"
"1988-06-21 05:00","1988","06","21","05:00","16.0","","9.7","","66","","34","","9","","40.2","","99.47","","","","","","Clear"
"1988-06-21 06:00","1988","06","21","06:00","18.0","","10.9","","63","","32","","11","","40.2","","99.51","","","","","","Clear"
"1988-06-21 07:00","1988","06","21","07:00","19.6","","12.3","","63","","34","","6","","40.2","","99.54","","","","","","Mainly Clear"
"1988-06-21 08:00","1988","06","21","08:00","21.4","","12.4","","57","","35","","6","","40.2","","99.61","","","","","","Clear"
"1988-06-21 09:00","1988","06","21","09:00","23.9","","16.5","","63","","","","0","","40.2","","99.61","","29","","","","Mainly Clear"
"1988-06-21 10:00","1988","06","21","10:00","25.2","","10.1","","39","","23","","6","","40.2","","99.57","","27","","","","Mainly Clear"
"1988-06-21 11:00","1988","06","21","11:00","27.0","","10.3","","35","","3","","7","","40.2","","99.47","","28","","","","Mainly Clear"
"1988-06-21 12:00","1988","06","21","12:00","27.0","","11.1","","37","","13","","11","","40.2","","99.44","","29","","","","Mostly Cloudy"
"1988-06-21 13:00","1988","06","21","13:00","28.7","","11.1","","34","","17","","11","","40.2","","99.41","","31","","","","Mostly Cloudy"
"1988-06-21 14:00","1988","06","21","14:00","28.4","","10.2","","32","","13","","19","","32.2","","99.34","","30","","","","Mostly Cloudy"
"1988-06-21 15:00","1988","06","21","15:00","29.6","","9.4","","28","","14","","17","","24.1","","99.31","","31","","","","Mostly Cloudy"
"1988-06-21 16:00","1988","06","21","16:00","29.9","","9.7","","29","","16","","20","","24.1","","99.24","","31","","","","Cloudy"
"1988-06-21 17:00","1988","06","21","17:00","28.1","","9.0","","30","","15","","17","","24.1","","99.17","","29","","","","Mostly Cloudy"
"1988-06-21 18:00","1988","06","21","18:00","27.0","","10.3","","35","","16","","13","","24.1","","99.14","","28","","","","Cloudy"
"1988-06-21 19:00","1988","06","21","19:00","26.1","","9.7","","36","","16","","13","","24.1","","99.11","","27","","","","Cloudy"
"1988-06-21 20:00","1988","06","21","20:00","25.6","","10.3","","38","","18","","11","","24.1","","99.04","","27","","","","Mostly Cloudy"
"1988-06-21 21:00","1988","06","21","21:00","25.0","","9.6","","38","","18","","9","","24.1","","99.07","","26","","","","Mainly Clear"
"1988-06-21 22:00","1988","06","21","22:00","23.9","","8.6","","38","","20","","7","","24.1","","99.04","","25","","","","Mostly Cloudy"
"1988-06-21 23:00","1988","06","21","23:00","24.1","","9.1","","39","","20","","7","","24.1","","99.01","","25","","","","Thunderstorms"
"1988-06-22 00:00","1988","06","22","00:00","21.0","","16.1","","74","","14","","7","","19.3","","98.87","","26","","","","Thunderstorms"
"1988-06-22 01:00","1988","06","22","01:00","20.1","","16.7","","81","","17","","7","","16.1","","98.77","","25","","","","Mostly Cloudy"
"1988-06-22 02:00","1988","06","22","02:00","20.3","","16.5","","79","","18","","7","","11.3","","98.74","","25","","","","Rain Showers"
"1988-06-22 03:00","1988","06","22","03:00","19.4","","15.8","","80","","34","","20","","11.3","","98.91","","","","","","Rain Showers"
"1988-06-22 04:00","1988","06","22","04:00","19.4","","17.7","","90","","4","","13","","8.0","","98.84","","","","","","Thunderstorms,Rain Showers,Fog"
"1988-06-22 05:00","1988","06","22","05:00","20.1","","18.2","","89","","15","","7","","8.0","","98.67","","26","","","","Thunderstorms,Fog"
"1988-06-22 06:00","1988","06","22","06:00","18.7","","16.0","","84","","15","","15","","8.0","","98.64","","","","","","Haze"
"1988-06-22 07:00","1988","06","22","07:00","20.1","","16.7","","81","","18","","13","","9.7","","98.67","","25","","","","Haze"
"1988-06-22 08:00","1988","06","22","08:00","22.0","","15.5","","67","","20","","9","","19.3","","98.64","","26","","","","Cloudy"
"1988-06-22 09:00","1988","06","22","09:00","22.7","","16.4","","68","","25","","11","","12.9","","98.61","","28","","","","Cloudy"
"1988-06-22 10:00","1988","06","22","10:00","25.1","","17.9","","64","","24","","19","","12.9","","98.54","","31","","","","Cloudy"
"1988-06-22 11:00","1988","06","22","11:00","27.2","","16.9","","53","","26","","35","","32.2","","98.51","","32","","","","Cloudy"
"1988-06-22 12:00","1988","06","22","12:00","26.1","","17.8","","60","","27","","26","","40.2","","98.54","","32","","","","Cloudy"
"1988-06-22 13:00","1988","06","22","13:00","26.2","","16.7","","56","","25","","13","","40.2","","98.41","","31","","","","Cloudy"
"1988-06-22 14:00","1988","06","22","14:00","27.2","","17.2","","54","","23","","17","","40.2","","98.34","","33","","","","Mostly Cloudy"
"1988-06-22 15:00","1988","06","22","15:00","28.8","","17.2","","50","","24","","22","","40.2","","98.34","","34","","","","Mostly Cloudy"
"1988-06-22 16:00","1988","06","22","16:00","30.3","","17.0","","45","","26","","31","","24.1","","98.34","","36","","","","Mostly Cloudy"
"1988-06-22 17:00","1988","06","22","17:00","28.7","","17.0","","49","","27","","20","","32.2","","98.31","","34","","","","Rain Showers"
"1988-06-22 18:00","1988","06","22","18:00","24.5","","20.2","","77","","28","","11","","19.3","","98.34","","32","","","","Cloudy"
"1988-06-22 19:00","1988","06","22","19:00","25.3","","20.1","","73","","29","","26","","16.1","","98.34","","33","","","","Mostly Cloudy"
"1988-06-22 20:00","1988","06","22","20:00","22.3","","20.5","","90","","30","","15","","11.3","","98.41","","30","","","","Rain Showers"
"1988-06-22 21:00","1988","06","22","21:00","21.5","","19.5","","88","","30","","19","","16.1","","98.44","","29","","","","Mainly Clear"
"1988-06-22 22:00","1988","06","22","22:00","21.4","","19.5","","89","","31","","22","","16.1","","98.54","","29","","","","Mainly Clear"
"1988-06-22 23:00","1988","06","22","23:00","20.0","","17.6","","86","","33","","19","","16.1","","98.64","","26","","","","Mainly Clear"
"1988-06-23 00:00","1988","06","23","00:00","18.6","","15.7","","83","","33","","22","","16.1","","98.74","","","","","","Mainly Clear"
"1988-06-23 01:00","1988","06","23","01:00","17.6","","15.0","","85","","34","","22","","16.1","","98.81","","","","","","Clear"
"1988-06-23 02:00","1988","06","23","02:00","16.9","","13.1","","78","","34","","19","","19.3","","98.94","","","","","","Clear"
"1988-06-23 03:00","1988","06","23","03:00","15.1","","11.6","","80","","33","","13","","24.1","","99.04","","","","","","Clear"
"1988-06-23 04:00","1988","06","23","04:00","14.6","","11.1","","80","","34","","19","","25.0","","99.11","","","","","","Clear"
"1988-06-23 05:00","1988","06","23","05:00","13.8","","10.9","","83","","32","","13","","40.2","","99.24","","","","","","Clear"
"1988-06-23 06:00","1988","06","23","06:00","15.0","","12.3","","84","","32","","11","","40.2","","99.37","","","","","","Clear"
"1988-06-23 07:00","1988","06","23","07:00","15.8","","10.5","","71","","33","","19","","40.2","","99.47","","","","","","Clear"
"1988-06-23 08:00","1988","06","23","08:00","16.6","","9.5","","63","","35","","19","","40.2","","99.54","","","","","","Mainly Clear"
"1988-06-23 09:00","1988","06","23","09:00","17.6","","8.3","","54","","33","","24","","40.2","","99.57","","","","","","Mainly Clear"
"1988-06-23 10:00","1988","06","23","10:00","18.5","","7.8","","50","","34","","24","","40.2","","99.64","","","","","","Mainly Clear"
"1988-06-23 11:00","1988","06","23","11:00","18.5","","6.9","","47","","33","","20","","40.2","","99.71","","","","","","Mainly Clear"
"1988-06-23 12:00","1988","06","23","12:00","18.7","","5.5","","42","","33","","13","","40.2","","99.71","","","","","","Mainly Clear"
"1988-06-23 13:00","1988","06","23","13:00","19.6","","6.9","","44","","34","","20","","40.2","","99.74","","","","","","Mostly Cloudy"
"1988-06-23 14:00","1988","06","23","14:00","19.7","","6.9","","43","","34","","19","","40.2","","99.77","","","","","","Mainly Clear"
"1988-06-23 15:00","1988","06","23","15:00","20.2","","6.2","","40","","31","","15","","40.2","","99.81","","","","","","Mostly Cloudy"
"1988-06-23 16:00","1988","06","23","16:00","19.4","","6.4","","43","","34","","13","","40.2","","99.84","","","","","","Mostly Cloudy"
"1988-06-23 17:00","1988","06","23","17:00","18.4","","4.5","","40","","36","","17","","40.2","","99.87","","","","","","Mostly Cloudy"
"1988-06-23 18:00","1988","06","23","18:00","16.8","","3.8","","42","","36","","19","","40.2","","99.87","","","","","","Mostly Cloudy"
"1988-06-23 19:00","1988","06","23","19:00","15.8","","2.3","","40","","34","","17","","40.2","","99.91","","","","","","Mostly Cloudy"
"1988-06-23 20:00","1988","06","23","20:00","14.0","","1.0","","41","","33","","15","","40.2","","99.91","","","","","","Mostly Cloudy"
"1988-06-23 21:00","1988","06","23","21:00","11.2","","2.2","","54","","32","","9","","25.0","","100.01","","","","","","Mostly Cloudy"
"1988-06-23 22:00","1988","06","23","22:00","10.1","","2.4","","59","","32","","11","","25.0","","100.04","","","","","","Mainly Clear"
"1988-06-23 23:00","1988","06","23","23:00","10.0","","3.4","","63","","33","","11","","24.1","","100.07","","","","","","Mainly Clear"
"1988-06-24 00:00","1988","06","24","00:00","9.3","","3.3","","66","","34","","11","","24.1","","100.11","","","","","","Mainly Clear"
"1988-06-24 01:00","1988","06","24","01:00","8.7","","4.0","","72","","31","","7","","25.0","","100.17","","","","","","Mostly Cloudy"
"1988-06-24 02:00","1988","06","24","02:00","9.1","","4.5","","73","","32","","7","","25.0","","100.14","","","","","","Mostly Cloudy"
"1988-06-24 03:00","1988","06","24","03:00","10.9","","5.1","","67","","34","","7","","25.0","","100.14","","","","","","Mostly Cloudy"
"1988-06-24 04:00","1988","06","24","04:00","10.0","","5.7","","75","","34","","6","","25.0","","100.11","","","","","","Mostly Cloudy"
"1988-06-24 05:00","1988","06","24","05:00","10.1","","5.7","","74","","36","","4","","40.2","","100.17","","","","","","Mainly Clear"
"1988-06-24 06:00","1988","06","24","06:00","12.7","","5.5","","61","","1","","4","","40.2","","100.17","","","","","","Mostly Cloudy"
"1988-06-24 07:00","1988","06","24","07:00","14.3","","9.2","","72","","12","","11","","32.2","","100.27","","","","","","Mostly Cloudy"
"1988-06-24 08:00","1988","06","24","08:00","14.7","","8.4","","66","","12","","17","","40.2","","100.31","","","","","","Mostly Cloudy"
"1988-06-24 09:00","1988","06","24","09:00","16.2","","5.4","","49","","15","","13","","40.2","","100.31","","","","","","Mostly Cloudy"
"1988-06-24 10:00","1988","06","24","10:00","17.5","","6.5","","48","","17","","13","","40.2","","100.27","","","","","","Mainly Clear"
"1988-06-24 11:00","1988","06","24","11:00","18.7","","2.8","","35","","15","","9","","40.2","","100.27","","","","","","Mainly Clear"
"1988-06-24 12:00","1988","06","24","12:00","19.1","","3.1","","35","","11","","11","","40.2","","100.21","","","","","","Mostly Cloudy"
"1988-06-24 13:00","1988","06","24","13:00","20.0","","2.4","","31","","3","","6","","40.2","","100.17","","","","","","Mostly Cloudy"
"1988-06-24 14:00","1988","06","24","14:00","21.0","","3.5","","32","","13","","6","","40.2","","100.11","","","","","","Mostly Cloudy"
"1988-06-24 15:00","1988","06","24","15:00","21.6","","4.3","","32","","14","","15","","40.2","","100.01","","","","","","Mostly Cloudy"
"1988-06-24 16:00","1988","06","24","16:00","19.3","","4.4","","37","","13","","17","","40.2","","99.97","","","","","","Mostly Cloudy"
"1988-06-24 17:00","1988","06","24","17:00","18.2","","3.7","","38","","13","","20","","40.2","","99.94","","","","","","Mainly Clear"
"1988-06-24 18:00","1988","06","24","18:00","16.9","","4.3","","43","","11","","17","","40.2","","99.91","","","","","","Mostly Cloudy"
"1988-06-24 19:00","1988","06","24","19:00","16.4","","4.1","","44","","12","","15","","40.2","","99.84","","","","","","Mostly Cloudy"
"1988-06-24 20:00","1988","06","24","20:00","16.4","","5.6","","49","","9","","13","","40.2","","99.84","","","","","","Mostly Cloudy"
"1988-06-24 21:00","1988","06","24","21:00","15.6","","7.0","","57","","12","","15","","24.1","","99.81","","","","","","Rain Showers"
"1988-06-24 22:00","1988","06","24","22:00","16.2","","5.9","","50","","12","","17","","25.0","","99.77","","","","","","Cloudy"
"1988-06-24 23:00","1988","06","24","23:00","15.4","","9.1","","66","","13","","11","","25.0","","99.74","","","","","","Cloudy"
"1988-06-25 00:00","1988","06","25","00:00","15.9","","10.9","","72","","12","","9","","25.0","","99.54","","","","","","Mostly Cloudy"
"1988-06-25 01:00","1988","06","25","01:00","15.7","","10.7","","72","","14","","7","","25.0","","99.51","","","","","","Cloudy"
"1988-06-25 02:00","1988","06","25","02:00","15.6","","10.7","","73","","11","","6","","25.0","","99.41","","","","","","Mostly Cloudy"
"1988-06-25 03:00","1988","06","25","03:00","15.6","","10.3","","71","","11","","6","","25.0","","99.34","","","","","","Mainly Clear"
"1988-06-25 04:00","1988","06","25","04:00","15.3","","11.1","","76","","15","","4","","25.0","","99.31","","","","","","Mainly Clear"
"1988-06-25 05:00","1988","06","25","05:00","14.5","","11.1","","80","","13","","4","","32.2","","99.21","","","","","","Mostly Cloudy"
"1988-06-25 06:00","1988","06","25","06:00","15.1","","11.3","","78","","14","","7","","32.2","","99.14","","","","","","Cloudy"
"1988-06-25 07:00","1988","06","25","07:00","16.4","","12.9","","80","","14","","15","","32.2","","98.91","","","","","","Cloudy"
"1988-06-25 08:00","1988","06","25","08:00","18.8","","12.8","","68","","17","","13","","24.1","","98.84","","","","","","Cloudy"
"1988-06-25 09:00","1988","06","25","09:00","24.8","","11.8","","44","","20","","19","","24.1","","98.67","","27","","","","Cloudy"
"1988-06-25 10:00","1988","06","25","10:00","28.0","","13.7","","42","","21","","19","","24.1","","98.54","","31","","","","Cloudy"
"1988-06-25 11:00","1988","06","25","11:00","30.7","","15.1","","39","","22","","37","","19.3","","98.34","","35","","","","Mostly Cloudy"
"1988-06-25 12:00","1988","06","25","12:00","33.6","","16.9","","37","","24","","33","","19.3","","98.24","","39","","","","Cloudy"
"1988-06-25 13:00","1988","06","25","13:00","35.5","","17.7","","35","","23","","33","","16.1","","98.07","","41","","","","Cloudy"
"1988-06-25 14:00","1988","06","25","14:00","36.0","","17.2","","33","","23","","39","","12.9","","98.01","","41","","","","Mostly Cloudy"
"1988-06-25 15:00","1988","06","25","15:00","35.0","","18.1","","37","","24","","28","","12.9","","97.94","","41","","","","Mostly Cloudy"
"1988-06-25 16:00","1988","06","25","16:00","29.7","","17.9","","49","","32","","41","","12.9","","98.07","","36","","","","Mostly Cloudy"
"1988-06-25 17:00","1988","06","25","17:00","27.0","","12.8","","41","","31","","37","","32.2","","98.21","","30","","","","Mainly Clear"
"1988-06-25 18:00","1988","06","25","18:00","25.5","","12.0","","43","","30","","35","","40.2","","98.31","","28","","","","Mainly Clear"
"1988-06-25 19:00","1988","06","25","19:00","24.3","","11.5","","45","","30","","31","","40.2","","98.34","","26","","","","Mainly Clear"
"1988-06-25 20:00","1988","06","25","20:00","22.6","","11.3","","49","","30","","35","","40.2","","98.41","","25","","","","Clear"
"1988-06-25 21:00","1988","06","25","21:00","20.0","","11.4","","58","","30","","33","","25.0","","98.47","","","","","","Clear"
"1988-06-25 22:00","1988","06","25","22:00","17.8","","10.1","","61","","32","","22","","25.0","","98.54","","","","","","Clear"
"1988-06-25 23:00","1988","06","25","23:00","16.3","","9.5","","64","","31","","30","","25.0","","98.61","","","","","","Clear"
"1988-06-26 00:00","1988","06","26","00:00","15.0","","10.1","","73","","31","","20","","25.0","","98.61","","","","","","Mostly Cloudy"
"1988-06-26 01:00","1988","06","26","01:00","15.6","","9.9","","69","","29","","20","","25.0","","98.64","","","","","","Cloudy"
"1988-06-26 02:00","1988","06","26","02:00","15.5","","10.3","","71","","29","","15","","25.0","","98.71","","","","","","Cloudy"
"1988-06-26 03:00","1988","06","26","03:00","15.4","","10.7","","74","","30","","17","","25.0","","98.71","","","","","","Cloudy"
"1988-06-26 04:00","1988","06","26","04:00","15.0","","10.5","","74","","30","","19","","25.0","","98.74","","","","","","Cloudy"
"1988-06-26 05:00","1988","06","26","05:00","14.7","","10.0","","73","","29","","19","","40.2","","98.81","","","","","","Cloudy"
"1988-06-26 06:00","1988","06","26","06:00","15.0","","9.0","","67","","31","","24","","40.2","","98.87","","","","","","Cloudy"
"1988-06-26 07:00","1988","06","26","07:00","15.5","","9.1","","66","","31","","24","","40.2","","98.87","","","","","","Mostly Cloudy"
"1988-06-26 08:00","1988","06","26","08:00","15.9","","9.3","","65","","33","","28","","40.2","","98.91","","","","","","Mostly Cloudy"
"1988-06-26 09:00","1988","06","26","09:00","16.6","","8.7","","60","","33","","24","","40.2","","98.94","","","","","","Mostly Cloudy"
"1988-06-26 10:00","1988","06","26","10:00","16.2","","8.1","","59","","33","","26","","40.2","","99.01","","","","","","Mostly Cloudy"
"1988-06-26 11:00","1988","06","26","11:00","18.6","","6.4","","45","","35","","28","","40.2","","99.04","","","","","","Mostly Cloudy"
"1988-06-26 12:00","1988","06","26","12:00","17.9","","6.7","","48","","33","","24","","40.2","","99.11","","","","","","Mostly Cloudy"
"1988-06-26 13:00","1988","06","26","13:00","19.1","","7.6","","47","","33","","26","","40.2","","99.11","","","","","","Mainly Clear"
"1988-06-26 14:00","1988","06","26","14:00","19.6","","7.4","","45","","35","","24","","40.2","","99.14","","","","","","Mostly Cloudy"
"1988-06-26 15:00","1988","06","26","15:00","20.3","","7.8","","44","","35","","19","","40.2","","99.21","","","","","","Mostly Cloudy"
"1988-06-26 16:00","1988","06","26","16:00","20.0","","7.1","","43","","34","","22","","40.2","","99.21","","","","","","Mostly Cloudy"
"1988-06-26 17:00","1988","06","26","17:00","20.6","","7.4","","42","","33","","22","","40.2","","99.17","","","","","","Mainly Clear"
"1988-06-26 18:00","1988","06","26","18:00","20.6","","6.9","","41","","34","","28","","40.2","","99.21","","","","","","Mainly Clear"
"1988-06-26 19:00","1988","06","26","19:00","20.2","","5.7","","39","","33","","22","","40.2","","99.21","","","","","","Mostly Cloudy"
"1988-06-26 20:00","1988","06","26","20:00","19.3","","5.9","","42","","33","","15","","40.2","","99.24","","","","","","Mainly Clear"
"1988-06-26 21:00","1988","06","26","21:00","17.3","","6.0","","47","","32","","11","","25.0","","99.31","","","","","","Mainly Clear"
"1988-06-26 22:00","1988","06","26","22:00","15.6","","7.0","","57","","32","","11","","25.0","","99.34","","","","","","Mainly Clear"
"1988-06-26 23:00","1988","06","26","23:00","14.0","","7.4","","64","","32","","11","","25.0","","99.34","","","","","","Mainly Clear"
"1988-06-27 00:00","1988","06","27","00:00","13.6","","6.3","","61","","32","","11","","25.0","","99.34","","","","","","Clear"
"1988-06-27 01:00","1988","06","27","01:00","13.2","","5.7","","60","","33","","11","","25.0","","99.34","","","","","","Clear"
"1988-06-27 02:00","1988","06","27","02:00","13.1","","5.3","","59","","33","","13","","25.0","","99.41","","","","","","Clear"
"1988-06-27 03:00","1988","06","27","03:00","12.4","","5.5","","63","","34","","13","","25.0","","99.41","","","","","","Clear"
"1988-06-27 04:00","1988","06","27","04:00","11.8","","5.8","","67","","34","","15","","25.0","","99.41","","","","","","Clear"
"1988-06-27 05:00","1988","06","27","05:00","11.2","","5.5","","68","","34","","11","","40.2","","99.44","","","","","","Clear"
"1988-06-27 06:00","1988","06","27","06:00","12.9","","6.6","","66","","33","","13","","40.2","","99.44","","","","","","Clear"
"1988-06-27 07:00","1988","06","27","07:00","15.7","","6.1","","53","","34","","17","","40.2","","99.47","","","","","","Clear"
"1988-06-27 08:00","1988","06","27","08:00","17.4","","6.9","","50","","34","","13","","40.2","","99.51","","","","","","Clear"
"1988-06-27 09:00","1988","06","27","09:00","17.7","","6.0","","46","","34","","11","","40.2","","99.57","","","","","","Clear"
"1988-06-27 10:00","1988","06","27","10:00","20.1","","5.2","","38","","32","","15","","40.2","","99.57","","","","","","Clear"
"1988-06-27 11:00","1988","06","27","11:00","21.4","","4.9","","34","","33","","20","","40.2","","99.51","","","","","","Clear"
"1988-06-27 12:00","1988","06","27","12:00","21.4","","3.8","","31","","32","","15","","40.2","","99.51","","","","","","Clear"
"1988-06-27 13:00","1988","06","27","13:00","22.6","","0.7","","23","","35","","19","","40.2","","99.47","","","","","","Mainly Clear"
"1988-06-27 14:00","1988","06","27","14:00","22.4","","0.0","","23","","32","","20","","40.2","","99.47","","","","","","Mainly Clear"
"1988-06-27 15:00","1988","06","27","15:00","22.3","","0.0","","23","","34","","22","","40.2","","99.44","","","","","","Mainly Clear"
"1988-06-27 16:00","1988","06","27","16:00","22.6","","-2.2","","19","","35","","19","","40.2","","99.41","","","","","","Mainly Clear"
"1988-06-27 17:00","1988","06","27","17:00","22.2","","-0.3","","22","","33","","20","","40.2","","99.34","","","","","","Mainly Clear"
"1988-06-27 18:00","1988","06","27","18:00","21.5","","1.4","","26","","33","","17","","40.2","","99.34","","","","","","Mainly Clear"
"1988-06-27 19:00","1988","06","27","19:00","20.9","","1.7","","28","","34","","13","","40.2","","99.34","","","","","","Mainly Clear"
"1988-06-27 20:00","1988","06","27","20:00","18.4","","1.7","","33","","34","","13","","40.2","","99.34","","","","","","Mainly Clear"
"1988-06-27 21:00","1988","06","27","21:00","17.1","","1.0","","34","","34","","7","","25.0","","99.41","","","","","","Mainly Clear"
"1988-06-27 22:00","1988","06","27","22:00","13.6","","3.0","","49","","32","","9","","25.0","","99.41","","","","","","Mainly Clear"
"1988-06-27 23:00","1988","06","27","23:00","14.7","","2.8","","45","","28","","4","","25.0","","99.41","","","","","","Clear"
"1988-06-28 00:00","1988","06","28","00:00","14.0","","5.1","","55","","25","","4","","25.0","","99.37","","","","","","Clear"
"1988-06-28 01:00","1988","06","28","01:00","12.5","","4.6","","59","","25","","4","","25.0","","99.31","","","","","","Clear"
"1988-06-28 02:00","1988","06","28","02:00","11.0","","3.7","","61","","27","","4","","25.0","","99.27","","","","","","Clear"
"1988-06-28 03:00","1988","06","28","03:00","11.5","","2.3","","53","","25","","4","","25.0","","99.21","","","","","","Clear"
"1988-06-28 04:00","1988","06","28","04:00","11.5","","1.3","","49","","24","","6","","25.0","","99.21","","","","","","Clear"
"1988-06-28 05:00","1988","06","28","05:00","11.4","","2.3","","53","","26","","4","","40.2","","99.21","","","","","","Clear"
"1988-06-28 06:00","1988","06","28","06:00","13.9","","5.1","","55","","","","0","","40.2","","99.21","","","","","","Mainly Clear"
"1988-06-28 07:00","1988","06","28","07:00","17.0","","4.8","","44","","25","","15","","40.2","","99.21","","","","","","Mostly Cloudy"
"1988-06-28 08:00","1988","06","28","08:00","18.5","","5.5","","42","","25","","17","","40.2","","99.21","","","","","","Mostly Cloudy"
"1988-06-28 09:00","1988","06","28","09:00","20.0","","5.2","","38","","25","","20","","40.2","","99.14","","","","","","Mostly Cloudy"
"1988-06-28 10:00","1988","06","28","10:00","23.3","","5.9","","33","","24","","20","","40.2","","99.07","","","","","","Mostly Cloudy"
"1988-06-28 11:00","1988","06","28","11:00","24.1","","6.7","","33","","26","","22","","32.2","","99.01","","","","","","Mostly Cloudy"
"1988-06-28 12:00","1988","06","28","12:00","25.2","","7.3","","32","","27","","28","","40.2","","98.94","","25","","","","Mostly Cloudy"
"1988-06-28 13:00","1988","06","28","13:00","25.3","","9.0","","36","","28","","26","","40.2","","98.91","","26","","","","Mostly Cloudy"
"1988-06-28 14:00","1988","06","28","14:00","24.0","","9.5","","40","","30","","31","","40.2","","98.94","","25","","","","Mostly Cloudy"
"1988-06-28 15:00","1988","06","28","15:00","21.1","","12.6","","58","","36","","20","","40.2","","98.97","","","","","","Mostly Cloudy"
"1988-06-28 16:00","1988","06","28","16:00","16.8","","14.4","","86","","33","","24","","32.2","","99.07","","","","","","Rain Showers"
"1988-06-28 17:00","1988","06","28","17:00","16.2","","12.3","","77","","33","","28","","40.2","","99.11","","","","","","Mostly Cloudy"
"1988-06-28 18:00","1988","06","28","18:00","18.0","","4.8","","42","","34","","28","","40.2","","99.17","","","","","","Mainly Clear"
"1988-06-28 19:00","1988","06","28","19:00","17.5","","3.5","","39","","33","","20","","40.2","","99.24","","","","","","Clear"
"1988-06-28 20:00","1988","06","28","20:00","14.9","","3.0","","45","","31","","17","","40.2","","99.31","","","","","","Clear"
"1988-06-28 21:00","1988","06","28","21:00","12.6","","1.6","","47","","32","","15","","25.0","","99.34","","","","","","Clear"
"1988-06-28 22:00","1988","06","28","22:00","11.5","","1.8","","51","","33","","15","","25.0","","99.37","","","","","","Clear"
"1988-06-28 23:00","1988","06","28","23:00","10.1","","2.4","","59","","33","","15","","25.0","","99.41","","","","","","Clear"
"1988-06-29 00:00","1988","06","29","00:00","9.0","","3.6","","69","","34","","17","","25.0","","99.41","","","","","","Clear"
"1988-06-29 01:00","1988","06","29","01:00","7.2","","3.6","","78","","34","","7","","25.0","","99.47","","","","","","Clear"
"1988-06-29 02:00","1988","06","29","02:00","6.1","","3.4","","83","","32","","7","","25.0","","99.47","","","","","","Clear"
"1988-06-29 03:00","1988","06","29","03:00","6.4","","3.5","","82","","32","","7","","25.0","","99.44","","","","","","Clear"
"1988-06-29 04:00","1988","06","29","04:00","6.3","","2.6","","77","","27","","4","","25.0","","99.44","","","","","","Clear"
"1988-06-29 05:00","1988","06","29","05:00","5.1","","2.4","","83","","29","","4","","40.2","","99.44","","","","","","Clear"
"1988-06-29 06:00","1988","06","29","06:00","8.0","","4.3","","77","","32","","4","","40.2","","99.44","","","","","","Clear"
"1988-06-29 07:00","1988","06","29","07:00","12.4","","3.2","","54","","29","","13","","40.2","","99.41","","","","","","Clear"
"1988-06-29 08:00","1988","06","29","08:00","14.7","","1.2","","40","","29","","22","","40.2","","99.34","","","","","","Clear"
"1988-06-29 09:00","1988","06","29","09:00","15.5","","2.7","","42","","29","","26","","40.2","","99.31","","","","","","Mainly Clear"
"1988-06-29 10:00","1988","06","29","10:00","16.7","","3.1","","40","","28","","24","","40.2","","99.27","","","","","","Mostly Cloudy"
"1988-06-29 11:00","1988","06","29","11:00","17.5","","2.9","","38","","28","","22","","40.2","","99.24","","","","","","Mostly Cloudy"
"1988-06-29 12:00","1988","06","29","12:00","17.3","","2.9","","38","","30","","26","","40.2","","99.11","","","","","","Mostly Cloudy"
"1988-06-29 13:00","1988","06","29","13:00","19.3","","4.4","","37","","28","","31","","40.2","","99.07","","","","","","Mostly Cloudy"
"1988-06-29 14:00","1988","06","29","14:00","17.0","","5.3","","46","","34","","26","","40.2","","99.11","","","","","","Mostly Cloudy"
"1988-06-29 15:00","1988","06","29","15:00","19.1","","5.2","","40","","31","","22","","40.2","","99.04","","","","","","Mostly Cloudy"
"1988-06-29 16:00","1988","06","29","16:00","17.6","","5.0","","43","","34","","22","","40.2","","99.11","","","","","","Mostly Cloudy"
"1988-06-29 17:00","1988","06","29","17:00","16.9","","5.8","","48","","33","","19","","40.2","","99.11","","","","","","Mostly Cloudy"
"1988-06-29 18:00","1988","06","29","18:00","16.3","","6.5","","52","","30","","17","","40.2","","99.11","","","","","","Mostly Cloudy"
"1988-06-29 19:00","1988","06","29","19:00","15.9","","6.3","","53","","30","","28","","40.2","","99.14","","","","","","Mostly Cloudy"
"1988-06-29 20:00","1988","06","29","20:00","15.6","","5.7","","52","","29","","17","","25.0","","99.14","","","","","","Mostly Cloudy"
"1988-06-29 21:00","1988","06","29","21:00","15.1","","6.4","","56","","29","","17","","25.0","","99.11","","","","","","Mostly Cloudy"
"1988-06-29 22:00","1988","06","29","22:00","15.1","","5.5","","53","","30","","13","","25.0","","99.07","","","","","","Cloudy"
"1988-06-29 23:00","1988","06","29","23:00","14.3","","6.7","","60","","31","","22","","25.0","","99.04","","","","","","Mostly Cloudy"
"1988-06-30 00:00","1988","06","30","00:00","14.0","","7.4","","64","","29","","20","","25.0","","98.97","","","","","","Cloudy"
"1988-06-30 01:00","1988","06","30","01:00","13.0","","8.3","","73","","31","","22","","25.0","","98.94","","","","","","Rain Showers"
"1988-06-30 02:00","1988","06","30","02:00","12.5","","6.9","","69","","31","","28","","25.0","","98.91","","","","","","Mainly Clear"
"1988-06-30 03:00","1988","06","30","03:00","11.0","","4.2","","63","","33","","26","","25.0","","98.91","","","","","","Clear"
"1988-06-30 04:00","1988","06","30","04:00","10.0","","4.4","","68","","33","","31","","25.0","","98.97","","","","","","Mainly Clear"
"1988-06-30 05:00","1988","06","30","05:00","8.8","","3.2","","68","","34","","26","","40.2","","99.11","","","","","","Mostly Cloudy"
"1988-06-30 06:00","1988","06","30","06:00","9.1","","2.7","","64","","34","","20","","40.2","","99.14","","","","","","Mostly Cloudy"
"1988-06-30 07:00","1988","06","30","07:00","10.0","","2.9","","61","","34","","28","","40.2","","99.11","","","","","","Mostly Cloudy"
"1988-06-30 08:00","1988","06","30","08:00","11.1","","3.2","","58","","32","","20","","40.2","","99.14","","","","","","Mostly Cloudy"
"1988-06-30 09:00","1988","06","30","09:00","11.5","","3.3","","57","","34","","19","","40.2","","99.14","","","","","","Mostly Cloudy"
"1988-06-30 10:00","1988","06","30","10:00","12.3","","3.7","","56","","33","","22","","40.2","","99.14","","","","","","Mostly Cloudy"
"1988-06-30 11:00","1988","06","30","11:00","13.4","","4.0","","53","","34","","22","","40.2","","99.14","","","","","","Mostly Cloudy"
"1988-06-30 12:00","1988","06","30","12:00","13.7","","5.9","","59","","1","","19","","40.2","","99.14","","","","","","Mostly Cloudy"
"1988-06-30 13:00","1988","06","30","13:00","15.8","","4.4","","47","","34","","20","","40.2","","99.11","","","","","","Mostly Cloudy"
"1988-06-30 14:00","1988","06","30","14:00","16.2","","4.9","","47","","33","","15","","40.2","","99.11","","","","","","Mostly Cloudy"
"1988-06-30 15:00","1988","06","30","15:00","15.9","","3.9","","45","","33","","24","","40.2","","99.14","","","","","","Mostly Cloudy"
"1988-06-30 16:00","1988","06","30","16:00","18.0","","3.7","","39","","32","","20","","40.2","","99.11","","","","","","Mostly Cloudy"
"1988-06-30 17:00","1988","06","30","17:00","18.4","","3.9","","38","","33","","22","","40.2","","99.11","","","","","","Mainly Clear"
"1988-06-30 18:00","1988","06","30","18:00","17.7","","3.5","","39","","32","","28","","40.2","","99.07","","","","","","Mainly Clear"
"1988-06-30 19:00","1988","06","30","19:00","16.9","","3.8","","42","","32","","19","","40.2","","99.11","","","","","","Mainly Clear"
"1988-06-30 20:00","1988","06","30","20:00","15.2","","3.0","","44","","32","","15","","40.2","","99.11","","","","","","Mainly Clear"
"1988-06-30 21:00","1988","06","30","21:00","13.7","","4.0","","52","","30","","11","","25.0","","99.11","","","","","","Mostly Cloudy"
"1988-06-30 22:00","1988","06","30","22:00","13.0","","5.3","","59","","30","","13","","25.0","","99.11","","","","","","Mostly Cloudy"
"1988-06-30 23:00","1988","06","30","23:00","13.1","","4.8","","57","","30","","19","","25.0","","99.11","","","","","","Mostly Cloudy"
