"Station Name","TORONTO LESTER B. PEARSON INT'L A"
"Province","ONTARIO"
"Latitude","43.68"
"Longitude","-79.63"
"Elevation","173.40"
"Climate Identifier","6158733"
"WMO Identifier","71624"
"TC Identifier","YYZ"
"All times are specified in Local Standard Time (LST). Add 1 hour to adjust for Daylight Saving Time where and when it is observed."

"Legend"
"E","Estimated"
"M","Missing"
"NA","Not Available"

"Date/Time","Year","Month","Day","Time","Temp (°C)","Temp Flag","Dew Point Temp (°C)","Dew Point Temp Flag","Rel Hum (%)","Rel Hum Flag","Wind Dir (10s deg)","Wind Dir Flag","Wind Spd (km/h)","Wind Spd Flag","Visibility (km)","Visibility Flag","Stn Press (kPa)","Stn Press Flag","Hmdx","Hmdx Flag","Wind Chill","Wind Chill Flag","Weather"
"1954-06-01 00:00","1954","06","01","00:00","14.4","","8.3","","67","","","","0","","12.9","","98.82","","","","","","Cloudy"
"1954-06-01 01:00","1954","06","01","01:00","15.0","","10.6","","75","","","","0","","11.3","","98.77","","","","","","Cloudy"
"1954-06-01 02:00","1954","06","01","02:00","13.9","","10.0","","77","","","","0","","11.3","","98.68","","","","","","Mainly Clear"
"1954-06-01 03:00","1954","06","01","03:00","13.3","","9.4","","77","","18","","2","","11.3","","98.68","","","","","","Mostly Cloudy"
"1954-06-01 04:00","1954","06","01","04:00","13.9","","10.6","","80","","14","","5","","6.4","","98.60","","","","","","Haze"
"1954-06-01 05:00","1954","06","01","05:00","14.4","","10.6","","78","","14","","6","","8.0","","98.59","","","","","","Haze"
"1954-06-01 06:00","1954","06","01","06:00","15.0","","11.1","","78","","16","","11","","6.4","","98.59","","","","","","Rain Showers,Haze"
"1954-06-01 07:00","1954","06","01","07:00","16.7","","13.3","","81","","18","","11","","8.0","","98.56","","","","","","Haze"
"1954-06-01 08:00","1954","06","01","08:00","19.4","","15.6","","78","","20","","13","","12.9","","98.53","","","","","","Mostly Cloudy"
"1954-06-01 09:00","1954","06","01","09:00","18.9","","17.2","","90","","18","","18","","12.9","","98.50","","","","","","Rain Showers"
"1954-06-01 10:00","1954","06","01","10:00","19.4","","17.2","","87","","16","","16","","12.9","","98.42","","","","","","Mostly Cloudy"
"1954-06-01 11:00","1954","06","01","11:00","21.1","","17.8","","81","","16","","26","","12.9","","98.42","","27","","","","Mostly Cloudy"
"1954-06-01 12:00","1954","06","01","12:00","22.2","","18.3","","79","","16","","24","","12.9","","98.27","","28","","","","Mostly Cloudy"
"1954-06-01 13:00","1954","06","01","13:00","24.4","","18.9","","71","","18","","18","","12.9","","98.18","","31","","","","Mostly Cloudy"
"1954-06-01 14:00","1954","06","01","14:00","24.4","","20.0","","76","","18","","18","","12.9","","98.12","","32","","","","Rain Showers"
"1954-06-01 15:00","1954","06","01","15:00","22.2","","19.4","","84","","20","","13","","16.1","","97.98","","29","","","","Rain Showers"
"1954-06-01 16:00","1954","06","01","16:00","20.6","","18.3","","87","","14","","19","","6.4","","97.91","","27","","","","Haze"
"1954-06-01 17:00","1954","06","01","17:00","19.4","","16.1","","81","","16","","32","","12.9","","97.90","","","","","","Cloudy"
"1954-06-01 18:00","1954","06","01","18:00","18.3","","16.1","","87","","14","","24","","16.1","","97.88","","","","","","Mostly Cloudy"
"1954-06-01 19:00","1954","06","01","19:00","17.8","","15.6","","87","","14","","23","","16.1","","97.81","","","","","","Cloudy"
"1954-06-01 20:00","1954","06","01","20:00","17.2","","15.0","","87","","16","","13","","16.1","","97.79","","","","","","Cloudy"
"1954-06-01 21:00","1954","06","01","21:00","17.2","","15.0","","87","","14","","13","","9.7","","97.76","","","","","","Rain Showers"
"1954-06-01 22:00","1954","06","01","22:00","16.7","","15.6","","93","","14","","8","","4.0","","97.69","","","","","","Rain Showers,Fog"
"1954-06-01 23:00","1954","06","01","23:00","15.6","","15.6","","100","","16","","11","","4.0","","97.65","","","","","","Drizzle,Fog"
"1954-06-02 00:00","1954","06","02","00:00","16.1","","15.6","","97","","20","","16","","6.4","","97.61","","","","","","Fog"
"1954-06-02 01:00","1954","06","02","01:00","16.1","","15.0","","93","","23","","14","","8.0","","97.57","","","","","","Fog"
"1954-06-02 02:00","1954","06","02","02:00","16.7","","15.6","","93","","23","","19","","8.0","","97.55","","","","","","Haze"
"1954-06-02 03:00","1954","06","02","03:00","16.7","","15.6","","93","","23","","14","","8.0","","97.55","","","","","","Haze"
"1954-06-02 04:00","1954","06","02","04:00","16.7","","15.6","","93","","23","","24","","8.0","","97.53","","","","","","Haze"
"1954-06-02 05:00","1954","06","02","05:00","13.3","","11.7","","90","","27","","40","","16.1","","97.65","","","","","","Cloudy"
"1954-06-02 06:00","1954","06","02","06:00","13.3","","10.6","","83","","27","","43","","25.0","","97.69","","","","","","Mostly Cloudy"
"1954-06-02 07:00","1954","06","02","07:00","13.3","","10.6","","83","","27","","32","","19.3","","97.75","","","","","","Rain Showers"
"1954-06-02 08:00","1954","06","02","08:00","12.2","","10.6","","90","","29","","27","","25.0","","97.83","","","","","","Cloudy"
"1954-06-02 09:00","1954","06","02","09:00","14.4","","11.7","","84","","29","","35","","25.0","","97.88","","","","","","Mostly Cloudy"
"1954-06-02 10:00","1954","06","02","10:00","15.6","","11.1","","75","","29","","35","","25.0","","97.93","","","","","","Cloudy"
"1954-06-02 11:00","1954","06","02","11:00","15.0","","10.6","","75","","29","","37","","25.0","","98.07","","","","","","Cloudy"
"1954-06-02 12:00","1954","06","02","12:00","15.6","","10.6","","72","","29","","39","","25.0","","98.14","","","","","","Mostly Cloudy"
"1954-06-02 13:00","1954","06","02","13:00","16.1","","10.6","","70","","29","","39","","25.0","","98.19","","","","","","Cloudy"
"1954-06-02 14:00","1954","06","02","14:00","15.6","","10.6","","72","","29","","37","","25.0","","98.25","","","","","","Cloudy"
"1954-06-02 15:00","1954","06","02","15:00","14.4","","10.0","","75","","29","","34","","25.0","","98.33","","","","","","Cloudy"
"1954-06-02 16:00","1954","06","02","16:00","14.4","","10.0","","75","","29","","29","","25.0","","98.41","","","","","","Cloudy"
"1954-06-02 17:00","1954","06","02","17:00","13.9","","10.0","","77","","32","","34","","25.0","","98.50","","","","","","Cloudy"
"1954-06-02 18:00","1954","06","02","18:00","13.9","","9.4","","75","","29","","29","","25.0","","98.56","","","","","","Cloudy"
"1954-06-02 19:00","1954","06","02","19:00","13.3","","9.4","","77","","29","","23","","25.0","","98.59","","","","","","Cloudy"
"1954-06-02 20:00","1954","06","02","20:00","12.8","","8.9","","77","","27","","19","","25.0","","98.65","","","","","","Cloudy"
"1954-06-02 21:00","1954","06","02","21:00","12.8","","8.9","","77","","27","","16","","25.0","","98.69","","","","","","Cloudy"
"1954-06-02 22:00","1954","06","02","22:00","12.2","","9.4","","83","","27","","18","","25.0","","98.70","","","","","","Cloudy"
"1954-06-02 23:00","1954","06","02","23:00","12.2","","10.0","","86","","27","","13","","25.0","","98.64","","","","","","Cloudy"
"1954-06-03 00:00","1954","06","03","00:00","12.2","","10.0","","86","","23","","6","","25.0","","98.59","","","","","","Cloudy"
"1954-06-03 01:00","1954","06","03","01:00","12.2","","10.0","","86","","25","","6","","25.0","","98.59","","","","","","Cloudy"
"1954-06-03 02:00","1954","06","03","02:00","12.2","","10.0","","86","","25","","8","","25.0","","98.59","","","","","","Cloudy"
"1954-06-03 03:00","1954","06","03","03:00","12.2","","10.0","","86","","27","","6","","25.0","","98.59","","","","","","Cloudy"
"1954-06-03 04:00","1954","06","03","04:00","12.2","","8.9","","80","","32","","8","","25.0","","98.63","","","","","","Cloudy"
"1954-06-03 05:00","1954","06","03","05:00","12.2","","9.4","","83","","29","","10","","25.0","","98.67","","","","","","Cloudy"
"1954-06-03 06:00","1954","06","03","06:00","12.2","","8.9","","80","","32","","11","","25.0","","98.65","","","","","","Cloudy"
"1954-06-03 07:00","1954","06","03","07:00","12.2","","8.9","","80","","34","","8","","25.0","","98.65","","","","","","Cloudy"
"1954-06-03 08:00","1954","06","03","08:00","13.3","","9.4","","77","","5","","19","","25.0","","98.52","","","","","","Cloudy"
"1954-06-03 09:00","1954","06","03","09:00","13.3","","8.9","","74","","5","","16","","25.0","","98.48","","","","","","Cloudy"
"1954-06-03 10:00","1954","06","03","10:00","14.4","","9.4","","72","","7","","16","","25.0","","98.45","","","","","","Cloudy"
"1954-06-03 11:00","1954","06","03","11:00","13.9","","8.9","","72","","11","","13","","25.0","","98.38","","","","","","Cloudy"
"1954-06-03 12:00","1954","06","03","12:00","14.4","","8.9","","69","","14","","16","","25.0","","98.36","","","","","","Cloudy"
"1954-06-03 13:00","1954","06","03","13:00","13.9","","8.9","","72","","11","","21","","19.3","","98.33","","","","","","Cloudy"
"1954-06-03 14:00","1954","06","03","14:00","13.9","","8.9","","72","","11","","19","","19.3","","98.30","","","","","","Cloudy"
"1954-06-03 15:00","1954","06","03","15:00","13.9","","8.9","","72","","9","","24","","19.3","","98.29","","","","","","Cloudy"
"1954-06-03 16:00","1954","06","03","16:00","13.3","","8.9","","74","","9","","26","","16.1","","98.10","","","","","","Rain Showers"
"1954-06-03 17:00","1954","06","03","17:00","12.8","","10.0","","83","","7","","26","","12.9","","98.09","","","","","","Rain Showers"
"1954-06-03 18:00","1954","06","03","18:00","11.7","","10.0","","90","","7","","19","","4.8","","98.09","","","","","","Moderate Rain"
"1954-06-03 19:00","1954","06","03","19:00","11.7","","10.6","","93","","7","","10","","2.4","","98.06","","","","","","Moderate Rain,Fog"
"1954-06-03 20:00","1954","06","03","20:00","11.7","","10.6","","93","","7","","26","","16.1","","98.02","","","","","","Cloudy"
"1954-06-03 21:00","1954","06","03","21:00","11.7","","10.6","","93","","9","","21","","16.1","","97.98","","","","","","Cloudy"
"1954-06-03 22:00","1954","06","03","22:00","12.2","","10.6","","90","","11","","24","","16.1","","97.93","","","","","","Rain Showers"
"1954-06-03 23:00","1954","06","03","23:00","12.8","","11.1","","90","","9","","13","","16.1","","97.85","","","","","","Cloudy"
"1954-06-04 00:00","1954","06","04","00:00","12.8","","11.7","","93","","11","","16","","16.1","","97.84","","","","","","Cloudy"
"1954-06-04 01:00","1954","06","04","01:00","12.2","","11.1","","93","","14","","14","","9.7","","97.88","","","","","","Haze"
"1954-06-04 02:00","1954","06","04","02:00","11.7","","10.6","","93","","14","","11","","4.8","","97.83","","","","","","Fog"
"1954-06-04 03:00","1954","06","04","03:00","10.6","","10.6","","100","","11","","5","","1.0","","97.85","","","","","","Drizzle,Fog"
"1954-06-04 04:00","1954","06","04","04:00","10.6","","10.6","","100","","16","","5","","0.6","","97.88","","","","","","Fog"
"1954-06-04 05:00","1954","06","04","05:00","10.6","","10.6","","100","","","","0","","0.2","","97.91","","","","","","Fog"
"1954-06-04 06:00","1954","06","04","06:00","10.6","","10.6","","100","","18","","6","","0.6","","97.85","","","","","","Fog"
"1954-06-04 07:00","1954","06","04","07:00","11.1","","11.1","","100","","23","","8","","2.4","","97.99","","","","","","Fog"
"1954-06-04 08:00","1954","06","04","08:00","13.3","","11.7","","90","","20","","14","","8.0","","98.02","","","","","","Fog"
"1954-06-04 09:00","1954","06","04","09:00","13.9","","12.2","","90","","20","","13","","8.0","","98.02","","","","","","Rain Showers,Fog"
"1954-06-04 10:00","1954","06","04","10:00","15.0","","11.7","","81","","20","","16","","9.7","","98.03","","","","","","Haze"
"1954-06-04 11:00","1954","06","04","11:00","17.2","","12.8","","75","","20","","16","","11.3","","98.02","","","","","","Cloudy"
"1954-06-04 12:00","1954","06","04","12:00","15.0","","13.3","","90","","16","","16","","11.3","","98.02","","","","","","Cloudy"
"1954-06-04 13:00","1954","06","04","13:00","16.7","","11.7","","72","","23","","27","","16.1","","97.99","","","","","","Cloudy"
"1954-06-04 14:00","1954","06","04","14:00","16.1","","11.7","","75","","20","","24","","25.0","","98.03","","","","","","Rain Showers"
"1954-06-04 15:00","1954","06","04","15:00","16.1","","7.8","","58","","23","","21","","25.0","","98.05","","","","","","Rain Showers"
"1954-06-04 16:00","1954","06","04","16:00","13.9","","12.2","","90","","25","","18","","16.1","","98.08","","","","","","Rain Showers"
"1954-06-04 17:00","1954","06","04","17:00","14.4","","11.7","","84","","25","","27","","19.3","","98.10","","","","","","Mostly Cloudy"
"1954-06-04 18:00","1954","06","04","18:00","12.2","","8.9","","80","","29","","37","","25.0","","98.19","","","","","","Cloudy"
"1954-06-04 19:00","1954","06","04","19:00","10.6","","7.8","","83","","29","","32","","25.0","","98.26","","","","","","Cloudy"
"1954-06-04 20:00","1954","06","04","20:00","9.4","","6.7","","83","","29","","31","","25.0","","98.33","","","","","","Cloudy"
"1954-06-04 21:00","1954","06","04","21:00","9.4","","5.6","","77","","29","","21","","25.0","","98.44","","","","","","Rain Showers"
"1954-06-04 22:00","1954","06","04","22:00","8.9","","5.6","","80","","27","","19","","25.0","","98.49","","","","","","Cloudy"
"1954-06-04 23:00","1954","06","04","23:00","8.9","","6.1","","83","","27","","24","","25.0","","98.51","","","","","","Cloudy"
"1954-06-05 00:00","1954","06","05","00:00","8.9","","6.1","","83","","25","","19","","25.0","","98.54","","","","","","Cloudy"
"1954-06-05 01:00","1954","06","05","01:00","8.9","","6.1","","83","","27","","16","","25.0","","98.53","","","","","","Cloudy"
"1954-06-05 02:00","1954","06","05","02:00","8.3","","5.0","","80","","25","","23","","25.0","","98.55","","","","","","Cloudy"
"1954-06-05 03:00","1954","06","05","03:00","8.3","","5.6","","83","","25","","19","","25.0","","98.55","","","","","","Mostly Cloudy"
"1954-06-05 04:00","1954","06","05","04:00","8.3","","5.0","","80","","25","","23","","25.0","","98.59","","","","","","Mostly Cloudy"
"1954-06-05 05:00","1954","06","05","05:00","8.3","","5.0","","80","","25","","23","","25.0","","98.64","","","","","","Mostly Cloudy"
"1954-06-05 06:00","1954","06","05","06:00","8.9","","5.6","","80","","27","","24","","25.0","","98.68","","","","","","Mostly Cloudy"
"1954-06-05 07:00","1954","06","05","07:00","8.9","","5.6","","80","","27","","26","","25.0","","98.69","","","","","","Mostly Cloudy"
"1954-06-05 08:00","1954","06","05","08:00","8.9","","5.0","","77","","27","","23","","25.0","","98.71","","","","","","Cloudy"
"1954-06-05 09:00","1954","06","05","09:00","9.4","","5.0","","74","","27","","23","","25.0","","98.74","","","","","","Cloudy"
"1954-06-05 10:00","1954","06","05","10:00","9.4","","5.0","","74","","27","","26","","25.0","","98.74","","","","","","Cloudy"
"1954-06-05 11:00","1954","06","05","11:00","10.0","","5.6","","74","","27","","29","","25.0","","98.77","","","","","","Rain Showers"
"1954-06-05 12:00","1954","06","05","12:00","9.4","","7.2","","86","","25","","24","","19.3","","98.79","","","","","","Rain Showers"
"1954-06-05 13:00","1954","06","05","13:00","9.4","","7.2","","86","","27","","21","","16.1","","98.80","","","","","","Rain Showers"
"1954-06-05 14:00","1954","06","05","14:00","9.4","","7.8","","89","","25","","18","","9.7","","98.80","","","","","","Rain Showers"
"1954-06-05 15:00","1954","06","05","15:00","10.0","","7.8","","86","","29","","29","","9.7","","98.84","","","","","","Rain Showers"
"1954-06-05 16:00","1954","06","05","16:00","10.0","","8.3","","89","","27","","19","","9.7","","98.84","","","","","","Rain Showers"
"1954-06-05 17:00","1954","06","05","17:00","10.0","","7.8","","89","","27","","26","","16.1","","98.85","","","","","","Rain Showers"
"1954-06-05 18:00","1954","06","05","18:00","9.4","","7.8","","89","","27","","24","","25.0","","98.85","","","","","","Rain Showers"
"1954-06-05 19:00","1954","06","05","19:00","10.0","","7.8","","86","","27","","26","","19.3","","98.86","","","","","","Rain"
"1954-06-05 20:00","1954","06","05","20:00","10.0","","7.8","","86","","27","","26","","25.0","","98.87","","","","","","Rain"
"1954-06-05 21:00","1954","06","05","21:00","10.0","","8.9","","93","","36","","14","","16.1","","98.96","","","","","","Drizzle"
"1954-06-05 22:00","1954","06","05","22:00","9.4","","8.9","","96","","32","","13","","25.0","","98.97","","","","","","Drizzle"
"1954-06-05 23:00","1954","06","05","23:00","10.0","","8.3","","89","","29","","23","","25.0","","98.98","","","","","","Cloudy"
"1954-06-06 00:00","1954","06","06","00:00","10.0","","8.3","","89","","29","","23","","25.0","","98.97","","","","","","Cloudy"
"1954-06-06 01:00","1954","06","06","01:00","10.0","","8.3","","89","","29","","19","","25.0","","98.92","","","","","","Cloudy"
"1954-06-06 02:00","1954","06","06","02:00","10.0","","8.9","","93","","29","","16","","25.0","","99.01","","","","","","Cloudy"
"1954-06-06 03:00","1954","06","06","03:00","10.6","","8.3","","89","","29","","16","","25.0","","98.99","","","","","","Cloudy"
"1954-06-06 04:00","1954","06","06","04:00","10.0","","7.2","","83","","29","","26","","25.0","","99.02","","","","","","Mostly Cloudy"
"1954-06-06 05:00","1954","06","06","05:00","10.0","","7.2","","83","","29","","29","","25.0","","99.11","","","","","","Mostly Cloudy"
"1954-06-06 06:00","1954","06","06","06:00","11.1","","7.2","","77","","32","","29","","25.0","","99.14","","","","","","Mostly Cloudy"
"1954-06-06 07:00","1954","06","06","07:00","12.2","","8.3","","77","","32","","29","","25.0","","99.19","","","","","","Mostly Cloudy"
"1954-06-06 08:00","1954","06","06","08:00","14.4","","7.8","","64","","29","","32","","25.0","","99.24","","","","","","Mostly Cloudy"
"1954-06-06 09:00","1954","06","06","09:00","17.2","","8.9","","58","","32","","37","","25.0","","99.24","","","","","","Mostly Cloudy"
"1954-06-06 10:00","1954","06","06","10:00","17.2","","8.3","","56","","32","","40","","25.0","","99.27","","","","","","Mostly Cloudy"
"1954-06-06 11:00","1954","06","06","11:00","17.8","","8.9","","56","","29","","42","","25.0","","99.29","","","","","","Mostly Cloudy"
"1954-06-06 12:00","1954","06","06","12:00","20.0","","10.6","","55","","29","","39","","25.0","","99.30","","","","","","Mainly Clear"
"1954-06-06 13:00","1954","06","06","13:00","20.6","","10.6","","53","","29","","37","","25.0","","99.31","","","","","","Mainly Clear"
"1954-06-06 14:00","1954","06","06","14:00","21.1","","8.9","","46","","29","","39","","25.0","","99.30","","","","","","Mainly Clear"
"1954-06-06 15:00","1954","06","06","15:00","21.7","","10.6","","49","","29","","37","","25.0","","99.30","","","","","","Mainly Clear"
"1954-06-06 16:00","1954","06","06","16:00","21.1","","10.6","","51","","29","","39","","25.0","","99.33","","","","","","Mainly Clear"
"1954-06-06 17:00","1954","06","06","17:00","20.0","","10.0","","53","","29","","35","","25.0","","99.38","","","","","","Mainly Clear"
"1954-06-06 18:00","1954","06","06","18:00","19.4","","8.9","","50","","29","","32","","25.0","","99.38","","","","","","Mainly Clear"
"1954-06-06 19:00","1954","06","06","19:00","18.3","","10.0","","58","","29","","19","","25.0","","99.35","","","","","","Mainly Clear"
"1954-06-06 20:00","1954","06","06","20:00","15.0","","8.3","","64","","29","","21","","25.0","","99.34","","","","","","Mainly Clear"
"1954-06-06 21:00","1954","06","06","21:00","14.4","","5.6","","55","","29","","16","","25.0","","99.43","","","","","","Mainly Clear"
"1954-06-06 22:00","1954","06","06","22:00","12.8","","6.1","","64","","29","","8","","25.0","","99.43","","","","","","Mainly Clear"
"1954-06-06 23:00","1954","06","06","23:00","11.1","","6.1","","71","","32","","10","","25.0","","99.46","","","","","","Clear"
"1954-06-07 00:00","1954","06","07","00:00","9.4","","5.0","","74","","34","","16","","25.0","","99.47","","","","","","Clear"
"1954-06-07 01:00","1954","06","07","01:00","10.0","","5.6","","74","","32","","13","","25.0","","99.49","","","","","","Clear"
"1954-06-07 02:00","1954","06","07","02:00","9.4","","4.4","","71","","32","","10","","25.0","","99.43","","","","","","Clear"
"1954-06-07 03:00","1954","06","07","03:00","7.8","","3.9","","76","","29","","10","","25.0","","99.42","","","","","","Clear"
"1954-06-07 04:00","1954","06","07","04:00","9.4","","5.0","","74","","32","","10","","25.0","","99.44","","","","","","Clear"
"1954-06-07 05:00","1954","06","07","05:00","9.4","","4.4","","71","","27","","16","","25.0","","99.45","","","","","","Clear"
"1954-06-07 06:00","1954","06","07","06:00","11.1","","6.7","","74","","29","","19","","25.0","","99.46","","","","","","Clear"
"1954-06-07 07:00","1954","06","07","07:00","15.0","","7.2","","60","","29","","19","","25.0","","99.46","","","","","","Clear"
"1954-06-07 08:00","1954","06","07","08:00","18.3","","7.2","","48","","34","","19","","25.0","","99.54","","","","","","Clear"
"1954-06-07 09:00","1954","06","07","09:00","20.0","","8.3","","47","","29","","14","","25.0","","99.52","","","","","","Clear"
"1954-06-07 10:00","1954","06","07","10:00","21.1","","8.9","","46","","34","","11","","25.0","","99.51","","","","","","Clear"
"1954-06-07 11:00","1954","06","07","11:00","22.8","","8.3","","40","","36","","13","","25.0","","99.48","","","","","","Clear"
"1954-06-07 12:00","1954","06","07","12:00","23.9","","7.8","","36","","32","","16","","25.0","","99.43","","","","","","Clear"
"1954-06-07 13:00","1954","06","07","13:00","24.4","","8.3","","36","","29","","8","","25.0","","99.37","","25","","","","Clear"
"1954-06-07 14:00","1954","06","07","14:00","25.6","","8.9","","35","","27","","19","","25.0","","99.33","","26","","","","Clear"
"1954-06-07 15:00","1954","06","07","15:00","25.6","","8.9","","35","","29","","21","","25.0","","99.31","","26","","","","Clear"
"1954-06-07 16:00","1954","06","07","16:00","25.6","","10.0","","38","","29","","23","","25.0","","99.31","","27","","","","Clear"
"1954-06-07 17:00","1954","06","07","17:00","23.9","","11.7","","46","","29","","21","","25.0","","99.27","","26","","","","Clear"
"1954-06-07 18:00","1954","06","07","18:00","22.8","","12.2","","51","","36","","13","","25.0","","99.27","","25","","","","Clear"
"1954-06-07 19:00","1954","06","07","19:00","21.7","","11.7","","53","","36","","19","","25.0","","99.26","","","","","","Clear"
"1954-06-07 20:00","1954","06","07","20:00","18.9","","10.6","","58","","36","","16","","25.0","","99.27","","","","","","Mainly Clear"
"1954-06-07 21:00","1954","06","07","21:00","16.7","","10.6","","67","","34","","8","","25.0","","99.32","","","","","","Mainly Clear"
"1954-06-07 22:00","1954","06","07","22:00","15.6","","8.9","","65","","32","","14","","25.0","","99.37","","","","","","Clear"
"1954-06-07 23:00","1954","06","07","23:00","12.8","","7.8","","72","","27","","13","","25.0","","99.31","","","","","","Mainly Clear"
"1954-06-08 00:00","1954","06","08","00:00","12.8","","7.8","","72","","29","","16","","25.0","","99.33","","","","","","Mainly Clear"
"1954-06-08 01:00","1954","06","08","01:00","12.2","","7.8","","74","","29","","10","","25.0","","99.30","","","","","","Clear"
"1954-06-08 02:00","1954","06","08","02:00","10.6","","6.1","","74","","29","","10","","25.0","","99.34","","","","","","Clear"
"1954-06-08 03:00","1954","06","08","03:00","10.0","","5.0","","71","","27","","13","","25.0","","99.33","","","","","","Clear"
"1954-06-08 04:00","1954","06","08","04:00","8.9","","5.6","","80","","27","","13","","25.0","","99.34","","","","","","Mainly Clear"
"1954-06-08 05:00","1954","06","08","05:00","9.4","","5.0","","74","","27","","6","","25.0","","99.37","","","","","","Mainly Clear"
"1954-06-08 06:00","1954","06","08","06:00","12.2","","7.2","","71","","","","0","","25.0","","99.43","","","","","","Mainly Clear"
"1954-06-08 07:00","1954","06","08","07:00","16.1","","8.3","","60","","","","0","","25.0","","99.49","","","","","","Clear"
"1954-06-08 08:00","1954","06","08","08:00","18.9","","8.9","","52","","25","","5","","25.0","","99.58","","","","","","Mainly Clear"
"1954-06-08 09:00","1954","06","08","09:00","21.1","","10.0","","49","","","","0","","25.0","","99.60","","","","","","Clear"
"1954-06-08 10:00","1954","06","08","10:00","22.8","","11.7","","50","","","","0","","25.0","","99.59","","25","","","","Mainly Clear"
"1954-06-08 11:00","1954","06","08","11:00","23.9","","13.3","","52","","25","","3","","25.0","","99.56","","27","","","","Mainly Clear"
"1954-06-08 12:00","1954","06","08","12:00","25.0","","16.7","","60","","5","","8","","25.0","","99.53","","30","","","","Mainly Clear"
"1954-06-08 13:00","1954","06","08","13:00","23.9","","14.4","","56","","16","","19","","19.3","","99.54","","28","","","","Mainly Clear"
"1954-06-08 14:00","1954","06","08","14:00","23.3","","12.8","","52","","16","","18","","19.3","","99.51","","26","","","","Mainly Clear"
"1954-06-08 15:00","1954","06","08","15:00","23.9","","14.4","","56","","16","","16","","19.3","","99.51","","28","","","","Mainly Clear"
"1954-06-08 16:00","1954","06","08","16:00","23.3","","13.3","","54","","16","","16","","19.3","","99.46","","26","","","","Mainly Clear"
"1954-06-08 17:00","1954","06","08","17:00","21.1","","12.8","","59","","16","","14","","19.3","","99.45","","","","","","Mainly Clear"
"1954-06-08 18:00","1954","06","08","18:00","19.4","","11.7","","61","","14","","8","","19.3","","99.46","","","","","","Mainly Clear"
"1954-06-08 19:00","1954","06","08","19:00","18.9","","12.2","","65","","14","","8","","19.3","","99.46","","","","","","Mainly Clear"
"1954-06-08 20:00","1954","06","08","20:00","16.7","","11.7","","72","","27","","5","","16.1","","99.48","","","","","","Mainly Clear"
"1954-06-08 21:00","1954","06","08","21:00","16.1","","10.6","","70","","27","","5","","19.3","","99.54","","","","","","Mainly Clear"
"1954-06-08 22:00","1954","06","08","22:00","15.0","","11.1","","78","","32","","3","","19.3","","99.54","","","","","","Mainly Clear"
"1954-06-08 23:00","1954","06","08","23:00","14.4","","11.7","","84","","5","","3","","19.3","","99.55","","","","","","Mainly Clear"
"1954-06-09 00:00","1954","06","09","00:00","13.9","","11.1","","83","","36","","3","","19.3","","99.56","","","","","","Mainly Clear"
"1954-06-09 01:00","1954","06","09","01:00","13.3","","11.1","","86","","36","","5","","25.0","","99.56","","","","","","Mainly Clear"
"1954-06-09 02:00","1954","06","09","02:00","13.3","","11.1","","86","","2","","5","","25.0","","99.55","","","","","","Mainly Clear"
"1954-06-09 03:00","1954","06","09","03:00","12.2","","10.0","","86","","36","","5","","25.0","","99.57","","","","","","Mainly Clear"
"1954-06-09 04:00","1954","06","09","04:00","12.2","","11.1","","93","","5","","3","","25.0","","99.58","","","","","","Mostly Cloudy"
"1954-06-09 05:00","1954","06","09","05:00","12.2","","10.6","","90","","34","","10","","25.0","","99.58","","","","","","Mainly Clear"
"1954-06-09 06:00","1954","06","09","06:00","14.4","","11.7","","84","","34","","3","","25.0","","99.60","","","","","","Mainly Clear"
"1954-06-09 07:00","1954","06","09","07:00","16.1","","12.8","","81","","5","","3","","25.0","","99.66","","","","","","Mainly Clear"
"1954-06-09 08:00","1954","06","09","08:00","18.9","","13.9","","73","","11","","6","","19.3","","99.72","","","","","","Mainly Clear"
"1954-06-09 09:00","1954","06","09","09:00","21.1","","16.7","","76","","14","","8","","8.0","","99.69","","26","","","","Haze"
"1954-06-09 10:00","1954","06","09","10:00","22.8","","14.4","","59","","14","","13","","8.0","","99.69","","26","","","","Haze"
"1954-06-09 11:00","1954","06","09","11:00","23.9","","14.4","","56","","14","","21","","12.9","","99.69","","28","","","","Mainly Clear"
"1954-06-09 12:00","1954","06","09","12:00","23.9","","14.4","","56","","14","","19","","16.1","","99.67","","28","","","","Mainly Clear"
"1954-06-09 13:00","1954","06","09","13:00","24.4","","15.0","","56","","14","","19","","19.3","","99.69","","28","","","","Mainly Clear"
"1954-06-09 14:00","1954","06","09","14:00","25.0","","16.7","","60","","14","","21","","25.0","","99.58","","30","","","","Mainly Clear"
"1954-06-09 15:00","1954","06","09","15:00","25.6","","17.8","","62","","14","","14","","25.0","","99.55","","31","","","","Mainly Clear"
"1954-06-09 16:00","1954","06","09","16:00","25.0","","18.3","","67","","16","","13","","16.1","","99.46","","31","","","","Mainly Clear"
"1954-06-09 17:00","1954","06","09","17:00","24.4","","16.7","","62","","11","","16","","19.3","","99.43","","29","","","","Clear"
"1954-06-09 18:00","1954","06","09","18:00","23.9","","17.2","","66","","11","","8","","25.0","","99.44","","29","","","","Mainly Clear"
"1954-06-09 19:00","1954","06","09","19:00","22.2","","16.1","","66","","11","","8","","25.0","","99.45","","27","","","","Mainly Clear"
"1954-06-09 20:00","1954","06","09","20:00","18.9","","13.9","","73","","16","","2","","19.3","","99.44","","","","","","Mainly Clear"
"1954-06-09 21:00","1954","06","09","21:00","17.8","","12.8","","73","","18","","2","","16.1","","99.42","","","","","","Mainly Clear"
"1954-06-09 22:00","1954","06","09","22:00","17.2","","12.2","","72","","18","","2","","16.1","","99.42","","","","","","Mainly Clear"
"1954-06-09 23:00","1954","06","09","23:00","16.1","","13.3","","84","","","","0","","16.1","","99.38","","","","","","Mainly Clear"
"1954-06-10 00:00","1954","06","10","00:00","16.1","","12.8","","81","","36","","6","","25.0","","99.34","","","","","","Mainly Clear"
"1954-06-10 01:00","1954","06","10","01:00","15.6","","13.3","","84","","34","","3","","25.0","","99.32","","","","","","Mainly Clear"
"1954-06-10 02:00","1954","06","10","02:00","15.6","","12.2","","81","","36","","5","","25.0","","99.26","","","","","","Mainly Clear"
"1954-06-10 03:00","1954","06","10","03:00","15.6","","12.2","","81","","2","","6","","25.0","","99.24","","","","","","Mainly Clear"
"1954-06-10 04:00","1954","06","10","04:00","15.0","","12.2","","84","","","","0","","25.0","","99.24","","","","","","Mainly Clear"
"1954-06-10 05:00","1954","06","10","05:00","14.4","","12.8","","90","","","","0","","16.1","","99.26","","","","","","Mainly Clear"
"1954-06-10 06:00","1954","06","10","06:00","15.6","","12.2","","81","","20","","5","","16.1","","99.28","","","","","","Mainly Clear"
"1954-06-10 07:00","1954","06","10","07:00","17.8","","12.8","","73","","23","","5","","16.1","","99.33","","","","","","Clear"
"1954-06-10 08:00","1954","06","10","08:00","21.1","","16.1","","73","","23","","3","","12.9","","99.35","","26","","","","Clear"
"1954-06-10 09:00","1954","06","10","09:00","24.4","","18.9","","71","","","","0","","9.7","","99.29","","31","","","","Haze"
"1954-06-10 10:00","1954","06","10","10:00","27.2","","20.0","","65","","16","","6","","11.3","","99.27","","35","","","","Mainly Clear"
"1954-06-10 11:00","1954","06","10","11:00","30.0","","21.7","","65","","16","","16","","11.3","","99.18","","39","","","","Mostly Cloudy"
"1954-06-10 12:00","1954","06","10","12:00","27.8","","20.0","","63","","16","","16","","6.4","","99.15","","35","","","","Thunderstorms,Haze"
"1954-06-10 13:00","1954","06","10","13:00","25.6","","21.1","","77","","16","","6","","4.8","","99.13","","34","","","","Thunderstorms,Rain Showers,Haze"
"1954-06-10 14:00","1954","06","10","14:00","27.8","","21.7","","70","","18","","16","","12.9","","99.03","","37","","","","Mostly Cloudy"
"1954-06-10 15:00","1954","06","10","15:00","27.8","","22.2","","72","","18","","16","","12.9","","98.98","","37","","","","Mostly Cloudy"
"1954-06-10 16:00","1954","06","10","16:00","26.1","","21.1","","74","","11","","16","","12.9","","98.99","","35","","","","Mostly Cloudy"
"1954-06-10 17:00","1954","06","10","17:00","25.0","","19.4","","71","","11","","13","","12.9","","98.99","","32","","","","Mainly Clear"
"1954-06-10 18:00","1954","06","10","18:00","25.0","","20.0","","74","","20","","3","","12.9","","99.02","","33","","","","Mainly Clear"
"1954-06-10 19:00","1954","06","10","19:00","24.4","","20.6","","79","","27","","6","","12.9","","99.01","","32","","","","Mainly Clear"
"1954-06-10 20:00","1954","06","10","20:00","23.3","","20.0","","82","","36","","13","","12.9","","99.01","","31","","","","Mainly Clear"
"1954-06-10 21:00","1954","06","10","21:00","22.2","","17.8","","76","","29","","13","","25.0","","99.06","","28","","","","Mainly Clear"
"1954-06-10 22:00","1954","06","10","22:00","21.7","","17.8","","79","","32","","13","","25.0","","99.15","","28","","","","Clear"
"1954-06-10 23:00","1954","06","10","23:00","20.0","","16.7","","81","","32","","6","","25.0","","99.16","","25","","","","Clear"
"1954-06-11 00:00","1954","06","11","00:00","17.8","","12.2","","70","","32","","16","","25.0","","99.14","","","","","","Clear"
"1954-06-11 01:00","1954","06","11","01:00","16.7","","11.1","","70","","32","","11","","25.0","","99.07","","","","","","Clear"
"1954-06-11 02:00","1954","06","11","02:00","16.1","","11.7","","75","","34","","16","","25.0","","99.05","","","","","","Clear"
"1954-06-11 03:00","1954","06","11","03:00","14.4","","11.7","","84","","36","","19","","25.0","","99.09","","","","","","Clear"
"1954-06-11 04:00","1954","06","11","04:00","14.4","","11.7","","84","","34","","19","","25.0","","99.18","","","","","","Mainly Clear"
"1954-06-11 05:00","1954","06","11","05:00","14.4","","11.7","","84","","36","","16","","25.0","","99.24","","","","","","Mainly Clear"
"1954-06-11 06:00","1954","06","11","06:00","17.2","","11.7","","70","","36","","16","","25.0","","99.32","","","","","","Clear"
"1954-06-11 07:00","1954","06","11","07:00","17.8","","13.3","","75","","2","","16","","25.0","","99.42","","","","","","Clear"
"1954-06-11 08:00","1954","06","11","08:00","18.9","","15.0","","78","","2","","13","","25.0","","99.50","","","","","","Clear"
"1954-06-11 09:00","1954","06","11","09:00","21.1","","16.7","","76","","5","","11","","25.0","","99.50","","26","","","","Clear"
"1954-06-11 10:00","1954","06","11","10:00","22.8","","17.2","","71","","5","","11","","19.3","","99.53","","28","","","","Mainly Clear"
"1954-06-11 11:00","1954","06","11","11:00","24.4","","18.3","","69","","7","","8","","19.3","","99.49","","31","","","","Mainly Clear"
"1954-06-11 12:00","1954","06","11","12:00","25.0","","18.9","","69","","16","","13","","12.9","","99.49","","32","","","","Mainly Clear"
"1954-06-11 13:00","1954","06","11","13:00","25.0","","18.9","","69","","18","","16","","12.9","","99.48","","32","","","","Mainly Clear"
"1954-06-11 14:00","1954","06","11","14:00","25.0","","18.3","","67","","16","","18","","12.9","","99.44","","31","","","","Mainly Clear"
"1954-06-11 15:00","1954","06","11","15:00","24.4","","18.3","","69","","16","","16","","12.9","","99.41","","31","","","","Mostly Cloudy"
"1954-06-11 16:00","1954","06","11","16:00","24.4","","18.3","","69","","16","","16","","12.9","","99.41","","31","","","","Mostly Cloudy"
"1954-06-11 17:00","1954","06","11","17:00","23.3","","17.8","","71","","16","","14","","16.1","","99.39","","29","","","","Mainly Clear"
"1954-06-11 18:00","1954","06","11","18:00","22.8","","17.2","","71","","16","","10","","16.1","","99.42","","28","","","","Mainly Clear"
"1954-06-11 19:00","1954","06","11","19:00","22.2","","17.2","","73","","16","","5","","16.1","","99.42","","28","","","","Mostly Cloudy"
"1954-06-11 20:00","1954","06","11","20:00","21.1","","16.7","","76","","16","","3","","16.1","","99.46","","26","","","","Mainly Clear"
"1954-06-11 21:00","1954","06","11","21:00","20.0","","16.1","","78","","","","0","","16.1","","99.55","","25","","","","Mostly Cloudy"
"1954-06-11 22:00","1954","06","11","22:00","20.0","","16.7","","79","","18","","5","","16.1","","99.49","","25","","","","Mainly Clear"
"1954-06-11 23:00","1954","06","11","23:00","18.9","","16.1","","84","","11","","8","","16.1","","99.41","","","","","","Mostly Cloudy"
"1954-06-12 00:00","1954","06","12","00:00","17.2","","14.4","","84","","36","","8","","16.1","","99.44","","","","","","Mostly Cloudy"
"1954-06-12 01:00","1954","06","12","01:00","16.7","","15.0","","90","","5","","3","","12.9","","99.43","","","","","","Mainly Clear"
"1954-06-12 02:00","1954","06","12","02:00","16.1","","15.0","","93","","5","","2","","16.1","","99.40","","","","","","Mainly Clear"
"1954-06-12 03:00","1954","06","12","03:00","15.6","","13.9","","90","","5","","6","","16.1","","99.48","","","","","","Mainly Clear"
"1954-06-12 04:00","1954","06","12","04:00","15.0","","13.9","","93","","5","","6","","9.7","","99.53","","","","","","Fog"
"1954-06-12 05:00","1954","06","12","05:00","15.6","","13.9","","90","","9","","8","","9.7","","99.52","","","","","","Fog"
"1954-06-12 06:00","1954","06","12","06:00","16.7","","14.4","","87","","23","","2","","11.3","","99.53","","","","","","Mostly Cloudy"
"1954-06-12 07:00","1954","06","12","07:00","18.9","","13.9","","73","","14","","13","","19.3","","99.55","","","","","","Mostly Cloudy"
"1954-06-12 08:00","1954","06","12","08:00","20.6","","14.4","","68","","18","","14","","19.3","","99.59","","","","","","Mostly Cloudy"
"1954-06-12 09:00","1954","06","12","09:00","18.3","","15.6","","84","","16","","19","","8.0","","99.46","","","","","","Rain Showers,Haze"
"1954-06-12 10:00","1954","06","12","10:00","16.1","","15.0","","93","","18","","29","","4.8","","99.39","","","","","","Rain Showers,Fog"
"1954-06-12 11:00","1954","06","12","11:00","18.3","","15.6","","84","","","","0","","8.0","","99.37","","","","","","Haze"
"1954-06-12 12:00","1954","06","12","12:00","21.1","","16.7","","76","","9","","14","","8.0","","99.29","","26","","","","Haze"
"1954-06-12 13:00","1954","06","12","13:00","22.8","","17.8","","74","","11","","18","","8.0","","99.26","","29","","","","Haze"
"1954-06-12 14:00","1954","06","12","14:00","24.4","","16.7","","60","","16","","24","","8.0","","99.17","","29","","","","Haze"
"1954-06-12 15:00","1954","06","12","15:00","25.0","","16.7","","60","","11","","23","","12.9","","99.05","","30","","","","Clear"
"1954-06-12 16:00","1954","06","12","16:00","23.9","","15.6","","60","","11","","19","","12.9","","98.94","","28","","","","Mainly Clear"
"1954-06-12 17:00","1954","06","12","17:00","22.2","","15.6","","66","","7","","23","","12.9","","98.91","","27","","","","Thunderstorms"
"1954-06-12 18:00","1954","06","12","18:00","20.6","","15.6","","73","","2","","19","","12.9","","99.23","","25","","","","Thunderstorms,Rain Showers"
"1954-06-12 19:00","1954","06","12","19:00","18.3","","17.2","","93","","7","","14","","11.3","","99.23","","","","","","Thunderstorms,Rain Showers"
"1954-06-12 20:00","1954","06","12","20:00","18.3","","17.2","","93","","9","","13","","12.9","","99.17","","","","","","Rain Showers"
"1954-06-12 21:00","1954","06","12","21:00","18.9","","17.2","","90","","27","","16","","19.3","","98.96","","","","","","Rain Showers"
"1954-06-12 22:00","1954","06","12","22:00","18.9","","17.2","","90","","20","","8","","25.0","","99.03","","","","","","Cloudy"
"1954-06-12 23:00","1954","06","12","23:00","18.9","","17.2","","90","","32","","10","","25.0","","99.04","","","","","","Mostly Cloudy"
"1954-06-13 00:00","1954","06","13","00:00","18.3","","16.7","","90","","23","","13","","25.0","","99.07","","","","","","Mostly Cloudy"
"1954-06-13 01:00","1954","06","13","01:00","18.9","","16.7","","87","","23","","6","","25.0","","99.14","","","","","","Mostly Cloudy"
"1954-06-13 02:00","1954","06","13","02:00","17.8","","16.7","","93","","18","","11","","25.0","","99.14","","","","","","Mainly Clear"
"1954-06-13 03:00","1954","06","13","03:00","17.2","","15.6","","90","","27","","13","","25.0","","99.17","","","","","","Mainly Clear"
"1954-06-13 04:00","1954","06","13","04:00","17.2","","15.6","","90","","23","","8","","25.0","","99.23","","","","","","Mostly Cloudy"
"1954-06-13 05:00","1954","06","13","05:00","16.7","","15.0","","90","","27","","5","","25.0","","99.30","","","","","","Mostly Cloudy"
"1954-06-13 06:00","1954","06","13","06:00","18.3","","16.7","","90","","27","","2","","25.0","","99.37","","","","","","Mostly Cloudy"
"1954-06-13 07:00","1954","06","13","07:00","20.0","","16.7","","81","","27","","6","","25.0","","99.42","","25","","","","Mostly Cloudy"
"1954-06-13 08:00","1954","06","13","08:00","22.2","","16.7","","71","","32","","5","","25.0","","99.50","","27","","","","Mainly Clear"
"1954-06-13 09:00","1954","06","13","09:00","23.3","","16.1","","64","","34","","16","","25.0","","99.52","","28","","","","Mainly Clear"
"1954-06-13 10:00","1954","06","13","10:00","25.0","","16.7","","60","","34","","23","","25.0","","99.51","","30","","","","Mainly Clear"
"1954-06-13 11:00","1954","06","13","11:00","26.1","","16.7","","56","","34","","24","","25.0","","99.50","","31","","","","Mainly Clear"
"1954-06-13 12:00","1954","06","13","12:00","26.1","","16.1","","54","","36","","24","","25.0","","99.56","","31","","","","Mainly Clear"
"1954-06-13 13:00","1954","06","13","13:00","26.1","","16.7","","56","","36","","23","","25.0","","99.56","","31","","","","Mainly Clear"
"1954-06-13 14:00","1954","06","13","14:00","27.8","","17.2","","53","","36","","11","","25.0","","99.53","","33","","","","Mainly Clear"
"1954-06-13 15:00","1954","06","13","15:00","28.9","","16.1","","46","","29","","10","","25.0","","99.48","","34","","","","Mostly Cloudy"
"1954-06-13 16:00","1954","06","13","16:00","28.9","","16.1","","46","","25","","3","","25.0","","99.45","","34","","","","Mostly Cloudy"
"1954-06-13 17:00","1954","06","13","17:00","28.3","","15.6","","46","","23","","8","","25.0","","99.41","","33","","","","Mainly Clear"
"1954-06-13 18:00","1954","06","13","18:00","27.2","","18.3","","58","","23","","10","","25.0","","99.44","","33","","","","Mainly Clear"
"1954-06-13 19:00","1954","06","13","19:00","25.6","","17.2","","60","","23","","13","","25.0","","99.45","","31","","","","Mostly Cloudy"
"1954-06-13 20:00","1954","06","13","20:00","23.9","","16.1","","62","","25","","6","","25.0","","99.44","","29","","","","Mostly Cloudy"
"1954-06-13 21:00","1954","06","13","21:00","22.8","","16.1","","66","","27","","5","","25.0","","99.47","","27","","","","Mainly Clear"
"1954-06-13 22:00","1954","06","13","22:00","22.2","","15.0","","64","","23","","8","","25.0","","99.49","","26","","","","Mostly Cloudy"
"1954-06-13 23:00","1954","06","13","23:00","20.6","","15.6","","73","","23","","11","","25.0","","99.49","","25","","","","Mainly Clear"
"1954-06-14 00:00","1954","06","14","00:00","19.4","","15.6","","78","","23","","11","","25.0","","99.47","","","","","","Mainly Clear"
"1954-06-14 01:00","1954","06","14","01:00","18.9","","15.6","","81","","25","","14","","25.0","","99.44","","","","","","Mainly Clear"
"1954-06-14 02:00","1954","06","14","02:00","19.4","","16.1","","81","","25","","18","","25.0","","99.47","","","","","","Mainly Clear"
"1954-06-14 03:00","1954","06","14","03:00","18.9","","15.6","","81","","27","","8","","25.0","","99.50","","","","","","Mainly Clear"
"1954-06-14 04:00","1954","06","14","04:00","18.9","","15.6","","81","","27","","11","","25.0","","99.52","","","","","","Mainly Clear"
"1954-06-14 05:00","1954","06","14","05:00","19.4","","16.7","","84","","27","","16","","25.0","","99.53","","","","","","Mainly Clear"
"1954-06-14 06:00","1954","06","14","06:00","20.0","","16.1","","78","","27","","16","","25.0","","99.56","","25","","","","Mostly Cloudy"
"1954-06-14 07:00","1954","06","14","07:00","21.7","","16.7","","73","","27","","10","","25.0","","99.56","","27","","","","Mostly Cloudy"
"1954-06-14 08:00","1954","06","14","08:00","25.6","","18.3","","64","","29","","16","","25.0","","99.57","","32","","","","Mainly Clear"
"1954-06-14 09:00","1954","06","14","09:00","27.2","","18.3","","58","","25","","10","","25.0","","99.57","","33","","","","Mainly Clear"
"1954-06-14 10:00","1954","06","14","10:00","28.3","","18.9","","57","","29","","13","","25.0","","99.53","","35","","","","Mainly Clear"
"1954-06-14 11:00","1954","06","14","11:00","29.4","","19.4","","55","","25","","16","","25.0","","99.49","","36","","","","Mainly Clear"
"1954-06-14 12:00","1954","06","14","12:00","30.6","","21.7","","59","","23","","16","","25.0","","99.44","","40","","","","Mainly Clear"
"1954-06-14 13:00","1954","06","14","13:00","30.6","","21.1","","57","","25","","16","","25.0","","99.46","","39","","","","Mainly Clear"
"1954-06-14 14:00","1954","06","14","14:00","31.1","","19.4","","50","","23","","13","","25.0","","99.43","","38","","","","Mostly Cloudy"
"1954-06-14 15:00","1954","06","14","15:00","31.7","","17.8","","44","","20","","16","","25.0","","99.39","","38","","","","Mostly Cloudy"
"1954-06-14 16:00","1954","06","14","16:00","30.6","","17.8","","47","","16","","21","","25.0","","99.42","","36","","","","Mainly Clear"
"1954-06-14 17:00","1954","06","14","17:00","29.4","","21.1","","61","","16","","18","","25.0","","99.35","","38","","","","Mainly Clear"
"1954-06-14 18:00","1954","06","14","18:00","28.9","","21.1","","63","","18","","14","","25.0","","99.33","","37","","","","Mostly Cloudy"
"1954-06-14 19:00","1954","06","14","19:00","27.8","","21.7","","70","","","","0","","25.0","","99.35","","37","","","","Mostly Cloudy"
"1954-06-14 20:00","1954","06","14","20:00","25.6","","18.9","","67","","20","","13","","25.0","","99.32","","32","","","","Mainly Clear"
"1954-06-14 21:00","1954","06","14","21:00","22.8","","18.9","","79","","","","0","","25.0","","99.35","","29","","","","Mainly Clear"
"1954-06-14 22:00","1954","06","14","22:00","21.7","","17.8","","79","","","","0","","25.0","","99.44","","28","","","","Mainly Clear"
"1954-06-14 23:00","1954","06","14","23:00","20.0","","17.2","","84","","","","0","","25.0","","99.36","","25","","","","Mainly Clear"
"1954-06-15 00:00","1954","06","15","00:00","18.9","","15.6","","81","","","","0","","25.0","","99.36","","","","","","Mainly Clear"
"1954-06-15 01:00","1954","06","15","01:00","18.9","","15.6","","81","","","","0","","25.0","","99.36","","","","","","Mainly Clear"
"1954-06-15 02:00","1954","06","15","02:00","18.3","","15.6","","84","","","","0","","25.0","","99.30","","","","","","Mainly Clear"
"1954-06-15 03:00","1954","06","15","03:00","18.3","","15.6","","84","","","","0","","25.0","","99.29","","","","","","Mainly Clear"
"1954-06-15 04:00","1954","06","15","04:00","18.3","","15.6","","84","","","","0","","12.9","","99.34","","","","","","Mostly Cloudy"
"1954-06-15 05:00","1954","06","15","05:00","17.2","","15.0","","87","","5","","3","","8.0","","99.40","","","","","","Smoke,Haze"
"1954-06-15 06:00","1954","06","15","06:00","17.8","","15.6","","87","","5","","14","","8.0","","99.43","","","","","","Smoke,Haze"
"1954-06-15 07:00","1954","06","15","07:00","18.3","","16.7","","90","","7","","16","","4.8","","99.44","","","","","","Fog"
"1954-06-15 08:00","1954","06","15","08:00","18.9","","16.1","","84","","9","","16","","4.0","","99.50","","","","","","Fog"
"1954-06-15 09:00","1954","06","15","09:00","21.1","","17.2","","79","","5","","13","","8.0","","99.51","","27","","","","Haze"
"1954-06-15 10:00","1954","06","15","10:00","22.2","","16.7","","71","","11","","16","","9.7","","99.51","","27","","","","Haze"
"1954-06-15 11:00","1954","06","15","11:00","23.3","","16.1","","64","","11","","13","","12.9","","99.46","","28","","","","Mostly Cloudy"
"1954-06-15 12:00","1954","06","15","12:00","23.9","","17.2","","66","","9","","13","","12.9","","99.44","","29","","","","Mostly Cloudy"
"1954-06-15 13:00","1954","06","15","13:00","25.0","","18.3","","67","","11","","16","","9.7","","99.42","","31","","","","Haze"
"1954-06-15 14:00","1954","06","15","14:00","24.4","","17.8","","67","","7","","19","","9.7","","99.41","","30","","","","Haze"
"1954-06-15 15:00","1954","06","15","15:00","25.0","","16.7","","60","","9","","23","","9.7","","99.41","","30","","","","Haze"
"1954-06-15 16:00","1954","06","15","16:00","23.9","","16.1","","62","","9","","23","","9.7","","99.41","","29","","","","Haze"
"1954-06-15 17:00","1954","06","15","17:00","23.9","","16.1","","62","","11","","23","","16.1","","99.43","","29","","","","Mostly Cloudy"
"1954-06-15 18:00","1954","06","15","18:00","22.8","","16.1","","66","","11","","23","","16.1","","99.44","","27","","","","Mostly Cloudy"
"1954-06-15 19:00","1954","06","15","19:00","22.2","","15.6","","66","","9","","19","","16.1","","99.48","","27","","","","Mostly Cloudy"
"1954-06-15 20:00","1954","06","15","20:00","21.1","","16.7","","76","","9","","21","","16.1","","99.51","","26","","","","Mainly Clear"
"1954-06-15 21:00","1954","06","15","21:00","19.4","","16.1","","81","","11","","19","","16.1","","99.56","","","","","","Mainly Clear"
"1954-06-15 22:00","1954","06","15","22:00","18.9","","15.6","","81","","9","","10","","16.1","","99.62","","","","","","Mostly Cloudy"
"1954-06-15 23:00","1954","06","15","23:00","18.9","","15.6","","81","","11","","11","","16.1","","99.62","","","","","","Mostly Cloudy"
"1954-06-16 00:00","1954","06","16","00:00","18.3","","15.6","","84","","11","","13","","19.3","","99.59","","","","","","Mostly Cloudy"
"1954-06-16 01:00","1954","06","16","01:00","18.3","","15.6","","84","","9","","13","","19.3","","99.56","","","","","","Mostly Cloudy"
"1954-06-16 02:00","1954","06","16","02:00","17.8","","15.0","","84","","9","","13","","19.3","","99.50","","","","","","Mostly Cloudy"
"1954-06-16 03:00","1954","06","16","03:00","17.8","","15.0","","84","","14","","5","","19.3","","99.52","","","","","","Cloudy"
"1954-06-16 04:00","1954","06","16","04:00","18.3","","15.6","","84","","9","","13","","19.3","","99.52","","","","","","Cloudy"
"1954-06-16 05:00","1954","06","16","05:00","18.3","","16.1","","87","","9","","13","","8.0","","99.54","","","","","","Fog"
"1954-06-16 06:00","1954","06","16","06:00","18.3","","16.7","","90","","9","","14","","3.2","","99.55","","","","","","Fog"
"1954-06-16 07:00","1954","06","16","07:00","17.8","","16.7","","93","","9","","6","","0.8","","99.61","","","","","","Fog"
"1954-06-16 08:00","1954","06","16","08:00","18.9","","17.2","","90","","9","","16","","1.2","","99.56","","","","","","Fog"
"1954-06-16 09:00","1954","06","16","09:00","19.4","","17.8","","90","","9","","16","","1.2","","99.60","","","","","","Fog"
"1954-06-16 10:00","1954","06","16","10:00","19.4","","17.8","","90","","9","","10","","2.4","","99.62","","","","","","Fog"
"1954-06-16 11:00","1954","06","16","11:00","20.0","","17.8","","87","","11","","16","","2.4","","99.66","","26","","","","Fog"
"1954-06-16 12:00","1954","06","16","12:00","22.8","","18.9","","79","","9","","16","","4.8","","99.65","","29","","","","Haze"
"1954-06-16 13:00","1954","06","16","13:00","25.0","","19.4","","71","","9","","13","","4.8","","99.62","","32","","","","Haze"
"1954-06-16 14:00","1954","06","16","14:00","24.4","","18.9","","71","","9","","16","","4.0","","99.61","","31","","","","Haze"
"1954-06-16 15:00","1954","06","16","15:00","23.9","","18.3","","71","","9","","14","","4.0","","99.61","","30","","","","Rain Showers,Haze"
"1954-06-16 16:00","1954","06","16","16:00","22.8","","17.2","","71","","9","","18","","4.0","","99.60","","28","","","","Haze"
"1954-06-16 17:00","1954","06","16","17:00","21.7","","16.7","","73","","11","","18","","4.8","","99.60","","27","","","","Haze"
"1954-06-16 18:00","1954","06","16","18:00","20.6","","17.2","","81","","9","","11","","6.4","","99.63","","26","","","","Haze"
"1954-06-16 19:00","1954","06","16","19:00","20.0","","16.1","","78","","11","","10","","4.8","","99.65","","25","","","","Haze"
"1954-06-16 20:00","1954","06","16","20:00","19.4","","16.1","","81","","7","","6","","4.0","","99.65","","","","","","Haze"
"1954-06-16 21:00","1954","06","16","21:00","19.4","","16.1","","81","","11","","8","","4.0","","99.73","","","","","","Haze"
"1954-06-16 22:00","1954","06","16","22:00","18.9","","16.7","","87","","11","","8","","4.0","","99.78","","","","","","Haze"
"1954-06-16 23:00","1954","06","16","23:00","18.9","","16.7","","87","","14","","16","","4.0","","99.85","","","","","","Haze"
"1954-06-17 00:00","1954","06","17","00:00","19.4","","15.6","","78","","14","","16","","4.0","","99.88","","","","","","Haze"
"1954-06-17 01:00","1954","06","17","01:00","18.9","","16.1","","84","","14","","14","","6.4","","99.90","","","","","","Haze"
"1954-06-17 02:00","1954","06","17","02:00","18.9","","15.6","","81","","14","","14","","12.9","","99.91","","","","","","Cloudy"
"1954-06-17 03:00","1954","06","17","03:00","18.3","","15.6","","84","","14","","10","","12.9","","99.91","","","","","","Cloudy"
"1954-06-17 04:00","1954","06","17","04:00","18.3","","15.6","","84","","14","","11","","8.0","","99.94","","","","","","Haze"
"1954-06-17 05:00","1954","06","17","05:00","18.3","","15.0","","81","","14","","16","","6.4","","99.98","","","","","","Haze"
"1954-06-17 06:00","1954","06","17","06:00","17.8","","15.0","","84","","14","","14","","4.8","","100.04","","","","","","Haze"
"1954-06-17 07:00","1954","06","17","07:00","17.8","","15.0","","84","","14","","13","","4.0","","100.08","","","","","","Haze"
"1954-06-17 08:00","1954","06","17","08:00","18.3","","15.6","","84","","11","","13","","3.2","","100.10","","","","","","Rain Showers,Haze"
"1954-06-17 09:00","1954","06","17","09:00","17.8","","15.0","","84","","14","","13","","3.2","","100.12","","","","","","Haze"
"1954-06-17 10:00","1954","06","17","10:00","17.8","","15.0","","84","","14","","16","","3.2","","100.14","","","","","","Haze"
"1954-06-17 11:00","1954","06","17","11:00","17.8","","15.0","","84","","11","","19","","3.2","","100.16","","","","","","Haze"
"1954-06-17 12:00","1954","06","17","12:00","17.8","","15.0","","84","","14","","23","","2.4","","100.16","","","","","","Rain Showers,Haze"
"1954-06-17 13:00","1954","06","17","13:00","16.1","","15.6","","97","","14","","16","","0.8","","100.26","","","","","","Heavy Rain,Fog"
"1954-06-17 14:00","1954","06","17","14:00","16.1","","15.6","","97","","14","","13","","2.4","","100.26","","","","","","Moderate Rain,Fog"
"1954-06-17 15:00","1954","06","17","15:00","16.7","","16.1","","97","","11","","14","","1.2","","100.29","","","","","","Rain,Fog"
"1954-06-17 16:00","1954","06","17","16:00","16.7","","15.6","","93","","11","","11","","2.0","","100.29","","","","","","Rain,Fog"
"1954-06-17 17:00","1954","06","17","17:00","16.7","","15.0","","90","","9","","6","","2.0","","100.31","","","","","","Rain,Fog"
"1954-06-17 18:00","1954","06","17","18:00","16.7","","15.0","","90","","9","","6","","2.0","","100.32","","","","","","Fog"
"1954-06-17 19:00","1954","06","17","19:00","16.1","","15.0","","93","","7","","8","","2.0","","100.35","","","","","","Fog"
"1954-06-17 20:00","1954","06","17","20:00","15.6","","14.4","","93","","9","","10","","2.0","","100.33","","","","","","Fog"
"1954-06-17 21:00","1954","06","17","21:00","15.6","","14.4","","93","","","","0","","3.2","","100.39","","","","","","Fog"
"1954-06-17 22:00","1954","06","17","22:00","15.6","","14.4","","93","","7","","2","","3.2","","100.41","","","","","","Fog"
"1954-06-17 23:00","1954","06","17","23:00","15.6","","15.0","","97","","9","","3","","3.2","","100.40","","","","","","Fog"
"1954-06-18 00:00","1954","06","18","00:00","15.0","","13.9","","93","","","","0","","3.2","","100.43","","","","","","Fog"
"1954-06-18 01:00","1954","06","18","01:00","15.0","","13.9","","93","","9","","3","","3.2","","100.42","","","","","","Fog"
"1954-06-18 02:00","1954","06","18","02:00","15.0","","13.9","","93","","14","","6","","3.2","","100.42","","","","","","Fog"
"1954-06-18 03:00","1954","06","18","03:00","15.6","","13.9","","90","","14","","6","","3.2","","100.41","","","","","","Fog"
"1954-06-18 04:00","1954","06","18","04:00","14.4","","13.3","","93","","14","","5","","2.4","","100.43","","","","","","Fog"
"1954-06-18 05:00","1954","06","18","05:00","14.4","","12.8","","90","","9","","6","","4.0","","100.52","","","","","","Fog"
"1954-06-18 06:00","1954","06","18","06:00","15.6","","13.9","","90","","9","","5","","2.4","","100.60","","","","","","Fog"
"1954-06-18 07:00","1954","06","18","07:00","17.2","","13.3","","78","","11","","11","","3.2","","100.64","","","","","","Fog"
"1954-06-18 08:00","1954","06","18","08:00","19.4","","13.9","","70","","14","","11","","12.9","","100.70","","","","","","Mainly Clear"
"1954-06-18 09:00","1954","06","18","09:00","20.0","","13.3","","66","","14","","13","","11.3","","100.70","","","","","","Mainly Clear"
"1954-06-18 10:00","1954","06","18","10:00","21.1","","14.4","","66","","14","","11","","12.9","","100.60","","25","","","","Clear"
"1954-06-18 11:00","1954","06","18","11:00","21.7","","13.3","","59","","14","","16","","12.9","","100.58","","25","","","","Clear"
"1954-06-18 12:00","1954","06","18","12:00","21.7","","13.9","","61","","14","","16","","12.9","","100.50","","25","","","","Clear"
"1954-06-18 13:00","1954","06","18","13:00","22.2","","14.4","","61","","14","","16","","12.9","","100.49","","26","","","","Clear"
"1954-06-18 14:00","1954","06","18","14:00","22.8","","15.0","","62","","11","","13","","12.9","","100.48","","27","","","","Clear"
"1954-06-18 15:00","1954","06","18","15:00","22.8","","14.4","","59","","16","","11","","16.1","","100.47","","26","","","","Clear"
"1954-06-18 16:00","1954","06","18","16:00","23.3","","14.4","","58","","14","","8","","16.1","","100.41","","27","","","","Clear"
"1954-06-18 17:00","1954","06","18","17:00","22.8","","12.2","","51","","16","","11","","11.3","","100.36","","25","","","","Mainly Clear"
"1954-06-18 18:00","1954","06","18","18:00","21.1","","11.7","","55","","16","","13","","11.3","","100.32","","","","","","Mainly Clear"
"1954-06-18 19:00","1954","06","18","19:00","20.0","","12.2","","61","","16","","6","","11.3","","100.28","","","","","","Mainly Clear"
"1954-06-18 20:00","1954","06","18","20:00","18.9","","11.7","","63","","18","","3","","9.7","","100.33","","","","","","Haze"
"1954-06-18 21:00","1954","06","18","21:00","17.2","","12.2","","72","","25","","6","","11.3","","100.34","","","","","","Clear"
"1954-06-18 22:00","1954","06","18","22:00","16.7","","13.3","","81","","29","","3","","11.3","","100.32","","","","","","Clear"
"1954-06-18 23:00","1954","06","18","23:00","15.6","","11.7","","78","","","","0","","12.9","","100.28","","","","","","Clear"
"1954-06-19 00:00","1954","06","19","00:00","15.0","","12.2","","84","","36","","3","","12.9","","100.26","","","","","","Clear"
"1954-06-19 01:00","1954","06","19","01:00","14.4","","12.8","","90","","36","","3","","12.9","","100.21","","","","","","Clear"
"1954-06-19 02:00","1954","06","19","02:00","14.4","","11.7","","84","","36","","3","","16.1","","100.14","","","","","","Clear"
"1954-06-19 03:00","1954","06","19","03:00","13.9","","11.1","","83","","32","","3","","16.1","","100.19","","","","","","Clear"
"1954-06-19 04:00","1954","06","19","04:00","13.9","","10.6","","80","","32","","3","","8.0","","100.25","","","","","","Smoke"
"1954-06-19 05:00","1954","06","19","05:00","13.9","","10.6","","80","","","","0","","8.0","","100.24","","","","","","Smoke"
"1954-06-19 06:00","1954","06","19","06:00","16.1","","11.7","","75","","","","0","","8.0","","100.24","","","","","","Smoke,Haze"
"1954-06-19 07:00","1954","06","19","07:00","17.8","","12.2","","70","","","","0","","12.9","","100.21","","","","","","Mainly Clear"
"1954-06-19 08:00","1954","06","19","08:00","20.6","","15.0","","71","","18","","5","","12.9","","100.17","","25","","","","Mostly Cloudy"
"1954-06-19 09:00","1954","06","19","09:00","23.3","","16.7","","66","","18","","10","","16.1","","100.10","","28","","","","Mostly Cloudy"
"1954-06-19 10:00","1954","06","19","10:00","23.9","","16.7","","64","","16","","14","","8.0","","100.08","","29","","","","Smoke,Haze"
"1954-06-19 11:00","1954","06","19","11:00","25.0","","17.2","","62","","18","","11","","8.0","","100.05","","30","","","","Smoke,Haze"
"1954-06-19 12:00","1954","06","19","12:00","25.6","","19.4","","69","","14","","13","","9.7","","100.02","","33","","","","Smoke,Haze"
"1954-06-19 13:00","1954","06","19","13:00","27.8","","18.9","","59","","20","","13","","9.7","","99.98","","34","","","","Smoke,Haze"
"1954-06-19 14:00","1954","06","19","14:00","27.2","","18.9","","60","","18","","19","","9.7","","99.92","","34","","","","Smoke,Haze"
"1954-06-19 15:00","1954","06","19","15:00","27.8","","18.9","","59","","16","","19","","11.3","","99.80","","34","","","","Mainly Clear"
"1954-06-19 16:00","1954","06","19","16:00","26.1","","18.3","","62","","18","","24","","12.9","","99.73","","32","","","","Mostly Cloudy"
"1954-06-19 17:00","1954","06","19","17:00","26.1","","18.3","","62","","18","","21","","11.3","","99.73","","32","","","","Mostly Cloudy"
"1954-06-19 18:00","1954","06","19","18:00","25.0","","17.2","","62","","20","","14","","11.3","","99.83","","30","","","","Cloudy"
"1954-06-19 19:00","1954","06","19","19:00","24.4","","16.7","","62","","20","","16","","11.3","","99.84","","29","","","","Mostly Cloudy"
"1954-06-19 20:00","1954","06","19","20:00","23.3","","16.1","","64","","23","","13","","11.3","","99.82","","28","","","","Mostly Cloudy"
"1954-06-19 21:00","1954","06","19","21:00","23.3","","16.7","","66","","23","","10","","12.9","","99.79","","28","","","","Cloudy"
"1954-06-19 22:00","1954","06","19","22:00","22.8","","17.8","","74","","23","","3","","11.3","","99.71","","29","","","","Rain Showers"
"1954-06-19 23:00","1954","06","19","23:00","22.8","","16.1","","66","","25","","3","","19.3","","99.68","","27","","","","Cloudy"
"1954-06-20 00:00","1954","06","20","00:00","21.1","","16.7","","76","","27","","10","","19.3","","99.74","","26","","","","Cloudy"
"1954-06-20 01:00","1954","06","20","01:00","21.1","","16.7","","76","","27","","6","","19.3","","99.72","","26","","","","Mostly Cloudy"
"1954-06-20 02:00","1954","06","20","02:00","21.1","","16.7","","76","","","","0","","19.3","","99.62","","26","","","","Mostly Cloudy"
"1954-06-20 03:00","1954","06","20","03:00","20.0","","17.2","","84","","","","0","","19.3","","99.61","","25","","","","Mostly Cloudy"
"1954-06-20 04:00","1954","06","20","04:00","19.4","","17.2","","87","","27","","8","","12.9","","99.67","","","","","","Cloudy"
"1954-06-20 05:00","1954","06","20","05:00","20.0","","17.2","","84","","27","","8","","12.9","","99.67","","25","","","","Cloudy"
"1954-06-20 06:00","1954","06","20","06:00","20.6","","17.8","","84","","27","","3","","12.9","","99.67","","26","","","","Cloudy"
"1954-06-20 07:00","1954","06","20","07:00","21.1","","18.3","","84","","18","","3","","12.9","","99.63","","27","","","","Cloudy"
"1954-06-20 08:00","1954","06","20","08:00","22.2","","17.8","","76","","18","","10","","11.3","","99.62","","28","","","","Mostly Cloudy"
"1954-06-20 09:00","1954","06","20","09:00","23.9","","18.3","","71","","18","","11","","11.3","","99.58","","30","","","","Mostly Cloudy"
"1954-06-20 10:00","1954","06","20","10:00","25.6","","18.3","","64","","18","","19","","9.7","","99.49","","32","","","","Haze"
"1954-06-20 11:00","1954","06","20","11:00","25.6","","20.0","","72","","20","","13","","9.7","","99.49","","33","","","","Haze"
"1954-06-20 12:00","1954","06","20","12:00","28.3","","21.7","","67","","23","","29","","19.3","","99.48","","37","","","","Mostly Cloudy"
"1954-06-20 13:00","1954","06","20","13:00","28.9","","22.2","","67","","25","","26","","24.1","","99.45","","38","","","","Mostly Cloudy"
"1954-06-20 14:00","1954","06","20","14:00","28.9","","21.7","","65","","25","","35","","25.0","","99.41","","38","","","","Mostly Cloudy"
"1954-06-20 15:00","1954","06","20","15:00","28.3","","22.2","","70","","25","","26","","25.0","","99.27","","38","","","","Mostly Cloudy"
"1954-06-20 16:00","1954","06","20","16:00","26.7","","21.7","","74","","25","","13","","25.0","","99.24","","36","","","","Mostly Cloudy"
"1954-06-20 17:00","1954","06","20","17:00","27.8","","22.8","","74","","23","","21","","25.0","","99.20","","38","","","","Mostly Cloudy"
"1954-06-20 18:00","1954","06","20","18:00","27.8","","22.2","","72","","23","","19","","25.0","","99.13","","37","","","","Mostly Cloudy"
"1954-06-20 19:00","1954","06","20","19:00","25.6","","18.3","","64","","23","","19","","25.0","","99.12","","32","","","","Mostly Cloudy"
"1954-06-20 20:00","1954","06","20","20:00","23.9","","18.3","","71","","23","","19","","25.0","","99.13","","30","","","","Mostly Cloudy"
"1954-06-20 21:00","1954","06","20","21:00","23.3","","18.9","","76","","23","","13","","25.0","","99.14","","30","","","","Mostly Cloudy"
"1954-06-20 22:00","1954","06","20","22:00","23.3","","18.9","","76","","23","","16","","25.0","","99.16","","30","","","","Cloudy"
"1954-06-20 23:00","1954","06","20","23:00","23.3","","18.3","","74","","20","","8","","25.0","","99.14","","30","","","","Mostly Cloudy"
"1954-06-21 00:00","1954","06","21","00:00","22.8","","18.3","","76","","23","","3","","25.0","","99.12","","29","","","","Mostly Cloudy"
"1954-06-21 01:00","1954","06","21","01:00","22.8","","18.9","","79","","25","","11","","25.0","","99.12","","29","","","","Mostly Cloudy"
"1954-06-21 02:00","1954","06","21","02:00","22.8","","19.4","","82","","25","","16","","25.0","","99.12","","30","","","","Mostly Cloudy"
"1954-06-21 03:00","1954","06","21","03:00","20.0","","18.9","","93","","25","","16","","16.1","","98.66","","27","","","","Thunderstorms,Rain Showers"
"1954-06-21 04:00","1954","06","21","04:00","21.1","","17.8","","81","","2","","13","","25.0","","99.22","","27","","","","Cloudy"
"1954-06-21 05:00","1954","06","21","05:00","20.6","","16.1","","76","","36","","6","","16.1","","99.26","","25","","","","Mostly Cloudy"
"1954-06-21 06:00","1954","06","21","06:00","20.6","","13.9","","66","","36","","6","","24.1","","99.30","","","","","","Cloudy"
"1954-06-21 07:00","1954","06","21","07:00","20.6","","13.3","","63","","36","","6","","25.0","","99.31","","","","","","Mostly Cloudy"
"1954-06-21 08:00","1954","06","21","08:00","22.2","","16.7","","71","","36","","6","","25.0","","99.30","","27","","","","Mostly Cloudy"
"1954-06-21 09:00","1954","06","21","09:00","23.9","","18.3","","71","","29","","11","","25.0","","99.34","","30","","","","Mostly Cloudy"
"1954-06-21 10:00","1954","06","21","10:00","25.0","","20.0","","74","","27","","10","","25.0","","99.32","","33","","","","Mostly Cloudy"
"1954-06-21 11:00","1954","06","21","11:00","23.9","","20.6","","82","","7","","18","","19.3","","99.42","","32","","","","Mostly Cloudy"
"1954-06-21 12:00","1954","06","21","12:00","25.6","","20.0","","72","","14","","6","","25.0","","99.24","","33","","","","Mostly Cloudy"
"1954-06-21 13:00","1954","06","21","13:00","26.1","","20.0","","69","","27","","16","","4.8","","99.24","","34","","","","Thunderstorms,Moderate Rain Showers"
"1954-06-21 14:00","1954","06","21","14:00","25.6","","21.1","","77","","18","","19","","25.0","","99.08","","34","","","","Mostly Cloudy"
"1954-06-21 15:00","1954","06","21","15:00","25.0","","20.6","","76","","18","","19","","25.0","","99.04","","33","","","","Mainly Clear"
"1954-06-21 16:00","1954","06","21","16:00","23.3","","18.9","","74","","14","","6","","24.1","","98.93","","30","","","","Rain Showers"
"1954-06-21 17:00","1954","06","21","17:00","22.8","","20.6","","87","","27","","10","","3.2","","98.90","","31","","","","Thunderstorms,Heavy Rain Showers"
"1954-06-21 18:00","1954","06","21","18:00","20.0","","19.4","","97","","36","","24","","1.6","","99.12","","27","","","","Thunderstorms,Heavy Rain Showers"
"1954-06-21 19:00","1954","06","21","19:00","19.4","","18.9","","97","","5","","10","","19.3","","98.96","","","","","","Thunderstorms"
"1954-06-21 20:00","1954","06","21","20:00","20.0","","19.4","","97","","16","","10","","25.0","","98.97","","27","","","","Thunderstorms"
"1954-06-21 21:00","1954","06","21","21:00","20.0","","19.4","","97","","16","","10","","8.0","","98.91","","27","","","","Haze"
"1954-06-21 22:00","1954","06","21","22:00","20.0","","18.9","","93","","16","","10","","4.8","","98.87","","27","","","","Haze"
"1954-06-21 23:00","1954","06","21","23:00","20.0","","18.9","","93","","18","","10","","8.0","","98.94","","27","","","","Haze"
"1954-06-22 00:00","1954","06","22","00:00","19.4","","17.8","","90","","18","","10","","25.0","","98.85","","","","","","Clear"
"1954-06-22 01:00","1954","06","22","01:00","19.4","","17.8","","90","","18","","10","","25.0","","98.83","","","","","","Mainly Clear"
"1954-06-22 02:00","1954","06","22","02:00","19.4","","18.9","","97","","23","","19","","16.1","","98.79","","","","","","Thunderstorms,Rain Showers"
"1954-06-22 03:00","1954","06","22","03:00","20.0","","18.9","","93","","25","","16","","16.1","","98.66","","27","","","","Thunderstorms,Rain Showers"
"1954-06-22 04:00","1954","06","22","04:00","21.1","","18.9","","87","","23","","19","","25.0","","98.54","","28","","","","Mostly Cloudy"
"1954-06-22 05:00","1954","06","22","05:00","20.6","","19.4","","93","","27","","5","","19.3","","98.64","","28","","","","Rain"
"1954-06-22 06:00","1954","06","22","06:00","21.1","","20.0","","93","","18","","8","","12.9","","98.60","","29","","","","Mainly Clear"
"1954-06-22 07:00","1954","06","22","07:00","22.2","","20.6","","90","","23","","11","","12.9","","98.55","","30","","","","Mostly Cloudy"
"1954-06-22 08:00","1954","06","22","08:00","22.8","","20.6","","87","","23","","19","","9.7","","98.56","","31","","","","Rain Showers,Haze"
"1954-06-22 09:00","1954","06","22","09:00","22.8","","21.1","","90","","23","","21","","8.0","","98.56","","31","","","","Rain Showers,Haze"
"1954-06-22 10:00","1954","06","22","10:00","22.2","","20.0","","87","","25","","26","","16.1","","98.61","","30","","","","Mostly Cloudy"
"1954-06-22 11:00","1954","06","22","11:00","25.0","","20.0","","74","","25","","32","","25.0","","98.61","","33","","","","Mostly Cloudy"
"1954-06-22 12:00","1954","06","22","12:00","25.6","","18.9","","67","","27","","42","","25.0","","98.66","","32","","","","Mostly Cloudy"
"1954-06-22 13:00","1954","06","22","13:00","25.0","","17.2","","62","","27","","42","","25.0","","98.74","","30","","","","Mostly Cloudy"
"1954-06-22 14:00","1954","06","22","14:00","24.4","","16.7","","62","","29","","34","","25.0","","98.75","","29","","","","Mostly Cloudy"
"1954-06-22 15:00","1954","06","22","15:00","23.9","","15.0","","58","","32","","29","","25.0","","98.76","","28","","","","Mostly Cloudy"
"1954-06-22 16:00","1954","06","22","16:00","23.3","","15.0","","60","","32","","26","","25.0","","98.78","","27","","","","Mostly Cloudy"
"1954-06-22 17:00","1954","06","22","17:00","23.3","","15.0","","60","","32","","26","","25.0","","98.81","","27","","","","Mostly Cloudy"
"1954-06-22 18:00","1954","06","22","18:00","22.8","","15.0","","64","","29","","19","","25.0","","98.84","","27","","","","Mainly Clear"
"1954-06-22 19:00","1954","06","22","19:00","22.2","","16.1","","68","","29","","13","","25.0","","98.88","","27","","","","Clear"
"1954-06-22 20:00","1954","06","22","20:00","20.6","","16.1","","76","","29","","13","","25.0","","98.90","","25","","","","Clear"
"1954-06-22 21:00","1954","06","22","21:00","19.4","","15.6","","78","","32","","10","","25.0","","98.93","","","","","","Clear"
"1954-06-22 22:00","1954","06","22","22:00","18.3","","14.4","","78","","25","","3","","25.0","","98.91","","","","","","Clear"
"1954-06-22 23:00","1954","06","22","23:00","16.1","","13.9","","87","","27","","6","","25.0","","99.00","","","","","","Clear"
"1954-06-23 00:00","1954","06","23","00:00","16.1","","14.4","","90","","","","0","","25.0","","98.95","","","","","","Mainly Clear"
"1954-06-23 01:00","1954","06","23","01:00","16.1","","14.4","","90","","5","","3","","25.0","","98.94","","","","","","Mostly Cloudy"
"1954-06-23 02:00","1954","06","23","02:00","16.1","","14.4","","90","","32","","5","","25.0","","98.96","","","","","","Cloudy"
"1954-06-23 03:00","1954","06","23","03:00","16.7","","15.6","","93","","23","","6","","16.1","","99.00","","","","","","Thunderstorms,Rain Showers"
"1954-06-23 04:00","1954","06","23","04:00","16.7","","15.6","","93","","","","0","","25.0","","99.03","","","","","","Mostly Cloudy"
"1954-06-23 05:00","1954","06","23","05:00","16.7","","15.0","","90","","32","","10","","25.0","","99.07","","","","","","Mostly Cloudy"
"1954-06-23 06:00","1954","06","23","06:00","17.2","","15.0","","87","","34","","10","","25.0","","99.14","","","","","","Mostly Cloudy"
"1954-06-23 07:00","1954","06","23","07:00","17.2","","14.4","","84","","34","","16","","25.0","","99.24","","","","","","Mostly Cloudy"
"1954-06-23 08:00","1954","06","23","08:00","17.2","","13.3","","78","","34","","24","","25.0","","99.34","","","","","","Mostly Cloudy"
"1954-06-23 09:00","1954","06","23","09:00","18.3","","12.8","","70","","34","","26","","25.0","","99.38","","","","","","Mostly Cloudy"
"1954-06-23 10:00","1954","06","23","10:00","18.9","","13.9","","73","","34","","26","","25.0","","99.41","","","","","","Mostly Cloudy"
"1954-06-23 11:00","1954","06","23","11:00","18.9","","12.2","","65","","34","","26","","25.0","","99.43","","","","","","Mostly Cloudy"
"1954-06-23 12:00","1954","06","23","12:00","19.4","","12.2","","63","","32","","29","","25.0","","99.48","","","","","","Mostly Cloudy"
"1954-06-23 13:00","1954","06","23","13:00","20.0","","11.1","","57","","34","","29","","25.0","","99.50","","","","","","Mostly Cloudy"
"1954-06-23 14:00","1954","06","23","14:00","20.0","","12.8","","63","","34","","26","","25.0","","99.53","","","","","","Mostly Cloudy"
"1954-06-23 15:00","1954","06","23","15:00","19.4","","13.9","","70","","36","","26","","25.0","","99.55","","","","","","Mostly Cloudy"
"1954-06-23 16:00","1954","06","23","16:00","20.0","","13.3","","66","","34","","26","","25.0","","99.56","","","","","","Mostly Cloudy"
"1954-06-23 17:00","1954","06","23","17:00","20.0","","13.3","","66","","34","","24","","25.0","","99.60","","","","","","Mainly Clear"
"1954-06-23 18:00","1954","06","23","18:00","19.4","","13.3","","68","","36","","21","","25.0","","99.63","","","","","","Mainly Clear"
"1954-06-23 19:00","1954","06","23","19:00","18.9","","13.3","","70","","34","","10","","25.0","","99.66","","","","","","Mainly Clear"
"1954-06-23 20:00","1954","06","23","20:00","17.2","","12.2","","72","","34","","13","","25.0","","99.69","","","","","","Mainly Clear"
"1954-06-23 21:00","1954","06","23","21:00","16.7","","12.8","","78","","32","","8","","25.0","","99.74","","","","","","Clear"
"1954-06-23 22:00","1954","06","23","22:00","15.6","","12.8","","84","","32","","8","","25.0","","99.76","","","","","","Clear"
"1954-06-23 23:00","1954","06","23","23:00","15.0","","13.9","","93","","34","","16","","25.0","","99.76","","","","","","Clear"
"1954-06-24 00:00","1954","06","24","00:00","14.4","","12.8","","90","","32","","11","","25.0","","99.76","","","","","","Clear"
"1954-06-24 01:00","1954","06","24","01:00","13.9","","11.1","","83","","32","","11","","25.0","","99.76","","","","","","Clear"
"1954-06-24 02:00","1954","06","24","02:00","12.8","","10.6","","86","","32","","11","","25.0","","99.74","","","","","","Clear"
"1954-06-24 03:00","1954","06","24","03:00","12.2","","10.6","","90","","34","","8","","25.0","","99.73","","","","","","Clear"
"1954-06-24 04:00","1954","06","24","04:00","11.7","","10.0","","90","","34","","8","","19.3","","99.77","","","","","","Clear"
"1954-06-24 05:00","1954","06","24","05:00","11.7","","9.4","","86","","34","","8","","25.0","","99.82","","","","","","Clear"
"1954-06-24 06:00","1954","06","24","06:00","13.9","","10.0","","77","","34","","6","","25.0","","99.85","","","","","","Clear"
"1954-06-24 07:00","1954","06","24","07:00","16.1","","11.7","","75","","34","","13","","25.0","","99.91","","","","","","Clear"
"1954-06-24 08:00","1954","06","24","08:00","18.3","","12.2","","68","","34","","10","","25.0","","99.95","","","","","","Mainly Clear"
"1954-06-24 09:00","1954","06","24","09:00","20.6","","13.9","","66","","32","","2","","25.0","","99.91","","","","","","Mainly Clear"
"1954-06-24 10:00","1954","06","24","10:00","22.2","","13.3","","57","","27","","8","","25.0","","99.92","","25","","","","Mainly Clear"
"1954-06-24 11:00","1954","06","24","11:00","23.9","","13.3","","52","","25","","14","","25.0","","99.91","","27","","","","Mainly Clear"
"1954-06-24 12:00","1954","06","24","12:00","24.4","","12.8","","48","","25","","21","","25.0","","99.87","","27","","","","Mostly Cloudy"
"1954-06-24 13:00","1954","06","24","13:00","25.0","","13.3","","48","","23","","19","","25.0","","99.82","","28","","","","Mostly Cloudy"
"1954-06-24 14:00","1954","06","24","14:00","25.0","","13.3","","48","","25","","21","","25.0","","99.75","","28","","","","Mostly Cloudy"
"1954-06-24 15:00","1954","06","24","15:00","25.6","","14.4","","50","","25","","19","","25.0","","99.64","","29","","","","Mostly Cloudy"
"1954-06-24 16:00","1954","06","24","16:00","25.0","","15.0","","54","","23","","26","","25.0","","99.55","","29","","","","Mostly Cloudy"
"1954-06-24 17:00","1954","06","24","17:00","23.9","","15.0","","58","","23","","26","","25.0","","99.41","","28","","","","Mostly Cloudy"
"1954-06-24 18:00","1954","06","24","18:00","22.8","","16.1","","66","","23","","16","","25.0","","99.39","","27","","","","Cloudy"
"1954-06-24 19:00","1954","06","24","19:00","22.2","","15.6","","66","","18","","10","","25.0","","99.38","","27","","","","Cloudy"
"1954-06-24 20:00","1954","06","24","20:00","22.2","","15.6","","66","","23","","10","","25.0","","99.44","","27","","","","Cloudy"
"1954-06-24 21:00","1954","06","24","21:00","20.6","","15.6","","73","","20","","6","","25.0","","99.51","","25","","","","Cloudy"
"1954-06-24 22:00","1954","06","24","22:00","21.1","","16.7","","76","","25","","16","","25.0","","99.45","","26","","","","Cloudy"
"1954-06-24 23:00","1954","06","24","23:00","20.0","","16.1","","78","","20","","14","","25.0","","99.41","","25","","","","Cloudy"
"1954-06-25 00:00","1954","06","25","00:00","19.4","","16.1","","81","","18","","11","","19.3","","99.36","","","","","","Rain Showers"
"1954-06-25 01:00","1954","06","25","01:00","18.9","","16.7","","87","","25","","11","","19.3","","99.29","","","","","","Cloudy"
"1954-06-25 02:00","1954","06","25","02:00","18.9","","16.1","","84","","25","","11","","24.1","","99.39","","","","","","Cloudy"
"1954-06-25 03:00","1954","06","25","03:00","18.9","","15.6","","81","","36","","2","","24.1","","99.39","","","","","","Mostly Cloudy"
"1954-06-25 04:00","1954","06","25","04:00","18.3","","15.6","","84","","20","","8","","19.3","","99.38","","","","","","Mostly Cloudy"
"1954-06-25 05:00","1954","06","25","05:00","17.8","","15.0","","84","","20","","8","","16.1","","99.39","","","","","","Mainly Clear"
"1954-06-25 06:00","1954","06","25","06:00","18.9","","15.6","","81","","20","","6","","11.3","","99.39","","","","","","Mostly Cloudy"
"1954-06-25 07:00","1954","06","25","07:00","20.6","","16.1","","76","","20","","6","","12.9","","99.40","","25","","","","Mostly Cloudy"
"1954-06-25 08:00","1954","06","25","08:00","22.2","","16.7","","71","","23","","5","","12.9","","99.36","","27","","","","Mostly Cloudy"
"1954-06-25 09:00","1954","06","25","09:00","24.4","","17.2","","64","","23","","10","","12.9","","99.32","","30","","","","Mostly Cloudy"
"1954-06-25 10:00","1954","06","25","10:00","26.1","","18.3","","62","","23","","6","","16.1","","99.27","","32","","","","Mostly Cloudy"
"1954-06-25 11:00","1954","06","25","11:00","26.7","","18.3","","60","","27","","6","","19.3","","99.23","","33","","","","Mostly Cloudy"
"1954-06-25 12:00","1954","06","25","12:00","28.3","","23.9","","77","","23","","11","","19.3","","99.20","","39","","","","Mainly Clear"
"1954-06-25 13:00","1954","06","25","13:00","29.4","","20.6","","59","","23","","13","","19.3","","99.12","","37","","","","Mostly Cloudy"
"1954-06-25 14:00","1954","06","25","14:00","30.6","","19.4","","52","","23","","19","","19.3","","98.98","","38","","","","Mainly Clear"
"1954-06-25 15:00","1954","06","25","15:00","30.0","","19.4","","53","","23","","21","","19.3","","98.98","","37","","","","Mostly Cloudy"
"1954-06-25 16:00","1954","06","25","16:00","30.0","","20.0","","55","","23","","21","","19.3","","98.92","","38","","","","Mostly Cloudy"
"1954-06-25 17:00","1954","06","25","17:00","28.9","","21.1","","63","","25","","11","","16.1","","98.95","","37","","","","Cloudy"
"1954-06-25 18:00","1954","06","25","18:00","28.3","","21.7","","67","","25","","3","","19.3","","98.89","","37","","","","Cloudy"
"1954-06-25 19:00","1954","06","25","19:00","27.2","","20.0","","65","","29","","2","","9.7","","98.89","","35","","","","Haze"
"1954-06-25 20:00","1954","06","25","20:00","21.7","","20.0","","90","","29","","27","","4.0","","98.98","","29","","","","Thunderstorms,Moderate Rain Showers"
"1954-06-25 21:00","1954","06","25","21:00","21.1","","20.0","","93","","36","","6","","16.1","","99.03","","29","","","","Mostly Cloudy"
"1954-06-25 22:00","1954","06","25","22:00","21.1","","20.0","","93","","36","","5","","12.9","","99.00","","29","","","","Cloudy"
"1954-06-25 23:00","1954","06","25","23:00","20.6","","19.4","","93","","36","","5","","9.7","","98.96","","28","","","","Fog"
"1954-06-26 00:00","1954","06","26","00:00","20.6","","19.4","","93","","36","","3","","9.7","","98.93","","28","","","","Fog"
"1954-06-26 01:00","1954","06","26","01:00","20.0","","19.4","","97","","5","","5","","6.4","","98.85","","27","","","","Fog"
"1954-06-26 02:00","1954","06","26","02:00","20.0","","19.4","","97","","32","","3","","8.0","","98.92","","27","","","","Rain Showers,Fog"
"1954-06-26 03:00","1954","06","26","03:00","20.0","","19.4","","97","","2","","5","","6.4","","98.85","","27","","","","Fog"
"1954-06-26 04:00","1954","06","26","04:00","19.4","","18.9","","97","","5","","6","","3.2","","98.81","","","","","","Fog"
"1954-06-26 05:00","1954","06","26","05:00","19.4","","18.9","","97","","2","","6","","2.4","","98.78","","","","","","Fog"
"1954-06-26 06:00","1954","06","26","06:00","20.0","","19.4","","97","","36","","3","","3.2","","98.77","","27","","","","Fog"
"1954-06-26 07:00","1954","06","26","07:00","20.6","","19.4","","93","","2","","5","","4.0","","98.75","","28","","","","Fog"
"1954-06-26 08:00","1954","06","26","08:00","22.2","","20.0","","87","","32","","2","","4.0","","98.77","","30","","","","Fog"
"1954-06-26 09:00","1954","06","26","09:00","22.2","","20.6","","90","","36","","8","","4.0","","98.78","","30","","","","Fog"
"1954-06-26 10:00","1954","06","26","10:00","22.8","","20.6","","87","","36","","10","","4.0","","98.75","","31","","","","Fog"
"1954-06-26 11:00","1954","06","26","11:00","25.0","","20.6","","76","","29","","6","","8.0","","98.79","","33","","","","Fog"
"1954-06-26 12:00","1954","06","26","12:00","25.6","","20.0","","72","","34","","6","","11.3","","98.74","","33","","","","Mostly Cloudy"
"1954-06-26 13:00","1954","06","26","13:00","26.1","","20.6","","72","","5","","5","","16.1","","98.70","","34","","","","Mostly Cloudy"
"1954-06-26 14:00","1954","06","26","14:00","27.2","","20.6","","67","","36","","2","","16.1","","98.64","","35","","","","Mostly Cloudy"
"1954-06-26 15:00","1954","06","26","15:00","26.7","","21.1","","72","","2","","6","","16.1","","98.58","","35","","","","Mostly Cloudy"
"1954-06-26 16:00","1954","06","26","16:00","26.7","","20.6","","69","","36","","13","","16.1","","98.54","","35","","","","Mostly Cloudy"
"1954-06-26 17:00","1954","06","26","17:00","26.7","","20.6","","69","","36","","13","","25.0","","98.54","","35","","","","Mainly Clear"
"1954-06-26 18:00","1954","06","26","18:00","26.7","","20.6","","69","","32","","16","","25.0","","98.60","","35","","","","Mainly Clear"
"1954-06-26 19:00","1954","06","26","19:00","25.6","","18.9","","67","","32","","19","","25.0","","98.66","","32","","","","Mainly Clear"
"1954-06-26 20:00","1954","06","26","20:00","22.2","","17.2","","73","","32","","19","","25.0","","98.73","","28","","","","Clear"
"1954-06-26 21:00","1954","06","26","21:00","21.1","","17.2","","79","","27","","19","","25.0","","98.76","","27","","","","Clear"
"1954-06-26 22:00","1954","06","26","22:00","21.1","","16.7","","76","","29","","24","","25.0","","98.76","","26","","","","Clear"
"1954-06-26 23:00","1954","06","26","23:00","19.4","","16.1","","81","","29","","37","","25.0","","98.70","","","","","","Clear"
"1954-06-27 00:00","1954","06","27","00:00","17.8","","15.6","","87","","29","","43","","25.0","","98.69","","","","","","Clear"
"1954-06-27 01:00","1954","06","27","01:00","16.7","","12.8","","78","","29","","31","","25.0","","98.68","","","","","","Clear"
"1954-06-27 02:00","1954","06","27","02:00","15.6","","12.8","","84","","29","","27","","25.0","","98.70","","","","","","Clear"
"1954-06-27 03:00","1954","06","27","03:00","15.0","","12.8","","87","","29","","24","","25.0","","98.69","","","","","","Clear"
"1954-06-27 04:00","1954","06","27","04:00","14.4","","11.7","","84","","29","","27","","25.0","","98.70","","","","","","Clear"
"1954-06-27 05:00","1954","06","27","05:00","14.4","","11.7","","84","","29","","26","","25.0","","98.75","","","","","","Clear"
"1954-06-27 06:00","1954","06","27","06:00","15.6","","12.2","","81","","29","","31","","25.0","","98.76","","","","","","Clear"
"1954-06-27 07:00","1954","06","27","07:00","16.7","","12.8","","78","","29","","39","","25.0","","98.76","","","","","","Clear"
"1954-06-27 08:00","1954","06","27","08:00","17.8","","16.1","","90","","29","","51","","25.0","","98.79","","","","","","Mainly Clear"
"1954-06-27 09:00","1954","06","27","09:00","17.8","","7.8","","52","","32","","51","","25.0","","98.88","","","","","","Mostly Cloudy"
"1954-06-27 10:00","1954","06","27","10:00","17.8","","8.3","","54","","34","","55","","25.0","","98.87","","","","","","Mostly Cloudy"
"1954-06-27 11:00","1954","06","27","11:00","18.3","","8.3","","52","","34","","51","","25.0","","98.93","","","","","","Mostly Cloudy"
"1954-06-27 12:00","1954","06","27","12:00","18.3","","8.3","","52","","34","","51","","25.0","","98.95","","","","","","Mostly Cloudy"
"1954-06-27 13:00","1954","06","27","13:00","18.3","","9.4","","56","","34","","51","","25.0","","98.97","","","","","","Mostly Cloudy"
"1954-06-27 14:00","1954","06","27","14:00","17.8","","7.8","","52","","36","","51","","25.0","","99.02","","","","","","Mostly Cloudy"
"1954-06-27 15:00","1954","06","27","15:00","16.7","","9.4","","62","","34","","37","","25.0","","99.10","","","","","","Mostly Cloudy"
"1954-06-27 16:00","1954","06","27","16:00","17.8","","8.9","","56","","34","","43","","25.0","","99.14","","","","","","Mostly Cloudy"
"1954-06-27 17:00","1954","06","27","17:00","17.8","","7.8","","52","","32","","43","","25.0","","99.12","","","","","","Mainly Clear"
"1954-06-27 18:00","1954","06","27","18:00","17.8","","13.9","","78","","29","","40","","25.0","","99.15","","","","","","Mainly Clear"
"1954-06-27 19:00","1954","06","27","19:00","17.8","","8.3","","54","","34","","39","","25.0","","99.18","","","","","","Mainly Clear"
"1954-06-27 20:00","1954","06","27","20:00","16.1","","8.3","","60","","32","","29","","25.0","","99.23","","","","","","Mainly Clear"
"1954-06-27 21:00","1954","06","27","21:00","15.6","","9.4","","67","","32","","31","","25.0","","99.30","","","","","","Mainly Clear"
"1954-06-27 22:00","1954","06","27","22:00","15.6","","10.0","","70","","29","","32","","25.0","","99.28","","","","","","Clear"
"1954-06-27 23:00","1954","06","27","23:00","15.0","","9.4","","69","","29","","34","","25.0","","99.34","","","","","","Clear"
"1954-06-28 00:00","1954","06","28","00:00","15.6","","8.9","","65","","32","","31","","25.0","","99.33","","","","","","Clear"
"1954-06-28 01:00","1954","06","28","01:00","15.6","","8.9","","65","","34","","32","","25.0","","99.31","","","","","","Clear"
"1954-06-28 02:00","1954","06","28","02:00","15.0","","8.9","","67","","34","","35","","25.0","","99.31","","","","","","Clear"
"1954-06-28 03:00","1954","06","28","03:00","14.4","","8.9","","69","","34","","27","","25.0","","99.33","","","","","","Mainly Clear"
"1954-06-28 04:00","1954","06","28","04:00","13.9","","8.9","","72","","34","","26","","25.0","","99.40","","","","","","Mainly Clear"
"1954-06-28 05:00","1954","06","28","05:00","13.9","","8.9","","72","","34","","23","","25.0","","99.47","","","","","","Mostly Cloudy"
"1954-06-28 06:00","1954","06","28","06:00","15.0","","9.4","","69","","34","","31","","25.0","","99.53","","","","","","Mostly Cloudy"
"1954-06-28 07:00","1954","06","28","07:00","16.1","","10.0","","67","","34","","24","","25.0","","99.63","","","","","","Mostly Cloudy"
"1954-06-28 08:00","1954","06","28","08:00","17.2","","9.4","","60","","36","","29","","25.0","","99.71","","","","","","Mainly Clear"
"1954-06-28 09:00","1954","06","28","09:00","18.9","","10.6","","58","","36","","29","","25.0","","99.65","","","","","","Mainly Clear"
"1954-06-28 10:00","1954","06","28","10:00","20.6","","10.6","","53","","36","","32","","25.0","","99.65","","","","","","Mainly Clear"
"1954-06-28 11:00","1954","06","28","11:00","21.7","","11.7","","53","","36","","35","","25.0","","99.63","","","","","","Mainly Clear"
"1954-06-28 12:00","1954","06","28","12:00","22.2","","12.2","","53","","36","","29","","25.0","","99.62","","25","","","","Mainly Clear"
"1954-06-28 13:00","1954","06","28","13:00","22.8","","12.8","","53","","36","","32","","25.0","","99.61","","25","","","","Mainly Clear"
"1954-06-28 14:00","1954","06","28","14:00","23.9","","12.2","","48","","36","","32","","25.0","","99.55","","26","","","","Mainly Clear"
"1954-06-28 15:00","1954","06","28","15:00","23.9","","12.8","","50","","36","","24","","25.0","","99.54","","27","","","","Mainly Clear"
"1954-06-28 16:00","1954","06","28","16:00","24.4","","14.4","","54","","36","","29","","25.0","","99.54","","28","","","","Mostly Cloudy"
"1954-06-28 17:00","1954","06","28","17:00","23.3","","12.2","","50","","36","","29","","25.0","","99.54","","26","","","","Mostly Cloudy"
"1954-06-28 18:00","1954","06","28","18:00","22.8","","12.2","","51","","36","","26","","25.0","","99.56","","25","","","","Mainly Clear"
"1954-06-28 19:00","1954","06","28","19:00","21.1","","11.7","","55","","36","","23","","25.0","","99.58","","","","","","Mainly Clear"
"1954-06-28 20:00","1954","06","28","20:00","19.4","","12.2","","63","","36","","16","","25.0","","99.59","","","","","","Mainly Clear"
"1954-06-28 21:00","1954","06","28","21:00","17.2","","12.2","","72","","36","","16","","25.0","","99.60","","","","","","Clear"
"1954-06-28 22:00","1954","06","28","22:00","16.1","","12.2","","78","","36","","16","","25.0","","99.62","","","","","","Clear"
"1954-06-28 23:00","1954","06","28","23:00","16.1","","11.1","","72","","34","","19","","25.0","","99.62","","","","","","Clear"
"1954-06-29 00:00","1954","06","29","00:00","15.6","","11.1","","75","","34","","19","","25.0","","99.61","","","","","","Clear"
"1954-06-29 01:00","1954","06","29","01:00","15.6","","11.1","","75","","34","","18","","25.0","","99.58","","","","","","Clear"
"1954-06-29 02:00","1954","06","29","02:00","15.0","","10.6","","75","","34","","18","","25.0","","99.57","","","","","","Clear"
"1954-06-29 03:00","1954","06","29","03:00","14.4","","10.0","","75","","36","","19","","25.0","","99.55","","","","","","Mainly Clear"
"1954-06-29 04:00","1954","06","29","04:00","13.9","","10.0","","77","","34","","18","","25.0","","99.58","","","","","","Mostly Cloudy"
"1954-06-29 05:00","1954","06","29","05:00","14.4","","9.4","","72","","34","","21","","25.0","","99.64","","","","","","Mostly Cloudy"
"1954-06-29 06:00","1954","06","29","06:00","16.1","","10.6","","70","","34","","16","","25.0","","99.61","","","","","","Mostly Cloudy"
"1954-06-29 07:00","1954","06","29","07:00","17.8","","10.6","","63","","36","","18","","25.0","","99.63","","","","","","Mostly Cloudy"
"1954-06-29 08:00","1954","06","29","08:00","20.6","","12.2","","59","","36","","16","","25.0","","99.67","","","","","","Mostly Cloudy"
"1954-06-29 09:00","1954","06","29","09:00","21.7","","12.8","","57","","36","","19","","25.0","","99.68","","","","","","Mostly Cloudy"
"1954-06-29 10:00","1954","06","29","10:00","23.3","","13.3","","54","","36","","24","","25.0","","99.69","","26","","","","Mostly Cloudy"
"1954-06-29 11:00","1954","06","29","11:00","24.4","","13.9","","52","","36","","19","","25.0","","99.66","","28","","","","Mainly Clear"
"1954-06-29 12:00","1954","06","29","12:00","25.6","","12.8","","45","","36","","26","","25.0","","99.61","","28","","","","Mainly Clear"
"1954-06-29 13:00","1954","06","29","13:00","26.1","","13.3","","56","","36","","26","","25.0","","99.58","","29","","","","Mainly Clear"
"1954-06-29 14:00","1954","06","29","14:00","26.7","","12.2","","41","","36","","26","","25.0","","99.55","","29","","","","Mainly Clear"
"1954-06-29 15:00","1954","06","29","15:00","26.7","","13.3","","44","","36","","23","","25.0","","99.48","","30","","","","Mainly Clear"
"1954-06-29 16:00","1954","06","29","16:00","26.7","","12.8","","42","","36","","19","","25.0","","99.46","","29","","","","Mainly Clear"
"1954-06-29 17:00","1954","06","29","17:00","26.7","","12.2","","41","","36","","16","","25.0","","99.41","","29","","","","Mainly Clear"
"1954-06-29 18:00","1954","06","29","18:00","26.1","","13.3","","45","","36","","8","","25.0","","99.40","","29","","","","Mainly Clear"
"1954-06-29 19:00","1954","06","29","19:00","25.6","","12.8","","45","","36","","6","","25.0","","99.40","","28","","","","Mainly Clear"
"1954-06-29 20:00","1954","06","29","20:00","22.8","","13.3","","55","","36","","11","","25.0","","99.42","","26","","","","Mainly Clear"
"1954-06-29 21:00","1954","06","29","21:00","21.1","","11.7","","55","","36","","13","","25.0","","99.50","","","","","","Mainly Clear"
"1954-06-29 22:00","1954","06","29","22:00","20.0","","10.6","","55","","36","","5","","25.0","","99.57","","","","","","Mainly Clear"
"1954-06-29 23:00","1954","06","29","23:00","17.8","","12.8","","73","","7","","11","","25.0","","99.53","","","","","","Clear"
"1954-06-30 00:00","1954","06","30","00:00","16.1","","13.3","","84","","36","","6","","25.0","","99.52","","","","","","Clear"
"1954-06-30 01:00","1954","06","30","01:00","15.6","","12.8","","84","","36","","8","","25.0","","99.52","","","","","","Clear"
"1954-06-30 02:00","1954","06","30","02:00","16.1","","13.3","","84","","32","","10","","25.0","","99.53","","","","","","Mostly Cloudy"
"1954-06-30 03:00","1954","06","30","03:00","15.6","","13.3","","87","","36","","5","","25.0","","99.50","","","","","","Mostly Cloudy"
"1954-06-30 04:00","1954","06","30","04:00","15.6","","13.3","","87","","34","","6","","25.0","","99.50","","","","","","Mostly Cloudy"
"1954-06-30 05:00","1954","06","30","05:00","15.6","","12.8","","84","","5","","3","","25.0","","99.54","","","","","","Mostly Cloudy"
"1954-06-30 06:00","1954","06","30","06:00","15.6","","12.8","","84","","20","","3","","16.1","","99.57","","","","","","Mostly Cloudy"
"1954-06-30 07:00","1954","06","30","07:00","16.7","","13.9","","84","","16","","6","","9.7","","99.61","","","","","","Haze"
"1954-06-30 08:00","1954","06","30","08:00","18.3","","14.4","","78","","18","","3","","9.7","","99.60","","","","","","Haze"
"1954-06-30 09:00","1954","06","30","09:00","20.6","","15.6","","73","","11","","3","","8.0","","99.58","","25","","","","Haze"
"1954-06-30 10:00","1954","06","30","10:00","23.3","","16.7","","66","","18","","8","","8.0","","99.57","","28","","","","Haze"
"1954-06-30 11:00","1954","06","30","11:00","25.0","","16.1","","71","","18","","13","","9.7","","99.54","","30","","","","Haze"
"1954-06-30 12:00","1954","06","30","12:00","25.0","","15.0","","54","","14","","16","","9.7","","99.52","","29","","","","Haze"
"1954-06-30 13:00","1954","06","30","13:00","25.0","","16.1","","58","","14","","16","","9.7","","99.50","","30","","","","Haze"
"1954-06-30 14:00","1954","06","30","14:00","24.4","","16.7","","62","","14","","23","","8.0","","99.47","","29","","","","Haze"
"1954-06-30 15:00","1954","06","30","15:00","24.4","","16.7","","62","","16","","29","","8.0","","99.45","","29","","","","Haze"
"1954-06-30 16:00","1954","06","30","16:00","22.8","","16.1","","66","","16","","23","","8.0","","99.46","","27","","","","Haze"
"1954-06-30 17:00","1954","06","30","17:00","22.2","","16.1","","68","","16","","16","","8.0","","99.50","","27","","","","Haze"
"1954-06-30 18:00","1954","06","30","18:00","20.0","","15.6","","76","","14","","16","","8.0","","99.51","","","","","","Haze"
"1954-06-30 19:00","1954","06","30","19:00","20.6","","14.4","","68","","14","","13","","8.0","","99.49","","","","","","Haze"
"1954-06-30 20:00","1954","06","30","20:00","20.0","","13.9","","68","","14","","10","","8.0","","99.48","","","","","","Haze"
"1954-06-30 21:00","1954","06","30","21:00","19.4","","13.9","","70","","9","","8","","8.0","","99.52","","","","","","Haze"
"1954-06-30 22:00","1954","06","30","22:00","18.9","","13.9","","73","","7","","10","","8.0","","99.55","","","","","","Haze"
"1954-06-30 23:00","1954","06","30","23:00","17.2","","15.0","","87","","7","","11","","9.7","","99.56","","","","","","Haze"
