"Station Name","TORONTO LESTER B. PEARSON INT'L A"
"Province","ONTARIO"
"Latitude","43.68"
"Longitude","-79.63"
"Elevation","173.40"
"Climate Identifier","6158733"
"WMO Identifier","71624"
"TC Identifier","YYZ"
"All times are specified in Local Standard Time (LST). Add 1 hour to adjust for Daylight Saving Time where and when it is observed."

"Legend"
"E","Estimated"
"M","Missing"
"NA","Not Available"

"Date/Time","Year","Month","Day","Time","Temp (°C)","Temp Flag","Dew Point Temp (°C)","Dew Point Temp Flag","Rel Hum (%)","Rel Hum Flag","Wind Dir (10s deg)","Wind Dir Flag","Wind Spd (km/h)","Wind Spd Flag","Visibility (km)","Visibility Flag","Stn Press (kPa)","Stn Press Flag","Hmdx","Hmdx Flag","Wind Chill","Wind Chill Flag","Weather"
"1957-01-01 00:00","1957","01","01","00:00","-13.9","","-18.3","","69","","36","","14","","24.1","","98.90","","","","-21","","Clear"
"1957-01-01 01:00","1957","01","01","01:00","-15.0","","-18.3","","76","","34","","11","","24.1","","98.95","","","","-22","","Clear"
"1957-01-01 02:00","1957","01","01","02:00","-15.0","","-18.9","","72","","36","","8","","24.1","","99.07","","","","-20","","Clear"
"1957-01-01 03:00","1957","01","01","03:00","-15.6","","-19.4","","72","","36","","6","","24.1","","99.16","","","","-20","","Clear"
"1957-01-01 04:00","1957","01","01","04:00","-16.7","","-20.0","","75","","36","","6","","24.1","","99.16","","","","-21","","Clear"
"1957-01-01 05:00","1957","01","01","05:00","-18.3","","-22.2","","71","","34","","8","","24.1","","99.24","","","","-24","","Clear"
"1957-01-01 06:00","1957","01","01","06:00","-18.3","","-22.2","","71","","36","","8","","24.1","","99.30","","","","-24","","Mainly Clear"
"1957-01-01 07:00","1957","01","01","07:00","-18.9","","-23.3","","68","","36","","11","","24.1","","99.38","","","","-26","","Clear"
"1957-01-01 08:00","1957","01","01","08:00","-18.9","","-22.8","","71","","36","","14","","24.1","","99.46","","","","-27","","Mainly Clear"
"1957-01-01 09:00","1957","01","01","09:00","-19.4","","-24.4","","64","","34","","13","","25.0","","99.60","","","","-28","","Mainly Clear"
"1957-01-01 10:00","1957","01","01","10:00","-19.4","","-23.9","","68","","36","","16","","25.0","","99.66","","","","-29","","Mainly Clear"
"1957-01-01 11:00","1957","01","01","11:00","-18.3","","-22.2","","71","","34","","16","","25.0","","99.73","","","","-27","","Mainly Clear"
"1957-01-01 12:00","1957","01","01","12:00","-18.3","","-22.8","","68","","36","","21","","25.0","","99.77","","","","-29","","Mainly Clear"
"1957-01-01 13:00","1957","01","01","13:00","-17.2","","-22.8","","62","","36","","13","","25.0","","99.78","","","","-25","","Mainly Clear"
"1957-01-01 14:00","1957","01","01","14:00","-16.7","","-22.2","","62","","29","","8","","25.0","","99.76","","","","-22","","Mainly Clear"
"1957-01-01 15:00","1957","01","01","15:00","-12.2","","-17.8","","63","","29","","24","","25.0","","99.75","","","","-21","","Mainly Clear"
"1957-01-01 16:00","1957","01","01","16:00","-12.2","","-17.8","","63","","27","","16","","25.0","","99.76","","","","-20","","Mainly Clear"
"1957-01-01 17:00","1957","01","01","17:00","-14.4","","-18.9","","69","","25","","19","","25.0","","99.80","","","","-23","","Clear"
"1957-01-01 18:00","1957","01","01","18:00","-16.1","","-21.1","","65","","23","","19","","25.0","","99.74","","","","-25","","Clear"
"1957-01-01 19:00","1957","01","01","19:00","-13.3","","-18.9","","63","","23","","19","","25.0","","99.69","","","","-22","","Mostly Cloudy"
"1957-01-01 20:00","1957","01","01","20:00","-12.2","","-17.8","","63","","23","","32","","25.0","","99.58","","","","-23","","Cloudy"
"1957-01-01 21:00","1957","01","01","21:00","-10.6","","-14.4","","73","","23","","29","","16.1","","99.58","","","","-20","","Snow"
"1957-01-01 22:00","1957","01","01","22:00","-8.3","","-11.7","","77","","27","","26","","12.9","","99.56","","","","-17","","Snow"
"1957-01-01 23:00","1957","01","01","23:00","-7.8","","-11.1","","77","","29","","19","","4.0","","99.56","","","","-15","","Snow"
"1957-01-02 00:00","1957","01","02","00:00","-10.6","","-13.3","","80","","36","","19","","12.9","","99.65","","","","-18","","Snow"
"1957-01-02 01:00","1957","01","02","01:00","-12.8","","-15.0","","84","","36","","19","","16.1","","99.69","","","","-21","","Snow"
"1957-01-02 02:00","1957","01","02","02:00","-15.6","","-18.9","","75","","2","","13","","25.0","","99.80","","","","-23","","Mainly Clear"
"1957-01-02 03:00","1957","01","02","03:00","-15.0","","-18.3","","76","","36","","14","","25.0","","99.84","","","","-23","","Mostly Cloudy"
"1957-01-02 04:00","1957","01","02","04:00","-16.7","","-19.4","","79","","2","","13","","19.3","","99.91","","","","-24","","Snow"
"1957-01-02 05:00","1957","01","02","05:00","-16.7","","-20.0","","75","","34","","10","","19.3","","99.96","","","","-23","","Snow"
"1957-01-02 06:00","1957","01","02","06:00","-16.7","","-20.0","","75","","36","","8","","19.3","","100.02","","","","-22","","Snow"
"1957-01-02 07:00","1957","01","02","07:00","-16.7","","-20.0","","75","","36","","5","","19.3","","100.07","","","","-21","","Snow"
"1957-01-02 08:00","1957","01","02","08:00","-16.7","","-18.9","","83","","36","","8","","24.1","","100.11","","","","-22","","Mostly Cloudy"
"1957-01-02 09:00","1957","01","02","09:00","-15.0","","-18.3","","76","","34","","3","","24.1","","100.19","","","","-17","","Mainly Clear"
"1957-01-02 10:00","1957","01","02","10:00","-10.0","","-13.3","","77","","34","","29","","24.1","","100.21","","","","-19","","Mainly Clear"
"1957-01-02 11:00","1957","01","02","11:00","-8.9","","-13.3","","70","","29","","23","","24.1","","100.21","","","","-17","","Clear"
"1957-01-02 12:00","1957","01","02","12:00","-7.8","","-13.3","","64","","32","","29","","24.1","","100.18","","","","-17","","Clear"
"1957-01-02 13:00","1957","01","02","13:00","-7.2","","-10.6","","77","","29","","29","","24.1","","100.11","","","","-16","","Clear"
"1957-01-02 14:00","1957","01","02","14:00","-6.7","","-11.1","","71","","29","","26","","24.1","","100.11","","","","-15","","Mainly Clear"
"1957-01-02 15:00","1957","01","02","15:00","-6.7","","-10.6","","74","","29","","26","","24.1","","100.17","","","","-15","","Mainly Clear"
"1957-01-02 16:00","1957","01","02","16:00","-6.7","","-9.4","","81","","29","","23","","25.0","","100.28","","","","-14","","Clear"
"1957-01-02 17:00","1957","01","02","17:00","-7.8","","-11.7","","74","","29","","21","","25.0","","100.30","","","","-15","","Clear"
"1957-01-02 18:00","1957","01","02","18:00","-9.4","","-12.8","","77","","27","","21","","25.0","","100.34","","","","-17","","Clear"
"1957-01-02 19:00","1957","01","02","19:00","-10.6","","-13.9","","76","","27","","16","","25.0","","100.37","","","","-18","","Clear"
"1957-01-02 20:00","1957","01","02","20:00","-12.2","","-15.0","","80","","27","","16","","25.0","","100.32","","","","-20","","Clear"
"1957-01-02 21:00","1957","01","02","21:00","-8.9","","-12.8","","73","","27","","21","","25.0","","100.36","","","","-17","","Mostly Cloudy"
"1957-01-02 22:00","1957","01","02","22:00","-6.7","","-10.6","","74","","27","","23","","25.0","","100.35","","","","-14","","Mostly Cloudy"
"1957-01-02 23:00","1957","01","02","23:00","-5.6","","-8.9","","77","","27","","23","","25.0","","100.36","","","","-13","","Snow Showers"
"1957-01-03 00:00","1957","01","03","00:00","-5.6","","-8.3","","81","","27","","18","","25.0","","100.35","","","","-12","","Snow Showers"
"1957-01-03 01:00","1957","01","03","01:00","-5.6","","-8.3","","81","","34","","5","","24.1","","100.38","","","","-8","","Snow"
"1957-01-03 02:00","1957","01","03","02:00","-6.7","","-8.9","","84","","5","","6","","24.1","","100.44","","","","-10","","Snow"
"1957-01-03 03:00","1957","01","03","03:00","-6.7","","-10.0","","77","","5","","5","","24.1","","100.43","","","","-9","","Snow"
"1957-01-03 04:00","1957","01","03","04:00","-6.7","","-10.0","","77","","5","","3","","16.1","","100.46","","","","-8","","Snow"
"1957-01-03 05:00","1957","01","03","05:00","-7.2","","-9.4","","84","","2","","5","","19.3","","100.46","","","","-10","","Snow"
"1957-01-03 06:00","1957","01","03","06:00","-9.4","","-11.1","","88","","5","","3","","24.1","","100.43","","","","-11","","Clear"
"1957-01-03 07:00","1957","01","03","07:00","-11.7","","-13.3","","87","","","","0","","16.1","","100.41","","","","","","Mainly Clear"
"1957-01-03 08:00","1957","01","03","08:00","-10.0","","-11.1","","92","","23","","5","","6.4","","100.39","","","","-13","","Fog"
"1957-01-03 09:00","1957","01","03","09:00","-8.9","","-10.6","","88","","25","","5","","8.0","","100.39","","","","-12","","Fog"
"1957-01-03 10:00","1957","01","03","10:00","-5.6","","-8.3","","81","","23","","11","","11.3","","100.39","","","","-10","","Snow"
"1957-01-03 11:00","1957","01","03","11:00","-5.0","","-8.3","","77","","23","","29","","12.9","","100.38","","","","-13","","Mostly Cloudy"
"1957-01-03 12:00","1957","01","03","12:00","-3.9","","-7.2","","78","","23","","19","","11.3","","100.23","","","","-10","","Cloudy"
"1957-01-03 13:00","1957","01","03","13:00","-3.3","","-6.7","","78","","20","","24","","11.3","","100.09","","","","-10","","Cloudy"
"1957-01-03 14:00","1957","01","03","14:00","-3.3","","-6.1","","81","","20","","23","","11.3","","99.99","","","","-10","","Cloudy"
"1957-01-03 15:00","1957","01","03","15:00","-3.3","","-6.1","","81","","18","","26","","12.9","","99.85","","","","-10","","Cloudy"
"1957-01-03 16:00","1957","01","03","16:00","-3.3","","-6.1","","81","","18","","26","","12.9","","99.72","","","","-10","","Cloudy"
"1957-01-03 17:00","1957","01","03","17:00","-3.3","","-6.1","","81","","18","","19","","12.9","","99.64","","","","-9","","Cloudy"
"1957-01-03 18:00","1957","01","03","18:00","-2.8","","-6.1","","78","","18","","19","","12.9","","99.50","","","","-9","","Cloudy"
"1957-01-03 19:00","1957","01","03","19:00","-2.2","","-5.0","","81","","18","","19","","12.9","","99.42","","","","-8","","Cloudy"
"1957-01-03 20:00","1957","01","03","20:00","-1.1","","-4.4","","78","","18","","26","","12.9","","99.23","","","","-7","","Cloudy"
"1957-01-03 21:00","1957","01","03","21:00","-1.7","","-3.9","","85","","20","","42","","8.0","","99.14","","","","-10","","Snow"
"1957-01-03 22:00","1957","01","03","22:00","-2.8","","-4.4","","88","","23","","32","","1.6","","99.07","","","","-10","","Snow"
"1957-01-03 23:00","1957","01","03","23:00","-2.8","","-4.4","","88","","23","","26","","12.9","","98.94","","","","-10","","Cloudy"
"1957-01-04 00:00","1957","01","04","00:00","-1.7","","-3.3","","88","","20","","27","","14.5","","98.82","","","","-8","","Cloudy"
"1957-01-04 01:00","1957","01","04","01:00","-1.7","","-3.9","","85","","20","","19","","16.1","","98.67","","","","-7","","Cloudy"
"1957-01-04 02:00","1957","01","04","02:00","-1.1","","-3.9","","81","","20","","18","","16.1","","98.60","","","","-6","","Cloudy"
"1957-01-04 03:00","1957","01","04","03:00","-0.6","","-3.9","","78","","20","","16","","19.3","","98.55","","","","-5","","Cloudy"
"1957-01-04 04:00","1957","01","04","04:00","0.0","","-3.9","","75","","23","","26","","19.3","","98.46","","","","-6","","Cloudy"
"1957-01-04 05:00","1957","01","04","05:00","0.0","","-3.3","","78","","25","","27","","16.1","","98.38","","","","-6","","Snow Showers"
"1957-01-04 06:00","1957","01","04","06:00","-1.1","","-2.2","","92","","25","","27","","1.6","","98.43","","","","-8","","Snow Showers"
"1957-01-04 07:00","1957","01","04","07:00","-1.1","","-2.8","","88","","25","","26","","14.5","","98.44","","","","-7","","Mostly Cloudy"
"1957-01-04 08:00","1957","01","04","08:00","0.6","","-1.7","","85","","25","","39","","6.4","","98.50","","","","","","Snow Showers"
"1957-01-04 09:00","1957","01","04","09:00","1.1","","-0.6","","89","","27","","35","","6.4","","98.58","","","","","","Snow Showers"
"1957-01-04 10:00","1957","01","04","10:00","1.1","","-1.1","","85","","27","","32","","16.1","","98.67","","","","","","Mainly Clear"
"1957-01-04 11:00","1957","01","04","11:00","1.1","","-1.1","","85","","27","","32","","12.9","","98.79","","","","","","Snow Showers"
"1957-01-04 12:00","1957","01","04","12:00","1.1","","-1.1","","85","","27","","40","","6.4","","98.87","","","","","","Snow Showers"
"1957-01-04 13:00","1957","01","04","13:00","0.6","","-1.1","","88","","27","","35","","2.4","","98.91","","","","","","Snow"
"1957-01-04 14:00","1957","01","04","14:00","0.6","","-1.1","","92","","27","","29","","4.0","","98.91","","","","","","Snow"
"1957-01-04 15:00","1957","01","04","15:00","0.6","","-1.1","","92","","27","","42","","12.9","","99.10","","","","","","Mainly Clear"
"1957-01-04 16:00","1957","01","04","16:00","-0.6","","-2.2","","88","","29","","19","","16.1","","99.30","","","","-6","","Mainly Clear"
"1957-01-04 17:00","1957","01","04","17:00","-3.3","","-5.6","","85","","27","","16","","19.3","","99.37","","","","-9","","Mainly Clear"
"1957-01-04 18:00","1957","01","04","18:00","-2.8","","-5.6","","81","","25","","19","","25.0","","99.40","","","","-9","","Mostly Cloudy"
"1957-01-04 19:00","1957","01","04","19:00","-2.2","","-5.6","","78","","27","","23","","25.0","","99.47","","","","-8","","Snow Showers"
"1957-01-04 20:00","1957","01","04","20:00","-2.2","","-5.6","","78","","32","","19","","25.0","","99.50","","","","-8","","Cloudy"
"1957-01-04 21:00","1957","01","04","21:00","-2.2","","-5.0","","81","","32","","16","","25.0","","99.50","","","","-7","","Snow Showers"
"1957-01-04 22:00","1957","01","04","22:00","-2.2","","-5.6","","78","","32","","13","","25.0","","99.58","","","","-7","","Snow Showers"
"1957-01-04 23:00","1957","01","04","23:00","-3.3","","-6.1","","81","","36","","16","","25.0","","99.68","","","","-9","","Snow Showers"
"1957-01-05 00:00","1957","01","05","00:00","-4.4","","-6.7","","84","","2","","13","","19.3","","99.74","","","","-9","","Snow Showers"
"1957-01-05 01:00","1957","01","05","01:00","-5.6","","-8.9","","77","","2","","10","","19.3","","99.80","","","","-10","","Snow Showers"
"1957-01-05 02:00","1957","01","05","02:00","-7.2","","-11.1","","74","","36","","8","","25.0","","99.84","","","","-11","","Clear"
"1957-01-05 03:00","1957","01","05","03:00","-8.3","","-11.1","","80","","34","","6","","25.0","","99.89","","","","-12","","Clear"
"1957-01-05 04:00","1957","01","05","04:00","-8.9","","-11.1","","84","","36","","10","","25.0","","99.92","","","","-14","","Clear"
"1957-01-05 05:00","1957","01","05","05:00","-10.0","","-12.2","","84","","36","","10","","25.0","","99.94","","","","-15","","Clear"
"1957-01-05 06:00","1957","01","05","06:00","-11.1","","-12.8","","87","","36","","10","","25.0","","100.05","","","","-17","","Clear"
"1957-01-05 07:00","1957","01","05","07:00","-11.7","","-13.3","","87","","36","","11","","25.0","","100.11","","","","-18","","Mainly Clear"
"1957-01-05 08:00","1957","01","05","08:00","-11.7","","-13.9","","84","","2","","5","","19.3","","100.22","","","","-15","","Snow Showers"
"1957-01-05 09:00","1957","01","05","09:00","-10.0","","-11.7","","88","","36","","14","","12.9","","100.29","","","","-16","","Snow Showers"
"1957-01-05 10:00","1957","01","05","10:00","-10.0","","-12.8","","80","","36","","16","","19.3","","100.36","","","","-17","","Mainly Clear"
"1957-01-05 11:00","1957","01","05","11:00","-9.4","","-12.8","","77","","36","","19","","24.1","","100.39","","","","-17","","Mostly Cloudy"
"1957-01-05 12:00","1957","01","05","12:00","-8.9","","-11.7","","80","","36","","10","","25.0","","100.32","","","","-14","","Mostly Cloudy"
"1957-01-05 13:00","1957","01","05","13:00","-8.3","","-11.7","","77","","36","","11","","25.0","","100.29","","","","-14","","Mainly Clear"
"1957-01-05 14:00","1957","01","05","14:00","-8.3","","-10.6","","84","","36","","8","","25.0","","100.28","","","","-12","","Mostly Cloudy"
"1957-01-05 15:00","1957","01","05","15:00","-8.3","","-11.7","","77","","36","","8","","25.0","","100.31","","","","-12","","Mostly Cloudy"
"1957-01-05 16:00","1957","01","05","16:00","-8.3","","-11.1","","80","","36","","8","","25.0","","100.34","","","","-12","","Mostly Cloudy"
"1957-01-05 17:00","1957","01","05","17:00","-10.0","","-13.3","","77","","36","","11","","25.0","","100.36","","","","-16","","Mostly Cloudy"
"1957-01-05 18:00","1957","01","05","18:00","-10.6","","-13.9","","76","","36","","10","","25.0","","100.42","","","","-16","","Mostly Cloudy"
"1957-01-05 19:00","1957","01","05","19:00","-11.1","","-13.9","","80","","36","","10","","25.0","","100.45","","","","-17","","Mostly Cloudy"
"1957-01-05 20:00","1957","01","05","20:00","-12.8","","-16.1","","76","","36","","8","","25.0","","100.48","","","","-18","","Mainly Clear"
"1957-01-05 21:00","1957","01","05","21:00","-14.4","","-17.8","","76","","2","","10","","25.0","","100.44","","","","-21","","Mainly Clear"
"1957-01-05 22:00","1957","01","05","22:00","-13.9","","-16.7","","80","","36","","11","","25.0","","100.40","","","","-20","","Mostly Cloudy"
"1957-01-05 23:00","1957","01","05","23:00","-13.9","","-17.2","","76","","36","","11","","25.0","","100.37","","","","-20","","Snow Showers"
"1957-01-06 00:00","1957","01","06","00:00","-11.7","","-15.0","","76","","36","","6","","24.1","","100.38","","","","-15","","Snow Showers"
"1957-01-06 01:00","1957","01","06","01:00","-11.7","","-13.9","","84","","36","","6","","24.1","","100.34","","","","-15","","Mostly Cloudy"
"1957-01-06 02:00","1957","01","06","02:00","-10.0","","-12.8","","80","","36","","6","","24.1","","100.31","","","","-14","","Snow Showers"
"1957-01-06 03:00","1957","01","06","03:00","-9.4","","-11.7","","84","","","","0","","24.1","","100.30","","","","","","Snow Showers"
"1957-01-06 04:00","1957","01","06","04:00","-8.3","","-10.6","","84","","","","0","","16.1","","100.24","","","","","","Snow"
"1957-01-06 05:00","1957","01","06","05:00","-8.9","","-10.6","","88","","36","","6","","16.1","","100.18","","","","-12","","Snow"
"1957-01-06 06:00","1957","01","06","06:00","-10.0","","-11.7","","88","","5","","6","","16.1","","100.13","","","","-14","","Snow"
"1957-01-06 07:00","1957","01","06","07:00","-9.4","","-11.1","","88","","36","","6","","8.0","","100.09","","","","-13","","Snow"
"1957-01-06 08:00","1957","01","06","08:00","-8.9","","-11.1","","84","","5","","10","","2.8","","100.01","","","","-14","","Snow"
"1957-01-06 09:00","1957","01","06","09:00","-8.3","","-9.4","","92","","5","","5","","3.2","","99.97","","","","-11","","Snow"
"1957-01-06 10:00","1957","01","06","10:00","-8.3","","-9.4","","92","","32","","6","","2.4","","99.94","","","","-12","","Snow"
"1957-01-06 11:00","1957","01","06","11:00","-6.7","","-7.8","","92","","36","","6","","11.3","","99.83","","","","-10","","Snow"
"1957-01-06 12:00","1957","01","06","12:00","-5.6","","-8.3","","81","","36","","3","","11.3","","99.72","","","","-7","","Snow"
"1957-01-06 13:00","1957","01","06","13:00","-5.6","","-7.2","","88","","23","","5","","4.0","","99.64","","","","-8","","Fog"
"1957-01-06 14:00","1957","01","06","14:00","-3.3","","-5.6","","85","","20","","14","","12.9","","99.53","","","","-8","","Mainly Clear"
"1957-01-06 15:00","1957","01","06","15:00","-3.3","","-6.7","","78","","20","","13","","12.9","","99.49","","","","-8","","Snow"
"1957-01-06 16:00","1957","01","06","16:00","-3.3","","-7.8","","71","","20","","10","","11.3","","99.45","","","","-7","","Snow"
"1957-01-06 17:00","1957","01","06","17:00","-3.9","","-6.7","","81","","18","","11","","11.3","","99.40","","","","-8","","Snow"
"1957-01-06 18:00","1957","01","06","18:00","-3.9","","-7.2","","78","","18","","13","","12.9","","99.34","","","","-9","","Snow"
"1957-01-06 19:00","1957","01","06","19:00","-4.4","","-6.7","","84","","20","","10","","12.9","","99.34","","","","-9","","Mainly Clear"
"1957-01-06 20:00","1957","01","06","20:00","-5.0","","-7.2","","84","","23","","6","","12.9","","99.26","","","","-8","","Snow"
"1957-01-06 21:00","1957","01","06","21:00","-4.4","","-7.2","","81","","23","","8","","16.1","","99.22","","","","-8","","Snow"
"1957-01-06 22:00","1957","01","06","22:00","-3.3","","-5.6","","85","","18","","3","","16.1","","99.15","","","","-5","","Snow"
"1957-01-06 23:00","1957","01","06","23:00","-2.8","","-5.0","","85","","18","","6","","16.1","","99.08","","","","-5","","Cloudy"
"1957-01-07 00:00","1957","01","07","00:00","-2.2","","-4.4","","85","","18","","8","","12.9","","99.00","","","","-5","","Snow"
"1957-01-07 01:00","1957","01","07","01:00","-2.8","","-4.4","","88","","18","","6","","16.1","","98.95","","","","-5","","Snow"
"1957-01-07 02:00","1957","01","07","02:00","-2.8","","-5.6","","81","","23","","8","","19.3","","98.88","","","","-6","","Cloudy"
"1957-01-07 03:00","1957","01","07","03:00","-2.8","","-5.6","","81","","18","","6","","19.3","","98.86","","","","-5","","Cloudy"
"1957-01-07 04:00","1957","01","07","04:00","-3.9","","-6.1","","85","","20","","13","","19.3","","98.79","","","","-9","","Cloudy"
"1957-01-07 05:00","1957","01","07","05:00","-3.9","","-5.6","","88","","20","","11","","19.3","","98.74","","","","-8","","Cloudy"
"1957-01-07 06:00","1957","01","07","06:00","-3.3","","-5.6","","85","","23","","14","","19.3","","98.72","","","","-8","","Cloudy"
"1957-01-07 07:00","1957","01","07","07:00","-2.8","","-5.6","","81","","23","","18","","19.3","","98.72","","","","-8","","Snow"
"1957-01-07 08:00","1957","01","07","08:00","-2.8","","-5.6","","81","","23","","16","","11.3","","98.70","","","","-8","","Snow"
"1957-01-07 09:00","1957","01","07","09:00","-2.8","","-4.4","","88","","23","","16","","4.0","","98.68","","","","-8","","Snow"
"1957-01-07 10:00","1957","01","07","10:00","-2.2","","-4.4","","85","","23","","16","","11.3","","98.67","","","","-7","","Mostly Cloudy"
"1957-01-07 11:00","1957","01","07","11:00","-1.1","","-3.9","","81","","23","","16","","11.3","","98.65","","","","-6","","Cloudy"
"1957-01-07 12:00","1957","01","07","12:00","-1.1","","-4.4","","78","","25","","13","","11.3","","98.58","","","","-5","","Cloudy"
"1957-01-07 13:00","1957","01","07","13:00","-0.6","","-3.3","","81","","23","","6","","4.8","","98.53","","","","-3","","Snow"
"1957-01-07 14:00","1957","01","07","14:00","0.6","","-1.7","","85","","25","","13","","16.1","","98.53","","","","","","Mostly Cloudy"
"1957-01-07 15:00","1957","01","07","15:00","0.0","","-2.2","","85","","25","","16","","12.9","","98.58","","","","-5","","Mostly Cloudy"
"1957-01-07 16:00","1957","01","07","16:00","0.6","","-1.7","","85","","25","","11","","9.7","","98.63","","","","","","Snow"
"1957-01-07 17:00","1957","01","07","17:00","0.0","","-2.2","","85","","27","","11","","12.9","","98.72","","","","-4","","Mostly Cloudy"
"1957-01-07 18:00","1957","01","07","18:00","0.0","","-2.8","","82","","29","","24","","16.1","","98.84","","","","-6","","Cloudy"
"1957-01-07 19:00","1957","01","07","19:00","-1.1","","-2.8","","88","","27","","19","","24.1","","98.95","","","","-6","","Mostly Cloudy"
"1957-01-07 20:00","1957","01","07","20:00","-0.6","","-2.2","","88","","29","","32","","24.1","","99.02","","","","-7","","Mostly Cloudy"
"1957-01-07 21:00","1957","01","07","21:00","-0.6","","-2.2","","88","","29","","29","","24.1","","99.12","","","","-7","","Snow"
"1957-01-07 22:00","1957","01","07","22:00","-0.6","","-2.2","","88","","27","","23","","24.1","","99.16","","","","-6","","Snow"
"1957-01-07 23:00","1957","01","07","23:00","-1.1","","-2.2","","92","","27","","27","","24.1","","99.23","","","","-8","","Snow"
"1957-01-08 00:00","1957","01","08","00:00","-1.7","","-3.3","","88","","27","","26","","24.1","","99.32","","","","-8","","Snow Showers"
"1957-01-08 01:00","1957","01","08","01:00","-1.7","","-4.4","","81","","27","","29","","24.1","","99.37","","","","-9","","Snow Showers"
"1957-01-08 02:00","1957","01","08","02:00","-2.2","","-4.4","","85","","27","","19","","25.0","","99.41","","","","-8","","Snow Showers"
"1957-01-08 03:00","1957","01","08","03:00","-2.2","","-5.0","","81","","27","","21","","25.0","","99.50","","","","-8","","Mostly Cloudy"
"1957-01-08 04:00","1957","01","08","04:00","-3.9","","-6.1","","85","","27","","13","","25.0","","99.50","","","","-9","","Mainly Clear"
"1957-01-08 05:00","1957","01","08","05:00","-4.4","","-7.2","","81","","27","","19","","25.0","","99.56","","","","-11","","Mainly Clear"
"1957-01-08 06:00","1957","01","08","06:00","-3.3","","-5.6","","85","","27","","24","","25.0","","99.63","","","","-10","","Mainly Clear"
"1957-01-08 07:00","1957","01","08","07:00","-3.3","","-6.1","","81","","27","","19","","25.0","","99.69","","","","-9","","Mostly Cloudy"
"1957-01-08 08:00","1957","01","08","08:00","-2.8","","-5.0","","85","","34","","8","","25.0","","99.72","","","","-6","","Mostly Cloudy"
"1957-01-08 09:00","1957","01","08","09:00","-3.3","","-5.0","","88","","25","","6","","25.0","","99.75","","","","-6","","Mainly Clear"
"1957-01-08 10:00","1957","01","08","10:00","-2.2","","-5.6","","78","","23","","6","","25.0","","99.75","","","","-5","","Mainly Clear"
"1957-01-08 11:00","1957","01","08","11:00","-1.1","","-6.1","","69","","20","","10","","25.0","","99.74","","","","-5","","Mostly Cloudy"
"1957-01-08 12:00","1957","01","08","12:00","-1.1","","-4.4","","78","","23","","14","","25.0","","99.66","","","","-6","","Mostly Cloudy"
"1957-01-08 13:00","1957","01","08","13:00","-1.1","","-5.0","","75","","23","","19","","25.0","","99.51","","","","-6","","Cloudy"
"1957-01-08 14:00","1957","01","08","14:00","-1.1","","-3.3","","85","","20","","16","","25.0","","99.50","","","","-6","","Cloudy"
"1957-01-08 15:00","1957","01","08","15:00","-1.1","","-5.0","","75","","20","","26","","25.0","","99.47","","","","-7","","Mostly Cloudy"
"1957-01-08 16:00","1957","01","08","16:00","-2.2","","-5.6","","78","","23","","19","","25.0","","99.46","","","","-8","","Mostly Cloudy"
"1957-01-08 17:00","1957","01","08","17:00","-3.3","","-6.7","","78","","20","","14","","24.1","","99.42","","","","-8","","Mostly Cloudy"
"1957-01-08 18:00","1957","01","08","18:00","-3.3","","-6.7","","78","","18","","13","","24.1","","99.30","","","","-8","","Cloudy"
"1957-01-08 19:00","1957","01","08","19:00","-2.8","","-7.2","","72","","18","","11","","24.1","","99.20","","","","-7","","Cloudy"
"1957-01-08 20:00","1957","01","08","20:00","-2.2","","-5.6","","78","","18","","13","","24.1","","99.06","","","","-7","","Cloudy"
"1957-01-08 21:00","1957","01","08","21:00","-1.1","","-5.0","","75","","18","","14","","19.3","","98.94","","","","-6","","Cloudy"
"1957-01-08 22:00","1957","01","08","22:00","-1.1","","-4.4","","78","","20","","11","","19.3","","98.96","","","","-5","","Cloudy"
"1957-01-08 23:00","1957","01","08","23:00","-1.1","","-4.4","","78","","18","","11","","19.3","","98.90","","","","-5","","Cloudy"
"1957-01-09 00:00","1957","01","09","00:00","-1.1","","-3.3","","85","","18","","13","","16.1","","98.82","","","","-5","","Snow"
"1957-01-09 01:00","1957","01","09","01:00","0.0","","-2.2","","85","","20","","19","","16.1","","98.72","","","","-5","","Snow"
"1957-01-09 02:00","1957","01","09","02:00","0.0","","-1.7","","88","","20","","23","","16.1","","98.70","","","","-6","","Snow"
"1957-01-09 03:00","1957","01","09","03:00","0.0","","-0.6","","96","","20","","16","","16.1","","98.71","","","","-5","","Snow"
"1957-01-09 04:00","1957","01","09","04:00","0.0","","-0.6","","96","","23","","16","","16.1","","98.66","","","","-5","","Cloudy"
"1957-01-09 05:00","1957","01","09","05:00","1.1","","-1.7","","82","","25","","19","","16.1","","98.73","","","","","","Cloudy"
"1957-01-09 06:00","1957","01","09","06:00","0.6","","-1.1","","88","","27","","16","","16.1","","98.83","","","","","","Cloudy"
"1957-01-09 07:00","1957","01","09","07:00","1.1","","-1.1","","85","","27","","16","","16.1","","98.84","","","","","","Cloudy"
"1957-01-09 08:00","1957","01","09","08:00","1.7","","-1.7","","78","","27","","10","","8.0","","98.88","","","","","","Haze"
"1957-01-09 09:00","1957","01","09","09:00","1.1","","-1.7","","82","","29","","8","","8.0","","98.97","","","","","","Haze"
"1957-01-09 10:00","1957","01","09","10:00","1.7","","-1.1","","82","","27","","8","","12.9","","99.00","","","","","","Cloudy"
"1957-01-09 11:00","1957","01","09","11:00","2.2","","-3.3","","67","","27","","13","","16.1","","99.06","","","","","","Cloudy"
"1957-01-09 12:00","1957","01","09","12:00","2.2","","-2.2","","72","","29","","16","","24.1","","99.09","","","","","","Cloudy"
"1957-01-09 13:00","1957","01","09","13:00","1.7","","-3.3","","69","","27","","16","","24.1","","99.07","","","","","","Cloudy"
"1957-01-09 14:00","1957","01","09","14:00","1.1","","-3.3","","72","","29","","16","","24.1","","99.00","","","","","","Cloudy"
"1957-01-09 15:00","1957","01","09","15:00","0.0","","-5.0","","69","","29","","24","","24.1","","99.10","","","","-6","","Cloudy"
"1957-01-09 16:00","1957","01","09","16:00","-2.2","","-7.2","","69","","36","","23","","24.1","","99.16","","","","-8","","Cloudy"
"1957-01-09 17:00","1957","01","09","17:00","-3.9","","-6.1","","85","","36","","19","","24.1","","99.21","","","","-10","","Cloudy"
"1957-01-09 18:00","1957","01","09","18:00","-4.4","","-6.7","","84","","36","","24","","24.1","","99.22","","","","-11","","Cloudy"
"1957-01-09 19:00","1957","01","09","19:00","-5.0","","-7.8","","81","","36","","27","","24.1","","99.29","","","","-13","","Cloudy"
"1957-01-09 20:00","1957","01","09","20:00","-6.1","","-8.3","","84","","36","","29","","24.1","","99.23","","","","-14","","Cloudy"
"1957-01-09 21:00","1957","01","09","21:00","-6.1","","-9.4","","77","","36","","26","","25.0","","99.11","","","","-14","","Cloudy"
"1957-01-09 22:00","1957","01","09","22:00","-7.2","","-10.6","","74","","36","","23","","25.0","","99.14","","","","-15","","Cloudy"
"1957-01-09 23:00","1957","01","09","23:00","-7.8","","-11.7","","74","","36","","21","","25.0","","99.13","","","","-15","","Cloudy"
"1957-01-10 00:00","1957","01","10","00:00","-8.9","","-12.2","","77","","36","","19","","25.0","","99.06","","","","-16","","Cloudy"
"1957-01-10 01:00","1957","01","10","01:00","-8.9","","-12.2","","77","","36","","18","","4.8","","98.98","","","","-16","","Snow"
"1957-01-10 02:00","1957","01","10","02:00","-9.4","","-12.8","","77","","36","","23","","3.2","","98.97","","","","-18","","Snow"
"1957-01-10 03:00","1957","01","10","03:00","-10.6","","-11.7","","91","","36","","26","","1.2","","98.94","","","","-20","","Snow"
"1957-01-10 04:00","1957","01","10","04:00","-11.1","","-13.3","","84","","36","","19","","2.4","","98.99","","","","-19","","Snow"
"1957-01-10 05:00","1957","01","10","05:00","-11.7","","-13.9","","84","","36","","23","","2.4","","99.04","","","","-21","","Snow"
"1957-01-10 06:00","1957","01","10","06:00","-12.2","","-13.9","","87","","36","","21","","3.2","","99.15","","","","-21","","Snow"
"1957-01-10 07:00","1957","01","10","07:00","-12.2","","-15.6","","76","","36","","24","","2.0","","99.23","","","","-21","","Snow"
"1957-01-10 08:00","1957","01","10","08:00","-12.2","","-15.6","","76","","36","","26","","25.0","","99.40","","","","-22","","Mostly Cloudy"
"1957-01-10 09:00","1957","01","10","09:00","-12.8","","-15.0","","84","","36","","26","","25.0","","99.57","","","","-23","","Mostly Cloudy"
"1957-01-10 10:00","1957","01","10","10:00","-12.2","","-16.1","","73","","36","","29","","25.0","","99.75","","","","-22","","Mostly Cloudy"
"1957-01-10 11:00","1957","01","10","11:00","-11.7","","-15.6","","73","","36","","24","","25.0","","99.90","","","","-21","","Mainly Clear"
"1957-01-10 12:00","1957","01","10","12:00","-10.0","","-14.4","","70","","36","","19","","25.0","","99.95","","","","-18","","Mainly Clear"
"1957-01-10 13:00","1957","01","10","13:00","-9.4","","-15.0","","64","","36","","18","","25.0","","100.02","","","","-17","","Mainly Clear"
"1957-01-10 14:00","1957","01","10","14:00","-9.4","","-13.3","","73","","36","","16","","25.0","","100.12","","","","-16","","Mainly Clear"
"1957-01-10 15:00","1957","01","10","15:00","-9.4","","-14.4","","67","","32","","26","","25.0","","100.23","","","","-18","","Mainly Clear"
"1957-01-10 16:00","1957","01","10","16:00","-10.0","","-13.3","","77","","34","","16","","25.0","","100.34","","","","-17","","Mainly Clear"
"1957-01-10 17:00","1957","01","10","17:00","-11.1","","-14.4","","76","","29","","16","","24.1","","100.47","","","","-18","","Mainly Clear"
"1957-01-10 18:00","1957","01","10","18:00","-12.2","","-15.6","","76","","29","","19","","24.1","","100.56","","","","-20","","Mainly Clear"
"1957-01-10 19:00","1957","01","10","19:00","-11.7","","-15.0","","76","","29","","23","","24.1","","100.66","","","","-21","","Mainly Clear"
"1957-01-10 20:00","1957","01","10","20:00","-11.7","","-15.0","","76","","25","","16","","24.1","","100.71","","","","-19","","Mostly Cloudy"
"1957-01-10 21:00","1957","01","10","21:00","-12.2","","-15.0","","80","","25","","13","","24.1","","100.81","","","","-19","","Mostly Cloudy"
"1957-01-10 22:00","1957","01","10","22:00","-11.7","","-14.4","","76","","23","","13","","24.1","","100.84","","","","-18","","Snow"
"1957-01-10 23:00","1957","01","10","23:00","-11.7","","-13.9","","80","","23","","23","","24.1","","100.83","","","","-21","","Cloudy"
"1957-01-11 00:00","1957","01","11","00:00","-10.6","","-12.8","","81","","23","","19","","24.1","","100.78","","","","-18","","Snow Showers"
"1957-01-11 01:00","1957","01","11","01:00","-10.6","","-12.8","","84","","23","","23","","25.0","","100.72","","","","-19","","Mostly Cloudy"
"1957-01-11 02:00","1957","01","11","02:00","-9.4","","-11.7","","84","","23","","21","","25.0","","100.76","","","","-17","","Cloudy"
"1957-01-11 03:00","1957","01","11","03:00","-8.9","","-12.2","","77","","23","","19","","25.0","","100.83","","","","-16","","Cloudy"
"1957-01-11 04:00","1957","01","11","04:00","-8.9","","-11.7","","80","","23","","18","","25.0","","100.86","","","","-16","","Cloudy"
"1957-01-11 05:00","1957","01","11","05:00","-9.4","","-13.9","","70","","23","","16","","25.0","","100.86","","","","-16","","Mostly Cloudy"
"1957-01-11 06:00","1957","01","11","06:00","-10.0","","-13.3","","77","","20","","13","","25.0","","100.87","","","","-16","","Cloudy"
"1957-01-11 07:00","1957","01","11","07:00","-10.6","","-13.3","","80","","20","","8","","25.0","","100.97","","","","-15","","Mainly Clear"
"1957-01-11 08:00","1957","01","11","08:00","-11.1","","-15.0","","73","","20","","13","","25.0","","100.98","","","","-18","","Snow Showers"
"1957-01-11 09:00","1957","01","11","09:00","-11.1","","-15.0","","73","","23","","13","","16.1","","101.02","","","","-18","","Snow Showers"
"1957-01-11 10:00","1957","01","11","10:00","-10.0","","-13.3","","77","","20","","11","","16.1","","101.01","","","","-16","","Snow Showers"
"1957-01-11 11:00","1957","01","11","11:00","-8.3","","-13.3","","67","","23","","14","","19.3","","100.92","","","","-14","","Mostly Cloudy"
"1957-01-11 12:00","1957","01","11","12:00","-7.8","","-12.2","","70","","25","","26","","19.3","","100.82","","","","-16","","Cloudy"
"1957-01-11 13:00","1957","01","11","13:00","-7.2","","-11.7","","71","","25","","29","","25.0","","100.73","","","","-16","","Cloudy"
"1957-01-11 14:00","1957","01","11","14:00","-7.2","","-11.1","","74","","25","","31","","25.0","","100.64","","","","-16","","Mostly Cloudy"
"1957-01-11 15:00","1957","01","11","15:00","-6.7","","-10.6","","74","","25","","32","","25.0","","100.58","","","","-15","","Mostly Cloudy"
"1957-01-11 16:00","1957","01","11","16:00","-7.2","","-10.6","","77","","23","","26","","16.1","","100.55","","","","-15","","Mostly Cloudy"
"1957-01-11 17:00","1957","01","11","17:00","-7.8","","-10.6","","81","","23","","29","","16.1","","100.43","","","","-17","","Mostly Cloudy"
"1957-01-11 18:00","1957","01","11","18:00","-7.2","","-11.1","","74","","23","","16","","19.3","","100.48","","","","-14","","Mostly Cloudy"
"1957-01-11 19:00","1957","01","11","19:00","-7.8","","-10.6","","81","","18","","13","","24.1","","100.44","","","","-14","","Mostly Cloudy"
"1957-01-11 20:00","1957","01","11","20:00","-7.8","","-10.0","","84","","20","","14","","24.1","","100.31","","","","-14","","Cloudy"
"1957-01-11 21:00","1957","01","11","21:00","-6.7","","-10.6","","74","","23","","24","","24.1","","100.22","","","","-14","","Mostly Cloudy"
"1957-01-11 22:00","1957","01","11","22:00","-7.2","","-12.2","","68","","20","","18","","24.1","","100.15","","","","-14","","Mainly Clear"
"1957-01-11 23:00","1957","01","11","23:00","-7.2","","-15.0","","54","","23","","16","","24.1","","100.10","","","","-14","","Mostly Cloudy"
"1957-01-12 00:00","1957","01","12","00:00","-8.3","","-14.4","","61","","23","","11","","24.1","","100.08","","","","-14","","Mostly Cloudy"
"1957-01-12 01:00","1957","01","12","01:00","-8.9","","-14.4","","64","","20","","14","","25.0","","100.02","","","","-15","","Mostly Cloudy"
"1957-01-12 02:00","1957","01","12","02:00","-7.8","","-13.9","","62","","20","","13","","25.0","","99.95","","","","-14","","Cloudy"
"1957-01-12 03:00","1957","01","12","03:00","-7.2","","-10.0","","81","","23","","13","","12.9","","99.92","","","","-13","","Snow"
"1957-01-12 04:00","1957","01","12","04:00","-6.7","","-8.3","","88","","20","","10","","9.7","","99.87","","","","-11","","Snow"
"1957-01-12 05:00","1957","01","12","05:00","-6.7","","-7.8","","92","","23","","10","","9.7","","99.84","","","","-11","","Snow"
"1957-01-12 06:00","1957","01","12","06:00","-6.1","","-7.8","","92","","23","","11","","16.1","","99.86","","","","-11","","Cloudy"
"1957-01-12 07:00","1957","01","12","07:00","-5.6","","-7.8","","88","","23","","13","","16.1","","99.84","","","","-11","","Cloudy"
"1957-01-12 08:00","1957","01","12","08:00","-5.0","","-7.2","","84","","23","","19","","11.3","","99.80","","","","-11","","Cloudy"
"1957-01-12 09:00","1957","01","12","09:00","-5.0","","-7.2","","84","","25","","19","","4.0","","99.77","","","","-11","","Snow"
"1957-01-12 10:00","1957","01","12","10:00","-4.4","","-6.7","","84","","23","","19","","6.4","","99.74","","","","-11","","Snow"
"1957-01-12 11:00","1957","01","12","11:00","-3.9","","-6.7","","81","","23","","29","","8.0","","99.60","","","","-11","","Snow,Haze"
"1957-01-12 12:00","1957","01","12","12:00","-3.3","","-6.1","","81","","25","","29","","12.9","","99.53","","","","-11","","Cloudy"
"1957-01-12 13:00","1957","01","12","13:00","-2.8","","-5.0","","85","","27","","32","","12.9","","99.46","","","","-10","","Cloudy"
"1957-01-12 14:00","1957","01","12","14:00","-3.3","","-6.1","","81","","27","","29","","12.9","","99.40","","","","-11","","Cloudy"
"1957-01-12 15:00","1957","01","12","15:00","-3.3","","-6.1","","81","","25","","23","","12.9","","99.30","","","","-10","","Cloudy"
"1957-01-12 16:00","1957","01","12","16:00","-3.3","","-5.0","","88","","25","","18","","4.8","","99.24","","","","-9","","Snow Showers"
"1957-01-12 17:00","1957","01","12","17:00","-3.9","","-5.6","","88","","25","","18","","2.0","","99.21","","","","-10","","Snow Showers"
"1957-01-12 18:00","1957","01","12","18:00","-3.9","","-5.6","","88","","25","","18","","2.0","","99.21","","","","-10","","Snow Showers"
"1957-01-12 19:00","1957","01","12","19:00","-3.9","","-5.6","","88","","25","","13","","4.0","","99.19","","","","-9","","Snow Showers"
"1957-01-12 20:00","1957","01","12","20:00","-4.4","","-5.6","","92","","25","","11","","2.4","","99.19","","","","-9","","Snow"
"1957-01-12 21:00","1957","01","12","21:00","-4.4","","-6.7","","84","","25","","18","","6.4","","99.16","","","","-10","","Snow"
"1957-01-12 22:00","1957","01","12","22:00","-5.0","","-6.7","","88","","25","","18","","9.7","","99.16","","","","-11","","Snow"
"1957-01-12 23:00","1957","01","12","23:00","-5.0","","-7.8","","81","","29","","19","","25.0","","99.17","","","","-11","","Cloudy"
"1957-01-13 00:00","1957","01","13","00:00","-6.7","","-8.3","","88","","34","","19","","25.0","","99.22","","","","-14","","Snow Showers"
"1957-01-13 01:00","1957","01","13","01:00","-7.2","","-12.8","","65","","32","","21","","25.0","","99.22","","","","-15","","Mostly Cloudy"
"1957-01-13 02:00","1957","01","13","02:00","-8.3","","-12.2","","74","","32","","23","","25.0","","99.26","","","","-16","","Mainly Clear"
"1957-01-13 03:00","1957","01","13","03:00","-8.9","","-11.1","","84","","36","","21","","25.0","","99.30","","","","-17","","Mostly Cloudy"
"1957-01-13 04:00","1957","01","13","04:00","-11.1","","-15.0","","73","","2","","26","","12.9","","99.46","","","","-20","","Snow Showers"
"1957-01-13 05:00","1957","01","13","05:00","-13.3","","-15.6","","83","","2","","24","","25.0","","99.58","","","","-23","","Cloudy"
"1957-01-13 06:00","1957","01","13","06:00","-14.4","","-16.7","","83","","36","","24","","25.0","","99.71","","","","-24","","Cloudy"
"1957-01-13 07:00","1957","01","13","07:00","-16.1","","-18.9","","79","","2","","27","","25.0","","99.81","","","","-27","","Mainly Clear"
"1957-01-13 08:00","1957","01","13","08:00","-19.4","","-22.2","","79","","34","","16","","25.0","","99.84","","","","-29","","Mostly Cloudy"
"1957-01-13 09:00","1957","01","13","09:00","-19.4","","-23.3","","71","","36","","23","","25.0","","100.04","","","","-30","","Mostly Cloudy"
"1957-01-13 10:00","1957","01","13","10:00","-21.1","","-25.0","","71","","36","","19","","25.0","","100.03","","","","-32","","Mostly Cloudy"
"1957-01-13 11:00","1957","01","13","11:00","-20.6","","-23.3","","78","","36","","23","","25.0","","100.04","","","","-32","","Mostly Cloudy"
"1957-01-13 12:00","1957","01","13","12:00","-19.4","","-22.8","","75","","36","","26","","25.0","","100.04","","","","-31","","Mostly Cloudy"
"1957-01-13 13:00","1957","01","13","13:00","-20.0","","-26.1","","58","","34","","23","","25.0","","99.98","","","","-31","","Mostly Cloudy"
"1957-01-13 14:00","1957","01","13","14:00","-18.9","","-26.7","","50","","36","","19","","25.0","","99.95","","","","-29","","Mostly Cloudy"
"1957-01-13 15:00","1957","01","13","15:00","-18.3","","-22.2","","71","","34","","19","","25.0","","99.93","","","","-28","","Mostly Cloudy"
"1957-01-13 16:00","1957","01","13","16:00","-18.9","","-24.4","","62","","36","","13","","25.0","","99.87","","","","-27","","Mostly Cloudy"
"1957-01-13 17:00","1957","01","13","17:00","-19.4","","-23.9","","68","","36","","3","","25.0","","99.85","","","","-22","","Mainly Clear"
"1957-01-13 18:00","1957","01","13","18:00","-20.0","","-25.0","","64","","36","","3","","25.0","","99.84","","","","-23","","Clear"
"1957-01-13 19:00","1957","01","13","19:00","-21.1","","-25.0","","71","","","","0","","25.0","","99.82","","","","","","Clear"
"1957-01-13 20:00","1957","01","13","20:00","-21.1","","-25.0","","71","","","","0","","25.0","","99.76","","","","","","Mostly Cloudy"
"1957-01-13 21:00","1957","01","13","21:00","-22.2","","-26.1","","71","","","","0","","25.0","","99.67","","","","","","Mostly Cloudy"
"1957-01-13 22:00","1957","01","13","22:00","-20.6","","-24.4","","71","","","","0","","25.0","","99.64","","","","","","Cloudy"
"1957-01-13 23:00","1957","01","13","23:00","-22.8","","-26.1","","74","","23","","13","","25.0","","99.57","","","","-32","","Snow"
"1957-01-14 00:00","1957","01","14","00:00","-17.8","","-20.0","","83","","23","","14","","25.0","","99.52","","","","-26","","Snow"
"1957-01-14 01:00","1957","01","14","01:00","-16.7","","-21.7","","65","","23","","13","","25.0","","99.42","","","","-24","","Snow"
"1957-01-14 02:00","1957","01","14","02:00","-16.7","","-21.1","","68","","23","","18","","25.0","","99.33","","","","-26","","Snow"
"1957-01-14 03:00","1957","01","14","03:00","-17.2","","-21.1","","72","","23","","21","","25.0","","99.28","","","","-27","","Snow"
"1957-01-14 04:00","1957","01","14","04:00","-16.7","","-20.0","","79","","23","","24","","25.0","","99.21","","","","-27","","Snow"
"1957-01-14 05:00","1957","01","14","05:00","-16.1","","-18.9","","79","","23","","23","","24.1","","99.19","","","","-26","","Snow"
"1957-01-14 06:00","1957","01","14","06:00","-15.6","","-18.9","","75","","23","","24","","25.0","","99.19","","","","-26","","Clear"
"1957-01-14 07:00","1957","01","14","07:00","-13.3","","-15.6","","83","","32","","32","","12.9","","99.32","","","","-24","","Snow"
"1957-01-14 08:00","1957","01","14","08:00","-14.4","","-18.9","","69","","34","","32","","19.3","","99.54","","","","-26","","Mainly Clear"
"1957-01-14 09:00","1957","01","14","09:00","-16.7","","-20.0","","75","","36","","26","","1.6","","99.75","","","","-28","","Snow Showers"
"1957-01-14 10:00","1957","01","14","10:00","-20.6","","-25.6","","64","","34","","31","","25.0","","99.98","","","","-34","","Mainly Clear"
"1957-01-14 11:00","1957","01","14","11:00","-21.7","","-26.1","","67","","34","","26","","25.0","","100.15","","","","-34","","Mainly Clear"
"1957-01-14 12:00","1957","01","14","12:00","-21.7","","-26.7","","64","","36","","24","","25.0","","100.23","","","","-34","","Mostly Cloudy"
"1957-01-14 13:00","1957","01","14","13:00","-21.1","","-25.6","","67","","36","","23","","25.0","","100.26","","","","-33","","Mainly Clear"
"1957-01-14 14:00","1957","01","14","14:00","-21.7","","-25.6","","71","","36","","23","","25.0","","100.32","","","","-33","","Mainly Clear"
"1957-01-14 15:00","1957","01","14","15:00","-21.1","","-26.1","","64","","36","","16","","25.0","","100.41","","","","-31","","Mostly Cloudy"
"1957-01-14 16:00","1957","01","14","16:00","-21.1","","-24.4","","74","","2","","19","","25.0","","100.46","","","","-32","","Mainly Clear"
"1957-01-14 17:00","1957","01","14","17:00","-21.7","","-25.6","","71","","2","","13","","25.0","","100.51","","","","-30","","Mostly Cloudy"
"1957-01-14 18:00","1957","01","14","18:00","-22.8","","-26.7","","70","","2","","10","","25.0","","100.54","","","","-31","","Mainly Clear"
"1957-01-14 19:00","1957","01","14","19:00","-23.3","","-26.7","","74","","5","","11","","25.0","","100.64","","","","-32","","Mainly Clear"
"1957-01-14 20:00","1957","01","14","20:00","-23.9","","-27.2","","74","","2","","8","","25.0","","100.71","","","","-31","","Mainly Clear"
"1957-01-14 21:00","1957","01","14","21:00","-23.3","","-27.2","","70","","36","","11","","25.0","","100.78","","","","-32","","Mostly Cloudy"
"1957-01-14 22:00","1957","01","14","22:00","-23.9","","-26.7","","78","","5","","10","","25.0","","100.78","","","","-32","","Mostly Cloudy"
"1957-01-14 23:00","1957","01","14","23:00","-24.4","","-28.3","","70","","5","","10","","25.0","","100.75","","","","-32","","Mostly Cloudy"
"1957-01-15 00:00","1957","01","15","00:00","-23.9","","-28.3","","67","","5","","10","","25.0","","100.74","","","","-32","","Mostly Cloudy"
"1957-01-15 01:00","1957","01","15","01:00","-23.3","","-27.8","","67","","5","","8","","25.0","","100.69","","","","-30","","Mostly Cloudy"
"1957-01-15 02:00","1957","01","15","02:00","-23.3","","-27.8","","67","","5","","13","","25.0","","100.67","","","","-32","","Mostly Cloudy"
"1957-01-15 03:00","1957","01","15","03:00","-23.9","","-26.7","","78","","2","","10","","25.0","","100.65","","","","-32","","Mostly Cloudy"
"1957-01-15 04:00","1957","01","15","04:00","-23.9","","-26.7","","78","","2","","11","","25.0","","100.58","","","","-32","","Mostly Cloudy"
"1957-01-15 05:00","1957","01","15","05:00","-22.2","","-25.0","","78","","2","","10","","25.0","","100.56","","","","-30","","Mostly Cloudy"
"1957-01-15 06:00","1957","01","15","06:00","-22.2","","-25.0","","78","","5","","10","","25.0","","100.53","","","","-30","","Mainly Clear"
"1957-01-15 07:00","1957","01","15","07:00","-22.2","","-24.4","","82","","5","","10","","19.3","","100.54","","","","-30","","Snow Showers"
"1957-01-15 08:00","1957","01","15","08:00","-22.2","","-24.4","","82","","7","","11","","1.6","","100.50","","","","-30","","Snow Showers"
"1957-01-15 09:00","1957","01","15","09:00","-21.1","","-23.9","","78","","5","","14","","1.6","","100.41","","","","-30","","Snow Showers"
"1957-01-15 10:00","1957","01","15","10:00","-20.6","","-23.3","","78","","7","","14","","1.6","","100.40","","","","-29","","Snow"
"1957-01-15 11:00","1957","01","15","11:00","-18.9","","-22.8","","71","","7","","13","","3.2","","100.35","","","","-27","","Snow"
"1957-01-15 12:00","1957","01","15","12:00","-16.7","","-19.4","","79","","7","","32","","1.2","","100.35","","","","-29","","Snow"
"1957-01-15 13:00","1957","01","15","13:00","-15.0","","-17.8","","79","","7","","8","","0.8","","100.05","","","","-20","","Moderate Snow"
"1957-01-15 14:00","1957","01","15","14:00","-12.2","","-15.0","","80","","14","","23","","1.2","","99.94","","","","-21","","Snow"
"1957-01-15 15:00","1957","01","15","15:00","-12.2","","-15.0","","80","","14","","19","","1.6","","99.92","","","","-20","","Snow"
"1957-01-15 16:00","1957","01","15","16:00","-11.7","","-15.6","","73","","16","","13","","11.3","","99.85","","","","-18","","Snow"
"1957-01-15 17:00","1957","01","15","17:00","-11.1","","-13.9","","80","","11","","8","","4.0","","99.82","","","","-16","","Snow"
"1957-01-15 18:00","1957","01","15","18:00","-11.1","","-13.3","","84","","16","","11","","3.2","","99.84","","","","-17","","Snow"
"1957-01-15 19:00","1957","01","15","19:00","-11.1","","-13.3","","84","","9","","8","","6.4","","99.83","","","","-16","","Snow"
"1957-01-15 20:00","1957","01","15","20:00","-13.3","","-16.1","","80","","7","","10","","4.0","","99.78","","","","-19","","Snow"
"1957-01-15 21:00","1957","01","15","21:00","-14.4","","-17.2","","79","","7","","13","","2.4","","99.72","","","","-22","","Snow"
"1957-01-15 22:00","1957","01","15","22:00","-15.0","","-17.8","","79","","5","","10","","3.2","","99.70","","","","-21","","Snow"
"1957-01-15 23:00","1957","01","15","23:00","-15.0","","-17.8","","79","","5","","8","","3.2","","99.68","","","","-20","","Snow"
"1957-01-16 00:00","1957","01","16","00:00","-15.0","","-17.8","","79","","2","","6","","9.7","","99.60","","","","-19","","Snow"
"1957-01-16 01:00","1957","01","16","01:00","-15.0","","-16.7","","87","","36","","6","","12.9","","99.61","","","","-19","","Snow"
"1957-01-16 02:00","1957","01","16","02:00","-15.6","","-17.2","","87","","36","","3","","25.0","","99.54","","","","-18","","Mostly Cloudy"
"1957-01-16 03:00","1957","01","16","03:00","-16.1","","-18.3","","83","","36","","5","","25.0","","99.37","","","","-20","","Mostly Cloudy"
"1957-01-16 04:00","1957","01","16","04:00","-16.7","","-18.9","","83","","36","","5","","25.0","","99.40","","","","-21","","Mostly Cloudy"
"1957-01-16 05:00","1957","01","16","05:00","-16.7","","-18.9","","83","","32","","8","","24.1","","99.32","","","","-22","","Cloudy"
"1957-01-16 06:00","1957","01","16","06:00","-14.4","","-16.7","","83","","23","","8","","19.3","","99.32","","","","-20","","Cloudy"
"1957-01-16 07:00","1957","01","16","07:00","-12.2","","-13.9","","87","","23","","13","","16.1","","99.29","","","","-19","","Snow"
"1957-01-16 08:00","1957","01","16","08:00","-10.6","","-12.2","","87","","23","","19","","8.0","","99.29","","","","-18","","Snow"
"1957-01-16 09:00","1957","01","16","09:00","-10.6","","-12.2","","87","","23","","23","","3.2","","99.31","","","","-19","","Snow"
"1957-01-16 10:00","1957","01","16","10:00","-10.6","","-12.8","","84","","25","","26","","12.9","","99.32","","","","-20","","Snow"
"1957-01-16 11:00","1957","01","16","11:00","-10.6","","-13.3","","80","","25","","34","","25.0","","99.30","","","","-21","","Mostly Cloudy"
"1957-01-16 12:00","1957","01","16","12:00","-10.6","","-13.3","","80","","27","","37","","25.0","","99.25","","","","-21","","Mostly Cloudy"
"1957-01-16 13:00","1957","01","16","13:00","-10.6","","-13.3","","80","","25","","37","","25.0","","99.24","","","","-21","","Mainly Clear"
"1957-01-16 14:00","1957","01","16","14:00","-11.1","","-15.6","","70","","27","","40","","25.0","","99.22","","","","-22","","Mainly Clear"
"1957-01-16 15:00","1957","01","16","15:00","-11.1","","-14.4","","76","","27","","40","","25.0","","99.29","","","","-22","","Mainly Clear"
"1957-01-16 16:00","1957","01","16","16:00","-12.2","","-15.0","","80","","27","","32","","25.0","","99.34","","","","-23","","Mainly Clear"
"1957-01-16 17:00","1957","01","16","17:00","-12.8","","-16.1","","76","","27","","23","","24.1","","99.45","","","","-22","","Snow"
"1957-01-16 18:00","1957","01","16","18:00","-12.8","","-15.0","","84","","27","","39","","2.0","","99.55","","","","-24","","Snow,Blowing Snow"
"1957-01-16 19:00","1957","01","16","19:00","-13.9","","-17.8","","72","","27","","23","","25.0","","99.60","","","","-23","","Mainly Clear"
"1957-01-16 20:00","1957","01","16","20:00","-16.1","","-18.9","","79","","25","","19","","25.0","","99.62","","","","-25","","Clear"
"1957-01-16 21:00","1957","01","16","21:00","-16.7","","-20.0","","75","","25","","19","","25.0","","99.64","","","","-26","","Clear"
"1957-01-16 22:00","1957","01","16","22:00","-17.8","","-21.1","","75","","25","","16","","25.0","","99.65","","","","-27","","Clear"
"1957-01-16 23:00","1957","01","16","23:00","-17.2","","-20.6","","75","","25","","19","","25.0","","99.65","","","","-27","","Clear"
"1957-01-17 00:00","1957","01","17","00:00","-17.8","","-20.6","","79","","25","","21","","25.0","","99.64","","","","-28","","Clear"
"1957-01-17 01:00","1957","01","17","01:00","-18.3","","-21.7","","75","","25","","18","","25.0","","99.60","","","","-28","","Mainly Clear"
"1957-01-17 02:00","1957","01","17","02:00","-18.3","","-21.1","","79","","25","","23","","25.0","","99.59","","","","-29","","Mostly Cloudy"
"1957-01-17 03:00","1957","01","17","03:00","-18.3","","-21.1","","79","","25","","19","","25.0","","99.58","","","","-28","","Mostly Cloudy"
"1957-01-17 04:00","1957","01","17","04:00","-18.3","","-21.1","","79","","25","","24","","25.0","","99.55","","","","-29","","Mostly Cloudy"
"1957-01-17 05:00","1957","01","17","05:00","-18.3","","-21.7","","75","","25","","16","","25.0","","99.48","","","","-27","","Mostly Cloudy"
"1957-01-17 06:00","1957","01","17","06:00","-17.8","","-21.1","","75","","25","","14","","25.0","","99.48","","","","-26","","Mostly Cloudy"
"1957-01-17 07:00","1957","01","17","07:00","-17.8","","-20.6","","79","","25","","16","","25.0","","99.44","","","","-27","","Cloudy"
"1957-01-17 08:00","1957","01","17","08:00","-17.8","","-20.6","","79","","25","","16","","19.3","","99.46","","","","-27","","Mostly Cloudy"
"1957-01-17 09:00","1957","01","17","09:00","-16.7","","-21.1","","68","","23","","19","","16.1","","99.47","","","","-26","","Mostly Cloudy"
"1957-01-17 10:00","1957","01","17","10:00","-16.7","","-20.6","","72","","23","","24","","12.9","","99.46","","","","-27","","Mostly Cloudy"
"1957-01-17 11:00","1957","01","17","11:00","-15.6","","-18.9","","75","","25","","29","","11.3","","99.44","","","","-27","","Mostly Cloudy"
"1957-01-17 12:00","1957","01","17","12:00","-15.0","","-17.8","","79","","25","","32","","11.3","","99.33","","","","-26","","Mostly Cloudy"
"1957-01-17 13:00","1957","01","17","13:00","-13.9","","-17.2","","76","","25","","32","","16.1","","99.29","","","","-25","","Mainly Clear"
"1957-01-17 14:00","1957","01","17","14:00","-14.4","","-17.2","","79","","25","","29","","16.1","","99.25","","","","-25","","Mainly Clear"
"1957-01-17 15:00","1957","01","17","15:00","-14.4","","-18.3","","72","","25","","29","","16.1","","99.26","","","","-25","","Mostly Cloudy"
"1957-01-17 16:00","1957","01","17","16:00","-14.4","","-20.0","","63","","23","","13","","11.3","","99.25","","","","-22","","Cloudy"
"1957-01-17 17:00","1957","01","17","17:00","-15.0","","-19.4","","69","","23","","16","","12.9","","99.22","","","","-23","","Mainly Clear"
"1957-01-17 18:00","1957","01","17","18:00","-15.6","","-19.4","","72","","20","","6","","16.1","","99.20","","","","-20","","Clear"
"1957-01-17 19:00","1957","01","17","19:00","-16.1","","-19.4","","75","","23","","8","","24.1","","99.24","","","","-22","","Clear"
"1957-01-17 20:00","1957","01","17","20:00","-17.8","","-20.6","","79","","23","","11","","25.0","","99.22","","","","-25","","Clear"
"1957-01-17 21:00","1957","01","17","21:00","-18.9","","-21.7","","79","","25","","11","","25.0","","99.22","","","","-26","","Clear"
"1957-01-17 22:00","1957","01","17","22:00","-20.0","","-22.8","","78","","25","","16","","25.0","","99.20","","","","-29","","Clear"
"1957-01-17 23:00","1957","01","17","23:00","-17.8","","-20.0","","83","","25","","19","","25.0","","99.18","","","","-27","","Clear"
"1957-01-18 00:00","1957","01","18","00:00","-17.2","","-20.0","","79","","23","","23","","25.0","","99.13","","","","-28","","Mainly Clear"
"1957-01-18 01:00","1957","01","18","01:00","-17.2","","-20.0","","79","","23","","24","","25.0","","99.12","","","","-28","","Mostly Cloudy"
"1957-01-18 02:00","1957","01","18","02:00","-14.4","","-17.8","","76","","23","","23","","25.0","","99.13","","","","-24","","Cloudy"
"1957-01-18 03:00","1957","01","18","03:00","-15.0","","-17.8","","79","","25","","23","","25.0","","99.13","","","","-25","","Mostly Cloudy"
"1957-01-18 04:00","1957","01","18","04:00","-16.7","","-18.9","","83","","25","","19","","25.0","","99.12","","","","-26","","Mostly Cloudy"
"1957-01-18 05:00","1957","01","18","05:00","-16.7","","-20.0","","75","","23","","23","","25.0","","99.12","","","","-27","","Mostly Cloudy"
"1957-01-18 06:00","1957","01","18","06:00","-16.1","","-18.3","","83","","25","","29","","25.0","","99.12","","","","-27","","Mostly Cloudy"
"1957-01-18 07:00","1957","01","18","07:00","-16.7","","-18.9","","83","","27","","19","","25.0","","99.14","","","","-26","","Mainly Clear"
"1957-01-18 08:00","1957","01","18","08:00","-16.1","","-18.3","","83","","25","","19","","24.1","","99.20","","","","-25","","Mainly Clear"
"1957-01-18 09:00","1957","01","18","09:00","-14.4","","-17.8","","76","","27","","19","","24.1","","99.31","","","","-23","","Mostly Cloudy"
"1957-01-18 10:00","1957","01","18","10:00","-12.8","","-15.6","","80","","27","","24","","24.1","","99.36","","","","-22","","Mainly Clear"
"1957-01-18 11:00","1957","01","18","11:00","-11.1","","-13.9","","76","","27","","19","","16.1","","99.40","","","","-19","","Mainly Clear"
"1957-01-18 12:00","1957","01","18","12:00","-9.4","","-11.7","","84","","27","","23","","19.3","","99.43","","","","-18","","Mainly Clear"
"1957-01-18 13:00","1957","01","18","13:00","-8.3","","-12.2","","74","","27","","23","","24.1","","99.45","","","","-16","","Mainly Clear"
"1957-01-18 14:00","1957","01","18","14:00","-8.3","","-11.7","","77","","27","","23","","24.1","","99.51","","","","-16","","Mainly Clear"
"1957-01-18 15:00","1957","01","18","15:00","-8.9","","-11.7","","80","","25","","19","","24.1","","99.63","","","","-16","","Mainly Clear"
"1957-01-18 16:00","1957","01","18","16:00","-9.4","","-12.2","","80","","27","","32","","24.1","","99.76","","","","-19","","Mainly Clear"
"1957-01-18 17:00","1957","01","18","17:00","-10.6","","-13.3","","80","","25","","32","","24.1","","99.85","","","","-21","","Mainly Clear"
"1957-01-18 18:00","1957","01","18","18:00","-11.1","","-15.0","","73","","25","","26","","25.0","","99.96","","","","-20","","Mainly Clear"
"1957-01-18 19:00","1957","01","18","19:00","-11.7","","-15.0","","76","","25","","26","","25.0","","100.02","","","","-21","","Mainly Clear"
"1957-01-18 20:00","1957","01","18","20:00","-12.2","","-15.6","","76","","23","","19","","25.0","","100.08","","","","-20","","Mainly Clear"
"1957-01-18 21:00","1957","01","18","21:00","-13.3","","-16.1","","80","","20","","16","","25.0","","100.10","","","","-21","","Mainly Clear"
"1957-01-18 22:00","1957","01","18","22:00","-12.8","","-15.6","","80","","20","","13","","24.1","","100.10","","","","-20","","Snow Showers"
"1957-01-18 23:00","1957","01","18","23:00","-11.7","","-14.4","","80","","23","","27","","25.0","","100.11","","","","-21","","Mainly Clear"
"1957-01-19 00:00","1957","01","19","00:00","-12.8","","-15.6","","80","","23","","29","","25.0","","100.13","","","","-23","","Clear"
"1957-01-19 01:00","1957","01","19","01:00","-13.3","","-16.1","","80","","23","","26","","25.0","","100.17","","","","-23","","Clear"
"1957-01-19 02:00","1957","01","19","02:00","-13.3","","-16.7","","76","","23","","29","","25.0","","100.23","","","","-24","","Clear"
"1957-01-19 03:00","1957","01","19","03:00","-13.9","","-17.2","","76","","23","","27","","16.1","","100.31","","","","-24","","Snow Showers"
"1957-01-19 04:00","1957","01","19","04:00","-13.3","","-16.1","","80","","23","","24","","19.3","","100.37","","","","-23","","Snow Showers"
"1957-01-19 05:00","1957","01","19","05:00","-13.9","","-17.2","","76","","23","","29","","24.1","","100.41","","","","-24","","Mainly Clear"
"1957-01-19 06:00","1957","01","19","06:00","-12.8","","-16.1","","76","","25","","24","","24.1","","100.48","","","","-22","","Clear"
"1957-01-19 07:00","1957","01","19","07:00","-13.3","","-16.1","","80","","25","","26","","19.3","","100.57","","","","-23","","Clear"
"1957-01-19 08:00","1957","01","19","08:00","-12.2","","-15.0","","80","","25","","31","","16.1","","100.68","","","","-23","","Clear"
"1957-01-19 09:00","1957","01","19","09:00","-10.6","","-16.1","","64","","25","","27","","16.1","","100.83","","","","-20","","Mainly Clear"
"1957-01-19 10:00","1957","01","19","10:00","-8.3","","-11.7","","77","","27","","29","","19.3","","100.94","","","","-17","","Mainly Clear"
"1957-01-19 11:00","1957","01","19","11:00","-6.1","","-10.0","","74","","27","","32","","19.3","","101.05","","","","-15","","Mainly Clear"
"1957-01-19 12:00","1957","01","19","12:00","-5.0","","-10.6","","65","","27","","32","","25.0","","101.07","","","","-13","","Mainly Clear"
"1957-01-19 13:00","1957","01","19","13:00","-4.4","","-8.9","","71","","25","","27","","25.0","","101.10","","","","-12","","Mainly Clear"
"1957-01-19 14:00","1957","01","19","14:00","-3.9","","-8.9","","68","","27","","26","","25.0","","101.14","","","","-11","","Mainly Clear"
"1957-01-19 15:00","1957","01","19","15:00","-4.4","","-8.9","","71","","25","","23","","25.0","","101.22","","","","-11","","Mainly Clear"
"1957-01-19 16:00","1957","01","19","16:00","-5.0","","-9.4","","71","","23","","13","","25.0","","101.31","","","","-10","","Clear"
"1957-01-19 17:00","1957","01","19","17:00","-6.1","","-11.1","","68","","20","","6","","25.0","","101.39","","","","-9","","Clear"
"1957-01-19 18:00","1957","01","19","18:00","-7.2","","-11.1","","74","","20","","10","","25.0","","101.41","","","","-12","","Clear"
"1957-01-19 19:00","1957","01","19","19:00","-8.3","","-11.7","","77","","20","","10","","25.0","","101.41","","","","-13","","Clear"
"1957-01-19 20:00","1957","01","19","20:00","-9.4","","-11.7","","84","","18","","8","","25.0","","101.41","","","","-14","","Clear"
"1957-01-19 21:00","1957","01","19","21:00","-9.4","","-11.7","","84","","18","","8","","25.0","","101.39","","","","-14","","Clear"
"1957-01-19 22:00","1957","01","19","22:00","-10.0","","-12.8","","80","","18","","6","","25.0","","101.34","","","","-14","","Clear"
"1957-01-19 23:00","1957","01","19","23:00","-10.6","","-12.8","","84","","18","","6","","25.0","","101.31","","","","-14","","Clear"
"1957-01-20 00:00","1957","01","20","00:00","-13.3","","-15.0","","87","","","","0","","25.0","","101.26","","","","","","Clear"
"1957-01-20 01:00","1957","01","20","01:00","-13.3","","-15.0","","87","","","","0","","24.1","","101.17","","","","","","Clear"
"1957-01-20 02:00","1957","01","20","02:00","-13.3","","-15.0","","87","","9","","3","","19.3","","101.09","","","","-15","","Clear"
"1957-01-20 03:00","1957","01","20","03:00","-12.2","","-13.9","","87","","14","","10","","16.1","","101.00","","","","-18","","Mostly Cloudy"
"1957-01-20 04:00","1957","01","20","04:00","-12.2","","-13.9","","87","","18","","10","","16.1","","100.95","","","","-18","","Cloudy"
"1957-01-20 05:00","1957","01","20","05:00","-10.0","","-11.7","","88","","18","","8","","16.1","","100.85","","","","-14","","Cloudy"
"1957-01-20 06:00","1957","01","20","06:00","-9.4","","-10.6","","92","","14","","3","","16.1","","100.72","","","","-11","","Cloudy"
"1957-01-20 07:00","1957","01","20","07:00","-8.9","","-10.0","","92","","14","","5","","16.1","","100.67","","","","-12","","Cloudy"
"1957-01-20 08:00","1957","01","20","08:00","-2.2","","-3.3","","92","","18","","13","","6.4","","100.58","","","","-7","","Fog"
"1957-01-20 09:00","1957","01","20","09:00","0.0","","-1.7","","88","","18","","16","","6.4","","100.56","","","","-5","","Fog"
"1957-01-20 10:00","1957","01","20","10:00","2.2","","-3.3","","67","","20","","29","","11.3","","100.47","","","","","","Mostly Cloudy"
"1957-01-20 11:00","1957","01","20","11:00","2.8","","-4.4","","59","","20","","39","","11.3","","100.39","","","","","","Mostly Cloudy"
"1957-01-20 12:00","1957","01","20","12:00","3.3","","-3.9","","59","","20","","32","","11.3","","100.31","","","","","","Mostly Cloudy"
"1957-01-20 13:00","1957","01","20","13:00","3.3","","-2.8","","64","","23","","45","","16.1","","100.22","","","","","","Cloudy"
"1957-01-20 14:00","1957","01","20","14:00","1.7","","-1.1","","82","","23","","39","","8.0","","100.24","","","","","","Snow Showers"
"1957-01-20 15:00","1957","01","20","15:00","1.1","","0.0","","92","","20","","29","","9.7","","100.24","","","","","","Snow"
"1957-01-20 16:00","1957","01","20","16:00","2.2","","0.6","","89","","20","","32","","16.1","","100.25","","","","","","Cloudy"
"1957-01-20 17:00","1957","01","20","17:00","2.2","","0.0","","85","","20","","32","","16.1","","100.32","","","","","","Cloudy"
"1957-01-20 18:00","1957","01","20","18:00","2.2","","1.1","","92","","20","","18","","16.1","","100.42","","","","","","Cloudy"
"1957-01-20 19:00","1957","01","20","19:00","2.2","","0.0","","85","","20","","24","","16.1","","100.40","","","","","","Cloudy"
"1957-01-20 20:00","1957","01","20","20:00","1.7","","0.6","","92","","20","","27","","16.1","","100.40","","","","","","Cloudy"
"1957-01-20 21:00","1957","01","20","21:00","2.2","","0.6","","89","","20","","26","","16.1","","100.38","","","","","","Cloudy"
"1957-01-20 22:00","1957","01","20","22:00","2.2","","1.1","","92","","20","","24","","16.1","","100.43","","","","","","Rain Showers"
"1957-01-20 23:00","1957","01","20","23:00","2.2","","1.1","","92","","20","","24","","16.1","","100.46","","","","","","Cloudy"
"1957-01-21 00:00","1957","01","21","00:00","2.2","","0.6","","89","","23","","23","","16.1","","100.45","","","","","","Cloudy"
"1957-01-21 01:00","1957","01","21","01:00","2.2","","0.0","","85","","23","","19","","16.1","","100.39","","","","","","Cloudy"
"1957-01-21 02:00","1957","01","21","02:00","2.2","","1.1","","92","","23","","16","","12.9","","100.43","","","","","","Cloudy"
"1957-01-21 03:00","1957","01","21","03:00","2.2","","1.1","","92","","20","","13","","8.0","","100.43","","","","","","Drizzle,Fog"
"1957-01-21 04:00","1957","01","21","04:00","2.2","","1.1","","92","","20","","13","","6.4","","100.42","","","","","","Drizzle,Fog"
"1957-01-21 05:00","1957","01","21","05:00","1.7","","1.7","","100","","20","","13","","6.4","","100.43","","","","","","Drizzle,Fog"
"1957-01-21 06:00","1957","01","21","06:00","2.2","","1.7","","96","","18","","13","","3.6","","100.42","","","","","","Drizzle,Fog"
"1957-01-21 07:00","1957","01","21","07:00","1.7","","1.7","","100","","18","","10","","3.2","","100.44","","","","","","Drizzle,Fog"
"1957-01-21 08:00","1957","01","21","08:00","2.2","","1.7","","96","","18","","19","","3.2","","100.41","","","","","","Drizzle,Fog"
"1957-01-21 09:00","1957","01","21","09:00","3.9","","3.3","","96","","18","","18","","3.2","","100.38","","","","","","Fog"
"1957-01-21 10:00","1957","01","21","10:00","2.8","","2.2","","96","","20","","23","","2.4","","100.35","","","","","","Fog"
"1957-01-21 11:00","1957","01","21","11:00","3.3","","2.8","","96","","18","","19","","2.8","","100.32","","","","","","Fog"
"1957-01-21 12:00","1957","01","21","12:00","3.9","","2.8","","92","","18","","23","","3.2","","100.14","","","","","","Fog"
"1957-01-21 13:00","1957","01","21","13:00","4.4","","3.3","","93","","18","","26","","3.2","","99.99","","","","","","Fog"
"1957-01-21 14:00","1957","01","21","14:00","5.0","","3.3","","89","","18","","24","","3.2","","99.90","","","","","","Rain,Drizzle,Fog"
"1957-01-21 15:00","1957","01","21","15:00","5.0","","3.9","","93","","18","","23","","2.4","","99.77","","","","","","Fog"
"1957-01-21 16:00","1957","01","21","16:00","4.4","","3.9","","96","","18","","16","","2.4","","99.75","","","","","","Rain,Fog"
"1957-01-21 17:00","1957","01","21","17:00","5.0","","4.4","","96","","18","","23","","1.6","","99.70","","","","","","Drizzle,Fog"
"1957-01-21 18:00","1957","01","21","18:00","5.6","","5.6","","100","","20","","29","","3.2","","99.66","","","","","","Drizzle,Fog"
"1957-01-21 19:00","1957","01","21","19:00","6.7","","6.1","","96","","20","","26","","4.0","","99.60","","","","","","Drizzle,Fog"
"1957-01-21 20:00","1957","01","21","20:00","7.2","","6.7","","96","","20","","24","","3.2","","99.57","","","","","","Drizzle,Fog"
"1957-01-21 21:00","1957","01","21","21:00","7.8","","7.2","","96","","20","","29","","4.0","","99.57","","","","","","Drizzle,Fog"
"1957-01-21 22:00","1957","01","21","22:00","7.8","","7.8","","100","","20","","29","","4.8","","99.52","","","","","","Drizzle,Fog"
"1957-01-21 23:00","1957","01","21","23:00","8.3","","7.2","","93","","20","","31","","11.3","","99.50","","","","","","Rain"
"1957-01-22 00:00","1957","01","22","00:00","7.8","","6.1","","89","","20","","26","","11.3","","99.44","","","","","","Mostly Cloudy"
"1957-01-22 01:00","1957","01","22","01:00","7.8","","5.6","","86","","20","","21","","12.9","","99.42","","","","","","Mainly Clear"
"1957-01-22 02:00","1957","01","22","02:00","7.2","","5.6","","89","","20","","19","","16.1","","99.41","","","","","","Mostly Cloudy"
"1957-01-22 03:00","1957","01","22","03:00","8.3","","5.6","","83","","20","","23","","19.3","","99.41","","","","","","Mostly Cloudy"
"1957-01-22 04:00","1957","01","22","04:00","7.2","","5.6","","89","","20","","11","","19.3","","99.40","","","","","","Cloudy"
"1957-01-22 05:00","1957","01","22","05:00","7.8","","6.1","","89","","20","","18","","16.1","","99.34","","","","","","Rain Showers"
"1957-01-22 06:00","1957","01","22","06:00","8.9","","7.8","","93","","20","","19","","12.9","","99.24","","","","","","Rain Showers"
"1957-01-22 07:00","1957","01","22","07:00","8.9","","7.2","","89","","20","","26","","8.0","","99.20","","","","","","Rain Showers,Fog"
"1957-01-22 08:00","1957","01","22","08:00","8.9","","8.3","","96","","20","","23","","4.0","","99.10","","","","","","Rain Showers,Fog"
"1957-01-22 09:00","1957","01","22","09:00","8.3","","7.8","","96","","20","","29","","4.0","","99.08","","","","","","Rain,Fog"
"1957-01-22 10:00","1957","01","22","10:00","8.3","","7.8","","96","","20","","29","","4.0","","99.08","","","","","","Rain,Fog"
"1957-01-22 11:00","1957","01","22","11:00","10.0","","8.3","","89","","20","","32","","8.0","","98.99","","","","","","Rain,Fog"
"1957-01-22 12:00","1957","01","22","12:00","10.0","","8.3","","89","","20","","32","","8.0","","98.84","","","","","","Rain,Fog"
"1957-01-22 13:00","1957","01","22","13:00","9.4","","8.3","","93","","20","","32","","8.0","","98.67","","","","","","Rain,Fog"
"1957-01-22 14:00","1957","01","22","14:00","9.4","","8.3","","93","","23","","32","","8.0","","98.56","","","","","","Rain,Fog"
"1957-01-22 15:00","1957","01","22","15:00","9.4","","8.3","","93","","23","","26","","8.0","","98.61","","","","","","Rain,Fog"
"1957-01-22 16:00","1957","01","22","16:00","8.9","","8.3","","96","","23","","16","","2.0","","98.57","","","","","","Fog"
"1957-01-22 17:00","1957","01","22","17:00","7.8","","7.8","","100","","27","","6","","2.4","","98.61","","","","","","Rain,Fog"
"1957-01-22 18:00","1957","01","22","18:00","5.0","","3.9","","93","","36","","19","","25.0","","98.64","","","","","","Rain"
"1957-01-22 19:00","1957","01","22","19:00","4.4","","2.8","","89","","36","","27","","25.0","","98.58","","","","","","Rain"
"1957-01-22 20:00","1957","01","22","20:00","2.8","","1.7","","92","","36","","32","","19.3","","98.63","","","","","","Rain"
"1957-01-22 21:00","1957","01","22","21:00","2.2","","1.1","","92","","36","","24","","25.0","","98.59","","","","","","Rain,Snow"
"1957-01-22 22:00","1957","01","22","22:00","1.7","","0.0","","89","","36","","27","","25.0","","98.56","","","","","","Rain"
"1957-01-22 23:00","1957","01","22","23:00","0.6","","-1.1","","88","","36","","27","","25.0","","98.46","","","","","","Rain"
"1957-01-23 00:00","1957","01","23","00:00","-1.1","","-2.8","","88","","34","","35","","2.0","","98.66","","","","-8","","Snow,Ice Pellets"
"1957-01-23 01:00","1957","01","23","01:00","-2.8","","-3.3","","96","","34","","32","","1.2","","98.60","","","","-10","","Snow"
"1957-01-23 02:00","1957","01","23","02:00","-4.4","","-4.4","","100","","34","","39","","1.2","","98.62","","","","-13","","Snow"
"1957-01-23 03:00","1957","01","23","03:00","-5.6","","-6.1","","96","","34","","42","","1.2","","98.69","","","","-15","","Snow"
"1957-01-23 04:00","1957","01","23","04:00","-7.8","","-8.9","","92","","34","","45","","1.2","","98.89","","","","-18","","Snow,Blowing Snow"
"1957-01-23 05:00","1957","01","23","05:00","-8.9","","-10.0","","92","","34","","32","","1.2","","99.09","","","","-18","","Snow,Blowing Snow"
"1957-01-23 06:00","1957","01","23","06:00","-8.3","","-10.0","","88","","34","","37","","2.0","","99.28","","","","-18","","Snow,Blowing Snow"
"1957-01-23 07:00","1957","01","23","07:00","-10.6","","-11.7","","91","","34","","39","","6.4","","99.56","","","","-21","","Snow"
"1957-01-23 08:00","1957","01","23","08:00","-11.7","","-12.8","","91","","34","","35","","11.3","","99.83","","","","-22","","Cloudy"
"1957-01-23 09:00","1957","01","23","09:00","-12.2","","-15.0","","80","","34","","32","","16.1","","100.01","","","","-23","","Mostly Cloudy"
"1957-01-23 10:00","1957","01","23","10:00","-11.7","","-15.6","","73","","34","","32","","25.0","","100.23","","","","-22","","Mainly Clear"
"1957-01-23 11:00","1957","01","23","11:00","-11.7","","-16.7","","67","","34","","32","","25.0","","100.38","","","","-22","","Mainly Clear"
"1957-01-23 12:00","1957","01","23","12:00","-11.7","","-15.6","","73","","34","","31","","25.0","","100.45","","","","-22","","Mainly Clear"
"1957-01-23 13:00","1957","01","23","13:00","-11.7","","-16.1","","70","","32","","29","","25.0","","100.53","","","","-22","","Mainly Clear"
"1957-01-23 14:00","1957","01","23","14:00","-11.1","","-15.6","","70","","34","","29","","25.0","","100.64","","","","-21","","Mainly Clear"
"1957-01-23 15:00","1957","01","23","15:00","-11.1","","-15.6","","70","","34","","26","","25.0","","100.77","","","","-20","","Mainly Clear"
"1957-01-23 16:00","1957","01","23","16:00","-11.7","","-16.7","","67","","34","","21","","25.0","","100.87","","","","-20","","Mainly Clear"
"1957-01-23 17:00","1957","01","23","17:00","-12.2","","-15.0","","80","","34","","14","","25.0","","100.98","","","","-19","","Clear"
"1957-01-23 18:00","1957","01","23","18:00","-13.3","","-15.6","","83","","32","","13","","25.0","","101.08","","","","-20","","Clear"
"1957-01-23 19:00","1957","01","23","19:00","-13.3","","-16.7","","76","","29","","11","","25.0","","101.17","","","","-20","","Clear"
"1957-01-23 20:00","1957","01","23","20:00","-14.4","","-16.7","","83","","29","","10","","25.0","","101.21","","","","-21","","Clear"
"1957-01-23 21:00","1957","01","23","21:00","-14.4","","-17.8","","76","","29","","10","","25.0","","101.26","","","","-21","","Clear"
"1957-01-23 22:00","1957","01","23","22:00","-15.6","","-17.8","","83","","27","","6","","25.0","","101.33","","","","-20","","Clear"
"1957-01-23 23:00","1957","01","23","23:00","-15.6","","-17.8","","83","","29","","6","","25.0","","101.38","","","","-20","","Clear"
"1957-01-24 00:00","1957","01","24","00:00","-16.7","","-19.4","","79","","29","","6","","24.1","","101.40","","","","-21","","Clear"
"1957-01-24 01:00","1957","01","24","01:00","-16.7","","-18.9","","83","","27","","6","","24.1","","101.39","","","","-21","","Clear"
"1957-01-24 02:00","1957","01","24","02:00","-17.2","","-19.4","","83","","27","","3","","24.1","","101.34","","","","-20","","Clear"
"1957-01-24 03:00","1957","01","24","03:00","-17.2","","-19.4","","83","","27","","3","","24.1","","101.37","","","","-20","","Clear"
"1957-01-24 04:00","1957","01","24","04:00","-17.8","","-20.0","","83","","25","","5","","24.1","","101.39","","","","-22","","Clear"
"1957-01-24 05:00","1957","01","24","05:00","-17.2","","-19.4","","83","","25","","5","","24.1","","101.38","","","","-21","","Clear"
"1957-01-24 06:00","1957","01","24","06:00","-16.7","","-19.4","","79","","","","0","","24.1","","101.37","","","","","","Clear"
"1957-01-24 07:00","1957","01","24","07:00","-16.7","","-19.4","","79","","","","0","","24.1","","101.42","","","","","","Mainly Clear"
"1957-01-24 08:00","1957","01","24","08:00","-16.1","","-18.9","","79","","","","0","","24.1","","101.47","","","","","","Mainly Clear"
"1957-01-24 09:00","1957","01","24","09:00","-14.4","","-16.7","","83","","","","0","","16.1","","101.51","","","","","","Mostly Cloudy"
"1957-01-24 10:00","1957","01","24","10:00","-11.1","","-15.0","","73","","","","0","","16.1","","101.46","","","","","","Mostly Cloudy"
"1957-01-24 11:00","1957","01","24","11:00","-8.9","","-15.0","","61","","23","","16","","25.0","","101.36","","","","-16","","Mainly Clear"
"1957-01-24 12:00","1957","01","24","12:00","-7.2","","-16.7","","47","","23","","29","","25.0","","101.21","","","","-16","","Mainly Clear"
"1957-01-24 13:00","1957","01","24","13:00","-7.2","","-15.6","","51","","20","","23","","25.0","","101.06","","","","-15","","Mostly Cloudy"
"1957-01-24 14:00","1957","01","24","14:00","-7.2","","-13.3","","62","","20","","23","","25.0","","101.01","","","","-15","","Mostly Cloudy"
"1957-01-24 15:00","1957","01","24","15:00","-6.7","","-13.9","","57","","20","","18","","25.0","","100.97","","","","-13","","Mainly Clear"
"1957-01-24 16:00","1957","01","24","16:00","-7.2","","-13.9","","59","","23","","14","","25.0","","100.94","","","","-13","","Mostly Cloudy"
"1957-01-24 17:00","1957","01","24","17:00","-7.8","","-11.1","","77","","23","","5","","25.0","","100.93","","","","-10","","Mostly Cloudy"
"1957-01-24 18:00","1957","01","24","18:00","-7.8","","-10.6","","81","","18","","3","","25.0","","100.92","","","","-9","","Mostly Cloudy"
"1957-01-24 19:00","1957","01","24","19:00","-8.3","","-12.2","","74","","18","","6","","32.2","","100.91","","","","-12","","Clear"
"1957-01-24 20:00","1957","01","24","20:00","-8.9","","-11.1","","84","","18","","5","","25.0","","100.87","","","","-12","","Mainly Clear"
"1957-01-24 21:00","1957","01","24","21:00","-8.9","","-11.7","","80","","18","","6","","25.0","","100.83","","","","-12","","Clear"
"1957-01-24 22:00","1957","01","24","22:00","-9.4","","-13.3","","73","","18","","10","","25.0","","100.80","","","","-15","","Mostly Cloudy"
"1957-01-24 23:00","1957","01","24","23:00","-8.9","","-12.2","","77","","23","","6","","25.0","","100.77","","","","-12","","Cloudy"
"1957-01-25 00:00","1957","01","25","00:00","-8.3","","-12.2","","74","","25","","5","","19.3","","100.72","","","","-11","","Cloudy"
"1957-01-25 01:00","1957","01","25","01:00","-8.3","","-10.6","","84","","25","","3","","19.3","","100.62","","","","-10","","Snow"
"1957-01-25 02:00","1957","01","25","02:00","-8.3","","-10.6","","84","","2","","2","","6.4","","100.58","","","","-9","","Snow"
"1957-01-25 03:00","1957","01","25","03:00","-8.3","","-10.0","","88","","2","","3","","4.8","","100.54","","","","-10","","Snow"
"1957-01-25 04:00","1957","01","25","04:00","-8.3","","-10.0","","88","","2","","3","","4.8","","100.47","","","","-10","","Snow"
"1957-01-25 05:00","1957","01","25","05:00","-8.3","","-10.0","","88","","2","","5","","2.4","","100.46","","","","-11","","Snow"
"1957-01-25 06:00","1957","01","25","06:00","-8.3","","-9.4","","92","","2","","3","","2.0","","100.46","","","","-10","","Snow"
"1957-01-25 07:00","1957","01","25","07:00","-7.8","","-9.4","","88","","34","","8","","2.0","","100.46","","","","-12","","Snow"
"1957-01-25 08:00","1957","01","25","08:00","-7.2","","-8.9","","88","","2","","8","","1.6","","100.43","","","","-11","","Snow"
"1957-01-25 09:00","1957","01","25","09:00","-7.2","","-8.9","","88","","36","","10","","1.6","","100.35","","","","-12","","Snow"
"1957-01-25 10:00","1957","01","25","10:00","-7.2","","-8.3","","92","","36","","11","","1.6","","100.33","","","","-12","","Snow"
"1957-01-25 11:00","1957","01","25","11:00","-6.7","","-8.3","","88","","5","","13","","1.6","","100.27","","","","-12","","Snow"
"1957-01-25 12:00","1957","01","25","12:00","-6.1","","-7.8","","88","","2","","13","","4.0","","100.14","","","","-11","","Snow,Smoke,Haze"
"1957-01-25 13:00","1957","01","25","13:00","-5.6","","-7.2","","88","","2","","14","","2.4","","100.04","","","","-11","","Snow,Smoke,Haze"
"1957-01-25 14:00","1957","01","25","14:00","-5.6","","-7.2","","88","","2","","11","","2.0","","99.96","","","","-10","","Snow,Smoke,Haze"
"1957-01-25 15:00","1957","01","25","15:00","-6.1","","-7.8","","88","","36","","14","","2.4","","100.00","","","","-12","","Snow,Smoke,Haze"
"1957-01-25 16:00","1957","01","25","16:00","-6.7","","-7.8","","92","","36","","13","","2.4","","100.02","","","","-12","","Snow,Fog"
"1957-01-25 17:00","1957","01","25","17:00","-7.2","","-8.9","","88","","36","","10","","2.4","","99.97","","","","-12","","Snow,Fog"
"1957-01-25 18:00","1957","01","25","18:00","-7.8","","-9.4","","88","","36","","13","","4.8","","99.97","","","","-14","","Snow,Fog"
"1957-01-25 19:00","1957","01","25","19:00","-8.3","","-9.4","","92","","36","","10","","4.8","","100.01","","","","-13","","Snow,Fog"
"1957-01-25 20:00","1957","01","25","20:00","-9.4","","-11.1","","88","","36","","8","","19.3","","100.03","","","","-14","","Snow"
"1957-01-25 21:00","1957","01","25","21:00","-8.9","","-11.1","","84","","36","","8","","9.7","","100.02","","","","-13","","Snow"
"1957-01-25 22:00","1957","01","25","22:00","-8.3","","-10.0","","88","","36","","10","","3.2","","100.08","","","","-13","","Snow"
"1957-01-25 23:00","1957","01","25","23:00","-8.3","","-10.0","","88","","36","","10","","9.7","","100.08","","","","-13","","Snow"
"1957-01-26 00:00","1957","01","26","00:00","-8.9","","-10.0","","92","","32","","8","","16.1","","100.11","","","","-13","","Snow"
"1957-01-26 01:00","1957","01","26","01:00","-11.1","","-12.2","","91","","29","","11","","24.1","","100.11","","","","-17","","Mainly Clear"
"1957-01-26 02:00","1957","01","26","02:00","-13.9","","-15.0","","91","","29","","16","","25.0","","100.25","","","","-22","","Clear"
"1957-01-26 03:00","1957","01","26","03:00","-13.3","","-14.4","","91","","29","","8","","25.0","","100.25","","","","-18","","Clear"
"1957-01-26 04:00","1957","01","26","04:00","-14.4","","-15.0","","96","","32","","6","","25.0","","100.27","","","","-19","","Clear"
"1957-01-26 05:00","1957","01","26","05:00","-18.9","","-19.4","","95","","27","","10","","25.0","","100.38","","","","-26","","Clear"
"1957-01-26 06:00","1957","01","26","06:00","-16.1","","-17.8","","87","","27","","8","","25.0","","100.51","","","","-22","","Mostly Cloudy"
"1957-01-26 07:00","1957","01","26","07:00","-12.8","","-13.9","","91","","23","","10","","19.3","","100.39","","","","-19","","Cloudy"
"1957-01-26 08:00","1957","01","26","08:00","-11.7","","-11.7","","100","","23","","8","","19.3","","100.43","","","","-16","","Cloudy"
"1957-01-26 09:00","1957","01","26","09:00","-11.7","","-13.9","","84","","23","","5","","19.3","","100.44","","","","-15","","Mainly Clear"
"1957-01-26 10:00","1957","01","26","10:00","-10.0","","-12.8","","80","","18","","5","","16.1","","100.45","","","","-13","","Mainly Clear"
"1957-01-26 11:00","1957","01","26","11:00","-7.2","","-10.0","","81","","23","","14","","16.1","","100.40","","","","-13","","Mainly Clear"
"1957-01-26 12:00","1957","01","26","12:00","-6.7","","-9.4","","81","","25","","23","","16.1","","100.36","","","","-14","","Mainly Clear"
"1957-01-26 13:00","1957","01","26","13:00","-6.7","","-10.6","","74","","25","","24","","16.1","","100.31","","","","-14","","Mostly Cloudy"
"1957-01-26 14:00","1957","01","26","14:00","-6.7","","-10.6","","74","","25","","23","","24.1","","100.30","","","","-14","","Mostly Cloudy"
"1957-01-26 15:00","1957","01","26","15:00","-7.2","","-11.1","","74","","25","","21","","24.1","","100.32","","","","-15","","Mostly Cloudy"
"1957-01-26 16:00","1957","01","26","16:00","-7.8","","-12.2","","70","","25","","19","","24.1","","100.37","","","","-15","","Mainly Clear"
"1957-01-26 17:00","1957","01","26","17:00","-9.4","","-12.8","","77","","25","","24","","24.1","","100.40","","","","-18","","Mostly Cloudy"
"1957-01-26 18:00","1957","01","26","18:00","-8.9","","-13.3","","70","","23","","16","","24.1","","100.38","","","","-16","","Mostly Cloudy"
"1957-01-26 19:00","1957","01","26","19:00","-8.9","","-11.7","","80","","23","","13","","24.1","","100.38","","","","-15","","Cloudy"
"1957-01-26 20:00","1957","01","26","20:00","-8.3","","-11.7","","77","","23","","19","","24.1","","100.32","","","","-16","","Cloudy"
"1957-01-26 21:00","1957","01","26","21:00","-8.3","","-11.7","","77","","23","","19","","24.1","","100.28","","","","-16","","Cloudy"
"1957-01-26 22:00","1957","01","26","22:00","-8.3","","-11.7","","77","","23","","16","","24.1","","100.21","","","","-15","","Cloudy"
"1957-01-26 23:00","1957","01","26","23:00","-8.3","","-11.7","","77","","25","","23","","24.1","","100.16","","","","-16","","Cloudy"
"1957-01-27 00:00","1957","01","27","00:00","-8.3","","-11.1","","80","","23","","19","","25.0","","100.11","","","","-16","","Cloudy"
"1957-01-27 01:00","1957","01","27","01:00","-8.3","","-11.1","","80","","23","","26","","25.0","","100.09","","","","-17","","Cloudy"
"1957-01-27 02:00","1957","01","27","02:00","-8.9","","-12.2","","77","","23","","26","","25.0","","100.07","","","","-18","","Cloudy"
"1957-01-27 03:00","1957","01","27","03:00","-8.9","","-12.2","","77","","25","","29","","25.0","","100.07","","","","-18","","Cloudy"
"1957-01-27 04:00","1957","01","27","04:00","-9.4","","-12.8","","77","","25","","23","","25.0","","100.07","","","","-18","","Mainly Clear"
"1957-01-27 05:00","1957","01","27","05:00","-9.4","","-11.1","","88","","27","","13","","25.0","","100.08","","","","-15","","Mostly Cloudy"
"1957-01-27 06:00","1957","01","27","06:00","-9.4","","-11.1","","88","","23","","6","","25.0","","100.08","","","","-13","","Cloudy"
"1957-01-27 07:00","1957","01","27","07:00","-10.0","","-11.7","","88","","23","","13","","25.0","","100.09","","","","-16","","Mainly Clear"
"1957-01-27 08:00","1957","01","27","08:00","-10.0","","-11.7","","88","","23","","16","","24.1","","100.12","","","","-17","","Mostly Cloudy"
"1957-01-27 09:00","1957","01","27","09:00","-9.4","","-12.8","","77","","25","","6","","25.0","","100.30","","","","-13","","Mostly Cloudy"
"1957-01-27 10:00","1957","01","27","10:00","-8.3","","-13.3","","67","","27","","14","","25.0","","100.35","","","","-14","","Snow Showers"
"1957-01-27 11:00","1957","01","27","11:00","-8.3","","-13.3","","67","","27","","21","","25.0","","100.32","","","","-16","","Mostly Cloudy"
"1957-01-27 12:00","1957","01","27","12:00","-7.8","","-12.2","","70","","25","","21","","25.0","","100.25","","","","-15","","Mostly Cloudy"
"1957-01-27 13:00","1957","01","27","13:00","-8.3","","-13.3","","67","","27","","26","","25.0","","100.20","","","","-17","","Mostly Cloudy"
"1957-01-27 14:00","1957","01","27","14:00","-7.8","","-12.2","","70","","27","","21","","25.0","","100.13","","","","-15","","Snow Showers"
"1957-01-27 15:00","1957","01","27","15:00","-8.3","","-13.3","","67","","25","","24","","25.0","","100.16","","","","-16","","Mostly Cloudy"
"1957-01-27 16:00","1957","01","27","16:00","-8.9","","-12.8","","73","","25","","26","","25.0","","100.19","","","","-18","","Mostly Cloudy"
"1957-01-27 17:00","1957","01","27","17:00","-10.0","","-13.3","","77","","25","","16","","25.0","","100.16","","","","-17","","Mostly Cloudy"
"1957-01-27 18:00","1957","01","27","18:00","-10.6","","-13.9","","76","","23","","10","","25.0","","100.14","","","","-16","","Mostly Cloudy"
"1957-01-27 19:00","1957","01","27","19:00","-10.6","","-13.9","","76","","20","","16","","25.0","","100.08","","","","-18","","Cloudy"
"1957-01-27 20:00","1957","01","27","20:00","-11.1","","-14.4","","76","","20","","16","","25.0","","100.00","","","","-18","","Mostly Cloudy"
"1957-01-27 21:00","1957","01","27","21:00","-11.7","","-15.0","","76","","23","","16","","24.1","","99.99","","","","-19","","Mainly Clear"
"1957-01-27 22:00","1957","01","27","22:00","-12.2","","-15.0","","80","","20","","16","","19.3","","100.01","","","","-20","","Mainly Clear"
"1957-01-27 23:00","1957","01","27","23:00","-12.2","","-15.0","","80","","20","","14","","19.3","","100.03","","","","-19","","Mainly Clear"
"1957-01-28 00:00","1957","01","28","00:00","-12.8","","-14.4","","87","","20","","13","","19.3","","100.01","","","","-20","","Mainly Clear"
"1957-01-28 01:00","1957","01","28","01:00","-12.8","","-14.4","","87","","20","","14","","16.1","","100.00","","","","-20","","Mainly Clear"
"1957-01-28 02:00","1957","01","28","02:00","-11.7","","-13.9","","84","","23","","11","","16.1","","99.98","","","","-18","","Mainly Clear"
"1957-01-28 03:00","1957","01","28","03:00","-13.3","","-15.6","","83","","23","","10","","16.1","","99.95","","","","-19","","Mainly Clear"
"1957-01-28 04:00","1957","01","28","04:00","-13.3","","-15.6","","83","","23","","10","","12.9","","99.95","","","","-19","","Mainly Clear"
"1957-01-28 05:00","1957","01","28","05:00","-11.1","","-12.8","","87","","23","","13","","12.9","","99.93","","","","-18","","Snow Showers"
"1957-01-28 06:00","1957","01","28","06:00","-11.1","","-12.8","","87","","23","","13","","11.3","","99.92","","","","-18","","Snow Showers"
"1957-01-28 07:00","1957","01","28","07:00","-10.0","","-12.2","","84","","23","","8","","12.9","","99.91","","","","-14","","Cloudy"
"1957-01-28 08:00","1957","01","28","08:00","-8.9","","-11.7","","80","","20","","8","","6.4","","99.98","","","","-13","","Haze"
"1957-01-28 09:00","1957","01","28","09:00","-8.3","","-11.1","","80","","23","","13","","6.4","","100.00","","","","-14","","Haze"
"1957-01-28 10:00","1957","01","28","10:00","-7.2","","-10.6","","77","","23","","8","","6.4","","100.00","","","","-11","","Haze"
"1957-01-28 11:00","1957","01","28","11:00","-6.1","","-8.9","","81","","23","","6","","6.4","","99.96","","","","-9","","Haze"
"1957-01-28 12:00","1957","01","28","12:00","-5.6","","-9.4","","74","","23","","3","","6.4","","99.83","","","","-7","","Haze"
"1957-01-28 13:00","1957","01","28","13:00","-5.0","","-8.3","","77","","16","","3","","6.4","","99.72","","","","-6","","Haze"
"1957-01-28 14:00","1957","01","28","14:00","-3.9","","-8.3","","71","","20","","8","","8.0","","99.65","","","","-7","","Haze"
"1957-01-28 15:00","1957","01","28","15:00","-3.9","","-8.3","","71","","18","","6","","8.0","","99.60","","","","-7","","Haze"
"1957-01-28 16:00","1957","01","28","16:00","-4.4","","-7.8","","78","","18","","6","","8.0","","99.61","","","","-7","","Haze"
"1957-01-28 17:00","1957","01","28","17:00","-4.4","","-7.2","","81","","18","","5","","3.2","","99.61","","","","-7","","Snow Showers,Haze"
"1957-01-28 18:00","1957","01","28","18:00","-4.4","","-6.7","","84","","18","","3","","8.0","","99.61","","","","-6","","Snow Showers"
"1957-01-28 19:00","1957","01","28","19:00","-4.4","","-7.2","","81","","18","","3","","12.9","","99.58","","","","-6","","Cloudy"
"1957-01-28 20:00","1957","01","28","20:00","-5.0","","-6.7","","88","","","","0","","9.7","","99.50","","","","","","Smoke"
"1957-01-28 21:00","1957","01","28","21:00","-5.0","","-6.7","","88","","","","0","","9.7","","99.44","","","","","","Smoke"
"1957-01-28 22:00","1957","01","28","22:00","-5.6","","-7.2","","88","","9","","8","","9.7","","99.44","","","","-9","","Smoke"
"1957-01-28 23:00","1957","01","28","23:00","-5.6","","-7.2","","88","","9","","5","","6.4","","99.40","","","","-8","","Snow Showers"
"1957-01-29 00:00","1957","01","29","00:00","-5.6","","-6.1","","96","","9","","5","","2.0","","99.31","","","","-8","","Snow"
"1957-01-29 01:00","1957","01","29","01:00","-5.6","","-6.7","","92","","2","","6","","2.0","","99.18","","","","-8","","Snow"
"1957-01-29 02:00","1957","01","29","02:00","-5.6","","-6.7","","92","","2","","6","","2.0","","99.09","","","","-8","","Snow"
"1957-01-29 03:00","1957","01","29","03:00","-5.6","","-6.7","","92","","2","","5","","2.0","","99.07","","","","-8","","Snow"
"1957-01-29 04:00","1957","01","29","04:00","-5.0","","-6.1","","92","","2","","5","","1.6","","99.00","","","","-7","","Snow"
"1957-01-29 05:00","1957","01","29","05:00","-5.0","","-6.1","","92","","2","","5","","1.6","","98.97","","","","-7","","Snow"
"1957-01-29 06:00","1957","01","29","06:00","-5.0","","-5.6","","96","","2","","5","","1.6","","98.85","","","","-7","","Snow"
"1957-01-29 07:00","1957","01","29","07:00","-5.0","","-5.6","","96","","2","","5","","3.2","","98.84","","","","-7","","Snow"
"1957-01-29 08:00","1957","01","29","08:00","-5.0","","-5.6","","96","","34","","5","","1.2","","98.89","","","","-7","","Snow"
"1957-01-29 09:00","1957","01","29","09:00","-5.0","","-6.1","","92","","34","","5","","1.6","","98.95","","","","-7","","Snow,Fog"
"1957-01-29 10:00","1957","01","29","10:00","-5.0","","-6.1","","92","","36","","8","","2.4","","98.86","","","","-9","","Snow,Fog"
"1957-01-29 11:00","1957","01","29","11:00","-4.4","","-6.7","","84","","36","","8","","4.8","","98.97","","","","-8","","Fog"
"1957-01-29 12:00","1957","01","29","12:00","-3.9","","-6.7","","81","","32","","8","","4.8","","98.96","","","","-7","","Fog"
"1957-01-29 13:00","1957","01","29","13:00","-3.9","","-6.1","","85","","29","","6","","4.8","","98.99","","","","-7","","Haze"
"1957-01-29 14:00","1957","01","29","14:00","-3.3","","-6.7","","78","","27","","16","","9.7","","99.02","","","","-9","","Haze"
"1957-01-29 15:00","1957","01","29","15:00","-3.3","","-6.7","","78","","27","","10","","19.3","","99.06","","","","-7","","Mostly Cloudy"
"1957-01-29 16:00","1957","01","29","16:00","-3.9","","-6.7","","81","","27","","10","","24.1","","99.16","","","","-8","","Mostly Cloudy"
"1957-01-29 17:00","1957","01","29","17:00","-3.9","","-6.7","","81","","27","","10","","16.1","","99.30","","","","-8","","Cloudy"
"1957-01-29 18:00","1957","01","29","18:00","-5.6","","-8.3","","81","","27","","13","","19.3","","99.38","","","","-11","","Mostly Cloudy"
"1957-01-29 19:00","1957","01","29","19:00","-7.2","","-9.4","","84","","27","","13","","19.3","","99.41","","","","-13","","Mostly Cloudy"
"1957-01-29 20:00","1957","01","29","20:00","-5.6","","-8.3","","81","","32","","23","","24.1","","99.50","","","","-13","","Mostly Cloudy"
"1957-01-29 21:00","1957","01","29","21:00","-5.6","","-8.9","","77","","29","","19","","19.3","","99.64","","","","-12","","Cloudy"
"1957-01-29 22:00","1957","01","29","22:00","-7.2","","-9.4","","84","","29","","19","","24.1","","99.73","","","","-14","","Mostly Cloudy"
"1957-01-29 23:00","1957","01","29","23:00","-8.3","","-10.6","","84","","32","","13","","25.0","","99.77","","","","-14","","Mainly Clear"
"1957-01-30 00:00","1957","01","30","00:00","-12.2","","-13.9","","87","","29","","13","","25.0","","99.79","","","","-19","","Mainly Clear"
"1957-01-30 01:00","1957","01","30","01:00","-10.0","","-12.2","","84","","27","","11","","24.1","","99.85","","","","-16","","Cloudy"
"1957-01-30 02:00","1957","01","30","02:00","-8.3","","-10.6","","84","","32","","8","","24.1","","99.96","","","","-12","","Cloudy"
"1957-01-30 03:00","1957","01","30","03:00","-7.8","","-10.0","","84","","32","","10","","24.1","","100.02","","","","-13","","Snow Showers"
"1957-01-30 04:00","1957","01","30","04:00","-8.3","","-10.6","","84","","29","","6","","19.3","","100.07","","","","-12","","Snow Showers"
"1957-01-30 05:00","1957","01","30","05:00","-8.9","","-11.1","","84","","27","","10","","19.3","","100.11","","","","-14","","Snow Showers"
"1957-01-30 06:00","1957","01","30","06:00","-10.6","","-12.8","","84","","27","","10","","19.3","","100.17","","","","-16","","Mostly Cloudy"
"1957-01-30 07:00","1957","01","30","07:00","-9.4","","-13.3","","73","","29","","27","","25.0","","100.25","","","","-18","","Mainly Clear"
"1957-01-30 08:00","1957","01","30","08:00","-12.2","","-16.1","","73","","27","","16","","25.0","","100.38","","","","-20","","Mainly Clear"
"1957-01-30 09:00","1957","01","30","09:00","-10.6","","-15.0","","70","","27","","18","","25.0","","100.47","","","","-18","","Mainly Clear"
"1957-01-30 10:00","1957","01","30","10:00","-8.9","","-14.4","","64","","27","","13","","25.0","","100.50","","","","-15","","Mainly Clear"
"1957-01-30 11:00","1957","01","30","11:00","-8.3","","-13.3","","67","","27","","13","","25.0","","100.53","","","","-14","","Mainly Clear"
"1957-01-30 12:00","1957","01","30","12:00","-7.2","","-11.7","","71","","25","","19","","25.0","","100.48","","","","-14","","Mainly Clear"
"1957-01-30 13:00","1957","01","30","13:00","-6.7","","-11.7","","68","","25","","19","","25.0","","100.42","","","","-14","","Mainly Clear"
"1957-01-30 14:00","1957","01","30","14:00","-5.6","","-10.0","","71","","20","","19","","25.0","","100.35","","","","-12","","Mainly Clear"
"1957-01-30 15:00","1957","01","30","15:00","-6.1","","-10.0","","74","","20","","13","","25.0","","100.29","","","","-11","","Mainly Clear"
"1957-01-30 16:00","1957","01","30","16:00","-6.1","","-10.0","","74","","20","","19","","25.0","","100.28","","","","-13","","Mainly Clear"
"1957-01-30 17:00","1957","01","30","17:00","-7.8","","-11.7","","74","","20","","13","","19.3","","100.23","","","","-14","","Mostly Cloudy"
"1957-01-30 18:00","1957","01","30","18:00","-7.8","","-10.6","","81","","20","","16","","19.3","","100.16","","","","-14","","Snow Showers"
"1957-01-30 19:00","1957","01","30","19:00","-8.3","","-11.7","","77","","20","","16","","25.0","","100.14","","","","-15","","Mainly Clear"
"1957-01-30 20:00","1957","01","30","20:00","-8.9","","-11.7","","80","","23","","16","","19.3","","100.06","","","","-16","","Mostly Cloudy"
"1957-01-30 21:00","1957","01","30","21:00","-7.8","","-11.1","","77","","23","","19","","19.3","","100.05","","","","-15","","Mostly Cloudy"
"1957-01-30 22:00","1957","01","30","22:00","-7.2","","-10.6","","77","","23","","19","","19.3","","100.04","","","","-14","","Mostly Cloudy"
"1957-01-30 23:00","1957","01","30","23:00","-8.3","","-11.7","","77","","20","","14","","16.1","","99.93","","","","-14","","Mainly Clear"
"1957-01-31 00:00","1957","01","31","00:00","-8.9","","-12.2","","77","","20","","13","","19.3","","99.87","","","","-15","","Clear"
"1957-01-31 01:00","1957","01","31","01:00","-8.9","","-12.2","","77","","20","","16","","19.3","","99.80","","","","-16","","Mainly Clear"
"1957-01-31 02:00","1957","01","31","02:00","-7.8","","-11.7","","74","","20","","21","","19.3","","99.74","","","","-15","","Mostly Cloudy"
"1957-01-31 03:00","1957","01","31","03:00","-7.2","","-10.6","","77","","20","","19","","19.3","","99.65","","","","-14","","Mostly Cloudy"
"1957-01-31 04:00","1957","01","31","04:00","-7.8","","-9.4","","88","","16","","19","","19.3","","99.55","","","","-15","","Mostly Cloudy"
"1957-01-31 05:00","1957","01","31","05:00","-7.2","","-10.0","","81","","18","","13","","19.3","","99.46","","","","-13","","Mainly Clear"
"1957-01-31 06:00","1957","01","31","06:00","-8.3","","-11.1","","80","","18","","10","","16.1","","99.46","","","","-13","","Mainly Clear"
"1957-01-31 07:00","1957","01","31","07:00","-8.9","","-11.1","","84","","20","","14","","6.4","","99.47","","","","-15","","Smoke,Haze"
"1957-01-31 08:00","1957","01","31","08:00","-7.2","","-10.0","","81","","23","","18","","6.4","","99.49","","","","-14","","Smoke,Haze"
"1957-01-31 09:00","1957","01","31","09:00","-6.1","","-9.4","","77","","23","","11","","6.4","","99.44","","","","-11","","Smoke,Haze"
"1957-01-31 10:00","1957","01","31","10:00","-4.4","","-8.3","","74","","23","","10","","9.7","","99.40","","","","-9","","Smoke,Haze"
"1957-01-31 11:00","1957","01","31","11:00","-3.3","","-7.8","","71","","25","","14","","9.7","","99.36","","","","-8","","Smoke,Haze"
"1957-01-31 12:00","1957","01","31","12:00","-2.2","","-6.7","","72","","25","","19","","9.7","","99.34","","","","-8","","Smoke,Haze"
"1957-01-31 13:00","1957","01","31","13:00","-2.2","","-6.7","","72","","25","","23","","9.7","","99.29","","","","-8","","Smoke,Haze"
"1957-01-31 14:00","1957","01","31","14:00","-2.2","","-5.6","","78","","25","","23","","9.7","","99.28","","","","-8","","Smoke,Haze"
"1957-01-31 15:00","1957","01","31","15:00","-2.2","","-4.4","","85","","27","","21","","9.7","","99.35","","","","-8","","Smoke,Haze"
"1957-01-31 16:00","1957","01","31","16:00","-2.2","","-3.9","","88","","32","","13","","12.9","","99.40","","","","-7","","Mostly Cloudy"
"1957-01-31 17:00","1957","01","31","17:00","-3.9","","-5.6","","88","","32","","13","","12.9","","99.47","","","","-9","","Mainly Clear"
"1957-01-31 18:00","1957","01","31","18:00","-6.1","","-9.4","","77","","32","","10","","19.3","","99.52","","","","-11","","Mainly Clear"
"1957-01-31 19:00","1957","01","31","19:00","-7.2","","-10.6","","77","","32","","8","","19.3","","99.55","","","","-11","","Clear"
"1957-01-31 20:00","1957","01","31","20:00","-10.6","","-13.3","","80","","32","","8","","19.3","","99.61","","","","-15","","Clear"
"1957-01-31 21:00","1957","01","31","21:00","-11.1","","-13.3","","84","","32","","11","","19.3","","99.70","","","","-17","","Clear"
"1957-01-31 22:00","1957","01","31","22:00","-10.6","","-13.3","","80","","32","","16","","19.3","","99.79","","","","-18","","Mostly Cloudy"
"1957-01-31 23:00","1957","01","31","23:00","-7.8","","-10.6","","81","","32","","10","","25.0","","99.83","","","","-13","","Mostly Cloudy"
