"Station Name","TORONTO LESTER B. PEARSON INT'L A"
"Province","ONTARIO"
"Latitude","43.68"
"Longitude","-79.63"
"Elevation","173.40"
"Climate Identifier","6158733"
"WMO Identifier","71624"
"TC Identifier","YYZ"
"All times are specified in Local Standard Time (LST). Add 1 hour to adjust for Daylight Saving Time where and when it is observed."

"Legend"
"E","Estimated"
"M","Missing"
"NA","Not Available"

"Date/Time","Year","Month","Day","Time","Temp (°C)","Temp Flag","Dew Point Temp (°C)","Dew Point Temp Flag","Rel Hum (%)","Rel Hum Flag","Wind Dir (10s deg)","Wind Dir Flag","Wind Spd (km/h)","Wind Spd Flag","Visibility (km)","Visibility Flag","Stn Press (kPa)","Stn Press Flag","Hmdx","Hmdx Flag","Wind Chill","Wind Chill Flag","Weather"
"1954-07-01 00:00","1954","07","01","00:00","17.2","","14.4","","84","","7","","6","","12.9","","99.51","","","","","","Cloudy"
"1954-07-01 01:00","1954","07","01","01:00","17.2","","14.4","","84","","32","","8","","4.8","","99.56","","","","","","Thunderstorms,Heavy Rain Showers"
"1954-07-01 02:00","1954","07","01","02:00","16.7","","15.0","","90","","14","","5","","12.9","","99.45","","","","","","Cloudy"
"1954-07-01 03:00","1954","07","01","03:00","16.1","","14.4","","90","","29","","6","","8.0","","99.50","","","","","","Fog"
"1954-07-01 04:00","1954","07","01","04:00","15.6","","14.4","","93","","2","","6","","4.8","","99.50","","","","","","Fog"
"1954-07-01 05:00","1954","07","01","05:00","15.6","","15.0","","97","","36","","3","","6.4","","99.53","","","","","","Fog"
"1954-07-01 06:00","1954","07","01","06:00","16.1","","15.0","","93","","","","0","","12.9","","99.56","","","","","","Clear"
"1954-07-01 07:00","1954","07","01","07:00","17.2","","15.6","","90","","","","0","","12.9","","99.57","","","","","","Mainly Clear"
"1954-07-01 08:00","1954","07","01","08:00","20.6","","17.2","","81","","","","0","","9.7","","99.59","","26","","","","Smoke,Haze"
"1954-07-01 09:00","1954","07","01","09:00","23.3","","18.3","","74","","","","0","","8.0","","99.56","","30","","","","Smoke,Haze"
"1954-07-01 10:00","1954","07","01","10:00","26.1","","21.7","","77","","","","0","","8.0","","99.56","","35","","","","Smoke,Haze"
"1954-07-01 11:00","1954","07","01","11:00","26.1","","21.1","","74","","18","","10","","8.0","","99.56","","35","","","","Smoke,Haze"
"1954-07-01 12:00","1954","07","01","12:00","26.1","","20.6","","72","","18","","23","","8.0","","99.56","","34","","","","Smoke,Haze"
"1954-07-01 13:00","1954","07","01","13:00","25.6","","21.7","","72","","18","","13","","16.1","","99.55","","35","","","","Mostly Cloudy"
"1954-07-01 14:00","1954","07","01","14:00","28.9","","16.1","","46","","27","","29","","25.0","","99.53","","34","","","","Mainly Clear"
"1954-07-01 15:00","1954","07","01","15:00","28.9","","15.0","","43","","27","","29","","25.0","","99.54","","33","","","","Mainly Clear"
"1954-07-01 16:00","1954","07","01","16:00","28.3","","15.0","","44","","27","","31","","25.0","","99.56","","32","","","","Mainly Clear"
"1954-07-01 17:00","1954","07","01","17:00","27.2","","15.6","","49","","27","","27","","25.0","","99.56","","32","","","","Mainly Clear"
"1954-07-01 18:00","1954","07","01","18:00","26.7","","15.6","","51","","29","","26","","25.0","","99.56","","31","","","","Mainly Clear"
"1954-07-01 19:00","1954","07","01","19:00","25.6","","16.1","","56","","29","","13","","25.0","","99.58","","30","","","","Mainly Clear"
"1954-07-01 20:00","1954","07","01","20:00","22.8","","16.7","","69","","29","","13","","25.0","","99.59","","28","","","","Mainly Clear"
"1954-07-01 21:00","1954","07","01","21:00","21.1","","16.1","","73","","29","","16","","25.0","","99.64","","26","","","","Mainly Clear"
"1954-07-01 22:00","1954","07","01","22:00","20.0","","13.9","","68","","32","","27","","25.0","","99.74","","","","","","Mainly Clear"
"1954-07-01 23:00","1954","07","01","23:00","17.8","","12.8","","73","","29","","14","","25.0","","99.77","","","","","","Clear"
"1954-07-02 00:00","1954","07","02","00:00","17.8","","12.8","","73","","29","","16","","25.0","","99.82","","","","","","Clear"
"1954-07-02 01:00","1954","07","02","01:00","17.2","","11.7","","70","","29","","21","","25.0","","99.83","","","","","","Mostly Cloudy"
"1954-07-02 02:00","1954","07","02","02:00","16.7","","11.1","","70","","29","","21","","25.0","","99.87","","","","","","Mainly Clear"
"1954-07-02 03:00","1954","07","02","03:00","15.0","","11.1","","78","","29","","13","","25.0","","99.90","","","","","","Clear"
"1954-07-02 04:00","1954","07","02","04:00","14.4","","11.1","","81","","27","","24","","25.0","","99.93","","","","","","Clear"
"1954-07-02 05:00","1954","07","02","05:00","14.4","","11.1","","81","","27","","24","","25.0","","99.97","","","","","","Clear"
"1954-07-02 06:00","1954","07","02","06:00","15.6","","10.6","","72","","29","","27","","25.0","","99.96","","","","","","Clear"
"1954-07-02 07:00","1954","07","02","07:00","16.7","","11.1","","70","","29","","29","","25.0","","99.96","","","","","","Clear"
"1954-07-02 08:00","1954","07","02","08:00","18.3","","11.7","","65","","27","","32","","25.0","","99.96","","","","","","Mainly Clear"
"1954-07-02 09:00","1954","07","02","09:00","20.6","","12.8","","61","","29","","32","","25.0","","99.96","","","","","","Mainly Clear"
"1954-07-02 10:00","1954","07","02","10:00","21.7","","12.8","","57","","29","","34","","25.0","","99.98","","","","","","Mostly Cloudy"
"1954-07-02 11:00","1954","07","02","11:00","21.7","","12.8","","57","","29","","39","","25.0","","99.98","","","","","","Cloudy"
"1954-07-02 12:00","1954","07","02","12:00","21.7","","13.3","","59","","29","","32","","25.0","","100.00","","25","","","","Mostly Cloudy"
"1954-07-02 13:00","1954","07","02","13:00","22.8","","13.9","","57","","29","","32","","25.0","","99.97","","26","","","","Mostly Cloudy"
"1954-07-02 14:00","1954","07","02","14:00","23.3","","13.9","","56","","27","","31","","25.0","","99.90","","27","","","","Mostly Cloudy"
"1954-07-02 15:00","1954","07","02","15:00","23.3","","13.9","","56","","27","","32","","25.0","","99.86","","27","","","","Mostly Cloudy"
"1954-07-02 16:00","1954","07","02","16:00","23.3","","13.9","","56","","27","","32","","25.0","","99.83","","27","","","","Mostly Cloudy"
"1954-07-02 17:00","1954","07","02","17:00","22.2","","13.3","","57","","29","","27","","25.0","","99.81","","25","","","","Mostly Cloudy"
"1954-07-02 18:00","1954","07","02","18:00","20.6","","12.2","","63","","32","","26","","25.0","","99.85","","","","","","Rain Showers"
"1954-07-02 19:00","1954","07","02","19:00","17.8","","14.4","","81","","32","","24","","19.3","","99.87","","","","","","Rain Showers"
"1954-07-02 20:00","1954","07","02","20:00","16.7","","10.6","","67","","34","","14","","25.0","","99.89","","","","","","Mostly Cloudy"
"1954-07-02 21:00","1954","07","02","21:00","15.0","","9.4","","69","","34","","16","","25.0","","99.94","","","","","","Mostly Cloudy"
"1954-07-02 22:00","1954","07","02","22:00","15.0","","8.9","","67","","34","","8","","25.0","","99.96","","","","","","Mostly Cloudy"
"1954-07-02 23:00","1954","07","02","23:00","15.0","","8.3","","64","","34","","11","","25.0","","99.97","","","","","","Cloudy"
"1954-07-03 00:00","1954","07","03","00:00","13.9","","8.3","","69","","29","","6","","25.0","","99.96","","","","","","Mainly Clear"
"1954-07-03 01:00","1954","07","03","01:00","13.9","","8.3","","69","","29","","8","","25.0","","99.98","","","","","","Mostly Cloudy"
"1954-07-03 02:00","1954","07","03","02:00","12.8","","7.8","","72","","34","","8","","25.0","","99.98","","","","","","Mostly Cloudy"
"1954-07-03 03:00","1954","07","03","03:00","12.2","","8.9","","80","","36","","10","","25.0","","99.98","","","","","","Mostly Cloudy"
"1954-07-03 04:00","1954","07","03","04:00","12.8","","8.9","","77","","36","","21","","25.0","","100.00","","","","","","Mostly Cloudy"
"1954-07-03 05:00","1954","07","03","05:00","12.2","","9.4","","83","","36","","14","","25.0","","100.04","","","","","","Mostly Cloudy"
"1954-07-03 06:00","1954","07","03","06:00","13.3","","10.0","","80","","2","","11","","25.0","","100.06","","","","","","Mainly Clear"
"1954-07-03 07:00","1954","07","03","07:00","14.4","","10.6","","78","","5","","8","","25.0","","100.06","","","","","","Mainly Clear"
"1954-07-03 08:00","1954","07","03","08:00","16.7","","10.0","","65","","7","","11","","25.0","","100.07","","","","","","Mainly Clear"
"1954-07-03 09:00","1954","07","03","09:00","17.8","","8.3","","54","","7","","16","","25.0","","100.12","","","","","","Mostly Cloudy"
"1954-07-03 10:00","1954","07","03","10:00","18.9","","7.2","","47","","7","","21","","25.0","","100.07","","","","","","Mostly Cloudy"
"1954-07-03 11:00","1954","07","03","11:00","20.0","","6.1","","40","","11","","16","","25.0","","100.07","","","","","","Mostly Cloudy"
"1954-07-03 12:00","1954","07","03","12:00","20.0","","6.1","","40","","11","","21","","25.0","","99.99","","","","","","Mostly Cloudy"
"1954-07-03 13:00","1954","07","03","13:00","20.6","","6.7","","41","","16","","21","","25.0","","99.99","","","","","","Mostly Cloudy"
"1954-07-03 14:00","1954","07","03","14:00","19.4","","6.1","","42","","16","","16","","25.0","","99.99","","","","","","Cloudy"
"1954-07-03 15:00","1954","07","03","15:00","20.0","","7.2","","44","","14","","11","","25.0","","99.96","","","","","","Mostly Cloudy"
"1954-07-03 16:00","1954","07","03","16:00","20.6","","7.8","","44","","18","","8","","25.0","","99.90","","","","","","Cloudy"
"1954-07-03 17:00","1954","07","03","17:00","20.6","","7.8","","44","","20","","3","","25.0","","99.85","","","","","","Mostly Cloudy"
"1954-07-03 18:00","1954","07","03","18:00","19.4","","9.4","","52","","16","","6","","25.0","","99.80","","","","","","Mostly Cloudy"
"1954-07-03 19:00","1954","07","03","19:00","19.4","","8.9","","50","","14","","5","","25.0","","99.77","","","","","","Mostly Cloudy"
"1954-07-03 20:00","1954","07","03","20:00","18.9","","9.4","","54","","","","0","","25.0","","99.75","","","","","","Mostly Cloudy"
"1954-07-03 21:00","1954","07","03","21:00","17.8","","12.8","","73","","","","0","","25.0","","99.79","","","","","","Mostly Cloudy"
"1954-07-03 22:00","1954","07","03","22:00","17.8","","12.8","","73","","34","","10","","25.0","","99.83","","","","","","Mostly Cloudy"
"1954-07-03 23:00","1954","07","03","23:00","16.7","","11.7","","72","","34","","8","","25.0","","99.81","","","","","","Mostly Cloudy"
"1954-07-04 00:00","1954","07","04","00:00","15.0","","10.6","","75","","36","","13","","25.0","","99.81","","","","","","Mainly Clear"
"1954-07-04 01:00","1954","07","04","01:00","13.9","","10.0","","77","","34","","8","","25.0","","99.79","","","","","","Clear"
"1954-07-04 02:00","1954","07","04","02:00","12.2","","8.9","","80","","36","","11","","25.0","","99.75","","","","","","Clear"
"1954-07-04 03:00","1954","07","04","03:00","11.7","","8.3","","80","","36","","18","","25.0","","99.66","","","","","","Clear"
"1954-07-04 04:00","1954","07","04","04:00","11.1","","8.3","","83","","36","","14","","25.0","","99.60","","","","","","Clear"
"1954-07-04 05:00","1954","07","04","05:00","11.1","","8.3","","83","","36","","14","","25.0","","99.62","","","","","","Mainly Clear"
"1954-07-04 06:00","1954","07","04","06:00","13.3","","8.9","","74","","36","","11","","25.0","","99.68","","","","","","Mainly Clear"
"1954-07-04 07:00","1954","07","04","07:00","15.0","","10.6","","75","","36","","11","","25.0","","99.69","","","","","","Mainly Clear"
"1954-07-04 08:00","1954","07","04","08:00","18.3","","12.2","","68","","2","","10","","25.0","","99.67","","","","","","Mainly Clear"
"1954-07-04 09:00","1954","07","04","09:00","20.6","","12.8","","61","","36","","8","","25.0","","99.66","","","","","","Mainly Clear"
"1954-07-04 10:00","1954","07","04","10:00","22.2","","12.8","","55","","34","","3","","25.0","","99.60","","25","","","","Mainly Clear"
"1954-07-04 11:00","1954","07","04","11:00","23.3","","11.1","","46","","16","","10","","25.0","","99.54","","25","","","","Mainly Clear"
"1954-07-04 12:00","1954","07","04","12:00","23.9","","10.0","","42","","18","","11","","25.0","","99.54","","25","","","","Mainly Clear"
"1954-07-04 13:00","1954","07","04","13:00","23.9","","8.9","","39","","16","","13","","25.0","","99.49","","25","","","","Mainly Clear"
"1954-07-04 14:00","1954","07","04","14:00","24.4","","9.4","","39","","14","","14","","25.0","","99.41","","25","","","","Mainly Clear"
"1954-07-04 15:00","1954","07","04","15:00","25.0","","7.8","","33","","16","","18","","25.0","","99.37","","25","","","","Mainly Clear"
"1954-07-04 16:00","1954","07","04","16:00","23.9","","9.4","","40","","16","","19","","25.0","","99.32","","25","","","","Mainly Clear"
"1954-07-04 17:00","1954","07","04","17:00","22.2","","10.0","","46","","16","","16","","25.0","","99.29","","","","","","Mainly Clear"
"1954-07-04 18:00","1954","07","04","18:00","21.1","","10.6","","51","","16","","13","","25.0","","99.26","","","","","","Mainly Clear"
"1954-07-04 19:00","1954","07","04","19:00","20.6","","11.7","","57","","18","","11","","25.0","","99.24","","","","","","Mostly Cloudy"
"1954-07-04 20:00","1954","07","04","20:00","19.4","","11.1","","59","","","","0","","25.0","","99.21","","","","","","Mostly Cloudy"
"1954-07-04 21:00","1954","07","04","21:00","18.9","","12.2","","65","","36","","6","","25.0","","99.24","","","","","","Mostly Cloudy"
"1954-07-04 22:00","1954","07","04","22:00","17.8","","12.2","","70","","29","","5","","25.0","","99.23","","","","","","Mainly Clear"
"1954-07-04 23:00","1954","07","04","23:00","17.8","","12.2","","70","","34","","10","","25.0","","99.19","","","","","","Mainly Clear"
"1954-07-05 00:00","1954","07","05","00:00","16.1","","12.2","","78","","29","","5","","25.0","","99.15","","","","","","Mainly Clear"
"1954-07-05 01:00","1954","07","05","01:00","15.6","","12.2","","81","","27","","10","","25.0","","99.14","","","","","","Mainly Clear"
"1954-07-05 02:00","1954","07","05","02:00","15.6","","12.2","","81","","27","","11","","25.0","","99.09","","","","","","Mainly Clear"
"1954-07-05 03:00","1954","07","05","03:00","15.6","","13.3","","87","","36","","11","","25.0","","99.00","","","","","","Rain Showers"
"1954-07-05 04:00","1954","07","05","04:00","15.6","","13.9","","90","","27","","11","","25.0","","99.04","","","","","","Mainly Clear"
"1954-07-05 05:00","1954","07","05","05:00","15.0","","13.9","","93","","27","","6","","25.0","","99.05","","","","","","Mainly Clear"
"1954-07-05 06:00","1954","07","05","06:00","16.1","","13.9","","87","","29","","21","","25.0","","99.05","","","","","","Mainly Clear"
"1954-07-05 07:00","1954","07","05","07:00","17.2","","12.8","","75","","27","","31","","25.0","","99.05","","","","","","Mainly Clear"
"1954-07-05 08:00","1954","07","05","08:00","16.1","","11.7","","75","","29","","29","","25.0","","99.11","","","","","","Mainly Clear"
"1954-07-05 09:00","1954","07","05","09:00","18.3","","12.2","","68","","32","","24","","25.0","","99.07","","","","","","Mostly Cloudy"
"1954-07-05 10:00","1954","07","05","10:00","17.8","","11.7","","68","","34","","21","","25.0","","99.10","","","","","","Mostly Cloudy"
"1954-07-05 11:00","1954","07","05","11:00","17.8","","12.8","","73","","34","","21","","25.0","","99.14","","","","","","Cloudy"
"1954-07-05 12:00","1954","07","05","12:00","18.9","","12.2","","65","","32","","21","","24.1","","99.13","","","","","","Cloudy"
"1954-07-05 13:00","1954","07","05","13:00","19.4","","13.3","","68","","36","","23","","19.3","","99.13","","","","","","Mostly Cloudy"
"1954-07-05 14:00","1954","07","05","14:00","20.0","","13.3","","66","","34","","21","","19.3","","99.15","","","","","","Mostly Cloudy"
"1954-07-05 15:00","1954","07","05","15:00","20.6","","12.8","","61","","34","","26","","25.0","","99.16","","","","","","Mostly Cloudy"
"1954-07-05 16:00","1954","07","05","16:00","19.4","","12.8","","65","","36","","24","","25.0","","99.21","","","","","","Mostly Cloudy"
"1954-07-05 17:00","1954","07","05","17:00","19.4","","11.7","","61","","36","","19","","25.0","","99.22","","","","","","Mostly Cloudy"
"1954-07-05 18:00","1954","07","05","18:00","19.4","","12.2","","63","","34","","16","","25.0","","99.22","","","","","","Mainly Clear"
"1954-07-05 19:00","1954","07","05","19:00","19.4","","12.2","","63","","34","","16","","25.0","","99.24","","","","","","Mainly Clear"
"1954-07-05 20:00","1954","07","05","20:00","16.7","","12.2","","75","","36","","10","","25.0","","99.30","","","","","","Clear"
"1954-07-05 21:00","1954","07","05","21:00","16.1","","11.7","","75","","34","","6","","25.0","","99.33","","","","","","Clear"
"1954-07-05 22:00","1954","07","05","22:00","13.9","","10.6","","80","","27","","5","","25.0","","99.33","","","","","","Clear"
"1954-07-05 23:00","1954","07","05","23:00","13.9","","11.1","","83","","29","","13","","25.0","","99.34","","","","","","Clear"
"1954-07-06 00:00","1954","07","06","00:00","12.8","","10.6","","86","","32","","10","","25.0","","99.32","","","","","","Clear"
"1954-07-06 01:00","1954","07","06","01:00","12.8","","10.6","","86","","32","","13","","25.0","","99.32","","","","","","Clear"
"1954-07-06 02:00","1954","07","06","02:00","12.2","","9.4","","83","","32","","3","","25.0","","99.31","","","","","","Clear"
"1954-07-06 03:00","1954","07","06","03:00","12.2","","10.0","","86","","29","","2","","25.0","","99.29","","","","","","Clear"
"1954-07-06 04:00","1954","07","06","04:00","11.1","","8.9","","86","","27","","8","","25.0","","99.29","","","","","","Mainly Clear"
"1954-07-06 05:00","1954","07","06","05:00","12.2","","9.4","","83","","27","","8","","25.0","","99.30","","","","","","Mainly Clear"
"1954-07-06 06:00","1954","07","06","06:00","14.4","","10.6","","78","","29","","11","","25.0","","99.33","","","","","","Mainly Clear"
"1954-07-06 07:00","1954","07","06","07:00","16.7","","11.7","","72","","29","","23","","25.0","","99.34","","","","","","Mainly Clear"
"1954-07-06 08:00","1954","07","06","08:00","19.4","","11.7","","61","","29","","19","","25.0","","99.34","","","","","","Mainly Clear"
"1954-07-06 09:00","1954","07","06","09:00","21.1","","11.7","","55","","27","","29","","25.0","","99.25","","","","","","Mainly Clear"
"1954-07-06 10:00","1954","07","06","10:00","22.2","","12.2","","53","","27","","26","","25.0","","99.25","","25","","","","Mostly Cloudy"
"1954-07-06 11:00","1954","07","06","11:00","22.8","","12.2","","51","","27","","29","","25.0","","99.17","","25","","","","Mostly Cloudy"
"1954-07-06 12:00","1954","07","06","12:00","23.9","","11.1","","45","","27","","27","","25.0","","99.10","","26","","","","Mostly Cloudy"
"1954-07-06 13:00","1954","07","06","13:00","23.9","","11.1","","45","","27","","32","","25.0","","99.05","","26","","","","Mostly Cloudy"
"1954-07-06 14:00","1954","07","06","14:00","24.4","","11.1","","43","","25","","34","","25.0","","98.94","","26","","","","Cloudy"
"1954-07-06 15:00","1954","07","06","15:00","24.4","","11.7","","45","","25","","29","","25.0","","98.86","","27","","","","Cloudy"
"1954-07-06 16:00","1954","07","06","16:00","23.3","","11.1","","46","","27","","29","","25.0","","98.85","","25","","","","Cloudy"
"1954-07-06 17:00","1954","07","06","17:00","22.8","","10.6","","46","","27","","26","","25.0","","98.83","","","","","","Mostly Cloudy"
"1954-07-06 18:00","1954","07","06","18:00","21.7","","12.8","","57","","23","","32","","25.0","","98.75","","","","","","Mostly Cloudy"
"1954-07-06 19:00","1954","07","06","19:00","20.6","","12.2","","59","","25","","29","","25.0","","98.70","","","","","","Mostly Cloudy"
"1954-07-06 20:00","1954","07","06","20:00","20.0","","13.3","","66","","25","","35","","25.0","","98.68","","","","","","Mostly Cloudy"
"1954-07-06 21:00","1954","07","06","21:00","18.3","","13.9","","75","","25","","39","","25.0","","98.69","","","","","","Mostly Cloudy"
"1954-07-06 22:00","1954","07","06","22:00","17.8","","14.4","","81","","25","","29","","25.0","","98.60","","","","","","Mostly Cloudy"
"1954-07-06 23:00","1954","07","06","23:00","17.2","","14.4","","87","","25","","23","","25.0","","98.58","","","","","","Mostly Cloudy"
"1954-07-07 00:00","1954","07","07","00:00","17.2","","15.0","","87","","25","","21","","25.0","","98.54","","","","","","Mostly Cloudy"
"1954-07-07 01:00","1954","07","07","01:00","17.2","","15.0","","87","","25","","13","","25.0","","98.54","","","","","","Mostly Cloudy"
"1954-07-07 02:00","1954","07","07","02:00","16.7","","14.4","","87","","29","","8","","25.0","","98.60","","","","","","Rain Showers"
"1954-07-07 03:00","1954","07","07","03:00","15.6","","12.8","","84","","34","","14","","25.0","","98.59","","","","","","Mostly Cloudy"
"1954-07-07 04:00","1954","07","07","04:00","13.9","","11.7","","87","","34","","24","","25.0","","98.62","","","","","","Mostly Cloudy"
"1954-07-07 05:00","1954","07","07","05:00","12.8","","10.6","","86","","34","","16","","25.0","","98.68","","","","","","Mostly Cloudy"
"1954-07-07 06:00","1954","07","07","06:00","13.3","","10.6","","83","","36","","16","","25.0","","98.72","","","","","","Mostly Cloudy"
"1954-07-07 07:00","1954","07","07","07:00","13.9","","9.4","","75","","2","","19","","25.0","","98.75","","","","","","Mostly Cloudy"
"1954-07-07 08:00","1954","07","07","08:00","15.6","","9.4","","67","","34","","16","","25.0","","98.80","","","","","","Mostly Cloudy"
"1954-07-07 09:00","1954","07","07","09:00","16.1","","10.0","","67","","2","","16","","25.0","","98.77","","","","","","Mostly Cloudy"
"1954-07-07 10:00","1954","07","07","10:00","16.1","","10.0","","67","","29","","11","","25.0","","98.77","","","","","","Mostly Cloudy"
"1954-07-07 11:00","1954","07","07","11:00","18.3","","10.6","","61","","36","","14","","25.0","","98.75","","","","","","Mostly Cloudy"
"1954-07-07 12:00","1954","07","07","12:00","18.3","","9.4","","56","","34","","18","","25.0","","98.71","","","","","","Mostly Cloudy"
"1954-07-07 13:00","1954","07","07","13:00","18.9","","9.4","","54","","2","","16","","25.0","","98.70","","","","","","Mostly Cloudy"
"1954-07-07 14:00","1954","07","07","14:00","20.0","","10.6","","55","","36","","14","","25.0","","98.70","","","","","","Mostly Cloudy"
"1954-07-07 15:00","1954","07","07","15:00","20.6","","9.4","","49","","36","","13","","25.0","","98.70","","","","","","Mostly Cloudy"
"1954-07-07 16:00","1954","07","07","16:00","20.0","","11.1","","57","","34","","23","","25.0","","98.72","","","","","","Mostly Cloudy"
"1954-07-07 17:00","1954","07","07","17:00","18.9","","11.1","","61","","34","","34","","25.0","","98.78","","","","","","Mostly Cloudy"
"1954-07-07 18:00","1954","07","07","18:00","18.3","","10.0","","58","","34","","27","","25.0","","98.81","","","","","","Mainly Clear"
"1954-07-07 19:00","1954","07","07","19:00","17.2","","9.4","","60","","34","","29","","25.0","","98.86","","","","","","Mainly Clear"
"1954-07-07 20:00","1954","07","07","20:00","14.4","","7.2","","62","","34","","23","","25.0","","98.95","","","","","","Mainly Clear"
"1954-07-07 21:00","1954","07","07","21:00","13.9","","6.1","","59","","34","","19","","25.0","","99.03","","","","","","Clear"
"1954-07-07 22:00","1954","07","07","22:00","12.8","","6.7","","66","","34","","16","","25.0","","99.08","","","","","","Clear"
"1954-07-07 23:00","1954","07","07","23:00","12.2","","6.7","","69","","34","","16","","25.0","","99.08","","","","","","Clear"
"1954-07-08 00:00","1954","07","08","00:00","11.1","","6.7","","74","","34","","16","","25.0","","99.12","","","","","","Clear"
"1954-07-08 01:00","1954","07","08","01:00","11.1","","6.7","","74","","34","","13","","25.0","","99.14","","","","","","Clear"
"1954-07-08 02:00","1954","07","08","02:00","10.6","","6.1","","74","","34","","14","","25.0","","99.18","","","","","","Clear"
"1954-07-08 03:00","1954","07","08","03:00","10.0","","6.1","","77","","32","","10","","25.0","","99.22","","","","","","Clear"
"1954-07-08 04:00","1954","07","08","04:00","9.4","","6.1","","80","","32","","6","","25.0","","99.26","","","","","","Clear"
"1954-07-08 05:00","1954","07","08","05:00","8.9","","5.6","","80","","27","","3","","25.0","","99.34","","","","","","Clear"
"1954-07-08 06:00","1954","07","08","06:00","10.0","","7.2","","80","","27","","2","","25.0","","99.37","","","","","","Clear"
"1954-07-08 07:00","1954","07","08","07:00","13.9","","9.4","","69","","29","","8","","25.0","","99.45","","","","","","Clear"
"1954-07-08 08:00","1954","07","08","08:00","16.1","","7.2","","56","","34","","11","","25.0","","99.50","","","","","","Mainly Clear"
"1954-07-08 09:00","1954","07","08","09:00","17.8","","6.7","","48","","32","","11","","25.0","","99.48","","","","","","Mainly Clear"
"1954-07-08 10:00","1954","07","08","10:00","18.3","","7.2","","48","","5","","8","","25.0","","99.47","","","","","","Mainly Clear"
"1954-07-08 11:00","1954","07","08","11:00","20.0","","8.3","","47","","32","","16","","25.0","","99.42","","","","","","Mainly Clear"
"1954-07-08 12:00","1954","07","08","12:00","20.0","","7.8","","45","","2","","11","","25.0","","99.39","","","","","","Mostly Cloudy"
"1954-07-08 13:00","1954","07","08","13:00","21.1","","7.8","","42","","32","","16","","25.0","","99.38","","","","","","Mostly Cloudy"
"1954-07-08 14:00","1954","07","08","14:00","20.6","","7.8","","44","","36","","11","","25.0","","99.40","","","","","","Mostly Cloudy"
"1954-07-08 15:00","1954","07","08","15:00","20.0","","7.8","","45","","34","","13","","25.0","","99.44","","","","","","Mostly Cloudy"
"1954-07-08 16:00","1954","07","08","16:00","20.6","","7.8","","44","","36","","11","","25.0","","99.42","","","","","","Mostly Cloudy"
"1954-07-08 17:00","1954","07","08","17:00","21.1","","7.8","","42","","27","","13","","25.0","","99.40","","","","","","Mostly Cloudy"
"1954-07-08 18:00","1954","07","08","18:00","20.6","","6.7","","41","","29","","16","","25.0","","99.38","","","","","","Mostly Cloudy"
"1954-07-08 19:00","1954","07","08","19:00","20.0","","7.8","","45","","29","","19","","25.0","","99.40","","","","","","Mainly Clear"
"1954-07-08 20:00","1954","07","08","20:00","17.2","","7.2","","52","","32","","19","","25.0","","99.42","","","","","","Clear"
"1954-07-08 21:00","1954","07","08","21:00","15.6","","7.8","","60","","32","","11","","25.0","","99.50","","","","","","Clear"
"1954-07-08 22:00","1954","07","08","22:00","14.4","","8.3","","67","","32","","10","","25.0","","99.50","","","","","","Clear"
"1954-07-08 23:00","1954","07","08","23:00","12.2","","7.2","","71","","29","","8","","25.0","","99.50","","","","","","Clear"
"1954-07-09 00:00","1954","07","09","00:00","11.7","","7.2","","74","","27","","3","","25.0","","99.51","","","","","","Clear"
"1954-07-09 01:00","1954","07","09","01:00","11.7","","6.1","","69","","27","","3","","25.0","","99.54","","","","","","Clear"
"1954-07-09 02:00","1954","07","09","02:00","11.1","","6.7","","74","","27","","8","","25.0","","99.52","","","","","","Clear"
"1954-07-09 03:00","1954","07","09","03:00","10.6","","6.1","","74","","27","","5","","25.0","","99.53","","","","","","Clear"
"1954-07-09 04:00","1954","07","09","04:00","11.1","","5.6","","69","","27","","6","","25.0","","99.56","","","","","","Mainly Clear"
"1954-07-09 05:00","1954","07","09","05:00","11.1","","5.0","","66","","27","","10","","25.0","","99.60","","","","","","Mainly Clear"
"1954-07-09 06:00","1954","07","09","06:00","13.9","","6.1","","59","","27","","14","","25.0","","99.62","","","","","","Mainly Clear"
"1954-07-09 07:00","1954","07","09","07:00","15.6","","7.2","","58","","29","","10","","25.0","","99.69","","","","","","Mainly Clear"
"1954-07-09 08:00","1954","07","09","08:00","18.3","","9.4","","56","","36","","8","","25.0","","99.75","","","","","","Clear"
"1954-07-09 09:00","1954","07","09","09:00","19.4","","11.1","","59","","32","","16","","25.0","","99.77","","","","","","Clear"
"1954-07-09 10:00","1954","07","09","10:00","20.6","","12.2","","59","","36","","11","","25.0","","99.81","","","","","","Mainly Clear"
"1954-07-09 11:00","1954","07","09","11:00","21.1","","11.1","","53","","36","","16","","25.0","","99.80","","","","","","Mostly Cloudy"
"1954-07-09 12:00","1954","07","09","12:00","22.2","","11.1","","49","","2","","16","","25.0","","99.78","","","","","","Mostly Cloudy"
"1954-07-09 13:00","1954","07","09","13:00","22.8","","12.2","","51","","2","","14","","25.0","","99.78","","25","","","","Mostly Cloudy"
"1954-07-09 14:00","1954","07","09","14:00","21.7","","11.7","","53","","18","","14","","25.0","","99.78","","","","","","Mostly Cloudy"
"1954-07-09 15:00","1954","07","09","15:00","22.2","","11.7","","51","","16","","14","","25.0","","99.80","","","","","","Mainly Clear"
"1954-07-09 16:00","1954","07","09","16:00","21.7","","11.7","","53","","16","","6","","25.0","","99.81","","","","","","Mostly Cloudy"
"1954-07-09 17:00","1954","07","09","17:00","22.2","","11.1","","49","","5","","3","","25.0","","99.81","","","","","","Mainly Clear"
"1954-07-09 18:00","1954","07","09","18:00","21.7","","10.0","","48","","2","","11","","25.0","","99.82","","","","","","Mainly Clear"
"1954-07-09 19:00","1954","07","09","19:00","20.6","","10.6","","53","","2","","13","","25.0","","99.83","","","","","","Mainly Clear"
"1954-07-09 20:00","1954","07","09","20:00","18.9","","9.4","","54","","2","","16","","25.0","","99.91","","","","","","Mostly Cloudy"
"1954-07-09 21:00","1954","07","09","21:00","17.8","","10.6","","63","","2","","16","","25.0","","99.98","","","","","","Mostly Cloudy"
"1954-07-09 22:00","1954","07","09","22:00","16.1","","8.9","","62","","36","","16","","25.0","","100.01","","","","","","Mainly Clear"
"1954-07-09 23:00","1954","07","09","23:00","14.4","","8.9","","69","","2","","13","","25.0","","100.03","","","","","","Mainly Clear"
"1954-07-10 00:00","1954","07","10","00:00","12.8","","7.8","","72","","36","","8","","25.0","","100.03","","","","","","Mainly Clear"
"1954-07-10 01:00","1954","07","10","01:00","12.2","","8.9","","80","","34","","16","","25.0","","100.00","","","","","","Clear"
"1954-07-10 02:00","1954","07","10","02:00","11.1","","8.9","","86","","34","","11","","25.0","","100.00","","","","","","Clear"
"1954-07-10 03:00","1954","07","10","03:00","10.6","","8.3","","86","","36","","13","","25.0","","100.01","","","","","","Clear"
"1954-07-10 04:00","1954","07","10","04:00","10.0","","7.8","","86","","36","","13","","25.0","","100.00","","","","","","Mostly Cloudy"
"1954-07-10 05:00","1954","07","10","05:00","10.6","","7.8","","83","","34","","10","","25.0","","100.08","","","","","","Mostly Cloudy"
"1954-07-10 06:00","1954","07","10","06:00","11.1","","7.2","","77","","36","","13","","25.0","","100.14","","","","","","Mostly Cloudy"
"1954-07-10 07:00","1954","07","10","07:00","12.2","","8.9","","80","","36","","11","","25.0","","100.14","","","","","","Mostly Cloudy"
"1954-07-10 08:00","1954","07","10","08:00","13.9","","10.0","","77","","2","","6","","25.0","","100.17","","","","","","Mostly Cloudy"
"1954-07-10 09:00","1954","07","10","09:00","16.1","","11.1","","72","","9","","3","","25.0","","100.13","","","","","","Mostly Cloudy"
"1954-07-10 10:00","1954","07","10","10:00","18.9","","13.9","","73","","","","0","","25.0","","100.14","","","","","","Mostly Cloudy"
"1954-07-10 11:00","1954","07","10","11:00","20.6","","9.4","","49","","9","","3","","25.0","","100.14","","","","","","Mostly Cloudy"
"1954-07-10 12:00","1954","07","10","12:00","22.8","","10.6","","46","","16","","11","","25.0","","100.12","","","","","","Mainly Clear"
"1954-07-10 13:00","1954","07","10","13:00","23.3","","6.1","","43","","18","","6","","25.0","","100.09","","","","","","Mainly Clear"
"1954-07-10 14:00","1954","07","10","14:00","23.9","","9.4","","40","","16","","13","","25.0","","100.06","","25","","","","Mainly Clear"
"1954-07-10 15:00","1954","07","10","15:00","23.3","","8.3","","38","","16","","16","","25.0","","100.02","","","","","","Mainly Clear"
"1954-07-10 16:00","1954","07","10","16:00","23.3","","7.8","","37","","14","","16","","25.0","","99.99","","","","","","Mainly Clear"
"1954-07-10 17:00","1954","07","10","17:00","22.2","","7.2","","38","","14","","19","","25.0","","99.96","","","","","","Clear"
"1954-07-10 18:00","1954","07","10","18:00","21.7","","8.3","","42","","14","","13","","25.0","","99.95","","","","","","Clear"
"1954-07-10 19:00","1954","07","10","19:00","20.0","","8.9","","49","","16","","13","","25.0","","99.97","","","","","","Clear"
"1954-07-10 20:00","1954","07","10","20:00","18.3","","8.9","","54","","16","","3","","25.0","","99.97","","","","","","Clear"
"1954-07-10 21:00","1954","07","10","21:00","16.7","","10.0","","65","","9","","6","","25.0","","100.03","","","","","","Clear"
"1954-07-10 22:00","1954","07","10","22:00","15.6","","8.9","","65","","2","","5","","25.0","","100.05","","","","","","Clear"
"1954-07-10 23:00","1954","07","10","23:00","13.9","","9.4","","75","","36","","3","","25.0","","100.02","","","","","","Clear"
"1954-07-11 00:00","1954","07","11","00:00","12.8","","8.9","","77","","34","","6","","25.0","","100.03","","","","","","Clear"
"1954-07-11 01:00","1954","07","11","01:00","12.2","","8.9","","80","","36","","8","","25.0","","100.04","","","","","","Clear"
"1954-07-11 02:00","1954","07","11","02:00","11.7","","8.3","","80","","34","","11","","25.0","","100.01","","","","","","Clear"
"1954-07-11 03:00","1954","07","11","03:00","11.1","","7.8","","80","","34","","10","","25.0","","100.01","","","","","","Clear"
"1954-07-11 04:00","1954","07","11","04:00","10.6","","7.8","","83","","34","","11","","25.0","","100.01","","","","","","Mainly Clear"
"1954-07-11 05:00","1954","07","11","05:00","10.6","","7.8","","83","","34","","8","","25.0","","100.09","","","","","","Mainly Clear"
"1954-07-11 06:00","1954","07","11","06:00","12.2","","8.9","","80","","2","","10","","25.0","","100.13","","","","","","Mainly Clear"
"1954-07-11 07:00","1954","07","11","07:00","15.0","","10.6","","75","","36","","2","","25.0","","100.13","","","","","","Mainly Clear"
"1954-07-11 08:00","1954","07","11","08:00","20.0","","11.1","","57","","5","","5","","25.0","","100.10","","","","","","Mainly Clear"
"1954-07-11 09:00","1954","07","11","09:00","22.2","","10.6","","48","","11","","8","","25.0","","100.07","","","","","","Mainly Clear"
"1954-07-11 10:00","1954","07","11","10:00","23.3","","10.0","","43","","16","","14","","25.0","","100.05","","25","","","","Mainly Clear"
"1954-07-11 11:00","1954","07","11","11:00","23.3","","9.4","","41","","16","","19","","25.0","","100.05","","","","","","Mainly Clear"
"1954-07-11 12:00","1954","07","11","12:00","23.3","","10.0","","43","","16","","18","","25.0","","100.01","","25","","","","Mainly Clear"
"1954-07-11 13:00","1954","07","11","13:00","23.9","","9.4","","40","","14","","18","","25.0","","99.97","","25","","","","Mainly Clear"
"1954-07-11 14:00","1954","07","11","14:00","24.4","","9.4","","39","","14","","16","","25.0","","99.90","","25","","","","Mainly Clear"
"1954-07-11 15:00","1954","07","11","15:00","24.4","","8.3","","36","","14","","16","","25.0","","99.86","","25","","","","Mainly Clear"
"1954-07-11 16:00","1954","07","11","16:00","23.9","","8.3","","37","","16","","18","","25.0","","99.81","","","","","","Mainly Clear"
"1954-07-11 17:00","1954","07","11","17:00","23.9","","8.3","","37","","16","","16","","25.0","","99.79","","","","","","Clear"
"1954-07-11 18:00","1954","07","11","18:00","22.8","","8.3","","40","","16","","13","","25.0","","99.78","","","","","","Clear"
"1954-07-11 19:00","1954","07","11","19:00","21.1","","5.6","","36","","14","","8","","24.1","","99.77","","","","","","Mainly Clear"
"1954-07-11 20:00","1954","07","11","20:00","20.0","","6.7","","42","","11","","8","","16.1","","99.77","","","","","","Mainly Clear"
"1954-07-11 21:00","1954","07","11","21:00","17.8","","8.3","","54","","23","","3","","25.0","","99.83","","","","","","Mainly Clear"
"1954-07-11 22:00","1954","07","11","22:00","16.1","","8.9","","62","","2","","3","","25.0","","99.82","","","","","","Mainly Clear"
"1954-07-11 23:00","1954","07","11","23:00","15.0","","8.9","","67","","36","","3","","25.0","","99.79","","","","","","Mostly Cloudy"
"1954-07-12 00:00","1954","07","12","00:00","14.4","","8.9","","69","","32","","3","","25.0","","99.74","","","","","","Mainly Clear"
"1954-07-12 01:00","1954","07","12","01:00","13.9","","8.9","","72","","36","","3","","25.0","","99.71","","","","","","Mainly Clear"
"1954-07-12 02:00","1954","07","12","02:00","13.3","","9.4","","77","","","","0","","25.0","","99.67","","","","","","Mostly Cloudy"
"1954-07-12 03:00","1954","07","12","03:00","14.4","","8.9","","69","","34","","5","","25.0","","99.67","","","","","","Mostly Cloudy"
"1954-07-12 04:00","1954","07","12","04:00","14.4","","10.6","","78","","2","","3","","25.0","","99.65","","","","","","Mostly Cloudy"
"1954-07-12 05:00","1954","07","12","05:00","15.0","","10.6","","75","","","","0","","25.0","","99.65","","","","","","Cloudy"
"1954-07-12 06:00","1954","07","12","06:00","15.6","","11.1","","75","","5","","3","","16.1","","99.65","","","","","","Mostly Cloudy"
"1954-07-12 07:00","1954","07","12","07:00","17.8","","11.7","","68","","","","0","","9.7","","99.61","","","","","","Haze"
"1954-07-12 08:00","1954","07","12","08:00","18.3","","12.2","","68","","16","","6","","8.0","","99.58","","","","","","Smoke,Haze"
"1954-07-12 09:00","1954","07","12","09:00","21.7","","12.2","","55","","16","","16","","12.9","","99.48","","","","","","Mostly Cloudy"
"1954-07-12 10:00","1954","07","12","10:00","23.3","","15.6","","62","","16","","19","","12.9","","99.38","","28","","","","Mostly Cloudy"
"1954-07-12 11:00","1954","07","12","11:00","23.3","","14.4","","58","","16","","19","","12.9","","99.31","","27","","","","Mostly Cloudy"
"1954-07-12 12:00","1954","07","12","12:00","23.3","","16.1","","64","","16","","19","","12.9","","99.21","","28","","","","Cloudy"
"1954-07-12 13:00","1954","07","12","13:00","23.3","","15.6","","62","","16","","18","","9.7","","99.12","","28","","","","Haze"
"1954-07-12 14:00","1954","07","12","14:00","22.8","","15.6","","64","","16","","24","","9.7","","99.03","","27","","","","Haze"
"1954-07-12 15:00","1954","07","12","15:00","26.7","","15.6","","51","","18","","29","","9.7","","98.87","","31","","","","Haze"
"1954-07-12 16:00","1954","07","12","16:00","29.4","","15.6","","43","","20","","32","","9.7","","98.72","","34","","","","Haze"
"1954-07-12 17:00","1954","07","12","17:00","29.4","","16.1","","45","","20","","34","","12.9","","98.66","","34","","","","Mostly Cloudy"
"1954-07-12 18:00","1954","07","12","18:00","28.9","","16.1","","46","","20","","21","","19.3","","98.64","","34","","","","Cloudy"
"1954-07-12 19:00","1954","07","12","19:00","28.9","","16.1","","46","","20","","23","","16.1","","98.57","","34","","","","Mostly Cloudy"
"1954-07-12 20:00","1954","07","12","20:00","28.3","","16.7","","49","","20","","16","","16.1","","98.55","","33","","","","Mostly Cloudy"
"1954-07-12 21:00","1954","07","12","21:00","26.1","","17.2","","58","","20","","11","","16.1","","98.54","","32","","","","Mostly Cloudy"
"1954-07-12 22:00","1954","07","12","22:00","25.6","","17.2","","60","","25","","16","","16.1","","98.56","","31","","","","Mainly Clear"
"1954-07-12 23:00","1954","07","12","23:00","25.6","","18.3","","64","","32","","27","","25.0","","98.63","","32","","","","Mostly Cloudy"
"1954-07-13 00:00","1954","07","13","00:00","23.3","","13.9","","56","","29","","21","","25.0","","98.64","","27","","","","Mostly Cloudy"
"1954-07-13 01:00","1954","07","13","01:00","21.7","","12.8","","57","","32","","16","","25.0","","98.64","","","","","","Mainly Clear"
"1954-07-13 02:00","1954","07","13","02:00","19.4","","13.3","","68","","29","","16","","25.0","","98.64","","","","","","Mainly Clear"
"1954-07-13 03:00","1954","07","13","03:00","17.8","","13.3","","75","","29","","14","","25.0","","98.62","","","","","","Clear"
"1954-07-13 04:00","1954","07","13","04:00","19.4","","13.9","","70","","29","","26","","25.0","","98.65","","","","","","Mostly Cloudy"
"1954-07-13 05:00","1954","07","13","05:00","18.9","","13.9","","73","","29","","16","","25.0","","98.72","","","","","","Mostly Cloudy"
"1954-07-13 06:00","1954","07","13","06:00","20.0","","14.4","","70","","29","","10","","25.0","","98.74","","","","","","Mostly Cloudy"
"1954-07-13 07:00","1954","07","13","07:00","22.2","","14.4","","61","","34","","14","","25.0","","98.76","","26","","","","Mostly Cloudy"
"1954-07-13 08:00","1954","07","13","08:00","24.4","","15.0","","56","","29","","21","","25.0","","98.79","","28","","","","Mostly Cloudy"
"1954-07-13 09:00","1954","07","13","09:00","26.1","","14.4","","49","","27","","29","","25.0","","98.77","","30","","","","Mainly Clear"
"1954-07-13 10:00","1954","07","13","10:00","27.2","","13.9","","44","","27","","40","","25.0","","98.75","","31","","","","Mainly Clear"
"1954-07-13 11:00","1954","07","13","11:00","29.4","","14.4","","40","","29","","39","","25.0","","98.77","","33","","","","Clear"
"1954-07-13 12:00","1954","07","13","12:00","30.6","","12.8","","34","","29","","37","","25.0","","98.73","","33","","","","Clear"
"1954-07-13 13:00","1954","07","13","13:00","31.1","","12.8","","33","","29","","40","","25.0","","98.70","","34","","","","Clear"
"1954-07-13 14:00","1954","07","13","14:00","31.1","","11.1","","29","","29","","40","","25.0","","98.70","","33","","","","Clear"
"1954-07-13 15:00","1954","07","13","15:00","31.1","","10.0","","27","","29","","39","","25.0","","98.65","","32","","","","Clear"
"1954-07-13 16:00","1954","07","13","16:00","30.6","","10.6","","29","","29","","39","","25.0","","98.65","","32","","","","Clear"
"1954-07-13 17:00","1954","07","13","17:00","30.0","","11.1","","31","","29","","31","","25.0","","98.65","","32","","","","Clear"
"1954-07-13 18:00","1954","07","13","18:00","28.3","","12.8","","38","","29","","26","","25.0","","98.66","","31","","","","Mainly Clear"
"1954-07-13 19:00","1954","07","13","19:00","27.2","","13.3","","43","","27","","19","","25.0","","98.67","","30","","","","Mainly Clear"
"1954-07-13 20:00","1954","07","13","20:00","25.0","","12.8","","47","","27","","5","","25.0","","98.70","","28","","","","Clear"
"1954-07-13 21:00","1954","07","13","21:00","23.9","","12.8","","50","","27","","6","","25.0","","98.74","","27","","","","Clear"
"1954-07-13 22:00","1954","07","13","22:00","20.6","","13.9","","66","","23","","8","","25.0","","98.73","","","","","","Mainly Clear"
"1954-07-13 23:00","1954","07","13","23:00","20.6","","12.8","","61","","23","","8","","25.0","","98.73","","","","","","Mainly Clear"
"1954-07-14 00:00","1954","07","14","00:00","18.9","","12.8","","68","","25","","3","","25.0","","98.70","","","","","","Mainly Clear"
"1954-07-14 01:00","1954","07","14","01:00","17.8","","12.8","","73","","23","","5","","25.0","","98.69","","","","","","Mainly Clear"
"1954-07-14 02:00","1954","07","14","02:00","16.1","","11.7","","75","","27","","13","","25.0","","98.67","","","","","","Mainly Clear"
"1954-07-14 03:00","1954","07","14","03:00","17.8","","12.8","","73","","27","","11","","25.0","","98.73","","","","","","Mostly Cloudy"
"1954-07-14 04:00","1954","07","14","04:00","18.3","","12.8","","70","","27","","6","","25.0","","98.51","","","","","","Mostly Cloudy"
"1954-07-14 05:00","1954","07","14","05:00","18.9","","13.9","","73","","16","","6","","24.1","","98.41","","","","","","Mostly Cloudy"
"1954-07-14 06:00","1954","07","14","06:00","19.4","","15.0","","76","","18","","3","","16.1","","98.37","","","","","","Mostly Cloudy"
"1954-07-14 07:00","1954","07","14","07:00","19.4","","15.6","","78","","","","0","","16.1","","98.46","","","","","","Mostly Cloudy"
"1954-07-14 08:00","1954","07","14","08:00","24.4","","17.2","","64","","23","","16","","16.1","","98.39","","30","","","","Mainly Clear"
"1954-07-14 09:00","1954","07","14","09:00","28.9","","18.3","","53","","25","","32","","16.1","","98.26","","35","","","","Mainly Clear"
"1954-07-14 10:00","1954","07","14","10:00","30.0","","17.8","","48","","25","","42","","19.3","","98.22","","36","","","","Mainly Clear"
"1954-07-14 11:00","1954","07","14","11:00","31.1","","19.4","","50","","27","","40","","19.3","","98.18","","38","","","","Mainly Clear"
"1954-07-14 12:00","1954","07","14","12:00","32.2","","19.4","","47","","27","","45","","16.1","","98.12","","39","","","","Mainly Clear"
"1954-07-14 13:00","1954","07","14","13:00","32.8","","20.6","","49","","27","","48","","16.1","","98.12","","41","","","","Mostly Cloudy"
"1954-07-14 14:00","1954","07","14","14:00","30.6","","20.6","","55","","29","","42","","16.1","","98.16","","39","","","","Mostly Cloudy"
"1954-07-14 15:00","1954","07","14","15:00","31.1","","17.8","","45","","29","","42","","16.1","","98.15","","37","","","","Mostly Cloudy"
"1954-07-14 16:00","1954","07","14","16:00","30.0","","12.2","","34","","32","","39","","25.0","","98.12","","32","","","","Mainly Clear"
"1954-07-14 17:00","1954","07","14","17:00","28.9","","13.9","","40","","32","","32","","25.0","","98.14","","32","","","","Mainly Clear"
"1954-07-14 18:00","1954","07","14","18:00","28.9","","15.0","","43","","36","","29","","25.0","","98.15","","33","","","","Mainly Clear"
"1954-07-14 19:00","1954","07","14","19:00","24.4","","15.6","","58","","36","","26","","25.0","","98.20","","29","","","","Mainly Clear"
"1954-07-14 20:00","1954","07","14","20:00","22.8","","14.4","","59","","36","","19","","25.0","","98.28","","26","","","","Mainly Clear"
"1954-07-14 21:00","1954","07","14","21:00","21.1","","14.4","","66","","32","","19","","25.0","","98.36","","25","","","","Mainly Clear"
"1954-07-14 22:00","1954","07","14","22:00","20.0","","15.0","","73","","29","","13","","25.0","","98.42","","","","","","Clear"
"1954-07-14 23:00","1954","07","14","23:00","18.3","","14.4","","78","","32","","21","","25.0","","98.39","","","","","","Mainly Clear"
"1954-07-15 00:00","1954","07","15","00:00","17.8","","15.0","","84","","36","","26","","25.0","","98.53","","","","","","Mainly Clear"
"1954-07-15 01:00","1954","07","15","01:00","17.8","","15.0","","84","","34","","27","","25.0","","98.48","","","","","","Mainly Clear"
"1954-07-15 02:00","1954","07","15","02:00","16.7","","13.3","","81","","36","","14","","25.0","","98.65","","","","","","Clear"
"1954-07-15 03:00","1954","07","15","03:00","15.0","","11.1","","78","","34","","13","","25.0","","98.78","","","","","","Clear"
"1954-07-15 04:00","1954","07","15","04:00","13.9","","8.9","","72","","34","","16","","25.0","","98.85","","","","","","Clear"
"1954-07-15 05:00","1954","07","15","05:00","13.3","","8.3","","72","","34","","14","","25.0","","98.98","","","","","","Clear"
"1954-07-15 06:00","1954","07","15","06:00","14.4","","8.3","","67","","34","","21","","25.0","","99.05","","","","","","Clear"
"1954-07-15 07:00","1954","07","15","07:00","16.1","","7.8","","58","","34","","23","","25.0","","99.10","","","","","","Clear"
"1954-07-15 08:00","1954","07","15","08:00","17.8","","7.2","","50","","34","","24","","25.0","","99.14","","","","","","Clear"
"1954-07-15 09:00","1954","07","15","09:00","20.0","","12.2","","61","","34","","23","","25.0","","99.16","","","","","","Clear"
"1954-07-15 10:00","1954","07","15","10:00","20.0","","5.0","","37","","36","","23","","25.0","","99.16","","","","","","Clear"
"1954-07-15 11:00","1954","07","15","11:00","21.7","","5.0","","34","","32","","19","","25.0","","99.16","","","","","","Clear"
"1954-07-15 12:00","1954","07","15","12:00","22.2","","5.6","","34","","32","","32","","25.0","","99.16","","","","","","Mainly Clear"
"1954-07-15 13:00","1954","07","15","13:00","22.8","","5.6","","33","","29","","39","","25.0","","99.12","","","","","","Clear"
"1954-07-15 14:00","1954","07","15","14:00","23.3","","5.0","","30","","29","","35","","25.0","","99.13","","","","","","Mainly Clear"
"1954-07-15 15:00","1954","07","15","15:00","22.8","","4.4","","30","","32","","40","","25.0","","99.19","","","","","","Mainly Clear"
"1954-07-15 16:00","1954","07","15","16:00","22.2","","5.6","","34","","32","","37","","25.0","","99.25","","","","","","Mainly Clear"
"1954-07-15 17:00","1954","07","15","17:00","22.2","","6.7","","37","","32","","29","","25.0","","99.28","","","","","","Mainly Clear"
"1954-07-15 18:00","1954","07","15","18:00","21.7","","7.8","","41","","32","","26","","25.0","","99.35","","","","","","Mainly Clear"
"1954-07-15 19:00","1954","07","15","19:00","20.6","","7.8","","44","","29","","19","","24.1","","99.39","","","","","","Mainly Clear"
"1954-07-15 20:00","1954","07","15","20:00","17.2","","8.3","","56","","27","","13","","24.1","","99.44","","","","","","Mostly Cloudy"
"1954-07-15 21:00","1954","07","15","21:00","16.1","","7.8","","58","","29","","8","","25.0","","99.50","","","","","","Mainly Clear"
"1954-07-15 22:00","1954","07","15","22:00","15.6","","8.3","","62","","29","","16","","25.0","","99.56","","","","","","Mainly Clear"
"1954-07-15 23:00","1954","07","15","23:00","15.0","","7.8","","62","","32","","14","","25.0","","99.64","","","","","","Clear"
"1954-07-16 00:00","1954","07","16","00:00","13.9","","7.8","","67","","32","","3","","25.0","","99.69","","","","","","Mainly Clear"
"1954-07-16 01:00","1954","07","16","01:00","12.8","","8.3","","74","","25","","5","","25.0","","99.71","","","","","","Mainly Clear"
"1954-07-16 02:00","1954","07","16","02:00","11.7","","8.3","","80","","27","","6","","25.0","","99.73","","","","","","Mostly Cloudy"
"1954-07-16 03:00","1954","07","16","03:00","11.1","","8.3","","83","","27","","6","","25.0","","99.73","","","","","","Clear"
"1954-07-16 04:00","1954","07","16","04:00","11.1","","8.3","","83","","25","","3","","25.0","","99.81","","","","","","Mainly Clear"
"1954-07-16 05:00","1954","07","16","05:00","11.1","","8.9","","86","","25","","3","","25.0","","99.87","","","","","","Mainly Clear"
"1954-07-16 06:00","1954","07","16","06:00","13.9","","10.0","","77","","","","0","","25.0","","99.89","","","","","","Mainly Clear"
"1954-07-16 07:00","1954","07","16","07:00","17.2","","10.0","","63","","29","","6","","25.0","","99.92","","","","","","Mainly Clear"
"1954-07-16 08:00","1954","07","16","08:00","20.0","","10.0","","53","","34","","10","","25.0","","99.95","","","","","","Mainly Clear"
"1954-07-16 09:00","1954","07","16","09:00","21.1","","10.6","","51","","27","","11","","25.0","","99.95","","","","","","Mainly Clear"
"1954-07-16 10:00","1954","07","16","10:00","22.8","","10.0","","44","","29","","24","","25.0","","99.93","","","","","","Mostly Cloudy"
"1954-07-16 11:00","1954","07","16","11:00","23.3","","10.0","","43","","29","","29","","25.0","","99.93","","25","","","","Mostly Cloudy"
"1954-07-16 12:00","1954","07","16","12:00","24.4","","11.1","","45","","34","","23","","25.0","","99.91","","26","","","","Mostly Cloudy"
"1954-07-16 13:00","1954","07","16","13:00","25.6","","10.6","","40","","34","","26","","25.0","","99.90","","27","","","","Mostly Cloudy"
"1954-07-16 14:00","1954","07","16","14:00","25.6","","10.6","","39","","34","","26","","25.0","","99.86","","27","","","","Mostly Cloudy"
"1954-07-16 15:00","1954","07","16","15:00","26.1","","11.1","","39","","34","","23","","25.0","","99.85","","28","","","","Mostly Cloudy"
"1954-07-16 16:00","1954","07","16","16:00","25.0","","10.6","","40","","2","","24","","25.0","","99.85","","27","","","","Mainly Clear"
"1954-07-16 17:00","1954","07","16","17:00","23.9","","10.0","","42","","36","","29","","25.0","","99.87","","25","","","","Mainly Clear"
"1954-07-16 18:00","1954","07","16","18:00","23.3","","10.0","","43","","5","","24","","25.0","","99.88","","25","","","","Mainly Clear"
"1954-07-16 19:00","1954","07","16","19:00","22.2","","10.0","","46","","2","","19","","25.0","","99.92","","","","","","Mainly Clear"
"1954-07-16 20:00","1954","07","16","20:00","20.6","","11.1","","55","","36","","16","","25.0","","99.93","","","","","","Mainly Clear"
"1954-07-16 21:00","1954","07","16","21:00","18.9","","9.4","","54","","36","","13","","25.0","","99.99","","","","","","Mostly Cloudy"
"1954-07-16 22:00","1954","07","16","22:00","17.2","","9.4","","60","","34","","13","","25.0","","100.04","","","","","","Mainly Clear"
"1954-07-16 23:00","1954","07","16","23:00","15.0","","8.9","","67","","36","","10","","25.0","","100.06","","","","","","Clear"
"1954-07-17 00:00","1954","07","17","00:00","13.9","","8.9","","72","","34","","10","","25.0","","100.05","","","","","","Clear"
"1954-07-17 01:00","1954","07","17","01:00","13.3","","8.9","","74","","32","","10","","25.0","","100.06","","","","","","Clear"
"1954-07-17 02:00","1954","07","17","02:00","13.3","","8.9","","74","","34","","6","","25.0","","100.04","","","","","","Clear"
"1954-07-17 03:00","1954","07","17","03:00","11.7","","8.3","","80","","27","","10","","25.0","","100.05","","","","","","Clear"
"1954-07-17 04:00","1954","07","17","04:00","11.1","","8.3","","83","","25","","5","","25.0","","100.10","","","","","","Clear"
"1954-07-17 05:00","1954","07","17","05:00","11.7","","8.9","","83","","32","","5","","25.0","","100.11","","","","","","Clear"
"1954-07-17 06:00","1954","07","17","06:00","12.8","","10.0","","83","","34","","5","","25.0","","100.13","","","","","","Clear"
"1954-07-17 07:00","1954","07","17","07:00","16.7","","11.1","","70","","","","0","","25.0","","100.10","","","","","","Mainly Clear"
"1954-07-17 08:00","1954","07","17","08:00","20.6","","11.7","","57","","","","0","","25.0","","100.13","","","","","","Mainly Clear"
"1954-07-17 09:00","1954","07","17","09:00","22.8","","11.1","","48","","","","0","","25.0","","100.07","","25","","","","Mainly Clear"
"1954-07-17 10:00","1954","07","17","10:00","23.9","","11.1","","45","","23","","5","","25.0","","100.04","","26","","","","Mainly Clear"
"1954-07-17 11:00","1954","07","17","11:00","25.0","","10.6","","40","","14","","6","","25.0","","100.00","","27","","","","Mainly Clear"
"1954-07-17 12:00","1954","07","17","12:00","25.0","","10.0","","39","","14","","16","","25.0","","99.94","","26","","","","Mostly Cloudy"
"1954-07-17 13:00","1954","07","17","13:00","25.0","","10.6","","40","","16","","21","","25.0","","99.89","","27","","","","Mostly Cloudy"
"1954-07-17 14:00","1954","07","17","14:00","25.6","","10.6","","39","","16","","19","","25.0","","99.82","","27","","","","Mostly Cloudy"
"1954-07-17 15:00","1954","07","17","15:00","24.4","","9.4","","39","","16","","21","","25.0","","99.73","","25","","","","Mostly Cloudy"
"1954-07-17 16:00","1954","07","17","16:00","23.9","","11.1","","45","","16","","14","","24.1","","99.68","","26","","","","Mostly Cloudy"
"1954-07-17 17:00","1954","07","17","17:00","21.7","","10.0","","48","","14","","13","","24.1","","99.62","","","","","","Cloudy"
"1954-07-17 18:00","1954","07","17","18:00","21.1","","11.7","","55","","16","","16","","24.1","","99.62","","","","","","Mostly Cloudy"
"1954-07-17 19:00","1954","07","17","19:00","21.1","","13.9","","63","","16","","14","","24.1","","99.59","","","","","","Mostly Cloudy"
"1954-07-17 20:00","1954","07","17","20:00","20.0","","14.4","","70","","14","","10","","16.1","","99.52","","","","","","Mostly Cloudy"
"1954-07-17 21:00","1954","07","17","21:00","19.4","","14.4","","73","","9","","8","","16.1","","99.49","","","","","","Mainly Clear"
"1954-07-17 22:00","1954","07","17","22:00","18.3","","13.9","","75","","20","","2","","16.1","","99.48","","","","","","Mainly Clear"
"1954-07-17 23:00","1954","07","17","23:00","16.1","","13.3","","84","","36","","6","","12.9","","99.46","","","","","","Mostly Cloudy"
"1954-07-18 00:00","1954","07","18","00:00","15.6","","12.2","","81","","34","","2","","12.9","","99.42","","","","","","Mostly Cloudy"
"1954-07-18 01:00","1954","07","18","01:00","15.6","","12.2","","81","","34","","3","","12.9","","99.38","","","","","","Mainly Clear"
"1954-07-18 02:00","1954","07","18","02:00","13.9","","12.2","","90","","32","","3","","12.9","","99.31","","","","","","Mostly Cloudy"
"1954-07-18 03:00","1954","07","18","03:00","13.9","","11.7","","87","","","","0","","12.9","","99.24","","","","","","Mostly Cloudy"
"1954-07-18 04:00","1954","07","18","04:00","13.3","","11.1","","86","","32","","3","","12.9","","99.21","","","","","","Mostly Cloudy"
"1954-07-18 05:00","1954","07","18","05:00","14.4","","12.2","","87","","","","0","","12.9","","99.16","","","","","","Mostly Cloudy"
"1954-07-18 06:00","1954","07","18","06:00","15.0","","13.3","","90","","32","","2","","8.0","","99.17","","","","","","Haze"
"1954-07-18 07:00","1954","07","18","07:00","16.7","","14.4","","87","","20","","6","","12.9","","99.16","","","","","","Mostly Cloudy"
"1954-07-18 08:00","1954","07","18","08:00","21.1","","14.4","","66","","20","","11","","16.1","","99.11","","25","","","","Mostly Cloudy"
"1954-07-18 09:00","1954","07","18","09:00","24.4","","15.0","","56","","20","","16","","16.1","","99.07","","28","","","","Mostly Cloudy"
"1954-07-18 10:00","1954","07","18","10:00","27.8","","13.9","","43","","23","","29","","25.0","","98.99","","31","","","","Mainly Clear"
"1954-07-18 11:00","1954","07","18","11:00","27.8","","13.9","","43","","25","","32","","25.0","","98.93","","31","","","","Mainly Clear"
"1954-07-18 12:00","1954","07","18","12:00","28.9","","12.8","","37","","25","","35","","25.0","","98.87","","32","","","","Mainly Clear"
"1954-07-18 13:00","1954","07","18","13:00","29.4","","12.8","","36","","25","","29","","25.0","","98.83","","32","","","","Mostly Cloudy"
"1954-07-18 14:00","1954","07","18","14:00","30.0","","14.4","","39","","25","","35","","25.0","","98.75","","34","","","","Mostly Cloudy"
"1954-07-18 15:00","1954","07","18","15:00","29.4","","14.4","","40","","25","","32","","25.0","","98.71","","33","","","","Mostly Cloudy"
"1954-07-18 16:00","1954","07","18","16:00","28.3","","15.0","","44","","23","","32","","25.0","","98.68","","32","","","","Mostly Cloudy"
"1954-07-18 17:00","1954","07","18","17:00","27.2","","15.0","","47","","23","","29","","25.0","","98.66","","31","","","","Mostly Cloudy"
"1954-07-18 18:00","1954","07","18","18:00","27.2","","15.0","","47","","25","","24","","25.0","","98.64","","31","","","","Mainly Clear"
"1954-07-18 19:00","1954","07","18","19:00","26.7","","15.0","","49","","25","","23","","25.0","","98.66","","31","","","","Mainly Clear"
"1954-07-18 20:00","1954","07","18","20:00","24.4","","15.0","","56","","23","","13","","25.0","","98.68","","28","","","","Mainly Clear"
"1954-07-18 21:00","1954","07","18","21:00","23.3","","15.0","","60","","23","","6","","25.0","","98.69","","27","","","","Mainly Clear"
"1954-07-18 22:00","1954","07","18","22:00","21.7","","15.0","","66","","23","","6","","25.0","","98.65","","26","","","","Clear"
"1954-07-18 23:00","1954","07","18","23:00","21.1","","15.6","","71","","36","","19","","25.0","","98.70","","25","","","","Clear"
"1954-07-19 00:00","1954","07","19","00:00","19.4","","15.6","","78","","29","","13","","25.0","","98.69","","","","","","Clear"
"1954-07-19 01:00","1954","07","19","01:00","20.0","","15.0","","73","","34","","18","","25.0","","98.69","","","","","","Clear"
"1954-07-19 02:00","1954","07","19","02:00","18.9","","14.4","","76","","34","","16","","25.0","","98.63","","","","","","Clear"
"1954-07-19 03:00","1954","07","19","03:00","17.2","","13.9","","81","","34","","18","","25.0","","98.67","","","","","","Clear"
"1954-07-19 04:00","1954","07","19","04:00","16.7","","13.9","","84","","32","","13","","25.0","","98.69","","","","","","Clear"
"1954-07-19 05:00","1954","07","19","05:00","16.7","","14.4","","87","","36","","14","","25.0","","98.75","","","","","","Mainly Clear"
"1954-07-19 06:00","1954","07","19","06:00","17.8","","15.0","","84","","36","","23","","25.0","","98.80","","","","","","Mainly Clear"
"1954-07-19 07:00","1954","07","19","07:00","18.9","","15.6","","81","","36","","24","","25.0","","98.84","","","","","","Mainly Clear"
"1954-07-19 08:00","1954","07","19","08:00","20.6","","15.6","","73","","34","","26","","25.0","","98.94","","25","","","","Mainly Clear"
"1954-07-19 09:00","1954","07","19","09:00","21.7","","15.0","","66","","34","","24","","25.0","","98.99","","26","","","","Mainly Clear"
"1954-07-19 10:00","1954","07","19","10:00","22.8","","13.3","","55","","34","","26","","25.0","","98.97","","26","","","","Mainly Clear"
"1954-07-19 11:00","1954","07","19","11:00","24.4","","11.7","","45","","34","","26","","25.0","","99.00","","27","","","","Mainly Clear"
"1954-07-19 12:00","1954","07","19","12:00","25.0","","10.6","","40","","34","","26","","25.0","","98.98","","27","","","","Mainly Clear"
"1954-07-19 13:00","1954","07","19","13:00","25.6","","10.6","","38","","34","","26","","25.0","","98.99","","27","","","","Mainly Clear"
"1954-07-19 14:00","1954","07","19","14:00","26.1","","10.0","","36","","34","","26","","25.0","","98.98","","27","","","","Mainly Clear"
"1954-07-19 15:00","1954","07","19","15:00","26.1","","10.6","","38","","36","","24","","25.0","","98.95","","28","","","","Mainly Clear"
"1954-07-19 16:00","1954","07","19","16:00","26.1","","11.7","","41","","36","","21","","25.0","","98.95","","28","","","","Mainly Clear"
"1954-07-19 17:00","1954","07","19","17:00","26.1","","10.0","","36","","36","","24","","25.0","","98.95","","27","","","","Mainly Clear"
"1954-07-19 18:00","1954","07","19","18:00","24.4","","9.4","","40","","2","","24","","25.0","","98.97","","25","","","","Mainly Clear"
"1954-07-19 19:00","1954","07","19","19:00","23.3","","9.4","","41","","2","","24","","25.0","","99.00","","","","","","Mainly Clear"
"1954-07-19 20:00","1954","07","19","20:00","20.6","","8.9","","47","","2","","16","","25.0","","99.06","","","","","","Mainly Clear"
"1954-07-19 21:00","1954","07","19","21:00","19.4","","9.4","","52","","34","","10","","25.0","","99.07","","","","","","Mainly Clear"
"1954-07-19 22:00","1954","07","19","22:00","17.8","","10.6","","63","","34","","8","","25.0","","99.08","","","","","","Mainly Clear"
"1954-07-19 23:00","1954","07","19","23:00","17.2","","10.6","","65","","32","","6","","25.0","","99.06","","","","","","Mainly Clear"
"1954-07-20 00:00","1954","07","20","00:00","16.1","","11.7","","75","","27","","8","","25.0","","99.02","","","","","","Mainly Clear"
"1954-07-20 01:00","1954","07","20","01:00","16.7","","13.9","","84","","29","","13","","19.3","","99.06","","","","","","Rain Showers"
"1954-07-20 02:00","1954","07","20","02:00","16.7","","13.9","","84","","32","","10","","19.3","","99.08","","","","","","Rain Showers"
"1954-07-20 03:00","1954","07","20","03:00","16.7","","14.4","","87","","25","","3","","19.3","","99.04","","","","","","Mostly Cloudy"
"1954-07-20 04:00","1954","07","20","04:00","16.7","","14.4","","87","","25","","6","","24.1","","99.08","","","","","","Mostly Cloudy"
"1954-07-20 05:00","1954","07","20","05:00","16.7","","13.9","","84","","20","","10","","16.1","","99.01","","","","","","Thunderstorms,Rain Showers"
"1954-07-20 06:00","1954","07","20","06:00","16.7","","14.4","","87","","20","","10","","16.1","","99.00","","","","","","Rain Showers"
"1954-07-20 07:00","1954","07","20","07:00","17.8","","14.4","","81","","18","","5","","19.3","","98.93","","","","","","Mostly Cloudy"
"1954-07-20 08:00","1954","07","20","08:00","20.0","","13.3","","66","","18","","13","","12.9","","98.89","","","","","","Mostly Cloudy"
"1954-07-20 09:00","1954","07","20","09:00","21.1","","13.3","","61","","16","","10","","12.9","","98.85","","","","","","Mostly Cloudy"
"1954-07-20 10:00","1954","07","20","10:00","23.3","","15.0","","60","","16","","16","","12.9","","98.73","","27","","","","Mostly Cloudy"
"1954-07-20 11:00","1954","07","20","11:00","23.9","","16.1","","62","","16","","18","","12.9","","98.68","","29","","","","Mainly Clear"
"1954-07-20 12:00","1954","07","20","12:00","26.7","","17.2","","56","","18","","21","","12.9","","98.60","","32","","","","Mainly Clear"
"1954-07-20 13:00","1954","07","20","13:00","27.8","","17.8","","55","","18","","23","","16.1","","98.58","","34","","","","Mostly Cloudy"
"1954-07-20 14:00","1954","07","20","14:00","28.3","","18.9","","57","","25","","43","","19.3","","98.48","","35","","","","Mainly Clear"
"1954-07-20 15:00","1954","07","20","15:00","28.3","","17.8","","53","","25","","32","","24.1","","98.46","","34","","","","Mostly Cloudy"
"1954-07-20 16:00","1954","07","20","16:00","28.3","","18.9","","57","","27","","24","","24.1","","98.41","","35","","","","Mostly Cloudy"
"1954-07-20 17:00","1954","07","20","17:00","25.6","","18.9","","67","","9","","14","","19.3","","98.37","","32","","","","Mainly Clear"
"1954-07-20 18:00","1954","07","20","18:00","22.8","","21.7","","94","","5","","8","","16.1","","98.40","","32","","","","Thunderstorms,Rain Showers"
"1954-07-20 19:00","1954","07","20","19:00","23.3","","21.1","","88","","36","","5","","16.1","","98.38","","32","","","","Mainly Clear"
"1954-07-20 20:00","1954","07","20","20:00","22.2","","18.9","","82","","36","","3","","16.1","","98.50","","29","","","","Mainly Clear"
"1954-07-20 21:00","1954","07","20","21:00","21.1","","17.8","","81","","36","","16","","19.3","","98.52","","27","","","","Mainly Clear"
"1954-07-20 22:00","1954","07","20","22:00","20.0","","16.7","","81","","32","","10","","19.3","","98.58","","25","","","","Clear"
"1954-07-20 23:00","1954","07","20","23:00","18.9","","17.2","","90","","34","","18","","19.3","","98.56","","","","","","Clear"
"1954-07-21 00:00","1954","07","21","00:00","18.3","","17.2","","93","","36","","23","","19.3","","98.53","","","","","","Mainly Clear"
"1954-07-21 01:00","1954","07","21","01:00","18.3","","16.7","","90","","34","","24","","19.3","","98.55","","","","","","Clear"
"1954-07-21 02:00","1954","07","21","02:00","18.9","","16.7","","87","","36","","21","","16.1","","98.61","","","","","","Cloudy"
"1954-07-21 03:00","1954","07","21","03:00","18.9","","17.2","","90","","36","","18","","19.3","","98.66","","","","","","Cloudy"
"1954-07-21 04:00","1954","07","21","04:00","18.9","","17.2","","90","","36","","14","","19.3","","98.76","","","","","","Cloudy"
"1954-07-21 05:00","1954","07","21","05:00","18.3","","16.7","","90","","5","","24","","19.3","","98.79","","","","","","Drizzle"
"1954-07-21 06:00","1954","07","21","06:00","18.3","","16.1","","87","","2","","13","","19.3","","98.87","","","","","","Mostly Cloudy"
"1954-07-21 07:00","1954","07","21","07:00","18.9","","15.6","","81","","2","","16","","24.1","","98.94","","","","","","Mostly Cloudy"
"1954-07-21 08:00","1954","07","21","08:00","20.0","","15.6","","76","","5","","16","","25.0","","98.97","","","","","","Mostly Cloudy"
"1954-07-21 09:00","1954","07","21","09:00","21.1","","15.6","","71","","36","","18","","25.0","","99.01","","25","","","","Mostly Cloudy"
"1954-07-21 10:00","1954","07","21","10:00","21.7","","14.4","","64","","36","","19","","25.0","","99.02","","25","","","","Mostly Cloudy"
"1954-07-21 11:00","1954","07","21","11:00","22.8","","14.4","","59","","36","","23","","25.0","","99.02","","26","","","","Mainly Clear"
"1954-07-21 12:00","1954","07","21","12:00","23.9","","14.4","","56","","2","","23","","25.0","","99.00","","28","","","","Mainly Clear"
"1954-07-21 13:00","1954","07","21","13:00","25.0","","14.4","","52","","36","","21","","25.0","","98.99","","29","","","","Mainly Clear"
"1954-07-21 14:00","1954","07","21","14:00","25.6","","13.3","","47","","2","","23","","25.0","","98.98","","29","","","","Mainly Clear"
"1954-07-21 15:00","1954","07","21","15:00","26.7","","13.9","","46","","2","","24","","25.0","","98.96","","30","","","","Mainly Clear"
"1954-07-21 16:00","1954","07","21","16:00","26.1","","13.9","","47","","2","","19","","25.0","","98.98","","29","","","","Mainly Clear"
"1954-07-21 17:00","1954","07","21","17:00","25.6","","16.7","","58","","34","","24","","25.0","","98.97","","31","","","","Mainly Clear"
"1954-07-21 18:00","1954","07","21","18:00","23.9","","14.4","","56","","36","","24","","25.0","","98.98","","28","","","","Mainly Clear"
"1954-07-21 19:00","1954","07","21","19:00","22.2","","14.4","","61","","34","","26","","25.0","","99.01","","26","","","","Mainly Clear"
"1954-07-21 20:00","1954","07","21","20:00","20.0","","12.8","","63","","34","","24","","25.0","","99.09","","","","","","Clear"
"1954-07-21 21:00","1954","07","21","21:00","18.9","","11.7","","63","","34","","24","","25.0","","99.14","","","","","","Clear"
"1954-07-21 22:00","1954","07","21","22:00","17.8","","11.7","","68","","36","","21","","25.0","","99.16","","","","","","Clear"
"1954-07-21 23:00","1954","07","21","23:00","16.7","","12.2","","75","","36","","19","","25.0","","99.20","","","","","","Clear"
"1954-07-22 00:00","1954","07","22","00:00","15.6","","11.1","","75","","36","","23","","25.0","","99.20","","","","","","Clear"
"1954-07-22 01:00","1954","07","22","01:00","15.0","","10.6","","75","","36","","19","","24.1","","99.18","","","","","","Clear"
"1954-07-22 02:00","1954","07","22","02:00","13.9","","10.0","","77","","36","","16","","24.1","","99.17","","","","","","Clear"
"1954-07-22 03:00","1954","07","22","03:00","13.3","","10.6","","83","","36","","13","","25.0","","99.17","","","","","","Clear"
"1954-07-22 04:00","1954","07","22","04:00","11.1","","8.9","","86","","29","","8","","25.0","","99.19","","","","","","Clear"
"1954-07-22 05:00","1954","07","22","05:00","11.7","","8.9","","83","","34","","13","","24.1","","99.23","","","","","","Clear"
"1954-07-22 06:00","1954","07","22","06:00","13.9","","10.0","","77","","32","","10","","25.0","","99.27","","","","","","Clear"
"1954-07-22 07:00","1954","07","22","07:00","15.6","","10.0","","70","","36","","16","","25.0","","99.28","","","","","","Mainly Clear"
"1954-07-22 08:00","1954","07","22","08:00","17.2","","10.6","","65","","2","","24","","25.0","","99.29","","","","","","Mainly Clear"
"1954-07-22 09:00","1954","07","22","09:00","18.9","","11.7","","63","","36","","26","","25.0","","99.29","","","","","","Mainly Clear"
"1954-07-22 10:00","1954","07","22","10:00","20.6","","9.4","","49","","2","","34","","25.0","","99.25","","","","","","Mainly Clear"
"1954-07-22 11:00","1954","07","22","11:00","21.7","","8.9","","44","","2","","34","","25.0","","99.22","","","","","","Mainly Clear"
"1954-07-22 12:00","1954","07","22","12:00","22.8","","8.3","","40","","2","","29","","25.0","","99.20","","","","","","Mainly Clear"
"1954-07-22 13:00","1954","07","22","13:00","23.3","","8.9","","40","","2","","29","","25.0","","99.18","","","","","","Mostly Cloudy"
"1954-07-22 14:00","1954","07","22","14:00","23.3","","9.4","","41","","36","","24","","25.0","","99.16","","","","","","Mostly Cloudy"
"1954-07-22 15:00","1954","07","22","15:00","23.3","","10.6","","45","","2","","26","","25.0","","99.15","","25","","","","Mostly Cloudy"
"1954-07-22 16:00","1954","07","22","16:00","23.9","","10.6","","43","","34","","19","","25.0","","99.10","","25","","","","Mostly Cloudy"
"1954-07-22 17:00","1954","07","22","17:00","23.3","","10.0","","43","","36","","19","","25.0","","99.13","","25","","","","Mainly Clear"
"1954-07-22 18:00","1954","07","22","18:00","22.2","","9.4","","44","","36","","24","","25.0","","99.13","","","","","","Mainly Clear"
"1954-07-22 19:00","1954","07","22","19:00","21.1","","8.9","","46","","34","","24","","25.0","","99.14","","","","","","Mainly Clear"
"1954-07-22 20:00","1954","07","22","20:00","18.3","","8.9","","54","","34","","16","","25.0","","99.19","","","","","","Clear"
"1954-07-22 21:00","1954","07","22","21:00","16.7","","8.3","","58","","34","","13","","25.0","","99.23","","","","","","Clear"
"1954-07-22 22:00","1954","07","22","22:00","15.6","","8.3","","62","","34","","13","","25.0","","99.24","","","","","","Clear"
"1954-07-22 23:00","1954","07","22","23:00","14.4","","8.3","","67","","34","","11","","25.0","","99.23","","","","","","Clear"
"1954-07-23 00:00","1954","07","23","00:00","13.9","","8.3","","69","","34","","11","","25.0","","99.20","","","","","","Clear"
"1954-07-23 01:00","1954","07","23","01:00","14.4","","8.3","","67","","34","","13","","25.0","","99.19","","","","","","Clear"
"1954-07-23 02:00","1954","07","23","02:00","14.4","","8.3","","67","","34","","11","","25.0","","99.15","","","","","","Clear"
"1954-07-23 03:00","1954","07","23","03:00","14.4","","8.3","","67","","34","","14","","25.0","","99.13","","","","","","Mainly Clear"
"1954-07-23 04:00","1954","07","23","04:00","13.9","","9.4","","75","","29","","14","","25.0","","99.13","","","","","","Mainly Clear"
"1954-07-23 05:00","1954","07","23","05:00","12.8","","8.9","","77","","32","","10","","25.0","","99.14","","","","","","Clear"
"1954-07-23 06:00","1954","07","23","06:00","15.0","","10.0","","72","","34","","11","","25.0","","99.13","","","","","","Mainly Clear"
"1954-07-23 07:00","1954","07","23","07:00","17.8","","11.7","","68","","34","","14","","25.0","","99.18","","","","","","Mainly Clear"
"1954-07-23 08:00","1954","07","23","08:00","20.6","","12.8","","61","","34","","21","","25.0","","99.22","","","","","","Mainly Clear"
"1954-07-23 09:00","1954","07","23","09:00","22.8","","11.7","","50","","36","","23","","25.0","","99.19","","25","","","","Mostly Cloudy"
"1954-07-23 10:00","1954","07","23","10:00","23.9","","11.1","","45","","36","","24","","25.0","","99.21","","26","","","","Mostly Cloudy"
"1954-07-23 11:00","1954","07","23","11:00","25.0","","10.6","","40","","32","","21","","25.0","","99.21","","27","","","","Mostly Cloudy"
"1954-07-23 12:00","1954","07","23","12:00","25.6","","10.0","","38","","34","","24","","25.0","","99.17","","27","","","","Mostly Cloudy"
"1954-07-23 13:00","1954","07","23","13:00","26.1","","10.6","","38","","36","","24","","25.0","","99.14","","28","","","","Mostly Cloudy"
"1954-07-23 14:00","1954","07","23","14:00","26.1","","10.6","","38","","34","","24","","25.0","","99.13","","28","","","","Mainly Clear"
"1954-07-23 15:00","1954","07","23","15:00","26.1","","9.4","","35","","34","","24","","25.0","","99.08","","27","","","","Mainly Clear"
"1954-07-23 16:00","1954","07","23","16:00","26.1","","9.4","","35","","34","","23","","25.0","","99.06","","27","","","","Mainly Clear"
"1954-07-23 17:00","1954","07","23","17:00","26.1","","8.9","","34","","34","","24","","25.0","","99.06","","27","","","","Mainly Clear"
"1954-07-23 18:00","1954","07","23","18:00","24.4","","8.9","","36","","34","","26","","25.0","","99.09","","25","","","","Mainly Clear"
"1954-07-23 19:00","1954","07","23","19:00","23.3","","9.4","","41","","2","","19","","25.0","","99.11","","","","","","Mainly Clear"
"1954-07-23 20:00","1954","07","23","20:00","20.6","","9.4","","49","","34","","13","","25.0","","99.16","","","","","","Mainly Clear"
"1954-07-23 21:00","1954","07","23","21:00","18.9","","10.6","","58","","32","","11","","25.0","","99.15","","","","","","Mainly Clear"
"1954-07-23 22:00","1954","07","23","22:00","17.8","","10.6","","63","","32","","11","","25.0","","99.15","","","","","","Clear"
"1954-07-23 23:00","1954","07","23","23:00","16.1","","11.1","","72","","32","","14","","25.0","","99.20","","","","","","Clear"
"1954-07-24 00:00","1954","07","24","00:00","16.1","","10.0","","67","","32","","14","","25.0","","99.20","","","","","","Clear"
"1954-07-24 01:00","1954","07","24","01:00","16.1","","9.4","","65","","32","","13","","25.0","","99.22","","","","","","Mainly Clear"
"1954-07-24 02:00","1954","07","24","02:00","15.6","","9.4","","67","","32","","10","","25.0","","99.22","","","","","","Mainly Clear"
"1954-07-24 03:00","1954","07","24","03:00","15.0","","10.0","","72","","29","","8","","25.0","","99.22","","","","","","Clear"
"1954-07-24 04:00","1954","07","24","04:00","15.0","","10.0","","72","","32","","8","","25.0","","99.22","","","","","","Mainly Clear"
"1954-07-24 05:00","1954","07","24","05:00","16.1","","9.4","","65","","32","","10","","25.0","","99.25","","","","","","Mostly Cloudy"
"1954-07-24 06:00","1954","07","24","06:00","16.1","","10.0","","67","","32","","10","","25.0","","99.30","","","","","","Mostly Cloudy"
"1954-07-24 07:00","1954","07","24","07:00","18.3","","10.6","","61","","32","","16","","25.0","","99.33","","","","","","Clear"
"1954-07-24 08:00","1954","07","24","08:00","22.2","","11.7","","51","","32","","16","","25.0","","99.36","","","","","","Mainly Clear"
"1954-07-24 09:00","1954","07","24","09:00","24.4","","11.7","","45","","34","","19","","25.0","","99.37","","27","","","","Clear"
"1954-07-24 10:00","1954","07","24","10:00","26.1","","11.7","","41","","36","","24","","25.0","","99.37","","28","","","","Mainly Clear"
"1954-07-24 11:00","1954","07","24","11:00","26.7","","10.0","","35","","34","","26","","25.0","","99.38","","28","","","","Mainly Clear"
"1954-07-24 12:00","1954","07","24","12:00","27.2","","10.6","","35","","34","","34","","25.0","","99.36","","29","","","","Mainly Clear"
"1954-07-24 13:00","1954","07","24","13:00","27.8","","11.1","","36","","36","","27","","25.0","","99.33","","30","","","","Mainly Clear"
"1954-07-24 14:00","1954","07","24","14:00","28.9","","10.6","","32","","34","","23","","25.0","","99.32","","30","","","","Mainly Clear"
"1954-07-24 15:00","1954","07","24","15:00","28.3","","10.0","","32","","34","","23","","25.0","","99.30","","30","","","","Mainly Clear"
"1954-07-24 16:00","1954","07","24","16:00","27.8","","11.7","","37","","2","","26","","25.0","","99.32","","30","","","","Mainly Clear"
"1954-07-24 17:00","1954","07","24","17:00","27.2","","12.2","","40","","5","","23","","25.0","","99.34","","30","","","","Mainly Clear"
"1954-07-24 18:00","1954","07","24","18:00","26.7","","12.2","","41","","2","","19","","24.1","","99.38","","29","","","","Mainly Clear"
"1954-07-24 19:00","1954","07","24","19:00","25.0","","12.8","","47","","2","","13","","25.0","","99.42","","28","","","","Mainly Clear"
"1954-07-24 20:00","1954","07","24","20:00","22.8","","11.1","","48","","2","","16","","25.0","","99.48","","25","","","","Mainly Clear"
"1954-07-24 21:00","1954","07","24","21:00","21.1","","11.7","","55","","36","","13","","25.0","","99.52","","","","","","Mainly Clear"
"1954-07-24 22:00","1954","07","24","22:00","20.0","","12.2","","61","","32","","13","","25.0","","99.51","","","","","","Clear"
"1954-07-24 23:00","1954","07","24","23:00","19.4","","11.7","","61","","34","","10","","25.0","","99.52","","","","","","Mainly Clear"
"1954-07-25 00:00","1954","07","25","00:00","18.3","","12.2","","68","","34","","10","","25.0","","99.53","","","","","","Mainly Clear"
"1954-07-25 01:00","1954","07","25","01:00","17.8","","11.7","","68","","32","","11","","25.0","","99.56","","","","","","Mainly Clear"
"1954-07-25 02:00","1954","07","25","02:00","17.8","","11.7","","68","","32","","6","","25.0","","99.57","","","","","","Mainly Clear"
"1954-07-25 03:00","1954","07","25","03:00","17.2","","11.1","","67","","32","","10","","25.0","","99.58","","","","","","Mostly Cloudy"
"1954-07-25 04:00","1954","07","25","04:00","17.2","","11.1","","67","","32","","8","","25.0","","99.59","","","","","","Mostly Cloudy"
"1954-07-25 05:00","1954","07","25","05:00","17.8","","11.7","","68","","34","","5","","25.0","","99.61","","","","","","Mostly Cloudy"
"1954-07-25 06:00","1954","07","25","06:00","18.9","","12.8","","68","","32","","5","","25.0","","99.61","","","","","","Mostly Cloudy"
"1954-07-25 07:00","1954","07","25","07:00","20.0","","12.8","","63","","36","","8","","25.0","","99.68","","","","","","Mostly Cloudy"
"1954-07-25 08:00","1954","07","25","08:00","22.2","","11.7","","51","","36","","19","","25.0","","99.68","","","","","","Rain Showers"
"1954-07-25 09:00","1954","07","25","09:00","22.8","","12.8","","53","","34","","21","","25.0","","99.70","","25","","","","Mostly Cloudy"
"1954-07-25 10:00","1954","07","25","10:00","21.7","","13.9","","61","","32","","14","","24.1","","99.74","","25","","","","Thunderstorms"
"1954-07-25 11:00","1954","07","25","11:00","24.4","","12.2","","47","","34","","13","","25.0","","99.72","","27","","","","Mostly Cloudy"
"1954-07-25 12:00","1954","07","25","12:00","26.7","","12.2","","41","","32","","18","","25.0","","99.69","","29","","","","Mainly Clear"
"1954-07-25 13:00","1954","07","25","13:00","27.2","","13.9","","44","","36","","19","","25.0","","99.63","","31","","","","Mainly Clear"
"1954-07-25 14:00","1954","07","25","14:00","27.8","","13.3","","41","","36","","13","","25.0","","99.60","","31","","","","Mainly Clear"
"1954-07-25 15:00","1954","07","25","15:00","28.3","","12.8","","38","","36","","23","","25.0","","99.58","","31","","","","Mainly Clear"
"1954-07-25 16:00","1954","07","25","16:00","29.4","","11.7","","34","","36","","21","","25.0","","99.58","","32","","","","Mainly Clear"
"1954-07-25 17:00","1954","07","25","17:00","27.2","","11.7","","38","","2","","23","","25.0","","99.57","","29","","","","Mostly Cloudy"
"1954-07-25 18:00","1954","07","25","18:00","26.1","","13.9","","47","","9","","14","","25.0","","99.61","","29","","","","Mainly Clear"
"1954-07-25 19:00","1954","07","25","19:00","24.4","","15.0","","56","","","","0","","25.0","","99.66","","28","","","","Mainly Clear"
"1954-07-25 20:00","1954","07","25","20:00","22.8","","15.0","","62","","23","","5","","25.0","","99.72","","27","","","","Mainly Clear"
"1954-07-25 21:00","1954","07","25","21:00","20.6","","15.0","","71","","27","","5","","25.0","","99.75","","25","","","","Mainly Clear"
"1954-07-25 22:00","1954","07","25","22:00","18.9","","13.9","","73","","27","","8","","25.0","","99.73","","","","","","Clear"
"1954-07-25 23:00","1954","07","25","23:00","18.3","","14.4","","78","","27","","5","","25.0","","99.73","","","","","","Clear"
"1954-07-26 00:00","1954","07","26","00:00","18.3","","13.9","","75","","32","","3","","25.0","","99.73","","","","","","Clear"
"1954-07-26 01:00","1954","07","26","01:00","17.2","","13.3","","78","","27","","3","","25.0","","99.72","","","","","","Clear"
"1954-07-26 02:00","1954","07","26","02:00","17.8","","12.2","","70","","27","","5","","25.0","","99.72","","","","","","Clear"
"1954-07-26 03:00","1954","07","26","03:00","16.1","","11.7","","75","","25","","13","","25.0","","99.72","","","","","","Clear"
"1954-07-26 04:00","1954","07","26","04:00","16.1","","11.7","","75","","25","","6","","25.0","","99.73","","","","","","Mainly Clear"
"1954-07-26 05:00","1954","07","26","05:00","15.6","","11.1","","75","","32","","8","","25.0","","99.74","","","","","","Mainly Clear"
"1954-07-26 06:00","1954","07","26","06:00","17.8","","12.2","","70","","32","","11","","25.0","","99.76","","","","","","Mainly Clear"
"1954-07-26 07:00","1954","07","26","07:00","19.4","","13.3","","68","","32","","8","","25.0","","99.78","","","","","","Mainly Clear"
"1954-07-26 08:00","1954","07","26","08:00","25.0","","13.3","","48","","32","","14","","25.0","","99.80","","28","","","","Mainly Clear"
"1954-07-26 09:00","1954","07","26","09:00","27.8","","12.8","","40","","32","","13","","25.0","","99.78","","30","","","","Mainly Clear"
"1954-07-26 10:00","1954","07","26","10:00","30.0","","12.8","","35","","29","","5","","25.0","","99.77","","33","","","","Mainly Clear"
"1954-07-26 11:00","1954","07","26","11:00","29.4","","12.8","","36","","34","","18","","25.0","","99.77","","32","","","","Mainly Clear"
"1954-07-26 12:00","1954","07","26","12:00","30.0","","10.6","","30","","34","","18","","25.0","","99.75","","32","","","","Mainly Clear"
"1954-07-26 13:00","1954","07","26","13:00","30.6","","11.1","","30","","34","","14","","25.0","","99.72","","32","","","","Mostly Cloudy"
"1954-07-26 14:00","1954","07","26","14:00","31.1","","11.7","","30","","29","","6","","25.0","","99.68","","33","","","","Mostly Cloudy"
"1954-07-26 15:00","1954","07","26","15:00","31.7","","11.7","","30","","34","","14","","25.0","","99.64","","34","","","","Mostly Cloudy"
"1954-07-26 16:00","1954","07","26","16:00","31.1","","13.3","","34","","34","","16","","25.0","","99.58","","34","","","","Mostly Cloudy"
"1954-07-26 17:00","1954","07","26","17:00","31.7","","12.8","","32","","32","","19","","25.0","","99.58","","34","","","","Mainly Clear"
"1954-07-26 18:00","1954","07","26","18:00","30.6","","12.8","","34","","32","","23","","25.0","","99.63","","33","","","","Mainly Clear"
"1954-07-26 19:00","1954","07","26","19:00","28.9","","12.8","","37","","32","","16","","25.0","","99.65","","32","","","","Mainly Clear"
"1954-07-26 20:00","1954","07","26","20:00","25.0","","12.2","","45","","32","","13","","25.0","","99.67","","27","","","","Mainly Clear"
"1954-07-26 21:00","1954","07","26","21:00","22.8","","12.2","","51","","29","","11","","25.0","","99.68","","25","","","","Clear"
"1954-07-26 22:00","1954","07","26","22:00","22.2","","11.7","","51","","29","","14","","25.0","","99.68","","","","","","Clear"
"1954-07-26 23:00","1954","07","26","23:00","19.4","","11.1","","59","","27","","16","","25.0","","99.70","","","","","","Clear"
"1954-07-27 00:00","1954","07","27","00:00","18.3","","13.9","","75","","27","","10","","25.0","","99.70","","","","","","Clear"
"1954-07-27 01:00","1954","07","27","01:00","18.3","","11.7","","65","","","","0","","25.0","","99.63","","","","","","Clear"
"1954-07-27 02:00","1954","07","27","02:00","18.3","","11.7","","65","","27","","10","","25.0","","99.62","","","","","","Clear"
"1954-07-27 03:00","1954","07","27","03:00","18.3","","11.7","","65","","27","","13","","25.0","","99.62","","","","","","Clear"
"1954-07-27 04:00","1954","07","27","04:00","18.3","","11.7","","65","","27","","3","","25.0","","99.61","","","","","","Clear"
"1954-07-27 05:00","1954","07","27","05:00","16.1","","11.1","","72","","5","","5","","25.0","","99.63","","","","","","Mainly Clear"
"1954-07-27 06:00","1954","07","27","06:00","17.2","","11.1","","67","","","","0","","25.0","","99.67","","","","","","Mainly Clear"
"1954-07-27 07:00","1954","07","27","07:00","20.6","","13.9","","66","","","","0","","25.0","","99.69","","","","","","Mainly Clear"
"1954-07-27 08:00","1954","07","27","08:00","26.1","","13.9","","47","","","","0","","25.0","","99.68","","29","","","","Mostly Cloudy"
"1954-07-27 09:00","1954","07","27","09:00","27.8","","14.4","","44","","27","","6","","25.0","","99.68","","31","","","","Mostly Cloudy"
"1954-07-27 10:00","1954","07","27","10:00","29.4","","16.7","","46","","14","","8","","24.1","","99.68","","34","","","","Mostly Cloudy"
"1954-07-27 11:00","1954","07","27","11:00","28.3","","15.0","","44","","2","","29","","19.3","","99.69","","32","","","","Rain Showers"
"1954-07-27 12:00","1954","07","27","12:00","27.8","","15.6","","48","","2","","19","","25.0","","99.68","","32","","","","Mostly Cloudy"
"1954-07-27 13:00","1954","07","27","13:00","27.2","","16.7","","53","","36","","10","","25.0","","99.64","","32","","","","Cloudy"
"1954-07-27 14:00","1954","07","27","14:00","27.8","","17.2","","53","","2","","11","","25.0","","99.62","","33","","","","Mostly Cloudy"
"1954-07-27 15:00","1954","07","27","15:00","28.9","","17.2","","50","","","","0","","25.0","","99.57","","34","","","","Mostly Cloudy"
"1954-07-27 16:00","1954","07","27","16:00","27.8","","16.7","","51","","16","","16","","25.0","","99.55","","33","","","","Rain Showers"
"1954-07-27 17:00","1954","07","27","17:00","24.4","","17.2","","64","","16","","16","","24.1","","99.57","","30","","","","Cloudy"
"1954-07-27 18:00","1954","07","27","18:00","25.0","","16.7","","60","","","","0","","16.1","","99.57","","30","","","","Cloudy"
"1954-07-27 19:00","1954","07","27","19:00","24.4","","17.2","","64","","","","0","","16.1","","99.51","","30","","","","Mostly Cloudy"
"1954-07-27 20:00","1954","07","27","20:00","23.3","","17.8","","71","","2","","6","","19.3","","99.53","","29","","","","Cloudy"
"1954-07-27 21:00","1954","07","27","21:00","21.7","","17.8","","79","","36","","5","","19.3","","99.55","","28","","","","Cloudy"
"1954-07-27 22:00","1954","07","27","22:00","21.1","","17.8","","81","","5","","3","","19.3","","99.53","","27","","","","Mostly Cloudy"
"1954-07-27 23:00","1954","07","27","23:00","21.1","","17.8","","81","","","","0","","16.1","","99.54","","27","","","","Mostly Cloudy"
"1954-07-28 00:00","1954","07","28","00:00","21.1","","17.8","","81","","14","","10","","16.1","","99.50","","27","","","","Mostly Cloudy"
"1954-07-28 01:00","1954","07","28","01:00","21.1","","17.8","","81","","14","","3","","16.1","","99.45","","27","","","","Mostly Cloudy"
"1954-07-28 02:00","1954","07","28","02:00","20.6","","17.8","","84","","","","0","","12.9","","99.48","","26","","","","Cloudy"
"1954-07-28 03:00","1954","07","28","03:00","19.4","","17.8","","90","","7","","5","","16.1","","99.51","","","","","","Cloudy"
"1954-07-28 04:00","1954","07","28","04:00","19.4","","17.2","","87","","2","","11","","19.3","","99.56","","","","","","Mostly Cloudy"
"1954-07-28 05:00","1954","07","28","05:00","19.4","","17.2","","87","","14","","10","","19.3","","99.44","","","","","","Cloudy"
"1954-07-28 06:00","1954","07","28","06:00","19.4","","17.2","","87","","18","","8","","19.3","","99.45","","","","","","Cloudy"
"1954-07-28 07:00","1954","07","28","07:00","20.0","","17.8","","87","","18","","3","","16.1","","99.50","","26","","","","Cloudy"
"1954-07-28 08:00","1954","07","28","08:00","21.1","","17.8","","81","","18","","3","","16.1","","99.46","","27","","","","Mostly Cloudy"
"1954-07-28 09:00","1954","07","28","09:00","21.7","","18.9","","84","","23","","11","","16.1","","99.45","","28","","","","Cloudy"
"1954-07-28 10:00","1954","07","28","10:00","23.9","","18.3","","71","","29","","8","","16.1","","99.47","","30","","","","Mostly Cloudy"
"1954-07-28 11:00","1954","07","28","11:00","26.1","","18.3","","62","","29","","10","","16.1","","99.47","","32","","","","Mostly Cloudy"
"1954-07-28 12:00","1954","07","28","12:00","26.7","","18.3","","60","","7","","8","","16.1","","99.46","","33","","","","Cloudy"
"1954-07-28 13:00","1954","07","28","13:00","27.2","","18.9","","60","","29","","8","","16.1","","99.43","","34","","","","Cloudy"
"1954-07-28 14:00","1954","07","28","14:00","28.3","","20.0","","61","","16","","18","","16.1","","99.41","","36","","","","Cloudy"
"1954-07-28 15:00","1954","07","28","15:00","27.2","","18.9","","60","","11","","18","","11.3","","99.40","","34","","","","Cloudy"
"1954-07-28 16:00","1954","07","28","16:00","27.2","","18.3","","58","","11","","13","","12.9","","99.35","","33","","","","Mostly Cloudy"
"1954-07-28 17:00","1954","07","28","17:00","26.7","","18.9","","63","","14","","13","","12.9","","99.38","","33","","","","Mostly Cloudy"
"1954-07-28 18:00","1954","07","28","18:00","26.1","","19.4","","67","","16","","13","","11.3","","99.37","","33","","","","Mostly Cloudy"
"1954-07-28 19:00","1954","07","28","19:00","24.4","","19.4","","74","","16","","8","","12.9","","99.36","","31","","","","Mostly Cloudy"
"1954-07-28 20:00","1954","07","28","20:00","24.4","","20.0","","76","","","","0","","12.9","","99.39","","32","","","","Mostly Cloudy"
"1954-07-28 21:00","1954","07","28","21:00","23.3","","19.4","","79","","","","0","","12.9","","99.44","","30","","","","Mainly Clear"
"1954-07-28 22:00","1954","07","28","22:00","22.2","","18.9","","82","","","","0","","12.9","","99.44","","29","","","","Mainly Clear"
"1954-07-28 23:00","1954","07","28","23:00","20.6","","18.9","","90","","","","0","","12.9","","99.44","","27","","","","Clear"
"1954-07-29 00:00","1954","07","29","00:00","20.0","","18.9","","93","","36","","3","","6.4","","99.44","","27","","","","Haze"
"1954-07-29 01:00","1954","07","29","01:00","19.4","","18.3","","93","","36","","6","","4.8","","99.41","","","","","","Fog"
"1954-07-29 02:00","1954","07","29","02:00","18.9","","17.8","","93","","36","","6","","4.8","","99.40","","","","","","Fog"
"1954-07-29 03:00","1954","07","29","03:00","18.3","","17.2","","93","","36","","5","","4.8","","99.40","","","","","","Fog"
"1954-07-29 04:00","1954","07","29","04:00","17.8","","16.7","","93","","36","","5","","4.8","","99.39","","","","","","Fog"
"1954-07-29 05:00","1954","07","29","05:00","17.8","","16.7","","93","","","","0","","4.8","","99.38","","","","","","Fog"
"1954-07-29 06:00","1954","07","29","06:00","18.9","","18.3","","97","","5","","5","","4.8","","99.38","","","","","","Fog"
"1954-07-29 07:00","1954","07","29","07:00","19.4","","18.3","","93","","5","","3","","2.4","","99.38","","","","","","Fog"
"1954-07-29 08:00","1954","07","29","08:00","21.1","","19.4","","90","","7","","3","","2.4","","99.34","","28","","","","Rain,Fog"
"1954-07-29 09:00","1954","07","29","09:00","22.2","","20.0","","87","","","","0","","1.6","","99.37","","30","","","","Rain,Fog"
"1954-07-29 10:00","1954","07","29","10:00","21.1","","20.0","","93","","","","0","","1.6","","99.38","","29","","","","Rain,Fog"
"1954-07-29 11:00","1954","07","29","11:00","21.1","","20.6","","97","","5","","10","","2.0","","99.34","","29","","","","Rain,Fog"
"1954-07-29 12:00","1954","07","29","12:00","22.8","","21.1","","90","","5","","13","","4.8","","99.28","","31","","","","Fog"
"1954-07-29 13:00","1954","07","29","13:00","21.1","","20.6","","97","","29","","14","","2.8","","99.37","","29","","","","Rain Showers,Fog"
"1954-07-29 14:00","1954","07","29","14:00","20.6","","19.4","","93","","29","","8","","3.2","","99.30","","28","","","","Rain Showers,Fog"
"1954-07-29 15:00","1954","07","29","15:00","20.6","","20.0","","97","","5","","10","","2.4","","99.23","","28","","","","Rain Showers,Fog"
"1954-07-29 16:00","1954","07","29","16:00","21.1","","20.0","","93","","7","","6","","2.4","","99.20","","29","","","","Rain Showers,Fog"
"1954-07-29 17:00","1954","07","29","17:00","21.1","","20.0","","93","","9","","2","","2.4","","99.21","","29","","","","Rain Showers,Fog"
"1954-07-29 18:00","1954","07","29","18:00","21.1","","20.0","","93","","18","","11","","1.2","","99.20","","29","","","","Fog"
"1954-07-29 19:00","1954","07","29","19:00","20.6","","19.4","","93","","18","","11","","1.2","","99.25","","28","","","","Fog"
"1954-07-29 20:00","1954","07","29","20:00","19.4","","18.9","","97","","18","","10","","1.6","","99.26","","","","","","Fog"
"1954-07-29 21:00","1954","07","29","21:00","18.9","","17.8","","93","","18","","5","","1.2","","99.27","","","","","","Fog"
"1954-07-29 22:00","1954","07","29","22:00","18.9","","17.8","","93","","20","","8","","1.2","","99.25","","","","","","Fog"
"1954-07-29 23:00","1954","07","29","23:00","18.9","","17.8","","93","","18","","8","","1.2","","99.29","","","","","","Fog"
"1954-07-30 00:00","1954","07","30","00:00","19.4","","18.3","","93","","25","","11","","2.4","","99.25","","","","","","Fog"
"1954-07-30 01:00","1954","07","30","01:00","18.9","","17.8","","93","","23","","6","","3.2","","99.27","","","","","","Fog"
"1954-07-30 02:00","1954","07","30","02:00","18.9","","17.8","","93","","23","","6","","3.2","","99.25","","","","","","Fog"
"1954-07-30 03:00","1954","07","30","03:00","18.9","","17.8","","93","","23","","10","","4.0","","99.26","","","","","","Fog"
"1954-07-30 04:00","1954","07","30","04:00","18.9","","17.8","","93","","25","","19","","4.0","","99.27","","","","","","Fog"
"1954-07-30 05:00","1954","07","30","05:00","18.9","","17.8","","93","","23","","8","","4.0","","99.26","","","","","","Fog"
"1954-07-30 06:00","1954","07","30","06:00","20.6","","18.9","","90","","27","","23","","4.8","","99.29","","27","","","","Fog"
"1954-07-30 07:00","1954","07","30","07:00","22.2","","20.0","","87","","27","","32","","6.4","","99.31","","30","","","","Haze"
"1954-07-30 08:00","1954","07","30","08:00","24.4","","20.0","","76","","27","","29","","6.4","","99.37","","32","","","","Haze"
"1954-07-30 09:00","1954","07","30","09:00","26.1","","19.4","","67","","29","","27","","12.9","","99.39","","33","","","","Mainly Clear"
"1954-07-30 10:00","1954","07","30","10:00","28.3","","17.8","","53","","27","","31","","19.3","","99.44","","34","","","","Mainly Clear"
"1954-07-30 11:00","1954","07","30","11:00","28.9","","16.1","","46","","29","","35","","24.1","","99.43","","34","","","","Clear"
"1954-07-30 12:00","1954","07","30","12:00","30.6","","16.1","","42","","29","","31","","24.1","","99.38","","35","","","","Clear"
"1954-07-30 13:00","1954","07","30","13:00","31.1","","16.1","","41","","27","","35","","25.0","","99.38","","36","","","","Mainly Clear"
"1954-07-30 14:00","1954","07","30","14:00","31.7","","16.7","","41","","29","","31","","25.0","","99.34","","37","","","","Mainly Clear"
"1954-07-30 15:00","1954","07","30","15:00","32.2","","17.2","","41","","27","","29","","25.0","","99.37","","38","","","","Mainly Clear"
"1954-07-30 16:00","1954","07","30","16:00","31.7","","16.7","","41","","29","","37","","25.0","","99.36","","37","","","","Mainly Clear"
"1954-07-30 17:00","1954","07","30","17:00","30.6","","16.7","","43","","29","","32","","25.0","","99.38","","36","","","","Mostly Cloudy"
"1954-07-30 18:00","1954","07","30","18:00","27.8","","15.0","","46","","34","","19","","25.0","","99.40","","32","","","","Mostly Cloudy"
"1954-07-30 19:00","1954","07","30","19:00","26.7","","15.0","","49","","36","","16","","25.0","","99.42","","31","","","","Mostly Cloudy"
"1954-07-30 20:00","1954","07","30","20:00","22.8","","16.1","","66","","2","","10","","25.0","","99.46","","27","","","","Mostly Cloudy"
"1954-07-30 21:00","1954","07","30","21:00","21.7","","16.1","","71","","2","","10","","25.0","","99.45","","26","","","","Mostly Cloudy"
"1954-07-30 22:00","1954","07","30","22:00","20.0","","17.2","","84","","2","","14","","25.0","","99.43","","25","","","","Mainly Clear"
"1954-07-30 23:00","1954","07","30","23:00","20.0","","15.0","","73","","","","0","","25.0","","99.47","","","","","","Clear"
"1954-07-31 00:00","1954","07","31","00:00","18.9","","15.0","","78","","23","","3","","25.0","","99.46","","","","","","Clear"
"1954-07-31 01:00","1954","07","31","01:00","18.3","","15.6","","84","","29","","5","","25.0","","99.45","","","","","","Mainly Clear"
"1954-07-31 02:00","1954","07","31","02:00","17.8","","15.0","","84","","","","0","","25.0","","99.39","","","","","","Mostly Cloudy"
"1954-07-31 03:00","1954","07","31","03:00","16.7","","15.0","","90","","7","","5","","19.3","","99.26","","","","","","Cloudy"
"1954-07-31 04:00","1954","07","31","04:00","17.8","","16.1","","90","","14","","11","","11.3","","99.16","","","","","","Thunderstorms,Rain Showers"
"1954-07-31 05:00","1954","07","31","05:00","18.3","","15.0","","81","","11","","19","","16.1","","99.01","","","","","","Cloudy"
"1954-07-31 06:00","1954","07","31","06:00","19.4","","14.4","","70","","7","","13","","19.3","","99.08","","","","","","Mostly Cloudy"
"1954-07-31 07:00","1954","07","31","07:00","20.0","","15.6","","76","","","","0","","16.1","","99.00","","","","","","Cloudy"
"1954-07-31 08:00","1954","07","31","08:00","19.4","","16.1","","81","","2","","6","","19.3","","99.01","","","","","","Rain Showers"
"1954-07-31 09:00","1954","07","31","09:00","22.2","","16.7","","71","","18","","3","","19.3","","98.97","","27","","","","Mostly Cloudy"
"1954-07-31 10:00","1954","07","31","10:00","25.6","","18.3","","64","","20","","16","","19.3","","98.93","","32","","","","Cloudy"
"1954-07-31 11:00","1954","07","31","11:00","27.2","","19.4","","63","","25","","32","","24.1","","98.92","","34","","","","Mostly Cloudy"
"1954-07-31 12:00","1954","07","31","12:00","27.8","","20.6","","65","","27","","42","","24.1","","98.93","","36","","","","Cloudy"
"1954-07-31 13:00","1954","07","31","13:00","28.9","","21.7","","65","","29","","37","","24.1","","98.91","","38","","","","Mostly Cloudy"
"1954-07-31 14:00","1954","07","31","14:00","28.3","","21.7","","67","","25","","32","","16.1","","98.82","","37","","","","Cloudy"
"1954-07-31 15:00","1954","07","31","15:00","26.7","","22.8","","79","","27","","19","","12.9","","98.84","","37","","","","Thunderstorms,Rain Showers"
"1954-07-31 16:00","1954","07","31","16:00","19.4","","18.3","","93","","25","","29","","16.1","","98.84","","","","","","Rain Showers"
"1954-07-31 17:00","1954","07","31","17:00","21.7","","20.0","","90","","29","","23","","25.0","","98.85","","29","","","","Cloudy"
"1954-07-31 18:00","1954","07","31","18:00","22.2","","20.0","","87","","29","","13","","25.0","","98.85","","30","","","","Cloudy"
"1954-07-31 19:00","1954","07","31","19:00","21.7","","19.4","","87","","36","","24","","25.0","","98.88","","29","","","","Cloudy"
"1954-07-31 20:00","1954","07","31","20:00","18.3","","16.1","","87","","34","","26","","25.0","","98.93","","","","","","Mostly Cloudy"
"1954-07-31 21:00","1954","07","31","21:00","17.8","","16.1","","90","","34","","16","","25.0","","99.03","","","","","","Mostly Cloudy"
"1954-07-31 22:00","1954","07","31","22:00","16.7","","15.0","","90","","34","","18","","25.0","","99.05","","","","","","Mostly Cloudy"
"1954-07-31 23:00","1954","07","31","23:00","16.7","","14.4","","87","","34","","23","","25.0","","99.11","","","","","","Cloudy"
