"Station Name","TORONTO LESTER B. PEARSON INT'L A"
"Province","ONTARIO"
"Latitude","43.68"
"Longitude","-79.63"
"Elevation","173.40"
"Climate Identifier","6158733"
"WMO Identifier","71624"
"TC Identifier","YYZ"
"All times are specified in Local Standard Time (LST). Add 1 hour to adjust for Daylight Saving Time where and when it is observed."

"Legend"
"E","Estimated"
"M","Missing"
"NA","Not Available"

"Date/Time","Year","Month","Day","Time","Temp (°C)","Temp Flag","Dew Point Temp (°C)","Dew Point Temp Flag","Rel Hum (%)","Rel Hum Flag","Wind Dir (10s deg)","Wind Dir Flag","Wind Spd (km/h)","Wind Spd Flag","Visibility (km)","Visibility Flag","Stn Press (kPa)","Stn Press Flag","Hmdx","Hmdx Flag","Wind Chill","Wind Chill Flag","Weather"
"1989-04-01 00:00","1989","04","01","00:00","1.2","","-2.4","","77","","31","","17","","25.0","","98.71","","","","","","Mostly Cloudy"
"1989-04-01 01:00","1989","04","01","01:00","1.0","","-3.0","","75","","31","","17","","25.0","","98.74","","","","","","Mostly Cloudy"
"1989-04-01 02:00","1989","04","01","02:00","0.9","","-2.4","","79","","30","","19","","25.0","","98.74","","","","","","Cloudy"
"1989-04-01 03:00","1989","04","01","03:00","0.3","","-2.2","","83","","28","","19","","25.0","","98.81","","","","","","Cloudy"
"1989-04-01 04:00","1989","04","01","04:00","0.4","","-2.1","","83","","29","","20","","25.0","","98.87","","","","","","Cloudy"
"1989-04-01 05:00","1989","04","01","05:00","0.5","","-3.7","","73","","30","","24","","25.0","","98.97","","","","","","Mostly Cloudy"
"1989-04-01 06:00","1989","04","01","06:00","0.0","","-4.0","","74","","30","","22","","25.0","","99.07","","","","-6","","Mostly Cloudy"
"1989-04-01 07:00","1989","04","01","07:00","0.2","","-4.4","","71","","30","","30","","40.2","","99.17","","","","","","Mostly Cloudy"
"1989-04-01 08:00","1989","04","01","08:00","1.2","","-4.2","","67","","31","","33","","40.2","","99.27","","","","","","Mostly Cloudy"
"1989-04-01 09:00","1989","04","01","09:00","1.8","","-4.0","","65","","33","","33","","40.2","","99.34","","","","","","Mainly Clear"
"1989-04-01 10:00","1989","04","01","10:00","2.6","","-5.2","","56","","32","","35","","40.2","","99.41","","","","","","Mainly Clear"
"1989-04-01 11:00","1989","04","01","11:00","4.0","","-5.1","","51","","33","","31","","40.2","","99.44","","","","","","Mainly Clear"
"1989-04-01 12:00","1989","04","01","12:00","4.7","","-3.1","","57","","31","","28","","40.2","","99.47","","","","","","Mainly Clear"
"1989-04-01 13:00","1989","04","01","13:00","5.1","","-3.1","","55","","30","","30","","40.2","","99.47","","","","","","Mainly Clear"
"1989-04-01 14:00","1989","04","01","14:00","6.0","","-2.9","","53","","33","","24","","40.2","","99.54","","","","","","Mainly Clear"
"1989-04-01 15:00","1989","04","01","15:00","6.9","","-2.8","","50","","29","","26","","40.2","","99.57","","","","","","Mainly Clear"
"1989-04-01 16:00","1989","04","01","16:00","7.2","","-4.8","","42","","32","","28","","40.2","","99.57","","","","","","Mainly Clear"
"1989-04-01 17:00","1989","04","01","17:00","6.6","","-4.2","","46","","31","","17","","40.2","","99.61","","","","","","Mainly Clear"
"1989-04-01 18:00","1989","04","01","18:00","4.9","","-5.1","","48","","36","","20","","40.2","","99.67","","","","","","Mainly Clear"
"1989-04-01 19:00","1989","04","01","19:00","2.8","","-2.6","","68","","35","","15","","25.0","","99.77","","","","","","Mostly Cloudy"
"1989-04-01 20:00","1989","04","01","20:00","1.0","","-4.8","","65","","32","","11","","25.0","","99.84","","","","","","Mainly Clear"
"1989-04-01 21:00","1989","04","01","21:00","2.0","","-5.3","","58","","35","","6","","25.0","","99.97","","","","","","Mainly Clear"
"1989-04-01 22:00","1989","04","01","22:00","1.3","","-2.4","","76","","27","","6","","25.0","","99.94","","","","","","Mostly Cloudy"
"1989-04-01 23:00","1989","04","01","23:00","1.5","","-2.9","","73","","21","","4","","25.0","","99.97","","","","","","Mostly Cloudy"
"1989-04-02 00:00","1989","04","02","00:00","0.2","","-4.4","","71","","20","","4","","25.0","","100.01","","","","","","Mostly Cloudy"
"1989-04-02 01:00","1989","04","02","01:00","0.0","","-4.0","","74","","","","0","","25.0","","99.97","","","","","","Cloudy"
"1989-04-02 02:00","1989","04","02","02:00","-0.2","","-4.6","","72","","16","","7","","25.0","","99.97","","","","-3","","Cloudy"
"1989-04-02 03:00","1989","04","02","03:00","0.4","","-3.2","","77","","16","","7","","16.1","","99.97","","","","","","Cloudy"
"1989-04-02 04:00","1989","04","02","04:00","0.2","","-1.8","","86","","15","","7","","11.3","","99.91","","","","","","Cloudy"
"1989-04-02 05:00","1989","04","02","05:00","0.5","","-1.4","","87","","14","","7","","11.3","","99.87","","","","","","Cloudy"
"1989-04-02 06:00","1989","04","02","06:00","0.8","","-1.0","","88","","14","","9","","9.7","","99.87","","","","","","Fog"
"1989-04-02 07:00","1989","04","02","07:00","1.5","","-0.5","","87","","16","","13","","17.7","","99.91","","","","","","Cloudy"
"1989-04-02 08:00","1989","04","02","08:00","3.4","","-0.3","","77","","17","","13","","19.3","","99.87","","","","","","Mostly Cloudy"
"1989-04-02 09:00","1989","04","02","09:00","4.3","","-0.8","","70","","18","","19","","24.1","","99.81","","","","","","Cloudy"
"1989-04-02 10:00","1989","04","02","10:00","4.3","","-0.8","","70","","18","","22","","32.2","","99.84","","","","","","Rain Showers"
"1989-04-02 11:00","1989","04","02","11:00","5.1","","-1.3","","63","","19","","20","","32.2","","99.77","","","","","","Rain Showers"
"1989-04-02 12:00","1989","04","02","12:00","5.5","","-0.6","","65","","17","","15","","32.2","","99.71","","","","","","Cloudy"
"1989-04-02 13:00","1989","04","02","13:00","6.9","","0.2","","62","","17","","19","","32.2","","99.61","","","","","","Mostly Cloudy"
"1989-04-02 14:00","1989","04","02","14:00","9.4","","0.2","","53","","18","","26","","40.2","","99.54","","","","","","Mostly Cloudy"
"1989-04-02 15:00","1989","04","02","15:00","9.5","","0.7","","54","","21","","33","","40.2","","99.51","","","","","","Cloudy"
"1989-04-02 16:00","1989","04","02","16:00","8.5","","0.5","","57","","20","","31","","40.2","","99.47","","","","","","Cloudy"
"1989-04-02 17:00","1989","04","02","17:00","7.7","","0.3","","59","","20","","19","","40.2","","99.47","","","","","","Cloudy"
"1989-04-02 18:00","1989","04","02","18:00","7.4","","1.3","","65","","19","","17","","32.2","","99.44","","","","","","Cloudy"
"1989-04-02 19:00","1989","04","02","19:00","7.5","","0.8","","62","","19","","13","","24.1","","99.41","","","","","","Cloudy"
"1989-04-02 20:00","1989","04","02","20:00","8.0","","1.9","","65","","19","","11","","24.1","","99.44","","","","","","Cloudy"
"1989-04-02 21:00","1989","04","02","21:00","8.3","","2.0","","65","","20","","15","","19.3","","99.44","","","","","","Rain"
"1989-04-02 22:00","1989","04","02","22:00","7.4","","4.6","","83","","19","","22","","11.3","","99.44","","","","","","Rain"
"1989-04-02 23:00","1989","04","02","23:00","6.3","","4.9","","91","","19","","17","","9.7","","99.41","","","","","","Rain,Fog"
"1989-04-03 00:00","1989","04","03","00:00","5.9","","4.8","","93","","18","","11","","6.4","","99.34","","","","","","Rain,Fog"
"1989-04-03 01:00","1989","04","03","01:00","5.7","","4.7","","93","","16","","6","","4.8","","99.31","","","","","","Rain,Fog"
"1989-04-03 02:00","1989","04","03","02:00","5.3","","5.1","","99","","14","","7","","4.8","","99.24","","","","","","Rain,Fog"
"1989-04-03 03:00","1989","04","03","03:00","5.0","","5.0","","100","","13","","11","","2.4","","99.17","","","","","","Rain,Fog"
"1989-04-03 04:00","1989","04","03","04:00","4.7","","4.5","","98","","11","","7","","2.4","","99.11","","","","","","Rain,Fog"
"1989-04-03 05:00","1989","04","03","05:00","4.6","","4.5","","99","","6","","9","","2.4","","98.97","","","","","","Rain,Fog"
"1989-04-03 06:00","1989","04","03","06:00","5.0","","5.0","","100","","10","","11","","1.6","","98.94","","","","","","Rain,Fog"
"1989-04-03 07:00","1989","04","03","07:00","5.4","","5.1","","98","","8","","11","","1.6","","98.91","","","","","","Rain,Fog"
"1989-04-03 08:00","1989","04","03","08:00","5.6","","5.1","","97","","5","","13","","2.4","","98.87","","","","","","Rain,Fog"
"1989-04-03 09:00","1989","04","03","09:00","5.7","","5.1","","96","","7","","11","","2.4","","98.87","","","","","","Rain,Fog"
"1989-04-03 10:00","1989","04","03","10:00","6.0","","5.6","","97","","5","","15","","3.2","","98.81","","","","","","Rain,Fog"
"1989-04-03 11:00","1989","04","03","11:00","6.3","","5.7","","96","","5","","15","","4.8","","98.81","","","","","","Rain,Fog"
"1989-04-03 12:00","1989","04","03","12:00","6.5","","5.7","","95","","3","","11","","6.4","","98.81","","","","","","Rain,Fog"
"1989-04-03 13:00","1989","04","03","13:00","7.5","","5.9","","90","","6","","19","","9.7","","98.81","","","","","","Fog"
"1989-04-03 14:00","1989","04","03","14:00","7.8","","5.2","","84","","","","0","","11.3","","98.87","","","","","","Cloudy"
"1989-04-03 15:00","1989","04","03","15:00","7.8","","5.6","","86","","11","","4","","12.9","","98.94","","","","","","Cloudy"
"1989-04-03 16:00","1989","04","03","16:00","7.0","","4.1","","82","","1","","4","","8.0","","98.97","","","","","","Haze"
"1989-04-03 17:00","1989","04","03","17:00","6.3","","4.4","","88","","20","","9","","9.7","","99.14","","","","","","Fog"
"1989-04-03 18:00","1989","04","03","18:00","6.0","","4.8","","92","","14","","11","","6.4","","99.27","","","","","","Fog"
"1989-04-03 19:00","1989","04","03","19:00","5.6","","4.7","","94","","15","","7","","3.6","","99.24","","","","","","Fog"
"1989-04-03 20:00","1989","04","03","20:00","5.8","","5.2","","96","","12","","6","","4.8","","99.24","","","","","","Fog"
"1989-04-03 21:00","1989","04","03","21:00","5.8","","4.8","","93","","9","","7","","4.8","","99.24","","","","","","Fog"
"1989-04-03 22:00","1989","04","03","22:00","5.1","","4.6","","97","","12","","11","","3.2","","99.24","","","","","","Fog"
"1989-04-03 23:00","1989","04","03","23:00","4.7","","4.1","","96","","9","","15","","1.2","","99.11","","","","","","Fog"
"1989-04-04 00:00","1989","04","04","00:00","4.5","","4.5","","100","","10","","9","","0.2","","99.11","","","","","","Fog"
"1989-04-04 01:00","1989","04","04","01:00","4.4","","4.4","","100","","11","","15","","0.0","","99.11","","","","","","Fog"
"1989-04-04 02:00","1989","04","04","02:00","4.3","","4.3","","100","","10","","11","","0.4","","99.01","","","","","","Rain,Fog"
"1989-04-04 03:00","1989","04","04","03:00","4.5","","4.5","","100","","8","","15","","2.0","","98.91","","","","","","Rain,Fog"
"1989-04-04 04:00","1989","04","04","04:00","4.7","","4.5","","98","","4","","22","","3.2","","98.64","","","","","","Rain,Fog"
"1989-04-04 05:00","1989","04","04","05:00","5.0","","5.0","","100","","8","","4","","2.4","","98.61","","","","","","Rain,Fog"
"1989-04-04 06:00","1989","04","04","06:00","5.3","","5.1","","99","","6","","28","","4.0","","98.41","","","","","","Rain,Fog"
"1989-04-04 07:00","1989","04","04","07:00","5.6","","5.1","","97","","7","","30","","4.8","","98.27","","","","","","Moderate Rain,Fog"
"1989-04-04 08:00","1989","04","04","08:00","5.2","","5.2","","100","","8","","37","","4.0","","98.04","","","","","","Rain,Fog"
"1989-04-04 09:00","1989","04","04","09:00","5.5","","5.1","","97","","8","","31","","3.2","","98.04","","","","","","Drizzle,Fog"
"1989-04-04 10:00","1989","04","04","10:00","5.8","","5.8","","100","","10","","15","","2.8","","98.11","","","","","","Drizzle,Fog"
"1989-04-04 11:00","1989","04","04","11:00","6.3","","6.3","","100","","19","","6","","1.6","","98.21","","","","","","Drizzle,Fog"
"1989-04-04 12:00","1989","04","04","12:00","6.9","","6.6","","98","","21","","7","","2.4","","98.24","","","","","","Fog"
"1989-04-04 13:00","1989","04","04","13:00","10.1","","8.5","","90","","24","","19","","12.9","","98.31","","","","","","Cloudy"
"1989-04-04 14:00","1989","04","04","14:00","11.8","","7.9","","77","","26","","28","","24.1","","98.44","","","","","","Mostly Cloudy"
"1989-04-04 15:00","1989","04","04","15:00","11.9","","6.7","","71","","25","","28","","32.2","","98.57","","","","","","Mostly Cloudy"
"1989-04-04 16:00","1989","04","04","16:00","12.0","","4.9","","62","","26","","24","","40.2","","98.64","","","","","","Mostly Cloudy"
"1989-04-04 17:00","1989","04","04","17:00","12.1","","4.9","","61","","25","","19","","40.2","","98.67","","","","","","Mostly Cloudy"
"1989-04-04 18:00","1989","04","04","18:00","11.4","","3.3","","57","","22","","15","","40.2","","98.74","","","","","","Mostly Cloudy"
"1989-04-04 19:00","1989","04","04","19:00","9.9","","4.4","","69","","21","","11","","25.0","","98.81","","","","","","Mostly Cloudy"
"1989-04-04 20:00","1989","04","04","20:00","9.5","","3.8","","67","","22","","11","","25.0","","98.84","","","","","","Mostly Cloudy"
"1989-04-04 21:00","1989","04","04","21:00","7.9","","4.3","","78","","23","","9","","25.0","","98.84","","","","","","Mostly Cloudy"
"1989-04-04 22:00","1989","04","04","22:00","7.6","","3.7","","76","","","","0","","25.0","","98.84","","","","","","Mostly Cloudy"
"1989-04-04 23:00","1989","04","04","23:00","8.4","","3.0","","69","","15","","7","","25.0","","98.84","","","","","","Mostly Cloudy"
"1989-04-05 00:00","1989","04","05","00:00","6.8","","3.6","","80","","14","","7","","25.0","","98.87","","","","","","Mostly Cloudy"
"1989-04-05 01:00","1989","04","05","01:00","6.8","","4.1","","83","","12","","7","","24.1","","98.81","","","","","","Mostly Cloudy"
"1989-04-05 02:00","1989","04","05","02:00","6.9","","4.1","","82","","14","","7","","16.1","","98.77","","","","","","Mostly Cloudy"
"1989-04-05 03:00","1989","04","05","03:00","5.7","","3.4","","85","","15","","7","","16.1","","98.74","","","","","","Mainly Clear"
"1989-04-05 04:00","1989","04","05","04:00","5.2","","3.3","","87","","20","","9","","16.1","","98.77","","","","","","Mainly Clear"
"1989-04-05 05:00","1989","04","05","05:00","5.9","","3.9","","87","","21","","15","","12.9","","98.84","","","","","","Mostly Cloudy"
"1989-04-05 06:00","1989","04","05","06:00","6.4","","4.4","","87","","23","","13","","12.9","","98.91","","","","","","Mostly Cloudy"
"1989-04-05 07:00","1989","04","05","07:00","6.5","","4.9","","89","","22","","11","","9.7","","99.01","","","","","","Fog"
"1989-04-05 08:00","1989","04","05","08:00","7.2","","5.0","","86","","22","","11","","8.0","","99.07","","","","","","Fog"
"1989-04-05 09:00","1989","04","05","09:00","7.6","","3.7","","76","","25","","19","","9.7","","99.11","","","","","","Haze"
"1989-04-05 10:00","1989","04","05","10:00","8.0","","3.9","","75","","26","","11","","9.7","","99.14","","","","","","Haze"
"1989-04-05 11:00","1989","04","05","11:00","9.1","","3.2","","67","","23","","24","","12.9","","99.14","","","","","","Cloudy"
"1989-04-05 12:00","1989","04","05","12:00","7.8","","3.4","","74","","25","","26","","16.1","","99.17","","","","","","Cloudy"
"1989-04-05 13:00","1989","04","05","13:00","7.5","","2.8","","72","","22","","26","","11.3","","99.21","","","","","","Cloudy"
"1989-04-05 14:00","1989","04","05","14:00","8.1","","2.9","","70","","25","","17","","11.3","","99.21","","","","","","Cloudy"
"1989-04-05 15:00","1989","04","05","15:00","8.7","","2.5","","65","","20","","22","","19.3","","99.21","","","","","","Mostly Cloudy"
"1989-04-05 16:00","1989","04","05","16:00","7.6","","3.3","","74","","22","","17","","16.1","","99.21","","","","","","Rain Showers"
"1989-04-05 17:00","1989","04","05","17:00","6.6","","4.4","","86","","21","","15","","9.7","","99.27","","","","","","Rain Showers,Fog"
"1989-04-05 18:00","1989","04","05","18:00","6.2","","4.3","","87","","22","","19","","9.7","","99.31","","","","","","Fog"
"1989-04-05 19:00","1989","04","05","19:00","6.1","","3.9","","86","","22","","13","","8.0","","99.31","","","","","","Fog"
"1989-04-05 20:00","1989","04","05","20:00","6.0","","3.9","","86","","24","","9","","8.0","","99.31","","","","","","Fog"
"1989-04-05 21:00","1989","04","05","21:00","5.6","","3.8","","88","","","","0","","8.0","","99.31","","","","","","Rain Showers,Fog"
"1989-04-05 22:00","1989","04","05","22:00","5.0","","3.3","","89","","24","","7","","11.3","","99.31","","","","","","Mostly Cloudy"
"1989-04-05 23:00","1989","04","05","23:00","4.4","","3.2","","92","","25","","9","","11.3","","99.27","","","","","","Mostly Cloudy"
"1989-04-06 00:00","1989","04","06","00:00","4.3","","3.2","","93","","30","","4","","11.3","","99.27","","","","","","Cloudy"
"1989-04-06 01:00","1989","04","06","01:00","4.2","","2.7","","90","","23","","4","","6.4","","99.31","","","","","","Rain Showers,Fog"
"1989-04-06 02:00","1989","04","06","02:00","3.9","","2.7","","92","","23","","4","","4.8","","99.24","","","","","","Fog"
"1989-04-06 03:00","1989","04","06","03:00","2.6","","2.0","","96","","24","","7","","6.4","","99.11","","","","","","Fog"
"1989-04-06 04:00","1989","04","06","04:00","2.3","","2.0","","98","","24","","11","","4.8","","99.17","","","","","","Fog"
"1989-04-06 05:00","1989","04","06","05:00","2.0","","1.5","","96","","30","","9","","4.8","","99.11","","","","","","Fog"
"1989-04-06 06:00","1989","04","06","06:00","1.7","","1.0","","95","","","","0","","3.2","","99.11","","","","","","Fog"
"1989-04-06 07:00","1989","04","06","07:00","2.9","","2.1","","95","","","","0","","2.8","","99.14","","","","","","Fog"
"1989-04-06 08:00","1989","04","06","08:00","3.4","","2.6","","95","","23","","4","","4.0","","99.11","","","","","","Fog"
"1989-04-06 09:00","1989","04","06","09:00","5.8","","3.9","","88","","21","","4","","6.4","","99.07","","","","","","Fog"
"1989-04-06 10:00","1989","04","06","10:00","5.0","","2.8","","86","","34","","11","","8.0","","99.04","","","","","","Fog"
"1989-04-06 11:00","1989","04","06","11:00","5.0","","2.8","","86","","34","","15","","11.3","","99.04","","","","","","Cloudy"
"1989-04-06 12:00","1989","04","06","12:00","3.5","","1.7","","88","","32","","20","","12.9","","99.01","","","","","","Rain Showers"
"1989-04-06 13:00","1989","04","06","13:00","4.0","","2.2","","88","","31","","17","","11.3","","98.97","","","","","","Rain Showers"
"1989-04-06 14:00","1989","04","06","14:00","4.7","","2.3","","84","","29","","19","","16.1","","98.91","","","","","","Rain"
"1989-04-06 15:00","1989","04","06","15:00","5.4","","2.4","","81","","30","","15","","19.3","","98.87","","","","","","Rain Showers"
"1989-04-06 16:00","1989","04","06","16:00","5.1","","1.9","","80","","29","","22","","19.3","","98.84","","","","","","Rain Showers"
"1989-04-06 17:00","1989","04","06","17:00","4.4","","2.3","","86","","30","","28","","11.3","","98.91","","","","","","Rain Showers"
"1989-04-06 18:00","1989","04","06","18:00","2.9","","1.6","","91","","31","","15","","6.4","","98.94","","","","","","Moderate Rain Showers,Fog"
"1989-04-06 19:00","1989","04","06","19:00","3.4","","1.2","","86","","28","","24","","19.3","","98.91","","","","","","Cloudy"
"1989-04-06 20:00","1989","04","06","20:00","3.5","","0.7","","82","","29","","15","","19.3","","98.87","","","","","","Cloudy"
"1989-04-06 21:00","1989","04","06","21:00","3.0","","0.2","","82","","27","","15","","24.1","","98.87","","","","","","Mostly Cloudy"
"1989-04-06 22:00","1989","04","06","22:00","2.4","","-0.4","","82","","27","","15","","24.1","","98.81","","","","","","Mostly Cloudy"
"1989-04-06 23:00","1989","04","06","23:00","2.0","","-0.4","","84","","27","","15","","24.1","","98.81","","","","","","Cloudy"
"1989-04-07 00:00","1989","04","07","00:00","2.0","","-0.4","","84","","26","","15","","24.1","","98.81","","","","","","Mostly Cloudy"
"1989-04-07 01:00","1989","04","07","01:00","1.9","","0.1","","88","","26","","17","","16.1","","98.74","","","","","","Rain Showers"
"1989-04-07 02:00","1989","04","07","02:00","1.3","","0.5","","95","","25","","13","","12.9","","98.74","","","","","","Rain Showers"
"1989-04-07 03:00","1989","04","07","03:00","1.0","","0.0","","93","","24","","11","","16.1","","98.67","","","","","","Mostly Cloudy"
"1989-04-07 04:00","1989","04","07","04:00","1.0","","0.0","","93","","25","","11","","17.7","","98.67","","","","","","Mostly Cloudy"
"1989-04-07 05:00","1989","04","07","05:00","1.1","","-0.5","","89","","25","","13","","19.3","","98.67","","","","","","Mostly Cloudy"
"1989-04-07 06:00","1989","04","07","06:00","1.0","","-0.5","","90","","29","","15","","19.3","","98.71","","","","","","Mainly Clear"
"1989-04-07 07:00","1989","04","07","07:00","1.5","","-1.0","","83","","28","","15","","24.1","","98.74","","","","","","Mainly Clear"
"1989-04-07 08:00","1989","04","07","08:00","2.5","","-0.9","","78","","26","","15","","24.1","","98.81","","","","","","Mostly Cloudy"
"1989-04-07 09:00","1989","04","07","09:00","3.0","","-0.9","","76","","29","","15","","24.1","","98.84","","","","","","Mostly Cloudy"
"1989-04-07 10:00","1989","04","07","10:00","2.5","","-1.5","","75","","31","","17","","32.2","","98.91","","","","","","Mostly Cloudy"
"1989-04-07 11:00","1989","04","07","11:00","4.3","","-1.3","","67","","30","","24","","32.2","","98.91","","","","","","Cloudy"
"1989-04-07 12:00","1989","04","07","12:00","4.1","","-2.5","","62","","29","","19","","32.2","","98.94","","","","","","Cloudy"
"1989-04-07 13:00","1989","04","07","13:00","4.5","","-2.5","","60","","29","","15","","32.2","","98.94","","","","","","Mostly Cloudy"
"1989-04-07 14:00","1989","04","07","14:00","5.2","","-3.7","","52","","28","","19","","40.2","","98.94","","","","","","Mostly Cloudy"
"1989-04-07 15:00","1989","04","07","15:00","5.1","","-3.7","","53","","33","","19","","40.2","","98.94","","","","","","Mostly Cloudy"
"1989-04-07 16:00","1989","04","07","16:00","5.4","","-3.0","","55","","33","","17","","32.2","","98.94","","","","","","Mostly Cloudy"
"1989-04-07 17:00","1989","04","07","17:00","5.3","","-3.0","","55","","36","","22","","32.2","","98.91","","","","","","Mainly Clear"
"1989-04-07 18:00","1989","04","07","18:00","3.9","","-3.2","","60","","36","","24","","32.2","","98.94","","","","","","Mainly Clear"
"1989-04-07 19:00","1989","04","07","19:00","1.9","","-3.2","","69","","36","","20","","25.0","","99.01","","","","","","Mainly Clear"
"1989-04-07 20:00","1989","04","07","20:00","0.5","","-3.7","","73","","35","","17","","25.0","","99.07","","","","","","Mainly Clear"
"1989-04-07 21:00","1989","04","07","21:00","-0.2","","-4.6","","72","","34","","15","","25.0","","99.11","","","","-5","","Mainly Clear"
"1989-04-07 22:00","1989","04","07","22:00","-0.6","","-5.0","","72","","35","","19","","25.0","","99.07","","","","-6","","Mainly Clear"
"1989-04-07 23:00","1989","04","07","23:00","-1.5","","-4.8","","78","","33","","17","","25.0","","99.01","","","","-7","","Clear"
"1989-04-08 00:00","1989","04","08","00:00","-1.3","","-5.4","","73","","35","","13","","25.0","","98.97","","","","-6","","Clear"
"1989-04-08 01:00","1989","04","08","01:00","-2.1","","-5.1","","80","","36","","11","","25.0","","98.94","","","","-6","","Clear"
"1989-04-08 02:00","1989","04","08","02:00","-2.1","","-5.1","","80","","2","","15","","25.0","","98.94","","","","-7","","Clear"
"1989-04-08 03:00","1989","04","08","03:00","-2.2","","-4.8","","83","","1","","13","","25.0","","98.94","","","","-7","","Mainly Clear"
"1989-04-08 04:00","1989","04","08","04:00","-3.1","","-4.5","","90","","34","","9","","25.0","","98.94","","","","-7","","Mainly Clear"
"1989-04-08 05:00","1989","04","08","05:00","-4.0","","-5.4","","90","","33","","11","","25.0","","98.91","","","","-8","","Clear"
"1989-04-08 06:00","1989","04","08","06:00","-3.0","","-5.1","","85","","36","","15","","32.2","","98.91","","","","-8","","Mainly Clear"
"1989-04-08 07:00","1989","04","08","07:00","-1.9","","-4.2","","84","","36","","11","","32.2","","98.87","","","","-6","","Clear"
"1989-04-08 08:00","1989","04","08","08:00","1.0","","-2.4","","78","","36","","11","","32.2","","98.84","","","","","","Clear"
"1989-04-08 09:00","1989","04","08","09:00","1.8","","-4.0","","65","","4","","9","","40.2","","98.84","","","","","","Mainly Clear"
"1989-04-08 10:00","1989","04","08","10:00","2.9","","-3.8","","61","","","","0","","40.2","","98.81","","","","","","Mainly Clear"
"1989-04-08 11:00","1989","04","08","11:00","3.7","","-4.5","","55","","21","","6","","40.2","","98.74","","","","","","Mostly Cloudy"
"1989-04-08 12:00","1989","04","08","12:00","4.8","","-3.1","","57","","","","0","","40.2","","98.71","","","","","","Mostly Cloudy"
"1989-04-08 13:00","1989","04","08","13:00","5.4","","-1.8","","60","","","","0","","40.2","","98.67","","","","","","Cloudy"
"1989-04-08 14:00","1989","04","08","14:00","5.0","","-3.1","","56","","16","","15","","40.2","","98.64","","","","","","Mostly Cloudy"
"1989-04-08 15:00","1989","04","08","15:00","5.4","","-1.8","","60","","11","","19","","40.2","","98.57","","","","","","Mostly Cloudy"
"1989-04-08 16:00","1989","04","08","16:00","4.9","","-1.3","","64","","13","","19","","40.2","","98.54","","","","","","Mostly Cloudy"
"1989-04-08 17:00","1989","04","08","17:00","4.1","","-2.5","","62","","13","","15","","40.2","","98.54","","","","","","Mostly Cloudy"
"1989-04-08 18:00","1989","04","08","18:00","3.8","","-1.9","","66","","11","","17","","32.2","","98.54","","","","","","Mostly Cloudy"
"1989-04-08 19:00","1989","04","08","19:00","2.8","","-2.6","","68","","11","","11","","25.0","","98.54","","","","","","Mostly Cloudy"
"1989-04-08 20:00","1989","04","08","20:00","2.4","","-2.6","","69","","11","","11","","25.0","","98.57","","","","","","Mostly Cloudy"
"1989-04-08 21:00","1989","04","08","21:00","1.4","","-3.5","","70","","7","","9","","25.0","","98.61","","","","","","Mostly Cloudy"
"1989-04-08 22:00","1989","04","08","22:00","1.9","","-6.7","","53","","10","","9","","25.0","","98.64","","","","","","Mostly Cloudy"
"1989-04-08 23:00","1989","04","08","23:00","1.4","","-6.8","","54","","11","","6","","25.0","","98.64","","","","","","Mostly Cloudy"
"1989-04-09 00:00","1989","04","09","00:00","0.5","","-4.3","","70","","","","0","","25.0","","98.67","","","","","","Mostly Cloudy"
"1989-04-09 01:00","1989","04","09","01:00","0.1","","-3.6","","76","","","","0","","25.0","","98.67","","","","","","Mostly Cloudy"
"1989-04-09 02:00","1989","04","09","02:00","-1.5","","-4.2","","82","","34","","6","","25.0","","98.67","","","","-4","","Cloudy"
"1989-04-09 03:00","1989","04","09","03:00","-1.5","","-3.3","","88","","34","","4","","25.0","","98.64","","","","-3","","Mainly Clear"
"1989-04-09 04:00","1989","04","09","04:00","-2.0","","-4.2","","85","","","","0","","25.0","","98.64","","","","","","Mainly Clear"
"1989-04-09 05:00","1989","04","09","05:00","-1.9","","-3.6","","88","","27","","7","","25.0","","98.74","","","","-5","","Mostly Cloudy"
"1989-04-09 06:00","1989","04","09","06:00","-0.6","","-2.9","","85","","","","0","","24.1","","98.74","","","","","","Mostly Cloudy"
"1989-04-09 07:00","1989","04","09","07:00","0.2","","-0.8","","93","","","","0","","32.2","","98.81","","","","","","Mostly Cloudy"
"1989-04-09 08:00","1989","04","09","08:00","1.5","","-2.4","","75","","16","","6","","24.1","","98.84","","","","","","Cloudy"
"1989-04-09 09:00","1989","04","09","09:00","0.0","","0.0","","100","","21","","17","","0.6","","98.94","","","","-5","","Moderate Snow Showers"
"1989-04-09 10:00","1989","04","09","10:00","-0.2","","-3.4","","79","","28","","30","","40.2","","99.04","","","","-7","","Mostly Cloudy"
"1989-04-09 11:00","1989","04","09","11:00","0.2","","-2.9","","80","","27","","28","","40.2","","99.11","","","","","","Mostly Cloudy"
"1989-04-09 12:00","1989","04","09","12:00","0.7","","-4.3","","69","","27","","39","","40.2","","99.24","","","","","","Mostly Cloudy"
"1989-04-09 13:00","1989","04","09","13:00","0.5","","-5.5","","64","","27","","37","","40.2","","99.34","","","","","","Mostly Cloudy"
"1989-04-09 14:00","1989","04","09","14:00","0.6","","-6.2","","60","","26","","37","","40.2","","99.41","","","","","","Mostly Cloudy"
"1989-04-09 15:00","1989","04","09","15:00","1.5","","-3.5","","69","","26","","41","","40.2","","99.41","","","","","","Mostly Cloudy"
"1989-04-09 16:00","1989","04","09","16:00","1.4","","-4.1","","67","","29","","30","","40.2","","99.37","","","","","","Mainly Clear"
"1989-04-09 17:00","1989","04","09","17:00","2.1","","-6.0","","55","","27","","24","","40.2","","99.41","","","","","","Mainly Clear"
"1989-04-09 18:00","1989","04","09","18:00","1.5","","-6.8","","54","","27","","17","","40.2","","99.44","","","","","","Mostly Cloudy"
"1989-04-09 19:00","1989","04","09","19:00","0.5","","-6.2","","61","","23","","15","","25.0","","99.47","","","","","","Cloudy"
"1989-04-09 20:00","1989","04","09","20:00","-0.5","","-5.0","","71","","25","","11","","8.0","","99.54","","","","-4","","Snow Showers"
"1989-04-09 21:00","1989","04","09","21:00","-2.7","","-4.5","","88","","32","","13","","3.2","","99.57","","","","-7","","Snow Showers"
"1989-04-09 22:00","1989","04","09","22:00","-2.5","","-6.7","","73","","1","","11","","12.9","","99.57","","","","-7","","Mostly Cloudy"
"1989-04-09 23:00","1989","04","09","23:00","-2.8","","-4.2","","90","","3","","6","","3.6","","99.57","","","","-5","","Snow Showers"
"1989-04-10 00:00","1989","04","10","00:00","-3.2","","-3.9","","95","","","","0","","3.2","","99.57","","","","","","Snow Showers"
"1989-04-10 01:00","1989","04","10","01:00","-3.7","","-4.0","","98","","33","","11","","1.6","","99.61","","","","-8","","Snow Showers"
"1989-04-10 02:00","1989","04","10","02:00","-5.1","","-5.6","","96","","","","0","","14.5","","99.61","","","","","","Mostly Cloudy"
"1989-04-10 03:00","1989","04","10","03:00","-5.1","","-5.6","","96","","21","","6","","12.9","","99.61","","","","-8","","Cloudy"
"1989-04-10 04:00","1989","04","10","04:00","-5.0","","-7.2","","84","","23","","26","","17.7","","99.61","","","","-12","","Snow Showers"
"1989-04-10 05:00","1989","04","10","05:00","-5.3","","-8.5","","78","","25","","15","","17.7","","99.61","","","","-11","","Mostly Cloudy"
"1989-04-10 06:00","1989","04","10","06:00","-6.3","","-9.4","","78","","23","","11","","19.3","","99.61","","","","-11","","Mostly Cloudy"
"1989-04-10 07:00","1989","04","10","07:00","-5.5","","-7.1","","88","","26","","13","","24.1","","99.71","","","","-11","","Mostly Cloudy"
"1989-04-10 08:00","1989","04","10","08:00","-4.5","","-8.3","","75","","28","","39","","32.2","","99.81","","","","-13","","Mainly Clear"
"1989-04-10 09:00","1989","04","10","09:00","-3.4","","-8.4","","68","","26","","31","","40.2","","99.87","","","","-11","","Mostly Cloudy"
"1989-04-10 10:00","1989","04","10","10:00","-3.0","","-7.0","","74","","24","","35","","40.2","","99.91","","","","-11","","Cloudy"
"1989-04-10 11:00","1989","04","10","11:00","-3.1","","-5.1","","86","","23","","28","","1.6","","99.91","","","","-10","","Snow Showers,Blowing Snow"
"1989-04-10 12:00","1989","04","10","12:00","-0.7","","-4.1","","78","","26","","31","","12.9","","99.87","","","","-7","","Snow Showers"
"1989-04-10 13:00","1989","04","10","13:00","0.8","","-3.6","","72","","30","","35","","12.9","","99.97","","","","","","Snow Showers"
"1989-04-10 14:00","1989","04","10","14:00","1.3","","-3.5","","70","","27","","41","","40.2","","100.07","","","","","","Mostly Cloudy"
"1989-04-10 15:00","1989","04","10","15:00","1.1","","-4.2","","67","","28","","30","","40.2","","100.07","","","","","","Mostly Cloudy"
"1989-04-10 16:00","1989","04","10","16:00","0.2","","-5.0","","68","","26","","30","","40.2","","100.11","","","","","","Mostly Cloudy"
"1989-04-10 17:00","1989","04","10","17:00","0.8","","-6.2","","59","","28","","33","","40.2","","100.14","","","","","","Mostly Cloudy"
"1989-04-10 18:00","1989","04","10","18:00","-0.7","","-6.7","","64","","26","","26","","40.2","","100.21","","","","-7","","Cloudy"
"1989-04-10 19:00","1989","04","10","19:00","-0.6","","-6.3","","65","","25","","19","","25.0","","100.21","","","","-6","","Mostly Cloudy"
"1989-04-10 20:00","1989","04","10","20:00","-0.8","","-6.3","","66","","25","","17","","25.0","","100.27","","","","-6","","Mostly Cloudy"
"1989-04-10 21:00","1989","04","10","21:00","-2.0","","-5.7","","76","","25","","15","","25.0","","100.31","","","","-7","","Clear"
"1989-04-10 22:00","1989","04","10","22:00","-2.0","","-5.7","","76","","26","","11","","25.0","","100.31","","","","-6","","Mainly Clear"
"1989-04-10 23:00","1989","04","10","23:00","-2.1","","-4.2","","85","","24","","11","","25.0","","100.34","","","","-6","","Mostly Cloudy"
"1989-04-11 00:00","1989","04","11","00:00","-2.3","","-4.5","","85","","26","","7","","25.0","","100.34","","","","-5","","Mostly Cloudy"
"1989-04-11 01:00","1989","04","11","01:00","-2.0","","-3.6","","89","","25","","9","","24.1","","100.34","","","","-5","","Mostly Cloudy"
"1989-04-11 02:00","1989","04","11","02:00","-2.1","","-3.6","","89","","24","","9","","24.1","","100.31","","","","-6","","Mostly Cloudy"
"1989-04-11 03:00","1989","04","11","03:00","-1.9","","-4.2","","84","","25","","11","","25.0","","100.31","","","","-6","","Mostly Cloudy"
"1989-04-11 04:00","1989","04","11","04:00","-2.5","","-4.2","","88","","25","","7","","24.1","","100.31","","","","-5","","Mostly Cloudy"
"1989-04-11 05:00","1989","04","11","05:00","-2.1","","-4.2","","85","","","","0","","24.1","","100.34","","","","","","Mostly Cloudy"
"1989-04-11 06:00","1989","04","11","06:00","-2.1","","-4.2","","85","","","","0","","24.1","","100.41","","","","","","Mostly Cloudy"
"1989-04-11 07:00","1989","04","11","07:00","-1.7","","-3.3","","89","","24","","6","","11.3","","100.41","","","","-4","","Mostly Cloudy"
"1989-04-11 08:00","1989","04","11","08:00","-1.0","","-3.8","","81","","24","","11","","12.9","","100.44","","","","-5","","Mostly Cloudy"
"1989-04-11 09:00","1989","04","11","09:00","0.0","","-3.2","","79","","24","","9","","16.1","","100.47","","","","-3","","Mostly Cloudy"
"1989-04-11 10:00","1989","04","11","10:00","1.0","","-3.0","","75","","26","","6","","24.1","","100.47","","","","","","Snow Showers"
"1989-04-11 11:00","1989","04","11","11:00","1.9","","-4.0","","65","","22","","17","","32.2","","100.47","","","","","","Mostly Cloudy"
"1989-04-11 12:00","1989","04","11","12:00","0.8","","-4.2","","69","","","","0","","19.3","","100.44","","","","","","Snow Showers"
"1989-04-11 13:00","1989","04","11","13:00","1.7","","-6.8","","53","","28","","19","","40.2","","100.41","","","","","","Mostly Cloudy"
"1989-04-11 14:00","1989","04","11","14:00","2.0","","-6.0","","55","","25","","19","","40.2","","100.41","","","","","","Mostly Cloudy"
"1989-04-11 15:00","1989","04","11","15:00","3.1","","-5.1","","55","","25","","15","","40.2","","100.31","","","","","","Mostly Cloudy"
"1989-04-11 16:00","1989","04","11","16:00","2.8","","-5.2","","56","","25","","20","","40.2","","100.31","","","","","","Mostly Cloudy"
"1989-04-11 17:00","1989","04","11","17:00","3.5","","-6.4","","48","","25","","17","","40.2","","100.31","","","","","","Mostly Cloudy"
"1989-04-11 18:00","1989","04","11","18:00","3.1","","-7.3","","46","","25","","4","","40.2","","100.31","","","","","","Mostly Cloudy"
"1989-04-11 19:00","1989","04","11","19:00","1.1","","-7.6","","52","","25","","9","","25.0","","100.31","","","","","","Mainly Clear"
"1989-04-11 20:00","1989","04","11","20:00","-0.4","","-7.6","","58","","24","","7","","25.0","","100.31","","","","-3","","Mainly Clear"
"1989-04-11 21:00","1989","04","11","21:00","-0.9","","-7.7","","60","","18","","4","","25.0","","100.34","","","","-2","","Mainly Clear"
"1989-04-11 22:00","1989","04","11","22:00","0.8","","-5.5","","63","","17","","4","","25.0","","100.37","","","","","","Clear"
"1989-04-11 23:00","1989","04","11","23:00","0.1","","-7.5","","56","","19","","9","","25.0","","100.37","","","","","","Clear"
"1989-04-12 00:00","1989","04","12","00:00","-1.0","","-5.4","","72","","20","","7","","25.0","","100.37","","","","-4","","Clear"
"1989-04-12 01:00","1989","04","12","01:00","-1.4","","-4.5","","79","","19","","4","","19.3","","100.34","","","","-3","","Clear"
"1989-04-12 02:00","1989","04","12","02:00","-1.7","","-3.9","","85","","18","","7","","17.7","","100.31","","","","-4","","Clear"
"1989-04-12 03:00","1989","04","12","03:00","-2.1","","-4.8","","82","","16","","6","","16.1","","100.31","","","","-4","","Clear"
"1989-04-12 04:00","1989","04","12","04:00","-2.5","","-4.5","","86","","13","","4","","16.1","","100.27","","","","-4","","Clear"
"1989-04-12 05:00","1989","04","12","05:00","-1.9","","-3.6","","88","","22","","9","","12.9","","100.27","","","","-5","","Clear"
"1989-04-12 06:00","1989","04","12","06:00","-1.1","","-3.0","","87","","13","","11","","9.7","","100.27","","","","-5","","Fog"
"1989-04-12 07:00","1989","04","12","07:00","0.3","","-0.9","","92","","13","","15","","6.4","","100.24","","","","","","Fog"
"1989-04-12 08:00","1989","04","12","08:00","1.8","","0.1","","89","","14","","22","","8.0","","100.24","","","","","","Fog"
"1989-04-12 09:00","1989","04","12","09:00","3.0","","0.2","","82","","16","","15","","9.7","","100.21","","","","","","Haze"
"1989-04-12 10:00","1989","04","12","10:00","4.3","","0.8","","78","","18","","19","","9.7","","100.21","","","","","","Haze"
"1989-04-12 11:00","1989","04","12","11:00","5.1","","-1.3","","63","","17","","28","","16.1","","100.14","","","","","","Cloudy"
"1989-04-12 12:00","1989","04","12","12:00","5.6","","-1.8","","59","","20","","28","","19.3","","100.04","","","","","","Rain Showers"
"1989-04-12 13:00","1989","04","12","13:00","6.0","","-1.7","","58","","16","","28","","19.3","","99.97","","","","","","Cloudy"
"1989-04-12 14:00","1989","04","12","14:00","7.3","","-2.1","","51","","19","","33","","24.1","","99.87","","","","","","Cloudy"
"1989-04-12 15:00","1989","04","12","15:00","6.7","","-1.0","","58","","22","","31","","24.1","","99.81","","","","","","Cloudy"
"1989-04-12 16:00","1989","04","12","16:00","7.3","","-1.5","","54","","22","","30","","24.1","","99.77","","","","","","Cloudy"
"1989-04-12 17:00","1989","04","12","17:00","7.0","","0.2","","62","","22","","30","","19.3","","99.74","","","","","","Cloudy"
"1989-04-12 18:00","1989","04","12","18:00","6.1","","-1.7","","57","","25","","15","","16.1","","99.74","","","","","","Cloudy"
"1989-04-12 19:00","1989","04","12","19:00","4.0","","1.3","","82","","24","","19","","8.0","","99.74","","","","","","Rain Showers,Haze"
"1989-04-12 20:00","1989","04","12","20:00","3.9","","2.2","","89","","20","","20","","8.0","","99.71","","","","","","Rain,Fog"
"1989-04-12 21:00","1989","04","12","21:00","2.6","","1.6","","93","","22","","13","","9.7","","99.71","","","","","","Rain,Fog"
"1989-04-12 22:00","1989","04","12","22:00","3.0","","2.1","","94","","20","","19","","6.4","","99.64","","","","","","Rain,Fog"
"1989-04-12 23:00","1989","04","12","23:00","2.1","","1.5","","96","","24","","9","","8.0","","99.64","","","","","","Fog"
"1989-04-13 00:00","1989","04","13","00:00","2.0","","1.1","","94","","26","","11","","9.7","","99.64","","","","","","Fog"
"1989-04-13 01:00","1989","04","13","01:00","1.9","","1.1","","95","","26","","11","","9.7","","99.67","","","","","","Fog"
"1989-04-13 02:00","1989","04","13","02:00","1.5","","-1.0","","83","","29","","15","","14.5","","99.67","","","","","","Mostly Cloudy"
"1989-04-13 03:00","1989","04","13","03:00","0.9","","-1.5","","84","","26","","11","","17.7","","99.71","","","","","","Cloudy"
"1989-04-13 04:00","1989","04","13","04:00","0.3","","-1.4","","89","","28","","11","","16.1","","99.71","","","","","","Mostly Cloudy"
"1989-04-13 05:00","1989","04","13","05:00","0.3","","-1.4","","89","","25","","7","","14.5","","99.77","","","","","","Mostly Cloudy"
"1989-04-13 06:00","1989","04","13","06:00","0.5","","-1.4","","87","","25","","9","","9.7","","99.81","","","","","","Fog"
"1989-04-13 07:00","1989","04","13","07:00","0.1","","-0.1","","98","","30","","7","","1.6","","99.91","","","","","","Snow Showers"
"1989-04-13 08:00","1989","04","13","08:00","0.3","","-0.2","","96","","29","","6","","2.4","","99.94","","","","","","Snow Showers"
"1989-04-13 09:00","1989","04","13","09:00","2.1","","-2.1","","74","","30","","26","","32.2","","99.97","","","","","","Mostly Cloudy"
"1989-04-13 10:00","1989","04","13","10:00","3.4","","-0.9","","73","","31","","19","","40.2","","100.01","","","","","","Mainly Clear"
"1989-04-13 11:00","1989","04","13","11:00","4.9","","0.4","","73","","28","","20","","40.2","","100.07","","","","","","Mainly Clear"
"1989-04-13 12:00","1989","04","13","12:00","4.0","","-0.3","","74","","26","","22","","40.2","","100.11","","","","","","Mostly Cloudy"
"1989-04-13 13:00","1989","04","13","13:00","5.1","","-0.2","","68","","26","","22","","40.2","","100.14","","","","","","Mostly Cloudy"
"1989-04-13 14:00","1989","04","13","14:00","5.0","","-1.3","","64","","27","","26","","40.2","","100.17","","","","","","Mostly Cloudy"
"1989-04-13 15:00","1989","04","13","15:00","4.7","","-0.8","","67","","26","","24","","24.1","","100.21","","","","","","Mostly Cloudy"
"1989-04-13 16:00","1989","04","13","16:00","4.5","","-0.2","","71","","27","","30","","24.1","","100.24","","","","","","Mostly Cloudy"
"1989-04-13 17:00","1989","04","13","17:00","3.7","","-0.9","","72","","26","","24","","12.9","","100.27","","","","","","Mostly Cloudy"
"1989-04-13 18:00","1989","04","13","18:00","3.4","","-0.9","","73","","27","","20","","24.1","","100.31","","","","","","Mostly Cloudy"
"1989-04-13 19:00","1989","04","13","19:00","3.0","","-1.5","","72","","27","","19","","24.1","","100.31","","","","","","Mostly Cloudy"
"1989-04-13 20:00","1989","04","13","20:00","0.8","","-1.5","","85","","25","","15","","25.0","","100.27","","","","","","Clear"
"1989-04-13 21:00","1989","04","13","21:00","0.5","","-2.5","","80","","23","","11","","25.0","","100.27","","","","","","Clear"
"1989-04-13 22:00","1989","04","13","22:00","0.0","","-2.6","","83","","22","","9","","25.0","","100.27","","","","-3","","Clear"
"1989-04-13 23:00","1989","04","13","23:00","-0.2","","-3.4","","79","","23","","9","","25.0","","100.31","","","","-3","","Clear"
"1989-04-14 00:00","1989","04","14","00:00","-1.1","","-3.3","","85","","","","0","","25.0","","100.31","","","","","","Mainly Clear"
"1989-04-14 01:00","1989","04","14","01:00","-0.1","","-3.0","","81","","","","0","","17.7","","100.27","","","","","","Clear"
"1989-04-14 02:00","1989","04","14","02:00","-0.4","","-2.5","","86","","16","","6","","16.1","","100.21","","","","-2","","Clear"
"1989-04-14 03:00","1989","04","14","03:00","-1.2","","-2.2","","93","","","","0","","12.9","","100.17","","","","","","Clear"
"1989-04-14 04:00","1989","04","14","04:00","-1.2","","-2.2","","93","","","","0","","11.3","","100.17","","","","","","Clear"
"1989-04-14 05:00","1989","04","14","05:00","-1.6","","-3.0","","90","","","","0","","9.7","","100.17","","","","","","Fog"
"1989-04-14 06:00","1989","04","14","06:00","-1.1","","-3.3","","85","","12","","6","","12.9","","100.11","","","","-3","","Mostly Cloudy"
"1989-04-14 07:00","1989","04","14","07:00","0.5","","-2.0","","83","","16","","4","","11.3","","100.11","","","","","","Mostly Cloudy"
"1989-04-14 08:00","1989","04","14","08:00","2.5","","-0.4","","81","","17","","13","","11.3","","100.11","","","","","","Mostly Cloudy"
"1989-04-14 09:00","1989","04","14","09:00","5.5","","-0.6","","65","","19","","28","","16.1","","100.01","","","","","","Mostly Cloudy"
"1989-04-14 10:00","1989","04","14","10:00","7.8","","-0.8","","55","","19","","28","","24.1","","99.97","","","","","","Mainly Clear"
"1989-04-14 11:00","1989","04","14","11:00","8.9","","-2.4","","45","","18","","33","","32.2","","99.87","","","","","","Mainly Clear"
"1989-04-14 12:00","1989","04","14","12:00","8.9","","-3.0","","43","","17","","35","","32.2","","99.81","","","","","","Mostly Cloudy"
"1989-04-14 13:00","1989","04","14","13:00","8.6","","-3.8","","41","","18","","33","","40.2","","99.71","","","","","","Mostly Cloudy"
"1989-04-14 14:00","1989","04","14","14:00","8.9","","-4.4","","39","","17","","31","","32.2","","99.61","","","","","","Mostly Cloudy"
"1989-04-14 15:00","1989","04","14","15:00","9.2","","-5.2","","36","","16","","30","","32.2","","99.51","","","","","","Cloudy"
"1989-04-14 16:00","1989","04","14","16:00","9.3","","-4.3","","38","","15","","20","","32.2","","99.44","","","","","","Cloudy"
"1989-04-14 17:00","1989","04","14","17:00","9.1","","-3.0","","42","","14","","17","","32.2","","99.41","","","","","","Cloudy"
"1989-04-14 18:00","1989","04","14","18:00","7.5","","-2.1","","50","","12","","19","","32.2","","99.37","","","","","","Cloudy"
"1989-04-14 19:00","1989","04","14","19:00","6.6","","-2.9","","51","","12","","15","","16.1","","99.34","","","","","","Cloudy"
"1989-04-14 20:00","1989","04","14","20:00","6.6","","-3.5","","48","","11","","11","","24.1","","99.34","","","","","","Rain Showers"
"1989-04-14 21:00","1989","04","14","21:00","6.5","","-2.9","","51","","10","","9","","24.1","","99.37","","","","","","Rain Showers"
"1989-04-14 22:00","1989","04","14","22:00","5.4","","0.4","","70","","26","","6","","25.0","","99.27","","","","","","Rain Showers"
"1989-04-14 23:00","1989","04","14","23:00","5.2","","1.9","","79","","14","","6","","9.7","","99.21","","","","","","Rain,Haze"
"1989-04-15 00:00","1989","04","15","00:00","5.2","","3.3","","87","","15","","4","","8.0","","99.14","","","","","","Rain,Fog"
"1989-04-15 01:00","1989","04","15","01:00","4.4","","3.2","","92","","17","","4","","8.0","","99.14","","","","","","Rain,Fog"
"1989-04-15 02:00","1989","04","15","02:00","4.6","","3.2","","91","","17","","6","","8.0","","99.11","","","","","","Rain,Fog"
"1989-04-15 03:00","1989","04","15","03:00","4.4","","3.2","","92","","","","0","","8.0","","99.11","","","","","","Fog"
"1989-04-15 04:00","1989","04","15","04:00","4.0","","3.6","","97","","11","","4","","6.4","","99.11","","","","","","Fog"
"1989-04-15 05:00","1989","04","15","05:00","3.5","","3.1","","97","","","","0","","6.4","","99.14","","","","","","Rain,Fog"
"1989-04-15 06:00","1989","04","15","06:00","3.8","","3.6","","99","","","","0","","4.0","","99.21","","","","","","Fog"
"1989-04-15 07:00","1989","04","15","07:00","4.1","","3.6","","97","","","","0","","2.0","","99.31","","","","","","Fog"
"1989-04-15 08:00","1989","04","15","08:00","5.7","","5.1","","96","","27","","4","","2.0","","99.34","","","","","","Fog"
"1989-04-15 09:00","1989","04","15","09:00","7.0","","5.0","","87","","31","","9","","8.0","","99.37","","","","","","Fog"
"1989-04-15 10:00","1989","04","15","10:00","7.8","","5.2","","84","","36","","6","","11.3","","99.41","","","","","","Cloudy"
"1989-04-15 11:00","1989","04","15","11:00","7.8","","4.8","","81","","35","","11","","16.1","","99.41","","","","","","Cloudy"
"1989-04-15 12:00","1989","04","15","12:00","9.0","","4.5","","73","","35","","7","","32.2","","99.41","","","","","","Mostly Cloudy"
"1989-04-15 13:00","1989","04","15","13:00","9.2","","2.2","","62","","26","","7","","32.2","","99.41","","","","","","Mostly Cloudy"
"1989-04-15 14:00","1989","04","15","14:00","9.8","","2.9","","62","","31","","24","","32.2","","99.41","","","","","","Mostly Cloudy"
"1989-04-15 15:00","1989","04","15","15:00","9.8","","0.8","","53","","32","","20","","32.2","","99.41","","","","","","Mostly Cloudy"
"1989-04-15 16:00","1989","04","15","16:00","9.7","","-0.4","","49","","32","","9","","32.2","","99.41","","","","","","Mostly Cloudy"
"1989-04-15 17:00","1989","04","15","17:00","9.2","","3.2","","66","","14","","9","","24.1","","99.44","","","","","","Mostly Cloudy"
"1989-04-15 18:00","1989","04","15","18:00","9.2","","2.7","","64","","29","","11","","24.1","","99.47","","","","","","Mostly Cloudy"
"1989-04-15 19:00","1989","04","15","19:00","7.8","","3.9","","76","","","","0","","24.1","","99.51","","","","","","Mostly Cloudy"
"1989-04-15 20:00","1989","04","15","20:00","6.5","","3.1","","79","","15","","9","","19.3","","99.51","","","","","","Mainly Clear"
"1989-04-15 21:00","1989","04","15","21:00","5.3","","2.9","","85","","36","","11","","25.0","","99.57","","","","","","Mostly Cloudy"
"1989-04-15 22:00","1989","04","15","22:00","4.2","","0.3","","75","","34","","11","","25.0","","99.57","","","","","","Mostly Cloudy"
"1989-04-15 23:00","1989","04","15","23:00","3.1","","1.1","","87","","35","","13","","25.0","","99.57","","","","","","Mainly Clear"
"1989-04-16 00:00","1989","04","16","00:00","2.6","","0.1","","84","","1","","11","","25.0","","99.57","","","","","","Mainly Clear"
"1989-04-16 01:00","1989","04","16","01:00","1.0","","-0.5","","90","","33","","7","","25.0","","99.57","","","","","","Mainly Clear"
"1989-04-16 02:00","1989","04","16","02:00","0.3","","-0.9","","92","","33","","11","","24.1","","99.51","","","","","","Mainly Clear"
"1989-04-16 03:00","1989","04","16","03:00","0.7","","-2.0","","82","","32","","7","","24.1","","99.54","","","","","","Mainly Clear"
"1989-04-16 04:00","1989","04","16","04:00","0.2","","-1.0","","91","","33","","6","","24.1","","99.57","","","","","","Mainly Clear"
"1989-04-16 05:00","1989","04","16","05:00","0.2","","-1.5","","88","","34","","7","","25.0","","99.57","","","","","","Clear"
"1989-04-16 06:00","1989","04","16","06:00","-0.4","","-1.7","","91","","31","","4","","24.1","","99.61","","","","-2","","Clear"
"1989-04-16 07:00","1989","04","16","07:00","0.8","","-1.0","","88","","31","","6","","24.1","","99.64","","","","","","Clear"
"1989-04-16 08:00","1989","04","16","08:00","4.6","","1.8","","82","","","","0","","24.1","","99.67","","","","","","Clear"
"1989-04-16 09:00","1989","04","16","09:00","8.2","","-0.8","","53","","26","","6","","24.1","","99.67","","","","","","Clear"
"1989-04-16 10:00","1989","04","16","10:00","10.2","","-4.2","","36","","","","0","","32.2","","99.67","","","","","","Clear"
"1989-04-16 11:00","1989","04","16","11:00","11.7","","-2.4","","37","","19","","15","","40.2","","99.64","","","","","","Mainly Clear"
"1989-04-16 12:00","1989","04","16","12:00","11.9","","0.3","","45","","14","","22","","40.2","","99.61","","","","","","Mainly Clear"
"1989-04-16 13:00","1989","04","16","13:00","12.0","","-0.9","","41","","14","","24","","32.2","","99.57","","","","","","Mainly Clear"
"1989-04-16 14:00","1989","04","16","14:00","13.0","","0.0","","41","","14","","24","","32.2","","99.51","","","","","","Mainly Clear"
"1989-04-16 15:00","1989","04","16","15:00","12.8","","2.8","","51","","15","","28","","32.2","","99.47","","","","","","Mainly Clear"
"1989-04-16 16:00","1989","04","16","16:00","13.4","","1.9","","46","","14","","22","","32.2","","99.44","","","","","","Mainly Clear"
"1989-04-16 17:00","1989","04","16","17:00","13.5","","1.4","","44","","15","","22","","32.2","","99.41","","","","","","Mainly Clear"
"1989-04-16 18:00","1989","04","16","18:00","12.7","","-0.8","","39","","16","","22","","32.2","","99.41","","","","","","Mainly Clear"
"1989-04-16 19:00","1989","04","16","19:00","11.7","","-0.5","","43","","17","","11","","32.2","","99.41","","","","","","Mainly Clear"
"1989-04-16 20:00","1989","04","16","20:00","10.2","","-0.3","","48","","16","","9","","25.0","","99.44","","","","","","Mainly Clear"
"1989-04-16 21:00","1989","04","16","21:00","9.3","","0.2","","53","","15","","11","","25.0","","99.47","","","","","","Mainly Clear"
"1989-04-16 22:00","1989","04","16","22:00","7.4","","0.3","","61","","14","","11","","25.0","","99.51","","","","","","Mainly Clear"
"1989-04-16 23:00","1989","04","16","23:00","7.0","","0.7","","64","","14","","7","","25.0","","99.51","","","","","","Clear"
"1989-04-17 00:00","1989","04","17","00:00","6.2","","1.0","","69","","13","","11","","25.0","","99.51","","","","","","Mainly Clear"
"1989-04-17 01:00","1989","04","17","01:00","5.6","","-0.1","","67","","10","","9","","25.0","","99.51","","","","","","Mostly Cloudy"
"1989-04-17 02:00","1989","04","17","02:00","5.6","","-0.6","","64","","9","","7","","25.0","","99.44","","","","","","Mostly Cloudy"
"1989-04-17 03:00","1989","04","17","03:00","4.8","","0.4","","73","","13","","7","","25.0","","99.44","","","","","","Mostly Cloudy"
"1989-04-17 04:00","1989","04","17","04:00","4.8","","0.9","","76","","15","","7","","12.9","","99.41","","","","","","Mostly Cloudy"
"1989-04-17 05:00","1989","04","17","05:00","5.7","","1.0","","72","","14","","4","","12.9","","99.41","","","","","","Cloudy"
"1989-04-17 06:00","1989","04","17","06:00","5.3","","1.5","","77","","12","","7","","9.7","","99.41","","","","","","Haze"
"1989-04-17 07:00","1989","04","17","07:00","6.0","","2.5","","78","","14","","7","","9.7","","99.34","","","","","","Haze"
"1989-04-17 08:00","1989","04","17","08:00","8.0","","3.4","","73","","15","","11","","11.3","","99.24","","","","","","Mostly Cloudy"
"1989-04-17 09:00","1989","04","17","09:00","9.7","","3.3","","64","","16","","15","","11.3","","99.17","","","","","","Cloudy"
"1989-04-17 10:00","1989","04","17","10:00","11.7","","3.8","","58","","17","","15","","16.1","","99.11","","","","","","Cloudy"
"1989-04-17 11:00","1989","04","17","11:00","13.9","","4.2","","52","","20","","22","","24.1","","99.07","","","","","","Cloudy"
"1989-04-17 12:00","1989","04","17","12:00","12.6","","6.4","","66","","24","","33","","19.3","","99.07","","","","","","Rain Showers"
"1989-04-17 13:00","1989","04","17","13:00","11.5","","7.4","","76","","23","","26","","19.3","","99.04","","","","","","Cloudy"
"1989-04-17 14:00","1989","04","17","14:00","12.5","","8.5","","77","","24","","31","","12.9","","99.01","","","","","","Cloudy"
"1989-04-17 15:00","1989","04","17","15:00","11.3","","9.7","","90","","24","","19","","9.7","","99.01","","","","","","Rain Showers,Fog"
"1989-04-17 16:00","1989","04","17","16:00","11.4","","9.3","","87","","25","","13","","9.7","","99.01","","","","","","Fog"
"1989-04-17 17:00","1989","04","17","17:00","11.8","","9.1","","84","","30","","28","","19.3","","99.04","","","","","","Cloudy"
"1989-04-17 18:00","1989","04","17","18:00","9.9","","6.1","","77","","31","","22","","24.1","","99.17","","","","","","Cloudy"
"1989-04-17 19:00","1989","04","17","19:00","8.0","","5.6","","85","","30","","28","","12.9","","99.27","","","","","","Rain Showers"
"1989-04-17 20:00","1989","04","17","20:00","6.6","","4.4","","86","","31","","22","","16.1","","99.31","","","","","","Rain Showers"
"1989-04-17 21:00","1989","04","17","21:00","6.1","","3.4","","83","","32","","19","","24.1","","99.37","","","","","","Mostly Cloudy"
"1989-04-17 22:00","1989","04","17","22:00","5.8","","3.4","","85","","32","","19","","19.3","","99.44","","","","","","Cloudy"
"1989-04-17 23:00","1989","04","17","23:00","5.0","","1.9","","80","","34","","28","","24.1","","99.44","","","","","","Mostly Cloudy"
"1989-04-18 00:00","1989","04","18","00:00","3.9","","1.3","","83","","32","","26","","24.1","","99.51","","","","","","Mostly Cloudy"
"1989-04-18 01:00","1989","04","18","01:00","2.2","","0.1","","86","","33","","26","","25.0","","99.61","","","","","","Mainly Clear"
"1989-04-18 02:00","1989","04","18","02:00","0.7","","-1.4","","86","","33","","26","","25.0","","99.67","","","","","","Mainly Clear"
"1989-04-18 03:00","1989","04","18","03:00","0.8","","-1.0","","88","","33","","19","","25.0","","99.74","","","","","","Cloudy"
"1989-04-18 04:00","1989","04","18","04:00","0.8","","-3.0","","76","","34","","24","","24.1","","99.77","","","","","","Mostly Cloudy"
"1989-04-18 05:00","1989","04","18","05:00","-0.6","","-5.0","","72","","32","","24","","25.0","","99.81","","","","-7","","Mainly Clear"
"1989-04-18 06:00","1989","04","18","06:00","-1.0","","-6.0","","69","","33","","22","","40.2","","99.91","","","","-7","","Mostly Cloudy"
"1989-04-18 07:00","1989","04","18","07:00","-1.0","","-5.0","","74","","36","","22","","40.2","","99.87","","","","-7","","Mostly Cloudy"
"1989-04-18 08:00","1989","04","18","08:00","-0.3","","-4.1","","75","","34","","20","","40.2","","99.91","","","","-6","","Mostly Cloudy"
"1989-04-18 09:00","1989","04","18","09:00","0.3","","-3.9","","73","","33","","19","","40.2","","99.91","","","","","","Mostly Cloudy"
"1989-04-18 10:00","1989","04","18","10:00","1.3","","-4.1","","67","","33","","17","","40.2","","99.87","","","","","","Mostly Cloudy"
"1989-04-18 11:00","1989","04","18","11:00","2.5","","-3.9","","63","","30","","17","","40.2","","99.87","","","","","","Mostly Cloudy"
"1989-04-18 12:00","1989","04","18","12:00","4.5","","-3.8","","55","","34","","11","","40.2","","99.81","","","","","","Mostly Cloudy"
"1989-04-18 13:00","1989","04","18","13:00","5.3","","-3.0","","55","","33","","9","","40.2","","99.77","","","","","","Cloudy"
"1989-04-18 14:00","1989","04","18","14:00","5.8","","-5.0","","46","","","","0","","40.2","","99.71","","","","","","Mostly Cloudy"
"1989-04-18 15:00","1989","04","18","15:00","6.7","","-7.2","","36","","29","","19","","40.2","","99.64","","","","","","Mostly Cloudy"
"1989-04-18 16:00","1989","04","18","16:00","7.0","","-5.6","","40","","27","","7","","40.2","","99.61","","","","","","Mostly Cloudy"
"1989-04-18 17:00","1989","04","18","17:00","6.9","","-3.4","","48","","31","","11","","40.2","","99.54","","","","","","Mostly Cloudy"
"1989-04-18 18:00","1989","04","18","18:00","5.9","","-4.3","","48","","31","","13","","40.2","","99.54","","","","","","Mostly Cloudy"
"1989-04-18 19:00","1989","04","18","19:00","4.9","","-3.1","","56","","36","","13","","40.2","","99.57","","","","","","Mainly Clear"
"1989-04-18 20:00","1989","04","18","20:00","2.9","","-3.2","","64","","34","","11","","25.0","","99.61","","","","","","Mainly Clear"
"1989-04-18 21:00","1989","04","18","21:00","1.7","","-4.8","","62","","35","","15","","25.0","","99.67","","","","","","Mainly Clear"
"1989-04-18 22:00","1989","04","18","22:00","0.3","","-5.2","","66","","35","","13","","25.0","","99.67","","","","","","Mainly Clear"
"1989-04-18 23:00","1989","04","18","23:00","-1.2","","-2.4","","92","","34","","7","","25.0","","99.64","","","","-4","","Clear"
"1989-04-19 00:00","1989","04","19","00:00","-1.3","","-5.4","","73","","33","","11","","25.0","","99.64","","","","-5","","Clear"
"1989-04-19 01:00","1989","04","19","01:00","-1.4","","-4.5","","79","","33","","9","","25.0","","99.67","","","","-5","","Clear"
"1989-04-19 02:00","1989","04","19","02:00","-1.8","","-5.4","","76","","32","","7","","25.0","","99.64","","","","-4","","Clear"
"1989-04-19 03:00","1989","04","19","03:00","-2.5","","-5.4","","80","","29","","7","","25.0","","99.64","","","","-5","","Clear"
"1989-04-19 04:00","1989","04","19","04:00","-2.0","","-4.5","","83","","26","","6","","25.0","","99.64","","","","-4","","Clear"
"1989-04-19 05:00","1989","04","19","05:00","-0.8","","-3.8","","80","","24","","6","","25.0","","99.64","","","","-3","","Clear"
"1989-04-19 06:00","1989","04","19","06:00","-1.3","","-4.8","","77","","20","","6","","32.2","","99.71","","","","-4","","Clear"
"1989-04-19 07:00","1989","04","19","07:00","0.5","","-3.7","","73","","27","","6","","19.3","","99.77","","","","","","Mainly Clear"
"1989-04-19 08:00","1989","04","19","08:00","3.2","","-1.5","","71","","26","","15","","11.3","","99.81","","","","","","Mostly Cloudy"
"1989-04-19 09:00","1989","04","19","09:00","5.5","","-1.2","","62","","21","","13","","16.1","","99.77","","","","","","Mostly Cloudy"
"1989-04-19 10:00","1989","04","19","10:00","7.7","","-2.7","","47","","26","","20","","24.1","","99.74","","","","","","Mostly Cloudy"
"1989-04-19 11:00","1989","04","19","11:00","9.7","","-1.6","","45","","22","","19","","24.1","","99.71","","","","","","Mostly Cloudy"
"1989-04-19 12:00","1989","04","19","12:00","10.0","","-0.3","","49","","26","","28","","19.3","","99.67","","","","","","Mostly Cloudy"
"1989-04-19 13:00","1989","04","19","13:00","9.2","","-1.8","","46","","28","","26","","19.3","","99.64","","","","","","Mostly Cloudy"
"1989-04-19 14:00","1989","04","19","14:00","9.8","","-1.5","","45","","25","","30","","19.3","","99.57","","","","","","Mostly Cloudy"
"1989-04-19 15:00","1989","04","19","15:00","10.1","","-1.5","","44","","29","","30","","32.2","","99.57","","","","","","Mostly Cloudy"
"1989-04-19 16:00","1989","04","19","16:00","10.4","","-2.0","","42","","29","","35","","40.2","","99.61","","","","","","Mainly Clear"
"1989-04-19 17:00","1989","04","19","17:00","9.2","","-7.6","","30","","29","","33","","40.2","","99.67","","","","","","Mainly Clear"
"1989-04-19 18:00","1989","04","19","18:00","8.1","","-7.0","","33","","30","","31","","40.2","","99.74","","","","","","Mainly Clear"
"1989-04-19 19:00","1989","04","19","19:00","6.1","","-6.5","","40","","30","","22","","40.2","","99.74","","","","","","Clear"
"1989-04-19 20:00","1989","04","19","20:00","4.2","","-5.9","","48","","29","","17","","25.0","","99.81","","","","","","Clear"
"1989-04-19 21:00","1989","04","19","21:00","1.7","","-4.0","","66","","28","","13","","25.0","","99.87","","","","","","Clear"
"1989-04-19 22:00","1989","04","19","22:00","1.1","","-4.8","","65","","27","","13","","25.0","","99.87","","","","","","Clear"
"1989-04-19 23:00","1989","04","19","23:00","0.4","","-5.7","","63","","28","","11","","25.0","","99.87","","","","","","Clear"
"1989-04-20 00:00","1989","04","20","00:00","0.5","","-6.9","","58","","30","","4","","25.0","","99.87","","","","","","Clear"
"1989-04-20 01:00","1989","04","20","01:00","1.6","","-6.1","","56","","30","","4","","25.0","","99.87","","","","","","Clear"
"1989-04-20 02:00","1989","04","20","02:00","0.4","","-6.0","","62","","34","","4","","25.0","","99.91","","","","","","Clear"
"1989-04-20 03:00","1989","04","20","03:00","0.7","","-4.9","","66","","33","","4","","25.0","","99.87","","","","","","Clear"
"1989-04-20 04:00","1989","04","20","04:00","2.3","","-3.2","","67","","30","","4","","25.0","","99.87","","","","","","Mostly Cloudy"
"1989-04-20 05:00","1989","04","20","05:00","1.8","","-3.4","","68","","","","0","","25.0","","99.91","","","","","","Mostly Cloudy"
"1989-04-20 06:00","1989","04","20","06:00","0.4","","-4.1","","72","","","","0","","32.2","","99.91","","","","","","Cloudy"
"1989-04-20 07:00","1989","04","20","07:00","2.2","","-7.5","","48","","","","0","","24.1","","99.97","","","","","","Cloudy"
"1989-04-20 08:00","1989","04","20","08:00","4.2","","-7.1","","43","","18","","6","","24.1","","99.97","","","","","","Mostly Cloudy"
"1989-04-20 09:00","1989","04","20","09:00","5.5","","-5.8","","44","","9","","4","","24.1","","99.97","","","","","","Cloudy"
"1989-04-20 10:00","1989","04","20","10:00","7.6","","0.3","","60","","10","","11","","19.3","","99.94","","","","","","Mainly Clear"
"1989-04-20 11:00","1989","04","20","11:00","8.2","","0.9","","60","","9","","7","","19.3","","99.87","","","","","","Mostly Cloudy"
"1989-04-20 12:00","1989","04","20","12:00","11.2","","1.7","","52","","11","","7","","24.1","","99.74","","","","","","Mainly Clear"
"1989-04-20 13:00","1989","04","20","13:00","14.2","","0.4","","39","","27","","22","","24.1","","99.71","","","","","","Mainly Clear"
"1989-04-20 14:00","1989","04","20","14:00","12.0","","-0.9","","41","","18","","9","","32.2","","99.64","","","","","","Mainly Clear"
"1989-04-20 15:00","1989","04","20","15:00","12.0","","-0.9","","41","","15","","15","","32.2","","99.61","","","","","","Mainly Clear"
"1989-04-20 16:00","1989","04","20","16:00","11.7","","-1.7","","39","","22","","11","","40.2","","99.54","","","","","","Mainly Clear"
"1989-04-20 17:00","1989","04","20","17:00","14.4","","-2.0","","32","","28","","19","","40.2","","99.57","","","","","","Mostly Cloudy"
"1989-04-20 18:00","1989","04","20","18:00","13.6","","-2.4","","33","","28","","19","","40.2","","99.57","","","","","","Mainly Clear"
"1989-04-20 19:00","1989","04","20","19:00","7.8","","-3.9","","43","","13","","6","","32.2","","99.64","","","","","","Mostly Cloudy"
"1989-04-20 20:00","1989","04","20","20:00","8.5","","-5.3","","37","","35","","13","","25.0","","99.67","","","","","","Mostly Cloudy"
"1989-04-20 21:00","1989","04","20","21:00","6.5","","-3.5","","49","","35","","9","","24.1","","99.71","","","","","","Cloudy"
"1989-04-20 22:00","1989","04","20","22:00","6.0","","-3.6","","50","","33","","11","","25.0","","99.64","","","","","","Cloudy"
"1989-04-20 23:00","1989","04","20","23:00","5.1","","-3.7","","53","","34","","13","","25.0","","99.67","","","","","","Cloudy"
"1989-04-21 00:00","1989","04","21","00:00","5.4","","-5.0","","47","","35","","17","","25.0","","99.71","","","","","","Cloudy"
"1989-04-21 01:00","1989","04","21","01:00","4.3","","-3.8","","56","","32","","9","","25.0","","99.71","","","","","","Cloudy"
"1989-04-21 02:00","1989","04","21","02:00","3.4","","-4.5","","56","","32","","11","","25.0","","99.71","","","","","","Cloudy"
"1989-04-21 03:00","1989","04","21","03:00","2.4","","-4.6","","60","","33","","13","","25.0","","99.71","","","","","","Cloudy"
"1989-04-21 04:00","1989","04","21","04:00","1.9","","-5.3","","59","","33","","11","","25.0","","99.71","","","","","","Cloudy"
"1989-04-21 05:00","1989","04","21","05:00","1.8","","-4.7","","62","","31","","7","","25.0","","99.71","","","","","","Mainly Clear"
"1989-04-21 06:00","1989","04","21","06:00","0.9","","-6.9","","56","","32","","6","","24.1","","99.74","","","","","","Mainly Clear"
"1989-04-21 07:00","1989","04","21","07:00","4.5","","-4.4","","52","","33","","13","","40.2","","99.77","","","","","","Clear"
"1989-04-21 08:00","1989","04","21","08:00","7.5","","0.8","","62","","33","","11","","40.2","","99.77","","","","","","Clear"
"1989-04-21 09:00","1989","04","21","09:00","9.1","","0.0","","53","","30","","17","","40.2","","99.77","","","","","","Clear"
"1989-04-21 10:00","1989","04","21","10:00","9.8","","0.3","","52","","36","","9","","40.2","","99.77","","","","","","Clear"
"1989-04-21 11:00","1989","04","21","11:00","12.0","","-5.1","","30","","31","","20","","40.2","","99.77","","","","","","Clear"
"1989-04-21 12:00","1989","04","21","12:00","12.1","","-7.7","","24","","33","","15","","40.2","","99.77","","","","","","Mainly Clear"
"1989-04-21 13:00","1989","04","21","13:00","11.6","","-6.1","","28","","1","","22","","40.2","","99.74","","","","","","Mainly Clear"
"1989-04-21 14:00","1989","04","21","14:00","12.5","","-6.6","","26","","36","","33","","40.2","","99.74","","","","","","Clear"
"1989-04-21 15:00","1989","04","21","15:00","11.1","","-8.0","","25","","34","","37","","40.2","","99.71","","","","","","Clear"
"1989-04-21 16:00","1989","04","21","16:00","11.2","","-8.0","","25","","34","","39","","40.2","","99.71","","","","","","Clear"
"1989-04-21 17:00","1989","04","21","17:00","9.0","","-11.7","","22","","34","","37","","40.2","","99.77","","","","","","Clear"
"1989-04-21 18:00","1989","04","21","18:00","7.4","","-11.9","","24","","33","","35","","40.2","","99.77","","","","","","Clear"
"1989-04-21 19:00","1989","04","21","19:00","5.7","","-10.0","","31","","34","","24","","40.2","","99.84","","","","","","Clear"
"1989-04-21 20:00","1989","04","21","20:00","4.0","","-7.1","","44","","33","","19","","25.0","","99.91","","","","","","Clear"
"1989-04-21 21:00","1989","04","21","21:00","2.3","","-7.4","","49","","32","","17","","25.0","","99.94","","","","","","Clear"
"1989-04-21 22:00","1989","04","21","22:00","2.0","","-8.2","","47","","34","","24","","25.0","","99.94","","","","","","Clear"
"1989-04-21 23:00","1989","04","21","23:00","0.9","","-8.4","","50","","35","","11","","25.0","","99.94","","","","","","Clear"
"1989-04-22 00:00","1989","04","22","00:00","-0.6","","-9.7","","50","","35","","13","","25.0","","99.97","","","","-5","","Clear"
"1989-04-22 01:00","1989","04","22","01:00","-0.2","","-8.4","","54","","35","","11","","25.0","","99.91","","","","-4","","Clear"
"1989-04-22 02:00","1989","04","22","02:00","-0.3","","-7.4","","59","","30","","4","","25.0","","99.84","","","","-2","","Clear"
"1989-04-22 03:00","1989","04","22","03:00","-2.7","","-9.6","","59","","32","","9","","25.0","","99.84","","","","-6","","Clear"
"1989-04-22 04:00","1989","04","22","04:00","-1.6","","-6.7","","68","","30","","9","","25.0","","99.87","","","","-5","","Clear"
"1989-04-22 05:00","1989","04","22","05:00","-1.6","","-6.4","","70","","34","","15","","25.0","","99.91","","","","-6","","Mainly Clear"
"1989-04-22 06:00","1989","04","22","06:00","-1.8","","-6.4","","71","","34","","17","","24.1","","99.94","","","","-7","","Mostly Cloudy"
"1989-04-22 07:00","1989","04","22","07:00","0.0","","-5.9","","64","","1","","17","","32.2","","100.01","","","","-5","","Mostly Cloudy"
"1989-04-22 08:00","1989","04","22","08:00","2.4","","-9.0","","43","","35","","20","","40.2","","100.01","","","","","","Mainly Clear"
"1989-04-22 09:00","1989","04","22","09:00","3.5","","-9.7","","37","","36","","30","","40.2","","99.97","","","","","","Mainly Clear"
"1989-04-22 10:00","1989","04","22","10:00","4.3","","-7.7","","41","","36","","26","","40.2","","100.01","","","","","","Clear"
"1989-04-22 11:00","1989","04","22","11:00","4.1","","-10.5","","33","","35","","26","","40.2","","100.01","","","","","","Clear"
"1989-04-22 12:00","1989","04","22","12:00","5.0","","-10.2","","32","","35","","28","","40.2","","99.97","","","","","","Clear"
"1989-04-22 13:00","1989","04","22","13:00","4.8","","-9.3","","35","","33","","24","","40.2","","99.97","","","","","","Mainly Clear"
"1989-04-22 14:00","1989","04","22","14:00","5.0","","-10.0","","33","","33","","19","","40.2","","99.97","","","","","","Clear"
"1989-04-22 15:00","1989","04","22","15:00","5.0","","-9.3","","35","","34","","22","","40.2","","99.91","","","","","","Clear"
"1989-04-22 16:00","1989","04","22","16:00","5.0","","-9.3","","35","","35","","24","","40.2","","99.91","","","","","","Clear"
"1989-04-22 17:00","1989","04","22","17:00","4.2","","-10.5","","33","","34","","28","","40.2","","99.94","","","","","","Clear"
"1989-04-22 18:00","1989","04","22","18:00","3.2","","-11.7","","32","","33","","24","","40.2","","99.97","","","","","","Clear"
"1989-04-22 19:00","1989","04","22","19:00","1.4","","-10.9","","39","","35","","26","","40.2","","99.97","","","","","","Clear"
"1989-04-22 20:00","1989","04","22","20:00","0.2","","-9.7","","47","","35","","20","","25.0","","99.97","","","","","","Clear"
"1989-04-22 21:00","1989","04","22","21:00","-0.4","","-9.9","","49","","34","","20","","25.0","","99.97","","","","-6","","Clear"
"1989-04-22 22:00","1989","04","22","22:00","-0.5","","-11.0","","45","","33","","22","","25.0","","99.94","","","","-6","","Clear"
"1989-04-22 23:00","1989","04","22","23:00","-1.5","","-10.5","","50","","32","","15","","25.0","","99.91","","","","-6","","Clear"
"1989-04-23 00:00","1989","04","23","00:00","-1.7","","-8.9","","58","","33","","15","","25.0","","99.94","","","","-7","","Clear"
"1989-04-23 01:00","1989","04","23","01:00","-1.9","","-8.5","","60","","32","","13","","25.0","","99.94","","","","-6","","Clear"
"1989-04-23 02:00","1989","04","23","02:00","-2.1","","-7.0","","69","","30","","11","","25.0","","99.87","","","","-6","","Clear"
"1989-04-23 03:00","1989","04","23","03:00","-2.5","","-8.1","","65","","29","","9","","25.0","","99.87","","","","-6","","Clear"
"1989-04-23 04:00","1989","04","23","04:00","-2.2","","-8.5","","62","","28","","6","","25.0","","99.87","","","","-5","","Clear"
"1989-04-23 05:00","1989","04","23","05:00","-2.5","","-7.4","","69","","31","","11","","25.0","","99.87","","","","-7","","Clear"
"1989-04-23 06:00","1989","04","23","06:00","-2.5","","-7.4","","69","","31","","11","","32.2","","99.97","","","","-7","","Clear"
"1989-04-23 07:00","1989","04","23","07:00","-0.3","","-6.0","","65","","34","","20","","40.2","","99.97","","","","-6","","Clear"
"1989-04-23 08:00","1989","04","23","08:00","1.5","","-3.5","","69","","36","","28","","40.2","","100.01","","","","","","Clear"
"1989-04-23 09:00","1989","04","23","09:00","2.9","","-0.9","","76","","34","","19","","40.2","","100.01","","","","","","Clear"
"1989-04-23 10:00","1989","04","23","10:00","4.3","","-0.8","","70","","33","","20","","40.2","","99.97","","","","","","Clear"
"1989-04-23 11:00","1989","04","23","11:00","6.1","","-0.6","","62","","32","","22","","40.2","","99.91","","","","","","Clear"
"1989-04-23 12:00","1989","04","23","12:00","7.2","","-1.5","","54","","34","","22","","40.2","","99.87","","","","","","Clear"
"1989-04-23 13:00","1989","04","23","13:00","8.4","","-1.9","","48","","34","","37","","40.2","","99.77","","","","","","Clear"
"1989-04-23 14:00","1989","04","23","14:00","9.0","","-3.0","","43","","33","","33","","40.2","","99.77","","","","","","Clear"
"1989-04-23 15:00","1989","04","23","15:00","9.6","","-4.3","","37","","34","","28","","40.2","","99.74","","","","","","Clear"
"1989-04-23 16:00","1989","04","23","16:00","8.5","","-6.1","","35","","32","","30","","40.2","","99.74","","","","","","Clear"
"1989-04-23 17:00","1989","04","23","17:00","8.2","","-6.2","","35","","33","","28","","40.2","","99.77","","","","","","Clear"
"1989-04-23 18:00","1989","04","23","18:00","7.3","","-5.5","","40","","34","","24","","40.2","","99.71","","","","","","Clear"
"1989-04-23 19:00","1989","04","23","19:00","5.8","","-5.7","","43","","33","","20","","40.2","","99.71","","","","","","Clear"
"1989-04-23 20:00","1989","04","23","20:00","3.4","","-5.9","","51","","33","","17","","25.0","","99.77","","","","","","Clear"
"1989-04-23 21:00","1989","04","23","21:00","0.5","","-8.4","","51","","33","","15","","25.0","","99.77","","","","","","Clear"
"1989-04-23 22:00","1989","04","23","22:00","-0.5","","-8.1","","56","","32","","11","","25.0","","99.77","","","","-4","","Clear"
"1989-04-23 23:00","1989","04","23","23:00","1.1","","-9.2","","46","","29","","4","","25.0","","99.77","","","","","","Clear"
"1989-04-24 00:00","1989","04","24","00:00","0.7","","-10.1","","44","","","","0","","25.0","","99.74","","","","","","Clear"
"1989-04-24 01:00","1989","04","24","01:00","-0.1","","-9.0","","51","","","","0","","25.0","","99.74","","","","","","Clear"
"1989-04-24 02:00","1989","04","24","02:00","-1.8","","-10.1","","53","","34","","9","","25.0","","99.77","","","","-5","","Clear"
"1989-04-24 03:00","1989","04","24","03:00","-3.1","","-8.8","","65","","33","","11","","25.0","","99.77","","","","-7","","Clear"
"1989-04-24 04:00","1989","04","24","04:00","-2.2","","-7.0","","70","","32","","7","","25.0","","99.81","","","","-5","","Clear"
"1989-04-24 05:00","1989","04","24","05:00","-2.0","","-7.4","","66","","31","","4","","25.0","","99.84","","","","-3","","Mainly Clear"
"1989-04-24 06:00","1989","04","24","06:00","-1.3","","-7.4","","63","","","","0","","32.2","","99.84","","","","","","Mostly Cloudy"
"1989-04-24 07:00","1989","04","24","07:00","-0.2","","-5.2","","69","","30","","4","","40.2","","99.84","","","","-1","","Mainly Clear"
"1989-04-24 08:00","1989","04","24","08:00","4.0","","-7.4","","43","","33","","11","","40.2","","99.77","","","","","","Mostly Cloudy"
"1989-04-24 09:00","1989","04","24","09:00","6.0","","-2.9","","53","","33","","19","","40.2","","99.81","","","","","","Mostly Cloudy"
"1989-04-24 10:00","1989","04","24","10:00","6.7","","-4.2","","45","","32","","9","","40.2","","99.81","","","","","","Mostly Cloudy"
"1989-04-24 11:00","1989","04","24","11:00","8.0","","-3.9","","43","","30","","15","","40.2","","99.77","","","","","","Mostly Cloudy"
"1989-04-24 12:00","1989","04","24","12:00","10.5","","-2.7","","39","","24","","19","","40.2","","99.71","","","","","","Mostly Cloudy"
"1989-04-24 13:00","1989","04","24","13:00","11.7","","-5.3","","30","","29","","19","","40.2","","99.61","","","","","","Mainly Clear"
"1989-04-24 14:00","1989","04","24","14:00","13.3","","-3.1","","32","","28","","26","","40.2","","99.51","","","","","","Mostly Cloudy"
"1989-04-24 15:00","1989","04","24","15:00","14.2","","-3.6","","29","","30","","35","","40.2","","99.47","","","","","","Mostly Cloudy"
"1989-04-24 16:00","1989","04","24","16:00","14.4","","-4.2","","27","","29","","20","","40.2","","99.41","","","","","","Mostly Cloudy"
"1989-04-24 17:00","1989","04","24","17:00","14.1","","-5.2","","26","","30","","22","","40.2","","99.37","","","","","","Mostly Cloudy"
"1989-04-24 18:00","1989","04","24","18:00","14.0","","-3.6","","29","","29","","22","","40.2","","99.34","","","","","","Mostly Cloudy"
"1989-04-24 19:00","1989","04","24","19:00","12.3","","-3.4","","33","","36","","17","","40.2","","99.37","","","","","","Mostly Cloudy"
"1989-04-24 20:00","1989","04","24","20:00","10.1","","-4.2","","36","","33","","15","","25.0","","99.44","","","","","","Cloudy"
"1989-04-24 21:00","1989","04","24","21:00","8.9","","-5.2","","36","","34","","13","","25.0","","99.47","","","","","","Mostly Cloudy"
"1989-04-24 22:00","1989","04","24","22:00","6.9","","-4.8","","43","","33","","7","","25.0","","99.44","","","","","","Mostly Cloudy"
"1989-04-24 23:00","1989","04","24","23:00","5.8","","-3.6","","51","","33","","4","","25.0","","99.41","","","","","","Mostly Cloudy"
"1989-04-25 00:00","1989","04","25","00:00","6.1","","-4.3","","47","","33","","6","","25.0","","99.37","","","","","","Mostly Cloudy"
"1989-04-25 01:00","1989","04","25","01:00","7.7","","-2.1","","50","","32","","7","","25.0","","99.37","","","","","","Mostly Cloudy"
"1989-04-25 02:00","1989","04","25","02:00","6.8","","-1.0","","58","","34","","6","","24.1","","99.37","","","","","","Rain Showers"
"1989-04-25 03:00","1989","04","25","03:00","6.2","","3.0","","80","","1","","9","","19.3","","99.31","","","","","","Rain Showers"
"1989-04-25 04:00","1989","04","25","04:00","5.4","","2.9","","84","","35","","4","","19.3","","99.37","","","","","","Rain Showers"
"1989-04-25 05:00","1989","04","25","05:00","5.7","","2.4","","79","","34","","6","","19.3","","99.51","","","","","","Rain Showers"
"1989-04-25 06:00","1989","04","25","06:00","6.1","","2.0","","75","","2","","15","","24.1","","99.51","","","","","","Mostly Cloudy"
"1989-04-25 07:00","1989","04","25","07:00","6.6","","1.6","","70","","2","","11","","32.2","","99.54","","","","","","Rain Showers"
"1989-04-25 08:00","1989","04","25","08:00","6.7","","1.6","","70","","3","","6","","40.2","","99.54","","","","","","Cloudy"
"1989-04-25 09:00","1989","04","25","09:00","7.9","","1.4","","63","","9","","4","","16.1","","99.51","","","","","","Mostly Cloudy"
"1989-04-25 10:00","1989","04","25","10:00","9.7","","1.8","","58","","5","","4","","19.3","","99.51","","","","","","Mostly Cloudy"
"1989-04-25 11:00","1989","04","25","11:00","9.9","","2.4","","60","","14","","11","","12.9","","99.44","","","","","","Cloudy"
"1989-04-25 12:00","1989","04","25","12:00","9.6","","0.7","","54","","16","","9","","24.1","","99.37","","","","","","Mostly Cloudy"
"1989-04-25 13:00","1989","04","25","13:00","10.7","","0.4","","49","","10","","9","","32.2","","99.31","","","","","","Mainly Clear"
"1989-04-25 14:00","1989","04","25","14:00","12.0","","2.5","","52","","14","","6","","32.2","","99.31","","","","","","Mainly Clear"
"1989-04-25 15:00","1989","04","25","15:00","12.8","","1.7","","47","","","","0","","32.2","","99.21","","","","","","Mainly Clear"
"1989-04-25 16:00","1989","04","25","16:00","13.9","","1.0","","41","","20","","6","","32.2","","99.17","","","","","","Clear"
"1989-04-25 17:00","1989","04","25","17:00","13.5","","2.5","","47","","15","","15","","32.2","","99.17","","","","","","Clear"
"1989-04-25 18:00","1989","04","25","18:00","11.7","","1.3","","49","","16","","15","","24.1","","99.17","","","","","","Clear"
"1989-04-25 19:00","1989","04","25","19:00","9.2","","3.6","","68","","14","","11","","24.1","","99.24","","","","","","Mainly Clear"
"1989-04-25 20:00","1989","04","25","20:00","7.0","","2.2","","72","","","","0","","24.1","","99.24","","","","","","Mostly Cloudy"
"1989-04-25 21:00","1989","04","25","21:00","8.8","","1.7","","61","","","","0","","24.1","","99.21","","","","","","Mostly Cloudy"
"1989-04-25 22:00","1989","04","25","22:00","8.4","","2.5","","66","","29","","4","","24.1","","99.21","","","","","","Mostly Cloudy"
"1989-04-25 23:00","1989","04","25","23:00","7.8","","2.4","","69","","31","","4","","19.3","","99.21","","","","","","Mostly Cloudy"
"1989-04-26 00:00","1989","04","26","00:00","7.2","","1.7","","68","","32","","7","","16.1","","99.11","","","","","","Mostly Cloudy"
"1989-04-26 01:00","1989","04","26","01:00","7.8","","3.4","","74","","34","","15","","19.3","","99.11","","","","","","Mostly Cloudy"
"1989-04-26 02:00","1989","04","26","02:00","8.3","","3.0","","69","","35","","17","","24.1","","99.11","","","","","","Mostly Cloudy"
"1989-04-26 03:00","1989","04","26","03:00","8.3","","2.0","","65","","33","","15","","25.0","","99.14","","","","","","Cloudy"
"1989-04-26 04:00","1989","04","26","04:00","8.0","","0.9","","61","","33","","11","","25.0","","99.21","","","","","","Cloudy"
"1989-04-26 05:00","1989","04","26","05:00","8.0","","0.4","","59","","35","","15","","25.0","","99.27","","","","","","Mostly Cloudy"
"1989-04-26 06:00","1989","04","26","06:00","8.1","","-1.4","","51","","35","","19","","32.2","","99.37","","","","","","Mostly Cloudy"
"1989-04-26 07:00","1989","04","26","07:00","8.0","","-2.0","","49","","1","","17","","40.2","","99.44","","","","","","Mostly Cloudy"
"1989-04-26 08:00","1989","04","26","08:00","10.4","","-2.0","","42","","1","","17","","40.2","","99.41","","","","","","Mainly Clear"
"1989-04-26 09:00","1989","04","26","09:00","12.7","","-4.2","","30","","1","","9","","40.2","","99.41","","","","","","Mostly Cloudy"
"1989-04-26 10:00","1989","04","26","10:00","14.4","","-3.4","","29","","35","","6","","40.2","","99.41","","","","","","Mainly Clear"
"1989-04-26 11:00","1989","04","26","11:00","15.3","","-5.4","","24","","29","","6","","40.2","","99.41","","","","","","Mainly Clear"
"1989-04-26 12:00","1989","04","26","12:00","16.0","","-2.8","","27","","16","","9","","40.2","","99.34","","","","","","Clear"
"1989-04-26 13:00","1989","04","26","13:00","15.9","","-2.8","","28","","8","","9","","40.2","","99.34","","","","","","Clear"
"1989-04-26 14:00","1989","04","26","14:00","18.1","","-1.8","","26","","33","","19","","40.2","","99.34","","","","","","Clear"
"1989-04-26 15:00","1989","04","26","15:00","19.0","","-0.6","","27","","32","","24","","40.2","","99.34","","","","","","Clear"
"1989-04-26 16:00","1989","04","26","16:00","18.4","","-3.1","","23","","35","","19","","40.2","","99.31","","","","","","Clear"
"1989-04-26 17:00","1989","04","26","17:00","17.4","","0.0","","31","","36","","26","","40.2","","99.34","","","","","","Mainly Clear"
"1989-04-26 18:00","1989","04","26","18:00","15.5","","-0.3","","34","","36","","22","","40.2","","99.31","","","","","","Mainly Clear"
"1989-04-26 19:00","1989","04","26","19:00","13.6","","-0.4","","38","","36","","20","","40.2","","99.34","","","","","","Mostly Cloudy"
"1989-04-26 20:00","1989","04","26","20:00","11.2","","-0.6","","44","","1","","11","","25.0","","99.34","","","","","","Mainly Clear"
"1989-04-26 21:00","1989","04","26","21:00","10.0","","-2.8","","41","","35","","15","","25.0","","99.41","","","","","","Mainly Clear"
"1989-04-26 22:00","1989","04","26","22:00","8.5","","-3.8","","42","","34","","17","","25.0","","99.41","","","","","","Clear"
"1989-04-26 23:00","1989","04","26","23:00","7.5","","-3.4","","46","","34","","19","","25.0","","99.41","","","","","","Clear"
"1989-04-27 00:00","1989","04","27","00:00","5.6","","-3.0","","54","","33","","13","","25.0","","99.34","","","","","","Mostly Cloudy"
"1989-04-27 01:00","1989","04","27","01:00","5.4","","-1.8","","60","","32","","11","","25.0","","99.31","","","","","","Mostly Cloudy"
"1989-04-27 02:00","1989","04","27","02:00","6.5","","-2.2","","54","","34","","13","","25.0","","99.31","","","","","","Cloudy"
"1989-04-27 03:00","1989","04","27","03:00","7.4","","-2.7","","49","","36","","15","","25.0","","99.31","","","","","","Cloudy"
"1989-04-27 04:00","1989","04","27","04:00","6.9","","-2.2","","52","","35","","11","","25.0","","99.31","","","","","","Mostly Cloudy"
"1989-04-27 05:00","1989","04","27","05:00","7.2","","-2.8","","49","","35","","15","","25.0","","99.34","","","","","","Mostly Cloudy"
"1989-04-27 06:00","1989","04","27","06:00","7.2","","-1.0","","56","","34","","9","","40.2","","99.31","","","","","","Cloudy"
"1989-04-27 07:00","1989","04","27","07:00","8.3","","-0.7","","53","","36","","9","","32.2","","99.34","","","","","","Cloudy"
"1989-04-27 08:00","1989","04","27","08:00","10.2","","-0.9","","46","","3","","4","","24.1","","99.34","","","","","","Mostly Cloudy"
"1989-04-27 09:00","1989","04","27","09:00","11.8","","-0.9","","41","","","","0","","24.1","","99.31","","","","","","Cloudy"
"1989-04-27 10:00","1989","04","27","10:00","12.2","","-2.9","","35","","","","0","","24.1","","99.27","","","","","","Mostly Cloudy"
"1989-04-27 11:00","1989","04","27","11:00","13.2","","-3.3","","32","","","","0","","24.1","","99.34","","","","","","Mostly Cloudy"
"1989-04-27 12:00","1989","04","27","12:00","11.8","","-0.9","","41","","15","","13","","24.1","","99.27","","","","","","Mostly Cloudy"
"1989-04-27 13:00","1989","04","27","13:00","11.3","","-1.1","","42","","18","","11","","24.1","","99.27","","","","","","Cloudy"
"1989-04-27 14:00","1989","04","27","14:00","12.9","","-3.3","","32","","18","","9","","24.1","","99.24","","","","","","Mostly Cloudy"
"1989-04-27 15:00","1989","04","27","15:00","15.6","","1.0","","37","","34","","31","","40.2","","99.21","","","","","","Mostly Cloudy"
"1989-04-27 16:00","1989","04","27","16:00","14.7","","-1.3","","33","","34","","26","","40.2","","99.24","","","","","","Mainly Clear"
"1989-04-27 17:00","1989","04","27","17:00","14.1","","-0.9","","36","","33","","28","","40.2","","99.21","","","","","","Clear"
"1989-04-27 18:00","1989","04","27","18:00","12.5","","-2.7","","35","","33","","31","","40.2","","99.24","","","","","","Clear"
"1989-04-27 19:00","1989","04","27","19:00","10.7","","-1.4","","43","","35","","30","","40.2","","99.31","","","","","","Clear"
"1989-04-27 20:00","1989","04","27","20:00","8.7","","-1.9","","47","","35","","22","","25.0","","99.34","","","","","","Clear"
"1989-04-27 21:00","1989","04","27","21:00","7.0","","-1.5","","55","","34","","20","","25.0","","99.41","","","","","","Clear"
"1989-04-27 22:00","1989","04","27","22:00","5.4","","-1.8","","60","","34","","20","","25.0","","99.47","","","","","","Clear"
"1989-04-27 23:00","1989","04","27","23:00","5.0","","-1.3","","64","","35","","20","","25.0","","99.41","","","","","","Clear"
"1989-04-28 00:00","1989","04","28","00:00","3.7","","-2.0","","66","","34","","17","","25.0","","99.47","","","","","","Clear"
"1989-04-28 01:00","1989","04","28","01:00","2.0","","-2.1","","74","","34","","11","","25.0","","99.51","","","","","","Clear"
"1989-04-28 02:00","1989","04","28","02:00","1.8","","-2.1","","75","","35","","6","","25.0","","99.51","","","","","","Clear"
"1989-04-28 03:00","1989","04","28","03:00","0.0","","-2.6","","83","","33","","7","","25.0","","99.57","","","","-2","","Clear"
"1989-04-28 04:00","1989","04","28","04:00","0.0","","-2.6","","83","","33","","9","","25.0","","99.61","","","","-3","","Clear"
"1989-04-28 05:00","1989","04","28","05:00","0.4","","-2.1","","83","","36","","13","","25.0","","99.47","","","","","","Clear"
"1989-04-28 06:00","1989","04","28","06:00","0.5","","-2.0","","83","","36","","13","","40.2","","99.51","","","","","","Mostly Cloudy"
"1989-04-28 07:00","1989","04","28","07:00","2.5","","-0.9","","78","","1","","9","","40.2","","99.57","","","","","","Mostly Cloudy"
"1989-04-28 08:00","1989","04","28","08:00","5.1","","-1.8","","61","","13","","9","","40.2","","99.54","","","","","","Mostly Cloudy"
"1989-04-28 09:00","1989","04","28","09:00","6.5","","0.1","","64","","9","","19","","40.2","","99.51","","","","","","Mainly Clear"
"1989-04-28 10:00","1989","04","28","10:00","6.3","","-0.5","","62","","14","","19","","40.2","","99.54","","","","","","Mostly Cloudy"
"1989-04-28 11:00","1989","04","28","11:00","6.0","","-0.6","","62","","14","","17","","40.2","","99.51","","","","","","Mostly Cloudy"
"1989-04-28 12:00","1989","04","28","12:00","6.4","","-0.5","","61","","12","","17","","40.2","","99.47","","","","","","Mostly Cloudy"
"1989-04-28 13:00","1989","04","28","13:00","7.6","","-0.9","","55","","19","","7","","32.2","","99.44","","","","","","Cloudy"
"1989-04-28 14:00","1989","04","28","14:00","8.0","","-0.8","","54","","3","","13","","32.2","","99.44","","","","","","Cloudy"
"1989-04-28 15:00","1989","04","28","15:00","8.4","","-1.3","","51","","13","","17","","24.1","","99.41","","","","","","Mostly Cloudy"
"1989-04-28 16:00","1989","04","28","16:00","7.4","","-2.1","","51","","13","","19","","24.1","","99.34","","","","","","Mostly Cloudy"
"1989-04-28 17:00","1989","04","28","17:00","7.5","","-2.1","","50","","13","","17","","32.2","","99.37","","","","","","Mostly Cloudy"
"1989-04-28 18:00","1989","04","28","18:00","6.9","","-2.8","","50","","13","","15","","24.1","","99.34","","","","","","Mostly Cloudy"
"1989-04-28 19:00","1989","04","28","19:00","6.2","","-3.6","","49","","10","","11","","32.2","","99.37","","","","","","Mostly Cloudy"
"1989-04-28 20:00","1989","04","28","20:00","6.7","","-4.2","","45","","12","","11","","25.0","","99.41","","","","","","Cloudy"
"1989-04-28 21:00","1989","04","28","21:00","6.5","","-2.9","","51","","15","","9","","25.0","","99.44","","","","","","Cloudy"
"1989-04-28 22:00","1989","04","28","22:00","5.9","","-3.6","","50","","13","","7","","25.0","","99.47","","","","","","Cloudy"
"1989-04-28 23:00","1989","04","28","23:00","6.3","","-3.5","","49","","7","","11","","25.0","","99.41","","","","","","Cloudy"
"1989-04-29 00:00","1989","04","29","00:00","6.4","","-4.2","","47","","7","","11","","25.0","","99.44","","","","","","Cloudy"
"1989-04-29 01:00","1989","04","29","01:00","6.3","","-4.2","","47","","8","","11","","25.0","","99.37","","","","","","Cloudy"
"1989-04-29 02:00","1989","04","29","02:00","6.3","","-4.2","","47","","8","","15","","25.0","","99.37","","","","","","Cloudy"
"1989-04-29 03:00","1989","04","29","03:00","6.2","","-4.3","","47","","8","","22","","25.0","","99.34","","","","","","Mostly Cloudy"
"1989-04-29 04:00","1989","04","29","04:00","6.5","","-3.5","","49","","8","","20","","25.0","","99.34","","","","","","Cloudy"
"1989-04-29 05:00","1989","04","29","05:00","6.9","","-3.4","","48","","8","","19","","25.0","","99.34","","","","","","Mostly Cloudy"
"1989-04-29 06:00","1989","04","29","06:00","7.0","","-3.4","","47","","8","","22","","40.2","","99.41","","","","","","Cloudy"
"1989-04-29 07:00","1989","04","29","07:00","7.2","","-3.4","","47","","8","","20","","40.2","","99.44","","","","","","Cloudy"
"1989-04-29 08:00","1989","04","29","08:00","7.8","","-2.6","","48","","8","","22","","40.2","","99.41","","","","","","Cloudy"
"1989-04-29 09:00","1989","04","29","09:00","8.6","","-1.9","","48","","8","","20","","40.2","","99.41","","","","","","Cloudy"
"1989-04-29 10:00","1989","04","29","10:00","8.9","","-2.4","","45","","7","","19","","40.2","","99.37","","","","","","Cloudy"
"1989-04-29 11:00","1989","04","29","11:00","9.6","","-2.9","","41","","9","","19","","40.2","","99.34","","","","","","Cloudy"
"1989-04-29 12:00","1989","04","29","12:00","9.2","","-2.4","","44","","9","","20","","40.2","","99.34","","","","","","Cloudy"
"1989-04-29 13:00","1989","04","29","13:00","10.0","","-1.5","","45","","9","","22","","40.2","","99.31","","","","","","Cloudy"
"1989-04-29 14:00","1989","04","29","14:00","9.6","","-1.6","","45","","9","","19","","40.2","","99.31","","","","","","Cloudy"
"1989-04-29 15:00","1989","04","29","15:00","9.1","","-1.8","","46","","9","","24","","40.2","","99.34","","","","","","Cloudy"
"1989-04-29 16:00","1989","04","29","16:00","8.4","","-0.1","","55","","10","","26","","32.2","","99.34","","","","","","Rain Showers"
"1989-04-29 17:00","1989","04","29","17:00","5.5","","4.2","","91","","8","","15","","6.4","","99.41","","","","","","Moderate Rain Showers,Fog"
"1989-04-29 18:00","1989","04","29","18:00","5.8","","4.8","","93","","3","","7","","8.0","","99.41","","","","","","Rain Showers,Fog"
"1989-04-29 19:00","1989","04","29","19:00","6.2","","4.3","","87","","8","","13","","12.9","","99.34","","","","","","Rain Showers"
"1989-04-29 20:00","1989","04","29","20:00","6.4","","4.9","","90","","7","","9","","8.0","","99.41","","","","","","Rain Showers,Fog"
"1989-04-29 21:00","1989","04","29","21:00","6.9","","5.0","","88","","6","","7","","12.9","","99.41","","","","","","Cloudy"
"1989-04-29 22:00","1989","04","29","22:00","7.0","","5.0","","87","","31","","7","","12.9","","99.44","","","","","","Cloudy"
"1989-04-29 23:00","1989","04","29","23:00","6.8","","5.4","","91","","36","","7","","12.9","","99.47","","","","","","Cloudy"
"1989-04-30 00:00","1989","04","30","00:00","7.1","","5.4","","89","","4","","6","","11.3","","99.44","","","","","","Cloudy"
"1989-04-30 01:00","1989","04","30","01:00","7.1","","5.8","","91","","3","","4","","9.7","","99.41","","","","","","Fog"
"1989-04-30 02:00","1989","04","30","02:00","7.0","","5.8","","92","","3","","7","","4.8","","99.37","","","","","","Fog"
"1989-04-30 03:00","1989","04","30","03:00","6.8","","6.2","","96","","30","","4","","4.8","","99.41","","","","","","Fog"
"1989-04-30 04:00","1989","04","30","04:00","6.5","","6.1","","97","","","","0","","3.2","","99.41","","","","","","Fog"
"1989-04-30 05:00","1989","04","30","05:00","6.5","","6.5","","100","","29","","4","","0.4","","99.47","","","","","","Fog"
"1989-04-30 06:00","1989","04","30","06:00","6.7","","6.7","","100","","34","","7","","0.8","","99.54","","","","","","Fog"
"1989-04-30 07:00","1989","04","30","07:00","7.0","","7.0","","100","","34","","7","","2.0","","99.57","","","","","","Drizzle,Fog"
"1989-04-30 08:00","1989","04","30","08:00","7.5","","7.1","","97","","","","0","","2.8","","99.64","","","","","","Fog"
"1989-04-30 09:00","1989","04","30","09:00","8.3","","7.7","","96","","","","0","","4.0","","99.64","","","","","","Fog"
"1989-04-30 10:00","1989","04","30","10:00","9.4","","8.0","","91","","18","","4","","4.8","","99.67","","","","","","Fog"
"1989-04-30 11:00","1989","04","30","11:00","10.1","","8.1","","87","","19","","9","","4.8","","99.71","","","","","","Fog"
"1989-04-30 12:00","1989","04","30","12:00","11.2","","8.8","","85","","21","","6","","4.8","","99.67","","","","","","Fog"
"1989-04-30 13:00","1989","04","30","13:00","13.1","","9.4","","78","","18","","13","","8.0","","99.64","","","","","","Haze"
"1989-04-30 14:00","1989","04","30","14:00","13.0","","9.4","","79","","17","","15","","9.7","","99.77","","","","","","Haze"
"1989-04-30 15:00","1989","04","30","15:00","14.5","","10.0","","74","","25","","24","","8.0","","99.71","","","","","","Haze"
"1989-04-30 16:00","1989","04","30","16:00","14.4","","10.0","","75","","24","","26","","8.0","","99.77","","","","","","Haze"
"1989-04-30 17:00","1989","04","30","17:00","13.4","","9.6","","78","","27","","22","","8.0","","99.81","","","","","","Haze"
"1989-04-30 18:00","1989","04","30","18:00","14.0","","6.9","","62","","26","","15","","11.3","","99.81","","","","","","Mostly Cloudy"
"1989-04-30 19:00","1989","04","30","19:00","13.1","","6.6","","65","","28","","15","","12.9","","99.84","","","","","","Mostly Cloudy"
"1989-04-30 20:00","1989","04","30","20:00","10.0","","5.7","","75","","26","","9","","12.9","","99.91","","","","","","Mostly Cloudy"
"1989-04-30 21:00","1989","04","30","21:00","11.0","","5.5","","69","","27","","9","","12.9","","99.94","","","","","","Mostly Cloudy"
"1989-04-30 22:00","1989","04","30","22:00","10.5","","5.8","","73","","27","","7","","11.3","","99.97","","","","","","Cloudy"
"1989-04-30 23:00","1989","04","30","23:00","7.9","","4.8","","81","","","","0","","9.7","","100.04","","","","","","Haze"
