"Station Name","TORONTO LESTER B. PEARSON INT'L A"
"Province","ONTARIO"
"Latitude","43.68"
"Longitude","-79.63"
"Elevation","173.40"
"Climate Identifier","6158733"
"WMO Identifier","71624"
"TC Identifier","YYZ"
"All times are specified in Local Standard Time (LST). Add 1 hour to adjust for Daylight Saving Time where and when it is observed."

"Legend"
"E","Estimated"
"M","Missing"
"NA","Not Available"

"Date/Time","Year","Month","Day","Time","Temp (°C)","Temp Flag","Dew Point Temp (°C)","Dew Point Temp Flag","Rel Hum (%)","Rel Hum Flag","Wind Dir (10s deg)","Wind Dir Flag","Wind Spd (km/h)","Wind Spd Flag","Visibility (km)","Visibility Flag","Stn Press (kPa)","Stn Press Flag","Hmdx","Hmdx Flag","Wind Chill","Wind Chill Flag","Weather"
"1991-06-01 00:00","1991","06","01","00:00","19.0","","14.2","","74","","35","","11","","25.0","","98.91","","","","","","Cloudy"
"1991-06-01 01:00","1991","06","01","01:00","18.1","","14.5","","79","","36","","13","","25.0","","98.94","","","","","","Mostly Cloudy"
"1991-06-01 02:00","1991","06","01","02:00","17.6","","15.0","","85","","36","","17","","25.0","","98.97","","","","","","Mostly Cloudy"
"1991-06-01 03:00","1991","06","01","03:00","17.4","","14.6","","84","","1","","15","","25.0","","99.04","","","","","","Mostly Cloudy"
"1991-06-01 04:00","1991","06","01","04:00","17.1","","13.8","","81","","2","","9","","25.0","","99.14","","","","","","Mostly Cloudy"
"1991-06-01 05:00","1991","06","01","05:00","16.8","","13.4","","80","","2","","13","","40.2","","99.17","","","","","","Mostly Cloudy"
"1991-06-01 06:00","1991","06","01","06:00","16.7","","12.5","","76","","2","","15","","40.2","","99.21","","","","","","Mostly Cloudy"
"1991-06-01 07:00","1991","06","01","07:00","17.4","","12.9","","75","","5","","15","","40.2","","99.21","","","","","","Mainly Clear"
"1991-06-01 08:00","1991","06","01","08:00","18.2","","11.7","","66","","3","","15","","40.2","","99.27","","","","","","Mainly Clear"
"1991-06-01 09:00","1991","06","01","09:00","19.1","","11.3","","60","","4","","11","","40.2","","99.31","","","","","","Mainly Clear"
"1991-06-01 10:00","1991","06","01","10:00","19.7","","11.9","","61","","1","","7","","40.2","","99.27","","","","","","Mainly Clear"
"1991-06-01 11:00","1991","06","01","11:00","21.0","","13.3","","61","","4","","13","","40.2","","99.31","","","","","","Mainly Clear"
"1991-06-01 12:00","1991","06","01","12:00","21.7","","12.0","","54","","5","","9","","40.2","","99.31","","","","","","Mainly Clear"
"1991-06-01 13:00","1991","06","01","13:00","23.1","","12.4","","51","","3","","13","","40.2","","99.27","","26","","","","Mainly Clear"
"1991-06-01 14:00","1991","06","01","14:00","22.6","","12.1","","52","","18","","15","","40.2","","99.24","","25","","","","Mainly Clear"
"1991-06-01 15:00","1991","06","01","15:00","23.0","","12.7","","52","","16","","13","","40.2","","99.17","","26","","","","Mainly Clear"
"1991-06-01 16:00","1991","06","01","16:00","23.8","","12.1","","48","","20","","13","","40.2","","99.14","","26","","","","Mainly Clear"
"1991-06-01 17:00","1991","06","01","17:00","23.6","","12.2","","49","","4","","4","","40.2","","99.14","","26","","","","Mainly Clear"
"1991-06-01 18:00","1991","06","01","18:00","23.9","","11.7","","47","","3","","6","","40.2","","99.14","","26","","","","Mainly Clear"
"1991-06-01 19:00","1991","06","01","19:00","22.8","","12.4","","52","","","","0","","40.2","","99.14","","25","","","","Mainly Clear"
"1991-06-01 20:00","1991","06","01","20:00","21.0","","12.6","","59","","2","","15","","25.0","","99.17","","","","","","Mainly Clear"
"1991-06-01 21:00","1991","06","01","21:00","19.0","","10.1","","56","","1","","15","","25.0","","99.21","","","","","","Mainly Clear"
"1991-06-01 22:00","1991","06","01","22:00","17.5","","9.5","","59","","1","","13","","25.0","","99.21","","","","","","Clear"
"1991-06-01 23:00","1991","06","01","23:00","15.6","","9.9","","69","","36","","11","","25.0","","99.24","","","","","","Clear"
"1991-06-02 00:00","1991","06","02","00:00","14.8","","9.8","","72","","36","","13","","25.0","","99.21","","","","","","Clear"
"1991-06-02 01:00","1991","06","02","01:00","15.5","","9.5","","67","","36","","11","","25.0","","99.21","","","","","","Mostly Cloudy"
"1991-06-02 02:00","1991","06","02","02:00","15.4","","9.5","","68","","1","","15","","25.0","","99.14","","","","","","Mostly Cloudy"
"1991-06-02 03:00","1991","06","02","03:00","14.6","","10.0","","74","","33","","6","","25.0","","99.14","","","","","","Mostly Cloudy"
"1991-06-02 04:00","1991","06","02","04:00","14.2","","10.2","","77","","34","","7","","25.0","","99.21","","","","","","Mostly Cloudy"
"1991-06-02 05:00","1991","06","02","05:00","14.4","","9.6","","73","","34","","9","","40.2","","99.24","","","","","","Mostly Cloudy"
"1991-06-02 06:00","1991","06","02","06:00","15.1","","9.8","","70","","1","","15","","40.2","","99.24","","","","","","Mostly Cloudy"
"1991-06-02 07:00","1991","06","02","07:00","15.8","","11.3","","75","","36","","11","","40.2","","99.21","","","","","","Mostly Cloudy"
"1991-06-02 08:00","1991","06","02","08:00","17.5","","12.2","","71","","36","","9","","40.2","","99.21","","","","","","Mostly Cloudy"
"1991-06-02 09:00","1991","06","02","09:00","19.5","","13.0","","66","","1","","4","","40.2","","99.24","","","","","","Mostly Cloudy"
"1991-06-02 10:00","1991","06","02","10:00","22.4","","12.1","","52","","","","0","","40.2","","99.21","","25","","","","Mostly Cloudy"
"1991-06-02 11:00","1991","06","02","11:00","24.2","","9.1","","38","","12","","6","","40.2","","99.21","","25","","","","Mostly Cloudy"
"1991-06-02 12:00","1991","06","02","12:00","23.5","","9.7","","42","","16","","15","","40.2","","99.17","","25","","","","Mostly Cloudy"
"1991-06-02 13:00","1991","06","02","13:00","23.7","","9.7","","41","","16","","19","","40.2","","99.14","","25","","","","Mostly Cloudy"
"1991-06-02 14:00","1991","06","02","14:00","23.5","","5.9","","32","","16","","15","","40.2","","99.14","","","","","","Mainly Clear"
"1991-06-02 15:00","1991","06","02","15:00","24.0","","7.2","","34","","18","","11","","40.2","","99.11","","","","","","Mainly Clear"
"1991-06-02 16:00","1991","06","02","16:00","24.2","","6.7","","33","","17","","11","","40.2","","99.11","","","","","","Mainly Clear"
"1991-06-02 17:00","1991","06","02","17:00","24.1","","6.2","","32","","17","","9","","40.2","","99.04","","","","","","Mainly Clear"
"1991-06-02 18:00","1991","06","02","18:00","23.8","","6.7","","33","","17","","7","","40.2","","99.04","","","","","","Mainly Clear"
"1991-06-02 19:00","1991","06","02","19:00","23.5","","6.4","","33","","16","","4","","40.2","","99.01","","","","","","Clear"
"1991-06-02 20:00","1991","06","02","20:00","22.3","","6.9","","37","","17","","7","","25.0","","99.04","","","","","","Mainly Clear"
"1991-06-02 21:00","1991","06","02","21:00","21.9","","7.1","","38","","","","0","","25.0","","99.04","","","","","","Clear"
"1991-06-02 22:00","1991","06","02","22:00","18.4","","10.7","","61","","31","","7","","25.0","","99.11","","","","","","Clear"
"1991-06-02 23:00","1991","06","02","23:00","17.4","","10.7","","65","","","","0","","25.0","","99.14","","","","","","Clear"
"1991-06-03 00:00","1991","06","03","00:00","16.7","","10.3","","66","","34","","4","","25.0","","99.11","","","","","","Clear"
"1991-06-03 01:00","1991","06","03","01:00","15.7","","11.1","","74","","35","","11","","25.0","","99.07","","","","","","Clear"
"1991-06-03 02:00","1991","06","03","02:00","15.7","","10.7","","72","","35","","11","","25.0","","99.01","","","","","","Clear"
"1991-06-03 03:00","1991","06","03","03:00","15.4","","10.7","","74","","34","","11","","25.0","","99.01","","","","","","Clear"
"1991-06-03 04:00","1991","06","03","04:00","14.8","","10.1","","74","","35","","15","","25.0","","99.01","","","","","","Mainly Clear"
"1991-06-03 05:00","1991","06","03","05:00","13.5","","9.2","","75","","36","","11","","32.2","","99.01","","","","","","Mainly Clear"
"1991-06-03 06:00","1991","06","03","06:00","15.2","","10.1","","72","","35","","11","","40.2","","99.04","","","","","","Mainly Clear"
"1991-06-03 07:00","1991","06","03","07:00","18.0","","9.3","","57","","35","","9","","40.2","","99.04","","","","","","Mainly Clear"
"1991-06-03 08:00","1991","06","03","08:00","20.5","","11.6","","57","","1","","7","","40.2","","99.01","","","","","","Mostly Cloudy"
"1991-06-03 09:00","1991","06","03","09:00","22.4","","9.7","","45","","","","0","","40.2","","98.94","","","","","","Mainly Clear"
"1991-06-03 10:00","1991","06","03","10:00","24.0","","10.0","","41","","14","","4","","40.2","","98.91","","25","","","","Mainly Clear"
"1991-06-03 11:00","1991","06","03","11:00","23.4","","12.2","","50","","13","","15","","40.2","","98.87","","26","","","","Mostly Cloudy"
"1991-06-03 12:00","1991","06","03","12:00","20.6","","13.5","","64","","16","","13","","32.2","","98.84","","","","","","Rain Showers"
"1991-06-03 13:00","1991","06","03","13:00","21.4","","13.5","","61","","2","","30","","24.1","","98.91","","","","","","Mostly Cloudy"
"1991-06-03 14:00","1991","06","03","14:00","21.1","","13.7","","63","","1","","22","","40.2","","98.91","","","","","","Mostly Cloudy"
"1991-06-03 15:00","1991","06","03","15:00","17.6","","14.0","","79","","10","","22","","24.1","","98.94","","","","","","Mostly Cloudy"
"1991-06-03 16:00","1991","06","03","16:00","16.2","","13.0","","81","","9","","15","","16.1","","99.01","","","","","","Rain Showers"
"1991-06-03 17:00","1991","06","03","17:00","15.1","","13.0","","87","","8","","22","","24.1","","99.04","","","","","","Rain Showers"
"1991-06-03 18:00","1991","06","03","18:00","14.5","","12.8","","89","","4","","15","","16.1","","99.11","","","","","","Rain Showers"
"1991-06-03 19:00","1991","06","03","19:00","14.5","","11.1","","80","","3","","20","","24.1","","99.14","","","","","","Cloudy"
"1991-06-03 20:00","1991","06","03","20:00","13.8","","11.3","","85","","1","","17","","25.0","","99.17","","","","","","Mostly Cloudy"
"1991-06-03 21:00","1991","06","03","21:00","13.4","","11.1","","86","","35","","17","","25.0","","99.21","","","","","","Mostly Cloudy"
"1991-06-03 22:00","1991","06","03","22:00","12.3","","10.8","","91","","35","","17","","25.0","","99.24","","","","","","Mostly Cloudy"
"1991-06-03 23:00","1991","06","03","23:00","11.8","","9.9","","88","","36","","20","","25.0","","99.24","","","","","","Mainly Clear"
"1991-06-04 00:00","1991","06","04","00:00","11.4","","9.0","","85","","36","","22","","25.0","","99.24","","","","","","Mainly Clear"
"1991-06-04 01:00","1991","06","04","01:00","11.4","","8.6","","83","","36","","19","","25.0","","99.31","","","","","","Mainly Clear"
"1991-06-04 02:00","1991","06","04","02:00","10.6","","7.9","","83","","35","","15","","25.0","","99.31","","","","","","Mainly Clear"
"1991-06-04 03:00","1991","06","04","03:00","10.2","","7.4","","83","","35","","15","","25.0","","99.34","","","","","","Mainly Clear"
"1991-06-04 04:00","1991","06","04","04:00","9.9","","7.4","","84","","36","","15","","25.0","","99.41","","","","","","Mainly Clear"
"1991-06-04 05:00","1991","06","04","05:00","10.0","","6.9","","81","","36","","17","","32.2","","99.47","","","","","","Clear"
"1991-06-04 06:00","1991","06","04","06:00","10.8","","8.0","","83","","36","","24","","40.2","","99.51","","","","","","Clear"
"1991-06-04 07:00","1991","06","04","07:00","12.0","","8.3","","78","","1","","24","","40.2","","99.54","","","","","","Clear"
"1991-06-04 08:00","1991","06","04","08:00","14.1","","9.0","","71","","2","","22","","40.2","","99.54","","","","","","Clear"
"1991-06-04 09:00","1991","06","04","09:00","15.8","","10.1","","69","","3","","30","","40.2","","99.57","","","","","","Mainly Clear"
"1991-06-04 10:00","1991","06","04","10:00","16.9","","9.3","","61","","3","","19","","40.2","","99.57","","","","","","Mainly Clear"
"1991-06-04 11:00","1991","06","04","11:00","17.5","","9.1","","58","","3","","22","","40.2","","99.57","","","","","","Mostly Cloudy"
"1991-06-04 12:00","1991","06","04","12:00","17.9","","8.0","","52","","3","","26","","40.2","","99.57","","","","","","Mostly Cloudy"
"1991-06-04 13:00","1991","06","04","13:00","19.5","","8.7","","50","","3","","24","","40.2","","99.61","","","","","","Mostly Cloudy"
"1991-06-04 14:00","1991","06","04","14:00","19.6","","7.8","","46","","5","","22","","40.2","","99.61","","","","","","Mostly Cloudy"
"1991-06-04 15:00","1991","06","04","15:00","20.3","","6.4","","40","","36","","24","","40.2","","99.61","","","","","","Mostly Cloudy"
"1991-06-04 16:00","1991","06","04","16:00","20.2","","6.2","","40","","2","","22","","40.2","","99.61","","","","","","Mostly Cloudy"
"1991-06-04 17:00","1991","06","04","17:00","19.2","","8.5","","50","","1","","26","","40.2","","99.64","","","","","","Mostly Cloudy"
"1991-06-04 18:00","1991","06","04","18:00","18.5","","8.3","","51","","36","","24","","40.2","","99.67","","","","","","Mostly Cloudy"
"1991-06-04 19:00","1991","06","04","19:00","18.4","","8.3","","52","","1","","20","","40.2","","99.71","","","","","","Mainly Clear"
"1991-06-04 20:00","1991","06","04","20:00","16.4","","8.3","","59","","35","","15","","25.0","","99.71","","","","","","Mainly Clear"
"1991-06-04 21:00","1991","06","04","21:00","15.4","","9.5","","68","","36","","17","","25.0","","99.77","","","","","","Mainly Clear"
"1991-06-04 22:00","1991","06","04","22:00","14.2","","8.6","","69","","36","","15","","25.0","","99.81","","","","","","Mainly Clear"
"1991-06-04 23:00","1991","06","04","23:00","12.8","","9.4","","80","","35","","17","","25.0","","99.81","","","","","","Mainly Clear"
"1991-06-05 00:00","1991","06","05","00:00","12.3","","8.9","","80","","34","","15","","25.0","","99.81","","","","","","Mainly Clear"
"1991-06-05 01:00","1991","06","05","01:00","11.5","","8.2","","80","","36","","17","","25.0","","99.87","","","","","","Mainly Clear"
"1991-06-05 02:00","1991","06","05","02:00","10.8","","8.0","","83","","36","","15","","25.0","","99.87","","","","","","Clear"
"1991-06-05 03:00","1991","06","05","03:00","10.4","","7.9","","84","","36","","13","","25.0","","99.87","","","","","","Clear"
"1991-06-05 04:00","1991","06","05","04:00","10.6","","7.5","","81","","36","","15","","25.0","","99.91","","","","","","Clear"
"1991-06-05 05:00","1991","06","05","05:00","10.6","","7.5","","81","","1","","15","","40.2","","99.97","","","","","","Clear"
"1991-06-05 06:00","1991","06","05","06:00","12.0","","8.3","","78","","36","","19","","40.2","","100.01","","","","","","Clear"
"1991-06-05 07:00","1991","06","05","07:00","13.9","","6.9","","63","","1","","17","","40.2","","100.07","","","","","","Clear"
"1991-06-05 08:00","1991","06","05","08:00","16.0","","9.7","","66","","1","","17","","40.2","","100.07","","","","","","Clear"
"1991-06-05 09:00","1991","06","05","09:00","18.0","","9.7","","58","","2","","13","","40.2","","100.07","","","","","","Clear"
"1991-06-05 10:00","1991","06","05","10:00","19.6","","8.3","","48","","2","","19","","40.2","","100.07","","","","","","Mainly Clear"
"1991-06-05 11:00","1991","06","05","11:00","20.1","","6.2","","40","","1","","22","","40.2","","100.04","","","","","","Mainly Clear"
"1991-06-05 12:00","1991","06","05","12:00","19.0","","8.5","","51","","18","","13","","40.2","","100.04","","","","","","Mostly Cloudy"
"1991-06-05 13:00","1991","06","05","13:00","20.3","","8.7","","47","","17","","20","","40.2","","100.01","","","","","","Mostly Cloudy"
"1991-06-05 14:00","1991","06","05","14:00","19.6","","8.7","","49","","17","","15","","40.2","","100.04","","","","","","Mostly Cloudy"
"1991-06-05 15:00","1991","06","05","15:00","20.5","","8.3","","45","","17","","11","","40.2","","100.04","","","","","","Mostly Cloudy"
"1991-06-05 16:00","1991","06","05","16:00","20.1","","6.6","","41","","13","","7","","40.2","","100.04","","","","","","Mostly Cloudy"
"1991-06-05 17:00","1991","06","05","17:00","18.9","","9.3","","54","","30","","7","","40.2","","100.07","","","","","","Mainly Clear"
"1991-06-05 18:00","1991","06","05","18:00","20.6","","13.1","","62","","36","","19","","40.2","","100.04","","","","","","Mainly Clear"
"1991-06-05 19:00","1991","06","05","19:00","20.3","","8.7","","47","","35","","15","","40.2","","100.07","","","","","","Mainly Clear"
"1991-06-05 20:00","1991","06","05","20:00","17.9","","9.7","","59","","1","","11","","25.0","","100.11","","","","","","Mainly Clear"
"1991-06-05 21:00","1991","06","05","21:00","18.1","","7.2","","49","","3","","11","","25.0","","100.17","","","","","","Mainly Clear"
"1991-06-05 22:00","1991","06","05","22:00","16.9","","9.7","","63","","4","","11","","25.0","","100.21","","","","","","Mostly Cloudy"
"1991-06-05 23:00","1991","06","05","23:00","15.4","","8.7","","64","","36","","11","","25.0","","100.21","","","","","","Mainly Clear"
"1991-06-06 00:00","1991","06","06","00:00","14.4","","7.5","","63","","1","","11","","25.0","","100.24","","","","","","Mainly Clear"
"1991-06-06 01:00","1991","06","06","01:00","13.8","","7.4","","65","","36","","11","","25.0","","100.24","","","","","","Clear"
"1991-06-06 02:00","1991","06","06","02:00","12.1","","7.5","","73","","35","","11","","25.0","","100.27","","","","","","Clear"
"1991-06-06 03:00","1991","06","06","03:00","11.0","","7.6","","80","","35","","7","","25.0","","100.27","","","","","","Mainly Clear"
"1991-06-06 04:00","1991","06","06","04:00","10.0","","7.4","","84","","33","","7","","25.0","","100.31","","","","","","Mainly Clear"
"1991-06-06 05:00","1991","06","06","05:00","10.4","","7.9","","84","","33","","11","","32.2","","100.37","","","","","","Mainly Clear"
"1991-06-06 06:00","1991","06","06","06:00","13.0","","8.3","","73","","33","","7","","40.2","","100.41","","","","","","Clear"
"1991-06-06 07:00","1991","06","06","07:00","15.1","","8.1","","63","","","","0","","40.2","","100.47","","","","","","Clear"
"1991-06-06 08:00","1991","06","06","08:00","17.5","","9.1","","58","","14","","4","","40.2","","100.51","","","","","","Clear"
"1991-06-06 09:00","1991","06","06","09:00","19.6","","11.9","","61","","15","","4","","40.2","","100.51","","","","","","Clear"
"1991-06-06 10:00","1991","06","06","10:00","20.1","","12.1","","60","","16","","11","","40.2","","100.51","","","","","","Clear"
"1991-06-06 11:00","1991","06","06","11:00","20.2","","11.0","","55","","16","","13","","40.2","","100.51","","","","","","Mainly Clear"
"1991-06-06 12:00","1991","06","06","12:00","20.1","","10.2","","53","","14","","17","","40.2","","100.51","","","","","","Mostly Cloudy"
"1991-06-06 13:00","1991","06","06","13:00","20.5","","9.1","","48","","14","","19","","40.2","","100.47","","","","","","Mainly Clear"
"1991-06-06 14:00","1991","06","06","14:00","20.5","","8.3","","45","","15","","17","","40.2","","100.47","","","","","","Mainly Clear"
"1991-06-06 15:00","1991","06","06","15:00","20.9","","7.6","","42","","14","","15","","40.2","","100.41","","","","","","Mainly Clear"
"1991-06-06 16:00","1991","06","06","16:00","20.7","","7.4","","42","","15","","17","","40.2","","100.44","","","","","","Mostly Cloudy"
"1991-06-06 17:00","1991","06","06","17:00","20.5","","6.9","","41","","17","","15","","40.2","","100.47","","","","","","Mainly Clear"
"1991-06-06 18:00","1991","06","06","18:00","20.1","","7.1","","43","","15","","11","","40.2","","100.47","","","","","","Mainly Clear"
"1991-06-06 19:00","1991","06","06","19:00","19.7","","6.4","","42","","18","","7","","40.2","","100.47","","","","","","Mostly Cloudy"
"1991-06-06 20:00","1991","06","06","20:00","18.2","","6.7","","47","","17","","7","","40.2","","100.44","","","","","","Mainly Clear"
"1991-06-06 21:00","1991","06","06","21:00","17.6","","7.4","","51","","20","","7","","25.0","","100.51","","","","","","Mainly Clear"
"1991-06-06 22:00","1991","06","06","22:00","15.1","","8.6","","65","","","","0","","25.0","","100.54","","","","","","Clear"
"1991-06-06 23:00","1991","06","06","23:00","14.5","","8.4","","67","","33","","4","","25.0","","100.57","","","","","","Clear"
"1991-06-07 00:00","1991","06","07","00:00","12.5","","8.9","","79","","36","","11","","25.0","","100.57","","","","","","Clear"
"1991-06-07 01:00","1991","06","07","01:00","12.6","","8.9","","78","","35","","7","","25.0","","100.57","","","","","","Mainly Clear"
"1991-06-07 02:00","1991","06","07","02:00","12.5","","8.9","","79","","35","","6","","25.0","","100.57","","","","","","Clear"
"1991-06-07 03:00","1991","06","07","03:00","12.0","","8.7","","80","","35","","4","","25.0","","100.57","","","","","","Clear"
"1991-06-07 04:00","1991","06","07","04:00","10.1","","7.7","","85","","36","","7","","25.0","","100.57","","","","","","Mainly Clear"
"1991-06-07 05:00","1991","06","07","05:00","10.6","","7.9","","83","","35","","6","","40.2","","100.61","","","","","","Mainly Clear"
"1991-06-07 06:00","1991","06","07","06:00","12.7","","8.5","","75","","35","","4","","40.2","","100.67","","","","","","Mainly Clear"
"1991-06-07 07:00","1991","06","07","07:00","15.8","","8.9","","64","","","","0","","40.2","","100.71","","","","","","Mainly Clear"
"1991-06-07 08:00","1991","06","07","08:00","20.0","","9.3","","50","","","","0","","40.2","","100.71","","","","","","Mainly Clear"
"1991-06-07 09:00","1991","06","07","09:00","21.7","","7.8","","41","","","","0","","40.2","","100.67","","","","","","Mainly Clear"
"1991-06-07 10:00","1991","06","07","10:00","22.6","","5.4","","33","","","","0","","40.2","","100.64","","","","","","Mainly Clear"
"1991-06-07 11:00","1991","06","07","11:00","23.7","","5.9","","32","","1","","7","","40.2","","100.61","","","","","","Mainly Clear"
"1991-06-07 12:00","1991","06","07","12:00","24.4","","9.4","","39","","","","0","","40.2","","100.51","","25","","","","Mainly Clear"
"1991-06-07 13:00","1991","06","07","13:00","24.8","","8.2","","35","","18","","7","","40.2","","100.47","","25","","","","Mainly Clear"
"1991-06-07 14:00","1991","06","07","14:00","24.5","","8.0","","35","","20","","15","","40.2","","100.37","","25","","","","Mainly Clear"
"1991-06-07 15:00","1991","06","07","15:00","24.7","","6.5","","31","","19","","19","","40.2","","100.31","","25","","","","Mainly Clear"
"1991-06-07 16:00","1991","06","07","16:00","24.2","","5.7","","30","","15","","26","","40.2","","100.24","","","","","","Mainly Clear"
"1991-06-07 17:00","1991","06","07","17:00","24.7","","4.9","","28","","18","","19","","40.2","","100.21","","","","","","Mainly Clear"
"1991-06-07 18:00","1991","06","07","18:00","24.2","","5.2","","29","","19","","19","","40.2","","100.17","","","","","","Mainly Clear"
"1991-06-07 19:00","1991","06","07","19:00","23.4","","6.9","","35","","21","","7","","40.2","","100.14","","","","","","Mainly Clear"
"1991-06-07 20:00","1991","06","07","20:00","21.1","","8.5","","44","","36","","17","","40.2","","100.17","","","","","","Mainly Clear"
"1991-06-07 21:00","1991","06","07","21:00","18.6","","8.7","","53","","35","","15","","25.0","","100.17","","","","","","Mostly Cloudy"
"1991-06-07 22:00","1991","06","07","22:00","18.5","","8.7","","53","","35","","13","","25.0","","100.21","","","","","","Mainly Clear"
"1991-06-07 23:00","1991","06","07","23:00","16.7","","8.7","","59","","31","","11","","25.0","","100.21","","","","","","Mainly Clear"
"1991-06-08 00:00","1991","06","08","00:00","15.5","","9.1","","66","","32","","9","","25.0","","100.17","","","","","","Clear"
"1991-06-08 01:00","1991","06","08","01:00","15.4","","8.7","","64","","29","","7","","25.0","","100.11","","","","","","Clear"
"1991-06-08 02:00","1991","06","08","02:00","13.9","","9.4","","74","","29","","9","","25.0","","100.11","","","","","","Mainly Clear"
"1991-06-08 03:00","1991","06","08","03:00","13.5","","8.8","","73","","32","","7","","25.0","","100.07","","","","","","Mainly Clear"
"1991-06-08 04:00","1991","06","08","04:00","12.4","","8.9","","79","","31","","7","","25.0","","100.07","","","","","","Mainly Clear"
"1991-06-08 05:00","1991","06","08","05:00","13.5","","7.2","","66","","29","","13","","40.2","","100.07","","","","","","Mainly Clear"
"1991-06-08 06:00","1991","06","08","06:00","15.5","","8.3","","62","","30","","7","","40.2","","100.11","","","","","","Mainly Clear"
"1991-06-08 07:00","1991","06","08","07:00","18.3","","9.5","","57","","32","","7","","40.2","","100.11","","","","","","Clear"
"1991-06-08 08:00","1991","06","08","08:00","22.2","","7.6","","39","","30","","17","","40.2","","100.11","","","","","","Clear"
"1991-06-08 09:00","1991","06","08","09:00","23.7","","8.4","","38","","30","","17","","40.2","","100.07","","","","","","Clear"
"1991-06-08 10:00","1991","06","08","10:00","24.8","","11.3","","43","","31","","17","","40.2","","100.04","","27","","","","Clear"
"1991-06-08 11:00","1991","06","08","11:00","26.3","","11.3","","39","","29","","15","","40.2","","100.01","","28","","","","Clear"
"1991-06-08 12:00","1991","06","08","12:00","26.7","","10.9","","37","","34","","17","","40.2","","99.97","","28","","","","Mainly Clear"
"1991-06-08 13:00","1991","06","08","13:00","26.9","","11.6","","39","","31","","11","","40.2","","99.94","","29","","","","Mainly Clear"
"1991-06-08 14:00","1991","06","08","14:00","27.2","","11.6","","38","","32","","13","","32.2","","99.87","","29","","","","Mostly Cloudy"
"1991-06-08 15:00","1991","06","08","15:00","27.8","","12.1","","38","","33","","17","","32.2","","99.81","","30","","","","Mostly Cloudy"
"1991-06-08 16:00","1991","06","08","16:00","28.0","","12.1","","37","","36","","22","","32.2","","99.81","","30","","","","Mostly Cloudy"
"1991-06-08 17:00","1991","06","08","17:00","26.3","","11.3","","39","","36","","22","","32.2","","99.81","","28","","","","Mainly Clear"
"1991-06-08 18:00","1991","06","08","18:00","25.7","","13.2","","46","","36","","17","","32.2","","99.81","","29","","","","Mainly Clear"
"1991-06-08 19:00","1991","06","08","19:00","24.8","","13.3","","49","","1","","20","","40.2","","99.84","","28","","","","Mostly Cloudy"
"1991-06-08 20:00","1991","06","08","20:00","22.5","","12.1","","52","","36","","19","","40.2","","99.87","","25","","","","Mainly Clear"
"1991-06-08 21:00","1991","06","08","21:00","20.6","","11.6","","56","","35","","19","","25.0","","99.91","","","","","","Mainly Clear"
"1991-06-08 22:00","1991","06","08","22:00","18.1","","12.4","","69","","34","","11","","24.1","","99.97","","","","","","Mainly Clear"
"1991-06-08 23:00","1991","06","08","23:00","17.3","","12.6","","74","","34","","15","","25.0","","100.01","","","","","","Clear"
"1991-06-09 00:00","1991","06","09","00:00","16.9","","12.0","","73","","36","","17","","25.0","","100.04","","","","","","Clear"
"1991-06-09 01:00","1991","06","09","01:00","16.4","","11.1","","71","","36","","15","","25.0","","100.07","","","","","","Clear"
"1991-06-09 02:00","1991","06","09","02:00","14.9","","10.1","","73","","36","","15","","25.0","","100.11","","","","","","Clear"
"1991-06-09 03:00","1991","06","09","03:00","13.8","","10.2","","79","","36","","15","","25.0","","100.11","","","","","","Clear"
"1991-06-09 04:00","1991","06","09","04:00","13.1","","9.4","","78","","35","","11","","25.0","","100.11","","","","","","Clear"
"1991-06-09 05:00","1991","06","09","05:00","12.9","","9.1","","78","","34","","7","","40.2","","100.17","","","","","","Clear"
"1991-06-09 06:00","1991","06","09","06:00","14.6","","9.2","","70","","34","","9","","40.2","","100.21","","","","","","Clear"
"1991-06-09 07:00","1991","06","09","07:00","17.7","","8.7","","56","","","","0","","40.2","","100.21","","","","","","Mainly Clear"
"1991-06-09 08:00","1991","06","09","08:00","20.7","","7.4","","42","","","","0","","40.2","","100.27","","","","","","Mainly Clear"
"1991-06-09 09:00","1991","06","09","09:00","21.6","","5.9","","36","","15","","7","","40.2","","100.27","","","","","","Mostly Cloudy"
"1991-06-09 10:00","1991","06","09","10:00","22.3","","6.4","","36","","17","","9","","40.2","","100.24","","","","","","Mainly Clear"
"1991-06-09 11:00","1991","06","09","11:00","23.3","","7.9","","37","","15","","9","","40.2","","100.21","","","","","","Mostly Cloudy"
"1991-06-09 12:00","1991","06","09","12:00","24.6","","8.0","","35","","13","","7","","40.2","","100.21","","25","","","","Mostly Cloudy"
"1991-06-09 13:00","1991","06","09","13:00","25.2","","9.6","","37","","17","","11","","40.2","","100.14","","26","","","","Cloudy"
"1991-06-09 14:00","1991","06","09","14:00","25.8","","11.0","","40","","15","","13","","40.2","","100.07","","28","","","","Cloudy"
"1991-06-09 15:00","1991","06","09","15:00","26.2","","9.7","","35","","17","","17","","40.2","","99.97","","27","","","","Cloudy"
"1991-06-09 16:00","1991","06","09","16:00","26.2","","10.6","","38","","17","","15","","40.2","","99.94","","28","","","","Cloudy"
"1991-06-09 17:00","1991","06","09","17:00","23.5","","8.4","","38","","15","","15","","40.2","","99.91","","","","","","Cloudy"
"1991-06-09 18:00","1991","06","09","18:00","23.1","","8.6","","40","","17","","7","","40.2","","99.91","","","","","","Cloudy"
"1991-06-09 19:00","1991","06","09","19:00","22.2","","12.7","","55","","16","","13","","40.2","","99.87","","25","","","","Mostly Cloudy"
"1991-06-09 20:00","1991","06","09","20:00","21.0","","13.0","","60","","16","","7","","40.2","","99.81","","","","","","Mostly Cloudy"
"1991-06-09 21:00","1991","06","09","21:00","20.7","","14.2","","66","","17","","4","","25.0","","99.84","","","","","","Mostly Cloudy"
"1991-06-09 22:00","1991","06","09","22:00","21.2","","14.4","","65","","18","","9","","25.0","","99.81","","25","","","","Mainly Clear"
"1991-06-09 23:00","1991","06","09","23:00","20.8","","14.4","","67","","25","","13","","24.1","","99.81","","","","","","Mostly Cloudy"
"1991-06-10 00:00","1991","06","10","00:00","19.7","","13.4","","67","","27","","11","","24.1","","99.77","","","","","","Mainly Clear"
"1991-06-10 01:00","1991","06","10","01:00","18.8","","13.2","","70","","26","","11","","24.1","","99.77","","","","","","Mainly Clear"
"1991-06-10 02:00","1991","06","10","02:00","18.6","","12.2","","66","","28","","11","","24.1","","99.71","","","","","","Mostly Cloudy"
"1991-06-10 03:00","1991","06","10","03:00","19.4","","13.0","","67","","27","","11","","24.1","","99.67","","","","","","Mostly Cloudy"
"1991-06-10 04:00","1991","06","10","04:00","20.0","","12.9","","64","","26","","15","","24.1","","99.64","","","","","","Mostly Cloudy"
"1991-06-10 05:00","1991","06","10","05:00","19.4","","13.4","","68","","26","","11","","19.3","","99.67","","","","","","Mostly Cloudy"
"1991-06-10 06:00","1991","06","10","06:00","19.8","","13.6","","68","","26","","9","","19.3","","99.67","","","","","","Mostly Cloudy"
"1991-06-10 07:00","1991","06","10","07:00","21.0","","13.3","","61","","26","","11","","16.1","","99.64","","","","","","Mostly Cloudy"
"1991-06-10 08:00","1991","06","10","08:00","23.1","","12.7","","52","","26","","17","","19.3","","99.61","","26","","","","Mostly Cloudy"
"1991-06-10 09:00","1991","06","10","09:00","26.3","","12.1","","41","","27","","30","","19.3","","99.57","","29","","","","Mainly Clear"
"1991-06-10 10:00","1991","06","10","10:00","28.3","","14.8","","44","","27","","26","","19.3","","99.54","","32","","","","Mainly Clear"
"1991-06-10 11:00","1991","06","10","11:00","28.8","","12.7","","37","","27","","33","","12.9","","99.51","","31","","","","Mainly Clear"
"1991-06-10 12:00","1991","06","10","12:00","30.0","","13.3","","36","","26","","37","","12.9","","99.47","","33","","","","Mainly Clear"
"1991-06-10 13:00","1991","06","10","13:00","30.2","","12.4","","34","","25","","37","","12.9","","99.41","","33","","","","Mostly Cloudy"
"1991-06-10 14:00","1991","06","10","14:00","29.8","","12.0","","34","","24","","33","","12.9","","99.34","","32","","","","Mostly Cloudy"
"1991-06-10 15:00","1991","06","10","15:00","29.4","","12.1","","35","","25","","35","","9.7","","99.31","","32","","","","Haze"
"1991-06-10 16:00","1991","06","10","16:00","30.0","","11.6","","32","","25","","31","","9.7","","99.24","","32","","","","Haze"
"1991-06-10 17:00","1991","06","10","17:00","29.3","","12.6","","36","","25","","26","","8.0","","99.21","","32","","","","Haze"
"1991-06-10 18:00","1991","06","10","18:00","27.8","","9.9","","33","","26","","22","","8.0","","99.21","","29","","","","Haze"
"1991-06-10 19:00","1991","06","10","19:00","23.8","","15.8","","61","","25","","26","","9.7","","99.24","","28","","","","Haze"
"1991-06-10 20:00","1991","06","10","20:00","23.4","","15.9","","63","","24","","15","","6.4","","99.21","","28","","","","Haze"
"1991-06-10 21:00","1991","06","10","21:00","23.0","","16.0","","65","","25","","26","","6.4","","99.17","","28","","","","Haze"
"1991-06-10 22:00","1991","06","10","22:00","22.8","","16.0","","66","","30","","33","","6.4","","99.27","","27","","","","Haze"
"1991-06-10 23:00","1991","06","10","23:00","22.0","","16.2","","70","","27","","19","","8.0","","99.21","","27","","","","Haze"
"1991-06-11 00:00","1991","06","11","00:00","21.8","","16.9","","74","","29","","19","","8.0","","99.21","","27","","","","Haze"
"1991-06-11 01:00","1991","06","11","01:00","20.7","","15.9","","74","","26","","4","","8.0","","99.14","","25","","","","Haze"
"1991-06-11 02:00","1991","06","11","02:00","20.6","","16.9","","79","","","","0","","6.4","","99.14","","26","","","","Haze"
"1991-06-11 03:00","1991","06","11","03:00","19.6","","17.7","","89","","28","","11","","4.8","","99.11","","","","","","Rain Showers,Fog"
"1991-06-11 04:00","1991","06","11","04:00","19.8","","18.2","","91","","33","","11","","4.8","","99.11","","","","","","Fog"
"1991-06-11 05:00","1991","06","11","05:00","19.6","","18.6","","94","","29","","11","","4.0","","99.14","","","","","","Rain Showers,Fog"
"1991-06-11 06:00","1991","06","11","06:00","19.8","","18.8","","94","","","","0","","3.2","","99.14","","","","","","Fog"
"1991-06-11 07:00","1991","06","11","07:00","20.7","","18.4","","87","","","","0","","4.0","","99.14","","27","","","","Fog"
"1991-06-11 08:00","1991","06","11","08:00","21.0","","18.0","","83","","29","","9","","4.8","","99.14","","27","","","","Rain Showers,Haze"
"1991-06-11 09:00","1991","06","11","09:00","18.4","","16.7","","90","","28","","13","","8.0","","99.14","","","","","","Rain Showers,Fog"
"1991-06-11 10:00","1991","06","11","10:00","18.6","","16.3","","86","","24","","13","","9.7","","99.14","","","","","","Rain Showers,Fog"
"1991-06-11 11:00","1991","06","11","11:00","19.3","","16.8","","85","","27","","15","","16.1","","99.14","","","","","","Cloudy"
"1991-06-11 12:00","1991","06","11","12:00","19.5","","16.8","","84","","27","","11","","19.3","","99.11","","","","","","Cloudy"
"1991-06-11 13:00","1991","06","11","13:00","20.0","","16.7","","81","","25","","13","","24.1","","99.04","","25","","","","Cloudy"
"1991-06-11 14:00","1991","06","11","14:00","21.0","","16.8","","77","","26","","19","","24.1","","99.01","","26","","","","Cloudy"
"1991-06-11 15:00","1991","06","11","15:00","21.7","","17.3","","76","","25","","20","","19.3","","98.97","","27","","","","Cloudy"
"1991-06-11 16:00","1991","06","11","16:00","22.2","","17.5","","75","","26","","15","","19.3","","98.91","","28","","","","Cloudy"
"1991-06-11 17:00","1991","06","11","17:00","20.4","","17.2","","82","","2","","17","","19.3","","98.91","","26","","","","Cloudy"
"1991-06-11 18:00","1991","06","11","18:00","20.3","","16.9","","81","","1","","11","","24.1","","98.91","","26","","","","Cloudy"
"1991-06-11 19:00","1991","06","11","19:00","21.3","","16.7","","75","","","","0","","32.2","","98.91","","26","","","","Mostly Cloudy"
"1991-06-11 20:00","1991","06","11","20:00","19.7","","16.4","","81","","","","0","","25.0","","98.91","","","","","","Mainly Clear"
"1991-06-11 21:00","1991","06","11","21:00","19.5","","16.4","","82","","","","0","","25.0","","98.94","","","","","","Mainly Clear"
"1991-06-11 22:00","1991","06","11","22:00","18.0","","16.1","","89","","","","0","","16.1","","98.94","","","","","","Mainly Clear"
"1991-06-11 23:00","1991","06","11","23:00","18.0","","15.8","","87","","","","0","","19.3","","98.94","","","","","","Clear"
"1991-06-12 00:00","1991","06","12","00:00","17.2","","15.4","","89","","25","","7","","8.0","","98.94","","","","","","Fog"
"1991-06-12 01:00","1991","06","12","01:00","16.4","","15.6","","95","","","","0","","4.8","","98.94","","","","","","Fog"
"1991-06-12 02:00","1991","06","12","02:00","16.6","","15.6","","94","","","","0","","4.8","","98.84","","","","","","Fog"
"1991-06-12 03:00","1991","06","12","03:00","16.6","","15.9","","96","","27","","7","","4.8","","98.77","","","","","","Fog"
"1991-06-12 04:00","1991","06","12","04:00","17.5","","16.6","","95","","27","","15","","4.8","","98.74","","","","","","Fog"
"1991-06-12 05:00","1991","06","12","05:00","17.9","","16.8","","93","","28","","19","","3.2","","98.81","","","","","","Fog"
"1991-06-12 06:00","1991","06","12","06:00","18.0","","16.5","","91","","30","","15","","9.7","","98.84","","","","","","Rain Showers,Fog"
"1991-06-12 07:00","1991","06","12","07:00","17.9","","14.5","","81","","33","","26","","16.1","","98.87","","","","","","Mostly Cloudy"
"1991-06-12 08:00","1991","06","12","08:00","16.4","","11.4","","72","","32","","28","","12.9","","98.91","","","","","","Rain Showers"
"1991-06-12 09:00","1991","06","12","09:00","15.8","","11.3","","75","","28","","22","","32.2","","98.94","","","","","","Rain Showers"
"1991-06-12 10:00","1991","06","12","10:00","20.2","","12.5","","61","","31","","26","","40.2","","98.94","","","","","","Mainly Clear"
"1991-06-12 11:00","1991","06","12","11:00","21.3","","14.3","","64","","30","","31","","40.2","","98.97","","25","","","","Mostly Cloudy"
"1991-06-12 12:00","1991","06","12","12:00","21.5","","10.4","","49","","30","","39","","40.2","","98.97","","","","","","Mostly Cloudy"
"1991-06-12 13:00","1991","06","12","13:00","20.2","","11.4","","57","","1","","35","","32.2","","99.01","","","","","","Mainly Clear"
"1991-06-12 14:00","1991","06","12","14:00","18.8","","9.7","","56","","36","","41","","40.2","","99.11","","","","","","Mainly Clear"
"1991-06-12 15:00","1991","06","12","15:00","18.6","","8.3","","51","","36","","41","","40.2","","99.17","","","","","","Mainly Clear"
"1991-06-12 16:00","1991","06","12","16:00","18.5","","8.7","","53","","35","","37","","40.2","","99.24","","","","","","Mainly Clear"
"1991-06-12 17:00","1991","06","12","17:00","17.3","","7.8","","54","","1","","31","","40.2","","99.31","","","","","","Clear"
"1991-06-12 18:00","1991","06","12","18:00","16.4","","5.6","","49","","35","","31","","40.2","","99.37","","","","","","Clear"
"1991-06-12 19:00","1991","06","12","19:00","15.3","","3.7","","46","","35","","33","","40.2","","99.47","","","","","","Clear"
"1991-06-12 20:00","1991","06","12","20:00","13.7","","4.0","","52","","34","","22","","25.0","","99.57","","","","","","Clear"
"1991-06-12 21:00","1991","06","12","21:00","12.0","","4.5","","60","","33","","19","","25.0","","99.64","","","","","","Clear"
"1991-06-12 22:00","1991","06","12","22:00","11.0","","4.6","","65","","34","","19","","25.0","","99.74","","","","","","Clear"
"1991-06-12 23:00","1991","06","12","23:00","10.2","","4.4","","67","","36","","15","","25.0","","99.74","","","","","","Clear"
"1991-06-13 00:00","1991","06","13","00:00","9.1","","4.5","","73","","35","","15","","25.0","","99.81","","","","","","Clear"
"1991-06-13 01:00","1991","06","13","01:00","8.6","","4.9","","77","","34","","15","","25.0","","99.81","","","","","","Clear"
"1991-06-13 02:00","1991","06","13","02:00","7.5","","5.1","","85","","33","","11","","25.0","","99.87","","","","","","Clear"
"1991-06-13 03:00","1991","06","13","03:00","6.3","","4.0","","85","","33","","11","","25.0","","99.87","","","","","","Clear"
"1991-06-13 04:00","1991","06","13","04:00","5.9","","3.9","","87","","34","","11","","25.0","","99.94","","","","","","Clear"
"1991-06-13 05:00","1991","06","13","05:00","5.6","","3.4","","86","","35","","11","","40.2","","99.97","","","","","","Clear"
"1991-06-13 06:00","1991","06","13","06:00","8.5","","4.4","","75","","36","","11","","40.2","","100.04","","","","","","Clear"
"1991-06-13 07:00","1991","06","13","07:00","10.6","","4.5","","66","","36","","13","","40.2","","100.11","","","","","","Clear"
"1991-06-13 08:00","1991","06","13","08:00","12.2","","4.9","","61","","1","","17","","40.2","","100.11","","","","","","Clear"
"1991-06-13 09:00","1991","06","13","09:00","13.3","","5.0","","57","","1","","15","","40.2","","100.14","","","","","","Mainly Clear"
"1991-06-13 10:00","1991","06","13","10:00","13.9","","4.7","","54","","35","","19","","40.2","","100.14","","","","","","Mainly Clear"
"1991-06-13 11:00","1991","06","13","11:00","14.9","","5.5","","53","","4","","9","","40.2","","100.11","","","","","","Mainly Clear"
"1991-06-13 12:00","1991","06","13","12:00","16.5","","6.5","","52","","33","","13","","40.2","","100.07","","","","","","Clear"
"1991-06-13 13:00","1991","06","13","13:00","18.0","","7.2","","49","","3","","19","","40.2","","100.01","","","","","","Clear"
"1991-06-13 14:00","1991","06","13","14:00","19.5","","5.4","","40","","30","","6","","40.2","","99.97","","","","","","Clear"
"1991-06-13 15:00","1991","06","13","15:00","20.9","","6.6","","40","","36","","15","","40.2","","99.94","","","","","","Clear"
"1991-06-13 16:00","1991","06","13","16:00","21.2","","1.7","","27","","36","","11","","40.2","","99.91","","","","","","Mostly Cloudy"
"1991-06-13 17:00","1991","06","13","17:00","21.4","","3.2","","30","","36","","11","","40.2","","99.87","","","","","","Mainly Clear"
"1991-06-13 18:00","1991","06","13","18:00","21.0","","4.1","","33","","36","","9","","40.2","","99.87","","","","","","Mostly Cloudy"
"1991-06-13 19:00","1991","06","13","19:00","19.6","","2.2","","31","","1","","19","","40.2","","99.87","","","","","","Mostly Cloudy"
"1991-06-13 20:00","1991","06","13","20:00","16.5","","2.5","","39","","2","","15","","40.2","","99.87","","","","","","Mainly Clear"
"1991-06-13 21:00","1991","06","13","21:00","14.7","","0.6","","38","","1","","11","","25.0","","99.94","","","","","","Mainly Clear"
"1991-06-13 22:00","1991","06","13","22:00","13.0","","2.3","","48","","36","","7","","25.0","","99.97","","","","","","Clear"
"1991-06-13 23:00","1991","06","13","23:00","11.6","","3.3","","57","","34","","11","","25.0","","99.97","","","","","","Clear"
"1991-06-14 00:00","1991","06","14","00:00","10.9","","4.2","","63","","1","","7","","25.0","","99.94","","","","","","Clear"
"1991-06-14 01:00","1991","06","14","01:00","10.1","","3.9","","65","","33","","9","","25.0","","99.97","","","","","","Clear"
"1991-06-14 02:00","1991","06","14","02:00","9.3","","4.2","","71","","34","","7","","25.0","","99.97","","","","","","Clear"
"1991-06-14 03:00","1991","06","14","03:00","9.3","","4.7","","73","","36","","7","","25.0","","99.97","","","","","","Clear"
"1991-06-14 04:00","1991","06","14","04:00","8.6","","4.9","","77","","35","","11","","25.0","","100.01","","","","","","Mainly Clear"
"1991-06-14 05:00","1991","06","14","05:00","9.7","","4.2","","69","","36","","11","","40.2","","99.97","","","","","","Mostly Cloudy"
"1991-06-14 06:00","1991","06","14","06:00","11.0","","6.0","","71","","32","","7","","40.2","","99.94","","","","","","Mostly Cloudy"
"1991-06-14 07:00","1991","06","14","07:00","13.7","","5.9","","59","","24","","4","","40.2","","99.91","","","","","","Mainly Clear"
"1991-06-14 08:00","1991","06","14","08:00","17.1","","6.7","","50","","19","","7","","40.2","","99.91","","","","","","Mainly Clear"
"1991-06-14 09:00","1991","06","14","09:00","19.3","","6.4","","43","","16","","7","","40.2","","99.91","","","","","","Mainly Clear"
"1991-06-14 10:00","1991","06","14","10:00","20.6","","6.4","","40","","21","","7","","40.2","","99.91","","","","","","Mainly Clear"
"1991-06-14 11:00","1991","06","14","11:00","22.3","","7.4","","38","","25","","9","","40.2","","99.87","","","","","","Mostly Cloudy"
"1991-06-14 12:00","1991","06","14","12:00","23.8","","10.0","","42","","18","","13","","40.2","","99.81","","25","","","","Mostly Cloudy"
"1991-06-14 13:00","1991","06","14","13:00","23.3","","11.0","","46","","14","","20","","40.2","","99.74","","25","","","","Mostly Cloudy"
"1991-06-14 14:00","1991","06","14","14:00","24.5","","10.2","","41","","16","","20","","40.2","","99.67","","26","","","","Mainly Clear"
"1991-06-14 15:00","1991","06","14","15:00","25.2","","10.1","","39","","18","","20","","40.2","","99.61","","27","","","","Mostly Cloudy"
"1991-06-14 16:00","1991","06","14","16:00","25.0","","8.7","","36","","17","","22","","40.2","","99.54","","26","","","","Mostly Cloudy"
"1991-06-14 17:00","1991","06","14","17:00","24.5","","8.0","","35","","16","","20","","40.2","","99.47","","25","","","","Mostly Cloudy"
"1991-06-14 18:00","1991","06","14","18:00","23.6","","7.9","","37","","15","","17","","40.2","","99.41","","","","","","Mainly Clear"
"1991-06-14 19:00","1991","06","14","19:00","21.8","","11.1","","51","","14","","13","","32.2","","99.37","","","","","","Mostly Cloudy"
"1991-06-14 20:00","1991","06","14","20:00","19.6","","11.9","","61","","15","","13","","32.2","","99.27","","","","","","Mainly Clear"
"1991-06-14 21:00","1991","06","14","21:00","18.0","","12.8","","72","","15","","11","","25.0","","99.27","","","","","","Mainly Clear"
"1991-06-14 22:00","1991","06","14","22:00","17.4","","12.9","","75","","14","","9","","25.0","","99.24","","","","","","Mainly Clear"
"1991-06-14 23:00","1991","06","14","23:00","17.4","","12.9","","75","","15","","11","","25.0","","99.21","","","","","","Mainly Clear"
"1991-06-15 00:00","1991","06","15","00:00","17.4","","12.6","","74","","15","","9","","25.0","","99.14","","","","","","Mainly Clear"
"1991-06-15 01:00","1991","06","15","01:00","17.4","","12.2","","72","","15","","7","","25.0","","99.11","","","","","","Mainly Clear"
"1991-06-15 02:00","1991","06","15","02:00","16.4","","11.8","","74","","","","0","","25.0","","99.07","","","","","","Mostly Cloudy"
"1991-06-15 03:00","1991","06","15","03:00","19.0","","12.1","","64","","17","","9","","25.0","","98.97","","","","","","Mostly Cloudy"
"1991-06-15 04:00","1991","06","15","04:00","17.5","","11.8","","69","","17","","11","","25.0","","98.94","","","","","","Cloudy"
"1991-06-15 05:00","1991","06","15","05:00","17.6","","11.8","","69","","15","","11","","24.1","","98.94","","","","","","Cloudy"
"1991-06-15 06:00","1991","06","15","06:00","19.8","","13.2","","66","","18","","9","","19.3","","98.91","","","","","","Mostly Cloudy"
"1991-06-15 07:00","1991","06","15","07:00","22.2","","15.2","","65","","22","","11","","16.1","","98.87","","26","","","","Mostly Cloudy"
"1991-06-15 08:00","1991","06","15","08:00","24.0","","17.1","","65","","23","","20","","12.9","","98.81","","29","","","","Mostly Cloudy"
"1991-06-15 09:00","1991","06","15","09:00","25.8","","18.4","","64","","22","","19","","11.3","","98.74","","32","","","","Mainly Clear"
"1991-06-15 10:00","1991","06","15","10:00","29.0","","20.2","","59","","24","","24","","9.7","","98.74","","37","","","","Haze"
"1991-06-15 11:00","1991","06","15","11:00","30.9","","20.6","","54","","26","","30","","9.7","","98.81","","39","","","","Haze"
"1991-06-15 12:00","1991","06","15","12:00","31.6","","20.3","","51","","26","","22","","11.3","","98.74","","39","","","","Mainly Clear"
"1991-06-15 13:00","1991","06","15","13:00","30.9","","20.6","","54","","26","","20","","11.3","","98.71","","39","","","","Mostly Cloudy"
"1991-06-15 14:00","1991","06","15","14:00","32.2","","20.5","","50","","26","","22","","11.3","","98.61","","40","","","","Mainly Clear"
"1991-06-15 15:00","1991","06","15","15:00","33.5","","20.0","","45","","26","","26","","12.9","","98.57","","41","","","","Mainly Clear"
"1991-06-15 16:00","1991","06","15","16:00","32.8","","20.1","","47","","26","","20","","12.9","","98.54","","40","","","","Mainly Clear"
"1991-06-15 17:00","1991","06","15","17:00","32.4","","20.1","","48","","27","","20","","12.9","","98.44","","40","","","","Mainly Clear"
"1991-06-15 18:00","1991","06","15","18:00","31.1","","19.3","","49","","25","","19","","11.3","","98.51","","38","","","","Mostly Cloudy"
"1991-06-15 19:00","1991","06","15","19:00","21.0","","17.7","","82","","17","","11","","12.9","","98.54","","27","","","","Thunderstorms,Rain Showers"
"1991-06-15 20:00","1991","06","15","20:00","21.6","","17.0","","75","","","","0","","12.9","","98.47","","27","","","","Rain Showers"
"1991-06-15 21:00","1991","06","15","21:00","21.6","","19.2","","86","","21","","7","","24.1","","98.47","","29","","","","Mostly Cloudy"
"1991-06-15 22:00","1991","06","15","22:00","20.7","","18.4","","87","","25","","15","","12.9","","98.54","","27","","","","Rain Showers"
"1991-06-15 23:00","1991","06","15","23:00","20.4","","18.7","","90","","23","","9","","19.3","","98.57","","27","","","","Cloudy"
"1991-06-16 00:00","1991","06","16","00:00","20.3","","19.3","","94","","20","","9","","16.1","","98.54","","27","","","","Rain Showers"
"1991-06-16 01:00","1991","06","16","01:00","20.2","","18.5","","90","","21","","19","","16.1","","98.51","","27","","","","Cloudy"
"1991-06-16 02:00","1991","06","16","02:00","19.8","","18.8","","94","","22","","17","","16.1","","98.41","","","","","","Cloudy"
"1991-06-16 03:00","1991","06","16","03:00","19.8","","18.8","","94","","26","","15","","12.9","","98.44","","","","","","Cloudy"
"1991-06-16 04:00","1991","06","16","04:00","20.0","","18.8","","93","","24","","13","","12.9","","98.41","","27","","","","Mostly Cloudy"
"1991-06-16 05:00","1991","06","16","05:00","20.7","","18.7","","88","","24","","19","","9.7","","98.41","","27","","","","Fog"
"1991-06-16 06:00","1991","06","16","06:00","21.2","","19.2","","88","","26","","26","","8.0","","98.44","","28","","","","Fog"
"1991-06-16 07:00","1991","06","16","07:00","22.0","","18.8","","82","","32","","22","","24.1","","98.51","","29","","","","Mostly Cloudy"
"1991-06-16 08:00","1991","06","16","08:00","23.2","","19.2","","78","","33","","20","","24.1","","98.54","","30","","","","Mostly Cloudy"
"1991-06-16 09:00","1991","06","16","09:00","24.1","","19.1","","74","","29","","24","","32.2","","98.61","","31","","","","Mostly Cloudy"
"1991-06-16 10:00","1991","06","16","10:00","24.6","","19.0","","71","","29","","28","","32.2","","98.64","","31","","","","Mostly Cloudy"
"1991-06-16 11:00","1991","06","16","11:00","25.4","","19.8","","71","","28","","30","","32.2","","98.71","","33","","","","Mostly Cloudy"
"1991-06-16 12:00","1991","06","16","12:00","25.5","","20.4","","73","","28","","24","","24.1","","98.71","","33","","","","Mainly Clear"
"1991-06-16 13:00","1991","06","16","13:00","24.6","","19.6","","74","","29","","24","","24.1","","98.74","","32","","","","Mostly Cloudy"
"1991-06-16 14:00","1991","06","16","14:00","24.4","","19.6","","75","","28","","24","","24.1","","98.77","","32","","","","Mostly Cloudy"
"1991-06-16 15:00","1991","06","16","15:00","25.2","","19.2","","69","","29","","28","","24.1","","98.74","","32","","","","Mostly Cloudy"
"1991-06-16 16:00","1991","06","16","16:00","23.9","","19.1","","75","","30","","31","","24.1","","98.77","","31","","","","Mostly Cloudy"
"1991-06-16 17:00","1991","06","16","17:00","22.1","","17.5","","75","","30","","31","","24.1","","98.81","","28","","","","Mostly Cloudy"
"1991-06-16 18:00","1991","06","16","18:00","22.5","","17.7","","74","","30","","31","","24.1","","98.81","","28","","","","Mostly Cloudy"
"1991-06-16 19:00","1991","06","16","19:00","21.2","","17.1","","77","","30","","22","","19.3","","98.81","","27","","","","Mostly Cloudy"
"1991-06-16 20:00","1991","06","16","20:00","20.7","","16.2","","75","","30","","19","","19.3","","98.84","","25","","","","Mostly Cloudy"
"1991-06-16 21:00","1991","06","16","21:00","20.0","","15.0","","73","","31","","15","","25.0","","98.94","","","","","","Mostly Cloudy"
"1991-06-16 22:00","1991","06","16","22:00","19.0","","15.9","","82","","30","","15","","25.0","","98.94","","","","","","Mainly Clear"
"1991-06-16 23:00","1991","06","16","23:00","18.8","","16.6","","87","","31","","11","","24.1","","98.97","","","","","","Mainly Clear"
"1991-06-17 00:00","1991","06","17","00:00","18.3","","16.0","","87","","33","","17","","19.3","","99.01","","","","","","Mainly Clear"
"1991-06-17 01:00","1991","06","17","01:00","18.2","","15.5","","84","","32","","15","","19.3","","99.04","","","","","","Mainly Clear"
"1991-06-17 02:00","1991","06","17","02:00","17.2","","15.1","","87","","31","","4","","24.1","","99.07","","","","","","Clear"
"1991-06-17 03:00","1991","06","17","03:00","17.3","","15.6","","90","","34","","7","","24.1","","99.07","","","","","","Clear"
"1991-06-17 04:00","1991","06","17","04:00","17.0","","15.4","","90","","36","","15","","24.1","","99.14","","","","","","Mainly Clear"
"1991-06-17 05:00","1991","06","17","05:00","16.8","","15.4","","92","","1","","11","","24.1","","99.24","","","","","","Mostly Cloudy"
"1991-06-17 06:00","1991","06","17","06:00","17.9","","15.8","","87","","2","","11","","24.1","","99.34","","","","","","Mostly Cloudy"
"1991-06-17 07:00","1991","06","17","07:00","19.0","","15.9","","82","","2","","19","","32.2","","99.37","","","","","","Mainly Clear"
"1991-06-17 08:00","1991","06","17","08:00","20.2","","15.7","","75","","3","","17","","32.2","","99.44","","25","","","","Mostly Cloudy"
"1991-06-17 09:00","1991","06","17","09:00","21.7","","16.3","","71","","3","","11","","32.2","","99.47","","27","","","","Mostly Cloudy"
"1991-06-17 10:00","1991","06","17","10:00","23.0","","16.3","","66","","12","","4","","32.2","","99.51","","28","","","","Mostly Cloudy"
"1991-06-17 11:00","1991","06","17","11:00","24.5","","17.7","","66","","","","0","","40.2","","99.51","","30","","","","Mostly Cloudy"
"1991-06-17 12:00","1991","06","17","12:00","24.8","","17.3","","63","","16","","19","","40.2","","99.51","","30","","","","Mostly Cloudy"
"1991-06-17 13:00","1991","06","17","13:00","24.2","","16.8","","63","","15","","17","","40.2","","99.57","","29","","","","Mainly Clear"
"1991-06-17 14:00","1991","06","17","14:00","24.5","","17.7","","66","","16","","15","","40.2","","99.51","","30","","","","Mainly Clear"
"1991-06-17 15:00","1991","06","17","15:00","24.2","","17.5","","66","","16","","15","","40.2","","99.54","","30","","","","Mainly Clear"
"1991-06-17 16:00","1991","06","17","16:00","23.8","","17.1","","66","","14","","17","","32.2","","99.54","","29","","","","Mainly Clear"
"1991-06-17 17:00","1991","06","17","17:00","23.1","","16.0","","64","","16","","17","","32.2","","99.57","","28","","","","Mainly Clear"
"1991-06-17 18:00","1991","06","17","18:00","22.9","","16.3","","66","","15","","15","","24.1","","99.57","","28","","","","Mainly Clear"
"1991-06-17 19:00","1991","06","17","19:00","22.4","","15.8","","66","","16","","11","","24.1","","99.61","","27","","","","Mainly Clear"
"1991-06-17 20:00","1991","06","17","20:00","22.0","","15.9","","68","","15","","7","","32.2","","99.64","","27","","","","Mainly Clear"
"1991-06-17 21:00","1991","06","17","21:00","21.0","","15.8","","72","","9","","4","","25.0","","99.71","","25","","","","Clear"
"1991-06-17 22:00","1991","06","17","22:00","19.5","","15.5","","78","","14","","13","","25.0","","99.74","","","","","","Clear"
"1991-06-17 23:00","1991","06","17","23:00","19.4","","15.1","","76","","14","","9","","25.0","","99.77","","","","","","Clear"
"1991-06-18 00:00","1991","06","18","00:00","19.0","","14.9","","77","","13","","7","","25.0","","99.81","","","","","","Clear"
"1991-06-18 01:00","1991","06","18","01:00","19.0","","14.9","","77","","10","","7","","25.0","","99.84","","","","","","Clear"
"1991-06-18 02:00","1991","06","18","02:00","18.2","","14.5","","79","","10","","4","","25.0","","99.84","","","","","","Clear"
"1991-06-18 03:00","1991","06","18","03:00","18.0","","14.8","","81","","8","","7","","25.0","","99.84","","","","","","Clear"
"1991-06-18 04:00","1991","06","18","04:00","15.2","","13.7","","91","","36","","7","","24.1","","99.87","","","","","","Clear"
"1991-06-18 05:00","1991","06","18","05:00","16.0","","14.1","","89","","1","","6","","24.1","","99.87","","","","","","Mainly Clear"
"1991-06-18 06:00","1991","06","18","06:00","17.7","","15.3","","86","","5","","7","","24.1","","99.91","","","","","","Mainly Clear"
"1991-06-18 07:00","1991","06","18","07:00","20.5","","16.2","","77","","8","","11","","19.3","","99.91","","25","","","","Mainly Clear"
"1991-06-18 08:00","1991","06","18","08:00","20.4","","15.9","","75","","13","","13","","19.3","","99.91","","25","","","","Mostly Cloudy"
"1991-06-18 09:00","1991","06","18","09:00","20.8","","16.1","","75","","13","","20","","19.3","","99.97","","25","","","","Cloudy"
"1991-06-18 10:00","1991","06","18","10:00","21.4","","16.3","","73","","14","","11","","19.3","","99.97","","26","","","","Cloudy"
"1991-06-18 11:00","1991","06","18","11:00","22.4","","17.1","","72","","11","","13","","19.3","","99.91","","28","","","","Mostly Cloudy"
"1991-06-18 12:00","1991","06","18","12:00","23.4","","17.2","","68","","9","","7","","19.3","","99.87","","29","","","","Mainly Clear"
"1991-06-18 13:00","1991","06","18","13:00","24.2","","17.1","","65","","15","","17","","19.3","","99.87","","30","","","","Mostly Cloudy"
"1991-06-18 14:00","1991","06","18","14:00","24.9","","17.3","","63","","16","","15","","19.3","","99.81","","30","","","","Mostly Cloudy"
"1991-06-18 15:00","1991","06","18","15:00","25.4","","17.5","","62","","16","","20","","24.1","","99.81","","31","","","","Mostly Cloudy"
"1991-06-18 16:00","1991","06","18","16:00","25.0","","17.6","","64","","16","","19","","24.1","","99.77","","31","","","","Mostly Cloudy"
"1991-06-18 17:00","1991","06","18","17:00","24.4","","17.7","","66","","15","","15","","24.1","","99.71","","30","","","","Cloudy"
"1991-06-18 18:00","1991","06","18","18:00","23.9","","17.5","","68","","16","","13","","19.3","","99.71","","30","","","","Mostly Cloudy"
"1991-06-18 19:00","1991","06","18","19:00","24.0","","17.1","","65","","14","","9","","24.1","","99.74","","29","","","","Mostly Cloudy"
"1991-06-18 20:00","1991","06","18","20:00","23.2","","17.0","","68","","14","","11","","19.3","","99.77","","28","","","","Mostly Cloudy"
"1991-06-18 21:00","1991","06","18","21:00","22.2","","16.9","","72","","15","","9","","12.9","","99.81","","27","","","","Mostly Cloudy"
"1991-06-18 22:00","1991","06","18","22:00","21.5","","17.3","","77","","10","","7","","12.9","","99.81","","27","","","","Mostly Cloudy"
"1991-06-18 23:00","1991","06","18","23:00","21.0","","17.7","","82","","2","","7","","11.3","","99.81","","27","","","","Mostly Cloudy"
"1991-06-19 00:00","1991","06","19","00:00","21.1","","18.0","","82","","9","","7","","9.7","","99.77","","27","","","","Haze"
"1991-06-19 01:00","1991","06","19","01:00","20.5","","17.5","","83","","13","","7","","8.0","","99.71","","26","","","","Haze"
"1991-06-19 02:00","1991","06","19","02:00","19.6","","17.7","","89","","31","","4","","6.4","","99.77","","","","","","Fog"
"1991-06-19 03:00","1991","06","19","03:00","18.8","","17.5","","92","","","","0","","6.4","","99.74","","","","","","Fog"
"1991-06-19 04:00","1991","06","19","04:00","18.5","","17.3","","93","","32","","4","","6.4","","99.77","","","","","","Fog"
"1991-06-19 05:00","1991","06","19","05:00","17.7","","16.6","","93","","35","","7","","3.6","","99.77","","","","","","Fog"
"1991-06-19 06:00","1991","06","19","06:00","18.9","","17.5","","92","","35","","6","","4.0","","99.81","","","","","","Fog"
"1991-06-19 07:00","1991","06","19","07:00","20.5","","18.1","","86","","","","0","","4.0","","99.84","","27","","","","Fog"
"1991-06-19 08:00","1991","06","19","08:00","22.1","","18.2","","79","","","","0","","6.4","","99.84","","28","","","","Haze"
"1991-06-19 09:00","1991","06","19","09:00","24.3","","18.7","","71","","","","0","","9.7","","99.84","","31","","","","Haze"
"1991-06-19 10:00","1991","06","19","10:00","26.5","","18.3","","61","","5","","11","","11.3","","99.81","","33","","","","Mainly Clear"
"1991-06-19 11:00","1991","06","19","11:00","27.4","","17.5","","55","","","","0","","12.9","","99.81","","33","","","","Mainly Clear"
"1991-06-19 12:00","1991","06","19","12:00","27.6","","18.8","","59","","","","0","","11.3","","99.77","","34","","","","Mostly Cloudy"
"1991-06-19 13:00","1991","06","19","13:00","28.1","","18.4","","56","","17","","17","","12.9","","99.74","","34","","","","Mostly Cloudy"
"1991-06-19 14:00","1991","06","19","14:00","29.0","","18.9","","55","","18","","19","","11.3","","99.67","","36","","","","Mainly Clear"
"1991-06-19 15:00","1991","06","19","15:00","28.7","","18.0","","52","","19","","17","","11.3","","99.64","","35","","","","Mainly Clear"
"1991-06-19 16:00","1991","06","19","16:00","28.8","","17.9","","52","","15","","17","","11.3","","99.61","","35","","","","Mainly Clear"
"1991-06-19 17:00","1991","06","19","17:00","29.2","","17.9","","51","","14","","17","","11.3","","99.57","","35","","","","Mainly Clear"
"1991-06-19 18:00","1991","06","19","18:00","28.4","","17.7","","52","","16","","13","","16.1","","99.57","","34","","","","Mainly Clear"
"1991-06-19 19:00","1991","06","19","19:00","27.6","","19.2","","60","","16","","11","","12.9","","99.61","","35","","","","Mainly Clear"
"1991-06-19 20:00","1991","06","19","20:00","26.1","","16.7","","56","","36","","20","","16.1","","99.64","","31","","","","Mainly Clear"
"1991-06-19 21:00","1991","06","19","21:00","23.4","","16.9","","67","","36","","15","","24.1","","99.64","","29","","","","Clear"
"1991-06-19 22:00","1991","06","19","22:00","22.6","","16.4","","68","","35","","15","","24.1","","99.71","","27","","","","Clear"
"1991-06-19 23:00","1991","06","19","23:00","21.3","","17.0","","77","","35","","11","","24.1","","99.71","","27","","","","Clear"
"1991-06-20 00:00","1991","06","20","00:00","20.4","","15.9","","75","","34","","11","","24.1","","99.71","","25","","","","Clear"
"1991-06-20 01:00","1991","06","20","01:00","18.5","","14.7","","79","","34","","11","","25.0","","99.74","","","","","","Clear"
"1991-06-20 02:00","1991","06","20","02:00","18.5","","13.7","","74","","32","","9","","25.0","","99.74","","","","","","Clear"
"1991-06-20 03:00","1991","06","20","03:00","17.5","","12.2","","71","","35","","9","","25.0","","99.74","","","","","","Clear"
"1991-06-20 04:00","1991","06","20","04:00","17.3","","11.8","","70","","33","","6","","25.0","","99.77","","","","","","Clear"
"1991-06-20 05:00","1991","06","20","05:00","17.6","","11.1","","66","","","","0","","40.2","","99.81","","","","","","Mainly Clear"
"1991-06-20 06:00","1991","06","20","06:00","19.3","","12.3","","64","","28","","4","","40.2","","99.81","","","","","","Mainly Clear"
"1991-06-20 07:00","1991","06","20","07:00","22.6","","11.7","","50","","35","","9","","40.2","","99.81","","25","","","","Mainly Clear"
"1991-06-20 08:00","1991","06","20","08:00","25.0","","11.8","","44","","32","","9","","40.2","","99.77","","27","","","","Mainly Clear"
"1991-06-20 09:00","1991","06","20","09:00","25.6","","12.4","","44","","1","","11","","40.2","","99.77","","28","","","","Mainly Clear"
"1991-06-20 10:00","1991","06","20","10:00","27.2","","12.4","","40","","33","","9","","40.2","","99.71","","30","","","","Mostly Cloudy"
"1991-06-20 11:00","1991","06","20","11:00","28.8","","11.4","","34","","27","","20","","40.2","","99.71","","31","","","","Mostly Cloudy"
"1991-06-20 12:00","1991","06","20","12:00","29.8","","11.1","","32","","31","","19","","40.2","","99.67","","32","","","","Mostly Cloudy"
"1991-06-20 13:00","1991","06","20","13:00","30.4","","11.4","","31","","30","","22","","40.2","","99.64","","32","","","","Mostly Cloudy"
"1991-06-20 14:00","1991","06","20","14:00","30.0","","11.6","","32","","29","","22","","40.2","","99.61","","32","","","","Mostly Cloudy"
"1991-06-20 15:00","1991","06","20","15:00","30.3","","13.5","","36","","30","","20","","40.2","","99.61","","33","","","","Mainly Clear"
"1991-06-20 16:00","1991","06","20","16:00","29.3","","12.1","","35","","32","","22","","40.2","","99.61","","32","","","","Mainly Clear"
"1991-06-20 17:00","1991","06","20","17:00","29.6","","12.6","","35","","32","","24","","40.2","","99.54","","32","","","","Mainly Clear"
"1991-06-20 18:00","1991","06","20","18:00","28.8","","11.0","","33","","32","","22","","40.2","","99.54","","31","","","","Mainly Clear"
"1991-06-20 19:00","1991","06","20","19:00","27.5","","9.2","","32","","2","","24","","40.2","","99.54","","28","","","","Mainly Clear"
"1991-06-20 20:00","1991","06","20","20:00","23.7","","10.2","","43","","36","","22","","40.2","","99.57","","25","","","","Mostly Cloudy"
"1991-06-20 21:00","1991","06","20","21:00","22.1","","10.7","","48","","36","","19","","25.0","","99.64","","","","","","Mainly Clear"
"1991-06-20 22:00","1991","06","20","22:00","20.8","","11.0","","54","","34","","17","","25.0","","99.64","","","","","","Mainly Clear"
"1991-06-20 23:00","1991","06","20","23:00","19.2","","10.9","","59","","34","","15","","25.0","","99.64","","","","","","Mainly Clear"
"1991-06-21 00:00","1991","06","21","00:00","18.0","","11.7","","67","","36","","11","","25.0","","99.61","","","","","","Mainly Clear"
"1991-06-21 01:00","1991","06","21","01:00","17.6","","11.5","","67","","36","","11","","25.0","","99.57","","","","","","Mainly Clear"
"1991-06-21 02:00","1991","06","21","02:00","17.0","","11.6","","71","","33","","6","","25.0","","99.51","","","","","","Clear"
"1991-06-21 03:00","1991","06","21","03:00","16.9","","12.4","","75","","29","","7","","25.0","","99.51","","","","","","Mainly Clear"
"1991-06-21 04:00","1991","06","21","04:00","16.8","","13.1","","79","","34","","7","","25.0","","99.54","","","","","","Mainly Clear"
"1991-06-21 05:00","1991","06","21","05:00","17.1","","10.5","","65","","34","","7","","40.2","","99.61","","","","","","Mostly Cloudy"
"1991-06-21 06:00","1991","06","21","06:00","18.2","","11.3","","64","","36","","13","","40.2","","99.64","","","","","","Mainly Clear"
"1991-06-21 07:00","1991","06","21","07:00","19.1","","12.1","","64","","35","","13","","40.2","","99.64","","","","","","Mostly Cloudy"
"1991-06-21 08:00","1991","06","21","08:00","21.6","","12.4","","56","","3","","11","","40.2","","99.61","","","","","","Mainly Clear"
"1991-06-21 09:00","1991","06","21","09:00","22.7","","11.3","","48","","","","0","","40.2","","99.61","","25","","","","Mainly Clear"
"1991-06-21 10:00","1991","06","21","10:00","24.5","","11.9","","45","","","","0","","40.2","","99.54","","27","","","","Mostly Cloudy"
"1991-06-21 11:00","1991","06","21","11:00","25.2","","12.2","","44","","18","","13","","40.2","","99.57","","28","","","","Mostly Cloudy"
"1991-06-21 12:00","1991","06","21","12:00","25.7","","12.8","","45","","17","","17","","32.2","","99.51","","28","","","","Mainly Clear"
"1991-06-21 13:00","1991","06","21","13:00","25.9","","13.5","","46","","16","","19","","32.2","","99.47","","29","","","","Mostly Cloudy"
"1991-06-21 14:00","1991","06","21","14:00","26.0","","13.5","","46","","17","","19","","32.2","","99.44","","29","","","","Mostly Cloudy"
"1991-06-21 15:00","1991","06","21","15:00","25.0","","12.2","","45","","14","","15","","40.2","","99.41","","27","","","","Mostly Cloudy"
"1991-06-21 16:00","1991","06","21","16:00","26.0","","12.3","","43","","11","","15","","32.2","","99.41","","28","","","","Mostly Cloudy"
"1991-06-21 17:00","1991","06","21","17:00","25.4","","13.6","","48","","","","0","","32.2","","99.34","","29","","","","Mostly Cloudy"
"1991-06-21 18:00","1991","06","21","18:00","24.8","","13.7","","50","","6","","22","","32.2","","99.34","","28","","","","Mainly Clear"
"1991-06-21 19:00","1991","06","21","19:00","23.0","","12.7","","52","","4","","22","","32.2","","99.41","","26","","","","Mainly Clear"
"1991-06-21 20:00","1991","06","21","20:00","21.0","","11.0","","53","","4","","22","","32.2","","99.44","","","","","","Mostly Cloudy"
"1991-06-21 21:00","1991","06","21","21:00","19.1","","11.3","","60","","2","","22","","25.0","","99.57","","","","","","Mainly Clear"
"1991-06-21 22:00","1991","06","21","22:00","18.4","","11.1","","63","","5","","22","","25.0","","99.57","","","","","","Cloudy"
"1991-06-21 23:00","1991","06","21","23:00","17.7","","8.3","","54","","6","","20","","25.0","","99.57","","","","","","Mostly Cloudy"
"1991-06-22 00:00","1991","06","22","00:00","17.4","","9.5","","60","","4","","19","","25.0","","99.61","","","","","","Cloudy"
"1991-06-22 01:00","1991","06","22","01:00","17.2","","9.7","","61","","4","","19","","25.0","","99.61","","","","","","Cloudy"
"1991-06-22 02:00","1991","06","22","02:00","16.7","","10.7","","68","","6","","19","","25.0","","99.61","","","","","","Cloudy"
"1991-06-22 03:00","1991","06","22","03:00","16.6","","10.3","","66","","6","","19","","25.0","","99.61","","","","","","Cloudy"
"1991-06-22 04:00","1991","06","22","04:00","16.7","","8.7","","59","","8","","19","","25.0","","99.61","","","","","","Cloudy"
"1991-06-22 05:00","1991","06","22","05:00","16.6","","8.3","","58","","6","","19","","32.2","","99.61","","","","","","Cloudy"
"1991-06-22 06:00","1991","06","22","06:00","15.6","","9.1","","65","","6","","20","","40.2","","99.67","","","","","","Rain Showers"
"1991-06-22 07:00","1991","06","22","07:00","16.2","","7.2","","55","","6","","20","","40.2","","99.67","","","","","","Cloudy"
"1991-06-22 08:00","1991","06","22","08:00","16.6","","7.0","","53","","7","","22","","40.2","","99.67","","","","","","Cloudy"
"1991-06-22 09:00","1991","06","22","09:00","16.9","","6.3","","50","","8","","24","","40.2","","99.71","","","","","","Cloudy"
"1991-06-22 10:00","1991","06","22","10:00","17.2","","6.3","","49","","6","","26","","40.2","","99.71","","","","","","Cloudy"
"1991-06-22 11:00","1991","06","22","11:00","17.2","","5.8","","47","","7","","19","","40.2","","99.71","","","","","","Cloudy"
"1991-06-22 12:00","1991","06","22","12:00","17.8","","8.0","","53","","4","","19","","40.2","","99.67","","","","","","Mostly Cloudy"
"1991-06-22 13:00","1991","06","22","13:00","18.9","","7.1","","46","","4","","19","","40.2","","99.64","","","","","","Mostly Cloudy"
"1991-06-22 14:00","1991","06","22","14:00","19.5","","6.9","","44","","5","","20","","40.2","","99.64","","","","","","Mostly Cloudy"
"1991-06-22 15:00","1991","06","22","15:00","19.3","","5.9","","42","","5","","17","","40.2","","99.64","","","","","","Mostly Cloudy"
"1991-06-22 16:00","1991","06","22","16:00","20.3","","7.4","","43","","7","","22","","40.2","","99.64","","","","","","Mostly Cloudy"
"1991-06-22 17:00","1991","06","22","17:00","18.7","","8.7","","52","","13","","17","","40.2","","99.61","","","","","","Mostly Cloudy"
"1991-06-22 18:00","1991","06","22","18:00","18.0","","8.9","","55","","12","","15","","40.2","","99.64","","","","","","Mostly Cloudy"
"1991-06-22 19:00","1991","06","22","19:00","17.6","","8.7","","56","","14","","13","","40.2","","99.71","","","","","","Mostly Cloudy"
"1991-06-22 20:00","1991","06","22","20:00","16.6","","9.5","","63","","12","","11","","40.2","","99.74","","","","","","Mostly Cloudy"
"1991-06-22 21:00","1991","06","22","21:00","16.1","","9.3","","64","","11","","9","","25.0","","99.81","","","","","","Mostly Cloudy"
"1991-06-22 22:00","1991","06","22","22:00","15.5","","9.5","","67","","6","","11","","25.0","","99.84","","","","","","Cloudy"
"1991-06-22 23:00","1991","06","22","23:00","15.2","","9.4","","68","","5","","11","","25.0","","99.84","","","","","","Mostly Cloudy"
"1991-06-23 00:00","1991","06","23","00:00","13.7","","8.8","","72","","35","","7","","25.0","","99.87","","","","","","Mostly Cloudy"
"1991-06-23 01:00","1991","06","23","01:00","12.2","","8.7","","79","","1","","11","","25.0","","99.87","","","","","","Mainly Clear"
"1991-06-23 02:00","1991","06","23","02:00","13.5","","8.0","","69","","2","","11","","25.0","","99.87","","","","","","Mainly Clear"
"1991-06-23 03:00","1991","06","23","03:00","12.7","","6.4","","65","","3","","9","","25.0","","99.87","","","","","","Mainly Clear"
"1991-06-23 04:00","1991","06","23","04:00","10.0","","6.1","","77","","1","","13","","25.0","","99.91","","","","","","Clear"
"1991-06-23 05:00","1991","06","23","05:00","12.0","","6.7","","70","","1","","13","","40.2","","99.94","","","","","","Clear"
"1991-06-23 06:00","1991","06","23","06:00","13.9","","7.4","","65","","2","","11","","40.2","","100.01","","","","","","Clear"
"1991-06-23 07:00","1991","06","23","07:00","16.8","","8.1","","57","","4","","11","","40.2","","100.07","","","","","","Clear"
"1991-06-23 08:00","1991","06","23","08:00","19.3","","7.4","","46","","7","","19","","40.2","","100.11","","","","","","Clear"
"1991-06-23 09:00","1991","06","23","09:00","20.6","","4.4","","34","","7","","22","","40.2","","100.14","","","","","","Clear"
"1991-06-23 10:00","1991","06","23","10:00","21.6","","5.4","","35","","11","","20","","40.2","","100.17","","","","","","Mainly Clear"
"1991-06-23 11:00","1991","06","23","11:00","21.8","","5.7","","35","","7","","19","","40.2","","100.17","","","","","","Mainly Clear"
"1991-06-23 12:00","1991","06","23","12:00","22.2","","4.6","","32","","14","","22","","40.2","","100.21","","","","","","Mainly Clear"
"1991-06-23 13:00","1991","06","23","13:00","22.0","","6.7","","37","","14","","22","","40.2","","100.17","","","","","","Mainly Clear"
"1991-06-23 14:00","1991","06","23","14:00","22.2","","6.7","","37","","14","","22","","40.2","","100.14","","","","","","Clear"
"1991-06-23 15:00","1991","06","23","15:00","22.2","","5.7","","34","","14","","22","","40.2","","100.14","","","","","","Clear"
"1991-06-23 16:00","1991","06","23","16:00","22.0","","5.7","","35","","16","","20","","40.2","","100.11","","","","","","Mainly Clear"
"1991-06-23 17:00","1991","06","23","17:00","21.5","","4.9","","34","","18","","17","","40.2","","100.11","","","","","","Mainly Clear"
"1991-06-23 18:00","1991","06","23","18:00","21.3","","5.4","","35","","17","","15","","40.2","","100.11","","","","","","Mostly Cloudy"
"1991-06-23 19:00","1991","06","23","19:00","20.6","","4.9","","36","","19","","11","","40.2","","100.17","","","","","","Mainly Clear"
"1991-06-23 20:00","1991","06","23","20:00","19.6","","4.4","","37","","15","","7","","40.2","","100.17","","","","","","Mainly Clear"
"1991-06-23 21:00","1991","06","23","21:00","18.7","","4.5","","39","","14","","7","","25.0","","100.21","","","","","","Clear"
"1991-06-23 22:00","1991","06","23","22:00","18.3","","4.5","","40","","13","","7","","25.0","","100.24","","","","","","Clear"
"1991-06-23 23:00","1991","06","23","23:00","14.5","","6.2","","58","","36","","11","","25.0","","100.27","","","","","","Clear"
"1991-06-24 00:00","1991","06","24","00:00","14.2","","6.9","","61","","35","","15","","25.0","","100.27","","","","","","Clear"
"1991-06-24 01:00","1991","06","24","01:00","12.9","","7.4","","69","","34","","13","","25.0","","100.31","","","","","","Mainly Clear"
"1991-06-24 02:00","1991","06","24","02:00","12.6","","7.3","","70","","35","","13","","25.0","","100.31","","","","","","Mainly Clear"
"1991-06-24 03:00","1991","06","24","03:00","13.0","","7.0","","67","","36","","15","","25.0","","100.31","","","","","","Mainly Clear"
"1991-06-24 04:00","1991","06","24","04:00","12.4","","6.9","","69","","36","","19","","25.0","","100.31","","","","","","Mainly Clear"
"1991-06-24 05:00","1991","06","24","05:00","12.6","","6.9","","68","","35","","7","","40.2","","100.27","","","","","","Mainly Clear"
"1991-06-24 06:00","1991","06","24","06:00","13.9","","7.8","","67","","35","","11","","40.2","","100.31","","","","","","Mainly Clear"
"1991-06-24 07:00","1991","06","24","07:00","17.1","","8.5","","57","","36","","7","","40.2","","100.31","","","","","","Mainly Clear"
"1991-06-24 08:00","1991","06","24","08:00","20.5","","10.4","","52","","","","0","","32.2","","100.37","","","","","","Mostly Cloudy"
"1991-06-24 09:00","1991","06","24","09:00","22.2","","7.6","","39","","21","","7","","40.2","","100.37","","","","","","Mostly Cloudy"
"1991-06-24 10:00","1991","06","24","10:00","23.4","","6.9","","35","","17","","11","","40.2","","100.37","","","","","","Mostly Cloudy"
"1991-06-24 11:00","1991","06","24","11:00","23.4","","6.9","","35","","14","","7","","40.2","","100.37","","","","","","Mostly Cloudy"
"1991-06-24 12:00","1991","06","24","12:00","24.1","","5.2","","30","","15","","15","","40.2","","100.37","","","","","","Mostly Cloudy"
"1991-06-24 13:00","1991","06","24","13:00","24.3","","6.0","","31","","13","","19","","40.2","","100.31","","","","","","Mainly Clear"
"1991-06-24 14:00","1991","06","24","14:00","24.1","","4.6","","28","","16","","15","","40.2","","100.24","","","","","","Mostly Cloudy"
"1991-06-24 15:00","1991","06","24","15:00","25.0","","6.3","","30","","11","","11","","40.2","","100.17","","25","","","","Mainly Clear"
"1991-06-24 16:00","1991","06","24","16:00","24.8","","7.8","","34","","14","","15","","40.2","","100.14","","25","","","","Mainly Clear"
"1991-06-24 17:00","1991","06","24","17:00","24.6","","7.0","","32","","15","","11","","40.2","","100.11","","25","","","","Mostly Cloudy"
"1991-06-24 18:00","1991","06","24","18:00","24.1","","7.2","","34","","13","","15","","40.2","","100.11","","","","","","Mostly Cloudy"
"1991-06-24 19:00","1991","06","24","19:00","22.9","","8.1","","39","","14","","15","","40.2","","100.11","","","","","","Mostly Cloudy"
"1991-06-24 20:00","1991","06","24","20:00","20.6","","9.1","","48","","17","","7","","40.2","","100.07","","","","","","Mainly Clear"
"1991-06-24 21:00","1991","06","24","21:00","19.8","","11.0","","57","","17","","4","","25.0","","100.11","","","","","","Clear"
"1991-06-24 22:00","1991","06","24","22:00","19.3","","11.5","","61","","","","0","","25.0","","100.11","","","","","","Clear"
"1991-06-24 23:00","1991","06","24","23:00","19.0","","10.5","","58","","","","0","","25.0","","100.11","","","","","","Clear"
"1991-06-25 00:00","1991","06","25","00:00","15.6","","9.9","","69","","36","","7","","25.0","","100.11","","","","","","Clear"
"1991-06-25 01:00","1991","06","25","01:00","14.4","","9.6","","73","","36","","7","","25.0","","100.11","","","","","","Clear"
"1991-06-25 02:00","1991","06","25","02:00","13.2","","8.3","","72","","35","","11","","25.0","","100.14","","","","","","Clear"
"1991-06-25 03:00","1991","06","25","03:00","13.4","","8.4","","72","","35","","11","","25.0","","100.14","","","","","","Mainly Clear"
"1991-06-25 04:00","1991","06","25","04:00","12.8","","8.7","","76","","35","","9","","25.0","","100.14","","","","","","Mainly Clear"
"1991-06-25 05:00","1991","06","25","05:00","12.4","","8.5","","77","","34","","7","","40.2","","100.17","","","","","","Mainly Clear"
"1991-06-25 06:00","1991","06","25","06:00","14.7","","9.6","","71","","34","","7","","40.2","","100.21","","","","","","Mainly Clear"
"1991-06-25 07:00","1991","06","25","07:00","17.7","","8.3","","54","","35","","4","","40.2","","100.21","","","","","","Clear"
"1991-06-25 08:00","1991","06","25","08:00","21.1","","9.8","","48","","16","","4","","32.2","","100.21","","","","","","Clear"
"1991-06-25 09:00","1991","06","25","09:00","22.5","","10.9","","48","","15","","7","","32.2","","100.17","","","","","","Clear"
"1991-06-25 10:00","1991","06","25","10:00","24.0","","12.5","","49","","14","","11","","32.2","","100.17","","27","","","","Clear"
"1991-06-25 11:00","1991","06","25","11:00","24.2","","13.2","","50","","14","","13","","32.2","","100.14","","27","","","","Clear"
"1991-06-25 12:00","1991","06","25","12:00","25.7","","12.4","","44","","15","","17","","32.2","","100.14","","28","","","","Clear"
"1991-06-25 13:00","1991","06","25","13:00","25.5","","11.6","","42","","14","","17","","32.2","","100.07","","28","","","","Clear"
"1991-06-25 14:00","1991","06","25","14:00","26.9","","11.6","","39","","18","","17","","24.1","","99.97","","29","","","","Clear"
"1991-06-25 15:00","1991","06","25","15:00","27.2","","10.7","","36","","13","","17","","24.1","","99.94","","29","","","","Clear"
"1991-06-25 16:00","1991","06","25","16:00","27.5","","12.7","","40","","16","","17","","24.1","","99.91","","30","","","","Clear"
"1991-06-25 17:00","1991","06","25","17:00","26.4","","12.5","","42","","16","","17","","24.1","","99.87","","29","","","","Clear"
"1991-06-25 18:00","1991","06","25","18:00","25.7","","13.2","","46","","15","","15","","32.2","","99.87","","29","","","","Clear"
"1991-06-25 19:00","1991","06","25","19:00","24.7","","13.9","","51","","17","","11","","40.2","","99.91","","28","","","","Mainly Clear"
"1991-06-25 20:00","1991","06","25","20:00","23.6","","14.1","","55","","20","","9","","32.2","","99.87","","27","","","","Mainly Clear"
"1991-06-25 21:00","1991","06","25","21:00","21.1","","13.3","","61","","32","","7","","25.0","","99.91","","","","","","Mainly Clear"
"1991-06-25 22:00","1991","06","25","22:00","19.9","","12.9","","64","","35","","15","","25.0","","99.97","","","","","","Clear"
"1991-06-25 23:00","1991","06","25","23:00","19.5","","10.0","","54","","3","","11","","25.0","","100.01","","","","","","Clear"
"1991-06-26 00:00","1991","06","26","00:00","17.5","","10.3","","63","","33","","7","","25.0","","100.01","","","","","","Clear"
"1991-06-26 01:00","1991","06","26","01:00","16.8","","10.1","","65","","33","","7","","25.0","","99.97","","","","","","Clear"
"1991-06-26 02:00","1991","06","26","02:00","17.0","","10.1","","64","","35","","7","","25.0","","99.94","","","","","","Mainly Clear"
"1991-06-26 03:00","1991","06","26","03:00","16.2","","10.1","","67","","","","0","","25.0","","99.91","","","","","","Clear"
"1991-06-26 04:00","1991","06","26","04:00","16.3","","10.7","","70","","","","0","","25.0","","99.91","","","","","","Mainly Clear"
"1991-06-26 05:00","1991","06","26","05:00","15.9","","10.9","","72","","","","0","","24.1","","99.97","","","","","","Mostly Cloudy"
"1991-06-26 06:00","1991","06","26","06:00","16.2","","10.5","","69","","34","","7","","32.2","","100.07","","","","","","Mainly Clear"
"1991-06-26 07:00","1991","06","26","07:00","19.6","","11.9","","61","","","","0","","24.1","","100.01","","","","","","Mainly Clear"
"1991-06-26 08:00","1991","06","26","08:00","23.8","","12.5","","49","","21","","13","","24.1","","100.04","","26","","","","Mostly Cloudy"
"1991-06-26 09:00","1991","06","26","09:00","25.4","","12.8","","46","","22","","13","","19.3","","99.97","","28","","","","Cloudy"
"1991-06-26 10:00","1991","06","26","10:00","27.6","","12.7","","40","","21","","15","","19.3","","99.97","","30","","","","Mostly Cloudy"
"1991-06-26 11:00","1991","06","26","11:00","28.4","","14.8","","44","","18","","15","","19.3","","99.91","","32","","","","Mainly Clear"
"1991-06-26 12:00","1991","06","26","12:00","28.5","","15.2","","44","","13","","15","","16.1","","99.87","","33","","","","Mainly Clear"
"1991-06-26 13:00","1991","06","26","13:00","30.4","","15.1","","40","","","","0","","12.9","","99.84","","34","","","","Mainly Clear"
"1991-06-26 14:00","1991","06","26","14:00","29.8","","16.3","","44","","17","","19","","11.3","","99.84","","35","","","","Mostly Cloudy"
"1991-06-26 15:00","1991","06","26","15:00","28.9","","16.9","","48","","15","","17","","11.3","","99.77","","34","","","","Mostly Cloudy"
"1991-06-26 16:00","1991","06","26","16:00","29.4","","17.5","","49","","18","","19","","11.3","","99.67","","35","","","","Mainly Clear"
"1991-06-26 17:00","1991","06","26","17:00","29.6","","17.2","","47","","20","","15","","11.3","","99.57","","35","","","","Mainly Clear"
"1991-06-26 18:00","1991","06","26","18:00","29.5","","15.7","","43","","26","","28","","11.3","","99.64","","34","","","","Mainly Clear"
"1991-06-26 19:00","1991","06","26","19:00","28.4","","14.8","","44","","23","","28","","11.3","","99.61","","32","","","","Mainly Clear"
"1991-06-26 20:00","1991","06","26","20:00","27.1","","13.6","","43","","24","","22","","12.9","","99.64","","30","","","","Mainly Clear"
"1991-06-26 21:00","1991","06","26","21:00","25.3","","14.0","","50","","25","","15","","9.7","","99.77","","29","","","","Haze"
"1991-06-26 22:00","1991","06","26","22:00","24.5","","14.2","","53","","25","","15","","8.0","","99.77","","28","","","","Haze"
"1991-06-26 23:00","1991","06","26","23:00","22.9","","14.6","","60","","25","","11","","9.7","","99.81","","27","","","","Haze"
"1991-06-27 00:00","1991","06","27","00:00","22.0","","14.8","","64","","27","","6","","8.0","","99.81","","26","","","","Haze"
"1991-06-27 01:00","1991","06","27","01:00","21.9","","15.9","","69","","27","","11","","8.0","","99.81","","26","","","","Haze"
"1991-06-27 02:00","1991","06","27","02:00","21.7","","15.7","","69","","25","","15","","8.0","","99.77","","26","","","","Haze"
"1991-06-27 03:00","1991","06","27","03:00","21.1","","16.1","","73","","24","","15","","8.0","","99.77","","26","","","","Haze"
"1991-06-27 04:00","1991","06","27","04:00","20.8","","16.4","","76","","25","","15","","8.0","","99.81","","26","","","","Haze"
"1991-06-27 05:00","1991","06","27","05:00","21.0","","16.4","","75","","25","","13","","6.4","","99.81","","26","","","","Haze"
"1991-06-27 06:00","1991","06","27","06:00","21.7","","16.3","","71","","26","","11","","6.4","","99.87","","27","","","","Haze"
"1991-06-27 07:00","1991","06","27","07:00","23.2","","16.7","","67","","26","","17","","8.0","","99.91","","28","","","","Haze"
"1991-06-27 08:00","1991","06","27","08:00","26.2","","17.4","","58","","25","","22","","9.7","","99.94","","32","","","","Haze"
"1991-06-27 09:00","1991","06","27","09:00","28.2","","18.1","","54","","26","","24","","9.7","","99.91","","34","","","","Haze"
"1991-06-27 10:00","1991","06","27","10:00","29.0","","18.3","","52","","27","","31","","9.7","","99.94","","35","","","","Haze"
"1991-06-27 11:00","1991","06","27","11:00","30.6","","18.4","","48","","25","","37","","6.4","","99.94","","37","","","","Haze"
"1991-06-27 12:00","1991","06","27","12:00","31.8","","18.9","","46","","26","","31","","8.0","","99.91","","38","","","","Haze"
"1991-06-27 13:00","1991","06","27","13:00","31.5","","17.9","","44","","26","","30","","9.7","","99.87","","37","","","","Haze"
"1991-06-27 14:00","1991","06","27","14:00","31.4","","17.2","","43","","25","","30","","9.7","","99.81","","37","","","","Haze"
"1991-06-27 15:00","1991","06","27","15:00","30.7","","17.7","","46","","23","","33","","9.7","","99.81","","36","","","","Haze"
"1991-06-27 16:00","1991","06","27","16:00","30.6","","17.7","","46","","24","","37","","9.7","","99.77","","36","","","","Haze"
"1991-06-27 17:00","1991","06","27","17:00","30.4","","17.7","","47","","25","","26","","9.7","","99.77","","36","","","","Haze"
"1991-06-27 18:00","1991","06","27","18:00","29.4","","16.1","","45","","24","","31","","11.3","","99.74","","34","","","","Mainly Clear"
"1991-06-27 19:00","1991","06","27","19:00","28.3","","15.2","","45","","24","","22","","11.3","","99.77","","32","","","","Mostly Cloudy"
"1991-06-27 20:00","1991","06","27","20:00","26.9","","14.7","","47","","23","","19","","11.3","","99.71","","31","","","","Mostly Cloudy"
"1991-06-27 21:00","1991","06","27","21:00","25.6","","13.6","","47","","23","","19","","9.7","","99.64","","29","","","","Haze"
"1991-06-27 22:00","1991","06","27","22:00","25.1","","13.0","","47","","24","","19","","11.3","","99.64","","28","","","","Mostly Cloudy"
"1991-06-27 23:00","1991","06","27","23:00","23.8","","13.2","","52","","24","","15","","11.3","","99.67","","27","","","","Mostly Cloudy"
"1991-06-28 00:00","1991","06","28","00:00","23.0","","13.5","","55","","23","","7","","12.9","","99.64","","26","","","","Mostly Cloudy"
"1991-06-28 01:00","1991","06","28","01:00","23.3","","13.4","","54","","22","","15","","11.3","","99.64","","26","","","","Mainly Clear"
"1991-06-28 02:00","1991","06","28","02:00","22.5","","13.3","","56","","","","0","","12.9","","99.67","","25","","","","Clear"
"1991-06-28 03:00","1991","06","28","03:00","22.6","","13.6","","57","","28","","11","","9.7","","99.71","","26","","","","Haze"
"1991-06-28 04:00","1991","06","28","04:00","22.1","","14.1","","61","","24","","7","","8.0","","99.64","","26","","","","Haze"
"1991-06-28 05:00","1991","06","28","05:00","22.6","","15.1","","63","","22","","4","","9.7","","99.67","","27","","","","Haze"
"1991-06-28 06:00","1991","06","28","06:00","22.0","","15.9","","68","","22","","11","","9.7","","99.67","","27","","","","Haze"
"1991-06-28 07:00","1991","06","28","07:00","23.8","","17.1","","66","","25","","15","","9.7","","99.64","","29","","","","Haze"
"1991-06-28 08:00","1991","06","28","08:00","26.1","","17.8","","60","","26","","20","","9.7","","99.64","","32","","","","Haze"
"1991-06-28 09:00","1991","06","28","09:00","28.4","","19.0","","57","","26","","20","","9.7","","99.64","","35","","","","Haze"
"1991-06-28 10:00","1991","06","28","10:00","30.7","","17.3","","45","","28","","41","","11.3","","99.64","","36","","","","Mostly Cloudy"
"1991-06-28 11:00","1991","06","28","11:00","31.3","","17.2","","43","","27","","37","","12.9","","99.57","","37","","","","Cloudy"
"1991-06-28 12:00","1991","06","28","12:00","32.5","","15.5","","36","","27","","37","","12.9","","99.51","","37","","","","Cloudy"
"1991-06-28 13:00","1991","06","28","13:00","33.0","","14.6","","33","","26","","31","","16.1","","99.41","","37","","","","Cloudy"
"1991-06-28 14:00","1991","06","28","14:00","33.4","","14.9","","33","","26","","33","","19.3","","99.41","","37","","","","Cloudy"
"1991-06-28 15:00","1991","06","28","15:00","33.7","","13.7","","30","","27","","37","","19.3","","99.41","","37","","","","Mainly Clear"
"1991-06-28 16:00","1991","06","28","16:00","33.8","","16.8","","36","","26","","30","","19.3","","99.34","","39","","","","Mainly Clear"
"1991-06-28 17:00","1991","06","28","17:00","32.6","","16.3","","38","","27","","37","","19.3","","99.31","","37","","","","Mainly Clear"
"1991-06-28 18:00","1991","06","28","18:00","31.6","","17.9","","44","","29","","35","","19.3","","99.31","","38","","","","Mainly Clear"
"1991-06-28 19:00","1991","06","28","19:00","30.4","","18.0","","48","","27","","26","","16.1","","99.31","","36","","","","Mainly Clear"
"1991-06-28 20:00","1991","06","28","20:00","29.0","","17.9","","51","","28","","22","","16.1","","99.31","","35","","","","Mostly Cloudy"
"1991-06-28 21:00","1991","06","28","21:00","27.1","","18.3","","59","","26","","17","","16.1","","99.31","","33","","","","Mostly Cloudy"
"1991-06-28 22:00","1991","06","28","22:00","27.7","","17.5","","54","","27","","19","","16.1","","99.31","","33","","","","Cloudy"
"1991-06-28 23:00","1991","06","28","23:00","27.4","","18.2","","57","","27","","15","","16.1","","99.34","","34","","","","Cloudy"
"1991-06-29 00:00","1991","06","29","00:00","26.4","","18.0","","60","","26","","17","","16.1","","99.34","","32","","","","Cloudy"
"1991-06-29 01:00","1991","06","29","01:00","25.9","","18.4","","63","","29","","20","","16.1","","99.37","","32","","","","Cloudy"
"1991-06-29 02:00","1991","06","29","02:00","25.8","","19.7","","69","","33","","20","","16.1","","99.41","","33","","","","Cloudy"
"1991-06-29 03:00","1991","06","29","03:00","23.9","","19.1","","75","","35","","15","","19.3","","99.34","","31","","","","Mostly Cloudy"
"1991-06-29 04:00","1991","06","29","04:00","22.8","","18.3","","76","","","","0","","24.1","","99.34","","29","","","","Mostly Cloudy"
"1991-06-29 05:00","1991","06","29","05:00","22.0","","17.2","","74","","34","","7","","19.3","","99.41","","27","","","","Mostly Cloudy"
"1991-06-29 06:00","1991","06","29","06:00","21.1","","16.1","","73","","36","","17","","24.1","","99.57","","26","","","","Cloudy"
"1991-06-29 07:00","1991","06","29","07:00","21.3","","17.0","","77","","1","","4","","24.1","","99.51","","27","","","","Mostly Cloudy"
"1991-06-29 08:00","1991","06","29","08:00","22.1","","17.2","","74","","1","","11","","16.1","","99.54","","28","","","","Cloudy"
"1991-06-29 09:00","1991","06","29","09:00","22.7","","18.1","","75","","3","","4","","9.7","","99.54","","29","","","","Haze"
"1991-06-29 10:00","1991","06","29","10:00","22.7","","18.4","","77","","3","","7","","16.1","","99.57","","29","","","","Cloudy"
"1991-06-29 11:00","1991","06","29","11:00","23.7","","17.2","","67","","15","","20","","19.3","","99.51","","29","","","","Cloudy"
"1991-06-29 12:00","1991","06","29","12:00","23.0","","17.0","","69","","15","","20","","19.3","","99.51","","28","","","","Cloudy"
"1991-06-29 13:00","1991","06","29","13:00","23.7","","16.2","","63","","14","","17","","24.1","","99.47","","28","","","","Mostly Cloudy"
"1991-06-29 14:00","1991","06","29","14:00","23.6","","14.8","","58","","15","","20","","24.1","","99.41","","27","","","","Mostly Cloudy"
"1991-06-29 15:00","1991","06","29","15:00","22.4","","15.1","","63","","14","","19","","32.2","","99.37","","26","","","","Mostly Cloudy"
"1991-06-29 16:00","1991","06","29","16:00","23.2","","15.3","","61","","14","","15","","32.2","","99.31","","27","","","","Mostly Cloudy"
"1991-06-29 17:00","1991","06","29","17:00","23.5","","15.9","","62","","13","","15","","24.1","","99.27","","28","","","","Clear"
"1991-06-29 18:00","1991","06","29","18:00","22.5","","14.0","","59","","15","","19","","24.1","","99.24","","26","","","","Mainly Clear"
"1991-06-29 19:00","1991","06","29","19:00","21.0","","13.3","","61","","13","","22","","24.1","","99.21","","","","","","Mostly Cloudy"
"1991-06-29 20:00","1991","06","29","20:00","20.6","","13.5","","64","","13","","15","","24.1","","99.21","","","","","","Mostly Cloudy"
"1991-06-29 21:00","1991","06","29","21:00","20.3","","12.7","","62","","13","","7","","25.0","","99.17","","","","","","Mostly Cloudy"
"1991-06-29 22:00","1991","06","29","22:00","20.0","","11.8","","59","","12","","15","","25.0","","99.14","","","","","","Mostly Cloudy"
"1991-06-29 23:00","1991","06","29","23:00","20.0","","12.5","","62","","13","","7","","25.0","","99.11","","","","","","Mostly Cloudy"
"1991-06-30 00:00","1991","06","30","00:00","19.2","","16.6","","85","","11","","13","","19.3","","99.07","","","","","","Rain Showers"
"1991-06-30 01:00","1991","06","30","01:00","18.0","","13.8","","76","","11","","11","","24.1","","99.01","","","","","","Mostly Cloudy"
"1991-06-30 02:00","1991","06","30","02:00","17.7","","12.9","","73","","8","","6","","24.1","","99.01","","","","","","Mostly Cloudy"
"1991-06-30 03:00","1991","06","30","03:00","15.5","","12.9","","84","","6","","13","","24.1","","99.01","","","","","","Mostly Cloudy"
"1991-06-30 04:00","1991","06","30","04:00","15.3","","12.5","","84","","6","","15","","24.1","","99.11","","","","","","Mostly Cloudy"
"1991-06-30 05:00","1991","06","30","05:00","15.0","","12.3","","84","","8","","13","","24.1","","99.17","","","","","","Cloudy"
"1991-06-30 06:00","1991","06","30","06:00","14.2","","12.7","","91","","5","","22","","9.7","","99.27","","","","","","Drizzle,Fog"
"1991-06-30 07:00","1991","06","30","07:00","14.5","","10.7","","78","","5","","13","","24.1","","99.31","","","","","","Cloudy"
"1991-06-30 08:00","1991","06","30","08:00","15.0","","11.3","","78","","4","","11","","24.1","","99.34","","","","","","Cloudy"
"1991-06-30 09:00","1991","06","30","09:00","15.9","","12.3","","79","","36","","9","","32.2","","99.34","","","","","","Cloudy"
"1991-06-30 10:00","1991","06","30","10:00","17.8","","10.5","","62","","5","","7","","40.2","","99.31","","","","","","Mostly Cloudy"
"1991-06-30 11:00","1991","06","30","11:00","20.0","","9.8","","52","","12","","9","","40.2","","99.31","","","","","","Mostly Cloudy"
"1991-06-30 12:00","1991","06","30","12:00","21.2","","8.5","","44","","14","","11","","40.2","","99.31","","","","","","Mostly Cloudy"
"1991-06-30 13:00","1991","06","30","13:00","22.4","","9.7","","45","","13","","11","","40.2","","99.24","","","","","","Mostly Cloudy"
"1991-06-30 14:00","1991","06","30","14:00","21.6","","10.9","","51","","18","","15","","40.2","","99.27","","","","","","Mainly Clear"
"1991-06-30 15:00","1991","06","30","15:00","22.6","","10.9","","48","","17","","17","","40.2","","99.24","","","","","","Mainly Clear"
"1991-06-30 16:00","1991","06","30","16:00","22.5","","9.2","","43","","15","","17","","40.2","","99.27","","","","","","Mainly Clear"
"1991-06-30 17:00","1991","06","30","17:00","22.5","","9.2","","43","","15","","15","","40.2","","99.24","","","","","","Mostly Cloudy"
"1991-06-30 18:00","1991","06","30","18:00","22.4","","10.5","","47","","15","","11","","40.2","","99.24","","","","","","Mainly Clear"
"1991-06-30 19:00","1991","06","30","19:00","22.1","","9.8","","46","","20","","9","","40.2","","99.24","","","","","","Mostly Cloudy"
"1991-06-30 20:00","1991","06","30","20:00","21.2","","10.2","","49","","1","","19","","40.2","","99.31","","","","","","Mostly Cloudy"
"1991-06-30 21:00","1991","06","30","21:00","18.8","","9.7","","56","","36","","11","","25.0","","99.34","","","","","","Mainly Clear"
"1991-06-30 22:00","1991","06","30","22:00","17.2","","8.5","","57","","35","","13","","25.0","","99.37","","","","","","Mainly Clear"
"1991-06-30 23:00","1991","06","30","23:00","16.4","","8.3","","59","","36","","15","","25.0","","99.41","","","","","","Mainly Clear"
