"Station Name","TORONTO LESTER B. PEARSON INT'L A"
"Province","ONTARIO"
"Latitude","43.68"
"Longitude","-79.63"
"Elevation","173.40"
"Climate Identifier","6158733"
"WMO Identifier","71624"
"TC Identifier","YYZ"
"All times are specified in Local Standard Time (LST). Add 1 hour to adjust for Daylight Saving Time where and when it is observed."

"Legend"
"E","Estimated"
"M","Missing"
"NA","Not Available"

"Date/Time","Year","Month","Day","Time","Temp (°C)","Temp Flag","Dew Point Temp (°C)","Dew Point Temp Flag","Rel Hum (%)","Rel Hum Flag","Wind Dir (10s deg)","Wind Dir Flag","Wind Spd (km/h)","Wind Spd Flag","Visibility (km)","Visibility Flag","Stn Press (kPa)","Stn Press Flag","Hmdx","Hmdx Flag","Wind Chill","Wind Chill Flag","Weather"
"1953-11-01 00:00","1953","11","01","00:00","11.7","","7.8","","77","","20","","3","","16.1","","99.55","","","","","","Cloudy"
"1953-11-01 01:00","1953","11","01","01:00","10.6","","7.8","","83","","34","","16","","16.1","","99.56","","","","","","Mostly Cloudy"
"1953-11-01 02:00","1953","11","01","02:00","9.4","","6.7","","83","","36","","23","","16.1","","99.65","","","","","","Mostly Cloudy"
"1953-11-01 03:00","1953","11","01","03:00","7.8","","5.6","","86","","36","","24","","16.1","","99.66","","","","","","Mainly Clear"
"1953-11-01 04:00","1953","11","01","04:00","7.2","","5.0","","89","","36","","18","","25.0","","99.66","","","","","","Mainly Clear"
"1953-11-01 05:00","1953","11","01","05:00","7.2","","5.0","","86","","34","","29","","25.0","","99.75","","","","","","Mostly Cloudy"
"1953-11-01 06:00","1953","11","01","06:00","6.1","","4.4","","89","","34","","27","","25.0","","99.80","","","","","","Mainly Clear"
"1953-11-01 07:00","1953","11","01","07:00","6.1","","5.0","","93","","36","","23","","25.0","","99.86","","","","","","Mostly Cloudy"
"1953-11-01 08:00","1953","11","01","08:00","6.1","","3.9","","86","","36","","26","","25.0","","99.98","","","","","","Mostly Cloudy"
"1953-11-01 09:00","1953","11","01","09:00","6.1","","3.9","","86","","34","","19","","25.0","","100.01","","","","","","Cloudy"
"1953-11-01 10:00","1953","11","01","10:00","6.7","","3.9","","82","","36","","16","","25.0","","100.06","","","","","","Cloudy"
"1953-11-01 11:00","1953","11","01","11:00","6.7","","3.9","","82","","36","","13","","25.0","","100.05","","","","","","Cloudy"
"1953-11-01 12:00","1953","11","01","12:00","7.8","","4.4","","79","","36","","11","","25.0","","100.01","","","","","","Mostly Cloudy"
"1953-11-01 13:00","1953","11","01","13:00","8.9","","4.4","","74","","34","","13","","25.0","","99.94","","","","","","Mostly Cloudy"
"1953-11-01 14:00","1953","11","01","14:00","8.9","","4.4","","74","","36","","19","","25.0","","99.91","","","","","","Mostly Cloudy"
"1953-11-01 15:00","1953","11","01","15:00","8.3","","4.4","","76","","5","","13","","25.0","","99.88","","","","","","Mostly Cloudy"
"1953-11-01 16:00","1953","11","01","16:00","7.8","","3.9","","76","","5","","8","","25.0","","99.87","","","","","","Cloudy"
"1953-11-01 17:00","1953","11","01","17:00","7.8","","4.4","","79","","16","","8","","25.0","","99.81","","","","","","Cloudy"
"1953-11-01 18:00","1953","11","01","18:00","7.8","","4.4","","79","","34","","5","","25.0","","99.84","","","","","","Cloudy"
"1953-11-01 19:00","1953","11","01","19:00","7.8","","5.0","","82","","36","","5","","24.1","","99.86","","","","","","Cloudy"
"1953-11-01 20:00","1953","11","01","20:00","6.1","","4.4","","89","","5","","5","","24.1","","99.84","","","","","","Mostly Cloudy"
"1953-11-01 21:00","1953","11","01","21:00","7.8","","5.0","","82","","18","","3","","24.1","","99.82","","","","","","Mostly Cloudy"
"1953-11-01 22:00","1953","11","01","22:00","7.2","","5.0","","86","","18","","6","","24.1","","99.74","","","","","","Cloudy"
"1953-11-01 23:00","1953","11","01","23:00","6.1","","5.0","","93","","18","","10","","19.3","","99.61","","","","","","Mainly Clear"
"1953-11-02 00:00","1953","11","02","00:00","6.7","","5.6","","93","","18","","10","","19.3","","99.59","","","","","","Clear"
"1953-11-02 01:00","1953","11","02","01:00","7.2","","5.0","","86","","18","","5","","19.3","","99.61","","","","","","Cloudy"
"1953-11-02 02:00","1953","11","02","02:00","5.6","","4.4","","93","","20","","13","","19.3","","99.55","","","","","","Mainly Clear"
"1953-11-02 03:00","1953","11","02","03:00","6.7","","5.0","","89","","25","","19","","19.3","","99.53","","","","","","Mainly Clear"
"1953-11-02 04:00","1953","11","02","04:00","6.7","","5.0","","89","","23","","13","","24.1","","99.57","","","","","","Clear"
"1953-11-02 05:00","1953","11","02","05:00","5.6","","4.4","","93","","23","","13","","24.1","","99.60","","","","","","Clear"
"1953-11-02 06:00","1953","11","02","06:00","5.6","","4.4","","93","","23","","10","","6.4","","99.64","","","","","","Fog,Smoke"
"1953-11-02 07:00","1953","11","02","07:00","5.6","","4.4","","93","","23","","16","","4.8","","99.67","","","","","","Fog,Smoke"
"1953-11-02 08:00","1953","11","02","08:00","8.3","","7.2","","93","","23","","26","","4.8","","99.74","","","","","","Fog,Smoke"
"1953-11-02 09:00","1953","11","02","09:00","10.6","","6.7","","77","","25","","29","","9.7","","99.74","","","","","","Haze"
"1953-11-02 10:00","1953","11","02","10:00","12.2","","8.9","","71","","27","","32","","12.9","","99.79","","","","","","Mainly Clear"
"1953-11-02 11:00","1953","11","02","11:00","12.2","","8.3","","77","","27","","32","","16.1","","99.78","","","","","","Mainly Clear"
"1953-11-02 12:00","1953","11","02","12:00","14.4","","6.1","","57","","27","","32","","16.1","","99.74","","","","","","Mainly Clear"
"1953-11-02 13:00","1953","11","02","13:00","15.0","","5.6","","53","","25","","32","","19.3","","99.70","","","","","","Mainly Clear"
"1953-11-02 14:00","1953","11","02","14:00","16.1","","5.6","","50","","27","","29","","24.1","","99.65","","","","","","Mostly Cloudy"
"1953-11-02 15:00","1953","11","02","15:00","16.7","","5.0","","46","","27","","31","","25.0","","99.67","","","","","","Mostly Cloudy"
"1953-11-02 16:00","1953","11","02","16:00","15.0","","5.0","","53","","27","","23","","25.0","","99.70","","","","","","Mostly Cloudy"
"1953-11-02 17:00","1953","11","02","17:00","12.2","","2.2","","50","","25","","14","","25.0","","99.71","","","","","","Mainly Clear"
"1953-11-02 18:00","1953","11","02","18:00","12.8","","4.4","","57","","23","","8","","25.0","","99.72","","","","","","Mainly Clear"
"1953-11-02 19:00","1953","11","02","19:00","11.1","","5.0","","66","","20","","16","","25.0","","99.72","","","","","","Mostly Cloudy"
"1953-11-02 20:00","1953","11","02","20:00","11.1","","7.8","","77","","20","","13","","19.3","","99.65","","","","","","Mainly Clear"
"1953-11-02 21:00","1953","11","02","21:00","10.0","","7.8","","86","","20","","14","","12.9","","99.59","","","","","","Mainly Clear"
"1953-11-02 22:00","1953","11","02","22:00","10.0","","7.2","","83","","20","","14","","9.7","","99.51","","","","","","Haze"
"1953-11-02 23:00","1953","11","02","23:00","10.0","","8.3","","89","","23","","19","","9.7","","99.49","","","","","","Haze"
"1953-11-03 00:00","1953","11","03","00:00","10.0","","6.7","","80","","23","","13","","16.1","","99.39","","","","","","Cloudy"
"1953-11-03 01:00","1953","11","03","01:00","10.6","","6.1","","74","","23","","29","","16.1","","99.33","","","","","","Cloudy"
"1953-11-03 02:00","1953","11","03","02:00","10.6","","6.7","","77","","23","","26","","16.1","","99.29","","","","","","Cloudy"
"1953-11-03 03:00","1953","11","03","03:00","10.6","","7.2","","80","","23","","16","","16.1","","99.17","","","","","","Cloudy"
"1953-11-03 04:00","1953","11","03","04:00","11.7","","6.7","","71","","23","","26","","16.1","","99.08","","","","","","Mostly Cloudy"
"1953-11-03 05:00","1953","11","03","05:00","11.1","","6.1","","71","","23","","23","","16.1","","99.04","","","","","","Mostly Cloudy"
"1953-11-03 06:00","1953","11","03","06:00","11.1","","6.7","","74","","20","","19","","24.1","","98.96","","","","","","Mostly Cloudy"
"1953-11-03 07:00","1953","11","03","07:00","11.7","","7.8","","77","","18","","16","","24.1","","98.94","","","","","","Cloudy"
"1953-11-03 08:00","1953","11","03","08:00","13.3","","6.7","","64","","23","","23","","24.1","","98.88","","","","","","Cloudy"
"1953-11-03 09:00","1953","11","03","09:00","13.9","","7.8","","67","","25","","34","","16.1","","98.90","","","","","","Mostly Cloudy"
"1953-11-03 10:00","1953","11","03","10:00","15.6","","8.3","","62","","27","","45","","16.1","","98.90","","","","","","Mostly Cloudy"
"1953-11-03 11:00","1953","11","03","11:00","16.7","","6.7","","52","","29","","53","","25.0","","98.89","","","","","","Mainly Clear"
"1953-11-03 12:00","1953","11","03","12:00","15.6","","6.1","","53","","29","","42","","25.0","","98.90","","","","","","Mostly Cloudy"
"1953-11-03 13:00","1953","11","03","13:00","15.6","","3.3","","44","","27","","53","","25.0","","98.90","","","","","","Mainly Clear"
"1953-11-03 14:00","1953","11","03","14:00","14.4","","-2.2","","32","","27","","56","","25.0","","98.96","","","","","","Mainly Clear"
"1953-11-03 15:00","1953","11","03","15:00","13.3","","-4.4","","29","","27","","51","","25.0","","99.04","","","","","","Mainly Clear"
"1953-11-03 16:00","1953","11","03","16:00","12.2","","-5.6","","28","","29","","55","","25.0","","99.14","","","","","","Mainly Clear"
"1953-11-03 17:00","1953","11","03","17:00","10.0","","-6.1","","32","","27","","32","","25.0","","99.23","","","","","","Mainly Clear"
"1953-11-03 18:00","1953","11","03","18:00","8.3","","-3.9","","42","","27","","23","","25.0","","99.30","","","","","","Clear"
"1953-11-03 19:00","1953","11","03","19:00","8.3","","-3.9","","42","","27","","29","","25.0","","99.36","","","","","","Clear"
"1953-11-03 20:00","1953","11","03","20:00","5.6","","-2.8","","55","","27","","19","","25.0","","99.42","","","","","","Clear"
"1953-11-03 21:00","1953","11","03","21:00","3.9","","-2.8","","62","","25","","18","","25.0","","99.45","","","","","","Clear"
"1953-11-03 22:00","1953","11","03","22:00","3.3","","-2.8","","64","","27","","16","","25.0","","99.50","","","","","","Mainly Clear"
"1953-11-03 23:00","1953","11","03","23:00","5.6","","0.6","","70","","32","","39","","25.0","","99.59","","","","","","Mainly Clear"
"1953-11-04 00:00","1953","11","04","00:00","5.0","","-1.7","","62","","32","","35","","25.0","","99.64","","","","","","Mainly Clear"
"1953-11-04 01:00","1953","11","04","01:00","5.0","","-1.1","","65","","32","","29","","25.0","","99.65","","","","","","Mostly Cloudy"
"1953-11-04 02:00","1953","11","04","02:00","3.9","","-1.7","","67","","32","","32","","25.0","","99.66","","","","","","Mostly Cloudy"
"1953-11-04 03:00","1953","11","04","03:00","2.8","","-1.7","","72","","32","","32","","25.0","","99.68","","","","","","Mainly Clear"
"1953-11-04 04:00","1953","11","04","04:00","2.2","","-2.2","","72","","32","","32","","25.0","","99.75","","","","","","Mainly Clear"
"1953-11-04 05:00","1953","11","04","05:00","1.7","","-4.4","","64","","32","","32","","25.0","","99.79","","","","","","Clear"
"1953-11-04 06:00","1953","11","04","06:00","-0.6","","-5.6","","69","","27","","16","","25.0","","99.87","","","","-5","","Clear"
"1953-11-04 07:00","1953","11","04","07:00","-0.6","","-4.4","","75","","27","","23","","25.0","","99.91","","","","-6","","Mainly Clear"
"1953-11-04 08:00","1953","11","04","08:00","2.2","","-3.9","","64","","27","","32","","25.0","","99.96","","","","","","Mainly Clear"
"1953-11-04 09:00","1953","11","04","09:00","3.9","","-4.4","","54","","29","","32","","25.0","","99.99","","","","","","Mainly Clear"
"1953-11-04 10:00","1953","11","04","10:00","5.0","","-4.4","","50","","29","","48","","25.0","","99.99","","","","","","Mainly Clear"
"1953-11-04 11:00","1953","11","04","11:00","5.0","","-5.0","","48","","29","","40","","25.0","","100.03","","","","","","Mostly Cloudy"
"1953-11-04 12:00","1953","11","04","12:00","5.0","","-6.1","","46","","2","","32","","25.0","","100.04","","","","","","Mostly Cloudy"
"1953-11-04 13:00","1953","11","04","13:00","5.0","","-5.0","","48","","32","","29","","25.0","","100.03","","","","","","Mostly Cloudy"
"1953-11-04 14:00","1953","11","04","14:00","4.4","","-5.6","","48","","32","","32","","25.0","","100.07","","","","","","Mostly Cloudy"
"1953-11-04 15:00","1953","11","04","15:00","3.3","","-1.7","","72","","2","","32","","25.0","","100.12","","","","","","Mostly Cloudy"
"1953-11-04 16:00","1953","11","04","16:00","2.2","","-1.7","","75","","34","","26","","25.0","","100.20","","","","","","Mainly Clear"
"1953-11-04 17:00","1953","11","04","17:00","1.1","","-2.8","","75","","36","","24","","25.0","","100.27","","","","","","Mainly Clear"
"1953-11-04 18:00","1953","11","04","18:00","0.6","","-1.7","","85","","36","","21","","25.0","","100.33","","","","","","Mainly Clear"
"1953-11-04 19:00","1953","11","04","19:00","0.0","","-2.8","","82","","34","","19","","25.0","","100.37","","","","-5","","Mostly Cloudy"
"1953-11-04 20:00","1953","11","04","20:00","0.6","","-1.7","","85","","36","","14","","25.0","","100.44","","","","","","Cloudy"
"1953-11-04 21:00","1953","11","04","21:00","0.6","","-2.2","","82","","36","","23","","25.0","","100.51","","","","","","Cloudy"
"1953-11-04 22:00","1953","11","04","22:00","0.0","","-2.8","","82","","36","","26","","25.0","","100.58","","","","-6","","Cloudy"
"1953-11-04 23:00","1953","11","04","23:00","-0.6","","-2.2","","88","","36","","27","","25.0","","100.61","","","","-7","","Cloudy"
"1953-11-05 00:00","1953","11","05","00:00","-0.6","","-3.3","","81","","36","","23","","25.0","","100.66","","","","-6","","Cloudy"
"1953-11-05 01:00","1953","11","05","01:00","-1.1","","-2.2","","92","","36","","19","","25.0","","100.70","","","","-6","","Mainly Clear"
"1953-11-05 02:00","1953","11","05","02:00","-2.2","","-3.3","","92","","36","","19","","25.0","","100.80","","","","-8","","Mainly Clear"
"1953-11-05 03:00","1953","11","05","03:00","-2.8","","-3.9","","92","","36","","19","","25.0","","100.82","","","","-9","","Mainly Clear"
"1953-11-05 04:00","1953","11","05","04:00","-3.9","","-5.6","","88","","34","","16","","25.0","","100.84","","","","-9","","Mainly Clear"
"1953-11-05 05:00","1953","11","05","05:00","-3.9","","-6.7","","81","","34","","19","","25.0","","100.94","","","","-10","","Mainly Clear"
"1953-11-05 06:00","1953","11","05","06:00","-4.4","","-6.7","","84","","36","","23","","25.0","","100.95","","","","-11","","Clear"
"1953-11-05 07:00","1953","11","05","07:00","-5.0","","-6.7","","88","","36","","19","","25.0","","101.06","","","","-11","","Clear"
"1953-11-05 08:00","1953","11","05","08:00","-3.3","","-5.6","","85","","36","","23","","25.0","","101.18","","","","-10","","Clear"
"1953-11-05 09:00","1953","11","05","09:00","-2.2","","-5.6","","78","","36","","24","","25.0","","101.23","","","","-9","","Clear"
"1953-11-05 10:00","1953","11","05","10:00","0.0","","-5.0","","69","","5","","29","","25.0","","101.26","","","","-6","","Clear"
"1953-11-05 11:00","1953","11","05","11:00","0.0","","-2.8","","82","","36","","24","","25.0","","101.29","","","","-6","","Clear"
"1953-11-05 12:00","1953","11","05","12:00","1.1","","-6.7","","56","","2","","32","","25.0","","101.26","","","","","","Clear"
"1953-11-05 13:00","1953","11","05","13:00","1.7","","-8.3","","48","","2","","32","","25.0","","101.23","","","","","","Clear"
"1953-11-05 14:00","1953","11","05","14:00","2.2","","-3.3","","69","","2","","32","","25.0","","101.19","","","","","","Clear"
"1953-11-05 15:00","1953","11","05","15:00","1.7","","-1.7","","78","","2","","29","","25.0","","101.22","","","","","","Clear"
"1953-11-05 16:00","1953","11","05","16:00","1.1","","-7.2","","54","","2","","23","","25.0","","101.23","","","","","","Clear"
"1953-11-05 17:00","1953","11","05","17:00","0.0","","-6.7","","61","","36","","13","","25.0","","101.27","","","","-4","","Clear"
"1953-11-05 18:00","1953","11","05","18:00","-1.7","","-8.3","","60","","36","","14","","25.0","","101.34","","","","-6","","Clear"
"1953-11-05 19:00","1953","11","05","19:00","-3.3","","-7.8","","71","","36","","16","","25.0","","101.36","","","","-9","","Clear"
"1953-11-05 20:00","1953","11","05","20:00","-3.3","","-7.2","","74","","36","","19","","25.0","","101.38","","","","-9","","Clear"
"1953-11-05 21:00","1953","11","05","21:00","-3.3","","-7.8","","71","","36","","21","","25.0","","101.42","","","","-10","","Clear"
"1953-11-05 22:00","1953","11","05","22:00","-4.4","","-7.8","","78","","36","","18","","25.0","","101.44","","","","-10","","Clear"
"1953-11-05 23:00","1953","11","05","23:00","-5.6","","-8.3","","81","","36","","16","","25.0","","101.45","","","","-12","","Clear"
"1953-11-06 00:00","1953","11","06","00:00","-5.0","","-10.0","","68","","36","","16","","25.0","","101.46","","","","-11","","Clear"
"1953-11-06 01:00","1953","11","06","01:00","-4.4","","-10.0","","65","","36","","13","","25.0","","101.47","","","","-9","","Clear"
"1953-11-06 02:00","1953","11","06","02:00","-6.7","","-10.0","","77","","36","","16","","25.0","","101.50","","","","-13","","Clear"
"1953-11-06 03:00","1953","11","06","03:00","-5.6","","-10.6","","68","","36","","16","","25.0","","101.54","","","","-12","","Clear"
"1953-11-06 04:00","1953","11","06","04:00","-6.1","","-11.1","","68","","36","","16","","25.0","","101.57","","","","-12","","Clear"
"1953-11-06 05:00","1953","11","06","05:00","-6.7","","-10.0","","77","","2","","16","","25.0","","101.61","","","","-13","","Clear"
"1953-11-06 06:00","1953","11","06","06:00","-6.1","","-10.0","","74","","5","","19","","25.0","","101.61","","","","-13","","Clear"
"1953-11-06 07:00","1953","11","06","07:00","-6.1","","-9.4","","77","","5","","23","","25.0","","101.64","","","","-13","","Clear"
"1953-11-06 08:00","1953","11","06","08:00","-3.3","","-8.9","","65","","5","","24","","25.0","","101.67","","","","-10","","Clear"
"1953-11-06 09:00","1953","11","06","09:00","-1.7","","-8.9","","58","","7","","26","","25.0","","101.70","","","","-8","","Mainly Clear"
"1953-11-06 10:00","1953","11","06","10:00","0.0","","-5.0","","69","","7","","32","","25.0","","101.70","","","","-7","","Mainly Clear"
"1953-11-06 11:00","1953","11","06","11:00","0.6","","-3.3","","75","","7","","32","","25.0","","101.67","","","","","","Mainly Clear"
"1953-11-06 12:00","1953","11","06","12:00","1.1","","-5.6","","61","","7","","29","","25.0","","101.56","","","","","","Mainly Clear"
"1953-11-06 13:00","1953","11","06","13:00","1.7","","-7.2","","52","","7","","19","","25.0","","101.51","","","","","","Mainly Clear"
"1953-11-06 14:00","1953","11","06","14:00","2.2","","-4.4","","61","","5","","27","","25.0","","101.45","","","","","","Mainly Clear"
"1953-11-06 15:00","1953","11","06","15:00","1.7","","-7.2","","52","","5","","23","","24.1","","101.45","","","","","","Mainly Clear"
"1953-11-06 16:00","1953","11","06","16:00","1.7","","-6.1","","56","","5","","19","","25.0","","101.42","","","","","","Mostly Cloudy"
"1953-11-06 17:00","1953","11","06","17:00","0.0","","-3.3","","78","","5","","16","","25.0","","101.40","","","","-5","","Mostly Cloudy"
"1953-11-06 18:00","1953","11","06","18:00","-0.6","","-5.6","","69","","5","","11","","25.0","","101.42","","","","-4","","Mainly Clear"
"1953-11-06 19:00","1953","11","06","19:00","-0.6","","-2.8","","85","","36","","16","","25.0","","101.27","","","","-5","","Cloudy"
"1953-11-06 20:00","1953","11","06","20:00","-0.6","","-2.2","","88","","36","","10","","25.0","","101.33","","","","-4","","Mostly Cloudy"
"1953-11-06 21:00","1953","11","06","21:00","-1.1","","-2.2","","92","","36","","16","","25.0","","101.24","","","","-6","","Cloudy"
"1953-11-06 22:00","1953","11","06","22:00","-0.6","","-2.2","","88","","2","","16","","25.0","","101.16","","","","-5","","Cloudy"
"1953-11-06 23:00","1953","11","06","23:00","-0.6","","-2.2","","88","","36","","13","","25.0","","101.09","","","","-5","","Cloudy"
"1953-11-07 00:00","1953","11","07","00:00","0.0","","-1.7","","88","","36","","24","","25.0","","100.99","","","","-6","","Cloudy"
"1953-11-07 01:00","1953","11","07","01:00","0.0","","-1.7","","88","","36","","19","","25.0","","100.92","","","","-5","","Cloudy"
"1953-11-07 02:00","1953","11","07","02:00","0.0","","-1.7","","88","","2","","24","","25.0","","100.85","","","","-6","","Cloudy"
"1953-11-07 03:00","1953","11","07","03:00","0.6","","-1.1","","88","","2","","26","","25.0","","100.76","","","","","","Cloudy"
"1953-11-07 04:00","1953","11","07","04:00","0.6","","-1.1","","88","","2","","26","","25.0","","100.68","","","","","","Cloudy"
"1953-11-07 05:00","1953","11","07","05:00","0.0","","-1.7","","88","","2","","23","","25.0","","100.57","","","","-6","","Cloudy"
"1953-11-07 06:00","1953","11","07","06:00","0.0","","-2.2","","85","","2","","19","","25.0","","100.48","","","","-5","","Cloudy"
"1953-11-07 07:00","1953","11","07","07:00","0.6","","-3.3","","75","","2","","26","","25.0","","100.38","","","","","","Cloudy"
"1953-11-07 08:00","1953","11","07","08:00","1.1","","-3.3","","72","","2","","29","","25.0","","100.20","","","","","","Cloudy"
"1953-11-07 09:00","1953","11","07","09:00","-1.1","","-2.2","","92","","5","","37","","0.4","","100.09","","","","-9","","Heavy Snow Showers"
"1953-11-07 10:00","1953","11","07","10:00","-1.7","","-2.2","","96","","2","","35","","0.2","","99.93","","","","-9","","Heavy Snow"
"1953-11-07 11:00","1953","11","07","11:00","-1.7","","-1.7","","100","","2","","35","","0.6","","99.70","","","","-9","","Moderate Snow"
"1953-11-07 12:00","1953","11","07","12:00","-1.1","","-1.7","","96","","2","","34","","0.8","","99.59","","","","-8","","Moderate Snow"
"1953-11-07 13:00","1953","11","07","13:00","-0.6","","-1.1","","96","","2","","26","","1.0","","99.52","","","","-7","","Snow"
"1953-11-07 14:00","1953","11","07","14:00","-0.6","","-1.1","","96","","2","","11","","1.0","","99.39","","","","-4","","Snow"
"1953-11-07 15:00","1953","11","07","15:00","-0.6","","-1.1","","96","","2","","10","","4.0","","99.36","","","","-4","","Snow"
"1953-11-07 16:00","1953","11","07","16:00","-0.6","","-0.6","","100","","34","","10","","3.2","","99.30","","","","-4","","Snow"
"1953-11-07 17:00","1953","11","07","17:00","-0.6","","-0.6","","100","","36","","10","","4.8","","99.25","","","","-4","","Snow"
"1953-11-07 18:00","1953","11","07","18:00","-0.6","","-0.6","","100","","36","","10","","25.0","","99.23","","","","-4","","Snow"
"1953-11-07 19:00","1953","11","07","19:00","-0.6","","-0.6","","100","","2","","10","","4.8","","99.21","","","","-4","","Snow"
"1953-11-07 20:00","1953","11","07","20:00","-0.6","","-1.1","","96","","36","","10","","2.4","","99.11","","","","-4","","Snow"
"1953-11-07 21:00","1953","11","07","21:00","-0.6","","-1.1","","96","","36","","8","","2.4","","99.07","","","","-3","","Snow"
"1953-11-07 22:00","1953","11","07","22:00","-0.6","","-1.1","","96","","36","","6","","25.0","","98.99","","","","-3","","Mostly Cloudy"
"1953-11-07 23:00","1953","11","07","23:00","-2.2","","-2.8","","96","","5","","3","","24.1","","99.04","","","","-3","","Mostly Cloudy"
"1953-11-08 00:00","1953","11","08","00:00","-2.2","","-2.2","","100","","23","","3","","24.1","","99.04","","","","-3","","Snow"
"1953-11-08 01:00","1953","11","08","01:00","-2.2","","-2.2","","100","","25","","3","","11.3","","99.01","","","","-3","","Snow"
"1953-11-08 02:00","1953","11","08","02:00","-2.2","","-2.2","","100","","23","","3","","14.5","","98.98","","","","-3","","Snow"
"1953-11-08 03:00","1953","11","08","03:00","-2.8","","-2.8","","100","","23","","3","","4.8","","98.94","","","","-4","","Fog"
"1953-11-08 04:00","1953","11","08","04:00","-2.8","","-2.8","","100","","27","","3","","6.4","","98.94","","","","-4","","Snow,Fog"
"1953-11-08 05:00","1953","11","08","05:00","-2.8","","-3.3","","96","","27","","3","","6.4","","98.93","","","","-4","","Fog"
"1953-11-08 06:00","1953","11","08","06:00","-3.3","","-4.4","","92","","23","","3","","4.8","","98.93","","","","-5","","Fog"
"1953-11-08 07:00","1953","11","08","07:00","-3.3","","-3.9","","96","","16","","3","","1.2","","98.95","","","","-5","","Fog"
"1953-11-08 08:00","1953","11","08","08:00","-3.3","","-3.3","","92","","23","","3","","1.6","","98.99","","","","-5","","Snow,Fog"
"1953-11-08 09:00","1953","11","08","09:00","-2.2","","-2.8","","96","","25","","3","","2.0","","98.97","","","","-3","","Snow,Fog"
"1953-11-08 10:00","1953","11","08","10:00","0.0","","-1.1","","92","","23","","5","","4.0","","98.97","","","","-2","","Snow,Fog"
"1953-11-08 11:00","1953","11","08","11:00","0.6","","-1.7","","85","","23","","8","","6.4","","98.98","","","","","","Snow,Fog"
"1953-11-08 12:00","1953","11","08","12:00","1.1","","-1.1","","85","","20","","8","","2.4","","98.94","","","","","","Snow"
"1953-11-08 13:00","1953","11","08","13:00","1.7","","0.0","","89","","20","","10","","11.3","","98.92","","","","","","Snow"
"1953-11-08 14:00","1953","11","08","14:00","2.2","","1.1","","92","","20","","13","","11.3","","98.95","","","","","","Rain"
"1953-11-08 15:00","1953","11","08","15:00","2.2","","1.1","","92","","23","","19","","12.9","","98.96","","","","","","Drizzle"
"1953-11-08 16:00","1953","11","08","16:00","2.2","","1.1","","92","","23","","16","","16.1","","98.99","","","","","","Cloudy"
"1953-11-08 17:00","1953","11","08","17:00","2.2","","1.1","","92","","23","","18","","12.9","","99.05","","","","","","Rain"
"1953-11-08 18:00","1953","11","08","18:00","1.7","","0.6","","92","","23","","21","","16.1","","99.09","","","","","","Cloudy"
"1953-11-08 19:00","1953","11","08","19:00","1.7","","0.6","","92","","23","","26","","16.1","","99.10","","","","","","Rain"
"1953-11-08 20:00","1953","11","08","20:00","1.7","","0.6","","92","","25","","27","","16.1","","99.12","","","","","","Rain"
"1953-11-08 21:00","1953","11","08","21:00","1.7","","0.6","","92","","25","","21","","25.0","","99.17","","","","","","Cloudy"
"1953-11-08 22:00","1953","11","08","22:00","1.7","","0.6","","92","","25","","24","","25.0","","99.18","","","","","","Cloudy"
"1953-11-08 23:00","1953","11","08","23:00","2.2","","0.6","","89","","25","","26","","25.0","","99.20","","","","","","Cloudy"
"1953-11-09 00:00","1953","11","09","00:00","2.2","","1.1","","92","","27","","23","","25.0","","99.25","","","","","","Cloudy"
"1953-11-09 01:00","1953","11","09","01:00","2.2","","1.1","","92","","27","","26","","25.0","","99.27","","","","","","Cloudy"
"1953-11-09 02:00","1953","11","09","02:00","2.2","","1.1","","92","","27","","21","","25.0","","99.36","","","","","","Cloudy"
"1953-11-09 03:00","1953","11","09","03:00","1.7","","0.6","","92","","27","","23","","25.0","","99.36","","","","","","Cloudy"
"1953-11-09 04:00","1953","11","09","04:00","1.7","","0.6","","92","","25","","18","","25.0","","99.42","","","","","","Cloudy"
"1953-11-09 05:00","1953","11","09","05:00","1.7","","0.6","","92","","29","","11","","25.0","","99.49","","","","","","Cloudy"
"1953-11-09 06:00","1953","11","09","06:00","2.2","","0.6","","89","","27","","23","","25.0","","99.55","","","","","","Mostly Cloudy"
"1953-11-09 07:00","1953","11","09","07:00","2.2","","0.6","","89","","27","","21","","25.0","","99.61","","","","","","Mostly Cloudy"
"1953-11-09 08:00","1953","11","09","08:00","2.8","","1.1","","89","","27","","18","","24.1","","99.72","","","","","","Cloudy"
"1953-11-09 09:00","1953","11","09","09:00","3.3","","0.0","","79","","27","","19","","24.1","","99.80","","","","","","Mostly Cloudy"
"1953-11-09 10:00","1953","11","09","10:00","3.9","","1.7","","85","","27","","18","","25.0","","99.83","","","","","","Mostly Cloudy"
"1953-11-09 11:00","1953","11","09","11:00","5.0","","2.2","","82","","27","","16","","25.0","","99.86","","","","","","Mostly Cloudy"
"1953-11-09 12:00","1953","11","09","12:00","5.6","","2.2","","79","","32","","23","","25.0","","99.89","","","","","","Mostly Cloudy"
"1953-11-09 13:00","1953","11","09","13:00","7.2","","2.2","","70","","29","","23","","25.0","","99.91","","","","","","Mainly Clear"
"1953-11-09 14:00","1953","11","09","14:00","7.8","","1.7","","65","","27","","16","","25.0","","99.92","","","","","","Mostly Cloudy"
"1953-11-09 15:00","1953","11","09","15:00","7.2","","2.2","","70","","34","","11","","25.0","","99.99","","","","","","Mostly Cloudy"
"1953-11-09 16:00","1953","11","09","16:00","6.7","","2.2","","73","","29","","10","","25.0","","100.00","","","","","","Mostly Cloudy"
"1953-11-09 17:00","1953","11","09","17:00","5.0","","0.6","","73","","27","","13","","25.0","","100.05","","","","","","Mainly Clear"
"1953-11-09 18:00","1953","11","09","18:00","2.8","","0.0","","82","","27","","14","","25.0","","100.11","","","","","","Mainly Clear"
"1953-11-09 19:00","1953","11","09","19:00","3.9","","1.7","","85","","27","","18","","25.0","","100.14","","","","","","Cloudy"
"1953-11-09 20:00","1953","11","09","20:00","4.4","","2.2","","85","","25","","10","","25.0","","100.18","","","","","","Cloudy"
"1953-11-09 21:00","1953","11","09","21:00","4.4","","2.2","","85","","23","","16","","25.0","","100.20","","","","","","Cloudy"
"1953-11-09 22:00","1953","11","09","22:00","4.4","","2.2","","85","","25","","19","","25.0","","100.21","","","","","","Cloudy"
"1953-11-09 23:00","1953","11","09","23:00","3.9","","2.2","","89","","25","","19","","25.0","","100.23","","","","","","Cloudy"
"1953-11-10 00:00","1953","11","10","00:00","3.9","","1.7","","85","","25","","18","","25.0","","100.25","","","","","","Cloudy"
"1953-11-10 01:00","1953","11","10","01:00","2.8","","1.7","","92","","25","","16","","25.0","","100.24","","","","","","Cloudy"
"1953-11-10 02:00","1953","11","10","02:00","3.9","","1.7","","85","","25","","13","","24.1","","100.28","","","","","","Cloudy"
"1953-11-10 03:00","1953","11","10","03:00","3.9","","2.2","","89","","25","","18","","19.3","","100.27","","","","","","Cloudy"
"1953-11-10 04:00","1953","11","10","04:00","3.9","","2.2","","89","","23","","18","","19.3","","100.29","","","","","","Cloudy"
"1953-11-10 05:00","1953","11","10","05:00","4.4","","2.2","","85","","25","","19","","25.0","","100.32","","","","","","Cloudy"
"1953-11-10 06:00","1953","11","10","06:00","4.4","","2.8","","85","","25","","14","","25.0","","100.34","","","","","","Mostly Cloudy"
"1953-11-10 07:00","1953","11","10","07:00","2.8","","1.1","","89","","25","","13","","16.1","","100.37","","","","","","Mostly Cloudy"
"1953-11-10 08:00","1953","11","10","08:00","3.9","","1.1","","82","","25","","16","","16.1","","100.40","","","","","","Clear"
"1953-11-10 09:00","1953","11","10","09:00","6.1","","1.7","","73","","27","","18","","12.9","","100.40","","","","","","Clear"
"1953-11-10 10:00","1953","11","10","10:00","7.8","","1.7","","65","","25","","23","","16.1","","100.39","","","","","","Mainly Clear"
"1953-11-10 11:00","1953","11","10","11:00","8.9","","2.8","","66","","25","","21","","12.9","","100.35","","","","","","Mostly Cloudy"
"1953-11-10 12:00","1953","11","10","12:00","8.9","","2.8","","66","","25","","18","","16.1","","100.28","","","","","","Mostly Cloudy"
"1953-11-10 13:00","1953","11","10","13:00","10.6","","3.3","","61","","20","","24","","16.1","","100.24","","","","","","Mostly Cloudy"
"1953-11-10 14:00","1953","11","10","14:00","10.6","","3.9","","63","","20","","24","","16.1","","100.17","","","","","","Mainly Clear"
"1953-11-10 15:00","1953","11","10","15:00","10.6","","5.0","","68","","20","","21","","16.1","","100.13","","","","","","Mainly Clear"
"1953-11-10 16:00","1953","11","10","16:00","9.4","","2.8","","63","","18","","14","","19.3","","100.07","","","","","","Mainly Clear"
"1953-11-10 17:00","1953","11","10","17:00","7.8","","3.9","","76","","16","","16","","12.9","","100.06","","","","","","Mainly Clear"
"1953-11-10 18:00","1953","11","10","18:00","7.2","","2.8","","73","","20","","14","","16.1","","100.06","","","","","","Mainly Clear"
"1953-11-10 19:00","1953","11","10","19:00","6.7","","2.2","","73","","20","","16","","16.1","","100.07","","","","","","Cloudy"
"1953-11-10 20:00","1953","11","10","20:00","5.6","","2.2","","79","","20","","11","","16.1","","100.09","","","","","","Mostly Cloudy"
"1953-11-10 21:00","1953","11","10","21:00","5.6","","2.2","","79","","16","","10","","12.9","","100.07","","","","","","Mostly Cloudy"
"1953-11-10 22:00","1953","11","10","22:00","5.6","","2.8","","82","","18","","10","","8.0","","100.06","","","","","","Haze"
"1953-11-10 23:00","1953","11","10","23:00","5.0","","2.8","","86","","18","","6","","6.4","","100.04","","","","","","Haze"
"1953-11-11 00:00","1953","11","11","00:00","3.9","","2.8","","92","","9","","6","","6.4","","100.05","","","","","","Fog"
"1953-11-11 01:00","1953","11","11","01:00","5.0","","3.3","","89","","5","","10","","6.4","","99.97","","","","","","Rain,Fog"
"1953-11-11 02:00","1953","11","11","02:00","5.0","","3.3","","89","","7","","10","","4.8","","99.91","","","","","","Fog"
"1953-11-11 03:00","1953","11","11","03:00","5.0","","3.3","","89","","7","","11","","3.2","","99.87","","","","","","Fog"
"1953-11-11 04:00","1953","11","11","04:00","5.0","","3.9","","93","","7","","13","","4.8","","99.88","","","","","","Fog"
"1953-11-11 05:00","1953","11","11","05:00","5.6","","3.9","","89","","7","","14","","4.8","","99.91","","","","","","Fog"
"1953-11-11 06:00","1953","11","11","06:00","5.6","","3.9","","89","","7","","14","","4.8","","99.91","","","","","","Rain,Fog"
"1953-11-11 07:00","1953","11","11","07:00","6.1","","3.9","","86","","9","","19","","4.0","","99.89","","","","","","Fog,Smoke"
"1953-11-11 08:00","1953","11","11","08:00","6.1","","4.4","","89","","7","","14","","3.2","","99.90","","","","","","Rain,Fog,Smoke"
"1953-11-11 09:00","1953","11","11","09:00","6.7","","5.0","","89","","7","","19","","4.0","","99.89","","","","","","Fog,Smoke"
"1953-11-11 10:00","1953","11","11","10:00","7.8","","4.4","","79","","11","","26","","4.8","","99.89","","","","","","Fog,Smoke"
"1953-11-11 11:00","1953","11","11","11:00","7.8","","5.6","","86","","7","","27","","4.8","","99.90","","","","","","Fog"
"1953-11-11 12:00","1953","11","11","12:00","8.3","","5.0","","80","","9","","27","","6.4","","99.88","","","","","","Haze"
"1953-11-11 13:00","1953","11","11","13:00","8.3","","5.0","","80","","7","","32","","8.0","","99.84","","","","","","Haze"
"1953-11-11 14:00","1953","11","11","14:00","7.2","","4.4","","82","","7","","37","","8.0","","99.87","","","","","","Haze"
"1953-11-11 15:00","1953","11","11","15:00","6.7","","4.4","","86","","7","","32","","9.7","","99.94","","","","","","Haze"
"1953-11-11 16:00","1953","11","11","16:00","6.7","","3.9","","82","","7","","29","","9.7","","100.03","","","","","","Rain Showers,Haze"
"1953-11-11 17:00","1953","11","11","17:00","6.7","","3.9","","82","","7","","26","","9.7","","100.07","","","","","","Rain Showers,Haze"
"1953-11-11 18:00","1953","11","11","18:00","5.6","","3.9","","89","","7","","26","","12.9","","100.15","","","","","","Rain Showers"
"1953-11-11 19:00","1953","11","11","19:00","5.0","","3.3","","89","","5","","16","","16.1","","100.23","","","","","","Rain Showers"
"1953-11-11 20:00","1953","11","11","20:00","5.0","","3.3","","89","","2","","16","","16.1","","100.26","","","","","","Rain Showers"
"1953-11-11 21:00","1953","11","11","21:00","5.0","","3.3","","89","","2","","24","","19.3","","100.31","","","","","","Rain Showers"
"1953-11-11 22:00","1953","11","11","22:00","4.4","","4.4","","100","","5","","19","","19.3","","100.32","","","","","","Cloudy"
"1953-11-11 23:00","1953","11","11","23:00","4.4","","2.2","","85","","2","","23","","19.3","","100.39","","","","","","Cloudy"
"1953-11-12 00:00","1953","11","12","00:00","3.9","","1.7","","85","","2","","18","","19.3","","100.45","","","","","","Cloudy"
"1953-11-12 01:00","1953","11","12","01:00","3.3","","1.7","","89","","36","","16","","19.3","","100.48","","","","","","Cloudy"
"1953-11-12 02:00","1953","11","12","02:00","2.8","","1.1","","89","","2","","14","","24.1","","100.50","","","","","","Mainly Clear"
"1953-11-12 03:00","1953","11","12","03:00","2.2","","1.1","","92","","2","","19","","19.3","","100.53","","","","","","Mostly Cloudy"
"1953-11-12 04:00","1953","11","12","04:00","2.8","","1.1","","89","","36","","18","","19.3","","100.61","","","","","","Cloudy"
"1953-11-12 05:00","1953","11","12","05:00","3.3","","1.7","","89","","36","","13","","19.3","","100.68","","","","","","Cloudy"
"1953-11-12 06:00","1953","11","12","06:00","2.8","","1.1","","89","","2","","13","","19.3","","100.74","","","","","","Cloudy"
"1953-11-12 07:00","1953","11","12","07:00","2.8","","1.1","","89","","5","","10","","12.9","","100.79","","","","","","Cloudy"
"1953-11-12 08:00","1953","11","12","08:00","3.3","","1.1","","85","","7","","10","","12.9","","100.87","","","","","","Cloudy"
"1953-11-12 09:00","1953","11","12","09:00","3.9","","0.0","","76","","5","","8","","12.9","","100.89","","","","","","Cloudy"
"1953-11-12 10:00","1953","11","12","10:00","3.3","","1.7","","89","","5","","10","","12.9","","100.92","","","","","","Cloudy"
"1953-11-12 11:00","1953","11","12","11:00","3.9","","2.8","","92","","7","","10","","12.9","","100.94","","","","","","Cloudy"
"1953-11-12 12:00","1953","11","12","12:00","3.9","","1.1","","82","","32","","10","","12.9","","100.92","","","","","","Cloudy"
"1953-11-12 13:00","1953","11","12","13:00","4.4","","1.7","","82","","36","","10","","12.9","","100.82","","","","","","Cloudy"
"1953-11-12 14:00","1953","11","12","14:00","5.0","","3.3","","89","","23","","8","","12.9","","100.90","","","","","","Cloudy"
"1953-11-12 15:00","1953","11","12","15:00","5.6","","5.6","","100","","23","","8","","11.3","","100.89","","","","","","Cloudy"
"1953-11-12 16:00","1953","11","12","16:00","5.0","","3.3","","89","","20","","10","","9.7","","100.92","","","","","","Haze"
"1953-11-12 17:00","1953","11","12","17:00","4.4","","3.3","","93","","18","","10","","9.7","","100.96","","","","","","Haze"
"1953-11-12 18:00","1953","11","12","18:00","4.4","","3.3","","93","","16","","11","","9.7","","101.05","","","","","","Haze"
"1953-11-12 19:00","1953","11","12","19:00","3.9","","2.8","","92","","16","","13","","9.7","","101.00","","","","","","Haze"
"1953-11-12 20:00","1953","11","12","20:00","3.9","","2.8","","92","","20","","6","","9.7","","101.01","","","","","","Haze"
"1953-11-12 21:00","1953","11","12","21:00","3.9","","2.8","","92","","23","","6","","9.7","","101.01","","","","","","Haze"
"1953-11-12 22:00","1953","11","12","22:00","3.9","","2.2","","89","","27","","8","","9.7","","100.99","","","","","","Haze"
"1953-11-12 23:00","1953","11","12","23:00","3.3","","1.7","","89","","27","","8","","9.7","","101.01","","","","","","Haze"
"1953-11-13 00:00","1953","11","13","00:00","3.3","","1.1","","85","","25","","8","","9.7","","101.02","","","","","","Haze"
"1953-11-13 01:00","1953","11","13","01:00","2.8","","1.7","","92","","25","","8","","8.0","","101.01","","","","","","Fog"
"1953-11-13 02:00","1953","11","13","02:00","3.9","","1.1","","82","","27","","6","","6.4","","101.02","","","","","","Fog,Smoke"
"1953-11-13 03:00","1953","11","13","03:00","3.3","","1.7","","89","","29","","6","","8.0","","101.00","","","","","","Fog,Smoke"
"1953-11-13 04:00","1953","11","13","04:00","3.3","","1.7","","89","","23","","6","","6.4","","101.00","","","","","","Fog"
"1953-11-13 05:00","1953","11","13","05:00","3.3","","1.7","","89","","16","","6","","6.4","","101.03","","","","","","Fog"
"1953-11-13 06:00","1953","11","13","06:00","3.9","","1.7","","85","","14","","6","","4.8","","101.04","","","","","","Fog"
"1953-11-13 07:00","1953","11","13","07:00","3.9","","1.7","","85","","23","","6","","2.8","","101.08","","","","","","Fog,Smoke"
"1953-11-13 08:00","1953","11","13","08:00","3.9","","1.7","","85","","14","","16","","2.8","","101.09","","","","","","Fog,Smoke"
"1953-11-13 09:00","1953","11","13","09:00","4.4","","2.8","","89","","29","","6","","2.8","","101.06","","","","","","Fog,Smoke"
"1953-11-13 10:00","1953","11","13","10:00","5.6","","3.3","","86","","27","","6","","2.8","","101.09","","","","","","Fog,Smoke"
"1953-11-13 11:00","1953","11","13","11:00","6.1","","3.9","","86","","25","","5","","3.2","","101.05","","","","","","Fog,Smoke"
"1953-11-13 12:00","1953","11","13","12:00","6.7","","3.3","","79","","23","","5","","4.0","","101.00","","","","","","Fog,Smoke"
"1953-11-13 13:00","1953","11","13","13:00","6.7","","3.3","","79","","23","","6","","4.8","","100.97","","","","","","Fog,Smoke"
"1953-11-13 14:00","1953","11","13","14:00","6.1","","3.9","","86","","23","","6","","4.8","","100.87","","","","","","Fog,Smoke"
"1953-11-13 15:00","1953","11","13","15:00","7.8","","3.9","","79","","18","","5","","4.8","","100.87","","","","","","Fog,Smoke"
"1953-11-13 16:00","1953","11","13","16:00","7.8","","2.8","","71","","14","","6","","4.8","","100.87","","","","","","Fog,Smoke"
"1953-11-13 17:00","1953","11","13","17:00","6.7","","2.2","","73","","16","","6","","4.8","","100.89","","","","","","Smoke,Haze"
"1953-11-13 18:00","1953","11","13","18:00","6.7","","1.7","","70","","18","","8","","8.0","","100.89","","","","","","Smoke,Haze"
"1953-11-13 19:00","1953","11","13","19:00","7.2","","2.2","","70","","16","","8","","6.4","","100.89","","","","","","Smoke,Haze"
"1953-11-13 20:00","1953","11","13","20:00","6.1","","2.2","","76","","18","","11","","8.0","","100.85","","","","","","Smoke,Haze"
"1953-11-13 21:00","1953","11","13","21:00","6.7","","2.8","","76","","16","","11","","8.0","","100.80","","","","","","Smoke,Haze"
"1953-11-13 22:00","1953","11","13","22:00","6.1","","3.3","","82","","20","","11","","12.9","","100.73","","","","","","Cloudy"
"1953-11-13 23:00","1953","11","13","23:00","6.1","","3.3","","82","","20","","8","","12.9","","100.73","","","","","","Cloudy"
"1953-11-14 00:00","1953","11","14","00:00","6.1","","2.8","","79","","20","","10","","12.9","","100.70","","","","","","Cloudy"
"1953-11-14 01:00","1953","11","14","01:00","6.1","","2.8","","79","","18","","8","","11.3","","100.65","","","","","","Cloudy"
"1953-11-14 02:00","1953","11","14","02:00","6.1","","2.8","","79","","20","","10","","11.3","","100.65","","","","","","Cloudy"
"1953-11-14 03:00","1953","11","14","03:00","5.6","","3.3","","86","","18","","10","","11.3","","100.60","","","","","","Cloudy"
"1953-11-14 04:00","1953","11","14","04:00","5.6","","3.3","","86","","20","","10","","11.3","","100.59","","","","","","Cloudy"
"1953-11-14 05:00","1953","11","14","05:00","5.6","","3.3","","86","","20","","10","","11.3","","100.57","","","","","","Cloudy"
"1953-11-14 06:00","1953","11","14","06:00","5.6","","3.3","","86","","23","","13","","11.3","","100.53","","","","","","Cloudy"
"1953-11-14 07:00","1953","11","14","07:00","5.6","","3.3","","86","","20","","16","","4.8","","100.50","","","","","","Haze"
"1953-11-14 08:00","1953","11","14","08:00","5.0","","3.3","","89","","20","","16","","6.4","","100.42","","","","","","Haze"
"1953-11-14 09:00","1953","11","14","09:00","7.2","","4.4","","82","","20","","19","","4.8","","100.37","","","","","","Haze"
"1953-11-14 10:00","1953","11","14","10:00","8.9","","5.0","","77","","20","","29","","2.4","","100.25","","","","","","Smoke,Haze"
"1953-11-14 11:00","1953","11","14","11:00","10.6","","5.0","","68","","23","","32","","4.0","","100.16","","","","","","Haze"
"1953-11-14 12:00","1953","11","14","12:00","12.2","","5.6","","64","","23","","32","","4.0","","99.99","","","","","","Haze"
"1953-11-14 13:00","1953","11","14","13:00","10.6","","5.0","","68","","23","","32","","4.0","","99.87","","","","","","Haze"
"1953-11-14 14:00","1953","11","14","14:00","14.4","","6.7","","60","","23","","29","","4.0","","99.75","","","","","","Haze"
"1953-11-14 15:00","1953","11","14","15:00","14.4","","7.2","","62","","23","","26","","6.4","","99.62","","","","","","Haze"
"1953-11-14 16:00","1953","11","14","16:00","12.8","","6.7","","66","","23","","24","","6.4","","99.53","","","","","","Haze"
"1953-11-14 17:00","1953","11","14","17:00","12.2","","6.7","","69","","23","","29","","6.4","","99.49","","","","","","Haze"
"1953-11-14 18:00","1953","11","14","18:00","11.1","","6.1","","71","","23","","24","","6.4","","99.46","","","","","","Haze"
"1953-11-14 19:00","1953","11","14","19:00","11.1","","6.1","","71","","23","","24","","6.4","","99.39","","","","","","Haze"
"1953-11-14 20:00","1953","11","14","20:00","11.7","","5.0","","64","","25","","14","","6.4","","99.40","","","","","","Haze"
"1953-11-14 21:00","1953","11","14","21:00","11.7","","5.0","","64","","25","","14","","6.4","","99.41","","","","","","Haze"
"1953-11-14 22:00","1953","11","14","22:00","12.2","","4.4","","59","","25","","24","","12.9","","99.39","","","","","","Mostly Cloudy"
"1953-11-14 23:00","1953","11","14","23:00","12.2","","4.4","","59","","25","","24","","14.5","","99.33","","","","","","Mostly Cloudy"
"1953-11-15 00:00","1953","11","15","00:00","12.2","","3.9","","57","","25","","13","","16.1","","99.30","","","","","","Mostly Cloudy"
"1953-11-15 01:00","1953","11","15","01:00","10.6","","4.4","","66","","23","","19","","16.1","","99.25","","","","","","Cloudy"
"1953-11-15 02:00","1953","11","15","02:00","10.6","","4.4","","66","","25","","13","","16.1","","99.25","","","","","","Cloudy"
"1953-11-15 03:00","1953","11","15","03:00","9.4","","4.4","","71","","18","","10","","16.1","","99.23","","","","","","Cloudy"
"1953-11-15 04:00","1953","11","15","04:00","8.3","","3.9","","74","","27","","23","","16.1","","99.22","","","","","","Mainly Clear"
"1953-11-15 05:00","1953","11","15","05:00","7.8","","3.9","","76","","25","","8","","19.3","","99.25","","","","","","Mainly Clear"
"1953-11-15 06:00","1953","11","15","06:00","6.1","","3.3","","82","","25","","10","","19.3","","99.30","","","","","","Mainly Clear"
"1953-11-15 07:00","1953","11","15","07:00","5.0","","2.8","","86","","23","","14","","8.0","","99.31","","","","","","Haze"
"1953-11-15 08:00","1953","11","15","08:00","6.7","","4.4","","86","","27","","11","","12.9","","99.36","","","","","","Mainly Clear"
"1953-11-15 09:00","1953","11","15","09:00","9.4","","6.7","","83","","27","","8","","14.5","","99.41","","","","","","Mainly Clear"
"1953-11-15 10:00","1953","11","15","10:00","12.2","","6.1","","66","","32","","21","","14.5","","99.41","","","","","","Mainly Clear"
"1953-11-15 11:00","1953","11","15","11:00","14.4","","6.7","","61","","34","","13","","19.3","","99.41","","","","","","Clear"
"1953-11-15 12:00","1953","11","15","12:00","16.1","","4.4","","46","","32","","23","","25.0","","99.37","","","","","","Clear"
"1953-11-15 13:00","1953","11","15","13:00","16.1","","5.0","","48","","32","","26","","25.0","","99.35","","","","","","Mainly Clear"
"1953-11-15 14:00","1953","11","15","14:00","16.7","","5.0","","44","","32","","23","","25.0","","99.31","","","","","","Mainly Clear"
"1953-11-15 15:00","1953","11","15","15:00","15.6","","5.6","","51","","32","","26","","24.1","","99.33","","","","","","Mainly Clear"
"1953-11-15 16:00","1953","11","15","16:00","14.4","","5.6","","55","","32","","14","","19.3","","99.37","","","","","","Mainly Clear"
"1953-11-15 17:00","1953","11","15","17:00","12.2","","5.6","","64","","32","","16","","19.3","","99.37","","","","","","Mainly Clear"
"1953-11-15 18:00","1953","11","15","18:00","8.9","","6.1","","83","","36","","21","","19.3","","99.48","","","","","","Mainly Clear"
"1953-11-15 19:00","1953","11","15","19:00","7.2","","5.6","","89","","36","","21","","17.7","","99.50","","","","","","Clear"
"1953-11-15 20:00","1953","11","15","20:00","6.1","","5.0","","93","","36","","11","","14.5","","99.55","","","","","","Clear"
"1953-11-15 21:00","1953","11","15","21:00","6.1","","5.0","","93","","36","","13","","14.5","","99.55","","","","","","Mainly Clear"
"1953-11-15 22:00","1953","11","15","22:00","6.1","","5.0","","93","","34","","11","","12.9","","99.55","","","","","","Mainly Clear"
"1953-11-15 23:00","1953","11","15","23:00","5.0","","3.9","","93","","23","","6","","6.4","","99.55","","","","","","Fog"
"1953-11-16 00:00","1953","11","16","00:00","1.7","","1.7","","100","","23","","6","","0.0","","99.56","","","","","","Fog"
"1953-11-16 01:00","1953","11","16","01:00","1.1","","1.1","","100","","27","","10","","0.4","","99.59","","","","","","Fog"
"1953-11-16 02:00","1953","11","16","02:00","2.8","","1.7","","92","","27","","8","","4.8","","99.60","","","","","","Fog"
"1953-11-16 03:00","1953","11","16","03:00","2.8","","1.7","","92","","27","","6","","4.8","","99.60","","","","","","Fog"
"1953-11-16 04:00","1953","11","16","04:00","3.3","","2.2","","92","","23","","6","","4.8","","99.57","","","","","","Fog"
"1953-11-16 05:00","1953","11","16","05:00","2.2","","1.7","","96","","5","","6","","4.8","","99.55","","","","","","Fog"
"1953-11-16 06:00","1953","11","16","06:00","3.3","","1.1","","85","","9","","5","","4.8","","99.53","","","","","","Fog"
"1953-11-16 07:00","1953","11","16","07:00","3.3","","2.2","","92","","11","","5","","3.2","","99.51","","","","","","Fog"
"1953-11-16 08:00","1953","11","16","08:00","5.0","","3.9","","93","","11","","5","","2.4","","99.52","","","","","","Fog"
"1953-11-16 09:00","1953","11","16","09:00","6.7","","5.6","","93","","18","","8","","2.4","","99.48","","","","","","Fog"
"1953-11-16 10:00","1953","11","16","10:00","7.2","","6.7","","96","","18","","16","","2.0","","99.46","","","","","","Fog"
"1953-11-16 11:00","1953","11","16","11:00","7.8","","7.2","","96","","18","","13","","0.8","","99.40","","","","","","Drizzle,Fog"
"1953-11-16 12:00","1953","11","16","12:00","7.2","","7.2","","100","","18","","14","","0.4","","99.35","","","","","","Drizzle,Fog"
"1953-11-16 13:00","1953","11","16","13:00","8.3","","7.8","","96","","16","","13","","0.8","","99.38","","","","","","Drizzle,Fog"
"1953-11-16 14:00","1953","11","16","14:00","11.1","","9.4","","90","","16","","14","","2.0","","99.13","","","","","","Fog"
"1953-11-16 15:00","1953","11","16","15:00","10.0","","8.9","","93","","14","","16","","3.2","","99.12","","","","","","Fog,Haze"
"1953-11-16 16:00","1953","11","16","16:00","8.9","","8.3","","96","","16","","16","","1.2","","99.06","","","","","","Fog,Smoke"
"1953-11-16 17:00","1953","11","16","17:00","7.2","","5.6","","89","","16","","11","","1.2","","99.09","","","","","","Fog,Smoke"
"1953-11-16 18:00","1953","11","16","18:00","7.2","","6.7","","96","","14","","10","","1.2","","99.07","","","","","","Fog"
"1953-11-16 19:00","1953","11","16","19:00","6.7","","5.0","","89","","16","","6","","6.4","","99.06","","","","","","Fog"
"1953-11-16 20:00","1953","11","16","20:00","9.4","","5.6","","77","","25","","26","","16.1","","99.06","","","","","","Mostly Cloudy"
"1953-11-16 21:00","1953","11","16","21:00","10.6","","5.6","","71","","25","","31","","19.3","","99.08","","","","","","Mostly Cloudy"
"1953-11-16 22:00","1953","11","16","22:00","10.0","","5.6","","74","","27","","27","","19.3","","99.15","","","","","","Mostly Cloudy"
"1953-11-16 23:00","1953","11","16","23:00","8.9","","5.6","","80","","27","","23","","19.3","","99.21","","","","","","Mainly Clear"
"1953-11-17 00:00","1953","11","17","00:00","11.1","","6.7","","74","","29","","24","","19.3","","99.23","","","","","","Mainly Clear"
"1953-11-17 01:00","1953","11","17","01:00","10.0","","6.7","","80","","32","","13","","19.3","","99.28","","","","","","Mainly Clear"
"1953-11-17 02:00","1953","11","17","02:00","9.4","","6.1","","80","","32","","14","","19.3","","99.35","","","","","","Mainly Clear"
"1953-11-17 03:00","1953","11","17","03:00","7.8","","5.6","","86","","27","","8","","19.3","","99.39","","","","","","Clear"
"1953-11-17 04:00","1953","11","17","04:00","7.8","","5.6","","86","","7","","6","","12.9","","99.46","","","","","","Clear"
"1953-11-17 05:00","1953","11","17","05:00","6.1","","3.9","","86","","20","","6","","8.0","","99.50","","","","","","Haze"
"1953-11-17 06:00","1953","11","17","06:00","4.4","","2.8","","89","","27","","10","","6.4","","99.57","","","","","","Fog"
"1953-11-17 07:00","1953","11","17","07:00","3.3","","2.8","","96","","27","","6","","4.0","","99.64","","","","","","Fog"
"1953-11-17 08:00","1953","11","17","08:00","5.0","","2.8","","86","","27","","5","","4.0","","99.70","","","","","","Smoke,Haze"
"1953-11-17 09:00","1953","11","17","09:00","8.9","","6.7","","86","","23","","5","","4.8","","99.73","","","","","","Smoke,Haze"
"1953-11-17 10:00","1953","11","17","10:00","12.2","","8.3","","77","","18","","3","","6.4","","99.75","","","","","","Smoke,Haze"
"1953-11-17 11:00","1953","11","17","11:00","15.0","","7.8","","62","","20","","11","","8.0","","99.79","","","","","","Smoke,Haze"
"1953-11-17 12:00","1953","11","17","12:00","16.7","","7.8","","58","","23","","13","","9.7","","99.70","","","","","","Haze"
"1953-11-17 13:00","1953","11","17","13:00","18.3","","8.3","","52","","18","","13","","9.7","","99.68","","","","","","Haze"
"1953-11-17 14:00","1953","11","17","14:00","17.2","","10.6","","65","","14","","11","","9.7","","99.68","","","","","","Haze"
"1953-11-17 15:00","1953","11","17","15:00","17.8","","8.9","","58","","9","","10","","9.7","","99.67","","","","","","Haze"
"1953-11-17 16:00","1953","11","17","16:00","15.0","","8.3","","64","","14","","11","","4.8","","99.64","","","","","","Smoke,Haze"
"1953-11-17 17:00","1953","11","17","17:00","13.3","","7.8","","69","","14","","16","","2.4","","99.66","","","","","","Smoke,Haze"
"1953-11-17 18:00","1953","11","17","18:00","11.1","","8.3","","83","","16","","14","","3.2","","99.71","","","","","","Smoke,Haze"
"1953-11-17 19:00","1953","11","17","19:00","8.9","","5.6","","83","","23","","14","","8.0","","99.72","","","","","","Smoke,Haze"
"1953-11-17 20:00","1953","11","17","20:00","9.4","","6.7","","83","","23","","16","","9.7","","99.73","","","","","","Smoke,Haze"
"1953-11-17 21:00","1953","11","17","21:00","8.9","","6.7","","86","","27","","6","","9.7","","99.75","","","","","","Smoke,Haze"
"1953-11-17 22:00","1953","11","17","22:00","8.3","","5.6","","83","","23","","6","","9.7","","99.74","","","","","","Smoke,Haze"
"1953-11-17 23:00","1953","11","17","23:00","8.9","","5.0","","77","","18","","8","","9.7","","99.74","","","","","","Smoke,Haze"
"1953-11-18 00:00","1953","11","18","00:00","9.4","","5.0","","77","","20","","13","","9.7","","99.73","","","","","","Smoke,Haze"
"1953-11-18 01:00","1953","11","18","01:00","9.4","","4.4","","71","","20","","8","","9.7","","99.73","","","","","","Smoke,Haze"
"1953-11-18 02:00","1953","11","18","02:00","8.9","","4.4","","74","","20","","13","","8.0","","99.74","","","","","","Smoke,Haze"
"1953-11-18 03:00","1953","11","18","03:00","8.9","","5.0","","77","","20","","10","","8.0","","99.78","","","","","","Smoke,Haze"
"1953-11-18 04:00","1953","11","18","04:00","7.2","","3.9","","86","","20","","6","","8.0","","99.81","","","","","","Smoke,Haze"
"1953-11-18 05:00","1953","11","18","05:00","6.1","","3.3","","82","","14","","6","","4.8","","99.85","","","","","","Smoke,Haze"
"1953-11-18 06:00","1953","11","18","06:00","5.0","","2.2","","82","","14","","5","","4.8","","99.92","","","","","","Smoke,Haze"
"1953-11-18 07:00","1953","11","18","07:00","3.3","","1.1","","85","","18","","5","","3.2","","99.95","","","","","","Fog"
"1953-11-18 08:00","1953","11","18","08:00","5.6","","3.9","","89","","23","","5","","4.0","","99.93","","","","","","Fog"
"1953-11-18 09:00","1953","11","18","09:00","7.8","","3.9","","79","","23","","5","","4.8","","99.96","","","","","","Fog"
"1953-11-18 10:00","1953","11","18","10:00","10.6","","5.0","","68","","23","","13","","6.4","","100.03","","","","","","Smoke,Haze"
"1953-11-18 11:00","1953","11","18","11:00","13.9","","5.6","","57","","23","","13","","6.4","","100.01","","","","","","Smoke,Haze"
"1953-11-18 12:00","1953","11","18","12:00","15.6","","6.7","","55","","20","","16","","6.4","","99.94","","","","","","Smoke,Haze"
"1953-11-18 13:00","1953","11","18","13:00","17.2","","5.6","","46","","20","","19","","6.4","","99.90","","","","","","Smoke,Haze"
"1953-11-18 14:00","1953","11","18","14:00","18.3","","6.1","","45","","25","","19","","8.0","","99.86","","","","","","Smoke,Haze"
"1953-11-18 15:00","1953","11","18","15:00","17.2","","5.6","","46","","23","","16","","16.1","","99.96","","","","","","Clear"
"1953-11-18 16:00","1953","11","18","16:00","13.9","","5.6","","57","","23","","13","","8.0","","99.89","","","","","","Haze"
"1953-11-18 17:00","1953","11","18","17:00","12.2","","4.4","","59","","23","","16","","8.0","","99.91","","","","","","Smoke,Haze"
"1953-11-18 18:00","1953","11","18","18:00","10.6","","5.0","","68","","23","","14","","8.0","","99.95","","","","","","Smoke,Haze"
"1953-11-18 19:00","1953","11","18","19:00","10.6","","3.9","","63","","23","","11","","8.0","","99.96","","","","","","Smoke,Haze"
"1953-11-18 20:00","1953","11","18","20:00","8.9","","3.3","","68","","23","","18","","8.0","","99.97","","","","","","Smoke,Haze"
"1953-11-18 21:00","1953","11","18","21:00","8.3","","2.8","","68","","23","","14","","8.0","","99.98","","","","","","Smoke,Haze"
"1953-11-18 22:00","1953","11","18","22:00","8.3","","2.2","","65","","27","","8","","8.0","","100.01","","","","","","Smoke,Haze"
"1953-11-18 23:00","1953","11","18","23:00","7.8","","4.4","","79","","25","","8","","8.0","","100.02","","","","","","Smoke,Haze"
"1953-11-19 00:00","1953","11","19","00:00","8.3","","3.3","","71","","18","","5","","6.4","","100.01","","","","","","Smoke,Haze"
"1953-11-19 01:00","1953","11","19","01:00","8.3","","2.8","","68","","18","","5","","4.8","","100.04","","","","","","Smoke,Haze"
"1953-11-19 02:00","1953","11","19","02:00","7.8","","3.9","","76","","18","","3","","4.8","","100.08","","","","","","Smoke,Haze"
"1953-11-19 03:00","1953","11","19","03:00","8.9","","5.0","","77","","16","","6","","4.8","","100.08","","","","","","Smoke,Haze"
"1953-11-19 04:00","1953","11","19","04:00","8.3","","4.4","","76","","18","","3","","4.8","","100.08","","","","","","Smoke,Haze"
"1953-11-19 05:00","1953","11","19","05:00","8.3","","3.9","","74","","18","","8","","4.8","","100.09","","","","","","Smoke,Haze"
"1953-11-19 06:00","1953","11","19","06:00","8.3","","3.9","","74","","20","","10","","4.8","","100.12","","","","","","Smoke,Haze"
"1953-11-19 07:00","1953","11","19","07:00","7.8","","3.9","","76","","5","","11","","2.4","","100.14","","","","","","Smoke,Haze"
"1953-11-19 08:00","1953","11","19","08:00","9.4","","5.0","","74","","36","","6","","2.4","","100.18","","","","","","Smoke,Haze"
"1953-11-19 09:00","1953","11","19","09:00","10.6","","6.1","","74","","16","","8","","2.4","","100.19","","","","","","Smoke,Haze"
"1953-11-19 10:00","1953","11","19","10:00","11.7","","6.7","","71","","18","","16","","2.4","","100.20","","","","","","Smoke,Haze"
"1953-11-19 11:00","1953","11","19","11:00","13.3","","8.3","","72","","18","","11","","2.4","","100.19","","","","","","Smoke,Haze"
"1953-11-19 12:00","1953","11","19","12:00","16.7","","9.4","","62","","20","","13","","2.8","","100.13","","","","","","Smoke,Haze"
"1953-11-19 13:00","1953","11","19","13:00","18.3","","10.0","","60","","16","","13","","2.8","","100.09","","","","","","Smoke,Haze"
"1953-11-19 14:00","1953","11","19","14:00","19.4","","10.0","","56","","20","","19","","2.8","","100.03","","","","","","Smoke,Haze"
"1953-11-19 15:00","1953","11","19","15:00","19.4","","10.0","","56","","20","","14","","2.8","","100.03","","","","","","Smoke,Haze"
"1953-11-19 16:00","1953","11","19","16:00","17.8","","9.4","","58","","20","","14","","3.2","","100.02","","","","","","Smoke,Haze"
"1953-11-19 17:00","1953","11","19","17:00","15.0","","8.3","","64","","18","","14","","2.8","","100.03","","","","","","Smoke,Haze"
"1953-11-19 18:00","1953","11","19","18:00","13.9","","8.3","","69","","18","","6","","3.2","","100.06","","","","","","Smoke,Haze"
"1953-11-19 19:00","1953","11","19","19:00","12.2","","7.8","","74","","20","","10","","4.0","","100.07","","","","","","Smoke,Haze"
"1953-11-19 20:00","1953","11","19","20:00","11.7","","6.7","","71","","23","","10","","4.8","","100.09","","","","","","Smoke,Haze"
"1953-11-19 21:00","1953","11","19","21:00","8.9","","5.6","","80","","27","","6","","4.8","","100.07","","","","","","Smoke,Haze"
"1953-11-19 22:00","1953","11","19","22:00","8.9","","5.0","","77","","16","","6","","4.8","","100.08","","","","","","Smoke,Haze"
"1953-11-19 23:00","1953","11","19","23:00","6.1","","3.9","","86","","9","","6","","3.2","","100.08","","","","","","Smoke,Haze"
"1953-11-20 00:00","1953","11","20","00:00","5.0","","3.9","","93","","9","","3","","2.4","","100.07","","","","","","Fog"
"1953-11-20 01:00","1953","11","20","01:00","3.9","","3.3","","96","","9","","5","","0.0","","100.07","","","","","","Fog"
"1953-11-20 02:00","1953","11","20","02:00","2.8","","2.8","","100","","9","","5","","0.0","","100.03","","","","","","Fog"
"1953-11-20 03:00","1953","11","20","03:00","1.1","","1.1","","100","","25","","5","","0.0","","100.05","","","","","","Fog"
"1953-11-20 04:00","1953","11","20","04:00","0.0","","0.0","","100","","36","","6","","0.0","","100.01","","","","-2","","Fog"
"1953-11-20 05:00","1953","11","20","05:00","0.6","","0.6","","100","","36","","6","","0.0","","99.99","","","","","","Fog"
"1953-11-20 06:00","1953","11","20","06:00","1.1","","1.1","","100","","36","","6","","0.8","","99.99","","","","","","Fog"
"1953-11-20 07:00","1953","11","20","07:00","1.1","","1.1","","100","","36","","6","","0.4","","99.99","","","","","","Fog"
"1953-11-20 08:00","1953","11","20","08:00","1.1","","1.1","","100","","5","","6","","0.8","","99.96","","","","","","Fog"
"1953-11-20 09:00","1953","11","20","09:00","5.0","","5.0","","100","","36","","6","","0.8","","99.95","","","","","","Fog,Smoke"
"1953-11-20 10:00","1953","11","20","10:00","7.8","","7.2","","96","","36","","6","","1.2","","99.93","","","","","","Fog,Smoke"
"1953-11-20 11:00","1953","11","20","11:00","9.4","","7.2","","86","","5","","3","","1.2","","99.88","","","","","","Fog,Smoke"
"1953-11-20 12:00","1953","11","20","12:00","12.8","","6.1","","64","","14","","3","","1.2","","99.82","","","","","","Smoke,Haze"
"1953-11-20 13:00","1953","11","20","13:00","14.4","","5.6","","57","","14","","11","","2.4","","99.75","","","","","","Smoke,Haze"
"1953-11-20 14:00","1953","11","20","14:00","15.6","","6.7","","55","","11","","10","","3.2","","99.68","","","","","","Smoke,Haze"
"1953-11-20 15:00","1953","11","20","15:00","14.4","","5.0","","55","","14","","11","","3.2","","99.73","","","","","","Smoke,Haze"
"1953-11-20 16:00","1953","11","20","16:00","13.3","","6.1","","62","","16","","10","","3.2","","99.62","","","","","","Smoke,Haze"
"1953-11-20 17:00","1953","11","20","17:00","10.6","","5.0","","68","","9","","6","","4.0","","99.62","","","","","","Smoke,Haze"
"1953-11-20 18:00","1953","11","20","18:00","8.9","","3.3","","68","","9","","6","","4.0","","99.59","","","","","","Smoke,Haze"
"1953-11-20 19:00","1953","11","20","19:00","8.3","","3.9","","74","","32","","6","","4.0","","99.55","","","","","","Smoke,Haze"
"1953-11-20 20:00","1953","11","20","20:00","6.7","","3.3","","79","","36","","6","","4.0","","99.52","","","","","","Smoke,Haze"
"1953-11-20 21:00","1953","11","20","21:00","4.4","","2.8","","89","","36","","6","","6.4","","99.49","","","","","","Smoke,Haze"
"1953-11-20 22:00","1953","11","20","22:00","5.6","","3.9","","89","","36","","6","","6.4","","99.48","","","","","","Haze"
"1953-11-20 23:00","1953","11","20","23:00","6.1","","2.8","","79","","36","","6","","4.8","","99.46","","","","","","Smoke,Haze"
"1953-11-21 00:00","1953","11","21","00:00","6.7","","3.3","","82","","36","","6","","4.8","","99.46","","","","","","Smoke,Haze"
"1953-11-21 01:00","1953","11","21","01:00","5.6","","3.3","","86","","36","","5","","4.8","","99.43","","","","","","Smoke,Haze"
"1953-11-21 02:00","1953","11","21","02:00","6.7","","3.9","","82","","34","","5","","4.8","","99.48","","","","","","Smoke,Haze"
"1953-11-21 03:00","1953","11","21","03:00","7.2","","5.0","","86","","16","","5","","4.8","","99.48","","","","","","Rain Showers,Smoke,Haze"
"1953-11-21 04:00","1953","11","21","04:00","7.2","","6.1","","93","","20","","3","","4.8","","99.48","","","","","","Rain Showers,Smoke,Haze"
"1953-11-21 05:00","1953","11","21","05:00","8.9","","8.3","","96","","14","","19","","4.8","","99.50","","","","","","Moderate Rain,Fog"
"1953-11-21 06:00","1953","11","21","06:00","10.0","","9.4","","96","","14","","19","","4.8","","99.50","","","","","","Fog"
"1953-11-21 07:00","1953","11","21","07:00","10.6","","10.0","","96","","14","","19","","0.4","","99.51","","","","","","Fog"
"1953-11-21 08:00","1953","11","21","08:00","11.1","","10.6","","96","","14","","19","","0.2","","99.52","","","","","","Fog"
"1953-11-21 09:00","1953","11","21","09:00","11.7","","11.1","","96","","14","","16","","0.8","","99.53","","","","","","Fog"
"1953-11-21 10:00","1953","11","21","10:00","12.8","","12.2","","96","","16","","13","","1.2","","99.58","","","","","","Fog"
"1953-11-21 11:00","1953","11","21","11:00","13.3","","12.8","","96","","16","","10","","2.4","","99.62","","","","","","Fog"
"1953-11-21 12:00","1953","11","21","12:00","13.9","","12.8","","93","","14","","13","","2.4","","99.55","","","","","","Fog"
"1953-11-21 13:00","1953","11","21","13:00","15.0","","13.3","","88","","18","","13","","4.0","","99.51","","","","","","Smoke,Haze"
"1953-11-21 14:00","1953","11","21","14:00","17.2","","13.3","","78","","20","","21","","8.0","","99.46","","","","","","Smoke,Haze"
"1953-11-21 15:00","1953","11","21","15:00","16.7","","12.8","","78","","20","","24","","8.0","","99.49","","","","","","Haze"
"1953-11-21 16:00","1953","11","21","16:00","16.1","","11.7","","75","","20","","19","","9.7","","99.57","","","","","","Haze"
"1953-11-21 17:00","1953","11","21","17:00","13.3","","11.7","","87","","18","","16","","9.7","","99.62","","","","","","Haze"
"1953-11-21 18:00","1953","11","21","18:00","13.3","","11.1","","86","","18","","13","","6.4","","99.66","","","","","","Smoke,Haze"
"1953-11-21 19:00","1953","11","21","19:00","12.8","","11.7","","93","","18","","16","","4.8","","99.66","","","","","","Fog,Smoke"
"1953-11-21 20:00","1953","11","21","20:00","11.7","","10.6","","93","","18","","16","","1.2","","99.69","","","","","","Fog"
"1953-11-21 21:00","1953","11","21","21:00","10.0","","8.9","","93","","18","","10","","0.0","","99.71","","","","","","Fog"
"1953-11-21 22:00","1953","11","21","22:00","6.7","","6.1","","96","","18","","6","","0.0","","99.72","","","","","","Fog"
"1953-11-21 23:00","1953","11","21","23:00","5.6","","5.6","","100","","18","","6","","0.0","","99.75","","","","","","Fog"
"1953-11-22 00:00","1953","11","22","00:00","3.9","","2.8","","92","","25","","13","","2.4","","99.79","","","","","","Fog"
"1953-11-22 01:00","1953","11","22","01:00","4.4","","3.3","","93","","23","","13","","2.4","","99.73","","","","","","Fog"
"1953-11-22 02:00","1953","11","22","02:00","3.3","","3.3","","100","","25","","13","","0.4","","99.75","","","","","","Fog"
"1953-11-22 03:00","1953","11","22","03:00","3.3","","2.2","","92","","5","","13","","4.8","","99.74","","","","","","Fog"
"1953-11-22 04:00","1953","11","22","04:00","3.3","","2.2","","92","","2","","6","","4.8","","99.69","","","","","","Fog"
"1953-11-22 05:00","1953","11","22","05:00","3.9","","3.3","","96","","36","","6","","1.6","","99.69","","","","","","Fog"
"1953-11-22 06:00","1953","11","22","06:00","3.9","","3.3","","96","","2","","10","","1.6","","99.69","","","","","","Fog"
"1953-11-22 07:00","1953","11","22","07:00","5.0","","4.4","","96","","2","","6","","1.2","","99.57","","","","","","Fog"
"1953-11-22 08:00","1953","11","22","08:00","5.6","","5.0","","96","","2","","10","","1.2","","99.53","","","","","","Fog"
"1953-11-22 09:00","1953","11","22","09:00","7.8","","7.2","","96","","2","","6","","3.2","","99.49","","","","","","Fog"
"1953-11-22 10:00","1953","11","22","10:00","8.9","","8.3","","96","","36","","6","","2.4","","99.40","","","","","","Fog"
"1953-11-22 11:00","1953","11","22","11:00","11.1","","10.6","","96","","2","","16","","1.6","","99.28","","","","","","Fog"
"1953-11-22 12:00","1953","11","22","12:00","13.3","","11.7","","90","","11","","10","","1.6","","99.16","","","","","","Fog"
"1953-11-22 13:00","1953","11","22","13:00","14.4","","11.7","","84","","11","","10","","1.6","","99.06","","","","","","Fog"
"1953-11-22 14:00","1953","11","22","14:00","14.4","","12.2","","87","","11","","13","","2.0","","98.86","","","","","","Fog"
"1953-11-22 15:00","1953","11","22","15:00","15.0","","11.7","","81","","11","","13","","4.8","","98.65","","","","","","Haze"
"1953-11-22 16:00","1953","11","22","16:00","15.0","","11.7","","81","","11","","13","","4.8","","98.56","","","","","","Haze"
"1953-11-22 17:00","1953","11","22","17:00","15.6","","12.2","","81","","11","","13","","6.4","","98.38","","","","","","Haze"
"1953-11-22 18:00","1953","11","22","18:00","15.6","","11.7","","78","","14","","26","","11.3","","98.12","","","","","","Cloudy"
"1953-11-22 19:00","1953","11","22","19:00","13.3","","12.2","","93","","27","","35","","9.7","","98.25","","","","","","Thunderstorms,Moderate Rain Showers,Haze"
"1953-11-22 20:00","1953","11","22","20:00","13.3","","12.8","","96","","23","","19","","8.0","","98.21","","","","","","Rain,Fog"
"1953-11-22 21:00","1953","11","22","21:00","12.2","","11.7","","96","","18","","16","","12.9","","98.07","","","","","","Cloudy"
"1953-11-22 22:00","1953","11","22","22:00","12.2","","11.1","","93","","18","","24","","12.9","","98.10","","","","","","Cloudy"
"1953-11-22 23:00","1953","11","22","23:00","12.2","","11.1","","93","","20","","23","","12.9","","98.09","","","","","","Cloudy"
"1953-11-23 00:00","1953","11","23","00:00","10.6","","6.7","","77","","25","","43","","25.0","","98.59","","","","","","Cloudy"
"1953-11-23 01:00","1953","11","23","01:00","8.3","","5.0","","80","","25","","27","","25.0","","98.34","","","","","","Cloudy"
"1953-11-23 02:00","1953","11","23","02:00","7.2","","3.9","","79","","27","","23","","25.0","","98.43","","","","","","Mostly Cloudy"
"1953-11-23 03:00","1953","11","23","03:00","6.7","","1.7","","70","","25","","29","","25.0","","98.53","","","","","","Mainly Clear"
"1953-11-23 04:00","1953","11","23","04:00","5.0","","1.7","","79","","25","","23","","25.0","","98.59","","","","","","Clear"
"1953-11-23 05:00","1953","11","23","05:00","3.9","","1.1","","82","","23","","13","","25.0","","98.67","","","","","","Mainly Clear"
"1953-11-23 06:00","1953","11","23","06:00","3.9","","1.1","","82","","23","","21","","25.0","","98.67","","","","","","Mainly Clear"
"1953-11-23 07:00","1953","11","23","07:00","3.3","","1.7","","89","","23","","21","","25.0","","98.67","","","","","","Mainly Clear"
"1953-11-23 08:00","1953","11","23","08:00","4.4","","1.1","","79","","23","","18","","19.3","","98.69","","","","","","Mainly Clear"
"1953-11-23 09:00","1953","11","23","09:00","5.0","","1.7","","79","","23","","24","","24.1","","98.70","","","","","","Mainly Clear"
"1953-11-23 10:00","1953","11","23","10:00","6.1","","1.1","","70","","23","","31","","24.1","","98.73","","","","","","Mainly Clear"
"1953-11-23 11:00","1953","11","23","11:00","7.2","","0.0","","62","","25","","32","","24.1","","98.71","","","","","","Mainly Clear"
"1953-11-23 12:00","1953","11","23","12:00","7.8","","-1.1","","53","","25","","34","","24.1","","98.63","","","","","","Mainly Clear"
"1953-11-23 13:00","1953","11","23","13:00","8.3","","-2.2","","47","","23","","37","","24.1","","98.59","","","","","","Clear"
"1953-11-23 14:00","1953","11","23","14:00","8.3","","-3.9","","42","","23","","31","","24.1","","98.55","","","","","","Clear"
"1953-11-23 15:00","1953","11","23","15:00","7.2","","-3.3","","47","","23","","19","","24.1","","98.58","","","","","","Mostly Cloudy"
"1953-11-23 16:00","1953","11","23","16:00","7.2","","-1.7","","53","","23","","24","","24.1","","98.59","","","","","","Mostly Cloudy"
"1953-11-23 17:00","1953","11","23","17:00","6.7","","-1.7","","55","","23","","19","","24.1","","98.69","","","","","","Mostly Cloudy"
"1953-11-23 18:00","1953","11","23","18:00","6.1","","0.0","","62","","18","","16","","24.1","","98.56","","","","","","Cloudy"
"1953-11-23 19:00","1953","11","23","19:00","5.6","","0.6","","57","","18","","16","","24.1","","98.52","","","","","","Cloudy"
"1953-11-23 20:00","1953","11","23","20:00","3.9","","-0.6","","73","","18","","16","","24.1","","98.49","","","","","","Clear"
"1953-11-23 21:00","1953","11","23","21:00","3.9","","0.0","","76","","18","","13","","24.1","","98.44","","","","","","Clear"
"1953-11-23 22:00","1953","11","23","22:00","3.3","","0.6","","82","","18","","16","","24.1","","98.38","","","","","","Clear"
"1953-11-23 23:00","1953","11","23","23:00","3.3","","1.7","","89","","18","","19","","24.1","","98.37","","","","","","Clear"
"1953-11-24 00:00","1953","11","24","00:00","4.4","","2.2","","85","","18","","21","","19.3","","98.27","","","","","","Clear"
"1953-11-24 01:00","1953","11","24","01:00","4.4","","3.3","","93","","20","","19","","12.9","","98.24","","","","","","Clear"
"1953-11-24 02:00","1953","11","24","02:00","5.0","","3.3","","89","","18","","23","","16.1","","98.21","","","","","","Clear"
"1953-11-24 03:00","1953","11","24","03:00","5.0","","3.3","","89","","18","","19","","16.1","","98.21","","","","","","Mainly Clear"
"1953-11-24 04:00","1953","11","24","04:00","4.4","","3.3","","93","","18","","19","","16.1","","98.17","","","","","","Clear"
"1953-11-24 05:00","1953","11","24","05:00","4.4","","3.3","","93","","16","","19","","16.1","","98.17","","","","","","Clear"
"1953-11-24 06:00","1953","11","24","06:00","5.0","","3.9","","93","","16","","21","","16.1","","98.12","","","","","","Clear"
"1953-11-24 07:00","1953","11","24","07:00","6.1","","3.9","","86","","16","","23","","16.1","","98.12","","","","","","Mostly Cloudy"
"1953-11-24 08:00","1953","11","24","08:00","6.7","","3.9","","82","","18","","23","","12.9","","98.12","","","","","","Cloudy"
"1953-11-24 09:00","1953","11","24","09:00","7.2","","4.4","","82","","18","","26","","9.7","","98.12","","","","","","Haze"
"1953-11-24 10:00","1953","11","24","10:00","7.8","","4.4","","79","","18","","32","","9.7","","98.09","","","","","","Haze"
"1953-11-24 11:00","1953","11","24","11:00","8.3","","4.4","","76","","16","","29","","9.7","","98.06","","","","","","Rain Showers,Haze"
"1953-11-24 12:00","1953","11","24","12:00","8.9","","4.4","","76","","18","","31","","9.7","","98.10","","","","","","Rain Showers,Haze"
"1953-11-24 13:00","1953","11","24","13:00","8.9","","4.4","","74","","18","","29","","9.7","","97.97","","","","","","Rain Showers,Haze"
"1953-11-24 14:00","1953","11","24","14:00","9.4","","3.3","","66","","20","","34","","9.7","","97.90","","","","","","Haze"
"1953-11-24 15:00","1953","11","24","15:00","8.9","","4.4","","74","","16","","19","","9.7","","97.91","","","","","","Haze"
"1953-11-24 16:00","1953","11","24","16:00","8.9","","4.4","","74","","16","","21","","9.7","","97.86","","","","","","Haze"
"1953-11-24 17:00","1953","11","24","17:00","7.8","","5.0","","82","","16","","19","","9.7","","97.82","","","","","","Haze"
"1953-11-24 18:00","1953","11","24","18:00","7.2","","4.4","","82","","14","","16","","9.7","","97.81","","","","","","Haze"
"1953-11-24 19:00","1953","11","24","19:00","7.8","","5.6","","86","","14","","16","","9.7","","97.78","","","","","","Haze"
"1953-11-24 20:00","1953","11","24","20:00","7.8","","4.4","","79","","14","","16","","9.7","","97.73","","","","","","Haze"
"1953-11-24 21:00","1953","11","24","21:00","8.3","","4.4","","76","","14","","19","","9.7","","97.70","","","","","","Haze"
"1953-11-24 22:00","1953","11","24","22:00","8.3","","4.4","","76","","14","","19","","9.7","","97.59","","","","","","Haze"
"1953-11-24 23:00","1953","11","24","23:00","7.8","","5.6","","86","","16","","16","","9.7","","97.60","","","","","","Rain"
"1953-11-25 00:00","1953","11","25","00:00","7.8","","5.6","","89","","16","","14","","12.9","","97.56","","","","","","Rain"
"1953-11-25 01:00","1953","11","25","01:00","7.8","","5.6","","86","","18","","11","","12.9","","97.49","","","","","","Rain"
"1953-11-25 02:00","1953","11","25","02:00","7.8","","6.1","","89","","16","","5","","12.9","","97.42","","","","","","Rain"
"1953-11-25 03:00","1953","11","25","03:00","7.2","","6.1","","93","","16","","5","","6.4","","97.36","","","","","","Rain,Fog"
"1953-11-25 04:00","1953","11","25","04:00","7.2","","6.7","","96","","16","","3","","6.4","","97.28","","","","","","Rain,Fog"
"1953-11-25 05:00","1953","11","25","05:00","7.2","","6.7","","96","","16","","11","","6.4","","97.24","","","","","","Rain,Fog"
"1953-11-25 06:00","1953","11","25","06:00","7.2","","6.7","","96","","16","","11","","4.8","","97.19","","","","","","Rain,Fog"
"1953-11-25 07:00","1953","11","25","07:00","7.2","","6.7","","96","","20","","16","","4.8","","97.15","","","","","","Moderate Rain,Fog"
"1953-11-25 08:00","1953","11","25","08:00","4.4","","2.8","","89","","29","","21","","12.9","","97.15","","","","","","Rain"
"1953-11-25 09:00","1953","11","25","09:00","3.9","","2.8","","92","","32","","21","","24.1","","97.18","","","","","","Rain"
"1953-11-25 10:00","1953","11","25","10:00","3.3","","2.2","","96","","29","","21","","24.1","","97.24","","","","","","Rain"
"1953-11-25 11:00","1953","11","25","11:00","3.9","","2.2","","89","","27","","35","","24.1","","97.27","","","","","","Rain"
"1953-11-25 12:00","1953","11","25","12:00","5.0","","2.2","","82","","27","","39","","24.1","","97.26","","","","","","Mostly Cloudy"
"1953-11-25 13:00","1953","11","25","13:00","5.6","","1.7","","76","","27","","32","","25.0","","97.26","","","","","","Mostly Cloudy"
"1953-11-25 14:00","1953","11","25","14:00","5.6","","-1.1","","62","","27","","35","","25.0","","97.28","","","","","","Mostly Cloudy"
"1953-11-25 15:00","1953","11","25","15:00","5.6","","-1.1","","62","","27","","27","","25.0","","97.33","","","","","","Mostly Cloudy"
"1953-11-25 16:00","1953","11","25","16:00","4.4","","0.0","","73","","27","","32","","25.0","","97.40","","","","","","Mostly Cloudy"
"1953-11-25 17:00","1953","11","25","17:00","2.8","","-1.1","","75","","25","","27","","25.0","","97.46","","","","","","Mainly Clear"
"1953-11-25 18:00","1953","11","25","18:00","1.7","","-1.1","","82","","25","","16","","25.0","","97.55","","","","","","Mainly Clear"
"1953-11-25 19:00","1953","11","25","19:00","1.1","","-1.7","","82","","23","","16","","25.0","","97.59","","","","","","Mainly Clear"
"1953-11-25 20:00","1953","11","25","20:00","0.0","","-2.8","","82","","23","","16","","25.0","","97.62","","","","-5","","Clear"
"1953-11-25 21:00","1953","11","25","21:00","0.0","","-2.2","","85","","23","","16","","25.0","","97.66","","","","-5","","Clear"
"1953-11-25 22:00","1953","11","25","22:00","-0.6","","-2.2","","85","","23","","16","","25.0","","97.66","","","","-5","","Clear"
"1953-11-25 23:00","1953","11","25","23:00","-1.1","","-2.2","","92","","23","","16","","25.0","","97.67","","","","-6","","Clear"
"1953-11-26 00:00","1953","11","26","00:00","-1.1","","-2.2","","92","","23","","16","","25.0","","97.69","","","","-6","","Clear"
"1953-11-26 01:00","1953","11","26","01:00","-1.1","","-2.2","","92","","23","","16","","25.0","","97.68","","","","-6","","Mainly Clear"
"1953-11-26 02:00","1953","11","26","02:00","-1.7","","-2.8","","92","","23","","13","","19.3","","97.73","","","","-6","","Mainly Clear"
"1953-11-26 03:00","1953","11","26","03:00","-1.7","","-2.8","","92","","20","","16","","19.3","","97.76","","","","-7","","Mainly Clear"
"1953-11-26 04:00","1953","11","26","04:00","-1.7","","-2.8","","92","","23","","16","","16.1","","97.80","","","","-7","","Mainly Clear"
"1953-11-26 05:00","1953","11","26","05:00","-1.7","","-2.8","","92","","18","","13","","12.9","","97.85","","","","-6","","Mainly Clear"
"1953-11-26 06:00","1953","11","26","06:00","-2.2","","-3.3","","92","","18","","13","","12.9","","97.91","","","","-7","","Mainly Clear"
"1953-11-26 07:00","1953","11","26","07:00","-1.1","","-2.2","","92","","20","","13","","11.3","","97.94","","","","-5","","Mostly Cloudy"
"1953-11-26 08:00","1953","11","26","08:00","-1.1","","-2.8","","88","","18","","14","","12.9","","98.01","","","","-6","","Mostly Cloudy"
"1953-11-26 09:00","1953","11","26","09:00","0.0","","-2.2","","85","","20","","23","","12.9","","98.05","","","","-6","","Cloudy"
"1953-11-26 10:00","1953","11","26","10:00","0.6","","-1.1","","85","","20","","24","","12.9","","98.11","","","","","","Mostly Cloudy"
"1953-11-26 11:00","1953","11","26","11:00","1.7","","-1.1","","82","","20","","31","","12.9","","98.14","","","","","","Cloudy"
"1953-11-26 12:00","1953","11","26","12:00","3.3","","0.0","","79","","20","","29","","24.1","","98.16","","","","","","Mostly Cloudy"
"1953-11-26 13:00","1953","11","26","13:00","4.4","","0.0","","73","","23","","35","","25.0","","98.17","","","","","","Mostly Cloudy"
"1953-11-26 14:00","1953","11","26","14:00","4.4","","-0.6","","70","","25","","32","","25.0","","98.27","","","","","","Mostly Cloudy"
"1953-11-26 15:00","1953","11","26","15:00","4.4","","-0.6","","70","","25","","37","","25.0","","98.38","","","","","","Mostly Cloudy"
"1953-11-26 16:00","1953","11","26","16:00","3.3","","-0.6","","76","","25","","35","","25.0","","98.46","","","","","","Mostly Cloudy"
"1953-11-26 17:00","1953","11","26","17:00","2.8","","-0.6","","79","","23","","32","","25.0","","98.60","","","","","","Mostly Cloudy"
"1953-11-26 18:00","1953","11","26","18:00","1.7","","-0.6","","85","","23","","32","","24.1","","98.69","","","","","","Mostly Cloudy"
"1953-11-26 19:00","1953","11","26","19:00","1.7","","-1.7","","78","","25","","32","","24.1","","98.76","","","","","","Mostly Cloudy"
"1953-11-26 20:00","1953","11","26","20:00","1.7","","-1.7","","78","","25","","32","","24.1","","98.85","","","","","","Cloudy"
"1953-11-26 21:00","1953","11","26","21:00","1.1","","-1.7","","82","","23","","14","","24.1","","98.90","","","","","","Cloudy"
"1953-11-26 22:00","1953","11","26","22:00","1.1","","-2.2","","78","","23","","18","","24.1","","98.96","","","","","","Mostly Cloudy"
"1953-11-26 23:00","1953","11","26","23:00","0.6","","-1.7","","85","","23","","16","","24.1","","99.01","","","","","","Mostly Cloudy"
"1953-11-27 00:00","1953","11","27","00:00","-0.6","","-1.7","","92","","20","","13","","24.1","","99.08","","","","-5","","Mostly Cloudy"
"1953-11-27 01:00","1953","11","27","01:00","-0.6","","-1.7","","92","","18","","13","","24.1","","99.10","","","","-5","","Mainly Clear"
"1953-11-27 02:00","1953","11","27","02:00","-0.6","","-2.2","","88","","18","","14","","12.9","","99.14","","","","-5","","Cloudy"
"1953-11-27 03:00","1953","11","27","03:00","0.0","","-1.1","","92","","18","","13","","12.9","","99.17","","","","-4","","Cloudy"
"1953-11-27 04:00","1953","11","27","04:00","0.0","","-1.1","","92","","18","","10","","12.9","","99.17","","","","-3","","Snow Showers"
"1953-11-27 05:00","1953","11","27","05:00","-0.6","","-1.1","","96","","18","","11","","9.7","","99.18","","","","-4","","Snow Showers"
"1953-11-27 06:00","1953","11","27","06:00","-0.6","","-1.7","","92","","18","","8","","11.3","","99.18","","","","-3","","Snow Showers"
"1953-11-27 07:00","1953","11","27","07:00","0.0","","-2.2","","85","","18","","6","","12.9","","99.20","","","","-2","","Cloudy"
"1953-11-27 08:00","1953","11","27","08:00","0.0","","-2.2","","85","","18","","19","","12.9","","99.24","","","","-5","","Cloudy"
"1953-11-27 09:00","1953","11","27","09:00","0.0","","-2.2","","85","","25","","5","","9.7","","99.27","","","","-2","","Snow"
"1953-11-27 10:00","1953","11","27","10:00","0.6","","-1.1","","88","","25","","5","","9.7","","99.28","","","","","","Snow"
"1953-11-27 11:00","1953","11","27","11:00","1.7","","-2.8","","69","","27","","5","","16.1","","99.27","","","","","","Mostly Cloudy"
"1953-11-27 12:00","1953","11","27","12:00","1.7","","-2.8","","72","","25","","6","","12.9","","99.24","","","","","","Snow"
"1953-11-27 13:00","1953","11","27","13:00","2.2","","-3.3","","67","","16","","6","","9.7","","99.22","","","","","","Snow"
"1953-11-27 14:00","1953","11","27","14:00","2.2","","-1.7","","78","","18","","6","","16.1","","99.21","","","","","","Cloudy"
"1953-11-27 15:00","1953","11","27","15:00","2.2","","-1.7","","75","","20","","6","","16.1","","99.26","","","","","","Cloudy"
"1953-11-27 16:00","1953","11","27","16:00","1.1","","0.0","","96","","18","","8","","2.4","","99.29","","","","","","Snow Showers"
"1953-11-27 17:00","1953","11","27","17:00","1.1","","0.0","","92","","20","","6","","1.6","","99.32","","","","","","Snow Showers,Fog"
"1953-11-27 18:00","1953","11","27","18:00","0.0","","-0.6","","96","","20","","5","","4.8","","99.38","","","","-2","","Fog"
"1953-11-27 19:00","1953","11","27","19:00","0.0","","-0.6","","96","","25","","6","","4.8","","99.42","","","","-2","","Fog"
"1953-11-27 20:00","1953","11","27","20:00","-0.6","","-1.1","","96","","27","","8","","6.4","","99.45","","","","-3","","Fog"
"1953-11-27 21:00","1953","11","27","21:00","-0.6","","-0.6","","100","","27","","10","","6.4","","99.48","","","","-4","","Fog"
"1953-11-27 22:00","1953","11","27","22:00","-0.6","","-0.6","","100","","","","0","","8.0","","99.52","","","","","","Fog"
"1953-11-27 23:00","1953","11","27","23:00","-0.6","","-1.1","","96","","","","0","","12.9","","99.53","","","","","","Mainly Clear"
"1953-11-28 00:00","1953","11","28","00:00","-1.1","","-1.7","","96","","","","0","","12.9","","99.63","","","","","","Mostly Cloudy"
"1953-11-28 01:00","1953","11","28","01:00","-0.6","","-0.6","","100","","32","","2","","12.9","","99.65","","","","-1","","Mostly Cloudy"
"1953-11-28 02:00","1953","11","28","02:00","-1.1","","-1.7","","96","","32","","6","","14.5","","99.72","","","","-3","","Mostly Cloudy"
"1953-11-28 03:00","1953","11","28","03:00","-2.8","","-3.3","","96","","29","","10","","16.1","","99.76","","","","-7","","Mainly Clear"
"1953-11-28 04:00","1953","11","28","04:00","-3.3","","-4.4","","92","","32","","8","","24.1","","99.81","","","","-7","","Mainly Clear"
"1953-11-28 05:00","1953","11","28","05:00","-3.3","","-4.4","","92","","32","","8","","24.1","","99.87","","","","-7","","Clear"
"1953-11-28 06:00","1953","11","28","06:00","-3.3","","-3.9","","96","","34","","11","","25.0","","99.94","","","","-8","","Clear"
"1953-11-28 07:00","1953","11","28","07:00","-3.3","","-3.3","","100","","36","","13","","25.0","","100.04","","","","-8","","Mainly Clear"
"1953-11-28 08:00","1953","11","28","08:00","-1.7","","-2.2","","96","","36","","19","","25.0","","100.16","","","","-7","","Mostly Cloudy"
"1953-11-28 09:00","1953","11","28","09:00","-0.6","","-2.2","","88","","36","","11","","25.0","","100.20","","","","-4","","Mostly Cloudy"
"1953-11-28 10:00","1953","11","28","10:00","0.6","","-1.1","","88","","34","","13","","25.0","","100.25","","","","","","Mainly Clear"
"1953-11-28 11:00","1953","11","28","11:00","1.7","","-2.8","","72","","34","","11","","25.0","","100.26","","","","","","Mainly Clear"
"1953-11-28 12:00","1953","11","28","12:00","2.8","","-3.9","","61","","36","","16","","25.0","","100.26","","","","","","Mainly Clear"
"1953-11-28 13:00","1953","11","28","13:00","3.3","","-1.7","","70","","34","","13","","25.0","","100.26","","","","","","Mostly Cloudy"
"1953-11-28 14:00","1953","11","28","14:00","4.4","","-3.9","","55","","29","","24","","25.0","","100.25","","","","","","Mostly Cloudy"
"1953-11-28 15:00","1953","11","28","15:00","3.9","","-4.4","","54","","29","","23","","25.0","","100.33","","","","","","Mostly Cloudy"
"1953-11-28 16:00","1953","11","28","16:00","2.2","","-4.4","","61","","29","","23","","25.0","","100.43","","","","","","Mostly Cloudy"
"1953-11-28 17:00","1953","11","28","17:00","1.7","","-3.9","","67","","27","","14","","25.0","","100.49","","","","","","Mostly Cloudy"
"1953-11-28 18:00","1953","11","28","18:00","1.1","","-1.7","","82","","27","","16","","25.0","","100.52","","","","","","Mostly Cloudy"
"1953-11-28 19:00","1953","11","28","19:00","1.1","","-1.7","","82","","27","","16","","25.0","","100.53","","","","","","Mostly Cloudy"
"1953-11-28 20:00","1953","11","28","20:00","1.7","","-5.0","","61","","27","","34","","25.0","","100.55","","","","","","Mostly Cloudy"
"1953-11-28 21:00","1953","11","28","21:00","1.1","","-4.4","","66","","32","","21","","25.0","","100.58","","","","","","Mostly Cloudy"
"1953-11-28 22:00","1953","11","28","22:00","1.1","","-4.4","","66","","27","","13","","25.0","","100.59","","","","","","Mostly Cloudy"
"1953-11-28 23:00","1953","11","28","23:00","1.1","","-2.8","","75","","27","","10","","25.0","","100.61","","","","","","Cloudy"
"1953-11-29 00:00","1953","11","29","00:00","0.6","","-2.8","","78","","27","","16","","25.0","","100.65","","","","","","Cloudy"
"1953-11-29 01:00","1953","11","29","01:00","0.0","","-2.2","","85","","25","","16","","25.0","","100.62","","","","-5","","Cloudy"
"1953-11-29 02:00","1953","11","29","02:00","0.0","","-6.7","","61","","32","","16","","25.0","","100.64","","","","-5","","Cloudy"
"1953-11-29 03:00","1953","11","29","03:00","0.0","","-5.0","","69","","27","","10","","25.0","","100.67","","","","-3","","Cloudy"
"1953-11-29 04:00","1953","11","29","04:00","-0.6","","-2.8","","85","","27","","8","","25.0","","100.67","","","","-3","","Cloudy"
"1953-11-29 05:00","1953","11","29","05:00","-0.6","","-3.3","","81","","23","","6","","25.0","","100.67","","","","-3","","Cloudy"
"1953-11-29 06:00","1953","11","29","06:00","-0.6","","-3.3","","81","","20","","10","","25.0","","100.68","","","","-4","","Cloudy"
"1953-11-29 07:00","1953","11","29","07:00","0.0","","-3.9","","75","","18","","13","","25.0","","100.69","","","","-4","","Cloudy"
"1953-11-29 08:00","1953","11","29","08:00","0.0","","-3.9","","75","","18","","6","","25.0","","100.71","","","","-2","","Cloudy"
"1953-11-29 09:00","1953","11","29","09:00","0.6","","-3.9","","72","","20","","6","","25.0","","100.73","","","","","","Mostly Cloudy"
"1953-11-29 10:00","1953","11","29","10:00","2.2","","-4.4","","61","","20","","6","","25.0","","100.69","","","","","","Mostly Cloudy"
"1953-11-29 11:00","1953","11","29","11:00","2.8","","-4.4","","59","","20","","11","","25.0","","100.64","","","","","","Mostly Cloudy"
"1953-11-29 12:00","1953","11","29","12:00","2.8","","-5.0","","57","","16","","13","","25.0","","100.58","","","","","","Cloudy"
"1953-11-29 13:00","1953","11","29","13:00","2.2","","-3.9","","64","","20","","11","","25.0","","100.51","","","","","","Snow Showers"
"1953-11-29 14:00","1953","11","29","14:00","1.7","","-2.8","","72","","20","","14","","24.1","","100.47","","","","","","Snow Showers"
"1953-11-29 15:00","1953","11","29","15:00","1.1","","-2.8","","75","","16","","13","","24.1","","100.45","","","","","","Cloudy"
"1953-11-29 16:00","1953","11","29","16:00","1.1","","-1.7","","82","","14","","8","","25.0","","100.42","","","","","","Cloudy"
"1953-11-29 17:00","1953","11","29","17:00","1.1","","-1.7","","82","","11","","6","","24.1","","100.40","","","","","","Cloudy"
"1953-11-29 18:00","1953","11","29","18:00","1.1","","-1.7","","82","","14","","8","","24.1","","100.37","","","","","","Cloudy"
"1953-11-29 19:00","1953","11","29","19:00","1.1","","-1.7","","82","","14","","6","","25.0","","100.35","","","","","","Snow Showers"
"1953-11-29 20:00","1953","11","29","20:00","1.7","","-2.2","","75","","11","","6","","24.1","","100.32","","","","","","Snow Showers"
"1953-11-29 21:00","1953","11","29","21:00","2.2","","-1.7","","75","","11","","8","","24.1","","100.27","","","","","","Cloudy"
"1953-11-29 22:00","1953","11","29","22:00","2.2","","-2.2","","72","","14","","13","","24.1","","100.24","","","","","","Snow"
"1953-11-29 23:00","1953","11","29","23:00","2.2","","-2.2","","72","","14","","16","","24.1","","100.19","","","","","","Cloudy"
"1953-11-30 00:00","1953","11","30","00:00","2.2","","1.1","","92","","14","","10","","24.1","","100.15","","","","","","Snow"
"1953-11-30 01:00","1953","11","30","01:00","2.2","","-3.9","","64","","14","","8","","24.1","","100.06","","","","","","Cloudy"
"1953-11-30 02:00","1953","11","30","02:00","2.2","","-3.3","","67","","14","","10","","24.1","","100.00","","","","","","Cloudy"
"1953-11-30 03:00","1953","11","30","03:00","2.2","","-2.8","","69","","14","","8","","24.1","","99.94","","","","","","Cloudy"
"1953-11-30 04:00","1953","11","30","04:00","2.2","","-2.2","","72","","11","","8","","16.1","","99.89","","","","","","Cloudy"
"1953-11-30 05:00","1953","11","30","05:00","2.2","","-2.2","","72","","14","","6","","11.3","","99.85","","","","","","Snow"
"1953-11-30 06:00","1953","11","30","06:00","1.1","","0.6","","96","","14","","16","","6.4","","99.83","","","","","","Rain,Snow"
"1953-11-30 07:00","1953","11","30","07:00","1.1","","-1.1","","85","","14","","6","","1.6","","99.83","","","","","","Rain,Snow,Fog"
"1953-11-30 08:00","1953","11","30","08:00","1.1","","0.0","","92","","9","","10","","2.4","","99.81","","","","","","Rain,Snow,Fog"
"1953-11-30 09:00","1953","11","30","09:00","1.7","","0.0","","89","","11","","18","","2.0","","99.78","","","","","","Snow,Fog"
"1953-11-30 10:00","1953","11","30","10:00","1.1","","0.0","","92","","11","","11","","1.6","","99.74","","","","","","Snow,Fog"
"1953-11-30 11:00","1953","11","30","11:00","1.7","","0.6","","92","","11","","10","","2.0","","99.70","","","","","","Rain,Fog"
"1953-11-30 12:00","1953","11","30","12:00","2.2","","1.1","","92","","14","","14","","4.8","","99.61","","","","","","Rain,Fog"
"1953-11-30 13:00","1953","11","30","13:00","2.8","","1.1","","89","","11","","11","","6.4","","99.57","","","","","","Rain,Fog"
"1953-11-30 14:00","1953","11","30","14:00","2.8","","0.6","","85","","9","","11","","6.4","","99.54","","","","","","Rain,Fog"
"1953-11-30 15:00","1953","11","30","15:00","2.8","","1.1","","89","","7","","11","","6.4","","99.57","","","","","","Rain,Fog"
"1953-11-30 16:00","1953","11","30","16:00","2.8","","1.1","","89","","7","","11","","6.4","","99.58","","","","","","Fog"
"1953-11-30 17:00","1953","11","30","17:00","2.8","","2.2","","96","","5","","10","","8.0","","99.65","","","","","","Fog"
"1953-11-30 18:00","1953","11","30","18:00","2.2","","1.1","","92","","2","","13","","8.0","","99.67","","","","","","Fog"
"1953-11-30 19:00","1953","11","30","19:00","1.7","","1.1","","96","","2","","8","","6.4","","99.69","","","","","","Rain,Snow,Fog"
"1953-11-30 20:00","1953","11","30","20:00","1.7","","1.1","","96","","36","","8","","6.4","","99.73","","","","","","Fog"
"1953-11-30 21:00","1953","11","30","21:00","1.7","","0.6","","96","","34","","8","","8.0","","99.74","","","","","","Fog"
"1953-11-30 22:00","1953","11","30","22:00","0.6","","-0.6","","92","","29","","8","","9.7","","99.75","","","","","","Fog"
"1953-11-30 23:00","1953","11","30","23:00","0.6","","-0.6","","92","","29","","10","","9.7","","99.80","","","","","","Fog"
