"Station Name","TORONTO LESTER B. PEARSON INT'L A"
"Province","ONTARIO"
"Latitude","43.68"
"Longitude","-79.63"
"Elevation","173.40"
"Climate Identifier","6158733"
"WMO Identifier","71624"
"TC Identifier","YYZ"
"All times are specified in Local Standard Time (LST). Add 1 hour to adjust for Daylight Saving Time where and when it is observed."

"Legend"
"E","Estimated"
"M","Missing"
"NA","Not Available"

"Date/Time","Year","Month","Day","Time","Temp (°C)","Temp Flag","Dew Point Temp (°C)","Dew Point Temp Flag","Rel Hum (%)","Rel Hum Flag","Wind Dir (10s deg)","Wind Dir Flag","Wind Spd (km/h)","Wind Spd Flag","Visibility (km)","Visibility Flag","Stn Press (kPa)","Stn Press Flag","Hmdx","Hmdx Flag","Wind Chill","Wind Chill Flag","Weather"
"1971-01-01 00:00","1971","01","01","00:00","-10.6","","-14.4","","73","","35","","18","","25.0","","99.30","","","","-18","","Mostly Cloudy"
"1971-01-01 01:00","1971","01","01","01:00","-12.2","","-16.1","","73","","36","","13","","25.0","","99.25","","","","-19","","Mainly Clear"
"1971-01-01 02:00","1971","01","01","02:00","-12.2","","-16.1","","71","","35","","19","","25.0","","99.24","","","","-20","","Mostly Cloudy"
"1971-01-01 03:00","1971","01","01","03:00","-12.8","","-17.2","","72","","36","","11","","25.0","","99.26","","","","-19","","Mainly Clear"
"1971-01-01 04:00","1971","01","01","04:00","-13.3","","-16.7","","75","","35","","18","","25.0","","99.25","","","","-22","","Mainly Clear"
"1971-01-01 05:00","1971","01","01","05:00","-13.9","","-17.2","","76","","35","","19","","25.0","","99.19","","","","-23","","Mainly Clear"
"1971-01-01 06:00","1971","01","01","06:00","-13.3","","-16.1","","79","","35","","18","","25.0","","99.19","","","","-22","","Mainly Clear"
"1971-01-01 07:00","1971","01","01","07:00","-13.9","","-17.2","","76","","35","","16","","25.0","","99.24","","","","-22","","Mainly Clear"
"1971-01-01 08:00","1971","01","01","08:00","-13.9","","-17.8","","74","","35","","14","","32.2","","99.33","","","","-21","","Mainly Clear"
"1971-01-01 09:00","1971","01","01","09:00","-14.4","","-18.9","","71","","33","","19","","40.2","","99.34","","","","-23","","Mainly Clear"
"1971-01-01 10:00","1971","01","01","10:00","-12.2","","-17.2","","68","","35","","19","","40.2","","99.34","","","","-20","","Mainly Clear"
"1971-01-01 11:00","1971","01","01","11:00","-11.1","","-15.0","","71","","35","","14","","40.2","","99.32","","","","-18","","Mainly Clear"
"1971-01-01 12:00","1971","01","01","12:00","-9.4","","-15.0","","65","","33","","16","","40.2","","99.25","","","","-16","","Mainly Clear"
"1971-01-01 13:00","1971","01","01","13:00","-8.3","","-13.9","","66","","33","","13","","40.2","","99.18","","","","-14","","Mainly Clear"
"1971-01-01 14:00","1971","01","01","14:00","-7.8","","-13.9","","62","","35","","10","","40.2","","99.17","","","","-13","","Mainly Clear"
"1971-01-01 15:00","1971","01","01","15:00","-7.2","","-14.4","","57","","35","","6","","40.2","","99.21","","","","-10","","Mainly Clear"
"1971-01-01 16:00","1971","01","01","16:00","-8.9","","-15.0","","60","","31","","6","","40.2","","99.22","","","","-12","","Mainly Clear"
"1971-01-01 17:00","1971","01","01","17:00","-10.6","","-16.1","","61","","32","","6","","40.2","","99.23","","","","-14","","Mainly Clear"
"1971-01-01 18:00","1971","01","01","18:00","-11.7","","-16.7","","67","","32","","5","","25.0","","99.22","","","","-15","","Mainly Clear"
"1971-01-01 19:00","1971","01","01","19:00","-14.4","","-18.3","","71","","32","","6","","25.0","","99.25","","","","-19","","Mainly Clear"
"1971-01-01 20:00","1971","01","01","20:00","-12.2","","-16.7","","71","","26","","5","","25.0","","99.29","","","","-15","","Mainly Clear"
"1971-01-01 21:00","1971","01","01","21:00","-15.6","","-18.3","","77","","30","","2","","25.0","","99.28","","","","-17","","Mainly Clear"
"1971-01-01 22:00","1971","01","01","22:00","-14.4","","-17.8","","77","","25","","14","","24.1","","99.34","","","","-22","","Mainly Clear"
"1971-01-01 23:00","1971","01","01","23:00","-11.7","","-12.8","","91","","27","","8","","4.8","","99.30","","","","-16","","Fog"
"1971-01-02 00:00","1971","01","02","00:00","-11.1","","-11.7","","95","","4","","6","","6.4","","99.26","","","","-15","","Fog"
"1971-01-02 01:00","1971","01","02","01:00","-12.2","","-13.9","","89","","3","","8","","8.0","","99.19","","","","-17","","Fog"
"1971-01-02 02:00","1971","01","02","02:00","-12.8","","-14.4","","87","","","","0","","9.7","","99.18","","","","","","Fog"
"1971-01-02 03:00","1971","01","02","03:00","-15.0","","-16.7","","86","","","","0","","11.3","","99.19","","","","","","Mostly Cloudy"
"1971-01-02 04:00","1971","01","02","04:00","-13.9","","-16.1","","85","","31","","6","","8.0","","99.14","","","","-18","","Fog"
"1971-01-02 05:00","1971","01","02","05:00","-11.1","","-12.8","","90","","34","","3","","4.0","","99.08","","","","-13","","Snow"
"1971-01-02 06:00","1971","01","02","06:00","-10.0","","-11.1","","89","","","","0","","8.0","","99.05","","","","","","Fog"
"1971-01-02 07:00","1971","01","02","07:00","-8.9","","-10.0","","89","","","","0","","4.8","","99.04","","","","","","Snow,Snow Grains"
"1971-01-02 08:00","1971","01","02","08:00","-7.8","","-8.9","","91","","","","0","","4.0","","99.02","","","","","","Snow"
"1971-01-02 09:00","1971","01","02","09:00","-6.1","","-7.2","","93","","20","","6","","4.0","","99.06","","","","-9","","Snow"
"1971-01-02 10:00","1971","01","02","10:00","-0.6","","-1.7","","94","","20","","16","","4.0","","99.08","","","","-5","","Fog"
"1971-01-02 11:00","1971","01","02","11:00","0.6","","-1.1","","89","","21","","19","","6.4","","99.09","","","","","","Fog"
"1971-01-02 12:00","1971","01","02","12:00","1.1","","-1.7","","81","","23","","23","","8.0","","99.07","","","","","","Haze"
"1971-01-02 13:00","1971","01","02","13:00","1.7","","-1.7","","78","","25","","29","","11.3","","99.04","","","","","","Mostly Cloudy"
"1971-01-02 14:00","1971","01","02","14:00","2.2","","-1.7","","76","","27","","21","","16.1","","99.08","","","","","","Mostly Cloudy"
"1971-01-02 15:00","1971","01","02","15:00","2.8","","-2.8","","69","","28","","26","","19.3","","99.16","","","","","","Mostly Cloudy"
"1971-01-02 16:00","1971","01","02","16:00","2.2","","-3.3","","68","","27","","21","","24.1","","99.28","","","","","","Mainly Clear"
"1971-01-02 17:00","1971","01","02","17:00","1.1","","-3.3","","71","","25","","18","","32.2","","99.39","","","","","","Mostly Cloudy"
"1971-01-02 18:00","1971","01","02","18:00","0.6","","-4.4","","69","","27","","26","","25.0","","99.48","","","","","","Mostly Cloudy"
"1971-01-02 19:00","1971","01","02","19:00","0.6","","-3.9","","71","","25","","19","","25.0","","99.57","","","","","","Mostly Cloudy"
"1971-01-02 20:00","1971","01","02","20:00","0.0","","-4.4","","70","","27","","13","","25.0","","99.66","","","","-4","","Mainly Clear"
"1971-01-02 21:00","1971","01","02","21:00","-1.1","","-6.1","","68","","26","","21","","25.0","","99.69","","","","-7","","Mostly Cloudy"
"1971-01-02 22:00","1971","01","02","22:00","0.0","","-4.4","","72","","27","","19","","25.0","","99.73","","","","-5","","Cloudy"
"1971-01-02 23:00","1971","01","02","23:00","-0.6","","-4.4","","78","","24","","11","","25.0","","99.81","","","","-4","","Cloudy"
"1971-01-03 00:00","1971","01","03","00:00","-1.1","","-2.8","","87","","29","","8","","24.1","","99.87","","","","-4","","Cloudy"
"1971-01-03 01:00","1971","01","03","01:00","-0.6","","-5.0","","74","","30","","24","","24.1","","99.95","","","","-7","","Cloudy"
"1971-01-03 02:00","1971","01","03","02:00","-1.1","","-4.4","","77","","30","","14","","25.0","","100.07","","","","-6","","Cloudy"
"1971-01-03 03:00","1971","01","03","03:00","-1.1","","-3.9","","82","","27","","14","","25.0","","100.19","","","","-6","","Cloudy"
"1971-01-03 04:00","1971","01","03","04:00","-1.1","","-4.4","","79","","26","","14","","25.0","","100.17","","","","-6","","Cloudy"
"1971-01-03 05:00","1971","01","03","05:00","-1.7","","-4.4","","81","","25","","14","","25.0","","100.16","","","","-6","","Cloudy"
"1971-01-03 06:00","1971","01","03","06:00","-1.7","","-4.4","","79","","25","","13","","25.0","","100.17","","","","-6","","Cloudy"
"1971-01-03 07:00","1971","01","03","07:00","-1.7","","-4.4","","79","","25","","11","","25.0","","100.28","","","","-6","","Cloudy"
"1971-01-03 08:00","1971","01","03","08:00","-1.7","","-4.4","","81","","25","","8","","24.1","","100.38","","","","-5","","Cloudy"
"1971-01-03 09:00","1971","01","03","09:00","-1.1","","-4.4","","78","","23","","6","","32.2","","100.38","","","","-3","","Mostly Cloudy"
"1971-01-03 10:00","1971","01","03","10:00","-1.1","","-3.9","","81","","23","","10","","32.2","","100.45","","","","-5","","Cloudy"
"1971-01-03 11:00","1971","01","03","11:00","-0.6","","-3.9","","78","","25","","8","","24.1","","100.46","","","","-3","","Mostly Cloudy"
"1971-01-03 12:00","1971","01","03","12:00","0.6","","-3.3","","76","","22","","5","","32.2","","100.39","","","","","","Cloudy"
"1971-01-03 13:00","1971","01","03","13:00","0.6","","-1.7","","83","","20","","3","","32.2","","100.30","","","","","","Cloudy"
"1971-01-03 14:00","1971","01","03","14:00","1.1","","-2.8","","74","","8","","3","","32.2","","100.26","","","","","","Mostly Cloudy"
"1971-01-03 15:00","1971","01","03","15:00","0.6","","-3.9","","71","","10","","10","","32.2","","100.25","","","","","","Mostly Cloudy"
"1971-01-03 16:00","1971","01","03","16:00","0.6","","-4.4","","70","","12","","11","","32.2","","100.24","","","","","","Mostly Cloudy"
"1971-01-03 17:00","1971","01","03","17:00","-0.6","","-4.4","","74","","9","","16","","32.2","","100.18","","","","-5","","Mostly Cloudy"
"1971-01-03 18:00","1971","01","03","18:00","0.0","","-3.9","","76","","10","","14","","25.0","","100.23","","","","-4","","Cloudy"
"1971-01-03 19:00","1971","01","03","19:00","0.6","","-3.9","","73","","11","","13","","25.0","","100.30","","","","","","Cloudy"
"1971-01-03 20:00","1971","01","03","20:00","0.6","","-2.8","","80","","11","","21","","25.0","","100.13","","","","","","Cloudy"
"1971-01-03 21:00","1971","01","03","21:00","0.6","","-2.8","","79","","12","","21","","25.0","","100.11","","","","","","Cloudy"
"1971-01-03 22:00","1971","01","03","22:00","0.6","","-2.8","","79","","10","","27","","25.0","","100.01","","","","","","Cloudy"
"1971-01-03 23:00","1971","01","03","23:00","0.6","","-2.8","","78","","10","","32","","25.0","","99.78","","","","","","Cloudy"
"1971-01-04 00:00","1971","01","04","00:00","0.6","","-2.2","","81","","9","","29","","25.0","","99.72","","","","","","Cloudy"
"1971-01-04 01:00","1971","01","04","01:00","0.6","","-2.2","","83","","10","","35","","25.0","","99.58","","","","","","Cloudy"
"1971-01-04 02:00","1971","01","04","02:00","0.6","","-1.7","","86","","12","","37","","4.0","","99.53","","","","","","Snow"
"1971-01-04 03:00","1971","01","04","03:00","-0.6","","-1.1","","96","","11","","42","","1.2","","99.45","","","","-8","","Snow"
"1971-01-04 04:00","1971","01","04","04:00","-0.6","","-1.1","","95","","11","","34","","2.0","","99.35","","","","-8","","Snow"
"1971-01-04 05:00","1971","01","04","05:00","-0.6","","-1.1","","96","","11","","35","","1.6","","99.17","","","","-8","","Snow"
"1971-01-04 06:00","1971","01","04","06:00","-0.6","","-1.1","","95","","11","","37","","2.4","","99.04","","","","-8","","Snow"
"1971-01-04 07:00","1971","01","04","07:00","0.0","","-0.6","","96","","11","","35","","2.4","","98.98","","","","-7","","Rain,Snow"
"1971-01-04 08:00","1971","01","04","08:00","0.6","","-0.6","","95","","10","","32","","3.2","","98.83","","","","","","Rain,Fog"
"1971-01-04 09:00","1971","01","04","09:00","0.6","","0.0","","96","","11","","32","","2.4","","98.83","","","","","","Rain,Drizzle,Fog"
"1971-01-04 10:00","1971","01","04","10:00","1.1","","0.0","","94","","11","","32","","2.4","","98.67","","","","","","Rain,Fog"
"1971-01-04 11:00","1971","01","04","11:00","1.1","","0.6","","96","","11","","32","","1.2","","98.46","","","","","","Rain,Fog"
"1971-01-04 12:00","1971","01","04","12:00","2.2","","1.7","","96","","12","","23","","1.2","","98.34","","","","","","Drizzle,Fog"
"1971-01-04 13:00","1971","01","04","13:00","2.2","","1.7","","97","","11","","21","","1.6","","98.16","","","","","","Rain,Drizzle,Fog"
"1971-01-04 14:00","1971","01","04","14:00","2.8","","2.2","","97","","12","","27","","2.4","","97.98","","","","","","Rain,Fog"
"1971-01-04 15:00","1971","01","04","15:00","2.8","","2.8","","98","","13","","21","","3.2","","97.95","","","","","","Rain,Fog"
"1971-01-04 16:00","1971","01","04","16:00","3.3","","3.3","","98","","13","","19","","1.6","","97.92","","","","","","Drizzle,Fog"
"1971-01-04 17:00","1971","01","04","17:00","3.3","","3.3","","99","","15","","18","","0.8","","97.87","","","","","","Fog"
"1971-01-04 18:00","1971","01","04","18:00","5.0","","5.0","","98","","18","","16","","1.2","","97.87","","","","","","Drizzle,Fog"
"1971-01-04 19:00","1971","01","04","19:00","4.4","","4.4","","98","","22","","18","","4.0","","97.89","","","","","","Rain,Fog"
"1971-01-04 20:00","1971","01","04","20:00","2.8","","1.1","","88","","22","","23","","11.3","","97.94","","","","","","Rain"
"1971-01-04 21:00","1971","01","04","21:00","2.2","","-1.1","","80","","23","","26","","24.1","","98.01","","","","","","Cloudy"
"1971-01-04 22:00","1971","01","04","22:00","1.1","","-2.8","","76","","23","","39","","25.0","","98.15","","","","","","Mainly Clear"
"1971-01-04 23:00","1971","01","04","23:00","0.6","","-3.9","","73","","26","","39","","25.0","","98.22","","","","","","Mostly Cloudy"
"1971-01-05 00:00","1971","01","05","00:00","0.0","","-3.9","","76","","24","","26","","25.0","","98.29","","","","-6","","Cloudy"
"1971-01-05 01:00","1971","01","05","01:00","0.0","","-3.3","","78","","25","","29","","25.0","","98.34","","","","-6","","Cloudy"
"1971-01-05 02:00","1971","01","05","02:00","-0.6","","-2.2","","88","","22","","26","","25.0","","98.39","","","","-7","","Cloudy"
"1971-01-05 03:00","1971","01","05","03:00","-0.6","","-4.4","","76","","23","","27","","25.0","","98.48","","","","-7","","Cloudy"
"1971-01-05 04:00","1971","01","05","04:00","-1.1","","-5.0","","77","","24","","32","","25.0","","98.55","","","","-8","","Cloudy"
"1971-01-05 05:00","1971","01","05","05:00","-1.7","","-4.4","","81","","23","","27","","24.1","","98.60","","","","-8","","Snow"
"1971-01-05 06:00","1971","01","05","06:00","-1.7","","-4.4","","81","","23","","27","","25.0","","98.70","","","","-8","","Cloudy"
"1971-01-05 07:00","1971","01","05","07:00","-1.7","","-5.0","","78","","24","","29","","25.0","","98.77","","","","-9","","Cloudy"
"1971-01-05 08:00","1971","01","05","08:00","-2.2","","-5.0","","81","","25","","31","","19.3","","98.85","","","","-9","","Cloudy"
"1971-01-05 09:00","1971","01","05","09:00","-2.2","","-5.6","","78","","24","","32","","9.7","","98.90","","","","-10","","Snow Showers"
"1971-01-05 10:00","1971","01","05","10:00","-2.8","","-5.6","","83","","23","","27","","3.2","","98.94","","","","-10","","Snow Showers"
"1971-01-05 11:00","1971","01","05","11:00","-2.8","","-6.1","","79","","24","","32","","19.3","","98.94","","","","-10","","Mostly Cloudy"
"1971-01-05 12:00","1971","01","05","12:00","-2.2","","-6.7","","74","","25","","42","","24.1","","98.94","","","","-11","","Mostly Cloudy"
"1971-01-05 13:00","1971","01","05","13:00","-2.8","","-7.2","","71","","26","","43","","24.1","","98.90","","","","-11","","Mostly Cloudy"
"1971-01-05 14:00","1971","01","05","14:00","-3.3","","-6.7","","76","","26","","39","","19.3","","98.92","","","","-12","","Snow Showers"
"1971-01-05 15:00","1971","01","05","15:00","-2.8","","-7.2","","72","","25","","45","","19.3","","99.03","","","","-12","","Snow Showers"
"1971-01-05 16:00","1971","01","05","16:00","-3.3","","-7.2","","75","","26","","40","","12.9","","99.14","","","","-12","","Snow Showers"
"1971-01-05 17:00","1971","01","05","17:00","-3.9","","-6.7","","80","","25","","31","","16.1","","99.29","","","","-12","","Snow Showers"
"1971-01-05 18:00","1971","01","05","18:00","-4.4","","-7.8","","79","","26","","19","","16.1","","99.44","","","","-11","","Snow Showers"
"1971-01-05 19:00","1971","01","05","19:00","-4.4","","-7.2","","80","","24","","16","","9.7","","99.55","","","","-10","","Snow Showers"
"1971-01-05 20:00","1971","01","05","20:00","-5.0","","-7.8","","81","","24","","23","","8.0","","99.59","","","","-12","","Snow Showers"
"1971-01-05 21:00","1971","01","05","21:00","-5.0","","-7.8","","81","","24","","19","","8.0","","99.67","","","","-11","","Snow"
"1971-01-05 22:00","1971","01","05","22:00","-5.6","","-8.3","","79","","24","","21","","16.1","","99.71","","","","-12","","Snow"
"1971-01-05 23:00","1971","01","05","23:00","-6.1","","-8.9","","79","","25","","23","","8.0","","99.73","","","","-13","","Snow"
"1971-01-06 00:00","1971","01","06","00:00","-7.2","","-10.6","","77","","25","","27","","16.1","","99.73","","","","-15","","Snow Showers"
"1971-01-06 01:00","1971","01","06","01:00","-7.8","","-11.1","","78","","26","","19","","16.1","","99.76","","","","-15","","Snow Showers"
"1971-01-06 02:00","1971","01","06","02:00","-8.9","","-12.2","","77","","25","","18","","19.3","","99.82","","","","-16","","Snow Showers"
"1971-01-06 03:00","1971","01","06","03:00","-9.4","","-12.2","","79","","23","","16","","19.3","","99.88","","","","-16","","Snow Showers"
"1971-01-06 04:00","1971","01","06","04:00","-9.4","","-12.2","","80","","23","","19","","16.1","","99.90","","","","-17","","Snow Showers"
"1971-01-06 05:00","1971","01","06","05:00","-9.4","","-12.2","","82","","24","","18","","19.3","","99.89","","","","-17","","Snow Showers"
"1971-01-06 06:00","1971","01","06","06:00","-10.0","","-12.2","","82","","23","","19","","19.3","","99.96","","","","-18","","Snow Showers"
"1971-01-06 07:00","1971","01","06","07:00","-10.0","","-12.2","","82","","23","","24","","24.1","","99.99","","","","-19","","Snow Showers"
"1971-01-06 08:00","1971","01","06","08:00","-9.4","","-12.2","","79","","23","","23","","24.1","","100.09","","","","-18","","Mainly Clear"
"1971-01-06 09:00","1971","01","06","09:00","-9.4","","-13.3","","75","","24","","26","","32.2","","100.15","","","","-18","","Mainly Clear"
"1971-01-06 10:00","1971","01","06","10:00","-8.9","","-12.2","","79","","23","","29","","12.9","","100.21","","","","-18","","Snow Showers"
"1971-01-06 11:00","1971","01","06","11:00","-8.3","","-11.7","","78","","24","","26","","24.1","","100.23","","","","-17","","Snow Showers"
"1971-01-06 12:00","1971","01","06","12:00","-7.8","","-10.6","","79","","25","","29","","12.9","","100.17","","","","-17","","Snow Showers"
"1971-01-06 13:00","1971","01","06","13:00","-7.8","","-11.1","","74","","25","","32","","32.2","","100.12","","","","-17","","Mainly Clear"
"1971-01-06 14:00","1971","01","06","14:00","-7.2","","-12.2","","69","","26","","29","","40.2","","100.16","","","","-16","","Mainly Clear"
"1971-01-06 15:00","1971","01","06","15:00","-7.8","","-12.8","","68","","27","","27","","40.2","","100.20","","","","-16","","Mainly Clear"
"1971-01-06 16:00","1971","01","06","16:00","-7.8","","-13.3","","66","","26","","27","","24.1","","100.24","","","","-16","","Mainly Clear"
"1971-01-06 17:00","1971","01","06","17:00","-8.9","","-13.9","","68","","26","","19","","40.2","","100.27","","","","-16","","Mainly Clear"
"1971-01-06 18:00","1971","01","06","18:00","-10.6","","-13.9","","75","","24","","14","","25.0","","100.23","","","","-17","","Mainly Clear"
"1971-01-06 19:00","1971","01","06","19:00","-11.1","","-15.0","","75","","23","","14","","25.0","","100.25","","","","-18","","Clear"
"1971-01-06 20:00","1971","01","06","20:00","-11.1","","-14.4","","77","","21","","11","","19.3","","100.27","","","","-17","","Snow"
"1971-01-06 21:00","1971","01","06","21:00","-10.0","","-12.2","","82","","20","","14","","9.7","","100.26","","","","-16","","Snow"
"1971-01-06 22:00","1971","01","06","22:00","-8.9","","-11.7","","81","","23","","19","","16.1","","100.26","","","","-16","","Snow"
"1971-01-06 23:00","1971","01","06","23:00","-9.4","","-13.3","","75","","23","","13","","16.1","","100.24","","","","-15","","Mostly Cloudy"
"1971-01-07 00:00","1971","01","07","00:00","-10.0","","-13.9","","73","","22","","18","","16.1","","100.23","","","","-17","","Cloudy"
"1971-01-07 01:00","1971","01","07","01:00","-10.0","","-12.2","","82","","21","","16","","12.9","","100.20","","","","-17","","Snow"
"1971-01-07 02:00","1971","01","07","02:00","-12.2","","-14.4","","84","","19","","10","","16.1","","100.17","","","","-18","","Snow"
"1971-01-07 03:00","1971","01","07","03:00","-13.3","","-15.6","","82","","18","","10","","24.1","","100.18","","","","-19","","Mainly Clear"
"1971-01-07 04:00","1971","01","07","04:00","-13.9","","-16.1","","83","","21","","11","","25.0","","100.13","","","","-20","","Mainly Clear"
"1971-01-07 05:00","1971","01","07","05:00","-13.9","","-16.1","","82","","22","","14","","24.1","","100.12","","","","-21","","Mainly Clear"
"1971-01-07 06:00","1971","01","07","06:00","-13.3","","-16.1","","78","","22","","16","","12.9","","100.13","","","","-21","","Snow Showers"
"1971-01-07 07:00","1971","01","07","07:00","-13.3","","-15.6","","81","","22","","16","","9.7","","100.15","","","","-21","","Snow Showers"
"1971-01-07 08:00","1971","01","07","08:00","-13.9","","-16.7","","80","","21","","14","","12.9","","100.17","","","","-21","","Mainly Clear"
"1971-01-07 09:00","1971","01","07","09:00","-13.3","","-16.7","","75","","23","","21","","12.9","","100.19","","","","-22","","Mainly Clear"
"1971-01-07 10:00","1971","01","07","10:00","-12.2","","-16.1","","73","","25","","19","","32.2","","100.23","","","","-20","","Clear"
"1971-01-07 11:00","1971","01","07","11:00","-11.1","","-15.0","","72","","25","","27","","32.2","","100.21","","","","-21","","Clear"
"1971-01-07 12:00","1971","01","07","12:00","-10.6","","-15.6","","66","","26","","34","","32.2","","100.10","","","","-21","","Clear"
"1971-01-07 13:00","1971","01","07","13:00","-10.0","","-15.6","","63","","26","","35","","32.2","","100.07","","","","-20","","Clear"
"1971-01-07 14:00","1971","01","07","14:00","-8.9","","-14.4","","65","","26","","37","","40.2","","100.10","","","","-19","","Mainly Clear"
"1971-01-07 15:00","1971","01","07","15:00","-8.3","","-13.3","","68","","26","","37","","40.2","","100.14","","","","-18","","Mainly Clear"
"1971-01-07 16:00","1971","01","07","16:00","-8.9","","-13.3","","69","","26","","34","","40.2","","100.16","","","","-19","","Mainly Clear"
"1971-01-07 17:00","1971","01","07","17:00","-8.9","","-13.3","","70","","26","","39","","40.2","","100.16","","","","-19","","Mainly Clear"
"1971-01-07 18:00","1971","01","07","18:00","-10.0","","-13.3","","74","","25","","31","","25.0","","100.23","","","","-20","","Mainly Clear"
"1971-01-07 19:00","1971","01","07","19:00","-10.6","","-13.9","","75","","25","","27","","25.0","","100.30","","","","-20","","Mainly Clear"
"1971-01-07 20:00","1971","01","07","20:00","-10.6","","-13.3","","80","","26","","26","","25.0","","100.39","","","","-20","","Mainly Clear"
"1971-01-07 21:00","1971","01","07","21:00","-9.4","","-12.2","","81","","26","","19","","12.9","","100.41","","","","-17","","Snow"
"1971-01-07 22:00","1971","01","07","22:00","-9.4","","-11.7","","84","","25","","14","","6.4","","100.44","","","","-16","","Snow"
"1971-01-07 23:00","1971","01","07","23:00","-8.9","","-11.1","","85","","24","","13","","9.7","","100.47","","","","-15","","Snow"
"1971-01-08 00:00","1971","01","08","00:00","-8.9","","-10.6","","87","","29","","6","","9.7","","100.46","","","","-12","","Snow"
"1971-01-08 01:00","1971","01","08","01:00","-10.6","","-12.8","","82","","35","","16","","9.7","","100.55","","","","-18","","Snow"
"1971-01-08 02:00","1971","01","08","02:00","-12.8","","-15.6","","78","","1","","13","","24.1","","100.65","","","","-20","","Mainly Clear"
"1971-01-08 03:00","1971","01","08","03:00","-13.3","","-16.1","","81","","36","","10","","25.0","","100.70","","","","-19","","Mostly Cloudy"
"1971-01-08 04:00","1971","01","08","04:00","-13.9","","-17.2","","78","","36","","13","","25.0","","100.67","","","","-21","","Mostly Cloudy"
"1971-01-08 05:00","1971","01","08","05:00","-14.4","","-18.9","","69","","35","","11","","25.0","","100.69","","","","-21","","Mostly Cloudy"
"1971-01-08 06:00","1971","01","08","06:00","-16.1","","-18.9","","77","","35","","6","","25.0","","100.69","","","","-21","","Mainly Clear"
"1971-01-08 07:00","1971","01","08","07:00","-17.2","","-21.1","","72","","33","","5","","25.0","","100.72","","","","-21","","Mainly Clear"
"1971-01-08 08:00","1971","01","08","08:00","-17.8","","-20.6","","79","","35","","3","","32.2","","100.71","","","","-20","","Mainly Clear"
"1971-01-08 09:00","1971","01","08","09:00","-17.2","","-21.1","","75","","34","","3","","40.2","","100.76","","","","-20","","Mostly Cloudy"
"1971-01-08 10:00","1971","01","08","10:00","-15.0","","-17.2","","80","","3","","6","","40.2","","100.73","","","","-19","","Mostly Cloudy"
"1971-01-08 11:00","1971","01","08","11:00","-14.4","","-17.8","","77","","32","","5","","40.2","","100.73","","","","-18","","Snow"
"1971-01-08 12:00","1971","01","08","12:00","-12.8","","-15.6","","80","","","","0","","32.2","","100.63","","","","","","Snow"
"1971-01-08 13:00","1971","01","08","13:00","-11.7","","-14.4","","81","","","","0","","16.1","","100.53","","","","","","Snow"
"1971-01-08 14:00","1971","01","08","14:00","-8.9","","-12.8","","73","","17","","3","","11.3","","100.51","","","","-11","","Snow"
"1971-01-08 15:00","1971","01","08","15:00","-7.8","","-11.1","","78","","19","","3","","8.0","","100.52","","","","-9","","Snow"
"1971-01-08 16:00","1971","01","08","16:00","-7.8","","-11.1","","77","","17","","5","","11.3","","100.46","","","","-10","","Snow"
"1971-01-08 17:00","1971","01","08","17:00","-7.8","","-12.2","","73","","13","","3","","11.3","","100.41","","","","-9","","Mainly Clear"
"1971-01-08 18:00","1971","01","08","18:00","-8.3","","-10.6","","85","","11","","3","","8.0","","100.37","","","","-10","","Haze"
"1971-01-08 19:00","1971","01","08","19:00","-8.3","","-9.4","","91","","","","0","","4.8","","100.34","","","","","","Snow"
"1971-01-08 20:00","1971","01","08","20:00","-11.7","","-13.3","","89","","24","","6","","12.9","","100.29","","","","-15","","Mainly Clear"
"1971-01-08 21:00","1971","01","08","21:00","-12.8","","-15.0","","85","","30","","8","","19.3","","100.24","","","","-18","","Mostly Cloudy"
"1971-01-08 22:00","1971","01","08","22:00","-11.7","","-13.3","","88","","32","","6","","16.1","","100.18","","","","-15","","Cloudy"
"1971-01-08 23:00","1971","01","08","23:00","-11.1","","-12.8","","86","","32","","11","","12.9","","100.15","","","","-17","","Cloudy"
"1971-01-09 00:00","1971","01","09","00:00","-11.7","","-14.4","","81","","1","","10","","12.9","","100.05","","","","-17","","Snow"
"1971-01-09 01:00","1971","01","09","01:00","-12.2","","-14.4","","85","","1","","10","","12.9","","100.02","","","","-18","","Mostly Cloudy"
"1971-01-09 02:00","1971","01","09","02:00","-11.1","","-13.3","","85","","2","","10","","8.0","","100.01","","","","-17","","Snow"
"1971-01-09 03:00","1971","01","09","03:00","-11.1","","-12.8","","86","","3","","6","","6.4","","99.99","","","","-15","","Snow"
"1971-01-09 04:00","1971","01","09","04:00","-11.7","","-13.3","","88","","1","","6","","9.7","","99.94","","","","-15","","Snow"
"1971-01-09 05:00","1971","01","09","05:00","-11.1","","-13.3","","85","","36","","6","","8.0","","99.87","","","","-15","","Snow Showers"
"1971-01-09 06:00","1971","01","09","06:00","-11.1","","-12.8","","90","","36","","13","","9.7","","99.81","","","","-18","","Snow Showers"
"1971-01-09 07:00","1971","01","09","07:00","-11.1","","-12.8","","88","","1","","14","","9.7","","99.81","","","","-18","","Snow Showers"
"1971-01-09 08:00","1971","01","09","08:00","-10.0","","-12.2","","84","","1","","14","","4.8","","99.83","","","","-16","","Snow Showers"
"1971-01-09 09:00","1971","01","09","09:00","-10.0","","-11.7","","88","","3","","13","","4.8","","99.83","","","","-16","","Snow"
"1971-01-09 10:00","1971","01","09","10:00","-8.9","","-10.0","","89","","5","","13","","4.8","","99.77","","","","-15","","Snow"
"1971-01-09 11:00","1971","01","09","11:00","-7.8","","-10.0","","85","","6","","13","","4.0","","99.74","","","","-14","","Snow"
"1971-01-09 12:00","1971","01","09","12:00","-7.2","","-9.4","","83","","8","","10","","16.1","","99.60","","","","-12","","Snow"
"1971-01-09 13:00","1971","01","09","13:00","-6.7","","-8.9","","85","","13","","23","","19.3","","99.45","","","","-14","","Mostly Cloudy"
"1971-01-09 14:00","1971","01","09","14:00","-5.6","","-10.0","","71","","11","","23","","32.2","","99.40","","","","-13","","Mainly Clear"
"1971-01-09 15:00","1971","01","09","15:00","-5.6","","-10.0","","71","","13","","21","","32.2","","99.36","","","","-12","","Cloudy"
"1971-01-09 16:00","1971","01","09","16:00","-5.6","","-10.6","","70","","15","","13","","32.2","","99.39","","","","-11","","Mostly Cloudy"
"1971-01-09 17:00","1971","01","09","17:00","-6.7","","-11.1","","70","","12","","11","","19.3","","99.38","","","","-12","","Mostly Cloudy"
"1971-01-09 18:00","1971","01","09","18:00","-6.7","","-10.6","","73","","12","","10","","19.3","","99.34","","","","-11","","Mainly Clear"
"1971-01-09 19:00","1971","01","09","19:00","-6.1","","-10.6","","71","","13","","10","","19.3","","99.22","","","","-11","","Mainly Clear"
"1971-01-09 20:00","1971","01","09","20:00","-6.7","","-11.1","","72","","14","","3","","19.3","","99.23","","","","-8","","Mainly Clear"
"1971-01-09 21:00","1971","01","09","21:00","-10.0","","-13.3","","77","","","","0","","19.3","","99.22","","","","","","Mainly Clear"
"1971-01-09 22:00","1971","01","09","22:00","-11.1","","-12.8","","88","","3","","6","","16.1","","99.15","","","","-15","","Mostly Cloudy"
"1971-01-09 23:00","1971","01","09","23:00","-8.3","","-10.6","","84","","1","","5","","16.1","","99.10","","","","-11","","Cloudy"
"1971-01-10 00:00","1971","01","10","00:00","-8.3","","-10.0","","89","","36","","10","","6.4","","99.09","","","","-13","","Snow"
"1971-01-10 01:00","1971","01","10","01:00","-7.8","","-8.9","","90","","2","","6","","4.0","","99.04","","","","-11","","Snow Showers"
"1971-01-10 02:00","1971","01","10","02:00","-7.8","","-8.9","","89","","","","0","","8.0","","99.00","","","","","","Snow Showers"
"1971-01-10 03:00","1971","01","10","03:00","-7.2","","-8.9","","89","","","","0","","9.7","","99.00","","","","","","Snow Showers"
"1971-01-10 04:00","1971","01","10","04:00","-6.7","","-7.8","","90","","","","0","","9.7","","98.92","","","","","","Snow Showers"
"1971-01-10 05:00","1971","01","10","05:00","-5.0","","-6.1","","93","","15","","3","","9.7","","98.86","","","","-6","","Snow Showers"
"1971-01-10 06:00","1971","01","10","06:00","-5.0","","-6.7","","88","","","","0","","9.7","","98.85","","","","","","Snow Showers"
"1971-01-10 07:00","1971","01","10","07:00","-3.9","","-6.1","","86","","19","","11","","9.7","","98.87","","","","-8","","Snow Showers"
"1971-01-10 08:00","1971","01","10","08:00","-2.8","","-3.9","","93","","22","","14","","4.8","","98.90","","","","-8","","Freezing Drizzle"
"1971-01-10 09:00","1971","01","10","09:00","-2.2","","-3.9","","88","","22","","18","","9.7","","98.95","","","","-8","","Snow Grains"
"1971-01-10 10:00","1971","01","10","10:00","-2.2","","-4.4","","85","","22","","19","","8.0","","98.98","","","","-8","","Snow"
"1971-01-10 11:00","1971","01","10","11:00","-2.2","","-3.9","","87","","23","","18","","4.8","","98.95","","","","-8","","Snow Grains"
"1971-01-10 12:00","1971","01","10","12:00","-1.7","","-3.9","","84","","22","","24","","9.7","","98.89","","","","-8","","Snow Grains,Haze"
"1971-01-10 13:00","1971","01","10","13:00","-1.7","","-3.9","","85","","23","","18","","9.7","","98.88","","","","-7","","Haze"
"1971-01-10 14:00","1971","01","10","14:00","-1.1","","-3.9","","82","","23","","21","","9.7","","98.90","","","","-7","","Haze"
"1971-01-10 15:00","1971","01","10","15:00","-1.1","","-3.9","","80","","23","","14","","9.7","","98.94","","","","-6","","Haze"
"1971-01-10 16:00","1971","01","10","16:00","-0.6","","-3.9","","79","","24","","16","","9.7","","98.98","","","","-5","","Haze"
"1971-01-10 17:00","1971","01","10","17:00","-1.1","","-3.3","","84","","24","","16","","9.7","","99.02","","","","-6","","Haze"
"1971-01-10 18:00","1971","01","10","18:00","-1.1","","-3.9","","83","","24","","11","","11.3","","99.07","","","","-5","","Cloudy"
"1971-01-10 19:00","1971","01","10","19:00","-1.1","","-3.9","","83","","24","","13","","11.3","","99.19","","","","-5","","Cloudy"
"1971-01-10 20:00","1971","01","10","20:00","-0.6","","-5.0","","71","","27","","24","","16.1","","99.21","","","","-7","","Mostly Cloudy"
"1971-01-10 21:00","1971","01","10","21:00","-1.1","","-4.4","","76","","28","","13","","16.1","","99.29","","","","-5","","Cloudy"
"1971-01-10 22:00","1971","01","10","22:00","-1.1","","-5.6","","71","","26","","14","","16.1","","99.34","","","","-6","","Cloudy"
"1971-01-10 23:00","1971","01","10","23:00","-1.1","","-6.1","","71","","26","","14","","25.0","","99.38","","","","-6","","Mostly Cloudy"
"1971-01-11 00:00","1971","01","11","00:00","-1.7","","-6.1","","71","","26","","11","","25.0","","99.41","","","","-6","","Cloudy"
"1971-01-11 01:00","1971","01","11","01:00","-1.7","","-5.6","","75","","28","","14","","25.0","","99.49","","","","-6","","Mostly Cloudy"
"1971-01-11 02:00","1971","01","11","02:00","-2.2","","-6.1","","73","","27","","11","","25.0","","99.55","","","","-6","","Cloudy"
"1971-01-11 03:00","1971","01","11","03:00","-2.8","","-6.7","","73","","28","","14","","25.0","","99.59","","","","-8","","Mostly Cloudy"
"1971-01-11 04:00","1971","01","11","04:00","-2.8","","-7.8","","69","","25","","11","","25.0","","99.58","","","","-7","","Mostly Cloudy"
"1971-01-11 05:00","1971","01","11","05:00","-3.9","","-7.8","","75","","21","","10","","25.0","","99.59","","","","-8","","Mostly Cloudy"
"1971-01-11 06:00","1971","01","11","06:00","-5.0","","-8.9","","76","","23","","5","","25.0","","99.59","","","","-7","","Mostly Cloudy"
"1971-01-11 07:00","1971","01","11","07:00","-6.1","","-8.9","","82","","24","","8","","25.0","","99.66","","","","-10","","Mostly Cloudy"
"1971-01-11 08:00","1971","01","11","08:00","-5.0","","-8.3","","77","","23","","6","","25.0","","99.67","","","","-8","","Mostly Cloudy"
"1971-01-11 09:00","1971","01","11","09:00","-4.4","","-7.8","","77","","25","","5","","19.3","","99.62","","","","-7","","Mostly Cloudy"
"1971-01-11 10:00","1971","01","11","10:00","-3.3","","-7.2","","75","","25","","11","","19.3","","99.70","","","","-8","","Cloudy"
"1971-01-11 11:00","1971","01","11","11:00","-2.2","","-6.7","","73","","25","","10","","16.1","","99.68","","","","-6","","Snow"
"1971-01-11 12:00","1971","01","11","12:00","-3.3","","-4.4","","90","","22","","5","","2.4","","99.56","","","","-5","","Snow"
"1971-01-11 13:00","1971","01","11","13:00","-2.8","","-3.9","","92","","18","","10","","4.8","","99.40","","","","-7","","Snow"
"1971-01-11 14:00","1971","01","11","14:00","-2.8","","-3.9","","92","","19","","8","","0.8","","99.35","","","","-6","","Moderate Snow"
"1971-01-11 15:00","1971","01","11","15:00","-2.8","","-3.3","","94","","17","","10","","2.0","","99.29","","","","-7","","Snow"
"1971-01-11 16:00","1971","01","11","16:00","-2.8","","-3.3","","95","","21","","6","","1.6","","99.28","","","","-5","","Snow"
"1971-01-11 17:00","1971","01","11","17:00","-2.8","","-3.3","","95","","20","","6","","2.0","","99.27","","","","-5","","Snow"
"1971-01-11 18:00","1971","01","11","18:00","-2.8","","-3.3","","96","","21","","5","","2.8","","99.24","","","","-5","","Snow"
"1971-01-11 19:00","1971","01","11","19:00","-2.8","","-3.3","","94","","25","","3","","4.0","","99.25","","","","-4","","Snow"
"1971-01-11 20:00","1971","01","11","20:00","-2.8","","-3.9","","93","","26","","14","","8.0","","99.28","","","","-8","","Snow"
"1971-01-11 21:00","1971","01","11","21:00","-2.2","","-4.4","","86","","28","","21","","12.9","","99.31","","","","-8","","Cloudy"
"1971-01-11 22:00","1971","01","11","22:00","-2.2","","-4.4","","86","","28","","24","","16.1","","99.37","","","","-9","","Mostly Cloudy"
"1971-01-11 23:00","1971","01","11","23:00","-2.8","","-5.0","","85","","35","","19","","12.9","","99.52","","","","-9","","Snow"
"1971-01-12 00:00","1971","01","12","00:00","-3.3","","-5.6","","85","","36","","18","","16.1","","99.61","","","","-9","","Snow"
"1971-01-12 01:00","1971","01","12","01:00","-4.4","","-6.7","","85","","34","","23","","12.9","","99.79","","","","-11","","Snow"
"1971-01-12 02:00","1971","01","12","02:00","-5.0","","-8.9","","74","","32","","24","","25.0","","99.86","","","","-12","","Mostly Cloudy"
"1971-01-12 03:00","1971","01","12","03:00","-7.8","","-12.2","","72","","30","","27","","25.0","","99.99","","","","-16","","Mainly Clear"
"1971-01-12 04:00","1971","01","12","04:00","-10.0","","-13.9","","74","","30","","24","","25.0","","100.11","","","","-19","","Clear"
"1971-01-12 05:00","1971","01","12","05:00","-11.7","","-15.6","","72","","32","","16","","25.0","","100.15","","","","-19","","Clear"
"1971-01-12 06:00","1971","01","12","06:00","-12.2","","-15.6","","76","","36","","24","","25.0","","100.38","","","","-21","","Mainly Clear"
"1971-01-12 07:00","1971","01","12","07:00","-15.0","","-18.9","","72","","36","","18","","25.0","","100.54","","","","-24","","Mainly Clear"
"1971-01-12 08:00","1971","01","12","08:00","-16.7","","-21.7","","66","","1","","14","","24.1","","100.70","","","","-25","","Mainly Clear"
"1971-01-12 09:00","1971","01","12","09:00","-17.2","","-21.1","","70","","36","","14","","32.2","","100.80","","","","-25","","Mainly Clear"
"1971-01-12 10:00","1971","01","12","10:00","-17.2","","-22.2","","65","","35","","16","","40.2","","100.89","","","","-26","","Mostly Cloudy"
"1971-01-12 11:00","1971","01","12","11:00","-16.7","","-22.2","","64","","32","","11","","40.2","","100.95","","","","-24","","Mostly Cloudy"
"1971-01-12 12:00","1971","01","12","12:00","-16.1","","-21.1","","65","","35","","8","","40.2","","100.86","","","","-22","","Mainly Clear"
"1971-01-12 13:00","1971","01","12","13:00","-15.6","","-20.0","","67","","36","","11","","40.2","","100.83","","","","-22","","Mainly Clear"
"1971-01-12 14:00","1971","01","12","14:00","-15.0","","-18.9","","70","","1","","10","","40.2","","100.85","","","","-21","","Mainly Clear"
"1971-01-12 15:00","1971","01","12","15:00","-13.9","","-18.3","","68","","2","","14","","40.2","","100.87","","","","-21","","Mainly Clear"
"1971-01-12 16:00","1971","01","12","16:00","-13.9","","-18.3","","70","","1","","18","","40.2","","100.92","","","","-22","","Mainly Clear"
"1971-01-12 17:00","1971","01","12","17:00","-15.0","","-19.4","","70","","36","","13","","40.2","","100.93","","","","-22","","Mainly Clear"
"1971-01-12 18:00","1971","01","12","18:00","-16.1","","-20.0","","72","","34","","10","","25.0","","100.99","","","","-23","","Mainly Clear"
"1971-01-12 19:00","1971","01","12","19:00","-17.2","","-20.6","","75","","35","","8","","25.0","","101.00","","","","-23","","Mainly Clear"
"1971-01-12 20:00","1971","01","12","20:00","-18.3","","-20.6","","84","","34","","6","","25.0","","101.00","","","","-23","","Mainly Clear"
"1971-01-12 21:00","1971","01","12","21:00","-19.4","","-20.6","","91","","34","","10","","25.0","","100.98","","","","-26","","Mainly Clear"
"1971-01-12 22:00","1971","01","12","22:00","-19.4","","-21.7","","83","","34","","6","","25.0","","101.01","","","","-24","","Mainly Clear"
"1971-01-12 23:00","1971","01","12","23:00","-18.3","","-20.0","","84","","35","","10","","25.0","","101.04","","","","-25","","Mainly Clear"
"1971-01-13 00:00","1971","01","13","00:00","-17.8","","-20.0","","84","","35","","13","","25.0","","101.04","","","","-26","","Mostly Cloudy"
"1971-01-13 01:00","1971","01","13","01:00","-18.9","","-21.1","","83","","1","","11","","25.0","","101.05","","","","-26","","Mostly Cloudy"
"1971-01-13 02:00","1971","01","13","02:00","-18.9","","-21.1","","83","","35","","13","","25.0","","101.07","","","","-27","","Mostly Cloudy"
"1971-01-13 03:00","1971","01","13","03:00","-18.9","","-20.0","","89","","36","","10","","25.0","","101.06","","","","-26","","Mostly Cloudy"
"1971-01-13 04:00","1971","01","13","04:00","-18.3","","-21.1","","78","","35","","10","","25.0","","101.05","","","","-25","","Mostly Cloudy"
"1971-01-13 05:00","1971","01","13","05:00","-18.9","","-21.1","","83","","31","","5","","25.0","","101.07","","","","-23","","Mostly Cloudy"
"1971-01-13 06:00","1971","01","13","06:00","-18.3","","-20.6","","81","","36","","6","","25.0","","101.05","","","","-23","","Mostly Cloudy"
"1971-01-13 07:00","1971","01","13","07:00","-16.1","","-21.7","","63","","5","","6","","25.0","","101.07","","","","-21","","Mostly Cloudy"
"1971-01-13 08:00","1971","01","13","08:00","-15.0","","-21.7","","58","","5","","18","","24.1","","101.10","","","","-24","","Mostly Cloudy"
"1971-01-13 09:00","1971","01","13","09:00","-14.4","","-20.6","","59","","5","","16","","32.2","","101.07","","","","-22","","Mostly Cloudy"
"1971-01-13 10:00","1971","01","13","10:00","-13.9","","-21.1","","56","","6","","19","","40.2","","100.98","","","","-23","","Mostly Cloudy"
"1971-01-13 11:00","1971","01","13","11:00","-13.3","","-18.3","","64","","5","","18","","40.2","","101.02","","","","-22","","Mostly Cloudy"
"1971-01-13 12:00","1971","01","13","12:00","-12.2","","-18.3","","61","","6","","21","","40.2","","100.85","","","","-21","","Mostly Cloudy"
"1971-01-13 13:00","1971","01","13","13:00","-12.2","","-17.8","","65","","6","","23","","40.2","","100.60","","","","-21","","Mostly Cloudy"
"1971-01-13 14:00","1971","01","13","14:00","-11.7","","-16.1","","69","","8","","23","","40.2","","100.50","","","","-21","","Mostly Cloudy"
"1971-01-13 15:00","1971","01","13","15:00","-11.1","","-12.2","","90","","6","","23","","1.6","","100.47","","","","-20","","Snow"
"1971-01-13 16:00","1971","01","13","16:00","-11.1","","-13.3","","86","","4","","24","","2.4","","100.34","","","","-20","","Snow"
"1971-01-13 17:00","1971","01","13","17:00","-10.6","","-12.2","","87","","7","","23","","2.4","","100.27","","","","-19","","Snow"
"1971-01-13 18:00","1971","01","13","18:00","-7.2","","-9.4","","84","","10","","35","","4.8","","100.12","","","","-16","","Snow,Blowing Snow"
"1971-01-13 19:00","1971","01","13","19:00","-10.0","","-11.7","","88","","6","","24","","24.1","","100.06","","","","-19","","Cloudy"
"1971-01-13 20:00","1971","01","13","20:00","-10.6","","-13.3","","82","","6","","21","","12.9","","99.89","","","","-19","","Freezing Drizzle"
"1971-01-13 21:00","1971","01","13","21:00","-11.1","","-13.3","","85","","5","","21","","12.9","","99.78","","","","-19","","Cloudy"
"1971-01-13 22:00","1971","01","13","22:00","-11.7","","-13.9","","84","","6","","24","","12.9","","99.63","","","","-21","","Cloudy"
"1971-01-13 23:00","1971","01","13","23:00","-9.4","","-11.7","","87","","6","","26","","8.0","","99.53","","","","-18","","Snow"
"1971-01-14 00:00","1971","01","14","00:00","-9.4","","-11.1","","88","","6","","21","","8.0","","99.34","","","","-17","","Snow"
"1971-01-14 01:00","1971","01","14","01:00","-8.9","","-10.6","","89","","5","","18","","8.0","","99.15","","","","-16","","Snow"
"1971-01-14 02:00","1971","01","14","02:00","-8.3","","-10.0","","91","","4","","16","","4.0","","99.06","","","","-15","","Freezing Rain,Freezing Drizzle,Fog"
"1971-01-14 03:00","1971","01","14","03:00","-7.2","","-8.3","","93","","5","","18","","4.8","","98.98","","","","-14","","Freezing Rain,Freezing Drizzle,Ice Pellets,Fog"
"1971-01-14 04:00","1971","01","14","04:00","-7.8","","-8.9","","91","","5","","24","","4.8","","98.84","","","","-16","","Freezing Rain,Freezing Drizzle,Fog"
"1971-01-14 05:00","1971","01","14","05:00","-7.8","","-9.4","","91","","6","","19","","4.8","","98.62","","","","-15","","Freezing Drizzle,Fog"
"1971-01-14 06:00","1971","01","14","06:00","-7.2","","-8.3","","93","","2","","13","","4.8","","98.63","","","","-13","","Freezing Drizzle,Fog"
"1971-01-14 07:00","1971","01","14","07:00","-6.7","","-7.8","","92","","5","","13","","4.8","","98.51","","","","-12","","Freezing Drizzle,Fog"
"1971-01-14 08:00","1971","01","14","08:00","-7.2","","-7.8","","93","","36","","13","","4.0","","98.63","","","","-13","","Freezing Drizzle,Fog"
"1971-01-14 09:00","1971","01","14","09:00","-7.2","","-8.3","","93","","34","","13","","2.4","","98.76","","","","-13","","Freezing Drizzle,Fog"
"1971-01-14 10:00","1971","01","14","10:00","-7.2","","-8.3","","92","","1","","5","","4.8","","98.78","","","","-10","","Fog"
"1971-01-14 11:00","1971","01","14","11:00","-6.1","","-7.2","","92","","","","0","","4.8","","98.90","","","","","","Snow"
"1971-01-14 12:00","1971","01","14","12:00","-3.3","","-4.4","","90","","28","","27","","9.7","","98.94","","","","-10","","Fog"
"1971-01-14 13:00","1971","01","14","13:00","-0.6","","-3.3","","82","","28","","29","","19.3","","99.01","","","","-7","","Mostly Cloudy"
"1971-01-14 14:00","1971","01","14","14:00","-0.6","","-3.9","","80","","28","","39","","32.2","","99.10","","","","-8","","Cloudy"
"1971-01-14 15:00","1971","01","14","15:00","-1.1","","-3.3","","84","","26","","26","","24.1","","99.20","","","","-7","","Cloudy"
"1971-01-14 16:00","1971","01","14","16:00","-1.1","","-3.3","","85","","28","","27","","19.3","","99.29","","","","-8","","Mostly Cloudy"
"1971-01-14 17:00","1971","01","14","17:00","-1.1","","-4.4","","77","","24","","8","","19.3","","99.36","","","","-4","","Cloudy"
"1971-01-14 18:00","1971","01","14","18:00","-1.1","","-4.4","","78","","27","","24","","12.9","","99.46","","","","-7","","Cloudy"
"1971-01-14 19:00","1971","01","14","19:00","-1.1","","-3.9","","80","","26","","18","","16.1","","99.49","","","","-6","","Cloudy"
"1971-01-14 20:00","1971","01","14","20:00","-1.1","","-3.9","","80","","26","","16","","16.1","","99.45","","","","-6","","Cloudy"
"1971-01-14 21:00","1971","01","14","21:00","-1.1","","-2.8","","88","","27","","19","","16.1","","99.48","","","","-6","","Cloudy"
"1971-01-14 22:00","1971","01","14","22:00","-1.1","","-3.9","","80","","27","","18","","12.9","","99.46","","","","-6","","Cloudy"
"1971-01-14 23:00","1971","01","14","23:00","-1.7","","-3.9","","84","","29","","32","","19.3","","99.49","","","","-9","","Cloudy"
"1971-01-15 00:00","1971","01","15","00:00","-2.2","","-5.0","","82","","29","","16","","19.3","","99.51","","","","-7","","Cloudy"
"1971-01-15 01:00","1971","01","15","01:00","-2.2","","-5.6","","77","","27","","24","","19.3","","99.53","","","","-9","","Mostly Cloudy"
"1971-01-15 02:00","1971","01","15","02:00","-2.8","","-7.8","","70","","28","","18","","25.0","","99.57","","","","-8","","Mostly Cloudy"
"1971-01-15 03:00","1971","01","15","03:00","-3.3","","-7.8","","70","","29","","24","","25.0","","99.61","","","","-10","","Mostly Cloudy"
"1971-01-15 04:00","1971","01","15","04:00","-3.3","","-8.3","","69","","31","","18","","25.0","","99.61","","","","-9","","Mostly Cloudy"
"1971-01-15 05:00","1971","01","15","05:00","-5.0","","-10.0","","68","","29","","24","","25.0","","99.65","","","","-12","","Mainly Clear"
"1971-01-15 06:00","1971","01","15","06:00","-4.4","","-10.0","","65","","27","","19","","25.0","","99.66","","","","-11","","Cloudy"
"1971-01-15 07:00","1971","01","15","07:00","-5.0","","-9.4","","68","","25","","21","","25.0","","99.67","","","","-12","","Cloudy"
"1971-01-15 08:00","1971","01","15","08:00","-4.4","","-9.4","","68","","25","","19","","24.1","","99.67","","","","-11","","Cloudy"
"1971-01-15 09:00","1971","01","15","09:00","-5.0","","-8.9","","74","","26","","21","","19.3","","99.70","","","","-12","","Snow Showers"
"1971-01-15 10:00","1971","01","15","10:00","-4.4","","-6.7","","85","","28","","21","","2.4","","99.77","","","","-11","","Snow Showers"
"1971-01-15 11:00","1971","01","15","11:00","-5.0","","-7.2","","84","","32","","26","","12.9","","99.85","","","","-12","","Snow Showers"
"1971-01-15 12:00","1971","01","15","12:00","-5.6","","-9.4","","74","","29","","31","","40.2","","99.81","","","","-14","","Mostly Cloudy"
"1971-01-15 13:00","1971","01","15","13:00","-5.6","","-10.0","","71","","33","","26","","40.2","","99.73","","","","-13","","Mainly Clear"
"1971-01-15 14:00","1971","01","15","14:00","-6.1","","-10.6","","69","","32","","26","","40.2","","99.72","","","","-14","","Mainly Clear"
"1971-01-15 15:00","1971","01","15","15:00","-7.2","","-12.2","","66","","31","","39","","32.2","","99.81","","","","-17","","Mainly Clear"
"1971-01-15 16:00","1971","01","15","16:00","-8.3","","-12.8","","69","","33","","39","","32.2","","99.90","","","","-18","","Mainly Clear"
"1971-01-15 17:00","1971","01","15","17:00","-9.4","","-12.8","","79","","34","","23","","32.2","","99.97","","","","-18","","Mainly Clear"
"1971-01-15 18:00","1971","01","15","18:00","-11.1","","-15.0","","73","","33","","16","","25.0","","100.02","","","","-18","","Mainly Clear"
"1971-01-15 19:00","1971","01","15","19:00","-11.7","","-15.6","","73","","32","","16","","25.0","","100.12","","","","-19","","Mostly Cloudy"
"1971-01-15 20:00","1971","01","15","20:00","-11.7","","-13.9","","84","","35","","19","","4.0","","100.20","","","","-20","","Snow"
"1971-01-15 21:00","1971","01","15","21:00","-13.3","","-15.6","","84","","34","","19","","16.1","","100.21","","","","-22","","Mainly Clear"
"1971-01-15 22:00","1971","01","15","22:00","-14.4","","-17.8","","75","","35","","21","","25.0","","100.24","","","","-24","","Mainly Clear"
"1971-01-15 23:00","1971","01","15","23:00","-15.6","","-18.3","","80","","35","","19","","25.0","","100.26","","","","-25","","Mainly Clear"
"1971-01-16 00:00","1971","01","16","00:00","-17.2","","-19.4","","82","","33","","18","","25.0","","100.30","","","","-26","","Clear"
"1971-01-16 01:00","1971","01","16","01:00","-17.2","","-20.6","","75","","33","","18","","25.0","","100.29","","","","-26","","Clear"
"1971-01-16 02:00","1971","01","16","02:00","-17.8","","-21.1","","74","","33","","16","","25.0","","100.36","","","","-27","","Clear"
"1971-01-16 03:00","1971","01","16","03:00","-20.6","","-22.8","","82","","31","","13","","25.0","","100.44","","","","-29","","Clear"
"1971-01-16 04:00","1971","01","16","04:00","-21.1","","-23.9","","81","","33","","11","","25.0","","100.41","","","","-29","","Clear"
"1971-01-16 05:00","1971","01","16","05:00","-21.7","","-24.4","","81","","33","","13","","25.0","","100.42","","","","-30","","Clear"
"1971-01-16 06:00","1971","01","16","06:00","-22.2","","-24.4","","81","","29","","10","","25.0","","100.46","","","","-30","","Clear"
"1971-01-16 07:00","1971","01","16","07:00","-21.1","","-23.3","","81","","33","","13","","25.0","","100.41","","","","-30","","Clear"
"1971-01-16 08:00","1971","01","16","08:00","-21.7","","-23.9","","84","","31","","10","","40.2","","100.38","","","","-29","","Mainly Clear"
"1971-01-16 09:00","1971","01","16","09:00","-21.1","","-22.8","","88","","34","","5","","40.2","","100.36","","","","-26","","Mainly Clear"
"1971-01-16 10:00","1971","01","16","10:00","-17.8","","-22.8","","64","","","","0","","40.2","","100.34","","","","","","Mostly Cloudy"
"1971-01-16 11:00","1971","01","16","11:00","-17.8","","-21.1","","77","","","","0","","40.2","","100.31","","","","","","Mostly Cloudy"
"1971-01-16 12:00","1971","01","16","12:00","-16.1","","-20.0","","72","","35","","2","","4.0","","100.21","","","","-18","","Snow"
"1971-01-16 13:00","1971","01","16","13:00","-15.0","","-17.2","","82","","","","0","","4.8","","100.10","","","","","","Snow"
"1971-01-16 14:00","1971","01","16","14:00","-13.9","","-16.1","","82","","","","0","","3.2","","100.00","","","","","","Snow"
"1971-01-16 15:00","1971","01","16","15:00","-12.8","","-16.1","","79","","","","0","","3.2","","99.96","","","","","","Snow"
"1971-01-16 16:00","1971","01","16","16:00","-12.2","","-14.4","","82","","4","","8","","4.8","","99.87","","","","-17","","Snow"
"1971-01-16 17:00","1971","01","16","17:00","-12.8","","-15.0","","81","","4","","10","","4.8","","99.82","","","","-19","","Snow"
"1971-01-16 18:00","1971","01","16","18:00","-13.3","","-15.6","","84","","1","","5","","8.0","","99.80","","","","-17","","Snow"
"1971-01-16 19:00","1971","01","16","19:00","-16.7","","-18.3","","87","","27","","5","","19.3","","99.76","","","","-21","","Mainly Clear"
"1971-01-16 20:00","1971","01","16","20:00","-18.3","","-19.4","","89","","32","","3","","24.1","","99.72","","","","-21","","Mainly Clear"
"1971-01-16 21:00","1971","01","16","21:00","-17.2","","-19.4","","84","","26","","10","","24.1","","99.65","","","","-24","","Mainly Clear"
"1971-01-16 22:00","1971","01","16","22:00","-18.3","","-20.6","","84","","29","","10","","24.1","","99.57","","","","-25","","Mainly Clear"
"1971-01-16 23:00","1971","01","16","23:00","-17.2","","-20.0","","80","","26","","6","","25.0","","99.54","","","","-22","","Clear"
"1971-01-17 00:00","1971","01","17","00:00","-18.3","","-20.6","","84","","26","","6","","25.0","","99.49","","","","-23","","Mainly Clear"
"1971-01-17 01:00","1971","01","17","01:00","-17.2","","-20.6","","75","","36","","10","","25.0","","99.47","","","","-24","","Mainly Clear"
"1971-01-17 02:00","1971","01","17","02:00","-20.6","","-22.2","","85","","36","","8","","25.0","","99.45","","","","-27","","Mainly Clear"
"1971-01-17 03:00","1971","01","17","03:00","-18.9","","-21.1","","83","","35","","10","","25.0","","99.47","","","","-26","","Mainly Clear"
"1971-01-17 04:00","1971","01","17","04:00","-17.8","","-20.0","","82","","3","","6","","25.0","","99.38","","","","-22","","Snow"
"1971-01-17 05:00","1971","01","17","05:00","-18.9","","-21.1","","83","","28","","5","","25.0","","99.32","","","","-23","","Snow"
"1971-01-17 06:00","1971","01","17","06:00","-17.2","","-19.4","","82","","","","0","","25.0","","99.27","","","","","","Snow"
"1971-01-17 07:00","1971","01","17","07:00","-16.7","","-18.9","","81","","","","0","","25.0","","99.25","","","","","","Snow"
"1971-01-17 08:00","1971","01","17","08:00","-14.4","","-16.7","","81","","28","","6","","40.2","","99.21","","","","-19","","Mostly Cloudy"
"1971-01-17 09:00","1971","01","17","09:00","-13.3","","-17.2","","73","","24","","5","","40.2","","99.21","","","","-17","","Mostly Cloudy"
"1971-01-17 10:00","1971","01","17","10:00","-13.3","","-15.6","","84","","24","","11","","40.2","","99.17","","","","-20","","Mainly Clear"
"1971-01-17 11:00","1971","01","17","11:00","-11.7","","-14.4","","79","","26","","19","","40.2","","99.11","","","","-20","","Mainly Clear"
"1971-01-17 12:00","1971","01","17","12:00","-10.6","","-15.6","","67","","26","","19","","40.2","","99.03","","","","-18","","Mainly Clear"
"1971-01-17 13:00","1971","01","17","13:00","-10.0","","-16.1","","61","","29","","21","","40.2","","98.97","","","","-18","","Mainly Clear"
"1971-01-17 14:00","1971","01","17","14:00","-9.4","","-15.6","","62","","28","","16","","40.2","","98.94","","","","-16","","Mainly Clear"
"1971-01-17 15:00","1971","01","17","15:00","-9.4","","-15.0","","65","","29","","16","","40.2","","98.87","","","","-16","","Mainly Clear"
"1971-01-17 16:00","1971","01","17","16:00","-9.4","","-15.6","","62","","26","","10","","40.2","","98.81","","","","-15","","Mainly Clear"
"1971-01-17 17:00","1971","01","17","17:00","-11.1","","-15.0","","71","","24","","11","","40.2","","98.82","","","","-17","","Mainly Clear"
"1971-01-17 18:00","1971","01","17","18:00","-11.7","","-16.1","","70","","25","","18","","25.0","","98.83","","","","-20","","Mainly Clear"
"1971-01-17 19:00","1971","01","17","19:00","-11.7","","-15.6","","73","","26","","21","","25.0","","98.79","","","","-20","","Mostly Cloudy"
"1971-01-17 20:00","1971","01","17","20:00","-11.1","","-14.4","","76","","24","","16","","25.0","","98.75","","","","-18","","Mainly Clear"
"1971-01-17 21:00","1971","01","17","21:00","-9.4","","-12.2","","82","","26","","13","","9.7","","98.72","","","","-15","","Snow Showers"
"1971-01-17 22:00","1971","01","17","22:00","-9.4","","-10.6","","88","","1","","11","","2.4","","98.75","","","","-15","","Snow Showers"
"1971-01-17 23:00","1971","01","17","23:00","-12.2","","-14.4","","84","","36","","16","","24.1","","98.78","","","","-20","","Mainly Clear"
"1971-01-18 00:00","1971","01","18","00:00","-13.9","","-16.7","","78","","1","","21","","25.0","","98.83","","","","-23","","Mainly Clear"
"1971-01-18 01:00","1971","01","18","01:00","-15.6","","-19.4","","71","","36","","27","","25.0","","98.87","","","","-26","","Mostly Cloudy"
"1971-01-18 02:00","1971","01","18","02:00","-17.8","","-21.1","","77","","36","","32","","25.0","","98.91","","","","-30","","Mainly Clear"
"1971-01-18 03:00","1971","01","18","03:00","-18.9","","-21.7","","78","","36","","14","","25.0","","98.98","","","","-27","","Mostly Cloudy"
"1971-01-18 04:00","1971","01","18","04:00","-18.9","","-22.2","","75","","1","","19","","25.0","","98.98","","","","-29","","Cloudy"
"1971-01-18 05:00","1971","01","18","05:00","-18.9","","-22.2","","75","","36","","18","","25.0","","98.99","","","","-29","","Cloudy"
"1971-01-18 06:00","1971","01","18","06:00","-19.4","","-22.2","","77","","36","","18","","25.0","","99.00","","","","-29","","Mostly Cloudy"
"1971-01-18 07:00","1971","01","18","07:00","-19.4","","-22.2","","80","","34","","16","","25.0","","99.04","","","","-29","","Cloudy"
"1971-01-18 08:00","1971","01","18","08:00","-20.0","","-23.3","","76","","36","","14","","40.2","","99.08","","","","-29","","Mostly Cloudy"
"1971-01-18 09:00","1971","01","18","09:00","-20.6","","-23.3","","76","","36","","14","","40.2","","99.15","","","","-29","","Mostly Cloudy"
"1971-01-18 10:00","1971","01","18","10:00","-20.0","","-23.9","","70","","35","","13","","40.2","","99.20","","","","-28","","Mostly Cloudy"
"1971-01-18 11:00","1971","01","18","11:00","-20.0","","-23.3","","73","","36","","14","","40.2","","99.21","","","","-29","","Mostly Cloudy"
"1971-01-18 12:00","1971","01","18","12:00","-19.4","","-23.3","","71","","36","","14","","40.2","","99.16","","","","-28","","Mostly Cloudy"
"1971-01-18 13:00","1971","01","18","13:00","-19.4","","-23.3","","71","","34","","19","","40.2","","99.15","","","","-29","","Mostly Cloudy"
"1971-01-18 14:00","1971","01","18","14:00","-19.4","","-23.3","","71","","35","","21","","40.2","","99.12","","","","-30","","Mainly Clear"
"1971-01-18 15:00","1971","01","18","15:00","-19.4","","-22.8","","74","","35","","18","","40.2","","99.10","","","","-29","","Mainly Clear"
"1971-01-18 16:00","1971","01","18","16:00","-19.4","","-22.8","","74","","33","","21","","40.2","","99.12","","","","-30","","Mainly Clear"
"1971-01-18 17:00","1971","01","18","17:00","-20.0","","-23.3","","76","","32","","13","","40.2","","99.17","","","","-28","","Mainly Clear"
"1971-01-18 18:00","1971","01","18","18:00","-22.2","","-25.6","","74","","32","","11","","25.0","","99.18","","","","-30","","Mainly Clear"
"1971-01-18 19:00","1971","01","18","19:00","-22.8","","-24.4","","84","","34","","10","","25.0","","99.20","","","","-31","","Mainly Clear"
"1971-01-18 20:00","1971","01","18","20:00","-22.8","","-24.4","","84","","32","","13","","25.0","","99.22","","","","-32","","Clear"
"1971-01-18 21:00","1971","01","18","21:00","-22.8","","-25.0","","80","","32","","18","","25.0","","99.23","","","","-33","","Clear"
"1971-01-18 22:00","1971","01","18","22:00","-22.8","","-25.6","","80","","32","","24","","25.0","","99.22","","","","-35","","Mainly Clear"
"1971-01-18 23:00","1971","01","18","23:00","-21.1","","-22.8","","85","","32","","16","","25.0","","99.22","","","","-31","","Mostly Cloudy"
"1971-01-19 00:00","1971","01","19","00:00","-20.0","","-22.2","","82","","30","","11","","16.1","","99.20","","","","-28","","Snow"
"1971-01-19 01:00","1971","01","19","01:00","-20.0","","-22.2","","82","","32","","18","","6.4","","99.19","","","","-30","","Snow"
"1971-01-19 02:00","1971","01","19","02:00","-19.4","","-22.2","","77","","33","","19","","11.3","","99.24","","","","-29","","Snow"
"1971-01-19 03:00","1971","01","19","03:00","-19.4","","-22.8","","74","","33","","18","","11.3","","99.25","","","","-29","","Snow"
"1971-01-19 04:00","1971","01","19","04:00","-19.4","","-23.3","","72","","32","","14","","19.3","","99.25","","","","-28","","Cloudy"
"1971-01-19 05:00","1971","01","19","05:00","-19.4","","-22.8","","77","","30","","11","","12.9","","99.25","","","","-27","","Snow"
"1971-01-19 06:00","1971","01","19","06:00","-18.9","","-22.2","","78","","32","","18","","12.9","","99.27","","","","-29","","Snow"
"1971-01-19 07:00","1971","01","19","07:00","-18.9","","-22.2","","75","","29","","11","","19.3","","99.30","","","","-26","","Snow"
"1971-01-19 08:00","1971","01","19","08:00","-18.3","","-21.7","","76","","30","","14","","40.2","","99.30","","","","-27","","Mostly Cloudy"
"1971-01-19 09:00","1971","01","19","09:00","-18.3","","-22.2","","70","","32","","14","","40.2","","99.38","","","","-27","","Mostly Cloudy"
"1971-01-19 10:00","1971","01","19","10:00","-17.8","","-21.7","","74","","33","","18","","40.2","","99.40","","","","-27","","Mainly Clear"
"1971-01-19 11:00","1971","01","19","11:00","-17.2","","-21.1","","72","","33","","18","","40.2","","99.40","","","","-26","","Mainly Clear"
"1971-01-19 12:00","1971","01","19","12:00","-16.1","","-20.0","","72","","33","","21","","40.2","","99.39","","","","-26","","Mainly Clear"
"1971-01-19 13:00","1971","01","19","13:00","-15.6","","-18.9","","75","","34","","24","","40.2","","99.36","","","","-26","","Mainly Clear"
"1971-01-19 14:00","1971","01","19","14:00","-15.0","","-18.9","","74","","34","","16","","40.2","","99.33","","","","-23","","Mainly Clear"
"1971-01-19 15:00","1971","01","19","15:00","-14.4","","-17.8","","77","","32","","16","","19.3","","99.35","","","","-22","","Snow"
"1971-01-19 16:00","1971","01","19","16:00","-14.4","","-17.2","","79","","34","","14","","40.2","","99.40","","","","-22","","Mostly Cloudy"
"1971-01-19 17:00","1971","01","19","17:00","-15.6","","-17.8","","82","","35","","10","","32.2","","99.46","","","","-22","","Mostly Cloudy"
"1971-01-19 18:00","1971","01","19","18:00","-15.0","","-16.7","","84","","34","","14","","25.0","","99.53","","","","-23","","Mostly Cloudy"
"1971-01-19 19:00","1971","01","19","19:00","-16.1","","-18.3","","83","","32","","10","","16.1","","99.58","","","","-23","","Snow"
"1971-01-19 20:00","1971","01","19","20:00","-15.0","","-17.2","","82","","33","","14","","16.1","","99.61","","","","-23","","Snow"
"1971-01-19 21:00","1971","01","19","21:00","-15.0","","-17.2","","82","","35","","16","","3.2","","99.63","","","","-23","","Snow"
"1971-01-19 22:00","1971","01","19","22:00","-14.4","","-16.1","","87","","33","","16","","4.8","","99.64","","","","-22","","Snow"
"1971-01-19 23:00","1971","01","19","23:00","-13.9","","-16.7","","81","","34","","11","","25.0","","99.61","","","","-20","","Cloudy"
"1971-01-20 00:00","1971","01","20","00:00","-14.4","","-16.7","","83","","30","","14","","25.0","","99.63","","","","-22","","Cloudy"
"1971-01-20 01:00","1971","01","20","01:00","-13.9","","-16.1","","84","","31","","16","","25.0","","99.66","","","","-22","","Mostly Cloudy"
"1971-01-20 02:00","1971","01","20","02:00","-15.6","","-18.3","","80","","31","","18","","25.0","","99.70","","","","-24","","Mainly Clear"
"1971-01-20 03:00","1971","01","20","03:00","-16.1","","-20.0","","72","","32","","18","","25.0","","99.72","","","","-25","","Mainly Clear"
"1971-01-20 04:00","1971","01","20","04:00","-15.6","","-18.9","","75","","31","","18","","25.0","","99.75","","","","-24","","Mostly Cloudy"
"1971-01-20 05:00","1971","01","20","05:00","-15.0","","-17.8","","80","","30","","14","","19.3","","99.76","","","","-23","","Snow"
"1971-01-20 06:00","1971","01","20","06:00","-14.4","","-17.8","","77","","30","","18","","19.3","","99.81","","","","-23","","Snow"
"1971-01-20 07:00","1971","01","20","07:00","-15.6","","-18.3","","79","","29","","14","","25.0","","99.86","","","","-23","","Mostly Cloudy"
"1971-01-20 08:00","1971","01","20","08:00","-16.7","","-19.4","","80","","29","","8","","40.2","","99.89","","","","-22","","Mainly Clear"
"1971-01-20 09:00","1971","01","20","09:00","-16.1","","-20.0","","74","","29","","13","","32.2","","99.91","","","","-24","","Mainly Clear"
"1971-01-20 10:00","1971","01","20","10:00","-15.0","","-17.8","","78","","31","","5","","32.2","","99.93","","","","-19","","Mainly Clear"
"1971-01-20 11:00","1971","01","20","11:00","-13.3","","-16.1","","79","","31","","8","","32.2","","99.95","","","","-18","","Mainly Clear"
"1971-01-20 12:00","1971","01","20","12:00","-11.7","","-15.0","","77","","","","0","","32.2","","99.94","","","","","","Mainly Clear"
"1971-01-20 13:00","1971","01","20","13:00","-11.1","","-15.0","","71","","16","","3","","32.2","","99.87","","","","-13","","Mainly Clear"
"1971-01-20 14:00","1971","01","20","14:00","-8.9","","-13.9","","65","","","","0","","32.2","","99.84","","","","","","Mainly Clear"
"1971-01-20 15:00","1971","01","20","15:00","-7.8","","-11.7","","74","","25","","19","","32.2","","99.80","","","","-15","","Mostly Cloudy"
"1971-01-20 16:00","1971","01","20","16:00","-7.8","","-12.2","","70","","24","","13","","32.2","","99.82","","","","-14","","Mainly Clear"
"1971-01-20 17:00","1971","01","20","17:00","-8.9","","-12.2","","75","","24","","11","","32.2","","99.80","","","","-14","","Mainly Clear"
"1971-01-20 18:00","1971","01","20","18:00","-9.4","","-11.7","","83","","22","","11","","25.0","","99.80","","","","-15","","Cloudy"
"1971-01-20 19:00","1971","01","20","19:00","-9.4","","-11.7","","83","","19","","13","","25.0","","99.77","","","","-15","","Cloudy"
"1971-01-20 20:00","1971","01","20","20:00","-8.3","","-11.7","","77","","23","","19","","25.0","","99.73","","","","-16","","Mostly Cloudy"
"1971-01-20 21:00","1971","01","20","21:00","-9.4","","-12.2","","82","","18","","10","","24.1","","99.72","","","","-15","","Cloudy"
"1971-01-20 22:00","1971","01","20","22:00","-8.9","","-11.1","","85","","21","","11","","16.1","","99.61","","","","-14","","Cloudy"
"1971-01-20 23:00","1971","01","20","23:00","-7.8","","-10.0","","83","","22","","19","","12.9","","99.59","","","","-15","","Cloudy"
"1971-01-21 00:00","1971","01","21","00:00","-7.2","","-9.4","","83","","20","","24","","16.1","","99.48","","","","-15","","Mainly Clear"
"1971-01-21 01:00","1971","01","21","01:00","-7.2","","-8.9","","88","","21","","21","","16.1","","99.41","","","","-15","","Cloudy"
"1971-01-21 02:00","1971","01","21","02:00","-6.7","","-8.9","","85","","19","","18","","19.3","","99.41","","","","-13","","Cloudy"
"1971-01-21 03:00","1971","01","21","03:00","-6.7","","-8.3","","88","","19","","21","","3.2","","99.28","","","","-14","","Snow Showers"
"1971-01-21 04:00","1971","01","21","04:00","-6.7","","-8.3","","87","","19","","24","","2.4","","99.03","","","","-14","","Snow"
"1971-01-21 05:00","1971","01","21","05:00","-6.1","","-7.8","","90","","18","","26","","1.0","","98.88","","","","-14","","Snow"
"1971-01-21 06:00","1971","01","21","06:00","-5.6","","-7.2","","92","","19","","19","","8.0","","98.81","","","","-12","","Snow"
"1971-01-21 07:00","1971","01","21","07:00","-5.6","","-7.2","","86","","20","","19","","11.3","","98.73","","","","-12","","Cloudy"
"1971-01-21 08:00","1971","01","21","08:00","-3.9","","-7.2","","80","","20","","24","","12.9","","98.57","","","","-11","","Cloudy"
"1971-01-21 09:00","1971","01","21","09:00","-3.3","","-7.8","","72","","20","","24","","19.3","","98.50","","","","-10","","Cloudy"
"1971-01-21 10:00","1971","01","21","10:00","-2.8","","-7.2","","72","","21","","27","","19.3","","98.36","","","","-10","","Cloudy"
"1971-01-21 11:00","1971","01","21","11:00","-2.2","","-6.7","","71","","23","","35","","19.3","","98.36","","","","-10","","Cloudy"
"1971-01-21 12:00","1971","01","21","12:00","-2.8","","-6.1","","77","","23","","24","","12.9","","98.25","","","","-9","","Cloudy"
"1971-01-21 13:00","1971","01","21","13:00","-2.8","","-4.4","","88","","22","","26","","2.0","","98.16","","","","-10","","Snow"
"1971-01-21 14:00","1971","01","21","14:00","-2.8","","-4.4","","87","","22","","32","","3.2","","98.08","","","","-10","","Snow"
"1971-01-21 15:00","1971","01","21","15:00","-2.2","","-3.9","","89","","22","","26","","3.2","","98.05","","","","-9","","Snow"
"1971-01-21 16:00","1971","01","21","16:00","-2.2","","-3.9","","86","","22","","27","","4.8","","98.06","","","","-9","","Snow"
"1971-01-21 17:00","1971","01","21","17:00","-1.7","","-3.3","","88","","22","","24","","2.0","","98.01","","","","-8","","Snow"
"1971-01-21 18:00","1971","01","21","18:00","-1.7","","-3.3","","91","","23","","21","","6.4","","97.96","","","","-8","","Snow"
"1971-01-21 19:00","1971","01","21","19:00","-0.6","","-3.3","","84","","23","","26","","12.9","","97.98","","","","-7","","Cloudy"
"1971-01-21 20:00","1971","01","21","20:00","0.0","","-2.8","","83","","26","","35","","12.9","","98.01","","","","-7","","Snow"
"1971-01-21 21:00","1971","01","21","21:00","-1.1","","-3.9","","83","","26","","39","","4.8","","98.13","","","","-9","","Snow,Blowing Snow"
"1971-01-21 22:00","1971","01","21","22:00","-1.7","","-3.3","","89","","26","","42","","11.3","","98.21","","","","-10","","Mostly Cloudy"
"1971-01-21 23:00","1971","01","21","23:00","-2.8","","-6.1","","80","","27","","42","","24.1","","98.31","","","","-11","","Mostly Cloudy"
"1971-01-22 00:00","1971","01","22","00:00","-3.3","","-6.7","","76","","27","","39","","24.1","","98.39","","","","-12","","Mainly Clear"
"1971-01-22 01:00","1971","01","22","01:00","-3.3","","-6.7","","79","","26","","29","","25.0","","98.45","","","","-11","","Mainly Clear"
"1971-01-22 02:00","1971","01","22","02:00","-3.9","","-6.7","","80","","26","","26","","25.0","","98.52","","","","-11","","Mainly Clear"
"1971-01-22 03:00","1971","01","22","03:00","-3.3","","-5.6","","86","","25","","16","","19.3","","98.60","","","","-9","","Mostly Cloudy"
"1971-01-22 04:00","1971","01","22","04:00","-3.3","","-5.0","","88","","24","","8","","9.7","","98.65","","","","-7","","Snow Showers"
"1971-01-22 05:00","1971","01","22","05:00","-2.8","","-4.4","","88","","26","","10","","12.9","","98.68","","","","-7","","Mostly Cloudy"
"1971-01-22 06:00","1971","01","22","06:00","-2.8","","-4.4","","87","","27","","16","","24.1","","98.76","","","","-8","","Mostly Cloudy"
"1971-01-22 07:00","1971","01","22","07:00","-2.2","","-5.6","","78","","27","","18","","25.0","","98.86","","","","-8","","Mostly Cloudy"
"1971-01-22 08:00","1971","01","22","08:00","-2.2","","-4.4","","83","","28","","24","","32.2","","98.92","","","","-9","","Mostly Cloudy"
"1971-01-22 09:00","1971","01","22","09:00","-1.7","","-5.0","","79","","28","","16","","40.2","","99.02","","","","-7","","Mostly Cloudy"
"1971-01-22 10:00","1971","01","22","10:00","-2.2","","-6.7","","70","","26","","13","","32.2","","99.11","","","","-7","","Mainly Clear"
"1971-01-22 11:00","1971","01","22","11:00","-1.1","","-5.6","","71","","23","","13","","32.2","","99.15","","","","-5","","Mainly Clear"
"1971-01-22 12:00","1971","01","22","12:00","-0.6","","-5.0","","73","","21","","21","","32.2","","99.09","","","","-6","","Mostly Cloudy"
"1971-01-22 13:00","1971","01","22","13:00","0.0","","-5.0","","71","","22","","23","","32.2","","99.02","","","","-6","","Mainly Clear"
"1971-01-22 14:00","1971","01","22","14:00","0.0","","-5.0","","69","","22","","18","","32.2","","98.99","","","","-5","","Mainly Clear"
"1971-01-22 15:00","1971","01","22","15:00","-0.6","","-6.1","","68","","20","","19","","32.2","","98.93","","","","-6","","Mostly Cloudy"
"1971-01-22 16:00","1971","01","22","16:00","-1.1","","-5.6","","72","","21","","18","","32.2","","98.91","","","","-6","","Mostly Cloudy"
"1971-01-22 17:00","1971","01","22","17:00","-2.2","","-4.4","","83","","21","","19","","19.3","","98.83","","","","-8","","Mostly Cloudy"
"1971-01-22 18:00","1971","01","22","18:00","-2.2","","-5.6","","80","","18","","13","","12.9","","98.79","","","","-7","","Mostly Cloudy"
"1971-01-22 19:00","1971","01","22","19:00","-2.2","","-5.0","","82","","16","","10","","12.9","","98.68","","","","-6","","Mostly Cloudy"
"1971-01-22 20:00","1971","01","22","20:00","-1.7","","-5.0","","78","","16","","13","","12.9","","98.61","","","","-6","","Mostly Cloudy"
"1971-01-22 21:00","1971","01","22","21:00","-2.8","","-4.4","","87","","14","","13","","12.9","","98.48","","","","-7","","Mostly Cloudy"
"1971-01-22 22:00","1971","01","22","22:00","-2.2","","-3.9","","87","","15","","11","","12.9","","98.35","","","","-6","","Mostly Cloudy"
"1971-01-22 23:00","1971","01","22","23:00","-2.2","","-5.0","","82","","11","","13","","12.9","","98.22","","","","-7","","Mostly Cloudy"
"1971-01-23 00:00","1971","01","23","00:00","-3.3","","-5.0","","88","","12","","6","","6.4","","98.05","","","","-6","","Fog"
"1971-01-23 01:00","1971","01","23","01:00","-3.9","","-5.0","","92","","","","0","","6.4","","97.87","","","","","","Fog"
"1971-01-23 02:00","1971","01","23","02:00","-5.0","","-6.7","","92","","","","0","","6.4","","97.80","","","","","","Fog"
"1971-01-23 03:00","1971","01","23","03:00","-5.0","","-6.7","","91","","28","","6","","9.7","","97.78","","","","-8","","Fog"
"1971-01-23 04:00","1971","01","23","04:00","-3.3","","-5.0","","89","","25","","8","","12.9","","97.73","","","","-7","","Snow"
"1971-01-23 05:00","1971","01","23","05:00","-1.1","","-2.8","","87","","26","","26","","8.0","","97.74","","","","-7","","Snow"
"1971-01-23 06:00","1971","01","23","06:00","-0.6","","-3.3","","82","","26","","23","","12.9","","97.83","","","","-6","","Snow"
"1971-01-23 07:00","1971","01","23","07:00","-0.6","","-4.4","","75","","27","","39","","25.0","","98.02","","","","-8","","Mostly Cloudy"
"1971-01-23 08:00","1971","01","23","08:00","-3.3","","-6.1","","83","","26","","31","","25.0","","98.25","","","","-11","","Mostly Cloudy"
"1971-01-23 09:00","1971","01","23","09:00","-4.4","","-8.3","","75","","26","","34","","24.1","","98.45","","","","-13","","Snow Showers"
"1971-01-23 10:00","1971","01","23","10:00","-5.0","","-9.4","","69","","27","","35","","24.1","","98.62","","","","-14","","Snow Showers"
"1971-01-23 11:00","1971","01","23","11:00","-5.0","","-10.0","","68","","27","","37","","40.2","","98.71","","","","-14","","Mainly Clear"
"1971-01-23 12:00","1971","01","23","12:00","-4.4","","-8.9","","70","","27","","37","","40.2","","98.74","","","","-13","","Mainly Clear"
"1971-01-23 13:00","1971","01","23","13:00","-4.4","","-8.9","","70","","26","","34","","32.2","","98.75","","","","-13","","Snow Showers"
"1971-01-23 14:00","1971","01","23","14:00","-3.9","","-8.9","","69","","26","","40","","32.2","","98.84","","","","-13","","Mostly Cloudy"
"1971-01-23 15:00","1971","01","23","15:00","-3.3","","-8.9","","67","","25","","34","","32.2","","98.92","","","","-11","","Mainly Clear"
"1971-01-23 16:00","1971","01","23","16:00","-3.3","","-8.9","","67","","25","","31","","32.2","","99.03","","","","-11","","Mostly Cloudy"
"1971-01-23 17:00","1971","01","23","17:00","-3.9","","-7.8","","76","","24","","27","","40.2","","99.03","","","","-11","","Mainly Clear"
"1971-01-23 18:00","1971","01","23","18:00","-4.4","","-8.9","","72","","23","","27","","24.1","","99.10","","","","-12","","Mainly Clear"
"1971-01-23 19:00","1971","01","23","19:00","-5.6","","-9.4","","74","","22","","23","","25.0","","99.12","","","","-13","","Mainly Clear"
"1971-01-23 20:00","1971","01","23","20:00","-5.0","","-9.4","","70","","22","","24","","25.0","","99.13","","","","-12","","Mostly Cloudy"
"1971-01-23 21:00","1971","01","23","21:00","-3.9","","-8.3","","72","","21","","24","","25.0","","99.07","","","","-11","","Mostly Cloudy"
"1971-01-23 22:00","1971","01","23","22:00","-3.3","","-7.2","","73","","20","","19","","25.0","","99.06","","","","-9","","Mostly Cloudy"
"1971-01-23 23:00","1971","01","23","23:00","-2.2","","-5.6","","76","","22","","24","","25.0","","99.07","","","","-9","","Mostly Cloudy"
"1971-01-24 00:00","1971","01","24","00:00","-1.7","","-5.0","","78","","24","","32","","25.0","","99.09","","","","-9","","Mainly Clear"
"1971-01-24 01:00","1971","01","24","01:00","-1.7","","-6.1","","71","","24","","27","","25.0","","99.11","","","","-8","","Mainly Clear"
"1971-01-24 02:00","1971","01","24","02:00","-2.2","","-7.2","","69","","24","","19","","25.0","","99.19","","","","-8","","Clear"
"1971-01-24 03:00","1971","01","24","03:00","-2.8","","-7.2","","73","","23","","16","","25.0","","99.26","","","","-8","","Clear"
"1971-01-24 04:00","1971","01","24","04:00","-3.3","","-8.9","","66","","25","","16","","25.0","","99.31","","","","-9","","Clear"
"1971-01-24 05:00","1971","01","24","05:00","-3.9","","-8.3","","70","","25","","21","","25.0","","99.34","","","","-10","","Mainly Clear"
"1971-01-24 06:00","1971","01","24","06:00","-3.9","","-9.4","","65","","25","","14","","25.0","","99.40","","","","-9","","Mainly Clear"
"1971-01-24 07:00","1971","01","24","07:00","-5.0","","-10.0","","68","","23","","11","","25.0","","99.46","","","","-10","","Mainly Clear"
"1971-01-24 08:00","1971","01","24","08:00","-6.7","","-10.6","","72","","18","","10","","24.1","","99.46","","","","-11","","Mainly Clear"
"1971-01-24 09:00","1971","01","24","09:00","-6.7","","-11.1","","69","","19","","14","","32.2","","99.52","","","","-12","","Mainly Clear"
"1971-01-24 10:00","1971","01","24","10:00","-6.1","","-10.6","","71","","22","","14","","32.2","","99.57","","","","-12","","Mostly Cloudy"
"1971-01-24 11:00","1971","01","24","11:00","-4.4","","-8.3","","74","","24","","11","","24.1","","99.57","","","","-9","","Mostly Cloudy"
"1971-01-24 12:00","1971","01","24","12:00","-3.3","","-7.2","","72","","21","","14","","24.1","","99.45","","","","-8","","Cloudy"
"1971-01-24 13:00","1971","01","24","13:00","-1.7","","-6.1","","72","","19","","11","","24.1","","99.31","","","","-6","","Cloudy"
"1971-01-24 14:00","1971","01","24","14:00","-0.6","","-5.0","","72","","20","","8","","24.1","","99.19","","","","-3","","Cloudy"
"1971-01-24 15:00","1971","01","24","15:00","0.0","","-5.0","","69","","14","","10","","19.3","","99.09","","","","-3","","Cloudy"
"1971-01-24 16:00","1971","01","24","16:00","-0.6","","-4.4","","73","","15","","16","","16.1","","99.09","","","","-5","","Cloudy"
"1971-01-24 17:00","1971","01","24","17:00","-0.6","","-5.0","","74","","14","","10","","32.2","","99.03","","","","-4","","Mostly Cloudy"
"1971-01-24 18:00","1971","01","24","18:00","-1.1","","-5.6","","73","","16","","6","","25.0","","99.02","","","","-3","","Mostly Cloudy"
"1971-01-24 19:00","1971","01","24","19:00","-2.2","","-6.7","","71","","18","","5","","25.0","","99.00","","","","-4","","Mainly Clear"
"1971-01-24 20:00","1971","01","24","20:00","-1.7","","-6.1","","73","","17","","8","","25.0","","99.01","","","","-5","","Clear"
"1971-01-24 21:00","1971","01","24","21:00","-3.3","","-7.2","","73","","21","","21","","19.3","","98.99","","","","-10","","Mainly Clear"
"1971-01-24 22:00","1971","01","24","22:00","-2.2","","-5.0","","82","","21","","10","","16.1","","98.96","","","","-6","","Cloudy"
"1971-01-24 23:00","1971","01","24","23:00","-1.7","","-3.3","","86","","23","","18","","11.3","","98.96","","","","-7","","Mostly Cloudy"
"1971-01-25 00:00","1971","01","25","00:00","-1.7","","-3.3","","87","","23","","13","","11.3","","98.94","","","","-6","","Mainly Clear"
"1971-01-25 01:00","1971","01","25","01:00","-2.8","","-5.0","","87","","22","","11","","11.3","","98.92","","","","-7","","Clear"
"1971-01-25 02:00","1971","01","25","02:00","-2.2","","-3.9","","88","","20","","13","","11.3","","98.96","","","","-7","","Mainly Clear"
"1971-01-25 03:00","1971","01","25","03:00","-2.2","","-3.9","","90","","18","","11","","9.7","","98.97","","","","-6","","Fog"
"1971-01-25 04:00","1971","01","25","04:00","-3.3","","-5.0","","88","","17","","6","","9.7","","98.98","","","","-6","","Fog"
"1971-01-25 05:00","1971","01","25","05:00","-3.3","","-5.0","","90","","20","","10","","9.7","","99.02","","","","-7","","Fog"
"1971-01-25 06:00","1971","01","25","06:00","-5.0","","-6.7","","89","","19","","8","","9.7","","99.06","","","","-9","","Fog"
"1971-01-25 07:00","1971","01","25","07:00","-5.6","","-6.7","","95","","22","","6","","6.4","","99.09","","","","-8","","Fog"
"1971-01-25 08:00","1971","01","25","08:00","-6.1","","-7.2","","92","","22","","13","","4.8","","99.19","","","","-11","","Fog"
"1971-01-25 09:00","1971","01","25","09:00","-4.4","","-6.7","","86","","24","","14","","4.8","","99.23","","","","-10","","Fog"
"1971-01-25 10:00","1971","01","25","10:00","-3.3","","-5.6","","84","","26","","8","","6.4","","99.23","","","","-7","","Fog"
"1971-01-25 11:00","1971","01","25","11:00","-1.7","","-4.4","","81","","23","","10","","6.4","","99.24","","","","-5","","Fog"
"1971-01-25 12:00","1971","01","25","12:00","-0.6","","-3.9","","79","","21","","10","","6.4","","99.15","","","","-4","","Haze"
"1971-01-25 13:00","1971","01","25","13:00","0.0","","-3.3","","78","","21","","6","","6.4","","99.04","","","","-2","","Haze"
"1971-01-25 14:00","1971","01","25","14:00","-0.6","","-2.8","","86","","21","","11","","4.8","","98.97","","","","-4","","Haze"
"1971-01-25 15:00","1971","01","25","15:00","0.0","","-2.8","","83","","19","","13","","6.4","","98.91","","","","-4","","Haze"
"1971-01-25 16:00","1971","01","25","16:00","0.0","","-1.7","","86","","18","","10","","6.4","","98.80","","","","-3","","Haze"
"1971-01-25 17:00","1971","01","25","17:00","0.6","","-1.1","","87","","14","","8","","9.7","","98.73","","","","","","Haze"
"1971-01-25 18:00","1971","01","25","18:00","0.0","","-0.6","","94","","13","","13","","6.4","","98.68","","","","-4","","Fog"
"1971-01-25 19:00","1971","01","25","19:00","0.0","","-1.1","","91","","12","","16","","6.4","","98.65","","","","-5","","Fog"
"1971-01-25 20:00","1971","01","25","20:00","0.0","","-0.6","","96","","12","","14","","4.8","","98.51","","","","-4","","Fog"
"1971-01-25 21:00","1971","01","25","21:00","-0.6","","-0.6","","99","","12","","13","","4.8","","98.38","","","","-5","","Fog"
"1971-01-25 22:00","1971","01","25","22:00","0.6","","-0.6","","92","","13","","11","","4.8","","98.23","","","","","","Fog"
"1971-01-25 23:00","1971","01","25","23:00","0.0","","-0.6","","98","","12","","13","","4.8","","98.04","","","","-4","","Fog"
"1971-01-26 00:00","1971","01","26","00:00","-1.1","","-1.7","","94","","13","","10","","4.8","","97.85","","","","-5","","Fog"
"1971-01-26 01:00","1971","01","26","01:00","-0.6","","-1.7","","94","","11","","13","","4.8","","97.62","","","","-5","","Fog"
"1971-01-26 02:00","1971","01","26","02:00","0.0","","-0.6","","96","","12","","19","","4.8","","97.39","","","","-5","","Fog"
"1971-01-26 03:00","1971","01","26","03:00","1.1","","-0.6","","89","","11","","19","","8.0","","97.19","","","","","","Fog"
"1971-01-26 04:00","1971","01","26","04:00","1.1","","-0.6","","89","","10","","23","","9.7","","96.86","","","","","","Fog"
"1971-01-26 05:00","1971","01","26","05:00","1.7","","-0.6","","85","","13","","26","","9.7","","96.66","","","","","","Snow Showers"
"1971-01-26 06:00","1971","01","26","06:00","1.1","","0.0","","92","","14","","19","","4.8","","96.42","","","","","","Rain Showers,Fog"
"1971-01-26 07:00","1971","01","26","07:00","1.7","","1.1","","95","","19","","21","","4.8","","96.28","","","","","","Rain Showers,Fog"
"1971-01-26 08:00","1971","01","26","08:00","2.2","","0.6","","91","","21","","29","","6.4","","96.20","","","","","","Drizzle,Fog"
"1971-01-26 09:00","1971","01","26","09:00","1.7","","0.0","","89","","20","","31","","8.0","","96.10","","","","","","Rain,Fog"
"1971-01-26 10:00","1971","01","26","10:00","1.7","","-1.7","","79","","23","","39","","16.1","","96.04","","","","","","Mostly Cloudy"
"1971-01-26 11:00","1971","01","26","11:00","0.0","","-3.3","","77","","22","","35","","19.3","","96.03","","","","-7","","Cloudy"
"1971-01-26 12:00","1971","01","26","12:00","-1.1","","-3.9","","83","","22","","39","","2.8","","95.94","","","","-9","","Snow"
"1971-01-26 13:00","1971","01","26","13:00","-2.8","","-7.2","","73","","23","","39","","32.2","","95.85","","","","-11","","Mainly Clear"
"1971-01-26 14:00","1971","01","26","14:00","-5.6","","-6.1","","95","","25","","45","","0.4","","95.83","","","","-15","","Moderate Snow Showers,Blowing Snow"
"1971-01-26 15:00","1971","01","26","15:00","-8.3","","-9.4","","91","","27","","55","","0.4","","96.04","","","","-20","","Snow Showers,Blowing Snow"
"1971-01-26 16:00","1971","01","26","16:00","-10.0","","-11.7","","88","","28","","50","","0.4","","96.29","","","","-22","","Snow,Blowing Snow"
"1971-01-26 17:00","1971","01","26","17:00","-11.1","","-15.0","","71","","28","","47","","4.8","","96.46","","","","-23","","Snow,Blowing Snow"
"1971-01-26 18:00","1971","01","26","18:00","-11.7","","-15.6","","72","","29","","47","","3.6","","96.55","","","","-24","","Snow,Blowing Snow"
"1971-01-26 19:00","1971","01","26","19:00","-12.2","","-16.1","","72","","29","","45","","4.0","","96.66","","","","-24","","Snow,Blowing Snow"
"1971-01-26 20:00","1971","01","26","20:00","-13.9","","-16.1","","82","","29","","45","","2.0","","96.74","","","","-27","","Snow,Blowing Snow"
"1971-01-26 21:00","1971","01","26","21:00","-14.4","","-17.8","","79","","29","","47","","1.2","","96.79","","","","-27","","Snow,Blowing Snow"
"1971-01-26 22:00","1971","01","26","22:00","-15.0","","-17.2","","84","","29","","43","","1.2","","96.89","","","","-28","","Snow,Blowing Snow"
"1971-01-26 23:00","1971","01","26","23:00","-14.4","","-16.7","","83","","32","","40","","2.0","","96.96","","","","-27","","Snow,Blowing Snow"
"1971-01-27 00:00","1971","01","27","00:00","-14.4","","-17.2","","81","","32","","42","","1.6","","96.98","","","","-27","","Snow,Blowing Snow"
"1971-01-27 01:00","1971","01","27","01:00","-14.4","","-16.7","","83","","32","","48","","1.2","","97.05","","","","-28","","Snow,Blowing Snow"
"1971-01-27 02:00","1971","01","27","02:00","-15.0","","-17.2","","82","","32","","51","","0.8","","97.10","","","","-29","","Snow,Blowing Snow"
"1971-01-27 03:00","1971","01","27","03:00","-15.0","","-17.8","","80","","30","","35","","1.2","","97.22","","","","-27","","Snow,Blowing Snow"
"1971-01-27 04:00","1971","01","27","04:00","-16.7","","-18.9","","81","","30","","48","","0.4","","97.33","","","","-31","","Snow,Blowing Snow"
"1971-01-27 05:00","1971","01","27","05:00","-16.7","","-20.0","","75","","30","","55","","0.8","","97.48","","","","-31","","Snow,Blowing Snow"
"1971-01-27 06:00","1971","01","27","06:00","-17.8","","-21.1","","74","","30","","56","","4.8","","97.61","","","","-33","","Blowing Snow"
"1971-01-27 07:00","1971","01","27","07:00","-17.8","","-22.2","","69","","30","","51","","25.0","","97.76","","","","-33","","Cloudy"
"1971-01-27 08:00","1971","01","27","08:00","-18.3","","-22.8","","68","","30","","60","","19.3","","97.96","","","","-34","","Cloudy"
"1971-01-27 09:00","1971","01","27","09:00","-18.9","","-24.4","","61","","30","","50","","16.1","","98.11","","","","-34","","Mainly Clear"
"1971-01-27 10:00","1971","01","27","10:00","-19.4","","-25.0","","61","","30","","50","","24.1","","98.25","","","","-35","","Mostly Cloudy"
"1971-01-27 11:00","1971","01","27","11:00","-19.4","","-26.1","","55","","30","","47","","24.1","","98.38","","","","-34","","Mostly Cloudy"
"1971-01-27 12:00","1971","01","27","12:00","-18.3","","-24.4","","58","","30","","43","","24.1","","98.40","","","","-32","","Mostly Cloudy"
"1971-01-27 13:00","1971","01","27","13:00","-18.3","","-24.4","","58","","30","","50","","25.0","","98.41","","","","-33","","Mostly Cloudy"
"1971-01-27 14:00","1971","01","27","14:00","-17.8","","-26.1","","48","","30","","51","","25.0","","98.46","","","","-33","","Mostly Cloudy"
"1971-01-27 15:00","1971","01","27","15:00","-17.8","","-23.3","","64","","30","","50","","25.0","","98.56","","","","-32","","Mainly Clear"
"1971-01-27 16:00","1971","01","27","16:00","-17.2","","-22.2","","65","","30","","45","","25.0","","98.62","","","","-31","","Mainly Clear"
"1971-01-27 17:00","1971","01","27","17:00","-17.8","","-21.1","","74","","30","","48","","40.2","","98.63","","","","-32","","Mainly Clear"
"1971-01-27 18:00","1971","01","27","18:00","-18.3","","-22.2","","71","","29","","26","","25.0","","98.72","","","","-30","","Mainly Clear"
"1971-01-27 19:00","1971","01","27","19:00","-18.3","","-22.2","","73","","26","","18","","25.0","","98.74","","","","-28","","Mostly Cloudy"
"1971-01-27 20:00","1971","01","27","20:00","-17.8","","-21.7","","74","","24","","11","","9.7","","98.68","","","","-25","","Snow"
"1971-01-27 21:00","1971","01","27","21:00","-18.9","","-21.1","","83","","","","0","","16.1","","98.59","","","","","","Snow"
"1971-01-27 22:00","1971","01","27","22:00","-18.3","","-20.6","","81","","24","","3","","11.3","","98.49","","","","-21","","Snow"
"1971-01-27 23:00","1971","01","27","23:00","-18.9","","-21.1","","83","","22","","8","","25.0","","98.38","","","","-25","","Mainly Clear"
"1971-01-28 00:00","1971","01","28","00:00","-16.1","","-18.9","","79","","25","","26","","25.0","","98.28","","","","-27","","Mainly Clear"
"1971-01-28 01:00","1971","01","28","01:00","-13.3","","-17.2","","75","","25","","31","","25.0","","98.21","","","","-24","","Mainly Clear"
"1971-01-28 02:00","1971","01","28","02:00","-13.3","","-16.1","","79","","26","","31","","25.0","","98.20","","","","-24","","Mainly Clear"
"1971-01-28 03:00","1971","01","28","03:00","-13.3","","-17.2","","75","","26","","32","","25.0","","98.21","","","","-24","","Mainly Clear"
"1971-01-28 04:00","1971","01","28","04:00","-13.3","","-17.8","","71","","26","","32","","25.0","","98.16","","","","-24","","Clear"
"1971-01-28 05:00","1971","01","28","05:00","-13.9","","-17.2","","76","","26","","32","","25.0","","98.13","","","","-25","","Clear"
"1971-01-28 06:00","1971","01","28","06:00","-13.3","","-16.7","","77","","25","","29","","25.0","","98.12","","","","-24","","Mainly Clear"
"1971-01-28 07:00","1971","01","28","07:00","-13.9","","-17.8","","74","","28","","18","","25.0","","98.18","","","","-22","","Snow"
"1971-01-28 08:00","1971","01","28","08:00","-17.2","","-21.1","","75","","36","","19","","4.8","","98.25","","","","-27","","Snow"
"1971-01-28 09:00","1971","01","28","09:00","-17.2","","-20.0","","80","","35","","8","","9.7","","98.30","","","","-23","","Snow"
"1971-01-28 10:00","1971","01","28","10:00","-17.2","","-20.0","","77","","34","","3","","25.0","","98.37","","","","-20","","Mostly Cloudy"
"1971-01-28 11:00","1971","01","28","11:00","-16.1","","-19.4","","75","","","","0","","40.2","","98.40","","","","","","Mostly Cloudy"
"1971-01-28 12:00","1971","01","28","12:00","-13.3","","-19.4","","59","","30","","23","","40.2","","98.36","","","","-23","","Cloudy"
"1971-01-28 13:00","1971","01","28","13:00","-12.8","","-21.7","","47","","29","","21","","40.2","","98.35","","","","-22","","Cloudy"
"1971-01-28 14:00","1971","01","28","14:00","-13.3","","-17.8","","69","","31","","16","","6.4","","98.35","","","","-21","","Snow Showers"
"1971-01-28 15:00","1971","01","28","15:00","-13.3","","-17.2","","71","","33","","11","","12.9","","98.37","","","","-20","","Snow Showers"
"1971-01-28 16:00","1971","01","28","16:00","-13.3","","-17.2","","71","","32","","16","","40.2","","98.45","","","","-21","","Cloudy"
"1971-01-28 17:00","1971","01","28","17:00","-13.3","","-16.7","","75","","25","","16","","40.2","","98.49","","","","-21","","Cloudy"
"1971-01-28 18:00","1971","01","28","18:00","-13.3","","-16.1","","79","","27","","11","","25.0","","98.50","","","","-20","","Cloudy"
"1971-01-28 19:00","1971","01","28","19:00","-12.8","","-15.6","","81","","25","","14","","11.3","","98.48","","","","-20","","Snow"
"1971-01-28 20:00","1971","01","28","20:00","-11.7","","-13.9","","84","","25","","35","","3.6","","98.47","","","","-22","","Snow"
"1971-01-28 21:00","1971","01","28","21:00","-11.7","","-15.6","","73","","25","","32","","16.1","","98.48","","","","-22","","Mainly Clear"
"1971-01-28 22:00","1971","01","28","22:00","-11.7","","-16.1","","71","","25","","27","","25.0","","98.49","","","","-21","","Mainly Clear"
"1971-01-28 23:00","1971","01","28","23:00","-11.7","","-16.1","","71","","25","","26","","25.0","","98.53","","","","-21","","Clear"
"1971-01-29 00:00","1971","01","29","00:00","-12.2","","-16.1","","70","","25","","27","","25.0","","98.52","","","","-22","","Mainly Clear"
"1971-01-29 01:00","1971","01","29","01:00","-12.2","","-16.7","","70","","25","","29","","25.0","","98.50","","","","-22","","Mainly Clear"
"1971-01-29 02:00","1971","01","29","02:00","-13.3","","-17.2","","73","","23","","23","","25.0","","98.53","","","","-23","","Clear"
"1971-01-29 03:00","1971","01","29","03:00","-13.9","","-17.8","","72","","23","","29","","25.0","","98.56","","","","-24","","Mainly Clear"
"1971-01-29 04:00","1971","01","29","04:00","-13.9","","-16.7","","78","","22","","29","","25.0","","98.56","","","","-24","","Mainly Clear"
"1971-01-29 05:00","1971","01","29","05:00","-13.9","","-17.2","","76","","22","","31","","25.0","","98.47","","","","-25","","Mainly Clear"
"1971-01-29 06:00","1971","01","29","06:00","-13.9","","-17.2","","76","","21","","24","","19.3","","98.52","","","","-24","","Snow Showers"
"1971-01-29 07:00","1971","01","29","07:00","-13.3","","-16.1","","79","","20","","21","","16.1","","98.52","","","","-22","","Snow Showers"
"1971-01-29 08:00","1971","01","29","08:00","-13.3","","-16.1","","79","","23","","23","","19.3","","98.53","","","","-23","","Snow Showers"
"1971-01-29 09:00","1971","01","29","09:00","-12.8","","-15.6","","78","","22","","23","","24.1","","98.52","","","","-22","","Mostly Cloudy"
"1971-01-29 10:00","1971","01","29","10:00","-11.7","","-15.6","","72","","23","","31","","24.1","","98.53","","","","-22","","Mostly Cloudy"
"1971-01-29 11:00","1971","01","29","11:00","-11.1","","-15.0","","72","","22","","29","","24.1","","98.48","","","","-21","","Mostly Cloudy"
"1971-01-29 12:00","1971","01","29","12:00","-10.6","","-14.4","","72","","22","","34","","24.1","","98.37","","","","-21","","Snow Showers"
"1971-01-29 13:00","1971","01","29","13:00","-8.9","","-13.9","","69","","24","","34","","24.1","","98.22","","","","-19","","Mostly Cloudy"
"1971-01-29 14:00","1971","01","29","14:00","-8.3","","-12.2","","73","","23","","31","","19.3","","98.08","","","","-17","","Snow Showers"
"1971-01-29 15:00","1971","01","29","15:00","-8.3","","-10.0","","88","","21","","21","","2.4","","97.92","","","","-16","","Snow"
"1971-01-29 16:00","1971","01","29","16:00","-8.3","","-11.7","","78","","21","","34","","16.1","","97.84","","","","-18","","Snow"
"1971-01-29 17:00","1971","01","29","17:00","-8.9","","-11.7","","83","","19","","21","","2.0","","97.71","","","","-17","","Snow"
"1971-01-29 18:00","1971","01","29","18:00","-8.9","","-10.6","","87","","18","","14","","3.2","","97.50","","","","-15","","Snow"
"1971-01-29 19:00","1971","01","29","19:00","-8.3","","-10.0","","91","","17","","24","","1.6","","97.19","","","","-16","","Snow"
"1971-01-29 20:00","1971","01","29","20:00","-7.2","","-8.3","","91","","15","","24","","3.2","","96.89","","","","-15","","Snow"
"1971-01-29 21:00","1971","01","29","21:00","-6.7","","-7.8","","91","","14","","31","","1.6","","96.40","","","","-15","","Snow"
"1971-01-29 22:00","1971","01","29","22:00","-6.1","","-7.2","","92","","14","","26","","1.2","","96.11","","","","-14","","Snow"
"1971-01-29 23:00","1971","01","29","23:00","-5.6","","-6.1","","95","","14","","21","","1.0","","95.71","","","","-12","","Snow"
"1971-01-30 00:00","1971","01","30","00:00","-4.4","","-5.0","","94","","20","","10","","2.0","","95.55","","","","-9","","Snow"
"1971-01-30 01:00","1971","01","30","01:00","-4.4","","-5.6","","92","","24","","26","","9.7","","95.46","","","","-12","","Snow"
"1971-01-30 02:00","1971","01","30","02:00","-5.6","","-6.7","","90","","26","","48","","2.0","","95.55","","","","-16","","Snow,Blowing Snow"
"1971-01-30 03:00","1971","01","30","03:00","-6.1","","-8.3","","84","","26","","45","","2.4","","95.83","","","","-16","","Snow,Blowing Snow"
"1971-01-30 04:00","1971","01","30","04:00","-7.2","","-8.9","","88","","25","","42","","3.2","","96.11","","","","-17","","Snow,Blowing Snow"
"1971-01-30 05:00","1971","01","30","05:00","-6.7","","-9.4","","80","","27","","35","","25.0","","96.39","","","","-16","","Mainly Clear"
"1971-01-30 06:00","1971","01","30","06:00","-6.7","","-9.4","","79","","29","","34","","25.0","","96.60","","","","-16","","Mainly Clear"
"1971-01-30 07:00","1971","01","30","07:00","-6.1","","-8.9","","83","","29","","32","","25.0","","96.83","","","","-15","","Mainly Clear"
"1971-01-30 08:00","1971","01","30","08:00","-7.8","","-11.7","","76","","29","","24","","25.0","","96.98","","","","-16","","Mainly Clear"
"1971-01-30 09:00","1971","01","30","09:00","-8.3","","-11.7","","76","","27","","35","","19.3","","97.19","","","","-18","","Mainly Clear"
"1971-01-30 10:00","1971","01","30","10:00","-8.3","","-13.3","","67","","26","","26","","40.2","","97.29","","","","-17","","Mostly Cloudy"
"1971-01-30 11:00","1971","01","30","11:00","-8.3","","-13.3","","67","","26","","29","","40.2","","97.38","","","","-17","","Mostly Cloudy"
"1971-01-30 12:00","1971","01","30","12:00","-8.9","","-13.3","","69","","27","","31","","40.2","","97.39","","","","-18","","Mainly Clear"
"1971-01-30 13:00","1971","01","30","13:00","-8.9","","-14.4","","64","","28","","27","","40.2","","97.36","","","","-18","","Mostly Cloudy"
"1971-01-30 14:00","1971","01","30","14:00","-8.9","","-12.8","","75","","26","","21","","9.7","","97.35","","","","-17","","Snow Showers,Blowing Snow"
"1971-01-30 15:00","1971","01","30","15:00","-10.0","","-14.4","","70","","25","","31","","16.1","","97.38","","","","-20","","Mostly Cloudy"
"1971-01-30 16:00","1971","01","30","16:00","-10.6","","-14.4","","72","","27","","27","","25.0","","97.40","","","","-20","","Mainly Clear"
"1971-01-30 17:00","1971","01","30","17:00","-11.1","","-15.0","","73","","26","","32","","1.6","","97.47","","","","-21","","Blowing Snow"
"1971-01-30 18:00","1971","01","30","18:00","-12.8","","-17.2","","67","","26","","21","","25.0","","97.55","","","","-22","","Mainly Clear"
"1971-01-30 19:00","1971","01","30","19:00","-13.3","","-17.8","","69","","26","","29","","25.0","","97.63","","","","-24","","Mainly Clear"
"1971-01-30 20:00","1971","01","30","20:00","-15.0","","-17.8","","76","","25","","29","","12.9","","97.72","","","","-26","","Mainly Clear"
"1971-01-30 21:00","1971","01","30","21:00","-15.6","","-18.9","","73","","25","","29","","25.0","","97.77","","","","-27","","Mainly Clear"
"1971-01-30 22:00","1971","01","30","22:00","-16.1","","-19.4","","74","","26","","32","","25.0","","97.84","","","","-28","","Mainly Clear"
"1971-01-30 23:00","1971","01","30","23:00","-16.7","","-20.6","","73","","25","","39","","25.0","","97.93","","","","-30","","Mainly Clear"
"1971-01-31 00:00","1971","01","31","00:00","-17.2","","-20.0","","77","","26","","34","","25.0","","97.96","","","","-30","","Clear"
"1971-01-31 01:00","1971","01","31","01:00","-17.2","","-21.7","","67","","26","","29","","25.0","","98.00","","","","-29","","Clear"
"1971-01-31 02:00","1971","01","31","02:00","-18.3","","-22.8","","68","","25","","23","","25.0","","98.02","","","","-29","","Clear"
"1971-01-31 03:00","1971","01","31","03:00","-19.4","","-23.3","","72","","23","","19","","25.0","","98.07","","","","-29","","Clear"
"1971-01-31 04:00","1971","01","31","04:00","-19.4","","-23.9","","69","","22","","24","","25.0","","98.09","","","","-31","","Clear"
"1971-01-31 05:00","1971","01","31","05:00","-20.0","","-24.4","","67","","23","","23","","25.0","","98.10","","","","-31","","Clear"
"1971-01-31 06:00","1971","01","31","06:00","-20.6","","-25.0","","69","","24","","21","","25.0","","98.11","","","","-31","","Clear"
"1971-01-31 07:00","1971","01","31","07:00","-21.1","","-24.4","","72","","24","","21","","25.0","","98.15","","","","-32","","Mainly Clear"
"1971-01-31 08:00","1971","01","31","08:00","-20.6","","-23.3","","79","","25","","19","","40.2","","98.23","","","","-31","","Mainly Clear"
"1971-01-31 09:00","1971","01","31","09:00","-19.4","","-23.3","","74","","24","","27","","40.2","","98.31","","","","-31","","Mostly Cloudy"
"1971-01-31 10:00","1971","01","31","10:00","-17.8","","-22.2","","67","","25","","26","","40.2","","98.32","","","","-29","","Cloudy"
"1971-01-31 11:00","1971","01","31","11:00","-16.7","","-22.2","","64","","24","","31","","40.2","","98.38","","","","-28","","Cloudy"
"1971-01-31 12:00","1971","01","31","12:00","-16.1","","-21.1","","63","","25","","31","","40.2","","98.39","","","","-28","","Cloudy"
"1971-01-31 13:00","1971","01","31","13:00","-15.6","","-21.1","","63","","26","","29","","40.2","","98.38","","","","-27","","Mostly Cloudy"
"1971-01-31 14:00","1971","01","31","14:00","-15.6","","-21.1","","61","","26","","32","","40.2","","98.42","","","","-27","","Mostly Cloudy"
"1971-01-31 15:00","1971","01","31","15:00","-15.6","","-20.6","","65","","25","","27","","40.2","","98.46","","","","-26","","Mostly Cloudy"
"1971-01-31 16:00","1971","01","31","16:00","-15.6","","-21.1","","61","","25","","31","","40.2","","98.50","","","","-27","","Mostly Cloudy"
"1971-01-31 17:00","1971","01","31","17:00","-16.1","","-21.1","","64","","25","","26","","32.2","","98.54","","","","-27","","Mainly Clear"
"1971-01-31 18:00","1971","01","31","18:00","-16.7","","-21.1","","69","","24","","26","","25.0","","98.59","","","","-28","","Mainly Clear"
"1971-01-31 19:00","1971","01","31","19:00","-17.2","","-21.7","","68","","24","","24","","25.0","","98.64","","","","-28","","Clear"
"1971-01-31 20:00","1971","01","31","20:00","-17.8","","-21.1","","77","","25","","27","","25.0","","98.68","","","","-29","","Clear"
"1971-01-31 21:00","1971","01","31","21:00","-18.3","","-21.1","","79","","24","","23","","25.0","","98.71","","","","-29","","Mainly Clear"
"1971-01-31 22:00","1971","01","31","22:00","-18.3","","-22.2","","71","","25","","21","","25.0","","98.74","","","","-29","","Mostly Cloudy"
"1971-01-31 23:00","1971","01","31","23:00","-17.8","","-21.1","","74","","25","","21","","25.0","","98.74","","","","-28","","Cloudy"
