"Station Name","TORONTO LESTER B. PEARSON INT'L A"
"Province","ONTARIO"
"Latitude","43.68"
"Longitude","-79.63"
"Elevation","173.40"
"Climate Identifier","6158733"
"WMO Identifier","71624"
"TC Identifier","YYZ"
"All times are specified in Local Standard Time (LST). Add 1 hour to adjust for Daylight Saving Time where and when it is observed."

"Legend"
"E","Estimated"
"M","Missing"
"NA","Not Available"

"Date/Time","Year","Month","Day","Time","Temp (°C)","Temp Flag","Dew Point Temp (°C)","Dew Point Temp Flag","Rel Hum (%)","Rel Hum Flag","Wind Dir (10s deg)","Wind Dir Flag","Wind Spd (km/h)","Wind Spd Flag","Visibility (km)","Visibility Flag","Stn Press (kPa)","Stn Press Flag","Hmdx","Hmdx Flag","Wind Chill","Wind Chill Flag","Weather"
"1989-08-01 00:00","1989","08","01","00:00","18.7","","12.2","","66","","36","","7","","25.0","","99.94","","","","","","Clear"
"1989-08-01 01:00","1989","08","01","01:00","16.0","","13.0","","82","","34","","7","","25.0","","99.97","","","","","","Clear"
"1989-08-01 02:00","1989","08","01","02:00","16.0","","13.0","","82","","1","","6","","25.0","","99.97","","","","","","Clear"
"1989-08-01 03:00","1989","08","01","03:00","16.1","","13.4","","84","","34","","4","","16.1","","99.97","","","","","","Clear"
"1989-08-01 04:00","1989","08","01","04:00","14.8","","12.7","","88","","35","","7","","12.9","","99.97","","","","","","Mainly Clear"
"1989-08-01 05:00","1989","08","01","05:00","14.7","","12.2","","85","","34","","6","","11.3","","99.97","","","","","","Mainly Clear"
"1989-08-01 06:00","1989","08","01","06:00","15.5","","13.9","","90","","35","","6","","11.3","","100.01","","","","","","Clear"
"1989-08-01 07:00","1989","08","01","07:00","18.4","","14.7","","79","","","","0","","16.1","","100.01","","","","","","Clear"
"1989-08-01 08:00","1989","08","01","08:00","20.7","","15.2","","71","","","","0","","16.1","","100.01","","25","","","","Clear"
"1989-08-01 09:00","1989","08","01","09:00","23.5","","15.5","","61","","","","0","","16.1","","100.04","","28","","","","Mainly Clear"
"1989-08-01 10:00","1989","08","01","10:00","24.5","","15.0","","56","","","","0","","19.3","","100.04","","28","","","","Mostly Cloudy"
"1989-08-01 11:00","1989","08","01","11:00","24.8","","16.3","","59","","17","","9","","24.1","","100.04","","30","","","","Mostly Cloudy"
"1989-08-01 12:00","1989","08","01","12:00","24.0","","14.7","","56","","14","","9","","24.1","","100.04","","28","","","","Mostly Cloudy"
"1989-08-01 13:00","1989","08","01","13:00","25.2","","14.8","","52","","15","","9","","32.2","","99.97","","29","","","","Mostly Cloudy"
"1989-08-01 14:00","1989","08","01","14:00","25.6","","14.4","","50","","14","","9","","32.2","","99.94","","29","","","","Mostly Cloudy"
"1989-08-01 15:00","1989","08","01","15:00","25.5","","12.8","","45","","14","","7","","32.2","","99.87","","28","","","","Mostly Cloudy"
"1989-08-01 16:00","1989","08","01","16:00","26.0","","13.9","","47","","17","","9","","32.2","","99.81","","29","","","","Mostly Cloudy"
"1989-08-01 17:00","1989","08","01","17:00","25.6","","13.6","","47","","15","","7","","32.2","","99.77","","29","","","","Mainly Clear"
"1989-08-01 18:00","1989","08","01","18:00","24.6","","13.5","","50","","16","","7","","32.2","","99.77","","28","","","","Mainly Clear"
"1989-08-01 19:00","1989","08","01","19:00","23.9","","14.7","","57","","16","","6","","32.2","","99.71","","28","","","","Mostly Cloudy"
"1989-08-01 20:00","1989","08","01","20:00","22.5","","15.1","","63","","16","","6","","25.0","","99.74","","27","","","","Mainly Clear"
"1989-08-01 21:00","1989","08","01","21:00","21.6","","16.7","","74","","17","","4","","25.0","","99.74","","27","","","","Clear"
"1989-08-01 22:00","1989","08","01","22:00","21.2","","16.4","","74","","17","","4","","25.0","","99.67","","26","","","","Mainly Clear"
"1989-08-01 23:00","1989","08","01","23:00","21.4","","17.0","","76","","18","","4","","25.0","","99.71","","27","","","","Mainly Clear"
"1989-08-02 00:00","1989","08","02","00:00","21.2","","17.1","","77","","26","","4","","16.1","","99.71","","27","","","","Mostly Cloudy"
"1989-08-02 01:00","1989","08","02","01:00","20.0","","17.3","","84","","27","","4","","12.9","","99.71","","25","","","","Cloudy"
"1989-08-02 02:00","1989","08","02","02:00","20.2","","17.0","","82","","","","0","","11.3","","99.61","","25","","","","Mostly Cloudy"
"1989-08-02 03:00","1989","08","02","03:00","20.7","","17.8","","83","","25","","4","","9.7","","99.57","","27","","","","Haze"
"1989-08-02 04:00","1989","08","02","04:00","20.5","","17.8","","84","","25","","4","","9.7","","99.51","","26","","","","Haze"
"1989-08-02 05:00","1989","08","02","05:00","20.5","","17.5","","83","","24","","6","","9.7","","99.54","","26","","","","Haze"
"1989-08-02 06:00","1989","08","02","06:00","20.9","","18.0","","84","","25","","7","","9.7","","99.51","","27","","","","Haze"
"1989-08-02 07:00","1989","08","02","07:00","21.1","","15.8","","72","","25","","9","","16.1","","99.51","","26","","","","Cloudy"
"1989-08-02 08:00","1989","08","02","08:00","21.9","","16.5","","72","","25","","9","","16.1","","99.44","","27","","","","Mostly Cloudy"
"1989-08-02 09:00","1989","08","02","09:00","22.0","","17.2","","74","","30","","4","","11.3","","99.47","","27","","","","Rain Showers"
"1989-08-02 10:00","1989","08","02","10:00","22.0","","18.2","","79","","21","","7","","11.3","","99.34","","28","","","","Rain Showers"
"1989-08-02 11:00","1989","08","02","11:00","25.9","","18.1","","62","","27","","13","","16.1","","99.27","","32","","","","Mostly Cloudy"
"1989-08-02 12:00","1989","08","02","12:00","26.9","","18.6","","61","","28","","17","","16.1","","99.21","","33","","","","Mostly Cloudy"
"1989-08-02 13:00","1989","08","02","13:00","29.7","","18.5","","51","","28","","20","","16.1","","99.11","","36","","","","Mostly Cloudy"
"1989-08-02 14:00","1989","08","02","14:00","30.0","","17.1","","46","","28","","22","","24.1","","99.11","","35","","","","Mostly Cloudy"
"1989-08-02 15:00","1989","08","02","15:00","29.1","","16.9","","48","","29","","20","","32.2","","99.11","","34","","","","Mostly Cloudy"
"1989-08-02 16:00","1989","08","02","16:00","28.9","","17.2","","49","","30","","15","","40.2","","99.07","","34","","","","Mostly Cloudy"
"1989-08-02 17:00","1989","08","02","17:00","29.0","","16.5","","47","","31","","17","","32.2","","99.07","","34","","","","Mostly Cloudy"
"1989-08-02 18:00","1989","08","02","18:00","28.6","","17.3","","50","","30","","17","","32.2","","99.07","","34","","","","Mostly Cloudy"
"1989-08-02 19:00","1989","08","02","19:00","27.6","","17.5","","54","","30","","11","","24.1","","99.11","","33","","","","Mostly Cloudy"
"1989-08-02 20:00","1989","08","02","20:00","26.5","","17.7","","59","","28","","11","","25.0","","99.14","","32","","","","Cloudy"
"1989-08-02 21:00","1989","08","02","21:00","25.6","","18.2","","64","","26","","6","","25.0","","99.14","","32","","","","Cloudy"
"1989-08-02 22:00","1989","08","02","22:00","25.5","","18.8","","66","","26","","6","","24.1","","99.14","","32","","","","Mostly Cloudy"
"1989-08-02 23:00","1989","08","02","23:00","25.0","","19.8","","73","","28","","7","","25.0","","99.11","","32","","","","Mostly Cloudy"
"1989-08-03 00:00","1989","08","03","00:00","24.8","","19.8","","74","","27","","7","","16.1","","99.11","","32","","","","Mostly Cloudy"
"1989-08-03 01:00","1989","08","03","01:00","24.1","","19.7","","77","","29","","6","","12.9","","99.11","","31","","","","Mostly Cloudy"
"1989-08-03 02:00","1989","08","03","02:00","22.6","","17.7","","74","","26","","4","","12.9","","99.11","","28","","","","Mainly Clear"
"1989-08-03 03:00","1989","08","03","03:00","21.6","","19.2","","86","","26","","4","","12.9","","99.04","","29","","","","Clear"
"1989-08-03 04:00","1989","08","03","04:00","21.1","","18.6","","86","","27","","4","","11.3","","99.04","","28","","","","Clear"
"1989-08-03 05:00","1989","08","03","05:00","20.7","","18.7","","88","","28","","4","","11.3","","99.07","","27","","","","Mainly Clear"
"1989-08-03 06:00","1989","08","03","06:00","20.5","","18.7","","90","","28","","6","","9.7","","99.14","","27","","","","Fog"
"1989-08-03 07:00","1989","08","03","07:00","22.8","","19.5","","82","","27","","6","","9.7","","99.17","","30","","","","Haze"
"1989-08-03 08:00","1989","08","03","08:00","24.9","","19.2","","71","","27","","9","","9.7","","99.14","","32","","","","Haze"
"1989-08-03 09:00","1989","08","03","09:00","26.0","","19.1","","66","","25","","11","","9.7","","99.11","","33","","","","Haze"
"1989-08-03 10:00","1989","08","03","10:00","27.5","","19.5","","62","","27","","11","","9.7","","99.07","","35","","","","Haze"
"1989-08-03 11:00","1989","08","03","11:00","28.9","","19.9","","58","","25","","11","","9.7","","99.01","","36","","","","Haze"
"1989-08-03 12:00","1989","08","03","12:00","30.6","","18.0","","47","","24","","13","","16.1","","98.94","","37","","","","Mainly Clear"
"1989-08-03 13:00","1989","08","03","13:00","32.1","","16.4","","39","","26","","15","","24.1","","98.91","","37","","","","Mainly Clear"
"1989-08-03 14:00","1989","08","03","14:00","32.5","","17.0","","40","","27","","19","","24.1","","98.84","","38","","","","Mainly Clear"
"1989-08-03 15:00","1989","08","03","15:00","32.2","","17.1","","41","","26","","15","","19.3","","98.81","","38","","","","Mostly Cloudy"
"1989-08-03 16:00","1989","08","03","16:00","31.1","","15.8","","40","","26","","15","","19.3","","98.77","","36","","","","Mostly Cloudy"
"1989-08-03 17:00","1989","08","03","17:00","30.6","","14.0","","36","","27","","15","","19.3","","98.74","","34","","","","Mostly Cloudy"
"1989-08-03 18:00","1989","08","03","18:00","30.4","","14.7","","39","","26","","11","","19.3","","98.71","","34","","","","Mostly Cloudy"
"1989-08-03 19:00","1989","08","03","19:00","28.5","","21.5","","66","","22","","17","","9.7","","98.64","","37","","","","Haze"
"1989-08-03 20:00","1989","08","03","20:00","27.6","","21.0","","67","","23","","17","","4.8","","98.64","","36","","","","Haze"
"1989-08-03 21:00","1989","08","03","21:00","26.5","","21.2","","73","","23","","13","","4.8","","98.64","","35","","","","Haze"
"1989-08-03 22:00","1989","08","03","22:00","26.0","","21.2","","75","","23","","13","","4.8","","98.64","","35","","","","Haze"
"1989-08-03 23:00","1989","08","03","23:00","26.0","","21.5","","76","","24","","17","","8.0","","98.61","","35","","","","Haze"
"1989-08-04 00:00","1989","08","04","00:00","26.0","","21.5","","76","","25","","15","","6.4","","98.61","","35","","","","Haze"
"1989-08-04 01:00","1989","08","04","01:00","26.1","","21.8","","77","","25","","15","","6.4","","98.54","","35","","","","Haze"
"1989-08-04 02:00","1989","08","04","02:00","26.0","","21.0","","74","","25","","13","","6.4","","98.44","","34","","","","Haze"
"1989-08-04 03:00","1989","08","04","03:00","25.9","","22.1","","80","","24","","11","","6.4","","98.41","","35","","","","Haze"
"1989-08-04 04:00","1989","08","04","04:00","25.8","","22.1","","80","","25","","15","","8.0","","98.41","","35","","","","Haze"
"1989-08-04 05:00","1989","08","04","05:00","25.6","","21.6","","79","","25","","9","","8.0","","98.44","","35","","","","Haze"
"1989-08-04 06:00","1989","08","04","06:00","25.5","","22.2","","82","","24","","9","","8.0","","98.37","","35","","","","Haze"
"1989-08-04 07:00","1989","08","04","07:00","25.5","","22.2","","82","","25","","7","","9.7","","98.37","","35","","","","Haze"
"1989-08-04 08:00","1989","08","04","08:00","26.3","","22.9","","82","","26","","9","","9.7","","98.41","","36","","","","Haze"
"1989-08-04 09:00","1989","08","04","09:00","27.1","","22.6","","76","","25","","11","","9.7","","98.37","","37","","","","Haze"
"1989-08-04 10:00","1989","08","04","10:00","26.9","","23.2","","80","","24","","7","","11.3","","98.34","","37","","","","Rain"
"1989-08-04 11:00","1989","08","04","11:00","27.6","","23.1","","77","","22","","11","","8.0","","98.27","","38","","","","Haze"
"1989-08-04 12:00","1989","08","04","12:00","27.2","","22.9","","77","","19","","7","","4.8","","98.14","","37","","","","Rain Showers,Haze"
"1989-08-04 13:00","1989","08","04","13:00","22.0","","21.1","","95","","1","","7","","12.9","","98.17","","31","","","","Cloudy"
"1989-08-04 14:00","1989","08","04","14:00","24.3","","22.8","","91","","16","","6","","9.7","","98.04","","34","","","","Rain Showers,Fog"
"1989-08-04 15:00","1989","08","04","15:00","25.0","","23.4","","91","","19","","11","","6.4","","97.87","","36","","","","Rain Showers,Fog"
"1989-08-04 16:00","1989","08","04","16:00","23.3","","22.7","","97","","13","","11","","4.8","","97.77","","33","","","","Rain Showers,Fog"
"1989-08-04 17:00","1989","08","04","17:00","23.2","","22.7","","97","","36","","11","","3.2","","97.81","","33","","","","Moderate Rain,Fog"
"1989-08-04 18:00","1989","08","04","18:00","23.4","","22.4","","94","","33","","17","","24.1","","98.01","","33","","","","Mostly Cloudy"
"1989-08-04 19:00","1989","08","04","19:00","24.0","","22.6","","92","","34","","17","","24.1","","98.11","","34","","","","Mainly Clear"
"1989-08-04 20:00","1989","08","04","20:00","23.4","","22.7","","96","","32","","7","","16.1","","98.21","","33","","","","Mainly Clear"
"1989-08-04 21:00","1989","08","04","21:00","23.5","","22.1","","92","","31","","9","","11.3","","98.31","","33","","","","Mainly Clear"
"1989-08-04 22:00","1989","08","04","22:00","23.0","","21.6","","92","","31","","11","","11.3","","98.41","","32","","","","Clear"
"1989-08-04 23:00","1989","08","04","23:00","22.7","","21.4","","92","","30","","11","","12.9","","98.47","","31","","","","Clear"
"1989-08-05 00:00","1989","08","05","00:00","22.3","","21.4","","95","","30","","7","","12.9","","98.47","","31","","","","Clear"
"1989-08-05 01:00","1989","08","05","01:00","22.0","","21.1","","95","","32","","7","","12.9","","98.44","","31","","","","Clear"
"1989-08-05 02:00","1989","08","05","02:00","21.6","","20.6","","94","","35","","7","","9.7","","98.44","","30","","","","Fog"
"1989-08-05 03:00","1989","08","05","03:00","20.9","","20.4","","97","","27","","6","","8.0","","98.51","","29","","","","Fog"
"1989-08-05 04:00","1989","08","05","04:00","21.4","","20.9","","97","","24","","4","","8.0","","98.51","","30","","","","Fog"
"1989-08-05 05:00","1989","08","05","05:00","21.1","","20.7","","98","","29","","6","","6.4","","98.61","","29","","","","Fog"
"1989-08-05 06:00","1989","08","05","06:00","22.1","","21.7","","98","","27","","4","","8.0","","98.61","","31","","","","Fog"
"1989-08-05 07:00","1989","08","05","07:00","23.2","","22.4","","95","","29","","6","","8.0","","98.64","","33","","","","Fog"
"1989-08-05 08:00","1989","08","05","08:00","25.0","","22.2","","85","","27","","4","","12.9","","98.64","","35","","","","Mostly Cloudy"
"1989-08-05 09:00","1989","08","05","09:00","26.0","","22.1","","79","","","","0","","19.3","","98.54","","35","","","","Mostly Cloudy"
"1989-08-05 10:00","1989","08","05","10:00","27.6","","21.7","","70","","25","","6","","19.3","","98.54","","37","","","","Mainly Clear"
"1989-08-05 11:00","1989","08","05","11:00","29.0","","21.5","","64","","","","0","","19.3","","98.51","","38","","","","Mostly Cloudy"
"1989-08-05 12:00","1989","08","05","12:00","28.9","","21.5","","64","","21","","7","","19.3","","98.51","","38","","","","Mostly Cloudy"
"1989-08-05 13:00","1989","08","05","13:00","28.4","","22.1","","69","","17","","6","","19.3","","98.44","","38","","","","Mostly Cloudy"
"1989-08-05 14:00","1989","08","05","14:00","29.9","","23.2","","68","","22","","11","","19.3","","98.44","","40","","","","Mainly Clear"
"1989-08-05 15:00","1989","08","05","15:00","30.7","","19.7","","52","","20","","17","","19.3","","98.41","","38","","","","Mainly Clear"
"1989-08-05 16:00","1989","08","05","16:00","30.5","","19.7","","53","","21","","17","","19.3","","98.34","","38","","","","Mainly Clear"
"1989-08-05 17:00","1989","08","05","17:00","30.6","","18.4","","48","","22","","9","","19.3","","98.31","","37","","","","Mainly Clear"
"1989-08-05 18:00","1989","08","05","18:00","29.9","","19.8","","55","","23","","9","","32.2","","98.21","","37","","","","Mainly Clear"
"1989-08-05 19:00","1989","08","05","19:00","28.4","","19.7","","59","","22","","7","","40.2","","98.21","","36","","","","Mainly Clear"
"1989-08-05 20:00","1989","08","05","20:00","26.6","","19.6","","66","","22","","7","","40.2","","98.21","","34","","","","Mainly Clear"
"1989-08-05 21:00","1989","08","05","21:00","25.3","","20.4","","74","","22","","7","","25.0","","98.24","","33","","","","Mainly Clear"
"1989-08-05 22:00","1989","08","05","22:00","24.3","","20.8","","81","","23","","6","","25.0","","98.27","","33","","","","Clear"
"1989-08-05 23:00","1989","08","05","23:00","24.5","","20.8","","80","","21","","6","","25.0","","98.24","","33","","","","Clear"
"1989-08-06 00:00","1989","08","06","00:00","24.1","","20.9","","82","","24","","7","","25.0","","98.24","","32","","","","Clear"
"1989-08-06 01:00","1989","08","06","01:00","23.6","","20.4","","82","","25","","9","","25.0","","98.24","","32","","","","Clear"
"1989-08-06 02:00","1989","08","06","02:00","22.8","","20.1","","85","","24","","7","","25.0","","98.21","","30","","","","Clear"
"1989-08-06 03:00","1989","08","06","03:00","21.9","","20.0","","89","","25","","6","","25.0","","98.24","","29","","","","Mainly Clear"
"1989-08-06 04:00","1989","08","06","04:00","22.0","","20.3","","90","","23","","4","","16.1","","98.17","","30","","","","Mainly Clear"
"1989-08-06 05:00","1989","08","06","05:00","21.9","","20.3","","91","","26","","4","","12.9","","98.17","","30","","","","Mainly Clear"
"1989-08-06 06:00","1989","08","06","06:00","22.0","","20.6","","92","","20","","4","","11.3","","98.21","","30","","","","Clear"
"1989-08-06 07:00","1989","08","06","07:00","23.1","","20.4","","85","","27","","7","","11.3","","98.21","","31","","","","Clear"
"1989-08-06 08:00","1989","08","06","08:00","24.7","","20.2","","76","","27","","11","","12.9","","98.21","","32","","","","Mostly Cloudy"
"1989-08-06 09:00","1989","08","06","09:00","25.9","","19.1","","66","","28","","11","","19.3","","98.21","","33","","","","Mostly Cloudy"
"1989-08-06 10:00","1989","08","06","10:00","26.3","","18.7","","63","","32","","17","","19.3","","98.24","","33","","","","Mainly Clear"
"1989-08-06 11:00","1989","08","06","11:00","26.0","","17.4","","59","","30","","13","","32.2","","98.31","","32","","","","Mostly Cloudy"
"1989-08-06 12:00","1989","08","06","12:00","26.9","","15.8","","51","","32","","13","","32.2","","98.31","","31","","","","Mainly Clear"
"1989-08-06 13:00","1989","08","06","13:00","27.0","","16.2","","52","","32","","17","","32.2","","98.31","","32","","","","Mainly Clear"
"1989-08-06 14:00","1989","08","06","14:00","27.3","","15.7","","49","","30","","19","","40.2","","98.34","","32","","","","Mainly Clear"
"1989-08-06 15:00","1989","08","06","15:00","24.8","","15.2","","55","","30","","22","","40.2","","98.41","","29","","","","Mainly Clear"
"1989-08-06 16:00","1989","08","06","16:00","22.5","","14.0","","59","","31","","19","","40.2","","98.47","","26","","","","Mainly Clear"
"1989-08-06 17:00","1989","08","06","17:00","22.1","","13.4","","58","","32","","19","","40.2","","98.51","","25","","","","Mainly Clear"
"1989-08-06 18:00","1989","08","06","18:00","20.1","","12.9","","63","","31","","15","","32.2","","98.54","","","","","","Mainly Clear"
"1989-08-06 19:00","1989","08","06","19:00","17.8","","12.4","","71","","32","","20","","32.2","","98.67","","","","","","Mostly Cloudy"
"1989-08-06 20:00","1989","08","06","20:00","16.0","","11.3","","74","","30","","19","","32.2","","98.74","","","","","","Mostly Cloudy"
"1989-08-06 21:00","1989","08","06","21:00","16.0","","10.5","","70","","29","","15","","25.0","","98.77","","","","","","Mostly Cloudy"
"1989-08-06 22:00","1989","08","06","22:00","15.4","","10.7","","74","","31","","17","","25.0","","98.81","","","","","","Mostly Cloudy"
"1989-08-06 23:00","1989","08","06","23:00","14.1","","10.5","","79","","32","","13","","19.3","","98.87","","","","","","Cloudy"
"1989-08-07 00:00","1989","08","07","00:00","14.1","","9.8","","75","","32","","17","","19.3","","98.91","","","","","","Cloudy"
"1989-08-07 01:00","1989","08","07","01:00","13.9","","9.4","","74","","33","","15","","19.3","","98.94","","","","","","Cloudy"
"1989-08-07 02:00","1989","08","07","02:00","12.7","","8.9","","78","","32","","13","","17.7","","98.94","","","","","","Cloudy"
"1989-08-07 03:00","1989","08","07","03:00","13.1","","7.9","","71","","32","","13","","19.3","","98.97","","","","","","Cloudy"
"1989-08-07 04:00","1989","08","07","04:00","12.8","","9.1","","78","","36","","11","","25.0","","98.97","","","","","","Cloudy"
"1989-08-07 05:00","1989","08","07","05:00","12.2","","8.7","","79","","33","","6","","25.0","","99.01","","","","","","Mostly Cloudy"
"1989-08-07 06:00","1989","08","07","06:00","12.8","","7.9","","72","","30","","7","","32.2","","99.04","","","","","","Mostly Cloudy"
"1989-08-07 07:00","1989","08","07","07:00","12.7","","8.1","","74","","34","","7","","40.2","","99.04","","","","","","Mostly Cloudy"
"1989-08-07 08:00","1989","08","07","08:00","12.7","","7.7","","72","","33","","7","","40.2","","99.04","","","","","","Mostly Cloudy"
"1989-08-07 09:00","1989","08","07","09:00","13.2","","7.4","","68","","34","","7","","40.2","","99.07","","","","","","Mostly Cloudy"
"1989-08-07 10:00","1989","08","07","10:00","13.6","","7.6","","67","","34","","7","","40.2","","99.14","","","","","","Mostly Cloudy"
"1989-08-07 11:00","1989","08","07","11:00","13.4","","8.0","","70","","36","","7","","24.1","","99.17","","","","","","Cloudy"
"1989-08-07 12:00","1989","08","07","12:00","14.0","","8.6","","70","","34","","7","","40.2","","99.14","","","","","","Mostly Cloudy"
"1989-08-07 13:00","1989","08","07","13:00","14.5","","8.0","","65","","2","","9","","40.2","","99.11","","","","","","Mostly Cloudy"
"1989-08-07 14:00","1989","08","07","14:00","15.0","","9.0","","67","","36","","7","","40.2","","99.07","","","","","","Mostly Cloudy"
"1989-08-07 15:00","1989","08","07","15:00","14.9","","7.7","","62","","35","","7","","40.2","","99.07","","","","","","Mostly Cloudy"
"1989-08-07 16:00","1989","08","07","16:00","16.2","","8.5","","60","","1","","9","","40.2","","99.04","","","","","","Mostly Cloudy"
"1989-08-07 17:00","1989","08","07","17:00","15.0","","7.7","","62","","34","","6","","40.2","","99.04","","","","","","Mostly Cloudy"
"1989-08-07 18:00","1989","08","07","18:00","15.0","","8.6","","66","","34","","7","","32.2","","99.04","","","","","","Mostly Cloudy"
"1989-08-07 19:00","1989","08","07","19:00","14.4","","8.4","","67","","36","","9","","32.2","","99.07","","","","","","Mostly Cloudy"
"1989-08-07 20:00","1989","08","07","20:00","12.8","","9.1","","78","","36","","6","","25.0","","99.07","","","","","","Mostly Cloudy"
"1989-08-07 21:00","1989","08","07","21:00","11.8","","8.7","","82","","","","0","","25.0","","99.11","","","","","","Mainly Clear"
"1989-08-07 22:00","1989","08","07","22:00","10.6","","8.3","","85","","","","0","","25.0","","99.11","","","","","","Mostly Cloudy"
"1989-08-07 23:00","1989","08","07","23:00","11.4","","7.8","","78","","","","0","","25.0","","99.11","","","","","","Mostly Cloudy"
"1989-08-08 00:00","1989","08","08","00:00","10.1","","6.9","","80","","","","0","","25.0","","99.11","","","","","","Mostly Cloudy"
"1989-08-08 01:00","1989","08","08","01:00","9.5","","6.0","","79","","","","0","","25.0","","99.04","","","","","","Mainly Clear"
"1989-08-08 02:00","1989","08","08","02:00","9.1","","5.9","","80","","","","0","","25.0","","99.04","","","","","","Clear"
"1989-08-08 03:00","1989","08","08","03:00","8.4","","6.6","","89","","","","0","","25.0","","99.07","","","","","","Mostly Cloudy"
"1989-08-08 04:00","1989","08","08","04:00","7.9","","6.4","","90","","","","0","","25.0","","99.11","","","","","","Mainly Clear"
"1989-08-08 05:00","1989","08","08","05:00","7.1","","5.8","","91","","","","0","","25.0","","99.11","","","","","","Clear"
"1989-08-08 06:00","1989","08","08","06:00","7.7","","6.3","","91","","","","0","","40.2","","99.14","","","","","","Clear"
"1989-08-08 07:00","1989","08","08","07:00","10.9","","8.4","","85","","","","0","","40.2","","99.14","","","","","","Clear"
"1989-08-08 08:00","1989","08","08","08:00","12.9","","7.9","","72","","","","0","","40.2","","99.21","","","","","","Clear"
"1989-08-08 09:00","1989","08","08","09:00","14.9","","7.7","","62","","","","0","","40.2","","99.24","","","","","","Mainly Clear"
"1989-08-08 10:00","1989","08","08","10:00","15.9","","7.7","","58","","27","","6","","40.2","","99.31","","","","","","Mainly Clear"
"1989-08-08 11:00","1989","08","08","11:00","17.5","","6.5","","48","","","","0","","40.2","","99.31","","","","","","Mostly Cloudy"
"1989-08-08 12:00","1989","08","08","12:00","17.5","","7.4","","51","","","","0","","40.2","","99.34","","","","","","Mostly Cloudy"
"1989-08-08 13:00","1989","08","08","13:00","18.1","","6.2","","46","","36","","9","","40.2","","99.34","","","","","","Mostly Cloudy"
"1989-08-08 14:00","1989","08","08","14:00","18.2","","6.2","","45","","","","0","","32.2","","99.37","","","","","","Mostly Cloudy"
"1989-08-08 15:00","1989","08","08","15:00","18.0","","7.6","","51","","","","0","","32.2","","99.41","","","","","","Mostly Cloudy"
"1989-08-08 16:00","1989","08","08","16:00","19.0","","7.6","","48","","27","","4","","32.2","","99.41","","","","","","Mostly Cloudy"
"1989-08-08 17:00","1989","08","08","17:00","19.9","","7.1","","44","","","","0","","32.2","","99.41","","","","","","Mainly Clear"
"1989-08-08 18:00","1989","08","08","18:00","18.4","","8.7","","53","","16","","4","","32.2","","99.47","","","","","","Mainly Clear"
"1989-08-08 19:00","1989","08","08","19:00","17.0","","8.1","","56","","16","","4","","32.2","","99.51","","","","","","Mainly Clear"
"1989-08-08 20:00","1989","08","08","20:00","16.4","","7.4","","55","","","","0","","25.0","","99.54","","","","","","Mainly Clear"
"1989-08-08 21:00","1989","08","08","21:00","15.7","","7.0","","56","","","","0","","25.0","","99.57","","","","","","Clear"
"1989-08-08 22:00","1989","08","08","22:00","13.8","","7.8","","67","","","","0","","25.0","","99.64","","","","","","Clear"
"1989-08-08 23:00","1989","08","08","23:00","11.9","","8.3","","79","","28","","4","","25.0","","99.71","","","","","","Clear"
"1989-08-09 00:00","1989","08","09","00:00","10.7","","7.1","","78","","26","","4","","25.0","","99.74","","","","","","Clear"
"1989-08-09 01:00","1989","08","09","01:00","10.7","","7.1","","78","","25","","4","","25.0","","99.77","","","","","","Clear"
"1989-08-09 02:00","1989","08","09","02:00","11.1","","7.2","","77","","","","0","","25.0","","99.81","","","","","","Mainly Clear"
"1989-08-09 03:00","1989","08","09","03:00","10.0","","7.4","","84","","30","","4","","25.0","","99.84","","","","","","Mainly Clear"
"1989-08-09 04:00","1989","08","09","04:00","11.0","","7.2","","78","","30","","4","","25.0","","99.87","","","","","","Clear"
"1989-08-09 05:00","1989","08","09","05:00","11.1","","6.8","","75","","","","0","","25.0","","99.91","","","","","","Mainly Clear"
"1989-08-09 06:00","1989","08","09","06:00","12.3","","8.5","","78","","","","0","","32.2","","99.97","","","","","","Mostly Cloudy"
"1989-08-09 07:00","1989","08","09","07:00","14.0","","8.6","","70","","15","","4","","24.1","","100.01","","","","","","Mostly Cloudy"
"1989-08-09 08:00","1989","08","09","08:00","15.5","","9.1","","66","","","","0","","24.1","","100.07","","","","","","Mostly Cloudy"
"1989-08-09 09:00","1989","08","09","09:00","18.5","","11.5","","64","","21","","13","","19.3","","100.11","","","","","","Mostly Cloudy"
"1989-08-09 10:00","1989","08","09","10:00","20.0","","12.1","","60","","23","","13","","24.1","","100.11","","","","","","Mostly Cloudy"
"1989-08-09 11:00","1989","08","09","11:00","21.0","","11.4","","54","","24","","15","","24.1","","100.14","","","","","","Mostly Cloudy"
"1989-08-09 12:00","1989","08","09","12:00","22.0","","11.1","","50","","19","","11","","32.2","","100.11","","","","","","Mostly Cloudy"
"1989-08-09 13:00","1989","08","09","13:00","22.5","","10.1","","45","","18","","13","","32.2","","100.11","","","","","","Mainly Clear"
"1989-08-09 14:00","1989","08","09","14:00","23.4","","10.2","","43","","17","","15","","32.2","","100.07","","25","","","","Mainly Clear"
"1989-08-09 15:00","1989","08","09","15:00","22.9","","9.9","","44","","16","","11","","32.2","","100.01","","","","","","Mainly Clear"
"1989-08-09 16:00","1989","08","09","16:00","23.1","","10.8","","46","","17","","13","","32.2","","100.01","","25","","","","Mainly Clear"
"1989-08-09 17:00","1989","08","09","17:00","22.8","","9.5","","43","","17","","13","","32.2","","100.01","","","","","","Mainly Clear"
"1989-08-09 18:00","1989","08","09","18:00","22.7","","9.2","","42","","20","","9","","32.2","","100.01","","","","","","Clear"
"1989-08-09 19:00","1989","08","09","19:00","21.7","","7.8","","41","","18","","9","","32.2","","100.01","","","","","","Mainly Clear"
"1989-08-09 20:00","1989","08","09","20:00","20.0","","8.0","","46","","18","","7","","25.0","","100.04","","","","","","Mainly Clear"
"1989-08-09 21:00","1989","08","09","21:00","20.0","","8.5","","48","","17","","4","","25.0","","100.11","","","","","","Mostly Cloudy"
"1989-08-09 22:00","1989","08","09","22:00","20.3","","8.7","","47","","18","","4","","25.0","","100.11","","","","","","Mostly Cloudy"
"1989-08-09 23:00","1989","08","09","23:00","19.0","","9.3","","53","","14","","4","","25.0","","100.17","","","","","","Mostly Cloudy"
"1989-08-10 00:00","1989","08","10","00:00","17.9","","9.7","","59","","","","0","","25.0","","100.17","","","","","","Mostly Cloudy"
"1989-08-10 01:00","1989","08","10","01:00","18.1","","9.3","","56","","","","0","","19.3","","100.17","","","","","","Cloudy"
"1989-08-10 02:00","1989","08","10","02:00","18.7","","9.5","","55","","","","0","","19.3","","100.17","","","","","","Cloudy"
"1989-08-10 03:00","1989","08","10","03:00","18.6","","10.7","","60","","","","0","","17.7","","100.17","","","","","","Mostly Cloudy"
"1989-08-10 04:00","1989","08","10","04:00","18.1","","10.9","","63","","","","0","","17.7","","100.21","","","","","","Mostly Cloudy"
"1989-08-10 05:00","1989","08","10","05:00","17.0","","11.6","","71","","15","","4","","16.1","","100.21","","","","","","Mainly Clear"
"1989-08-10 06:00","1989","08","10","06:00","16.0","","12.7","","81","","15","","4","","9.7","","100.27","","","","","","Haze"
"1989-08-10 07:00","1989","08","10","07:00","17.3","","14.3","","83","","15","","4","","9.7","","100.34","","","","","","Haze"
"1989-08-10 08:00","1989","08","10","08:00","19.7","","14.4","","71","","19","","4","","16.1","","100.34","","","","","","Mainly Clear"
"1989-08-10 09:00","1989","08","10","09:00","21.4","","16.0","","71","","20","","7","","16.1","","100.37","","26","","","","Clear"
"1989-08-10 10:00","1989","08","10","10:00","23.9","","16.5","","63","","19","","9","","16.1","","100.34","","29","","","","Mainly Clear"
"1989-08-10 11:00","1989","08","10","11:00","23.9","","15.8","","61","","19","","4","","16.1","","100.31","","28","","","","Mainly Clear"
"1989-08-10 12:00","1989","08","10","12:00","20.0","","16.0","","78","","26","","13","","16.1","","100.31","","25","","","","Rain Showers"
"1989-08-10 13:00","1989","08","10","13:00","22.5","","16.4","","68","","15","","7","","16.1","","100.27","","27","","","","Mostly Cloudy"
"1989-08-10 14:00","1989","08","10","14:00","25.3","","16.8","","59","","18","","11","","12.9","","100.24","","30","","","","Mainly Clear"
"1989-08-10 15:00","1989","08","10","15:00","23.7","","15.5","","60","","16","","9","","19.3","","100.21","","28","","","","Mostly Cloudy"
"1989-08-10 16:00","1989","08","10","16:00","24.1","","15.1","","57","","16","","13","","12.9","","100.17","","28","","","","Mostly Cloudy"
"1989-08-10 17:00","1989","08","10","17:00","24.4","","15.0","","56","","20","","13","","16.1","","100.17","","28","","","","Mainly Clear"
"1989-08-10 18:00","1989","08","10","18:00","23.8","","15.1","","58","","20","","13","","16.1","","100.17","","28","","","","Mainly Clear"
"1989-08-10 19:00","1989","08","10","19:00","23.3","","14.8","","59","","20","","11","","16.1","","100.21","","27","","","","Mainly Clear"
"1989-08-10 20:00","1989","08","10","20:00","22.4","","15.1","","63","","22","","9","","16.1","","100.21","","26","","","","Mainly Clear"
"1989-08-10 21:00","1989","08","10","21:00","20.6","","14.9","","70","","22","","4","","16.1","","100.21","","25","","","","Mostly Cloudy"
"1989-08-10 22:00","1989","08","10","22:00","21.1","","15.4","","70","","23","","4","","16.1","","100.24","","25","","","","Mostly Cloudy"
"1989-08-10 23:00","1989","08","10","23:00","20.4","","15.9","","75","","","","0","","19.3","","100.27","","25","","","","Clear"
"1989-08-11 00:00","1989","08","11","00:00","19.5","","15.5","","78","","","","0","","14.5","","100.27","","","","","","Clear"
"1989-08-11 01:00","1989","08","11","01:00","19.0","","15.3","","79","","","","0","","14.5","","100.24","","","","","","Clear"
"1989-08-11 02:00","1989","08","11","02:00","17.5","","15.3","","87","","","","0","","12.9","","100.21","","","","","","Clear"
"1989-08-11 03:00","1989","08","11","03:00","16.4","","14.9","","91","","","","0","","9.7","","100.24","","","","","","Fog"
"1989-08-11 04:00","1989","08","11","04:00","17.1","","14.8","","86","","","","0","","9.7","","100.27","","","","","","Fog"
"1989-08-11 05:00","1989","08","11","05:00","15.1","","14.0","","93","","31","","4","","6.4","","100.24","","","","","","Fog"
"1989-08-11 06:00","1989","08","11","06:00","15.5","","14.5","","94","","34","","4","","4.8","","100.27","","","","","","Fog"
"1989-08-11 07:00","1989","08","11","07:00","16.9","","15.4","","91","","1","","4","","4.8","","100.27","","","","","","Fog"
"1989-08-11 08:00","1989","08","11","08:00","18.0","","16.1","","89","","","","0","","6.4","","100.31","","","","","","Fog"
"1989-08-11 09:00","1989","08","11","09:00","21.4","","16.3","","73","","","","0","","8.0","","100.31","","26","","","","Haze"
"1989-08-11 10:00","1989","08","11","10:00","23.7","","15.9","","62","","","","0","","9.7","","100.31","","28","","","","Haze"
"1989-08-11 11:00","1989","08","11","11:00","24.7","","14.2","","52","","19","","4","","11.3","","100.31","","28","","","","Mostly Cloudy"
"1989-08-11 12:00","1989","08","11","12:00","24.8","","15.6","","57","","16","","7","","11.3","","100.27","","29","","","","Cloudy"
"1989-08-11 13:00","1989","08","11","13:00","24.4","","14.6","","54","","14","","7","","12.9","","100.27","","28","","","","Cloudy"
"1989-08-11 14:00","1989","08","11","14:00","24.9","","13.3","","49","","14","","7","","16.1","","100.24","","28","","","","Cloudy"
"1989-08-11 15:00","1989","08","11","15:00","25.4","","14.7","","52","","20","","4","","16.1","","100.17","","29","","","","Cloudy"
"1989-08-11 16:00","1989","08","11","16:00","25.2","","14.1","","50","","","","0","","16.1","","100.14","","29","","","","Cloudy"
"1989-08-11 17:00","1989","08","11","17:00","24.9","","14.1","","51","","","","0","","16.1","","100.07","","28","","","","Cloudy"
"1989-08-11 18:00","1989","08","11","18:00","24.8","","13.7","","50","","","","0","","16.1","","100.04","","28","","","","Cloudy"
"1989-08-11 19:00","1989","08","11","19:00","23.4","","13.4","","53","","16","","4","","16.1","","100.04","","26","","","","Mostly Cloudy"
"1989-08-11 20:00","1989","08","11","20:00","22.5","","12.9","","55","","","","0","","16.1","","100.07","","25","","","","Cloudy"
"1989-08-11 21:00","1989","08","11","21:00","21.4","","13.5","","61","","17","","4","","16.1","","100.11","","","","","","Cloudy"
"1989-08-11 22:00","1989","08","11","22:00","20.1","","14.3","","69","","","","0","","16.1","","100.11","","","","","","Cloudy"
"1989-08-11 23:00","1989","08","11","23:00","19.9","","14.3","","70","","","","0","","19.3","","100.14","","","","","","Cloudy"
"1989-08-12 00:00","1989","08","12","00:00","19.3","","14.1","","72","","","","0","","16.1","","100.11","","","","","","Cloudy"
"1989-08-12 01:00","1989","08","12","01:00","18.5","","14.0","","75","","","","0","","12.9","","100.11","","","","","","Cloudy"
"1989-08-12 02:00","1989","08","12","02:00","18.9","","13.9","","73","","","","0","","12.9","","100.07","","","","","","Cloudy"
"1989-08-12 03:00","1989","08","12","03:00","17.0","","15.8","","93","","33","","7","","11.3","","100.04","","","","","","Cloudy"
"1989-08-12 04:00","1989","08","12","04:00","18.3","","16.3","","88","","1","","7","","11.3","","100.01","","","","","","Cloudy"
"1989-08-12 05:00","1989","08","12","05:00","17.2","","16.4","","95","","32","","7","","6.4","","100.04","","","","","","Fog"
"1989-08-12 06:00","1989","08","12","06:00","17.3","","16.3","","94","","34","","9","","4.8","","100.07","","","","","","Fog"
"1989-08-12 07:00","1989","08","12","07:00","18.4","","16.7","","90","","32","","7","","6.4","","100.07","","","","","","Fog"
"1989-08-12 08:00","1989","08","12","08:00","20.8","","16.8","","78","","36","","6","","11.3","","100.11","","26","","","","Mostly Cloudy"
"1989-08-12 09:00","1989","08","12","09:00","23.7","","17.2","","67","","1","","6","","16.1","","100.11","","29","","","","Mainly Clear"
"1989-08-12 10:00","1989","08","12","10:00","25.4","","16.2","","57","","33","","4","","16.1","","100.11","","30","","","","Mainly Clear"
"1989-08-12 11:00","1989","08","12","11:00","26.7","","15.9","","52","","","","0","","16.1","","100.04","","31","","","","Mostly Cloudy"
"1989-08-12 12:00","1989","08","12","12:00","26.7","","15.9","","52","","14","","9","","14.5","","100.01","","31","","","","Mainly Clear"
"1989-08-12 13:00","1989","08","12","13:00","26.5","","15.2","","50","","14","","9","","16.1","","99.94","","31","","","","Mostly Cloudy"
"1989-08-12 14:00","1989","08","12","14:00","24.4","","16.4","","61","","33","","7","","16.1","","99.94","","29","","","","Mostly Cloudy"
"1989-08-12 15:00","1989","08","12","15:00","24.9","","16.6","","60","","29","","4","","16.1","","99.87","","30","","","","Mostly Cloudy"
"1989-08-12 16:00","1989","08","12","16:00","25.3","","16.2","","57","","15","","7","","19.3","","99.87","","30","","","","Mostly Cloudy"
"1989-08-12 17:00","1989","08","12","17:00","25.1","","13.7","","49","","12","","9","","24.1","","99.84","","28","","","","Mostly Cloudy"
"1989-08-12 18:00","1989","08","12","18:00","24.4","","13.9","","52","","15","","9","","24.1","","99.81","","28","","","","Mostly Cloudy"
"1989-08-12 19:00","1989","08","12","19:00","23.1","","13.9","","56","","12","","7","","19.3","","99.81","","26","","","","Mostly Cloudy"
"1989-08-12 20:00","1989","08","12","20:00","22.0","","14.5","","62","","13","","6","","16.1","","99.81","","26","","","","Mainly Clear"
"1989-08-12 21:00","1989","08","12","21:00","21.8","","14.8","","64","","12","","6","","11.3","","99.84","","26","","","","Mainly Clear"
"1989-08-12 22:00","1989","08","12","22:00","20.9","","15.4","","71","","11","","4","","11.3","","99.84","","25","","","","Mainly Clear"
"1989-08-12 23:00","1989","08","12","23:00","19.5","","15.5","","78","","","","0","","11.3","","99.84","","","","","","Mainly Clear"
"1989-08-13 00:00","1989","08","13","00:00","17.2","","14.8","","86","","","","0","","11.3","","99.84","","","","","","Mainly Clear"
"1989-08-13 01:00","1989","08","13","01:00","17.3","","15.6","","90","","4","","4","","8.0","","99.77","","","","","","Fog"
"1989-08-13 02:00","1989","08","13","02:00","16.6","","15.2","","92","","","","0","","8.0","","99.77","","","","","","Fog"
"1989-08-13 03:00","1989","08","13","03:00","15.9","","15.0","","94","","32","","6","","8.0","","99.77","","","","","","Fog"
"1989-08-13 04:00","1989","08","13","04:00","16.4","","15.6","","95","","","","0","","8.0","","99.77","","","","","","Fog"
"1989-08-13 05:00","1989","08","13","05:00","15.8","","15.0","","95","","","","0","","6.4","","99.77","","","","","","Fog"
"1989-08-13 06:00","1989","08","13","06:00","15.5","","14.5","","94","","","","0","","2.0","","99.81","","","","","","Fog"
"1989-08-13 07:00","1989","08","13","07:00","17.2","","15.8","","91","","29","","6","","4.0","","99.84","","","","","","Fog"
"1989-08-13 08:00","1989","08","13","08:00","18.1","","16.5","","90","","34","","4","","4.0","","99.84","","","","","","Fog"
"1989-08-13 09:00","1989","08","13","09:00","21.0","","18.0","","83","","11","","2","","4.8","","99.81","","27","","","","Haze"
"1989-08-13 10:00","1989","08","13","10:00","22.8","","18.0","","74","","17","","2","","8.0","","99.81","","29","","","","Haze"
"1989-08-13 11:00","1989","08","13","11:00","24.2","","16.5","","62","","","","0","","11.3","","99.77","","29","","","","Mostly Cloudy"
"1989-08-13 12:00","1989","08","13","12:00","26.1","","17.4","","59","","14","","6","","12.9","","99.77","","32","","","","Mostly Cloudy"
"1989-08-13 13:00","1989","08","13","13:00","25.4","","17.2","","61","","13","","7","","12.9","","99.71","","31","","","","Mostly Cloudy"
"1989-08-13 14:00","1989","08","13","14:00","25.7","","16.8","","58","","15","","6","","12.9","","99.64","","31","","","","Mostly Cloudy"
"1989-08-13 15:00","1989","08","13","15:00","21.7","","19.2","","86","","34","","13","","6.4","","99.67","","29","","","","Thunderstorms,Moderate Rain Showers,Fog"
"1989-08-13 16:00","1989","08","13","16:00","19.5","","15.1","","76","","16","","11","","11.3","","99.67","","","","","","Thunderstorms,Rain Showers"
"1989-08-13 17:00","1989","08","13","17:00","21.0","","15.4","","70","","33","","9","","19.3","","99.67","","25","","","","Mostly Cloudy"
"1989-08-13 18:00","1989","08","13","18:00","20.5","","14.9","","70","","28","","6","","24.1","","99.64","","","","","","Mostly Cloudy"
"1989-08-13 19:00","1989","08","13","19:00","19.6","","15.8","","79","","27","","7","","24.1","","99.64","","","","","","Mostly Cloudy"
"1989-08-13 20:00","1989","08","13","20:00","19.3","","14.1","","72","","27","","7","","25.0","","99.64","","","","","","Mostly Cloudy"
"1989-08-13 21:00","1989","08","13","21:00","19.3","","14.8","","75","","12","","6","","25.0","","99.67","","","","","","Mostly Cloudy"
"1989-08-13 22:00","1989","08","13","22:00","17.8","","15.2","","85","","","","0","","25.0","","99.74","","","","","","Mostly Cloudy"
"1989-08-13 23:00","1989","08","13","23:00","17.0","","15.1","","89","","","","0","","25.0","","99.74","","","","","","Mostly Cloudy"
"1989-08-14 00:00","1989","08","14","00:00","17.8","","15.2","","85","","","","0","","11.3","","99.77","","","","","","Mainly Clear"
"1989-08-14 01:00","1989","08","14","01:00","16.2","","14.4","","89","","","","0","","11.3","","99.74","","","","","","Mainly Clear"
"1989-08-14 02:00","1989","08","14","02:00","15.2","","14.0","","92","","","","0","","11.3","","99.74","","","","","","Mainly Clear"
"1989-08-14 03:00","1989","08","14","03:00","14.9","","14.0","","94","","","","0","","8.0","","99.71","","","","","","Fog"
"1989-08-14 04:00","1989","08","14","04:00","14.6","","13.5","","93","","","","0","","8.0","","99.71","","","","","","Fog"
"1989-08-14 05:00","1989","08","14","05:00","14.6","","13.5","","93","","","","0","","8.0","","99.74","","","","","","Fog"
"1989-08-14 06:00","1989","08","14","06:00","16.6","","14.3","","86","","","","0","","6.4","","99.77","","","","","","Fog"
"1989-08-14 07:00","1989","08","14","07:00","17.0","","15.8","","93","","","","0","","4.8","","99.81","","","","","","Fog"
"1989-08-14 08:00","1989","08","14","08:00","20.0","","17.0","","83","","22","","4","","4.0","","99.81","","25","","","","Haze"
"1989-08-14 09:00","1989","08","14","09:00","22.2","","17.8","","76","","22","","6","","4.8","","99.77","","28","","","","Haze"
"1989-08-14 10:00","1989","08","14","10:00","24.6","","17.4","","64","","24","","7","","8.0","","99.77","","30","","","","Haze"
"1989-08-14 11:00","1989","08","14","11:00","26.7","","18.0","","59","","22","","6","","9.7","","99.74","","33","","","","Haze"
"1989-08-14 12:00","1989","08","14","12:00","26.3","","19.3","","65","","13","","11","","9.7","","99.71","","33","","","","Haze"
"1989-08-14 13:00","1989","08","14","13:00","26.5","","18.0","","60","","17","","9","","9.7","","99.64","","33","","","","Haze"
"1989-08-14 14:00","1989","08","14","14:00","24.4","","18.3","","69","","17","","13","","11.3","","99.61","","31","","","","Moderate Rain Showers"
"1989-08-14 15:00","1989","08","14","15:00","25.0","","18.3","","66","","13","","11","","11.3","","99.57","","31","","","","Mostly Cloudy"
"1989-08-14 16:00","1989","08","14","16:00","24.8","","17.6","","64","","15","","11","","16.1","","99.51","","31","","","","Mainly Clear"
"1989-08-14 17:00","1989","08","14","17:00","22.5","","16.4","","68","","17","","11","","11.3","","99.44","","27","","","","Rain Showers"
"1989-08-14 18:00","1989","08","14","18:00","23.8","","18.1","","71","","14","","6","","16.1","","99.44","","30","","","","Mostly Cloudy"
"1989-08-14 19:00","1989","08","14","19:00","22.0","","17.5","","76","","4","","6","","16.1","","99.47","","28","","","","Mainly Clear"
"1989-08-14 20:00","1989","08","14","20:00","21.0","","17.1","","78","","","","0","","11.3","","99.51","","26","","","","Clear"
"1989-08-14 21:00","1989","08","14","21:00","21.9","","17.5","","76","","12","","4","","11.3","","99.51","","28","","","","Clear"
"1989-08-14 22:00","1989","08","14","22:00","20.9","","17.4","","80","","","","0","","9.7","","99.47","","26","","","","Haze"
"1989-08-14 23:00","1989","08","14","23:00","19.6","","16.1","","80","","","","0","","9.7","","99.47","","","","","","Haze"
"1989-08-15 00:00","1989","08","15","00:00","19.7","","14.8","","73","","","","0","","9.7","","99.44","","","","","","Haze"
"1989-08-15 01:00","1989","08","15","01:00","17.5","","14.6","","83","","","","0","","9.7","","99.37","","","","","","Haze"
"1989-08-15 02:00","1989","08","15","02:00","18.5","","14.4","","77","","20","","4","","9.7","","99.34","","","","","","Haze"
"1989-08-15 03:00","1989","08","15","03:00","17.0","","14.1","","83","","","","0","","9.7","","99.31","","","","","","Haze"
"1989-08-15 04:00","1989","08","15","04:00","15.9","","14.4","","91","","","","0","","8.0","","99.31","","","","","","Fog"
"1989-08-15 05:00","1989","08","15","05:00","17.6","","14.3","","81","","","","0","","8.0","","99.27","","","","","","Haze"
"1989-08-15 06:00","1989","08","15","06:00","17.7","","14.6","","82","","","","0","","4.8","","99.24","","","","","","Haze"
"1989-08-15 07:00","1989","08","15","07:00","18.5","","15.4","","82","","","","0","","6.4","","99.31","","","","","","Haze"
"1989-08-15 08:00","1989","08","15","08:00","19.8","","17.0","","84","","15","","6","","4.8","","99.24","","","","","","Haze"
"1989-08-15 09:00","1989","08","15","09:00","20.7","","17.2","","80","","18","","6","","4.8","","99.24","","26","","","","Haze"
"1989-08-15 10:00","1989","08","15","10:00","22.3","","18.7","","80","","24","","4","","4.8","","99.24","","29","","","","Haze"
"1989-08-15 11:00","1989","08","15","11:00","23.7","","18.2","","71","","28","","9","","6.4","","99.24","","30","","","","Haze"
"1989-08-15 12:00","1989","08","15","12:00","21.6","","18.6","","83","","21","","4","","4.8","","99.24","","28","","","","Thunderstorms,Moderate Rain Showers,Fog"
"1989-08-15 13:00","1989","08","15","13:00","22.7","","20.2","","86","","","","0","","4.8","","99.11","","30","","","","Haze"
"1989-08-15 14:00","1989","08","15","14:00","21.8","","19.1","","85","","19","","6","","4.8","","99.11","","29","","","","Thunderstorms,Rain Showers,Haze"
"1989-08-15 15:00","1989","08","15","15:00","21.7","","18.2","","81","","","","0","","4.8","","99.04","","28","","","","Thunderstorms,Haze"
"1989-08-15 16:00","1989","08","15","16:00","18.6","","15.7","","83","","19","","7","","16.1","","98.94","","","","","","Thunderstorms,Rain Showers"
"1989-08-15 17:00","1989","08","15","17:00","19.0","","16.9","","88","","22","","7","","11.3","","98.97","","","","","","Thunderstorms,Rain Showers"
"1989-08-15 18:00","1989","08","15","18:00","18.5","","16.3","","87","","19","","7","","19.3","","98.97","","","","","","Rain Showers"
"1989-08-15 19:00","1989","08","15","19:00","18.5","","17.0","","91","","20","","11","","11.3","","99.01","","","","","","Rain Showers"
"1989-08-15 20:00","1989","08","15","20:00","18.3","","17.6","","96","","23","","4","","8.0","","99.04","","","","","","Fog"
"1989-08-15 21:00","1989","08","15","21:00","18.0","","17.1","","95","","27","","4","","6.4","","99.07","","","","","","Fog"
"1989-08-15 22:00","1989","08","15","22:00","18.0","","17.1","","95","","","","0","","6.4","","99.04","","","","","","Fog"
"1989-08-15 23:00","1989","08","15","23:00","16.8","","16.4","","98","","28","","4","","8.0","","99.07","","","","","","Fog"
"1989-08-16 00:00","1989","08","16","00:00","16.4","","15.6","","95","","28","","6","","19.3","","99.04","","","","","","Mainly Clear"
"1989-08-16 01:00","1989","08","16","01:00","16.2","","15.0","","92","","27","","6","","16.1","","99.07","","","","","","Mainly Clear"
"1989-08-16 02:00","1989","08","16","02:00","15.1","","14.4","","95","","27","","4","","16.1","","99.07","","","","","","Clear"
"1989-08-16 03:00","1989","08","16","03:00","15.2","","14.4","","95","","27","","6","","16.1","","99.11","","","","","","Mainly Clear"
"1989-08-16 04:00","1989","08","16","04:00","14.9","","14.4","","97","","27","","6","","19.3","","99.11","","","","","","Mainly Clear"
"1989-08-16 05:00","1989","08","16","05:00","14.8","","14.0","","95","","28","","6","","25.0","","99.11","","","","","","Mainly Clear"
"1989-08-16 06:00","1989","08","16","06:00","14.9","","14.4","","97","","26","","6","","24.1","","99.14","","","","","","Mainly Clear"
"1989-08-16 07:00","1989","08","16","07:00","17.3","","16.3","","94","","28","","6","","32.2","","99.21","","","","","","Mostly Cloudy"
"1989-08-16 08:00","1989","08","16","08:00","19.1","","14.9","","77","","32","","11","","40.2","","99.24","","","","","","Clear"
"1989-08-16 09:00","1989","08","16","09:00","20.0","","15.0","","73","","33","","7","","40.2","","99.31","","","","","","Mainly Clear"
"1989-08-16 10:00","1989","08","16","10:00","21.3","","14.6","","66","","32","","9","","40.2","","99.31","","25","","","","Mainly Clear"
"1989-08-16 11:00","1989","08","16","11:00","21.5","","13.2","","59","","34","","11","","40.2","","99.34","","","","","","Mostly Cloudy"
"1989-08-16 12:00","1989","08","16","12:00","22.3","","12.1","","53","","34","","9","","40.2","","99.34","","25","","","","Mostly Cloudy"
"1989-08-16 13:00","1989","08","16","13:00","23.3","","12.2","","50","","2","","9","","32.2","","99.34","","26","","","","Mostly Cloudy"
"1989-08-16 14:00","1989","08","16","14:00","23.0","","11.6","","49","","35","","11","","32.2","","99.34","","25","","","","Mostly Cloudy"
"1989-08-16 15:00","1989","08","16","15:00","23.2","","10.3","","44","","33","","11","","32.2","","99.31","","25","","","","Mostly Cloudy"
"1989-08-16 16:00","1989","08","16","16:00","23.6","","10.6","","44","","35","","9","","32.2","","99.31","","25","","","","Mostly Cloudy"
"1989-08-16 17:00","1989","08","16","17:00","23.4","","11.0","","46","","1","","7","","32.2","","99.31","","25","","","","Mostly Cloudy"
"1989-08-16 18:00","1989","08","16","18:00","22.2","","10.3","","47","","35","","7","","32.2","","99.31","","","","","","Mostly Cloudy"
"1989-08-16 19:00","1989","08","16","19:00","21.0","","9.4","","47","","36","","7","","32.2","","99.34","","","","","","Mainly Clear"
"1989-08-16 20:00","1989","08","16","20:00","19.0","","10.5","","58","","1","","6","","25.0","","99.41","","","","","","Mainly Clear"
"1989-08-16 21:00","1989","08","16","21:00","19.0","","10.1","","56","","36","","9","","25.0","","99.51","","","","","","Mainly Clear"
"1989-08-16 22:00","1989","08","16","22:00","15.2","","10.5","","73","","33","","6","","25.0","","99.57","","","","","","Mainly Clear"
"1989-08-16 23:00","1989","08","16","23:00","15.2","","10.9","","75","","31","","4","","25.0","","99.61","","","","","","Mainly Clear"
"1989-08-17 00:00","1989","08","17","00:00","14.1","","10.5","","79","","","","0","","25.0","","99.61","","","","","","Mainly Clear"
"1989-08-17 01:00","1989","08","17","01:00","13.1","","10.2","","83","","34","","6","","25.0","","99.61","","","","","","Mainly Clear"
"1989-08-17 02:00","1989","08","17","02:00","12.5","","9.7","","83","","34","","6","","25.0","","99.61","","","","","","Mainly Clear"
"1989-08-17 03:00","1989","08","17","03:00","12.0","","10.2","","89","","33","","6","","25.0","","99.64","","","","","","Clear"
"1989-08-17 04:00","1989","08","17","04:00","13.1","","11.6","","91","","33","","7","","25.0","","99.71","","","","","","Clear"
"1989-08-17 05:00","1989","08","17","05:00","13.7","","12.2","","91","","35","","9","","25.0","","99.77","","","","","","Mainly Clear"
"1989-08-17 06:00","1989","08","17","06:00","13.6","","12.2","","91","","34","","7","","24.1","","99.84","","","","","","Mainly Clear"
"1989-08-17 07:00","1989","08","17","07:00","14.4","","12.5","","88","","35","","9","","40.2","","99.94","","","","","","Mainly Clear"
"1989-08-17 08:00","1989","08","17","08:00","16.0","","13.0","","82","","1","","11","","40.2","","100.01","","","","","","Mainly Clear"
"1989-08-17 09:00","1989","08","17","09:00","16.8","","12.7","","77","","34","","11","","40.2","","100.07","","","","","","Clear"
"1989-08-17 10:00","1989","08","17","10:00","17.9","","12.4","","70","","1","","9","","40.2","","100.11","","","","","","Mainly Clear"
"1989-08-17 11:00","1989","08","17","11:00","19.3","","10.4","","56","","1","","17","","40.2","","100.17","","","","","","Mostly Cloudy"
"1989-08-17 12:00","1989","08","17","12:00","19.4","","10.0","","55","","3","","11","","40.2","","100.17","","","","","","Mainly Clear"
"1989-08-17 13:00","1989","08","17","13:00","20.0","","8.9","","49","","32","","7","","40.2","","100.17","","","","","","Clear"
"1989-08-17 14:00","1989","08","17","14:00","19.6","","8.3","","48","","5","","9","","40.2","","100.17","","","","","","Mainly Clear"
"1989-08-17 15:00","1989","08","17","15:00","20.5","","9.1","","48","","2","","7","","40.2","","100.14","","","","","","Mainly Clear"
"1989-08-17 16:00","1989","08","17","16:00","21.0","","8.5","","45","","36","","6","","40.2","","100.17","","","","","","Mainly Clear"
"1989-08-17 17:00","1989","08","17","17:00","20.8","","9.8","","49","","1","","9","","40.2","","100.17","","","","","","Mainly Clear"
"1989-08-17 18:00","1989","08","17","18:00","19.9","","8.0","","46","","2","","9","","40.2","","100.21","","","","","","Mainly Clear"
"1989-08-17 19:00","1989","08","17","19:00","18.5","","8.3","","51","","36","","7","","40.2","","100.21","","","","","","Mainly Clear"
"1989-08-17 20:00","1989","08","17","20:00","17.2","","8.5","","57","","1","","6","","25.0","","100.27","","","","","","Mainly Clear"
"1989-08-17 21:00","1989","08","17","21:00","16.5","","8.7","","60","","2","","6","","25.0","","100.31","","","","","","Mainly Clear"
"1989-08-17 22:00","1989","08","17","22:00","14.4","","10.0","","75","","35","","9","","25.0","","100.41","","","","","","Mainly Clear"
"1989-08-17 23:00","1989","08","17","23:00","13.2","","10.6","","84","","36","","7","","25.0","","100.44","","","","","","Clear"
"1989-08-18 00:00","1989","08","18","00:00","13.0","","10.6","","85","","36","","7","","25.0","","100.47","","","","","","Clear"
"1989-08-18 01:00","1989","08","18","01:00","11.9","","10.2","","90","","34","","6","","25.0","","100.51","","","","","","Clear"
"1989-08-18 02:00","1989","08","18","02:00","11.1","","9.6","","90","","35","","7","","25.0","","100.51","","","","","","Clear"
"1989-08-18 03:00","1989","08","18","03:00","11.0","","9.6","","91","","34","","7","","25.0","","100.54","","","","","","Mainly Clear"
"1989-08-18 04:00","1989","08","18","04:00","11.0","","9.6","","91","","33","","6","","25.0","","100.57","","","","","","Mainly Clear"
"1989-08-18 05:00","1989","08","18","05:00","10.7","","9.0","","89","","33","","6","","25.0","","100.57","","","","","","Mainly Clear"
"1989-08-18 06:00","1989","08","18","06:00","10.0","","8.9","","93","","2","","4","","32.2","","100.61","","","","","","Mainly Clear"
"1989-08-18 07:00","1989","08","18","07:00","13.9","","10.2","","79","","3","","6","","40.2","","100.64","","","","","","Mainly Clear"
"1989-08-18 08:00","1989","08","18","08:00","16.9","","10.5","","66","","4","","6","","40.2","","100.67","","","","","","Mostly Cloudy"
"1989-08-18 09:00","1989","08","18","09:00","20.0","","9.8","","52","","8","","7","","32.2","","100.71","","","","","","Mostly Cloudy"
"1989-08-18 10:00","1989","08","18","10:00","20.8","","10.2","","51","","9","","6","","24.1","","100.71","","","","","","Mostly Cloudy"
"1989-08-18 11:00","1989","08","18","11:00","21.0","","9.8","","49","","9","","9","","24.1","","100.71","","","","","","Mostly Cloudy"
"1989-08-18 12:00","1989","08","18","12:00","21.0","","10.6","","51","","12","","11","","24.1","","100.64","","","","","","Mostly Cloudy"
"1989-08-18 13:00","1989","08","18","13:00","21.1","","11.8","","55","","15","","13","","32.2","","100.61","","","","","","Mostly Cloudy"
"1989-08-18 14:00","1989","08","18","14:00","21.5","","11.3","","52","","7","","13","","40.2","","100.57","","","","","","Mostly Cloudy"
"1989-08-18 15:00","1989","08","18","15:00","21.6","","15.0","","66","","10","","13","","40.2","","100.54","","26","","","","Mainly Clear"
"1989-08-18 16:00","1989","08","18","16:00","22.3","","10.9","","49","","9","","17","","40.2","","100.51","","","","","","Mainly Clear"
"1989-08-18 17:00","1989","08","18","17:00","21.7","","13.2","","59","","8","","15","","40.2","","100.47","","25","","","","Mostly Cloudy"
"1989-08-18 18:00","1989","08","18","18:00","19.9","","6.6","","42","","8","","13","","40.2","","100.44","","","","","","Mostly Cloudy"
"1989-08-18 19:00","1989","08","18","19:00","19.0","","7.6","","48","","9","","7","","40.2","","100.41","","","","","","Mostly Cloudy"
"1989-08-18 20:00","1989","08","18","20:00","17.8","","9.7","","59","","9","","7","","25.0","","100.41","","","","","","Mostly Cloudy"
"1989-08-18 21:00","1989","08","18","21:00","17.4","","10.7","","65","","8","","6","","25.0","","100.37","","","","","","Mostly Cloudy"
"1989-08-18 22:00","1989","08","18","22:00","17.3","","12.2","","72","","7","","4","","25.0","","100.37","","","","","","Mainly Clear"
"1989-08-18 23:00","1989","08","18","23:00","14.4","","10.7","","79","","","","0","","25.0","","100.31","","","","","","Mainly Clear"
"1989-08-19 00:00","1989","08","19","00:00","12.2","","9.5","","83","","","","0","","25.0","","100.31","","","","","","Mainly Clear"
"1989-08-19 01:00","1989","08","19","01:00","11.4","","9.3","","87","","32","","4","","25.0","","100.24","","","","","","Mainly Clear"
"1989-08-19 02:00","1989","08","19","02:00","10.9","","9.2","","89","","33","","4","","24.1","","100.21","","","","","","Mainly Clear"
"1989-08-19 03:00","1989","08","19","03:00","10.9","","9.6","","92","","34","","6","","24.1","","100.21","","","","","","Mainly Clear"
"1989-08-19 04:00","1989","08","19","04:00","10.5","","9.4","","93","","35","","4","","19.3","","100.21","","","","","","Mostly Cloudy"
"1989-08-19 05:00","1989","08","19","05:00","10.6","","9.4","","92","","34","","4","","12.9","","100.21","","","","","","Mostly Cloudy"
"1989-08-19 06:00","1989","08","19","06:00","11.4","","10.4","","94","","34","","4","","19.3","","100.17","","","","","","Mostly Cloudy"
"1989-08-19 07:00","1989","08","19","07:00","14.5","","12.8","","89","","","","0","","24.1","","100.17","","","","","","Mainly Clear"
"1989-08-19 08:00","1989","08","19","08:00","17.6","","14.3","","81","","","","0","","19.3","","100.17","","","","","","Clear"
"1989-08-19 09:00","1989","08","19","09:00","21.0","","14.4","","66","","14","","7","","24.1","","100.11","","25","","","","Clear"
"1989-08-19 10:00","1989","08","19","10:00","22.5","","13.6","","57","","","","0","","24.1","","100.07","","26","","","","Clear"
"1989-08-19 11:00","1989","08","19","11:00","24.1","","13.6","","52","","15","","4","","24.1","","100.04","","27","","","","Mainly Clear"
"1989-08-19 12:00","1989","08","19","12:00","24.0","","14.7","","56","","13","","7","","24.1","","99.97","","28","","","","Mainly Clear"
"1989-08-19 13:00","1989","08","19","13:00","23.5","","14.8","","58","","12","","9","","32.2","","99.91","","27","","","","Mostly Cloudy"
"1989-08-19 14:00","1989","08","19","14:00","24.0","","14.4","","55","","11","","7","","24.1","","99.87","","28","","","","Mostly Cloudy"
"1989-08-19 15:00","1989","08","19","15:00","24.9","","15.2","","55","","14","","4","","24.1","","99.77","","29","","","","Mostly Cloudy"
"1989-08-19 16:00","1989","08","19","16:00","24.3","","13.5","","51","","14","","7","","24.1","","99.71","","27","","","","Mostly Cloudy"
"1989-08-19 17:00","1989","08","19","17:00","23.9","","13.2","","51","","15","","9","","24.1","","99.64","","27","","","","Mostly Cloudy"
"1989-08-19 18:00","1989","08","19","18:00","23.2","","13.9","","56","","12","","9","","24.1","","99.61","","27","","","","Mostly Cloudy"
"1989-08-19 19:00","1989","08","19","19:00","22.2","","14.5","","62","","10","","9","","16.1","","99.54","","26","","","","Mostly Cloudy"
"1989-08-19 20:00","1989","08","19","20:00","20.6","","17.2","","81","","13","","11","","12.9","","99.47","","26","","","","Cloudy"
"1989-08-19 21:00","1989","08","19","21:00","19.9","","18.2","","90","","13","","11","","11.3","","99.51","","","","","","Mostly Cloudy"
"1989-08-19 22:00","1989","08","19","22:00","20.0","","17.9","","88","","14","","6","","12.9","","99.51","","26","","","","Cloudy"
"1989-08-19 23:00","1989","08","19","23:00","19.6","","17.7","","89","","11","","4","","12.9","","99.47","","","","","","Cloudy"
"1989-08-20 00:00","1989","08","20","00:00","19.3","","18.3","","94","","10","","6","","12.9","","99.44","","","","","","Cloudy"
"1989-08-20 01:00","1989","08","20","01:00","18.9","","18.4","","97","","8","","4","","4.8","","99.37","","","","","","Moderate Rain Showers,Fog"
"1989-08-20 02:00","1989","08","20","02:00","18.9","","18.4","","97","","","","0","","8.0","","99.31","","","","","","Fog"
"1989-08-20 03:00","1989","08","20","03:00","19.1","","18.4","","96","","16","","4","","8.0","","99.31","","","","","","Fog"
"1989-08-20 04:00","1989","08","20","04:00","18.8","","18.4","","98","","14","","4","","6.4","","99.27","","","","","","Fog"
"1989-08-20 05:00","1989","08","20","05:00","18.5","","18.5","","100","","15","","4","","3.2","","99.27","","","","","","Fog"
"1989-08-20 06:00","1989","08","20","06:00","18.3","","18.3","","100","","15","","4","","0.6","","99.24","","","","","","Fog"
"1989-08-20 07:00","1989","08","20","07:00","18.4","","17.9","","97","","","","0","","3.2","","99.27","","","","","","Fog"
"1989-08-20 08:00","1989","08","20","08:00","19.5","","18.3","","93","","20","","6","","4.8","","99.24","","","","","","Fog"
"1989-08-20 09:00","1989","08","20","09:00","21.4","","18.9","","86","","22","","7","","8.0","","99.17","","28","","","","Haze"
"1989-08-20 10:00","1989","08","20","10:00","22.1","","18.5","","80","","20","","11","","8.0","","99.14","","28","","","","Haze"
"1989-08-20 11:00","1989","08","20","11:00","22.0","","17.5","","76","","15","","9","","6.4","","99.11","","28","","","","Haze"
"1989-08-20 12:00","1989","08","20","12:00","23.5","","17.9","","71","","21","","15","","9.7","","99.04","","29","","","","Haze"
"1989-08-20 13:00","1989","08","20","13:00","24.3","","17.0","","64","","20","","19","","9.7","","98.97","","30","","","","Haze"
"1989-08-20 14:00","1989","08","20","14:00","21.0","","18.0","","83","","21","","9","","6.4","","99.01","","27","","","","Rain Showers,Haze"
"1989-08-20 15:00","1989","08","20","15:00","21.4","","16.3","","73","","22","","15","","8.0","","98.91","","26","","","","Rain Showers,Haze"
"1989-08-20 16:00","1989","08","20","16:00","21.5","","17.6","","79","","21","","17","","6.4","","98.84","","27","","","","Haze"
"1989-08-20 17:00","1989","08","20","17:00","21.8","","18.5","","82","","23","","15","","6.4","","98.81","","28","","","","Haze"
"1989-08-20 18:00","1989","08","20","18:00","22.1","","18.8","","81","","21","","13","","6.4","","98.74","","29","","","","Haze"
"1989-08-20 19:00","1989","08","20","19:00","21.7","","18.9","","84","","21","","11","","4.8","","98.71","","28","","","","Haze"
"1989-08-20 20:00","1989","08","20","20:00","21.8","","19.4","","86","","21","","11","","4.8","","98.71","","29","","","","Fog"
"1989-08-20 21:00","1989","08","20","21:00","21.8","","20.0","","90","","22","","11","","4.8","","98.74","","29","","","","Fog"
"1989-08-20 22:00","1989","08","20","22:00","21.5","","19.5","","88","","22","","7","","4.8","","98.74","","29","","","","Fog"
"1989-08-20 23:00","1989","08","20","23:00","20.8","","18.6","","87","","24","","7","","6.4","","98.81","","27","","","","Fog"
"1989-08-21 00:00","1989","08","21","00:00","19.7","","18.3","","91","","24","","4","","6.4","","98.81","","","","","","Fog"
"1989-08-21 01:00","1989","08","21","01:00","20.1","","18.2","","89","","27","","7","","8.0","","98.84","","26","","","","Fog"
"1989-08-21 02:00","1989","08","21","02:00","18.8","","17.8","","94","","27","","6","","8.0","","98.84","","","","","","Fog"
"1989-08-21 03:00","1989","08","21","03:00","18.9","","17.8","","93","","27","","7","","8.0","","98.84","","","","","","Fog"
"1989-08-21 04:00","1989","08","21","04:00","18.6","","17.3","","92","","24","","6","","8.0","","98.87","","","","","","Fog"
"1989-08-21 05:00","1989","08","21","05:00","18.6","","17.0","","90","","28","","6","","9.7","","98.91","","","","","","Fog"
"1989-08-21 06:00","1989","08","21","06:00","18.0","","16.8","","93","","32","","7","","11.3","","98.94","","","","","","Mainly Clear"
"1989-08-21 07:00","1989","08","21","07:00","21.1","","17.4","","79","","26","","9","","12.9","","99.04","","27","","","","Mostly Cloudy"
"1989-08-21 08:00","1989","08","21","08:00","21.7","","17.3","","76","","28","","11","","16.1","","99.04","","27","","","","Mostly Cloudy"
"1989-08-21 09:00","1989","08","21","09:00","22.9","","18.3","","75","","27","","11","","16.1","","99.04","","29","","","","Mostly Cloudy"
"1989-08-21 10:00","1989","08","21","10:00","24.1","","17.8","","68","","27","","9","","16.1","","99.07","","30","","","","Mainly Clear"
"1989-08-21 11:00","1989","08","21","11:00","26.0","","17.8","","61","","26","","13","","19.3","","99.07","","32","","","","Mostly Cloudy"
"1989-08-21 12:00","1989","08","21","12:00","27.1","","16.2","","51","","28","","15","","19.3","","99.04","","32","","","","Mainly Clear"
"1989-08-21 13:00","1989","08","21","13:00","28.3","","17.3","","51","","28","","19","","32.2","","99.04","","34","","","","Mainly Clear"
"1989-08-21 14:00","1989","08","21","14:00","27.8","","16.0","","49","","27","","19","","40.2","","99.01","","32","","","","Mainly Clear"
"1989-08-21 15:00","1989","08","21","15:00","28.2","","15.6","","46","","26","","15","","32.2","","99.01","","33","","","","Mainly Clear"
"1989-08-21 16:00","1989","08","21","16:00","27.0","","15.8","","50","","32","","22","","32.2","","99.04","","31","","","","Mainly Clear"
"1989-08-21 17:00","1989","08","21","17:00","23.4","","17.2","","68","","35","","19","","40.2","","99.11","","29","","","","Mostly Cloudy"
"1989-08-21 18:00","1989","08","21","18:00","22.7","","16.1","","66","","35","","9","","40.2","","99.14","","27","","","","Mainly Clear"
"1989-08-21 19:00","1989","08","21","19:00","21.7","","13.9","","61","","30","","13","","40.2","","99.24","","25","","","","Mainly Clear"
"1989-08-21 20:00","1989","08","21","20:00","20.0","","12.5","","62","","30","","9","","25.0","","99.27","","","","","","Clear"
"1989-08-21 21:00","1989","08","21","21:00","19.2","","12.8","","66","","30","","9","","25.0","","99.31","","","","","","Clear"
"1989-08-21 22:00","1989","08","21","22:00","17.8","","13.5","","76","","32","","7","","25.0","","99.37","","","","","","Clear"
"1989-08-21 23:00","1989","08","21","23:00","16.0","","13.4","","85","","26","","6","","25.0","","99.41","","","","","","Clear"
"1989-08-22 00:00","1989","08","22","00:00","14.7","","12.5","","87","","","","0","","25.0","","99.44","","","","","","Clear"
"1989-08-22 01:00","1989","08","22","01:00","13.6","","12.5","","93","","29","","6","","25.0","","99.47","","","","","","Clear"
"1989-08-22 02:00","1989","08","22","02:00","14.4","","13.2","","93","","33","","4","","25.0","","99.47","","","","","","Mainly Clear"
"1989-08-22 03:00","1989","08","22","03:00","13.5","","12.5","","94","","32","","4","","25.0","","99.51","","","","","","Clear"
"1989-08-22 04:00","1989","08","22","04:00","12.4","","11.8","","96","","30","","6","","25.0","","99.47","","","","","","Clear"
"1989-08-22 05:00","1989","08","22","05:00","12.5","","11.8","","95","","","","0","","25.0","","99.47","","","","","","Mainly Clear"
"1989-08-22 06:00","1989","08","22","06:00","12.3","","11.8","","97","","","","0","","32.2","","99.47","","","","","","Mainly Clear"
"1989-08-22 07:00","1989","08","22","07:00","14.6","","13.5","","93","","","","0","","16.1","","99.47","","","","","","Mainly Clear"
"1989-08-22 08:00","1989","08","22","08:00","17.4","","14.6","","84","","","","0","","16.1","","99.47","","","","","","Mostly Cloudy"
"1989-08-22 09:00","1989","08","22","09:00","19.8","","15.3","","75","","","","0","","16.1","","99.41","","","","","","Mostly Cloudy"
"1989-08-22 10:00","1989","08","22","10:00","21.3","","15.3","","69","","17","","7","","16.1","","99.44","","25","","","","Mostly Cloudy"
"1989-08-22 11:00","1989","08","22","11:00","21.5","","15.0","","67","","16","","7","","19.3","","99.41","","25","","","","Cloudy"
"1989-08-22 12:00","1989","08","22","12:00","21.6","","15.0","","66","","16","","7","","16.1","","99.34","","26","","","","Cloudy"
"1989-08-22 13:00","1989","08","22","13:00","21.5","","15.0","","67","","16","","7","","19.3","","99.24","","25","","","","Rain Showers"
"1989-08-22 14:00","1989","08","22","14:00","20.7","","16.2","","75","","14","","9","","16.1","","99.14","","25","","","","Rain Showers"
"1989-08-22 15:00","1989","08","22","15:00","20.4","","15.9","","75","","16","","6","","24.1","","99.14","","25","","","","Rain Showers"
"1989-08-22 16:00","1989","08","22","16:00","21.1","","15.4","","70","","14","","9","","32.2","","99.04","","25","","","","Mostly Cloudy"
"1989-08-22 17:00","1989","08","22","17:00","20.8","","16.4","","76","","15","","9","","32.2","","99.01","","26","","","","Cloudy"
"1989-08-22 18:00","1989","08","22","18:00","20.8","","17.1","","80","","14","","9","","32.2","","98.91","","26","","","","Cloudy"
"1989-08-22 19:00","1989","08","22","19:00","20.7","","16.9","","79","","14","","7","","19.3","","98.91","","26","","","","Mostly Cloudy"
"1989-08-22 20:00","1989","08","22","20:00","20.5","","17.2","","82","","15","","6","","17.7","","98.91","","26","","","","Mostly Cloudy"
"1989-08-22 21:00","1989","08","22","21:00","20.1","","17.6","","86","","","","0","","16.1","","98.91","","26","","","","Mainly Clear"
"1989-08-22 22:00","1989","08","22","22:00","20.1","","18.2","","89","","17","","4","","11.3","","98.87","","26","","","","Clear"
"1989-08-22 23:00","1989","08","22","23:00","20.8","","19.8","","94","","24","","13","","9.7","","98.81","","28","","","","Fog"
"1989-08-23 00:00","1989","08","23","00:00","20.8","","20.1","","96","","26","","7","","6.4","","98.81","","28","","","","Fog"
"1989-08-23 01:00","1989","08","23","01:00","21.8","","20.3","","91","","27","","11","","9.7","","98.81","","30","","","","Fog"
"1989-08-23 02:00","1989","08","23","02:00","20.4","","19.0","","92","","29","","6","","11.3","","98.84","","27","","","","Mainly Clear"
"1989-08-23 03:00","1989","08","23","03:00","19.5","","17.1","","86","","32","","9","","12.9","","98.87","","","","","","Mainly Clear"
"1989-08-23 04:00","1989","08","23","04:00","17.7","","16.3","","91","","26","","6","","16.1","","98.91","","","","","","Mainly Clear"
"1989-08-23 05:00","1989","08","23","05:00","18.5","","17.0","","91","","26","","7","","16.1","","98.94","","","","","","Mostly Cloudy"
"1989-08-23 06:00","1989","08","23","06:00","19.1","","16.6","","85","","28","","9","","32.2","","98.94","","","","","","Mostly Cloudy"
"1989-08-23 07:00","1989","08","23","07:00","19.5","","16.4","","82","","30","","9","","24.1","","99.01","","","","","","Mostly Cloudy"
"1989-08-23 08:00","1989","08","23","08:00","19.8","","16.3","","80","","33","","13","","24.1","","99.14","","","","","","Mostly Cloudy"
"1989-08-23 09:00","1989","08","23","09:00","19.7","","14.4","","71","","34","","17","","24.1","","99.17","","","","","","Mostly Cloudy"
"1989-08-23 10:00","1989","08","23","10:00","20.0","","14.3","","70","","34","","17","","24.1","","99.24","","","","","","Mostly Cloudy"
"1989-08-23 11:00","1989","08","23","11:00","20.5","","15.2","","72","","36","","17","","24.1","","99.27","","25","","","","Mainly Clear"
"1989-08-23 12:00","1989","08","23","12:00","20.4","","13.8","","66","","35","","15","","24.1","","99.31","","","","","","Mostly Cloudy"
"1989-08-23 13:00","1989","08","23","13:00","21.4","","14.3","","64","","36","","13","","32.2","","99.34","","25","","","","Mostly Cloudy"
"1989-08-23 14:00","1989","08","23","14:00","21.1","","12.6","","58","","1","","11","","24.1","","99.41","","","","","","Mostly Cloudy"
"1989-08-23 15:00","1989","08","23","15:00","21.3","","13.2","","60","","36","","9","","32.2","","99.37","","","","","","Mostly Cloudy"
"1989-08-23 16:00","1989","08","23","16:00","22.5","","13.3","","56","","33","","11","","32.2","","99.34","","25","","","","Mostly Cloudy"
"1989-08-23 17:00","1989","08","23","17:00","21.9","","13.0","","57","","33","","9","","32.2","","99.41","","25","","","","Mostly Cloudy"
"1989-08-23 18:00","1989","08","23","18:00","20.9","","13.3","","62","","33","","13","","32.2","","99.44","","","","","","Mostly Cloudy"
"1989-08-23 19:00","1989","08","23","19:00","19.3","","13.0","","67","","34","","11","","40.2","","99.47","","","","","","Mostly Cloudy"
"1989-08-23 20:00","1989","08","23","20:00","17.5","","12.6","","73","","34","","13","","25.0","","99.51","","","","","","Mainly Clear"
"1989-08-23 21:00","1989","08","23","21:00","16.5","","12.5","","77","","34","","11","","25.0","","99.61","","","","","","Mostly Cloudy"
"1989-08-23 22:00","1989","08","23","22:00","15.8","","13.0","","84","","34","","11","","25.0","","99.61","","","","","","Mostly Cloudy"
"1989-08-23 23:00","1989","08","23","23:00","15.5","","13.2","","86","","35","","11","","25.0","","99.61","","","","","","Mostly Cloudy"
"1989-08-24 00:00","1989","08","24","00:00","15.0","","13.0","","88","","35","","9","","25.0","","99.61","","","","","","Mostly Cloudy"
"1989-08-24 01:00","1989","08","24","01:00","14.3","","12.8","","91","","34","","9","","25.0","","99.64","","","","","","Mainly Clear"
"1989-08-24 02:00","1989","08","24","02:00","12.8","","11.6","","93","","34","","7","","25.0","","99.64","","","","","","Mainly Clear"
"1989-08-24 03:00","1989","08","24","03:00","13.5","","11.5","","88","","35","","7","","25.0","","99.67","","","","","","Mainly Clear"
"1989-08-24 04:00","1989","08","24","04:00","14.0","","11.6","","86","","36","","7","","24.1","","99.71","","","","","","Mostly Cloudy"
"1989-08-24 05:00","1989","08","24","05:00","14.4","","11.8","","84","","36","","11","","24.1","","99.77","","","","","","Mostly Cloudy"
"1989-08-24 06:00","1989","08","24","06:00","13.1","","11.6","","91","","34","","9","","24.1","","99.84","","","","","","Mostly Cloudy"
"1989-08-24 07:00","1989","08","24","07:00","13.2","","11.3","","88","","35","","11","","24.1","","99.91","","","","","","Mostly Cloudy"
"1989-08-24 08:00","1989","08","24","08:00","14.5","","11.4","","82","","36","","11","","24.1","","99.94","","","","","","Mostly Cloudy"
"1989-08-24 09:00","1989","08","24","09:00","16.8","","12.0","","73","","36","","13","","24.1","","99.97","","","","","","Mainly Clear"
"1989-08-24 10:00","1989","08","24","10:00","17.2","","12.0","","71","","35","","7","","24.1","","99.97","","","","","","Clear"
"1989-08-24 11:00","1989","08","24","11:00","19.4","","12.3","","64","","","","0","","24.1","","99.94","","","","","","Mainly Clear"
"1989-08-24 12:00","1989","08","24","12:00","20.4","","12.0","","59","","31","","2","","24.1","","99.87","","","","","","Mainly Clear"
"1989-08-24 13:00","1989","08","24","13:00","20.7","","10.8","","53","","3","","9","","24.1","","99.84","","","","","","Mainly Clear"
"1989-08-24 14:00","1989","08","24","14:00","21.8","","11.5","","52","","3","","6","","24.1","","99.84","","","","","","Mainly Clear"
"1989-08-24 15:00","1989","08","24","15:00","22.2","","8.5","","41","","36","","9","","40.2","","99.81","","","","","","Mainly Clear"
"1989-08-24 16:00","1989","08","24","16:00","21.6","","8.3","","42","","35","","9","","40.2","","99.77","","","","","","Clear"
"1989-08-24 17:00","1989","08","24","17:00","21.1","","9.8","","48","","2","","9","","40.2","","99.81","","","","","","Clear"
"1989-08-24 18:00","1989","08","24","18:00","19.7","","5.4","","39","","2","","9","","40.2","","99.84","","","","","","Clear"
"1989-08-24 19:00","1989","08","24","19:00","18.7","","5.0","","40","","2","","11","","40.2","","99.84","","","","","","Clear"
"1989-08-24 20:00","1989","08","24","20:00","16.1","","7.7","","58","","36","","11","","25.0","","99.91","","","","","","Clear"
"1989-08-24 21:00","1989","08","24","21:00","14.0","","7.8","","66","","35","","11","","25.0","","99.94","","","","","","Clear"
"1989-08-24 22:00","1989","08","24","22:00","13.6","","6.8","","63","","36","","11","","25.0","","99.97","","","","","","Clear"
"1989-08-24 23:00","1989","08","24","23:00","12.9","","7.4","","69","","36","","9","","25.0","","99.97","","","","","","Clear"
"1989-08-25 00:00","1989","08","25","00:00","13.6","","5.9","","60","","4","","9","","25.0","","100.01","","","","","","Mainly Clear"
"1989-08-25 01:00","1989","08","25","01:00","14.0","","3.7","","50","","6","","7","","25.0","","100.04","","","","","","Clear"
"1989-08-25 02:00","1989","08","25","02:00","12.7","","3.2","","52","","4","","6","","25.0","","100.07","","","","","","Mainly Clear"
"1989-08-25 03:00","1989","08","25","03:00","11.4","","3.3","","57","","3","","6","","25.0","","100.11","","","","","","Clear"
"1989-08-25 04:00","1989","08","25","04:00","10.9","","3.7","","61","","2","","6","","25.0","","100.14","","","","","","Clear"
"1989-08-25 05:00","1989","08","25","05:00","7.2","","4.5","","83","","34","","6","","25.0","","100.17","","","","","","Clear"
"1989-08-25 06:00","1989","08","25","06:00","7.4","","4.6","","83","","35","","7","","40.2","","100.21","","","","","","Clear"
"1989-08-25 07:00","1989","08","25","07:00","10.7","","3.5","","61","","36","","6","","40.2","","100.21","","","","","","Clear"
"1989-08-25 08:00","1989","08","25","08:00","14.0","","2.6","","46","","5","","6","","40.2","","100.24","","","","","","Clear"
"1989-08-25 09:00","1989","08","25","09:00","16.3","","3.6","","43","","11","","6","","40.2","","100.24","","","","","","Clear"
"1989-08-25 10:00","1989","08","25","10:00","17.8","","6.7","","48","","13","","4","","40.2","","100.21","","","","","","Clear"
"1989-08-25 11:00","1989","08","25","11:00","18.2","","5.3","","43","","9","","4","","40.2","","100.17","","","","","","Clear"
"1989-08-25 12:00","1989","08","25","12:00","18.6","","8.7","","53","","15","","7","","40.2","","100.11","","","","","","Clear"
"1989-08-25 13:00","1989","08","25","13:00","18.4","","9.1","","55","","15","","7","","40.2","","100.07","","","","","","Clear"
"1989-08-25 14:00","1989","08","25","14:00","19.4","","8.7","","50","","15","","4","","40.2","","100.01","","","","","","Clear"
"1989-08-25 15:00","1989","08","25","15:00","19.9","","8.0","","46","","15","","6","","40.2","","99.97","","","","","","Clear"
"1989-08-25 16:00","1989","08","25","16:00","20.4","","8.3","","46","","16","","6","","40.2","","99.97","","","","","","Clear"
"1989-08-25 17:00","1989","08","25","17:00","20.1","","3.0","","32","","16","","7","","40.2","","99.91","","","","","","Clear"
"1989-08-25 18:00","1989","08","25","18:00","19.0","","6.2","","43","","16","","7","","40.2","","99.87","","","","","","Clear"
"1989-08-25 19:00","1989","08","25","19:00","17.0","","7.2","","53","","13","","6","","40.2","","99.81","","","","","","Mainly Clear"
"1989-08-25 20:00","1989","08","25","20:00","16.3","","8.3","","59","","14","","4","","25.0","","99.84","","","","","","Clear"
"1989-08-25 21:00","1989","08","25","21:00","16.0","","8.1","","59","","10","","4","","25.0","","99.84","","","","","","Clear"
"1989-08-25 22:00","1989","08","25","22:00","16.0","","7.2","","56","","","","0","","25.0","","99.84","","","","","","Clear"
"1989-08-25 23:00","1989","08","25","23:00","11.8","","8.3","","79","","32","","4","","25.0","","99.87","","","","","","Clear"
"1989-08-26 00:00","1989","08","26","00:00","10.5","","7.9","","84","","33","","4","","25.0","","99.91","","","","","","Clear"
"1989-08-26 01:00","1989","08","26","01:00","11.0","","8.0","","82","","3","","4","","25.0","","99.87","","","","","","Clear"
"1989-08-26 02:00","1989","08","26","02:00","9.5","","7.6","","88","","32","","6","","25.0","","99.91","","","","","","Clear"
"1989-08-26 03:00","1989","08","26","03:00","9.5","","7.6","","88","","34","","4","","25.0","","99.87","","","","","","Clear"
"1989-08-26 04:00","1989","08","26","04:00","9.8","","8.1","","89","","35","","4","","25.0","","99.87","","","","","","Clear"
"1989-08-26 05:00","1989","08","26","05:00","8.4","","7.0","","91","","33","","6","","25.0","","99.87","","","","","","Clear"
"1989-08-26 06:00","1989","08","26","06:00","8.3","","7.0","","92","","33","","6","","40.2","","99.91","","","","","","Mainly Clear"
"1989-08-26 07:00","1989","08","26","07:00","11.3","","7.4","","77","","33","","6","","40.2","","99.87","","","","","","Mainly Clear"
"1989-08-26 08:00","1989","08","26","08:00","14.7","","7.5","","62","","34","","4","","40.2","","99.91","","","","","","Mostly Cloudy"
"1989-08-26 09:00","1989","08","26","09:00","18.3","","7.4","","49","","","","0","","40.2","","99.94","","","","","","Mostly Cloudy"
"1989-08-26 10:00","1989","08","26","10:00","20.4","","5.4","","37","","7","","4","","40.2","","99.91","","","","","","Mostly Cloudy"
"1989-08-26 11:00","1989","08","26","11:00","21.0","","4.1","","33","","","","0","","40.2","","99.94","","","","","","Mostly Cloudy"
"1989-08-26 12:00","1989","08","26","12:00","21.0","","7.6","","42","","18","","7","","40.2","","99.87","","","","","","Mainly Clear"
"1989-08-26 13:00","1989","08","26","13:00","21.4","","6.4","","38","","15","","7","","40.2","","99.84","","","","","","Mainly Clear"
"1989-08-26 14:00","1989","08","26","14:00","22.5","","5.4","","33","","18","","9","","40.2","","99.77","","","","","","Mainly Clear"
"1989-08-26 15:00","1989","08","26","15:00","22.0","","5.1","","33","","15","","7","","40.2","","99.77","","","","","","Mainly Clear"
"1989-08-26 16:00","1989","08","26","16:00","21.5","","3.8","","31","","16","","7","","40.2","","99.77","","","","","","Mostly Cloudy"
"1989-08-26 17:00","1989","08","26","17:00","21.7","","3.8","","31","","15","","7","","40.2","","99.77","","","","","","Mostly Cloudy"
"1989-08-26 18:00","1989","08","26","18:00","20.4","","5.4","","37","","14","","6","","40.2","","99.77","","","","","","Mostly Cloudy"
"1989-08-26 19:00","1989","08","26","19:00","19.6","","6.9","","44","","14","","4","","40.2","","99.77","","","","","","Mostly Cloudy"
"1989-08-26 20:00","1989","08","26","20:00","19.1","","6.7","","44","","13","","4","","25.0","","99.77","","","","","","Mostly Cloudy"
"1989-08-26 21:00","1989","08","26","21:00","18.3","","7.4","","49","","13","","4","","25.0","","99.77","","","","","","Mostly Cloudy"
"1989-08-26 22:00","1989","08","26","22:00","17.0","","8.5","","57","","","","0","","25.0","","99.77","","","","","","Mostly Cloudy"
"1989-08-26 23:00","1989","08","26","23:00","15.5","","9.1","","66","","","","0","","25.0","","99.77","","","","","","Mainly Clear"
"1989-08-27 00:00","1989","08","27","00:00","14.2","","7.4","","63","","1","","4","","25.0","","99.81","","","","","","Mainly Clear"
"1989-08-27 01:00","1989","08","27","01:00","12.0","","8.3","","78","","33","","6","","25.0","","99.81","","","","","","Mostly Cloudy"
"1989-08-27 02:00","1989","08","27","02:00","13.4","","8.8","","74","","36","","4","","25.0","","99.81","","","","","","Mostly Cloudy"
"1989-08-27 03:00","1989","08","27","03:00","12.4","","8.9","","79","","32","","4","","25.0","","99.81","","","","","","Mostly Cloudy"
"1989-08-27 04:00","1989","08","27","04:00","12.3","","9.3","","82","","34","","4","","25.0","","99.81","","","","","","Mostly Cloudy"
"1989-08-27 05:00","1989","08","27","05:00","12.0","","8.3","","78","","","","0","","25.0","","99.81","","","","","","Mostly Cloudy"
"1989-08-27 06:00","1989","08","27","06:00","13.1","","9.1","","77","","34","","4","","40.2","","99.87","","","","","","Mostly Cloudy"
"1989-08-27 07:00","1989","08","27","07:00","13.5","","10.0","","79","","","","0","","40.2","","99.87","","","","","","Mostly Cloudy"
"1989-08-27 08:00","1989","08","27","08:00","16.9","","11.3","","70","","","","0","","40.2","","99.87","","","","","","Mostly Cloudy"
"1989-08-27 09:00","1989","08","27","09:00","19.0","","10.1","","56","","10","","4","","40.2","","99.87","","","","","","Mostly Cloudy"
"1989-08-27 10:00","1989","08","27","10:00","20.7","","8.7","","46","","12","","6","","40.2","","99.87","","","","","","Mostly Cloudy"
"1989-08-27 11:00","1989","08","27","11:00","22.6","","7.9","","39","","11","","7","","40.2","","99.81","","","","","","Mostly Cloudy"
"1989-08-27 12:00","1989","08","27","12:00","22.3","","6.9","","37","","13","","9","","40.2","","99.81","","","","","","Mostly Cloudy"
"1989-08-27 13:00","1989","08","27","13:00","22.8","","8.1","","39","","11","","7","","40.2","","99.77","","","","","","Mostly Cloudy"
"1989-08-27 14:00","1989","08","27","14:00","23.0","","10.8","","46","","10","","9","","40.2","","99.77","","25","","","","Mostly Cloudy"
"1989-08-27 15:00","1989","08","27","15:00","23.1","","9.5","","42","","10","","6","","40.2","","99.71","","","","","","Mostly Cloudy"
"1989-08-27 16:00","1989","08","27","16:00","23.3","","11.8","","48","","14","","7","","40.2","","99.71","","25","","","","Mostly Cloudy"
"1989-08-27 17:00","1989","08","27","17:00","22.5","","10.9","","48","","12","","7","","40.2","","99.67","","","","","","Mainly Clear"
"1989-08-27 18:00","1989","08","27","18:00","22.0","","9.8","","46","","12","","6","","32.2","","99.71","","","","","","Mostly Cloudy"
"1989-08-27 19:00","1989","08","27","19:00","20.7","","11.2","","55","","14","","7","","32.2","","99.71","","","","","","Mainly Clear"
"1989-08-27 20:00","1989","08","27","20:00","18.9","","11.7","","63","","9","","7","","25.0","","99.77","","","","","","Mainly Clear"
"1989-08-27 21:00","1989","08","27","21:00","18.5","","12.2","","67","","12","","6","","25.0","","99.81","","","","","","Mainly Clear"
"1989-08-27 22:00","1989","08","27","22:00","17.9","","12.4","","70","","9","","7","","25.0","","99.81","","","","","","Mainly Clear"
"1989-08-27 23:00","1989","08","27","23:00","17.7","","12.2","","70","","","","0","","25.0","","99.81","","","","","","Mostly Cloudy"
"1989-08-28 00:00","1989","08","28","00:00","15.2","","12.0","","81","","","","0","","25.0","","99.84","","","","","","Mainly Clear"
"1989-08-28 01:00","1989","08","28","01:00","15.2","","12.3","","83","","33","","4","","25.0","","99.84","","","","","","Mostly Cloudy"
"1989-08-28 02:00","1989","08","28","02:00","14.4","","11.8","","84","","34","","4","","25.0","","99.81","","","","","","Mainly Clear"
"1989-08-28 03:00","1989","08","28","03:00","13.5","","11.1","","85","","","","0","","25.0","","99.84","","","","","","Clear"
"1989-08-28 04:00","1989","08","28","04:00","13.0","","11.6","","91","","","","0","","25.0","","99.84","","","","","","Mostly Cloudy"
"1989-08-28 05:00","1989","08","28","05:00","12.5","","11.1","","91","","35","","4","","25.0","","99.87","","","","","","Mainly Clear"
"1989-08-28 06:00","1989","08","28","06:00","13.0","","11.6","","91","","","","0","","19.3","","99.91","","","","","","Mostly Cloudy"
"1989-08-28 07:00","1989","08","28","07:00","15.7","","13.5","","87","","","","0","","19.3","","99.91","","","","","","Mostly Cloudy"
"1989-08-28 08:00","1989","08","28","08:00","20.3","","15.6","","75","","","","0","","19.3","","99.91","","25","","","","Mostly Cloudy"
"1989-08-28 09:00","1989","08","28","09:00","21.1","","15.4","","70","","","","0","","17.7","","99.91","","25","","","","Mostly Cloudy"
"1989-08-28 10:00","1989","08","28","10:00","23.1","","15.0","","60","","","","0","","16.1","","99.94","","27","","","","Mostly Cloudy"
"1989-08-28 11:00","1989","08","28","11:00","24.5","","15.3","","57","","","","0","","16.1","","99.91","","29","","","","Mostly Cloudy"
"1989-08-28 12:00","1989","08","28","12:00","24.5","","16.0","","59","","12","","7","","19.3","","99.87","","29","","","","Mostly Cloudy"
"1989-08-28 13:00","1989","08","28","13:00","24.7","","13.9","","51","","13","","9","","24.1","","99.81","","28","","","","Mostly Cloudy"
"1989-08-28 14:00","1989","08","28","14:00","24.8","","15.2","","55","","15","","7","","24.1","","99.77","","29","","","","Mostly Cloudy"
"1989-08-28 15:00","1989","08","28","15:00","24.8","","15.9","","58","","13","","7","","24.1","","99.74","","29","","","","Cloudy"
"1989-08-28 16:00","1989","08","28","16:00","24.5","","16.0","","59","","14","","6","","24.1","","99.74","","29","","","","Cloudy"
"1989-08-28 17:00","1989","08","28","17:00","23.3","","16.2","","65","","16","","6","","24.1","","99.71","","28","","","","Cloudy"
"1989-08-28 18:00","1989","08","28","18:00","20.9","","16.1","","74","","15","","9","","24.1","","99.71","","26","","","","Cloudy"
"1989-08-28 19:00","1989","08","28","19:00","20.4","","16.9","","80","","","","0","","24.1","","99.71","","26","","","","Cloudy"
"1989-08-28 20:00","1989","08","28","20:00","20.3","","17.2","","83","","12","","4","","19.3","","99.71","","26","","","","Cloudy"
"1989-08-28 21:00","1989","08","28","21:00","20.4","","16.9","","80","","","","0","","19.3","","99.67","","26","","","","Cloudy"
"1989-08-28 22:00","1989","08","28","22:00","20.9","","17.1","","79","","","","0","","16.1","","99.64","","26","","","","Cloudy"
"1989-08-28 23:00","1989","08","28","23:00","21.0","","17.1","","78","","7","","4","","12.9","","99.57","","26","","","","Cloudy"
"1989-08-29 00:00","1989","08","29","00:00","20.7","","17.2","","80","","12","","4","","11.3","","99.57","","26","","","","Cloudy"
"1989-08-29 01:00","1989","08","29","01:00","20.4","","17.8","","85","","13","","4","","11.3","","99.47","","26","","","","Cloudy"
"1989-08-29 02:00","1989","08","29","02:00","20.1","","17.9","","87","","9","","6","","9.7","","99.37","","26","","","","Fog"
"1989-08-29 03:00","1989","08","29","03:00","20.0","","18.5","","91","","","","0","","6.4","","99.27","","26","","","","Fog"
"1989-08-29 04:00","1989","08","29","04:00","20.0","","18.8","","93","","","","0","","4.8","","99.24","","27","","","","Rain Showers,Fog"
"1989-08-29 05:00","1989","08","29","05:00","20.0","","18.8","","93","","13","","6","","4.8","","99.24","","27","","","","Fog"
"1989-08-29 06:00","1989","08","29","06:00","20.2","","18.2","","88","","13","","6","","4.8","","99.24","","26","","","","Fog"
"1989-08-29 07:00","1989","08","29","07:00","20.8","","17.4","","81","","17","","7","","16.1","","99.21","","26","","","","Cloudy"
"1989-08-29 08:00","1989","08","29","08:00","20.8","","16.4","","76","","17","","11","","19.3","","99.21","","26","","","","Cloudy"
"1989-08-29 09:00","1989","08","29","09:00","20.5","","17.5","","83","","18","","6","","11.3","","99.21","","26","","","","Cloudy"
"1989-08-29 10:00","1989","08","29","10:00","21.6","","18.2","","81","","21","","4","","9.7","","99.11","","28","","","","Haze"
"1989-08-29 11:00","1989","08","29","11:00","22.8","","18.9","","79","","29","","4","","11.3","","99.11","","29","","","","Cloudy"
"1989-08-29 12:00","1989","08","29","12:00","23.8","","19.7","","78","","26","","11","","8.0","","99.11","","31","","","","Haze"
"1989-08-29 13:00","1989","08","29","13:00","24.8","","19.8","","74","","27","","9","","12.9","","99.01","","32","","","","Mostly Cloudy"
"1989-08-29 14:00","1989","08","29","14:00","26.9","","19.2","","63","","28","","15","","14.5","","98.94","","34","","","","Mostly Cloudy"
"1989-08-29 15:00","1989","08","29","15:00","27.4","","19.2","","61","","29","","15","","14.5","","98.91","","34","","","","Cloudy"
"1989-08-29 16:00","1989","08","29","16:00","26.1","","18.7","","64","","26","","9","","16.1","","98.91","","33","","","","Mostly Cloudy"
"1989-08-29 17:00","1989","08","29","17:00","25.9","","18.7","","65","","26","","7","","19.3","","98.91","","32","","","","Cloudy"
"1989-08-29 18:00","1989","08","29","18:00","25.7","","18.5","","64","","26","","6","","19.3","","98.87","","32","","","","Mostly Cloudy"
"1989-08-29 19:00","1989","08","29","19:00","24.9","","19.2","","71","","25","","6","","19.3","","98.87","","32","","","","Mostly Cloudy"
"1989-08-29 20:00","1989","08","29","20:00","23.7","","19.1","","75","","21","","4","","19.3","","98.84","","31","","","","Mostly Cloudy"
"1989-08-29 21:00","1989","08","29","21:00","23.1","","19.5","","80","","21","","7","","16.1","","98.84","","30","","","","Mostly Cloudy"
"1989-08-29 22:00","1989","08","29","22:00","22.8","","21.0","","90","","24","","9","","9.7","","98.81","","31","","","","Fog"
"1989-08-29 23:00","1989","08","29","23:00","22.9","","21.0","","89","","25","","11","","6.4","","98.77","","31","","","","Fog"
"1989-08-30 00:00","1989","08","30","00:00","22.5","","20.2","","87","","27","","7","","8.0","","98.74","","30","","","","Fog"
"1989-08-30 01:00","1989","08","30","01:00","22.2","","18.5","","79","","30","","11","","12.9","","98.74","","29","","","","Mainly Clear"
"1989-08-30 02:00","1989","08","30","02:00","20.3","","18.4","","89","","28","","9","","16.1","","98.74","","27","","","","Mainly Clear"
"1989-08-30 03:00","1989","08","30","03:00","19.0","","17.2","","89","","27","","9","","16.1","","98.77","","","","","","Mainly Clear"
"1989-08-30 04:00","1989","08","30","04:00","18.1","","16.1","","88","","29","","7","","12.9","","98.84","","","","","","Clear"
"1989-08-30 05:00","1989","08","30","05:00","17.9","","15.2","","84","","30","","7","","19.3","","98.91","","","","","","Clear"
"1989-08-30 06:00","1989","08","30","06:00","17.1","","13.1","","77","","30","","11","","40.2","","99.01","","","","","","Clear"
"1989-08-30 07:00","1989","08","30","07:00","17.5","","12.6","","73","","28","","11","","40.2","","99.04","","","","","","Clear"
"1989-08-30 08:00","1989","08","30","08:00","19.0","","12.8","","67","","29","","13","","40.2","","99.07","","","","","","Mainly Clear"
"1989-08-30 09:00","1989","08","30","09:00","20.7","","12.0","","57","","30","","22","","40.2","","99.11","","","","","","Mainly Clear"
"1989-08-30 10:00","1989","08","30","10:00","23.0","","12.7","","52","","31","","41","","40.2","","99.11","","26","","","","Mainly Clear"
"1989-08-30 11:00","1989","08","30","11:00","23.1","","11.6","","48","","28","","41","","40.2","","99.07","","25","","","","Mainly Clear"
"1989-08-30 12:00","1989","08","30","12:00","22.4","","13.3","","56","","27","","33","","40.2","","99.11","","25","","","","Mostly Cloudy"
"1989-08-30 13:00","1989","08","30","13:00","24.5","","11.5","","44","","29","","37","","40.2","","99.11","","27","","","","Mostly Cloudy"
"1989-08-30 14:00","1989","08","30","14:00","23.7","","11.4","","46","","29","","37","","40.2","","99.11","","26","","","","Mostly Cloudy"
"1989-08-30 15:00","1989","08","30","15:00","22.4","","12.1","","52","","30","","33","","40.2","","99.17","","25","","","","Mostly Cloudy"
"1989-08-30 16:00","1989","08","30","16:00","22.0","","11.5","","51","","32","","33","","40.2","","99.21","","","","","","Mostly Cloudy"
"1989-08-30 17:00","1989","08","30","17:00","21.4","","11.7","","54","","30","","22","","40.2","","99.21","","","","","","Clear"
"1989-08-30 18:00","1989","08","30","18:00","20.7","","11.2","","55","","30","","28","","40.2","","99.24","","","","","","Mainly Clear"
"1989-08-30 19:00","1989","08","30","19:00","19.6","","11.2","","58","","29","","15","","25.0","","99.31","","","","","","Mainly Clear"
"1989-08-30 20:00","1989","08","30","20:00","18.1","","11.3","","64","","30","","15","","25.0","","99.34","","","","","","Mainly Clear"
"1989-08-30 21:00","1989","08","30","21:00","16.5","","12.2","","76","","27","","11","","25.0","","99.41","","","","","","Clear"
"1989-08-30 22:00","1989","08","30","22:00","15.0","","12.3","","84","","29","","15","","25.0","","99.44","","","","","","Clear"
"1989-08-30 23:00","1989","08","30","23:00","16.0","","12.7","","81","","32","","13","","25.0","","99.44","","","","","","Clear"
"1989-08-31 00:00","1989","08","31","00:00","15.0","","12.7","","86","","28","","7","","25.0","","99.44","","","","","","Clear"
"1989-08-31 01:00","1989","08","31","01:00","13.7","","11.8","","88","","28","","11","","25.0","","99.51","","","","","","Clear"
"1989-08-31 02:00","1989","08","31","02:00","13.4","","12.2","","93","","30","","9","","25.0","","99.51","","","","","","Clear"
"1989-08-31 03:00","1989","08","31","03:00","13.6","","11.5","","87","","29","","11","","25.0","","99.57","","","","","","Clear"
"1989-08-31 04:00","1989","08","31","04:00","15.0","","12.3","","84","","32","","11","","25.0","","99.57","","","","","","Clear"
"1989-08-31 05:00","1989","08","31","05:00","14.3","","12.2","","87","","29","","9","","25.0","","99.61","","","","","","Mainly Clear"
"1989-08-31 06:00","1989","08","31","06:00","13.9","","11.6","","86","","29","","11","","40.2","","99.64","","","","","","Mainly Clear"
"1989-08-31 07:00","1989","08","31","07:00","15.6","","11.6","","77","","31","","11","","40.2","","99.64","","","","","","Clear"
"1989-08-31 08:00","1989","08","31","08:00","18.5","","12.2","","67","","32","","15","","40.2","","99.64","","","","","","Clear"
"1989-08-31 09:00","1989","08","31","09:00","20.5","","12.0","","58","","31","","7","","40.2","","99.67","","","","","","Mainly Clear"
"1989-08-31 10:00","1989","08","31","10:00","22.1","","11.1","","50","","","","0","","40.2","","99.71","","","","","","Clear"
"1989-08-31 11:00","1989","08","31","11:00","22.9","","11.2","","48","","19","","9","","40.2","","99.67","","25","","","","Clear"
"1989-08-31 12:00","1989","08","31","12:00","24.2","","10.0","","41","","20","","9","","40.2","","99.57","","25","","","","Mainly Clear"
"1989-08-31 13:00","1989","08","31","13:00","24.9","","13.0","","48","","18","","17","","40.2","","99.54","","28","","","","Mainly Clear"
"1989-08-31 14:00","1989","08","31","14:00","25.5","","12.8","","45","","23","","15","","40.2","","99.44","","28","","","","Mainly Clear"
"1989-08-31 15:00","1989","08","31","15:00","26.5","","12.1","","41","","20","","20","","40.2","","99.34","","29","","","","Mainly Clear"
"1989-08-31 16:00","1989","08","31","16:00","25.1","","12.6","","46","","15","","22","","40.2","","99.31","","28","","","","Mainly Clear"
"1989-08-31 17:00","1989","08","31","17:00","24.4","","13.9","","52","","16","","19","","40.2","","99.24","","28","","","","Mainly Clear"
"1989-08-31 18:00","1989","08","31","18:00","24.0","","15.8","","60","","16","","13","","40.2","","99.14","","28","","","","Mostly Cloudy"
"1989-08-31 19:00","1989","08","31","19:00","23.7","","16.2","","63","","17","","13","","25.0","","99.11","","28","","","","Mostly Cloudy"
"1989-08-31 20:00","1989","08","31","20:00","22.7","","14.4","","59","","19","","17","","25.0","","99.07","","26","","","","Mainly Clear"
"1989-08-31 21:00","1989","08","31","21:00","22.0","","13.0","","57","","19","","19","","25.0","","99.04","","25","","","","Mostly Cloudy"
"1989-08-31 22:00","1989","08","31","22:00","21.6","","13.9","","62","","20","","19","","19.3","","98.97","","25","","","","Mainly Clear"
"1989-08-31 23:00","1989","08","31","23:00","21.0","","15.4","","70","","22","","13","","19.3","","98.91","","25","","","","Mostly Cloudy"
