"Station Name","TORONTO LESTER B. PEARSON INT'L A"
"Province","ONTARIO"
"Latitude","43.68"
"Longitude","-79.63"
"Elevation","173.40"
"Climate Identifier","6158733"
"WMO Identifier","71624"
"TC Identifier","YYZ"
"All times are specified in Local Standard Time (LST). Add 1 hour to adjust for Daylight Saving Time where and when it is observed."

"Legend"
"E","Estimated"
"M","Missing"
"NA","Not Available"

"Date/Time","Year","Month","Day","Time","Temp (°C)","Temp Flag","Dew Point Temp (°C)","Dew Point Temp Flag","Rel Hum (%)","Rel Hum Flag","Wind Dir (10s deg)","Wind Dir Flag","Wind Spd (km/h)","Wind Spd Flag","Visibility (km)","Visibility Flag","Stn Press (kPa)","Stn Press Flag","Hmdx","Hmdx Flag","Wind Chill","Wind Chill Flag","Weather"
"1991-03-01 00:00","1991","03","01","00:00","0.0","","-0.7","","95","","","","0","","2.8","","99.64","","","","","","Snow,Fog"
"1991-03-01 01:00","1991","03","01","01:00","0.0","","-0.7","","95","","","","0","","1.2","","99.64","","","","","","Snow,Fog"
"1991-03-01 02:00","1991","03","01","02:00","0.2","","-0.5","","95","","11","","7","","1.2","","99.61","","","","","","Rain,Snow,Fog"
"1991-03-01 03:00","1991","03","01","03:00","0.1","","-0.6","","95","","14","","11","","0.8","","99.54","","","","","","Fog"
"1991-03-01 04:00","1991","03","01","04:00","0.3","","-0.2","","96","","13","","11","","0.2","","99.51","","","","","","Fog"
"1991-03-01 05:00","1991","03","01","05:00","0.7","","0.0","","95","","11","","11","","0.4","","99.47","","","","","","Fog"
"1991-03-01 06:00","1991","03","01","06:00","1.0","","0.5","","96","","10","","13","","2.0","","99.41","","","","","","Fog"
"1991-03-01 07:00","1991","03","01","07:00","1.5","","0.5","","93","","10","","7","","2.4","","99.37","","","","","","Fog"
"1991-03-01 08:00","1991","03","01","08:00","2.1","","1.1","","93","","","","0","","2.8","","99.37","","","","","","Fog"
"1991-03-01 09:00","1991","03","01","09:00","2.8","","1.1","","89","","27","","4","","4.0","","99.37","","","","","","Fog"
"1991-03-01 10:00","1991","03","01","10:00","4.0","","1.7","","85","","17","","6","","6.4","","99.37","","","","","","Fog"
"1991-03-01 11:00","1991","03","01","11:00","6.1","","2.0","","75","","20","","9","","9.7","","99.34","","","","","","Haze"
"1991-03-01 12:00","1991","03","01","12:00","7.3","","2.3","","71","","17","","7","","11.3","","99.31","","","","","","Cloudy"
"1991-03-01 13:00","1991","03","01","13:00","9.6","","2.3","","60","","17","","11","","12.9","","99.21","","","","","","Cloudy"
"1991-03-01 14:00","1991","03","01","14:00","11.9","","2.0","","51","","21","","24","","19.3","","99.14","","","","","","Mostly Cloudy"
"1991-03-01 15:00","1991","03","01","15:00","12.5","","2.6","","51","","20","","19","","19.3","","99.04","","","","","","Mostly Cloudy"
"1991-03-01 16:00","1991","03","01","16:00","12.3","","3.2","","54","","14","","11","","19.3","","99.01","","","","","","Mostly Cloudy"
"1991-03-01 17:00","1991","03","01","17:00","9.5","","2.3","","61","","14","","15","","19.3","","99.01","","","","","","Cloudy"
"1991-03-01 18:00","1991","03","01","18:00","7.4","","1.8","","68","","14","","13","","16.1","","99.01","","","","","","Cloudy"
"1991-03-01 19:00","1991","03","01","19:00","6.4","","1.1","","69","","14","","15","","19.3","","98.91","","","","","","Mostly Cloudy"
"1991-03-01 20:00","1991","03","01","20:00","5.6","","1.0","","72","","15","","11","","19.3","","98.81","","","","","","Mostly Cloudy"
"1991-03-01 21:00","1991","03","01","21:00","6.5","","1.1","","68","","14","","11","","19.3","","98.71","","","","","","Mostly Cloudy"
"1991-03-01 22:00","1991","03","01","22:00","7.0","","1.2","","67","","11","","7","","19.3","","98.54","","","","","","Cloudy"
"1991-03-01 23:00","1991","03","01","23:00","5.1","","1.4","","77","","","","0","","19.3","","98.41","","","","","","Cloudy"
"1991-03-02 00:00","1991","03","02","00:00","4.3","","1.8","","84","","","","0","","19.3","","98.31","","","","","","Rain"
"1991-03-02 01:00","1991","03","02","01:00","6.8","","2.7","","75","","13","","15","","12.9","","98.21","","","","","","Rain"
"1991-03-02 02:00","1991","03","02","02:00","6.3","","4.4","","88","","12","","15","","6.4","","98.01","","","","","","Rain,Fog"
"1991-03-02 03:00","1991","03","02","03:00","6.2","","4.8","","90","","14","","11","","4.8","","97.91","","","","","","Rain,Fog"
"1991-03-02 04:00","1991","03","02","04:00","6.8","","5.8","","93","","14","","13","","4.8","","97.77","","","","","","Rain,Fog"
"1991-03-02 05:00","1991","03","02","05:00","7.0","","6.2","","95","","14","","13","","2.4","","97.67","","","","","","Rain,Fog"
"1991-03-02 06:00","1991","03","02","06:00","6.8","","6.6","","99","","15","","11","","0.4","","97.57","","","","","","Rain,Drizzle,Fog"
"1991-03-02 07:00","1991","03","02","07:00","6.9","","6.6","","98","","15","","9","","0.2","","97.54","","","","","","Rain,Fog"
"1991-03-02 08:00","1991","03","02","08:00","7.2","","6.6","","96","","15","","11","","0.8","","97.44","","","","","","Fog"
"1991-03-02 09:00","1991","03","02","09:00","8.1","","7.6","","97","","17","","15","","2.0","","97.37","","","","","","Fog"
"1991-03-02 10:00","1991","03","02","10:00","9.1","","8.3","","95","","17","","11","","3.2","","97.37","","","","","","Fog"
"1991-03-02 11:00","1991","03","02","11:00","12.7","","10.4","","86","","22","","20","","11.3","","97.34","","","","","","Cloudy"
"1991-03-02 12:00","1991","03","02","12:00","13.8","","10.9","","83","","22","","28","","19.3","","97.37","","","","","","Cloudy"
"1991-03-02 13:00","1991","03","02","13:00","14.9","","11.3","","79","","24","","26","","19.3","","97.37","","","","","","Cloudy"
"1991-03-02 14:00","1991","03","02","14:00","14.9","","11.3","","79","","24","","24","","16.1","","97.41","","","","","","Mostly Cloudy"
"1991-03-02 15:00","1991","03","02","15:00","14.8","","10.9","","78","","24","","20","","19.3","","97.44","","","","","","Mostly Cloudy"
"1991-03-02 16:00","1991","03","02","16:00","14.3","","10.7","","79","","23","","20","","16.1","","97.51","","","","","","Cloudy"
"1991-03-02 17:00","1991","03","02","17:00","13.7","","10.4","","80","","30","","11","","16.1","","97.51","","","","","","Mostly Cloudy"
"1991-03-02 18:00","1991","03","02","18:00","11.6","","8.6","","82","","35","","15","","11.3","","97.61","","","","","","Mostly Cloudy"
"1991-03-02 19:00","1991","03","02","19:00","10.0","","8.5","","90","","36","","30","","12.9","","97.77","","","","","","Mostly Cloudy"
"1991-03-02 20:00","1991","03","02","20:00","3.8","","2.2","","90","","36","","24","","25.0","","97.91","","","","","","Cloudy"
"1991-03-02 21:00","1991","03","02","21:00","1.6","","0.0","","89","","36","","35","","24.1","","98.01","","","","","","Rain Showers"
"1991-03-02 22:00","1991","03","02","22:00","1.0","","-0.5","","90","","36","","35","","25.0","","98.11","","","","","","Cloudy"
"1991-03-02 23:00","1991","03","02","23:00","0.1","","-1.4","","90","","36","","39","","24.1","","98.21","","","","","","Rain Showers"
"1991-03-03 00:00","1991","03","03","00:00","-0.3","","-2.1","","87","","35","","33","","19.3","","98.21","","","","-7","","Rain Showers"
"1991-03-03 01:00","1991","03","03","01:00","-1.0","","-2.4","","90","","35","","26","","19.3","","98.31","","","","-7","","Freezing Rain"
"1991-03-03 02:00","1991","03","03","02:00","-1.2","","-2.4","","92","","1","","28","","16.1","","98.41","","","","-8","","Freezing Rain"
"1991-03-03 03:00","1991","03","03","03:00","-2.0","","-3.6","","89","","36","","28","","16.1","","98.44","","","","-9","","Freezing Rain"
"1991-03-03 04:00","1991","03","03","04:00","-2.0","","-3.3","","91","","2","","26","","12.9","","98.44","","","","-9","","Freezing Rain"
"1991-03-03 05:00","1991","03","03","05:00","-2.5","","-4.2","","88","","1","","22","","16.1","","98.51","","","","-9","","Freezing Rain"
"1991-03-03 06:00","1991","03","03","06:00","-3.0","","-4.5","","89","","36","","20","","12.9","","98.71","","","","-9","","Freezing Rain"
"1991-03-03 07:00","1991","03","03","07:00","-4.1","","-5.4","","91","","36","","22","","9.7","","98.74","","","","-11","","Freezing Rain,Fog"
"1991-03-03 08:00","1991","03","03","08:00","-4.5","","-6.6","","85","","36","","20","","16.1","","98.87","","","","-11","","Cloudy"
"1991-03-03 09:00","1991","03","03","09:00","-4.6","","-6.6","","86","","36","","17","","12.9","","99.04","","","","-10","","Freezing Rain"
"1991-03-03 10:00","1991","03","03","10:00","-4.8","","-6.9","","85","","2","","19","","12.9","","98.97","","","","-11","","Freezing Rain,Ice Pellets"
"1991-03-03 11:00","1991","03","03","11:00","-4.5","","-6.3","","87","","35","","22","","12.9","","98.91","","","","-11","","Freezing Rain"
"1991-03-03 12:00","1991","03","03","12:00","-4.2","","-6.0","","87","","1","","15","","16.1","","98.94","","","","-10","","Cloudy"
"1991-03-03 13:00","1991","03","03","13:00","-4.2","","-5.7","","89","","36","","17","","16.1","","98.91","","","","-10","","Cloudy"
"1991-03-03 14:00","1991","03","03","14:00","-4.6","","-6.9","","84","","36","","19","","16.1","","98.81","","","","-11","","Cloudy"
"1991-03-03 15:00","1991","03","03","15:00","-4.6","","-6.3","","88","","1","","17","","16.1","","98.77","","","","-10","","Cloudy"
"1991-03-03 16:00","1991","03","03","16:00","-4.6","","-6.3","","88","","1","","17","","16.1","","98.74","","","","-10","","Cloudy"
"1991-03-03 17:00","1991","03","03","17:00","-5.0","","-7.2","","84","","1","","15","","12.9","","98.74","","","","-11","","Cloudy"
"1991-03-03 18:00","1991","03","03","18:00","-4.6","","-6.3","","88","","2","","17","","11.3","","98.71","","","","-10","","Cloudy"
"1991-03-03 19:00","1991","03","03","19:00","-4.3","","-6.0","","88","","1","","19","","9.7","","98.74","","","","-10","","Fog"
"1991-03-03 20:00","1991","03","03","20:00","-3.8","","-5.1","","90","","3","","19","","4.8","","98.57","","","","-10","","Freezing Rain,Freezing Drizzle,Fog"
"1991-03-03 21:00","1991","03","03","21:00","-4.1","","-5.7","","88","","4","","19","","11.3","","98.54","","","","-10","","Freezing Rain"
"1991-03-03 22:00","1991","03","03","22:00","-4.3","","-6.6","","84","","2","","22","","8.0","","98.44","","","","-11","","Freezing Rain,Ice Pellets,Fog"
"1991-03-03 23:00","1991","03","03","23:00","-4.2","","-6.3","","86","","2","","22","","11.3","","98.34","","","","-11","","Freezing Rain"
"1991-03-04 00:00","1991","03","04","00:00","-4.0","","-6.0","","86","","1","","22","","12.9","","98.11","","","","-11","","Freezing Rain"
"1991-03-04 01:00","1991","03","04","01:00","-3.8","","-6.0","","84","","35","","22","","12.9","","97.94","","","","-10","","Freezing Rain"
"1991-03-04 02:00","1991","03","04","02:00","-3.8","","-5.7","","86","","36","","24","","9.7","","97.81","","","","-11","","Ice Pellets"
"1991-03-04 03:00","1991","03","04","03:00","-3.3","","-5.4","","85","","35","","26","","9.7","","97.64","","","","-10","","Ice Pellets"
"1991-03-04 04:00","1991","03","04","04:00","-3.2","","-4.8","","89","","35","","24","","8.0","","97.54","","","","-10","","Freezing Rain,Ice Pellets"
"1991-03-04 05:00","1991","03","04","05:00","-3.3","","-5.1","","87","","35","","26","","9.7","","97.41","","","","-10","","Freezing Rain,Ice Pellets"
"1991-03-04 06:00","1991","03","04","06:00","-2.9","","-4.5","","89","","35","","26","","9.7","","97.34","","","","-10","","Freezing Rain,Ice Pellets"
"1991-03-04 07:00","1991","03","04","07:00","-2.8","","-4.5","","88","","36","","22","","12.9","","97.41","","","","-9","","Freezing Rain,Ice Pellets"
"1991-03-04 08:00","1991","03","04","08:00","-2.8","","-4.5","","88","","35","","22","","12.9","","97.41","","","","-9","","Freezing Rain,Ice Pellets"
"1991-03-04 09:00","1991","03","04","09:00","-2.4","","-4.2","","87","","35","","22","","6.4","","97.41","","","","-9","","Snow,Ice Pellets"
"1991-03-04 10:00","1991","03","04","10:00","-2.9","","-4.2","","90","","33","","22","","1.6","","97.44","","","","-9","","Snow"
"1991-03-04 11:00","1991","03","04","11:00","-2.7","","-4.5","","88","","33","","22","","2.4","","97.44","","","","-9","","Snow"
"1991-03-04 12:00","1991","03","04","12:00","-2.3","","-4.2","","86","","33","","22","","2.4","","97.44","","","","-8","","Snow"
"1991-03-04 13:00","1991","03","04","13:00","-2.3","","-5.1","","81","","33","","22","","12.9","","97.47","","","","-8","","Snow"
"1991-03-04 14:00","1991","03","04","14:00","-2.1","","-4.5","","84","","34","","15","","12.9","","97.44","","","","-7","","Cloudy"
"1991-03-04 15:00","1991","03","04","15:00","-3.1","","-5.4","","84","","34","","20","","16.1","","97.51","","","","-9","","Cloudy"
"1991-03-04 16:00","1991","03","04","16:00","-3.2","","-5.4","","85","","34","","19","","19.3","","97.57","","","","-9","","Cloudy"
"1991-03-04 17:00","1991","03","04","17:00","-3.6","","-5.7","","85","","34","","19","","16.1","","97.64","","","","-10","","Cloudy"
"1991-03-04 18:00","1991","03","04","18:00","-3.7","","-5.7","","86","","33","","17","","16.1","","97.74","","","","-9","","Cloudy"
"1991-03-04 19:00","1991","03","04","19:00","-3.4","","-5.7","","84","","33","","15","","19.3","","97.84","","","","-9","","Cloudy"
"1991-03-04 20:00","1991","03","04","20:00","-2.8","","-5.4","","82","","32","","11","","19.3","","97.91","","","","-7","","Cloudy"
"1991-03-04 21:00","1991","03","04","21:00","-2.5","","-4.8","","84","","32","","9","","25.0","","97.97","","","","-6","","Mostly Cloudy"
"1991-03-04 22:00","1991","03","04","22:00","-3.4","","-5.7","","84","","32","","9","","25.0","","98.04","","","","-7","","Mainly Clear"
"1991-03-04 23:00","1991","03","04","23:00","-2.8","","-5.7","","80","","32","","9","","25.0","","98.04","","","","-6","","Mainly Clear"
"1991-03-05 00:00","1991","03","05","00:00","-2.7","","-5.1","","84","","32","","15","","25.0","","98.11","","","","-8","","Mostly Cloudy"
"1991-03-05 01:00","1991","03","05","01:00","-3.5","","-6.0","","83","","33","","11","","25.0","","98.14","","","","-8","","Mainly Clear"
"1991-03-05 02:00","1991","03","05","02:00","-4.6","","-6.9","","84","","31","","7","","25.0","","98.24","","","","-8","","Mainly Clear"
"1991-03-05 03:00","1991","03","05","03:00","-5.0","","-7.2","","84","","29","","11","","25.0","","98.31","","","","-10","","Clear"
"1991-03-05 04:00","1991","03","05","04:00","-3.9","","-7.0","","79","","31","","9","","25.0","","98.31","","","","-8","","Mainly Clear"
"1991-03-05 05:00","1991","03","05","05:00","-4.5","","-6.6","","85","","31","","9","","25.0","","98.41","","","","-8","","Mainly Clear"
"1991-03-05 06:00","1991","03","05","06:00","-4.8","","-6.9","","85","","21","","6","","19.3","","98.51","","","","-8","","Mainly Clear"
"1991-03-05 07:00","1991","03","05","07:00","-4.5","","-6.6","","85","","21","","7","","24.1","","98.54","","","","-8","","Mainly Clear"
"1991-03-05 08:00","1991","03","05","08:00","-3.4","","-6.3","","80","","25","","7","","19.3","","98.61","","","","-6","","Mainly Clear"
"1991-03-05 09:00","1991","03","05","09:00","-2.5","","-4.8","","84","","24","","7","","16.1","","98.67","","","","-5","","Mainly Clear"
"1991-03-05 10:00","1991","03","05","10:00","-1.1","","-3.6","","83","","24","","9","","19.3","","98.71","","","","-4","","Mainly Clear"
"1991-03-05 11:00","1991","03","05","11:00","-0.4","","-3.1","","82","","23","","7","","19.3","","98.71","","","","-3","","Mainly Clear"
"1991-03-05 12:00","1991","03","05","12:00","1.9","","-3.2","","69","","20","","7","","19.3","","98.71","","","","","","Mainly Clear"
"1991-03-05 13:00","1991","03","05","13:00","2.4","","-3.9","","63","","24","","19","","19.3","","98.71","","","","","","Mainly Clear"
"1991-03-05 14:00","1991","03","05","14:00","3.0","","-3.2","","64","","22","","13","","24.1","","98.64","","","","","","Mainly Clear"
"1991-03-05 15:00","1991","03","05","15:00","3.9","","-3.2","","60","","22","","13","","24.1","","98.64","","","","","","Mainly Clear"
"1991-03-05 16:00","1991","03","05","16:00","4.1","","-2.5","","62","","24","","13","","32.2","","98.64","","","","","","Clear"
"1991-03-05 17:00","1991","03","05","17:00","4.2","","-2.5","","62","","19","","11","","32.2","","98.64","","","","","","Clear"
"1991-03-05 18:00","1991","03","05","18:00","3.4","","-2.6","","65","","18","","11","","32.2","","98.64","","","","","","Mainly Clear"
"1991-03-05 19:00","1991","03","05","19:00","2.6","","-3.2","","65","","18","","11","","25.0","","98.64","","","","","","Mainly Clear"
"1991-03-05 20:00","1991","03","05","20:00","1.7","","-2.1","","76","","17","","11","","25.0","","98.64","","","","","","Mainly Clear"
"1991-03-05 21:00","1991","03","05","21:00","0.8","","-2.4","","79","","16","","11","","25.0","","98.64","","","","","","Clear"
"1991-03-05 22:00","1991","03","05","22:00","0.3","","-3.3","","77","","14","","6","","25.0","","98.61","","","","","","Mainly Clear"
"1991-03-05 23:00","1991","03","05","23:00","0.1","","-3.0","","80","","14","","11","","19.3","","98.54","","","","","","Mostly Cloudy"
"1991-03-06 00:00","1991","03","06","00:00","0.5","","-0.9","","90","","13","","15","","9.7","","98.47","","","","","","Fog"
"1991-03-06 01:00","1991","03","06","01:00","0.0","","-1.0","","93","","12","","11","","8.0","","98.41","","","","-4","","Fog"
"1991-03-06 02:00","1991","03","06","02:00","0.4","","-0.8","","92","","12","","7","","8.0","","98.34","","","","","","Fog"
"1991-03-06 03:00","1991","03","06","03:00","1.5","","-1.0","","83","","12","","11","","11.3","","98.21","","","","","","Mostly Cloudy"
"1991-03-06 04:00","1991","03","06","04:00","1.7","","-1.5","","79","","11","","13","","11.3","","98.14","","","","","","Cloudy"
"1991-03-06 05:00","1991","03","06","05:00","1.9","","-1.0","","81","","11","","15","","12.9","","98.01","","","","","","Mostly Cloudy"
"1991-03-06 06:00","1991","03","06","06:00","2.5","","-0.9","","78","","11","","17","","12.9","","97.91","","","","","","Cloudy"
"1991-03-06 07:00","1991","03","06","07:00","2.9","","-0.9","","76","","11","","17","","16.1","","97.74","","","","","","Mostly Cloudy"
"1991-03-06 08:00","1991","03","06","08:00","3.5","","-0.9","","73","","10","","13","","12.9","","97.71","","","","","","Mostly Cloudy"
"1991-03-06 09:00","1991","03","06","09:00","4.3","","-0.2","","72","","13","","11","","12.9","","97.61","","","","","","Mostly Cloudy"
"1991-03-06 10:00","1991","03","06","10:00","5.4","","-0.6","","65","","13","","15","","12.9","","97.51","","","","","","Cloudy"
"1991-03-06 11:00","1991","03","06","11:00","5.4","","-0.1","","68","","12","","17","","19.3","","97.41","","","","","","Cloudy"
"1991-03-06 12:00","1991","03","06","12:00","5.1","","0.9","","74","","14","","19","","8.0","","97.31","","","","","","Rain Showers,Fog"
"1991-03-06 13:00","1991","03","06","13:00","5.3","","1.5","","77","","14","","15","","8.0","","97.17","","","","","","Rain,Haze"
"1991-03-06 14:00","1991","03","06","14:00","4.5","","2.3","","85","","13","","15","","8.0","","97.08","","","","","","Rain,Haze"
"1991-03-06 15:00","1991","03","06","15:00","4.4","","2.7","","89","","12","","15","","8.0","","97.01","","","","","","Rain,Fog"
"1991-03-06 16:00","1991","03","06","16:00","4.2","","3.1","","92","","12","","13","","1.2","","96.91","","","","","","Rain,Drizzle,Fog"
"1991-03-06 17:00","1991","03","06","17:00","4.5","","3.6","","94","","12","","13","","0.8","","96.88","","","","","","Rain,Fog"
"1991-03-06 18:00","1991","03","06","18:00","5.0","","4.6","","97","","12","","13","","0.6","","96.81","","","","","","Rain Showers,Fog"
"1991-03-06 19:00","1991","03","06","19:00","4.6","","4.1","","97","","13","","13","","1.0","","96.78","","","","","","Rain,Fog"
"1991-03-06 20:00","1991","03","06","20:00","4.8","","4.6","","99","","14","","11","","0.4","","96.71","","","","","","Rain,Fog"
"1991-03-06 21:00","1991","03","06","21:00","4.6","","4.1","","97","","14","","11","","0.6","","96.68","","","","","","Rain,Fog"
"1991-03-06 22:00","1991","03","06","22:00","5.0","","4.6","","97","","17","","7","","0.6","","96.64","","","","","","Rain,Fog"
"1991-03-06 23:00","1991","03","06","23:00","5.0","","4.2","","95","","26","","20","","8.0","","96.68","","","","","","Fog"
"1991-03-07 00:00","1991","03","07","00:00","4.1","","1.7","","84","","27","","39","","16.1","","96.74","","","","","","Cloudy"
"1991-03-07 01:00","1991","03","07","01:00","2.1","","-1.0","","80","","26","","41","","24.1","","96.84","","","","","","Cloudy"
"1991-03-07 02:00","1991","03","07","02:00","0.9","","-2.4","","79","","25","","39","","24.1","","96.94","","","","","","Cloudy"
"1991-03-07 03:00","1991","03","07","03:00","0.2","","-2.9","","80","","25","","46","","24.1","","97.01","","","","","","Cloudy"
"1991-03-07 04:00","1991","03","07","04:00","0.1","","-3.9","","74","","25","","35","","25.0","","97.14","","","","","","Cloudy"
"1991-03-07 05:00","1991","03","07","05:00","-0.1","","-3.9","","76","","25","","39","","19.3","","97.17","","","","-7","","Snow Showers"
"1991-03-07 06:00","1991","03","07","06:00","-0.9","","-5.7","","70","","27","","39","","24.1","","97.37","","","","-9","","Snow Showers"
"1991-03-07 07:00","1991","03","07","07:00","-1.8","","-6.4","","71","","28","","43","","19.3","","97.44","","","","-10","","Cloudy"
"1991-03-07 08:00","1991","03","07","08:00","-2.5","","-6.0","","77","","30","","33","","6.4","","97.61","","","","-10","","Snow Showers"
"1991-03-07 09:00","1991","03","07","09:00","-3.6","","-7.0","","77","","30","","44","","6.4","","97.74","","","","-13","","Snow Showers"
"1991-03-07 10:00","1991","03","07","10:00","-3.5","","-7.3","","75","","29","","48","","24.1","","97.84","","","","-13","","Mostly Cloudy"
"1991-03-07 11:00","1991","03","07","11:00","-5.2","","-7.5","","84","","31","","41","","4.8","","98.04","","","","-14","","Snow Showers"
"1991-03-07 12:00","1991","03","07","12:00","-5.0","","-7.9","","80","","30","","33","","24.1","","98.14","","","","-13","","Snow Showers"
"1991-03-07 13:00","1991","03","07","13:00","-3.7","","-9.5","","64","","31","","44","","32.2","","98.24","","","","-13","","Mostly Cloudy"
"1991-03-07 14:00","1991","03","07","14:00","-3.3","","-9.1","","64","","30","","48","","32.2","","98.34","","","","-12","","Snow Showers"
"1991-03-07 15:00","1991","03","07","15:00","-3.6","","-9.1","","65","","30","","41","","32.2","","98.44","","","","-12","","Snow Showers"
"1991-03-07 16:00","1991","03","07","16:00","-3.9","","-9.1","","67","","29","","37","","24.1","","98.61","","","","-12","","Snow Showers"
"1991-03-07 17:00","1991","03","07","17:00","-4.4","","-10.6","","62","","31","","39","","32.2","","98.71","","","","-13","","Mainly Clear"
"1991-03-07 18:00","1991","03","07","18:00","-4.9","","-10.9","","63","","30","","33","","32.2","","98.84","","","","-13","","Mainly Clear"
"1991-03-07 19:00","1991","03","07","19:00","-5.5","","-11.6","","62","","30","","37","","25.0","","98.94","","","","-14","","Clear"
"1991-03-07 20:00","1991","03","07","20:00","-6.0","","-11.9","","63","","29","","30","","25.0","","99.04","","","","-14","","Clear"
"1991-03-07 21:00","1991","03","07","21:00","-6.3","","-11.7","","65","","30","","20","","25.0","","99.11","","","","-13","","Clear"
"1991-03-07 22:00","1991","03","07","22:00","-6.5","","-11.3","","69","","30","","17","","25.0","","99.14","","","","-13","","Clear"
"1991-03-07 23:00","1991","03","07","23:00","-6.8","","-12.4","","64","","30","","15","","25.0","","99.17","","","","-13","","Clear"
"1991-03-08 00:00","1991","03","08","00:00","-7.2","","-11.6","","71","","30","","15","","25.0","","99.21","","","","-13","","Clear"
"1991-03-08 01:00","1991","03","08","01:00","-7.2","","-12.4","","66","","30","","17","","25.0","","99.24","","","","-14","","Mostly Cloudy"
"1991-03-08 02:00","1991","03","08","02:00","-7.3","","-12.7","","65","","28","","15","","25.0","","99.34","","","","-13","","Mainly Clear"
"1991-03-08 03:00","1991","03","08","03:00","-7.6","","-11.8","","72","","28","","9","","25.0","","99.34","","","","-12","","Mainly Clear"
"1991-03-08 04:00","1991","03","08","04:00","-7.6","","-12.3","","69","","32","","11","","25.0","","99.41","","","","-13","","Mostly Cloudy"
"1991-03-08 05:00","1991","03","08","05:00","-8.6","","-12.7","","72","","1","","7","","25.0","","99.44","","","","-12","","Clear"
"1991-03-08 06:00","1991","03","08","06:00","-8.9","","-12.5","","75","","33","","4","","25.0","","99.47","","","","-11","","Clear"
"1991-03-08 07:00","1991","03","08","07:00","-9.1","","-11.7","","81","","","","0","","32.2","","99.51","","","","","","Clear"
"1991-03-08 08:00","1991","03","08","08:00","-7.8","","-13.4","","64","","","","0","","40.2","","99.57","","","","","","Mostly Cloudy"
"1991-03-08 09:00","1991","03","08","09:00","-6.4","","-12.2","","63","","","","0","","40.2","","99.57","","","","","","Clear"
"1991-03-08 10:00","1991","03","08","10:00","-4.8","","-11.7","","58","","34","","15","","40.2","","99.64","","","","-10","","Clear"
"1991-03-08 11:00","1991","03","08","11:00","-4.1","","-11.1","","58","","34","","11","","40.2","","99.71","","","","-9","","Mostly Cloudy"
"1991-03-08 12:00","1991","03","08","12:00","-3.9","","-11.1","","57","","34","","7","","40.2","","99.71","","","","-7","","Mostly Cloudy"
"1991-03-08 13:00","1991","03","08","13:00","-2.4","","-10.4","","54","","29","","4","","40.2","","99.71","","","","-4","","Mainly Clear"
"1991-03-08 14:00","1991","03","08","14:00","-1.1","","-6.7","","66","","31","","13","","40.2","","99.67","","","","-5","","Mainly Clear"
"1991-03-08 15:00","1991","03","08","15:00","-1.4","","-8.9","","56","","30","","7","","40.2","","99.67","","","","-4","","Mainly Clear"
"1991-03-08 16:00","1991","03","08","16:00","-0.7","","-7.4","","60","","28","","13","","40.2","","99.67","","","","-5","","Mainly Clear"
"1991-03-08 17:00","1991","03","08","17:00","-0.6","","-6.0","","67","","28","","11","","40.2","","99.71","","","","-4","","Clear"
"1991-03-08 18:00","1991","03","08","18:00","-1.5","","-6.7","","67","","26","","13","","40.2","","99.74","","","","-6","","Mainly Clear"
"1991-03-08 19:00","1991","03","08","19:00","-2.5","","-8.1","","65","","27","","9","","25.0","","99.77","","","","-6","","Mainly Clear"
"1991-03-08 20:00","1991","03","08","20:00","-3.3","","-8.4","","68","","27","","6","","25.0","","99.77","","","","-6","","Mainly Clear"
"1991-03-08 21:00","1991","03","08","21:00","-3.8","","-8.3","","71","","24","","6","","25.0","","99.77","","","","-6","","Mainly Clear"
"1991-03-08 22:00","1991","03","08","22:00","-3.5","","-8.0","","71","","24","","4","","25.0","","99.81","","","","-5","","Clear"
"1991-03-08 23:00","1991","03","08","23:00","-3.2","","-8.4","","67","","","","0","","25.0","","99.81","","","","","","Clear"
"1991-03-09 00:00","1991","03","09","00:00","-3.5","","-8.8","","67","","","","0","","25.0","","99.77","","","","","","Clear"
"1991-03-09 01:00","1991","03","09","01:00","-3.8","","-8.7","","68","","16","","4","","25.0","","99.77","","","","-5","","Clear"
"1991-03-09 02:00","1991","03","09","02:00","-4.0","","-8.0","","74","","18","","7","","25.0","","99.81","","","","-7","","Clear"
"1991-03-09 03:00","1991","03","09","03:00","-4.3","","-8.7","","71","","16","","4","","25.0","","99.77","","","","-6","","Clear"
"1991-03-09 04:00","1991","03","09","04:00","-4.4","","-8.7","","72","","16","","4","","24.1","","99.77","","","","-6","","Mainly Clear"
"1991-03-09 05:00","1991","03","09","05:00","-4.5","","-8.7","","72","","16","","4","","24.1","","99.74","","","","-6","","Clear"
"1991-03-09 06:00","1991","03","09","06:00","-4.7","","-7.9","","78","","","","0","","19.3","","99.74","","","","","","Clear"
"1991-03-09 07:00","1991","03","09","07:00","-4.9","","-7.5","","82","","14","","4","","16.1","","99.74","","","","-7","","Clear"
"1991-03-09 08:00","1991","03","09","08:00","-3.3","","-6.7","","77","","","","0","","19.3","","99.77","","","","","","Clear"
"1991-03-09 09:00","1991","03","09","09:00","-1.2","","-3.8","","83","","17","","11","","19.3","","99.71","","","","-5","","Clear"
"1991-03-09 10:00","1991","03","09","10:00","-0.2","","-4.3","","74","","15","","13","","19.3","","99.71","","","","-4","","Cloudy"
"1991-03-09 11:00","1991","03","09","11:00","0.1","","-5.1","","68","","16","","15","","19.3","","99.67","","","","","","Mostly Cloudy"
"1991-03-09 12:00","1991","03","09","12:00","0.5","","-4.9","","67","","14","","17","","19.3","","99.64","","","","","","Cloudy"
"1991-03-09 13:00","1991","03","09","13:00","0.7","","-5.5","","63","","14","","20","","19.3","","99.57","","","","","","Snow"
"1991-03-09 14:00","1991","03","09","14:00","0.0","","-5.0","","69","","14","","19","","4.0","","99.51","","","","-5","","Snow"
"1991-03-09 15:00","1991","03","09","15:00","-0.5","","-3.2","","82","","13","","19","","2.4","","99.47","","","","-6","","Snow"
"1991-03-09 16:00","1991","03","09","16:00","-0.5","","-3.2","","82","","14","","19","","6.4","","99.47","","","","-6","","Snow"
"1991-03-09 17:00","1991","03","09","17:00","-0.6","","-2.1","","90","","10","","15","","4.8","","99.47","","","","-5","","Snow"
"1991-03-09 18:00","1991","03","09","18:00","-1.1","","-2.4","","91","","13","","19","","4.8","","99.51","","","","-6","","Snow"
"1991-03-09 19:00","1991","03","09","19:00","-1.2","","-2.2","","93","","11","","15","","4.8","","99.54","","","","-6","","Snow"
"1991-03-09 20:00","1991","03","09","20:00","-1.0","","-2.4","","90","","9","","11","","4.8","","99.57","","","","-5","","Snow"
"1991-03-09 21:00","1991","03","09","21:00","-1.2","","-2.2","","93","","9","","13","","4.8","","99.57","","","","-5","","Snow"
"1991-03-09 22:00","1991","03","09","22:00","-1.1","","-2.7","","89","","9","","15","","11.3","","99.61","","","","-6","","Snow"
"1991-03-09 23:00","1991","03","09","23:00","-1.3","","-2.8","","89","","6","","11","","4.8","","99.61","","","","-5","","Snow"
"1991-03-10 00:00","1991","03","10","00:00","-1.6","","-2.8","","92","","4","","13","","4.0","","99.64","","","","-6","","Snow"
"1991-03-10 01:00","1991","03","10","01:00","-1.7","","-2.8","","92","","4","","7","","4.8","","99.64","","","","-4","","Snow"
"1991-03-10 02:00","1991","03","10","02:00","-1.7","","-2.8","","92","","2","","9","","4.8","","99.64","","","","-5","","Snow"
"1991-03-10 03:00","1991","03","10","03:00","-1.7","","-2.8","","92","","36","","11","","8.0","","99.64","","","","-6","","Fog"
"1991-03-10 04:00","1991","03","10","04:00","-2.4","","-3.7","","91","","1","","15","","9.7","","99.71","","","","-7","","Fog"
"1991-03-10 05:00","1991","03","10","05:00","-3.5","","-5.1","","89","","36","","15","","9.7","","99.81","","","","-9","","Fog"
"1991-03-10 06:00","1991","03","10","06:00","-3.6","","-5.1","","89","","35","","11","","11.3","","99.87","","","","-8","","Mostly Cloudy"
"1991-03-10 07:00","1991","03","10","07:00","-4.2","","-7.0","","81","","36","","15","","12.9","","99.97","","","","-10","","Clear"
"1991-03-10 08:00","1991","03","10","08:00","-5.2","","-7.2","","86","","35","","11","","19.3","","100.07","","","","-10","","Mainly Clear"
"1991-03-10 09:00","1991","03","10","09:00","-4.7","","-9.0","","72","","36","","15","","32.2","","100.11","","","","-10","","Clear"
"1991-03-10 10:00","1991","03","10","10:00","-4.1","","-9.5","","66","","35","","13","","40.2","","100.14","","","","-9","","Mostly Cloudy"
"1991-03-10 11:00","1991","03","10","11:00","-3.4","","-9.9","","61","","35","","17","","40.2","","100.17","","","","-9","","Mostly Cloudy"
"1991-03-10 12:00","1991","03","10","12:00","-2.2","","-8.9","","60","","36","","19","","40.2","","100.14","","","","-8","","Mainly Clear"
"1991-03-10 13:00","1991","03","10","13:00","-1.2","","-5.7","","71","","35","","19","","40.2","","100.11","","","","-7","","Clear"
"1991-03-10 14:00","1991","03","10","14:00","-0.2","","-7.6","","57","","36","","19","","40.2","","100.07","","","","-5","","Mainly Clear"
"1991-03-10 15:00","1991","03","10","15:00","0.0","","-5.6","","66","","34","","24","","40.2","","100.07","","","","-6","","Mainly Clear"
"1991-03-10 16:00","1991","03","10","16:00","0.0","","-5.6","","66","","34","","28","","40.2","","100.07","","","","-6","","Clear"
"1991-03-10 17:00","1991","03","10","17:00","-0.5","","-6.0","","66","","35","","30","","40.2","","100.07","","","","-7","","Clear"
"1991-03-10 18:00","1991","03","10","18:00","-2.0","","-6.7","","70","","35","","30","","40.2","","100.07","","","","-9","","Clear"
"1991-03-10 19:00","1991","03","10","19:00","-3.2","","-9.2","","63","","35","","22","","25.0","","100.11","","","","-10","","Mainly Clear"
"1991-03-10 20:00","1991","03","10","20:00","-3.9","","-10.3","","61","","34","","26","","25.0","","100.11","","","","-11","","Clear"
"1991-03-10 21:00","1991","03","10","21:00","-4.5","","-10.2","","64","","34","","26","","25.0","","100.17","","","","-12","","Clear"
"1991-03-10 22:00","1991","03","10","22:00","-4.8","","-11.3","","60","","33","","19","","25.0","","100.21","","","","-11","","Clear"
"1991-03-10 23:00","1991","03","10","23:00","-5.0","","-10.9","","63","","35","","19","","25.0","","100.21","","","","-11","","Clear"
"1991-03-11 00:00","1991","03","11","00:00","-5.2","","-12.6","","56","","35","","24","","25.0","","100.17","","","","-12","","Clear"
"1991-03-11 01:00","1991","03","11","01:00","-5.7","","-13.4","","55","","35","","20","","25.0","","100.21","","","","-12","","Clear"
"1991-03-11 02:00","1991","03","11","02:00","-6.8","","-14.8","","53","","34","","22","","25.0","","100.24","","","","-14","","Clear"
"1991-03-11 03:00","1991","03","11","03:00","-7.6","","-15.1","","55","","35","","20","","25.0","","100.24","","","","-15","","Clear"
"1991-03-11 04:00","1991","03","11","04:00","-8.4","","-15.1","","58","","34","","22","","25.0","","100.27","","","","-16","","Clear"
"1991-03-11 05:00","1991","03","11","05:00","-9.1","","-16.4","","55","","35","","24","","25.0","","100.34","","","","-17","","Clear"
"1991-03-11 06:00","1991","03","11","06:00","-9.8","","-16.2","","59","","34","","24","","25.0","","100.37","","","","-18","","Clear"
"1991-03-11 07:00","1991","03","11","07:00","-10.0","","-17.4","","55","","35","","22","","40.2","","100.41","","","","-18","","Clear"
"1991-03-11 08:00","1991","03","11","08:00","-9.4","","-18.4","","48","","36","","26","","40.2","","100.44","","","","-18","","Clear"
"1991-03-11 09:00","1991","03","11","09:00","-8.8","","-19.5","","41","","36","","26","","40.2","","100.44","","","","-17","","Clear"
"1991-03-11 10:00","1991","03","11","10:00","-7.2","","-15.4","","52","","36","","24","","40.2","","100.44","","","","-15","","Clear"
"1991-03-11 11:00","1991","03","11","11:00","-6.8","","-16.5","","46","","36","","24","","40.2","","100.37","","","","-14","","Clear"
"1991-03-11 12:00","1991","03","11","12:00","-6.0","","-17.0","","41","","34","","22","","40.2","","100.34","","","","-13","","Clear"
"1991-03-11 13:00","1991","03","11","13:00","-4.1","","-13.4","","48","","34","","22","","40.2","","100.27","","","","-11","","Clear"
"1991-03-11 14:00","1991","03","11","14:00","-4.2","","-13.9","","47","","33","","24","","40.2","","100.17","","","","-11","","Clear"
"1991-03-11 15:00","1991","03","11","15:00","-3.2","","-11.7","","52","","35","","24","","40.2","","100.17","","","","-10","","Clear"
"1991-03-11 16:00","1991","03","11","16:00","-4.0","","-11.5","","56","","2","","26","","40.2","","100.17","","","","-11","","Clear"
"1991-03-11 17:00","1991","03","11","17:00","-4.9","","-11.7","","59","","36","","30","","40.2","","100.21","","","","-13","","Clear"
"1991-03-11 18:00","1991","03","11","18:00","-6.1","","-11.5","","65","","35","","30","","40.2","","100.27","","","","-14","","Clear"
"1991-03-11 19:00","1991","03","11","19:00","-6.7","","-13.5","","58","","34","","22","","25.0","","100.27","","","","-14","","Clear"
"1991-03-11 20:00","1991","03","11","20:00","-7.2","","-13.8","","59","","34","","19","","25.0","","100.27","","","","-14","","Clear"
"1991-03-11 21:00","1991","03","11","21:00","-7.6","","-13.6","","62","","33","","15","","25.0","","100.27","","","","-14","","Clear"
"1991-03-11 22:00","1991","03","11","22:00","-7.9","","-14.3","","60","","33","","15","","25.0","","100.24","","","","-14","","Clear"
"1991-03-11 23:00","1991","03","11","23:00","-7.6","","-14.1","","59","","35","","15","","25.0","","100.21","","","","-14","","Clear"
"1991-03-12 00:00","1991","03","12","00:00","-7.4","","-12.7","","65","","35","","15","","25.0","","100.21","","","","-14","","Clear"
"1991-03-12 01:00","1991","03","12","01:00","-7.7","","-14.1","","60","","34","","15","","25.0","","100.21","","","","-14","","Clear"
"1991-03-12 02:00","1991","03","12","02:00","-8.5","","-13.6","","66","","33","","15","","25.0","","100.21","","","","-15","","Clear"
"1991-03-12 03:00","1991","03","12","03:00","-8.8","","-15.3","","59","","35","","20","","25.0","","100.17","","","","-16","","Clear"
"1991-03-12 04:00","1991","03","12","04:00","-9.1","","-14.3","","66","","35","","17","","25.0","","100.14","","","","-16","","Clear"
"1991-03-12 05:00","1991","03","12","05:00","-9.2","","-15.3","","61","","35","","17","","25.0","","100.14","","","","-16","","Clear"
"1991-03-12 06:00","1991","03","12","06:00","-9.5","","-14.5","","67","","35","","15","","25.0","","100.11","","","","-16","","Clear"
"1991-03-12 07:00","1991","03","12","07:00","-9.5","","-15.0","","64","","34","","17","","32.2","","100.11","","","","-17","","Clear"
"1991-03-12 08:00","1991","03","12","08:00","-8.1","","-16.5","","51","","34","","15","","32.2","","100.11","","","","-14","","Clear"
"1991-03-12 09:00","1991","03","12","09:00","-6.3","","-14.0","","54","","1","","19","","32.2","","100.14","","","","-13","","Clear"
"1991-03-12 10:00","1991","03","12","10:00","-4.8","","-11.7","","58","","34","","17","","32.2","","100.11","","","","-11","","Clear"
"1991-03-12 11:00","1991","03","12","11:00","-3.8","","-12.4","","51","","35","","15","","32.2","","100.07","","","","-9","","Clear"
"1991-03-12 12:00","1991","03","12","12:00","-2.0","","-9.3","","57","","34","","15","","32.2","","100.04","","","","-7","","Clear"
"1991-03-12 13:00","1991","03","12","13:00","-0.8","","-7.0","","63","","35","","11","","32.2","","99.97","","","","-5","","Clear"
"1991-03-12 14:00","1991","03","12","14:00","0.2","","-6.0","","63","","36","","13","","32.2","","99.87","","","","","","Clear"
"1991-03-12 15:00","1991","03","12","15:00","1.3","","-5.4","","61","","34","","13","","32.2","","99.77","","","","","","Clear"
"1991-03-12 16:00","1991","03","12","16:00","1.4","","-5.4","","61","","35","","19","","40.2","","99.67","","","","","","Clear"
"1991-03-12 17:00","1991","03","12","17:00","1.0","","-5.5","","62","","35","","15","","40.2","","99.67","","","","","","Clear"
"1991-03-12 18:00","1991","03","12","18:00","-0.7","","-5.3","","71","","34","","19","","32.2","","99.71","","","","-6","","Clear"
"1991-03-12 19:00","1991","03","12","19:00","-2.1","","-6.4","","72","","33","","17","","25.0","","99.71","","","","-7","","Clear"
"1991-03-12 20:00","1991","03","12","20:00","-3.1","","-6.7","","76","","33","","13","","25.0","","99.71","","","","-8","","Clear"
"1991-03-12 21:00","1991","03","12","21:00","-3.7","","-7.3","","76","","33","","17","","25.0","","99.71","","","","-9","","Clear"
"1991-03-12 22:00","1991","03","12","22:00","-4.1","","-7.3","","78","","34","","15","","25.0","","99.64","","","","-9","","Clear"
"1991-03-12 23:00","1991","03","12","23:00","-4.2","","-7.3","","79","","35","","15","","25.0","","99.64","","","","-10","","Clear"
"1991-03-13 00:00","1991","03","13","00:00","-3.5","","-7.3","","75","","35","","19","","25.0","","99.61","","","","-9","","Clear"
"1991-03-13 01:00","1991","03","13","01:00","-4.1","","-8.0","","74","","36","","19","","25.0","","99.57","","","","-10","","Clear"
"1991-03-13 02:00","1991","03","13","02:00","-4.5","","-8.7","","72","","35","","17","","25.0","","99.54","","","","-10","","Clear"
"1991-03-13 03:00","1991","03","13","03:00","-5.0","","-8.9","","74","","35","","13","","25.0","","99.51","","","","-10","","Clear"
"1991-03-13 04:00","1991","03","13","04:00","-5.2","","-9.7","","71","","35","","17","","25.0","","99.47","","","","-11","","Clear"
"1991-03-13 05:00","1991","03","13","05:00","-5.6","","-9.6","","73","","36","","17","","25.0","","99.44","","","","-12","","Mainly Clear"
"1991-03-13 06:00","1991","03","13","06:00","-6.5","","-10.5","","73","","35","","13","","25.0","","99.44","","","","-12","","Clear"
"1991-03-13 07:00","1991","03","13","07:00","-5.9","","-10.6","","69","","36","","15","","32.2","","99.47","","","","-12","","Mainly Clear"
"1991-03-13 08:00","1991","03","13","08:00","-4.8","","-11.3","","60","","36","","9","","32.2","","99.47","","","","-9","","Mainly Clear"
"1991-03-13 09:00","1991","03","13","09:00","-2.9","","-9.2","","62","","2","","19","","32.2","","99.44","","","","-9","","Mainly Clear"
"1991-03-13 10:00","1991","03","13","10:00","-1.2","","-8.9","","56","","3","","15","","32.2","","99.41","","","","-6","","Mainly Clear"
"1991-03-13 11:00","1991","03","13","11:00","0.2","","-8.1","","53","","4","","15","","32.2","","99.37","","","","","","Mainly Clear"
"1991-03-13 12:00","1991","03","13","12:00","1.8","","-7.5","","50","","2","","19","","32.2","","99.31","","","","","","Mainly Clear"
"1991-03-13 13:00","1991","03","13","13:00","2.4","","-5.9","","54","","3","","13","","32.2","","99.24","","","","","","Mainly Clear"
"1991-03-13 14:00","1991","03","13","14:00","3.4","","-5.9","","51","","3","","22","","32.2","","99.17","","","","","","Mainly Clear"
"1991-03-13 15:00","1991","03","13","15:00","4.2","","-5.9","","48","","4","","15","","32.2","","99.14","","","","","","Mainly Clear"
"1991-03-13 16:00","1991","03","13","16:00","2.2","","-4.7","","60","","15","","15","","32.2","","99.11","","","","","","Mainly Clear"
"1991-03-13 17:00","1991","03","13","17:00","1.2","","-5.5","","61","","14","","11","","32.2","","99.14","","","","","","Clear"
"1991-03-13 18:00","1991","03","13","18:00","0.2","","-5.3","","66","","14","","7","","32.2","","99.14","","","","","","Clear"
"1991-03-13 19:00","1991","03","13","19:00","-0.5","","-5.3","","70","","15","","7","","25.0","","99.17","","","","-3","","Clear"
"1991-03-13 20:00","1991","03","13","20:00","-1.2","","-5.0","","75","","","","0","","25.0","","99.17","","","","","","Clear"
"1991-03-13 21:00","1991","03","13","21:00","-2.3","","-6.0","","76","","","","0","","25.0","","99.24","","","","","","Clear"
"1991-03-13 22:00","1991","03","13","22:00","-1.8","","-5.7","","74","","","","0","","25.0","","99.21","","","","","","Clear"
"1991-03-13 23:00","1991","03","13","23:00","-1.7","","-5.4","","76","","5","","9","","25.0","","99.21","","","","-5","","Clear"
"1991-03-14 00:00","1991","03","14","00:00","-3.8","","-7.0","","78","","35","","7","","25.0","","99.21","","","","-7","","Clear"
"1991-03-14 01:00","1991","03","14","01:00","-3.8","","-5.7","","86","","36","","11","","25.0","","99.21","","","","-8","","Clear"
"1991-03-14 02:00","1991","03","14","02:00","-3.0","","-5.7","","81","","36","","17","","25.0","","99.17","","","","-9","","Clear"
"1991-03-14 03:00","1991","03","14","03:00","-3.0","","-6.7","","75","","1","","15","","25.0","","99.17","","","","-8","","Clear"
"1991-03-14 04:00","1991","03","14","04:00","-3.4","","-7.0","","76","","35","","15","","25.0","","99.17","","","","-9","","Clear"
"1991-03-14 05:00","1991","03","14","05:00","-3.2","","-7.4","","73","","36","","17","","25.0","","99.17","","","","-9","","Clear"
"1991-03-14 06:00","1991","03","14","06:00","-3.6","","-7.3","","76","","35","","20","","25.0","","99.24","","","","-10","","Clear"
"1991-03-14 07:00","1991","03","14","07:00","-3.4","","-7.7","","72","","1","","19","","40.2","","99.27","","","","-9","","Mainly Clear"
"1991-03-14 08:00","1991","03","14","08:00","-1.8","","-11.8","","46","","2","","17","","40.2","","99.31","","","","-7","","Mainly Clear"
"1991-03-14 09:00","1991","03","14","09:00","1.2","","-7.6","","52","","5","","22","","40.2","","99.34","","","","","","Clear"
"1991-03-14 10:00","1991","03","14","10:00","2.7","","-6.6","","50","","4","","20","","32.2","","99.34","","","","","","Clear"
"1991-03-14 11:00","1991","03","14","11:00","3.8","","-5.9","","49","","6","","13","","32.2","","99.34","","","","","","Clear"
"1991-03-14 12:00","1991","03","14","12:00","5.3","","-6.5","","42","","6","","19","","32.2","","99.34","","","","","","Mainly Clear"
"1991-03-14 13:00","1991","03","14","13:00","5.7","","-5.8","","43","","2","","15","","32.2","","99.34","","","","","","Mostly Cloudy"
"1991-03-14 14:00","1991","03","14","14:00","6.0","","-3.6","","50","","3","","19","","32.2","","99.31","","","","","","Mostly Cloudy"
"1991-03-14 15:00","1991","03","14","15:00","5.5","","-4.3","","49","","7","","22","","32.2","","99.34","","","","","","Mostly Cloudy"
"1991-03-14 16:00","1991","03","14","16:00","4.8","","-1.8","","62","","4","","11","","40.2","","99.37","","","","","","Mostly Cloudy"
"1991-03-14 17:00","1991","03","14","17:00","4.7","","-4.4","","52","","1","","22","","40.2","","99.41","","","","","","Mostly Cloudy"
"1991-03-14 18:00","1991","03","14","18:00","4.3","","-3.8","","56","","35","","20","","40.2","","99.47","","","","","","Mostly Cloudy"
"1991-03-14 19:00","1991","03","14","19:00","4.0","","-4.5","","54","","1","","17","","25.0","","99.54","","","","","","Mostly Cloudy"
"1991-03-14 20:00","1991","03","14","20:00","3.4","","-4.5","","56","","1","","15","","25.0","","99.61","","","","","","Mostly Cloudy"
"1991-03-14 21:00","1991","03","14","21:00","2.9","","-5.2","","55","","2","","15","","25.0","","99.64","","","","","","Mostly Cloudy"
"1991-03-14 22:00","1991","03","14","22:00","2.1","","-4.7","","60","","1","","15","","25.0","","99.71","","","","","","Mostly Cloudy"
"1991-03-14 23:00","1991","03","14","23:00","1.5","","-4.1","","66","","35","","11","","25.0","","99.77","","","","","","Mostly Cloudy"
"1991-03-15 00:00","1991","03","15","00:00","0.2","","-4.1","","73","","34","","15","","25.0","","99.81","","","","","","Mostly Cloudy"
"1991-03-15 01:00","1991","03","15","01:00","-0.3","","-4.1","","75","","34","","15","","25.0","","99.84","","","","-5","","Mostly Cloudy"
"1991-03-15 02:00","1991","03","15","02:00","0.1","","-4.2","","73","","34","","17","","25.0","","99.84","","","","","","Mostly Cloudy"
"1991-03-15 03:00","1991","03","15","03:00","-1.2","","-4.7","","77","","34","","13","","25.0","","99.87","","","","-5","","Mainly Clear"
"1991-03-15 04:00","1991","03","15","04:00","-1.6","","-4.5","","81","","34","","15","","25.0","","99.91","","","","-6","","Mainly Clear"
"1991-03-15 05:00","1991","03","15","05:00","-1.5","","-4.5","","80","","34","","17","","25.0","","99.94","","","","-7","","Mostly Cloudy"
"1991-03-15 06:00","1991","03","15","06:00","-0.6","","-3.8","","79","","34","","15","","25.0","","100.01","","","","-5","","Mostly Cloudy"
"1991-03-15 07:00","1991","03","15","07:00","0.1","","-4.2","","73","","34","","17","","32.2","","100.11","","","","","","Mostly Cloudy"
"1991-03-15 08:00","1991","03","15","08:00","0.7","","-3.1","","75","","35","","15","","32.2","","100.21","","","","","","Mostly Cloudy"
"1991-03-15 09:00","1991","03","15","09:00","1.5","","-2.9","","73","","35","","15","","40.2","","100.24","","","","","","Mostly Cloudy"
"1991-03-15 10:00","1991","03","15","10:00","2.6","","-3.9","","62","","35","","15","","40.2","","100.27","","","","","","Cloudy"
"1991-03-15 11:00","1991","03","15","11:00","3.8","","-3.2","","60","","36","","15","","40.2","","100.27","","","","","","Cloudy"
"1991-03-15 12:00","1991","03","15","12:00","4.6","","-3.8","","54","","34","","19","","40.2","","100.31","","","","","","Mostly Cloudy"
"1991-03-15 13:00","1991","03","15","13:00","4.8","","-6.6","","43","","32","","15","","40.2","","100.31","","","","","","Mostly Cloudy"
"1991-03-15 14:00","1991","03","15","14:00","5.0","","-5.1","","48","","2","","15","","40.2","","100.31","","","","","","Mostly Cloudy"
"1991-03-15 15:00","1991","03","15","15:00","6.2","","-5.0","","44","","3","","11","","40.2","","100.31","","","","","","Mainly Clear"
"1991-03-15 16:00","1991","03","15","16:00","6.2","","-5.0","","44","","1","","17","","40.2","","100.34","","","","","","Mainly Clear"
"1991-03-15 17:00","1991","03","15","17:00","5.7","","-4.3","","48","","2","","15","","40.2","","100.37","","","","","","Mainly Clear"
"1991-03-15 18:00","1991","03","15","18:00","4.1","","-5.1","","51","","34","","20","","40.2","","100.41","","","","","","Clear"
"1991-03-15 19:00","1991","03","15","19:00","2.3","","-3.9","","64","","35","","15","","25.0","","100.47","","","","","","Clear"
"1991-03-15 20:00","1991","03","15","20:00","1.1","","-4.2","","67","","35","","13","","25.0","","100.51","","","","","","Clear"
"1991-03-15 21:00","1991","03","15","21:00","-0.1","","-4.5","","72","","34","","15","","25.0","","100.57","","","","-5","","Clear"
"1991-03-15 22:00","1991","03","15","22:00","-1.4","","-5.1","","76","","34","","11","","25.0","","100.57","","","","-5","","Clear"
"1991-03-15 23:00","1991","03","15","23:00","-1.7","","-4.8","","80","","29","","7","","25.0","","100.57","","","","-4","","Clear"
"1991-03-16 00:00","1991","03","16","00:00","-2.7","","-5.1","","84","","29","","7","","25.0","","100.61","","","","-6","","Clear"
"1991-03-16 01:00","1991","03","16","01:00","-2.6","","-5.4","","81","","31","","7","","25.0","","100.57","","","","-5","","Clear"
"1991-03-16 02:00","1991","03","16","02:00","-2.5","","-5.7","","78","","31","","6","","25.0","","100.61","","","","-5","","Clear"
"1991-03-16 03:00","1991","03","16","03:00","-3.2","","-5.7","","83","","29","","7","","25.0","","100.61","","","","-6","","Clear"
"1991-03-16 04:00","1991","03","16","04:00","-4.0","","-6.6","","82","","34","","7","","25.0","","100.57","","","","-7","","Clear"
"1991-03-16 05:00","1991","03","16","05:00","-3.6","","-6.3","","82","","28","","7","","25.0","","100.61","","","","-7","","Clear"
"1991-03-16 06:00","1991","03","16","06:00","-3.5","","-7.0","","77","","27","","6","","25.0","","100.64","","","","-6","","Clear"
"1991-03-16 07:00","1991","03","16","07:00","-2.9","","-7.0","","73","","27","","7","","32.2","","100.67","","","","-6","","Mainly Clear"
"1991-03-16 08:00","1991","03","16","08:00","-0.5","","-4.7","","73","","27","","7","","32.2","","100.71","","","","-3","","Clear"
"1991-03-16 09:00","1991","03","16","09:00","3.4","","-4.5","","56","","26","","13","","40.2","","100.77","","","","","","Mainly Clear"
"1991-03-16 10:00","1991","03","16","10:00","6.3","","-2.9","","52","","28","","11","","40.2","","100.81","","","","","","Mainly Clear"
"1991-03-16 11:00","1991","03","16","11:00","7.5","","-4.0","","44","","28","","17","","40.2","","100.81","","","","","","Clear"
"1991-03-16 12:00","1991","03","16","12:00","8.6","","-3.8","","41","","28","","17","","40.2","","100.77","","","","","","Clear"
"1991-03-16 13:00","1991","03","16","13:00","9.9","","-2.8","","41","","30","","20","","40.2","","100.71","","","","","","Clear"
"1991-03-16 14:00","1991","03","16","14:00","10.4","","-3.4","","38","","30","","22","","40.2","","100.64","","","","","","Clear"
"1991-03-16 15:00","1991","03","16","15:00","10.4","","-3.4","","38","","27","","20","","40.2","","100.57","","","","","","Clear"
"1991-03-16 16:00","1991","03","16","16:00","10.6","","-2.7","","39","","29","","17","","40.2","","100.57","","","","","","Clear"
"1991-03-16 17:00","1991","03","16","17:00","9.8","","-1.5","","45","","28","","17","","40.2","","100.54","","","","","","Clear"
"1991-03-16 18:00","1991","03","16","18:00","6.7","","-4.2","","45","","29","","15","","40.2","","100.54","","","","","","Mainly Clear"
"1991-03-16 19:00","1991","03","16","19:00","5.5","","-3.7","","51","","26","","11","","25.0","","100.57","","","","","","Mainly Clear"
"1991-03-16 20:00","1991","03","16","20:00","1.9","","-3.4","","68","","32","","11","","25.0","","100.57","","","","","","Mostly Cloudy"
"1991-03-16 21:00","1991","03","16","21:00","2.0","","-4.7","","61","","31","","11","","25.0","","100.57","","","","","","Mainly Clear"
"1991-03-16 22:00","1991","03","16","22:00","1.1","","-4.8","","65","","30","","11","","25.0","","100.57","","","","","","Mainly Clear"
"1991-03-16 23:00","1991","03","16","23:00","0.2","","-5.0","","68","","32","","15","","25.0","","100.57","","","","","","Clear"
"1991-03-17 00:00","1991","03","17","00:00","-0.4","","-6.2","","65","","30","","9","","25.0","","100.61","","","","-4","","Clear"
"1991-03-17 01:00","1991","03","17","01:00","-2.3","","-5.7","","77","","33","","11","","25.0","","100.67","","","","-6","","Clear"
"1991-03-17 02:00","1991","03","17","02:00","-1.7","","-5.4","","76","","34","","9","","25.0","","100.64","","","","-5","","Clear"
"1991-03-17 03:00","1991","03","17","03:00","-2.3","","-5.4","","79","","35","","15","","25.0","","100.64","","","","-7","","Clear"
"1991-03-17 04:00","1991","03","17","04:00","-3.2","","-6.4","","79","","35","","11","","25.0","","100.64","","","","-7","","Clear"
"1991-03-17 05:00","1991","03","17","05:00","-2.6","","-5.7","","79","","","","0","","25.0","","100.67","","","","","","Mainly Clear"
"1991-03-17 06:00","1991","03","17","06:00","-4.1","","-7.3","","78","","32","","7","","25.0","","100.67","","","","-7","","Mainly Clear"
"1991-03-17 07:00","1991","03","17","07:00","-3.1","","-6.0","","80","","34","","11","","32.2","","100.61","","","","-7","","Mainly Clear"
"1991-03-17 08:00","1991","03","17","08:00","0.4","","-3.8","","74","","35","","7","","40.2","","100.57","","","","","","Mainly Clear"
"1991-03-17 09:00","1991","03","17","09:00","3.4","","-2.0","","68","","","","0","","40.2","","100.57","","","","","","Mainly Clear"
"1991-03-17 10:00","1991","03","17","10:00","5.9","","-8.1","","36","","","","0","","40.2","","100.51","","","","","","Mainly Clear"
"1991-03-17 11:00","1991","03","17","11:00","8.3","","-7.8","","31","","15","","7","","40.2","","100.44","","","","","","Mainly Clear"
"1991-03-17 12:00","1991","03","17","12:00","9.5","","-5.9","","33","","14","","11","","40.2","","100.37","","","","","","Cloudy"
"1991-03-17 13:00","1991","03","17","13:00","9.6","","-8.4","","27","","16","","11","","40.2","","100.31","","","","","","Mostly Cloudy"
"1991-03-17 14:00","1991","03","17","14:00","10.3","","-10.2","","22","","14","","11","","32.2","","100.17","","","","","","Cloudy"
"1991-03-17 15:00","1991","03","17","15:00","10.4","","-10.2","","22","","17","","7","","32.2","","100.11","","","","","","Cloudy"
"1991-03-17 16:00","1991","03","17","16:00","10.7","","-11.3","","20","","15","","7","","32.2","","99.97","","","","","","Cloudy"
"1991-03-17 17:00","1991","03","17","17:00","9.3","","-7.5","","30","","12","","7","","32.2","","99.81","","","","","","Cloudy"
"1991-03-17 18:00","1991","03","17","18:00","8.5","","-8.7","","28","","8","","9","","32.2","","99.74","","","","","","Cloudy"
"1991-03-17 19:00","1991","03","17","19:00","7.8","","-7.0","","34","","14","","9","","24.1","","99.71","","","","","","Cloudy"
"1991-03-17 20:00","1991","03","17","20:00","7.0","","-6.3","","38","","11","","7","","24.1","","99.67","","","","","","Cloudy"
"1991-03-17 21:00","1991","03","17","21:00","6.2","","-6.5","","40","","8","","11","","24.1","","99.51","","","","","","Cloudy"
"1991-03-17 22:00","1991","03","17","22:00","8.0","","-7.3","","33","","9","","9","","24.1","","99.51","","","","","","Cloudy"
"1991-03-17 23:00","1991","03","17","23:00","5.7","","-7.3","","39","","7","","13","","24.1","","99.37","","","","","","Cloudy"
"1991-03-18 00:00","1991","03","18","00:00","5.9","","-5.7","","43","","11","","17","","25.0","","99.24","","","","","","Cloudy"
"1991-03-18 01:00","1991","03","18","01:00","5.7","","-5.8","","43","","9","","19","","25.0","","99.07","","","","","","Cloudy"
"1991-03-18 02:00","1991","03","18","02:00","5.3","","-4.3","","50","","9","","19","","25.0","","98.94","","","","","","Cloudy"
"1991-03-18 03:00","1991","03","18","03:00","4.4","","-3.1","","58","","9","","15","","25.0","","98.84","","","","","","Cloudy"
"1991-03-18 04:00","1991","03","18","04:00","3.9","","-1.9","","66","","9","","11","","25.0","","98.74","","","","","","Rain"
"1991-03-18 05:00","1991","03","18","05:00","3.0","","0.2","","82","","9","","7","","12.9","","98.64","","","","","","Rain"
"1991-03-18 06:00","1991","03","18","06:00","2.8","","1.1","","89","","7","","11","","11.3","","98.54","","","","","","Rain"
"1991-03-18 07:00","1991","03","18","07:00","3.1","","0.7","","84","","8","","15","","6.4","","98.44","","","","","","Rain,Fog"
"1991-03-18 08:00","1991","03","18","08:00","3.4","","2.2","","92","","8","","17","","6.4","","98.41","","","","","","Rain,Fog"
"1991-03-18 09:00","1991","03","18","09:00","3.8","","2.7","","93","","8","","17","","8.0","","98.31","","","","","","Rain,Fog"
"1991-03-18 10:00","1991","03","18","10:00","4.0","","2.7","","91","","7","","19","","6.4","","98.24","","","","","","Rain,Fog"
"1991-03-18 11:00","1991","03","18","11:00","4.2","","2.7","","90","","8","","19","","6.4","","98.21","","","","","","Rain,Fog"
"1991-03-18 12:00","1991","03","18","12:00","4.5","","2.7","","88","","7","","19","","8.0","","98.14","","","","","","Rain,Fog"
"1991-03-18 13:00","1991","03","18","13:00","4.5","","2.3","","85","","6","","19","","9.7","","98.11","","","","","","Rain,Fog"
"1991-03-18 14:00","1991","03","18","14:00","4.4","","2.3","","86","","6","","19","","9.7","","98.07","","","","","","Rain,Fog"
"1991-03-18 15:00","1991","03","18","15:00","4.4","","2.3","","86","","4","","15","","9.7","","98.11","","","","","","Rain,Fog"
"1991-03-18 16:00","1991","03","18","16:00","4.0","","2.2","","88","","2","","17","","9.7","","98.11","","","","","","Rain,Fog"
"1991-03-18 17:00","1991","03","18","17:00","3.9","","1.7","","86","","1","","13","","9.7","","98.14","","","","","","Rain,Fog"
"1991-03-18 18:00","1991","03","18","18:00","3.9","","2.2","","89","","35","","11","","8.0","","98.17","","","","","","Rain,Fog"
"1991-03-18 19:00","1991","03","18","19:00","3.5","","2.2","","91","","33","","17","","6.4","","98.24","","","","","","Rain,Fog"
"1991-03-18 20:00","1991","03","18","20:00","3.2","","1.1","","86","","36","","15","","8.0","","98.31","","","","","","Rain,Fog"
"1991-03-18 21:00","1991","03","18","21:00","2.8","","1.6","","92","","35","","13","","9.7","","98.34","","","","","","Rain,Fog"
"1991-03-18 22:00","1991","03","18","22:00","2.7","","1.6","","92","","30","","11","","11.3","","98.34","","","","","","Rain"
"1991-03-18 23:00","1991","03","18","23:00","3.1","","0.7","","84","","31","","13","","19.3","","98.37","","","","","","Drizzle"
"1991-03-19 00:00","1991","03","19","00:00","3.5","","0.2","","79","","34","","15","","24.1","","98.41","","","","","","Cloudy"
"1991-03-19 01:00","1991","03","19","01:00","2.7","","-1.5","","74","","31","","9","","25.0","","98.41","","","","","","Cloudy"
"1991-03-19 02:00","1991","03","19","02:00","2.9","","-2.6","","67","","31","","15","","25.0","","98.41","","","","","","Cloudy"
"1991-03-19 03:00","1991","03","19","03:00","2.1","","-2.6","","71","","30","","13","","25.0","","98.41","","","","","","Cloudy"
"1991-03-19 04:00","1991","03","19","04:00","1.9","","-2.1","","75","","31","","15","","24.1","","98.41","","","","","","Mostly Cloudy"
"1991-03-19 05:00","1991","03","19","05:00","1.5","","-2.1","","77","","31","","15","","19.3","","98.44","","","","","","Clear"
"1991-03-19 06:00","1991","03","19","06:00","1.3","","-1.5","","82","","31","","17","","12.9","","98.47","","","","","","Clear"
"1991-03-19 07:00","1991","03","19","07:00","1.4","","-1.5","","81","","32","","19","","19.3","","98.54","","","","","","Mainly Clear"
"1991-03-19 08:00","1991","03","19","08:00","1.8","","-1.0","","82","","31","","22","","24.1","","98.54","","","","","","Mainly Clear"
"1991-03-19 09:00","1991","03","19","09:00","4.2","","-0.3","","72","","30","","24","","19.3","","98.54","","","","","","Mainly Clear"
"1991-03-19 10:00","1991","03","19","10:00","5.1","","1.4","","77","","30","","24","","19.3","","98.57","","","","","","Mainly Clear"
"1991-03-19 11:00","1991","03","19","11:00","5.9","","-0.6","","63","","30","","35","","24.1","","98.61","","","","","","Mostly Cloudy"
"1991-03-19 12:00","1991","03","19","12:00","4.7","","-0.8","","67","","30","","30","","24.1","","98.61","","","","","","Cloudy"
"1991-03-19 13:00","1991","03","19","13:00","5.4","","-0.1","","68","","30","","28","","19.3","","98.54","","","","","","Mostly Cloudy"
"1991-03-19 14:00","1991","03","19","14:00","6.5","","-0.5","","61","","31","","31","","24.1","","98.47","","","","","","Cloudy"
"1991-03-19 15:00","1991","03","19","15:00","6.5","","-0.5","","61","","30","","28","","24.1","","98.44","","","","","","Cloudy"
"1991-03-19 16:00","1991","03","19","16:00","7.0","","-0.4","","59","","30","","24","","19.3","","98.44","","","","","","Rain Showers"
"1991-03-19 17:00","1991","03","19","17:00","7.0","","0.7","","64","","29","","30","","19.3","","98.51","","","","","","Cloudy"
"1991-03-19 18:00","1991","03","19","18:00","5.7","","0.4","","69","","30","","22","","19.3","","98.54","","","","","","Mostly Cloudy"
"1991-03-19 19:00","1991","03","19","19:00","4.7","","-0.8","","67","","32","","28","","19.3","","98.64","","","","","","Mostly Cloudy"
"1991-03-19 20:00","1991","03","19","20:00","4.3","","-0.2","","72","","32","","24","","19.3","","98.74","","","","","","Mostly Cloudy"
"1991-03-19 21:00","1991","03","19","21:00","3.8","","-0.3","","75","","35","","19","","19.3","","98.87","","","","","","Mostly Cloudy"
"1991-03-19 22:00","1991","03","19","22:00","2.1","","-1.0","","80","","32","","15","","24.1","","98.91","","","","","","Mostly Cloudy"
"1991-03-19 23:00","1991","03","19","23:00","2.6","","-0.9","","78","","29","","15","","24.1","","98.94","","","","","","Mostly Cloudy"
"1991-03-20 00:00","1991","03","20","00:00","0.7","","-2.0","","82","","28","","11","","24.1","","99.04","","","","","","Clear"
"1991-03-20 01:00","1991","03","20","01:00","1.5","","-2.1","","77","","29","","17","","24.1","","99.11","","","","","","Clear"
"1991-03-20 02:00","1991","03","20","02:00","-0.1","","-2.2","","86","","28","","11","","19.3","","99.21","","","","-4","","Clear"
"1991-03-20 03:00","1991","03","20","03:00","-0.7","","-2.4","","88","","27","","11","","16.1","","99.27","","","","-4","","Clear"
"1991-03-20 04:00","1991","03","20","04:00","-0.1","","-3.0","","81","","31","","15","","19.3","","99.27","","","","-5","","Clear"
"1991-03-20 05:00","1991","03","20","05:00","-1.0","","-3.3","","84","","30","","11","","19.3","","99.34","","","","-5","","Clear"
"1991-03-20 06:00","1991","03","20","06:00","-1.9","","-4.2","","84","","32","","11","","19.3","","99.47","","","","-6","","Clear"
"1991-03-20 07:00","1991","03","20","07:00","-0.7","","-3.5","","81","","30","","11","","24.1","","99.57","","","","-4","","Clear"
"1991-03-20 08:00","1991","03","20","08:00","0.6","","-2.0","","83","","33","","15","","32.2","","99.64","","","","","","Clear"
"1991-03-20 09:00","1991","03","20","09:00","1.5","","-2.9","","73","","33","","20","","40.2","","99.67","","","","","","Clear"
"1991-03-20 10:00","1991","03","20","10:00","2.8","","-5.2","","56","","34","","17","","40.2","","99.67","","","","","","Clear"
"1991-03-20 11:00","1991","03","20","11:00","3.4","","-4.5","","56","","35","","15","","40.2","","99.64","","","","","","Clear"
"1991-03-20 12:00","1991","03","20","12:00","4.8","","-3.1","","57","","1","","11","","40.2","","99.67","","","","","","Mainly Clear"
"1991-03-20 13:00","1991","03","20","13:00","6.1","","-1.7","","57","","2","","9","","40.2","","99.71","","","","","","Mainly Clear"
"1991-03-20 14:00","1991","03","20","14:00","6.8","","-2.2","","53","","3","","11","","40.2","","99.64","","","","","","Mostly Cloudy"
"1991-03-20 15:00","1991","03","20","15:00","7.2","","-2.8","","49","","30","","17","","40.2","","99.64","","","","","","Mostly Cloudy"
"1991-03-20 16:00","1991","03","20","16:00","7.6","","-1.5","","52","","32","","20","","40.2","","99.61","","","","","","Mostly Cloudy"
"1991-03-20 17:00","1991","03","20","17:00","6.3","","-4.2","","47","","4","","17","","40.2","","99.61","","","","","","Mostly Cloudy"
"1991-03-20 18:00","1991","03","20","18:00","5.0","","-5.1","","48","","6","","15","","40.2","","99.64","","","","","","Mostly Cloudy"
"1991-03-20 19:00","1991","03","20","19:00","3.9","","-5.1","","52","","2","","11","","25.0","","99.64","","","","","","Mostly Cloudy"
"1991-03-20 20:00","1991","03","20","20:00","1.4","","-5.4","","61","","3","","7","","25.0","","99.67","","","","","","Mostly Cloudy"
"1991-03-20 21:00","1991","03","20","21:00","2.0","","-9.1","","43","","6","","9","","25.0","","99.67","","","","","","Mainly Clear"
"1991-03-20 22:00","1991","03","20","22:00","-0.3","","-5.4","","68","","36","","7","","25.0","","99.67","","","","-3","","Mainly Clear"
"1991-03-20 23:00","1991","03","20","23:00","0.3","","-7.6","","55","","3","","7","","25.0","","99.67","","","","","","Mostly Cloudy"
"1991-03-21 00:00","1991","03","21","00:00","0.8","","-4.8","","66","","5","","9","","24.1","","99.61","","","","","","Mostly Cloudy"
"1991-03-21 01:00","1991","03","21","01:00","1.5","","-5.4","","60","","8","","11","","24.1","","99.57","","","","","","Mostly Cloudy"
"1991-03-21 02:00","1991","03","21","02:00","2.1","","-5.3","","58","","8","","9","","24.1","","99.57","","","","","","Cloudy"
"1991-03-21 03:00","1991","03","21","03:00","2.2","","-5.3","","57","","12","","9","","24.1","","99.47","","","","","","Cloudy"
"1991-03-21 04:00","1991","03","21","04:00","2.3","","-5.2","","58","","11","","17","","24.1","","99.47","","","","","","Cloudy"
"1991-03-21 05:00","1991","03","21","05:00","2.1","","-6.0","","55","","12","","24","","24.1","","99.44","","","","","","Cloudy"
"1991-03-21 06:00","1991","03","21","06:00","1.8","","-3.4","","68","","12","","20","","24.1","","99.41","","","","","","Cloudy"
"1991-03-21 07:00","1991","03","21","07:00","2.0","","-2.6","","71","","9","","24","","24.1","","99.31","","","","","","Cloudy"
"1991-03-21 08:00","1991","03","21","08:00","1.8","","-1.5","","79","","9","","20","","16.1","","99.21","","","","","","Snow Pellets"
"1991-03-21 09:00","1991","03","21","09:00","2.0","","-2.6","","71","","9","","31","","19.3","","99.14","","","","","","Rain"
"1991-03-21 10:00","1991","03","21","10:00","2.0","","-3.4","","67","","9","","24","","24.1","","99.14","","","","","","Cloudy"
"1991-03-21 11:00","1991","03","21","11:00","2.5","","-2.6","","69","","9","","28","","24.1","","99.07","","","","","","Cloudy"
"1991-03-21 12:00","1991","03","21","12:00","3.5","","-2.6","","64","","9","","26","","24.1","","99.04","","","","","","Cloudy"
"1991-03-21 13:00","1991","03","21","13:00","4.4","","-1.3","","67","","8","","24","","24.1","","99.04","","","","","","Cloudy"
"1991-03-21 14:00","1991","03","21","14:00","3.9","","-2.5","","63","","10","","24","","24.1","","99.04","","","","","","Cloudy"
"1991-03-21 15:00","1991","03","21","15:00","4.0","","-2.5","","62","","9","","24","","32.2","","99.07","","","","","","Mostly Cloudy"
"1991-03-21 16:00","1991","03","21","16:00","3.0","","-3.8","","61","","10","","28","","32.2","","99.11","","","","","","Mostly Cloudy"
"1991-03-21 17:00","1991","03","21","17:00","2.1","","-4.0","","64","","7","","24","","32.2","","99.24","","","","","","Mostly Cloudy"
"1991-03-21 18:00","1991","03","21","18:00","1.4","","-4.8","","63","","7","","24","","24.1","","99.34","","","","","","Cloudy"
"1991-03-21 19:00","1991","03","21","19:00","1.1","","-4.8","","65","","9","","20","","24.1","","99.41","","","","","","Cloudy"
"1991-03-21 20:00","1991","03","21","20:00","0.9","","-4.2","","69","","10","","19","","24.1","","99.47","","","","","","Mostly Cloudy"
"1991-03-21 21:00","1991","03","21","21:00","0.2","","-2.9","","80","","9","","22","","24.1","","99.51","","","","","","Mostly Cloudy"
"1991-03-21 22:00","1991","03","21","22:00","0.4","","-2.1","","83","","10","","20","","19.3","","99.54","","","","","","Cloudy"
"1991-03-21 23:00","1991","03","21","23:00","0.0","","-2.3","","85","","10","","20","","19.3","","99.47","","","","-5","","Cloudy"
"1991-03-22 00:00","1991","03","22","00:00","0.1","","-1.9","","86","","10","","19","","19.3","","99.47","","","","","","Cloudy"
"1991-03-22 01:00","1991","03","22","01:00","0.1","","-1.4","","90","","12","","20","","16.1","","99.37","","","","","","Cloudy"
"1991-03-22 02:00","1991","03","22","02:00","0.2","","-1.3","","90","","9","","19","","12.9","","99.41","","","","","","Cloudy"
"1991-03-22 03:00","1991","03","22","03:00","0.2","","-1.0","","91","","8","","17","","12.9","","99.47","","","","","","Cloudy"
"1991-03-22 04:00","1991","03","22","04:00","-0.1","","-1.6","","90","","7","","20","","12.9","","99.47","","","","-5","","Cloudy"
"1991-03-22 05:00","1991","03","22","05:00","0.4","","-1.6","","86","","6","","15","","12.9","","99.54","","","","","","Cloudy"
"1991-03-22 06:00","1991","03","22","06:00","0.4","","-2.1","","83","","8","","17","","12.9","","99.57","","","","","","Cloudy"
"1991-03-22 07:00","1991","03","22","07:00","0.8","","-2.4","","79","","8","","19","","19.3","","99.67","","","","","","Cloudy"
"1991-03-22 08:00","1991","03","22","08:00","1.0","","-2.4","","78","","8","","24","","16.1","","99.74","","","","","","Cloudy"
"1991-03-22 09:00","1991","03","22","09:00","1.2","","-2.4","","77","","8","","20","","19.3","","99.81","","","","","","Cloudy"
"1991-03-22 10:00","1991","03","22","10:00","1.5","","-2.4","","75","","8","","33","","19.3","","99.81","","","","","","Cloudy"
"1991-03-22 11:00","1991","03","22","11:00","2.2","","-3.4","","66","","8","","28","","24.1","","99.91","","","","","","Cloudy"
"1991-03-22 12:00","1991","03","22","12:00","3.1","","-5.2","","54","","8","","31","","32.2","","99.84","","","","","","Cloudy"
"1991-03-22 13:00","1991","03","22","13:00","3.5","","-3.8","","59","","8","","24","","32.2","","99.77","","","","","","Cloudy"
"1991-03-22 14:00","1991","03","22","14:00","3.8","","-3.8","","58","","9","","22","","32.2","","99.87","","","","","","Cloudy"
"1991-03-22 15:00","1991","03","22","15:00","4.0","","-1.9","","65","","5","","22","","16.1","","99.77","","","","","","Rain Showers"
"1991-03-22 16:00","1991","03","22","16:00","3.6","","-4.5","","55","","9","","26","","24.1","","99.87","","","","","","Cloudy"
"1991-03-22 17:00","1991","03","22","17:00","3.8","","-4.5","","55","","9","","24","","24.1","","99.91","","","","","","Cloudy"
"1991-03-22 18:00","1991","03","22","18:00","3.6","","-5.7","","50","","9","","24","","24.1","","99.97","","","","","","Cloudy"
"1991-03-22 19:00","1991","03","22","19:00","3.5","","-5.9","","50","","9","","20","","24.1","","100.01","","","","","","Cloudy"
"1991-03-22 20:00","1991","03","22","20:00","3.7","","-5.7","","50","","9","","28","","25.0","","99.97","","","","","","Cloudy"
"1991-03-22 21:00","1991","03","22","21:00","3.8","","-6.6","","46","","10","","30","","25.0","","99.94","","","","","","Cloudy"
"1991-03-22 22:00","1991","03","22","22:00","3.4","","-5.9","","51","","9","","33","","25.0","","99.91","","","","","","Cloudy"
"1991-03-22 23:00","1991","03","22","23:00","2.8","","-5.2","","56","","9","","26","","25.0","","99.67","","","","","","Cloudy"
"1991-03-23 00:00","1991","03","23","00:00","2.8","","-3.8","","62","","10","","26","","25.0","","99.71","","","","","","Cloudy"
"1991-03-23 01:00","1991","03","23","01:00","2.4","","-2.6","","69","","9","","30","","25.0","","99.64","","","","","","Cloudy"
"1991-03-23 02:00","1991","03","23","02:00","2.0","","-1.5","","78","","10","","31","","19.3","","99.51","","","","","","Rain"
"1991-03-23 03:00","1991","03","23","03:00","1.9","","-0.4","","85","","9","","35","","16.1","","99.41","","","","","","Cloudy"
"1991-03-23 04:00","1991","03","23","04:00","1.4","","0.0","","90","","10","","41","","4.8","","99.14","","","","","","Heavy Rain Showers,Fog"
"1991-03-23 05:00","1991","03","23","05:00","1.7","","0.0","","88","","9","","35","","12.9","","99.04","","","","","","Rain"
"1991-03-23 06:00","1991","03","23","06:00","2.4","","1.1","","91","","9","","41","","11.3","","98.81","","","","","","Cloudy"
"1991-03-23 07:00","1991","03","23","07:00","2.8","","2.1","","95","","9","","43","","4.0","","98.77","","","","","","Rain Showers,Fog"
"1991-03-23 08:00","1991","03","23","08:00","3.5","","2.6","","94","","9","","37","","8.0","","98.61","","","","","","Rain,Fog"
"1991-03-23 09:00","1991","03","23","09:00","4.0","","3.6","","97","","9","","31","","4.0","","98.54","","","","","","Rain Showers,Fog"
"1991-03-23 10:00","1991","03","23","10:00","4.8","","4.2","","96","","9","","28","","8.0","","98.34","","","","","","Rain,Fog"
"1991-03-23 11:00","1991","03","23","11:00","5.6","","5.1","","97","","13","","19","","6.4","","98.24","","","","","","Fog"
"1991-03-23 12:00","1991","03","23","12:00","5.9","","5.2","","95","","10","","17","","9.7","","98.24","","","","","","Rain Showers,Fog"
"1991-03-23 13:00","1991","03","23","13:00","7.0","","5.8","","92","","11","","20","","9.7","","98.11","","","","","","Rain Showers,Fog"
"1991-03-23 14:00","1991","03","23","14:00","10.0","","8.1","","88","","15","","30","","19.3","","98.01","","","","","","Mostly Cloudy"
"1991-03-23 15:00","1991","03","23","15:00","12.1","","7.9","","75","","16","","26","","24.1","","97.94","","","","","","Mainly Clear"
"1991-03-23 16:00","1991","03","23","16:00","13.0","","8.7","","75","","17","","30","","24.1","","97.91","","","","","","Mainly Clear"
"1991-03-23 17:00","1991","03","23","17:00","11.8","","7.5","","75","","16","","28","","24.1","","97.91","","","","","","Mainly Clear"
"1991-03-23 18:00","1991","03","23","18:00","10.5","","6.7","","77","","16","","19","","24.1","","97.94","","","","","","Mainly Clear"
"1991-03-23 19:00","1991","03","23","19:00","8.6","","6.1","","84","","15","","13","","24.1","","98.01","","","","","","Mainly Clear"
"1991-03-23 20:00","1991","03","23","20:00","8.3","","6.6","","89","","17","","7","","24.1","","98.04","","","","","","Mostly Cloudy"
"1991-03-23 21:00","1991","03","23","21:00","10.4","","3.1","","61","","23","","15","","25.0","","98.01","","","","","","Mainly Clear"
"1991-03-23 22:00","1991","03","23","22:00","11.0","","2.7","","57","","25","","28","","25.0","","98.04","","","","","","Mostly Cloudy"
"1991-03-23 23:00","1991","03","23","23:00","9.2","","2.2","","62","","23","","20","","25.0","","98.01","","","","","","Mostly Cloudy"
"1991-03-24 00:00","1991","03","24","00:00","8.7","","2.5","","65","","23","","26","","25.0","","97.94","","","","","","Mostly Cloudy"
"1991-03-24 01:00","1991","03","24","01:00","7.3","","4.6","","83","","16","","7","","16.1","","97.81","","","","","","Rain"
"1991-03-24 02:00","1991","03","24","02:00","6.7","","4.9","","88","","21","","11","","12.9","","97.77","","","","","","Rain"
"1991-03-24 03:00","1991","03","24","03:00","6.1","","3.4","","83","","23","","19","","16.1","","97.71","","","","","","Mostly Cloudy"
"1991-03-24 04:00","1991","03","24","04:00","5.0","","2.4","","83","","27","","19","","19.3","","97.71","","","","","","Cloudy"
"1991-03-24 05:00","1991","03","24","05:00","4.6","","2.3","","85","","24","","11","","19.3","","97.74","","","","","","Mostly Cloudy"
"1991-03-24 06:00","1991","03","24","06:00","4.8","","2.4","","84","","22","","11","","12.9","","97.74","","","","","","Rain"
"1991-03-24 07:00","1991","03","24","07:00","3.8","","1.7","","86","","26","","22","","12.9","","97.77","","","","","","Rain"
"1991-03-24 08:00","1991","03","24","08:00","3.3","","1.7","","90","","26","","13","","12.9","","97.81","","","","","","Rain"
"1991-03-24 09:00","1991","03","24","09:00","3.2","","1.6","","89","","27","","13","","12.9","","97.81","","","","","","Rain"
"1991-03-24 10:00","1991","03","24","10:00","3.7","","1.7","","87","","27","","17","","16.1","","97.87","","","","","","Rain"
"1991-03-24 11:00","1991","03","24","11:00","4.6","","1.3","","79","","27","","24","","19.3","","97.94","","","","","","Rain"
"1991-03-24 12:00","1991","03","24","12:00","5.7","","1.5","","74","","29","","22","","19.3","","98.01","","","","","","Rain Showers"
"1991-03-24 13:00","1991","03","24","13:00","6.0","","1.0","","70","","28","","22","","32.2","","98.04","","","","","","Cloudy"
"1991-03-24 14:00","1991","03","24","14:00","6.2","","1.0","","69","","28","","26","","32.2","","98.14","","","","","","Cloudy"
"1991-03-24 15:00","1991","03","24","15:00","6.0","","1.0","","70","","29","","31","","32.2","","98.27","","","","","","Cloudy"
"1991-03-24 16:00","1991","03","24","16:00","5.3","","1.0","","74","","30","","26","","32.2","","98.41","","","","","","Cloudy"
"1991-03-24 17:00","1991","03","24","17:00","5.0","","1.4","","77","","30","","31","","24.1","","98.57","","","","","","Mostly Cloudy"
"1991-03-24 18:00","1991","03","24","18:00","4.2","","1.3","","81","","29","","24","","32.2","","98.64","","","","","","Mostly Cloudy"
"1991-03-24 19:00","1991","03","24","19:00","4.2","","0.8","","78","","29","","15","","25.0","","98.74","","","","","","Cloudy"
"1991-03-24 20:00","1991","03","24","20:00","4.0","","0.8","","79","","30","","17","","25.0","","98.84","","","","","","Mostly Cloudy"
"1991-03-24 21:00","1991","03","24","21:00","3.7","","0.7","","81","","29","","22","","25.0","","98.94","","","","","","Cloudy"
"1991-03-24 22:00","1991","03","24","22:00","3.3","","1.2","","86","","28","","24","","25.0","","99.01","","","","","","Cloudy"
"1991-03-24 23:00","1991","03","24","23:00","3.0","","0.2","","82","","28","","19","","25.0","","99.04","","","","","","Cloudy"
"1991-03-25 00:00","1991","03","25","00:00","3.0","","0.2","","82","","29","","19","","25.0","","99.11","","","","","","Cloudy"
"1991-03-25 01:00","1991","03","25","01:00","2.9","","0.2","","83","","30","","22","","25.0","","99.11","","","","","","Cloudy"
"1991-03-25 02:00","1991","03","25","02:00","2.8","","0.2","","83","","31","","15","","25.0","","99.11","","","","","","Cloudy"
"1991-03-25 03:00","1991","03","25","03:00","2.6","","0.1","","84","","28","","11","","25.0","","99.11","","","","","","Cloudy"
"1991-03-25 04:00","1991","03","25","04:00","2.4","","0.1","","85","","27","","15","","25.0","","99.14","","","","","","Mostly Cloudy"
"1991-03-25 05:00","1991","03","25","05:00","2.5","","0.1","","84","","29","","7","","25.0","","99.21","","","","","","Mostly Cloudy"
"1991-03-25 06:00","1991","03","25","06:00","2.6","","-0.4","","81","","30","","11","","25.0","","99.24","","","","","","Mostly Cloudy"
"1991-03-25 07:00","1991","03","25","07:00","2.4","","-0.4","","82","","28","","4","","24.1","","99.31","","","","","","Rain"
"1991-03-25 08:00","1991","03","25","08:00","2.4","","0.1","","85","","25","","9","","12.9","","99.34","","","","","","Rain,Snow Grains"
"1991-03-25 09:00","1991","03","25","09:00","2.7","","-0.9","","77","","29","","20","","16.1","","99.41","","","","","","Rain,Snow Grains"
"1991-03-25 10:00","1991","03","25","10:00","3.0","","-0.4","","78","","31","","20","","19.3","","99.47","","","","","","Cloudy"
"1991-03-25 11:00","1991","03","25","11:00","3.2","","-1.5","","71","","31","","24","","19.3","","99.51","","","","","","Cloudy"
"1991-03-25 12:00","1991","03","25","12:00","4.8","","-0.2","","70","","30","","24","","24.1","","99.57","","","","","","Cloudy"
"1991-03-25 13:00","1991","03","25","13:00","5.4","","1.0","","73","","31","","20","","32.2","","99.57","","","","","","Cloudy"
"1991-03-25 14:00","1991","03","25","14:00","4.8","","0.4","","73","","31","","28","","32.2","","99.61","","","","","","Cloudy"
"1991-03-25 15:00","1991","03","25","15:00","4.7","","0.3","","73","","30","","19","","32.2","","99.67","","","","","","Cloudy"
"1991-03-25 16:00","1991","03","25","16:00","5.0","","-0.2","","69","","30","","19","","32.2","","99.74","","","","","","Cloudy"
"1991-03-25 17:00","1991","03","25","17:00","4.5","","-0.2","","71","","30","","24","","32.2","","99.84","","","","","","Cloudy"
"1991-03-25 18:00","1991","03","25","18:00","3.8","","-0.3","","75","","30","","22","","32.2","","99.91","","","","","","Mostly Cloudy"
"1991-03-25 19:00","1991","03","25","19:00","3.2","","-0.4","","77","","30","","17","","25.0","","99.97","","","","","","Cloudy"
"1991-03-25 20:00","1991","03","25","20:00","2.5","","0.1","","84","","28","","15","","25.0","","100.04","","","","","","Cloudy"
"1991-03-25 21:00","1991","03","25","21:00","2.5","","-0.4","","81","","28","","11","","25.0","","100.07","","","","","","Mostly Cloudy"
"1991-03-25 22:00","1991","03","25","22:00","2.6","","-0.4","","81","","27","","9","","25.0","","100.11","","","","","","Mostly Cloudy"
"1991-03-25 23:00","1991","03","25","23:00","2.4","","-0.4","","82","","","","0","","25.0","","100.14","","","","","","Mostly Cloudy"
"1991-03-26 00:00","1991","03","26","00:00","2.1","","-0.4","","83","","","","0","","25.0","","100.21","","","","","","Mostly Cloudy"
"1991-03-26 01:00","1991","03","26","01:00","2.4","","-0.4","","82","","","","0","","25.0","","100.27","","","","","","Mostly Cloudy"
"1991-03-26 02:00","1991","03","26","02:00","2.5","","-1.5","","75","","","","0","","25.0","","100.21","","","","","","Mostly Cloudy"
"1991-03-26 03:00","1991","03","26","03:00","2.3","","-2.0","","73","","","","0","","25.0","","100.17","","","","","","Mostly Cloudy"
"1991-03-26 04:00","1991","03","26","04:00","1.2","","-3.0","","73","","","","0","","25.0","","100.11","","","","","","Mainly Clear"
"1991-03-26 05:00","1991","03","26","05:00","1.4","","-2.4","","76","","","","0","","25.0","","100.11","","","","","","Mainly Clear"
"1991-03-26 06:00","1991","03","26","06:00","0.5","","-2.0","","83","","","","0","","25.0","","100.11","","","","","","Clear"
"1991-03-26 07:00","1991","03","26","07:00","0.6","","-2.5","","80","","18","","7","","32.2","","100.11","","","","","","Mainly Clear"
"1991-03-26 08:00","1991","03","26","08:00","2.5","","-1.5","","75","","15","","11","","24.1","","100.11","","","","","","Cloudy"
"1991-03-26 09:00","1991","03","26","09:00","3.4","","-1.4","","71","","14","","19","","24.1","","100.07","","","","","","Mostly Cloudy"
"1991-03-26 10:00","1991","03","26","10:00","4.2","","-1.4","","67","","16","","20","","24.1","","100.01","","","","","","Mostly Cloudy"
"1991-03-26 11:00","1991","03","26","11:00","4.6","","-1.3","","66","","13","","24","","24.1","","99.87","","","","","","Cloudy"
"1991-03-26 12:00","1991","03","26","12:00","5.1","","-1.3","","63","","11","","20","","24.1","","99.81","","","","","","Cloudy"
"1991-03-26 13:00","1991","03","26","13:00","6.9","","-1.0","","57","","12","","24","","19.3","","99.67","","","","","","Cloudy"
"1991-03-26 14:00","1991","03","26","14:00","7.2","","-0.4","","58","","11","","24","","19.3","","99.57","","","","","","Cloudy"
"1991-03-26 15:00","1991","03","26","15:00","7.2","","-0.4","","58","","11","","13","","19.3","","99.64","","","","","","Cloudy"
"1991-03-26 16:00","1991","03","26","16:00","6.3","","0.1","","65","","10","","20","","19.3","","99.51","","","","","","Cloudy"
"1991-03-26 17:00","1991","03","26","17:00","5.3","","-0.1","","68","","9","","17","","19.3","","99.47","","","","","","Cloudy"
"1991-03-26 18:00","1991","03","26","18:00","5.4","","-0.1","","68","","10","","13","","19.3","","99.41","","","","","","Mostly Cloudy"
"1991-03-26 19:00","1991","03","26","19:00","5.4","","-0.1","","68","","11","","19","","19.3","","99.31","","","","","","Mostly Cloudy"
"1991-03-26 20:00","1991","03","26","20:00","5.8","","0.5","","69","","11","","11","","19.3","","99.27","","","","","","Cloudy"
"1991-03-26 21:00","1991","03","26","21:00","5.4","","1.5","","76","","16","","7","","24.1","","99.24","","","","","","Cloudy"
"1991-03-26 22:00","1991","03","26","22:00","5.2","","1.4","","76","","14","","9","","16.1","","99.17","","","","","","Cloudy"
"1991-03-26 23:00","1991","03","26","23:00","5.4","","2.9","","84","","11","","9","","16.1","","99.07","","","","","","Cloudy"
"1991-03-27 00:00","1991","03","27","00:00","6.0","","3.4","","83","","","","0","","16.1","","99.01","","","","","","Cloudy"
"1991-03-27 01:00","1991","03","27","01:00","6.3","","4.0","","85","","14","","11","","16.1","","98.84","","","","","","Drizzle"
"1991-03-27 02:00","1991","03","27","02:00","7.3","","5.1","","86","","13","","15","","19.3","","98.71","","","","","","Cloudy"
"1991-03-27 03:00","1991","03","27","03:00","7.8","","5.2","","84","","14","","15","","19.3","","98.64","","","","","","Cloudy"
"1991-03-27 04:00","1991","03","27","04:00","7.4","","6.7","","96","","18","","4","","4.8","","98.61","","","","","","Thunderstorms,Rain Showers,Fog"
"1991-03-27 05:00","1991","03","27","05:00","7.3","","7.1","","99","","13","","11","","4.0","","98.54","","","","","","Thunderstorms,Moderate Rain Showers,Fog"
"1991-03-27 06:00","1991","03","27","06:00","7.9","","7.6","","98","","14","","15","","2.4","","98.47","","","","","","Fog"
"1991-03-27 07:00","1991","03","27","07:00","7.5","","7.5","","100","","15","","11","","0.8","","98.47","","","","","","Fog"
"1991-03-27 08:00","1991","03","27","08:00","7.6","","7.1","","97","","13","","9","","0.2","","98.41","","","","","","Fog"
"1991-03-27 09:00","1991","03","27","09:00","8.9","","8.6","","98","","12","","7","","0.4","","98.34","","","","","","Fog"
"1991-03-27 10:00","1991","03","27","10:00","9.2","","8.6","","96","","13","","9","","1.6","","98.21","","","","","","Fog"
"1991-03-27 11:00","1991","03","27","11:00","9.6","","8.8","","95","","19","","11","","1.6","","98.31","","","","","","Rain,Fog"
"1991-03-27 12:00","1991","03","27","12:00","9.9","","9.3","","96","","8","","9","","1.6","","97.94","","","","","","Fog"
"1991-03-27 13:00","1991","03","27","13:00","9.3","","9.1","","99","","11","","15","","1.2","","97.91","","","","","","Thunderstorms,Heavy Rain Showers,Fog"
"1991-03-27 14:00","1991","03","27","14:00","9.8","","9.6","","99","","14","","15","","1.6","","97.74","","","","","","Fog"
"1991-03-27 15:00","1991","03","27","15:00","10.8","","10.3","","97","","14","","13","","2.0","","97.61","","","","","","Rain Showers,Fog"
"1991-03-27 16:00","1991","03","27","16:00","10.6","","10.1","","97","","14","","13","","1.6","","97.51","","","","","","Rain Showers,Fog"
"1991-03-27 17:00","1991","03","27","17:00","10.7","","10.1","","96","","14","","15","","2.4","","97.37","","","","","","Rain Showers,Fog"
"1991-03-27 18:00","1991","03","27","18:00","11.7","","11.2","","97","","16","","9","","2.0","","97.34","","","","","","Rain Showers,Fog"
"1991-03-27 19:00","1991","03","27","19:00","11.1","","10.6","","97","","16","","11","","1.2","","97.24","","","","","","Fog"
"1991-03-27 20:00","1991","03","27","20:00","10.9","","10.3","","96","","16","","13","","4.0","","97.04","","","","","","Rain Showers,Fog"
"1991-03-27 21:00","1991","03","27","21:00","13.2","","10.6","","84","","18","","19","","11.3","","96.94","","","","","","Mainly Clear"
"1991-03-27 22:00","1991","03","27","22:00","17.1","","11.6","","70","","20","","26","","19.3","","96.84","","","","","","Mostly Cloudy"
"1991-03-27 23:00","1991","03","27","23:00","17.2","","11.6","","70","","20","","33","","19.3","","96.61","","","","","","Mostly Cloudy"
"1991-03-28 00:00","1991","03","28","00:00","11.8","","8.3","","79","","27","","56","","6.4","","96.91","","","","","","Thunderstorms,Moderate Rain Showers"
"1991-03-28 01:00","1991","03","28","01:00","12.0","","8.3","","78","","21","","26","","25.0","","96.51","","","","","","Mostly Cloudy"
"1991-03-28 02:00","1991","03","28","02:00","13.4","","9.2","","76","","20","","30","","25.0","","96.41","","","","","","Clear"
"1991-03-28 03:00","1991","03","28","03:00","12.9","","4.3","","56","","23","","37","","25.0","","96.34","","","","","","Clear"
"1991-03-28 04:00","1991","03","28","04:00","10.3","","6.3","","76","","24","","41","","19.3","","96.54","","","","","","Rain Showers"
"1991-03-28 05:00","1991","03","28","05:00","9.1","","5.9","","80","","26","","44","","12.9","","96.74","","","","","","Rain Showers"
"1991-03-28 06:00","1991","03","28","06:00","7.8","","4.8","","81","","26","","52","","12.9","","96.98","","","","","","Rain Showers"
"1991-03-28 07:00","1991","03","28","07:00","5.8","","2.5","","79","","25","","48","","24.1","","97.21","","","","","","Rain Showers"
"1991-03-28 08:00","1991","03","28","08:00","5.4","","0.4","","70","","26","","52","","32.2","","97.31","","","","","","Mainly Clear"
"1991-03-28 09:00","1991","03","28","09:00","5.0","","-0.2","","69","","25","","59","","24.1","","97.54","","","","","","Mostly Cloudy"
"1991-03-28 10:00","1991","03","28","10:00","5.6","","-0.6","","64","","26","","48","","19.3","","97.71","","","","","","Rain Showers"
"1991-03-28 11:00","1991","03","28","11:00","5.5","","-1.2","","62","","26","","52","","24.1","","97.74","","","","","","Mostly Cloudy"
"1991-03-28 12:00","1991","03","28","12:00","6.5","","-0.5","","61","","27","","54","","32.2","","97.84","","","","","","Mostly Cloudy"
"1991-03-28 13:00","1991","03","28","13:00","5.3","","0.4","","71","","26","","52","","32.2","","97.94","","","","","","Mostly Cloudy"
"1991-03-28 14:00","1991","03","28","14:00","6.6","","-1.0","","58","","26","","50","","32.2","","98.01","","","","","","Mostly Cloudy"
"1991-03-28 15:00","1991","03","28","15:00","7.4","","-1.5","","53","","26","","50","","32.2","","98.04","","","","","","Mainly Clear"
"1991-03-28 16:00","1991","03","28","16:00","7.0","","-2.2","","52","","26","","39","","32.2","","98.07","","","","","","Mainly Clear"
"1991-03-28 17:00","1991","03","28","17:00","7.2","","-2.2","","51","","27","","30","","32.2","","98.11","","","","","","Mainly Clear"
"1991-03-28 18:00","1991","03","28","18:00","6.9","","-2.8","","50","","26","","30","","32.2","","98.11","","","","","","Mainly Clear"
"1991-03-28 19:00","1991","03","28","19:00","5.3","","-2.4","","58","","26","","22","","25.0","","98.17","","","","","","Clear"
"1991-03-28 20:00","1991","03","28","20:00","4.9","","-3.1","","56","","26","","19","","25.0","","98.24","","","","","","Mainly Clear"
"1991-03-28 21:00","1991","03","28","21:00","4.1","","-3.2","","59","","28","","17","","25.0","","98.31","","","","","","Mostly Cloudy"
"1991-03-28 22:00","1991","03","28","22:00","4.0","","-3.8","","57","","24","","7","","25.0","","98.24","","","","","","Mainly Clear"
"1991-03-28 23:00","1991","03","28","23:00","4.0","","-3.8","","57","","21","","7","","25.0","","98.17","","","","","","Mainly Clear"
"1991-03-29 00:00","1991","03","29","00:00","3.5","","-3.2","","61","","32","","7","","25.0","","98.04","","","","","","Mostly Cloudy"
"1991-03-29 01:00","1991","03","29","01:00","0.4","","-0.1","","96","","34","","17","","2.0","","98.07","","","","","","Snow"
"1991-03-29 02:00","1991","03","29","02:00","0.0","","-0.5","","96","","34","","17","","4.0","","98.14","","","","-5","","Snow"
"1991-03-29 03:00","1991","03","29","03:00","-0.3","","-1.1","","94","","33","","15","","4.0","","98.21","","","","-5","","Snow"
"1991-03-29 04:00","1991","03","29","04:00","-0.3","","-1.1","","94","","33","","11","","16.1","","98.24","","","","-4","","Cloudy"
"1991-03-29 05:00","1991","03","29","05:00","-2.0","","-4.2","","85","","34","","26","","16.1","","98.44","","","","-9","","Snow Showers"
"1991-03-29 06:00","1991","03","29","06:00","-2.0","","-5.4","","78","","33","","19","","25.0","","98.64","","","","-8","","Mostly Cloudy"
"1991-03-29 07:00","1991","03","29","07:00","-2.7","","-6.4","","76","","31","","15","","32.2","","98.61","","","","-8","","Mainly Clear"
"1991-03-29 08:00","1991","03","29","08:00","-2.3","","-6.0","","76","","28","","19","","40.2","","98.74","","","","-8","","Mainly Clear"
"1991-03-29 09:00","1991","03","29","09:00","-2.1","","-6.0","","75","","29","","19","","40.2","","98.81","","","","-8","","Mostly Cloudy"
"1991-03-29 10:00","1991","03","29","10:00","-1.8","","-6.4","","71","","29","","17","","24.1","","98.91","","","","-7","","Snow Showers"
"1991-03-29 11:00","1991","03","29","11:00","-1.8","","-6.7","","69","","30","","20","","40.2","","98.91","","","","-8","","Snow Showers"
"1991-03-29 12:00","1991","03","29","12:00","-1.2","","-6.3","","68","","30","","20","","40.2","","98.94","","","","-7","","Snow Showers"
"1991-03-29 13:00","1991","03","29","13:00","-0.3","","-5.4","","68","","30","","19","","40.2","","98.87","","","","-5","","Cloudy"
"1991-03-29 14:00","1991","03","29","14:00","-0.4","","-5.5","","68","","31","","20","","40.2","","98.84","","","","-6","","Cloudy"
"1991-03-29 15:00","1991","03","29","15:00","-0.2","","-5.6","","67","","30","","20","","40.2","","98.84","","","","-5","","Mostly Cloudy"
"1991-03-29 16:00","1991","03","29","16:00","-0.2","","-5.2","","69","","30","","19","","40.2","","98.84","","","","-5","","Mostly Cloudy"
"1991-03-29 17:00","1991","03","29","17:00","-0.6","","-6.3","","65","","31","","22","","40.2","","98.94","","","","-6","","Mostly Cloudy"
"1991-03-29 18:00","1991","03","29","18:00","-1.5","","-7.7","","62","","31","","20","","32.2","","98.87","","","","-7","","Mostly Cloudy"
"1991-03-29 19:00","1991","03","29","19:00","-2.1","","-10.5","","52","","32","","19","","25.0","","98.94","","","","-8","","Mostly Cloudy"
"1991-03-29 20:00","1991","03","29","20:00","-2.8","","-9.6","","59","","32","","20","","25.0","","98.97","","","","-9","","Mainly Clear"
"1991-03-29 21:00","1991","03","29","21:00","-3.4","","-8.4","","68","","32","","19","","25.0","","99.01","","","","-9","","Mainly Clear"
"1991-03-29 22:00","1991","03","29","22:00","-3.6","","-8.8","","67","","31","","15","","25.0","","99.04","","","","-9","","Mainly Clear"
"1991-03-29 23:00","1991","03","29","23:00","-4.0","","-9.1","","67","","31","","15","","25.0","","99.01","","","","-9","","Clear"
"1991-03-30 00:00","1991","03","30","00:00","-4.3","","-7.9","","76","","33","","15","","25.0","","98.97","","","","-10","","Clear"
"1991-03-30 01:00","1991","03","30","01:00","-4.2","","-8.7","","71","","33","","17","","25.0","","99.04","","","","-10","","Mainly Clear"
"1991-03-30 02:00","1991","03","30","02:00","-4.8","","-8.6","","74","","33","","11","","25.0","","99.07","","","","-9","","Mostly Cloudy"
"1991-03-30 03:00","1991","03","30","03:00","-4.7","","-8.3","","76","","35","","11","","25.0","","99.14","","","","-9","","Mostly Cloudy"
"1991-03-30 04:00","1991","03","30","04:00","-4.8","","-8.2","","77","","34","","17","","25.0","","99.14","","","","-11","","Mainly Clear"
"1991-03-30 05:00","1991","03","30","05:00","-4.7","","-8.3","","76","","36","","20","","25.0","","99.27","","","","-11","","Mainly Clear"
"1991-03-30 06:00","1991","03","30","06:00","-5.3","","-10.8","","65","","36","","20","","25.0","","99.44","","","","-12","","Clear"
"1991-03-30 07:00","1991","03","30","07:00","-5.4","","-11.2","","63","","1","","17","","32.2","","99.54","","","","-11","","Clear"
"1991-03-30 08:00","1991","03","30","08:00","-4.7","","-10.6","","63","","1","","20","","32.2","","99.61","","","","-11","","Clear"
"1991-03-30 09:00","1991","03","30","09:00","-4.0","","-11.1","","58","","36","","19","","40.2","","99.71","","","","-10","","Clear"
"1991-03-30 10:00","1991","03","30","10:00","-3.5","","-10.3","","59","","35","","20","","40.2","","99.77","","","","-10","","Mainly Clear"
"1991-03-30 11:00","1991","03","30","11:00","-3.0","","-10.8","","55","","34","","20","","40.2","","99.81","","","","-9","","Mainly Clear"
"1991-03-30 12:00","1991","03","30","12:00","-2.0","","-8.5","","61","","36","","22","","40.2","","99.81","","","","-8","","Mainly Clear"
"1991-03-30 13:00","1991","03","30","13:00","-0.2","","-6.9","","61","","33","","20","","40.2","","99.87","","","","-5","","Mainly Clear"
"1991-03-30 14:00","1991","03","30","14:00","-0.7","","-10.1","","49","","29","","13","","40.2","","99.87","","","","-5","","Mainly Clear"
"1991-03-30 15:00","1991","03","30","15:00","0.7","","-7.7","","53","","34","","15","","40.2","","99.91","","","","","","Mainly Clear"
"1991-03-30 16:00","1991","03","30","16:00","0.7","","-6.9","","57","","32","","9","","40.2","","99.94","","","","","","Mainly Clear"
"1991-03-30 17:00","1991","03","30","17:00","0.5","","-6.9","","58","","30","","15","","40.2","","99.97","","","","","","Mainly Clear"
"1991-03-30 18:00","1991","03","30","18:00","0.2","","-6.3","","62","","29","","15","","40.2","","100.04","","","","","","Mainly Clear"
"1991-03-30 19:00","1991","03","30","19:00","-1.1","","-7.0","","64","","27","","11","","40.2","","100.11","","","","-5","","Clear"
"1991-03-30 20:00","1991","03","30","20:00","-1.8","","-8.5","","60","","29","","15","","25.0","","100.21","","","","-7","","Clear"
"1991-03-30 21:00","1991","03","30","21:00","-2.6","","-7.4","","70","","30","","11","","25.0","","100.27","","","","-7","","Clear"
"1991-03-30 22:00","1991","03","30","22:00","-3.4","","-9.1","","64","","31","","11","","25.0","","100.27","","","","-8","","Clear"
"1991-03-30 23:00","1991","03","30","23:00","-4.2","","-10.3","","63","","28","","6","","25.0","","100.31","","","","-7","","Clear"
"1991-03-31 00:00","1991","03","31","00:00","-3.9","","-10.3","","61","","22","","4","","25.0","","100.31","","","","-6","","Clear"
"1991-03-31 01:00","1991","03","31","01:00","-4.3","","-10.6","","61","","","","0","","25.0","","100.31","","","","","","Clear"
"1991-03-31 02:00","1991","03","31","02:00","-4.2","","-9.9","","64","","","","0","","25.0","","100.34","","","","","","Clear"
"1991-03-31 03:00","1991","03","31","03:00","-4.0","","-9.1","","67","","21","","4","","25.0","","100.34","","","","-6","","Clear"
"1991-03-31 04:00","1991","03","31","04:00","-4.1","","-8.0","","74","","16","","6","","24.1","","100.31","","","","-7","","Clear"
"1991-03-31 05:00","1991","03","31","05:00","-4.3","","-9.0","","69","","17","","4","","24.1","","100.31","","","","-6","","Clear"
"1991-03-31 06:00","1991","03","31","06:00","-4.5","","-8.3","","75","","15","","4","","24.1","","100.31","","","","-6","","Clear"
"1991-03-31 07:00","1991","03","31","07:00","-3.8","","-9.1","","66","","15","","4","","24.1","","100.37","","","","-5","","Mainly Clear"
"1991-03-31 08:00","1991","03","31","08:00","-0.8","","-8.1","","57","","17","","11","","24.1","","100.37","","","","-5","","Mostly Cloudy"
"1991-03-31 09:00","1991","03","31","09:00","1.0","","-6.2","","58","","19","","17","","24.1","","100.34","","","","","","Mostly Cloudy"
"1991-03-31 10:00","1991","03","31","10:00","1.6","","-6.1","","56","","17","","19","","24.1","","100.31","","","","","","Mostly Cloudy"
"1991-03-31 11:00","1991","03","31","11:00","2.5","","-5.9","","54","","16","","19","","24.1","","100.27","","","","","","Mostly Cloudy"
"1991-03-31 12:00","1991","03","31","12:00","3.0","","-5.8","","52","","17","","19","","32.2","","100.17","","","","","","Mostly Cloudy"
"1991-03-31 13:00","1991","03","31","13:00","4.0","","-7.4","","43","","15","","22","","32.2","","100.11","","","","","","Mostly Cloudy"
"1991-03-31 14:00","1991","03","31","14:00","4.6","","-7.4","","41","","14","","20","","32.2","","100.07","","","","","","Mostly Cloudy"
"1991-03-31 15:00","1991","03","31","15:00","4.8","","-6.6","","43","","15","","22","","32.2","","100.01","","","","","","Mostly Cloudy"
"1991-03-31 16:00","1991","03","31","16:00","5.5","","-6.5","","42","","17","","19","","32.2","","99.91","","","","","","Mainly Clear"
"1991-03-31 17:00","1991","03","31","17:00","5.1","","-5.8","","45","","15","","24","","32.2","","99.84","","","","","","Mainly Clear"
"1991-03-31 18:00","1991","03","31","18:00","2.4","","-3.9","","63","","12","","20","","24.1","","99.87","","","","","","Mostly Cloudy"
"1991-03-31 19:00","1991","03","31","19:00","1.7","","-3.5","","68","","11","","15","","24.1","","99.87","","","","","","Mostly Cloudy"
"1991-03-31 20:00","1991","03","31","20:00","1.7","","-2.9","","71","","13","","15","","24.1","","99.91","","","","","","Cloudy"
"1991-03-31 21:00","1991","03","31","21:00","1.8","","-3.2","","69","","12","","17","","24.1","","99.91","","","","","","Cloudy"
"1991-03-31 22:00","1991","03","31","22:00","1.8","","-2.6","","73","","12","","11","","24.1","","99.87","","","","","","Cloudy"
"1991-03-31 23:00","1991","03","31","23:00","2.3","","-0.4","","82","","13","","9","","12.9","","99.81","","","","","","Rain Showers"
