"Station Name","TORONTO LESTER B. PEARSON INT'L A"
"Province","ONTARIO"
"Latitude","43.68"
"Longitude","-79.63"
"Elevation","173.40"
"Climate Identifier","6158733"
"WMO Identifier","71624"
"TC Identifier","YYZ"
"All times are specified in Local Standard Time (LST). Add 1 hour to adjust for Daylight Saving Time where and when it is observed."

"Legend"
"E","Estimated"
"M","Missing"
"NA","Not Available"

"Date/Time","Year","Month","Day","Time","Temp (°C)","Temp Flag","Dew Point Temp (°C)","Dew Point Temp Flag","Rel Hum (%)","Rel Hum Flag","Wind Dir (10s deg)","Wind Dir Flag","Wind Spd (km/h)","Wind Spd Flag","Visibility (km)","Visibility Flag","Stn Press (kPa)","Stn Press Flag","Hmdx","Hmdx Flag","Wind Chill","Wind Chill Flag","Weather"
"1979-07-01 00:00","1979","07","01","00:00","18.5","","16.0","","85","","14","","13","","8.0","","98.42","","","","","","Haze"
"1979-07-01 01:00","1979","07","01","01:00","18.0","","15.5","","85","","14","","13","","9.7","","98.39","","","","","","Haze"
"1979-07-01 02:00","1979","07","01","02:00","17.2","","15.4","","89","","14","","9","","9.7","","98.36","","","","","","Fog"
"1979-07-01 03:00","1979","07","01","03:00","17.0","","15.4","","90","","13","","15","","9.7","","98.36","","","","","","Fog"
"1979-07-01 04:00","1979","07","01","04:00","16.2","","14.7","","91","","15","","13","","8.0","","98.36","","","","","","Fog"
"1979-07-01 05:00","1979","07","01","05:00","15.7","","15.2","","97","","14","","9","","1.6","","98.42","","","","","","Fog"
"1979-07-01 06:00","1979","07","01","06:00","16.0","","15.7","","98","","14","","11","","2.0","","98.42","","","","","","Fog"
"1979-07-01 07:00","1979","07","01","07:00","16.2","","15.4","","95","","15","","11","","4.8","","98.46","","","","","","Rain Showers,Fog"
"1979-07-01 08:00","1979","07","01","08:00","16.1","","15.0","","93","","18","","13","","6.4","","98.46","","","","","","Fog"
"1979-07-01 09:00","1979","07","01","09:00","16.1","","15.0","","93","","17","","15","","4.0","","98.46","","","","","","Rain Showers,Fog"
"1979-07-01 10:00","1979","07","01","10:00","16.4","","15.6","","95","","18","","19","","3.2","","98.46","","","","","","Rain Showers,Fog"
"1979-07-01 11:00","1979","07","01","11:00","16.8","","15.8","","94","","18","","11","","4.8","","98.46","","","","","","Rain Showers,Fog"
"1979-07-01 12:00","1979","07","01","12:00","17.6","","15.3","","86","","18","","15","","4.8","","98.46","","","","","","Haze"
"1979-07-01 13:00","1979","07","01","13:00","18.8","","15.3","","80","","19","","19","","6.4","","98.46","","","","","","Haze"
"1979-07-01 14:00","1979","07","01","14:00","18.7","","14.4","","76","","20","","11","","6.4","","98.46","","","","","","Haze"
"1979-07-01 15:00","1979","07","01","15:00","19.8","","16.0","","79","","23","","19","","6.4","","98.42","","","","","","Haze"
"1979-07-01 16:00","1979","07","01","16:00","20.6","","15.6","","73","","23","","15","","6.4","","98.39","","25","","","","Haze"
"1979-07-01 17:00","1979","07","01","17:00","19.4","","15.1","","76","","22","","17","","8.0","","98.39","","","","","","Haze"
"1979-07-01 18:00","1979","07","01","18:00","19.2","","14.9","","76","","23","","13","","9.7","","98.39","","","","","","Haze"
"1979-07-01 19:00","1979","07","01","19:00","18.5","","15.4","","82","","24","","7","","9.7","","98.42","","","","","","Haze"
"1979-07-01 20:00","1979","07","01","20:00","17.7","","15.0","","84","","21","","7","","8.0","","98.42","","","","","","Haze"
"1979-07-01 21:00","1979","07","01","21:00","17.3","","15.3","","88","","18","","7","","8.0","","98.46","","","","","","Haze"
"1979-07-01 22:00","1979","07","01","22:00","16.6","","14.9","","90","","15","","7","","8.0","","98.46","","","","","","Haze"
"1979-07-01 23:00","1979","07","01","23:00","16.3","","15.2","","93","","16","","4","","8.0","","98.49","","","","","","Haze"
"1979-07-02 00:00","1979","07","02","00:00","16.4","","15.2","","93","","","","0","","8.0","","98.49","","","","","","Haze"
"1979-07-02 01:00","1979","07","02","01:00","15.7","","14.5","","92","","","","0","","8.0","","98.46","","","","","","Haze"
"1979-07-02 02:00","1979","07","02","02:00","15.3","","14.9","","98","","","","0","","8.0","","98.46","","","","","","Haze"
"1979-07-02 03:00","1979","07","02","03:00","15.0","","14.7","","98","","33","","4","","6.4","","98.46","","","","","","Fog"
"1979-07-02 04:00","1979","07","02","04:00","14.3","","14.3","","100","","30","","7","","4.0","","98.49","","","","","","Fog"
"1979-07-02 05:00","1979","07","02","05:00","15.2","","14.7","","97","","34","","11","","4.0","","98.56","","","","","","Fog"
"1979-07-02 06:00","1979","07","02","06:00","16.4","","15.9","","97","","34","","9","","4.0","","98.62","","","","","","Fog"
"1979-07-02 07:00","1979","07","02","07:00","17.0","","16.1","","95","","33","","13","","4.8","","98.66","","","","","","Rain Showers,Fog"
"1979-07-02 08:00","1979","07","02","08:00","17.8","","15.8","","88","","32","","15","","9.7","","98.69","","","","","","Fog,Haze"
"1979-07-02 09:00","1979","07","02","09:00","17.9","","15.2","","84","","33","","26","","9.7","","98.72","","","","","","Rain Showers,Haze"
"1979-07-02 10:00","1979","07","02","10:00","18.1","","15.5","","85","","34","","30","","24.1","","98.76","","","","","","Cloudy"
"1979-07-02 11:00","1979","07","02","11:00","19.5","","14.8","","74","","33","","30","","24.1","","98.79","","","","","","Cloudy"
"1979-07-02 12:00","1979","07","02","12:00","19.1","","14.6","","75","","34","","26","","9.7","","98.86","","","","","","Haze"
"1979-07-02 13:00","1979","07","02","13:00","17.9","","13.8","","77","","34","","26","","9.7","","98.89","","","","","","Haze"
"1979-07-02 14:00","1979","07","02","14:00","18.5","","14.0","","75","","32","","22","","8.0","","98.89","","","","","","Haze"
"1979-07-02 15:00","1979","07","02","15:00","19.2","","13.9","","71","","33","","30","","9.7","","98.99","","","","","","Haze"
"1979-07-02 16:00","1979","07","02","16:00","20.8","","15.1","","70","","35","","35","","12.9","","99.02","","25","","","","Mostly Cloudy"
"1979-07-02 17:00","1979","07","02","17:00","20.7","","14.2","","66","","33","","30","","12.9","","99.09","","","","","","Mostly Cloudy"
"1979-07-02 18:00","1979","07","02","18:00","21.6","","13.9","","62","","34","","22","","16.1","","99.09","","25","","","","Mainly Clear"
"1979-07-02 19:00","1979","07","02","19:00","20.7","","12.0","","57","","33","","22","","16.1","","99.09","","","","","","Mostly Cloudy"
"1979-07-02 20:00","1979","07","02","20:00","17.2","","12.4","","73","","31","","15","","19.3","","99.16","","","","","","Mostly Cloudy"
"1979-07-02 21:00","1979","07","02","21:00","16.4","","12.9","","80","","31","","13","","25.0","","99.26","","","","","","Mostly Cloudy"
"1979-07-02 22:00","1979","07","02","22:00","16.2","","12.0","","76","","32","","17","","25.0","","99.29","","","","","","Mostly Cloudy"
"1979-07-02 23:00","1979","07","02","23:00","15.4","","9.1","","66","","33","","17","","25.0","","99.36","","","","","","Mostly Cloudy"
"1979-07-03 00:00","1979","07","03","00:00","12.8","","9.4","","80","","31","","13","","25.0","","99.36","","","","","","Mostly Cloudy"
"1979-07-03 01:00","1979","07","03","01:00","12.6","","8.9","","78","","29","","11","","25.0","","99.32","","","","","","Mostly Cloudy"
"1979-07-03 02:00","1979","07","03","02:00","12.5","","8.5","","77","","28","","7","","25.0","","99.29","","","","","","Mostly Cloudy"
"1979-07-03 03:00","1979","07","03","03:00","12.4","","8.5","","77","","28","","7","","25.0","","99.29","","","","","","Mostly Cloudy"
"1979-07-03 04:00","1979","07","03","04:00","10.0","","8.1","","88","","34","","13","","25.0","","99.29","","","","","","Mostly Cloudy"
"1979-07-03 05:00","1979","07","03","05:00","9.5","","7.6","","88","","34","","13","","40.2","","99.32","","","","","","Mostly Cloudy"
"1979-07-03 06:00","1979","07","03","06:00","11.8","","9.1","","84","","34","","9","","40.2","","99.39","","","","","","Mainly Clear"
"1979-07-03 07:00","1979","07","03","07:00","15.5","","9.5","","67","","34","","17","","40.2","","99.46","","","","","","Mainly Clear"
"1979-07-03 08:00","1979","07","03","08:00","17.2","","8.9","","58","","34","","19","","40.2","","99.46","","","","","","Mainly Clear"
"1979-07-03 09:00","1979","07","03","09:00","19.3","","10.4","","56","","34","","17","","40.2","","99.46","","","","","","Mainly Clear"
"1979-07-03 10:00","1979","07","03","10:00","20.7","","8.7","","46","","33","","17","","40.2","","99.46","","","","","","Mainly Clear"
"1979-07-03 11:00","1979","07","03","11:00","21.0","","7.6","","42","","36","","20","","40.2","","99.39","","","","","","Mainly Clear"
"1979-07-03 12:00","1979","07","03","12:00","21.8","","9.4","","45","","35","","19","","40.2","","99.39","","","","","","Mainly Clear"
"1979-07-03 13:00","1979","07","03","13:00","21.7","","7.8","","41","","35","","22","","40.2","","99.36","","","","","","Mainly Clear"
"1979-07-03 14:00","1979","07","03","14:00","21.6","","7.8","","41","","1","","24","","40.2","","99.39","","","","","","Mainly Clear"
"1979-07-03 15:00","1979","07","03","15:00","21.9","","8.1","","41","","36","","30","","40.2","","99.36","","","","","","Mostly Cloudy"
"1979-07-03 16:00","1979","07","03","16:00","21.4","","7.4","","40","","35","","24","","40.2","","99.36","","","","","","Mainly Clear"
"1979-07-03 17:00","1979","07","03","17:00","21.1","","7.1","","40","","34","","20","","40.2","","99.36","","","","","","Mainly Clear"
"1979-07-03 18:00","1979","07","03","18:00","20.2","","4.6","","36","","34","","28","","40.2","","99.32","","","","","","Mainly Clear"
"1979-07-03 19:00","1979","07","03","19:00","18.4","","4.5","","40","","36","","24","","40.2","","99.32","","","","","","Mainly Clear"
"1979-07-03 20:00","1979","07","03","20:00","15.1","","1.9","","41","","35","","19","","40.2","","99.39","","","","","","Mainly Clear"
"1979-07-03 21:00","1979","07","03","21:00","11.8","","4.5","","61","","35","","13","","25.0","","99.42","","","","","","Mainly Clear"
"1979-07-03 22:00","1979","07","03","22:00","11.7","","5.2","","64","","34","","11","","25.0","","99.36","","","","","","Mostly Cloudy"
"1979-07-03 23:00","1979","07","03","23:00","11.3","","5.7","","69","","34","","11","","25.0","","99.36","","","","","","Mostly Cloudy"
"1979-07-04 00:00","1979","07","04","00:00","9.8","","6.1","","78","","34","","11","","25.0","","99.29","","","","","","Mostly Cloudy"
"1979-07-04 01:00","1979","07","04","01:00","9.4","","6.4","","82","","35","","9","","25.0","","99.36","","","","","","Mostly Cloudy"
"1979-07-04 02:00","1979","07","04","02:00","8.9","","5.9","","81","","35","","9","","25.0","","99.26","","","","","","Mostly Cloudy"
"1979-07-04 03:00","1979","07","04","03:00","8.1","","5.2","","82","","35","","9","","25.0","","99.26","","","","","","Mostly Cloudy"
"1979-07-04 04:00","1979","07","04","04:00","7.5","","5.9","","90","","33","","13","","25.0","","99.29","","","","","","Mostly Cloudy"
"1979-07-04 05:00","1979","07","04","05:00","8.0","","5.6","","85","","34","","9","","40.2","","99.32","","","","","","Mostly Cloudy"
"1979-07-04 06:00","1979","07","04","06:00","9.8","","7.4","","85","","36","","4","","40.2","","99.32","","","","","","Mostly Cloudy"
"1979-07-04 07:00","1979","07","04","07:00","13.5","","7.6","","68","","35","","7","","40.2","","99.29","","","","","","Mainly Clear"
"1979-07-04 08:00","1979","07","04","08:00","16.0","","6.8","","54","","36","","4","","40.2","","99.26","","","","","","Mainly Clear"
"1979-07-04 09:00","1979","07","04","09:00","17.6","","7.8","","53","","34","","11","","40.2","","99.22","","","","","","Mainly Clear"
"1979-07-04 10:00","1979","07","04","10:00","18.1","","8.0","","52","","33","","11","","40.2","","99.19","","","","","","Mostly Cloudy"
"1979-07-04 11:00","1979","07","04","11:00","20.1","","7.1","","43","","34","","22","","40.2","","99.16","","","","","","Mostly Cloudy"
"1979-07-04 12:00","1979","07","04","12:00","19.9","","8.0","","46","","1","","22","","40.2","","99.12","","","","","","Mostly Cloudy"
"1979-07-04 13:00","1979","07","04","13:00","20.4","","5.4","","37","","1","","22","","40.2","","99.09","","","","","","Mostly Cloudy"
"1979-07-04 14:00","1979","07","04","14:00","21.9","","4.6","","32","","34","","30","","40.2","","99.09","","","","","","Mostly Cloudy"
"1979-07-04 15:00","1979","07","04","15:00","20.8","","4.6","","35","","36","","30","","40.2","","99.16","","","","","","Mainly Clear"
"1979-07-04 16:00","1979","07","04","16:00","20.6","","4.9","","36","","35","","33","","40.2","","99.16","","","","","","Mainly Clear"
"1979-07-04 17:00","1979","07","04","17:00","19.2","","1.9","","31","","34","","35","","40.2","","99.19","","","","","","Mainly Clear"
"1979-07-04 18:00","1979","07","04","18:00","18.2","","2.0","","34","","34","","33","","40.2","","99.26","","","","","","Mainly Clear"
"1979-07-04 19:00","1979","07","04","19:00","17.5","","1.8","","35","","34","","30","","40.2","","99.26","","","","","","Mainly Clear"
"1979-07-04 20:00","1979","07","04","20:00","15.0","","1.9","","41","","33","","26","","40.2","","99.32","","","","","","Mostly Cloudy"
"1979-07-04 21:00","1979","07","04","21:00","13.4","","1.9","","46","","33","","24","","25.0","","99.39","","","","","","Mainly Clear"
"1979-07-04 22:00","1979","07","04","22:00","12.8","","3.3","","52","","33","","22","","25.0","","99.42","","","","","","Clear"
"1979-07-04 23:00","1979","07","04","23:00","11.0","","4.6","","65","","34","","17","","25.0","","99.56","","","","","","Clear"
"1979-07-05 00:00","1979","07","05","00:00","8.8","","5.0","","77","","33","","13","","25.0","","99.56","","","","","","Clear"
"1979-07-05 01:00","1979","07","05","01:00","8.5","","4.4","","75","","31","","13","","25.0","","99.59","","","","","","Clear"
"1979-07-05 02:00","1979","07","05","02:00","9.9","","4.8","","70","","33","","19","","25.0","","99.62","","","","","","Mainly Clear"
"1979-07-05 03:00","1979","07","05","03:00","9.0","","4.5","","73","","35","","15","","25.0","","99.66","","","","","","Mainly Clear"
"1979-07-05 04:00","1979","07","05","04:00","9.0","","4.5","","73","","35","","13","","25.0","","99.69","","","","","","Mainly Clear"
"1979-07-05 05:00","1979","07","05","05:00","9.2","","5.0","","75","","35","","20","","40.2","","99.72","","","","","","Mainly Clear"
"1979-07-05 06:00","1979","07","05","06:00","10.5","","5.8","","73","","35","","17","","40.2","","99.79","","","","","","Mostly Cloudy"
"1979-07-05 07:00","1979","07","05","07:00","12.4","","6.9","","69","","33","","19","","40.2","","99.89","","","","","","Mostly Cloudy"
"1979-07-05 08:00","1979","07","05","08:00","13.5","","6.8","","64","","35","","19","","40.2","","99.92","","","","","","Mostly Cloudy"
"1979-07-05 09:00","1979","07","05","09:00","13.8","","6.1","","60","","36","","22","","40.2","","99.96","","","","","","Mostly Cloudy"
"1979-07-05 10:00","1979","07","05","10:00","14.3","","6.2","","58","","1","","26","","40.2","","99.99","","","","","","Mostly Cloudy"
"1979-07-05 11:00","1979","07","05","11:00","16.3","","7.4","","56","","35","","26","","40.2","","99.99","","","","","","Mostly Cloudy"
"1979-07-05 12:00","1979","07","05","12:00","17.3","","7.4","","52","","1","","24","","40.2","","99.96","","","","","","Mainly Clear"
"1979-07-05 13:00","1979","07","05","13:00","18.3","","6.9","","47","","36","","31","","40.2","","99.96","","","","","","Mainly Clear"
"1979-07-05 14:00","1979","07","05","14:00","19.4","","8.3","","49","","1","","28","","40.2","","99.99","","","","","","Mainly Clear"
"1979-07-05 15:00","1979","07","05","15:00","19.6","","6.9","","44","","36","","24","","40.2","","100.02","","","","","","Mainly Clear"
"1979-07-05 16:00","1979","07","05","16:00","18.7","","6.4","","45","","36","","24","","40.2","","99.99","","","","","","Mainly Clear"
"1979-07-05 17:00","1979","07","05","17:00","19.0","","6.2","","43","","34","","22","","40.2","","100.02","","","","","","Mainly Clear"
"1979-07-05 18:00","1979","07","05","18:00","19.2","","6.2","","43","","33","","24","","40.2","","100.06","","","","","","Mainly Clear"
"1979-07-05 19:00","1979","07","05","19:00","18.5","","6.4","","45","","33","","19","","40.2","","100.06","","","","","","Clear"
"1979-07-05 20:00","1979","07","05","20:00","15.0","","7.7","","62","","33","","15","","40.2","","100.12","","","","","","Clear"
"1979-07-05 21:00","1979","07","05","21:00","12.4","","7.3","","71","","31","","11","","25.0","","100.19","","","","","","Clear"
"1979-07-05 22:00","1979","07","05","22:00","13.0","","7.4","","69","","30","","15","","25.0","","100.22","","","","","","Clear"
"1979-07-05 23:00","1979","07","05","23:00","12.3","","7.3","","72","","31","","15","","25.0","","100.29","","","","","","Clear"
"1979-07-06 00:00","1979","07","06","00:00","10.9","","7.2","","78","","32","","11","","25.0","","100.26","","","","","","Clear"
"1979-07-06 01:00","1979","07","06","01:00","11.3","","6.1","","71","","34","","15","","25.0","","100.29","","","","","","Clear"
"1979-07-06 02:00","1979","07","06","02:00","9.4","","5.6","","77","","36","","11","","25.0","","100.29","","","","","","Clear"
"1979-07-06 03:00","1979","07","06","03:00","8.6","","5.3","","80","","34","","9","","25.0","","100.36","","","","","","Clear"
"1979-07-06 04:00","1979","07","06","04:00","7.9","","6.0","","88","","34","","9","","25.0","","100.36","","","","","","Clear"
"1979-07-06 05:00","1979","07","06","05:00","7.6","","5.5","","86","","34","","11","","40.2","","100.39","","","","","","Clear"
"1979-07-06 06:00","1979","07","06","06:00","10.1","","6.9","","80","","34","","11","","40.2","","100.42","","","","","","Clear"
"1979-07-06 07:00","1979","07","06","07:00","13.6","","8.8","","73","","32","","7","","32.2","","100.46","","","","","","Clear"
"1979-07-06 08:00","1979","07","06","08:00","16.8","","10.1","","65","","34","","13","","32.2","","100.46","","","","","","Clear"
"1979-07-06 09:00","1979","07","06","09:00","19.3","","9.5","","53","","32","","11","","40.2","","100.46","","","","","","Mainly Clear"
"1979-07-06 10:00","1979","07","06","10:00","20.9","","6.6","","40","","35","","13","","40.2","","100.49","","","","","","Mainly Clear"
"1979-07-06 11:00","1979","07","06","11:00","21.5","","5.4","","35","","1","","19","","40.2","","100.46","","","","","","Mainly Clear"
"1979-07-06 12:00","1979","07","06","12:00","22.1","","5.7","","35","","1","","19","","40.2","","100.42","","","","","","Mainly Clear"
"1979-07-06 13:00","1979","07","06","13:00","22.8","","6.7","","36","","35","","26","","40.2","","100.36","","","","","","Mainly Clear"
"1979-07-06 14:00","1979","07","06","14:00","23.2","","5.7","","32","","34","","22","","40.2","","100.32","","","","","","Mainly Clear"
"1979-07-06 15:00","1979","07","06","15:00","23.6","","6.4","","33","","35","","26","","40.2","","100.32","","","","","","Mainly Clear"
"1979-07-06 16:00","1979","07","06","16:00","22.8","","5.1","","32","","36","","26","","40.2","","100.29","","","","","","Mainly Clear"
"1979-07-06 17:00","1979","07","06","17:00","22.2","","3.5","","29","","36","","26","","40.2","","100.32","","","","","","Clear"
"1979-07-06 18:00","1979","07","06","18:00","21.2","","3.5","","31","","35","","26","","40.2","","100.36","","","","","","Clear"
"1979-07-06 19:00","1979","07","06","19:00","20.0","","3.6","","34","","36","","22","","40.2","","100.36","","","","","","Clear"
"1979-07-06 20:00","1979","07","06","20:00","18.5","","2.8","","35","","1","","19","","40.2","","100.36","","","","","","Clear"
"1979-07-06 21:00","1979","07","06","21:00","14.9","","5.0","","52","","34","","13","","25.0","","100.42","","","","","","Clear"
"1979-07-06 22:00","1979","07","06","22:00","15.5","","5.2","","50","","36","","15","","25.0","","100.46","","","","","","Clear"
"1979-07-06 23:00","1979","07","06","23:00","12.9","","6.2","","64","","35","","13","","25.0","","100.46","","","","","","Clear"
"1979-07-07 00:00","1979","07","07","00:00","10.4","","5.4","","71","","35","","11","","25.0","","100.49","","","","","","Clear"
"1979-07-07 01:00","1979","07","07","01:00","11.7","","6.1","","68","","35","","11","","25.0","","100.56","","","","","","Clear"
"1979-07-07 02:00","1979","07","07","02:00","9.5","","6.4","","81","","34","","6","","25.0","","100.56","","","","","","Clear"
"1979-07-07 03:00","1979","07","07","03:00","10.0","","6.9","","81","","36","","11","","25.0","","100.56","","","","","","Clear"
"1979-07-07 04:00","1979","07","07","04:00","9.3","","6.4","","82","","36","","4","","25.0","","100.59","","","","","","Clear"
"1979-07-07 05:00","1979","07","07","05:00","8.6","","6.1","","84","","35","","7","","40.2","","100.62","","","","","","Mainly Clear"
"1979-07-07 06:00","1979","07","07","06:00","10.9","","8.0","","82","","35","","7","","40.2","","100.66","","","","","","Clear"
"1979-07-07 07:00","1979","07","07","07:00","14.7","","8.8","","68","","","","0","","40.2","","100.69","","","","","","Clear"
"1979-07-07 08:00","1979","07","07","08:00","19.5","","10.0","","54","","","","0","","40.2","","100.69","","","","","","Clear"
"1979-07-07 09:00","1979","07","07","09:00","21.7","","10.4","","49","","20","","4","","40.2","","100.66","","","","","","Mainly Clear"
"1979-07-07 10:00","1979","07","07","10:00","22.7","","7.9","","39","","18","","6","","32.2","","100.66","","","","","","Mainly Clear"
"1979-07-07 11:00","1979","07","07","11:00","23.8","","9.5","","40","","19","","2","","32.2","","100.62","","25","","","","Mostly Cloudy"
"1979-07-07 12:00","1979","07","07","12:00","25.1","","10.1","","39","","32","","6","","32.2","","100.59","","26","","","","Mainly Clear"
"1979-07-07 13:00","1979","07","07","13:00","25.5","","9.9","","37","","22","","9","","32.2","","100.56","","27","","","","Mainly Clear"
"1979-07-07 14:00","1979","07","07","14:00","26.1","","9.7","","36","","15","","11","","32.2","","100.49","","27","","","","Mainly Clear"
"1979-07-07 15:00","1979","07","07","15:00","26.1","","13.5","","46","","14","","15","","32.2","","100.49","","29","","","","Mainly Clear"
"1979-07-07 16:00","1979","07","07","16:00","25.5","","16.8","","59","","16","","20","","32.2","","100.46","","31","","","","Mainly Clear"
"1979-07-07 17:00","1979","07","07","17:00","24.9","","10.1","","39","","16","","15","","32.2","","100.42","","26","","","","Mainly Clear"
"1979-07-07 18:00","1979","07","07","18:00","24.2","","10.0","","41","","16","","13","","32.2","","100.39","","25","","","","Mainly Clear"
"1979-07-07 19:00","1979","07","07","19:00","23.2","","10.3","","44","","14","","7","","25.0","","100.36","","25","","","","Mostly Cloudy"
"1979-07-07 20:00","1979","07","07","20:00","22.7","","10.9","","47","","19","","4","","19.3","","100.36","","","","","","Mostly Cloudy"
"1979-07-07 21:00","1979","07","07","21:00","18.1","","12.8","","71","","26","","7","","24.1","","100.39","","","","","","Mostly Cloudy"
"1979-07-07 22:00","1979","07","07","22:00","18.7","","10.3","","58","","26","","11","","24.1","","100.39","","","","","","Mostly Cloudy"
"1979-07-07 23:00","1979","07","07","23:00","17.6","","9.5","","59","","26","","9","","24.1","","100.39","","","","","","Mostly Cloudy"
"1979-07-08 00:00","1979","07","08","00:00","15.2","","9.8","","70","","30","","7","","24.1","","100.42","","","","","","Mainly Clear"
"1979-07-08 01:00","1979","07","08","01:00","15.2","","10.1","","72","","29","","4","","24.1","","100.42","","","","","","Mainly Clear"
"1979-07-08 02:00","1979","07","08","02:00","14.2","","10.5","","78","","31","","7","","24.1","","100.42","","","","","","Mainly Clear"
"1979-07-08 03:00","1979","07","08","03:00","14.4","","11.1","","81","","31","","4","","24.1","","100.42","","","","","","Mostly Cloudy"
"1979-07-08 04:00","1979","07","08","04:00","15.4","","10.3","","72","","","","0","","24.1","","100.39","","","","","","Mostly Cloudy"
"1979-07-08 05:00","1979","07","08","05:00","14.6","","9.6","","72","","","","0","","24.1","","100.42","","","","","","Mostly Cloudy"
"1979-07-08 06:00","1979","07","08","06:00","13.4","","10.7","","84","","","","0","","24.1","","100.42","","","","","","Mostly Cloudy"
"1979-07-08 07:00","1979","07","08","07:00","16.7","","11.1","","70","","","","0","","32.2","","100.46","","","","","","Mostly Cloudy"
"1979-07-08 08:00","1979","07","08","08:00","19.6","","11.5","","60","","","","0","","32.2","","100.46","","","","","","Mostly Cloudy"
"1979-07-08 09:00","1979","07","08","09:00","22.3","","12.1","","53","","22","","7","","32.2","","100.39","","25","","","","Mostly Cloudy"
"1979-07-08 10:00","1979","07","08","10:00","24.0","","11.3","","45","","23","","7","","32.2","","100.39","","26","","","","Mostly Cloudy"
"1979-07-08 11:00","1979","07","08","11:00","24.9","","11.3","","43","","20","","7","","32.2","","100.32","","27","","","","Mostly Cloudy"
"1979-07-08 12:00","1979","07","08","12:00","26.4","","11.3","","39","","16","","13","","19.3","","100.29","","28","","","","Mostly Cloudy"
"1979-07-08 13:00","1979","07","08","13:00","26.5","","10.9","","38","","21","","9","","19.3","","100.22","","28","","","","Mostly Cloudy"
"1979-07-08 14:00","1979","07","08","14:00","27.1","","10.7","","36","","15","","9","","19.3","","100.16","","29","","","","Mostly Cloudy"
"1979-07-08 15:00","1979","07","08","15:00","27.1","","10.3","","35","","21","","15","","19.3","","100.09","","29","","","","Mainly Clear"
"1979-07-08 16:00","1979","07","08","16:00","27.6","","12.3","","39","","23","","9","","19.3","","100.06","","30","","","","Mainly Clear"
"1979-07-08 17:00","1979","07","08","17:00","26.8","","12.4","","41","","15","","15","","19.3","","100.02","","29","","","","Mostly Cloudy"
"1979-07-08 18:00","1979","07","08","18:00","25.9","","12.7","","44","","17","","15","","19.3","","99.99","","29","","","","Mostly Cloudy"
"1979-07-08 19:00","1979","07","08","19:00","24.7","","12.3","","46","","19","","11","","16.1","","99.99","","27","","","","Mostly Cloudy"
"1979-07-08 20:00","1979","07","08","20:00","23.2","","12.0","","49","","18","","11","","12.9","","99.96","","25","","","","Mostly Cloudy"
"1979-07-08 21:00","1979","07","08","21:00","22.0","","12.3","","54","","18","","7","","19.3","","99.99","","","","","","Mostly Cloudy"
"1979-07-08 22:00","1979","07","08","22:00","16.9","","13.4","","80","","34","","9","","16.1","","99.99","","","","","","Mostly Cloudy"
"1979-07-08 23:00","1979","07","08","23:00","19.9","","12.1","","61","","","","0","","16.1","","99.99","","","","","","Mostly Cloudy"
"1979-07-09 00:00","1979","07","09","00:00","16.4","","12.5","","78","","30","","2","","16.1","","99.99","","","","","","Mostly Cloudy"
"1979-07-09 01:00","1979","07","09","01:00","17.4","","12.2","","72","","6","","4","","12.9","","99.96","","","","","","Mostly Cloudy"
"1979-07-09 02:00","1979","07","09","02:00","16.8","","13.1","","79","","","","0","","12.9","","99.92","","","","","","Mostly Cloudy"
"1979-07-09 03:00","1979","07","09","03:00","14.0","","12.7","","92","","35","","6","","12.9","","99.92","","","","","","Mostly Cloudy"
"1979-07-09 04:00","1979","07","09","04:00","13.3","","12.5","","95","","35","","7","","11.3","","99.89","","","","","","Mostly Cloudy"
"1979-07-09 05:00","1979","07","09","05:00","13.1","","12.0","","93","","","","0","","11.3","","99.92","","","","","","Cloudy"
"1979-07-09 06:00","1979","07","09","06:00","14.8","","13.7","","93","","","","0","","12.9","","99.89","","","","","","Cloudy"
"1979-07-09 07:00","1979","07","09","07:00","16.7","","14.3","","86","","","","0","","9.7","","99.89","","","","","","Haze"
"1979-07-09 08:00","1979","07","09","08:00","21.7","","13.5","","60","","14","","7","","8.0","","99.89","","25","","","","Haze"
"1979-07-09 09:00","1979","07","09","09:00","22.0","","15.2","","65","","18","","4","","8.0","","99.89","","26","","","","Haze"
"1979-07-09 10:00","1979","07","09","10:00","22.5","","15.8","","66","","15","","6","","8.0","","99.86","","27","","","","Haze"
"1979-07-09 11:00","1979","07","09","11:00","24.6","","15.0","","55","","16","","13","","8.0","","99.82","","29","","","","Haze"
"1979-07-09 12:00","1979","07","09","12:00","24.3","","14.6","","55","","16","","11","","8.0","","99.79","","28","","","","Haze"
"1979-07-09 13:00","1979","07","09","13:00","25.5","","14.4","","50","","15","","15","","9.7","","99.69","","29","","","","Haze"
"1979-07-09 14:00","1979","07","09","14:00","26.0","","14.2","","48","","16","","11","","9.7","","99.66","","29","","","","Haze"
"1979-07-09 15:00","1979","07","09","15:00","25.8","","13.9","","48","","17","","11","","9.7","","99.62","","29","","","","Haze"
"1979-07-09 16:00","1979","07","09","16:00","25.0","","14.1","","51","","15","","9","","12.9","","99.56","","28","","","","Cloudy"
"1979-07-09 17:00","1979","07","09","17:00","23.3","","15.9","","63","","15","","9","","9.7","","99.56","","28","","","","Haze"
"1979-07-09 18:00","1979","07","09","18:00","22.1","","14.8","","63","","16","","7","","8.0","","99.52","","26","","","","Haze"
"1979-07-09 19:00","1979","07","09","19:00","22.1","","15.2","","65","","18","","4","","8.0","","99.52","","26","","","","Haze"
"1979-07-09 20:00","1979","07","09","20:00","20.2","","15.0","","72","","8","","9","","6.4","","99.46","","","","","","Rain Showers,Haze"
"1979-07-09 21:00","1979","07","09","21:00","20.4","","15.6","","74","","18","","6","","6.4","","99.49","","25","","","","Haze"
"1979-07-09 22:00","1979","07","09","22:00","18.7","","15.7","","83","","","","0","","6.4","","99.49","","","","","","Haze"
"1979-07-09 23:00","1979","07","09","23:00","18.2","","15.8","","86","","24","","6","","6.4","","99.46","","","","","","Haze"
"1979-07-10 00:00","1979","07","10","00:00","19.1","","15.3","","78","","20","","11","","8.0","","99.46","","","","","","Haze"
"1979-07-10 01:00","1979","07","10","01:00","19.0","","14.9","","77","","17","","4","","8.0","","99.46","","","","","","Haze"
"1979-07-10 02:00","1979","07","10","02:00","18.8","","15.3","","80","","15","","4","","8.0","","99.39","","","","","","Haze"
"1979-07-10 03:00","1979","07","10","03:00","18.8","","16.2","","85","","17","","4","","6.4","","99.36","","","","","","Haze"
"1979-07-10 04:00","1979","07","10","04:00","18.5","","16.7","","89","","16","","7","","6.4","","99.32","","","","","","Fog"
"1979-07-10 05:00","1979","07","10","05:00","18.6","","17.0","","90","","17","","6","","4.0","","99.29","","","","","","Fog"
"1979-07-10 06:00","1979","07","10","06:00","18.8","","17.5","","92","","13","","9","","4.0","","99.32","","","","","","Fog"
"1979-07-10 07:00","1979","07","10","07:00","19.1","","17.5","","90","","15","","11","","4.0","","99.29","","","","","","Fog"
"1979-07-10 08:00","1979","07","10","08:00","19.1","","17.8","","92","","13","","15","","4.0","","99.29","","","","","","Fog"
"1979-07-10 09:00","1979","07","10","09:00","18.9","","18.1","","95","","13","","15","","1.2","","99.29","","","","","","Drizzle,Fog"
"1979-07-10 10:00","1979","07","10","10:00","18.6","","18.2","","98","","16","","13","","0.8","","99.29","","","","","","Rain Showers,Fog"
"1979-07-10 11:00","1979","07","10","11:00","20.1","","18.8","","92","","16","","19","","2.0","","99.29","","27","","","","Fog"
"1979-07-10 12:00","1979","07","10","12:00","21.5","","17.2","","77","","15","","22","","4.0","","99.22","","27","","","","Haze"
"1979-07-10 13:00","1979","07","10","13:00","22.9","","18.6","","77","","15","","26","","4.0","","99.16","","29","","","","Haze"
"1979-07-10 14:00","1979","07","10","14:00","24.0","","16.8","","64","","16","","24","","4.8","","99.09","","29","","","","Haze"
"1979-07-10 15:00","1979","07","10","15:00","23.9","","16.8","","64","","18","","22","","4.8","","99.06","","29","","","","Haze"
"1979-07-10 16:00","1979","07","10","16:00","21.9","","18.5","","81","","","","0","","6.4","","99.09","","28","","","","Haze"
"1979-07-10 17:00","1979","07","10","17:00","21.5","","17.9","","80","","28","","7","","6.4","","99.09","","27","","","","Haze"
"1979-07-10 18:00","1979","07","10","18:00","21.0","","17.4","","80","","22","","9","","4.8","","99.09","","27","","","","Haze"
"1979-07-10 19:00","1979","07","10","19:00","19.4","","18.3","","93","","19","","7","","4.0","","99.09","","","","","","Rain Showers,Haze"
"1979-07-10 20:00","1979","07","10","20:00","19.5","","18.0","","91","","21","","7","","4.8","","99.09","","","","","","Haze"
"1979-07-10 21:00","1979","07","10","21:00","19.4","","18.0","","92","","23","","7","","8.0","","99.16","","","","","","Fog"
"1979-07-10 22:00","1979","07","10","22:00","18.5","","17.0","","91","","25","","6","","6.4","","99.19","","","","","","Fog"
"1979-07-10 23:00","1979","07","10","23:00","18.2","","16.8","","91","","23","","9","","4.8","","99.22","","","","","","Fog"
"1979-07-11 00:00","1979","07","11","00:00","17.7","","16.3","","91","","24","","9","","4.0","","99.22","","","","","","Fog"
"1979-07-11 01:00","1979","07","11","01:00","17.4","","16.6","","95","","25","","7","","4.0","","99.22","","","","","","Fog"
"1979-07-11 02:00","1979","07","11","02:00","17.6","","16.6","","94","","29","","2","","4.0","","99.19","","","","","","Fog"
"1979-07-11 03:00","1979","07","11","03:00","17.1","","16.1","","94","","29","","6","","4.0","","99.19","","","","","","Fog"
"1979-07-11 04:00","1979","07","11","04:00","16.7","","15.9","","95","","26","","2","","4.0","","99.22","","","","","","Fog"
"1979-07-11 05:00","1979","07","11","05:00","14.4","","14.2","","99","","28","","4","","2.0","","99.22","","","","","","Fog"
"1979-07-11 06:00","1979","07","11","06:00","15.9","","15.7","","99","","24","","2","","3.2","","99.29","","","","","","Fog"
"1979-07-11 07:00","1979","07","11","07:00","17.4","","16.9","","97","","31","","7","","3.2","","99.29","","","","","","Fog"
"1979-07-11 08:00","1979","07","11","08:00","19.7","","16.4","","81","","32","","4","","4.8","","99.32","","","","","","Haze"
"1979-07-11 09:00","1979","07","11","09:00","21.2","","16.1","","73","","31","","2","","6.4","","99.36","","26","","","","Haze"
"1979-07-11 10:00","1979","07","11","10:00","23.1","","16.7","","67","","18","","2","","9.7","","99.36","","28","","","","Haze"
"1979-07-11 11:00","1979","07","11","11:00","24.6","","17.4","","64","","27","","2","","9.7","","99.36","","30","","","","Haze"
"1979-07-11 12:00","1979","07","11","12:00","25.6","","18.2","","64","","18","","7","","9.7","","99.36","","32","","","","Haze"
"1979-07-11 13:00","1979","07","11","13:00","26.1","","18.7","","64","","16","","15","","4.8","","99.39","","33","","","","Haze"
"1979-07-11 14:00","1979","07","11","14:00","26.2","","18.7","","63","","17","","13","","4.8","","99.36","","33","","","","Haze"
"1979-07-11 15:00","1979","07","11","15:00","26.0","","18.1","","62","","14","","15","","4.0","","99.29","","32","","","","Haze"
"1979-07-11 16:00","1979","07","11","16:00","22.5","","19.6","","84","","14","","22","","3.2","","99.36","","30","","","","Heavy Rain Showers,Haze"
"1979-07-11 17:00","1979","07","11","17:00","22.0","","20.0","","88","","12","","13","","4.0","","99.36","","30","","","","Haze"
"1979-07-11 18:00","1979","07","11","18:00","21.3","","19.5","","90","","16","","4","","4.0","","99.39","","28","","","","Thunderstorms,Rain Showers,Haze"
"1979-07-11 19:00","1979","07","11","19:00","21.3","","20.1","","93","","19","","9","","3.2","","99.39","","29","","","","Fog"
"1979-07-11 20:00","1979","07","11","20:00","19.9","","19.1","","95","","29","","4","","2.0","","99.39","","","","","","Fog"
"1979-07-11 21:00","1979","07","11","21:00","20.0","","19.4","","96","","","","0","","2.0","","99.49","","27","","","","Fog"
"1979-07-11 22:00","1979","07","11","22:00","19.5","","18.3","","93","","26","","6","","2.0","","99.49","","","","","","Fog"
"1979-07-11 23:00","1979","07","11","23:00","18.8","","18.4","","98","","","","0","","3.2","","99.46","","","","","","Fog"
"1979-07-12 00:00","1979","07","12","00:00","18.7","","17.3","","91","","30","","6","","2.4","","99.42","","","","","","Fog"
"1979-07-12 01:00","1979","07","12","01:00","17.6","","17.2","","98","","27","","2","","1.6","","99.42","","","","","","Fog"
"1979-07-12 02:00","1979","07","12","02:00","16.7","","16.2","","97","","34","","4","","1.6","","99.42","","","","","","Fog"
"1979-07-12 03:00","1979","07","12","03:00","17.7","","17.2","","97","","35","","7","","1.6","","99.42","","","","","","Fog"
"1979-07-12 04:00","1979","07","12","04:00","16.7","","16.2","","97","","33","","6","","1.6","","99.46","","","","","","Fog"
"1979-07-12 05:00","1979","07","12","05:00","16.9","","16.7","","99","","29","","4","","1.2","","99.49","","","","","","Fog"
"1979-07-12 06:00","1979","07","12","06:00","18.2","","17.7","","97","","28","","7","","1.6","","99.52","","","","","","Fog"
"1979-07-12 07:00","1979","07","12","07:00","21.0","","18.6","","86","","29","","6","","8.0","","99.56","","27","","","","Haze"
"1979-07-12 08:00","1979","07","12","08:00","23.3","","19.1","","77","","28","","7","","12.9","","99.59","","30","","","","Mainly Clear"
"1979-07-12 09:00","1979","07","12","09:00","24.8","","18.9","","70","","35","","9","","12.9","","99.59","","31","","","","Mainly Clear"
"1979-07-12 10:00","1979","07","12","10:00","26.2","","18.7","","63","","35","","9","","16.1","","99.59","","33","","","","Mainly Clear"
"1979-07-12 11:00","1979","07","12","11:00","27.5","","20.4","","65","","3","","7","","16.1","","99.56","","35","","","","Mainly Clear"
"1979-07-12 12:00","1979","07","12","12:00","27.4","","18.5","","58","","4","","6","","16.1","","99.52","","34","","","","Mostly Cloudy"
"1979-07-12 13:00","1979","07","12","13:00","28.9","","18.9","","55","","27","","2","","19.3","","99.49","","36","","","","Mostly Cloudy"
"1979-07-12 14:00","1979","07","12","14:00","29.1","","19.3","","55","","20","","11","","19.3","","99.46","","36","","","","Mostly Cloudy"
"1979-07-12 15:00","1979","07","12","15:00","28.9","","19.3","","56","","20","","17","","9.7","","99.39","","36","","","","Haze"
"1979-07-12 16:00","1979","07","12","16:00","28.5","","19.0","","56","","19","","15","","9.7","","99.36","","35","","","","Haze"
"1979-07-12 17:00","1979","07","12","17:00","27.6","","17.8","","55","","15","","9","","9.7","","99.32","","33","","","","Haze"
"1979-07-12 18:00","1979","07","12","18:00","27.1","","18.3","","59","","16","","9","","12.9","","99.29","","33","","","","Mainly Clear"
"1979-07-12 19:00","1979","07","12","19:00","25.6","","18.2","","64","","16","","11","","12.9","","99.29","","32","","","","Mainly Clear"
"1979-07-12 20:00","1979","07","12","20:00","25.2","","18.3","","65","","16","","6","","9.7","","99.26","","31","","","","Haze"
"1979-07-12 21:00","1979","07","12","21:00","24.6","","18.7","","70","","","","0","","6.4","","99.29","","31","","","","Haze"
"1979-07-12 22:00","1979","07","12","22:00","24.4","","18.7","","71","","","","0","","6.4","","99.29","","31","","","","Haze"
"1979-07-12 23:00","1979","07","12","23:00","21.2","","18.6","","85","","33","","9","","4.8","","99.32","","28","","","","Fog"
"1979-07-13 00:00","1979","07","13","00:00","20.1","","18.5","","90","","35","","4","","4.8","","99.32","","26","","","","Fog"
"1979-07-13 01:00","1979","07","13","01:00","19.2","","17.8","","91","","35","","7","","4.0","","99.29","","","","","","Fog"
"1979-07-13 02:00","1979","07","13","02:00","19.0","","18.1","","95","","35","","6","","3.2","","99.32","","","","","","Fog"
"1979-07-13 03:00","1979","07","13","03:00","18.0","","17.4","","96","","34","","6","","3.2","","99.26","","","","","","Fog"
"1979-07-13 04:00","1979","07","13","04:00","18.3","","17.6","","96","","35","","9","","3.2","","99.26","","","","","","Fog"
"1979-07-13 05:00","1979","07","13","05:00","17.8","","17.4","","98","","36","","6","","2.0","","99.26","","","","","","Fog"
"1979-07-13 06:00","1979","07","13","06:00","18.9","","18.1","","95","","36","","6","","3.2","","99.26","","","","","","Fog"
"1979-07-13 07:00","1979","07","13","07:00","21.5","","18.6","","84","","2","","4","","8.0","","99.29","","28","","","","Haze"
"1979-07-13 08:00","1979","07","13","08:00","24.1","","18.7","","72","","5","","6","","9.7","","99.26","","31","","","","Haze"
"1979-07-13 09:00","1979","07","13","09:00","25.9","","18.1","","62","","10","","7","","8.0","","99.22","","32","","","","Haze"
"1979-07-13 10:00","1979","07","13","10:00","27.0","","18.3","","59","","15","","13","","6.4","","99.26","","33","","","","Haze"
"1979-07-13 11:00","1979","07","13","11:00","27.2","","19.2","","62","","13","","11","","6.4","","99.22","","34","","","","Haze"
"1979-07-13 12:00","1979","07","13","12:00","28.0","","17.8","","54","","13","","11","","8.0","","99.19","","34","","","","Haze"
"1979-07-13 13:00","1979","07","13","13:00","29.1","","17.9","","51","","17","","11","","9.7","","99.12","","35","","","","Haze"
"1979-07-13 14:00","1979","07","13","14:00","28.8","","16.5","","48","","18","","13","","12.9","","99.09","","34","","","","Mostly Cloudy"
"1979-07-13 15:00","1979","07","13","15:00","29.4","","15.7","","44","","18","","13","","12.9","","99.02","","34","","","","Cloudy"
"1979-07-13 16:00","1979","07","13","16:00","29.4","","16.1","","45","","19","","7","","12.9","","98.99","","34","","","","Cloudy"
"1979-07-13 17:00","1979","07","13","17:00","29.4","","15.7","","44","","14","","7","","12.9","","98.96","","34","","","","Mostly Cloudy"
"1979-07-13 18:00","1979","07","13","18:00","29.5","","15.3","","42","","16","","4","","12.9","","98.96","","34","","","","Cloudy"
"1979-07-13 19:00","1979","07","13","19:00","28.3","","17.0","","50","","17","","7","","9.7","","98.96","","34","","","","Haze"
"1979-07-13 20:00","1979","07","13","20:00","26.5","","17.0","","56","","18","","6","","9.7","","98.99","","32","","","","Haze"
"1979-07-13 21:00","1979","07","13","21:00","24.5","","16.7","","62","","","","0","","8.0","","98.99","","30","","","","Haze"
"1979-07-13 22:00","1979","07","13","22:00","21.5","","17.3","","77","","28","","4","","8.0","","99.02","","27","","","","Haze"
"1979-07-13 23:00","1979","07","13","23:00","20.9","","17.4","","80","","32","","2","","6.4","","98.99","","26","","","","Haze"
"1979-07-14 00:00","1979","07","14","00:00","21.0","","16.8","","77","","33","","4","","4.8","","98.99","","26","","","","Haze"
"1979-07-14 01:00","1979","07","14","01:00","19.4","","17.4","","88","","1","","6","","4.0","","98.99","","","","","","Fog"
"1979-07-14 02:00","1979","07","14","02:00","18.7","","17.3","","91","","1","","9","","4.0","","98.96","","","","","","Fog"
"1979-07-14 03:00","1979","07","14","03:00","18.8","","17.2","","91","","36","","7","","3.2","","98.96","","","","","","Fog"
"1979-07-14 04:00","1979","07","14","04:00","17.2","","16.1","","93","","34","","7","","3.2","","98.96","","","","","","Fog"
"1979-07-14 05:00","1979","07","14","05:00","17.8","","16.5","","92","","33","","7","","2.0","","98.96","","","","","","Fog"
"1979-07-14 06:00","1979","07","14","06:00","19.9","","17.6","","87","","35","","6","","4.8","","98.96","","","","","","Haze"
"1979-07-14 07:00","1979","07","14","07:00","21.1","","18.0","","82","","36","","2","","4.0","","98.99","","27","","","","Haze"
"1979-07-14 08:00","1979","07","14","08:00","24.1","","17.8","","68","","17","","7","","4.8","","98.99","","30","","","","Haze"
"1979-07-14 09:00","1979","07","14","09:00","24.4","","19.3","","73","","15","","6","","4.8","","99.06","","31","","","","Haze"
"1979-07-14 10:00","1979","07","14","10:00","24.7","","19.3","","72","","15","","9","","4.8","","98.99","","32","","","","Haze"
"1979-07-14 11:00","1979","07","14","11:00","26.8","","20.2","","67","","18","","6","","4.8","","98.99","","35","","","","Haze"
"1979-07-14 12:00","1979","07","14","12:00","28.4","","20.6","","63","","16","","4","","4.8","","98.96","","36","","","","Haze"
"1979-07-14 13:00","1979","07","14","13:00","29.4","","21.1","","61","","17","","11","","4.8","","98.96","","38","","","","Haze"
"1979-07-14 14:00","1979","07","14","14:00","28.8","","20.9","","62","","16","","15","","4.8","","98.96","","37","","","","Haze"
"1979-07-14 15:00","1979","07","14","15:00","30.0","","20.8","","58","","15","","15","","4.8","","98.92","","38","","","","Haze"
"1979-07-14 16:00","1979","07","14","16:00","30.0","","20.8","","58","","18","","15","","4.8","","98.89","","38","","","","Haze"
"1979-07-14 17:00","1979","07","14","17:00","29.3","","20.8","","60","","16","","15","","4.8","","98.89","","38","","","","Haze"
"1979-07-14 18:00","1979","07","14","18:00","27.6","","19.8","","62","","17","","15","","4.8","","98.92","","35","","","","Haze"
"1979-07-14 19:00","1979","07","14","19:00","25.0","","20.8","","77","","16","","17","","4.0","","98.96","","33","","","","Haze"
"1979-07-14 20:00","1979","07","14","20:00","24.6","","20.5","","78","","16","","11","","4.0","","98.99","","33","","","","Haze"
"1979-07-14 21:00","1979","07","14","21:00","24.0","","20.9","","83","","16","","7","","4.0","","99.06","","32","","","","Haze"
"1979-07-14 22:00","1979","07","14","22:00","23.8","","21.2","","86","","","","0","","4.0","","99.09","","32","","","","Haze"
"1979-07-14 23:00","1979","07","14","23:00","21.7","","20.1","","91","","","","0","","4.0","","99.09","","29","","","","Fog,Haze"
"1979-07-15 00:00","1979","07","15","00:00","22.0","","20.6","","92","","25","","2","","3.2","","99.09","","30","","","","Fog,Haze"
"1979-07-15 01:00","1979","07","15","01:00","21.6","","20.4","","93","","27","","4","","3.2","","99.09","","30","","","","Fog,Haze"
"1979-07-15 02:00","1979","07","15","02:00","21.7","","20.4","","92","","","","0","","3.2","","99.09","","30","","","","Fog,Haze"
"1979-07-15 03:00","1979","07","15","03:00","22.0","","20.6","","92","","","","0","","3.2","","99.09","","30","","","","Fog,Haze"
"1979-07-15 04:00","1979","07","15","04:00","21.7","","20.1","","91","","19","","7","","3.2","","99.12","","29","","","","Fog,Haze"
"1979-07-15 05:00","1979","07","15","05:00","22.2","","21.0","","93","","18","","7","","1.6","","99.16","","31","","","","Fog,Haze"
"1979-07-15 06:00","1979","07","15","06:00","21.7","","20.1","","91","","23","","9","","1.6","","99.16","","29","","","","Fog,Haze"
"1979-07-15 07:00","1979","07","15","07:00","22.9","","20.4","","86","","23","","7","","2.4","","99.16","","31","","","","Haze"
"1979-07-15 08:00","1979","07","15","08:00","24.8","","21.0","","80","","21","","6","","4.0","","99.16","","33","","","","Haze"
"1979-07-15 09:00","1979","07","15","09:00","26.5","","21.5","","74","","26","","7","","4.8","","99.19","","35","","","","Haze"
"1979-07-15 10:00","1979","07","15","10:00","27.7","","21.9","","71","","25","","7","","4.8","","99.22","","37","","","","Haze"
"1979-07-15 11:00","1979","07","15","11:00","28.0","","21.6","","68","","15","","15","","4.8","","99.19","","37","","","","Haze"
"1979-07-15 12:00","1979","07","15","12:00","29.2","","21.8","","64","","16","","15","","4.0","","99.19","","38","","","","Haze"
"1979-07-15 13:00","1979","07","15","13:00","21.9","","21.7","","99","","15","","7","","9.7","","99.26","","31","","","","Thunderstorms,Rain Showers,Fog"
"1979-07-15 14:00","1979","07","15","14:00","25.6","","23.0","","86","","24","","9","","12.9","","99.22","","36","","","","Mostly Cloudy"
"1979-07-15 15:00","1979","07","15","15:00","29.2","","23.0","","69","","24","","15","","8.0","","99.19","","39","","","","Haze"
"1979-07-15 16:00","1979","07","15","16:00","29.9","","21.4","","60","","26","","19","","9.7","","99.19","","39","","","","Haze"
"1979-07-15 17:00","1979","07","15","17:00","27.5","","20.4","","65","","7","","20","","11.3","","99.22","","35","","","","Mostly Cloudy"
"1979-07-15 18:00","1979","07","15","18:00","27.4","","21.9","","72","","13","","11","","6.4","","99.26","","37","","","","Haze"
"1979-07-15 19:00","1979","07","15","19:00","26.5","","21.5","","74","","16","","7","","4.0","","99.26","","35","","","","Haze"
"1979-07-15 20:00","1979","07","15","20:00","26.0","","21.2","","75","","19","","6","","3.2","","99.32","","35","","","","Haze"
"1979-07-15 21:00","1979","07","15","21:00","23.2","","21.3","","89","","30","","4","","2.4","","99.42","","32","","","","Fog"
"1979-07-15 22:00","1979","07","15","22:00","23.9","","20.6","","82","","1","","13","","4.8","","99.49","","32","","","","Haze"
"1979-07-15 23:00","1979","07","15","23:00","22.7","","18.7","","78","","36","","6","","12.9","","99.49","","29","","","","Mostly Cloudy"
"1979-07-16 00:00","1979","07","16","00:00","20.6","","18.7","","89","","33","","6","","12.9","","99.52","","27","","","","Mostly Cloudy"
"1979-07-16 01:00","1979","07","16","01:00","20.1","","18.5","","90","","","","0","","24.1","","99.52","","26","","","","Mostly Cloudy"
"1979-07-16 02:00","1979","07","16","02:00","20.3","","19.0","","92","","","","0","","24.1","","99.56","","27","","","","Mainly Clear"
"1979-07-16 03:00","1979","07","16","03:00","17.5","","17.2","","98","","30","","7","","24.1","","99.56","","","","","","Mainly Clear"
"1979-07-16 04:00","1979","07","16","04:00","17.4","","17.2","","99","","32","","6","","24.1","","99.59","","","","","","Mainly Clear"
"1979-07-16 05:00","1979","07","16","05:00","17.6","","17.2","","98","","","","0","","12.9","","99.62","","","","","","Mainly Clear"
"1979-07-16 06:00","1979","07","16","06:00","18.2","","17.4","","95","","","","0","","12.9","","99.66","","","","","","Mainly Clear"
"1979-07-16 07:00","1979","07","16","07:00","21.5","","19.2","","87","","34","","4","","12.9","","99.69","","28","","","","Mainly Clear"
"1979-07-16 08:00","1979","07","16","08:00","24.2","","18.7","","71","","1","","9","","24.1","","99.76","","31","","","","Mainly Clear"
"1979-07-16 09:00","1979","07","16","09:00","26.5","","17.0","","56","","34","","17","","32.2","","99.76","","32","","","","Clear"
"1979-07-16 10:00","1979","07","16","10:00","27.4","","16.8","","52","","36","","11","","32.2","","99.76","","33","","","","Mainly Clear"
"1979-07-16 11:00","1979","07","16","11:00","28.1","","14.9","","45","","1","","6","","40.2","","99.76","","32","","","","Mainly Clear"
"1979-07-16 12:00","1979","07","16","12:00","27.9","","17.8","","54","","6","","13","","40.2","","99.76","","34","","","","Mostly Cloudy"
"1979-07-16 13:00","1979","07","16","13:00","27.0","","17.2","","55","","6","","9","","40.2","","99.72","","32","","","","Mostly Cloudy"
"1979-07-16 14:00","1979","07","16","14:00","26.5","","18.7","","62","","12","","13","","32.2","","99.72","","33","","","","Mostly Cloudy"
"1979-07-16 15:00","1979","07","16","15:00","26.4","","16.6","","55","","7","","11","","24.1","","99.72","","31","","","","Mostly Cloudy"
"1979-07-16 16:00","1979","07","16","16:00","26.1","","14.6","","49","","1","","24","","24.1","","99.76","","30","","","","Mostly Cloudy"
"1979-07-16 17:00","1979","07","16","17:00","25.6","","16.2","","56","","35","","26","","24.1","","99.79","","30","","","","Mainly Clear"
"1979-07-16 18:00","1979","07","16","18:00","24.1","","15.4","","58","","1","","24","","24.1","","99.82","","28","","","","Mainly Clear"
"1979-07-16 19:00","1979","07","16","19:00","22.6","","13.6","","57","","35","","22","","24.1","","99.86","","26","","","","Mainly Clear"
"1979-07-16 20:00","1979","07","16","20:00","20.2","","14.0","","67","","34","","26","","24.1","","99.92","","","","","","Mainly Clear"
"1979-07-16 21:00","1979","07","16","21:00","19.1","","13.9","","72","","34","","22","","19.3","","99.99","","","","","","Mainly Clear"
"1979-07-16 22:00","1979","07","16","22:00","18.1","","13.8","","76","","35","","19","","19.3","","100.02","","","","","","Mainly Clear"
"1979-07-16 23:00","1979","07","16","23:00","17.2","","13.8","","80","","35","","19","","24.1","","100.06","","","","","","Mainly Clear"
"1979-07-17 00:00","1979","07","17","00:00","17.0","","14.1","","83","","36","","20","","24.1","","100.06","","","","","","Mainly Clear"
"1979-07-17 01:00","1979","07","17","01:00","17.1","","13.8","","81","","1","","19","","24.1","","100.02","","","","","","Mainly Clear"
"1979-07-17 02:00","1979","07","17","02:00","16.1","","13.4","","84","","36","","15","","24.1","","100.06","","","","","","Mainly Clear"
"1979-07-17 03:00","1979","07","17","03:00","16.1","","13.4","","84","","36","","15","","24.1","","100.09","","","","","","Mostly Cloudy"
"1979-07-17 04:00","1979","07","17","04:00","15.5","","12.9","","84","","36","","20","","24.1","","100.16","","","","","","Mostly Cloudy"
"1979-07-17 05:00","1979","07","17","05:00","15.2","","12.3","","83","","36","","17","","40.2","","100.16","","","","","","Mostly Cloudy"
"1979-07-17 06:00","1979","07","17","06:00","15.2","","12.3","","83","","36","","17","","40.2","","100.16","","","","","","Mostly Cloudy"
"1979-07-17 07:00","1979","07","17","07:00","16.3","","12.9","","80","","36","","15","","40.2","","100.19","","","","","","Mostly Cloudy"
"1979-07-17 08:00","1979","07","17","08:00","18.0","","12.8","","72","","36","","15","","40.2","","100.19","","","","","","Mostly Cloudy"
"1979-07-17 09:00","1979","07","17","09:00","20.6","","13.5","","64","","5","","15","","40.2","","100.16","","","","","","Mostly Cloudy"
"1979-07-17 10:00","1979","07","17","10:00","21.1","","12.6","","58","","6","","13","","40.2","","100.16","","","","","","Mostly Cloudy"
"1979-07-17 11:00","1979","07","17","11:00","22.3","","12.5","","54","","11","","4","","40.2","","100.16","","25","","","","Mostly Cloudy"
"1979-07-17 12:00","1979","07","17","12:00","23.1","","13.1","","53","","2","","11","","40.2","","100.09","","26","","","","Mostly Cloudy"
"1979-07-17 13:00","1979","07","17","13:00","23.0","","13.5","","55","","10","","2","","40.2","","100.06","","26","","","","Mostly Cloudy"
"1979-07-17 14:00","1979","07","17","14:00","23.1","","13.9","","56","","19","","11","","40.2","","100.02","","26","","","","Mostly Cloudy"
"1979-07-17 15:00","1979","07","17","15:00","23.7","","13.7","","54","","15","","7","","40.2","","100.02","","27","","","","Mostly Cloudy"
"1979-07-17 16:00","1979","07","17","16:00","22.8","","14.6","","60","","20","","4","","32.2","","99.99","","27","","","","Cloudy"
"1979-07-17 17:00","1979","07","17","17:00","22.2","","13.0","","56","","19","","7","","32.2","","99.99","","25","","","","Cloudy"
"1979-07-17 18:00","1979","07","17","18:00","22.6","","10.1","","45","","1","","13","","32.2","","99.99","","","","","","Mostly Cloudy"
"1979-07-17 19:00","1979","07","17","19:00","21.1","","11.8","","55","","35","","24","","32.2","","99.96","","","","","","Mostly Cloudy"
"1979-07-17 20:00","1979","07","17","20:00","19.5","","10.8","","57","","35","","24","","24.1","","99.99","","","","","","Mostly Cloudy"
"1979-07-17 21:00","1979","07","17","21:00","18.2","","9.7","","58","","35","","24","","24.1","","99.99","","","","","","Cloudy"
"1979-07-17 22:00","1979","07","17","22:00","17.4","","10.3","","63","","1","","17","","19.3","","99.99","","","","","","Mostly Cloudy"
"1979-07-17 23:00","1979","07","17","23:00","16.3","","11.3","","72","","35","","13","","24.1","","100.06","","","","","","Mostly Cloudy"
"1979-07-18 00:00","1979","07","18","00:00","16.3","","11.1","","71","","36","","19","","24.1","","100.02","","","","","","Mostly Cloudy"
"1979-07-18 01:00","1979","07","18","01:00","16.2","","10.5","","69","","35","","19","","24.1","","99.99","","","","","","Mostly Cloudy"
"1979-07-18 02:00","1979","07","18","02:00","15.8","","10.9","","73","","36","","15","","24.1","","99.99","","","","","","Mostly Cloudy"
"1979-07-18 03:00","1979","07","18","03:00","15.5","","10.7","","73","","35","","17","","24.1","","99.99","","","","","","Mostly Cloudy"
"1979-07-18 04:00","1979","07","18","04:00","14.8","","11.6","","81","","35","","11","","25.0","","99.99","","","","","","Mostly Cloudy"
"1979-07-18 05:00","1979","07","18","05:00","14.4","","11.4","","82","","35","","13","","25.0","","100.02","","","","","","Mostly Cloudy"
"1979-07-18 06:00","1979","07","18","06:00","14.5","","11.8","","84","","35","","15","","32.2","","100.06","","","","","","Mainly Clear"
"1979-07-18 07:00","1979","07","18","07:00","17.4","","13.3","","77","","36","","17","","32.2","","99.99","","","","","","Mainly Clear"
"1979-07-18 08:00","1979","07","18","08:00","18.5","","13.3","","72","","1","","15","","40.2","","100.02","","","","","","Mainly Clear"
"1979-07-18 09:00","1979","07","18","09:00","21.1","","12.6","","58","","36","","15","","40.2","","100.06","","","","","","Mainly Clear"
"1979-07-18 10:00","1979","07","18","10:00","22.1","","11.9","","52","","1","","11","","40.2","","100.02","","","","","","Mainly Clear"
"1979-07-18 11:00","1979","07","18","11:00","23.1","","10.3","","44","","4","","9","","40.2","","100.02","","25","","","","Mainly Clear"
"1979-07-18 12:00","1979","07","18","12:00","24.0","","10.8","","43","","33","","11","","40.2","","99.99","","26","","","","Mostly Cloudy"
"1979-07-18 13:00","1979","07","18","13:00","23.3","","10.2","","44","","2","","4","","40.2","","99.96","","25","","","","Mainly Clear"
"1979-07-18 14:00","1979","07","18","14:00","25.2","","11.8","","43","","","","0","","40.2","","99.92","","27","","","","Mainly Clear"
"1979-07-18 15:00","1979","07","18","15:00","24.2","","8.2","","36","","29","","4","","40.2","","99.89","","25","","","","Mainly Clear"
"1979-07-18 16:00","1979","07","18","16:00","24.6","","10.7","","42","","27","","4","","40.2","","99.89","","26","","","","Mainly Clear"
"1979-07-18 17:00","1979","07","18","17:00","23.8","","13.2","","52","","18","","13","","40.2","","99.86","","27","","","","Mainly Clear"
"1979-07-18 18:00","1979","07","18","18:00","23.8","","13.2","","52","","16","","11","","40.2","","99.86","","27","","","","Mainly Clear"
"1979-07-18 19:00","1979","07","18","19:00","23.4","","9.3","","41","","2","","13","","40.2","","99.86","","","","","","Mainly Clear"
"1979-07-18 20:00","1979","07","18","20:00","20.9","","8.1","","44","","2","","13","","40.2","","99.89","","","","","","Mainly Clear"
"1979-07-18 21:00","1979","07","18","21:00","19.6","","6.4","","42","","36","","15","","25.0","","99.99","","","","","","Mainly Clear"
"1979-07-18 22:00","1979","07","18","22:00","15.7","","8.3","","61","","36","","13","","25.0","","99.99","","","","","","Mainly Clear"
"1979-07-18 23:00","1979","07","18","23:00","14.5","","9.2","","71","","35","","11","","24.1","","99.99","","","","","","Mainly Clear"
"1979-07-19 00:00","1979","07","19","00:00","13.5","","8.4","","71","","35","","9","","24.1","","99.99","","","","","","Mainly Clear"
"1979-07-19 01:00","1979","07","19","01:00","12.5","","8.1","","75","","34","","9","","24.1","","100.02","","","","","","Mainly Clear"
"1979-07-19 02:00","1979","07","19","02:00","12.0","","8.3","","78","","33","","7","","24.1","","100.02","","","","","","Mainly Clear"
"1979-07-19 03:00","1979","07","19","03:00","12.4","","7.7","","73","","32","","6","","24.1","","99.99","","","","","","Mainly Clear"
"1979-07-19 04:00","1979","07","19","04:00","11.5","","8.6","","82","","31","","2","","24.1","","99.99","","","","","","Mainly Clear"
"1979-07-19 05:00","1979","07","19","05:00","11.5","","9.0","","85","","4","","2","","32.2","","100.02","","","","","","Mainly Clear"
"1979-07-19 06:00","1979","07","19","06:00","11.5","","9.7","","89","","36","","4","","32.2","","100.06","","","","","","Mainly Clear"
"1979-07-19 07:00","1979","07","19","07:00","14.8","","11.3","","80","","28","","4","","32.2","","100.12","","","","","","Clear"
"1979-07-19 08:00","1979","07","19","08:00","19.6","","10.4","","55","","24","","7","","32.2","","100.16","","","","","","Mainly Clear"
"1979-07-19 09:00","1979","07","19","09:00","21.5","","8.3","","43","","22","","6","","32.2","","100.16","","","","","","Clear"
"1979-07-19 10:00","1979","07","19","10:00","22.8","","9.5","","43","","22","","6","","32.2","","100.12","","","","","","Mainly Clear"
"1979-07-19 11:00","1979","07","19","11:00","23.8","","9.5","","40","","21","","15","","32.2","","100.12","","25","","","","Mainly Clear"
"1979-07-19 12:00","1979","07","19","12:00","24.8","","8.7","","36","","21","","11","","40.2","","100.09","","26","","","","Mainly Clear"
"1979-07-19 13:00","1979","07","19","13:00","25.5","","8.0","","33","","27","","11","","40.2","","100.06","","26","","","","Clear"
"1979-07-19 14:00","1979","07","19","14:00","25.6","","8.0","","33","","21","","7","","40.2","","99.99","","26","","","","Clear"
"1979-07-19 15:00","1979","07","19","15:00","26.7","","10.4","","36","","26","","19","","40.2","","99.99","","28","","","","Clear"
"1979-07-19 16:00","1979","07","19","16:00","26.4","","10.0","","36","","17","","15","","40.2","","99.96","","28","","","","Mainly Clear"
"1979-07-19 17:00","1979","07","19","17:00","25.9","","10.2","","37","","18","","17","","40.2","","99.89","","27","","","","Mainly Clear"
"1979-07-19 18:00","1979","07","19","18:00","25.2","","8.2","","34","","16","","15","","40.2","","99.89","","26","","","","Mainly Clear"
"1979-07-19 19:00","1979","07","19","19:00","24.2","","10.8","","43","","19","","7","","40.2","","99.89","","26","","","","Mainly Clear"
"1979-07-19 20:00","1979","07","19","20:00","21.8","","13.0","","57","","20","","7","","40.2","","99.92","","25","","","","Mainly Clear"
"1979-07-19 21:00","1979","07","19","21:00","20.5","","11.6","","57","","21","","4","","25.0","","99.96","","","","","","Clear"
"1979-07-19 22:00","1979","07","19","22:00","18.8","","11.3","","62","","","","0","","25.0","","99.99","","","","","","Clear"
"1979-07-19 23:00","1979","07","19","23:00","17.8","","10.9","","64","","31","","4","","25.0","","99.99","","","","","","Clear"
"1979-07-20 00:00","1979","07","20","00:00","15.4","","11.1","","76","","27","","4","","19.3","","99.99","","","","","","Clear"
"1979-07-20 01:00","1979","07","20","01:00","14.2","","10.2","","77","","27","","9","","19.3","","100.02","","","","","","Clear"
"1979-07-20 02:00","1979","07","20","02:00","12.6","","9.7","","83","","31","","7","","19.3","","99.99","","","","","","Clear"
"1979-07-20 03:00","1979","07","20","03:00","11.4","","9.3","","87","","33","","6","","19.3","","99.99","","","","","","Clear"
"1979-07-20 04:00","1979","07","20","04:00","11.3","","9.3","","87","","35","","7","","19.3","","99.99","","","","","","Clear"
"1979-07-20 05:00","1979","07","20","05:00","10.9","","9.2","","89","","35","","6","","19.3","","99.99","","","","","","Mainly Clear"
"1979-07-20 06:00","1979","07","20","06:00","14.4","","10.3","","76","","","","0","","24.1","","99.99","","","","","","Mainly Clear"
"1979-07-20 07:00","1979","07","20","07:00","18.2","","11.7","","66","","","","0","","24.1","","100.06","","","","","","Mainly Clear"
"1979-07-20 08:00","1979","07","20","08:00","20.5","","13.1","","63","","15","","9","","12.9","","100.12","","","","","","Clear"
"1979-07-20 09:00","1979","07","20","09:00","23.1","","13.9","","56","","18","","9","","12.9","","100.12","","26","","","","Clear"
"1979-07-20 10:00","1979","07","20","10:00","25.1","","13.7","","49","","17","","13","","12.9","","100.12","","28","","","","Mainly Clear"
"1979-07-20 11:00","1979","07","20","11:00","25.6","","14.4","","50","","15","","15","","12.9","","100.09","","29","","","","Mostly Cloudy"
"1979-07-20 12:00","1979","07","20","12:00","26.4","","14.5","","48","","17","","22","","12.9","","100.06","","30","","","","Mostly Cloudy"
"1979-07-20 13:00","1979","07","20","13:00","27.1","","12.4","","40","","16","","22","","12.9","","99.99","","30","","","","Mostly Cloudy"
"1979-07-20 14:00","1979","07","20","14:00","26.6","","10.9","","37","","17","","19","","16.1","","99.99","","28","","","","Mostly Cloudy"
"1979-07-20 15:00","1979","07","20","15:00","27.2","","11.1","","37","","16","","20","","32.2","","99.96","","29","","","","Mainly Clear"
"1979-07-20 16:00","1979","07","20","16:00","27.3","","11.4","","37","","16","","17","","32.2","","99.89","","29","","","","Mainly Clear"
"1979-07-20 17:00","1979","07","20","17:00","27.0","","12.0","","39","","16","","17","","32.2","","99.89","","29","","","","Mainly Clear"
"1979-07-20 18:00","1979","07","20","18:00","26.2","","10.2","","37","","17","","13","","32.2","","99.89","","28","","","","Mainly Clear"
"1979-07-20 19:00","1979","07","20","19:00","25.2","","12.2","","44","","17","","9","","32.2","","99.86","","28","","","","Mainly Clear"
"1979-07-20 20:00","1979","07","20","20:00","23.5","","12.6","","50","","17","","11","","25.0","","99.86","","26","","","","Mainly Clear"
"1979-07-20 21:00","1979","07","20","21:00","19.2","","13.5","","69","","25","","7","","25.0","","99.89","","","","","","Mainly Clear"
"1979-07-20 22:00","1979","07","20","22:00","18.2","","13.8","","75","","26","","9","","24.1","","99.89","","","","","","Clear"
"1979-07-20 23:00","1979","07","20","23:00","17.2","","13.8","","80","","33","","9","","24.1","","99.89","","","","","","Clear"
"1979-07-21 00:00","1979","07","21","00:00","16.7","","13.9","","83","","35","","9","","19.3","","99.89","","","","","","Clear"
"1979-07-21 01:00","1979","07","21","01:00","16.8","","14.8","","88","","34","","15","","24.1","","99.86","","","","","","Clear"
"1979-07-21 02:00","1979","07","21","02:00","17.0","","14.4","","85","","36","","2","","24.1","","99.86","","","","","","Clear"
"1979-07-21 03:00","1979","07","21","03:00","15.7","","13.5","","87","","35","","7","","19.3","","99.86","","","","","","Mainly Clear"
"1979-07-21 04:00","1979","07","21","04:00","15.2","","13.4","","89","","34","","6","","19.3","","99.89","","","","","","Mainly Clear"
"1979-07-21 05:00","1979","07","21","05:00","15.5","","13.5","","88","","35","","9","","19.3","","99.92","","","","","","Mainly Clear"
"1979-07-21 06:00","1979","07","21","06:00","16.6","","14.3","","86","","36","","7","","24.1","","99.92","","","","","","Mainly Clear"
"1979-07-21 07:00","1979","07","21","07:00","18.5","","15.0","","80","","31","","4","","19.3","","99.96","","","","","","Mainly Clear"
"1979-07-21 08:00","1979","07","21","08:00","21.4","","16.0","","71","","2","","2","","19.3","","99.96","","26","","","","Mainly Clear"
"1979-07-21 09:00","1979","07","21","09:00","22.5","","15.8","","66","","19","","2","","16.1","","99.92","","27","","","","Mainly Clear"
"1979-07-21 10:00","1979","07","21","10:00","24.5","","15.3","","57","","25","","2","","12.9","","99.89","","29","","","","Mainly Clear"
"1979-07-21 11:00","1979","07","21","11:00","26.2","","13.9","","47","","2","","7","","16.1","","99.86","","30","","","","Mainly Clear"
"1979-07-21 12:00","1979","07","21","12:00","27.5","","12.7","","40","","22","","2","","19.3","","99.86","","30","","","","Mainly Clear"
"1979-07-21 13:00","1979","07","21","13:00","28.1","","13.7","","41","","15","","13","","19.3","","99.79","","31","","","","Mainly Clear"
"1979-07-21 14:00","1979","07","21","14:00","27.1","","14.7","","47","","13","","19","","16.1","","99.79","","31","","","","Mostly Cloudy"
"1979-07-21 15:00","1979","07","21","15:00","27.5","","12.7","","40","","16","","17","","16.1","","99.76","","30","","","","Mainly Clear"
"1979-07-21 16:00","1979","07","21","16:00","27.5","","12.3","","39","","15","","15","","16.1","","99.66","","30","","","","Mainly Clear"
"1979-07-21 17:00","1979","07","21","17:00","27.8","","12.5","","39","","16","","15","","16.1","","99.62","","30","","","","Mainly Clear"
"1979-07-21 18:00","1979","07","21","18:00","26.9","","12.4","","41","","17","","11","","16.1","","99.59","","29","","","","Mainly Clear"
"1979-07-21 19:00","1979","07","21","19:00","25.9","","11.9","","42","","17","","11","","16.1","","99.56","","28","","","","Mainly Clear"
"1979-07-21 20:00","1979","07","21","20:00","24.5","","13.1","","49","","19","","6","","11.3","","99.56","","27","","","","Mainly Clear"
"1979-07-21 21:00","1979","07","21","21:00","21.0","","13.7","","63","","28","","4","","9.7","","99.59","","","","","","Haze"
"1979-07-21 22:00","1979","07","21","22:00","20.7","","13.8","","64","","34","","7","","16.1","","99.62","","","","","","Mainly Clear"
"1979-07-21 23:00","1979","07","21","23:00","19.4","","13.0","","67","","35","","6","","16.1","","99.62","","","","","","Mainly Clear"
"1979-07-22 00:00","1979","07","22","00:00","17.6","","13.3","","76","","33","","6","","16.1","","99.62","","","","","","Mainly Clear"
"1979-07-22 01:00","1979","07","22","01:00","18.0","","13.1","","73","","28","","6","","16.1","","99.66","","","","","","Mainly Clear"
"1979-07-22 02:00","1979","07","22","02:00","17.3","","13.6","","79","","30","","7","","12.9","","99.59","","","","","","Mainly Clear"
"1979-07-22 03:00","1979","07","22","03:00","15.9","","13.0","","83","","34","","6","","12.9","","99.62","","","","","","Mainly Clear"
"1979-07-22 04:00","1979","07","22","04:00","15.5","","12.9","","84","","30","","4","","12.9","","99.62","","","","","","Mainly Clear"
"1979-07-22 05:00","1979","07","22","05:00","16.1","","13.7","","86","","","","0","","8.0","","99.66","","","","","","Fog"
"1979-07-22 06:00","1979","07","22","06:00","17.4","","12.6","","74","","","","0","","8.0","","99.69","","","","","","Haze"
"1979-07-22 07:00","1979","07","22","07:00","19.4","","14.4","","73","","27","","6","","9.7","","99.69","","","","","","Haze"
"1979-07-22 08:00","1979","07","22","08:00","22.6","","14.0","","58","","26","","9","","12.9","","99.69","","26","","","","Clear"
"1979-07-22 09:00","1979","07","22","09:00","25.5","","15.4","","54","","25","","11","","16.1","","99.72","","30","","","","Mainly Clear"
"1979-07-22 10:00","1979","07","22","10:00","27.5","","14.6","","45","","26","","19","","12.9","","99.76","","31","","","","Mainly Clear"
"1979-07-22 11:00","1979","07","22","11:00","28.8","","15.8","","45","","28","","15","","16.1","","99.76","","33","","","","Mostly Cloudy"
"1979-07-22 12:00","1979","07","22","12:00","28.5","","14.4","","42","","25","","19","","16.1","","99.79","","32","","","","Mostly Cloudy"
"1979-07-22 13:00","1979","07","22","13:00","29.9","","14.1","","38","","27","","19","","12.9","","99.76","","33","","","","Mostly Cloudy"
"1979-07-22 14:00","1979","07","22","14:00","29.5","","15.0","","41","","35","","6","","11.3","","99.76","","33","","","","Mostly Cloudy"
"1979-07-22 15:00","1979","07","22","15:00","29.8","","14.5","","39","","27","","15","","24.1","","99.69","","33","","","","Mainly Clear"
"1979-07-22 16:00","1979","07","22","16:00","30.2","","11.6","","32","","28","","13","","32.2","","99.69","","32","","","","Mainly Clear"
"1979-07-22 17:00","1979","07","22","17:00","28.4","","15.2","","45","","25","","7","","32.2","","99.69","","32","","","","Mainly Clear"
"1979-07-22 18:00","1979","07","22","18:00","28.6","","14.8","","43","","25","","7","","32.2","","99.69","","32","","","","Mainly Clear"
"1979-07-22 19:00","1979","07","22","19:00","26.8","","15.8","","51","","26","","6","","32.2","","99.72","","31","","","","Mainly Clear"
"1979-07-22 20:00","1979","07","22","20:00","24.6","","14.2","","52","","28","","6","","32.2","","99.76","","28","","","","Mainly Clear"
"1979-07-22 21:00","1979","07","22","21:00","24.0","","14.0","","54","","33","","4","","24.1","","99.82","","27","","","","Mainly Clear"
"1979-07-22 22:00","1979","07","22","22:00","21.2","","15.4","","69","","36","","9","","24.1","","99.86","","25","","","","Mainly Clear"
"1979-07-22 23:00","1979","07","22","23:00","19.4","","16.1","","81","","33","","7","","19.3","","99.89","","","","","","Mainly Clear"
"1979-07-23 00:00","1979","07","23","00:00","18.6","","15.0","","80","","35","","7","","16.1","","99.89","","","","","","Clear"
"1979-07-23 01:00","1979","07","23","01:00","17.3","","15.3","","88","","27","","6","","12.9","","99.89","","","","","","Clear"
"1979-07-23 02:00","1979","07","23","02:00","16.5","","14.6","","89","","30","","7","","12.9","","99.89","","","","","","Clear"
"1979-07-23 03:00","1979","07","23","03:00","15.9","","14.4","","91","","30","","6","","11.3","","99.86","","","","","","Mainly Clear"
"1979-07-23 04:00","1979","07","23","04:00","16.1","","14.1","","88","","36","","9","","12.9","","99.86","","","","","","Mainly Clear"
"1979-07-23 05:00","1979","07","23","05:00","15.6","","13.9","","90","","34","","9","","11.3","","99.92","","","","","","Mainly Clear"
"1979-07-23 06:00","1979","07","23","06:00","16.6","","14.3","","86","","35","","6","","11.3","","99.99","","","","","","Mainly Clear"
"1979-07-23 07:00","1979","07","23","07:00","20.4","","16.2","","77","","32","","4","","8.0","","100.02","","25","","","","Haze"
"1979-07-23 08:00","1979","07","23","08:00","23.1","","15.7","","63","","3","","4","","6.4","","100.02","","28","","","","Haze"
"1979-07-23 09:00","1979","07","23","09:00","25.1","","14.5","","52","","35","","4","","6.4","","99.99","","29","","","","Haze"
"1979-07-23 10:00","1979","07","23","10:00","27.2","","15.8","","50","","18","","7","","6.4","","99.96","","32","","","","Haze"
"1979-07-23 11:00","1979","07","23","11:00","28.5","","13.6","","40","","15","","4","","6.4","","99.96","","32","","","","Haze"
"1979-07-23 12:00","1979","07","23","12:00","28.7","","14.0","","41","","15","","13","","6.4","","99.96","","32","","","","Haze"
"1979-07-23 13:00","1979","07","23","13:00","29.2","","15.1","","42","","15","","17","","6.4","","99.89","","33","","","","Haze"
"1979-07-23 14:00","1979","07","23","14:00","29.5","","16.8","","46","","17","","15","","4.8","","99.82","","35","","","","Haze"
"1979-07-23 15:00","1979","07","23","15:00","29.6","","16.8","","46","","13","","17","","4.8","","99.76","","35","","","","Haze"
"1979-07-23 16:00","1979","07","23","16:00","28.8","","16.9","","49","","15","","17","","4.8","","99.72","","34","","","","Haze"
"1979-07-23 17:00","1979","07","23","17:00","26.6","","16.3","","53","","13","","26","","8.0","","99.76","","31","","","","Haze"
"1979-07-23 18:00","1979","07","23","18:00","26.2","","16.1","","54","","15","","17","","8.0","","99.72","","31","","","","Haze"
"1979-07-23 19:00","1979","07","23","19:00","26.0","","18.4","","63","","15","","7","","4.8","","99.69","","32","","","","Haze"
"1979-07-23 20:00","1979","07","23","20:00","24.8","","19.2","","71","","13","","13","","4.8","","99.72","","32","","","","Haze"
"1979-07-23 21:00","1979","07","23","21:00","24.1","","19.7","","77","","18","","11","","6.4","","99.79","","31","","","","Haze"
"1979-07-23 22:00","1979","07","23","22:00","23.0","","18.6","","76","","20","","11","","6.4","","99.79","","29","","","","Haze"
"1979-07-23 23:00","1979","07","23","23:00","22.1","","18.8","","81","","23","","13","","6.4","","99.79","","29","","","","Haze"
"1979-07-24 00:00","1979","07","24","00:00","21.2","","18.9","","87","","25","","7","","4.8","","99.76","","28","","","","Haze"
"1979-07-24 01:00","1979","07","24","01:00","20.6","","18.7","","89","","25","","7","","4.8","","99.76","","27","","","","Haze"
"1979-07-24 02:00","1979","07","24","02:00","20.4","","19.0","","92","","25","","9","","4.8","","99.76","","27","","","","Fog"
"1979-07-24 03:00","1979","07","24","03:00","20.4","","19.3","","93","","26","","7","","4.0","","99.72","","27","","","","Fog"
"1979-07-24 04:00","1979","07","24","04:00","19.9","","18.8","","93","","","","0","","4.0","","99.72","","","","","","Fog"
"1979-07-24 05:00","1979","07","24","05:00","20.3","","19.3","","94","","","","0","","2.0","","99.76","","27","","","","Fog"
"1979-07-24 06:00","1979","07","24","06:00","20.5","","19.0","","91","","16","","7","","2.0","","99.79","","27","","","","Fog"
"1979-07-24 07:00","1979","07","24","07:00","21.6","","19.8","","89","","16","","7","","4.0","","99.79","","29","","","","Fog,Haze"
"1979-07-24 08:00","1979","07","24","08:00","23.3","","20.1","","82","","20","","15","","4.8","","99.79","","31","","","","Haze"
"1979-07-24 09:00","1979","07","24","09:00","24.7","","20.2","","76","","22","","11","","8.0","","99.79","","32","","","","Haze"
"1979-07-24 10:00","1979","07","24","10:00","26.5","","20.9","","71","","21","","15","","6.4","","99.79","","35","","","","Haze"
"1979-07-24 11:00","1979","07","24","11:00","27.7","","21.3","","68","","18","","15","","6.4","","99.76","","36","","","","Haze"
"1979-07-24 12:00","1979","07","24","12:00","28.0","","21.9","","69","","21","","20","","6.4","","99.76","","37","","","","Haze"
"1979-07-24 13:00","1979","07","24","13:00","28.7","","21.5","","65","","22","","15","","6.4","","99.69","","38","","","","Haze"
"1979-07-24 14:00","1979","07","24","14:00","29.0","","21.5","","64","","17","","17","","6.4","","99.66","","38","","","","Haze"
"1979-07-24 15:00","1979","07","24","15:00","29.6","","20.8","","59","","17","","22","","8.0","","99.56","","38","","","","Haze"
"1979-07-24 16:00","1979","07","24","16:00","29.2","","20.2","","58","","18","","19","","9.7","","99.49","","37","","","","Haze"
"1979-07-24 17:00","1979","07","24","17:00","30.0","","19.1","","52","","23","","28","","9.7","","99.46","","37","","","","Haze"
"1979-07-24 18:00","1979","07","24","18:00","28.7","","18.7","","55","","22","","19","","40.2","","99.42","","35","","","","Mostly Cloudy"
"1979-07-24 19:00","1979","07","24","19:00","28.0","","19.1","","59","","24","","20","","40.2","","99.49","","35","","","","Mostly Cloudy"
"1979-07-24 20:00","1979","07","24","20:00","25.8","","19.4","","68","","22","","15","","40.2","","99.56","","33","","","","Mostly Cloudy"
"1979-07-24 21:00","1979","07","24","21:00","25.5","","18.8","","66","","22","","13","","24.1","","99.56","","32","","","","Mostly Cloudy"
"1979-07-24 22:00","1979","07","24","22:00","23.7","","19.1","","75","","22","","13","","24.1","","99.52","","31","","","","Mostly Cloudy"
"1979-07-24 23:00","1979","07","24","23:00","22.6","","18.7","","79","","23","","11","","24.1","","99.56","","29","","","","Mainly Clear"
"1979-07-25 00:00","1979","07","25","00:00","22.4","","19.0","","81","","23","","13","","24.1","","99.56","","29","","","","Mostly Cloudy"
"1979-07-25 01:00","1979","07","25","01:00","22.3","","19.0","","82","","23","","9","","24.1","","99.49","","29","","","","Mostly Cloudy"
"1979-07-25 02:00","1979","07","25","02:00","22.0","","19.1","","84","","20","","11","","24.1","","99.46","","29","","","","Cloudy"
"1979-07-25 03:00","1979","07","25","03:00","21.9","","19.4","","86","","20","","7","","24.1","","99.42","","29","","","","Mostly Cloudy"
"1979-07-25 04:00","1979","07","25","04:00","22.1","","19.7","","86","","20","","7","","16.1","","99.42","","29","","","","Cloudy"
"1979-07-25 05:00","1979","07","25","05:00","22.4","","20.2","","88","","20","","9","","16.1","","99.39","","30","","","","Cloudy"
"1979-07-25 06:00","1979","07","25","06:00","22.5","","20.2","","87","","20","","13","","12.9","","99.36","","30","","","","Mostly Cloudy"
"1979-07-25 07:00","1979","07","25","07:00","23.2","","20.4","","84","","20","","15","","16.1","","99.36","","31","","","","Mostly Cloudy"
"1979-07-25 08:00","1979","07","25","08:00","23.9","","20.9","","83","","20","","17","","16.1","","99.39","","32","","","","Cloudy"
"1979-07-25 09:00","1979","07","25","09:00","23.5","","20.9","","85","","21","","17","","9.7","","99.32","","32","","","","Rain Showers"
"1979-07-25 10:00","1979","07","25","10:00","25.0","","21.3","","80","","20","","19","","16.1","","99.29","","34","","","","Mostly Cloudy"
"1979-07-25 11:00","1979","07","25","11:00","26.3","","21.2","","74","","18","","22","","16.1","","99.19","","35","","","","Mostly Cloudy"
"1979-07-25 12:00","1979","07","25","12:00","27.2","","20.8","","68","","19","","22","","24.1","","99.16","","35","","","","Mostly Cloudy"
"1979-07-25 13:00","1979","07","25","13:00","27.9","","20.7","","65","","20","","24","","24.1","","99.09","","36","","","","Mostly Cloudy"
"1979-07-25 14:00","1979","07","25","14:00","25.6","","22.7","","84","","18","","22","","19.3","","99.06","","36","","","","Cloudy"
"1979-07-25 15:00","1979","07","25","15:00","28.1","","21.0","","65","","21","","26","","32.2","","98.92","","37","","","","Mostly Cloudy"
"1979-07-25 16:00","1979","07","25","16:00","28.1","","20.4","","63","","20","","30","","32.2","","98.86","","36","","","","Mostly Cloudy"
"1979-07-25 17:00","1979","07","25","17:00","25.0","","22.8","","88","","24","","17","","16.1","","98.82","","35","","","","Cloudy"
"1979-07-25 18:00","1979","07","25","18:00","25.5","","21.3","","78","","24","","19","","16.1","","98.82","","34","","","","Cloudy"
"1979-07-25 19:00","1979","07","25","19:00","24.6","","21.4","","82","","20","","11","","12.9","","98.82","","33","","","","Cloudy"
"1979-07-25 20:00","1979","07","25","20:00","24.1","","21.8","","87","","20","","9","","12.9","","98.82","","33","","","","Cloudy"
"1979-07-25 21:00","1979","07","25","21:00","23.7","","21.8","","89","","21","","13","","9.7","","98.79","","33","","","","Rain Showers,Fog"
"1979-07-25 22:00","1979","07","25","22:00","22.5","","21.7","","95","","23","","17","","9.7","","98.79","","32","","","","Rain Showers,Fog"
"1979-07-25 23:00","1979","07","25","23:00","22.5","","21.4","","93","","22","","9","","9.7","","98.72","","31","","","","Fog"
"1979-07-26 00:00","1979","07","26","00:00","22.5","","21.7","","95","","21","","7","","9.7","","98.69","","32","","","","Fog"
"1979-07-26 01:00","1979","07","26","01:00","22.4","","21.9","","97","","20","","6","","6.4","","98.69","","32","","","","Fog"
"1979-07-26 02:00","1979","07","26","02:00","22.3","","21.7","","97","","25","","7","","6.4","","98.66","","31","","","","Fog"
"1979-07-26 03:00","1979","07","26","03:00","22.4","","21.7","","96","","20","","6","","6.4","","98.62","","31","","","","Fog"
"1979-07-26 04:00","1979","07","26","04:00","22.1","","21.1","","94","","22","","7","","4.8","","98.62","","31","","","","Fog"
"1979-07-26 05:00","1979","07","26","05:00","22.1","","21.1","","94","","23","","11","","2.4","","98.62","","31","","","","Fog"
"1979-07-26 06:00","1979","07","26","06:00","22.1","","21.1","","94","","22","","7","","2.0","","98.66","","31","","","","Fog"
"1979-07-26 07:00","1979","07","26","07:00","22.4","","21.7","","96","","24","","7","","2.0","","98.69","","31","","","","Fog"
"1979-07-26 08:00","1979","07","26","08:00","23.3","","20.9","","86","","27","","15","","12.9","","98.69","","32","","","","Mostly Cloudy"
"1979-07-26 09:00","1979","07","26","09:00","23.2","","20.1","","83","","29","","20","","16.1","","98.72","","31","","","","Cloudy"
"1979-07-26 10:00","1979","07","26","10:00","22.3","","19.3","","83","","31","","26","","32.2","","98.79","","29","","","","Cloudy"
"1979-07-26 11:00","1979","07","26","11:00","22.5","","19.3","","82","","36","","15","","40.2","","98.86","","30","","","","Mostly Cloudy"
"1979-07-26 12:00","1979","07","26","12:00","23.0","","17.6","","72","","35","","22","","40.2","","98.86","","29","","","","Cloudy"
"1979-07-26 13:00","1979","07","26","13:00","22.6","","19.9","","85","","33","","19","","40.2","","98.89","","30","","","","Cloudy"
"1979-07-26 14:00","1979","07","26","14:00","21.8","","16.9","","74","","32","","22","","40.2","","98.96","","27","","","","Cloudy"
"1979-07-26 15:00","1979","07","26","15:00","20.9","","16.4","","75","","31","","17","","32.2","","98.96","","26","","","","Cloudy"
"1979-07-26 16:00","1979","07","26","16:00","21.6","","16.7","","74","","35","","24","","32.2","","98.99","","27","","","","Mostly Cloudy"
"1979-07-26 17:00","1979","07","26","17:00","20.5","","16.2","","77","","34","","28","","32.2","","99.06","","25","","","","Cloudy"
"1979-07-26 18:00","1979","07","26","18:00","19.5","","15.5","","78","","35","","19","","32.2","","99.09","","","","","","Cloudy"
"1979-07-26 19:00","1979","07","26","19:00","19.0","","15.3","","79","","34","","24","","32.2","","99.19","","","","","","Cloudy"
"1979-07-26 20:00","1979","07","26","20:00","18.3","","15.0","","81","","1","","20","","24.1","","99.16","","","","","","Cloudy"
"1979-07-26 21:00","1979","07","26","21:00","17.6","","14.6","","83","","34","","19","","19.3","","99.26","","","","","","Cloudy"
"1979-07-26 22:00","1979","07","26","22:00","17.6","","14.0","","79","","33","","17","","19.3","","99.29","","","","","","Cloudy"
"1979-07-26 23:00","1979","07","26","23:00","16.0","","14.1","","89","","32","","7","","16.1","","99.32","","","","","","Mainly Clear"
"1979-07-27 00:00","1979","07","27","00:00","15.5","","13.9","","90","","30","","6","","12.9","","99.36","","","","","","Mainly Clear"
"1979-07-27 01:00","1979","07","27","01:00","16.2","","14.1","","87","","28","","9","","12.9","","99.39","","","","","","Mostly Cloudy"
"1979-07-27 02:00","1979","07","27","02:00","15.8","","14.4","","91","","30","","6","","16.1","","99.36","","","","","","Mostly Cloudy"
"1979-07-27 03:00","1979","07","27","03:00","15.5","","13.9","","90","","32","","9","","16.1","","99.36","","","","","","Mostly Cloudy"
"1979-07-27 04:00","1979","07","27","04:00","14.7","","13.2","","91","","34","","11","","12.9","","99.36","","","","","","Mostly Cloudy"
"1979-07-27 05:00","1979","07","27","05:00","13.7","","12.5","","92","","35","","7","","12.9","","99.39","","","","","","Mostly Cloudy"
"1979-07-27 06:00","1979","07","27","06:00","14.3","","13.5","","95","","34","","4","","12.9","","99.39","","","","","","Mainly Clear"
"1979-07-27 07:00","1979","07","27","07:00","15.9","","14.4","","91","","33","","7","","24.1","","99.46","","","","","","Mostly Cloudy"
"1979-07-27 08:00","1979","07","27","08:00","17.6","","14.3","","81","","36","","7","","32.2","","99.46","","","","","","Mostly Cloudy"
"1979-07-27 09:00","1979","07","27","09:00","19.6","","14.8","","74","","2","","2","","32.2","","99.42","","","","","","Mostly Cloudy"
"1979-07-27 10:00","1979","07","27","10:00","21.5","","16.0","","71","","18","","6","","32.2","","99.46","","26","","","","Mostly Cloudy"
"1979-07-27 11:00","1979","07","27","11:00","22.9","","15.3","","62","","18","","2","","32.2","","99.46","","27","","","","Mostly Cloudy"
"1979-07-27 12:00","1979","07","27","12:00","23.2","","15.3","","61","","17","","9","","24.1","","99.46","","27","","","","Mostly Cloudy"
"1979-07-27 13:00","1979","07","27","13:00","23.4","","15.2","","60","","18","","15","","19.3","","99.39","","27","","","","Mostly Cloudy"
"1979-07-27 14:00","1979","07","27","14:00","23.4","","15.2","","60","","17","","17","","24.1","","99.39","","27","","","","Mostly Cloudy"
"1979-07-27 15:00","1979","07","27","15:00","24.0","","15.1","","58","","18","","11","","16.1","","99.36","","28","","","","Mostly Cloudy"
"1979-07-27 16:00","1979","07","27","16:00","24.3","","15.0","","56","","16","","17","","9.7","","99.32","","28","","","","Haze"
"1979-07-27 17:00","1979","07","27","17:00","24.1","","13.6","","52","","17","","13","","9.7","","99.32","","27","","","","Haze"
"1979-07-27 18:00","1979","07","27","18:00","23.8","","13.6","","53","","19","","13","","8.0","","99.32","","27","","","","Haze"
"1979-07-27 19:00","1979","07","27","19:00","23.2","","12.7","","52","","17","","7","","8.0","","99.32","","26","","","","Haze"
"1979-07-27 20:00","1979","07","27","20:00","22.4","","12.1","","52","","14","","6","","9.7","","99.32","","25","","","","Haze"
"1979-07-27 21:00","1979","07","27","21:00","22.0","","11.5","","51","","17","","6","","12.9","","99.36","","","","","","Mostly Cloudy"
"1979-07-27 22:00","1979","07","27","22:00","20.1","","15.0","","72","","17","","7","","9.7","","99.32","","","","","","Haze"
"1979-07-27 23:00","1979","07","27","23:00","19.4","","16.1","","81","","16","","6","","9.7","","99.36","","","","","","Haze"
"1979-07-28 00:00","1979","07","28","00:00","17.5","","14.6","","83","","","","0","","9.7","","99.32","","","","","","Haze"
"1979-07-28 01:00","1979","07","28","01:00","17.4","","15.6","","89","","","","0","","9.7","","99.29","","","","","","Haze"
"1979-07-28 02:00","1979","07","28","02:00","17.7","","15.6","","87","","21","","6","","9.7","","99.26","","","","","","Haze"
"1979-07-28 03:00","1979","07","28","03:00","17.3","","15.6","","90","","","","0","","9.7","","99.22","","","","","","Haze"
"1979-07-28 04:00","1979","07","28","04:00","16.8","","15.8","","94","","","","0","","9.7","","99.22","","","","","","Fog"
"1979-07-28 05:00","1979","07","28","05:00","17.3","","16.3","","94","","","","0","","6.4","","99.19","","","","","","Fog"
"1979-07-28 06:00","1979","07","28","06:00","17.6","","15.9","","90","","17","","4","","6.4","","99.16","","","","","","Fog"
"1979-07-28 07:00","1979","07","28","07:00","18.8","","16.9","","89","","14","","9","","8.0","","99.16","","","","","","Fog"
"1979-07-28 08:00","1979","07","28","08:00","19.5","","17.4","","88","","15","","7","","6.4","","99.16","","","","","","Fog"
"1979-07-28 09:00","1979","07","28","09:00","21.1","","17.7","","81","","17","","9","","8.0","","99.16","","27","","","","Haze"
"1979-07-28 10:00","1979","07","28","10:00","21.5","","17.9","","80","","21","","7","","9.7","","99.16","","27","","","","Haze"
"1979-07-28 11:00","1979","07","28","11:00","24.2","","19.7","","76","","21","","19","","9.7","","99.09","","32","","","","Haze"
"1979-07-28 12:00","1979","07","28","12:00","25.4","","19.1","","68","","24","","22","","11.3","","99.09","","32","","","","Mostly Cloudy"
"1979-07-28 13:00","1979","07","28","13:00","24.8","","18.3","","67","","23","","26","","16.1","","99.12","","31","","","","Cloudy"
"1979-07-28 14:00","1979","07","28","14:00","25.2","","18.9","","68","","24","","28","","19.3","","99.09","","32","","","","Mostly Cloudy"
"1979-07-28 15:00","1979","07","28","15:00","27.6","","17.8","","55","","24","","30","","19.3","","99.06","","33","","","","Mostly Cloudy"
"1979-07-28 16:00","1979","07","28","16:00","21.5","","20.4","","93","","25","","22","","3.2","","99.09","","29","","","","Thunderstorms,Rain Showers,Fog"
"1979-07-28 17:00","1979","07","28","17:00","24.3","","21.1","","83","","24","","20","","6.4","","99.06","","33","","","","Haze"
"1979-07-28 18:00","1979","07","28","18:00","24.1","","17.1","","65","","30","","15","","8.0","","99.09","","29","","","","Haze"
"1979-07-28 19:00","1979","07","28","19:00","23.7","","15.9","","62","","32","","17","","12.9","","99.12","","28","","","","Clear"
"1979-07-28 20:00","1979","07","28","20:00","20.4","","15.2","","72","","31","","15","","16.1","","99.19","","","","","","Clear"
"1979-07-28 21:00","1979","07","28","21:00","19.0","","14.6","","76","","30","","17","","24.1","","99.26","","","","","","Clear"
"1979-07-28 22:00","1979","07","28","22:00","15.5","","12.9","","84","","29","","11","","24.1","","99.29","","","","","","Mainly Clear"
"1979-07-28 23:00","1979","07","28","23:00","15.3","","12.9","","86","","27","","6","","24.1","","99.32","","","","","","Mainly Clear"
"1979-07-29 00:00","1979","07","29","00:00","14.1","","11.6","","85","","33","","9","","24.1","","99.32","","","","","","Mainly Clear"
"1979-07-29 01:00","1979","07","29","01:00","13.3","","11.8","","91","","35","","7","","24.1","","99.36","","","","","","Mainly Clear"
"1979-07-29 02:00","1979","07","29","02:00","13.3","","11.8","","91","","33","","4","","24.1","","99.36","","","","","","Mainly Clear"
"1979-07-29 03:00","1979","07","29","03:00","13.0","","11.6","","91","","34","","6","","24.1","","99.36","","","","","","Mainly Clear"
"1979-07-29 04:00","1979","07","29","04:00","13.0","","12.0","","94","","","","0","","24.1","","99.39","","","","","","Mostly Cloudy"
"1979-07-29 05:00","1979","07","29","05:00","13.0","","12.0","","94","","34","","4","","40.2","","99.39","","","","","","Mostly Cloudy"
"1979-07-29 06:00","1979","07","29","06:00","14.0","","13.0","","94","","","","0","","40.2","","99.42","","","","","","Mostly Cloudy"
"1979-07-29 07:00","1979","07","29","07:00","16.0","","14.1","","89","","35","","2","","40.2","","99.46","","","","","","Mostly Cloudy"
"1979-07-29 08:00","1979","07","29","08:00","19.7","","15.1","","75","","36","","9","","40.2","","99.49","","","","","","Mostly Cloudy"
"1979-07-29 09:00","1979","07","29","09:00","21.9","","15.9","","69","","2","","11","","40.2","","99.49","","26","","","","Mainly Clear"
"1979-07-29 10:00","1979","07","29","10:00","23.1","","16.7","","67","","36","","2","","40.2","","99.52","","28","","","","Mostly Cloudy"
"1979-07-29 11:00","1979","07","29","11:00","24.6","","16.0","","59","","33","","2","","40.2","","99.52","","29","","","","Mainly Clear"
"1979-07-29 12:00","1979","07","29","12:00","25.7","","14.4","","50","","27","","6","","40.2","","99.49","","29","","","","Mainly Clear"
"1979-07-29 13:00","1979","07","29","13:00","26.8","","13.2","","43","","33","","2","","40.2","","99.46","","30","","","","Mainly Clear"
"1979-07-29 14:00","1979","07","29","14:00","26.8","","16.2","","52","","15","","13","","40.2","","99.42","","32","","","","Mainly Clear"
"1979-07-29 15:00","1979","07","29","15:00","27.1","","15.5","","49","","16","","15","","40.2","","99.42","","31","","","","Mainly Clear"
"1979-07-29 16:00","1979","07","29","16:00","26.2","","17.1","","57","","14","","13","","40.2","","99.42","","32","","","","Mainly Clear"
"1979-07-29 17:00","1979","07","29","17:00","25.5","","15.1","","53","","17","","11","","40.2","","99.46","","30","","","","Mainly Clear"
"1979-07-29 18:00","1979","07","29","18:00","24.9","","13.3","","49","","16","","9","","40.2","","99.42","","28","","","","Clear"
"1979-07-29 19:00","1979","07","29","19:00","24.8","","13.0","","48","","17","","7","","40.2","","99.46","","28","","","","Clear"
"1979-07-29 20:00","1979","07","29","20:00","23.1","","11.6","","48","","16","","4","","40.2","","99.46","","25","","","","Mainly Clear"
"1979-07-29 21:00","1979","07","29","21:00","19.8","","14.0","","69","","32","","9","","25.0","","99.56","","","","","","Mainly Clear"
"1979-07-29 22:00","1979","07","29","22:00","17.6","","14.0","","79","","34","","7","","25.0","","99.59","","","","","","Clear"
"1979-07-29 23:00","1979","07","29","23:00","17.1","","13.8","","81","","34","","11","","25.0","","99.56","","","","","","Clear"
"1979-07-30 00:00","1979","07","30","00:00","16.5","","13.9","","85","","33","","7","","25.0","","99.59","","","","","","Clear"
"1979-07-30 01:00","1979","07","30","01:00","16.2","","13.4","","83","","35","","6","","25.0","","99.59","","","","","","Clear"
"1979-07-30 02:00","1979","07","30","02:00","15.7","","13.4","","86","","35","","7","","25.0","","99.59","","","","","","Clear"
"1979-07-30 03:00","1979","07","30","03:00","14.3","","12.8","","91","","35","","9","","25.0","","99.59","","","","","","Clear"
"1979-07-30 04:00","1979","07","30","04:00","14.1","","12.3","","89","","35","","9","","25.0","","99.62","","","","","","Clear"
"1979-07-30 05:00","1979","07","30","05:00","13.8","","12.3","","91","","33","","4","","40.2","","99.56","","","","","","Mainly Clear"
"1979-07-30 06:00","1979","07","30","06:00","14.7","","12.8","","88","","31","","7","","40.2","","99.56","","","","","","Mainly Clear"
"1979-07-30 07:00","1979","07","30","07:00","17.9","","13.8","","77","","32","","4","","32.2","","99.56","","","","","","Mainly Clear"
"1979-07-30 08:00","1979","07","30","08:00","21.4","","14.3","","64","","18","","4","","32.2","","99.66","","25","","","","Mainly Clear"
"1979-07-30 09:00","1979","07","30","09:00","24.0","","14.7","","56","","17","","4","","24.1","","99.66","","28","","","","Mostly Cloudy"
"1979-07-30 10:00","1979","07","30","10:00","25.5","","14.4","","50","","15","","9","","24.1","","99.62","","29","","","","Mostly Cloudy"
"1979-07-30 11:00","1979","07","30","11:00","26.2","","13.1","","44","","15","","20","","32.2","","99.49","","29","","","","Cloudy"
"1979-07-30 12:00","1979","07","30","12:00","26.8","","13.6","","44","","18","","19","","32.2","","99.49","","30","","","","Mostly Cloudy"
"1979-07-30 13:00","1979","07","30","13:00","27.5","","11.8","","38","","15","","17","","40.2","","99.46","","30","","","","Mostly Cloudy"
"1979-07-30 14:00","1979","07","30","14:00","27.7","","10.6","","34","","15","","17","","40.2","","99.42","","29","","","","Mostly Cloudy"
"1979-07-30 15:00","1979","07","30","15:00","27.4","","13.9","","44","","15","","19","","32.2","","99.36","","31","","","","Mostly Cloudy"
"1979-07-30 16:00","1979","07","30","16:00","26.5","","12.5","","42","","18","","19","","32.2","","99.32","","29","","","","Mostly Cloudy"
"1979-07-30 17:00","1979","07","30","17:00","26.6","","13.3","","44","","13","","19","","32.2","","99.29","","30","","","","Mostly Cloudy"
"1979-07-30 18:00","1979","07","30","18:00","24.6","","14.2","","52","","13","","19","","32.2","","99.26","","28","","","","Mostly Cloudy"
"1979-07-30 19:00","1979","07","30","19:00","23.6","","15.9","","62","","12","","22","","32.2","","99.19","","28","","","","Mostly Cloudy"
"1979-07-30 20:00","1979","07","30","20:00","22.9","","18.0","","74","","13","","15","","19.3","","99.19","","29","","","","Mostly Cloudy"
"1979-07-30 21:00","1979","07","30","21:00","22.5","","18.7","","79","","15","","11","","19.3","","99.19","","29","","","","Mostly Cloudy"
"1979-07-30 22:00","1979","07","30","22:00","22.3","","18.4","","79","","16","","9","","19.3","","99.16","","29","","","","Mostly Cloudy"
"1979-07-30 23:00","1979","07","30","23:00","22.9","","16.0","","65","","16","","11","","19.3","","99.12","","28","","","","Mostly Cloudy"
"1979-07-31 00:00","1979","07","31","00:00","21.2","","15.8","","71","","31","","15","","19.3","","99.16","","26","","","","Rain Showers"
"1979-07-31 01:00","1979","07","31","01:00","21.0","","16.1","","74","","18","","2","","19.3","","99.06","","26","","","","Cloudy"
"1979-07-31 02:00","1979","07","31","02:00","21.0","","17.1","","78","","19","","6","","19.3","","99.06","","26","","","","Rain Showers"
"1979-07-31 03:00","1979","07","31","03:00","19.9","","19.4","","97","","30","","6","","4.8","","99.09","","","","","","Rain Showers,Fog"
"1979-07-31 04:00","1979","07","31","04:00","21.1","","19.8","","92","","20","","15","","8.0","","99.02","","29","","","","Rain Showers,Fog"
"1979-07-31 05:00","1979","07","31","05:00","21.3","","20.4","","95","","19","","9","","6.4","","99.06","","29","","","","Fog"
"1979-07-31 06:00","1979","07","31","06:00","21.2","","19.8","","91","","18","","9","","3.2","","99.06","","29","","","","Fog"
"1979-07-31 07:00","1979","07","31","07:00","21.5","","20.6","","95","","18","","2","","3.2","","99.09","","30","","","","Fog"
"1979-07-31 08:00","1979","07","31","08:00","23.0","","21.3","","90","","21","","6","","4.0","","99.09","","32","","","","Fog"
"1979-07-31 09:00","1979","07","31","09:00","24.9","","22.2","","85","","22","","13","","4.8","","99.06","","34","","","","Haze"
"1979-07-31 10:00","1979","07","31","10:00","26.5","","23.2","","82","","22","","19","","6.4","","99.06","","37","","","","Haze"
"1979-07-31 11:00","1979","07","31","11:00","26.5","","22.6","","79","","23","","19","","4.8","","99.06","","36","","","","Haze"
"1979-07-31 12:00","1979","07","31","12:00","26.7","","22.6","","78","","22","","15","","4.8","","99.09","","37","","","","Haze"
"1979-07-31 13:00","1979","07","31","13:00","27.4","","23.1","","78","","22","","19","","4.8","","99.06","","38","","","","Haze"
"1979-07-31 14:00","1979","07","31","14:00","28.0","","22.8","","73","","23","","17","","6.4","","99.06","","38","","","","Haze"
"1979-07-31 15:00","1979","07","31","15:00","28.2","","22.8","","72","","23","","11","","6.4","","99.02","","38","","","","Haze"
"1979-07-31 16:00","1979","07","31","16:00","23.4","","21.7","","90","","31","","20","","9.7","","99.09","","32","","","","Thunderstorms,Rain Showers,Haze"
"1979-07-31 17:00","1979","07","31","17:00","22.2","","19.5","","85","","24","","9","","16.1","","99.06","","29","","","","Rain Showers"
"1979-07-31 18:00","1979","07","31","18:00","24.0","","22.3","","90","","29","","11","","24.1","","99.02","","34","","","","Mostly Cloudy"
"1979-07-31 19:00","1979","07","31","19:00","24.8","","23.1","","90","","27","","9","","16.1","","99.09","","35","","","","Mostly Cloudy"
"1979-07-31 20:00","1979","07","31","20:00","22.8","","21.0","","90","","36","","15","","4.8","","99.19","","31","","","","Haze"
"1979-07-31 21:00","1979","07","31","21:00","21.4","","20.1","","92","","34","","11","","9.7","","99.26","","29","","","","Fog"
"1979-07-31 22:00","1979","07","31","22:00","21.0","","19.2","","90","","35","","9","","12.9","","99.26","","28","","","","Mostly Cloudy"
"1979-07-31 23:00","1979","07","31","23:00","20.5","","18.7","","90","","33","","7","","16.1","","99.29","","27","","","","Mostly Cloudy"
