"Station Name","TORONTO LESTER B. PEARSON INT'L A"
"Province","ONTARIO"
"Latitude","43.68"
"Longitude","-79.63"
"Elevation","173.40"
"Climate Identifier","6158733"
"WMO Identifier","71624"
"TC Identifier","YYZ"
"All times are specified in Local Standard Time (LST). Add 1 hour to adjust for Daylight Saving Time where and when it is observed."

"Legend"
"E","Estimated"
"M","Missing"
"NA","Not Available"

"Date/Time","Year","Month","Day","Time","Temp (°C)","Temp Flag","Dew Point Temp (°C)","Dew Point Temp Flag","Rel Hum (%)","Rel Hum Flag","Wind Dir (10s deg)","Wind Dir Flag","Wind Spd (km/h)","Wind Spd Flag","Visibility (km)","Visibility Flag","Stn Press (kPa)","Stn Press Flag","Hmdx","Hmdx Flag","Wind Chill","Wind Chill Flag","Weather"
"2004-09-01 00:00","2004","09","01","00:00","15.9","","12.8","","82","","28","","13","","24.1","","100.15","","","","","","Mainly Clear"
"2004-09-01 01:00","2004","09","01","01:00","15.7","","12.6","","82","","29","","13","","24.1","","100.16","","","","","","Clear"
"2004-09-01 02:00","2004","09","01","02:00","14.6","","11.8","","83","","28","","13","","24.1","","100.18","","","","","","Clear"
"2004-09-01 03:00","2004","09","01","03:00","14.5","","11.7","","83","","29","","13","","24.1","","100.16","","","","","","Clear"
"2004-09-01 04:00","2004","09","01","04:00","14.0","","11.9","","87","","28","","15","","24.1","","100.17","","","","","","Clear"
"2004-09-01 05:00","2004","09","01","05:00","14.3","","11.8","","85","","29","","17","","24.1","","100.21","","","","","","Mainly Clear"
"2004-09-01 06:00","2004","09","01","06:00","15.2","","12.1","","82","","30","","13","","24.1","","100.26","","","","","","Mostly Cloudy"
"2004-09-01 07:00","2004","09","01","07:00","15.2","","11.8","","80","","30","","15","","24.1","","100.31","","","","","","Mainly Clear"
"2004-09-01 08:00","2004","09","01","08:00","17.0","","12.7","","76","","31","","13","","24.1","","100.31","","","","","","Clear"
"2004-09-01 09:00","2004","09","01","09:00","19.0","","13.8","","72","","31","","13","","24.1","","100.35","","","","","","Clear"
"2004-09-01 10:00","2004","09","01","10:00","20.6","","13.9","","65","","32","","15","","24.1","","100.36","","","","","","Mainly Clear"
"2004-09-01 11:00","2004","09","01","11:00","21.2","","13.8","","63","","34","","20","","24.1","","100.35","","","","","","Mostly Cloudy"
"2004-09-01 12:00","2004","09","01","12:00","21.9","","13.2","","58","","2","","20","","24.1","","100.34","","25","","","","Mainly Clear"
"2004-09-01 13:00","2004","09","01","13:00","22.3","","12.8","","55","","2","","13","","24.1","","100.35","","25","","","","Mainly Clear"
"2004-09-01 14:00","2004","09","01","14:00","22.9","","13.0","","54","","36","","19","","24.1","","100.33","","26","","","","Mainly Clear"
"2004-09-01 15:00","2004","09","01","15:00","22.6","","12.8","","54","","1","","24","","24.1","","100.29","","25","","","","Mainly Clear"
"2004-09-01 16:00","2004","09","01","16:00","22.3","","12.9","","55","","1","","19","","24.1","","100.29","","25","","","","Clear"
"2004-09-01 17:00","2004","09","01","17:00","20.9","","12.1","","57","","35","","24","","24.1","","100.29","","","","","","Mostly Cloudy"
"2004-09-01 18:00","2004","09","01","18:00","19.9","","11.5","","58","","1","","17","","24.1","","100.29","","","","","","Mainly Clear"
"2004-09-01 19:00","2004","09","01","19:00","18.8","","10.6","","59","","2","","15","","24.1","","100.32","","","","","","Mainly Clear"
"2004-09-01 20:00","2004","09","01","20:00","17.5","","10.7","","64","","35","","15","","24.1","","100.39","","","","","","Mainly Clear"
"2004-09-01 21:00","2004","09","01","21:00","16.5","","10.9","","69","","36","","11","","24.1","","100.41","","","","","","Clear"
"2004-09-01 22:00","2004","09","01","22:00","16.0","","10.9","","72","","36","","15","","24.1","","100.46","","","","","","Mainly Clear"
"2004-09-01 23:00","2004","09","01","23:00","15.6","","10.8","","73","","36","","13","","24.1","","100.49","","","","","","Mainly Clear"
"2004-09-02 00:00","2004","09","02","00:00","15.7","","11.1","","74","","2","","9","","24.1","","100.50","","","","","","Mostly Cloudy"
"2004-09-02 01:00","2004","09","02","01:00","15.8","","11.2","","74","","1","","13","","24.1","","100.47","","","","","","Mostly Cloudy"
"2004-09-02 02:00","2004","09","02","02:00","14.4","","11.2","","81","","2","","7","","24.1","","100.47","","","","","","Mainly Clear"
"2004-09-02 03:00","2004","09","02","03:00","14.4","","11.7","","84","","2","","4","","24.1","","100.46","","","","","","Mostly Cloudy"
"2004-09-02 04:00","2004","09","02","04:00","14.3","","11.7","","84","","36","","4","","24.1","","100.48","","","","","","Mostly Cloudy"
"2004-09-02 05:00","2004","09","02","05:00","14.5","","11.7","","83","","3","","6","","24.1","","100.46","","","","","","Mostly Cloudy"
"2004-09-02 06:00","2004","09","02","06:00","14.3","","12.0","","86","","4","","6","","24.1","","100.49","","","","","","Mostly Cloudy"
"2004-09-02 07:00","2004","09","02","07:00","16.3","","13.9","","86","","4","","6","","24.1","","100.51","","","","","","Mostly Cloudy"
"2004-09-02 08:00","2004","09","02","08:00","17.9","","15.0","","83","","8","","7","","24.1","","100.55","","","","","","Mostly Cloudy"
"2004-09-02 09:00","2004","09","02","09:00","19.9","","14.9","","73","","14","","19","","24.1","","100.57","","","","","","Mostly Cloudy"
"2004-09-02 10:00","2004","09","02","10:00","20.2","","14.9","","72","","13","","17","","24.1","","100.57","","","","","","Mostly Cloudy"
"2004-09-02 11:00","2004","09","02","11:00","20.5","","15.0","","71","","13","","15","","24.1","","100.54","","","","","","Mostly Cloudy"
"2004-09-02 12:00","2004","09","02","12:00","20.9","","15.3","","70","","15","","13","","24.1","","100.49","","25","","","","Mainly Clear"
"2004-09-02 13:00","2004","09","02","13:00","21.7","","15.1","","66","","16","","13","","24.1","","100.49","","26","","","","Mainly Clear"
"2004-09-02 14:00","2004","09","02","14:00","22.1","","14.6","","62","","15","","9","","24.1","","100.45","","26","","","","Clear"
"2004-09-02 15:00","2004","09","02","15:00","21.9","","14.6","","63","","15","","6","","24.1","","100.40","","26","","","","Clear"
"2004-09-02 16:00","2004","09","02","16:00","22.6","","15.0","","62","","16","","11","","24.1","","100.34","","27","","","","Clear"
"2004-09-02 17:00","2004","09","02","17:00","21.7","","15.5","","68","","14","","13","","24.1","","100.29","","26","","","","Clear"
"2004-09-02 18:00","2004","09","02","18:00","20.1","","15.0","","72","","13","","13","","24.1","","100.26","","","","","","Clear"
"2004-09-02 19:00","2004","09","02","19:00","18.8","","15.2","","80","","14","","7","","24.1","","100.26","","","","","","Clear"
"2004-09-02 20:00","2004","09","02","20:00","18.6","","15.5","","82","","10","","9","","24.1","","100.28","","","","","","Clear"
"2004-09-02 21:00","2004","09","02","21:00","18.3","","15.6","","84","","8","","7","","24.1","","100.27","","","","","","Clear"
"2004-09-02 22:00","2004","09","02","22:00","17.9","","15.7","","87","","12","","6","","24.1","","100.28","","","","","","Clear"
"2004-09-02 23:00","2004","09","02","23:00","18.0","","16.2","","89","","10","","4","","24.1","","100.27","","","","","","Clear"
"2004-09-03 00:00","2004","09","03","00:00","17.8","","16.4","","92","","6","","6","","24.1","","100.23","","","","","","Clear"
"2004-09-03 01:00","2004","09","03","01:00","16.7","","15.3","","91","","1","","6","","24.1","","100.21","","","","","","Clear"
"2004-09-03 02:00","2004","09","03","02:00","16.4","","15.2","","93","","1","","4","","24.1","","100.18","","","","","","Clear"
"2004-09-03 03:00","2004","09","03","03:00","15.5","","14.6","","94","","1","","4","","24.1","","100.17","","","","","","Clear"
"2004-09-03 04:00","2004","09","03","04:00","15.1","","14.3","","95","","","","0","","24.1","","100.17","","","","","","Mainly Clear"
"2004-09-03 05:00","2004","09","03","05:00","16.0","","14.9","","93","","31","","6","","16.1","","100.14","","","","","","Mostly Cloudy"
"2004-09-03 06:00","2004","09","03","06:00","15.8","","15.5","","98","","28","","4","","0.2","","100.15","","","","","","Fog"
"2004-09-03 07:00","2004","09","03","07:00","16.4","","16.4","","100","","27","","4","","0.4","","100.15","","","","","","Fog"
"2004-09-03 08:00","2004","09","03","08:00","17.1","","17.1","","100","","28","","4","","1.6","","100.15","","","","","","Fog"
"2004-09-03 09:00","2004","09","03","09:00","19.9","","19.2","","96","","22","","9","","11.3","","100.13","","","","","","Mainly Clear"
"2004-09-03 10:00","2004","09","03","10:00","23.3","","18.8","","76","","24","","13","","16.1","","100.09","","30","","","","Mostly Cloudy"
"2004-09-03 11:00","2004","09","03","11:00","25.8","","19.1","","67","","23","","15","","16.1","","100.03","","33","","","","Mostly Cloudy"
"2004-09-03 12:00","2004","09","03","12:00","27.5","","18.6","","58","","24","","13","","19.3","","99.99","","34","","","","Mostly Cloudy"
"2004-09-03 13:00","2004","09","03","13:00","28.4","","19.6","","59","","16","","13","","19.3","","99.99","","36","","","","Mostly Cloudy"
"2004-09-03 14:00","2004","09","03","14:00","27.4","","18.7","","59","","15","","11","","19.3","","99.94","","34","","","","Mostly Cloudy"
"2004-09-03 15:00","2004","09","03","15:00","28.2","","19.7","","60","","19","","15","","19.3","","99.88","","36","","","","Mostly Cloudy"
"2004-09-03 16:00","2004","09","03","16:00","26.5","","18.9","","63","","15","","15","","19.3","","99.88","","33","","","","Mostly Cloudy"
"2004-09-03 17:00","2004","09","03","17:00","26.3","","17.6","","59","","17","","17","","16.1","","99.87","","32","","","","Mainly Clear"
"2004-09-03 18:00","2004","09","03","18:00","26.1","","17.9","","61","","19","","19","","16.1","","99.81","","32","","","","Mainly Clear"
"2004-09-03 19:00","2004","09","03","19:00","25.0","","18.0","","65","","22","","19","","14.5","","99.81","","31","","","","Mainly Clear"
"2004-09-03 20:00","2004","09","03","20:00","24.1","","17.9","","68","","23","","17","","16.1","","99.82","","30","","","","Mostly Cloudy"
"2004-09-03 21:00","2004","09","03","21:00","22.2","","18.0","","77","","26","","11","","16.1","","99.91","","28","","","","Mostly Cloudy"
"2004-09-03 22:00","2004","09","03","22:00","21.3","","17.8","","80","","27","","7","","16.1","","99.95","","27","","","","Mostly Cloudy"
"2004-09-03 23:00","2004","09","03","23:00","20.7","","17.2","","80","","26","","9","","12.9","","99.98","","26","","","","Mainly Clear"
"2004-09-04 00:00","2004","09","04","00:00","20.5","","17.2","","81","","28","","6","","12.9","","99.98","","26","","","","Mainly Clear"
"2004-09-04 01:00","2004","09","04","01:00","20.6","","17.3","","81","","29","","6","","12.9","","99.97","","26","","","","Mainly Clear"
"2004-09-04 02:00","2004","09","04","02:00","19.6","","17.2","","86","","","","0","","9.7","","99.96","","","","","","Haze"
"2004-09-04 03:00","2004","09","04","03:00","19.7","","17.3","","86","","","","0","","8.0","","99.96","","","","","","Haze"
"2004-09-04 04:00","2004","09","04","04:00","19.6","","17.2","","86","","","","0","","6.4","","99.98","","","","","","Haze"
"2004-09-04 05:00","2004","09","04","05:00","18.6","","16.9","","90","","","","0","","6.4","","100.00","","","","","","Fog"
"2004-09-04 06:00","2004","09","04","06:00","18.9","","17.1","","89","","5","","4","","3.6","","100.06","","","","","","Fog"
"2004-09-04 07:00","2004","09","04","07:00","18.7","","17.0","","90","","26","","4","","4.8","","100.10","","","","","","Fog"
"2004-09-04 08:00","2004","09","04","08:00","21.0","","17.4","","80","","2","","6","","6.4","","100.13","","27","","","","Haze"
"2004-09-04 09:00","2004","09","04","09:00","23.2","","18.0","","73","","","","0","","6.4","","100.12","","29","","","","Haze"
"2004-09-04 10:00","2004","09","04","10:00","25.2","","19.1","","69","","15","","6","","8.0","","100.11","","32","","","","Haze"
"2004-09-04 11:00","2004","09","04","11:00","26.3","","19.3","","65","","11","","9","","9.7","","100.13","","33","","","","Haze"
"2004-09-04 12:00","2004","09","04","12:00","26.8","","18.7","","61","","15","","9","","11.3","","100.13","","33","","","","Mainly Clear"
"2004-09-04 13:00","2004","09","04","13:00","27.2","","18.9","","61","","16","","13","","11.3","","100.09","","34","","","","Mainly Clear"
"2004-09-04 14:00","2004","09","04","14:00","27.2","","18.2","","58","","14","","17","","11.3","","100.08","","33","","","","Clear"
"2004-09-04 15:00","2004","09","04","15:00","27.2","","17.6","","56","","15","","17","","12.9","","100.07","","33","","","","Mainly Clear"
"2004-09-04 16:00","2004","09","04","16:00","27.1","","17.0","","54","","16","","13","","14.5","","100.05","","32","","","","Mainly Clear"
"2004-09-04 17:00","2004","09","04","17:00","25.8","","17.7","","61","","14","","11","","12.9","","100.09","","32","","","","Mainly Clear"
"2004-09-04 18:00","2004","09","04","18:00","23.2","","18.4","","74","","13","","13","","11.3","","100.08","","30","","","","Mainly Clear"
"2004-09-04 19:00","2004","09","04","19:00","22.8","","18.1","","75","","10","","11","","8.0","","100.08","","29","","","","Haze"
"2004-09-04 20:00","2004","09","04","20:00","22.1","","17.8","","77","","10","","11","","9.7","","100.14","","28","","","","Haze"
"2004-09-04 21:00","2004","09","04","21:00","21.4","","17.3","","77","","9","","7","","9.7","","100.16","","27","","","","Haze"
"2004-09-04 22:00","2004","09","04","22:00","21.2","","17.6","","80","","10","","7","","11.3","","100.16","","27","","","","Clear"
"2004-09-04 23:00","2004","09","04","23:00","21.0","","17.7","","81","","10","","13","","12.9","","100.19","","27","","","","Clear"
"2004-09-05 00:00","2004","09","05","00:00","20.7","","17.6","","82","","11","","13","","16.1","","100.19","","26","","","","Clear"
"2004-09-05 01:00","2004","09","05","01:00","20.2","","18.3","","89","","11","","15","","16.1","","100.16","","26","","","","Mainly Clear"
"2004-09-05 02:00","2004","09","05","02:00","20.1","","18.4","","90","","11","","13","","16.1","","100.16","","26","","","","Mainly Clear"
"2004-09-05 03:00","2004","09","05","03:00","20.0","","18.4","","91","","9","","11","","16.1","","100.16","","26","","","","Clear"
"2004-09-05 04:00","2004","09","05","04:00","19.8","","18.5","","92","","9","","13","","16.1","","100.18","","","","","","Clear"
"2004-09-05 05:00","2004","09","05","05:00","19.5","","18.3","","93","","8","","11","","16.1","","100.20","","","","","","Clear"
"2004-09-05 06:00","2004","09","05","06:00","19.2","","18.1","","93","","9","","9","","12.9","","100.26","","","","","","Mainly Clear"
"2004-09-05 07:00","2004","09","05","07:00","19.6","","18.5","","93","","9","","13","","14.5","","100.31","","","","","","Mostly Cloudy"
"2004-09-05 08:00","2004","09","05","08:00","19.6","","18.2","","92","","10","","15","","11.3","","100.34","","","","","","Cloudy"
"2004-09-05 09:00","2004","09","05","09:00","19.9","","18.2","","90","","11","","19","","11.3","","100.35","","","","","","Cloudy"
"2004-09-05 10:00","2004","09","05","10:00","20.9","","18.8","","88","","11","","17","","9.7","","100.33","","28","","","","Haze"
"2004-09-05 11:00","2004","09","05","11:00","22.0","","18.9","","83","","10","","22","","11.3","","100.28","","29","","","","Mostly Cloudy"
"2004-09-05 12:00","2004","09","05","12:00","22.7","","19.0","","80","","11","","17","","11.3","","100.27","","29","","","","Mostly Cloudy"
"2004-09-05 13:00","2004","09","05","13:00","23.7","","19.4","","77","","9","","15","","12.9","","100.24","","31","","","","Clear"
"2004-09-05 14:00","2004","09","05","14:00","25.9","","20.1","","70","","14","","15","","12.9","","100.14","","34","","","","Clear"
"2004-09-05 15:00","2004","09","05","15:00","25.5","","19.9","","71","","11","","15","","14.5","","100.13","","33","","","","Mainly Clear"
"2004-09-05 16:00","2004","09","05","16:00","25.1","","19.7","","72","","10","","17","","14.5","","100.10","","32","","","","Mainly Clear"
"2004-09-05 17:00","2004","09","05","17:00","24.8","","19.9","","74","","10","","15","","14.5","","100.08","","32","","","","Mainly Clear"
"2004-09-05 18:00","2004","09","05","18:00","23.5","","19.4","","78","","11","","11","","16.1","","100.07","","31","","","","Mainly Clear"
"2004-09-05 19:00","2004","09","05","19:00","22.6","","19.2","","81","","10","","9","","9.7","","100.09","","30","","","","Haze"
"2004-09-05 20:00","2004","09","05","20:00","22.2","","19.6","","85","","9","","9","","9.7","","100.08","","29","","","","Haze"
"2004-09-05 21:00","2004","09","05","21:00","21.6","","19.7","","89","","12","","6","","8.0","","100.06","","29","","","","Fog"
"2004-09-05 22:00","2004","09","05","22:00","21.7","","19.9","","90","","13","","6","","8.0","","100.07","","29","","","","Fog"
"2004-09-05 23:00","2004","09","05","23:00","21.3","","19.5","","89","","15","","9","","8.0","","100.06","","28","","","","Fog"
"2004-09-06 00:00","2004","09","06","00:00","20.9","","19.2","","90","","18","","7","","6.4","","100.07","","28","","","","Fog"
"2004-09-06 01:00","2004","09","06","01:00","20.6","","18.6","","88","","16","","11","","6.4","","100.05","","27","","","","Fog"
"2004-09-06 02:00","2004","09","06","02:00","20.1","","18.4","","90","","16","","11","","6.4","","100.02","","26","","","","Fog"
"2004-09-06 03:00","2004","09","06","03:00","19.9","","17.9","","88","","18","","9","","9.7","","100.01","","","","","","Fog"
"2004-09-06 04:00","2004","09","06","04:00","19.8","","17.4","","86","","18","","11","","11.3","","100.00","","","","","","Mainly Clear"
"2004-09-06 05:00","2004","09","06","05:00","19.9","","17.3","","85","","17","","13","","12.9","","100.01","","","","","","Mostly Cloudy"
"2004-09-06 06:00","2004","09","06","06:00","19.6","","17.6","","88","","16","","11","","9.7","","100.03","","","","","","Fog"
"2004-09-06 07:00","2004","09","06","07:00","19.9","","17.9","","88","","15","","11","","9.7","","100.03","","","","","","Fog"
"2004-09-06 08:00","2004","09","06","08:00","20.7","","18.0","","85","","17","","20","","12.9","","100.01","","27","","","","Mostly Cloudy"
"2004-09-06 09:00","2004","09","06","09:00","21.3","","17.5","","79","","16","","15","","14.5","","99.97","","27","","","","Mostly Cloudy"
"2004-09-06 10:00","2004","09","06","10:00","22.0","","17.4","","75","","17","","22","","16.1","","99.92","","28","","","","Cloudy"
"2004-09-06 11:00","2004","09","06","11:00","22.3","","17.3","","73","","16","","17","","16.1","","99.87","","28","","","","Cloudy"
"2004-09-06 12:00","2004","09","06","12:00","23.2","","17.4","","70","","16","","20","","19.3","","99.80","","29","","","","Mostly Cloudy"
"2004-09-06 13:00","2004","09","06","13:00","24.7","","17.6","","65","","15","","26","","19.3","","99.70","","30","","","","Mostly Cloudy"
"2004-09-06 14:00","2004","09","06","14:00","24.2","","17.4","","66","","17","","20","","24.1","","99.66","","30","","","","Mostly Cloudy"
"2004-09-06 15:00","2004","09","06","15:00","24.1","","17.7","","67","","14","","20","","24.1","","99.58","","30","","","","Mainly Clear"
"2004-09-06 16:00","2004","09","06","16:00","23.8","","17.6","","68","","14","","20","","24.1","","99.50","","30","","","","Mainly Clear"
"2004-09-06 17:00","2004","09","06","17:00","23.7","","17.7","","69","","13","","17","","24.1","","99.49","","29","","","","Mainly Clear"
"2004-09-06 18:00","2004","09","06","18:00","22.7","","17.6","","73","","12","","15","","24.1","","99.46","","28","","","","Mainly Clear"
"2004-09-06 19:00","2004","09","06","19:00","21.8","","18.0","","79","","13","","7","","24.1","","99.45","","28","","","","Mainly Clear"
"2004-09-06 20:00","2004","09","06","20:00","23.2","","17.8","","72","","18","","19","","24.1","","99.42","","29","","","","Clear"
"2004-09-06 21:00","2004","09","06","21:00","22.2","","17.4","","74","","18","","26","","24.1","","99.39","","28","","","","Clear"
"2004-09-06 22:00","2004","09","06","22:00","21.7","","17.3","","76","","19","","20","","24.1","","99.39","","27","","","","Clear"
"2004-09-06 23:00","2004","09","06","23:00","21.3","","17.4","","78","","20","","20","","19.3","","99.37","","27","","","","Clear"
"2004-09-07 00:00","2004","09","07","00:00","20.9","","17.6","","81","","20","","17","","19.3","","99.31","","27","","","","Clear"
"2004-09-07 01:00","2004","09","07","01:00","20.9","","17.8","","82","","19","","13","","19.3","","99.26","","27","","","","Clear"
"2004-09-07 02:00","2004","09","07","02:00","20.8","","17.9","","83","","19","","13","","19.3","","99.23","","27","","","","Clear"
"2004-09-07 03:00","2004","09","07","03:00","20.9","","18.0","","83","","19","","11","","19.3","","99.19","","27","","","","Clear"
"2004-09-07 04:00","2004","09","07","04:00","21.0","","18.2","","84","","21","","17","","24.1","","99.17","","27","","","","Mostly Cloudy"
"2004-09-07 05:00","2004","09","07","05:00","21.5","","18.4","","83","","21","","22","","24.1","","99.20","","28","","","","Cloudy"
"2004-09-07 06:00","2004","09","07","06:00","21.7","","18.6","","83","","22","","19","","19.3","","99.24","","28","","","","Cloudy"
"2004-09-07 07:00","2004","09","07","07:00","21.9","","18.8","","83","","23","","19","","19.3","","99.27","","29","","","","Cloudy"
"2004-09-07 08:00","2004","09","07","08:00","20.0","","18.7","","92","","27","","13","","16.1","","99.32","","27","","","","Rain Showers"
"2004-09-07 09:00","2004","09","07","09:00","20.5","","19.0","","91","","27","","15","","16.1","","99.35","","27","","","","Rain Showers"
"2004-09-07 10:00","2004","09","07","10:00","20.2","","19.0","","93","","28","","13","","9.7","","99.39","","27","","","","Rain Showers,Fog"
"2004-09-07 11:00","2004","09","07","11:00","19.5","","18.4","","93","","29","","7","","16.1","","99.46","","","","","","Rain Showers"
"2004-09-07 12:00","2004","09","07","12:00","20.9","","19.3","","91","","27","","7","","24.1","","99.49","","28","","","","Cloudy"
"2004-09-07 13:00","2004","09","07","13:00","21.4","","18.3","","83","","1","","13","","24.1","","99.50","","28","","","","Mostly Cloudy"
"2004-09-07 14:00","2004","09","07","14:00","23.7","","16.5","","64","","29","","6","","24.1","","99.52","","29","","","","Mainly Clear"
"2004-09-07 15:00","2004","09","07","15:00","24.6","","15.7","","58","","34","","6","","24.1","","99.51","","29","","","","Mainly Clear"
"2004-09-07 16:00","2004","09","07","16:00","24.6","","15.3","","56","","2","","7","","24.1","","99.50","","29","","","","Mainly Clear"
"2004-09-07 17:00","2004","09","07","17:00","24.7","","14.4","","53","","35","","6","","24.1","","99.52","","28","","","","Mainly Clear"
"2004-09-07 18:00","2004","09","07","18:00","23.1","","15.5","","62","","4","","13","","24.1","","99.61","","27","","","","Mostly Cloudy"
"2004-09-07 19:00","2004","09","07","19:00","21.2","","16.1","","73","","1","","20","","24.1","","99.72","","26","","","","Mostly Cloudy"
"2004-09-07 20:00","2004","09","07","20:00","19.2","","12.8","","66","","1","","22","","24.1","","99.82","","","","","","Mostly Cloudy"
"2004-09-07 21:00","2004","09","07","21:00","18.2","","12.4","","69","","1","","20","","24.1","","99.88","","","","","","Mainly Clear"
"2004-09-07 22:00","2004","09","07","22:00","17.3","","12.6","","74","","1","","15","","24.1","","99.91","","","","","","Clear"
"2004-09-07 23:00","2004","09","07","23:00","16.7","","12.6","","77","","35","","17","","24.1","","99.91","","","","","","Mainly Clear"
"2004-09-08 00:00","2004","09","08","00:00","15.7","","12.4","","81","","36","","17","","24.1","","99.91","","","","","","Mainly Clear"
"2004-09-08 01:00","2004","09","08","01:00","15.2","","12.2","","82","","36","","15","","24.1","","99.94","","","","","","Mostly Cloudy"
"2004-09-08 02:00","2004","09","08","02:00","15.4","","12.4","","82","","36","","15","","24.1","","99.98","","","","","","Mostly Cloudy"
"2004-09-08 03:00","2004","09","08","03:00","14.5","","11.9","","84","","35","","13","","24.1","","99.97","","","","","","Mainly Clear"
"2004-09-08 04:00","2004","09","08","04:00","14.5","","12.2","","86","","36","","13","","24.1","","99.96","","","","","","Mostly Cloudy"
"2004-09-08 05:00","2004","09","08","05:00","14.2","","12.4","","89","","36","","17","","24.1","","99.96","","","","","","Mostly Cloudy"
"2004-09-08 06:00","2004","09","08","06:00","14.2","","12.4","","89","","36","","13","","24.1","","100.01","","","","","","Mostly Cloudy"
"2004-09-08 07:00","2004","09","08","07:00","15.3","","12.8","","85","","4","","9","","24.1","","100.04","","","","","","Mostly Cloudy"
"2004-09-08 08:00","2004","09","08","08:00","17.0","","12.0","","72","","5","","13","","24.1","","100.04","","","","","","Mostly Cloudy"
"2004-09-08 09:00","2004","09","08","09:00","18.3","","12.3","","68","","6","","17","","24.1","","100.04","","","","","","Mostly Cloudy"
"2004-09-08 10:00","2004","09","08","10:00","18.9","","13.1","","69","","6","","19","","24.1","","100.08","","","","","","Mostly Cloudy"
"2004-09-08 11:00","2004","09","08","11:00","19.6","","14.1","","71","","8","","19","","24.1","","100.06","","","","","","Cloudy"
"2004-09-08 12:00","2004","09","08","12:00","20.0","","15.0","","73","","9","","19","","24.1","","100.02","","","","","","Cloudy"
"2004-09-08 13:00","2004","09","08","13:00","20.4","","15.6","","74","","9","","15","","19.3","","99.95","","25","","","","Cloudy"
"2004-09-08 14:00","2004","09","08","14:00","20.8","","15.6","","72","","9","","19","","24.1","","99.89","","25","","","","Cloudy"
"2004-09-08 15:00","2004","09","08","15:00","20.9","","14.9","","69","","7","","20","","24.1","","99.86","","25","","","","Rain"
"2004-09-08 16:00","2004","09","08","16:00","18.5","","16.1","","86","","10","","11","","9.7","","99.86","","","","","","Rain"
"2004-09-08 17:00","2004","09","08","17:00","18.1","","15.3","","84","","5","","15","","9.7","","99.82","","","","","","Rain"
"2004-09-08 18:00","2004","09","08","18:00","19.0","","13.1","","69","","7","","22","","24.1","","99.78","","","","","","Cloudy"
"2004-09-08 19:00","2004","09","08","19:00","18.7","","13.0","","69","","8","","20","","24.1","","99.81","","","","","","Mostly Cloudy"
"2004-09-08 20:00","2004","09","08","20:00","18.5","","12.8","","69","","7","","22","","24.1","","99.76","","","","","","Cloudy"
"2004-09-08 21:00","2004","09","08","21:00","16.9","","13.3","","79","","7","","30","","6.4","","99.74","","","","","","Drizzle"
"2004-09-08 22:00","2004","09","08","22:00","16.3","","13.7","","85","","4","","22","","24.1","","99.65","","","","","","Cloudy"
"2004-09-08 23:00","2004","09","08","23:00","16.6","","13.2","","80","","6","","22","","24.1","","99.57","","","","","","Cloudy"
"2004-09-09 00:00","2004","09","09","00:00","15.4","","13.7","","90","","5","","22","","11.3","","99.47","","","","","","Rain"
"2004-09-09 01:00","2004","09","09","01:00","15.2","","14.2","","94","","4","","22","","14.5","","99.34","","","","","","Rain"
"2004-09-09 02:00","2004","09","09","02:00","15.2","","14.4","","95","","2","","26","","14.5","","99.20","","","","","","Rain"
"2004-09-09 03:00","2004","09","09","03:00","15.0","","14.3","","96","","2","","28","","19.3","","99.12","","","","","","Rain"
"2004-09-09 04:00","2004","09","09","04:00","15.2","","14.4","","95","","2","","30","","19.3","","99.03","","","","","","Rain"
"2004-09-09 05:00","2004","09","09","05:00","14.8","","14.0","","95","","1","","28","","19.3","","98.94","","","","","","Rain"
"2004-09-09 06:00","2004","09","09","06:00","14.3","","13.7","","96","","36","","32","","11.3","","98.89","","","","","","Rain"
"2004-09-09 07:00","2004","09","09","07:00","14.8","","14.1","","96","","36","","33","","9.7","","98.85","","","","","","Rain,Fog"
"2004-09-09 08:00","2004","09","09","08:00","15.3","","14.5","","95","","36","","28","","9.7","","98.86","","","","","","Moderate Rain,Fog"
"2004-09-09 09:00","2004","09","09","09:00","15.5","","14.7","","95","","34","","33","","19.3","","98.86","","","","","","Rain"
"2004-09-09 10:00","2004","09","09","10:00","15.7","","14.5","","93","","34","","37","","24.1","","98.94","","","","","","Rain Showers"
"2004-09-09 11:00","2004","09","09","11:00","16.7","","15.1","","90","","34","","33","","24.1","","98.97","","","","","","Rain Showers"
"2004-09-09 12:00","2004","09","09","12:00","18.4","","15.5","","83","","34","","46","","24.1","","99.01","","","","","","Mostly Cloudy"
"2004-09-09 13:00","2004","09","09","13:00","19.0","","15.3","","79","","33","","43","","24.1","","99.03","","","","","","Mostly Cloudy"
"2004-09-09 14:00","2004","09","09","14:00","19.5","","15.4","","77","","34","","33","","24.1","","99.06","","","","","","Mostly Cloudy"
"2004-09-09 15:00","2004","09","09","15:00","21.4","","16.2","","72","","34","","35","","24.1","","99.10","","26","","","","Mainly Clear"
"2004-09-09 16:00","2004","09","09","16:00","21.6","","15.5","","68","","35","","35","","24.1","","99.17","","26","","","","Mainly Clear"
"2004-09-09 17:00","2004","09","09","17:00","21.0","","15.6","","71","","33","","30","","24.1","","99.25","","25","","","","Mainly Clear"
"2004-09-09 18:00","2004","09","09","18:00","19.5","","15.1","","76","","33","","35","","24.1","","99.35","","","","","","Mainly Clear"
"2004-09-09 19:00","2004","09","09","19:00","18.1","","14.6","","80","","32","","24","","24.1","","99.41","","","","","","Mainly Clear"
"2004-09-09 20:00","2004","09","09","20:00","17.3","","14.5","","84","","31","","20","","24.1","","99.54","","","","","","Mainly Clear"
"2004-09-09 21:00","2004","09","09","21:00","16.9","","13.8","","82","","32","","30","","24.1","","99.56","","","","","","Mainly Clear"
"2004-09-09 22:00","2004","09","09","22:00","16.7","","13.7","","82","","32","","32","","24.1","","99.60","","","","","","Mainly Clear"
"2004-09-09 23:00","2004","09","09","23:00","16.4","","13.5","","83","","34","","20","","24.1","","99.66","","","","","","Clear"
"2004-09-10 00:00","2004","09","10","00:00","15.4","","13.4","","88","","32","","15","","24.1","","99.71","","","","","","Clear"
"2004-09-10 01:00","2004","09","10","01:00","15.6","","13.7","","88","","32","","20","","24.1","","99.73","","","","","","Clear"
"2004-09-10 02:00","2004","09","10","02:00","15.6","","13.5","","87","","32","","20","","24.1","","99.79","","","","","","Clear"
"2004-09-10 03:00","2004","09","10","03:00","14.7","","12.8","","88","","31","","17","","24.1","","99.86","","","","","","Clear"
"2004-09-10 04:00","2004","09","10","04:00","13.3","","12.0","","92","","30","","11","","24.1","","99.94","","","","","","Clear"
"2004-09-10 05:00","2004","09","10","05:00","12.5","","11.4","","93","","29","","9","","24.1","","100.00","","","","","","Clear"
"2004-09-10 06:00","2004","09","10","06:00","12.5","","11.5","","94","","30","","11","","19.3","","100.08","","","","","","Clear"
"2004-09-10 07:00","2004","09","10","07:00","13.5","","12.3","","92","","29","","7","","24.1","","100.16","","","","","","Clear"
"2004-09-10 08:00","2004","09","10","08:00","16.7","","13.8","","83","","34","","9","","24.1","","100.19","","","","","","Clear"
"2004-09-10 09:00","2004","09","10","09:00","17.5","","14.2","","81","","34","","13","","24.1","","100.25","","","","","","Mostly Cloudy"
"2004-09-10 10:00","2004","09","10","10:00","19.5","","14.6","","73","","1","","15","","24.1","","100.28","","","","","","Mainly Clear"
"2004-09-10 11:00","2004","09","10","11:00","20.5","","13.8","","65","","35","","19","","24.1","","100.30","","","","","","Mainly Clear"
"2004-09-10 12:00","2004","09","10","12:00","21.8","","13.2","","58","","33","","17","","24.1","","100.27","","25","","","","Mainly Clear"
"2004-09-10 13:00","2004","09","10","13:00","21.8","","12.9","","57","","29","","9","","24.1","","100.26","","25","","","","Mainly Clear"
"2004-09-10 14:00","2004","09","10","14:00","23.0","","13.2","","54","","33","","6","","24.1","","100.21","","26","","","","Clear"
"2004-09-10 15:00","2004","09","10","15:00","23.5","","13.1","","52","","29","","9","","24.1","","100.18","","26","","","","Clear"
"2004-09-10 16:00","2004","09","10","16:00","23.2","","12.3","","50","","5","","7","","24.1","","100.17","","26","","","","Clear"
"2004-09-10 17:00","2004","09","10","17:00","22.7","","12.4","","52","","36","","7","","24.1","","100.20","","25","","","","Clear"
"2004-09-10 18:00","2004","09","10","18:00","20.9","","11.4","","55","","2","","15","","24.1","","100.24","","","","","","Clear"
"2004-09-10 19:00","2004","09","10","19:00","19.6","","6.6","","43","","36","","17","","24.1","","100.26","","","","","","Clear"
"2004-09-10 20:00","2004","09","10","20:00","18.1","","4.2","","40","","35","","9","","24.1","","100.30","","","","","","Clear"
"2004-09-10 21:00","2004","09","10","21:00","16.9","","6.8","","51","","35","","11","","24.1","","100.33","","","","","","Clear"
"2004-09-10 22:00","2004","09","10","22:00","15.7","","5.7","","51","","35","","7","","24.1","","100.35","","","","","","Clear"
"2004-09-10 23:00","2004","09","10","23:00","14.9","","7.7","","62","","2","","6","","24.1","","100.37","","","","","","Clear"
"2004-09-11 00:00","2004","09","11","00:00","14.2","","7.4","","64","","36","","7","","24.1","","100.37","","","","","","Clear"
"2004-09-11 01:00","2004","09","11","01:00","13.2","","7.5","","68","","34","","7","","24.1","","100.36","","","","","","Clear"
"2004-09-11 02:00","2004","09","11","02:00","12.3","","7.9","","74","","36","","6","","24.1","","100.33","","","","","","Clear"
"2004-09-11 03:00","2004","09","11","03:00","12.6","","6.8","","68","","35","","11","","24.1","","100.34","","","","","","Clear"
"2004-09-11 04:00","2004","09","11","04:00","12.6","","6.9","","68","","","","0","","24.1","","100.32","","","","","","Clear"
"2004-09-11 05:00","2004","09","11","05:00","11.9","","7.1","","72","","33","","6","","24.1","","100.35","","","","","","Clear"
"2004-09-11 06:00","2004","09","11","06:00","12.2","","6.8","","70","","31","","7","","24.1","","100.39","","","","","","Clear"
"2004-09-11 07:00","2004","09","11","07:00","13.5","","8.1","","70","","3","","6","","24.1","","100.40","","","","","","Clear"
"2004-09-11 08:00","2004","09","11","08:00","16.0","","9.1","","64","","29","","4","","24.1","","100.41","","","","","","Clear"
"2004-09-11 09:00","2004","09","11","09:00","18.5","","11.9","","65","","26","","4","","24.1","","100.41","","","","","","Clear"
"2004-09-11 10:00","2004","09","11","10:00","21.1","","11.4","","54","","26","","11","","24.1","","100.39","","","","","","Clear"
"2004-09-11 11:00","2004","09","11","11:00","22.8","","13.1","","54","","20","","7","","24.1","","100.36","","26","","","","Clear"
"2004-09-11 12:00","2004","09","11","12:00","23.6","","14.0","","55","","16","","17","","24.1","","100.32","","27","","","","Clear"
"2004-09-11 13:00","2004","09","11","13:00","23.6","","14.3","","56","","13","","17","","24.1","","100.26","","27","","","","Clear"
"2004-09-11 14:00","2004","09","11","14:00","23.8","","14.1","","55","","14","","19","","24.1","","100.19","","27","","","","Mainly Clear"
"2004-09-11 15:00","2004","09","11","15:00","23.5","","15.2","","60","","14","","13","","24.1","","100.13","","28","","","","Mainly Clear"
"2004-09-11 16:00","2004","09","11","16:00","23.1","","15.2","","61","","16","","20","","24.1","","100.11","","27","","","","Clear"
"2004-09-11 17:00","2004","09","11","17:00","22.7","","14.7","","61","","17","","15","","24.1","","100.06","","26","","","","Mainly Clear"
"2004-09-11 18:00","2004","09","11","18:00","21.4","","13.8","","62","","16","","17","","24.1","","100.04","","25","","","","Mainly Clear"
"2004-09-11 19:00","2004","09","11","19:00","19.5","","15.5","","78","","17","","9","","24.1","","100.08","","","","","","Mostly Cloudy"
"2004-09-11 20:00","2004","09","11","20:00","18.6","","16.6","","88","","14","","9","","24.1","","100.06","","","","","","Mainly Clear"
"2004-09-11 21:00","2004","09","11","21:00","18.2","","16.7","","91","","15","","6","","24.1","","100.03","","","","","","Clear"
"2004-09-11 22:00","2004","09","11","22:00","18.2","","16.7","","91","","16","","9","","24.1","","100.00","","","","","","Clear"
"2004-09-11 23:00","2004","09","11","23:00","17.2","","15.9","","92","","23","","6","","24.1","","100.03","","","","","","Mostly Cloudy"
"2004-09-12 00:00","2004","09","12","00:00","15.5","","12.4","","82","","26","","6","","24.1","","100.05","","","","","","Mainly Clear"
"2004-09-12 01:00","2004","09","12","01:00","16.0","","11.7","","76","","","","0","","24.1","","100.01","","","","","","Clear"
"2004-09-12 02:00","2004","09","12","02:00","15.3","","10.9","","75","","28","","6","","24.1","","99.97","","","","","","Clear"
"2004-09-12 03:00","2004","09","12","03:00","14.0","","10.3","","78","","29","","9","","24.1","","99.93","","","","","","Clear"
"2004-09-12 04:00","2004","09","12","04:00","14.6","","9.7","","72","","27","","4","","24.1","","99.93","","","","","","Clear"
"2004-09-12 05:00","2004","09","12","05:00","13.7","","10.0","","78","","","","0","","24.1","","99.91","","","","","","Clear"
"2004-09-12 06:00","2004","09","12","06:00","14.5","","11.4","","82","","24","","4","","24.1","","99.96","","","","","","Mainly Clear"
"2004-09-12 07:00","2004","09","12","07:00","15.3","","12.6","","84","","21","","4","","24.1","","100.01","","","","","","Mainly Clear"
"2004-09-12 08:00","2004","09","12","08:00","17.7","","14.8","","83","","24","","11","","19.3","","100.02","","","","","","Mostly Cloudy"
"2004-09-12 09:00","2004","09","12","09:00","20.3","","15.9","","76","","24","","13","","19.3","","100.04","","25","","","","Mostly Cloudy"
"2004-09-12 10:00","2004","09","12","10:00","22.3","","16.5","","70","","25","","7","","19.3","","100.03","","27","","","","Mostly Cloudy"
"2004-09-12 11:00","2004","09","12","11:00","24.4","","17.3","","65","","26","","4","","19.3","","100.02","","30","","","","Mostly Cloudy"
"2004-09-12 12:00","2004","09","12","12:00","25.4","","18.8","","67","","23","","6","","19.3","","99.99","","32","","","","Mostly Cloudy"
"2004-09-12 13:00","2004","09","12","13:00","26.0","","17.1","","58","","25","","4","","19.3","","99.96","","31","","","","Mostly Cloudy"
"2004-09-12 14:00","2004","09","12","14:00","27.2","","16.7","","53","","27","","20","","24.1","","99.90","","32","","","","Mostly Cloudy"
"2004-09-12 15:00","2004","09","12","15:00","27.9","","17.1","","52","","27","","22","","24.1","","99.84","","33","","","","Mostly Cloudy"
"2004-09-12 16:00","2004","09","12","16:00","27.4","","16.7","","52","","28","","19","","24.1","","99.81","","32","","","","Mainly Clear"
"2004-09-12 17:00","2004","09","12","17:00","26.8","","17.0","","55","","27","","22","","19.3","","99.82","","32","","","","Mainly Clear"
"2004-09-12 18:00","2004","09","12","18:00","24.5","","18.1","","68","","1","","17","","19.3","","99.88","","31","","","","Mainly Clear"
"2004-09-12 19:00","2004","09","12","19:00","23.2","","18.7","","76","","2","","15","","14.5","","99.92","","30","","","","Mainly Clear"
"2004-09-12 20:00","2004","09","12","20:00","22.3","","18.0","","77","","36","","13","","14.5","","100.01","","28","","","","Mainly Clear"
"2004-09-12 21:00","2004","09","12","21:00","20.7","","16.8","","78","","36","","20","","16.1","","100.08","","26","","","","Mainly Clear"
"2004-09-12 22:00","2004","09","12","22:00","19.0","","15.3","","79","","34","","13","","19.3","","100.11","","","","","","Mainly Clear"
"2004-09-12 23:00","2004","09","12","23:00","17.8","","15.0","","84","","35","","11","","19.3","","100.13","","","","","","Clear"
"2004-09-13 00:00","2004","09","13","00:00","17.8","","14.5","","81","","36","","11","","24.1","","100.17","","","","","","Mostly Cloudy"
"2004-09-13 01:00","2004","09","13","01:00","16.9","","14.2","","84","","36","","15","","24.1","","100.20","","","","","","Clear"
"2004-09-13 02:00","2004","09","13","02:00","16.4","","14.1","","86","","36","","15","","24.1","","100.23","","","","","","Mainly Clear"
"2004-09-13 03:00","2004","09","13","03:00","15.9","","14.0","","88","","36","","9","","24.1","","100.25","","","","","","Mainly Clear"
"2004-09-13 04:00","2004","09","13","04:00","15.1","","13.7","","91","","1","","4","","24.1","","100.27","","","","","","Mainly Clear"
"2004-09-13 05:00","2004","09","13","05:00","15.0","","13.5","","91","","34","","4","","24.1","","100.30","","","","","","Mostly Cloudy"
"2004-09-13 06:00","2004","09","13","06:00","15.2","","13.6","","90","","3","","4","","14.5","","100.35","","","","","","Mostly Cloudy"
"2004-09-13 07:00","2004","09","13","07:00","16.0","","14.3","","90","","5","","6","","16.1","","100.41","","","","","","Mostly Cloudy"
"2004-09-13 08:00","2004","09","13","08:00","18.3","","15.4","","83","","10","","15","","16.1","","100.42","","","","","","Mainly Clear"
"2004-09-13 09:00","2004","09","13","09:00","20.0","","15.5","","75","","13","","13","","19.3","","100.44","","","","","","Mainly Clear"
"2004-09-13 10:00","2004","09","13","10:00","20.0","","15.8","","77","","14","","17","","19.3","","100.46","","","","","","Mainly Clear"
"2004-09-13 11:00","2004","09","13","11:00","20.2","","15.9","","76","","14","","17","","24.1","","100.45","","25","","","","Mainly Clear"
"2004-09-13 12:00","2004","09","13","12:00","19.9","","16.0","","78","","15","","13","","24.1","","100.44","","","","","","Mainly Clear"
"2004-09-13 13:00","2004","09","13","13:00","20.2","","15.6","","75","","14","","17","","24.1","","100.41","","25","","","","Mainly Clear"
"2004-09-13 14:00","2004","09","13","14:00","21.2","","16.2","","73","","12","","13","","24.1","","100.35","","26","","","","Clear"
"2004-09-13 15:00","2004","09","13","15:00","21.1","","15.1","","69","","14","","15","","24.1","","100.30","","25","","","","Mainly Clear"
"2004-09-13 16:00","2004","09","13","16:00","21.2","","14.8","","67","","14","","15","","24.1","","100.31","","25","","","","Mainly Clear"
"2004-09-13 17:00","2004","09","13","17:00","20.5","","15.2","","72","","10","","19","","24.1","","100.30","","25","","","","Mainly Clear"
"2004-09-13 18:00","2004","09","13","18:00","19.3","","13.9","","71","","9","","11","","24.1","","100.31","","","","","","Mainly Clear"
"2004-09-13 19:00","2004","09","13","19:00","18.0","","12.8","","72","","9","","11","","24.1","","100.32","","","","","","Mainly Clear"
"2004-09-13 20:00","2004","09","13","20:00","17.5","","12.8","","74","","11","","11","","24.1","","100.36","","","","","","Clear"
"2004-09-13 21:00","2004","09","13","21:00","17.2","","12.8","","75","","9","","6","","24.1","","100.36","","","","","","Clear"
"2004-09-13 22:00","2004","09","13","22:00","16.9","","12.8","","77","","12","","6","","24.1","","100.36","","","","","","Clear"
"2004-09-13 23:00","2004","09","13","23:00","16.7","","12.7","","77","","10","","6","","24.1","","100.32","","","","","","Mainly Clear"
"2004-09-14 00:00","2004","09","14","00:00","16.3","","12.8","","80","","11","","9","","24.1","","100.31","","","","","","Clear"
"2004-09-14 01:00","2004","09","14","01:00","16.3","","13.9","","86","","9","","9","","24.1","","100.29","","","","","","Clear"
"2004-09-14 02:00","2004","09","14","02:00","16.3","","13.6","","84","","11","","7","","24.1","","100.23","","","","","","Clear"
"2004-09-14 03:00","2004","09","14","03:00","16.4","","13.8","","85","","9","","6","","24.1","","100.20","","","","","","Clear"
"2004-09-14 04:00","2004","09","14","04:00","16.3","","14.0","","86","","10","","4","","24.1","","100.22","","","","","","Clear"
"2004-09-14 05:00","2004","09","14","05:00","15.8","","13.9","","88","","","","0","","24.1","","100.22","","","","","","Clear"
"2004-09-14 06:00","2004","09","14","06:00","15.9","","14.3","","90","","5","","7","","19.3","","100.24","","","","","","Mainly Clear"
"2004-09-14 07:00","2004","09","14","07:00","16.7","","15.2","","91","","6","","7","","19.3","","100.31","","","","","","Mainly Clear"
"2004-09-14 08:00","2004","09","14","08:00","18.8","","16.5","","86","","11","","9","","16.1","","100.30","","","","","","Mainly Clear"
"2004-09-14 09:00","2004","09","14","09:00","20.7","","17.4","","81","","12","","9","","16.1","","100.31","","26","","","","Mainly Clear"
"2004-09-14 10:00","2004","09","14","10:00","21.5","","17.5","","78","","14","","15","","16.1","","100.29","","27","","","","Mainly Clear"
"2004-09-14 11:00","2004","09","14","11:00","22.7","","18.2","","76","","15","","15","","16.1","","100.26","","29","","","","Mostly Cloudy"
"2004-09-14 12:00","2004","09","14","12:00","23.4","","18.1","","72","","17","","13","","16.1","","100.24","","29","","","","Mostly Cloudy"
"2004-09-14 13:00","2004","09","14","13:00","23.9","","18.6","","72","","16","","17","","16.1","","100.17","","30","","","","Mostly Cloudy"
"2004-09-14 14:00","2004","09","14","14:00","23.2","","18.0","","73","","13","","19","","14.5","","100.14","","29","","","","Mostly Cloudy"
"2004-09-14 15:00","2004","09","14","15:00","22.4","","17.6","","74","","15","","17","","12.9","","100.08","","28","","","","Mostly Cloudy"
"2004-09-14 16:00","2004","09","14","16:00","22.3","","17.9","","76","","12","","9","","12.9","","100.08","","28","","","","Mostly Cloudy"
"2004-09-14 17:00","2004","09","14","17:00","22.4","","17.9","","76","","12","","11","","16.1","","100.06","","28","","","","Mostly Cloudy"
"2004-09-14 18:00","2004","09","14","18:00","21.7","","17.8","","79","","13","","9","","14.5","","100.04","","28","","","","Mostly Cloudy"
"2004-09-14 19:00","2004","09","14","19:00","21.2","","17.8","","81","","13","","7","","14.5","","100.01","","27","","","","Mostly Cloudy"
"2004-09-14 20:00","2004","09","14","20:00","20.9","","18.1","","84","","13","","6","","9.7","","100.04","","27","","","","Haze"
"2004-09-14 21:00","2004","09","14","21:00","20.3","","18.3","","88","","15","","6","","9.7","","100.07","","27","","","","Fog"
"2004-09-14 22:00","2004","09","14","22:00","20.4","","18.6","","89","","15","","6","","8.0","","100.04","","27","","","","Fog"
"2004-09-14 23:00","2004","09","14","23:00","20.2","","18.4","","89","","16","","7","","6.4","","100.02","","27","","","","Fog"
"2004-09-15 00:00","2004","09","15","00:00","19.6","","18.2","","92","","17","","7","","6.4","","100.01","","","","","","Fog"
"2004-09-15 01:00","2004","09","15","01:00","19.6","","17.8","","89","","18","","6","","6.4","","100.00","","","","","","Fog"
"2004-09-15 02:00","2004","09","15","02:00","19.1","","17.8","","92","","18","","6","","6.4","","100.02","","","","","","Fog"
"2004-09-15 03:00","2004","09","15","03:00","18.9","","17.7","","93","","16","","6","","6.4","","100.03","","","","","","Fog"
"2004-09-15 04:00","2004","09","15","04:00","19.0","","17.8","","93","","16","","4","","4.8","","100.04","","","","","","Fog"
"2004-09-15 05:00","2004","09","15","05:00","18.7","","17.4","","92","","18","","7","","4.8","","100.04","","","","","","Fog"
"2004-09-15 06:00","2004","09","15","06:00","18.6","","17.2","","92","","18","","6","","4.0","","100.07","","","","","","Fog"
"2004-09-15 07:00","2004","09","15","07:00","19.0","","17.3","","90","","19","","7","","4.8","","100.06","","","","","","Fog"
"2004-09-15 08:00","2004","09","15","08:00","20.3","","17.6","","84","","18","","11","","6.4","","100.03","","26","","","","Haze"
"2004-09-15 09:00","2004","09","15","09:00","22.1","","18.1","","78","","18","","19","","8.0","","100.06","","28","","","","Haze"
"2004-09-15 10:00","2004","09","15","10:00","23.5","","17.9","","71","","20","","13","","11.3","","100.03","","29","","","","Clear"
"2004-09-15 11:00","2004","09","15","11:00","24.7","","18.1","","67","","21","","15","","11.3","","100.01","","31","","","","Mainly Clear"
"2004-09-15 12:00","2004","09","15","12:00","25.8","","18.0","","62","","19","","13","","12.9","","99.95","","32","","","","Mainly Clear"
"2004-09-15 13:00","2004","09","15","13:00","25.8","","18.0","","62","","16","","24","","11.3","","99.90","","32","","","","Mainly Clear"
"2004-09-15 14:00","2004","09","15","14:00","25.7","","17.5","","61","","16","","24","","11.3","","99.85","","31","","","","Mainly Clear"
"2004-09-15 15:00","2004","09","15","15:00","25.8","","17.1","","59","","17","","24","","12.9","","99.77","","31","","","","Mainly Clear"
"2004-09-15 16:00","2004","09","15","16:00","25.1","","17.0","","61","","17","","19","","14.5","","99.75","","30","","","","Mainly Clear"
"2004-09-15 17:00","2004","09","15","17:00","24.8","","16.7","","61","","18","","20","","12.9","","99.74","","30","","","","Mainly Clear"
"2004-09-15 18:00","2004","09","15","18:00","23.7","","16.7","","65","","17","","13","","16.1","","99.70","","29","","","","Clear"
"2004-09-15 19:00","2004","09","15","19:00","22.6","","16.6","","69","","17","","13","","19.3","","99.66","","28","","","","Clear"
"2004-09-15 20:00","2004","09","15","20:00","21.9","","17.2","","75","","16","","11","","24.1","","99.69","","27","","","","Clear"
"2004-09-15 21:00","2004","09","15","21:00","21.3","","17.0","","76","","18","","15","","24.1","","99.69","","27","","","","Clear"
"2004-09-15 22:00","2004","09","15","22:00","20.2","","17.1","","82","","17","","15","","24.1","","99.64","","26","","","","Clear"
"2004-09-15 23:00","2004","09","15","23:00","19.6","","17.1","","85","","18","","13","","19.3","","99.60","","","","","","Clear"
"2004-09-16 00:00","2004","09","16","00:00","19.4","","17.1","","87","","17","","13","","19.3","","99.53","","","","","","Mainly Clear"
"2004-09-16 01:00","2004","09","16","01:00","19.1","","17.0","","88","","17","","15","","19.3","","99.50","","","","","","Clear"
"2004-09-16 02:00","2004","09","16","02:00","18.7","","17.0","","90","","18","","11","","19.3","","99.49","","","","","","Clear"
"2004-09-16 03:00","2004","09","16","03:00","18.4","","16.9","","91","","18","","9","","19.3","","99.43","","","","","","Clear"
"2004-09-16 04:00","2004","09","16","04:00","18.3","","16.9","","92","","16","","9","","19.3","","99.40","","","","","","Clear"
"2004-09-16 05:00","2004","09","16","05:00","18.3","","17.0","","92","","15","","9","","14.5","","99.33","","","","","","Mainly Clear"
"2004-09-16 06:00","2004","09","16","06:00","18.7","","17.2","","91","","16","","9","","8.0","","99.35","","","","","","Fog"
"2004-09-16 07:00","2004","09","16","07:00","19.3","","18.0","","92","","16","","9","","8.0","","99.35","","","","","","Fog"
"2004-09-16 08:00","2004","09","16","08:00","20.9","","18.1","","84","","18","","15","","9.7","","99.31","","27","","","","Haze"
"2004-09-16 09:00","2004","09","16","09:00","22.3","","18.2","","78","","22","","26","","9.7","","99.28","","28","","","","Haze"
"2004-09-16 10:00","2004","09","16","10:00","24.7","","19.4","","72","","21","","22","","11.3","","99.24","","32","","","","Mostly Cloudy"
"2004-09-16 11:00","2004","09","16","11:00","25.4","","19.5","","70","","22","","30","","11.3","","99.23","","33","","","","Mostly Cloudy"
"2004-09-16 12:00","2004","09","16","12:00","25.1","","19.3","","70","","23","","22","","12.9","","99.17","","32","","","","Mostly Cloudy"
"2004-09-16 13:00","2004","09","16","13:00","23.2","","19.4","","79","","24","","28","","11.3","","99.13","","30","","","","Rain Showers"
"2004-09-16 14:00","2004","09","16","14:00","23.9","","19.6","","77","","24","","32","","8.0","","99.10","","31","","","","Haze"
"2004-09-16 15:00","2004","09","16","15:00","24.4","","20.3","","78","","24","","22","","6.4","","99.06","","32","","","","Haze"
"2004-09-16 16:00","2004","09","16","16:00","25.3","","19.8","","72","","26","","22","","9.7","","99.05","","33","","","","Haze"
"2004-09-16 17:00","2004","09","16","17:00","25.4","","15.7","","55","","28","","35","","24.1","","99.07","","30","","","","Mainly Clear"
"2004-09-16 18:00","2004","09","16","18:00","23.8","","15.1","","58","","29","","26","","24.1","","99.11","","28","","","","Mostly Cloudy"
"2004-09-16 19:00","2004","09","16","19:00","21.9","","14.8","","64","","29","","19","","24.1","","99.18","","26","","","","Mostly Cloudy"
"2004-09-16 20:00","2004","09","16","20:00","20.7","","14.5","","68","","32","","20","","24.1","","99.30","","","","","","Mostly Cloudy"
"2004-09-16 21:00","2004","09","16","21:00","19.4","","12.4","","64","","33","","15","","24.1","","99.33","","","","","","Mainly Clear"
"2004-09-16 22:00","2004","09","16","22:00","16.5","","13.1","","80","","36","","26","","24.1","","99.36","","","","","","Mostly Cloudy"
"2004-09-16 23:00","2004","09","16","23:00","15.6","","11.6","","77","","34","","26","","24.1","","99.42","","","","","","Mostly Cloudy"
"2004-09-17 00:00","2004","09","17","00:00","15.1","","10.2","","73","","33","","22","","24.1","","99.45","","","","","","Mainly Clear"
"2004-09-17 01:00","2004","09","17","01:00","14.6","","9.5","","71","","34","","17","","24.1","","99.51","","","","","","Cloudy"
"2004-09-17 02:00","2004","09","17","02:00","14.2","","9.4","","73","","33","","19","","24.1","","99.48","","","","","","Mostly Cloudy"
"2004-09-17 03:00","2004","09","17","03:00","13.5","","9.4","","76","","34","","13","","24.1","","99.48","","","","","","Mostly Cloudy"
"2004-09-17 04:00","2004","09","17","04:00","12.5","","9.3","","81","","","","0","","24.1","","99.51","","","","","","Cloudy"
"2004-09-17 05:00","2004","09","17","05:00","13.1","","9.9","","81","","31","","11","","24.1","","99.57","","","","","","Mostly Cloudy"
"2004-09-17 06:00","2004","09","17","06:00","12.9","","10.0","","83","","34","","9","","24.1","","99.61","","","","","","Mostly Cloudy"
"2004-09-17 07:00","2004","09","17","07:00","13.7","","9.8","","77","","33","","9","","24.1","","99.65","","","","","","Mostly Cloudy"
"2004-09-17 08:00","2004","09","17","08:00","14.2","","9.8","","75","","33","","11","","24.1","","99.71","","","","","","Cloudy"
"2004-09-17 09:00","2004","09","17","09:00","14.7","","9.3","","70","","35","","15","","24.1","","99.72","","","","","","Cloudy"
"2004-09-17 10:00","2004","09","17","10:00","15.0","","9.4","","69","","34","","13","","24.1","","99.73","","","","","","Cloudy"
"2004-09-17 11:00","2004","09","17","11:00","15.7","","10.0","","69","","36","","15","","24.1","","99.69","","","","","","Cloudy"
"2004-09-17 12:00","2004","09","17","12:00","15.9","","9.7","","67","","1","","17","","24.1","","99.67","","","","","","Cloudy"
"2004-09-17 13:00","2004","09","17","13:00","15.8","","9.1","","64","","35","","19","","24.1","","99.57","","","","","","Cloudy"
"2004-09-17 14:00","2004","09","17","14:00","15.6","","9.3","","66","","1","","24","","24.1","","99.53","","","","","","Cloudy"
"2004-09-17 15:00","2004","09","17","15:00","15.6","","9.2","","66","","36","","22","","24.1","","99.47","","","","","","Cloudy"
"2004-09-17 16:00","2004","09","17","16:00","15.1","","9.0","","67","","35","","26","","24.1","","99.45","","","","","","Cloudy"
"2004-09-17 17:00","2004","09","17","17:00","14.3","","8.8","","69","","36","","20","","24.1","","99.47","","","","","","Cloudy"
"2004-09-17 18:00","2004","09","17","18:00","13.5","","8.9","","74","","36","","24","","24.1","","99.55","","","","","","Mostly Cloudy"
"2004-09-17 19:00","2004","09","17","19:00","12.8","","8.3","","74","","36","","24","","24.1","","99.59","","","","","","Mostly Cloudy"
"2004-09-17 20:00","2004","09","17","20:00","12.6","","8.6","","77","","36","","20","","24.1","","99.66","","","","","","Mostly Cloudy"
"2004-09-17 21:00","2004","09","17","21:00","12.5","","8.4","","76","","36","","22","","24.1","","99.67","","","","","","Mostly Cloudy"
"2004-09-17 22:00","2004","09","17","22:00","12.2","","8.4","","78","","36","","22","","24.1","","99.69","","","","","","Mostly Cloudy"
"2004-09-17 23:00","2004","09","17","23:00","11.9","","8.1","","78","","1","","20","","24.1","","99.74","","","","","","Mostly Cloudy"
"2004-09-18 00:00","2004","09","18","00:00","11.4","","7.8","","79","","36","","19","","24.1","","99.77","","","","","","Cloudy"
"2004-09-18 01:00","2004","09","18","01:00","10.7","","7.7","","82","","36","","15","","24.1","","99.80","","","","","","Cloudy"
"2004-09-18 02:00","2004","09","18","02:00","9.9","","7.4","","84","","35","","13","","24.1","","99.82","","","","","","Mostly Cloudy"
"2004-09-18 03:00","2004","09","18","03:00","9.2","","7.0","","86","","36","","13","","24.1","","99.83","","","","","","Mainly Clear"
"2004-09-18 04:00","2004","09","18","04:00","9.0","","6.3","","83","","35","","13","","24.1","","99.89","","","","","","Mainly Clear"
"2004-09-18 05:00","2004","09","18","05:00","8.1","","5.8","","85","","36","","15","","24.1","","99.95","","","","","","Mainly Clear"
"2004-09-18 06:00","2004","09","18","06:00","8.0","","5.8","","86","","36","","15","","24.1","","100.01","","","","","","Mainly Clear"
"2004-09-18 07:00","2004","09","18","07:00","8.1","","5.3","","82","","35","","24","","24.1","","100.02","","","","","","Mainly Clear"
"2004-09-18 08:00","2004","09","18","08:00","10.3","","5.9","","74","","1","","19","","24.1","","100.05","","","","","","Clear"
"2004-09-18 09:00","2004","09","18","09:00","12.6","","3.7","","55","","3","","24","","24.1","","100.08","","","","","","Clear"
"2004-09-18 10:00","2004","09","18","10:00","14.2","","3.6","","49","","1","","20","","24.1","","100.14","","","","","","Clear"
"2004-09-18 11:00","2004","09","18","11:00","15.4","","4.0","","46","","2","","17","","24.1","","100.20","","","","","","Clear"
"2004-09-18 12:00","2004","09","18","12:00","16.9","","3.5","","41","","35","","24","","24.1","","100.19","","","","","","Clear"
"2004-09-18 13:00","2004","09","18","13:00","17.6","","2.4","","36","","1","","13","","24.1","","100.19","","","","","","Clear"
"2004-09-18 14:00","2004","09","18","14:00","17.9","","4.3","","41","","36","","28","","24.1","","100.20","","","","","","Clear"
"2004-09-18 15:00","2004","09","18","15:00","18.8","","4.7","","39","","1","","26","","24.1","","100.20","","","","","","Clear"
"2004-09-18 16:00","2004","09","18","16:00","18.1","","5.6","","44","","35","","28","","24.1","","100.21","","","","","","Clear"
"2004-09-18 17:00","2004","09","18","17:00","16.5","","5.6","","48","","36","","28","","24.1","","100.27","","","","","","Clear"
"2004-09-18 18:00","2004","09","18","18:00","15.3","","5.6","","52","","35","","24","","24.1","","100.32","","","","","","Clear"
"2004-09-18 19:00","2004","09","18","19:00","14.2","","5.9","","57","","33","","22","","24.1","","100.37","","","","","","Clear"
"2004-09-18 20:00","2004","09","18","20:00","13.1","","6.2","","63","","34","","24","","24.1","","100.44","","","","","","Clear"
"2004-09-18 21:00","2004","09","18","21:00","12.3","","6.2","","66","","34","","19","","24.1","","100.45","","","","","","Clear"
"2004-09-18 22:00","2004","09","18","22:00","11.3","","6.1","","70","","35","","15","","24.1","","100.50","","","","","","Clear"
"2004-09-18 23:00","2004","09","18","23:00","10.2","","6.3","","77","","34","","9","","24.1","","100.56","","","","","","Clear"
"2004-09-19 00:00","2004","09","19","00:00","9.3","","5.9","","79","","1","","7","","24.1","","100.60","","","","","","Clear"
"2004-09-19 01:00","2004","09","19","01:00","9.4","","5.8","","78","","2","","11","","24.1","","100.65","","","","","","Clear"
"2004-09-19 02:00","2004","09","19","02:00","8.6","","4.7","","76","","2","","9","","24.1","","100.67","","","","","","Clear"
"2004-09-19 03:00","2004","09","19","03:00","7.7","","3.8","","76","","35","","9","","24.1","","100.71","","","","","","Clear"
"2004-09-19 04:00","2004","09","19","04:00","7.5","","3.8","","77","","36","","11","","24.1","","100.76","","","","","","Clear"
"2004-09-19 05:00","2004","09","19","05:00","7.1","","3.5","","78","","1","","11","","24.1","","100.82","","","","","","Clear"
"2004-09-19 06:00","2004","09","19","06:00","6.8","","3.5","","79","","1","","11","","24.1","","100.90","","","","","","Clear"
"2004-09-19 07:00","2004","09","19","07:00","7.5","","4.1","","79","","1","","13","","24.1","","100.99","","","","","","Clear"
"2004-09-19 08:00","2004","09","19","08:00","9.8","","4.7","","71","","2","","15","","24.1","","101.06","","","","","","Clear"
"2004-09-19 09:00","2004","09","19","09:00","11.5","","4.4","","62","","3","","11","","24.1","","101.11","","","","","","Clear"
"2004-09-19 10:00","2004","09","19","10:00","12.3","","2.9","","53","","4","","15","","24.1","","101.11","","","","","","Clear"
"2004-09-19 11:00","2004","09","19","11:00","14.2","","2.8","","46","","2","","11","","24.1","","101.07","","","","","","Clear"
"2004-09-19 12:00","2004","09","19","12:00","15.7","","2.3","","40","","3","","15","","24.1","","101.00","","","","","","Clear"
"2004-09-19 13:00","2004","09","19","13:00","17.0","","2.8","","39","","4","","6","","24.1","","100.94","","","","","","Clear"
"2004-09-19 14:00","2004","09","19","14:00","17.9","","2.2","","35","","1","","6","","24.1","","100.89","","","","","","Clear"
"2004-09-19 15:00","2004","09","19","15:00","17.6","","7.2","","50","","17","","11","","24.1","","100.86","","","","","","Clear"
"2004-09-19 16:00","2004","09","19","16:00","17.4","","7.3","","51","","18","","9","","24.1","","100.84","","","","","","Clear"
"2004-09-19 17:00","2004","09","19","17:00","16.7","","7.8","","56","","14","","11","","24.1","","100.88","","","","","","Clear"
"2004-09-19 18:00","2004","09","19","18:00","15.6","","7.5","","58","","18","","7","","24.1","","100.86","","","","","","Clear"
"2004-09-19 19:00","2004","09","19","19:00","14.2","","7.7","","65","","19","","7","","24.1","","100.82","","","","","","Clear"
"2004-09-19 20:00","2004","09","19","20:00","13.5","","7.0","","65","","18","","7","","24.1","","100.84","","","","","","Clear"
"2004-09-19 21:00","2004","09","19","21:00","12.5","","6.2","","65","","25","","7","","24.1","","100.84","","","","","","Clear"
"2004-09-19 22:00","2004","09","19","22:00","12.2","","6.6","","69","","32","","7","","24.1","","100.89","","","","","","Clear"
"2004-09-19 23:00","2004","09","19","23:00","11.1","","5.4","","68","","31","","7","","24.1","","100.90","","","","","","Clear"
"2004-09-20 00:00","2004","09","20","00:00","10.9","","4.8","","66","","33","","9","","24.1","","100.92","","","","","","Clear"
"2004-09-20 01:00","2004","09","20","01:00","9.7","","5.4","","75","","32","","7","","24.1","","100.91","","","","","","Mainly Clear"
"2004-09-20 02:00","2004","09","20","02:00","9.2","","5.5","","78","","31","","7","","24.1","","100.89","","","","","","Mainly Clear"
"2004-09-20 03:00","2004","09","20","03:00","9.4","","5.6","","77","","35","","7","","24.1","","100.93","","","","","","Clear"
"2004-09-20 04:00","2004","09","20","04:00","8.7","","5.3","","79","","2","","6","","24.1","","100.92","","","","","","Clear"
"2004-09-20 05:00","2004","09","20","05:00","7.9","","5.0","","82","","30","","7","","24.1","","100.92","","","","","","Mainly Clear"
"2004-09-20 06:00","2004","09","20","06:00","8.5","","5.6","","82","","29","","7","","24.1","","100.87","","","","","","Mostly Cloudy"
"2004-09-20 07:00","2004","09","20","07:00","10.5","","6.8","","78","","29","","7","","24.1","","100.88","","","","","","Mostly Cloudy"
"2004-09-20 08:00","2004","09","20","08:00","13.0","","7.0","","67","","28","","4","","24.1","","100.84","","","","","","Mostly Cloudy"
"2004-09-20 09:00","2004","09","20","09:00","16.3","","6.1","","51","","26","","7","","24.1","","100.89","","","","","","Mainly Clear"
"2004-09-20 10:00","2004","09","20","10:00","17.7","","6.9","","49","","23","","9","","24.1","","100.90","","","","","","Mainly Clear"
"2004-09-20 11:00","2004","09","20","11:00","19.7","","7.3","","45","","20","","11","","24.1","","100.86","","","","","","Mainly Clear"
"2004-09-20 12:00","2004","09","20","12:00","19.7","","9.4","","51","","18","","9","","24.1","","100.78","","","","","","Mostly Cloudy"
"2004-09-20 13:00","2004","09","20","13:00","20.3","","10.9","","55","","14","","6","","24.1","","100.75","","","","","","Mostly Cloudy"
"2004-09-20 14:00","2004","09","20","14:00","20.5","","11.1","","55","","13","","17","","24.1","","100.71","","","","","","Mostly Cloudy"
"2004-09-20 15:00","2004","09","20","15:00","20.6","","9.8","","50","","16","","13","","24.1","","100.68","","","","","","Mostly Cloudy"
"2004-09-20 16:00","2004","09","20","16:00","21.2","","11.0","","52","","15","","9","","24.1","","100.66","","","","","","Mainly Clear"
"2004-09-20 17:00","2004","09","20","17:00","20.5","","11.1","","55","","16","","15","","24.1","","100.56","","","","","","Mainly Clear"
"2004-09-20 18:00","2004","09","20","18:00","19.3","","11.5","","61","","17","","13","","24.1","","100.50","","","","","","Mainly Clear"
"2004-09-20 19:00","2004","09","20","19:00","18.7","","11.3","","62","","14","","7","","24.1","","100.46","","","","","","Mostly Cloudy"
"2004-09-20 20:00","2004","09","20","20:00","17.6","","11.5","","67","","16","","7","","24.1","","100.51","","","","","","Mostly Cloudy"
"2004-09-20 21:00","2004","09","20","21:00","17.0","","13.0","","77","","18","","6","","24.1","","100.49","","","","","","Mainly Clear"
"2004-09-20 22:00","2004","09","20","22:00","16.5","","11.4","","72","","22","","6","","24.1","","100.48","","","","","","Mainly Clear"
"2004-09-20 23:00","2004","09","20","23:00","15.3","","8.5","","64","","25","","6","","24.1","","100.47","","","","","","Mainly Clear"
"2004-09-21 00:00","2004","09","21","00:00","15.2","","8.3","","63","","","","0","","24.1","","100.45","","","","","","Mainly Clear"
"2004-09-21 01:00","2004","09","21","01:00","14.4","","8.1","","66","","23","","6","","24.1","","100.45","","","","","","Clear"
"2004-09-21 02:00","2004","09","21","02:00","13.2","","8.1","","71","","24","","7","","24.1","","100.43","","","","","","Mainly Clear"
"2004-09-21 03:00","2004","09","21","03:00","12.5","","8.1","","75","","25","","6","","24.1","","100.41","","","","","","Mostly Cloudy"
"2004-09-21 04:00","2004","09","21","04:00","12.2","","7.9","","75","","27","","7","","24.1","","100.40","","","","","","Mainly Clear"
"2004-09-21 05:00","2004","09","21","05:00","12.3","","5.7","","64","","30","","11","","24.1","","100.45","","","","","","Mostly Cloudy"
"2004-09-21 06:00","2004","09","21","06:00","12.4","","6.6","","68","","29","","9","","24.1","","100.45","","","","","","Mostly Cloudy"
"2004-09-21 07:00","2004","09","21","07:00","15.9","","8.4","","61","","","","0","","24.1","","100.51","","","","","","Mostly Cloudy"
"2004-09-21 08:00","2004","09","21","08:00","17.0","","8.8","","58","","","","0","","24.1","","100.52","","","","","","Mostly Cloudy"
"2004-09-21 09:00","2004","09","21","09:00","19.3","","10.3","","56","","24","","6","","24.1","","100.51","","","","","","Mostly Cloudy"
"2004-09-21 10:00","2004","09","21","10:00","22.4","","10.8","","48","","25","","9","","24.1","","100.47","","","","","","Mostly Cloudy"
"2004-09-21 11:00","2004","09","21","11:00","25.0","","10.4","","40","","23","","11","","24.1","","100.39","","26","","","","Mainly Clear"
"2004-09-21 12:00","2004","09","21","12:00","26.5","","11.3","","39","","25","","19","","24.1","","100.35","","28","","","","Mostly Cloudy"
"2004-09-21 13:00","2004","09","21","13:00","26.2","","11.4","","40","","28","","17","","24.1","","100.30","","28","","","","Mostly Cloudy"
"2004-09-21 14:00","2004","09","21","14:00","26.4","","11.1","","38","","26","","13","","24.1","","100.25","","28","","","","Mostly Cloudy"
"2004-09-21 15:00","2004","09","21","15:00","27.0","","11.4","","38","","24","","15","","24.1","","100.22","","29","","","","Mostly Cloudy"
"2004-09-21 16:00","2004","09","21","16:00","27.0","","10.9","","37","","26","","19","","24.1","","100.18","","29","","","","Mostly Cloudy"
"2004-09-21 17:00","2004","09","21","17:00","26.1","","12.1","","42","","25","","17","","24.1","","100.17","","28","","","","Mostly Cloudy"
"2004-09-21 18:00","2004","09","21","18:00","24.2","","11.3","","44","","28","","13","","24.1","","100.20","","26","","","","Mostly Cloudy"
"2004-09-21 19:00","2004","09","21","19:00","21.7","","10.9","","50","","26","","11","","24.1","","100.21","","","","","","Mainly Clear"
"2004-09-21 20:00","2004","09","21","20:00","19.3","","12.3","","64","","25","","15","","24.1","","100.25","","","","","","Mainly Clear"
"2004-09-21 21:00","2004","09","21","21:00","17.5","","13.2","","76","","26","","11","","24.1","","100.28","","","","","","Mainly Clear"
"2004-09-21 22:00","2004","09","21","22:00","16.5","","13.2","","81","","26","","11","","24.1","","100.31","","","","","","Mainly Clear"
"2004-09-21 23:00","2004","09","21","23:00","16.4","","13.5","","83","","25","","13","","19.3","","100.28","","","","","","Clear"
"2004-09-22 00:00","2004","09","22","00:00","16.3","","12.6","","79","","26","","13","","19.3","","100.27","","","","","","Clear"
"2004-09-22 01:00","2004","09","22","01:00","15.0","","11.1","","77","","","","0","","19.3","","100.29","","","","","","Clear"
"2004-09-22 02:00","2004","09","22","02:00","16.1","","10.9","","71","","21","","6","","19.3","","100.29","","","","","","Clear"
"2004-09-22 03:00","2004","09","22","03:00","14.7","","10.4","","75","","24","","4","","24.1","","100.30","","","","","","Clear"
"2004-09-22 04:00","2004","09","22","04:00","12.4","","9.1","","80","","27","","9","","24.1","","100.32","","","","","","Clear"
"2004-09-22 05:00","2004","09","22","05:00","12.2","","9.0","","81","","30","","6","","24.1","","100.36","","","","","","Clear"
"2004-09-22 06:00","2004","09","22","06:00","13.7","","9.8","","77","","27","","4","","16.1","","100.39","","","","","","Clear"
"2004-09-22 07:00","2004","09","22","07:00","13.8","","10.1","","78","","28","","7","","16.1","","100.43","","","","","","Clear"
"2004-09-22 08:00","2004","09","22","08:00","18.0","","12.8","","72","","31","","7","","16.1","","100.43","","","","","","Clear"
"2004-09-22 09:00","2004","09","22","09:00","22.2","","13.5","","58","","","","0","","16.1","","100.44","","25","","","","Clear"
"2004-09-22 10:00","2004","09","22","10:00","24.4","","11.7","","45","","31","","11","","19.3","","100.42","","27","","","","Clear"
"2004-09-22 11:00","2004","09","22","11:00","25.5","","10.8","","40","","30","","15","","24.1","","100.40","","27","","","","Clear"
"2004-09-22 12:00","2004","09","22","12:00","26.3","","10.0","","36","","29","","9","","24.1","","100.38","","28","","","","Clear"
"2004-09-22 13:00","2004","09","22","13:00","27.5","","9.2","","32","","26","","9","","24.1","","100.35","","28","","","","Clear"
"2004-09-22 14:00","2004","09","22","14:00","27.9","","11.0","","35","","26","","9","","24.1","","100.29","","30","","","","Clear"
"2004-09-22 15:00","2004","09","22","15:00","28.6","","11.5","","35","","32","","13","","24.1","","100.24","","31","","","","Clear"
"2004-09-22 16:00","2004","09","22","16:00","28.4","","12.6","","38","","27","","19","","24.1","","100.21","","31","","","","Clear"
"2004-09-22 17:00","2004","09","22","17:00","27.7","","12.5","","39","","29","","20","","24.1","","100.24","","30","","","","Clear"
"2004-09-22 18:00","2004","09","22","18:00","26.1","","12.7","","43","","30","","17","","24.1","","100.24","","29","","","","Clear"
"2004-09-22 19:00","2004","09","22","19:00","25.2","","13.5","","48","","31","","15","","24.1","","100.26","","28","","","","Clear"
"2004-09-22 20:00","2004","09","22","20:00","22.7","","14.4","","59","","35","","11","","24.1","","100.31","","26","","","","Clear"
"2004-09-22 21:00","2004","09","22","21:00","21.8","","14.5","","63","","34","","9","","24.1","","100.32","","25","","","","Clear"
"2004-09-22 22:00","2004","09","22","22:00","20.6","","14.4","","68","","31","","9","","24.1","","100.34","","","","","","Clear"
"2004-09-22 23:00","2004","09","22","23:00","19.3","","13.4","","69","","30","","4","","24.1","","100.35","","","","","","Clear"
"2004-09-23 00:00","2004","09","23","00:00","18.4","","12.8","","70","","30","","9","","24.1","","100.31","","","","","","Clear"
"2004-09-23 01:00","2004","09","23","01:00","17.4","","12.6","","73","","32","","4","","24.1","","100.34","","","","","","Clear"
"2004-09-23 02:00","2004","09","23","02:00","16.6","","12.4","","76","","3","","9","","24.1","","100.36","","","","","","Clear"
"2004-09-23 03:00","2004","09","23","03:00","15.3","","11.5","","78","","32","","6","","24.1","","100.37","","","","","","Clear"
"2004-09-23 04:00","2004","09","23","04:00","15.7","","11.6","","77","","","","0","","24.1","","100.40","","","","","","Clear"
"2004-09-23 05:00","2004","09","23","05:00","17.1","","11.1","","68","","34","","6","","24.1","","100.42","","","","","","Clear"
"2004-09-23 06:00","2004","09","23","06:00","16.6","","10.7","","68","","36","","7","","16.1","","100.44","","","","","","Clear"
"2004-09-23 07:00","2004","09","23","07:00","16.4","","10.8","","69","","","","0","","16.1","","100.47","","","","","","Clear"
"2004-09-23 08:00","2004","09","23","08:00","18.5","","12.1","","66","","27","","6","","19.3","","100.51","","","","","","Clear"
"2004-09-23 09:00","2004","09","23","09:00","21.6","","12.0","","54","","28","","6","","19.3","","100.54","","","","","","Clear"
"2004-09-23 10:00","2004","09","23","10:00","25.0","","12.2","","45","","17","","6","","19.3","","100.56","","27","","","","Clear"
"2004-09-23 11:00","2004","09","23","11:00","26.3","","11.5","","40","","17","","7","","19.3","","100.53","","28","","","","Clear"
"2004-09-23 12:00","2004","09","23","12:00","27.5","","11.7","","37","","12","","6","","24.1","","100.49","","30","","","","Clear"
"2004-09-23 13:00","2004","09","23","13:00","27.5","","11.4","","37","","17","","9","","24.1","","100.43","","29","","","","Clear"
"2004-09-23 14:00","2004","09","23","14:00","27.2","","11.2","","37","","16","","11","","24.1","","100.38","","29","","","","Clear"
"2004-09-23 15:00","2004","09","23","15:00","27.3","","11.0","","36","","16","","13","","24.1","","100.34","","29","","","","Mainly Clear"
"2004-09-23 16:00","2004","09","23","16:00","26.8","","11.1","","37","","15","","13","","24.1","","100.31","","29","","","","Mainly Clear"
"2004-09-23 17:00","2004","09","23","17:00","25.7","","10.3","","38","","15","","15","","24.1","","100.27","","27","","","","Mainly Clear"
"2004-09-23 18:00","2004","09","23","18:00","23.7","","11.6","","47","","16","","7","","24.1","","100.28","","26","","","","Mainly Clear"
"2004-09-23 19:00","2004","09","23","19:00","21.8","","12.4","","55","","14","","7","","24.1","","100.30","","","","","","Mainly Clear"
"2004-09-23 20:00","2004","09","23","20:00","20.8","","13.5","","63","","15","","9","","24.1","","100.33","","","","","","Mainly Clear"
"2004-09-23 21:00","2004","09","23","21:00","19.9","","14.9","","73","","10","","7","","19.3","","100.33","","","","","","Mainly Clear"
"2004-09-23 22:00","2004","09","23","22:00","19.4","","14.7","","74","","10","","6","","16.1","","100.32","","","","","","Mainly Clear"
"2004-09-23 23:00","2004","09","23","23:00","18.4","","14.0","","76","","","","0","","14.5","","100.29","","","","","","Mainly Clear"
"2004-09-24 00:00","2004","09","24","00:00","17.1","","13.9","","81","","","","0","","11.3","","100.31","","","","","","Clear"
"2004-09-24 01:00","2004","09","24","01:00","16.5","","13.2","","81","","","","0","","12.9","","100.28","","","","","","Clear"
"2004-09-24 02:00","2004","09","24","02:00","15.9","","12.7","","81","","","","0","","11.3","","100.27","","","","","","Mainly Clear"
"2004-09-24 03:00","2004","09","24","03:00","15.2","","13.0","","87","","","","0","","9.7","","100.23","","","","","","Haze"
"2004-09-24 04:00","2004","09","24","04:00","14.5","","13.0","","91","","1","","4","","8.0","","100.22","","","","","","Fog"
"2004-09-24 05:00","2004","09","24","05:00","13.4","","11.7","","89","","36","","4","","6.4","","100.22","","","","","","Fog"
"2004-09-24 06:00","2004","09","24","06:00","14.2","","12.2","","88","","31","","7","","4.0","","100.23","","","","","","Fog"
"2004-09-24 07:00","2004","09","24","07:00","15.3","","13.7","","90","","4","","4","","4.8","","100.23","","","","","","Fog"
"2004-09-24 08:00","2004","09","24","08:00","17.5","","15.5","","88","","","","0","","4.8","","100.23","","","","","","Fog"
"2004-09-24 09:00","2004","09","24","09:00","20.5","","16.4","","77","","19","","4","","4.8","","100.23","","25","","","","Haze"
"2004-09-24 10:00","2004","09","24","10:00","21.3","","17.2","","77","","15","","7","","6.4","","100.19","","27","","","","Haze"
"2004-09-24 11:00","2004","09","24","11:00","23.7","","17.7","","69","","16","","9","","9.7","","100.12","","29","","","","Haze"
"2004-09-24 12:00","2004","09","24","12:00","25.4","","18.0","","64","","14","","15","","11.3","","100.07","","31","","","","Mostly Cloudy"
"2004-09-24 13:00","2004","09","24","13:00","24.2","","17.5","","66","","14","","13","","16.1","","100.01","","30","","","","Mostly Cloudy"
"2004-09-24 14:00","2004","09","24","14:00","25.9","","17.3","","59","","17","","19","","16.1","","99.93","","31","","","","Mostly Cloudy"
"2004-09-24 15:00","2004","09","24","15:00","25.3","","17.6","","62","","16","","15","","16.1","","99.88","","31","","","","Mostly Cloudy"
"2004-09-24 16:00","2004","09","24","16:00","24.1","","17.4","","66","","16","","17","","16.1","","99.82","","30","","","","Mostly Cloudy"
"2004-09-24 17:00","2004","09","24","17:00","23.3","","17.8","","71","","14","","13","","12.9","","99.80","","29","","","","Mostly Cloudy"
"2004-09-24 18:00","2004","09","24","18:00","22.2","","17.7","","76","","15","","9","","9.7","","99.78","","28","","","","Haze"
"2004-09-24 19:00","2004","09","24","19:00","21.8","","17.5","","77","","15","","9","","8.0","","99.75","","27","","","","Haze"
"2004-09-24 20:00","2004","09","24","20:00","22.3","","16.7","","71","","16","","6","","11.3","","99.78","","27","","","","Mostly Cloudy"
"2004-09-24 21:00","2004","09","24","21:00","22.3","","14.9","","63","","18","","7","","11.3","","99.77","","26","","","","Mostly Cloudy"
"2004-09-24 22:00","2004","09","24","22:00","21.8","","15.3","","67","","21","","7","","11.3","","99.73","","26","","","","Cloudy"
"2004-09-24 23:00","2004","09","24","23:00","21.2","","15.3","","69","","22","","9","","11.3","","99.73","","25","","","","Cloudy"
"2004-09-25 00:00","2004","09","25","00:00","21.3","","15.6","","70","","22","","11","","11.3","","99.71","","26","","","","Cloudy"
"2004-09-25 01:00","2004","09","25","01:00","20.9","","15.9","","73","","23","","9","","11.3","","99.66","","25","","","","Cloudy"
"2004-09-25 02:00","2004","09","25","02:00","20.0","","16.0","","78","","23","","7","","9.7","","99.63","","25","","","","Haze"
"2004-09-25 03:00","2004","09","25","03:00","19.2","","15.8","","81","","24","","7","","9.7","","99.59","","","","","","Haze"
"2004-09-25 04:00","2004","09","25","04:00","18.8","","15.7","","82","","26","","7","","9.7","","99.58","","","","","","Haze"
"2004-09-25 05:00","2004","09","25","05:00","18.1","","15.3","","84","","27","","9","","9.7","","99.60","","","","","","Haze"
"2004-09-25 06:00","2004","09","25","06:00","18.1","","14.6","","80","","29","","7","","8.0","","99.62","","","","","","Haze"
"2004-09-25 07:00","2004","09","25","07:00","19.0","","13.9","","72","","29","","9","","9.7","","99.65","","","","","","Haze"
"2004-09-25 08:00","2004","09","25","08:00","19.7","","14.3","","71","","28","","11","","12.9","","99.70","","","","","","Cloudy"
"2004-09-25 09:00","2004","09","25","09:00","19.2","","15.2","","78","","36","","17","","16.1","","99.73","","","","","","Mostly Cloudy"
"2004-09-25 10:00","2004","09","25","10:00","20.4","","15.6","","74","","33","","9","","19.3","","99.75","","25","","","","Mostly Cloudy"
"2004-09-25 11:00","2004","09","25","11:00","21.2","","13.8","","63","","31","","26","","24.1","","99.76","","","","","","Mostly Cloudy"
"2004-09-25 12:00","2004","09","25","12:00","21.8","","12.9","","57","","31","","24","","24.1","","99.79","","25","","","","Mostly Cloudy"
"2004-09-25 13:00","2004","09","25","13:00","20.7","","12.3","","59","","29","","22","","24.1","","99.78","","","","","","Mostly Cloudy"
"2004-09-25 14:00","2004","09","25","14:00","22.1","","11.9","","52","","29","","24","","24.1","","99.76","","","","","","Mostly Cloudy"
"2004-09-25 15:00","2004","09","25","15:00","20.5","","11.8","","57","","31","","15","","24.1","","99.79","","","","","","Mostly Cloudy"
"2004-09-25 16:00","2004","09","25","16:00","20.5","","11.6","","57","","30","","20","","24.1","","99.79","","","","","","Mostly Cloudy"
"2004-09-25 17:00","2004","09","25","17:00","19.5","","12.7","","65","","35","","24","","24.1","","99.84","","","","","","Cloudy"
"2004-09-25 18:00","2004","09","25","18:00","18.7","","12.2","","66","","35","","11","","24.1","","99.91","","","","","","Mostly Cloudy"
"2004-09-25 19:00","2004","09","25","19:00","18.5","","12.3","","67","","32","","15","","24.1","","99.95","","","","","","Mostly Cloudy"
"2004-09-25 20:00","2004","09","25","20:00","18.1","","11.9","","67","","32","","20","","24.1","","99.98","","","","","","Mostly Cloudy"
"2004-09-25 21:00","2004","09","25","21:00","17.0","","11.8","","71","","32","","20","","24.1","","100.01","","","","","","Mainly Clear"
"2004-09-25 22:00","2004","09","25","22:00","15.8","","11.6","","76","","31","","15","","24.1","","100.03","","","","","","Clear"
"2004-09-25 23:00","2004","09","25","23:00","15.1","","11.4","","79","","31","","17","","24.1","","100.03","","","","","","Clear"
"2004-09-26 00:00","2004","09","26","00:00","14.3","","11.4","","83","","33","","19","","24.1","","100.02","","","","","","Clear"
"2004-09-26 01:00","2004","09","26","01:00","13.4","","10.9","","85","","32","","17","","24.1","","100.05","","","","","","Clear"
"2004-09-26 02:00","2004","09","26","02:00","12.6","","10.6","","88","","31","","13","","24.1","","100.04","","","","","","Clear"
"2004-09-26 03:00","2004","09","26","03:00","12.5","","10.4","","87","","32","","15","","24.1","","100.04","","","","","","Clear"
"2004-09-26 04:00","2004","09","26","04:00","12.5","","10.6","","88","","34","","17","","24.1","","100.03","","","","","","Clear"
"2004-09-26 05:00","2004","09","26","05:00","11.4","","10.4","","94","","32","","4","","24.1","","100.07","","","","","","Clear"
"2004-09-26 06:00","2004","09","26","06:00","12.0","","10.6","","91","","","","0","","24.1","","100.13","","","","","","Clear"
"2004-09-26 07:00","2004","09","26","07:00","12.0","","10.8","","92","","31","","4","","24.1","","100.16","","","","","","Clear"
"2004-09-26 08:00","2004","09","26","08:00","14.6","","11.8","","83","","30","","6","","24.1","","100.19","","","","","","Clear"
"2004-09-26 09:00","2004","09","26","09:00","16.8","","12.9","","78","","36","","9","","24.1","","100.22","","","","","","Clear"
"2004-09-26 10:00","2004","09","26","10:00","19.3","","12.8","","66","","36","","6","","24.1","","100.22","","","","","","Clear"
"2004-09-26 11:00","2004","09","26","11:00","20.6","","12.2","","59","","28","","4","","24.1","","100.20","","","","","","Clear"
"2004-09-26 12:00","2004","09","26","12:00","21.8","","9.6","","46","","35","","7","","24.1","","100.17","","","","","","Clear"
"2004-09-26 13:00","2004","09","26","13:00","22.6","","9.2","","42","","25","","4","","24.1","","100.10","","","","","","Clear"
"2004-09-26 14:00","2004","09","26","14:00","22.3","","12.1","","52","","16","","17","","24.1","","100.03","","25","","","","Clear"
"2004-09-26 15:00","2004","09","26","15:00","22.9","","12.8","","53","","17","","19","","24.1","","99.99","","26","","","","Clear"
"2004-09-26 16:00","2004","09","26","16:00","22.3","","12.7","","55","","12","","13","","24.1","","99.96","","25","","","","Clear"
"2004-09-26 17:00","2004","09","26","17:00","21.4","","12.1","","55","","15","","13","","24.1","","99.95","","","","","","Clear"
"2004-09-26 18:00","2004","09","26","18:00","20.1","","7.8","","45","","16","","9","","24.1","","99.95","","","","","","Clear"
"2004-09-26 19:00","2004","09","26","19:00","19.4","","7.3","","45","","18","","6","","24.1","","99.94","","","","","","Clear"
"2004-09-26 20:00","2004","09","26","20:00","18.6","","10.6","","60","","19","","4","","24.1","","99.98","","","","","","Clear"
"2004-09-26 21:00","2004","09","26","21:00","17.7","","10.0","","61","","25","","7","","24.1","","100.00","","","","","","Clear"
"2004-09-26 22:00","2004","09","26","22:00","17.0","","11.2","","69","","31","","13","","24.1","","99.99","","","","","","Clear"
"2004-09-26 23:00","2004","09","26","23:00","15.1","","10.7","","75","","28","","11","","24.1","","100.00","","","","","","Clear"
"2004-09-27 00:00","2004","09","27","00:00","14.6","","10.9","","78","","31","","9","","24.1","","99.97","","","","","","Clear"
"2004-09-27 01:00","2004","09","27","01:00","13.2","","10.5","","84","","33","","6","","24.1","","99.97","","","","","","Clear"
"2004-09-27 02:00","2004","09","27","02:00","14.6","","10.9","","78","","33","","6","","24.1","","99.93","","","","","","Clear"
"2004-09-27 03:00","2004","09","27","03:00","13.0","","10.2","","83","","31","","6","","24.1","","99.92","","","","","","Clear"
"2004-09-27 04:00","2004","09","27","04:00","12.2","","9.9","","86","","32","","4","","24.1","","99.95","","","","","","Clear"
"2004-09-27 05:00","2004","09","27","05:00","11.7","","8.9","","83","","31","","7","","24.1","","99.97","","","","","","Clear"
"2004-09-27 06:00","2004","09","27","06:00","11.8","","9.3","","85","","2","","4","","24.1","","99.97","","","","","","Clear"
"2004-09-27 07:00","2004","09","27","07:00","12.7","","9.9","","83","","","","0","","24.1","","99.98","","","","","","Clear"
"2004-09-27 08:00","2004","09","27","08:00","16.1","","11.0","","72","","","","0","","24.1","","99.97","","","","","","Clear"
"2004-09-27 09:00","2004","09","27","09:00","18.8","","11.5","","63","","16","","6","","24.1","","99.94","","","","","","Clear"
"2004-09-27 10:00","2004","09","27","10:00","21.6","","12.5","","56","","18","","6","","24.1","","99.90","","","","","","Clear"
"2004-09-27 11:00","2004","09","27","11:00","22.3","","12.4","","53","","12","","4","","24.1","","99.86","","25","","","","Clear"
"2004-09-27 12:00","2004","09","27","12:00","23.2","","11.6","","48","","18","","13","","24.1","","99.82","","25","","","","Clear"
"2004-09-27 13:00","2004","09","27","13:00","23.6","","11.9","","48","","18","","11","","24.1","","99.74","","26","","","","Clear"
"2004-09-27 14:00","2004","09","27","14:00","23.1","","10.5","","45","","14","","9","","24.1","","99.65","","25","","","","Clear"
"2004-09-27 15:00","2004","09","27","15:00","23.3","","11.2","","46","","17","","9","","24.1","","99.59","","25","","","","Clear"
"2004-09-27 16:00","2004","09","27","16:00","22.6","","12.0","","51","","15","","13","","24.1","","99.53","","25","","","","Clear"
"2004-09-27 17:00","2004","09","27","17:00","21.9","","12.3","","54","","17","","15","","24.1","","99.49","","","","","","Clear"
"2004-09-27 18:00","2004","09","27","18:00","19.5","","13.5","","68","","15","","11","","24.1","","99.48","","","","","","Clear"
"2004-09-27 19:00","2004","09","27","19:00","18.3","","14.6","","79","","12","","7","","24.1","","99.50","","","","","","Clear"
"2004-09-27 20:00","2004","09","27","20:00","17.9","","15.0","","83","","12","","7","","24.1","","99.50","","","","","","Clear"
"2004-09-27 21:00","2004","09","27","21:00","17.4","","15.2","","87","","17","","6","","24.1","","99.47","","","","","","Clear"
"2004-09-27 22:00","2004","09","27","22:00","17.0","","15.2","","89","","19","","6","","19.3","","99.43","","","","","","Clear"
"2004-09-27 23:00","2004","09","27","23:00","16.7","","15.1","","90","","28","","4","","19.3","","99.38","","","","","","Clear"
"2004-09-28 00:00","2004","09","28","00:00","15.8","","14.4","","91","","35","","17","","14.5","","99.38","","","","","","Clear"
"2004-09-28 01:00","2004","09","28","01:00","14.6","","13.2","","91","","34","","4","","14.5","","99.34","","","","","","Clear"
"2004-09-28 02:00","2004","09","28","02:00","13.5","","12.1","","91","","31","","11","","14.5","","99.28","","","","","","Clear"
"2004-09-28 03:00","2004","09","28","03:00","12.7","","11.9","","95","","32","","7","","16.1","","99.27","","","","","","Clear"
"2004-09-28 04:00","2004","09","28","04:00","12.6","","10.8","","89","","32","","13","","16.1","","99.26","","","","","","Mainly Clear"
"2004-09-28 05:00","2004","09","28","05:00","13.0","","10.4","","84","","32","","13","","24.1","","99.29","","","","","","Mainly Clear"
"2004-09-28 06:00","2004","09","28","06:00","12.0","","9.0","","82","","31","","9","","24.1","","99.31","","","","","","Mostly Cloudy"
"2004-09-28 07:00","2004","09","28","07:00","13.5","","10.8","","84","","34","","22","","24.1","","99.34","","","","","","Mostly Cloudy"
"2004-09-28 08:00","2004","09","28","08:00","14.7","","11.7","","82","","36","","20","","24.1","","99.37","","","","","","Mostly Cloudy"
"2004-09-28 09:00","2004","09","28","09:00","17.7","","13.0","","74","","1","","22","","24.1","","99.40","","","","","","Mostly Cloudy"
"2004-09-28 10:00","2004","09","28","10:00","19.1","","12.8","","67","","2","","19","","24.1","","99.40","","","","","","Mostly Cloudy"
"2004-09-28 11:00","2004","09","28","11:00","19.1","","12.8","","67","","1","","30","","24.1","","99.39","","","","","","Mostly Cloudy"
"2004-09-28 12:00","2004","09","28","12:00","18.5","","12.7","","69","","1","","28","","24.1","","99.45","","","","","","Mostly Cloudy"
"2004-09-28 13:00","2004","09","28","13:00","17.5","","12.8","","74","","36","","26","","24.1","","99.45","","","","","","Cloudy"
"2004-09-28 14:00","2004","09","28","14:00","18.8","","11.4","","62","","36","","32","","24.1","","99.46","","","","","","Mostly Cloudy"
"2004-09-28 15:00","2004","09","28","15:00","19.8","","10.9","","56","","2","","33","","24.1","","99.43","","","","","","Mostly Cloudy"
"2004-09-28 16:00","2004","09","28","16:00","19.2","","10.1","","56","","2","","24","","24.1","","99.42","","","","","","Mostly Cloudy"
"2004-09-28 17:00","2004","09","28","17:00","19.0","","10.0","","56","","1","","24","","24.1","","99.44","","","","","","Mostly Cloudy"
"2004-09-28 18:00","2004","09","28","18:00","17.4","","9.4","","59","","36","","26","","24.1","","99.51","","","","","","Mainly Clear"
"2004-09-28 19:00","2004","09","28","19:00","16.7","","8.1","","57","","2","","24","","24.1","","99.57","","","","","","Mostly Cloudy"
"2004-09-28 20:00","2004","09","28","20:00","15.4","","7.5","","59","","1","","20","","24.1","","99.66","","","","","","Mainly Clear"
"2004-09-28 21:00","2004","09","28","21:00","14.2","","7.3","","63","","1","","20","","24.1","","99.70","","","","","","Clear"
"2004-09-28 22:00","2004","09","28","22:00","12.7","","6.9","","68","","36","","17","","24.1","","99.73","","","","","","Clear"
"2004-09-28 23:00","2004","09","28","23:00","11.4","","6.6","","72","","36","","17","","24.1","","99.72","","","","","","Clear"
"2004-09-29 00:00","2004","09","29","00:00","10.5","","6.2","","75","","36","","17","","24.1","","99.75","","","","","","Clear"
"2004-09-29 01:00","2004","09","29","01:00","9.4","","6.0","","79","","36","","20","","24.1","","99.76","","","","","","Clear"
"2004-09-29 02:00","2004","09","29","02:00","8.8","","5.7","","81","","36","","19","","24.1","","99.73","","","","","","Clear"
"2004-09-29 03:00","2004","09","29","03:00","8.2","","5.4","","82","","36","","19","","24.1","","99.72","","","","","","Clear"
"2004-09-29 04:00","2004","09","29","04:00","7.6","","5.2","","85","","36","","19","","24.1","","99.71","","","","","","Clear"
"2004-09-29 05:00","2004","09","29","05:00","7.3","","5.0","","85","","34","","13","","24.1","","99.73","","","","","","Mainly Clear"
"2004-09-29 06:00","2004","09","29","06:00","6.9","","5.2","","89","","36","","20","","24.1","","99.77","","","","","","Clear"
"2004-09-29 07:00","2004","09","29","07:00","7.2","","5.4","","88","","35","","17","","24.1","","99.83","","","","","","Mainly Clear"
"2004-09-29 08:00","2004","09","29","08:00","9.0","","6.1","","82","","36","","19","","24.1","","99.85","","","","","","Clear"
"2004-09-29 09:00","2004","09","29","09:00","12.3","","7.2","","71","","36","","17","","24.1","","99.87","","","","","","Clear"
"2004-09-29 10:00","2004","09","29","10:00","14.6","","7.5","","62","","36","","13","","24.1","","99.87","","","","","","Clear"
"2004-09-29 11:00","2004","09","29","11:00","16.3","","7.1","","54","","7","","11","","24.1","","99.86","","","","","","Mainly Clear"
"2004-09-29 12:00","2004","09","29","12:00","16.9","","6.9","","52","","3","","9","","24.1","","99.80","","","","","","Mainly Clear"
"2004-09-29 13:00","2004","09","29","13:00","18.1","","6.7","","47","","5","","13","","24.1","","99.72","","","","","","Clear"
"2004-09-29 14:00","2004","09","29","14:00","17.5","","7.7","","53","","9","","11","","24.1","","99.68","","","","","","Clear"
"2004-09-29 15:00","2004","09","29","15:00","17.7","","7.9","","53","","18","","15","","24.1","","99.61","","","","","","Clear"
"2004-09-29 16:00","2004","09","29","16:00","17.1","","7.7","","54","","16","","9","","24.1","","99.54","","","","","","Clear"
"2004-09-29 17:00","2004","09","29","17:00","16.2","","7.9","","58","","16","","13","","24.1","","99.57","","","","","","Clear"
"2004-09-29 18:00","2004","09","29","18:00","14.9","","7.9","","63","","18","","11","","24.1","","99.61","","","","","","Clear"
"2004-09-29 19:00","2004","09","29","19:00","14.5","","7.7","","64","","18","","7","","24.1","","99.61","","","","","","Clear"
"2004-09-29 20:00","2004","09","29","20:00","13.8","","7.7","","67","","23","","4","","24.1","","99.61","","","","","","Clear"
"2004-09-29 21:00","2004","09","29","21:00","12.8","","7.9","","72","","32","","13","","24.1","","99.61","","","","","","Mainly Clear"
"2004-09-29 22:00","2004","09","29","22:00","11.8","","7.7","","76","","36","","9","","24.1","","99.63","","","","","","Mainly Clear"
"2004-09-29 23:00","2004","09","29","23:00","11.4","","7.2","","75","","34","","15","","24.1","","99.62","","","","","","Clear"
"2004-09-30 00:00","2004","09","30","00:00","11.0","","7.2","","77","","33","","11","","24.1","","99.61","","","","","","Mostly Cloudy"
"2004-09-30 01:00","2004","09","30","01:00","11.3","","7.3","","76","","32","","7","","24.1","","99.62","","","","","","Mostly Cloudy"
"2004-09-30 02:00","2004","09","30","02:00","11.4","","7.0","","74","","33","","9","","24.1","","99.58","","","","","","Mostly Cloudy"
"2004-09-30 03:00","2004","09","30","03:00","11.1","","7.0","","76","","32","","9","","24.1","","99.58","","","","","","Mostly Cloudy"
"2004-09-30 04:00","2004","09","30","04:00","11.6","","7.2","","74","","35","","4","","24.1","","99.60","","","","","","Mostly Cloudy"
"2004-09-30 05:00","2004","09","30","05:00","11.3","","6.2","","71","","34","","13","","24.1","","99.60","","","","","","Mostly Cloudy"
"2004-09-30 06:00","2004","09","30","06:00","11.6","","5.5","","66","","32","","7","","24.1","","99.63","","","","","","Mostly Cloudy"
"2004-09-30 07:00","2004","09","30","07:00","11.7","","5.8","","67","","30","","7","","24.1","","99.69","","","","","","Mostly Cloudy"
"2004-09-30 08:00","2004","09","30","08:00","12.8","","6.9","","67","","31","","6","","24.1","","99.72","","","","","","Mostly Cloudy"
"2004-09-30 09:00","2004","09","30","09:00","14.3","","8.1","","66","","32","","9","","24.1","","99.76","","","","","","Mostly Cloudy"
"2004-09-30 10:00","2004","09","30","10:00","15.0","","8.0","","63","","26","","6","","24.1","","99.75","","","","","","Mainly Clear"
"2004-09-30 11:00","2004","09","30","11:00","17.7","","5.5","","45","","23","","7","","24.1","","99.73","","","","","","Mainly Clear"
"2004-09-30 12:00","2004","09","30","12:00","18.8","","5.7","","42","","29","","9","","24.1","","99.71","","","","","","Mainly Clear"
"2004-09-30 13:00","2004","09","30","13:00","20.6","","8.5","","46","","28","","7","","24.1","","99.65","","","","","","Mainly Clear"
"2004-09-30 14:00","2004","09","30","14:00","20.5","","7.8","","44","","27","","6","","24.1","","99.63","","","","","","Mainly Clear"
"2004-09-30 15:00","2004","09","30","15:00","21.7","","7.8","","41","","29","","11","","24.1","","99.61","","","","","","Mainly Clear"
"2004-09-30 16:00","2004","09","30","16:00","20.7","","8.0","","44","","31","","7","","24.1","","99.62","","","","","","Mainly Clear"
"2004-09-30 17:00","2004","09","30","17:00","21.1","","8.3","","44","","32","","13","","24.1","","99.63","","","","","","Mainly Clear"
"2004-09-30 18:00","2004","09","30","18:00","19.3","","8.0","","48","","27","","15","","24.1","","99.67","","","","","","Mainly Clear"
"2004-09-30 19:00","2004","09","30","19:00","17.9","","7.1","","49","","30","","11","","24.1","","99.72","","","","","","Clear"
"2004-09-30 20:00","2004","09","30","20:00","16.7","","7.2","","53","","34","","15","","24.1","","99.79","","","","","","Clear"
"2004-09-30 21:00","2004","09","30","21:00","15.1","","7.4","","60","","35","","15","","24.1","","99.81","","","","","","Clear"
"2004-09-30 22:00","2004","09","30","22:00","13.4","","7.5","","67","","33","","7","","24.1","","99.83","","","","","","Clear"
"2004-09-30 23:00","2004","09","30","23:00","12.2","","6.3","","67","","30","","9","","24.1","","99.88","","","","","","Clear"
