"Station Name","TORONTO LESTER B. PEARSON INT'L A"
"Province","ONTARIO"
"Latitude","43.68"
"Longitude","-79.63"
"Elevation","173.40"
"Climate Identifier","6158733"
"WMO Identifier","71624"
"TC Identifier","YYZ"
"All times are specified in Local Standard Time (LST). Add 1 hour to adjust for Daylight Saving Time where and when it is observed."

"Legend"
"E","Estimated"
"M","Missing"
"NA","Not Available"

"Date/Time","Year","Month","Day","Time","Temp (°C)","Temp Flag","Dew Point Temp (°C)","Dew Point Temp Flag","Rel Hum (%)","Rel Hum Flag","Wind Dir (10s deg)","Wind Dir Flag","Wind Spd (km/h)","Wind Spd Flag","Visibility (km)","Visibility Flag","Stn Press (kPa)","Stn Press Flag","Hmdx","Hmdx Flag","Wind Chill","Wind Chill Flag","Weather"
"1992-11-01 00:00","1992","11","01","00:00","3.0","","-4.5","","58","","6","","17","","25.0","","100.51","","","","","","Mostly Cloudy"
"1992-11-01 01:00","1992","11","01","01:00","2.9","","-5.1","","56","","6","","17","","25.0","","100.54","","","","","","Cloudy"
"1992-11-01 02:00","1992","11","01","02:00","2.0","","-6.0","","55","","6","","20","","24.1","","100.57","","","","","","Mostly Cloudy"
"1992-11-01 03:00","1992","11","01","03:00","1.3","","-5.4","","61","","5","","17","","24.1","","100.61","","","","","","Cloudy"
"1992-11-01 04:00","1992","11","01","04:00","0.7","","-6.9","","57","","6","","19","","24.1","","100.61","","","","","","Mostly Cloudy"
"1992-11-01 05:00","1992","11","01","05:00","-0.9","","-6.7","","64","","5","","15","","24.1","","100.61","","","","-6","","Mainly Clear"
"1992-11-01 06:00","1992","11","01","06:00","-1.4","","-6.7","","67","","4","","11","","24.1","","100.67","","","","-5","","Mainly Clear"
"1992-11-01 07:00","1992","11","01","07:00","-2.0","","-6.4","","72","","3","","13","","24.1","","100.71","","","","-6","","Mainly Clear"
"1992-11-01 08:00","1992","11","01","08:00","-1.8","","-6.4","","71","","5","","15","","40.2","","100.77","","","","-7","","Mainly Clear"
"1992-11-01 09:00","1992","11","01","09:00","-0.5","","-5.6","","68","","8","","15","","40.2","","100.84","","","","-5","","Mostly Cloudy"
"1992-11-01 10:00","1992","11","01","10:00","1.5","","-4.1","","66","","8","","26","","40.2","","100.77","","","","","","Mostly Cloudy"
"1992-11-01 11:00","1992","11","01","11:00","2.5","","-3.9","","63","","8","","22","","40.2","","100.77","","","","","","Mainly Clear"
"1992-11-01 12:00","1992","11","01","12:00","2.6","","-3.9","","62","","11","","22","","40.2","","100.71","","","","","","Mainly Clear"
"1992-11-01 13:00","1992","11","01","13:00","2.6","","-3.9","","62","","9","","19","","40.2","","100.61","","","","","","Mainly Clear"
"1992-11-01 14:00","1992","11","01","14:00","2.8","","-4.5","","59","","11","","20","","40.2","","100.54","","","","","","Mostly Cloudy"
"1992-11-01 15:00","1992","11","01","15:00","2.8","","-4.5","","59","","11","","20","","40.2","","100.51","","","","","","Cloudy"
"1992-11-01 16:00","1992","11","01","16:00","2.2","","-4.0","","63","","9","","22","","40.2","","100.51","","","","","","Cloudy"
"1992-11-01 17:00","1992","11","01","17:00","2.2","","-4.0","","63","","10","","24","","40.2","","100.51","","","","","","Cloudy"
"1992-11-01 18:00","1992","11","01","18:00","2.5","","-3.9","","63","","11","","22","","25.0","","100.51","","","","","","Cloudy"
"1992-11-01 19:00","1992","11","01","19:00","3.2","","-3.8","","60","","11","","30","","25.0","","100.47","","","","","","Cloudy"
"1992-11-01 20:00","1992","11","01","20:00","3.7","","-3.2","","60","","9","","31","","25.0","","100.41","","","","","","Cloudy"
"1992-11-01 21:00","1992","11","01","21:00","3.3","","-0.9","","74","","9","","37","","25.0","","100.34","","","","","","Cloudy"
"1992-11-01 22:00","1992","11","01","22:00","3.2","","-0.9","","74","","9","","30","","25.0","","100.31","","","","","","Cloudy"
"1992-11-01 23:00","1992","11","01","23:00","3.0","","0.2","","82","","9","","37","","24.1","","100.27","","","","","","Cloudy"
"1992-11-02 00:00","1992","11","02","00:00","2.5","","0.6","","87","","9","","33","","19.3","","100.14","","","","","","Ice Pellets"
"1992-11-02 01:00","1992","11","02","01:00","2.8","","0.7","","86","","9","","33","","24.1","","100.14","","","","","","Rain,Ice Pellets"
"1992-11-02 02:00","1992","11","02","02:00","3.0","","1.1","","87","","10","","26","","16.1","","100.07","","","","","","Rain,Ice Pellets"
"1992-11-02 03:00","1992","11","02","03:00","3.4","","1.7","","89","","10","","28","","12.9","","99.97","","","","","","Rain"
"1992-11-02 04:00","1992","11","02","04:00","3.2","","0.7","","84","","10","","30","","16.1","","99.84","","","","","","Rain"
"1992-11-02 05:00","1992","11","02","05:00","3.3","","2.2","","93","","11","","37","","12.9","","99.77","","","","","","Rain"
"1992-11-02 06:00","1992","11","02","06:00","3.2","","2.1","","92","","10","","39","","12.9","","99.67","","","","","","Rain"
"1992-11-02 07:00","1992","11","02","07:00","3.7","","2.2","","90","","10","","37","","16.1","","99.61","","","","","","Rain"
"1992-11-02 08:00","1992","11","02","08:00","3.7","","2.2","","90","","11","","41","","6.4","","99.57","","","","","","Rain,Fog"
"1992-11-02 09:00","1992","11","02","09:00","3.2","","2.6","","96","","11","","30","","4.8","","99.47","","","","","","Rain,Fog"
"1992-11-02 10:00","1992","11","02","10:00","3.4","","3.1","","98","","11","","44","","4.8","","99.37","","","","","","Rain,Fog"
"1992-11-02 11:00","1992","11","02","11:00","3.6","","2.2","","91","","10","","33","","6.4","","99.34","","","","","","Rain,Fog"
"1992-11-02 12:00","1992","11","02","12:00","3.8","","3.1","","95","","10","","44","","6.4","","99.17","","","","","","Rain,Fog"
"1992-11-02 13:00","1992","11","02","13:00","4.2","","3.6","","96","","10","","33","","6.4","","99.04","","","","","","Rain,Fog"
"1992-11-02 14:00","1992","11","02","14:00","4.9","","4.6","","98","","11","","37","","6.4","","98.94","","","","","","Rain,Drizzle,Fog"
"1992-11-02 15:00","1992","11","02","15:00","5.3","","4.7","","96","","10","","37","","9.7","","98.84","","","","","","Fog"
"1992-11-02 16:00","1992","11","02","16:00","5.7","","4.7","","93","","10","","41","","12.9","","98.77","","","","","","Cloudy"
"1992-11-02 17:00","1992","11","02","17:00","6.0","","5.2","","95","","10","","41","","4.8","","98.67","","","","","","Rain Showers,Fog"
"1992-11-02 18:00","1992","11","02","18:00","6.1","","5.2","","94","","10","","33","","12.9","","98.71","","","","","","Cloudy"
"1992-11-02 19:00","1992","11","02","19:00","6.5","","5.7","","95","","10","","33","","11.3","","98.64","","","","","","Rain Showers"
"1992-11-02 20:00","1992","11","02","20:00","6.5","","6.5","","100","","9","","35","","8.0","","98.54","","","","","","Rain Showers,Fog"
"1992-11-02 21:00","1992","11","02","21:00","6.8","","6.8","","100","","10","","22","","6.4","","98.67","","","","","","Rain,Fog"
"1992-11-02 22:00","1992","11","02","22:00","7.3","","7.1","","99","","10","","24","","6.4","","98.61","","","","","","Drizzle,Fog"
"1992-11-02 23:00","1992","11","02","23:00","7.9","","7.6","","98","","12","","15","","4.8","","98.64","","","","","","Fog"
"1992-11-03 00:00","1992","11","03","00:00","8.9","","8.6","","98","","15","","19","","6.4","","98.71","","","","","","Fog"
"1992-11-03 01:00","1992","11","03","01:00","9.4","","8.8","","96","","14","","15","","6.4","","98.64","","","","","","Fog"
"1992-11-03 02:00","1992","11","03","02:00","9.1","","8.6","","97","","12","","17","","16.1","","98.61","","","","","","Cloudy"
"1992-11-03 03:00","1992","11","03","03:00","9.5","","8.4","","93","","18","","9","","19.3","","98.71","","","","","","Cloudy"
"1992-11-03 04:00","1992","11","03","04:00","9.4","","8.0","","91","","20","","11","","12.9","","98.71","","","","","","Mostly Cloudy"
"1992-11-03 05:00","1992","11","03","05:00","10.0","","6.9","","81","","22","","17","","11.3","","98.84","","","","","","Cloudy"
"1992-11-03 06:00","1992","11","03","06:00","9.5","","6.8","","83","","22","","24","","11.3","","98.91","","","","","","Rain Showers"
"1992-11-03 07:00","1992","11","03","07:00","9.4","","5.6","","77","","22","","19","","24.1","","98.94","","","","","","Mostly Cloudy"
"1992-11-03 08:00","1992","11","03","08:00","9.2","","6.3","","82","","23","","19","","24.1","","99.07","","","","","","Mostly Cloudy"
"1992-11-03 09:00","1992","11","03","09:00","9.7","","5.6","","76","","23","","19","","24.1","","99.14","","","","","","Mostly Cloudy"
"1992-11-03 10:00","1992","11","03","10:00","10.2","","3.9","","65","","24","","28","","40.2","","99.17","","","","","","Mostly Cloudy"
"1992-11-03 11:00","1992","11","03","11:00","10.6","","3.5","","61","","23","","31","","40.2","","99.21","","","","","","Mainly Clear"
"1992-11-03 12:00","1992","11","03","12:00","11.1","","4.6","","64","","23","","26","","40.2","","99.14","","","","","","Mainly Clear"
"1992-11-03 13:00","1992","11","03","13:00","12.6","","5.1","","60","","21","","22","","40.2","","99.11","","","","","","Mainly Clear"
"1992-11-03 14:00","1992","11","03","14:00","12.2","","4.0","","57","","21","","26","","40.2","","99.14","","","","","","Mostly Cloudy"
"1992-11-03 15:00","1992","11","03","15:00","12.8","","4.8","","58","","22","","22","","40.2","","99.14","","","","","","Mostly Cloudy"
"1992-11-03 16:00","1992","11","03","16:00","12.7","","4.1","","56","","22","","20","","40.2","","99.21","","","","","","Mainly Clear"
"1992-11-03 17:00","1992","11","03","17:00","11.0","","5.1","","67","","25","","4","","40.2","","99.24","","","","","","Mainly Clear"
"1992-11-03 18:00","1992","11","03","18:00","10.8","","4.6","","66","","","","0","","25.0","","99.21","","","","","","Mostly Cloudy"
"1992-11-03 19:00","1992","11","03","19:00","10.2","","4.8","","69","","14","","7","","25.0","","99.21","","","","","","Mostly Cloudy"
"1992-11-03 20:00","1992","11","03","20:00","10.5","","4.9","","68","","14","","9","","25.0","","99.17","","","","","","Cloudy"
"1992-11-03 21:00","1992","11","03","21:00","8.5","","5.7","","83","","","","0","","25.0","","99.14","","","","","","Mainly Clear"
"1992-11-03 22:00","1992","11","03","22:00","8.6","","4.9","","77","","10","","4","","24.1","","99.11","","","","","","Mainly Clear"
"1992-11-03 23:00","1992","11","03","23:00","9.2","","5.0","","75","","9","","4","","24.1","","99.04","","","","","","Cloudy"
"1992-11-04 00:00","1992","11","04","00:00","9.3","","5.6","","78","","10","","7","","19.3","","99.01","","","","","","Cloudy"
"1992-11-04 01:00","1992","11","04","01:00","9.2","","5.0","","75","","","","0","","19.3","","98.91","","","","","","Cloudy"
"1992-11-04 02:00","1992","11","04","02:00","8.7","","5.3","","79","","","","0","","19.3","","98.81","","","","","","Mostly Cloudy"
"1992-11-04 03:00","1992","11","04","03:00","8.8","","6.3","","84","","14","","6","","16.1","","98.71","","","","","","Cloudy"
"1992-11-04 04:00","1992","11","04","04:00","10.1","","6.1","","76","","13","","13","","19.3","","98.54","","","","","","Cloudy"
"1992-11-04 05:00","1992","11","04","05:00","10.0","","6.1","","77","","16","","6","","19.3","","98.54","","","","","","Cloudy"
"1992-11-04 06:00","1992","11","04","06:00","10.2","","6.1","","76","","17","","6","","24.1","","98.51","","","","","","Cloudy"
"1992-11-04 07:00","1992","11","04","07:00","11.1","","6.4","","73","","19","","9","","19.3","","98.41","","","","","","Rain"
"1992-11-04 08:00","1992","11","04","08:00","11.8","","8.7","","82","","20","","11","","12.9","","98.37","","","","","","Rain"
"1992-11-04 09:00","1992","11","04","09:00","11.1","","9.6","","90","","22","","19","","6.4","","98.41","","","","","","Rain,Fog"
"1992-11-04 10:00","1992","11","04","10:00","11.0","","9.9","","93","","21","","17","","12.9","","98.34","","","","","","Rain"
"1992-11-04 11:00","1992","11","04","11:00","11.1","","9.9","","92","","18","","15","","9.7","","98.27","","","","","","Rain,Fog"
"1992-11-04 12:00","1992","11","04","12:00","11.3","","10.4","","94","","21","","11","","9.7","","98.21","","","","","","Fog"
"1992-11-04 13:00","1992","11","04","13:00","11.7","","10.1","","90","","24","","15","","12.9","","98.21","","","","","","Cloudy"
"1992-11-04 14:00","1992","11","04","14:00","8.9","","6.7","","86","","27","","19","","16.1","","98.27","","","","","","Cloudy"
"1992-11-04 15:00","1992","11","04","15:00","8.1","","5.2","","82","","27","","22","","19.3","","98.37","","","","","","Cloudy"
"1992-11-04 16:00","1992","11","04","16:00","6.8","","3.6","","80","","26","","26","","24.1","","98.51","","","","","","Cloudy"
"1992-11-04 17:00","1992","11","04","17:00","6.0","","3.0","","81","","27","","11","","24.1","","98.57","","","","","","Mostly Cloudy"
"1992-11-04 18:00","1992","11","04","18:00","5.7","","2.4","","79","","26","","19","","24.1","","98.71","","","","","","Cloudy"
"1992-11-04 19:00","1992","11","04","19:00","5.0","","1.4","","77","","27","","17","","25.0","","98.74","","","","","","Mostly Cloudy"
"1992-11-04 20:00","1992","11","04","20:00","4.8","","1.4","","79","","28","","19","","25.0","","98.81","","","","","","Mostly Cloudy"
"1992-11-04 21:00","1992","11","04","21:00","4.8","","0.9","","76","","28","","15","","25.0","","98.91","","","","","","Cloudy"
"1992-11-04 22:00","1992","11","04","22:00","4.7","","-0.8","","67","","27","","22","","25.0","","98.94","","","","","","Cloudy"
"1992-11-04 23:00","1992","11","04","23:00","4.4","","-0.8","","69","","28","","19","","25.0","","99.01","","","","","","Cloudy"
"1992-11-05 00:00","1992","11","05","00:00","4.1","","-1.9","","65","","27","","22","","25.0","","99.04","","","","","","Cloudy"
"1992-11-05 01:00","1992","11","05","01:00","4.1","","-1.4","","67","","26","","11","","25.0","","99.07","","","","","","Cloudy"
"1992-11-05 02:00","1992","11","05","02:00","3.9","","-0.3","","74","","24","","19","","25.0","","99.11","","","","","","Cloudy"
"1992-11-05 03:00","1992","11","05","03:00","3.7","","-0.3","","75","","24","","19","","25.0","","99.11","","","","","","Cloudy"
"1992-11-05 04:00","1992","11","05","04:00","3.4","","0.2","","80","","24","","22","","25.0","","99.07","","","","","","Cloudy"
"1992-11-05 05:00","1992","11","05","05:00","3.2","","0.2","","81","","26","","19","","25.0","","99.04","","","","","","Cloudy"
"1992-11-05 06:00","1992","11","05","06:00","3.0","","0.2","","82","","24","","22","","25.0","","99.04","","","","","","Cloudy"
"1992-11-05 07:00","1992","11","05","07:00","3.0","","0.2","","82","","27","","19","","24.1","","99.01","","","","","","Mostly Cloudy"
"1992-11-05 08:00","1992","11","05","08:00","3.0","","0.7","","85","","25","","19","","12.9","","98.97","","","","","","Mostly Cloudy"
"1992-11-05 09:00","1992","11","05","09:00","3.3","","1.2","","86","","25","","17","","16.1","","99.07","","","","","","Cloudy"
"1992-11-05 10:00","1992","11","05","10:00","3.3","","1.7","","90","","24","","22","","12.9","","98.97","","","","","","Cloudy"
"1992-11-05 11:00","1992","11","05","11:00","4.0","","1.7","","85","","28","","13","","16.1","","98.91","","","","","","Cloudy"
"1992-11-05 12:00","1992","11","05","12:00","4.7","","1.8","","81","","22","","7","","12.9","","98.91","","","","","","Cloudy"
"1992-11-05 13:00","1992","11","05","13:00","4.3","","2.3","","87","","23","","22","","11.3","","98.87","","","","","","Cloudy"
"1992-11-05 14:00","1992","11","05","14:00","4.7","","1.3","","78","","29","","9","","12.9","","98.71","","","","","","Cloudy"
"1992-11-05 15:00","1992","11","05","15:00","4.6","","1.3","","79","","28","","11","","12.9","","98.67","","","","","","Rain Showers"
"1992-11-05 16:00","1992","11","05","16:00","3.8","","2.2","","90","","23","","15","","8.0","","98.71","","","","","","Rain,Fog"
"1992-11-05 17:00","1992","11","05","17:00","3.2","","1.6","","89","","26","","7","","8.0","","98.74","","","","","","Rain,Fog"
"1992-11-05 18:00","1992","11","05","18:00","3.0","","2.1","","94","","25","","13","","12.9","","98.77","","","","","","Rain"
"1992-11-05 19:00","1992","11","05","19:00","2.7","","1.6","","92","","28","","9","","16.1","","98.84","","","","","","Rain"
"1992-11-05 20:00","1992","11","05","20:00","2.9","","1.6","","91","","29","","7","","16.1","","98.91","","","","","","Rain"
"1992-11-05 21:00","1992","11","05","21:00","2.0","","0.6","","90","","27","","7","","25.0","","98.91","","","","","","Mostly Cloudy"
"1992-11-05 22:00","1992","11","05","22:00","1.4","","0.5","","94","","26","","11","","25.0","","98.91","","","","","","Clear"
"1992-11-05 23:00","1992","11","05","23:00","1.6","","-0.5","","86","","28","","15","","25.0","","98.91","","","","","","Clear"
"1992-11-06 00:00","1992","11","06","00:00","1.4","","-0.5","","87","","26","","15","","25.0","","98.94","","","","","","Clear"
"1992-11-06 01:00","1992","11","06","01:00","1.2","","-0.5","","88","","27","","11","","25.0","","98.97","","","","","","Clear"
"1992-11-06 02:00","1992","11","06","02:00","1.5","","0.0","","90","","27","","15","","25.0","","98.97","","","","","","Clear"
"1992-11-06 03:00","1992","11","06","03:00","1.7","","-0.5","","85","","26","","22","","25.0","","99.01","","","","","","Clear"
"1992-11-06 04:00","1992","11","06","04:00","1.3","","-0.5","","88","","28","","11","","25.0","","99.04","","","","","","Clear"
"1992-11-06 05:00","1992","11","06","05:00","0.8","","-0.5","","91","","28","","11","","25.0","","99.14","","","","","","Mainly Clear"
"1992-11-06 06:00","1992","11","06","06:00","1.0","","-1.0","","86","","29","","11","","25.0","","99.31","","","","","","Mostly Cloudy"
"1992-11-06 07:00","1992","11","06","07:00","1.7","","-1.0","","82","","32","","13","","25.0","","99.41","","","","","","Mainly Clear"
"1992-11-06 08:00","1992","11","06","08:00","1.4","","-1.0","","84","","32","","17","","19.3","","99.51","","","","","","Mainly Clear"
"1992-11-06 09:00","1992","11","06","09:00","1.9","","-2.1","","75","","32","","31","","24.1","","99.61","","","","","","Mainly Clear"
"1992-11-06 10:00","1992","11","06","10:00","3.0","","-2.0","","70","","32","","28","","24.1","","99.71","","","","","","Mainly Clear"
"1992-11-06 11:00","1992","11","06","11:00","2.4","","-3.2","","66","","32","","28","","24.1","","99.81","","","","","","Mostly Cloudy"
"1992-11-06 12:00","1992","11","06","12:00","2.0","","-2.1","","74","","34","","19","","24.1","","99.77","","","","","","Mostly Cloudy"
"1992-11-06 13:00","1992","11","06","13:00","1.4","","-2.1","","77","","34","","20","","24.1","","99.84","","","","","","Cloudy"
"1992-11-06 14:00","1992","11","06","14:00","1.4","","-3.5","","70","","33","","20","","24.1","","99.91","","","","","","Cloudy"
"1992-11-06 15:00","1992","11","06","15:00","1.4","","-4.1","","67","","33","","19","","24.1","","99.94","","","","","","Mostly Cloudy"
"1992-11-06 16:00","1992","11","06","16:00","0.4","","-4.4","","70","","34","","20","","24.1","","100.04","","","","","","Mostly Cloudy"
"1992-11-06 17:00","1992","11","06","17:00","0.0","","-3.7","","76","","33","","20","","24.1","","100.14","","","","-5","","Cloudy"
"1992-11-06 18:00","1992","11","06","18:00","-0.5","","-3.8","","78","","31","","24","","25.0","","100.11","","","","-6","","Mostly Cloudy"
"1992-11-06 19:00","1992","11","06","19:00","-0.8","","-5.7","","69","","32","","17","","25.0","","100.24","","","","-6","","Mostly Cloudy"
"1992-11-06 20:00","1992","11","06","20:00","-1.0","","-3.8","","81","","32","","19","","25.0","","100.31","","","","-6","","Mostly Cloudy"
"1992-11-06 21:00","1992","11","06","21:00","-1.1","","-4.1","","80","","29","","19","","25.0","","100.31","","","","-6","","Mostly Cloudy"
"1992-11-06 22:00","1992","11","06","22:00","-1.1","","-6.7","","66","","33","","19","","25.0","","100.31","","","","-6","","Mostly Cloudy"
"1992-11-06 23:00","1992","11","06","23:00","-2.0","","-7.0","","68","","1","","15","","25.0","","100.37","","","","-7","","Mainly Clear"
"1992-11-07 00:00","1992","11","07","00:00","-3.5","","-7.3","","75","","1","","11","","25.0","","100.44","","","","-8","","Mainly Clear"
"1992-11-07 01:00","1992","11","07","01:00","-4.0","","-7.6","","76","","1","","17","","25.0","","100.47","","","","-10","","Mainly Clear"
"1992-11-07 02:00","1992","11","07","02:00","-4.6","","-7.6","","79","","1","","15","","25.0","","100.47","","","","-10","","Mainly Clear"
"1992-11-07 03:00","1992","11","07","03:00","-5.2","","-8.6","","77","","1","","15","","25.0","","100.51","","","","-11","","Clear"
"1992-11-07 04:00","1992","11","07","04:00","-5.7","","-8.5","","81","","1","","11","","25.0","","100.54","","","","-10","","Mainly Clear"
"1992-11-07 05:00","1992","11","07","05:00","-6.1","","-8.8","","81","","1","","13","","25.0","","100.57","","","","-11","","Mainly Clear"
"1992-11-07 06:00","1992","11","07","06:00","-6.6","","-9.0","","83","","35","","4","","25.0","","100.67","","","","-9","","Mainly Clear"
"1992-11-07 07:00","1992","11","07","07:00","-7.1","","-9.3","","84","","35","","7","","32.2","","100.74","","","","-11","","Mainly Clear"
"1992-11-07 08:00","1992","11","07","08:00","-6.4","","-8.3","","86","","35","","9","","32.2","","100.77","","","","-11","","Mainly Clear"
"1992-11-07 09:00","1992","11","07","09:00","-5.5","","-8.5","","79","","33","","4","","32.2","","100.81","","","","-7","","Mainly Clear"
"1992-11-07 10:00","1992","11","07","10:00","-4.0","","-8.3","","72","","34","","7","","40.2","","100.81","","","","-7","","Mainly Clear"
"1992-11-07 11:00","1992","11","07","11:00","-3.3","","-8.0","","70","","34","","9","","40.2","","100.77","","","","-7","","Mainly Clear"
"1992-11-07 12:00","1992","11","07","12:00","-2.1","","-6.4","","72","","","","0","","40.2","","100.74","","","","","","Mainly Clear"
"1992-11-07 13:00","1992","11","07","13:00","-1.5","","-7.4","","64","","","","0","","40.2","","100.71","","","","","","Mainly Clear"
"1992-11-07 14:00","1992","11","07","14:00","-1.0","","-7.7","","60","","5","","9","","40.2","","100.67","","","","-4","","Mainly Clear"
"1992-11-07 15:00","1992","11","07","15:00","-0.4","","-5.9","","66","","13","","6","","40.2","","100.64","","","","-2","","Mainly Clear"
"1992-11-07 16:00","1992","11","07","16:00","-1.5","","-6.0","","71","","8","","7","","40.2","","100.61","","","","-4","","Mainly Clear"
"1992-11-07 17:00","1992","11","07","17:00","-1.9","","-8.1","","62","","11","","7","","25.0","","100.64","","","","-5","","Mainly Clear"
"1992-11-07 18:00","1992","11","07","18:00","-2.5","","-8.1","","65","","14","","6","","25.0","","100.67","","","","-5","","Mainly Clear"
"1992-11-07 19:00","1992","11","07","19:00","-2.4","","-7.7","","67","","11","","6","","25.0","","100.74","","","","-5","","Mostly Cloudy"
"1992-11-07 20:00","1992","11","07","20:00","-2.5","","-8.1","","65","","","","0","","25.0","","100.74","","","","","","Mainly Clear"
"1992-11-07 21:00","1992","11","07","21:00","-2.2","","-6.0","","75","","","","0","","25.0","","100.71","","","","","","Mostly Cloudy"
"1992-11-07 22:00","1992","11","07","22:00","-1.8","","-6.4","","71","","","","0","","25.0","","100.74","","","","","","Mostly Cloudy"
"1992-11-07 23:00","1992","11","07","23:00","-2.2","","-5.4","","79","","34","","4","","25.0","","100.74","","","","-4","","Mostly Cloudy"
"1992-11-08 00:00","1992","11","08","00:00","-2.5","","-6.4","","75","","","","0","","25.0","","100.71","","","","","","Mostly Cloudy"
"1992-11-08 01:00","1992","11","08","01:00","-2.2","","-5.4","","79","","","","0","","25.0","","100.71","","","","","","Mostly Cloudy"
"1992-11-08 02:00","1992","11","08","02:00","-2.5","","-6.4","","75","","","","0","","25.0","","100.74","","","","","","Mostly Cloudy"
"1992-11-08 03:00","1992","11","08","03:00","-4.0","","-7.0","","80","","","","0","","25.0","","100.77","","","","","","Mostly Cloudy"
"1992-11-08 04:00","1992","11","08","04:00","-4.0","","-6.3","","84","","34","","4","","25.0","","100.81","","","","-6","","Mostly Cloudy"
"1992-11-08 05:00","1992","11","08","05:00","-3.3","","-6.0","","81","","1","","9","","25.0","","100.84","","","","-7","","Mostly Cloudy"
"1992-11-08 06:00","1992","11","08","06:00","-3.2","","-5.1","","87","","33","","4","","9.7","","100.87","","","","-5","","Snow Showers"
"1992-11-08 07:00","1992","11","08","07:00","-2.8","","-6.0","","78","","35","","7","","16.1","","100.91","","","","-6","","Snow Showers"
"1992-11-08 08:00","1992","11","08","08:00","-3.0","","-5.1","","85","","4","","4","","16.1","","100.97","","","","-5","","Snow Showers"
"1992-11-08 09:00","1992","11","08","09:00","-2.4","","-5.7","","78","","5","","11","","24.1","","101.01","","","","-6","","Mostly Cloudy"
"1992-11-08 10:00","1992","11","08","10:00","-0.9","","-4.1","","79","","5","","7","","24.1","","101.01","","","","-3","","Mainly Clear"
"1992-11-08 11:00","1992","11","08","11:00","-0.2","","-4.3","","74","","","","0","","32.2","","101.04","","","","","","Mainly Clear"
"1992-11-08 12:00","1992","11","08","12:00","1.5","","-4.1","","66","","","","0","","32.2","","101.01","","","","","","Mainly Clear"
"1992-11-08 13:00","1992","11","08","13:00","1.2","","-4.2","","67","","","","0","","32.2","","100.91","","","","","","Mainly Clear"
"1992-11-08 14:00","1992","11","08","14:00","2.0","","-4.0","","64","","14","","6","","32.2","","100.87","","","","","","Mainly Clear"
"1992-11-08 15:00","1992","11","08","15:00","1.4","","-2.9","","73","","14","","9","","32.2","","100.91","","","","","","Mainly Clear"
"1992-11-08 16:00","1992","11","08","16:00","1.0","","-3.6","","71","","14","","9","","32.2","","100.91","","","","","","Mainly Clear"
"1992-11-08 17:00","1992","11","08","17:00","0.0","","-4.0","","74","","13","","7","","32.2","","100.91","","","","-2","","Clear"
"1992-11-08 18:00","1992","11","08","18:00","-0.6","","-4.4","","76","","11","","9","","25.0","","100.94","","","","-4","","Clear"
"1992-11-08 19:00","1992","11","08","19:00","-0.5","","-5.3","","70","","12","","6","","25.0","","100.97","","","","-3","","Clear"
"1992-11-08 20:00","1992","11","08","20:00","-0.7","","-4.7","","74","","13","","4","","25.0","","101.01","","","","-2","","Clear"
"1992-11-08 21:00","1992","11","08","21:00","-0.7","","-4.1","","78","","","","0","","25.0","","101.01","","","","","","Clear"
"1992-11-08 22:00","1992","11","08","22:00","-0.8","","-4.4","","76","","","","0","","25.0","","101.04","","","","","","Clear"
"1992-11-08 23:00","1992","11","08","23:00","-0.6","","-3.8","","79","","12","","7","","25.0","","101.01","","","","-3","","Clear"
"1992-11-09 00:00","1992","11","09","00:00","-1.2","","-3.3","","86","","","","0","","25.0","","101.07","","","","","","Clear"
"1992-11-09 01:00","1992","11","09","01:00","-3.5","","-5.4","","87","","","","0","","25.0","","101.11","","","","","","Clear"
"1992-11-09 02:00","1992","11","09","02:00","-4.0","","-5.4","","90","","","","0","","24.1","","101.11","","","","","","Mainly Clear"
"1992-11-09 03:00","1992","11","09","03:00","-3.4","","-5.1","","88","","","","0","","24.1","","101.11","","","","","","Mainly Clear"
"1992-11-09 04:00","1992","11","09","04:00","-0.7","","-2.7","","86","","11","","7","","24.1","","101.07","","","","-3","","Mostly Cloudy"
"1992-11-09 05:00","1992","11","09","05:00","-2.0","","-3.3","","91","","","","0","","24.1","","101.07","","","","","","Cloudy"
"1992-11-09 06:00","1992","11","09","06:00","0.2","","-2.3","","83","","14","","7","","24.1","","101.11","","","","","","Cloudy"
"1992-11-09 07:00","1992","11","09","07:00","1.4","","-2.4","","76","","14","","7","","24.1","","101.11","","","","","","Cloudy"
"1992-11-09 08:00","1992","11","09","08:00","1.8","","-2.1","","75","","13","","17","","24.1","","101.14","","","","","","Cloudy"
"1992-11-09 09:00","1992","11","09","09:00","2.2","","-0.4","","83","","14","","24","","6.4","","101.11","","","","","","Snow"
"1992-11-09 10:00","1992","11","09","10:00","1.6","","0.5","","92","","14","","20","","6.4","","101.11","","","","","","Snow"
"1992-11-09 11:00","1992","11","09","11:00","1.5","","0.5","","93","","13","","19","","4.8","","101.14","","","","","","Snow"
"1992-11-09 12:00","1992","11","09","12:00","2.2","","0.6","","89","","13","","17","","12.9","","101.07","","","","","","Rain"
"1992-11-09 13:00","1992","11","09","13:00","3.2","","0.7","","84","","12","","22","","16.1","","101.01","","","","","","Cloudy"
"1992-11-09 14:00","1992","11","09","14:00","4.0","","0.8","","79","","12","","22","","19.3","","100.97","","","","","","Cloudy"
"1992-11-09 15:00","1992","11","09","15:00","4.3","","0.8","","78","","14","","19","","11.3","","100.97","","","","","","Rain Showers"
"1992-11-09 16:00","1992","11","09","16:00","4.2","","1.7","","84","","14","","13","","11.3","","100.97","","","","","","Rain Showers"
"1992-11-09 17:00","1992","11","09","17:00","4.3","","2.7","","90","","12","","13","","12.9","","100.97","","","","","","Cloudy"
"1992-11-09 18:00","1992","11","09","18:00","4.4","","1.8","","83","","12","","17","","16.1","","100.97","","","","","","Cloudy"
"1992-11-09 19:00","1992","11","09","19:00","4.2","","1.3","","81","","13","","17","","19.3","","100.97","","","","","","Cloudy"
"1992-11-09 20:00","1992","11","09","20:00","4.2","","1.3","","81","","13","","19","","19.3","","100.97","","","","","","Cloudy"
"1992-11-09 21:00","1992","11","09","21:00","4.2","","1.7","","84","","12","","19","","19.3","","100.97","","","","","","Cloudy"
"1992-11-09 22:00","1992","11","09","22:00","4.0","","1.7","","85","","11","","15","","19.3","","100.91","","","","","","Cloudy"
"1992-11-09 23:00","1992","11","09","23:00","4.3","","2.3","","87","","12","","11","","19.3","","100.91","","","","","","Cloudy"
"1992-11-10 00:00","1992","11","10","00:00","4.6","","2.3","","85","","13","","15","","19.3","","100.91","","","","","","Cloudy"
"1992-11-10 01:00","1992","11","10","01:00","4.7","","2.3","","84","","11","","4","","19.3","","100.91","","","","","","Cloudy"
"1992-11-10 02:00","1992","11","10","02:00","4.8","","2.8","","87","","12","","11","","19.3","","100.87","","","","","","Cloudy"
"1992-11-10 03:00","1992","11","10","03:00","4.9","","2.4","","84","","12","","4","","19.3","","100.81","","","","","","Cloudy"
"1992-11-10 04:00","1992","11","10","04:00","5.0","","2.4","","83","","12","","4","","16.1","","100.81","","","","","","Cloudy"
"1992-11-10 05:00","1992","11","10","05:00","5.2","","2.4","","82","","11","","6","","16.1","","100.77","","","","","","Cloudy"
"1992-11-10 06:00","1992","11","10","06:00","5.3","","2.9","","85","","11","","7","","16.1","","100.71","","","","","","Cloudy"
"1992-11-10 07:00","1992","11","10","07:00","5.6","","2.4","","80","","13","","4","","16.1","","100.67","","","","","","Cloudy"
"1992-11-10 08:00","1992","11","10","08:00","6.1","","3.0","","80","","12","","15","","11.3","","100.67","","","","","","Mostly Cloudy"
"1992-11-10 09:00","1992","11","10","09:00","6.8","","3.6","","80","","12","","13","","11.3","","100.61","","","","","","Mostly Cloudy"
"1992-11-10 10:00","1992","11","10","10:00","7.7","","2.8","","71","","13","","17","","12.9","","100.54","","","","","","Mostly Cloudy"
"1992-11-10 11:00","1992","11","10","11:00","8.6","","3.5","","70","","14","","15","","16.1","","100.47","","","","","","Mostly Cloudy"
"1992-11-10 12:00","1992","11","10","12:00","8.7","","4.0","","72","","14","","13","","12.9","","100.41","","","","","","Rain Showers"
"1992-11-10 13:00","1992","11","10","13:00","9.6","","6.0","","78","","15","","13","","11.3","","100.27","","","","","","Rain Showers"
"1992-11-10 14:00","1992","11","10","14:00","10.3","","4.0","","65","","19","","15","","12.9","","100.21","","","","","","Rain Showers"
"1992-11-10 15:00","1992","11","10","15:00","10.7","","4.0","","63","","21","","22","","12.9","","100.11","","","","","","Rain Showers"
"1992-11-10 16:00","1992","11","10","16:00","9.2","","6.3","","82","","20","","22","","9.7","","100.07","","","","","","Rain"
"1992-11-10 17:00","1992","11","10","17:00","8.8","","6.7","","87","","20","","17","","6.4","","100.04","","","","","","Rain"
"1992-11-10 18:00","1992","11","10","18:00","8.2","","6.0","","86","","19","","15","","6.4","","100.04","","","","","","Rain,Fog"
"1992-11-10 19:00","1992","11","10","19:00","8.2","","6.4","","88","","19","","15","","8.0","","99.97","","","","","","Rain,Fog"
"1992-11-10 20:00","1992","11","10","20:00","8.5","","7.7","","95","","21","","20","","6.4","","99.91","","","","","","Rain,Fog"
"1992-11-10 21:00","1992","11","10","21:00","8.2","","7.2","","93","","21","","24","","6.4","","99.91","","","","","","Rain,Fog"
"1992-11-10 22:00","1992","11","10","22:00","8.2","","7.2","","93","","20","","24","","9.7","","99.84","","","","","","Rain,Fog"
"1992-11-10 23:00","1992","11","10","23:00","8.6","","7.4","","92","","20","","17","","9.7","","99.77","","","","","","Rain,Fog"
"1992-11-11 00:00","1992","11","11","00:00","9.0","","7.9","","93","","21","","17","","9.7","","99.77","","","","","","Rain,Fog"
"1992-11-11 01:00","1992","11","11","01:00","9.4","","8.4","","93","","22","","15","","9.7","","99.74","","","","","","Rain,Fog"
"1992-11-11 02:00","1992","11","11","02:00","9.6","","8.4","","92","","23","","15","","6.4","","99.71","","","","","","Drizzle,Fog"
"1992-11-11 03:00","1992","11","11","03:00","9.4","","8.8","","96","","23","","15","","8.0","","99.71","","","","","","Drizzle,Fog"
"1992-11-11 04:00","1992","11","11","04:00","9.6","","8.4","","92","","24","","15","","8.0","","99.64","","","","","","Drizzle,Fog"
"1992-11-11 05:00","1992","11","11","05:00","9.4","","8.8","","96","","23","","11","","4.8","","99.64","","","","","","Drizzle,Fog"
"1992-11-11 06:00","1992","11","11","06:00","9.4","","8.8","","96","","23","","7","","8.0","","99.71","","","","","","Drizzle,Fog"
"1992-11-11 07:00","1992","11","11","07:00","9.4","","8.8","","96","","21","","11","","6.4","","99.64","","","","","","Rain,Fog"
"1992-11-11 08:00","1992","11","11","08:00","9.5","","8.8","","95","","25","","7","","6.4","","99.77","","","","","","Rain,Fog"
"1992-11-11 09:00","1992","11","11","09:00","9.8","","8.9","","94","","25","","4","","12.9","","99.81","","","","","","Cloudy"
"1992-11-11 10:00","1992","11","11","10:00","10.1","","8.5","","90","","26","","7","","12.9","","99.81","","","","","","Cloudy"
"1992-11-11 11:00","1992","11","11","11:00","10.7","","8.3","","85","","29","","13","","12.9","","99.87","","","","","","Cloudy"
"1992-11-11 12:00","1992","11","11","12:00","10.2","","6.1","","76","","32","","28","","16.1","","99.87","","","","","","Cloudy"
"1992-11-11 13:00","1992","11","11","13:00","9.2","","4.5","","72","","29","","24","","19.3","","99.91","","","","","","Cloudy"
"1992-11-11 14:00","1992","11","11","14:00","8.6","","3.0","","68","","30","","22","","19.3","","99.94","","","","","","Cloudy"
"1992-11-11 15:00","1992","11","11","15:00","8.2","","2.9","","69","","31","","19","","24.1","","99.94","","","","","","Cloudy"
"1992-11-11 16:00","1992","11","11","16:00","7.2","","2.2","","70","","28","","7","","24.1","","99.97","","","","","","Mostly Cloudy"
"1992-11-11 17:00","1992","11","11","17:00","6.1","","2.5","","78","","","","0","","24.1","","100.07","","","","","","Mostly Cloudy"
"1992-11-11 18:00","1992","11","11","18:00","5.1","","1.9","","80","","","","0","","24.1","","100.11","","","","","","Cloudy"
"1992-11-11 19:00","1992","11","11","19:00","4.7","","1.3","","78","","","","0","","24.1","","100.11","","","","","","Cloudy"
"1992-11-11 20:00","1992","11","11","20:00","4.5","","1.3","","80","","","","0","","25.0","","100.11","","","","","","Cloudy"
"1992-11-11 21:00","1992","11","11","21:00","3.4","","1.2","","86","","","","0","","25.0","","100.11","","","","","","Cloudy"
"1992-11-11 22:00","1992","11","11","22:00","2.4","","0.6","","88","","36","","6","","25.0","","100.11","","","","","","Cloudy"
"1992-11-11 23:00","1992","11","11","23:00","2.1","","0.6","","90","","2","","7","","25.0","","100.07","","","","","","Cloudy"
"1992-11-12 00:00","1992","11","12","00:00","1.7","","0.5","","92","","","","0","","25.0","","100.01","","","","","","Cloudy"
"1992-11-12 01:00","1992","11","12","01:00","1.5","","0.5","","93","","","","0","","25.0","","99.94","","","","","","Cloudy"
"1992-11-12 02:00","1992","11","12","02:00","1.9","","1.1","","95","","","","0","","25.0","","99.84","","","","","","Cloudy"
"1992-11-12 03:00","1992","11","12","03:00","2.7","","1.6","","92","","","","0","","25.0","","99.77","","","","","","Cloudy"
"1992-11-12 04:00","1992","11","12","04:00","5.4","","3.8","","89","","10","","9","","24.1","","99.64","","","","","","Cloudy"
"1992-11-12 05:00","1992","11","12","05:00","5.8","","5.2","","96","","9","","17","","24.1","","99.51","","","","","","Rain"
"1992-11-12 06:00","1992","11","12","06:00","6.0","","4.3","","89","","10","","22","","12.9","","99.37","","","","","","Rain"
"1992-11-12 07:00","1992","11","12","07:00","6.3","","4.9","","91","","10","","24","","19.3","","99.24","","","","","","Rain"
"1992-11-12 08:00","1992","11","12","08:00","6.7","","4.9","","88","","10","","22","","12.9","","99.11","","","","","","Rain"
"1992-11-12 09:00","1992","11","12","09:00","6.7","","5.7","","93","","9","","26","","2.0","","98.91","","","","","","Rain,Fog"
"1992-11-12 10:00","1992","11","12","10:00","7.0","","6.6","","97","","10","","20","","2.4","","98.67","","","","","","Rain,Fog"
"1992-11-12 11:00","1992","11","12","11:00","7.7","","7.1","","96","","10","","20","","1.6","","98.44","","","","","","Rain,Fog"
"1992-11-12 12:00","1992","11","12","12:00","8.7","","8.1","","96","","10","","11","","2.0","","98.21","","","","","","Rain,Fog"
"1992-11-12 13:00","1992","11","12","13:00","9.3","","9.1","","99","","11","","17","","1.6","","97.94","","","","","","Rain,Fog"
"1992-11-12 14:00","1992","11","12","14:00","10.0","","10.0","","100","","12","","15","","2.0","","97.71","","","","","","Rain,Fog"
"1992-11-12 15:00","1992","11","12","15:00","11.2","","10.6","","96","","14","","15","","1.6","","97.47","","","","","","Moderate Rain,Fog"
"1992-11-12 16:00","1992","11","12","16:00","12.0","","12.0","","100","","12","","22","","1.2","","97.24","","","","","","Moderate Rain,Fog"
"1992-11-12 17:00","1992","11","12","17:00","11.9","","11.7","","99","","15","","22","","2.0","","97.04","","","","","","Rain,Fog"
"1992-11-12 18:00","1992","11","12","18:00","12.5","","12.2","","98","","15","","31","","3.2","","96.78","","","","","","Moderate Rain,Fog"
"1992-11-12 19:00","1992","11","12","19:00","12.7","","12.2","","97","","16","","26","","6.4","","96.51","","","","","","Rain,Fog"
"1992-11-12 20:00","1992","11","12","20:00","13.0","","12.3","","95","","16","","31","","4.8","","96.24","","","","","","Moderate Rain,Fog"
"1992-11-12 21:00","1992","11","12","21:00","14.2","","13.0","","92","","17","","48","","19.3","","95.98","","","","","","Rain"
"1992-11-12 22:00","1992","11","12","22:00","13.4","","11.8","","90","","26","","28","","9.7","","95.98","","","","","","Moderate Rain,Fog"
"1992-11-12 23:00","1992","11","12","23:00","7.4","","5.5","","88","","26","","72","","19.3","","96.51","","","","","","Rain"
"1992-11-13 00:00","1992","11","13","00:00","5.1","","0.9","","74","","26","","52","","25.0","","96.94","","","","","","Mostly Cloudy"
"1992-11-13 01:00","1992","11","13","01:00","4.8","","1.4","","79","","25","","41","","24.1","","97.24","","","","","","Rain Showers"
"1992-11-13 02:00","1992","11","13","02:00","4.2","","0.3","","75","","25","","39","","24.1","","97.47","","","","","","Rain Showers"
"1992-11-13 03:00","1992","11","13","03:00","4.0","","-0.3","","74","","25","","33","","19.3","","97.64","","","","","","Rain Showers"
"1992-11-13 04:00","1992","11","13","04:00","3.5","","-1.4","","70","","25","","48","","19.3","","97.81","","","","","","Snow Pellets"
"1992-11-13 05:00","1992","11","13","05:00","2.9","","-3.8","","61","","25","","44","","25.0","","97.91","","","","","","Mainly Clear"
"1992-11-13 06:00","1992","11","13","06:00","2.5","","-3.9","","63","","25","","31","","24.1","","98.04","","","","","","Snow Showers"
"1992-11-13 07:00","1992","11","13","07:00","1.3","","-2.4","","76","","25","","31","","12.9","","98.14","","","","","","Snow Showers"
"1992-11-13 08:00","1992","11","13","08:00","2.2","","-2.6","","70","","25","","33","","32.2","","98.24","","","","","","Snow Showers"
"1992-11-13 09:00","1992","11","13","09:00","2.8","","-3.2","","65","","25","","37","","32.2","","98.34","","","","","","Mainly Clear"
"1992-11-13 10:00","1992","11","13","10:00","3.2","","-3.2","","63","","26","","41","","32.2","","98.37","","","","","","Mainly Clear"
"1992-11-13 11:00","1992","11","13","11:00","3.8","","-1.9","","66","","26","","33","","32.2","","98.44","","","","","","Mostly Cloudy"
"1992-11-13 12:00","1992","11","13","12:00","3.5","","-2.0","","67","","26","","37","","32.2","","98.44","","","","","","Mainly Clear"
"1992-11-13 13:00","1992","11","13","13:00","4.0","","-1.9","","65","","25","","30","","32.2","","98.44","","","","","","Mostly Cloudy"
"1992-11-13 14:00","1992","11","13","14:00","3.8","","-1.4","","69","","27","","37","","32.2","","98.44","","","","","","Mostly Cloudy"
"1992-11-13 15:00","1992","11","13","15:00","4.3","","-1.3","","67","","26","","30","","32.2","","98.44","","","","","","Mainly Clear"
"1992-11-13 16:00","1992","11","13","16:00","2.4","","-1.5","","75","","27","","26","","32.2","","98.54","","","","","","Mainly Clear"
"1992-11-13 17:00","1992","11","13","17:00","1.1","","-1.5","","83","","25","","22","","25.0","","98.61","","","","","","Mainly Clear"
"1992-11-13 18:00","1992","11","13","18:00","1.0","","-1.5","","83","","26","","30","","25.0","","98.71","","","","","","Mainly Clear"
"1992-11-13 19:00","1992","11","13","19:00","0.9","","-2.4","","79","","26","","30","","25.0","","98.81","","","","","","Clear"
"1992-11-13 20:00","1992","11","13","20:00","-0.3","","-3.0","","82","","26","","26","","25.0","","98.84","","","","-6","","Clear"
"1992-11-13 21:00","1992","11","13","21:00","0.2","","-3.5","","76","","25","","24","","25.0","","98.94","","","","","","Mainly Clear"
"1992-11-13 22:00","1992","11","13","22:00","-0.3","","-3.0","","82","","25","","15","","25.0","","99.01","","","","-5","","Mainly Clear"
"1992-11-13 23:00","1992","11","13","23:00","-0.4","","-3.1","","82","","25","","22","","25.0","","99.04","","","","-6","","Clear"
"1992-11-14 00:00","1992","11","14","00:00","-0.7","","-3.5","","81","","24","","22","","25.0","","99.04","","","","-6","","Mainly Clear"
"1992-11-14 01:00","1992","11","14","01:00","-0.8","","-4.7","","75","","25","","22","","25.0","","99.11","","","","-7","","Clear"
"1992-11-14 02:00","1992","11","14","02:00","-1.2","","-4.1","","81","","25","","26","","25.0","","99.11","","","","-8","","Mainly Clear"
"1992-11-14 03:00","1992","11","14","03:00","-1.6","","-4.5","","81","","25","","22","","25.0","","99.21","","","","-8","","Mainly Clear"
"1992-11-14 04:00","1992","11","14","04:00","-1.8","","-4.8","","80","","24","","11","","25.0","","99.24","","","","-6","","Mainly Clear"
"1992-11-14 05:00","1992","11","14","05:00","-1.8","","-4.8","","80","","23","","20","","25.0","","99.31","","","","-8","","Clear"
"1992-11-14 06:00","1992","11","14","06:00","-2.0","","-4.2","","85","","23","","17","","19.3","","99.34","","","","-7","","Mainly Clear"
"1992-11-14 07:00","1992","11","14","07:00","-1.8","","-4.8","","80","","24","","24","","19.3","","99.37","","","","-8","","Mainly Clear"
"1992-11-14 08:00","1992","11","14","08:00","-1.4","","-4.5","","79","","25","","19","","24.1","","99.44","","","","-7","","Clear"
"1992-11-14 09:00","1992","11","14","09:00","-0.4","","-3.4","","80","","25","","15","","32.2","","99.54","","","","-5","","Mainly Clear"
"1992-11-14 10:00","1992","11","14","10:00","0.5","","-2.0","","83","","25","","22","","32.2","","99.57","","","","","","Mainly Clear"
"1992-11-14 11:00","1992","11","14","11:00","1.7","","-4.1","","65","","27","","19","","40.2","","99.61","","","","","","Mainly Clear"
"1992-11-14 12:00","1992","11","14","12:00","2.2","","-3.4","","66","","28","","19","","40.2","","99.57","","","","","","Mainly Clear"
"1992-11-14 13:00","1992","11","14","13:00","2.4","","-3.9","","63","","27","","26","","40.2","","99.57","","","","","","Mainly Clear"
"1992-11-14 14:00","1992","11","14","14:00","1.7","","-3.5","","68","","26","","11","","24.1","","99.57","","","","","","Mostly Cloudy"
"1992-11-14 15:00","1992","11","14","15:00","0.4","","-1.8","","85","","26","","30","","24.1","","99.57","","","","","","Snow Showers"
"1992-11-14 16:00","1992","11","14","16:00","1.3","","-2.9","","74","","27","","15","","32.2","","99.61","","","","","","Mainly Clear"
"1992-11-14 17:00","1992","11","14","17:00","-0.2","","-3.1","","81","","28","","7","","25.0","","99.64","","","","-3","","Clear"
"1992-11-14 18:00","1992","11","14","18:00","-0.5","","-5.3","","70","","28","","11","","25.0","","99.71","","","","-4","","Mainly Clear"
"1992-11-14 19:00","1992","11","14","19:00","-1.5","","-5.4","","75","","","","0","","25.0","","99.77","","","","","","Mainly Clear"
"1992-11-14 20:00","1992","11","14","20:00","-2.0","","-5.1","","79","","25","","4","","25.0","","99.81","","","","-3","","Mainly Clear"
"1992-11-14 21:00","1992","11","14","21:00","-2.2","","-4.8","","83","","29","","6","","25.0","","99.81","","","","-5","","Mainly Clear"
"1992-11-14 22:00","1992","11","14","22:00","-2.9","","-5.4","","83","","23","","6","","25.0","","99.84","","","","-5","","Clear"
"1992-11-14 23:00","1992","11","14","23:00","-3.3","","-5.7","","83","","28","","4","","25.0","","99.81","","","","-5","","Mainly Clear"
"1992-11-15 00:00","1992","11","15","00:00","-3.2","","-5.1","","87","","22","","6","","25.0","","99.81","","","","-6","","Mainly Clear"
"1992-11-15 01:00","1992","11","15","01:00","-3.8","","-5.7","","86","","","","0","","25.0","","99.81","","","","","","Mainly Clear"
"1992-11-15 02:00","1992","11","15","02:00","-3.8","","-5.1","","90","","","","0","","19.3","","99.81","","","","","","Mainly Clear"
"1992-11-15 03:00","1992","11","15","03:00","-3.5","","-4.8","","91","","26","","4","","19.3","","99.81","","","","-5","","Mostly Cloudy"
"1992-11-15 04:00","1992","11","15","04:00","-3.6","","-4.5","","94","","26","","4","","19.3","","99.77","","","","-5","","Mostly Cloudy"
"1992-11-15 05:00","1992","11","15","05:00","-3.3","","-4.8","","89","","","","0","","19.3","","99.81","","","","","","Mostly Cloudy"
"1992-11-15 06:00","1992","11","15","06:00","-3.3","","-5.4","","85","","32","","6","","24.1","","99.81","","","","-6","","Mostly Cloudy"
"1992-11-15 07:00","1992","11","15","07:00","-2.7","","-3.9","","92","","35","","9","","19.3","","99.87","","","","-6","","Snow Showers"
"1992-11-15 08:00","1992","11","15","08:00","-2.9","","-4.2","","90","","33","","4","","19.3","","99.91","","","","-4","","Snow Showers"
"1992-11-15 09:00","1992","11","15","09:00","-2.4","","-5.4","","80","","3","","15","","24.1","","99.94","","","","-7","","Snow Showers"
"1992-11-15 10:00","1992","11","15","10:00","-1.8","","-6.4","","71","","36","","6","","24.1","","100.01","","","","-4","","Snow Showers"
"1992-11-15 11:00","1992","11","15","11:00","-1.6","","-4.2","","82","","36","","15","","4.0","","100.07","","","","-6","","Snow Showers"
"1992-11-15 12:00","1992","11","15","12:00","-2.2","","-4.5","","84","","36","","13","","2.8","","100.07","","","","-7","","Snow Showers"
"1992-11-15 13:00","1992","11","15","13:00","-1.9","","-4.2","","84","","34","","4","","6.4","","100.07","","","","-3","","Snow Showers"
"1992-11-15 14:00","1992","11","15","14:00","-1.5","","-6.0","","71","","36","","9","","24.1","","100.07","","","","-5","","Mostly Cloudy"
"1992-11-15 15:00","1992","11","15","15:00","-0.6","","-7.0","","62","","","","0","","32.2","","100.11","","","","","","Mainly Clear"
"1992-11-15 16:00","1992","11","15","16:00","-0.3","","-6.0","","65","","30","","4","","32.2","","100.17","","","","-2","","Mainly Clear"
"1992-11-15 17:00","1992","11","15","17:00","-1.5","","-7.7","","62","","25","","6","","24.1","","100.24","","","","-4","","Mainly Clear"
"1992-11-15 18:00","1992","11","15","18:00","-2.3","","-5.4","","79","","24","","6","","25.0","","100.31","","","","-5","","Mainly Clear"
"1992-11-15 19:00","1992","11","15","19:00","-3.3","","-5.4","","85","","23","","6","","25.0","","100.34","","","","-6","","Mainly Clear"
"1992-11-15 20:00","1992","11","15","20:00","-3.4","","-6.7","","78","","27","","13","","25.0","","100.44","","","","-8","","Mainly Clear"
"1992-11-15 21:00","1992","11","15","21:00","-3.9","","-5.7","","87","","32","","15","","25.0","","100.51","","","","-9","","Clear"
"1992-11-15 22:00","1992","11","15","22:00","-4.8","","-6.3","","89","","31","","7","","25.0","","100.57","","","","-8","","Clear"
"1992-11-15 23:00","1992","11","15","23:00","-5.2","","-5.9","","95","","","","0","","25.0","","100.61","","","","","","Clear"
"1992-11-16 00:00","1992","11","16","00:00","-5.3","","-7.8","","82","","25","","7","","25.0","","100.61","","","","-9","","Clear"
"1992-11-16 01:00","1992","11","16","01:00","-5.8","","-7.7","","86","","25","","6","","25.0","","100.61","","","","-9","","Mainly Clear"
"1992-11-16 02:00","1992","11","16","02:00","-5.8","","-7.4","","88","","","","0","","25.0","","100.61","","","","","","Mainly Clear"
"1992-11-16 03:00","1992","11","16","03:00","-4.7","","-6.6","","87","","24","","11","","25.0","","100.64","","","","-9","","Mostly Cloudy"
"1992-11-16 04:00","1992","11","16","04:00","-4.7","","-6.0","","91","","23","","6","","25.0","","100.61","","","","-7","","Mainly Clear"
"1992-11-16 05:00","1992","11","16","05:00","-4.6","","-6.3","","88","","22","","9","","25.0","","100.61","","","","-8","","Mainly Clear"
"1992-11-16 06:00","1992","11","16","06:00","-4.3","","-7.3","","79","","20","","6","","24.1","","100.61","","","","-7","","Mainly Clear"
"1992-11-16 07:00","1992","11","16","07:00","-3.7","","-7.3","","76","","17","","6","","24.1","","100.61","","","","-6","","Mostly Cloudy"
"1992-11-16 08:00","1992","11","16","08:00","-3.6","","-7.0","","77","","23","","11","","24.1","","100.61","","","","-8","","Mostly Cloudy"
"1992-11-16 09:00","1992","11","16","09:00","-1.6","","-5.7","","73","","26","","19","","19.3","","100.57","","","","-7","","Cloudy"
"1992-11-16 10:00","1992","11","16","10:00","-0.3","","-5.4","","68","","26","","17","","24.1","","100.51","","","","-5","","Cloudy"
"1992-11-16 11:00","1992","11","16","11:00","1.5","","-5.4","","60","","25","","22","","19.3","","100.44","","","","","","Cloudy"
"1992-11-16 12:00","1992","11","16","12:00","2.2","","-5.3","","57","","26","","28","","19.3","","100.37","","","","","","Cloudy"
"1992-11-16 13:00","1992","11","16","13:00","1.8","","-4.7","","62","","25","","26","","19.3","","100.31","","","","","","Cloudy"
"1992-11-16 14:00","1992","11","16","14:00","1.6","","-4.1","","66","","26","","22","","19.3","","100.27","","","","","","Cloudy"
"1992-11-16 15:00","1992","11","16","15:00","0.9","","-2.4","","79","","25","","17","","12.9","","100.24","","","","","","Snow"
"1992-11-16 16:00","1992","11","16","16:00","0.4","","-2.9","","79","","22","","9","","8.0","","100.21","","","","","","Snow"
"1992-11-16 17:00","1992","11","16","17:00","-0.2","","-1.8","","89","","21","","11","","4.0","","100.21","","","","-4","","Snow"
"1992-11-16 18:00","1992","11","16","18:00","-0.2","","-1.0","","94","","19","","15","","3.2","","100.21","","","","-5","","Snow"
"1992-11-16 19:00","1992","11","16","19:00","-0.3","","-1.1","","94","","18","","11","","2.8","","100.17","","","","-4","","Snow"
"1992-11-16 20:00","1992","11","16","20:00","-0.3","","-0.6","","98","","19","","4","","3.2","","100.11","","","","-2","","Snow"
"1992-11-16 21:00","1992","11","16","21:00","0.1","","-0.6","","95","","21","","15","","4.8","","100.11","","","","","","Snow"
"1992-11-16 22:00","1992","11","16","22:00","0.1","","-0.1","","98","","19","","9","","3.2","","100.04","","","","","","Snow"
"1992-11-16 23:00","1992","11","16","23:00","0.3","","0.1","","99","","17","","6","","4.0","","99.97","","","","","","Snow"
"1992-11-17 00:00","1992","11","17","00:00","0.2","","0.2","","100","","16","","6","","3.2","","99.91","","","","","","Snow"
"1992-11-17 01:00","1992","11","17","01:00","0.3","","0.1","","99","","15","","7","","4.8","","99.84","","","","","","Snow"
"1992-11-17 02:00","1992","11","17","02:00","0.2","","0.2","","100","","14","","6","","4.8","","99.77","","","","","","Snow"
"1992-11-17 03:00","1992","11","17","03:00","0.1","","0.1","","100","","12","","4","","1.2","","99.74","","","","","","Snow"
"1992-11-17 04:00","1992","11","17","04:00","0.1","","0.1","","100","","","","0","","2.4","","99.67","","","","","","Snow"
"1992-11-17 05:00","1992","11","17","05:00","0.0","","0.0","","100","","","","0","","0.8","","99.64","","","","","","Moderate Snow"
"1992-11-17 06:00","1992","11","17","06:00","0.0","","0.0","","100","","","","0","","2.0","","99.64","","","","","","Snow"
"1992-11-17 07:00","1992","11","17","07:00","0.1","","-0.1","","98","","11","","7","","4.8","","99.61","","","","","","Snow"
"1992-11-17 08:00","1992","11","17","08:00","0.1","","0.1","","100","","12","","6","","1.6","","99.61","","","","","","Snow"
"1992-11-17 09:00","1992","11","17","09:00","0.4","","0.4","","100","","8","","4","","1.0","","99.61","","","","","","Snow"
"1992-11-17 10:00","1992","11","17","10:00","0.5","","0.0","","96","","","","0","","1.0","","99.64","","","","","","Snow"
"1992-11-17 11:00","1992","11","17","11:00","0.7","","0.0","","95","","4","","7","","2.0","","99.64","","","","","","Snow"
"1992-11-17 12:00","1992","11","17","12:00","1.0","","0.5","","96","","3","","6","","4.0","","99.64","","","","","","Snow,Fog"
"1992-11-17 13:00","1992","11","17","13:00","1.3","","0.5","","95","","4","","9","","8.0","","99.64","","","","","","Fog"
"1992-11-17 14:00","1992","11","17","14:00","1.4","","0.0","","90","","4","","9","","12.9","","99.71","","","","","","Cloudy"
"1992-11-17 15:00","1992","11","17","15:00","1.6","","0.0","","89","","5","","9","","9.7","","99.77","","","","","","Fog"
"1992-11-17 16:00","1992","11","17","16:00","1.6","","0.0","","89","","5","","11","","12.9","","99.81","","","","","","Cloudy"
"1992-11-17 17:00","1992","11","17","17:00","1.4","","-0.5","","87","","5","","11","","12.9","","99.94","","","","","","Cloudy"
"1992-11-17 18:00","1992","11","17","18:00","1.5","","-1.0","","83","","4","","11","","16.1","","100.01","","","","","","Cloudy"
"1992-11-17 19:00","1992","11","17","19:00","1.4","","-0.5","","87","","6","","11","","16.1","","100.11","","","","","","Cloudy"
"1992-11-17 20:00","1992","11","17","20:00","1.5","","-1.5","","80","","6","","11","","16.1","","100.14","","","","","","Cloudy"
"1992-11-17 21:00","1992","11","17","21:00","1.2","","-1.0","","85","","36","","4","","16.1","","100.21","","","","","","Cloudy"
"1992-11-17 22:00","1992","11","17","22:00","1.1","","-1.0","","86","","","","0","","16.1","","100.21","","","","","","Cloudy"
"1992-11-17 23:00","1992","11","17","23:00","1.5","","-1.0","","83","","","","0","","16.1","","100.21","","","","","","Cloudy"
"1992-11-18 00:00","1992","11","18","00:00","1.3","","-0.5","","88","","4","","6","","12.9","","100.24","","","","","","Cloudy"
"1992-11-18 01:00","1992","11","18","01:00","1.0","","-0.5","","90","","3","","6","","8.0","","100.27","","","","","","Fog"
"1992-11-18 02:00","1992","11","18","02:00","1.0","","-0.5","","90","","4","","7","","8.0","","100.27","","","","","","Fog"
"1992-11-18 03:00","1992","11","18","03:00","1.0","","-0.5","","90","","5","","6","","8.0","","100.34","","","","","","Fog"
"1992-11-18 04:00","1992","11","18","04:00","1.0","","-1.0","","86","","5","","7","","8.0","","100.34","","","","","","Fog"
"1992-11-18 05:00","1992","11","18","05:00","0.8","","-1.0","","88","","8","","9","","8.0","","100.37","","","","","","Fog"
"1992-11-18 06:00","1992","11","18","06:00","0.8","","-1.0","","88","","","","0","","8.0","","100.41","","","","","","Fog"
"1992-11-18 07:00","1992","11","18","07:00","0.8","","-0.5","","91","","","","0","","6.4","","100.47","","","","","","Snow,Fog"
"1992-11-18 08:00","1992","11","18","08:00","0.0","","-0.5","","96","","33","","13","","2.0","","100.51","","","","-4","","Snow Pellets"
"1992-11-18 09:00","1992","11","18","09:00","0.0","","0.0","","100","","34","","7","","1.2","","100.57","","","","-2","","Snow"
"1992-11-18 10:00","1992","11","18","10:00","0.4","","-0.5","","94","","34","","17","","4.8","","100.57","","","","","","Snow"
"1992-11-18 11:00","1992","11","18","11:00","0.6","","-1.4","","86","","34","","19","","12.9","","100.61","","","","","","Snow"
"1992-11-18 12:00","1992","11","18","12:00","1.0","","-1.9","","81","","34","","19","","16.1","","100.61","","","","","","Mostly Cloudy"
"1992-11-18 13:00","1992","11","18","13:00","1.0","","-1.9","","81","","36","","17","","16.1","","100.61","","","","","","Mostly Cloudy"
"1992-11-18 14:00","1992","11","18","14:00","1.0","","-1.9","","81","","36","","13","","16.1","","100.61","","","","","","Mostly Cloudy"
"1992-11-18 15:00","1992","11","18","15:00","0.7","","-2.5","","79","","35","","17","","19.3","","100.61","","","","","","Mostly Cloudy"
"1992-11-18 16:00","1992","11","18","16:00","0.1","","-2.2","","84","","36","","15","","16.1","","100.67","","","","","","Mostly Cloudy"
"1992-11-18 17:00","1992","11","18","17:00","-0.2","","-3.1","","81","","35","","17","","16.1","","100.71","","","","-5","","Mostly Cloudy"
"1992-11-18 18:00","1992","11","18","18:00","-0.4","","-3.1","","82","","35","","11","","24.1","","100.77","","","","-4","","Mostly Cloudy"
"1992-11-18 19:00","1992","11","18","19:00","-1.2","","-3.8","","83","","36","","20","","25.0","","100.81","","","","-7","","Mostly Cloudy"
"1992-11-18 20:00","1992","11","18","20:00","-2.1","","-5.4","","78","","35","","15","","25.0","","100.87","","","","-7","","Mainly Clear"
"1992-11-18 21:00","1992","11","18","21:00","-2.6","","-6.4","","75","","34","","15","","25.0","","100.91","","","","-8","","Mainly Clear"
"1992-11-18 22:00","1992","11","18","22:00","-4.1","","-7.3","","78","","34","","11","","25.0","","100.94","","","","-9","","Mainly Clear"
"1992-11-18 23:00","1992","11","18","23:00","-4.6","","-7.3","","82","","34","","11","","25.0","","100.94","","","","-9","","Clear"
"1992-11-19 00:00","1992","11","19","00:00","-4.8","","-7.2","","83","","34","","7","","25.0","","100.94","","","","-8","","Mainly Clear"
"1992-11-19 01:00","1992","11","19","01:00","-6.4","","-8.3","","86","","34","","11","","25.0","","100.94","","","","-11","","Clear"
"1992-11-19 02:00","1992","11","19","02:00","-5.6","","-7.8","","85","","34","","11","","25.0","","100.97","","","","-10","","Mainly Clear"
"1992-11-19 03:00","1992","11","19","03:00","-6.4","","-8.7","","83","","1","","7","","25.0","","100.97","","","","-10","","Clear"
"1992-11-19 04:00","1992","11","19","04:00","-6.3","","-8.3","","86","","35","","11","","25.0","","100.97","","","","-11","","Mainly Clear"
"1992-11-19 05:00","1992","11","19","05:00","-6.5","","-8.7","","84","","34","","7","","25.0","","101.01","","","","-10","","Mainly Clear"
"1992-11-19 06:00","1992","11","19","06:00","-7.0","","-8.6","","88","","35","","7","","25.0","","101.01","","","","-11","","Mainly Clear"
"1992-11-19 07:00","1992","11","19","07:00","-6.7","","-8.3","","89","","33","","7","","25.0","","101.07","","","","-10","","Mostly Cloudy"
"1992-11-19 08:00","1992","11","19","08:00","-5.5","","-7.1","","88","","34","","11","","24.1","","101.11","","","","-10","","Mostly Cloudy"
"1992-11-19 09:00","1992","11","19","09:00","-4.6","","-6.9","","84","","34","","9","","24.1","","101.14","","","","-8","","Mostly Cloudy"
"1992-11-19 10:00","1992","11","19","10:00","-3.1","","-6.0","","80","","36","","9","","24.1","","101.17","","","","-7","","Mostly Cloudy"
"1992-11-19 11:00","1992","11","19","11:00","-1.7","","-4.5","","81","","35","","6","","24.1","","101.21","","","","-4","","Mostly Cloudy"
"1992-11-19 12:00","1992","11","19","12:00","-0.6","","-4.4","","76","","34","","4","","24.1","","101.17","","","","-2","","Mainly Clear"
"1992-11-19 13:00","1992","11","19","13:00","0.2","","-4.1","","73","","","","0","","24.1","","101.17","","","","","","Mainly Clear"
"1992-11-19 14:00","1992","11","19","14:00","0.8","","-3.6","","72","","4","","6","","19.3","","101.11","","","","","","Mainly Clear"
"1992-11-19 15:00","1992","11","19","15:00","1.2","","-4.2","","67","","","","0","","19.3","","101.11","","","","","","Mainly Clear"
"1992-11-19 16:00","1992","11","19","16:00","0.9","","-3.6","","72","","","","0","","16.1","","101.14","","","","","","Mainly Clear"
"1992-11-19 17:00","1992","11","19","17:00","0.0","","-3.4","","78","","4","","9","","16.1","","101.17","","","","-3","","Mainly Clear"
"1992-11-19 18:00","1992","11","19","18:00","-0.3","","-3.5","","79","","4","","9","","19.3","","101.21","","","","-3","","Mostly Cloudy"
"1992-11-19 19:00","1992","11","19","19:00","-0.1","","-2.4","","85","","8","","11","","19.3","","101.27","","","","-4","","Mostly Cloudy"
"1992-11-19 20:00","1992","11","19","20:00","-0.3","","-2.4","","86","","6","","11","","16.1","","101.31","","","","-4","","Mostly Cloudy"
"1992-11-19 21:00","1992","11","19","21:00","-0.7","","-2.7","","86","","5","","11","","16.1","","101.31","","","","-4","","Mostly Cloudy"
"1992-11-19 22:00","1992","11","19","22:00","-1.1","","-3.0","","87","","6","","15","","16.1","","101.31","","","","-6","","Mostly Cloudy"
"1992-11-19 23:00","1992","11","19","23:00","-0.9","","-3.0","","86","","7","","15","","12.9","","101.31","","","","-6","","Mostly Cloudy"
"1992-11-20 00:00","1992","11","20","00:00","-0.5","","-2.7","","85","","7","","15","","12.9","","101.31","","","","-5","","Mostly Cloudy"
"1992-11-20 01:00","1992","11","20","01:00","-0.3","","-2.1","","87","","8","","15","","12.9","","101.27","","","","-5","","Cloudy"
"1992-11-20 02:00","1992","11","20","02:00","-0.1","","-1.6","","90","","8","","19","","12.9","","101.31","","","","-5","","Cloudy"
"1992-11-20 03:00","1992","11","20","03:00","-0.5","","-2.7","","85","","8","","19","","11.3","","101.31","","","","-6","","Cloudy"
"1992-11-20 04:00","1992","11","20","04:00","-0.9","","-3.0","","86","","8","","15","","12.9","","101.24","","","","-6","","Cloudy"
"1992-11-20 05:00","1992","11","20","05:00","-0.9","","-2.7","","87","","8","","15","","12.9","","101.21","","","","-6","","Cloudy"
"1992-11-20 06:00","1992","11","20","06:00","-0.4","","-1.7","","91","","5","","11","","12.9","","101.17","","","","-4","","Cloudy"
"1992-11-20 07:00","1992","11","20","07:00","1.8","","-2.6","","73","","11","","15","","16.1","","101.14","","","","","","Cloudy"
"1992-11-20 08:00","1992","11","20","08:00","2.3","","-0.4","","82","","10","","24","","11.3","","101.11","","","","","","Mostly Cloudy"
"1992-11-20 09:00","1992","11","20","09:00","2.5","","-0.4","","81","","11","","24","","11.3","","101.07","","","","","","Mostly Cloudy"
"1992-11-20 10:00","1992","11","20","10:00","2.6","","-0.9","","78","","11","","26","","12.9","","101.11","","","","","","Mostly Cloudy"
"1992-11-20 11:00","1992","11","20","11:00","2.8","","-0.9","","77","","12","","22","","16.1","","101.01","","","","","","Mostly Cloudy"
"1992-11-20 12:00","1992","11","20","12:00","3.3","","-0.3","","77","","12","","19","","16.1","","100.91","","","","","","Mostly Cloudy"
"1992-11-20 13:00","1992","11","20","13:00","3.2","","-0.4","","77","","11","","22","","16.1","","100.81","","","","","","Mostly Cloudy"
"1992-11-20 14:00","1992","11","20","14:00","3.2","","0.2","","81","","12","","15","","16.1","","100.74","","","","","","Mostly Cloudy"
"1992-11-20 15:00","1992","11","20","15:00","3.3","","0.7","","83","","12","","24","","12.9","","100.67","","","","","","Mostly Cloudy"
"1992-11-20 16:00","1992","11","20","16:00","3.3","","1.2","","86","","11","","17","","11.3","","100.61","","","","","","Mostly Cloudy"
"1992-11-20 17:00","1992","11","20","17:00","3.7","","1.2","","84","","10","","19","","11.3","","100.57","","","","","","Mostly Cloudy"
"1992-11-20 18:00","1992","11","20","18:00","3.7","","1.7","","87","","10","","15","","12.9","","100.57","","","","","","Mostly Cloudy"
"1992-11-20 19:00","1992","11","20","19:00","3.8","","2.2","","90","","10","","15","","19.3","","100.51","","","","","","Mainly Clear"
"1992-11-20 20:00","1992","11","20","20:00","4.5","","2.7","","88","","10","","11","","19.3","","100.47","","","","","","Mainly Clear"
"1992-11-20 21:00","1992","11","20","21:00","4.7","","2.3","","84","","12","","17","","19.3","","100.37","","","","","","Mostly Cloudy"
"1992-11-20 22:00","1992","11","20","22:00","4.2","","2.2","","87","","15","","11","","19.3","","100.34","","","","","","Mostly Cloudy"
"1992-11-20 23:00","1992","11","20","23:00","4.2","","2.2","","87","","15","","15","","16.1","","100.24","","","","","","Mainly Clear"
"1992-11-21 00:00","1992","11","21","00:00","3.7","","1.7","","87","","15","","11","","16.1","","100.17","","","","","","Mostly Cloudy"
"1992-11-21 01:00","1992","11","21","01:00","3.4","","2.2","","92","","14","","7","","16.1","","100.11","","","","","","Mostly Cloudy"
"1992-11-21 02:00","1992","11","21","02:00","3.5","","1.7","","88","","15","","11","","16.1","","100.01","","","","","","Mostly Cloudy"
"1992-11-21 03:00","1992","11","21","03:00","3.8","","2.7","","93","","15","","9","","16.1","","99.94","","","","","","Mostly Cloudy"
"1992-11-21 04:00","1992","11","21","04:00","3.7","","2.2","","90","","14","","7","","16.1","","99.87","","","","","","Mostly Cloudy"
"1992-11-21 05:00","1992","11","21","05:00","4.0","","2.7","","91","","12","","11","","16.1","","99.81","","","","","","Mostly Cloudy"
"1992-11-21 06:00","1992","11","21","06:00","4.6","","3.2","","91","","14","","9","","16.1","","99.77","","","","","","Mostly Cloudy"
"1992-11-21 07:00","1992","11","21","07:00","4.4","","3.2","","92","","14","","7","","16.1","","99.71","","","","","","Mostly Cloudy"
"1992-11-21 08:00","1992","11","21","08:00","6.1","","4.3","","88","","13","","13","","12.9","","99.61","","","","","","Cloudy"
"1992-11-21 09:00","1992","11","21","09:00","6.3","","5.7","","96","","15","","13","","9.7","","99.54","","","","","","Rain,Fog"
"1992-11-21 10:00","1992","11","21","10:00","7.4","","6.7","","96","","16","","15","","6.4","","99.44","","","","","","Rain,Fog"
"1992-11-21 11:00","1992","11","21","11:00","8.5","","7.7","","95","","16","","13","","2.8","","99.34","","","","","","Rain,Drizzle,Fog"
"1992-11-21 12:00","1992","11","21","12:00","10.0","","8.9","","93","","19","","15","","9.7","","99.21","","","","","","Drizzle,Fog"
"1992-11-21 13:00","1992","11","21","13:00","11.3","","10.4","","94","","20","","24","","12.9","","99.11","","","","","","Drizzle"
"1992-11-21 14:00","1992","11","21","14:00","12.0","","10.2","","89","","21","","26","","19.3","","99.01","","","","","","Cloudy"
"1992-11-21 15:00","1992","11","21","15:00","12.7","","10.4","","86","","22","","33","","16.1","","98.94","","","","","","Cloudy"
"1992-11-21 16:00","1992","11","21","16:00","13.1","","10.6","","85","","23","","26","","16.1","","99.01","","","","","","Cloudy"
"1992-11-21 17:00","1992","11","21","17:00","13.2","","10.6","","84","","24","","28","","19.3","","99.04","","","","","","Mostly Cloudy"
"1992-11-21 18:00","1992","11","21","18:00","12.2","","10.2","","88","","23","","26","","25.0","","99.11","","","","","","Mainly Clear"
"1992-11-21 19:00","1992","11","21","19:00","12.2","","10.2","","88","","23","","22","","25.0","","99.17","","","","","","Mainly Clear"
"1992-11-21 20:00","1992","11","21","20:00","11.9","","10.6","","92","","24","","7","","19.3","","99.24","","","","","","Mostly Cloudy"
"1992-11-21 21:00","1992","11","21","21:00","12.0","","9.5","","85","","26","","15","","19.3","","99.27","","","","","","Mostly Cloudy"
"1992-11-21 22:00","1992","11","21","22:00","10.2","","8.1","","87","","27","","11","","19.3","","99.31","","","","","","Mostly Cloudy"
"1992-11-21 23:00","1992","11","21","23:00","9.7","","7.6","","87","","28","","4","","19.3","","99.34","","","","","","Mostly Cloudy"
"1992-11-22 00:00","1992","11","22","00:00","8.9","","7.5","","91","","","","0","","19.3","","99.41","","","","","","Mostly Cloudy"
"1992-11-22 01:00","1992","11","22","01:00","9.0","","7.5","","90","","31","","19","","19.3","","99.37","","","","","","Cloudy"
"1992-11-22 02:00","1992","11","22","02:00","8.3","","6.6","","89","","29","","15","","19.3","","99.41","","","","","","Mostly Cloudy"
"1992-11-22 03:00","1992","11","22","03:00","7.7","","5.9","","88","","31","","11","","19.3","","99.41","","","","","","Mostly Cloudy"
"1992-11-22 04:00","1992","11","22","04:00","7.0","","5.4","","89","","32","","7","","19.3","","99.37","","","","","","Mostly Cloudy"
"1992-11-22 05:00","1992","11","22","05:00","6.7","","4.9","","88","","33","","7","","19.3","","99.41","","","","","","Cloudy"
"1992-11-22 06:00","1992","11","22","06:00","6.2","","4.3","","87","","","","0","","19.3","","99.41","","","","","","Cloudy"
"1992-11-22 07:00","1992","11","22","07:00","5.8","","4.3","","90","","34","","9","","24.1","","99.47","","","","","","Mostly Cloudy"
"1992-11-22 08:00","1992","11","22","08:00","5.7","","3.8","","87","","36","","15","","24.1","","99.47","","","","","","Mostly Cloudy"
"1992-11-22 09:00","1992","11","22","09:00","5.7","","3.4","","85","","1","","15","","24.1","","99.47","","","","","","Cloudy"
"1992-11-22 10:00","1992","11","22","10:00","6.0","","4.3","","89","","3","","7","","19.3","","99.44","","","","","","Cloudy"
"1992-11-22 11:00","1992","11","22","11:00","5.7","","3.4","","85","","4","","4","","19.3","","99.44","","","","","","Cloudy"
"1992-11-22 12:00","1992","11","22","12:00","5.6","","3.4","","86","","2","","4","","19.3","","99.34","","","","","","Cloudy"
"1992-11-22 13:00","1992","11","22","13:00","5.7","","3.4","","85","","35","","13","","19.3","","99.24","","","","","","Cloudy"
"1992-11-22 14:00","1992","11","22","14:00","5.7","","2.9","","82","","2","","13","","19.3","","99.17","","","","","","Cloudy"
"1992-11-22 15:00","1992","11","22","15:00","5.3","","3.4","","88","","3","","15","","19.3","","99.11","","","","","","Cloudy"
"1992-11-22 16:00","1992","11","22","16:00","4.8","","3.7","","93","","3","","19","","12.9","","99.01","","","","","","Rain"
"1992-11-22 17:00","1992","11","22","17:00","4.7","","3.2","","90","","7","","19","","11.3","","99.01","","","","","","Rain"
"1992-11-22 18:00","1992","11","22","18:00","4.3","","3.2","","93","","5","","15","","8.0","","98.91","","","","","","Rain,Fog"
"1992-11-22 19:00","1992","11","22","19:00","4.0","","2.7","","91","","6","","15","","9.7","","98.74","","","","","","Rain,Fog"
"1992-11-22 20:00","1992","11","22","20:00","3.9","","3.1","","95","","8","","20","","16.1","","98.64","","","","","","Cloudy"
"1992-11-22 21:00","1992","11","22","21:00","4.0","","3.1","","94","","7","","9","","12.9","","98.64","","","","","","Rain"
"1992-11-22 22:00","1992","11","22","22:00","4.0","","3.1","","94","","5","","15","","6.4","","98.44","","","","","","Rain,Fog"
"1992-11-22 23:00","1992","11","22","23:00","4.3","","3.6","","95","","7","","20","","12.9","","98.31","","","","","","Cloudy"
"1992-11-23 00:00","1992","11","23","00:00","4.4","","4.1","","98","","9","","15","","9.7","","98.14","","","","","","Rain,Fog"
"1992-11-23 01:00","1992","11","23","01:00","4.3","","4.1","","99","","1","","4","","9.7","","98.21","","","","","","Rain Showers,Fog"
"1992-11-23 02:00","1992","11","23","02:00","3.7","","3.1","","96","","","","0","","16.1","","98.24","","","","","","Cloudy"
"1992-11-23 03:00","1992","11","23","03:00","3.8","","3.1","","95","","1","","15","","16.1","","98.14","","","","","","Cloudy"
"1992-11-23 04:00","1992","11","23","04:00","4.2","","3.1","","92","","6","","15","","16.1","","98.14","","","","","","Cloudy"
"1992-11-23 05:00","1992","11","23","05:00","4.0","","3.1","","94","","7","","13","","12.9","","98.17","","","","","","Cloudy"
"1992-11-23 06:00","1992","11","23","06:00","3.6","","3.1","","97","","10","","4","","4.0","","98.24","","","","","","Drizzle,Fog"
"1992-11-23 07:00","1992","11","23","07:00","3.7","","3.1","","96","","","","0","","4.8","","98.34","","","","","","Rain,Fog"
"1992-11-23 08:00","1992","11","23","08:00","3.5","","3.1","","97","","","","0","","4.8","","98.44","","","","","","Rain,Fog"
"1992-11-23 09:00","1992","11","23","09:00","3.7","","3.1","","96","","5","","6","","4.0","","98.54","","","","","","Rain,Fog"
"1992-11-23 10:00","1992","11","23","10:00","3.8","","3.6","","99","","","","0","","4.0","","98.61","","","","","","Rain,Fog"
"1992-11-23 11:00","1992","11","23","11:00","3.9","","3.6","","98","","6","","7","","4.8","","98.67","","","","","","Rain,Fog"
"1992-11-23 12:00","1992","11","23","12:00","4.3","","3.6","","95","","2","","7","","4.8","","98.67","","","","","","Rain,Fog"
"1992-11-23 13:00","1992","11","23","13:00","3.2","","2.1","","92","","2","","13","","19.3","","98.81","","","","","","Cloudy"
"1992-11-23 14:00","1992","11","23","14:00","3.1","","2.1","","93","","2","","11","","9.7","","98.84","","","","","","Fog"
"1992-11-23 15:00","1992","11","23","15:00","3.2","","2.1","","92","","2","","7","","19.3","","98.94","","","","","","Cloudy"
"1992-11-23 16:00","1992","11","23","16:00","3.4","","2.2","","92","","3","","7","","19.3","","99.04","","","","","","Cloudy"
"1992-11-23 17:00","1992","11","23","17:00","3.5","","2.2","","91","","2","","7","","16.1","","99.17","","","","","","Cloudy"
"1992-11-23 18:00","1992","11","23","18:00","3.4","","2.2","","92","","7","","7","","19.3","","99.27","","","","","","Cloudy"
"1992-11-23 19:00","1992","11","23","19:00","3.3","","2.6","","95","","4","","7","","19.3","","99.41","","","","","","Cloudy"
"1992-11-23 20:00","1992","11","23","20:00","3.4","","2.2","","92","","6","","9","","19.3","","99.47","","","","","","Cloudy"
"1992-11-23 21:00","1992","11","23","21:00","3.4","","2.2","","92","","7","","6","","19.3","","99.54","","","","","","Cloudy"
"1992-11-23 22:00","1992","11","23","22:00","3.1","","2.1","","93","","9","","9","","6.4","","99.57","","","","","","Drizzle,Fog"
"1992-11-23 23:00","1992","11","23","23:00","2.8","","2.6","","99","","7","","13","","4.8","","99.64","","","","","","Drizzle,Fog"
"1992-11-24 00:00","1992","11","24","00:00","2.4","","1.6","","95","","7","","11","","8.0","","99.64","","","","","","Drizzle,Fog"
"1992-11-24 01:00","1992","11","24","01:00","1.9","","0.6","","91","","9","","13","","16.1","","99.71","","","","","","Cloudy"
"1992-11-24 02:00","1992","11","24","02:00","1.9","","1.1","","95","","8","","9","","16.1","","99.81","","","","","","Cloudy"
"1992-11-24 03:00","1992","11","24","03:00","2.0","","1.1","","94","","8","","13","","19.3","","99.87","","","","","","Cloudy"
"1992-11-24 04:00","1992","11","24","04:00","2.4","","1.1","","91","","9","","9","","24.1","","99.84","","","","","","Cloudy"
"1992-11-24 05:00","1992","11","24","05:00","2.5","","1.1","","91","","10","","9","","16.1","","99.87","","","","","","Cloudy"
"1992-11-24 06:00","1992","11","24","06:00","2.6","","1.1","","90","","6","","6","","16.1","","99.91","","","","","","Drizzle"
"1992-11-24 07:00","1992","11","24","07:00","2.5","","1.1","","91","","10","","9","","12.9","","99.97","","","","","","Drizzle"
"1992-11-24 08:00","1992","11","24","08:00","3.0","","1.6","","91","","10","","7","","12.9","","100.04","","","","","","Drizzle"
"1992-11-24 09:00","1992","11","24","09:00","3.3","","2.2","","93","","11","","9","","12.9","","100.07","","","","","","Drizzle"
"1992-11-24 10:00","1992","11","24","10:00","3.6","","2.6","","93","","11","","11","","8.0","","100.07","","","","","","Drizzle,Fog"
"1992-11-24 11:00","1992","11","24","11:00","4.3","","3.2","","93","","11","","15","","9.7","","100.07","","","","","","Drizzle,Fog"
"1992-11-24 12:00","1992","11","24","12:00","4.2","","2.7","","90","","11","","15","","8.0","","100.01","","","","","","Drizzle,Fog"
"1992-11-24 13:00","1992","11","24","13:00","4.2","","3.1","","92","","9","","13","","6.4","","99.97","","","","","","Drizzle,Fog"
"1992-11-24 14:00","1992","11","24","14:00","4.3","","3.6","","95","","9","","15","","6.4","","99.91","","","","","","Drizzle,Fog"
"1992-11-24 15:00","1992","11","24","15:00","4.2","","3.1","","92","","10","","11","","8.0","","99.94","","","","","","Drizzle,Fog"
"1992-11-24 16:00","1992","11","24","16:00","4.2","","3.6","","96","","10","","15","","4.8","","99.91","","","","","","Drizzle,Fog"
"1992-11-24 17:00","1992","11","24","17:00","4.2","","3.6","","96","","8","","11","","4.8","","99.91","","","","","","Drizzle,Fog"
"1992-11-24 18:00","1992","11","24","18:00","4.2","","3.6","","96","","9","","17","","8.0","","99.84","","","","","","Drizzle,Fog"
"1992-11-24 19:00","1992","11","24","19:00","4.3","","3.6","","95","","9","","15","","9.7","","99.71","","","","","","Fog"
"1992-11-24 20:00","1992","11","24","20:00","4.4","","3.6","","95","","9","","19","","9.7","","99.77","","","","","","Fog"
"1992-11-24 21:00","1992","11","24","21:00","4.4","","3.6","","95","","8","","9","","6.4","","99.74","","","","","","Drizzle,Fog"
"1992-11-24 22:00","1992","11","24","22:00","4.4","","3.6","","95","","8","","9","","8.0","","99.74","","","","","","Drizzle,Fog"
"1992-11-24 23:00","1992","11","24","23:00","4.4","","4.1","","98","","7","","7","","6.4","","99.71","","","","","","Rain,Fog"
"1992-11-25 00:00","1992","11","25","00:00","4.7","","4.1","","96","","5","","9","","6.4","","99.64","","","","","","Rain,Fog"
"1992-11-25 01:00","1992","11","25","01:00","4.8","","4.6","","99","","5","","9","","6.4","","99.61","","","","","","Rain,Fog"
"1992-11-25 02:00","1992","11","25","02:00","4.8","","4.6","","99","","4","","11","","4.8","","99.61","","","","","","Rain,Fog"
"1992-11-25 03:00","1992","11","25","03:00","4.6","","4.1","","97","","3","","9","","4.8","","99.57","","","","","","Rain,Fog"
"1992-11-25 04:00","1992","11","25","04:00","4.5","","4.5","","100","","35","","9","","4.8","","99.57","","","","","","Rain,Drizzle,Fog"
"1992-11-25 05:00","1992","11","25","05:00","3.8","","3.8","","100","","35","","11","","4.8","","99.61","","","","","","Rain,Drizzle,Fog"
"1992-11-25 06:00","1992","11","25","06:00","3.7","","3.1","","96","","34","","9","","4.8","","99.57","","","","","","Drizzle,Fog"
"1992-11-25 07:00","1992","11","25","07:00","3.4","","3.4","","100","","33","","13","","1.2","","99.67","","","","","","Fog"
"1992-11-25 08:00","1992","11","25","08:00","3.6","","3.6","","100","","34","","7","","0.4","","99.77","","","","","","Fog"
"1992-11-25 09:00","1992","11","25","09:00","3.9","","3.9","","100","","35","","13","","2.8","","99.81","","","","","","Fog"
"1992-11-25 10:00","1992","11","25","10:00","5.0","","4.6","","97","","35","","9","","6.4","","99.91","","","","","","Fog"
"1992-11-25 11:00","1992","11","25","11:00","5.5","","4.7","","95","","","","0","","8.0","","99.91","","","","","","Fog"
"1992-11-25 12:00","1992","11","25","12:00","6.2","","4.8","","90","","","","0","","8.0","","99.87","","","","","","Fog"
"1992-11-25 13:00","1992","11","25","13:00","6.6","","5.3","","91","","3","","9","","8.0","","99.77","","","","","","Fog"
"1992-11-25 14:00","1992","11","25","14:00","6.8","","5.4","","91","","","","0","","8.0","","99.74","","","","","","Fog"
"1992-11-25 15:00","1992","11","25","15:00","7.1","","5.4","","89","","","","0","","8.0","","99.81","","","","","","Fog"
"1992-11-25 16:00","1992","11","25","16:00","7.2","","4.1","","81","","13","","7","","4.8","","99.81","","","","","","Haze"
"1992-11-25 17:00","1992","11","25","17:00","5.7","","4.7","","93","","11","","6","","4.0","","99.77","","","","","","Fog"
"1992-11-25 18:00","1992","11","25","18:00","5.0","","5.0","","100","","","","0","","1.0","","99.77","","","","","","Fog"
"1992-11-25 19:00","1992","11","25","19:00","5.2","","5.2","","100","","9","","7","","2.4","","99.64","","","","","","Fog"
"1992-11-25 20:00","1992","11","25","20:00","5.2","","5.2","","100","","10","","17","","2.8","","99.57","","","","","","Fog"
"1992-11-25 21:00","1992","11","25","21:00","5.2","","5.2","","100","","9","","19","","1.2","","99.51","","","","","","Fog"
"1992-11-25 22:00","1992","11","25","22:00","5.4","","5.4","","100","","11","","7","","0.6","","99.51","","","","","","Fog"
"1992-11-25 23:00","1992","11","25","23:00","5.7","","5.7","","100","","9","","11","","1.6","","99.47","","","","","","Fog"
"1992-11-26 00:00","1992","11","26","00:00","6.0","","6.0","","100","","10","","13","","0.8","","99.41","","","","","","Drizzle,Fog"
"1992-11-26 01:00","1992","11","26","01:00","6.3","","6.3","","100","","10","","15","","0.8","","99.34","","","","","","Drizzle,Fog"
"1992-11-26 02:00","1992","11","26","02:00","6.6","","6.6","","100","","10","","7","","0.4","","99.27","","","","","","Fog"
"1992-11-26 03:00","1992","11","26","03:00","6.7","","6.7","","100","","8","","4","","0.4","","99.21","","","","","","Fog"
"1992-11-26 04:00","1992","11","26","04:00","6.6","","6.6","","100","","12","","4","","0.2","","99.11","","","","","","Rain,Fog"
"1992-11-26 05:00","1992","11","26","05:00","6.8","","6.8","","100","","","","0","","0.2","","99.14","","","","","","Fog"
"1992-11-26 06:00","1992","11","26","06:00","6.7","","6.7","","100","","","","0","","0.2","","99.11","","","","","","Fog"
"1992-11-26 07:00","1992","11","26","07:00","6.8","","6.8","","100","","","","0","","0.2","","99.11","","","","","","Fog"
"1992-11-26 08:00","1992","11","26","08:00","6.8","","6.8","","100","","","","0","","0.2","","99.11","","","","","","Fog"
"1992-11-26 09:00","1992","11","26","09:00","7.0","","7.0","","100","","","","0","","1.6","","99.04","","","","","","Fog"
"1992-11-26 10:00","1992","11","26","10:00","8.1","","7.2","","94","","22","","9","","8.0","","99.01","","","","","","Fog"
"1992-11-26 11:00","1992","11","26","11:00","8.7","","7.4","","91","","18","","6","","8.0","","98.97","","","","","","Fog"
"1992-11-26 12:00","1992","11","26","12:00","10.1","","5.3","","72","","25","","24","","24.1","","98.94","","","","","","Mostly Cloudy"
"1992-11-26 13:00","1992","11","26","13:00","10.6","","4.5","","66","","25","","26","","24.1","","98.91","","","","","","Mostly Cloudy"
"1992-11-26 14:00","1992","11","26","14:00","9.0","","3.6","","69","","24","","26","","32.2","","98.94","","","","","","Mostly Cloudy"
"1992-11-26 15:00","1992","11","26","15:00","7.6","","1.8","","66","","24","","26","","24.1","","99.01","","","","","","Mostly Cloudy"
"1992-11-26 16:00","1992","11","26","16:00","6.6","","2.1","","73","","26","","15","","24.1","","99.04","","","","","","Cloudy"
"1992-11-26 17:00","1992","11","26","17:00","6.3","","2.1","","75","","25","","19","","19.3","","99.11","","","","","","Cloudy"
"1992-11-26 18:00","1992","11","26","18:00","6.0","","2.5","","78","","23","","11","","19.3","","99.14","","","","","","Cloudy"
"1992-11-26 19:00","1992","11","26","19:00","6.0","","2.0","","75","","23","","19","","19.3","","99.11","","","","","","Cloudy"
"1992-11-26 20:00","1992","11","26","20:00","5.8","","2.5","","79","","24","","17","","24.1","","99.11","","","","","","Cloudy"
"1992-11-26 21:00","1992","11","26","21:00","5.6","","2.0","","78","","23","","20","","24.1","","99.11","","","","","","Rain Showers"
"1992-11-26 22:00","1992","11","26","22:00","5.4","","1.5","","76","","26","","24","","24.1","","99.11","","","","","","Cloudy"
"1992-11-26 23:00","1992","11","26","23:00","5.1","","0.9","","74","","26","","22","","24.1","","99.14","","","","","","Cloudy"
"1992-11-27 00:00","1992","11","27","00:00","4.9","","1.4","","78","","25","","24","","24.1","","99.14","","","","","","Cloudy"
"1992-11-27 01:00","1992","11","27","01:00","4.5","","0.8","","77","","25","","17","","24.1","","99.17","","","","","","Cloudy"
"1992-11-27 02:00","1992","11","27","02:00","4.5","","0.8","","77","","26","","22","","24.1","","99.24","","","","","","Rain Showers"
"1992-11-27 03:00","1992","11","27","03:00","4.4","","0.8","","77","","26","","26","","24.1","","99.31","","","","","","Cloudy"
"1992-11-27 04:00","1992","11","27","04:00","4.0","","0.8","","79","","27","","22","","19.3","","99.31","","","","","","Rain Showers"
"1992-11-27 05:00","1992","11","27","05:00","3.5","","0.7","","82","","26","","17","","24.1","","99.34","","","","","","Cloudy"
"1992-11-27 06:00","1992","11","27","06:00","2.9","","0.7","","86","","25","","20","","24.1","","99.41","","","","","","Mostly Cloudy"
"1992-11-27 07:00","1992","11","27","07:00","3.3","","0.7","","83","","27","","19","","24.1","","99.47","","","","","","Mostly Cloudy"
"1992-11-27 08:00","1992","11","27","08:00","3.4","","0.7","","83","","28","","19","","24.1","","99.57","","","","","","Cloudy"
"1992-11-27 09:00","1992","11","27","09:00","3.8","","1.3","","84","","27","","11","","24.1","","99.61","","","","","","Cloudy"
"1992-11-27 10:00","1992","11","27","10:00","4.3","","1.8","","84","","28","","9","","24.1","","99.64","","","","","","Cloudy"
"1992-11-27 11:00","1992","11","27","11:00","4.8","","1.4","","79","","29","","13","","24.1","","99.61","","","","","","Cloudy"
"1992-11-27 12:00","1992","11","27","12:00","4.9","","0.9","","75","","30","","15","","24.1","","99.57","","","","","","Cloudy"
"1992-11-27 13:00","1992","11","27","13:00","5.1","","1.4","","77","","30","","11","","24.1","","99.54","","","","","","Cloudy"
"1992-11-27 14:00","1992","11","27","14:00","5.0","","1.4","","77","","31","","11","","24.1","","99.57","","","","","","Cloudy"
"1992-11-27 15:00","1992","11","27","15:00","4.8","","1.9","","82","","31","","7","","24.1","","99.61","","","","","","Cloudy"
"1992-11-27 16:00","1992","11","27","16:00","4.7","","1.3","","78","","31","","11","","24.1","","99.67","","","","","","Cloudy"
"1992-11-27 17:00","1992","11","27","17:00","4.3","","1.8","","84","","","","0","","24.1","","99.71","","","","","","Cloudy"
"1992-11-27 18:00","1992","11","27","18:00","4.2","","1.7","","84","","26","","4","","24.1","","99.71","","","","","","Drizzle"
"1992-11-27 19:00","1992","11","27","19:00","4.2","","1.7","","84","","31","","7","","19.3","","99.74","","","","","","Cloudy"
"1992-11-27 20:00","1992","11","27","20:00","4.0","","2.2","","88","","32","","7","","19.3","","99.74","","","","","","Drizzle"
"1992-11-27 21:00","1992","11","27","21:00","3.7","","2.2","","90","","31","","7","","19.3","","99.71","","","","","","Drizzle"
"1992-11-27 22:00","1992","11","27","22:00","3.8","","1.7","","86","","29","","6","","19.3","","99.71","","","","","","Cloudy"
"1992-11-27 23:00","1992","11","27","23:00","3.6","","1.7","","87","","30","","4","","19.3","","99.71","","","","","","Cloudy"
"1992-11-28 00:00","1992","11","28","00:00","3.4","","1.7","","89","","29","","6","","19.3","","99.64","","","","","","Cloudy"
"1992-11-28 01:00","1992","11","28","01:00","3.4","","1.7","","89","","","","0","","19.3","","99.64","","","","","","Cloudy"
"1992-11-28 02:00","1992","11","28","02:00","3.2","","1.1","","86","","","","0","","19.3","","99.64","","","","","","Cloudy"
"1992-11-28 03:00","1992","11","28","03:00","3.2","","1.1","","86","","33","","11","","24.1","","99.64","","","","","","Cloudy"
"1992-11-28 04:00","1992","11","28","04:00","3.0","","1.6","","91","","30","","11","","24.1","","99.61","","","","","","Cloudy"
"1992-11-28 05:00","1992","11","28","05:00","2.9","","0.7","","86","","31","","7","","19.3","","99.61","","","","","","Cloudy"
"1992-11-28 06:00","1992","11","28","06:00","2.8","","1.1","","89","","33","","6","","19.3","","99.64","","","","","","Cloudy"
"1992-11-28 07:00","1992","11","28","07:00","2.7","","0.6","","86","","32","","7","","19.3","","99.64","","","","","","Cloudy"
"1992-11-28 08:00","1992","11","28","08:00","2.7","","0.6","","86","","","","0","","19.3","","99.67","","","","","","Mostly Cloudy"
"1992-11-28 09:00","1992","11","28","09:00","2.8","","0.7","","86","","35","","6","","19.3","","99.71","","","","","","Cloudy"
"1992-11-28 10:00","1992","11","28","10:00","3.1","","-0.9","","75","","36","","4","","24.1","","99.74","","","","","","Cloudy"
"1992-11-28 11:00","1992","11","28","11:00","3.2","","-1.5","","71","","","","0","","24.1","","99.74","","","","","","Cloudy"
"1992-11-28 12:00","1992","11","28","12:00","3.7","","-1.4","","69","","","","0","","24.1","","99.67","","","","","","Cloudy"
"1992-11-28 13:00","1992","11","28","13:00","3.8","","-1.4","","69","","","","0","","24.1","","99.61","","","","","","Cloudy"
"1992-11-28 14:00","1992","11","28","14:00","4.2","","-1.9","","64","","","","0","","24.1","","99.61","","","","","","Mostly Cloudy"
"1992-11-28 15:00","1992","11","28","15:00","4.2","","-0.8","","70","","20","","4","","24.1","","99.57","","","","","","Cloudy"
"1992-11-28 16:00","1992","11","28","16:00","3.7","","-0.3","","75","","21","","13","","24.1","","99.57","","","","","","Cloudy"
"1992-11-28 17:00","1992","11","28","17:00","3.6","","0.2","","78","","20","","9","","16.1","","99.57","","","","","","Cloudy"
"1992-11-28 18:00","1992","11","28","18:00","3.2","","0.7","","84","","22","","6","","16.1","","99.61","","","","","","Mostly Cloudy"
"1992-11-28 19:00","1992","11","28","19:00","2.8","","1.6","","92","","","","0","","16.1","","99.61","","","","","","Mostly Cloudy"
"1992-11-28 20:00","1992","11","28","20:00","2.5","","0.1","","84","","28","","7","","16.1","","99.61","","","","","","Mostly Cloudy"
"1992-11-28 21:00","1992","11","28","21:00","2.2","","-0.4","","83","","28","","7","","16.1","","99.61","","","","","","Mostly Cloudy"
"1992-11-28 22:00","1992","11","28","22:00","2.3","","-0.4","","82","","27","","6","","16.1","","99.61","","","","","","Cloudy"
"1992-11-28 23:00","1992","11","28","23:00","2.4","","-0.4","","82","","26","","4","","16.1","","99.64","","","","","","Cloudy"
"1992-11-29 00:00","1992","11","29","00:00","2.3","","-0.9","","80","","27","","11","","16.1","","99.61","","","","","","Cloudy"
"1992-11-29 01:00","1992","11","29","01:00","2.0","","-1.5","","78","","28","","15","","16.1","","99.54","","","","","","Mostly Cloudy"
"1992-11-29 02:00","1992","11","29","02:00","2.1","","-1.5","","77","","26","","7","","16.1","","99.57","","","","","","Cloudy"
"1992-11-29 03:00","1992","11","29","03:00","2.1","","-1.5","","77","","28","","13","","16.1","","99.57","","","","","","Cloudy"
"1992-11-29 04:00","1992","11","29","04:00","2.1","","-2.1","","74","","28","","15","","19.3","","99.54","","","","","","Cloudy"
"1992-11-29 05:00","1992","11","29","05:00","2.2","","-2.6","","70","","25","","15","","19.3","","99.54","","","","","","Cloudy"
"1992-11-29 06:00","1992","11","29","06:00","1.9","","-2.6","","72","","26","","15","","19.3","","99.51","","","","","","Cloudy"
"1992-11-29 07:00","1992","11","29","07:00","1.8","","-2.1","","75","","25","","7","","19.3","","99.54","","","","","","Cloudy"
"1992-11-29 08:00","1992","11","29","08:00","1.8","","-2.6","","73","","24","","13","","19.3","","99.54","","","","","","Cloudy"
"1992-11-29 09:00","1992","11","29","09:00","1.9","","-2.1","","75","","25","","9","","19.3","","99.54","","","","","","Cloudy"
"1992-11-29 10:00","1992","11","29","10:00","1.9","","-2.1","","75","","23","","13","","19.3","","99.54","","","","","","Cloudy"
"1992-11-29 11:00","1992","11","29","11:00","2.1","","-2.1","","74","","24","","17","","16.1","","99.51","","","","","","Cloudy"
"1992-11-29 12:00","1992","11","29","12:00","1.9","","-2.1","","75","","24","","15","","16.1","","99.47","","","","","","Cloudy"
"1992-11-29 13:00","1992","11","29","13:00","2.0","","-1.5","","78","","24","","19","","16.1","","99.41","","","","","","Cloudy"
"1992-11-29 14:00","1992","11","29","14:00","2.1","","-1.5","","77","","26","","20","","16.1","","99.41","","","","","","Cloudy"
"1992-11-29 15:00","1992","11","29","15:00","2.1","","-1.5","","77","","26","","19","","16.1","","99.41","","","","","","Cloudy"
"1992-11-29 16:00","1992","11","29","16:00","2.0","","-2.1","","74","","24","","15","","16.1","","99.37","","","","","","Cloudy"
"1992-11-29 17:00","1992","11","29","17:00","1.7","","-2.1","","76","","23","","13","","16.1","","99.37","","","","","","Cloudy"
"1992-11-29 18:00","1992","11","29","18:00","1.8","","-2.1","","75","","24","","15","","19.3","","99.41","","","","","","Mostly Cloudy"
"1992-11-29 19:00","1992","11","29","19:00","1.8","","-2.1","","75","","23","","17","","24.1","","99.41","","","","","","Mostly Cloudy"
"1992-11-29 20:00","1992","11","29","20:00","1.4","","-2.1","","77","","23","","11","","24.1","","99.37","","","","","","Mostly Cloudy"
"1992-11-29 21:00","1992","11","29","21:00","1.0","","-2.4","","78","","23","","15","","24.1","","99.37","","","","","","Mostly Cloudy"
"1992-11-29 22:00","1992","11","29","22:00","0.4","","-1.8","","85","","23","","11","","24.1","","99.34","","","","","","Mainly Clear"
"1992-11-29 23:00","1992","11","29","23:00","0.1","","-1.7","","87","","23","","7","","12.9","","99.34","","","","","","Clear"
"1992-11-30 00:00","1992","11","30","00:00","0.0","","-1.5","","90","","23","","7","","6.4","","99.31","","","","-2","","Fog"
"1992-11-30 01:00","1992","11","30","01:00","-0.3","","-1.6","","91","","25","","6","","8.0","","99.24","","","","-2","","Fog"
"1992-11-30 02:00","1992","11","30","02:00","-0.6","","-1.6","","93","","25","","4","","8.0","","99.24","","","","-2","","Fog"
"1992-11-30 03:00","1992","11","30","03:00","0.0","","-1.5","","90","","20","","4","","8.0","","99.21","","","","-1","","Fog"
"1992-11-30 04:00","1992","11","30","04:00","-0.3","","-1.5","","91","","23","","7","","8.0","","99.14","","","","-3","","Fog"
"1992-11-30 05:00","1992","11","30","05:00","0.3","","-1.2","","90","","23","","7","","8.0","","99.11","","","","","","Fog"
"1992-11-30 06:00","1992","11","30","06:00","0.9","","-0.5","","90","","24","","7","","8.0","","99.11","","","","","","Fog"
"1992-11-30 07:00","1992","11","30","07:00","1.0","","-0.5","","90","","23","","7","","8.0","","99.07","","","","","","Fog"
"1992-11-30 08:00","1992","11","30","08:00","1.1","","-0.5","","89","","24","","11","","8.0","","99.04","","","","","","Fog"
"1992-11-30 09:00","1992","11","30","09:00","1.8","","0.1","","89","","22","","11","","8.0","","99.01","","","","","","Fog"
"1992-11-30 10:00","1992","11","30","10:00","2.7","","0.1","","83","","24","","17","","12.9","","99.01","","","","","","Cloudy"
"1992-11-30 11:00","1992","11","30","11:00","3.0","","0.7","","85","","24","","17","","9.7","","98.94","","","","","","Haze"
"1992-11-30 12:00","1992","11","30","12:00","3.3","","0.7","","83","","25","","17","","9.7","","98.87","","","","","","Haze"
"1992-11-30 13:00","1992","11","30","13:00","3.4","","0.2","","80","","25","","22","","12.9","","98.84","","","","","","Cloudy"
"1992-11-30 14:00","1992","11","30","14:00","3.0","","0.7","","85","","25","","20","","9.7","","98.81","","","","","","Haze"
"1992-11-30 15:00","1992","11","30","15:00","2.7","","0.1","","83","","24","","17","","9.7","","98.81","","","","","","Haze"
"1992-11-30 16:00","1992","11","30","16:00","2.6","","0.1","","84","","24","","13","","8.0","","98.77","","","","","","Drizzle,Haze"
"1992-11-30 17:00","1992","11","30","17:00","2.6","","0.1","","84","","24","","13","","6.4","","98.81","","","","","","Drizzle,Haze"
"1992-11-30 18:00","1992","11","30","18:00","1.9","","1.1","","95","","25","","9","","4.0","","98.81","","","","","","Drizzle,Fog"
"1992-11-30 19:00","1992","11","30","19:00","1.9","","1.1","","95","","27","","15","","9.7","","98.84","","","","","","Fog"
"1992-11-30 20:00","1992","11","30","20:00","1.5","","-0.5","","87","","26","","26","","9.7","","98.84","","","","","","Fog"
"1992-11-30 21:00","1992","11","30","21:00","1.5","","-0.5","","87","","28","","22","","9.7","","98.87","","","","","","Rain,Fog"
"1992-11-30 22:00","1992","11","30","22:00","1.1","","-1.0","","86","","26","","15","","12.9","","98.84","","","","","","Cloudy"
"1992-11-30 23:00","1992","11","30","23:00","0.9","","-1.0","","87","","26","","22","","12.9","","98.81","","","","","","Cloudy"
