"Station Name","TORONTO INTL A"
"Province","ONTARIO"
"Current Station Operator","NAV Canada"
"Latitude","43.68"
"Longitude","-79.63"
"Elevation","173.40"
"Climate Identifier","6158731"
"WMO Identifier","71624"
"TC Identifier","YYZ"
"All times are specified in Local Standard Time (LST). Add 1 hour to adjust for Daylight Saving Time where and when it is observed."

"Legend"
"E","Estimated"
"M","Missing"
"NA","Not Available"

"Date/Time","Year","Month","Day","Time","Temp (°C)","Temp Flag","Dew Point Temp (°C)","Dew Point Temp Flag","Rel Hum (%)","Rel Hum Flag","Wind Dir (10s deg)","Wind Dir Flag","Wind Spd (km/h)","Wind Spd Flag","Visibility (km)","Visibility Flag","Stn Press (kPa)","Stn Press Flag","Hmdx","Hmdx Flag","Wind Chill","Wind Chill Flag","Weather"
"2019-02-01 00:00","2019","02","01","00:00","-18.6","","-24.1","","63","","26","","27","","24.1","","100.52","","","","-30","","Blowing Snow"
"2019-02-01 01:00","2019","02","01","01:00","-18.8","","-24.2","","63","","27","","26","","24.1","","100.55","","","","-30","","Blowing Snow"
"2019-02-01 02:00","2019","02","01","02:00","-18.8","","-24.1","","64","","27","","24","","24.1","","100.54","","","","-30","","Blowing Snow"
"2019-02-01 03:00","2019","02","01","03:00","-18.8","","-24.0","","64","","27","","23","","24.1","","100.58","","","","-30","","NA"
"2019-02-01 04:00","2019","02","01","04:00","-18.8","","-23.9","","65","","27","","25","","24.1","","100.57","","","","-30","","Clear"
"2019-02-01 05:00","2019","02","01","05:00","-18.4","","-23.5","","65","","28","","25","","24.1","","100.58","","","","-30","","NA"
"2019-02-01 06:00","2019","02","01","06:00","-18.4","","-23.5","","65","","28","","27","","24.1","","100.59","","","","-30","","NA"
"2019-02-01 07:00","2019","02","01","07:00","-17.9","","-22.9","","66","","28","","16","","24.1","","100.61","","","","-27","","Mostly Cloudy"
"2019-02-01 08:00","2019","02","01","08:00","-17.6","","-22.7","","65","","28","","13","","24.1","","100.64","","","","-25","","NA"
"2019-02-01 09:00","2019","02","01","09:00","-16.9","","-22.1","","65","","28","","9","","24.1","","100.68","","","","-23","","NA"
"2019-02-01 10:00","2019","02","01","10:00","-14.5","","-20.2","","62","","26","","5","","24.1","","100.72","","","","-18","","Mainly Clear"
"2019-02-01 11:00","2019","02","01","11:00","-12.7","","-19.2","","59","","25","","5","","24.1","","100.73","","","","-16","","NA"
"2019-02-01 12:00","2019","02","01","12:00","-11.8","","-18.9","","56","","25","","15","","24.1","","100.72","","","","-19","","NA"
"2019-02-01 13:00","2019","02","01","13:00","-10.9","","-18.9","","52","","22","","7","","24.1","","100.64","","","","-15","","Clear"
"2019-02-01 14:00","2019","02","01","14:00","-10.4","","-19.2","","49","","23","","10","","24.1","","100.62","","","","-16","","NA"
"2019-02-01 15:00","2019","02","01","15:00","-10.1","","-19.7","","46","","24","","13","","24.1","","100.60","","","","-16","","NA"
"2019-02-01 16:00","2019","02","01","16:00","-10.1","","-20.3","","44","","24","","6","","24.1","","100.60","","","","-14","","Clear"
"2019-02-01 17:00","2019","02","01","17:00","-11.2","","-20.7","","46","","23","","8","","24.1","","100.62","","","","-16","","NA"
"2019-02-01 18:00","2019","02","01","18:00","-12.8","","-22.0","","47","","25","","13","","24.1","","100.64","","","","-20","","NA"
"2019-02-01 19:00","2019","02","01","19:00","-12.7","","-20.8","","51","","26","","13","","24.1","","100.64","","","","-20","","Mainly Clear"
"2019-02-01 20:00","2019","02","01","20:00","-14.3","","-21.7","","54","","26","","18","","24.1","","100.66","","","","-23","","NA"
"2019-02-01 21:00","2019","02","01","21:00","-15.3","","-21.9","","58","","27","","10","","24.1","","100.62","","","","-22","","NA"
"2019-02-01 22:00","2019","02","01","22:00","-15.9","","-22.2","","59","","25","","13","","24.1","","100.62","","","","-23","","Mainly Clear"
"2019-02-01 23:00","2019","02","01","23:00","-15.7","","-21.8","","60","","24","","10","","24.1","","100.56","","","","-22","","NA"
"2019-02-02 00:00","2019","02","02","00:00","-15.5","","-21.4","","61","","26","","12","","24.1","","100.52","","","","-23","","NA"
"2019-02-02 01:00","2019","02","02","01:00","-14.8","","-20.9","","60","","24","","13","","24.1","","100.47","","","","-22","","Mostly Cloudy"
"2019-02-02 02:00","2019","02","02","02:00","-14.3","","-20.6","","59","","21","","7","","24.1","","100.40","","","","-19","","NA"
"2019-02-02 03:00","2019","02","02","03:00","-14.3","","-20.6","","59","","18","","8","","24.1","","100.40","","","","-20","","NA"
"2019-02-02 04:00","2019","02","02","04:00","-13.3","","-19.1","","62","","22","","9","","24.1","","100.26","","","","-19","","Mostly Cloudy"
"2019-02-02 05:00","2019","02","02","05:00","-12.6","","-17.8","","65","","21","","11","","24.1","","100.14","","","","-19","","NA"
"2019-02-02 06:00","2019","02","02","06:00","-11.9","","-16.8","","67","","20","","14","","24.1","","100.12","","","","-19","","NA"
"2019-02-02 07:00","2019","02","02","07:00","-10.9","","-15.6","","68","","21","","19","","24.1","","99.95","","","","-19","","Cloudy"
"2019-02-02 08:00","2019","02","02","08:00","-9.6","","-14.3","","69","","22","","21","","24.1","","99.91","","","","-18","","NA"
"2019-02-02 09:00","2019","02","02","09:00","-8.9","","-13.4","","70","","22","","17","","24.1","","99.85","","","","-16","","NA"
"2019-02-02 10:00","2019","02","02","10:00","-7.8","","-12.0","","72","","21","","15","","19.3","","99.76","","","","-14","","Cloudy"
"2019-02-02 11:00","2019","02","02","11:00","-6.0","","-10.1","","73","","22","","16","","19.3","","99.66","","","","-12","","NA"
"2019-02-02 12:00","2019","02","02","12:00","-3.8","","-7.8","","74","","23","","18","","16.1","","99.57","","","","-10","","NA"
"2019-02-02 13:00","2019","02","02","13:00","-2.7","","-6.8","","73","","21","","17","","16.1","","99.42","","","","-8","","Cloudy"
"2019-02-02 14:00","2019","02","02","14:00","-1.6","","-5.9","","73","","24","","14","","16.1","","99.36","","","","-6","","NA"
"2019-02-02 15:00","2019","02","02","15:00","-0.4","","-4.5","","74","","25","","18","","16.1","","99.32","","","","-5","","NA"
"2019-02-02 16:00","2019","02","02","16:00","0.3","","-3.7","","75","","26","","16","","16.1","","99.33","","","","","","Cloudy"
"2019-02-02 17:00","2019","02","02","17:00","0.8","","-2.7","","77","","29","","18","","12.9","","99.37","","","","","","NA"
"2019-02-02 18:00","2019","02","02","18:00","0.8","","-2.3","","80","","27","","26","","12.9","","99.42","","","","","","NA"
"2019-02-02 19:00","2019","02","02","19:00","0.3","","-2.5","","82","","26","","13","","9.7","","99.49","","","","","","Fog"
"2019-02-02 20:00","2019","02","02","20:00","0.1","","-2.3","","84","","28","","10","","8.1","","99.54","","","","","","Fog"
"2019-02-02 21:00","2019","02","02","21:00","-0.2","","-2.4","","85","","27","","7","","6.4","","99.57","","","","-3","","Snow,Fog"
"2019-02-02 22:00","2019","02","02","22:00","0.1","","-1.8","","87","","22","","5","","6.4","","99.60","","","","","","Snow,Fog"
"2019-02-02 23:00","2019","02","02","23:00","0.0","","-1.7","","88","","15","","4","","3.2","","99.60","","","","-1","","Freezing Drizzle,Snow,Fog"
"2019-02-03 00:00","2019","02","03","00:00","0.1","","-1.4","","90","","13","","5","","1.2","","99.58","","","","","","Freezing Drizzle,Fog"
"2019-02-03 01:00","2019","02","03","01:00","0.1","","-1.2","","91","","14","","5","","0.8","","99.56","","","","","","Freezing Drizzle,Fog"
"2019-02-03 02:00","2019","02","03","02:00","0.1","","-1.1","","92","","14","","11","","0.2","","99.50","","","","","","Drizzle,Fog"
"2019-02-03 03:00","2019","02","03","03:00","0.1","","-0.9","","93","","14","","11","","0.2","","99.48","","","","","","Drizzle,Fog"
"2019-02-03 04:00","2019","02","03","04:00","0.2","","-0.7","","93","","14","","9","","0.2","","99.42","","","","","","Drizzle,Fog"
"2019-02-03 05:00","2019","02","03","05:00","0.6","","-0.3","","94","","14","","7","","0.8","","99.41","","","","","","Fog"
"2019-02-03 06:00","2019","02","03","06:00","0.8","","-0.1","","94","","14","","9","","4.8","","99.37","","","","","","Fog"
"2019-02-03 07:00","2019","02","03","07:00","1.0","","0.2","","94","","36","","1","","4.8","","99.36","","","","","","Fog"
"2019-02-03 08:00","2019","02","03","08:00","1.5","","0.7","","94","","19","","11","","4.0","","99.28","","","","","","Fog"
"2019-02-03 09:00","2019","02","03","09:00","2.4","","1.5","","94","","19","","14","","4.0","","99.28","","","","","","Fog"
"2019-02-03 10:00","2019","02","03","10:00","3.0","","2.0","","93","","19","","8","","9.7","","99.24","","","","","","Fog"
"2019-02-03 11:00","2019","02","03","11:00","4.0","","2.8","","91","","20","","7","","11.3","","99.20","","","","","","NA"
"2019-02-03 12:00","2019","02","03","12:00","5.7","","4.1","","89","","20","","16","","11.3","","99.09","","","","","","NA"
"2019-02-03 13:00","2019","02","03","13:00","6.9","","4.6","","85","","21","","14","","16.1","","99.00","","","","","","Mostly Cloudy"
"2019-02-03 14:00","2019","02","03","14:00","7.3","","4.0","","80","","23","","29","","19.3","","98.96","","","","","","NA"
"2019-02-03 15:00","2019","02","03","15:00","7.7","","4.2","","78","","23","","23","","24.1","","98.93","","","","","","NA"
"2019-02-03 16:00","2019","02","03","16:00","6.9","","3.5","","79","","23","","9","","24.1","","98.99","","","","","","Cloudy"
"2019-02-03 17:00","2019","02","03","17:00","6.8","","3.3","","79","","26","","13","","16.1","","99.03","","","","","","NA"
"2019-02-03 18:00","2019","02","03","18:00","7.0","","3.8","","80","","20","","13","","14.5","","99.00","","","","","","NA"
"2019-02-03 19:00","2019","02","03","19:00","6.7","","3.5","","80","","24","","5","","24.1","","99.05","","","","","","Mostly Cloudy"
"2019-02-03 20:00","2019","02","03","20:00","6.9","","3.7","","80","","24","","10","","24.1","","99.04","","","","","","NA"
"2019-02-03 21:00","2019","02","03","21:00","7.2","","4.1","","80","","23","","18","","24.1","","99.06","","","","","","NA"
"2019-02-03 22:00","2019","02","03","22:00","7.1","","3.9","","80","","23","","17","","24.1","","99.06","","","","","","Cloudy"
"2019-02-03 23:00","2019","02","03","23:00","6.8","","3.9","","82","","36","","2","","24.1","","99.11","","","","","","NA"
"2019-02-04 00:00","2019","02","04","00:00","7.2","","4.4","","83","","21","","12","","24.1","","99.14","","","","","","NA"
"2019-02-04 01:00","2019","02","04","01:00","6.9","","4.2","","83","","21","","9","","24.1","","99.17","","","","","","Cloudy"
"2019-02-04 02:00","2019","02","04","02:00","6.7","","4.2","","84","","19","","5","","19.3","","99.15","","","","","","NA"
"2019-02-04 03:00","2019","02","04","03:00","6.5","","4.3","","86","","22","","10","","16.1","","99.17","","","","","","NA"
"2019-02-04 04:00","2019","02","04","04:00","6.8","","5.0","","88","","17","","9","","9.7","","99.14","","","","","","Fog"
"2019-02-04 05:00","2019","02","04","05:00","6.5","","4.9","","90","","19","","5","","9.7","","99.19","","","","","","Drizzle,Fog"
"2019-02-04 06:00","2019","02","04","06:00","6.5","","4.8","","89","","17","","6","","19.3","","99.21","","","","","","NA"
"2019-02-04 07:00","2019","02","04","07:00","6.3","","4.5","","88","","14","","8","","16.1","","99.21","","","","","","Mostly Cloudy"
"2019-02-04 08:00","2019","02","04","08:00","6.0","","4.1","","87","","18","","8","","12.9","","99.24","","","","","","NA"
"2019-02-04 09:00","2019","02","04","09:00","6.1","","4.1","","87","","13","","9","","12.9","","99.23","","","","","","NA"
"2019-02-04 10:00","2019","02","04","10:00","7.6","","5.0","","84","","20","","4","","24.1","","99.21","","","","","","Mostly Cloudy"
"2019-02-04 11:00","2019","02","04","11:00","8.8","","5.2","","78","","13","","5","","24.1","","99.14","","","","","","NA"
"2019-02-04 12:00","2019","02","04","12:00","10.2","","4.8","","69","","14","","6","","24.1","","99.07","","","","","","NA"
"2019-02-04 13:00","2019","02","04","13:00","10.5","","4.5","","66","","13","","10","","19.3","","98.99","","","","","","Cloudy"
"2019-02-04 14:00","2019","02","04","14:00","11.9","","5.4","","64","","18","","10","","19.3","","98.89","","","","","","NA"
"2019-02-04 15:00","2019","02","04","15:00","12.2","","5.6","","64","","18","","12","","24.1","","98.81","","","","","","NA"
"2019-02-04 16:00","2019","02","04","16:00","12.2","","5.5","","63","","17","","9","","24.1","","98.74","","","","","","Cloudy"
"2019-02-04 17:00","2019","02","04","17:00","10.2","","4.6","","68","","15","","11","","24.1","","98.66","","","","","","NA"
"2019-02-04 18:00","2019","02","04","18:00","8.8","","4.1","","72","","16","","11","","24.1","","98.57","","","","","","NA"
"2019-02-04 19:00","2019","02","04","19:00","9.9","","5.1","","72","","17","","12","","19.3","","98.53","","","","","","Rain"
"2019-02-04 20:00","2019","02","04","20:00","11.0","","5.9","","71","","21","","19","","19.3","","98.49","","","","","","Rain"
"2019-02-04 21:00","2019","02","04","21:00","10.4","","6.8","","79","","21","","28","","19.3","","98.42","","","","","","Rain"
"2019-02-04 22:00","2019","02","04","22:00","9.8","","7.5","","85","","22","","26","","19.3","","98.43","","","","","","Rain"
"2019-02-04 23:00","2019","02","04","23:00","9.5","","7.8","","89","","23","","26","","19.3","","98.43","","","","","","Rain"
"2019-02-05 00:00","2019","02","05","00:00","9.5","","7.9","","90","","24","","27","","12.9","","98.44","","","","","","Drizzle"
"2019-02-05 01:00","2019","02","05","01:00","9.3","","7.9","","91","","26","","22","","19.3","","98.51","","","","","","Drizzle"
"2019-02-05 02:00","2019","02","05","02:00","8.6","","7.0","","90","","29","","16","","19.3","","98.65","","","","","","NA"
"2019-02-05 03:00","2019","02","05","03:00","7.6","","5.8","","88","","29","","28","","24.1","","98.78","","","","","","NA"
"2019-02-05 04:00","2019","02","05","04:00","6.7","","4.6","","86","","29","","28","","24.1","","98.86","","","","","","Cloudy"
"2019-02-05 05:00","2019","02","05","05:00","6.1","","3.6","","84","","29","","25","","24.1","","98.94","","","","","","NA"
"2019-02-05 06:00","2019","02","05","06:00","4.8","","2.0","","82","","29","","31","","24.1","","99.09","","","","","","NA"
"2019-02-05 07:00","2019","02","05","07:00","3.6","","0.6","","81","","29","","18","","24.1","","99.22","","","","","","Cloudy"
"2019-02-05 08:00","2019","02","05","08:00","3.3","","0.1","","80","","28","","20","","24.1","","99.35","","","","","","NA"
"2019-02-05 09:00","2019","02","05","09:00","1.3","","-1.8","","80","","34","","22","","24.1","","99.51","","","","","","NA"
"2019-02-05 10:00","2019","02","05","10:00","1.1","","-1.8","","81","","31","","26","","24.1","","99.60","","","","","","Cloudy"
"2019-02-05 11:00","2019","02","05","11:00","-0.4","","-4.0","","76","","30","","30","","24.1","","99.76","","","","-7","","NA"
"2019-02-05 12:00","2019","02","05","12:00","-0.1","","-4.3","","73","","30","","24","","24.1","","99.83","","","","-6","","NA"
"2019-02-05 13:00","2019","02","05","13:00","-0.4","","-5.3","","70","","32","","30","","24.1","","99.88","","","","-7","","Mostly Cloudy"
"2019-02-05 14:00","2019","02","05","14:00","-1.0","","-6.3","","68","","34","","23","","24.1","","99.94","","","","-7","","NA"
"2019-02-05 15:00","2019","02","05","15:00","-2.0","","-6.8","","70","","34","","17","","24.1","","100.02","","","","-7","","NA"
"2019-02-05 16:00","2019","02","05","16:00","-3.2","","-7.7","","71","","1","","22","","24.1","","100.09","","","","-10","","Mostly Cloudy"
"2019-02-05 17:00","2019","02","05","17:00","-4.0","","-8.4","","72","","3","","18","","24.1","","100.17","","","","-10","","NA"
"2019-02-05 18:00","2019","02","05","18:00","-4.7","","-9.1","","72","","1","","15","","24.1","","100.25","","","","-10","","NA"
"2019-02-05 19:00","2019","02","05","19:00","-5.0","","-9.3","","72","","36","","17","","24.1","","100.29","","","","-11","","Mostly Cloudy"
"2019-02-05 20:00","2019","02","05","20:00","-5.6","","-9.9","","72","","1","","16","","24.1","","100.29","","","","-12","","NA"
"2019-02-05 21:00","2019","02","05","21:00","-6.4","","-10.5","","73","","1","","19","","24.1","","100.28","","","","-13","","NA"
"2019-02-05 22:00","2019","02","05","22:00","-7.0","","-11.1","","73","","36","","20","","24.1","","100.28","","","","-14","","Mainly Clear"
"2019-02-05 23:00","2019","02","05","23:00","-6.9","","-10.9","","73","","1","","13","","24.1","","100.28","","","","-12","","NA"
"2019-02-06 00:00","2019","02","06","00:00","-6.9","","-10.9","","73","","1","","14","","24.1","","100.30","","","","-13","","NA"
"2019-02-06 01:00","2019","02","06","01:00","-6.7","","-10.7","","73","","6","","7","","24.1","","100.23","","","","-10","","Mostly Cloudy"
"2019-02-06 02:00","2019","02","06","02:00","-6.0","","-10.3","","72","","6","","11","","24.1","","100.15","","","","-11","","NA"
"2019-02-06 03:00","2019","02","06","03:00","-5.5","","-9.8","","72","","4","","9","","24.1","","100.17","","","","-10","","NA"
"2019-02-06 04:00","2019","02","06","04:00","-4.5","","-8.5","","74","","6","","13","","24.1","","99.99","","","","-10","","Cloudy"
"2019-02-06 05:00","2019","02","06","05:00","-3.8","","-7.2","","77","","9","","29","","24.1","","99.87","","","","-11","","NA"
"2019-02-06 06:00","2019","02","06","06:00","-3.8","","-6.8","","79","","9","","20","","19.3","","99.98","","","","-10","","Snow"
"2019-02-06 07:00","2019","02","06","07:00","-4.1","","-6.8","","82","","8","","18","","16.1","","99.99","","","","-10","","Freezing Rain,Snow Pellets"
"2019-02-06 08:00","2019","02","06","08:00","-4.8","","-7.2","","83","","8","","17","","1.6","","99.70","","","","-11","","Ice Pellets"
"2019-02-06 09:00","2019","02","06","09:00","-4.6","","-6.8","","85","","9","","15","","1.6","","99.70","","","","-10","","Snow,Ice Pellets"
"2019-02-06 10:00","2019","02","06","10:00","-4.2","","-6.2","","86","","9","","16","","2.4","","99.63","","","","-10","","Ice Pellets"
"2019-02-06 11:00","2019","02","06","11:00","-3.2","","-5.1","","87","","9","","17","","1.6","","99.55","","","","-9","","Ice Pellets"
"2019-02-06 12:00","2019","02","06","12:00","-2.4","","-4.3","","87","","9","","13","","2.4","","99.48","","","","-7","","Freezing Rain,Ice Pellets"
"2019-02-06 13:00","2019","02","06","13:00","-2.0","","-3.8","","88","","8","","17","","3.2","","99.37","","","","-7","","Freezing Rain,Ice Pellets"
"2019-02-06 14:00","2019","02","06","14:00","-1.1","","-2.8","","89","","10","","17","","4.0","","99.23","","","","-6","","Freezing Rain,Ice Pellets"
"2019-02-06 15:00","2019","02","06","15:00","-1.2","","-2.8","","89","","9","","18","","12.9","","99.21","","","","-6","","NA"
"2019-02-06 16:00","2019","02","06","16:00","-1.3","","-2.8","","89","","6","","11","","9.7","","99.27","","","","-5","","Freezing Rain"
"2019-02-06 17:00","2019","02","06","17:00","-1.9","","-3.3","","90","","6","","12","","12.9","","99.26","","","","-6","","NA"
"2019-02-06 18:00","2019","02","06","18:00","-2.1","","-3.5","","90","","7","","12","","9.7","","99.30","","","","-6","","Fog"
"2019-02-06 19:00","2019","02","06","19:00","-2.1","","-3.4","","91","","2","","10","","9.7","","99.37","","","","-6","","Fog"
"2019-02-06 20:00","2019","02","06","20:00","-1.9","","-3.2","","91","","36","","11","","8.1","","99.46","","","","-6","","Freezing Drizzle,Fog"
"2019-02-06 21:00","2019","02","06","21:00","-2.3","","-3.6","","91","","35","","19","","9.7","","99.52","","","","-8","","Freezing Drizzle,Fog"
"2019-02-06 22:00","2019","02","06","22:00","-2.3","","-3.6","","91","","1","","10","","16.1","","99.55","","","","-6","","Cloudy"
"2019-02-06 23:00","2019","02","06","23:00","-2.3","","-3.7","","90","","1","","11","","16.1","","99.61","","","","-6","","NA"
"2019-02-07 00:00","2019","02","07","00:00","-2.2","","-3.8","","89","","2","","12","","24.1","","99.62","","","","-6","","NA"
"2019-02-07 01:00","2019","02","07","01:00","-2.5","","-4.1","","89","","1","","9","","24.1","","99.66","","","","-6","","Cloudy"
"2019-02-07 02:00","2019","02","07","02:00","-2.5","","-4.3","","88","","34","","9","","24.1","","99.72","","","","-6","","NA"
"2019-02-07 03:00","2019","02","07","03:00","-2.8","","-4.6","","88","","35","","12","","24.1","","99.75","","","","-7","","NA"
"2019-02-07 04:00","2019","02","07","04:00","-3.0","","-4.8","","87","","36","","16","","24.1","","99.76","","","","-8","","Cloudy"
"2019-02-07 05:00","2019","02","07","05:00","-3.2","","-5.0","","88","","1","","10","","12.9","","99.73","","","","-7","","Freezing Drizzle"
"2019-02-07 06:00","2019","02","07","06:00","-3.1","","-4.8","","89","","4","","8","","8.1","","99.69","","","","-6","","Freezing Drizzle,Fog"
"2019-02-07 07:00","2019","02","07","07:00","-3.0","","-4.5","","89","","4","","10","","6.4","","99.70","","","","-7","","Fog"
"2019-02-07 08:00","2019","02","07","08:00","-2.8","","-4.3","","90","","9","","8","","4.8","","99.73","","","","-6","","Fog"
"2019-02-07 09:00","2019","02","07","09:00","-2.5","","-4.0","","90","","7","","7","","3.2","","99.74","","","","-5","","Freezing Drizzle,Fog"
"2019-02-07 10:00","2019","02","07","10:00","-2.1","","-3.4","","90","","10","","13","","2.4","","99.69","","","","-7","","Freezing Drizzle,Fog"
"2019-02-07 11:00","2019","02","07","11:00","-1.8","","-3.1","","91","","8","","10","","2.4","","99.61","","","","-5","","Fog"
"2019-02-07 12:00","2019","02","07","12:00","-1.5","","-2.7","","91","","9","","10","","2.0","","99.49","","","","-5","","Fog"
"2019-02-07 13:00","2019","02","07","13:00","-1.8","","-3.0","","92","","9","","12","","3.2","","99.39","","","","-6","","Fog"
"2019-02-07 14:00","2019","02","07","14:00","-1.8","","-2.9","","92","","9","","14","","2.0","","99.32","","","","-6","","Fog"
"2019-02-07 15:00","2019","02","07","15:00","-1.8","","-2.9","","92","","10","","13","","1.2","","99.22","","","","-6","","Fog"
"2019-02-07 16:00","2019","02","07","16:00","-1.6","","-2.6","","93","","9","","13","","1.2","","99.19","","","","-6","","Freezing Rain,Fog"
"2019-02-07 17:00","2019","02","07","17:00","-1.2","","-2.2","","93","","9","","16","","2.4","","98.96","","","","-6","","Freezing Rain,Fog"
"2019-02-07 18:00","2019","02","07","18:00","-0.9","","-1.9","","93","","11","","22","","1.0","","98.68","","","","-7","","Fog"
"2019-02-07 19:00","2019","02","07","19:00","-0.2","","-1.2","","94","","12","","32","","0.4","","98.39","","","","-7","","Freezing Fog"
"2019-02-07 20:00","2019","02","07","20:00","0.7","","-0.1","","94","","13","","13","","4.0","","98.24","","","","","","Drizzle,Fog"
"2019-02-07 21:00","2019","02","07","21:00","0.9","","0.0","","94","","3","","10","","0.2","","98.04","","","","","","Fog"
"2019-02-07 22:00","2019","02","07","22:00","1.0","","0.2","","94","","3","","7","","1.2","","98.02","","","","","","Fog"
"2019-02-07 23:00","2019","02","07","23:00","1.2","","0.4","","95","","7","","4","","0.4","","97.93","","","","","","Drizzle,Fog"
"2019-02-08 00:00","2019","02","08","00:00","1.5","","0.7","","95","","17","","9","","0.8","","97.87","","","","","","Drizzle,Fog"
"2019-02-08 01:00","2019","02","08","01:00","3.6","","2.9","","95","","19","","14","","1.2","","97.84","","","","","","Drizzle,Fog"
"2019-02-08 02:00","2019","02","08","02:00","3.3","","2.5","","95","","27","","47","","12.9","","98.06","","","","","","NA"
"2019-02-08 03:00","2019","02","08","03:00","2.3","","1.3","","93","","26","","42","","12.9","","98.28","","","","","","NA"
"2019-02-08 04:00","2019","02","08","04:00","2.0","","0.3","","89","","26","","45","","24.1","","98.43","","","","","","Mostly Cloudy"
"2019-02-08 05:00","2019","02","08","05:00","1.2","","-1.0","","86","","26","","40","","24.1","","98.57","","","","","","NA"
"2019-02-08 06:00","2019","02","08","06:00","0.4","","-2.8","","79","","27","","52","","24.1","","98.71","","","","","","NA"
"2019-02-08 07:00","2019","02","08","07:00","-0.9","","-5.2","","72","","26","","36","","24.1","","98.92","","","","-8","","Snow"
"2019-02-08 08:00","2019","02","08","08:00","-3.1","","-8.0","","69","","26","","47","","4.8","","99.13","","","","-12","","Snow"
"2019-02-08 09:00","2019","02","08","09:00","-3.4","","-9.0","","65","","26","","50","","4.8","","99.27","","","","-13","","Snow Showers"
"2019-02-08 10:00","2019","02","08","10:00","-4.4","","-10.5","","63","","26","","58","","24.1","","99.42","","","","-15","","Snow Showers"
"2019-02-08 11:00","2019","02","08","11:00","-5.0","","-10.7","","64","","25","","41","","4.8","","99.55","","","","-14","","Snow Showers"
"2019-02-08 12:00","2019","02","08","12:00","-4.5","","-10.6","","63","","26","","52","","24.1","","99.63","","","","-14","","Snow Showers"
"2019-02-08 13:00","2019","02","08","13:00","-4.6","","-11.1","","61","","26","","52","","24.1","","99.69","","","","-15","","Snow Showers"
"2019-02-08 14:00","2019","02","08","14:00","-4.5","","-11.1","","60","","26","","55","","19.3","","99.77","","","","-15","","Snow Showers"
"2019-02-08 15:00","2019","02","08","15:00","-4.9","","-11.9","","58","","26","","52","","19.3","","99.84","","","","-15","","Snow Showers"
"2019-02-08 16:00","2019","02","08","16:00","-5.8","","-11.3","","65","","26","","44","","19.3","","100.00","","","","-16","","Snow Showers"
"2019-02-08 17:00","2019","02","08","17:00","-6.6","","-13.0","","61","","28","","46","","1.6","","100.13","","","","-17","","Snow Showers"
"2019-02-08 18:00","2019","02","08","18:00","-7.9","","-13.6","","64","","27","","38","","19.3","","100.29","","","","-18","","Snow Showers"
"2019-02-08 19:00","2019","02","08","19:00","-8.2","","-14.2","","63","","27","","48","","24.1","","100.43","","","","-19","","Snow Showers"
"2019-02-08 20:00","2019","02","08","20:00","-8.8","","-14.9","","62","","27","","39","","24.1","","100.52","","","","-19","","NA"
"2019-02-08 21:00","2019","02","08","21:00","-8.9","","-15.5","","59","","27","","37","","24.1","","100.65","","","","-19","","NA"
"2019-02-08 22:00","2019","02","08","22:00","-9.5","","-15.2","","63","","27","","37","","24.1","","100.78","","","","-20","","Mainly Clear"
"2019-02-08 23:00","2019","02","08","23:00","-9.4","","-16.0","","59","","27","","54","","24.1","","100.92","","","","-21","","NA"
"2019-02-09 00:00","2019","02","09","00:00","-9.5","","-16.3","","58","","27","","44","","24.1","","100.97","","","","-21","","NA"
"2019-02-09 01:00","2019","02","09","01:00","-9.2","","-16.4","","56","","26","","42","","24.1","","101.11","","","","-20","","Mostly Cloudy"
"2019-02-09 02:00","2019","02","09","02:00","-9.8","","-16.0","","61","","26","","33","","24.1","","101.21","","","","-20","","NA"
"2019-02-09 03:00","2019","02","09","03:00","-10.0","","-15.7","","63","","26","","36","","24.1","","101.29","","","","-20","","NA"
"2019-02-09 04:00","2019","02","09","04:00","-9.5","","-15.0","","65","","26","","29","","24.1","","101.37","","","","-19","","Mainly Clear"
"2019-02-09 05:00","2019","02","09","05:00","-9.4","","-14.8","","65","","26","","27","","24.1","","101.49","","","","-18","","NA"
"2019-02-09 06:00","2019","02","09","06:00","-9.1","","-14.4","","66","","26","","24","","24.1","","101.58","","","","-17","","NA"
"2019-02-09 07:00","2019","02","09","07:00","-8.5","","-14.1","","65","","26","","32","","24.1","","101.66","","","","-18","","Mainly Clear"
"2019-02-09 08:00","2019","02","09","08:00","-8.1","","-13.8","","64","","27","","30","","24.1","","101.75","","","","-17","","NA"
"2019-02-09 09:00","2019","02","09","09:00","-7.3","","-13.2","","63","","28","","23","","24.1","","101.90","","","","-15","","NA"
"2019-02-09 10:00","2019","02","09","10:00","-6.5","","-12.5","","63","","29","","32","","19.3","","101.95","","","","-15","","Snow"
"2019-02-09 11:00","2019","02","09","11:00","-5.9","","-12.0","","62","","28","","28","","16.1","","102.01","","","","-14","","Snow Showers"
"2019-02-09 12:00","2019","02","09","12:00","-5.4","","-11.7","","62","","31","","19","","19.3","","102.00","","","","-12","","Snow Showers"
"2019-02-09 13:00","2019","02","09","13:00","-5.5","","-11.7","","62","","31","","16","","19.3","","101.94","","","","-11","","Snow Showers"
"2019-02-09 14:00","2019","02","09","14:00","-4.2","","-11.4","","58","","28","","22","","24.1","","101.91","","","","-11","","NA"
"2019-02-09 15:00","2019","02","09","15:00","-4.5","","-12.1","","56","","31","","15","","24.1","","101.91","","","","-10","","NA"
"2019-02-09 16:00","2019","02","09","16:00","-4.6","","-12.6","","54","","30","","21","","24.1","","101.91","","","","-11","","Mostly Cloudy"
"2019-02-09 17:00","2019","02","09","17:00","-5.0","","-12.7","","55","","29","","19","","24.1","","101.88","","","","-11","","NA"
"2019-02-09 18:00","2019","02","09","18:00","-5.2","","-12.1","","59","","27","","17","","12.9","","101.89","","","","-11","","Snow Showers"
"2019-02-09 19:00","2019","02","09","19:00","-5.8","","-11.4","","65","","27","","23","","16.1","","101.93","","","","-13","","Cloudy"
"2019-02-09 20:00","2019","02","09","20:00","-6.1","","-11.9","","64","","27","","26","","24.1","","101.98","","","","-14","","NA"
"2019-02-09 21:00","2019","02","09","21:00","-7.0","","-12.8","","63","","27","","19","","24.1","","101.96","","","","-14","","NA"
"2019-02-09 22:00","2019","02","09","22:00","-7.8","","-13.4","","65","","26","","18","","24.1","","101.98","","","","-15","","Mainly Clear"
"2019-02-09 23:00","2019","02","09","23:00","-8.6","","-13.9","","66","","26","","16","","24.1","","101.93","","","","-15","","NA"
"2019-02-10 00:00","2019","02","10","00:00","-9.1","","-14.2","","67","","27","","11","","24.1","","101.87","","","","-15","","NA"
"2019-02-10 01:00","2019","02","10","01:00","-9.4","","-14.3","","68","","26","","7","","24.1","","101.83","","","","-13","","Mostly Cloudy"
"2019-02-10 02:00","2019","02","10","02:00","-9.0","","-13.8","","68","","23","","8","","24.1","","101.79","","","","-13","","NA"
"2019-02-10 03:00","2019","02","10","03:00","-8.9","","-13.8","","68","","24","","8","","24.1","","101.80","","","","-13","","NA"
"2019-02-10 04:00","2019","02","10","04:00","-8.8","","-13.8","","68","","23","","9","","24.1","","101.79","","","","-13","","Mostly Cloudy"
"2019-02-10 05:00","2019","02","10","05:00","-9.4","","-14.2","","68","","25","","14","","24.1","","101.74","","","","-16","","NA"
"2019-02-10 06:00","2019","02","10","06:00","-9.4","","-14.0","","69","","23","","13","","24.1","","101.68","","","","-15","","NA"
"2019-02-10 07:00","2019","02","10","07:00","-9.2","","-13.7","","70","","25","","14","","24.1","","101.63","","","","-16","","Mostly Cloudy"
"2019-02-10 08:00","2019","02","10","08:00","-9.0","","-13.3","","71","","24","","10","","24.1","","101.60","","","","-14","","NA"
"2019-02-10 09:00","2019","02","10","09:00","-7.7","","-12.2","","71","","24","","13","","24.1","","101.58","","","","-13","","NA"
"2019-02-10 10:00","2019","02","10","10:00","-6.3","","-11.3","","68","","25","","17","","24.1","","101.51","","","","-13","","Mostly Cloudy"
"2019-02-10 11:00","2019","02","10","11:00","-5.4","","-10.9","","65","","25","","12","","24.1","","101.44","","","","-10","","NA"
"2019-02-10 12:00","2019","02","10","12:00","-3.7","","-9.9","","62","","25","","14","","24.1","","101.41","","","","-9","","NA"
"2019-02-10 13:00","2019","02","10","13:00","-4.2","","-11.1","","59","","25","","6","","24.1","","101.34","","","","-7","","Cloudy"
"2019-02-10 14:00","2019","02","10","14:00","-4.1","","-11.4","","57","","35","","8","","24.1","","101.13","","","","-8","","NA"
"2019-02-10 15:00","2019","02","10","15:00","-4.0","","-12.1","","53","","36","","4","","24.1","","101.07","","","","-6","","NA"
"2019-02-10 16:00","2019","02","10","16:00","-3.5","","-12.1","","52","","3","","10","","24.1","","101.01","","","","-7","","Cloudy"
"2019-02-10 17:00","2019","02","10","17:00","-3.7","","-12.8","","50","","4","","12","","24.1","","100.92","","","","-8","","NA"
"2019-02-10 18:00","2019","02","10","18:00","-4.0","","-12.8","","51","","16","","10","","24.1","","100.89","","","","-8","","NA"
"2019-02-10 19:00","2019","02","10","19:00","-4.3","","-11.0","","60","","14","","8","","24.1","","100.86","","","","-8","","Cloudy"
"2019-02-10 20:00","2019","02","10","20:00","-4.2","","-10.5","","62","","14","","8","","24.1","","100.82","","","","-8","","Snow"
"2019-02-10 21:00","2019","02","10","21:00","-4.9","","-10.2","","66","","6","","11","","9.7","","100.76","","","","-9","","Snow"
"2019-02-10 22:00","2019","02","10","22:00","-5.1","","-9.6","","71","","3","","12","","8.1","","100.72","","","","-10","","Snow"
"2019-02-10 23:00","2019","02","10","23:00","-5.0","","-8.8","","75","","5","","9","","6.4","","100.67","","","","-9","","Snow"
"2019-02-11 00:00","2019","02","11","00:00","-5.2","","-8.3","","79","","5","","13","","8.1","","100.57","","","","-10","","Snow"
"2019-02-11 01:00","2019","02","11","01:00","-5.1","","-8.0","","80","","4","","12","","9.7","","100.52","","","","-10","","Snow"
"2019-02-11 02:00","2019","02","11","02:00","-5.0","","-7.8","","81","","3","","12","","9.7","","100.53","","","","-10","","Snow"
"2019-02-11 03:00","2019","02","11","03:00","-5.3","","-7.9","","82","","3","","13","","6.4","","100.50","","","","-10","","Snow"
"2019-02-11 04:00","2019","02","11","04:00","-5.5","","-8.0","","83","","4","","14","","6.4","","100.47","","","","-11","","Snow"
"2019-02-11 05:00","2019","02","11","05:00","-5.5","","-8.0","","83","","3","","18","","16.1","","100.49","","","","-12","","Snow"
"2019-02-11 06:00","2019","02","11","06:00","-5.7","","-8.2","","83","","4","","21","","24.1","","100.52","","","","-13","","Snow"
"2019-02-11 07:00","2019","02","11","07:00","-5.5","","-8.1","","82","","6","","15","","16.1","","100.54","","","","-11","","Snow"
"2019-02-11 08:00","2019","02","11","08:00","-5.4","","-8.2","","81","","4","","21","","9.7","","100.60","","","","-12","","Snow"
"2019-02-11 09:00","2019","02","11","09:00","-5.4","","-8.3","","81","","6","","18","","12.9","","100.63","","","","-12","","Snow"
"2019-02-11 10:00","2019","02","11","10:00","-5.0","","-7.9","","80","","7","","18","","16.1","","100.66","","","","-11","","Snow"
"2019-02-11 11:00","2019","02","11","11:00","-4.8","","-7.9","","79","","6","","20","","24.1","","100.68","","","","-11","","NA"
"2019-02-11 12:00","2019","02","11","12:00","-4.8","","-8.1","","77","","6","","17","","16.1","","100.70","","","","-11","","Snow"
"2019-02-11 13:00","2019","02","11","13:00","-4.4","","-8.2","","75","","7","","24","","24.1","","100.67","","","","-11","","Mostly Cloudy"
"2019-02-11 14:00","2019","02","11","14:00","-4.0","","-8.5","","71","","7","","24","","24.1","","100.65","","","","-11","","NA"
"2019-02-11 15:00","2019","02","11","15:00","-4.0","","-9.1","","68","","9","","28","","24.1","","100.63","","","","-11","","NA"
"2019-02-11 16:00","2019","02","11","16:00","-3.9","","-9.6","","65","","9","","21","","24.1","","100.65","","","","-10","","Mostly Cloudy"
"2019-02-11 17:00","2019","02","11","17:00","-4.1","","-10.3","","62","","8","","20","","24.1","","100.67","","","","-10","","NA"
"2019-02-11 18:00","2019","02","11","18:00","-4.3","","-10.7","","61","","8","","18","","24.1","","100.73","","","","-10","","NA"
"2019-02-11 19:00","2019","02","11","19:00","-4.5","","-10.9","","61","","6","","17","","24.1","","100.80","","","","-10","","Clear"
"2019-02-11 20:00","2019","02","11","20:00","-5.0","","-12.1","","58","","7","","15","","24.1","","100.79","","","","-11","","NA"
"2019-02-11 21:00","2019","02","11","21:00","-5.1","","-12.6","","56","","6","","16","","24.1","","100.77","","","","-11","","NA"
"2019-02-11 22:00","2019","02","11","22:00","-5.4","","-13.8","","52","","6","","18","","24.1","","100.78","","","","-12","","Clear"
"2019-02-11 23:00","2019","02","11","23:00","-5.8","","-14.2","","52","","7","","16","","24.1","","100.74","","","","-12","","NA"
"2019-02-12 00:00","2019","02","12","00:00","-6.1","","-13.8","","55","","7","","19","","24.1","","100.66","","","","-13","","NA"
"2019-02-12 01:00","2019","02","12","01:00","-6.3","","-13.4","","57","","8","","18","","24.1","","100.64","","","","-13","","Clear"
"2019-02-12 02:00","2019","02","12","02:00","-6.3","","-12.6","","61","","8","","22","","24.1","","100.61","","","","-14","","NA"
"2019-02-12 03:00","2019","02","12","03:00","-7.6","","-13.9","","61","","7","","20","","24.1","","100.43","","","","-15","","NA"
"2019-02-12 04:00","2019","02","12","04:00","-6.6","","-12.6","","63","","8","","28","","24.1","","100.31","","","","-15","","Mostly Cloudy"
"2019-02-12 05:00","2019","02","12","05:00","-6.6","","-12.1","","65","","8","","31","","24.1","","100.20","","","","-15","","NA"
"2019-02-12 06:00","2019","02","12","06:00","-7.1","","-12.4","","66","","7","","21","","24.1","","100.05","","","","-14","","NA"
"2019-02-12 07:00","2019","02","12","07:00","-7.1","","-12.3","","67","","8","","24","","80.5","","99.98","","","","-15","","Mostly Cloudy"
"2019-02-12 08:00","2019","02","12","08:00","-6.5","","-11.3","","69","","8","","27","","1.2","","99.83","","","","-15","","Snow,Blowing Snow"
"2019-02-12 09:00","2019","02","12","09:00","-6.1","","-10.1","","73","","8","","28","","0.8","","99.67","","","","-14","","Moderate Snow,Blowing Snow"
"2019-02-12 10:00","2019","02","12","10:00","-5.7","","-9.1","","77","","9","","36","","1.2","","99.40","","","","-15","","Snow,Blowing Snow"
"2019-02-12 11:00","2019","02","12","11:00","-5.2","","-8.1","","80","","8","","39","","0.8","","99.20","","","","-14","","Moderate Snow,Blowing Snow"
"2019-02-12 12:00","2019","02","12","12:00","-4.3","","-7.0","","82","","9","","35","","1.2","","99.03","","","","-13","","Snow,Blowing Snow"
"2019-02-12 13:00","2019","02","12","13:00","-3.3","","-5.7","","83","","9","","37","","1.2","","98.72","","","","-12","","Snow,Ice Pellets"
"2019-02-12 14:00","2019","02","12","14:00","-2.6","","-4.8","","85","","9","","28","","0.8","","98.57","","","","-10","","Freezing Rain,Freezing Fog"
"2019-02-12 15:00","2019","02","12","15:00","-1.3","","-3.4","","86","","10","","29","","2.8","","98.44","","","","-8","","Freezing Rain,Fog"
"2019-02-12 16:00","2019","02","12","16:00","-1.2","","-3.0","","87","","9","","32","","4.8","","98.26","","","","-8","","Freezing Rain,Fog"
"2019-02-12 17:00","2019","02","12","17:00","-0.9","","-2.6","","88","","9","","36","","4.8","","98.10","","","","-8","","Freezing Rain,Fog"
"2019-02-12 18:00","2019","02","12","18:00","-0.7","","-2.2","","89","","9","","25","","9.7","","98.04","","","","-7","","Freezing Rain,Fog"
"2019-02-12 19:00","2019","02","12","19:00","-0.6","","-2.0","","90","","10","","25","","9.7","","97.97","","","","-7","","Freezing Rain,Fog"
"2019-02-12 20:00","2019","02","12","20:00","-0.6","","-1.9","","91","","9","","16","","9.7","","97.79","","","","-5","","Snow,Fog"
"2019-02-12 21:00","2019","02","12","21:00","-0.3","","-1.5","","91","","12","","16","","4.8","","97.75","","","","-5","","Snow,Fog"
"2019-02-12 22:00","2019","02","12","22:00","0.1","","-1.1","","92","","11","","13","","4.8","","97.62","","","","","","Snow"
"2019-02-12 23:00","2019","02","12","23:00","0.2","","-0.8","","92","","10","","18","","3.2","","97.52","","","","","","Snow"
"2019-02-13 00:00","2019","02","13","00:00","0.5","","-0.6","","93","","19","","16","","9.7","","97.55","","","","","","Rain,Snow,Fog"
"2019-02-13 01:00","2019","02","13","01:00","0.8","","-0.3","","92","","21","","25","","19.3","","97.57","","","","","","Snow"
"2019-02-13 02:00","2019","02","13","02:00","0.0","","-1.4","","90","","22","","36","","24.1","","97.59","","","","-7","","Snow"
"2019-02-13 03:00","2019","02","13","03:00","-0.6","","-2.5","","87","","22","","39","","24.1","","97.60","","","","-8","","Snow"
"2019-02-13 04:00","2019","02","13","04:00","-1.2","","-3.3","","86","","23","","37","","24.1","","97.61","","","","-9","","Snow"
"2019-02-13 05:00","2019","02","13","05:00","-1.5","","-3.8","","85","","22","","32","","16.1","","97.65","","","","-9","","Snow"
"2019-02-13 06:00","2019","02","13","06:00","-1.8","","-4.3","","83","","23","","24","","19.3","","97.69","","","","-8","","Snow"
"2019-02-13 07:00","2019","02","13","07:00","-2.5","","-4.9","","83","","25","","32","","9.7","","97.75","","","","-10","","Snow"
"2019-02-13 08:00","2019","02","13","08:00","-2.5","","-5.3","","81","","23","","20","","8.1","","97.79","","","","-8","","Snow"
"2019-02-13 09:00","2019","02","13","09:00","-3.0","","-5.5","","83","","21","","17","","6.4","","97.83","","","","-9","","Snow"
"2019-02-13 10:00","2019","02","13","10:00","-3.2","","-5.5","","84","","23","","22","","2.0","","97.86","","","","-10","","Snow"
"2019-02-13 11:00","2019","02","13","11:00","-3.5","","-6.0","","83","","25","","33","","2.0","","97.92","","","","-11","","Snow,Blowing Snow"
"2019-02-13 12:00","2019","02","13","12:00","-3.1","","-6.0","","80","","24","","35","","6.4","","97.97","","","","-11","","Snow,Blowing Snow"
"2019-02-13 13:00","2019","02","13","13:00","-4.5","","-7.0","","83","","26","","23","","24.1","","98.01","","","","-11","","Snow"
"2019-02-13 14:00","2019","02","13","14:00","-4.5","","-7.8","","78","","27","","48","","4.8","","98.07","","","","-14","","Blowing Snow"
"2019-02-13 15:00","2019","02","13","15:00","-3.9","","-7.8","","74","","25","","48","","8.1","","98.12","","","","-13","","Blowing Snow"
"2019-02-13 16:00","2019","02","13","16:00","-4.0","","-8.5","","71","","27","","39","","8.1","","98.22","","","","-13","","Snow Showers,Blowing Snow"
"2019-02-13 17:00","2019","02","13","17:00","-4.5","","-8.9","","71","","25","","27","","19.3","","98.29","","","","-12","","Snow"
"2019-02-13 18:00","2019","02","13","18:00","-4.3","","-8.7","","72","","26","","28","","24.1","","98.35","","","","-12","","NA"
"2019-02-13 19:00","2019","02","13","19:00","-4.6","","-9.2","","71","","25","","39","","24.1","","98.44","","","","-13","","Mostly Cloudy"
"2019-02-13 20:00","2019","02","13","20:00","-4.6","","-9.1","","71","","26","","35","","24.1","","98.54","","","","-13","","NA"
"2019-02-13 21:00","2019","02","13","21:00","-4.6","","-9.2","","70","","26","","35","","24.1","","98.63","","","","-13","","NA"
"2019-02-13 22:00","2019","02","13","22:00","-4.6","","-9.1","","71","","27","","30","","24.1","","98.71","","","","-12","","Mostly Cloudy"
"2019-02-13 23:00","2019","02","13","23:00","-4.6","","-8.8","","73","","27","","33","","19.3","","98.81","","","","-13","","Snow"
"2019-02-14 00:00","2019","02","14","00:00","-4.7","","-8.4","","75","","25","","31","","9.7","","98.87","","","","-13","","Snow"
"2019-02-14 01:00","2019","02","14","01:00","-4.8","","-8.4","","76","","25","","28","","19.3","","98.91","","","","-12","","Snow"
"2019-02-14 02:00","2019","02","14","02:00","-4.9","","-8.4","","77","","26","","20","","24.1","","99.01","","","","-11","","NA"
"2019-02-14 03:00","2019","02","14","03:00","-4.4","","-8.1","","76","","25","","22","","24.1","","99.07","","","","-11","","NA"
"2019-02-14 04:00","2019","02","14","04:00","-3.7","","-7.9","","73","","28","","34","","24.1","","99.15","","","","-12","","Mostly Cloudy"
"2019-02-14 05:00","2019","02","14","05:00","-3.5","","-7.9","","72","","27","","23","","24.1","","99.24","","","","-10","","NA"
"2019-02-14 06:00","2019","02","14","06:00","-3.6","","-7.5","","74","","24","","11","","24.1","","99.29","","","","-8","","Snow"
"2019-02-14 07:00","2019","02","14","07:00","-3.3","","-7.1","","75","","24","","22","","24.1","","99.31","","","","-10","","Snow"
"2019-02-14 08:00","2019","02","14","08:00","-3.5","","-7.5","","74","","25","","20","","24.1","","99.35","","","","-10","","NA"
"2019-02-14 09:00","2019","02","14","09:00","-3.4","","-7.5","","74","","24","","15","","24.1","","99.40","","","","-9","","NA"
"2019-02-14 10:00","2019","02","14","10:00","-3.4","","-7.5","","73","","22","","14","","24.1","","99.34","","","","-8","","Mostly Cloudy"
"2019-02-14 11:00","2019","02","14","11:00","-2.8","","-7.1","","72","","22","","12","","24.1","","99.28","","","","-7","","NA"
"2019-02-14 12:00","2019","02","14","12:00","-1.7","","-6.7","","69","","18","","10","","24.1","","99.15","","","","-5","","NA"
"2019-02-14 13:00","2019","02","14","13:00","-1.6","","-6.8","","68","","14","","16","","16.1","","99.07","","","","-7","","Mostly Cloudy"
"2019-02-14 14:00","2019","02","14","14:00","-1.4","","-5.8","","72","","13","","11","","16.1","","98.99","","","","-5","","NA"
"2019-02-14 15:00","2019","02","14","15:00","-0.6","","-4.7","","74","","11","","18","","12.9","","98.96","","","","-6","","Snow"
"2019-02-14 16:00","2019","02","14","16:00","-0.5","","-4.6","","74","","12","","21","","16.1","","98.87","","","","-6","","Mostly Cloudy"
"2019-02-14 17:00","2019","02","14","17:00","-0.2","","-4.5","","73","","11","","16","","24.1","","98.78","","","","-5","","NA"
"2019-02-14 18:00","2019","02","14","18:00","-0.1","","-4.3","","73","","10","","13","","16.1","","98.72","","","","-4","","NA"
"2019-02-14 19:00","2019","02","14","19:00","0.2","","-3.6","","76","","10","","18","","24.1","","98.67","","","","","","Cloudy"
"2019-02-14 20:00","2019","02","14","20:00","0.3","","-3.1","","78","","9","","20","","24.1","","98.55","","","","","","NA"
"2019-02-14 21:00","2019","02","14","21:00","0.9","","-2.2","","80","","9","","15","","24.1","","98.44","","","","","","NA"
"2019-02-14 22:00","2019","02","14","22:00","1.2","","-1.6","","82","","12","","10","","24.1","","98.35","","","","","","Cloudy"
"2019-02-14 23:00","2019","02","14","23:00","1.4","","-1.3","","82","","13","","8","","24.1","","98.20","","","","","","NA"
"2019-02-15 00:00","2019","02","15","00:00","1.5","","-1.2","","82","","9","","13","","24.1","","98.06","","","","","","Rain,Snow"
"2019-02-15 01:00","2019","02","15","01:00","1.7","","-0.8","","83","","11","","16","","24.1","","97.89","","","","","","Rain"
"2019-02-15 02:00","2019","02","15","02:00","3.1","","0.3","","82","","12","","14","","24.1","","97.81","","","","","","Rain"
"2019-02-15 03:00","2019","02","15","03:00","2.1","","-0.8","","81","","14","","5","","17.7","","97.76","","","","","","Rain"
"2019-02-15 04:00","2019","02","15","04:00","2.2","","-0.4","","83","","12","","14","","17.7","","97.58","","","","","","Rain"
"2019-02-15 05:00","2019","02","15","05:00","2.0","","-0.2","","85","","16","","11","","24.1","","97.55","","","","","","NA"
"2019-02-15 06:00","2019","02","15","06:00","2.4","","0.4","","87","","18","","8","","24.1","","97.49","","","","","","NA"
"2019-02-15 07:00","2019","02","15","07:00","2.9","","1.1","","88","","19","","11","","19.3","","97.47","","","","","","Rain"
"2019-02-15 08:00","2019","02","15","08:00","3.5","","1.7","","88","","23","","19","","16.1","","97.52","","","","","","Rain"
"2019-02-15 09:00","2019","02","15","09:00","2.1","","0.0","","86","","26","","44","","16.1","","97.65","","","","","","Rain"
"2019-02-15 10:00","2019","02","15","10:00","2.0","","-1.1","","80","","26","","40","","24.1","","97.73","","","","","","Mostly Cloudy"
"2019-02-15 11:00","2019","02","15","11:00","1.5","","-2.6","","74","","26","","43","","24.1","","97.76","","","","","","NA"
"2019-02-15 12:00","2019","02","15","12:00","1.0","","-3.5","","72","","25","","41","","19.3","","97.85","","","","","","Snow Showers"
"2019-02-15 13:00","2019","02","15","13:00","-0.6","","-5.4","","70","","27","","42","","19.3","","97.94","","","","-8","","Snow Showers"
"2019-02-15 14:00","2019","02","15","14:00","-1.2","","-6.7","","67","","26","","45","","24.1","","97.98","","","","-9","","NA"
"2019-02-15 15:00","2019","02","15","15:00","-1.4","","-7.2","","65","","26","","44","","24.1","","98.08","","","","-10","","NA"
"2019-02-15 16:00","2019","02","15","16:00","-2.5","","-8.5","","63","","27","","43","","24.1","","98.27","","","","-11","","Mostly Cloudy"
"2019-02-15 17:00","2019","02","15","17:00","-3.2","","-9.1","","64","","28","","44","","24.1","","98.47","","","","-12","","NA"
"2019-02-15 18:00","2019","02","15","18:00","-3.4","","-9.2","","64","","27","","31","","24.1","","98.61","","","","-11","","NA"
"2019-02-15 19:00","2019","02","15","19:00","-4.0","","-9.7","","65","","26","","30","","24.1","","98.64","","","","-12","","Clear"
"2019-02-15 20:00","2019","02","15","20:00","-4.5","","-10.1","","65","","26","","28","","24.1","","98.71","","","","-12","","NA"
"2019-02-15 21:00","2019","02","15","21:00","-4.4","","-9.7","","67","","25","","33","","24.1","","98.73","","","","-13","","NA"
"2019-02-15 22:00","2019","02","15","22:00","-4.2","","-9.2","","68","","25","","28","","24.1","","98.77","","","","-12","","Mostly Cloudy"
"2019-02-15 23:00","2019","02","15","23:00","-4.0","","-8.8","","69","","24","","27","","24.1","","98.78","","","","-11","","NA"
"2019-02-16 00:00","2019","02","16","00:00","-3.8","","-8.3","","71","","24","","22","","24.1","","98.80","","","","-10","","Snow"
"2019-02-16 01:00","2019","02","16","01:00","-3.5","","-7.6","","73","","25","","23","","19.3","","98.86","","","","-10","","Snow"
"2019-02-16 02:00","2019","02","16","02:00","-3.1","","-6.8","","76","","28","","13","","19.3","","98.96","","","","-8","","Snow"
"2019-02-16 03:00","2019","02","16","03:00","-3.5","","-7.4","","74","","32","","32","","24.1","","99.05","","","","-11","","NA"
"2019-02-16 04:00","2019","02","16","04:00","-4.7","","-9.5","","69","","30","","31","","24.1","","99.12","","","","-13","","Mainly Clear"
"2019-02-16 05:00","2019","02","16","05:00","-5.4","","-10.8","","66","","30","","27","","24.1","","99.22","","","","-13","","NA"
"2019-02-16 06:00","2019","02","16","06:00","-6.3","","-11.7","","66","","32","","22","","24.1","","99.31","","","","-14","","NA"
"2019-02-16 07:00","2019","02","16","07:00","-6.6","","-11.8","","66","","32","","13","","24.1","","99.39","","","","-12","","Mainly Clear"
"2019-02-16 08:00","2019","02","16","08:00","-7.1","","-12.2","","67","","30","","13","","24.1","","99.48","","","","-13","","NA"
"2019-02-16 09:00","2019","02","16","09:00","-6.4","","-11.7","","66","","31","","14","","24.1","","99.57","","","","-12","","NA"
"2019-02-16 10:00","2019","02","16","10:00","-5.9","","-11.1","","67","","35","","11","","24.1","","99.58","","","","-11","","Snow Showers"
"2019-02-16 11:00","2019","02","16","11:00","-5.7","","-10.7","","68","","32","","13","","24.1","","99.65","","","","-11","","Snow"
"2019-02-16 12:00","2019","02","16","12:00","-4.9","","-10.2","","67","","32","","18","","24.1","","99.68","","","","-11","","NA"
"2019-02-16 13:00","2019","02","16","13:00","-4.3","","-9.9","","65","","32","","18","","24.1","","99.63","","","","-10","","Mainly Clear"
"2019-02-16 14:00","2019","02","16","14:00","-3.7","","-9.9","","63","","36","","9","","24.1","","99.61","","","","-7","","NA"
"2019-02-16 15:00","2019","02","16","15:00","-3.0","","-9.9","","59","","32","","13","","24.1","","99.65","","","","-8","","NA"
"2019-02-16 16:00","2019","02","16","16:00","-3.3","","-10.3","","59","","35","","11","","24.1","","99.72","","","","-8","","Mainly Clear"
"2019-02-16 17:00","2019","02","16","17:00","-3.8","","-10.8","","59","","1","","16","","24.1","","99.76","","","","-9","","NA"
"2019-02-16 18:00","2019","02","16","18:00","-4.7","","-11.3","","60","","1","","18","","24.1","","99.82","","","","-11","","NA"
"2019-02-16 19:00","2019","02","16","19:00","-6.1","","-11.8","","64","","1","","22","","24.1","","99.89","","","","-13","","Clear"
"2019-02-16 20:00","2019","02","16","20:00","-6.5","","-11.9","","66","","1","","18","","24.1","","99.90","","","","-13","","NA"
"2019-02-16 21:00","2019","02","16","21:00","-6.7","","-11.9","","67","","2","","12","","24.1","","99.90","","","","-12","","NA"
"2019-02-16 22:00","2019","02","16","22:00","-6.2","","-11.3","","67","","1","","21","","24.1","","99.93","","","","-13","","Mostly Cloudy"
"2019-02-16 23:00","2019","02","16","23:00","-6.4","","-11.5","","67","","35","","13","","24.1","","99.99","","","","-12","","Snow"
"2019-02-17 00:00","2019","02","17","00:00","-7.0","","-12.0","","67","","36","","18","","24.1","","99.95","","","","-14","","Snow"
"2019-02-17 01:00","2019","02","17","01:00","-7.8","","-12.7","","68","","1","","20","","24.1","","100.01","","","","-15","","Mainly Clear"
"2019-02-17 02:00","2019","02","17","02:00","-8.8","","-13.5","","69","","1","","15","","24.1","","100.03","","","","-15","","NA"
"2019-02-17 03:00","2019","02","17","03:00","-9.7","","-14.2","","70","","3","","10","","24.1","","100.02","","","","-15","","NA"
"2019-02-17 04:00","2019","02","17","04:00","-9.9","","-14.2","","71","","3","","11","","24.1","","99.99","","","","-15","","Mostly Cloudy"
"2019-02-17 05:00","2019","02","17","05:00","-10.3","","-14.5","","71","","2","","11","","24.1","","100.03","","","","-16","","NA"
"2019-02-17 06:00","2019","02","17","06:00","-10.7","","-15.1","","71","","4","","13","","24.1","","100.05","","","","-17","","NA"
"2019-02-17 07:00","2019","02","17","07:00","-10.9","","-15.3","","71","","2","","14","","24.1","","100.06","","","","-18","","Mostly Cloudy"
"2019-02-17 08:00","2019","02","17","08:00","-10.7","","-15.1","","70","","4","","16","","24.1","","100.03","","","","-18","","NA"
"2019-02-17 09:00","2019","02","17","09:00","-9.5","","-14.1","","69","","4","","17","","24.1","","99.99","","","","-17","","NA"
"2019-02-17 10:00","2019","02","17","10:00","-8.4","","-13.1","","69","","6","","16","","19.3","","99.96","","","","-15","","Cloudy"
"2019-02-17 11:00","2019","02","17","11:00","-7.0","","-11.9","","68","","7","","14","","16.1","","99.92","","","","-13","","NA"
"2019-02-17 12:00","2019","02","17","12:00","-6.2","","-11.1","","69","","7","","19","","16.1","","99.86","","","","-13","","NA"
"2019-02-17 13:00","2019","02","17","13:00","-6.3","","-10.8","","70","","8","","21","","9.7","","99.78","","","","-13","","Snow"
"2019-02-17 14:00","2019","02","17","14:00","-6.6","","-11.0","","71","","7","","24","","16.1","","99.71","","","","-14","","Snow"
"2019-02-17 15:00","2019","02","17","15:00","-6.6","","-10.8","","72","","7","","17","","17.7","","99.64","","","","-13","","Snow"
"2019-02-17 16:00","2019","02","17","16:00","-6.6","","-10.9","","72","","6","","19","","24.1","","99.56","","","","-13","","Snow"
"2019-02-17 17:00","2019","02","17","17:00","-6.9","","-11.6","","69","","7","","19","","24.1","","99.43","","","","-14","","NA"
"2019-02-17 18:00","2019","02","17","18:00","-6.8","","-12.1","","66","","7","","15","","24.1","","99.44","","","","-13","","NA"
"2019-02-17 19:00","2019","02","17","19:00","-6.7","","-12.6","","63","","6","","17","","24.1","","99.37","","","","-13","","Mostly Cloudy"
"2019-02-17 20:00","2019","02","17","20:00","-6.8","","-13.4","","59","","7","","21","","24.1","","99.27","","","","-14","","NA"
"2019-02-17 21:00","2019","02","17","21:00","-6.8","","-13.7","","58","","6","","17","","24.1","","99.28","","","","-13","","NA"
"2019-02-17 22:00","2019","02","17","22:00","-7.0","","-14.0","","58","","3","","22","","24.1","","99.28","","","","-14","","Mostly Cloudy"
"2019-02-17 23:00","2019","02","17","23:00","-7.2","","-14.6","","56","","4","","22","","24.1","","99.16","","","","-15","","Snow"
"2019-02-18 00:00","2019","02","18","00:00","-7.8","","-14.5","","59","","5","","19","","19.3","","99.13","","","","-15","","Snow"
"2019-02-18 01:00","2019","02","18","01:00","-8.5","","-13.8","","66","","2","","21","","3.2","","99.14","","","","-16","","Snow"
"2019-02-18 02:00","2019","02","18","02:00","-8.5","","-13.0","","70","","1","","14","","6.4","","99.17","","","","-15","","Snow"
"2019-02-18 03:00","2019","02","18","03:00","-8.8","","-13.0","","72","","2","","24","","9.7","","99.13","","","","-17","","Snow"
"2019-02-18 04:00","2019","02","18","04:00","-9.2","","-13.2","","73","","1","","23","","9.7","","99.15","","","","-17","","Snow"
"2019-02-18 05:00","2019","02","18","05:00","-9.6","","-13.3","","75","","1","","23","","3.2","","99.21","","","","-18","","Snow"
"2019-02-18 06:00","2019","02","18","06:00","-9.6","","-13.1","","76","","36","","22","","4.8","","99.28","","","","-18","","Snow"
"2019-02-18 07:00","2019","02","18","07:00","-9.7","","-13.0","","77","","36","","22","","3.2","","99.39","","","","-18","","Snow,Blowing Snow"
"2019-02-18 08:00","2019","02","18","08:00","-9.5","","-12.7","","78","","34","","19","","2.4","","99.52","","","","-17","","Snow,Blowing Snow"
"2019-02-18 09:00","2019","02","18","09:00","-9.3","","-12.6","","77","","36","","24","","2.4","","99.66","","","","-18","","Snow,Blowing Snow"
"2019-02-18 10:00","2019","02","18","10:00","-8.8","","-12.1","","77","","36","","19","","3.2","","99.76","","","","-16","","Snow,Blowing Snow"
"2019-02-18 11:00","2019","02","18","11:00","-7.8","","-11.5","","75","","35","","20","","24.1","","99.85","","","","-15","","Blowing Snow"
"2019-02-18 12:00","2019","02","18","12:00","-7.0","","-11.7","","70","","33","","24","","24.1","","99.96","","","","-15","","NA"
"2019-02-18 13:00","2019","02","18","13:00","-6.6","","-12.1","","65","","33","","20","","24.1","","100.00","","","","-14","","Mainly Clear"
"2019-02-18 14:00","2019","02","18","14:00","-5.8","","-12.3","","60","","33","","26","","24.1","","100.06","","","","-14","","NA"
"2019-02-18 15:00","2019","02","18","15:00","-6.1","","-13.6","","55","","35","","27","","24.1","","100.17","","","","-14","","NA"
"2019-02-18 16:00","2019","02","18","16:00","-6.3","","-14.2","","54","","36","","24","","24.1","","100.25","","","","-14","","Mainly Clear"
"2019-02-18 17:00","2019","02","18","17:00","-6.9","","-15.2","","52","","35","","21","","24.1","","100.36","","","","-14","","NA"
"2019-02-18 18:00","2019","02","18","18:00","-8.4","","-15.7","","56","","35","","22","","24.1","","100.51","","","","-16","","NA"
"2019-02-18 19:00","2019","02","18","19:00","-9.5","","-15.8","","60","","35","","16","","24.1","","100.68","","","","-16","","Mainly Clear"
"2019-02-18 20:00","2019","02","18","20:00","-10.1","","-16.1","","62","","33","","24","","24.1","","100.81","","","","-19","","NA"
"2019-02-18 21:00","2019","02","18","21:00","-11.1","","-17.1","","62","","32","","22","","24.1","","100.93","","","","-20","","NA"
"2019-02-18 22:00","2019","02","18","22:00","-11.8","","-17.6","","63","","32","","22","","24.1","","101.00","","","","-21","","Clear"
"2019-02-18 23:00","2019","02","18","23:00","-12.4","","-18.1","","63","","29","","13","","24.1","","101.05","","","","-19","","NA"
"2019-02-19 00:00","2019","02","19","00:00","-13.4","","-18.8","","64","","28","","12","","24.1","","101.13","","","","-20","","NA"
"2019-02-19 01:00","2019","02","19","01:00","-14.0","","-19.2","","65","","28","","12","","24.1","","101.21","","","","-21","","Clear"
"2019-02-19 02:00","2019","02","19","02:00","-13.9","","-19.0","","66","","26","","10","","24.1","","101.26","","","","-20","","NA"
"2019-02-19 03:00","2019","02","19","03:00","-14.7","","-19.6","","67","","24","","8","","24.1","","101.30","","","","-20","","NA"
"2019-02-19 04:00","2019","02","19","04:00","-14.4","","-19.0","","68","","28","","11","","24.1","","101.32","","","","-21","","Mostly Cloudy"
"2019-02-19 05:00","2019","02","19","05:00","-13.1","","-17.8","","69","","27","","7","","24.1","","101.34","","","","-18","","NA"
"2019-02-19 06:00","2019","02","19","06:00","-12.1","","-16.8","","69","","25","","4","","24.1","","101.43","","","","-15","","Snow"
"2019-02-19 07:00","2019","02","19","07:00","-11.1","","-15.7","","69","","25","","11","","24.1","","101.48","","","","-17","","Mostly Cloudy"
"2019-02-19 08:00","2019","02","19","08:00","-10.4","","-15.0","","70","","24","","8","","19.3","","101.53","","","","-15","","Snow Showers"
"2019-02-19 09:00","2019","02","19","09:00","-9.5","","-14.1","","70","","25","","10","","19.3","","101.60","","","","-15","","Snow Showers"
"2019-02-19 10:00","2019","02","19","10:00","-7.3","","-12.2","","68","","26","","15","","24.1","","101.63","","","","-13","","Mostly Cloudy"
"2019-02-19 11:00","2019","02","19","11:00","-5.7","","-11.3","","65","","27","","22","","24.1","","101.63","","","","-13","","NA"
"2019-02-19 12:00","2019","02","19","12:00","-5.1","","-11.2","","62","","29","","17","","24.1","","101.65","","","","-11","","NA"
"2019-02-19 13:00","2019","02","19","13:00","-4.6","","-11.2","","60","","26","","19","","24.1","","101.60","","","","-11","","Snow Showers"
"2019-02-19 14:00","2019","02","19","14:00","-4.4","","-11.3","","59","","26","","21","","24.1","","101.54","","","","-11","","NA"
"2019-02-19 15:00","2019","02","19","15:00","-4.5","","-11.8","","57","","29","","24","","24.1","","101.49","","","","-12","","NA"
"2019-02-19 16:00","2019","02","19","16:00","-4.7","","-12.2","","56","","28","","19","","24.1","","101.47","","","","-11","","Mostly Cloudy"
"2019-02-19 17:00","2019","02","19","17:00","-5.2","","-12.6","","56","","28","","19","","24.1","","101.43","","","","-12","","NA"
"2019-02-19 18:00","2019","02","19","18:00","-6.4","","-13.0","","60","","25","","13","","24.1","","101.47","","","","-12","","NA"
"2019-02-19 19:00","2019","02","19","19:00","-6.1","","-12.3","","62","","29","","9","","24.1","","101.46","","","","-10","","Mainly Clear"
"2019-02-19 20:00","2019","02","19","20:00","-7.2","","-13.2","","63","","31","","10","","24.1","","101.41","","","","-12","","NA"
"2019-02-19 21:00","2019","02","19","21:00","-8.7","","-14.1","","65","","28","","6","","24.1","","101.35","","","","-12","","NA"
"2019-02-19 22:00","2019","02","19","22:00","-8.7","","-13.9","","66","","26","","6","","24.1","","101.34","","","","-12","","Mainly Clear"
"2019-02-19 23:00","2019","02","19","23:00","-8.1","","-13.2","","67","","31","","8","","24.1","","101.33","","","","-12","","NA"
"2019-02-20 00:00","2019","02","20","00:00","-9.9","","-14.8","","68","","28","","7","","24.1","","101.32","","","","-14","","NA"
"2019-02-20 01:00","2019","02","20","01:00","-9.0","","-13.8","","69","","34","","10","","24.1","","101.27","","","","-14","","Mostly Cloudy"
"2019-02-20 02:00","2019","02","20","02:00","-10.3","","-14.9","","69","","3","","10","","24.1","","101.26","","","","-16","","NA"
"2019-02-20 03:00","2019","02","20","03:00","-10.1","","-14.6","","70","","36","","11","","24.1","","101.20","","","","-16","","NA"
"2019-02-20 04:00","2019","02","20","04:00","-10.7","","-15.2","","70","","0","","1","","24.1","","101.13","","","","-11","","Mostly Cloudy"
"2019-02-20 05:00","2019","02","20","05:00","-10.5","","-14.7","","72","","34","","3","","24.1","","101.05","","","","-12","","NA"
"2019-02-20 06:00","2019","02","20","06:00","-9.8","","-14.1","","71","","2","","9","","24.1","","101.04","","","","-15","","NA"
"2019-02-20 07:00","2019","02","20","07:00","-9.1","","-13.3","","72","","3","","10","","19.3","","100.97","","","","-14","","Cloudy"
"2019-02-20 08:00","2019","02","20","08:00","-7.6","","-11.7","","72","","5","","5","","16.1","","100.91","","","","-10","","NA"
"2019-02-20 09:00","2019","02","20","09:00","-5.1","","-9.2","","73","","6","","10","","19.3","","100.74","","","","-9","","NA"
"2019-02-20 10:00","2019","02","20","10:00","-3.0","","-7.3","","73","","10","","18","","24.1","","100.59","","","","-9","","Cloudy"
"2019-02-20 11:00","2019","02","20","11:00","-2.2","","-7.4","","68","","9","","15","","24.1","","100.54","","","","-7","","NA"
"2019-02-20 12:00","2019","02","20","12:00","-1.4","","-7.5","","63","","10","","22","","24.1","","100.41","","","","-7","","NA"
"2019-02-20 13:00","2019","02","20","13:00","-0.7","","-7.3","","61","","10","","26","","24.1","","100.17","","","","-7","","Cloudy"
"2019-02-20 14:00","2019","02","20","14:00","-0.9","","-7.0","","63","","9","","24","","24.1","","99.96","","","","-7","","NA"
"2019-02-20 15:00","2019","02","20","15:00","-1.1","","-7.3","","63","","10","","24","","19.3","","99.88","","","","-7","","Snow"
"2019-02-20 16:00","2019","02","20","16:00","-1.5","","-6.8","","67","","8","","31","","16.1","","99.69","","","","-9","","Snow"
"2019-02-20 17:00","2019","02","20","17:00","-1.4","","-5.8","","72","","9","","22","","16.1","","99.54","","","","-7","","Snow"
"2019-02-20 18:00","2019","02","20","18:00","-1.3","","-4.5","","79","","10","","19","","4.0","","99.48","","","","-7","","Freezing Drizzle,Fog"
"2019-02-20 19:00","2019","02","20","19:00","-0.6","","-3.0","","84","","10","","17","","4.0","","99.22","","","","-6","","Freezing Drizzle,Fog"
"2019-02-20 20:00","2019","02","20","20:00","-0.1","","-2.1","","86","","11","","18","","6.4","","99.03","","","","-5","","Freezing Drizzle,Fog"
"2019-02-20 21:00","2019","02","20","21:00","-0.2","","-2.0","","87","","13","","22","","9.7","","98.88","","","","-6","","Freezing Drizzle,Fog"
"2019-02-20 22:00","2019","02","20","22:00","-0.2","","-1.9","","88","","12","","12","","4.0","","98.83","","","","-4","","Freezing Rain,Fog"
"2019-02-20 23:00","2019","02","20","23:00","-0.2","","-1.7","","90","","12","","10","","6.4","","98.68","","","","-4","","Freezing Drizzle,Snow,Fog"
"2019-02-21 00:00","2019","02","21","00:00","-0.2","","-1.6","","91","","14","","9","","4.8","","98.60","","","","-3","","Freezing Drizzle,Snow,Fog"
"2019-02-21 01:00","2019","02","21","01:00","0.1","","-1.1","","92","","19","","11","","4.0","","98.61","","","","","","Snow,Fog"
"2019-02-21 02:00","2019","02","21","02:00","0.3","","-0.8","","92","","20","","13","","4.0","","98.65","","","","","","Fog"
"2019-02-21 03:00","2019","02","21","03:00","1.4","","0.3","","93","","24","","17","","16.1","","98.73","","","","","","Drizzle"
"2019-02-21 04:00","2019","02","21","04:00","2.2","","0.8","","91","","25","","25","","24.1","","98.78","","","","","","Mostly Cloudy"
"2019-02-21 05:00","2019","02","21","05:00","2.1","","0.3","","88","","25","","23","","24.1","","98.88","","","","","","NA"
"2019-02-21 06:00","2019","02","21","06:00","2.2","","-0.3","","83","","26","","25","","24.1","","98.99","","","","","","NA"
"2019-02-21 07:00","2019","02","21","07:00","2.2","","-0.9","","80","","26","","34","","24.1","","99.05","","","","","","Mostly Cloudy"
"2019-02-21 08:00","2019","02","21","08:00","2.3","","-2.1","","73","","25","","22","","24.1","","99.16","","","","","","NA"
"2019-02-21 09:00","2019","02","21","09:00","2.2","","-2.7","","70","","26","","19","","24.1","","99.26","","","","","","NA"
"2019-02-21 10:00","2019","02","21","10:00","2.4","","-3.0","","68","","26","","28","","24.1","","99.30","","","","","","Cloudy"
"2019-02-21 11:00","2019","02","21","11:00","2.3","","-3.5","","66","","27","","28","","24.1","","99.40","","","","","","NA"
"2019-02-21 12:00","2019","02","21","12:00","1.9","","-4.2","","64","","27","","28","","24.1","","99.44","","","","","","NA"
"2019-02-21 13:00","2019","02","21","13:00","2.5","","-3.7","","63","","26","","36","","24.1","","99.47","","","","","","Mostly Cloudy"
"2019-02-21 14:00","2019","02","21","14:00","2.9","","-4.2","","60","","26","","40","","24.1","","99.48","","","","","","NA"
"2019-02-21 15:00","2019","02","21","15:00","2.6","","-4.5","","59","","27","","39","","24.1","","99.57","","","","","","NA"
"2019-02-21 16:00","2019","02","21","16:00","2.1","","-4.9","","60","","28","","33","","24.1","","99.63","","","","","","Mostly Cloudy"
"2019-02-21 17:00","2019","02","21","17:00","1.6","","-5.3","","60","","29","","32","","24.1","","99.75","","","","","","NA"
"2019-02-21 18:00","2019","02","21","18:00","0.7","","-6.5","","59","","27","","37","","24.1","","99.88","","","","","","NA"
"2019-02-21 19:00","2019","02","21","19:00","0.2","","-6.6","","60","","28","","28","","24.1","","100.00","","","","","","Mainly Clear"
"2019-02-21 20:00","2019","02","21","20:00","-0.7","","-7.2","","62","","27","","20","","24.1","","100.05","","","","-6","","NA"
"2019-02-21 21:00","2019","02","21","21:00","-1.2","","-7.2","","64","","28","","17","","24.1","","100.09","","","","-6","","NA"
"2019-02-21 22:00","2019","02","21","22:00","-1.7","","-7.3","","66","","28","","17","","24.1","","100.15","","","","-7","","Mostly Cloudy"
"2019-02-21 23:00","2019","02","21","23:00","-2.2","","-7.5","","67","","27","","14","","24.1","","100.25","","","","-7","","NA"
"2019-02-22 00:00","2019","02","22","00:00","-2.6","","-7.7","","68","","27","","12","","24.1","","100.33","","","","-7","","NA"
"2019-02-22 01:00","2019","02","22","01:00","-3.2","","-7.9","","70","","30","","7","","24.1","","100.35","","","","-6","","Mostly Cloudy"
"2019-02-22 02:00","2019","02","22","02:00","-3.9","","-8.2","","72","","25","","12","","24.1","","100.42","","","","-9","","NA"
"2019-02-22 03:00","2019","02","22","03:00","-4.2","","-8.3","","73","","27","","4","","24.1","","100.48","","","","-6","","NA"
"2019-02-22 04:00","2019","02","22","04:00","-3.4","","-7.0","","76","","26","","12","","24.1","","100.53","","","","-8","","Mostly Cloudy"
"2019-02-22 05:00","2019","02","22","05:00","-3.4","","-7.0","","76","","27","","13","","24.1","","100.63","","","","-8","","NA"
"2019-02-22 06:00","2019","02","22","06:00","-2.8","","-6.3","","77","","27","","11","","24.1","","100.69","","","","-7","","NA"
"2019-02-22 07:00","2019","02","22","07:00","-2.8","","-6.5","","76","","28","","13","","19.3","","100.78","","","","-7","","Mostly Cloudy"
"2019-02-22 08:00","2019","02","22","08:00","-2.5","","-6.2","","75","","28","","9","","19.3","","100.85","","","","-6","","NA"
"2019-02-22 09:00","2019","02","22","09:00","-1.0","","-5.0","","74","","30","","8","","19.3","","100.93","","","","-4","","NA"
"2019-02-22 10:00","2019","02","22","10:00","0.0","","-4.4","","73","","31","","11","","19.3","","100.92","","","","-4","","Mostly Cloudy"
"2019-02-22 11:00","2019","02","22","11:00","1.0","","-4.6","","66","","32","","17","","24.1","","100.96","","","","","","NA"
"2019-02-22 12:00","2019","02","22","12:00","1.2","","-5.7","","60","","35","","13","","24.1","","100.94","","","","","","NA"
"2019-02-22 13:00","2019","02","22","13:00","1.1","","-5.7","","61","","27","","7","","24.1","","100.96","","","","","","Mostly Cloudy"
"2019-02-22 14:00","2019","02","22","14:00","1.3","","-5.5","","61","","30","","8","","24.1","","100.99","","","","","","NA"
"2019-02-22 15:00","2019","02","22","15:00","1.3","","-5.2","","62","","32","","13","","24.1","","100.97","","","","","","NA"
"2019-02-22 16:00","2019","02","22","16:00","1.5","","-5.4","","60","","36","","3","","24.1","","100.96","","","","","","Mostly Cloudy"
"2019-02-22 17:00","2019","02","22","17:00","1.6","","-5.7","","59","","2","","5","","24.1","","100.94","","","","","","NA"
"2019-02-22 18:00","2019","02","22","18:00","1.2","","-6.1","","58","","4","","5","","24.1","","100.98","","","","","","NA"
"2019-02-22 19:00","2019","02","22","19:00","0.4","","-6.0","","62","","6","","6","","24.1","","101.00","","","","","","Mainly Clear"
"2019-02-22 20:00","2019","02","22","20:00","0.1","","-5.9","","64","","1","","7","","24.1","","101.08","","","","","","NA"
"2019-02-22 21:00","2019","02","22","21:00","-0.8","","-6.6","","65","","1","","9","","24.1","","101.07","","","","-4","","NA"
"2019-02-22 22:00","2019","02","22","22:00","-1.2","","-6.7","","66","","3","","7","","24.1","","101.05","","","","-4","","Clear"
"2019-02-22 23:00","2019","02","22","23:00","-1.1","","-6.5","","67","","12","","3","","24.1","","101.02","","","","-2","","NA"
"2019-02-23 00:00","2019","02","23","00:00","-1.9","","-7.0","","69","","2","","3","","24.1","","101.02","","","","-3","","NA"
"2019-02-23 01:00","2019","02","23","01:00","-3.3","","-7.8","","72","","2","","9","","24.1","","101.06","","","","-7","","Clear"
"2019-02-23 02:00","2019","02","23","02:00","-4.2","","-8.2","","74","","35","","9","","24.1","","101.03","","","","-8","","NA"
"2019-02-23 03:00","2019","02","23","03:00","-5.1","","-8.6","","77","","2","","13","","24.1","","100.97","","","","-10","","NA"
"2019-02-23 04:00","2019","02","23","04:00","-5.1","","-8.2","","79","","3","","11","","24.1","","100.92","","","","-10","","Clear"
"2019-02-23 05:00","2019","02","23","05:00","-4.3","","-7.5","","78","","5","","8","","24.1","","100.90","","","","-8","","NA"
"2019-02-23 06:00","2019","02","23","06:00","-4.2","","-7.5","","77","","4","","10","","24.1","","100.91","","","","-8","","NA"
"2019-02-23 07:00","2019","02","23","07:00","-3.8","","-7.3","","77","","5","","9","","24.1","","100.86","","","","-8","","Mostly Cloudy"
"2019-02-23 08:00","2019","02","23","08:00","-2.6","","-6.1","","77","","6","","11","","24.1","","100.71","","","","-7","","NA"
"2019-02-23 09:00","2019","02","23","09:00","-1.4","","-4.9","","78","","8","","9","","24.1","","100.72","","","","-5","","NA"
"2019-02-23 10:00","2019","02","23","10:00","-0.1","","-3.5","","78","","7","","14","","24.1","","100.69","","","","-4","","Cloudy"
"2019-02-23 11:00","2019","02","23","11:00","1.0","","-3.3","","73","","10","","17","","24.1","","100.60","","","","","","NA"
"2019-02-23 12:00","2019","02","23","12:00","1.6","","-3.9","","67","","7","","23","","24.1","","100.44","","","","","","NA"
"2019-02-23 13:00","2019","02","23","13:00","1.4","","-4.4","","65","","9","","23","","24.1","","100.31","","","","","","Mostly Cloudy"
"2019-02-23 14:00","2019","02","23","14:00","1.9","","-4.4","","63","","9","","24","","24.1","","100.18","","","","","","NA"
"2019-02-23 15:00","2019","02","23","15:00","1.5","","-4.5","","64","","8","","26","","24.1","","100.06","","","","","","NA"
"2019-02-23 16:00","2019","02","23","16:00","1.0","","-4.2","","69","","10","","22","","24.1","","99.94","","","","","","Mainly Clear"
"2019-02-23 17:00","2019","02","23","17:00","0.4","","-4.3","","71","","8","","26","","24.1","","99.93","","","","","","NA"
"2019-02-23 18:00","2019","02","23","18:00","0.4","","-3.9","","73","","9","","19","","24.1","","99.84","","","","","","NA"
"2019-02-23 19:00","2019","02","23","19:00","0.7","","-3.3","","74","","9","","14","","24.1","","99.74","","","","","","Mostly Cloudy"
"2019-02-23 20:00","2019","02","23","20:00","0.8","","-3.2","","75","","9","","16","","24.1","","99.60","","","","","","NA"
"2019-02-23 21:00","2019","02","23","21:00","1.1","","-2.7","","76","","9","","20","","24.1","","99.42","","","","","","NA"
"2019-02-23 22:00","2019","02","23","22:00","1.4","","-2.2","","77","","10","","16","","24.1","","99.28","","","","","","Cloudy"
"2019-02-23 23:00","2019","02","23","23:00","1.7","","-1.5","","79","","9","","14","","24.1","","99.09","","","","","","NA"
"2019-02-24 00:00","2019","02","24","00:00","1.9","","-0.9","","82","","9","","18","","19.3","","98.92","","","","","","Rain"
"2019-02-24 01:00","2019","02","24","01:00","1.6","","-0.8","","84","","9","","16","","9.7","","98.73","","","","","","Drizzle,Fog"
"2019-02-24 02:00","2019","02","24","02:00","1.4","","-0.6","","87","","9","","11","","4.8","","98.55","","","","","","Drizzle,Fog"
"2019-02-24 03:00","2019","02","24","03:00","1.9","","0.3","","89","","10","","22","","4.8","","98.36","","","","","","Rain,Fog"
"2019-02-24 04:00","2019","02","24","04:00","1.9","","0.6","","91","","10","","15","","4.8","","98.16","","","","","","Rain,Fog"
"2019-02-24 05:00","2019","02","24","05:00","2.1","","0.9","","92","","10","","23","","4.8","","97.86","","","","","","Rain,Fog"
"2019-02-24 06:00","2019","02","24","06:00","2.4","","1.3","","93","","10","","20","","4.8","","97.58","","","","","","Rain,Fog"
"2019-02-24 07:00","2019","02","24","07:00","3.0","","1.9","","93","","13","","23","","9.7","","97.29","","","","","","Fog"
"2019-02-24 08:00","2019","02","24","08:00","3.0","","2.0","","93","","12","","16","","4.0","","97.21","","","","","","Rain,Fog"
"2019-02-24 09:00","2019","02","24","09:00","3.4","","2.3","","93","","14","","14","","9.7","","97.03","","","","","","Fog"
"2019-02-24 10:00","2019","02","24","10:00","4.4","","3.3","","93","","13","","19","","16.1","","96.84","","","","","","Mostly Cloudy"
"2019-02-24 11:00","2019","02","24","11:00","4.8","","3.7","","93","","16","","12","","19.3","","96.70","","","","","","NA"
"2019-02-24 12:00","2019","02","24","12:00","5.9","","4.8","","93","","19","","16","","19.3","","96.65","","","","","","NA"
"2019-02-24 13:00","2019","02","24","13:00","5.8","","4.0","","88","","22","","47","","24.1","","96.57","","","","","","Mostly Cloudy"
"2019-02-24 14:00","2019","02","24","14:00","3.8","","1.3","","83","","24","","53","","24.1","","96.62","","","","","","NA"
"2019-02-24 15:00","2019","02","24","15:00","2.7","","-0.1","","82","","22","","35","","9.7","","96.76","","","","","","Rain"
"2019-02-24 16:00","2019","02","24","16:00","1.9","","-0.9","","81","","23","","42","","9.7","","96.84","","","","","","Snow Pellets"
"2019-02-24 17:00","2019","02","24","17:00","2.0","","-1.9","","75","","25","","53","","24.1","","96.93","","","","","","Snow Showers"
"2019-02-24 18:00","2019","02","24","18:00","1.8","","-3.0","","70","","25","","48","","19.3","","97.06","","","","","","Snow Showers"
"2019-02-24 19:00","2019","02","24","19:00","1.2","","-3.8","","69","","25","","59","","24.1","","97.16","","","","","","Mostly Cloudy"
"2019-02-24 20:00","2019","02","24","20:00","0.5","","-4.6","","69","","26","","52","","9.7","","97.23","","","","","","Snow Showers"
"2019-02-24 21:00","2019","02","24","21:00","-1.0","","-4.9","","75","","25","","45","","8.1","","97.30","","","","-9","","Snow Showers"
"2019-02-24 22:00","2019","02","24","22:00","-1.7","","-5.4","","76","","27","","67","","19.3","","97.37","","","","-12","","Snow Showers"
"2019-02-24 23:00","2019","02","24","23:00","-2.5","","-6.2","","76","","26","","62","","16.1","","97.44","","","","-12","","Snow Showers"
"2019-02-25 00:00","2019","02","25","00:00","-2.9","","-6.7","","75","","25","","53","","16.1","","97.50","","","","-12","","Snow Showers"
"2019-02-25 01:00","2019","02","25","01:00","-3.0","","-7.0","","74","","26","","48","","16.1","","97.58","","","","-12","","Snow Showers"
"2019-02-25 02:00","2019","02","25","02:00","-3.2","","-7.4","","73","","26","","43","","9.7","","97.73","","","","-12","","Snow Showers"
"2019-02-25 03:00","2019","02","25","03:00","-3.8","","-7.9","","73","","27","","59","","9.7","","97.84","","","","-14","","Snow Showers"
"2019-02-25 04:00","2019","02","25","04:00","-4.3","","-8.6","","72","","27","","45","","9.7","","98.05","","","","-14","","Snow Showers"
"2019-02-25 05:00","2019","02","25","05:00","-4.7","","-9.3","","70","","28","","49","","8.1","","98.22","","","","-14","","Snow Showers"
"2019-02-25 06:00","2019","02","25","06:00","-5.4","","-10.0","","71","","27","","48","","9.7","","98.42","","","","-15","","Snow Showers"
"2019-02-25 07:00","2019","02","25","07:00","-5.7","","-10.5","","69","","27","","60","","24.1","","98.60","","","","-17","","Blowing Snow"
"2019-02-25 08:00","2019","02","25","08:00","-5.7","","-10.7","","68","","28","","54","","24.1","","98.81","","","","-16","","NA"
"2019-02-25 09:00","2019","02","25","09:00","-4.9","","-10.1","","67","","29","","50","","24.1","","99.02","","","","-15","","NA"
"2019-02-25 10:00","2019","02","25","10:00","-5.0","","-10.6","","65","","28","","64","","24.1","","99.20","","","","-16","","Mostly Cloudy"
"2019-02-25 11:00","2019","02","25","11:00","-4.6","","-10.2","","65","","29","","50","","9.7","","99.37","","","","-14","","Snow Showers"
"2019-02-25 12:00","2019","02","25","12:00","-5.5","","-9.8","","72","","30","","43","","9.7","","99.58","","","","-15","","Snow Showers,Blowing Snow"
"2019-02-25 13:00","2019","02","25","13:00","-5.2","","-10.2","","68","","29","","54","","1.0","","99.69","","","","-16","","Snow Showers,Blowing Snow"
"2019-02-25 14:00","2019","02","25","14:00","-4.9","","-10.6","","65","","29","","66","","24.1","","99.79","","","","-16","","Blowing Snow"
"2019-02-25 15:00","2019","02","25","15:00","-5.7","","-10.8","","67","","29","","35","","9.7","","99.95","","","","-14","","Snow Showers,Blowing Snow"
"2019-02-25 16:00","2019","02","25","16:00","-5.5","","-11.3","","64","","28","","52","","24.1","","100.06","","","","-16","","Mainly Clear"
"2019-02-25 17:00","2019","02","25","17:00","-5.8","","-12.0","","62","","28","","31","","9.7","","100.22","","","","-14","","NA"
"2019-02-25 18:00","2019","02","25","18:00","-6.6","","-11.8","","67","","30","","27","","16.1","","100.30","","","","-15","","Snow Showers"
"2019-02-25 19:00","2019","02","25","19:00","-6.9","","-11.9","","68","","28","","30","","16.1","","100.41","","","","-15","","Snow Showers"
"2019-02-25 20:00","2019","02","25","20:00","-7.2","","-12.2","","68","","26","","28","","19.3","","100.49","","","","-16","","Snow Showers"
"2019-02-25 21:00","2019","02","25","21:00","-7.8","","-12.7","","68","","26","","27","","24.1","","100.51","","","","-16","","NA"
"2019-02-25 22:00","2019","02","25","22:00","-7.8","","-12.7","","68","","26","","23","","24.1","","100.56","","","","-16","","Mostly Cloudy"
"2019-02-25 23:00","2019","02","25","23:00","-7.8","","-12.7","","68","","27","","25","","24.1","","100.57","","","","-16","","NA"
"2019-02-26 00:00","2019","02","26","00:00","-7.8","","-12.7","","68","","28","","21","","24.1","","100.58","","","","-15","","NA"
"2019-02-26 01:00","2019","02","26","01:00","-8.1","","-13.3","","66","","29","","27","","24.1","","100.65","","","","-17","","Mostly Cloudy"
"2019-02-26 02:00","2019","02","26","02:00","-8.5","","-13.3","","68","","31","","16","","24.1","","100.71","","","","-15","","NA"
"2019-02-26 03:00","2019","02","26","03:00","-8.6","","-14.0","","65","","32","","27","","24.1","","100.76","","","","-17","","NA"
"2019-02-26 04:00","2019","02","26","04:00","-9.1","","-15.1","","62","","31","","21","","24.1","","100.81","","","","-17","","Mostly Cloudy"
"2019-02-26 05:00","2019","02","26","05:00","-9.8","","-16.1","","60","","31","","24","","24.1","","100.88","","","","-18","","NA"
"2019-02-26 06:00","2019","02","26","06:00","-10.0","","-16.4","","60","","32","","14","","24.1","","100.90","","","","-16","","NA"
"2019-02-26 07:00","2019","02","26","07:00","-10.3","","-16.8","","59","","29","","15","","24.1","","100.93","","","","-17","","Mostly Cloudy"
"2019-02-26 08:00","2019","02","26","08:00","-10.1","","-16.5","","60","","28","","14","","24.1","","100.97","","","","-17","","NA"
"2019-02-26 09:00","2019","02","26","09:00","-9.3","","-16.0","","59","","26","","9","","24.1","","101.02","","","","-14","","NA"
"2019-02-26 10:00","2019","02","26","10:00","-8.2","","-15.1","","58","","30","","15","","24.1","","101.02","","","","-15","","Mainly Clear"
"2019-02-26 11:00","2019","02","26","11:00","-6.9","","-14.3","","56","","28","","30","","24.1","","101.01","","","","-15","","NA"
"2019-02-26 12:00","2019","02","26","12:00","-6.9","","-15.2","","52","","32","","37","","24.1","","101.03","","","","-16","","NA"
"2019-02-26 13:00","2019","02","26","13:00","-6.5","","-15.5","","50","","30","","29","","24.1","","101.00","","","","-15","","Mostly Cloudy"
"2019-02-26 14:00","2019","02","26","14:00","-7.3","","-14.2","","58","","35","","16","","9.7","","101.03","","","","-14","","Snow Showers"
"2019-02-26 15:00","2019","02","26","15:00","-7.8","","-14.7","","58","","36","","23","","24.1","","101.05","","","","-16","","NA"
"2019-02-26 16:00","2019","02","26","16:00","-8.4","","-15.6","","56","","36","","18","","24.1","","101.14","","","","-15","","Mostly Cloudy"
"2019-02-26 17:00","2019","02","26","17:00","-8.8","","-16.2","","55","","34","","22","","24.1","","101.10","","","","-17","","NA"
"2019-02-26 18:00","2019","02","26","18:00","-9.7","","-16.8","","57","","1","","16","","24.1","","101.18","","","","-17","","NA"
"2019-02-26 19:00","2019","02","26","19:00","-9.7","","-16.5","","58","","35","","15","","24.1","","101.21","","","","-16","","Mostly Cloudy"
"2019-02-26 20:00","2019","02","26","20:00","-9.9","","-16.2","","60","","1","","14","","24.1","","101.21","","","","-16","","NA"
"2019-02-26 21:00","2019","02","26","21:00","-10.1","","-16.2","","61","","34","","14","","24.1","","101.18","","","","-17","","NA"
"2019-02-26 22:00","2019","02","26","22:00","-10.1","","-16.3","","61","","36","","17","","24.1","","101.19","","","","-17","","Mostly Cloudy"
"2019-02-26 23:00","2019","02","26","23:00","-10.1","","-16.6","","59","","36","","18","","24.1","","101.17","","","","-18","","NA"
"2019-02-27 00:00","2019","02","27","00:00","-10.4","","-16.8","","60","","1","","12","","24.1","","101.15","","","","-16","","NA"
"2019-02-27 01:00","2019","02","27","01:00","-10.6","","-16.9","","60","","2","","12","","24.1","","101.15","","","","-17","","Cloudy"
"2019-02-27 02:00","2019","02","27","02:00","-10.7","","-16.9","","61","","5","","10","","24.1","","101.08","","","","-16","","NA"
"2019-02-27 03:00","2019","02","27","03:00","-11.2","","-17.4","","60","","4","","14","","24.1","","101.00","","","","-18","","NA"
"2019-02-27 04:00","2019","02","27","04:00","-11.2","","-17.4","","61","","6","","11","","24.1","","100.98","","","","-17","","Cloudy"
"2019-02-27 05:00","2019","02","27","05:00","-11.5","","-18.6","","56","","8","","13","","24.1","","100.90","","","","-18","","NA"
"2019-02-27 06:00","2019","02","27","06:00","-11.0","","-18.0","","57","","6","","15","","9.7","","100.85","","","","-18","","Snow"
"2019-02-27 07:00","2019","02","27","07:00","-11.1","","-17.0","","62","","6","","19","","6.4","","100.78","","","","-19","","Snow"
"2019-02-27 08:00","2019","02","27","08:00","-11.1","","-16.3","","66","","6","","16","","2.0","","100.71","","","","-18","","Snow"
"2019-02-27 09:00","2019","02","27","09:00","-10.9","","-15.5","","69","","6","","14","","0.4","","100.62","","","","-18","","Heavy Snow"
"2019-02-27 10:00","2019","02","27","10:00","-10.4","","-14.6","","71","","6","","14","","1.2","","100.41","","","","-17","","Snow"
"2019-02-27 11:00","2019","02","27","11:00","-9.2","","-13.4","","72","","4","","17","","1.6","","100.29","","","","-16","","Snow"
"2019-02-27 12:00","2019","02","27","12:00","-7.8","","-11.6","","75","","10","","18","","1.6","","100.09","","","","-15","","Snow"
"2019-02-27 13:00","2019","02","27","13:00","-7.7","","-11.2","","76","","8","","13","","0.8","","99.99","","","","-13","","Moderate Snow"
"2019-02-27 14:00","2019","02","27","14:00","-9.7","","-12.9","","77","","5","","23","","1.2","","99.86","","","","-18","","Snow"
"2019-02-27 15:00","2019","02","27","15:00","-10.0","","-13.1","","78","","6","","21","","1.2","","99.77","","","","-18","","Snow"
"2019-02-27 16:00","2019","02","27","16:00","-10.3","","-13.3","","78","","5","","22","","1.2","","99.72","","","","-19","","Snow"
"2019-02-27 17:00","2019","02","27","17:00","-10.9","","-14.0","","78","","5","","22","","1.6","","99.67","","","","-19","","Snow"
"2019-02-27 18:00","2019","02","27","18:00","-11.1","","-14.3","","77","","4","","25","","8.1","","99.66","","","","-20","","Snow"
"2019-02-27 19:00","2019","02","27","19:00","-11.3","","-14.6","","76","","3","","19","","6.4","","99.72","","","","-19","","Snow"
"2019-02-27 20:00","2019","02","27","20:00","-11.8","","-15.2","","76","","2","","23","","8.1","","99.75","","","","-21","","Snow"
"2019-02-27 21:00","2019","02","27","21:00","-12.3","","-15.8","","75","","36","","19","","16.1","","99.77","","","","-21","","Snow,Blowing Snow"
"2019-02-27 22:00","2019","02","27","22:00","-12.7","","-16.3","","75","","36","","18","","8.1","","99.81","","","","-21","","Snow"
"2019-02-27 23:00","2019","02","27","23:00","-12.8","","-16.5","","74","","35","","16","","8.1","","99.85","","","","-20","","Snow"
"2019-02-28 00:00","2019","02","28","00:00","-12.9","","-16.6","","75","","34","","21","","4.8","","99.90","","","","-22","","Snow"
"2019-02-28 01:00","2019","02","28","01:00","-13.6","","-17.2","","74","","35","","18","","24.1","","99.93","","","","-22","","Blowing Snow"
"2019-02-28 02:00","2019","02","28","02:00","-14.6","","-18.3","","74","","33","","12","","24.1","","99.99","","","","-21","","NA"
"2019-02-28 03:00","2019","02","28","03:00","-14.5","","-18.0","","75","","34","","18","","24.1","","100.07","","","","-23","","NA"
"2019-02-28 04:00","2019","02","28","04:00","-15.3","","-18.7","","76","","36","","13","","24.1","","100.13","","","","-23","","Clear"
"2019-02-28 05:00","2019","02","28","05:00","-15.9","","-19.1","","77","","35","","13","","24.1","","100.25","","","","-23","","NA"
"2019-02-28 06:00","2019","02","28","06:00","-15.9","","-19.2","","77","","34","","15","","24.1","","100.33","","","","-24","","NA"
"2019-02-28 07:00","2019","02","28","07:00","-15.9","","-18.9","","78","","35","","15","","24.1","","100.36","","","","-24","","Clear"
"2019-02-28 08:00","2019","02","28","08:00","-15.5","","-18.6","","77","","1","","10","","24.1","","100.45","","","","-22","","NA"
"2019-02-28 09:00","2019","02","28","09:00","-14.2","","-17.5","","77","","2","","13","","24.1","","100.48","","","","-21","","NA"
"2019-02-28 10:00","2019","02","28","10:00","-12.2","","-15.7","","75","","1","","10","","24.1","","100.48","","","","-18","","Clear"
"2019-02-28 11:00","2019","02","28","11:00","-10.2","","-14.4","","72","","36","","3","","24.1","","100.46","","","","-12","","NA"
"2019-02-28 12:00","2019","02","28","12:00","-7.9","","-12.7","","69","","25","","4","","24.1","","100.48","","","","-10","","NA"
"2019-02-28 13:00","2019","02","28","13:00","-7.6","","-13.0","","66","","20","","10","","24.1","","100.43","","","","-12","","Mainly Clear"
"2019-02-28 14:00","2019","02","28","14:00","-7.4","","-13.3","","63","","18","","7","","24.1","","100.40","","","","-11","","NA"
"2019-02-28 15:00","2019","02","28","15:00","-7.2","","-13.2","","63","","19","","11","","24.1","","100.38","","","","-12","","NA"
"2019-02-28 16:00","2019","02","28","16:00","-7.4","","-13.1","","64","","15","","10","","24.1","","100.39","","","","-12","","Mostly Cloudy"
"2019-02-28 17:00","2019","02","28","17:00","-7.5","","-12.9","","65","","13","","13","","24.1","","100.35","","","","-13","","NA"
"2019-02-28 18:00","2019","02","28","18:00","-7.5","","-12.9","","66","","16","","9","","24.1","","100.39","","","","-12","","NA"
"2019-02-28 19:00","2019","02","28","19:00","-7.7","","-12.9","","67","","15","","7","","24.1","","100.39","","","","-11","","Mostly Cloudy"
"2019-02-28 20:00","2019","02","28","20:00","-7.7","","-12.6","","68","","13","","5","","24.1","","100.38","","","","-10","","NA"
"2019-02-28 21:00","2019","02","28","21:00","-7.4","","-12.4","","68","","15","","5","","24.1","","100.37","","","","-10","","NA"
"2019-02-28 22:00","2019","02","28","22:00","-7.3","","-12.3","","68","","14","","4","","24.1","","100.34","","","","-9","","Mostly Cloudy"
"2019-02-28 23:00","2019","02","28","23:00","-7.4","","-12.3","","68","","36","","1","","24.1","","100.28","","","","-8","","NA"
