"Station Name","TORONTO INTL A"
"Province","ONTARIO"
"Latitude","43.68"
"Longitude","-79.63"
"Elevation","173.40"
"Climate Identifier","6158731"
"WMO Identifier","71624"
"TC Identifier","YYZ"
"All times are specified in Local Standard Time (LST). Add 1 hour to adjust for Daylight Saving Time where and when it is observed."

"Legend"
"E","Estimated"
"M","Missing"
"NA","Not Available"

"Date/Time","Year","Month","Day","Time","Temp (°C)","Temp Flag","Dew Point Temp (°C)","Dew Point Temp Flag","Rel Hum (%)","Rel Hum Flag","Wind Dir (10s deg)","Wind Dir Flag","Wind Spd (km/h)","Wind Spd Flag","Visibility (km)","Visibility Flag","Stn Press (kPa)","Stn Press Flag","Hmdx","Hmdx Flag","Wind Chill","Wind Chill Flag","Weather"
"2017-07-01 00:00","2017","07","01","00:00","22.2","","19.5","","84","","18","","8","","11.3","","99.02","","29","","","","Rain,Fog"
"2017-07-01 01:00","2017","07","01","01:00","20.4","","19.2","","92","","15","","8","","11.3","","98.96","","27","","","","Rain,Fog"
"2017-07-01 02:00","2017","07","01","02:00","19.8","","18.9","","94","","22","","3","","24.1","","98.92","","","","","","NA"
"2017-07-01 03:00","2017","07","01","03:00","20.9","","19.0","","89","","20","","6","","24.1","","98.85","","28","","","","NA"
"2017-07-01 04:00","2017","07","01","04:00","20.3","","19.1","","93","","16","","9","","24.1","","98.85","","27","","","","Mostly Cloudy"
"2017-07-01 05:00","2017","07","01","05:00","19.9","","18.9","","94","","16","","8","","24.1","","98.87","","","","","","NA"
"2017-07-01 06:00","2017","07","01","06:00","20.0","","19.0","","94","","17","","8","","24.1","","98.89","","27","","","","NA"
"2017-07-01 07:00","2017","07","01","07:00","20.2","","19.0","","93","","14","","8","","17.7","","98.86","","27","","","","Mostly Cloudy"
"2017-07-01 08:00","2017","07","01","08:00","21.1","","19.2","","89","","18","","8","","17.7","","98.92","","28","","","","NA"
"2017-07-01 09:00","2017","07","01","09:00","22.1","","18.9","","82","","23","","15","","24.1","","98.88","","29","","","","NA"
"2017-07-01 10:00","2017","07","01","10:00","23.2","","18.8","","76","","19","","9","","24.1","","98.84","","30","","","","Mostly Cloudy"
"2017-07-01 11:00","2017","07","01","11:00","23.9","","18.9","","73","","24","","19","","24.1","","98.87","","31","","","","NA"
"2017-07-01 12:00","2017","07","01","12:00","25.9","","20.1","","70","","24","","17","","24.1","","98.84","","34","","","","NA"
"2017-07-01 13:00","2017","07","01","13:00","24.9","","18.8","","69","","26","","26","","24.1","","98.82","","32","","","","Cloudy"
"2017-07-01 14:00","2017","07","01","14:00","24.2","","19.0","","72","","26","","23","","24.1","","98.85","","31","","","","NA"
"2017-07-01 15:00","2017","07","01","15:00","21.2","","19.1","","87","","23","","10","","16.1","","98.81","","28","","","","NA"
"2017-07-01 16:00","2017","07","01","16:00","20.6","","18.6","","88","","22","","11","","24.1","","98.88","","27","","","","Rain Showers"
"2017-07-01 17:00","2017","07","01","17:00","22.0","","19.4","","85","","23","","22","","24.1","","98.89","","29","","","","NA"
"2017-07-01 18:00","2017","07","01","18:00","23.0","","18.8","","77","","24","","19","","24.1","","98.91","","30","","","","NA"
"2017-07-01 19:00","2017","07","01","19:00","22.8","","18.5","","76","","25","","20","","24.1","","98.95","","29","","","","Clear"
"2017-07-01 20:00","2017","07","01","20:00","22.0","","16.5","","70","","29","","15","","24.1","","99.00","","27","","","","NA"
"2017-07-01 21:00","2017","07","01","21:00","21.6","","15.3","","67","","31","","25","","24.1","","99.13","","26","","","","NA"
"2017-07-01 22:00","2017","07","01","22:00","19.1","","14.7","","76","","32","","22","","24.1","","99.22","","","","","","Clear"
"2017-07-01 23:00","2017","07","01","23:00","18.1","","12.9","","72","","32","","19","","24.1","","99.27","","","","","","NA"
"2017-07-02 00:00","2017","07","02","00:00","15.9","","13.2","","84","","27","","9","","24.1","","99.30","","","","","","NA"
"2017-07-02 01:00","2017","07","02","01:00","16.4","","13.3","","82","","29","","8","","24.1","","99.30","","","","","","Clear"
"2017-07-02 02:00","2017","07","02","02:00","15.0","","12.5","","85","","27","","7","","24.1","","99.30","","","","","","NA"
"2017-07-02 03:00","2017","07","02","03:00","14.2","","12.3","","88","","28","","10","","24.1","","99.30","","","","","","NA"
"2017-07-02 04:00","2017","07","02","04:00","15.4","","12.6","","83","","21","","4","","24.1","","99.32","","","","","","Mainly Clear"
"2017-07-02 05:00","2017","07","02","05:00","14.6","","12.4","","87","","23","","5","","24.1","","99.35","","","","","","NA"
"2017-07-02 06:00","2017","07","02","06:00","16.4","","13.2","","81","","20","","6","","24.1","","99.39","","","","","","NA"
"2017-07-02 07:00","2017","07","02","07:00","17.8","","13.4","","75","","20","","10","","24.1","","99.44","","","","","","Clear"
"2017-07-02 08:00","2017","07","02","08:00","18.3","","13.4","","73","","28","","4","","24.1","","99.44","","","","","","NA"
"2017-07-02 09:00","2017","07","02","09:00","20.4","","14.6","","69","","24","","8","","24.1","","99.45","","","","","","NA"
"2017-07-02 10:00","2017","07","02","10:00","21.6","","14.2","","62","","23","","16","","24.1","","99.43","","25","","","","Mainly Clear"
"2017-07-02 11:00","2017","07","02","11:00","22.9","","15.4","","62","","15","","18","","24.1","","99.42","","27","","","","NA"
"2017-07-02 12:00","2017","07","02","12:00","23.3","","16.2","","64","","13","","15","","24.1","","99.35","","28","","","","NA"
"2017-07-02 13:00","2017","07","02","13:00","22.1","","16.3","","69","","26","","5","","24.1","","99.28","","27","","","","Rain Showers"
"2017-07-02 14:00","2017","07","02","14:00","27.1","","16.4","","52","","25","","32","","24.1","","99.24","","32","","","","NA"
"2017-07-02 15:00","2017","07","02","15:00","27.0","","15.4","","49","","26","","37","","24.1","","99.24","","31","","","","NA"
"2017-07-02 16:00","2017","07","02","16:00","27.1","","14.5","","45","","26","","34","","24.1","","99.24","","31","","","","Mainly Clear"
"2017-07-02 17:00","2017","07","02","17:00","26.4","","14.8","","48","","25","","30","","24.1","","99.23","","30","","","","NA"
"2017-07-02 18:00","2017","07","02","18:00","25.4","","14.1","","49","","26","","27","","24.1","","99.21","","29","","","","NA"
"2017-07-02 19:00","2017","07","02","19:00","25.5","","15.0","","51","","26","","26","","24.1","","99.22","","29","","","","Mostly Cloudy"
"2017-07-02 20:00","2017","07","02","20:00","20.1","","14.2","","69","","36","","22","","24.1","","99.27","","","","","","NA"
"2017-07-02 21:00","2017","07","02","21:00","19.6","","14.4","","71","","33","","19","","24.1","","99.33","","","","","","NA"
"2017-07-02 22:00","2017","07","02","22:00","18.9","","14.4","","75","","33","","15","","24.1","","99.38","","","","","","Mainly Clear"
"2017-07-02 23:00","2017","07","02","23:00","18.2","","14.7","","80","","28","","14","","24.1","","99.43","","","","","","NA"
"2017-07-03 00:00","2017","07","03","00:00","17.0","","14.0","","82","","28","","11","","24.1","","99.46","","","","","","NA"
"2017-07-03 01:00","2017","07","03","01:00","18.0","","13.2","","73","","32","","14","","24.1","","99.50","","","","","","Mostly Cloudy"
"2017-07-03 02:00","2017","07","03","02:00","18.0","","12.8","","71","","31","","17","","24.1","","99.51","","","","","","NA"
"2017-07-03 03:00","2017","07","03","03:00","16.4","","12.3","","76","","32","","14","","24.1","","99.50","","","","","","NA"
"2017-07-03 04:00","2017","07","03","04:00","16.0","","12.3","","79","","31","","14","","24.1","","99.53","","","","","","Clear"
"2017-07-03 05:00","2017","07","03","05:00","15.5","","12.1","","80","","31","","12","","24.1","","99.55","","","","","","NA"
"2017-07-03 06:00","2017","07","03","06:00","17.0","","11.0","","67","","31","","21","","24.1","","99.60","","","","","","NA"
"2017-07-03 07:00","2017","07","03","07:00","18.2","","11.3","","64","","31","","21","","24.1","","99.65","","","","","","Clear"
"2017-07-03 08:00","2017","07","03","08:00","19.9","","12.0","","60","","32","","20","","24.1","","99.67","","","","","","NA"
"2017-07-03 09:00","2017","07","03","09:00","21.1","","11.2","","53","","32","","21","","24.1","","99.67","","","","","","NA"
"2017-07-03 10:00","2017","07","03","10:00","22.3","","11.7","","51","","31","","16","","24.1","","99.66","","","","","","Clear"
"2017-07-03 11:00","2017","07","03","11:00","22.8","","11.3","","48","","32","","11","","24.1","","99.69","","25","","","","NA"
"2017-07-03 12:00","2017","07","03","12:00","23.8","","12.2","","47","","33","","13","","24.1","","99.65","","26","","","","NA"
"2017-07-03 13:00","2017","07","03","13:00","24.1","","11.2","","44","","33","","12","","24.1","","99.63","","26","","","","Mostly Cloudy"
"2017-07-03 14:00","2017","07","03","14:00","23.8","","10.9","","44","","32","","14","","24.1","","99.62","","26","","","","NA"
"2017-07-03 15:00","2017","07","03","15:00","24.9","","12.9","","47","","32","","10","","24.1","","99.64","","28","","","","NA"
"2017-07-03 16:00","2017","07","03","16:00","24.2","","12.5","","48","","34","","17","","24.1","","99.61","","27","","","","Mostly Cloudy"
"2017-07-03 17:00","2017","07","03","17:00","23.5","","12.4","","49","","2","","14","","24.1","","99.60","","26","","","","NA"
"2017-07-03 18:00","2017","07","03","18:00","23.7","","13.5","","52","","1","","13","","24.1","","99.62","","27","","","","NA"
"2017-07-03 19:00","2017","07","03","19:00","22.6","","13.7","","57","","36","","17","","24.1","","99.67","","26","","","","Mostly Cloudy"
"2017-07-03 20:00","2017","07","03","20:00","21.4","","12.5","","56","","1","","16","","24.1","","99.71","","","","","","NA"
"2017-07-03 21:00","2017","07","03","21:00","20.2","","11.5","","57","","1","","18","","24.1","","99.79","","","","","","NA"
"2017-07-03 22:00","2017","07","03","22:00","19.0","","10.8","","58","","36","","18","","24.1","","99.83","","","","","","Mainly Clear"
"2017-07-03 23:00","2017","07","03","23:00","18.1","","10.6","","61","","35","","17","","24.1","","99.84","","","","","","NA"
"2017-07-04 00:00","2017","07","04","00:00","17.0","","10.3","","64","","35","","14","","24.1","","99.83","","","","","","NA"
"2017-07-04 01:00","2017","07","04","01:00","16.4","","11.3","","71","","36","","12","","24.1","","99.85","","","","","","Mainly Clear"
"2017-07-04 02:00","2017","07","04","02:00","15.9","","11.9","","77","","36","","8","","24.1","","99.85","","","","","","NA"
"2017-07-04 03:00","2017","07","04","03:00","15.3","","11.2","","76","","35","","13","","24.1","","99.85","","","","","","NA"
"2017-07-04 04:00","2017","07","04","04:00","15.0","","10.4","","74","","34","","8","","24.1","","99.89","","","","","","Mainly Clear"
"2017-07-04 05:00","2017","07","04","05:00","14.9","","10.8","","76","","35","","9","","24.1","","99.92","","","","","","NA"
"2017-07-04 06:00","2017","07","04","06:00","16.2","","11.6","","74","","35","","14","","24.1","","99.97","","","","","","NA"
"2017-07-04 07:00","2017","07","04","07:00","18.2","","12.5","","69","","36","","13","","24.1","","100.02","","","","","","Clear"
"2017-07-04 08:00","2017","07","04","08:00","20.1","","13.2","","64","","1","","9","","24.1","","100.06","","","","","","NA"
"2017-07-04 09:00","2017","07","04","09:00","22.5","","14.3","","59","","36","","8","","24.1","","100.05","","26","","","","NA"
"2017-07-04 10:00","2017","07","04","10:00","23.7","","12.9","","50","","3","","8","","24.1","","100.04","","26","","","","Mainly Clear"
"2017-07-04 11:00","2017","07","04","11:00","22.7","","11.8","","50","","14","","14","","24.1","","100.02","","25","","","","NA"
"2017-07-04 12:00","2017","07","04","12:00","24.5","","10.7","","41","","15","","14","","24.1","","100.00","","26","","","","NA"
"2017-07-04 13:00","2017","07","04","13:00","24.3","","10.3","","41","","13","","15","","24.1","","99.98","","26","","","","Mostly Cloudy"
"2017-07-04 14:00","2017","07","04","14:00","25.7","","11.8","","42","","15","","15","","24.1","","99.95","","28","","","","NA"
"2017-07-04 15:00","2017","07","04","15:00","25.2","","10.0","","38","","15","","16","","24.1","","99.96","","26","","","","NA"
"2017-07-04 16:00","2017","07","04","16:00","24.9","","10.5","","40","","16","","12","","24.1","","99.97","","26","","","","Mainly Clear"
"2017-07-04 17:00","2017","07","04","17:00","24.5","","9.5","","38","","15","","14","","24.1","","99.94","","26","","","","NA"
"2017-07-04 18:00","2017","07","04","18:00","24.3","","8.5","","36","","15","","12","","24.1","","99.94","","25","","","","NA"
"2017-07-04 19:00","2017","07","04","19:00","23.3","","7.8","","36","","17","","9","","24.1","","99.96","","","","","","Mainly Clear"
"2017-07-04 20:00","2017","07","04","20:00","22.2","","7.3","","38","","14","","7","","24.1","","99.97","","","","","","NA"
"2017-07-04 21:00","2017","07","04","21:00","22.0","","6.5","","36","","15","","7","","24.1","","100.03","","","","","","NA"
"2017-07-04 22:00","2017","07","04","22:00","21.0","","7.4","","41","","36","","3","","24.1","","100.07","","","","","","Mainly Clear"
"2017-07-04 23:00","2017","07","04","23:00","20.8","","7.0","","41","","36","","3","","24.1","","100.06","","","","","","NA"
"2017-07-05 00:00","2017","07","05","00:00","19.4","","9.6","","53","","32","","4","","24.1","","100.06","","","","","","NA"
"2017-07-05 01:00","2017","07","05","01:00","18.6","","10.5","","59","","1","","4","","24.1","","100.03","","","","","","Clear"
"2017-07-05 02:00","2017","07","05","02:00","17.2","","10.5","","65","","1","","6","","24.1","","100.04","","","","","","NA"
"2017-07-05 03:00","2017","07","05","03:00","15.8","","10.6","","71","","32","","10","","24.1","","100.07","","","","","","NA"
"2017-07-05 04:00","2017","07","05","04:00","14.9","","10.1","","73","","31","","8","","24.1","","100.12","","","","","","Mainly Clear"
"2017-07-05 05:00","2017","07","05","05:00","14.5","","10.0","","74","","32","","4","","24.1","","100.14","","","","","","NA"
"2017-07-05 06:00","2017","07","05","06:00","17.0","","10.8","","66","","35","","3","","24.1","","100.19","","","","","","NA"
"2017-07-05 07:00","2017","07","05","07:00","19.5","","12.5","","63","","4","","6","","24.1","","100.21","","","","","","Clear"
"2017-07-05 08:00","2017","07","05","08:00","22.4","","10.6","","47","","11","","9","","24.1","","100.23","","","","","","NA"
"2017-07-05 09:00","2017","07","05","09:00","23.7","","8.9","","38","","13","","16","","24.1","","100.17","","","","","","NA"
"2017-07-05 10:00","2017","07","05","10:00","24.3","","9.0","","37","","13","","17","","24.1","","100.15","","25","","","","Clear"
"2017-07-05 11:00","2017","07","05","11:00","24.4","","10.8","","42","","10","","19","","24.1","","100.12","","26","","","","NA"
"2017-07-05 12:00","2017","07","05","12:00","24.9","","9.7","","38","","13","","19","","24.1","","100.07","","26","","","","NA"
"2017-07-05 13:00","2017","07","05","13:00","25.7","","8.8","","34","","13","","14","","24.1","","100.03","","26","","","","Clear"
"2017-07-05 14:00","2017","07","05","14:00","26.1","","9.5","","35","","6","","14","","24.1","","99.97","","27","","","","NA"
"2017-07-05 15:00","2017","07","05","15:00","26.6","","9.1","","33","","12","","14","","24.1","","99.93","","27","","","","NA"
"2017-07-05 16:00","2017","07","05","16:00","26.9","","10.5","","35","","9","","13","","24.1","","99.85","","28","","","","Mainly Clear"
"2017-07-05 17:00","2017","07","05","17:00","26.4","","10.5","","36","","13","","15","","24.1","","99.81","","28","","","","NA"
"2017-07-05 18:00","2017","07","05","18:00","25.0","","9.7","","37","","14","","16","","24.1","","99.79","","26","","","","NA"
"2017-07-05 19:00","2017","07","05","19:00","23.4","","8.3","","38","","14","","13","","24.1","","99.80","","","","","","Clear"
"2017-07-05 20:00","2017","07","05","20:00","22.1","","8.0","","40","","12","","7","","24.1","","99.79","","","","","","NA"
"2017-07-05 21:00","2017","07","05","21:00","21.7","","8.5","","42","","13","","5","","24.1","","99.82","","","","","","NA"
"2017-07-05 22:00","2017","07","05","22:00","21.4","","8.7","","44","","12","","5","","24.1","","99.78","","","","","","Clear"
"2017-07-05 23:00","2017","07","05","23:00","20.8","","9.1","","46","","15","","3","","24.1","","99.77","","","","","","NA"
"2017-07-06 00:00","2017","07","06","00:00","20.3","","10.2","","52","","36","","3","","24.1","","99.74","","","","","","NA"
"2017-07-06 01:00","2017","07","06","01:00","18.2","","10.5","","61","","30","","4","","24.1","","99.69","","","","","","Clear"
"2017-07-06 02:00","2017","07","06","02:00","18.5","","10.2","","58","","36","","6","","24.1","","99.66","","","","","","NA"
"2017-07-06 03:00","2017","07","06","03:00","17.5","","11.2","","66","","32","","10","","24.1","","99.63","","","","","","NA"
"2017-07-06 04:00","2017","07","06","04:00","17.1","","11.4","","69","","30","","3","","24.1","","99.61","","","","","","Clear"
"2017-07-06 05:00","2017","07","06","05:00","17.6","","11.8","","69","","33","","7","","24.1","","99.60","","","","","","NA"
"2017-07-06 06:00","2017","07","06","06:00","19.2","","12.7","","65","","34","","5","","24.1","","99.61","","","","","","NA"
"2017-07-06 07:00","2017","07","06","07:00","20.7","","13.6","","63","","26","","4","","24.1","","99.62","","","","","","Mostly Cloudy"
"2017-07-06 08:00","2017","07","06","08:00","23.9","","14.8","","56","","23","","8","","24.1","","99.62","","28","","","","NA"
"2017-07-06 09:00","2017","07","06","09:00","25.5","","16.5","","57","","26","","11","","24.1","","99.58","","30","","","","NA"
"2017-07-06 10:00","2017","07","06","10:00","26.4","","16.1","","53","","24","","7","","24.1","","99.51","","31","","","","Mostly Cloudy"
"2017-07-06 11:00","2017","07","06","11:00","26.4","","16.8","","55","","15","","8","","24.1","","99.49","","32","","","","NA"
"2017-07-06 12:00","2017","07","06","12:00","28.3","","15.1","","44","","23","","10","","24.1","","99.43","","32","","","","NA"
"2017-07-06 13:00","2017","07","06","13:00","28.2","","17.3","","51","","16","","15","","24.1","","99.37","","34","","","","Mainly Clear"
"2017-07-06 14:00","2017","07","06","14:00","28.4","","15.9","","46","","16","","20","","24.1","","99.32","","33","","","","NA"
"2017-07-06 15:00","2017","07","06","15:00","28.9","","16.6","","46","","15","","16","","24.1","","99.26","","34","","","","NA"
"2017-07-06 16:00","2017","07","06","16:00","29.6","","15.7","","42","","16","","21","","24.1","","99.12","","34","","","","Mainly Clear"
"2017-07-06 17:00","2017","07","06","17:00","28.8","","17.3","","49","","18","","15","","24.1","","99.12","","34","","","","NA"
"2017-07-06 18:00","2017","07","06","18:00","28.2","","15.4","","45","","18","","17","","24.1","","99.14","","32","","","","NA"
"2017-07-06 19:00","2017","07","06","19:00","28.0","","16.1","","48","","21","","16","","24.1","","99.10","","33","","","","Mostly Cloudy"
"2017-07-06 20:00","2017","07","06","20:00","26.8","","16.7","","53","","22","","22","","24.1","","99.05","","32","","","","NA"
"2017-07-06 21:00","2017","07","06","21:00","25.7","","16.7","","57","","24","","20","","24.1","","99.06","","31","","","","NA"
"2017-07-06 22:00","2017","07","06","22:00","24.4","","17.8","","66","","27","","18","","24.1","","99.06","","30","","","","Mainly Clear"
"2017-07-06 23:00","2017","07","06","23:00","22.9","","17.8","","72","","26","","7","","24.1","","99.03","","29","","","","NA"
"2017-07-07 00:00","2017","07","07","00:00","22.0","","17.7","","77","","26","","15","","24.1","","99.03","","28","","","","NA"
"2017-07-07 01:00","2017","07","07","01:00","22.4","","15.6","","65","","29","","10","","24.1","","98.99","","27","","","","Mostly Cloudy"
"2017-07-07 02:00","2017","07","07","02:00","21.7","","15.8","","69","","23","","11","","24.1","","98.91","","26","","","","NA"
"2017-07-07 03:00","2017","07","07","03:00","21.4","","15.4","","68","","28","","6","","24.1","","98.84","","26","","","","NA"
"2017-07-07 04:00","2017","07","07","04:00","21.5","","15.3","","67","","30","","7","","24.1","","98.82","","26","","","","Mostly Cloudy"
"2017-07-07 05:00","2017","07","07","05:00","21.3","","15.4","","69","","32","","5","","24.1","","98.87","","26","","","","NA"
"2017-07-07 06:00","2017","07","07","06:00","21.7","","16.2","","71","","36","","2","","24.1","","98.86","","26","","","","NA"
"2017-07-07 07:00","2017","07","07","07:00","22.3","","16.4","","69","","26","","6","","24.1","","98.90","","27","","","","Mostly Cloudy"
"2017-07-07 08:00","2017","07","07","08:00","23.5","","16.6","","65","","27","","12","","24.1","","98.89","","29","","","","NA"
"2017-07-07 09:00","2017","07","07","09:00","23.9","","16.8","","64","","27","","16","","24.1","","98.83","","29","","","","NA"
"2017-07-07 10:00","2017","07","07","10:00","24.2","","17.3","","65","","30","","9","","24.1","","98.77","","30","","","","Mostly Cloudy"
"2017-07-07 11:00","2017","07","07","11:00","24.5","","16.8","","62","","30","","11","","24.1","","98.77","","30","","","","NA"
"2017-07-07 12:00","2017","07","07","12:00","24.2","","17.6","","66","","27","","7","","24.1","","98.77","","30","","","","NA"
"2017-07-07 13:00","2017","07","07","13:00","25.6","","17.3","","60","","25","","4","","24.1","","98.74","","31","","","","Mostly Cloudy"
"2017-07-07 14:00","2017","07","07","14:00","26.8","","17.4","","56","","24","","12","","24.1","","98.72","","32","","","","NA"
"2017-07-07 15:00","2017","07","07","15:00","27.2","","17.3","","54","","25","","8","","24.1","","98.62","","33","","","","NA"
"2017-07-07 16:00","2017","07","07","16:00","27.7","","18.1","","55","","27","","10","","24.1","","98.55","","34","","","","Mostly Cloudy"
"2017-07-07 17:00","2017","07","07","17:00","26.7","","18.0","","58","","9","","14","","24.1","","98.50","","33","","","","NA"
"2017-07-07 18:00","2017","07","07","18:00","25.2","","18.2","","65","","14","","22","","24.1","","98.51","","31","","","","NA"
"2017-07-07 19:00","2017","07","07","19:00","23.2","","17.0","","68","","2","","14","","24.1","","98.58","","28","","","","Mostly Cloudy"
"2017-07-07 20:00","2017","07","07","20:00","22.0","","17.6","","76","","4","","12","","24.1","","98.57","","28","","","","NA"
"2017-07-07 21:00","2017","07","07","21:00","22.0","","18.1","","78","","36","","13","","24.1","","98.64","","28","","","","NA"
"2017-07-07 22:00","2017","07","07","22:00","21.8","","17.3","","75","","35","","10","","24.1","","98.58","","27","","","","Mostly Cloudy"
"2017-07-07 23:00","2017","07","07","23:00","21.6","","16.1","","71","","36","","8","","24.1","","98.51","","26","","","","NA"
"2017-07-08 00:00","2017","07","08","00:00","20.5","","16.0","","75","","34","","18","","24.1","","98.54","","25","","","","NA"
"2017-07-08 01:00","2017","07","08","01:00","20.1","","15.9","","76","","32","","13","","24.1","","98.54","","25","","","","Mostly Cloudy"
"2017-07-08 02:00","2017","07","08","02:00","19.2","","16.4","","83","","35","","13","","24.1","","98.58","","","","","","NA"
"2017-07-08 03:00","2017","07","08","03:00","18.6","","16.1","","85","","32","","19","","24.1","","98.56","","","","","","NA"
"2017-07-08 04:00","2017","07","08","04:00","18.1","","15.4","","84","","35","","23","","24.1","","98.61","","","","","","Mostly Cloudy"
"2017-07-08 05:00","2017","07","08","05:00","17.5","","14.7","","83","","33","","27","","24.1","","98.66","","","","","","NA"
"2017-07-08 06:00","2017","07","08","06:00","17.5","","14.1","","80","","33","","27","","24.1","","98.72","","","","","","NA"
"2017-07-08 07:00","2017","07","08","07:00","18.0","","14.0","","77","","33","","29","","24.1","","98.78","","","","","","Mainly Clear"
"2017-07-08 08:00","2017","07","08","08:00","19.6","","14.2","","70","","33","","26","","24.1","","98.85","","","","","","NA"
"2017-07-08 09:00","2017","07","08","09:00","20.8","","14.1","","65","","33","","21","","24.1","","98.90","","","","","","NA"
"2017-07-08 10:00","2017","07","08","10:00","21.4","","12.6","","57","","32","","22","","24.1","","98.96","","","","","","Mainly Clear"
"2017-07-08 11:00","2017","07","08","11:00","22.4","","11.0","","48","","33","","30","","24.1","","98.99","","","","","","NA"
"2017-07-08 12:00","2017","07","08","12:00","23.2","","7.8","","37","","35","","32","","24.1","","99.03","","","","","","NA"
"2017-07-08 13:00","2017","07","08","13:00","23.0","","7.5","","36","","33","","32","","24.1","","99.04","","","","","","Mainly Clear"
"2017-07-08 14:00","2017","07","08","14:00","23.3","","7.1","","35","","34","","32","","24.1","","99.05","","","","","","NA"
"2017-07-08 15:00","2017","07","08","15:00","23.8","","7.6","","35","","34","","21","","24.1","","99.05","","","","","","NA"
"2017-07-08 16:00","2017","07","08","16:00","23.6","","8.3","","37","","34","","28","","24.1","","99.04","","","","","","Mainly Clear"
"2017-07-08 17:00","2017","07","08","17:00","23.2","","9.1","","40","","34","","24","","24.1","","99.06","","","","","","NA"
"2017-07-08 18:00","2017","07","08","18:00","23.5","","9.3","","40","","31","","17","","24.1","","99.10","","","","","","NA"
"2017-07-08 19:00","2017","07","08","19:00","22.4","","7.2","","37","","31","","30","","24.1","","99.14","","","","","","Clear"
"2017-07-08 20:00","2017","07","08","20:00","21.0","","6.5","","39","","31","","23","","24.1","","99.18","","","","","","NA"
"2017-07-08 21:00","2017","07","08","21:00","20.0","","6.7","","42","","31","","16","","24.1","","99.25","","","","","","NA"
"2017-07-08 22:00","2017","07","08","22:00","17.1","","7.3","","52","","28","","13","","24.1","","99.29","","","","","","Mainly Clear"
"2017-07-08 23:00","2017","07","08","23:00","16.2","","7.4","","55","","28","","12","","24.1","","99.30","","","","","","NA"
"2017-07-09 00:00","2017","07","09","00:00","16.1","","8.0","","58","","27","","12","","24.1","","99.31","","","","","","NA"
"2017-07-09 01:00","2017","07","09","01:00","15.6","","8.3","","62","","27","","13","","24.1","","99.31","","","","","","Mostly Cloudy"
"2017-07-09 02:00","2017","07","09","02:00","15.4","","8.4","","63","","26","","14","","24.1","","99.30","","","","","","NA"
"2017-07-09 03:00","2017","07","09","03:00","16.0","","8.3","","60","","26","","14","","24.1","","99.30","","","","","","NA"
"2017-07-09 04:00","2017","07","09","04:00","16.5","","9.0","","61","","31","","4","","24.1","","99.29","","","","","","Mainly Clear"
"2017-07-09 05:00","2017","07","09","05:00","16.0","","10.1","","68","","27","","11","","24.1","","99.33","","","","","","NA"
"2017-07-09 06:00","2017","07","09","06:00","17.3","","11.2","","67","","28","","11","","24.1","","99.36","","","","","","NA"
"2017-07-09 07:00","2017","07","09","07:00","18.3","","12.2","","67","","28","","8","","24.1","","99.40","","","","","","Mostly Cloudy"
"2017-07-09 08:00","2017","07","09","08:00","18.9","","13.0","","68","","25","","13","","24.1","","99.43","","","","","","NA"
"2017-07-09 09:00","2017","07","09","09:00","19.8","","13.6","","67","","25","","13","","24.1","","99.43","","","","","","NA"
"2017-07-09 10:00","2017","07","09","10:00","22.4","","13.2","","56","","25","","24","","24.1","","99.44","","25","","","","Mostly Cloudy"
"2017-07-09 11:00","2017","07","09","11:00","25.6","","13.8","","48","","26","","26","","24.1","","99.43","","29","","","","NA"
"2017-07-09 12:00","2017","07","09","12:00","25.2","","12.7","","45","","27","","32","","24.1","","99.37","","28","","","","NA"
"2017-07-09 13:00","2017","07","09","13:00","26.0","","12.1","","41","","27","","25","","24.1","","99.32","","28","","","","Mostly Cloudy"
"2017-07-09 14:00","2017","07","09","14:00","27.1","","12.3","","39","","25","","26","","24.1","","99.30","","30","","","","NA"
"2017-07-09 15:00","2017","07","09","15:00","26.2","","11.4","","39","","25","","35","","24.1","","99.28","","28","","","","NA"
"2017-07-09 16:00","2017","07","09","16:00","25.8","","11.7","","41","","25","","29","","24.1","","99.29","","28","","","","Mostly Cloudy"
"2017-07-09 17:00","2017","07","09","17:00","25.2","","12.9","","46","","24","","23","","24.1","","99.28","","28","","","","NA"
"2017-07-09 18:00","2017","07","09","18:00","25.2","","12.8","","46","","23","","30","","24.1","","99.24","","28","","","","NA"
"2017-07-09 19:00","2017","07","09","19:00","24.4","","12.7","","47","","23","","21","","24.1","","99.29","","27","","","","Mostly Cloudy"
"2017-07-09 20:00","2017","07","09","20:00","23.5","","12.4","","49","","23","","22","","24.1","","99.31","","26","","","","NA"
"2017-07-09 21:00","2017","07","09","21:00","22.7","","11.0","","47","","25","","23","","24.1","","99.37","","","","","","NA"
"2017-07-09 22:00","2017","07","09","22:00","19.9","","16.1","","78","","32","","19","","24.1","","99.39","","","","","","Rain"
"2017-07-09 23:00","2017","07","09","23:00","19.5","","16.4","","82","","32","","13","","24.1","","99.38","","","","","","NA"
"2017-07-10 00:00","2017","07","10","00:00","19.1","","15.1","","78","","28","","15","","24.1","","99.41","","","","","","NA"
"2017-07-10 01:00","2017","07","10","01:00","19.0","","14.6","","75","","25","","6","","24.1","","99.35","","","","","","Cloudy"
"2017-07-10 02:00","2017","07","10","02:00","18.2","","14.4","","78","","26","","9","","24.1","","99.32","","","","","","NA"
"2017-07-10 03:00","2017","07","10","03:00","18.3","","14.6","","79","","25","","5","","24.1","","99.30","","","","","","NA"
"2017-07-10 04:00","2017","07","10","04:00","19.0","","14.7","","76","","15","","6","","24.1","","99.28","","","","","","Mostly Cloudy"
"2017-07-10 05:00","2017","07","10","05:00","19.0","","15.2","","78","","16","","7","","24.1","","99.24","","","","","","NA"
"2017-07-10 06:00","2017","07","10","06:00","19.7","","13.6","","67","","17","","7","","24.1","","99.27","","","","","","NA"
"2017-07-10 07:00","2017","07","10","07:00","20.0","","14.4","","70","","23","","10","","24.1","","99.26","","","","","","Mostly Cloudy"
"2017-07-10 08:00","2017","07","10","08:00","21.2","","14.9","","67","","24","","19","","24.1","","99.26","","25","","","","NA"
"2017-07-10 09:00","2017","07","10","09:00","24.3","","16.1","","60","","24","","18","","24.1","","99.25","","29","","","","NA"
"2017-07-10 10:00","2017","07","10","10:00","24.2","","15.1","","56","","24","","23","","24.1","","99.26","","28","","","","Cloudy"
"2017-07-10 11:00","2017","07","10","11:00","25.4","","15.4","","53","","24","","18","","24.1","","99.25","","30","","","","NA"
"2017-07-10 12:00","2017","07","10","12:00","24.8","","16.6","","60","","26","","19","","24.1","","99.24","","30","","","","NA"
"2017-07-10 13:00","2017","07","10","13:00","24.5","","16.3","","60","","22","","16","","24.1","","99.23","","29","","","","Cloudy"
"2017-07-10 14:00","2017","07","10","14:00","24.2","","16.6","","62","","22","","21","","24.1","","99.22","","29","","","","NA"
"2017-07-10 15:00","2017","07","10","15:00","23.7","","17.5","","68","","25","","27","","24.1","","99.21","","29","","","","NA"
"2017-07-10 16:00","2017","07","10","16:00","24.0","","17.5","","67","","24","","16","","24.1","","99.14","","30","","","","Cloudy"
"2017-07-10 17:00","2017","07","10","17:00","22.8","","18.4","","76","","15","","11","","24.1","","99.10","","29","","","","NA"
"2017-07-10 18:00","2017","07","10","18:00","23.1","","18.3","","74","","19","","13","","24.1","","99.11","","29","","","","NA"
"2017-07-10 19:00","2017","07","10","19:00","22.7","","18.3","","76","","20","","16","","24.1","","99.15","","29","","","","Mostly Cloudy"
"2017-07-10 20:00","2017","07","10","20:00","22.1","","18.5","","79","","21","","11","","24.1","","99.13","","28","","","","NA"
"2017-07-10 21:00","2017","07","10","21:00","21.4","","18.5","","83","","21","","11","","24.1","","99.15","","28","","","","NA"
"2017-07-10 22:00","2017","07","10","22:00","19.9","","17.7","","87","","24","","9","","24.1","","99.15","","","","","","Mainly Clear"
"2017-07-10 23:00","2017","07","10","23:00","18.9","","17.5","","92","","17","","8","","24.1","","99.16","","","","","","NA"
"2017-07-11 00:00","2017","07","11","00:00","18.9","","17.6","","92","","22","","10","","24.1","","99.17","","","","","","NA"
"2017-07-11 01:00","2017","07","11","01:00","18.4","","17.2","","93","","24","","9","","24.1","","99.16","","","","","","Clear"
"2017-07-11 02:00","2017","07","11","02:00","18.0","","16.9","","93","","23","","7","","24.1","","99.14","","","","","","NA"
"2017-07-11 03:00","2017","07","11","03:00","17.9","","16.8","","93","","29","","9","","24.1","","99.12","","","","","","NA"
"2017-07-11 04:00","2017","07","11","04:00","17.6","","16.3","","92","","27","","5","","24.1","","99.10","","","","","","Clear"
"2017-07-11 05:00","2017","07","11","05:00","17.9","","16.9","","94","","22","","10","","24.1","","99.16","","","","","","NA"
"2017-07-11 06:00","2017","07","11","06:00","18.7","","17.2","","91","","25","","4","","24.1","","99.20","","","","","","NA"
"2017-07-11 07:00","2017","07","11","07:00","20.3","","17.6","","84","","26","","7","","24.1","","99.20","","26","","","","Mostly Cloudy"
"2017-07-11 08:00","2017","07","11","08:00","21.6","","18.0","","80","","22","","5","","24.1","","99.25","","28","","","","NA"
"2017-07-11 09:00","2017","07","11","09:00","22.2","","17.8","","76","","27","","6","","24.1","","99.23","","28","","","","NA"
"2017-07-11 10:00","2017","07","11","10:00","24.1","","17.9","","68","","","","0","","24.1","","99.23","","30","","","","Mostly Cloudy"
"2017-07-11 11:00","2017","07","11","11:00","24.9","","18.2","","66","","15","","12","","24.1","","99.23","","31","","","","NA"
"2017-07-11 12:00","2017","07","11","12:00","25.6","","18.7","","65","","15","","15","","24.1","","99.22","","32","","","","NA"
"2017-07-11 13:00","2017","07","11","13:00","26.1","","18.0","","61","","14","","19","","24.1","","99.20","","32","","","","Mainly Clear"
"2017-07-11 14:00","2017","07","11","14:00","26.6","","17.9","","58","","15","","17","","24.1","","99.16","","33","","","","NA"
"2017-07-11 15:00","2017","07","11","15:00","27.9","","17.8","","54","","17","","16","","24.1","","99.17","","34","","","","NA"
"2017-07-11 16:00","2017","07","11","16:00","28.9","","17.4","","49","","24","","19","","24.1","","99.19","","34","","","","Mainly Clear"
"2017-07-11 17:00","2017","07","11","17:00","26.6","","18.1","","59","","13","","13","","24.1","","99.14","","33","","","","NA"
"2017-07-11 18:00","2017","07","11","18:00","26.2","","18.3","","61","","13","","13","","24.1","","99.11","","32","","","","NA"
"2017-07-11 19:00","2017","07","11","19:00","25.8","","18.1","","62","","16","","10","","24.1","","99.09","","32","","","","Mostly Cloudy"
"2017-07-11 20:00","2017","07","11","20:00","25.0","","18.9","","69","","18","","11","","24.1","","99.15","","32","","","","NA"
"2017-07-11 21:00","2017","07","11","21:00","24.2","","19.1","","73","","4","","10","","24.1","","99.25","","31","","","","NA"
"2017-07-11 22:00","2017","07","11","22:00","23.9","","18.9","","73","","1","","14","","24.1","","99.29","","31","","","","Mostly Cloudy"
"2017-07-11 23:00","2017","07","11","23:00","23.6","","18.2","","71","","6","","11","","24.1","","99.27","","30","","","","NA"
"2017-07-12 00:00","2017","07","12","00:00","22.6","","18.4","","77","","14","","6","","24.1","","99.27","","29","","","","NA"
"2017-07-12 01:00","2017","07","12","01:00","21.9","","18.4","","80","","1","","11","","24.1","","99.29","","28","","","","Mostly Cloudy"
"2017-07-12 02:00","2017","07","12","02:00","21.1","","18.1","","83","","1","","11","","24.1","","99.28","","27","","","","NA"
"2017-07-12 03:00","2017","07","12","03:00","20.4","","18.3","","88","","15","","3","","24.1","","99.31","","27","","","","NA"
"2017-07-12 04:00","2017","07","12","04:00","20.4","","18.2","","87","","36","","1","","24.1","","99.29","","27","","","","Mainly Clear"
"2017-07-12 05:00","2017","07","12","05:00","20.3","","18.2","","88","","34","","5","","16.1","","99.36","","26","","","","NA"
"2017-07-12 06:00","2017","07","12","06:00","20.4","","18.6","","89","","36","","2","","24.1","","99.36","","27","","","","NA"
"2017-07-12 07:00","2017","07","12","07:00","22.7","","18.5","","77","","8","","6","","24.1","","99.34","","29","","","","Mostly Cloudy"
"2017-07-12 08:00","2017","07","12","08:00","23.6","","19.3","","77","","16","","8","","24.1","","99.44","","31","","","","NA"
"2017-07-12 09:00","2017","07","12","09:00","24.9","","20.2","","75","","17","","9","","24.1","","99.40","","33","","","","NA"
"2017-07-12 10:00","2017","07","12","10:00","25.9","","20.6","","72","","15","","4","","24.1","","99.37","","34","","","","Cloudy"
"2017-07-12 11:00","2017","07","12","11:00","26.2","","20.7","","71","","13","","12","","24.1","","99.38","","34","","","","NA"
"2017-07-12 12:00","2017","07","12","12:00","25.8","","20.5","","72","","15","","17","","16.1","","99.34","","34","","","","NA"
"2017-07-12 13:00","2017","07","12","13:00","24.4","","22.1","","87","","17","","14","","11.3","","99.32","","34","","","","Cloudy"
"2017-07-12 14:00","2017","07","12","14:00","25.2","","21.4","","79","","16","","21","","16.1","","99.30","","34","","","","NA"
"2017-07-12 15:00","2017","07","12","15:00","23.2","","21.4","","89","","15","","16","","14.5","","99.29","","32","","","","Rain"
"2017-07-12 16:00","2017","07","12","16:00","23.5","","21.7","","89","","14","","11","","11.3","","99.25","","33","","","","Cloudy"
"2017-07-12 17:00","2017","07","12","17:00","23.3","","21.3","","88","","15","","16","","12.9","","99.25","","32","","","","Rain"
"2017-07-12 18:00","2017","07","12","18:00","24.4","","22.0","","86","","15","","9","","16.1","","99.19","","34","","","","NA"
"2017-07-12 19:00","2017","07","12","19:00","24.5","","21.4","","83","","17","","8","","19.3","","99.24","","33","","","","Mostly Cloudy"
"2017-07-12 20:00","2017","07","12","20:00","24.1","","21.1","","83","","14","","9","","24.1","","99.20","","33","","","","NA"
"2017-07-12 21:00","2017","07","12","21:00","24.7","","19.7","","74","","25","","17","","24.1","","99.23","","32","","","","NA"
"2017-07-12 22:00","2017","07","12","22:00","23.4","","20.6","","84","","2","","11","","24.1","","99.26","","31","","","","Mostly Cloudy"
"2017-07-12 23:00","2017","07","12","23:00","22.6","","20.3","","86","","36","","2","","24.1","","99.30","","30","","","","NA"
"2017-07-13 00:00","2017","07","13","00:00","22.3","","20.2","","88","","14","","5","","24.1","","99.30","","30","","","","NA"
"2017-07-13 01:00","2017","07","13","01:00","21.7","","20.3","","91","","13","","9","","24.1","","99.31","","30","","","","Mostly Cloudy"
"2017-07-13 02:00","2017","07","13","02:00","20.4","","19.3","","94","","12","","8","","16.1","","99.34","","27","","","","NA"
"2017-07-13 03:00","2017","07","13","03:00","18.8","","17.5","","92","","15","","10","","16.1","","99.35","","","","","","NA"
"2017-07-13 04:00","2017","07","13","04:00","18.4","","16.8","","91","","15","","12","","16.1","","99.38","","","","","","Mostly Cloudy"
"2017-07-13 05:00","2017","07","13","05:00","18.1","","15.9","","87","","9","","15","","24.1","","99.43","","","","","","NA"
"2017-07-13 06:00","2017","07","13","06:00","17.6","","15.4","","87","","9","","11","","24.1","","99.49","","","","","","NA"
"2017-07-13 07:00","2017","07","13","07:00","17.1","","13.8","","81","","9","","16","","24.1","","99.50","","","","","","Cloudy"
"2017-07-13 08:00","2017","07","13","08:00","15.9","","13.5","","86","","11","","14","","24.1","","99.51","","","","","","Rain"
"2017-07-13 09:00","2017","07","13","09:00","16.0","","13.5","","85","","7","","14","","24.1","","99.55","","","","","","NA"
"2017-07-13 10:00","2017","07","13","10:00","16.3","","13.5","","83","","8","","13","","24.1","","99.60","","","","","","Cloudy"
"2017-07-13 11:00","2017","07","13","11:00","16.6","","14.2","","86","","8","","14","","24.1","","99.60","","","","","","Rain"
"2017-07-13 12:00","2017","07","13","12:00","16.5","","13.7","","83","","8","","21","","24.1","","99.61","","","","","","NA"
"2017-07-13 13:00","2017","07","13","13:00","16.6","","14.0","","85","","7","","12","","24.1","","99.59","","","","","","Cloudy"
"2017-07-13 14:00","2017","07","13","14:00","16.6","","14.3","","86","","10","","12","","24.1","","99.64","","","","","","NA"
"2017-07-13 15:00","2017","07","13","15:00","16.9","","14.5","","86","","10","","19","","24.1","","99.58","","","","","","NA"
"2017-07-13 16:00","2017","07","13","16:00","16.8","","14.4","","86","","9","","17","","24.1","","99.55","","","","","","Cloudy"
"2017-07-13 17:00","2017","07","13","17:00","16.9","","14.3","","84","","8","","18","","24.1","","99.54","","","","","","NA"
"2017-07-13 18:00","2017","07","13","18:00","17.4","","14.3","","82","","8","","16","","24.1","","99.54","","","","","","NA"
"2017-07-13 19:00","2017","07","13","19:00","17.1","","14.6","","85","","9","","14","","24.1","","99.51","","","","","","Cloudy"
"2017-07-13 20:00","2017","07","13","20:00","17.2","","15.0","","87","","9","","12","","24.1","","99.51","","","","","","NA"
"2017-07-13 21:00","2017","07","13","21:00","17.2","","15.2","","88","","8","","10","","16.1","","99.55","","","","","","Drizzle"
"2017-07-13 22:00","2017","07","13","22:00","17.6","","15.6","","88","","8","","15","","16.1","","99.51","","","","","","Drizzle"
"2017-07-13 23:00","2017","07","13","23:00","18.1","","15.7","","85","","10","","13","","19.3","","99.50","","","","","","NA"
"2017-07-14 00:00","2017","07","14","00:00","17.4","","15.9","","91","","11","","9","","19.3","","99.51","","","","","","Thunderstorms,Rain Showers"
"2017-07-14 01:00","2017","07","14","01:00","17.4","","16.3","","93","","9","","13","","19.3","","99.46","","","","","","Rain Showers"
"2017-07-14 02:00","2017","07","14","02:00","17.5","","16.4","","93","","9","","10","","24.1","","99.41","","","","","","NA"
"2017-07-14 03:00","2017","07","14","03:00","17.8","","16.5","","92","","4","","7","","24.1","","99.37","","","","","","NA"
"2017-07-14 04:00","2017","07","14","04:00","17.8","","16.3","","91","","7","","7","","24.1","","99.38","","","","","","Cloudy"
"2017-07-14 05:00","2017","07","14","05:00","17.8","","16.4","","91","","9","","8","","24.1","","99.38","","","","","","NA"
"2017-07-14 06:00","2017","07","14","06:00","18.0","","16.5","","91","","5","","7","","12.9","","99.40","","","","","","NA"
"2017-07-14 07:00","2017","07","14","07:00","18.3","","16.9","","91","","36","","2","","12.9","","99.40","","","","","","Cloudy"
"2017-07-14 08:00","2017","07","14","08:00","18.5","","17.2","","92","","20","","3","","9.7","","99.39","","","","","","Fog"
"2017-07-14 09:00","2017","07","14","09:00","19.2","","17.9","","92","","36","","5","","6.4","","99.38","","","","","","Fog"
"2017-07-14 10:00","2017","07","14","10:00","20.1","","18.1","","88","","25","","16","","9.7","","99.40","","26","","","","Fog"
"2017-07-14 11:00","2017","07","14","11:00","21.2","","18.5","","85","","23","","11","","12.9","","99.38","","28","","","","NA"
"2017-07-14 12:00","2017","07","14","12:00","23.1","","18.0","","73","","28","","11","","12.9","","99.38","","29","","","","NA"
"2017-07-14 13:00","2017","07","14","13:00","26.1","","17.1","","57","","25","","21","","24.1","","99.35","","31","","","","Mostly Cloudy"
"2017-07-14 14:00","2017","07","14","14:00","27.1","","17.0","","54","","28","","26","","24.1","","99.30","","32","","","","NA"
"2017-07-14 15:00","2017","07","14","15:00","27.0","","17.4","","55","","31","","18","","24.1","","99.27","","33","","","","NA"
"2017-07-14 16:00","2017","07","14","16:00","26.1","","16.6","","55","","29","","30","","24.1","","99.30","","31","","","","Mostly Cloudy"
"2017-07-14 17:00","2017","07","14","17:00","24.9","","16.4","","59","","29","","27","","24.1","","99.32","","30","","","","NA"
"2017-07-14 18:00","2017","07","14","18:00","23.6","","15.4","","59","","30","","30","","24.1","","99.33","","28","","","","NA"
"2017-07-14 19:00","2017","07","14","19:00","21.9","","15.3","","66","","29","","21","","24.1","","99.37","","26","","","","Mainly Clear"
"2017-07-14 20:00","2017","07","14","20:00","21.2","","15.3","","68","","31","","23","","24.1","","99.38","","25","","","","NA"
"2017-07-14 21:00","2017","07","14","21:00","21.0","","14.8","","67","","31","","24","","24.1","","99.43","","25","","","","NA"
"2017-07-14 22:00","2017","07","14","22:00","19.4","","14.5","","73","","29","","17","","24.1","","99.43","","","","","","Mainly Clear"
"2017-07-14 23:00","2017","07","14","23:00","18.2","","14.5","","79","","28","","20","","24.1","","99.43","","","","","","NA"
"2017-07-15 00:00","2017","07","15","00:00","18.6","","14.6","","77","","31","","19","","24.1","","99.47","","","","","","NA"
"2017-07-15 01:00","2017","07","15","01:00","18.4","","14.7","","79","","30","","21","","24.1","","99.46","","","","","","Mostly Cloudy"
"2017-07-15 02:00","2017","07","15","02:00","18.3","","14.4","","78","","31","","21","","24.1","","99.45","","","","","","NA"
"2017-07-15 03:00","2017","07","15","03:00","18.2","","14.4","","78","","30","","21","","24.1","","99.48","","","","","","NA"
"2017-07-15 04:00","2017","07","15","04:00","18.3","","14.6","","79","","30","","18","","24.1","","99.51","","","","","","Cloudy"
"2017-07-15 05:00","2017","07","15","05:00","18.4","","14.9","","80","","32","","16","","24.1","","99.54","","","","","","NA"
"2017-07-15 06:00","2017","07","15","06:00","18.6","","14.8","","78","","32","","18","","24.1","","99.57","","","","","","NA"
"2017-07-15 07:00","2017","07","15","07:00","19.4","","14.4","","73","","33","","14","","24.1","","99.61","","","","","","Mostly Cloudy"
"2017-07-15 08:00","2017","07","15","08:00","20.6","","14.4","","67","","30","","17","","24.1","","99.61","","","","","","NA"
"2017-07-15 09:00","2017","07","15","09:00","21.5","","14.1","","63","","31","","16","","24.1","","99.59","","25","","","","NA"
"2017-07-15 10:00","2017","07","15","10:00","23.1","","14.4","","57","","33","","13","","24.1","","99.59","","27","","","","Mostly Cloudy"
"2017-07-15 11:00","2017","07","15","11:00","24.5","","14.6","","53","","30","","11","","24.1","","99.55","","28","","","","NA"
"2017-07-15 12:00","2017","07","15","12:00","25.6","","14.3","","49","","30","","17","","24.1","","99.54","","29","","","","NA"
"2017-07-15 13:00","2017","07","15","13:00","25.9","","13.9","","47","","30","","7","","24.1","","99.51","","29","","","","Mostly Cloudy"
"2017-07-15 14:00","2017","07","15","14:00","27.0","","15.4","","49","","29","","14","","24.1","","99.47","","31","","","","NA"
"2017-07-15 15:00","2017","07","15","15:00","26.1","","14.0","","46","","31","","21","","24.1","","99.42","","29","","","","NA"
"2017-07-15 16:00","2017","07","15","16:00","27.6","","14.5","","44","","26","","19","","24.1","","99.37","","31","","","","Mainly Clear"
"2017-07-15 17:00","2017","07","15","17:00","27.0","","14.1","","45","","29","","14","","24.1","","99.35","","30","","","","NA"
"2017-07-15 18:00","2017","07","15","18:00","26.6","","14.6","","47","","27","","23","","24.1","","99.36","","30","","","","NA"
"2017-07-15 19:00","2017","07","15","19:00","25.4","","12.4","","44","","31","","28","","24.1","","99.39","","28","","","","Mainly Clear"
"2017-07-15 20:00","2017","07","15","20:00","23.5","","9.2","","40","","31","","24","","24.1","","99.42","","","","","","NA"
"2017-07-15 21:00","2017","07","15","21:00","21.1","","8.2","","43","","28","","13","","24.1","","99.38","","","","","","NA"
"2017-07-15 22:00","2017","07","15","22:00","20.0","","9.5","","50","","26","","9","","24.1","","99.39","","","","","","Mainly Clear"
"2017-07-15 23:00","2017","07","15","23:00","19.7","","9.3","","51","","24","","10","","24.1","","99.37","","","","","","NA"
"2017-07-16 00:00","2017","07","16","00:00","18.7","","9.3","","54","","27","","7","","24.1","","99.37","","","","","","NA"
"2017-07-16 01:00","2017","07","16","01:00","19.1","","9.8","","54","","21","","7","","24.1","","99.37","","","","","","Mainly Clear"
"2017-07-16 02:00","2017","07","16","02:00","17.6","","12.5","","72","","25","","9","","24.1","","99.33","","","","","","NA"
"2017-07-16 03:00","2017","07","16","03:00","18.1","","13.9","","76","","24","","9","","24.1","","99.32","","","","","","NA"
"2017-07-16 04:00","2017","07","16","04:00","17.4","","14.8","","84","","27","","7","","24.1","","99.33","","","","","","Mainly Clear"
"2017-07-16 05:00","2017","07","16","05:00","17.6","","15.4","","87","","25","","7","","24.1","","99.34","","","","","","NA"
"2017-07-16 06:00","2017","07","16","06:00","19.0","","16.0","","83","","24","","11","","24.1","","99.34","","","","","","NA"
"2017-07-16 07:00","2017","07","16","07:00","20.3","","16.6","","79","","25","","13","","24.1","","99.32","","25","","","","Mostly Cloudy"
"2017-07-16 08:00","2017","07","16","08:00","22.3","","17.4","","74","","24","","12","","24.1","","99.34","","28","","","","NA"
"2017-07-16 09:00","2017","07","16","09:00","25.0","","17.7","","63","","24","","11","","24.1","","99.29","","31","","","","NA"
"2017-07-16 10:00","2017","07","16","10:00","25.2","","16.5","","58","","23","","19","","24.1","","99.33","","30","","","","Mostly Cloudy"
"2017-07-16 11:00","2017","07","16","11:00","25.6","","16.3","","56","","24","","16","","24.1","","99.31","","30","","","","NA"
"2017-07-16 12:00","2017","07","16","12:00","26.0","","16.4","","55","","23","","8","","24.1","","99.26","","31","","","","NA"
"2017-07-16 13:00","2017","07","16","13:00","25.8","","14.8","","50","","22","","24","","24.1","","99.26","","30","","","","Mostly Cloudy"
"2017-07-16 14:00","2017","07","16","14:00","25.8","","16.2","","55","","23","","13","","24.1","","99.27","","31","","","","NA"
"2017-07-16 15:00","2017","07","16","15:00","25.1","","17.1","","61","","26","","10","","24.1","","99.25","","30","","","","NA"
"2017-07-16 16:00","2017","07","16","16:00","24.2","","18.0","","68","","18","","8","","24.1","","99.24","","30","","","","Mostly Cloudy"
"2017-07-16 17:00","2017","07","16","17:00","23.4","","18.2","","73","","20","","13","","24.1","","99.25","","30","","","","NA"
"2017-07-16 18:00","2017","07","16","18:00","22.9","","18.0","","74","","30","","7","","24.1","","99.29","","29","","","","NA"
"2017-07-16 19:00","2017","07","16","19:00","22.7","","17.2","","71","","22","","5","","24.1","","99.32","","28","","","","Mostly Cloudy"
"2017-07-16 20:00","2017","07","16","20:00","22.1","","17.8","","76","","15","","8","","24.1","","99.31","","28","","","","NA"
"2017-07-16 21:00","2017","07","16","21:00","20.7","","17.0","","79","","13","","11","","24.1","","99.36","","26","","","","NA"
"2017-07-16 22:00","2017","07","16","22:00","20.5","","18.3","","87","","9","","5","","24.1","","99.36","","27","","","","Mostly Cloudy"
"2017-07-16 23:00","2017","07","16","23:00","20.4","","18.3","","87","","7","","3","","24.1","","99.39","","27","","","","NA"
"2017-07-17 00:00","2017","07","17","00:00","20.3","","18.2","","88","","10","","8","","16.1","","99.38","","26","","","","NA"
"2017-07-17 01:00","2017","07","17","01:00","20.1","","18.6","","91","","10","","6","","12.9","","99.38","","27","","","","Cloudy"
"2017-07-17 02:00","2017","07","17","02:00","20.1","","18.6","","91","","6","","5","","12.9","","99.35","","27","","","","NA"
"2017-07-17 03:00","2017","07","17","03:00","20.1","","18.5","","91","","5","","12","","9.7","","99.33","","26","","","","Fog"
"2017-07-17 04:00","2017","07","17","04:00","20.0","","18.3","","90","","8","","8","","19.3","","99.34","","26","","","","Mostly Cloudy"
"2017-07-17 05:00","2017","07","17","05:00","19.9","","18.2","","90","","8","","8","","19.3","","99.39","","","","","","NA"
"2017-07-17 06:00","2017","07","17","06:00","20.0","","18.2","","89","","7","","10","","12.9","","99.40","","26","","","","NA"
"2017-07-17 07:00","2017","07","17","07:00","20.4","","18.5","","88","","8","","13","","12.9","","99.46","","27","","","","Mostly Cloudy"
"2017-07-17 08:00","2017","07","17","08:00","20.9","","18.1","","84","","12","","16","","12.9","","99.52","","27","","","","NA"
"2017-07-17 09:00","2017","07","17","09:00","21.7","","18.1","","80","","7","","18","","19.3","","99.53","","28","","","","NA"
"2017-07-17 10:00","2017","07","17","10:00","22.2","","17.6","","75","","11","","12","","24.1","","99.54","","28","","","","Mostly Cloudy"
"2017-07-17 11:00","2017","07","17","11:00","24.1","","18.0","","69","","12","","13","","24.1","","99.53","","30","","","","NA"
"2017-07-17 12:00","2017","07","17","12:00","24.0","","18.0","","69","","14","","11","","24.1","","99.53","","30","","","","NA"
"2017-07-17 13:00","2017","07","17","13:00","24.7","","18.7","","69","","17","","9","","24.1","","99.54","","31","","","","Mostly Cloudy"
"2017-07-17 14:00","2017","07","17","14:00","25.6","","17.9","","62","","14","","8","","24.1","","99.50","","32","","","","NA"
"2017-07-17 15:00","2017","07","17","15:00","23.9","","17.6","","68","","16","","14","","24.1","","99.49","","30","","","","NA"
"2017-07-17 16:00","2017","07","17","16:00","23.8","","18.0","","70","","14","","14","","24.1","","99.49","","30","","","","Mostly Cloudy"
"2017-07-17 17:00","2017","07","17","17:00","23.2","","17.8","","71","","12","","16","","24.1","","99.51","","29","","","","NA"
"2017-07-17 18:00","2017","07","17","18:00","23.1","","17.4","","70","","14","","14","","24.1","","99.54","","29","","","","NA"
"2017-07-17 19:00","2017","07","17","19:00","22.7","","17.4","","72","","16","","9","","24.1","","99.57","","28","","","","Mostly Cloudy"
"2017-07-17 20:00","2017","07","17","20:00","21.6","","16.7","","73","","13","","5","","24.1","","99.57","","27","","","","NA"
"2017-07-17 21:00","2017","07","17","21:00","21.9","","16.9","","73","","9","","4","","24.1","","99.62","","27","","","","NA"
"2017-07-17 22:00","2017","07","17","22:00","21.3","","17.1","","76","","4","","6","","24.1","","99.64","","27","","","","Clear"
"2017-07-17 23:00","2017","07","17","23:00","20.9","","16.2","","74","","2","","7","","24.1","","99.65","","26","","","","NA"
"2017-07-18 00:00","2017","07","18","00:00","20.1","","17.0","","82","","34","","18","","24.1","","99.68","","25","","","","NA"
"2017-07-18 01:00","2017","07","18","01:00","19.5","","16.3","","81","","36","","17","","24.1","","99.68","","","","","","Clear"
"2017-07-18 02:00","2017","07","18","02:00","18.9","","15.9","","82","","1","","12","","24.1","","99.63","","","","","","NA"
"2017-07-18 03:00","2017","07","18","03:00","18.5","","15.8","","84","","34","","9","","24.1","","99.65","","","","","","NA"
"2017-07-18 04:00","2017","07","18","04:00","17.9","","15.5","","86","","32","","10","","24.1","","99.70","","","","","","Clear"
"2017-07-18 05:00","2017","07","18","05:00","17.5","","15.1","","86","","32","","12","","24.1","","99.73","","","","","","NA"
"2017-07-18 06:00","2017","07","18","06:00","18.8","","16.2","","85","","34","","16","","24.1","","99.79","","","","","","NA"
"2017-07-18 07:00","2017","07","18","07:00","20.3","","17.0","","81","","1","","11","","24.1","","99.83","","26","","","","Mainly Clear"
"2017-07-18 08:00","2017","07","18","08:00","21.9","","17.2","","74","","33","","9","","24.1","","99.86","","27","","","","NA"
"2017-07-18 09:00","2017","07","18","09:00","23.5","","17.8","","70","","27","","8","","24.1","","99.83","","29","","","","NA"
"2017-07-18 10:00","2017","07","18","10:00","24.2","","16.8","","63","","36","","2","","24.1","","99.84","","29","","","","Mostly Cloudy"
"2017-07-18 11:00","2017","07","18","11:00","24.1","","17.0","","64","","24","","6","","24.1","","99.85","","29","","","","NA"
"2017-07-18 12:00","2017","07","18","12:00","25.7","","17.4","","60","","16","","16","","24.1","","99.83","","31","","","","NA"
"2017-07-18 13:00","2017","07","18","13:00","26.3","","16.4","","54","","15","","18","","24.1","","99.81","","31","","","","Mostly Cloudy"
"2017-07-18 14:00","2017","07","18","14:00","26.9","","15.3","","48","","15","","18","","24.1","","99.76","","31","","","","NA"
"2017-07-18 15:00","2017","07","18","15:00","27.0","","15.2","","48","","16","","12","","24.1","","99.71","","31","","","","NA"
"2017-07-18 16:00","2017","07","18","16:00","27.0","","14.8","","46","","13","","18","","24.1","","99.66","","31","","","","Mainly Clear"
"2017-07-18 17:00","2017","07","18","17:00","27.7","","14.0","","43","","16","","21","","24.1","","99.61","","31","","","","NA"
"2017-07-18 18:00","2017","07","18","18:00","27.7","","12.7","","39","","27","","19","","24.1","","99.64","","30","","","","NA"
"2017-07-18 19:00","2017","07","18","19:00","26.4","","13.4","","44","","27","","11","","24.1","","99.66","","29","","","","Mainly Clear"
"2017-07-18 20:00","2017","07","18","20:00","24.5","","15.7","","58","","14","","11","","24.1","","99.65","","29","","","","NA"
"2017-07-18 21:00","2017","07","18","21:00","24.1","","16.4","","62","","21","","15","","24.1","","99.68","","29","","","","NA"
"2017-07-18 22:00","2017","07","18","22:00","22.6","","15.9","","66","","22","","16","","24.1","","99.71","","27","","","","Clear"
"2017-07-18 23:00","2017","07","18","23:00","20.8","","16.1","","74","","24","","12","","24.1","","99.72","","25","","","","NA"
"2017-07-19 00:00","2017","07","19","00:00","20.4","","17.0","","80","","24","","13","","24.1","","99.69","","26","","","","NA"
"2017-07-19 01:00","2017","07","19","01:00","20.5","","16.6","","78","","24","","8","","24.1","","99.63","","26","","","","Clear"
"2017-07-19 02:00","2017","07","19","02:00","19.3","","16.1","","82","","26","","5","","24.1","","99.64","","","","","","NA"
"2017-07-19 03:00","2017","07","19","03:00","19.9","","16.2","","79","","36","","2","","24.1","","99.61","","","","","","NA"
"2017-07-19 04:00","2017","07","19","04:00","19.8","","15.6","","77","","23","","8","","24.1","","99.60","","","","","","Mainly Clear"
"2017-07-19 05:00","2017","07","19","05:00","20.6","","15.3","","71","","19","","8","","24.1","","99.61","","25","","","","NA"
"2017-07-19 06:00","2017","07","19","06:00","20.2","","15.6","","74","","25","","11","","24.1","","99.64","","25","","","","NA"
"2017-07-19 07:00","2017","07","19","07:00","21.6","","15.9","","70","","24","","13","","24.1","","99.63","","26","","","","Mostly Cloudy"
"2017-07-19 08:00","2017","07","19","08:00","22.8","","16.6","","68","","25","","16","","24.1","","99.64","","28","","","","NA"
"2017-07-19 09:00","2017","07","19","09:00","25.2","","18.0","","64","","25","","14","","24.1","","99.62","","31","","","","NA"
"2017-07-19 10:00","2017","07","19","10:00","27.2","","14.4","","45","","25","","18","","24.1","","99.62","","31","","","","Mostly Cloudy"
"2017-07-19 11:00","2017","07","19","11:00","28.2","","16.0","","47","","28","","14","","24.1","","99.62","","33","","","","NA"
"2017-07-19 12:00","2017","07","19","12:00","27.7","","17.6","","54","","25","","16","","24.1","","99.59","","33","","","","NA"
"2017-07-19 13:00","2017","07","19","13:00","29.4","","17.9","","49","","24","","18","","24.1","","99.55","","35","","","","Mostly Cloudy"
"2017-07-19 14:00","2017","07","19","14:00","30.4","","18.6","","48","","26","","18","","24.1","","99.48","","37","","","","NA"
"2017-07-19 15:00","2017","07","19","15:00","31.4","","19.2","","48","","27","","26","","24.1","","99.46","","38","","","","NA"
"2017-07-19 16:00","2017","07","19","16:00","31.5","","19.7","","49","","27","","25","","24.1","","99.41","","39","","","","Mainly Clear"
"2017-07-19 17:00","2017","07","19","17:00","30.4","","18.9","","49","","28","","27","","24.1","","99.42","","37","","","","NA"
"2017-07-19 18:00","2017","07","19","18:00","29.2","","20.5","","59","","35","","23","","24.1","","99.46","","37","","","","NA"
"2017-07-19 19:00","2017","07","19","19:00","27.4","","19.8","","63","","35","","23","","24.1","","99.53","","35","","","","Mainly Clear"
"2017-07-19 20:00","2017","07","19","20:00","26.1","","17.3","","58","","32","","20","","24.1","","99.53","","32","","","","NA"
"2017-07-19 21:00","2017","07","19","21:00","24.3","","18.1","","68","","35","","13","","24.1","","99.59","","30","","","","NA"
"2017-07-19 22:00","2017","07","19","22:00","23.0","","16.1","","65","","32","","17","","24.1","","99.62","","28","","","","Clear"
"2017-07-19 23:00","2017","07","19","23:00","21.2","","15.5","","70","","31","","14","","24.1","","99.61","","25","","","","NA"
"2017-07-20 00:00","2017","07","20","00:00","19.8","","15.0","","73","","30","","14","","24.1","","99.62","","","","","","NA"
"2017-07-20 01:00","2017","07","20","01:00","19.3","","14.9","","75","","30","","14","","24.1","","99.60","","","","","","Mainly Clear"
"2017-07-20 02:00","2017","07","20","02:00","18.4","","14.0","","75","","33","","11","","24.1","","99.53","","","","","","NA"
"2017-07-20 03:00","2017","07","20","03:00","17.3","","13.1","","76","","31","","9","","24.1","","99.51","","","","","","NA"
"2017-07-20 04:00","2017","07","20","04:00","17.4","","12.5","","73","","29","","7","","24.1","","99.53","","","","","","Mostly Cloudy"
"2017-07-20 05:00","2017","07","20","05:00","18.6","","11.8","","65","","31","","4","","24.1","","99.48","","","","","","NA"
"2017-07-20 06:00","2017","07","20","06:00","18.7","","12.9","","69","","5","","5","","24.1","","99.50","","","","","","NA"
"2017-07-20 07:00","2017","07","20","07:00","19.9","","13.6","","67","","13","","8","","24.1","","99.51","","","","","","Mostly Cloudy"
"2017-07-20 08:00","2017","07","20","08:00","21.1","","13.8","","63","","15","","8","","24.1","","99.45","","","","","","NA"
"2017-07-20 09:00","2017","07","20","09:00","22.6","","12.5","","52","","16","","9","","19.3","","99.36","","25","","","","NA"
"2017-07-20 10:00","2017","07","20","10:00","18.4","","14.8","","79","","33","","23","","1.2","","99.62","","","","","","Thunderstorms,Heavy Rain Showers"
"2017-07-20 11:00","2017","07","20","11:00","15.9","","14.7","","92","","2","","24","","19.3","","99.56","","","","","","Rain Showers"
"2017-07-20 12:00","2017","07","20","12:00","17.1","","15.5","","91","","7","","12","","19.3","","99.45","","","","","","NA"
"2017-07-20 13:00","2017","07","20","13:00","18.9","","15.2","","79","","16","","12","","24.1","","99.37","","","","","","Mostly Cloudy"
"2017-07-20 14:00","2017","07","20","14:00","20.4","","14.9","","70","","17","","14","","24.1","","99.33","","","","","","NA"
"2017-07-20 15:00","2017","07","20","15:00","21.3","","15.1","","67","","16","","8","","24.1","","99.31","","25","","","","NA"
"2017-07-20 16:00","2017","07","20","16:00","22.6","","15.0","","62","","19","","7","","24.1","","99.27","","27","","","","Mostly Cloudy"
"2017-07-20 17:00","2017","07","20","17:00","24.1","","16.5","","62","","29","","4","","24.1","","99.20","","29","","","","NA"
"2017-07-20 18:00","2017","07","20","18:00","24.6","","18.1","","67","","22","","9","","24.1","","99.16","","31","","","","NA"
"2017-07-20 19:00","2017","07","20","19:00","23.1","","17.2","","69","","15","","11","","24.1","","99.16","","29","","","","Mainly Clear"
"2017-07-20 20:00","2017","07","20","20:00","22.1","","17.5","","75","","17","","6","","24.1","","99.18","","28","","","","NA"
"2017-07-20 21:00","2017","07","20","21:00","21.2","","17.3","","78","","13","","7","","24.1","","99.19","","27","","","","NA"
"2017-07-20 22:00","2017","07","20","22:00","20.1","","17.9","","87","","16","","5","","24.1","","99.21","","26","","","","Clear"
"2017-07-20 23:00","2017","07","20","23:00","21.7","","18.7","","83","","30","","12","","24.1","","99.21","","28","","","","NA"
"2017-07-21 00:00","2017","07","21","00:00","21.9","","18.6","","81","","33","","13","","24.1","","99.22","","28","","","","NA"
"2017-07-21 01:00","2017","07","21","01:00","21.2","","18.1","","82","","32","","9","","24.1","","99.21","","27","","","","Clear"
"2017-07-21 02:00","2017","07","21","02:00","19.4","","17.6","","89","","28","","8","","24.1","","99.20","","","","","","NA"
"2017-07-21 03:00","2017","07","21","03:00","20.6","","18.0","","85","","20","","5","","24.1","","99.21","","27","","","","NA"
"2017-07-21 04:00","2017","07","21","04:00","20.2","","18.2","","88","","19","","4","","24.1","","99.22","","26","","","","Mainly Clear"
"2017-07-21 05:00","2017","07","21","05:00","19.8","","17.7","","88","","24","","4","","24.1","","99.24","","","","","","NA"
"2017-07-21 06:00","2017","07","21","06:00","20.5","","18.5","","88","","28","","4","","24.1","","99.28","","27","","","","NA"
"2017-07-21 07:00","2017","07","21","07:00","22.5","","18.6","","79","","29","","5","","24.1","","99.35","","29","","","","Mainly Clear"
"2017-07-21 08:00","2017","07","21","08:00","23.6","","18.2","","71","","30","","8","","24.1","","99.38","","30","","","","NA"
"2017-07-21 09:00","2017","07","21","09:00","25.1","","18.9","","68","","31","","15","","24.1","","99.34","","32","","","","NA"
"2017-07-21 10:00","2017","07","21","10:00","26.8","","17.5","","56","","30","","21","","24.1","","99.33","","32","","","","Mostly Cloudy"
"2017-07-21 11:00","2017","07","21","11:00","27.2","","14.8","","46","","30","","30","","24.1","","99.29","","31","","","","NA"
"2017-07-21 12:00","2017","07","21","12:00","27.9","","13.8","","42","","32","","32","","24.1","","99.30","","31","","","","NA"
"2017-07-21 13:00","2017","07","21","13:00","28.5","","14.4","","42","","32","","22","","24.1","","99.29","","32","","","","Mostly Cloudy"
"2017-07-21 14:00","2017","07","21","14:00","28.7","","14.4","","41","","32","","16","","24.1","","99.24","","32","","","","NA"
"2017-07-21 15:00","2017","07","21","15:00","29.4","","12.7","","35","","30","","27","","24.1","","99.23","","32","","","","NA"
"2017-07-21 16:00","2017","07","21","16:00","28.8","","12.2","","35","","32","","17","","24.1","","99.22","","31","","","","Mostly Cloudy"
"2017-07-21 17:00","2017","07","21","17:00","28.6","","11.8","","35","","31","","20","","24.1","","99.23","","31","","","","NA"
"2017-07-21 18:00","2017","07","21","18:00","27.7","","12.4","","38","","31","","23","","24.1","","99.26","","30","","","","NA"
"2017-07-21 19:00","2017","07","21","19:00","26.6","","12.8","","42","","30","","21","","24.1","","99.27","","29","","","","Mostly Cloudy"
"2017-07-21 20:00","2017","07","21","20:00","24.6","","14.5","","53","","1","","11","","24.1","","99.27","","28","","","","NA"
"2017-07-21 21:00","2017","07","21","21:00","23.8","","14.5","","56","","35","","9","","24.1","","99.29","","27","","","","NA"
"2017-07-21 22:00","2017","07","21","22:00","23.0","","13.6","","55","","30","","10","","24.1","","99.28","","26","","","","Mostly Cloudy"
"2017-07-21 23:00","2017","07","21","23:00","22.0","","14.3","","61","","26","","11","","24.1","","99.30","","26","","","","NA"
"2017-07-22 00:00","2017","07","22","00:00","21.1","","14.6","","66","","26","","10","","24.1","","99.34","","25","","","","NA"
"2017-07-22 01:00","2017","07","22","01:00","21.9","","14.1","","61","","16","","3","","24.1","","99.28","","25","","","","Mostly Cloudy"
"2017-07-22 02:00","2017","07","22","02:00","21.3","","14.4","","64","","26","","6","","24.1","","99.18","","25","","","","NA"
"2017-07-22 03:00","2017","07","22","03:00","21.4","","14.5","","64","","28","","8","","24.1","","99.20","","25","","","","NA"
"2017-07-22 04:00","2017","07","22","04:00","21.8","","14.3","","62","","31","","7","","24.1","","99.20","","25","","","","Cloudy"
"2017-07-22 05:00","2017","07","22","05:00","21.3","","14.7","","66","","36","","4","","24.1","","99.18","","25","","","","NA"
"2017-07-22 06:00","2017","07","22","06:00","22.0","","14.4","","61","","29","","5","","24.1","","99.20","","26","","","","NA"
"2017-07-22 07:00","2017","07","22","07:00","22.1","","15.4","","65","","4","","5","","24.1","","99.18","","26","","","","Cloudy"
"2017-07-22 08:00","2017","07","22","08:00","22.1","","15.4","","65","","4","","9","","24.1","","99.19","","26","","","","NA"
"2017-07-22 09:00","2017","07","22","09:00","22.7","","16.4","","67","","19","","8","","24.1","","99.17","","28","","","","Rain"
"2017-07-22 10:00","2017","07","22","10:00","22.7","","16.6","","68","","14","","5","","24.1","","99.15","","28","","","","Rain"
"2017-07-22 11:00","2017","07","22","11:00","22.5","","16.0","","66","","17","","5","","24.1","","99.15","","27","","","","Rain"
"2017-07-22 12:00","2017","07","22","12:00","22.7","","16.5","","67","","17","","4","","24.1","","99.12","","28","","","","Rain"
"2017-07-22 13:00","2017","07","22","13:00","23.0","","16.1","","65","","20","","5","","24.1","","99.07","","28","","","","Rain"
"2017-07-22 14:00","2017","07","22","14:00","23.4","","16.9","","66","","7","","6","","24.1","","98.97","","29","","","","NA"
"2017-07-22 15:00","2017","07","22","15:00","23.7","","16.2","","62","","16","","9","","24.1","","98.91","","28","","","","NA"
"2017-07-22 16:00","2017","07","22","16:00","22.3","","17.6","","74","","14","","9","","24.1","","98.89","","28","","","","Cloudy"
"2017-07-22 17:00","2017","07","22","17:00","22.4","","16.4","","69","","11","","10","","24.1","","98.83","","27","","","","NA"
"2017-07-22 18:00","2017","07","22","18:00","22.6","","16.9","","70","","14","","4","","24.1","","98.84","","28","","","","NA"
"2017-07-22 19:00","2017","07","22","19:00","22.3","","17.5","","74","","11","","4","","24.1","","98.88","","28","","","","Rain"
"2017-07-22 20:00","2017","07","22","20:00","21.9","","17.8","","77","","36","","2","","24.1","","98.88","","28","","","","Rain Showers"
"2017-07-22 21:00","2017","07","22","21:00","21.2","","18.0","","81","","36","","2","","19.3","","98.94","","27","","","","Rain"
"2017-07-22 22:00","2017","07","22","22:00","21.0","","18.3","","84","","36","","3","","19.3","","98.93","","27","","","","Rain"
"2017-07-22 23:00","2017","07","22","23:00","20.9","","18.4","","85","","24","","8","","24.1","","98.87","","27","","","","NA"
"2017-07-23 00:00","2017","07","23","00:00","20.9","","18.6","","87","","5","","7","","24.1","","98.85","","27","","","","NA"
"2017-07-23 01:00","2017","07","23","01:00","20.6","","17.5","","82","","12","","4","","24.1","","98.83","","26","","","","Cloudy"
"2017-07-23 02:00","2017","07","23","02:00","20.3","","18.2","","87","","16","","5","","24.1","","98.80","","26","","","","NA"
"2017-07-23 03:00","2017","07","23","03:00","20.5","","18.5","","88","","36","","3","","24.1","","98.76","","27","","","","NA"
"2017-07-23 04:00","2017","07","23","04:00","20.3","","18.8","","91","","4","","9","","24.1","","98.74","","27","","","","Mostly Cloudy"
"2017-07-23 05:00","2017","07","23","05:00","20.5","","18.8","","90","","5","","5","","19.3","","98.76","","27","","","","NA"
"2017-07-23 06:00","2017","07","23","06:00","20.4","","18.1","","86","","8","","7","","24.1","","98.82","","26","","","","NA"
"2017-07-23 07:00","2017","07","23","07:00","21.0","","18.6","","86","","5","","9","","24.1","","98.82","","27","","","","Mostly Cloudy"
"2017-07-23 08:00","2017","07","23","08:00","21.5","","18.0","","80","","9","","9","","24.1","","98.84","","28","","","","NA"
"2017-07-23 09:00","2017","07","23","09:00","21.6","","18.6","","83","","7","","16","","24.1","","98.83","","28","","","","NA"
"2017-07-23 10:00","2017","07","23","10:00","22.3","","18.8","","80","","6","","17","","24.1","","98.84","","29","","","","Cloudy"
"2017-07-23 11:00","2017","07","23","11:00","23.1","","18.9","","77","","8","","17","","24.1","","98.84","","30","","","","NA"
"2017-07-23 12:00","2017","07","23","12:00","23.4","","19.0","","76","","10","","18","","24.1","","98.84","","30","","","","NA"
"2017-07-23 13:00","2017","07","23","13:00","23.2","","17.4","","69","","8","","17","","24.1","","98.79","","29","","","","Mostly Cloudy"
"2017-07-23 14:00","2017","07","23","14:00","23.9","","17.4","","66","","9","","16","","24.1","","98.79","","29","","","","NA"
"2017-07-23 15:00","2017","07","23","15:00","23.4","","17.8","","70","","10","","19","","24.1","","98.77","","29","","","","NA"
"2017-07-23 16:00","2017","07","23","16:00","23.0","","17.3","","70","","10","","19","","24.1","","98.74","","28","","","","Mostly Cloudy"
"2017-07-23 17:00","2017","07","23","17:00","22.8","","16.8","","68","","10","","19","","24.1","","98.73","","28","","","","NA"
"2017-07-23 18:00","2017","07","23","18:00","22.8","","16.1","","65","","10","","13","","24.1","","98.72","","27","","","","NA"
"2017-07-23 19:00","2017","07","23","19:00","22.5","","15.3","","63","","10","","17","","24.1","","98.74","","27","","","","Mostly Cloudy"
"2017-07-23 20:00","2017","07","23","20:00","22.1","","14.1","","60","","10","","21","","24.1","","98.72","","26","","","","NA"
"2017-07-23 21:00","2017","07","23","21:00","21.6","","15.5","","68","","10","","13","","24.1","","98.80","","26","","","","NA"
"2017-07-23 22:00","2017","07","23","22:00","21.3","","14.3","","64","","10","","16","","24.1","","98.68","","25","","","","Mostly Cloudy"
"2017-07-23 23:00","2017","07","23","23:00","20.8","","14.4","","67","","8","","19","","24.1","","98.72","","","","","","NA"
"2017-07-24 00:00","2017","07","24","00:00","20.4","","14.3","","68","","10","","13","","24.1","","98.69","","","","","","NA"
"2017-07-24 01:00","2017","07","24","01:00","20.2","","14.3","","69","","8","","8","","24.1","","98.65","","","","","","Cloudy"
"2017-07-24 02:00","2017","07","24","02:00","20.0","","14.1","","68","","7","","8","","24.1","","98.60","","","","","","NA"
"2017-07-24 03:00","2017","07","24","03:00","19.9","","14.1","","69","","2","","7","","24.1","","98.59","","","","","","NA"
"2017-07-24 04:00","2017","07","24","04:00","19.5","","13.8","","69","","3","","5","","24.1","","98.58","","","","","","Mostly Cloudy"
"2017-07-24 05:00","2017","07","24","05:00","19.7","","13.6","","67","","32","","13","","24.1","","98.63","","","","","","NA"
"2017-07-24 06:00","2017","07","24","06:00","19.3","","13.9","","71","","36","","8","","24.1","","98.69","","","","","","NA"
"2017-07-24 07:00","2017","07","24","07:00","19.6","","14.3","","71","","29","","3","","24.1","","98.72","","","","","","Mostly Cloudy"
"2017-07-24 08:00","2017","07","24","08:00","20.9","","14.2","","65","","31","","5","","24.1","","98.71","","","","","","NA"
"2017-07-24 09:00","2017","07","24","09:00","20.8","","14.8","","68","","3","","4","","24.1","","98.74","","25","","","","NA"
"2017-07-24 10:00","2017","07","24","10:00","20.8","","14.9","","69","","11","","12","","24.1","","98.75","","25","","","","Cloudy"
"2017-07-24 11:00","2017","07","24","11:00","20.4","","16.2","","77","","19","","8","","24.1","","98.76","","25","","","","Rain Showers"
"2017-07-24 12:00","2017","07","24","12:00","20.3","","16.6","","79","","14","","4","","24.1","","98.77","","25","","","","Rain Showers"
"2017-07-24 13:00","2017","07","24","13:00","20.9","","16.0","","74","","33","","8","","24.1","","98.80","","26","","","","Rain Showers"
"2017-07-24 14:00","2017","07","24","14:00","21.9","","16.4","","71","","34","","29","","24.1","","98.85","","27","","","","NA"
"2017-07-24 15:00","2017","07","24","15:00","19.5","","15.1","","75","","34","","31","","24.1","","98.95","","","","","","NA"
"2017-07-24 16:00","2017","07","24","16:00","19.0","","14.7","","76","","35","","22","","24.1","","99.02","","","","","","Cloudy"
"2017-07-24 17:00","2017","07","24","17:00","19.0","","14.2","","74","","34","","29","","24.1","","99.07","","","","","","NA"
"2017-07-24 18:00","2017","07","24","18:00","18.2","","14.4","","78","","35","","26","","24.1","","99.15","","","","","","NA"
"2017-07-24 19:00","2017","07","24","19:00","17.4","","13.7","","79","","34","","26","","24.1","","99.25","","","","","","Mostly Cloudy"
"2017-07-24 20:00","2017","07","24","20:00","17.4","","13.4","","77","","34","","24","","24.1","","99.31","","","","","","NA"
"2017-07-24 21:00","2017","07","24","21:00","16.4","","14.1","","86","","36","","18","","24.1","","99.40","","","","","","Rain"
"2017-07-24 22:00","2017","07","24","22:00","16.0","","14.0","","88","","35","","24","","16.1","","99.48","","","","","","Drizzle"
"2017-07-24 23:00","2017","07","24","23:00","16.8","","13.4","","80","","35","","24","","24.1","","99.54","","","","","","NA"
"2017-07-25 00:00","2017","07","25","00:00","16.6","","13.1","","79","","35","","17","","24.1","","99.60","","","","","","NA"
"2017-07-25 01:00","2017","07","25","01:00","16.5","","12.8","","79","","1","","23","","24.1","","99.66","","","","","","Cloudy"
"2017-07-25 02:00","2017","07","25","02:00","16.4","","12.7","","78","","34","","19","","24.1","","99.68","","","","","","NA"
"2017-07-25 03:00","2017","07","25","03:00","16.4","","12.4","","77","","35","","20","","24.1","","99.74","","","","","","NA"
"2017-07-25 04:00","2017","07","25","04:00","16.5","","12.2","","75","","34","","16","","24.1","","99.81","","","","","","Cloudy"
"2017-07-25 05:00","2017","07","25","05:00","16.4","","12.2","","76","","35","","23","","24.1","","99.89","","","","","","NA"
"2017-07-25 06:00","2017","07","25","06:00","16.5","","12.4","","76","","36","","20","","24.1","","99.96","","","","","","NA"
"2017-07-25 07:00","2017","07","25","07:00","16.7","","12.6","","77","","36","","19","","24.1","","100.04","","","","","","Mostly Cloudy"
"2017-07-25 08:00","2017","07","25","08:00","17.5","","12.8","","74","","1","","17","","24.1","","100.12","","","","","","NA"
"2017-07-25 09:00","2017","07","25","09:00","18.3","","11.2","","63","","2","","16","","24.1","","100.15","","","","","","NA"
"2017-07-25 10:00","2017","07","25","10:00","19.6","","11.2","","58","","34","","13","","24.1","","100.18","","","","","","Mostly Cloudy"
"2017-07-25 11:00","2017","07","25","11:00","20.3","","12.3","","60","","5","","7","","24.1","","100.19","","","","","","NA"
"2017-07-25 12:00","2017","07","25","12:00","21.9","","12.2","","54","","5","","16","","24.1","","100.21","","","","","","NA"
"2017-07-25 13:00","2017","07","25","13:00","22.0","","14.1","","60","","12","","10","","24.1","","100.18","","25","","","","Mostly Cloudy"
"2017-07-25 14:00","2017","07","25","14:00","22.2","","13.9","","59","","16","","14","","24.1","","100.19","","26","","","","NA"
"2017-07-25 15:00","2017","07","25","15:00","22.0","","12.8","","55","","15","","17","","24.1","","100.19","","25","","","","NA"
"2017-07-25 16:00","2017","07","25","16:00","22.3","","13.3","","56","","17","","13","","24.1","","100.24","","25","","","","Mostly Cloudy"
"2017-07-25 17:00","2017","07","25","17:00","21.7","","13.4","","59","","16","","15","","24.1","","100.25","","25","","","","NA"
"2017-07-25 18:00","2017","07","25","18:00","21.1","","12.7","","58","","16","","13","","24.1","","100.25","","","","","","NA"
"2017-07-25 19:00","2017","07","25","19:00","20.5","","12.3","","59","","16","","10","","24.1","","100.26","","","","","","Mainly Clear"
"2017-07-25 20:00","2017","07","25","20:00","19.4","","12.6","","64","","15","","10","","24.1","","100.25","","","","","","NA"
"2017-07-25 21:00","2017","07","25","21:00","18.6","","13.1","","70","","18","","5","","24.1","","100.28","","","","","","NA"
"2017-07-25 22:00","2017","07","25","22:00","18.1","","13.4","","74","","19","","7","","24.1","","100.27","","","","","","Clear"
"2017-07-25 23:00","2017","07","25","23:00","18.4","","13.1","","71","","18","","4","","24.1","","100.26","","","","","","NA"
"2017-07-26 00:00","2017","07","26","00:00","17.7","","13.4","","76","","15","","5","","24.1","","100.20","","","","","","NA"
"2017-07-26 01:00","2017","07","26","01:00","15.6","","12.7","","83","","25","","8","","24.1","","100.22","","","","","","Clear"
"2017-07-26 02:00","2017","07","26","02:00","16.0","","12.5","","80","","28","","6","","24.1","","100.23","","","","","","NA"
"2017-07-26 03:00","2017","07","26","03:00","15.0","","11.4","","79","","27","","7","","24.1","","100.22","","","","","","NA"
"2017-07-26 04:00","2017","07","26","04:00","15.1","","11.7","","80","","27","","5","","24.1","","100.20","","","","","","Mainly Clear"
"2017-07-26 05:00","2017","07","26","05:00","16.2","","12.5","","78","","23","","3","","24.1","","100.20","","","","","","NA"
"2017-07-26 06:00","2017","07","26","06:00","16.2","","13.3","","83","","28","","5","","24.1","","100.21","","","","","","NA"
"2017-07-26 07:00","2017","07","26","07:00","17.9","","13.8","","77","","28","","4","","24.1","","100.19","","","","","","Mostly Cloudy"
"2017-07-26 08:00","2017","07","26","08:00","19.3","","13.8","","70","","18","","9","","24.1","","100.17","","","","","","NA"
"2017-07-26 09:00","2017","07","26","09:00","20.6","","14.5","","67","","20","","8","","24.1","","100.12","","","","","","NA"
"2017-07-26 10:00","2017","07","26","10:00","20.2","","13.9","","67","","16","","11","","24.1","","100.12","","","","","","Mostly Cloudy"
"2017-07-26 11:00","2017","07","26","11:00","20.6","","13.9","","65","","17","","10","","24.1","","100.10","","","","","","NA"
"2017-07-26 12:00","2017","07","26","12:00","20.9","","14.7","","67","","14","","13","","24.1","","99.98","","25","","","","NA"
"2017-07-26 13:00","2017","07","26","13:00","20.2","","13.7","","66","","13","","16","","24.1","","99.82","","","","","","Cloudy"
"2017-07-26 14:00","2017","07","26","14:00","21.2","","14.2","","64","","14","","12","","24.1","","99.83","","25","","","","NA"
"2017-07-26 15:00","2017","07","26","15:00","20.9","","14.7","","67","","13","","12","","24.1","","99.79","","25","","","","NA"
"2017-07-26 16:00","2017","07","26","16:00","21.5","","15.2","","67","","15","","10","","24.1","","99.74","","26","","","","Cloudy"
"2017-07-26 17:00","2017","07","26","17:00","21.0","","15.4","","70","","14","","9","","24.1","","99.79","","25","","","","NA"
"2017-07-26 18:00","2017","07","26","18:00","20.8","","15.6","","72","","13","","9","","24.1","","99.76","","25","","","","NA"
"2017-07-26 19:00","2017","07","26","19:00","18.9","","16.2","","85","","15","","13","","16.1","","99.61","","","","","","Rain"
"2017-07-26 20:00","2017","07","26","20:00","18.5","","16.9","","90","","15","","13","","24.1","","99.56","","","","","","Rain"
"2017-07-26 21:00","2017","07","26","21:00","19.0","","17.4","","91","","14","","7","","24.1","","99.59","","","","","","Rain"
"2017-07-26 22:00","2017","07","26","22:00","19.0","","17.4","","90","","19","","4","","24.1","","99.55","","","","","","Rain"
"2017-07-26 23:00","2017","07","26","23:00","19.6","","17.4","","87","","36","","3","","24.1","","99.49","","","","","","Rain"
"2017-07-27 00:00","2017","07","27","00:00","19.1","","17.5","","90","","24","","8","","24.1","","99.45","","","","","","Rain"
"2017-07-27 01:00","2017","07","27","01:00","19.0","","17.6","","91","","25","","8","","24.1","","99.44","","","","","","Rain"
"2017-07-27 02:00","2017","07","27","02:00","18.8","","17.5","","92","","21","","9","","19.3","","99.37","","","","","","Rain"
"2017-07-27 03:00","2017","07","27","03:00","18.8","","17.5","","92","","23","","10","","24.1","","99.34","","","","","","Rain"
"2017-07-27 04:00","2017","07","27","04:00","19.0","","17.6","","92","","25","","11","","24.1","","99.35","","","","","","Cloudy"
"2017-07-27 05:00","2017","07","27","05:00","19.4","","17.9","","91","","33","","11","","24.1","","99.41","","","","","","Rain"
"2017-07-27 06:00","2017","07","27","06:00","19.5","","17.9","","90","","26","","10","","24.1","","99.37","","","","","","NA"
"2017-07-27 07:00","2017","07","27","07:00","20.3","","18.3","","88","","30","","14","","24.1","","99.36","","27","","","","Cloudy"
"2017-07-27 08:00","2017","07","27","08:00","19.8","","18.3","","91","","31","","9","","9.7","","99.40","","","","","","Rain"
"2017-07-27 09:00","2017","07","27","09:00","19.7","","18.4","","92","","29","","5","","14.5","","99.37","","","","","","Rain"
"2017-07-27 10:00","2017","07","27","10:00","20.9","","19.5","","91","","19","","5","","19.3","","99.32","","28","","","","Mostly Cloudy"
"2017-07-27 11:00","2017","07","27","11:00","23.3","","20.1","","82","","27","","8","","24.1","","99.29","","31","","","","NA"
"2017-07-27 12:00","2017","07","27","12:00","24.1","","19.3","","74","","21","","4","","24.1","","99.27","","31","","","","NA"
"2017-07-27 13:00","2017","07","27","13:00","23.6","","19.9","","80","","18","","10","","24.1","","99.25","","31","","","","Mostly Cloudy"
"2017-07-27 14:00","2017","07","27","14:00","24.4","","19.9","","76","","14","","10","","24.1","","99.19","","32","","","","NA"
"2017-07-27 15:00","2017","07","27","15:00","24.8","","19.8","","74","","14","","14","","24.1","","99.15","","32","","","","NA"
"2017-07-27 16:00","2017","07","27","16:00","25.8","","19.7","","69","","19","","4","","24.1","","99.12","","33","","","","Mainly Clear"
"2017-07-27 17:00","2017","07","27","17:00","27.0","","15.9","","50","","3","","5","","24.1","","99.10","","32","","","","NA"
"2017-07-27 18:00","2017","07","27","18:00","26.0","","16.0","","53","","1","","21","","24.1","","99.12","","31","","","","NA"
"2017-07-27 19:00","2017","07","27","19:00","24.2","","15.2","","57","","35","","19","","24.1","","99.18","","28","","","","Mainly Clear"
"2017-07-27 20:00","2017","07","27","20:00","22.2","","15.1","","64","","35","","25","","24.1","","99.23","","26","","","","NA"
"2017-07-27 21:00","2017","07","27","21:00","20.8","","15.2","","70","","36","","19","","24.1","","99.26","","25","","","","NA"
"2017-07-27 22:00","2017","07","27","22:00","19.7","","14.6","","72","","35","","24","","24.1","","99.28","","","","","","Mainly Clear"
"2017-07-27 23:00","2017","07","27","23:00","18.8","","14.8","","77","","35","","22","","24.1","","99.30","","","","","","NA"
"2017-07-28 00:00","2017","07","28","00:00","18.2","","15.4","","83","","36","","21","","24.1","","99.30","","","","","","NA"
"2017-07-28 01:00","2017","07","28","01:00","18.0","","15.6","","86","","1","","19","","24.1","","99.30","","","","","","Mainly Clear"
"2017-07-28 02:00","2017","07","28","02:00","18.0","","14.9","","82","","2","","13","","24.1","","99.30","","","","","","NA"
"2017-07-28 03:00","2017","07","28","03:00","18.3","","14.4","","78","","2","","13","","24.1","","99.35","","","","","","NA"
"2017-07-28 04:00","2017","07","28","04:00","17.8","","14.3","","80","","2","","10","","24.1","","99.37","","","","","","Mostly Cloudy"
"2017-07-28 05:00","2017","07","28","05:00","17.5","","14.0","","80","","1","","16","","24.1","","99.41","","","","","","NA"
"2017-07-28 06:00","2017","07","28","06:00","17.4","","13.4","","77","","3","","17","","24.1","","99.42","","","","","","NA"
"2017-07-28 07:00","2017","07","28","07:00","17.7","","12.7","","72","","3","","20","","24.1","","99.48","","","","","","Cloudy"
"2017-07-28 08:00","2017","07","28","08:00","18.3","","12.4","","68","","4","","18","","24.1","","99.48","","","","","","NA"
"2017-07-28 09:00","2017","07","28","09:00","19.1","","11.8","","62","","5","","17","","24.1","","99.48","","","","","","NA"
"2017-07-28 10:00","2017","07","28","10:00","20.0","","11.6","","58","","4","","19","","24.1","","99.52","","","","","","Mostly Cloudy"
"2017-07-28 11:00","2017","07","28","11:00","20.4","","11.4","","56","","5","","18","","24.1","","99.49","","","","","","NA"
"2017-07-28 12:00","2017","07","28","12:00","21.2","","10.8","","51","","7","","13","","24.1","","99.46","","","","","","NA"
"2017-07-28 13:00","2017","07","28","13:00","21.9","","10.8","","49","","8","","14","","24.1","","99.45","","","","","","Mostly Cloudy"
"2017-07-28 14:00","2017","07","28","14:00","21.9","","11.2","","50","","2","","18","","24.1","","99.44","","","","","","NA"
"2017-07-28 15:00","2017","07","28","15:00","22.0","","9.7","","45","","5","","23","","24.1","","99.43","","","","","","NA"
"2017-07-28 16:00","2017","07","28","16:00","22.0","","5.5","","34","","7","","18","","24.1","","99.39","","","","","","Mostly Cloudy"
"2017-07-28 17:00","2017","07","28","17:00","22.4","","7.9","","39","","3","","19","","24.1","","99.39","","","","","","NA"
"2017-07-28 18:00","2017","07","28","18:00","21.9","","8.4","","42","","4","","25","","24.1","","99.40","","","","","","NA"
"2017-07-28 19:00","2017","07","28","19:00","20.6","","9.0","","47","","4","","21","","24.1","","99.42","","","","","","Mostly Cloudy"
"2017-07-28 20:00","2017","07","28","20:00","19.4","","9.4","","52","","4","","14","","24.1","","99.45","","","","","","NA"
"2017-07-28 21:00","2017","07","28","21:00","18.3","","10.0","","58","","4","","12","","24.1","","99.49","","","","","","NA"
"2017-07-28 22:00","2017","07","28","22:00","17.5","","11.6","","68","","36","","17","","24.1","","99.47","","","","","","Mainly Clear"
"2017-07-28 23:00","2017","07","28","23:00","17.4","","13.0","","76","","35","","17","","24.1","","99.47","","","","","","NA"
"2017-07-29 00:00","2017","07","29","00:00","16.3","","13.2","","82","","35","","18","","24.1","","99.47","","","","","","NA"
"2017-07-29 01:00","2017","07","29","01:00","15.9","","13.3","","84","","35","","16","","24.1","","99.47","","","","","","Mainly Clear"
"2017-07-29 02:00","2017","07","29","02:00","15.8","","13.3","","85","","35","","16","","24.1","","99.47","","","","","","NA"
"2017-07-29 03:00","2017","07","29","03:00","15.8","","13.4","","86","","35","","20","","24.1","","99.41","","","","","","NA"
"2017-07-29 04:00","2017","07","29","04:00","15.7","","13.2","","85","","36","","18","","24.1","","99.47","","","","","","Mainly Clear"
"2017-07-29 05:00","2017","07","29","05:00","15.5","","13.0","","85","","36","","17","","24.1","","99.51","","","","","","NA"
"2017-07-29 06:00","2017","07","29","06:00","16.1","","12.8","","80","","36","","16","","24.1","","99.58","","","","","","NA"
"2017-07-29 07:00","2017","07","29","07:00","17.6","","13.2","","75","","1","","18","","24.1","","99.64","","","","","","Mainly Clear"
"2017-07-29 08:00","2017","07","29","08:00","20.8","","12.5","","58","","2","","16","","24.1","","99.65","","","","","","NA"
"2017-07-29 09:00","2017","07","29","09:00","22.8","","12.5","","52","","1","","16","","24.1","","99.68","","25","","","","NA"
"2017-07-29 10:00","2017","07","29","10:00","24.1","","11.8","","46","","5","","16","","24.1","","99.69","","26","","","","Mainly Clear"
"2017-07-29 11:00","2017","07","29","11:00","24.7","","13.1","","48","","35","","26","","32.2","","99.66","","28","","","","NA"
"2017-07-29 12:00","2017","07","29","12:00","25.3","","12.4","","44","","2","","23","","24.1","","99.62","","28","","","","NA"
"2017-07-29 13:00","2017","07","29","13:00","25.3","","12.8","","45","","2","","20","","24.1","","99.59","","28","","","","Mostly Cloudy"
"2017-07-29 14:00","2017","07","29","14:00","25.8","","13.1","","45","","1","","29","","24.1","","99.57","","29","","","","NA"
"2017-07-29 15:00","2017","07","29","15:00","26.3","","14.7","","48","","3","","17","","24.1","","99.54","","30","","","","NA"
"2017-07-29 16:00","2017","07","29","16:00","27.0","","14.7","","46","","36","","29","","24.1","","99.57","","31","","","","Mainly Clear"
"2017-07-29 17:00","2017","07","29","17:00","27.0","","14.5","","46","","35","","25","","24.1","","99.56","","31","","","","NA"
"2017-07-29 18:00","2017","07","29","18:00","26.4","","13.3","","44","","33","","29","","24.1","","99.56","","29","","","","NA"
"2017-07-29 19:00","2017","07","29","19:00","25.3","","12.9","","45","","36","","24","","24.1","","99.56","","28","","","","Clear"
"2017-07-29 20:00","2017","07","29","20:00","24.2","","12.8","","48","","35","","25","","24.1","","99.58","","27","","","","NA"
"2017-07-29 21:00","2017","07","29","21:00","23.0","","13.0","","53","","35","","17","","24.1","","99.62","","26","","","","NA"
"2017-07-29 22:00","2017","07","29","22:00","22.0","","13.1","","56","","34","","20","","24.1","","99.61","","25","","","","Clear"
"2017-07-29 23:00","2017","07","29","23:00","21.1","","13.4","","61","","33","","22","","24.1","","99.62","","","","","","NA"
"2017-07-30 00:00","2017","07","30","00:00","20.6","","13.3","","63","","33","","18","","24.1","","99.63","","","","","","NA"
"2017-07-30 01:00","2017","07","30","01:00","20.6","","13.0","","61","","33","","23","","24.1","","99.63","","","","","","Clear"
"2017-07-30 02:00","2017","07","30","02:00","20.4","","12.4","","60","","34","","19","","24.1","","99.63","","","","","","NA"
"2017-07-30 03:00","2017","07","30","03:00","19.8","","12.1","","61","","34","","21","","24.1","","99.63","","","","","","NA"
"2017-07-30 04:00","2017","07","30","04:00","19.6","","12.0","","61","","34","","20","","24.1","","99.66","","","","","","Mainly Clear"
"2017-07-30 05:00","2017","07","30","05:00","19.2","","12.0","","63","","33","","23","","24.1","","99.69","","","","","","NA"
"2017-07-30 06:00","2017","07","30","06:00","20.1","","12.4","","61","","34","","26","","24.1","","99.74","","","","","","NA"
"2017-07-30 07:00","2017","07","30","07:00","21.3","","13.3","","60","","34","","23","","24.1","","99.77","","","","","","Mainly Clear"
"2017-07-30 08:00","2017","07","30","08:00","23.3","","14.0","","55","","34","","22","","24.1","","99.81","","27","","","","NA"
"2017-07-30 09:00","2017","07","30","09:00","23.8","","13.8","","53","","35","","16","","24.1","","99.81","","27","","","","NA"
"2017-07-30 10:00","2017","07","30","10:00","27.1","","12.9","","41","","35","","26","","24.1","","99.85","","30","","","","Mainly Clear"
"2017-07-30 11:00","2017","07","30","11:00","27.6","","13.4","","41","","1","","22","","24.1","","99.85","","31","","","","NA"
"2017-07-30 12:00","2017","07","30","12:00","28.6","","12.3","","36","","34","","19","","24.1","","99.84","","31","","","","NA"
"2017-07-30 13:00","2017","07","30","13:00","29.0","","11.8","","34","","36","","19","","24.1","","99.84","","31","","","","Mainly Clear"
"2017-07-30 14:00","2017","07","30","14:00","29.8","","13.7","","37","","31","","17","","24.1","","99.81","","33","","","","NA"
"2017-07-30 15:00","2017","07","30","15:00","29.7","","13.3","","36","","32","","20","","24.1","","99.79","","33","","","","NA"
"2017-07-30 16:00","2017","07","30","16:00","29.8","","11.0","","31","","32","","23","","24.1","","99.75","","32","","","","Mostly Cloudy"
"2017-07-30 17:00","2017","07","30","17:00","28.6","","10.6","","32","","28","","25","","24.1","","99.74","","30","","","","NA"
"2017-07-30 18:00","2017","07","30","18:00","28.0","","11.7","","36","","30","","22","","24.1","","99.77","","30","","","","NA"
"2017-07-30 19:00","2017","07","30","19:00","26.5","","11.6","","39","","30","","26","","24.1","","99.80","","29","","","","Mainly Clear"
"2017-07-30 20:00","2017","07","30","20:00","24.9","","12.3","","45","","30","","23","","24.1","","99.83","","27","","","","NA"
"2017-07-30 21:00","2017","07","30","21:00","23.5","","13.9","","54","","32","","17","","24.1","","99.85","","27","","","","NA"
"2017-07-30 22:00","2017","07","30","22:00","21.9","","14.2","","61","","29","","17","","24.1","","99.87","","25","","","","Clear"
"2017-07-30 23:00","2017","07","30","23:00","20.1","","14.2","","69","","29","","11","","24.1","","99.86","","","","","","NA"
"2017-07-31 00:00","2017","07","31","00:00","19.0","","13.6","","70","","29","","10","","24.1","","99.84","","","","","","NA"
"2017-07-31 01:00","2017","07","31","01:00","19.4","","13.2","","67","","29","","14","","24.1","","99.82","","","","","","Clear"
"2017-07-31 02:00","2017","07","31","02:00","18.8","","12.7","","67","","28","","8","","24.1","","99.80","","","","","","NA"
"2017-07-31 03:00","2017","07","31","03:00","18.9","","12.5","","66","","27","","5","","24.1","","99.79","","","","","","NA"
"2017-07-31 04:00","2017","07","31","04:00","17.8","","12.5","","71","","27","","9","","24.1","","99.81","","","","","","Mainly Clear"
"2017-07-31 05:00","2017","07","31","05:00","17.9","","13.1","","73","","25","","5","","24.1","","99.84","","","","","","NA"
"2017-07-31 06:00","2017","07","31","06:00","19.0","","14.0","","72","","27","","9","","24.1","","99.85","","","","","","NA"
"2017-07-31 07:00","2017","07","31","07:00","20.9","","15.1","","69","","28","","9","","24.1","","99.88","","25","","","","Mostly Cloudy"
"2017-07-31 08:00","2017","07","31","08:00","21.9","","15.8","","68","","25","","6","","24.1","","99.87","","26","","","","NA"
"2017-07-31 09:00","2017","07","31","09:00","25.6","","17.3","","60","","26","","7","","24.1","","99.87","","31","","","","NA"
"2017-07-31 10:00","2017","07","31","10:00","27.3","","17.6","","55","","32","","13","","24.1","","99.86","","33","","","","Clear"
"2017-07-31 11:00","2017","07","31","11:00","28.6","","17.9","","52","","32","","17","","24.1","","99.83","","35","","","","NA"
"2017-07-31 12:00","2017","07","31","12:00","29.2","","18.0","","50","","30","","17","","24.1","","99.78","","35","","","","NA"
"2017-07-31 13:00","2017","07","31","13:00","30.8","","17.1","","43","","29","","22","","24.1","","99.73","","36","","","","Mostly Cloudy"
"2017-07-31 14:00","2017","07","31","14:00","23.7","","18.5","","72","","35","","23","","24.1","","99.79","","30","","","","Thunderstorms,Rain Showers"
"2017-07-31 15:00","2017","07","31","15:00","24.9","","20.5","","76","","35","","10","","24.1","","99.72","","33","","","","Thunderstorms,Rain Showers"
"2017-07-31 16:00","2017","07","31","16:00","25.7","","19.8","","69","","30","","10","","24.1","","99.73","","33","","","","Rain Showers"
"2017-07-31 17:00","2017","07","31","17:00","28.0","","18.4","","55","","33","","14","","24.1","","99.69","","34","","","","NA"
"2017-07-31 18:00","2017","07","31","18:00","26.9","","18.5","","59","","1","","16","","24.1","","99.74","","33","","","","NA"
"2017-07-31 19:00","2017","07","31","19:00","24.2","","18.9","","72","","7","","7","","24.1","","99.76","","31","","","","Mostly Cloudy"
"2017-07-31 20:00","2017","07","31","20:00","23.7","","17.7","","69","","28","","8","","24.1","","99.76","","29","","","","NA"
"2017-07-31 21:00","2017","07","31","21:00","24.2","","18.4","","70","","34","","22","","24.1","","99.81","","31","","","","NA"
"2017-07-31 22:00","2017","07","31","22:00","22.4","","18.2","","77","","2","","14","","24.1","","99.81","","29","","","","Mainly Clear"
"2017-07-31 23:00","2017","07","31","23:00","22.1","","17.8","","77","","34","","12","","24.1","","99.78","","28","","","","NA"
