"Station Name","TORONTO LESTER B. PEARSON INT'L A"
"Province","ONTARIO"
"Latitude","43.68"
"Longitude","-79.63"
"Elevation","173.40"
"Climate Identifier","6158733"
"WMO Identifier","71624"
"TC Identifier","YYZ"
"All times are specified in Local Standard Time (LST). Add 1 hour to adjust for Daylight Saving Time where and when it is observed."

"Legend"
"E","Estimated"
"M","Missing"
"NA","Not Available"

"Date/Time","Year","Month","Day","Time","Temp (°C)","Temp Flag","Dew Point Temp (°C)","Dew Point Temp Flag","Rel Hum (%)","Rel Hum Flag","Wind Dir (10s deg)","Wind Dir Flag","Wind Spd (km/h)","Wind Spd Flag","Visibility (km)","Visibility Flag","Stn Press (kPa)","Stn Press Flag","Hmdx","Hmdx Flag","Wind Chill","Wind Chill Flag","Weather"
"1955-01-01 00:00","1955","01","01","00:00","-3.3","","-5.0","","88","","7","","6","","16.1","","99.83","","","","-6","","Clear"
"1955-01-01 01:00","1955","01","01","01:00","-4.4","","-5.0","","96","","7","","6","","12.9","","99.87","","","","-7","","Clear"
"1955-01-01 02:00","1955","01","01","02:00","-5.0","","-6.1","","92","","5","","6","","9.7","","99.83","","","","-8","","Fog"
"1955-01-01 03:00","1955","01","01","03:00","-5.0","","-6.1","","92","","5","","6","","9.7","","99.91","","","","-8","","Fog"
"1955-01-01 04:00","1955","01","01","04:00","-4.4","","-6.1","","88","","36","","6","","9.7","","99.87","","","","-7","","Fog"
"1955-01-01 05:00","1955","01","01","05:00","-3.3","","-5.0","","88","","","","0","","6.4","","99.86","","","","","","Fog"
"1955-01-01 06:00","1955","01","01","06:00","-3.3","","-4.4","","92","","","","0","","6.4","","99.86","","","","","","Fog"
"1955-01-01 07:00","1955","01","01","07:00","-3.3","","-5.0","","88","","","","0","","6.4","","99.87","","","","","","Fog"
"1955-01-01 08:00","1955","01","01","08:00","-2.8","","-3.9","","92","","","","0","","1.2","","98.88","","","","","","Fog"
"1955-01-01 09:00","1955","01","01","09:00","-1.1","","-1.1","","100","","","","0","","0.0","","99.85","","","","","","Fog"
"1955-01-01 10:00","1955","01","01","10:00","0.6","","-1.7","","85","","","","0","","1.2","","99.79","","","","","","Fog"
"1955-01-01 11:00","1955","01","01","11:00","2.8","","1.1","","89","","20","","14","","2.0","","99.72","","","","","","Fog"
"1955-01-01 12:00","1955","01","01","12:00","3.3","","0.6","","82","","14","","16","","2.0","","99.55","","","","","","Smoke,Haze"
"1955-01-01 13:00","1955","01","01","13:00","3.3","","0.6","","82","","14","","16","","2.0","","99.46","","","","","","Smoke,Haze"
"1955-01-01 14:00","1955","01","01","14:00","2.8","","1.7","","92","","14","","19","","2.4","","99.40","","","","","","Smoke,Haze"
"1955-01-01 15:00","1955","01","01","15:00","3.9","","1.7","","85","","11","","18","","4.0","","99.29","","","","","","Haze"
"1955-01-01 16:00","1955","01","01","16:00","3.3","","1.1","","85","","11","","19","","4.0","","99.23","","","","","","Smoke,Haze"
"1955-01-01 17:00","1955","01","01","17:00","3.3","","0.6","","82","","11","","26","","4.0","","99.11","","","","","","Smoke,Haze"
"1955-01-01 18:00","1955","01","01","18:00","3.3","","1.7","","89","","9","","16","","4.8","","99.15","","","","","","Rain,Fog"
"1955-01-01 19:00","1955","01","01","19:00","2.8","","1.7","","92","","9","","8","","4.8","","99.05","","","","","","Rain,Fog"
"1955-01-01 20:00","1955","01","01","20:00","2.8","","1.7","","92","","9","","16","","4.0","","98.88","","","","","","Rain,Fog"
"1955-01-01 21:00","1955","01","01","21:00","3.3","","2.8","","96","","9","","13","","3.2","","98.84","","","","","","Rain,Fog"
"1955-01-01 22:00","1955","01","01","22:00","3.3","","2.2","","92","","16","","3","","0.4","","98.74","","","","","","Rain,Fog"
"1955-01-01 23:00","1955","01","01","23:00","3.3","","2.8","","96","","16","","3","","0.4","","98.67","","","","","","Rain,Fog"
"1955-01-02 00:00","1955","01","02","00:00","2.8","","2.8","","100","","","","0","","0.2","","98.60","","","","","","Rain,Fog"
"1955-01-02 01:00","1955","01","02","01:00","2.8","","2.8","","100","","16","","13","","0.2","","98.56","","","","","","Fog"
"1955-01-02 02:00","1955","01","02","02:00","2.8","","2.8","","100","","20","","11","","0.2","","98.58","","","","","","Fog"
"1955-01-02 03:00","1955","01","02","03:00","2.2","","2.2","","100","","23","","11","","0.8","","98.61","","","","","","Fog"
"1955-01-02 04:00","1955","01","02","04:00","2.2","","2.2","","100","","25","","18","","3.2","","98.62","","","","","","Fog"
"1955-01-02 05:00","1955","01","02","05:00","3.3","","2.8","","96","","27","","23","","16.1","","98.67","","","","","","Cloudy"
"1955-01-02 06:00","1955","01","02","06:00","3.9","","2.8","","92","","27","","23","","16.1","","98.82","","","","","","Cloudy"
"1955-01-02 07:00","1955","01","02","07:00","3.9","","2.8","","92","","29","","21","","16.1","","98.89","","","","","","Cloudy"
"1955-01-02 08:00","1955","01","02","08:00","3.3","","2.2","","92","","29","","27","","12.9","","99.07","","","","","","Cloudy"
"1955-01-02 09:00","1955","01","02","09:00","3.9","","2.2","","89","","29","","14","","19.3","","99.18","","","","","","Mainly Clear"
"1955-01-02 10:00","1955","01","02","10:00","3.9","","0.6","","79","","29","","34","","19.3","","99.30","","","","","","Mostly Cloudy"
"1955-01-02 11:00","1955","01","02","11:00","3.9","","1.1","","82","","27","","29","","19.3","","99.34","","","","","","Mainly Clear"
"1955-01-02 12:00","1955","01","02","12:00","4.4","","1.1","","79","","29","","39","","16.1","","99.38","","","","","","Mainly Clear"
"1955-01-02 13:00","1955","01","02","13:00","3.3","","1.1","","85","","29","","35","","16.1","","99.47","","","","","","Mostly Cloudy"
"1955-01-02 14:00","1955","01","02","14:00","2.8","","0.6","","85","","29","","29","","16.1","","99.57","","","","","","Mostly Cloudy"
"1955-01-02 15:00","1955","01","02","15:00","2.8","","1.1","","89","","29","","32","","19.3","","99.66","","","","","","Mainly Clear"
"1955-01-02 16:00","1955","01","02","16:00","2.2","","0.6","","89","","27","","39","","25.0","","99.82","","","","","","Mainly Clear"
"1955-01-02 17:00","1955","01","02","17:00","0.6","","-1.7","","85","","29","","29","","25.0","","99.95","","","","","","Mainly Clear"
"1955-01-02 18:00","1955","01","02","18:00","0.0","","-2.2","","85","","29","","29","","25.0","","100.13","","","","-6","","Mainly Clear"
"1955-01-02 19:00","1955","01","02","19:00","-0.6","","-3.3","","81","","29","","29","","25.0","","100.19","","","","-7","","Clear"
"1955-01-02 20:00","1955","01","02","20:00","-1.1","","-3.3","","85","","29","","26","","25.0","","100.22","","","","-7","","Clear"
"1955-01-02 21:00","1955","01","02","21:00","-1.1","","-2.8","","88","","32","","19","","25.0","","100.26","","","","-6","","Clear"
"1955-01-02 22:00","1955","01","02","22:00","-1.1","","-3.9","","81","","27","","16","","25.0","","100.32","","","","-6","","Mainly Clear"
"1955-01-02 23:00","1955","01","02","23:00","-2.2","","-4.4","","85","","27","","16","","25.0","","100.32","","","","-7","","Mainly Clear"
"1955-01-03 00:00","1955","01","03","00:00","-2.2","","-4.4","","85","","23","","13","","25.0","","100.34","","","","-7","","Mainly Clear"
"1955-01-03 01:00","1955","01","03","01:00","-3.3","","-4.4","","92","","25","","13","","25.0","","100.38","","","","-8","","Mainly Clear"
"1955-01-03 02:00","1955","01","03","02:00","-2.8","","-3.9","","92","","29","","10","","25.0","","100.54","","","","-7","","Mostly Cloudy"
"1955-01-03 03:00","1955","01","03","03:00","-1.7","","-3.3","","88","","32","","11","","25.0","","100.59","","","","-6","","Mostly Cloudy"
"1955-01-03 04:00","1955","01","03","04:00","-1.7","","-3.3","","88","","29","","11","","25.0","","100.50","","","","-6","","Mainly Clear"
"1955-01-03 05:00","1955","01","03","05:00","-2.2","","-3.3","","92","","32","","8","","25.0","","100.53","","","","-5","","Mostly Cloudy"
"1955-01-03 06:00","1955","01","03","06:00","-1.7","","-2.2","","96","","20","","6","","25.0","","100.55","","","","-4","","Mostly Cloudy"
"1955-01-03 07:00","1955","01","03","07:00","-1.7","","-3.3","","88","","20","","8","","25.0","","100.51","","","","-5","","Mostly Cloudy"
"1955-01-03 08:00","1955","01","03","08:00","-1.1","","-2.8","","88","","20","","8","","25.0","","100.48","","","","-4","","Mostly Cloudy"
"1955-01-03 09:00","1955","01","03","09:00","-1.1","","-2.8","","88","","20","","8","","25.0","","100.49","","","","-4","","Cloudy"
"1955-01-03 10:00","1955","01","03","10:00","-0.6","","-2.2","","88","","16","","8","","25.0","","100.46","","","","-3","","Cloudy"
"1955-01-03 11:00","1955","01","03","11:00","0.0","","-2.8","","82","","16","","5","","24.1","","100.36","","","","-2","","Cloudy"
"1955-01-03 12:00","1955","01","03","12:00","0.0","","-1.7","","88","","16","","11","","19.3","","100.21","","","","-4","","Cloudy"
"1955-01-03 13:00","1955","01","03","13:00","0.6","","-0.6","","92","","20","","13","","12.9","","100.10","","","","","","Cloudy"
"1955-01-03 14:00","1955","01","03","14:00","0.6","","-0.6","","92","","18","","14","","12.9","","99.97","","","","","","Cloudy"
"1955-01-03 15:00","1955","01","03","15:00","0.6","","-1.1","","88","","18","","19","","12.9","","99.84","","","","","","Cloudy"
"1955-01-03 16:00","1955","01","03","16:00","0.6","","-0.6","","92","","18","","14","","8.0","","99.67","","","","","","Haze"
"1955-01-03 17:00","1955","01","03","17:00","1.1","","-0.6","","89","","18","","11","","8.0","","99.55","","","","","","Haze"
"1955-01-03 18:00","1955","01","03","18:00","1.1","","0.0","","92","","20","","13","","8.0","","99.46","","","","","","Rain,Haze"
"1955-01-03 19:00","1955","01","03","19:00","1.1","","0.0","","92","","20","","13","","8.0","","99.41","","","","","","Haze"
"1955-01-03 20:00","1955","01","03","20:00","3.3","","1.7","","89","","25","","24","","9.7","","99.32","","","","","","Haze"
"1955-01-03 21:00","1955","01","03","21:00","3.9","","2.2","","89","","27","","29","","12.9","","99.28","","","","","","Cloudy"
"1955-01-03 22:00","1955","01","03","22:00","4.4","","2.8","","89","","29","","21","","12.9","","99.28","","","","","","Cloudy"
"1955-01-03 23:00","1955","01","03","23:00","3.9","","2.8","","92","","27","","19","","12.9","","99.30","","","","","","Cloudy"
"1955-01-04 00:00","1955","01","04","00:00","3.9","","2.2","","89","","27","","19","","12.9","","99.30","","","","","","Cloudy"
"1955-01-04 01:00","1955","01","04","01:00","4.4","","2.2","","85","","29","","23","","12.9","","99.33","","","","","","Cloudy"
"1955-01-04 02:00","1955","01","04","02:00","3.3","","1.1","","85","","32","","18","","12.9","","99.42","","","","","","Cloudy"
"1955-01-04 03:00","1955","01","04","03:00","2.2","","-0.6","","82","","34","","21","","25.0","","99.50","","","","","","Cloudy"
"1955-01-04 04:00","1955","01","04","04:00","2.2","","0.0","","85","","34","","23","","25.0","","99.51","","","","","","Cloudy"
"1955-01-04 05:00","1955","01","04","05:00","1.1","","-1.1","","85","","34","","26","","25.0","","99.58","","","","","","Cloudy"
"1955-01-04 06:00","1955","01","04","06:00","0.6","","-2.8","","78","","34","","26","","25.0","","99.71","","","","","","Cloudy"
"1955-01-04 07:00","1955","01","04","07:00","-0.6","","-3.3","","81","","36","","26","","25.0","","99.77","","","","-7","","Cloudy"
"1955-01-04 08:00","1955","01","04","08:00","-1.7","","-5.0","","78","","36","","24","","25.0","","99.89","","","","-8","","Cloudy"
"1955-01-04 09:00","1955","01","04","09:00","-2.2","","-5.0","","81","","36","","29","","25.0","","99.97","","","","-9","","Mostly Cloudy"
"1955-01-04 10:00","1955","01","04","10:00","-2.2","","-4.4","","85","","36","","23","","25.0","","100.02","","","","-8","","Mostly Cloudy"
"1955-01-04 11:00","1955","01","04","11:00","-1.7","","-5.0","","78","","34","","24","","25.0","","99.94","","","","-8","","Mainly Clear"
"1955-01-04 12:00","1955","01","04","12:00","-1.7","","-5.6","","75","","36","","24","","25.0","","99.90","","","","-8","","Mainly Clear"
"1955-01-04 13:00","1955","01","04","13:00","-1.7","","-5.6","","75","","36","","24","","25.0","","99.89","","","","-8","","Mainly Clear"
"1955-01-04 14:00","1955","01","04","14:00","-1.7","","-5.6","","75","","36","","24","","25.0","","99.94","","","","-8","","Mainly Clear"
"1955-01-04 15:00","1955","01","04","15:00","-1.7","","-5.6","","75","","36","","14","","25.0","","99.98","","","","-6","","Mainly Clear"
"1955-01-04 16:00","1955","01","04","16:00","-2.8","","-6.1","","78","","2","","10","","25.0","","100.03","","","","-7","","Mainly Clear"
"1955-01-04 17:00","1955","01","04","17:00","-3.3","","-6.1","","81","","2","","8","","25.0","","100.06","","","","-7","","Mainly Clear"
"1955-01-04 18:00","1955","01","04","18:00","-3.9","","-5.6","","88","","2","","10","","25.0","","100.13","","","","-8","","Mainly Clear"
"1955-01-04 19:00","1955","01","04","19:00","-4.4","","-6.1","","88","","2","","11","","25.0","","100.11","","","","-9","","Mainly Clear"
"1955-01-04 20:00","1955","01","04","20:00","-5.0","","-6.1","","92","","2","","8","","25.0","","100.12","","","","-9","","Mainly Clear"
"1955-01-04 21:00","1955","01","04","21:00","-5.0","","-6.1","","92","","2","","6","","25.0","","100.17","","","","-8","","Mainly Clear"
"1955-01-04 22:00","1955","01","04","22:00","-5.6","","-6.7","","92","","2","","6","","25.0","","100.09","","","","-8","","Mainly Clear"
"1955-01-04 23:00","1955","01","04","23:00","-5.6","","-8.3","","81","","5","","6","","25.0","","100.04","","","","-8","","Mainly Clear"
"1955-01-05 00:00","1955","01","05","00:00","-5.6","","-8.9","","77","","5","","8","","25.0","","100.00","","","","-9","","Mainly Clear"
"1955-01-05 01:00","1955","01","05","01:00","-5.6","","-8.9","","77","","5","","11","","19.3","","100.04","","","","-10","","Mostly Cloudy"
"1955-01-05 02:00","1955","01","05","02:00","-5.0","","-7.2","","84","","5","","14","","16.1","","99.98","","","","-10","","Mostly Cloudy"
"1955-01-05 03:00","1955","01","05","03:00","-5.0","","-6.7","","88","","5","","10","","16.1","","99.99","","","","-9","","Cloudy"
"1955-01-05 04:00","1955","01","05","04:00","-4.4","","-6.7","","84","","5","","8","","16.1","","99.89","","","","-8","","Cloudy"
"1955-01-05 05:00","1955","01","05","05:00","-4.4","","-6.1","","88","","5","","8","","25.0","","99.82","","","","-8","","Cloudy"
"1955-01-05 06:00","1955","01","05","06:00","-4.4","","-6.1","","88","","7","","13","","25.0","","99.75","","","","-9","","Cloudy"
"1955-01-05 07:00","1955","01","05","07:00","-4.4","","-6.1","","88","","7","","11","","19.3","","99.74","","","","-9","","Cloudy"
"1955-01-05 08:00","1955","01","05","08:00","-3.9","","-5.6","","88","","5","","6","","6.4","","99.67","","","","-7","","Haze"
"1955-01-05 09:00","1955","01","05","09:00","-1.7","","-3.9","","85","","11","","24","","16.1","","99.57","","","","-8","","Mostly Cloudy"
"1955-01-05 10:00","1955","01","05","10:00","-1.1","","-3.3","","85","","11","","24","","16.1","","99.56","","","","-7","","Cloudy"
"1955-01-05 11:00","1955","01","05","11:00","-1.1","","-2.8","","88","","11","","29","","12.9","","99.39","","","","-8","","Cloudy"
"1955-01-05 12:00","1955","01","05","12:00","-0.6","","-2.2","","88","","11","","23","","12.9","","99.23","","","","-6","","Cloudy"
"1955-01-05 13:00","1955","01","05","13:00","-0.6","","-1.1","","96","","9","","21","","12.9","","99.13","","","","-6","","Cloudy"
"1955-01-05 14:00","1955","01","05","14:00","0.0","","-1.7","","88","","9","","26","","11.3","","98.90","","","","-6","","Freezing Rain,Ice Pellets"
"1955-01-05 15:00","1955","01","05","15:00","0.0","","-1.7","","88","","9","","31","","12.9","","98.75","","","","-7","","Freezing Rain"
"1955-01-05 16:00","1955","01","05","16:00","0.0","","-0.6","","96","","9","","24","","11.3","","98.68","","","","-6","","Freezing Rain"
"1955-01-05 17:00","1955","01","05","17:00","0.6","","-1.1","","88","","9","","23","","11.3","","98.55","","","","","","Drizzle"
"1955-01-05 18:00","1955","01","05","18:00","0.6","","-1.1","","88","","7","","19","","16.1","","98.53","","","","","","Cloudy"
"1955-01-05 19:00","1955","01","05","19:00","0.6","","-1.1","","88","","7","","10","","16.1","","98.52","","","","","","Rain,Drizzle"
"1955-01-05 20:00","1955","01","05","20:00","0.6","","-0.6","","92","","7","","8","","4.8","","98.39","","","","","","Rain,Fog"
"1955-01-05 21:00","1955","01","05","21:00","0.6","","-0.6","","92","","2","","6","","4.8","","98.29","","","","","","Rain,Fog"
"1955-01-05 22:00","1955","01","05","22:00","0.0","","-0.6","","96","","2","","11","","4.0","","98.20","","","","-4","","Rain,Fog"
"1955-01-05 23:00","1955","01","05","23:00","0.0","","-0.6","","96","","36","","13","","4.0","","98.12","","","","-4","","Freezing Rain,Fog"
"1955-01-06 00:00","1955","01","06","00:00","0.6","","-0.6","","92","","36","","8","","4.0","","98.04","","","","","","Freezing Drizzle,Fog"
"1955-01-06 01:00","1955","01","06","01:00","0.0","","-0.6","","96","","36","","16","","12.9","","98.01","","","","-5","","Freezing Drizzle"
"1955-01-06 02:00","1955","01","06","02:00","-1.1","","-1.1","","100","","34","","21","","16.1","","98.09","","","","-7","","Cloudy"
"1955-01-06 03:00","1955","01","06","03:00","-1.1","","-2.2","","92","","34","","16","","16.1","","98.16","","","","-6","","Cloudy"
"1955-01-06 04:00","1955","01","06","04:00","-1.1","","-2.2","","92","","34","","29","","16.1","","98.18","","","","-8","","Cloudy"
"1955-01-06 05:00","1955","01","06","05:00","-1.1","","-2.2","","92","","34","","24","","25.0","","98.19","","","","-7","","Cloudy"
"1955-01-06 06:00","1955","01","06","06:00","-1.1","","-1.7","","96","","34","","35","","25.0","","98.29","","","","-8","","Cloudy"
"1955-01-06 07:00","1955","01","06","07:00","-1.1","","-2.8","","88","","34","","29","","25.0","","98.31","","","","-8","","Cloudy"
"1955-01-06 08:00","1955","01","06","08:00","-1.1","","-2.8","","88","","34","","21","","25.0","","98.47","","","","-7","","Cloudy"
"1955-01-06 09:00","1955","01","06","09:00","-0.6","","-2.2","","88","","32","","21","","25.0","","98.62","","","","-6","","Mostly Cloudy"
"1955-01-06 10:00","1955","01","06","10:00","-0.6","","-2.2","","88","","34","","19","","25.0","","98.71","","","","-6","","Mostly Cloudy"
"1955-01-06 11:00","1955","01","06","11:00","-0.6","","-2.8","","85","","34","","24","","25.0","","98.74","","","","-7","","Snow"
"1955-01-06 12:00","1955","01","06","12:00","-1.1","","-2.2","","92","","34","","19","","24.1","","98.77","","","","-6","","Snow Grains"
"1955-01-06 13:00","1955","01","06","13:00","-0.6","","-3.3","","81","","34","","19","","25.0","","98.80","","","","-6","","Mostly Cloudy"
"1955-01-06 14:00","1955","01","06","14:00","0.6","","-3.3","","75","","34","","21","","25.0","","98.85","","","","","","Mostly Cloudy"
"1955-01-06 15:00","1955","01","06","15:00","0.0","","-2.2","","85","","34","","21","","25.0","","98.94","","","","-5","","Mainly Clear"
"1955-01-06 16:00","1955","01","06","16:00","0.0","","-4.4","","72","","34","","26","","25.0","","99.01","","","","-6","","Mainly Clear"
"1955-01-06 17:00","1955","01","06","17:00","-1.1","","-3.3","","85","","32","","16","","25.0","","99.07","","","","-6","","Snow Showers"
"1955-01-06 18:00","1955","01","06","18:00","-1.1","","-2.8","","88","","29","","24","","25.0","","99.15","","","","-7","","Snow"
"1955-01-06 19:00","1955","01","06","19:00","-1.1","","-3.3","","85","","29","","26","","25.0","","99.21","","","","-7","","Snow"
"1955-01-06 20:00","1955","01","06","20:00","-1.1","","-5.0","","75","","34","","26","","25.0","","99.27","","","","-7","","Cloudy"
"1955-01-06 21:00","1955","01","06","21:00","-1.1","","-5.0","","75","","29","","27","","25.0","","99.30","","","","-8","","Snow"
"1955-01-06 22:00","1955","01","06","22:00","-1.7","","-3.9","","85","","29","","23","","25.0","","99.31","","","","-8","","Cloudy"
"1955-01-06 23:00","1955","01","06","23:00","-1.7","","-3.9","","85","","29","","26","","25.0","","99.35","","","","-8","","Snow Showers"
"1955-01-07 00:00","1955","01","07","00:00","-2.2","","-3.9","","88","","36","","16","","25.0","","99.42","","","","-7","","Snow Showers"
"1955-01-07 01:00","1955","01","07","01:00","-3.3","","-4.4","","92","","36","","19","","25.0","","99.45","","","","-9","","Snow Showers"
"1955-01-07 02:00","1955","01","07","02:00","-3.3","","-4.4","","92","","34","","11","","25.0","","99.58","","","","-8","","Snow"
"1955-01-07 03:00","1955","01","07","03:00","-3.9","","-4.4","","96","","29","","29","","25.0","","99.63","","","","-11","","Snow"
"1955-01-07 04:00","1955","01","07","04:00","-4.4","","-6.1","","88","","29","","26","","25.0","","99.66","","","","-12","","Mostly Cloudy"
"1955-01-07 05:00","1955","01","07","05:00","-4.4","","-8.9","","71","","29","","26","","25.0","","99.69","","","","-12","","Cloudy"
"1955-01-07 06:00","1955","01","07","06:00","-4.4","","-7.2","","81","","29","","19","","25.0","","99.74","","","","-11","","Cloudy"
"1955-01-07 07:00","1955","01","07","07:00","-4.4","","-5.6","","92","","29","","23","","25.0","","99.79","","","","-11","","Cloudy"
"1955-01-07 08:00","1955","01","07","08:00","-5.0","","-6.1","","92","","29","","23","","25.0","","99.86","","","","-12","","Mostly Cloudy"
"1955-01-07 09:00","1955","01","07","09:00","-5.0","","-8.3","","77","","29","","24","","25.0","","99.95","","","","-12","","Mostly Cloudy"
"1955-01-07 10:00","1955","01","07","10:00","-3.9","","-5.0","","92","","29","","26","","25.0","","100.01","","","","-11","","Mainly Clear"
"1955-01-07 11:00","1955","01","07","11:00","-3.3","","-6.7","","78","","29","","32","","25.0","","100.00","","","","-11","","Mainly Clear"
"1955-01-07 12:00","1955","01","07","12:00","-3.3","","-7.2","","74","","34","","34","","25.0","","99.96","","","","-11","","Mainly Clear"
"1955-01-07 13:00","1955","01","07","13:00","-2.8","","-7.2","","72","","32","","31","","25.0","","99.92","","","","-10","","Mainly Clear"
"1955-01-07 14:00","1955","01","07","14:00","-2.2","","-6.1","","75","","34","","11","","25.0","","99.92","","","","-6","","Mainly Clear"
"1955-01-07 15:00","1955","01","07","15:00","-2.8","","-6.1","","78","","36","","13","","25.0","","99.95","","","","-7","","Mainly Clear"
"1955-01-07 16:00","1955","01","07","16:00","-2.8","","-5.0","","85","","36","","8","","25.0","","99.97","","","","-6","","Mainly Clear"
"1955-01-07 17:00","1955","01","07","17:00","-3.9","","-5.6","","88","","36","","5","","25.0","","99.97","","","","-6","","Mainly Clear"
"1955-01-07 18:00","1955","01","07","18:00","-4.4","","-6.7","","84","","36","","3","","25.0","","99.97","","","","-6","","Mainly Clear"
"1955-01-07 19:00","1955","01","07","19:00","-5.0","","-6.7","","88","","2","","5","","25.0","","99.96","","","","-7","","Mostly Cloudy"
"1955-01-07 20:00","1955","01","07","20:00","-4.4","","-6.1","","88","","36","","2","","25.0","","99.95","","","","-5","","Mostly Cloudy"
"1955-01-07 21:00","1955","01","07","21:00","-3.9","","-5.0","","92","","","","0","","25.0","","99.94","","","","","","Cloudy"
"1955-01-07 22:00","1955","01","07","22:00","-3.9","","-5.6","","88","","","","0","","25.0","","99.93","","","","","","Cloudy"
"1955-01-07 23:00","1955","01","07","23:00","-2.8","","-4.4","","88","","27","","10","","25.0","","99.91","","","","-7","","Cloudy"
"1955-01-08 00:00","1955","01","08","00:00","-3.3","","-3.9","","96","","25","","16","","25.0","","99.86","","","","-9","","Cloudy"
"1955-01-08 01:00","1955","01","08","01:00","-3.3","","-7.8","","71","","27","","16","","25.0","","99.85","","","","-9","","Cloudy"
"1955-01-08 02:00","1955","01","08","02:00","-3.3","","-7.8","","71","","29","","6","","25.0","","99.85","","","","-6","","Cloudy"
"1955-01-08 03:00","1955","01","08","03:00","-3.3","","-7.8","","71","","29","","3","","25.0","","99.83","","","","-5","","Cloudy"
"1955-01-08 04:00","1955","01","08","04:00","-3.3","","-7.8","","71","","","","0","","25.0","","99.75","","","","","","Cloudy"
"1955-01-08 05:00","1955","01","08","05:00","-3.3","","-7.8","","71","","","","0","","25.0","","99.70","","","","","","Cloudy"
"1955-01-08 06:00","1955","01","08","06:00","-3.3","","-6.7","","78","","14","","3","","25.0","","99.67","","","","-5","","Cloudy"
"1955-01-08 07:00","1955","01","08","07:00","-3.3","","-7.2","","74","","11","","3","","24.1","","99.64","","","","-5","","Cloudy"
"1955-01-08 08:00","1955","01","08","08:00","-2.8","","-6.1","","78","","","","0","","12.9","","99.64","","","","","","Cloudy"
"1955-01-08 09:00","1955","01","08","09:00","-2.2","","-5.0","","81","","14","","3","","6.4","","99.63","","","","-3","","Smoke"
"1955-01-08 10:00","1955","01","08","10:00","-1.7","","-3.9","","85","","14","","3","","6.4","","99.60","","","","-3","","Smoke"
"1955-01-08 11:00","1955","01","08","11:00","-0.6","","-3.3","","81","","20","","10","","9.7","","99.52","","","","-4","","Smoke"
"1955-01-08 12:00","1955","01","08","12:00","0.0","","-3.3","","78","","18","","11","","9.7","","99.44","","","","-4","","Haze"
"1955-01-08 13:00","1955","01","08","13:00","0.0","","-2.2","","85","","16","","11","","9.7","","99.38","","","","-4","","Haze"
"1955-01-08 14:00","1955","01","08","14:00","0.0","","-1.7","","88","","11","","11","","4.0","","99.38","","","","-4","","Snow Showers"
"1955-01-08 15:00","1955","01","08","15:00","0.0","","-1.7","","88","","14","","8","","4.0","","99.38","","","","-3","","Snow Showers"
"1955-01-08 16:00","1955","01","08","16:00","-0.6","","-0.6","","100","","9","","3","","4.0","","99.35","","","","-2","","Snow Showers,Fog"
"1955-01-08 17:00","1955","01","08","17:00","-1.7","","-2.8","","92","","9","","10","","2.8","","99.39","","","","-5","","Snow,Fog"
"1955-01-08 18:00","1955","01","08","18:00","-1.7","","-2.8","","92","","7","","8","","11.3","","99.38","","","","-5","","Cloudy"
"1955-01-08 19:00","1955","01","08","19:00","-1.7","","-2.8","","92","","7","","6","","9.7","","99.35","","","","-4","","Fog"
"1955-01-08 20:00","1955","01","08","20:00","-1.7","","-2.8","","92","","7","","6","","9.7","","99.38","","","","-4","","Fog"
"1955-01-08 21:00","1955","01","08","21:00","-2.2","","-3.3","","92","","2","","6","","9.7","","99.38","","","","-5","","Fog"
"1955-01-08 22:00","1955","01","08","22:00","-1.1","","-2.8","","88","","7","","8","","9.7","","99.34","","","","-4","","Fog"
"1955-01-08 23:00","1955","01","08","23:00","-1.1","","-2.8","","88","","9","","3","","8.0","","99.28","","","","-2","","Fog"
"1955-01-09 00:00","1955","01","09","00:00","-1.1","","-2.8","","88","","","","0","","6.4","","99.27","","","","","","Haze"
"1955-01-09 01:00","1955","01","09","01:00","-1.7","","-2.8","","92","","2","","6","","6.4","","99.20","","","","-4","","Haze"
"1955-01-09 02:00","1955","01","09","02:00","-2.8","","-3.9","","92","","5","","6","","1.2","","99.19","","","","-5","","Fog"
"1955-01-09 03:00","1955","01","09","03:00","-2.8","","-3.3","","96","","5","","8","","0.4","","99.13","","","","-6","","Fog"
"1955-01-09 04:00","1955","01","09","04:00","-2.2","","-3.3","","92","","5","","6","","1.2","","99.07","","","","-5","","Fog"
"1955-01-09 05:00","1955","01","09","05:00","-2.2","","-3.3","","92","","7","","6","","2.4","","98.99","","","","-5","","Fog"
"1955-01-09 06:00","1955","01","09","06:00","-1.1","","-2.2","","92","","7","","6","","2.4","","98.93","","","","-3","","Fog"
"1955-01-09 07:00","1955","01","09","07:00","-1.1","","-2.2","","92","","9","","6","","2.4","","98.86","","","","-3","","Fog"
"1955-01-09 08:00","1955","01","09","08:00","0.0","","-1.1","","92","","14","","6","","2.0","","98.83","","","","-2","","Fog"
"1955-01-09 09:00","1955","01","09","09:00","0.6","","-0.6","","92","","11","","16","","1.6","","98.74","","","","","","Snow Showers,Fog"
"1955-01-09 10:00","1955","01","09","10:00","0.0","","-0.6","","96","","14","","16","","1.2","","98.70","","","","-5","","Snow,Fog"
"1955-01-09 11:00","1955","01","09","11:00","0.0","","-0.6","","96","","14","","21","","1.2","","98.59","","","","-5","","Snow,Fog"
"1955-01-09 12:00","1955","01","09","12:00","0.0","","-0.6","","96","","14","","16","","1.2","","98.45","","","","-5","","Snow,Fog"
"1955-01-09 13:00","1955","01","09","13:00","0.6","","-0.6","","92","","14","","13","","1.2","","98.37","","","","","","Snow,Fog"
"1955-01-09 14:00","1955","01","09","14:00","0.6","","-0.6","","92","","14","","14","","0.8","","98.31","","","","","","Moderate Snow,Fog"
"1955-01-09 15:00","1955","01","09","15:00","0.6","","-0.6","","92","","11","","13","","2.4","","98.30","","","","","","Snow,Fog"
"1955-01-09 16:00","1955","01","09","16:00","0.6","","0.0","","96","","11","","13","","1.2","","98.31","","","","","","Snow,Fog"
"1955-01-09 17:00","1955","01","09","17:00","1.1","","0.6","","96","","9","","3","","1.2","","98.35","","","","","","Snow,Fog"
"1955-01-09 18:00","1955","01","09","18:00","1.1","","0.6","","96","","36","","2","","1.2","","98.40","","","","","","Snow,Fog"
"1955-01-09 19:00","1955","01","09","19:00","1.1","","0.6","","96","","7","","5","","1.2","","98.49","","","","","","Snow,Fog"
"1955-01-09 20:00","1955","01","09","20:00","0.0","","-0.6","","96","","7","","16","","3.2","","98.57","","","","-5","","Snow Grains,Fog"
"1955-01-09 21:00","1955","01","09","21:00","-0.6","","-1.1","","96","","7","","11","","4.8","","98.64","","","","-4","","Snow"
"1955-01-09 22:00","1955","01","09","22:00","-2.2","","-3.9","","88","","7","","11","","19.3","","98.75","","","","-6","","Snow"
"1955-01-09 23:00","1955","01","09","23:00","-2.2","","-4.4","","85","","5","","13","","16.1","","98.83","","","","-7","","Freezing Drizzle,Snow"
"1955-01-10 00:00","1955","01","10","00:00","-3.3","","-4.4","","92","","5","","8","","16.1","","98.93","","","","-7","","Snow"
"1955-01-10 01:00","1955","01","10","01:00","-3.3","","-5.0","","88","","2","","11","","12.9","","99.02","","","","-8","","Snow"
"1955-01-10 02:00","1955","01","10","02:00","-3.3","","-4.4","","92","","36","","8","","8.0","","99.18","","","","-7","","Snow"
"1955-01-10 03:00","1955","01","10","03:00","-3.3","","-5.6","","85","","36","","8","","16.1","","99.28","","","","-7","","Snow"
"1955-01-10 04:00","1955","01","10","04:00","-3.3","","-5.6","","85","","36","","11","","16.1","","99.30","","","","-8","","Snow"
"1955-01-10 05:00","1955","01","10","05:00","-3.9","","-5.6","","88","","36","","14","","19.3","","99.37","","","","-9","","Snow"
"1955-01-10 06:00","1955","01","10","06:00","-3.9","","-5.6","","88","","34","","8","","19.3","","99.51","","","","-7","","Cloudy"
"1955-01-10 07:00","1955","01","10","07:00","-3.3","","-5.6","","85","","34","","8","","19.3","","99.58","","","","-7","","Cloudy"
"1955-01-10 08:00","1955","01","10","08:00","-3.3","","-5.6","","85","","34","","6","","12.9","","99.68","","","","-6","","Cloudy"
"1955-01-10 09:00","1955","01","10","09:00","-3.9","","-5.6","","88","","36","","11","","12.9","","99.65","","","","-8","","Mainly Clear"
"1955-01-10 10:00","1955","01","10","10:00","-3.3","","-5.6","","85","","2","","5","","12.9","","99.68","","","","-5","","Clear"
"1955-01-10 11:00","1955","01","10","11:00","-1.1","","-4.4","","78","","20","","5","","12.9","","99.70","","","","-3","","Clear"
"1955-01-10 12:00","1955","01","10","12:00","-0.6","","-3.3","","81","","23","","8","","9.7","","99.66","","","","-3","","Haze"
"1955-01-10 13:00","1955","01","10","13:00","0.0","","-2.2","","85","","27","","6","","12.9","","99.68","","","","-2","","Mainly Clear"
"1955-01-10 14:00","1955","01","10","14:00","0.0","","-2.8","","82","","23","","3","","9.7","","99.71","","","","-1","","Haze"
"1955-01-10 15:00","1955","01","10","15:00","0.0","","-2.8","","82","","18","","3","","12.9","","99.72","","","","-1","","Clear"
"1955-01-10 16:00","1955","01","10","16:00","-1.1","","-3.3","","85","","18","","3","","12.9","","99.74","","","","-2","","Mostly Cloudy"
"1955-01-10 17:00","1955","01","10","17:00","-1.1","","-2.8","","88","","18","","3","","12.9","","99.79","","","","-2","","Cloudy"
"1955-01-10 18:00","1955","01","10","18:00","-1.1","","-2.8","","88","","18","","2","","12.9","","99.83","","","","-2","","Mostly Cloudy"
"1955-01-10 19:00","1955","01","10","19:00","-3.9","","-5.6","","88","","","","0","","8.0","","99.85","","","","","","Smoke"
"1955-01-10 20:00","1955","01","10","20:00","-3.3","","-5.0","","88","","2","","2","","9.7","","99.85","","","","-4","","Snow,Smoke"
"1955-01-10 21:00","1955","01","10","21:00","-3.9","","-5.0","","92","","","","0","","9.7","","99.87","","","","","","Smoke"
"1955-01-10 22:00","1955","01","10","22:00","-5.6","","-7.2","","88","","36","","10","","6.4","","99.83","","","","-10","","Snow,Fog,Smoke"
"1955-01-10 23:00","1955","01","10","23:00","-6.1","","-8.3","","84","","36","","3","","6.4","","99.77","","","","-8","","Fog,Smoke"
"1955-01-11 00:00","1955","01","11","00:00","-5.0","","-6.7","","88","","36","","6","","4.8","","99.76","","","","-8","","Fog"
"1955-01-11 01:00","1955","01","11","01:00","-4.4","","-6.1","","88","","36","","6","","6.4","","99.76","","","","-7","","Fog"
"1955-01-11 02:00","1955","01","11","02:00","-3.9","","-5.6","","88","","36","","6","","9.7","","99.83","","","","-7","","Fog"
"1955-01-11 03:00","1955","01","11","03:00","-3.9","","-6.1","","85","","36","","10","","11.3","","99.86","","","","-8","","Cloudy"
"1955-01-11 04:00","1955","01","11","04:00","-4.4","","-6.7","","84","","36","","11","","11.3","","99.84","","","","-9","","Mostly Cloudy"
"1955-01-11 05:00","1955","01","11","05:00","-5.0","","-7.8","","81","","36","","13","","19.3","","99.84","","","","-10","","Clear"
"1955-01-11 06:00","1955","01","11","06:00","-6.7","","-8.9","","84","","36","","8","","19.3","","99.90","","","","-11","","Clear"
"1955-01-11 07:00","1955","01","11","07:00","-7.2","","-8.9","","88","","7","","6","","16.1","","99.97","","","","-10","","Cloudy"
"1955-01-11 08:00","1955","01","11","08:00","-5.6","","-7.8","","88","","5","","6","","12.9","","100.09","","","","-8","","Cloudy"
"1955-01-11 09:00","1955","01","11","09:00","-5.6","","-8.3","","81","","5","","8","","12.9","","100.09","","","","-9","","Mainly Clear"
"1955-01-11 10:00","1955","01","11","10:00","-4.4","","-7.2","","81","","2","","8","","16.1","","100.12","","","","-8","","Clear"
"1955-01-11 11:00","1955","01","11","11:00","-4.4","","-6.1","","88","","2","","11","","16.1","","100.09","","","","-9","","Mainly Clear"
"1955-01-11 12:00","1955","01","11","12:00","-3.3","","-6.1","","81","","2","","8","","12.9","","100.05","","","","-7","","Mostly Cloudy"
"1955-01-11 13:00","1955","01","11","13:00","-3.3","","-5.0","","88","","2","","3","","9.7","","100.01","","","","-5","","Haze"
"1955-01-11 14:00","1955","01","11","14:00","-2.8","","-5.0","","85","","9","","3","","8.0","","100.05","","","","-4","","Haze"
"1955-01-11 15:00","1955","01","11","15:00","-2.8","","-4.4","","88","","25","","3","","9.7","","100.08","","","","-4","","Haze"
"1955-01-11 16:00","1955","01","11","16:00","-3.9","","-5.6","","88","","27","","5","","12.9","","100.07","","","","-6","","Mostly Cloudy"
"1955-01-11 17:00","1955","01","11","17:00","-5.6","","-7.2","","88","","27","","3","","9.7","","100.06","","","","-7","","Haze"
"1955-01-11 18:00","1955","01","11","18:00","-6.7","","-8.3","","88","","27","","3","","12.9","","100.06","","","","-8","","Cloudy"
"1955-01-11 19:00","1955","01","11","19:00","-7.2","","-8.3","","92","","","","0","","9.7","","100.08","","","","","","Fog"
"1955-01-11 20:00","1955","01","11","20:00","-5.6","","-7.2","","88","","","","0","","12.9","","100.10","","","","","","Cloudy"
"1955-01-11 21:00","1955","01","11","21:00","-6.7","","-7.8","","92","","36","","8","","9.7","","100.06","","","","-11","","Fog"
"1955-01-11 22:00","1955","01","11","22:00","-6.1","","-7.8","","88","","36","","10","","9.7","","100.05","","","","-11","","Fog"
"1955-01-11 23:00","1955","01","11","23:00","-7.2","","-9.4","","84","","36","","11","","11.3","","99.99","","","","-12","","Mostly Cloudy"
"1955-01-12 00:00","1955","01","12","00:00","-8.3","","-9.4","","92","","","","0","","8.0","","99.88","","","","","","Fog"
"1955-01-12 01:00","1955","01","12","01:00","-8.3","","-9.4","","92","","27","","11","","8.0","","99.86","","","","-14","","Fog"
"1955-01-12 02:00","1955","01","12","02:00","-7.8","","-10.6","","81","","27","","8","","11.3","","99.85","","","","-12","","Mostly Cloudy"
"1955-01-12 03:00","1955","01","12","03:00","-7.8","","-10.6","","81","","27","","10","","16.1","","99.84","","","","-13","","Mostly Cloudy"
"1955-01-12 04:00","1955","01","12","04:00","-7.8","","-10.0","","84","","9","","11","","19.3","","99.73","","","","-13","","Mostly Cloudy"
"1955-01-12 05:00","1955","01","12","05:00","-7.2","","-10.0","","81","","9","","10","","25.0","","99.66","","","","-12","","Mostly Cloudy"
"1955-01-12 06:00","1955","01","12","06:00","-6.7","","-8.9","","84","","9","","11","","25.0","","99.58","","","","-12","","Cloudy"
"1955-01-12 07:00","1955","01","12","07:00","-6.7","","-8.3","","88","","9","","13","","19.3","","99.50","","","","-12","","Cloudy"
"1955-01-12 08:00","1955","01","12","08:00","-6.1","","-8.9","","81","","5","","11","","24.1","","99.54","","","","-11","","Cloudy"
"1955-01-12 09:00","1955","01","12","09:00","-6.7","","-8.3","","88","","5","","14","","11.3","","99.39","","","","-12","","Snow Showers"
"1955-01-12 10:00","1955","01","12","10:00","-5.6","","-8.3","","81","","5","","11","","11.3","","99.34","","","","-10","","Cloudy"
"1955-01-12 11:00","1955","01","12","11:00","-5.0","","-6.7","","88","","5","","8","","9.7","","99.26","","","","-9","","Snow Showers,Haze"
"1955-01-12 12:00","1955","01","12","12:00","-4.4","","-6.1","","88","","5","","13","","6.4","","99.09","","","","-9","","Snow Showers,Haze"
"1955-01-12 13:00","1955","01","12","13:00","-4.4","","-6.1","","88","","5","","11","","6.4","","99.05","","","","-9","","Snow Showers,Haze"
"1955-01-12 14:00","1955","01","12","14:00","-3.9","","-5.6","","88","","5","","10","","12.9","","99.01","","","","-8","","Mostly Cloudy"
"1955-01-12 15:00","1955","01","12","15:00","-3.9","","-5.6","","88","","5","","11","","12.9","","98.97","","","","-8","","Cloudy"
"1955-01-12 16:00","1955","01","12","16:00","-3.3","","-5.6","","85","","5","","5","","12.9","","98.94","","","","-5","","Snow Showers"
"1955-01-12 17:00","1955","01","12","17:00","-4.4","","-5.6","","92","","5","","6","","12.9","","98.93","","","","-7","","Snow Showers"
"1955-01-12 18:00","1955","01","12","18:00","-5.6","","-6.7","","92","","2","","6","","24.1","","98.91","","","","-8","","Snow Showers"
"1955-01-12 19:00","1955","01","12","19:00","-6.1","","-7.2","","92","","2","","6","","24.1","","98.90","","","","-9","","Cloudy"
"1955-01-12 20:00","1955","01","12","20:00","-6.7","","-7.8","","92","","2","","6","","24.1","","98.85","","","","-10","","Mostly Cloudy"
"1955-01-12 21:00","1955","01","12","21:00","-6.7","","-10.0","","77","","2","","6","","24.1","","98.76","","","","-10","","Mostly Cloudy"
"1955-01-12 22:00","1955","01","12","22:00","-7.8","","-10.6","","81","","2","","6","","24.1","","98.72","","","","-11","","Mostly Cloudy"
"1955-01-12 23:00","1955","01","12","23:00","-7.8","","-10.6","","81","","36","","8","","24.1","","98.67","","","","-12","","Mostly Cloudy"
"1955-01-13 00:00","1955","01","13","00:00","-7.8","","-10.6","","81","","2","","6","","24.1","","98.60","","","","-11","","Mostly Cloudy"
"1955-01-13 01:00","1955","01","13","01:00","-8.9","","-13.3","","70","","5","","13","","25.0","","98.57","","","","-15","","Mainly Clear"
"1955-01-13 02:00","1955","01","13","02:00","-10.0","","-13.3","","77","","2","","11","","25.0","","98.54","","","","-16","","Mainly Clear"
"1955-01-13 03:00","1955","01","13","03:00","-10.6","","-13.3","","80","","36","","13","","25.0","","98.52","","","","-17","","Mostly Cloudy"
"1955-01-13 04:00","1955","01","13","04:00","-11.1","","-14.4","","76","","36","","16","","25.0","","98.46","","","","-18","","Mostly Cloudy"
"1955-01-13 05:00","1955","01","13","05:00","-12.2","","-15.0","","80","","36","","16","","25.0","","98.46","","","","-20","","Mostly Cloudy"
"1955-01-13 06:00","1955","01","13","06:00","-12.2","","-15.6","","76","","34","","14","","25.0","","98.48","","","","-19","","Mainly Clear"
"1955-01-13 07:00","1955","01","13","07:00","-12.2","","-15.0","","80","","34","","13","","25.0","","98.54","","","","-19","","Clear"
"1955-01-13 08:00","1955","01","13","08:00","-12.2","","-15.0","","80","","36","","16","","25.0","","98.67","","","","-20","","Mainly Clear"
"1955-01-13 09:00","1955","01","13","09:00","-11.1","","-13.9","","80","","36","","11","","25.0","","98.72","","","","-17","","Mainly Clear"
"1955-01-13 10:00","1955","01","13","10:00","-8.9","","-12.2","","77","","36","","11","","25.0","","98.77","","","","-14","","Mainly Clear"
"1955-01-13 11:00","1955","01","13","11:00","-7.2","","-10.6","","77","","36","","13","","24.1","","98.75","","","","-13","","Mainly Clear"
"1955-01-13 12:00","1955","01","13","12:00","-6.7","","-10.6","","74","","34","","11","","24.1","","98.75","","","","-12","","Mainly Clear"
"1955-01-13 13:00","1955","01","13","13:00","-5.6","","-9.4","","74","","34","","13","","25.0","","98.75","","","","-11","","Clear"
"1955-01-13 14:00","1955","01","13","14:00","-4.4","","-8.3","","74","","34","","18","","25.0","","98.80","","","","-10","","Clear"
"1955-01-13 15:00","1955","01","13","15:00","-3.9","","-7.8","","74","","34","","19","","25.0","","98.85","","","","-10","","Clear"
"1955-01-13 16:00","1955","01","13","16:00","-4.4","","-7.8","","78","","34","","8","","25.0","","98.89","","","","-8","","Clear"
"1955-01-13 17:00","1955","01","13","17:00","-5.6","","-10.0","","71","","29","","10","","25.0","","98.96","","","","-10","","Mainly Clear"
"1955-01-13 18:00","1955","01","13","18:00","-5.6","","-8.3","","81","","32","","11","","25.0","","99.02","","","","-10","","Mainly Clear"
"1955-01-13 19:00","1955","01","13","19:00","-5.6","","-8.3","","81","","29","","8","","25.0","","99.07","","","","-9","","Mostly Cloudy"
"1955-01-13 20:00","1955","01","13","20:00","-6.7","","-8.9","","84","","29","","13","","25.0","","99.08","","","","-12","","Mostly Cloudy"
"1955-01-13 21:00","1955","01","13","21:00","-6.7","","-8.9","","84","","29","","14","","25.0","","99.11","","","","-12","","Mostly Cloudy"
"1955-01-13 22:00","1955","01","13","22:00","-6.7","","-8.9","","84","","32","","3","","25.0","","99.12","","","","-8","","Mostly Cloudy"
"1955-01-13 23:00","1955","01","13","23:00","-6.1","","-7.8","","88","","29","","8","","25.0","","99.15","","","","-10","","Snow Showers"
"1955-01-14 00:00","1955","01","14","00:00","-4.4","","-8.9","","71","","32","","26","","25.0","","99.23","","","","-12","","Mainly Clear"
"1955-01-14 01:00","1955","01","14","01:00","-5.6","","-9.4","","74","","32","","24","","25.0","","99.26","","","","-13","","Clear"
"1955-01-14 02:00","1955","01","14","02:00","-8.3","","-11.7","","77","","32","","10","","25.0","","99.29","","","","-13","","Clear"
"1955-01-14 03:00","1955","01","14","03:00","-8.9","","-11.7","","80","","32","","11","","25.0","","99.29","","","","-14","","Clear"
"1955-01-14 04:00","1955","01","14","04:00","-8.9","","-12.8","","73","","32","","11","","25.0","","99.31","","","","-14","","Snow Showers"
"1955-01-14 05:00","1955","01","14","05:00","-7.2","","-11.1","","74","","34","","16","","25.0","","99.34","","","","-14","","Mainly Clear"
"1955-01-14 06:00","1955","01","14","06:00","-7.8","","-11.7","","74","","32","","16","","25.0","","99.44","","","","-14","","Mostly Cloudy"
"1955-01-14 07:00","1955","01","14","07:00","-7.8","","-11.7","","74","","32","","19","","24.1","","99.56","","","","-15","","Mostly Cloudy"
"1955-01-14 08:00","1955","01","14","08:00","-7.2","","-11.7","","71","","32","","16","","24.1","","99.68","","","","-14","","Mainly Clear"
"1955-01-14 09:00","1955","01","14","09:00","-6.7","","-10.6","","74","","32","","13","","25.0","","99.64","","","","-12","","Mostly Cloudy"
"1955-01-14 10:00","1955","01","14","10:00","-6.1","","-11.1","","68","","34","","13","","25.0","","99.67","","","","-11","","Mainly Clear"
"1955-01-14 11:00","1955","01","14","11:00","-5.6","","-11.1","","65","","36","","8","","25.0","","99.55","","","","-9","","Mainly Clear"
"1955-01-14 12:00","1955","01","14","12:00","-5.0","","-10.6","","65","","36","","8","","25.0","","99.55","","","","-9","","Mostly Cloudy"
"1955-01-14 13:00","1955","01","14","13:00","-3.3","","-8.9","","65","","11","","3","","25.0","","99.49","","","","-5","","Mainly Clear"
"1955-01-14 14:00","1955","01","14","14:00","-3.3","","-7.8","","71","","18","","2","","25.0","","99.49","","","","-4","","Mostly Cloudy"
"1955-01-14 15:00","1955","01","14","15:00","-2.8","","-8.3","","66","","16","","3","","25.0","","99.37","","","","-4","","Mostly Cloudy"
"1955-01-14 16:00","1955","01","14","16:00","-3.3","","-6.1","","81","","14","","5","","25.0","","99.34","","","","-5","","Mostly Cloudy"
"1955-01-14 17:00","1955","01","14","17:00","-3.3","","-6.1","","81","","14","","5","","25.0","","99.27","","","","-5","","Cloudy"
"1955-01-14 18:00","1955","01","14","18:00","-3.9","","-5.6","","88","","20","","5","","25.0","","99.20","","","","-6","","Mostly Cloudy"
"1955-01-14 19:00","1955","01","14","19:00","-3.9","","-5.0","","92","","18","","6","","25.0","","99.14","","","","-7","","Mostly Cloudy"
"1955-01-14 20:00","1955","01","14","20:00","-3.3","","-5.0","","88","","16","","8","","25.0","","99.07","","","","-7","","Cloudy"
"1955-01-14 21:00","1955","01","14","21:00","-2.8","","-5.0","","85","","16","","11","","25.0","","98.98","","","","-7","","Cloudy"
"1955-01-14 22:00","1955","01","14","22:00","-2.8","","-4.4","","88","","18","","13","","3.2","","98.87","","","","-7","","Snow Showers"
"1955-01-14 23:00","1955","01","14","23:00","-2.8","","-4.4","","88","","18","","16","","12.9","","98.72","","","","-8","","Snow Showers"
"1955-01-15 00:00","1955","01","15","00:00","-2.8","","-3.9","","92","","18","","24","","8.0","","98.56","","","","-9","","Snow"
"1955-01-15 01:00","1955","01","15","01:00","-2.8","","-3.9","","92","","18","","19","","2.4","","98.48","","","","-9","","Snow,Blowing Snow"
"1955-01-15 02:00","1955","01","15","02:00","-2.8","","-3.9","","92","","18","","18","","2.4","","98.37","","","","-8","","Snow"
"1955-01-15 03:00","1955","01","15","03:00","-2.2","","-2.8","","96","","18","","26","","1.6","","98.24","","","","-9","","Snow,Blowing Snow"
"1955-01-15 04:00","1955","01","15","04:00","-2.2","","-3.3","","92","","18","","26","","11.3","","98.09","","","","-9","","Snow"
"1955-01-15 05:00","1955","01","15","05:00","-2.2","","-3.3","","92","","18","","23","","2.8","","98.04","","","","-8","","Freezing Drizzle,Fog"
"1955-01-15 06:00","1955","01","15","06:00","-1.7","","-2.8","","92","","18","","21","","9.7","","97.91","","","","-8","","Freezing Drizzle,Snow"
"1955-01-15 07:00","1955","01","15","07:00","-1.1","","-1.7","","90","","18","","23","","6.4","","97.90","","","","-7","","Freezing Drizzle,Snow,Ice Pellets"
"1955-01-15 08:00","1955","01","15","08:00","0.0","","-1.7","","88","","20","","19","","8.0","","97.79","","","","-5","","Fog"
"1955-01-15 09:00","1955","01","15","09:00","0.0","","-1.1","","92","","23","","23","","4.0","","97.77","","","","-6","","Fog"
"1955-01-15 10:00","1955","01","15","10:00","1.1","","-1.7","","82","","23","","24","","8.0","","97.70","","","","","","Haze"
"1955-01-15 11:00","1955","01","15","11:00","1.1","","-1.1","","85","","25","","32","","8.0","","97.64","","","","","","Snow Showers,Haze"
"1955-01-15 12:00","1955","01","15","12:00","1.7","","-1.7","","78","","25","","34","","8.0","","97.61","","","","","","Snow Showers,Haze"
"1955-01-15 13:00","1955","01","15","13:00","1.7","","-1.7","","78","","25","","35","","9.7","","97.56","","","","","","Haze"
"1955-01-15 14:00","1955","01","15","14:00","0.0","","-2.2","","85","","29","","55","","16.1","","97.63","","","","-8","","Mostly Cloudy"
"1955-01-15 15:00","1955","01","15","15:00","-1.1","","-4.4","","78","","27","","40","","16.1","","97.67","","","","-9","","Mostly Cloudy"
"1955-01-15 16:00","1955","01","15","16:00","-2.2","","-6.1","","75","","25","","48","","12.9","","97.78","","","","-11","","Mostly Cloudy"
"1955-01-15 17:00","1955","01","15","17:00","-3.3","","-7.2","","74","","27","","34","","16.1","","97.91","","","","-11","","Mainly Clear"
"1955-01-15 18:00","1955","01","15","18:00","-3.9","","-6.7","","81","","27","","34","","25.0","","98.00","","","","-12","","Snow Showers"
"1955-01-15 19:00","1955","01","15","19:00","-3.9","","-7.2","","78","","27","","32","","25.0","","98.06","","","","-12","","Cloudy"
"1955-01-15 20:00","1955","01","15","20:00","-3.9","","-6.7","","81","","27","","37","","25.0","","98.12","","","","-12","","Cloudy"
"1955-01-15 21:00","1955","01","15","21:00","-3.9","","-7.2","","78","","27","","39","","25.0","","98.18","","","","-13","","Snow Showers"
"1955-01-15 22:00","1955","01","15","22:00","-5.0","","-8.3","","77","","25","","26","","25.0","","98.22","","","","-12","","Snow Showers"
"1955-01-15 23:00","1955","01","15","23:00","-5.0","","-7.8","","81","","25","","35","","25.0","","98.23","","","","-14","","Mostly Cloudy"
"1955-01-16 00:00","1955","01","16","00:00","-4.4","","-8.9","","71","","25","","32","","25.0","","98.29","","","","-12","","Mostly Cloudy"
"1955-01-16 01:00","1955","01","16","01:00","-4.4","","-7.8","","78","","27","","29","","25.0","","98.35","","","","-12","","Cloudy"
"1955-01-16 02:00","1955","01","16","02:00","-4.4","","-7.2","","81","","25","","24","","25.0","","98.36","","","","-11","","Snow Showers"
"1955-01-16 03:00","1955","01","16","03:00","-4.4","","-7.2","","81","","25","","26","","19.3","","98.46","","","","-12","","Snow Showers"
"1955-01-16 04:00","1955","01","16","04:00","-4.4","","-6.7","","84","","25","","24","","19.3","","98.50","","","","-11","","Snow"
"1955-01-16 05:00","1955","01","16","05:00","-4.4","","-6.7","","84","","25","","24","","24.1","","98.54","","","","-11","","Snow"
"1955-01-16 06:00","1955","01","16","06:00","-5.0","","-7.2","","84","","25","","29","","25.0","","98.56","","","","-13","","Snow"
"1955-01-16 07:00","1955","01","16","07:00","-4.4","","-7.8","","78","","25","","32","","24.1","","98.55","","","","-12","","Snow"
"1955-01-16 08:00","1955","01","16","08:00","-4.4","","-7.2","","81","","25","","19","","25.0","","98.61","","","","-11","","Snow"
"1955-01-16 09:00","1955","01","16","09:00","-4.4","","-7.8","","78","","25","","24","","25.0","","98.67","","","","-11","","Cloudy"
"1955-01-16 10:00","1955","01","16","10:00","-3.9","","-7.2","","78","","27","","24","","25.0","","98.71","","","","-11","","Mostly Cloudy"
"1955-01-16 11:00","1955","01","16","11:00","-2.8","","-7.2","","72","","27","","35","","25.0","","98.71","","","","-11","","Mainly Clear"
"1955-01-16 12:00","1955","01","16","12:00","-2.2","","-6.7","","72","","27","","35","","25.0","","98.65","","","","-10","","Mainly Clear"
"1955-01-16 13:00","1955","01","16","13:00","-2.2","","-6.1","","75","","25","","35","","25.0","","98.63","","","","-10","","Mainly Clear"
"1955-01-16 14:00","1955","01","16","14:00","-3.3","","-6.1","","81","","25","","31","","11.3","","98.65","","","","-11","","Snow Showers"
"1955-01-16 15:00","1955","01","16","15:00","-2.8","","-6.7","","75","","27","","23","","25.0","","98.68","","","","-9","","Mainly Clear"
"1955-01-16 16:00","1955","01","16","16:00","-3.3","","-7.8","","71","","27","","24","","25.0","","98.72","","","","-10","","Mainly Clear"
"1955-01-16 17:00","1955","01","16","17:00","-5.6","","-8.9","","77","","27","","11","","25.0","","98.76","","","","-10","","Mainly Clear"
"1955-01-16 18:00","1955","01","16","18:00","-6.1","","-8.9","","81","","27","","13","","25.0","","98.83","","","","-11","","Clear"
"1955-01-16 19:00","1955","01","16","19:00","-6.1","","-7.8","","92","","25","","27","","25.0","","98.84","","","","-14","","Mainly Clear"
"1955-01-16 20:00","1955","01","16","20:00","-5.6","","-8.3","","81","","25","","26","","25.0","","98.87","","","","-13","","Mostly Cloudy"
"1955-01-16 21:00","1955","01","16","21:00","-5.6","","-7.8","","88","","25","","24","","25.0","","98.91","","","","-13","","Cloudy"
"1955-01-16 22:00","1955","01","16","22:00","-5.6","","-7.8","","88","","25","","23","","25.0","","98.93","","","","-13","","Mostly Cloudy"
"1955-01-16 23:00","1955","01","16","23:00","-5.6","","-7.8","","84","","25","","11","","16.1","","98.96","","","","-10","","Snow Showers"
"1955-01-17 00:00","1955","01","17","00:00","-6.1","","-7.2","","92","","23","","11","","12.9","","98.96","","","","-11","","Snow Showers"
"1955-01-17 01:00","1955","01","17","01:00","-6.1","","-7.2","","92","","36","","13","","16.1","","98.97","","","","-11","","Snow"
"1955-01-17 02:00","1955","01","17","02:00","-7.8","","-10.6","","81","","36","","13","","19.3","","99.08","","","","-14","","Snow"
"1955-01-17 03:00","1955","01","17","03:00","-9.4","","-11.7","","84","","36","","16","","24.1","","99.15","","","","-16","","Ice Crystals"
"1955-01-17 04:00","1955","01","17","04:00","-11.1","","-14.4","","76","","36","","14","","25.0","","99.17","","","","-18","","Clear"
"1955-01-17 05:00","1955","01","17","05:00","-12.2","","-15.0","","80","","2","","6","","25.0","","99.22","","","","-16","","Clear"
"1955-01-17 06:00","1955","01","17","06:00","-13.9","","-17.2","","76","","27","","10","","25.0","","99.28","","","","-20","","Clear"
"1955-01-17 07:00","1955","01","17","07:00","-13.9","","-15.6","","87","","27","","2","","25.0","","99.33","","","","-15","","Clear"
"1955-01-17 08:00","1955","01","17","08:00","-12.8","","-15.6","","80","","27","","5","","25.0","","99.41","","","","-16","","Clear"
"1955-01-17 09:00","1955","01","17","09:00","-11.7","","-15.0","","76","","36","","6","","25.0","","99.47","","","","-15","","Clear"
"1955-01-17 10:00","1955","01","17","10:00","-11.1","","-15.0","","73","","34","","8","","25.0","","99.51","","","","-16","","Clear"
"1955-01-17 11:00","1955","01","17","11:00","-7.8","","-15.0","","56","","29","","37","","25.0","","99.51","","","","-18","","Mainly Clear"
"1955-01-17 12:00","1955","01","17","12:00","-7.8","","-12.2","","70","","29","","35","","25.0","","99.49","","","","-17","","Mainly Clear"
"1955-01-17 13:00","1955","01","17","13:00","-7.8","","-13.3","","64","","29","","32","","25.0","","99.49","","","","-17","","Mainly Clear"
"1955-01-17 14:00","1955","01","17","14:00","-6.7","","-11.7","","68","","29","","31","","25.0","","99.55","","","","-15","","Mainly Clear"
"1955-01-17 15:00","1955","01","17","15:00","-7.8","","-12.2","","70","","29","","40","","25.0","","99.62","","","","-18","","Mainly Clear"
"1955-01-17 16:00","1955","01","17","16:00","-8.3","","-12.8","","70","","29","","32","","24.1","","99.64","","","","-18","","Snow Showers"
"1955-01-17 17:00","1955","01","17","17:00","-7.8","","-11.7","","74","","29","","32","","24.1","","99.65","","","","-17","","Snow Showers"
"1955-01-17 18:00","1955","01","17","18:00","-7.2","","-10.6","","77","","32","","29","","25.0","","99.70","","","","-16","","Snow Showers"
"1955-01-17 19:00","1955","01","17","19:00","-6.7","","-8.9","","84","","32","","31","","25.0","","99.72","","","","-15","","Snow Showers"
"1955-01-17 20:00","1955","01","17","20:00","-6.7","","-9.4","","81","","32","","32","","25.0","","99.79","","","","-15","","Snow Showers"
"1955-01-17 21:00","1955","01","17","21:00","-6.7","","-8.9","","84","","32","","29","","16.1","","99.85","","","","-15","","Snow Showers"
"1955-01-17 22:00","1955","01","17","22:00","-7.8","","-10.0","","84","","32","","31","","25.0","","99.90","","","","-17","","Snow Showers"
"1955-01-17 23:00","1955","01","17","23:00","-8.3","","-11.1","","80","","32","","26","","25.0","","99.91","","","","-17","","Mostly Cloudy"
"1955-01-18 00:00","1955","01","18","00:00","-10.0","","-12.8","","80","","36","","13","","25.0","","99.97","","","","-16","","Mostly Cloudy"
"1955-01-18 01:00","1955","01","18","01:00","-11.1","","-12.8","","87","","36","","6","","25.0","","99.97","","","","-15","","Mainly Clear"
"1955-01-18 02:00","1955","01","18","02:00","-11.1","","-12.8","","87","","34","","5","","25.0","","100.04","","","","-14","","Cloudy"
"1955-01-18 03:00","1955","01","18","03:00","-10.6","","-13.3","","80","","32","","5","","25.0","","100.04","","","","-14","","Snow Showers"
"1955-01-18 04:00","1955","01","18","04:00","-10.0","","-12.2","","84","","29","","6","","25.0","","100.06","","","","-14","","Snow Showers"
"1955-01-18 05:00","1955","01","18","05:00","-8.9","","-11.7","","80","","34","","14","","24.1","","100.09","","","","-15","","Snow"
"1955-01-18 06:00","1955","01","18","06:00","-8.9","","-11.1","","84","","32","","24","","24.1","","100.17","","","","-17","","Snow"
"1955-01-18 07:00","1955","01","18","07:00","-7.8","","-10.6","","81","","34","","14","","25.0","","100.18","","","","-14","","Cloudy"
"1955-01-18 08:00","1955","01","18","08:00","-7.8","","-10.0","","84","","36","","14","","25.0","","100.22","","","","-14","","Cloudy"
"1955-01-18 09:00","1955","01","18","09:00","-7.8","","-10.0","","84","","36","","6","","9.7","","100.32","","","","-11","","Snow"
"1955-01-18 10:00","1955","01","18","10:00","-7.2","","-10.0","","81","","36","","10","","16.1","","100.36","","","","-12","","Ice Crystals"
"1955-01-18 11:00","1955","01","18","11:00","-6.1","","-9.4","","77","","36","","10","","25.0","","100.31","","","","-11","","Mainly Clear"
"1955-01-18 12:00","1955","01","18","12:00","-4.4","","-7.8","","78","","34","","23","","25.0","","100.22","","","","-11","","Mainly Clear"
"1955-01-18 13:00","1955","01","18","13:00","-3.9","","-7.8","","74","","34","","24","","24.1","","100.20","","","","-11","","Mostly Cloudy"
"1955-01-18 14:00","1955","01","18","14:00","-3.9","","-7.2","","78","","34","","19","","24.1","","100.22","","","","-10","","Cloudy"
"1955-01-18 15:00","1955","01","18","15:00","-4.4","","-7.2","","81","","34","","19","","24.1","","100.22","","","","-11","","Cloudy"
"1955-01-18 16:00","1955","01","18","16:00","-4.4","","-8.3","","74","","34","","24","","24.1","","100.23","","","","-11","","Mostly Cloudy"
"1955-01-18 17:00","1955","01","18","17:00","-5.6","","-8.3","","81","","34","","26","","24.1","","100.16","","","","-13","","Mostly Cloudy"
"1955-01-18 18:00","1955","01","18","18:00","-5.6","","-8.3","","81","","34","","24","","25.0","","100.14","","","","-13","","Snow Showers"
"1955-01-18 19:00","1955","01","18","19:00","-5.6","","-8.3","","81","","34","","23","","25.0","","100.15","","","","-13","","Cloudy"
"1955-01-18 20:00","1955","01","18","20:00","-5.6","","-7.8","","88","","34","","21","","25.0","","100.09","","","","-12","","Cloudy"
"1955-01-18 21:00","1955","01","18","21:00","-6.1","","-7.8","","92","","36","","21","","25.0","","100.14","","","","-13","","Snow Showers"
"1955-01-18 22:00","1955","01","18","22:00","-7.2","","-10.0","","81","","36","","26","","25.0","","100.12","","","","-15","","Mostly Cloudy"
"1955-01-18 23:00","1955","01","18","23:00","-8.9","","-11.7","","80","","2","","21","","25.0","","100.12","","","","-17","","Mostly Cloudy"
"1955-01-19 00:00","1955","01","19","00:00","-9.4","","-12.2","","80","","2","","18","","25.0","","100.10","","","","-17","","Mostly Cloudy"
"1955-01-19 01:00","1955","01","19","01:00","-9.4","","-11.7","","84","","36","","23","","25.0","","100.03","","","","-18","","Cloudy"
"1955-01-19 02:00","1955","01","19","02:00","-10.0","","-12.8","","80","","34","","21","","25.0","","100.09","","","","-18","","Ice Crystals"
"1955-01-19 03:00","1955","01","19","03:00","-10.6","","-12.8","","84","","36","","32","","25.0","","100.03","","","","-21","","Cloudy"
"1955-01-19 04:00","1955","01","19","04:00","-12.2","","-15.0","","80","","36","","24","","25.0","","99.94","","","","-21","","Mostly Cloudy"
"1955-01-19 05:00","1955","01","19","05:00","-11.7","","-13.9","","84","","36","","27","","25.0","","99.91","","","","-21","","Clear"
"1955-01-19 06:00","1955","01","19","06:00","-11.7","","-14.4","","80","","36","","24","","25.0","","99.96","","","","-21","","Mainly Clear"
"1955-01-19 07:00","1955","01","19","07:00","-11.7","","-13.9","","84","","36","","16","","25.0","","100.01","","","","-19","","Mostly Cloudy"
"1955-01-19 08:00","1955","01","19","08:00","-11.7","","-14.4","","80","","36","","24","","25.0","","100.04","","","","-21","","Mostly Cloudy"
"1955-01-19 09:00","1955","01","19","09:00","-10.6","","-13.9","","76","","36","","26","","25.0","","100.07","","","","-20","","Mostly Cloudy"
"1955-01-19 10:00","1955","01","19","10:00","-10.0","","-13.9","","73","","36","","27","","25.0","","100.10","","","","-19","","Mostly Cloudy"
"1955-01-19 11:00","1955","01","19","11:00","-9.4","","-13.3","","73","","36","","26","","25.0","","100.11","","","","-18","","Mostly Cloudy"
"1955-01-19 12:00","1955","01","19","12:00","-8.3","","-12.2","","74","","36","","27","","25.0","","100.06","","","","-17","","Mostly Cloudy"
"1955-01-19 13:00","1955","01","19","13:00","-7.8","","-12.2","","70","","34","","24","","25.0","","100.05","","","","-16","","Mostly Cloudy"
"1955-01-19 14:00","1955","01","19","14:00","-6.7","","-11.1","","71","","34","","26","","25.0","","100.04","","","","-15","","Mostly Cloudy"
"1955-01-19 15:00","1955","01","19","15:00","-6.7","","-10.6","","74","","34","","27","","25.0","","100.05","","","","-15","","Mostly Cloudy"
"1955-01-19 16:00","1955","01","19","16:00","-6.7","","-11.1","","71","","34","","24","","25.0","","100.10","","","","-14","","Mostly Cloudy"
"1955-01-19 17:00","1955","01","19","17:00","-7.2","","-11.1","","74","","34","","24","","25.0","","100.13","","","","-15","","Mostly Cloudy"
"1955-01-19 18:00","1955","01","19","18:00","-7.8","","-10.6","","81","","34","","23","","25.0","","100.18","","","","-16","","Mainly Clear"
"1955-01-19 19:00","1955","01","19","19:00","-8.3","","-11.1","","80","","34","","16","","25.0","","100.22","","","","-15","","Clear"
"1955-01-19 20:00","1955","01","19","20:00","-9.4","","-11.7","","84","","34","","8","","25.0","","100.29","","","","-14","","Clear"
"1955-01-19 21:00","1955","01","19","21:00","-8.9","","-11.7","","80","","34","","8","","25.0","","100.32","","","","-13","","Clear"
"1955-01-19 22:00","1955","01","19","22:00","-8.9","","-11.7","","80","","32","","8","","25.0","","100.36","","","","-13","","Clear"
"1955-01-19 23:00","1955","01","19","23:00","-10.0","","-12.8","","80","","34","","11","","24.1","","100.44","","","","-16","","Snow Showers"
"1955-01-20 00:00","1955","01","20","00:00","-9.4","","-12.8","","77","","34","","13","","16.1","","100.43","","","","-15","","Snow Showers"
"1955-01-20 01:00","1955","01","20","01:00","-10.0","","-14.4","","70","","36","","18","","25.0","","100.44","","","","-17","","Mainly Clear"
"1955-01-20 02:00","1955","01","20","02:00","-11.1","","-14.4","","76","","34","","11","","25.0","","100.57","","","","-17","","Clear"
"1955-01-20 03:00","1955","01","20","03:00","-12.2","","-15.0","","80","","34","","18","","25.0","","100.63","","","","-20","","Ice Crystals"
"1955-01-20 04:00","1955","01","20","04:00","-12.2","","-15.6","","76","","34","","14","","25.0","","100.61","","","","-19","","Ice Crystals"
"1955-01-20 05:00","1955","01","20","05:00","-12.2","","-15.6","","76","","34","","19","","25.0","","100.77","","","","-20","","Clear"
"1955-01-20 06:00","1955","01","20","06:00","-13.3","","-16.1","","80","","34","","11","","25.0","","100.81","","","","-20","","Clear"
"1955-01-20 07:00","1955","01","20","07:00","-13.3","","-16.7","","76","","32","","11","","25.0","","100.88","","","","-20","","Clear"
"1955-01-20 08:00","1955","01","20","08:00","-14.4","","-17.8","","76","","32","","18","","25.0","","100.95","","","","-23","","Clear"
"1955-01-20 09:00","1955","01","20","09:00","-13.3","","-17.2","","73","","34","","21","","25.0","","100.98","","","","-22","","Clear"
"1955-01-20 10:00","1955","01","20","10:00","-11.7","","-18.3","","58","","34","","26","","25.0","","101.06","","","","-21","","Clear"
"1955-01-20 11:00","1955","01","20","11:00","-10.0","","-18.3","","51","","34","","18","","25.0","","101.08","","","","-17","","Clear"
"1955-01-20 12:00","1955","01","20","12:00","-9.4","","-17.2","","53","","34","","19","","25.0","","100.98","","","","-17","","Clear"
"1955-01-20 13:00","1955","01","20","13:00","-8.9","","-15.0","","61","","34","","18","","25.0","","100.92","","","","-16","","Clear"
"1955-01-20 14:00","1955","01","20","14:00","-7.8","","-14.4","","59","","34","","16","","25.0","","100.97","","","","-14","","Clear"
"1955-01-20 15:00","1955","01","20","15:00","-8.3","","-15.6","","56","","34","","19","","25.0","","100.95","","","","-16","","Clear"
"1955-01-20 16:00","1955","01","20","16:00","-8.9","","-17.2","","51","","34","","11","","25.0","","100.93","","","","-14","","Mainly Clear"
"1955-01-20 17:00","1955","01","20","17:00","-8.9","","-14.4","","64","","34","","8","","25.0","","100.90","","","","-13","","Mainly Clear"
"1955-01-20 18:00","1955","01","20","18:00","-10.6","","-15.6","","67","","34","","5","","25.0","","100.92","","","","-14","","Mainly Clear"
"1955-01-20 19:00","1955","01","20","19:00","-11.1","","-16.1","","67","","34","","8","","25.0","","100.94","","","","-16","","Clear"
"1955-01-20 20:00","1955","01","20","20:00","-11.1","","-15.6","","70","","34","","13","","25.0","","100.93","","","","-18","","Clear"
"1955-01-20 21:00","1955","01","20","21:00","-11.7","","-16.1","","70","","34","","5","","25.0","","100.92","","","","-15","","Clear"
"1955-01-20 22:00","1955","01","20","22:00","-12.8","","-16.1","","76","","27","","5","","25.0","","100.88","","","","-16","","Clear"
"1955-01-20 23:00","1955","01","20","23:00","-13.3","","-17.8","","69","","","","0","","25.0","","100.90","","","","","","Clear"
"1955-01-21 00:00","1955","01","21","00:00","-13.3","","-16.7","","76","","27","","5","","25.0","","100.79","","","","-17","","Clear"
"1955-01-21 01:00","1955","01","21","01:00","-13.9","","-17.2","","76","","34","","8","","25.0","","100.74","","","","-19","","Mostly Cloudy"
"1955-01-21 02:00","1955","01","21","02:00","-13.3","","-16.7","","76","","34","","6","","19.3","","100.70","","","","-17","","Mostly Cloudy"
"1955-01-21 03:00","1955","01","21","03:00","-12.2","","-16.1","","73","","34","","5","","19.3","","100.70","","","","-15","","Cloudy"
"1955-01-21 04:00","1955","01","21","04:00","-11.7","","-16.1","","70","","36","","8","","25.0","","100.61","","","","-16","","Mostly Cloudy"
"1955-01-21 05:00","1955","01","21","05:00","-11.1","","-15.0","","73","","5","","8","","25.0","","100.46","","","","-16","","Mostly Cloudy"
"1955-01-21 06:00","1955","01","21","06:00","-9.4","","-12.2","","80","","5","","6","","24.1","","100.43","","","","-13","","Cloudy"
"1955-01-21 07:00","1955","01","21","07:00","-8.9","","-11.1","","84","","5","","6","","19.3","","100.38","","","","-12","","Cloudy"
"1955-01-21 08:00","1955","01","21","08:00","-5.6","","-7.8","","84","","14","","27","","11.3","","100.28","","","","-13","","Cloudy"
"1955-01-21 09:00","1955","01","21","09:00","-5.0","","-8.9","","74","","11","","27","","16.1","","100.12","","","","-13","","Mostly Cloudy"
"1955-01-21 10:00","1955","01","21","10:00","-4.4","","-9.4","","68","","11","","35","","19.3","","100.07","","","","-13","","Mostly Cloudy"
"1955-01-21 11:00","1955","01","21","11:00","-3.9","","-8.3","","71","","11","","29","","25.0","","99.98","","","","-11","","Mostly Cloudy"
"1955-01-21 12:00","1955","01","21","12:00","-4.4","","-9.4","","68","","9","","32","","25.0","","99.67","","","","-12","","Cloudy"
"1955-01-21 13:00","1955","01","21","13:00","-3.9","","-7.8","","74","","11","","35","","24.1","","99.51","","","","-12","","Cloudy"
"1955-01-21 14:00","1955","01","21","14:00","-3.3","","-7.2","","74","","11","","32","","25.0","","99.26","","","","-11","","Cloudy"
"1955-01-21 15:00","1955","01","21","15:00","-2.8","","-7.8","","68","","11","","27","","19.3","","99.17","","","","-10","","Cloudy"
"1955-01-21 16:00","1955","01","21","16:00","-2.8","","-7.2","","72","","11","","26","","16.1","","98.98","","","","-10","","Snow"
"1955-01-21 17:00","1955","01","21","17:00","-2.8","","-6.7","","75","","14","","19","","12.9","","98.87","","","","-9","","Cloudy"
"1955-01-21 18:00","1955","01","21","18:00","-3.3","","-4.4","","92","","11","","13","","2.4","","98.87","","","","-8","","Snow"
"1955-01-21 19:00","1955","01","21","19:00","-2.8","","-3.9","","92","","11","","21","","1.6","","98.75","","","","-9","","Snow"
"1955-01-21 20:00","1955","01","21","20:00","-2.2","","-2.8","","96","","11","","14","","4.0","","98.65","","","","-7","","Snow,Haze"
"1955-01-21 21:00","1955","01","21","21:00","0.0","","-0.6","","96","","14","","16","","2.4","","98.51","","","","-5","","Snow,Haze"
"1955-01-21 22:00","1955","01","21","22:00","0.6","","-0.6","","92","","16","","18","","2.4","","98.46","","","","","","Snow,Fog"
"1955-01-21 23:00","1955","01","21","23:00","0.6","","0.0","","96","","18","","19","","3.2","","98.41","","","","","","Snow"
"1955-01-22 00:00","1955","01","22","00:00","1.1","","0.6","","96","","18","","16","","4.8","","98.31","","","","","","Snow,Fog"
"1955-01-22 01:00","1955","01","22","01:00","1.1","","0.0","","92","","20","","19","","11.3","","98.25","","","","","","Rain"
"1955-01-22 02:00","1955","01","22","02:00","1.1","","0.0","","92","","20","","14","","24.1","","98.22","","","","","","Cloudy"
"1955-01-22 03:00","1955","01","22","03:00","1.1","","-1.1","","85","","20","","14","","19.3","","98.22","","","","","","Cloudy"
"1955-01-22 04:00","1955","01","22","04:00","0.6","","0.0","","96","","20","","13","","9.7","","98.21","","","","","","Snow Showers"
"1955-01-22 05:00","1955","01","22","05:00","0.6","","-1.1","","88","","23","","14","","9.7","","98.18","","","","","","Snow Showers"
"1955-01-22 06:00","1955","01","22","06:00","0.6","","0.0","","96","","23","","13","","3.6","","98.18","","","","","","Snow Showers"
"1955-01-22 07:00","1955","01","22","07:00","0.0","","-0.6","","96","","25","","18","","16.1","","98.22","","","","-5","","Mostly Cloudy"
"1955-01-22 08:00","1955","01","22","08:00","-2.2","","-4.4","","85","","23","","14","","11.3","","98.28","","","","-7","","Mainly Clear"
"1955-01-22 09:00","1955","01","22","09:00","-2.2","","-4.4","","85","","23","","16","","12.9","","98.28","","","","-7","","Clear"
"1955-01-22 10:00","1955","01","22","10:00","-0.6","","-3.3","","81","","23","","29","","16.1","","98.30","","","","-7","","Mainly Clear"
"1955-01-22 11:00","1955","01","22","11:00","0.0","","-3.3","","78","","25","","26","","19.3","","98.36","","","","-6","","Mainly Clear"
"1955-01-22 12:00","1955","01","22","12:00","0.6","","-4.4","","69","","25","","29","","24.1","","98.33","","","","","","Mainly Clear"
"1955-01-22 13:00","1955","01","22","13:00","0.6","","-4.4","","69","","23","","23","","24.1","","98.25","","","","","","Mainly Clear"
"1955-01-22 14:00","1955","01","22","14:00","0.0","","-4.4","","72","","23","","27","","24.1","","98.27","","","","-6","","Mainly Clear"
"1955-01-22 15:00","1955","01","22","15:00","0.0","","-3.9","","75","","23","","19","","19.3","","98.33","","","","-5","","Mainly Clear"
"1955-01-22 16:00","1955","01","22","16:00","0.0","","-3.9","","75","","23","","24","","19.3","","98.38","","","","-6","","Mostly Cloudy"
"1955-01-22 17:00","1955","01","22","17:00","-1.1","","-4.4","","78","","25","","26","","6.4","","98.42","","","","-7","","Snow Showers"
"1955-01-22 18:00","1955","01","22","18:00","-2.2","","-5.0","","81","","23","","19","","24.1","","98.46","","","","-8","","Mostly Cloudy"
"1955-01-22 19:00","1955","01","22","19:00","-3.3","","-6.1","","81","","23","","16","","24.1","","98.51","","","","-9","","Mostly Cloudy"
"1955-01-22 20:00","1955","01","22","20:00","-4.4","","-7.2","","81","","23","","16","","25.0","","98.57","","","","-10","","Mainly Clear"
"1955-01-22 21:00","1955","01","22","21:00","-5.6","","-8.3","","81","","23","","13","","25.0","","98.59","","","","-11","","Mainly Clear"
"1955-01-22 22:00","1955","01","22","22:00","-5.6","","-8.3","","81","","23","","8","","25.0","","98.60","","","","-9","","Mainly Clear"
"1955-01-22 23:00","1955","01","22","23:00","-7.2","","-10.0","","81","","23","","8","","25.0","","98.67","","","","-11","","Mainly Clear"
"1955-01-23 00:00","1955","01","23","00:00","-7.8","","-10.0","","84","","23","","16","","25.0","","98.72","","","","-14","","Clear"
"1955-01-23 01:00","1955","01","23","01:00","-8.3","","-11.7","","77","","23","","18","","25.0","","98.73","","","","-15","","Clear"
"1955-01-23 02:00","1955","01","23","02:00","-8.9","","-12.2","","77","","23","","16","","25.0","","98.80","","","","-16","","Clear"
"1955-01-23 03:00","1955","01","23","03:00","-9.4","","-12.2","","80","","25","","21","","25.0","","98.86","","","","-17","","Clear"
"1955-01-23 04:00","1955","01","23","04:00","-8.9","","-11.7","","80","","23","","16","","25.0","","98.89","","","","-16","","Mostly Cloudy"
"1955-01-23 05:00","1955","01","23","05:00","-10.0","","-12.2","","84","","23","","11","","25.0","","98.89","","","","-16","","Mainly Clear"
"1955-01-23 06:00","1955","01","23","06:00","-8.9","","-11.7","","80","","23","","13","","25.0","","98.92","","","","-15","","Mainly Clear"
"1955-01-23 07:00","1955","01","23","07:00","-8.9","","-11.1","","84","","23","","11","","19.3","","98.95","","","","-14","","Cloudy"
"1955-01-23 08:00","1955","01","23","08:00","-8.9","","-11.7","","80","","23","","13","","9.7","","98.98","","","","-15","","Haze"
"1955-01-23 09:00","1955","01","23","09:00","-7.8","","-10.6","","81","","23","","26","","11.3","","99.03","","","","-16","","Mostly Cloudy"
"1955-01-23 10:00","1955","01","23","10:00","-6.7","","-9.4","","81","","25","","27","","11.3","","99.06","","","","-15","","Cloudy"
"1955-01-23 11:00","1955","01","23","11:00","-6.1","","-8.9","","81","","25","","29","","12.9","","99.06","","","","-14","","Cloudy"
"1955-01-23 12:00","1955","01","23","12:00","-5.6","","-8.9","","77","","25","","26","","12.9","","99.01","","","","-13","","Cloudy"
"1955-01-23 13:00","1955","01","23","13:00","-5.0","","-7.8","","81","","25","","32","","14.5","","99.00","","","","-13","","Mostly Cloudy"
"1955-01-23 14:00","1955","01","23","14:00","-4.4","","-8.9","","71","","23","","29","","14.5","","99.01","","","","-12","","Mostly Cloudy"
"1955-01-23 15:00","1955","01","23","15:00","-5.6","","-10.0","","71","","23","","32","","16.1","","99.06","","","","-14","","Mainly Clear"
"1955-01-23 16:00","1955","01","23","16:00","-6.1","","-10.0","","74","","23","","32","","16.1","","99.07","","","","-15","","Mostly Cloudy"
"1955-01-23 17:00","1955","01","23","17:00","-6.7","","-10.0","","77","","23","","24","","16.1","","99.08","","","","-14","","Mainly Clear"
"1955-01-23 18:00","1955","01","23","18:00","-7.2","","-11.1","","74","","23","","23","","19.3","","99.12","","","","-15","","Mainly Clear"
"1955-01-23 19:00","1955","01","23","19:00","-8.3","","-12.2","","74","","23","","16","","24.1","","99.12","","","","-15","","Clear"
"1955-01-23 20:00","1955","01","23","20:00","-7.8","","-11.7","","74","","23","","21","","24.1","","99.15","","","","-15","","Clear"
"1955-01-23 21:00","1955","01","23","21:00","-8.3","","-11.7","","77","","23","","32","","24.1","","99.16","","","","-18","","Clear"
"1955-01-23 22:00","1955","01","23","22:00","-8.3","","-11.1","","80","","25","","19","","25.0","","99.15","","","","-16","","Clear"
"1955-01-23 23:00","1955","01","23","23:00","-7.8","","-10.6","","81","","23","","10","","25.0","","99.22","","","","-13","","Mostly Cloudy"
"1955-01-24 00:00","1955","01","24","00:00","-7.8","","-10.6","","81","","25","","19","","25.0","","99.21","","","","-15","","Mostly Cloudy"
"1955-01-24 01:00","1955","01","24","01:00","-8.3","","-11.1","","80","","25","","13","","25.0","","99.18","","","","-14","","Mainly Clear"
"1955-01-24 02:00","1955","01","24","02:00","-9.4","","-11.7","","84","","25","","19","","25.0","","99.20","","","","-17","","Clear"
"1955-01-24 03:00","1955","01","24","03:00","-10.0","","-11.7","","88","","25","","14","","25.0","","99.20","","","","-16","","Clear"
"1955-01-24 04:00","1955","01","24","04:00","-10.0","","-12.8","","80","","23","","18","","25.0","","99.19","","","","-17","","Clear"
"1955-01-24 05:00","1955","01","24","05:00","-11.1","","-13.9","","80","","23","","10","","25.0","","99.21","","","","-17","","Clear"
"1955-01-24 06:00","1955","01","24","06:00","-9.4","","-13.3","","73","","23","","13","","25.0","","99.22","","","","-15","","Clear"
"1955-01-24 07:00","1955","01","24","07:00","-11.1","","-16.1","","67","","23","","10","","24.1","","99.28","","","","-17","","Clear"
"1955-01-24 08:00","1955","01","24","08:00","-10.6","","-12.8","","84","","23","","8","","12.9","","99.33","","","","-15","","Mainly Clear"
"1955-01-24 09:00","1955","01","24","09:00","-8.9","","-12.2","","77","","23","","14","","12.9","","99.40","","","","-15","","Mostly Cloudy"
"1955-01-24 10:00","1955","01","24","10:00","-7.8","","-12.2","","70","","23","","26","","14.5","","99.41","","","","-16","","Mainly Clear"
"1955-01-24 11:00","1955","01","24","11:00","-6.1","","-10.6","","71","","27","","26","","16.1","","99.43","","","","-14","","Mainly Clear"
"1955-01-24 12:00","1955","01","24","12:00","-4.4","","-10.0","","65","","27","","23","","19.3","","99.39","","","","-11","","Mainly Clear"
"1955-01-24 13:00","1955","01","24","13:00","-4.4","","-9.4","","68","","25","","19","","19.3","","99.34","","","","-11","","Mainly Clear"
"1955-01-24 14:00","1955","01","24","14:00","-4.4","","-7.8","","78","","23","","18","","24.1","","99.30","","","","-10","","Mainly Clear"
"1955-01-24 15:00","1955","01","24","15:00","-3.9","","-8.9","","68","","23","","13","","24.1","","99.29","","","","-9","","Mainly Clear"
"1955-01-24 16:00","1955","01","24","16:00","-4.4","","-9.4","","68","","23","","19","","12.9","","99.34","","","","-11","","Mainly Clear"
"1955-01-24 17:00","1955","01","24","17:00","-6.1","","-10.0","","74","","23","","11","","16.1","","99.34","","","","-11","","Mainly Clear"
"1955-01-24 18:00","1955","01","24","18:00","-6.7","","-10.6","","74","","20","","10","","19.3","","99.41","","","","-11","","Mostly Cloudy"
"1955-01-24 19:00","1955","01","24","19:00","-6.7","","-9.4","","81","","20","","8","","19.3","","99.42","","","","-11","","Cloudy"
"1955-01-24 20:00","1955","01","24","20:00","-6.1","","-9.4","","77","","18","","6","","19.3","","99.42","","","","-9","","Cloudy"
"1955-01-24 21:00","1955","01","24","21:00","-6.7","","-9.4","","81","","18","","6","","19.3","","99.41","","","","-10","","Cloudy"
"1955-01-24 22:00","1955","01","24","22:00","-6.1","","-8.9","","81","","20","","3","","19.3","","99.38","","","","-8","","Mostly Cloudy"
"1955-01-24 23:00","1955","01","24","23:00","-6.7","","-9.4","","81","","20","","3","","19.3","","99.40","","","","-8","","Cloudy"
"1955-01-25 00:00","1955","01","25","00:00","-6.7","","-8.9","","84","","","","0","","19.3","","99.40","","","","","","Cloudy"
"1955-01-25 01:00","1955","01","25","01:00","-6.7","","-8.9","","84","","","","0","","19.3","","99.37","","","","","","Cloudy"
"1955-01-25 02:00","1955","01","25","02:00","-6.7","","-8.3","","88","","16","","3","","19.3","","99.27","","","","-8","","Snow Showers"
"1955-01-25 03:00","1955","01","25","03:00","-6.7","","-8.9","","84","","14","","3","","19.3","","99.18","","","","-8","","Cloudy"
"1955-01-25 04:00","1955","01","25","04:00","-7.2","","-9.4","","84","","11","","3","","19.3","","99.12","","","","-9","","Snow Showers"
"1955-01-25 05:00","1955","01","25","05:00","-7.2","","-8.9","","88","","9","","6","","11.3","","99.09","","","","-10","","Snow Showers"
"1955-01-25 06:00","1955","01","25","06:00","-6.7","","-8.3","","88","","7","","6","","9.7","","99.05","","","","-10","","Snow Showers"
"1955-01-25 07:00","1955","01","25","07:00","-6.7","","-7.8","","92","","7","","8","","8.0","","99.01","","","","-11","","Snow Showers"
"1955-01-25 08:00","1955","01","25","08:00","-5.6","","-7.2","","88","","7","","6","","4.8","","98.93","","","","-8","","Fog,Smoke"
"1955-01-25 09:00","1955","01","25","09:00","-2.2","","-6.1","","75","","14","","13","","11.3","","98.93","","","","-7","","Cloudy"
"1955-01-25 10:00","1955","01","25","10:00","-1.7","","-5.6","","75","","14","","19","","12.9","","98.93","","","","-7","","Snow"
"1955-01-25 11:00","1955","01","25","11:00","-2.2","","-6.7","","72","","14","","24","","14.5","","98.91","","","","-9","","Cloudy"
"1955-01-25 12:00","1955","01","25","12:00","-1.7","","-5.6","","75","","14","","19","","11.3","","98.87","","","","-7","","Snow"
"1955-01-25 13:00","1955","01","25","13:00","-2.2","","-4.4","","85","","14","","16","","2.4","","98.80","","","","-7","","Snow,Smoke,Haze"
"1955-01-25 14:00","1955","01","25","14:00","-1.1","","-4.4","","78","","18","","13","","4.8","","98.74","","","","-5","","Snow,Smoke,Haze"
"1955-01-25 15:00","1955","01","25","15:00","-1.7","","-3.9","","85","","16","","10","","2.4","","98.68","","","","-5","","Snow Grains,Smoke,Haze"
"1955-01-25 16:00","1955","01","25","16:00","-1.7","","-3.9","","85","","23","","23","","8.0","","98.77","","","","-8","","Snow,Smoke,Haze"
"1955-01-25 17:00","1955","01","25","17:00","-2.2","","-3.9","","88","","23","","23","","8.0","","98.82","","","","-8","","Snow,Smoke,Haze"
"1955-01-25 18:00","1955","01","25","18:00","-2.2","","-4.4","","85","","23","","27","","9.7","","98.89","","","","-9","","Snow"
"1955-01-25 19:00","1955","01","25","19:00","-2.8","","-5.0","","85","","23","","23","","6.4","","98.89","","","","-9","","Snow"
"1955-01-25 20:00","1955","01","25","20:00","-2.8","","-5.0","","85","","23","","19","","4.0","","98.88","","","","-9","","Snow"
"1955-01-25 21:00","1955","01","25","21:00","-3.3","","-5.6","","85","","25","","35","","12.9","","98.83","","","","-11","","Snow"
"1955-01-25 22:00","1955","01","25","22:00","-3.9","","-6.1","","85","","25","","29","","19.3","","98.94","","","","-11","","Mostly Cloudy"
"1955-01-25 23:00","1955","01","25","23:00","-3.9","","-5.6","","88","","23","","24","","9.7","","99.01","","","","-11","","Snow Showers"
"1955-01-26 00:00","1955","01","26","00:00","-4.4","","-6.7","","84","","25","","39","","16.1","","99.03","","","","-13","","Snow Showers"
"1955-01-26 01:00","1955","01","26","01:00","-5.0","","-7.2","","84","","25","","39","","16.1","","99.05","","","","-14","","Snow Showers"
"1955-01-26 02:00","1955","01","26","02:00","-5.6","","-7.8","","84","","25","","35","","19.3","","99.10","","","","-14","","Snow Showers"
"1955-01-26 03:00","1955","01","26","03:00","-6.1","","-8.3","","84","","25","","32","","19.3","","99.15","","","","-15","","Mainly Clear"
"1955-01-26 04:00","1955","01","26","04:00","-7.2","","-9.4","","84","","25","","32","","19.3","","99.22","","","","-16","","Mainly Clear"
"1955-01-26 05:00","1955","01","26","05:00","-6.7","","-8.9","","84","","25","","29","","19.3","","99.26","","","","-15","","Mainly Clear"
"1955-01-26 06:00","1955","01","26","06:00","-7.8","","-10.6","","81","","25","","24","","12.9","","99.53","","","","-16","","Snow Showers"
"1955-01-26 07:00","1955","01","26","07:00","-7.8","","-10.0","","84","","25","","26","","19.3","","99.41","","","","-16","","Mainly Clear"
"1955-01-26 08:00","1955","01","26","08:00","-7.8","","-10.0","","84","","25","","29","","19.3","","99.33","","","","-17","","Clear"
"1955-01-26 09:00","1955","01","26","09:00","-7.2","","-10.0","","81","","23","","27","","14.5","","99.60","","","","-15","","Mostly Cloudy"
"1955-01-26 10:00","1955","01","26","10:00","-6.7","","-10.0","","77","","23","","24","","19.3","","99.61","","","","-14","","Clear"
"1955-01-26 11:00","1955","01","26","11:00","-6.1","","-10.0","","74","","23","","29","","24.1","","99.62","","","","-14","","Mostly Cloudy"
"1955-01-26 12:00","1955","01","26","12:00","-5.6","","-8.3","","81","","25","","29","","19.3","","99.52","","","","-14","","Mostly Cloudy"
"1955-01-26 13:00","1955","01","26","13:00","-6.1","","-9.4","","77","","25","","29","","24.1","","99.44","","","","-14","","Cloudy"
"1955-01-26 14:00","1955","01","26","14:00","-5.6","","-10.0","","71","","23","","32","","24.1","","99.30","","","","-14","","Cloudy"
"1955-01-26 15:00","1955","01","26","15:00","-6.1","","-8.9","","81","","23","","32","","19.3","","99.21","","","","-15","","Snow"
"1955-01-26 16:00","1955","01","26","16:00","-6.1","","-8.3","","84","","23","","27","","3.2","","99.13","","","","-14","","Snow"
"1955-01-26 17:00","1955","01","26","17:00","-6.7","","-8.3","","88","","23","","27","","3.2","","99.03","","","","-15","","Snow"
"1955-01-26 18:00","1955","01","26","18:00","-6.7","","-8.9","","84","","23","","21","","3.2","","98.96","","","","-14","","Snow"
"1955-01-26 19:00","1955","01","26","19:00","-7.2","","-8.9","","88","","25","","16","","3.2","","98.94","","","","-14","","Snow"
"1955-01-26 20:00","1955","01","26","20:00","-7.2","","-9.4","","84","","25","","24","","16.1","","98.78","","","","-15","","Snow"
"1955-01-26 21:00","1955","01","26","21:00","-7.2","","-9.4","","84","","23","","27","","16.1","","98.72","","","","-15","","Snow"
"1955-01-26 22:00","1955","01","26","22:00","-7.2","","-10.0","","81","","23","","23","","16.1","","98.66","","","","-15","","Snow"
"1955-01-26 23:00","1955","01","26","23:00","-7.8","","-10.0","","84","","23","","24","","25.0","","98.61","","","","-16","","Snow"
"1955-01-27 00:00","1955","01","27","00:00","-8.9","","-11.1","","84","","25","","24","","25.0","","98.60","","","","-17","","Clear"
"1955-01-27 01:00","1955","01","27","01:00","-8.9","","-11.1","","84","","25","","39","","16.1","","98.62","","","","-19","","Mainly Clear"
"1955-01-27 02:00","1955","01","27","02:00","-11.1","","-13.9","","80","","25","","42","","16.1","","98.70","","","","-22","","Mostly Cloudy"
"1955-01-27 03:00","1955","01","27","03:00","-11.7","","-14.4","","80","","25","","39","","16.1","","98.73","","","","-23","","Mainly Clear"
"1955-01-27 04:00","1955","01","27","04:00","-11.1","","-13.3","","84","","25","","51","","2.4","","98.82","","","","-23","","Snow Showers,Blowing Snow"
"1955-01-27 05:00","1955","01","27","05:00","-11.1","","-13.9","","80","","25","","42","","0.8","","98.95","","","","-22","","Moderate Snow Showers,Blowing Snow"
"1955-01-27 06:00","1955","01","27","06:00","-10.6","","-13.3","","80","","27","","35","","1.2","","99.10","","","","-21","","Snow Showers,Blowing Snow"
"1955-01-27 07:00","1955","01","27","07:00","-12.2","","-15.6","","76","","27","","35","","24.1","","99.16","","","","-23","","Mainly Clear"
"1955-01-27 08:00","1955","01","27","08:00","-13.3","","-15.6","","83","","32","","26","","16.1","","99.38","","","","-23","","Mainly Clear"
"1955-01-27 09:00","1955","01","27","09:00","-14.4","","-16.7","","83","","29","","37","","16.1","","99.50","","","","-26","","Mainly Clear"
"1955-01-27 10:00","1955","01","27","10:00","-13.9","","-15.6","","87","","29","","40","","25.0","","99.67","","","","-26","","Mainly Clear"
"1955-01-27 11:00","1955","01","27","11:00","-13.9","","-15.6","","87","","29","","40","","25.0","","99.74","","","","-26","","Mainly Clear"
"1955-01-27 12:00","1955","01","27","12:00","-12.8","","-15.0","","84","","29","","40","","25.0","","99.79","","","","-25","","Mainly Clear"
"1955-01-27 13:00","1955","01","27","13:00","-12.8","","-14.4","","87","","32","","42","","25.0","","99.86","","","","-25","","Mainly Clear"
"1955-01-27 14:00","1955","01","27","14:00","-12.2","","-15.6","","16","","29","","29","","25.0","","99.94","","","","-22","","Mainly Clear"
"1955-01-27 15:00","1955","01","27","15:00","-12.2","","-15.6","","76","","29","","32","","25.0","","99.85","","","","-23","","Mainly Clear"
"1955-01-27 16:00","1955","01","27","16:00","-12.2","","-17.2","","66","","29","","19","","25.0","","99.91","","","","-20","","Mainly Clear"
"1955-01-27 17:00","1955","01","27","17:00","-13.3","","-17.8","","69","","29","","23","","25.0","","99.95","","","","-23","","Clear"
"1955-01-27 18:00","1955","01","27","18:00","-15.6","","-19.4","","72","","29","","13","","25.0","","100.00","","","","-23","","Clear"
"1955-01-27 19:00","1955","01","27","19:00","-16.1","","-21.7","","62","","27","","18","","25.0","","100.04","","","","-25","","Clear"
"1955-01-27 20:00","1955","01","27","20:00","-17.8","","-20.6","","79","","27","","13","","25.0","","100.03","","","","-26","","Clear"
"1955-01-27 21:00","1955","01","27","21:00","-18.3","","-19.4","","91","","23","","11","","25.0","","100.03","","","","-26","","Clear"
"1955-01-27 22:00","1955","01","27","22:00","-17.2","","-20.6","","75","","23","","3","","25.0","","100.00","","","","-20","","Clear"
"1955-01-27 23:00","1955","01","27","23:00","-17.2","","-21.1","","72","","25","","14","","25.0","","99.98","","","","-25","","Clear"
"1955-01-28 00:00","1955","01","28","00:00","-17.2","","-20.6","","75","","23","","8","","25.0","","99.96","","","","-23","","Clear"
"1955-01-28 01:00","1955","01","28","01:00","-16.7","","-19.4","","79","","23","","3","","25.0","","99.93","","","","-19","","Clear"
"1955-01-28 02:00","1955","01","28","02:00","-16.7","","-18.9","","83","","","","0","","25.0","","99.90","","","","","","Clear"
"1955-01-28 03:00","1955","01","28","03:00","-16.1","","-19.4","","75","","23","","2","","25.0","","99.85","","","","-18","","Clear"
"1955-01-28 04:00","1955","01","28","04:00","-17.2","","-20.6","","75","","23","","3","","25.0","","99.79","","","","-20","","Clear"
"1955-01-28 05:00","1955","01","28","05:00","-17.2","","-20.6","","75","","23","","5","","25.0","","99.71","","","","-21","","Clear"
"1955-01-28 06:00","1955","01","28","06:00","-17.2","","-20.6","","75","","","","0","","25.0","","99.67","","","","","","Clear"
"1955-01-28 07:00","1955","01","28","07:00","-16.7","","-20.6","","72","","23","","3","","25.0","","99.66","","","","-19","","Mostly Cloudy"
"1955-01-28 08:00","1955","01","28","08:00","-16.7","","-19.4","","79","","23","","3","","16.1","","99.63","","","","-19","","Mostly Cloudy"
"1955-01-28 09:00","1955","01","28","09:00","-15.0","","-17.8","","79","","23","","10","","11.3","","99.61","","","","-21","","Cloudy"
"1955-01-28 10:00","1955","01","28","10:00","-13.3","","-16.7","","73","","23","","13","","9.7","","99.59","","","","-20","","Snow Showers"
"1955-01-28 11:00","1955","01","28","11:00","-11.1","","-13.9","","80","","25","","14","","6.4","","99.54","","","","-18","","Snow Showers"
"1955-01-28 12:00","1955","01","28","12:00","-10.6","","-14.4","","73","","25","","11","","11.3","","99.43","","","","-16","","Cloudy"
"1955-01-28 13:00","1955","01","28","13:00","-10.0","","-13.9","","73","","25","","14","","9.7","","99.38","","","","-16","","Snow Showers"
"1955-01-28 14:00","1955","01","28","14:00","-10.0","","-13.9","","73","","25","","23","","9.7","","99.27","","","","-18","","Snow Showers"
"1955-01-28 15:00","1955","01","28","15:00","-10.0","","-13.3","","77","","25","","14","","4.8","","99.26","","","","-16","","Snow Showers,Haze"
"1955-01-28 16:00","1955","01","28","16:00","-10.6","","-13.3","","80","","23","","13","","3.6","","99.26","","","","-17","","Snow Showers,Haze"
"1955-01-28 17:00","1955","01","28","17:00","-11.1","","-15.0","","73","","25","","21","","12.9","","99.27","","","","-19","","Mostly Cloudy"
"1955-01-28 18:00","1955","01","28","18:00","-11.7","","-15.6","","73","","25","","16","","25.0","","99.30","","","","-19","","Mainly Clear"
"1955-01-28 19:00","1955","01","28","19:00","-12.8","","-16.1","","76","","25","","14","","24.1","","99.30","","","","-20","","Mainly Clear"
"1955-01-28 20:00","1955","01","28","20:00","-12.8","","-15.6","","80","","23","","11","","24.1","","99.29","","","","-19","","Mostly Cloudy"
"1955-01-28 21:00","1955","01","28","21:00","-13.9","","-16.7","","80","","23","","16","","19.3","","99.27","","","","-22","","Mainly Clear"
"1955-01-28 22:00","1955","01","28","22:00","-14.4","","-17.8","","76","","23","","16","","19.3","","99.25","","","","-22","","Clear"
"1955-01-28 23:00","1955","01","28","23:00","-14.4","","-17.8","","76","","25","","19","","19.3","","99.22","","","","-23","","Clear"
"1955-01-29 00:00","1955","01","29","00:00","-14.4","","-17.8","","76","","25","","24","","25.0","","99.20","","","","-24","","Clear"
"1955-01-29 01:00","1955","01","29","01:00","-14.4","","-17.2","","79","","25","","24","","25.0","","99.18","","","","-24","","Clear"
"1955-01-29 02:00","1955","01","29","02:00","-14.4","","-17.8","","76","","25","","16","","25.0","","99.20","","","","-22","","Clear"
"1955-01-29 03:00","1955","01","29","03:00","-15.0","","-17.8","","79","","25","","16","","25.0","","99.21","","","","-23","","Clear"
"1955-01-29 04:00","1955","01","29","04:00","-14.4","","-17.8","","76","","25","","29","","25.0","","99.18","","","","-25","","Clear"
"1955-01-29 05:00","1955","01","29","05:00","-14.4","","-16.7","","83","","25","","29","","25.0","","99.19","","","","-25","","Clear"
"1955-01-29 06:00","1955","01","29","06:00","-15.0","","-17.8","","79","","25","","23","","25.0","","99.22","","","","-25","","Clear"
"1955-01-29 07:00","1955","01","29","07:00","-14.4","","-17.2","","79","","25","","26","","25.0","","99.23","","","","-25","","Mainly Clear"
"1955-01-29 08:00","1955","01","29","08:00","-14.4","","-17.8","","76","","25","","23","","25.0","","99.31","","","","-24","","Mainly Clear"
"1955-01-29 09:00","1955","01","29","09:00","-12.8","","-15.6","","80","","25","","24","","25.0","","99.36","","","","-22","","Mainly Clear"
"1955-01-29 10:00","1955","01","29","10:00","-11.1","","-14.4","","76","","25","","31","","25.0","","99.36","","","","-21","","Mainly Clear"
"1955-01-29 11:00","1955","01","29","11:00","-9.4","","-13.9","","70","","25","","32","","24.1","","99.40","","","","-19","","Clear"
"1955-01-29 12:00","1955","01","29","12:00","-9.4","","-13.3","","73","","25","","37","","24.1","","99.38","","","","-20","","Mainly Clear"
"1955-01-29 13:00","1955","01","29","13:00","-8.9","","-13.3","","70","","25","","39","","24.1","","99.35","","","","-19","","Mainly Clear"
"1955-01-29 14:00","1955","01","29","14:00","-8.9","","-13.3","","70","","25","","39","","24.1","","99.35","","","","-19","","Mainly Clear"
"1955-01-29 15:00","1955","01","29","15:00","-8.9","","-12.8","","73","","25","","37","","19.3","","99.39","","","","-19","","Mainly Clear"
"1955-01-29 16:00","1955","01","29","16:00","-10.0","","-12.8","","80","","25","","29","","19.3","","99.42","","","","-19","","Clear"
"1955-01-29 17:00","1955","01","29","17:00","-11.1","","-16.1","","67","","25","","32","","25.0","","99.46","","","","-21","","Clear"
"1955-01-29 18:00","1955","01","29","18:00","-12.2","","-16.1","","73","","23","","18","","25.0","","99.51","","","","-20","","Clear"
"1955-01-29 19:00","1955","01","29","19:00","-12.8","","-15.6","","80","","25","","24","","25.0","","99.55","","","","-22","","Clear"
"1955-01-29 20:00","1955","01","29","20:00","-13.3","","-16.7","","76","","25","","19","","25.0","","99.59","","","","-22","","Clear"
"1955-01-29 21:00","1955","01","29","21:00","-13.9","","-16.7","","80","","25","","19","","25.0","","99.61","","","","-23","","Mainly Clear"
"1955-01-29 22:00","1955","01","29","22:00","-14.4","","-17.2","","79","","25","","21","","25.0","","99.57","","","","-24","","Mainly Clear"
"1955-01-29 23:00","1955","01","29","23:00","-13.9","","-16.7","","80","","29","","10","","24.1","","99.59","","","","-20","","Mainly Clear"
"1955-01-30 00:00","1955","01","30","00:00","-14.4","","-17.2","","79","","25","","16","","24.1","","99.58","","","","-22","","Mainly Clear"
"1955-01-30 01:00","1955","01","30","01:00","-13.3","","-16.1","","80","","25","","5","","24.1","","99.59","","","","-17","","Mainly Clear"
"1955-01-30 02:00","1955","01","30","02:00","-13.3","","-16.1","","80","","27","","2","","19.3","","99.62","","","","-15","","Mostly Cloudy"
"1955-01-30 03:00","1955","01","30","03:00","-13.3","","-16.1","","80","","","","0","","16.1","","99.61","","","","","","Mostly Cloudy"
"1955-01-30 04:00","1955","01","30","04:00","-12.8","","-15.6","","80","","","","0","","16.1","","99.60","","","","","","Mostly Cloudy"
"1955-01-30 05:00","1955","01","30","05:00","-12.8","","-15.0","","84","","","","0","","16.1","","99.60","","","","","","Mainly Clear"
"1955-01-30 06:00","1955","01","30","06:00","-13.3","","-16.1","","80","","","","0","","11.3","","99.62","","","","","","Snow Showers"
"1955-01-30 07:00","1955","01","30","07:00","-13.3","","-16.1","","80","","","","0","","3.2","","99.64","","","","","","Snow Showers"
"1955-01-30 08:00","1955","01","30","08:00","-12.8","","-14.4","","87","","","","0","","2.0","","99.67","","","","","","Snow Showers"
"1955-01-30 09:00","1955","01","30","09:00","-12.2","","-14.4","","84","","23","","10","","2.4","","99.72","","","","-18","","Snow"
"1955-01-30 10:00","1955","01","30","10:00","-11.1","","-13.9","","80","","25","","16","","4.8","","99.75","","","","-18","","Snow,Haze"
"1955-01-30 11:00","1955","01","30","11:00","-10.0","","-13.3","","77","","25","","18","","9.7","","99.78","","","","-17","","Haze"
"1955-01-30 12:00","1955","01","30","12:00","-7.8","","-12.8","","67","","27","","16","","12.9","","99.75","","","","-14","","Mainly Clear"
"1955-01-30 13:00","1955","01","30","13:00","-7.2","","-12.2","","68","","27","","18","","12.9","","99.75","","","","-14","","Mostly Cloudy"
"1955-01-30 14:00","1955","01","30","14:00","-6.7","","-10.6","","74","","27","","18","","11.3","","99.75","","","","-13","","Mostly Cloudy"
"1955-01-30 15:00","1955","01","30","15:00","-7.8","","-11.1","","77","","34","","14","","9.7","","99.84","","","","-14","","Snow Showers"
"1955-01-30 16:00","1955","01","30","16:00","-8.9","","-13.3","","70","","36","","21","","12.9","","99.94","","","","-17","","Mainly Clear"
"1955-01-30 17:00","1955","01","30","17:00","-11.1","","-16.1","","67","","36","","13","","16.1","","100.02","","","","-18","","Mainly Clear"
"1955-01-30 18:00","1955","01","30","18:00","-12.8","","-16.7","","73","","34","","13","","25.0","","100.13","","","","-20","","Clear"
"1955-01-30 19:00","1955","01","30","19:00","-12.8","","-16.1","","76","","32","","16","","25.0","","100.21","","","","-20","","Mainly Clear"
"1955-01-30 20:00","1955","01","30","20:00","-12.2","","-16.1","","73","","29","","13","","25.0","","100.30","","","","-19","","Mostly Cloudy"
"1955-01-30 21:00","1955","01","30","21:00","-12.2","","-15.6","","76","","27","","18","","25.0","","100.31","","","","-20","","Mostly Cloudy"
"1955-01-30 22:00","1955","01","30","22:00","-12.2","","-15.6","","76","","25","","13","","25.0","","100.32","","","","-19","","Snow Showers"
"1955-01-30 23:00","1955","01","30","23:00","-13.3","","-16.7","","76","","23","","5","","25.0","","100.29","","","","-17","","Snow"
"1955-01-31 00:00","1955","01","31","00:00","-12.2","","-15.0","","80","","23","","16","","25.0","","100.30","","","","-20","","Snow"
"1955-01-31 01:00","1955","01","31","01:00","-11.1","","-13.3","","84","","23","","23","","24.1","","100.27","","","","-20","","Snow"
"1955-01-31 02:00","1955","01","31","02:00","-10.0","","-12.8","","80","","25","","26","","25.0","","100.29","","","","-19","","Snow"
"1955-01-31 03:00","1955","01","31","03:00","-10.0","","-12.8","","80","","32","","6","","25.0","","100.31","","","","-14","","Snow"
"1955-01-31 04:00","1955","01","31","04:00","-12.8","","-15.6","","80","","36","","6","","25.0","","100.32","","","","-17","","Snow"
"1955-01-31 05:00","1955","01","31","05:00","-12.2","","-15.0","","80","","","","0","","25.0","","100.33","","","","","","Snow"
"1955-01-31 06:00","1955","01","31","06:00","-11.7","","-13.9","","84","","","","0","","25.0","","100.34","","","","","","Snow"
"1955-01-31 07:00","1955","01","31","07:00","-11.7","","-13.9","","84","","36","","3","","24.1","","100.36","","","","-14","","Snow"
"1955-01-31 08:00","1955","01","31","08:00","-9.4","","-12.2","","80","","25","","23","","24.1","","100.37","","","","-18","","Cloudy"
"1955-01-31 09:00","1955","01","31","09:00","-8.9","","-12.2","","77","","23","","21","","25.0","","100.42","","","","-17","","Cloudy"
"1955-01-31 10:00","1955","01","31","10:00","-8.3","","-12.2","","74","","23","","29","","25.0","","100.38","","","","-17","","Cloudy"
"1955-01-31 11:00","1955","01","31","11:00","-7.2","","-11.1","","74","","25","","18","","25.0","","100.34","","","","-14","","Cloudy"
"1955-01-31 12:00","1955","01","31","12:00","-7.2","","-11.1","","74","","23","","19","","25.0","","100.22","","","","-14","","Mostly Cloudy"
"1955-01-31 13:00","1955","01","31","13:00","-7.2","","-11.7","","71","","25","","18","","25.0","","100.13","","","","-14","","Mostly Cloudy"
"1955-01-31 14:00","1955","01","31","14:00","-7.2","","-11.7","","71","","25","","23","","25.0","","100.02","","","","-15","","Cloudy"
"1955-01-31 15:00","1955","01","31","15:00","-7.2","","-11.7","","71","","25","","16","","25.0","","99.98","","","","-14","","Cloudy"
"1955-01-31 16:00","1955","01","31","16:00","-7.2","","-12.2","","68","","23","","6","","25.0","","99.94","","","","-10","","Cloudy"
"1955-01-31 17:00","1955","01","31","17:00","-7.8","","-11.7","","74","","23","","6","","2.4","","99.89","","","","-11","","Snow,Smoke,Haze"
"1955-01-31 18:00","1955","01","31","18:00","-8.3","","-10.0","","88","","20","","3","","2.8","","99.81","","","","-10","","Snow"
"1955-01-31 19:00","1955","01","31","19:00","-7.8","","-10.6","","81","","18","","6","","2.8","","99.73","","","","-11","","Snow"
"1955-01-31 20:00","1955","01","31","20:00","-8.3","","-10.0","","88","","18","","10","","2.8","","99.57","","","","-13","","Snow"
"1955-01-31 21:00","1955","01","31","21:00","-7.8","","-8.9","","92","","18","","6","","1.6","","99.49","","","","-11","","Snow"
"1955-01-31 22:00","1955","01","31","22:00","-7.2","","-8.9","","88","","18","","10","","1.2","","99.39","","","","-12","","Snow"
"1955-01-31 23:00","1955","01","31","23:00","-6.7","","-8.3","","88","","","","0","","1.2","","99.38","","","","","","Snow"
