"Station Name","TORONTO INTL A"
"Province","ONTARIO"
"Latitude","43.68"
"Longitude","-79.63"
"Elevation","173.40"
"Climate Identifier","6158731"
"WMO Identifier","71624"
"TC Identifier","YYZ"
"All times are specified in Local Standard Time (LST). Add 1 hour to adjust for Daylight Saving Time where and when it is observed."

"Legend"
"E","Estimated"
"M","Missing"
"NA","Not Available"

"Date/Time","Year","Month","Day","Time","Temp (°C)","Temp Flag","Dew Point Temp (°C)","Dew Point Temp Flag","Rel Hum (%)","Rel Hum Flag","Wind Dir (10s deg)","Wind Dir Flag","Wind Spd (km/h)","Wind Spd Flag","Visibility (km)","Visibility Flag","Stn Press (kPa)","Stn Press Flag","Hmdx","Hmdx Flag","Wind Chill","Wind Chill Flag","Weather"
"2017-08-01 00:00","2017","08","01","00:00","21.2","","17.6","","80","","33","","16","","24.1","","99.80","","27","","","","NA"
"2017-08-01 01:00","2017","08","01","01:00","20.6","","17.6","","83","","33","","9","","24.1","","99.80","","26","","","","Clear"
"2017-08-01 02:00","2017","08","01","02:00","19.7","","17.5","","87","","33","","12","","24.1","","99.75","","","","","","NA"
"2017-08-01 03:00","2017","08","01","03:00","19.3","","17.3","","88","","32","","9","","24.1","","99.74","","","","","","NA"
"2017-08-01 04:00","2017","08","01","04:00","19.4","","16.5","","83","","35","","9","","24.1","","99.75","","","","","","Clear"
"2017-08-01 05:00","2017","08","01","05:00","19.0","","16.2","","84","","31","","8","","24.1","","99.76","","","","","","NA"
"2017-08-01 06:00","2017","08","01","06:00","19.8","","16.2","","80","","31","","9","","24.1","","99.78","","","","","","NA"
"2017-08-01 07:00","2017","08","01","07:00","21.6","","17.1","","75","","31","","5","","24.1","","99.80","","27","","","","Clear"
"2017-08-01 08:00","2017","08","01","08:00","23.4","","17.7","","70","","4","","5","","24.1","","99.83","","29","","","","NA"
"2017-08-01 09:00","2017","08","01","09:00","24.9","","17.7","","64","","2","","4","","24.1","","99.80","","31","","","","NA"
"2017-08-01 10:00","2017","08","01","10:00","26.4","","17.8","","58","","29","","5","","24.1","","99.79","","32","","","","Mainly Clear"
"2017-08-01 11:00","2017","08","01","11:00","27.6","","17.6","","54","","26","","5","","24.1","","99.76","","33","","","","NA"
"2017-08-01 12:00","2017","08","01","12:00","27.9","","18.8","","57","","15","","14","","24.1","","99.73","","35","","","","NA"
"2017-08-01 13:00","2017","08","01","13:00","28.5","","19.0","","56","","16","","14","","24.1","","99.67","","35","","","","Mainly Clear"
"2017-08-01 14:00","2017","08","01","14:00","26.4","","17.9","","59","","15","","21","","24.1","","99.62","","32","","","","NA"
"2017-08-01 15:00","2017","08","01","15:00","19.2","","18.5","","96","","22","","7","","24.1","","99.63","","","","","","Thunderstorms,Rain Showers"
"2017-08-01 16:00","2017","08","01","16:00","23.2","","20.5","","85","","21","","16","","24.1","","99.60","","31","","","","Cloudy"
"2017-08-01 17:00","2017","08","01","17:00","25.9","","17.8","","61","","33","","11","","24.1","","99.61","","32","","","","NA"
"2017-08-01 18:00","2017","08","01","18:00","23.9","","16.7","","63","","34","","13","","24.1","","99.58","","29","","","","NA"
"2017-08-01 19:00","2017","08","01","19:00","23.1","","17.8","","72","","23","","8","","24.1","","99.59","","29","","","","Mostly Cloudy"
"2017-08-01 20:00","2017","08","01","20:00","23.7","","17.1","","66","","22","","7","","24.1","","99.61","","29","","","","NA"
"2017-08-01 21:00","2017","08","01","21:00","22.8","","17.3","","71","","24","","5","","24.1","","99.62","","28","","","","NA"
"2017-08-01 22:00","2017","08","01","22:00","22.7","","17.4","","72","","25","","5","","24.1","","99.62","","28","","","","Mostly Cloudy"
"2017-08-01 23:00","2017","08","01","23:00","22.4","","17.6","","74","","15","","5","","24.1","","99.61","","28","","","","NA"
"2017-08-02 00:00","2017","08","02","00:00","22.0","","17.6","","76","","17","","4","","24.1","","99.60","","28","","","","NA"
"2017-08-02 01:00","2017","08","02","01:00","21.4","","17.9","","80","","22","","3","","24.1","","99.58","","27","","","","Mainly Clear"
"2017-08-02 02:00","2017","08","02","02:00","20.4","","17.0","","81","","27","","7","","24.1","","99.55","","26","","","","NA"
"2017-08-02 03:00","2017","08","02","03:00","19.6","","16.4","","81","","29","","10","","24.1","","99.54","","","","","","NA"
"2017-08-02 04:00","2017","08","02","04:00","19.6","","16.1","","80","","1","","4","","24.1","","99.57","","","","","","Clear"
"2017-08-02 05:00","2017","08","02","05:00","19.1","","16.3","","84","","14","","3","","24.1","","99.60","","","","","","NA"
"2017-08-02 06:00","2017","08","02","06:00","19.9","","16.9","","82","","16","","6","","24.1","","99.64","","","","","","NA"
"2017-08-02 07:00","2017","08","02","07:00","21.7","","17.1","","75","","18","","5","","24.1","","99.65","","27","","","","Mainly Clear"
"2017-08-02 08:00","2017","08","02","08:00","23.4","","16.9","","67","","23","","10","","24.1","","99.67","","29","","","","NA"
"2017-08-02 09:00","2017","08","02","09:00","25.1","","17.9","","64","","21","","8","","24.1","","99.61","","31","","","","NA"
"2017-08-02 10:00","2017","08","02","10:00","27.1","","18.8","","60","","21","","11","","24.1","","99.61","","34","","","","Mainly Clear"
"2017-08-02 11:00","2017","08","02","11:00","27.6","","17.7","","54","","21","","12","","24.1","","99.60","","33","","","","NA"
"2017-08-02 12:00","2017","08","02","12:00","28.0","","18.0","","54","","20","","14","","24.1","","99.57","","34","","","","NA"
"2017-08-02 13:00","2017","08","02","13:00","28.9","","17.5","","49","","21","","21","","24.1","","99.51","","35","","","","Mostly Cloudy"
"2017-08-02 14:00","2017","08","02","14:00","28.8","","17.3","","49","","23","","21","","24.1","","99.44","","34","","","","NA"
"2017-08-02 15:00","2017","08","02","15:00","28.6","","16.1","","46","","20","","20","","24.1","","99.37","","33","","","","NA"
"2017-08-02 16:00","2017","08","02","16:00","29.0","","16.9","","47","","24","","28","","24.1","","99.37","","34","","","","Mostly Cloudy"
"2017-08-02 17:00","2017","08","02","17:00","24.9","","16.3","","58","","1","","15","","24.1","","99.53","","30","","","","Thunderstorms,Rain Showers"
"2017-08-02 18:00","2017","08","02","18:00","24.9","","17.2","","62","","27","","4","","24.1","","99.53","","30","","","","NA"
"2017-08-02 19:00","2017","08","02","19:00","24.6","","17.1","","62","","8","","8","","24.1","","99.54","","30","","","","Mostly Cloudy"
"2017-08-02 20:00","2017","08","02","20:00","22.9","","18.0","","74","","15","","5","","24.1","","99.57","","29","","","","NA"
"2017-08-02 21:00","2017","08","02","21:00","22.9","","16.8","","68","","11","","8","","24.1","","99.55","","28","","","","NA"
"2017-08-02 22:00","2017","08","02","22:00","22.5","","17.3","","72","","15","","6","","24.1","","99.58","","28","","","","Mostly Cloudy"
"2017-08-02 23:00","2017","08","02","23:00","21.6","","18.2","","81","","14","","6","","24.1","","99.62","","28","","","","NA"
"2017-08-03 00:00","2017","08","03","00:00","21.5","","19.1","","86","","17","","5","","24.1","","99.67","","28","","","","NA"
"2017-08-03 01:00","2017","08","03","01:00","20.2","","17.0","","82","","27","","7","","24.1","","99.66","","25","","","","Mainly Clear"
"2017-08-03 02:00","2017","08","03","02:00","19.1","","15.9","","81","","25","","9","","24.1","","99.64","","","","","","NA"
"2017-08-03 03:00","2017","08","03","03:00","18.9","","16.5","","86","","31","","6","","24.1","","99.63","","","","","","NA"
"2017-08-03 04:00","2017","08","03","04:00","19.2","","17.4","","89","","32","","13","","24.1","","99.62","","","","","","Mainly Clear"
"2017-08-03 05:00","2017","08","03","05:00","19.6","","17.6","","88","","35","","16","","16.1","","99.68","","","","","","NA"
"2017-08-03 06:00","2017","08","03","06:00","18.4","","17.3","","93","","2","","8","","4.0","","99.72","","","","","","Fog"
"2017-08-03 07:00","2017","08","03","07:00","19.8","","18.6","","93","","32","","11","","6.4","","99.75","","","","","","Fog"
"2017-08-03 08:00","2017","08","03","08:00","20.6","","18.8","","90","","1","","9","","8.1","","99.78","","27","","","","Fog"
"2017-08-03 09:00","2017","08","03","09:00","22.5","","19.4","","83","","32","","10","","16.1","","99.80","","30","","","","NA"
"2017-08-03 10:00","2017","08","03","10:00","23.7","","19.3","","76","","31","","10","","16.1","","99.79","","31","","","","Mainly Clear"
"2017-08-03 11:00","2017","08","03","11:00","24.8","","19.5","","72","","29","","7","","16.1","","99.77","","32","","","","NA"
"2017-08-03 12:00","2017","08","03","12:00","25.7","","18.8","","65","","8","","4","","16.1","","99.71","","32","","","","NA"
"2017-08-03 13:00","2017","08","03","13:00","26.8","","19.2","","63","","5","","4","","16.1","","99.60","","34","","","","Mostly Cloudy"
"2017-08-03 14:00","2017","08","03","14:00","26.4","","18.4","","61","","16","","13","","16.1","","99.54","","33","","","","NA"
"2017-08-03 15:00","2017","08","03","15:00","25.6","","18.3","","64","","15","","11","","16.1","","99.52","","32","","","","Thunderstorms"
"2017-08-03 16:00","2017","08","03","16:00","26.2","","19.1","","64","","11","","9","","19.3","","99.46","","33","","","","Mostly Cloudy"
"2017-08-03 17:00","2017","08","03","17:00","26.0","","19.2","","66","","11","","9","","19.3","","99.47","","33","","","","NA"
"2017-08-03 18:00","2017","08","03","18:00","25.1","","19.9","","73","","14","","16","","24.1","","99.46","","33","","","","NA"
"2017-08-03 19:00","2017","08","03","19:00","24.0","","19.4","","75","","11","","21","","24.1","","99.46","","31","","","","Mostly Cloudy"
"2017-08-03 20:00","2017","08","03","20:00","23.1","","18.8","","76","","11","","12","","24.1","","99.46","","30","","","","NA"
"2017-08-03 21:00","2017","08","03","21:00","22.7","","18.6","","77","","12","","17","","24.1","","99.42","","29","","","","NA"
"2017-08-03 22:00","2017","08","03","22:00","22.0","","18.7","","81","","14","","16","","24.1","","99.35","","29","","","","Mostly Cloudy"
"2017-08-03 23:00","2017","08","03","23:00","21.4","","18.8","","85","","15","","10","","24.1","","99.27","","28","","","","NA"
"2017-08-04 00:00","2017","08","04","00:00","21.4","","19.0","","86","","15","","9","","24.1","","99.26","","28","","","","NA"
"2017-08-04 01:00","2017","08","04","01:00","20.9","","17.4","","80","","18","","7","","24.1","","99.24","","26","","","","Rain Showers"
"2017-08-04 02:00","2017","08","04","02:00","20.8","","18.8","","88","","15","","13","","24.1","","99.16","","27","","","","Rain Showers"
"2017-08-04 03:00","2017","08","04","03:00","20.4","","18.2","","87","","18","","11","","24.1","","99.16","","27","","","","NA"
"2017-08-04 04:00","2017","08","04","04:00","20.6","","18.1","","85","","17","","8","","24.1","","99.12","","27","","","","Rain Showers"
"2017-08-04 05:00","2017","08","04","05:00","20.6","","18.6","","88","","18","","11","","16.1","","99.10","","27","","","","NA"
"2017-08-04 06:00","2017","08","04","06:00","20.8","","18.7","","88","","18","","8","","24.1","","99.07","","27","","","","NA"
"2017-08-04 07:00","2017","08","04","07:00","20.7","","19.4","","92","","18","","10","","19.3","","99.05","","28","","","","Mostly Cloudy"
"2017-08-04 08:00","2017","08","04","08:00","21.5","","19.9","","90","","14","","10","","24.1","","99.00","","29","","","","NA"
"2017-08-04 09:00","2017","08","04","09:00","23.6","","20.2","","81","","15","","21","","24.1","","98.99","","31","","","","NA"
"2017-08-04 10:00","2017","08","04","10:00","24.3","","21.2","","83","","15","","16","","24.1","","98.92","","33","","","","Mostly Cloudy"
"2017-08-04 11:00","2017","08","04","11:00","25.1","","20.6","","76","","17","","29","","19.3","","98.86","","33","","","","NA"
"2017-08-04 12:00","2017","08","04","12:00","25.3","","19.5","","70","","18","","23","","24.1","","98.75","","32","","","","NA"
"2017-08-04 13:00","2017","08","04","13:00","25.8","","18.9","","65","","20","","21","","24.1","","98.73","","32","","","","Mostly Cloudy"
"2017-08-04 14:00","2017","08","04","14:00","26.0","","18.7","","64","","18","","24","","24.1","","98.64","","33","","","","NA"
"2017-08-04 15:00","2017","08","04","15:00","23.3","","19.4","","79","","16","","26","","24.1","","98.65","","30","","","","NA"
"2017-08-04 16:00","2017","08","04","16:00","19.1","","17.3","","90","","18","","24","","4.0","","98.76","","","","","","Thunderstorms,Heavy Rain Showers"
"2017-08-04 17:00","2017","08","04","17:00","19.0","","17.8","","93","","16","","10","","16.1","","98.73","","","","","","Rain Showers"
"2017-08-04 18:00","2017","08","04","18:00","19.5","","18.5","","94","","16","","20","","12.9","","98.61","","","","","","NA"
"2017-08-04 19:00","2017","08","04","19:00","20.1","","18.8","","92","","17","","23","","19.3","","98.57","","27","","","","Mostly Cloudy"
"2017-08-04 20:00","2017","08","04","20:00","19.8","","18.1","","90","","19","","13","","24.1","","98.58","","","","","","NA"
"2017-08-04 21:00","2017","08","04","21:00","18.7","","13.2","","70","","24","","26","","24.1","","98.65","","","","","","NA"
"2017-08-04 22:00","2017","08","04","22:00","17.7","","12.2","","70","","23","","18","","24.1","","98.71","","","","","","Mainly Clear"
"2017-08-04 23:00","2017","08","04","23:00","16.6","","11.8","","73","","21","","14","","24.1","","98.73","","","","","","NA"
"2017-08-05 00:00","2017","08","05","00:00","16.1","","12.0","","76","","22","","18","","24.1","","98.73","","","","","","NA"
"2017-08-05 01:00","2017","08","05","01:00","15.7","","11.9","","78","","21","","19","","24.1","","98.71","","","","","","Mainly Clear"
"2017-08-05 02:00","2017","08","05","02:00","15.6","","12.3","","81","","23","","21","","24.1","","98.68","","","","","","NA"
"2017-08-05 03:00","2017","08","05","03:00","15.3","","12.8","","85","","25","","15","","24.1","","98.68","","","","","","NA"
"2017-08-05 04:00","2017","08","05","04:00","15.7","","12.7","","83","","24","","23","","24.1","","98.68","","","","","","Mainly Clear"
"2017-08-05 05:00","2017","08","05","05:00","15.2","","12.5","","84","","24","","24","","24.1","","98.71","","","","","","NA"
"2017-08-05 06:00","2017","08","05","06:00","15.3","","12.5","","83","","24","","19","","24.1","","98.78","","","","","","NA"
"2017-08-05 07:00","2017","08","05","07:00","16.1","","13.2","","83","","24","","27","","24.1","","98.84","","","","","","Mostly Cloudy"
"2017-08-05 08:00","2017","08","05","08:00","16.6","","13.2","","80","","24","","24","","24.1","","98.90","","","","","","NA"
"2017-08-05 09:00","2017","08","05","09:00","18.1","","13.3","","73","","27","","25","","24.1","","98.95","","","","","","NA"
"2017-08-05 10:00","2017","08","05","10:00","18.1","","13.2","","73","","27","","31","","24.1","","99.01","","","","","","Rain Showers"
"2017-08-05 11:00","2017","08","05","11:00","18.1","","13.0","","72","","28","","30","","24.1","","99.06","","","","","","Rain Showers"
"2017-08-05 12:00","2017","08","05","12:00","20.5","","12.5","","59","","28","","37","","24.1","","99.06","","","","","","NA"
"2017-08-05 13:00","2017","08","05","13:00","20.3","","11.8","","58","","28","","44","","24.1","","99.10","","","","","","Mostly Cloudy"
"2017-08-05 14:00","2017","08","05","14:00","20.7","","11.1","","54","","27","","39","","24.1","","99.17","","","","","","NA"
"2017-08-05 15:00","2017","08","05","15:00","20.4","","9.1","","48","","28","","40","","24.1","","99.25","","","","","","NA"
"2017-08-05 16:00","2017","08","05","16:00","20.6","","9.7","","49","","29","","41","","24.1","","99.34","","","","","","Mainly Clear"
"2017-08-05 17:00","2017","08","05","17:00","20.4","","8.0","","44","","31","","45","","24.1","","99.40","","","","","","NA"
"2017-08-05 18:00","2017","08","05","18:00","19.7","","8.1","","46","","30","","29","","24.1","","99.42","","","","","","NA"
"2017-08-05 19:00","2017","08","05","19:00","19.1","","8.4","","49","","30","","29","","24.1","","99.50","","","","","","Mainly Clear"
"2017-08-05 20:00","2017","08","05","20:00","17.4","","9.0","","57","","29","","17","","24.1","","99.53","","","","","","NA"
"2017-08-05 21:00","2017","08","05","21:00","16.2","","9.5","","64","","27","","14","","24.1","","99.55","","","","","","NA"
"2017-08-05 22:00","2017","08","05","22:00","15.8","","9.5","","66","","29","","13","","24.1","","99.57","","","","","","Clear"
"2017-08-05 23:00","2017","08","05","23:00","14.1","","9.6","","74","","23","","9","","24.1","","99.59","","","","","","NA"
"2017-08-06 00:00","2017","08","06","00:00","13.0","","10.1","","82","","25","","14","","24.1","","99.60","","","","","","NA"
"2017-08-06 01:00","2017","08","06","01:00","13.6","","10.2","","80","","30","","7","","24.1","","99.59","","","","","","Clear"
"2017-08-06 02:00","2017","08","06","02:00","12.8","","9.9","","82","","27","","10","","24.1","","99.59","","","","","","NA"
"2017-08-06 03:00","2017","08","06","03:00","12.7","","10.0","","84","","26","","7","","24.1","","99.57","","","","","","NA"
"2017-08-06 04:00","2017","08","06","04:00","12.1","","9.3","","83","","27","","10","","24.1","","99.59","","","","","","Clear"
"2017-08-06 05:00","2017","08","06","05:00","13.3","","9.6","","78","","28","","10","","24.1","","99.65","","","","","","NA"
"2017-08-06 06:00","2017","08","06","06:00","13.3","","10.2","","81","","26","","10","","24.1","","99.67","","","","","","NA"
"2017-08-06 07:00","2017","08","06","07:00","16.0","","11.8","","76","","26","","8","","24.1","","99.67","","","","","","Mainly Clear"
"2017-08-06 08:00","2017","08","06","08:00","18.9","","12.2","","65","","26","","17","","24.1","","99.70","","","","","","NA"
"2017-08-06 09:00","2017","08","06","09:00","21.3","","12.6","","57","","26","","18","","24.1","","99.69","","","","","","NA"
"2017-08-06 10:00","2017","08","06","10:00","22.6","","12.7","","53","","26","","17","","24.1","","99.69","","25","","","","Mainly Clear"
"2017-08-06 11:00","2017","08","06","11:00","23.4","","11.7","","47","","27","","16","","24.1","","99.68","","26","","","","NA"
"2017-08-06 12:00","2017","08","06","12:00","23.8","","11.1","","44","","24","","18","","24.1","","99.65","","26","","","","NA"
"2017-08-06 13:00","2017","08","06","13:00","24.0","","13.2","","50","","24","","17","","24.1","","99.61","","27","","","","Mostly Cloudy"
"2017-08-06 14:00","2017","08","06","14:00","25.1","","11.0","","41","","24","","19","","24.1","","99.57","","27","","","","NA"
"2017-08-06 15:00","2017","08","06","15:00","24.4","","12.0","","45","","24","","20","","24.1","","99.54","","27","","","","NA"
"2017-08-06 16:00","2017","08","06","16:00","24.3","","12.2","","46","","25","","22","","24.1","","99.52","","27","","","","Mostly Cloudy"
"2017-08-06 17:00","2017","08","06","17:00","24.2","","12.4","","47","","23","","25","","24.1","","99.52","","27","","","","NA"
"2017-08-06 18:00","2017","08","06","18:00","23.1","","13.4","","54","","25","","18","","24.1","","99.54","","26","","","","NA"
"2017-08-06 19:00","2017","08","06","19:00","22.8","","12.4","","52","","27","","14","","24.1","","99.56","","25","","","","Mostly Cloudy"
"2017-08-06 20:00","2017","08","06","20:00","21.0","","14.1","","64","","26","","14","","24.1","","99.56","","","","","","NA"
"2017-08-06 21:00","2017","08","06","21:00","20.7","","12.8","","60","","24","","8","","24.1","","99.62","","","","","","NA"
"2017-08-06 22:00","2017","08","06","22:00","20.1","","11.4","","57","","31","","14","","24.1","","99.63","","","","","","Mostly Cloudy"
"2017-08-06 23:00","2017","08","06","23:00","18.8","","12.0","","64","","26","","7","","24.1","","99.63","","","","","","NA"
"2017-08-07 00:00","2017","08","07","00:00","18.2","","11.6","","65","","25","","7","","24.1","","99.62","","","","","","NA"
"2017-08-07 01:00","2017","08","07","01:00","17.4","","12.5","","72","","28","","8","","24.1","","99.61","","","","","","Mostly Cloudy"
"2017-08-07 02:00","2017","08","07","02:00","17.4","","12.3","","72","","26","","4","","24.1","","99.58","","","","","","NA"
"2017-08-07 03:00","2017","08","07","03:00","17.6","","12.6","","72","","1","","9","","24.1","","99.56","","","","","","NA"
"2017-08-07 04:00","2017","08","07","04:00","17.8","","12.2","","70","","15","","3","","24.1","","99.54","","","","","","Mostly Cloudy"
"2017-08-07 05:00","2017","08","07","05:00","18.0","","12.6","","71","","36","","6","","24.1","","99.54","","","","","","NA"
"2017-08-07 06:00","2017","08","07","06:00","17.8","","13.2","","74","","36","","14","","24.1","","99.57","","","","","","NA"
"2017-08-07 07:00","2017","08","07","07:00","17.9","","12.8","","72","","6","","9","","24.1","","99.53","","","","","","Mostly Cloudy"
"2017-08-07 08:00","2017","08","07","08:00","18.7","","13.3","","70","","12","","8","","24.1","","99.57","","","","","","NA"
"2017-08-07 09:00","2017","08","07","09:00","18.9","","13.2","","69","","36","","3","","24.1","","99.57","","","","","","NA"
"2017-08-07 10:00","2017","08","07","10:00","19.5","","13.8","","69","","31","","13","","24.1","","99.56","","","","","","Mostly Cloudy"
"2017-08-07 11:00","2017","08","07","11:00","20.5","","13.8","","65","","36","","16","","24.1","","99.56","","","","","","NA"
"2017-08-07 12:00","2017","08","07","12:00","20.4","","13.7","","65","","36","","14","","24.1","","99.50","","","","","","NA"
"2017-08-07 13:00","2017","08","07","13:00","20.1","","13.7","","66","","2","","10","","24.1","","99.49","","","","","","Mostly Cloudy"
"2017-08-07 14:00","2017","08","07","14:00","20.1","","14.1","","68","","35","","11","","24.1","","99.44","","","","","","NA"
"2017-08-07 15:00","2017","08","07","15:00","20.0","","12.8","","63","","3","","5","","24.1","","99.43","","","","","","NA"
"2017-08-07 16:00","2017","08","07","16:00","20.1","","13.7","","66","","29","","8","","24.1","","99.43","","","","","","Rain Showers"
"2017-08-07 17:00","2017","08","07","17:00","21.4","","14.6","","65","","20","","7","","24.1","","99.40","","25","","","","NA"
"2017-08-07 18:00","2017","08","07","18:00","21.2","","13.6","","61","","36","","2","","24.1","","99.38","","","","","","NA"
"2017-08-07 19:00","2017","08","07","19:00","19.8","","13.1","","65","","27","","6","","24.1","","99.39","","","","","","Mostly Cloudy"
"2017-08-07 20:00","2017","08","07","20:00","18.2","","12.8","","71","","35","","18","","24.1","","99.48","","","","","","NA"
"2017-08-07 21:00","2017","08","07","21:00","17.6","","13.0","","74","","36","","2","","24.1","","99.48","","","","","","NA"
"2017-08-07 22:00","2017","08","07","22:00","16.4","","13.8","","84","","32","","13","","24.1","","99.47","","","","","","Mainly Clear"
"2017-08-07 23:00","2017","08","07","23:00","16.1","","13.5","","85","","27","","7","","24.1","","99.48","","","","","","NA"
"2017-08-08 00:00","2017","08","08","00:00","15.6","","13.9","","89","","31","","10","","24.1","","99.50","","","","","","NA"
"2017-08-08 01:00","2017","08","08","01:00","15.6","","13.7","","88","","32","","16","","24.1","","99.52","","","","","","Mainly Clear"
"2017-08-08 02:00","2017","08","08","02:00","15.1","","13.4","","89","","32","","14","","24.1","","99.52","","","","","","NA"
"2017-08-08 03:00","2017","08","08","03:00","14.6","","12.1","","85","","32","","13","","24.1","","99.55","","","","","","NA"
"2017-08-08 04:00","2017","08","08","04:00","13.8","","11.3","","85","","32","","11","","24.1","","99.56","","","","","","Mainly Clear"
"2017-08-08 05:00","2017","08","08","05:00","13.8","","11.3","","85","","31","","15","","24.1","","99.57","","","","","","NA"
"2017-08-08 06:00","2017","08","08","06:00","14.8","","11.2","","79","","31","","10","","24.1","","99.64","","","","","","NA"
"2017-08-08 07:00","2017","08","08","07:00","16.5","","11.8","","73","","32","","9","","24.1","","99.68","","","","","","Clear"
"2017-08-08 08:00","2017","08","08","08:00","18.5","","12.1","","66","","32","","15","","24.1","","99.70","","","","","","NA"
"2017-08-08 09:00","2017","08","08","09:00","20.2","","12.2","","60","","33","","10","","24.1","","99.72","","","","","","NA"
"2017-08-08 10:00","2017","08","08","10:00","21.7","","11.5","","52","","30","","14","","24.1","","99.72","","","","","","Mainly Clear"
"2017-08-08 11:00","2017","08","08","11:00","22.9","","9.9","","43","","30","","15","","24.1","","99.72","","","","","","NA"
"2017-08-08 12:00","2017","08","08","12:00","24.1","","10.0","","40","","31","","26","","24.1","","99.71","","25","","","","NA"
"2017-08-08 13:00","2017","08","08","13:00","24.7","","11.5","","43","","30","","15","","24.1","","99.68","","27","","","","Mainly Clear"
"2017-08-08 14:00","2017","08","08","14:00","24.4","","12.1","","46","","29","","17","","24.1","","99.67","","27","","","","NA"
"2017-08-08 15:00","2017","08","08","15:00","25.1","","12.7","","46","","32","","14","","24.1","","99.63","","28","","","","NA"
"2017-08-08 16:00","2017","08","08","16:00","24.7","","13.6","","49","","27","","15","","24.1","","99.60","","28","","","","Mostly Cloudy"
"2017-08-08 17:00","2017","08","08","17:00","25.2","","14.3","","50","","27","","14","","24.1","","99.57","","29","","","","NA"
"2017-08-08 18:00","2017","08","08","18:00","25.3","","13.9","","49","","30","","27","","24.1","","99.62","","29","","","","NA"
"2017-08-08 19:00","2017","08","08","19:00","23.6","","14.2","","55","","28","","18","","24.1","","99.65","","27","","","","Mainly Clear"
"2017-08-08 20:00","2017","08","08","20:00","21.9","","14.0","","60","","28","","19","","24.1","","99.71","","25","","","","NA"
"2017-08-08 21:00","2017","08","08","21:00","20.1","","13.9","","67","","26","","12","","24.1","","99.76","","","","","","NA"
"2017-08-08 22:00","2017","08","08","22:00","19.9","","14.1","","69","","26","","18","","24.1","","99.77","","","","","","Mostly Cloudy"
"2017-08-08 23:00","2017","08","08","23:00","18.8","","13.9","","73","","24","","13","","24.1","","99.79","","","","","","NA"
"2017-08-09 00:00","2017","08","09","00:00","18.6","","14.0","","74","","26","","16","","24.1","","99.83","","","","","","NA"
"2017-08-09 01:00","2017","08","09","01:00","17.7","","13.7","","77","","26","","10","","24.1","","99.83","","","","","","Mainly Clear"
"2017-08-09 02:00","2017","08","09","02:00","18.6","","13.8","","73","","27","","17","","24.1","","99.84","","","","","","NA"
"2017-08-09 03:00","2017","08","09","03:00","18.5","","13.6","","73","","29","","16","","24.1","","99.86","","","","","","NA"
"2017-08-09 04:00","2017","08","09","04:00","17.9","","13.3","","74","","30","","13","","24.1","","99.89","","","","","","Clear"
"2017-08-09 05:00","2017","08","09","05:00","16.2","","12.5","","79","","26","","6","","24.1","","99.92","","","","","","NA"
"2017-08-09 06:00","2017","08","09","06:00","17.6","","13.5","","76","","28","","8","","24.1","","99.95","","","","","","NA"
"2017-08-09 07:00","2017","08","09","07:00","19.2","","14.8","","75","","28","","14","","24.1","","99.99","","","","","","Mainly Clear"
"2017-08-09 08:00","2017","08","09","08:00","21.6","","16.0","","70","","28","","7","","24.1","","100.00","","26","","","","NA"
"2017-08-09 09:00","2017","08","09","09:00","24.3","","17.7","","66","","24","","7","","24.1","","100.01","","30","","","","NA"
"2017-08-09 10:00","2017","08","09","10:00","26.2","","17.0","","56","","26","","13","","24.1","","100.03","","31","","","","Mainly Clear"
"2017-08-09 11:00","2017","08","09","11:00","26.9","","14.7","","47","","25","","20","","24.1","","100.02","","31","","","","NA"
"2017-08-09 12:00","2017","08","09","12:00","27.3","","14.0","","43","","30","","16","","24.1","","99.97","","31","","","","NA"
"2017-08-09 13:00","2017","08","09","13:00","26.5","","14.2","","46","","27","","18","","24.1","","99.95","","30","","","","Mostly Cloudy"
"2017-08-09 14:00","2017","08","09","14:00","28.7","","13.9","","40","","26","","26","","24.1","","99.91","","32","","","","NA"
"2017-08-09 15:00","2017","08","09","15:00","28.2","","13.6","","40","","27","","31","","24.1","","99.91","","31","","","","NA"
"2017-08-09 16:00","2017","08","09","16:00","27.1","","14.1","","44","","28","","14","","24.1","","99.91","","31","","","","Mostly Cloudy"
"2017-08-09 17:00","2017","08","09","17:00","27.8","","12.2","","38","","29","","21","","24.1","","99.93","","30","","","","NA"
"2017-08-09 18:00","2017","08","09","18:00","26.9","","12.8","","41","","28","","17","","24.1","","99.95","","30","","","","NA"
"2017-08-09 19:00","2017","08","09","19:00","25.2","","12.3","","44","","29","","15","","24.1","","99.98","","28","","","","Mostly Cloudy"
"2017-08-09 20:00","2017","08","09","20:00","24.9","","12.0","","44","","30","","13","","24.1","","100.03","","27","","","","NA"
"2017-08-09 21:00","2017","08","09","21:00","23.6","","11.8","","47","","29","","7","","24.1","","100.07","","26","","","","NA"
"2017-08-09 22:00","2017","08","09","22:00","22.1","","12.5","","54","","23","","7","","24.1","","100.11","","25","","","","Mainly Clear"
"2017-08-09 23:00","2017","08","09","23:00","21.9","","12.7","","55","","29","","4","","24.1","","100.11","","25","","","","NA"
"2017-08-10 00:00","2017","08","10","00:00","19.9","","13.0","","64","","28","","4","","24.1","","100.11","","","","","","NA"
"2017-08-10 01:00","2017","08","10","01:00","19.1","","14.3","","73","","15","","7","","24.1","","100.12","","","","","","Mainly Clear"
"2017-08-10 02:00","2017","08","10","02:00","19.2","","14.4","","73","","36","","1","","24.1","","100.08","","","","","","NA"
"2017-08-10 03:00","2017","08","10","03:00","19.1","","14.4","","74","","36","","1","","24.1","","100.09","","","","","","NA"
"2017-08-10 04:00","2017","08","10","04:00","18.2","","14.6","","79","","16","","5","","24.1","","100.08","","","","","","Mainly Clear"
"2017-08-10 05:00","2017","08","10","05:00","18.0","","14.3","","79","","36","","2","","24.1","","100.11","","","","","","NA"
"2017-08-10 06:00","2017","08","10","06:00","18.8","","14.6","","76","","18","","3","","24.1","","100.11","","","","","","NA"
"2017-08-10 07:00","2017","08","10","07:00","20.3","","14.8","","70","","18","","4","","24.1","","100.14","","","","","","Mostly Cloudy"
"2017-08-10 08:00","2017","08","10","08:00","21.7","","15.4","","67","","18","","8","","24.1","","100.13","","26","","","","NA"
"2017-08-10 09:00","2017","08","10","09:00","23.0","","16.9","","68","","15","","8","","24.1","","100.11","","28","","","","NA"
"2017-08-10 10:00","2017","08","10","10:00","24.5","","17.3","","64","","15","","11","","24.1","","100.07","","30","","","","Mostly Cloudy"
"2017-08-10 11:00","2017","08","10","11:00","24.3","","18.8","","71","","16","","14","","24.1","","100.06","","31","","","","NA"
"2017-08-10 12:00","2017","08","10","12:00","25.4","","18.7","","66","","15","","17","","24.1","","100.04","","32","","","","NA"
"2017-08-10 13:00","2017","08","10","13:00","26.0","","17.4","","58","","15","","20","","24.1","","100.00","","32","","","","Mostly Cloudy"
"2017-08-10 14:00","2017","08","10","14:00","26.3","","16.3","","54","","15","","21","","24.1","","99.97","","31","","","","NA"
"2017-08-10 15:00","2017","08","10","15:00","26.7","","16.3","","52","","15","","15","","24.1","","99.90","","32","","","","NA"
"2017-08-10 16:00","2017","08","10","16:00","26.1","","14.2","","47","","15","","22","","24.1","","99.86","","30","","","","Mostly Cloudy"
"2017-08-10 17:00","2017","08","10","17:00","24.4","","14.7","","54","","13","","18","","24.1","","99.80","","28","","","","NA"
"2017-08-10 18:00","2017","08","10","18:00","24.1","","16.5","","62","","14","","15","","24.1","","99.78","","29","","","","NA"
"2017-08-10 19:00","2017","08","10","19:00","22.7","","16.3","","67","","12","","16","","24.1","","99.76","","28","","","","Mostly Cloudy"
"2017-08-10 20:00","2017","08","10","20:00","22.2","","15.9","","67","","12","","12","","24.1","","99.77","","27","","","","NA"
"2017-08-10 21:00","2017","08","10","21:00","22.2","","15.8","","67","","16","","4","","24.1","","99.80","","27","","","","NA"
"2017-08-10 22:00","2017","08","10","22:00","21.7","","16.7","","73","","11","","9","","24.1","","99.77","","27","","","","Mostly Cloudy"
"2017-08-10 23:00","2017","08","10","23:00","21.0","","17.3","","79","","14","","5","","24.1","","99.75","","26","","","","NA"
"2017-08-11 00:00","2017","08","11","00:00","20.8","","17.3","","80","","15","","5","","24.1","","99.73","","26","","","","NA"
"2017-08-11 01:00","2017","08","11","01:00","20.6","","16.9","","79","","15","","8","","24.1","","99.67","","26","","","","Mostly Cloudy"
"2017-08-11 02:00","2017","08","11","02:00","19.9","","16.9","","83","","15","","8","","24.1","","99.64","","","","","","NA"
"2017-08-11 03:00","2017","08","11","03:00","19.7","","17.5","","87","","15","","7","","24.1","","99.61","","","","","","NA"
"2017-08-11 04:00","2017","08","11","04:00","19.9","","17.4","","85","","18","","8","","24.1","","99.61","","","","","","Mostly Cloudy"
"2017-08-11 05:00","2017","08","11","05:00","20.6","","17.6","","83","","18","","7","","24.1","","99.63","","26","","","","NA"
"2017-08-11 06:00","2017","08","11","06:00","20.9","","17.8","","82","","17","","8","","16.1","","99.62","","27","","","","NA"
"2017-08-11 07:00","2017","08","11","07:00","21.2","","18.3","","83","","16","","7","","16.1","","99.59","","27","","","","Cloudy"
"2017-08-11 08:00","2017","08","11","08:00","21.9","","18.8","","82","","19","","6","","12.9","","99.58","","29","","","","NA"
"2017-08-11 09:00","2017","08","11","09:00","22.6","","19.0","","80","","19","","10","","12.9","","99.57","","29","","","","NA"
"2017-08-11 10:00","2017","08","11","10:00","23.3","","18.4","","73","","22","","11","","12.9","","99.53","","30","","","","Cloudy"
"2017-08-11 11:00","2017","08","11","11:00","23.2","","19.3","","78","","14","","16","","12.9","","99.51","","30","","","","NA"
"2017-08-11 12:00","2017","08","11","12:00","22.7","","19.2","","81","","16","","17","","12.9","","99.52","","30","","","","Rain Showers"
"2017-08-11 13:00","2017","08","11","13:00","23.5","","19.2","","76","","18","","13","","16.1","","99.46","","30","","","","Cloudy"
"2017-08-11 14:00","2017","08","11","14:00","22.9","","18.9","","78","","17","","13","","19.3","","99.39","","30","","","","NA"
"2017-08-11 15:00","2017","08","11","15:00","24.4","","19.0","","71","","18","","21","","24.1","","99.30","","31","","","","NA"
"2017-08-11 16:00","2017","08","11","16:00","24.5","","18.6","","70","","19","","13","","24.1","","99.27","","31","","","","Mostly Cloudy"
"2017-08-11 17:00","2017","08","11","17:00","22.8","","19.1","","80","","15","","16","","16.1","","99.25","","30","","","","NA"
"2017-08-11 18:00","2017","08","11","18:00","23.5","","16.2","","63","","21","","22","","24.1","","99.19","","28","","","","NA"
"2017-08-11 19:00","2017","08","11","19:00","22.6","","15.9","","66","","22","","14","","24.1","","99.22","","27","","","","Rain Showers"
"2017-08-11 20:00","2017","08","11","20:00","21.8","","16.2","","70","","21","","14","","24.1","","99.17","","27","","","","Rain Showers"
"2017-08-11 21:00","2017","08","11","21:00","20.1","","17.2","","83","","27","","12","","24.1","","99.16","","26","","","","Rain Showers"
"2017-08-11 22:00","2017","08","11","22:00","20.3","","17.6","","84","","17","","8","","24.1","","99.08","","26","","","","Rain Showers"
"2017-08-11 23:00","2017","08","11","23:00","19.4","","17.6","","89","","27","","12","","24.1","","99.04","","","","","","Thunderstorms,Rain Showers"
"2017-08-12 00:00","2017","08","12","00:00","18.6","","16.1","","85","","23","","3","","24.1","","99.06","","","","","","NA"
"2017-08-12 01:00","2017","08","12","01:00","17.2","","15.5","","89","","26","","9","","24.1","","98.99","","","","","","Mainly Clear"
"2017-08-12 02:00","2017","08","12","02:00","17.1","","15.3","","89","","25","","11","","24.1","","98.97","","","","","","NA"
"2017-08-12 03:00","2017","08","12","03:00","16.7","","15.1","","90","","29","","8","","24.1","","98.99","","","","","","NA"
"2017-08-12 04:00","2017","08","12","04:00","17.1","","15.4","","89","","28","","3","","24.1","","98.99","","","","","","Mainly Clear"
"2017-08-12 05:00","2017","08","12","05:00","16.9","","15.5","","91","","28","","9","","24.1","","99.03","","","","","","NA"
"2017-08-12 06:00","2017","08","12","06:00","18.4","","16.8","","90","","32","","13","","16.1","","99.05","","","","","","NA"
"2017-08-12 07:00","2017","08","12","07:00","19.3","","17.1","","87","","27","","8","","16.1","","99.07","","","","","","Mainly Clear"
"2017-08-12 08:00","2017","08","12","08:00","20.1","","16.6","","80","","27","","8","","24.1","","99.07","","25","","","","NA"
"2017-08-12 09:00","2017","08","12","09:00","22.3","","16.8","","71","","32","","10","","24.1","","99.06","","27","","","","NA"
"2017-08-12 10:00","2017","08","12","10:00","23.4","","17.3","","68","","27","","18","","24.1","","99.04","","29","","","","Mostly Cloudy"
"2017-08-12 11:00","2017","08","12","11:00","24.0","","16.2","","62","","27","","16","","24.1","","99.02","","29","","","","NA"
"2017-08-12 12:00","2017","08","12","12:00","23.6","","15.7","","61","","25","","16","","24.1","","99.01","","28","","","","NA"
"2017-08-12 13:00","2017","08","12","13:00","25.2","","16.0","","56","","24","","22","","24.1","","99.00","","30","","","","Mostly Cloudy"
"2017-08-12 14:00","2017","08","12","14:00","22.2","","18.3","","78","","24","","21","","24.1","","99.00","","28","","","","Thunderstorms,Rain Showers"
"2017-08-12 15:00","2017","08","12","15:00","21.0","","16.8","","77","","31","","15","","24.1","","99.06","","26","","","","Rain Showers"
"2017-08-12 16:00","2017","08","12","16:00","22.9","","16.7","","68","","30","","13","","24.1","","99.05","","28","","","","Rain Showers"
"2017-08-12 17:00","2017","08","12","17:00","23.4","","15.1","","59","","33","","30","","24.1","","99.05","","27","","","","NA"
"2017-08-12 18:00","2017","08","12","18:00","22.4","","15.3","","64","","34","","22","","24.1","","99.07","","27","","","","NA"
"2017-08-12 19:00","2017","08","12","19:00","21.0","","14.4","","66","","33","","21","","24.1","","99.15","","25","","","","Mainly Clear"
"2017-08-12 20:00","2017","08","12","20:00","19.9","","14.3","","70","","34","","20","","24.1","","99.21","","","","","","NA"
"2017-08-12 21:00","2017","08","12","21:00","19.4","","14.3","","72","","32","","21","","24.1","","99.28","","","","","","NA"
"2017-08-12 22:00","2017","08","12","22:00","18.5","","14.1","","75","","32","","15","","24.1","","99.32","","","","","","Mainly Clear"
"2017-08-12 23:00","2017","08","12","23:00","18.0","","13.9","","77","","32","","15","","24.1","","99.33","","","","","","NA"
"2017-08-13 00:00","2017","08","13","00:00","17.4","","14.1","","81","","32","","17","","24.1","","99.34","","","","","","NA"
"2017-08-13 01:00","2017","08","13","01:00","17.2","","13.9","","80","","32","","15","","24.1","","99.38","","","","","","Mainly Clear"
"2017-08-13 02:00","2017","08","13","02:00","16.8","","13.6","","81","","32","","17","","24.1","","99.40","","","","","","NA"
"2017-08-13 03:00","2017","08","13","03:00","16.0","","13.1","","82","","33","","10","","24.1","","99.43","","","","","","NA"
"2017-08-13 04:00","2017","08","13","04:00","15.6","","13.0","","84","","32","","9","","24.1","","99.42","","","","","","Clear"
"2017-08-13 05:00","2017","08","13","05:00","13.5","","11.6","","88","","27","","8","","24.1","","99.48","","","","","","NA"
"2017-08-13 06:00","2017","08","13","06:00","14.7","","12.8","","88","","28","","8","","24.1","","99.55","","","","","","NA"
"2017-08-13 07:00","2017","08","13","07:00","17.7","","14.1","","79","","32","","8","","24.1","","99.58","","","","","","Clear"
"2017-08-13 08:00","2017","08","13","08:00","20.0","","14.4","","70","","32","","8","","24.1","","99.58","","","","","","NA"
"2017-08-13 09:00","2017","08","13","09:00","22.4","","14.5","","61","","32","","10","","24.1","","99.61","","26","","","","NA"
"2017-08-13 10:00","2017","08","13","10:00","23.6","","12.9","","51","","33","","10","","24.1","","99.64","","26","","","","Mostly Cloudy"
"2017-08-13 11:00","2017","08","13","11:00","23.0","","13.4","","54","","29","","10","","24.1","","99.66","","26","","","","NA"
"2017-08-13 12:00","2017","08","13","12:00","24.7","","11.2","","42","","29","","6","","24.1","","99.61","","27","","","","NA"
"2017-08-13 13:00","2017","08","13","13:00","25.3","","10.7","","39","","27","","7","","24.1","","99.59","","27","","","","Mostly Cloudy"
"2017-08-13 14:00","2017","08","13","14:00","25.5","","11.9","","42","","19","","8","","24.1","","99.58","","28","","","","NA"
"2017-08-13 15:00","2017","08","13","15:00","24.1","","12.3","","47","","16","","15","","24.1","","99.59","","27","","","","NA"
"2017-08-13 16:00","2017","08","13","16:00","25.0","","13.2","","47","","16","","13","","24.1","","99.59","","28","","","","Mostly Cloudy"
"2017-08-13 17:00","2017","08","13","17:00","25.0","","11.1","","41","","29","","12","","24.1","","99.55","","27","","","","NA"
"2017-08-13 18:00","2017","08","13","18:00","23.8","","11.5","","46","","27","","15","","24.1","","99.53","","26","","","","NA"
"2017-08-13 19:00","2017","08","13","19:00","22.9","","11.8","","49","","27","","14","","24.1","","99.51","","25","","","","Mostly Cloudy"
"2017-08-13 20:00","2017","08","13","20:00","21.5","","12.4","","55","","27","","14","","24.1","","99.54","","","","","","NA"
"2017-08-13 21:00","2017","08","13","21:00","21.2","","12.9","","59","","29","","13","","24.1","","99.57","","","","","","NA"
"2017-08-13 22:00","2017","08","13","22:00","21.1","","13.4","","61","","31","","11","","24.1","","99.61","","","","","","Mostly Cloudy"
"2017-08-13 23:00","2017","08","13","23:00","17.8","","13.1","","74","","27","","10","","24.1","","99.60","","","","","","NA"
"2017-08-14 00:00","2017","08","14","00:00","19.0","","13.7","","71","","31","","8","","24.1","","99.61","","","","","","NA"
"2017-08-14 01:00","2017","08","14","01:00","18.6","","13.3","","71","","31","","8","","24.1","","99.60","","","","","","Mostly Cloudy"
"2017-08-14 02:00","2017","08","14","02:00","18.3","","12.3","","67","","36","","4","","24.1","","99.57","","","","","","NA"
"2017-08-14 03:00","2017","08","14","03:00","17.6","","12.8","","73","","31","","7","","24.1","","99.58","","","","","","NA"
"2017-08-14 04:00","2017","08","14","04:00","17.6","","13.0","","74","","29","","3","","24.1","","99.58","","","","","","Mostly Cloudy"
"2017-08-14 05:00","2017","08","14","05:00","17.6","","12.8","","73","","3","","5","","24.1","","99.57","","","","","","NA"
"2017-08-14 06:00","2017","08","14","06:00","17.2","","13.0","","76","","36","","5","","24.1","","99.56","","","","","","NA"
"2017-08-14 07:00","2017","08","14","07:00","17.7","","13.7","","77","","","","0","","24.1","","99.56","","","","","","Mostly Cloudy"
"2017-08-14 08:00","2017","08","14","08:00","20.1","","12.3","","60","","32","","4","","24.1","","99.58","","","","","","NA"
"2017-08-14 09:00","2017","08","14","09:00","21.8","","13.1","","57","","","","0","","24.1","","99.53","","25","","","","NA"
"2017-08-14 10:00","2017","08","14","10:00","23.5","","12.6","","50","","27","","4","","24.1","","99.48","","26","","","","Mostly Cloudy"
"2017-08-14 11:00","2017","08","14","11:00","24.4","","12.5","","47","","18","","6","","24.1","","99.46","","27","","","","NA"
"2017-08-14 12:00","2017","08","14","12:00","24.1","","12.5","","48","","15","","11","","24.1","","99.41","","27","","","","NA"
"2017-08-14 13:00","2017","08","14","13:00","25.3","","13.6","","48","","16","","8","","24.1","","99.33","","28","","","","Mostly Cloudy"
"2017-08-14 14:00","2017","08","14","14:00","25.4","","13.2","","46","","13","","15","","24.1","","99.30","","28","","","","NA"
"2017-08-14 15:00","2017","08","14","15:00","25.7","","13.2","","45","","16","","13","","24.1","","99.25","","29","","","","NA"
"2017-08-14 16:00","2017","08","14","16:00","25.0","","12.3","","45","","15","","12","","24.1","","99.20","","27","","","","Mostly Cloudy"
"2017-08-14 17:00","2017","08","14","17:00","24.5","","13.1","","48","","13","","15","","24.1","","99.13","","27","","","","NA"
"2017-08-14 18:00","2017","08","14","18:00","22.7","","13.5","","56","","15","","9","","24.1","","99.09","","26","","","","NA"
"2017-08-14 19:00","2017","08","14","19:00","22.0","","12.9","","56","","12","","12","","24.1","","99.07","","25","","","","Mostly Cloudy"
"2017-08-14 20:00","2017","08","14","20:00","21.1","","14.2","","64","","14","","13","","24.1","","99.09","","25","","","","NA"
"2017-08-14 21:00","2017","08","14","21:00","20.5","","15.6","","73","","15","","6","","24.1","","99.07","","25","","","","NA"
"2017-08-14 22:00","2017","08","14","22:00","20.2","","17.1","","82","","14","","4","","24.1","","99.06","","26","","","","Mainly Clear"
"2017-08-14 23:00","2017","08","14","23:00","20.0","","17.8","","87","","36","","2","","24.1","","99.06","","26","","","","NA"
"2017-08-15 00:00","2017","08","15","00:00","19.0","","17.3","","89","","36","","2","","24.1","","99.06","","","","","","NA"
"2017-08-15 01:00","2017","08","15","01:00","18.1","","16.3","","89","","28","","7","","24.1","","99.02","","","","","","Mainly Clear"
"2017-08-15 02:00","2017","08","15","02:00","17.8","","15.3","","85","","28","","8","","24.1","","99.05","","","","","","NA"
"2017-08-15 03:00","2017","08","15","03:00","18.1","","15.9","","87","","23","","11","","19.3","","99.02","","","","","","Rain Showers"
"2017-08-15 04:00","2017","08","15","04:00","17.2","","15.3","","89","","26","","4","","24.1","","99.02","","","","","","Rain Showers"
"2017-08-15 05:00","2017","08","15","05:00","17.3","","14.9","","85","","32","","6","","24.1","","99.01","","","","","","NA"
"2017-08-15 06:00","2017","08","15","06:00","16.8","","14.9","","88","","26","","4","","24.1","","99.00","","","","","","NA"
"2017-08-15 07:00","2017","08","15","07:00","18.6","","15.9","","84","","35","","3","","24.1","","99.02","","","","","","Mostly Cloudy"
"2017-08-15 08:00","2017","08","15","08:00","20.4","","16.6","","78","","36","","10","","24.1","","99.06","","25","","","","NA"
"2017-08-15 09:00","2017","08","15","09:00","21.1","","16.1","","73","","24","","6","","24.1","","99.08","","26","","","","NA"
"2017-08-15 10:00","2017","08","15","10:00","21.5","","17.1","","76","","26","","10","","24.1","","99.08","","27","","","","Mostly Cloudy"
"2017-08-15 11:00","2017","08","15","11:00","23.4","","17.8","","70","","31","","12","","24.1","","99.08","","29","","","","NA"
"2017-08-15 12:00","2017","08","15","12:00","24.7","","17.3","","63","","31","","10","","24.1","","99.06","","30","","","","NA"
"2017-08-15 13:00","2017","08","15","13:00","24.7","","17.5","","64","","34","","16","","24.1","","99.07","","30","","","","Mostly Cloudy"
"2017-08-15 14:00","2017","08","15","14:00","26.0","","17.2","","58","","30","","12","","24.1","","99.08","","31","","","","NA"
"2017-08-15 15:00","2017","08","15","15:00","25.2","","17.6","","63","","36","","8","","24.1","","99.08","","31","","","","NA"
"2017-08-15 16:00","2017","08","15","16:00","27.2","","13.6","","42","","29","","21","","24.1","","99.08","","30","","","","Mostly Cloudy"
"2017-08-15 17:00","2017","08","15","17:00","25.6","","16.4","","56","","35","","25","","24.1","","99.10","","30","","","","NA"
"2017-08-15 18:00","2017","08","15","18:00","25.1","","16.1","","57","","1","","16","","24.1","","99.12","","30","","","","NA"
"2017-08-15 19:00","2017","08","15","19:00","23.6","","14.4","","56","","1","","17","","24.1","","99.20","","27","","","","Mainly Clear"
"2017-08-15 20:00","2017","08","15","20:00","22.2","","14.2","","60","","2","","18","","24.1","","99.23","","26","","","","NA"
"2017-08-15 21:00","2017","08","15","21:00","21.1","","15.2","","69","","35","","17","","24.1","","99.33","","25","","","","NA"
"2017-08-15 22:00","2017","08","15","22:00","20.0","","15.5","","75","","35","","18","","24.1","","99.38","","","","","","Clear"
"2017-08-15 23:00","2017","08","15","23:00","19.2","","15.9","","81","","35","","16","","24.1","","99.43","","","","","","NA"
"2017-08-16 00:00","2017","08","16","00:00","18.4","","15.9","","85","","32","","14","","24.1","","99.46","","","","","","NA"
"2017-08-16 01:00","2017","08","16","01:00","18.2","","14.0","","76","","35","","17","","24.1","","99.45","","","","","","Clear"
"2017-08-16 02:00","2017","08","16","02:00","17.8","","14.2","","79","","35","","16","","24.1","","99.50","","","","","","NA"
"2017-08-16 03:00","2017","08","16","03:00","17.3","","14.2","","82","","35","","16","","24.1","","99.52","","","","","","NA"
"2017-08-16 04:00","2017","08","16","04:00","16.9","","14.2","","84","","35","","17","","24.1","","99.57","","","","","","Clear"
"2017-08-16 05:00","2017","08","16","05:00","16.5","","13.9","","84","","35","","13","","24.1","","99.63","","","","","","NA"
"2017-08-16 06:00","2017","08","16","06:00","16.6","","14.2","","85","","35","","13","","24.1","","99.70","","","","","","NA"
"2017-08-16 07:00","2017","08","16","07:00","17.8","","15.2","","85","","1","","10","","24.1","","99.77","","","","","","Mostly Cloudy"
"2017-08-16 08:00","2017","08","16","08:00","19.6","","15.9","","79","","7","","4","","24.1","","99.83","","","","","","NA"
"2017-08-16 09:00","2017","08","16","09:00","20.2","","15.9","","76","","15","","12","","24.1","","99.84","","25","","","","NA"
"2017-08-16 10:00","2017","08","16","10:00","20.2","","16.0","","76","","11","","13","","24.1","","99.87","","25","","","","Mostly Cloudy"
"2017-08-16 11:00","2017","08","16","11:00","21.6","","16.0","","70","","9","","6","","24.1","","99.86","","26","","","","NA"
"2017-08-16 12:00","2017","08","16","12:00","22.8","","16.2","","66","","13","","13","","24.1","","99.83","","28","","","","NA"
"2017-08-16 13:00","2017","08","16","13:00","23.6","","16.4","","64","","6","","7","","24.1","","99.80","","28","","","","Mostly Cloudy"
"2017-08-16 14:00","2017","08","16","14:00","22.5","","15.5","","64","","16","","15","","24.1","","99.78","","27","","","","NA"
"2017-08-16 15:00","2017","08","16","15:00","22.9","","16.2","","65","","17","","12","","24.1","","99.73","","28","","","","NA"
"2017-08-16 16:00","2017","08","16","16:00","22.2","","15.6","","66","","15","","15","","24.1","","99.73","","27","","","","Mainly Clear"
"2017-08-16 17:00","2017","08","16","17:00","22.3","","15.4","","65","","15","","13","","24.1","","99.70","","27","","","","NA"
"2017-08-16 18:00","2017","08","16","18:00","21.9","","15.1","","65","","14","","13","","24.1","","99.66","","26","","","","NA"
"2017-08-16 19:00","2017","08","16","19:00","20.9","","15.1","","69","","13","","9","","24.1","","99.65","","25","","","","Mainly Clear"
"2017-08-16 20:00","2017","08","16","20:00","19.9","","15.1","","73","","16","","7","","24.1","","99.69","","","","","","NA"
"2017-08-16 21:00","2017","08","16","21:00","19.5","","15.1","","75","","12","","8","","24.1","","99.72","","","","","","NA"
"2017-08-16 22:00","2017","08","16","22:00","19.6","","15.4","","76","","11","","4","","24.1","","99.75","","","","","","Mainly Clear"
"2017-08-16 23:00","2017","08","16","23:00","19.5","","15.4","","77","","6","","5","","24.1","","99.75","","","","","","NA"
"2017-08-17 00:00","2017","08","17","00:00","19.2","","15.5","","79","","8","","6","","24.1","","99.73","","","","","","NA"
"2017-08-17 01:00","2017","08","17","01:00","18.5","","15.5","","82","","9","","7","","24.1","","99.71","","","","","","Mainly Clear"
"2017-08-17 02:00","2017","08","17","02:00","18.3","","16.0","","86","","9","","5","","24.1","","99.66","","","","","","NA"
"2017-08-17 03:00","2017","08","17","03:00","18.1","","16.1","","88","","9","","8","","24.1","","99.61","","","","","","NA"
"2017-08-17 04:00","2017","08","17","04:00","17.8","","15.8","","88","","9","","5","","24.1","","99.58","","","","","","Mainly Clear"
"2017-08-17 05:00","2017","08","17","05:00","17.5","","15.6","","89","","5","","5","","24.1","","99.60","","","","","","NA"
"2017-08-17 06:00","2017","08","17","06:00","17.5","","15.2","","86","","5","","6","","24.1","","99.58","","","","","","NA"
"2017-08-17 07:00","2017","08","17","07:00","19.2","","15.8","","80","","10","","10","","24.1","","99.59","","","","","","Mostly Cloudy"
"2017-08-17 08:00","2017","08","17","08:00","21.2","","17.4","","79","","12","","14","","24.1","","99.54","","27","","","","NA"
"2017-08-17 09:00","2017","08","17","09:00","23.0","","17.0","","69","","11","","16","","24.1","","99.51","","28","","","","NA"
"2017-08-17 10:00","2017","08","17","10:00","23.5","","16.1","","63","","11","","20","","24.1","","99.48","","28","","","","Mostly Cloudy"
"2017-08-17 11:00","2017","08","17","11:00","22.7","","15.1","","62","","12","","21","","24.1","","99.43","","27","","","","Rain Showers"
"2017-08-17 12:00","2017","08","17","12:00","23.1","","16.2","","65","","10","","19","","24.1","","99.35","","28","","","","Rain Showers"
"2017-08-17 13:00","2017","08","17","13:00","22.0","","16.0","","68","","10","","21","","24.1","","99.26","","27","","","","Rain Showers"
"2017-08-17 14:00","2017","08","17","14:00","20.9","","15.9","","73","","8","","13","","19.3","","99.24","","25","","","","Rain Showers"
"2017-08-17 15:00","2017","08","17","15:00","19.2","","16.6","","85","","8","","17","","12.9","","99.15","","","","","","Rain Showers"
"2017-08-17 16:00","2017","08","17","16:00","18.6","","16.9","","90","","8","","13","","9.7","","99.07","","","","","","Moderate Rain Showers,Fog"
"2017-08-17 17:00","2017","08","17","17:00","18.4","","17.2","","93","","9","","14","","16.1","","99.01","","","","","","Rain Showers"
"2017-08-17 18:00","2017","08","17","18:00","18.7","","17.4","","92","","9","","15","","24.1","","98.93","","","","","","Rain Showers"
"2017-08-17 19:00","2017","08","17","19:00","19.1","","17.5","","90","","9","","15","","24.1","","98.84","","","","","","Mostly Cloudy"
"2017-08-17 20:00","2017","08","17","20:00","19.4","","17.9","","91","","13","","8","","24.1","","98.82","","","","","","NA"
"2017-08-17 21:00","2017","08","17","21:00","19.5","","18.6","","94","","10","","9","","9.7","","98.76","","","","","","Fog"
"2017-08-17 22:00","2017","08","17","22:00","19.9","","19.1","","95","","13","","4","","9.7","","98.71","","","","","","Fog"
"2017-08-17 23:00","2017","08","17","23:00","20.7","","19.9","","95","","11","","4","","6.4","","98.63","","28","","","","Fog"
"2017-08-18 00:00","2017","08","18","00:00","21.1","","20.5","","96","","17","","4","","4.8","","98.57","","29","","","","Fog"
"2017-08-18 01:00","2017","08","18","01:00","21.4","","20.8","","96","","19","","8","","4.8","","98.52","","30","","","","Fog"
"2017-08-18 02:00","2017","08","18","02:00","21.3","","20.6","","96","","20","","11","","8.1","","98.49","","29","","","","Fog"
"2017-08-18 03:00","2017","08","18","03:00","21.1","","20.4","","96","","23","","8","","9.7","","98.47","","29","","","","Fog"
"2017-08-18 04:00","2017","08","18","04:00","20.6","","20.0","","96","","14","","7","","9.7","","98.47","","28","","","","Fog"
"2017-08-18 05:00","2017","08","18","05:00","20.9","","20.3","","97","","20","","6","","9.7","","98.52","","29","","","","Fog"
"2017-08-18 06:00","2017","08","18","06:00","21.3","","20.5","","95","","21","","10","","24.1","","98.54","","29","","","","NA"
"2017-08-18 07:00","2017","08","18","07:00","22.3","","20.6","","90","","22","","16","","24.1","","98.56","","30","","","","Clear"
"2017-08-18 08:00","2017","08","18","08:00","23.6","","20.4","","82","","21","","22","","24.1","","98.55","","32","","","","NA"
"2017-08-18 09:00","2017","08","18","09:00","24.9","","20.9","","78","","23","","18","","24.1","","98.50","","33","","","","NA"
"2017-08-18 10:00","2017","08","18","10:00","25.2","","19.1","","69","","23","","34","","24.1","","98.49","","32","","","","Mostly Cloudy"
"2017-08-18 11:00","2017","08","18","11:00","25.6","","18.4","","64","","24","","30","","24.1","","98.50","","32","","","","NA"
"2017-08-18 12:00","2017","08","18","12:00","25.7","","18.3","","63","","26","","33","","24.1","","98.49","","32","","","","NA"
"2017-08-18 13:00","2017","08","18","13:00","24.4","","18.0","","67","","27","","23","","24.1","","98.50","","30","","","","Mostly Cloudy"
"2017-08-18 14:00","2017","08","18","14:00","25.5","","18.3","","64","","25","","28","","24.1","","98.51","","32","","","","NA"
"2017-08-18 15:00","2017","08","18","15:00","24.6","","17.4","","64","","24","","34","","24.1","","98.52","","30","","","","NA"
"2017-08-18 16:00","2017","08","18","16:00","23.7","","17.8","","69","","25","","28","","24.1","","98.55","","30","","","","Mostly Cloudy"
"2017-08-18 17:00","2017","08","18","17:00","23.7","","17.9","","70","","27","","23","","24.1","","98.57","","30","","","","NA"
"2017-08-18 18:00","2017","08","18","18:00","23.6","","17.2","","67","","26","","28","","24.1","","98.61","","29","","","","NA"
"2017-08-18 19:00","2017","08","18","19:00","22.6","","16.7","","69","","28","","32","","24.1","","98.68","","28","","","","Mostly Cloudy"
"2017-08-18 20:00","2017","08","18","20:00","22.2","","17.0","","72","","26","","17","","24.1","","98.71","","27","","","","NA"
"2017-08-18 21:00","2017","08","18","21:00","20.4","","18.0","","86","","27","","31","","19.3","","98.78","","26","","","","Rain"
"2017-08-18 22:00","2017","08","18","22:00","20.4","","17.6","","84","","26","","23","","24.1","","98.78","","26","","","","Mostly Cloudy"
"2017-08-18 23:00","2017","08","18","23:00","20.4","","17.0","","81","","26","","20","","24.1","","98.82","","26","","","","NA"
"2017-08-19 00:00","2017","08","19","00:00","20.2","","16.8","","81","","26","","20","","24.1","","98.89","","25","","","","NA"
"2017-08-19 01:00","2017","08","19","01:00","19.9","","16.7","","82","","25","","11","","24.1","","98.87","","","","","","Mostly Cloudy"
"2017-08-19 02:00","2017","08","19","02:00","19.2","","16.5","","84","","27","","18","","24.1","","98.85","","","","","","NA"
"2017-08-19 03:00","2017","08","19","03:00","19.0","","16.5","","85","","27","","22","","24.1","","98.82","","","","","","NA"
"2017-08-19 04:00","2017","08","19","04:00","18.1","","15.4","","84","","28","","16","","24.1","","98.82","","","","","","Mainly Clear"
"2017-08-19 05:00","2017","08","19","05:00","18.1","","15.4","","84","","27","","14","","24.1","","98.83","","","","","","NA"
"2017-08-19 06:00","2017","08","19","06:00","17.0","","14.8","","87","","24","","10","","24.1","","98.89","","","","","","NA"
"2017-08-19 07:00","2017","08","19","07:00","18.8","","15.5","","81","","24","","18","","24.1","","98.94","","","","","","Mostly Cloudy"
"2017-08-19 08:00","2017","08","19","08:00","20.1","","16.1","","77","","26","","17","","24.1","","98.95","","25","","","","NA"
"2017-08-19 09:00","2017","08","19","09:00","21.0","","16.0","","73","","27","","22","","24.1","","98.95","","26","","","","NA"
"2017-08-19 10:00","2017","08","19","10:00","21.3","","16.3","","73","","26","","26","","24.1","","98.99","","26","","","","Mostly Cloudy"
"2017-08-19 11:00","2017","08","19","11:00","23.8","","16.0","","61","","24","","29","","24.1","","98.98","","28","","","","NA"
"2017-08-19 12:00","2017","08","19","12:00","23.7","","15.1","","58","","27","","25","","24.1","","98.96","","28","","","","NA"
"2017-08-19 13:00","2017","08","19","13:00","22.7","","14.4","","59","","28","","30","","24.1","","98.98","","26","","","","Mostly Cloudy"
"2017-08-19 14:00","2017","08","19","14:00","23.5","","14.9","","58","","28","","30","","24.1","","98.97","","27","","","","NA"
"2017-08-19 15:00","2017","08","19","15:00","23.5","","16.0","","62","","27","","29","","24.1","","98.98","","28","","","","NA"
"2017-08-19 16:00","2017","08","19","16:00","22.5","","14.7","","61","","27","","21","","24.1","","98.98","","26","","","","Mostly Cloudy"
"2017-08-19 17:00","2017","08","19","17:00","21.5","","13.2","","59","","29","","34","","24.1","","99.02","","","","","","NA"
"2017-08-19 18:00","2017","08","19","18:00","21.2","","13.7","","62","","32","","35","","24.1","","99.07","","","","","","NA"
"2017-08-19 19:00","2017","08","19","19:00","20.6","","13.8","","65","","30","","25","","24.1","","99.15","","","","","","Mostly Cloudy"
"2017-08-19 20:00","2017","08","19","20:00","19.7","","14.1","","70","","30","","14","","24.1","","99.21","","","","","","NA"
"2017-08-19 21:00","2017","08","19","21:00","18.2","","13.2","","73","","28","","13","","24.1","","99.28","","","","","","NA"
"2017-08-19 22:00","2017","08","19","22:00","18.0","","13.3","","74","","29","","15","","24.1","","99.31","","","","","","Clear"
"2017-08-19 23:00","2017","08","19","23:00","17.3","","13.4","","78","","29","","16","","24.1","","99.39","","","","","","NA"
"2017-08-20 00:00","2017","08","20","00:00","16.6","","13.0","","79","","29","","14","","24.1","","99.43","","","","","","NA"
"2017-08-20 01:00","2017","08","20","01:00","16.5","","12.9","","79","","29","","9","","24.1","","99.45","","","","","","Mainly Clear"
"2017-08-20 02:00","2017","08","20","02:00","16.7","","13.7","","82","","29","","9","","24.1","","99.47","","","","","","NA"
"2017-08-20 03:00","2017","08","20","03:00","17.0","","13.9","","82","","26","","4","","24.1","","99.50","","","","","","NA"
"2017-08-20 04:00","2017","08","20","04:00","17.2","","13.5","","79","","29","","3","","24.1","","99.52","","","","","","Mainly Clear"
"2017-08-20 05:00","2017","08","20","05:00","16.1","","13.2","","83","","28","","6","","24.1","","99.57","","","","","","NA"
"2017-08-20 06:00","2017","08","20","06:00","15.6","","13.4","","86","","29","","7","","24.1","","99.61","","","","","","NA"
"2017-08-20 07:00","2017","08","20","07:00","18.2","","15.0","","81","","26","","3","","24.1","","99.64","","","","","","Clear"
"2017-08-20 08:00","2017","08","20","08:00","20.6","","16.4","","77","","28","","6","","24.1","","99.66","","25","","","","NA"
"2017-08-20 09:00","2017","08","20","09:00","23.0","","17.2","","69","","29","","9","","24.1","","99.70","","28","","","","NA"
"2017-08-20 10:00","2017","08","20","10:00","25.3","","17.6","","62","","28","","15","","24.1","","99.75","","31","","","","Clear"
"2017-08-20 11:00","2017","08","20","11:00","26.1","","17.3","","58","","26","","14","","24.1","","99.72","","32","","","","NA"
"2017-08-20 12:00","2017","08","20","12:00","26.5","","16.4","","53","","29","","7","","24.1","","99.72","","31","","","","NA"
"2017-08-20 13:00","2017","08","20","13:00","27.6","","17.4","","53","","25","","20","","24.1","","99.73","","33","","","","Mostly Cloudy"
"2017-08-20 14:00","2017","08","20","14:00","27.4","","16.6","","51","","27","","23","","24.1","","99.71","","32","","","","NA"
"2017-08-20 15:00","2017","08","20","15:00","28.5","","16.4","","47","","26","","23","","24.1","","99.68","","33","","","","NA"
"2017-08-20 16:00","2017","08","20","16:00","27.7","","15.8","","48","","25","","21","","24.1","","99.65","","32","","","","Clear"
"2017-08-20 17:00","2017","08","20","17:00","27.4","","15.2","","47","","25","","24","","24.1","","99.66","","31","","","","NA"
"2017-08-20 18:00","2017","08","20","18:00","26.5","","15.0","","49","","25","","22","","24.1","","99.68","","30","","","","NA"
"2017-08-20 19:00","2017","08","20","19:00","24.0","","14.9","","56","","25","","11","","24.1","","99.71","","28","","","","Mostly Cloudy"
"2017-08-20 20:00","2017","08","20","20:00","23.5","","15.9","","62","","30","","9","","24.1","","99.77","","28","","","","NA"
"2017-08-20 21:00","2017","08","20","21:00","21.5","","16.3","","72","","25","","12","","24.1","","99.82","","26","","","","NA"
"2017-08-20 22:00","2017","08","20","22:00","20.6","","15.9","","74","","26","","10","","24.1","","99.83","","25","","","","Mainly Clear"
"2017-08-20 23:00","2017","08","20","23:00","21.1","","15.4","","70","","25","","7","","24.1","","99.84","","25","","","","NA"
"2017-08-21 00:00","2017","08","21","00:00","21.5","","14.6","","64","","27","","3","","24.1","","99.85","","25","","","","NA"
"2017-08-21 01:00","2017","08","21","01:00","20.6","","14.4","","67","","16","","5","","24.1","","99.85","","","","","","Mainly Clear"
"2017-08-21 02:00","2017","08","21","02:00","20.7","","14.1","","66","","21","","3","","24.1","","99.87","","","","","","NA"
"2017-08-21 03:00","2017","08","21","03:00","19.8","","14.0","","69","","25","","3","","24.1","","99.84","","","","","","NA"
"2017-08-21 04:00","2017","08","21","04:00","19.2","","14.1","","72","","25","","6","","24.1","","99.84","","","","","","Mostly Cloudy"
"2017-08-21 05:00","2017","08","21","05:00","18.9","","14.2","","74","","23","","3","","24.1","","99.83","","","","","","NA"
"2017-08-21 06:00","2017","08","21","06:00","19.6","","13.8","","69","","11","","3","","24.1","","99.80","","","","","","NA"
"2017-08-21 07:00","2017","08","21","07:00","20.8","","16.2","","75","","36","","3","","24.1","","99.89","","26","","","","Mainly Clear"
"2017-08-21 08:00","2017","08","21","08:00","22.9","","17.1","","69","","27","","4","","24.1","","99.88","","28","","","","NA"
"2017-08-21 09:00","2017","08","21","09:00","25.2","","18.0","","64","","19","","7","","24.1","","99.82","","31","","","","NA"
"2017-08-21 10:00","2017","08","21","10:00","26.9","","18.2","","58","","18","","8","","24.1","","99.81","","33","","","","Clear"
"2017-08-21 11:00","2017","08","21","11:00","28.6","","20.5","","61","","21","","5","","24.1","","99.81","","37","","","","NA"
"2017-08-21 12:00","2017","08","21","12:00","28.6","","17.9","","52","","29","","13","","24.1","","99.77","","35","","","","NA"
"2017-08-21 13:00","2017","08","21","13:00","29.2","","18.7","","52","","26","","13","","24.1","","99.73","","36","","","","Mainly Clear"
"2017-08-21 14:00","2017","08","21","14:00","28.5","","19.2","","56","","24","","17","","24.1","","99.67","","35","","","","NA"
"2017-08-21 15:00","2017","08","21","15:00","29.5","","19.5","","54","","25","","17","","24.1","","99.66","","37","","","","NA"
"2017-08-21 16:00","2017","08","21","16:00","30.0","","19.1","","52","","25","","19","","24.1","","99.63","","37","","","","Mostly Cloudy"
"2017-08-21 17:00","2017","08","21","17:00","28.9","","19.0","","55","","27","","17","","24.1","","99.58","","36","","","","NA"
"2017-08-21 18:00","2017","08","21","18:00","28.4","","19.3","","57","","25","","14","","24.1","","99.58","","35","","","","NA"
"2017-08-21 19:00","2017","08","21","19:00","27.8","","18.9","","58","","23","","14","","24.1","","99.56","","34","","","","Mostly Cloudy"
"2017-08-21 20:00","2017","08","21","20:00","26.1","","19.6","","67","","15","","8","","24.1","","99.55","","33","","","","NA"
"2017-08-21 21:00","2017","08","21","21:00","26.0","","19.2","","66","","20","","16","","24.1","","99.54","","33","","","","NA"
"2017-08-21 22:00","2017","08","21","22:00","24.9","","18.9","","69","","20","","11","","24.1","","99.51","","32","","","","Mostly Cloudy"
"2017-08-21 23:00","2017","08","21","23:00","24.2","","18.6","","71","","18","","7","","24.1","","99.45","","31","","","","NA"
"2017-08-22 00:00","2017","08","22","00:00","23.4","","18.7","","75","","16","","5","","24.1","","99.40","","30","","","","NA"
"2017-08-22 01:00","2017","08","22","01:00","22.6","","18.8","","79","","18","","8","","24.1","","99.28","","29","","","","Mostly Cloudy"
"2017-08-22 02:00","2017","08","22","02:00","22.2","","18.9","","81","","15","","7","","24.1","","99.16","","29","","","","NA"
"2017-08-22 03:00","2017","08","22","03:00","22.0","","19.3","","84","","15","","9","","24.1","","99.05","","29","","","","NA"
"2017-08-22 04:00","2017","08","22","04:00","22.7","","19.8","","83","","19","","5","","24.1","","99.00","","30","","","","Cloudy"
"2017-08-22 05:00","2017","08","22","05:00","23.5","","21.0","","86","","22","","23","","24.1","","98.93","","32","","","","NA"
"2017-08-22 06:00","2017","08","22","06:00","23.4","","21.3","","88","","21","","18","","19.3","","98.87","","32","","","","NA"
"2017-08-22 07:00","2017","08","22","07:00","24.3","","21.5","","84","","22","","17","","24.1","","98.80","","33","","","","Mostly Cloudy"
"2017-08-22 08:00","2017","08","22","08:00","24.7","","21.1","","80","","23","","27","","24.1","","98.77","","33","","","","NA"
"2017-08-22 09:00","2017","08","22","09:00","22.6","","20.9","","90","","24","","21","","12.9","","98.76","","31","","","","Moderate Rain Showers"
"2017-08-22 10:00","2017","08","22","10:00","24.4","","21.7","","84","","22","","18","","24.1","","98.66","","33","","","","Cloudy"
"2017-08-22 11:00","2017","08","22","11:00","25.1","","21.0","","78","","23","","21","","24.1","","98.60","","34","","","","NA"
"2017-08-22 12:00","2017","08","22","12:00","25.8","","20.4","","72","","22","","30","","24.1","","98.44","","34","","","","Rain"
"2017-08-22 13:00","2017","08","22","13:00","21.6","","17.1","","75","","29","","48","","3.2","","98.43","","27","","","","Heavy Rain Showers"
"2017-08-22 14:00","2017","08","22","14:00","24.6","","20.8","","79","","25","","33","","24.1","","98.34","","33","","","","NA"
"2017-08-22 15:00","2017","08","22","15:00","25.4","","19.2","","68","","26","","40","","24.1","","98.33","","32","","","","NA"
"2017-08-22 16:00","2017","08","22","16:00","25.1","","18.1","","65","","27","","35","","24.1","","98.35","","31","","","","Mostly Cloudy"
"2017-08-22 17:00","2017","08","22","17:00","25.2","","17.8","","63","","29","","31","","24.1","","98.34","","31","","","","NA"
"2017-08-22 18:00","2017","08","22","18:00","22.3","","15.9","","66","","30","","32","","24.1","","98.46","","27","","","","NA"
"2017-08-22 19:00","2017","08","22","19:00","20.9","","13.5","","62","","30","","41","","24.1","","98.59","","","","","","Mostly Cloudy"
"2017-08-22 20:00","2017","08","22","20:00","19.4","","12.5","","64","","31","","30","","24.1","","98.71","","","","","","NA"
"2017-08-22 21:00","2017","08","22","21:00","18.5","","11.9","","65","","30","","25","","24.1","","98.75","","","","","","NA"
"2017-08-22 22:00","2017","08","22","22:00","17.2","","12.0","","71","","29","","23","","24.1","","98.78","","","","","","Clear"
"2017-08-22 23:00","2017","08","22","23:00","15.9","","11.9","","77","","26","","18","","24.1","","98.78","","","","","","NA"
"2017-08-23 00:00","2017","08","23","00:00","14.6","","12.0","","84","","25","","15","","24.1","","98.82","","","","","","NA"
"2017-08-23 01:00","2017","08","23","01:00","14.8","","12.6","","87","","25","","16","","24.1","","98.85","","","","","","Clear"
"2017-08-23 02:00","2017","08","23","02:00","14.5","","12.5","","88","","25","","16","","24.1","","98.86","","","","","","NA"
"2017-08-23 03:00","2017","08","23","03:00","14.5","","11.8","","84","","27","","16","","24.1","","98.88","","","","","","NA"
"2017-08-23 04:00","2017","08","23","04:00","14.3","","11.2","","81","","25","","18","","24.1","","98.91","","","","","","Clear"
"2017-08-23 05:00","2017","08","23","05:00","14.0","","11.0","","82","","26","","19","","24.1","","98.94","","","","","","NA"
"2017-08-23 06:00","2017","08","23","06:00","13.7","","11.0","","83","","24","","13","","24.1","","98.98","","","","","","NA"
"2017-08-23 07:00","2017","08","23","07:00","15.3","","11.5","","78","","24","","19","","24.1","","99.00","","","","","","Clear"
"2017-08-23 08:00","2017","08","23","08:00","17.9","","12.1","","69","","25","","26","","24.1","","99.01","","","","","","NA"
"2017-08-23 09:00","2017","08","23","09:00","19.7","","12.9","","65","","27","","28","","24.1","","99.02","","","","","","NA"
"2017-08-23 10:00","2017","08","23","10:00","21.4","","12.8","","58","","26","","35","","24.1","","99.02","","","","","","Mostly Cloudy"
"2017-08-23 11:00","2017","08","23","11:00","21.2","","12.2","","56","","27","","27","","24.1","","99.02","","","","","","NA"
"2017-08-23 12:00","2017","08","23","12:00","23.0","","13.8","","56","","25","","25","","24.1","","98.99","","26","","","","NA"
"2017-08-23 13:00","2017","08","23","13:00","22.4","","11.9","","51","","26","","28","","24.1","","99.01","","25","","","","Mostly Cloudy"
"2017-08-23 14:00","2017","08","23","14:00","21.8","","11.0","","50","","28","","25","","24.1","","99.03","","","","","","NA"
"2017-08-23 15:00","2017","08","23","15:00","23.1","","8.7","","39","","30","","35","","24.1","","99.06","","","","","","NA"
"2017-08-23 16:00","2017","08","23","16:00","21.9","","9.7","","45","","30","","34","","24.1","","99.10","","","","","","Mainly Clear"
"2017-08-23 17:00","2017","08","23","17:00","20.9","","9.4","","47","","30","","31","","24.1","","99.13","","","","","","NA"
"2017-08-23 18:00","2017","08","23","18:00","19.7","","7.8","","46","","30","","28","","24.1","","99.16","","","","","","NA"
"2017-08-23 19:00","2017","08","23","19:00","18.2","","8.6","","53","","30","","25","","24.1","","99.22","","","","","","Mainly Clear"
"2017-08-23 20:00","2017","08","23","20:00","17.2","","9.4","","60","","30","","20","","24.1","","99.26","","","","","","NA"
"2017-08-23 21:00","2017","08","23","21:00","15.6","","9.6","","67","","28","","20","","24.1","","99.26","","","","","","NA"
"2017-08-23 22:00","2017","08","23","22:00","15.6","","9.7","","68","","32","","19","","24.1","","99.29","","","","","","Clear"
"2017-08-23 23:00","2017","08","23","23:00","13.9","","10.0","","77","","31","","14","","24.1","","99.31","","","","","","NA"
"2017-08-24 00:00","2017","08","24","00:00","11.9","","9.4","","85","","25","","12","","24.1","","99.36","","","","","","NA"
"2017-08-24 01:00","2017","08","24","01:00","11.7","","9.4","","86","","26","","10","","24.1","","99.37","","","","","","Clear"
"2017-08-24 02:00","2017","08","24","02:00","11.5","","9.6","","88","","26","","12","","24.1","","99.39","","","","","","NA"
"2017-08-24 03:00","2017","08","24","03:00","11.4","","9.3","","87","","27","","8","","24.1","","99.41","","","","","","NA"
"2017-08-24 04:00","2017","08","24","04:00","11.3","","9.5","","89","","28","","13","","24.1","","99.43","","","","","","Mainly Clear"
"2017-08-24 05:00","2017","08","24","05:00","11.4","","9.6","","89","","28","","12","","24.1","","99.47","","","","","","NA"
"2017-08-24 06:00","2017","08","24","06:00","12.9","","10.3","","84","","31","","14","","24.1","","99.51","","","","","","NA"
"2017-08-24 07:00","2017","08","24","07:00","14.4","","11.0","","80","","32","","17","","24.1","","99.54","","","","","","Mainly Clear"
"2017-08-24 08:00","2017","08","24","08:00","15.5","","11.2","","75","","33","","14","","24.1","","99.60","","","","","","NA"
"2017-08-24 09:00","2017","08","24","09:00","16.5","","11.6","","72","","35","","8","","24.1","","99.62","","","","","","NA"
"2017-08-24 10:00","2017","08","24","10:00","18.0","","11.3","","64","","3","","14","","24.1","","99.63","","","","","","Mostly Cloudy"
"2017-08-24 11:00","2017","08","24","11:00","17.7","","10.6","","63","","1","","12","","24.1","","99.64","","","","","","NA"
"2017-08-24 12:00","2017","08","24","12:00","17.3","","11.6","","69","","36","","18","","24.1","","99.63","","","","","","Rain Showers"
"2017-08-24 13:00","2017","08","24","13:00","19.1","","11.3","","60","","2","","21","","24.1","","99.64","","","","","","Mostly Cloudy"
"2017-08-24 14:00","2017","08","24","14:00","19.0","","9.5","","54","","34","","19","","24.1","","99.65","","","","","","NA"
"2017-08-24 15:00","2017","08","24","15:00","19.7","","9.4","","51","","33","","18","","24.1","","99.64","","","","","","NA"
"2017-08-24 16:00","2017","08","24","16:00","19.5","","8.8","","49","","36","","10","","24.1","","99.63","","","","","","Mostly Cloudy"
"2017-08-24 17:00","2017","08","24","17:00","19.5","","8.9","","50","","1","","10","","24.1","","99.63","","","","","","NA"
"2017-08-24 18:00","2017","08","24","18:00","18.6","","9.1","","53","","2","","11","","24.1","","99.65","","","","","","NA"
"2017-08-24 19:00","2017","08","24","19:00","17.7","","8.8","","55","","35","","25","","24.1","","99.70","","","","","","Mostly Cloudy"
"2017-08-24 20:00","2017","08","24","20:00","16.6","","9.1","","61","","36","","19","","24.1","","99.75","","","","","","NA"
"2017-08-24 21:00","2017","08","24","21:00","15.8","","9.0","","64","","35","","24","","24.1","","99.80","","","","","","NA"
"2017-08-24 22:00","2017","08","24","22:00","14.6","","8.6","","67","","35","","19","","24.1","","99.83","","","","","","Mainly Clear"
"2017-08-24 23:00","2017","08","24","23:00","13.7","","8.3","","70","","36","","20","","24.1","","99.85","","","","","","NA"
"2017-08-25 00:00","2017","08","25","00:00","13.2","","7.8","","70","","34","","15","","24.1","","99.89","","","","","","NA"
"2017-08-25 01:00","2017","08","25","01:00","12.3","","7.6","","73","","32","","12","","24.1","","99.92","","","","","","Mainly Clear"
"2017-08-25 02:00","2017","08","25","02:00","12.3","","7.7","","73","","35","","15","","24.1","","99.94","","","","","","NA"
"2017-08-25 03:00","2017","08","25","03:00","11.3","","7.7","","78","","36","","14","","24.1","","99.98","","","","","","NA"
"2017-08-25 04:00","2017","08","25","04:00","11.4","","7.8","","78","","36","","13","","24.1","","100.03","","","","","","Clear"
"2017-08-25 05:00","2017","08","25","05:00","11.3","","7.8","","79","","35","","10","","24.1","","100.09","","","","","","NA"
"2017-08-25 06:00","2017","08","25","06:00","11.6","","8.0","","78","","34","","6","","24.1","","100.15","","","","","","NA"
"2017-08-25 07:00","2017","08","25","07:00","13.0","","8.4","","74","","34","","10","","24.1","","100.19","","","","","","Clear"
"2017-08-25 08:00","2017","08","25","08:00","15.2","","9.0","","66","","33","","12","","24.1","","100.25","","","","","","NA"
"2017-08-25 09:00","2017","08","25","09:00","17.5","","8.5","","55","","34","","7","","24.1","","100.27","","","","","","NA"
"2017-08-25 10:00","2017","08","25","10:00","19.0","","6.1","","42","","34","","10","","24.1","","100.27","","","","","","Clear"
"2017-08-25 11:00","2017","08","25","11:00","19.2","","5.5","","40","","33","","7","","24.1","","100.27","","","","","","NA"
"2017-08-25 12:00","2017","08","25","12:00","20.1","","4.5","","36","","35","","14","","24.1","","100.25","","","","","","NA"
"2017-08-25 13:00","2017","08","25","13:00","21.0","","5.5","","36","","35","","17","","24.1","","100.26","","","","","","Clear"
"2017-08-25 14:00","2017","08","25","14:00","21.1","","4.4","","33","","36","","11","","24.1","","100.21","","","","","","NA"
"2017-08-25 15:00","2017","08","25","15:00","21.6","","6.2","","36","","1","","13","","24.1","","100.20","","","","","","NA"
"2017-08-25 16:00","2017","08","25","16:00","20.0","","8.4","","47","","13","","15","","24.1","","100.21","","","","","","Mainly Clear"
"2017-08-25 17:00","2017","08","25","17:00","18.8","","7.2","","46","","15","","13","","24.1","","100.23","","","","","","NA"
"2017-08-25 18:00","2017","08","25","18:00","18.4","","7.0","","47","","15","","10","","24.1","","100.25","","","","","","NA"
"2017-08-25 19:00","2017","08","25","19:00","17.6","","6.3","","47","","5","","8","","24.1","","100.29","","","","","","Mainly Clear"
"2017-08-25 20:00","2017","08","25","20:00","16.5","","6.2","","50","","36","","21","","24.1","","100.35","","","","","","NA"
"2017-08-25 21:00","2017","08","25","21:00","15.4","","5.2","","50","","1","","18","","24.1","","100.40","","","","","","NA"
"2017-08-25 22:00","2017","08","25","22:00","14.8","","5.2","","52","","36","","17","","24.1","","100.44","","","","","","Mainly Clear"
"2017-08-25 23:00","2017","08","25","23:00","14.6","","5.6","","55","","35","","14","","24.1","","100.46","","","","","","NA"
"2017-08-26 00:00","2017","08","26","00:00","13.7","","6.1","","60","","35","","14","","24.1","","100.47","","","","","","NA"
"2017-08-26 01:00","2017","08","26","01:00","12.3","","6.1","","65","","36","","11","","24.1","","100.46","","","","","","Mainly Clear"
"2017-08-26 02:00","2017","08","26","02:00","12.1","","6.1","","66","","34","","14","","24.1","","100.44","","","","","","NA"
"2017-08-26 03:00","2017","08","26","03:00","11.5","","5.7","","68","","34","","10","","24.1","","100.47","","","","","","NA"
"2017-08-26 04:00","2017","08","26","04:00","11.6","","5.9","","68","","34","","12","","24.1","","100.48","","","","","","Clear"
"2017-08-26 05:00","2017","08","26","05:00","10.8","","5.9","","72","","1","","5","","24.1","","100.50","","","","","","NA"
"2017-08-26 06:00","2017","08","26","06:00","11.1","","6.5","","73","","34","","10","","24.1","","100.54","","","","","","NA"
"2017-08-26 07:00","2017","08","26","07:00","12.6","","7.5","","71","","34","","13","","24.1","","100.59","","","","","","Mainly Clear"
"2017-08-26 08:00","2017","08","26","08:00","14.7","","9.0","","68","","33","","8","","24.1","","100.60","","","","","","NA"
"2017-08-26 09:00","2017","08","26","09:00","17.0","","10.6","","66","","1","","9","","24.1","","100.63","","","","","","NA"
"2017-08-26 10:00","2017","08","26","10:00","18.7","","8.9","","53","","35","","9","","24.1","","100.62","","","","","","Mainly Clear"
"2017-08-26 11:00","2017","08","26","11:00","19.9","","8.0","","46","","29","","4","","24.1","","100.58","","","","","","NA"
"2017-08-26 12:00","2017","08","26","12:00","20.3","","6.5","","40","","13","","4","","24.1","","100.55","","","","","","NA"
"2017-08-26 13:00","2017","08","26","13:00","21.7","","7.9","","41","","28","","7","","24.1","","100.53","","","","","","Mainly Clear"
"2017-08-26 14:00","2017","08","26","14:00","21.9","","7.7","","40","","27","","7","","24.1","","100.47","","","","","","NA"
"2017-08-26 15:00","2017","08","26","15:00","21.6","","8.3","","42","","13","","14","","24.1","","100.44","","","","","","NA"
"2017-08-26 16:00","2017","08","26","16:00","20.9","","8.0","","43","","13","","16","","24.1","","100.40","","","","","","Mainly Clear"
"2017-08-26 17:00","2017","08","26","17:00","20.1","","8.2","","46","","13","","13","","24.1","","100.42","","","","","","NA"
"2017-08-26 18:00","2017","08","26","18:00","19.2","","8.1","","48","","15","","12","","24.1","","100.44","","","","","","NA"
"2017-08-26 19:00","2017","08","26","19:00","18.1","","8.6","","53","","15","","8","","24.1","","100.46","","","","","","Mainly Clear"
"2017-08-26 20:00","2017","08","26","20:00","17.8","","9.2","","57","","12","","4","","24.1","","100.48","","","","","","NA"
"2017-08-26 21:00","2017","08","26","21:00","17.3","","8.9","","57","","9","","7","","24.1","","100.50","","","","","","NA"
"2017-08-26 22:00","2017","08","26","22:00","16.5","","8.5","","59","","6","","5","","24.1","","100.49","","","","","","Clear"
"2017-08-26 23:00","2017","08","26","23:00","16.6","","8.4","","58","","30","","4","","24.1","","100.50","","","","","","NA"
"2017-08-27 00:00","2017","08","27","00:00","14.6","","8.3","","66","","35","","8","","24.1","","100.50","","","","","","NA"
"2017-08-27 01:00","2017","08","27","01:00","14.4","","8.8","","69","","34","","4","","24.1","","100.48","","","","","","Clear"
"2017-08-27 02:00","2017","08","27","02:00","11.6","","7.3","","75","","2","","6","","24.1","","100.48","","","","","","NA"
"2017-08-27 03:00","2017","08","27","03:00","12.3","","8.3","","77","","36","","2","","24.1","","100.48","","","","","","NA"
"2017-08-27 04:00","2017","08","27","04:00","11.6","","7.9","","77","","3","","7","","24.1","","100.47","","","","","","Clear"
"2017-08-27 05:00","2017","08","27","05:00","11.9","","8.1","","78","","2","","4","","24.1","","100.47","","","","","","NA"
"2017-08-27 06:00","2017","08","27","06:00","10.9","","7.6","","80","","3","","9","","24.1","","100.48","","","","","","NA"
"2017-08-27 07:00","2017","08","27","07:00","13.8","","8.8","","72","","1","","8","","24.1","","100.49","","","","","","Mainly Clear"
"2017-08-27 08:00","2017","08","27","08:00","16.9","","10.6","","66","","5","","9","","24.1","","100.47","","","","","","NA"
"2017-08-27 09:00","2017","08","27","09:00","19.4","","9.0","","51","","12","","17","","24.1","","100.47","","","","","","NA"
"2017-08-27 10:00","2017","08","27","10:00","20.1","","8.0","","45","","11","","23","","24.1","","100.48","","","","","","Mostly Cloudy"
"2017-08-27 11:00","2017","08","27","11:00","20.8","","8.3","","44","","10","","23","","24.1","","100.46","","","","","","NA"
"2017-08-27 12:00","2017","08","27","12:00","21.4","","7.5","","40","","13","","22","","24.1","","100.43","","","","","","NA"
"2017-08-27 13:00","2017","08","27","13:00","21.9","","8.3","","41","","11","","25","","24.1","","100.39","","","","","","Mostly Cloudy"
"2017-08-27 14:00","2017","08","27","14:00","21.7","","8.9","","44","","10","","16","","24.1","","100.35","","","","","","NA"
"2017-08-27 15:00","2017","08","27","15:00","21.1","","8.7","","45","","9","","23","","24.1","","100.29","","","","","","NA"
"2017-08-27 16:00","2017","08","27","16:00","20.7","","9.3","","48","","9","","20","","24.1","","100.22","","","","","","Mostly Cloudy"
"2017-08-27 17:00","2017","08","27","17:00","20.4","","7.5","","43","","10","","22","","24.1","","100.22","","","","","","NA"
"2017-08-27 18:00","2017","08","27","18:00","19.1","","7.6","","47","","9","","15","","24.1","","100.21","","","","","","NA"
"2017-08-27 19:00","2017","08","27","19:00","18.1","","8.2","","52","","8","","17","","24.1","","100.22","","","","","","Mostly Cloudy"
"2017-08-27 20:00","2017","08","27","20:00","17.6","","10.0","","61","","9","","13","","24.1","","100.24","","","","","","NA"
"2017-08-27 21:00","2017","08","27","21:00","17.3","","11.2","","67","","8","","13","","24.1","","100.21","","","","","","NA"
"2017-08-27 22:00","2017","08","27","22:00","17.0","","11.7","","71","","8","","9","","24.1","","100.24","","","","","","Mainly Clear"
"2017-08-27 23:00","2017","08","27","23:00","17.0","","12.2","","73","","8","","10","","24.1","","100.22","","","","","","NA"
"2017-08-28 00:00","2017","08","28","00:00","16.1","","12.7","","80","","6","","5","","24.1","","100.21","","","","","","NA"
"2017-08-28 01:00","2017","08","28","01:00","17.9","","12.6","","71","","10","","17","","24.1","","100.16","","","","","","Cloudy"
"2017-08-28 02:00","2017","08","28","02:00","17.4","","11.9","","70","","10","","15","","24.1","","100.12","","","","","","NA"
"2017-08-28 03:00","2017","08","28","03:00","16.6","","12.1","","75","","10","","12","","24.1","","100.10","","","","","","NA"
"2017-08-28 04:00","2017","08","28","04:00","16.3","","12.6","","79","","10","","11","","24.1","","100.12","","","","","","Mainly Clear"
"2017-08-28 05:00","2017","08","28","05:00","15.9","","12.9","","82","","10","","10","","24.1","","100.15","","","","","","NA"
"2017-08-28 06:00","2017","08","28","06:00","16.1","","13.5","","84","","9","","9","","24.1","","100.20","","","","","","NA"
"2017-08-28 07:00","2017","08","28","07:00","17.0","","13.8","","81","","10","","10","","24.1","","100.22","","","","","","Mainly Clear"
"2017-08-28 08:00","2017","08","28","08:00","18.1","","13.7","","76","","11","","12","","24.1","","100.22","","","","","","NA"
"2017-08-28 09:00","2017","08","28","09:00","19.1","","13.3","","69","","10","","12","","24.1","","100.25","","","","","","NA"
"2017-08-28 10:00","2017","08","28","10:00","19.6","","13.1","","66","","11","","16","","24.1","","100.23","","","","","","Cloudy"
"2017-08-28 11:00","2017","08","28","11:00","20.1","","13.1","","64","","12","","12","","24.1","","100.24","","","","","","NA"
"2017-08-28 12:00","2017","08","28","12:00","20.2","","12.0","","59","","14","","14","","24.1","","100.19","","","","","","NA"
"2017-08-28 13:00","2017","08","28","13:00","21.8","","13.5","","59","","12","","13","","24.1","","100.17","","25","","","","Mostly Cloudy"
"2017-08-28 14:00","2017","08","28","14:00","21.9","","13.0","","57","","10","","20","","24.1","","100.13","","25","","","","NA"
"2017-08-28 15:00","2017","08","28","15:00","22.8","","12.9","","53","","12","","16","","24.1","","100.09","","26","","","","NA"
"2017-08-28 16:00","2017","08","28","16:00","21.6","","11.6","","52","","12","","23","","24.1","","100.10","","","","","","Mostly Cloudy"
"2017-08-28 17:00","2017","08","28","17:00","21.1","","12.0","","55","","10","","15","","24.1","","100.09","","","","","","NA"
"2017-08-28 18:00","2017","08","28","18:00","20.5","","11.7","","56","","9","","17","","24.1","","100.06","","","","","","NA"
"2017-08-28 19:00","2017","08","28","19:00","19.9","","12.0","","60","","8","","13","","24.1","","100.04","","","","","","Mostly Cloudy"
"2017-08-28 20:00","2017","08","28","20:00","19.3","","12.1","","63","","9","","12","","24.1","","100.06","","","","","","NA"
"2017-08-28 21:00","2017","08","28","21:00","19.8","","11.9","","60","","10","","16","","24.1","","100.05","","","","","","NA"
"2017-08-28 22:00","2017","08","28","22:00","19.8","","13.3","","66","","12","","18","","24.1","","100.06","","","","","","Mostly Cloudy"
"2017-08-28 23:00","2017","08","28","23:00","19.1","","13.1","","68","","13","","10","","24.1","","100.06","","","","","","NA"
"2017-08-29 00:00","2017","08","29","00:00","18.9","","13.0","","68","","13","","9","","24.1","","100.03","","","","","","NA"
"2017-08-29 01:00","2017","08","29","01:00","18.3","","13.3","","73","","13","","9","","24.1","","100.01","","","","","","Mostly Cloudy"
"2017-08-29 02:00","2017","08","29","02:00","18.0","","13.3","","74","","14","","12","","24.1","","100.01","","","","","","NA"
"2017-08-29 03:00","2017","08","29","03:00","17.8","","12.9","","73","","14","","10","","24.1","","100.00","","","","","","NA"
"2017-08-29 04:00","2017","08","29","04:00","17.6","","12.7","","73","","14","","12","","24.1","","99.99","","","","","","Mostly Cloudy"
"2017-08-29 05:00","2017","08","29","05:00","17.2","","13.2","","77","","13","","11","","24.1","","99.99","","","","","","NA"
"2017-08-29 06:00","2017","08","29","06:00","17.1","","12.9","","76","","12","","10","","24.1","","100.02","","","","","","NA"
"2017-08-29 07:00","2017","08","29","07:00","18.0","","13.1","","73","","12","","9","","24.1","","100.05","","","","","","Mostly Cloudy"
"2017-08-29 08:00","2017","08","29","08:00","18.4","","13.0","","71","","13","","10","","24.1","","100.05","","","","","","NA"
"2017-08-29 09:00","2017","08","29","09:00","20.4","","13.3","","63","","14","","12","","24.1","","100.02","","","","","","NA"
"2017-08-29 10:00","2017","08","29","10:00","21.0","","13.6","","62","","15","","13","","24.1","","100.00","","","","","","Mainly Clear"
"2017-08-29 11:00","2017","08","29","11:00","21.7","","13.8","","60","","13","","13","","24.1","","99.98","","25","","","","NA"
"2017-08-29 12:00","2017","08","29","12:00","21.9","","13.1","","57","","12","","14","","24.1","","99.93","","25","","","","NA"
"2017-08-29 13:00","2017","08","29","13:00","22.1","","11.8","","52","","10","","19","","24.1","","99.89","","","","","","Mostly Cloudy"
"2017-08-29 14:00","2017","08","29","14:00","21.8","","12.1","","54","","10","","15","","24.1","","99.84","","","","","","NA"
"2017-08-29 15:00","2017","08","29","15:00","21.6","","12.1","","54","","14","","19","","24.1","","99.82","","","","","","NA"
"2017-08-29 16:00","2017","08","29","16:00","21.3","","11.1","","52","","12","","15","","24.1","","99.82","","","","","","Mostly Cloudy"
"2017-08-29 17:00","2017","08","29","17:00","20.7","","11.1","","54","","8","","18","","24.1","","99.81","","","","","","NA"
"2017-08-29 18:00","2017","08","29","18:00","19.9","","11.7","","59","","7","","17","","80.5","","99.77","","","","","","NA"
"2017-08-29 19:00","2017","08","29","19:00","19.4","","12.1","","62","","8","","13","","24.1","","99.73","","","","","","Mostly Cloudy"
"2017-08-29 20:00","2017","08","29","20:00","18.8","","13.6","","72","","8","","13","","24.1","","99.73","","","","","","NA"
"2017-08-29 21:00","2017","08","29","21:00","18.1","","12.9","","71","","7","","8","","24.1","","99.71","","","","","","NA"
"2017-08-29 22:00","2017","08","29","22:00","17.3","","12.7","","74","","7","","9","","24.1","","99.67","","","","","","Mainly Clear"
"2017-08-29 23:00","2017","08","29","23:00","16.8","","12.5","","75","","6","","9","","24.1","","99.62","","","","","","NA"
"2017-08-30 00:00","2017","08","30","00:00","15.9","","12.0","","78","","32","","10","","24.1","","99.62","","","","","","NA"
"2017-08-30 01:00","2017","08","30","01:00","15.4","","12.0","","80","","34","","6","","24.1","","99.59","","","","","","Clear"
"2017-08-30 02:00","2017","08","30","02:00","14.6","","11.5","","81","","31","","11","","24.1","","99.58","","","","","","NA"
"2017-08-30 03:00","2017","08","30","03:00","13.9","","11.3","","84","","1","","8","","24.1","","99.56","","","","","","NA"
"2017-08-30 04:00","2017","08","30","04:00","13.3","","10.8","","85","","31","","12","","24.1","","99.54","","","","","","Clear"
"2017-08-30 05:00","2017","08","30","05:00","13.9","","11.5","","85","","36","","10","","24.1","","99.54","","","","","","NA"
"2017-08-30 06:00","2017","08","30","06:00","14.5","","12.0","","85","","1","","8","","24.1","","99.55","","","","","","NA"
"2017-08-30 07:00","2017","08","30","07:00","15.8","","12.6","","81","","34","","5","","24.1","","99.60","","","","","","Clear"
"2017-08-30 08:00","2017","08","30","08:00","17.9","","13.6","","75","","2","","7","","24.1","","99.60","","","","","","NA"
"2017-08-30 09:00","2017","08","30","09:00","20.1","","13.0","","63","","27","","4","","24.1","","99.59","","","","","","NA"
"2017-08-30 10:00","2017","08","30","10:00","21.6","","13.1","","58","","4","","7","","24.1","","99.58","","","","","","Clear"
"2017-08-30 11:00","2017","08","30","11:00","23.2","","13.4","","53","","31","","9","","24.1","","99.54","","26","","","","NA"
"2017-08-30 12:00","2017","08","30","12:00","23.9","","13.6","","52","","36","","2","","24.1","","99.50","","27","","","","NA"
"2017-08-30 13:00","2017","08","30","13:00","21.7","","14.2","","62","","15","","14","","24.1","","99.47","","25","","","","Mostly Cloudy"
"2017-08-30 14:00","2017","08","30","14:00","21.9","","14.3","","62","","15","","8","","24.1","","99.44","","25","","","","NA"
"2017-08-30 15:00","2017","08","30","15:00","23.7","","14.7","","56","","14","","12","","24.1","","99.38","","27","","","","NA"
"2017-08-30 16:00","2017","08","30","16:00","21.7","","13.9","","61","","16","","16","","24.1","","99.35","","25","","","","Mostly Cloudy"
"2017-08-30 17:00","2017","08","30","17:00","21.6","","14.0","","61","","15","","15","","24.1","","99.31","","25","","","","NA"
"2017-08-30 18:00","2017","08","30","18:00","20.9","","14.4","","66","","16","","9","","24.1","","99.29","","25","","","","NA"
"2017-08-30 19:00","2017","08","30","19:00","20.9","","14.5","","67","","3","","6","","24.1","","99.29","","25","","","","Mostly Cloudy"
"2017-08-30 20:00","2017","08","30","20:00","22.4","","15.6","","65","","30","","17","","24.1","","99.32","","27","","","","NA"
"2017-08-30 21:00","2017","08","30","21:00","20.8","","15.2","","70","","29","","16","","24.1","","99.32","","25","","","","NA"
"2017-08-30 22:00","2017","08","30","22:00","19.2","","15.1","","77","","29","","16","","24.1","","99.35","","","","","","Clear"
"2017-08-30 23:00","2017","08","30","23:00","18.0","","15.0","","82","","29","","13","","24.1","","99.36","","","","","","NA"
"2017-08-31 00:00","2017","08","31","00:00","19.0","","15.3","","79","","30","","18","","24.1","","99.39","","","","","","NA"
"2017-08-31 01:00","2017","08","31","01:00","17.8","","16.1","","89","","32","","19","","14.5","","99.36","","","","","","Rain"
"2017-08-31 02:00","2017","08","31","02:00","17.7","","16.5","","92","","31","","17","","6.4","","99.38","","","","","","Rain,Fog"
"2017-08-31 03:00","2017","08","31","03:00","15.7","","14.1","","90","","36","","17","","19.3","","99.43","","","","","","Rain"
"2017-08-31 04:00","2017","08","31","04:00","15.2","","13.5","","90","","34","","20","","24.1","","99.47","","","","","","Mostly Cloudy"
"2017-08-31 05:00","2017","08","31","05:00","14.3","","12.7","","90","","36","","19","","24.1","","99.55","","","","","","NA"
"2017-08-31 06:00","2017","08","31","06:00","14.2","","12.6","","90","","35","","14","","24.1","","99.63","","","","","","NA"
"2017-08-31 07:00","2017","08","31","07:00","14.9","","12.3","","84","","35","","23","","24.1","","99.75","","","","","","Cloudy"
"2017-08-31 08:00","2017","08","31","08:00","14.9","","11.4","","79","","34","","23","","24.1","","99.81","","","","","","NA"
"2017-08-31 09:00","2017","08","31","09:00","15.3","","10.9","","75","","35","","24","","24.1","","99.86","","","","","","NA"
"2017-08-31 10:00","2017","08","31","10:00","16.7","","9.7","","63","","35","","22","","24.1","","99.91","","","","","","Mainly Clear"
"2017-08-31 11:00","2017","08","31","11:00","18.0","","7.3","","49","","1","","23","","24.1","","99.92","","","","","","NA"
"2017-08-31 12:00","2017","08","31","12:00","16.8","","6.8","","52","","36","","26","","24.1","","99.91","","","","","","NA"
"2017-08-31 13:00","2017","08","31","13:00","18.9","","8.2","","49","","34","","24","","24.1","","99.90","","","","","","Mostly Cloudy"
"2017-08-31 14:00","2017","08","31","14:00","18.6","","7.0","","46","","36","","30","","24.1","","99.88","","","","","","NA"
"2017-08-31 15:00","2017","08","31","15:00","18.3","","6.8","","47","","33","","40","","24.1","","99.88","","","","","","NA"
"2017-08-31 16:00","2017","08","31","16:00","16.8","","5.8","","48","","34","","37","","24.1","","99.92","","","","","","Mainly Clear"
"2017-08-31 17:00","2017","08","31","17:00","16.0","","5.0","","48","","36","","35","","24.1","","99.98","","","","","","NA"
"2017-08-31 18:00","2017","08","31","18:00","15.4","","4.3","","47","","34","","23","","24.1","","99.97","","","","","","NA"
"2017-08-31 19:00","2017","08","31","19:00","14.1","","3.9","","50","","34","","27","","24.1","","100.01","","","","","","Mainly Clear"
"2017-08-31 20:00","2017","08","31","20:00","13.2","","4.3","","55","","36","","22","","24.1","","100.06","","","","","","NA"
"2017-08-31 21:00","2017","08","31","21:00","12.4","","4.4","","58","","36","","23","","24.1","","100.14","","","","","","NA"
"2017-08-31 22:00","2017","08","31","22:00","11.7","","3.9","","59","","36","","17","","24.1","","100.20","","","","","","Clear"
"2017-08-31 23:00","2017","08","31","23:00","10.9","","3.8","","61","","1","","12","","24.1","","100.21","","","","","","NA"
