"Station Name","TORONTO LESTER B. PEARSON INT'L A"
"Province","ONTARIO"
"Latitude","43.68"
"Longitude","-79.63"
"Elevation","173.40"
"Climate Identifier","6158733"
"WMO Identifier","71624"
"TC Identifier","YYZ"
"All times are specified in Local Standard Time (LST). Add 1 hour to adjust for Daylight Saving Time where and when it is observed."

"Legend"
"E","Estimated"
"M","Missing"
"NA","Not Available"

"Date/Time","Year","Month","Day","Time","Temp (°C)","Temp Flag","Dew Point Temp (°C)","Dew Point Temp Flag","Rel Hum (%)","Rel Hum Flag","Wind Dir (10s deg)","Wind Dir Flag","Wind Spd (km/h)","Wind Spd Flag","Visibility (km)","Visibility Flag","Stn Press (kPa)","Stn Press Flag","Hmdx","Hmdx Flag","Wind Chill","Wind Chill Flag","Weather"
"1982-02-01 00:00","1982","02","01","00:00","-9.9","","-11.2","","90","","1","","19","","16.1","","98.06","","","","-18","","Cloudy"
"1982-02-01 01:00","1982","02","01","01:00","-9.8","","-12.0","","84","","32","","17","","16.1","","98.12","","","","-17","","Cloudy"
"1982-02-01 02:00","1982","02","01","02:00","-10.1","","-11.2","","92","","35","","24","","4.8","","98.12","","","","-19","","Snow"
"1982-02-01 03:00","1982","02","01","03:00","-9.9","","-11.6","","87","","35","","28","","8.0","","98.29","","","","-19","","Freezing Rain,Snow"
"1982-02-01 04:00","1982","02","01","04:00","-10.2","","-10.8","","96","","35","","33","","4.8","","98.42","","","","-20","","Snow"
"1982-02-01 05:00","1982","02","01","05:00","-10.4","","-11.4","","92","","30","","26","","8.0","","98.72","","","","-19","","Snow"
"1982-02-01 06:00","1982","02","01","06:00","-10.5","","-11.4","","93","","30","","30","","11.3","","99.09","","","","-20","","Snow"
"1982-02-01 07:00","1982","02","01","07:00","-11.2","","-13.2","","85","","28","","35","","11.3","","99.42","","","","-22","","Cloudy"
"1982-02-01 08:00","1982","02","01","08:00","-12.1","","-15.3","","77","","31","","39","","16.1","","99.72","","","","-23","","Mainly Clear"
"1982-02-01 09:00","1982","02","01","09:00","-11.9","","-14.8","","79","","30","","33","","32.2","","99.99","","","","-22","","Mainly Clear"
"1982-02-01 10:00","1982","02","01","10:00","-10.2","","-13.3","","78","","31","","28","","32.2","","100.19","","","","-19","","Mainly Clear"
"1982-02-01 11:00","1982","02","01","11:00","-8.1","","-11.6","","76","","30","","24","","32.2","","100.39","","","","-16","","Clear"
"1982-02-01 12:00","1982","02","01","12:00","-6.6","","-10.5","","74","","31","","26","","32.2","","100.46","","","","-15","","Clear"
"1982-02-01 13:00","1982","02","01","13:00","-5.2","","-9.3","","73","","29","","26","","32.2","","100.62","","","","-13","","Mainly Clear"
"1982-02-01 14:00","1982","02","01","14:00","-4.6","","-8.7","","73","","27","","22","","32.2","","100.69","","","","-11","","Mainly Clear"
"1982-02-01 15:00","1982","02","01","15:00","-4.6","","-7.3","","82","","25","","20","","32.2","","100.79","","","","-11","","Clear"
"1982-02-01 16:00","1982","02","01","16:00","-4.9","","-9.3","","71","","26","","17","","40.2","","100.95","","","","-11","","Clear"
"1982-02-01 17:00","1982","02","01","17:00","-6.5","","-10.5","","73","","25","","13","","32.2","","101.09","","","","-12","","Clear"
"1982-02-01 18:00","1982","02","01","18:00","-9.1","","-11.7","","81","","24","","15","","25.0","","101.19","","","","-16","","Mainly Clear"
"1982-02-01 19:00","1982","02","01","19:00","-9.9","","-12.4","","82","","26","","17","","25.0","","101.25","","","","-17","","Clear"
"1982-02-01 20:00","1982","02","01","20:00","-10.7","","-12.6","","86","","25","","13","","25.0","","101.35","","","","-17","","Clear"
"1982-02-01 21:00","1982","02","01","21:00","-11.8","","-13.9","","84","","26","","9","","25.0","","101.39","","","","-17","","Clear"
"1982-02-01 22:00","1982","02","01","22:00","-12.4","","-14.0","","88","","26","","9","","25.0","","101.39","","","","-18","","Mainly Clear"
"1982-02-01 23:00","1982","02","01","23:00","-15.3","","-16.3","","92","","28","","7","","25.0","","101.42","","","","-20","","Mostly Cloudy"
"1982-02-02 00:00","1982","02","02","00:00","-13.6","","-15.6","","85","","31","","6","","25.0","","101.39","","","","-18","","Mostly Cloudy"
"1982-02-02 01:00","1982","02","02","01:00","-14.1","","-15.7","","88","","36","","4","","25.0","","101.35","","","","-17","","Mostly Cloudy"
"1982-02-02 02:00","1982","02","02","02:00","-14.3","","-16.2","","85","","","","0","","25.0","","101.35","","","","","","Mainly Clear"
"1982-02-02 03:00","1982","02","02","03:00","-14.5","","-16.7","","83","","","","0","","25.0","","101.35","","","","","","Mainly Clear"
"1982-02-02 04:00","1982","02","02","04:00","-14.7","","-16.2","","88","","","","0","","25.0","","101.35","","","","","","Clear"
"1982-02-02 05:00","1982","02","02","05:00","-14.7","","-16.2","","88","","34","","7","","25.0","","101.35","","","","-19","","Clear"
"1982-02-02 06:00","1982","02","02","06:00","-15.0","","-17.8","","79","","33","","4","","25.0","","101.32","","","","-18","","Mainly Clear"
"1982-02-02 07:00","1982","02","02","07:00","-16.0","","-17.3","","90","","35","","11","","25.0","","101.29","","","","-23","","Mainly Clear"
"1982-02-02 08:00","1982","02","02","08:00","-17.5","","-18.9","","89","","36","","7","","0.8","","101.19","","","","-23","","Fog"
"1982-02-02 09:00","1982","02","02","09:00","-15.4","","-16.3","","93","","35","","13","","0.4","","101.15","","","","-23","","Fog"
"1982-02-02 10:00","1982","02","02","10:00","-12.5","","-13.1","","95","","36","","11","","2.4","","101.05","","","","-19","","Fog"
"1982-02-02 11:00","1982","02","02","11:00","-11.3","","-12.5","","91","","36","","9","","4.8","","100.99","","","","-16","","Fog"
"1982-02-02 12:00","1982","02","02","12:00","-8.5","","-9.6","","92","","3","","6","","9.7","","100.79","","","","-12","","Fog"
"1982-02-02 13:00","1982","02","02","13:00","-2.9","","-7.4","","71","","13","","20","","24.1","","100.66","","","","-9","","Cloudy"
"1982-02-02 14:00","1982","02","02","14:00","-2.9","","-5.7","","81","","13","","17","","24.1","","100.49","","","","-8","","Cloudy"
"1982-02-02 15:00","1982","02","02","15:00","-2.6","","-7.0","","72","","17","","7","","32.2","","100.56","","","","-5","","Cloudy"
"1982-02-02 16:00","1982","02","02","16:00","-2.3","","-6.7","","71","","14","","4","","32.2","","100.49","","","","-4","","Cloudy"
"1982-02-02 17:00","1982","02","02","17:00","-2.4","","-6.4","","74","","15","","7","","24.1","","100.46","","","","-5","","Cloudy"
"1982-02-02 18:00","1982","02","02","18:00","-2.3","","-6.7","","71","","14","","9","","25.0","","100.42","","","","-6","","Cloudy"
"1982-02-02 19:00","1982","02","02","19:00","-2.5","","-5.7","","78","","15","","7","","25.0","","100.42","","","","-5","","Cloudy"
"1982-02-02 20:00","1982","02","02","20:00","-3.0","","-5.4","","83","","","","0","","25.0","","100.42","","","","","","Cloudy"
"1982-02-02 21:00","1982","02","02","21:00","-5.4","","-7.1","","88","","","","0","","25.0","","100.32","","","","","","Cloudy"
"1982-02-02 22:00","1982","02","02","22:00","-4.3","","-6.3","","86","","33","","6","","25.0","","100.26","","","","-7","","Cloudy"
"1982-02-02 23:00","1982","02","02","23:00","-6.1","","-7.4","","91","","35","","6","","25.0","","100.19","","","","-9","","Cloudy"
"1982-02-03 00:00","1982","02","03","00:00","-6.0","","-6.8","","94","","34","","6","","25.0","","100.16","","","","-9","","Cloudy"
"1982-02-03 01:00","1982","02","03","01:00","-4.9","","-5.9","","93","","33","","11","","19.3","","100.09","","","","-9","","Cloudy"
"1982-02-03 02:00","1982","02","03","02:00","-4.4","","-5.4","","93","","33","","6","","19.3","","100.06","","","","-7","","Cloudy"
"1982-02-03 03:00","1982","02","03","03:00","-4.0","","-4.8","","94","","34","","7","","16.1","","100.06","","","","-7","","Cloudy"
"1982-02-03 04:00","1982","02","03","04:00","-3.4","","-4.2","","94","","35","","7","","12.9","","99.99","","","","-6","","Cloudy"
"1982-02-03 05:00","1982","02","03","05:00","-3.1","","-3.7","","96","","35","","11","","12.9","","99.89","","","","-7","","Cloudy"
"1982-02-03 06:00","1982","02","03","06:00","-2.8","","-3.9","","92","","35","","7","","11.3","","99.89","","","","-6","","Cloudy"
"1982-02-03 07:00","1982","02","03","07:00","-2.6","","-3.9","","91","","34","","19","","11.3","","99.86","","","","-8","","Cloudy"
"1982-02-03 08:00","1982","02","03","08:00","-3.2","","-4.2","","93","","36","","19","","12.9","","99.82","","","","-9","","Snow"
"1982-02-03 09:00","1982","02","03","09:00","-3.3","","-4.8","","89","","36","","19","","11.3","","99.79","","","","-9","","Cloudy"
"1982-02-03 10:00","1982","02","03","10:00","-3.4","","-4.8","","90","","35","","17","","6.4","","99.72","","","","-9","","Snow"
"1982-02-03 11:00","1982","02","03","11:00","-3.5","","-5.4","","87","","36","","19","","2.0","","99.62","","","","-9","","Snow"
"1982-02-03 12:00","1982","02","03","12:00","-3.5","","-4.8","","91","","36","","22","","2.0","","99.52","","","","-10","","Snow"
"1982-02-03 13:00","1982","02","03","13:00","-3.7","","-4.2","","96","","36","","26","","1.2","","99.32","","","","-11","","Snow"
"1982-02-03 14:00","1982","02","03","14:00","-3.7","","-4.0","","98","","36","","24","","1.2","","99.19","","","","-11","","Snow"
"1982-02-03 15:00","1982","02","03","15:00","-3.5","","-4.0","","96","","35","","31","","1.2","","99.09","","","","-11","","Snow"
"1982-02-03 16:00","1982","02","03","16:00","-3.8","","-4.5","","95","","34","","41","","0.8","","99.16","","","","-13","","Moderate Snow"
"1982-02-03 17:00","1982","02","03","17:00","-4.0","","-4.5","","96","","1","","33","","1.2","","99.06","","","","-12","","Snow"
"1982-02-03 18:00","1982","02","03","18:00","-3.9","","-4.8","","94","","36","","37","","1.2","","99.06","","","","-12","","Snow"
"1982-02-03 19:00","1982","02","03","19:00","-3.9","","-4.8","","94","","1","","31","","0.8","","99.12","","","","-12","","Moderate Snow"
"1982-02-03 20:00","1982","02","03","20:00","-4.2","","-4.5","","98","","36","","31","","1.6","","99.02","","","","-12","","Snow"
"1982-02-03 21:00","1982","02","03","21:00","-4.5","","-5.7","","91","","34","","31","","0.8","","99.19","","","","-12","","Moderate Snow"
"1982-02-03 22:00","1982","02","03","22:00","-5.4","","-5.9","","96","","35","","35","","1.6","","99.19","","","","-14","","Snow"
"1982-02-03 23:00","1982","02","03","23:00","-5.8","","-6.8","","93","","33","","35","","2.4","","99.46","","","","-15","","Snow"
"1982-02-04 00:00","1982","02","04","00:00","-6.5","","-7.0","","96","","34","","35","","4.8","","99.62","","","","-16","","Snow"
"1982-02-04 01:00","1982","02","04","01:00","-7.7","","-8.1","","97","","34","","33","","4.8","","99.82","","","","-17","","Snow,Blowing Snow"
"1982-02-04 02:00","1982","02","04","02:00","-9.6","","-10.7","","92","","34","","31","","25.0","","99.96","","","","-19","","Mostly Cloudy"
"1982-02-04 03:00","1982","02","04","03:00","-9.7","","-10.3","","96","","33","","24","","25.0","","100.12","","","","-18","","Cloudy"
"1982-02-04 04:00","1982","02","04","04:00","-10.6","","-11.8","","91","","34","","24","","25.0","","100.22","","","","-19","","Mainly Clear"
"1982-02-04 05:00","1982","02","04","05:00","-11.4","","-13.3","","86","","34","","26","","25.0","","100.39","","","","-21","","Mostly Cloudy"
"1982-02-04 06:00","1982","02","04","06:00","-12.8","","-14.6","","86","","34","","24","","25.0","","100.49","","","","-22","","Mainly Clear"
"1982-02-04 07:00","1982","02","04","07:00","-14.4","","-16.7","","82","","33","","19","","25.0","","100.69","","","","-23","","Mainly Clear"
"1982-02-04 08:00","1982","02","04","08:00","-16.0","","-17.9","","85","","33","","17","","24.1","","100.85","","","","-25","","Mainly Clear"
"1982-02-04 09:00","1982","02","04","09:00","-15.1","","-17.8","","80","","33","","20","","32.2","","100.95","","","","-24","","Mainly Clear"
"1982-02-04 10:00","1982","02","04","10:00","-14.6","","-17.3","","80","","33","","22","","24.1","","101.05","","","","-24","","Mainly Clear"
"1982-02-04 11:00","1982","02","04","11:00","-14.1","","-17.2","","77","","34","","20","","32.2","","101.09","","","","-23","","Mainly Clear"
"1982-02-04 12:00","1982","02","04","12:00","-13.8","","-16.7","","78","","32","","22","","32.2","","101.15","","","","-23","","Mainly Clear"
"1982-02-04 13:00","1982","02","04","13:00","-13.1","","-16.0","","79","","33","","15","","32.2","","101.19","","","","-21","","Mostly Cloudy"
"1982-02-04 14:00","1982","02","04","14:00","-12.4","","-14.9","","81","","34","","11","","24.1","","101.22","","","","-18","","Mostly Cloudy"
"1982-02-04 15:00","1982","02","04","15:00","-11.9","","-14.8","","79","","34","","11","","32.2","","101.25","","","","-18","","Mostly Cloudy"
"1982-02-04 16:00","1982","02","04","16:00","-12.1","","-15.3","","77","","36","","7","","32.2","","101.29","","","","-16","","Mostly Cloudy"
"1982-02-04 17:00","1982","02","04","17:00","-13.6","","-17.7","","71","","35","","7","","32.2","","101.35","","","","-18","","Mostly Cloudy"
"1982-02-04 18:00","1982","02","04","18:00","-15.0","","-17.8","","79","","36","","6","","25.0","","101.39","","","","-19","","Mainly Clear"
"1982-02-04 19:00","1982","02","04","19:00","-16.2","","-18.4","","83","","35","","9","","25.0","","101.39","","","","-22","","Clear"
"1982-02-04 20:00","1982","02","04","20:00","-18.0","","-20.1","","83","","36","","11","","25.0","","101.39","","","","-25","","Clear"
"1982-02-04 21:00","1982","02","04","21:00","-19.4","","-21.7","","82","","35","","11","","25.0","","101.42","","","","-27","","Clear"
"1982-02-04 22:00","1982","02","04","22:00","-20.1","","-22.2","","83","","35","","11","","25.0","","101.35","","","","-28","","Clear"
"1982-02-04 23:00","1982","02","04","23:00","-21.1","","-23.3","","83","","35","","11","","25.0","","101.32","","","","-29","","Clear"
"1982-02-05 00:00","1982","02","05","00:00","-20.9","","-22.6","","86","","34","","11","","25.0","","101.35","","","","-29","","Mainly Clear"
"1982-02-05 01:00","1982","02","05","01:00","-19.8","","-21.5","","86","","35","","15","","25.0","","101.39","","","","-29","","Cloudy"
"1982-02-05 02:00","1982","02","05","02:00","-19.5","","-20.3","","94","","35","","13","","25.0","","101.39","","","","-28","","Mostly Cloudy"
"1982-02-05 03:00","1982","02","05","03:00","-18.9","","-19.2","","97","","36","","11","","25.0","","101.32","","","","-26","","Cloudy"
"1982-02-05 04:00","1982","02","05","04:00","-19.6","","-20.3","","94","","35","","11","","25.0","","101.29","","","","-27","","Cloudy"
"1982-02-05 05:00","1982","02","05","05:00","-19.1","","-19.8","","94","","34","","13","","25.0","","101.25","","","","-27","","Cloudy"
"1982-02-05 06:00","1982","02","05","06:00","-16.4","","-17.8","","89","","35","","11","","25.0","","101.25","","","","-23","","Cloudy"
"1982-02-05 07:00","1982","02","05","07:00","-15.8","","-16.8","","92","","35","","9","","25.0","","101.22","","","","-22","","Cloudy"
"1982-02-05 08:00","1982","02","05","08:00","-15.3","","-18.4","","77","","34","","9","","19.3","","101.22","","","","-21","","Cloudy"
"1982-02-05 09:00","1982","02","05","09:00","-14.6","","-16.7","","84","","36","","7","","3.2","","101.15","","","","-19","","Snow"
"1982-02-05 10:00","1982","02","05","10:00","-14.2","","-16.2","","85","","4","","7","","1.6","","101.05","","","","-19","","Snow"
"1982-02-05 11:00","1982","02","05","11:00","-11.8","","-14.3","","82","","3","","11","","6.4","","100.99","","","","-18","","Snow"
"1982-02-05 12:00","1982","02","05","12:00","-9.8","","-12.0","","84","","7","","7","","4.8","","100.89","","","","-14","","Snow"
"1982-02-05 13:00","1982","02","05","13:00","-8.9","","-11.7","","80","","6","","15","","6.4","","100.66","","","","-15","","Snow"
"1982-02-05 14:00","1982","02","05","14:00","-8.5","","-10.7","","84","","8","","15","","6.4","","100.46","","","","-15","","Snow"
"1982-02-05 15:00","1982","02","05","15:00","-8.6","","-11.1","","82","","9","","15","","8.0","","100.36","","","","-15","","Snow"
"1982-02-05 16:00","1982","02","05","16:00","-9.0","","-10.5","","89","","1","","11","","2.8","","100.26","","","","-14","","Snow"
"1982-02-05 17:00","1982","02","05","17:00","-9.7","","-11.1","","90","","2","","13","","1.2","","100.16","","","","-16","","Snow"
"1982-02-05 18:00","1982","02","05","18:00","-9.9","","-11.2","","90","","36","","17","","0.8","","100.09","","","","-17","","Moderate Snow"
"1982-02-05 19:00","1982","02","05","19:00","-9.8","","-11.2","","89","","36","","19","","2.4","","99.96","","","","-17","","Snow"
"1982-02-05 20:00","1982","02","05","20:00","-10.6","","-12.2","","88","","35","","19","","1.6","","99.92","","","","-18","","Snow"
"1982-02-05 21:00","1982","02","05","21:00","-11.0","","-12.3","","90","","35","","17","","2.8","","99.79","","","","-18","","Snow"
"1982-02-05 22:00","1982","02","05","22:00","-11.1","","-12.8","","87","","33","","17","","4.0","","99.79","","","","-19","","Snow"
"1982-02-05 23:00","1982","02","05","23:00","-10.8","","-12.8","","85","","33","","15","","6.4","","99.79","","","","-18","","Snow"
"1982-02-06 00:00","1982","02","06","00:00","-11.0","","-12.3","","90","","30","","9","","4.8","","99.76","","","","-16","","Snow"
"1982-02-06 01:00","1982","02","06","01:00","-11.0","","-12.3","","90","","28","","7","","6.4","","99.76","","","","-15","","Snow"
"1982-02-06 02:00","1982","02","06","02:00","-10.8","","-12.3","","89","","28","","11","","12.9","","99.79","","","","-17","","Cloudy"
"1982-02-06 03:00","1982","02","06","03:00","-11.5","","-13.8","","83","","29","","17","","19.3","","99.86","","","","-19","","Mostly Cloudy"
"1982-02-06 04:00","1982","02","06","04:00","-11.9","","-13.9","","85","","27","","22","","19.3","","99.92","","","","-21","","Mostly Cloudy"
"1982-02-06 05:00","1982","02","06","05:00","-13.2","","-15.0","","86","","26","","15","","19.3","","99.96","","","","-21","","Mostly Cloudy"
"1982-02-06 06:00","1982","02","06","06:00","-13.5","","-15.1","","88","","26","","20","","19.3","","99.99","","","","-22","","Mostly Cloudy"
"1982-02-06 07:00","1982","02","06","07:00","-15.1","","-16.8","","87","","27","","15","","19.3","","100.06","","","","-23","","Mostly Cloudy"
"1982-02-06 08:00","1982","02","06","08:00","-13.8","","-16.7","","78","","27","","13","","24.1","","100.09","","","","-21","","Mostly Cloudy"
"1982-02-06 09:00","1982","02","06","09:00","-13.6","","-16.1","","81","","26","","13","","12.9","","100.16","","","","-21","","Cloudy"
"1982-02-06 10:00","1982","02","06","10:00","-12.5","","-14.9","","82","","25","","11","","16.1","","100.19","","","","-19","","Mostly Cloudy"
"1982-02-06 11:00","1982","02","06","11:00","-11.3","","-14.2","","79","","26","","17","","16.1","","100.16","","","","-19","","Mainly Clear"
"1982-02-06 12:00","1982","02","06","12:00","-10.6","","-14.9","","71","","27","","31","","16.1","","100.16","","","","-20","","Mostly Cloudy"
"1982-02-06 13:00","1982","02","06","13:00","-10.6","","-13.5","","79","","28","","33","","19.3","","100.12","","","","-21","","Mostly Cloudy"
"1982-02-06 14:00","1982","02","06","14:00","-10.3","","-15.4","","66","","27","","28","","19.3","","100.09","","","","-20","","Mostly Cloudy"
"1982-02-06 15:00","1982","02","06","15:00","-10.5","","-14.4","","73","","26","","24","","24.1","","100.06","","","","-19","","Mainly Clear"
"1982-02-06 16:00","1982","02","06","16:00","-11.1","","-15.5","","70","","26","","31","","24.1","","100.09","","","","-21","","Mostly Cloudy"
"1982-02-06 17:00","1982","02","06","17:00","-12.7","","-15.4","","80","","27","","24","","24.1","","100.09","","","","-22","","Mainly Clear"
"1982-02-06 18:00","1982","02","06","18:00","-13.3","","-16.1","","79","","26","","20","","25.0","","100.12","","","","-22","","Mostly Cloudy"
"1982-02-06 19:00","1982","02","06","19:00","-13.5","","-16.6","","77","","26","","19","","25.0","","100.16","","","","-22","","Mainly Clear"
"1982-02-06 20:00","1982","02","06","20:00","-14.1","","-16.7","","81","","25","","11","","25.0","","100.22","","","","-21","","Mostly Cloudy"
"1982-02-06 21:00","1982","02","06","21:00","-15.3","","-18.4","","77","","24","","15","","25.0","","100.26","","","","-23","","Mainly Clear"
"1982-02-06 22:00","1982","02","06","22:00","-16.0","","-19.0","","78","","24","","20","","25.0","","100.22","","","","-25","","Mainly Clear"
"1982-02-06 23:00","1982","02","06","23:00","-16.4","","-19.0","","80","","22","","15","","25.0","","100.22","","","","-25","","Mainly Clear"
"1982-02-07 00:00","1982","02","07","00:00","-17.1","","-19.0","","85","","21","","19","","25.0","","100.22","","","","-27","","Mostly Cloudy"
"1982-02-07 01:00","1982","02","07","01:00","-17.5","","-19.5","","84","","21","","20","","25.0","","100.16","","","","-27","","Mainly Clear"
"1982-02-07 02:00","1982","02","07","02:00","-17.8","","-20.1","","82","","24","","22","","25.0","","100.06","","","","-28","","Mainly Clear"
"1982-02-07 03:00","1982","02","07","03:00","-18.0","","-20.1","","83","","23","","24","","25.0","","100.06","","","","-29","","Mainly Clear"
"1982-02-07 04:00","1982","02","07","04:00","-18.0","","-20.1","","83","","21","","24","","16.1","","100.02","","","","-29","","Mainly Clear"
"1982-02-07 05:00","1982","02","07","05:00","-17.8","","-19.4","","87","","20","","26","","19.3","","99.96","","","","-29","","Mainly Clear"
"1982-02-07 06:00","1982","02","07","06:00","-17.2","","-19.0","","86","","21","","31","","19.3","","99.79","","","","-29","","Mainly Clear"
"1982-02-07 07:00","1982","02","07","07:00","-17.1","","-19.0","","85","","20","","22","","16.1","","99.72","","","","-27","","Mostly Cloudy"
"1982-02-07 08:00","1982","02","07","08:00","-15.6","","-17.9","","83","","24","","28","","19.3","","99.66","","","","-26","","Mostly Cloudy"
"1982-02-07 09:00","1982","02","07","09:00","-14.2","","-16.7","","81","","24","","30","","24.1","","99.66","","","","-25","","Mainly Clear"
"1982-02-07 10:00","1982","02","07","10:00","-13.5","","-17.7","","70","","24","","31","","24.1","","99.66","","","","-24","","Mainly Clear"
"1982-02-07 11:00","1982","02","07","11:00","-12.8","","-16.5","","74","","23","","19","","24.1","","99.72","","","","-21","","Mainly Clear"
"1982-02-07 12:00","1982","02","07","12:00","-11.3","","-15.7","","70","","24","","28","","24.1","","99.66","","","","-21","","Mainly Clear"
"1982-02-07 13:00","1982","02","07","13:00","-9.2","","-12.5","","77","","23","","26","","24.1","","99.49","","","","-18","","Mainly Clear"
"1982-02-07 14:00","1982","02","07","14:00","-8.1","","-12.1","","73","","24","","24","","24.1","","99.52","","","","-16","","Mainly Clear"
"1982-02-07 15:00","1982","02","07","15:00","-7.9","","-12.5","","69","","26","","22","","24.1","","99.49","","","","-16","","Mostly Cloudy"
"1982-02-07 16:00","1982","02","07","16:00","-8.2","","-12.1","","73","","24","","26","","24.1","","99.52","","","","-17","","Mainly Clear"
"1982-02-07 17:00","1982","02","07","17:00","-8.5","","-12.3","","74","","24","","17","","24.1","","99.56","","","","-15","","Cloudy"
"1982-02-07 18:00","1982","02","07","18:00","-9.0","","-12.1","","78","","24","","13","","24.1","","99.62","","","","-15","","Cloudy"
"1982-02-07 19:00","1982","02","07","19:00","-8.7","","-12.3","","75","","22","","11","","25.0","","99.66","","","","-14","","Cloudy"
"1982-02-07 20:00","1982","02","07","20:00","-8.1","","-12.1","","73","","22","","9","","25.0","","99.69","","","","-13","","Cloudy"
"1982-02-07 21:00","1982","02","07","21:00","-8.3","","-11.9","","75","","22","","15","","25.0","","99.66","","","","-15","","Cloudy"
"1982-02-07 22:00","1982","02","07","22:00","-8.3","","-11.9","","75","","21","","9","","25.0","","99.69","","","","-13","","Cloudy"
"1982-02-07 23:00","1982","02","07","23:00","-8.6","","-12.3","","75","","21","","11","","25.0","","99.69","","","","-14","","Mostly Cloudy"
"1982-02-08 00:00","1982","02","08","00:00","-8.5","","-11.9","","76","","20","","17","","25.0","","99.66","","","","-15","","Cloudy"
"1982-02-08 01:00","1982","02","08","01:00","-8.6","","-11.5","","80","","22","","17","","25.0","","99.66","","","","-15","","Cloudy"
"1982-02-08 02:00","1982","02","08","02:00","-8.7","","-11.1","","83","","22","","17","","25.0","","99.72","","","","-16","","Mostly Cloudy"
"1982-02-08 03:00","1982","02","08","03:00","-8.0","","-11.6","","75","","26","","26","","25.0","","99.76","","","","-16","","Mostly Cloudy"
"1982-02-08 04:00","1982","02","08","04:00","-9.0","","-11.7","","81","","26","","22","","19.3","","99.82","","","","-17","","Mainly Clear"
"1982-02-08 05:00","1982","02","08","05:00","-9.8","","-12.4","","81","","26","","20","","19.3","","99.96","","","","-18","","Mainly Clear"
"1982-02-08 06:00","1982","02","08","06:00","-10.2","","-12.4","","84","","26","","20","","19.3","","100.02","","","","-18","","Mostly Cloudy"
"1982-02-08 07:00","1982","02","08","07:00","-10.1","","-12.0","","86","","25","","20","","19.3","","100.12","","","","-18","","Mostly Cloudy"
"1982-02-08 08:00","1982","02","08","08:00","-11.1","","-13.2","","84","","25","","19","","19.3","","100.19","","","","-19","","Mostly Cloudy"
"1982-02-08 09:00","1982","02","08","09:00","-10.6","","-12.6","","85","","26","","19","","19.3","","100.22","","","","-18","","Mostly Cloudy"
"1982-02-08 10:00","1982","02","08","10:00","-9.8","","-12.4","","81","","25","","15","","19.3","","100.26","","","","-16","","Mainly Clear"
"1982-02-08 11:00","1982","02","08","11:00","-8.6","","-11.5","","80","","23","","15","","19.3","","100.29","","","","-15","","Mainly Clear"
"1982-02-08 12:00","1982","02","08","12:00","-6.9","","-11.2","","71","","21","","11","","19.3","","100.29","","","","-12","","Mainly Clear"
"1982-02-08 13:00","1982","02","08","13:00","-6.2","","-11.5","","66","","26","","19","","24.1","","100.19","","","","-13","","Mostly Cloudy"
"1982-02-08 14:00","1982","02","08","14:00","-5.5","","-11.6","","62","","26","","19","","24.1","","100.16","","","","-12","","Mostly Cloudy"
"1982-02-08 15:00","1982","02","08","15:00","-5.3","","-11.6","","61","","26","","15","","24.1","","100.12","","","","-11","","Mostly Cloudy"
"1982-02-08 16:00","1982","02","08","16:00","-5.4","","-11.2","","63","","24","","13","","24.1","","100.09","","","","-11","","Mostly Cloudy"
"1982-02-08 17:00","1982","02","08","17:00","-6.3","","-11.3","","68","","23","","15","","24.1","","100.09","","","","-12","","Mostly Cloudy"
"1982-02-08 18:00","1982","02","08","18:00","-6.6","","-10.9","","71","","22","","15","","19.3","","100.06","","","","-13","","Cloudy"
"1982-02-08 19:00","1982","02","08","19:00","-7.2","","-10.8","","76","","22","","11","","25.0","","100.06","","","","-12","","Cloudy"
"1982-02-08 20:00","1982","02","08","20:00","-7.9","","-11.6","","74","","22","","9","","25.0","","99.96","","","","-12","","Cloudy"
"1982-02-08 21:00","1982","02","08","21:00","-8.1","","-10.5","","83","","26","","9","","25.0","","99.96","","","","-13","","Cloudy"
"1982-02-08 22:00","1982","02","08","22:00","-9.4","","-11.4","","85","","28","","7","","25.0","","99.96","","","","-13","","Cloudy"
"1982-02-08 23:00","1982","02","08","23:00","-7.5","","-9.9","","83","","27","","11","","25.0","","99.89","","","","-13","","Cloudy"
"1982-02-09 00:00","1982","02","09","00:00","-6.7","","-8.7","","86","","31","","6","","19.3","","99.86","","","","-10","","Cloudy"
"1982-02-09 01:00","1982","02","09","01:00","-6.9","","-8.9","","86","","35","","4","","16.1","","99.79","","","","-9","","Cloudy"
"1982-02-09 02:00","1982","02","09","02:00","-7.3","","-9.1","","87","","","","0","","12.9","","99.72","","","","","","Cloudy"
"1982-02-09 03:00","1982","02","09","03:00","-6.9","","-8.9","","86","","11","","7","","11.3","","99.62","","","","-10","","Cloudy"
"1982-02-09 04:00","1982","02","09","04:00","-6.8","","-8.9","","85","","","","0","","6.4","","99.62","","","","","","Snow"
"1982-02-09 05:00","1982","02","09","05:00","-7.4","","-8.1","","95","","","","0","","2.4","","99.59","","","","","","Snow"
"1982-02-09 06:00","1982","02","09","06:00","-7.4","","-8.1","","95","","","","0","","4.0","","99.52","","","","","","Snow"
"1982-02-09 07:00","1982","02","09","07:00","-7.5","","-8.1","","95","","","","0","","4.0","","99.46","","","","","","Snow"
"1982-02-09 08:00","1982","02","09","08:00","-7.4","","-8.1","","95","","29","","2","","2.0","","99.39","","","","-8","","Snow"
"1982-02-09 09:00","1982","02","09","09:00","-7.3","","-8.4","","92","","28","","4","","2.0","","99.39","","","","-9","","Snow"
"1982-02-09 10:00","1982","02","09","10:00","-7.4","","-8.8","","90","","30","","4","","6.4","","99.29","","","","-9","","Snow"
"1982-02-09 11:00","1982","02","09","11:00","-7.0","","-8.2","","91","","29","","7","","4.8","","99.29","","","","-11","","Snow"
"1982-02-09 12:00","1982","02","09","12:00","-6.5","","-9.0","","82","","28","","9","","16.1","","99.26","","","","-11","","Mostly Cloudy"
"1982-02-09 13:00","1982","02","09","13:00","-5.0","","-8.9","","74","","30","","15","","16.1","","99.16","","","","-11","","Mainly Clear"
"1982-02-09 14:00","1982","02","09","14:00","-5.7","","-9.6","","74","","28","","13","","24.1","","99.09","","","","-11","","Mainly Clear"
"1982-02-09 15:00","1982","02","09","15:00","-6.2","","-11.1","","68","","30","","13","","32.2","","99.06","","","","-12","","Mostly Cloudy"
"1982-02-09 16:00","1982","02","09","16:00","-6.9","","-11.2","","71","","28","","13","","40.2","","99.06","","","","-12","","Mostly Cloudy"
"1982-02-09 17:00","1982","02","09","17:00","-7.1","","-10.8","","75","","29","","19","","32.2","","99.09","","","","-14","","Cloudy"
"1982-02-09 18:00","1982","02","09","18:00","-8.0","","-12.1","","72","","27","","15","","25.0","","99.09","","","","-14","","Cloudy"
"1982-02-09 19:00","1982","02","09","19:00","-9.0","","-12.5","","76","","29","","19","","25.0","","99.16","","","","-16","","Cloudy"
"1982-02-09 20:00","1982","02","09","20:00","-10.5","","-13.0","","82","","28","","19","","19.3","","99.19","","","","-18","","Mostly Cloudy"
"1982-02-09 21:00","1982","02","09","21:00","-11.1","","-14.1","","78","","30","","20","","25.0","","99.26","","","","-19","","Mostly Cloudy"
"1982-02-09 22:00","1982","02","09","22:00","-12.2","","-15.8","","75","","29","","15","","25.0","","99.29","","","","-19","","Mainly Clear"
"1982-02-09 23:00","1982","02","09","23:00","-12.0","","-14.8","","80","","26","","20","","25.0","","99.29","","","","-20","","Mainly Clear"
"1982-02-10 00:00","1982","02","10","00:00","-12.6","","-15.4","","80","","26","","20","","25.0","","99.32","","","","-21","","Mainly Clear"
"1982-02-10 01:00","1982","02","10","01:00","-13.4","","-15.6","","83","","26","","20","","25.0","","99.32","","","","-22","","Mainly Clear"
"1982-02-10 02:00","1982","02","10","02:00","-13.5","","-15.1","","88","","26","","20","","25.0","","99.39","","","","-22","","Mainly Clear"
"1982-02-10 03:00","1982","02","10","03:00","-13.9","","-16.0","","84","","26","","19","","19.3","","99.42","","","","-23","","Mainly Clear"
"1982-02-10 04:00","1982","02","10","04:00","-14.5","","-16.7","","83","","27","","19","","25.0","","99.50","","","","-23","","Mainly Clear"
"1982-02-10 05:00","1982","02","10","05:00","-15.4","","-17.9","","81","","27","","15","","25.0","","99.59","","","","-23","","Mainly Clear"
"1982-02-10 06:00","1982","02","10","06:00","-15.8","","-18.4","","80","","27","","22","","25.0","","99.66","","","","-26","","Mainly Clear"
"1982-02-10 07:00","1982","02","10","07:00","-16.5","","-19.0","","81","","26","","17","","25.0","","99.76","","","","-25","","Mainly Clear"
"1982-02-10 08:00","1982","02","10","08:00","-16.7","","-19.0","","82","","27","","22","","19.3","","99.86","","","","-27","","Mainly Clear"
"1982-02-10 09:00","1982","02","10","09:00","-16.4","","-21.0","","68","","27","","20","","32.2","","99.96","","","","-26","","Clear"
"1982-02-10 10:00","1982","02","10","10:00","-15.6","","-19.0","","75","","25","","19","","32.2","","99.99","","","","-25","","Mainly Clear"
"1982-02-10 11:00","1982","02","10","11:00","-14.9","","-19.0","","71","","24","","19","","32.2","","100.06","","","","-24","","Mainly Clear"
"1982-02-10 12:00","1982","02","10","12:00","-14.4","","-18.4","","72","","25","","28","","32.2","","100.06","","","","-25","","Mainly Clear"
"1982-02-10 13:00","1982","02","10","13:00","-14.2","","-17.8","","74","","25","","17","","32.2","","100.02","","","","-22","","Mostly Cloudy"
"1982-02-10 14:00","1982","02","10","14:00","-13.8","","-18.4","","68","","25","","28","","32.2","","99.96","","","","-24","","Mostly Cloudy"
"1982-02-10 15:00","1982","02","10","15:00","-13.5","","-17.2","","73","","24","","24","","32.2","","99.96","","","","-23","","Mostly Cloudy"
"1982-02-10 16:00","1982","02","10","16:00","-13.3","","-18.9","","63","","25","","31","","32.2","","99.99","","","","-24","","Mostly Cloudy"
"1982-02-10 17:00","1982","02","10","17:00","-13.2","","-18.2","","66","","25","","28","","32.2","","100.02","","","","-23","","Mainly Clear"
"1982-02-10 18:00","1982","02","10","18:00","-14.0","","-18.4","","69","","24","","28","","25.0","","100.06","","","","-24","","Mostly Cloudy"
"1982-02-10 19:00","1982","02","10","19:00","-14.8","","-19.0","","70","","24","","24","","25.0","","100.16","","","","-25","","Mainly Clear"
"1982-02-10 20:00","1982","02","10","20:00","-15.9","","-19.7","","72","","23","","19","","25.0","","100.12","","","","-25","","Mainly Clear"
"1982-02-10 21:00","1982","02","10","21:00","-16.9","","-20.2","","75","","22","","17","","25.0","","100.16","","","","-26","","Mainly Clear"
"1982-02-10 22:00","1982","02","10","22:00","-17.0","","-20.9","","72","","23","","13","","25.0","","100.19","","","","-25","","Mostly Cloudy"
"1982-02-10 23:00","1982","02","10","23:00","-17.4","","-20.8","","75","","22","","11","","25.0","","100.26","","","","-25","","Mostly Cloudy"
"1982-02-11 00:00","1982","02","11","00:00","-18.7","","-22.0","","75","","23","","13","","25.0","","100.29","","","","-27","","Mostly Cloudy"
"1982-02-11 01:00","1982","02","11","01:00","-19.0","","-22.6","","73","","","","0","","25.0","","100.32","","","","","","Mainly Clear"
"1982-02-11 02:00","1982","02","11","02:00","-18.9","","-21.9","","77","","21","","7","","25.0","","100.32","","","","-24","","Mostly Cloudy"
"1982-02-11 03:00","1982","02","11","03:00","-19.6","","-22.4","","79","","18","","6","","25.0","","100.36","","","","-25","","Mainly Clear"
"1982-02-11 04:00","1982","02","11","04:00","-21.7","","-23.9","","83","","16","","9","","19.3","","100.29","","","","-29","","Mainly Clear"
"1982-02-11 05:00","1982","02","11","05:00","-20.8","","-23.3","","80","","17","","9","","19.3","","100.29","","","","-28","","Mainly Clear"
"1982-02-11 06:00","1982","02","11","06:00","-19.1","","-22.6","","74","","18","","6","","19.3","","100.36","","","","-24","","Mostly Cloudy"
"1982-02-11 07:00","1982","02","11","07:00","-17.6","","-19.5","","85","","18","","7","","16.1","","100.36","","","","-23","","Cloudy"
"1982-02-11 08:00","1982","02","11","08:00","-16.8","","-19.6","","79","","18","","13","","9.7","","100.29","","","","-25","","Snow Showers"
"1982-02-11 09:00","1982","02","11","09:00","-15.2","","-17.8","","81","","22","","19","","11.3","","100.36","","","","-24","","Cloudy"
"1982-02-11 10:00","1982","02","11","10:00","-14.2","","-16.7","","81","","22","","19","","11.3","","100.29","","","","-23","","Mostly Cloudy"
"1982-02-11 11:00","1982","02","11","11:00","-13.3","","-16.1","","79","","22","","19","","12.9","","100.26","","","","-22","","Mostly Cloudy"
"1982-02-11 12:00","1982","02","11","12:00","-12.0","","-14.8","","80","","21","","26","","12.9","","100.22","","","","-22","","Mostly Cloudy"
"1982-02-11 13:00","1982","02","11","13:00","-11.3","","-14.7","","76","","22","","22","","12.9","","100.16","","","","-20","","Mostly Cloudy"
"1982-02-11 14:00","1982","02","11","14:00","-9.8","","-12.9","","78","","21","","24","","16.1","","100.09","","","","-18","","Mostly Cloudy"
"1982-02-11 15:00","1982","02","11","15:00","-9.0","","-14.3","","65","","21","","24","","16.1","","100.06","","","","-17","","Mostly Cloudy"
"1982-02-11 16:00","1982","02","11","16:00","-9.4","","-15.5","","61","","21","","22","","40.2","","100.06","","","","-17","","Mainly Clear"
"1982-02-11 17:00","1982","02","11","17:00","-10.3","","-14.9","","69","","22","","22","","32.2","","100.09","","","","-19","","Mainly Clear"
"1982-02-11 18:00","1982","02","11","18:00","-11.5","","-15.2","","74","","23","","13","","25.0","","100.16","","","","-18","","Mainly Clear"
"1982-02-11 19:00","1982","02","11","19:00","-11.7","","-14.7","","78","","24","","19","","25.0","","100.22","","","","-20","","Mainly Clear"
"1982-02-11 20:00","1982","02","11","20:00","-12.3","","-15.9","","74","","26","","19","","25.0","","100.26","","","","-21","","Mainly Clear"
"1982-02-11 21:00","1982","02","11","21:00","-12.3","","-16.4","","71","","26","","22","","25.0","","100.29","","","","-21","","Mainly Clear"
"1982-02-11 22:00","1982","02","11","22:00","-12.8","","-16.5","","74","","26","","19","","19.3","","100.36","","","","-21","","Clear"
"1982-02-11 23:00","1982","02","11","23:00","-13.2","","-16.0","","80","","26","","17","","16.1","","100.39","","","","-21","","Clear"
"1982-02-12 00:00","1982","02","12","00:00","-13.0","","-15.5","","81","","26","","17","","12.9","","100.46","","","","-21","","Clear"
"1982-02-12 01:00","1982","02","12","01:00","-13.1","","-15.0","","86","","26","","19","","16.1","","100.52","","","","-22","","Clear"
"1982-02-12 02:00","1982","02","12","02:00","-14.1","","-15.2","","91","","26","","15","","19.3","","100.62","","","","-22","","Clear"
"1982-02-12 03:00","1982","02","12","03:00","-13.8","","-15.7","","85","","26","","13","","24.1","","100.69","","","","-21","","Clear"
"1982-02-12 04:00","1982","02","12","04:00","-14.6","","-16.2","","87","","28","","7","","24.1","","100.72","","","","-19","","Clear"
"1982-02-12 05:00","1982","02","12","05:00","-14.0","","-15.7","","87","","27","","11","","25.0","","100.79","","","","-20","","Clear"
"1982-02-12 06:00","1982","02","12","06:00","-14.4","","-16.2","","86","","27","","4","","25.0","","100.85","","","","-17","","Clear"
"1982-02-12 07:00","1982","02","12","07:00","-15.5","","-17.3","","86","","28","","6","","24.1","","100.85","","","","-20","","Mainly Clear"
"1982-02-12 08:00","1982","02","12","08:00","-15.3","","-17.3","","85","","29","","7","","9.7","","100.89","","","","-20","","Fog"
"1982-02-12 09:00","1982","02","12","09:00","-13.7","","-16.1","","82","","34","","6","","11.3","","100.99","","","","-18","","Cloudy"
"1982-02-12 10:00","1982","02","12","10:00","-11.8","","-14.8","","78","","32","","7","","12.9","","101.02","","","","-16","","Cloudy"
"1982-02-12 11:00","1982","02","12","11:00","-9.6","","-12.3","","81","","31","","4","","12.9","","101.02","","","","-12","","Cloudy"
"1982-02-12 12:00","1982","02","12","12:00","-5.5","","-9.6","","73","","","","0","","12.9","","100.99","","","","","","Cloudy"
"1982-02-12 13:00","1982","02","12","13:00","-6.1","","-10.6","","70","","","","0","","12.9","","100.92","","","","","","Cloudy"
"1982-02-12 14:00","1982","02","12","14:00","-4.6","","-10.2","","65","","","","0","","12.9","","100.82","","","","","","Cloudy"
"1982-02-12 15:00","1982","02","12","15:00","-5.4","","-11.2","","63","","","","0","","12.9","","100.85","","","","","","Cloudy"
"1982-02-12 16:00","1982","02","12","16:00","-5.7","","-11.2","","65","","24","","2","","19.3","","100.79","","","","-7","","Cloudy"
"1982-02-12 17:00","1982","02","12","17:00","-5.9","","-11.5","","64","","","","0","","19.3","","100.76","","","","","","Cloudy"
"1982-02-12 18:00","1982","02","12","18:00","-6.4","","-11.3","","68","","","","0","","16.1","","100.69","","","","","","Cloudy"
"1982-02-12 19:00","1982","02","12","19:00","-6.5","","-11.3","","69","","","","0","","25.0","","100.66","","","","","","Cloudy"
"1982-02-12 20:00","1982","02","12","20:00","-7.2","","-10.0","","80","","23","","4","","19.3","","100.62","","","","-9","","Cloudy"
"1982-02-12 21:00","1982","02","12","21:00","-7.4","","-9.9","","82","","25","","4","","16.1","","100.59","","","","-9","","Cloudy"
"1982-02-12 22:00","1982","02","12","22:00","-8.1","","-10.1","","85","","36","","6","","19.3","","100.52","","","","-11","","Cloudy"
"1982-02-12 23:00","1982","02","12","23:00","-9.0","","-10.9","","86","","35","","6","","19.3","","100.46","","","","-12","","Cloudy"
"1982-02-13 00:00","1982","02","13","00:00","-9.0","","-11.7","","81","","34","","6","","16.1","","100.42","","","","-12","","Cloudy"
"1982-02-13 01:00","1982","02","13","01:00","-9.5","","-11.4","","86","","35","","7","","16.1","","100.39","","","","-13","","Cloudy"
"1982-02-13 02:00","1982","02","13","02:00","-10.0","","-11.6","","88","","34","","11","","16.1","","100.36","","","","-16","","Cloudy"
"1982-02-13 03:00","1982","02","13","03:00","-10.5","","-12.2","","87","","35","","7","","24.1","","100.29","","","","-15","","Cloudy"
"1982-02-13 04:00","1982","02","13","04:00","-10.3","","-12.6","","83","","34","","7","","19.3","","100.22","","","","-14","","Snow"
"1982-02-13 05:00","1982","02","13","05:00","-10.0","","-11.6","","88","","34","","7","","16.1","","100.22","","","","-14","","Cloudy"
"1982-02-13 06:00","1982","02","13","06:00","-10.0","","-11.2","","91","","34","","6","","6.4","","100.22","","","","-14","","Snow"
"1982-02-13 07:00","1982","02","13","07:00","-10.5","","-11.8","","90","","","","0","","12.9","","100.19","","","","","","Snow"
"1982-02-13 08:00","1982","02","13","08:00","-11.0","","-11.9","","93","","29","","6","","12.9","","100.22","","","","-15","","Cloudy"
"1982-02-13 09:00","1982","02","13","09:00","-10.4","","-11.8","","89","","28","","6","","12.9","","100.19","","","","-14","","Cloudy"
"1982-02-13 10:00","1982","02","13","10:00","-7.9","","-9.7","","87","","24","","4","","12.9","","100.19","","","","-10","","Mostly Cloudy"
"1982-02-13 11:00","1982","02","13","11:00","-7.2","","-8.6","","90","","26","","4","","11.3","","100.19","","","","-9","","Mostly Cloudy"
"1982-02-13 12:00","1982","02","13","12:00","-5.6","","-9.6","","73","","30","","20","","16.1","","100.16","","","","-12","","Mostly Cloudy"
"1982-02-13 13:00","1982","02","13","13:00","-4.6","","-9.4","","69","","28","","17","","19.3","","100.06","","","","-10","","Mainly Clear"
"1982-02-13 14:00","1982","02","13","14:00","-5.0","","-8.9","","74","","29","","19","","24.1","","99.99","","","","-11","","Mostly Cloudy"
"1982-02-13 15:00","1982","02","13","15:00","-5.4","","-9.6","","72","","30","","20","","19.3","","99.96","","","","-12","","Mostly Cloudy"
"1982-02-13 16:00","1982","02","13","16:00","-5.9","","-10.6","","69","","28","","19","","16.1","","99.99","","","","-13","","Mostly Cloudy"
"1982-02-13 17:00","1982","02","13","17:00","-6.0","","-10.3","","72","","26","","17","","16.1","","99.99","","","","-12","","Cloudy"
"1982-02-13 18:00","1982","02","13","18:00","-6.5","","-10.9","","71","","26","","17","","12.9","","99.96","","","","-13","","Cloudy"
"1982-02-13 19:00","1982","02","13","19:00","-6.5","","-10.9","","71","","24","","9","","12.9","","99.96","","","","-11","","Cloudy"
"1982-02-13 20:00","1982","02","13","20:00","-6.5","","-10.1","","75","","23","","11","","12.9","","99.86","","","","-11","","Cloudy"
"1982-02-13 21:00","1982","02","13","21:00","-6.7","","-9.0","","84","","24","","11","","11.3","","99.82","","","","-12","","Snow"
"1982-02-13 22:00","1982","02","13","22:00","-7.1","","-7.9","","94","","23","","11","","6.4","","99.79","","","","-12","","Snow"
"1982-02-13 23:00","1982","02","13","23:00","-7.1","","-8.2","","92","","22","","9","","6.4","","99.79","","","","-11","","Snow"
"1982-02-14 00:00","1982","02","14","00:00","-7.9","","-9.0","","92","","21","","7","","6.4","","99.76","","","","-12","","Snow"
"1982-02-14 01:00","1982","02","14","01:00","-8.0","","-9.0","","92","","23","","11","","4.8","","99.72","","","","-13","","Snow"
"1982-02-14 02:00","1982","02","14","02:00","-7.5","","-8.8","","90","","24","","15","","4.0","","99.76","","","","-14","","Fog"
"1982-02-14 03:00","1982","02","14","03:00","-8.5","","-9.9","","90","","28","","6","","6.4","","99.72","","","","-12","","Fog"
"1982-02-14 04:00","1982","02","14","04:00","-9.5","","-10.7","","91","","26","","6","","4.8","","99.76","","","","-13","","Fog"
"1982-02-14 05:00","1982","02","14","05:00","-9.2","","-10.5","","90","","","","0","","6.4","","99.79","","","","","","Fog"
"1982-02-14 06:00","1982","02","14","06:00","-10.6","","-11.4","","94","","34","","2","","4.0","","99.82","","","","-12","","Fog"
"1982-02-14 07:00","1982","02","14","07:00","-11.5","","-12.9","","89","","2","","4","","3.2","","99.86","","","","-14","","Fog"
"1982-02-14 08:00","1982","02","14","08:00","-9.6","","-10.7","","92","","","","0","","2.4","","99.96","","","","","","Fog"
"1982-02-14 09:00","1982","02","14","09:00","-9.9","","-10.8","","93","","26","","4","","1.6","","100.02","","","","-12","","Fog"
"1982-02-14 10:00","1982","02","14","10:00","-8.4","","-9.9","","89","","","","0","","1.6","","100.06","","","","","","Fog"
"1982-02-14 11:00","1982","02","14","11:00","-6.4","","-9.4","","79","","","","0","","3.2","","100.06","","","","","","Haze"
"1982-02-14 12:00","1982","02","14","12:00","-5.5","","-8.2","","81","","","","0","","4.0","","100.09","","","","","","Haze"
"1982-02-14 13:00","1982","02","14","13:00","-4.9","","-8.6","","75","","","","0","","4.0","","100.09","","","","","","Haze"
"1982-02-14 14:00","1982","02","14","14:00","-4.1","","-7.3","","78","","15","","11","","4.0","","100.06","","","","-9","","Haze"
"1982-02-14 15:00","1982","02","14","15:00","-4.1","","-7.3","","78","","16","","11","","4.8","","100.06","","","","-9","","Haze"
"1982-02-14 16:00","1982","02","14","16:00","-3.9","","-6.6","","81","","15","","15","","6.4","","100.09","","","","-9","","Haze"
"1982-02-14 17:00","1982","02","14","17:00","-4.1","","-6.6","","83","","14","","13","","6.4","","100.06","","","","-9","","Haze"
"1982-02-14 18:00","1982","02","14","18:00","-3.9","","-6.3","","83","","15","","4","","6.4","","100.02","","","","-6","","Haze"
"1982-02-14 19:00","1982","02","14","19:00","-3.8","","-6.6","","81","","15","","13","","6.4","","99.99","","","","-9","","Snow"
"1982-02-14 20:00","1982","02","14","20:00","-3.4","","-5.7","","84","","15","","11","","8.0","","99.92","","","","-8","","Haze"
"1982-02-14 21:00","1982","02","14","21:00","-3.1","","-4.5","","90","","15","","13","","8.0","","99.86","","","","-8","","Fog"
"1982-02-14 22:00","1982","02","14","22:00","-2.8","","-4.5","","88","","15","","17","","9.7","","99.76","","","","-8","","Fog"
"1982-02-14 23:00","1982","02","14","23:00","-2.2","","-3.6","","90","","15","","19","","9.7","","99.62","","","","-8","","Fog"
"1982-02-15 00:00","1982","02","15","00:00","-2.4","","-3.9","","89","","15","","15","","6.4","","99.52","","","","-7","","Fog"
"1982-02-15 01:00","1982","02","15","01:00","-2.1","","-3.6","","89","","15","","13","","6.4","","99.39","","","","-7","","Fog"
"1982-02-15 02:00","1982","02","15","02:00","-2.0","","-4.1","","85","","13","","15","","8.0","","99.32","","","","-7","","Fog"
"1982-02-15 03:00","1982","02","15","03:00","-1.9","","-3.6","","88","","13","","11","","11.3","","99.16","","","","-6","","Mostly Cloudy"
"1982-02-15 04:00","1982","02","15","04:00","-1.0","","-3.3","","84","","14","","9","","24.1","","99.12","","","","-4","","Mostly Cloudy"
"1982-02-15 05:00","1982","02","15","05:00","0.5","","-4.3","","70","","17","","7","","19.3","","99.06","","","","","","Mostly Cloudy"
"1982-02-15 06:00","1982","02","15","06:00","-0.2","","-4.0","","76","","15","","7","","19.3","","98.99","","","","-3","","Mostly Cloudy"
"1982-02-15 07:00","1982","02","15","07:00","1.0","","-3.6","","71","","20","","13","","19.3","","98.99","","","","","","Mostly Cloudy"
"1982-02-15 08:00","1982","02","15","08:00","3.2","","-2.6","","65","","23","","19","","32.2","","99.02","","","","","","Mainly Clear"
"1982-02-15 09:00","1982","02","15","09:00","3.6","","-2.0","","67","","23","","19","","32.2","","99.09","","","","","","Mostly Cloudy"
"1982-02-15 10:00","1982","02","15","10:00","4.0","","-1.4","","68","","23","","17","","32.2","","99.09","","","","","","Cloudy"
"1982-02-15 11:00","1982","02","15","11:00","4.6","","-0.8","","68","","24","","20","","32.2","","99.09","","","","","","Mostly Cloudy"
"1982-02-15 12:00","1982","02","15","12:00","5.1","","-0.7","","66","","24","","19","","32.2","","99.09","","","","","","Cloudy"
"1982-02-15 13:00","1982","02","15","13:00","5.5","","-0.6","","65","","25","","22","","24.1","","99.09","","","","","","Cloudy"
"1982-02-15 14:00","1982","02","15","14:00","6.0","","0.0","","65","","24","","15","","24.1","","99.09","","","","","","Cloudy"
"1982-02-15 15:00","1982","02","15","15:00","4.9","","-0.7","","67","","24","","15","","24.1","","99.12","","","","","","Cloudy"
"1982-02-15 16:00","1982","02","15","16:00","4.6","","-0.8","","68","","24","","11","","16.1","","99.16","","","","","","Cloudy"
"1982-02-15 17:00","1982","02","15","17:00","3.8","","0.3","","78","","21","","11","","16.1","","99.19","","","","","","Cloudy"
"1982-02-15 18:00","1982","02","15","18:00","2.9","","0.2","","83","","23","","11","","11.3","","99.22","","","","","","Cloudy"
"1982-02-15 19:00","1982","02","15","19:00","3.3","","0.2","","80","","22","","9","","16.1","","99.29","","","","","","Cloudy"
"1982-02-15 20:00","1982","02","15","20:00","2.6","","-0.4","","81","","22","","6","","16.1","","99.29","","","","","","Cloudy"
"1982-02-15 21:00","1982","02","15","21:00","2.3","","0.1","","86","","25","","7","","12.9","","99.29","","","","","","Cloudy"
"1982-02-15 22:00","1982","02","15","22:00","2.5","","0.1","","84","","","","0","","11.3","","99.36","","","","","","Mostly Cloudy"
"1982-02-15 23:00","1982","02","15","23:00","1.4","","0.0","","90","","29","","7","","9.7","","99.39","","","","","","Fog"
"1982-02-16 00:00","1982","02","16","00:00","1.5","","0.0","","90","","29","","7","","12.9","","99.39","","","","","","Cloudy"
"1982-02-16 01:00","1982","02","16","01:00","1.6","","0.0","","89","","36","","9","","11.3","","99.46","","","","","","Cloudy"
"1982-02-16 02:00","1982","02","16","02:00","1.4","","0.0","","90","","4","","6","","9.7","","99.52","","","","","","Fog"
"1982-02-16 03:00","1982","02","16","03:00","1.3","","-0.5","","88","","1","","9","","8.0","","99.56","","","","","","Fog"
"1982-02-16 04:00","1982","02","16","04:00","1.0","","-0.5","","90","","36","","9","","16.1","","99.59","","","","","","Cloudy"
"1982-02-16 05:00","1982","02","16","05:00","0.8","","0.0","","95","","1","","9","","12.9","","99.62","","","","","","Cloudy"
"1982-02-16 06:00","1982","02","16","06:00","0.4","","-0.5","","94","","35","","11","","11.3","","99.72","","","","","","Cloudy"
"1982-02-16 07:00","1982","02","16","07:00","0.4","","-0.5","","94","","36","","9","","12.9","","99.76","","","","","","Cloudy"
"1982-02-16 08:00","1982","02","16","08:00","-0.4","","-3.1","","82","","1","","13","","12.9","","99.86","","","","-5","","Cloudy"
"1982-02-16 09:00","1982","02","16","09:00","-0.8","","-3.0","","85","","1","","15","","11.3","","99.92","","","","-5","","Cloudy"
"1982-02-16 10:00","1982","02","16","10:00","-0.4","","-2.5","","86","","36","","9","","11.3","","99.99","","","","-4","","Cloudy"
"1982-02-16 11:00","1982","02","16","11:00","0.5","","-0.9","","90","","1","","9","","11.3","","99.96","","","","","","Cloudy"
"1982-02-16 12:00","1982","02","16","12:00","1.4","","-2.1","","77","","2","","11","","11.3","","99.99","","","","","","Cloudy"
"1982-02-16 13:00","1982","02","16","13:00","1.8","","-2.1","","75","","1","","11","","11.3","","99.96","","","","","","Cloudy"
"1982-02-16 14:00","1982","02","16","14:00","1.9","","0.6","","91","","2","","13","","11.3","","99.92","","","","","","Cloudy"
"1982-02-16 15:00","1982","02","16","15:00","2.0","","-3.2","","68","","4","","15","","12.9","","99.89","","","","","","Cloudy"
"1982-02-16 16:00","1982","02","16","16:00","2.0","","-3.2","","68","","4","","13","","12.9","","99.92","","","","","","Cloudy"
"1982-02-16 17:00","1982","02","16","17:00","1.9","","-4.0","","65","","3","","13","","16.1","","99.96","","","","","","Mostly Cloudy"
"1982-02-16 18:00","1982","02","16","18:00","0.9","","-4.2","","69","","3","","11","","14.5","","99.99","","","","","","Cloudy"
"1982-02-16 19:00","1982","02","16","19:00","0.5","","-6.2","","61","","9","","11","","16.1","","100.02","","","","","","Cloudy"
"1982-02-16 20:00","1982","02","16","20:00","0.0","","-4.4","","72","","7","","15","","19.3","","100.06","","","","-4","","Cloudy"
"1982-02-16 21:00","1982","02","16","21:00","-0.5","","-3.8","","78","","9","","19","","19.3","","100.09","","","","-6","","Cloudy"
"1982-02-16 22:00","1982","02","16","22:00","-0.5","","-3.5","","80","","9","","19","","25.0","","100.12","","","","-6","","Cloudy"
"1982-02-16 23:00","1982","02","16","23:00","-1.9","","-8.1","","62","","9","","28","","25.0","","100.16","","","","-9","","Clear"
"1982-02-17 00:00","1982","02","17","00:00","-2.9","","-8.8","","64","","7","","24","","25.0","","100.16","","","","-10","","Clear"
"1982-02-17 01:00","1982","02","17","01:00","-3.8","","-7.6","","75","","7","","26","","25.0","","100.19","","","","-11","","Mostly Cloudy"
"1982-02-17 02:00","1982","02","17","02:00","-3.8","","-8.0","","72","","7","","26","","25.0","","100.16","","","","-11","","Mostly Cloudy"
"1982-02-17 03:00","1982","02","17","03:00","-4.1","","-8.0","","74","","7","","22","","25.0","","100.16","","","","-11","","Clear"
"1982-02-17 04:00","1982","02","17","04:00","-4.5","","-9.0","","71","","8","","20","","25.0","","100.16","","","","-11","","Clear"
"1982-02-17 05:00","1982","02","17","05:00","-4.9","","-9.7","","69","","7","","26","","25.0","","100.19","","","","-12","","Clear"
"1982-02-17 06:00","1982","02","17","06:00","-5.2","","-8.9","","75","","6","","24","","25.0","","100.19","","","","-12","","Clear"
"1982-02-17 07:00","1982","02","17","07:00","-7.4","","-13.1","","63","","7","","20","","25.0","","100.16","","","","-15","","Mainly Clear"
"1982-02-17 08:00","1982","02","17","08:00","-9.1","","-14.8","","63","","7","","22","","40.2","","100.26","","","","-17","","Cloudy"
"1982-02-17 09:00","1982","02","17","09:00","-8.4","","-14.6","","61","","8","","22","","40.2","","100.26","","","","-16","","Cloudy"
"1982-02-17 10:00","1982","02","17","10:00","-7.3","","-13.6","","60","","7","","20","","40.2","","100.26","","","","-14","","Cloudy"
"1982-02-17 11:00","1982","02","17","11:00","-5.5","","-11.2","","64","","8","","26","","40.2","","100.22","","","","-13","","Cloudy"
"1982-02-17 12:00","1982","02","17","12:00","-5.2","","-10.1","","68","","9","","30","","40.2","","100.22","","","","-13","","Cloudy"
"1982-02-17 13:00","1982","02","17","13:00","-4.3","","-9.8","","65","","10","","26","","40.2","","100.12","","","","-12","","Cloudy"
"1982-02-17 14:00","1982","02","17","14:00","-3.9","","-10.3","","61","","7","","24","","40.2","","100.06","","","","-11","","Cloudy"
"1982-02-17 15:00","1982","02","17","15:00","-3.8","","-12.4","","51","","8","","26","","40.2","","100.06","","","","-11","","Cloudy"
"1982-02-17 16:00","1982","02","17","16:00","-3.8","","-12.4","","51","","7","","22","","40.2","","100.06","","","","-10","","Cloudy"
"1982-02-17 17:00","1982","02","17","17:00","-3.9","","-10.3","","61","","9","","20","","40.2","","100.06","","","","-10","","Cloudy"
"1982-02-17 18:00","1982","02","17","18:00","-4.0","","-10.3","","61","","9","","24","","25.0","","100.06","","","","-11","","Cloudy"
"1982-02-17 19:00","1982","02","17","19:00","-3.5","","-9.1","","65","","9","","26","","25.0","","100.09","","","","-11","","Cloudy"
"1982-02-17 20:00","1982","02","17","20:00","-3.6","","-9.1","","65","","9","","30","","25.0","","100.06","","","","-11","","Cloudy"
"1982-02-17 21:00","1982","02","17","21:00","-3.9","","-9.5","","65","","9","","26","","25.0","","100.09","","","","-11","","Mostly Cloudy"
"1982-02-17 22:00","1982","02","17","22:00","-4.4","","-9.0","","70","","9","","22","","25.0","","100.09","","","","-11","","Mostly Cloudy"
"1982-02-17 23:00","1982","02","17","23:00","-4.3","","-8.7","","71","","9","","28","","25.0","","100.09","","","","-12","","Mostly Cloudy"
"1982-02-18 00:00","1982","02","18","00:00","-4.5","","-7.9","","77","","9","","28","","25.0","","100.09","","","","-12","","Mostly Cloudy"
"1982-02-18 01:00","1982","02","18","01:00","-4.6","","-7.9","","78","","9","","24","","25.0","","100.09","","","","-12","","Mostly Cloudy"
"1982-02-18 02:00","1982","02","18","02:00","-5.1","","-8.2","","79","","6","","11","","25.0","","100.16","","","","-10","","Cloudy"
"1982-02-18 03:00","1982","02","18","03:00","-4.8","","-7.9","","79","","6","","13","","25.0","","100.09","","","","-10","","Mostly Cloudy"
"1982-02-18 04:00","1982","02","18","04:00","-4.5","","-7.9","","77","","7","","13","","25.0","","100.06","","","","-10","","Mostly Cloudy"
"1982-02-18 05:00","1982","02","18","05:00","-5.6","","-9.2","","76","","7","","15","","25.0","","100.06","","","","-11","","Mostly Cloudy"
"1982-02-18 06:00","1982","02","18","06:00","-5.4","","-8.9","","76","","7","","15","","25.0","","100.02","","","","-11","","Mostly Cloudy"
"1982-02-18 07:00","1982","02","18","07:00","-4.5","","-6.9","","83","","9","","17","","25.0","","99.99","","","","-10","","Mostly Cloudy"
"1982-02-18 08:00","1982","02","18","08:00","-3.4","","-5.7","","84","","6","","15","","24.1","","100.02","","","","-9","","Mostly Cloudy"
"1982-02-18 09:00","1982","02","18","09:00","-3.0","","-5.1","","85","","5","","17","","24.1","","100.02","","","","-9","","Mostly Cloudy"
"1982-02-18 10:00","1982","02","18","10:00","-0.5","","-6.3","","65","","11","","33","","24.1","","99.99","","","","-7","","Mainly Clear"
"1982-02-18 11:00","1982","02","18","11:00","0.0","","-6.3","","63","","11","","35","","32.2","","99.96","","","","-7","","Mainly Clear"
"1982-02-18 12:00","1982","02","18","12:00","-0.1","","-6.4","","62","","11","","30","","32.2","","99.92","","","","-7","","Cloudy"
"1982-02-18 13:00","1982","02","18","13:00","-0.2","","-6.6","","62","","11","","22","","32.2","","99.89","","","","-6","","Cloudy"
"1982-02-18 14:00","1982","02","18","14:00","-0.4","","-1.0","","96","","10","","20","","24.1","","99.79","","","","-6","","Snow Showers"
"1982-02-18 15:00","1982","02","18","15:00","-0.8","","-5.0","","73","","9","","24","","9.7","","99.76","","","","-7","","Snow Showers"
"1982-02-18 16:00","1982","02","18","16:00","-0.6","","-3.5","","81","","9","","28","","12.9","","99.72","","","","-7","","Cloudy"
"1982-02-18 17:00","1982","02","18","17:00","-0.2","","-3.1","","81","","9","","24","","12.9","","99.62","","","","-6","","Cloudy"
"1982-02-18 18:00","1982","02","18","18:00","0.2","","-1.8","","86","","9","","19","","12.9","","99.59","","","","","","Cloudy"
"1982-02-18 19:00","1982","02","18","19:00","0.5","","-2.5","","80","","14","","13","","19.3","","99.56","","","","","","Cloudy"
"1982-02-18 20:00","1982","02","18","20:00","0.9","","0.0","","94","","18","","13","","11.3","","99.49","","","","","","Cloudy"
"1982-02-18 21:00","1982","02","18","21:00","0.8","","0.5","","98","","16","","13","","6.4","","99.46","","","","","","Drizzle,Fog"
"1982-02-18 22:00","1982","02","18","22:00","0.6","","0.0","","96","","16","","7","","8.0","","99.39","","","","","","Drizzle,Fog"
"1982-02-18 23:00","1982","02","18","23:00","0.4","","0.2","","99","","16","","9","","3.6","","99.32","","","","","","Snow Showers,Fog"
"1982-02-19 00:00","1982","02","19","00:00","0.2","","0.0","","98","","14","","11","","2.0","","99.26","","","","","","Snow"
"1982-02-19 01:00","1982","02","19","01:00","0.1","","0.1","","100","","16","","7","","1.0","","99.22","","","","","","Snow"
"1982-02-19 02:00","1982","02","19","02:00","0.0","","0.0","","100","","14","","11","","0.2","","99.16","","","","-4","","Drizzle,Fog"
"1982-02-19 03:00","1982","02","19","03:00","0.0","","0.0","","100","","14","","9","","0.2","","99.12","","","","-3","","Drizzle,Fog"
"1982-02-19 04:00","1982","02","19","04:00","0.0","","0.0","","100","","16","","6","","0.6","","99.06","","","","-2","","Drizzle,Fog"
"1982-02-19 05:00","1982","02","19","05:00","0.1","","0.1","","100","","17","","4","","0.2","","99.06","","","","","","Heavy Snow"
"1982-02-19 06:00","1982","02","19","06:00","0.0","","0.0","","100","","18","","4","","0.4","","99.06","","","","-1","","Heavy Snow"
"1982-02-19 07:00","1982","02","19","07:00","0.1","","0.1","","100","","","","0","","0.6","","99.06","","","","","","Moderate Snow"
"1982-02-19 08:00","1982","02","19","08:00","0.1","","0.1","","100","","25","","6","","1.6","","99.09","","","","","","Snow"
"1982-02-19 09:00","1982","02","19","09:00","0.2","","0.0","","98","","30","","7","","4.8","","99.09","","","","","","Fog"
"1982-02-19 10:00","1982","02","19","10:00","0.5","","-0.5","","93","","32","","13","","12.9","","99.09","","","","","","Cloudy"
"1982-02-19 11:00","1982","02","19","11:00","0.9","","-1.0","","87","","29","","9","","11.3","","99.12","","","","","","Cloudy"
"1982-02-19 12:00","1982","02","19","12:00","0.8","","-1.0","","88","","30","","15","","11.3","","99.12","","","","","","Cloudy"
"1982-02-19 13:00","1982","02","19","13:00","0.9","","-1.0","","87","","29","","13","","11.3","","99.09","","","","","","Cloudy"
"1982-02-19 14:00","1982","02","19","14:00","0.9","","-1.0","","87","","29","","19","","11.3","","99.06","","","","","","Cloudy"
"1982-02-19 15:00","1982","02","19","15:00","0.9","","-1.5","","84","","28","","20","","12.9","","99.06","","","","","","Cloudy"
"1982-02-19 16:00","1982","02","19","16:00","1.0","","-1.5","","83","","27","","19","","11.3","","99.09","","","","","","Cloudy"
"1982-02-19 17:00","1982","02","19","17:00","0.8","","-1.5","","85","","26","","15","","11.3","","99.09","","","","","","Snow"
"1982-02-19 18:00","1982","02","19","18:00","0.0","","-1.5","","90","","28","","15","","9.7","","99.12","","","","-4","","Snow"
"1982-02-19 19:00","1982","02","19","19:00","-0.5","","-1.3","","94","","26","","7","","11.3","","99.16","","","","-3","","Snow"
"1982-02-19 20:00","1982","02","19","20:00","-0.6","","-2.1","","90","","25","","11","","11.3","","99.16","","","","-4","","Cloudy"
"1982-02-19 21:00","1982","02","19","21:00","-0.6","","-2.7","","86","","28","","19","","11.3","","99.16","","","","-6","","Cloudy"
"1982-02-19 22:00","1982","02","19","22:00","-0.6","","-2.1","","90","","29","","11","","11.3","","99.12","","","","-4","","Cloudy"
"1982-02-19 23:00","1982","02","19","23:00","-0.6","","-1.8","","92","","30","","15","","9.7","","99.12","","","","-5","","Fog"
"1982-02-20 00:00","1982","02","20","00:00","-0.6","","-1.8","","92","","28","","9","","6.4","","99.09","","","","-4","","Fog"
"1982-02-20 01:00","1982","02","20","01:00","-0.6","","-1.6","","93","","29","","7","","6.4","","99.09","","","","-3","","Fog"
"1982-02-20 02:00","1982","02","20","02:00","-0.4","","-1.5","","92","","","","0","","6.4","","99.09","","","","","","Fog"
"1982-02-20 03:00","1982","02","20","03:00","0.4","","-1.3","","89","","31","","13","","8.0","","99.06","","","","","","Fog"
"1982-02-20 04:00","1982","02","20","04:00","0.3","","-1.4","","89","","29","","4","","9.7","","99.06","","","","","","Fog"
"1982-02-20 05:00","1982","02","20","05:00","0.4","","-1.6","","86","","21","","6","","8.0","","98.99","","","","","","Fog"
"1982-02-20 06:00","1982","02","20","06:00","0.2","","-1.5","","88","","24","","7","","8.0","","98.99","","","","","","Fog"
"1982-02-20 07:00","1982","02","20","07:00","0.0","","-1.0","","93","","","","0","","6.4","","98.99","","","","","","Fog"
"1982-02-20 08:00","1982","02","20","08:00","0.2","","-0.8","","93","","20","","7","","6.4","","99.02","","","","","","Fog"
"1982-02-20 09:00","1982","02","20","09:00","0.6","","-0.9","","90","","16","","7","","6.4","","98.89","","","","","","Fog"
"1982-02-20 10:00","1982","02","20","10:00","0.9","","-1.0","","87","","18","","9","","6.4","","98.82","","","","","","Fog"
"1982-02-20 11:00","1982","02","20","11:00","1.1","","-1.0","","86","","19","","17","","9.7","","98.76","","","","","","Fog"
"1982-02-20 12:00","1982","02","20","12:00","1.5","","-1.5","","80","","17","","13","","11.3","","98.66","","","","","","Cloudy"
"1982-02-20 13:00","1982","02","20","13:00","1.1","","-1.5","","83","","18","","15","","11.3","","98.59","","","","","","Cloudy"
"1982-02-20 14:00","1982","02","20","14:00","0.0","","-0.5","","96","","14","","11","","0.8","","98.46","","","","-4","","Moderate Snow Showers"
"1982-02-20 15:00","1982","02","20","15:00","-0.2","","-0.2","","100","","14","","19","","1.6","","98.32","","","","-5","","Snow"
"1982-02-20 16:00","1982","02","20","16:00","-0.2","","-0.2","","100","","14","","19","","3.2","","98.26","","","","-5","","Fog"
"1982-02-20 17:00","1982","02","20","17:00","-0.1","","-0.1","","100","","12","","19","","2.4","","98.26","","","","-5","","Drizzle,Fog"
"1982-02-20 18:00","1982","02","20","18:00","0.1","","0.1","","100","","11","","22","","1.6","","98.22","","","","","","Drizzle,Fog"
"1982-02-20 19:00","1982","02","20","19:00","0.3","","-0.2","","96","","11","","24","","3.2","","98.19","","","","","","Drizzle,Fog"
"1982-02-20 20:00","1982","02","20","20:00","0.4","","-0.1","","96","","11","","24","","3.2","","98.19","","","","","","Drizzle,Fog"
"1982-02-20 21:00","1982","02","20","21:00","0.4","","-0.1","","96","","10","","20","","3.2","","98.12","","","","","","Drizzle,Fog"
"1982-02-20 22:00","1982","02","20","22:00","0.4","","0.2","","99","","10","","19","","3.2","","98.06","","","","","","Drizzle,Fog"
"1982-02-20 23:00","1982","02","20","23:00","0.4","","0.4","","100","","8","","15","","3.2","","98.02","","","","","","Drizzle,Fog"
"1982-02-21 00:00","1982","02","21","00:00","0.5","","0.0","","96","","8","","22","","3.2","","97.99","","","","","","Drizzle,Fog"
"1982-02-21 01:00","1982","02","21","01:00","0.4","","0.4","","100","","6","","11","","4.0","","98.02","","","","","","Drizzle,Fog"
"1982-02-21 02:00","1982","02","21","02:00","0.3","","-0.2","","96","","8","","19","","4.0","","98.02","","","","","","Drizzle,Fog"
"1982-02-21 03:00","1982","02","21","03:00","0.1","","-0.1","","98","","6","","20","","4.0","","98.02","","","","","","Drizzle,Snow Grains,Fog"
"1982-02-21 04:00","1982","02","21","04:00","0.1","","-0.1","","98","","6","","13","","4.0","","98.02","","","","","","Drizzle,Snow,Fog"
"1982-02-21 05:00","1982","02","21","05:00","0.0","","0.0","","100","","3","","11","","2.8","","98.09","","","","-4","","Snow"
"1982-02-21 06:00","1982","02","21","06:00","0.0","","0.0","","100","","1","","15","","3.6","","98.12","","","","-4","","Drizzle,Snow"
"1982-02-21 07:00","1982","02","21","07:00","0.0","","-0.2","","98","","2","","13","","3.2","","98.19","","","","-4","","Drizzle,Snow Grains,Fog"
"1982-02-21 08:00","1982","02","21","08:00","0.0","","-0.2","","98","","2","","13","","6.4","","98.26","","","","-4","","Snow,Fog"
"1982-02-21 09:00","1982","02","21","09:00","-0.1","","-0.1","","100","","3","","13","","4.8","","98.29","","","","-4","","Snow"
"1982-02-21 10:00","1982","02","21","10:00","0.0","","-0.2","","98","","36","","13","","6.4","","98.32","","","","-4","","Snow"
"1982-02-21 11:00","1982","02","21","11:00","0.2","","-0.3","","96","","3","","17","","6.4","","98.39","","","","","","Snow"
"1982-02-21 12:00","1982","02","21","12:00","0.2","","-0.3","","96","","2","","15","","4.0","","98.46","","","","","","Snow"
"1982-02-21 13:00","1982","02","21","13:00","0.2","","-0.3","","96","","2","","13","","1.6","","98.49","","","","","","Snow"
"1982-02-21 14:00","1982","02","21","14:00","0.6","","-0.5","","92","","2","","15","","4.8","","98.49","","","","","","Snow"
"1982-02-21 15:00","1982","02","21","15:00","0.7","","-0.5","","91","","1","","19","","2.8","","98.56","","","","","","Snow"
"1982-02-21 16:00","1982","02","21","16:00","0.8","","0.0","","95","","2","","17","","4.8","","98.62","","","","","","Snow"
"1982-02-21 17:00","1982","02","21","17:00","1.0","","-0.5","","90","","36","","17","","9.7","","98.72","","","","","","Snow"
"1982-02-21 18:00","1982","02","21","18:00","1.1","","-0.5","","89","","36","","19","","11.3","","98.82","","","","","","Mostly Cloudy"
"1982-02-21 19:00","1982","02","21","19:00","1.5","","-1.0","","83","","1","","19","","19.3","","98.92","","","","","","Mostly Cloudy"
"1982-02-21 20:00","1982","02","21","20:00","1.7","","-1.5","","79","","36","","13","","25.0","","98.99","","","","","","Cloudy"
"1982-02-21 21:00","1982","02","21","21:00","1.2","","-1.0","","85","","35","","11","","25.0","","99.09","","","","","","Cloudy"
"1982-02-21 22:00","1982","02","21","22:00","0.9","","-1.0","","87","","35","","11","","25.0","","99.12","","","","","","Cloudy"
"1982-02-21 23:00","1982","02","21","23:00","0.9","","-1.5","","84","","35","","13","","25.0","","99.16","","","","","","Mostly Cloudy"
"1982-02-22 00:00","1982","02","22","00:00","-0.6","","-2.1","","90","","34","","19","","25.0","","99.22","","","","-6","","Mainly Clear"
"1982-02-22 01:00","1982","02","22","01:00","-1.0","","-2.4","","90","","35","","17","","25.0","","99.22","","","","-6","","Mostly Cloudy"
"1982-02-22 02:00","1982","02","22","02:00","0.3","","-0.9","","92","","34","","17","","25.0","","99.29","","","","","","Cloudy"
"1982-02-22 03:00","1982","02","22","03:00","0.3","","-1.7","","86","","33","","15","","25.0","","99.29","","","","","","Cloudy"
"1982-02-22 04:00","1982","02","22","04:00","0.0","","-1.3","","91","","34","","17","","25.0","","99.36","","","","-5","","Cloudy"
"1982-02-22 05:00","1982","02","22","05:00","-0.5","","-2.1","","89","","34","","19","","25.0","","99.39","","","","-6","","Mostly Cloudy"
"1982-02-22 06:00","1982","02","22","06:00","0.2","","-2.0","","85","","33","","19","","25.0","","99.46","","","","","","Cloudy"
"1982-02-22 07:00","1982","02","22","07:00","-0.1","","-1.9","","88","","34","","19","","25.0","","99.49","","","","-5","","Cloudy"
"1982-02-22 08:00","1982","02","22","08:00","0.2","","-1.8","","86","","31","","22","","24.1","","99.56","","","","","","Cloudy"
"1982-02-22 09:00","1982","02","22","09:00","-0.1","","-2.7","","82","","32","","20","","19.3","","99.62","","","","-5","","Snow"
"1982-02-22 10:00","1982","02","22","10:00","0.0","","-3.2","","79","","33","","11","","19.3","","99.62","","","","-4","","Cloudy"
"1982-02-22 11:00","1982","02","22","11:00","-0.3","","-3.0","","82","","33","","22","","16.1","","99.69","","","","-6","","Snow"
"1982-02-22 12:00","1982","02","22","12:00","-0.2","","-3.4","","79","","34","","17","","16.1","","99.66","","","","-5","","Cloudy"
"1982-02-22 13:00","1982","02","22","13:00","-0.2","","-3.7","","77","","32","","19","","16.1","","99.62","","","","-5","","Cloudy"
"1982-02-22 14:00","1982","02","22","14:00","0.0","","-3.2","","79","","33","","15","","16.1","","99.56","","","","-4","","Cloudy"
"1982-02-22 15:00","1982","02","22","15:00","0.3","","-4.2","","72","","30","","15","","19.3","","99.49","","","","","","Mostly Cloudy"
"1982-02-22 16:00","1982","02","22","16:00","0.6","","-3.7","","73","","30","","17","","19.3","","99.56","","","","","","Cloudy"
"1982-02-22 17:00","1982","02","22","17:00","0.5","","-3.1","","77","","28","","19","","19.3","","99.56","","","","","","Cloudy"
"1982-02-22 18:00","1982","02","22","18:00","-0.6","","-4.1","","77","","30","","9","","19.3","","99.62","","","","-4","","Mostly Cloudy"
"1982-02-22 19:00","1982","02","22","19:00","-0.5","","-3.8","","78","","25","","6","","24.1","","99.62","","","","-3","","Cloudy"
"1982-02-22 20:00","1982","02","22","20:00","-1.0","","-4.1","","79","","22","","7","","24.1","","99.62","","","","-4","","Cloudy"
"1982-02-22 21:00","1982","02","22","21:00","-0.4","","-3.4","","80","","18","","7","","25.0","","99.59","","","","-3","","Mostly Cloudy"
"1982-02-22 22:00","1982","02","22","22:00","-0.3","","-4.7","","72","","19","","9","","25.0","","99.59","","","","-3","","Cloudy"
"1982-02-22 23:00","1982","02","22","23:00","0.0","","-2.6","","83","","18","","9","","25.0","","99.59","","","","-3","","Cloudy"
"1982-02-23 00:00","1982","02","23","00:00","0.5","","-3.7","","73","","20","","17","","19.3","","99.56","","","","","","Cloudy"
"1982-02-23 01:00","1982","02","23","01:00","0.3","","-1.9","","85","","21","","22","","12.9","","99.49","","","","","","Cloudy"
"1982-02-23 02:00","1982","02","23","02:00","0.1","","-1.9","","86","","20","","19","","12.9","","99.42","","","","","","Cloudy"
"1982-02-23 03:00","1982","02","23","03:00","0.4","","-2.1","","83","","20","","22","","12.9","","99.26","","","","","","Cloudy"
"1982-02-23 04:00","1982","02","23","04:00","0.4","","-1.8","","85","","21","","20","","12.9","","99.26","","","","","","Cloudy"
"1982-02-23 05:00","1982","02","23","05:00","0.5","","-2.0","","83","","21","","17","","12.9","","99.16","","","","","","Cloudy"
"1982-02-23 06:00","1982","02","23","06:00","0.6","","-2.5","","80","","22","","13","","12.9","","99.16","","","","","","Mostly Cloudy"
"1982-02-23 07:00","1982","02","23","07:00","0.2","","-1.8","","86","","23","","9","","11.3","","99.19","","","","","","Cloudy"
"1982-02-23 08:00","1982","02","23","08:00","0.9","","-1.5","","84","","26","","9","","9.7","","99.19","","","","","","Haze"
"1982-02-23 09:00","1982","02","23","09:00","1.2","","-1.5","","82","","23","","13","","8.0","","99.16","","","","","","Haze"
"1982-02-23 10:00","1982","02","23","10:00","1.4","","-1.0","","84","","29","","19","","8.0","","99.22","","","","","","Haze"
"1982-02-23 11:00","1982","02","23","11:00","1.5","","-1.0","","83","","30","","15","","12.9","","99.22","","","","","","Cloudy"
"1982-02-23 12:00","1982","02","23","12:00","1.7","","-1.0","","82","","30","","13","","12.9","","99.29","","","","","","Cloudy"
"1982-02-23 13:00","1982","02","23","13:00","1.6","","-1.0","","83","","32","","24","","12.9","","99.29","","","","","","Cloudy"
"1982-02-23 14:00","1982","02","23","14:00","1.9","","-1.5","","78","","34","","28","","16.1","","99.36","","","","","","Cloudy"
"1982-02-23 15:00","1982","02","23","15:00","1.9","","-2.6","","72","","34","","22","","32.2","","99.42","","","","","","Mostly Cloudy"
"1982-02-23 16:00","1982","02","23","16:00","1.3","","-2.4","","76","","34","","37","","32.2","","99.49","","","","","","Mostly Cloudy"
"1982-02-23 17:00","1982","02","23","17:00","-0.6","","-4.1","","77","","34","","37","","32.2","","99.62","","","","-8","","Mainly Clear"
"1982-02-23 18:00","1982","02","23","18:00","-2.5","","-10.4","","54","","34","","35","","32.2","","99.72","","","","-10","","Mainly Clear"
"1982-02-23 19:00","1982","02","23","19:00","-4.1","","-9.5","","66","","34","","37","","25.0","","99.79","","","","-13","","Mostly Cloudy"
"1982-02-23 20:00","1982","02","23","20:00","-5.0","","-7.9","","80","","35","","33","","25.0","","99.89","","","","-13","","Mostly Cloudy"
"1982-02-23 21:00","1982","02","23","21:00","-4.5","","-8.7","","72","","35","","30","","25.0","","99.96","","","","-12","","Cloudy"
"1982-02-23 22:00","1982","02","23","22:00","-5.2","","-9.3","","73","","36","","30","","25.0","","99.99","","","","-13","","Cloudy"
"1982-02-23 23:00","1982","02","23","23:00","-5.5","","-11.6","","62","","36","","28","","25.0","","100.06","","","","-13","","Cloudy"
"1982-02-24 00:00","1982","02","24","00:00","-6.4","","-11.7","","66","","1","","22","","25.0","","100.12","","","","-14","","Mostly Cloudy"
"1982-02-24 01:00","1982","02","24","01:00","-6.9","","-12.0","","67","","2","","28","","25.0","","100.16","","","","-15","","Mostly Cloudy"
"1982-02-24 02:00","1982","02","24","02:00","-7.7","","-12.7","","67","","2","","22","","25.0","","100.09","","","","-15","","Mostly Cloudy"
"1982-02-24 03:00","1982","02","24","03:00","-8.1","","-12.9","","68","","3","","19","","19.3","","100.06","","","","-15","","Mostly Cloudy"
"1982-02-24 04:00","1982","02","24","04:00","-8.4","","-15.1","","58","","1","","20","","19.3","","100.19","","","","-16","","Mostly Cloudy"
"1982-02-24 05:00","1982","02","24","05:00","-9.3","","-14.0","","68","","3","","24","","19.3","","100.12","","","","-18","","Mostly Cloudy"
"1982-02-24 06:00","1982","02","24","06:00","-10.0","","-12.9","","79","","3","","24","","19.3","","100.06","","","","-19","","Cloudy"
"1982-02-24 07:00","1982","02","24","07:00","-10.4","","-13.5","","78","","4","","22","","24.1","","100.12","","","","-19","","Cloudy"
"1982-02-24 08:00","1982","02","24","08:00","-10.5","","-15.4","","67","","4","","17","","24.1","","100.16","","","","-18","","Cloudy"
"1982-02-24 09:00","1982","02","24","09:00","-10.4","","-15.4","","67","","4","","22","","24.1","","100.12","","","","-19","","Cloudy"
"1982-02-24 10:00","1982","02","24","10:00","-10.1","","-13.3","","77","","6","","19","","24.1","","100.09","","","","-18","","Mostly Cloudy"
"1982-02-24 11:00","1982","02","24","11:00","-9.6","","-11.8","","84","","4","","19","","32.2","","99.99","","","","-17","","Cloudy"
"1982-02-24 12:00","1982","02","24","12:00","-9.1","","-13.4","","71","","4","","19","","32.2","","99.99","","","","-17","","Cloudy"
"1982-02-24 13:00","1982","02","24","13:00","-8.4","","-14.1","","63","","1","","20","","32.2","","99.89","","","","-16","","Cloudy"
"1982-02-24 14:00","1982","02","24","14:00","-7.7","","-15.1","","55","","3","","20","","32.2","","99.92","","","","-15","","Cloudy"
"1982-02-24 15:00","1982","02","24","15:00","-7.4","","-14.1","","58","","36","","24","","32.2","","99.96","","","","-15","","Cloudy"
"1982-02-24 16:00","1982","02","24","16:00","-8.0","","-13.9","","62","","35","","28","","32.2","","99.96","","","","-17","","Cloudy"
"1982-02-24 17:00","1982","02","24","17:00","-7.6","","-15.1","","55","","2","","22","","32.2","","99.96","","","","-15","","Cloudy"
"1982-02-24 18:00","1982","02","24","18:00","-7.7","","-12.3","","70","","36","","26","","25.0","","99.99","","","","-16","","Cloudy"
"1982-02-24 19:00","1982","02","24","19:00","-8.5","","-10.3","","87","","35","","22","","12.9","","100.06","","","","-16","","Cloudy"
"1982-02-24 20:00","1982","02","24","20:00","-8.8","","-13.4","","69","","34","","19","","25.0","","100.16","","","","-16","","Cloudy"
"1982-02-24 21:00","1982","02","24","21:00","-8.6","","-12.7","","72","","35","","22","","25.0","","100.19","","","","-16","","Cloudy"
"1982-02-24 22:00","1982","02","24","22:00","-8.5","","-14.1","","64","","35","","30","","25.0","","100.36","","","","-18","","Cloudy"
"1982-02-24 23:00","1982","02","24","23:00","-9.3","","-13.6","","71","","36","","30","","25.0","","100.49","","","","-19","","Cloudy"
"1982-02-25 00:00","1982","02","25","00:00","-10.6","","-13.5","","79","","35","","26","","25.0","","100.59","","","","-20","","Mostly Cloudy"
"1982-02-25 01:00","1982","02","25","01:00","-11.5","","-14.2","","80","","35","","22","","25.0","","100.76","","","","-20","","Mostly Cloudy"
"1982-02-25 02:00","1982","02","25","02:00","-12.7","","-14.9","","84","","35","","20","","25.0","","100.89","","","","-21","","Clear"
"1982-02-25 03:00","1982","02","25","03:00","-13.5","","-15.6","","84","","36","","26","","25.0","","100.95","","","","-23","","Clear"
"1982-02-25 04:00","1982","02","25","04:00","-14.5","","-17.3","","79","","35","","24","","19.3","","101.02","","","","-24","","Clear"
"1982-02-25 05:00","1982","02","25","05:00","-15.1","","-17.8","","80","","35","","20","","19.3","","101.12","","","","-24","","Clear"
"1982-02-25 06:00","1982","02","25","06:00","-15.5","","-17.3","","86","","35","","17","","19.3","","101.25","","","","-24","","Clear"
"1982-02-25 07:00","1982","02","25","07:00","-17.2","","-20.2","","77","","34","","19","","32.2","","101.35","","","","-27","","Clear"
"1982-02-25 08:00","1982","02","25","08:00","-16.7","","-19.6","","78","","35","","19","","32.2","","101.45","","","","-26","","Clear"
"1982-02-25 09:00","1982","02","25","09:00","-15.0","","-17.8","","79","","35","","17","","32.2","","101.49","","","","-23","","Clear"
"1982-02-25 10:00","1982","02","25","10:00","-14.5","","-17.3","","79","","35","","22","","32.2","","101.52","","","","-24","","Clear"
"1982-02-25 11:00","1982","02","25","11:00","-12.7","","-15.9","","77","","33","","24","","32.2","","101.55","","","","-22","","Clear"
"1982-02-25 12:00","1982","02","25","12:00","-11.6","","-13.3","","87","","32","","15","","32.2","","101.59","","","","-19","","Clear"
"1982-02-25 13:00","1982","02","25","13:00","-10.0","","-17.4","","55","","32","","11","","32.2","","101.52","","","","-16","","Clear"
"1982-02-25 14:00","1982","02","25","14:00","-8.6","","-16.2","","54","","30","","22","","32.2","","101.45","","","","-16","","Clear"
"1982-02-25 15:00","1982","02","25","15:00","-8.6","","-16.2","","54","","29","","28","","32.2","","101.49","","","","-17","","Clear"
"1982-02-25 16:00","1982","02","25","16:00","-8.6","","-15.1","","59","","29","","24","","32.2","","101.49","","","","-17","","Clear"
"1982-02-25 17:00","1982","02","25","17:00","-8.9","","-15.3","","60","","29","","30","","32.2","","101.49","","","","-18","","Mainly Clear"
"1982-02-25 18:00","1982","02","25","18:00","-9.7","","-14.5","","68","","29","","26","","25.0","","101.49","","","","-19","","Mainly Clear"
"1982-02-25 19:00","1982","02","25","19:00","-10.5","","-14.9","","70","","27","","11","","25.0","","101.49","","","","-16","","Clear"
"1982-02-25 20:00","1982","02","25","20:00","-11.6","","-15.2","","74","","26","","13","","25.0","","101.52","","","","-18","","Clear"
"1982-02-25 21:00","1982","02","25","21:00","-12.0","","-15.3","","76","","26","","15","","25.0","","101.55","","","","-19","","Clear"
"1982-02-25 22:00","1982","02","25","22:00","-11.7","","-14.7","","78","","26","","15","","25.0","","101.55","","","","-19","","Clear"
"1982-02-25 23:00","1982","02","25","23:00","-12.6","","-15.4","","80","","25","","9","","25.0","","101.55","","","","-18","","Clear"
"1982-02-26 00:00","1982","02","26","00:00","-12.8","","-15.5","","80","","26","","9","","25.0","","101.55","","","","-18","","Clear"
"1982-02-26 01:00","1982","02","26","01:00","-12.7","","-15.4","","80","","26","","7","","25.0","","101.55","","","","-17","","Clear"
"1982-02-26 02:00","1982","02","26","02:00","-12.9","","-15.0","","84","","26","","15","","25.0","","101.55","","","","-20","","Mainly Clear"
"1982-02-26 03:00","1982","02","26","03:00","-12.2","","-14.8","","81","","26","","17","","25.0","","101.52","","","","-20","","Mainly Clear"
"1982-02-26 04:00","1982","02","26","04:00","-12.6","","-14.9","","83","","26","","19","","25.0","","101.49","","","","-21","","Mainly Clear"
"1982-02-26 05:00","1982","02","26","05:00","-12.8","","-15.0","","83","","27","","19","","19.3","","101.52","","","","-21","","Mainly Clear"
"1982-02-26 06:00","1982","02","26","06:00","-13.6","","-16.1","","81","","29","","15","","19.3","","101.52","","","","-21","","Mainly Clear"
"1982-02-26 07:00","1982","02","26","07:00","-13.0","","-15.0","","85","","34","","6","","24.1","","101.52","","","","-17","","Mainly Clear"
"1982-02-26 08:00","1982","02","26","08:00","-12.6","","-14.9","","83","","","","0","","24.1","","101.52","","","","","","Mainly Clear"
"1982-02-26 09:00","1982","02","26","09:00","-12.4","","-15.4","","78","","25","","4","","24.1","","101.49","","","","-15","","Clear"
"1982-02-26 10:00","1982","02","26","10:00","-9.8","","-14.7","","67","","24","","7","","24.1","","101.49","","","","-14","","Clear"
"1982-02-26 11:00","1982","02","26","11:00","-7.2","","-13.4","","61","","26","","15","","24.1","","101.45","","","","-13","","Clear"
"1982-02-26 12:00","1982","02","26","12:00","-6.0","","-13.3","","56","","25","","19","","24.1","","101.39","","","","-13","","Mainly Clear"
"1982-02-26 13:00","1982","02","26","13:00","-5.1","","-10.9","","64","","26","","22","","24.1","","101.25","","","","-12","","Mostly Cloudy"
"1982-02-26 14:00","1982","02","26","14:00","-4.3","","-9.8","","65","","26","","31","","24.1","","101.15","","","","-12","","Mainly Clear"
"1982-02-26 15:00","1982","02","26","15:00","-3.7","","-8.8","","68","","25","","30","","24.1","","101.09","","","","-11","","Mainly Clear"
"1982-02-26 16:00","1982","02","26","16:00","-3.9","","-9.5","","65","","25","","26","","24.1","","100.99","","","","-11","","Clear"
"1982-02-26 17:00","1982","02","26","17:00","-4.2","","-8.7","","71","","24","","30","","24.1","","100.95","","","","-12","","Clear"
"1982-02-26 18:00","1982","02","26","18:00","-5.1","","-9.3","","72","","26","","19","","24.1","","100.95","","","","-12","","Mainly Clear"
"1982-02-26 19:00","1982","02","26","19:00","-5.9","","-10.3","","71","","26","","9","","25.0","","100.95","","","","-10","","Mainly Clear"
"1982-02-26 20:00","1982","02","26","20:00","-6.7","","-10.9","","72","","23","","7","","25.0","","100.99","","","","-10","","Clear"
"1982-02-26 21:00","1982","02","26","21:00","-7.0","","-11.2","","72","","21","","9","","25.0","","100.99","","","","-11","","Clear"
"1982-02-26 22:00","1982","02","26","22:00","-8.2","","-12.1","","73","","25","","9","","25.0","","100.99","","","","-13","","Mainly Clear"
"1982-02-26 23:00","1982","02","26","23:00","-7.4","","-11.4","","73","","26","","11","","25.0","","101.02","","","","-12","","Mostly Cloudy"
"1982-02-27 00:00","1982","02","27","00:00","-7.9","","-12.1","","72","","29","","9","","25.0","","101.05","","","","-12","","Mostly Cloudy"
"1982-02-27 01:00","1982","02","27","01:00","-7.8","","-11.2","","76","","26","","15","","25.0","","101.05","","","","-14","","Mostly Cloudy"
"1982-02-27 02:00","1982","02","27","02:00","-7.8","","-10.8","","79","","27","","9","","25.0","","101.05","","","","-12","","Mostly Cloudy"
"1982-02-27 03:00","1982","02","27","03:00","-8.2","","-10.1","","86","","27","","4","","25.0","","101.05","","","","-10","","Mostly Cloudy"
"1982-02-27 04:00","1982","02","27","04:00","-7.6","","-9.9","","84","","25","","7","","25.0","","101.02","","","","-11","","Cloudy"
"1982-02-27 05:00","1982","02","27","05:00","-7.5","","-9.9","","83","","27","","9","","25.0","","101.05","","","","-12","","Cloudy"
"1982-02-27 06:00","1982","02","27","06:00","-7.6","","-9.5","","86","","24","","4","","25.0","","101.09","","","","-10","","Cloudy"
"1982-02-27 07:00","1982","02","27","07:00","-8.1","","-10.1","","85","","25","","4","","8.0","","101.09","","","","-10","","Haze"
"1982-02-27 08:00","1982","02","27","08:00","-7.4","","-9.5","","85","","25","","7","","9.7","","101.09","","","","-11","","Fog"
"1982-02-27 09:00","1982","02","27","09:00","-6.7","","-8.7","","86","","26","","9","","9.7","","101.12","","","","-11","","Haze"
"1982-02-27 10:00","1982","02","27","10:00","-4.8","","-8.2","","77","","22","","7","","12.9","","101.15","","","","-8","","Mostly Cloudy"
"1982-02-27 11:00","1982","02","27","11:00","-2.5","","-10.9","","52","","22","","15","","24.1","","101.15","","","","-7","","Mostly Cloudy"
"1982-02-27 12:00","1982","02","27","12:00","-1.6","","-6.0","","72","","23","","17","","32.2","","101.12","","","","-7","","Mainly Clear"
"1982-02-27 13:00","1982","02","27","13:00","-1.5","","-6.4","","69","","23","","19","","32.2","","101.05","","","","-7","","Mainly Clear"
"1982-02-27 14:00","1982","02","27","14:00","-1.1","","-5.0","","75","","23","","15","","32.2","","100.99","","","","-6","","Mainly Clear"
"1982-02-27 15:00","1982","02","27","15:00","-0.5","","-5.6","","68","","23","","9","","32.2","","100.95","","","","-4","","Mainly Clear"
"1982-02-27 16:00","1982","02","27","16:00","-0.2","","-6.9","","61","","26","","4","","32.2","","100.89","","","","-1","","Mainly Clear"
"1982-02-27 17:00","1982","02","27","17:00","-1.6","","-5.1","","77","","32","","9","","24.1","","100.92","","","","-5","","Mainly Clear"
"1982-02-27 18:00","1982","02","27","18:00","-2.7","","-6.7","","74","","33","","11","","24.1","","100.95","","","","-7","","Mainly Clear"
"1982-02-27 19:00","1982","02","27","19:00","-4.0","","-7.6","","76","","30","","6","","25.0","","100.99","","","","-7","","Mainly Clear"
"1982-02-27 20:00","1982","02","27","20:00","-5.1","","-7.2","","85","","35","","9","","25.0","","101.02","","","","-9","","Mainly Clear"
"1982-02-27 21:00","1982","02","27","21:00","-6.0","","-8.4","","83","","35","","13","","25.0","","101.05","","","","-11","","Mainly Clear"
"1982-02-27 22:00","1982","02","27","22:00","-7.0","","-9.3","","84","","34","","15","","25.0","","101.09","","","","-13","","Clear"
"1982-02-27 23:00","1982","02","27","23:00","-8.0","","-10.1","","85","","34","","13","","25.0","","101.09","","","","-14","","Mainly Clear"
"1982-02-28 00:00","1982","02","28","00:00","-8.9","","-10.5","","88","","34","","15","","25.0","","101.12","","","","-15","","Mainly Clear"
"1982-02-28 01:00","1982","02","28","01:00","-10.0","","-11.6","","88","","35","","11","","25.0","","101.15","","","","-16","","Mainly Clear"
"1982-02-28 02:00","1982","02","28","02:00","-10.0","","-11.6","","88","","35","","11","","25.0","","101.15","","","","-16","","Mainly Clear"
"1982-02-28 03:00","1982","02","28","03:00","-11.3","","-12.9","","88","","35","","9","","25.0","","101.15","","","","-16","","Mainly Clear"
"1982-02-28 04:00","1982","02","28","04:00","-12.0","","-13.4","","89","","34","","4","","25.0","","101.15","","","","-15","","Mainly Clear"
"1982-02-28 05:00","1982","02","28","05:00","-12.0","","-13.4","","89","","35","","11","","25.0","","101.19","","","","-18","","Mainly Clear"
"1982-02-28 06:00","1982","02","28","06:00","-13.3","","-14.6","","90","","34","","9","","25.0","","101.22","","","","-19","","Mainly Clear"
"1982-02-28 07:00","1982","02","28","07:00","-12.7","","-13.1","","97","","36","","15","","1.0","","101.25","","","","-20","","Fog"
"1982-02-28 08:00","1982","02","28","08:00","-11.5","","-11.7","","98","","35","","17","","0.6","","101.35","","","","-19","","Fog"
"1982-02-28 09:00","1982","02","28","09:00","-11.6","","-12.1","","96","","35","","15","","9.7","","101.39","","","","-19","","Fog"
"1982-02-28 10:00","1982","02","28","10:00","-10.0","","-11.2","","91","","1","","15","","24.1","","101.42","","","","-17","","Clear"
"1982-02-28 11:00","1982","02","28","11:00","-7.5","","-10.6","","78","","1","","7","","24.1","","101.45","","","","-11","","Clear"
"1982-02-28 12:00","1982","02","28","12:00","-7.0","","-10.8","","74","","33","","11","","24.1","","101.42","","","","-12","","Mainly Clear"
"1982-02-28 13:00","1982","02","28","13:00","-5.5","","-9.6","","73","","32","","7","","24.1","","101.39","","","","-9","","Mostly Cloudy"
"1982-02-28 14:00","1982","02","28","14:00","-5.0","","-9.7","","69","","10","","15","","24.1","","101.32","","","","-11","","Mostly Cloudy"
"1982-02-28 15:00","1982","02","28","15:00","-4.6","","-9.8","","67","","13","","13","","24.1","","101.29","","","","-10","","Mainly Clear"
"1982-02-28 16:00","1982","02","28","16:00","-5.3","","-10.4","","67","","14","","11","","24.1","","101.25","","","","-10","","Mainly Clear"
"1982-02-28 17:00","1982","02","28","17:00","-5.3","","-10.0","","69","","10","","9","","24.1","","101.22","","","","-9","","Mostly Cloudy"
"1982-02-28 18:00","1982","02","28","18:00","-6.0","","-9.9","","74","","10","","17","","24.1","","101.19","","","","-12","","Mostly Cloudy"
"1982-02-28 19:00","1982","02","28","19:00","-6.6","","-10.9","","71","","11","","17","","25.0","","101.19","","","","-13","","Mostly Cloudy"
"1982-02-28 20:00","1982","02","28","20:00","-7.0","","-11.6","","69","","10","","13","","25.0","","101.09","","","","-13","","Mainly Clear"
"1982-02-28 21:00","1982","02","28","21:00","-6.8","","-11.6","","68","","12","","15","","25.0","","101.05","","","","-13","","Mainly Clear"
"1982-02-28 22:00","1982","02","28","22:00","-6.8","","-10.4","","75","","11","","17","","25.0","","100.95","","","","-13","","Mainly Clear"
"1982-02-28 23:00","1982","02","28","23:00","-6.4","","-9.4","","79","","12","","20","","25.0","","100.79","","","","-13","","Mainly Clear"
