"Station Name","TORONTO INTL A"
"Province","ONTARIO"
"Current Station Operator","NAV Canada"
"Latitude","43.68"
"Longitude","-79.63"
"Elevation","173.40"
"Climate Identifier","6158731"
"WMO Identifier","71624"
"TC Identifier","YYZ"
"All times are specified in Local Standard Time (LST). Add 1 hour to adjust for Daylight Saving Time where and when it is observed."

"Legend"
"E","Estimated"
"M","Missing"
"NA","Not Available"

"Date/Time","Year","Month","Day","Time","Temp (°C)","Temp Flag","Dew Point Temp (°C)","Dew Point Temp Flag","Rel Hum (%)","Rel Hum Flag","Wind Dir (10s deg)","Wind Dir Flag","Wind Spd (km/h)","Wind Spd Flag","Visibility (km)","Visibility Flag","Stn Press (kPa)","Stn Press Flag","Hmdx","Hmdx Flag","Wind Chill","Wind Chill Flag","Weather"
"2019-03-01 00:00","2019","03","01","00:00","-7.8","","-12.6","","69","","36","","3","","24.1","","100.26","","","","-9","","NA"
"2019-03-01 01:00","2019","03","01","01:00","-8.0","","-12.7","","69","","36","","2","","24.1","","100.25","","","","-9","","Mostly Cloudy"
"2019-03-01 02:00","2019","03","01","02:00","-8.3","","-13.0","","69","","4","","7","","24.1","","100.26","","","","-12","","NA"
"2019-03-01 03:00","2019","03","01","03:00","-11.5","","-16.0","","70","","35","","4","","24.1","","100.21","","","","-14","","NA"
"2019-03-01 04:00","2019","03","01","04:00","-11.4","","-15.5","","72","","33","","9","","24.1","","100.26","","","","-17","","Mostly Cloudy"
"2019-03-01 05:00","2019","03","01","05:00","-12.8","","-16.5","","74","","31","","5","","24.1","","100.27","","","","-16","","NA"
"2019-03-01 06:00","2019","03","01","06:00","-12.4","","-15.9","","76","","32","","7","","24.1","","100.31","","","","-17","","NA"
"2019-03-01 07:00","2019","03","01","07:00","-12.0","","-15.4","","77","","34","","8","","24.1","","100.35","","","","-17","","Clear"
"2019-03-01 08:00","2019","03","01","08:00","-9.7","","-12.8","","78","","35","","9","","24.1","","100.36","","","","-15","","NA"
"2019-03-01 09:00","2019","03","01","09:00","-8.1","","-11.4","","77","","2","","9","","24.1","","100.38","","","","-13","","NA"
"2019-03-01 10:00","2019","03","01","10:00","-6.1","","-9.7","","76","","36","","4","","24.1","","100.36","","","","-8","","Mainly Clear"
"2019-03-01 11:00","2019","03","01","11:00","-3.9","","-8.2","","72","","30","","4","","24.1","","100.36","","","","-6","","NA"
"2019-03-01 12:00","2019","03","01","12:00","-2.6","","-8.2","","66","","28","","4","","24.1","","100.34","","","","-4","","NA"
"2019-03-01 13:00","2019","03","01","13:00","-1.9","","-8.5","","61","","36","","2","","24.1","","100.30","","","","-3","","Mostly Cloudy"
"2019-03-01 14:00","2019","03","01","14:00","-0.9","","-8.1","","58","","24","","3","","24.1","","100.22","","","","-2","","NA"
"2019-03-01 15:00","2019","03","01","15:00","-1.6","","-7.9","","62","","12","","17","","24.1","","100.16","","","","-7","","NA"
"2019-03-01 16:00","2019","03","01","16:00","-1.8","","-7.3","","66","","13","","12","","24.1","","100.16","","","","-6","","Mostly Cloudy"
"2019-03-01 17:00","2019","03","01","17:00","-2.2","","-7.5","","67","","13","","9","","24.1","","100.17","","","","-6","","NA"
"2019-03-01 18:00","2019","03","01","18:00","-2.8","","-7.8","","68","","13","","10","","24.1","","100.14","","","","-7","","NA"
"2019-03-01 19:00","2019","03","01","19:00","-3.0","","-7.9","","69","","10","","6","","24.1","","100.15","","","","-5","","Mostly Cloudy"
"2019-03-01 20:00","2019","03","01","20:00","-3.5","","-8.4","","69","","10","","5","","24.1","","100.16","","","","-6","","NA"
"2019-03-01 21:00","2019","03","01","21:00","-3.7","","-8.7","","68","","3","","11","","24.1","","100.14","","","","-8","","NA"
"2019-03-01 22:00","2019","03","01","22:00","-5.0","","-9.6","","70","","3","","12","","24.1","","100.11","","","","-10","","Mostly Cloudy"
"2019-03-01 23:00","2019","03","01","23:00","-3.7","","-8.2","","71","","11","","6","","24.1","","100.10","","","","-6","","NA"
"2019-03-02 00:00","2019","03","02","00:00","-4.1","","-8.5","","71","","10","","8","","24.1","","100.02","","","","-8","","NA"
"2019-03-02 01:00","2019","03","02","01:00","-4.7","","-8.9","","73","","3","","7","","24.1","","99.97","","","","-8","","Mostly Cloudy"
"2019-03-02 02:00","2019","03","02","02:00","-5.6","","-9.4","","75","","2","","8","","24.1","","99.92","","","","-9","","NA"
"2019-03-02 03:00","2019","03","02","03:00","-5.0","","-8.7","","75","","2","","8","","24.1","","99.91","","","","-9","","NA"
"2019-03-02 04:00","2019","03","02","04:00","-4.5","","-8.4","","74","","36","","12","","24.1","","99.86","","","","-9","","Cloudy"
"2019-03-02 05:00","2019","03","02","05:00","-4.4","","-8.4","","73","","2","","11","","24.1","","99.81","","","","-9","","NA"
"2019-03-02 06:00","2019","03","02","06:00","-4.0","","-8.3","","72","","1","","12","","24.1","","99.77","","","","-9","","NA"
"2019-03-02 07:00","2019","03","02","07:00","-3.6","","-8.2","","70","","35","","13","","24.1","","99.77","","","","-8","","Cloudy"
"2019-03-02 08:00","2019","03","02","08:00","-3.7","","-8.5","","69","","2","","12","","24.1","","99.79","","","","-8","","NA"
"2019-03-02 09:00","2019","03","02","09:00","-3.3","","-8.6","","67","","35","","11","","24.1","","99.83","","","","-8","","NA"
"2019-03-02 10:00","2019","03","02","10:00","-3.4","","-8.8","","66","","36","","10","","4.0","","99.82","","","","-7","","Snow"
"2019-03-02 11:00","2019","03","02","11:00","-3.9","","-8.0","","74","","34","","14","","1.2","","99.86","","","","-9","","Snow"
"2019-03-02 12:00","2019","03","02","12:00","-3.6","","-6.8","","79","","2","","10","","2.4","","99.79","","","","-8","","Snow"
"2019-03-02 13:00","2019","03","02","13:00","-3.1","","-5.9","","81","","1","","5","","1.6","","99.69","","","","-5","","Snow"
"2019-03-02 14:00","2019","03","02","14:00","-2.5","","-5.0","","83","","31","","7","","1.6","","99.67","","","","-5","","Snow"
"2019-03-02 15:00","2019","03","02","15:00","-2.0","","-4.4","","84","","33","","9","","4.8","","99.69","","","","-5","","Moderate Snow"
"2019-03-02 16:00","2019","03","02","16:00","-1.7","","-4.0","","84","","32","","10","","2.4","","99.75","","","","-5","","Snow"
"2019-03-02 17:00","2019","03","02","17:00","-1.1","","-3.3","","85","","28","","17","","4.0","","99.79","","","","-6","","Snow"
"2019-03-02 18:00","2019","03","02","18:00","-0.9","","-3.9","","81","","29","","21","","16.1","","99.84","","","","-7","","NA"
"2019-03-02 19:00","2019","03","02","19:00","-1.7","","-4.7","","80","","32","","14","","24.1","","99.93","","","","-6","","Mostly Cloudy"
"2019-03-02 20:00","2019","03","02","20:00","-1.8","","-5.1","","78","","31","","18","","9.7","","99.95","","","","-7","","Snow Showers"
"2019-03-02 21:00","2019","03","02","21:00","-2.3","","-5.4","","79","","32","","14","","16.1","","99.98","","","","-7","","Snow Showers"
"2019-03-02 22:00","2019","03","02","22:00","-3.3","","-6.2","","80","","1","","13","","24.1","","99.98","","","","-8","","Mostly Cloudy"
"2019-03-02 23:00","2019","03","02","23:00","-3.2","","-6.2","","80","","29","","18","","24.1","","99.97","","","","-9","","NA"
"2019-03-03 00:00","2019","03","03","00:00","-3.9","","-7.9","","74","","30","","13","","24.1","","99.96","","","","-9","","NA"
"2019-03-03 01:00","2019","03","03","01:00","-3.9","","-8.5","","70","","32","","21","","24.1","","100.00","","","","-10","","Mostly Cloudy"
"2019-03-03 02:00","2019","03","03","02:00","-4.1","","-8.9","","69","","31","","22","","24.1","","100.03","","","","-11","","NA"
"2019-03-03 03:00","2019","03","03","03:00","-4.5","","-9.6","","68","","32","","13","","24.1","","100.00","","","","-10","","NA"
"2019-03-03 04:00","2019","03","03","04:00","-4.1","","-9.5","","66","","29","","12","","24.1","","99.95","","","","-9","","Mostly Cloudy"
"2019-03-03 05:00","2019","03","03","05:00","-4.0","","-9.4","","67","","31","","12","","24.1","","99.99","","","","-9","","NA"
"2019-03-03 06:00","2019","03","03","06:00","-4.3","","-9.8","","66","","32","","11","","24.1","","100.03","","","","-9","","NA"
"2019-03-03 07:00","2019","03","03","07:00","-5.6","","-10.6","","68","","3","","17","","24.1","","100.03","","","","-12","","Mostly Cloudy"
"2019-03-03 08:00","2019","03","03","08:00","-6.3","","-11.3","","68","","3","","12","","24.1","","100.04","","","","-11","","NA"
"2019-03-03 09:00","2019","03","03","09:00","-5.7","","-11.0","","66","","36","","10","","24.1","","100.05","","","","-10","","Snow"
"2019-03-03 10:00","2019","03","03","10:00","-5.0","","-10.8","","64","","36","","2","","24.1","","100.01","","","","-6","","Mostly Cloudy"
"2019-03-03 11:00","2019","03","03","11:00","-3.3","","-9.7","","61","","29","","5","","24.1","","99.93","","","","-5","","NA"
"2019-03-03 12:00","2019","03","03","12:00","-2.8","","-9.6","","60","","22","","10","","24.1","","99.81","","","","-7","","NA"
"2019-03-03 13:00","2019","03","03","13:00","-2.8","","-9.1","","62","","14","","15","","24.1","","99.67","","","","-8","","Cloudy"
"2019-03-03 14:00","2019","03","03","14:00","-2.5","","-8.8","","62","","14","","12","","24.1","","99.57","","","","-7","","NA"
"2019-03-03 15:00","2019","03","03","15:00","-2.4","","-8.5","","63","","15","","10","","24.1","","99.47","","","","-6","","NA"
"2019-03-03 16:00","2019","03","03","16:00","-2.5","","-8.9","","62","","16","","12","","24.1","","99.47","","","","-7","","Cloudy"
"2019-03-03 17:00","2019","03","03","17:00","-2.9","","-9.5","","60","","24","","14","","24.1","","99.48","","","","-8","","Snow"
"2019-03-03 18:00","2019","03","03","18:00","-3.8","","-9.0","","67","","21","","12","","4.0","","99.46","","","","-8","","Snow"
"2019-03-03 19:00","2019","03","03","19:00","-4.2","","-8.5","","72","","25","","13","","6.4","","99.40","","","","-9","","Snow"
"2019-03-03 20:00","2019","03","03","20:00","-4.5","","-8.6","","74","","25","","9","","9.7","","99.42","","","","-8","","Snow"
"2019-03-03 21:00","2019","03","03","21:00","-6.1","","-9.6","","76","","27","","10","","24.1","","99.39","","","","-11","","NA"
"2019-03-03 22:00","2019","03","03","22:00","-6.1","","-9.7","","76","","35","","24","","9.7","","99.39","","","","-14","","Snow Showers"
"2019-03-03 23:00","2019","03","03","23:00","-7.8","","-11.2","","77","","36","","19","","6.4","","99.43","","","","-15","","Snow Showers"
"2019-03-04 00:00","2019","03","04","00:00","-8.3","","-11.7","","77","","34","","24","","24.1","","99.44","","","","-16","","Blowing Snow"
"2019-03-04 01:00","2019","03","04","01:00","-9.2","","-12.7","","76","","35","","21","","24.1","","99.43","","","","-17","","Blowing Snow"
"2019-03-04 02:00","2019","03","04","02:00","-10.1","","-13.6","","75","","34","","22","","24.1","","99.46","","","","-18","","NA"
"2019-03-04 03:00","2019","03","04","03:00","-10.8","","-14.7","","73","","34","","19","","24.1","","99.42","","","","-19","","NA"
"2019-03-04 04:00","2019","03","04","04:00","-11.5","","-15.5","","72","","35","","19","","24.1","","99.40","","","","-20","","Clear"
"2019-03-04 05:00","2019","03","04","05:00","-12.3","","-16.4","","72","","33","","17","","24.1","","99.44","","","","-20","","NA"
"2019-03-04 06:00","2019","03","04","06:00","-13.5","","-17.6","","72","","32","","14","","24.1","","99.45","","","","-21","","NA"
"2019-03-04 07:00","2019","03","04","07:00","-12.8","","-16.9","","72","","30","","13","","24.1","","99.47","","","","-20","","Mainly Clear"
"2019-03-04 08:00","2019","03","04","08:00","-12.8","","-16.9","","72","","28","","11","","24.1","","99.51","","","","-19","","NA"
"2019-03-04 09:00","2019","03","04","09:00","-11.1","","-15.6","","70","","36","","13","","24.1","","99.52","","","","-18","","NA"
"2019-03-04 10:00","2019","03","04","10:00","-10.2","","-15.1","","68","","31","","8","","24.1","","99.51","","","","-15","","Mostly Cloudy"
"2019-03-04 11:00","2019","03","04","11:00","-8.7","","-14.1","","65","","24","","10","","24.1","","99.47","","","","-14","","NA"
"2019-03-04 12:00","2019","03","04","12:00","-8.9","","-14.6","","63","","24","","20","","4.0","","99.41","","","","-16","","Snow Showers"
"2019-03-04 13:00","2019","03","04","13:00","-8.1","","-14.6","","60","","28","","34","","24.1","","99.35","","","","-18","","Snow Showers"
"2019-03-04 14:00","2019","03","04","14:00","-9.0","","-15.8","","58","","28","","34","","24.1","","99.35","","","","-19","","NA"
"2019-03-04 15:00","2019","03","04","15:00","-9.7","","-17.0","","56","","27","","44","","24.1","","99.38","","","","-21","","Blowing Snow"
"2019-03-04 16:00","2019","03","04","16:00","-9.9","","-17.1","","56","","29","","28","","24.1","","99.41","","","","-19","","Snow Showers,Blowing Snow"
"2019-03-04 17:00","2019","03","04","17:00","-10.1","","-17.6","","55","","29","","23","","24.1","","99.40","","","","-19","","Snow Showers,Blowing Snow"
"2019-03-04 18:00","2019","03","04","18:00","-10.5","","-17.9","","55","","26","","28","","24.1","","99.44","","","","-20","","Blowing Snow"
"2019-03-04 19:00","2019","03","04","19:00","-11.2","","-17.6","","59","","27","","19","","24.1","","99.48","","","","-19","","Blowing Snow"
"2019-03-04 20:00","2019","03","04","20:00","-11.4","","-17.5","","61","","27","","19","","24.1","","99.50","","","","-19","","NA"
"2019-03-04 21:00","2019","03","04","21:00","-12.0","","-17.8","","63","","26","","20","","24.1","","99.51","","","","-20","","NA"
"2019-03-04 22:00","2019","03","04","22:00","-12.7","","-18.1","","64","","27","","19","","24.1","","99.52","","","","-21","","Mainly Clear"
"2019-03-04 23:00","2019","03","04","23:00","-12.8","","-18.0","","65","","28","","23","","24.1","","99.53","","","","-22","","NA"
"2019-03-05 00:00","2019","03","05","00:00","-12.6","","-18.1","","64","","26","","33","","24.1","","99.52","","","","-23","","Blowing Snow"
"2019-03-05 01:00","2019","03","05","01:00","-13.7","","-19.6","","61","","26","","23","","24.1","","99.52","","","","-23","","Blowing Snow"
"2019-03-05 02:00","2019","03","05","02:00","-14.1","","-20.1","","61","","26","","24","","24.1","","99.52","","","","-24","","Blowing Snow"
"2019-03-05 03:00","2019","03","05","03:00","-15.0","","-20.9","","61","","25","","16","","24.1","","99.48","","","","-23","","NA"
"2019-03-05 04:00","2019","03","05","04:00","-14.3","","-20.1","","62","","22","","17","","24.1","","99.45","","","","-23","","Mainly Clear"
"2019-03-05 05:00","2019","03","05","05:00","-14.6","","-20.1","","63","","22","","18","","24.1","","99.45","","","","-23","","NA"
"2019-03-05 06:00","2019","03","05","06:00","-14.3","","-19.8","","63","","23","","19","","24.1","","99.44","","","","-23","","NA"
"2019-03-05 07:00","2019","03","05","07:00","-13.8","","-19.2","","64","","22","","18","","24.1","","99.39","","","","-22","","Mostly Cloudy"
"2019-03-05 08:00","2019","03","05","08:00","-13.0","","-18.4","","64","","22","","22","","24.1","","99.33","","","","-22","","NA"
"2019-03-05 09:00","2019","03","05","09:00","-11.8","","-17.0","","66","","23","","19","","9.7","","99.32","","","","-20","","Snow"
"2019-03-05 10:00","2019","03","05","10:00","-10.7","","-16.0","","66","","23","","22","","9.7","","99.28","","","","-19","","Snow"
"2019-03-05 11:00","2019","03","05","11:00","-10.0","","-15.4","","65","","23","","23","","4.8","","99.23","","","","-18","","Snow,Blowing Snow"
"2019-03-05 12:00","2019","03","05","12:00","-9.8","","-15.4","","64","","25","","33","","12.9","","99.22","","","","-20","","Snow,Blowing Snow"
"2019-03-05 13:00","2019","03","05","13:00","-9.3","","-15.3","","62","","24","","28","","9.7","","99.20","","","","-18","","Snow,Blowing Snow"
"2019-03-05 14:00","2019","03","05","14:00","-9.2","","-14.7","","65","","26","","27","","4.8","","99.19","","","","-18","","Snow,Blowing Snow"
"2019-03-05 15:00","2019","03","05","15:00","-9.4","","-15.5","","61","","25","","36","","9.7","","99.24","","","","-20","","Snow,Blowing Snow"
"2019-03-05 16:00","2019","03","05","16:00","-9.3","","-16.3","","57","","28","","45","","12.9","","99.27","","","","-20","","Snow,Blowing Snow"
"2019-03-05 17:00","2019","03","05","17:00","-9.8","","-16.2","","60","","28","","30","","24.1","","99.33","","","","-19","","Snow,Blowing Snow"
"2019-03-05 18:00","2019","03","05","18:00","-10.5","","-18.0","","55","","28","","24","","24.1","","99.41","","","","-19","","Blowing Snow"
"2019-03-05 19:00","2019","03","05","19:00","-11.4","","-19.0","","54","","27","","17","","24.1","","99.50","","","","-19","","Blowing Snow"
"2019-03-05 20:00","2019","03","05","20:00","-11.9","","-19.2","","55","","27","","17","","24.1","","99.54","","","","-20","","NA"
"2019-03-05 21:00","2019","03","05","21:00","-12.7","","-19.7","","57","","25","","19","","24.1","","99.55","","","","-21","","NA"
"2019-03-05 22:00","2019","03","05","22:00","-13.0","","-19.5","","59","","25","","18","","24.1","","99.58","","","","-21","","Mainly Clear"
"2019-03-05 23:00","2019","03","05","23:00","-12.5","","-18.7","","60","","26","","24","","24.1","","99.55","","","","-22","","NA"
"2019-03-06 00:00","2019","03","06","00:00","-14.2","","-20.0","","62","","24","","14","","24.1","","99.54","","","","-22","","NA"
"2019-03-06 01:00","2019","03","06","01:00","-14.2","","-19.7","","64","","24","","14","","24.1","","99.55","","","","-22","","Mainly Clear"
"2019-03-06 02:00","2019","03","06","02:00","-13.0","","-18.3","","65","","24","","21","","24.1","","99.55","","","","-22","","NA"
"2019-03-06 03:00","2019","03","06","03:00","-12.1","","-17.3","","65","","27","","28","","24.1","","99.55","","","","-22","","NA"
"2019-03-06 04:00","2019","03","06","04:00","-12.6","","-17.6","","66","","29","","17","","24.1","","99.62","","","","-20","","Mainly Clear"
"2019-03-06 05:00","2019","03","06","05:00","-13.6","","-18.3","","68","","29","","11","","24.1","","99.72","","","","-20","","NA"
"2019-03-06 06:00","2019","03","06","06:00","-14.6","","-19.4","","67","","28","","13","","24.1","","99.79","","","","-22","","NA"
"2019-03-06 07:00","2019","03","06","07:00","-14.1","","-18.9","","67","","28","","19","","24.1","","99.86","","","","-23","","Mainly Clear"
"2019-03-06 08:00","2019","03","06","08:00","-12.9","","-18.0","","66","","28","","18","","24.1","","99.94","","","","-21","","NA"
"2019-03-06 09:00","2019","03","06","09:00","-12.1","","-17.4","","65","","28","","21","","24.1","","100.01","","","","-21","","NA"
"2019-03-06 10:00","2019","03","06","10:00","-11.2","","-17.1","","62","","28","","23","","24.1","","100.04","","","","-20","","Clear"
"2019-03-06 11:00","2019","03","06","11:00","-10.4","","-16.7","","60","","28","","27","","24.1","","100.07","","","","-20","","NA"
"2019-03-06 12:00","2019","03","06","12:00","-9.7","","-16.8","","56","","28","","28","","24.1","","100.10","","","","-19","","NA"
"2019-03-06 13:00","2019","03","06","13:00","-9.9","","-17.6","","54","","28","","29","","24.1","","100.10","","","","-19","","Mostly Cloudy"
"2019-03-06 14:00","2019","03","06","14:00","-9.5","","-17.5","","53","","27","","32","","24.1","","100.08","","","","-19","","NA"
"2019-03-06 15:00","2019","03","06","15:00","-9.6","","-18.1","","50","","26","","33","","24.1","","100.10","","","","-19","","NA"
"2019-03-06 16:00","2019","03","06","16:00","-10.5","","-18.6","","52","","28","","30","","24.1","","100.13","","","","-20","","Mostly Cloudy"
"2019-03-06 17:00","2019","03","06","17:00","-11.1","","-18.1","","57","","28","","27","","24.1","","100.11","","","","-21","","NA"
"2019-03-06 18:00","2019","03","06","18:00","-11.0","","-19.1","","52","","27","","29","","24.1","","100.12","","","","-21","","NA"
"2019-03-06 19:00","2019","03","06","19:00","-11.8","","-19.8","","52","","28","","17","","24.1","","100.17","","","","-19","","Mainly Clear"
"2019-03-06 20:00","2019","03","06","20:00","-13.3","","-20.4","","56","","27","","8","","24.1","","100.15","","","","-18","","NA"
"2019-03-06 21:00","2019","03","06","21:00","-12.0","","-18.6","","58","","23","","13","","24.1","","100.12","","","","-19","","NA"
"2019-03-06 22:00","2019","03","06","22:00","-11.0","","-17.8","","58","","22","","9","","24.1","","100.12","","","","-16","","Mostly Cloudy"
"2019-03-06 23:00","2019","03","06","23:00","-11.8","","-18.4","","58","","23","","9","","24.1","","100.07","","","","-17","","NA"
"2019-03-07 00:00","2019","03","07","00:00","-11.8","","-17.4","","63","","24","","16","","24.1","","99.99","","","","-19","","NA"
"2019-03-07 01:00","2019","03","07","01:00","-11.6","","-16.7","","66","","24","","13","","19.3","","99.97","","","","-18","","Snow"
"2019-03-07 02:00","2019","03","07","02:00","-11.4","","-16.3","","68","","24","","11","","24.1","","99.97","","","","-17","","NA"
"2019-03-07 03:00","2019","03","07","03:00","-11.3","","-15.9","","69","","25","","15","","24.1","","99.94","","","","-18","","NA"
"2019-03-07 04:00","2019","03","07","04:00","-12.0","","-16.4","","70","","27","","18","","24.1","","99.95","","","","-20","","Mostly Cloudy"
"2019-03-07 05:00","2019","03","07","05:00","-12.5","","-16.6","","71","","29","","13","","24.1","","100.04","","","","-19","","NA"
"2019-03-07 06:00","2019","03","07","06:00","-12.8","","-17.0","","71","","31","","13","","24.1","","100.13","","","","-20","","NA"
"2019-03-07 07:00","2019","03","07","07:00","-12.3","","-16.8","","70","","29","","12","","24.1","","100.20","","","","-19","","Clear"
"2019-03-07 08:00","2019","03","07","08:00","-12.0","","-16.6","","69","","29","","9","","24.1","","100.30","","","","-17","","NA"
"2019-03-07 09:00","2019","03","07","09:00","-9.9","","-14.8","","67","","31","","17","","24.1","","100.38","","","","-17","","NA"
"2019-03-07 10:00","2019","03","07","10:00","-8.9","","-14.5","","64","","32","","21","","24.1","","100.42","","","","-17","","Mostly Cloudy"
"2019-03-07 11:00","2019","03","07","11:00","-8.3","","-14.5","","61","","27","","19","","24.1","","100.48","","","","-16","","NA"
"2019-03-07 12:00","2019","03","07","12:00","-7.0","","-13.9","","58","","24","","24","","24.1","","100.50","","","","-15","","NA"
"2019-03-07 13:00","2019","03","07","13:00","-6.8","","-14.4","","55","","28","","24","","24.1","","100.51","","","","-14","","Mostly Cloudy"
"2019-03-07 14:00","2019","03","07","14:00","-6.4","","-14.6","","53","","28","","28","","24.1","","100.49","","","","-15","","NA"
"2019-03-07 15:00","2019","03","07","15:00","-6.0","","-14.3","","52","","27","","30","","24.1","","100.48","","","","-14","","NA"
"2019-03-07 16:00","2019","03","07","16:00","-6.3","","-15.4","","49","","28","","36","","24.1","","100.50","","","","-15","","Mainly Clear"
"2019-03-07 17:00","2019","03","07","17:00","-6.9","","-15.5","","51","","30","","28","","24.1","","100.51","","","","-15","","NA"
"2019-03-07 18:00","2019","03","07","18:00","-8.0","","-16.6","","51","","30","","28","","24.1","","100.54","","","","-17","","NA"
"2019-03-07 19:00","2019","03","07","19:00","-9.2","","-17.3","","52","","27","","21","","24.1","","100.60","","","","-17","","Mainly Clear"
"2019-03-07 20:00","2019","03","07","20:00","-9.8","","-17.4","","55","","28","","22","","24.1","","100.62","","","","-18","","NA"
"2019-03-07 21:00","2019","03","07","21:00","-10.8","","-18.0","","56","","28","","14","","24.1","","100.62","","","","-17","","NA"
"2019-03-07 22:00","2019","03","07","22:00","-11.5","","-18.2","","58","","28","","14","","24.1","","100.63","","","","-18","","Mainly Clear"
"2019-03-07 23:00","2019","03","07","23:00","-12.1","","-18.5","","59","","24","","8","","24.1","","100.62","","","","-17","","NA"
"2019-03-08 00:00","2019","03","08","00:00","-13.4","","-19.4","","61","","25","","9","","24.1","","100.60","","","","-19","","NA"
"2019-03-08 01:00","2019","03","08","01:00","-12.1","","-17.9","","63","","22","","14","","24.1","","100.58","","","","-19","","Mainly Clear"
"2019-03-08 02:00","2019","03","08","02:00","-13.4","","-18.9","","64","","24","","14","","24.1","","100.62","","","","-21","","NA"
"2019-03-08 03:00","2019","03","08","03:00","-13.1","","-18.4","","65","","24","","14","","24.1","","100.56","","","","-20","","NA"
"2019-03-08 04:00","2019","03","08","04:00","-13.7","","-18.8","","66","","27","","9","","24.1","","100.52","","","","-19","","Clear"
"2019-03-08 05:00","2019","03","08","05:00","-13.6","","-18.7","","66","","27","","7","","24.1","","100.55","","","","-18","","NA"
"2019-03-08 06:00","2019","03","08","06:00","-13.9","","-19.0","","66","","29","","7","","24.1","","100.53","","","","-19","","NA"
"2019-03-08 07:00","2019","03","08","07:00","-13.0","","-18.0","","67","","29","","9","","24.1","","100.54","","","","-18","","Mostly Cloudy"
"2019-03-08 08:00","2019","03","08","08:00","-11.8","","-16.9","","66","","28","","5","","24.1","","100.56","","","","-15","","NA"
"2019-03-08 09:00","2019","03","08","09:00","-9.2","","-14.6","","65","","26","","7","","24.1","","100.54","","","","-13","","NA"
"2019-03-08 10:00","2019","03","08","10:00","-6.7","","-12.3","","65","","22","","13","","24.1","","100.51","","","","-12","","Mainly Clear"
"2019-03-08 11:00","2019","03","08","11:00","-5.1","","-11.0","","64","","23","","9","","24.1","","100.46","","","","-9","","NA"
"2019-03-08 12:00","2019","03","08","12:00","-4.2","","-11.2","","58","","22","","10","","24.1","","100.39","","","","-8","","NA"
"2019-03-08 13:00","2019","03","08","13:00","-3.2","","-11.3","","54","","27","","11","","24.1","","100.31","","","","-7","","Mainly Clear"
"2019-03-08 14:00","2019","03","08","14:00","-2.4","","-11.5","","50","","23","","6","","24.1","","100.21","","","","-5","","NA"
"2019-03-08 15:00","2019","03","08","15:00","-1.5","","-11.1","","48","","26","","6","","24.1","","100.12","","","","-4","","NA"
"2019-03-08 16:00","2019","03","08","16:00","-1.5","","-11.8","","46","","24","","7","","24.1","","100.08","","","","-4","","Clear"
"2019-03-08 17:00","2019","03","08","17:00","-1.6","","-12.2","","44","","25","","11","","24.1","","100.03","","","","-5","","NA"
"2019-03-08 18:00","2019","03","08","18:00","-2.2","","-12.4","","46","","24","","8","","24.1","","100.01","","","","-5","","NA"
"2019-03-08 19:00","2019","03","08","19:00","-2.3","","-12.5","","46","","21","","8","","24.1","","100.04","","","","-5","","Clear"
"2019-03-08 20:00","2019","03","08","20:00","-3.8","","-12.7","","50","","30","","8","","24.1","","100.08","","","","-7","","NA"
"2019-03-08 21:00","2019","03","08","21:00","-4.3","","-12.5","","53","","31","","14","","24.1","","100.10","","","","-9","","NA"
"2019-03-08 22:00","2019","03","08","22:00","-5.3","","-12.6","","57","","30","","9","","24.1","","100.13","","","","-9","","Clear"
"2019-03-08 23:00","2019","03","08","23:00","-5.2","","-12.6","","56","","31","","8","","24.1","","100.13","","","","-9","","NA"
"2019-03-09 00:00","2019","03","09","00:00","-6.5","","-13.1","","60","","28","","5","","24.1","","100.16","","","","-9","","NA"
"2019-03-09 01:00","2019","03","09","01:00","-8.1","","-14.6","","60","","36","","3","","24.1","","100.20","","","","-10","","Clear"
"2019-03-09 02:00","2019","03","09","02:00","-8.0","","-13.8","","63","","24","","5","","24.1","","100.28","","","","-11","","NA"
"2019-03-09 03:00","2019","03","09","03:00","-7.6","","-13.1","","65","","35","","4","","24.1","","100.25","","","","-10","","NA"
"2019-03-09 04:00","2019","03","09","04:00","-11.5","","-16.9","","65","","32","","10","","24.1","","100.29","","","","-17","","Clear"
"2019-03-09 05:00","2019","03","09","05:00","-9.2","","-14.2","","67","","36","","2","","24.1","","100.37","","","","-10","","NA"
"2019-03-09 06:00","2019","03","09","06:00","-9.6","","-14.5","","68","","35","","3","","24.1","","100.41","","","","-11","","NA"
"2019-03-09 07:00","2019","03","09","07:00","-9.1","","-14.1","","67","","3","","10","","19.3","","100.46","","","","-14","","Mainly Clear"
"2019-03-09 08:00","2019","03","09","08:00","-8.3","","-13.2","","68","","2","","4","","19.3","","100.53","","","","-10","","NA"
"2019-03-09 09:00","2019","03","09","09:00","-5.4","","-10.8","","66","","2","","5","","19.3","","100.58","","","","-8","","NA"
"2019-03-09 10:00","2019","03","09","10:00","-2.0","","-8.3","","62","","10","","12","","19.3","","100.53","","","","-6","","Mainly Clear"
"2019-03-09 11:00","2019","03","09","11:00","-0.8","","-7.6","","60","","15","","14","","24.1","","100.46","","","","-5","","NA"
"2019-03-09 12:00","2019","03","09","12:00","-0.8","","-8.0","","58","","15","","19","","24.1","","100.51","","","","-6","","NA"
"2019-03-09 13:00","2019","03","09","13:00","-0.4","","-6.9","","62","","11","","15","","24.1","","100.46","","","","-5","","Mainly Clear"
"2019-03-09 14:00","2019","03","09","14:00","0.2","","-6.9","","59","","11","","19","","24.1","","100.31","","","","","","NA"
"2019-03-09 15:00","2019","03","09","15:00","0.2","","-7.8","","55","","9","","16","","24.1","","100.29","","","","","","NA"
"2019-03-09 16:00","2019","03","09","16:00","0.0","","-7.6","","57","","8","","21","","24.1","","100.20","","","","-5","","Mostly Cloudy"
"2019-03-09 17:00","2019","03","09","17:00","-0.8","","-8.1","","58","","8","","20","","24.1","","100.11","","","","-6","","NA"
"2019-03-09 18:00","2019","03","09","18:00","-1.3","","-8.8","","57","","9","","18","","24.1","","99.90","","","","-7","","NA"
"2019-03-09 19:00","2019","03","09","19:00","-0.9","","-8.7","","56","","9","","25","","24.1","","99.83","","","","-7","","Cloudy"
"2019-03-09 20:00","2019","03","09","20:00","-0.6","","-8.0","","57","","9","","32","","24.1","","99.67","","","","-7","","NA"
"2019-03-09 21:00","2019","03","09","21:00","-0.2","","-6.9","","61","","9","","36","","24.1","","99.44","","","","-7","","NA"
"2019-03-09 22:00","2019","03","09","22:00","0.2","","-6.4","","61","","9","","30","","24.1","","99.36","","","","","","Cloudy"
"2019-03-09 23:00","2019","03","09","23:00","0.6","","-6.2","","60","","10","","40","","24.1","","99.23","","","","","","NA"
"2019-03-10 00:00","2019","03","10","00:00","0.8","","-5.4","","63","","10","","40","","9.7","","98.88","","","","","","Freezing Rain"
"2019-03-10 01:00","2019","03","10","01:00","0.6","","-4.4","","69","","10","","31","","9.7","","98.61","","","","","","Freezing Rain"
"2019-03-10 02:00","2019","03","10","02:00","0.7","","-3.6","","73","","10","","25","","8.1","","98.50","","","","","","Freezing Rain"
"2019-03-10 03:00","2019","03","10","03:00","0.9","","-2.4","","79","","8","","23","","8.1","","98.37","","","","","","Rain,Fog"
"2019-03-10 04:00","2019","03","10","04:00","1.8","","-0.5","","85","","10","","19","","6.4","","98.23","","","","","","Rain,Fog"
"2019-03-10 05:00","2019","03","10","05:00","3.0","","1.1","","88","","11","","21","","9.7","","98.21","","","","","","Rain,Fog"
"2019-03-10 06:00","2019","03","10","06:00","3.4","","1.6","","88","","12","","20","","16.1","","98.14","","","","","","Rain"
"2019-03-10 07:00","2019","03","10","07:00","3.4","","1.8","","89","","13","","17","","6.4","","98.09","","","","","","Rain,Fog"
"2019-03-10 08:00","2019","03","10","08:00","4.0","","2.7","","91","","17","","25","","16.1","","98.06","","","","","","Rain"
"2019-03-10 09:00","2019","03","10","09:00","4.9","","3.6","","92","","20","","23","","24.1","","98.05","","","","","","NA"
"2019-03-10 10:00","2019","03","10","10:00","4.7","","3.1","","89","","23","","31","","24.1","","98.13","","","","","","Cloudy"
"2019-03-10 11:00","2019","03","10","11:00","5.3","","2.8","","84","","22","","34","","24.1","","98.19","","","","","","NA"
"2019-03-10 12:00","2019","03","10","12:00","4.0","","0.9","","80","","22","","40","","16.1","","98.29","","","","","","Rain Showers"
"2019-03-10 13:00","2019","03","10","13:00","3.4","","0.3","","80","","23","","36","","24.1","","98.36","","","","","","Cloudy"
"2019-03-10 14:00","2019","03","10","14:00","2.8","","-0.2","","81","","22","","29","","16.1","","98.42","","","","","","Drizzle"
"2019-03-10 15:00","2019","03","10","15:00","2.4","","-0.2","","83","","22","","26","","6.4","","98.50","","","","","","Drizzle,Fog"
"2019-03-10 16:00","2019","03","10","16:00","2.2","","-0.1","","85","","22","","24","","8.1","","98.60","","","","","","Drizzle,Fog"
"2019-03-10 17:00","2019","03","10","17:00","2.0","","0.0","","86","","24","","16","","19.3","","98.71","","","","","","Rain"
"2019-03-10 18:00","2019","03","10","18:00","2.5","","0.1","","84","","25","","27","","9.7","","98.83","","","","","","Drizzle,Fog"
"2019-03-10 19:00","2019","03","10","19:00","2.1","","-0.3","","84","","24","","16","","8.1","","98.94","","","","","","Drizzle,Fog"
"2019-03-10 20:00","2019","03","10","20:00","2.0","","-0.5","","84","","25","","34","","9.7","","99.06","","","","","","Rain,Fog"
"2019-03-10 21:00","2019","03","10","21:00","2.2","","-0.6","","82","","26","","37","","24.1","","99.11","","","","","","NA"
"2019-03-10 22:00","2019","03","10","22:00","2.5","","-1.2","","77","","27","","39","","24.1","","99.18","","","","","","Cloudy"
"2019-03-10 23:00","2019","03","10","23:00","2.2","","-1.7","","76","","25","","28","","24.1","","99.26","","","","","","Rain"
"2019-03-11 00:00","2019","03","11","00:00","2.0","","-1.6","","77","","25","","35","","24.1","","99.26","","","","","","Rain"
"2019-03-11 01:00","2019","03","11","01:00","1.9","","-1.8","","76","","24","","25","","24.1","","99.27","","","","","","Cloudy"
"2019-03-11 02:00","2019","03","11","02:00","2.0","","-1.8","","76","","26","","31","","24.1","","99.32","","","","","","NA"
"2019-03-11 03:00","2019","03","11","03:00","1.9","","-2.5","","73","","26","","41","","24.1","","99.32","","","","","","NA"
"2019-03-11 04:00","2019","03","11","04:00","1.6","","-3.5","","69","","26","","46","","24.1","","99.34","","","","","","Mainly Clear"
"2019-03-11 05:00","2019","03","11","05:00","1.4","","-3.9","","68","","26","","40","","24.1","","99.44","","","","","","NA"
"2019-03-11 06:00","2019","03","11","06:00","1.0","","-5.0","","64","","27","","36","","24.1","","99.48","","","","","","NA"
"2019-03-11 07:00","2019","03","11","07:00","0.8","","-5.3","","64","","27","","23","","24.1","","99.57","","","","","","Mostly Cloudy"
"2019-03-11 08:00","2019","03","11","08:00","0.9","","-5.2","","64","","28","","34","","24.1","","99.64","","","","","","NA"
"2019-03-11 09:00","2019","03","11","09:00","0.9","","-5.5","","63","","27","","35","","24.1","","99.70","","","","","","NA"
"2019-03-11 10:00","2019","03","11","10:00","1.0","","-5.4","","62","","27","","34","","24.1","","99.74","","","","","","Cloudy"
"2019-03-11 11:00","2019","03","11","11:00","1.0","","-5.2","","63","","27","","31","","24.1","","99.76","","","","","","NA"
"2019-03-11 12:00","2019","03","11","12:00","2.0","","-4.5","","62","","26","","35","","24.1","","99.78","","","","","","NA"
"2019-03-11 13:00","2019","03","11","13:00","0.8","","-5.5","","63","","26","","34","","24.1","","99.79","","","","","","Cloudy"
"2019-03-11 14:00","2019","03","11","14:00","0.4","","-5.7","","64","","27","","34","","24.1","","99.80","","","","","","NA"
"2019-03-11 15:00","2019","03","11","15:00","0.2","","-6.0","","64","","27","","29","","24.1","","99.84","","","","","","Snow Showers"
"2019-03-11 16:00","2019","03","11","16:00","-0.2","","-6.0","","65","","28","","28","","24.1","","99.89","","","","-7","","Snow Showers"
"2019-03-11 17:00","2019","03","11","17:00","-0.4","","-6.2","","65","","27","","29","","24.1","","99.95","","","","-7","","Snow Showers"
"2019-03-11 18:00","2019","03","11","18:00","-0.7","","-7.1","","62","","29","","32","","24.1","","99.99","","","","-8","","NA"
"2019-03-11 19:00","2019","03","11","19:00","-1.5","","-7.2","","65","","28","","27","","24.1","","100.06","","","","-8","","Mainly Clear"
"2019-03-11 20:00","2019","03","11","20:00","-1.9","","-7.3","","66","","27","","21","","24.1","","100.11","","","","-8","","NA"
"2019-03-11 21:00","2019","03","11","21:00","-2.1","","-7.2","","68","","28","","20","","24.1","","100.13","","","","-8","","NA"
"2019-03-11 22:00","2019","03","11","22:00","-1.9","","-7.0","","68","","28","","21","","24.1","","100.15","","","","-8","","Mostly Cloudy"
"2019-03-11 23:00","2019","03","11","23:00","-1.6","","-6.7","","68","","28","","29","","24.1","","100.18","","","","-8","","Snow"
"2019-03-12 00:00","2019","03","12","00:00","-1.7","","-6.9","","67","","29","","29","","24.1","","100.22","","","","-9","","Snow"
"2019-03-12 01:00","2019","03","12","01:00","-1.8","","-7.1","","67","","30","","27","","24.1","","100.24","","","","-8","","Snow"
"2019-03-12 02:00","2019","03","12","02:00","-1.9","","-7.3","","67","","30","","25","","24.1","","100.29","","","","-8","","Snow"
"2019-03-12 03:00","2019","03","12","03:00","-2.3","","-7.9","","65","","32","","26","","24.1","","100.31","","","","-9","","Snow"
"2019-03-12 04:00","2019","03","12","04:00","-2.5","","-8.2","","65","","32","","32","","24.1","","100.34","","","","-10","","Cloudy"
"2019-03-12 05:00","2019","03","12","05:00","-2.5","","-8.4","","64","","31","","29","","24.1","","100.41","","","","-10","","NA"
"2019-03-12 06:00","2019","03","12","06:00","-2.7","","-8.7","","63","","32","","28","","24.1","","100.47","","","","-10","","NA"
"2019-03-12 07:00","2019","03","12","07:00","-2.6","","-8.7","","63","","31","","23","","24.1","","100.54","","","","-9","","Mostly Cloudy"
"2019-03-12 08:00","2019","03","12","08:00","-1.9","","-8.3","","62","","32","","23","","24.1","","100.57","","","","-8","","NA"
"2019-03-12 09:00","2019","03","12","09:00","-1.7","","-8.3","","61","","31","","27","","24.1","","100.61","","","","-8","","NA"
"2019-03-12 10:00","2019","03","12","10:00","-0.4","","-7.1","","61","","30","","20","","24.1","","100.62","","","","-6","","Mainly Clear"
"2019-03-12 11:00","2019","03","12","11:00","0.3","","-7.1","","57","","28","","17","","24.1","","100.60","","","","","","NA"
"2019-03-12 12:00","2019","03","12","12:00","0.8","","-7.5","","54","","31","","10","","24.1","","100.56","","","","","","NA"
"2019-03-12 13:00","2019","03","12","13:00","2.1","","-6.9","","51","","26","","16","","24.1","","100.54","","","","","","Clear"
"2019-03-12 14:00","2019","03","12","14:00","2.7","","-6.5","","51","","27","","20","","24.1","","100.49","","","","","","NA"
"2019-03-12 15:00","2019","03","12","15:00","2.8","","-7.0","","49","","26","","20","","24.1","","100.48","","","","","","NA"
"2019-03-12 16:00","2019","03","12","16:00","2.5","","-7.0","","50","","26","","20","","24.1","","100.49","","","","","","Clear"
"2019-03-12 17:00","2019","03","12","17:00","2.3","","-7.2","","50","","26","","21","","24.1","","100.47","","","","","","NA"
"2019-03-12 18:00","2019","03","12","18:00","1.7","","-7.3","","51","","27","","10","","24.1","","100.41","","","","","","NA"
"2019-03-12 19:00","2019","03","12","19:00","0.0","","-7.5","","57","","27","","13","","24.1","","100.44","","","","-4","","Clear"
"2019-03-12 20:00","2019","03","12","20:00","0.3","","-7.3","","57","","23","","6","","24.1","","100.43","","","","","","NA"
"2019-03-12 21:00","2019","03","12","21:00","0.1","","-6.1","","63","","22","","13","","24.1","","100.43","","","","","","NA"
"2019-03-12 22:00","2019","03","12","22:00","-0.7","","-6.1","","67","","22","","18","","24.1","","100.43","","","","-6","","Clear"
"2019-03-12 23:00","2019","03","12","23:00","-1.6","","-7.0","","67","","23","","9","","24.1","","100.38","","","","-5","","NA"
"2019-03-13 00:00","2019","03","13","00:00","-2.0","","-7.3","","67","","23","","10","","24.1","","100.35","","","","-6","","NA"
"2019-03-13 01:00","2019","03","13","01:00","-2.0","","-7.3","","67","","20","","5","","24.1","","100.28","","","","-4","","Clear"
"2019-03-13 02:00","2019","03","13","02:00","-2.5","","-7.7","","68","","16","","8","","24.1","","100.27","","","","-6","","NA"
"2019-03-13 03:00","2019","03","13","03:00","-2.4","","-7.5","","68","","17","","6","","24.1","","100.22","","","","-5","","NA"
"2019-03-13 04:00","2019","03","13","04:00","-2.5","","-7.6","","68","","19","","5","","24.1","","100.18","","","","-4","","Mainly Clear"
"2019-03-13 05:00","2019","03","13","05:00","-1.8","","-6.9","","68","","23","","5","","24.1","","100.22","","","","-4","","NA"
"2019-03-13 06:00","2019","03","13","06:00","-1.8","","-6.7","","69","","27","","5","","24.1","","100.27","","","","-4","","NA"
"2019-03-13 07:00","2019","03","13","07:00","-1.2","","-6.5","","67","","12","","9","","24.1","","100.18","","","","-4","","Mostly Cloudy"
"2019-03-13 08:00","2019","03","13","08:00","-0.5","","-6.3","","65","","13","","9","","19.3","","100.13","","","","-4","","NA"
"2019-03-13 09:00","2019","03","13","09:00","0.3","","-5.7","","64","","17","","8","","24.1","","100.10","","","","","","NA"
"2019-03-13 10:00","2019","03","13","10:00","0.9","","-5.1","","64","","13","","17","","24.1","","99.97","","","","","","Mostly Cloudy"
"2019-03-13 11:00","2019","03","13","11:00","1.3","","-4.4","","66","","14","","12","","24.1","","99.98","","","","","","NA"
"2019-03-13 12:00","2019","03","13","12:00","1.9","","-3.7","","66","","14","","11","","19.3","","99.87","","","","","","Rain Showers"
"2019-03-13 13:00","2019","03","13","13:00","2.0","","-4.2","","64","","14","","8","","19.3","","99.81","","","","","","Rain Showers"
"2019-03-13 14:00","2019","03","13","14:00","1.8","","-3.9","","66","","13","","13","","19.3","","99.69","","","","","","Rain Showers"
"2019-03-13 15:00","2019","03","13","15:00","2.6","","-3.3","","65","","15","","16","","24.1","","99.63","","","","","","NA"
"2019-03-13 16:00","2019","03","13","16:00","3.4","","-3.3","","61","","13","","8","","24.1","","99.73","","","","","","Mostly Cloudy"
"2019-03-13 17:00","2019","03","13","17:00","3.2","","-3.3","","62","","10","","15","","24.1","","99.74","","","","","","NA"
"2019-03-13 18:00","2019","03","13","18:00","2.7","","-2.8","","67","","9","","13","","24.1","","99.74","","","","","","NA"
"2019-03-13 19:00","2019","03","13","19:00","2.1","","-2.9","","69","","7","","8","","24.1","","99.82","","","","","","Cloudy"
"2019-03-13 20:00","2019","03","13","20:00","2.0","","-2.6","","72","","9","","10","","24.1","","99.83","","","","","","Rain Showers"
"2019-03-13 21:00","2019","03","13","21:00","1.9","","-2.2","","74","","9","","8","","24.1","","99.80","","","","","","NA"
"2019-03-13 22:00","2019","03","13","22:00","2.1","","-1.6","","76","","10","","9","","24.1","","99.78","","","","","","Cloudy"
"2019-03-13 23:00","2019","03","13","23:00","2.0","","-1.3","","79","","10","","7","","24.1","","99.73","","","","","","NA"
"2019-03-14 00:00","2019","03","14","00:00","2.2","","-1.0","","80","","9","","5","","17.7","","99.68","","","","","","NA"
"2019-03-14 01:00","2019","03","14","01:00","2.1","","-1.0","","80","","10","","10","","24.1","","99.66","","","","","","Mostly Cloudy"
"2019-03-14 02:00","2019","03","14","02:00","1.9","","-1.0","","81","","7","","8","","24.1","","99.68","","","","","","NA"
"2019-03-14 03:00","2019","03","14","03:00","1.9","","-1.1","","81","","10","","7","","24.1","","99.60","","","","","","NA"
"2019-03-14 04:00","2019","03","14","04:00","1.8","","-1.3","","80","","36","","3","","24.1","","99.55","","","","","","Mostly Cloudy"
"2019-03-14 05:00","2019","03","14","05:00","2.1","","-1.2","","79","","8","","8","","24.1","","99.48","","","","","","NA"
"2019-03-14 06:00","2019","03","14","06:00","2.5","","-1.1","","77","","8","","7","","24.1","","99.46","","","","","","NA"
"2019-03-14 07:00","2019","03","14","07:00","2.6","","-1.1","","76","","9","","6","","24.1","","99.40","","","","","","Mostly Cloudy"
"2019-03-14 08:00","2019","03","14","08:00","3.4","","-0.7","","75","","9","","7","","24.1","","99.32","","","","","","NA"
"2019-03-14 09:00","2019","03","14","09:00","5.1","","0.6","","72","","9","","7","","24.1","","99.26","","","","","","NA"
"2019-03-14 10:00","2019","03","14","10:00","6.0","","0.3","","67","","6","","6","","24.1","","99.19","","","","","","Mostly Cloudy"
"2019-03-14 11:00","2019","03","14","11:00","6.5","","0.2","","64","","15","","3","","16.1","","99.11","","","","","","Rain Showers"
"2019-03-14 12:00","2019","03","14","12:00","6.5","","0.9","","67","","10","","8","","16.1","","98.98","","","","","","Rain Showers"
"2019-03-14 13:00","2019","03","14","13:00","6.4","","1.3","","70","","14","","5","","19.3","","98.88","","","","","","Rain Showers"
"2019-03-14 14:00","2019","03","14","14:00","7.4","","2.4","","71","","12","","8","","24.1","","98.71","","","","","","NA"
"2019-03-14 15:00","2019","03","14","15:00","6.8","","1.9","","71","","19","","7","","16.1","","98.70","","","","","","Rain Showers"
"2019-03-14 16:00","2019","03","14","16:00","6.7","","3.0","","77","","4","","7","","19.3","","98.57","","","","","","Cloudy"
"2019-03-14 17:00","2019","03","14","17:00","7.0","","3.8","","80","","36","","1","","16.1","","98.58","","","","","","Rain Showers"
"2019-03-14 18:00","2019","03","14","18:00","6.4","","3.6","","82","","10","","14","","9.7","","98.31","","","","","","Rain Showers"
"2019-03-14 19:00","2019","03","14","19:00","5.8","","3.5","","85","","11","","8","","9.7","","98.36","","","","","","Rain Showers"
"2019-03-14 20:00","2019","03","14","20:00","7.4","","5.7","","88","","15","","22","","12.9","","98.16","","","","","","Rain Showers"
"2019-03-14 21:00","2019","03","14","21:00","8.1","","6.5","","90","","13","","27","","24.1","","97.88","","","","","","NA"
"2019-03-14 22:00","2019","03","14","22:00","6.0","","4.3","","88","","15","","18","","24.1","","97.82","","","","","","Mainly Clear"
"2019-03-14 23:00","2019","03","14","23:00","6.4","","4.7","","89","","15","","4","","24.1","","97.80","","","","","","NA"
"2019-03-15 00:00","2019","03","15","00:00","6.8","","5.3","","90","","31","","15","","19.3","","97.90","","","","","","Rain Showers"
"2019-03-15 01:00","2019","03","15","01:00","7.3","","5.8","","91","","21","","4","","24.1","","97.80","","","","","","Clear"
"2019-03-15 02:00","2019","03","15","02:00","9.5","","8.2","","91","","22","","19","","24.1","","97.84","","","","","","NA"
"2019-03-15 03:00","2019","03","15","03:00","9.3","","7.3","","87","","22","","29","","24.1","","97.80","","","","","","NA"
"2019-03-15 04:00","2019","03","15","04:00","7.0","","3.9","","80","","23","","28","","24.1","","97.90","","","","","","Mostly Cloudy"
"2019-03-15 05:00","2019","03","15","05:00","6.8","","3.0","","76","","22","","25","","24.1","","98.01","","","","","","NA"
"2019-03-15 06:00","2019","03","15","06:00","6.3","","2.3","","76","","22","","31","","24.1","","98.11","","","","","","NA"
"2019-03-15 07:00","2019","03","15","07:00","6.0","","2.0","","76","","23","","23","","24.1","","98.21","","","","","","Mostly Cloudy"
"2019-03-15 08:00","2019","03","15","08:00","6.2","","2.0","","75","","22","","16","","24.1","","98.32","","","","","","NA"
"2019-03-15 09:00","2019","03","15","09:00","6.4","","2.0","","74","","23","","23","","24.1","","98.39","","","","","","NA"
"2019-03-15 10:00","2019","03","15","10:00","6.4","","2.0","","73","","23","","23","","24.1","","98.45","","","","","","Mostly Cloudy"
"2019-03-15 11:00","2019","03","15","11:00","6.3","","1.8","","73","","24","","34","","24.1","","98.43","","","","","","NA"
"2019-03-15 12:00","2019","03","15","12:00","6.2","","2.0","","74","","24","","27","","24.1","","98.44","","","","","","NA"
"2019-03-15 13:00","2019","03","15","13:00","5.9","","2.0","","76","","24","","30","","24.1","","98.44","","","","","","Cloudy"
"2019-03-15 14:00","2019","03","15","14:00","5.6","","2.1","","78","","22","","30","","24.1","","98.40","","","","","","NA"
"2019-03-15 15:00","2019","03","15","15:00","5.7","","2.3","","78","","24","","31","","19.3","","98.44","","","","","","Rain"
"2019-03-15 16:00","2019","03","15","16:00","5.5","","2.0","","78","","23","","32","","24.1","","98.46","","","","","","Cloudy"
"2019-03-15 17:00","2019","03","15","17:00","5.0","","1.7","","79","","22","","20","","19.3","","98.48","","","","","","Rain"
"2019-03-15 18:00","2019","03","15","18:00","3.6","","0.8","","82","","23","","25","","19.3","","98.56","","","","","","Rain"
"2019-03-15 19:00","2019","03","15","19:00","2.9","","0.5","","84","","23","","23","","19.3","","98.64","","","","","","Rain"
"2019-03-15 20:00","2019","03","15","20:00","2.7","","0.5","","85","","26","","29","","24.1","","98.74","","","","","","Rain"
"2019-03-15 21:00","2019","03","15","21:00","2.2","","0.0","","86","","25","","22","","24.1","","98.81","","","","","","Rain"
"2019-03-15 22:00","2019","03","15","22:00","1.6","","-0.4","","87","","26","","18","","24.1","","98.85","","","","","","Snow"
"2019-03-15 23:00","2019","03","15","23:00","1.4","","-1.0","","85","","27","","34","","24.1","","98.91","","","","","","NA"
"2019-03-16 00:00","2019","03","16","00:00","0.4","","-2.7","","80","","29","","38","","24.1","","98.95","","","","","","NA"
"2019-03-16 01:00","2019","03","16","01:00","-0.2","","-3.7","","77","","28","","35","","24.1","","98.99","","","","-7","","Mostly Cloudy"
"2019-03-16 02:00","2019","03","16","02:00","-0.8","","-4.8","","74","","29","","36","","24.1","","99.09","","","","-8","","NA"
"2019-03-16 03:00","2019","03","16","03:00","-1.5","","-6.2","","71","","29","","30","","24.1","","99.16","","","","-8","","NA"
"2019-03-16 04:00","2019","03","16","04:00","-2.0","","-6.8","","70","","29","","30","","24.1","","99.23","","","","-9","","Mainly Clear"
"2019-03-16 05:00","2019","03","16","05:00","-1.3","","-6.4","","69","","29","","28","","24.1","","99.36","","","","-8","","NA"
"2019-03-16 06:00","2019","03","16","06:00","-1.5","","-7.0","","66","","29","","46","","24.1","","99.45","","","","-10","","NA"
"2019-03-16 07:00","2019","03","16","07:00","-1.4","","-7.3","","65","","29","","26","","24.1","","99.54","","","","-8","","Mostly Cloudy"
"2019-03-16 08:00","2019","03","16","08:00","-1.3","","-7.1","","65","","29","","33","","24.1","","99.62","","","","-8","","NA"
"2019-03-16 09:00","2019","03","16","09:00","-0.9","","-7.0","","63","","28","","32","","24.1","","99.67","","","","-8","","NA"
"2019-03-16 10:00","2019","03","16","10:00","-0.3","","-5.9","","66","","30","","27","","24.1","","99.70","","","","-7","","Mainly Clear"
"2019-03-16 11:00","2019","03","16","11:00","0.2","","-6.1","","63","","29","","31","","24.1","","99.72","","","","","","Ice Pellets,Snow Pellets"
"2019-03-16 12:00","2019","03","16","12:00","0.5","","-5.9","","62","","29","","32","","24.1","","99.76","","","","","","NA"
"2019-03-16 13:00","2019","03","16","13:00","0.7","","-5.8","","62","","30","","30","","24.1","","99.80","","","","","","Snow Showers"
"2019-03-16 14:00","2019","03","16","14:00","0.8","","-6.4","","59","","29","","35","","24.1","","99.82","","","","","","NA"
"2019-03-16 15:00","2019","03","16","15:00","0.4","","-6.5","","60","","28","","38","","24.1","","99.85","","","","","","NA"
"2019-03-16 16:00","2019","03","16","16:00","-0.1","","-8.0","","56","","29","","39","","24.1","","99.89","","","","-7","","Mostly Cloudy"
"2019-03-16 17:00","2019","03","16","17:00","-0.4","","-8.0","","57","","30","","31","","24.1","","99.95","","","","-7","","Snow Showers"
"2019-03-16 18:00","2019","03","16","18:00","-1.2","","-8.3","","59","","30","","34","","24.1","","100.02","","","","-8","","NA"
"2019-03-16 19:00","2019","03","16","19:00","-2.1","","-8.8","","60","","28","","23","","24.1","","100.05","","","","-8","","Mostly Cloudy"
"2019-03-16 20:00","2019","03","16","20:00","-2.7","","-9.0","","62","","28","","22","","24.1","","100.08","","","","-9","","NA"
"2019-03-16 21:00","2019","03","16","21:00","-2.3","","-8.5","","63","","28","","22","","24.1","","100.10","","","","-8","","NA"
"2019-03-16 22:00","2019","03","16","22:00","-2.7","","-8.1","","66","","29","","21","","24.1","","100.08","","","","-9","","Mostly Cloudy"
"2019-03-16 23:00","2019","03","16","23:00","-3.5","","-8.8","","67","","29","","25","","24.1","","100.11","","","","-10","","NA"
"2019-03-17 00:00","2019","03","17","00:00","-4.0","","-9.7","","65","","31","","32","","24.1","","100.14","","","","-12","","NA"
"2019-03-17 01:00","2019","03","17","01:00","-4.5","","-10.4","","64","","31","","22","","24.1","","100.16","","","","-11","","Mostly Cloudy"
"2019-03-17 02:00","2019","03","17","02:00","-4.6","","-10.4","","64","","31","","27","","24.1","","100.19","","","","-12","","NA"
"2019-03-17 03:00","2019","03","17","03:00","-4.4","","-10.3","","63","","30","","28","","24.1","","100.19","","","","-12","","NA"
"2019-03-17 04:00","2019","03","17","04:00","-5.8","","-11.9","","62","","32","","23","","24.1","","100.24","","","","-13","","Mainly Clear"
"2019-03-17 05:00","2019","03","17","05:00","-5.7","","-12.2","","60","","31","","23","","24.1","","100.30","","","","-13","","NA"
"2019-03-17 06:00","2019","03","17","06:00","-6.0","","-12.8","","59","","31","","17","","24.1","","100.33","","","","-12","","NA"
"2019-03-17 07:00","2019","03","17","07:00","-6.3","","-12.6","","61","","31","","13","","24.1","","100.36","","","","-12","","Mainly Clear"
"2019-03-17 08:00","2019","03","17","08:00","-4.7","","-11.5","","60","","26","","14","","24.1","","100.37","","","","-10","","NA"
"2019-03-17 09:00","2019","03","17","09:00","-3.3","","-10.5","","58","","25","","13","","24.1","","100.40","","","","-8","","NA"
"2019-03-17 10:00","2019","03","17","10:00","-1.6","","-9.4","","56","","26","","11","","24.1","","100.37","","","","-5","","Mostly Cloudy"
"2019-03-17 11:00","2019","03","17","11:00","0.0","","-9.2","","50","","27","","15","","24.1","","100.33","","","","-4","","NA"
"2019-03-17 12:00","2019","03","17","12:00","0.9","","-9.9","","45","","29","","22","","24.1","","100.31","","","","","","NA"
"2019-03-17 13:00","2019","03","17","13:00","1.9","","-9.0","","45","","27","","22","","24.1","","100.25","","","","","","Mostly Cloudy"
"2019-03-17 14:00","2019","03","17","14:00","2.2","","-9.1","","43","","28","","25","","24.1","","100.18","","","","","","NA"
"2019-03-17 15:00","2019","03","17","15:00","1.1","","-10.6","","42","","30","","28","","24.1","","100.18","","","","","","NA"
"2019-03-17 16:00","2019","03","17","16:00","0.9","","-10.6","","42","","28","","26","","24.1","","100.16","","","","","","Mostly Cloudy"
"2019-03-17 17:00","2019","03","17","17:00","0.7","","-9.7","","46","","28","","21","","24.1","","100.15","","","","","","NA"
"2019-03-17 18:00","2019","03","17","18:00","0.6","","-9.5","","47","","28","","27","","24.1","","100.17","","","","","","NA"
"2019-03-17 19:00","2019","03","17","19:00","-0.7","","-8.6","","55","","28","","18","","24.1","","100.20","","","","-6","","Mostly Cloudy"
"2019-03-17 20:00","2019","03","17","20:00","-2.3","","-9.0","","60","","26","","14","","24.1","","100.22","","","","-7","","NA"
"2019-03-17 21:00","2019","03","17","21:00","-3.0","","-9.1","","63","","25","","12","","24.1","","100.22","","","","-7","","NA"
"2019-03-17 22:00","2019","03","17","22:00","-2.6","","-8.7","","63","","25","","10","","24.1","","100.23","","","","-6","","Mainly Clear"
"2019-03-17 23:00","2019","03","17","23:00","-2.1","","-7.9","","64","","26","","8","","24.1","","100.23","","","","-5","","Snow"
"2019-03-18 00:00","2019","03","18","00:00","-3.0","","-8.6","","66","","27","","9","","24.1","","100.23","","","","-7","","NA"
"2019-03-18 01:00","2019","03","18","01:00","-2.2","","-7.9","","65","","28","","9","","24.1","","100.22","","","","-6","","Mainly Clear"
"2019-03-18 02:00","2019","03","18","02:00","-3.0","","-8.3","","67","","29","","7","","24.1","","100.25","","","","-6","","NA"
"2019-03-18 03:00","2019","03","18","03:00","-3.2","","-8.3","","68","","27","","10","","24.1","","100.22","","","","-7","","NA"
"2019-03-18 04:00","2019","03","18","04:00","-2.5","","-7.3","","69","","26","","5","","24.1","","100.20","","","","-4","","Mostly Cloudy"
"2019-03-18 05:00","2019","03","18","05:00","-2.2","","-7.0","","70","","30","","10","","24.1","","100.23","","","","-6","","NA"
"2019-03-18 06:00","2019","03","18","06:00","-3.0","","-7.7","","70","","28","","11","","24.1","","100.26","","","","-7","","NA"
"2019-03-18 07:00","2019","03","18","07:00","-2.6","","-7.0","","72","","29","","10","","24.1","","100.28","","","","-6","","Mainly Clear"
"2019-03-18 08:00","2019","03","18","08:00","-0.6","","-5.2","","71","","29","","13","","24.1","","100.31","","","","-5","","NA"
"2019-03-18 09:00","2019","03","18","09:00","1.1","","-4.2","","67","","29","","14","","24.1","","100.33","","","","","","NA"
"2019-03-18 10:00","2019","03","18","10:00","2.0","","-4.9","","60","","29","","21","","24.1","","100.35","","","","","","Mostly Cloudy"
"2019-03-18 11:00","2019","03","18","11:00","1.9","","-5.9","","56","","28","","22","","24.1","","100.36","","","","","","NA"
"2019-03-18 12:00","2019","03","18","12:00","1.8","","-6.6","","54","","30","","29","","24.1","","100.38","","","","","","Snow Showers"
"2019-03-18 13:00","2019","03","18","13:00","2.4","","-7.8","","47","","30","","37","","24.1","","100.40","","","","","","Mainly Clear"
"2019-03-18 14:00","2019","03","18","14:00","2.8","","-9.7","","40","","28","","22","","24.1","","100.37","","","","","","NA"
"2019-03-18 15:00","2019","03","18","15:00","2.5","","-10.6","","38","","31","","25","","24.1","","100.37","","","","","","NA"
"2019-03-18 16:00","2019","03","18","16:00","2.6","","-10.2","","38","","28","","25","","24.1","","100.41","","","","","","Mainly Clear"
"2019-03-18 17:00","2019","03","18","17:00","2.0","","-10.5","","39","","30","","26","","24.1","","100.45","","","","","","NA"
"2019-03-18 18:00","2019","03","18","18:00","1.3","","-10.3","","42","","30","","26","","24.1","","100.49","","","","","","NA"
"2019-03-18 19:00","2019","03","18","19:00","0.5","","-9.2","","48","","29","","19","","24.1","","100.53","","","","","","Clear"
"2019-03-18 20:00","2019","03","18","20:00","-0.9","","-8.9","","54","","28","","9","","24.1","","100.58","","","","-4","","NA"
"2019-03-18 21:00","2019","03","18","21:00","-2.0","","-8.9","","59","","26","","8","","24.1","","100.61","","","","-5","","NA"
"2019-03-18 22:00","2019","03","18","22:00","-1.5","","-8.0","","61","","24","","9","","24.1","","100.61","","","","-5","","Mainly Clear"
"2019-03-18 23:00","2019","03","18","23:00","-1.6","","-8.0","","62","","27","","7","","24.1","","100.63","","","","-4","","NA"
"2019-03-19 00:00","2019","03","19","00:00","-1.7","","-7.2","","66","","25","","15","","24.1","","100.64","","","","-7","","Snow"
"2019-03-19 01:00","2019","03","19","01:00","-1.9","","-7.2","","68","","28","","8","","24.1","","100.67","","","","-5","","Mostly Cloudy"
"2019-03-19 02:00","2019","03","19","02:00","-2.0","","-6.0","","74","","23","","8","","4.8","","100.64","","","","-5","","Snow"
"2019-03-19 03:00","2019","03","19","03:00","-3.3","","-6.6","","78","","25","","4","","24.1","","100.59","","","","-5","","NA"
"2019-03-19 04:00","2019","03","19","04:00","-3.3","","-6.0","","82","","36","","4","","24.1","","100.60","","","","-5","","Mainly Clear"
"2019-03-19 05:00","2019","03","19","05:00","-3.6","","-5.8","","85","","6","","4","","24.1","","100.62","","","","-5","","NA"
"2019-03-19 06:00","2019","03","19","06:00","-3.4","","-5.5","","86","","5","","4","","24.1","","100.66","","","","-5","","NA"
"2019-03-19 07:00","2019","03","19","07:00","-3.6","","-5.6","","86","","26","","5","","24.1","","100.70","","","","-6","","Mainly Clear"
"2019-03-19 08:00","2019","03","19","08:00","-1.5","","-3.7","","85","","15","","5","","24.1","","100.74","","","","-3","","NA"
"2019-03-19 09:00","2019","03","19","09:00","-0.1","","-2.8","","82","","21","","4","","24.1","","100.78","","","","-1","","NA"
"2019-03-19 10:00","2019","03","19","10:00","2.1","","-1.2","","79","","19","","5","","24.1","","100.80","","","","","","Mainly Clear"
"2019-03-19 11:00","2019","03","19","11:00","3.7","","-1.2","","70","","28","","6","","24.1","","100.79","","","","","","NA"
"2019-03-19 12:00","2019","03","19","12:00","4.5","","-3.3","","57","","27","","10","","24.1","","100.77","","","","","","NA"
"2019-03-19 13:00","2019","03","19","13:00","5.2","","-4.8","","49","","24","","13","","24.1","","100.74","","","","","","Mostly Cloudy"
"2019-03-19 14:00","2019","03","19","14:00","6.0","","-7.3","","38","","27","","20","","24.1","","100.66","","","","","","NA"
"2019-03-19 15:00","2019","03","19","15:00","6.3","","-7.5","","36","","27","","27","","24.1","","100.64","","","","","","NA"
"2019-03-19 16:00","2019","03","19","16:00","6.1","","-8.2","","35","","26","","22","","24.1","","100.61","","","","","","Mostly Cloudy"
"2019-03-19 17:00","2019","03","19","17:00","5.7","","-8.4","","35","","29","","16","","24.1","","100.57","","","","","","NA"
"2019-03-19 18:00","2019","03","19","18:00","4.5","","-7.8","","41","","28","","15","","24.1","","100.57","","","","","","NA"
"2019-03-19 19:00","2019","03","19","19:00","2.5","","-8.4","","45","","28","","10","","24.1","","100.56","","","","","","Mainly Clear"
"2019-03-19 20:00","2019","03","19","20:00","2.2","","-5.1","","58","","13","","5","","24.1","","100.58","","","","","","NA"
"2019-03-19 21:00","2019","03","19","21:00","1.3","","-4.4","","66","","17","","8","","24.1","","100.56","","","","","","NA"
"2019-03-19 22:00","2019","03","19","22:00","1.4","","-4.1","","67","","22","","8","","24.1","","100.54","","","","","","Clear"
"2019-03-19 23:00","2019","03","19","23:00","0.8","","-4.7","","67","","23","","7","","24.1","","100.52","","","","","","NA"
"2019-03-20 00:00","2019","03","20","00:00","0.6","","-4.9","","67","","22","","8","","24.1","","100.49","","","","","","NA"
"2019-03-20 01:00","2019","03","20","01:00","0.2","","-5.3","","67","","20","","7","","24.1","","100.45","","","","","","Clear"
"2019-03-20 02:00","2019","03","20","02:00","-0.4","","-5.6","","68","","16","","10","","24.1","","100.41","","","","-4","","NA"
"2019-03-20 03:00","2019","03","20","03:00","-0.2","","-5.1","","70","","15","","12","","24.1","","100.34","","","","-4","","NA"
"2019-03-20 04:00","2019","03","20","04:00","-0.3","","-5.0","","71","","16","","6","","24.1","","100.31","","","","-2","","Mostly Cloudy"
"2019-03-20 05:00","2019","03","20","05:00","0.6","","-4.5","","69","","20","","9","","24.1","","100.27","","","","","","NA"
"2019-03-20 06:00","2019","03","20","06:00","0.6","","-4.6","","68","","20","","14","","24.1","","100.24","","","","","","NA"
"2019-03-20 07:00","2019","03","20","07:00","0.7","","-4.5","","68","","22","","12","","24.1","","100.26","","","","","","Mainly Clear"
"2019-03-20 08:00","2019","03","20","08:00","2.0","","-3.5","","67","","22","","13","","24.1","","100.24","","","","","","NA"
"2019-03-20 09:00","2019","03","20","09:00","4.2","","-2.1","","63","","23","","17","","24.1","","100.25","","","","","","NA"
"2019-03-20 10:00","2019","03","20","10:00","6.1","","-1.9","","56","","22","","25","","24.1","","100.23","","","","","","Mainly Clear"
"2019-03-20 11:00","2019","03","20","11:00","7.4","","-2.8","","48","","23","","24","","24.1","","100.15","","","","","","NA"
"2019-03-20 12:00","2019","03","20","12:00","8.6","","-2.6","","45","","20","","21","","24.1","","100.10","","","","","","NA"
"2019-03-20 13:00","2019","03","20","13:00","9.0","","-3.4","","41","","21","","23","","24.1","","100.03","","","","","","Mostly Cloudy"
"2019-03-20 14:00","2019","03","20","14:00","9.5","","-3.2","","41","","23","","14","","24.1","","99.92","","","","","","NA"
"2019-03-20 15:00","2019","03","20","15:00","9.2","","-4.5","","38","","23","","21","","24.1","","99.84","","","","","","NA"
"2019-03-20 16:00","2019","03","20","16:00","8.8","","-5.0","","37","","23","","19","","24.1","","99.79","","","","","","Cloudy"
"2019-03-20 17:00","2019","03","20","17:00","8.2","","-4.9","","39","","22","","17","","24.1","","99.76","","","","","","NA"
"2019-03-20 18:00","2019","03","20","18:00","8.0","","-4.4","","41","","16","","6","","24.1","","99.73","","","","","","NA"
"2019-03-20 19:00","2019","03","20","19:00","7.3","","-3.9","","45","","15","","7","","24.1","","99.72","","","","","","Cloudy"
"2019-03-20 20:00","2019","03","20","20:00","6.3","","-3.3","","50","","24","","23","","24.1","","99.79","","","","","","NA"
"2019-03-20 21:00","2019","03","20","21:00","5.0","","-1.5","","63","","23","","15","","24.1","","99.82","","","","","","Rain"
"2019-03-20 22:00","2019","03","20","22:00","4.2","","-1.1","","68","","23","","15","","24.1","","99.80","","","","","","Rain"
"2019-03-20 23:00","2019","03","20","23:00","3.6","","-0.8","","73","","20","","7","","24.1","","99.74","","","","","","Rain"
"2019-03-21 00:00","2019","03","21","00:00","3.5","","-0.2","","77","","17","","7","","19.3","","99.68","","","","","","Rain"
"2019-03-21 01:00","2019","03","21","01:00","3.5","","0.3","","80","","17","","5","","24.1","","99.62","","","","","","Rain"
"2019-03-21 02:00","2019","03","21","02:00","3.2","","0.6","","83","","15","","5","","16.1","","99.58","","","","","","Rain"
"2019-03-21 03:00","2019","03","21","03:00","2.9","","0.7","","85","","12","","7","","9.7","","99.49","","","","","","Drizzle,Fog"
"2019-03-21 04:00","2019","03","21","04:00","3.0","","1.0","","87","","12","","9","","8.1","","99.44","","","","","","Rain,Fog"
"2019-03-21 05:00","2019","03","21","05:00","3.1","","1.4","","88","","13","","7","","8.1","","99.41","","","","","","Rain,Fog"
"2019-03-21 06:00","2019","03","21","06:00","2.9","","1.1","","88","","12","","13","","9.7","","99.36","","","","","","Rain,Fog"
"2019-03-21 07:00","2019","03","21","07:00","3.0","","1.2","","88","","8","","9","","9.7","","99.31","","","","","","Rain,Fog"
"2019-03-21 08:00","2019","03","21","08:00","3.2","","1.3","","87","","6","","9","","16.1","","99.28","","","","","","NA"
"2019-03-21 09:00","2019","03","21","09:00","3.8","","1.5","","85","","10","","7","","16.1","","99.23","","","","","","NA"
"2019-03-21 10:00","2019","03","21","10:00","3.9","","1.0","","81","","14","","7","","16.1","","99.24","","","","","","Cloudy"
"2019-03-21 11:00","2019","03","21","11:00","4.1","","0.9","","80","","13","","5","","24.1","","99.17","","","","","","NA"
"2019-03-21 12:00","2019","03","21","12:00","4.7","","1.1","","78","","13","","3","","19.3","","99.13","","","","","","NA"
"2019-03-21 13:00","2019","03","21","13:00","5.6","","1.3","","74","","23","","4","","24.1","","99.04","","","","","","Cloudy"
"2019-03-21 14:00","2019","03","21","14:00","6.1","","1.0","","70","","25","","11","","24.1","","98.95","","","","","","NA"
"2019-03-21 15:00","2019","03","21","15:00","7.5","","2.1","","69","","29","","11","","24.1","","98.87","","","","","","NA"
"2019-03-21 16:00","2019","03","21","16:00","7.7","","2.3","","69","","26","","10","","24.1","","98.82","","","","","","Mostly Cloudy"
"2019-03-21 17:00","2019","03","21","17:00","6.8","","1.5","","69","","36","","3","","24.1","","98.80","","","","","","NA"
"2019-03-21 18:00","2019","03","21","18:00","6.2","","1.1","","70","","14","","5","","24.1","","98.80","","","","","","NA"
"2019-03-21 19:00","2019","03","21","19:00","6.1","","1.4","","72","","27","","10","","24.1","","98.80","","","","","","Cloudy"
"2019-03-21 20:00","2019","03","21","20:00","5.5","","1.7","","76","","28","","17","","24.1","","98.80","","","","","","NA"
"2019-03-21 21:00","2019","03","21","21:00","5.0","","1.6","","78","","28","","17","","24.1","","98.76","","","","","","NA"
"2019-03-21 22:00","2019","03","21","22:00","4.5","","1.2","","79","","30","","28","","24.1","","98.72","","","","","","Cloudy"
"2019-03-21 23:00","2019","03","21","23:00","3.8","","0.3","","78","","31","","23","","24.1","","98.69","","","","","","NA"
"2019-03-22 00:00","2019","03","22","00:00","3.3","","-0.3","","78","","31","","19","","24.1","","98.63","","","","","","NA"
"2019-03-22 01:00","2019","03","22","01:00","3.0","","-0.5","","78","","28","","18","","24.1","","98.58","","","","","","Drizzle"
"2019-03-22 02:00","2019","03","22","02:00","2.6","","-0.6","","79","","28","","7","","24.1","","98.52","","","","","","Drizzle"
"2019-03-22 03:00","2019","03","22","03:00","1.9","","-1.2","","80","","29","","14","","24.1","","98.44","","","","","","NA"
"2019-03-22 04:00","2019","03","22","04:00","2.1","","-0.6","","82","","28","","13","","24.1","","98.39","","","","","","Cloudy"
"2019-03-22 05:00","2019","03","22","05:00","2.1","","-0.7","","82","","27","","14","","24.1","","98.35","","","","","","NA"
"2019-03-22 06:00","2019","03","22","06:00","2.3","","-0.4","","82","","29","","13","","24.1","","98.31","","","","","","NA"
"2019-03-22 07:00","2019","03","22","07:00","2.7","","-0.4","","80","","30","","18","","24.1","","98.31","","","","","","Rain"
"2019-03-22 08:00","2019","03","22","08:00","3.0","","-0.4","","78","","30","","21","","24.1","","98.28","","","","","","NA"
"2019-03-22 09:00","2019","03","22","09:00","3.1","","-1.1","","74","","33","","29","","24.1","","98.27","","","","","","NA"
"2019-03-22 10:00","2019","03","22","10:00","2.9","","-1.4","","73","","32","","32","","24.1","","98.29","","","","","","Drizzle"
"2019-03-22 11:00","2019","03","22","11:00","2.5","","-1.4","","76","","34","","39","","24.1","","98.35","","","","","","Snow"
"2019-03-22 12:00","2019","03","22","12:00","1.9","","-3.0","","70","","34","","52","","24.1","","98.41","","","","","","NA"
"2019-03-22 13:00","2019","03","22","13:00","1.4","","-4.5","","65","","35","","45","","24.1","","98.48","","","","","","Mostly Cloudy"
"2019-03-22 14:00","2019","03","22","14:00","1.4","","-5.3","","61","","33","","56","","24.1","","98.51","","","","","","NA"
"2019-03-22 15:00","2019","03","22","15:00","1.1","","-6.1","","59","","33","","47","","24.1","","98.54","","","","","","NA"
"2019-03-22 16:00","2019","03","22","16:00","0.3","","-6.8","","59","","34","","45","","24.1","","98.64","","","","","","Mostly Cloudy"
"2019-03-22 17:00","2019","03","22","17:00","-1.0","","-8.2","","58","","33","","45","","24.1","","98.72","","","","-9","","NA"
"2019-03-22 18:00","2019","03","22","18:00","-1.9","","-9.2","","58","","33","","50","","24.1","","98.86","","","","-11","","NA"
"2019-03-22 19:00","2019","03","22","19:00","-2.0","","-9.2","","58","","33","","46","","24.1","","98.97","","","","-11","","Mostly Cloudy"
"2019-03-22 20:00","2019","03","22","20:00","-2.0","","-9.1","","58","","34","","43","","24.1","","99.04","","","","-10","","NA"
"2019-03-22 21:00","2019","03","22","21:00","-2.3","","-9.4","","58","","33","","50","","24.1","","99.16","","","","-11","","NA"
"2019-03-22 22:00","2019","03","22","22:00","-2.7","","-10.3","","56","","34","","46","","24.1","","99.23","","","","-12","","Mainly Clear"
"2019-03-22 23:00","2019","03","22","23:00","-3.2","","-11.2","","54","","34","","40","","24.1","","99.24","","","","-12","","NA"
"2019-03-23 00:00","2019","03","23","00:00","-3.6","","-12.6","","50","","34","","48","","24.1","","99.27","","","","-13","","NA"
"2019-03-23 01:00","2019","03","23","01:00","-4.3","","-13.0","","51","","33","","43","","24.1","","99.34","","","","-13","","Clear"
"2019-03-23 02:00","2019","03","23","02:00","-5.2","","-13.4","","53","","33","","49","","24.1","","99.38","","","","-15","","NA"
"2019-03-23 03:00","2019","03","23","03:00","-5.9","","-13.6","","55","","33","","41","","24.1","","99.44","","","","-15","","NA"
"2019-03-23 04:00","2019","03","23","04:00","-6.3","","-14.5","","53","","33","","35","","24.1","","99.51","","","","-15","","Clear"
"2019-03-23 05:00","2019","03","23","05:00","-6.5","","-14.0","","56","","32","","35","","24.1","","99.60","","","","-16","","NA"
"2019-03-23 06:00","2019","03","23","06:00","-6.7","","-13.9","","57","","33","","37","","24.1","","99.74","","","","-16","","NA"
"2019-03-23 07:00","2019","03","23","07:00","-6.5","","-13.4","","58","","32","","33","","24.1","","99.88","","","","-15","","Clear"
"2019-03-23 08:00","2019","03","23","08:00","-5.2","","-13.0","","55","","34","","33","","24.1","","99.99","","","","-14","","NA"
"2019-03-23 09:00","2019","03","23","09:00","-3.7","","-13.8","","46","","31","","26","","24.1","","100.08","","","","-11","","NA"
"2019-03-23 10:00","2019","03","23","10:00","-2.1","","-14.3","","39","","31","","22","","24.1","","100.10","","","","-8","","Clear"
"2019-03-23 11:00","2019","03","23","11:00","-0.2","","-14.7","","33","","34","","17","","24.1","","100.11","","","","-5","","NA"
"2019-03-23 12:00","2019","03","23","12:00","2.0","","-14.6","","28","","30","","23","","24.1","","100.11","","","","","","NA"
"2019-03-23 13:00","2019","03","23","13:00","3.0","","-13.3","","29","","28","","28","","24.1","","100.11","","","","","","Clear"
"2019-03-23 14:00","2019","03","23","14:00","4.3","","-13.1","","27","","32","","28","","24.1","","100.08","","","","","","NA"
"2019-03-23 15:00","2019","03","23","15:00","4.2","","-12.4","","29","","28","","16","","24.1","","100.07","","","","","","NA"
"2019-03-23 16:00","2019","03","23","16:00","4.7","","-11.7","","29","","28","","24","","24.1","","100.04","","","","","","Clear"
"2019-03-23 17:00","2019","03","23","17:00","4.0","","-10.0","","35","","28","","26","","24.1","","100.07","","","","","","NA"
"2019-03-23 18:00","2019","03","23","18:00","2.8","","-8.8","","42","","27","","30","","24.1","","100.08","","","","","","NA"
"2019-03-23 19:00","2019","03","23","19:00","1.1","","-8.9","","48","","27","","21","","24.1","","100.11","","","","","","Clear"
"2019-03-23 20:00","2019","03","23","20:00","0.1","","-9.1","","50","","25","","23","","24.1","","100.12","","","","","","NA"
"2019-03-23 21:00","2019","03","23","21:00","-1.1","","-9.6","","53","","25","","16","","24.1","","100.11","","","","-6","","NA"
"2019-03-23 22:00","2019","03","23","22:00","-0.4","","-8.8","","53","","23","","10","","24.1","","100.09","","","","-4","","Clear"
"2019-03-23 23:00","2019","03","23","23:00","-0.1","","-8.3","","54","","21","","10","","24.1","","100.05","","","","-3","","NA"
"2019-03-24 00:00","2019","03","24","00:00","-0.4","","-7.9","","57","","19","","8","","24.1","","100.00","","","","-3","","NA"
"2019-03-24 01:00","2019","03","24","01:00","-1.3","","-8.0","","61","","20","","8","","24.1","","99.95","","","","-4","","Clear"
"2019-03-24 02:00","2019","03","24","02:00","-0.2","","-7.0","","60","","23","","10","","24.1","","99.89","","","","-4","","NA"
"2019-03-24 03:00","2019","03","24","03:00","0.3","","-6.9","","59","","23","","9","","24.1","","99.84","","","","","","NA"
"2019-03-24 04:00","2019","03","24","04:00","-1.7","","-7.6","","64","","18","","5","","24.1","","99.85","","","","-4","","Clear"
"2019-03-24 05:00","2019","03","24","05:00","-0.8","","-6.9","","63","","25","","17","","24.1","","99.85","","","","-6","","NA"
"2019-03-24 06:00","2019","03","24","06:00","0.4","","-5.8","","63","","24","","12","","24.1","","99.85","","","","","","NA"
"2019-03-24 07:00","2019","03","24","07:00","1.7","","-5.2","","60","","18","","5","","24.1","","99.84","","","","","","Mostly Cloudy"
"2019-03-24 08:00","2019","03","24","08:00","3.5","","-4.4","","56","","20","","10","","24.1","","99.83","","","","","","NA"
"2019-03-24 09:00","2019","03","24","09:00","4.8","","-4.2","","52","","23","","9","","24.1","","99.80","","","","","","NA"
"2019-03-24 10:00","2019","03","24","10:00","5.7","","-3.7","","51","","25","","17","","24.1","","99.80","","","","","","Cloudy"
"2019-03-24 11:00","2019","03","24","11:00","6.1","","-3.3","","51","","26","","10","","24.1","","99.72","","","","","","NA"
"2019-03-24 12:00","2019","03","24","12:00","6.9","","-2.5","","51","","28","","22","","24.1","","99.64","","","","","","NA"
"2019-03-24 13:00","2019","03","24","13:00","7.8","","-1.9","","50","","26","","23","","24.1","","99.60","","","","","","Mostly Cloudy"
"2019-03-24 14:00","2019","03","24","14:00","7.9","","-1.8","","50","","28","","23","","24.1","","99.56","","","","","","NA"
"2019-03-24 15:00","2019","03","24","15:00","8.0","","-1.8","","50","","28","","26","","24.1","","99.54","","","","","","NA"
"2019-03-24 16:00","2019","03","24","16:00","9.2","","-1.2","","48","","26","","23","","24.1","","99.47","","","","","","Mostly Cloudy"
"2019-03-24 17:00","2019","03","24","17:00","8.5","","-1.5","","49","","28","","28","","24.1","","99.52","","","","","","NA"
"2019-03-24 18:00","2019","03","24","18:00","7.3","","-2.1","","51","","29","","26","","24.1","","99.57","","","","","","NA"
"2019-03-24 19:00","2019","03","24","19:00","3.6","","-3.3","","61","","36","","30","","24.1","","99.67","","","","","","Mostly Cloudy"
"2019-03-24 20:00","2019","03","24","20:00","1.8","","-4.2","","64","","36","","34","","24.1","","99.78","","","","","","NA"
"2019-03-24 21:00","2019","03","24","21:00","0.9","","-4.8","","66","","35","","27","","24.1","","99.84","","","","","","NA"
"2019-03-24 22:00","2019","03","24","22:00","0.6","","-4.8","","67","","35","","22","","24.1","","99.88","","","","","","Mostly Cloudy"
"2019-03-24 23:00","2019","03","24","23:00","-0.3","","-5.4","","69","","1","","28","","24.1","","99.92","","","","-7","","NA"
"2019-03-25 00:00","2019","03","25","00:00","-0.6","","-5.5","","70","","35","","23","","24.1","","99.99","","","","-6","","NA"
"2019-03-25 01:00","2019","03","25","01:00","-0.8","","-5.6","","70","","36","","18","","24.1","","100.06","","","","-6","","Cloudy"
"2019-03-25 02:00","2019","03","25","02:00","-1.7","","-7.1","","66","","1","","16","","24.1","","100.12","","","","-7","","NA"
"2019-03-25 03:00","2019","03","25","03:00","-3.0","","-8.2","","68","","34","","10","","24.1","","100.13","","","","-7","","NA"
"2019-03-25 04:00","2019","03","25","04:00","-4.3","","-9.2","","69","","1","","11","","24.1","","100.16","","","","-9","","Mainly Clear"
"2019-03-25 05:00","2019","03","25","05:00","-4.3","","-9.7","","66","","1","","11","","24.1","","100.23","","","","-9","","NA"
"2019-03-25 06:00","2019","03","25","06:00","-4.5","","-9.8","","67","","2","","9","","24.1","","100.27","","","","-8","","NA"
"2019-03-25 07:00","2019","03","25","07:00","-3.8","","-9.4","","65","","36","","20","","24.1","","100.30","","","","-10","","Clear"
"2019-03-25 08:00","2019","03","25","08:00","-2.9","","-9.8","","59","","4","","18","","24.1","","100.38","","","","-9","","NA"
"2019-03-25 09:00","2019","03","25","09:00","-1.6","","-10.9","","49","","4","","16","","24.1","","100.41","","","","-7","","NA"
"2019-03-25 10:00","2019","03","25","10:00","-0.8","","-14.2","","36","","6","","9","","24.1","","100.41","","","","-4","","Clear"
"2019-03-25 11:00","2019","03","25","11:00","0.0","","-16.8","","27","","36","","12","","24.1","","100.36","","","","-4","","NA"
"2019-03-25 12:00","2019","03","25","12:00","2.0","","-16.5","","24","","36","","8","","24.1","","100.29","","","","","","NA"
"2019-03-25 13:00","2019","03","25","13:00","2.6","","-17.6","","21","","33","","24","","24.1","","100.23","","","","","","Clear"
"2019-03-25 14:00","2019","03","25","14:00","3.4","","-17.6","","20","","35","","24","","24.1","","100.17","","","","","","NA"
"2019-03-25 15:00","2019","03","25","15:00","3.3","","-18.9","","18","","36","","22","","24.1","","100.12","","","","","","NA"
"2019-03-25 16:00","2019","03","25","16:00","2.8","","-19.4","","18","","33","","16","","24.1","","100.09","","","","","","Clear"
"2019-03-25 17:00","2019","03","25","17:00","2.3","","-17.9","","21","","2","","14","","24.1","","100.09","","","","","","NA"
"2019-03-25 18:00","2019","03","25","18:00","1.5","","-17.4","","23","","1","","13","","24.1","","100.11","","","","","","NA"
"2019-03-25 19:00","2019","03","25","19:00","-0.3","","-17.1","","27","","3","","9","","24.1","","100.13","","","","-3","","Clear"
"2019-03-25 20:00","2019","03","25","20:00","-0.8","","-14.1","","36","","35","","17","","24.1","","100.23","","","","-6","","NA"
"2019-03-25 21:00","2019","03","25","21:00","-1.4","","-13.6","","39","","31","","32","","24.1","","100.35","","","","-9","","NA"
"2019-03-25 22:00","2019","03","25","22:00","-2.4","","-13.4","","43","","32","","19","","24.1","","100.40","","","","-8","","Clear"
"2019-03-25 23:00","2019","03","25","23:00","-2.9","","-12.7","","47","","31","","15","","24.1","","100.41","","","","-8","","NA"
"2019-03-26 00:00","2019","03","26","00:00","-3.1","","-12.1","","50","","31","","13","","24.1","","100.44","","","","-8","","NA"
"2019-03-26 01:00","2019","03","26","01:00","-3.4","","-11.4","","54","","32","","16","","24.1","","100.45","","","","-9","","Clear"
"2019-03-26 02:00","2019","03","26","02:00","-3.4","","-10.8","","57","","33","","18","","24.1","","100.46","","","","-9","","NA"
"2019-03-26 03:00","2019","03","26","03:00","-3.3","","-10.9","","56","","34","","19","","24.1","","100.47","","","","-9","","NA"
"2019-03-26 04:00","2019","03","26","04:00","-3.7","","-11.0","","57","","34","","17","","24.1","","100.50","","","","-9","","Clear"
"2019-03-26 05:00","2019","03","26","05:00","-3.9","","-10.8","","59","","34","","13","","24.1","","100.58","","","","-9","","NA"
"2019-03-26 06:00","2019","03","26","06:00","-4.0","","-10.7","","60","","36","","16","","24.1","","100.69","","","","-10","","NA"
"2019-03-26 07:00","2019","03","26","07:00","-3.4","","-10.6","","58","","1","","18","","24.1","","100.83","","","","-9","","Clear"
"2019-03-26 08:00","2019","03","26","08:00","-2.1","","-11.4","","49","","36","","16","","24.1","","100.93","","","","-7","","NA"
"2019-03-26 09:00","2019","03","26","09:00","-0.9","","-14.8","","34","","6","","7","","24.1","","100.99","","","","-3","","NA"
"2019-03-26 10:00","2019","03","26","10:00","0.3","","-19.1","","22","","36","","1","","24.1","","101.02","","","","","","Clear"
"2019-03-26 11:00","2019","03","26","11:00","1.3","","-18.8","","21","","1","","8","","24.1","","101.02","","","","","","NA"
"2019-03-26 12:00","2019","03","26","12:00","2.2","","-19.0","","19","","35","","8","","24.1","","100.98","","","","","","NA"
"2019-03-26 13:00","2019","03","26","13:00","2.9","","-18.7","","19","","29","","14","","24.1","","100.94","","","","","","Clear"
"2019-03-26 14:00","2019","03","26","14:00","3.6","","-18.1","","19","","36","","1","","24.1","","100.88","","","","","","NA"
"2019-03-26 15:00","2019","03","26","15:00","3.1","","-13.4","","29","","14","","14","","24.1","","100.86","","","","","","NA"
"2019-03-26 16:00","2019","03","26","16:00","3.3","","-12.2","","31","","16","","14","","24.1","","100.84","","","","","","Clear"
"2019-03-26 17:00","2019","03","26","17:00","2.1","","-11.9","","35","","16","","9","","24.1","","100.84","","","","","","NA"
"2019-03-26 18:00","2019","03","26","18:00","2.5","","-13.8","","29","","28","","6","","24.1","","100.85","","","","","","NA"
"2019-03-26 19:00","2019","03","26","19:00","1.4","","-13.9","","31","","1","","7","","24.1","","100.88","","","","","","Clear"
"2019-03-26 20:00","2019","03","26","20:00","0.4","","-17.9","","24","","1","","14","","24.1","","100.92","","","","","","NA"
"2019-03-26 21:00","2019","03","26","21:00","-0.2","","-16.3","","29","","1","","14","","24.1","","100.95","","","","-4","","NA"
"2019-03-26 22:00","2019","03","26","22:00","-1.0","","-15.6","","32","","2","","10","","24.1","","100.93","","","","-5","","Clear"
"2019-03-26 23:00","2019","03","26","23:00","-1.0","","-14.2","","36","","3","","4","","24.1","","100.93","","","","-2","","NA"
"2019-03-27 00:00","2019","03","27","00:00","-0.8","","-14.7","","34","","36","","1","","24.1","","100.90","","","","-1","","NA"
"2019-03-27 01:00","2019","03","27","01:00","-1.3","","-14.2","","37","","1","","3","","24.1","","100.89","","","","-2","","Clear"
"2019-03-27 02:00","2019","03","27","02:00","-2.7","","-13.1","","45","","1","","6","","24.1","","100.93","","","","-5","","NA"
"2019-03-27 03:00","2019","03","27","03:00","-3.0","","-12.6","","48","","36","","2","","24.1","","100.92","","","","-4","","NA"
"2019-03-27 04:00","2019","03","27","04:00","-3.0","","-11.4","","52","","9","","3","","24.1","","100.90","","","","-4","","Mostly Cloudy"
"2019-03-27 05:00","2019","03","27","05:00","-3.4","","-11.4","","54","","36","","2","","24.1","","100.94","","","","-4","","NA"
"2019-03-27 06:00","2019","03","27","06:00","-1.5","","-9.0","","57","","0","","1","","24.1","","100.96","","","","-2","","NA"
"2019-03-27 07:00","2019","03","27","07:00","-1.2","","-9.1","","56","","19","","4","","24.1","","101.02","","","","-3","","Mostly Cloudy"
"2019-03-27 08:00","2019","03","27","08:00","0.2","","-10.1","","46","","22","","9","","24.1","","101.06","","","","","","NA"
"2019-03-27 09:00","2019","03","27","09:00","2.8","","-10.6","","37","","22","","16","","24.1","","101.01","","","","","","NA"
"2019-03-27 10:00","2019","03","27","10:00","4.4","","-10.6","","33","","20","","14","","24.1","","100.98","","","","","","Clear"
"2019-03-27 11:00","2019","03","27","11:00","5.5","","-9.6","","33","","14","","15","","24.1","","100.94","","","","","","NA"
"2019-03-27 12:00","2019","03","27","12:00","6.1","","-9.5","","32","","13","","16","","24.1","","100.83","","","","","","NA"
"2019-03-27 13:00","2019","03","27","13:00","6.6","","-9.5","","31","","15","","16","","24.1","","100.75","","","","","","Clear"
"2019-03-27 14:00","2019","03","27","14:00","7.6","","-10.0","","28","","18","","17","","24.1","","100.64","","","","","","NA"
"2019-03-27 15:00","2019","03","27","15:00","7.3","","-11.0","","26","","14","","18","","24.1","","100.61","","","","","","NA"
"2019-03-27 16:00","2019","03","27","16:00","7.3","","-11.7","","25","","15","","21","","24.1","","100.52","","","","","","Mostly Cloudy"
"2019-03-27 17:00","2019","03","27","17:00","4.7","","-10.3","","33","","14","","20","","24.1","","100.46","","","","","","NA"
"2019-03-27 18:00","2019","03","27","18:00","3.0","","-9.1","","41","","14","","18","","24.1","","100.41","","","","","","NA"
"2019-03-27 19:00","2019","03","27","19:00","2.2","","-8.2","","46","","14","","13","","24.1","","100.37","","","","","","Mostly Cloudy"
"2019-03-27 20:00","2019","03","27","20:00","1.8","","-7.2","","51","","13","","14","","24.1","","100.33","","","","","","NA"
"2019-03-27 21:00","2019","03","27","21:00","1.5","","-6.5","","55","","12","","11","","24.1","","100.25","","","","","","NA"
"2019-03-27 22:00","2019","03","27","22:00","1.5","","-5.9","","58","","14","","4","","24.1","","100.17","","","","","","Mainly Clear"
"2019-03-27 23:00","2019","03","27","23:00","0.9","","-5.5","","62","","18","","5","","24.1","","100.10","","","","","","NA"
"2019-03-28 00:00","2019","03","28","00:00","0.4","","-5.5","","64","","21","","7","","24.1","","100.04","","","","","","NA"
"2019-03-28 01:00","2019","03","28","01:00","0.0","","-6.6","","61","","21","","7","","24.1","","99.94","","","","-2","","Clear"
"2019-03-28 02:00","2019","03","28","02:00","0.1","","-7.7","","56","","28","","3","","24.1","","100.01","","","","","","NA"
"2019-03-28 03:00","2019","03","28","03:00","0.7","","-8.7","","50","","18","","6","","24.1","","99.93","","","","","","NA"
"2019-03-28 04:00","2019","03","28","04:00","1.0","","-8.5","","49","","17","","11","","24.1","","99.85","","","","","","Mostly Cloudy"
"2019-03-28 05:00","2019","03","28","05:00","1.7","","-7.7","","50","","18","","13","","24.1","","99.77","","","","","","NA"
"2019-03-28 06:00","2019","03","28","06:00","2.3","","-6.2","","54","","18","","9","","24.1","","99.74","","","","","","NA"
"2019-03-28 07:00","2019","03","28","07:00","2.6","","-5.5","","55","","18","","3","","24.1","","99.73","","","","","","Rain"
"2019-03-28 08:00","2019","03","28","08:00","3.2","","-3.8","","60","","17","","12","","24.1","","99.66","","","","","","Rain"
"2019-03-28 09:00","2019","03","28","09:00","5.8","","-1.7","","59","","21","","15","","24.1","","99.66","","","","","","Rain"
"2019-03-28 10:00","2019","03","28","10:00","5.9","","-0.8","","62","","22","","19","","24.1","","99.61","","","","","","Rain"
"2019-03-28 11:00","2019","03","28","11:00","6.5","","0.4","","65","","22","","27","","24.1","","99.56","","","","","","NA"
"2019-03-28 12:00","2019","03","28","12:00","9.2","","2.7","","64","","22","","32","","24.1","","99.49","","","","","","NA"
"2019-03-28 13:00","2019","03","28","13:00","11.2","","4.8","","64","","22","","27","","24.1","","99.46","","","","","","Mostly Cloudy"
"2019-03-28 14:00","2019","03","28","14:00","10.5","","4.2","","65","","22","","28","","24.1","","99.44","","","","","","NA"
"2019-03-28 15:00","2019","03","28","15:00","10.0","","3.0","","62","","23","","30","","24.1","","99.44","","","","","","NA"
"2019-03-28 16:00","2019","03","28","16:00","11.3","","2.3","","54","","23","","31","","24.1","","99.40","","","","","","Mostly Cloudy"
"2019-03-28 17:00","2019","03","28","17:00","11.2","","2.0","","53","","25","","27","","24.1","","99.40","","","","","","NA"
"2019-03-28 18:00","2019","03","28","18:00","10.5","","1.6","","54","","25","","21","","24.1","","99.46","","","","","","NA"
"2019-03-28 19:00","2019","03","28","19:00","10.1","","1.9","","57","","26","","15","","24.1","","99.51","","","","","","Mostly Cloudy"
"2019-03-28 20:00","2019","03","28","20:00","10.0","","2.1","","58","","28","","9","","24.1","","99.57","","","","","","NA"
"2019-03-28 21:00","2019","03","28","21:00","9.4","","1.8","","59","","29","","7","","24.1","","99.56","","","","","","NA"
"2019-03-28 22:00","2019","03","28","22:00","8.0","","1.4","","63","","3","","20","","24.1","","99.57","","","","","","Mostly Cloudy"
"2019-03-28 23:00","2019","03","28","23:00","6.9","","0.5","","64","","36","","23","","24.1","","99.61","","","","","","NA"
"2019-03-29 00:00","2019","03","29","00:00","6.2","","-2.1","","55","","1","","24","","24.1","","99.60","","","","","","NA"
"2019-03-29 01:00","2019","03","29","01:00","4.8","","-1.8","","62","","35","","23","","24.1","","99.62","","","","","","Cloudy"
"2019-03-29 02:00","2019","03","29","02:00","4.2","","-1.5","","67","","35","","26","","24.1","","99.62","","","","","","NA"
"2019-03-29 03:00","2019","03","29","03:00","4.0","","-1.4","","68","","35","","14","","24.1","","99.58","","","","","","NA"
"2019-03-29 04:00","2019","03","29","04:00","3.9","","-1.4","","68","","36","","8","","24.1","","99.60","","","","","","Cloudy"
"2019-03-29 05:00","2019","03","29","05:00","3.7","","-1.6","","69","","31","","6","","24.1","","99.67","","","","","","NA"
"2019-03-29 06:00","2019","03","29","06:00","4.3","","-1.8","","65","","32","","14","","24.1","","99.73","","","","","","NA"
"2019-03-29 07:00","2019","03","29","07:00","4.2","","-2.5","","62","","31","","12","","24.1","","99.80","","","","","","Mostly Cloudy"
"2019-03-29 08:00","2019","03","29","08:00","4.7","","-3.0","","57","","31","","12","","24.1","","99.84","","","","","","NA"
"2019-03-29 09:00","2019","03","29","09:00","6.2","","-3.5","","50","","31","","10","","24.1","","99.86","","","","","","NA"
"2019-03-29 10:00","2019","03","29","10:00","8.2","","-5.4","","38","","31","","10","","24.1","","99.86","","","","","","Mainly Clear"
"2019-03-29 11:00","2019","03","29","11:00","9.7","","-6.2","","32","","32","","14","","24.1","","99.86","","","","","","NA"
"2019-03-29 12:00","2019","03","29","12:00","9.7","","-7.0","","30","","32","","20","","24.1","","99.82","","","","","","NA"
"2019-03-29 13:00","2019","03","29","13:00","11.2","","-5.2","","31","","28","","14","","24.1","","99.77","","","","","","Mainly Clear"
"2019-03-29 14:00","2019","03","29","14:00","11.3","","-4.8","","32","","28","","23","","24.1","","99.73","","","","","","NA"
"2019-03-29 15:00","2019","03","29","15:00","11.1","","-5.2","","31","","31","","17","","24.1","","99.70","","","","","","NA"
"2019-03-29 16:00","2019","03","29","16:00","11.1","","-5.4","","31","","31","","16","","24.1","","99.68","","","","","","Mainly Clear"
"2019-03-29 17:00","2019","03","29","17:00","10.7","","-5.2","","32","","31","","14","","24.1","","99.67","","","","","","NA"
"2019-03-29 18:00","2019","03","29","18:00","9.7","","-6.0","","33","","31","","16","","24.1","","99.71","","","","","","NA"
"2019-03-29 19:00","2019","03","29","19:00","7.3","","-4.3","","44","","36","","18","","24.1","","99.77","","","","","","Mainly Clear"
"2019-03-29 20:00","2019","03","29","20:00","5.9","","-4.5","","47","","36","","15","","24.1","","99.81","","","","","","NA"
"2019-03-29 21:00","2019","03","29","21:00","4.6","","-4.7","","51","","1","","16","","24.1","","99.84","","","","","","NA"
"2019-03-29 22:00","2019","03","29","22:00","3.2","","-5.1","","55","","2","","13","","24.1","","99.80","","","","","","Mostly Cloudy"
"2019-03-29 23:00","2019","03","29","23:00","3.1","","-5.1","","55","","2","","14","","24.1","","99.75","","","","","","NA"
"2019-03-30 00:00","2019","03","30","00:00","3.2","","-5.1","","54","","3","","9","","24.1","","99.67","","","","","","NA"
"2019-03-30 01:00","2019","03","30","01:00","3.8","","-5.0","","53","","3","","11","","24.1","","99.60","","","","","","Mostly Cloudy"
"2019-03-30 02:00","2019","03","30","02:00","3.8","","-5.5","","51","","4","","14","","24.1","","99.45","","","","","","Rain"
"2019-03-30 03:00","2019","03","30","03:00","3.3","","-4.0","","59","","6","","7","","24.1","","99.38","","","","","","Rain"
"2019-03-30 04:00","2019","03","30","04:00","2.6","","-3.1","","66","","7","","10","","19.3","","99.28","","","","","","Rain"
"2019-03-30 05:00","2019","03","30","05:00","1.8","","-2.5","","73","","7","","17","","19.3","","99.16","","","","","","Rain"
"2019-03-30 06:00","2019","03","30","06:00","1.6","","-1.8","","78","","6","","11","","6.4","","99.10","","","","","","Moderate Rain,Fog"
"2019-03-30 07:00","2019","03","30","07:00","1.8","","-0.7","","83","","6","","15","","6.4","","99.02","","","","","","Moderate Rain,Fog"
"2019-03-30 08:00","2019","03","30","08:00","2.2","","0.2","","86","","8","","13","","9.7","","98.87","","","","","","Rain,Fog"
"2019-03-30 09:00","2019","03","30","09:00","3.0","","1.2","","88","","9","","10","","8.1","","98.79","","","","","","Rain,Fog"
"2019-03-30 10:00","2019","03","30","10:00","3.2","","1.6","","89","","7","","15","","9.7","","98.65","","","","","","Rain,Fog"
"2019-03-30 11:00","2019","03","30","11:00","3.5","","2.1","","90","","8","","10","","3.2","","98.50","","","","","","Rain,Fog"
"2019-03-30 12:00","2019","03","30","12:00","3.8","","2.5","","91","","3","","13","","4.8","","98.39","","","","","","Rain,Fog"
"2019-03-30 13:00","2019","03","30","13:00","4.3","","3.0","","92","","1","","12","","8.1","","98.34","","","","","","Rain,Fog"
"2019-03-30 14:00","2019","03","30","14:00","3.5","","2.3","","92","","35","","9","","4.0","","98.29","","","","","","Rain,Fog"
"2019-03-30 15:00","2019","03","30","15:00","3.4","","2.2","","92","","33","","17","","11.3","","98.32","","","","","","Rain"
"2019-03-30 16:00","2019","03","30","16:00","2.8","","1.6","","92","","35","","24","","4.0","","98.38","","","","","","Rain,Fog"
"2019-03-30 17:00","2019","03","30","17:00","2.8","","1.5","","91","","35","","26","","11.3","","98.43","","","","","","NA"
"2019-03-30 18:00","2019","03","30","18:00","2.7","","1.3","","91","","35","","26","","16.1","","98.48","","","","","","Rain"
"2019-03-30 19:00","2019","03","30","19:00","2.4","","1.0","","90","","35","","29","","16.1","","98.47","","","","","","Cloudy"
"2019-03-30 20:00","2019","03","30","20:00","1.5","","0.0","","90","","35","","22","","16.1","","98.54","","","","","","Rain"
"2019-03-30 21:00","2019","03","30","21:00","1.1","","-0.3","","91","","36","","22","","16.1","","98.51","","","","","","Rain,Snow"
"2019-03-30 22:00","2019","03","30","22:00","0.8","","-0.6","","91","","35","","20","","9.7","","98.53","","","","","","Rain,Snow"
"2019-03-30 23:00","2019","03","30","23:00","0.4","","-0.9","","91","","35","","24","","1.6","","98.48","","","","","","Snow"
"2019-03-31 00:00","2019","03","31","00:00","0.4","","-0.8","","92","","34","","26","","1.6","","98.48","","","","","","Snow"
"2019-03-31 01:00","2019","03","31","01:00","0.2","","-1.0","","92","","35","","25","","3.2","","98.41","","","","","","Snow"
"2019-03-31 02:00","2019","03","31","02:00","-0.1","","-1.3","","92","","32","","38","","4.0","","98.55","","","","-7","","Snow"
"2019-03-31 03:00","2019","03","31","03:00","-0.4","","-1.6","","91","","34","","30","","24.1","","98.49","","","","-7","","Snow"
"2019-03-31 04:00","2019","03","31","04:00","-0.4","","-1.9","","90","","32","","35","","24.1","","98.62","","","","-7","","Snow"
"2019-03-31 05:00","2019","03","31","05:00","-0.4","","-2.0","","89","","32","","25","","4.0","","98.69","","","","-6","","Snow"
"2019-03-31 06:00","2019","03","31","06:00","-0.2","","-2.0","","88","","32","","26","","8.1","","98.84","","","","-6","","Snow"
"2019-03-31 07:00","2019","03","31","07:00","0.0","","-2.0","","86","","30","","23","","16.1","","98.95","","","","-6","","Snow"
"2019-03-31 08:00","2019","03","31","08:00","0.3","","-2.2","","84","","30","","26","","16.1","","99.02","","","","","","NA"
"2019-03-31 09:00","2019","03","31","09:00","0.8","","-2.1","","81","","31","","25","","24.1","","99.09","","","","","","NA"
"2019-03-31 10:00","2019","03","31","10:00","1.0","","-2.3","","78","","28","","25","","24.1","","99.17","","","","","","Cloudy"
"2019-03-31 11:00","2019","03","31","11:00","0.6","","-2.9","","78","","28","","26","","9.7","","99.20","","","","","","Snow"
"2019-03-31 12:00","2019","03","31","12:00","1.6","","-2.1","","77","","29","","20","","16.1","","99.20","","","","","","Snow"
"2019-03-31 13:00","2019","03","31","13:00","1.2","","-2.7","","75","","28","","30","","9.7","","99.23","","","","","","Snow"
"2019-03-31 14:00","2019","03","31","14:00","1.4","","-2.6","","75","","28","","31","","6.4","","99.27","","","","","","Snow"
"2019-03-31 15:00","2019","03","31","15:00","0.3","","-3.2","","77","","28","","32","","4.0","","99.33","","","","","","Snow"
"2019-03-31 16:00","2019","03","31","16:00","0.4","","-3.6","","75","","30","","37","","16.1","","99.40","","","","","","Snow"
"2019-03-31 17:00","2019","03","31","17:00","-0.5","","-5.3","","70","","30","","31","","24.1","","99.49","","","","-7","","NA"
"2019-03-31 18:00","2019","03","31","18:00","-1.8","","-7.5","","65","","30","","38","","24.1","","99.60","","","","-10","","NA"
"2019-03-31 19:00","2019","03","31","19:00","-2.7","","-8.7","","63","","31","","38","","24.1","","99.68","","","","-11","","Mostly Cloudy"
"2019-03-31 20:00","2019","03","31","20:00","-3.1","","-8.8","","65","","30","","31","","24.1","","99.78","","","","-11","","NA"
"2019-03-31 21:00","2019","03","31","21:00","-3.4","","-9.1","","65","","30","","30","","24.1","","99.86","","","","-11","","NA"
"2019-03-31 22:00","2019","03","31","22:00","-3.5","","-9.1","","66","","30","","31","","24.1","","99.91","","","","-11","","Mostly Cloudy"
"2019-03-31 23:00","2019","03","31","23:00","-3.5","","-8.7","","67","","30","","27","","24.1","","99.95","","","","-11","","NA"
