"Station Name","TORONTO LESTER B. PEARSON INT'L A"
"Province","ONTARIO"
"Latitude","43.68"
"Longitude","-79.63"
"Elevation","173.40"
"Climate Identifier","6158733"
"WMO Identifier","71624"
"TC Identifier","YYZ"
"All times are specified in Local Standard Time (LST). Add 1 hour to adjust for Daylight Saving Time where and when it is observed."

"Legend"
"E","Estimated"
"M","Missing"
"NA","Not Available"

"Date/Time","Year","Month","Day","Time","Temp (°C)","Temp Flag","Dew Point Temp (°C)","Dew Point Temp Flag","Rel Hum (%)","Rel Hum Flag","Wind Dir (10s deg)","Wind Dir Flag","Wind Spd (km/h)","Wind Spd Flag","Visibility (km)","Visibility Flag","Stn Press (kPa)","Stn Press Flag","Hmdx","Hmdx Flag","Wind Chill","Wind Chill Flag","Weather"
"1953-01-01 00:00","1953","01","01","00:00","-5.6","","-6.7","","93","","36","","10","","25.0","","99.44","","","","-10","","Cloudy"
"1953-01-01 01:00","1953","01","01","01:00","-5.6","","-9.4","","71","","34","","3","","25.0","","99.46","","","","-7","","Cloudy"
"1953-01-01 02:00","1953","01","01","02:00","-5.0","","-8.9","","72","","","","0","","19.3","","99.43","","","","","","Cloudy"
"1953-01-01 03:00","1953","01","01","03:00","-5.0","","-7.8","","79","","","","0","","19.3","","99.56","","","","","","Cloudy"
"1953-01-01 04:00","1953","01","01","04:00","-4.4","","-7.2","","80","","","","0","","19.3","","99.55","","","","","","Cloudy"
"1953-01-01 05:00","1953","01","01","05:00","-3.9","","-5.0","","90","","","","0","","19.3","","99.58","","","","","","Cloudy"
"1953-01-01 06:00","1953","01","01","06:00","-3.3","","-3.9","","94","","23","","8","","19.3","","99.61","","","","-7","","Cloudy"
"1953-01-01 07:00","1953","01","01","07:00","-2.8","","-3.3","","94","","25","","16","","19.3","","99.72","","","","-8","","Cloudy"
"1953-01-01 08:00","1953","01","01","08:00","-3.3","","-3.9","","94","","20","","6","","16.1","","99.72","","","","-6","","Cloudy"
"1953-01-01 09:00","1953","01","01","09:00","-3.3","","-5.0","","87","","23","","10","","14.5","","99.80","","","","-7","","Cloudy"
"1953-01-01 10:00","1953","01","01","10:00","-3.3","","-3.9","","93","","23","","10","","4.8","","99.85","","","","-7","","Snow Grains,Fog"
"1953-01-01 11:00","1953","01","01","11:00","-2.2","","-3.3","","90","","25","","16","","4.8","","99.79","","","","-7","","Snow Grains,Fog"
"1953-01-01 12:00","1953","01","01","12:00","-2.2","","-3.3","","90","","23","","18","","4.8","","99.69","","","","-8","","Snow Grains,Fog"
"1953-01-01 13:00","1953","01","01","13:00","-1.7","","-2.2","","94","","25","","26","","4.8","","99.66","","","","-8","","Fog"
"1953-01-01 14:00","1953","01","01","14:00","-1.1","","-2.8","","89","","23","","26","","4.8","","99.66","","","","-7","","Fog"
"1953-01-01 15:00","1953","01","01","15:00","-1.1","","-2.2","","91","","25","","23","","4.8","","99.70","","","","-7","","Fog"
"1953-01-01 16:00","1953","01","01","16:00","-1.1","","-2.8","","89","","23","","19","","4.8","","99.68","","","","-6","","Fog"
"1953-01-01 17:00","1953","01","01","17:00","-1.1","","-2.8","","89","","23","","13","","4.8","","99.68","","","","-5","","Fog"
"1953-01-01 18:00","1953","01","01","18:00","-1.1","","-2.8","","89","","23","","13","","16.1","","99.70","","","","-5","","Cloudy"
"1953-01-01 19:00","1953","01","01","19:00","-1.1","","-2.8","","83","","23","","23","","16.1","","99.67","","","","-7","","Cloudy"
"1953-01-01 20:00","1953","01","01","20:00","-1.1","","-2.2","","94","","23","","26","","16.1","","99.62","","","","-7","","Cloudy"
"1953-01-01 21:00","1953","01","01","21:00","-0.6","","-2.2","","89","","23","","19","","16.1","","99.59","","","","-6","","Cloudy"
"1953-01-01 22:00","1953","01","01","22:00","0.0","","-1.1","","89","","23","","23","","16.1","","99.57","","","","-6","","Cloudy"
"1953-01-01 23:00","1953","01","01","23:00","0.0","","-1.1","","89","","23","","19","","16.1","","99.55","","","","-5","","Cloudy"
"1953-01-02 00:00","1953","01","02","00:00","0.0","","-1.1","","89","","23","","19","","16.1","","99.53","","","","-5","","Cloudy"
"1953-01-02 01:00","1953","01","02","01:00","0.0","","-2.2","","84","","23","","19","","16.1","","99.43","","","","-5","","Cloudy"
"1953-01-02 02:00","1953","01","02","02:00","0.0","","-1.1","","89","","23","","16","","16.1","","99.43","","","","-5","","Cloudy"
"1953-01-02 03:00","1953","01","02","03:00","0.0","","-1.1","","89","","23","","13","","16.1","","99.44","","","","-4","","Cloudy"
"1953-01-02 04:00","1953","01","02","04:00","0.0","","-1.1","","89","","25","","13","","16.1","","99.35","","","","-4","","Cloudy"
"1953-01-02 05:00","1953","01","02","05:00","0.0","","-1.1","","89","","25","","16","","16.1","","99.29","","","","-5","","Cloudy"
"1953-01-02 06:00","1953","01","02","06:00","0.0","","-1.1","","89","","23","","13","","12.9","","99.21","","","","-4","","Cloudy"
"1953-01-02 07:00","1953","01","02","07:00","0.0","","-1.1","","89","","23","","13","","12.9","","99.13","","","","-4","","Cloudy"
"1953-01-02 08:00","1953","01","02","08:00","-0.6","","-2.2","","89","","25","","10","","6.4","","99.12","","","","-4","","Haze"
"1953-01-02 09:00","1953","01","02","09:00","0.0","","-1.1","","90","","","","0","","6.4","","99.16","","","","","","Haze"
"1953-01-02 10:00","1953","01","02","10:00","0.6","","-1.1","","90","","","","0","","4.8","","99.11","","","","","","Haze"
"1953-01-02 11:00","1953","01","02","11:00","0.6","","-0.6","","90","","","","0","","6.4","","99.04","","","","","","Haze"
"1953-01-02 12:00","1953","01","02","12:00","0.6","","-0.6","","90","","23","","3","","4.8","","98.97","","","","","","Haze"
"1953-01-02 13:00","1953","01","02","13:00","1.1","","0.6","","86","","20","","5","","4.8","","98.79","","","","","","Fog"
"1953-01-02 14:00","1953","01","02","14:00","1.1","","0.0","","90","","14","","6","","4.8","","98.68","","","","","","Fog"
"1953-01-02 15:00","1953","01","02","15:00","1.1","","-0.6","","88","","14","","3","","4.8","","98.61","","","","","","Fog"
"1953-01-02 16:00","1953","01","02","16:00","1.7","","1.1","","96","","","","0","","4.8","","98.61","","","","","","Fog"
"1953-01-02 17:00","1953","01","02","17:00","1.1","","-1.1","","87","","","","0","","3.2","","98.56","","","","","","Fog"
"1953-01-02 18:00","1953","01","02","18:00","1.1","","0.0","","89","","","","0","","3.2","","98.49","","","","","","Fog"
"1953-01-02 19:00","1953","01","02","19:00","0.6","","0.0","","94","","","","0","","3.2","","98.48","","","","","","Fog"
"1953-01-02 20:00","1953","01","02","20:00","0.6","","0.0","","93","","","","0","","3.2","","98.42","","","","","","Fog"
"1953-01-02 21:00","1953","01","02","21:00","0.0","","-0.6","","95","","","","0","","4.8","","98.33","","","","","","Fog"
"1953-01-02 22:00","1953","01","02","22:00","0.0","","-0.6","","95","","9","","2","","4.8","","98.28","","","","-1","","Fog"
"1953-01-02 23:00","1953","01","02","23:00","-0.6","","-0.6","","100","","36","","3","","4.8","","98.23","","","","-2","","Fog"
"1953-01-03 00:00","1953","01","03","00:00","-0.6","","-1.1","","94","","36","","3","","4.8","","98.13","","","","-2","","Snow,Fog"
"1953-01-03 01:00","1953","01","03","01:00","0.0","","0.0","","99","","36","","6","","4.8","","98.07","","","","-2","","Snow,Fog"
"1953-01-03 02:00","1953","01","03","02:00","0.0","","-0.6","","95","","36","","6","","4.8","","98.05","","","","-2","","Snow,Fog"
"1953-01-03 03:00","1953","01","03","03:00","0.0","","-0.6","","97","","36","","6","","4.8","","98.00","","","","-2","","Snow,Fog"
"1953-01-03 04:00","1953","01","03","04:00","0.0","","-0.6","","95","","36","","6","","4.8","","97.95","","","","-2","","Snow,Fog"
"1953-01-03 05:00","1953","01","03","05:00","0.0","","-0.6","","95","","36","","3","","4.8","","97.91","","","","-1","","Snow,Fog"
"1953-01-03 06:00","1953","01","03","06:00","0.0","","-0.6","","95","","36","","3","","4.8","","97.88","","","","-1","","Snow,Fog"
"1953-01-03 07:00","1953","01","03","07:00","0.0","","-0.6","","95","","36","","3","","4.8","","97.87","","","","-1","","Snow,Fog"
"1953-01-03 08:00","1953","01","03","08:00","0.0","","-0.6","","95","","36","","6","","2.4","","97.87","","","","-2","","Fog"
"1953-01-03 09:00","1953","01","03","09:00","0.0","","-1.1","","90","","34","","5","","1.6","","97.89","","","","-2","","Snow,Fog"
"1953-01-03 10:00","1953","01","03","10:00","0.0","","-0.6","","94","","34","","6","","2.0","","97.88","","","","-2","","Snow,Fog"
"1953-01-03 11:00","1953","01","03","11:00","0.6","","-0.6","","91","","36","","11","","3.2","","97.84","","","","","","Snow,Fog"
"1953-01-03 12:00","1953","01","03","12:00","0.6","","-0.6","","86","","2","","11","","4.0","","97.75","","","","","","Snow,Fog"
"1953-01-03 13:00","1953","01","03","13:00","1.1","","-1.1","","86","","34","","8","","3.2","","97.73","","","","","","Haze"
"1953-01-03 14:00","1953","01","03","14:00","1.1","","-1.1","","84","","2","","11","","4.0","","97.74","","","","","","Haze"
"1953-01-03 15:00","1953","01","03","15:00","1.1","","-1.1","","85","","36","","10","","4.0","","97.78","","","","","","Haze"
"1953-01-03 16:00","1953","01","03","16:00","1.1","","0.0","","90","","36","","16","","4.0","","97.82","","","","","","Haze"
"1953-01-03 17:00","1953","01","03","17:00","-0.6","","-1.1","","93","","36","","23","","12.9","","97.88","","","","-6","","Mostly Cloudy"
"1953-01-03 18:00","1953","01","03","18:00","-1.1","","-3.3","","84","","36","","19","","25.0","","97.92","","","","-6","","Mainly Clear"
"1953-01-03 19:00","1953","01","03","19:00","-1.7","","-2.8","","90","","36","","19","","25.0","","97.96","","","","-7","","Mostly Cloudy"
"1953-01-03 20:00","1953","01","03","20:00","-2.2","","-2.8","","93","","36","","24","","25.0","","97.98","","","","-9","","Snow Showers"
"1953-01-03 21:00","1953","01","03","21:00","-2.2","","-2.8","","93","","34","","29","","25.0","","98.01","","","","-9","","Snow Showers"
"1953-01-03 22:00","1953","01","03","22:00","-2.8","","-4.4","","89","","34","","27","","25.0","","98.04","","","","-10","","Mostly Cloudy"
"1953-01-03 23:00","1953","01","03","23:00","-4.4","","-6.1","","88","","34","","26","","25.0","","98.04","","","","-12","","Mostly Cloudy"
"1953-01-04 00:00","1953","01","04","00:00","-5.0","","-5.6","","90","","34","","26","","25.0","","98.07","","","","-12","","Mostly Cloudy"
"1953-01-04 01:00","1953","01","04","01:00","-5.6","","-6.7","","93","","36","","16","","25.0","","98.11","","","","-12","","Mainly Clear"
"1953-01-04 02:00","1953","01","04","02:00","-5.6","","-7.2","","86","","34","","26","","25.0","","98.19","","","","-13","","Cloudy"
"1953-01-04 03:00","1953","01","04","03:00","-6.7","","-8.9","","85","","34","","16","","25.0","","98.23","","","","-13","","Mainly Clear"
"1953-01-04 04:00","1953","01","04","04:00","-7.8","","-9.4","","87","","34","","16","","25.0","","98.24","","","","-14","","Clear"
"1953-01-04 05:00","1953","01","04","05:00","-8.9","","-10.0","","90","","34","","21","","25.0","","98.30","","","","-17","","Clear"
"1953-01-04 06:00","1953","01","04","06:00","-10.0","","-11.7","","85","","34","","16","","25.0","","98.38","","","","-17","","Mainly Clear"
"1953-01-04 07:00","1953","01","04","07:00","-11.1","","-13.3","","84","","34","","10","","25.0","","98.45","","","","-17","","Mainly Clear"
"1953-01-04 08:00","1953","01","04","08:00","-10.0","","-12.2","","81","","29","","10","","25.0","","98.54","","","","-15","","Mostly Cloudy"
"1953-01-04 09:00","1953","01","04","09:00","-9.4","","-13.3","","71","","29","","8","","25.0","","98.59","","","","-14","","Cloudy"
"1953-01-04 10:00","1953","01","04","10:00","-8.9","","-12.8","","74","","29","","6","","25.0","","98.59","","","","-12","","Cloudy"
"1953-01-04 11:00","1953","01","04","11:00","-6.7","","-11.1","","71","","25","","3","","25.0","","98.54","","","","-8","","Mostly Cloudy"
"1953-01-04 12:00","1953","01","04","12:00","-5.6","","-10.0","","68","","20","","5","","25.0","","98.45","","","","-8","","Mostly Cloudy"
"1953-01-04 13:00","1953","01","04","13:00","-3.9","","-8.9","","64","","23","","6","","25.0","","98.42","","","","-7","","Mostly Cloudy"
"1953-01-04 14:00","1953","01","04","14:00","-3.3","","-7.8","","69","","20","","11","","25.0","","98.45","","","","-8","","Snow Showers"
"1953-01-04 15:00","1953","01","04","15:00","-3.3","","-7.8","","72","","20","","6","","25.0","","98.47","","","","-6","","Cloudy"
"1953-01-04 16:00","1953","01","04","16:00","-2.8","","-7.2","","69","","27","","13","","25.0","","98.49","","","","-7","","Mostly Cloudy"
"1953-01-04 17:00","1953","01","04","17:00","-3.3","","-5.6","","81","","23","","11","","25.0","","98.52","","","","-8","","Mostly Cloudy"
"1953-01-04 18:00","1953","01","04","18:00","-3.3","","-5.6","","81","","23","","10","","25.0","","98.57","","","","-7","","Mostly Cloudy"
"1953-01-04 19:00","1953","01","04","19:00","-3.9","","-5.6","","87","","20","","6","","24.1","","98.58","","","","-7","","Cloudy"
"1953-01-04 20:00","1953","01","04","20:00","-3.3","","-5.0","","87","","23","","11","","25.0","","98.57","","","","-8","","Cloudy"
"1953-01-04 21:00","1953","01","04","21:00","-4.4","","-5.0","","93","","34","","2","","25.0","","98.59","","","","-5","","Cloudy"
"1953-01-04 22:00","1953","01","04","22:00","-4.4","","-5.6","","90","","25","","3","","25.0","","98.50","","","","-6","","Cloudy"
"1953-01-04 23:00","1953","01","04","23:00","-3.3","","-6.1","","83","","23","","6","","25.0","","98.56","","","","-6","","Cloudy"
"1953-01-05 00:00","1953","01","05","00:00","-3.3","","-5.0","","87","","25","","16","","25.0","","98.57","","","","-9","","Cloudy"
"1953-01-05 01:00","1953","01","05","01:00","-3.3","","-5.6","","81","","25","","19","","25.0","","98.58","","","","-9","","Cloudy"
"1953-01-05 02:00","1953","01","05","02:00","-3.9","","-5.6","","87","","25","","16","","25.0","","98.61","","","","-9","","Cloudy"
"1953-01-05 03:00","1953","01","05","03:00","-3.9","","-5.6","","87","","25","","10","","25.0","","98.61","","","","-8","","Cloudy"
"1953-01-05 04:00","1953","01","05","04:00","-5.0","","-6.1","","93","","25","","13","","25.0","","98.55","","","","-10","","Mainly Clear"
"1953-01-05 05:00","1953","01","05","05:00","-5.0","","-6.7","","86","","23","","13","","25.0","","98.53","","","","-10","","Cloudy"
"1953-01-05 06:00","1953","01","05","06:00","-4.4","","-6.1","","87","","23","","16","","25.0","","98.56","","","","-10","","Cloudy"
"1953-01-05 07:00","1953","01","05","07:00","-4.4","","-7.2","","80","","23","","13","","25.0","","98.59","","","","-9","","Cloudy"
"1953-01-05 08:00","1953","01","05","08:00","-4.4","","-8.3","","73","","23","","10","","25.0","","98.63","","","","-9","","Mostly Cloudy"
"1953-01-05 09:00","1953","01","05","09:00","-3.3","","-5.6","","81","","18","","8","","25.0","","98.62","","","","-7","","Mostly Cloudy"
"1953-01-05 10:00","1953","01","05","10:00","-3.3","","-5.6","","87","","18","","16","","25.0","","98.61","","","","-9","","Mostly Cloudy"
"1953-01-05 11:00","1953","01","05","11:00","-2.8","","-4.4","","88","","20","","24","","25.0","","98.55","","","","-9","","Cloudy"
"1953-01-05 12:00","1953","01","05","12:00","-2.8","","-3.3","","94","","18","","24","","4.0","","98.43","","","","-9","","Snow Showers"
"1953-01-05 13:00","1953","01","05","13:00","-2.2","","-3.9","","84","","20","","32","","4.8","","98.39","","","","-10","","Snow Showers"
"1953-01-05 14:00","1953","01","05","14:00","-1.7","","-4.4","","78","","20","","29","","4.8","","98.38","","","","-9","","Snow Showers"
"1953-01-05 15:00","1953","01","05","15:00","-2.2","","-3.9","","85","","20","","29","","4.8","","98.40","","","","-9","","Snow Showers"
"1953-01-05 16:00","1953","01","05","16:00","-2.2","","-3.9","","88","","20","","26","","4.8","","98.42","","","","-9","","Snow Showers"
"1953-01-05 17:00","1953","01","05","17:00","-3.3","","-4.4","","90","","20","","29","","2.8","","98.43","","","","-11","","Snow Showers"
"1953-01-05 18:00","1953","01","05","18:00","-3.3","","-3.9","","94","","20","","19","","3.2","","98.47","","","","-9","","Snow Showers"
"1953-01-05 19:00","1953","01","05","19:00","-3.3","","-3.3","","98","","20","","18","","2.4","","98.47","","","","-9","","Snow"
"1953-01-05 20:00","1953","01","05","20:00","-3.3","","-3.9","","95","","20","","16","","4.0","","98.45","","","","-9","","Snow,Fog"
"1953-01-05 21:00","1953","01","05","21:00","-3.3","","-4.4","","90","","25","","24","","12.9","","98.46","","","","-10","","Snow"
"1953-01-05 22:00","1953","01","05","22:00","-4.4","","-6.1","","87","","25","","16","","25.0","","98.52","","","","-10","","Snow"
"1953-01-05 23:00","1953","01","05","23:00","-5.0","","-6.7","","86","","27","","24","","25.0","","98.59","","","","-12","","Snow"
"1953-01-06 00:00","1953","01","06","00:00","-5.6","","-7.2","","85","","29","","19","","25.0","","98.68","","","","-12","","Mostly Cloudy"
"1953-01-06 01:00","1953","01","06","01:00","-6.1","","-8.3","","80","","29","","16","","25.0","","98.77","","","","-12","","Mostly Cloudy"
"1953-01-06 02:00","1953","01","06","02:00","-7.8","","-10.0","","84","","27","","16","","25.0","","98.94","","","","-14","","Mostly Cloudy"
"1953-01-06 03:00","1953","01","06","03:00","-6.7","","-8.3","","88","","27","","19","","25.0","","99.05","","","","-14","","Snow Showers"
"1953-01-06 04:00","1953","01","06","04:00","-7.2","","-8.9","","87","","25","","10","","25.0","","99.09","","","","-12","","Snow Showers"
"1953-01-06 05:00","1953","01","06","05:00","-8.3","","-10.0","","86","","25","","19","","25.0","","99.15","","","","-16","","Snow Showers"
"1953-01-06 06:00","1953","01","06","06:00","-8.9","","-13.3","","69","","25","","16","","25.0","","99.23","","","","-16","","Snow Showers"
"1953-01-06 07:00","1953","01","06","07:00","-11.1","","-11.1","","100","","25","","13","","25.0","","99.33","","","","-18","","Snow Showers"
"1953-01-06 08:00","1953","01","06","08:00","-10.0","","-11.1","","89","","25","","19","","25.0","","99.43","","","","-18","","Mainly Clear"
"1953-01-06 09:00","1953","01","06","09:00","-8.9","","-10.6","","86","","25","","29","","24.1","","99.51","","","","-18","","Mainly Clear"
"1953-01-06 10:00","1953","01","06","10:00","-7.2","","-10.0","","78","","27","","32","","24.1","","99.60","","","","-16","","Mainly Clear"
"1953-01-06 11:00","1953","01","06","11:00","-7.2","","-10.0","","78","","27","","34","","25.0","","99.63","","","","-16","","Mainly Clear"
"1953-01-06 12:00","1953","01","06","12:00","-7.2","","-9.4","","84","","25","","32","","24.1","","99.59","","","","-16","","Mostly Cloudy"
"1953-01-06 13:00","1953","01","06","13:00","-7.2","","-9.4","","84","","25","","26","","24.1","","99.58","","","","-15","","Mostly Cloudy"
"1953-01-06 14:00","1953","01","06","14:00","-6.7","","-8.9","","85","","25","","21","","24.1","","99.63","","","","-14","","Mostly Cloudy"
"1953-01-06 15:00","1953","01","06","15:00","-6.7","","-8.9","","85","","27","","19","","24.1","","99.58","","","","-14","","Mostly Cloudy"
"1953-01-06 16:00","1953","01","06","16:00","-7.8","","-10.0","","84","","25","","24","","24.1","","99.71","","","","-16","","Mostly Cloudy"
"1953-01-06 17:00","1953","01","06","17:00","-8.3","","-11.1","","77","","25","","23","","25.0","","99.71","","","","-16","","Cloudy"
"1953-01-06 18:00","1953","01","06","18:00","-8.3","","-11.1","","78","","27","","16","","25.0","","99.72","","","","-15","","Cloudy"
"1953-01-06 19:00","1953","01","06","19:00","-8.3","","-11.1","","78","","27","","3","","25.0","","99.71","","","","-10","","Cloudy"
"1953-01-06 20:00","1953","01","06","20:00","-8.3","","-11.1","","80","","27","","13","","25.0","","99.73","","","","-14","","Cloudy"
"1953-01-06 21:00","1953","01","06","21:00","-8.3","","-11.1","","80","","29","","5","","25.0","","99.70","","","","-11","","Cloudy"
"1953-01-06 22:00","1953","01","06","22:00","-8.3","","-10.6","","83","","29","","8","","19.3","","99.69","","","","-12","","Snow"
"1953-01-06 23:00","1953","01","06","23:00","-9.4","","-10.0","","91","","32","","8","","6.4","","99.70","","","","-14","","Snow"
"1953-01-07 00:00","1953","01","07","00:00","-8.9","","-10.0","","90","","36","","3","","25.0","","99.74","","","","-11","","Snow"
"1953-01-07 01:00","1953","01","07","01:00","-8.9","","-10.0","","90","","27","","3","","25.0","","99.83","","","","-11","","Snow"
"1953-01-07 02:00","1953","01","07","02:00","-8.3","","-9.4","","93","","29","","6","","9.7","","99.94","","","","-12","","Snow"
"1953-01-07 03:00","1953","01","07","03:00","-9.4","","-10.0","","96","","36","","3","","25.0","","100.02","","","","-11","","Snow"
"1953-01-07 04:00","1953","01","07","04:00","-10.6","","-11.7","","92","","29","","13","","25.0","","100.12","","","","-17","","Clear"
"1953-01-07 05:00","1953","01","07","05:00","-12.2","","-13.3","","91","","36","","13","","25.0","","100.23","","","","-19","","Mainly Clear"
"1953-01-07 06:00","1953","01","07","06:00","-13.3","","-14.4","","90","","2","","13","","25.0","","100.37","","","","-20","","Clear"
"1953-01-07 07:00","1953","01","07","07:00","-13.9","","-15.0","","90","","36","","13","","25.0","","100.46","","","","-21","","Clear"
"1953-01-07 08:00","1953","01","07","08:00","-13.9","","-15.0","","90","","36","","13","","25.0","","100.60","","","","-21","","Mainly Clear"
"1953-01-07 09:00","1953","01","07","09:00","-13.3","","-15.0","","86","","34","","16","","25.0","","100.65","","","","-21","","Mainly Clear"
"1953-01-07 10:00","1953","01","07","10:00","-12.8","","-14.4","","86","","2","","16","","25.0","","100.69","","","","-20","","Mainly Clear"
"1953-01-07 11:00","1953","01","07","11:00","-11.7","","-14.4","","79","","2","","13","","25.0","","100.74","","","","-18","","Mainly Clear"
"1953-01-07 12:00","1953","01","07","12:00","-11.1","","-13.3","","84","","5","","11","","25.0","","100.68","","","","-17","","Mostly Cloudy"
"1953-01-07 13:00","1953","01","07","13:00","-11.1","","-13.9","","80","","36","","13","","25.0","","100.65","","","","-18","","Mostly Cloudy"
"1953-01-07 14:00","1953","01","07","14:00","-9.4","","-10.6","","93","","36","","10","","25.0","","100.70","","","","-15","","Mostly Cloudy"
"1953-01-07 15:00","1953","01","07","15:00","-10.0","","-10.6","","96","","36","","8","","25.0","","100.76","","","","-14","","Mostly Cloudy"
"1953-01-07 16:00","1953","01","07","16:00","-10.6","","-12.2","","84","","36","","13","","24.1","","100.80","","","","-17","","Cloudy"
"1953-01-07 17:00","1953","01","07","17:00","-11.1","","-13.3","","84","","36","","19","","25.0","","100.82","","","","-19","","Cloudy"
"1953-01-07 18:00","1953","01","07","18:00","-11.7","","-13.3","","84","","2","","13","","25.0","","100.83","","","","-18","","Cloudy"
"1953-01-07 19:00","1953","01","07","19:00","-11.7","","-13.9","","83","","2","","13","","25.0","","100.84","","","","-18","","Cloudy"
"1953-01-07 20:00","1953","01","07","20:00","-11.7","","-13.3","","87","","2","","11","","25.0","","100.79","","","","-18","","Mostly Cloudy"
"1953-01-07 21:00","1953","01","07","21:00","-11.7","","-13.3","","87","","2","","10","","25.0","","100.72","","","","-17","","Mostly Cloudy"
"1953-01-07 22:00","1953","01","07","22:00","-11.7","","-13.3","","85","","5","","16","","25.0","","100.68","","","","-19","","Cloudy"
"1953-01-07 23:00","1953","01","07","23:00","-11.7","","-14.4","","79","","5","","13","","25.0","","100.61","","","","-18","","Mainly Clear"
"1953-01-08 00:00","1953","01","08","00:00","-11.7","","-13.9","","83","","2","","13","","25.0","","100.56","","","","-18","","Mostly Cloudy"
"1953-01-08 01:00","1953","01","08","01:00","-10.0","","-11.7","","85","","7","","19","","25.0","","100.50","","","","-18","","Cloudy"
"1953-01-08 02:00","1953","01","08","02:00","-10.0","","-11.7","","85","","7","","23","","25.0","","100.54","","","","-18","","Ice Pellets"
"1953-01-08 03:00","1953","01","08","03:00","-10.6","","-12.2","","84","","7","","19","","25.0","","100.51","","","","-18","","Cloudy"
"1953-01-08 04:00","1953","01","08","04:00","-11.1","","-13.3","","84","","7","","16","","16.1","","100.50","","","","-18","","Snow Grains"
"1953-01-08 05:00","1953","01","08","05:00","-10.6","","-12.2","","84","","7","","19","","25.0","","100.42","","","","-18","","Cloudy"
"1953-01-08 06:00","1953","01","08","06:00","-11.1","","-13.3","","84","","7","","29","","25.0","","100.44","","","","-21","","Snow Grains"
"1953-01-08 07:00","1953","01","08","07:00","-10.0","","-11.7","","85","","7","","23","","25.0","","100.37","","","","-18","","Cloudy"
"1953-01-08 08:00","1953","01","08","08:00","-10.0","","-12.8","","77","","7","","19","","25.0","","100.31","","","","-18","","Cloudy"
"1953-01-08 09:00","1953","01","08","09:00","-10.6","","-13.3","","74","","7","","18","","24.1","","100.24","","","","-18","","Cloudy"
"1953-01-08 10:00","1953","01","08","10:00","-11.1","","-13.3","","84","","7","","19","","4.8","","100.22","","","","-19","","Freezing Drizzle,Haze"
"1953-01-08 11:00","1953","01","08","11:00","-10.0","","-11.1","","90","","7","","27","","4.8","","100.18","","","","-19","","Fog"
"1953-01-08 12:00","1953","01","08","12:00","-9.4","","-10.6","","91","","7","","27","","2.4","","100.03","","","","-18","","Snow,Fog"
"1953-01-08 13:00","1953","01","08","13:00","-8.3","","-10.0","","88","","7","","29","","4.8","","99.93","","","","-17","","Snow,Fog"
"1953-01-08 14:00","1953","01","08","14:00","-7.8","","-9.4","","86","","7","","29","","24.1","","99.87","","","","-17","","Cloudy"
"1953-01-08 15:00","1953","01","08","15:00","-7.2","","-8.9","","84","","7","","31","","19.3","","99.82","","","","-16","","Ice Pellets"
"1953-01-08 16:00","1953","01","08","16:00","-6.7","","-8.9","","82","","7","","29","","16.1","","99.74","","","","-15","","Freezing Rain,Ice Pellets"
"1953-01-08 17:00","1953","01","08","17:00","-7.2","","-8.3","","90","","7","","32","","1.2","","99.76","","","","-16","","Snow"
"1953-01-08 18:00","1953","01","08","18:00","-6.7","","-7.8","","92","","7","","19","","1.2","","99.79","","","","-14","","Snow"
"1953-01-08 19:00","1953","01","08","19:00","-6.7","","-7.2","","97","","7","","23","","0.8","","99.74","","","","-14","","Moderate Snow,Blowing Snow"
"1953-01-08 20:00","1953","01","08","20:00","-7.2","","-7.8","","89","","7","","23","","3.2","","99.70","","","","-15","","Snow,Blowing Snow"
"1953-01-08 21:00","1953","01","08","21:00","-7.2","","-7.8","","94","","7","","29","","8.0","","99.66","","","","-16","","Snow"
"1953-01-08 22:00","1953","01","08","22:00","-7.2","","-7.8","","94","","7","","29","","8.0","","99.63","","","","-16","","Snow"
"1953-01-08 23:00","1953","01","08","23:00","-6.7","","-7.2","","94","","7","","23","","12.9","","99.68","","","","-14","","Snow"
"1953-01-09 00:00","1953","01","09","00:00","-6.7","","-7.2","","97","","7","","26","","12.9","","99.59","","","","-15","","Cloudy"
"1953-01-09 01:00","1953","01","09","01:00","-6.7","","-6.7","","99","","7","","23","","12.9","","99.55","","","","-14","","Cloudy"
"1953-01-09 02:00","1953","01","09","02:00","-6.1","","-7.2","","92","","7","","16","","19.3","","99.64","","","","-12","","Cloudy"
"1953-01-09 03:00","1953","01","09","03:00","-6.1","","-6.1","","99","","7","","19","","9.7","","99.62","","","","-13","","Freezing Drizzle"
"1953-01-09 04:00","1953","01","09","04:00","-6.1","","-6.1","","99","","7","","19","","3.2","","99.59","","","","-13","","Freezing Drizzle"
"1953-01-09 05:00","1953","01","09","05:00","-5.6","","-6.7","","93","","7","","21","","9.7","","99.57","","","","-12","","Freezing Drizzle,Fog"
"1953-01-09 06:00","1953","01","09","06:00","-5.6","","-6.7","","93","","7","","19","","12.9","","99.62","","","","-12","","Freezing Drizzle"
"1953-01-09 07:00","1953","01","09","07:00","-6.1","","-6.7","","95","","7","","16","","12.9","","99.71","","","","-12","","Freezing Drizzle"
"1953-01-09 08:00","1953","01","09","08:00","-5.6","","-5.6","","98","","7","","19","","12.9","","99.82","","","","-12","","Freezing Drizzle"
"1953-01-09 09:00","1953","01","09","09:00","-5.6","","-6.7","","93","","5","","16","","12.9","","99.85","","","","-12","","Cloudy"
"1953-01-09 10:00","1953","01","09","10:00","-6.1","","-7.2","","92","","7","","14","","12.9","","99.88","","","","-12","","Cloudy"
"1953-01-09 11:00","1953","01","09","11:00","-5.0","","-6.1","","93","","9","","19","","12.9","","99.85","","","","-11","","Cloudy"
"1953-01-09 12:00","1953","01","09","12:00","-5.0","","-6.1","","93","","9","","16","","12.9","","99.79","","","","-11","","Cloudy"
"1953-01-09 13:00","1953","01","09","13:00","-4.4","","-5.6","","90","","9","","16","","11.3","","99.70","","","","-10","","Cloudy"
"1953-01-09 14:00","1953","01","09","14:00","-3.9","","-4.4","","94","","9","","16","","11.3","","99.74","","","","-9","","Cloudy"
"1953-01-09 15:00","1953","01","09","15:00","-3.9","","-5.0","","90","","9","","19","","11.3","","99.77","","","","-10","","Cloudy"
"1953-01-09 16:00","1953","01","09","16:00","-3.9","","-4.4","","94","","9","","16","","6.4","","99.77","","","","-9","","Freezing Drizzle,Fog"
"1953-01-09 17:00","1953","01","09","17:00","-2.2","","-3.3","","90","","7","","16","","6.4","","99.79","","","","-7","","Freezing Drizzle,Fog"
"1953-01-09 18:00","1953","01","09","18:00","-3.3","","-3.3","","100","","7","","13","","6.4","","99.78","","","","-8","","Freezing Drizzle,Fog"
"1953-01-09 19:00","1953","01","09","19:00","-3.3","","-3.3","","98","","7","","13","","3.2","","99.74","","","","-8","","Freezing Drizzle,Fog"
"1953-01-09 20:00","1953","01","09","20:00","-3.3","","-3.3","","98","","5","","13","","4.0","","99.79","","","","-8","","Freezing Drizzle,Fog"
"1953-01-09 21:00","1953","01","09","21:00","-3.3","","-3.3","","98","","7","","13","","3.2","","99.75","","","","-8","","Freezing Drizzle,Fog"
"1953-01-09 22:00","1953","01","09","22:00","-3.3","","-3.3","","96","","7","","13","","12.9","","99.68","","","","-8","","Freezing Drizzle"
"1953-01-09 23:00","1953","01","09","23:00","-2.8","","-3.9","","95","","7","","11","","16.1","","99.70","","","","-7","","Cloudy"
"1953-01-10 00:00","1953","01","10","00:00","-3.3","","-3.9","","95","","9","","13","","16.1","","99.63","","","","-8","","Cloudy"
"1953-01-10 01:00","1953","01","10","01:00","-2.8","","-3.3","","94","","7","","8","","16.1","","99.63","","","","-6","","Cloudy"
"1953-01-10 02:00","1953","01","10","02:00","-2.8","","-3.3","","94","","5","","13","","16.1","","99.63","","","","-7","","Cloudy"
"1953-01-10 03:00","1953","01","10","03:00","-2.8","","-3.3","","95","","7","","13","","16.1","","99.52","","","","-7","","Cloudy"
"1953-01-10 04:00","1953","01","10","04:00","-3.3","","-3.9","","95","","7","","13","","16.1","","99.44","","","","-8","","Cloudy"
"1953-01-10 05:00","1953","01","10","05:00","-3.3","","-3.9","","95","","9","","13","","9.7","","99.33","","","","-8","","Freezing Drizzle"
"1953-01-10 06:00","1953","01","10","06:00","-3.3","","-3.9","","94","","7","","11","","19.3","","99.30","","","","-8","","Cloudy"
"1953-01-10 07:00","1953","01","10","07:00","-2.8","","-3.9","","90","","7","","13","","16.1","","99.79","","","","-7","","Cloudy"
"1953-01-10 08:00","1953","01","10","08:00","-2.8","","-3.3","","95","","5","","13","","8.0","","99.30","","","","-7","","Freezing Drizzle,Fog"
"1953-01-10 09:00","1953","01","10","09:00","-2.2","","-3.9","","88","","7","","13","","8.0","","99.28","","","","-7","","Freezing Drizzle,Fog"
"1953-01-10 10:00","1953","01","10","10:00","-1.7","","-2.2","","94","","5","","16","","8.0","","99.13","","","","-7","","Fog"
"1953-01-10 11:00","1953","01","10","11:00","-1.1","","-1.7","","94","","7","","16","","8.0","","99.06","","","","-6","","Fog"
"1953-01-10 12:00","1953","01","10","12:00","-0.6","","-1.1","","97","","9","","19","","8.0","","98.86","","","","-6","","Drizzle,Fog"
"1953-01-10 13:00","1953","01","10","13:00","0.0","","-0.6","","95","","9","","16","","8.0","","98.66","","","","-5","","Drizzle,Fog"
"1953-01-10 14:00","1953","01","10","14:00","-0.6","","-1.1","","94","","11","","16","","8.0","","98.56","","","","-5","","Freezing Rain,Fog"
"1953-01-10 15:00","1953","01","10","15:00","-0.6","","-0.6","","100","","9","","16","","4.8","","98.62","","","","-5","","Freezing Rain,Fog"
"1953-01-10 16:00","1953","01","10","16:00","-0.6","","-0.6","","100","","5","","11","","2.0","","98.46","","","","-4","","Freezing Rain,Fog"
"1953-01-10 17:00","1953","01","10","17:00","-0.6","","-0.6","","99","","7","","10","","2.4","","98.39","","","","-4","","Freezing Rain,Fog"
"1953-01-10 18:00","1953","01","10","18:00","-0.6","","-0.6","","99","","7","","10","","2.0","","98.32","","","","-4","","Freezing Rain,Fog"
"1953-01-10 19:00","1953","01","10","19:00","0.0","","-0.6","","97","","7","","11","","3.2","","98.24","","","","-4","","Freezing Rain,Fog"
"1953-01-10 20:00","1953","01","10","20:00","0.0","","-0.6","","97","","7","","10","","2.4","","98.10","","","","-3","","Freezing Rain,Fog"
"1953-01-10 21:00","1953","01","10","21:00","0.0","","0.0","","99","","7","","5","","2.4","","97.98","","","","-2","","Snow,Ice Pellets,Fog"
"1953-01-10 22:00","1953","01","10","22:00","0.0","","0.0","","99","","5","","3","","2.4","","97.85","","","","-1","","Drizzle,Fog"
"1953-01-10 23:00","1953","01","10","23:00","0.6","","0.0","","97","","5","","3","","1.6","","97.81","","","","","","Snow,Fog"
"1953-01-11 00:00","1953","01","11","00:00","0.6","","0.6","","100","","","","0","","1.6","","97.75","","","","","","Snow,Fog"
"1953-01-11 01:00","1953","01","11","01:00","0.6","","0.6","","100","","","","0","","1.6","","97.68","","","","","","Snow,Fog"
"1953-01-11 02:00","1953","01","11","02:00","0.0","","0.0","","98","","32","","8","","2.4","","97.66","","","","-3","","Snow,Fog"
"1953-01-11 03:00","1953","01","11","03:00","0.0","","0.0","","98","","34","","6","","16.1","","97.63","","","","-2","","Snow"
"1953-01-11 04:00","1953","01","11","04:00","0.0","","0.0","","99","","32","","3","","16.1","","97.61","","","","-1","","Snow"
"1953-01-11 05:00","1953","01","11","05:00","0.0","","0.0","","98","","32","","2","","25.0","","97.57","","","","-1","","Cloudy"
"1953-01-11 06:00","1953","01","11","06:00","0.6","","0.0","","95","","32","","2","","25.0","","97.58","","","","","","Cloudy"
"1953-01-11 07:00","1953","01","11","07:00","0.6","","0.0","","97","","","","0","","25.0","","97.58","","","","","","Cloudy"
"1953-01-11 08:00","1953","01","11","08:00","0.6","","0.0","","98","","","","0","","24.1","","97.65","","","","","","Snow"
"1953-01-11 09:00","1953","01","11","09:00","0.6","","0.0","","97","","","","0","","16.1","","97.70","","","","","","Snow"
"1953-01-11 10:00","1953","01","11","10:00","0.6","","0.0","","97","","","","0","","9.7","","97.72","","","","","","Snow"
"1953-01-11 11:00","1953","01","11","11:00","1.1","","0.6","","95","","27","","3","","9.7","","97.72","","","","","","Snow"
"1953-01-11 12:00","1953","01","11","12:00","1.1","","0.6","","95","","32","","10","","9.7","","97.72","","","","","","Snow"
"1953-01-11 13:00","1953","01","11","13:00","0.6","","0.0","","97","","36","","29","","25.0","","97.70","","","","","","Cloudy"
"1953-01-11 14:00","1953","01","11","14:00","0.0","","-1.1","","98","","36","","32","","25.0","","97.84","","","","-7","","Cloudy"
"1953-01-11 15:00","1953","01","11","15:00","0.0","","-1.1","","98","","36","","35","","25.0","","97.94","","","","-7","","Cloudy"
"1953-01-11 16:00","1953","01","11","16:00","-2.2","","-3.3","","90","","32","","40","","25.0","","98.10","","","","-10","","Cloudy"
"1953-01-11 17:00","1953","01","11","17:00","-3.3","","-4.4","","89","","34","","40","","25.0","","98.26","","","","-12","","Cloudy"
"1953-01-11 18:00","1953","01","11","18:00","-5.0","","-6.1","","93","","36","","42","","25.0","","98.44","","","","-14","","Cloudy"
"1953-01-11 19:00","1953","01","11","19:00","-5.6","","-6.7","","92","","36","","45","","25.0","","98.55","","","","-15","","Snow Showers"
"1953-01-11 20:00","1953","01","11","20:00","-6.7","","-7.8","","92","","36","","42","","25.0","","98.61","","","","-17","","Cloudy"
"1953-01-11 21:00","1953","01","11","21:00","-6.1","","-7.2","","92","","36","","43","","25.0","","98.76","","","","-16","","Cloudy"
"1953-01-11 22:00","1953","01","11","22:00","-6.1","","-7.2","","93","","34","","35","","25.0","","98.86","","","","-15","","Cloudy"
"1953-01-11 23:00","1953","01","11","23:00","-6.7","","-8.9","","88","","34","","32","","25.0","","99.04","","","","-15","","Cloudy"
"1953-01-12 00:00","1953","01","12","00:00","-7.2","","-10.6","","77","","34","","24","","25.0","","99.19","","","","-15","","Mainly Clear"
"1953-01-12 01:00","1953","01","12","01:00","-7.8","","-10.6","","78","","34","","29","","25.0","","99.24","","","","-17","","Clear"
"1953-01-12 02:00","1953","01","12","02:00","-8.3","","-11.1","","81","","34","","27","","25.0","","99.34","","","","-17","","Clear"
"1953-01-12 03:00","1953","01","12","03:00","-8.3","","-10.6","","83","","34","","26","","25.0","","99.43","","","","-17","","Clear"
"1953-01-12 04:00","1953","01","12","04:00","-8.3","","-10.0","","86","","34","","24","","25.0","","99.48","","","","-16","","Mainly Clear"
"1953-01-12 05:00","1953","01","12","05:00","-8.9","","-10.0","","88","","34","","11","","25.0","","99.56","","","","-14","","Clear"
"1953-01-12 06:00","1953","01","12","06:00","-9.4","","-9.4","","89","","36","","6","","25.0","","99.69","","","","-13","","Clear"
"1953-01-12 07:00","1953","01","12","07:00","-11.1","","-11.7","","92","","27","","6","","25.0","","99.80","","","","-15","","Mainly Clear"
"1953-01-12 08:00","1953","01","12","08:00","-9.4","","-10.6","","89","","32","","11","","25.0","","99.92","","","","-15","","Mainly Clear"
"1953-01-12 09:00","1953","01","12","09:00","-7.8","","-10.0","","84","","27","","3","","25.0","","99.91","","","","-9","","Mainly Clear"
"1953-01-12 10:00","1953","01","12","10:00","-6.1","","-10.0","","77","","25","","3","","25.0","","99.85","","","","-8","","Mainly Clear"
"1953-01-12 11:00","1953","01","12","11:00","-3.9","","-6.7","","81","","25","","5","","24.1","","99.78","","","","-6","","Mainly Clear"
"1953-01-12 12:00","1953","01","12","12:00","-0.6","","-2.8","","84","","23","","16","","25.0","","99.63","","","","-5","","Mainly Clear"
"1953-01-12 13:00","1953","01","12","13:00","-0.6","","-2.2","","89","","23","","26","","25.0","","99.53","","","","-7","","Mainly Clear"
"1953-01-12 14:00","1953","01","12","14:00","-1.1","","-3.3","","85","","23","","19","","25.0","","99.50","","","","-6","","Mostly Cloudy"
"1953-01-12 15:00","1953","01","12","15:00","-1.1","","-2.8","","89","","23","","23","","25.0","","99.46","","","","-7","","Cloudy"
"1953-01-12 16:00","1953","01","12","16:00","-0.6","","-2.2","","89","","23","","24","","25.0","","99.38","","","","-7","","Cloudy"
"1953-01-12 17:00","1953","01","12","17:00","-1.1","","-3.3","","81","","20","","16","","25.0","","99.30","","","","-6","","Cloudy"
"1953-01-12 18:00","1953","01","12","18:00","-1.1","","-3.9","","79","","20","","24","","25.0","","99.22","","","","-7","","Cloudy"
"1953-01-12 19:00","1953","01","12","19:00","-0.6","","-3.3","","78","","20","","21","","25.0","","99.13","","","","-6","","Cloudy"
"1953-01-12 20:00","1953","01","12","20:00","0.6","","-2.2","","79","","20","","29","","25.0","","99.04","","","","","","Cloudy"
"1953-01-12 21:00","1953","01","12","21:00","0.0","","-2.2","","81","","20","","26","","25.0","","98.94","","","","-6","","Mostly Cloudy"
"1953-01-12 22:00","1953","01","12","22:00","0.0","","-2.2","","85","","20","","19","","25.0","","98.93","","","","-5","","Mostly Cloudy"
"1953-01-12 23:00","1953","01","12","23:00","0.0","","-2.2","","85","","20","","19","","25.0","","98.93","","","","-5","","Mainly Clear"
"1953-01-13 00:00","1953","01","13","00:00","-1.1","","-3.9","","78","","20","","16","","25.0","","98.80","","","","-6","","Mainly Clear"
"1953-01-13 01:00","1953","01","13","01:00","-0.6","","-3.3","","78","","20","","16","","24.1","","98.77","","","","-5","","Cloudy"
"1953-01-13 02:00","1953","01","13","02:00","0.0","","-2.2","","82","","18","","11","","25.0","","98.75","","","","-4","","Cloudy"
"1953-01-13 03:00","1953","01","13","03:00","0.6","","-2.2","","80","","23","","16","","25.0","","98.70","","","","","","Cloudy"
"1953-01-13 04:00","1953","01","13","04:00","1.1","","-1.7","","81","","23","","19","","25.0","","98.67","","","","","","Cloudy"
"1953-01-13 05:00","1953","01","13","05:00","1.1","","-1.1","","86","","23","","16","","25.0","","98.63","","","","","","Cloudy"
"1953-01-13 06:00","1953","01","13","06:00","1.1","","-0.6","","88","","23","","11","","25.0","","98.64","","","","","","Cloudy"
"1953-01-13 07:00","1953","01","13","07:00","1.1","","0.6","","97","","23","","14","","25.0","","98.71","","","","","","Cloudy"
"1953-01-13 08:00","1953","01","13","08:00","1.1","","1.1","","100","","25","","16","","24.1","","98.85","","","","","","Mostly Cloudy"
"1953-01-13 09:00","1953","01","13","09:00","0.6","","0.6","","100","","25","","10","","24.1","","98.93","","","","","","Mainly Clear"
"1953-01-13 10:00","1953","01","13","10:00","2.2","","0.0","","86","","25","","13","","24.1","","98.98","","","","","","Clear"
"1953-01-13 11:00","1953","01","13","11:00","3.3","","1.1","","86","","27","","16","","24.1","","99.04","","","","","","Clear"
"1953-01-13 12:00","1953","01","13","12:00","3.3","","0.6","","83","","27","","19","","24.1","","99.04","","","","","","Mainly Clear"
"1953-01-13 13:00","1953","01","13","13:00","3.9","","0.6","","81","","27","","16","","25.0","","99.05","","","","","","Clear"
"1953-01-13 14:00","1953","01","13","14:00","4.4","","1.7","","87","","27","","16","","25.0","","99.13","","","","","","Clear"
"1953-01-13 15:00","1953","01","13","15:00","3.9","","1.7","","86","","29","","16","","24.1","","99.38","","","","","","Mostly Cloudy"
"1953-01-13 16:00","1953","01","13","16:00","3.3","","1.7","","89","","27","","16","","24.1","","99.36","","","","","","Mostly Cloudy"
"1953-01-13 17:00","1953","01","13","17:00","2.2","","1.1","","91","","27","","13","","25.0","","99.47","","","","","","Mainly Clear"
"1953-01-13 18:00","1953","01","13","18:00","1.1","","0.0","","90","","27","","11","","25.0","","99.59","","","","","","Mainly Clear"
"1953-01-13 19:00","1953","01","13","19:00","1.1","","-0.6","","88","","27","","26","","25.0","","99.61","","","","","","Mainly Clear"
"1953-01-13 20:00","1953","01","13","20:00","0.6","","0.0","","90","","27","","8","","25.0","","99.76","","","","","","Clear"
"1953-01-13 21:00","1953","01","13","21:00","-1.1","","-1.7","","93","","27","","10","","25.0","","99.86","","","","-5","","Clear"
"1953-01-13 22:00","1953","01","13","22:00","-1.1","","-1.1","","100","","32","","5","","6.4","","99.89","","","","-3","","Fog"
"1953-01-13 23:00","1953","01","13","23:00","-1.1","","-1.7","","96","","34","","5","","9.7","","99.86","","","","-3","","Fog"
"1953-01-14 00:00","1953","01","14","00:00","-2.8","","-3.9","","94","","32","","5","","16.1","","99.90","","","","-5","","Clear"
"1953-01-14 01:00","1953","01","14","01:00","-2.2","","-2.8","","94","","23","","5","","9.7","","99.92","","","","-4","","Fog"
"1953-01-14 02:00","1953","01","14","02:00","-4.4","","-5.0","","95","","25","","3","","4.8","","99.99","","","","-6","","Fog"
"1953-01-14 03:00","1953","01","14","03:00","-3.9","","-3.9","","99","","34","","3","","4.0","","100.06","","","","-5","","Fog"
"1953-01-14 04:00","1953","01","14","04:00","-5.0","","-6.1","","93","","36","","2","","4.0","","100.05","","","","-6","","Fog"
"1953-01-14 05:00","1953","01","14","05:00","-5.0","","-6.1","","93","","2","","10","","4.0","","100.01","","","","-9","","Fog"
"1953-01-14 06:00","1953","01","14","06:00","-4.4","","-4.4","","100","","32","","2","","4.0","","100.04","","","","-5","","Fog"
"1953-01-14 07:00","1953","01","14","07:00","-2.8","","-3.3","","94","","5","","5","","4.8","","100.06","","","","-5","","Fog"
"1953-01-14 08:00","1953","01","14","08:00","-2.2","","-2.8","","96","","2","","3","","4.0","","100.12","","","","-3","","Fog"
"1953-01-14 09:00","1953","01","14","09:00","-1.1","","-1.7","","95","","","","0","","2.4","","100.17","","","","","","Fog"
"1953-01-14 10:00","1953","01","14","10:00","1.1","","1.1","","100","","5","","3","","2.0","","100.15","","","","","","Rain,Fog"
"1953-01-14 11:00","1953","01","14","11:00","1.7","","1.7","","100","","","","0","","1.2","","100.06","","","","","","Fog"
"1953-01-14 12:00","1953","01","14","12:00","2.2","","0.6","","93","","14","","8","","1.2","","99.95","","","","","","Fog"
"1953-01-14 13:00","1953","01","14","13:00","3.3","","1.1","","87","","11","","8","","2.4","","99.91","","","","","","Fog"
"1953-01-14 14:00","1953","01","14","14:00","5.0","","3.3","","93","","11","","6","","3.6","","99.84","","","","","","Fog"
"1953-01-14 15:00","1953","01","14","15:00","3.9","","1.1","","87","","16","","3","","3.2","","99.84","","","","","","Fog"
"1953-01-14 16:00","1953","01","14","16:00","3.3","","2.8","","91","","9","","3","","2.4","","99.86","","","","","","Fog"
"1953-01-14 17:00","1953","01","14","17:00","2.8","","2.2","","91","","7","","10","","2.4","","99.64","","","","","","Fog"
"1953-01-14 18:00","1953","01","14","18:00","3.3","","2.8","","91","","","","0","","2.4","","99.70","","","","","","Fog"
"1953-01-14 19:00","1953","01","14","19:00","3.3","","2.8","","96","","9","","3","","2.4","","99.67","","","","","","Fog"
"1953-01-14 20:00","1953","01","14","20:00","2.8","","2.2","","93","","","","0","","2.4","","99.67","","","","","","Fog"
"1953-01-14 21:00","1953","01","14","21:00","2.2","","1.7","","95","","","","0","","2.4","","99.71","","","","","","Rain,Fog"
"1953-01-14 22:00","1953","01","14","22:00","2.2","","1.7","","95","","","","0","","2.4","","99.69","","","","","","Rain,Fog"
"1953-01-14 23:00","1953","01","14","23:00","2.8","","1.7","","95","","","","0","","2.4","","99.70","","","","","","Fog"
"1953-01-15 00:00","1953","01","15","00:00","3.3","","2.2","","93","","16","","8","","3.2","","99.71","","","","","","Fog"
"1953-01-15 01:00","1953","01","15","01:00","3.3","","2.2","","92","","16","","8","","3.2","","99.73","","","","","","Fog"
"1953-01-15 02:00","1953","01","15","02:00","3.3","","2.2","","91","","16","","5","","3.2","","99.77","","","","","","Rain,Fog"
"1953-01-15 03:00","1953","01","15","03:00","3.3","","2.8","","97","","16","","3","","3.2","","99.78","","","","","","Fog"
"1953-01-15 04:00","1953","01","15","04:00","4.4","","3.9","","97","","18","","8","","3.2","","99.78","","","","","","Fog"
"1953-01-15 05:00","1953","01","15","05:00","3.9","","3.3","","98","","18","","8","","3.2","","99.77","","","","","","Fog"
"1953-01-15 06:00","1953","01","15","06:00","4.4","","3.9","","96","","18","","6","","3.2","","99.80","","","","","","Fog"
"1953-01-15 07:00","1953","01","15","07:00","5.0","","3.9","","96","","18","","3","","3.2","","99.83","","","","","","Fog"
"1953-01-15 08:00","1953","01","15","08:00","5.0","","3.9","","93","","16","","8","","3.2","","99.86","","","","","","Fog"
"1953-01-15 09:00","1953","01","15","09:00","5.0","","3.3","","88","","18","","8","","4.8","","99.90","","","","","","Fog,Smoke"
"1953-01-15 10:00","1953","01","15","10:00","5.6","","4.4","","92","","18","","5","","6.4","","99.87","","","","","","Fog"
"1953-01-15 11:00","1953","01","15","11:00","6.1","","5.6","","96","","20","","3","","8.0","","99.83","","","","","","Fog"
"1953-01-15 12:00","1953","01","15","12:00","6.7","","5.6","","93","","20","","6","","12.9","","99.71","","","","","","Cloudy"
"1953-01-15 13:00","1953","01","15","13:00","7.8","","6.1","","89","","18","","13","","16.1","","99.64","","","","","","Cloudy"
"1953-01-15 14:00","1953","01","15","14:00","7.8","","6.1","","89","","20","","10","","16.1","","99.54","","","","","","Cloudy"
"1953-01-15 15:00","1953","01","15","15:00","9.4","","7.2","","86","","18","","13","","16.1","","99.51","","","","","","Mostly Cloudy"
"1953-01-15 16:00","1953","01","15","16:00","9.4","","6.7","","85","","20","","13","","8.0","","99.44","","","","","","Haze"
"1953-01-15 17:00","1953","01","15","17:00","7.8","","5.6","","86","","20","","16","","6.4","","99.40","","","","","","Haze"
"1953-01-15 18:00","1953","01","15","18:00","7.2","","5.6","","89","","20","","19","","6.4","","99.32","","","","","","Haze"
"1953-01-15 19:00","1953","01","15","19:00","8.3","","6.1","","86","","18","","29","","6.4","","99.28","","","","","","Haze"
"1953-01-15 20:00","1953","01","15","20:00","9.4","","7.8","","90","","18","","24","","16.1","","99.17","","","","","","Cloudy"
"1953-01-15 21:00","1953","01","15","21:00","10.0","","7.2","","83","","16","","24","","16.1","","99.07","","","","","","Cloudy"
"1953-01-15 22:00","1953","01","15","22:00","10.6","","6.7","","78","","16","","24","","16.1","","99.00","","","","","","Rain"
"1953-01-15 23:00","1953","01","15","23:00","8.9","","6.7","","85","","18","","19","","9.7","","98.91","","","","","","Rain"
"1953-01-16 00:00","1953","01","16","00:00","8.9","","6.1","","85","","20","","14","","16.1","","98.73","","","","","","Rain"
"1953-01-16 01:00","1953","01","16","01:00","8.9","","7.2","","90","","23","","32","","6.4","","98.70","","","","","","Rain Showers"
"1953-01-16 02:00","1953","01","16","02:00","10.0","","7.8","","88","","23","","29","","19.3","","98.57","","","","","","Cloudy"
"1953-01-16 03:00","1953","01","16","03:00","10.0","","8.3","","89","","23","","45","","25.0","","98.56","","","","","","Mainly Clear"
"1953-01-16 04:00","1953","01","16","04:00","6.7","","3.3","","81","","27","","55","","25.0","","98.71","","","","","","Mainly Clear"
"1953-01-16 05:00","1953","01","16","05:00","2.8","","0.6","","87","","27","","53","","25.0","","98.85","","","","","","Cloudy"
"1953-01-16 06:00","1953","01","16","06:00","2.2","","0.0","","84","","27","","51","","25.0","","98.93","","","","","","Mostly Cloudy"
"1953-01-16 07:00","1953","01","16","07:00","-1.1","","-3.3","","83","","29","","51","","25.0","","99.46","","","","-10","","Snow Showers"
"1953-01-16 08:00","1953","01","16","08:00","-2.8","","-5.0","","84","","29","","51","","19.3","","99.71","","","","-12","","Snow Showers"
"1953-01-16 09:00","1953","01","16","09:00","-3.3","","-6.1","","79","","29","","42","","24.1","","100.04","","","","-12","","Mostly Cloudy"
"1953-01-16 10:00","1953","01","16","10:00","-5.0","","-7.8","","79","","34","","32","","19.3","","100.29","","","","-13","","Snow Showers"
"1953-01-16 11:00","1953","01","16","11:00","-5.6","","-8.9","","77","","34","","27","","19.3","","100.44","","","","-13","","Snow Showers"
"1953-01-16 12:00","1953","01","16","12:00","-5.6","","-8.3","","77","","34","","21","","16.1","","100.53","","","","-12","","Snow Showers"
"1953-01-16 13:00","1953","01","16","13:00","-5.6","","-8.3","","78","","32","","24","","25.0","","100.57","","","","-13","","Snow Showers"
"1953-01-16 14:00","1953","01","16","14:00","-5.6","","-7.2","","86","","36","","27","","25.0","","100.59","","","","-13","","Snow Showers"
"1953-01-16 15:00","1953","01","16","15:00","-5.6","","-7.8","","90","","34","","24","","25.0","","100.79","","","","-13","","Snow Showers"
"1953-01-16 16:00","1953","01","16","16:00","-6.1","","-8.3","","90","","2","","19","","25.0","","100.86","","","","-13","","Mainly Clear"
"1953-01-16 17:00","1953","01","16","17:00","-7.2","","-8.9","","92","","2","","23","","24.1","","101.00","","","","-15","","Mainly Clear"
"1953-01-16 18:00","1953","01","16","18:00","-8.3","","-10.0","","86","","36","","19","","24.1","","101.11","","","","-16","","Mainly Clear"
"1953-01-16 19:00","1953","01","16","19:00","-8.3","","-9.4","","90","","36","","16","","19.3","","101.19","","","","-15","","Mainly Clear"
"1953-01-16 20:00","1953","01","16","20:00","-8.9","","-10.6","","86","","2","","14","","19.3","","101.23","","","","-15","","Clear"
"1953-01-16 21:00","1953","01","16","21:00","-9.4","","-11.1","","91","","36","","16","","19.3","","101.22","","","","-16","","Clear"
"1953-01-16 22:00","1953","01","16","22:00","-10.0","","-11.7","","85","","36","","3","","19.3","","101.26","","","","-12","","Clear"
"1953-01-16 23:00","1953","01","16","23:00","-10.0","","-11.7","","83","","2","","3","","24.1","","101.22","","","","-12","","Clear"
"1953-01-17 00:00","1953","01","17","00:00","-10.6","","-12.2","","86","","36","","3","","25.0","","101.23","","","","-12","","Clear"
"1953-01-17 01:00","1953","01","17","01:00","-11.1","","-13.3","","86","","2","","3","","25.0","","101.21","","","","-13","","Clear"
"1953-01-17 02:00","1953","01","17","02:00","-11.1","","-12.8","","86","","5","","10","","25.0","","101.21","","","","-17","","Clear"
"1953-01-17 03:00","1953","01","17","03:00","-11.1","","-13.3","","84","","5","","6","","25.0","","101.20","","","","-15","","Clear"
"1953-01-17 04:00","1953","01","17","04:00","-11.1","","-13.3","","82","","36","","3","","25.0","","101.17","","","","-13","","Clear"
"1953-01-17 05:00","1953","01","17","05:00","-11.1","","-13.9","","78","","2","","6","","25.0","","101.04","","","","-15","","Mostly Cloudy"
"1953-01-17 06:00","1953","01","17","06:00","-10.0","","-12.2","","81","","5","","3","","25.0","","101.02","","","","-12","","Snow Showers"
"1953-01-17 07:00","1953","01","17","07:00","-9.4","","-11.1","","86","","5","","10","","25.0","","100.92","","","","-15","","Snow Showers"
"1953-01-17 08:00","1953","01","17","08:00","-7.8","","-9.4","","87","","14","","19","","16.1","","100.89","","","","-15","","Mostly Cloudy"
"1953-01-17 09:00","1953","01","17","09:00","-5.6","","-7.2","","86","","16","","23","","16.1","","100.87","","","","-13","","Mostly Cloudy"
"1953-01-17 10:00","1953","01","17","10:00","-5.0","","-7.8","","79","","14","","26","","24.1","","100.64","","","","-12","","Cloudy"
"1953-01-17 11:00","1953","01","17","11:00","-4.4","","-7.2","","80","","11","","23","","25.0","","100.53","","","","-11","","Cloudy"
"1953-01-17 12:00","1953","01","17","12:00","0.6","","-0.6","","90","","23","","26","","24.1","","98.88","","","","","","Cloudy"
"1953-01-17 13:00","1953","01","17","13:00","-3.3","","-5.6","","81","","11","","19","","25.0","","100.16","","","","-9","","Cloudy"
"1953-01-17 14:00","1953","01","17","14:00","-2.8","","-5.0","","82","","11","","19","","25.0","","99.94","","","","-9","","Cloudy"
"1953-01-17 15:00","1953","01","17","15:00","-2.2","","-4.4","","82","","11","","23","","6.4","","99.80","","","","-8","","Snow"
"1953-01-17 16:00","1953","01","17","16:00","-2.2","","-4.4","","82","","11","","21","","1.6","","99.64","","","","-8","","Snow"
"1953-01-17 17:00","1953","01","17","17:00","-2.2","","-4.4","","82","","14","","23","","3.2","","99.45","","","","-8","","Freezing Rain"
"1953-01-17 18:00","1953","01","17","18:00","-1.7","","-2.2","","88","","9","","16","","16.1","","99.25","","","","-7","","Freezing Rain"
"1953-01-17 19:00","1953","01","17","19:00","-1.1","","-1.7","","97","","9","","16","","16.1","","99.14","","","","-6","","Freezing Rain"
"1953-01-17 20:00","1953","01","17","20:00","-0.6","","-1.1","","94","","11","","19","","8.0","","98.74","","","","-6","","Freezing Rain"
"1953-01-17 21:00","1953","01","17","21:00","0.0","","-2.2","","84","","11","","23","","6.4","","98.54","","","","-6","","Freezing Rain"
"1953-01-17 22:00","1953","01","17","22:00","0.6","","0.0","","95","","11","","19","","6.4","","98.33","","","","","","Freezing Rain"
"1953-01-17 23:00","1953","01","17","23:00","1.1","","0.6","","96","","14","","19","","2.4","","98.20","","","","","","Rain,Fog"
"1953-01-18 00:00","1953","01","18","00:00","2.2","","2.2","","99","","16","","24","","0.8","","98.04","","","","","","Drizzle,Fog"
"1953-01-18 01:00","1953","01","18","01:00","3.3","","3.3","","98","","23","","24","","12.9","","98.04","","","","","","Cloudy"
"1953-01-18 02:00","1953","01","18","02:00","3.3","","2.2","","92","","25","","45","","25.0","","98.16","","","","","","Cloudy"
"1953-01-18 03:00","1953","01","18","03:00","2.2","","1.1","","90","","23","","48","","25.0","","98.24","","","","","","Cloudy"
"1953-01-18 04:00","1953","01","18","04:00","1.7","","0.6","","89","","25","","55","","25.0","","98.30","","","","","","Cloudy"
"1953-01-18 05:00","1953","01","18","05:00","1.7","","-1.1","","81","","25","","48","","25.0","","98.34","","","","","","Cloudy"
"1953-01-18 06:00","1953","01","18","06:00","1.7","","-1.1","","80","","25","","40","","25.0","","98.48","","","","","","Cloudy"
"1953-01-18 07:00","1953","01","18","07:00","1.1","","-1.1","","86","","25","","37","","25.0","","98.59","","","","","","Cloudy"
"1953-01-18 08:00","1953","01","18","08:00","1.1","","-1.1","","88","","25","","31","","25.0","","98.77","","","","","","Cloudy"
"1953-01-18 09:00","1953","01","18","09:00","1.1","","-1.1","","86","","25","","26","","25.0","","98.86","","","","","","Cloudy"
"1953-01-18 10:00","1953","01","18","10:00","0.6","","-1.7","","85","","25","","26","","25.0","","98.90","","","","","","Cloudy"
"1953-01-18 11:00","1953","01","18","11:00","0.6","","-1.7","","85","","25","","29","","25.0","","98.88","","","","","","Cloudy"
"1953-01-18 12:00","1953","01","18","12:00","0.6","","-0.6","","90","","23","","26","","24.1","","98.88","","","","","","Cloudy"
"1953-01-18 13:00","1953","01","18","13:00","0.6","","-1.7","","85","","23","","23","","24.1","","98.72","","","","","","Cloudy"
"1953-01-18 14:00","1953","01","18","14:00","1.1","","-1.1","","86","","23","","23","","24.1","","98.66","","","","","","Cloudy"
"1953-01-18 15:00","1953","01","18","15:00","1.7","","-0.6","","86","","23","","23","","24.1","","98.65","","","","","","Cloudy"
"1953-01-18 16:00","1953","01","18","16:00","2.2","","1.1","","91","","23","","29","","24.1","","98.65","","","","","","Cloudy"
"1953-01-18 17:00","1953","01","18","17:00","2.2","","1.7","","91","","23","","29","","16.1","","98.63","","","","","","Cloudy"
"1953-01-18 18:00","1953","01","18","18:00","1.7","","0.6","","91","","20","","16","","25.0","","98.61","","","","","","Cloudy"
"1953-01-18 19:00","1953","01","18","19:00","2.2","","0.0","","86","","20","","16","","16.1","","98.61","","","","","","Cloudy"
"1953-01-18 20:00","1953","01","18","20:00","2.8","","0.6","","87","","23","","19","","25.0","","98.61","","","","","","Cloudy"
"1953-01-18 21:00","1953","01","18","21:00","2.2","","0.0","","86","","25","","35","","25.0","","98.64","","","","","","Cloudy"
"1953-01-18 22:00","1953","01","18","22:00","1.7","","-0.6","","86","","25","","23","","25.0","","98.70","","","","","","Cloudy"
"1953-01-18 23:00","1953","01","18","23:00","1.7","","0.6","","91","","27","","35","","25.0","","98.73","","","","","","Cloudy"
"1953-01-19 00:00","1953","01","19","00:00","1.1","","-1.1","","83","","27","","35","","25.0","","98.76","","","","","","Cloudy"
"1953-01-19 01:00","1953","01","19","01:00","1.1","","-1.7","","79","","27","","39","","25.0","","98.80","","","","","","Cloudy"
"1953-01-19 02:00","1953","01","19","02:00","0.0","","-2.8","","80","","27","","29","","25.0","","98.91","","","","-6","","Cloudy"
"1953-01-19 03:00","1953","01","19","03:00","0.0","","-2.8","","81","","29","","29","","25.0","","98.97","","","","-6","","Cloudy"
"1953-01-19 04:00","1953","01","19","04:00","0.0","","-2.8","","81","","27","","19","","25.0","","98.97","","","","-5","","Cloudy"
"1953-01-19 05:00","1953","01","19","05:00","0.0","","-2.8","","81","","27","","19","","25.0","","98.98","","","","-5","","Cloudy"
"1953-01-19 06:00","1953","01","19","06:00","0.0","","-2.8","","80","","27","","16","","25.0","","99.04","","","","-5","","Cloudy"
"1953-01-19 07:00","1953","01","19","07:00","0.0","","-3.3","","77","","29","","18","","25.0","","99.07","","","","-5","","Cloudy"
"1953-01-19 08:00","1953","01","19","08:00","0.0","","-3.3","","77","","29","","14","","19.3","","99.08","","","","-4","","Cloudy"
"1953-01-19 09:00","1953","01","19","09:00","0.0","","-2.8","","79","","27","","13","","19.3","","99.18","","","","-4","","Cloudy"
"1953-01-19 10:00","1953","01","19","10:00","0.6","","-2.8","","76","","27","","13","","19.3","","99.21","","","","","","Cloudy"
"1953-01-19 11:00","1953","01","19","11:00","0.6","","-2.8","","75","","25","","10","","19.3","","99.19","","","","","","Cloudy"
"1953-01-19 12:00","1953","01","19","12:00","1.1","","-1.7","","81","","27","","8","","25.0","","99.08","","","","","","Cloudy"
"1953-01-19 13:00","1953","01","19","13:00","1.1","","-1.7","","79","","29","","6","","25.0","","99.03","","","","","","Cloudy"
"1953-01-19 14:00","1953","01","19","14:00","1.1","","-2.2","","77","","23","","8","","25.0","","99.03","","","","","","Cloudy"
"1953-01-19 15:00","1953","01","19","15:00","0.6","","-1.7","","87","","20","","10","","25.0","","99.07","","","","","","Cloudy"
"1953-01-19 16:00","1953","01","19","16:00","0.6","","0.0","","85","","20","","3","","25.0","","99.00","","","","","","Cloudy"
"1953-01-19 17:00","1953","01","19","17:00","0.6","","-1.1","","88","","23","","3","","12.9","","99.05","","","","","","Cloudy"
"1953-01-19 18:00","1953","01","19","18:00","0.0","","-2.2","","84","","23","","3","","16.1","","99.06","","","","-1","","Cloudy"
"1953-01-19 19:00","1953","01","19","19:00","0.0","","-2.2","","84","","18","","3","","16.1","","99.07","","","","-1","","Cloudy"
"1953-01-19 20:00","1953","01","19","20:00","0.0","","-2.2","","84","","18","","3","","12.9","","99.11","","","","-1","","Cloudy"
"1953-01-19 21:00","1953","01","19","21:00","0.0","","-1.1","","89","","18","","3","","12.9","","99.11","","","","-1","","Mostly Cloudy"
"1953-01-19 22:00","1953","01","19","22:00","0.0","","-1.1","","89","","20","","10","","12.9","","99.11","","","","-3","","Snow"
"1953-01-19 23:00","1953","01","19","23:00","-0.6","","-2.2","","89","","23","","6","","12.9","","99.11","","","","-3","","Mostly Cloudy"
"1953-01-20 00:00","1953","01","20","00:00","-0.6","","-2.8","","86","","34","","6","","12.9","","99.08","","","","-3","","Mainly Clear"
"1953-01-20 01:00","1953","01","20","01:00","-1.1","","-2.8","","89","","34","","6","","11.3","","99.09","","","","-3","","Clear"
"1953-01-20 02:00","1953","01","20","02:00","-2.2","","-3.9","","91","","32","","10","","11.3","","99.17","","","","-6","","Clear"
"1953-01-20 03:00","1953","01","20","03:00","-2.8","","-4.4","","89","","29","","6","","16.1","","99.21","","","","-5","","Clear"
"1953-01-20 04:00","1953","01","20","04:00","-3.3","","-4.4","","91","","27","","3","","25.0","","99.20","","","","-5","","Clear"
"1953-01-20 05:00","1953","01","20","05:00","-2.8","","-4.4","","88","","32","","8","","25.0","","99.23","","","","-6","","Mainly Clear"
"1953-01-20 06:00","1953","01","20","06:00","-2.2","","-3.3","","91","","34","","8","","25.0","","99.27","","","","-5","","Mostly Cloudy"
"1953-01-20 07:00","1953","01","20","07:00","-2.2","","-3.9","","83","","32","","3","","25.0","","99.33","","","","-3","","Mostly Cloudy"
"1953-01-20 08:00","1953","01","20","08:00","-2.8","","-4.4","","88","","27","","3","","16.1","","99.42","","","","-4","","Mostly Cloudy"
"1953-01-20 09:00","1953","01","20","09:00","-1.7","","-3.9","","80","","25","","3","","12.9","","99.56","","","","-3","","Cloudy"
"1953-01-20 10:00","1953","01","20","10:00","-0.6","","-1.7","","94","","25","","5","","16.1","","99.64","","","","-2","","Cloudy"
"1953-01-20 11:00","1953","01","20","11:00","0.6","","-1.1","","89","","2","","3","","19.3","","99.61","","","","","","Cloudy"
"1953-01-20 12:00","1953","01","20","12:00","0.6","","-1.1","","89","","36","","10","","19.3","","99.60","","","","","","Cloudy"
"1953-01-20 13:00","1953","01","20","13:00","0.6","","-1.1","","87","","36","","8","","19.3","","99.60","","","","","","Cloudy"
"1953-01-20 14:00","1953","01","20","14:00","1.1","","-1.7","","81","","36","","10","","25.0","","99.60","","","","","","Cloudy"
"1953-01-20 15:00","1953","01","20","15:00","0.0","","-1.7","","89","","36","","11","","25.0","","99.62","","","","-4","","Mostly Cloudy"
"1953-01-20 16:00","1953","01","20","16:00","0.0","","-2.2","","85","","2","","10","","25.0","","99.60","","","","-3","","Mostly Cloudy"
"1953-01-20 17:00","1953","01","20","17:00","0.0","","-2.2","","84","","2","","11","","25.0","","99.66","","","","-4","","Mainly Clear"
"1953-01-20 18:00","1953","01","20","18:00","-0.6","","-2.2","","89","","2","","6","","25.0","","99.68","","","","-3","","Mainly Clear"
"1953-01-20 19:00","1953","01","20","19:00","-1.1","","-2.8","","89","","2","","6","","25.0","","99.72","","","","-3","","Clear"
"1953-01-20 20:00","1953","01","20","20:00","-2.2","","-2.8","","94","","2","","5","","25.0","","99.74","","","","-4","","Clear"
"1953-01-20 21:00","1953","01","20","21:00","-2.2","","-2.8","","94","","36","","10","","25.0","","99.74","","","","-6","","Clear"
"1953-01-20 22:00","1953","01","20","22:00","-3.9","","-4.4","","95","","36","","5","","25.0","","99.74","","","","-6","","Clear"
"1953-01-20 23:00","1953","01","20","23:00","-6.1","","-6.7","","94","","36","","6","","25.0","","99.68","","","","-9","","Clear"
"1953-01-21 00:00","1953","01","21","00:00","-5.0","","-6.1","","94","","36","","6","","25.0","","99.62","","","","-8","","Clear"
"1953-01-21 01:00","1953","01","21","01:00","-5.0","","-6.7","","87","","5","","10","","25.0","","99.61","","","","-9","","Clear"
"1953-01-21 02:00","1953","01","21","02:00","-4.4","","-5.0","","93","","5","","11","","19.3","","99.61","","","","-9","","Clear"
"1953-01-21 03:00","1953","01","21","03:00","-3.9","","-5.0","","91","","7","","14","","19.3","","99.56","","","","-9","","Cloudy"
"1953-01-21 04:00","1953","01","21","04:00","-3.9","","-5.0","","91","","7","","14","","19.3","","99.51","","","","-9","","Mainly Clear"
"1953-01-21 05:00","1953","01","21","05:00","-3.9","","-5.0","","91","","7","","16","","19.3","","99.43","","","","-9","","Mainly Clear"
"1953-01-21 06:00","1953","01","21","06:00","-4.4","","-6.1","","90","","7","","11","","19.3","","99.51","","","","-9","","Mostly Cloudy"
"1953-01-21 07:00","1953","01","21","07:00","-3.9","","-5.6","","88","","7","","10","","19.3","","99.52","","","","-8","","Cloudy"
"1953-01-21 08:00","1953","01","21","08:00","-3.3","","-5.0","","88","","5","","10","","16.1","","99.52","","","","-7","","Cloudy"
"1953-01-21 09:00","1953","01","21","09:00","-3.3","","-5.0","","87","","5","","10","","16.1","","99.53","","","","-7","","Mostly Cloudy"
"1953-01-21 10:00","1953","01","21","10:00","-1.7","","-3.3","","87","","5","","11","","16.1","","99.55","","","","-6","","Cloudy"
"1953-01-21 11:00","1953","01","21","11:00","-1.1","","-2.8","","89","","7","","11","","16.1","","99.53","","","","-5","","Cloudy"
"1953-01-21 12:00","1953","01","21","12:00","-0.6","","-2.8","","84","","7","","10","","16.1","","99.43","","","","-4","","Cloudy"
"1953-01-21 13:00","1953","01","21","13:00","0.6","","-1.7","","85","","7","","8","","12.9","","99.39","","","","","","Cloudy"
"1953-01-21 14:00","1953","01","21","14:00","0.6","","-0.6","","90","","5","","8","","12.9","","99.39","","","","","","Cloudy"
"1953-01-21 15:00","1953","01","21","15:00","0.0","","-0.6","","95","","5","","8","","12.9","","99.44","","","","-3","","Cloudy"
"1953-01-21 16:00","1953","01","21","16:00","0.0","","-1.1","","87","","36","","10","","12.9","","99.49","","","","-3","","Cloudy"
"1953-01-21 17:00","1953","01","21","17:00","0.0","","-2.2","","85","","36","","13","","12.9","","99.52","","","","-4","","Cloudy"
"1953-01-21 18:00","1953","01","21","18:00","-0.6","","-2.2","","89","","34","","18","","16.1","","99.64","","","","-6","","Cloudy"
"1953-01-21 19:00","1953","01","21","19:00","-0.6","","-3.3","","77","","2","","10","","16.1","","99.68","","","","-4","","Mainly Clear"
"1953-01-21 20:00","1953","01","21","20:00","-1.1","","-2.8","","89","","34","","3","","16.1","","99.62","","","","-2","","Mainly Clear"
"1953-01-21 21:00","1953","01","21","21:00","-2.2","","-2.8","","92","","32","","8","","16.1","","99.74","","","","-5","","Mainly Clear"
"1953-01-21 22:00","1953","01","21","22:00","-2.2","","-2.8","","95","","34","","6","","16.1","","99.76","","","","-5","","Mostly Cloudy"
"1953-01-21 23:00","1953","01","21","23:00","-1.7","","-1.7","","99","","34","","6","","19.3","","99.77","","","","-4","","Cloudy"
"1953-01-22 00:00","1953","01","22","00:00","-1.1","","-2.2","","94","","34","","10","","19.3","","99.92","","","","-5","","Cloudy"
"1953-01-22 01:00","1953","01","22","01:00","-1.1","","-2.8","","89","","34","","13","","16.1","","99.92","","","","-5","","Cloudy"
"1953-01-22 02:00","1953","01","22","02:00","-1.7","","-2.2","","94","","32","","10","","16.1","","99.92","","","","-5","","Mostly Cloudy"
"1953-01-22 03:00","1953","01","22","03:00","-2.2","","-2.8","","94","","34","","13","","16.1","","100.00","","","","-7","","Mostly Cloudy"
"1953-01-22 04:00","1953","01","22","04:00","-2.8","","-3.3","","94","","34","","10","","16.1","","100.01","","","","-7","","Clear"
"1953-01-22 05:00","1953","01","22","05:00","-3.3","","-3.9","","94","","2","","10","","16.1","","100.01","","","","-7","","Clear"
"1953-01-22 06:00","1953","01","22","06:00","-3.9","","-4.4","","94","","36","","3","","25.0","","100.03","","","","-5","","Clear"
"1953-01-22 07:00","1953","01","22","07:00","-4.4","","-5.0","","93","","34","","3","","25.0","","100.10","","","","-6","","Mainly Clear"
"1953-01-22 08:00","1953","01","22","08:00","-4.4","","-4.4","","97","","29","","3","","9.7","","100.13","","","","-6","","Haze"
"1953-01-22 09:00","1953","01","22","09:00","-1.7","","-1.7","","97","","2","","3","","19.3","","100.16","","","","-3","","Mainly Clear"
"1953-01-22 10:00","1953","01","22","10:00","0.0","","-0.6","","93","","18","","3","","19.3","","100.25","","","","-1","","Mainly Clear"
"1953-01-22 11:00","1953","01","22","11:00","1.1","","-2.2","","80","","16","","3","","16.1","","100.19","","","","","","Cloudy"
"1953-01-22 12:00","1953","01","22","12:00","1.1","","-1.7","","76","","18","","2","","9.7","","100.13","","","","","","Smoke"
"1953-01-22 13:00","1953","01","22","13:00","1.1","","-1.7","","77","","18","","3","","6.4","","100.06","","","","","","Smoke"
"1953-01-22 14:00","1953","01","22","14:00","1.1","","-2.2","","76","","14","","6","","9.7","","100.00","","","","","","Smoke"
"1953-01-22 15:00","1953","01","22","15:00","1.1","","-2.2","","76","","16","","13","","12.9","","100.00","","","","","","Cloudy"
"1953-01-22 16:00","1953","01","22","16:00","0.6","","-2.2","","80","","16","","16","","12.9","","99.99","","","","","","Cloudy"
"1953-01-22 17:00","1953","01","22","17:00","0.6","","-2.2","","80","","16","","6","","12.9","","100.05","","","","","","Mostly Cloudy"
"1953-01-22 18:00","1953","01","22","18:00","0.6","","-1.7","","85","","","","0","","12.9","","100.05","","","","","","Cloudy"
"1953-01-22 19:00","1953","01","22","19:00","0.6","","-0.6","","90","","","","0","","9.7","","100.14","","","","","","Fog"
"1953-01-22 20:00","1953","01","22","20:00","0.6","","-0.6","","88","","14","","6","","9.7","","100.01","","","","","","Fog"
"1953-01-22 21:00","1953","01","22","21:00","1.7","","0.0","","88","","14","","5","","9.7","","99.95","","","","","","Fog"
"1953-01-22 22:00","1953","01","22","22:00","1.7","","-0.6","","86","","11","","3","","9.7","","99.96","","","","","","Fog"
"1953-01-22 23:00","1953","01","22","23:00","1.1","","0.0","","88","","11","","6","","8.0","","99.89","","","","","","Fog"
"1953-01-23 00:00","1953","01","23","00:00","0.0","","-0.6","","95","","2","","3","","8.0","","100.16","","","","-1","","Fog"
"1953-01-23 01:00","1953","01","23","01:00","-0.6","","-1.1","","94","","5","","6","","8.0","","99.88","","","","-3","","Fog"
"1953-01-23 02:00","1953","01","23","02:00","-1.1","","-1.7","","96","","7","","6","","8.0","","99.76","","","","-3","","Fog"
"1953-01-23 03:00","1953","01","23","03:00","-1.1","","-2.2","","94","","7","","3","","8.0","","99.76","","","","-2","","Fog"
"1953-01-23 04:00","1953","01","23","04:00","-1.7","","-2.8","","94","","2","","6","","8.0","","99.72","","","","-4","","Fog"
"1953-01-23 05:00","1953","01","23","05:00","-1.7","","-2.2","","94","","7","","6","","8.0","","99.61","","","","-4","","Fog"
"1953-01-23 06:00","1953","01","23","06:00","-1.7","","-2.2","","94","","7","","6","","8.0","","99.61","","","","-4","","Fog"
"1953-01-23 07:00","1953","01","23","07:00","-1.1","","-1.7","","97","","7","","6","","8.0","","99.60","","","","-3","","Fog"
"1953-01-23 08:00","1953","01","23","08:00","-0.6","","-1.1","","94","","7","","10","","1.6","","99.49","","","","-4","","Fog"
"1953-01-23 09:00","1953","01","23","09:00","0.0","","-0.6","","96","","18","","3","","1.6","","99.49","","","","-1","","Fog,Smoke"
"1953-01-23 10:00","1953","01","23","10:00","0.6","","-0.6","","90","","9","","6","","1.2","","99.38","","","","","","Fog"
"1953-01-23 11:00","1953","01","23","11:00","2.2","","0.0","","95","","11","","10","","1.6","","99.29","","","","","","Fog"
"1953-01-23 12:00","1953","01","23","12:00","2.8","","1.7","","91","","14","","10","","1.6","","99.21","","","","","","Fog"
"1953-01-23 13:00","1953","01","23","13:00","3.3","","1.7","","89","","11","","10","","1.6","","99.12","","","","","","Fog"
"1953-01-23 14:00","1953","01","23","14:00","3.9","","1.7","","86","","14","","10","","1.6","","99.01","","","","","","Fog"
"1953-01-23 15:00","1953","01","23","15:00","3.9","","1.7","","85","","11","","8","","1.6","","99.00","","","","","","Fog,Smoke"
"1953-01-23 16:00","1953","01","23","16:00","3.3","","2.2","","91","","9","","5","","1.6","","98.87","","","","","","Fog,Smoke"
"1953-01-23 17:00","1953","01","23","17:00","1.7","","1.1","","95","","9","","5","","1.6","","98.78","","","","","","Fog,Smoke"
"1953-01-23 18:00","1953","01","23","18:00","1.7","","1.1","","95","","7","","6","","2.0","","98.63","","","","","","Fog"
"1953-01-23 19:00","1953","01","23","19:00","1.7","","1.1","","95","","2","","3","","1.6","","98.60","","","","","","Fog"
"1953-01-23 20:00","1953","01","23","20:00","1.7","","1.7","","98","","","","0","","2.4","","98.54","","","","","","Rain,Fog"
"1953-01-23 21:00","1953","01","23","21:00","2.2","","2.2","","98","","","","0","","2.4","","98.38","","","","","","Rain,Fog"
"1953-01-23 22:00","1953","01","23","22:00","2.2","","1.7","","95","","","","0","","2.4","","98.31","","","","","","Rain,Fog"
"1953-01-23 23:00","1953","01","23","23:00","2.8","","2.8","","100","","9","","5","","1.6","","98.19","","","","","","Rain,Fog"
"1953-01-24 00:00","1953","01","24","00:00","2.8","","2.2","","97","","9","","10","","1.6","","98.05","","","","","","Fog"
"1953-01-24 01:00","1953","01","24","01:00","3.9","","3.9","","98","","9","","10","","1.2","","97.94","","","","","","Fog"
"1953-01-24 02:00","1953","01","24","02:00","4.4","","3.9","","96","","11","","10","","1.6","","97.76","","","","","","Fog"
"1953-01-24 03:00","1953","01","24","03:00","4.4","","3.9","","96","","9","","16","","1.6","","97.63","","","","","","Fog"
"1953-01-24 04:00","1953","01","24","04:00","4.4","","3.9","","96","","11","","2","","0.8","","97.58","","","","","","Rain,Fog"
"1953-01-24 05:00","1953","01","24","05:00","4.4","","4.4","","98","","9","","13","","0.4","","97.42","","","","","","Rain,Fog"
"1953-01-24 06:00","1953","01","24","06:00","5.0","","4.4","","96","","9","","3","","0.4","","97.32","","","","","","Rain,Fog"
"1953-01-24 07:00","1953","01","24","07:00","5.6","","5.6","","100","","9","","10","","0.2","","97.22","","","","","","Rain,Fog"
"1953-01-24 08:00","1953","01","24","08:00","4.4","","4.4","","98","","29","","10","","0.0","","97.03","","","","","","Fog"
"1953-01-24 09:00","1953","01","24","09:00","4.4","","4.4","","98","","5","","5","","0.0","","96.86","","","","","","Fog"
"1953-01-24 10:00","1953","01","24","10:00","3.9","","3.9","","100","","7","","3","","0.0","","96.76","","","","","","Fog"
"1953-01-24 11:00","1953","01","24","11:00","4.4","","4.4","","100","","","","0","","0.0","","96.63","","","","","","Fog"
"1953-01-24 12:00","1953","01","24","12:00","5.6","","5.6","","100","","20","","10","","0.0","","96.50","","","","","","Fog"
"1953-01-24 13:00","1953","01","24","13:00","6.1","","6.1","","100","","18","","14","","0.2","","96.40","","","","","","Rain Showers,Fog"
"1953-01-24 14:00","1953","01","24","14:00","7.2","","7.2","","98","","23","","16","","4.8","","96.34","","","","","","Fog"
"1953-01-24 15:00","1953","01","24","15:00","5.0","","3.9","","93","","27","","29","","19.3","","96.22","","","","","","Mostly Cloudy"
"1953-01-24 16:00","1953","01","24","16:00","3.3","","2.2","","90","","29","","34","","19.3","","96.54","","","","","","Mainly Clear"
"1953-01-24 17:00","1953","01","24","17:00","2.2","","1.1","","92","","32","","35","","24.1","","96.65","","","","","","Cloudy"
"1953-01-24 18:00","1953","01","24","18:00","1.1","","0.0","","89","","29","","40","","25.0","","96.79","","","","","","Cloudy"
"1953-01-24 19:00","1953","01","24","19:00","0.0","","-0.6","","96","","34","","40","","25.0","","96.84","","","","-7","","Cloudy"
"1953-01-24 20:00","1953","01","24","20:00","-1.1","","-2.2","","90","","32","","40","","25.0","","96.95","","","","-9","","Cloudy"
"1953-01-24 21:00","1953","01","24","21:00","-1.7","","-4.4","","81","","32","","42","","25.0","","96.98","","","","-10","","Snow Showers"
"1953-01-24 22:00","1953","01","24","22:00","-3.3","","-5.6","","76","","32","","45","","25.0","","97.03","","","","-12","","Snow Showers"
"1953-01-24 23:00","1953","01","24","23:00","-3.9","","-6.7","","79","","34","","40","","25.0","","97.08","","","","-13","","Ice Crystals,Snow Showers"
"1953-01-25 00:00","1953","01","25","00:00","-4.4","","-7.2","","80","","34","","40","","19.3","","97.13","","","","-13","","Snow Showers"
"1953-01-25 01:00","1953","01","25","01:00","-5.0","","-7.8","","79","","34","","29","","16.1","","97.18","","","","-13","","Snow"
"1953-01-25 02:00","1953","01","25","02:00","-5.6","","-7.2","","86","","32","","29","","16.1","","97.22","","","","-14","","Snow"
"1953-01-25 03:00","1953","01","25","03:00","-5.6","","-6.7","","93","","32","","29","","8.0","","97.28","","","","-14","","Snow"
"1953-01-25 04:00","1953","01","25","04:00","-6.7","","-7.8","","92","","29","","39","","8.0","","97.33","","","","-16","","Snow"
"1953-01-25 05:00","1953","01","25","05:00","-6.7","","-7.8","","92","","32","","29","","16.1","","97.39","","","","-15","","Snow"
"1953-01-25 06:00","1953","01","25","06:00","-6.7","","-8.9","","85","","34","","29","","25.0","","97.50","","","","-15","","Snow"
"1953-01-25 07:00","1953","01","25","07:00","-6.7","","-8.9","","85","","34","","32","","25.0","","97.54","","","","-15","","Cloudy"
"1953-01-25 08:00","1953","01","25","08:00","-7.2","","-7.8","","92","","29","","32","","8.0","","97.68","","","","-16","","Snow"
"1953-01-25 09:00","1953","01","25","09:00","-7.2","","-8.9","","87","","34","","32","","19.3","","97.85","","","","-16","","Snow Showers"
"1953-01-25 10:00","1953","01","25","10:00","-6.7","","-10.6","","73","","32","","32","","19.3","","97.98","","","","-15","","Snow Showers"
"1953-01-25 11:00","1953","01","25","11:00","-6.1","","-10.0","","67","","32","","42","","25.0","","98.07","","","","-16","","Mostly Cloudy"
"1953-01-25 12:00","1953","01","25","12:00","-5.6","","-10.6","","66","","29","","42","","25.0","","98.09","","","","-15","","Mostly Cloudy"
"1953-01-25 13:00","1953","01","25","13:00","-4.4","","-9.4","","66","","32","","45","","25.0","","98.13","","","","-14","","Mostly Cloudy"
"1953-01-25 14:00","1953","01","25","14:00","-5.0","","-10.0","","67","","32","","51","","25.0","","98.24","","","","-15","","Mostly Cloudy"
"1953-01-25 15:00","1953","01","25","15:00","-5.6","","-7.8","","68","","32","","48","","25.0","","98.42","","","","-16","","Mainly Clear"
"1953-01-25 16:00","1953","01","25","16:00","-6.1","","-11.1","","63","","32","","51","","25.0","","98.55","","","","-17","","Mainly Clear"
"1953-01-25 17:00","1953","01","25","17:00","-7.2","","-10.6","","75","","32","","42","","25.0","","98.72","","","","-17","","Mostly Cloudy"
"1953-01-25 18:00","1953","01","25","18:00","-7.8","","-11.1","","74","","32","","48","","25.0","","98.83","","","","-19","","Mostly Cloudy"
"1953-01-25 19:00","1953","01","25","19:00","-7.8","","-10.6","","77","","34","","42","","25.0","","98.95","","","","-18","","Mostly Cloudy"
"1953-01-25 20:00","1953","01","25","20:00","-7.2","","-10.0","","78","","34","","39","","25.0","","99.13","","","","-17","","Snow Showers"
"1953-01-25 21:00","1953","01","25","21:00","-7.8","","-10.0","","84","","34","","48","","25.0","","99.25","","","","-19","","Mainly Clear"
"1953-01-25 22:00","1953","01","25","22:00","-8.9","","-12.2","","76","","34","","42","","25.0","","99.33","","","","-20","","Mainly Clear"
"1953-01-25 23:00","1953","01","25","23:00","-10.0","","-12.8","","77","","36","","39","","25.0","","99.45","","","","-21","","Ice Crystals"
"1953-01-26 00:00","1953","01","26","00:00","-10.6","","-12.2","","90","","36","","32","","25.0","","99.61","","","","-21","","Ice Crystals"
"1953-01-26 01:00","1953","01","26","01:00","-10.6","","-12.8","","80","","34","","29","","25.0","","99.73","","","","-20","","Clear"
"1953-01-26 02:00","1953","01","26","02:00","-11.1","","-13.9","","80","","36","","29","","25.0","","100.01","","","","-21","","Clear"
"1953-01-26 03:00","1953","01","26","03:00","-11.7","","-14.4","","79","","36","","29","","25.0","","100.03","","","","-22","","Clear"
"1953-01-26 04:00","1953","01","26","04:00","-12.2","","-13.9","","87","","36","","19","","25.0","","100.13","","","","-20","","Clear"
"1953-01-26 05:00","1953","01","26","05:00","-12.2","","-13.9","","87","","36","","19","","25.0","","100.29","","","","-20","","Clear"
"1953-01-26 06:00","1953","01","26","06:00","-12.2","","-13.9","","87","","36","","13","","25.0","","100.34","","","","-19","","Clear"
"1953-01-26 07:00","1953","01","26","07:00","-12.2","","-14.4","","82","","36","","13","","25.0","","100.44","","","","-19","","Clear"
"1953-01-26 08:00","1953","01","26","08:00","-12.2","","-14.4","","82","","36","","16","","25.0","","100.53","","","","-20","","Clear"
"1953-01-26 09:00","1953","01","26","09:00","-11.7","","-15.6","","70","","36","","19","","25.0","","100.63","","","","-20","","Clear"
"1953-01-26 10:00","1953","01","26","10:00","-10.6","","-16.1","","61","","36","","11","","25.0","","100.75","","","","-16","","Clear"
"1953-01-26 11:00","1953","01","26","11:00","-8.3","","-16.1","","50","","2","","11","","25.0","","100.78","","","","-14","","Clear"
"1953-01-26 12:00","1953","01","26","12:00","-7.2","","-13.9","","56","","7","","10","","25.0","","100.71","","","","-12","","Clear"
"1953-01-26 13:00","1953","01","26","13:00","-5.6","","-13.3","","52","","7","","6","","25.0","","100.65","","","","-8","","Mainly Clear"
"1953-01-26 14:00","1953","01","26","14:00","-4.4","","-11.7","","53","","16","","6","","9.7","","100.60","","","","-7","","Smoke"
"1953-01-26 15:00","1953","01","26","15:00","-4.4","","-10.6","","60","","16","","13","","16.1","","100.62","","","","-9","","Clear"
"1953-01-26 16:00","1953","01","26","16:00","-6.1","","-10.0","","70","","16","","14","","19.3","","100.57","","","","-12","","Mainly Clear"
"1953-01-26 17:00","1953","01","26","17:00","-6.7","","-8.9","","82","","14","","13","","19.3","","100.55","","","","-12","","Mainly Clear"
"1953-01-26 18:00","1953","01","26","18:00","-6.7","","-8.9","","88","","11","","5","","25.0","","100.59","","","","-9","","Mostly Cloudy"
"1953-01-26 19:00","1953","01","26","19:00","-7.2","","-8.9","","87","","7","","6","","25.0","","100.51","","","","-10","","Cloudy"
"1953-01-26 20:00","1953","01","26","20:00","-6.7","","-8.9","","85","","9","","3","","25.0","","100.46","","","","-8","","Cloudy"
"1953-01-26 21:00","1953","01","26","21:00","-5.0","","-7.8","","80","","11","","14","","25.0","","100.40","","","","-10","","Cloudy"
"1953-01-26 22:00","1953","01","26","22:00","-4.4","","-8.3","","72","","11","","13","","25.0","","100.38","","","","-9","","Cloudy"
"1953-01-26 23:00","1953","01","26","23:00","-4.4","","-7.2","","80","","11","","19","","25.0","","100.27","","","","-11","","Cloudy"
"1953-01-27 00:00","1953","01","27","00:00","-3.9","","-6.7","","81","","11","","19","","25.0","","100.19","","","","-10","","Cloudy"
"1953-01-27 01:00","1953","01","27","01:00","-3.3","","-5.6","","78","","11","","26","","25.0","","100.06","","","","-10","","Cloudy"
"1953-01-27 02:00","1953","01","27","02:00","-2.8","","-5.0","","82","","11","","23","","25.0","","100.04","","","","-9","","Cloudy"
"1953-01-27 03:00","1953","01","27","03:00","-2.8","","-4.4","","88","","11","","26","","25.0","","99.82","","","","-10","","Cloudy"
"1953-01-27 04:00","1953","01","27","04:00","-2.2","","-3.9","","88","","11","","26","","25.0","","99.64","","","","-9","","Cloudy"
"1953-01-27 05:00","1953","01","27","05:00","-2.2","","-3.9","","88","","11","","29","","25.0","","99.49","","","","-9","","Cloudy"
"1953-01-27 06:00","1953","01","27","06:00","-1.7","","-3.3","","88","","14","","23","","25.0","","99.45","","","","-8","","Cloudy"
"1953-01-27 07:00","1953","01","27","07:00","-1.7","","-3.3","","88","","11","","19","","25.0","","99.35","","","","-7","","Cloudy"
"1953-01-27 08:00","1953","01","27","08:00","-1.7","","-2.2","","94","","11","","13","","16.1","","99.32","","","","-6","","Cloudy"
"1953-01-27 09:00","1953","01","27","09:00","-1.1","","-2.8","","90","","11","","10","","11.3","","99.27","","","","-5","","Cloudy"
"1953-01-27 10:00","1953","01","27","10:00","-0.6","","-5.0","","69","","14","","16","","11.3","","99.20","","","","-5","","Cloudy"
"1953-01-27 11:00","1953","01","27","11:00","0.0","","-4.4","","69","","14","","8","","11.3","","99.22","","","","-3","","Cloudy"
"1953-01-27 12:00","1953","01","27","12:00","1.1","","-3.9","","68","","16","","11","","12.9","","99.07","","","","","","Cloudy"
"1953-01-27 13:00","1953","01","27","13:00","1.1","","-3.9","","66","","20","","10","","11.3","","99.01","","","","","","Cloudy"
"1953-01-27 14:00","1953","01","27","14:00","2.2","","-2.8","","67","","20","","6","","11.3","","98.97","","","","","","Cloudy"
"1953-01-27 15:00","1953","01","27","15:00","2.2","","-2.8","","66","","18","","8","","9.7","","98.91","","","","","","Haze"
"1953-01-27 16:00","1953","01","27","16:00","2.2","","-1.7","","73","","18","","10","","8.0","","98.88","","","","","","Haze"
"1953-01-27 17:00","1953","01","27","17:00","1.1","","-1.7","","80","","16","","11","","6.4","","98.86","","","","","","Haze"
"1953-01-27 18:00","1953","01","27","18:00","0.6","","-0.6","","88","","16","","13","","4.0","","98.84","","","","","","Fog"
"1953-01-27 19:00","1953","01","27","19:00","0.6","","-0.6","","88","","14","","11","","4.0","","98.76","","","","","","Fog"
"1953-01-27 20:00","1953","01","27","20:00","1.1","","0.0","","88","","16","","14","","4.8","","98.68","","","","","","Fog"
"1953-01-27 21:00","1953","01","27","21:00","1.7","","-0.6","","85","","18","","8","","4.8","","98.60","","","","","","Fog"
"1953-01-27 22:00","1953","01","27","22:00","1.1","","-0.6","","87","","18","","5","","4.8","","98.53","","","","","","Drizzle,Fog"
"1953-01-27 23:00","1953","01","27","23:00","1.1","","0.0","","89","","16","","8","","4.8","","98.47","","","","","","Fog"
"1953-01-28 00:00","1953","01","28","00:00","1.1","","0.0","","90","","18","","6","","4.8","","98.42","","","","","","Fog"
"1953-01-28 01:00","1953","01","28","01:00","1.1","","0.0","","90","","18","","3","","4.8","","98.36","","","","","","Fog"
"1953-01-28 02:00","1953","01","28","02:00","1.1","","-1.1","","86","","","","0","","3.2","","98.25","","","","","","Snow,Fog"
"1953-01-28 03:00","1953","01","28","03:00","0.6","","0.0","","95","","34","","5","","1.6","","98.17","","","","","","Snow"
"1953-01-28 04:00","1953","01","28","04:00","0.0","","-0.6","","96","","29","","5","","1.2","","98.11","","","","-2","","Snow"
"1953-01-28 05:00","1953","01","28","05:00","-0.6","","-1.1","","96","","34","","23","","1.2","","98.10","","","","-6","","Snow"
"1953-01-28 06:00","1953","01","28","06:00","-1.1","","-2.8","","89","","34","","19","","19.3","","98.11","","","","-6","","Cloudy"
"1953-01-28 07:00","1953","01","28","07:00","-1.7","","-3.3","","88","","34","","24","","19.3","","98.18","","","","-8","","Cloudy"
"1953-01-28 08:00","1953","01","28","08:00","-2.2","","-3.9","","88","","32","","24","","25.0","","98.31","","","","-9","","Snow Showers"
"1953-01-28 09:00","1953","01","28","09:00","-2.8","","-3.3","","93","","29","","26","","3.2","","98.38","","","","-10","","Snow Showers"
"1953-01-28 10:00","1953","01","28","10:00","-2.2","","-4.4","","82","","27","","32","","25.0","","98.49","","","","-10","","Snow Showers"
"1953-01-28 11:00","1953","01","28","11:00","-2.2","","-6.1","","72","","29","","42","","25.0","","98.49","","","","-11","","Mainly Clear"
"1953-01-28 12:00","1953","01","28","12:00","-1.7","","-5.6","","73","","27","","45","","25.0","","98.47","","","","-10","","Mainly Clear"
"1953-01-28 13:00","1953","01","28","13:00","-1.7","","-6.1","","69","","27","","42","","25.0","","98.48","","","","-10","","Mainly Clear"
"1953-01-28 14:00","1953","01","28","14:00","-2.2","","-6.7","","68","","27","","42","","16.1","","98.53","","","","-11","","Snow Showers"
"1953-01-28 15:00","1953","01","28","15:00","-2.2","","-6.1","","71","","27","","39","","25.0","","98.60","","","","-10","","Snow Showers"
"1953-01-28 16:00","1953","01","28","16:00","-3.3","","-5.6","","81","","25","","31","","19.3","","98.66","","","","-11","","Snow Showers"
"1953-01-28 17:00","1953","01","28","17:00","-3.3","","-5.6","","82","","25","","19","","19.3","","98.72","","","","-9","","Snow Showers"
"1953-01-28 18:00","1953","01","28","18:00","-3.9","","-5.6","","88","","27","","19","","24.1","","98.77","","","","-10","","Snow Showers"
"1953-01-28 19:00","1953","01","28","19:00","-3.9","","-6.1","","86","","25","","34","","25.0","","98.79","","","","-12","","Snow Showers"
"1953-01-28 20:00","1953","01","28","20:00","-3.9","","-6.1","","85","","25","","31","","25.0","","98.81","","","","-12","","Snow Showers"
"1953-01-28 21:00","1953","01","28","21:00","-3.9","","-7.2","","80","","27","","23","","25.0","","98.83","","","","-11","","Snow Showers"
"1953-01-28 22:00","1953","01","28","22:00","-3.9","","-7.2","","77","","25","","32","","25.0","","98.82","","","","-12","","Snow Showers"
"1953-01-28 23:00","1953","01","28","23:00","-4.4","","-7.2","","80","","25","","23","","25.0","","98.85","","","","-11","","Snow Showers"
"1953-01-29 00:00","1953","01","29","00:00","-4.4","","-6.1","","87","","25","","21","","25.0","","98.81","","","","-11","","Snow Showers"
"1953-01-29 01:00","1953","01","29","01:00","-4.4","","-6.1","","87","","25","","27","","25.0","","98.82","","","","-12","","Snow Showers"
"1953-01-29 02:00","1953","01","29","02:00","-5.0","","-6.7","","86","","25","","27","","25.0","","98.83","","","","-13","","Snow Showers"
"1953-01-29 03:00","1953","01","29","03:00","-5.0","","-6.7","","86","","25","","24","","25.0","","98.78","","","","-12","","Snow Showers"
"1953-01-29 04:00","1953","01","29","04:00","-5.6","","-7.2","","86","","25","","16","","25.0","","98.77","","","","-12","","Cloudy"
"1953-01-29 05:00","1953","01","29","05:00","-5.6","","-6.7","","93","","23","","13","","25.0","","98.75","","","","-11","","Mostly Cloudy"
"1953-01-29 06:00","1953","01","29","06:00","-5.6","","-6.7","","93","","23","","10","","12.9","","98.75","","","","-10","","Snow"
"1953-01-29 07:00","1953","01","29","07:00","-5.6","","-5.6","","100","","25","","10","","19.3","","98.77","","","","-10","","Snow"
"1953-01-29 08:00","1953","01","29","08:00","-5.6","","-6.7","","93","","25","","13","","25.0","","98.81","","","","-11","","Snow Showers"
"1953-01-29 09:00","1953","01","29","09:00","-5.0","","-6.1","","91","","23","","23","","19.3","","98.83","","","","-12","","Cloudy"
"1953-01-29 10:00","1953","01","29","10:00","-3.3","","-6.1","","78","","25","","29","","25.0","","98.88","","","","-11","","Mostly Cloudy"
"1953-01-29 11:00","1953","01","29","11:00","-2.2","","-6.1","","71","","27","","32","","25.0","","98.90","","","","-10","","Mostly Cloudy"
"1953-01-29 12:00","1953","01","29","12:00","-1.7","","-6.7","","66","","27","","35","","16.1","","98.93","","","","-9","","Mostly Cloudy"
"1953-01-29 13:00","1953","01","29","13:00","-2.8","","-7.2","","69","","27","","43","","25.0","","98.98","","","","-11","","Mainly Clear"
"1953-01-29 14:00","1953","01","29","14:00","-3.3","","-8.3","","66","","29","","48","","25.0","","99.05","","","","-12","","Mainly Clear"
"1953-01-29 15:00","1953","01","29","15:00","-3.3","","-8.9","","64","","29","","45","","25.0","","99.18","","","","-12","","Mostly Cloudy"
"1953-01-29 16:00","1953","01","29","16:00","-4.4","","-10.6","","60","","29","","43","","25.0","","99.31","","","","-14","","Mostly Cloudy"
"1953-01-29 17:00","1953","01","29","17:00","-5.6","","-8.3","","77","","27","","37","","25.0","","99.45","","","","-15","","Mostly Cloudy"
"1953-01-29 18:00","1953","01","29","18:00","-6.1","","-8.9","","79","","27","","26","","25.0","","99.59","","","","-14","","Mostly Cloudy"
"1953-01-29 19:00","1953","01","29","19:00","-6.7","","-8.9","","84","","27","","34","","25.0","","99.64","","","","-16","","Mostly Cloudy"
"1953-01-29 20:00","1953","01","29","20:00","-6.7","","-10.0","","78","","27","","34","","25.0","","99.72","","","","-16","","Mostly Cloudy"
"1953-01-29 21:00","1953","01","29","21:00","-7.2","","-9.4","","84","","27","","16","","25.0","","99.78","","","","-14","","Mostly Cloudy"
"1953-01-29 22:00","1953","01","29","22:00","-6.1","","-7.8","","87","","25","","10","","25.0","","99.82","","","","-11","","Mostly Cloudy"
"1953-01-29 23:00","1953","01","29","23:00","-5.6","","-8.3","","78","","23","","10","","25.0","","99.86","","","","-10","","Snow Showers"
"1953-01-30 00:00","1953","01","30","00:00","-5.6","","-7.2","","86","","23","","10","","25.0","","99.88","","","","-10","","Snow Showers"
"1953-01-30 01:00","1953","01","30","01:00","-5.6","","-7.2","","86","","23","","16","","25.0","","99.88","","","","-12","","Cloudy"
"1953-01-30 02:00","1953","01","30","02:00","-6.1","","-8.9","","78","","23","","16","","25.0","","99.92","","","","-12","","Cloudy"
"1953-01-30 03:00","1953","01","30","03:00","-6.7","","-10.0","","77","","20","","10","","25.0","","99.89","","","","-11","","Cloudy"
"1953-01-30 04:00","1953","01","30","04:00","-6.7","","-8.9","","85","","18","","3","","25.0","","99.87","","","","-8","","Cloudy"
"1953-01-30 05:00","1953","01","30","05:00","-6.7","","-8.9","","85","","18","","6","","25.0","","99.84","","","","-10","","Cloudy"
"1953-01-30 06:00","1953","01","30","06:00","-6.7","","-8.9","","85","","16","","6","","12.9","","99.83","","","","-10","","Cloudy"
"1953-01-30 07:00","1953","01","30","07:00","-6.1","","-7.8","","85","","18","","6","","25.0","","99.83","","","","-9","","Cloudy"
"1953-01-30 08:00","1953","01","30","08:00","-6.1","","-7.8","","85","","18","","10","","1.6","","99.86","","","","-11","","Snow"
"1953-01-30 09:00","1953","01","30","09:00","-6.1","","-7.2","","92","","18","","6","","2.0","","99.86","","","","-9","","Snow"
"1953-01-30 10:00","1953","01","30","10:00","-5.0","","-6.1","","92","","20","","11","","4.8","","99.86","","","","-10","","Snow,Fog"
"1953-01-30 11:00","1953","01","30","11:00","-3.9","","-5.6","","88","","16","","8","","11.3","","99.84","","","","-7","","Cloudy"
"1953-01-30 12:00","1953","01","30","12:00","-2.8","","-5.0","","81","","18","","10","","11.3","","99.72","","","","-7","","Cloudy"
"1953-01-30 13:00","1953","01","30","13:00","-1.1","","-5.0","","72","","20","","8","","12.9","","99.61","","","","-4","","Mostly Cloudy"
"1953-01-30 14:00","1953","01","30","14:00","-1.1","","-5.0","","76","","14","","8","","11.3","","99.55","","","","-4","","Cloudy"
"1953-01-30 15:00","1953","01","30","15:00","-1.7","","-3.3","","88","","16","","8","","11.3","","99.54","","","","-5","","Cloudy"
"1953-01-30 16:00","1953","01","30","16:00","-1.7","","-2.2","","94","","11","","6","","11.3","","99.56","","","","-4","","Cloudy"
"1953-01-30 17:00","1953","01","30","17:00","-1.1","","-2.8","","89","","11","","6","","6.4","","99.57","","","","-3","","Fog"
"1953-01-30 18:00","1953","01","30","18:00","-1.1","","-1.7","","92","","11","","13","","4.8","","99.59","","","","-5","","Fog"
"1953-01-30 19:00","1953","01","30","19:00","-0.6","","-1.1","","92","","11","","8","","4.8","","99.59","","","","-3","","Fog"
"1953-01-30 20:00","1953","01","30","20:00","-0.6","","-1.1","","92","","11","","8","","4.8","","99.57","","","","-3","","Fog"
"1953-01-30 21:00","1953","01","30","21:00","-0.6","","-1.1","","92","","11","","5","","4.8","","99.55","","","","-2","","Fog"
"1953-01-30 22:00","1953","01","30","22:00","-1.1","","-1.7","","94","","5","","3","","4.8","","99.51","","","","-2","","Fog"
"1953-01-30 23:00","1953","01","30","23:00","-2.8","","-3.3","","94","","5","","5","","4.8","","99.42","","","","-5","","Fog"
"1953-01-31 00:00","1953","01","31","00:00","-3.3","","-3.3","","97","","2","","6","","4.8","","99.34","","","","-6","","Fog"
"1953-01-31 01:00","1953","01","31","01:00","-4.4","","-4.4","","99","","36","","6","","3.2","","99.29","","","","-7","","Fog"
"1953-01-31 02:00","1953","01","31","02:00","-3.3","","-3.3","","99","","2","","3","","3.2","","99.22","","","","-5","","Fog"
"1953-01-31 03:00","1953","01","31","03:00","-4.4","","-4.4","","100","","","","0","","3.2","","99.17","","","","","","Fog"
"1953-01-31 04:00","1953","01","31","04:00","-5.6","","-5.6","","100","","","","0","","1.6","","99.07","","","","","","Fog"
"1953-01-31 05:00","1953","01","31","05:00","-5.0","","-5.0","","100","","18","","3","","1.6","","99.01","","","","-6","","Fog"
"1953-01-31 06:00","1953","01","31","06:00","-3.9","","-3.9","","100","","20","","10","","3.2","","98.95","","","","-8","","Fog"
"1953-01-31 07:00","1953","01","31","07:00","-1.1","","-1.7","","96","","23","","10","","6.4","","98.81","","","","-5","","Fog"
"1953-01-31 08:00","1953","01","31","08:00","2.8","","-2.8","","65","","23","","16","","16.1","","98.85","","","","","","Snow Showers"
"1953-01-31 09:00","1953","01","31","09:00","4.4","","1.1","","79","","20","","26","","16.1","","98.79","","","","","","Mostly Cloudy"
"1953-01-31 10:00","1953","01","31","10:00","5.0","","2.2","","84","","20","","26","","16.1","","98.74","","","","","","Rain"
"1953-01-31 11:00","1953","01","31","11:00","5.6","","3.3","","85","","23","","29","","16.1","","98.65","","","","","","Rain"
"1953-01-31 12:00","1953","01","31","12:00","5.0","","2.2","","84","","20","","29","","16.1","","98.49","","","","","","Cloudy"
"1953-01-31 13:00","1953","01","31","13:00","4.4","","3.3","","92","","20","","37","","6.4","","98.34","","","","","","Rain"
"1953-01-31 14:00","1953","01","31","14:00","4.4","","3.3","","92","","20","","35","","6.4","","98.21","","","","","","Rain"
"1953-01-31 15:00","1953","01","31","15:00","4.4","","3.3","","92","","23","","39","","6.4","","98.13","","","","","","Rain"
"1953-01-31 16:00","1953","01","31","16:00","4.4","","3.9","","96","","23","","35","","6.4","","98.11","","","","","","Rain"
"1953-01-31 17:00","1953","01","31","17:00","4.4","","3.3","","92","","23","","37","","4.8","","98.06","","","","","","Rain"
"1953-01-31 18:00","1953","01","31","18:00","4.4","","3.3","","90","","25","","42","","25.0","","98.09","","","","","","Cloudy"
"1953-01-31 19:00","1953","01","31","19:00","3.3","","0.0","","79","","25","","42","","25.0","","98.13","","","","","","Cloudy"
"1953-01-31 20:00","1953","01","31","20:00","1.7","","-0.6","","86","","25","","42","","25.0","","98.18","","","","","","Snow Showers"
"1953-01-31 21:00","1953","01","31","21:00","0.6","","0.6","","98","","25","","32","","6.4","","98.17","","","","","","Snow"
"1953-01-31 22:00","1953","01","31","22:00","0.0","","-0.6","","94","","25","","45","","25.0","","98.15","","","","-8","","Cloudy"
"1953-01-31 23:00","1953","01","31","23:00","-3.3","","-3.9","","93","","32","","35","","4.8","","98.24","","","","-11","","Snow"
