"Station Name","TORONTO LESTER B. PEARSON INT'L A"
"Province","ONTARIO"
"Latitude","43.68"
"Longitude","-79.63"
"Elevation","173.40"
"Climate Identifier","6158733"
"WMO Identifier","71624"
"TC Identifier","YYZ"
"All times are specified in Local Standard Time (LST). Add 1 hour to adjust for Daylight Saving Time where and when it is observed."

"Legend"
"E","Estimated"
"M","Missing"
"NA","Not Available"

"Date/Time","Year","Month","Day","Time","Temp (°C)","Temp Flag","Dew Point Temp (°C)","Dew Point Temp Flag","Rel Hum (%)","Rel Hum Flag","Wind Dir (10s deg)","Wind Dir Flag","Wind Spd (km/h)","Wind Spd Flag","Visibility (km)","Visibility Flag","Stn Press (kPa)","Stn Press Flag","Hmdx","Hmdx Flag","Wind Chill","Wind Chill Flag","Weather"
"1955-06-01 00:00","1955","06","01","00:00","10.0","","7.2","","83","","32","","10","","25.0","","99.74","","","","","","Mostly Cloudy"
"1955-06-01 01:00","1955","06","01","01:00","11.1","","7.8","","80","","36","","13","","25.0","","99.75","","","","","","Cloudy"
"1955-06-01 02:00","1955","06","01","02:00","11.1","","7.8","","80","","34","","18","","25.0","","99.77","","","","","","Cloudy"
"1955-06-01 03:00","1955","06","01","03:00","10.6","","7.2","","80","","32","","13","","25.0","","99.79","","","","","","Mainly Clear"
"1955-06-01 04:00","1955","06","01","04:00","10.0","","7.2","","83","","2","","11","","25.0","","99.83","","","","","","Mainly Clear"
"1955-06-01 05:00","1955","06","01","05:00","11.1","","8.3","","83","","36","","19","","25.0","","99.87","","","","","","Mainly Clear"
"1955-06-01 06:00","1955","06","01","06:00","12.2","","8.3","","77","","34","","24","","25.0","","99.90","","","","","","Mainly Clear"
"1955-06-01 07:00","1955","06","01","07:00","13.3","","9.4","","77","","34","","32","","25.0","","99.96","","","","","","Mainly Clear"
"1955-06-01 08:00","1955","06","01","08:00","15.0","","10.0","","72","","34","","24","","25.0","","99.96","","","","","","Clear"
"1955-06-01 09:00","1955","06","01","09:00","16.7","","10.6","","67","","34","","24","","25.0","","99.96","","","","","","Mainly Clear"
"1955-06-01 10:00","1955","06","01","10:00","17.2","","10.6","","65","","34","","24","","25.0","","99.99","","","","","","Mainly Clear"
"1955-06-01 11:00","1955","06","01","11:00","18.3","","9.4","","56","","34","","24","","25.0","","99.99","","","","","","Mainly Clear"
"1955-06-01 12:00","1955","06","01","12:00","18.9","","9.4","","54","","34","","24","","25.0","","100.00","","","","","","Mainly Clear"
"1955-06-01 13:00","1955","06","01","13:00","18.9","","9.4","","54","","34","","24","","25.0","","100.00","","","","","","Mainly Clear"
"1955-06-01 14:00","1955","06","01","14:00","18.9","","9.4","","54","","36","","24","","25.0","","99.97","","","","","","Mainly Clear"
"1955-06-01 15:00","1955","06","01","15:00","19.4","","10.0","","54","","34","","23","","25.0","","99.93","","","","","","Mainly Clear"
"1955-06-01 16:00","1955","06","01","16:00","18.9","","9.4","","54","","36","","19","","25.0","","99.93","","","","","","Mainly Clear"
"1955-06-01 17:00","1955","06","01","17:00","17.8","","8.9","","56","","36","","23","","19.3","","99.97","","","","","","Mainly Clear"
"1955-06-01 18:00","1955","06","01","18:00","17.2","","10.0","","63","","36","","26","","24.1","","100.01","","","","","","Mainly Clear"
"1955-06-01 19:00","1955","06","01","19:00","16.7","","10.0","","65","","36","","23","","24.1","","99.99","","","","","","Mainly Clear"
"1955-06-01 20:00","1955","06","01","20:00","14.4","","9.4","","72","","36","","19","","25.0","","100.01","","","","","","Clear"
"1955-06-01 21:00","1955","06","01","21:00","13.3","","9.4","","77","","32","","13","","24.1","","100.03","","","","","","Clear"
"1955-06-01 22:00","1955","06","01","22:00","12.8","","8.9","","74","","32","","13","","24.1","","100.03","","","","","","Clear"
"1955-06-01 23:00","1955","06","01","23:00","12.2","","8.9","","80","","34","","10","","25.0","","100.07","","","","","","Clear"
"1955-06-02 00:00","1955","06","02","00:00","11.7","","8.9","","83","","32","","10","","25.0","","100.05","","","","","","Clear"
"1955-06-02 01:00","1955","06","02","01:00","11.1","","8.9","","86","","32","","16","","25.0","","100.06","","","","","","Clear"
"1955-06-02 02:00","1955","06","02","02:00","11.1","","8.9","","86","","34","","16","","25.0","","100.08","","","","","","Clear"
"1955-06-02 03:00","1955","06","02","03:00","10.0","","7.8","","86","","34","","19","","25.0","","100.08","","","","","","Clear"
"1955-06-02 04:00","1955","06","02","04:00","10.0","","7.8","","86","","34","","23","","24.1","","100.12","","","","","","Clear"
"1955-06-02 05:00","1955","06","02","05:00","10.6","","8.3","","86","","34","","26","","24.1","","100.15","","","","","","Clear"
"1955-06-02 06:00","1955","06","02","06:00","11.7","","8.3","","80","","34","","24","","24.1","","100.22","","","","","","Clear"
"1955-06-02 07:00","1955","06","02","07:00","13.3","","9.4","","77","","34","","16","","24.1","","100.25","","","","","","Clear"
"1955-06-02 08:00","1955","06","02","08:00","16.1","","10.0","","67","","36","","16","","25.0","","100.26","","","","","","Mainly Clear"
"1955-06-02 09:00","1955","06","02","09:00","18.3","","8.9","","54","","2","","16","","25.0","","100.23","","","","","","Clear"
"1955-06-02 10:00","1955","06","02","10:00","19.4","","7.8","","47","","36","","23","","25.0","","100.22","","","","","","Mainly Clear"
"1955-06-02 11:00","1955","06","02","11:00","20.0","","7.8","","45","","2","","19","","25.0","","100.22","","","","","","Mainly Clear"
"1955-06-02 12:00","1955","06","02","12:00","21.1","","8.9","","46","","36","","24","","25.0","","100.22","","","","","","Mainly Clear"
"1955-06-02 13:00","1955","06","02","13:00","21.1","","8.9","","46","","2","","19","","32.2","","100.22","","","","","","Mainly Clear"
"1955-06-02 14:00","1955","06","02","14:00","22.2","","8.9","","43","","36","","23","","25.0","","100.20","","","","","","Mainly Clear"
"1955-06-02 15:00","1955","06","02","15:00","22.2","","8.9","","43","","2","","16","","25.0","","100.12","","","","","","Mainly Clear"
"1955-06-02 16:00","1955","06","02","16:00","22.2","","10.0","","46","","2","","14","","25.0","","100.10","","","","","","Mainly Clear"
"1955-06-02 17:00","1955","06","02","17:00","22.2","","8.9","","43","","2","","13","","25.0","","100.08","","","","","","Mainly Clear"
"1955-06-02 18:00","1955","06","02","18:00","21.1","","10.6","","51","","16","","14","","25.0","","100.06","","","","","","Mainly Clear"
"1955-06-02 19:00","1955","06","02","19:00","19.4","","10.0","","54","","18","","10","","24.1","","100.06","","","","","","Mainly Clear"
"1955-06-02 20:00","1955","06","02","20:00","17.2","","10.0","","63","","23","","8","","24.1","","100.06","","","","","","Mainly Clear"
"1955-06-02 21:00","1955","06","02","21:00","16.7","","9.4","","62","","23","","3","","25.0","","100.08","","","","","","Clear"
"1955-06-02 22:00","1955","06","02","22:00","15.0","","10.0","","72","","14","","3","","25.0","","100.11","","","","","","Clear"
"1955-06-02 23:00","1955","06","02","23:00","13.9","","9.4","","75","","7","","3","","25.0","","100.12","","","","","","Mainly Clear"
"1955-06-03 00:00","1955","06","03","00:00","12.8","","10.6","","86","","32","","5","","25.0","","100.12","","","","","","Clear"
"1955-06-03 01:00","1955","06","03","01:00","12.8","","10.6","","86","","32","","5","","25.0","","100.13","","","","","","Clear"
"1955-06-03 02:00","1955","06","03","02:00","12.2","","8.3","","77","","32","","5","","25.0","","100.16","","","","","","Mainly Clear"
"1955-06-03 03:00","1955","06","03","03:00","11.1","","8.3","","83","","34","","11","","25.0","","100.17","","","","","","Clear"
"1955-06-03 04:00","1955","06","03","04:00","11.7","","8.9","","83","","34","","8","","25.0","","100.16","","","","","","Mainly Clear"
"1955-06-03 05:00","1955","06","03","05:00","11.1","","7.8","","80","","34","","11","","25.0","","100.22","","","","","","Mainly Clear"
"1955-06-03 06:00","1955","06","03","06:00","12.8","","8.9","","77","","34","","10","","25.0","","100.22","","","","","","Mainly Clear"
"1955-06-03 07:00","1955","06","03","07:00","15.6","","11.1","","75","","32","","3","","25.0","","100.23","","","","","","Mainly Clear"
"1955-06-03 08:00","1955","06","03","08:00","19.4","","10.6","","56","","34","","8","","25.0","","100.23","","","","","","Mainly Clear"
"1955-06-03 09:00","1955","06","03","09:00","21.7","","9.4","","46","","36","","6","","25.0","","100.21","","","","","","Mostly Cloudy"
"1955-06-03 10:00","1955","06","03","10:00","22.8","","10.0","","44","","7","","3","","25.0","","100.16","","","","","","Mostly Cloudy"
"1955-06-03 11:00","1955","06","03","11:00","23.3","","7.8","","37","","9","","8","","25.0","","100.12","","","","","","Mostly Cloudy"
"1955-06-03 12:00","1955","06","03","12:00","23.9","","6.1","","32","","11","","13","","25.0","","100.08","","","","","","Mostly Cloudy"
"1955-06-03 13:00","1955","06","03","13:00","23.9","","7.2","","34","","20","","14","","25.0","","100.04","","","","","","Mostly Cloudy"
"1955-06-03 14:00","1955","06","03","14:00","24.4","","6.1","","31","","18","","13","","25.0","","99.98","","","","","","Mostly Cloudy"
"1955-06-03 15:00","1955","06","03","15:00","25.0","","7.2","","32","","18","","10","","25.0","","99.94","","25","","","","Mainly Clear"
"1955-06-03 16:00","1955","06","03","16:00","23.9","","5.6","","31","","16","","16","","25.0","","99.89","","","","","","Mainly Clear"
"1955-06-03 17:00","1955","06","03","17:00","23.3","","5.0","","30","","16","","13","","25.0","","99.86","","","","","","Mainly Clear"
"1955-06-03 18:00","1955","06","03","18:00","22.2","","6.7","","37","","16","","10","","25.0","","99.82","","","","","","Mostly Cloudy"
"1955-06-03 19:00","1955","06","03","19:00","20.6","","5.6","","38","","16","","6","","25.0","","99.81","","","","","","Mostly Cloudy"
"1955-06-03 20:00","1955","06","03","20:00","18.3","","7.8","","50","","23","","6","","25.0","","99.80","","","","","","Mainly Clear"
"1955-06-03 21:00","1955","06","03","21:00","17.8","","7.8","","52","","36","","13","","25.0","","99.80","","","","","","Mostly Cloudy"
"1955-06-03 22:00","1955","06","03","22:00","16.7","","9.4","","62","","27","","13","","24.1","","99.74","","","","","","Mainly Clear"
"1955-06-03 23:00","1955","06","03","23:00","17.2","","10.0","","63","","32","","13","","24.1","","99.70","","","","","","Mainly Clear"
"1955-06-04 00:00","1955","06","04","00:00","15.6","","10.6","","72","","32","","13","","24.1","","99.66","","","","","","Mainly Clear"
"1955-06-04 01:00","1955","06","04","01:00","14.4","","10.6","","78","","36","","11","","24.1","","99.63","","","","","","Mainly Clear"
"1955-06-04 02:00","1955","06","04","02:00","13.3","","10.0","","80","","36","","6","","24.1","","99.62","","","","","","Mainly Clear"
"1955-06-04 03:00","1955","06","04","03:00","13.3","","10.0","","80","","34","","13","","24.1","","99.61","","","","","","Mainly Clear"
"1955-06-04 04:00","1955","06","04","04:00","12.8","","8.9","","77","","32","","8","","24.1","","99.60","","","","","","Mainly Clear"
"1955-06-04 05:00","1955","06","04","05:00","13.9","","10.0","","77","","34","","11","","19.3","","99.59","","","","","","Mainly Clear"
"1955-06-04 06:00","1955","06","04","06:00","16.1","","7.2","","56","","34","","5","","24.1","","99.60","","","","","","Mainly Clear"
"1955-06-04 07:00","1955","06","04","07:00","18.3","","12.2","","68","","32","","10","","19.3","","99.58","","","","","","Mainly Clear"
"1955-06-04 08:00","1955","06","04","08:00","21.7","","12.8","","57","","29","","13","","19.3","","99.54","","","","","","Mainly Clear"
"1955-06-04 09:00","1955","06","04","09:00","23.3","","12.8","","52","","29","","19","","19.3","","99.48","","26","","","","Mainly Clear"
"1955-06-04 10:00","1955","06","04","10:00","24.4","","11.1","","43","","32","","19","","19.3","","99.43","","26","","","","Mostly Cloudy"
"1955-06-04 11:00","1955","06","04","11:00","22.2","","12.2","","53","","2","","13","","19.3","","99.40","","25","","","","Mostly Cloudy"
"1955-06-04 12:00","1955","06","04","12:00","22.2","","13.3","","59","","5","","10","","19.3","","99.36","","25","","","","Mostly Cloudy"
"1955-06-04 13:00","1955","06","04","13:00","22.8","","12.8","","53","","2","","10","","19.3","","99.30","","25","","","","Mostly Cloudy"
"1955-06-04 14:00","1955","06","04","14:00","23.9","","13.3","","52","","32","","6","","19.3","","99.20","","27","","","","Mostly Cloudy"
"1955-06-04 15:00","1955","06","04","15:00","24.4","","13.9","","52","","9","","8","","25.0","","99.11","","28","","","","Mostly Cloudy"
"1955-06-04 16:00","1955","06","04","16:00","23.9","","13.3","","52","","5","","8","","25.0","","99.06","","27","","","","Mostly Cloudy"
"1955-06-04 17:00","1955","06","04","17:00","24.4","","14.4","","54","","5","","10","","25.0","","99.03","","28","","","","Mostly Cloudy"
"1955-06-04 18:00","1955","06","04","18:00","23.3","","14.4","","58","","5","","6","","25.0","","99.01","","27","","","","Mostly Cloudy"
"1955-06-04 19:00","1955","06","04","19:00","23.3","","15.0","","60","","36","","13","","25.0","","99.02","","27","","","","Mostly Cloudy"
"1955-06-04 20:00","1955","06","04","20:00","21.1","","13.9","","63","","32","","10","","24.1","","99.03","","","","","","Mostly Cloudy"
"1955-06-04 21:00","1955","06","04","21:00","20.0","","13.3","","66","","32","","14","","19.3","","99.05","","","","","","Mostly Cloudy"
"1955-06-04 22:00","1955","06","04","22:00","19.4","","12.2","","63","","32","","14","","16.1","","99.01","","","","","","Mostly Cloudy"
"1955-06-04 23:00","1955","06","04","23:00","18.9","","12.8","","68","","32","","13","","19.3","","99.03","","","","","","Mostly Cloudy"
"1955-06-05 00:00","1955","06","05","00:00","17.8","","13.3","","75","","34","","10","","19.3","","98.98","","","","","","Mostly Cloudy"
"1955-06-05 01:00","1955","06","05","01:00","18.3","","12.8","","70","","32","","10","","19.3","","98.95","","","","","","Cloudy"
"1955-06-05 02:00","1955","06","05","02:00","18.3","","13.3","","73","","34","","6","","19.3","","98.91","","","","","","Mostly Cloudy"
"1955-06-05 03:00","1955","06","05","03:00","17.2","","13.3","","78","","25","","5","","19.3","","98.91","","","","","","Mostly Cloudy"
"1955-06-05 04:00","1955","06","05","04:00","17.8","","14.4","","81","","25","","2","","16.1","","98.92","","","","","","Mostly Cloudy"
"1955-06-05 05:00","1955","06","05","05:00","17.2","","13.9","","81","","29","","10","","16.1","","98.95","","","","","","Mostly Cloudy"
"1955-06-05 06:00","1955","06","05","06:00","18.3","","14.4","","78","","32","","5","","16.1","","99.00","","","","","","Mostly Cloudy"
"1955-06-05 07:00","1955","06","05","07:00","19.4","","15.6","","78","","36","","5","","16.1","","99.03","","","","","","Mostly Cloudy"
"1955-06-05 08:00","1955","06","05","08:00","21.1","","15.6","","71","","36","","3","","16.1","","99.05","","25","","","","Mostly Cloudy"
"1955-06-05 09:00","1955","06","05","09:00","22.8","","14.4","","59","","36","","5","","16.1","","99.05","","26","","","","Mostly Cloudy"
"1955-06-05 10:00","1955","06","05","10:00","24.4","","14.4","","54","","","","0","","19.3","","99.04","","28","","","","Mostly Cloudy"
"1955-06-05 11:00","1955","06","05","11:00","25.6","","15.6","","54","","29","","8","","19.3","","99.00","","30","","","","Mostly Cloudy"
"1955-06-05 12:00","1955","06","05","12:00","26.1","","16.1","","54","","36","","11","","19.3","","98.97","","31","","","","Mostly Cloudy"
"1955-06-05 13:00","1955","06","05","13:00","26.7","","15.0","","49","","32","","3","","16.1","","98.96","","31","","","","Mostly Cloudy"
"1955-06-05 14:00","1955","06","05","14:00","26.7","","16.7","","54","","5","","6","","16.1","","98.94","","32","","","","Mostly Cloudy"
"1955-06-05 15:00","1955","06","05","15:00","27.2","","16.7","","53","","36","","6","","16.1","","98.89","","32","","","","Mostly Cloudy"
"1955-06-05 16:00","1955","06","05","16:00","28.3","","16.7","","49","","27","","6","","16.1","","98.84","","33","","","","Mostly Cloudy"
"1955-06-05 17:00","1955","06","05","17:00","27.2","","17.2","","54","","36","","3","","16.1","","98.81","","33","","","","Mostly Cloudy"
"1955-06-05 18:00","1955","06","05","18:00","26.1","","16.1","","54","","18","","13","","12.9","","98.84","","31","","","","Cloudy"
"1955-06-05 19:00","1955","06","05","19:00","24.4","","16.7","","62","","18","","6","","11.3","","98.83","","29","","","","Mostly Cloudy"
"1955-06-05 20:00","1955","06","05","20:00","22.8","","16.1","","66","","23","","8","","8.0","","98.88","","27","","","","Smoke,Haze"
"1955-06-05 21:00","1955","06","05","21:00","22.2","","16.7","","71","","23","","3","","8.0","","98.96","","27","","","","Smoke,Haze"
"1955-06-05 22:00","1955","06","05","22:00","20.6","","16.1","","76","","18","","3","","8.0","","98.98","","25","","","","Smoke,Haze"
"1955-06-05 23:00","1955","06","05","23:00","20.0","","16.1","","78","","18","","5","","8.0","","98.99","","25","","","","Smoke,Haze"
"1955-06-06 00:00","1955","06","06","00:00","18.9","","15.6","","81","","25","","3","","9.7","","99.00","","","","","","Smoke,Haze"
"1955-06-06 01:00","1955","06","06","01:00","18.3","","16.1","","87","","32","","3","","9.7","","99.00","","","","","","Smoke,Haze"
"1955-06-06 02:00","1955","06","06","02:00","17.2","","14.4","","84","","23","","3","","8.0","","99.01","","","","","","Smoke,Haze"
"1955-06-06 03:00","1955","06","06","03:00","17.2","","15.0","","87","","","","0","","6.4","","99.04","","","","","","Smoke,Haze"
"1955-06-06 04:00","1955","06","06","04:00","17.2","","15.0","","87","","14","","3","","3.2","","99.05","","","","","","Fog,Smoke"
"1955-06-06 05:00","1955","06","06","05:00","17.2","","15.0","","87","","16","","3","","4.0","","99.09","","","","","","Fog,Smoke"
"1955-06-06 06:00","1955","06","06","06:00","18.9","","16.1","","84","","","","0","","4.0","","99.10","","","","","","Smoke,Haze"
"1955-06-06 07:00","1955","06","06","07:00","21.1","","17.2","","79","","","","0","","4.0","","99.13","","27","","","","Smoke,Haze"
"1955-06-06 08:00","1955","06","06","08:00","23.3","","15.0","","60","","","","0","","6.4","","99.17","","27","","","","Haze"
"1955-06-06 09:00","1955","06","06","09:00","25.6","","17.2","","60","","16","","8","","8.0","","99.20","","31","","","","Haze"
"1955-06-06 10:00","1955","06","06","10:00","26.7","","16.7","","54","","14","","16","","9.7","","99.20","","32","","","","Haze"
"1955-06-06 11:00","1955","06","06","11:00","27.2","","14.4","","46","","16","","19","","9.7","","99.18","","31","","","","Haze"
"1955-06-06 12:00","1955","06","06","12:00","27.8","","15.6","","48","","14","","16","","9.7","","99.13","","32","","","","Haze"
"1955-06-06 13:00","1955","06","06","13:00","28.3","","13.3","","40","","16","","16","","12.9","","99.11","","31","","","","Mainly Clear"
"1955-06-06 14:00","1955","06","06","14:00","28.9","","14.4","","41","","16","","16","","6.4","","99.05","","33","","","","Haze"
"1955-06-06 15:00","1955","06","06","15:00","29.4","","11.1","","32","","14","","16","","8.0","","98.99","","31","","","","Haze"
"1955-06-06 16:00","1955","06","06","16:00","29.4","","11.7","","34","","11","","16","","12.9","","98.93","","32","","","","Mainly Clear"
"1955-06-06 17:00","1955","06","06","17:00","28.3","","11.7","","36","","11","","19","","12.9","","98.87","","30","","","","Mainly Clear"
"1955-06-06 18:00","1955","06","06","18:00","27.2","","12.2","","40","","9","","16","","12.9","","98.84","","30","","","","Mainly Clear"
"1955-06-06 19:00","1955","06","06","19:00","25.6","","13.3","","47","","9","","16","","12.9","","98.81","","29","","","","Mainly Clear"
"1955-06-06 20:00","1955","06","06","20:00","23.3","","13.3","","54","","9","","13","","12.9","","98.86","","26","","","","Mainly Clear"
"1955-06-06 21:00","1955","06","06","21:00","21.7","","12.8","","57","","9","","8","","16.1","","98.86","","","","","","Mainly Clear"
"1955-06-06 22:00","1955","06","06","22:00","20.0","","13.9","","68","","9","","6","","16.1","","98.85","","","","","","Mainly Clear"
"1955-06-06 23:00","1955","06","06","23:00","18.3","","13.3","","73","","9","","8","","16.1","","98.85","","","","","","Mainly Clear"
"1955-06-07 00:00","1955","06","07","00:00","18.9","","13.3","","70","","7","","11","","16.1","","98.86","","","","","","Mainly Clear"
"1955-06-07 01:00","1955","06","07","01:00","17.8","","13.3","","75","","7","","6","","12.9","","98.85","","","","","","Mainly Clear"
"1955-06-07 02:00","1955","06","07","02:00","16.7","","12.8","","78","","7","","6","","12.9","","98.82","","","","","","Mainly Clear"
"1955-06-07 03:00","1955","06","07","03:00","16.1","","13.3","","84","","7","","6","","12.9","","98.79","","","","","","Mainly Clear"
"1955-06-07 04:00","1955","06","07","04:00","16.1","","12.8","","81","","7","","10","","12.9","","98.81","","","","","","Mainly Clear"
"1955-06-07 05:00","1955","06","07","05:00","16.7","","13.9","","84","","7","","3","","12.9","","98.81","","","","","","Mostly Cloudy"
"1955-06-07 06:00","1955","06","07","06:00","18.3","","15.0","","81","","7","","6","","11.3","","98.81","","","","","","Mostly Cloudy"
"1955-06-07 07:00","1955","06","07","07:00","20.6","","14.4","","68","","11","","13","","6.4","","98.82","","","","","","Haze"
"1955-06-07 08:00","1955","06","07","08:00","21.7","","15.6","","68","","16","","13","","4.8","","98.84","","26","","","","Haze"
"1955-06-07 09:00","1955","06","07","09:00","22.8","","16.7","","69","","16","","16","","4.8","","98.82","","28","","","","Haze"
"1955-06-07 10:00","1955","06","07","10:00","23.9","","18.3","","71","","14","","16","","4.8","","99.85","","30","","","","Haze"
"1955-06-07 11:00","1955","06","07","11:00","22.8","","16.7","","69","","16","","10","","4.8","","98.85","","28","","","","Haze"
"1955-06-07 12:00","1955","06","07","12:00","23.9","","17.2","","66","","14","","8","","4.8","","98.82","","29","","","","Haze"
"1955-06-07 13:00","1955","06","07","13:00","25.6","","16.1","","56","","18","","10","","6.4","","98.77","","30","","","","Haze"
"1955-06-07 14:00","1955","06","07","14:00","25.6","","17.2","","60","","18","","10","","6.4","","98.69","","31","","","","Haze"
"1955-06-07 15:00","1955","06","07","15:00","25.6","","16.1","","56","","16","","16","","8.0","","98.64","","30","","","","Haze"
"1955-06-07 16:00","1955","06","07","16:00","25.0","","16.1","","58","","18","","8","","8.0","","98.61","","30","","","","Haze"
"1955-06-07 17:00","1955","06","07","17:00","22.8","","16.7","","69","","18","","13","","8.0","","98.61","","28","","","","Haze"
"1955-06-07 18:00","1955","06","07","18:00","21.7","","16.1","","71","","18","","3","","8.0","","98.60","","26","","","","Haze"
"1955-06-07 19:00","1955","06","07","19:00","21.7","","16.1","","73","","11","","3","","4.8","","98.61","","26","","","","Haze"
"1955-06-07 20:00","1955","06","07","20:00","20.6","","15.6","","73","","11","","6","","4.8","","98.58","","25","","","","Haze"
"1955-06-07 21:00","1955","06","07","21:00","19.4","","14.4","","73","","18","","3","","4.8","","98.67","","","","","","Haze"
"1955-06-07 22:00","1955","06","07","22:00","17.8","","14.4","","81","","7","","8","","4.8","","98.63","","","","","","Haze"
"1955-06-07 23:00","1955","06","07","23:00","17.8","","14.4","","81","","7","","11","","12.9","","98.63","","","","","","Mostly Cloudy"
"1955-06-08 00:00","1955","06","08","00:00","17.8","","15.0","","84","","7","","16","","16.1","","98.61","","","","","","Mostly Cloudy"
"1955-06-08 01:00","1955","06","08","01:00","18.3","","15.0","","81","","7","","13","","19.3","","98.59","","","","","","Mostly Cloudy"
"1955-06-08 02:00","1955","06","08","02:00","18.3","","16.1","","87","","9","","19","","19.3","","98.61","","","","","","Mostly Cloudy"
"1955-06-08 03:00","1955","06","08","03:00","17.8","","16.1","","90","","9","","21","","19.3","","98.61","","","","","","Cloudy"
"1955-06-08 04:00","1955","06","08","04:00","17.2","","14.4","","84","","9","","26","","19.3","","98.60","","","","","","Mostly Cloudy"
"1955-06-08 05:00","1955","06","08","05:00","17.2","","13.9","","81","","7","","23","","9.7","","98.58","","","","","","Haze"
"1955-06-08 06:00","1955","06","08","06:00","17.2","","14.4","","84","","9","","26","","9.7","","98.57","","","","","","Haze"
"1955-06-08 07:00","1955","06","08","07:00","17.2","","15.0","","87","","7","","26","","6.4","","98.61","","","","","","Haze"
"1955-06-08 08:00","1955","06","08","08:00","17.2","","15.0","","87","","7","","24","","6.4","","98.63","","","","","","Haze"
"1955-06-08 09:00","1955","06","08","09:00","17.2","","14.4","","84","","7","","24","","8.0","","98.63","","","","","","Haze"
"1955-06-08 10:00","1955","06","08","10:00","18.3","","13.9","","75","","7","","26","","8.0","","98.64","","","","","","Haze"
"1955-06-08 11:00","1955","06","08","11:00","18.9","","13.3","","70","","9","","35","","11.3","","98.68","","","","","","Mainly Clear"
"1955-06-08 12:00","1955","06","08","12:00","19.4","","12.2","","63","","9","","42","","12.9","","98.70","","","","","","Mainly Clear"
"1955-06-08 13:00","1955","06","08","13:00","20.0","","10.6","","55","","9","","42","","16.1","","98.73","","","","","","Mainly Clear"
"1955-06-08 14:00","1955","06","08","14:00","20.6","","10.6","","53","","9","","39","","19.3","","98.71","","","","","","Mostly Cloudy"
"1955-06-08 15:00","1955","06","08","15:00","20.0","","11.7","","59","","9","","39","","19.3","","98.71","","","","","","Mostly Cloudy"
"1955-06-08 16:00","1955","06","08","16:00","19.4","","11.1","","59","","9","","29","","19.3","","98.71","","","","","","Mostly Cloudy"
"1955-06-08 17:00","1955","06","08","17:00","18.9","","11.1","","61","","9","","26","","19.3","","98.74","","","","","","Mostly Cloudy"
"1955-06-08 18:00","1955","06","08","18:00","18.3","","11.1","","63","","11","","23","","19.3","","98.74","","","","","","Mostly Cloudy"
"1955-06-08 19:00","1955","06","08","19:00","18.3","","11.1","","63","","9","","19","","19.3","","98.75","","","","","","Mostly Cloudy"
"1955-06-08 20:00","1955","06","08","20:00","17.2","","11.1","","67","","7","","13","","19.3","","98.80","","","","","","Mostly Cloudy"
"1955-06-08 21:00","1955","06","08","21:00","16.1","","11.7","","75","","7","","13","","19.3","","98.82","","","","","","Mostly Cloudy"
"1955-06-08 22:00","1955","06","08","22:00","14.4","","11.1","","81","","5","","6","","19.3","","98.84","","","","","","Mostly Cloudy"
"1955-06-08 23:00","1955","06","08","23:00","15.0","","11.7","","81","","5","","10","","24.1","","98.84","","","","","","Mainly Clear"
"1955-06-09 00:00","1955","06","09","00:00","16.7","","12.8","","78","","7","","18","","25.0","","98.83","","","","","","Mostly Cloudy"
"1955-06-09 01:00","1955","06","09","01:00","16.1","","13.3","","84","","7","","19","","25.0","","98.82","","","","","","Mainly Clear"
"1955-06-09 02:00","1955","06","09","02:00","16.1","","13.3","","84","","9","","10","","24.1","","98.81","","","","","","Mostly Cloudy"
"1955-06-09 03:00","1955","06","09","03:00","16.1","","13.3","","84","","7","","13","","24.1","","98.79","","","","","","Mostly Cloudy"
"1955-06-09 04:00","1955","06","09","04:00","16.1","","12.2","","78","","9","","13","","25.0","","98.85","","","","","","Cloudy"
"1955-06-09 05:00","1955","06","09","05:00","16.1","","10.6","","70","","9","","13","","25.0","","98.92","","","","","","Mostly Cloudy"
"1955-06-09 06:00","1955","06","09","06:00","15.0","","11.1","","78","","9","","13","","25.0","","98.99","","","","","","Rain Showers"
"1955-06-09 07:00","1955","06","09","07:00","16.1","","11.7","","75","","7","","16","","25.0","","99.02","","","","","","Mostly Cloudy"
"1955-06-09 08:00","1955","06","09","08:00","16.7","","11.1","","70","","7","","16","","24.1","","99.04","","","","","","Mostly Cloudy"
"1955-06-09 09:00","1955","06","09","09:00","17.8","","12.2","","70","","7","","13","","25.0","","99.05","","","","","","Mostly Cloudy"
"1955-06-09 10:00","1955","06","09","10:00","19.4","","11.1","","59","","9","","16","","25.0","","99.02","","","","","","Mainly Clear"
"1955-06-09 11:00","1955","06","09","11:00","20.0","","12.2","","61","","9","","16","","25.0","","99.01","","","","","","Mainly Clear"
"1955-06-09 12:00","1955","06","09","12:00","21.1","","12.8","","59","","7","","11","","25.0","","98.99","","","","","","Mainly Clear"
"1955-06-09 13:00","1955","06","09","13:00","21.7","","12.8","","57","","9","","16","","19.3","","98.99","","","","","","Mainly Clear"
"1955-06-09 14:00","1955","06","09","14:00","20.0","","12.2","","61","","14","","24","","19.3","","98.97","","","","","","Mainly Clear"
"1955-06-09 15:00","1955","06","09","15:00","20.6","","11.7","","57","","14","","16","","19.3","","98.96","","","","","","Mainly Clear"
"1955-06-09 16:00","1955","06","09","16:00","21.1","","10.6","","51","","14","","19","","19.3","","98.96","","","","","","Mainly Clear"
"1955-06-09 17:00","1955","06","09","17:00","20.6","","10.6","","53","","16","","16","","19.3","","98.96","","","","","","Mainly Clear"
"1955-06-09 18:00","1955","06","09","18:00","19.4","","10.0","","54","","14","","10","","19.3","","98.96","","","","","","Mainly Clear"
"1955-06-09 19:00","1955","06","09","19:00","18.9","","10.0","","56","","18","","6","","19.3","","98.97","","","","","","Mainly Clear"
"1955-06-09 20:00","1955","06","09","20:00","17.8","","10.6","","63","","18","","3","","19.3","","98.98","","","","","","Mostly Cloudy"
"1955-06-09 21:00","1955","06","09","21:00","16.7","","10.0","","65","","23","","3","","19.3","","99.02","","","","","","Mostly Cloudy"
"1955-06-09 22:00","1955","06","09","22:00","16.1","","10.6","","70","","","","0","","24.1","","99.02","","","","","","Mainly Clear"
"1955-06-09 23:00","1955","06","09","23:00","14.4","","11.1","","81","","","","0","","25.0","","99.06","","","","","","Clear"
"1955-06-10 00:00","1955","06","10","00:00","13.9","","10.6","","80","","27","","3","","25.0","","99.09","","","","","","Clear"
"1955-06-10 01:00","1955","06","10","01:00","12.8","","10.6","","86","","","","0","","25.0","","99.08","","","","","","Clear"
"1955-06-10 02:00","1955","06","10","02:00","12.2","","10.0","","86","","29","","3","","25.0","","99.05","","","","","","Clear"
"1955-06-10 03:00","1955","06","10","03:00","12.8","","8.9","","77","","32","","6","","25.0","","99.00","","","","","","Clear"
"1955-06-10 04:00","1955","06","10","04:00","11.1","","9.4","","90","","34","","6","","25.0","","98.96","","","","","","Mainly Clear"
"1955-06-10 05:00","1955","06","10","05:00","10.6","","8.9","","89","","27","","3","","25.0","","99.01","","","","","","Mainly Clear"
"1955-06-10 06:00","1955","06","10","06:00","13.9","","10.6","","80","","","","0","","25.0","","99.03","","","","","","Mainly Clear"
"1955-06-10 07:00","1955","06","10","07:00","16.7","","11.1","","70","","","","0","","24.1","","99.03","","","","","","Mainly Clear"
"1955-06-10 08:00","1955","06","10","08:00","20.0","","11.7","","59","","","","0","","24.1","","99.01","","","","","","Mainly Clear"
"1955-06-10 09:00","1955","06","10","09:00","21.1","","12.2","","57","","14","","2","","24.1","","99.02","","","","","","Mainly Clear"
"1955-06-10 10:00","1955","06","10","10:00","22.2","","11.7","","51","","7","","3","","24.1","","98.99","","","","","","Mainly Clear"
"1955-06-10 11:00","1955","06","10","11:00","23.3","","10.0","","43","","18","","6","","25.0","","98.97","","25","","","","Mainly Clear"
"1955-06-10 12:00","1955","06","10","12:00","23.9","","9.4","","40","","14","","11","","24.1","","98.93","","25","","","","Mainly Clear"
"1955-06-10 13:00","1955","06","10","13:00","24.4","","5.6","","30","","18","","8","","24.1","","98.90","","","","","","Mainly Clear"
"1955-06-10 14:00","1955","06","10","14:00","25.0","","8.9","","36","","16","","14","","24.1","","98.88","","26","","","","Mostly Cloudy"
"1955-06-10 15:00","1955","06","10","15:00","24.4","","8.3","","36","","16","","14","","24.1","","98.85","","25","","","","Mainly Clear"
"1955-06-10 16:00","1955","06","10","16:00","24.4","","6.7","","32","","16","","16","","24.1","","98.83","","","","","","Mostly Cloudy"
"1955-06-10 17:00","1955","06","10","17:00","23.9","","6.1","","32","","18","","13","","24.1","","98.81","","","","","","Mostly Cloudy"
"1955-06-10 18:00","1955","06","10","18:00","23.3","","6.7","","34","","18","","5","","24.1","","98.81","","","","","","Mostly Cloudy"
"1955-06-10 19:00","1955","06","10","19:00","22.2","","8.3","","41","","18","","5","","19.3","","98.82","","","","","","Mostly Cloudy"
"1955-06-10 20:00","1955","06","10","20:00","20.0","","8.3","","47","","18","","3","","19.3","","98.83","","","","","","Mostly Cloudy"
"1955-06-10 21:00","1955","06","10","21:00","18.9","","9.4","","54","","18","","3","","16.1","","98.85","","","","","","Mostly Cloudy"
"1955-06-10 22:00","1955","06","10","22:00","17.2","","11.1","","67","","18","","3","","12.9","","98.86","","","","","","Mainly Clear"
"1955-06-10 23:00","1955","06","10","23:00","15.6","","11.1","","75","","18","","3","","9.7","","98.78","","","","","","Haze"
"1955-06-11 00:00","1955","06","11","00:00","15.0","","11.1","","81","","36","","6","","12.9","","98.80","","","","","","Mainly Clear"
"1955-06-11 01:00","1955","06","11","01:00","13.9","","11.1","","87","","36","","6","","16.1","","98.71","","","","","","Mainly Clear"
"1955-06-11 02:00","1955","06","11","02:00","12.8","","10.0","","83","","36","","6","","8.0","","98.71","","","","","","Haze"
"1955-06-11 03:00","1955","06","11","03:00","12.2","","9.4","","83","","36","","6","","6.4","","98.67","","","","","","Haze"
"1955-06-11 04:00","1955","06","11","04:00","11.7","","9.4","","86","","36","","10","","16.1","","98.68","","","","","","Mostly Cloudy"
"1955-06-11 05:00","1955","06","11","05:00","12.2","","9.4","","83","","36","","6","","19.3","","98.68","","","","","","Mostly Cloudy"
"1955-06-11 06:00","1955","06","11","06:00","13.3","","10.0","","80","","36","","6","","24.1","","98.67","","","","","","Mainly Clear"
"1955-06-11 07:00","1955","06","11","07:00","15.6","","11.1","","75","","36","","6","","6.4","","98.68","","","","","","Haze"
"1955-06-11 08:00","1955","06","11","08:00","20.0","","13.9","","68","","9","","8","","4.8","","98.64","","","","","","Smoke,Haze"
"1955-06-11 09:00","1955","06","11","09:00","20.0","","13.9","","68","","16","","13","","6.4","","98.62","","","","","","Smoke,Haze"
"1955-06-11 10:00","1955","06","11","10:00","20.0","","13.3","","66","","16","","14","","6.4","","98.55","","","","","","Smoke,Haze"
"1955-06-11 11:00","1955","06","11","11:00","19.4","","13.3","","68","","16","","19","","8.0","","98.56","","","","","","Rain Showers,Haze"
"1955-06-11 12:00","1955","06","11","12:00","17.8","","14.4","","81","","11","","8","","8.0","","98.52","","","","","","Rain Showers,Haze"
"1955-06-11 13:00","1955","06","11","13:00","18.3","","15.6","","87","","7","","10","","8.0","","98.51","","","","","","Rain Showers,Haze"
"1955-06-11 14:00","1955","06","11","14:00","18.9","","15.0","","78","","7","","16","","11.3","","98.46","","","","","","Cloudy"
"1955-06-11 15:00","1955","06","11","15:00","18.9","","15.0","","78","","11","","13","","11.3","","98.48","","","","","","Cloudy"
"1955-06-11 16:00","1955","06","11","16:00","17.8","","16.7","","93","","9","","8","","11.3","","98.48","","","","","","Rain Showers"
"1955-06-11 17:00","1955","06","11","17:00","17.2","","15.6","","90","","9","","19","","12.9","","98.30","","","","","","Cloudy"
"1955-06-11 18:00","1955","06","11","18:00","17.2","","15.0","","87","","9","","16","","12.9","","98.28","","","","","","Cloudy"
"1955-06-11 19:00","1955","06","11","19:00","17.2","","15.0","","87","","9","","13","","8.0","","98.26","","","","","","Smoke"
"1955-06-11 20:00","1955","06","11","20:00","16.7","","16.7","","100","","18","","23","","3.2","","98.26","","","","","","Thunderstorms,Heavy Rain Showers,Fog"
"1955-06-11 21:00","1955","06","11","21:00","15.0","","14.4","","96","","14","","3","","6.4","","98.26","","","","","","Thunderstorms,Moderate Rain Showers,Fog"
"1955-06-11 22:00","1955","06","11","22:00","14.4","","13.9","","96","","14","","11","","6.4","","98.28","","","","","","Thunderstorms,Moderate Rain Showers,Fog"
"1955-06-11 23:00","1955","06","11","23:00","14.4","","13.9","","96","","34","","6","","19.3","","98.10","","","","","","Rain Showers"
"1955-06-12 00:00","1955","06","12","00:00","14.4","","13.9","","96","","16","","14","","9.7","","98.17","","","","","","Fog"
"1955-06-12 01:00","1955","06","12","01:00","14.4","","13.9","","96","","20","","11","","0.4","","98.15","","","","","","Fog"
"1955-06-12 02:00","1955","06","12","02:00","13.9","","13.9","","100","","20","","5","","0.4","","98.10","","","","","","Fog"
"1955-06-12 03:00","1955","06","12","03:00","13.9","","13.9","","100","","20","","3","","0.4","","98.06","","","","","","Fog"
"1955-06-12 04:00","1955","06","12","04:00","13.9","","13.9","","100","","14","","14","","1.0","","98.06","","","","","","Fog"
"1955-06-12 05:00","1955","06","12","05:00","13.9","","13.9","","100","","14","","16","","2.8","","98.07","","","","","","Fog"
"1955-06-12 06:00","1955","06","12","06:00","14.4","","13.9","","96","","14","","10","","2.8","","98.05","","","","","","Fog"
"1955-06-12 07:00","1955","06","12","07:00","15.0","","13.9","","93","","16","","8","","2.0","","97.99","","","","","","Fog"
"1955-06-12 08:00","1955","06","12","08:00","16.1","","14.4","","90","","16","","8","","4.8","","98.03","","","","","","Fog"
"1955-06-12 09:00","1955","06","12","09:00","18.9","","15.0","","78","","16","","13","","9.7","","98.01","","","","","","Haze"
"1955-06-12 10:00","1955","06","12","10:00","20.0","","13.9","","68","","20","","16","","12.9","","97.96","","","","","","Mostly Cloudy"
"1955-06-12 11:00","1955","06","12","11:00","17.2","","15.0","","87","","20","","19","","16.1","","97.96","","","","","","Rain Showers"
"1955-06-12 12:00","1955","06","12","12:00","20.0","","13.9","","68","","20","","13","","16.1","","97.84","","","","","","Mostly Cloudy"
"1955-06-12 13:00","1955","06","12","13:00","19.4","","14.4","","73","","18","","39","","16.1","","97.90","","","","","","Cloudy"
"1955-06-12 14:00","1955","06","12","14:00","15.6","","13.3","","87","","34","","13","","16.1","","97.94","","","","","","Rain Showers"
"1955-06-12 15:00","1955","06","12","15:00","16.7","","13.9","","81","","9","","6","","16.1","","97.93","","","","","","Mostly Cloudy"
"1955-06-12 16:00","1955","06","12","16:00","17.8","","14.4","","81","","9","","8","","16.1","","97.91","","","","","","Mostly Cloudy"
"1955-06-12 17:00","1955","06","12","17:00","18.3","","13.9","","75","","11","","10","","16.1","","97.91","","","","","","Mostly Cloudy"
"1955-06-12 18:00","1955","06","12","18:00","17.8","","14.4","","81","","18","","13","","16.1","","97.92","","","","","","Cloudy"
"1955-06-12 19:00","1955","06","12","19:00","17.2","","14.4","","84","","18","","10","","16.1","","97.94","","","","","","Mostly Cloudy"
"1955-06-12 20:00","1955","06","12","20:00","15.6","","12.8","","84","","23","","6","","16.1","","97.95","","","","","","Mostly Cloudy"
"1955-06-12 21:00","1955","06","12","21:00","15.0","","12.8","","87","","20","","6","","16.1","","97.99","","","","","","Mainly Clear"
"1955-06-12 22:00","1955","06","12","22:00","13.9","","12.2","","90","","23","","8","","16.1","","97.99","","","","","","Mainly Clear"
"1955-06-12 23:00","1955","06","12","23:00","12.8","","11.7","","93","","25","","6","","25.0","","98.00","","","","","","Mainly Clear"
"1955-06-13 00:00","1955","06","13","00:00","12.2","","11.1","","93","","27","","6","","25.0","","98.00","","","","","","Mainly Clear"
"1955-06-13 01:00","1955","06","13","01:00","13.9","","12.2","","90","","29","","10","","24.1","","98.00","","","","","","Cloudy"
"1955-06-13 02:00","1955","06","13","02:00","13.9","","12.2","","90","","32","","10","","19.3","","98.00","","","","","","Mostly Cloudy"
"1955-06-13 03:00","1955","06","13","03:00","13.3","","11.7","","90","","32","","13","","19.3","","98.02","","","","","","Mostly Cloudy"
"1955-06-13 04:00","1955","06","13","04:00","12.2","","11.1","","93","","32","","11","","12.9","","98.05","","","","","","Mainly Clear"
"1955-06-13 05:00","1955","06","13","05:00","13.3","","11.7","","90","","29","","19","","9.7","","98.11","","","","","","Haze"
"1955-06-13 06:00","1955","06","13","06:00","13.9","","12.2","","90","","29","","18","","19.3","","98.16","","","","","","Mostly Cloudy"
"1955-06-13 07:00","1955","06","13","07:00","14.4","","12.2","","87","","32","","23","","8.0","","98.20","","","","","","Rain Showers,Haze"
"1955-06-13 08:00","1955","06","13","08:00","14.4","","12.2","","87","","32","","18","","24.1","","98.26","","","","","","Rain Showers"
"1955-06-13 09:00","1955","06","13","09:00","14.4","","11.7","","84","","29","","32","","16.1","","98.31","","","","","","Cloudy"
"1955-06-13 10:00","1955","06","13","10:00","15.6","","11.1","","75","","29","","31","","16.1","","98.35","","","","","","Cloudy"
"1955-06-13 11:00","1955","06","13","11:00","15.6","","11.7","","78","","29","","29","","16.1","","98.40","","","","","","Mostly Cloudy"
"1955-06-13 12:00","1955","06","13","12:00","16.1","","11.7","","75","","32","","35","","12.9","","98.42","","","","","","Mostly Cloudy"
"1955-06-13 13:00","1955","06","13","13:00","16.1","","11.7","","75","","29","","32","","12.9","","98.43","","","","","","Cloudy"
"1955-06-13 14:00","1955","06","13","14:00","15.6","","10.6","","72","","29","","32","","19.3","","98.45","","","","","","Cloudy"
"1955-06-13 15:00","1955","06","13","15:00","15.6","","10.6","","72","","29","","23","","16.1","","98.48","","","","","","Cloudy"
"1955-06-13 16:00","1955","06","13","16:00","15.0","","10.6","","75","","29","","23","","16.1","","98.51","","","","","","Cloudy"
"1955-06-13 17:00","1955","06","13","17:00","14.4","","10.6","","78","","27","","26","","16.1","","98.55","","","","","","Cloudy"
"1955-06-13 18:00","1955","06","13","18:00","13.3","","10.0","","80","","27","","24","","12.9","","98.61","","","","","","Cloudy"
"1955-06-13 19:00","1955","06","13","19:00","13.3","","10.0","","80","","27","","19","","12.9","","98.64","","","","","","Cloudy"
"1955-06-13 20:00","1955","06","13","20:00","12.8","","9.4","","80","","27","","14","","19.3","","98.67","","","","","","Cloudy"
"1955-06-13 21:00","1955","06","13","21:00","12.8","","9.4","","80","","25","","6","","19.3","","98.71","","","","","","Cloudy"
"1955-06-13 22:00","1955","06","13","22:00","11.7","","9.4","","86","","23","","13","","19.3","","98.72","","","","","","Cloudy"
"1955-06-13 23:00","1955","06","13","23:00","11.7","","9.4","","86","","23","","13","","16.1","","98.70","","","","","","Cloudy"
"1955-06-14 00:00","1955","06","14","00:00","11.7","","9.4","","86","","25","","13","","16.1","","98.70","","","","","","Cloudy"
"1955-06-14 01:00","1955","06","14","01:00","11.7","","8.9","","86","","27","","13","","16.1","","98.71","","","","","","Cloudy"
"1955-06-14 02:00","1955","06","14","02:00","11.7","","9.4","","86","","27","","13","","16.1","","98.74","","","","","","Cloudy"
"1955-06-14 03:00","1955","06","14","03:00","11.7","","10.0","","90","","27","","10","","19.3","","98.71","","","","","","Mostly Cloudy"
"1955-06-14 04:00","1955","06","14","04:00","11.7","","10.0","","90","","27","","10","","24.1","","98.72","","","","","","Cloudy"
"1955-06-14 05:00","1955","06","14","05:00","11.7","","10.0","","90","","27","","10","","24.1","","98.73","","","","","","Mostly Cloudy"
"1955-06-14 06:00","1955","06","14","06:00","12.2","","10.6","","90","","36","","16","","9.7","","98.78","","","","","","Haze"
"1955-06-14 07:00","1955","06","14","07:00","12.8","","10.6","","86","","36","","16","","9.7","","98.81","","","","","","Haze"
"1955-06-14 08:00","1955","06","14","08:00","15.0","","11.7","","81","","32","","8","","9.7","","98.91","","","","","","Haze"
"1955-06-14 09:00","1955","06","14","09:00","16.1","","11.7","","75","","36","","13","","11.3","","98.93","","","","","","Mostly Cloudy"
"1955-06-14 10:00","1955","06","14","10:00","16.7","","12.2","","75","","36","","13","","12.9","","98.93","","","","","","Mostly Cloudy"
"1955-06-14 11:00","1955","06","14","11:00","18.9","","12.2","","65","","32","","13","","16.1","","98.93","","","","","","Mostly Cloudy"
"1955-06-14 12:00","1955","06","14","12:00","20.0","","12.2","","61","","34","","21","","19.3","","98.93","","","","","","Mainly Clear"
"1955-06-14 13:00","1955","06","14","13:00","21.1","","11.7","","55","","34","","26","","24.1","","98.93","","","","","","Mainly Clear"
"1955-06-14 14:00","1955","06","14","14:00","21.7","","9.4","","46","","34","","26","","24.1","","98.95","","","","","","Mainly Clear"
"1955-06-14 15:00","1955","06","14","15:00","21.1","","10.0","","49","","36","","26","","24.1","","98.99","","","","","","Mainly Clear"
"1955-06-14 16:00","1955","06","14","16:00","19.4","","11.1","","59","","36","","23","","25.0","","99.01","","","","","","Mostly Cloudy"
"1955-06-14 17:00","1955","06","14","17:00","20.0","","12.2","","61","","34","","21","","25.0","","99.05","","","","","","Mainly Clear"
"1955-06-14 18:00","1955","06","14","18:00","20.0","","11.1","","57","","34","","16","","25.0","","99.08","","","","","","Mainly Clear"
"1955-06-14 19:00","1955","06","14","19:00","18.9","","11.7","","63","","34","","10","","25.0","","99.12","","","","","","Clear"
"1955-06-14 20:00","1955","06","14","20:00","17.2","","12.8","","75","","34","","11","","25.0","","99.18","","","","","","Clear"
"1955-06-14 21:00","1955","06","14","21:00","16.7","","11.1","","70","","32","","13","","25.0","","99.24","","","","","","Clear"
"1955-06-14 22:00","1955","06","14","22:00","15.0","","10.6","","75","","29","","13","","25.0","","99.27","","","","","","Clear"
"1955-06-14 23:00","1955","06","14","23:00","13.3","","10.6","","83","","29","","8","","25.0","","99.29","","","","","","Clear"
"1955-06-15 00:00","1955","06","15","00:00","13.3","","9.4","","77","","29","","8","","25.0","","99.35","","","","","","Clear"
"1955-06-15 01:00","1955","06","15","01:00","12.2","","8.3","","77","","29","","8","","25.0","","99.57","","","","","","Clear"
"1955-06-15 02:00","1955","06","15","02:00","11.7","","7.8","","77","","32","","13","","25.0","","99.39","","","","","","Clear"
"1955-06-15 03:00","1955","06","15","03:00","11.1","","8.3","","83","","32","","13","","25.0","","99.39","","","","","","Clear"
"1955-06-15 04:00","1955","06","15","04:00","11.1","","7.8","","80","","34","","13","","25.0","","99.44","","","","","","Clear"
"1955-06-15 05:00","1955","06","15","05:00","12.2","","7.2","","71","","34","","8","","25.0","","99.48","","","","","","Clear"
"1955-06-15 06:00","1955","06","15","06:00","13.9","","9.4","","75","","34","","5","","25.0","","99.55","","","","","","Clear"
"1955-06-15 07:00","1955","06","15","07:00","15.6","","10.0","","70","","36","","10","","25.0","","99.58","","","","","","Clear"
"1955-06-15 08:00","1955","06","15","08:00","20.0","","11.1","","57","","34","","19","","19.3","","99.64","","","","","","Mainly Clear"
"1955-06-15 09:00","1955","06","15","09:00","21.7","","11.1","","51","","34","","19","","19.3","","99.69","","","","","","Mainly Clear"
"1955-06-15 10:00","1955","06","15","10:00","23.3","","10.6","","45","","34","","11","","24.1","","99.71","","25","","","","Mainly Clear"
"1955-06-15 11:00","1955","06","15","11:00","25.6","","8.9","","35","","34","","16","","24.1","","99.69","","26","","","","Mainly Clear"
"1955-06-15 12:00","1955","06","15","12:00","26.1","","9.4","","35","","29","","19","","24.1","","99.65","","27","","","","Clear"
"1955-06-15 13:00","1955","06","15","13:00","26.1","","8.3","","32","","29","","19","","24.1","","99.61","","27","","","","Clear"
"1955-06-15 14:00","1955","06","15","14:00","27.2","","7.8","","29","","29","","16","","24.1","","99.59","","28","","","","Clear"
"1955-06-15 15:00","1955","06","15","15:00","27.2","","11.1","","37","","32","","19","","24.1","","99.55","","29","","","","Clear"
"1955-06-15 16:00","1955","06","15","16:00","27.2","","12.2","","40","","29","","23","","24.1","","99.51","","30","","","","Clear"
"1955-06-15 17:00","1955","06","15","17:00","26.7","","11.7","","39","","29","","23","","24.1","","99.50","","29","","","","Clear"
"1955-06-15 18:00","1955","06","15","18:00","25.6","","12.2","","44","","29","","21","","24.1","","99.52","","28","","","","Clear"
"1955-06-15 19:00","1955","06","15","19:00","23.9","","12.2","","48","","29","","19","","24.1","","99.54","","26","","","","Mainly Clear"
"1955-06-15 20:00","1955","06","15","20:00","20.0","","12.8","","63","","27","","16","","24.1","","99.55","","","","","","Mainly Clear"
"1955-06-15 21:00","1955","06","15","21:00","18.9","","11.1","","61","","29","","16","","24.1","","99.59","","","","","","Mainly Clear"
"1955-06-15 22:00","1955","06","15","22:00","16.7","","11.1","","70","","27","","16","","24.1","","99.56","","","","","","Clear"
"1955-06-15 23:00","1955","06","15","23:00","16.1","","10.6","","70","","27","","13","","25.0","","99.56","","","","","","Clear"
"1955-06-16 00:00","1955","06","16","00:00","15.0","","10.6","","75","","27","","11","","25.0","","99.54","","","","","","Clear"
"1955-06-16 01:00","1955","06","16","01:00","15.0","","10.6","","75","","27","","8","","25.0","","99.51","","","","","","Clear"
"1955-06-16 02:00","1955","06","16","02:00","13.9","","10.6","","80","","27","","10","","25.0","","99.52","","","","","","Clear"
"1955-06-16 03:00","1955","06","16","03:00","13.9","","10.6","","80","","23","","3","","25.0","","99.52","","","","","","Mainly Clear"
"1955-06-16 04:00","1955","06","16","04:00","13.3","","9.4","","77","","27","","10","","25.0","","99.53","","","","","","Mainly Clear"
"1955-06-16 05:00","1955","06","16","05:00","15.0","","10.6","","75","","27","","16","","25.0","","99.55","","","","","","Mainly Clear"
"1955-06-16 06:00","1955","06","16","06:00","17.2","","12.2","","72","","27","","6","","25.0","","99.56","","","","","","Mainly Clear"
"1955-06-16 07:00","1955","06","16","07:00","18.9","","13.3","","73","","27","","8","","25.0","","99.57","","","","","","Mainly Clear"
"1955-06-16 08:00","1955","06","16","08:00","22.8","","12.2","","51","","29","","19","","25.0","","99.58","","25","","","","Mainly Clear"
"1955-06-16 09:00","1955","06","16","09:00","24.4","","13.3","","50","","32","","24","","25.0","","99.57","","27","","","","Mainly Clear"
"1955-06-16 10:00","1955","06","16","10:00","26.1","","14.4","","49","","29","","29","","25.0","","99.55","","30","","","","Mainly Clear"
"1955-06-16 11:00","1955","06","16","11:00","26.7","","15.0","","49","","29","","26","","25.0","","99.53","","31","","","","Mainly Clear"
"1955-06-16 12:00","1955","06","16","12:00","27.8","","15.0","","46","","32","","29","","25.0","","99.55","","32","","","","Mainly Clear"
"1955-06-16 13:00","1955","06","16","13:00","27.8","","13.9","","43","","32","","29","","25.0","","99.54","","31","","","","Mainly Clear"
"1955-06-16 14:00","1955","06","16","14:00","28.9","","15.0","","43","","32","","27","","25.0","","99.51","","33","","","","Mainly Clear"
"1955-06-16 15:00","1955","06","16","15:00","28.9","","16.1","","46","","29","","24","","25.0","","99.47","","34","","","","Mainly Clear"
"1955-06-16 16:00","1955","06","16","16:00","28.9","","16.7","","48","","29","","24","","25.0","","99.46","","34","","","","Mainly Clear"
"1955-06-16 17:00","1955","06","16","17:00","28.9","","17.2","","50","","29","","19","","25.0","","99.46","","34","","","","Mostly Cloudy"
"1955-06-16 18:00","1955","06","16","18:00","27.2","","16.7","","53","","29","","16","","25.0","","99.47","","32","","","","Mostly Cloudy"
"1955-06-16 19:00","1955","06","16","19:00","26.7","","17.8","","58","","29","","11","","25.0","","99.50","","33","","","","Mostly Cloudy"
"1955-06-16 20:00","1955","06","16","20:00","22.8","","16.7","","69","","27","","11","","25.0","","99.56","","28","","","","Mainly Clear"
"1955-06-16 21:00","1955","06","16","21:00","21.7","","15.0","","66","","29","","10","","25.0","","99.63","","26","","","","Mainly Clear"
"1955-06-16 22:00","1955","06","16","22:00","20.6","","14.4","","68","","32","","8","","25.0","","99.65","","","","","","Mainly Clear"
"1955-06-16 23:00","1955","06","16","23:00","18.3","","13.3","","73","","29","","6","","25.0","","99.70","","","","","","Mainly Clear"
"1955-06-17 00:00","1955","06","17","00:00","17.2","","12.8","","75","","27","","3","","25.0","","99.70","","","","","","Clear"
"1955-06-17 01:00","1955","06","17","01:00","16.7","","12.8","","78","","32","","6","","25.0","","99.71","","","","","","Clear"
"1955-06-17 02:00","1955","06","17","02:00","16.1","","11.7","","75","","32","","3","","25.0","","99.72","","","","","","Clear"
"1955-06-17 03:00","1955","06","17","03:00","15.6","","12.2","","81","","18","","6","","25.0","","99.78","","","","","","Clear"
"1955-06-17 04:00","1955","06","17","04:00","15.0","","11.1","","78","","23","","3","","25.0","","99.83","","","","","","Clear"
"1955-06-17 05:00","1955","06","17","05:00","13.9","","11.1","","83","","23","","6","","25.0","","99.90","","","","","","Clear"
"1955-06-17 06:00","1955","06","17","06:00","17.2","","12.8","","75","","","","0","","25.0","","99.93","","","","","","Clear"
"1955-06-17 07:00","1955","06","17","07:00","20.6","","13.9","","66","","32","","3","","32.2","","99.96","","","","","","Clear"
"1955-06-17 08:00","1955","06","17","08:00","23.3","","16.1","","64","","32","","6","","25.0","","100.00","","28","","","","Clear"
"1955-06-17 09:00","1955","06","17","09:00","26.1","","17.2","","58","","","","0","","24.1","","100.01","","32","","","","Clear"
"1955-06-17 10:00","1955","06","17","10:00","28.3","","14.4","","43","","20","","6","","24.1","","100.02","","32","","","","Clear"
"1955-06-17 11:00","1955","06","17","11:00","29.4","","15.0","","42","","20","","5","","25.0","","100.02","","33","","","","Clear"
"1955-06-17 12:00","1955","06","17","12:00","30.0","","13.9","","38","","23","","5","","25.0","","100.02","","33","","","","Mainly Clear"
"1955-06-17 13:00","1955","06","17","13:00","30.0","","16.1","","43","","18","","13","","24.1","","99.99","","35","","","","Mainly Clear"
"1955-06-17 14:00","1955","06","17","14:00","30.6","","16.1","","42","","18","","13","","24.1","","99.95","","35","","","","Mainly Clear"
"1955-06-17 15:00","1955","06","17","15:00","31.1","","16.1","","41","","16","","13","","24.1","","99.91","","36","","","","Mainly Clear"
"1955-06-17 16:00","1955","06","17","16:00","30.6","","16.1","","42","","18","","11","","24.1","","99.90","","35","","","","Mainly Clear"
"1955-06-17 17:00","1955","06","17","17:00","30.6","","15.6","","41","","18","","10","","24.1","","99.91","","35","","","","Mainly Clear"
"1955-06-17 18:00","1955","06","17","18:00","27.8","","13.9","","43","","32","","11","","24.1","","99.96","","31","","","","Mainly Clear"
"1955-06-17 19:00","1955","06","17","19:00","26.7","","14.4","","47","","36","","5","","24.1","","100.01","","30","","","","Mainly Clear"
"1955-06-17 20:00","1955","06","17","20:00","25.0","","13.9","","50","","36","","3","","24.1","","100.05","","28","","","","Mainly Clear"
"1955-06-17 21:00","1955","06","17","21:00","23.9","","14.4","","56","","36","","2","","24.1","","100.11","","28","","","","Mainly Clear"
"1955-06-17 22:00","1955","06","17","22:00","21.1","","15.0","","68","","36","","3","","24.1","","100.14","","25","","","","Clear"
"1955-06-17 23:00","1955","06","17","23:00","20.0","","13.3","","66","","36","","6","","24.1","","100.15","","","","","","Clear"
"1955-06-18 00:00","1955","06","18","00:00","18.3","","12.8","","70","","34","","8","","24.1","","100.16","","","","","","Clear"
"1955-06-18 01:00","1955","06","18","01:00","18.3","","12.8","","70","","34","","5","","24.1","","100.17","","","","","","Clear"
"1955-06-18 02:00","1955","06","18","02:00","17.8","","13.3","","75","","32","","5","","24.1","","100.18","","","","","","Clear"
"1955-06-18 03:00","1955","06","18","03:00","16.1","","13.9","","87","","32","","3","","24.1","","100.21","","","","","","Clear"
"1955-06-18 04:00","1955","06","18","04:00","15.0","","12.8","","87","","","","0","","24.1","","100.21","","","","","","Mainly Clear"
"1955-06-18 05:00","1955","06","18","05:00","16.1","","11.7","","75","","","","0","","24.1","","100.25","","","","","","Mainly Clear"
"1955-06-18 06:00","1955","06","18","06:00","18.3","","12.8","","70","","36","","10","","24.1","","100.29","","","","","","Clear"
"1955-06-18 07:00","1955","06","18","07:00","20.0","","14.4","","70","","36","","3","","24.1","","100.30","","","","","","Clear"
"1955-06-18 08:00","1955","06","18","08:00","24.4","","15.0","","56","","2","","5","","24.1","","100.32","","28","","","","Mainly Clear"
"1955-06-18 09:00","1955","06","18","09:00","26.7","","16.1","","52","","11","","3","","19.3","","100.31","","31","","","","Clear"
"1955-06-18 10:00","1955","06","18","10:00","27.8","","13.3","","41","","14","","13","","19.3","","100.31","","31","","","","Clear"
"1955-06-18 11:00","1955","06","18","11:00","28.3","","15.0","","44","","14","","13","","19.3","","100.30","","32","","","","Mainly Clear"
"1955-06-18 12:00","1955","06","18","12:00","28.9","","13.9","","40","","14","","13","","19.3","","100.32","","32","","","","Mainly Clear"
"1955-06-18 13:00","1955","06","18","13:00","29.4","","9.4","","29","","14","","11","","19.3","","100.25","","30","","","","Mainly Clear"
"1955-06-18 14:00","1955","06","18","14:00","30.0","","15.0","","40","","11","","11","","19.3","","100.17","","34","","","","Mainly Clear"
"1955-06-18 15:00","1955","06","18","15:00","30.6","","13.9","","36","","16","","13","","19.3","","100.11","","34","","","","Mainly Clear"
"1955-06-18 16:00","1955","06","18","16:00","30.0","","13.3","","36","","14","","14","","19.3","","100.07","","33","","","","Mostly Cloudy"
"1955-06-18 17:00","1955","06","18","17:00","28.3","","15.0","","44","","14","","8","","19.3","","100.02","","32","","","","Mostly Cloudy"
"1955-06-18 18:00","1955","06","18","18:00","27.8","","15.6","","48","","14","","10","","16.1","","99.96","","32","","","","Mostly Cloudy"
"1955-06-18 19:00","1955","06","18","19:00","26.7","","17.2","","56","","16","","10","","12.9","","99.96","","32","","","","Mostly Cloudy"
"1955-06-18 20:00","1955","06","18","20:00","26.1","","18.3","","62","","18","","3","","9.7","","99.97","","32","","","","Smoke,Haze"
"1955-06-18 21:00","1955","06","18","21:00","23.3","","15.0","","60","","18","","2","","12.9","","99.99","","27","","","","Mainly Clear"
"1955-06-18 22:00","1955","06","18","22:00","22.8","","15.6","","64","","18","","2","","12.9","","99.98","","27","","","","Mainly Clear"
"1955-06-18 23:00","1955","06","18","23:00","20.6","","15.6","","73","","32","","5","","12.9","","99.98","","25","","","","Mainly Clear"
"1955-06-19 00:00","1955","06","19","00:00","19.4","","16.1","","81","","32","","6","","12.9","","99.95","","","","","","Mostly Cloudy"
"1955-06-19 01:00","1955","06","19","01:00","19.4","","16.1","","81","","32","","3","","12.9","","99.92","","","","","","Mostly Cloudy"
"1955-06-19 02:00","1955","06","19","02:00","18.9","","16.1","","84","","34","","3","","12.9","","99.87","","","","","","Mostly Cloudy"
"1955-06-19 03:00","1955","06","19","03:00","18.9","","16.1","","84","","34","","3","","12.9","","99.87","","","","","","Mostly Cloudy"
"1955-06-19 04:00","1955","06","19","04:00","18.9","","15.6","","81","","34","","6","","11.3","","99.85","","","","","","Mostly Cloudy"
"1955-06-19 05:00","1955","06","19","05:00","19.4","","15.6","","78","","29","","3","","9.7","","99.83","","","","","","Haze"
"1955-06-19 06:00","1955","06","19","06:00","19.4","","16.1","","81","","","","0","","8.0","","99.85","","","","","","Haze"
"1955-06-19 07:00","1955","06","19","07:00","21.1","","16.1","","73","","","","0","","9.7","","99.85","","26","","","","Haze"
"1955-06-19 08:00","1955","06","19","08:00","21.7","","16.7","","73","","","","0","","9.7","","99.82","","27","","","","Haze"
"1955-06-19 09:00","1955","06","19","09:00","22.8","","17.2","","71","","","","0","","8.0","","99.80","","28","","","","Haze"
"1955-06-19 10:00","1955","06","19","10:00","25.0","","16.7","","60","","18","","6","","8.0","","99.78","","30","","","","Haze"
"1955-06-19 11:00","1955","06","19","11:00","26.7","","16.1","","52","","14","","10","","8.0","","99.76","","31","","","","Haze"
"1955-06-19 12:00","1955","06","19","12:00","27.8","","17.2","","53","","14","","5","","8.0","","99.69","","33","","","","Haze"
"1955-06-19 13:00","1955","06","19","13:00","27.2","","17.8","","56","","11","","10","","6.4","","99.64","","33","","","","Haze"
"1955-06-19 14:00","1955","06","19","14:00","28.3","","17.8","","53","","11","","13","","6.4","","99.57","","34","","","","Haze"
"1955-06-19 15:00","1955","06","19","15:00","27.8","","16.7","","51","","14","","16","","6.4","","99.50","","33","","","","Haze"
"1955-06-19 16:00","1955","06","19","16:00","27.8","","16.7","","51","","16","","13","","9.7","","99.44","","33","","","","Haze"
"1955-06-19 17:00","1955","06","19","17:00","26.1","","16.7","","56","","14","","8","","9.7","","99.41","","31","","","","Thunderstorms,Haze"
"1955-06-19 18:00","1955","06","19","18:00","18.9","","15.0","","78","","34","","32","","9.7","","99.64","","","","","","Thunderstorms,Rain Showers"
"1955-06-19 19:00","1955","06","19","19:00","18.3","","14.4","","78","","34","","24","","24.1","","99.67","","","","","","Thunderstorms,Rain Showers"
"1955-06-19 20:00","1955","06","19","20:00","17.2","","15.0","","87","","34","","24","","24.1","","99.45","","","","","","Mostly Cloudy"
"1955-06-19 21:00","1955","06","19","21:00","19.4","","13.9","","70","","20","","6","","24.1","","99.37","","","","","","Mainly Clear"
"1955-06-19 22:00","1955","06","19","22:00","18.3","","13.3","","73","","29","","3","","24.1","","99.34","","","","","","Mainly Clear"
"1955-06-19 23:00","1955","06","19","23:00","17.2","","13.9","","81","","","","0","","25.0","","99.36","","","","","","Clear"
"1955-06-20 00:00","1955","06","20","00:00","16.7","","13.3","","81","","23","","6","","24.1","","99.36","","","","","","Clear"
"1955-06-20 01:00","1955","06","20","01:00","16.1","","13.3","","84","","23","","3","","24.1","","99.34","","","","","","Clear"
"1955-06-20 02:00","1955","06","20","02:00","15.6","","13.3","","87","","","","0","","25.0","","99.30","","","","","","Clear"
"1955-06-20 03:00","1955","06","20","03:00","15.0","","12.8","","87","","27","","5","","25.0","","99.29","","","","","","Clear"
"1955-06-20 04:00","1955","06","20","04:00","14.4","","12.2","","87","","27","","3","","25.0","","99.29","","","","","","Mainly Clear"
"1955-06-20 05:00","1955","06","20","05:00","15.0","","12.8","","87","","32","","5","","19.3","","99.30","","","","","","Mainly Clear"
"1955-06-20 06:00","1955","06","20","06:00","16.1","","13.9","","87","","","","0","","16.1","","99.34","","","","","","Clear"
"1955-06-20 07:00","1955","06","20","07:00","18.3","","15.0","","81","","","","0","","16.1","","99.32","","","","","","Mainly Clear"
"1955-06-20 08:00","1955","06","20","08:00","22.8","","16.1","","66","","25","","3","","16.1","","99.32","","27","","","","Mainly Clear"
"1955-06-20 09:00","1955","06","20","09:00","24.4","","16.7","","62","","25","","6","","16.1","","99.27","","29","","","","Mainly Clear"
"1955-06-20 10:00","1955","06","20","10:00","26.1","","16.7","","56","","34","","6","","16.1","","99.28","","31","","","","Mainly Clear"
"1955-06-20 11:00","1955","06","20","11:00","28.3","","16.1","","48","","29","","10","","16.1","","99.28","","33","","","","Mainly Clear"
"1955-06-20 12:00","1955","06","20","12:00","28.3","","16.1","","48","","27","","8","","16.1","","99.24","","33","","","","Mainly Clear"
"1955-06-20 13:00","1955","06","20","13:00","28.9","","16.1","","46","","27","","13","","12.9","","99.17","","34","","","","Mostly Cloudy"
"1955-06-20 14:00","1955","06","20","14:00","23.9","","15.0","","58","","23","","21","","12.9","","99.13","","28","","","","Thunderstorms,Rain Showers"
"1955-06-20 15:00","1955","06","20","15:00","21.7","","16.1","","71","","2","","26","","12.9","","99.15","","26","","","","Mostly Cloudy"
"1955-06-20 16:00","1955","06","20","16:00","21.7","","16.1","","71","","34","","10","","12.9","","99.10","","26","","","","Mostly Cloudy"
"1955-06-20 17:00","1955","06","20","17:00","22.8","","16.1","","66","","27","","8","","12.9","","99.06","","27","","","","Mostly Cloudy"
"1955-06-20 18:00","1955","06","20","18:00","23.3","","17.2","","69","","25","","14","","12.9","","99.05","","29","","","","Mainly Clear"
"1955-06-20 19:00","1955","06","20","19:00","23.9","","18.3","","71","","23","","3","","11.3","","99.05","","30","","","","Mostly Cloudy"
"1955-06-20 20:00","1955","06","20","20:00","22.2","","18.9","","82","","27","","5","","8.0","","99.10","","29","","","","Smoke,Haze"
"1955-06-20 21:00","1955","06","20","21:00","20.6","","17.8","","84","","","","0","","11.3","","99.16","","26","","","","Mainly Clear"
"1955-06-20 22:00","1955","06","20","22:00","19.4","","17.2","","87","","25","","5","","12.9","","99.19","","","","","","Mainly Clear"
"1955-06-20 23:00","1955","06","20","23:00","18.3","","16.1","","87","","27","","8","","12.9","","99.18","","","","","","Clear"
"1955-06-21 00:00","1955","06","21","00:00","17.2","","15.6","","90","","25","","5","","12.9","","99.18","","","","","","Clear"
"1955-06-21 01:00","1955","06","21","01:00","16.7","","15.0","","90","","25","","8","","12.9","","99.14","","","","","","Clear"
"1955-06-21 02:00","1955","06","21","02:00","15.0","","13.9","","93","","23","","3","","11.3","","99.13","","","","","","Clear"
"1955-06-21 03:00","1955","06","21","03:00","15.6","","13.9","","90","","23","","13","","9.7","","99.07","","","","","","Fog"
"1955-06-21 04:00","1955","06","21","04:00","15.0","","13.9","","93","","23","","5","","6.4","","99.12","","","","","","Fog"
"1955-06-21 05:00","1955","06","21","05:00","15.6","","14.4","","93","","18","","8","","6.4","","99.11","","","","","","Fog"
"1955-06-21 06:00","1955","06","21","06:00","17.8","","15.0","","84","","","","0","","6.4","","99.09","","","","","","Fog"
"1955-06-21 07:00","1955","06","21","07:00","19.4","","16.1","","81","","","","0","","4.8","","99.09","","","","","","Haze"
"1955-06-21 08:00","1955","06","21","08:00","23.3","","18.3","","74","","18","","8","","4.8","","99.08","","30","","","","Haze"
"1955-06-21 09:00","1955","06","21","09:00","25.6","","18.9","","67","","18","","10","","6.4","","99.03","","32","","","","Haze"
"1955-06-21 10:00","1955","06","21","10:00","26.1","","18.9","","65","","20","","19","","9.7","","98.97","","33","","","","Haze"
"1955-06-21 11:00","1955","06","21","11:00","28.3","","16.1","","48","","23","","24","","12.9","","98.87","","33","","","","Mostly Cloudy"
"1955-06-21 12:00","1955","06","21","12:00","28.9","","15.0","","43","","23","","32","","19.3","","98.84","","33","","","","Mostly Cloudy"
"1955-06-21 13:00","1955","06","21","13:00","28.9","","13.9","","40","","25","","29","","24.1","","98.77","","32","","","","Mostly Cloudy"
"1955-06-21 14:00","1955","06","21","14:00","23.3","","15.0","","60","","23","","19","","24.1","","98.80","","27","","","","Rain Showers"
"1955-06-21 15:00","1955","06","21","15:00","23.3","","16.7","","66","","20","","19","","24.1","","98.77","","28","","","","Mostly Cloudy"
"1955-06-21 16:00","1955","06","21","16:00","27.8","","12.8","","40","","25","","24","","24.1","","98.74","","30","","","","Mostly Cloudy"
"1955-06-21 17:00","1955","06","21","17:00","26.1","","13.3","","45","","29","","24","","24.1","","98.75","","29","","","","Mostly Cloudy"
"1955-06-21 18:00","1955","06","21","18:00","25.6","","12.2","","44","","29","","23","","24.1","","98.79","","28","","","","Mostly Cloudy"
"1955-06-21 19:00","1955","06","21","19:00","24.4","","13.3","","50","","29","","11","","24.1","","98.83","","27","","","","Mainly Clear"
"1955-06-21 20:00","1955","06","21","20:00","21.1","","13.3","","61","","29","","11","","24.1","","98.86","","","","","","Mainly Clear"
"1955-06-21 21:00","1955","06","21","21:00","19.4","","13.9","","70","","29","","16","","24.1","","98.90","","","","","","Mainly Clear"
"1955-06-21 22:00","1955","06","21","22:00","16.7","","12.2","","75","","29","","16","","24.1","","98.93","","","","","","Mainly Clear"
"1955-06-21 23:00","1955","06","21","23:00","17.2","","13.3","","78","","29","","16","","25.0","","98.89","","","","","","Clear"
"1955-06-22 00:00","1955","06","22","00:00","16.1","","12.8","","81","","29","","11","","25.0","","98.85","","","","","","Clear"
"1955-06-22 01:00","1955","06","22","01:00","16.1","","12.2","","78","","27","","6","","25.0","","98.82","","","","","","Clear"
"1955-06-22 02:00","1955","06","22","02:00","15.0","","12.2","","84","","23","","5","","25.0","","98.79","","","","","","Clear"
"1955-06-22 03:00","1955","06","22","03:00","13.9","","11.1","","83","","25","","13","","25.0","","98.79","","","","","","Clear"
"1955-06-22 04:00","1955","06","22","04:00","13.9","","11.1","","83","","23","","8","","25.0","","98.78","","","","","","Clear"
"1955-06-22 05:00","1955","06","22","05:00","13.9","","11.7","","87","","23","","6","","25.0","","98.77","","","","","","Mainly Clear"
"1955-06-22 06:00","1955","06","22","06:00","16.1","","12.8","","81","","23","","6","","24.1","","98.80","","","","","","Mainly Clear"
"1955-06-22 07:00","1955","06","22","07:00","17.8","","13.3","","75","","23","","13","","19.3","","98.77","","","","","","Mostly Cloudy"
"1955-06-22 08:00","1955","06","22","08:00","20.0","","13.9","","68","","23","","16","","25.0","","98.76","","","","","","Mostly Cloudy"
"1955-06-22 09:00","1955","06","22","09:00","17.8","","15.6","","87","","25","","13","","25.0","","98.71","","","","","","Rain Showers"
"1955-06-22 10:00","1955","06","22","10:00","20.6","","16.1","","76","","25","","26","","25.0","","98.73","","25","","","","Mostly Cloudy"
"1955-06-22 11:00","1955","06","22","11:00","22.2","","15.6","","66","","25","","23","","25.0","","98.72","","27","","","","Mostly Cloudy"
"1955-06-22 12:00","1955","06","22","12:00","24.4","","12.2","","47","","25","","35","","25.0","","98.70","","27","","","","Mostly Cloudy"
"1955-06-22 13:00","1955","06","22","13:00","24.4","","12.2","","47","","27","","35","","25.0","","98.70","","27","","","","Mostly Cloudy"
"1955-06-22 14:00","1955","06","22","14:00","25.0","","11.7","","43","","27","","39","","25.0","","98.70","","27","","","","Mostly Cloudy"
"1955-06-22 15:00","1955","06","22","15:00","25.0","","11.1","","42","","25","","40","","25.0","","98.70","","27","","","","Mostly Cloudy"
"1955-06-22 16:00","1955","06","22","16:00","24.4","","11.1","","43","","27","","40","","25.0","","98.70","","26","","","","Mostly Cloudy"
"1955-06-22 17:00","1955","06","22","17:00","23.3","","11.1","","46","","27","","35","","25.0","","98.72","","25","","","","Mainly Clear"
"1955-06-22 18:00","1955","06","22","18:00","22.8","","10.0","","44","","27","","32","","25.0","","98.74","","","","","","Mainly Clear"
"1955-06-22 19:00","1955","06","22","19:00","21.1","","11.1","","53","","27","","19","","32.2","","98.80","","","","","","Mainly Clear"
"1955-06-22 20:00","1955","06","22","20:00","18.3","","12.2","","68","","29","","19","","25.0","","98.86","","","","","","Mainly Clear"
"1955-06-22 21:00","1955","06","22","21:00","17.2","","11.1","","67","","27","","19","","25.0","","98.92","","","","","","Mainly Clear"
"1955-06-22 22:00","1955","06","22","22:00","16.1","","11.7","","75","","27","","16","","25.0","","98.93","","","","","","Mainly Clear"
"1955-06-22 23:00","1955","06","22","23:00","15.6","","12.2","","81","","25","","13","","25.0","","98.96","","","","","","Mainly Clear"
"1955-06-23 00:00","1955","06","23","00:00","14.4","","11.7","","84","","23","","8","","25.0","","98.98","","","","","","Mainly Clear"
"1955-06-23 01:00","1955","06","23","01:00","15.0","","11.7","","81","","27","","16","","25.0","","98.98","","","","","","Mostly Cloudy"
"1955-06-23 02:00","1955","06","23","02:00","14.4","","10.6","","78","","29","","16","","25.0","","98.98","","","","","","Mainly Clear"
"1955-06-23 03:00","1955","06","23","03:00","12.8","","10.6","","86","","27","","16","","25.0","","98.98","","","","","","Mainly Clear"
"1955-06-23 04:00","1955","06","23","04:00","12.2","","9.4","","83","","25","","16","","25.0","","99.02","","","","","","Mainly Clear"
"1955-06-23 05:00","1955","06","23","05:00","12.2","","10.0","","86","","25","","16","","24.1","","99.12","","","","","","Mainly Clear"
"1955-06-23 06:00","1955","06","23","06:00","13.3","","10.6","","83","","25","","16","","19.3","","99.19","","","","","","Clear"
"1955-06-23 07:00","1955","06","23","07:00","14.4","","10.0","","75","","27","","32","","16.1","","99.19","","","","","","Mainly Clear"
"1955-06-23 08:00","1955","06","23","08:00","15.6","","11.7","","78","","27","","32","","16.1","","99.26","","","","","","Mostly Cloudy"
"1955-06-23 09:00","1955","06","23","09:00","18.3","","10.6","","61","","27","","32","","16.1","","99.25","","","","","","Mostly Cloudy"
"1955-06-23 10:00","1955","06","23","10:00","19.4","","10.6","","56","","27","","32","","24.1","","99.25","","","","","","Mostly Cloudy"
"1955-06-23 11:00","1955","06","23","11:00","21.1","","10.6","","51","","27","","32","","24.1","","99.24","","","","","","Mostly Cloudy"
"1955-06-23 12:00","1955","06","23","12:00","21.1","","10.6","","51","","27","","24","","24.1","","99.24","","","","","","Mostly Cloudy"
"1955-06-23 13:00","1955","06","23","13:00","21.1","","11.7","","55","","25","","24","","24.1","","99.22","","","","","","Mostly Cloudy"
"1955-06-23 14:00","1955","06","23","14:00","21.7","","10.0","","48","","25","","24","","24.1","","99.22","","","","","","Mostly Cloudy"
"1955-06-23 15:00","1955","06","23","15:00","22.2","","10.6","","48","","27","","29","","25.0","","99.19","","","","","","Mostly Cloudy"
"1955-06-23 16:00","1955","06","23","16:00","22.8","","11.7","","50","","25","","32","","25.0","","99.20","","25","","","","Mostly Cloudy"
"1955-06-23 17:00","1955","06","23","17:00","22.2","","10.6","","48","","27","","23","","25.0","","99.19","","","","","","Mostly Cloudy"
"1955-06-23 18:00","1955","06","23","18:00","21.7","","10.6","","49","","29","","24","","24.1","","99.20","","","","","","Mostly Cloudy"
"1955-06-23 19:00","1955","06","23","19:00","19.4","","12.2","","63","","36","","10","","12.9","","99.20","","","","","","Mostly Cloudy"
"1955-06-23 20:00","1955","06","23","20:00","16.7","","12.2","","75","","36","","8","","12.9","","99.23","","","","","","Mostly Cloudy"
"1955-06-23 21:00","1955","06","23","21:00","15.6","","12.2","","81","","2","","6","","16.1","","99.28","","","","","","Mostly Cloudy"
"1955-06-23 22:00","1955","06","23","22:00","15.0","","12.8","","87","","2","","6","","16.1","","99.28","","","","","","Mainly Clear"
"1955-06-23 23:00","1955","06","23","23:00","14.4","","12.2","","87","","","","0","","16.1","","99.28","","","","","","Mainly Clear"
"1955-06-24 00:00","1955","06","24","00:00","14.4","","12.2","","87","","","","0","","12.9","","99.27","","","","","","Mostly Cloudy"
"1955-06-24 01:00","1955","06","24","01:00","13.3","","11.1","","86","","","","0","","12.9","","99.22","","","","","","Mostly Cloudy"
"1955-06-24 02:00","1955","06","24","02:00","13.3","","12.2","","93","","20","","3","","8.0","","99.18","","","","","","Fog"
"1955-06-24 03:00","1955","06","24","03:00","13.9","","12.2","","90","","27","","6","","4.8","","99.17","","","","","","Fog"
"1955-06-24 04:00","1955","06","24","04:00","14.4","","12.8","","90","","25","","3","","4.8","","99.16","","","","","","Fog"
"1955-06-24 05:00","1955","06","24","05:00","14.4","","12.2","","87","","27","","10","","4.8","","99.18","","","","","","Fog"
"1955-06-24 06:00","1955","06","24","06:00","13.9","","11.1","","83","","29","","16","","9.7","","99.23","","","","","","Haze"
"1955-06-24 07:00","1955","06","24","07:00","13.9","","11.1","","83","","32","","16","","19.3","","99.29","","","","","","Mostly Cloudy"
"1955-06-24 08:00","1955","06","24","08:00","16.7","","10.0","","65","","29","","29","","24.1","","99.29","","","","","","Mostly Cloudy"
"1955-06-24 09:00","1955","06","24","09:00","17.2","","9.4","","60","","29","","26","","24.1","","99.32","","","","","","Mostly Cloudy"
"1955-06-24 10:00","1955","06","24","10:00","18.9","","9.4","","54","","27","","29","","24.1","","99.35","","","","","","Mostly Cloudy"
"1955-06-24 11:00","1955","06","24","11:00","18.3","","10.0","","58","","27","","24","","19.3","","99.36","","","","","","Cloudy"
"1955-06-24 12:00","1955","06","24","12:00","20.0","","10.6","","55","","29","","23","","19.3","","99.36","","","","","","Mostly Cloudy"
"1955-06-24 13:00","1955","06","24","13:00","20.6","","9.4","","49","","32","","23","","19.3","","99.33","","","","","","Mostly Cloudy"
"1955-06-24 14:00","1955","06","24","14:00","22.8","","9.4","","43","","27","","29","","19.3","","99.31","","","","","","Mainly Clear"
"1955-06-24 15:00","1955","06","24","15:00","22.2","","9.4","","44","","27","","23","","19.3","","99.27","","","","","","Mostly Cloudy"
"1955-06-24 16:00","1955","06","24","16:00","22.2","","10.0","","46","","27","","26","","19.3","","99.25","","","","","","Mainly Clear"
"1955-06-24 17:00","1955","06","24","17:00","21.7","","9.4","","46","","29","","23","","19.3","","99.26","","","","","","Mainly Clear"
"1955-06-24 18:00","1955","06","24","18:00","20.6","","10.0","","51","","27","","16","","24.1","","99.28","","","","","","Mainly Clear"
"1955-06-24 19:00","1955","06","24","19:00","18.9","","8.9","","52","","27","","14","","24.1","","99.30","","","","","","Mainly Clear"
"1955-06-24 20:00","1955","06","24","20:00","16.7","","7.2","","54","","29","","11","","25.0","","99.35","","","","","","Clear"
"1955-06-24 21:00","1955","06","24","21:00","15.6","","6.7","","55","","32","","8","","25.0","","99.37","","","","","","Clear"
"1955-06-24 22:00","1955","06","24","22:00","14.4","","8.3","","67","","18","","2","","25.0","","99.39","","","","","","Clear"
"1955-06-24 23:00","1955","06","24","23:00","12.8","","7.2","","69","","23","","3","","25.0","","99.42","","","","","","Clear"
"1955-06-25 00:00","1955","06","25","00:00","11.7","","7.8","","77","","29","","3","","25.0","","99.41","","","","","","Mainly Clear"
"1955-06-25 01:00","1955","06","25","01:00","10.0","","7.2","","83","","32","","3","","24.1","","99.39","","","","","","Mainly Clear"
"1955-06-25 02:00","1955","06","25","02:00","9.4","","7.2","","86","","27","","3","","24.1","","99.38","","","","","","Mainly Clear"
"1955-06-25 03:00","1955","06","25","03:00","8.9","","6.7","","86","","27","","3","","25.0","","99.35","","","","","","Mostly Cloudy"
"1955-06-25 04:00","1955","06","25","04:00","8.9","","7.2","","89","","32","","6","","24.1","","99.33","","","","","","Mostly Cloudy"
"1955-06-25 05:00","1955","06","25","05:00","9.4","","7.2","","86","","32","","3","","19.3","","99.35","","","","","","Mostly Cloudy"
"1955-06-25 06:00","1955","06","25","06:00","11.1","","7.8","","80","","34","","3","","16.1","","99.34","","","","","","Mostly Cloudy"
"1955-06-25 07:00","1955","06","25","07:00","13.3","","8.9","","74","","32","","5","","16.1","","99.34","","","","","","Mostly Cloudy"
"1955-06-25 08:00","1955","06","25","08:00","16.7","","9.4","","62","","","","0","","25.0","","99.28","","","","","","Clear"
"1955-06-25 09:00","1955","06","25","09:00","18.9","","9.4","","54","","27","","10","","25.0","","99.26","","","","","","Mainly Clear"
"1955-06-25 10:00","1955","06","25","10:00","20.0","","10.6","","55","","32","","23","","25.0","","99.27","","","","","","Mainly Clear"
"1955-06-25 11:00","1955","06","25","11:00","19.4","","10.0","","54","","29","","24","","25.0","","99.27","","","","","","Mostly Cloudy"
"1955-06-25 12:00","1955","06","25","12:00","18.3","","9.4","","56","","29","","26","","25.0","","99.25","","","","","","Mostly Cloudy"
"1955-06-25 13:00","1955","06","25","13:00","18.9","","9.4","","54","","29","","23","","19.3","","99.23","","","","","","Mostly Cloudy"
"1955-06-25 14:00","1955","06","25","14:00","20.6","","9.4","","49","","29","","24","","24.1","","99.20","","","","","","Mostly Cloudy"
"1955-06-25 15:00","1955","06","25","15:00","18.9","","10.0","","56","","34","","19","","24.1","","99.22","","","","","","Mostly Cloudy"
"1955-06-25 16:00","1955","06","25","16:00","18.9","","8.9","","52","","34","","26","","24.1","","99.22","","","","","","Mostly Cloudy"
"1955-06-25 17:00","1955","06","25","17:00","17.8","","10.0","","60","","34","","18","","24.1","","99.21","","","","","","Mostly Cloudy"
"1955-06-25 18:00","1955","06","25","18:00","17.2","","9.4","","60","","34","","23","","24.1","","99.23","","","","","","Mainly Clear"
"1955-06-25 19:00","1955","06","25","19:00","16.7","","9.4","","62","","32","","23","","24.1","","99.28","","","","","","Mainly Clear"
"1955-06-25 20:00","1955","06","25","20:00","15.6","","8.3","","62","","32","","16","","24.1","","99.34","","","","","","Clear"
"1955-06-25 21:00","1955","06","25","21:00","14.4","","9.4","","72","","32","","19","","24.1","","99.37","","","","","","Clear"
"1955-06-25 22:00","1955","06","25","22:00","12.8","","10.0","","83","","32","","13","","24.1","","99.36","","","","","","Clear"
"1955-06-25 23:00","1955","06","25","23:00","11.7","","9.4","","86","","29","","11","","25.0","","99.39","","","","","","Mainly Clear"
"1955-06-26 00:00","1955","06","26","00:00","11.7","","9.4","","86","","29","","11","","25.0","","99.38","","","","","","Mainly Clear"
"1955-06-26 01:00","1955","06","26","01:00","12.2","","8.9","","80","","32","","14","","25.0","","99.37","","","","","","Mainly Clear"
"1955-06-26 02:00","1955","06","26","02:00","11.7","","9.4","","86","","32","","13","","25.0","","99.36","","","","","","Mostly Cloudy"
"1955-06-26 03:00","1955","06","26","03:00","11.1","","8.9","","86","","34","","11","","25.0","","99.38","","","","","","Mostly Cloudy"
"1955-06-26 04:00","1955","06","26","04:00","10.6","","8.9","","89","","29","","5","","25.0","","99.46","","","","","","Cloudy"
"1955-06-26 05:00","1955","06","26","05:00","11.1","","9.4","","90","","29","","5","","25.0","","99.52","","","","","","Mainly Clear"
"1955-06-26 06:00","1955","06","26","06:00","12.8","","10.6","","86","","29","","10","","25.0","","99.55","","","","","","Cloudy"
"1955-06-26 07:00","1955","06","26","07:00","13.9","","11.1","","83","","32","","10","","24.1","","99.59","","","","","","Mostly Cloudy"
"1955-06-26 08:00","1955","06","26","08:00","17.8","","12.2","","70","","34","","16","","24.1","","99.61","","","","","","Mainly Clear"
"1955-06-26 09:00","1955","06","26","09:00","19.4","","11.7","","61","","34","","16","","24.1","","99.60","","","","","","Mainly Clear"
"1955-06-26 10:00","1955","06","26","10:00","20.6","","10.6","","53","","34","","16","","24.1","","99.59","","","","","","Mainly Clear"
"1955-06-26 11:00","1955","06","26","11:00","21.7","","10.6","","49","","34","","19","","24.1","","99.58","","","","","","Mainly Clear"
"1955-06-26 12:00","1955","06","26","12:00","21.1","","10.6","","51","","34","","19","","24.1","","99.55","","","","","","Mainly Clear"
"1955-06-26 13:00","1955","06","26","13:00","23.3","","10.0","","43","","34","","24","","24.1","","99.54","","25","","","","Mainly Clear"
"1955-06-26 14:00","1955","06","26","14:00","21.7","","10.6","","49","","34","","19","","24.1","","99.52","","","","","","Mostly Cloudy"
"1955-06-26 15:00","1955","06","26","15:00","21.7","","10.0","","48","","34","","19","","19.3","","99.50","","","","","","Mainly Clear"
"1955-06-26 16:00","1955","06","26","16:00","22.8","","8.3","","40","","34","","23","","19.3","","99.52","","","","","","Mainly Clear"
"1955-06-26 17:00","1955","06","26","17:00","21.1","","7.8","","42","","34","","21","","25.0","","99.55","","","","","","Mainly Clear"
"1955-06-26 18:00","1955","06","26","18:00","21.1","","8.9","","46","","34","","18","","25.0","","99.56","","","","","","Mainly Clear"
"1955-06-26 19:00","1955","06","26","19:00","20.0","","8.9","","49","","34","","10","","25.0","","99.59","","","","","","Clear"
"1955-06-26 20:00","1955","06","26","20:00","17.2","","9.4","","60","","34","","10","","25.0","","99.62","","","","","","Mainly Clear"
"1955-06-26 21:00","1955","06","26","21:00","16.1","","8.9","","62","","32","","6","","25.0","","99.68","","","","","","Clear"
"1955-06-26 22:00","1955","06","26","22:00","14.4","","8.3","","67","","32","","6","","25.0","","99.72","","","","","","Clear"
"1955-06-26 23:00","1955","06","26","23:00","13.9","","8.9","","72","","29","","6","","25.0","","99.74","","","","","","Clear"
"1955-06-27 00:00","1955","06","27","00:00","13.3","","10.6","","83","","32","","10","","25.0","","99.75","","","","","","Clear"
"1955-06-27 01:00","1955","06","27","01:00","12.8","","10.6","","86","","32","","11","","25.0","","99.77","","","","","","Clear"
"1955-06-27 02:00","1955","06","27","02:00","12.2","","8.9","","80","","32","","11","","25.0","","99.79","","","","","","Clear"
"1955-06-27 03:00","1955","06","27","03:00","11.1","","8.3","","83","","34","","10","","25.0","","99.80","","","","","","Clear"
"1955-06-27 04:00","1955","06","27","04:00","11.1","","7.8","","80","","32","","6","","25.0","","99.83","","","","","","Mainly Clear"
"1955-06-27 05:00","1955","06","27","05:00","11.7","","8.9","","83","","32","","3","","25.0","","99.89","","","","","","Mainly Clear"
"1955-06-27 06:00","1955","06","27","06:00","13.3","","9.4","","77","","29","","3","","25.0","","99.93","","","","","","Mainly Clear"
"1955-06-27 07:00","1955","06","27","07:00","15.6","","11.1","","75","","29","","3","","25.0","","99.97","","","","","","Clear"
"1955-06-27 08:00","1955","06","27","08:00","20.0","","11.1","","57","","36","","8","","25.0","","100.05","","","","","","Clear"
"1955-06-27 09:00","1955","06","27","09:00","23.3","","10.6","","45","","27","","6","","25.0","","100.03","","25","","","","Clear"
"1955-06-27 10:00","1955","06","27","10:00","25.0","","8.9","","35","","32","","10","","25.0","","100.02","","26","","","","Mainly Clear"
"1955-06-27 11:00","1955","06","27","11:00","25.6","","7.2","","31","","32","","8","","25.0","","100.02","","26","","","","Mainly Clear"
"1955-06-27 12:00","1955","06","27","12:00","25.0","","7.2","","32","","32","","19","","25.0","","100.02","","25","","","","Mostly Cloudy"
"1955-06-27 13:00","1955","06","27","13:00","25.0","","8.3","","35","","32","","23","","24.1","","100.01","","26","","","","Mostly Cloudy"
"1955-06-27 14:00","1955","06","27","14:00","25.6","","10.6","","39","","34","","23","","25.0","","99.99","","27","","","","Mainly Clear"
"1955-06-27 15:00","1955","06","27","15:00","25.0","","10.0","","39","","36","","16","","25.0","","99.95","","26","","","","Mainly Clear"
"1955-06-27 16:00","1955","06","27","16:00","25.0","","10.6","","40","","36","","16","","25.0","","99.96","","27","","","","Mainly Clear"
"1955-06-27 17:00","1955","06","27","17:00","25.0","","10.6","","40","","34","","10","","25.0","","99.99","","27","","","","Mainly Clear"
"1955-06-27 18:00","1955","06","27","18:00","24.4","","12.2","","47","","32","","21","","25.0","","100.01","","27","","","","Mainly Clear"
"1955-06-27 19:00","1955","06","27","19:00","22.8","","14.4","","59","","29","","16","","25.0","","100.06","","26","","","","Mainly Clear"
"1955-06-27 20:00","1955","06","27","20:00","21.1","","12.8","","59","","27","","16","","25.0","","100.07","","","","","","Mainly Clear"
"1955-06-27 21:00","1955","06","27","21:00","19.4","","13.9","","70","","36","","11","","25.0","","100.14","","","","","","Clear"
"1955-06-27 22:00","1955","06","27","22:00","18.3","","13.9","","75","","36","","10","","25.0","","100.17","","","","","","Clear"
"1955-06-27 23:00","1955","06","27","23:00","16.1","","11.7","","75","","32","","6","","25.0","","100.19","","","","","","Clear"
"1955-06-28 00:00","1955","06","28","00:00","15.0","","11.1","","78","","29","","6","","25.0","","100.21","","","","","","Clear"
"1955-06-28 01:00","1955","06","28","01:00","13.9","","10.0","","77","","32","","6","","25.0","","100.20","","","","","","Clear"
"1955-06-28 02:00","1955","06","28","02:00","13.3","","10.0","","80","","29","","6","","25.0","","100.21","","","","","","Clear"
"1955-06-28 03:00","1955","06","28","03:00","12.2","","9.4","","83","","29","","3","","25.0","","100.22","","","","","","Clear"
"1955-06-28 04:00","1955","06","28","04:00","11.7","","8.9","","83","","27","","10","","25.0","","100.25","","","","","","Clear"
"1955-06-28 05:00","1955","06","28","05:00","12.2","","8.9","","80","","27","","5","","25.0","","100.34","","","","","","Clear"
"1955-06-28 06:00","1955","06","28","06:00","14.4","","10.0","","75","","27","","2","","25.0","","100.38","","","","","","Clear"
"1955-06-28 07:00","1955","06","28","07:00","17.8","","12.2","","70","","20","","3","","19.3","","100.41","","","","","","Clear"
"1955-06-28 08:00","1955","06","28","08:00","22.8","","10.6","","46","","23","","8","","24.1","","100.41","","","","","","Clear"
"1955-06-28 09:00","1955","06","28","09:00","23.9","","10.6","","43","","25","","3","","25.0","","100.33","","25","","","","Clear"
"1955-06-28 10:00","1955","06","28","10:00","25.0","","11.7","","46","","32","","6","","25.0","","100.32","","27","","","","Clear"
"1955-06-28 11:00","1955","06","28","11:00","26.7","","12.2","","41","","25","","8","","25.0","","100.29","","29","","","","Clear"
"1955-06-28 12:00","1955","06","28","12:00","27.8","","12.2","","38","","29","","11","","25.0","","100.26","","30","","","","Mainly Clear"
"1955-06-28 13:00","1955","06","28","13:00","28.3","","11.7","","36","","27","","14","","25.0","","100.19","","30","","","","Mainly Clear"
"1955-06-28 14:00","1955","06","28","14:00","27.8","","11.7","","37","","14","","13","","24.1","","100.15","","30","","","","Mainly Clear"
"1955-06-28 15:00","1955","06","28","15:00","27.8","","12.8","","40","","16","","13","","24.1","","100.08","","30","","","","Mainly Clear"
"1955-06-28 16:00","1955","06","28","16:00","27.2","","13.3","","43","","16","","16","","24.1","","100.07","","30","","","","Mainly Clear"
"1955-06-28 17:00","1955","06","28","17:00","27.2","","12.2","","40","","16","","18","","24.1","","100.08","","30","","","","Mainly Clear"
"1955-06-28 18:00","1955","06","28","18:00","25.6","","12.8","","45","","18","","10","","19.3","","100.05","","28","","","","Mostly Cloudy"
"1955-06-28 19:00","1955","06","28","19:00","24.4","","12.8","","48","","18","","3","","16.1","","100.04","","27","","","","Mostly Cloudy"
"1955-06-28 20:00","1955","06","28","20:00","21.7","","13.9","","61","","","","0","","16.1","","100.01","","25","","","","Mainly Clear"
"1955-06-28 21:00","1955","06","28","21:00","20.6","","13.9","","66","","","","0","","16.1","","100.04","","","","","","Clear"
"1955-06-28 22:00","1955","06","28","22:00","19.4","","14.4","","73","","","","0","","16.1","","100.04","","","","","","Clear"
"1955-06-28 23:00","1955","06","28","23:00","18.3","","13.9","","75","","","","0","","16.1","","100.04","","","","","","Clear"
"1955-06-29 00:00","1955","06","29","00:00","17.2","","13.3","","78","","29","","6","","16.1","","100.01","","","","","","Clear"
"1955-06-29 01:00","1955","06","29","01:00","17.2","","13.9","","81","","29","","3","","16.1","","100.00","","","","","","Clear"
"1955-06-29 02:00","1955","06","29","02:00","16.1","","12.8","","81","","29","","3","","16.1","","100.00","","","","","","Clear"
"1955-06-29 03:00","1955","06","29","03:00","15.0","","12.8","","87","","27","","10","","16.1","","100.03","","","","","","Clear"
"1955-06-29 04:00","1955","06","29","04:00","16.1","","12.2","","78","","27","","10","","16.1","","100.04","","","","","","Mainly Clear"
"1955-06-29 05:00","1955","06","29","05:00","17.2","","11.7","","70","","27","","5","","19.3","","100.09","","","","","","Mainly Clear"
"1955-06-29 06:00","1955","06","29","06:00","19.4","","12.8","","65","","27","","3","","19.3","","100.09","","","","","","Mainly Clear"
"1955-06-29 07:00","1955","06","29","07:00","22.8","","13.3","","55","","27","","6","","19.3","","100.09","","26","","","","Mainly Clear"
"1955-06-29 08:00","1955","06","29","08:00","25.6","","13.3","","47","","27","","23","","19.3","","100.09","","29","","","","Mainly Clear"
"1955-06-29 09:00","1955","06","29","09:00","27.2","","13.3","","43","","27","","19","","19.3","","100.09","","30","","","","Mostly Cloudy"
"1955-06-29 10:00","1955","06","29","10:00","28.9","","12.2","","36","","23","","26","","19.3","","100.03","","31","","","","Mostly Cloudy"
"1955-06-29 11:00","1955","06","29","11:00","30.0","","12.8","","35","","25","","19","","19.3","","99.96","","33","","","","Mostly Cloudy"
"1955-06-29 12:00","1955","06","29","12:00","29.4","","11.7","","34","","23","","18","","19.3","","99.89","","32","","","","Mostly Cloudy"
"1955-06-29 13:00","1955","06","29","13:00","30.0","","11.7","","32","","23","","6","","19.3","","99.85","","32","","","","Mostly Cloudy"
"1955-06-29 14:00","1955","06","29","14:00","30.0","","11.7","","32","","23","","13","","19.3","","99.81","","32","","","","Mostly Cloudy"
"1955-06-29 15:00","1955","06","29","15:00","30.0","","11.1","","31","","20","","19","","19.3","","99.74","","32","","","","Mostly Cloudy"
"1955-06-29 16:00","1955","06","29","16:00","30.6","","11.1","","30","","23","","19","","19.3","","99.71","","32","","","","Mostly Cloudy"
"1955-06-29 17:00","1955","06","29","17:00","28.9","","12.2","","36","","23","","24","","19.3","","99.67","","31","","","","Mostly Cloudy"
"1955-06-29 18:00","1955","06","29","18:00","27.8","","12.8","","40","","23","","16","","19.3","","99.67","","30","","","","Mostly Cloudy"
"1955-06-29 19:00","1955","06","29","19:00","26.1","","12.2","","42","","23","","16","","19.3","","99.67","","28","","","","Cloudy"
"1955-06-29 20:00","1955","06","29","20:00","23.9","","12.2","","48","","23","","13","","19.3","","99.66","","26","","","","Mostly Cloudy"
"1955-06-29 21:00","1955","06","29","21:00","22.8","","12.2","","57","","23","","8","","19.3","","99.66","","25","","","","Mostly Cloudy"
"1955-06-29 22:00","1955","06","29","22:00","21.7","","12.8","","57","","23","","8","","19.3","","99.63","","","","","","Mostly Cloudy"
"1955-06-29 23:00","1955","06","29","23:00","21.1","","12.2","","57","","20","","8","","19.3","","99.61","","","","","","Mostly Cloudy"
"1955-06-30 00:00","1955","06","30","00:00","20.0","","12.8","","63","","20","","5","","19.3","","99.59","","","","","","Mostly Cloudy"
"1955-06-30 01:00","1955","06","30","01:00","18.9","","13.3","","70","","23","","3","","19.3","","99.58","","","","","","Mainly Clear"
"1955-06-30 02:00","1955","06","30","02:00","17.8","","12.8","","73","","23","","2","","16.1","","99.55","","","","","","Mainly Clear"
"1955-06-30 03:00","1955","06","30","03:00","18.9","","12.8","","68","","","","0","","16.1","","99.53","","","","","","Mostly Cloudy"
"1955-06-30 04:00","1955","06","30","04:00","18.9","","11.7","","63","","","","0","","12.9","","99.51","","","","","","Mostly Cloudy"
"1955-06-30 05:00","1955","06","30","05:00","18.9","","11.7","","63","","23","","5","","12.9","","99.50","","","","","","Mostly Cloudy"
"1955-06-30 06:00","1955","06","30","06:00","19.4","","12.2","","63","","18","","5","","11.3","","99.48","","","","","","Mostly Cloudy"
"1955-06-30 07:00","1955","06","30","07:00","20.0","","14.4","","70","","18","","3","","8.0","","99.47","","","","","","Haze"
"1955-06-30 08:00","1955","06","30","08:00","22.8","","16.1","","66","","25","","11","","6.4","","99.46","","27","","","","Haze"
"1955-06-30 09:00","1955","06","30","09:00","23.3","","16.7","","66","","23","","8","","6.4","","99.44","","28","","","","Haze"
"1955-06-30 10:00","1955","06","30","10:00","22.8","","17.8","","74","","27","","24","","6.4","","99.47","","29","","","","Rain Showers,Haze"
"1955-06-30 11:00","1955","06","30","11:00","22.8","","18.9","","79","","27","","14","","6.4","","99.44","","29","","","","Haze"
"1955-06-30 12:00","1955","06","30","12:00","23.3","","18.9","","76","","23","","21","","8.0","","99.44","","30","","","","Haze"
"1955-06-30 13:00","1955","06","30","13:00","23.9","","19.4","","76","","20","","24","","8.0","","99.36","","31","","","","Haze"
"1955-06-30 14:00","1955","06","30","14:00","26.7","","18.9","","63","","20","","32","","11.3","","99.31","","33","","","","Mostly Cloudy"
"1955-06-30 15:00","1955","06","30","15:00","26.7","","18.9","","63","","23","","29","","8.0","","99.22","","33","","","","Haze"
"1955-06-30 16:00","1955","06","30","16:00","26.7","","19.4","","65","","23","","24","","8.0","","99.17","","34","","","","Haze"
"1955-06-30 17:00","1955","06","30","17:00","26.7","","19.4","","65","","23","","19","","8.0","","99.14","","34","","","","Haze"
"1955-06-30 18:00","1955","06","30","18:00","25.6","","20.0","","72","","23","","16","","8.0","","99.12","","33","","","","Haze"
"1955-06-30 19:00","1955","06","30","19:00","25.0","","20.0","","74","","23","","11","","8.0","","99.12","","33","","","","Haze"
"1955-06-30 20:00","1955","06","30","20:00","22.8","","20.0","","84","","25","","8","","6.4","","99.15","","30","","","","Haze"
"1955-06-30 21:00","1955","06","30","21:00","21.7","","20.0","","90","","20","","10","","4.8","","99.18","","29","","","","Haze"
"1955-06-30 22:00","1955","06","30","22:00","21.7","","20.0","","90","","18","","10","","4.8","","99.19","","29","","","","Haze"
"1955-06-30 23:00","1955","06","30","23:00","21.1","","20.0","","93","","23","","10","","4.8","","99.18","","29","","","","Haze"
