"Station Name","TORONTO LESTER B. PEARSON INT'L A"
"Province","ONTARIO"
"Latitude","43.68"
"Longitude","-79.63"
"Elevation","173.40"
"Climate Identifier","6158733"
"WMO Identifier","71624"
"TC Identifier","YYZ"
"All times are specified in Local Standard Time (LST). Add 1 hour to adjust for Daylight Saving Time where and when it is observed."

"Legend"
"E","Estimated"
"M","Missing"
"NA","Not Available"

"Date/Time","Year","Month","Day","Time","Temp (°C)","Temp Flag","Dew Point Temp (°C)","Dew Point Temp Flag","Rel Hum (%)","Rel Hum Flag","Wind Dir (10s deg)","Wind Dir Flag","Wind Spd (km/h)","Wind Spd Flag","Visibility (km)","Visibility Flag","Stn Press (kPa)","Stn Press Flag","Hmdx","Hmdx Flag","Wind Chill","Wind Chill Flag","Weather"
"1987-01-01 00:00","1987","01","01","00:00","1.6","","-1.0","","83","","18","","7","","11.3","","100.24","","","","","","Cloudy"
"1987-01-01 01:00","1987","01","01","01:00","1.5","","-1.0","","83","","18","","4","","9.7","","100.17","","","","","","Haze"
"1987-01-01 02:00","1987","01","01","02:00","1.1","","-1.5","","83","","13","","4","","9.7","","100.14","","","","","","Haze"
"1987-01-01 03:00","1987","01","01","03:00","1.3","","-0.5","","88","","","","0","","9.7","","100.14","","","","","","Fog"
"1987-01-01 04:00","1987","01","01","04:00","1.5","","-1.5","","80","","15","","7","","8.0","","100.07","","","","","","Haze"
"1987-01-01 05:00","1987","01","01","05:00","1.0","","-1.5","","83","","14","","9","","6.4","","99.97","","","","","","Haze"
"1987-01-01 06:00","1987","01","01","06:00","0.8","","-1.9","","82","","13","","11","","9.7","","100.01","","","","","","Haze"
"1987-01-01 07:00","1987","01","01","07:00","0.6","","-2.5","","80","","13","","11","","11.3","","100.01","","","","","","Cloudy"
"1987-01-01 08:00","1987","01","01","08:00","0.3","","-2.2","","83","","11","","13","","11.3","","99.91","","","","","","Cloudy"
"1987-01-01 09:00","1987","01","01","09:00","0.4","","-2.1","","83","","13","","11","","19.3","","99.94","","","","","","Cloudy"
"1987-01-01 10:00","1987","01","01","10:00","0.5","","-2.0","","83","","9","","13","","16.1","","99.94","","","","","","Cloudy"
"1987-01-01 11:00","1987","01","01","11:00","0.7","","-2.5","","79","","9","","15","","16.1","","99.87","","","","","","Cloudy"
"1987-01-01 12:00","1987","01","01","12:00","0.8","","-1.5","","85","","8","","15","","19.3","","99.74","","","","","","Cloudy"
"1987-01-01 13:00","1987","01","01","13:00","1.0","","-1.5","","83","","5","","11","","19.3","","99.64","","","","","","Cloudy"
"1987-01-01 14:00","1987","01","01","14:00","1.2","","-1.9","","80","","8","","13","","19.3","","99.64","","","","","","Cloudy"
"1987-01-01 15:00","1987","01","01","15:00","0.9","","-1.5","","84","","7","","13","","19.3","","99.64","","","","","","Cloudy"
"1987-01-01 16:00","1987","01","01","16:00","0.7","","-1.4","","86","","5","","11","","19.3","","99.61","","","","","","Cloudy"
"1987-01-01 17:00","1987","01","01","17:00","0.5","","-1.4","","87","","5","","15","","16.1","","99.54","","","","","","Cloudy"
"1987-01-01 18:00","1987","01","01","18:00","0.3","","-1.9","","85","","5","","17","","12.9","","99.51","","","","","","Cloudy"
"1987-01-01 19:00","1987","01","01","19:00","0.1","","-1.9","","86","","4","","11","","12.9","","99.51","","","","","","Cloudy"
"1987-01-01 20:00","1987","01","01","20:00","0.0","","-1.8","","88","","4","","11","","12.9","","99.47","","","","-4","","Cloudy"
"1987-01-01 21:00","1987","01","01","21:00","-0.1","","-2.4","","85","","4","","15","","12.9","","99.41","","","","-5","","Cloudy"
"1987-01-01 22:00","1987","01","01","22:00","-0.4","","-2.0","","89","","3","","15","","11.3","","99.34","","","","-5","","Cloudy"
"1987-01-01 23:00","1987","01","01","23:00","-0.5","","-2.9","","84","","3","","17","","11.3","","99.24","","","","-5","","Cloudy"
"1987-01-02 00:00","1987","01","02","00:00","-0.5","","-2.9","","84","","3","","17","","11.3","","99.17","","","","-5","","Cloudy"
"1987-01-02 01:00","1987","01","02","01:00","-0.8","","-3.0","","85","","3","","19","","11.3","","99.11","","","","-6","","Cloudy"
"1987-01-02 02:00","1987","01","02","02:00","-1.0","","-3.0","","86","","3","","15","","8.0","","99.07","","","","-6","","Snow"
"1987-01-02 03:00","1987","01","02","03:00","-1.4","","-3.0","","89","","2","","17","","4.0","","99.07","","","","-7","","Snow"
"1987-01-02 04:00","1987","01","02","04:00","-1.5","","-2.8","","91","","3","","17","","6.4","","99.01","","","","-7","","Snow"
"1987-01-02 05:00","1987","01","02","05:00","-1.8","","-3.6","","87","","3","","20","","4.8","","98.94","","","","-8","","Snow"
"1987-01-02 06:00","1987","01","02","06:00","-2.6","","-3.9","","91","","3","","19","","3.2","","98.94","","","","-8","","Snow"
"1987-01-02 07:00","1987","01","02","07:00","-3.2","","-4.2","","93","","2","","15","","2.4","","98.94","","","","-8","","Snow"
"1987-01-02 08:00","1987","01","02","08:00","-3.5","","-4.5","","93","","3","","17","","1.0","","98.97","","","","-9","","Snow"
"1987-01-02 09:00","1987","01","02","09:00","-3.4","","-4.8","","90","","36","","13","","9.7","","98.97","","","","-8","","Snow"
"1987-01-02 10:00","1987","01","02","10:00","-3.4","","-4.8","","90","","1","","17","","3.2","","98.97","","","","-9","","Snow"
"1987-01-02 11:00","1987","01","02","11:00","-3.4","","-4.8","","90","","1","","15","","2.4","","98.94","","","","-9","","Snow"
"1987-01-02 12:00","1987","01","02","12:00","-3.5","","-4.5","","93","","1","","22","","0.8","","98.87","","","","-10","","Moderate Snow"
"1987-01-02 13:00","1987","01","02","13:00","-3.2","","-4.2","","93","","35","","19","","2.8","","98.81","","","","-9","","Snow"
"1987-01-02 14:00","1987","01","02","14:00","-2.1","","-4.5","","84","","33","","17","","32.2","","98.77","","","","-7","","Mostly Cloudy"
"1987-01-02 15:00","1987","01","02","15:00","-2.5","","-3.9","","90","","33","","19","","4.0","","98.81","","","","-8","","Snow"
"1987-01-02 16:00","1987","01","02","16:00","-2.2","","-3.9","","88","","33","","24","","16.1","","98.77","","","","-9","","Cloudy"
"1987-01-02 17:00","1987","01","02","17:00","-1.7","","-3.9","","85","","33","","24","","16.1","","98.77","","","","-8","","Cloudy"
"1987-01-02 18:00","1987","01","02","18:00","-1.3","","-3.0","","88","","34","","22","","12.9","","98.87","","","","-7","","Snow Showers"
"1987-01-02 19:00","1987","01","02","19:00","-1.4","","-2.5","","92","","34","","24","","4.0","","98.91","","","","-8","","Snow Showers"
"1987-01-02 20:00","1987","01","02","20:00","-1.3","","-2.2","","93","","32","","20","","4.8","","98.94","","","","-7","","Snow"
"1987-01-02 21:00","1987","01","02","21:00","-0.8","","-2.4","","89","","34","","20","","12.9","","98.94","","","","-6","","Snow"
"1987-01-02 22:00","1987","01","02","22:00","-1.1","","-1.9","","94","","33","","20","","6.4","","98.97","","","","-7","","Snow"
"1987-01-02 23:00","1987","01","02","23:00","-1.5","","-2.5","","93","","32","","17","","6.4","","99.01","","","","-7","","Snow"
"1987-01-03 00:00","1987","01","03","00:00","-2.4","","-3.4","","93","","32","","15","","16.1","","99.04","","","","-7","","Snow"
"1987-01-03 01:00","1987","01","03","01:00","-2.0","","-3.1","","92","","32","","22","","16.1","","99.04","","","","-8","","Cloudy"
"1987-01-03 02:00","1987","01","03","02:00","-1.8","","-4.2","","83","","34","","19","","25.0","","99.11","","","","-7","","Cloudy"
"1987-01-03 03:00","1987","01","03","03:00","-2.8","","-5.1","","84","","33","","20","","25.0","","99.21","","","","-9","","Cloudy"
"1987-01-03 04:00","1987","01","03","04:00","-3.4","","-5.4","","86","","32","","24","","25.0","","99.24","","","","-10","","Cloudy"
"1987-01-03 05:00","1987","01","03","05:00","-4.1","","-6.3","","85","","33","","28","","25.0","","99.31","","","","-12","","Cloudy"
"1987-01-03 06:00","1987","01","03","06:00","-4.5","","-6.9","","83","","32","","20","","25.0","","99.41","","","","-11","","Cloudy"
"1987-01-03 07:00","1987","01","03","07:00","-4.1","","-6.3","","85","","32","","26","","25.0","","99.47","","","","-11","","Cloudy"
"1987-01-03 08:00","1987","01","03","08:00","-4.6","","-6.6","","86","","33","","41","","40.2","","99.51","","","","-14","","Mostly Cloudy"
"1987-01-03 09:00","1987","01","03","09:00","-5.0","","-7.2","","84","","33","","41","","40.2","","99.64","","","","-14","","Mostly Cloudy"
"1987-01-03 10:00","1987","01","03","10:00","-4.4","","-6.9","","83","","34","","37","","40.2","","99.67","","","","-13","","Mostly Cloudy"
"1987-01-03 11:00","1987","01","03","11:00","-3.9","","-7.3","","77","","33","","28","","40.2","","99.71","","","","-11","","Mostly Cloudy"
"1987-01-03 12:00","1987","01","03","12:00","-3.3","","-8.4","","68","","33","","22","","40.2","","99.74","","","","-10","","Mostly Cloudy"
"1987-01-03 13:00","1987","01","03","13:00","-2.0","","-8.5","","61","","33","","20","","40.2","","99.74","","","","-8","","Mainly Clear"
"1987-01-03 14:00","1987","01","03","14:00","-1.9","","-9.3","","57","","32","","17","","40.2","","99.81","","","","-7","","Mostly Cloudy"
"1987-01-03 15:00","1987","01","03","15:00","-1.9","","-9.6","","55","","32","","13","","40.2","","99.87","","","","-6","","Mostly Cloudy"
"1987-01-03 16:00","1987","01","03","16:00","-1.8","","-8.1","","62","","31","","13","","40.2","","99.97","","","","-6","","Mostly Cloudy"
"1987-01-03 17:00","1987","01","03","17:00","-4.4","","-9.0","","70","","32","","9","","40.2","","100.01","","","","-8","","Mostly Cloudy"
"1987-01-03 18:00","1987","01","03","18:00","-6.7","","-9.7","","79","","32","","9","","25.0","","100.07","","","","-11","","Clear"
"1987-01-03 19:00","1987","01","03","19:00","-6.9","","-10.8","","74","","31","","11","","25.0","","100.17","","","","-12","","Mainly Clear"
"1987-01-03 20:00","1987","01","03","20:00","-8.6","","-12.3","","75","","30","","11","","25.0","","100.27","","","","-14","","Clear"
"1987-01-03 21:00","1987","01","03","21:00","-7.7","","-10.6","","80","","31","","13","","25.0","","100.31","","","","-13","","Mainly Clear"
"1987-01-03 22:00","1987","01","03","22:00","-8.4","","-11.5","","78","","33","","9","","25.0","","100.31","","","","-13","","Mainly Clear"
"1987-01-03 23:00","1987","01","03","23:00","-6.8","","-10.0","","78","","35","","20","","25.0","","100.31","","","","-14","","Mainly Clear"
"1987-01-04 00:00","1987","01","04","00:00","-6.4","","-10.1","","75","","35","","24","","25.0","","100.27","","","","-14","","Mainly Clear"
"1987-01-04 01:00","1987","01","04","01:00","-7.1","","-11.6","","70","","34","","17","","25.0","","100.24","","","","-14","","Mainly Clear"
"1987-01-04 02:00","1987","01","04","02:00","-8.2","","-12.1","","73","","34","","15","","25.0","","100.27","","","","-15","","Mostly Cloudy"
"1987-01-04 03:00","1987","01","04","03:00","-9.8","","-14.2","","70","","29","","6","","25.0","","100.37","","","","-13","","Mainly Clear"
"1987-01-04 04:00","1987","01","04","04:00","-9.7","","-13.1","","76","","34","","6","","25.0","","100.34","","","","-13","","Mostly Cloudy"
"1987-01-04 05:00","1987","01","04","05:00","-10.6","","-14.4","","74","","32","","11","","25.0","","100.37","","","","-16","","Mainly Clear"
"1987-01-04 06:00","1987","01","04","06:00","-11.3","","-14.7","","76","","31","","9","","25.0","","100.44","","","","-16","","Mainly Clear"
"1987-01-04 07:00","1987","01","04","07:00","-11.7","","-14.7","","78","","33","","11","","25.0","","100.47","","","","-18","","Mainly Clear"
"1987-01-04 08:00","1987","01","04","08:00","-10.8","","-15.5","","68","","33","","11","","40.2","","100.54","","","","-17","","Mostly Cloudy"
"1987-01-04 09:00","1987","01","04","09:00","-10.6","","-15.4","","68","","33","","11","","40.2","","100.61","","","","-16","","Mostly Cloudy"
"1987-01-04 10:00","1987","01","04","10:00","-7.0","","-11.6","","69","","32","","4","","40.2","","100.67","","","","-9","","Mostly Cloudy"
"1987-01-04 11:00","1987","01","04","11:00","-5.0","","-9.3","","72","","32","","6","","40.2","","100.67","","","","-8","","Mostly Cloudy"
"1987-01-04 12:00","1987","01","04","12:00","-3.8","","-8.7","","68","","32","","4","","40.2","","100.61","","","","-5","","Mostly Cloudy"
"1987-01-04 13:00","1987","01","04","13:00","-2.4","","-7.7","","67","","36","","4","","40.2","","100.57","","","","-4","","Mainly Clear"
"1987-01-04 14:00","1987","01","04","14:00","-1.0","","-6.0","","69","","","","0","","40.2","","100.57","","","","","","Mainly Clear"
"1987-01-04 15:00","1987","01","04","15:00","-0.1","","-6.8","","61","","","","0","","40.2","","100.61","","","","","","Mainly Clear"
"1987-01-04 16:00","1987","01","04","16:00","0.3","","-6.5","","60","","","","0","","40.2","","100.61","","","","","","Mainly Clear"
"1987-01-04 17:00","1987","01","04","17:00","-1.8","","-7.4","","65","","","","0","","40.2","","100.67","","","","","","Mostly Cloudy"
"1987-01-04 18:00","1987","01","04","18:00","-1.7","","-5.7","","74","","","","0","","25.0","","100.71","","","","","","Cloudy"
"1987-01-04 19:00","1987","01","04","19:00","-1.2","","-5.4","","73","","","","0","","25.0","","100.67","","","","","","Cloudy"
"1987-01-04 20:00","1987","01","04","20:00","-2.1","","-5.7","","76","","26","","4","","25.0","","100.67","","","","-4","","Cloudy"
"1987-01-04 21:00","1987","01","04","21:00","-2.7","","-5.7","","80","","27","","6","","25.0","","100.67","","","","-5","","Mainly Clear"
"1987-01-04 22:00","1987","01","04","22:00","-3.7","","-6.3","","82","","","","0","","25.0","","100.64","","","","","","Mainly Clear"
"1987-01-04 23:00","1987","01","04","23:00","-5.5","","-8.2","","81","","32","","7","","25.0","","100.67","","","","-9","","Mainly Clear"
"1987-01-05 00:00","1987","01","05","00:00","-6.4","","-8.3","","86","","33","","6","","25.0","","100.67","","","","-9","","Mainly Clear"
"1987-01-05 01:00","1987","01","05","01:00","-6.4","","-8.0","","88","","","","0","","19.3","","100.61","","","","","","Mainly Clear"
"1987-01-05 02:00","1987","01","05","02:00","-7.2","","-8.6","","90","","","","0","","25.0","","100.67","","","","","","Mainly Clear"
"1987-01-05 03:00","1987","01","05","03:00","-7.9","","-9.7","","87","","35","","7","","25.0","","100.67","","","","-12","","Mainly Clear"
"1987-01-05 04:00","1987","01","05","04:00","-7.8","","-9.3","","89","","33","","7","","25.0","","100.67","","","","-11","","Mainly Clear"
"1987-01-05 05:00","1987","01","05","05:00","-8.1","","-9.3","","91","","32","","6","","25.0","","100.67","","","","-11","","Mostly Cloudy"
"1987-01-05 06:00","1987","01","05","06:00","-7.6","","-9.1","","89","","34","","4","","25.0","","100.71","","","","-10","","Mainly Clear"
"1987-01-05 07:00","1987","01","05","07:00","-7.6","","-9.1","","89","","","","0","","25.0","","100.77","","","","","","Mainly Clear"
"1987-01-05 08:00","1987","01","05","08:00","-7.4","","-9.9","","82","","28","","7","","24.1","","100.81","","","","-11","","Mostly Cloudy"
"1987-01-05 09:00","1987","01","05","09:00","-3.5","","-5.4","","87","","31","","4","","19.3","","100.84","","","","-5","","Mostly Cloudy"
"1987-01-05 10:00","1987","01","05","10:00","-1.5","","-3.6","","85","","","","0","","19.3","","100.87","","","","","","Mostly Cloudy"
"1987-01-05 11:00","1987","01","05","11:00","1.0","","-3.0","","75","","","","0","","19.3","","100.84","","","","","","Mainly Clear"
"1987-01-05 12:00","1987","01","05","12:00","2.5","","-3.9","","63","","27","","6","","40.2","","100.77","","","","","","Mainly Clear"
"1987-01-05 13:00","1987","01","05","13:00","3.1","","-3.2","","63","","27","","9","","40.2","","100.71","","","","","","Mostly Cloudy"
"1987-01-05 14:00","1987","01","05","14:00","3.0","","-3.8","","61","","21","","4","","40.2","","100.64","","","","","","Mostly Cloudy"
"1987-01-05 15:00","1987","01","05","15:00","3.0","","-3.2","","64","","26","","7","","40.2","","100.61","","","","","","Mostly Cloudy"
"1987-01-05 16:00","1987","01","05","16:00","2.5","","-3.2","","66","","26","","4","","32.2","","100.57","","","","","","Mostly Cloudy"
"1987-01-05 17:00","1987","01","05","17:00","1.8","","-3.2","","69","","26","","4","","32.2","","100.54","","","","","","Mostly Cloudy"
"1987-01-05 18:00","1987","01","05","18:00","-1.0","","-5.4","","72","","26","","7","","25.0","","100.57","","","","-4","","Mainly Clear"
"1987-01-05 19:00","1987","01","05","19:00","-2.4","","-6.4","","74","","27","","4","","25.0","","100.51","","","","-4","","Mainly Clear"
"1987-01-05 20:00","1987","01","05","20:00","-3.4","","-6.7","","78","","26","","4","","25.0","","100.47","","","","-5","","Clear"
"1987-01-05 21:00","1987","01","05","21:00","-2.1","","-4.8","","82","","","","0","","25.0","","100.44","","","","","","Mostly Cloudy"
"1987-01-05 22:00","1987","01","05","22:00","-1.3","","-4.2","","80","","","","0","","24.1","","100.41","","","","","","Mostly Cloudy"
"1987-01-05 23:00","1987","01","05","23:00","-3.2","","-5.4","","85","","","","0","","24.1","","100.37","","","","","","Mostly Cloudy"
"1987-01-06 00:00","1987","01","06","00:00","-2.3","","-5.4","","79","","","","0","","24.1","","100.31","","","","","","Cloudy"
"1987-01-06 01:00","1987","01","06","01:00","-2.7","","-5.4","","82","","","","0","","25.0","","100.27","","","","","","Cloudy"
"1987-01-06 02:00","1987","01","06","02:00","-1.8","","-6.4","","71","","","","0","","19.3","","100.21","","","","","","Cloudy"
"1987-01-06 03:00","1987","01","06","03:00","-1.7","","-4.8","","80","","","","0","","16.1","","100.21","","","","","","Cloudy"
"1987-01-06 04:00","1987","01","06","04:00","-2.4","","-5.1","","81","","","","0","","16.1","","100.14","","","","","","Mostly Cloudy"
"1987-01-06 05:00","1987","01","06","05:00","-3.4","","-5.4","","86","","","","0","","12.9","","100.07","","","","","","Cloudy"
"1987-01-06 06:00","1987","01","06","06:00","-1.5","","-3.6","","85","","16","","4","","12.9","","100.01","","","","-3","","Cloudy"
"1987-01-06 07:00","1987","01","06","07:00","-1.7","","-2.5","","94","","15","","6","","9.7","","99.91","","","","-4","","Fog"
"1987-01-06 08:00","1987","01","06","08:00","-1.8","","-3.1","","91","","15","","7","","6.4","","99.84","","","","-4","","Fog"
"1987-01-06 09:00","1987","01","06","09:00","-1.0","","-2.4","","90","","19","","4","","6.4","","99.84","","","","-2","","Fog"
"1987-01-06 10:00","1987","01","06","10:00","0.1","","-2.4","","83","","18","","11","","11.3","","99.77","","","","","","Cloudy"
"1987-01-06 11:00","1987","01","06","11:00","0.8","","-1.5","","85","","17","","9","","19.3","","99.64","","","","","","Cloudy"
"1987-01-06 12:00","1987","01","06","12:00","1.2","","-3.0","","73","","17","","13","","24.1","","99.44","","","","","","Cloudy"
"1987-01-06 13:00","1987","01","06","13:00","1.2","","-3.6","","70","","16","","11","","24.1","","99.24","","","","","","Cloudy"
"1987-01-06 14:00","1987","01","06","14:00","1.2","","-2.4","","77","","15","","11","","24.1","","99.11","","","","","","Cloudy"
"1987-01-06 15:00","1987","01","06","15:00","1.1","","-1.9","","80","","15","","13","","24.1","","98.94","","","","","","Cloudy"
"1987-01-06 16:00","1987","01","06","16:00","1.4","","-2.4","","76","","13","","13","","24.1","","98.81","","","","","","Cloudy"
"1987-01-06 17:00","1987","01","06","17:00","0.8","","-2.4","","79","","12","","11","","24.1","","98.74","","","","","","Cloudy"
"1987-01-06 18:00","1987","01","06","18:00","0.8","","-2.4","","79","","11","","11","","24.1","","98.54","","","","","","Cloudy"
"1987-01-06 19:00","1987","01","06","19:00","1.5","","-2.1","","77","","15","","11","","24.1","","98.44","","","","","","Cloudy"
"1987-01-06 20:00","1987","01","06","20:00","1.4","","-1.0","","84","","12","","7","","24.1","","98.37","","","","","","Cloudy"
"1987-01-06 21:00","1987","01","06","21:00","1.9","","0.4","","90","","14","","7","","19.3","","98.27","","","","","","Cloudy"
"1987-01-06 22:00","1987","01","06","22:00","3.0","","-0.4","","78","","16","","7","","19.3","","98.21","","","","","","Cloudy"
"1987-01-06 23:00","1987","01","06","23:00","2.6","","-0.9","","78","","16","","7","","19.3","","98.11","","","","","","Cloudy"
"1987-01-07 00:00","1987","01","07","00:00","2.7","","-0.9","","77","","24","","9","","19.3","","98.04","","","","","","Mainly Clear"
"1987-01-07 01:00","1987","01","07","01:00","2.5","","0.6","","87","","22","","7","","12.9","","98.04","","","","","","Cloudy"
"1987-01-07 02:00","1987","01","07","02:00","3.2","","0.7","","84","","25","","9","","12.9","","98.04","","","","","","Cloudy"
"1987-01-07 03:00","1987","01","07","03:00","3.6","","0.7","","81","","25","","17","","9.7","","98.11","","","","","","Haze"
"1987-01-07 04:00","1987","01","07","04:00","2.8","","1.6","","92","","25","","19","","8.0","","98.11","","","","","","Rain Showers,Fog"
"1987-01-07 05:00","1987","01","07","05:00","2.5","","1.1","","91","","26","","13","","8.0","","98.14","","","","","","Rain Showers,Fog"
"1987-01-07 06:00","1987","01","07","06:00","2.7","","0.6","","86","","28","","19","","9.7","","98.21","","","","","","Rain Showers,Fog"
"1987-01-07 07:00","1987","01","07","07:00","2.5","","0.6","","87","","28","","17","","9.7","","98.27","","","","","","Fog"
"1987-01-07 08:00","1987","01","07","08:00","2.4","","0.1","","85","","28","","20","","16.1","","98.27","","","","","","Cloudy"
"1987-01-07 09:00","1987","01","07","09:00","1.8","","-1.0","","82","","31","","22","","16.1","","98.57","","","","","","Cloudy"
"1987-01-07 10:00","1987","01","07","10:00","1.7","","-1.5","","79","","32","","30","","11.3","","98.71","","","","","","Cloudy"
"1987-01-07 11:00","1987","01","07","11:00","1.4","","-2.1","","77","","32","","31","","24.1","","98.81","","","","","","Mostly Cloudy"
"1987-01-07 12:00","1987","01","07","12:00","1.0","","-1.5","","83","","33","","31","","24.1","","98.84","","","","","","Snow Showers"
"1987-01-07 13:00","1987","01","07","13:00","1.4","","-2.4","","76","","33","","33","","40.2","","98.87","","","","","","Mainly Clear"
"1987-01-07 14:00","1987","01","07","14:00","1.3","","-2.9","","74","","32","","30","","40.2","","98.94","","","","","","Mostly Cloudy"
"1987-01-07 15:00","1987","01","07","15:00","0.7","","-3.7","","72","","31","","31","","19.3","","99.04","","","","","","Snow Showers"
"1987-01-07 16:00","1987","01","07","16:00","0.1","","-1.4","","90","","32","","28","","24.1","","99.14","","","","","","Snow Showers"
"1987-01-07 17:00","1987","01","07","17:00","-0.9","","-4.4","","77","","31","","35","","32.2","","99.24","","","","-8","","Mostly Cloudy"
"1987-01-07 18:00","1987","01","07","18:00","-1.4","","-6.0","","71","","32","","30","","25.0","","99.34","","","","-8","","Cloudy"
"1987-01-07 19:00","1987","01","07","19:00","-1.2","","-3.8","","83","","30","","24","","25.0","","99.47","","","","-7","","Mostly Cloudy"
"1987-01-07 20:00","1987","01","07","20:00","-1.2","","-3.8","","83","","29","","22","","25.0","","99.47","","","","-7","","Mostly Cloudy"
"1987-01-07 21:00","1987","01","07","21:00","-1.2","","-4.1","","81","","29","","24","","25.0","","99.64","","","","-7","","Cloudy"
"1987-01-07 22:00","1987","01","07","22:00","-1.6","","-4.8","","79","","30","","22","","25.0","","99.71","","","","-8","","Cloudy"
"1987-01-07 23:00","1987","01","07","23:00","-2.1","","-4.2","","85","","29","","30","","25.0","","99.74","","","","-9","","Mostly Cloudy"
"1987-01-08 00:00","1987","01","08","00:00","-2.7","","-6.7","","74","","30","","26","","25.0","","99.74","","","","-10","","Cloudy"
"1987-01-08 01:00","1987","01","08","01:00","-3.1","","-7.4","","72","","29","","19","","25.0","","99.71","","","","-9","","Mostly Cloudy"
"1987-01-08 02:00","1987","01","08","02:00","-4.8","","-8.9","","73","","29","","13","","25.0","","99.71","","","","-10","","Mainly Clear"
"1987-01-08 03:00","1987","01","08","03:00","-5.1","","-8.9","","75","","27","","13","","25.0","","99.77","","","","-10","","Mainly Clear"
"1987-01-08 04:00","1987","01","08","04:00","-4.8","","-9.3","","71","","30","","19","","25.0","","99.81","","","","-11","","Mainly Clear"
"1987-01-08 05:00","1987","01","08","05:00","-4.2","","-8.0","","75","","28","","7","","25.0","","99.77","","","","-7","","Mostly Cloudy"
"1987-01-08 06:00","1987","01","08","06:00","-3.8","","-8.3","","71","","24","","6","","25.0","","99.77","","","","-6","","Cloudy"
"1987-01-08 07:00","1987","01","08","07:00","-3.3","","-7.7","","71","","23","","7","","25.0","","99.81","","","","-6","","Cloudy"
"1987-01-08 08:00","1987","01","08","08:00","-2.4","","-6.0","","76","","23","","11","","40.2","","99.77","","","","-6","","Cloudy"
"1987-01-08 09:00","1987","01","08","09:00","-1.7","","-5.4","","76","","27","","19","","40.2","","99.81","","","","-7","","Cloudy"
"1987-01-08 10:00","1987","01","08","10:00","-1.5","","-5.4","","75","","27","","13","","40.2","","99.81","","","","-6","","Cloudy"
"1987-01-08 11:00","1987","01","08","11:00","-1.2","","-5.4","","73","","24","","15","","40.2","","99.77","","","","-6","","Cloudy"
"1987-01-08 12:00","1987","01","08","12:00","-0.8","","-5.0","","73","","23","","19","","16.1","","99.67","","","","-6","","Snow Showers"
"1987-01-08 13:00","1987","01","08","13:00","-1.0","","-4.4","","78","","21","","17","","32.2","","99.61","","","","-6","","Snow Showers"
"1987-01-08 14:00","1987","01","08","14:00","-1.2","","-4.1","","81","","23","","17","","32.2","","99.51","","","","-6","","Snow Pellets"
"1987-01-08 15:00","1987","01","08","15:00","-1.3","","-4.2","","80","","23","","17","","9.7","","99.47","","","","-6","","Snow"
"1987-01-08 16:00","1987","01","08","16:00","-1.4","","-3.3","","87","","20","","11","","9.7","","99.47","","","","-5","","Snow"
"1987-01-08 17:00","1987","01","08","17:00","-1.0","","-3.3","","84","","25","","15","","11.3","","99.47","","","","-6","","Snow"
"1987-01-08 18:00","1987","01","08","18:00","-0.5","","-3.5","","80","","27","","24","","16.1","","99.47","","","","-6","","Snow"
"1987-01-08 19:00","1987","01","08","19:00","-0.6","","-3.2","","82","","26","","26","","19.3","","99.47","","","","-7","","Cloudy"
"1987-01-08 20:00","1987","01","08","20:00","-0.6","","-3.2","","82","","27","","26","","19.3","","99.47","","","","-7","","Cloudy"
"1987-01-08 21:00","1987","01","08","21:00","-0.7","","-2.9","","85","","27","","22","","25.0","","99.51","","","","-6","","Cloudy"
"1987-01-08 22:00","1987","01","08","22:00","-0.7","","-4.1","","78","","27","","13","","25.0","","99.51","","","","-5","","Cloudy"
"1987-01-08 23:00","1987","01","08","23:00","-0.8","","-4.7","","75","","26","","19","","25.0","","99.51","","","","-6","","Cloudy"
"1987-01-09 00:00","1987","01","09","00:00","-0.8","","-5.0","","73","","26","","19","","19.3","","99.51","","","","-6","","Cloudy"
"1987-01-09 01:00","1987","01","09","01:00","-1.0","","-4.4","","78","","27","","26","","25.0","","99.51","","","","-7","","Cloudy"
"1987-01-09 02:00","1987","01","09","02:00","-0.9","","-4.7","","75","","26","","15","","25.0","","99.51","","","","-6","","Cloudy"
"1987-01-09 03:00","1987","01","09","03:00","-0.9","","-4.7","","75","","25","","11","","19.3","","99.57","","","","-5","","Cloudy"
"1987-01-09 04:00","1987","01","09","04:00","-0.7","","-3.8","","80","","27","","11","","16.1","","99.57","","","","-4","","Cloudy"
"1987-01-09 05:00","1987","01","09","05:00","-0.7","","-4.1","","78","","25","","15","","19.3","","99.54","","","","-5","","Cloudy"
"1987-01-09 06:00","1987","01","09","06:00","-0.7","","-4.1","","78","","25","","13","","19.3","","99.57","","","","-5","","Cloudy"
"1987-01-09 07:00","1987","01","09","07:00","-0.7","","-3.8","","80","","25","","11","","19.3","","99.61","","","","-4","","Cloudy"
"1987-01-09 08:00","1987","01","09","08:00","-0.6","","-4.1","","77","","24","","13","","16.1","","99.74","","","","-5","","Cloudy"
"1987-01-09 09:00","1987","01","09","09:00","-0.6","","-3.5","","81","","25","","7","","16.1","","99.77","","","","-3","","Snow Pellets"
"1987-01-09 10:00","1987","01","09","10:00","-0.5","","-3.2","","82","","23","","6","","12.9","","99.77","","","","-3","","Snow Pellets"
"1987-01-09 11:00","1987","01","09","11:00","-0.8","","-3.6","","81","","21","","11","","4.0","","99.81","","","","-5","","Snow"
"1987-01-09 12:00","1987","01","09","12:00","-0.5","","-2.7","","85","","21","","11","","6.4","","99.71","","","","-4","","Snow"
"1987-01-09 13:00","1987","01","09","13:00","-0.2","","-3.7","","77","","22","","15","","16.1","","99.71","","","","-5","","Snow"
"1987-01-09 14:00","1987","01","09","14:00","-0.4","","-4.0","","76","","21","","17","","24.1","","99.64","","","","-5","","Cloudy"
"1987-01-09 15:00","1987","01","09","15:00","-0.4","","-4.3","","75","","20","","13","","24.1","","99.64","","","","-5","","Cloudy"
"1987-01-09 16:00","1987","01","09","16:00","-0.7","","-4.4","","76","","","","0","","24.1","","99.64","","","","","","Cloudy"
"1987-01-09 17:00","1987","01","09","17:00","-0.6","","-4.4","","76","","16","","4","","19.3","","99.64","","","","-2","","Cloudy"
"1987-01-09 18:00","1987","01","09","18:00","-0.5","","-3.8","","78","","","","0","","19.3","","99.61","","","","","","Cloudy"
"1987-01-09 19:00","1987","01","09","19:00","-0.7","","-2.7","","86","","15","","4","","19.3","","99.61","","","","-2","","Cloudy"
"1987-01-09 20:00","1987","01","09","20:00","-0.6","","-2.9","","85","","17","","6","","11.3","","99.64","","","","-3","","Cloudy"
"1987-01-09 21:00","1987","01","09","21:00","-0.7","","-2.7","","86","","16","","4","","11.3","","99.57","","","","-2","","Cloudy"
"1987-01-09 22:00","1987","01","09","22:00","-0.6","","-2.9","","85","","12","","6","","19.3","","99.51","","","","-3","","Cloudy"
"1987-01-09 23:00","1987","01","09","23:00","-0.4","","-2.8","","84","","12","","15","","19.3","","99.44","","","","-5","","Cloudy"
"1987-01-10 00:00","1987","01","10","00:00","-0.1","","-3.6","","77","","11","","17","","24.1","","99.31","","","","-5","","Cloudy"
"1987-01-10 01:00","1987","01","10","01:00","0.0","","-3.7","","76","","9","","20","","25.0","","99.14","","","","-5","","Cloudy"
"1987-01-10 02:00","1987","01","10","02:00","0.2","","-3.5","","76","","10","","30","","19.3","","99.04","","","","","","Snow"
"1987-01-10 03:00","1987","01","10","03:00","-1.1","","-1.9","","94","","8","","20","","2.8","","98.94","","","","-7","","Snow"
"1987-01-10 04:00","1987","01","10","04:00","-0.7","","-1.1","","97","","10","","24","","3.2","","98.84","","","","-7","","Snow"
"1987-01-10 05:00","1987","01","10","05:00","-0.8","","-1.6","","94","","10","","20","","3.2","","98.71","","","","-6","","Snow"
"1987-01-10 06:00","1987","01","10","06:00","-0.8","","-1.1","","98","","8","","15","","2.4","","98.57","","","","-5","","Snow"
"1987-01-10 07:00","1987","01","10","07:00","-0.6","","-0.8","","99","","10","","19","","1.2","","98.54","","","","-6","","Snow"
"1987-01-10 08:00","1987","01","10","08:00","-0.4","","-0.7","","98","","10","","20","","1.2","","98.51","","","","-6","","Snow"
"1987-01-10 09:00","1987","01","10","09:00","-0.4","","-0.7","","98","","11","","17","","1.2","","98.51","","","","-5","","Snow"
"1987-01-10 10:00","1987","01","10","10:00","0.0","","-0.2","","98","","11","","15","","2.4","","98.51","","","","-4","","Snow"
"1987-01-10 11:00","1987","01","10","11:00","0.1","","-0.1","","98","","10","","11","","2.4","","98.47","","","","","","Drizzle,Fog"
"1987-01-10 12:00","1987","01","10","12:00","0.2","","0.0","","98","","9","","11","","2.0","","98.37","","","","","","Snow"
"1987-01-10 13:00","1987","01","10","13:00","0.4","","-0.1","","96","","7","","11","","2.4","","98.27","","","","","","Snow"
"1987-01-10 14:00","1987","01","10","14:00","0.5","","0.0","","96","","10","","7","","2.0","","98.21","","","","","","Snow"
"1987-01-10 15:00","1987","01","10","15:00","0.5","","0.0","","96","","6","","4","","2.0","","98.21","","","","","","Snow"
"1987-01-10 16:00","1987","01","10","16:00","0.7","","0.0","","95","","3","","4","","0.6","","98.21","","","","","","Moderate Snow"
"1987-01-10 17:00","1987","01","10","17:00","0.4","","0.2","","99","","36","","4","","0.4","","98.21","","","","","","Heavy Snow"
"1987-01-10 18:00","1987","01","10","18:00","0.2","","0.0","","98","","36","","6","","1.6","","98.24","","","","","","Snow"
"1987-01-10 19:00","1987","01","10","19:00","0.4","","0.2","","99","","36","","7","","4.8","","98.27","","","","","","Snow"
"1987-01-10 20:00","1987","01","10","20:00","0.2","","0.0","","98","","36","","7","","6.4","","98.27","","","","","","Snow"
"1987-01-10 21:00","1987","01","10","21:00","0.0","","-0.5","","96","","36","","9","","8.0","","98.24","","","","-3","","Snow"
"1987-01-10 22:00","1987","01","10","22:00","-0.2","","-1.0","","94","","36","","11","","8.0","","98.24","","","","-4","","Snow"
"1987-01-10 23:00","1987","01","10","23:00","-0.5","","-1.3","","94","","36","","11","","8.0","","98.21","","","","-4","","Snow,Fog"
"1987-01-11 00:00","1987","01","11","00:00","-1.0","","-1.9","","94","","35","","11","","6.4","","98.17","","","","-5","","Snow,Fog"
"1987-01-11 01:00","1987","01","11","01:00","-1.3","","-2.2","","93","","34","","15","","4.8","","98.14","","","","-6","","Snow"
"1987-01-11 02:00","1987","01","11","02:00","-1.7","","-2.2","","96","","36","","19","","6.4","","98.11","","","","-7","","Snow"
"1987-01-11 03:00","1987","01","11","03:00","-2.0","","-3.1","","92","","35","","15","","8.0","","98.11","","","","-7","","Snow"
"1987-01-11 04:00","1987","01","11","04:00","-2.0","","-3.3","","91","","34","","17","","8.0","","98.07","","","","-7","","Snow,Fog"
"1987-01-11 05:00","1987","01","11","05:00","-2.2","","-3.3","","92","","33","","15","","9.7","","98.07","","","","-7","","Fog"
"1987-01-11 06:00","1987","01","11","06:00","-2.2","","-3.6","","90","","33","","19","","12.9","","98.07","","","","-8","","Snow"
"1987-01-11 07:00","1987","01","11","07:00","-2.5","","-3.7","","91","","33","","30","","12.9","","98.07","","","","-10","","Snow"
"1987-01-11 08:00","1987","01","11","08:00","-2.3","","-4.8","","83","","31","","22","","19.3","","98.14","","","","-8","","Cloudy"
"1987-01-11 09:00","1987","01","11","09:00","-2.7","","-4.8","","86","","32","","26","","16.1","","98.14","","","","-10","","Mostly Cloudy"
"1987-01-11 10:00","1987","01","11","10:00","-2.6","","-4.8","","85","","32","","30","","16.1","","98.17","","","","-10","","Cloudy"
"1987-01-11 11:00","1987","01","11","11:00","-2.3","","-5.1","","81","","31","","31","","19.3","","98.17","","","","-10","","Cloudy"
"1987-01-11 12:00","1987","01","11","12:00","-2.5","","-5.7","","78","","30","","28","","24.1","","98.14","","","","-10","","Mostly Cloudy"
"1987-01-11 13:00","1987","01","11","13:00","-2.0","","-6.4","","72","","30","","30","","32.2","","98.11","","","","-9","","Cloudy"
"1987-01-11 14:00","1987","01","11","14:00","-1.5","","-5.4","","75","","29","","20","","32.2","","98.07","","","","-7","","Cloudy"
"1987-01-11 15:00","1987","01","11","15:00","-1.6","","-5.4","","75","","29","","17","","32.2","","98.01","","","","-7","","Cloudy"
"1987-01-11 16:00","1987","01","11","16:00","-1.5","","-4.8","","78","","27","","28","","32.2","","98.04","","","","-8","","Cloudy"
"1987-01-11 17:00","1987","01","11","17:00","-1.6","","-4.5","","81","","26","","19","","40.2","","98.04","","","","-7","","Cloudy"
"1987-01-11 18:00","1987","01","11","18:00","-1.7","","-4.5","","81","","25","","19","","19.3","","97.97","","","","-7","","Snow Showers"
"1987-01-11 19:00","1987","01","11","19:00","-1.2","","-3.6","","84","","23","","24","","12.9","","97.91","","","","-7","","Snow Showers"
"1987-01-11 20:00","1987","01","11","20:00","-0.7","","-3.5","","81","","25","","20","","19.3","","97.91","","","","-6","","Cloudy"
"1987-01-11 21:00","1987","01","11","21:00","-0.5","","-3.5","","80","","25","","26","","19.3","","97.84","","","","-7","","Cloudy"
"1987-01-11 22:00","1987","01","11","22:00","-0.4","","-3.4","","80","","25","","22","","19.3","","97.84","","","","-6","","Cloudy"
"1987-01-11 23:00","1987","01","11","23:00","-0.3","","-3.5","","79","","25","","20","","19.3","","97.81","","","","-6","","Cloudy"
"1987-01-12 00:00","1987","01","12","00:00","-0.2","","-2.8","","83","","26","","24","","24.1","","97.74","","","","-6","","Cloudy"
"1987-01-12 01:00","1987","01","12","01:00","0.1","","-2.5","","83","","26","","26","","24.1","","97.71","","","","","","Cloudy"
"1987-01-12 02:00","1987","01","12","02:00","-0.1","","-3.0","","81","","25","","15","","19.3","","97.74","","","","-5","","Cloudy"
"1987-01-12 03:00","1987","01","12","03:00","-0.2","","-2.3","","86","","24","","20","","16.1","","97.74","","","","-5","","Freezing Rain"
"1987-01-12 04:00","1987","01","12","04:00","-0.1","","-2.4","","85","","24","","15","","16.1","","97.74","","","","-5","","Cloudy"
"1987-01-12 05:00","1987","01","12","05:00","0.0","","-2.3","","85","","25","","19","","12.9","","97.71","","","","-5","","Cloudy"
"1987-01-12 06:00","1987","01","12","06:00","0.2","","-2.1","","84","","25","","26","","12.9","","97.74","","","","","","Cloudy"
"1987-01-12 07:00","1987","01","12","07:00","0.2","","-1.5","","88","","24","","20","","16.1","","97.81","","","","","","Cloudy"
"1987-01-12 08:00","1987","01","12","08:00","0.7","","-1.4","","86","","24","","22","","16.1","","97.84","","","","","","Cloudy"
"1987-01-12 09:00","1987","01","12","09:00","1.1","","0.0","","92","","25","","17","","12.9","","97.94","","","","","","Snow Showers"
"1987-01-12 10:00","1987","01","12","10:00","0.9","","-1.0","","87","","26","","17","","12.9","","97.97","","","","","","Snow Showers"
"1987-01-12 11:00","1987","01","12","11:00","2.1","","-2.1","","74","","29","","26","","32.2","","98.01","","","","","","Cloudy"
"1987-01-12 12:00","1987","01","12","12:00","2.1","","-2.1","","74","","30","","26","","32.2","","98.04","","","","","","Cloudy"
"1987-01-12 13:00","1987","01","12","13:00","2.0","","-3.2","","68","","30","","33","","32.2","","98.11","","","","","","Cloudy"
"1987-01-12 14:00","1987","01","12","14:00","2.1","","-3.4","","67","","32","","26","","32.2","","98.14","","","","","","Mostly Cloudy"
"1987-01-12 15:00","1987","01","12","15:00","1.5","","-2.9","","73","","31","","26","","40.2","","98.27","","","","","","Mostly Cloudy"
"1987-01-12 16:00","1987","01","12","16:00","1.3","","-2.9","","74","","30","","19","","40.2","","98.41","","","","","","Mostly Cloudy"
"1987-01-12 17:00","1987","01","12","17:00","1.0","","-3.0","","75","","29","","20","","40.2","","98.51","","","","","","Cloudy"
"1987-01-12 18:00","1987","01","12","18:00","0.9","","-3.0","","75","","30","","20","","25.0","","98.64","","","","","","Mostly Cloudy"
"1987-01-12 19:00","1987","01","12","19:00","0.9","","-3.0","","75","","29","","19","","25.0","","98.71","","","","","","Mostly Cloudy"
"1987-01-12 20:00","1987","01","12","20:00","0.8","","-3.0","","76","","29","","19","","25.0","","98.74","","","","","","Cloudy"
"1987-01-12 21:00","1987","01","12","21:00","0.8","","-3.0","","76","","29","","17","","25.0","","98.81","","","","","","Mostly Cloudy"
"1987-01-12 22:00","1987","01","12","22:00","0.9","","-3.0","","75","","28","","20","","25.0","","98.84","","","","","","Cloudy"
"1987-01-12 23:00","1987","01","12","23:00","0.8","","-3.0","","76","","27","","17","","25.0","","98.87","","","","","","Cloudy"
"1987-01-13 00:00","1987","01","13","00:00","0.8","","-3.0","","76","","30","","22","","25.0","","98.94","","","","","","Mostly Cloudy"
"1987-01-13 01:00","1987","01","13","01:00","0.7","","-2.5","","79","","29","","13","","25.0","","98.97","","","","","","Cloudy"
"1987-01-13 02:00","1987","01","13","02:00","0.7","","-2.5","","79","","30","","28","","25.0","","99.04","","","","","","Mostly Cloudy"
"1987-01-13 03:00","1987","01","13","03:00","0.3","","-3.6","","75","","29","","13","","25.0","","99.07","","","","","","Mostly Cloudy"
"1987-01-13 04:00","1987","01","13","04:00","0.2","","-3.5","","76","","31","","24","","25.0","","99.14","","","","","","Mostly Cloudy"
"1987-01-13 05:00","1987","01","13","05:00","0.1","","-3.6","","76","","31","","17","","25.0","","99.17","","","","","","Mostly Cloudy"
"1987-01-13 06:00","1987","01","13","06:00","0.0","","-3.7","","76","","31","","13","","25.0","","99.24","","","","-4","","Mostly Cloudy"
"1987-01-13 07:00","1987","01","13","07:00","0.4","","-3.8","","74","","29","","20","","25.0","","99.31","","","","","","Mostly Cloudy"
"1987-01-13 08:00","1987","01","13","08:00","0.4","","-3.8","","74","","31","","30","","40.2","","99.37","","","","","","Cloudy"
"1987-01-13 09:00","1987","01","13","09:00","0.7","","-4.3","","69","","32","","13","","40.2","","99.47","","","","","","Cloudy"
"1987-01-13 10:00","1987","01","13","10:00","1.2","","-3.6","","70","","","","0","","40.2","","99.51","","","","","","Mostly Cloudy"
"1987-01-13 11:00","1987","01","13","11:00","2.5","","-3.2","","66","","31","","13","","40.2","","99.51","","","","","","Mostly Cloudy"
"1987-01-13 12:00","1987","01","13","12:00","2.7","","-3.9","","62","","32","","19","","40.2","","99.51","","","","","","Mainly Clear"
"1987-01-13 13:00","1987","01","13","13:00","3.0","","-2.6","","67","","26","","13","","40.2","","99.47","","","","","","Mainly Clear"
"1987-01-13 14:00","1987","01","13","14:00","3.9","","-1.9","","66","","26","","17","","40.2","","99.44","","","","","","Mainly Clear"
"1987-01-13 15:00","1987","01","13","15:00","3.1","","-0.9","","75","","26","","17","","40.2","","99.47","","","","","","Mainly Clear"
"1987-01-13 16:00","1987","01","13","16:00","2.3","","-2.0","","73","","25","","15","","40.2","","99.51","","","","","","Mostly Cloudy"
"1987-01-13 17:00","1987","01","13","17:00","1.0","","-2.4","","78","","25","","9","","32.2","","99.54","","","","","","Mostly Cloudy"
"1987-01-13 18:00","1987","01","13","18:00","-0.5","","-3.8","","78","","24","","6","","25.0","","99.54","","","","-3","","Mainly Clear"
"1987-01-13 19:00","1987","01","13","19:00","-0.3","","-3.5","","79","","","","0","","25.0","","99.51","","","","","","Mostly Cloudy"
"1987-01-13 20:00","1987","01","13","20:00","-0.7","","-3.5","","81","","20","","9","","25.0","","99.51","","","","-4","","Mostly Cloudy"
"1987-01-13 21:00","1987","01","13","21:00","-0.7","","-3.5","","81","","18","","7","","25.0","","99.37","","","","-3","","Mostly Cloudy"
"1987-01-13 22:00","1987","01","13","22:00","-0.9","","-3.6","","82","","17","","9","","12.9","","99.31","","","","-4","","Mostly Cloudy"
"1987-01-13 23:00","1987","01","13","23:00","-1.1","","-3.0","","87","","18","","13","","12.9","","99.24","","","","-5","","Mostly Cloudy"
"1987-01-14 00:00","1987","01","14","00:00","-1.5","","-3.0","","89","","17","","4","","12.9","","99.17","","","","-3","","Mostly Cloudy"
"1987-01-14 01:00","1987","01","14","01:00","-1.3","","-3.0","","88","","19","","11","","11.3","","99.07","","","","-5","","Mainly Clear"
"1987-01-14 02:00","1987","01","14","02:00","-1.0","","-2.4","","90","","16","","9","","11.3","","99.01","","","","-4","","Mainly Clear"
"1987-01-14 03:00","1987","01","14","03:00","0.2","","-1.8","","86","","16","","11","","11.3","","98.87","","","","","","Mostly Cloudy"
"1987-01-14 04:00","1987","01","14","04:00","0.8","","-1.5","","85","","17","","9","","12.9","","98.74","","","","","","Mostly Cloudy"
"1987-01-14 05:00","1987","01","14","05:00","1.2","","-1.9","","80","","19","","9","","12.9","","98.64","","","","","","Mostly Cloudy"
"1987-01-14 06:00","1987","01","14","06:00","1.3","","-1.5","","82","","22","","17","","12.9","","98.61","","","","","","Mostly Cloudy"
"1987-01-14 07:00","1987","01","14","07:00","0.8","","-1.0","","88","","24","","7","","12.9","","98.61","","","","","","Mainly Clear"
"1987-01-14 08:00","1987","01","14","08:00","1.6","","-1.0","","83","","25","","11","","12.9","","98.64","","","","","","Mostly Cloudy"
"1987-01-14 09:00","1987","01","14","09:00","2.1","","-1.0","","80","","25","","7","","12.9","","98.71","","","","","","Cloudy"
"1987-01-14 10:00","1987","01","14","10:00","3.0","","-0.4","","78","","26","","9","","12.9","","98.77","","","","","","Mostly Cloudy"
"1987-01-14 11:00","1987","01","14","11:00","3.8","","-0.3","","75","","25","","19","","12.9","","98.74","","","","","","Mostly Cloudy"
"1987-01-14 12:00","1987","01","14","12:00","4.1","","-0.3","","73","","26","","13","","11.3","","98.71","","","","","","Cloudy"
"1987-01-14 13:00","1987","01","14","13:00","5.0","","0.4","","72","","26","","13","","11.3","","98.64","","","","","","Mostly Cloudy"
"1987-01-14 14:00","1987","01","14","14:00","5.4","","0.4","","70","","25","","17","","11.3","","98.61","","","","","","Mostly Cloudy"
"1987-01-14 15:00","1987","01","14","15:00","4.7","","0.3","","73","","23","","11","","11.3","","98.61","","","","","","Mostly Cloudy"
"1987-01-14 16:00","1987","01","14","16:00","4.2","","0.8","","78","","24","","7","","11.3","","98.64","","","","","","Mostly Cloudy"
"1987-01-14 17:00","1987","01","14","17:00","3.2","","0.7","","84","","29","","7","","9.7","","98.67","","","","","","Haze"
"1987-01-14 18:00","1987","01","14","18:00","3.1","","0.2","","81","","22","","6","","9.7","","98.71","","","","","","Haze"
"1987-01-14 19:00","1987","01","14","19:00","4.1","","0.8","","79","","21","","6","","9.7","","98.74","","","","","","Haze"
"1987-01-14 20:00","1987","01","14","20:00","4.2","","0.8","","78","","20","","6","","9.7","","98.74","","","","","","Haze"
"1987-01-14 21:00","1987","01","14","21:00","4.2","","0.8","","78","","19","","4","","9.7","","98.71","","","","","","Haze"
"1987-01-14 22:00","1987","01","14","22:00","3.5","","1.7","","88","","18","","6","","8.0","","98.67","","","","","","Rain,Fog"
"1987-01-14 23:00","1987","01","14","23:00","3.4","","1.7","","89","","20","","4","","6.4","","98.64","","","","","","Rain,Fog"
"1987-01-15 00:00","1987","01","15","00:00","2.4","","2.0","","97","","18","","9","","4.8","","98.64","","","","","","Rain,Fog"
"1987-01-15 01:00","1987","01","15","01:00","2.8","","2.1","","95","","20","","7","","6.4","","98.61","","","","","","Rain,Fog"
"1987-01-15 02:00","1987","01","15","02:00","2.6","","2.0","","96","","19","","7","","4.8","","98.57","","","","","","Fog"
"1987-01-15 03:00","1987","01","15","03:00","2.9","","2.1","","95","","21","","7","","6.4","","98.57","","","","","","Fog"
"1987-01-15 04:00","1987","01","15","04:00","2.5","","2.0","","96","","24","","7","","3.2","","98.54","","","","","","Fog"
"1987-01-15 05:00","1987","01","15","05:00","2.4","","2.4","","100","","24","","4","","2.4","","98.51","","","","","","Fog"
"1987-01-15 06:00","1987","01","15","06:00","2.7","","2.0","","95","","25","","7","","4.8","","98.51","","","","","","Fog"
"1987-01-15 07:00","1987","01","15","07:00","2.5","","2.0","","96","","25","","7","","4.8","","98.54","","","","","","Fog"
"1987-01-15 08:00","1987","01","15","08:00","2.6","","2.0","","96","","27","","9","","4.8","","98.54","","","","","","Fog"
"1987-01-15 09:00","1987","01","15","09:00","2.6","","2.0","","96","","25","","9","","4.8","","98.61","","","","","","Fog"
"1987-01-15 10:00","1987","01","15","10:00","2.7","","1.6","","92","","24","","13","","4.8","","98.67","","","","","","Fog"
"1987-01-15 11:00","1987","01","15","11:00","2.8","","2.1","","95","","25","","13","","4.8","","98.74","","","","","","Drizzle,Fog"
"1987-01-15 12:00","1987","01","15","12:00","3.0","","1.6","","91","","26","","15","","9.7","","98.71","","","","","","Drizzle,Fog"
"1987-01-15 13:00","1987","01","15","13:00","3.4","","1.2","","86","","28","","19","","16.1","","98.74","","","","","","Cloudy"
"1987-01-15 14:00","1987","01","15","14:00","3.1","","0.7","","84","","28","","19","","12.9","","98.81","","","","","","Drizzle"
"1987-01-15 15:00","1987","01","15","15:00","3.1","","0.2","","81","","28","","17","","12.9","","98.87","","","","","","Cloudy"
"1987-01-15 16:00","1987","01","15","16:00","3.5","","0.2","","79","","28","","17","","19.3","","99.01","","","","","","Mostly Cloudy"
"1987-01-15 17:00","1987","01","15","17:00","2.9","","0.7","","86","","34","","19","","16.1","","99.17","","","","","","Cloudy"
"1987-01-15 18:00","1987","01","15","18:00","1.1","","-1.5","","83","","33","","31","","24.1","","99.34","","","","","","Mostly Cloudy"
"1987-01-15 19:00","1987","01","15","19:00","0.5","","-3.7","","73","","31","","31","","25.0","","99.47","","","","","","Mostly Cloudy"
"1987-01-15 20:00","1987","01","15","20:00","0.2","","-4.1","","73","","31","","30","","25.0","","99.61","","","","","","Cloudy"
"1987-01-15 21:00","1987","01","15","21:00","-0.6","","-4.4","","76","","31","","22","","25.0","","99.71","","","","-6","","Cloudy"
"1987-01-15 22:00","1987","01","15","22:00","-0.9","","-4.7","","75","","33","","24","","25.0","","99.84","","","","-7","","Cloudy"
"1987-01-15 23:00","1987","01","15","23:00","-0.9","","-5.7","","70","","30","","24","","25.0","","99.91","","","","-7","","Cloudy"
"1987-01-16 00:00","1987","01","16","00:00","-2.0","","-7.0","","68","","30","","28","","25.0","","99.97","","","","-9","","Mostly Cloudy"
"1987-01-16 01:00","1987","01","16","01:00","-3.1","","-9.6","","61","","30","","26","","25.0","","100.01","","","","-10","","Mainly Clear"
"1987-01-16 02:00","1987","01","16","02:00","-4.7","","-10.2","","65","","33","","13","","25.0","","100.11","","","","-10","","Mainly Clear"
"1987-01-16 03:00","1987","01","16","03:00","-4.5","","-7.3","","81","","34","","7","","25.0","","100.24","","","","-8","","Mostly Cloudy"
"1987-01-16 04:00","1987","01","16","04:00","-5.2","","-8.2","","79","","36","","13","","16.1","","100.31","","","","-10","","Cloudy"
"1987-01-16 05:00","1987","01","16","05:00","-6.1","","-9.9","","74","","1","","13","","8.0","","100.37","","","","-11","","Snow Showers"
"1987-01-16 06:00","1987","01","16","06:00","-6.6","","-9.4","","81","","3","","9","","11.3","","100.44","","","","-11","","Snow Showers"
"1987-01-16 07:00","1987","01","16","07:00","-7.3","","-11.4","","72","","3","","7","","19.3","","100.54","","","","-11","","Mainly Clear"
"1987-01-16 08:00","1987","01","16","08:00","-8.0","","-11.6","","75","","36","","15","","19.3","","100.61","","","","-14","","Mostly Cloudy"
"1987-01-16 09:00","1987","01","16","09:00","-7.4","","-11.4","","73","","36","","9","","24.1","","100.71","","","","-12","","Cloudy"
"1987-01-16 10:00","1987","01","16","10:00","-7.1","","-11.2","","72","","2","","7","","32.2","","100.74","","","","-11","","Mostly Cloudy"
"1987-01-16 11:00","1987","01","16","11:00","-7.0","","-11.2","","72","","","","0","","32.2","","100.77","","","","","","Mostly Cloudy"
"1987-01-16 12:00","1987","01","16","12:00","-5.7","","-9.6","","74","","","","0","","40.2","","100.77","","","","","","Mostly Cloudy"
"1987-01-16 13:00","1987","01","16","13:00","-4.8","","-9.7","","68","","22","","6","","40.2","","100.67","","","","-8","","Cloudy"
"1987-01-16 14:00","1987","01","16","14:00","-4.7","","-9.4","","70","","16","","9","","40.2","","100.54","","","","-9","","Mostly Cloudy"
"1987-01-16 15:00","1987","01","16","15:00","-4.5","","-8.3","","75","","16","","6","","40.2","","100.54","","","","-7","","Snow Showers"
"1987-01-16 16:00","1987","01","16","16:00","-4.1","","-9.1","","68","","","","0","","40.2","","100.57","","","","","","Cloudy"
"1987-01-16 17:00","1987","01","16","17:00","-3.8","","-9.5","","64","","27","","17","","40.2","","100.57","","","","-10","","Mostly Cloudy"
"1987-01-16 18:00","1987","01","16","18:00","-4.0","","-8.7","","70","","27","","13","","25.0","","100.57","","","","-9","","Mostly Cloudy"
"1987-01-16 19:00","1987","01","16","19:00","-4.0","","-10.3","","61","","28","","11","","25.0","","100.64","","","","-8","","Mostly Cloudy"
"1987-01-16 20:00","1987","01","16","20:00","-5.9","","-9.9","","73","","32","","13","","25.0","","100.67","","","","-11","","Mostly Cloudy"
"1987-01-16 21:00","1987","01","16","21:00","-5.6","","-8.2","","82","","1","","17","","19.3","","100.71","","","","-12","","Cloudy"
"1987-01-16 22:00","1987","01","16","22:00","-6.7","","-9.4","","81","","2","","11","","12.9","","100.74","","","","-12","","Snow Showers"
"1987-01-16 23:00","1987","01","16","23:00","-8.0","","-10.5","","82","","36","","7","","25.0","","100.71","","","","-12","","Mainly Clear"
"1987-01-17 00:00","1987","01","17","00:00","-9.5","","-11.8","","83","","","","0","","25.0","","100.71","","","","","","Mainly Clear"
"1987-01-17 01:00","1987","01","17","01:00","-9.6","","-11.4","","87","","34","","6","","25.0","","100.71","","","","-13","","Clear"
"1987-01-17 02:00","1987","01","17","02:00","-9.6","","-11.1","","89","","3","","4","","25.0","","100.74","","","","-12","","Clear"
"1987-01-17 03:00","1987","01","17","03:00","-9.4","","-11.1","","87","","","","0","","25.0","","100.77","","","","","","Clear"
"1987-01-17 04:00","1987","01","17","04:00","-11.3","","-12.9","","88","","34","","7","","25.0","","100.77","","","","-16","","Clear"
"1987-01-17 05:00","1987","01","17","05:00","-10.5","","-11.8","","90","","33","","6","","25.0","","100.77","","","","-14","","Cloudy"
"1987-01-17 06:00","1987","01","17","06:00","-10.0","","-12.0","","85","","36","","9","","25.0","","100.81","","","","-15","","Cloudy"
"1987-01-17 07:00","1987","01","17","07:00","-9.6","","-12.3","","81","","36","","6","","25.0","","100.84","","","","-13","","Mostly Cloudy"
"1987-01-17 08:00","1987","01","17","08:00","-9.4","","-11.4","","85","","2","","6","","24.1","","100.81","","","","-13","","Mostly Cloudy"
"1987-01-17 09:00","1987","01","17","09:00","-7.7","","-10.2","","82","","2","","9","","32.2","","100.87","","","","-12","","Mostly Cloudy"
"1987-01-17 10:00","1987","01","17","10:00","-6.3","","-10.9","","70","","5","","7","","9.7","","100.91","","","","-10","","Snow Showers"
"1987-01-17 11:00","1987","01","17","11:00","-5.3","","-9.2","","74","","8","","6","","9.7","","100.91","","","","-8","","Snow"
"1987-01-17 12:00","1987","01","17","12:00","-5.1","","-8.2","","79","","10","","11","","6.4","","100.81","","","","-10","","Snow"
"1987-01-17 13:00","1987","01","17","13:00","-4.7","","-7.6","","80","","8","","11","","9.7","","100.74","","","","-9","","Snow"
"1987-01-17 14:00","1987","01","17","14:00","-5.0","","-7.2","","84","","12","","15","","1.6","","100.67","","","","-11","","Snow Showers"
"1987-01-17 15:00","1987","01","17","15:00","-4.7","","-7.6","","80","","12","","20","","3.2","","100.61","","","","-11","","Snow Showers"
"1987-01-17 16:00","1987","01","17","16:00","-4.4","","-8.3","","74","","11","","19","","9.7","","100.57","","","","-11","","Snow Showers"
"1987-01-17 17:00","1987","01","17","17:00","-4.3","","-8.7","","71","","11","","24","","32.2","","100.47","","","","-11","","Cloudy"
"1987-01-17 18:00","1987","01","17","18:00","-4.7","","-8.3","","76","","11","","19","","25.0","","100.44","","","","-11","","Mostly Cloudy"
"1987-01-17 19:00","1987","01","17","19:00","-4.0","","-8.7","","70","","11","","20","","25.0","","100.47","","","","-10","","Cloudy"
"1987-01-17 20:00","1987","01","17","20:00","-4.0","","-8.7","","70","","12","","20","","25.0","","100.37","","","","-10","","Cloudy"
"1987-01-17 21:00","1987","01","17","21:00","-3.8","","-8.3","","71","","11","","28","","25.0","","100.24","","","","-11","","Cloudy"
"1987-01-17 22:00","1987","01","17","22:00","-3.8","","-8.3","","71","","11","","24","","25.0","","100.11","","","","-11","","Cloudy"
"1987-01-17 23:00","1987","01","17","23:00","-3.4","","-8.4","","68","","11","","22","","25.0","","100.01","","","","-10","","Cloudy"
"1987-01-18 00:00","1987","01","18","00:00","-3.4","","-7.3","","74","","11","","20","","25.0","","99.87","","","","-10","","Cloudy"
"1987-01-18 01:00","1987","01","18","01:00","-3.2","","-7.4","","73","","11","","20","","25.0","","99.64","","","","-9","","Cloudy"
"1987-01-18 02:00","1987","01","18","02:00","-2.9","","-7.7","","69","","10","","17","","25.0","","99.64","","","","-8","","Cloudy"
"1987-01-18 03:00","1987","01","18","03:00","-2.7","","-6.7","","74","","11","","13","","9.7","","99.57","","","","-7","","Snow"
"1987-01-18 04:00","1987","01","18","04:00","-3.6","","-4.5","","94","","8","","9","","2.4","","99.47","","","","-7","","Snow"
"1987-01-18 05:00","1987","01","18","05:00","-3.5","","-4.0","","96","","11","","9","","1.6","","99.34","","","","-7","","Snow"
"1987-01-18 06:00","1987","01","18","06:00","-3.2","","-3.4","","99","","11","","13","","2.4","","99.21","","","","-8","","Snow"
"1987-01-18 07:00","1987","01","18","07:00","-2.9","","-3.4","","96","","11","","11","","2.4","","99.14","","","","-7","","Snow"
"1987-01-18 08:00","1987","01","18","08:00","-2.5","","-2.8","","98","","11","","9","","1.2","","99.01","","","","-6","","Snow"
"1987-01-18 09:00","1987","01","18","09:00","-3.4","","-4.0","","96","","36","","6","","0.8","","99.01","","","","-6","","Moderate Snow"
"1987-01-18 10:00","1987","01","18","10:00","-3.2","","-3.4","","99","","33","","6","","0.8","","98.97","","","","-6","","Moderate Snow"
"1987-01-18 11:00","1987","01","18","11:00","-3.4","","-4.2","","94","","31","","6","","2.0","","99.04","","","","-6","","Snow"
"1987-01-18 12:00","1987","01","18","12:00","-3.0","","-3.9","","94","","33","","6","","2.0","","99.01","","","","-5","","Snow"
"1987-01-18 13:00","1987","01","18","13:00","-1.5","","-2.8","","91","","27","","4","","2.0","","98.91","","","","-3","","Snow"
"1987-01-18 14:00","1987","01","18","14:00","-0.5","","-2.9","","84","","27","","7","","9.7","","98.91","","","","-3","","Snow"
"1987-01-18 15:00","1987","01","18","15:00","-0.3","","-3.2","","80","","29","","15","","16.1","","98.97","","","","-5","","Mostly Cloudy"
"1987-01-18 16:00","1987","01","18","16:00","-0.2","","-3.1","","81","","30","","17","","19.3","","99.04","","","","-5","","Mostly Cloudy"
"1987-01-18 17:00","1987","01","18","17:00","-0.9","","-4.4","","77","","29","","20","","19.3","","99.11","","","","-6","","Mostly Cloudy"
"1987-01-18 18:00","1987","01","18","18:00","-1.4","","-4.5","","79","","30","","15","","19.3","","99.14","","","","-6","","Mostly Cloudy"
"1987-01-18 19:00","1987","01","18","19:00","-1.7","","-4.2","","83","","29","","11","","25.0","","99.14","","","","-6","","Mostly Cloudy"
"1987-01-18 20:00","1987","01","18","20:00","-2.1","","-4.8","","82","","30","","20","","25.0","","99.21","","","","-8","","Mostly Cloudy"
"1987-01-18 21:00","1987","01","18","21:00","-2.2","","-4.8","","83","","28","","11","","25.0","","99.24","","","","-6","","Mostly Cloudy"
"1987-01-18 22:00","1987","01","18","22:00","-2.2","","-4.8","","83","","30","","15","","25.0","","99.31","","","","-7","","Mostly Cloudy"
"1987-01-18 23:00","1987","01","18","23:00","-3.0","","-7.0","","74","","29","","9","","25.0","","99.34","","","","-7","","Cloudy"
"1987-01-19 00:00","1987","01","19","00:00","-4.0","","-7.0","","80","","33","","4","","25.0","","99.27","","","","-6","","Mostly Cloudy"
"1987-01-19 01:00","1987","01","19","01:00","-5.0","","-8.6","","76","","27","","4","","25.0","","99.27","","","","-7","","Mostly Cloudy"
"1987-01-19 02:00","1987","01","19","02:00","-7.2","","-10.0","","80","","30","","4","","25.0","","99.24","","","","-9","","Mostly Cloudy"
"1987-01-19 03:00","1987","01","19","03:00","-6.7","","-9.0","","84","","","","0","","25.0","","99.24","","","","","","Mostly Cloudy"
"1987-01-19 04:00","1987","01","19","04:00","-7.0","","-9.3","","84","","","","0","","25.0","","99.31","","","","","","Mostly Cloudy"
"1987-01-19 05:00","1987","01","19","05:00","-5.0","","-8.9","","74","","","","0","","25.0","","99.31","","","","","","Cloudy"
"1987-01-19 06:00","1987","01","19","06:00","-5.5","","-8.2","","81","","35","","4","","25.0","","99.17","","","","-7","","Cloudy"
"1987-01-19 07:00","1987","01","19","07:00","-5.0","","-8.2","","78","","1","","11","","25.0","","99.14","","","","-10","","Cloudy"
"1987-01-19 08:00","1987","01","19","08:00","-5.0","","-7.9","","80","","3","","9","","24.1","","99.04","","","","-9","","Cloudy"
"1987-01-19 09:00","1987","01","19","09:00","-4.2","","-7.3","","79","","4","","20","","24.1","","99.01","","","","-11","","Mostly Cloudy"
"1987-01-19 10:00","1987","01","19","10:00","-4.7","","-7.3","","82","","5","","24","","24.1","","99.01","","","","-12","","Cloudy"
"1987-01-19 11:00","1987","01","19","11:00","-5.2","","-8.9","","75","","5","","30","","32.2","","98.91","","","","-13","","Cloudy"
"1987-01-19 12:00","1987","01","19","12:00","-5.3","","-9.2","","74","","5","","24","","32.2","","98.74","","","","-13","","Cloudy"
"1987-01-19 13:00","1987","01","19","13:00","-5.6","","-9.6","","73","","6","","26","","24.1","","98.54","","","","-13","","Cloudy"
"1987-01-19 14:00","1987","01","19","14:00","-6.4","","-9.7","","77","","5","","30","","24.1","","98.41","","","","-15","","Cloudy"
"1987-01-19 15:00","1987","01","19","15:00","-7.5","","-8.4","","93","","5","","28","","0.4","","98.31","","","","-16","","Heavy Snow,Blowing Snow"
"1987-01-19 16:00","1987","01","19","16:00","-8.0","","-9.0","","92","","5","","28","","0.2","","98.27","","","","-17","","Heavy Snow"
"1987-01-19 17:00","1987","01","19","17:00","-8.0","","-9.0","","92","","4","","26","","0.2","","98.54","","","","-16","","Heavy Snow"
"1987-01-19 18:00","1987","01","19","18:00","-8.0","","-9.0","","92","","1","","22","","0.4","","98.64","","","","-16","","Heavy Snow"
"1987-01-19 19:00","1987","01","19","19:00","-8.4","","-9.6","","91","","1","","22","","0.6","","98.74","","","","-16","","Moderate Snow"
"1987-01-19 20:00","1987","01","19","20:00","-9.0","","-10.1","","92","","1","","28","","3.2","","98.67","","","","-18","","Snow"
"1987-01-19 21:00","1987","01","19","21:00","-9.1","","-10.5","","90","","36","","24","","4.0","","98.81","","","","-17","","Snow"
"1987-01-19 22:00","1987","01","19","22:00","-9.8","","-11.6","","86","","35","","24","","9.7","","99.01","","","","-18","","Snow"
"1987-01-19 23:00","1987","01","19","23:00","-10.6","","-12.6","","85","","36","","20","","25.0","","99.04","","","","-19","","Mostly Cloudy"
"1987-01-20 00:00","1987","01","20","00:00","-11.1","","-13.2","","84","","32","","15","","25.0","","99.24","","","","-18","","Mostly Cloudy"
"1987-01-20 01:00","1987","01","20","01:00","-13.5","","-16.6","","77","","35","","15","","25.0","","99.31","","","","-21","","Mostly Cloudy"
"1987-01-20 02:00","1987","01","20","02:00","-13.5","","-16.6","","77","","30","","6","","25.0","","99.41","","","","-18","","Mostly Cloudy"
"1987-01-20 03:00","1987","01","20","03:00","-15.5","","-18.4","","78","","33","","4","","25.0","","99.44","","","","-18","","Mainly Clear"
"1987-01-20 04:00","1987","01","20","04:00","-17.4","","-19.5","","84","","29","","6","","25.0","","99.47","","","","-22","","Mainly Clear"
"1987-01-20 05:00","1987","01","20","05:00","-17.8","","-19.4","","87","","28","","7","","25.0","","99.51","","","","-23","","Mainly Clear"
"1987-01-20 06:00","1987","01","20","06:00","-16.6","","-18.4","","86","","","","0","","25.0","","99.54","","","","","","Mainly Clear"
"1987-01-20 07:00","1987","01","20","07:00","-19.9","","-21.5","","87","","29","","7","","25.0","","99.61","","","","-26","","Mainly Clear"
"1987-01-20 08:00","1987","01","20","08:00","-19.9","","-21.5","","87","","27","","6","","24.1","","99.61","","","","-25","","Mainly Clear"
"1987-01-20 09:00","1987","01","20","09:00","-16.5","","-19.6","","77","","26","","2","","32.2","","99.64","","","","-18","","Mainly Clear"
"1987-01-20 10:00","1987","01","20","10:00","-13.4","","-16.6","","77","","","","0","","32.2","","99.71","","","","","","Mostly Cloudy"
"1987-01-20 11:00","1987","01","20","11:00","-9.8","","-12.9","","78","","17","","4","","24.1","","99.64","","","","-12","","Mostly Cloudy"
"1987-01-20 12:00","1987","01","20","12:00","-7.4","","-10.6","","78","","18","","7","","24.1","","99.54","","","","-11","","Mainly Clear"
"1987-01-20 13:00","1987","01","20","13:00","-6.0","","-9.5","","76","","20","","6","","24.1","","99.41","","","","-9","","Mainly Clear"
"1987-01-20 14:00","1987","01","20","14:00","-4.4","","-7.9","","76","","20","","13","","32.2","","99.34","","","","-9","","Mostly Cloudy"
"1987-01-20 15:00","1987","01","20","15:00","-3.6","","-7.3","","76","","19","","17","","24.1","","99.31","","","","-9","","Snow Showers"
"1987-01-20 16:00","1987","01","20","16:00","-2.5","","-6.0","","77","","20","","20","","32.2","","99.21","","","","-8","","Mostly Cloudy"
"1987-01-20 17:00","1987","01","20","17:00","-3.0","","-6.4","","77","","19","","15","","24.1","","99.21","","","","-8","","Mostly Cloudy"
"1987-01-20 18:00","1987","01","20","18:00","-3.2","","-5.4","","85","","21","","20","","24.1","","99.21","","","","-9","","Snow Showers"
"1987-01-20 19:00","1987","01","20","19:00","-3.5","","-6.3","","81","","20","","22","","16.1","","99.21","","","","-10","","Snow Showers"
"1987-01-20 20:00","1987","01","20","20:00","-3.6","","-6.0","","83","","21","","20","","16.1","","99.14","","","","-10","","Snow Showers"
"1987-01-20 21:00","1987","01","20","21:00","-3.6","","-5.4","","87","","21","","17","","6.4","","99.11","","","","-9","","Snow Showers"
"1987-01-20 22:00","1987","01","20","22:00","-3.4","","-5.7","","84","","23","","24","","9.7","","99.04","","","","-10","","Snow Showers"
"1987-01-20 23:00","1987","01","20","23:00","-3.6","","-6.7","","79","","23","","22","","12.9","","99.01","","","","-10","","Snow Showers"
"1987-01-21 00:00","1987","01","21","00:00","-3.4","","-7.0","","76","","24","","19","","16.1","","98.94","","","","-9","","Cloudy"
"1987-01-21 01:00","1987","01","21","01:00","-4.4","","-6.9","","83","","22","","20","","12.9","","98.94","","","","-11","","Snow Showers"
"1987-01-21 02:00","1987","01","21","02:00","-4.9","","-7.2","","84","","22","","22","","9.7","","98.94","","","","-12","","Snow Showers"
"1987-01-21 03:00","1987","01","21","03:00","-5.6","","-7.8","","85","","23","","19","","9.7","","98.94","","","","-12","","Snow Showers"
"1987-01-21 04:00","1987","01","21","04:00","-5.9","","-7.4","","89","","23","","15","","9.7","","99.01","","","","-12","","Snow Showers"
"1987-01-21 05:00","1987","01","21","05:00","-6.4","","-8.0","","88","","21","","13","","9.7","","99.04","","","","-12","","Snow Showers"
"1987-01-21 06:00","1987","01","21","06:00","-6.6","","-8.0","","90","","21","","15","","8.0","","99.14","","","","-13","","Snow Showers"
"1987-01-21 07:00","1987","01","21","07:00","-6.6","","-8.7","","85","","22","","15","","8.0","","99.21","","","","-13","","Snow Showers"
"1987-01-21 08:00","1987","01","21","08:00","-7.1","","-9.6","","82","","22","","19","","12.9","","99.27","","","","-14","","Snow"
"1987-01-21 09:00","1987","01","21","09:00","-7.4","","-10.6","","78","","24","","20","","24.1","","99.31","","","","-15","","Mainly Clear"
"1987-01-21 10:00","1987","01","21","10:00","-7.3","","-11.0","","75","","24","","24","","32.2","","99.37","","","","-15","","Mainly Clear"
"1987-01-21 11:00","1987","01","21","11:00","-6.2","","-9.9","","75","","24","","20","","32.2","","99.44","","","","-13","","Clear"
"1987-01-21 12:00","1987","01","21","12:00","-5.3","","-10.8","","65","","24","","24","","32.2","","99.41","","","","-13","","Mainly Clear"
"1987-01-21 13:00","1987","01","21","13:00","-4.4","","-9.8","","66","","24","","30","","40.2","","99.34","","","","-12","","Mostly Cloudy"
"1987-01-21 14:00","1987","01","21","14:00","-4.1","","-8.3","","73","","24","","22","","40.2","","99.31","","","","-11","","Mainly Clear"
"1987-01-21 15:00","1987","01","21","15:00","-4.9","","-8.6","","75","","24","","22","","40.2","","99.37","","","","-12","","Mostly Cloudy"
"1987-01-21 16:00","1987","01","21","16:00","-4.2","","-7.0","","81","","21","","20","","32.2","","99.41","","","","-11","","Mostly Cloudy"
"1987-01-21 17:00","1987","01","21","17:00","-5.7","","-7.8","","85","","23","","13","","24.1","","99.41","","","","-11","","Mostly Cloudy"
"1987-01-21 18:00","1987","01","21","18:00","-5.6","","-8.2","","82","","16","","9","","19.3","","99.34","","","","-10","","Mostly Cloudy"
"1987-01-21 19:00","1987","01","21","19:00","-5.5","","-7.5","","86","","16","","9","","19.3","","99.47","","","","-10","","Mostly Cloudy"
"1987-01-21 20:00","1987","01","21","20:00","-6.2","","-8.4","","85","","20","","11","","25.0","","99.44","","","","-11","","Mostly Cloudy"
"1987-01-21 21:00","1987","01","21","21:00","-6.3","","-10.5","","72","","19","","7","","25.0","","99.34","","","","-10","","Mainly Clear"
"1987-01-21 22:00","1987","01","21","22:00","-7.9","","-11.2","","77","","15","","9","","25.0","","99.31","","","","-12","","Mostly Cloudy"
"1987-01-21 23:00","1987","01","21","23:00","-7.4","","-10.2","","80","","17","","4","","25.0","","99.31","","","","-9","","Mainly Clear"
"1987-01-22 00:00","1987","01","22","00:00","-7.3","","-9.9","","81","","19","","7","","25.0","","99.27","","","","-11","","Mostly Cloudy"
"1987-01-22 01:00","1987","01","22","01:00","-6.8","","-9.3","","82","","14","","7","","25.0","","99.17","","","","-10","","Cloudy"
"1987-01-22 02:00","1987","01","22","02:00","-5.3","","-7.5","","84","","18","","7","","24.1","","99.17","","","","-9","","Cloudy"
"1987-01-22 03:00","1987","01","22","03:00","-4.0","","-6.0","","86","","19","","11","","19.3","","99.11","","","","-8","","Cloudy"
"1987-01-22 04:00","1987","01","22","04:00","-4.2","","-7.0","","81","","19","","11","","19.3","","99.04","","","","-9","","Cloudy"
"1987-01-22 05:00","1987","01","22","05:00","-4.0","","-7.0","","80","","15","","11","","24.1","","98.94","","","","-8","","Cloudy"
"1987-01-22 06:00","1987","01","22","06:00","-3.5","","-5.7","","85","","14","","24","","25.0","","98.81","","","","-10","","Cloudy"
"1987-01-22 07:00","1987","01","22","07:00","-3.0","","-6.4","","77","","13","","19","","25.0","","98.71","","","","-9","","Cloudy"
"1987-01-22 08:00","1987","01","22","08:00","-3.5","","-8.0","","71","","14","","19","","32.2","","98.57","","","","-9","","Cloudy"
"1987-01-22 09:00","1987","01","22","09:00","-3.2","","-7.7","","71","","15","","13","","32.2","","98.51","","","","-8","","Cloudy"
"1987-01-22 10:00","1987","01","22","10:00","-3.5","","-6.0","","83","","16","","17","","32.2","","98.44","","","","-9","","Cloudy"
"1987-01-22 11:00","1987","01","22","11:00","-3.1","","-6.7","","76","","15","","17","","24.1","","98.34","","","","-9","","Cloudy"
"1987-01-22 12:00","1987","01","22","12:00","-2.6","","-6.0","","77","","15","","13","","24.1","","98.17","","","","-7","","Cloudy"
"1987-01-22 13:00","1987","01","22","13:00","-2.0","","-6.0","","74","","16","","17","","24.1","","98.04","","","","-7","","Cloudy"
"1987-01-22 14:00","1987","01","22","14:00","-1.5","","-4.8","","78","","16","","15","","24.1","","97.94","","","","-6","","Cloudy"
"1987-01-22 15:00","1987","01","22","15:00","-1.5","","-5.1","","76","","15","","6","","24.1","","97.77","","","","-4","","Cloudy"
"1987-01-22 16:00","1987","01","22","16:00","-1.8","","-6.0","","73","","13","","7","","19.3","","97.74","","","","-4","","Cloudy"
"1987-01-22 17:00","1987","01","22","17:00","-1.8","","-5.7","","74","","13","","11","","19.3","","97.71","","","","-6","","Cloudy"
"1987-01-22 18:00","1987","01","22","18:00","-2.4","","-4.5","","85","","14","","19","","4.8","","97.71","","","","-8","","Snow"
"1987-01-22 19:00","1987","01","22","19:00","-2.8","","-3.9","","92","","13","","15","","2.4","","97.64","","","","-8","","Snow"
"1987-01-22 20:00","1987","01","22","20:00","-2.9","","-3.4","","96","","13","","13","","3.2","","97.54","","","","-8","","Snow"
"1987-01-22 21:00","1987","01","22","21:00","-2.7","","-2.8","","100","","17","","7","","4.0","","97.41","","","","-6","","Snow"
"1987-01-22 22:00","1987","01","22","22:00","-3.4","","-4.0","","96","","","","0","","4.8","","97.24","","","","","","Snow"
"1987-01-22 23:00","1987","01","22","23:00","-4.0","","-4.5","","96","","","","0","","4.8","","97.14","","","","","","Snow"
"1987-01-23 00:00","1987","01","23","00:00","-3.9","","-4.5","","95","","","","0","","8.0","","97.01","","","","","","Snow"
"1987-01-23 01:00","1987","01","23","01:00","-4.1","","-4.8","","95","","26","","4","","8.0","","96.91","","","","-6","","Fog"
"1987-01-23 02:00","1987","01","23","02:00","-4.1","","-5.7","","88","","26","","7","","8.0","","96.88","","","","-7","","Snow Showers,Fog"
"1987-01-23 03:00","1987","01","23","03:00","-4.2","","-5.7","","89","","26","","9","","6.4","","96.84","","","","-8","","Snow Showers"
"1987-01-23 04:00","1987","01","23","04:00","-5.5","","-7.5","","86","","28","","17","","11.3","","96.81","","","","-12","","Mostly Cloudy"
"1987-01-23 05:00","1987","01","23","05:00","-5.6","","-9.2","","76","","29","","35","","12.9","","96.91","","","","-14","","Mostly Cloudy"
"1987-01-23 06:00","1987","01","23","06:00","-7.0","","-12.0","","67","","30","","33","","16.1","","96.98","","","","-16","","Mostly Cloudy"
"1987-01-23 07:00","1987","01","23","07:00","-7.9","","-12.9","","67","","29","","41","","16.1","","97.11","","","","-18","","Mostly Cloudy"
"1987-01-23 08:00","1987","01","23","08:00","-9.1","","-13.4","","71","","28","","37","","40.2","","97.24","","","","-19","","Mostly Cloudy"
"1987-01-23 09:00","1987","01","23","09:00","-10.0","","-14.7","","68","","29","","30","","40.2","","97.37","","","","-20","","Mostly Cloudy"
"1987-01-23 10:00","1987","01","23","10:00","-10.8","","-15.5","","68","","28","","41","","40.2","","97.51","","","","-22","","Mainly Clear"
"1987-01-23 11:00","1987","01","23","11:00","-10.8","","-15.5","","68","","29","","39","","40.2","","97.61","","","","-22","","Mainly Clear"
"1987-01-23 12:00","1987","01","23","12:00","-11.2","","-15.5","","71","","29","","39","","4.8","","97.67","","","","-22","","Blowing Snow"
"1987-01-23 13:00","1987","01","23","13:00","-12.3","","-17.5","","65","","28","","44","","16.1","","97.71","","","","-24","","Mainly Clear"
"1987-01-23 14:00","1987","01","23","14:00","-13.0","","-17.6","","68","","27","","52","","19.3","","97.81","","","","-26","","Mainly Clear"
"1987-01-23 15:00","1987","01","23","15:00","-13.0","","-17.6","","68","","27","","44","","24.1","","97.94","","","","-25","","Mainly Clear"
"1987-01-23 16:00","1987","01","23","16:00","-14.4","","-20.3","","61","","28","","46","","24.1","","98.11","","","","-27","","Mainly Clear"
"1987-01-23 17:00","1987","01","23","17:00","-14.7","","-20.3","","63","","27","","28","","32.2","","98.21","","","","-25","","Mainly Clear"
"1987-01-23 18:00","1987","01","23","18:00","-15.2","","-19.0","","73","","25","","24","","25.0","","98.27","","","","-25","","Mainly Clear"
"1987-01-23 19:00","1987","01","23","19:00","-15.4","","-19.0","","74","","24","","28","","25.0","","98.31","","","","-26","","Mainly Clear"
"1987-01-23 20:00","1987","01","23","20:00","-15.1","","-18.4","","76","","25","","33","","25.0","","98.34","","","","-27","","Mainly Clear"
"1987-01-23 21:00","1987","01","23","21:00","-15.3","","-19.7","","69","","25","","24","","25.0","","98.34","","","","-25","","Mainly Clear"
"1987-01-23 22:00","1987","01","23","22:00","-15.6","","-19.0","","75","","24","","24","","25.0","","98.37","","","","-26","","Mainly Clear"
"1987-01-23 23:00","1987","01","23","23:00","-15.7","","-19.0","","76","","24","","28","","25.0","","98.37","","","","-27","","Mainly Clear"
"1987-01-24 00:00","1987","01","24","00:00","-15.7","","-19.0","","76","","24","","28","","25.0","","98.37","","","","-27","","Mainly Clear"
"1987-01-24 01:00","1987","01","24","01:00","-16.4","","-19.6","","76","","23","","17","","25.0","","98.37","","","","-25","","Mainly Clear"
"1987-01-24 02:00","1987","01","24","02:00","-16.8","","-20.2","","75","","22","","17","","25.0","","98.41","","","","-26","","Mainly Clear"
"1987-01-24 03:00","1987","01","24","03:00","-17.0","","-21.6","","67","","22","","22","","25.0","","98.44","","","","-27","","Mainly Clear"
"1987-01-24 04:00","1987","01","24","04:00","-16.5","","-21.0","","68","","23","","30","","25.0","","98.44","","","","-28","","Cloudy"
"1987-01-24 05:00","1987","01","24","05:00","-16.4","","-20.3","","72","","22","","28","","25.0","","98.47","","","","-28","","Cloudy"
"1987-01-24 06:00","1987","01","24","06:00","-16.1","","-20.3","","70","","23","","22","","11.3","","98.54","","","","-26","","Mostly Cloudy"
"1987-01-24 07:00","1987","01","24","07:00","-16.8","","-20.9","","70","","24","","26","","11.3","","98.64","","","","-28","","Mostly Cloudy"
"1987-01-24 08:00","1987","01","24","08:00","-16.2","","-19.7","","74","","24","","31","","16.1","","98.67","","","","-28","","Mostly Cloudy"
"1987-01-24 09:00","1987","01","24","09:00","-16.1","","-19.7","","74","","24","","31","","32.2","","98.77","","","","-28","","Mostly Cloudy"
"1987-01-24 10:00","1987","01","24","10:00","-15.5","","-19.7","","70","","24","","33","","40.2","","98.84","","","","-27","","Mainly Clear"
"1987-01-24 11:00","1987","01","24","11:00","-14.8","","-19.7","","66","","23","","37","","40.2","","98.97","","","","-27","","Mainly Clear"
"1987-01-24 12:00","1987","01","24","12:00","-14.5","","-19.0","","69","","23","","37","","40.2","","99.04","","","","-26","","Mainly Clear"
"1987-01-24 13:00","1987","01","24","13:00","-13.5","","-18.3","","67","","24","","35","","32.2","","99.07","","","","-25","","Mainly Clear"
"1987-01-24 14:00","1987","01","24","14:00","-13.0","","-17.6","","68","","23","","31","","32.2","","99.14","","","","-24","","Mainly Clear"
"1987-01-24 15:00","1987","01","24","15:00","-12.0","","-16.3","","70","","25","","39","","32.2","","99.24","","","","-23","","Mainly Clear"
"1987-01-24 16:00","1987","01","24","16:00","-12.4","","-17.5","","66","","23","","31","","40.2","","99.34","","","","-23","","Mainly Clear"
"1987-01-24 17:00","1987","01","24","17:00","-14.0","","-18.4","","69","","24","","30","","40.2","","99.41","","","","-25","","Mainly Clear"
"1987-01-24 18:00","1987","01","24","18:00","-14.8","","-19.7","","66","","24","","41","","25.0","","99.47","","","","-27","","Mainly Clear"
"1987-01-24 19:00","1987","01","24","19:00","-15.2","","-20.3","","65","","24","","37","","25.0","","99.57","","","","-27","","Clear"
"1987-01-24 20:00","1987","01","24","20:00","-15.3","","-21.0","","62","","23","","37","","25.0","","99.61","","","","-27","","Clear"
"1987-01-24 21:00","1987","01","24","21:00","-15.3","","-21.0","","62","","24","","37","","25.0","","99.61","","","","-27","","Clear"
"1987-01-24 22:00","1987","01","24","22:00","-15.4","","-20.3","","66","","25","","31","","25.0","","99.64","","","","-27","","Clear"
"1987-01-24 23:00","1987","01","24","23:00","-14.8","","-19.0","","70","","25","","22","","25.0","","99.64","","","","-24","","Clear"
"1987-01-25 00:00","1987","01","25","00:00","-14.4","","-18.4","","72","","24","","19","","25.0","","99.71","","","","-23","","Clear"
"1987-01-25 01:00","1987","01","25","01:00","-14.7","","-19.0","","70","","23","","11","","25.0","","99.71","","","","-21","","Mostly Cloudy"
"1987-01-25 02:00","1987","01","25","02:00","-15.0","","-19.7","","67","","25","","26","","25.0","","99.71","","","","-25","","Clear"
"1987-01-25 03:00","1987","01","25","03:00","-13.9","","-19.0","","65","","26","","22","","25.0","","99.71","","","","-23","","Clear"
"1987-01-25 04:00","1987","01","25","04:00","-13.3","","-17.7","","69","","26","","20","","25.0","","99.71","","","","-22","","Clear"
"1987-01-25 05:00","1987","01","25","05:00","-13.2","","-17.6","","69","","26","","22","","25.0","","99.77","","","","-22","","Mainly Clear"
"1987-01-25 06:00","1987","01","25","06:00","-13.1","","-16.5","","76","","25","","17","","25.0","","99.77","","","","-21","","Clear"
"1987-01-25 07:00","1987","01","25","07:00","-14.0","","-17.2","","76","","25","","9","","25.0","","99.84","","","","-20","","Clear"
"1987-01-25 08:00","1987","01","25","08:00","-15.0","","-16.8","","86","","15","","7","","32.2","","99.91","","","","-20","","Mainly Clear"
"1987-01-25 09:00","1987","01","25","09:00","-13.3","","-15.6","","83","","21","","7","","40.2","","99.97","","","","-18","","Mainly Clear"
"1987-01-25 10:00","1987","01","25","10:00","-12.8","","-15.5","","80","","24","","6","","40.2","","100.01","","","","-17","","Mainly Clear"
"1987-01-25 11:00","1987","01","25","11:00","-11.2","","-14.1","","79","","23","","9","","40.2","","100.07","","","","-16","","Mostly Cloudy"
"1987-01-25 12:00","1987","01","25","12:00","-10.7","","-13.5","","80","","23","","11","","40.2","","100.04","","","","-16","","Mostly Cloudy"
"1987-01-25 13:00","1987","01","25","13:00","-8.3","","-11.9","","75","","25","","11","","40.2","","100.04","","","","-14","","Mainly Clear"
"1987-01-25 14:00","1987","01","25","14:00","-7.3","","-12.7","","65","","26","","11","","40.2","","99.97","","","","-12","","Mainly Clear"
"1987-01-25 15:00","1987","01","25","15:00","-7.1","","-12.4","","66","","26","","11","","40.2","","99.97","","","","-12","","Mainly Clear"
"1987-01-25 16:00","1987","01","25","16:00","-7.2","","-12.0","","69","","33","","9","","40.2","","99.91","","","","-12","","Clear"
"1987-01-25 17:00","1987","01","25","17:00","-9.2","","-13.4","","72","","32","","6","","40.2","","99.91","","","","-13","","Mainly Clear"
"1987-01-25 18:00","1987","01","25","18:00","-9.7","","-13.1","","76","","26","","4","","25.0","","99.91","","","","-12","","Mainly Clear"
"1987-01-25 19:00","1987","01","25","19:00","-11.3","","-14.7","","76","","27","","9","","25.0","","99.97","","","","-16","","Mainly Clear"
"1987-01-25 20:00","1987","01","25","20:00","-13.0","","-15.0","","85","","30","","7","","25.0","","100.01","","","","-18","","Mainly Clear"
"1987-01-25 21:00","1987","01","25","21:00","-14.0","","-16.2","","83","","33","","7","","24.1","","100.01","","","","-19","","Mainly Clear"
"1987-01-25 22:00","1987","01","25","22:00","-14.4","","-16.2","","86","","35","","11","","24.1","","100.01","","","","-21","","Mainly Clear"
"1987-01-25 23:00","1987","01","25","23:00","-14.7","","-16.2","","88","","34","","11","","25.0","","100.01","","","","-21","","Mainly Clear"
"1987-01-26 00:00","1987","01","26","00:00","-15.3","","-16.8","","88","","33","","13","","25.0","","100.01","","","","-23","","Clear"
"1987-01-26 01:00","1987","01","26","01:00","-16.0","","-16.8","","94","","33","","13","","25.0","","99.97","","","","-24","","Clear"
"1987-01-26 02:00","1987","01","26","02:00","-15.0","","-16.2","","90","","33","","15","","25.0","","100.01","","","","-23","","Clear"
"1987-01-26 03:00","1987","01","26","03:00","-14.8","","-16.2","","89","","33","","19","","25.0","","100.01","","","","-24","","Clear"
"1987-01-26 04:00","1987","01","26","04:00","-15.1","","-16.2","","91","","34","","13","","25.0","","99.97","","","","-22","","Clear"
"1987-01-26 05:00","1987","01","26","05:00","-14.6","","-15.7","","91","","34","","19","","25.0","","99.97","","","","-23","","Clear"
"1987-01-26 06:00","1987","01","26","06:00","-16.3","","-17.8","","88","","34","","15","","25.0","","99.97","","","","-25","","Clear"
"1987-01-26 07:00","1987","01","26","07:00","-16.0","","-16.8","","94","","34","","19","","25.0","","99.97","","","","-25","","Clear"
"1987-01-26 08:00","1987","01","26","08:00","-16.8","","-18.4","","87","","34","","15","","24.1","","100.01","","","","-25","","Clear"
"1987-01-26 09:00","1987","01","26","09:00","-16.5","","-18.4","","85","","34","","17","","24.1","","100.01","","","","-25","","Clear"
"1987-01-26 10:00","1987","01","26","10:00","-15.3","","-17.9","","80","","33","","19","","19.3","","100.01","","","","-24","","Clear"
"1987-01-26 11:00","1987","01","26","11:00","-14.0","","-17.2","","76","","34","","15","","16.1","","100.01","","","","-22","","Clear"
"1987-01-26 12:00","1987","01","26","12:00","-12.4","","-15.9","","75","","33","","13","","16.1","","99.97","","","","-19","","Clear"
"1987-01-26 13:00","1987","01","26","13:00","-10.6","","-14.4","","74","","33","","11","","16.1","","99.91","","","","-16","","Clear"
"1987-01-26 14:00","1987","01","26","14:00","-9.7","","-14.0","","71","","32","","11","","16.1","","99.87","","","","-15","","Clear"
"1987-01-26 15:00","1987","01","26","15:00","-9.6","","-14.0","","70","","33","","13","","24.1","","99.87","","","","-16","","Clear"
"1987-01-26 16:00","1987","01","26","16:00","-9.6","","-14.0","","70","","33","","11","","40.2","","99.91","","","","-15","","Clear"
"1987-01-26 17:00","1987","01","26","17:00","-10.4","","-14.4","","72","","34","","13","","40.2","","99.94","","","","-17","","Clear"
"1987-01-26 18:00","1987","01","26","18:00","-11.6","","-16.2","","69","","34","","7","","25.0","","99.97","","","","-16","","Clear"
"1987-01-26 19:00","1987","01","26","19:00","-13.6","","-17.2","","74","","35","","6","","25.0","","99.97","","","","-18","","Clear"
"1987-01-26 20:00","1987","01","26","20:00","-13.7","","-17.2","","75","","29","","4","","25.0","","99.97","","","","-16","","Clear"
"1987-01-26 21:00","1987","01","26","21:00","-14.2","","-17.8","","74","","30","","4","","25.0","","99.94","","","","-17","","Clear"
"1987-01-26 22:00","1987","01","26","22:00","-15.5","","-19.0","","74","","29","","4","","25.0","","99.87","","","","-18","","Clear"
"1987-01-26 23:00","1987","01","26","23:00","-17.2","","-19.6","","82","","","","0","","19.3","","99.91","","","","","","Clear"
"1987-01-27 00:00","1987","01","27","00:00","-15.8","","-18.4","","80","","","","0","","25.0","","99.87","","","","","","Clear"
"1987-01-27 01:00","1987","01","27","01:00","-16.7","","-18.4","","87","","","","0","","25.0","","99.84","","","","","","Mainly Clear"
"1987-01-27 02:00","1987","01","27","02:00","-16.9","","-19.0","","84","","","","0","","25.0","","99.84","","","","","","Mostly Cloudy"
"1987-01-27 03:00","1987","01","27","03:00","-14.8","","-17.8","","78","","26","","6","","24.1","","99.77","","","","-19","","Mostly Cloudy"
"1987-01-27 04:00","1987","01","27","04:00","-14.6","","-16.7","","84","","27","","6","","24.1","","99.77","","","","-19","","Mostly Cloudy"
"1987-01-27 05:00","1987","01","27","05:00","-12.8","","-15.5","","80","","","","0","","24.1","","99.74","","","","","","Mainly Clear"
"1987-01-27 06:00","1987","01","27","06:00","-14.6","","-15.7","","91","","25","","4","","19.3","","99.71","","","","-17","","Mainly Clear"
"1987-01-27 07:00","1987","01","27","07:00","-13.8","","-15.7","","85","","20","","4","","19.3","","99.71","","","","-17","","Mainly Clear"
"1987-01-27 08:00","1987","01","27","08:00","-14.3","","-16.2","","85","","25","","7","","19.3","","99.77","","","","-19","","Mainly Clear"
"1987-01-27 09:00","1987","01","27","09:00","-13.5","","-15.6","","84","","25","","6","","19.3","","99.74","","","","-18","","Mainly Clear"
"1987-01-27 10:00","1987","01","27","10:00","-11.1","","-14.1","","78","","25","","6","","19.3","","99.74","","","","-15","","Mostly Cloudy"
"1987-01-27 11:00","1987","01","27","11:00","-8.8","","-12.9","","72","","25","","11","","19.3","","99.71","","","","-14","","Mostly Cloudy"
"1987-01-27 12:00","1987","01","27","12:00","-6.9","","-11.2","","71","","23","","11","","19.3","","99.64","","","","-12","","Cloudy"
"1987-01-27 13:00","1987","01","27","13:00","-6.2","","-12.3","","62","","21","","11","","16.1","","99.57","","","","-11","","Cloudy"
"1987-01-27 14:00","1987","01","27","14:00","-5.4","","-12.0","","60","","22","","19","","19.3","","99.51","","","","-12","","Cloudy"
"1987-01-27 15:00","1987","01","27","15:00","-5.2","","-11.7","","60","","24","","11","","24.1","","99.47","","","","-10","","Cloudy"
"1987-01-27 16:00","1987","01","27","16:00","-5.4","","-13.4","","53","","24","","15","","24.1","","99.44","","","","-11","","Mostly Cloudy"
"1987-01-27 17:00","1987","01","27","17:00","-6.0","","-11.9","","63","","12","","13","","24.1","","99.44","","","","-11","","Mostly Cloudy"
"1987-01-27 18:00","1987","01","27","18:00","-7.2","","-13.8","","59","","22","","9","","16.1","","99.47","","","","-12","","Mostly Cloudy"
"1987-01-27 19:00","1987","01","27","19:00","-7.5","","-13.1","","64","","19","","11","","16.1","","99.47","","","","-13","","Mostly Cloudy"
"1987-01-27 20:00","1987","01","27","20:00","-8.3","","-13.2","","67","","19","","9","","16.1","","99.51","","","","-13","","Mainly Clear"
"1987-01-27 21:00","1987","01","27","21:00","-8.5","","-11.5","","79","","19","","9","","16.1","","99.47","","","","-13","","Mostly Cloudy"
"1987-01-27 22:00","1987","01","27","22:00","-7.8","","-11.6","","74","","21","","7","","16.1","","99.44","","","","-11","","Mostly Cloudy"
"1987-01-27 23:00","1987","01","27","23:00","-7.9","","-11.6","","74","","20","","6","","16.1","","99.41","","","","-11","","Mostly Cloudy"
"1987-01-28 00:00","1987","01","28","00:00","-7.9","","-10.5","","81","","19","","6","","16.1","","99.41","","","","-11","","Mainly Clear"
"1987-01-28 01:00","1987","01","28","01:00","-8.2","","-10.1","","86","","19","","4","","16.1","","99.37","","","","-10","","Mainly Clear"
"1987-01-28 02:00","1987","01","28","02:00","-10.9","","-11.5","","95","","","","0","","12.9","","99.37","","","","","","Clear"
"1987-01-28 03:00","1987","01","28","03:00","-13.5","","-14.6","","91","","","","0","","12.9","","99.34","","","","","","Mainly Clear"
"1987-01-28 04:00","1987","01","28","04:00","-12.5","","-14.0","","88","","28","","6","","11.3","","99.34","","","","-16","","Mostly Cloudy"
"1987-01-28 05:00","1987","01","28","05:00","-10.4","","-11.8","","89","","","","0","","12.9","","99.31","","","","","","Mainly Clear"
"1987-01-28 06:00","1987","01","28","06:00","-9.4","","-11.1","","87","","20","","11","","12.9","","99.31","","","","-15","","Mostly Cloudy"
"1987-01-28 07:00","1987","01","28","07:00","-8.3","","-10.3","","85","","19","","6","","12.9","","99.31","","","","-12","","Cloudy"
"1987-01-28 08:00","1987","01","28","08:00","-7.6","","-9.9","","84","","20","","7","","6.4","","99.34","","","","-11","","Snow Showers"
"1987-01-28 09:00","1987","01","28","09:00","-7.0","","-9.6","","82","","21","","6","","8.0","","99.41","","","","-10","","Snow"
"1987-01-28 10:00","1987","01","28","10:00","-6.5","","-8.7","","84","","22","","7","","2.4","","99.47","","","","-10","","Snow"
"1987-01-28 11:00","1987","01","28","11:00","-5.9","","-8.1","","84","","24","","11","","2.4","","99.47","","","","-11","","Snow"
"1987-01-28 12:00","1987","01","28","12:00","-5.3","","-8.2","","80","","21","","9","","9.7","","99.47","","","","-9","","Snow"
"1987-01-28 13:00","1987","01","28","13:00","-4.4","","-7.9","","76","","22","","11","","12.9","","99.41","","","","-9","","Cloudy"
"1987-01-28 14:00","1987","01","28","14:00","-4.0","","-7.6","","76","","22","","11","","12.9","","99.41","","","","-8","","Cloudy"
"1987-01-28 15:00","1987","01","28","15:00","-3.5","","-7.0","","77","","21","","11","","9.7","","99.41","","","","-8","","Snow"
"1987-01-28 16:00","1987","01","28","16:00","-3.1","","-7.0","","74","","23","","13","","8.0","","99.44","","","","-8","","Haze"
"1987-01-28 17:00","1987","01","28","17:00","-3.4","","-8.0","","70","","23","","9","","8.0","","99.47","","","","-7","","Haze"
"1987-01-28 18:00","1987","01","28","18:00","-3.6","","-7.3","","76","","23","","9","","8.0","","99.47","","","","-7","","Haze"
"1987-01-28 19:00","1987","01","28","19:00","-3.8","","-7.0","","78","","25","","19","","4.8","","99.54","","","","-10","","Snow"
"1987-01-28 20:00","1987","01","28","20:00","-3.7","","-5.7","","86","","25","","9","","8.0","","99.61","","","","-7","","Snow,Fog"
"1987-01-28 21:00","1987","01","28","21:00","-3.6","","-5.7","","85","","25","","15","","8.0","","99.64","","","","-9","","Fog"
"1987-01-28 22:00","1987","01","28","22:00","-3.2","","-4.8","","89","","27","","13","","4.8","","99.74","","","","-8","","Snow Showers"
"1987-01-28 23:00","1987","01","28","23:00","-3.5","","-7.0","","77","","29","","11","","24.1","","99.81","","","","-8","","Mostly Cloudy"
"1987-01-29 00:00","1987","01","29","00:00","-3.4","","-7.0","","76","","26","","13","","25.0","","99.81","","","","-8","","Mostly Cloudy"
"1987-01-29 01:00","1987","01","29","01:00","-3.5","","-6.0","","83","","29","","15","","25.0","","99.84","","","","-9","","Mostly Cloudy"
"1987-01-29 02:00","1987","01","29","02:00","-4.0","","-6.6","","82","","28","","11","","25.0","","99.91","","","","-8","","Mostly Cloudy"
"1987-01-29 03:00","1987","01","29","03:00","-4.6","","-6.9","","84","","28","","6","","24.1","","99.97","","","","-7","","Snow Showers"
"1987-01-29 04:00","1987","01","29","04:00","-4.5","","-7.9","","77","","31","","15","","24.1","","100.01","","","","-10","","Snow Showers"
"1987-01-29 05:00","1987","01","29","05:00","-5.6","","-8.2","","82","","31","","13","","25.0","","100.04","","","","-11","","Mostly Cloudy"
"1987-01-29 06:00","1987","01","29","06:00","-5.9","","-9.9","","73","","31","","13","","25.0","","100.04","","","","-11","","Mostly Cloudy"
"1987-01-29 07:00","1987","01","29","07:00","-6.1","","-10.3","","72","","30","","15","","25.0","","100.11","","","","-12","","Mostly Cloudy"
"1987-01-29 08:00","1987","01","29","08:00","-7.2","","-11.2","","73","","30","","11","","40.2","","100.14","","","","-12","","Mostly Cloudy"
"1987-01-29 09:00","1987","01","29","09:00","-7.0","","-12.4","","65","","30","","15","","40.2","","100.17","","","","-13","","Mostly Cloudy"
"1987-01-29 10:00","1987","01","29","10:00","-6.4","","-12.2","","63","","32","","13","","40.2","","100.17","","","","-12","","Mostly Cloudy"
"1987-01-29 11:00","1987","01","29","11:00","-6.2","","-11.1","","68","","31","","6","","40.2","","100.17","","","","-9","","Mostly Cloudy"
"1987-01-29 12:00","1987","01","29","12:00","-5.1","","-10.9","","64","","","","0","","40.2","","100.11","","","","","","Mostly Cloudy"
"1987-01-29 13:00","1987","01","29","13:00","-4.7","","-10.6","","63","","","","0","","40.2","","99.97","","","","","","Mostly Cloudy"
"1987-01-29 14:00","1987","01","29","14:00","-4.3","","-11.0","","59","","4","","4","","40.2","","99.84","","","","-6","","Mostly Cloudy"
"1987-01-29 15:00","1987","01","29","15:00","-3.8","","-11.1","","57","","","","0","","40.2","","99.77","","","","","","Mostly Cloudy"
"1987-01-29 16:00","1987","01","29","16:00","-4.0","","-9.1","","67","","12","","17","","32.2","","99.71","","","","-10","","Mostly Cloudy"
"1987-01-29 17:00","1987","01","29","17:00","-4.6","","-9.8","","67","","10","","19","","32.2","","99.57","","","","-11","","Cloudy"
"1987-01-29 18:00","1987","01","29","18:00","-5.3","","-9.6","","71","","8","","13","","19.3","","99.51","","","","-10","","Mostly Cloudy"
"1987-01-29 19:00","1987","01","29","19:00","-5.5","","-9.6","","73","","8","","17","","16.1","","99.41","","","","-12","","Mainly Clear"
"1987-01-29 20:00","1987","01","29","20:00","-4.5","","-7.9","","77","","8","","22","","19.3","","99.21","","","","-11","","Mostly Cloudy"
"1987-01-29 21:00","1987","01","29","21:00","-2.7","","-5.4","","82","","10","","20","","19.3","","99.14","","","","-9","","Mostly Cloudy"
"1987-01-29 22:00","1987","01","29","22:00","-2.0","","-5.1","","79","","9","","26","","16.1","","99.01","","","","-9","","Cloudy"
"1987-01-29 23:00","1987","01","29","23:00","-1.6","","-5.1","","77","","10","","28","","16.1","","98.91","","","","-8","","Cloudy"
"1987-01-30 00:00","1987","01","30","00:00","-1.4","","-3.3","","87","","10","","33","","19.3","","98.77","","","","-9","","Cloudy"
"1987-01-30 01:00","1987","01","30","01:00","-1.0","","-3.0","","86","","10","","33","","19.3","","98.64","","","","-8","","Cloudy"
"1987-01-30 02:00","1987","01","30","02:00","-2.1","","-3.3","","92","","10","","26","","9.7","","98.54","","","","-9","","Snow Showers"
"1987-01-30 03:00","1987","01","30","03:00","-1.9","","-3.6","","88","","10","","24","","12.9","","98.41","","","","-8","","Cloudy"
"1987-01-30 04:00","1987","01","30","04:00","-1.8","","-3.1","","91","","10","","26","","4.8","","98.24","","","","-8","","Snow Showers"
"1987-01-30 05:00","1987","01","30","05:00","-1.6","","-2.0","","97","","10","","24","","4.8","","98.14","","","","-8","","Snow Showers"
"1987-01-30 06:00","1987","01","30","06:00","-1.5","","-2.0","","96","","10","","22","","4.0","","98.01","","","","-7","","Snow"
"1987-01-30 07:00","1987","01","30","07:00","-1.5","","-1.7","","98","","10","","22","","0.8","","97.91","","","","-7","","Moderate Snow"
"1987-01-30 08:00","1987","01","30","08:00","-1.1","","-1.1","","100","","11","","22","","1.2","","97.84","","","","-7","","Snow"
"1987-01-30 09:00","1987","01","30","09:00","-0.9","","-1.6","","95","","11","","22","","1.2","","97.74","","","","-7","","Snow"
"1987-01-30 10:00","1987","01","30","10:00","-0.6","","-0.8","","99","","11","","20","","2.4","","97.71","","","","-6","","Ice Pellets,Fog"
"1987-01-30 11:00","1987","01","30","11:00","-0.1","","-0.4","","98","","11","","19","","1.6","","97.64","","","","-5","","Snow"
"1987-01-30 12:00","1987","01","30","12:00","0.9","","0.0","","94","","17","","17","","4.0","","97.54","","","","","","Rain,Snow"
"1987-01-30 13:00","1987","01","30","13:00","0.9","","0.0","","94","","20","","15","","2.0","","97.51","","","","","","Snow"
"1987-01-30 14:00","1987","01","30","14:00","0.7","","0.0","","95","","19","","11","","3.2","","97.47","","","","","","Snow"
"1987-01-30 15:00","1987","01","30","15:00","0.6","","0.0","","96","","22","","11","","4.0","","97.47","","","","","","Snow"
"1987-01-30 16:00","1987","01","30","16:00","0.0","","-0.2","","98","","24","","17","","1.6","","97.51","","","","-5","","Snow"
"1987-01-30 17:00","1987","01","30","17:00","-0.3","","-0.3","","100","","24","","17","","1.2","","97.54","","","","-5","","Snow"
"1987-01-30 18:00","1987","01","30","18:00","-0.5","","-0.8","","98","","25","","17","","2.4","","97.61","","","","-5","","Snow"
"1987-01-30 19:00","1987","01","30","19:00","-1.0","","-1.6","","96","","26","","19","","2.8","","97.71","","","","-6","","Snow"
"1987-01-30 20:00","1987","01","30","20:00","-1.2","","-2.2","","93","","28","","20","","4.8","","97.74","","","","-7","","Snow"
"1987-01-30 21:00","1987","01","30","21:00","-1.5","","-3.3","","88","","30","","19","","4.8","","97.87","","","","-7","","Snow"
"1987-01-30 22:00","1987","01","30","22:00","-2.1","","-3.6","","89","","30","","19","","4.8","","97.91","","","","-8","","Snow"
"1987-01-30 23:00","1987","01","30","23:00","-2.6","","-5.1","","83","","30","","20","","6.4","","98.04","","","","-9","","Snow"
"1987-01-31 00:00","1987","01","31","00:00","-3.0","","-5.7","","81","","31","","24","","9.7","","98.04","","","","-10","","Snow"
"1987-01-31 01:00","1987","01","31","01:00","-3.4","","-6.3","","80","","31","","24","","9.7","","98.11","","","","-10","","Snow"
"1987-01-31 02:00","1987","01","31","02:00","-3.8","","-6.6","","81","","30","","24","","6.4","","98.21","","","","-11","","Snow"
"1987-01-31 03:00","1987","01","31","03:00","-4.0","","-6.0","","86","","31","","28","","6.4","","98.27","","","","-11","","Snow"
"1987-01-31 04:00","1987","01","31","04:00","-4.2","","-5.4","","92","","30","","24","","4.8","","98.41","","","","-11","","Snow"
"1987-01-31 05:00","1987","01","31","05:00","-4.0","","-6.3","","84","","31","","28","","6.4","","98.47","","","","-11","","Snow"
"1987-01-31 06:00","1987","01","31","06:00","-4.4","","-6.0","","88","","30","","17","","6.4","","98.57","","","","-10","","Snow"
"1987-01-31 07:00","1987","01","31","07:00","-4.5","","-6.6","","85","","32","","43","","6.4","","98.71","","","","-14","","Snow"
"1987-01-31 08:00","1987","01","31","08:00","-5.1","","-7.5","","83","","32","","41","","16.1","","98.81","","","","-14","","Snow"
"1987-01-31 09:00","1987","01","31","09:00","-5.3","","-7.8","","82","","34","","37","","6.4","","98.91","","","","-14","","Snow"
"1987-01-31 10:00","1987","01","31","10:00","-5.7","","-8.5","","81","","33","","39","","32.2","","98.97","","","","-15","","Mainly Clear"
"1987-01-31 11:00","1987","01","31","11:00","-5.3","","-8.9","","76","","33","","41","","32.2","","99.07","","","","-15","","Mainly Clear"
"1987-01-31 12:00","1987","01","31","12:00","-4.8","","-8.6","","74","","33","","37","","32.2","","99.14","","","","-14","","Mainly Clear"
"1987-01-31 13:00","1987","01","31","13:00","-4.2","","-8.0","","75","","32","","33","","32.2","","99.17","","","","-12","","Mainly Clear"
"1987-01-31 14:00","1987","01","31","14:00","-3.6","","-7.7","","73","","32","","31","","40.2","","99.24","","","","-11","","Mainly Clear"
"1987-01-31 15:00","1987","01","31","15:00","-3.3","","-8.0","","70","","32","","30","","40.2","","99.27","","","","-11","","Mainly Clear"
"1987-01-31 16:00","1987","01","31","16:00","-3.7","","-8.0","","72","","32","","24","","40.2","","99.34","","","","-11","","Mainly Clear"
"1987-01-31 17:00","1987","01","31","17:00","-5.0","","-8.9","","74","","30","","20","","40.2","","99.41","","","","-12","","Mainly Clear"
"1987-01-31 18:00","1987","01","31","18:00","-6.3","","-10.5","","72","","27","","9","","25.0","","99.47","","","","-11","","Mainly Clear"
"1987-01-31 19:00","1987","01","31","19:00","-6.7","","-10.1","","77","","30","","19","","25.0","","99.47","","","","-14","","Mainly Clear"
"1987-01-31 20:00","1987","01","31","20:00","-8.6","","-11.1","","82","","30","","11","","25.0","","99.51","","","","-14","","Mainly Clear"
"1987-01-31 21:00","1987","01","31","21:00","-8.1","","-10.8","","81","","29","","19","","25.0","","99.57","","","","-15","","Mainly Clear"
"1987-01-31 22:00","1987","01","31","22:00","-7.4","","-10.2","","80","","31","","22","","25.0","","99.57","","","","-15","","Mainly Clear"
"1987-01-31 23:00","1987","01","31","23:00","-9.7","","-11.8","","85","","32","","17","","25.0","","99.57","","","","-17","","Mainly Clear"
