"Station Name","KINGSTON A"
"Province","ONTARIO"
"Latitude","44.22"
"Longitude","-76.60"
"Elevation","92.40"
"Climate Identifier","6104146"
"WMO Identifier",""
"TC Identifier","YGK"
"All times are specified in Local Standard Time (LST). Add 1 hour to adjust for Daylight Saving Time where and when it is observed."

"Legend"
"E","Estimated"
"M","Missing"
"NA","Not Available"

"Date/Time","Year","Month","Day","Time","Temp (°C)","Temp Flag","Dew Point Temp (°C)","Dew Point Temp Flag","Rel Hum (%)","Rel Hum Flag","Wind Dir (10s deg)","Wind Dir Flag","Wind Spd (km/h)","Wind Spd Flag","Visibility (km)","Visibility Flag","Stn Press (kPa)","Stn Press Flag","Hmdx","Hmdx Flag","Wind Chill","Wind Chill Flag","Weather"
"2006-02-01 00:00","2006","02","01","00:00"
"2006-02-01 01:00","2006","02","01","01:00"
"2006-02-01 02:00","2006","02","01","02:00"
"2006-02-01 03:00","2006","02","01","03:00"
"2006-02-01 04:00","2006","02","01","04:00"
"2006-02-01 05:00","2006","02","01","05:00"
"2006-02-01 06:00","2006","02","01","06:00","-5.0","","-10.1","","67","","29","","9","","24.1","","100.32","","","","-9","","Mainly Clear"
"2006-02-01 07:00","2006","02","01","07:00","-5.6","","-10.0","","71","","29","","13","","24.1","","100.37","","","","-11","","Mainly Clear"
"2006-02-01 08:00","2006","02","01","08:00","-5.9","","-10.1","","72","","32","","7","","24.1","","100.41","","","","-9","","Mainly Clear"
"2006-02-01 09:00","2006","02","01","09:00","-5.0","","-9.6","","70","","36","","17","","24.1","","100.36","","","","-11","","Mainly Clear"
"2006-02-01 10:00","2006","02","01","10:00","-3.3","","-9.5","","62","","36","","19","","24.1","","100.35","","","","-9","","Mainly Clear"
"2006-02-01 11:00","2006","02","01","11:00","-2.0","","-8.8","","60","","33","","4","","24.1","","100.39","","","","-3","","Mostly Cloudy"
"2006-02-01 12:00","2006","02","01","12:00","-1.3","","-7.8","","61","","30","","6","","22.5","","100.31","","","","-4","","Mostly Cloudy"
"2006-02-01 13:00","2006","02","01","13:00","-1.8","","-7.4","","66","","18","","13","","24.1","","100.26","","","","-6","","Mostly Cloudy"
"2006-02-01 14:00","2006","02","01","14:00","-1.5","","-6.9","","67","","18","","15","","24.1","","100.24","","","","-6","","Cloudy"
"2006-02-01 15:00","2006","02","01","15:00","-1.7","","-7.1","","67","","18","","11","","24.1","","100.22","","","","-6","","Cloudy"
"2006-02-01 16:00","2006","02","01","16:00","-1.2","","-6.6","","67","","17","","13","","24.1","","100.14","","","","-5","","Cloudy"
"2006-02-01 17:00","2006","02","01","17:00","-0.8","","-5.8","","69","","16","","11","","24.1","","100.08","","","","-5","","Cloudy"
"2006-02-01 18:00","2006","02","01","18:00","-0.5","","-5.2","","70","","13","","7","","24.1","","100.06","","","","-3","","Cloudy"
"2006-02-01 19:00","2006","02","01","19:00","0.3","","-4.0","","73","","15","","15","","24.1","","100.05","","","","","","Cloudy"
"2006-02-01 20:00","2006","02","01","20:00","0.8","","-3.4","","73","","17","","13","","19.3","","100.04","","","","","","Cloudy"
"2006-02-01 21:00","2006","02","01","21:00","1.0","","-3.1","","74","","17","","20","","19.3","","100.01","","","","","","Cloudy"
"2006-02-01 22:00","2006","02","01","22:00","1.1","","-2.7","","76","","17","","22","","19.3","","99.97","","","","","","Cloudy"
"2006-02-01 23:00","2006","02","01","23:00","1.2","","-3.0","","74","","16","","19","","19.3","","99.93","","","","","","Cloudy"
"2006-02-02 00:00","2006","02","02","00:00"
"2006-02-02 01:00","2006","02","02","01:00"
"2006-02-02 02:00","2006","02","02","02:00"
"2006-02-02 03:00","2006","02","02","03:00"
"2006-02-02 04:00","2006","02","02","04:00"
"2006-02-02 05:00","2006","02","02","05:00"
"2006-02-02 06:00","2006","02","02","06:00","1.9","","-2.2","","74","","17","","20","","24.1","","99.88","","","","","","Cloudy"
"2006-02-02 07:00","2006","02","02","07:00","1.7","","-2.1","","76","","18","","20","","24.1","","99.87","","","","","","Mainly Clear"
"2006-02-02 08:00","2006","02","02","08:00","1.8","","-1.8","","77","","19","","22","","19.3","","99.92","","","","","","Mostly Cloudy"
"2006-02-02 09:00","2006","02","02","09:00","1.9","","-1.5","","78","","19","","17","","24.1","","99.95","","","","","","Mostly Cloudy"
"2006-02-02 10:00","2006","02","02","10:00","2.2","","-1.2","","78","","19","","20","","24.1","","100.05","","","","","","Mostly Cloudy"
"2006-02-02 11:00","2006","02","02","11:00","2.4","","-0.9","","79","","18","","17","","24.1","","100.04","","","","","","Mostly Cloudy"
"2006-02-02 12:00","2006","02","02","12:00","3.2","","-0.4","","77","","18","","15","","24.1","","99.98","","","","","","Mostly Cloudy"
"2006-02-02 13:00","2006","02","02","13:00","3.3","","-0.1","","78","","18","","11","","16.1","","99.92","","","","","","Mostly Cloudy"
"2006-02-02 14:00","2006","02","02","14:00","4.0","","-0.3","","74","","18","","19","","19.3","","99.90","","","","","","Mostly Cloudy"
"2006-02-02 15:00","2006","02","02","15:00","3.5","","0.0","","78","","19","","11","","19.3","","99.91","","","","","","Mostly Cloudy"
"2006-02-02 16:00","2006","02","02","16:00","3.7","","-0.5","","74","","18","","9","","19.3","","99.84","","","","","","Mostly Cloudy"
"2006-02-02 17:00","2006","02","02","17:00","4.3","","-1.7","","65","","16","","4","","19.3","","99.86","","","","","","Cloudy"
"2006-02-02 18:00","2006","02","02","18:00","3.7","","-1.9","","67","","4","","4","","19.3","","99.88","","","","","","Cloudy"
"2006-02-02 19:00","2006","02","02","19:00","4.1","","-1.9","","65","","5","","6","","19.3","","99.91","","","","","","Cloudy"
"2006-02-02 20:00","2006","02","02","20:00","3.9","","-2.2","","64","","6","","11","","19.3","","99.89","","","","","","Cloudy"
"2006-02-02 21:00","2006","02","02","21:00","4.1","","-2.2","","63","","7","","11","","19.3","","99.81","","","","","","Cloudy"
"2006-02-02 22:00","2006","02","02","22:00","3.8","","-1.9","","66","","7","","11","","19.3","","99.77","","","","","","Cloudy"
"2006-02-02 23:00","2006","02","02","23:00","3.9","","-1.5","","68","","8","","11","","19.3","","99.74","","","","","","Cloudy"
"2006-02-03 00:00","2006","02","03","00:00"
"2006-02-03 01:00","2006","02","03","01:00"
"2006-02-03 02:00","2006","02","03","02:00"
"2006-02-03 03:00","2006","02","03","03:00"
"2006-02-03 04:00","2006","02","03","04:00"
"2006-02-03 05:00","2006","02","03","05:00"
"2006-02-03 06:00","2006","02","03","06:00","4.8","","1.0","","76","","9","","15","","24.1","","99.07","","","","","","Rain"
"2006-02-03 07:00","2006","02","03","07:00","3.7","","1.2","","84","","7","","11","","11.3","","98.93","","","","","","Rain"
"2006-02-03 08:00","2006","02","03","08:00","3.5","","1.6","","87","","6","","9","","4.0","","98.83","","","","","","Rain,Fog"
"2006-02-03 09:00","2006","02","03","09:00","3.7","","2.1","","89","","7","","9","","4.0","","98.72","","","","","","Rain,Fog"
"2006-02-03 10:00","2006","02","03","10:00","4.4","","2.8","","89","","13","","9","","4.8","","98.65","","","","","","Rain,Fog"
"2006-02-03 11:00","2006","02","03","11:00","4.6","","2.8","","88","","16","","9","","12.9","","98.62","","","","","","Cloudy"
"2006-02-03 12:00","2006","02","03","12:00","3.6","","2.1","","90","","18","","11","","4.8","","98.60","","","","","","Rain,Fog"
"2006-02-03 13:00","2006","02","03","13:00","4.1","","2.7","","91","","24","","13","","2.4","","98.63","","","","","","Rain,Fog"
"2006-02-03 14:00","2006","02","03","14:00","3.7","","2.2","","90","","23","","17","","2.4","","98.65","","","","","","Fog"
"2006-02-03 15:00","2006","02","03","15:00","4.4","","2.9","","90","","23","","22","","6.4","","98.77","","","","","","Fog"
"2006-02-03 16:00","2006","02","03","16:00","4.4","","1.8","","83","","25","","28","","6.4","","98.92","","","","","","Rain Showers,Fog"
"2006-02-03 17:00","2006","02","03","17:00","4.1","","2.0","","86","","24","","32","","6.4","","99.05","","","","","","Rain Showers,Fog"
"2006-02-03 18:00","2006","02","03","18:00","4.0","","0.8","","80","","24","","33","","16.1","","99.28","","","","","","Rain Showers"
"2006-02-03 19:00","2006","02","03","19:00","3.3","","0.0","","79","","26","","26","","24.1","","99.43","","","","","","Cloudy"
"2006-02-03 20:00","2006","02","03","20:00","3.6","","0.2","","78","","26","","26","","24.1","","99.59","","","","","","Cloudy"
"2006-02-03 21:00","2006","02","03","21:00","3.5","","0.5","","81","","25","","19","","24.1","","99.72","","","","","","Cloudy"
"2006-02-03 22:00","2006","02","03","22:00","3.7","","0.4","","79","","25","","20","","24.1","","99.87","","","","","","Mostly Cloudy"
"2006-02-03 23:00","2006","02","03","23:00","2.7","","0.1","","83","","26","","15","","24.1","","99.90","","","","","","Mainly Clear"
"2006-02-04 00:00","2006","02","04","00:00"
"2006-02-04 01:00","2006","02","04","01:00"
"2006-02-04 02:00","2006","02","04","02:00"
"2006-02-04 03:00","2006","02","04","03:00"
"2006-02-04 04:00","2006","02","04","04:00"
"2006-02-04 05:00","2006","02","04","05:00"
"2006-02-04 06:00","2006","02","04","06:00","0.1","","-2.2","","84","","5","","4","","24.1","","100.15","","","","","","Mostly Cloudy"
"2006-02-04 07:00","2006","02","04","07:00","0.3","","-1.8","","86","","","","0","","11.3","","100.24","","","","","","Mostly Cloudy"
"2006-02-04 08:00","2006","02","04","08:00","0.1","","-1.9","","86","","4","","4","","12.9","","100.21","","","","","","Mostly Cloudy"
"2006-02-04 09:00","2006","02","04","09:00","1.8","","-0.9","","82","","9","","6","","12.9","","100.22","","","","","","Mostly Cloudy"
"2006-02-04 10:00","2006","02","04","10:00","2.6","","-0.7","","79","","6","","13","","12.9","","100.15","","","","","","Mostly Cloudy"
"2006-02-04 11:00","2006","02","04","11:00","3.3","","-0.8","","74","","7","","17","","16.1","","100.04","","","","","","Cloudy"
"2006-02-04 12:00","2006","02","04","12:00","3.8","","-1.1","","70","","7","","28","","19.3","","99.89","","","","","","Cloudy"
"2006-02-04 13:00","2006","02","04","13:00","5.0","","-1.1","","65","","8","","24","","19.3","","99.73","","","","","","Mostly Cloudy"
"2006-02-04 14:00","2006","02","04","14:00","5.2","","-0.6","","66","","6","","22","","19.3","","99.56","","","","","","Mostly Cloudy"
"2006-02-04 15:00","2006","02","04","15:00","4.3","","-1.0","","68","","6","","28","","19.3","","99.44","","","","","","Cloudy"
"2006-02-04 16:00","2006","02","04","16:00","4.0","","-0.9","","70","","6","","28","","19.3","","99.34","","","","","","Cloudy"
"2006-02-04 17:00","2006","02","04","17:00","3.7","","-1.1","","71","","6","","26","","19.3","","99.13","","","","","","Rain Showers"
"2006-02-04 18:00","2006","02","04","18:00","2.6","","-0.8","","78","","5","","24","","12.9","","98.98","","","","","","Rain"
"2006-02-04 19:00","2006","02","04","19:00","2.2","","-0.9","","80","","5","","28","","11.3","","98.74","","","","","","Rain"
"2006-02-04 20:00","2006","02","04","20:00","2.0","","-0.4","","84","","6","","28","","9.7","","98.58","","","","","","Rain,Fog"
"2006-02-04 21:00","2006","02","04","21:00","1.9","","-0.6","","83","","6","","35","","6.4","","98.42","","","","","","Moderate Rain,Fog"
"2006-02-04 22:00","2006","02","04","22:00","1.6","","-0.8","","84","","7","","32","","4.8","","98.15","","","","","","Moderate Rain,Fog"
"2006-02-04 23:00","2006","02","04","23:00","1.9","","-0.3","","85","","6","","30","","8.0","","97.97","","","","","","Rain,Fog"
"2006-02-05 00:00","2006","02","05","00:00"
"2006-02-05 01:00","2006","02","05","01:00"
"2006-02-05 02:00","2006","02","05","02:00"
"2006-02-05 03:00","2006","02","05","03:00"
"2006-02-05 04:00","2006","02","05","04:00"
"2006-02-05 05:00","2006","02","05","05:00"
"2006-02-05 06:00","2006","02","05","06:00","3.2","","-1.0","","74","","21","","24","","24.1","","97.74","","","","","","Mostly Cloudy"
"2006-02-05 07:00","2006","02","05","07:00","3.1","","-0.9","","75","","19","","22","","24.1","","97.72","","","","","","Mostly Cloudy"
"2006-02-05 08:00","2006","02","05","08:00","3.3","","-1.0","","73","","19","","26","","24.1","","97.72","","","","","","Mostly Cloudy"
"2006-02-05 09:00","2006","02","05","09:00","3.7","","-2.4","","64","","22","","32","","24.1","","97.73","","","","","","Mostly Cloudy"
"2006-02-05 10:00","2006","02","05","10:00","3.1","","-1.6","","71","","21","","28","","24.1","","97.74","","","","","","Cloudy"
"2006-02-05 11:00","2006","02","05","11:00","4.2","","-3.4","","58","","22","","41","","24.1","","97.74","","","","","","Mostly Cloudy"
"2006-02-05 12:00","2006","02","05","12:00","4.0","","-3.2","","59","","22","","48","","24.1","","97.72","","","","","","Mostly Cloudy"
"2006-02-05 13:00","2006","02","05","13:00","3.2","","-2.5","","66","","22","","44","","24.1","","97.73","","","","","","Mostly Cloudy"
"2006-02-05 14:00","2006","02","05","14:00","3.1","","-4.1","","59","","23","","46","","24.1","","97.72","","","","","","Snow Showers"
"2006-02-05 15:00","2006","02","05","15:00","2.7","","-4.6","","59","","23","","44","","24.1","","97.72","","","","","","Mostly Cloudy"
"2006-02-05 16:00","2006","02","05","16:00","1.7","","-5.4","","59","","24","","43","","24.1","","97.75","","","","","","Snow Showers"
"2006-02-05 17:00","2006","02","05","17:00","0.2","","-4.3","","72","","25","","41","","24.1","","97.82","","","","","","Snow Showers"
"2006-02-05 18:00","2006","02","05","18:00","-0.7","","-5.7","","69","","25","","35","","24.1","","97.89","","","","-8","","Snow Showers"
"2006-02-05 19:00","2006","02","05","19:00","-1.0","","-5.6","","71","","25","","33","","19.3","","97.95","","","","-8","","Snow Showers"
"2006-02-05 20:00","2006","02","05","20:00","-2.2","","-7.4","","67","","25","","37","","24.1","","98.02","","","","-10","","Mostly Cloudy"
"2006-02-05 21:00","2006","02","05","21:00","-2.5","","-8.4","","64","","26","","33","","24.1","","98.08","","","","-10","","Snow Showers"
"2006-02-05 22:00","2006","02","05","22:00","-3.2","","-8.1","","69","","26","","32","","19.3","","98.12","","","","-11","","Snow Showers"
"2006-02-05 23:00","2006","02","05","23:00","-3.0","","-9.7","","60","","27","","35","","19.3","","98.15","","","","-11","","Snow Showers"
"2006-02-06 00:00","2006","02","06","00:00"
"2006-02-06 01:00","2006","02","06","01:00"
"2006-02-06 02:00","2006","02","06","02:00"
"2006-02-06 03:00","2006","02","06","03:00"
"2006-02-06 04:00","2006","02","06","04:00"
"2006-02-06 05:00","2006","02","06","05:00"
"2006-02-06 06:00","2006","02","06","06:00","-5.0","","-11.8","","59","","27","","26","","24.1","","98.70","","","","-12","","Snow Showers"
"2006-02-06 07:00","2006","02","06","07:00","-4.9","","-11.1","","62","","27","","15","","24.1","","98.73","","","","-10","","Cloudy"
"2006-02-06 08:00","2006","02","06","08:00","-4.5","","-9.7","","67","","27","","19","","24.1","","98.75","","","","-11","","Cloudy"
"2006-02-06 09:00","2006","02","06","09:00","-4.5","","-7.8","","78","","26","","17","","2.4","","98.76","","","","-10","","Snow Showers"
"2006-02-06 10:00","2006","02","06","10:00","-3.1","","-6.3","","79","","25","","33","","1.2","","98.77","","","","-11","","Snow Showers"
"2006-02-06 11:00","2006","02","06","11:00","-3.2","","-5.1","","87","","26","","26","","2.0","","98.82","","","","-10","","Snow Showers"
"2006-02-06 12:00","2006","02","06","12:00","-2.8","","-7.9","","68","","27","","35","","24.1","","98.83","","","","-11","","Mostly Cloudy"
"2006-02-06 13:00","2006","02","06","13:00","-2.6","","-7.8","","67","","27","","33","","24.1","","98.84","","","","-10","","Mostly Cloudy"
"2006-02-06 14:00","2006","02","06","14:00","-2.7","","-7.8","","68","","27","","35","","24.1","","98.89","","","","-11","","Mostly Cloudy"
"2006-02-06 15:00","2006","02","06","15:00","-2.7","","-7.7","","68","","26","","28","","24.1","","98.94","","","","-10","","Snow Showers"
"2006-02-06 16:00","2006","02","06","16:00","-2.1","","-7.6","","66","","26","","37","","4.8","","98.97","","","","-10","","Snow Showers"
"2006-02-06 17:00","2006","02","06","17:00","-2.2","","-8.0","","64","","27","","43","","24.1","","99.01","","","","-11","","Cloudy"
"2006-02-06 18:00","2006","02","06","18:00","-3.6","","-10.4","","59","","28","","32","","24.1","","99.14","","","","-11","","Snow Showers"
"2006-02-06 19:00","2006","02","06","19:00","-5.3","","-10.8","","65","","29","","26","","24.1","","99.28","","","","-13","","Snow"
"2006-02-06 20:00","2006","02","06","20:00","-6.0","","-12.5","","60","","31","","22","","24.1","","99.39","","","","-13","","Cloudy"
"2006-02-06 21:00","2006","02","06","21:00","-6.6","","-13.7","","57","","31","","19","","24.1","","99.48","","","","-13","","Mostly Cloudy"
"2006-02-06 22:00","2006","02","06","22:00","-7.3","","-13.8","","60","","29","","13","","24.1","","99.55","","","","-13","","Mostly Cloudy"
"2006-02-06 23:00","2006","02","06","23:00","-7.4","","-13.7","","61","","30","","15","","24.1","","99.56","","","","-14","","Cloudy"
"2006-02-07 00:00","2006","02","07","00:00"
"2006-02-07 01:00","2006","02","07","01:00"
"2006-02-07 02:00","2006","02","07","02:00"
"2006-02-07 03:00","2006","02","07","03:00"
"2006-02-07 04:00","2006","02","07","04:00"
"2006-02-07 05:00","2006","02","07","05:00"
"2006-02-07 06:00","2006","02","07","06:00","-8.3","","-14.4","","61","","30","","13","","24.1","","99.91","","","","-14","","Mainly Clear"
"2006-02-07 07:00","2006","02","07","07:00","-9.0","","-14.7","","63","","29","","15","","24.1","","100.02","","","","-16","","Mainly Clear"
"2006-02-07 08:00","2006","02","07","08:00","-9.2","","-15.1","","62","","29","","15","","24.1","","100.12","","","","-16","","Mainly Clear"
"2006-02-07 09:00","2006","02","07","09:00","-8.8","","-15.8","","57","","30","","15","","24.1","","100.22","","","","-15","","Mostly Cloudy"
"2006-02-07 10:00","2006","02","07","10:00","-8.1","","-15.5","","55","","32","","13","","24.1","","100.25","","","","-14","","Mainly Clear"
"2006-02-07 11:00","2006","02","07","11:00","-7.0","","-14.6","","55","","30","","13","","24.1","","100.30","","","","-13","","Mostly Cloudy"
"2006-02-07 12:00","2006","02","07","12:00","-6.3","","-14.5","","52","","31","","13","","24.1","","100.28","","","","-12","","Mostly Cloudy"
"2006-02-07 13:00","2006","02","07","13:00","-5.4","","-13.8","","52","","28","","13","","24.1","","100.27","","","","-11","","Mostly Cloudy"
"2006-02-07 14:00","2006","02","07","14:00","-4.4","","-12.5","","53","","27","","11","","24.1","","100.26","","","","-9","","Mainly Clear"
"2006-02-07 15:00","2006","02","07","15:00","-3.5","","-12.6","","49","","32","","15","","24.1","","100.30","","","","-9","","Mostly Cloudy"
"2006-02-07 16:00","2006","02","07","16:00","-3.6","","-13.1","","48","","34","","17","","24.1","","100.34","","","","-9","","Mostly Cloudy"
"2006-02-07 17:00","2006","02","07","17:00","-3.8","","-12.6","","50","","34","","17","","24.1","","100.40","","","","-10","","Mostly Cloudy"
"2006-02-07 18:00","2006","02","07","18:00","-4.8","","-12.9","","53","","31","","7","","24.1","","100.46","","","","-8","","Mainly Clear"
"2006-02-07 19:00","2006","02","07","19:00","-5.1","","-12.5","","56","","28","","9","","24.1","","100.50","","","","-9","","Mainly Clear"
"2006-02-07 20:00","2006","02","07","20:00","-5.1","","-12.2","","57","","29","","13","","24.1","","100.53","","","","-10","","Clear"
"2006-02-07 21:00","2006","02","07","21:00","-5.9","","-12.1","","62","","29","","7","","24.1","","100.56","","","","-9","","Clear"
"2006-02-07 22:00","2006","02","07","22:00","-6.4","","-12.0","","64","","30","","9","","24.1","","100.59","","","","-11","","Clear"
"2006-02-07 23:00","2006","02","07","23:00","-7.1","","-12.0","","68","","31","","7","","24.1","","100.60","","","","-11","","Clear"
"2006-02-08 00:00","2006","02","08","00:00"
"2006-02-08 01:00","2006","02","08","01:00"
"2006-02-08 02:00","2006","02","08","02:00"
"2006-02-08 03:00","2006","02","08","03:00"
"2006-02-08 04:00","2006","02","08","04:00"
"2006-02-08 05:00","2006","02","08","05:00"
"2006-02-08 06:00","2006","02","08","06:00","-11.0","","-14.5","","75","","35","","7","","24.1","","100.73","","","","-15","","Mainly Clear"
"2006-02-08 07:00","2006","02","08","07:00","-10.5","","-14.8","","71","","36","","11","","24.1","","100.75","","","","-16","","Cloudy"
"2006-02-08 08:00","2006","02","08","08:00","-10.6","","-14.7","","72","","34","","13","","24.1","","100.80","","","","-17","","Mostly Cloudy"
"2006-02-08 09:00","2006","02","08","09:00","-10.0","","-15.2","","66","","36","","17","","24.1","","100.84","","","","-17","","Cloudy"
"2006-02-08 10:00","2006","02","08","10:00","-9.1","","-15.5","","60","","36","","19","","24.1","","100.80","","","","-17","","Cloudy"
"2006-02-08 11:00","2006","02","08","11:00","-8.4","","-15.4","","57","","36","","7","","24.1","","100.79","","","","-12","","Cloudy"
"2006-02-08 12:00","2006","02","08","12:00","-7.3","","-15.4","","52","","36","","15","","24.1","","100.75","","","","-13","","Mostly Cloudy"
"2006-02-08 13:00","2006","02","08","13:00","-7.9","","-15.6","","54","","35","","9","","24.1","","100.73","","","","-12","","Cloudy"
"2006-02-08 14:00","2006","02","08","14:00","-7.1","","-15.0","","53","","","","0","","24.1","","100.68","","","","","","Cloudy"
"2006-02-08 15:00","2006","02","08","15:00","-6.6","","-14.8","","52","","34","","9","","24.1","","100.69","","","","-11","","Cloudy"
"2006-02-08 16:00","2006","02","08","16:00","-6.5","","-14.9","","51","","32","","9","","24.1","","100.67","","","","-11","","Cloudy"
"2006-02-08 17:00","2006","02","08","17:00","-6.2","","-14.7","","51","","28","","4","","24.1","","100.67","","","","-8","","Mostly Cloudy"
"2006-02-08 18:00","2006","02","08","18:00","-6.7","","-14.6","","53","","27","","4","","24.1","","100.66","","","","-9","","Mostly Cloudy"
"2006-02-08 19:00","2006","02","08","19:00","-6.6","","-14.9","","52","","27","","6","","24.1","","100.67","","","","-10","","Mostly Cloudy"
"2006-02-08 20:00","2006","02","08","20:00","-6.7","","-14.3","","55","","28","","11","","24.1","","100.65","","","","-12","","Mostly Cloudy"
"2006-02-08 21:00","2006","02","08","21:00","-7.3","","-14.1","","58","","30","","7","","24.1","","100.66","","","","-11","","Mainly Clear"
"2006-02-08 22:00","2006","02","08","22:00","-9.9","","-15.0","","66","","32","","7","","24.1","","100.69","","","","-14","","Mainly Clear"
"2006-02-08 23:00","2006","02","08","23:00","-9.1","","-15.9","","58","","32","","9","","24.1","","100.70","","","","-14","","Mainly Clear"
"2006-02-09 00:00","2006","02","09","00:00"
"2006-02-09 01:00","2006","02","09","01:00"
"2006-02-09 02:00","2006","02","09","02:00"
"2006-02-09 03:00","2006","02","09","03:00"
"2006-02-09 04:00","2006","02","09","04:00"
"2006-02-09 05:00","2006","02","09","05:00"
"2006-02-09 06:00","2006","02","09","06:00","-12.7","","-16.1","","76","","3","","4","","24.1","","100.57","","","","-15","","Mostly Cloudy"
"2006-02-09 07:00","2006","02","09","07:00","-12.4","","-16.0","","74","","36","","6","","24.1","","100.56","","","","-16","","Mostly Cloudy"
"2006-02-09 08:00","2006","02","09","08:00","-11.6","","-15.0","","76","","1","","9","","2.4","","100.57","","","","-17","","Snow"
"2006-02-09 09:00","2006","02","09","09:00","-11.0","","-14.2","","77","","5","","9","","6.4","","100.51","","","","-16","","Snow"
"2006-02-09 10:00","2006","02","09","10:00","-10.5","","-13.8","","77","","5","","13","","1.2","","100.44","","","","-17","","Snow"
"2006-02-09 11:00","2006","02","09","11:00","-10.0","","-13.5","","76","","6","","13","","1.2","","100.41","","","","-16","","Snow"
"2006-02-09 12:00","2006","02","09","12:00","-10.0","","-14.1","","72","","2","","15","","1.6","","100.42","","","","-17","","Snow"
"2006-02-09 13:00","2006","02","09","13:00","-9.5","","-13.9","","70","","2","","15","","8.0","","100.42","","","","-16","","Snow"
"2006-02-09 14:00","2006","02","09","14:00","-9.0","","-13.8","","68","","34","","9","","12.9","","100.41","","","","-14","","Snow Showers"
"2006-02-09 15:00","2006","02","09","15:00","-9.3","","-13.9","","69","","34","","9","","16.1","","100.45","","","","-14","","Snow Showers"
"2006-02-09 16:00","2006","02","09","16:00","-8.1","","-14.8","","58","","29","","9","","24.1","","100.47","","","","-13","","Mostly Cloudy"
"2006-02-09 17:00","2006","02","09","17:00","-8.8","","-13.2","","70","","28","","6","","24.1","","100.49","","","","-12","","Snow Showers"
"2006-02-09 18:00","2006","02","09","18:00","-8.3","","-13.3","","67","","27","","4","","24.1","","100.53","","","","-10","","Mostly Cloudy"
"2006-02-09 19:00","2006","02","09","19:00","-9.4","","-16.5","","56","","29","","9","","24.1","","100.61","","","","-14","","Mostly Cloudy"
"2006-02-09 20:00","2006","02","09","20:00","-10.3","","-17.7","","55","","30","","9","","24.1","","100.64","","","","-15","","Mainly Clear"
"2006-02-09 21:00","2006","02","09","21:00","-11.7","","-18.5","","57","","31","","7","","24.1","","100.68","","","","-16","","Mainly Clear"
"2006-02-09 22:00","2006","02","09","22:00","-14.3","","-18.5","","70","","34","","6","","24.1","","100.71","","","","-18","","Mainly Clear"
"2006-02-09 23:00","2006","02","09","23:00","-15.8","","-19.7","","72","","35","","9","","24.1","","100.76","","","","-22","","Mainly Clear"
"2006-02-10 00:00","2006","02","10","00:00"
"2006-02-10 01:00","2006","02","10","01:00"
"2006-02-10 02:00","2006","02","10","02:00"
"2006-02-10 03:00","2006","02","10","03:00"
"2006-02-10 04:00","2006","02","10","04:00"
"2006-02-10 05:00","2006","02","10","05:00"
"2006-02-10 06:00","2006","02","10","06:00","-20.2","","-23.1","","78","","36","","9","","24.1","","100.93","","","","-27","","Clear"
"2006-02-10 07:00","2006","02","10","07:00","-19.9","","-23.5","","73","","4","","7","","24.1","","100.95","","","","-26","","Mainly Clear"
"2006-02-10 08:00","2006","02","10","08:00","-19.8","","-23.7","","71","","3","","9","","24.1","","100.98","","","","-27","","Mainly Clear"
"2006-02-10 09:00","2006","02","10","09:00","-15.7","","-19.4","","73","","10","","4","","24.1","","101.04","","","","-19","","Mainly Clear"
"2006-02-10 10:00","2006","02","10","10:00","-11.8","","-16.6","","67","","9","","7","","24.1","","101.04","","","","-16","","Mainly Clear"
"2006-02-10 11:00","2006","02","10","11:00","-10.2","","-16.8","","58","","13","","7","","24.1","","101.01","","","","-14","","Mostly Cloudy"
"2006-02-10 12:00","2006","02","10","12:00","-10.7","","-18.2","","54","","15","","7","","24.1","","100.98","","","","-15","","Mostly Cloudy"
"2006-02-10 13:00","2006","02","10","13:00","-9.8","","-17.0","","56","","10","","9","","24.1","","100.91","","","","-15","","Mostly Cloudy"
"2006-02-10 14:00","2006","02","10","14:00","-9.4","","-17.5","","52","","11","","9","","24.1","","100.85","","","","-14","","Mostly Cloudy"
"2006-02-10 15:00","2006","02","10","15:00","-9.0","","-17.6","","50","","12","","7","","24.1","","100.85","","","","-13","","Mostly Cloudy"
"2006-02-10 16:00","2006","02","10","16:00","-8.6","","-17.2","","50","","10","","7","","24.1","","100.83","","","","-12","","Mostly Cloudy"
"2006-02-10 17:00","2006","02","10","17:00","-9.0","","-18.0","","48","","10","","6","","24.1","","100.83","","","","-12","","Mainly Clear"
"2006-02-10 18:00","2006","02","10","18:00","-10.1","","-18.4","","51","","9","","4","","24.1","","100.86","","","","-12","","Mainly Clear"
"2006-02-10 19:00","2006","02","10","19:00","-10.9","","-18.2","","55","","4","","4","","24.1","","100.90","","","","-13","","Mainly Clear"
"2006-02-10 20:00","2006","02","10","20:00","-13.0","","-18.7","","62","","36","","6","","24.1","","100.91","","","","-17","","Mainly Clear"
"2006-02-10 21:00","2006","02","10","21:00","-12.6","","-17.1","","69","","1","","4","","24.1","","100.90","","","","-15","","Mostly Cloudy"
"2006-02-10 22:00","2006","02","10","22:00","-10.5","","-15.1","","69","","4","","4","","24.1","","100.90","","","","-13","","Cloudy"
"2006-02-10 23:00","2006","02","10","23:00","-11.0","","-14.8","","73","","3","","7","","24.1","","100.91","","","","-15","","Cloudy"
"2006-02-11 00:00","2006","02","11","00:00"
"2006-02-11 01:00","2006","02","11","01:00"
"2006-02-11 02:00","2006","02","11","02:00"
"2006-02-11 03:00","2006","02","11","03:00"
"2006-02-11 04:00","2006","02","11","04:00"
"2006-02-11 05:00","2006","02","11","05:00"
"2006-02-11 06:00","2006","02","11","06:00","-10.7","","-16.4","","63","","7","","11","","19.3","","101.01","","","","-16","","Snow"
"2006-02-11 07:00","2006","02","11","07:00","-11.5","","-16.2","","68","","4","","11","","24.1","","101.02","","","","-17","","Mainly Clear"
"2006-02-11 08:00","2006","02","11","08:00","-11.7","","-16.6","","67","","4","","11","","24.1","","101.08","","","","-18","","Mainly Clear"
"2006-02-11 09:00","2006","02","11","09:00","-9.0","","-16.2","","56","","7","","9","","24.1","","101.11","","","","-14","","Mainly Clear"
"2006-02-11 10:00","2006","02","11","10:00","-6.5","","-15.7","","48","","8","","17","","24.1","","101.08","","","","-13","","Mostly Cloudy"
"2006-02-11 11:00","2006","02","11","11:00","-5.9","","-15.1","","48","","7","","9","","24.1","","101.05","","","","-10","","Mainly Clear"
"2006-02-11 12:00","2006","02","11","12:00","-4.9","","-14.0","","49","","6","","13","","24.1","","101.00","","","","-10","","Mainly Clear"
"2006-02-11 13:00","2006","02","11","13:00","-4.0","","-13.2","","49","","9","","15","","24.1","","100.89","","","","-9","","Mainly Clear"
"2006-02-11 14:00","2006","02","11","14:00","-3.1","","-12.1","","50","","5","","11","","24.1","","100.85","","","","-7","","Mainly Clear"
"2006-02-11 15:00","2006","02","11","15:00","-3.0","","-11.9","","50","","8","","7","","24.1","","100.82","","","","-6","","Mainly Clear"
"2006-02-11 16:00","2006","02","11","16:00","-3.2","","-12.4","","49","","11","","7","","24.1","","100.79","","","","-6","","Mainly Clear"
"2006-02-11 17:00","2006","02","11","17:00","-4.2","","-13.2","","49","","6","","9","","24.1","","100.74","","","","-8","","Mainly Clear"
"2006-02-11 18:00","2006","02","11","18:00","-5.3","","-13.7","","52","","5","","9","","24.1","","100.73","","","","-9","","Mainly Clear"
"2006-02-11 19:00","2006","02","11","19:00","-6.4","","-14.4","","53","","5","","11","","24.1","","100.74","","","","-11","","Mostly Cloudy"
"2006-02-11 20:00","2006","02","11","20:00","-7.0","","-15.2","","52","","5","","15","","24.1","","100.70","","","","-13","","Mainly Clear"
"2006-02-11 21:00","2006","02","11","21:00","-8.1","","-15.4","","56","","5","","17","","24.1","","100.69","","","","-15","","Mainly Clear"
"2006-02-11 22:00","2006","02","11","22:00","-8.8","","-15.8","","57","","5","","13","","24.1","","100.65","","","","-15","","Mostly Cloudy"
"2006-02-11 23:00","2006","02","11","23:00","-9.2","","-16.0","","58","","4","","15","","24.1","","100.56","","","","-16","","Mostly Cloudy"
"2006-02-12 00:00","2006","02","12","00:00"
"2006-02-12 01:00","2006","02","12","01:00"
"2006-02-12 02:00","2006","02","12","02:00"
"2006-02-12 03:00","2006","02","12","03:00"
"2006-02-12 04:00","2006","02","12","04:00"
"2006-02-12 05:00","2006","02","12","05:00"
"2006-02-12 06:00","2006","02","12","06:00","-11.5","","-16.2","","68","","4","","20","","24.1","","100.09","","","","-20","","Mostly Cloudy"
"2006-02-12 07:00","2006","02","12","07:00","-12.1","","-16.6","","69","","4","","22","","24.1","","100.04","","","","-21","","Mainly Clear"
"2006-02-12 08:00","2006","02","12","08:00","-12.6","","-17.4","","67","","3","","20","","24.1","","100.03","","","","-21","","Mostly Cloudy"
"2006-02-12 09:00","2006","02","12","09:00","-11.3","","-16.9","","63","","4","","22","","24.1","","99.98","","","","-20","","Mostly Cloudy"
"2006-02-12 10:00","2006","02","12","10:00","-10.3","","-16.9","","58","","4","","26","","24.1","","99.92","","","","-19","","Mostly Cloudy"
"2006-02-12 11:00","2006","02","12","11:00","-8.5","","-16.5","","52","","2","","24","","24.1","","99.88","","","","-17","","Mostly Cloudy"
"2006-02-12 12:00","2006","02","12","12:00","-7.4","","-16.4","","49","","3","","20","","24.1","","99.85","","","","-15","","Mostly Cloudy"
"2006-02-12 13:00","2006","02","12","13:00","-6.5","","-17.1","","43","","3","","19","","24.1","","99.79","","","","-13","","Mostly Cloudy"
"2006-02-12 14:00","2006","02","12","14:00","-5.4","","-16.8","","40","","1","","19","","24.1","","99.73","","","","-12","","Mostly Cloudy"
"2006-02-12 15:00","2006","02","12","15:00","-5.2","","-17.5","","37","","2","","20","","24.1","","99.70","","","","-12","","Mainly Clear"
"2006-02-12 16:00","2006","02","12","16:00","-5.0","","-18.6","","34","","2","","15","","24.1","","99.71","","","","-11","","Mainly Clear"
"2006-02-12 17:00","2006","02","12","17:00","-5.8","","-17.4","","39","","35","","13","","24.1","","99.73","","","","-11","","Mainly Clear"
"2006-02-12 18:00","2006","02","12","18:00","-6.7","","-18.7","","38","","34","","4","","24.1","","99.76","","","","-9","","Mainly Clear"
"2006-02-12 19:00","2006","02","12","19:00","-7.5","","-19.0","","39","","","","0","","24.1","","99.82","","","","","","Mainly Clear"
"2006-02-12 20:00","2006","02","12","20:00","-10.7","","-19.1","","50","","35","","6","","24.1","","99.84","","","","-14","","Mainly Clear"
"2006-02-12 21:00","2006","02","12","21:00","-11.0","","-18.5","","54","","31","","4","","24.1","","99.81","","","","-13","","Mainly Clear"
"2006-02-12 22:00","2006","02","12","22:00","-12.1","","-18.5","","59","","30","","4","","24.1","","99.79","","","","-15","","Mostly Cloudy"
"2006-02-12 23:00","2006","02","12","23:00","-8.1","","-16.0","","53","","27","","7","","24.1","","99.75","","","","-12","","Mostly Cloudy"
"2006-02-13 00:00","2006","02","13","00:00"
"2006-02-13 01:00","2006","02","13","01:00"
"2006-02-13 02:00","2006","02","13","02:00"
"2006-02-13 03:00","2006","02","13","03:00"
"2006-02-13 04:00","2006","02","13","04:00"
"2006-02-13 05:00","2006","02","13","05:00"
"2006-02-13 06:00","2006","02","13","06:00","-7.1","","-10.6","","76","","31","","6","","12.9","","99.51","","","","-10","","Snow"
"2006-02-13 07:00","2006","02","13","07:00","-6.7","","-9.4","","81","","30","","6","","4.8","","99.54","","","","-10","","Snow Showers"
"2006-02-13 08:00","2006","02","13","08:00","-6.7","","-9.0","","84","","27","","7","","24.1","","99.58","","","","-10","","Snow Showers"
"2006-02-13 09:00","2006","02","13","09:00","-6.1","","-9.2","","79","","29","","15","","24.1","","99.63","","","","-12","","Snow Showers"
"2006-02-13 10:00","2006","02","13","10:00","-4.5","","-10.3","","64","","29","","20","","24.1","","99.66","","","","-11","","Mostly Cloudy"
"2006-02-13 11:00","2006","02","13","11:00","-4.1","","-11.9","","55","","29","","22","","24.1","","99.74","","","","-11","","Mostly Cloudy"
"2006-02-13 12:00","2006","02","13","12:00","-3.4","","-12.0","","51","","29","","20","","24.1","","99.72","","","","-10","","Mostly Cloudy"
"2006-02-13 13:00","2006","02","13","13:00","-2.5","","-10.2","","55","","26","","17","","24.1","","99.60","","","","-8","","Mostly Cloudy"
"2006-02-13 14:00","2006","02","13","14:00","-1.3","","-10.1","","51","","27","","17","","24.1","","99.51","","","","-6","","Mostly Cloudy"
"2006-02-13 15:00","2006","02","13","15:00","-1.1","","-10.3","","50","","24","","20","","24.1","","99.47","","","","-7","","Mostly Cloudy"
"2006-02-13 16:00","2006","02","13","16:00","-1.9","","-7.4","","66","","25","","26","","24.1","","99.48","","","","-8","","Cloudy"
"2006-02-13 17:00","2006","02","13","17:00","-2.0","","-7.2","","68","","24","","28","","24.1","","99.47","","","","-9","","Cloudy"
"2006-02-13 18:00","2006","02","13","18:00","-1.8","","-9.3","","57","","26","","30","","24.1","","99.48","","","","-9","","Cloudy"
"2006-02-13 19:00","2006","02","13","19:00","-2.9","","-8.3","","66","","26","","24","","12.9","","99.54","","","","-10","","Snow"
"2006-02-13 20:00","2006","02","13","20:00","-4.1","","-6.1","","86","","26","","19","","1.6","","99.56","","","","-10","","Snow"
"2006-02-13 21:00","2006","02","13","21:00","-4.0","","-5.9","","87","","25","","17","","4.8","","99.55","","","","-10","","Snow"
"2006-02-13 22:00","2006","02","13","22:00","-3.7","","-6.1","","83","","27","","20","","16.1","","99.61","","","","-10","","Cloudy"
"2006-02-13 23:00","2006","02","13","23:00","-3.0","","-5.6","","82","","27","","26","","12.9","","99.59","","","","-10","","Snow"
"2006-02-14 00:00","2006","02","14","00:00"
"2006-02-14 01:00","2006","02","14","01:00"
"2006-02-14 02:00","2006","02","14","02:00"
"2006-02-14 03:00","2006","02","14","03:00"
"2006-02-14 04:00","2006","02","14","04:00"
"2006-02-14 05:00","2006","02","14","05:00"
"2006-02-14 06:00","2006","02","14","06:00","-2.8","","-7.9","","68","","27","","15","","24.1","","99.92","","","","-8","","Cloudy"
"2006-02-14 07:00","2006","02","14","07:00","-3.0","","-7.9","","69","","26","","17","","24.1","","100.00","","","","-9","","Cloudy"
"2006-02-14 08:00","2006","02","14","08:00","-2.9","","-7.7","","69","","27","","13","","24.1","","100.09","","","","-8","","Cloudy"
"2006-02-14 09:00","2006","02","14","09:00","-2.5","","-7.5","","68","","27","","9","","24.1","","100.11","","","","-6","","Cloudy"
"2006-02-14 10:00","2006","02","14","10:00","-1.9","","-7.0","","68","","27","","13","","24.1","","100.17","","","","-6","","Cloudy"
"2006-02-14 11:00","2006","02","14","11:00","-1.3","","-6.1","","70","","26","","13","","9.7","","100.21","","","","-6","","Snow Showers"
"2006-02-14 12:00","2006","02","14","12:00","-1.6","","-4.4","","81","","24","","11","","4.8","","100.15","","","","-5","","Snow Showers"
"2006-02-14 13:00","2006","02","14","13:00","-1.5","","-4.2","","82","","22","","6","","4.8","","100.11","","","","-4","","Snow Showers"
"2006-02-14 14:00","2006","02","14","14:00","-1.8","","-3.6","","87","","19","","7","","3.2","","100.09","","","","-4","","Snow Showers"
"2006-02-14 15:00","2006","02","14","15:00","-0.3","","-2.3","","86","","23","","19","","4.0","","100.06","","","","-5","","Snow Showers"
"2006-02-14 16:00","2006","02","14","16:00","0.5","","-2.0","","83","","22","","22","","6.4","","100.11","","","","","","Snow Showers"
"2006-02-14 17:00","2006","02","14","17:00","0.1","","-1.8","","87","","22","","26","","2.4","","100.17","","","","","","Snow Showers,Fog"
"2006-02-14 18:00","2006","02","14","18:00","0.1","","-1.6","","88","","22","","22","","4.0","","100.18","","","","","","Snow Showers,Fog"
"2006-02-14 19:00","2006","02","14","19:00","0.4","","-1.5","","87","","22","","22","","6.4","","100.22","","","","","","Snow Showers"
"2006-02-14 20:00","2006","02","14","20:00","0.9","","-1.7","","83","","23","","26","","12.9","","100.23","","","","","","Snow Showers"
"2006-02-14 21:00","2006","02","14","21:00","1.5","","-1.6","","80","","23","","26","","12.9","","100.24","","","","","","Snow Showers"
"2006-02-14 22:00","2006","02","14","22:00","1.2","","-1.4","","83","","22","","15","","12.9","","100.21","","","","","","Cloudy"
"2006-02-14 23:00","2006","02","14","23:00","1.7","","-1.6","","79","","21","","19","","19.3","","100.21","","","","","","Cloudy"
"2006-02-15 00:00","2006","02","15","00:00"
"2006-02-15 01:00","2006","02","15","01:00"
"2006-02-15 02:00","2006","02","15","02:00"
"2006-02-15 03:00","2006","02","15","03:00"
"2006-02-15 04:00","2006","02","15","04:00"
"2006-02-15 05:00","2006","02","15","05:00"
"2006-02-15 06:00","2006","02","15","06:00","2.1","","-1.5","","77","","19","","20","","24.1","","100.15","","","","","","Clear"
"2006-02-15 07:00","2006","02","15","07:00","2.5","","-1.5","","75","","21","","24","","24.1","","100.14","","","","","","Mainly Clear"
"2006-02-15 08:00","2006","02","15","08:00","2.9","","-1.0","","75","","21","","24","","24.1","","100.20","","","","","","Mostly Cloudy"
"2006-02-15 09:00","2006","02","15","09:00","4.0","","-1.0","","70","","22","","20","","24.1","","100.27","","","","","","Cloudy"
"2006-02-15 10:00","2006","02","15","10:00","5.4","","-0.9","","64","","23","","22","","24.1","","100.39","","","","","","Cloudy"
"2006-02-15 11:00","2006","02","15","11:00","4.6","","-0.6","","69","","23","","19","","24.1","","100.45","","","","","","Cloudy"
"2006-02-15 12:00","2006","02","15","12:00","6.5","","-0.4","","61","","25","","22","","24.1","","100.49","","","","","","Cloudy"
"2006-02-15 13:00","2006","02","15","13:00","5.8","","-0.9","","62","","25","","24","","24.1","","100.52","","","","","","Cloudy"
"2006-02-15 14:00","2006","02","15","14:00","6.2","","-0.6","","62","","25","","26","","24.1","","100.56","","","","","","Mostly Cloudy"
"2006-02-15 15:00","2006","02","15","15:00","6.2","","-0.6","","62","","24","","22","","24.1","","100.67","","","","","","Mostly Cloudy"
"2006-02-15 16:00","2006","02","15","16:00","5.5","","-0.7","","64","","26","","17","","24.1","","100.75","","","","","","Mostly Cloudy"
"2006-02-15 17:00","2006","02","15","17:00","5.1","","-0.8","","66","","25","","15","","24.1","","100.78","","","","","","Mostly Cloudy"
"2006-02-15 18:00","2006","02","15","18:00","3.0","","-0.9","","76","","26","","6","","19.3","","100.93","","","","","","Mostly Cloudy"
"2006-02-15 19:00","2006","02","15","19:00","3.1","","-1.2","","73","","28","","6","","24.1","","100.99","","","","","","Mostly Cloudy"
"2006-02-15 20:00","2006","02","15","20:00","3.5","","-1.4","","70","","27","","4","","24.1","","101.06","","","","","","Cloudy"
"2006-02-15 21:00","2006","02","15","21:00","3.6","","-1.7","","68","","31","","7","","24.1","","101.12","","","","","","Cloudy"
"2006-02-15 22:00","2006","02","15","22:00","3.0","","-2.4","","68","","34","","15","","24.1","","101.21","","","","","","Cloudy"
"2006-02-15 23:00","2006","02","15","23:00","2.6","","-3.0","","67","","35","","13","","24.1","","101.27","","","","","","Cloudy"
"2006-02-16 00:00","2006","02","16","00:00"
"2006-02-16 01:00","2006","02","16","01:00"
"2006-02-16 02:00","2006","02","16","02:00"
"2006-02-16 03:00","2006","02","16","03:00"
"2006-02-16 04:00","2006","02","16","04:00"
"2006-02-16 05:00","2006","02","16","05:00"
"2006-02-16 06:00","2006","02","16","06:00","-1.1","","-6.8","","65","","6","","24","","19.3","","101.31","","","","-7","","Snow"
"2006-02-16 07:00","2006","02","16","07:00","-2.0","","-8.3","","62","","5","","22","","24.1","","101.27","","","","-8","","Snow"
"2006-02-16 08:00","2006","02","16","08:00","-2.5","","-9.3","","60","","5","","28","","24.1","","101.24","","","","-10","","Cloudy"
"2006-02-16 09:00","2006","02","16","09:00","-3.6","","-8.6","","68","","4","","33","","4.0","","101.18","","","","-12","","Snow"
"2006-02-16 10:00","2006","02","16","10:00","-4.7","","-8.0","","78","","6","","35","","9.7","","101.10","","","","-13","","Snow"
"2006-02-16 11:00","2006","02","16","11:00","-4.9","","-8.3","","77","","5","","32","","12.9","","101.14","","","","-13","","Freezing Rain"
"2006-02-16 12:00","2006","02","16","12:00","-5.3","","-8.4","","79","","5","","28","","24.1","","101.09","","","","-13","","Cloudy"
"2006-02-16 13:00","2006","02","16","13:00","-5.0","","-8.4","","77","","5","","32","","24.1","","101.01","","","","-13","","Cloudy"
"2006-02-16 14:00","2006","02","16","14:00","-5.7","","-9.3","","76","","5","","28","","24.1","","100.91","","","","-14","","Cloudy"
"2006-02-16 15:00","2006","02","16","15:00","-5.9","","-9.1","","78","","4","","28","","24.1","","100.90","","","","-14","","Cloudy"
"2006-02-16 16:00","2006","02","16","16:00","-6.1","","-9.7","","76","","5","","30","","24.1","","100.84","","","","-14","","Cloudy"
"2006-02-16 17:00","2006","02","16","17:00","-5.9","","-9.1","","78","","6","","28","","8.0","","100.70","","","","-14","","Freezing Rain,Fog"
"2006-02-16 18:00","2006","02","16","18:00","-5.9","","-8.9","","79","","6","","19","","9.7","","100.55","","","","-13","","Freezing Rain,Ice Pellets,Fog"
"2006-02-16 19:00","2006","02","16","19:00","-5.7","","-8.4","","81","","6","","22","","9.7","","100.39","","","","-13","","Freezing Rain,Ice Pellets,Fog"
"2006-02-16 20:00","2006","02","16","20:00","-4.4","","-6.8","","83","","6","","20","","8.0","","100.23","","","","-11","","Freezing Rain,Ice Pellets,Fog"
"2006-02-16 21:00","2006","02","16","21:00","-3.4","","-5.4","","86","","6","","11","","9.7","","100.05","","","","-8","","Freezing Rain,Fog"
"2006-02-16 22:00","2006","02","16","22:00","-2.1","","-3.9","","87","","7","","11","","12.9","","99.84","","","","-6","","Cloudy"
"2006-02-16 23:00","2006","02","16","23:00","-1.2","","-3.0","","88","","6","","7","","12.9","","99.65","","","","-4","","Cloudy"
"2006-02-17 00:00","2006","02","17","00:00"
"2006-02-17 01:00","2006","02","17","01:00"
"2006-02-17 02:00","2006","02","17","02:00"
"2006-02-17 03:00","2006","02","17","03:00"
"2006-02-17 04:00","2006","02","17","04:00"
"2006-02-17 05:00","2006","02","17","05:00"
"2006-02-17 06:00","2006","02","17","06:00","5.1","","2.4","","83","","21","","32","","19.3","","98.52","","","","","","Rain"
"2006-02-17 07:00","2006","02","17","07:00","5.6","","3.7","","88","","22","","32","","24.1","","98.50","","","","","","Cloudy"
"2006-02-17 08:00","2006","02","17","08:00","4.6","","0.9","","77","","25","","57","","24.1","","98.70","","","","","","Rain Showers"
"2006-02-17 09:00","2006","02","17","09:00","-0.1","","-4.9","","70","","27","","52","","19.3","","99.04","","","","-8","","Snow Showers"
"2006-02-17 10:00","2006","02","17","10:00","-3.8","","-11.8","","54","","27","","63","","24.1","","99.57","","","","-14","","Mainly Clear"
"2006-02-17 11:00","2006","02","17","11:00","-5.8","","-15.1","","48","","28","","54","","24.1","","99.94","","","","-16","","Mainly Clear"
"2006-02-17 12:00","2006","02","17","12:00","-7.0","","-16.9","","45","","29","","57","","24.1","","100.18","","","","-18","","Mostly Cloudy"
"2006-02-17 13:00","2006","02","17","13:00","-7.7","","-17.2","","46","","29","","50","","24.1","","100.36","","","","-19","","Mainly Clear"
"2006-02-17 14:00","2006","02","17","14:00","-7.0","","-16.4","","47","","29","","33","","24.1","","100.56","","","","-16","","Mainly Clear"
"2006-02-17 15:00","2006","02","17","15:00","-6.5","","-16.6","","45","","27","","28","","24.1","","100.75","","","","-15","","Mainly Clear"
"2006-02-17 16:00","2006","02","17","16:00","-6.6","","-15.5","","49","","29","","32","","24.1","","100.91","","","","-15","","Mainly Clear"
"2006-02-17 17:00","2006","02","17","17:00","-6.5","","-16.3","","46","","28","","30","","24.1","","100.98","","","","-15","","Mainly Clear"
"2006-02-17 18:00","2006","02","17","18:00","-7.1","","-16.0","","49","","28","","17","","24.1","","101.11","","","","-14","","Mainly Clear"
"2006-02-17 19:00","2006","02","17","19:00","-7.6","","-15.1","","55","","29","","24","","24.1","","101.21","","","","-16","","Clear"
"2006-02-17 20:00","2006","02","17","20:00","-8.0","","-15.6","","54","","29","","33","","24.1","","101.22","","","","-17","","Clear"
"2006-02-17 21:00","2006","02","17","21:00","-8.3","","-15.0","","58","","28","","17","","24.1","","101.26","","","","-15","","Clear"
"2006-02-17 22:00","2006","02","17","22:00","-8.6","","-14.5","","62","","29","","7","","24.1","","101.18","","","","-12","","Clear"
"2006-02-17 23:00","2006","02","17","23:00","-8.4","","-13.9","","64","","","","0","","24.1","","101.04","","","","","","Cloudy"
"2006-02-18 00:00","2006","02","18","00:00"
"2006-02-18 01:00","2006","02","18","01:00"
"2006-02-18 02:00","2006","02","18","02:00"
"2006-02-18 03:00","2006","02","18","03:00"
"2006-02-18 04:00","2006","02","18","04:00"
"2006-02-18 05:00","2006","02","18","05:00"
"2006-02-18 06:00","2006","02","18","06:00","-14.1","","-19.7","","63","","35","","17","","24.1","","101.05","","","","-22","","Mainly Clear"
"2006-02-18 07:00","2006","02","18","07:00","-14.8","","-20.7","","61","","34","","20","","24.1","","101.16","","","","-24","","Mostly Cloudy"
"2006-02-18 08:00","2006","02","18","08:00","-15.4","","-21.7","","58","","34","","26","","24.1","","101.30","","","","-26","","Mostly Cloudy"
"2006-02-18 09:00","2006","02","18","09:00","-15.0","","-21.6","","57","","34","","17","","24.1","","101.39","","","","-23","","Mainly Clear"
"2006-02-18 10:00","2006","02","18","10:00","-13.9","","-22.1","","50","","33","","30","","24.1","","101.44","","","","-25","","Mainly Clear"
"2006-02-18 11:00","2006","02","18","11:00","-13.1","","-22.8","","44","","33","","22","","24.1","","101.51","","","","-22","","Mainly Clear"
"2006-02-18 12:00","2006","02","18","12:00","-12.5","","-24.0","","38","","34","","20","","24.1","","101.54","","","","-21","","Mainly Clear"
"2006-02-18 13:00","2006","02","18","13:00","-12.3","","-23.6","","38","","32","","11","","24.1","","101.46","","","","-18","","Mainly Clear"
"2006-02-18 14:00","2006","02","18","14:00","-11.9","","-25.2","","32","","29","","26","","24.1","","101.41","","","","-21","","Mainly Clear"
"2006-02-18 15:00","2006","02","18","15:00","-12.0","","-26.0","","30","","31","","22","","24.1","","101.40","","","","-21","","Mainly Clear"
"2006-02-18 16:00","2006","02","18","16:00","-11.3","","-25.8","","29","","29","","24","","24.1","","101.41","","","","-20","","Mainly Clear"
"2006-02-18 17:00","2006","02","18","17:00","-11.9","","-26.6","","28","","32","","24","","24.1","","101.41","","","","-21","","Mainly Clear"
"2006-02-18 18:00","2006","02","18","18:00","-12.4","","-25.7","","32","","29","","13","","24.1","","101.44","","","","-19","","Mainly Clear"
"2006-02-18 19:00","2006","02","18","19:00","-12.8","","-24.5","","37","","29","","9","","24.1","","101.48","","","","-18","","Mainly Clear"
"2006-02-18 20:00","2006","02","18","20:00","-13.1","","-23.8","","40","","27","","13","","24.1","","101.50","","","","-20","","Clear"
"2006-02-18 21:00","2006","02","18","21:00","-12.9","","-22.4","","45","","28","","15","","24.1","","101.52","","","","-20","","Clear"
"2006-02-18 22:00","2006","02","18","22:00","-12.8","","-20.2","","54","","28","","19","","24.1","","101.52","","","","-21","","Clear"
"2006-02-18 23:00","2006","02","18","23:00","-12.8","","-18.8","","61","","27","","11","","24.1","","101.50","","","","-19","","Clear"
"2006-02-19 00:00","2006","02","19","00:00"
"2006-02-19 01:00","2006","02","19","01:00"
"2006-02-19 02:00","2006","02","19","02:00"
"2006-02-19 03:00","2006","02","19","03:00"
"2006-02-19 04:00","2006","02","19","04:00"
"2006-02-19 05:00","2006","02","19","05:00"
"2006-02-19 06:00","2006","02","19","06:00","-10.0","","-15.7","","63","","28","","19","","24.1","","101.43","","","","-18","","Mainly Clear"
"2006-02-19 07:00","2006","02","19","07:00","-10.8","","-16.7","","62","","29","","19","","24.1","","101.45","","","","-19","","Mainly Clear"
"2006-02-19 08:00","2006","02","19","08:00","-10.5","","-16.9","","59","","28","","13","","24.1","","101.47","","","","-17","","Mainly Clear"
"2006-02-19 09:00","2006","02","19","09:00","-9.1","","-16.5","","55","","28","","19","","24.1","","101.48","","","","-17","","Mainly Clear"
"2006-02-19 10:00","2006","02","19","10:00","-8.0","","-15.8","","53","","29","","24","","24.1","","101.42","","","","-16","","Mainly Clear"
"2006-02-19 11:00","2006","02","19","11:00","-7.0","","-15.5","","51","","27","","24","","24.1","","101.35","","","","-15","","Mainly Clear"
"2006-02-19 12:00","2006","02","19","12:00","-5.5","","-14.7","","48","","26","","20","","24.1","","101.29","","","","-12","","Mainly Clear"
"2006-02-19 13:00","2006","02","19","13:00","-5.1","","-12.6","","56","","25","","26","","24.1","","101.19","","","","-13","","Mostly Cloudy"
"2006-02-19 14:00","2006","02","19","14:00","-5.8","","-13.2","","56","","25","","28","","24.1","","101.12","","","","-14","","Mostly Cloudy"
"2006-02-19 15:00","2006","02","19","15:00","-5.5","","-14.6","","49","","27","","26","","24.1","","101.08","","","","-13","","Mostly Cloudy"
"2006-02-19 16:00","2006","02","19","16:00","-6.1","","-13.8","","54","","27","","32","","24.1","","101.06","","","","-15","","Mostly Cloudy"
"2006-02-19 17:00","2006","02","19","17:00","-6.3","","-13.1","","59","","26","","35","","24.1","","100.99","","","","-15","","Snow Showers"
"2006-02-19 18:00","2006","02","19","18:00","-6.4","","-13.0","","59","","27","","26","","24.1","","100.97","","","","-14","","Mainly Clear"
"2006-02-19 19:00","2006","02","19","19:00","-6.7","","-13.7","","57","","27","","20","","24.1","","101.00","","","","-14","","Mainly Clear"
"2006-02-19 20:00","2006","02","19","20:00","-7.7","","-15.6","","53","","28","","26","","24.1","","101.00","","","","-16","","Mainly Clear"
"2006-02-19 21:00","2006","02","19","21:00","-8.1","","-16.4","","51","","27","","24","","24.1","","100.91","","","","-16","","Clear"
"2006-02-19 22:00","2006","02","19","22:00","-8.0","","-16.3","","51","","27","","17","","24.1","","100.87","","","","-15","","Clear"
"2006-02-19 23:00","2006","02","19","23:00","-6.9","","-15.6","","50","","27","","22","","24.1","","100.80","","","","-14","","Clear"
"2006-02-20 00:00","2006","02","20","00:00"
"2006-02-20 01:00","2006","02","20","01:00"
"2006-02-20 02:00","2006","02","20","02:00"
"2006-02-20 03:00","2006","02","20","03:00"
"2006-02-20 04:00","2006","02","20","04:00"
"2006-02-20 05:00","2006","02","20","05:00"
"2006-02-20 06:00","2006","02","20","06:00","-7.2","","-13.5","","61","","27","","19","","24.1","","100.61","","","","-14","","Mainly Clear"
"2006-02-20 07:00","2006","02","20","07:00","-7.4","","-13.3","","63","","27","","15","","24.1","","100.61","","","","-14","","Mainly Clear"
"2006-02-20 08:00","2006","02","20","08:00","-6.2","","-12.7","","60","","26","","20","","24.1","","100.62","","","","-13","","Mostly Cloudy"
"2006-02-20 09:00","2006","02","20","09:00","-4.7","","-11.8","","58","","27","","24","","24.1","","100.61","","","","-12","","Mostly Cloudy"
"2006-02-20 10:00","2006","02","20","10:00","-3.7","","-12.0","","53","","26","","22","","24.1","","100.59","","","","-10","","Mainly Clear"
"2006-02-20 11:00","2006","02","20","11:00","-3.8","","-12.7","","50","","27","","22","","24.1","","100.55","","","","-10","","Mostly Cloudy"
"2006-02-20 12:00","2006","02","20","12:00","-3.5","","-12.0","","52","","25","","30","","24.1","","100.53","","","","-11","","Snow Showers"
"2006-02-20 13:00","2006","02","20","13:00","-3.2","","-11.2","","54","","25","","30","","24.1","","100.49","","","","-11","","Mostly Cloudy"
"2006-02-20 14:00","2006","02","20","14:00","-2.9","","-12.6","","47","","25","","30","","24.1","","100.44","","","","-10","","Mostly Cloudy"
"2006-02-20 15:00","2006","02","20","15:00","-2.9","","-11.7","","51","","25","","30","","24.1","","100.38","","","","-10","","Mostly Cloudy"
"2006-02-20 16:00","2006","02","20","16:00","-3.3","","-12.2","","50","","27","","24","","24.1","","100.35","","","","-10","","Mostly Cloudy"
"2006-02-20 17:00","2006","02","20","17:00","-4.1","","-8.4","","72","","24","","22","","16.1","","100.32","","","","-11","","Snow Showers"
"2006-02-20 18:00","2006","02","20","18:00","-3.7","","-9.0","","67","","25","","22","","24.1","","100.34","","","","-10","","Mostly Cloudy"
"2006-02-20 19:00","2006","02","20","19:00","-3.6","","-10.3","","60","","26","","19","","24.1","","100.36","","","","-10","","Mainly Clear"
"2006-02-20 20:00","2006","02","20","20:00","-3.8","","-10.4","","60","","27","","13","","19.3","","100.35","","","","-9","","Snow Showers"
"2006-02-20 21:00","2006","02","20","21:00","-3.7","","-10.3","","60","","27","","11","","16.1","","100.30","","","","-8","","Snow Showers"
"2006-02-20 22:00","2006","02","20","22:00","-4.7","","-7.7","","79","","26","","11","","9.7","","100.30","","","","-9","","Snow Showers"
"2006-02-20 23:00","2006","02","20","23:00","-4.5","","-8.0","","76","","26","","11","","16.1","","100.27","","","","-9","","Snow Showers"
"2006-02-21 00:00","2006","02","21","00:00"
"2006-02-21 01:00","2006","02","21","01:00"
"2006-02-21 02:00","2006","02","21","02:00"
"2006-02-21 03:00","2006","02","21","03:00"
"2006-02-21 04:00","2006","02","21","04:00"
"2006-02-21 05:00","2006","02","21","05:00"
"2006-02-21 06:00","2006","02","21","06:00","-3.7","","-7.1","","77","","23","","20","","8.0","","99.85","","","","-10","","Snow"
"2006-02-21 07:00","2006","02","21","07:00","-4.4","","-6.4","","86","","27","","9","","1.0","","99.79","","","","-8","","Snow"
"2006-02-21 08:00","2006","02","21","08:00","-4.3","","-6.2","","87","","27","","11","","4.8","","99.81","","","","-9","","Snow"
"2006-02-21 09:00","2006","02","21","09:00","-4.1","","-6.2","","85","","23","","9","","9.7","","99.80","","","","-8","","Snow"
"2006-02-21 10:00","2006","02","21","10:00","-3.1","","-5.1","","86","","24","","11","","9.7","","99.77","","","","-7","","Snow Showers"
"2006-02-21 11:00","2006","02","21","11:00","-2.2","","-4.8","","82","","25","","13","","9.7","","99.76","","","","-7","","Snow Showers"
"2006-02-21 12:00","2006","02","21","12:00","-0.9","","-5.1","","73","","27","","22","","9.7","","99.79","","","","-7","","Snow Showers"
"2006-02-21 13:00","2006","02","21","13:00","0.3","","-4.2","","72","","25","","24","","16.1","","99.76","","","","","","Mostly Cloudy"
"2006-02-21 14:00","2006","02","21","14:00","0.9","","-6.1","","59","","27","","24","","19.3","","99.78","","","","","","Snow Showers"
"2006-02-21 15:00","2006","02","21","15:00","0.9","","-7.4","","54","","27","","26","","24.1","","99.80","","","","","","Snow Showers"
"2006-02-21 16:00","2006","02","21","16:00","1.1","","-7.4","","53","","28","","28","","24.1","","99.88","","","","","","Mainly Clear"
"2006-02-21 17:00","2006","02","21","17:00","-1.0","","-4.8","","75","","31","","19","","19.3","","99.98","","","","-6","","Snow Showers"
"2006-02-21 18:00","2006","02","21","18:00","-0.8","","-7.9","","59","","28","","13","","24.1","","100.08","","","","-5","","Mainly Clear"
"2006-02-21 19:00","2006","02","21","19:00","-1.6","","-7.8","","63","","27","","11","","24.1","","100.20","","","","-5","","Mainly Clear"
"2006-02-21 20:00","2006","02","21","20:00","-2.2","","-11.1","","50","","28","","26","","24.1","","100.31","","","","-9","","Clear"
"2006-02-21 21:00","2006","02","21","21:00","-3.2","","-11.6","","52","","28","","15","","24.1","","100.37","","","","-8","","Clear"
"2006-02-21 22:00","2006","02","21","22:00","-3.8","","-11.4","","56","","27","","15","","24.1","","100.42","","","","-9","","Clear"
"2006-02-21 23:00","2006","02","21","23:00","-4.4","","-11.2","","59","","27","","13","","24.1","","100.45","","","","-9","","Clear"
"2006-02-22 00:00","2006","02","22","00:00"
"2006-02-22 01:00","2006","02","22","01:00"
"2006-02-22 02:00","2006","02","22","02:00"
"2006-02-22 03:00","2006","02","22","03:00"
"2006-02-22 04:00","2006","02","22","04:00"
"2006-02-22 05:00","2006","02","22","05:00"
"2006-02-22 06:00","2006","02","22","06:00","-7.0","","-11.7","","69","","5","","4","","24.1","","100.45","","","","-9","","Mostly Cloudy"
"2006-02-22 07:00","2006","02","22","07:00","-4.8","","-9.4","","70","","8","","6","","24.1","","100.45","","","","-8","","Cloudy"
"2006-02-22 08:00","2006","02","22","08:00","-3.2","","-7.0","","75","","10","","7","","24.1","","100.42","","","","-6","","Snow"
"2006-02-22 09:00","2006","02","22","09:00","-1.8","","-5.0","","79","","16","","24","","19.3","","100.37","","","","-8","","Cloudy"
"2006-02-22 10:00","2006","02","22","10:00","-1.2","","-5.1","","75","","17","","24","","19.3","","100.33","","","","-7","","Mostly Cloudy"
"2006-02-22 11:00","2006","02","22","11:00","-0.2","","-4.6","","72","","18","","17","","19.3","","100.28","","","","-5","","Mostly Cloudy"
"2006-02-22 12:00","2006","02","22","12:00","0.4","","-4.1","","72","","18","","19","","19.3","","100.23","","","","","","Mostly Cloudy"
"2006-02-22 13:00","2006","02","22","13:00","0.7","","-3.2","","75","","19","","17","","19.3","","100.15","","","","","","Mostly Cloudy"
"2006-02-22 14:00","2006","02","22","14:00","1.5","","-2.3","","76","","21","","17","","16.1","","100.06","","","","","","Mainly Clear"
"2006-02-22 15:00","2006","02","22","15:00","1.6","","-2.7","","73","","21","","17","","16.1","","100.05","","","","","","Mostly Cloudy"
"2006-02-22 16:00","2006","02","22","16:00","1.1","","-2.8","","75","","21","","13","","16.1","","100.05","","","","","","Cloudy"
"2006-02-22 17:00","2006","02","22","17:00","1.0","","-2.1","","80","","19","","11","","16.1","","99.99","","","","","","Mostly Cloudy"
"2006-02-22 18:00","2006","02","22","18:00","0.7","","-2.8","","77","","16","","9","","19.3","","99.96","","","","","","Cloudy"
"2006-02-22 19:00","2006","02","22","19:00","0.8","","-2.8","","77","","16","","7","","19.3","","99.96","","","","","","Cloudy"
"2006-02-22 20:00","2006","02","22","20:00","1.2","","-3.9","","69","","17","","7","","24.1","","99.93","","","","","","Cloudy"
"2006-02-22 21:00","2006","02","22","21:00","1.1","","-3.4","","72","","23","","4","","24.1","","99.91","","","","","","Mainly Clear"
"2006-02-22 22:00","2006","02","22","22:00","-1.4","","-4.8","","78","","34","","13","","24.1","","99.94","","","","-6","","Mostly Cloudy"
"2006-02-22 23:00","2006","02","22","23:00","-1.4","","-4.6","","79","","35","","9","","24.1","","99.98","","","","-5","","Mostly Cloudy"
"2006-02-23 00:00","2006","02","23","00:00"
"2006-02-23 01:00","2006","02","23","01:00"
"2006-02-23 02:00","2006","02","23","02:00"
"2006-02-23 03:00","2006","02","23","03:00"
"2006-02-23 04:00","2006","02","23","04:00"
"2006-02-23 05:00","2006","02","23","05:00"
"2006-02-23 06:00","2006","02","23","06:00","-3.9","","-6.1","","85","","35","","7","","12.9","","99.89","","","","-7","","Mainly Clear"
"2006-02-23 07:00","2006","02","23","07:00","-3.5","","-6.1","","82","","36","","7","","8.0","","99.90","","","","-6","","Fog"
"2006-02-23 08:00","2006","02","23","08:00","-2.6","","-4.8","","85","","36","","6","","8.0","","99.91","","","","-5","","Fog"
"2006-02-23 09:00","2006","02","23","09:00","-1.2","","-3.6","","84","","","","0","","11.3","","99.92","","","","","","Mostly Cloudy"
"2006-02-23 10:00","2006","02","23","10:00","-0.6","","-3.3","","82","","","","0","","11.3","","99.90","","","","","","Mostly Cloudy"
"2006-02-23 11:00","2006","02","23","11:00","0.6","","-2.4","","80","","19","","9","","9.7","","99.90","","","","","","Haze"
"2006-02-23 12:00","2006","02","23","12:00","0.9","","-2.1","","80","","19","","9","","9.7","","99.90","","","","","","Haze"
"2006-02-23 13:00","2006","02","23","13:00","0.8","","-1.9","","82","","18","","9","","9.7","","99.85","","","","","","Haze"
"2006-02-23 14:00","2006","02","23","14:00","1.0","","-2.0","","80","","20","","17","","11.3","","99.79","","","","","","Mostly Cloudy"
"2006-02-23 15:00","2006","02","23","15:00","1.7","","-1.2","","81","","21","","22","","8.0","","99.72","","","","","","Haze"
"2006-02-23 16:00","2006","02","23","16:00","2.8","","-4.5","","59","","25","","20","","12.9","","99.68","","","","","","Mostly Cloudy"
"2006-02-23 17:00","2006","02","23","17:00","2.3","","-4.0","","63","","24","","17","","16.1","","99.66","","","","","","Mostly Cloudy"
"2006-02-23 18:00","2006","02","23","18:00","1.9","","-4.6","","62","","26","","11","","19.3","","99.65","","","","","","Cloudy"
"2006-02-23 19:00","2006","02","23","19:00","1.3","","-3.4","","71","","21","","15","","24.1","","99.60","","","","","","Cloudy"
"2006-02-23 20:00","2006","02","23","20:00","1.9","","-3.4","","68","","25","","22","","19.3","","99.54","","","","","","Cloudy"
"2006-02-23 21:00","2006","02","23","21:00","0.7","","-4.1","","70","","29","","19","","24.1","","99.57","","","","","","Mostly Cloudy"
"2006-02-23 22:00","2006","02","23","22:00","-0.4","","-6.1","","65","","27","","20","","24.1","","99.64","","","","-6","","Mainly Clear"
"2006-02-23 23:00","2006","02","23","23:00","-1.1","","-8.8","","56","","27","","28","","24.1","","99.71","","","","-8","","Mainly Clear"
"2006-02-24 00:00","2006","02","24","00:00"
"2006-02-24 01:00","2006","02","24","01:00"
"2006-02-24 02:00","2006","02","24","02:00"
"2006-02-24 03:00","2006","02","24","03:00"
"2006-02-24 04:00","2006","02","24","04:00"
"2006-02-24 05:00","2006","02","24","05:00"
"2006-02-24 06:00","2006","02","24","06:00","-5.0","","-12.1","","57","","33","","37","","24.1","","100.29","","","","-14","","Mainly Clear"
"2006-02-24 07:00","2006","02","24","07:00","-6.6","","-13.7","","57","","33","","37","","24.1","","100.46","","","","-16","","Mainly Clear"
"2006-02-24 08:00","2006","02","24","08:00","-7.0","","-15.5","","51","","33","","33","","24.1","","100.70","","","","-16","","Mainly Clear"
"2006-02-24 09:00","2006","02","24","09:00","-6.6","","-16.6","","45","","35","","33","","24.1","","100.88","","","","-15","","Mainly Clear"
"2006-02-24 10:00","2006","02","24","10:00","-6.1","","-16.1","","45","","35","","28","","24.1","","101.02","","","","-14","","Mainly Clear"
"2006-02-24 11:00","2006","02","24","11:00","-5.7","","-16.4","","43","","31","","32","","24.1","","101.17","","","","-14","","Mainly Clear"
"2006-02-24 12:00","2006","02","24","12:00","-4.5","","-15.3","","43","","31","","17","","24.1","","101.28","","","","-10","","Mainly Clear"
"2006-02-24 13:00","2006","02","24","13:00","-3.8","","-16.5","","37","","32","","19","","24.1","","101.31","","","","-10","","Mainly Clear"
"2006-02-24 14:00","2006","02","24","14:00","-2.6","","-17.4","","31","","32","","20","","24.1","","101.29","","","","-9","","Mainly Clear"
"2006-02-24 15:00","2006","02","24","15:00","-2.1","","-18.2","","28","","33","","19","","24.1","","101.30","","","","-8","","Clear"
"2006-02-24 16:00","2006","02","24","16:00","-1.7","","-19.2","","25","","31","","17","","24.1","","101.33","","","","-7","","Mainly Clear"
"2006-02-24 17:00","2006","02","24","17:00","-1.9","","-19.0","","26","","28","","13","","24.1","","101.33","","","","-6","","Mainly Clear"
"2006-02-24 18:00","2006","02","24","18:00","-3.1","","-18.6","","29","","29","","11","","24.1","","101.40","","","","-7","","Mainly Clear"
"2006-02-24 19:00","2006","02","24","19:00","-3.7","","-16.4","","37","","28","","11","","24.1","","101.49","","","","-8","","Mostly Cloudy"
"2006-02-24 20:00","2006","02","24","20:00","-4.5","","-15.5","","42","","28","","17","","24.1","","101.49","","","","-10","","Mostly Cloudy"
"2006-02-24 21:00","2006","02","24","21:00","-5.1","","-15.2","","45","","27","","7","","24.1","","101.48","","","","-8","","Mostly Cloudy"
"2006-02-24 22:00","2006","02","24","22:00","-5.8","","-15.1","","48","","32","","4","","24.1","","101.48","","","","-8","","Cloudy"
"2006-02-24 23:00","2006","02","24","23:00","-7.2","","-10.0","","80","","36","","6","","24.1","","101.46","","","","-10","","Mostly Cloudy"
"2006-02-25 00:00","2006","02","25","00:00"
"2006-02-25 01:00","2006","02","25","01:00"
"2006-02-25 02:00","2006","02","25","02:00"
"2006-02-25 03:00","2006","02","25","03:00"
"2006-02-25 04:00","2006","02","25","04:00"
"2006-02-25 05:00","2006","02","25","05:00"
"2006-02-25 06:00","2006","02","25","06:00","-7.2","","-10.2","","79","","9","","17","","2.4","","100.59","","","","-14","","Snow"
"2006-02-25 07:00","2006","02","25","07:00","-6.8","","-9.4","","82","","9","","15","","1.2","","100.53","","","","-13","","Snow"
"2006-02-25 08:00","2006","02","25","08:00","-6.8","","-9.2","","83","","9","","24","","0.6","","100.31","","","","-14","","Moderate Snow"
"2006-02-25 09:00","2006","02","25","09:00","-6.8","","-9.2","","83","","9","","26","","1.2","","100.11","","","","-15","","Snow"
"2006-02-25 10:00","2006","02","25","10:00","-6.6","","-9.1","","82","","9","","22","","0.8","","99.92","","","","-14","","Moderate Snow"
"2006-02-25 11:00","2006","02","25","11:00","-7.3","","-10.0","","81","","7","","22","","1.2","","99.80","","","","-15","","Snow"
"2006-02-25 12:00","2006","02","25","12:00","-9.0","","-11.9","","79","","5","","24","","1.2","","99.73","","","","-17","","Snow"
"2006-02-25 13:00","2006","02","25","13:00","-10.4","","-13.4","","79","","4","","33","","0.6","","99.70","","","","-20","","Moderate Snow"
"2006-02-25 14:00","2006","02","25","14:00","-10.8","","-14.0","","77","","2","","35","","1.2","","99.80","","","","-21","","Snow"
"2006-02-25 15:00","2006","02","25","15:00","-11.6","","-15.3","","74","","2","","26","","2.0","","99.96","","","","-21","","Snow"
"2006-02-25 16:00","2006","02","25","16:00","-11.2","","-15.7","","69","","1","","24","","4.8","","100.24","","","","-20","","Snow"
"2006-02-25 17:00","2006","02","25","17:00","-10.8","","-15.8","","67","","1","","32","","19.3","","100.52","","","","-21","","Cloudy"
"2006-02-25 18:00","2006","02","25","18:00","-10.4","","-15.7","","65","","26","","19","","24.1","","100.76","","","","-18","","Cloudy"
"2006-02-25 19:00","2006","02","25","19:00","-11.8","","-15.8","","72","","34","","13","","24.1","","100.96","","","","-18","","Snow"
"2006-02-25 20:00","2006","02","25","20:00","-12.0","","-16.5","","69","","34","","13","","24.1","","101.10","","","","-19","","Mostly Cloudy"
"2006-02-25 21:00","2006","02","25","21:00","-13.0","","-17.0","","72","","34","","6","","24.1","","101.18","","","","-17","","Mostly Cloudy"
"2006-02-25 22:00","2006","02","25","22:00","-12.7","","-16.5","","73","","32","","11","","19.3","","101.24","","","","-19","","Snow"
"2006-02-25 23:00","2006","02","25","23:00","-11.9","","-15.3","","76","","34","","15","","19.3","","101.21","","","","-19","","Snow"
"2006-02-26 00:00","2006","02","26","00:00"
"2006-02-26 01:00","2006","02","26","01:00"
"2006-02-26 02:00","2006","02","26","02:00"
"2006-02-26 03:00","2006","02","26","03:00"
"2006-02-26 04:00","2006","02","26","04:00"
"2006-02-26 05:00","2006","02","26","05:00"
"2006-02-26 06:00","2006","02","26","06:00","-16.6","","-20.4","","72","","34","","15","","24.1","","101.34","","","","-25","","Clear"
"2006-02-26 07:00","2006","02","26","07:00","-17.0","","-20.5","","74","","32","","15","","24.1","","101.40","","","","-25","","Mainly Clear"
"2006-02-26 08:00","2006","02","26","08:00","-16.3","","-20.0","","73","","33","","11","","24.1","","101.46","","","","-23","","Clear"
"2006-02-26 09:00","2006","02","26","09:00","-14.2","","-18.7","","69","","34","","17","","24.1","","101.49","","","","-22","","Mainly Clear"
"2006-02-26 10:00","2006","02","26","10:00","-12.9","","-18.3","","64","","34","","19","","24.1","","101.49","","","","-21","","Mainly Clear"
"2006-02-26 11:00","2006","02","26","11:00","-11.5","","-17.5","","61","","35","","11","","24.1","","101.45","","","","-17","","Mainly Clear"
"2006-02-26 12:00","2006","02","26","12:00","-9.4","","-18.3","","48","","30","","20","","24.1","","101.36","","","","-17","","Mainly Clear"
"2006-02-26 13:00","2006","02","26","13:00","-9.1","","-19.6","","42","","30","","20","","24.1","","101.27","","","","-17","","Mainly Clear"
"2006-02-26 14:00","2006","02","26","14:00","-9.0","","-18.8","","45","","32","","24","","24.1","","101.16","","","","-17","","Mostly Cloudy"
"2006-02-26 15:00","2006","02","26","15:00","-9.0","","-18.8","","45","","31","","22","","24.1","","101.11","","","","-17","","Mostly Cloudy"
"2006-02-26 16:00","2006","02","26","16:00","-8.8","","-18.3","","46","","30","","24","","24.1","","101.08","","","","-17","","Mostly Cloudy"
"2006-02-26 17:00","2006","02","26","17:00","-9.6","","-18.1","","50","","31","","20","","24.1","","101.03","","","","-17","","Mostly Cloudy"
"2006-02-26 18:00","2006","02","26","18:00","-10.2","","-19.6","","46","","32","","19","","24.1","","101.02","","","","-18","","Mainly Clear"
"2006-02-26 19:00","2006","02","26","19:00","-11.3","","-20.5","","47","","30","","7","","24.1","","101.03","","","","-16","","Mainly Clear"
"2006-02-26 20:00","2006","02","26","20:00","-12.3","","-21.0","","48","","31","","9","","24.1","","101.05","","","","-18","","Mainly Clear"
"2006-02-26 21:00","2006","02","26","21:00","-14.1","","-22.1","","51","","2","","9","","24.1","","101.05","","","","-20","","Clear"
"2006-02-26 22:00","2006","02","26","22:00","-17.2","","-23.2","","60","","34","","13","","24.1","","101.06","","","","-25","","Clear"
"2006-02-26 23:00","2006","02","26","23:00","-17.7","","-23.4","","61","","34","","7","","24.1","","101.05","","","","-23","","Clear"
"2006-02-27 00:00","2006","02","27","00:00"
"2006-02-27 01:00","2006","02","27","01:00"
"2006-02-27 02:00","2006","02","27","02:00"
"2006-02-27 03:00","2006","02","27","03:00"
"2006-02-27 04:00","2006","02","27","04:00"
"2006-02-27 05:00","2006","02","27","05:00"
"2006-02-27 06:00","2006","02","27","06:00","-24.4","","-29.2","","64","","31","","7","","24.1","","100.83","","","","-31","","Clear"
"2006-02-27 07:00","2006","02","27","07:00","-23.4","","-27.8","","67","","31","","7","","24.1","","100.80","","","","-30","","Mainly Clear"
"2006-02-27 08:00","2006","02","27","08:00","-19.6","","-24.4","","66","","32","","9","","24.1","","100.79","","","","-26","","Clear"
"2006-02-27 09:00","2006","02","27","09:00","-15.6","","-22.1","","57","","32","","9","","24.1","","100.77","","","","-22","","Mainly Clear"
"2006-02-27 10:00","2006","02","27","10:00","-12.0","","-21.0","","47","","28","","11","","24.1","","100.71","","","","-18","","Clear"
"2006-02-27 11:00","2006","02","27","11:00","-11.1","","-21.9","","41","","30","","11","","24.1","","100.63","","","","-17","","Clear"
"2006-02-27 12:00","2006","02","27","12:00","-10.3","","-19.9","","45","","24","","17","","24.1","","100.57","","","","-18","","Clear"
"2006-02-27 13:00","2006","02","27","13:00","-9.3","","-19.6","","43","","25","","15","","24.1","","100.48","","","","-16","","Clear"
"2006-02-27 14:00","2006","02","27","14:00","-8.0","","-20.1","","37","","27","","15","","24.1","","100.37","","","","-14","","Clear"
"2006-02-27 15:00","2006","02","27","15:00","-7.2","","-19.3","","37","","29","","15","","24.1","","100.33","","","","-13","","Clear"
"2006-02-27 16:00","2006","02","27","16:00","-6.8","","-18.5","","39","","27","","11","","24.1","","100.27","","","","-12","","Mainly Clear"
"2006-02-27 17:00","2006","02","27","17:00","-6.9","","-18.3","","40","","26","","15","","24.1","","100.20","","","","-13","","Mainly Clear"
"2006-02-27 18:00","2006","02","27","18:00","-8.1","","-17.8","","46","","27","","11","","24.1","","100.15","","","","-13","","Mainly Clear"
"2006-02-27 19:00","2006","02","27","19:00","-8.6","","-17.4","","49","","26","","11","","24.1","","100.11","","","","-14","","Mainly Clear"
"2006-02-27 20:00","2006","02","27","20:00","-8.8","","-18.9","","44","","28","","9","","24.1","","100.09","","","","-13","","Mainly Clear"
"2006-02-27 21:00","2006","02","27","21:00","-10.1","","-19.6","","46","","29","","9","","24.1","","100.10","","","","-15","","Mainly Clear"
"2006-02-27 22:00","2006","02","27","22:00","-11.2","","-19.5","","50","","30","","9","","24.1","","100.12","","","","-16","","Mainly Clear"
"2006-02-27 23:00","2006","02","27","23:00","-15.3","","-21.5","","59","","35","","7","","24.1","","100.14","","","","-20","","Clear"
"2006-02-28 00:00","2006","02","28","00:00"
"2006-02-28 01:00","2006","02","28","01:00"
"2006-02-28 02:00","2006","02","28","02:00"
"2006-02-28 03:00","2006","02","28","03:00"
"2006-02-28 04:00","2006","02","28","04:00"
"2006-02-28 05:00","2006","02","28","05:00"
"2006-02-28 06:00","2006","02","28","06:00","-14.8","","-23.2","","49","","27","","13","","24.1","","100.13","","","","-22","","Clear"
"2006-02-28 07:00","2006","02","28","07:00","-15.5","","-23.2","","52","","28","","15","","24.1","","100.15","","","","-24","","Mainly Clear"
"2006-02-28 08:00","2006","02","28","08:00","-14.8","","-22.9","","50","","30","","17","","24.1","","100.13","","","","-23","","Mainly Clear"
"2006-02-28 09:00","2006","02","28","09:00","-13.1","","-22.4","","46","","30","","15","","24.1","","100.12","","","","-21","","Mainly Clear"
"2006-02-28 10:00","2006","02","28","10:00","-11.7","","-21.3","","45","","29","","20","","24.1","","100.09","","","","-20","","Mainly Clear"
"2006-02-28 11:00","2006","02","28","11:00","-9.9","","-20.1","","43","","28","","24","","24.1","","100.01","","","","-18","","Mainly Clear"
"2006-02-28 12:00","2006","02","28","12:00","-9.0","","-20.1","","40","","28","","30","","24.1","","99.96","","","","-18","","Mostly Cloudy"
"2006-02-28 13:00","2006","02","28","13:00","-8.4","","-19.2","","41","","28","","30","","24.1","","99.89","","","","-17","","Mostly Cloudy"
"2006-02-28 14:00","2006","02","28","14:00","-8.6","","-19.2","","42","","26","","26","","24.1","","99.77","","","","-17","","Mostly Cloudy"
"2006-02-28 15:00","2006","02","28","15:00","-8.2","","-19.7","","39","","27","","30","","24.1","","99.69","","","","-17","","Mostly Cloudy"
"2006-02-28 16:00","2006","02","28","16:00","-7.9","","-19.2","","40","","27","","39","","24.1","","99.66","","","","-18","","Mainly Clear"
"2006-02-28 17:00","2006","02","28","17:00","-7.9","","-18.2","","43","","28","","26","","24.1","","99.64","","","","-16","","Mainly Clear"
"2006-02-28 18:00","2006","02","28","18:00","-8.1","","-17.7","","46","","28","","24","","24.1","","99.68","","","","-16","","Mainly Clear"
"2006-02-28 19:00","2006","02","28","19:00","-7.8","","-16.0","","52","","28","","22","","24.1","","99.65","","","","-15","","Mainly Clear"
"2006-02-28 20:00","2006","02","28","20:00","-7.4","","-14.9","","55","","29","","28","","24.1","","99.70","","","","-16","","Mostly Cloudy"
"2006-02-28 21:00","2006","02","28","21:00","-8.8","","-13.0","","72","","31","","13","","4.8","","99.81","","","","-15","","Snow Showers"
"2006-02-28 22:00","2006","02","28","22:00","-8.8","","-12.1","","77","","28","","9","","24.1","","99.84","","","","-13","","Snow Showers"
"2006-02-28 23:00","2006","02","28","23:00","-8.6","","-11.7","","78","","27","","7","","24.1","","99.83","","","","-12","","Cloudy"
