"Station Name","KINGSTON A"
"Province","ONTARIO"
"Latitude","44.22"
"Longitude","-76.60"
"Elevation","92.40"
"Climate Identifier","6104146"
"WMO Identifier",""
"TC Identifier","YGK"
"All times are specified in Local Standard Time (LST). Add 1 hour to adjust for Daylight Saving Time where and when it is observed."

"Legend"
"E","Estimated"
"M","Missing"
"NA","Not Available"

"Date/Time","Year","Month","Day","Time","Temp (°C)","Temp Flag","Dew Point Temp (°C)","Dew Point Temp Flag","Rel Hum (%)","Rel Hum Flag","Wind Dir (10s deg)","Wind Dir Flag","Wind Spd (km/h)","Wind Spd Flag","Visibility (km)","Visibility Flag","Stn Press (kPa)","Stn Press Flag","Hmdx","Hmdx Flag","Wind Chill","Wind Chill Flag","Weather"
"1998-06-01 00:00","1998","06","01","00:00"
"1998-06-01 01:00","1998","06","01","01:00"
"1998-06-01 02:00","1998","06","01","02:00"
"1998-06-01 03:00","1998","06","01","03:00"
"1998-06-01 04:00","1998","06","01","04:00"
"1998-06-01 05:00","1998","06","01","05:00","10.9","","9.3","","90","","34","","9","","24.1","","99.30","","","","","","Mostly Cloudy"
"1998-06-01 06:00","1998","06","01","06:00","11.3","","4.5","","63","","35","","15","","24.1","","99.40","","","","","","Mostly Cloudy"
"1998-06-01 07:00","1998","06","01","07:00","9.9","","4.3","","68","","33","","24","","24.1","","99.50","","","","","","Mostly Cloudy"
"1998-06-01 08:00","1998","06","01","08:00","10.8","","3.5","","61","","36","","26","","24.1","","99.60","","","","","","Mainly Clear"
"1998-06-01 09:00","1998","06","01","09:00","11.4","","2.6","","55","","36","","24","","24.1","","99.67","","","","","","Mainly Clear"
"1998-06-01 10:00","1998","06","01","10:00","12.6","","1.8","","48","","35","","26","","24.1","","99.71","","","","","","Mainly Clear"
"1998-06-01 11:00","1998","06","01","11:00","13.1","","-0.8","","38","","33","","19","","24.1","","99.71","","","","","","Mainly Clear"
"1998-06-01 12:00","1998","06","01","12:00","13.6","","0.8","","42","","33","","13","","24.1","","99.71","","","","","","Mainly Clear"
"1998-06-01 13:00","1998","06","01","13:00","15.1","","1.6","","40","","27","","7","","24.1","","99.71","","","","","","Mostly Cloudy"
"1998-06-01 14:00","1998","06","01","14:00","15.1","","1.3","","39","","25","","19","","24.1","","99.64","","","","","","Mostly Cloudy"
"1998-06-01 15:00","1998","06","01","15:00","14.5","","1.7","","42","","22","","26","","24.1","","99.64","","","","","","Mainly Clear"
"1998-06-01 16:00","1998","06","01","16:00","14.5","","5.1","","53","","23","","28","","24.1","","99.64","","","","","","Mainly Clear"
"1998-06-01 17:00","1998","06","01","17:00","13.9","","4.9","","55","","23","","22","","24.1","","99.64","","","","","","Cloudy"
"1998-06-01 18:00","1998","06","01","18:00","13.7","","4.1","","52","","24","","19","","24.1","","99.64","","","","","","Cloudy"
"1998-06-01 19:00","1998","06","01","19:00","12.8","","3.6","","53","","24","","15","","24.1","","99.64","","","","","","Cloudy"
"1998-06-01 20:00","1998","06","01","20:00","11.8","","3.8","","58","","23","","13","","24.1","","99.64","","","","","","Cloudy"
"1998-06-01 21:00","1998","06","01","21:00","12.0","","4.6","","60","","21","","11","","24.1","","99.64","","","","","","Cloudy"
"1998-06-01 22:00","1998","06","01","22:00","12.4","","5.9","","64","","22","","17","","24.1","","99.64","","","","","","Mostly Cloudy"
"1998-06-01 23:00","1998","06","01","23:00"
"1998-06-02 00:00","1998","06","02","00:00"
"1998-06-02 01:00","1998","06","02","01:00"
"1998-06-02 02:00","1998","06","02","02:00"
"1998-06-02 03:00","1998","06","02","03:00"
"1998-06-02 04:00","1998","06","02","04:00"
"1998-06-02 05:00","1998","06","02","05:00","12.1","","9.5","","84","","18","","19","","24.1","","99.27","","","","","","Mostly Cloudy"
"1998-06-02 06:00","1998","06","02","06:00","12.4","","9.8","","84","","19","","19","","24.1","","99.27","","","","","","Cloudy"
"1998-06-02 07:00","1998","06","02","07:00","12.9","","10.3","","84","","19","","28","","24.1","","99.20","","","","","","Mostly Cloudy"
"1998-06-02 08:00","1998","06","02","08:00","13.0","","9.8","","81","","19","","28","","24.1","","99.20","","","","","","Mostly Cloudy"
"1998-06-02 09:00","1998","06","02","09:00","14.2","","10.4","","78","","20","","24","","24.1","","99.07","","","","","","Cloudy"
"1998-06-02 10:00","1998","06","02","10:00","14.2","","10.6","","79","","19","","19","","24.1","","99.00","","","","","","Cloudy"
"1998-06-02 11:00","1998","06","02","11:00","13.5","","11.6","","88","","19","","19","","24.1","","98.93","","","","","","Cloudy"
"1998-06-02 12:00","1998","06","02","12:00","14.2","","12.6","","90","","19","","15","","19.3","","98.87","","","","","","Rain Showers"
"1998-06-02 13:00","1998","06","02","13:00","14.4","","12.2","","87","","19","","28","","24.1","","98.77","","","","","","Cloudy"
"1998-06-02 14:00","1998","06","02","14:00","15.7","","13.7","","88","","17","","19","","24.1","","98.63","","","","","","Mostly Cloudy"
"1998-06-02 15:00","1998","06","02","15:00","16.3","","13.8","","85","","17","","22","","24.1","","98.60","","","","","","Mainly Clear"
"1998-06-02 16:00","1998","06","02","16:00","16.6","","13.8","","84","","17","","19","","24.1","","98.33","","","","","","Mostly Cloudy"
"1998-06-02 17:00","1998","06","02","17:00","16.3","","13.7","","85","","17","","19","","24.1","","98.23","","","","","","Cloudy"
"1998-06-02 18:00","1998","06","02","18:00","16.0","","14.2","","89","","21","","28","","1.6","","98.19","","","","","","Thunderstorms,Heavy Rain Showers,Fog"
"1998-06-02 19:00","1998","06","02","19:00","15.3","","14.1","","93","","19","","15","","16.1","","98.13","","","","","","Thunderstorms,Rain Showers"
"1998-06-02 20:00","1998","06","02","20:00","14.4","","13.5","","94","","23","","6","","16.1","","98.13","","","","","","Cloudy"
"1998-06-02 21:00","1998","06","02","21:00","14.6","","13.6","","94","","24","","22","","16.1","","98.23","","","","","","Cloudy"
"1998-06-02 22:00","1998","06","02","22:00","15.1","","13.9","","93","","27","","28","","19.3","","98.33","","","","","","Cloudy"
"1998-06-02 23:00","1998","06","02","23:00"
"1998-06-03 00:00","1998","06","03","00:00"
"1998-06-03 01:00","1998","06","03","01:00"
"1998-06-03 02:00","1998","06","03","02:00"
"1998-06-03 03:00","1998","06","03","03:00"
"1998-06-03 04:00","1998","06","03","04:00"
"1998-06-03 05:00","1998","06","03","05:00","7.1","","2.7","","74","","31","","19","","24.1","","99.30","","","","","","Mainly Clear"
"1998-06-03 06:00","1998","06","03","06:00","7.1","","3.1","","76","","29","","19","","24.1","","99.40","","","","","","Mainly Clear"
"1998-06-03 07:00","1998","06","03","07:00","7.9","","4.2","","77","","29","","13","","24.1","","99.40","","","","","","Mainly Clear"
"1998-06-03 08:00","1998","06","03","08:00","10.1","","5.7","","74","","29","","13","","24.1","","99.40","","","","","","Mainly Clear"
"1998-06-03 09:00","1998","06","03","09:00","11.6","","5.0","","64","","28","","28","","24.1","","99.40","","","","","","Mainly Clear"
"1998-06-03 10:00","1998","06","03","10:00","13.3","","3.9","","53","","26","","19","","24.1","","99.30","","","","","","Mainly Clear"
"1998-06-03 11:00","1998","06","03","11:00","12.3","","4.5","","59","","25","","22","","24.1","","99.30","","","","","","Mostly Cloudy"
"1998-06-03 12:00","1998","06","03","12:00","12.4","","6.3","","66","","25","","19","","24.1","","99.30","","","","","","Mostly Cloudy"
"1998-06-03 13:00","1998","06","03","13:00","13.0","","1.9","","47","","26","","28","","24.1","","99.30","","","","","","Mostly Cloudy"
"1998-06-03 14:00","1998","06","03","14:00","14.0","","4.4","","52","","27","","28","","24.1","","99.30","","","","","","Mostly Cloudy"
"1998-06-03 15:00","1998","06","03","15:00","12.3","","3.2","","54","","28","","22","","24.1","","99.34","","","","","","Mostly Cloudy"
"1998-06-03 16:00","1998","06","03","16:00","12.9","","3.8","","54","","29","","22","","24.1","","99.37","","","","","","Mostly Cloudy"
"1998-06-03 17:00","1998","06","03","17:00","12.6","","4.0","","56","","29","","19","","24.1","","99.37","","","","","","Mostly Cloudy"
"1998-06-03 18:00","1998","06","03","18:00","13.2","","3.9","","53","","30","","22","","24.1","","99.40","","","","","","Mostly Cloudy"
"1998-06-03 19:00","1998","06","03","19:00","12.6","","1.2","","46","","29","","26","","24.1","","99.40","","","","","","Mostly Cloudy"
"1998-06-03 20:00","1998","06","03","20:00","11.5","","1.3","","49","","28","","15","","24.1","","99.50","","","","","","Mostly Cloudy"
"1998-06-03 21:00","1998","06","03","21:00","11.0","","1.9","","53","","28","","13","","24.1","","99.54","","","","","","Mostly Cloudy"
"1998-06-03 22:00","1998","06","03","22:00","10.2","","1.6","","55","","27","","22","","24.1","","99.54","","","","","","Mostly Cloudy"
"1998-06-03 23:00","1998","06","03","23:00"
"1998-06-04 00:00","1998","06","04","00:00"
"1998-06-04 01:00","1998","06","04","01:00"
"1998-06-04 02:00","1998","06","04","02:00"
"1998-06-04 03:00","1998","06","04","03:00"
"1998-06-04 04:00","1998","06","04","04:00"
"1998-06-04 05:00","1998","06","04","05:00","5.5","","1.8","","77","","27","","19","","24.1","","99.57","","","","","","Mainly Clear"
"1998-06-04 06:00","1998","06","04","06:00","6.6","","3.7","","82","","27","","19","","24.1","","99.57","","","","","","Mainly Clear"
"1998-06-04 07:00","1998","06","04","07:00","9.0","","4.7","","74","","29","","28","","24.1","","99.60","","","","","","Mainly Clear"
"1998-06-04 08:00","1998","06","04","08:00","10.9","","3.7","","61","","27","","28","","24.1","","99.60","","","","","","Mainly Clear"
"1998-06-04 09:00","1998","06","04","09:00","12.5","","3.3","","53","","28","","28","","24.1","","99.57","","","","","","Mainly Clear"
"1998-06-04 10:00","1998","06","04","10:00","13.7","","2.9","","48","","29","","28","","24.1","","99.57","","","","","","Mainly Clear"
"1998-06-04 11:00","1998","06","04","11:00","13.3","","2.4","","48","","29","","28","","24.1","","99.57","","","","","","Mostly Cloudy"
"1998-06-04 12:00","1998","06","04","12:00","14.4","","2.7","","45","","29","","28","","24.1","","99.57","","","","","","Mostly Cloudy"
"1998-06-04 13:00","1998","06","04","13:00","13.3","","4.9","","57","","25","","28","","24.1","","99.50","","","","","","Mostly Cloudy"
"1998-06-04 14:00","1998","06","04","14:00","14.4","","6.1","","57","","25","","22","","24.1","","99.44","","","","","","Mostly Cloudy"
"1998-06-04 15:00","1998","06","04","15:00","13.5","","5.0","","56","","25","","28","","24.1","","99.44","","","","","","Mostly Cloudy"
"1998-06-04 16:00","1998","06","04","16:00","13.8","","5.7","","58","","25","","28","","24.1","","99.40","","","","","","Mostly Cloudy"
"1998-06-04 17:00","1998","06","04","17:00","14.2","","5.2","","55","","30","","13","","24.1","","99.44","","","","","","Mainly Clear"
"1998-06-04 18:00","1998","06","04","18:00","13.0","","6.0","","62","","35","","13","","24.1","","99.50","","","","","","NA"
"1998-06-04 19:00","1998","06","04","19:00","13.2","","5.6","","60","","30","","15","","24.1","","99.50","","","","","","Mainly Clear"
"1998-06-04 20:00","1998","06","04","20:00","12.0","","2.7","","53","","33","","22","","24.1","","99.57","","","","","","Mainly Clear"
"1998-06-04 21:00","1998","06","04","21:00","10.4","","2.9","","60","","32","","19","","24.1","","99.64","","","","","","Mainly Clear"
"1998-06-04 22:00","1998","06","04","22:00","9.4","","2.5","","62","","31","","11","","24.1","","99.67","","","","","","Clear"
"1998-06-04 23:00","1998","06","04","23:00"
"1998-06-05 00:00","1998","06","05","00:00"
"1998-06-05 01:00","1998","06","05","01:00"
"1998-06-05 02:00","1998","06","05","02:00"
"1998-06-05 03:00","1998","06","05","03:00"
"1998-06-05 04:00","1998","06","05","04:00"
"1998-06-05 05:00","1998","06","05","05:00","4.4","","1.3","","80","","30","","9","","24.1","","99.74","","","","","","Clear"
"1998-06-05 06:00","1998","06","05","06:00","6.3","","3.6","","83","","30","","9","","24.1","","99.77","","","","","","Clear"
"1998-06-05 07:00","1998","06","05","07:00","9.6","","4.7","","71","","31","","24","","24.1","","99.84","","","","","","Mainly Clear"
"1998-06-05 08:00","1998","06","05","08:00","11.4","","2.8","","55","","33","","28","","24.1","","99.84","","","","","","Mainly Clear"
"1998-06-05 09:00","1998","06","05","09:00","13.1","","1.4","","45","","30","","28","","24.1","","99.84","","","","","","Mainly Clear"
"1998-06-05 10:00","1998","06","05","10:00","14.7","","2.5","","44","","30","","28","","24.1","","99.81","","","","","","Mainly Clear"
"1998-06-05 11:00","1998","06","05","11:00","14.9","","1.9","","41","","32","","28","","24.1","","99.77","","","","","","Mainly Clear"
"1998-06-05 12:00","1998","06","05","12:00","16.4","","3.1","","41","","36","","28","","24.1","","99.71","","","","","","Mainly Clear"
"1998-06-05 13:00","1998","06","05","13:00","17.3","","2.1","","36","","36","","28","","24.1","","99.64","","","","","","Mostly Cloudy"
"1998-06-05 14:00","1998","06","05","14:00","17.7","","2.4","","36","","35","","19","","24.1","","99.57","","","","","","Mostly Cloudy"
"1998-06-05 15:00","1998","06","05","15:00","18.7","","2.8","","35","","30","","19","","24.1","","99.54","","","","","","Mostly Cloudy"
"1998-06-05 16:00","1998","06","05","16:00","17.6","","3.2","","38","","32","","15","","24.1","","99.50","","","","","","Mostly Cloudy"
"1998-06-05 17:00","1998","06","05","17:00","17.1","","2.6","","38","","31","","9","","24.1","","99.47","","","","","","Cloudy"
"1998-06-05 18:00","1998","06","05","18:00","14.3","","7.3","","63","","25","","26","","24.1","","99.54","","","","","","Cloudy"
"1998-06-05 19:00","1998","06","05","19:00","14.3","","7.4","","63","","26","","11","","24.1","","99.57","","","","","","Mostly Cloudy"
"1998-06-05 20:00","1998","06","05","20:00","14.7","","3.9","","48","","28","","13","","24.1","","99.64","","","","","","Mostly Cloudy"
"1998-06-05 21:00","1998","06","05","21:00","14.2","","3.4","","48","","33","","15","","24.1","","99.71","","","","","","Mostly Cloudy"
"1998-06-05 22:00","1998","06","05","22:00","13.3","","2.8","","49","","34","","19","","24.1","","99.74","","","","","","Mostly Cloudy"
"1998-06-05 23:00","1998","06","05","23:00"
"1998-06-06 00:00","1998","06","06","00:00"
"1998-06-06 01:00","1998","06","06","01:00"
"1998-06-06 02:00","1998","06","06","02:00"
"1998-06-06 03:00","1998","06","06","03:00"
"1998-06-06 04:00","1998","06","06","04:00"
"1998-06-06 05:00","1998","06","06","05:00","6.3","","2.8","","78","","31","","15","","24.1","","99.81","","","","","","Mainly Clear"
"1998-06-06 06:00","1998","06","06","06:00","8.0","","3.8","","75","","30","","11","","24.1","","99.91","","","","","","Mainly Clear"
"1998-06-06 07:00","1998","06","06","07:00","10.4","","5.3","","71","","29","","15","","24.1","","99.97","","","","","","Mainly Clear"
"1998-06-06 08:00","1998","06","06","08:00","12.2","","5.8","","65","","30","","22","","24.1","","99.94","","","","","","Mainly Clear"
"1998-06-06 09:00","1998","06","06","09:00","13.7","","5.4","","57","","30","","19","","24.1","","99.94","","","","","","Mainly Clear"
"1998-06-06 10:00","1998","06","06","10:00","14.9","","4.2","","49","","29","","19","","24.1","","99.94","","","","","","Mainly Clear"
"1998-06-06 11:00","1998","06","06","11:00","16.1","","4.3","","45","","28","","28","","24.1","","99.97","","","","","","Mainly Clear"
"1998-06-06 12:00","1998","06","06","12:00","16.3","","3.9","","44","","27","","24","","24.1","","99.97","","","","","","Mainly Clear"
"1998-06-06 13:00","1998","06","06","13:00","16.9","","5.6","","47","","27","","19","","24.1","","99.94","","","","","","Mostly Cloudy"
"1998-06-06 14:00","1998","06","06","14:00","17.3","","5.1","","44","","29","","11","","24.1","","99.94","","","","","","Mostly Cloudy"
"1998-06-06 15:00","1998","06","06","15:00","16.5","","7.1","","54","","24","","22","","24.1","","99.94","","","","","","Mostly Cloudy"
"1998-06-06 16:00","1998","06","06","16:00","16.4","","7.2","","54","","23","","19","","24.1","","99.94","","","","","","Mostly Cloudy"
"1998-06-06 17:00","1998","06","06","17:00","16.7","","7.4","","54","","27","","19","","24.1","","99.94","","","","","","Mostly Cloudy"
"1998-06-06 18:00","1998","06","06","18:00","16.3","","5.2","","48","","26","","19","","24.1","","100.04","","","","","","Mostly Cloudy"
"1998-06-06 19:00","1998","06","06","19:00","15.6","","5.3","","50","","29","","15","","24.1","","100.04","","","","","","Mainly Clear"
"1998-06-06 20:00","1998","06","06","20:00","14.4","","4.8","","52","","28","","9","","24.1","","100.07","","","","","","Mostly Cloudy"
"1998-06-06 21:00","1998","06","06","21:00","13.6","","6.2","","61","","33","","13","","24.1","","100.18","","","","","","Mostly Cloudy"
"1998-06-06 22:00","1998","06","06","22:00","12.7","","7.7","","72","","34","","9","","24.1","","100.18","","","","","","Mostly Cloudy"
"1998-06-06 23:00","1998","06","06","23:00"
"1998-06-07 00:00","1998","06","07","00:00"
"1998-06-07 01:00","1998","06","07","01:00"
"1998-06-07 02:00","1998","06","07","02:00"
"1998-06-07 03:00","1998","06","07","03:00"
"1998-06-07 04:00","1998","06","07","04:00"
"1998-06-07 05:00","1998","06","07","05:00","8.6","","4.7","","76","","31","","7","","24.1","","100.18","","","","","","Mostly Cloudy"
"1998-06-07 06:00","1998","06","07","06:00","8.5","","5.5","","81","","","","0","","24.1","","100.18","","","","","","Rain Showers"
"1998-06-07 07:00","1998","06","07","07:00","10.2","","5.9","","75","","36","","9","","24.1","","100.21","","","","","","Mostly Cloudy"
"1998-06-07 08:00","1998","06","07","08:00","11.0","","8.9","","87","","34","","9","","24.1","","100.28","","","","","","Mostly Cloudy"
"1998-06-07 09:00","1998","06","07","09:00","11.4","","9.0","","85","","26","","9","","24.1","","100.28","","","","","","Mostly Cloudy"
"1998-06-07 10:00","1998","06","07","10:00","11.5","","8.5","","82","","25","","9","","24.1","","100.28","","","","","","Mostly Cloudy"
"1998-06-07 11:00","1998","06","07","11:00","12.3","","8.5","","78","","24","","11","","24.1","","100.28","","","","","","Cloudy"
"1998-06-07 12:00","1998","06","07","12:00","12.0","","8.1","","77","","27","","6","","24.1","","100.28","","","","","","Rain Showers"
"1998-06-07 13:00","1998","06","07","13:00","12.2","","8.1","","76","","21","","15","","24.1","","100.28","","","","","","Cloudy"
"1998-06-07 14:00","1998","06","07","14:00","12.4","","8.8","","79","","20","","11","","24.1","","100.31","","","","","","Mostly Cloudy"
"1998-06-07 15:00","1998","06","07","15:00","11.6","","8.8","","83","","31","","4","","19.3","","100.31","","","","","","Rain Showers"
"1998-06-07 16:00","1998","06","07","16:00","13.5","","10.4","","82","","28","","7","","24.1","","100.31","","","","","","Mostly Cloudy"
"1998-06-07 17:00","1998","06","07","17:00","12.6","","10.1","","85","","31","","13","","24.1","","100.34","","","","","","Mostly Cloudy"
"1998-06-07 18:00","1998","06","07","18:00","11.7","","9.4","","86","","31","","9","","24.1","","100.34","","","","","","Mostly Cloudy"
"1998-06-07 19:00","1998","06","07","19:00","11.1","","9.0","","87","","30","","11","","24.1","","100.41","","","","","","Mostly Cloudy"
"1998-06-07 20:00","1998","06","07","20:00","10.7","","8.7","","87","","30","","9","","24.1","","100.41","","","","","","Cloudy"
"1998-06-07 21:00","1998","06","07","21:00","10.4","","8.5","","88","","27","","9","","24.1","","100.44","","","","","","Rain Showers"
"1998-06-07 22:00","1998","06","07","22:00","10.3","","8.6","","89","","28","","13","","24.1","","100.44","","","","","","Rain Showers"
"1998-06-07 23:00","1998","06","07","23:00"
"1998-06-08 00:00","1998","06","08","00:00"
"1998-06-08 01:00","1998","06","08","01:00"
"1998-06-08 02:00","1998","06","08","02:00"
"1998-06-08 03:00","1998","06","08","03:00"
"1998-06-08 04:00","1998","06","08","04:00"
"1998-06-08 05:00","1998","06","08","05:00","10.1","","9.3","","95","","31","","11","","24.1","","100.48","","","","","","Mostly Cloudy"
"1998-06-08 06:00","1998","06","08","06:00","10.4","","9.4","","94","","30","","15","","24.1","","100.48","","","","","","Mostly Cloudy"
"1998-06-08 07:00","1998","06","08","07:00","11.3","","10.1","","92","","30","","11","","24.1","","100.51","","","","","","Mostly Cloudy"
"1998-06-08 08:00","1998","06","08","08:00","11.5","","10.3","","92","","30","","19","","24.1","","100.54","","","","","","Mostly Cloudy"
"1998-06-08 09:00","1998","06","08","09:00","13.7","","12.0","","89","","30","","15","","24.1","","100.54","","","","","","Mostly Cloudy"
"1998-06-08 10:00","1998","06","08","10:00","15.3","","13.6","","90","","23","","13","","24.1","","100.58","","","","","","Mainly Clear"
"1998-06-08 11:00","1998","06","08","11:00","17.1","","13.6","","80","","31","","19","","24.1","","100.54","","","","","","Mainly Clear"
"1998-06-08 12:00","1998","06","08","12:00","17.9","","12.7","","72","","23","","19","","24.1","","100.54","","","","","","Mostly Cloudy"
"1998-06-08 13:00","1998","06","08","13:00","14.5","","11.4","","82","","19","","19","","24.1","","100.54","","","","","","Mostly Cloudy"
"1998-06-08 14:00","1998","06","08","14:00","14.8","","11.0","","78","","20","","19","","24.1","","100.51","","","","","","Mainly Clear"
"1998-06-08 15:00","1998","06","08","15:00","18.4","","13.1","","71","","29","","9","","24.1","","100.54","","","","","","Thunderstorms,Rain Showers"
"1998-06-08 16:00","1998","06","08","16:00","16.7","","12.0","","74","","25","","28","","24.1","","100.54","","","","","","Mainly Clear"
"1998-06-08 17:00","1998","06","08","17:00","15.2","","11.7","","80","","25","","19","","24.1","","100.61","","","","","","Mainly Clear"
"1998-06-08 18:00","1998","06","08","18:00","16.1","","11.9","","76","","27","","19","","24.1","","100.68","","","","","","Mostly Cloudy"
"1998-06-08 19:00","1998","06","08","19:00","16.6","","11.8","","73","","27","","19","","24.1","","100.71","","","","","","Mainly Clear"
"1998-06-08 20:00","1998","06","08","20:00","16.3","","11.3","","72","","28","","19","","24.1","","100.75","","","","","","Mostly Cloudy"
"1998-06-08 21:00","1998","06","08","21:00","16.2","","11.3","","73","","32","","11","","24.1","","100.88","","","","","","Mostly Cloudy"
"1998-06-08 22:00","1998","06","08","22:00","14.5","","10.3","","76","","30","","9","","24.1","","100.85","","","","","","Mainly Clear"
"1998-06-08 23:00","1998","06","08","23:00"
"1998-06-09 00:00","1998","06","09","00:00"
"1998-06-09 01:00","1998","06","09","01:00"
"1998-06-09 02:00","1998","06","09","02:00"
"1998-06-09 03:00","1998","06","09","03:00"
"1998-06-09 04:00","1998","06","09","04:00"
"1998-06-09 05:00","1998","06","09","05:00","9.0","","7.7","","92","","35","","6","","19.3","","101.05","","","","","","Mainly Clear"
"1998-06-09 06:00","1998","06","09","06:00","11.6","","11.1","","97","","12","","6","","24.1","","101.08","","","","","","Mainly Clear"
"1998-06-09 07:00","1998","06","09","07:00","11.0","","10.6","","97","","12","","7","","0.2","","101.11","","","","","","Fog"
"1998-06-09 08:00","1998","06","09","08:00","11.7","","11.4","","98","","","","0","","0.4","","101.11","","","","","","Fog"
"1998-06-09 09:00","1998","06","09","09:00","12.3","","12.3","","100","","15","","9","","4.8","","101.11","","","","","","Fog"
"1998-06-09 10:00","1998","06","09","10:00","14.0","","13.7","","98","","19","","13","","24.1","","101.08","","","","","","Mainly Clear"
"1998-06-09 11:00","1998","06","09","11:00","14.2","","13.2","","94","","18","","11","","24.1","","101.11","","","","","","Mainly Clear"
"1998-06-09 12:00","1998","06","09","12:00","15.0","","13.3","","90","","19","","15","","24.1","","101.11","","","","","","Mainly Clear"
"1998-06-09 13:00","1998","06","09","13:00","15.0","","12.9","","87","","19","","15","","24.1","","101.08","","","","","","Mainly Clear"
"1998-06-09 14:00","1998","06","09","14:00","15.2","","12.8","","86","","18","","11","","24.1","","101.01","","","","","","Mainly Clear"
"1998-06-09 15:00","1998","06","09","15:00","15.6","","13.3","","86","","16","","11","","24.1","","100.98","","","","","","Mainly Clear"
"1998-06-09 16:00","1998","06","09","16:00","16.9","","14.5","","86","","20","","9","","24.1","","100.91","","","","","","Mainly Clear"
"1998-06-09 17:00","1998","06","09","17:00","20.5","","15.1","","71","","25","","9","","24.1","","100.88","","25","","","","Mainly Clear"
"1998-06-09 18:00","1998","06","09","18:00","17.3","","12.9","","75","","23","","7","","24.1","","100.85","","","","","","Mainly Clear"
"1998-06-09 19:00","1998","06","09","19:00","18.5","","12.6","","68","","26","","6","","24.1","","100.85","","","","","","Mostly Cloudy"
"1998-06-09 20:00","1998","06","09","20:00","18.1","","10.6","","62","","36","","7","","24.1","","100.81","","","","","","Mostly Cloudy"
"1998-06-09 21:00","1998","06","09","21:00","17.7","","10.4","","62","","5","","6","","24.1","","100.81","","","","","","Mostly Cloudy"
"1998-06-09 22:00","1998","06","09","22:00","15.2","","10.0","","71","","1","","4","","24.1","","100.81","","","","","","Mostly Cloudy"
"1998-06-09 23:00","1998","06","09","23:00"
"1998-06-10 00:00","1998","06","10","00:00"
"1998-06-10 01:00","1998","06","10","01:00"
"1998-06-10 02:00","1998","06","10","02:00"
"1998-06-10 03:00","1998","06","10","03:00"
"1998-06-10 04:00","1998","06","10","04:00"
"1998-06-10 05:00","1998","06","10","05:00","9.5","","8.2","","92","","1","","4","","24.1","","100.81","","","","","","Mainly Clear"
"1998-06-10 06:00","1998","06","10","06:00","13.2","","11.7","","91","","","","0","","24.1","","100.85","","","","","","Mainly Clear"
"1998-06-10 07:00","1998","06","10","07:00","16.0","","11.4","","74","","16","","6","","24.1","","100.88","","","","","","Mainly Clear"
"1998-06-10 08:00","1998","06","10","08:00","16.4","","12.5","","78","","17","","9","","24.1","","100.88","","","","","","Mainly Clear"
"1998-06-10 09:00","1998","06","10","09:00","16.9","","12.5","","75","","18","","9","","24.1","","100.88","","","","","","Mainly Clear"
"1998-06-10 10:00","1998","06","10","10:00","17.6","","13.1","","75","","18","","9","","24.1","","100.88","","","","","","Mainly Clear"
"1998-06-10 11:00","1998","06","10","11:00","18.4","","12.9","","70","","18","","11","","24.1","","100.88","","","","","","Mainly Clear"
"1998-06-10 12:00","1998","06","10","12:00","19.2","","12.5","","65","","21","","6","","24.1","","100.85","","","","","","Mostly Cloudy"
"1998-06-10 13:00","1998","06","10","13:00","19.5","","12.6","","64","","18","","6","","24.1","","100.81","","","","","","Mostly Cloudy"
"1998-06-10 14:00","1998","06","10","14:00","23.1","","12.3","","51","","18","","9","","24.1","","100.64","","26","","","","Cloudy"
"1998-06-10 15:00","1998","06","10","15:00","23.2","","9.7","","42","","","","0","","24.1","","100.61","","","","","","Cloudy"
"1998-06-10 16:00","1998","06","10","16:00","23.9","","8.6","","38","","","","0","","24.1","","100.54","","25","","","","Cloudy"
"1998-06-10 17:00","1998","06","10","17:00","23.5","","9.2","","40","","21","","9","","24.1","","100.51","","","","","","Cloudy"
"1998-06-10 18:00","1998","06","10","18:00","22.9","","9.6","","43","","","","0","","24.1","","100.51","","","","","","Cloudy"
"1998-06-10 19:00","1998","06","10","19:00","21.7","","8.5","","43","","21","","9","","24.1","","100.54","","","","","","Mostly Cloudy"
"1998-06-10 20:00","1998","06","10","20:00","20.7","","9.1","","47","","","","0","","24.1","","100.58","","","","","","Mostly Cloudy"
"1998-06-10 21:00","1998","06","10","21:00","19.6","","9.7","","53","","23","","11","","24.1","","100.64","","","","","","Mostly Cloudy"
"1998-06-10 22:00","1998","06","10","22:00","17.7","","12.2","","70","","25","","19","","24.1","","100.64","","","","","","Mostly Cloudy"
"1998-06-10 23:00","1998","06","10","23:00"
"1998-06-11 00:00","1998","06","11","00:00"
"1998-06-11 01:00","1998","06","11","01:00"
"1998-06-11 02:00","1998","06","11","02:00"
"1998-06-11 03:00","1998","06","11","03:00"
"1998-06-11 04:00","1998","06","11","04:00"
"1998-06-11 05:00","1998","06","11","05:00","15.7","","13.2","","85","","8","","7","","24.1","","100.68","","","","","","Mostly Cloudy"
"1998-06-11 06:00","1998","06","11","06:00","16.1","","13.1","","82","","12","","13","","24.1","","100.71","","","","","","Mostly Cloudy"
"1998-06-11 07:00","1998","06","11","07:00","17.1","","12.0","","72","","13","","11","","24.1","","100.71","","","","","","Mostly Cloudy"
"1998-06-11 08:00","1998","06","11","08:00","17.1","","11.0","","67","","15","","24","","24.1","","100.75","","","","","","Mostly Cloudy"
"1998-06-11 09:00","1998","06","11","09:00","17.7","","12.9","","73","","16","","24","","24.1","","100.75","","","","","","Mostly Cloudy"
"1998-06-11 10:00","1998","06","11","10:00","16.8","","13.2","","79","","16","","19","","24.1","","100.75","","","","","","Mostly Cloudy"
"1998-06-11 11:00","1998","06","11","11:00","16.8","","13.6","","81","","17","","19","","24.1","","100.75","","","","","","Cloudy"
"1998-06-11 12:00","1998","06","11","12:00","16.0","","13.5","","85","","18","","24","","24.1","","100.75","","","","","","Cloudy"
"1998-06-11 13:00","1998","06","11","13:00","16.0","","13.8","","87","","18","","11","","24.1","","100.75","","","","","","Cloudy"
"1998-06-11 14:00","1998","06","11","14:00","17.1","","13.9","","81","","15","","19","","16.1","","100.71","","","","","","Cloudy"
"1998-06-11 15:00","1998","06","11","15:00","16.9","","14.3","","85","","15","","15","","16.1","","100.68","","","","","","Cloudy"
"1998-06-11 16:00","1998","06","11","16:00","17.1","","14.4","","84","","15","","19","","16.1","","100.64","","","","","","Cloudy"
"1998-06-11 17:00","1998","06","11","17:00","16.7","","14.4","","86","","15","","24","","16.1","","100.61","","","","","","Cloudy"
"1998-06-11 18:00","1998","06","11","18:00","16.7","","14.1","","85","","15","","22","","16.1","","100.54","","","","","","Cloudy"
"1998-06-11 19:00","1998","06","11","19:00","16.7","","14.0","","84","","15","","19","","16.1","","100.51","","","","","","Cloudy"
"1998-06-11 20:00","1998","06","11","20:00","17.0","","13.9","","82","","12","","19","","16.1","","100.44","","","","","","Cloudy"
"1998-06-11 21:00","1998","06","11","21:00","16.8","","13.9","","83","","13","","19","","19.3","","100.44","","","","","","Cloudy"
"1998-06-11 22:00","1998","06","11","22:00","16.9","","13.9","","82","","14","","19","","16.1","","100.41","","","","","","Cloudy"
"1998-06-11 23:00","1998","06","11","23:00"
"1998-06-12 00:00","1998","06","12","00:00"
"1998-06-12 01:00","1998","06","12","01:00"
"1998-06-12 02:00","1998","06","12","02:00"
"1998-06-12 03:00","1998","06","12","03:00"
"1998-06-12 04:00","1998","06","12","04:00"
"1998-06-12 05:00","1998","06","12","05:00","16.1","","15.0","","93","","15","","19","","24.1","","99.91","","","","","","Rain"
"1998-06-12 06:00","1998","06","12","06:00","16.2","","15.1","","93","","15","","19","","24.1","","99.84","","","","","","Rain"
"1998-06-12 07:00","1998","06","12","07:00","16.1","","15.1","","94","","16","","19","","24.1","","99.81","","","","","","Rain"
"1998-06-12 08:00","1998","06","12","08:00","16.4","","15.3","","93","","16","","19","","24.1","","99.74","","","","","","Rain"
"1998-06-12 09:00","1998","06","12","09:00","16.1","","15.2","","94","","17","","19","","4.0","","99.71","","","","","","Moderate Rain,Fog"
"1998-06-12 10:00","1998","06","12","10:00","15.9","","15.7","","99","","15","","28","","8.0","","99.57","","","","","","Rain,Fog"
"1998-06-12 11:00","1998","06","12","11:00","16.5","","16.0","","97","","16","","28","","24.1","","99.50","","","","","","Cloudy"
"1998-06-12 12:00","1998","06","12","12:00","16.5","","15.8","","96","","18","","28","","3.2","","99.47","","","","","","Thunderstorms,Moderate Rain Showers,Fog"
"1998-06-12 13:00","1998","06","12","13:00","16.6","","16.0","","96","","18","","28","","24.1","","99.47","","","","","","Mostly Cloudy"
"1998-06-12 14:00","1998","06","12","14:00","17.0","","16.2","","95","","17","","28","","24.1","","99.40","","","","","","Mostly Cloudy"
"1998-06-12 15:00","1998","06","12","15:00","17.9","","16.6","","92","","17","","28","","24.1","","99.37","","","","","","Mostly Cloudy"
"1998-06-12 16:00","1998","06","12","16:00","17.8","","16.4","","92","","17","","28","","24.1","","99.40","","","","","","Cloudy"
"1998-06-12 17:00","1998","06","12","17:00","17.8","","16.4","","92","","17","","28","","24.1","","99.40","","","","","","Cloudy"
"1998-06-12 18:00","1998","06","12","18:00","17.0","","15.7","","92","","19","","19","","19.3","","99.44","","","","","","Mainly Clear"
"1998-06-12 19:00","1998","06","12","19:00","17.1","","16.1","","94","","18","","19","","19.3","","99.44","","","","","","Mainly Clear"
"1998-06-12 20:00","1998","06","12","20:00","17.1","","16.2","","94","","17","","19","","19.3","","99.44","","","","","","Mainly Clear"
"1998-06-12 21:00","1998","06","12","21:00","17.1","","16.2","","94","","17","","19","","24.1","","99.47","","","","","","Mostly Cloudy"
"1998-06-12 22:00","1998","06","12","22:00","16.9","","16.1","","95","","17","","28","","24.1","","99.47","","","","","","Mostly Cloudy"
"1998-06-12 23:00","1998","06","12","23:00"
"1998-06-13 00:00","1998","06","13","00:00"
"1998-06-13 01:00","1998","06","13","01:00"
"1998-06-13 02:00","1998","06","13","02:00"
"1998-06-13 03:00","1998","06","13","03:00"
"1998-06-13 04:00","1998","06","13","04:00"
"1998-06-13 05:00","1998","06","13","05:00","16.2","","15.7","","97","","15","","9","","12.9","","99.24","","","","","","Cloudy"
"1998-06-13 06:00","1998","06","13","06:00","15.7","","15.3","","97","","17","","19","","12.9","","99.27","","","","","","Cloudy"
"1998-06-13 07:00","1998","06","13","07:00","16.0","","15.9","","99","","25","","7","","4.8","","99.24","","","","","","Rain,Fog"
"1998-06-13 08:00","1998","06","13","08:00","16.6","","16.3","","98","","15","","11","","6.4","","99.24","","","","","","Rain Showers,Fog"
"1998-06-13 09:00","1998","06","13","09:00","15.9","","15.9","","100","","16","","9","","8.0","","99.24","","","","","","Rain Showers,Fog"
"1998-06-13 10:00","1998","06","13","10:00","16.8","","16.8","","100","","16","","9","","11.3","","99.17","","","","","","Mostly Cloudy"
"1998-06-13 11:00","1998","06","13","11:00","16.0","","15.9","","99","","21","","9","","12.9","","99.24","","","","","","Thunderstorms"
"1998-06-13 12:00","1998","06","13","12:00","17.1","","16.9","","99","","16","","24","","11.3","","99.13","","","","","","Thunderstorms,Rain Showers"
"1998-06-13 13:00","1998","06","13","13:00","17.2","","17.2","","100","","17","","19","","11.3","","99.17","","","","","","Mostly Cloudy"
"1998-06-13 14:00","1998","06","13","14:00","19.9","","19.4","","97","","21","","13","","12.9","","99.10","","","","","","Mostly Cloudy"
"1998-06-13 15:00","1998","06","13","15:00","19.3","","18.8","","97","","15","","9","","19.3","","99.03","","","","","","Mainly Clear"
"1998-06-13 16:00","1998","06","13","16:00","20.0","","19.1","","95","","","","0","","24.1","","99.00","","27","","","","Mainly Clear"
"1998-06-13 17:00","1998","06","13","17:00","20.0","","18.8","","93","","","","0","","24.1","","99.00","","27","","","","Mainly Clear"
"1998-06-13 18:00","1998","06","13","18:00","21.0","","19.0","","88","","","","0","","24.1","","99.00","","28","","","","Mostly Cloudy"
"1998-06-13 19:00","1998","06","13","19:00","20.7","","18.7","","88","","","","0","","24.1","","99.00","","27","","","","Mainly Clear"
"1998-06-13 20:00","1998","06","13","20:00","19.7","","18.0","","90","","25","","7","","24.1","","99.07","","","","","","Mostly Cloudy"
"1998-06-13 21:00","1998","06","13","21:00","18.9","","17.0","","89","","","","0","","24.1","","99.07","","","","","","Mainly Clear"
"1998-06-13 22:00","1998","06","13","22:00","18.7","","16.9","","89","","","","0","","24.1","","99.07","","","","","","Mainly Clear"
"1998-06-13 23:00","1998","06","13","23:00"
"1998-06-14 00:00","1998","06","14","00:00"
"1998-06-14 01:00","1998","06","14","01:00"
"1998-06-14 02:00","1998","06","14","02:00"
"1998-06-14 03:00","1998","06","14","03:00"
"1998-06-14 04:00","1998","06","14","04:00"
"1998-06-14 05:00","1998","06","14","05:00","17.0","","16.6","","97","","4","","11","","6.4","","99.07","","","","","","Fog"
"1998-06-14 06:00","1998","06","14","06:00","17.0","","16.5","","97","","3","","13","","9.7","","99.10","","","","","","Fog"
"1998-06-14 07:00","1998","06","14","07:00","17.5","","16.6","","94","","4","","15","","11.3","","99.03","","","","","","Cloudy"
"1998-06-14 08:00","1998","06","14","08:00","17.9","","16.7","","93","","36","","19","","16.1","","99.07","","","","","","Cloudy"
"1998-06-14 09:00","1998","06","14","09:00","19.6","","16.7","","83","","1","","19","","16.1","","99.03","","","","","","Mostly Cloudy"
"1998-06-14 10:00","1998","06","14","10:00","20.3","","16.6","","79","","2","","19","","19.3","","99.07","","25","","","","Cloudy"
"1998-06-14 11:00","1998","06","14","11:00","20.9","","16.9","","78","","1","","19","","19.3","","99.00","","26","","","","Cloudy"
"1998-06-14 12:00","1998","06","14","12:00","21.7","","16.7","","73","","36","","19","","24.1","","98.97","","27","","","","Cloudy"
"1998-06-14 13:00","1998","06","14","13:00","22.0","","16.4","","71","","3","","15","","24.1","","98.90","","27","","","","Cloudy"
"1998-06-14 14:00","1998","06","14","14:00","21.7","","17.5","","77","","1","","7","","24.1","","98.87","","27","","","","Mostly Cloudy"
"1998-06-14 15:00","1998","06","14","15:00","22.6","","16.8","","70","","35","","13","","24.1","","98.83","","28","","","","Mostly Cloudy"
"1998-06-14 16:00","1998","06","14","16:00","22.0","","16.5","","71","","36","","15","","24.1","","98.83","","27","","","","Cloudy"
"1998-06-14 17:00","1998","06","14","17:00","21.0","","17.1","","78","","3","","9","","24.1","","98.80","","26","","","","Cloudy"
"1998-06-14 18:00","1998","06","14","18:00","17.3","","14.8","","85","","16","","9","","19.3","","98.80","","","","","","Cloudy"
"1998-06-14 19:00","1998","06","14","19:00","17.2","","15.4","","89","","18","","7","","24.1","","98.77","","","","","","Cloudy"
"1998-06-14 20:00","1998","06","14","20:00","16.9","","15.6","","92","","","","0","","19.3","","98.73","","","","","","Cloudy"
"1998-06-14 21:00","1998","06","14","21:00","17.5","","16.5","","94","","","","0","","19.3","","98.77","","","","","","Cloudy"
"1998-06-14 22:00","1998","06","14","22:00","17.1","","16.1","","94","","","","0","","19.3","","98.73","","","","","","Cloudy"
"1998-06-14 23:00","1998","06","14","23:00"
"1998-06-15 00:00","1998","06","15","00:00"
"1998-06-15 01:00","1998","06","15","01:00"
"1998-06-15 02:00","1998","06","15","02:00"
"1998-06-15 03:00","1998","06","15","03:00"
"1998-06-15 04:00","1998","06","15","04:00"
"1998-06-15 05:00","1998","06","15","05:00","15.7","","15.1","","96","","21","","19","","6.4","","98.66","","","","","","Rain,Fog"
"1998-06-15 06:00","1998","06","15","06:00","15.1","","14.4","","96","","21","","19","","6.4","","98.70","","","","","","Fog"
"1998-06-15 07:00","1998","06","15","07:00","15.2","","14.6","","96","","18","","24","","8.0","","98.73","","","","","","Fog"
"1998-06-15 08:00","1998","06","15","08:00","16.1","","15.3","","95","","19","","24","","8.0","","98.77","","","","","","Fog"
"1998-06-15 09:00","1998","06","15","09:00","16.3","","15.6","","96","","20","","24","","8.0","","98.80","","","","","","Fog"
"1998-06-15 10:00","1998","06","15","10:00","17.5","","16.4","","93","","18","","19","","8.0","","98.80","","","","","","Fog"
"1998-06-15 11:00","1998","06","15","11:00","17.7","","16.6","","93","","18","","19","","11.3","","98.83","","","","","","Mostly Cloudy"
"1998-06-15 12:00","1998","06","15","12:00","17.9","","16.2","","90","","18","","19","","11.3","","98.87","","","","","","Mostly Cloudy"
"1998-06-15 13:00","1998","06","15","13:00","18.7","","16.9","","89","","18","","9","","12.9","","98.83","","","","","","Mostly Cloudy"
"1998-06-15 14:00","1998","06","15","14:00","20.9","","17.0","","78","","21","","9","","16.1","","98.83","","26","","","","Mostly Cloudy"
"1998-06-15 15:00","1998","06","15","15:00","21.3","","15.8","","71","","15","","9","","16.1","","98.80","","26","","","","Mostly Cloudy"
"1998-06-15 16:00","1998","06","15","16:00","22.5","","16.5","","69","","","","0","","16.1","","98.77","","27","","","","Mostly Cloudy"
"1998-06-15 17:00","1998","06","15","17:00","22.1","","16.9","","72","","20","","11","","12.9","","98.80","","27","","","","Mostly Cloudy"
"1998-06-15 18:00","1998","06","15","18:00"
"1998-06-15 19:00","1998","06","15","19:00","18.6","","16.0","","85","","15","","13","","11.3","","98.87","","","","","","Cloudy"
"1998-06-15 20:00","1998","06","15","20:00","18.7","","16.5","","87","","15","","11","","16.1","","98.90","","","","","","Cloudy"
"1998-06-15 21:00","1998","06","15","21:00","18.9","","16.4","","85","","13","","13","","16.1","","98.90","","","","","","Cloudy"
"1998-06-15 22:00","1998","06","15","22:00","19.5","","16.6","","83","","10","","9","","19.3","","98.90","","","","","","Cloudy"
"1998-06-15 23:00","1998","06","15","23:00"
"1998-06-16 00:00","1998","06","16","00:00"
"1998-06-16 01:00","1998","06","16","01:00"
"1998-06-16 02:00","1998","06","16","02:00"
"1998-06-16 03:00","1998","06","16","03:00"
"1998-06-16 04:00","1998","06","16","04:00"
"1998-06-16 05:00","1998","06","16","05:00","18.5","","17.1","","92","","4","","7","","6.4","","98.93","","","","","","Fog"
"1998-06-16 06:00","1998","06","16","06:00","18.6","","17.3","","92","","6","","9","","9.7","","98.97","","","","","","Fog"
"1998-06-16 07:00","1998","06","16","07:00","19.0","","17.8","","93","","7","","6","","6.4","","99.00","","","","","","Fog"
"1998-06-16 08:00","1998","06","16","08:00","18.6","","17.9","","96","","","","0","","4.8","","99.07","","","","","","Drizzle,Fog"
"1998-06-16 09:00","1998","06","16","09:00","19.5","","18.4","","93","","","","0","","4.8","","99.07","","","","","","Fog"
"1998-06-16 10:00","1998","06","16","10:00","18.8","","17.5","","92","","24","","6","","6.4","","99.10","","","","","","Fog"
"1998-06-16 11:00","1998","06","16","11:00","20.1","","18.3","","89","","25","","7","","6.4","","99.13","","26","","","","Fog"
"1998-06-16 12:00","1998","06","16","12:00","20.4","","18.7","","90","","23","","9","","8.0","","99.17","","27","","","","Fog"
"1998-06-16 13:00","1998","06","16","13:00","19.2","","17.8","","92","","18","","19","","9.7","","99.20","","","","","","Fog"
"1998-06-16 14:00","1998","06","16","14:00","18.7","","17.3","","92","","20","","19","","9.7","","99.20","","","","","","Fog"
"1998-06-16 15:00","1998","06","16","15:00","19.4","","17.7","","90","","18","","19","","9.7","","99.20","","","","","","Fog"
"1998-06-16 16:00","1998","06","16","16:00","18.6","","16.9","","90","","18","","19","","6.4","","99.20","","","","","","Fog"
"1998-06-16 17:00","1998","06","16","17:00","18.7","","17.0","","90","","18","","13","","6.4","","99.20","","","","","","Fog"
"1998-06-16 18:00","1998","06","16","18:00","18.3","","16.8","","91","","16","","9","","4.8","","99.27","","","","","","Fog"
"1998-06-16 19:00","1998","06","16","19:00","17.8","","16.4","","92","","","","0","","6.4","","99.27","","","","","","Fog"
"1998-06-16 20:00","1998","06","16","20:00","17.6","","16.5","","93","","","","0","","6.4","","99.34","","","","","","Fog"
"1998-06-16 21:00","1998","06","16","21:00","17.9","","16.9","","94","","","","0","","6.4","","99.34","","","","","","Fog"
"1998-06-16 22:00","1998","06","16","22:00","17.9","","16.7","","93","","","","0","","16.1","","99.37","","","","","","Mostly Cloudy"
"1998-06-16 23:00","1998","06","16","23:00"
"1998-06-17 00:00","1998","06","17","00:00"
"1998-06-17 01:00","1998","06","17","01:00"
"1998-06-17 02:00","1998","06","17","02:00"
"1998-06-17 03:00","1998","06","17","03:00"
"1998-06-17 04:00","1998","06","17","04:00"
"1998-06-17 05:00","1998","06","17","05:00","17.9","","16.9","","94","","25","","11","","4.0","","99.54","","","","","","Fog"
"1998-06-17 06:00","1998","06","17","06:00","17.0","","16.1","","94","","18","","11","","2.4","","99.60","","","","","","Fog"
"1998-06-17 07:00","1998","06","17","07:00","17.1","","16.3","","95","","20","","13","","3.2","","99.64","","","","","","Fog"
"1998-06-17 08:00","1998","06","17","08:00","17.8","","16.7","","93","","24","","11","","4.0","","99.71","","","","","","Fog"
"1998-06-17 09:00","1998","06","17","09:00","19.5","","18.2","","92","","25","","15","","6.4","","99.71","","","","","","Fog"
"1998-06-17 10:00","1998","06","17","10:00","17.9","","16.8","","93","","18","","11","","4.8","","99.74","","","","","","Fog"
"1998-06-17 11:00","1998","06","17","11:00","17.9","","16.7","","93","","18","","15","","4.0","","99.77","","","","","","Fog"
"1998-06-17 12:00","1998","06","17","12:00","17.1","","16.3","","95","","18","","19","","1.6","","99.77","","","","","","Fog"
"1998-06-17 13:00","1998","06","17","13:00","17.5","","16.9","","96","","16","","15","","2.0","","99.81","","","","","","Fog"
"1998-06-17 14:00","1998","06","17","14:00","18.6","","17.8","","95","","17","","17","","3.2","","99.81","","","","","","Thunderstorms,Fog"
"1998-06-17 15:00","1998","06","17","15:00","18.5","","17.5","","94","","18","","7","","4.0","","99.84","","","","","","Thunderstorms,Fog"
"1998-06-17 16:00","1998","06","17","16:00","18.9","","17.9","","94","","","","0","","8.0","","99.84","","","","","","Rain Showers,Fog"
"1998-06-17 17:00","1998","06","17","17:00","19.9","","18.5","","92","","25","","9","","9.7","","99.87","","","","","","Rain Showers,Fog"
"1998-06-17 18:00","1998","06","17","18:00","19.9","","18.8","","93","","29","","11","","11.3","","99.91","","","","","","Mostly Cloudy"
"1998-06-17 19:00","1998","06","17","19:00","19.7","","18.7","","94","","28","","7","","11.3","","99.91","","","","","","Mostly Cloudy"
"1998-06-17 20:00","1998","06","17","20:00","18.7","","17.7","","94","","26","","9","","9.7","","99.94","","","","","","Fog"
"1998-06-17 21:00","1998","06","17","21:00","18.6","","17.5","","93","","27","","9","","9.7","","99.97","","","","","","Fog"
"1998-06-17 22:00","1998","06","17","22:00","18.6","","17.7","","95","","24","","9","","11.3","","99.97","","","","","","Mostly Cloudy"
"1998-06-17 23:00","1998","06","17","23:00"
"1998-06-18 00:00","1998","06","18","00:00"
"1998-06-18 01:00","1998","06","18","01:00"
"1998-06-18 02:00","1998","06","18","02:00"
"1998-06-18 03:00","1998","06","18","03:00"
"1998-06-18 04:00","1998","06","18","04:00"
"1998-06-18 05:00","1998","06","18","05:00","17.7","","17.2","","97","","29","","4","","9.7","","100.04","","","","","","Fog"
"1998-06-18 06:00","1998","06","18","06:00","18.4","","17.5","","94","","28","","11","","11.3","","100.11","","","","","","Mostly Cloudy"
"1998-06-18 07:00","1998","06","18","07:00","19.1","","18.1","","94","","29","","15","","16.1","","100.14","","","","","","Mostly Cloudy"
"1998-06-18 08:00","1998","06","18","08:00","19.4","","18.3","","93","","29","","13","","16.1","","100.18","","","","","","Mostly Cloudy"
"1998-06-18 09:00","1998","06","18","09:00","21.4","","19.1","","87","","33","","13","","16.1","","100.18","","28","","","","Mostly Cloudy"
"1998-06-18 10:00","1998","06","18","10:00","23.0","","19.6","","81","","29","","11","","24.1","","100.18","","30","","","","Mostly Cloudy"
"1998-06-18 11:00","1998","06","18","11:00","24.4","","18.6","","70","","32","","19","","24.1","","100.14","","31","","","","Mostly Cloudy"
"1998-06-18 12:00","1998","06","18","12:00","20.8","","17.3","","80","","18","","9","","24.1","","100.07","","26","","","","Mostly Cloudy"
"1998-06-18 13:00","1998","06","18","13:00","19.2","","16.3","","83","","19","","15","","24.1","","100.11","","","","","","Mostly Cloudy"
"1998-06-18 14:00","1998","06","18","14:00","20.2","","17.8","","86","","20","","13","","24.1","","100.07","","26","","","","Rain Showers"
"1998-06-18 15:00","1998","06","18","15:00","21.7","","18.5","","82","","23","","11","","24.1","","100.07","","28","","","","Mostly Cloudy"
"1998-06-18 16:00","1998","06","18","16:00","20.8","","18.4","","86","","18","","9","","24.1","","100.04","","27","","","","Mainly Clear"
"1998-06-18 17:00","1998","06","18","17:00","20.7","","17.9","","84","","18","","9","","24.1","","100.04","","27","","","","Mostly Cloudy"
"1998-06-18 18:00","1998","06","18","18:00","20.8","","18.1","","85","","21","","13","","24.1","","100.11","","27","","","","Mostly Cloudy"
"1998-06-18 19:00","1998","06","18","19:00","22.2","","19.1","","83","","23","","15","","24.1","","100.11","","29","","","","Mostly Cloudy"
"1998-06-18 20:00","1998","06","18","20:00","21.5","","18.3","","82","","24","","7","","24.1","","100.11","","28","","","","Mainly Clear"
"1998-06-18 21:00","1998","06","18","21:00","19.8","","16.8","","83","","24","","9","","24.1","","100.11","","","","","","Mainly Clear"
"1998-06-18 22:00","1998","06","18","22:00","19.8","","17.0","","84","","27","","11","","24.1","","100.11","","","","","","Mainly Clear"
"1998-06-18 23:00","1998","06","18","23:00"
"1998-06-19 00:00","1998","06","19","00:00"
"1998-06-19 01:00","1998","06","19","01:00"
"1998-06-19 02:00","1998","06","19","02:00"
"1998-06-19 03:00","1998","06","19","03:00"
"1998-06-19 04:00","1998","06","19","04:00"
"1998-06-19 05:00","1998","06","19","05:00","17.1","","15.9","","93","","4","","9","","24.1","","99.97","","","","","","Mainly Clear"
"1998-06-19 06:00","1998","06","19","06:00","18.7","","17.6","","93","","","","0","","24.1","","100.01","","","","","","Mainly Clear"
"1998-06-19 07:00","1998","06","19","07:00","19.0","","17.8","","93","","20","","6","","24.1","","100.04","","","","","","Mainly Clear"
"1998-06-19 08:00","1998","06","19","08:00","19.6","","18.0","","90","","18","","7","","24.1","","99.94","","","","","","Mainly Clear"
"1998-06-19 09:00","1998","06","19","09:00","18.9","","17.3","","90","","19","","11","","24.1","","100.04","","","","","","Mainly Clear"
"1998-06-19 10:00","1998","06","19","10:00","19.6","","17.9","","90","","20","","9","","24.1","","100.04","","","","","","Mainly Clear"
"1998-06-19 11:00","1998","06","19","11:00","20.1","","18.2","","89","","18","","7","","24.1","","99.97","","26","","","","Mainly Clear"
"1998-06-19 12:00","1998","06","19","12:00","20.2","","18.2","","88","","16","","15","","24.1","","99.91","","26","","","","Mainly Clear"
"1998-06-19 13:00","1998","06","19","13:00","21.3","","19.0","","87","","18","","9","","24.1","","99.84","","28","","","","Mainly Clear"
"1998-06-19 14:00","1998","06","19","14:00"
"1998-06-19 15:00","1998","06","19","15:00","20.4","","20.1","","98","","21","","15","","24.1","","99.81","","28","","","","Mainly Clear"
"1998-06-19 16:00","1998","06","19","16:00","24.0","","20.2","","79","","21","","9","","24.1","","99.77","","32","","","","Mainly Clear"
"1998-06-19 17:00","1998","06","19","17:00","25.2","","18.0","","64","","27","","15","","24.1","","99.74","","31","","","","Mainly Clear"
"1998-06-19 18:00","1998","06","19","18:00","25.7","","17.3","","60","","27","","6","","24.1","","99.74","","31","","","","Mainly Clear"
"1998-06-19 19:00","1998","06","19","19:00","25.5","","17.7","","62","","30","","4","","24.1","","99.74","","31","","","","Mainly Clear"
"1998-06-19 20:00","1998","06","19","20:00","23.4","","17.3","","69","","30","","6","","24.1","","99.74","","29","","","","Mainly Clear"
"1998-06-19 21:00","1998","06","19","21:00","23.0","","17.7","","72","","36","","7","","24.1","","99.74","","29","","","","Mainly Clear"
"1998-06-19 22:00","1998","06","19","22:00","21.2","","16.6","","75","","","","0","","24.1","","99.77","","26","","","","Mainly Clear"
"1998-06-19 23:00","1998","06","19","23:00"
"1998-06-20 00:00","1998","06","20","00:00"
"1998-06-20 01:00","1998","06","20","01:00"
"1998-06-20 02:00","1998","06","20","02:00"
"1998-06-20 03:00","1998","06","20","03:00"
"1998-06-20 04:00","1998","06","20","04:00"
"1998-06-20 05:00","1998","06","20","05:00","19.0","","16.8","","87","","","","0","","24.1","","99.81","","","","","","Mainly Clear"
"1998-06-20 06:00","1998","06","20","06:00","19.7","","17.7","","88","","25","","4","","24.1","","99.87","","","","","","Mainly Clear"
"1998-06-20 07:00","1998","06","20","07:00","20.1","","18.0","","88","","16","","4","","24.1","","99.94","","26","","","","Mainly Clear"
"1998-06-20 08:00","1998","06","20","08:00","20.4","","18.4","","88","","15","","4","","24.1","","99.97","","27","","","","Mainly Clear"
"1998-06-20 09:00","1998","06","20","09:00","20.9","","18.5","","86","","17","","13","","24.1","","100.04","","27","","","","Mainly Clear"
"1998-06-20 10:00","1998","06","20","10:00","21.6","","18.9","","85","","18","","13","","24.1","","100.01","","28","","","","Mainly Clear"
"1998-06-20 11:00","1998","06","20","11:00","21.6","","19.0","","85","","19","","19","","24.1","","100.04","","28","","","","Mainly Clear"
"1998-06-20 12:00","1998","06","20","12:00","21.5","","19.1","","86","","17","","17","","24.1","","100.04","","28","","","","Mainly Clear"
"1998-06-20 13:00","1998","06","20","13:00","21.7","","18.9","","84","","19","","19","","24.1","","100.01","","28","","","","Mainly Clear"
"1998-06-20 14:00","1998","06","20","14:00","23.5","","19.7","","79","","21","","15","","24.1","","99.97","","31","","","","Mainly Clear"
"1998-06-20 15:00","1998","06","20","15:00","24.5","","20.2","","77","","20","","19","","24.1","","99.97","","32","","","","Mainly Clear"
"1998-06-20 16:00","1998","06","20","16:00","27.9","","21.5","","68","","23","","22","","24.1","","99.97","","37","","","","Mainly Clear"
"1998-06-20 17:00","1998","06","20","17:00","27.3","","18.9","","60","","24","","15","","24.1","","100.01","","34","","","","Mainly Clear"
"1998-06-20 18:00","1998","06","20","18:00","26.2","","19.2","","65","","25","","9","","24.1","","100.01","","33","","","","Mainly Clear"
"1998-06-20 19:00","1998","06","20","19:00","24.7","","18.6","","69","","27","","15","","24.1","","100.07","","31","","","","Mainly Clear"
"1998-06-20 20:00","1998","06","20","20:00","23.4","","18.3","","73","","26","","9","","24.1","","100.11","","30","","","","Mainly Clear"
"1998-06-20 21:00","1998","06","20","21:00","23.1","","18.1","","73","","","","0","","24.1","","100.14","","29","","","","Clear"
"1998-06-20 22:00","1998","06","20","22:00","22.1","","17.6","","76","","","","0","","24.1","","100.18","","28","","","","Clear"
"1998-06-20 23:00","1998","06","20","23:00"
"1998-06-21 00:00","1998","06","21","00:00"
"1998-06-21 01:00","1998","06","21","01:00"
"1998-06-21 02:00","1998","06","21","02:00"
"1998-06-21 03:00","1998","06","21","03:00"
"1998-06-21 04:00","1998","06","21","04:00"
"1998-06-21 05:00","1998","06","21","05:00","18.9","","17.6","","92","","","","0","","12.9","","100.34","","","","","","Mainly Clear"
"1998-06-21 06:00","1998","06","21","06:00","20.4","","19.8","","96","","","","0","","8.0","","100.41","","28","","","","Fog"
"1998-06-21 07:00","1998","06","21","07:00","20.9","","19.7","","93","","","","0","","8.0","","100.44","","28","","","","Haze"
"1998-06-21 08:00","1998","06","21","08:00","20.4","","18.9","","91","","17","","7","","8.0","","100.51","","27","","","","Haze"
"1998-06-21 09:00","1998","06","21","09:00","20.7","","19.2","","91","","15","","9","","12.9","","100.51","","28","","","","Clear"
"1998-06-21 10:00","1998","06","21","10:00","21.1","","19.2","","89","","20","","19","","12.9","","100.51","","28","","","","Mainly Clear"
"1998-06-21 11:00","1998","06","21","11:00","21.4","","19.4","","88","","17","","9","","12.9","","100.54","","28","","","","Mainly Clear"
"1998-06-21 12:00","1998","06","21","12:00","21.8","","19.5","","87","","18","","13","","12.9","","100.51","","29","","","","Mainly Clear"
"1998-06-21 13:00","1998","06","21","13:00","22.6","","19.8","","84","","18","","11","","16.1","","100.51","","30","","","","Mainly Clear"
"1998-06-21 14:00","1998","06","21","14:00","24.0","","19.6","","76","","20","","6","","16.1","","100.48","","31","","","","Mainly Clear"
"1998-06-21 15:00","1998","06","21","15:00","26.0","","20.9","","74","","24","","9","","19.3","","100.48","","34","","","","Mainly Clear"
"1998-06-21 16:00","1998","06","21","16:00","25.2","","19.9","","72","","15","","9","","24.1","","100.48","","33","","","","Mainly Clear"
"1998-06-21 17:00","1998","06","21","17:00","24.4","","19.3","","73","","15","","15","","24.1","","100.41","","31","","","","Mainly Clear"
"1998-06-21 18:00","1998","06","21","18:00","25.3","","18.9","","68","","18","","9","","24.1","","100.44","","32","","","","Mainly Clear"
"1998-06-21 19:00","1998","06","21","19:00","24.8","","18.4","","68","","17","","6","","19.3","","100.41","","31","","","","Mainly Clear"
"1998-06-21 20:00","1998","06","21","20:00","23.4","","17.8","","71","","14","","9","","24.1","","100.41","","29","","","","Mainly Clear"
"1998-06-21 21:00","1998","06","21","21:00","22.9","","18.0","","74","","15","","6","","24.1","","100.48","","29","","","","Mainly Clear"
"1998-06-21 22:00","1998","06","21","22:00","22.5","","17.8","","75","","","","0","","24.1","","100.44","","28","","","","Clear"
"1998-06-21 23:00","1998","06","21","23:00"
"1998-06-22 00:00","1998","06","22","00:00"
"1998-06-22 01:00","1998","06","22","01:00"
"1998-06-22 02:00","1998","06","22","02:00"
"1998-06-22 03:00","1998","06","22","03:00"
"1998-06-22 04:00","1998","06","22","04:00"
"1998-06-22 05:00","1998","06","22","05:00","21.4","","19.4","","88","","17","","17","","16.1","","100.51","","28","","","","Mostly Cloudy"
"1998-06-22 06:00","1998","06","22","06:00","21.5","","19.5","","88","","18","","13","","16.1","","100.58","","29","","","","Mostly Cloudy"
"1998-06-22 07:00","1998","06","22","07:00","22.0","","19.9","","88","","17","","11","","16.1","","100.58","","29","","","","Cloudy"
"1998-06-22 08:00","1998","06","22","08:00","21.7","","19.7","","88","","18","","11","","16.1","","100.58","","29","","","","Cloudy"
"1998-06-22 09:00","1998","06","22","09:00","22.5","","20.2","","87","","18","","15","","16.1","","100.58","","30","","","","Cloudy"
"1998-06-22 10:00","1998","06","22","10:00","22.7","","20.4","","87","","19","","13","","12.9","","100.58","","31","","","","Mostly Cloudy"
"1998-06-22 11:00","1998","06","22","11:00","23.1","","20.7","","86","","21","","13","","8.0","","100.58","","31","","","","Haze"
"1998-06-22 12:00","1998","06","22","12:00","22.3","","20.1","","87","","20","","9","","8.0","","100.61","","30","","","","Haze"
"1998-06-22 13:00","1998","06","22","13:00","23.1","","20.9","","87","","18","","15","","8.0","","100.58","","31","","","","Haze"
"1998-06-22 14:00","1998","06","22","14:00","26.2","","22.7","","81","","25","","13","","8.0","","100.58","","36","","","","Haze"
"1998-06-22 15:00","1998","06","22","15:00","25.9","","20.5","","72","","25","","11","","8.0","","100.51","","34","","","","Haze"
"1998-06-22 16:00","1998","06","22","16:00","27.3","","20.2","","65","","25","","20","","9.7","","100.44","","35","","","","Haze"
"1998-06-22 17:00","1998","06","22","17:00","26.2","","20.3","","70","","25","","19","","8.0","","100.44","","34","","","","Haze"
"1998-06-22 18:00","1998","06","22","18:00","24.2","","18.6","","71","","23","","19","","8.0","","100.41","","31","","","","Haze"
"1998-06-22 19:00","1998","06","22","19:00","22.0","","17.5","","76","","22","","19","","8.0","","100.44","","28","","","","Haze"
"1998-06-22 20:00","1998","06","22","20:00","22.5","","18.9","","80","","25","","11","","8.0","","100.44","","29","","","","Haze"
"1998-06-22 21:00","1998","06","22","21:00","21.4","","18.4","","83","","21","","9","","8.0","","100.51","","28","","","","Haze"
"1998-06-22 22:00","1998","06","22","22:00","20.8","","18.7","","88","","","","0","","8.0","","100.51","","27","","","","Haze"
"1998-06-22 23:00","1998","06","22","23:00"
"1998-06-23 00:00","1998","06","23","00:00"
"1998-06-23 01:00","1998","06","23","01:00"
"1998-06-23 02:00","1998","06","23","02:00"
"1998-06-23 03:00","1998","06","23","03:00"
"1998-06-23 04:00","1998","06","23","04:00"
"1998-06-23 05:00","1998","06","23","05:00","20.1","","19.2","","95","","18","","9","","2.4","","100.48","","27","","","","Fog"
"1998-06-23 06:00","1998","06","23","06:00","20.4","","19.5","","95","","18","","9","","2.4","","100.51","","28","","","","Fog"
"1998-06-23 07:00","1998","06","23","07:00","20.6","","19.7","","95","","21","","7","","2.4","","100.54","","28","","","","Fog"
"1998-06-23 08:00","1998","06","23","08:00","20.7","","19.9","","95","","21","","11","","2.4","","100.58","","28","","","","Fog"
"1998-06-23 09:00","1998","06","23","09:00","21.1","","20.4","","96","","18","","9","","3.2","","100.58","","29","","","","Fog"
"1998-06-23 10:00","1998","06","23","10:00","21.0","","20.1","","95","","18","","13","","3.2","","100.54","","29","","","","Fog"
"1998-06-23 11:00","1998","06","23","11:00","21.1","","20.6","","97","","17","","6","","3.2","","100.58","","29","","","","Rain Showers,Fog"
"1998-06-23 12:00","1998","06","23","12:00","21.6","","20.5","","93","","15","","9","","3.2","","100.51","","30","","","","Fog"
"1998-06-23 13:00","1998","06","23","13:00","22.5","","21.3","","93","","24","","6","","4.0","","100.54","","31","","","","Fog"
"1998-06-23 14:00","1998","06","23","14:00","22.3","","21.1","","93","","","","0","","4.8","","100.51","","31","","","","Fog"
"1998-06-23 15:00","1998","06","23","15:00","21.8","","20.4","","92","","22","","4","","4.0","","100.58","","30","","","","Fog"
"1998-06-23 16:00","1998","06","23","16:00","22.4","","21.0","","92","","","","0","","4.8","","100.44","","31","","","","Rain,Fog"
"1998-06-23 17:00","1998","06","23","17:00","23.2","","21.4","","90","","24","","11","","4.8","","100.34","","32","","","","Fog"
"1998-06-23 18:00","1998","06","23","18:00","23.2","","21.1","","88","","25","","11","","6.4","","100.34","","32","","","","Haze"
"1998-06-23 19:00","1998","06","23","19:00","21.9","","20.0","","89","","19","","15","","6.4","","100.41","","29","","","","Haze"
"1998-06-23 20:00","1998","06","23","20:00","21.4","","19.3","","88","","24","","7","","6.4","","100.41","","28","","","","Haze"
"1998-06-23 21:00","1998","06","23","21:00","20.9","","19.1","","89","","19","","13","","6.4","","100.48","","28","","","","Haze"
"1998-06-23 22:00","1998","06","23","22:00","20.6","","18.7","","89","","24","","7","","6.4","","100.51","","27","","","","Haze"
"1998-06-23 23:00","1998","06","23","23:00"
"1998-06-24 00:00","1998","06","24","00:00"
"1998-06-24 01:00","1998","06","24","01:00"
"1998-06-24 02:00","1998","06","24","02:00"
"1998-06-24 03:00","1998","06","24","03:00"
"1998-06-24 04:00","1998","06","24","04:00"
"1998-06-24 05:00","1998","06","24","05:00","18.8","","17.9","","95","","25","","9","","0.2","","100.54","","","","","","Fog"
"1998-06-24 06:00","1998","06","24","06:00","18.3","","17.8","","97","","30","","6","","0.8","","100.58","","","","","","Fog"
"1998-06-24 07:00","1998","06","24","07:00","18.9","","18.6","","98","","25","","6","","4.8","","100.64","","","","","","Fog"
"1998-06-24 08:00","1998","06","24","08:00","20.2","","19.4","","95","","23","","13","","4.8","","100.68","","27","","","","Fog"
"1998-06-24 09:00","1998","06","24","09:00","21.2","","20.1","","93","","23","","7","","8.0","","100.68","","29","","","","Fog"
"1998-06-24 10:00","1998","06","24","10:00","21.5","","20.4","","93","","20","","11","","8.0","","100.71","","29","","","","Fog"
"1998-06-24 11:00","1998","06","24","11:00","20.7","","19.6","","93","","20","","15","","8.0","","100.68","","28","","","","Fog"
"1998-06-24 12:00","1998","06","24","12:00","22.4","","20.9","","91","","20","","19","","16.1","","100.68","","31","","","","Cloudy"
"1998-06-24 13:00","1998","06","24","13:00","22.8","","20.0","","84","","20","","22","","19.3","","100.64","","30","","","","Cloudy"
"1998-06-24 14:00","1998","06","24","14:00","23.4","","19.2","","77","","19","","22","","19.3","","100.58","","30","","","","Cloudy"
"1998-06-24 15:00","1998","06","24","15:00","23.3","","19.3","","78","","18","","22","","19.3","","100.54","","30","","","","Cloudy"
"1998-06-24 16:00","1998","06","24","16:00","23.1","","18.9","","77","","19","","17","","19.3","","100.51","","30","","","","Mostly Cloudy"
"1998-06-24 17:00","1998","06","24","17:00","24.7","","19.8","","74","","20","","15","","19.3","","100.48","","32","","","","Mostly Cloudy"
"1998-06-24 18:00","1998","06","24","18:00","24.8","","19.8","","74","","23","","11","","19.3","","100.44","","32","","","","Mostly Cloudy"
"1998-06-24 19:00","1998","06","24","19:00","22.5","","18.1","","76","","25","","4","","19.3","","100.48","","29","","","","Mainly Clear"
"1998-06-24 20:00","1998","06","24","20:00","21.9","","18.7","","82","","","","0","","19.3","","100.51","","28","","","","Mainly Clear"
"1998-06-24 21:00","1998","06","24","21:00","21.2","","19.1","","88","","","","0","","19.3","","100.54","","28","","","","Mainly Clear"
"1998-06-24 22:00","1998","06","24","22:00","21.3","","19.5","","89","","16","","7","","19.3","","100.51","","28","","","","Mainly Clear"
"1998-06-24 23:00","1998","06","24","23:00"
"1998-06-25 00:00","1998","06","25","00:00"
"1998-06-25 01:00","1998","06","25","01:00"
"1998-06-25 02:00","1998","06","25","02:00"
"1998-06-25 03:00","1998","06","25","03:00"
"1998-06-25 04:00","1998","06","25","04:00"
"1998-06-25 05:00","1998","06","25","05:00","19.4","","17.9","","91","","34","","28","","8.0","","100.51","","","","","","Thunderstorms,Rain Showers,Fog"
"1998-06-25 06:00","1998","06","25","06:00","19.7","","18.4","","92","","","","0","","12.9","","100.48","","","","","","Thunderstorms"
"1998-06-25 07:00","1998","06","25","07:00","19.5","","18.6","","95","","16","","7","","12.9","","100.48","","","","","","Thunderstorms,Rain Showers"
"1998-06-25 08:00","1998","06","25","08:00","20.5","","19.3","","93","","19","","19","","12.9","","100.44","","28","","","","Thunderstorms,Rain Showers"
"1998-06-25 09:00","1998","06","25","09:00","20.6","","19.2","","92","","21","","9","","9.7","","100.51","","28","","","","Thunderstorms,Rain Showers,Fog"
"1998-06-25 10:00","1998","06","25","10:00","20.8","","19.2","","91","","20","","28","","9.7","","100.54","","28","","","","Thunderstorms,Fog"
"1998-06-25 11:00","1998","06","25","11:00","22.1","","20.9","","93","","19","","19","","9.7","","100.44","","30","","","","Fog"
"1998-06-25 12:00","1998","06","25","12:00","21.3","","20.1","","93","","19","","15","","9.7","","100.44","","29","","","","Fog"
"1998-06-25 13:00","1998","06","25","13:00","22.3","","21.1","","93","","19","","13","","9.7","","100.38","","31","","","","Fog"
"1998-06-25 14:00","1998","06","25","14:00","23.2","","21.5","","90","","21","","9","","11.3","","100.34","","32","","","","Cloudy"
"1998-06-25 15:00","1998","06","25","15:00","23.5","","21.3","","87","","16","","11","","16.1","","100.18","","32","","","","Cloudy"
"1998-06-25 16:00","1998","06","25","16:00","24.1","","22.0","","88","","","","0","","16.1","","100.14","","33","","","","Cloudy"
"1998-06-25 17:00","1998","06","25","17:00","24.0","","21.3","","85","","24","","4","","16.1","","100.04","","33","","","","Cloudy"
"1998-06-25 18:00","1998","06","25","18:00","24.4","","21.1","","82","","27","","6","","19.3","","100.11","","33","","","","Thunderstorms"
"1998-06-25 19:00","1998","06","25","19:00","24.7","","21.3","","81","","23","","22","","19.3","","99.97","","33","","","","Cloudy"
"1998-06-25 20:00","1998","06","25","20:00","23.7","","22.2","","91","","26","","11","","16.1","","99.94","","33","","","","Cloudy"
"1998-06-25 21:00","1998","06","25","21:00","23.7","","22.3","","92","","23","","9","","12.9","","99.91","","33","","","","Cloudy"
"1998-06-25 22:00","1998","06","25","22:00","23.5","","22.5","","94","","20","","6","","12.9","","99.81","","33","","","","Cloudy"
"1998-06-25 23:00","1998","06","25","23:00"
"1998-06-26 00:00","1998","06","26","00:00"
"1998-06-26 01:00","1998","06","26","01:00"
"1998-06-26 02:00","1998","06","26","02:00"
"1998-06-26 03:00","1998","06","26","03:00"
"1998-06-26 04:00","1998","06","26","04:00"
"1998-06-26 05:00","1998","06","26","05:00","20.2","","18.4","","89","","21","","22","","19.3","","99.64","","27","","","","Cloudy"
"1998-06-26 06:00","1998","06","26","06:00","20.0","","18.6","","92","","34","","9","","19.3","","99.74","","26","","","","Cloudy"
"1998-06-26 07:00","1998","06","26","07:00","20.6","","19.2","","92","","25","","11","","9.7","","99.91","","28","","","","Rain Showers,Fog"
"1998-06-26 08:00","1998","06","26","08:00","20.0","","18.3","","90","","21","","24","","11.3","","99.74","","26","","","","Mostly Cloudy"
"1998-06-26 09:00","1998","06","26","09:00","21.9","","20.2","","90","","23","","26","","16.1","","99.74","","30","","","","Cloudy"
"1998-06-26 10:00","1998","06","26","10:00","21.6","","20.2","","92","","21","","19","","19.3","","99.64","","29","","","","Cloudy"
"1998-06-26 11:00","1998","06","26","11:00","21.9","","20.4","","91","","23","","19","","19.3","","99.54","","30","","","","Cloudy"
"1998-06-26 12:00","1998","06","26","12:00","20.6","","19.2","","92","","18","","15","","12.9","","99.50","","28","","","","Cloudy"
"1998-06-26 13:00","1998","06","26","13:00","21.2","","20.1","","93","","21","","19","","12.9","","99.37","","29","","","","Cloudy"
"1998-06-26 14:00","1998","06","26","14:00","21.7","","20.5","","93","","19","","13","","16.1","","99.34","","30","","","","Cloudy"
"1998-06-26 15:00","1998","06","26","15:00","22.3","","21.1","","93","","18","","15","","8.0","","99.20","","31","","","","Haze"
"1998-06-26 16:00","1998","06","26","16:00","21.5","","20.2","","92","","","","0","","8.0","","99.17","","29","","","","Thunderstorms,Rain Showers"
"1998-06-26 17:00","1998","06","26","17:00","21.8","","20.4","","92","","28","","7","","12.9","","99.24","","30","","","","Thunderstorms"
"1998-06-26 18:00","1998","06","26","18:00","22.0","","21.0","","94","","","","0","","16.1","","99.17","","30","","","","Mostly Cloudy"
"1998-06-26 19:00","1998","06","26","19:00","22.1","","20.7","","92","","25","","7","","16.1","","99.17","","30","","","","Mostly Cloudy"
"1998-06-26 20:00","1998","06","26","20:00","21.5","","20.3","","93","","28","","7","","24.1","","99.17","","29","","","","Mainly Clear"
"1998-06-26 21:00","1998","06","26","21:00","21.1","","19.6","","91","","26","","13","","24.1","","99.17","","28","","","","Mainly Clear"
"1998-06-26 22:00","1998","06","26","22:00","20.7","","18.5","","87","","27","","15","","24.1","","99.17","","27","","","","Mainly Clear"
"1998-06-26 23:00","1998","06","26","23:00"
"1998-06-27 00:00","1998","06","27","00:00"
"1998-06-27 01:00","1998","06","27","01:00"
"1998-06-27 02:00","1998","06","27","02:00"
"1998-06-27 03:00","1998","06","27","03:00"
"1998-06-27 04:00","1998","06","27","04:00"
"1998-06-27 05:00","1998","06","27","05:00","20.3","","19.0","","92","","36","","19","","24.1","","99.37","","27","","","","Mostly Cloudy"
"1998-06-27 06:00","1998","06","27","06:00","20.6","","19.4","","93","","34","","15","","24.1","","99.44","","28","","","","Mostly Cloudy"
"1998-06-27 07:00","1998","06","27","07:00","21.4","","19.8","","91","","34","","28","","24.1","","99.50","","29","","","","Mostly Cloudy"
"1998-06-27 08:00","1998","06","27","08:00","22.3","","19.2","","83","","36","","19","","24.1","","99.60","","29","","","","Mostly Cloudy"
"1998-06-27 09:00","1998","06","27","09:00","22.7","","18.1","","75","","3","","19","","24.1","","99.64","","29","","","","Mostly Cloudy"
"1998-06-27 10:00","1998","06","27","10:00","22.4","","18.9","","81","","5","","22","","24.1","","99.71","","29","","","","Mostly Cloudy"
"1998-06-27 11:00","1998","06","27","11:00","23.4","","18.3","","73","","3","","26","","24.1","","99.81","","30","","","","Mostly Cloudy"
"1998-06-27 12:00","1998","06","27","12:00","24.3","","19.2","","73","","5","","19","","24.1","","99.84","","31","","","","Mostly Cloudy"
"1998-06-27 13:00","1998","06","27","13:00","24.8","","18.4","","68","","3","","9","","24.1","","99.91","","31","","","","Mostly Cloudy"
"1998-06-27 14:00","1998","06","27","14:00","25.6","","19.2","","68","","3","","13","","24.1","","99.91","","33","","","","Mainly Clear"
"1998-06-27 15:00","1998","06","27","15:00","24.8","","19.0","","70","","20","","15","","24.1","","100.04","","32","","","","Mostly Cloudy"
"1998-06-27 16:00","1998","06","27","16:00","23.9","","18.6","","72","","21","","13","","24.1","","100.01","","30","","","","Mostly Cloudy"
"1998-06-27 17:00","1998","06","27","17:00","24.6","","19.5","","73","","15","","6","","24.1","","100.01","","32","","","","Mostly Cloudy"
"1998-06-27 18:00","1998","06","27","18:00","23.6","","18.9","","75","","20","","9","","24.1","","100.01","","30","","","","Cloudy"
"1998-06-27 19:00","1998","06","27","19:00","23.9","","19.7","","77","","23","","6","","24.1","","100.04","","31","","","","Cloudy"
"1998-06-27 20:00","1998","06","27","20:00","22.1","","18.4","","80","","25","","9","","24.1","","100.07","","28","","","","Mostly Cloudy"
"1998-06-27 21:00","1998","06","27","21:00","21.1","","18.1","","83","","35","","6","","24.1","","100.11","","27","","","","Mainly Clear"
"1998-06-27 22:00","1998","06","27","22:00","20.0","","17.9","","88","","33","","6","","24.1","","100.14","","26","","","","Mainly Clear"
"1998-06-27 23:00","1998","06","27","23:00"
"1998-06-28 00:00","1998","06","28","00:00"
"1998-06-28 01:00","1998","06","28","01:00"
"1998-06-28 02:00","1998","06","28","02:00"
"1998-06-28 03:00","1998","06","28","03:00"
"1998-06-28 04:00","1998","06","28","04:00"
"1998-06-28 05:00","1998","06","28","05:00","18.6","","17.1","","91","","5","","9","","16.1","","100.31","","","","","","Mainly Clear"
"1998-06-28 06:00","1998","06","28","06:00","19.5","","17.8","","90","","8","","9","","19.3","","100.41","","","","","","Mainly Clear"
"1998-06-28 07:00","1998","06","28","07:00","20.5","","18.1","","86","","8","","9","","16.1","","100.48","","27","","","","Mainly Clear"
"1998-06-28 08:00","1998","06","28","08:00","20.8","","19.0","","89","","16","","9","","16.1","","100.51","","28","","","","Mainly Clear"
"1998-06-28 09:00","1998","06","28","09:00","21.6","","19.3","","87","","19","","9","","16.1","","100.51","","29","","","","Mainly Clear"
"1998-06-28 10:00","1998","06","28","10:00","20.1","","18.5","","91","","19","","17","","1.6","","100.51","","26","","","","Fog"
"1998-06-28 11:00","1998","06","28","11:00","20.2","","18.9","","92","","15","","13","","6.4","","100.51","","27","","","","Fog"
"1998-06-28 12:00","1998","06","28","12:00","20.6","","19.5","","93","","15","","9","","19.3","","100.44","","28","","","","Mainly Clear"
"1998-06-28 13:00","1998","06","28","13:00","20.7","","19.5","","93","","19","","13","","16.1","","100.41","","28","","","","Mainly Clear"
"1998-06-28 14:00","1998","06","28","14:00","21.9","","20.7","","93","","18","","7","","16.1","","100.34","","30","","","","Mainly Clear"
"1998-06-28 15:00","1998","06","28","15:00","23.5","","20.8","","85","","20","","9","","16.1","","100.31","","32","","","","Mostly Cloudy"
"1998-06-28 16:00","1998","06","28","16:00","24.1","","18.7","","72","","17","","4","","16.1","","100.28","","31","","","","Mostly Cloudy"
"1998-06-28 17:00","1998","06","28","17:00","25.8","","20.1","","71","","26","","4","","16.1","","100.28","","33","","","","Cloudy"
"1998-06-28 18:00","1998","06","28","18:00","24.6","","18.0","","67","","","","0","","16.1","","100.21","","31","","","","Cloudy"
"1998-06-28 19:00","1998","06","28","19:00","24.9","","17.5","","63","","","","0","","16.1","","100.21","","31","","","","Cloudy"
"1998-06-28 20:00","1998","06","28","20:00","24.1","","17.0","","65","","10","","9","","16.1","","100.14","","29","","","","Mostly Cloudy"
"1998-06-28 21:00","1998","06","28","21:00","24.2","","19.2","","74","","10","","15","","16.1","","100.14","","31","","","","Cloudy"
"1998-06-28 22:00","1998","06","28","22:00","24.0","","19.4","","75","","10","","15","","16.1","","100.11","","31","","","","Cloudy"
"1998-06-28 23:00","1998","06","28","23:00"
"1998-06-29 00:00","1998","06","29","00:00"
"1998-06-29 01:00","1998","06","29","01:00"
"1998-06-29 02:00","1998","06","29","02:00"
"1998-06-29 03:00","1998","06","29","03:00"
"1998-06-29 04:00","1998","06","29","04:00"
"1998-06-29 05:00","1998","06","29","05:00","20.1","","18.6","","91","","20","","19","","11.3","","99.94","","27","","","","Mostly Cloudy"
"1998-06-29 06:00","1998","06","29","06:00","20.2","","18.6","","91","","21","","9","","19.3","","99.91","","27","","","","Cloudy"
"1998-06-29 07:00","1998","06","29","07:00","20.0","","18.5","","91","","19","","9","","19.3","","99.87","","26","","","","Cloudy"
"1998-06-29 08:00","1998","06","29","08:00","20.5","","18.9","","91","","21","","15","","12.9","","99.81","","27","","","","Cloudy"
"1998-06-29 09:00","1998","06","29","09:00","21.2","","19.7","","91","","19","","15","","11.3","","99.74","","29","","","","Cloudy"
"1998-06-29 10:00","1998","06","29","10:00","21.1","","19.5","","91","","21","","15","","11.3","","99.74","","28","","","","Cloudy"
"1998-06-29 11:00","1998","06","29","11:00","21.1","","19.5","","91","","21","","19","","6.4","","99.67","","28","","","","Fog"
"1998-06-29 12:00","1998","06","29","12:00","22.1","","20.5","","91","","21","","15","","6.4","","99.60","","30","","","","Fog"
"1998-06-29 13:00","1998","06","29","13:00","23.5","","21.5","","89","","21","","19","","6.4","","99.54","","32","","","","Fog"
"1998-06-29 14:00","1998","06","29","14:00","26.5","","23.3","","83","","24","","30","","9.7","","99.47","","37","","","","Fog"
"1998-06-29 15:00","1998","06","29","15:00","27.6","","19.9","","63","","24","","28","","16.1","","99.37","","35","","","","Mainly Clear"
"1998-06-29 16:00","1998","06","29","16:00","28.0","","19.0","","58","","25","","28","","19.3","","99.34","","35","","","","Mainly Clear"
"1998-06-29 17:00","1998","06","29","17:00","27.9","","18.6","","57","","24","","19","","24.1","","99.27","","34","","","","Mainly Clear"
"1998-06-29 18:00","1998","06","29","18:00","26.7","","18.1","","59","","24","","28","","24.1","","99.27","","33","","","","Mainly Clear"
"1998-06-29 19:00","1998","06","29","19:00","25.4","","18.5","","66","","25","","19","","24.1","","99.34","","32","","","","Mostly Cloudy"
"1998-06-29 20:00","1998","06","29","20:00","24.5","","17.5","","65","","25","","9","","24.1","","99.24","","30","","","","Mostly Cloudy"
"1998-06-29 21:00","1998","06","29","21:00","24.1","","16.7","","63","","24","","11","","24.1","","99.20","","29","","","","Mostly Cloudy"
"1998-06-29 22:00","1998","06","29","22:00","22.6","","16.5","","68","","33","","9","","24.1","","99.20","","28","","","","Mostly Cloudy"
"1998-06-29 23:00","1998","06","29","23:00"
"1998-06-30 00:00","1998","06","30","00:00"
"1998-06-30 01:00","1998","06","30","01:00"
"1998-06-30 02:00","1998","06","30","02:00"
"1998-06-30 03:00","1998","06","30","03:00"
"1998-06-30 04:00","1998","06","30","04:00"
"1998-06-30 05:00","1998","06","30","05:00","20.1","","16.7","","81","","21","","19","","24.1","","98.87","","25","","","","Mostly Cloudy"
"1998-06-30 06:00","1998","06","30","06:00","20.5","","17.5","","83","","20","","15","","24.1","","98.83","","26","","","","Cloudy"
"1998-06-30 07:00","1998","06","30","07:00","20.6","","18.0","","85","","27","","9","","11.3","","98.80","","27","","","","Cloudy"
"1998-06-30 08:00","1998","06","30","08:00","20.8","","18.5","","87","","21","","6","","12.9","","98.77","","27","","","","Thunderstorms,Rain Showers"
"1998-06-30 09:00","1998","06","30","09:00","20.7","","18.2","","86","","24","","19","","9.7","","98.77","","27","","","","Thunderstorms,Rain Showers"
"1998-06-30 10:00","1998","06","30","10:00","18.0","","16.5","","91","","25","","13","","6.4","","98.77","","","","","","Thunderstorms,Rain Showers,Fog"
"1998-06-30 11:00","1998","06","30","11:00","18.2","","17.0","","93","","13","","9","","19.3","","98.63","","","","","","Rain Showers"
"1998-06-30 12:00","1998","06","30","12:00","19.6","","18.1","","91","","26","","9","","24.1","","98.63","","","","","","Mostly Cloudy"
"1998-06-30 13:00","1998","06","30","13:00","20.7","","18.4","","87","","18","","13","","24.1","","98.63","","27","","","","Mostly Cloudy"
"1998-06-30 14:00","1998","06","30","14:00","19.7","","17.8","","89","","20","","11","","24.1","","98.60","","","","","","Mostly Cloudy"
"1998-06-30 15:00","1998","06","30","15:00","20.7","","18.8","","89","","18","","22","","24.1","","98.53","","27","","","","Cloudy"
"1998-06-30 16:00","1998","06","30","16:00","19.7","","17.8","","89","","22","","9","","24.1","","98.53","","","","","","Thunderstorms"
"1998-06-30 17:00","1998","06","30","17:00","21.4","","19.2","","87","","30","","9","","24.1","","98.50","","28","","","","Mostly Cloudy"
"1998-06-30 18:00","1998","06","30","18:00","19.6","","17.2","","86","","29","","9","","24.1","","98.53","","","","","","Mostly Cloudy"
"1998-06-30 19:00","1998","06","30","19:00","19.6","","17.1","","85","","28","","7","","24.1","","98.46","","","","","","Mostly Cloudy"
"1998-06-30 20:00","1998","06","30","20:00","19.5","","17.0","","85","","29","","24","","24.1","","98.46","","","","","","Mostly Cloudy"
"1998-06-30 21:00","1998","06","30","21:00","18.3","","15.1","","82","","33","","28","","24.1","","98.50","","","","","","Mostly Cloudy"
"1998-06-30 22:00","1998","06","30","22:00","17.6","","14.7","","83","","33","","28","","24.1","","98.53","","","","","","Mostly Cloudy"
"1998-06-30 23:00","1998","06","30","23:00"
