"Station Name","KINGSTON A"
"Province","ONTARIO"
"Latitude","44.23"
"Longitude","-76.60"
"Elevation","92.40"
"Climate Identifier","6104149"
"WMO Identifier",""
"TC Identifier","YGK"
"All times are specified in Local Standard Time (LST). Add 1 hour to adjust for Daylight Saving Time where and when it is observed."

"Legend"
"E","Estimated"
"M","Missing"
"NA","Not Available"

"Date/Time","Year","Month","Day","Time","Temp (°C)","Temp Flag","Dew Point Temp (°C)","Dew Point Temp Flag","Rel Hum (%)","Rel Hum Flag","Wind Dir (10s deg)","Wind Dir Flag","Wind Spd (km/h)","Wind Spd Flag","Visibility (km)","Visibility Flag","Stn Press (kPa)","Stn Press Flag","Hmdx","Hmdx Flag","Wind Chill","Wind Chill Flag","Weather"
"2017-03-01 00:00","2017","03","01","00:00"
"2017-03-01 01:00","2017","03","01","01:00"
"2017-03-01 02:00","2017","03","01","02:00"
"2017-03-01 03:00","2017","03","01","03:00"
"2017-03-01 04:00","2017","03","01","04:00"
"2017-03-01 05:00","2017","03","01","05:00"
"2017-03-01 06:00","2017","03","01","06:00","6.1","","5.4","","95","","15","","29","","6.4","","98.68","","","","","","Moderate Rain,Fog"
"2017-03-01 07:00","2017","03","01","07:00","6.3","","5.6","","95","","16","","28","","24.1","","98.53","","","","","","Cloudy"
"2017-03-01 08:00","2017","03","01","08:00","7.9","","6.9","","93","","23","","14","","24.1","","98.61","","","","","","NA"
"2017-03-01 09:00","2017","03","01","09:00","7.7","","6.2","","90","","19","","27","","19.3","","98.44","","","","","","NA"
"2017-03-01 10:00","2017","03","01","10:00","6.1","","5.2","","94","","16","","36","","24.1","","98.12","","","","","","Mostly Cloudy"
"2017-03-01 11:00","2017","03","01","11:00","7.0","","6.0","","93","","18","","26","","24.1","","98.12","","","","","","NA"
"2017-03-01 12:00","2017","03","01","12:00","12.7","","11.0","","89","","26","","12","","24.1","","98.16","","","","","","NA"
"2017-03-01 13:00","2017","03","01","13:00","11.3","","8.7","","84","","23","","30","","24.1","","98.15","","","","","","Cloudy"
"2017-03-01 14:00","2017","03","01","14:00","10.0","","7.3","","83","","25","","24","","24.1","","98.07","","","","","","NA"
"2017-03-01 15:00","2017","03","01","15:00","11.6","","7.7","","77","","24","","24","","24.1","","98.07","","","","","","NA"
"2017-03-01 16:00","2017","03","01","16:00","11.1","","7.8","","80","","25","","28","","24.1","","98.00","","","","","","Cloudy"
"2017-03-01 17:00","2017","03","01","17:00","10.3","","7.2","","81","","25","","18","","12.9","","97.98","","","","","","NA"
"2017-03-01 18:00","2017","03","01","18:00","10.1","","8.6","","90","","23","","27","","24.1","","97.93","","","","","","NA"
"2017-03-01 19:00","2017","03","01","19:00","5.9","","4.9","","93","","20","","17","","24.1","","97.88","","","","","","Cloudy"
"2017-03-01 20:00","2017","03","01","20:00","9.2","","6.7","","84","","22","","20","","24.1","","97.80","","","","","","NA"
"2017-03-01 21:00","2017","03","01","21:00","8.8","","5.0","","77","","24","","41","","24.1","","97.85","","","","","","NA"
"2017-03-01 22:00","2017","03","01","22:00","7.7","","4.7","","81","","24","","49","","24.1","","97.90","","","","","","Rain Showers"
"2017-03-01 23:00","2017","03","01","23:00","5.2","","2.2","","81","","24","","43","","19.3","","98.04","","","","","","Rain Showers"
"2017-03-02 00:00","2017","03","02","00:00"
"2017-03-02 01:00","2017","03","02","01:00"
"2017-03-02 02:00","2017","03","02","02:00"
"2017-03-02 03:00","2017","03","02","03:00"
"2017-03-02 04:00","2017","03","02","04:00"
"2017-03-02 05:00","2017","03","02","05:00"
"2017-03-02 06:00","2017","03","02","06:00","-8.4","","-12.9","","70","","31","","34","","4.0","","99.14","","","","-18","","Snow,Blowing Snow"
"2017-03-02 07:00","2017","03","02","07:00","-9.8","","-13.0","","78","","31","","26","","1.2","","99.40","","","","-19","","Snow,Blowing Snow"
"2017-03-02 08:00","2017","03","02","08:00","-9.8","","-16.2","","60","","31","","28","","24.1","","99.59","","","","-19","","NA"
"2017-03-02 09:00","2017","03","02","09:00","-9.6","","-15.8","","61","","30","","31","","24.1","","99.78","","","","-19","","NA"
"2017-03-02 10:00","2017","03","02","10:00","-8.8","","-14.6","","63","","30","","25","","24.1","","99.93","","","","-17","","Cloudy"
"2017-03-02 11:00","2017","03","02","11:00","-7.9","","-15.7","","54","","30","","31","","24.1","","100.04","","","","-17","","NA"
"2017-03-02 12:00","2017","03","02","12:00","-6.0","","-15.1","","49","","29","","29","","24.1","","100.12","","","","-14","","NA"
"2017-03-02 13:00","2017","03","02","13:00","-4.8","","-14.2","","48","","30","","26","","24.1","","100.16","","","","-12","","Mostly Cloudy"
"2017-03-02 14:00","2017","03","02","14:00","-4.0","","-14.3","","45","","27","","15","","24.1","","100.25","","","","-9","","NA"
"2017-03-02 15:00","2017","03","02","15:00","-3.2","","-14.4","","42","","29","","24","","24.1","","100.30","","","","-10","","NA"
"2017-03-02 16:00","2017","03","02","16:00","-3.0","","-15.5","","38","","29","","19","","24.1","","100.38","","","","-9","","Mainly Clear"
"2017-03-02 17:00","2017","03","02","17:00","-3.5","","-15.6","","39","","28","","17","","24.1","","100.47","","","","-9","","NA"
"2017-03-02 18:00","2017","03","02","18:00","-3.9","","-15.3","","41","","28","","20","","24.1","","100.57","","","","-10","","NA"
"2017-03-02 19:00","2017","03","02","19:00","-4.7","","-14.9","","45","","29","","16","","24.1","","100.72","","","","-10","","Cloudy"
"2017-03-02 20:00","2017","03","02","20:00","-5.2","","-14.6","","48","","30","","16","","24.1","","100.80","","","","-11","","NA"
"2017-03-02 21:00","2017","03","02","21:00","-5.9","","-15.0","","49","","30","","21","","24.1","","100.87","","","","-13","","NA"
"2017-03-02 22:00","2017","03","02","22:00","-6.7","","-14.6","","54","","31","","21","","24.1","","100.93","","","","-14","","Cloudy"
"2017-03-02 23:00","2017","03","02","23:00","-7.2","","-14.4","","57","","32","","15","","24.1","","100.99","","","","-13","","NA"
"2017-03-03 00:00","2017","03","03","00:00"
"2017-03-03 01:00","2017","03","03","01:00"
"2017-03-03 02:00","2017","03","03","02:00"
"2017-03-03 03:00","2017","03","03","03:00"
"2017-03-03 04:00","2017","03","03","04:00"
"2017-03-03 05:00","2017","03","03","05:00"
"2017-03-03 06:00","2017","03","03","06:00","-11.9","","-18.8","","57","","1","","7","","24.1","","101.22","","","","-16","","NA"
"2017-03-03 07:00","2017","03","03","07:00","-11.8","","-17.9","","61","","3","","5","","24.1","","101.25","","","","-15","","Mostly Cloudy"
"2017-03-03 08:00","2017","03","03","08:00","-10.9","","-18.3","","55","","6","","4","","24.1","","101.29","","","","-13","","NA"
"2017-03-03 09:00","2017","03","03","09:00","-9.7","","-19.3","","46","","13","","7","","24.1","","101.26","","","","-14","","NA"
"2017-03-03 10:00","2017","03","03","10:00","-8.7","","-16.9","","52","","10","","6","","24.1","","101.24","","","","-12","","Cloudy"
"2017-03-03 11:00","2017","03","03","11:00","-8.8","","-13.9","","67","","25","","4","","3.2","","101.28","","","","-11","","Snow"
"2017-03-03 12:00","2017","03","03","12:00","-7.9","","-13.6","","64","","17","","3","","8.1","","101.26","","","","-9","","Snow"
"2017-03-03 13:00","2017","03","03","13:00","-6.8","","-12.1","","66","","15","","9","","9.7","","101.21","","","","-11","","Snow"
"2017-03-03 14:00","2017","03","03","14:00","-7.4","","-10.9","","76","","34","","22","","1.6","","101.24","","","","-15","","Snow Showers"
"2017-03-03 15:00","2017","03","03","15:00","-7.2","","-12.9","","64","","34","","21","","8.1","","101.37","","","","-15","","Snow Showers"
"2017-03-03 16:00","2017","03","03","16:00","-7.9","","-12.8","","68","","31","","22","","4.8","","101.52","","","","-16","","Snow Showers"
"2017-03-03 17:00","2017","03","03","17:00","-9.3","","-12.6","","77","","31","","16","","2.4","","101.67","","","","-16","","Snow Showers"
"2017-03-03 18:00","2017","03","03","18:00","-9.9","","-15.7","","63","","32","","23","","12.9","","101.80","","","","-18","","Snow Showers"
"2017-03-03 19:00","2017","03","03","19:00","-10.6","","-17.4","","58","","31","","19","","19.3","","101.93","","","","-18","","Mainly Clear"
"2017-03-03 20:00","2017","03","03","20:00","-11.5","","-17.8","","60","","31","","10","","24.1","","101.99","","","","-17","","NA"
"2017-03-03 21:00","2017","03","03","21:00","-11.8","","-18.7","","57","","33","","17","","24.1","","102.09","","","","-19","","NA"
"2017-03-03 22:00","2017","03","03","22:00","-12.6","","-18.3","","63","","33","","14","","24.1","","102.15","","","","-20","","Clear"
"2017-03-03 23:00","2017","03","03","23:00","-13.3","","-19.5","","60","","31","","7","","24.1","","102.16","","","","-18","","NA"
"2017-03-04 00:00","2017","03","04","00:00"
"2017-03-04 01:00","2017","03","04","01:00"
"2017-03-04 02:00","2017","03","04","02:00"
"2017-03-04 03:00","2017","03","04","03:00"
"2017-03-04 04:00","2017","03","04","04:00"
"2017-03-04 05:00","2017","03","04","05:00"
"2017-03-04 06:00","2017","03","04","06:00","-14.3","","-19.7","","64","","34","","18","","24.1","","102.31","","","","-23","","NA"
"2017-03-04 07:00","2017","03","04","07:00","-15.0","","-22.0","","56","","34","","29","","24.1","","102.41","","","","-26","","Clear"
"2017-03-04 08:00","2017","03","04","08:00","-15.1","","-22.3","","55","","35","","22","","24.1","","102.52","","","","-25","","NA"
"2017-03-04 09:00","2017","03","04","09:00","-14.4","","-21.8","","54","","34","","22","","24.1","","102.58","","","","-24","","NA"
"2017-03-04 10:00","2017","03","04","10:00","-14.3","","-22.8","","49","","34","","25","","24.1","","102.68","","","","-24","","Clear"
"2017-03-04 11:00","2017","03","04","11:00","-13.7","","-23.3","","45","","34","","21","","24.1","","102.77","","","","-23","","NA"
"2017-03-04 12:00","2017","03","04","12:00","-12.5","","-22.4","","44","","30","","18","","24.1","","102.80","","","","-21","","NA"
"2017-03-04 13:00","2017","03","04","13:00","-12.1","","-23.4","","39","","31","","21","","24.1","","102.80","","","","-21","","Clear"
"2017-03-04 14:00","2017","03","04","14:00","-11.2","","-23.5","","36","","35","","16","","24.1","","102.78","","","","-18","","NA"
"2017-03-04 15:00","2017","03","04","15:00","-10.6","","-24.4","","32","","35","","16","","24.1","","102.77","","","","-18","","NA"
"2017-03-04 16:00","2017","03","04","16:00","-9.9","","-23.7","","32","","35","","13","","24.1","","102.78","","","","-16","","Clear"
"2017-03-04 17:00","2017","03","04","17:00","-10.1","","-25.0","","29","","32","","14","","24.1","","102.79","","","","-17","","NA"
"2017-03-04 18:00","2017","03","04","18:00","-10.8","","-24.5","","32","","33","","14","","24.1","","102.80","","","","-17","","NA"
"2017-03-04 19:00","2017","03","04","19:00","-11.6","","-23.6","","37","","1","","6","","24.1","","102.82","","","","-15","","Clear"
"2017-03-04 20:00","2017","03","04","20:00","-12.2","","-22.7","","42","","34","","9","","24.1","","102.87","","","","-17","","NA"
"2017-03-04 21:00","2017","03","04","21:00","-12.8","","-23.2","","42","","3","","9","","24.1","","102.94","","","","-18","","NA"
"2017-03-04 22:00","2017","03","04","22:00","-13.6","","-22.7","","47","","4","","8","","24.1","","102.97","","","","-19","","Clear"
"2017-03-04 23:00","2017","03","04","23:00","-14.3","","-22.6","","50","","4","","9","","24.1","","102.96","","","","-20","","NA"
"2017-03-05 00:00","2017","03","05","00:00"
"2017-03-05 01:00","2017","03","05","01:00"
"2017-03-05 02:00","2017","03","05","02:00"
"2017-03-05 03:00","2017","03","05","03:00"
"2017-03-05 04:00","2017","03","05","04:00"
"2017-03-05 05:00","2017","03","05","05:00"
"2017-03-05 06:00","2017","03","05","06:00","-16.9","","-22.4","","63","","3","","6","","24.1","","103.11","","","","-21","","NA"
"2017-03-05 07:00","2017","03","05","07:00","-16.9","","-21.8","","66","","36","","8","","24.1","","103.16","","","","-23","","Clear"
"2017-03-05 08:00","2017","03","05","08:00","-15.1","","-21.2","","60","","4","","12","","24.1","","103.13","","","","-22","","NA"
"2017-03-05 09:00","2017","03","05","09:00","-13.6","","-21.7","","51","","5","","10","","24.1","","103.16","","","","-20","","NA"
"2017-03-05 10:00","2017","03","05","10:00","-11.6","","-20.8","","47","","7","","11","","24.1","","103.11","","","","-18","","Clear"
"2017-03-05 11:00","2017","03","05","11:00","-10.4","","-20.0","","46","","12","","6","","24.1","","103.03","","","","-14","","NA"
"2017-03-05 12:00","2017","03","05","12:00","-9.3","","-18.7","","47","","14","","13","","24.1","","102.90","","","","-15","","NA"
"2017-03-05 13:00","2017","03","05","13:00","-8.0","","-19.4","","40","","16","","15","","24.1","","102.79","","","","-14","","Mainly Clear"
"2017-03-05 14:00","2017","03","05","14:00","-7.2","","-19.3","","38","","15","","15","","24.1","","102.67","","","","-13","","NA"
"2017-03-05 15:00","2017","03","05","15:00","-7.3","","-17.1","","46","","18","","12","","24.1","","102.61","","","","-13","","NA"
"2017-03-05 16:00","2017","03","05","16:00","-6.7","","-16.3","","47","","20","","10","","24.1","","102.53","","","","-11","","Mainly Clear"
"2017-03-05 17:00","2017","03","05","17:00","-6.7","","-16.8","","45","","24","","7","","24.1","","102.52","","","","-10","","NA"
"2017-03-05 18:00","2017","03","05","18:00","-7.4","","-17.4","","45","","28","","3","","24.1","","102.48","","","","-9","","NA"
"2017-03-05 19:00","2017","03","05","19:00","-7.3","","-16.1","","50","","34","","3","","24.1","","102.45","","","","-9","","Mostly Cloudy"
"2017-03-05 20:00","2017","03","05","20:00","-7.6","","-17.1","","47","","6","","5","","24.1","","102.38","","","","-10","","NA"
"2017-03-05 21:00","2017","03","05","21:00","-7.2","","-15.3","","53","","7","","12","","24.1","","102.27","","","","-13","","NA"
"2017-03-05 22:00","2017","03","05","22:00","-6.2","","-15.8","","47","","9","","18","","24.1","","102.21","","","","-13","","Mostly Cloudy"
"2017-03-05 23:00","2017","03","05","23:00","-6.7","","-15.7","","49","","9","","20","","24.1","","102.17","","","","-14","","NA"
"2017-03-06 00:00","2017","03","06","00:00"
"2017-03-06 01:00","2017","03","06","01:00"
"2017-03-06 02:00","2017","03","06","02:00"
"2017-03-06 03:00","2017","03","06","03:00"
"2017-03-06 04:00","2017","03","06","04:00"
"2017-03-06 05:00","2017","03","06","05:00"
"2017-03-06 06:00","2017","03","06","06:00","-5.9","","-13.1","","57","","6","","13","","24.1","","101.81","","","","-11","","NA"
"2017-03-06 07:00","2017","03","06","07:00","-5.6","","-13.7","","53","","5","","14","","24.1","","101.82","","","","-11","","Cloudy"
"2017-03-06 08:00","2017","03","06","08:00","-5.0","","-13.2","","53","","6","","13","","24.1","","101.79","","","","-10","","NA"
"2017-03-06 09:00","2017","03","06","09:00","-3.8","","-12.5","","51","","6","","13","","24.1","","101.75","","","","-9","","NA"
"2017-03-06 10:00","2017","03","06","10:00","-2.1","","-12.8","","44","","7","","13","","24.1","","101.70","","","","-7","","Cloudy"
"2017-03-06 11:00","2017","03","06","11:00","-0.9","","-12.9","","40","","6","","14","","24.1","","101.59","","","","-5","","NA"
"2017-03-06 12:00","2017","03","06","12:00","0.5","","-13.3","","35","","5","","12","","24.1","","101.53","","","","","","NA"
"2017-03-06 13:00","2017","03","06","13:00","1.5","","-12.4","","35","","7","","13","","24.1","","101.42","","","","","","Cloudy"
"2017-03-06 14:00","2017","03","06","14:00","2.3","","-12.4","","33","","6","","12","","24.1","","101.36","","","","","","NA"
"2017-03-06 15:00","2017","03","06","15:00","2.7","","-12.8","","31","","4","","10","","24.1","","101.32","","","","","","NA"
"2017-03-06 16:00","2017","03","06","16:00","3.2","","-12.8","","30","","5","","9","","24.1","","101.29","","","","","","Mostly Cloudy"
"2017-03-06 17:00","2017","03","06","17:00","2.3","","-11.0","","37","","6","","14","","24.1","","101.24","","","","","","NA"
"2017-03-06 18:00","2017","03","06","18:00","2.0","","-9.9","","41","","6","","11","","24.1","","101.21","","","","","","NA"
"2017-03-06 19:00","2017","03","06","19:00","1.5","","-10.4","","41","","6","","14","","24.1","","101.20","","","","","","Cloudy"
"2017-03-06 20:00","2017","03","06","20:00","1.4","","-9.9","","43","","5","","12","","24.1","","101.18","","","","","","NA"
"2017-03-06 21:00","2017","03","06","21:00","1.2","","-8.6","","48","","4","","18","","24.1","","101.15","","","","","","NA"
"2017-03-06 22:00","2017","03","06","22:00","1.2","","-7.4","","53","","5","","14","","24.1","","101.11","","","","","","Cloudy"
"2017-03-06 23:00","2017","03","06","23:00","1.8","","-6.6","","54","","7","","12","","24.1","","101.04","","","","","","NA"
"2017-03-07 00:00","2017","03","07","00:00"
"2017-03-07 01:00","2017","03","07","01:00"
"2017-03-07 02:00","2017","03","07","02:00"
"2017-03-07 03:00","2017","03","07","03:00"
"2017-03-07 04:00","2017","03","07","04:00"
"2017-03-07 05:00","2017","03","07","05:00"
"2017-03-07 06:00","2017","03","07","06:00","2.8","","2.2","","96","","15","","23","","2.4","","100.64","","","","","","Drizzle,Fog"
"2017-03-07 07:00","2017","03","07","07:00","3.0","","2.4","","96","","15","","23","","2.4","","100.57","","","","","","Drizzle,Fog"
"2017-03-07 08:00","2017","03","07","08:00","3.2","","2.6","","96","","16","","27","","6.4","","100.51","","","","","","Fog"
"2017-03-07 09:00","2017","03","07","09:00","3.3","","2.7","","96","","16","","23","","9.7","","100.48","","","","","","Fog"
"2017-03-07 10:00","2017","03","07","10:00","3.5","","2.8","","95","","16","","29","","9.7","","100.37","","","","","","Fog"
"2017-03-07 11:00","2017","03","07","11:00","4.1","","3.2","","94","","17","","35","","8.1","","100.35","","","","","","Rain,Fog"
"2017-03-07 12:00","2017","03","07","12:00","4.1","","3.4","","95","","16","","28","","4.0","","100.26","","","","","","Rain,Fog"
"2017-03-07 13:00","2017","03","07","13:00","4.3","","3.7","","96","","16","","29","","4.0","","100.13","","","","","","Rain,Fog"
"2017-03-07 14:00","2017","03","07","14:00","4.6","","4.0","","96","","16","","33","","9.7","","100.04","","","","","","Rain,Fog"
"2017-03-07 15:00","2017","03","07","15:00","4.7","","4.1","","96","","16","","28","","9.7","","99.99","","","","","","Rain,Fog"
"2017-03-07 16:00","2017","03","07","16:00","4.8","","4.2","","96","","16","","28","","12.9","","99.92","","","","","","Rain"
"2017-03-07 17:00","2017","03","07","17:00","5.4","","4.8","","96","","18","","28","","9.7","","99.91","","","","","","Rain,Fog"
"2017-03-07 18:00","2017","03","07","18:00","5.5","","4.9","","96","","17","","37","","4.8","","99.90","","","","","","Rain,Fog"
"2017-03-07 19:00","2017","03","07","19:00","5.0","","4.4","","96","","17","","27","","9.7","","99.90","","","","","","Rain,Drizzle,Fog"
"2017-03-07 20:00","2017","03","07","20:00","5.1","","4.5","","96","","17","","27","","12.9","","99.82","","","","","","Drizzle"
"2017-03-07 21:00","2017","03","07","21:00","6.3","","5.7","","96","","27","","21","","12.9","","99.84","","","","","","Rain,Drizzle"
"2017-03-07 22:00","2017","03","07","22:00","6.7","","6.0","","95","","21","","14","","6.4","","99.82","","","","","","Rain,Drizzle,Fog"
"2017-03-07 23:00","2017","03","07","23:00","6.6","","6.2","","97","","25","","18","","1.6","","99.84","","","","","","Rain,Fog"
"2017-03-08 00:00","2017","03","08","00:00"
"2017-03-08 01:00","2017","03","08","01:00"
"2017-03-08 02:00","2017","03","08","02:00"
"2017-03-08 03:00","2017","03","08","03:00"
"2017-03-08 04:00","2017","03","08","04:00"
"2017-03-08 05:00","2017","03","08","05:00"
"2017-03-08 06:00","2017","03","08","06:00","1.8","","0.2","","89","","18","","18","","24.1","","100.17","","","","","","NA"
"2017-03-08 07:00","2017","03","08","07:00","2.2","","1.0","","92","","18","","24","","24.1","","100.10","","","","","","Mainly Clear"
"2017-03-08 08:00","2017","03","08","08:00","2.8","","1.3","","90","","19","","23","","24.1","","100.05","","","","","","NA"
"2017-03-08 09:00","2017","03","08","09:00","3.4","","1.9","","90","","18","","24","","24.1","","99.97","","","","","","NA"
"2017-03-08 10:00","2017","03","08","10:00","3.5","","1.9","","89","","19","","22","","24.1","","99.88","","","","","","Mainly Clear"
"2017-03-08 11:00","2017","03","08","11:00","5.7","","1.3","","73","","20","","32","","24.1","","99.73","","","","","","NA"
"2017-03-08 12:00","2017","03","08","12:00","6.4","","1.5","","71","","20","","33","","24.1","","99.61","","","","","","NA"
"2017-03-08 13:00","2017","03","08","13:00","8.4","","-1.4","","50","","23","","36","","24.1","","99.48","","","","","","Mainly Clear"
"2017-03-08 14:00","2017","03","08","14:00","8.4","","-4.4","","40","","24","","50","","24.1","","99.40","","","","","","NA"
"2017-03-08 15:00","2017","03","08","15:00","7.6","","-3.6","","45","","24","","42","","24.1","","99.37","","","","","","NA"
"2017-03-08 16:00","2017","03","08","16:00","7.5","","-4.3","","43","","24","","42","","24.1","","99.33","","","","","","Mostly Cloudy"
"2017-03-08 17:00","2017","03","08","17:00","5.5","","-1.4","","61","","25","","47","","24.1","","99.41","","","","","","Rain Showers"
"2017-03-08 18:00","2017","03","08","18:00","4.8","","-1.9","","62","","25","","22","","24.1","","99.45","","","","","","NA"
"2017-03-08 19:00","2017","03","08","19:00","4.9","","-2.0","","61","","27","","13","","24.1","","99.54","","","","","","Mostly Cloudy"
"2017-03-08 20:00","2017","03","08","20:00","4.5","","-2.4","","61","","23","","16","","24.1","","99.60","","","","","","NA"
"2017-03-08 21:00","2017","03","08","21:00","4.2","","-5.1","","51","","28","","19","","24.1","","99.64","","","","","","NA"
"2017-03-08 22:00","2017","03","08","22:00","3.5","","-5.0","","54","","26","","19","","24.1","","99.70","","","","","","Mostly Cloudy"
"2017-03-08 23:00","2017","03","08","23:00","2.7","","-4.8","","58","","25","","27","","24.1","","99.74","","","","","","NA"
"2017-03-09 00:00","2017","03","09","00:00"
"2017-03-09 01:00","2017","03","09","01:00"
"2017-03-09 02:00","2017","03","09","02:00"
"2017-03-09 03:00","2017","03","09","03:00"
"2017-03-09 04:00","2017","03","09","04:00"
"2017-03-09 05:00","2017","03","09","05:00"
"2017-03-09 06:00","2017","03","09","06:00","-3.8","","-9.9","","63","","27","","25","","24.1","","100.27","","","","-11","","NA"
"2017-03-09 07:00","2017","03","09","07:00","-3.6","","-9.9","","62","","27","","28","","24.1","","100.36","","","","-11","","Mostly Cloudy"
"2017-03-09 08:00","2017","03","09","08:00","-3.0","","-8.9","","64","","27","","26","","24.1","","100.40","","","","-10","","Snow Showers"
"2017-03-09 09:00","2017","03","09","09:00","-2.1","","-7.8","","65","","27","","25","","16.1","","100.42","","","","-9","","Snow Showers"
"2017-03-09 10:00","2017","03","09","10:00","-1.9","","-8.5","","61","","27","","27","","24.1","","100.45","","","","-9","","Snow Showers"
"2017-03-09 11:00","2017","03","09","11:00","-1.6","","-8.0","","62","","26","","24","","24.1","","100.52","","","","-8","","Snow Showers"
"2017-03-09 12:00","2017","03","09","12:00","-0.8","","-9.0","","54","","27","","32","","24.1","","100.51","","","","-8","","Snow Showers"
"2017-03-09 13:00","2017","03","09","13:00","0.6","","-8.4","","51","","28","","29","","24.1","","100.51","","","","","","Mostly Cloudy"
"2017-03-09 14:00","2017","03","09","14:00","-0.2","","-9.4","","50","","25","","36","","24.1","","100.48","","","","-7","","NA"
"2017-03-09 15:00","2017","03","09","15:00","-0.3","","-10.0","","48","","27","","30","","24.1","","100.51","","","","-7","","NA"
"2017-03-09 16:00","2017","03","09","16:00","-0.1","","-9.9","","48","","27","","37","","24.1","","100.51","","","","-7","","Mostly Cloudy"
"2017-03-09 17:00","2017","03","09","17:00","-0.4","","-9.4","","51","","27","","29","","24.1","","100.53","","","","-7","","NA"
"2017-03-09 18:00","2017","03","09","18:00","-0.7","","-8.9","","54","","27","","28","","24.1","","100.55","","","","-7","","NA"
"2017-03-09 19:00","2017","03","09","19:00","-1.0","","-9.2","","54","","28","","29","","24.1","","100.60","","","","-8","","Mostly Cloudy"
"2017-03-09 20:00","2017","03","09","20:00","-1.4","","-9.1","","56","","27","","23","","24.1","","100.63","","","","-7","","NA"
"2017-03-09 21:00","2017","03","09","21:00","-1.6","","-9.5","","55","","28","","25","","24.1","","100.68","","","","-8","","NA"
"2017-03-09 22:00","2017","03","09","22:00","-1.8","","-9.9","","54","","29","","26","","24.1","","100.61","","","","-8","","Mainly Clear"
"2017-03-09 23:00","2017","03","09","23:00","-2.5","","-9.7","","58","","27","","14","","24.1","","100.60","","","","-7","","NA"
"2017-03-10 00:00","2017","03","10","00:00"
"2017-03-10 01:00","2017","03","10","01:00"
"2017-03-10 02:00","2017","03","10","02:00"
"2017-03-10 03:00","2017","03","10","03:00"
"2017-03-10 04:00","2017","03","10","04:00"
"2017-03-10 05:00","2017","03","10","05:00"
"2017-03-10 06:00","2017","03","10","06:00","-4.8","","-10.6","","64","","29","","17","","24.1","","100.27","","","","-11","","NA"
"2017-03-10 07:00","2017","03","10","07:00","-5.2","","-11.2","","63","","29","","19","","24.1","","100.32","","","","-12","","Mostly Cloudy"
"2017-03-10 08:00","2017","03","10","08:00","-4.8","","-11.6","","59","","31","","23","","24.1","","100.31","","","","-12","","NA"
"2017-03-10 09:00","2017","03","10","09:00","-4.0","","-12.2","","53","","30","","19","","24.1","","100.31","","","","-10","","NA"
"2017-03-10 10:00","2017","03","10","10:00","-3.5","","-13.8","","45","","26","","20","","24.1","","100.30","","","","-10","","Mainly Clear"
"2017-03-10 11:00","2017","03","10","11:00","-3.7","","-14.3","","44","","30","","21","","24.1","","100.26","","","","-10","","NA"
"2017-03-10 12:00","2017","03","10","12:00","-3.4","","-16.1","","37","","30","","27","","24.1","","100.25","","","","-11","","NA"
"2017-03-10 13:00","2017","03","10","13:00","-3.7","","-16.1","","38","","29","","22","","24.1","","100.22","","","","-10","","Mostly Cloudy"
"2017-03-10 14:00","2017","03","10","14:00","-3.9","","-17.6","","34","","28","","22","","24.1","","100.18","","","","-10","","NA"
"2017-03-10 15:00","2017","03","10","15:00","-4.3","","-17.6","","35","","29","","27","","24.1","","100.18","","","","-12","","NA"
"2017-03-10 16:00","2017","03","10","16:00","-4.9","","-19.6","","31","","28","","26","","24.1","","100.19","","","","-12","","Mostly Cloudy"
"2017-03-10 17:00","2017","03","10","17:00","-6.0","","-17.0","","42","","27","","25","","24.1","","100.27","","","","-14","","NA"
"2017-03-10 18:00","2017","03","10","18:00","-9.2","","-11.9","","81","","30","","22","","1.2","","100.46","","","","-17","","Snow Showers"
"2017-03-10 19:00","2017","03","10","19:00","-10.3","","-14.1","","74","","32","","23","","3.2","","100.59","","","","-19","","Snow Showers"
"2017-03-10 20:00","2017","03","10","20:00","-11.4","","-17.7","","60","","33","","25","","24.1","","100.71","","","","-21","","NA"
"2017-03-10 21:00","2017","03","10","21:00","-12.4","","-21.8","","46","","31","","25","","24.1","","100.81","","","","-22","","NA"
"2017-03-10 22:00","2017","03","10","22:00","-13.0","","-22.4","","46","","32","","33","","24.1","","100.89","","","","-24","","Mainly Clear"
"2017-03-10 23:00","2017","03","10","23:00","-13.9","","-23.0","","47","","33","","20","","24.1","","100.96","","","","-23","","NA"
"2017-03-11 00:00","2017","03","11","00:00"
"2017-03-11 01:00","2017","03","11","01:00"
"2017-03-11 02:00","2017","03","11","02:00"
"2017-03-11 03:00","2017","03","11","03:00"
"2017-03-11 04:00","2017","03","11","04:00"
"2017-03-11 05:00","2017","03","11","05:00"
"2017-03-11 06:00","2017","03","11","06:00","-18.0","","-22.4","","69","","32","","7","","24.1","","101.12","","","","-23","","NA"
"2017-03-11 07:00","2017","03","11","07:00","-17.4","","-21.8","","69","","30","","5","","24.1","","101.17","","","","-21","","Mainly Clear"
"2017-03-11 08:00","2017","03","11","08:00","-14.6","","-22.0","","54","","30","","14","","24.1","","101.22","","","","-22","","NA"
"2017-03-11 09:00","2017","03","11","09:00","-13.9","","-23.7","","44","","31","","22","","24.1","","101.22","","","","-23","","NA"
"2017-03-11 10:00","2017","03","11","10:00","-13.8","","-25.0","","39","","30","","28","","24.1","","101.21","","","","-24","","Mostly Cloudy"
"2017-03-11 11:00","2017","03","11","11:00","-12.6","","-22.8","","43","","30","","25","","24.1","","101.16","","","","-22","","NA"
"2017-03-11 12:00","2017","03","11","12:00","-11.8","","-22.0","","43","","28","","25","","24.1","","101.13","","","","-21","","NA"
"2017-03-11 13:00","2017","03","11","13:00","-10.7","","-21.3","","42","","27","","29","","24.1","","101.10","","","","-20","","Mostly Cloudy"
"2017-03-11 14:00","2017","03","11","14:00","-10.1","","-21.9","","38","","29","","27","","24.1","","101.06","","","","-19","","NA"
"2017-03-11 15:00","2017","03","11","15:00","-9.3","","-21.5","","37","","31","","28","","24.1","","101.08","","","","-18","","NA"
"2017-03-11 16:00","2017","03","11","16:00","-9.8","","-22.9","","34","","29","","30","","24.1","","101.13","","","","-19","","Mostly Cloudy"
"2017-03-11 17:00","2017","03","11","17:00","-10.1","","-22.9","","35","","30","","23","","24.1","","101.16","","","","-19","","NA"
"2017-03-11 18:00","2017","03","11","18:00","-10.9","","-23.0","","37","","31","","21","","24.1","","101.22","","","","-19","","NA"
"2017-03-11 19:00","2017","03","11","19:00","-11.6","","-22.7","","40","","32","","17","","24.1","","101.28","","","","-19","","Mainly Clear"
"2017-03-11 20:00","2017","03","11","20:00","-12.3","","-22.5","","43","","32","","15","","24.1","","101.37","","","","-20","","NA"
"2017-03-11 21:00","2017","03","11","21:00","-12.4","","-22.9","","42","","32","","18","","24.1","","101.44","","","","-20","","NA"
"2017-03-11 22:00","2017","03","11","22:00","-13.6","","-22.4","","48","","34","","13","","24.1","","101.52","","","","-21","","Clear"
"2017-03-11 23:00","2017","03","11","23:00","-13.9","","-23.7","","44","","33","","18","","24.1","","101.61","","","","-22","","NA"
"2017-03-12 00:00","2017","03","12","00:00"
"2017-03-12 01:00","2017","03","12","01:00"
"2017-03-12 02:00","2017","03","12","02:00"
"2017-03-12 03:00","2017","03","12","03:00"
"2017-03-12 04:00","2017","03","12","04:00"
"2017-03-12 05:00","2017","03","12","05:00","-16.4","","-22.9","","58","","28","","10","","24.1","","101.70","","","","-23","","NA"
"2017-03-12 06:00","2017","03","12","06:00","-16.4","","-22.7","","59","","29","","10","","24.1","","101.70","","","","-23","","NA"
"2017-03-12 07:00","2017","03","12","07:00","-16.2","","-22.5","","59","","30","","10","","24.1","","101.76","","","","-23","","Clear"
"2017-03-12 08:00","2017","03","12","08:00","-14.7","","-22.5","","52","","31","","11","","24.1","","101.76","","","","-21","","NA"
"2017-03-12 09:00","2017","03","12","09:00","-13.5","","-22.8","","46","","30","","12","","24.1","","101.76","","","","-20","","NA"
"2017-03-12 10:00","2017","03","12","10:00","-12.1","","-22.3","","43","","31","","13","","24.1","","101.76","","","","-19","","Mainly Clear"
"2017-03-12 11:00","2017","03","12","11:00","-11.5","","-22.3","","41","","23","","8","","24.1","","101.73","","","","-16","","NA"
"2017-03-12 12:00","2017","03","12","12:00","-9.8","","-20.8","","41","","28","","19","","24.1","","101.68","","","","-17","","NA"
"2017-03-12 13:00","2017","03","12","13:00","-8.3","","-19.7","","40","","29","","12","","24.1","","101.65","","","","-14","","Mainly Clear"
"2017-03-12 14:00","2017","03","12","14:00","-8.9","","-21.1","","37","","24","","13","","24.1","","101.61","","","","-15","","NA"
"2017-03-12 15:00","2017","03","12","15:00","-7.2","","-20.9","","33","","31","","17","","24.1","","101.61","","","","-14","","NA"
"2017-03-12 16:00","2017","03","12","16:00","-6.9","","-20.7","","33","","28","","18","","24.1","","101.60","","","","-14","","Mainly Clear"
"2017-03-12 17:00","2017","03","12","17:00","-7.2","","-21.7","","31","","29","","17","","24.1","","101.64","","","","-14","","NA"
"2017-03-12 18:00","2017","03","12","18:00","-7.9","","-21.6","","33","","29","","18","","24.1","","101.68","","","","-15","","NA"
"2017-03-12 19:00","2017","03","12","19:00","-9.1","","-21.0","","38","","30","","10","","24.1","","101.78","","","","-14","","Clear"
"2017-03-12 20:00","2017","03","12","20:00","-9.7","","-20.4","","42","","29","","10","","24.1","","101.86","","","","-15","","NA"
"2017-03-12 21:00","2017","03","12","21:00","-10.3","","-19.6","","47","","29","","10","","24.1","","101.90","","","","-16","","NA"
"2017-03-12 22:00","2017","03","12","22:00","-11.0","","-19.8","","49","","31","","9","","24.1","","101.94","","","","-16","","Clear"
"2017-03-12 23:00","2017","03","12","23:00"
"2017-03-13 00:00","2017","03","13","00:00"
"2017-03-13 01:00","2017","03","13","01:00"
"2017-03-13 02:00","2017","03","13","02:00"
"2017-03-13 03:00","2017","03","13","03:00"
"2017-03-13 04:00","2017","03","13","04:00"
"2017-03-13 05:00","2017","03","13","05:00","-15.0","","-21.7","","57","","36","","8","","24.1","","102.18","","","","-20","","NA"
"2017-03-13 06:00","2017","03","13","06:00","-15.5","","-22.2","","57","","35","","7","","24.1","","102.23","","","","-20","","NA"
"2017-03-13 07:00","2017","03","13","07:00","-14.4","","-20.8","","59","","1","","8","","24.1","","102.30","","","","-20","","Mostly Cloudy"
"2017-03-13 08:00","2017","03","13","08:00","-13.0","","-20.9","","52","","3","","10","","24.1","","102.30","","","","-19","","NA"
"2017-03-13 09:00","2017","03","13","09:00","-12.0","","-22.8","","41","","7","","10","","24.1","","102.33","","","","-18","","NA"
"2017-03-13 10:00","2017","03","13","10:00","-10.5","","-22.0","","39","","7","","11","","24.1","","102.27","","","","-16","","Cloudy"
"2017-03-13 11:00","2017","03","13","11:00","-9.0","","-22.6","","33","","2","","14","","24.1","","102.16","","","","-15","","NA"
"2017-03-13 12:00","2017","03","13","12:00","-9.0","","-23.3","","31","","15","","9","","24.1","","102.14","","","","-14","","NA"
"2017-03-13 13:00","2017","03","13","13:00","-8.5","","-24.4","","27","","1","","11","","24.1","","102.04","","","","-14","","Cloudy"
"2017-03-13 14:00","2017","03","13","14:00","-8.5","","-22.1","","33","","36","","1","","24.1","","101.98","","","","-9","","NA"
"2017-03-13 15:00","2017","03","13","15:00","-7.8","","-24.2","","26","","5","","13","","24.1","","101.92","","","","-14","","NA"
"2017-03-13 16:00","2017","03","13","16:00","-8.0","","-24.0","","27","","5","","9","","24.1","","101.82","","","","-13","","Cloudy"
"2017-03-13 17:00","2017","03","13","17:00","-7.8","","-22.6","","30","","7","","16","","24.1","","101.81","","","","-14","","NA"
"2017-03-13 18:00","2017","03","13","18:00","-8.8","","-18.5","","46","","2","","13","","12.9","","101.82","","","","-15","","NA"
"2017-03-13 19:00","2017","03","13","19:00","-9.2","","-16.9","","54","","4","","12","","9.7","","101.81","","","","-15","","Snow"
"2017-03-13 20:00","2017","03","13","20:00","-9.5","","-14.6","","67","","6","","17","","12.9","","101.78","","","","-17","","Snow"
"2017-03-13 21:00","2017","03","13","21:00","-9.9","","-14.2","","71","","5","","17","","9.7","","101.70","","","","-17","","Snow"
"2017-03-13 22:00","2017","03","13","22:00","-10.1","","-13.7","","75","","4","","22","","9.7","","101.60","","","","-18","","Snow,Blowing Snow"
"2017-03-13 23:00","2017","03","13","23:00"
"2017-03-14 00:00","2017","03","14","00:00"
"2017-03-14 01:00","2017","03","14","01:00"
"2017-03-14 02:00","2017","03","14","02:00"
"2017-03-14 03:00","2017","03","14","03:00"
"2017-03-14 04:00","2017","03","14","04:00"
"2017-03-14 05:00","2017","03","14","05:00","-10.8","","-13.9","","78","","4","","28","","2.0","","101.12","","","","-20","","Snow"
"2017-03-14 06:00","2017","03","14","06:00","-10.8","","-13.6","","80","","3","","26","","2.0","","101.06","","","","-20","","Snow,Blowing Snow"
"2017-03-14 07:00","2017","03","14","07:00","-10.7","","-13.7","","79","","3","","26","","2.4","","100.91","","","","-20","","Snow,Blowing Snow"
"2017-03-14 08:00","2017","03","14","08:00","-10.4","","-13.4","","79","","3","","26","","2.4","","100.87","","","","-19","","Snow,Blowing Snow"
"2017-03-14 09:00","2017","03","14","09:00","-10.1","","-13.2","","78","","2","","32","","2.4","","100.73","","","","-20","","Snow,Blowing Snow"
"2017-03-14 10:00","2017","03","14","10:00","-9.8","","-13.0","","78","","2","","32","","1.6","","100.58","","","","-20","","Snow,Blowing Snow"
"2017-03-14 11:00","2017","03","14","11:00","-9.7","","-12.9","","78","","2","","32","","1.6","","100.42","","","","-19","","Snow,Blowing Snow"
"2017-03-14 12:00","2017","03","14","12:00","-9.5","","-12.5","","79","","2","","38","","1.0","","100.30","","","","-20","","Snow,Blowing Snow"
"2017-03-14 13:00","2017","03","14","13:00","-9.4","","-12.4","","79","","1","","34","","1.0","","100.11","","","","-19","","Snow,Blowing Snow"
"2017-03-14 14:00","2017","03","14","14:00","-9.2","","-12.4","","78","","36","","34","","1.0","","100.00","","","","-19","","Snow,Blowing Snow"
"2017-03-14 15:00","2017","03","14","15:00","-9.5","","-12.5","","79","","1","","35","","1.0","","99.89","","","","-20","","Snow,Blowing Snow"
"2017-03-14 16:00","2017","03","14","16:00","-9.5","","-12.7","","78","","36","","36","","1.0","","99.75","","","","-20","","Snow,Blowing Snow"
"2017-03-14 17:00","2017","03","14","17:00","-9.6","","-12.4","","80","","35","","43","","0.8","","99.70","","","","-21","","Moderate Snow,Blowing Snow"
"2017-03-14 18:00","2017","03","14","18:00","-9.8","","-12.5","","81","","35","","37","","0.8","","99.69","","","","-20","","Moderate Snow,Blowing Snow"
"2017-03-14 19:00","2017","03","14","19:00","-10.0","","-12.5","","82","","34","","39","","0.8","","99.66","","","","-21","","Moderate Snow,Blowing Snow"
"2017-03-14 20:00","2017","03","14","20:00","-9.9","","-12.6","","81","","34","","39","","1.0","","99.62","","","","-21","","Snow,Blowing Snow"
"2017-03-14 21:00","2017","03","14","21:00","-9.8","","-12.5","","81","","33","","39","","1.0","","99.57","","","","-20","","Snow,Blowing Snow"
"2017-03-14 22:00","2017","03","14","22:00","-9.8","","-12.5","","81","","33","","36","","1.2","","99.51","","","","-20","","Snow,Blowing Snow"
"2017-03-14 23:00","2017","03","14","23:00"
"2017-03-15 00:00","2017","03","15","00:00"
"2017-03-15 01:00","2017","03","15","01:00"
"2017-03-15 02:00","2017","03","15","02:00"
"2017-03-15 03:00","2017","03","15","03:00"
"2017-03-15 04:00","2017","03","15","04:00"
"2017-03-15 05:00","2017","03","15","05:00","-10.1","","-14.4","","71","","33","","30","","2.8","","99.04","","","","-20","","Snow,Blowing Snow"
"2017-03-15 06:00","2017","03","15","06:00","-10.4","","-13.7","","77","","32","","21","","2.8","","99.05","","","","-19","","Snow,Blowing Snow"
"2017-03-15 07:00","2017","03","15","07:00","-10.2","","-13.7","","76","","32","","21","","2.8","","99.06","","","","-18","","Snow,Blowing Snow"
"2017-03-15 08:00","2017","03","15","08:00","-9.9","","-14.0","","72","","32","","27","","2.0","","99.06","","","","-19","","Snow,Blowing Snow"
"2017-03-15 09:00","2017","03","15","09:00","-9.8","","-13.3","","76","","32","","25","","1.6","","99.08","","","","-19","","Snow,Blowing Snow"
"2017-03-15 10:00","2017","03","15","10:00","-9.5","","-12.7","","78","","32","","20","","1.2","","99.12","","","","-17","","Snow,Blowing Snow"
"2017-03-15 11:00","2017","03","15","11:00","-9.0","","-12.7","","75","","31","","30","","1.6","","99.15","","","","-18","","Snow,Blowing Snow"
"2017-03-15 12:00","2017","03","15","12:00","-8.4","","-11.9","","76","","31","","25","","1.0","","99.19","","","","-17","","Snow,Blowing Snow"
"2017-03-15 13:00","2017","03","15","13:00","-7.9","","-11.6","","75","","32","","27","","1.6","","99.21","","","","-16","","Snow,Blowing Snow"
"2017-03-15 14:00","2017","03","15","14:00","-7.1","","-11.0","","74","","32","","22","","2.4","","99.23","","","","-15","","Snow,Blowing Snow"
"2017-03-15 15:00","2017","03","15","15:00","-5.8","","-11.8","","63","","31","","25","","9.7","","99.29","","","","-13","","Snow,Blowing Snow"
"2017-03-15 16:00","2017","03","15","16:00","-5.0","","-12.9","","54","","32","","30","","19.3","","99.33","","","","-13","","Snow,Blowing Snow"
"2017-03-15 17:00","2017","03","15","17:00","-3.9","","-13.7","","47","","31","","20","","24.1","","99.40","","","","-10","","NA"
"2017-03-15 18:00","2017","03","15","18:00","-3.5","","-14.7","","42","","31","","16","","24.1","","99.51","","","","-9","","NA"
"2017-03-15 19:00","2017","03","15","19:00","-4.4","","-14.9","","44","","31","","23","","24.1","","99.64","","","","-11","","Mostly Cloudy"
"2017-03-15 20:00","2017","03","15","20:00","-4.9","","-14.6","","47","","32","","25","","24.1","","99.78","","","","-12","","NA"
"2017-03-15 21:00","2017","03","15","21:00","-5.4","","-14.5","","49","","30","","17","","24.1","","99.88","","","","-11","","NA"
"2017-03-15 22:00","2017","03","15","22:00","-5.5","","-16.2","","43","","30","","19","","24.1","","99.92","","","","-12","","Mostly Cloudy"
"2017-03-15 23:00","2017","03","15","23:00"
"2017-03-16 00:00","2017","03","16","00:00"
"2017-03-16 01:00","2017","03","16","01:00"
"2017-03-16 02:00","2017","03","16","02:00"
"2017-03-16 03:00","2017","03","16","03:00"
"2017-03-16 04:00","2017","03","16","04:00"
"2017-03-16 05:00","2017","03","16","05:00","-9.2","","-18.3","","48","","30","","19","","24.1","","100.12","","","","-17","","NA"
"2017-03-16 06:00","2017","03","16","06:00","-9.8","","-18.4","","50","","30","","14","","24.1","","100.19","","","","-16","","NA"
"2017-03-16 07:00","2017","03","16","07:00","-9.6","","-18.2","","50","","27","","12","","24.1","","100.27","","","","-15","","Mostly Cloudy"
"2017-03-16 08:00","2017","03","16","08:00","-8.3","","-18.0","","46","","29","","20","","24.1","","100.30","","","","-16","","NA"
"2017-03-16 09:00","2017","03","16","09:00","-7.4","","-17.7","","44","","29","","22","","24.1","","100.35","","","","-15","","NA"
"2017-03-16 10:00","2017","03","16","10:00","-6.1","","-17.1","","42","","27","","21","","24.1","","100.36","","","","-13","","Mostly Cloudy"
"2017-03-16 11:00","2017","03","16","11:00","-4.4","","-16.4","","39","","29","","17","","24.1","","100.36","","","","-10","","NA"
"2017-03-16 12:00","2017","03","16","12:00","-3.4","","-15.8","","38","","24","","17","","24.1","","100.34","","","","-9","","NA"
"2017-03-16 13:00","2017","03","16","13:00","-2.5","","-14.4","","40","","25","","23","","24.1","","100.33","","","","-9","","Mainly Clear"
"2017-03-16 14:00","2017","03","16","14:00","-1.0","","-14.0","","37","","27","","17","","24.1","","100.31","","","","-6","","NA"
"2017-03-16 15:00","2017","03","16","15:00","-0.3","","-15.5","","31","","28","","27","","24.1","","100.31","","","","-7","","NA"
"2017-03-16 16:00","2017","03","16","16:00","-0.2","","-12.9","","38","","25","","27","","24.1","","100.32","","","","-6","","Mainly Clear"
"2017-03-16 17:00","2017","03","16","17:00","-0.2","","-12.9","","38","","25","","23","","24.1","","100.35","","","","-6","","NA"
"2017-03-16 18:00","2017","03","16","18:00","-0.7","","-13.0","","39","","26","","18","","24.1","","100.43","","","","-6","","NA"
"2017-03-16 19:00","2017","03","16","19:00","-1.6","","-12.3","","44","","27","","20","","24.1","","100.55","","","","-7","","Mainly Clear"
"2017-03-16 20:00","2017","03","16","20:00","-2.5","","-11.6","","50","","27","","17","","24.1","","100.66","","","","-8","","NA"
"2017-03-16 21:00","2017","03","16","21:00","-3.3","","-11.8","","52","","27","","17","","24.1","","100.74","","","","-9","","NA"
"2017-03-16 22:00","2017","03","16","22:00","-3.7","","-12.0","","53","","27","","18","","24.1","","100.77","","","","-10","","Mainly Clear"
"2017-03-16 23:00","2017","03","16","23:00"
"2017-03-17 00:00","2017","03","17","00:00"
"2017-03-17 01:00","2017","03","17","01:00"
"2017-03-17 02:00","2017","03","17","02:00"
"2017-03-17 03:00","2017","03","17","03:00"
"2017-03-17 04:00","2017","03","17","04:00"
"2017-03-17 05:00","2017","03","17","05:00","-8.1","","-12.8","","69","","31","","9","","24.1","","101.11","","","","-13","","NA"
"2017-03-17 06:00","2017","03","17","06:00","-9.6","","-13.4","","74","","31","","9","","24.1","","101.17","","","","-14","","NA"
"2017-03-17 07:00","2017","03","17","07:00","-10.0","","-13.5","","76","","32","","9","","24.1","","101.26","","","","-15","","Mainly Clear"
"2017-03-17 08:00","2017","03","17","08:00","-8.1","","-13.0","","68","","35","","10","","24.1","","101.33","","","","-13","","NA"
"2017-03-17 09:00","2017","03","17","09:00","-5.4","","-14.3","","50","","36","","12","","24.1","","101.38","","","","-10","","NA"
"2017-03-17 10:00","2017","03","17","10:00","-3.1","","-14.6","","41","","35","","4","","24.1","","101.38","","","","-5","","Clear"
"2017-03-17 11:00","2017","03","17","11:00","-2.3","","-11.9","","48","","19","","10","","24.1","","101.32","","","","-6","","NA"
"2017-03-17 12:00","2017","03","17","12:00","-2.1","","-10.5","","53","","19","","16","","24.1","","101.28","","","","-7","","NA"
"2017-03-17 13:00","2017","03","17","13:00","-1.6","","-10.5","","51","","17","","16","","24.1","","101.24","","","","-7","","Mainly Clear"
"2017-03-17 14:00","2017","03","17","14:00","-1.2","","-10.4","","50","","18","","18","","24.1","","101.20","","","","-6","","NA"
"2017-03-17 15:00","2017","03","17","15:00","-1.0","","-9.4","","53","","18","","17","","24.1","","101.20","","","","-6","","NA"
"2017-03-17 16:00","2017","03","17","16:00","-1.0","","-8.3","","58","","17","","20","","24.1","","101.17","","","","-7","","Mainly Clear"
"2017-03-17 17:00","2017","03","17","17:00","-1.0","","-6.4","","67","","16","","16","","24.1","","101.14","","","","-6","","NA"
"2017-03-17 18:00","2017","03","17","18:00","-1.3","","-5.2","","75","","16","","14","","24.1","","101.12","","","","-6","","NA"
"2017-03-17 19:00","2017","03","17","19:00","-1.5","","-4.5","","80","","15","","13","","24.1","","101.10","","","","-6","","Mainly Clear"
"2017-03-17 20:00","2017","03","17","20:00","-1.6","","-4.4","","81","","15","","11","","24.1","","101.12","","","","-5","","NA"
"2017-03-17 21:00","2017","03","17","21:00","-4.7","","-6.4","","88","","8","","4","","24.1","","101.11","","","","-6","","NA"
"2017-03-17 22:00","2017","03","17","22:00","-5.4","","-6.5","","92","","5","","5","","24.1","","101.12","","","","-8","","Clear"
"2017-03-17 23:00","2017","03","17","23:00"
"2017-03-18 00:00","2017","03","18","00:00"
"2017-03-18 01:00","2017","03","18","01:00"
"2017-03-18 02:00","2017","03","18","02:00"
"2017-03-18 03:00","2017","03","18","03:00"
"2017-03-18 04:00","2017","03","18","04:00"
"2017-03-18 05:00","2017","03","18","05:00","-7.9","","-14.6","","59","","5","","8","","24.1","","100.98","","","","-12","","NA"
"2017-03-18 06:00","2017","03","18","06:00","-8.0","","-14.9","","58","","4","","14","","24.1","","100.98","","","","-14","","NA"
"2017-03-18 07:00","2017","03","18","07:00","-6.8","","-15.1","","52","","5","","17","","24.1","","101.03","","","","-13","","Mostly Cloudy"
"2017-03-18 08:00","2017","03","18","08:00","-4.7","","-14.7","","46","","5","","18","","24.1","","101.01","","","","-11","","NA"
"2017-03-18 09:00","2017","03","18","09:00","-2.9","","-14.4","","41","","5","","22","","24.1","","100.99","","","","-9","","NA"
"2017-03-18 10:00","2017","03","18","10:00","-0.5","","-13.2","","38","","5","","16","","24.1","","100.99","","","","-5","","Mostly Cloudy"
"2017-03-18 11:00","2017","03","18","11:00","0.7","","-13.9","","33","","4","","22","","24.1","","100.96","","","","","","NA"
"2017-03-18 12:00","2017","03","18","12:00","2.0","","-12.7","","33","","7","","23","","24.1","","100.94","","","","","","NA"
"2017-03-18 13:00","2017","03","18","13:00","2.8","","-12.4","","32","","5","","20","","24.1","","100.90","","","","","","Mostly Cloudy"
"2017-03-18 14:00","2017","03","18","14:00","3.6","","-12.5","","30","","5","","27","","24.1","","100.85","","","","","","NA"
"2017-03-18 15:00","2017","03","18","15:00","3.6","","-12.5","","30","","5","","23","","24.1","","100.83","","","","","","NA"
"2017-03-18 16:00","2017","03","18","16:00","2.6","","-11.4","","35","","5","","22","","24.1","","100.87","","","","","","Mostly Cloudy"
"2017-03-18 17:00","2017","03","18","17:00","2.6","","-10.4","","38","","4","","14","","24.1","","100.94","","","","","","NA"
"2017-03-18 18:00","2017","03","18","18:00","1.8","","-9.5","","43","","5","","16","","24.1","","101.00","","","","","","NA"
"2017-03-18 19:00","2017","03","18","19:00","1.2","","-9.8","","44","","4","","19","","24.1","","101.07","","","","","","Mostly Cloudy"
"2017-03-18 20:00","2017","03","18","20:00","0.4","","-9.4","","48","","5","","17","","24.1","","101.15","","","","","","NA"
"2017-03-18 21:00","2017","03","18","21:00","0.0","","-9.2","","50","","5","","13","","24.1","","101.19","","","","-4","","NA"
"2017-03-18 22:00","2017","03","18","22:00","-0.6","","-9.0","","53","","4","","12","","24.1","","101.24","","","","-5","","Cloudy"
"2017-03-18 23:00","2017","03","18","23:00"
"2017-03-19 00:00","2017","03","19","00:00"
"2017-03-19 01:00","2017","03","19","01:00"
"2017-03-19 02:00","2017","03","19","02:00"
"2017-03-19 03:00","2017","03","19","03:00"
"2017-03-19 04:00","2017","03","19","04:00"
"2017-03-19 05:00","2017","03","19","05:00","-3.7","","-9.6","","64","","1","","16","","24.1","","101.37","","","","-9","","NA"
"2017-03-19 06:00","2017","03","19","06:00","-4.4","","-9.8","","66","","2","","12","","24.1","","101.46","","","","-9","","NA"
"2017-03-19 07:00","2017","03","19","07:00","-4.5","","-10.1","","65","","2","","16","","24.1","","101.55","","","","-10","","Mostly Cloudy"
"2017-03-19 08:00","2017","03","19","08:00","-3.8","","-9.7","","64","","2","","13","","24.1","","101.59","","","","-9","","NA"
"2017-03-19 09:00","2017","03","19","09:00","-1.4","","-9.1","","56","","3","","14","","24.1","","101.62","","","","-6","","NA"
"2017-03-19 10:00","2017","03","19","10:00","0.5","","-8.5","","51","","36","","16","","24.1","","101.63","","","","","","Mainly Clear"
"2017-03-19 11:00","2017","03","19","11:00","1.9","","-7.5","","50","","36","","13","","24.1","","101.60","","","","","","NA"
"2017-03-19 12:00","2017","03","19","12:00","3.1","","-6.9","","48","","1","","4","","24.1","","101.52","","","","","","NA"
"2017-03-19 13:00","2017","03","19","13:00","2.7","","-5.7","","54","","17","","12","","24.1","","101.48","","","","","","Clear"
"2017-03-19 14:00","2017","03","19","14:00","2.7","","-6.0","","53","","18","","13","","24.1","","101.41","","","","","","NA"
"2017-03-19 15:00","2017","03","19","15:00","2.8","","-4.9","","57","","18","","13","","24.1","","101.37","","","","","","NA"
"2017-03-19 16:00","2017","03","19","16:00","2.3","","-5.1","","58","","18","","14","","24.1","","101.35","","","","","","Clear"
"2017-03-19 17:00","2017","03","19","17:00","1.4","","-4.3","","66","","17","","12","","24.1","","101.35","","","","","","NA"
"2017-03-19 18:00","2017","03","19","18:00","0.6","","-3.0","","77","","20","","10","","24.1","","101.36","","","","","","NA"
"2017-03-19 19:00","2017","03","19","19:00","-0.8","","-3.2","","84","","23","","7","","24.1","","101.38","","","","-3","","Mainly Clear"
"2017-03-19 20:00","2017","03","19","20:00","-0.1","","-3.1","","80","","24","","12","","24.1","","101.40","","","","-4","","NA"
"2017-03-19 21:00","2017","03","19","21:00","-0.6","","-3.1","","83","","25","","11","","24.1","","101.42","","","","-4","","NA"
"2017-03-19 22:00","2017","03","19","22:00","-0.9","","-3.1","","85","","36","","3","","24.1","","101.41","","","","-2","","Clear"
"2017-03-19 23:00","2017","03","19","23:00"
"2017-03-20 00:00","2017","03","20","00:00"
"2017-03-20 01:00","2017","03","20","01:00"
"2017-03-20 02:00","2017","03","20","02:00"
"2017-03-20 03:00","2017","03","20","03:00"
"2017-03-20 04:00","2017","03","20","04:00"
"2017-03-20 05:00","2017","03","20","05:00","-0.9","","-1.5","","96","","26","","13","","0.6","","101.16","","","","-5","","Freezing Fog"
"2017-03-20 06:00","2017","03","20","06:00","-1.2","","-1.8","","96","","25","","7","","0.4","","101.13","","","","-4","","Freezing Fog"
"2017-03-20 07:00","2017","03","20","07:00","-1.4","","-2.0","","96","","24","","7","","0.4","","101.12","","","","-4","","Freezing Fog"
"2017-03-20 08:00","2017","03","20","08:00","-1.0","","-1.6","","96","","22","","9","","0.2","","101.07","","","","-4","","Freezing Fog"
"2017-03-20 09:00","2017","03","20","09:00","-0.3","","-0.9","","96","","20","","6","","0.4","","101.03","","","","-2","","Freezing Fog"
"2017-03-20 10:00","2017","03","20","10:00","0.1","","-0.5","","96","","16","","9","","0.4","","100.98","","","","","","Fog"
"2017-03-20 11:00","2017","03","20","11:00","0.6","","0.2","","97","","19","","10","","1.6","","101.03","","","","","","Fog"
"2017-03-20 12:00","2017","03","20","12:00","1.2","","0.8","","97","","21","","6","","4.0","","101.01","","","","","","Fog"
"2017-03-20 13:00","2017","03","20","13:00","1.9","","1.3","","96","","20","","5","","8.1","","100.95","","","","","","Fog"
"2017-03-20 14:00","2017","03","20","14:00","2.0","","0.2","","88","","18","","10","","9.7","","100.84","","","","","","Fog"
"2017-03-20 15:00","2017","03","20","15:00","1.6","","0.0","","89","","19","","13","","19.3","","100.72","","","","","","NA"
"2017-03-20 16:00","2017","03","20","16:00","1.3","","0.0","","91","","19","","16","","16.1","","100.69","","","","","","Cloudy"
"2017-03-20 17:00","2017","03","20","17:00","0.9","","-0.4","","91","","19","","18","","19.3","","100.62","","","","","","NA"
"2017-03-20 18:00","2017","03","20","18:00","0.8","","-0.5","","91","","19","","13","","19.3","","100.57","","","","","","NA"
"2017-03-20 19:00","2017","03","20","19:00","0.5","","-1.0","","90","","20","","9","","19.3","","100.58","","","","","","Cloudy"
"2017-03-20 20:00","2017","03","20","20:00","0.4","","-1.4","","88","","21","","10","","19.3","","100.58","","","","","","NA"
"2017-03-20 21:00","2017","03","20","21:00","0.1","","-1.4","","90","","22","","5","","19.3","","100.56","","","","","","NA"
"2017-03-20 22:00","2017","03","20","22:00","-0.1","","-1.5","","90","","22","","8","","24.1","","100.55","","","","-3","","Mainly Clear"
"2017-03-20 23:00","2017","03","20","23:00"
"2017-03-21 00:00","2017","03","21","00:00"
"2017-03-21 01:00","2017","03","21","01:00"
"2017-03-21 02:00","2017","03","21","02:00"
"2017-03-21 03:00","2017","03","21","03:00"
"2017-03-21 04:00","2017","03","21","04:00"
"2017-03-21 05:00","2017","03","21","05:00","0.7","","-0.2","","94","","24","","7","","9.7","","100.26","","","","","","Rain,Drizzle,Fog"
"2017-03-21 06:00","2017","03","21","06:00","0.5","","-0.2","","95","","27","","5","","6.4","","100.24","","","","","","Drizzle,Fog"
"2017-03-21 07:00","2017","03","21","07:00","0.5","","-0.2","","95","","20","","3","","4.0","","100.21","","","","","","Drizzle,Fog"
"2017-03-21 08:00","2017","03","21","08:00","0.6","","0.0","","96","","22","","5","","1.6","","100.20","","","","","","Drizzle,Fog"
"2017-03-21 09:00","2017","03","21","09:00","0.9","","0.3","","96","","23","","7","","1.6","","100.21","","","","","","Fog"
"2017-03-21 10:00","2017","03","21","10:00","1.6","","1.0","","96","","24","","10","","2.4","","100.18","","","","","","Fog"
"2017-03-21 11:00","2017","03","21","11:00","3.4","","2.2","","92","","29","","5","","6.4","","100.15","","","","","","Fog"
"2017-03-21 12:00","2017","03","21","12:00","4.2","","1.6","","83","","26","","12","","6.4","","100.13","","","","","","Fog"
"2017-03-21 13:00","2017","03","21","13:00","5.3","","2.0","","79","","24","","16","","9.7","","100.07","","","","","","Fog"
"2017-03-21 14:00","2017","03","21","14:00","5.9","","1.1","","71","","23","","19","","16.1","","99.99","","","","","","NA"
"2017-03-21 15:00","2017","03","21","15:00","4.6","","1.6","","81","","19","","19","","12.9","","99.92","","","","","","NA"
"2017-03-21 16:00","2017","03","21","16:00","6.9","","1.8","","70","","23","","25","","12.9","","99.86","","","","","","Mostly Cloudy"
"2017-03-21 17:00","2017","03","21","17:00","6.0","","0.1","","66","","22","","22","","16.1","","99.83","","","","","","NA"
"2017-03-21 18:00","2017","03","21","18:00","4.8","","-1.9","","62","","22","","9","","24.1","","99.77","","","","","","NA"
"2017-03-21 19:00","2017","03","21","19:00","3.2","","-3.0","","64","","24","","16","","24.1","","99.81","","","","","","Mostly Cloudy"
"2017-03-21 20:00","2017","03","21","20:00","3.9","","-6.1","","48","","28","","20","","24.1","","99.89","","","","","","NA"
"2017-03-21 21:00","2017","03","21","21:00","2.8","","-4.4","","59","","28","","26","","24.1","","99.98","","","","","","NA"
"2017-03-21 22:00","2017","03","21","22:00","2.1","","-3.8","","65","","33","","26","","24.1","","100.09","","","","","","Snow Showers"
"2017-03-21 23:00","2017","03","21","23:00"
"2017-03-22 00:00","2017","03","22","00:00"
"2017-03-22 01:00","2017","03","22","01:00"
"2017-03-22 02:00","2017","03","22","02:00"
"2017-03-22 03:00","2017","03","22","03:00"
"2017-03-22 04:00","2017","03","22","04:00"
"2017-03-22 05:00","2017","03","22","05:00","-10.3","","-19.9","","46","","35","","36","","24.1","","101.28","","","","-21","","NA"
"2017-03-22 06:00","2017","03","22","06:00","-11.0","","-19.5","","50","","35","","21","","24.1","","101.49","","","","-19","","NA"
"2017-03-22 07:00","2017","03","22","07:00","-10.7","","-19.2","","50","","36","","26","","24.1","","101.61","","","","-20","","Mainly Clear"
"2017-03-22 08:00","2017","03","22","08:00","-10.3","","-19.4","","48","","35","","25","","24.1","","101.73","","","","-19","","NA"
"2017-03-22 09:00","2017","03","22","09:00","-9.7","","-19.6","","45","","32","","24","","24.1","","101.81","","","","-18","","NA"
"2017-03-22 10:00","2017","03","22","10:00","-9.1","","-20.1","","41","","35","","27","","24.1","","101.90","","","","-18","","Mainly Clear"
"2017-03-22 11:00","2017","03","22","11:00","-8.6","","-21.2","","36","","33","","13","","24.1","","101.91","","","","-15","","NA"
"2017-03-22 12:00","2017","03","22","12:00","-7.6","","-20.3","","36","","31","","18","","24.1","","101.94","","","","-14","","NA"
"2017-03-22 13:00","2017","03","22","13:00","-6.0","","-19.2","","35","","31","","20","","24.1","","101.93","","","","-13","","Clear"
"2017-03-22 14:00","2017","03","22","14:00","-5.4","","-20.1","","31","","33","","26","","24.1","","101.92","","","","-13","","NA"
"2017-03-22 15:00","2017","03","22","15:00","-4.4","","-19.6","","30","","31","","17","","24.1","","101.92","","","","-10","","NA"
"2017-03-22 16:00","2017","03","22","16:00","-3.9","","-20.4","","27","","29","","18","","24.1","","101.92","","","","-10","","Clear"
"2017-03-22 17:00","2017","03","22","17:00","-3.6","","-20.6","","26","","33","","20","","24.1","","101.93","","","","-10","","NA"
"2017-03-22 18:00","2017","03","22","18:00","-4.1","","-21.0","","26","","31","","16","","24.1","","101.95","","","","-10","","NA"
"2017-03-22 19:00","2017","03","22","19:00","-5.3","","-20.8","","29","","30","","9","","24.1","","102.00","","","","-9","","Clear"
"2017-03-22 20:00","2017","03","22","20:00","-5.7","","-20.7","","30","","29","","8","","24.1","","102.03","","","","-9","","NA"
"2017-03-22 21:00","2017","03","22","21:00","-7.4","","-18.6","","41","","32","","6","","24.1","","102.08","","","","-11","","NA"
"2017-03-22 22:00","2017","03","22","22:00","-8.1","","-18.4","","44","","31","","5","","24.1","","102.09","","","","-11","","Clear"
"2017-03-22 23:00","2017","03","22","23:00"
"2017-03-23 00:00","2017","03","23","00:00"
"2017-03-23 01:00","2017","03","23","01:00"
"2017-03-23 02:00","2017","03","23","02:00"
"2017-03-23 03:00","2017","03","23","03:00"
"2017-03-23 04:00","2017","03","23","04:00"
"2017-03-23 05:00","2017","03","23","05:00","-10.1","","-15.5","","65","","27","","10","","24.1","","102.32","","","","-15","","NA"
"2017-03-23 06:00","2017","03","23","06:00","-10.4","","-15.2","","68","","27","","11","","24.1","","102.36","","","","-16","","NA"
"2017-03-23 07:00","2017","03","23","07:00","-9.3","","-14.5","","66","","28","","10","","24.1","","102.42","","","","-14","","Clear"
"2017-03-23 08:00","2017","03","23","08:00","-6.3","","-12.9","","60","","29","","12","","24.1","","102.46","","","","-11","","NA"
"2017-03-23 09:00","2017","03","23","09:00","-3.0","","-11.3","","53","","29","","10","","24.1","","102.45","","","","-7","","NA"
"2017-03-23 10:00","2017","03","23","10:00","-1.0","","-10.7","","48","","26","","8","","24.1","","102.43","","","","-4","","Clear"
"2017-03-23 11:00","2017","03","23","11:00","-0.6","","-9.5","","51","","21","","19","","24.1","","102.39","","","","-6","","NA"
"2017-03-23 12:00","2017","03","23","12:00","0.8","","-9.3","","47","","22","","17","","24.1","","102.34","","","","","","NA"
"2017-03-23 13:00","2017","03","23","13:00","0.0","","-8.0","","55","","19","","30","","24.1","","102.29","","","","-6","","Mainly Clear"
"2017-03-23 14:00","2017","03","23","14:00","0.1","","-7.9","","55","","20","","35","","24.1","","102.23","","","","","","NA"
"2017-03-23 15:00","2017","03","23","15:00","-0.1","","-7.9","","56","","20","","29","","24.1","","102.17","","","","-6","","NA"
"2017-03-23 16:00","2017","03","23","16:00","0.0","","-9.8","","48","","21","","27","","24.1","","102.14","","","","-6","","Mainly Clear"
"2017-03-23 17:00","2017","03","23","17:00","-0.9","","-9.8","","51","","19","","31","","24.1","","102.06","","","","-8","","NA"
"2017-03-23 18:00","2017","03","23","18:00","-1.4","","-12.5","","43","","21","","16","","24.1","","102.11","","","","-6","","NA"
"2017-03-23 19:00","2017","03","23","19:00","-1.3","","-10.0","","52","","21","","10","","24.1","","102.10","","","","-5","","Mostly Cloudy"
"2017-03-23 20:00","2017","03","23","20:00","-1.4","","-9.1","","56","","20","","13","","24.1","","102.07","","","","-6","","NA"
"2017-03-23 21:00","2017","03","23","21:00","-0.7","","-7.5","","60","","17","","13","","24.1","","102.00","","","","-5","","NA"
"2017-03-23 22:00","2017","03","23","22:00","-0.6","","-6.8","","63","","15","","18","","24.1","","101.90","","","","-6","","Cloudy"
"2017-03-23 23:00","2017","03","23","23:00"
"2017-03-24 00:00","2017","03","24","00:00"
"2017-03-24 01:00","2017","03","24","01:00"
"2017-03-24 02:00","2017","03","24","02:00"
"2017-03-24 03:00","2017","03","24","03:00"
"2017-03-24 04:00","2017","03","24","04:00"
"2017-03-24 05:00","2017","03","24","05:00","1.1","","-6.7","","56","","16","","18","","24.1","","101.21","","","","","","NA"
"2017-03-24 06:00","2017","03","24","06:00","1.0","","-5.3","","63","","15","","16","","24.1","","101.06","","","","","","NA"
"2017-03-24 07:00","2017","03","24","07:00","1.3","","-4.8","","64","","18","","26","","24.1","","101.01","","","","","","Cloudy"
"2017-03-24 08:00","2017","03","24","08:00","-0.1","","-1.7","","89","","17","","32","","4.8","","100.93","","","","-7","","Snow"
"2017-03-24 09:00","2017","03","24","09:00","0.3","","-0.9","","92","","16","","19","","4.8","","100.88","","","","","","Rain,Fog"
"2017-03-24 10:00","2017","03","24","10:00","0.8","","-0.1","","94","","18","","26","","4.8","","100.73","","","","","","Rain,Fog"
"2017-03-24 11:00","2017","03","24","11:00","0.5","","-0.2","","95","","15","","18","","4.8","","100.63","","","","","","Rain,Fog"
"2017-03-24 12:00","2017","03","24","12:00","0.9","","0.2","","95","","17","","7","","6.4","","100.57","","","","","","Rain,Fog"
"2017-03-24 13:00","2017","03","24","13:00","1.3","","0.6","","95","","17","","4","","9.7","","100.48","","","","","","Rain,Fog"
"2017-03-24 14:00","2017","03","24","14:00","2.4","","1.5","","94","","19","","13","","12.9","","100.31","","","","","","NA"
"2017-03-24 15:00","2017","03","24","15:00","3.3","","1.8","","90","","22","","10","","19.3","","100.34","","","","","","NA"
"2017-03-24 16:00","2017","03","24","16:00","3.4","","1.9","","90","","25","","4","","19.3","","100.36","","","","","","Cloudy"
"2017-03-24 17:00","2017","03","24","17:00","3.4","","2.2","","92","","29","","4","","16.1","","100.42","","","","","","NA"
"2017-03-24 18:00","2017","03","24","18:00","3.2","","2.3","","94","","35","","6","","11.3","","100.51","","","","","","NA"
"2017-03-24 19:00","2017","03","24","19:00","3.2","","2.3","","94","","36","","4","","9.7","","100.60","","","","","","Rain,Fog"
"2017-03-24 20:00","2017","03","24","20:00","2.9","","2.2","","95","","2","","3","","9.7","","100.70","","","","","","Rain,Drizzle,Fog"
"2017-03-24 21:00","2017","03","24","21:00","2.6","","1.7","","94","","1","","9","","9.7","","100.79","","","","","","Rain,Drizzle,Fog"
"2017-03-24 22:00","2017","03","24","22:00","2.1","","1.1","","93","","36","","11","","9.7","","100.86","","","","","","Rain,Fog"
"2017-03-24 23:00","2017","03","24","23:00"
"2017-03-25 00:00","2017","03","25","00:00"
"2017-03-25 01:00","2017","03","25","01:00"
"2017-03-25 02:00","2017","03","25","02:00"
"2017-03-25 03:00","2017","03","25","03:00"
"2017-03-25 04:00","2017","03","25","04:00"
"2017-03-25 05:00","2017","03","25","05:00","0.6","","-0.1","","95","","2","","7","","24.1","","101.15","","","","","","NA"
"2017-03-25 06:00","2017","03","25","06:00","0.7","","-0.2","","94","","1","","10","","19.3","","101.26","","","","","","NA"
"2017-03-25 07:00","2017","03","25","07:00","1.0","","-0.3","","91","","3","","13","","19.3","","101.34","","","","","","Cloudy"
"2017-03-25 08:00","2017","03","25","08:00","1.3","","-0.5","","88","","3","","21","","19.3","","101.42","","","","","","NA"
"2017-03-25 09:00","2017","03","25","09:00","1.9","","-0.4","","85","","2","","15","","19.3","","101.48","","","","","","NA"
"2017-03-25 10:00","2017","03","25","10:00","2.1","","-0.8","","81","","4","","25","","24.1","","101.53","","","","","","Cloudy"
"2017-03-25 11:00","2017","03","25","11:00","2.4","","-1.0","","78","","4","","19","","24.1","","101.67","","","","","","NA"
"2017-03-25 12:00","2017","03","25","12:00","2.5","","-1.5","","75","","2","","23","","24.1","","101.66","","","","","","NA"
"2017-03-25 13:00","2017","03","25","13:00","2.2","","-1.6","","76","","1","","22","","24.1","","101.71","","","","","","Cloudy"
"2017-03-25 14:00","2017","03","25","14:00","2.1","","-1.7","","76","","3","","15","","24.1","","101.73","","","","","","NA"
"2017-03-25 15:00","2017","03","25","15:00","2.2","","-1.8","","75","","5","","18","","24.1","","101.77","","","","","","NA"
"2017-03-25 16:00","2017","03","25","16:00","1.7","","-2.4","","74","","6","","18","","24.1","","101.78","","","","","","Cloudy"
"2017-03-25 17:00","2017","03","25","17:00","1.9","","-2.4","","73","","6","","14","","24.1","","101.78","","","","","","NA"
"2017-03-25 18:00","2017","03","25","18:00","1.1","","-3.2","","73","","6","","16","","24.1","","101.85","","","","","","NA"
"2017-03-25 19:00","2017","03","25","19:00","0.1","","-3.3","","78","","5","","10","","24.1","","101.92","","","","","","Mostly Cloudy"
"2017-03-25 20:00","2017","03","25","20:00","-0.8","","-3.7","","81","","5","","8","","24.1","","101.99","","","","-4","","NA"
"2017-03-25 21:00","2017","03","25","21:00","-1.2","","-4.4","","79","","5","","9","","24.1","","101.97","","","","-4","","NA"
"2017-03-25 22:00","2017","03","25","22:00","-1.3","","-4.2","","81","","4","","11","","24.1","","101.94","","","","-5","","Mainly Clear"
"2017-03-25 23:00","2017","03","25","23:00"
"2017-03-26 00:00","2017","03","26","00:00"
"2017-03-26 01:00","2017","03","26","01:00"
"2017-03-26 02:00","2017","03","26","02:00"
"2017-03-26 03:00","2017","03","26","03:00"
"2017-03-26 04:00","2017","03","26","04:00"
"2017-03-26 05:00","2017","03","26","05:00","-1.4","","-5.6","","73","","5","","18","","24.1","","101.77","","","","-7","","NA"
"2017-03-26 06:00","2017","03","26","06:00","-1.3","","-5.4","","74","","6","","18","","24.1","","101.77","","","","-7","","NA"
"2017-03-26 07:00","2017","03","26","07:00","-1.2","","-5.3","","74","","5","","16","","24.1","","101.75","","","","-6","","Mostly Cloudy"
"2017-03-26 08:00","2017","03","26","08:00","-1.5","","-5.5","","74","","6","","26","","24.1","","101.70","","","","-8","","Freezing Rain"
"2017-03-26 09:00","2017","03","26","09:00","-1.2","","-6.2","","69","","6","","23","","24.1","","101.65","","","","-7","","NA"
"2017-03-26 10:00","2017","03","26","10:00","-1.1","","-5.0","","75","","5","","22","","24.1","","101.60","","","","-7","","Cloudy"
"2017-03-26 11:00","2017","03","26","11:00","-0.1","","-5.5","","67","","5","","22","","24.1","","101.56","","","","-6","","NA"
"2017-03-26 12:00","2017","03","26","12:00","-0.1","","-4.6","","72","","6","","23","","24.1","","101.46","","","","-6","","Freezing Rain"
"2017-03-26 13:00","2017","03","26","13:00","0.3","","-4.2","","72","","5","","21","","24.1","","101.42","","","","","","Cloudy"
"2017-03-26 14:00","2017","03","26","14:00","1.0","","-3.7","","71","","5","","22","","24.1","","101.32","","","","","","NA"
"2017-03-26 15:00","2017","03","26","15:00","1.1","","-3.4","","72","","6","","26","","24.1","","101.21","","","","","","NA"
"2017-03-26 16:00","2017","03","26","16:00","1.3","","-2.7","","75","","6","","18","","24.1","","101.11","","","","","","Cloudy"
"2017-03-26 17:00","2017","03","26","17:00","1.5","","-2.5","","75","","6","","15","","24.1","","101.06","","","","","","NA"
"2017-03-26 18:00","2017","03","26","18:00","1.5","","-1.9","","78","","5","","12","","24.1","","101.04","","","","","","NA"
"2017-03-26 19:00","2017","03","26","19:00","1.1","","-1.8","","81","","6","","12","","24.1","","100.99","","","","","","Cloudy"
"2017-03-26 20:00","2017","03","26","20:00","1.2","","-1.2","","84","","6","","8","","24.1","","100.97","","","","","","NA"
"2017-03-26 21:00","2017","03","26","21:00","2.8","","0.2","","83","","13","","13","","24.1","","100.92","","","","","","NA"
"2017-03-26 22:00","2017","03","26","22:00","2.8","","0.5","","85","","15","","21","","24.1","","100.86","","","","","","Cloudy"
"2017-03-26 23:00","2017","03","26","23:00"
"2017-03-27 00:00","2017","03","27","00:00"
"2017-03-27 01:00","2017","03","27","01:00"
"2017-03-27 02:00","2017","03","27","02:00"
"2017-03-27 03:00","2017","03","27","03:00"
"2017-03-27 04:00","2017","03","27","04:00"
"2017-03-27 05:00","2017","03","27","05:00","2.4","","1.4","","93","","16","","19","","24.1","","100.34","","","","","","NA"
"2017-03-27 06:00","2017","03","27","06:00","2.3","","1.4","","94","","16","","15","","24.1","","100.31","","","","","","NA"
"2017-03-27 07:00","2017","03","27","07:00","2.5","","1.6","","94","","17","","17","","9.7","","100.31","","","","","","Rain,Fog"
"2017-03-27 08:00","2017","03","27","08:00","2.5","","1.8","","95","","17","","16","","4.8","","100.30","","","","","","Rain,Fog"
"2017-03-27 09:00","2017","03","27","09:00","2.5","","1.9","","96","","17","","17","","8.1","","100.27","","","","","","Rain,Fog"
"2017-03-27 10:00","2017","03","27","10:00","3.2","","2.6","","96","","16","","15","","24.1","","100.22","","","","","","Cloudy"
"2017-03-27 11:00","2017","03","27","11:00","3.8","","3.2","","96","","17","","14","","24.1","","100.22","","","","","","NA"
"2017-03-27 12:00","2017","03","27","12:00","3.6","","2.9","","95","","17","","18","","24.1","","100.21","","","","","","NA"
"2017-03-27 13:00","2017","03","27","13:00","3.8","","3.1","","95","","21","","11","","24.1","","100.18","","","","","","Cloudy"
"2017-03-27 14:00","2017","03","27","14:00","4.5","","3.6","","94","","20","","10","","24.1","","100.14","","","","","","NA"
"2017-03-27 15:00","2017","03","27","15:00","4.3","","3.4","","94","","20","","16","","24.1","","100.13","","","","","","NA"
"2017-03-27 16:00","2017","03","27","16:00","4.9","","4.2","","95","","21","","9","","19.3","","100.11","","","","","","Cloudy"
"2017-03-27 17:00","2017","03","27","17:00","4.7","","3.8","","94","","19","","12","","19.3","","100.14","","","","","","NA"
"2017-03-27 18:00","2017","03","27","18:00","3.8","","3.1","","95","","19","","7","","12.9","","100.14","","","","","","NA"
"2017-03-27 19:00","2017","03","27","19:00","3.8","","3.2","","96","","36","","3","","4.8","","100.15","","","","","","Fog"
"2017-03-27 20:00","2017","03","27","20:00","3.6","","3.0","","96","","18","","7","","0.4","","100.19","","","","","","Fog"
"2017-03-27 21:00","2017","03","27","21:00","3.4","","3.0","","97","","18","","7","","0.4","","100.19","","","","","","Fog"
"2017-03-27 22:00","2017","03","27","22:00","3.4","","3.0","","97","","18","","8","","0.8","","100.16","","","","","","Fog"
"2017-03-27 23:00","2017","03","27","23:00"
"2017-03-28 00:00","2017","03","28","00:00"
"2017-03-28 01:00","2017","03","28","01:00"
"2017-03-28 02:00","2017","03","28","02:00"
"2017-03-28 03:00","2017","03","28","03:00"
"2017-03-28 04:00","2017","03","28","04:00"
"2017-03-28 05:00","2017","03","28","05:00","3.1","","2.7","","97","","34","","4","","0.6","","100.07","","","","","","Rain,Fog"
"2017-03-28 06:00","2017","03","28","06:00","3.5","","3.1","","97","","12","","5","","0.6","","100.09","","","","","","Rain,Drizzle,Fog"
"2017-03-28 07:00","2017","03","28","07:00","3.6","","3.2","","97","","36","","2","","1.6","","100.15","","","","","","Drizzle,Fog"
"2017-03-28 08:00","2017","03","28","08:00","5.0","","4.6","","97","","35","","6","","4.0","","100.18","","","","","","Fog"
"2017-03-28 09:00","2017","03","28","09:00","5.3","","5.0","","98","","2","","18","","24.1","","100.25","","","","","","Drizzle"
"2017-03-28 10:00","2017","03","28","10:00","5.4","","4.4","","93","","1","","12","","24.1","","100.32","","","","","","Cloudy"
"2017-03-28 11:00","2017","03","28","11:00","5.6","","4.1","","90","","36","","16","","24.1","","100.33","","","","","","NA"
"2017-03-28 12:00","2017","03","28","12:00","6.0","","4.0","","87","","1","","17","","24.1","","100.35","","","","","","NA"
"2017-03-28 13:00","2017","03","28","13:00","6.7","","3.9","","82","","2","","20","","24.1","","100.34","","","","","","Cloudy"
"2017-03-28 14:00","2017","03","28","14:00","7.3","","4.1","","80","","36","","21","","24.1","","100.36","","","","","","NA"
"2017-03-28 15:00","2017","03","28","15:00","6.9","","3.2","","77","","1","","18","","24.1","","100.41","","","","","","NA"
"2017-03-28 16:00","2017","03","28","16:00","7.3","","2.8","","73","","3","","19","","24.1","","100.46","","","","","","Mostly Cloudy"
"2017-03-28 17:00","2017","03","28","17:00","6.9","","2.4","","73","","2","","19","","24.1","","100.53","","","","","","NA"
"2017-03-28 18:00","2017","03","28","18:00","5.6","","1.0","","72","","1","","28","","24.1","","100.63","","","","","","NA"
"2017-03-28 19:00","2017","03","28","19:00","4.5","","0.5","","75","","3","","18","","24.1","","100.73","","","","","","Mostly Cloudy"
"2017-03-28 20:00","2017","03","28","20:00","3.0","","-0.5","","78","","36","","10","","24.1","","100.82","","","","","","NA"
"2017-03-28 21:00","2017","03","28","21:00","2.0","","-0.4","","84","","30","","7","","24.1","","100.85","","","","","","NA"
"2017-03-28 22:00","2017","03","28","22:00","0.0","","-1.1","","92","","31","","9","","24.1","","100.87","","","","-3","","Mostly Cloudy"
"2017-03-28 23:00","2017","03","28","23:00"
"2017-03-29 00:00","2017","03","29","00:00"
"2017-03-29 01:00","2017","03","29","01:00"
"2017-03-29 02:00","2017","03","29","02:00"
"2017-03-29 03:00","2017","03","29","03:00"
"2017-03-29 04:00","2017","03","29","04:00"
"2017-03-29 05:00","2017","03","29","05:00","-1.3","","-2.9","","89","","33","","14","","24.1","","101.14","","","","-6","","NA"
"2017-03-29 06:00","2017","03","29","06:00","-2.0","","-3.6","","89","","33","","13","","24.1","","101.18","","","","-6","","NA"
"2017-03-29 07:00","2017","03","29","07:00","-0.5","","-2.6","","86","","35","","9","","24.1","","101.21","","","","-4","","Mainly Clear"
"2017-03-29 08:00","2017","03","29","08:00","1.4","","-2.0","","78","","34","","8","","24.1","","101.28","","","","","","NA"
"2017-03-29 09:00","2017","03","29","09:00","3.5","","-2.5","","65","","33","","11","","24.1","","101.30","","","","","","NA"
"2017-03-29 10:00","2017","03","29","10:00","5.0","","-3.8","","53","","2","","15","","24.1","","101.31","","","","","","Mostly Cloudy"
"2017-03-29 11:00","2017","03","29","11:00","4.7","","-3.6","","55","","34","","25","","24.1","","101.35","","","","","","NA"
"2017-03-29 12:00","2017","03","29","12:00","5.6","","-3.5","","52","","33","","18","","24.1","","101.35","","","","","","NA"
"2017-03-29 13:00","2017","03","29","13:00","5.6","","-3.5","","52","","33","","30","","24.1","","101.34","","","","","","Mostly Cloudy"
"2017-03-29 14:00","2017","03","29","14:00","5.1","","-3.7","","53","","35","","26","","24.1","","101.35","","","","","","NA"
"2017-03-29 15:00","2017","03","29","15:00","5.8","","-3.0","","53","","33","","19","","24.1","","101.36","","","","","","NA"
"2017-03-29 16:00","2017","03","29","16:00","6.3","","-3.9","","48","","33","","22","","24.1","","101.36","","","","","","Mainly Clear"
"2017-03-29 17:00","2017","03","29","17:00","6.2","","-5.2","","44","","31","","14","","24.1","","101.40","","","","","","NA"
"2017-03-29 18:00","2017","03","29","18:00","4.6","","-6.1","","46","","3","","10","","24.1","","101.47","","","","","","NA"
"2017-03-29 19:00","2017","03","29","19:00","4.7","","-6.8","","43","","3","","5","","24.1","","101.48","","","","","","Mainly Clear"
"2017-03-29 20:00","2017","03","29","20:00","3.2","","-6.0","","51","","1","","17","","24.1","","101.55","","","","","","NA"
"2017-03-29 21:00","2017","03","29","21:00","2.0","","-6.1","","55","","1","","14","","24.1","","101.58","","","","","","NA"
"2017-03-29 22:00","2017","03","29","22:00","1.5","","-6.4","","56","","1","","16","","24.1","","101.51","","","","","","Mostly Cloudy"
"2017-03-29 23:00","2017","03","29","23:00"
"2017-03-30 00:00","2017","03","30","00:00"
"2017-03-30 01:00","2017","03","30","01:00"
"2017-03-30 02:00","2017","03","30","02:00"
"2017-03-30 03:00","2017","03","30","03:00"
"2017-03-30 04:00","2017","03","30","04:00"
"2017-03-30 05:00","2017","03","30","05:00","-4.3","","-6.9","","82","","35","","11","","24.1","","101.55","","","","-9","","NA"
"2017-03-30 06:00","2017","03","30","06:00","-3.7","","-6.7","","80","","35","","11","","24.1","","101.58","","","","-8","","NA"
"2017-03-30 07:00","2017","03","30","07:00","-0.9","","-6.1","","68","","3","","11","","24.1","","101.54","","","","-5","","Mostly Cloudy"
"2017-03-30 08:00","2017","03","30","08:00","1.0","","-6.1","","59","","5","","14","","24.1","","101.54","","","","","","NA"
"2017-03-30 09:00","2017","03","30","09:00","2.2","","-5.9","","55","","6","","17","","24.1","","101.49","","","","","","NA"
"2017-03-30 10:00","2017","03","30","10:00","3.2","","-6.0","","51","","6","","17","","24.1","","101.44","","","","","","Mostly Cloudy"
"2017-03-30 11:00","2017","03","30","11:00","3.4","","-5.0","","54","","9","","20","","24.1","","101.39","","","","","","NA"
"2017-03-30 12:00","2017","03","30","12:00","3.8","","-5.2","","52","","10","","26","","24.1","","101.26","","","","","","NA"
"2017-03-30 13:00","2017","03","30","13:00","4.3","","-4.5","","53","","10","","19","","24.1","","101.23","","","","","","Cloudy"
"2017-03-30 14:00","2017","03","30","14:00","4.5","","-5.0","","50","","11","","18","","24.1","","101.16","","","","","","NA"
"2017-03-30 15:00","2017","03","30","15:00","4.8","","-5.6","","47","","8","","20","","24.1","","101.05","","","","","","NA"
"2017-03-30 16:00","2017","03","30","16:00","5.0","","-5.4","","47","","6","","22","","24.1","","100.91","","","","","","Mostly Cloudy"
"2017-03-30 17:00","2017","03","30","17:00","4.6","","-5.2","","49","","7","","18","","24.1","","100.87","","","","","","NA"
"2017-03-30 18:00","2017","03","30","18:00","4.2","","-4.8","","52","","4","","14","","24.1","","100.89","","","","","","NA"
"2017-03-30 19:00","2017","03","30","19:00","3.3","","-4.7","","56","","6","","16","","24.1","","100.86","","","","","","Cloudy"
"2017-03-30 20:00","2017","03","30","20:00","3.3","","-5.9","","51","","5","","18","","24.1","","100.87","","","","","","NA"
"2017-03-30 21:00","2017","03","30","21:00","2.9","","-6.8","","49","","5","","17","","24.1","","100.96","","","","","","NA"
"2017-03-30 22:00","2017","03","30","22:00","2.4","","-5.7","","55","","15","","10","","24.1","","100.93","","","","","","Cloudy"
"2017-03-30 23:00","2017","03","30","23:00"
"2017-03-31 00:00","2017","03","31","00:00"
"2017-03-31 01:00","2017","03","31","01:00"
"2017-03-31 02:00","2017","03","31","02:00"
"2017-03-31 03:00","2017","03","31","03:00"
"2017-03-31 04:00","2017","03","31","04:00"
"2017-03-31 05:00","2017","03","31","05:00","0.4","","-0.8","","92","","7","","27","","19.3","","100.34","","","","","","Snow"
"2017-03-31 06:00","2017","03","31","06:00","0.4","","-0.8","","92","","5","","21","","24.1","","100.32","","","","","","Snow"
"2017-03-31 07:00","2017","03","31","07:00","0.7","","-0.6","","91","","6","","22","","16.1","","100.28","","","","","","Rain"
"2017-03-31 08:00","2017","03","31","08:00","0.9","","-0.1","","93","","6","","24","","9.7","","100.27","","","","","","Rain,Fog"
"2017-03-31 09:00","2017","03","31","09:00","1.3","","0.4","","94","","6","","23","","9.7","","100.21","","","","","","Rain,Fog"
"2017-03-31 10:00","2017","03","31","10:00","2.0","","1.1","","94","","6","","25","","9.7","","100.16","","","","","","Rain,Fog"
"2017-03-31 11:00","2017","03","31","11:00","2.3","","1.3","","93","","7","","20","","8.1","","100.14","","","","","","Rain,Fog"
"2017-03-31 12:00","2017","03","31","12:00","2.7","","1.8","","94","","6","","23","","9.7","","100.08","","","","","","Rain,Fog"
"2017-03-31 13:00","2017","03","31","13:00","3.0","","2.1","","94","","6","","24","","9.7","","100.03","","","","","","Rain,Fog"
"2017-03-31 14:00","2017","03","31","14:00","2.8","","1.9","","94","","6","","26","","9.7","","99.97","","","","","","Rain,Fog"
"2017-03-31 15:00","2017","03","31","15:00","2.4","","1.5","","94","","5","","27","","6.4","","99.92","","","","","","Rain,Fog"
"2017-03-31 16:00","2017","03","31","16:00","2.2","","1.5","","95","","4","","22","","8.1","","99.90","","","","","","Rain,Fog"
"2017-03-31 17:00","2017","03","31","17:00","2.3","","1.6","","95","","5","","18","","8.1","","99.91","","","","","","Rain,Fog"
"2017-03-31 18:00","2017","03","31","18:00","1.9","","1.2","","95","","5","","19","","8.1","","99.91","","","","","","Rain,Fog"
"2017-03-31 19:00","2017","03","31","19:00","1.2","","0.5","","95","","5","","20","","9.7","","99.91","","","","","","Rain,Snow,Fog"
"2017-03-31 20:00","2017","03","31","20:00","0.7","","0.0","","95","","4","","18","","11.3","","99.96","","","","","","Snow"
"2017-03-31 21:00","2017","03","31","21:00","0.8","","0.1","","95","","5","","21","","12.9","","99.95","","","","","","Snow"
"2017-03-31 22:00","2017","03","31","22:00","0.8","","0.1","","95","","5","","20","","16.1","","99.92","","","","","","Snow"
"2017-03-31 23:00","2017","03","31","23:00"
