"Station Name","KINGSTON A"
"Province","ONTARIO"
"Latitude","44.22"
"Longitude","-76.60"
"Elevation","92.40"
"Climate Identifier","6104146"
"WMO Identifier",""
"TC Identifier","YGK"
"All times are specified in Local Standard Time (LST). Add 1 hour to adjust for Daylight Saving Time where and when it is observed."

"Legend"
"E","Estimated"
"M","Missing"
"NA","Not Available"

"Date/Time","Year","Month","Day","Time","Temp (°C)","Temp Flag","Dew Point Temp (°C)","Dew Point Temp Flag","Rel Hum (%)","Rel Hum Flag","Wind Dir (10s deg)","Wind Dir Flag","Wind Spd (km/h)","Wind Spd Flag","Visibility (km)","Visibility Flag","Stn Press (kPa)","Stn Press Flag","Hmdx","Hmdx Flag","Wind Chill","Wind Chill Flag","Weather"
"2010-07-01 00:00","2010","07","01","00:00"
"2010-07-01 01:00","2010","07","01","01:00"
"2010-07-01 02:00","2010","07","01","02:00"
"2010-07-01 03:00","2010","07","01","03:00"
"2010-07-01 04:00","2010","07","01","04:00"
"2010-07-01 05:00","2010","07","01","05:00","11.5","","9.5","","88","","29","","15","","24.1","","101.02","","","","","","Mainly Clear"
"2010-07-01 06:00","2010","07","01","06:00","12.2","","9.6","","84","","29","","13","","24.1","","101.09","","","","","","Mainly Clear"
"2010-07-01 07:00","2010","07","01","07:00","14.1","","9.9","","76","","29","","17","","24.1","","101.13","","","","","","Mainly Clear"
"2010-07-01 08:00","2010","07","01","08:00","15.7","","9.3","","66","","29","","17","","24.1","","101.17","","","","","","Mainly Clear"
"2010-07-01 09:00","2010","07","01","09:00","17.0","","8.9","","59","","31","","19","","24.1","","101.14","","","","","","Mostly Cloudy"
"2010-07-01 10:00","2010","07","01","10:00","18.1","","8.4","","53","","32","","22","","24.1","","101.09","","","","","","Mostly Cloudy"
"2010-07-01 11:00","2010","07","01","11:00","19.0","","8.0","","49","","32","","24","","24.1","","101.08","","","","","","Mostly Cloudy"
"2010-07-01 12:00","2010","07","01","12:00","19.5","","8.4","","49","","31","","17","","24.1","","101.09","","","","","","Mostly Cloudy"
"2010-07-01 13:00","2010","07","01","13:00","20.8","","9.3","","48","","30","","19","","24.1","","101.07","","","","","","Mostly Cloudy"
"2010-07-01 14:00","2010","07","01","14:00","21.3","","9.6","","47","","28","","19","","24.1","","101.07","","","","","","Mostly Cloudy"
"2010-07-01 15:00","2010","07","01","15:00","20.4","","8.9","","48","","31","","15","","24.1","","101.07","","","","","","Mostly Cloudy"
"2010-07-01 16:00","2010","07","01","16:00","20.5","","9.4","","49","","30","","20","","24.1","","101.09","","","","","","Mostly Cloudy"
"2010-07-01 17:00","2010","07","01","17:00","20.9","","9.6","","48","","32","","6","","24.1","","101.08","","","","","","Mostly Cloudy"
"2010-07-01 18:00","2010","07","01","18:00","20.5","","8.9","","47","","32","","17","","24.1","","101.07","","","","","","Mainly Clear"
"2010-07-01 19:00","2010","07","01","19:00","19.6","","9.4","","52","","29","","9","","24.1","","101.10","","","","","","Mainly Clear"
"2010-07-01 20:00","2010","07","01","20:00","18.2","","9.6","","57","","28","","7","","24.1","","101.12","","","","","","Clear"
"2010-07-01 21:00","2010","07","01","21:00","17.2","","9.0","","58","","30","","11","","24.1","","101.19","","","","","","Clear"
"2010-07-01 22:00","2010","07","01","22:00","15.4","","8.9","","65","","31","","9","","24.1","","101.25","","","","","","Clear"
"2010-07-01 23:00","2010","07","01","23:00"
"2010-07-02 00:00","2010","07","02","00:00"
"2010-07-02 01:00","2010","07","02","01:00"
"2010-07-02 02:00","2010","07","02","02:00"
"2010-07-02 03:00","2010","07","02","03:00"
"2010-07-02 04:00","2010","07","02","04:00"
"2010-07-02 05:00","2010","07","02","05:00","11.5","","9.0","","85","","31","","11","","24.1","","101.39","","","","","","Mainly Clear"
"2010-07-02 06:00","2010","07","02","06:00","13.4","","9.8","","79","","33","","9","","24.1","","101.42","","","","","","Mainly Clear"
"2010-07-02 07:00","2010","07","02","07:00","16.6","","10.4","","67","","32","","7","","24.1","","101.47","","","","","","Mainly Clear"
"2010-07-02 08:00","2010","07","02","08:00","19.0","","10.7","","59","","34","","9","","24.1","","101.48","","","","","","Mainly Clear"
"2010-07-02 09:00","2010","07","02","09:00","21.0","","10.0","","49","","33","","13","","24.1","","101.46","","","","","","Mainly Clear"
"2010-07-02 10:00","2010","07","02","10:00","22.5","","8.9","","42","","32","","15","","24.1","","101.43","","","","","","Mainly Clear"
"2010-07-02 11:00","2010","07","02","11:00","22.6","","8.7","","41","","24","","7","","24.1","","101.41","","","","","","Mainly Clear"
"2010-07-02 12:00","2010","07","02","12:00","20.2","","15.3","","73","","19","","20","","24.1","","101.36","","","","","","Mainly Clear"
"2010-07-02 13:00","2010","07","02","13:00","19.4","","14.7","","74","","18","","26","","24.1","","101.29","","","","","","Mainly Clear"
"2010-07-02 14:00","2010","07","02","14:00","19.8","","16.0","","79","","19","","26","","24.1","","101.25","","","","","","Mostly Cloudy"
"2010-07-02 15:00","2010","07","02","15:00","20.4","","14.9","","71","","20","","24","","24.1","","101.19","","","","","","Mostly Cloudy"
"2010-07-02 16:00","2010","07","02","16:00","21.7","","13.0","","58","","22","","28","","24.1","","101.12","","","","","","Mostly Cloudy"
"2010-07-02 17:00","2010","07","02","17:00","22.3","","11.4","","50","","24","","22","","24.1","","101.08","","","","","","Mostly Cloudy"
"2010-07-02 18:00","2010","07","02","18:00","21.4","","10.7","","50","","23","","26","","24.1","","101.02","","","","","","Mostly Cloudy"
"2010-07-02 19:00","2010","07","02","19:00","20.8","","10.3","","51","","23","","22","","24.1","","101.02","","","","","","Mostly Cloudy"
"2010-07-02 20:00","2010","07","02","20:00","19.7","","10.1","","54","","23","","15","","24.1","","100.98","","","","","","Mainly Clear"
"2010-07-02 21:00","2010","07","02","21:00","18.4","","9.9","","58","","23","","11","","24.1","","100.96","","","","","","Mainly Clear"
"2010-07-02 22:00","2010","07","02","22:00","17.5","","9.5","","59","","21","","9","","24.1","","100.95","","","","","","Mainly Clear"
"2010-07-02 23:00","2010","07","02","23:00"
"2010-07-03 00:00","2010","07","03","00:00"
"2010-07-03 01:00","2010","07","03","01:00"
"2010-07-03 02:00","2010","07","03","02:00"
"2010-07-03 03:00","2010","07","03","03:00"
"2010-07-03 04:00","2010","07","03","04:00"
"2010-07-03 05:00","2010","07","03","05:00","16.0","","13.7","","86","","21","","17","","24.1","","100.92","","","","","","Mainly Clear"
"2010-07-03 06:00","2010","07","03","06:00","17.0","","14.5","","85","","21","","15","","24.1","","100.96","","","","","","Mainly Clear"
"2010-07-03 07:00","2010","07","03","07:00","18.2","","14.3","","78","","21","","17","","24.1","","100.97","","","","","","Mainly Clear"
"2010-07-03 08:00","2010","07","03","08:00","20.2","","15.0","","72","","23","","17","","24.1","","100.95","","","","","","Mainly Clear"
"2010-07-03 09:00","2010","07","03","09:00","20.6","","14.6","","68","","23","","20","","24.1","","100.90","","","","","","Mainly Clear"
"2010-07-03 10:00","2010","07","03","10:00","21.9","","14.4","","62","","24","","22","","24.1","","100.85","","26","","","","Mainly Clear"
"2010-07-03 11:00","2010","07","03","11:00","21.5","","16.8","","75","","23","","17","","24.1","","100.80","","27","","","","Mainly Clear"
"2010-07-03 12:00","2010","07","03","12:00","23.5","","16.0","","63","","22","","17","","24.1","","100.74","","28","","","","Mainly Clear"
"2010-07-03 13:00","2010","07","03","13:00","25.1","","15.1","","54","","23","","22","","24.1","","100.69","","29","","","","Mainly Clear"
"2010-07-03 14:00","2010","07","03","14:00","21.6","","16.4","","72","","20","","17","","24.1","","100.65","","26","","","","Mainly Clear"
"2010-07-03 15:00","2010","07","03","15:00","26.4","","14.5","","48","","22","","22","","24.1","","100.60","","30","","","","Mainly Clear"
"2010-07-03 16:00","2010","07","03","16:00","26.1","","13.9","","47","","23","","24","","24.1","","100.55","","29","","","","Mainly Clear"
"2010-07-03 17:00","2010","07","03","17:00","26.3","","14.6","","49","","22","","26","","24.1","","100.53","","30","","","","Mainly Clear"
"2010-07-03 18:00","2010","07","03","18:00","26.2","","14.5","","49","","23","","22","","24.1","","100.52","","30","","","","Mainly Clear"
"2010-07-03 19:00","2010","07","03","19:00","25.0","","14.4","","52","","22","","20","","24.1","","100.47","","29","","","","Mainly Clear"
"2010-07-03 20:00","2010","07","03","20:00","23.5","","14.2","","56","","24","","9","","24.1","","100.49","","27","","","","Mainly Clear"
"2010-07-03 21:00","2010","07","03","21:00","22.2","","14.2","","60","","23","","11","","24.1","","100.49","","26","","","","Mainly Clear"
"2010-07-03 22:00","2010","07","03","22:00","22.4","","9.4","","44","","22","","15","","24.1","","100.41","","","","","","Clear"
"2010-07-03 23:00","2010","07","03","23:00"
"2010-07-04 00:00","2010","07","04","00:00"
"2010-07-04 01:00","2010","07","04","01:00"
"2010-07-04 02:00","2010","07","04","02:00"
"2010-07-04 03:00","2010","07","04","03:00"
"2010-07-04 04:00","2010","07","04","04:00"
"2010-07-04 05:00","2010","07","04","05:00","18.1","","15.0","","82","","21","","13","","24.1","","100.46","","","","","","Mainly Clear"
"2010-07-04 06:00","2010","07","04","06:00","18.8","","15.5","","81","","23","","15","","24.1","","100.48","","","","","","Mainly Clear"
"2010-07-04 07:00","2010","07","04","07:00","19.7","","15.6","","77","","23","","13","","24.1","","100.51","","","","","","Mostly Cloudy"
"2010-07-04 08:00","2010","07","04","08:00","21.5","","15.4","","68","","23","","15","","24.1","","100.51","","26","","","","Mostly Cloudy"
"2010-07-04 09:00","2010","07","04","09:00","20.4","","17.5","","83","","18","","11","","24.1","","100.49","","26","","","","Mainly Clear"
"2010-07-04 10:00","2010","07","04","10:00","21.0","","17.5","","80","","18","","19","","24.1","","100.46","","27","","","","Mainly Clear"
"2010-07-04 11:00","2010","07","04","11:00","21.9","","17.6","","77","","18","","17","","24.1","","100.41","","28","","","","Mostly Cloudy"
"2010-07-04 12:00","2010","07","04","12:00","22.5","","17.7","","74","","19","","20","","24.1","","100.38","","28","","","","Mainly Clear"
"2010-07-04 13:00","2010","07","04","13:00","21.5","","17.9","","80","","18","","24","","24.1","","100.32","","27","","","","Mainly Clear"
"2010-07-04 14:00","2010","07","04","14:00","23.2","","17.6","","71","","19","","22","","24.1","","100.28","","29","","","","Mainly Clear"
"2010-07-04 15:00","2010","07","04","15:00","22.3","","17.9","","76","","18","","19","","24.1","","100.25","","28","","","","Mainly Clear"
"2010-07-04 16:00","2010","07","04","16:00","28.1","","14.8","","44","","22","","28","","24.1","","100.23","","32","","","","Mainly Clear"
"2010-07-04 17:00","2010","07","04","17:00","22.1","","17.7","","76","","18","","19","","24.1","","100.20","","28","","","","Mainly Clear"
"2010-07-04 18:00","2010","07","04","18:00","22.8","","17.1","","70","","21","","11","","24.1","","100.20","","28","","","","Mainly Clear"
"2010-07-04 19:00","2010","07","04","19:00","21.6","","17.7","","78","","18","","13","","24.1","","100.21","","27","","","","Mainly Clear"
"2010-07-04 20:00","2010","07","04","20:00","21.8","","17.5","","77","","21","","11","","24.1","","100.22","","27","","","","Mainly Clear"
"2010-07-04 21:00","2010","07","04","21:00","21.3","","17.6","","79","","22","","9","","24.1","","100.28","","27","","","","Clear"
"2010-07-04 22:00","2010","07","04","22:00","21.3","","17.1","","77","","24","","7","","24.1","","100.28","","27","","","","Clear"
"2010-07-04 23:00","2010","07","04","23:00"
"2010-07-05 00:00","2010","07","05","00:00"
"2010-07-05 01:00","2010","07","05","01:00"
"2010-07-05 02:00","2010","07","05","02:00"
"2010-07-05 03:00","2010","07","05","03:00"
"2010-07-05 04:00","2010","07","05","04:00"
"2010-07-05 05:00","2010","07","05","05:00","19.3","","17.8","","91","","18","","11","","9.7","","100.27","","","","","","Haze"
"2010-07-05 06:00","2010","07","05","06:00","19.6","","18.1","","91","","17","","13","","8.0","","100.30","","","","","","Haze"
"2010-07-05 07:00","2010","07","05","07:00","20.0","","18.3","","90","","17","","17","","8.0","","100.32","","26","","","","Haze"
"2010-07-05 08:00","2010","07","05","08:00","20.6","","18.5","","88","","17","","17","","8.0","","100.36","","27","","","","Haze"
"2010-07-05 09:00","2010","07","05","09:00","21.1","","18.8","","87","","17","","15","","8.0","","100.37","","28","","","","Haze"
"2010-07-05 10:00","2010","07","05","10:00","21.8","","18.9","","84","","17","","15","","8.0","","100.34","","28","","","","Haze"
"2010-07-05 11:00","2010","07","05","11:00","21.8","","19.1","","85","","16","","15","","8.0","","100.31","","29","","","","Haze"
"2010-07-05 12:00","2010","07","05","12:00","22.2","","19.5","","85","","17","","19","","8.0","","100.31","","29","","","","Haze"
"2010-07-05 13:00","2010","07","05","13:00","24.1","","20.5","","80","","19","","17","","8.0","","100.24","","32","","","","Haze"
"2010-07-05 14:00","2010","07","05","14:00","25.7","","21.4","","77","","23","","22","","8.0","","100.22","","34","","","","Haze"
"2010-07-05 15:00","2010","07","05","15:00","24.8","","20.9","","79","","23","","20","","8.0","","100.21","","33","","","","Haze"
"2010-07-05 16:00","2010","07","05","16:00","26.8","","21.8","","74","","23","","22","","9.7","","100.21","","36","","","","Haze"
"2010-07-05 17:00","2010","07","05","17:00","30.2","","20.9","","58","","23","","22","","12.9","","100.23","","39","","","","Mainly Clear"
"2010-07-05 18:00","2010","07","05","18:00","28.8","","20.0","","59","","27","","6","","16.1","","100.27","","36","","","","Mostly Cloudy"
"2010-07-05 19:00","2010","07","05","19:00","27.4","","20.0","","64","","20","","6","","19.3","","100.30","","35","","","","Mainly Clear"
"2010-07-05 20:00","2010","07","05","20:00","23.8","","20.5","","82","","22","","7","","19.3","","100.33","","32","","","","Mainly Clear"
"2010-07-05 21:00","2010","07","05","21:00","25.7","","20.6","","73","","24","","13","","19.3","","100.40","","34","","","","Clear"
"2010-07-05 22:00","2010","07","05","22:00","25.3","","20.8","","76","","23","","15","","19.3","","100.42","","34","","","","Clear"
"2010-07-05 23:00","2010","07","05","23:00"
"2010-07-06 00:00","2010","07","06","00:00"
"2010-07-06 01:00","2010","07","06","01:00"
"2010-07-06 02:00","2010","07","06","02:00"
"2010-07-06 03:00","2010","07","06","03:00"
"2010-07-06 04:00","2010","07","06","04:00"
"2010-07-06 05:00","2010","07","06","05:00","20.7","","19.4","","92","","","","0","","9.7","","100.56","","28","","","","Haze"
"2010-07-06 06:00","2010","07","06","06:00","21.6","","19.9","","90","","15","","4","","9.7","","100.59","","29","","","","Haze"
"2010-07-06 07:00","2010","07","06","07:00","21.3","","19.6","","90","","14","","6","","9.7","","100.64","","29","","","","Haze"
"2010-07-06 08:00","2010","07","06","08:00","22.0","","19.9","","88","","16","","11","","9.7","","100.66","","29","","","","Haze"
"2010-07-06 09:00","2010","07","06","09:00","22.2","","20.1","","88","","19","","11","","9.7","","100.67","","30","","","","Haze"
"2010-07-06 10:00","2010","07","06","10:00","23.1","","20.2","","84","","16","","13","","8.0","","100.68","","31","","","","Haze"
"2010-07-06 11:00","2010","07","06","11:00","23.0","","20.0","","83","","16","","13","","8.0","","100.67","","31","","","","Haze"
"2010-07-06 12:00","2010","07","06","12:00","23.7","","20.5","","82","","17","","17","","9.7","","100.65","","32","","","","Haze"
"2010-07-06 13:00","2010","07","06","13:00","24.9","","20.8","","78","","16","","13","","9.7","","100.62","","33","","","","Haze"
"2010-07-06 14:00","2010","07","06","14:00","23.9","","20.6","","82","","17","","17","","9.7","","100.59","","32","","","","Haze"
"2010-07-06 15:00","2010","07","06","15:00","24.1","","20.5","","80","","16","","13","","8.0","","100.55","","32","","","","Haze"
"2010-07-06 16:00","2010","07","06","16:00","24.5","","20.9","","80","","16","","15","","9.7","","100.54","","33","","","","Haze"
"2010-07-06 17:00","2010","07","06","17:00","25.4","","21.1","","77","","18","","9","","9.7","","100.51","","34","","","","Haze"
"2010-07-06 18:00","2010","07","06","18:00","24.8","","20.8","","78","","19","","11","","9.7","","100.52","","33","","","","Haze"
"2010-07-06 19:00","2010","07","06","19:00","23.4","","20.5","","84","","18","","6","","11.3","","100.52","","31","","","","Clear"
"2010-07-06 20:00","2010","07","06","20:00","23.3","","20.4","","84","","15","","7","","9.7","","100.51","","31","","","","Haze"
"2010-07-06 21:00","2010","07","06","21:00","22.7","","20.3","","86","","","","0","","9.7","","100.58","","31","","","","Haze"
"2010-07-06 22:00","2010","07","06","22:00","22.2","","20.0","","87","","17","","9","","9.7","","100.60","","30","","","","Haze"
"2010-07-06 23:00","2010","07","06","23:00"
"2010-07-07 00:00","2010","07","07","00:00"
"2010-07-07 01:00","2010","07","07","01:00"
"2010-07-07 02:00","2010","07","07","02:00"
"2010-07-07 03:00","2010","07","07","03:00"
"2010-07-07 04:00","2010","07","07","04:00"
"2010-07-07 05:00","2010","07","07","05:00","20.7","","19.4","","92","","","","0","","9.7","","100.67","","28","","","","Haze"
"2010-07-07 06:00","2010","07","07","06:00","22.0","","20.0","","88","","","","0","","8.0","","100.69","","30","","","","Haze"
"2010-07-07 07:00","2010","07","07","07:00","22.0","","19.9","","88","","14","","7","","8.0","","100.71","","29","","","","Haze"
"2010-07-07 08:00","2010","07","07","08:00","22.4","","20.0","","86","","15","","7","","6.4","","100.71","","30","","","","Haze"
"2010-07-07 09:00","2010","07","07","09:00","22.3","","20.2","","88","","17","","11","","6.4","","100.71","","30","","","","Haze"
"2010-07-07 10:00","2010","07","07","10:00","23.2","","20.5","","85","","16","","13","","6.4","","100.70","","31","","","","Haze"
"2010-07-07 11:00","2010","07","07","11:00","23.8","","20.2","","80","","15","","15","","6.4","","100.71","","32","","","","Haze"
"2010-07-07 12:00","2010","07","07","12:00","24.0","","20.6","","81","","15","","15","","6.4","","100.67","","32","","","","Haze"
"2010-07-07 13:00","2010","07","07","13:00","24.1","","20.8","","82","","17","","19","","8.0","","100.65","","32","","","","Haze"
"2010-07-07 14:00","2010","07","07","14:00","23.8","","20.7","","83","","17","","19","","8.0","","100.63","","32","","","","Haze"
"2010-07-07 15:00","2010","07","07","15:00","24.0","","20.8","","82","","17","","17","","6.4","","100.60","","32","","","","Haze"
"2010-07-07 16:00","2010","07","07","16:00","24.7","","21.1","","80","","16","","13","","8.0","","100.59","","33","","","","Haze"
"2010-07-07 17:00","2010","07","07","17:00","23.9","","20.8","","83","","17","","15","","8.0","","100.56","","32","","","","Haze"
"2010-07-07 18:00","2010","07","07","18:00","23.9","","20.8","","83","","19","","9","","8.0","","100.54","","32","","","","Haze"
"2010-07-07 19:00","2010","07","07","19:00","23.7","","21.0","","85","","17","","9","","9.7","","100.53","","32","","","","Haze"
"2010-07-07 20:00","2010","07","07","20:00","23.7","","21.2","","86","","18","","4","","9.7","","100.52","","32","","","","Haze"
"2010-07-07 21:00","2010","07","07","21:00","23.2","","21.1","","88","","15","","6","","11.3","","100.55","","32","","","","Mainly Clear"
"2010-07-07 22:00","2010","07","07","22:00","23.1","","21.2","","89","","","","0","","11.3","","100.54","","32","","","","Clear"
"2010-07-07 23:00","2010","07","07","23:00"
"2010-07-08 00:00","2010","07","08","00:00"
"2010-07-08 01:00","2010","07","08","01:00"
"2010-07-08 02:00","2010","07","08","02:00"
"2010-07-08 03:00","2010","07","08","03:00"
"2010-07-08 04:00","2010","07","08","04:00"
"2010-07-08 05:00","2010","07","08","05:00","22.2","","21.0","","93","","18","","11","","4.8","","100.58","","31","","","","Haze"
"2010-07-08 06:00","2010","07","08","06:00","23.2","","21.4","","90","","","","0","","6.4","","100.60","","32","","","","Haze"
"2010-07-08 07:00","2010","07","08","07:00","24.3","","21.7","","85","","23","","4","","6.4","","100.60","","33","","","","Haze"
"2010-07-08 08:00","2010","07","08","08:00","26.9","","22.5","","77","","24","","6","","8.0","","100.61","","37","","","","Haze"
"2010-07-08 09:00","2010","07","08","09:00","25.3","","22.3","","83","","16","","7","","11.3","","100.58","","35","","","","Mainly Clear"
"2010-07-08 10:00","2010","07","08","10:00","24.3","","21.8","","86","","15","","15","","8.0","","100.55","","33","","","","Haze"
"2010-07-08 11:00","2010","07","08","11:00","24.8","","21.9","","84","","17","","15","","9.7","","100.53","","34","","","","Haze"
"2010-07-08 12:00","2010","07","08","12:00","25.2","","22.0","","82","","17","","13","","8.0","","100.50","","35","","","","Haze"
"2010-07-08 13:00","2010","07","08","13:00","25.4","","22.0","","81","","18","","11","","8.0","","100.46","","35","","","","Haze"
"2010-07-08 14:00","2010","07","08","14:00","25.7","","22.3","","82","","19","","15","","8.0","","100.42","","35","","","","Haze"
"2010-07-08 15:00","2010","07","08","15:00","26.3","","22.6","","80","","18","","15","","8.0","","100.33","","36","","","","Haze"
"2010-07-08 16:00","2010","07","08","16:00","25.9","","22.4","","81","","18","","11","","8.0","","100.28","","36","","","","Haze"
"2010-07-08 17:00","2010","07","08","17:00","26.1","","22.5","","81","","16","","9","","11.3","","100.22","","36","","","","Mainly Clear"
"2010-07-08 18:00","2010","07","08","18:00","25.9","","22.3","","81","","16","","11","","11.3","","100.24","","36","","","","Mainly Clear"
"2010-07-08 19:00","2010","07","08","19:00","25.2","","22.1","","83","","18","","4","","11.3","","100.25","","35","","","","Mainly Clear"
"2010-07-08 20:00","2010","07","08","20:00","24.8","","22.1","","85","","","","0","","11.3","","100.24","","34","","","","Mainly Clear"
"2010-07-08 21:00","2010","07","08","21:00","24.6","","22.2","","87","","14","","11","","11.3","","100.26","","34","","","","Mainly Clear"
"2010-07-08 22:00","2010","07","08","22:00","24.1","","22.2","","89","","21","","4","","11.3","","100.23","","34","","","","Clear"
"2010-07-08 23:00","2010","07","08","23:00"
"2010-07-09 00:00","2010","07","09","00:00"
"2010-07-09 01:00","2010","07","09","01:00"
"2010-07-09 02:00","2010","07","09","02:00"
"2010-07-09 03:00","2010","07","09","03:00"
"2010-07-09 04:00","2010","07","09","04:00"
"2010-07-09 05:00","2010","07","09","05:00","24.3","","22.4","","89","","16","","7","","8.0","","100.11","","34","","","","Haze"
"2010-07-09 06:00","2010","07","09","06:00","24.6","","22.4","","88","","16","","7","","8.0","","100.11","","34","","","","Haze"
"2010-07-09 07:00","2010","07","09","07:00","25.2","","22.3","","84","","16","","13","","11.3","","100.08","","35","","","","Mostly Cloudy"
"2010-07-09 08:00","2010","07","09","08:00","25.1","","22.2","","84","","15","","15","","11.3","","100.07","","35","","","","Mostly Cloudy"
"2010-07-09 09:00","2010","07","09","09:00","25.4","","22.3","","83","","16","","19","","11.3","","100.05","","35","","","","Mostly Cloudy"
"2010-07-09 10:00","2010","07","09","10:00","24.8","","22.2","","85","","17","","15","","9.7","","100.02","","34","","","","Haze"
"2010-07-09 11:00","2010","07","09","11:00","24.8","","22.5","","87","","18","","15","","4.8","","100.00","","35","","","","Haze"
"2010-07-09 12:00","2010","07","09","12:00","26.2","","22.6","","81","","18","","19","","6.4","","99.93","","36","","","","Haze"
"2010-07-09 13:00","2010","07","09","13:00","26.1","","22.0","","78","","18","","15","","6.4","","99.89","","35","","","","Haze"
"2010-07-09 14:00","2010","07","09","14:00","28.9","","18.6","","54","","29","","28","","11.3","","99.85","","35","","","","Cloudy"
"2010-07-09 15:00","2010","07","09","15:00","25.0","","19.5","","72","","33","","22","","14.5","","99.86","","32","","","","Rain"
"2010-07-09 16:00","2010","07","09","16:00","22.2","","20.2","","88","","33","","11","","9.7","","99.88","","30","","","","Rain"
"2010-07-09 17:00","2010","07","09","17:00","21.6","","19.9","","90","","34","","4","","9.7","","99.92","","29","","","","Rain"
"2010-07-09 18:00","2010","07","09","18:00","21.5","","20.1","","92","","","","0","","11.3","","99.90","","29","","","","Rain"
"2010-07-09 19:00","2010","07","09","19:00","20.9","","19.4","","91","","1","","4","","11.3","","99.93","","28","","","","Rain"
"2010-07-09 20:00","2010","07","09","20:00","20.8","","19.3","","91","","34","","4","","12.9","","99.96","","28","","","","Rain"
"2010-07-09 21:00","2010","07","09","21:00","20.9","","19.6","","92","","26","","7","","19.3","","100.03","","28","","","","Mostly Cloudy"
"2010-07-09 22:00","2010","07","09","22:00","20.9","","19.5","","92","","27","","7","","19.3","","100.01","","28","","","","Mostly Cloudy"
"2010-07-09 23:00","2010","07","09","23:00"
"2010-07-10 00:00","2010","07","10","00:00"
"2010-07-10 01:00","2010","07","10","01:00"
"2010-07-10 02:00","2010","07","10","02:00"
"2010-07-10 03:00","2010","07","10","03:00"
"2010-07-10 04:00","2010","07","10","04:00"
"2010-07-10 05:00","2010","07","10","05:00","20.7","","19.4","","92","","27","","7","","16.1","","100.00","","28","","","","Mostly Cloudy"
"2010-07-10 06:00","2010","07","10","06:00","20.0","","18.1","","89","","29","","11","","19.3","","100.03","","26","","","","Mostly Cloudy"
"2010-07-10 07:00","2010","07","10","07:00","20.0","","17.7","","87","","29","","7","","24.1","","100.04","","26","","","","Mostly Cloudy"
"2010-07-10 08:00","2010","07","10","08:00","21.4","","18.3","","83","","28","","7","","24.1","","100.07","","28","","","","Mostly Cloudy"
"2010-07-10 09:00","2010","07","10","09:00","23.5","","19.1","","76","","30","","9","","24.1","","100.05","","30","","","","Mostly Cloudy"
"2010-07-10 10:00","2010","07","10","10:00","25.0","","18.4","","67","","29","","6","","24.1","","100.06","","31","","","","Mostly Cloudy"
"2010-07-10 11:00","2010","07","10","11:00","25.4","","17.7","","62","","19","","11","","24.1","","100.10","","31","","","","Mostly Cloudy"
"2010-07-10 12:00","2010","07","10","12:00","24.3","","20.2","","78","","17","","20","","24.1","","100.12","","32","","","","Mainly Clear"
"2010-07-10 13:00","2010","07","10","13:00","23.3","","19.2","","78","","19","","26","","24.1","","100.15","","30","","","","Mainly Clear"
"2010-07-10 14:00","2010","07","10","14:00","23.6","","18.5","","73","","18","","19","","24.1","","100.14","","30","","","","Mainly Clear"
"2010-07-10 15:00","2010","07","10","15:00","25.6","","18.1","","63","","21","","11","","24.1","","100.11","","32","","","","Mainly Clear"
"2010-07-10 16:00","2010","07","10","16:00","25.2","","20.7","","76","","20","","9","","24.1","","100.10","","33","","","","Mainly Clear"
"2010-07-10 17:00","2010","07","10","17:00","24.6","","20.4","","77","","18","","13","","24.1","","100.06","","33","","","","Mainly Clear"
"2010-07-10 18:00","2010","07","10","18:00","24.9","","20.2","","75","","19","","13","","24.1","","100.09","","33","","","","Mainly Clear"
"2010-07-10 19:00","2010","07","10","19:00","24.7","","18.6","","69","","21","","11","","24.1","","100.10","","31","","","","Mainly Clear"
"2010-07-10 20:00","2010","07","10","20:00","24.3","","18.5","","70","","23","","7","","24.1","","100.10","","31","","","","Mainly Clear"
"2010-07-10 21:00","2010","07","10","21:00","22.4","","18.5","","79","","","","0","","24.1","","100.11","","29","","","","Mainly Clear"
"2010-07-10 22:00","2010","07","10","22:00","22.7","","18.6","","78","","16","","6","","24.1","","100.12","","29","","","","Clear"
"2010-07-10 23:00","2010","07","10","23:00"
"2010-07-11 00:00","2010","07","11","00:00"
"2010-07-11 01:00","2010","07","11","01:00"
"2010-07-11 02:00","2010","07","11","02:00"
"2010-07-11 03:00","2010","07","11","03:00"
"2010-07-11 04:00","2010","07","11","04:00"
"2010-07-11 05:00","2010","07","11","05:00","21.3","","19.3","","88","","18","","17","","24.1","","100.12","","28","","","","Mainly Clear"
"2010-07-11 06:00","2010","07","11","06:00","21.8","","19.2","","85","","20","","6","","24.1","","100.15","","29","","","","Mainly Clear"
"2010-07-11 07:00","2010","07","11","07:00","22.2","","18.9","","82","","15","","7","","24.1","","100.17","","29","","","","Mainly Clear"
"2010-07-11 08:00","2010","07","11","08:00","22.6","","19.5","","83","","20","","7","","24.1","","100.19","","30","","","","Mainly Clear"
"2010-07-11 09:00","2010","07","11","09:00","23.2","","19.9","","82","","16","","11","","24.1","","100.20","","31","","","","Mostly Cloudy"
"2010-07-11 10:00","2010","07","11","10:00","23.6","","19.1","","76","","17","","7","","24.1","","100.19","","30","","","","Mostly Cloudy"
"2010-07-11 11:00","2010","07","11","11:00","23.5","","19.5","","78","","16","","15","","24.1","","100.17","","31","","","","Mostly Cloudy"
"2010-07-11 12:00","2010","07","11","12:00","24.7","","20.1","","76","","16","","17","","24.1","","100.13","","32","","","","Mostly Cloudy"
"2010-07-11 13:00","2010","07","11","13:00","23.9","","19.7","","77","","17","","19","","24.1","","100.11","","31","","","","Mainly Clear"
"2010-07-11 14:00","2010","07","11","14:00","23.9","","19.0","","74","","18","","24","","24.1","","100.09","","31","","","","Mainly Clear"
"2010-07-11 15:00","2010","07","11","15:00","24.5","","18.4","","69","","20","","19","","24.1","","100.05","","31","","","","Mainly Clear"
"2010-07-11 16:00","2010","07","11","16:00","25.4","","18.7","","66","","21","","13","","24.1","","100.01","","32","","","","Mainly Clear"
"2010-07-11 17:00","2010","07","11","17:00","25.7","","17.2","","59","","20","","13","","24.1","","99.97","","31","","","","Mainly Clear"
"2010-07-11 18:00","2010","07","11","18:00","23.9","","18.3","","71","","18","","13","","24.1","","99.92","","30","","","","Mainly Clear"
"2010-07-11 19:00","2010","07","11","19:00","23.2","","18.3","","74","","19","","11","","24.1","","99.91","","29","","","","Mainly Clear"
"2010-07-11 20:00","2010","07","11","20:00","22.4","","18.0","","76","","19","","11","","24.1","","99.92","","28","","","","Mainly Clear"
"2010-07-11 21:00","2010","07","11","21:00","22.2","","18.0","","77","","17","","11","","24.1","","99.95","","28","","","","Clear"
"2010-07-11 22:00","2010","07","11","22:00","22.4","","12.6","","54","","17","","11","","24.1","","99.96","","25","","","","Clear"
"2010-07-11 23:00","2010","07","11","23:00"
"2010-07-12 00:00","2010","07","12","00:00"
"2010-07-12 01:00","2010","07","12","01:00"
"2010-07-12 02:00","2010","07","12","02:00"
"2010-07-12 03:00","2010","07","12","03:00"
"2010-07-12 04:00","2010","07","12","04:00"
"2010-07-12 05:00","2010","07","12","05:00","21.9","","19.1","","84","","18","","13","","24.1","","99.92","","29","","","","Mainly Clear"
"2010-07-12 06:00","2010","07","12","06:00","22.2","","18.6","","80","","18","","11","","24.1","","99.93","","29","","","","Mostly Cloudy"
"2010-07-12 07:00","2010","07","12","07:00","22.3","","18.6","","80","","17","","15","","24.1","","99.93","","29","","","","Mostly Cloudy"
"2010-07-12 08:00","2010","07","12","08:00","22.8","","18.6","","77","","16","","15","","24.1","","99.94","","29","","","","Mostly Cloudy"
"2010-07-12 09:00","2010","07","12","09:00","23.0","","18.5","","76","","17","","15","","24.1","","99.95","","29","","","","Mostly Cloudy"
"2010-07-12 10:00","2010","07","12","10:00","23.7","","18.7","","74","","19","","15","","19.3","","99.97","","30","","","","Mostly Cloudy"
"2010-07-12 11:00","2010","07","12","11:00","23.9","","19.3","","75","","18","","11","","19.3","","99.97","","31","","","","Mostly Cloudy"
"2010-07-12 12:00","2010","07","12","12:00","25.2","","19.3","","70","","15","","9","","16.1","","99.92","","32","","","","Mostly Cloudy"
"2010-07-12 13:00","2010","07","12","13:00","25.8","","19.7","","69","","16","","11","","16.1","","99.86","","33","","","","Mostly Cloudy"
"2010-07-12 14:00","2010","07","12","14:00","27.1","","20.4","","67","","16","","13","","16.1","","99.82","","35","","","","Mostly Cloudy"
"2010-07-12 15:00","2010","07","12","15:00","26.8","","20.7","","69","","18","","11","","19.3","","99.79","","35","","","","Mostly Cloudy"
"2010-07-12 16:00","2010","07","12","16:00","26.6","","19.9","","67","","18","","9","","19.3","","99.77","","34","","","","Mostly Cloudy"
"2010-07-12 17:00","2010","07","12","17:00","26.5","","19.5","","65","","15","","7","","19.3","","99.70","","34","","","","Cloudy"
"2010-07-12 18:00","2010","07","12","18:00","25.9","","19.6","","68","","","","0","","24.1","","99.72","","33","","","","Cloudy"
"2010-07-12 19:00","2010","07","12","19:00","26.8","","18.3","","60","","","","0","","24.1","","99.77","","33","","","","Cloudy"
"2010-07-12 20:00","2010","07","12","20:00","25.1","","20.1","","74","","35","","7","","24.1","","99.78","","33","","","","Rain Showers"
"2010-07-12 21:00","2010","07","12","21:00","24.2","","19.1","","73","","10","","17","","24.1","","99.85","","31","","","","Cloudy"
"2010-07-12 22:00","2010","07","12","22:00","23.8","","19.3","","76","","18","","30","","24.1","","99.88","","31","","","","Cloudy"
"2010-07-12 23:00","2010","07","12","23:00"
"2010-07-13 00:00","2010","07","13","00:00"
"2010-07-13 01:00","2010","07","13","01:00"
"2010-07-13 02:00","2010","07","13","02:00"
"2010-07-13 03:00","2010","07","13","03:00"
"2010-07-13 04:00","2010","07","13","04:00"
"2010-07-13 05:00","2010","07","13","05:00","22.2","","19.6","","85","","16","","19","","24.1","","100.00","","29","","","","Mostly Cloudy"
"2010-07-13 06:00","2010","07","13","06:00","22.2","","19.5","","85","","16","","26","","19.3","","100.04","","29","","","","Mostly Cloudy"
"2010-07-13 07:00","2010","07","13","07:00","22.5","","19.3","","82","","16","","26","","19.3","","100.06","","30","","","","Mostly Cloudy"
"2010-07-13 08:00","2010","07","13","08:00","22.7","","19.5","","82","","17","","15","","19.3","","100.08","","30","","","","Mostly Cloudy"
"2010-07-13 09:00","2010","07","13","09:00","22.8","","19.7","","83","","17","","17","","16.1","","100.08","","30","","","","Mostly Cloudy"
"2010-07-13 10:00","2010","07","13","10:00","23.2","","20.4","","84","","17","","17","","16.1","","100.10","","31","","","","Cloudy"
"2010-07-13 11:00","2010","07","13","11:00","23.4","","20.4","","83","","17","","9","","12.9","","100.09","","31","","","","Cloudy"
"2010-07-13 12:00","2010","07","13","12:00","24.4","","20.7","","80","","18","","11","","12.9","","100.11","","33","","","","Cloudy"
"2010-07-13 13:00","2010","07","13","13:00","24.9","","20.7","","78","","16","","11","","12.9","","100.08","","33","","","","Cloudy"
"2010-07-13 14:00","2010","07","13","14:00","24.9","","20.5","","77","","16","","7","","12.9","","100.06","","33","","","","Cloudy"
"2010-07-13 15:00","2010","07","13","15:00","25.7","","19.9","","70","","17","","4","","16.1","","100.08","","33","","","","Cloudy"
"2010-07-13 16:00","2010","07","13","16:00","25.7","","19.6","","69","","18","","4","","16.1","","100.05","","33","","","","Cloudy"
"2010-07-13 17:00","2010","07","13","17:00","26.8","","19.8","","66","","28","","6","","16.1","","100.05","","34","","","","Cloudy"
"2010-07-13 18:00","2010","07","13","18:00","24.9","","18.1","","66","","34","","28","","19.3","","100.09","","31","","","","Cloudy"
"2010-07-13 19:00","2010","07","13","19:00","23.7","","18.0","","70","","2","","19","","19.3","","100.09","","30","","","","Cloudy"
"2010-07-13 20:00","2010","07","13","20:00","22.6","","18.4","","77","","2","","19","","24.1","","100.10","","29","","","","Cloudy"
"2010-07-13 21:00","2010","07","13","21:00","22.3","","19.8","","86","","4","","19","","24.1","","100.18","","30","","","","Cloudy"
"2010-07-13 22:00","2010","07","13","22:00","22.1","","19.2","","84","","5","","15","","24.1","","100.17","","29","","","","Cloudy"
"2010-07-13 23:00","2010","07","13","23:00"
"2010-07-14 00:00","2010","07","14","00:00"
"2010-07-14 01:00","2010","07","14","01:00"
"2010-07-14 02:00","2010","07","14","02:00"
"2010-07-14 03:00","2010","07","14","03:00"
"2010-07-14 04:00","2010","07","14","04:00"
"2010-07-14 05:00","2010","07","14","05:00","21.2","","19.6","","91","","1","","15","","11.3","","100.32","","28","","","","Cloudy"
"2010-07-14 06:00","2010","07","14","06:00","22.2","","19.8","","86","","2","","13","","12.9","","100.38","","30","","","","Cloudy"
"2010-07-14 07:00","2010","07","14","07:00","22.5","","19.4","","83","","4","","13","","12.9","","100.43","","30","","","","Cloudy"
"2010-07-14 08:00","2010","07","14","08:00","22.6","","19.3","","82","","3","","19","","12.9","","100.45","","30","","","","Cloudy"
"2010-07-14 09:00","2010","07","14","09:00","24.0","","18.6","","72","","3","","20","","16.1","","100.49","","30","","","","Cloudy"
"2010-07-14 10:00","2010","07","14","10:00","24.3","","19.0","","72","","5","","19","E","24.1","","100.54","","31","","","","Cloudy"
"2010-07-14 11:00","2010","07","14","11:00","25.7","","19.5","","69","","5","","19","E","24.1","","100.54","","33","","","","Mostly Cloudy"
"2010-07-14 12:00","2010","07","14","12:00","26.1","","19.3","","66","","5","","19","","24.1","","100.53","","33","","","","Mostly Cloudy"
"2010-07-14 13:00","2010","07","14","13:00","28.1","","19.1","","58","","36","","17","","24.1","","100.52","","35","","","","Mostly Cloudy"
"2010-07-14 14:00","2010","07","14","14:00","26.7","","20.2","","68","","14","","4","","24.1","","100.53","","34","","","","Mostly Cloudy"
"2010-07-14 15:00","2010","07","14","15:00","27.2","","19.8","","64","","3","","15","","24.1","","100.52","","35","","","","Mostly Cloudy"
"2010-07-14 16:00","2010","07","14","16:00","27.0","","19.9","","65","","17","","7","","24.1","","100.51","","34","","","","Mainly Clear"
"2010-07-14 17:00","2010","07","14","17:00","26.2","","20.5","","71","","18","","7","","24.1","","100.52","","34","","","","Mainly Clear"
"2010-07-14 18:00","2010","07","14","18:00","27.3","","20.6","","67","","23","","7","","24.1","","100.53","","35","","","","Mainly Clear"
"2010-07-14 19:00","2010","07","14","19:00","25.8","","20.4","","72","","20","","6","","24.1","","100.54","","34","","","","Mainly Clear"
"2010-07-14 20:00","2010","07","14","20:00","25.3","","21.0","","77","","26","","9","","24.1","","100.63","","34","","","","Mainly Clear"
"2010-07-14 21:00","2010","07","14","21:00","23.4","","20.6","","84","","","","0","","24.1","","100.60","","31","","","","Mainly Clear"
"2010-07-14 22:00","2010","07","14","22:00","22.7","","20.2","","86","","","","0","","24.1","","100.59","","30","","","","Mainly Clear"
"2010-07-14 23:00","2010","07","14","23:00"
"2010-07-15 00:00","2010","07","15","00:00"
"2010-07-15 01:00","2010","07","15","01:00"
"2010-07-15 02:00","2010","07","15","02:00"
"2010-07-15 03:00","2010","07","15","03:00"
"2010-07-15 04:00","2010","07","15","04:00"
"2010-07-15 05:00","2010","07","15","05:00","18.6","","17.0","","90","","36","","4","","16.1","","100.63","","","","","","Mostly Cloudy"
"2010-07-15 06:00","2010","07","15","06:00","20.7","","18.6","","88","","","","0","","16.1","","100.67","","27","","","","Mostly Cloudy"
"2010-07-15 07:00","2010","07","15","07:00","23.4","","19.6","","79","","","","0","","19.3","","100.72","","31","","","","Mostly Cloudy"
"2010-07-15 08:00","2010","07","15","08:00","25.3","","19.4","","70","","","","0","","16.1","","100.73","","32","","","","Mostly Cloudy"
"2010-07-15 09:00","2010","07","15","09:00","25.3","","19.4","","70","","17","","7","","16.1","","100.70","","32","","","","Mostly Cloudy"
"2010-07-15 10:00","2010","07","15","10:00","25.9","","19.8","","69","","18","","11","","24.1","","100.69","","33","","","","Mostly Cloudy"
"2010-07-15 11:00","2010","07","15","11:00","23.9","","21.6","","87","","18","","19","","16.1","","100.65","","33","","","","Mostly Cloudy"
"2010-07-15 12:00","2010","07","15","12:00","23.9","","21.7","","88","","18","","17","","16.1","","100.64","","33","","","","Mostly Cloudy"
"2010-07-15 13:00","2010","07","15","13:00","23.8","","21.6","","88","","18","","20","","16.1","","100.58","","33","","","","Mostly Cloudy"
"2010-07-15 14:00","2010","07","15","14:00","25.3","","21.6","","80","","18","","20","","19.3","","100.51","","34","","","","Mostly Cloudy"
"2010-07-15 15:00","2010","07","15","15:00","25.2","","21.8","","81","","18","","20","","19.3","","100.42","","34","","","","Mostly Cloudy"
"2010-07-15 16:00","2010","07","15","16:00","25.7","","21.4","","77","","18","","17","","24.1","","100.39","","34","","","","Mostly Cloudy"
"2010-07-15 17:00","2010","07","15","17:00","24.6","","20.7","","79","","18","","11","","24.1","","100.34","","33","","","","Mostly Cloudy"
"2010-07-15 18:00","2010","07","15","18:00","24.6","","20.7","","79","","17","","13","","24.1","","100.28","","33","","","","Mostly Cloudy"
"2010-07-15 19:00","2010","07","15","19:00","24.2","","21.7","","86","","17","","7","","24.1","","100.26","","33","","","","Mostly Cloudy"
"2010-07-15 20:00","2010","07","15","20:00","24.4","","20.1","","77","","22","","6","","24.1","","100.32","","32","","","","Mostly Cloudy"
"2010-07-15 21:00","2010","07","15","21:00","23.8","","21.1","","85","","","","0","","24.1","","100.30","","32","","","","Mostly Cloudy"
"2010-07-15 22:00","2010","07","15","22:00","23.4","","21.0","","86","","14","","9","","24.1","","100.25","","32","","","","Mostly Cloudy"
"2010-07-15 23:00","2010","07","15","23:00"
"2010-07-16 00:00","2010","07","16","00:00"
"2010-07-16 01:00","2010","07","16","01:00"
"2010-07-16 02:00","2010","07","16","02:00"
"2010-07-16 03:00","2010","07","16","03:00"
"2010-07-16 04:00","2010","07","16","04:00"
"2010-07-16 05:00","2010","07","16","05:00","23.7","","21.0","","85","","19","","7","","12.9","","99.93","","32","","","","Cloudy"
"2010-07-16 06:00","2010","07","16","06:00","23.2","","20.5","","85","","20","","17","","16.1","","99.95","","31","","","","Thunderstorms,Rain Showers"
"2010-07-16 07:00","2010","07","16","07:00","22.6","","21.3","","92","","22","","13","","12.9","","99.95","","31","","","","Rain Showers"
"2010-07-16 08:00","2010","07","16","08:00","22.6","","21.5","","94","","21","","15","","12.9","","99.96","","31","","","","Cloudy"
"2010-07-16 09:00","2010","07","16","09:00","22.9","","21.8","","94","","22","","13","","8.0","","99.95","","32","","","","Fog"
"2010-07-16 10:00","2010","07","16","10:00","24.2","","22.4","","90","","23","","13","","12.9","","99.92","","34","","","","Mostly Cloudy"
"2010-07-16 11:00","2010","07","16","11:00","25.8","","22.0","","80","","23","","20","","16.1","","99.91","","35","","","","Mostly Cloudy"
"2010-07-16 12:00","2010","07","16","12:00","27.8","","21.4","","68","","23","","17","","24.1","","99.86","","37","","","","Mostly Cloudy"
"2010-07-16 13:00","2010","07","16","13:00","26.1","","22.3","","80","","20","","19","","24.1","","99.82","","36","","","","Mainly Clear"
"2010-07-16 14:00","2010","07","16","14:00","28.3","","20.8","","64","","23","","24","","24.1","","99.77","","37","","","","Mainly Clear"
"2010-07-16 15:00","2010","07","16","15:00","28.6","","20.0","","60","","23","","28","","24.1","","99.76","","36","","","","Mainly Clear"
"2010-07-16 16:00","2010","07","16","16:00","28.4","","19.0","","57","","23","","26","","24.1","","99.75","","35","","","","Mainly Clear"
"2010-07-16 17:00","2010","07","16","17:00","27.4","","18.5","","58","","23","","28","","24.1","","99.78","","34","","","","Mainly Clear"
"2010-07-16 18:00","2010","07","16","18:00","27.1","","18.0","","58","","23","","24","","24.1","","99.79","","33","","","","Mainly Clear"
"2010-07-16 19:00","2010","07","16","19:00","26.5","","18.2","","60","","23","","20","","24.1","","99.79","","33","","","","Mainly Clear"
"2010-07-16 20:00","2010","07","16","20:00","25.6","","18.6","","65","","23","","15","","24.1","","99.80","","32","","","","Clear"
"2010-07-16 21:00","2010","07","16","21:00","25.3","","18.2","","65","","23","","20","","24.1","","99.82","","31","","","","Clear"
"2010-07-16 22:00","2010","07","16","22:00","24.5","","20.1","","77","","24","","22","","24.1","","99.85","","32","","","","Clear"
"2010-07-16 23:00","2010","07","16","23:00"
"2010-07-17 00:00","2010","07","17","00:00"
"2010-07-17 01:00","2010","07","17","01:00"
"2010-07-17 02:00","2010","07","17","02:00"
"2010-07-17 03:00","2010","07","17","03:00"
"2010-07-17 04:00","2010","07","17","04:00"
"2010-07-17 05:00","2010","07","17","05:00","22.8","","19.8","","83","","24","","17","","24.1","","99.81","","30","","","","Mainly Clear"
"2010-07-17 06:00","2010","07","17","06:00","23.3","","20.3","","83","","23","","15","","24.1","","99.81","","31","","","","Mostly Cloudy"
"2010-07-17 07:00","2010","07","17","07:00","23.7","","20.4","","82","","23","","17","","24.1","","99.77","","32","","","","Mostly Cloudy"
"2010-07-17 08:00","2010","07","17","08:00","25.3","","20.4","","74","","23","","19","","24.1","","99.76","","33","","","","Clear"
"2010-07-17 09:00","2010","07","17","09:00","26.1","","20.1","","70","","23","","24","","24.1","","99.75","","34","","","","Mainly Clear"
"2010-07-17 10:00","2010","07","17","10:00","27.3","","20.2","","65","","22","","22","","24.1","","99.70","","35","","","","Clear"
"2010-07-17 11:00","2010","07","17","11:00","28.0","","20.8","","65","","22","","24","","24.1","","99.70","","36","","","","Mainly Clear"
"2010-07-17 12:00","2010","07","17","12:00","28.3","","20.7","","63","","22","","28","","24.1","","99.67","","36","","","","Mainly Clear"
"2010-07-17 13:00","2010","07","17","13:00","28.6","","19.8","","59","","23","","32","","24.1","","99.61","","36","","","","Mainly Clear"
"2010-07-17 14:00","2010","07","17","14:00","29.6","","19.2","","54","","23","","35","","24.1","","99.55","","37","","","","Mainly Clear"
"2010-07-17 15:00","2010","07","17","15:00","26.4","","21.3","","74","","21","","22","","24.1","","99.53","","35","","","","Mostly Cloudy"
"2010-07-17 16:00","2010","07","17","16:00","27.8","","20.3","","64","","23","","22","","24.1","","99.56","","36","","","","Mostly Cloudy"
"2010-07-17 17:00","2010","07","17","17:00","21.1","","18.6","","86","","26","","17","","24.1","","99.62","","28","","","","Thunderstorms,Rain Showers"
"2010-07-17 18:00","2010","07","17","18:00","24.2","","20.0","","77","","24","","19","","24.1","","99.55","","32","","","","Mostly Cloudy"
"2010-07-17 19:00","2010","07","17","19:00","25.2","","19.7","","72","","25","","11","","24.1","","99.54","","33","","","","Mostly Cloudy"
"2010-07-17 20:00","2010","07","17","20:00","24.4","","19.2","","73","","27","","17","","24.1","","99.61","","31","","","","Mostly Cloudy"
"2010-07-17 21:00","2010","07","17","21:00","23.6","","16.1","","63","","27","","17","","24.1","","99.65","","28","","","","Mainly Clear"
"2010-07-17 22:00","2010","07","17","22:00","22.9","","15.0","","61","","26","","11","","24.1","","99.69","","27","","","","Mainly Clear"
"2010-07-17 23:00","2010","07","17","23:00"
"2010-07-18 00:00","2010","07","18","00:00"
"2010-07-18 01:00","2010","07","18","01:00"
"2010-07-18 02:00","2010","07","18","02:00"
"2010-07-18 03:00","2010","07","18","03:00"
"2010-07-18 04:00","2010","07","18","04:00"
"2010-07-18 05:00","2010","07","18","05:00","17.9","","15.0","","83","","28","","6","","24.1","","99.91","","","","","","Mainly Clear"
"2010-07-18 06:00","2010","07","18","06:00","18.5","","15.3","","82","","27","","11","","24.1","","99.95","","","","","","Mainly Clear"
"2010-07-18 07:00","2010","07","18","07:00","19.6","","15.9","","79","","27","","13","","24.1","","99.97","","","","","","Mainly Clear"
"2010-07-18 08:00","2010","07","18","08:00","21.5","","16.4","","73","","27","","11","","24.1","","100.01","","26","","","","Mainly Clear"
"2010-07-18 09:00","2010","07","18","09:00","22.6","","16.9","","70","","24","","13","","24.1","","100.01","","28","","","","Mainly Clear"
"2010-07-18 10:00","2010","07","18","10:00","23.4","","17.2","","68","","22","","15","","24.1","","100.04","","29","","","","Mainly Clear"
"2010-07-18 11:00","2010","07","18","11:00","25.1","","16.9","","60","","22","","19","","24.1","","100.03","","30","","","","Mostly Cloudy"
"2010-07-18 12:00","2010","07","18","12:00","23.2","","18.7","","76","","19","","19","","24.1","","100.00","","30","","","","Mostly Cloudy"
"2010-07-18 13:00","2010","07","18","13:00","24.0","","18.8","","73","","19","","24","","24.1","","100.01","","31","","","","Mostly Cloudy"
"2010-07-18 14:00","2010","07","18","14:00","24.2","","18.4","","70","","20","","22","","24.1","","99.98","","31","","","","Mostly Cloudy"
"2010-07-18 15:00","2010","07","18","15:00","24.5","","17.4","","65","","21","","22","","24.1","","100.02","","30","","","","Mostly Cloudy"
"2010-07-18 16:00","2010","07","18","16:00","25.2","","17.2","","61","","23","","20","","24.1","","100.01","","31","","","","Mostly Cloudy"
"2010-07-18 17:00","2010","07","18","17:00","25.4","","17.2","","60","","22","","19","","24.1","","99.99","","31","","","","Mostly Cloudy"
"2010-07-18 18:00","2010","07","18","18:00","24.8","","17.5","","64","","23","","17","","24.1","","100.00","","30","","","","Mostly Cloudy"
"2010-07-18 19:00","2010","07","18","19:00","24.0","","17.7","","68","","22","","9","","24.1","","100.00","","30","","","","Mostly Cloudy"
"2010-07-18 20:00","2010","07","18","20:00","23.5","","18.4","","73","","22","","7","","24.1","","99.99","","30","","","","Cloudy"
"2010-07-18 21:00","2010","07","18","21:00","22.0","","18.0","","78","","","","0","","24.1","","100.00","","28","","","","Cloudy"
"2010-07-18 22:00","2010","07","18","22:00","22.0","","18.2","","79","","","","0","","24.1","","99.98","","28","","","","Cloudy"
"2010-07-18 23:00","2010","07","18","23:00"
"2010-07-19 00:00","2010","07","19","00:00"
"2010-07-19 01:00","2010","07","19","01:00"
"2010-07-19 02:00","2010","07","19","02:00"
"2010-07-19 03:00","2010","07","19","03:00"
"2010-07-19 04:00","2010","07","19","04:00"
"2010-07-19 05:00","2010","07","19","05:00","20.3","","19.2","","93","","8","","6","","12.9","","99.68","","27","","","","Thunderstorms,Rain Showers"
"2010-07-19 06:00","2010","07","19","06:00","21.0","","19.5","","91","","13","","13","","19.3","","99.69","","28","","","","Cloudy"
"2010-07-19 07:00","2010","07","19","07:00","21.8","","19.7","","88","","13","","17","","24.1","","99.68","","29","","","","Cloudy"
"2010-07-19 08:00","2010","07","19","08:00","22.7","","20.7","","88","","20","","11","","24.1","","99.67","","31","","","","Cloudy"
"2010-07-19 09:00","2010","07","19","09:00","23.1","","20.5","","85","","24","","7","","24.1","","99.67","","31","","","","Cloudy"
"2010-07-19 10:00","2010","07","19","10:00","22.9","","20.6","","87","","26","","6","","24.1","","99.68","","31","","","","Cloudy"
"2010-07-19 11:00","2010","07","19","11:00","24.5","","20.6","","79","","","","0","","24.1","","99.65","","33","","","","Mostly Cloudy"
"2010-07-19 12:00","2010","07","19","12:00","23.7","","20.2","","81","","20","","9","","24.1","","99.68","","31","","","","Mostly Cloudy"
"2010-07-19 13:00","2010","07","19","13:00","25.7","","20.0","","71","","33","","22","","24.1","","99.71","","33","","","","Mostly Cloudy"
"2010-07-19 14:00","2010","07","19","14:00","26.1","","19.6","","67","","1","","22","","24.1","","99.76","","33","","","","Mostly Cloudy"
"2010-07-19 15:00","2010","07","19","15:00","25.8","","18.7","","65","","32","","9","","24.1","","99.82","","32","","","","Mostly Cloudy"
"2010-07-19 16:00","2010","07","19","16:00","26.1","","18.8","","64","","33","","17","","24.1","","99.87","","33","","","","Mostly Cloudy"
"2010-07-19 17:00","2010","07","19","17:00","26.1","","18.0","","61","","36","","6","","24.1","","99.85","","32","","","","Mostly Cloudy"
"2010-07-19 18:00","2010","07","19","18:00","25.8","","17.6","","61","","36","","17","","24.1","","99.93","","32","","","","Mostly Cloudy"
"2010-07-19 19:00","2010","07","19","19:00","24.8","","17.4","","63","","1","","6","","24.1","","99.97","","30","","","","Mainly Clear"
"2010-07-19 20:00","2010","07","19","20:00","23.0","","18.5","","76","","14","","4","","24.1","","100.00","","29","","","","Mainly Clear"
"2010-07-19 21:00","2010","07","19","21:00","22.9","","20.3","","85","","","","0","","24.1","","100.06","","31","","","","Mainly Clear"
"2010-07-19 22:00","2010","07","19","22:00","22.4","","20.5","","89","","","","0","","24.1","","100.09","","30","","","","Mainly Clear"
"2010-07-19 23:00","2010","07","19","23:00"
"2010-07-20 00:00","2010","07","20","00:00"
"2010-07-20 01:00","2010","07","20","01:00"
"2010-07-20 02:00","2010","07","20","02:00"
"2010-07-20 03:00","2010","07","20","03:00"
"2010-07-20 04:00","2010","07","20","04:00"
"2010-07-20 05:00","2010","07","20","05:00","19.6","","17.4","","87","","4","","7","","24.1","","100.20","","","","","","Mostly Cloudy"
"2010-07-20 06:00","2010","07","20","06:00","20.3","","17.8","","86","","28","","6","","24.1","","100.24","","26","","","","Mostly Cloudy"
"2010-07-20 07:00","2010","07","20","07:00","21.2","","19.0","","87","","36","","9","","24.1","","100.27","","28","","","","Mostly Cloudy"
"2010-07-20 08:00","2010","07","20","08:00","23.2","","18.1","","73","","5","","11","","24.1","","100.30","","29","","","","Mostly Cloudy"
"2010-07-20 09:00","2010","07","20","09:00","24.2","","18.3","","70","","8","","15","","24.1","","100.31","","30","","","","Mostly Cloudy"
"2010-07-20 10:00","2010","07","20","10:00","24.2","","18.1","","69","","12","","7","","24.1","","100.38","","30","","","","Mostly Cloudy"
"2010-07-20 11:00","2010","07","20","11:00","25.6","","20.6","","74","","9","","9","","24.1","","100.37","","34","","","","Mostly Cloudy"
"2010-07-20 12:00","2010","07","20","12:00","25.2","","20.7","","76","","13","","13","","24.1","","100.39","","33","","","","Mostly Cloudy"
"2010-07-20 13:00","2010","07","20","13:00","24.7","","20.8","","79","","22","","15","","24.1","","100.33","","33","","","","Mostly Cloudy"
"2010-07-20 14:00","2010","07","20","14:00","24.9","","19.1","","70","","25","","7","","24.1","","100.38","","32","","","","Mostly Cloudy"
"2010-07-20 15:00","2010","07","20","15:00","24.2","","20.8","","81","","16","","15","","24.1","","100.38","","32","","","","Mostly Cloudy"
"2010-07-20 16:00","2010","07","20","16:00","23.3","","20.4","","84","","17","","13","","24.1","","100.35","","31","","","","Mostly Cloudy"
"2010-07-20 17:00","2010","07","20","17:00","23.8","","20.1","","80","","18","","9","","24.1","","100.31","","31","","","","Mostly Cloudy"
"2010-07-20 18:00","2010","07","20","18:00","23.7","","20.5","","82","","19","","13","","24.1","","100.32","","32","","","","Mostly Cloudy"
"2010-07-20 19:00","2010","07","20","19:00","23.2","","19.9","","82","","20","","7","","24.1","","100.33","","31","","","","Mostly Cloudy"
"2010-07-20 20:00","2010","07","20","20:00","23.0","","19.4","","80","","","","0","","24.1","","100.34","","30","","","","Mostly Cloudy"
"2010-07-20 21:00","2010","07","20","21:00","23.1","","19.9","","82","","16","","4","","24.1","","100.36","","31","","","","Mainly Clear"
"2010-07-20 22:00","2010","07","20","22:00","22.9","","20.3","","85","","","","0","","24.1","","100.36","","31","","","","Mostly Cloudy"
"2010-07-20 23:00","2010","07","20","23:00"
"2010-07-21 00:00","2010","07","21","00:00"
"2010-07-21 01:00","2010","07","21","01:00"
"2010-07-21 02:00","2010","07","21","02:00"
"2010-07-21 03:00","2010","07","21","03:00"
"2010-07-21 04:00","2010","07","21","04:00"
"2010-07-21 05:00","2010","07","21","05:00","18.5","","17.3","","93","","36","","4","","16.1","","100.21","","","","","","Mostly Cloudy"
"2010-07-21 06:00","2010","07","21","06:00","19.2","","18.1","","93","","36","","7","","16.1","","100.19","","","","","","Mostly Cloudy"
"2010-07-21 07:00","2010","07","21","07:00","22.1","","20.5","","91","","","","0","","19.3","","100.17","","30","","","","Mostly Cloudy"
"2010-07-21 08:00","2010","07","21","08:00","23.3","","20.6","","85","","17","","13","","16.1","","100.15","","31","","","","Mostly Cloudy"
"2010-07-21 09:00","2010","07","21","09:00","23.2","","20.7","","86","","18","","15","","12.9","","100.12","","31","","","","Mostly Cloudy"
"2010-07-21 10:00","2010","07","21","10:00","23.9","","21.1","","84","","18","","15","","12.9","","100.08","","32","","","","Mostly Cloudy"
"2010-07-21 11:00","2010","07","21","11:00","23.8","","21.2","","85","","18","","15","","12.9","","100.03","","32","","","","Mostly Cloudy"
"2010-07-21 12:00","2010","07","21","12:00","24.6","","21.7","","84","","18","","20","","12.9","","99.94","","34","","","","Mostly Cloudy"
"2010-07-21 13:00","2010","07","21","13:00","24.6","","20.2","","77","","19","","24","","24.1","","99.90","","32","","","","Mostly Cloudy"
"2010-07-21 14:00","2010","07","21","14:00","25.3","","19.7","","71","","20","","30","","24.1","","99.82","","33","","","","Mostly Cloudy"
"2010-07-21 15:00","2010","07","21","15:00","21.5","","17.3","","77","","31","","13","","24.1","","99.92","","27","","","","Mostly Cloudy"
"2010-07-21 16:00","2010","07","21","16:00","22.2","","17.7","","76","","29","","7","","24.1","","99.86","","28","","","","Mostly Cloudy"
"2010-07-21 17:00","2010","07","21","17:00","21.3","","18.0","","81","","21","","17","","19.3","","99.87","","27","","","","Thunderstorms,Rain Showers"
"2010-07-21 18:00","2010","07","21","18:00","21.0","","17.3","","79","","21","","11","","24.1","","99.91","","26","","","","Mainly Clear"
"2010-07-21 19:00","2010","07","21","19:00","21.4","","16.9","","76","","25","","7","","24.1","","99.96","","27","","","","Mainly Clear"
"2010-07-21 20:00","2010","07","21","20:00","21.1","","17.7","","81","","23","","11","","24.1","","99.96","","27","","","","Mainly Clear"
"2010-07-21 21:00","2010","07","21","21:00","21.4","","18.8","","85","","25","","9","","24.1","","100.01","","28","","","","Mainly Clear"
"2010-07-21 22:00","2010","07","21","22:00","21.2","","17.1","","77","","23","","11","","24.1","","100.02","","27","","","","Mainly Clear"
"2010-07-21 23:00","2010","07","21","23:00"
"2010-07-22 00:00","2010","07","22","00:00"
"2010-07-22 01:00","2010","07","22","01:00"
"2010-07-22 02:00","2010","07","22","02:00"
"2010-07-22 03:00","2010","07","22","03:00"
"2010-07-22 04:00","2010","07","22","04:00"
"2010-07-22 05:00","2010","07","22","05:00","17.9","","16.1","","89","","26","","13","","24.1","","100.18","","","","","","Mainly Clear"
"2010-07-22 06:00","2010","07","22","06:00","17.9","","15.9","","88","","27","","9","","24.1","","100.24","","","","","","Clear"
"2010-07-22 07:00","2010","07","22","07:00","19.2","","16.1","","82","","30","","15","","24.1","","100.29","","","","","","Clear"
"2010-07-22 08:00","2010","07","22","08:00","21.1","","16.1","","73","","30","","17","","24.1","","100.39","","26","","","","Clear"
"2010-07-22 09:00","2010","07","22","09:00","23.0","","16.0","","65","","33","","11","","24.1","","100.41","","28","","","","Mainly Clear"
"2010-07-22 10:00","2010","07","22","10:00","24.8","","16.0","","58","","35","","17","","24.1","","100.44","","29","","","","Mainly Clear"
"2010-07-22 11:00","2010","07","22","11:00","26.1","","16.0","","54","","34","","20","","24.1","","100.43","","31","","","","Mainly Clear"
"2010-07-22 12:00","2010","07","22","12:00","26.1","","14.7","","49","","36","","9","","24.1","","100.43","","30","","","","Mainly Clear"
"2010-07-22 13:00","2010","07","22","13:00","26.9","","14.6","","47","","29","","13","","24.1","","100.47","","31","","","","Mostly Cloudy"
"2010-07-22 14:00","2010","07","22","14:00","26.1","","16.9","","57","","31","","7","","24.1","","100.49","","31","","","","Mostly Cloudy"
"2010-07-22 15:00","2010","07","22","15:00","28.0","","13.9","","42","","27","","7","","24.1","","100.47","","31","","","","Mostly Cloudy"
"2010-07-22 16:00","2010","07","22","16:00","26.5","","16.1","","53","","23","","15","","24.1","","100.45","","31","","","","Mostly Cloudy"
"2010-07-22 17:00","2010","07","22","17:00","26.5","","16.9","","56","","23","","24","","24.1","","100.44","","32","","","","Cloudy"
"2010-07-22 18:00","2010","07","22","18:00","25.2","","18.5","","66","","23","","19","","24.1","","100.44","","32","","","","Mostly Cloudy"
"2010-07-22 19:00","2010","07","22","19:00","24.2","","18.5","","71","","22","","9","","24.1","","100.42","","31","","","","Cloudy"
"2010-07-22 20:00","2010","07","22","20:00","23.0","","18.1","","74","","22","","11","","24.1","","100.43","","29","","","","Mostly Cloudy"
"2010-07-22 21:00","2010","07","22","21:00","22.7","","18.1","","75","","23","","15","","24.1","","100.48","","29","","","","Mostly Cloudy"
"2010-07-22 22:00","2010","07","22","22:00","22.3","","17.9","","76","","22","","13","","24.1","","100.48","","28","","","","Mostly Cloudy"
"2010-07-22 23:00","2010","07","22","23:00"
"2010-07-23 00:00","2010","07","23","00:00"
"2010-07-23 01:00","2010","07","23","01:00"
"2010-07-23 02:00","2010","07","23","02:00"
"2010-07-23 03:00","2010","07","23","03:00"
"2010-07-23 04:00","2010","07","23","04:00"
"2010-07-23 05:00","2010","07","23","05:00","22.6","","19.0","","80","","18","","22","","16.1","","100.25","","29","","","","Rain"
"2010-07-23 06:00","2010","07","23","06:00","21.5","","18.8","","85","","17","","30","","16.1","","100.20","","28","","","","Rain"
"2010-07-23 07:00","2010","07","23","07:00","21.1","","17.7","","81","","17","","32","","16.1","","100.15","","27","","","","Rain"
"2010-07-23 08:00","2010","07","23","08:00","20.9","","18.3","","85","","14","","30","","19.3","","100.08","","27","","","","Rain"
"2010-07-23 09:00","2010","07","23","09:00","20.0","","18.2","","89","","14","","28","","3.2","","100.02","","26","","","","Rain,Fog"
"2010-07-23 10:00","2010","07","23","10:00","19.9","","18.6","","92","","13","","20","","12.9","","99.93","","","","","","Rain"
"2010-07-23 11:00","2010","07","23","11:00","20.4","","19.0","","92","","12","","20","","11.3","","99.85","","27","","","","Rain"
"2010-07-23 12:00","2010","07","23","12:00","20.6","","19.4","","93","","13","","24","","9.7","","99.78","","28","","","","Rain,Drizzle,Fog"
"2010-07-23 13:00","2010","07","23","13:00","21.1","","20.0","","93","","14","","22","","6.4","","99.75","","29","","","","Drizzle,Fog"
"2010-07-23 14:00","2010","07","23","14:00","22.8","","21.6","","93","","17","","15","","8.0","","99.72","","32","","","","Fog"
"2010-07-23 15:00","2010","07","23","15:00","24.0","","21.3","","85","","22","","7","","12.9","","99.69","","33","","","","Mostly Cloudy"
"2010-07-23 16:00","2010","07","23","16:00","24.7","","21.6","","83","","29","","4","","19.3","","99.74","","34","","","","Mostly Cloudy"
"2010-07-23 17:00","2010","07","23","17:00","24.2","","22.4","","90","","16","","9","","19.3","","99.74","","34","","","","Mostly Cloudy"
"2010-07-23 18:00","2010","07","23","18:00","23.7","","22.3","","92","","17","","6","","12.9","","99.72","","33","","","","Mostly Cloudy"
"2010-07-23 19:00","2010","07","23","19:00","23.6","","22.1","","91","","14","","4","","11.3","","99.68","","33","","","","Cloudy"
"2010-07-23 20:00","2010","07","23","20:00","23.6","","22.2","","92","","15","","4","","6.4","","99.81","","33","","","","Fog"
"2010-07-23 21:00","2010","07","23","21:00","23.3","","22.0","","92","","15","","4","","4.8","","99.84","","33","","","","Fog"
"2010-07-23 22:00","2010","07","23","22:00","23.1","","22.1","","94","","16","","6","","4.8","","99.83","","33","","","","Fog"
"2010-07-23 23:00","2010","07","23","23:00"
"2010-07-24 00:00","2010","07","24","00:00"
"2010-07-24 01:00","2010","07","24","01:00"
"2010-07-24 02:00","2010","07","24","02:00"
"2010-07-24 03:00","2010","07","24","03:00"
"2010-07-24 04:00","2010","07","24","04:00"
"2010-07-24 05:00","2010","07","24","05:00","22.4","","21.3","","94","","31","","4","","24.1","","99.89","","31","","","","Mostly Cloudy"
"2010-07-24 06:00","2010","07","24","06:00","23.1","","21.5","","91","","20","","7","","19.3","","99.89","","32","","","","Mostly Cloudy"
"2010-07-24 07:00","2010","07","24","07:00","23.8","","22.3","","91","","24","","6","","12.9","","99.91","","33","","","","Mostly Cloudy"
"2010-07-24 08:00","2010","07","24","08:00","24.2","","22.2","","89","","23","","13","","6.4","","99.93","","34","","","","Fog"
"2010-07-24 09:00","2010","07","24","09:00","25.5","","22.6","","84","","22","","13","","8.0","","99.95","","35","","","","Fog"
"2010-07-24 10:00","2010","07","24","10:00","25.5","","22.8","","85","","22","","11","","8.0","","99.93","","36","","","","Haze"
"2010-07-24 11:00","2010","07","24","11:00","24.9","","22.7","","88","","18","","20","","8.0","","99.91","","35","","","","Haze"
"2010-07-24 12:00","2010","07","24","12:00","26.1","","23.1","","84","","22","","15","","8.0","","99.90","","36","","","","Haze"
"2010-07-24 13:00","2010","07","24","13:00","27.9","","22.3","","72","","23","","22","","16.1","","99.85","","38","","","","Mostly Cloudy"
"2010-07-24 14:00","2010","07","24","14:00","28.1","","22.6","","72","","23","","22","","16.1","","99.79","","38","","","","Mostly Cloudy"
"2010-07-24 15:00","2010","07","24","15:00","27.8","","22.3","","72","","23","","19","","16.1","","99.75","","37","","","","Cloudy"
"2010-07-24 16:00","2010","07","24","16:00","25.9","","22.3","","81","","21","","13","","12.9","","99.69","","36","","","","Cloudy"
"2010-07-24 17:00","2010","07","24","17:00","25.8","","22.4","","82","","22","","13","","12.9","","99.67","","35","","","","Cloudy"
"2010-07-24 18:00","2010","07","24","18:00","25.8","","22.2","","81","","26","","13","","12.9","","99.74","","35","","","","Rain Showers"
"2010-07-24 19:00","2010","07","24","19:00","24.8","","21.8","","83","","22","","15","","12.9","","99.76","","34","","","","Rain Showers"
"2010-07-24 20:00","2010","07","24","20:00","23.5","","21.7","","90","","23","","17","","12.9","","99.74","","33","","","","Rain Showers"
"2010-07-24 21:00","2010","07","24","21:00","22.9","","20.8","","88","","22","","11","","11.3","","99.71","","31","","","","Cloudy"
"2010-07-24 22:00","2010","07","24","22:00","22.5","","21.0","","91","","21","","13","","11.3","","99.75","","31","","","","Rain Showers"
"2010-07-24 23:00","2010","07","24","23:00"
"2010-07-25 00:00","2010","07","25","00:00"
"2010-07-25 01:00","2010","07","25","01:00"
"2010-07-25 02:00","2010","07","25","02:00"
"2010-07-25 03:00","2010","07","25","03:00"
"2010-07-25 04:00","2010","07","25","04:00"
"2010-07-25 05:00","2010","07","25","05:00","20.2","","17.9","","87","","28","","11","","24.1","","99.96","","26","","","","Mostly Cloudy"
"2010-07-25 06:00","2010","07","25","06:00","20.0","","17.7","","87","","30","","6","","24.1","","99.96","","26","","","","Mostly Cloudy"
"2010-07-25 07:00","2010","07","25","07:00","21.3","","18.2","","82","","31","","9","","24.1","","100.01","","27","","","","Mostly Cloudy"
"2010-07-25 08:00","2010","07","25","08:00","21.8","","17.2","","75","","33","","15","","24.1","","100.03","","27","","","","Mostly Cloudy"
"2010-07-25 09:00","2010","07","25","09:00","22.8","","16.3","","67","","35","","17","","24.1","","100.07","","28","","","","Mostly Cloudy"
"2010-07-25 10:00","2010","07","25","10:00","22.3","","15.1","","64","","30","","13","","24.1","","100.09","","26","","","","Mostly Cloudy"
"2010-07-25 11:00","2010","07","25","11:00","22.1","","15.2","","65","","31","","13","","24.1","","100.10","","26","","","","Mostly Cloudy"
"2010-07-25 12:00","2010","07","25","12:00","22.6","","15.3","","63","","33","","17","","24.1","","100.09","","27","","","","Mostly Cloudy"
"2010-07-25 13:00","2010","07","25","13:00","23.9","","14.1","","54","","30","","13","","24.1","","100.06","","27","","","","Mostly Cloudy"
"2010-07-25 14:00","2010","07","25","14:00","25.3","","13.9","","49","","31","","20","","24.1","","100.05","","29","","","","Mostly Cloudy"
"2010-07-25 15:00","2010","07","25","15:00","25.6","","12.6","","44","","34","","19","","24.1","","100.07","","28","","","","Mainly Clear"
"2010-07-25 16:00","2010","07","25","16:00","26.5","","12.4","","42","","31","","20","","24.1","","100.10","","29","","","","Mainly Clear"
"2010-07-25 17:00","2010","07","25","17:00","26.4","","12.6","","42","","32","","20","","24.1","","100.10","","29","","","","Mainly Clear"
"2010-07-25 18:00","2010","07","25","18:00","25.4","","12.2","","44","","31","","11","","24.1","","100.11","","28","","","","Mainly Clear"
"2010-07-25 19:00","2010","07","25","19:00","23.9","","12.3","","48","","31","","7","","24.1","","100.13","","26","","","","Clear"
"2010-07-25 20:00","2010","07","25","20:00","21.2","","13.1","","60","","30","","6","","24.1","","100.24","","","","","","Mainly Clear"
"2010-07-25 21:00","2010","07","25","21:00","20.5","","13.1","","63","","32","","7","","24.1","","100.35","","","","","","Mainly Clear"
"2010-07-25 22:00","2010","07","25","22:00","18.6","","13.7","","73","","32","","6","","24.1","","100.37","","","","","","Clear"
"2010-07-25 23:00","2010","07","25","23:00"
"2010-07-26 00:00","2010","07","26","00:00"
"2010-07-26 01:00","2010","07","26","01:00"
"2010-07-26 02:00","2010","07","26","02:00"
"2010-07-26 03:00","2010","07","26","03:00"
"2010-07-26 04:00","2010","07","26","04:00"
"2010-07-26 05:00","2010","07","26","05:00","15.7","","13.8","","88","","32","","13","","24.1","","100.50","","","","","","Clear"
"2010-07-26 06:00","2010","07","26","06:00","17.5","","14.5","","83","","30","","11","","24.1","","100.56","","","","","","Mainly Clear"
"2010-07-26 07:00","2010","07","26","07:00","19.5","","14.9","","75","","32","","15","","24.1","","100.62","","","","","","Clear"
"2010-07-26 08:00","2010","07","26","08:00","21.7","","15.0","","66","","32","","17","","24.1","","100.64","","26","","","","Mainly Clear"
"2010-07-26 09:00","2010","07","26","09:00","23.5","","14.4","","57","","28","","11","","24.1","","100.64","","27","","","","Clear"
"2010-07-26 10:00","2010","07","26","10:00","25.2","","13.9","","50","","31","","15","","24.1","","100.62","","29","","","","Mainly Clear"
"2010-07-26 11:00","2010","07","26","11:00","26.0","","13.1","","45","","29","","20","","24.1","","100.62","","29","","","","Mainly Clear"
"2010-07-26 12:00","2010","07","26","12:00","27.1","","13.0","","42","","34","","19","","24.1","","100.57","","30","","","","Mainly Clear"
"2010-07-26 13:00","2010","07","26","13:00","27.9","","12.8","","39","","31","","20","","24.1","","100.56","","31","","","","Mostly Cloudy"
"2010-07-26 14:00","2010","07","26","14:00","28.2","","11.5","","35","","29","","19","","24.1","","100.53","","30","","","","Mainly Clear"
"2010-07-26 15:00","2010","07","26","15:00","29.1","","11.8","","34","","28","","19","","24.1","","100.50","","31","","","","Mainly Clear"
"2010-07-26 16:00","2010","07","26","16:00","26.5","","17.7","","58","","23","","26","","24.1","","100.49","","32","","","","Mainly Clear"
"2010-07-26 17:00","2010","07","26","17:00","26.3","","17.4","","58","","23","","26","","24.1","","100.47","","32","","","","Mainly Clear"
"2010-07-26 18:00","2010","07","26","18:00","25.8","","17.6","","61","","23","","26","","24.1","","100.45","","32","","","","Mainly Clear"
"2010-07-26 19:00","2010","07","26","19:00","24.7","","18.0","","66","","23","","19","","24.1","","100.46","","31","","","","Mainly Clear"
"2010-07-26 20:00","2010","07","26","20:00","24.0","","18.8","","73","","25","","11","","24.1","","100.47","","31","","","","Clear"
"2010-07-26 21:00","2010","07","26","21:00","23.5","","16.9","","66","","26","","13","","24.1","","100.51","","29","","","","Clear"
"2010-07-26 22:00","2010","07","26","22:00","22.9","","16.1","","66","","27","","17","","24.1","","100.52","","28","","","","Clear"
"2010-07-26 23:00","2010","07","26","23:00"
"2010-07-27 00:00","2010","07","27","00:00"
"2010-07-27 01:00","2010","07","27","01:00"
"2010-07-27 02:00","2010","07","27","02:00"
"2010-07-27 03:00","2010","07","27","03:00"
"2010-07-27 04:00","2010","07","27","04:00"
"2010-07-27 05:00","2010","07","27","05:00","18.1","","15.3","","84","","27","","11","","24.1","","100.68","","","","","","Mainly Clear"
"2010-07-27 06:00","2010","07","27","06:00","18.7","","15.7","","83","","27","","11","","24.1","","100.73","","","","","","Mostly Cloudy"
"2010-07-27 07:00","2010","07","27","07:00","20.9","","16.8","","77","","25","","11","","24.1","","100.76","","26","","","","Mostly Cloudy"
"2010-07-27 08:00","2010","07","27","08:00","22.7","","17.3","","72","","27","","17","","24.1","","100.76","","28","","","","Mostly Cloudy"
"2010-07-27 09:00","2010","07","27","09:00","24.2","","17.2","","65","","25","","13","","24.1","","100.73","","30","","","","Mainly Clear"
"2010-07-27 10:00","2010","07","27","10:00","24.9","","17.9","","65","","21","","19","","24.1","","100.71","","31","","","","Mainly Clear"
"2010-07-27 11:00","2010","07","27","11:00","26.5","","17.5","","58","","22","","19","","24.1","","100.68","","32","","","","Mainly Clear"
"2010-07-27 12:00","2010","07","27","12:00","24.9","","20.1","","75","","19","","22","","19.3","","100.63","","33","","","","Clear"
"2010-07-27 13:00","2010","07","27","13:00","25.3","","20.6","","75","","18","","28","","19.3","","100.61","","33","","","","Clear"
"2010-07-27 14:00","2010","07","27","14:00","25.5","","19.9","","71","","20","","22","","19.3","","100.61","","33","","","","Clear"
"2010-07-27 15:00","2010","07","27","15:00","27.6","","18.3","","57","","22","","22","","24.1","","100.58","","34","","","","Clear"
"2010-07-27 16:00","2010","07","27","16:00","27.6","","17.2","","53","","22","","20","","24.1","","100.53","","33","","","","Clear"
"2010-07-27 17:00","2010","07","27","17:00","27.5","","16.6","","51","","23","","13","","24.1","","100.53","","33","","","","Mainly Clear"
"2010-07-27 18:00","2010","07","27","18:00","26.4","","16.7","","55","","23","","13","","24.1","","100.52","","31","","","","Mainly Clear"
"2010-07-27 19:00","2010","07","27","19:00","24.6","","17.5","","65","","21","","7","","24.1","","100.50","","30","","","","Mainly Clear"
"2010-07-27 20:00","2010","07","27","20:00","23.3","","17.0","","68","","20","","11","","24.1","","100.46","","29","","","","Mainly Clear"
"2010-07-27 21:00","2010","07","27","21:00","22.8","","19.4","","81","","18","","6","","24.1","","100.46","","30","","","","Mainly Clear"
"2010-07-27 22:00","2010","07","27","22:00","22.5","","19.0","","81","","22","","7","","24.1","","100.43","","29","","","","Clear"
"2010-07-27 23:00","2010","07","27","23:00"
"2010-07-28 00:00","2010","07","28","00:00"
"2010-07-28 01:00","2010","07","28","01:00"
"2010-07-28 02:00","2010","07","28","02:00"
"2010-07-28 03:00","2010","07","28","03:00"
"2010-07-28 04:00","2010","07","28","04:00"
"2010-07-28 05:00","2010","07","28","05:00","22.0","","19.1","","84","","19","","13","","24.1","","100.25","","29","","","","Mostly Cloudy"
"2010-07-28 06:00","2010","07","28","06:00","22.6","","19.5","","83","","21","","13","","24.1","","100.23","","30","","","","Mostly Cloudy"
"2010-07-28 07:00","2010","07","28","07:00","23.4","","18.9","","76","","20","","17","","24.1","","100.17","","30","","","","Mostly Cloudy"
"2010-07-28 08:00","2010","07","28","08:00","23.3","","20.1","","82","","20","","17","","24.1","","100.14","","31","","","","Mostly Cloudy"
"2010-07-28 09:00","2010","07","28","09:00","24.2","","20.1","","78","","19","","28","","24.1","","100.12","","32","","","","Mostly Cloudy"
"2010-07-28 10:00","2010","07","28","10:00","23.9","","19.2","","75","","21","","20","","24.1","","100.14","","31","","","","Mostly Cloudy"
"2010-07-28 11:00","2010","07","28","11:00","23.2","","20.2","","83","","19","","24","","24.1","","100.08","","31","","","","Rain Showers"
"2010-07-28 12:00","2010","07","28","12:00","23.8","","20.1","","80","","19","","26","","19.3","","99.98","","31","","","","Mostly Cloudy"
"2010-07-28 13:00","2010","07","28","13:00","24.3","","20.4","","79","","18","","33","","19.3","","99.90","","32","","","","Cloudy"
"2010-07-28 14:00","2010","07","28","14:00","24.5","","20.5","","78","","18","","30","","19.3","","99.85","","32","","","","Cloudy"
"2010-07-28 15:00","2010","07","28","15:00","24.7","","21.0","","80","","18","","26","","19.3","","99.74","","33","","","","Mostly Cloudy"
"2010-07-28 16:00","2010","07","28","16:00","22.5","","21.3","","93","","30","","17","","2.4","","99.75","","31","","","","Thunderstorms,Heavy Rain Showers,Fog"
"2010-07-28 17:00","2010","07","28","17:00","22.9","","21.7","","93","","23","","9","","16.1","","99.72","","32","","","","Rain"
"2010-07-28 18:00","2010","07","28","18:00","24.3","","22.3","","89","","23","","15","","19.3","","99.71","","34","","","","Cloudy"
"2010-07-28 19:00","2010","07","28","19:00","24.8","","22.1","","85","","24","","20","","16.1","","99.71","","34","","","","Cloudy"
"2010-07-28 20:00","2010","07","28","20:00","24.3","","21.7","","85","","24","","13","","16.1","","99.68","","33","","","","Mostly Cloudy"
"2010-07-28 21:00","2010","07","28","21:00","24.2","","21.0","","82","","24","","20","","19.3","","99.72","","33","","","","Mainly Clear"
"2010-07-28 22:00","2010","07","28","22:00","23.3","","21.0","","87","","26","","19","","19.3","","99.74","","32","","","","Mainly Clear"
"2010-07-28 23:00","2010","07","28","23:00"
"2010-07-29 00:00","2010","07","29","00:00"
"2010-07-29 01:00","2010","07","29","01:00"
"2010-07-29 02:00","2010","07","29","02:00"
"2010-07-29 03:00","2010","07","29","03:00"
"2010-07-29 04:00","2010","07","29","04:00"
"2010-07-29 05:00","2010","07","29","05:00","17.3","","15.4","","89","","32","","15","","24.1","","100.04","","","","","","Mainly Clear"
"2010-07-29 06:00","2010","07","29","06:00","17.8","","14.3","","80","","34","","19","","24.1","","100.16","","","","","","Mainly Clear"
"2010-07-29 07:00","2010","07","29","07:00","18.2","","11.2","","64","","34","","24","","24.1","","100.26","","","","","","Mainly Clear"
"2010-07-29 08:00","2010","07","29","08:00","18.9","","11.1","","61","","36","","22","","24.1","","100.32","","","","","","Mainly Clear"
"2010-07-29 09:00","2010","07","29","09:00","20.1","","12.5","","62","","35","","15","","24.1","","100.32","","","","","","Clear"
"2010-07-29 10:00","2010","07","29","10:00","21.5","","12.3","","56","","33","","15","","24.1","","100.34","","","","","","Mainly Clear"
"2010-07-29 11:00","2010","07","29","11:00","22.0","","12.6","","55","","30","","22","","24.1","","100.35","","25","","","","Mainly Clear"
"2010-07-29 12:00","2010","07","29","12:00","23.1","","12.9","","53","","33","","11","","24.1","","100.34","","26","","","","Mainly Clear"
"2010-07-29 13:00","2010","07","29","13:00","23.5","","12.6","","50","","31","","17","","24.1","","100.33","","26","","","","Mainly Clear"
"2010-07-29 14:00","2010","07","29","14:00","23.9","","12.6","","49","","30","","7","","24.1","","100.33","","26","","","","Mainly Clear"
"2010-07-29 15:00","2010","07","29","15:00","24.1","","12.5","","48","","29","","15","","24.1","","100.31","","27","","","","Mostly Cloudy"
"2010-07-29 16:00","2010","07","29","16:00","24.3","","12.6","","48","","33","","17","","24.1","","100.31","","27","","","","Mostly Cloudy"
"2010-07-29 17:00","2010","07","29","17:00","23.7","","12.6","","50","","29","","13","","24.1","","100.31","","26","","","","Mostly Cloudy"
"2010-07-29 18:00","2010","07","29","18:00","23.2","","12.1","","50","","31","","9","","24.1","","100.28","","26","","","","Mainly Clear"
"2010-07-29 19:00","2010","07","29","19:00","21.8","","12.8","","57","","31","","6","","24.1","","100.29","","","","","","Mainly Clear"
"2010-07-29 20:00","2010","07","29","20:00","19.6","","13.8","","69","","30","","7","","24.1","","100.32","","","","","","Mainly Clear"
"2010-07-29 21:00","2010","07","29","21:00","19.7","","13.1","","66","","29","","9","","24.1","","100.36","","","","","","Mainly Clear"
"2010-07-29 22:00","2010","07","29","22:00","18.9","","12.9","","68","","30","","9","","24.1","","100.37","","","","","","Mainly Clear"
"2010-07-29 23:00","2010","07","29","23:00"
"2010-07-30 00:00","2010","07","30","00:00"
"2010-07-30 01:00","2010","07","30","01:00"
"2010-07-30 02:00","2010","07","30","02:00"
"2010-07-30 03:00","2010","07","30","03:00"
"2010-07-30 04:00","2010","07","30","04:00"
"2010-07-30 05:00","2010","07","30","05:00","13.8","","12.3","","91","","33","","7","","24.1","","100.40","","","","","","Mainly Clear"
"2010-07-30 06:00","2010","07","30","06:00","14.6","","12.9","","90","","35","","9","","24.1","","100.46","","","","","","Mainly Clear"
"2010-07-30 07:00","2010","07","30","07:00","16.2","","12.2","","77","","1","","15","","24.1","","100.48","","","","","","Mainly Clear"
"2010-07-30 08:00","2010","07","30","08:00","17.2","","11.5","","69","","3","","15","","24.1","","100.53","","","","","","Mainly Clear"
"2010-07-30 09:00","2010","07","30","09:00","17.9","","10.0","","60","","36","","17","","24.1","","100.54","","","","","","Mainly Clear"
"2010-07-30 10:00","2010","07","30","10:00","19.3","","8.5","","50","","1","","13","","24.1","","100.54","","","","","","Mainly Clear"
"2010-07-30 11:00","2010","07","30","11:00","19.9","","9.3","","50","","32","","9","","24.1","","100.52","","","","","","Mainly Clear"
"2010-07-30 12:00","2010","07","30","12:00","21.0","","10.5","","51","","36","","7","","24.1","","100.52","","","","","","Mainly Clear"
"2010-07-30 13:00","2010","07","30","13:00","20.7","","10.0","","50","","32","","11","","24.1","","100.51","","","","","","Mostly Cloudy"
"2010-07-30 14:00","2010","07","30","14:00","21.4","","10.1","","48","","34","","20","","24.1","","100.48","","","","","","Mainly Clear"
"2010-07-30 15:00","2010","07","30","15:00","22.3","","10.0","","46","","34","","17","","24.1","","100.45","","","","","","Mainly Clear"
"2010-07-30 16:00","2010","07","30","16:00","22.2","","10.3","","47","","33","","15","","24.1","","100.41","","","","","","Mainly Clear"
"2010-07-30 17:00","2010","07","30","17:00","21.5","","12.7","","57","","32","","7","","24.1","","100.40","","","","","","Mainly Clear"
"2010-07-30 18:00","2010","07","30","18:00","20.6","","12.6","","60","","21","","15","","24.1","","100.39","","","","","","Mainly Clear"
"2010-07-30 19:00","2010","07","30","19:00","20.3","","12.4","","60","","23","","11","","24.1","","100.41","","","","","","Mainly Clear"
"2010-07-30 20:00","2010","07","30","20:00","19.7","","13.2","","66","","22","","4","","24.1","","100.45","","","","","","Mainly Clear"
"2010-07-30 21:00","2010","07","30","21:00","17.2","","13.5","","79","","3","","6","","24.1","","100.46","","","","","","Mainly Clear"
"2010-07-30 22:00","2010","07","30","22:00","17.7","","11.5","","67","","3","","9","","24.1","","100.46","","","","","","Mainly Clear"
"2010-07-30 23:00","2010","07","30","23:00"
"2010-07-31 00:00","2010","07","31","00:00"
"2010-07-31 01:00","2010","07","31","01:00"
"2010-07-31 02:00","2010","07","31","02:00"
"2010-07-31 03:00","2010","07","31","03:00"
"2010-07-31 04:00","2010","07","31","04:00"
"2010-07-31 05:00","2010","07","31","05:00","12.8","","10.6","","86","","4","","6","","24.1","","100.48","","","","","","Mostly Cloudy"
"2010-07-31 06:00","2010","07","31","06:00","14.1","","11.2","","83","","3","","6","","24.1","","100.49","","","","","","Mostly Cloudy"
"2010-07-31 07:00","2010","07","31","07:00","16.3","","12.7","","79","","6","","9","","24.1","","100.50","","","","","","Mostly Cloudy"
"2010-07-31 08:00","2010","07","31","08:00","18.5","","13.9","","75","","10","","9","","24.1","","100.49","","","","","","Mostly Cloudy"
"2010-07-31 09:00","2010","07","31","09:00","19.7","","10.2","","54","","13","","13","","24.1","","100.50","","","","","","Mostly Cloudy"
"2010-07-31 10:00","2010","07","31","10:00","20.6","","10.2","","51","","14","","11","","24.1","","100.49","","","","","","Mostly Cloudy"
"2010-07-31 11:00","2010","07","31","11:00","21.4","","10.6","","50","","16","","11","","24.1","","100.46","","","","","","Mostly Cloudy"
"2010-07-31 12:00","2010","07","31","12:00","21.6","","11.0","","51","","14","","15","","24.1","","100.43","","","","","","Mainly Clear"
"2010-07-31 13:00","2010","07","31","13:00","21.8","","12.8","","57","","17","","11","","24.1","","100.41","","","","","","Mainly Clear"
"2010-07-31 14:00","2010","07","31","14:00","21.6","","12.3","","55","","17","","15","","24.1","","100.42","","","","","","Mostly Cloudy"
"2010-07-31 15:00","2010","07","31","15:00","22.5","","13.5","","57","","16","","13","","24.1","","100.40","","26","","","","Mostly Cloudy"
"2010-07-31 16:00","2010","07","31","16:00","21.9","","12.3","","54","","14","","7","","24.1","","100.36","","","","","","Mostly Cloudy"
"2010-07-31 17:00","2010","07","31","17:00","22.1","","13.3","","57","","14","","6","","24.1","","100.35","","25","","","","Mostly Cloudy"
"2010-07-31 18:00","2010","07","31","18:00","22.2","","11.9","","52","","9","","7","","24.1","","100.34","","","","","","Mainly Clear"
"2010-07-31 19:00","2010","07","31","19:00","21.6","","10.8","","50","","6","","6","","24.1","","100.32","","","","","","Mainly Clear"
"2010-07-31 20:00","2010","07","31","20:00","20.1","","10.8","","55","","6","","7","","24.1","","100.34","","","","","","Mainly Clear"
"2010-07-31 21:00","2010","07","31","21:00","19.7","","11.4","","59","","5","","7","","24.1","","100.39","","","","","","Mainly Clear"
"2010-07-31 22:00","2010","07","31","22:00","18.2","","12.3","","68","","4","","6","","24.1","","100.40","","","","","","Mainly Clear"
"2010-07-31 23:00","2010","07","31","23:00"
