"Station Name","KINGSTON A"
"Province","ONTARIO"
"Latitude","44.22"
"Longitude","-76.60"
"Elevation","92.40"
"Climate Identifier","6104146"
"WMO Identifier",""
"TC Identifier","YGK"
"All times are specified in Local Standard Time (LST). Add 1 hour to adjust for Daylight Saving Time where and when it is observed."

"Legend"
"E","Estimated"
"M","Missing"
"NA","Not Available"

"Date/Time","Year","Month","Day","Time","Temp (°C)","Temp Flag","Dew Point Temp (°C)","Dew Point Temp Flag","Rel Hum (%)","Rel Hum Flag","Wind Dir (10s deg)","Wind Dir Flag","Wind Spd (km/h)","Wind Spd Flag","Visibility (km)","Visibility Flag","Stn Press (kPa)","Stn Press Flag","Hmdx","Hmdx Flag","Wind Chill","Wind Chill Flag","Weather"
"2008-03-01 00:00","2008","03","01","00:00"
"2008-03-01 01:00","2008","03","01","01:00"
"2008-03-01 02:00","2008","03","01","02:00"
"2008-03-01 03:00","2008","03","01","03:00"
"2008-03-01 04:00","2008","03","01","04:00"
"2008-03-01 05:00","2008","03","01","05:00"
"2008-03-01 06:00","2008","03","01","06:00","-0.2","","-0.8","","96","","24","","30","","2.4","","99.66","","","","-7","","Snow"
"2008-03-01 07:00","2008","03","01","07:00","-1.1","","-1.5","","97","","27","","24","","8.0","","99.77","","","","-7","","Snow"
"2008-03-01 08:00","2008","03","01","08:00","-2.4","","-2.9","","96","","25","","11","","24.1","","99.83","","","","-6","","Mainly Clear"
"2008-03-01 09:00","2008","03","01","09:00","-1.6","","-3.4","","87","","24","","17","","24.1","","99.89","","","","-7","","Mainly Clear"
"2008-03-01 10:00","2008","03","01","10:00","-1.0","","-4.1","","79","","26","","17","","24.1","","99.94","","","","-6","","Mostly Cloudy"
"2008-03-01 11:00","2008","03","01","11:00","0.0","","-3.1","","80","","26","","19","","24.1","","99.95","","","","-5","","Mostly Cloudy"
"2008-03-01 12:00","2008","03","01","12:00","0.8","","-2.6","","78","","26","","20","","24.1","","99.97","","","","","","Mostly Cloudy"
"2008-03-01 13:00","2008","03","01","13:00","0.6","","-3.2","","76","","27","","15","","24.1","","99.96","","","","","","Snow Showers"
"2008-03-01 14:00","2008","03","01","14:00","0.5","","-4.3","","70","","26","","17","","24.1","","99.98","","","","","","Mostly Cloudy"
"2008-03-01 15:00","2008","03","01","15:00","-0.1","","-2.7","","83","","25","","22","","3.2","","100.05","","","","-6","","Snow Showers"
"2008-03-01 16:00","2008","03","01","16:00","-0.8","","-3.5","","82","","27","","24","","3.2","","100.14","","","","-7","","Snow Showers"
"2008-03-01 17:00","2008","03","01","17:00","-2.4","","-4.9","","83","","28","","22","","1.6","","100.27","","","","-9","","Snow"
"2008-03-01 18:00","2008","03","01","18:00","-2.7","","-4.6","","87","","28","","11","","19.3","","100.45","","","","-7","","Snow"
"2008-03-01 19:00","2008","03","01","19:00","-2.9","","-7.9","","68","","34","","20","","24.1","","100.60","","","","-9","","Snow"
"2008-03-01 20:00","2008","03","01","20:00","-3.7","","-9.4","","65","","33","","24","","24.1","","100.69","","","","-11","","Mainly Clear"
"2008-03-01 21:00","2008","03","01","21:00","-4.7","","-10.2","","65","","32","","17","","24.1","","100.82","","","","-11","","Snow"
"2008-03-01 22:00","2008","03","01","22:00","-5.0","","-10.7","","64","","32","","20","","24.1","","100.89","","","","-12","","Snow"
"2008-03-01 23:00","2008","03","01","23:00","-5.9","","-11.3","","66","","31","","13","","24.1","","100.97","","","","-11","","Mainly Clear"
"2008-03-02 00:00","2008","03","02","00:00"
"2008-03-02 01:00","2008","03","02","01:00"
"2008-03-02 02:00","2008","03","02","02:00"
"2008-03-02 03:00","2008","03","02","03:00"
"2008-03-02 04:00","2008","03","02","04:00"
"2008-03-02 05:00","2008","03","02","05:00"
"2008-03-02 06:00","2008","03","02","06:00","-10.5","","-12.8","","83","","30","","7","","24.1","","101.41","","","","-15","","Mainly Clear"
"2008-03-02 07:00","2008","03","02","07:00","-11.2","","-13.3","","84","","31","","7","","24.1","","101.47","","","","-15","","Mainly Clear"
"2008-03-02 08:00","2008","03","02","08:00","-10.8","","-13.1","","83","","","","0","","24.1","","101.54","","","","","","Mainly Clear"
"2008-03-02 09:00","2008","03","02","09:00","-9.3","","-12.9","","75","","","","0","","24.1","","101.59","","","","","","Mainly Clear"
"2008-03-02 10:00","2008","03","02","10:00","-7.0","","-11.5","","70","","34","","7","","24.1","","101.60","","","","-11","","Mainly Clear"
"2008-03-02 11:00","2008","03","02","11:00","-4.5","","-11.1","","60","","22","","6","","24.1","","101.56","","","","-7","","Mainly Clear"
"2008-03-02 12:00","2008","03","02","12:00","-4.3","","-10.4","","62","","21","","7","","24.1","","101.58","","","","-7","","Mostly Cloudy"
"2008-03-02 13:00","2008","03","02","13:00","-3.6","","-9.7","","63","","17","","13","","24.1","","101.55","","","","-8","","Mostly Cloudy"
"2008-03-02 14:00","2008","03","02","14:00","-4.2","","-9.3","","68","","17","","13","","24.1","","101.52","","","","-9","","Mostly Cloudy"
"2008-03-02 15:00","2008","03","02","15:00","-3.4","","-9.5","","63","","17","","11","","24.1","","101.51","","","","-8","","Mostly Cloudy"
"2008-03-02 16:00","2008","03","02","16:00","-3.6","","-9.5","","64","","19","","13","","24.1","","101.52","","","","-8","","Mostly Cloudy"
"2008-03-02 17:00","2008","03","02","17:00","-4.6","","-9.2","","70","","19","","9","","24.1","","101.47","","","","-8","","Mostly Cloudy"
"2008-03-02 18:00","2008","03","02","18:00","-5.8","","-10.4","","70","","14","","4","","24.1","","101.49","","","","-8","","Mostly Cloudy"
"2008-03-02 19:00","2008","03","02","19:00","-5.2","","-10.1","","68","","15","","9","","24.1","","101.45","","","","-9","","Mostly Cloudy"
"2008-03-02 20:00","2008","03","02","20:00","-4.5","","-9.9","","66","","13","","9","","24.1","","101.34","","","","-8","","Cloudy"
"2008-03-02 21:00","2008","03","02","21:00","-4.8","","-10.7","","63","","13","","9","","24.1","","101.31","","","","-9","","Cloudy"
"2008-03-02 22:00","2008","03","02","22:00","-4.1","","-11.1","","58","","10","","9","","24.1","","101.26","","","","-8","","Cloudy"
"2008-03-02 23:00","2008","03","02","23:00","-3.9","","-11.3","","56","","9","","11","","24.1","","101.19","","","","-8","","Cloudy"
"2008-03-03 00:00","2008","03","03","00:00"
"2008-03-03 01:00","2008","03","03","01:00"
"2008-03-03 02:00","2008","03","03","02:00"
"2008-03-03 03:00","2008","03","03","03:00"
"2008-03-03 04:00","2008","03","03","04:00"
"2008-03-03 05:00","2008","03","03","05:00"
"2008-03-03 06:00","2008","03","03","06:00","0.5","","-2.5","","80","","18","","20","","24.1","","100.41","","","","","","Rain"
"2008-03-03 07:00","2008","03","03","07:00","0.7","","-2.1","","81","","17","","24","","24.1","","100.33","","","","","","Cloudy"
"2008-03-03 08:00","2008","03","03","08:00","1.0","","-1.6","","83","","18","","19","","24.1","","100.28","","","","","","Cloudy"
"2008-03-03 09:00","2008","03","03","09:00","1.7","","-1.5","","79","","18","","22","","24.1","","100.24","","","","","","Mostly Cloudy"
"2008-03-03 10:00","2008","03","03","10:00","2.0","","-1.4","","78","","18","","19","","24.1","","100.18","","","","","","Mostly Cloudy"
"2008-03-03 11:00","2008","03","03","11:00","2.3","","-1.0","","79","","19","","7","","24.1","","100.08","","","","","","Mostly Cloudy"
"2008-03-03 12:00","2008","03","03","12:00","2.8","","-0.8","","77","","19","","15","","24.1","","99.98","","","","","","Mostly Cloudy"
"2008-03-03 13:00","2008","03","03","13:00","3.2","","-0.7","","76","","20","","20","","24.1","","99.86","","","","","","Mostly Cloudy"
"2008-03-03 14:00","2008","03","03","14:00","3.3","","-0.2","","78","","20","","19","","24.1","","99.75","","","","","","Mostly Cloudy"
"2008-03-03 15:00","2008","03","03","15:00","5.1","","0.4","","72","","22","","6","","24.1","","99.64","","","","","","Cloudy"
"2008-03-03 16:00","2008","03","03","16:00","3.7","","0.0","","77","","21","","17","","24.1","","99.51","","","","","","Mostly Cloudy"
"2008-03-03 17:00","2008","03","03","17:00","5.3","","0.1","","69","","20","","32","","24.1","","99.48","","","","","","Mostly Cloudy"
"2008-03-03 18:00","2008","03","03","18:00","4.8","","-0.1","","71","","20","","30","","24.1","","99.49","","","","","","Mostly Cloudy"
"2008-03-03 19:00","2008","03","03","19:00","5.7","","-0.1","","66","","19","","28","","24.1","","99.44","","","","","","Cloudy"
"2008-03-03 20:00","2008","03","03","20:00","5.0","","-0.1","","70","","20","","32","","24.1","","99.41","","","","","","Cloudy"
"2008-03-03 21:00","2008","03","03","21:00","6.5","","0.3","","65","","22","","30","","24.1","","99.51","","","","","","Rain"
"2008-03-03 22:00","2008","03","03","22:00","3.8","","-0.2","","75","","20","","22","","24.1","","99.44","","","","","","Rain"
"2008-03-03 23:00","2008","03","03","23:00","4.7","","1.5","","80","","23","","15","","24.1","","99.46","","","","","","Rain"
"2008-03-04 00:00","2008","03","04","00:00"
"2008-03-04 01:00","2008","03","04","01:00"
"2008-03-04 02:00","2008","03","04","02:00"
"2008-03-04 03:00","2008","03","04","03:00"
"2008-03-04 04:00","2008","03","04","04:00"
"2008-03-04 05:00","2008","03","04","05:00"
"2008-03-04 06:00","2008","03","04","06:00","-0.7","","-5.3","","71","","27","","15","","24.1","","100.36","","","","-5","","Snow"
"2008-03-04 07:00","2008","03","04","07:00","-1.1","","-5.7","","71","","27","","15","","24.1","","100.48","","","","-6","","Mostly Cloudy"
"2008-03-04 08:00","2008","03","04","08:00","-1.3","","-6.2","","69","","27","","17","","24.1","","100.57","","","","-6","","Mostly Cloudy"
"2008-03-04 09:00","2008","03","04","09:00","-1.1","","-6.5","","67","","29","","19","","24.1","","100.68","","","","-6","","Mostly Cloudy"
"2008-03-04 10:00","2008","03","04","10:00","-1.2","","-8.2","","59","","31","","19","","24.1","","100.72","","","","-7","","Mostly Cloudy"
"2008-03-04 11:00","2008","03","04","11:00","-0.5","","-8.8","","53","","34","","13","","24.1","","100.77","","","","-5","","Mostly Cloudy"
"2008-03-04 12:00","2008","03","04","12:00","0.2","","-8.8","","51","","1","","11","","24.1","","100.76","","","","","","Mostly Cloudy"
"2008-03-04 13:00","2008","03","04","13:00","0.9","","-9.0","","48","","1","","11","","24.1","","100.71","","","","","","Mostly Cloudy"
"2008-03-04 14:00","2008","03","04","14:00","1.5","","-7.9","","50","","7","","15","","24.1","","100.60","","","","","","Mostly Cloudy"
"2008-03-04 15:00","2008","03","04","15:00","-0.3","","-8.2","","55","","5","","22","","24.1","","100.66","","","","-6","","Mostly Cloudy"
"2008-03-04 16:00","2008","03","04","16:00","-1.8","","-9.8","","54","","4","","19","","24.1","","100.69","","","","-7","","Mostly Cloudy"
"2008-03-04 17:00","2008","03","04","17:00","-2.6","","-11.6","","50","","5","","22","","24.1","","100.64","","","","-9","","Mostly Cloudy"
"2008-03-04 18:00","2008","03","04","18:00","-2.7","","-11.1","","52","","5","","24","","24.1","","100.56","","","","-9","","Mostly Cloudy"
"2008-03-04 19:00","2008","03","04","19:00","-3.1","","-11.6","","52","","4","","22","","24.1","","100.62","","","","-9","","Cloudy"
"2008-03-04 20:00","2008","03","04","20:00","-3.3","","-12.1","","51","","4","","24","","24.1","","100.45","","","","-10","","Snow"
"2008-03-04 21:00","2008","03","04","21:00","-3.3","","-12.9","","47","","4","","30","","24.1","","100.43","","","","-11","","Cloudy"
"2008-03-04 22:00","2008","03","04","22:00","-3.9","","-12.2","","52","","6","","22","","3.2","","100.34","","","","-10","","Snow"
"2008-03-04 23:00","2008","03","04","23:00","-6.0","","-8.2","","84","","5","","30","","4.0","","100.14","","","","-14","","Snow"
"2008-03-05 00:00","2008","03","05","00:00"
"2008-03-05 01:00","2008","03","05","01:00"
"2008-03-05 02:00","2008","03","05","02:00"
"2008-03-05 03:00","2008","03","05","03:00"
"2008-03-05 04:00","2008","03","05","04:00"
"2008-03-05 05:00","2008","03","05","05:00"
"2008-03-05 06:00","2008","03","05","06:00","-5.4","","-7.0","","88","","4","","28","","3.2","","98.52","","","","-13","","Snow,Ice Pellets"
"2008-03-05 07:00","2008","03","05","07:00","-4.5","","-6.6","","85","","5","","26","","6.4","","98.40","","","","-12","","Freezing Rain,Snow"
"2008-03-05 08:00","2008","03","05","08:00","-4.8","","-6.9","","85","","3","","20","","4.8","","98.47","","","","-11","","Snow"
"2008-03-05 09:00","2008","03","05","09:00","-4.8","","-6.3","","89","","32","","11","","2.4","","98.68","","","","-9","","Snow"
"2008-03-05 10:00","2008","03","05","10:00","-4.8","","-6.5","","88","","33","","19","","4.0","","98.67","","","","-11","","Snow"
"2008-03-05 11:00","2008","03","05","11:00","-3.7","","-7.0","","78","","32","","13","","16.1","","98.82","","","","-9","","Snow"
"2008-03-05 12:00","2008","03","05","12:00","-3.9","","-7.6","","75","","29","","19","","24.1","","99.00","","","","-10","","Cloudy"
"2008-03-05 13:00","2008","03","05","13:00","-3.9","","-7.9","","74","","28","","20","","19.3","","99.12","","","","-10","","Snow"
"2008-03-05 14:00","2008","03","05","14:00","-4.6","","-7.7","","79","","28","","19","","2.4","","99.34","","","","-11","","Snow"
"2008-03-05 15:00","2008","03","05","15:00","-3.7","","-8.5","","69","","28","","26","","24.1","","99.48","","","","-11","","Cloudy"
"2008-03-05 16:00","2008","03","05","16:00","-3.4","","-7.3","","74","","28","","20","","24.1","","99.68","","","","-10","","Cloudy"
"2008-03-05 17:00","2008","03","05","17:00","-2.8","","-7.3","","71","","28","","20","","24.1","","99.79","","","","-9","","Mostly Cloudy"
"2008-03-05 18:00","2008","03","05","18:00","-3.1","","-7.5","","72","","26","","11","","24.1","","99.95","","","","-7","","Mainly Clear"
"2008-03-05 19:00","2008","03","05","19:00","-3.4","","-7.7","","72","","25","","15","","24.1","","100.11","","","","-9","","Mainly Clear"
"2008-03-05 20:00","2008","03","05","20:00","-4.1","","-8.1","","74","","26","","11","","24.1","","100.25","","","","-9","","Mainly Clear"
"2008-03-05 21:00","2008","03","05","21:00","-4.3","","-8.7","","71","","29","","7","","24.1","","100.36","","","","-7","","Mainly Clear"
"2008-03-05 22:00","2008","03","05","22:00","-4.7","","-9.0","","72","","29","","6","","24.1","","100.48","","","","-7","","Mainly Clear"
"2008-03-05 23:00","2008","03","05","23:00","-5.6","","-9.0","","77","","27","","6","","24.1","","100.52","","","","-8","","Clear"
"2008-03-06 00:00","2008","03","06","00:00"
"2008-03-06 01:00","2008","03","06","01:00"
"2008-03-06 02:00","2008","03","06","02:00"
"2008-03-06 03:00","2008","03","06","03:00"
"2008-03-06 04:00","2008","03","06","04:00"
"2008-03-06 05:00","2008","03","06","05:00"
"2008-03-06 06:00","2008","03","06","06:00","-6.5","","-8.6","","85","","17","","4","","24.1","","100.72","","","","-8","","Mostly Cloudy"
"2008-03-06 07:00","2008","03","06","07:00","-1.6","","-4.5","","81","","23","","17","","24.1","","100.76","","","","-7","","Cloudy"
"2008-03-06 08:00","2008","03","06","08:00","-0.9","","-4.5","","77","","23","","19","","24.1","","100.80","","","","-6","","Mostly Cloudy"
"2008-03-06 09:00","2008","03","06","09:00","-0.4","","-3.8","","78","","21","","15","","24.1","","100.83","","","","-5","","Cloudy"
"2008-03-06 10:00","2008","03","06","10:00","-0.3","","-3.3","","80","","20","","24","","24.1","","100.89","","","","-6","","Cloudy"
"2008-03-06 11:00","2008","03","06","11:00","-0.2","","-3.4","","79","","20","","26","","24.1","","100.90","","","","-6","","Mostly Cloudy"
"2008-03-06 12:00","2008","03","06","12:00","0.4","","-3.1","","77","","21","","24","","24.1","","100.96","","","","","","Mostly Cloudy"
"2008-03-06 13:00","2008","03","06","13:00","0.7","","-2.8","","77","","20","","26","","24.1","","100.92","","","","","","Mostly Cloudy"
"2008-03-06 14:00","2008","03","06","14:00","1.1","","-2.7","","76","","21","","24","","24.1","","100.93","","","","","","Mostly Cloudy"
"2008-03-06 15:00","2008","03","06","15:00","0.8","","-2.1","","81","","20","","20","","24.1","","100.96","","","","","","Mostly Cloudy"
"2008-03-06 16:00","2008","03","06","16:00","0.8","","-1.5","","85","","20","","17","","24.1","","100.98","","","","","","Mainly Clear"
"2008-03-06 17:00","2008","03","06","17:00","0.5","","-1.5","","86","","20","","17","","24.1","","101.02","","","","","","Mostly Cloudy"
"2008-03-06 18:00","2008","03","06","18:00","0.1","","-1.6","","88","","19","","15","","24.1","","101.03","","","","","","Mostly Cloudy"
"2008-03-06 19:00","2008","03","06","19:00","0.0","","-1.5","","90","","19","","13","","24.1","","101.07","","","","-4","","Mainly Clear"
"2008-03-06 20:00","2008","03","06","20:00","0.3","","-1.4","","88","","20","","11","","24.1","","101.08","","","","","","Mostly Cloudy"
"2008-03-06 21:00","2008","03","06","21:00","0.5","","-1.4","","87","","20","","13","","24.1","","101.08","","","","","","Mostly Cloudy"
"2008-03-06 22:00","2008","03","06","22:00","0.4","","-1.4","","88","","22","","11","","24.1","","101.16","","","","","","Mostly Cloudy"
"2008-03-06 23:00","2008","03","06","23:00","0.4","","-1.1","","90","","18","","6","","24.1","","101.17","","","","","","Mostly Cloudy"
"2008-03-07 00:00","2008","03","07","00:00"
"2008-03-07 01:00","2008","03","07","01:00"
"2008-03-07 02:00","2008","03","07","02:00"
"2008-03-07 03:00","2008","03","07","03:00"
"2008-03-07 04:00","2008","03","07","04:00"
"2008-03-07 05:00","2008","03","07","05:00"
"2008-03-07 06:00","2008","03","07","06:00","-1.4","","-2.4","","93","","36","","6","","16.1","","101.26","","","","-4","","Cloudy"
"2008-03-07 07:00","2008","03","07","07:00","-0.7","","-1.8","","92","","","","0","","8.0","","101.23","","","","","","Fog"
"2008-03-07 08:00","2008","03","07","08:00","-0.5","","-1.5","","93","","","","0","","8.0","","101.28","","","","","","Fog"
"2008-03-07 09:00","2008","03","07","09:00","0.5","","-1.1","","89","","9","","6","","8.0","","101.31","","","","","","Snow,Fog"
"2008-03-07 10:00","2008","03","07","10:00","0.8","","-1.3","","86","","","","0","","3.2","","101.30","","","","","","Snow,Fog"
"2008-03-07 11:00","2008","03","07","11:00","1.0","","-1.5","","83","","2","","7","","4.0","","101.31","","","","","","Snow,Fog"
"2008-03-07 12:00","2008","03","07","12:00","1.0","","-0.3","","91","","35","","13","","4.8","","101.18","","","","","","Snow,Fog"
"2008-03-07 13:00","2008","03","07","13:00","1.6","","-0.7","","85","","1","","20","","16.1","","100.96","","","","","","Cloudy"
"2008-03-07 14:00","2008","03","07","14:00","1.6","","-1.2","","82","","36","","19","","19.3","","100.86","","","","","","Cloudy"
"2008-03-07 15:00","2008","03","07","15:00","1.6","","-2.1","","76","","2","","17","","19.3","","100.92","","","","","","Cloudy"
"2008-03-07 16:00","2008","03","07","16:00","1.3","","-2.2","","77","","1","","17","","16.1","","100.73","","","","","","Cloudy"
"2008-03-07 17:00","2008","03","07","17:00","1.0","","-2.1","","80","","3","","20","","16.1","","100.68","","","","","","Cloudy"
"2008-03-07 18:00","2008","03","07","18:00","0.5","","-1.7","","85","","4","","11","","1.6","","100.74","","","","","","Snow"
"2008-03-07 19:00","2008","03","07","19:00","-0.3","","-1.4","","92","","3","","15","","2.4","","100.65","","","","-5","","Snow"
"2008-03-07 20:00","2008","03","07","20:00","-0.5","","-1.4","","94","","4","","19","","1.2","","100.50","","","","-6","","Snow"
"2008-03-07 21:00","2008","03","07","21:00","-0.7","","-1.5","","94","","2","","20","","1.0","","100.41","","","","-6","","Snow"
"2008-03-07 22:00","2008","03","07","22:00","-1.4","","-2.2","","94","","2","","20","","1.0","","100.34","","","","-7","","Snow"
"2008-03-07 23:00","2008","03","07","23:00","-1.8","","-2.8","","93","","2","","19","","1.2","","100.25","","","","-7","","Snow"
"2008-03-08 00:00","2008","03","08","00:00"
"2008-03-08 01:00","2008","03","08","01:00"
"2008-03-08 02:00","2008","03","08","02:00"
"2008-03-08 03:00","2008","03","08","03:00"
"2008-03-08 04:00","2008","03","08","04:00"
"2008-03-08 05:00","2008","03","08","05:00"
"2008-03-08 06:00","2008","03","08","06:00","-3.4","","-6.4","","80","","2","","28","","24.1","","99.95","","","","-11","","Cloudy"
"2008-03-08 07:00","2008","03","08","07:00","-3.6","","-6.7","","79","","3","","22","","24.1","","99.97","","","","-10","","Snow"
"2008-03-08 08:00","2008","03","08","08:00","-4.3","","-6.8","","83","","3","","26","","1.6","","99.88","","","","-12","","Snow"
"2008-03-08 09:00","2008","03","08","09:00","-5.0","","-7.1","","85","","3","","28","","1.0","","99.80","","","","-13","","Snow"
"2008-03-08 10:00","2008","03","08","10:00","-5.4","","-7.2","","87","","3","","32","","1.0","","99.78","","","","-14","","Snow"
"2008-03-08 11:00","2008","03","08","11:00","-5.4","","-7.1","","88","","3","","26","","1.2","","99.73","","","","-13","","Snow"
"2008-03-08 12:00","2008","03","08","12:00","-4.8","","-7.1","","84","","4","","41","","4.0","","99.43","","","","-14","","Snow,Blowing Snow"
"2008-03-08 13:00","2008","03","08","13:00","-4.5","","-7.2","","81","","4","","28","","8.0","","99.25","","","","-12","","Freezing Rain,Snow,Blowing Snow"
"2008-03-08 14:00","2008","03","08","14:00","-5.0","","-7.3","","84","","3","","39","","3.2","","99.09","","","","-14","","Snow,Ice Pellets"
"2008-03-08 15:00","2008","03","08","15:00","-5.1","","-7.7","","82","","3","","39","","4.8","","98.73","","","","-14","","Freezing Rain,Snow,Blowing Snow"
"2008-03-08 16:00","2008","03","08","16:00","-4.6","","-7.5","","80","","4","","39","","8.0","","98.59","","","","-13","","Snow,Blowing Snow"
"2008-03-08 17:00","2008","03","08","17:00","-4.6","","-6.9","","84","","4","","41","","3.2","","98.22","","","","-14","","Snow,Ice Pellets,Blowing Snow"
"2008-03-08 18:00","2008","03","08","18:00","-4.3","","-6.3","","86","","3","","37","","1.6","","98.19","","","","-13","","Snow,Ice Pellets,Blowing Snow"
"2008-03-08 19:00","2008","03","08","19:00","-4.2","","-6.5","","84","","2","","43","","2.4","","97.98","","","","-13","","Snow,Ice Pellets,Blowing Snow"
"2008-03-08 20:00","2008","03","08","20:00","-4.3","","-6.5","","85","","3","","46","","2.4","","97.68","","","","-14","","Snow,Ice Pellets,Blowing Snow"
"2008-03-08 21:00","2008","03","08","21:00","-5.5","","-7.0","","89","","36","","33","","0.8","","97.99","","","","-14","","Moderate Snow,Blowing Snow"
"2008-03-08 22:00","2008","03","08","22:00","-6.6","","-8.0","","90","","32","","30","","1.0","","98.22","","","","-15","","Snow,Blowing Snow"
"2008-03-08 23:00","2008","03","08","23:00","-7.0","","-8.6","","88","","31","","24","","1.0","","98.47","","","","-15","","Snow,Blowing Snow"
"2008-03-09 00:00","2008","03","09","00:00"
"2008-03-09 01:00","2008","03","09","01:00"
"2008-03-09 02:00","2008","03","09","02:00"
"2008-03-09 03:00","2008","03","09","03:00"
"2008-03-09 04:00","2008","03","09","04:00"
"2008-03-09 05:00","2008","03","09","05:00","-9.4","","-12.2","","80","","29","","22","","9.7","","99.88","","","","-17","","Snow"
"2008-03-09 06:00","2008","03","09","06:00","-9.4","","-12.5","","78","","29","","28","","24.1","","100.03","","","","-18","","Cloudy"
"2008-03-09 07:00","2008","03","09","07:00","-9.9","","-13.3","","76","","27","","24","","24.1","","100.23","","","","-18","","Mostly Cloudy"
"2008-03-09 08:00","2008","03","09","08:00","-10.2","","-13.9","","74","","28","","26","","24.1","","100.39","","","","-19","","Mostly Cloudy"
"2008-03-09 09:00","2008","03","09","09:00","-9.7","","-14.8","","66","","29","","20","","24.1","","100.52","","","","-17","","Mostly Cloudy"
"2008-03-09 10:00","2008","03","09","10:00","-9.5","","-15.3","","63","","29","","24","","24.1","","100.59","","","","-18","","Mostly Cloudy"
"2008-03-09 11:00","2008","03","09","11:00","-7.8","","-12.8","","67","","27","","17","","24.1","","100.74","","","","-14","","Mostly Cloudy"
"2008-03-09 12:00","2008","03","09","12:00","-7.5","","-12.6","","67","","25","","30","","24.1","","100.81","","","","-16","","Mainly Clear"
"2008-03-09 13:00","2008","03","09","13:00","-6.8","","-12.8","","62","","27","","22","","24.1","","100.83","","","","-14","","Mostly Cloudy"
"2008-03-09 14:00","2008","03","09","14:00","-6.0","","-12.1","","62","","26","","20","","24.1","","100.90","","","","-13","","Mostly Cloudy"
"2008-03-09 15:00","2008","03","09","15:00","-5.4","","-12.6","","57","","27","","22","","24.1","","100.99","","","","-12","","Mostly Cloudy"
"2008-03-09 16:00","2008","03","09","16:00","-5.2","","-13.6","","52","","29","","30","","24.1","","101.02","","","","-13","","Mainly Clear"
"2008-03-09 17:00","2008","03","09","17:00","-5.1","","-13.7","","51","","27","","19","","24.1","","101.12","","","","-12","","Mainly Clear"
"2008-03-09 18:00","2008","03","09","18:00","-5.8","","-14.2","","51","","28","","17","","24.1","","101.21","","","","-12","","Mainly Clear"
"2008-03-09 19:00","2008","03","09","19:00","-6.8","","-14.3","","55","","27","","15","","24.1","","101.32","","","","-13","","Mainly Clear"
"2008-03-09 20:00","2008","03","09","20:00","-7.7","","-15.1","","55","","27","","15","","24.1","","101.41","","","","-14","","Clear"
"2008-03-09 21:00","2008","03","09","21:00","-8.7","","-15.2","","59","","28","","11","","24.1","","101.50","","","","-14","","Clear"
"2008-03-09 22:00","2008","03","09","22:00","-9.9","","-15.6","","63","","29","","7","","24.1","","101.59","","","","-14","","Clear"
"2008-03-09 23:00","2008","03","09","23:00"
"2008-03-10 00:00","2008","03","10","00:00"
"2008-03-10 01:00","2008","03","10","01:00"
"2008-03-10 02:00","2008","03","10","02:00"
"2008-03-10 03:00","2008","03","10","03:00"
"2008-03-10 04:00","2008","03","10","04:00"
"2008-03-10 05:00","2008","03","10","05:00","-18.1","","-20.0","","85","","29","","6","","24.1","","101.70","","","","-23","","Mainly Clear"
"2008-03-10 06:00","2008","03","10","06:00","-19.7","","-21.3","","87","","34","","6","","24.1","","101.72","","","","-25","","Mainly Clear"
"2008-03-10 07:00","2008","03","10","07:00","-18.2","","-19.9","","86","","34","","6","","24.1","","101.76","","","","-23","","Mainly Clear"
"2008-03-10 08:00","2008","03","10","08:00","-16.3","","-18.4","","84","","","","0","","24.1","","101.78","","","","","","Mostly Cloudy"
"2008-03-10 09:00","2008","03","10","09:00","-13.8","","-17.4","","74","","36","","4","","24.1","","101.78","","","","-17","","Mostly Cloudy"
"2008-03-10 10:00","2008","03","10","10:00","-11.5","","-15.7","","71","","22","","4","","24.1","","101.76","","","","-14","","Mainly Clear"
"2008-03-10 11:00","2008","03","10","11:00","-9.5","","-14.8","","65","","20","","6","","24.1","","101.72","","","","-13","","Mainly Clear"
"2008-03-10 12:00","2008","03","10","12:00","-7.4","","-14.6","","56","","22","","11","","24.1","","101.68","","","","-12","","Mainly Clear"
"2008-03-10 13:00","2008","03","10","13:00","-5.2","","-14.8","","47","","22","","13","","24.1","","101.61","","","","-10","","Mainly Clear"
"2008-03-10 14:00","2008","03","10","14:00","-4.8","","-14.2","","48","","22","","15","","24.1","","101.52","","","","-10","","Mainly Clear"
"2008-03-10 15:00","2008","03","10","15:00","-4.1","","-13.9","","46","","23","","15","","24.1","","101.46","","","","-9","","Mainly Clear"
"2008-03-10 16:00","2008","03","10","16:00","-4.2","","-13.9","","47","","23","","17","","24.1","","101.40","","","","-10","","Mainly Clear"
"2008-03-10 17:00","2008","03","10","17:00","-4.4","","-13.1","","51","","23","","13","","24.1","","101.36","","","","-9","","Mainly Clear"
"2008-03-10 18:00","2008","03","10","18:00","-5.1","","-13.1","","53","","23","","11","","24.1","","101.33","","","","-10","","Mainly Clear"
"2008-03-10 19:00","2008","03","10","19:00","-6.1","","-13.2","","57","","24","","11","","24.1","","101.29","","","","-11","","Mainly Clear"
"2008-03-10 20:00","2008","03","10","20:00","-7.1","","-11.8","","69","","25","","9","","24.1","","101.27","","","","-11","","Clear"
"2008-03-10 21:00","2008","03","10","21:00","-7.2","","-11.5","","71","","25","","11","","24.1","","101.26","","","","-12","","Clear"
"2008-03-10 22:00","2008","03","10","22:00","-7.4","","-12.0","","70","","25","","7","","24.1","","101.25","","","","-11","","Clear"
"2008-03-10 23:00","2008","03","10","23:00"
"2008-03-11 00:00","2008","03","11","00:00"
"2008-03-11 01:00","2008","03","11","01:00"
"2008-03-11 02:00","2008","03","11","02:00"
"2008-03-11 03:00","2008","03","11","03:00"
"2008-03-11 04:00","2008","03","11","04:00"
"2008-03-11 05:00","2008","03","11","05:00","-11.5","","-13.7","","84","","28","","9","","24.1","","101.10","","","","-17","","Mainly Clear"
"2008-03-11 06:00","2008","03","11","06:00","-10.8","","-13.0","","84","","27","","9","","24.1","","101.04","","","","-16","","Mainly Clear"
"2008-03-11 07:00","2008","03","11","07:00","-10.4","","-12.4","","85","","28","","6","","24.1","","101.00","","","","-14","","Mainly Clear"
"2008-03-11 08:00","2008","03","11","08:00","-9.5","","-12.5","","79","","27","","6","","24.1","","100.96","","","","-13","","Mainly Clear"
"2008-03-11 09:00","2008","03","11","09:00","-6.6","","-11.1","","70","","25","","6","","24.1","","100.89","","","","-10","","Mostly Cloudy"
"2008-03-11 10:00","2008","03","11","10:00","-4.8","","-10.1","","66","","19","","4","","24.1","","100.80","","","","-7","","Mostly Cloudy"
"2008-03-11 11:00","2008","03","11","11:00","-0.6","","-5.4","","70","","23","","22","","24.1","","100.74","","","","-6","","Mostly Cloudy"
"2008-03-11 12:00","2008","03","11","12:00","-0.7","","-5.8","","68","","21","","26","","24.1","","100.67","","","","-7","","Cloudy"
"2008-03-11 13:00","2008","03","11","13:00","-0.7","","-5.3","","71","","21","","30","","24.1","","100.56","","","","-7","","Cloudy"
"2008-03-11 14:00","2008","03","11","14:00","-1.0","","-5.8","","70","","21","","24","","24.1","","100.42","","","","-7","","Mostly Cloudy"
"2008-03-11 15:00","2008","03","11","15:00","-1.0","","-8.3","","58","","21","","26","","24.1","","100.32","","","","-7","","Mostly Cloudy"
"2008-03-11 16:00","2008","03","11","16:00","-1.0","","-6.6","","66","","22","","24","","24.1","","100.20","","","","-7","","Mostly Cloudy"
"2008-03-11 17:00","2008","03","11","17:00","-1.1","","-4.9","","75","","21","","22","","24.1","","100.06","","","","-7","","Mostly Cloudy"
"2008-03-11 18:00","2008","03","11","18:00","-1.0","","-4.2","","79","","20","","17","","24.1","","100.00","","","","-6","","Cloudy"
"2008-03-11 19:00","2008","03","11","19:00","-1.0","","-3.9","","81","","20","","15","","24.1","","99.88","","","","-6","","Cloudy"
"2008-03-11 20:00","2008","03","11","20:00","-0.8","","-3.5","","82","","21","","17","","24.1","","99.81","","","","-6","","Cloudy"
"2008-03-11 21:00","2008","03","11","21:00","-0.7","","-3.9","","79","","21","","13","","24.1","","99.71","","","","-5","","Mostly Cloudy"
"2008-03-11 22:00","2008","03","11","22:00","-0.7","","-3.5","","81","","21","","15","","24.1","","99.64","","","","-5","","Cloudy"
"2008-03-11 23:00","2008","03","11","23:00"
"2008-03-12 00:00","2008","03","12","00:00"
"2008-03-12 01:00","2008","03","12","01:00"
"2008-03-12 02:00","2008","03","12","02:00"
"2008-03-12 03:00","2008","03","12","03:00"
"2008-03-12 04:00","2008","03","12","04:00"
"2008-03-12 05:00","2008","03","12","05:00","-0.6","","-1.4","","94","","24","","7","","1.6","","99.12","","","","-3","","Snow"
"2008-03-12 06:00","2008","03","12","06:00","-0.8","","-1.6","","94","","26","","7","","2.4","","99.12","","","","-3","","Snow"
"2008-03-12 07:00","2008","03","12","07:00","-0.8","","-1.6","","94","","27","","4","","2.4","","99.18","","","","-2","","Snow"
"2008-03-12 08:00","2008","03","12","08:00","-0.6","","-1.5","","94","","31","","7","","4.8","","99.23","","","","-3","","Fog"
"2008-03-12 09:00","2008","03","12","09:00","-0.1","","-2.4","","84","","34","","20","","8.0","","99.31","","","","-5","","Fog"
"2008-03-12 10:00","2008","03","12","10:00","0.1","","-2.4","","83","","35","","22","","6.4","","99.40","","","","","","Snow Showers,Fog"
"2008-03-12 11:00","2008","03","12","11:00","0.2","","-2.9","","80","","35","","19","","19.3","","99.50","","","","","","Cloudy"
"2008-03-12 12:00","2008","03","12","12:00","0.8","","-4.4","","68","","33","","28","","24.1","","99.59","","","","","","Mostly Cloudy"
"2008-03-12 13:00","2008","03","12","13:00","1.1","","-5.2","","63","","33","","26","","24.1","","99.68","","","","","","Mostly Cloudy"
"2008-03-12 14:00","2008","03","12","14:00","0.5","","-7.8","","54","","34","","32","","24.1","","99.79","","","","","","Mainly Clear"
"2008-03-12 15:00","2008","03","12","15:00","0.8","","-8.0","","52","","32","","24","","24.1","","99.90","","","","","","Mainly Clear"
"2008-03-12 16:00","2008","03","12","16:00","0.7","","-9.4","","47","","32","","22","","24.1","","99.98","","","","","","Mainly Clear"
"2008-03-12 17:00","2008","03","12","17:00","0.0","","-9.8","","48","","34","","19","","24.1","","100.04","","","","-5","","Mainly Clear"
"2008-03-12 18:00","2008","03","12","18:00","-1.0","","-10.9","","47","","34","","15","","24.1","","100.17","","","","-6","","Mainly Clear"
"2008-03-12 19:00","2008","03","12","19:00","-3.6","","-12.3","","51","","36","","7","","24.1","","100.30","","","","-7","","Mainly Clear"
"2008-03-12 20:00","2008","03","12","20:00","-3.5","","-14.2","","43","","2","","7","","24.1","","100.37","","","","-6","","Mainly Clear"
"2008-03-12 21:00","2008","03","12","21:00","-4.3","","-16.5","","38","","2","","15","","24.1","","100.46","","","","-10","","Mainly Clear"
"2008-03-12 22:00","2008","03","12","22:00","-5.1","","-17.1","","38","","2","","13","","24.1","","100.51","","","","-10","","Mainly Clear"
"2008-03-12 23:00","2008","03","12","23:00"
"2008-03-13 00:00","2008","03","13","00:00"
"2008-03-13 01:00","2008","03","13","01:00"
"2008-03-13 02:00","2008","03","13","02:00"
"2008-03-13 03:00","2008","03","13","03:00"
"2008-03-13 04:00","2008","03","13","04:00"
"2008-03-13 05:00","2008","03","13","05:00","-10.2","","-18.5","","51","","4","","7","","24.1","","100.66","","","","-14","","Mostly Cloudy"
"2008-03-13 06:00","2008","03","13","06:00","-10.9","","-18.7","","53","","5","","11","","24.1","","100.67","","","","-17","","Mainly Clear"
"2008-03-13 07:00","2008","03","13","07:00","-10.7","","-17.9","","55","","6","","13","","24.1","","100.60","","","","-17","","Mostly Cloudy"
"2008-03-13 08:00","2008","03","13","08:00","-9.9","","-17.7","","53","","8","","17","","24.1","","100.54","","","","-17","","Mostly Cloudy"
"2008-03-13 09:00","2008","03","13","09:00","-8.1","","-16.6","","50","","8","","20","","24.1","","100.41","","","","-15","","Mostly Cloudy"
"2008-03-13 10:00","2008","03","13","10:00","-6.5","","-15.9","","47","","7","","17","","24.1","","100.35","","","","-13","","Cloudy"
"2008-03-13 11:00","2008","03","13","11:00","-5.1","","-15.0","","46","","3","","13","","24.1","","100.22","","","","-10","","Cloudy"
"2008-03-13 12:00","2008","03","13","12:00","-5.7","","-15.2","","47","","7","","13","","24.1","","100.18","","","","-11","","Cloudy"
"2008-03-13 13:00","2008","03","13","13:00","-7.1","","-9.4","","84","","5","","17","","1.2","","99.95","","","","-14","","Snow"
"2008-03-13 14:00","2008","03","13","14:00","-5.8","","-8.4","","82","","7","","26","","19.3","","99.63","","","","-14","","Cloudy"
"2008-03-13 15:00","2008","03","13","15:00","-3.9","","-8.0","","73","","7","","22","","24.1","","99.65","","","","-10","","Cloudy"
"2008-03-13 16:00","2008","03","13","16:00","-3.6","","-7.6","","74","","6","","19","","24.1","","99.58","","","","-10","","Cloudy"
"2008-03-13 17:00","2008","03","13","17:00","-4.0","","-8.1","","73","","6","","20","","24.1","","99.49","","","","-10","","Cloudy"
"2008-03-13 18:00","2008","03","13","18:00","-4.3","","-8.5","","72","","6","","20","","24.1","","99.56","","","","-11","","Cloudy"
"2008-03-13 19:00","2008","03","13","19:00","-4.9","","-9.4","","71","","3","","19","","24.1","","99.67","","","","-11","","Cloudy"
"2008-03-13 20:00","2008","03","13","20:00","-5.8","","-10.3","","70","","3","","15","","24.1","","99.76","","","","-12","","Cloudy"
"2008-03-13 21:00","2008","03","13","21:00","-6.4","","-10.5","","73","","2","","11","","24.1","","99.81","","","","-11","","Cloudy"
"2008-03-13 22:00","2008","03","13","22:00","-6.5","","-10.1","","76","","4","","9","","24.1","","99.83","","","","-11","","Cloudy"
"2008-03-13 23:00","2008","03","13","23:00"
"2008-03-14 00:00","2008","03","14","00:00"
"2008-03-14 01:00","2008","03","14","01:00"
"2008-03-14 02:00","2008","03","14","02:00"
"2008-03-14 03:00","2008","03","14","03:00"
"2008-03-14 04:00","2008","03","14","04:00"
"2008-03-14 05:00","2008","03","14","05:00","-6.0","","-9.2","","78","","4","","6","","24.1","","99.91","","","","-9","","Cloudy"
"2008-03-14 06:00","2008","03","14","06:00","-6.0","","-9.2","","78","","7","","7","","24.1","","99.92","","","","-9","","Cloudy"
"2008-03-14 07:00","2008","03","14","07:00","-6.0","","-9.0","","79","","6","","4","","24.1","","99.96","","","","-8","","Cloudy"
"2008-03-14 08:00","2008","03","14","08:00","-4.2","","-8.0","","75","","8","","6","","24.1","","99.93","","","","-7","","Cloudy"
"2008-03-14 09:00","2008","03","14","09:00","0.6","","-4.4","","69","","9","","4","","24.1","","99.93","","","","","","Cloudy"
"2008-03-14 10:00","2008","03","14","10:00","0.8","","-3.2","","75","","15","","13","","19.3","","99.89","","","","","","Mostly Cloudy"
"2008-03-14 11:00","2008","03","14","11:00","3.2","","-1.7","","70","","15","","11","","16.1","","99.87","","","","","","Cloudy"
"2008-03-14 12:00","2008","03","14","12:00","3.9","","-1.4","","68","","15","","9","","12.9","","99.83","","","","","","Cloudy"
"2008-03-14 13:00","2008","03","14","13:00","4.8","","-1.9","","62","","13","","13","","16.1","","99.71","","","","","","Mostly Cloudy"
"2008-03-14 14:00","2008","03","14","14:00","5.1","","-2.1","","60","","12","","11","","19.3","","99.65","","","","","","Mostly Cloudy"
"2008-03-14 15:00","2008","03","14","15:00","6.0","","-1.5","","59","","10","","9","","19.3","","99.58","","","","","","Cloudy"
"2008-03-14 16:00","2008","03","14","16:00","6.2","","-1.4","","58","","8","","9","","19.3","","99.52","","","","","","Cloudy"
"2008-03-14 17:00","2008","03","14","17:00","5.6","","-1.6","","60","","9","","11","","19.3","","99.48","","","","","","Cloudy"
"2008-03-14 18:00","2008","03","14","18:00","5.5","","-1.9","","59","","7","","9","","19.3","","99.49","","","","","","Cloudy"
"2008-03-14 19:00","2008","03","14","19:00","4.8","","-2.1","","61","","9","","9","","24.1","","99.53","","","","","","Cloudy"
"2008-03-14 20:00","2008","03","14","20:00","4.4","","-2.1","","63","","9","","4","","24.1","","99.51","","","","","","Rain Showers"
"2008-03-14 21:00","2008","03","14","21:00","2.2","","-1.5","","76","","13","","6","","24.1","","99.53","","","","","","Cloudy"
"2008-03-14 22:00","2008","03","14","22:00","3.0","","0.3","","82","","18","","6","","24.1","","99.54","","","","","","Cloudy"
"2008-03-14 23:00","2008","03","14","23:00"
"2008-03-15 00:00","2008","03","15","00:00"
"2008-03-15 01:00","2008","03","15","01:00"
"2008-03-15 02:00","2008","03","15","02:00"
"2008-03-15 03:00","2008","03","15","03:00"
"2008-03-15 04:00","2008","03","15","04:00"
"2008-03-15 05:00","2008","03","15","05:00","0.7","","-1.2","","87","","7","","7","","12.9","","99.50","","","","","","Cloudy"
"2008-03-15 06:00","2008","03","15","06:00","0.7","","-1.0","","88","","9","","9","","8.0","","99.50","","","","","","Fog"
"2008-03-15 07:00","2008","03","15","07:00","0.9","","-0.8","","88","","","","0","","6.4","","99.56","","","","","","Fog"
"2008-03-15 08:00","2008","03","15","08:00","1.5","","-0.8","","85","","9","","6","","6.4","","99.56","","","","","","Fog"
"2008-03-15 09:00","2008","03","15","09:00","1.3","","-1.0","","85","","15","","9","","6.4","","99.55","","","","","","Fog"
"2008-03-15 10:00","2008","03","15","10:00","0.8","","-0.6","","90","","19","","9","","1.6","","99.60","","","","","","Fog"
"2008-03-15 11:00","2008","03","15","11:00","1.0","","0.3","","95","","22","","11","","0.4","","99.58","","","","","","Fog"
"2008-03-15 12:00","2008","03","15","12:00","1.1","","0.3","","94","","22","","9","","2.4","","99.68","","","","","","Fog"
"2008-03-15 13:00","2008","03","15","13:00","2.8","","1.5","","91","","22","","9","","8.0","","99.68","","","","","","Fog"
"2008-03-15 14:00","2008","03","15","14:00","1.4","","-0.5","","87","","19","","9","","11.3","","99.65","","","","","","Mostly Cloudy"
"2008-03-15 15:00","2008","03","15","15:00","1.7","","-0.1","","88","","20","","15","","8.0","","99.63","","","","","","Fog"
"2008-03-15 16:00","2008","03","15","16:00","1.6","","-0.5","","86","","19","","15","","8.0","","99.61","","","","","","Fog"
"2008-03-15 17:00","2008","03","15","17:00","1.0","","-0.9","","87","","19","","15","","12.9","","99.67","","","","","","Mostly Cloudy"
"2008-03-15 18:00","2008","03","15","18:00","0.4","","-1.2","","89","","19","","9","","16.1","","99.71","","","","","","Mostly Cloudy"
"2008-03-15 19:00","2008","03","15","19:00","0.9","","-1.6","","83","","36","","6","","19.3","","99.81","","","","","","Mostly Cloudy"
"2008-03-15 20:00","2008","03","15","20:00","1.2","","-1.3","","83","","3","","9","","16.1","","99.89","","","","","","Mainly Clear"
"2008-03-15 21:00","2008","03","15","21:00","0.3","","-1.5","","88","","4","","9","","12.9","","99.94","","","","","","Mainly Clear"
"2008-03-15 22:00","2008","03","15","22:00","-0.7","","-2.3","","89","","36","","11","","12.9","","99.98","","","","-4","","Mainly Clear"
"2008-03-15 23:00","2008","03","15","23:00"
"2008-03-16 00:00","2008","03","16","00:00"
"2008-03-16 01:00","2008","03","16","01:00"
"2008-03-16 02:00","2008","03","16","02:00"
"2008-03-16 03:00","2008","03","16","03:00"
"2008-03-16 04:00","2008","03","16","04:00"
"2008-03-16 05:00","2008","03","16","05:00","0.9","","-3.3","","73","","36","","22","","24.1","","100.30","","","","","","Mostly Cloudy"
"2008-03-16 06:00","2008","03","16","06:00","0.4","","-4.1","","72","","1","","24","","24.1","","100.41","","","","","","Mostly Cloudy"
"2008-03-16 07:00","2008","03","16","07:00","-0.1","","-5.0","","70","","1","","20","","24.1","","100.52","","","","-5","","Snow Showers"
"2008-03-16 08:00","2008","03","16","08:00","-0.4","","-7.6","","58","","1","","22","","24.1","","100.64","","","","-6","","Mostly Cloudy"
"2008-03-16 09:00","2008","03","16","09:00","-0.2","","-7.8","","56","","35","","24","","24.1","","100.74","","","","-6","","Mostly Cloudy"
"2008-03-16 10:00","2008","03","16","10:00","-0.9","","-7.4","","61","","35","","28","","24.1","","100.82","","","","-7","","Mostly Cloudy"
"2008-03-16 11:00","2008","03","16","11:00","0.6","","-7.3","","55","","34","","26","","24.1","","100.92","","","","","","Mainly Clear"
"2008-03-16 12:00","2008","03","16","12:00","0.0","","-7.7","","56","","35","","20","","24.1","","101.02","","","","-5","","Mainly Clear"
"2008-03-16 13:00","2008","03","16","13:00","0.8","","-8.9","","48","","34","","26","","24.1","","101.04","","","","","","Mainly Clear"
"2008-03-16 14:00","2008","03","16","14:00","0.9","","-8.2","","51","","34","","24","","24.1","","101.09","","","","","","Mainly Clear"
"2008-03-16 15:00","2008","03","16","15:00","1.1","","-8.7","","48","","36","","17","","24.1","","101.19","","","","","","Mainly Clear"
"2008-03-16 16:00","2008","03","16","16:00","1.1","","-9.1","","46","","35","","22","","24.1","","101.28","","","","","","Mainly Clear"
"2008-03-16 17:00","2008","03","16","17:00","1.1","","-9.3","","46","","36","","13","","24.1","","101.35","","","","","","Mainly Clear"
"2008-03-16 18:00","2008","03","16","18:00","0.2","","-10.2","","45","","1","","17","","24.1","","101.46","","","","","","Mainly Clear"
"2008-03-16 19:00","2008","03","16","19:00","-1.0","","-10.7","","48","","36","","13","","24.1","","101.60","","","","-5","","Mainly Clear"
"2008-03-16 20:00","2008","03","16","20:00","-2.8","","-10.1","","57","","35","","9","","24.1","","101.72","","","","-6","","Mainly Clear"
"2008-03-16 21:00","2008","03","16","21:00","-2.1","","-11.5","","49","","36","","19","","24.1","","101.81","","","","-8","","Clear"
"2008-03-16 22:00","2008","03","16","22:00","-2.7","","-11.9","","49","","1","","24","","24.1","","101.92","","","","-9","","Clear"
"2008-03-16 23:00","2008","03","16","23:00"
"2008-03-17 00:00","2008","03","17","00:00"
"2008-03-17 01:00","2008","03","17","01:00"
"2008-03-17 02:00","2008","03","17","02:00"
"2008-03-17 03:00","2008","03","17","03:00"
"2008-03-17 04:00","2008","03","17","04:00"
"2008-03-17 05:00","2008","03","17","05:00","-8.0","","-14.3","","60","","2","","13","","24.1","","102.51","","","","-14","","Clear"
"2008-03-17 06:00","2008","03","17","06:00","-8.8","","-14.6","","63","","36","","11","","24.1","","102.60","","","","-14","","Mainly Clear"
"2008-03-17 07:00","2008","03","17","07:00","-8.9","","-14.5","","64","","1","","9","","24.1","","102.64","","","","-14","","Clear"
"2008-03-17 08:00","2008","03","17","08:00","-8.0","","-14.3","","60","","36","","19","","24.1","","102.79","","","","-15","","Clear"
"2008-03-17 09:00","2008","03","17","09:00","-6.4","","-14.0","","55","","2","","9","","24.1","","102.84","","","","-11","","Clear"
"2008-03-17 10:00","2008","03","17","10:00","-5.8","","-13.9","","53","","36","","9","","24.1","","102.84","","","","-10","","Clear"
"2008-03-17 11:00","2008","03","17","11:00","-4.4","","-13.3","","50","","1","","7","","24.1","","102.75","","","","-8","","Mainly Clear"
"2008-03-17 12:00","2008","03","17","12:00","-2.9","","-13.3","","45","","1","","7","","24.1","","102.73","","","","-6","","Mainly Clear"
"2008-03-17 13:00","2008","03","17","13:00","-2.3","","-10.9","","52","","23","","4","","24.1","","102.60","","","","-4","","Mainly Clear"
"2008-03-17 14:00","2008","03","17","14:00","-2.8","","-10.9","","54","","17","","9","","24.1","","102.54","","","","-6","","Mostly Cloudy"
"2008-03-17 15:00","2008","03","17","15:00","-2.4","","-10.5","","54","","22","","9","","24.1","","102.47","","","","-6","","Mostly Cloudy"
"2008-03-17 16:00","2008","03","17","16:00","-3.2","","-10.1","","59","","20","","11","","24.1","","102.53","","","","-7","","Mainly Clear"
"2008-03-17 17:00","2008","03","17","17:00","-2.9","","-9.0","","63","","23","","9","","24.1","","102.57","","","","-6","","Mostly Cloudy"
"2008-03-17 18:00","2008","03","17","18:00","-2.9","","-9.8","","59","","23","","4","","24.1","","102.52","","","","-4","","Mostly Cloudy"
"2008-03-17 19:00","2008","03","17","19:00","-3.8","","-9.0","","67","","","","0","","24.1","","102.45","","","","","","Mostly Cloudy"
"2008-03-17 20:00","2008","03","17","20:00","-4.1","","-8.4","","72","","","","0","","24.1","","102.39","","","","","","Mostly Cloudy"
"2008-03-17 21:00","2008","03","17","21:00","-4.2","","-8.7","","71","","9","","4","","24.1","","102.34","","","","-6","","Cloudy"
"2008-03-17 22:00","2008","03","17","22:00","-4.4","","-9.3","","69","","7","","6","","24.1","","102.24","","","","-7","","Cloudy"
"2008-03-17 23:00","2008","03","17","23:00"
"2008-03-18 00:00","2008","03","18","00:00"
"2008-03-18 01:00","2008","03","18","01:00"
"2008-03-18 02:00","2008","03","18","02:00"
"2008-03-18 03:00","2008","03","18","03:00"
"2008-03-18 04:00","2008","03","18","04:00"
"2008-03-18 05:00","2008","03","18","05:00","-5.4","","-11.1","","64","","6","","4","","24.1","","101.94","","","","-7","","Cloudy"
"2008-03-18 06:00","2008","03","18","06:00","-5.3","","-11.2","","63","","7","","7","","24.1","","101.91","","","","-9","","Mostly Cloudy"
"2008-03-18 07:00","2008","03","18","07:00","-5.1","","-10.6","","65","","7","","9","","24.1","","101.80","","","","-9","","Mostly Cloudy"
"2008-03-18 08:00","2008","03","18","08:00","-3.6","","-10.0","","61","","9","","9","","24.1","","101.72","","","","-7","","Cloudy"
"2008-03-18 09:00","2008","03","18","09:00","-0.2","","-9.1","","51","","8","","9","","24.1","","101.59","","","","-3","","Cloudy"
"2008-03-18 10:00","2008","03","18","10:00","1.2","","-8.7","","48","","10","","15","","24.1","","101.45","","","","","","Cloudy"
"2008-03-18 11:00","2008","03","18","11:00","1.2","","-7.3","","53","","12","","15","","24.1","","101.30","","","","","","Mostly Cloudy"
"2008-03-18 12:00","2008","03","18","12:00","2.8","","-6.7","","50","","13","","17","","24.1","","101.17","","","","","","Cloudy"
"2008-03-18 13:00","2008","03","18","13:00","3.1","","-5.7","","52","","13","","15","","24.1","","101.05","","","","","","Cloudy"
"2008-03-18 14:00","2008","03","18","14:00","3.9","","-5.3","","51","","13","","15","","24.1","","100.99","","","","","","Cloudy"
"2008-03-18 15:00","2008","03","18","15:00","1.2","","-1.2","","84","","15","","15","","3.2","","101.05","","","","","","Snow"
"2008-03-18 16:00","2008","03","18","16:00","0.7","","-0.9","","89","","11","","17","","1.2","","100.97","","","","","","Snow"
"2008-03-18 17:00","2008","03","18","17:00","0.5","","-0.8","","91","","11","","19","","4.0","","100.82","","","","","","Snow"
"2008-03-18 18:00","2008","03","18","18:00","0.8","","-0.5","","91","","12","","20","","8.0","","100.76","","","","","","Snow"
"2008-03-18 19:00","2008","03","18","19:00","0.2","","-0.9","","92","","12","","19","","4.8","","100.72","","","","","","Snow"
"2008-03-18 20:00","2008","03","18","20:00","0.4","","-0.6","","93","","10","","13","","16.1","","100.64","","","","","","Rain"
"2008-03-18 21:00","2008","03","18","21:00","1.7","","-0.1","","88","","15","","22","","24.1","","100.51","","","","","","Rain"
"2008-03-18 22:00","2008","03","18","22:00","1.4","","-1.1","","83","","16","","20","","19.3","","100.41","","","","","","Rain"
"2008-03-18 23:00","2008","03","18","23:00"
"2008-03-19 00:00","2008","03","19","00:00"
"2008-03-19 01:00","2008","03","19","01:00"
"2008-03-19 02:00","2008","03","19","02:00"
"2008-03-19 03:00","2008","03","19","03:00"
"2008-03-19 04:00","2008","03","19","04:00"
"2008-03-19 05:00","2008","03","19","05:00","1.5","","-0.1","","89","","15","","19","","4.8","","99.70","","","","","","Rain,Drizzle,Fog"
"2008-03-19 06:00","2008","03","19","06:00","1.5","","0.1","","90","","15","","19","","8.0","","99.61","","","","","","Rain,Drizzle,Fog"
"2008-03-19 07:00","2008","03","19","07:00","1.5","","0.2","","91","","16","","17","","4.0","","99.54","","","","","","Rain,Drizzle,Fog"
"2008-03-19 08:00","2008","03","19","08:00","2.1","","0.9","","92","","16","","17","","4.0","","99.48","","","","","","Rain,Drizzle,Fog"
"2008-03-19 09:00","2008","03","19","09:00","2.5","","1.0","","90","","17","","24","","6.4","","99.44","","","","","","Rain,Drizzle,Fog"
"2008-03-19 10:00","2008","03","19","10:00","1.9","","0.9","","93","","15","","17","","11.3","","99.31","","","","","","Rain"
"2008-03-19 11:00","2008","03","19","11:00","1.7","","0.8","","94","","16","","9","","6.4","","99.23","","","","","","Rain,Fog"
"2008-03-19 12:00","2008","03","19","12:00","2.0","","1.1","","94","","16","","7","","6.4","","99.13","","","","","","Rain,Fog"
"2008-03-19 13:00","2008","03","19","13:00","2.3","","1.5","","94","","15","","9","","8.0","","99.06","","","","","","Rain,Fog"
"2008-03-19 14:00","2008","03","19","14:00","2.6","","1.8","","94","","27","","6","","8.0","","99.07","","","","","","Rain,Fog"
"2008-03-19 15:00","2008","03","19","15:00","2.8","","2.0","","94","","27","","6","","3.6","","99.05","","","","","","Rain,Fog"
"2008-03-19 16:00","2008","03","19","16:00","3.0","","2.2","","94","","36","","4","","1.6","","99.03","","","","","","Rain,Fog"
"2008-03-19 17:00","2008","03","19","17:00","3.3","","2.6","","95","","7","","9","","2.8","","98.92","","","","","","Rain,Fog"
"2008-03-19 18:00","2008","03","19","18:00","3.0","","2.3","","95","","6","","7","","2.0","","98.83","","","","","","Rain,Fog"
"2008-03-19 19:00","2008","03","19","19:00","2.2","","1.5","","95","","36","","9","","6.4","","98.88","","","","","","Rain,Fog"
"2008-03-19 20:00","2008","03","19","20:00","2.2","","1.4","","94","","36","","15","","16.1","","98.88","","","","","","Rain"
"2008-03-19 21:00","2008","03","19","21:00","2.1","","1.2","","94","","35","","17","","16.1","","98.88","","","","","","Rain"
"2008-03-19 22:00","2008","03","19","22:00","1.9","","0.9","","93","","36","","19","","24.1","","98.83","","","","","","Rain"
"2008-03-19 23:00","2008","03","19","23:00"
"2008-03-20 00:00","2008","03","20","00:00"
"2008-03-20 01:00","2008","03","20","01:00"
"2008-03-20 02:00","2008","03","20","02:00"
"2008-03-20 03:00","2008","03","20","03:00"
"2008-03-20 04:00","2008","03","20","04:00"
"2008-03-20 05:00","2008","03","20","05:00","1.6","","-0.8","","84","","30","","11","","24.1","","99.13","","","","","","Cloudy"
"2008-03-20 06:00","2008","03","20","06:00","1.5","","-1.1","","83","","29","","17","","24.1","","99.22","","","","","","Cloudy"
"2008-03-20 07:00","2008","03","20","07:00","1.7","","-1.5","","79","","30","","19","","24.1","","99.29","","","","","","Mostly Cloudy"
"2008-03-20 08:00","2008","03","20","08:00","2.0","","-1.5","","78","","31","","24","","24.1","","99.36","","","","","","Mostly Cloudy"
"2008-03-20 09:00","2008","03","20","09:00","3.0","","-1.5","","72","","30","","20","","24.1","","99.41","","","","","","Mostly Cloudy"
"2008-03-20 10:00","2008","03","20","10:00","4.0","","-2.2","","64","","30","","22","","24.1","","99.42","","","","","","Mostly Cloudy"
"2008-03-20 11:00","2008","03","20","11:00","4.1","","-1.7","","66","","28","","19","","24.1","","99.45","","","","","","Mostly Cloudy"
"2008-03-20 12:00","2008","03","20","12:00","3.5","","-1.2","","71","","29","","15","","24.1","","99.49","","","","","","Snow Pellets"
"2008-03-20 13:00","2008","03","20","13:00","4.7","","-0.2","","71","","28","","26","","24.1","","99.53","","","","","","Snow Showers"
"2008-03-20 14:00","2008","03","20","14:00","2.1","","-0.3","","84","","29","","24","","12.9","","99.59","","","","","","Snow Showers"
"2008-03-20 15:00","2008","03","20","15:00","2.4","","-0.6","","81","","28","","24","","24.1","","99.63","","","","","","Snow Showers"
"2008-03-20 16:00","2008","03","20","16:00","3.4","","-3.4","","61","","31","","28","","24.1","","99.70","","","","","","Mostly Cloudy"
"2008-03-20 17:00","2008","03","20","17:00","2.6","","-5.7","","54","","29","","30","","24.1","","99.77","","","","","","Mostly Cloudy"
"2008-03-20 18:00","2008","03","20","18:00","1.7","","-7.7","","50","","30","","24","","24.1","","99.89","","","","","","Snow Showers"
"2008-03-20 19:00","2008","03","20","19:00","0.7","","-7.4","","55","","32","","22","","24.1","","100.01","","","","","","Mostly Cloudy"
"2008-03-20 20:00","2008","03","20","20:00","-0.7","","-9.0","","53","","32","","28","","24.1","","100.15","","","","-7","","Mainly Clear"
"2008-03-20 21:00","2008","03","20","21:00","-1.8","","-10.0","","53","","33","","24","","24.1","","100.24","","","","-8","","Mostly Cloudy"
"2008-03-20 22:00","2008","03","20","22:00","-2.5","","-11.5","","50","","31","","30","","24.1","","100.31","","","","-10","","Mainly Clear"
"2008-03-20 23:00","2008","03","20","23:00"
"2008-03-21 00:00","2008","03","21","00:00"
"2008-03-21 01:00","2008","03","21","01:00"
"2008-03-21 02:00","2008","03","21","02:00"
"2008-03-21 03:00","2008","03","21","03:00"
"2008-03-21 04:00","2008","03","21","04:00"
"2008-03-21 05:00","2008","03","21","05:00","-8.6","","-15.0","","60","","31","","17","","24.1","","100.88","","","","-15","","Clear"
"2008-03-21 06:00","2008","03","21","06:00","-8.7","","-15.0","","60","","30","","9","","24.1","","100.92","","","","-13","","Mainly Clear"
"2008-03-21 07:00","2008","03","21","07:00","-8.5","","-14.8","","60","","31","","17","","24.1","","100.98","","","","-15","","Mainly Clear"
"2008-03-21 08:00","2008","03","21","08:00","-7.6","","-15.0","","55","","29","","17","","24.1","","101.04","","","","-14","","Mainly Clear"
"2008-03-21 09:00","2008","03","21","09:00","-6.5","","-15.8","","48","","31","","17","","24.1","","101.04","","","","-13","","Mainly Clear"
"2008-03-21 10:00","2008","03","21","10:00","-5.5","","-16.9","","40","","31","","22","","24.1","","101.02","","","","-13","","Clear"
"2008-03-21 11:00","2008","03","21","11:00","-4.4","","-17.0","","37","","28","","24","","24.1","","100.99","","","","-11","","Clear"
"2008-03-21 12:00","2008","03","21","12:00","-2.7","","-16.7","","33","","28","","22","","24.1","","100.91","","","","-9","","Clear"
"2008-03-21 13:00","2008","03","21","13:00","-1.7","","-17.5","","29","","29","","17","","24.1","","100.83","","","","-7","","Mainly Clear"
"2008-03-21 14:00","2008","03","21","14:00","-0.8","","-14.8","","34","","26","","28","","24.1","","100.78","","","","-7","","Mainly Clear"
"2008-03-21 15:00","2008","03","21","15:00","-0.1","","-15.3","","31","","28","","20","","24.1","","100.74","","","","-5","","Mainly Clear"
"2008-03-21 16:00","2008","03","21","16:00","-0.3","","-12.3","","40","","26","","26","","24.1","","100.68","","","","-6","","Mainly Clear"
"2008-03-21 17:00","2008","03","21","17:00","0.0","","-13.5","","35","","27","","22","","24.1","","100.63","","","","-6","","Mainly Clear"
"2008-03-21 18:00","2008","03","21","18:00","-1.0","","-13.4","","38","","27","","19","","24.1","","100.63","","","","-6","","Mainly Clear"
"2008-03-21 19:00","2008","03","21","19:00","-2.2","","-13.0","","43","","27","","17","","24.1","","100.66","","","","-8","","Mainly Clear"
"2008-03-21 20:00","2008","03","21","20:00","-3.2","","-13.2","","46","","28","","15","","24.1","","100.69","","","","-8","","Mainly Clear"
"2008-03-21 21:00","2008","03","21","21:00","-4.1","","-13.6","","48","","28","","13","","24.1","","100.71","","","","-9","","Clear"
"2008-03-21 22:00","2008","03","21","22:00","-4.7","","-14.1","","48","","29","","11","","24.1","","100.76","","","","-9","","Mainly Clear"
"2008-03-21 23:00","2008","03","21","23:00"
"2008-03-22 00:00","2008","03","22","00:00"
"2008-03-22 01:00","2008","03","22","01:00"
"2008-03-22 02:00","2008","03","22","02:00"
"2008-03-22 03:00","2008","03","22","03:00"
"2008-03-22 04:00","2008","03","22","04:00"
"2008-03-22 05:00","2008","03","22","05:00","-10.0","","-17.8","","53","","28","","9","","24.1","","100.58","","","","-15","","Mainly Clear"
"2008-03-22 06:00","2008","03","22","06:00","-10.1","","-17.9","","53","","27","","9","","24.1","","100.63","","","","-15","","Mainly Clear"
"2008-03-22 07:00","2008","03","22","07:00","-9.8","","-18.3","","50","","29","","11","","24.1","","100.66","","","","-15","","Mainly Clear"
"2008-03-22 08:00","2008","03","22","08:00","-8.6","","-18.4","","45","","29","","11","","24.1","","100.64","","","","-14","","Mainly Clear"
"2008-03-22 09:00","2008","03","22","09:00","-6.8","","-17.3","","43","","33","","13","","24.1","","100.66","","","","-12","","Mainly Clear"
"2008-03-22 10:00","2008","03","22","10:00","-5.8","","-16.7","","42","","34","","9","","24.1","","100.66","","","","-10","","Mainly Clear"
"2008-03-22 11:00","2008","03","22","11:00","-4.4","","-16.0","","40","","30","","11","","24.1","","100.65","","","","-9","","Mainly Clear"
"2008-03-22 12:00","2008","03","22","12:00","-2.9","","-16.5","","34","","33","","6","","24.1","","100.60","","","","-5","","Mainly Clear"
"2008-03-22 13:00","2008","03","22","13:00","-2.2","","-13.2","","43","","22","","19","","24.1","","100.56","","","","-8","","Mainly Clear"
"2008-03-22 14:00","2008","03","22","14:00","-1.9","","-13.3","","41","","23","","20","","24.1","","100.52","","","","-8","","Mainly Clear"
"2008-03-22 15:00","2008","03","22","15:00","-0.1","","-13.1","","37","","23","","20","","24.1","","100.50","","","","-5","","Mainly Clear"
"2008-03-22 16:00","2008","03","22","16:00","0.5","","-13.0","","36","","24","","22","","24.1","","100.47","","","","","","Mainly Clear"
"2008-03-22 17:00","2008","03","22","17:00","0.0","","-11.7","","41","","24","","17","","24.1","","100.47","","","","-5","","Mainly Clear"
"2008-03-22 18:00","2008","03","22","18:00","-0.7","","-10.0","","49","","25","","19","","24.1","","100.49","","","","-6","","Mainly Clear"
"2008-03-22 19:00","2008","03","22","19:00","-1.8","","-9.3","","57","","25","","17","","24.1","","100.53","","","","-7","","Mainly Clear"
"2008-03-22 20:00","2008","03","22","20:00","-2.1","","-11.6","","48","","28","","9","","24.1","","100.60","","","","-6","","Clear"
"2008-03-22 21:00","2008","03","22","21:00","-2.9","","-13.2","","45","","29","","6","","24.1","","100.68","","","","-5","","Clear"
"2008-03-22 22:00","2008","03","22","22:00","-3.0","","-16.1","","36","","29","","9","","24.1","","100.75","","","","-7","","Clear"
"2008-03-22 23:00","2008","03","22","23:00"
"2008-03-23 00:00","2008","03","23","00:00"
"2008-03-23 01:00","2008","03","23","01:00"
"2008-03-23 02:00","2008","03","23","02:00"
"2008-03-23 03:00","2008","03","23","03:00"
"2008-03-23 04:00","2008","03","23","04:00"
"2008-03-23 05:00","2008","03","23","05:00","-8.0","","-18.5","","43","","35","","7","","24.1","","101.06","","","","-12","","Clear"
"2008-03-23 06:00","2008","03","23","06:00","-8.7","","-19.1","","43","","1","","9","","24.1","","101.12","","","","-13","","Mainly Clear"
"2008-03-23 07:00","2008","03","23","07:00","-8.7","","-19.0","","43","","36","","9","","24.1","","101.20","","","","-13","","Mainly Clear"
"2008-03-23 08:00","2008","03","23","08:00","-7.4","","-18.7","","40","","36","","11","","24.1","","101.25","","","","-12","","Mainly Clear"
"2008-03-23 09:00","2008","03","23","09:00","-6.8","","-19.4","","36","","33","","4","","24.1","","101.30","","","","-9","","Mainly Clear"
"2008-03-23 10:00","2008","03","23","10:00","-6.4","","-19.7","","34","","35","","11","","24.1","","101.30","","","","-11","","Mainly Clear"
"2008-03-23 11:00","2008","03","23","11:00","-5.7","","-18.9","","34","","34","","11","","24.1","","101.31","","","","-10","","Mainly Clear"
"2008-03-23 12:00","2008","03","23","12:00","-3.9","","-16.1","","38","","23","","13","","24.1","","101.30","","","","-9","","Mostly Cloudy"
"2008-03-23 13:00","2008","03","23","13:00","-3.9","","-17.3","","34","","21","","13","","24.1","","101.25","","","","-9","","Mostly Cloudy"
"2008-03-23 14:00","2008","03","23","14:00","-3.1","","-15.1","","39","","23","","17","","24.1","","101.21","","","","-9","","Mainly Clear"
"2008-03-23 15:00","2008","03","23","15:00","-4.1","","-12.8","","51","","20","","22","","24.1","","101.22","","","","-11","","Mainly Clear"
"2008-03-23 16:00","2008","03","23","16:00","-3.5","","-12.2","","51","","20","","20","","24.1","","101.21","","","","-10","","Mainly Clear"
"2008-03-23 17:00","2008","03","23","17:00","-3.2","","-11.7","","52","","18","","17","","24.1","","101.19","","","","-9","","Mainly Clear"
"2008-03-23 18:00","2008","03","23","18:00","-2.7","","-13.2","","44","","23","","13","","24.1","","101.17","","","","-7","","Mainly Clear"
"2008-03-23 19:00","2008","03","23","19:00","-2.9","","-12.7","","47","","25","","9","","24.1","","101.18","","","","-6","","Mostly Cloudy"
"2008-03-23 20:00","2008","03","23","20:00","-3.1","","-13.2","","46","","25","","11","","24.1","","101.20","","","","-7","","Mainly Clear"
"2008-03-23 21:00","2008","03","23","21:00","-3.4","","-12.2","","51","","25","","11","","24.1","","101.21","","","","-8","","Mainly Clear"
"2008-03-23 22:00","2008","03","23","22:00","-3.9","","-12.0","","53","","27","","11","","24.1","","101.22","","","","-8","","Mainly Clear"
"2008-03-23 23:00","2008","03","23","23:00"
"2008-03-24 00:00","2008","03","24","00:00"
"2008-03-24 01:00","2008","03","24","01:00"
"2008-03-24 02:00","2008","03","24","02:00"
"2008-03-24 03:00","2008","03","24","03:00"
"2008-03-24 04:00","2008","03","24","04:00"
"2008-03-24 05:00","2008","03","24","05:00","-7.6","","-15.1","","55","","2","","9","","19.3","","101.29","","","","-12","","Snow"
"2008-03-24 06:00","2008","03","24","06:00","-8.7","","-13.3","","69","","4","","9","","8.0","","101.38","","","","-13","","Snow"
"2008-03-24 07:00","2008","03","24","07:00","-9.0","","-12.9","","73","","4","","7","","3.2","","101.45","","","","-13","","Snow"
"2008-03-24 08:00","2008","03","24","08:00","-8.6","","-11.5","","80","","8","","7","","2.4","","101.50","","","","-12","","Snow"
"2008-03-24 09:00","2008","03","24","09:00","-7.2","","-10.5","","77","","9","","7","","24.1","","101.56","","","","-11","","Snow"
"2008-03-24 10:00","2008","03","24","10:00","-6.8","","-9.7","","80","","18","","7","","24.1","","101.61","","","","-10","","Mainly Clear"
"2008-03-24 11:00","2008","03","24","11:00","-5.9","","-9.7","","74","","17","","9","","24.1","","101.63","","","","-10","","Mainly Clear"
"2008-03-24 12:00","2008","03","24","12:00","-4.7","","-9.5","","69","","22","","11","","24.1","","101.61","","","","-9","","Mainly Clear"
"2008-03-24 13:00","2008","03","24","13:00","-4.3","","-9.3","","68","","23","","13","","24.1","","101.61","","","","-9","","Mainly Clear"
"2008-03-24 14:00","2008","03","24","14:00","-3.6","","-10.2","","60","","21","","11","","24.1","","101.60","","","","-8","","Mainly Clear"
"2008-03-24 15:00","2008","03","24","15:00","-3.5","","-8.3","","69","","20","","22","","24.1","","101.56","","","","-10","","Mainly Clear"
"2008-03-24 16:00","2008","03","24","16:00","-2.7","","-9.8","","58","","20","","22","","24.1","","101.54","","","","-9","","Mainly Clear"
"2008-03-24 17:00","2008","03","24","17:00","-2.2","","-10.2","","54","","23","","17","","24.1","","101.52","","","","-8","","Mainly Clear"
"2008-03-24 18:00","2008","03","24","18:00","-2.9","","-9.8","","59","","23","","17","","24.1","","101.52","","","","-8","","Clear"
"2008-03-24 19:00","2008","03","24","19:00","-3.3","","-9.0","","65","","23","","13","","24.1","","101.49","","","","-8","","Mainly Clear"
"2008-03-24 20:00","2008","03","24","20:00","-3.8","","-8.6","","69","","24","","9","","24.1","","101.51","","","","-8","","Mainly Clear"
"2008-03-24 21:00","2008","03","24","21:00","-4.2","","-8.8","","70","","25","","7","","24.1","","101.52","","","","-7","","Clear"
"2008-03-24 22:00","2008","03","24","22:00","-4.9","","-12.5","","55","","26","","6","","24.1","","101.51","","","","-8","","Clear"
"2008-03-24 23:00","2008","03","24","23:00"
"2008-03-25 00:00","2008","03","25","00:00"
"2008-03-25 01:00","2008","03","25","01:00"
"2008-03-25 02:00","2008","03","25","02:00"
"2008-03-25 03:00","2008","03","25","03:00"
"2008-03-25 04:00","2008","03","25","04:00"
"2008-03-25 05:00","2008","03","25","05:00","-8.3","","-13.9","","64","","10","","4","","24.1","","101.36","","","","-10","","Mostly Cloudy"
"2008-03-25 06:00","2008","03","25","06:00","-7.6","","-11.2","","75","","5","","4","","24.1","","101.38","","","","-10","","Mostly Cloudy"
"2008-03-25 07:00","2008","03","25","07:00","-4.9","","-8.0","","79","","8","","6","","24.1","","101.38","","","","-8","","Mostly Cloudy"
"2008-03-25 08:00","2008","03","25","08:00","-1.2","","-5.6","","72","","19","","22","","24.1","","101.26","","","","-7","","Mostly Cloudy"
"2008-03-25 09:00","2008","03","25","09:00","-1.1","","-6.1","","69","","19","","28","","24.1","","101.20","","","","-8","","Mainly Clear"
"2008-03-25 10:00","2008","03","25","10:00","-1.1","","-5.8","","70","","19","","26","","24.1","","101.12","","","","-7","","Cloudy"
"2008-03-25 11:00","2008","03","25","11:00","-1.3","","-6.4","","68","","17","","32","","24.1","","100.98","","","","-8","","Cloudy"
"2008-03-25 12:00","2008","03","25","12:00","0.1","","-5.3","","67","","17","","26","","24.1","","100.84","","","","","","Cloudy"
"2008-03-25 13:00","2008","03","25","13:00","0.6","","-5.3","","65","","17","","30","","24.1","","100.63","","","","","","Cloudy"
"2008-03-25 14:00","2008","03","25","14:00","1.4","","-5.3","","61","","17","","28","","24.1","","100.41","","","","","","Cloudy"
"2008-03-25 15:00","2008","03","25","15:00","1.7","","-4.7","","62","","18","","19","","24.1","","100.28","","","","","","Cloudy"
"2008-03-25 16:00","2008","03","25","16:00","3.6","","-5.6","","51","","19","","30","","24.1","","100.09","","","","","","Cloudy"
"2008-03-25 17:00","2008","03","25","17:00","3.7","","-4.2","","56","","21","","41","","16.1","","100.01","","","","","","Snow"
"2008-03-25 18:00","2008","03","25","18:00","2.2","","-1.7","","75","","22","","28","","12.9","","100.03","","","","","","Snow"
"2008-03-25 19:00","2008","03","25","19:00","0.7","","-1.0","","88","","20","","37","","2.0","","99.97","","","","","","Snow"
"2008-03-25 20:00","2008","03","25","20:00","1.3","","-0.4","","88","","21","","35","","8.0","","99.92","","","","","","Snow"
"2008-03-25 21:00","2008","03","25","21:00","1.2","","-0.3","","90","","20","","39","","8.0","","99.83","","","","","","Rain,Snow"
"2008-03-25 22:00","2008","03","25","22:00","2.0","","0.5","","90","","21","","39","","9.7","","99.77","","","","","","Rain"
"2008-03-25 23:00","2008","03","25","23:00"
"2008-03-26 00:00","2008","03","26","00:00"
"2008-03-26 01:00","2008","03","26","01:00"
"2008-03-26 02:00","2008","03","26","02:00"
"2008-03-26 03:00","2008","03","26","03:00"
"2008-03-26 04:00","2008","03","26","04:00"
"2008-03-26 05:00","2008","03","26","05:00","2.7","","0.4","","85","","26","","19","","16.1","","99.72","","","","","","Rain Showers"
"2008-03-26 06:00","2008","03","26","06:00","2.6","","0.3","","85","","25","","19","","12.9","","99.85","","","","","","Cloudy"
"2008-03-26 07:00","2008","03","26","07:00","2.3","","-1.8","","74","","28","","20","","24.1","","99.95","","","","","","Mostly Cloudy"
"2008-03-26 08:00","2008","03","26","08:00","2.8","","-2.4","","69","","27","","26","","24.1","","100.09","","","","","","Mainly Clear"
"2008-03-26 09:00","2008","03","26","09:00","3.4","","-4.2","","57","","28","","30","","24.1","","100.17","","","","","","Mainly Clear"
"2008-03-26 10:00","2008","03","26","10:00","3.5","","-5.3","","52","","29","","20","","24.1","","100.28","","","","","","Mainly Clear"
"2008-03-26 11:00","2008","03","26","11:00","3.5","","-5.1","","53","","26","","28","","24.1","","100.40","","","","","","Mostly Cloudy"
"2008-03-26 12:00","2008","03","26","12:00","3.0","","-4.8","","56","","26","","22","","24.1","","100.45","","","","","","Mostly Cloudy"
"2008-03-26 13:00","2008","03","26","13:00","3.4","","-5.2","","53","","25","","24","","24.1","","100.49","","","","","","Mainly Clear"
"2008-03-26 14:00","2008","03","26","14:00","3.5","","-4.5","","56","","24","","43","","24.1","","100.51","","","","","","Mainly Clear"
"2008-03-26 15:00","2008","03","26","15:00","3.5","","-5.0","","54","","25","","24","","24.1","","100.52","","","","","","Mainly Clear"
"2008-03-26 16:00","2008","03","26","16:00","4.0","","-6.0","","48","","27","","20","","24.1","","100.52","","","","","","Clear"
"2008-03-26 17:00","2008","03","26","17:00","3.5","","-6.0","","50","","26","","17","","24.1","","100.54","","","","","","Mainly Clear"
"2008-03-26 18:00","2008","03","26","18:00","2.3","","-3.9","","64","","25","","13","","24.1","","100.57","","","","","","Mainly Clear"
"2008-03-26 19:00","2008","03","26","19:00","1.7","","-4.5","","63","","23","","9","","24.1","","100.60","","","","","","Mostly Cloudy"
"2008-03-26 20:00","2008","03","26","20:00","0.8","","-3.7","","72","","22","","6","","24.1","","100.62","","","","","","Mostly Cloudy"
"2008-03-26 21:00","2008","03","26","21:00","0.6","","-4.1","","71","","24","","9","","24.1","","100.64","","","","","","Mainly Clear"
"2008-03-26 22:00","2008","03","26","22:00","0.1","","-3.5","","77","","25","","6","","24.1","","100.61","","","","","","Mainly Clear"
"2008-03-26 23:00","2008","03","26","23:00"
"2008-03-27 00:00","2008","03","27","00:00"
"2008-03-27 01:00","2008","03","27","01:00"
"2008-03-27 02:00","2008","03","27","02:00"
"2008-03-27 03:00","2008","03","27","03:00"
"2008-03-27 04:00","2008","03","27","04:00"
"2008-03-27 05:00","2008","03","27","05:00","-0.2","","-2.2","","86","","23","","13","","24.1","","100.47","","","","-4","","Mainly Clear"
"2008-03-27 06:00","2008","03","27","06:00","-0.6","","-2.7","","86","","25","","9","","16.1","","100.46","","","","-4","","Mostly Cloudy"
"2008-03-27 07:00","2008","03","27","07:00","-0.3","","-2.3","","86","","24","","11","","12.9","","100.55","","","","-4","","Cloudy"
"2008-03-27 08:00","2008","03","27","08:00","0.7","","-1.4","","86","","26","","11","","9.7","","100.56","","","","","","Haze"
"2008-03-27 09:00","2008","03","27","09:00","1.5","","-1.8","","79","","25","","7","","11.3","","100.58","","","","","","Mostly Cloudy"
"2008-03-27 10:00","2008","03","27","10:00","2.8","","-2.4","","69","","24","","11","","19.3","","100.64","","","","","","Cloudy"
"2008-03-27 11:00","2008","03","27","11:00","3.9","","-2.5","","63","","23","","11","","24.1","","100.55","","","","","","Cloudy"
"2008-03-27 12:00","2008","03","27","12:00","2.4","","-1.4","","76","","22","","13","","24.1","","100.57","","","","","","Cloudy"
"2008-03-27 13:00","2008","03","27","13:00","2.0","","-1.1","","80","","20","","20","","24.1","","100.52","","","","","","Cloudy"
"2008-03-27 14:00","2008","03","27","14:00","3.1","","-0.3","","78","","22","","13","","24.1","","100.47","","","","","","Mostly Cloudy"
"2008-03-27 15:00","2008","03","27","15:00","4.3","","-2.0","","64","","23","","17","","24.1","","100.43","","","","","","Mostly Cloudy"
"2008-03-27 16:00","2008","03","27","16:00","4.2","","-3.0","","59","","23","","11","","24.1","","100.41","","","","","","Cloudy"
"2008-03-27 17:00","2008","03","27","17:00","3.6","","-3.6","","59","","24","","11","","24.1","","100.38","","","","","","Cloudy"
"2008-03-27 18:00","2008","03","27","18:00","3.4","","-3.3","","61","","24","","9","","24.1","","100.43","","","","","","Cloudy"
"2008-03-27 19:00","2008","03","27","19:00","1.1","","-1.6","","82","","20","","7","","24.1","","100.42","","","","","","Cloudy"
"2008-03-27 20:00","2008","03","27","20:00","1.1","","-1.2","","85","","13","","4","","24.1","","100.46","","","","","","Cloudy"
"2008-03-27 21:00","2008","03","27","21:00","0.8","","-0.8","","89","","16","","4","","19.3","","100.44","","","","","","Cloudy"
"2008-03-27 22:00","2008","03","27","22:00","0.9","","-0.9","","88","","17","","7","","24.1","","100.44","","","","","","Cloudy"
"2008-03-27 23:00","2008","03","27","23:00"
"2008-03-28 00:00","2008","03","28","00:00"
"2008-03-28 01:00","2008","03","28","01:00"
"2008-03-28 02:00","2008","03","28","02:00"
"2008-03-28 03:00","2008","03","28","03:00"
"2008-03-28 04:00","2008","03","28","04:00"
"2008-03-28 05:00","2008","03","28","05:00","0.1","","-8.4","","53","","4","","11","","24.1","","100.18","","","","","","Cloudy"
"2008-03-28 06:00","2008","03","28","06:00","-0.1","","-8.5","","53","","3","","17","","24.1","","100.22","","","","-5","","Cloudy"
"2008-03-28 07:00","2008","03","28","07:00","-0.4","","-8.9","","53","","3","","22","","24.1","","100.21","","","","-6","","Cloudy"
"2008-03-28 08:00","2008","03","28","08:00","-0.7","","-10.0","","49","","2","","19","","24.1","","100.27","","","","-6","","Cloudy"
"2008-03-28 09:00","2008","03","28","09:00","-0.4","","-10.4","","47","","3","","22","","24.1","","100.36","","","","-6","","Cloudy"
"2008-03-28 10:00","2008","03","28","10:00","-0.1","","-10.5","","45","","2","","26","","24.1","","100.41","","","","-6","","Cloudy"
"2008-03-28 11:00","2008","03","28","11:00","0.9","","-10.0","","44","","4","","19","","24.1","","100.47","","","","","","Cloudy"
"2008-03-28 12:00","2008","03","28","12:00","1.3","","-7.6","","51","","36","","28","","24.1","","100.49","","","","","","Cloudy"
"2008-03-28 13:00","2008","03","28","13:00","1.1","","-6.6","","56","","36","","17","","24.1","","100.55","","","","","","Snow"
"2008-03-28 14:00","2008","03","28","14:00","1.5","","-6.7","","54","","36","","17","","24.1","","100.57","","","","","","Mostly Cloudy"
"2008-03-28 15:00","2008","03","28","15:00","1.9","","-8.6","","46","","","","0","","24.1","","100.58","","","","","","Mostly Cloudy"
"2008-03-28 16:00","2008","03","28","16:00","3.1","","-9.8","","38","","2","","9","","24.1","","100.60","","","","","","Mainly Clear"
"2008-03-28 17:00","2008","03","28","17:00","0.9","","-5.1","","64","","19","","13","","24.1","","100.68","","","","","","Mostly Cloudy"
"2008-03-28 18:00","2008","03","28","18:00","0.1","","-3.9","","74","","19","","13","","24.1","","100.76","","","","","","Mostly Cloudy"
"2008-03-28 19:00","2008","03","28","19:00","0.5","","-4.0","","72","","23","","6","","24.1","","100.84","","","","","","Mostly Cloudy"
"2008-03-28 20:00","2008","03","28","20:00","0.8","","-4.2","","69","","28","","7","","24.1","","100.91","","","","","","Mainly Clear"
"2008-03-28 21:00","2008","03","28","21:00","-0.2","","-4.8","","71","","4","","15","","24.1","","101.02","","","","-5","","Mainly Clear"
"2008-03-28 22:00","2008","03","28","22:00","-0.3","","-10.3","","47","","2","","20","","24.1","","101.10","","","","-6","","Mainly Clear"
"2008-03-28 23:00","2008","03","28","23:00"
"2008-03-29 00:00","2008","03","29","00:00"
"2008-03-29 01:00","2008","03","29","01:00"
"2008-03-29 02:00","2008","03","29","02:00"
"2008-03-29 03:00","2008","03","29","03:00"
"2008-03-29 04:00","2008","03","29","04:00"
"2008-03-29 05:00","2008","03","29","05:00","-7.4","","-15.7","","51","","36","","13","","24.1","","101.81","","","","-13","","Clear"
"2008-03-29 06:00","2008","03","29","06:00","-8.2","","-15.7","","55","","36","","11","","24.1","","101.92","","","","-13","","Clear"
"2008-03-29 07:00","2008","03","29","07:00","-7.9","","-16.1","","52","","36","","13","","24.1","","102.06","","","","-14","","Clear"
"2008-03-29 08:00","2008","03","29","08:00","-7.2","","-17.2","","45","","36","","24","","24.1","","102.12","","","","-15","","Clear"
"2008-03-29 09:00","2008","03","29","09:00","-6.8","","-17.0","","44","","36","","30","","24.1","","102.18","","","","-15","","Clear"
"2008-03-29 10:00","2008","03","29","10:00","-5.8","","-16.9","","41","","1","","15","","24.1","","102.30","","","","-12","","Clear"
"2008-03-29 11:00","2008","03","29","11:00","-5.0","","-17.1","","38","","34","","15","","24.1","","102.32","","","","-11","","Clear"
"2008-03-29 12:00","2008","03","29","12:00","-3.9","","-16.1","","38","","35","","11","","24.1","","102.33","","","","-8","","Clear"
"2008-03-29 13:00","2008","03","29","13:00","-3.2","","-16.2","","36","","31","","6","","24.1","","102.30","","","","-6","","Clear"
"2008-03-29 14:00","2008","03","29","14:00","-3.1","","-12.6","","48","","20","","15","","24.1","","102.31","","","","-8","","Clear"
"2008-03-29 15:00","2008","03","29","15:00","-2.2","","-10.8","","52","","18","","17","","24.1","","102.30","","","","-8","","Clear"
"2008-03-29 16:00","2008","03","29","16:00","-1.3","","-11.3","","46","","23","","17","","24.1","","102.30","","","","-6","","Clear"
"2008-03-29 17:00","2008","03","29","17:00","-2.3","","-10.7","","52","","21","","17","","24.1","","102.33","","","","-8","","Clear"
"2008-03-29 18:00","2008","03","29","18:00","-2.2","","-10.3","","54","","21","","15","","24.1","","102.39","","","","-7","","Clear"
"2008-03-29 19:00","2008","03","29","19:00","-2.5","","-9.0","","61","","23","","13","","24.1","","102.43","","","","-7","","Mainly Clear"
"2008-03-29 20:00","2008","03","29","20:00","-3.2","","-9.6","","61","","26","","15","","24.1","","102.52","","","","-8","","Clear"
"2008-03-29 21:00","2008","03","29","21:00","-4.0","","-9.9","","63","","26","","6","","24.1","","102.57","","","","-7","","Clear"
"2008-03-29 22:00","2008","03","29","22:00","-5.0","","-10.0","","68","","31","","4","","24.1","","102.58","","","","-7","","Clear"
"2008-03-29 23:00","2008","03","29","23:00"
"2008-03-30 00:00","2008","03","30","00:00"
"2008-03-30 01:00","2008","03","30","01:00"
"2008-03-30 02:00","2008","03","30","02:00"
"2008-03-30 03:00","2008","03","30","03:00"
"2008-03-30 04:00","2008","03","30","04:00"
"2008-03-30 05:00","2008","03","30","05:00","-9.8","","-12.3","","82","","1","","6","","24.1","","102.72","","","","-13","","Clear"
"2008-03-30 06:00","2008","03","30","06:00","-10.1","","-12.8","","81","","2","","4","","24.1","","102.82","","","","-12","","Mainly Clear"
"2008-03-30 07:00","2008","03","30","07:00","-8.3","","-10.8","","82","","4","","6","","24.1","","102.89","","","","-12","","Mainly Clear"
"2008-03-30 08:00","2008","03","30","08:00","-3.3","","-7.0","","76","","8","","7","","24.1","","102.91","","","","-6","","Mainly Clear"
"2008-03-30 09:00","2008","03","30","09:00","-1.2","","-5.1","","75","","14","","9","","24.1","","102.89","","","","-4","","Mainly Clear"
"2008-03-30 10:00","2008","03","30","10:00","-1.2","","-6.2","","69","","17","","11","","24.1","","102.87","","","","-5","","Mainly Clear"
"2008-03-30 11:00","2008","03","30","11:00","-1.0","","-5.4","","72","","17","","7","","24.1","","102.83","","","","-4","","Mostly Cloudy"
"2008-03-30 12:00","2008","03","30","12:00","-0.3","","-5.9","","66","","20","","7","","24.1","","102.73","","","","-3","","Mainly Clear"
"2008-03-30 13:00","2008","03","30","13:00","0.3","","-6.6","","60","","17","","6","","24.1","","102.65","","","","","","Mainly Clear"
"2008-03-30 14:00","2008","03","30","14:00","3.4","","-9.3","","39","","11","","11","","24.1","","102.59","","","","","","Mainly Clear"
"2008-03-30 15:00","2008","03","30","15:00","3.7","","-9.4","","38","","7","","15","","24.1","","102.50","","","","","","Mostly Cloudy"
"2008-03-30 16:00","2008","03","30","16:00","5.1","","-9.3","","34","","8","","17","","24.1","","102.36","","","","","","Mostly Cloudy"
"2008-03-30 17:00","2008","03","30","17:00","4.9","","-9.2","","35","","7","","15","","24.1","","102.28","","","","","","Mostly Cloudy"
"2008-03-30 18:00","2008","03","30","18:00","4.1","","-8.9","","38","","8","","17","","24.1","","102.16","","","","","","Mostly Cloudy"
"2008-03-30 19:00","2008","03","30","19:00","2.7","","-8.7","","43","","8","","13","","24.1","","102.17","","","","","","Mostly Cloudy"
"2008-03-30 20:00","2008","03","30","20:00","1.7","","-8.6","","46","","7","","15","","24.1","","102.07","","","","","","Mainly Clear"
"2008-03-30 21:00","2008","03","30","21:00","0.7","","-8.5","","50","","6","","7","","24.1","","102.02","","","","","","Mainly Clear"
"2008-03-30 22:00","2008","03","30","22:00","0.4","","-8.2","","52","","7","","13","","24.1","","101.96","","","","","","Mainly Clear"
"2008-03-30 23:00","2008","03","30","23:00"
"2008-03-31 00:00","2008","03","31","00:00"
"2008-03-31 01:00","2008","03","31","01:00"
"2008-03-31 02:00","2008","03","31","02:00"
"2008-03-31 03:00","2008","03","31","03:00"
"2008-03-31 04:00","2008","03","31","04:00"
"2008-03-31 05:00","2008","03","31","05:00","1.2","","-1.8","","80","","17","","17","","16.1","","101.59","","","","","","Rain,Ice Pellets"
"2008-03-31 06:00","2008","03","31","06:00","1.1","","-1.4","","83","","17","","24","","16.1","","101.56","","","","","","Rain"
"2008-03-31 07:00","2008","03","31","07:00","1.1","","-1.2","","85","","17","","28","","12.9","","101.54","","","","","","Rain"
"2008-03-31 08:00","2008","03","31","08:00","1.2","","-0.7","","87","","18","","30","","6.4","","101.44","","","","","","Rain,Fog"
"2008-03-31 09:00","2008","03","31","09:00","1.4","","-0.4","","88","","17","","30","","12.9","","101.42","","","","","","Rain,Drizzle"
"2008-03-31 10:00","2008","03","31","10:00","1.6","","-0.2","","88","","17","","30","","16.1","","101.36","","","","","","Cloudy"
"2008-03-31 11:00","2008","03","31","11:00","1.9","","0.4","","90","","18","","26","","16.1","","101.32","","","","","","Cloudy"
"2008-03-31 12:00","2008","03","31","12:00","2.1","","0.8","","91","","17","","24","","19.3","","101.22","","","","","","Cloudy"
"2008-03-31 13:00","2008","03","31","13:00","2.5","","1.1","","90","","17","","19","","19.3","","101.18","","","","","","Cloudy"
"2008-03-31 14:00","2008","03","31","14:00","2.6","","1.3","","91","","17","","11","","24.1","","101.10","","","","","","Cloudy"
"2008-03-31 15:00","2008","03","31","15:00","2.9","","1.5","","90","","16","","9","","16.1","","101.00","","","","","","Rain"
"2008-03-31 16:00","2008","03","31","16:00","3.3","","1.7","","89","","17","","7","","24.1","","100.90","","","","","","Cloudy"
"2008-03-31 17:00","2008","03","31","17:00","3.3","","1.7","","89","","16","","11","","24.1","","100.84","","","","","","Cloudy"
"2008-03-31 18:00","2008","03","31","18:00","4.1","","2.4","","89","","16","","13","","6.4","","100.81","","","","","","Drizzle,Fog"
"2008-03-31 19:00","2008","03","31","19:00","4.1","","2.4","","89","","15","","17","","24.1","","100.65","","","","","","Cloudy"
"2008-03-31 20:00","2008","03","31","20:00","4.4","","2.7","","89","","16","","19","","24.1","","100.56","","","","","","Cloudy"
"2008-03-31 21:00","2008","03","31","21:00","3.7","","2.1","","89","","16","","17","","24.1","","100.49","","","","","","Drizzle"
"2008-03-31 22:00","2008","03","31","22:00","3.7","","2.2","","90","","17","","15","","24.1","","100.41","","","","","","Cloudy"
"2008-03-31 23:00","2008","03","31","23:00"
