"Station Name","KINGSTON A"
"Province","ONTARIO"
"Latitude","44.22"
"Longitude","-76.60"
"Elevation","92.40"
"Climate Identifier","6104146"
"WMO Identifier",""
"TC Identifier","YGK"
"All times are specified in Local Standard Time (LST). Add 1 hour to adjust for Daylight Saving Time where and when it is observed."

"Legend"
"E","Estimated"
"M","Missing"
"NA","Not Available"

"Date/Time","Year","Month","Day","Time","Temp (°C)","Temp Flag","Dew Point Temp (°C)","Dew Point Temp Flag","Rel Hum (%)","Rel Hum Flag","Wind Dir (10s deg)","Wind Dir Flag","Wind Spd (km/h)","Wind Spd Flag","Visibility (km)","Visibility Flag","Stn Press (kPa)","Stn Press Flag","Hmdx","Hmdx Flag","Wind Chill","Wind Chill Flag","Weather"
"1996-05-01 00:00","1996","05","01","00:00"
"1996-05-01 01:00","1996","05","01","01:00"
"1996-05-01 02:00","1996","05","01","02:00"
"1996-05-01 03:00","1996","05","01","03:00"
"1996-05-01 04:00","1996","05","01","04:00"
"1996-05-01 05:00","1996","05","01","05:00","5.1","","1.7","","79","","22","","19","","25.0","","99.71","","","","","","Mainly Clear"
"1996-05-01 06:00","1996","05","01","06:00","4.5","","1.9","","83","","21","","19","","25.0","","99.77","","","","","","Mainly Clear"
"1996-05-01 07:00","1996","05","01","07:00","5.3","","2.4","","82","","19","","26","","25.0","","99.71","","","","","","Mainly Clear"
"1996-05-01 08:00","1996","05","01","08:00","5.6","","2.4","","80","","20","","22","","25.0","","99.84","","","","","","Mostly Cloudy"
"1996-05-01 09:00","1996","05","01","09:00","6.2","","3.2","","81","","18","","22","","25.0","","99.81","","","","","","Mainly Clear"
"1996-05-01 10:00","1996","05","01","10:00","6.6","","3.4","","80","","18","","22","","25.0","","99.81","","","","","","Mainly Clear"
"1996-05-01 11:00","1996","05","01","11:00","7.6","","3.9","","77","","19","","22","","25.0","","99.81","","","","","","Mainly Clear"
"1996-05-01 12:00","1996","05","01","12:00","7.7","","3.9","","77","","18","","19","","25.0","","99.77","","","","","","Mainly Clear"
"1996-05-01 13:00","1996","05","01","13:00","8.0","","4.2","","77","","18","","19","","25.0","","99.71","","","","","","Mostly Cloudy"
"1996-05-01 14:00","1996","05","01","14:00","8.1","","3.9","","75","","21","","26","","24.1","","99.77","","","","","","Rain Showers"
"1996-05-01 15:00","1996","05","01","15:00","8.0","","4.0","","76","","21","","22","","24.1","","99.74","","","","","","Mostly Cloudy"
"1996-05-01 16:00","1996","05","01","16:00","7.3","","5.5","","88","","18","","22","","24.1","","99.71","","","","","","Mostly Cloudy"
"1996-05-01 17:00","1996","05","01","17:00","6.3","","5.1","","92","","19","","11","","24.1","","99.74","","","","","","Mainly Clear"
"1996-05-01 18:00","1996","05","01","18:00","6.2","","4.8","","91","","19","","19","","24.1","","99.77","","","","","","Mostly Cloudy"
"1996-05-01 19:00","1996","05","01","19:00","5.7","","4.2","","90","","19","","19","","24.1","","99.77","","","","","","Mostly Cloudy"
"1996-05-01 20:00","1996","05","01","20:00","7.8","","4.5","","80","","24","","19","","24.1","","99.81","","","","","","Mostly Cloudy"
"1996-05-01 21:00","1996","05","01","21:00","5.4","","3.7","","89","","18","","11","","24.1","","99.84","","","","","","Mostly Cloudy"
"1996-05-01 22:00","1996","05","01","22:00","7.0","","4.7","","85","","24","","9","","24.1","","99.87","","","","","","Rain Showers"
"1996-05-01 23:00","1996","05","01","23:00"
"1996-05-02 00:00","1996","05","02","00:00"
"1996-05-02 01:00","1996","05","02","01:00"
"1996-05-02 02:00","1996","05","02","02:00"
"1996-05-02 03:00","1996","05","02","03:00"
"1996-05-02 04:00","1996","05","02","04:00"
"1996-05-02 05:00","1996","05","02","05:00","1.7","","-0.9","","83","","26","","4","","24.1","","100.31","","","","","","Mainly Clear"
"1996-05-02 06:00","1996","05","02","06:00","2.6","","0.0","","83","","27","","9","","24.1","","100.34","","","","","","Mainly Clear"
"1996-05-02 07:00","1996","05","02","07:00","4.0","","0.7","","79","","25","","11","","24.1","","100.41","","","","","","Mainly Clear"
"1996-05-02 08:00","1996","05","02","08:00","5.5","","-0.9","","63","","23","","13","","24.1","","100.44","","","","","","Mainly Clear"
"1996-05-02 09:00","1996","05","02","09:00","6.9","","-1.2","","56","","23","","20","","24.1","","100.51","","","","","","Mainly Clear"
"1996-05-02 10:00","1996","05","02","10:00","5.6","","2.8","","82","","19","","22","","24.1","","100.54","","","","","","Mainly Clear"
"1996-05-02 11:00","1996","05","02","11:00","5.6","","3.1","","84","","21","","22","","24.1","","100.54","","","","","","Mainly Clear"
"1996-05-02 12:00","1996","05","02","12:00","6.1","","3.5","","83","","19","","20","","24.1","","100.54","","","","","","Mainly Clear"
"1996-05-02 13:00","1996","05","02","13:00","6.4","","2.3","","75","","18","","22","","24.1","","100.54","","","","","","Mainly Clear"
"1996-05-02 14:00","1996","05","02","14:00","6.8","","2.5","","74","","17","","22","","24.1","","100.54","","","","","","Mainly Clear"
"1996-05-02 15:00","1996","05","02","15:00","7.2","","1.2","","66","","18","","19","","24.1","","100.51","","","","","","Mainly Clear"
"1996-05-02 16:00","1996","05","02","16:00","6.9","","1.7","","69","","18","","19","","24.1","","100.48","","","","","","Mainly Clear"
"1996-05-02 17:00","1996","05","02","17:00","7.1","","1.2","","66","","18","","9","","24.1","","100.44","","","","","","Mainly Clear"
"1996-05-02 18:00","1996","05","02","18:00","6.9","","0.5","","64","","18","","15","","24.1","","100.44","","","","","","Mainly Clear"
"1996-05-02 19:00","1996","05","02","19:00","6.9","","0.9","","66","","20","","9","","24.1","","100.44","","","","","","Mainly Clear"
"1996-05-02 20:00","1996","05","02","20:00","6.4","","1.3","","70","","18","","9","","24.1","","100.44","","","","","","Mainly Clear"
"1996-05-02 21:00","1996","05","02","21:00","6.8","","1.3","","68","","23","","7","","24.1","","100.48","","","","","","Clear"
"1996-05-02 22:00","1996","05","02","22:00","7.0","","0.7","","64","","21","","11","","24.1","","100.44","","","","","","Clear"
"1996-05-02 23:00","1996","05","02","23:00"
"1996-05-03 00:00","1996","05","03","00:00"
"1996-05-03 01:00","1996","05","03","01:00"
"1996-05-03 02:00","1996","05","03","02:00"
"1996-05-03 03:00","1996","05","03","03:00"
"1996-05-03 04:00","1996","05","03","04:00"
"1996-05-03 05:00","1996","05","03","05:00","5.5","","1.2","","74","","21","","6","","24.1","","100.48","","","","","","Mostly Cloudy"
"1996-05-03 06:00","1996","05","03","06:00","5.7","","1.5","","74","","21","","7","","24.1","","100.54","","","","","","Mostly Cloudy"
"1996-05-03 07:00","1996","05","03","07:00","6.3","","3.1","","80","","21","","6","","24.1","","100.54","","","","","","Mainly Clear"
"1996-05-03 08:00","1996","05","03","08:00","6.8","","3.4","","79","","","","0","","24.1","","100.58","","","","","","Mostly Cloudy"
"1996-05-03 09:00","1996","05","03","09:00","6.9","","3.7","","80","","16","","4","","24.1","","100.58","","","","","","Cloudy"
"1996-05-03 10:00","1996","05","03","10:00","6.8","","3.1","","77","","16","","6","","24.1","","100.54","","","","","","Cloudy"
"1996-05-03 11:00","1996","05","03","11:00","8.0","","3.2","","72","","17","","11","","24.1","","100.54","","","","","","Cloudy"
"1996-05-03 12:00","1996","05","03","12:00","7.8","","4.2","","78","","16","","15","","24.1","","100.51","","","","","","Cloudy"
"1996-05-03 13:00","1996","05","03","13:00","8.4","","3.9","","73","","17","","11","","24.1","","100.44","","","","","","Cloudy"
"1996-05-03 14:00","1996","05","03","14:00","10.2","","2.9","","60","","20","","11","","24.1","","100.41","","","","","","Cloudy"
"1996-05-03 15:00","1996","05","03","15:00","11.8","","1.2","","48","","23","","6","","24.1","","100.34","","","","","","Cloudy"
"1996-05-03 16:00","1996","05","03","16:00","11.7","","2.9","","55","","25","","4","","24.1","","100.38","","","","","","Cloudy"
"1996-05-03 17:00","1996","05","03","17:00","10.7","","2.3","","56","","25","","15","","24.1","","100.48","","","","","","Cloudy"
"1996-05-03 18:00","1996","05","03","18:00","9.3","","6.1","","80","","24","","15","","24.1","","100.48","","","","","","Cloudy"
"1996-05-03 19:00","1996","05","03","19:00","9.8","","6.6","","80","","25","","4","","24.1","","100.44","","","","","","Cloudy"
"1996-05-03 20:00","1996","05","03","20:00","8.9","","6.2","","83","","","","0","","19.3","","100.51","","","","","","Cloudy"
"1996-05-03 21:00","1996","05","03","21:00","9.8","","6.7","","81","","","","0","","24.1","","100.58","","","","","","Cloudy"
"1996-05-03 22:00","1996","05","03","22:00","8.8","","7.0","","88","","","","0","","24.1","","100.61","","","","","","Mostly Cloudy"
"1996-05-03 23:00","1996","05","03","23:00"
"1996-05-04 00:00","1996","05","04","00:00"
"1996-05-04 01:00","1996","05","04","01:00"
"1996-05-04 02:00","1996","05","04","02:00"
"1996-05-04 03:00","1996","05","04","03:00"
"1996-05-04 04:00","1996","05","04","04:00"
"1996-05-04 05:00","1996","05","04","05:00","5.3","","4.0","","91","","","","0","","24.1","","100.54","","","","","","Cloudy"
"1996-05-04 06:00","1996","05","04","06:00","6.1","","4.8","","91","","","","0","","19.3","","100.51","","","","","","Cloudy"
"1996-05-04 07:00","1996","05","04","07:00","7.4","","5.8","","90","","","","0","","19.3","","100.54","","","","","","Cloudy"
"1996-05-04 08:00","1996","05","04","08:00","9.7","","6.7","","82","","","","0","","16.1","","100.51","","","","","","Cloudy"
"1996-05-04 09:00","1996","05","04","09:00","10.0","","6.8","","80","","","","0","","19.3","","100.51","","","","","","Cloudy"
"1996-05-04 10:00","1996","05","04","10:00","12.1","","7.5","","73","","","","0","","24.1","","100.51","","","","","","Cloudy"
"1996-05-04 11:00","1996","05","04","11:00","12.0","","6.0","","67","","18","","7","","24.1","","100.51","","","","","","Cloudy"
"1996-05-04 12:00","1996","05","04","12:00","12.0","","6.0","","67","","17","","6","","24.1","","100.44","","","","","","Cloudy"
"1996-05-04 13:00","1996","05","04","13:00","11.8","","6.8","","71","","18","","7","","24.1","","100.34","","","","","","Cloudy"
"1996-05-04 14:00","1996","05","04","14:00","11.9","","6.9","","71","","18","","7","","24.1","","100.34","","","","","","Cloudy"
"1996-05-04 15:00","1996","05","04","15:00","10.4","","6.3","","76","","21","","13","","24.1","","100.31","","","","","","Cloudy"
"1996-05-04 16:00","1996","05","04","16:00","11.0","","7.1","","77","","21","","9","","24.1","","100.34","","","","","","Cloudy"
"1996-05-04 17:00","1996","05","04","17:00","10.2","","7.4","","83","","23","","15","","24.1","","100.38","","","","","","Cloudy"
"1996-05-04 18:00","1996","05","04","18:00","9.3","","7.6","","89","","22","","6","","9.7","","100.41","","","","","","Fog"
"1996-05-04 19:00","1996","05","04","19:00","9.5","","7.5","","87","","25","","15","","11.3","","100.48","","","","","","Cloudy"
"1996-05-04 20:00","1996","05","04","20:00","9.2","","7.0","","86","","26","","13","","16.1","","100.51","","","","","","Cloudy"
"1996-05-04 21:00","1996","05","04","21:00","8.7","","7.0","","89","","28","","6","","16.1","","100.54","","","","","","Cloudy"
"1996-05-04 22:00","1996","05","04","22:00","9.1","","6.9","","86","","30","","7","","16.1","","100.61","","","","","","Cloudy"
"1996-05-04 23:00","1996","05","04","23:00"
"1996-05-05 00:00","1996","05","05","00:00"
"1996-05-05 01:00","1996","05","05","01:00"
"1996-05-05 02:00","1996","05","05","02:00"
"1996-05-05 03:00","1996","05","05","03:00"
"1996-05-05 04:00","1996","05","05","04:00"
"1996-05-05 05:00","1996","05","05","05:00","5.6","","-2.2","","57","","36","","15","","24.1","","101.05","","","","","","Mainly Clear"
"1996-05-05 06:00","1996","05","05","06:00","5.6","","-1.9","","58","","1","","15","","24.1","","101.15","","","","","","Mainly Clear"
"1996-05-05 07:00","1996","05","05","07:00","6.1","","-2.4","","54","","2","","19","","24.1","","101.25","","","","","","Mainly Clear"
"1996-05-05 08:00","1996","05","05","08:00","7.5","","-2.7","","48","","1","","17","","24.1","","101.32","","","","","","Mostly Cloudy"
"1996-05-05 09:00","1996","05","05","09:00","7.7","","-2.7","","48","","3","","11","","24.1","","101.32","","","","","","Mostly Cloudy"
"1996-05-05 10:00","1996","05","05","10:00","8.4","","-2.4","","46","","4","","15","","24.1","","101.35","","","","","","Mostly Cloudy"
"1996-05-05 11:00","1996","05","05","11:00","10.0","","-1.8","","44","","7","","11","","24.1","","101.35","","","","","","Mostly Cloudy"
"1996-05-05 12:00","1996","05","05","12:00","8.6","","2.5","","65","","17","","19","","24.1","","101.35","","","","","","Mostly Cloudy"
"1996-05-05 13:00","1996","05","05","13:00","10.1","","2.2","","58","","16","","11","","24.1","","101.25","","","","","","Mostly Cloudy"
"1996-05-05 14:00","1996","05","05","14:00","10.3","","-0.4","","47","","17","","15","","24.1","","101.18","","","","","","Mostly Cloudy"
"1996-05-05 15:00","1996","05","05","15:00","9.8","","0.4","","52","","21","","13","","24.1","","101.15","","","","","","Mostly Cloudy"
"1996-05-05 16:00","1996","05","05","16:00","10.5","","0.7","","51","","22","","19","","24.1","","101.18","","","","","","Mostly Cloudy"
"1996-05-05 17:00","1996","05","05","17:00","10.5","","-0.3","","47","","22","","13","","24.1","","101.15","","","","","","Mostly Cloudy"
"1996-05-05 18:00","1996","05","05","18:00","9.5","","0.5","","53","","","","0","","24.1","","101.08","","","","","","Mostly Cloudy"
"1996-05-05 19:00","1996","05","05","19:00","9.8","","-0.2","","50","","","","0","","24.1","","100.98","","","","","","Mainly Clear"
"1996-05-05 20:00","1996","05","05","20:00","9.2","","-1.9","","46","","2","","4","","24.1","","101.01","","","","","","Mainly Clear"
"1996-05-05 21:00","1996","05","05","21:00","9.5","","-2.5","","43","","4","","6","","24.1","","101.01","","","","","","Mainly Clear"
"1996-05-05 22:00","1996","05","05","22:00","8.5","","-3.0","","44","","3","","11","","24.1","","101.01","","","","","","Clear"
"1996-05-05 23:00","1996","05","05","23:00"
"1996-05-06 00:00","1996","05","06","00:00"
"1996-05-06 01:00","1996","05","06","01:00"
"1996-05-06 02:00","1996","05","06","02:00"
"1996-05-06 03:00","1996","05","06","03:00"
"1996-05-06 04:00","1996","05","06","04:00"
"1996-05-06 05:00","1996","05","06","05:00","7.3","","-5.8","","39","","6","","22","","24.1","","101.15","","","","","","Cloudy"
"1996-05-06 06:00","1996","05","06","06:00","7.2","","-5.7","","39","","5","","19","","24.1","","101.22","","","","","","Cloudy"
"1996-05-06 07:00","1996","05","06","07:00","7.9","","-6.3","","36","","5","","19","","24.1","","101.25","","","","","","Mostly Cloudy"
"1996-05-06 08:00","1996","05","06","08:00","8.8","","-6.9","","32","","6","","19","","24.1","","101.35","","","","","","Mostly Cloudy"
"1996-05-06 09:00","1996","05","06","09:00","9.7","","-6.5","","31","","6","","22","","24.1","","101.38","","","","","","Mainly Clear"
"1996-05-06 10:00","1996","05","06","10:00","10.7","","-6.0","","30","","4","","15","","24.1","","101.38","","","","","","Mainly Clear"
"1996-05-06 11:00","1996","05","06","11:00","11.1","","-7.4","","27","","4","","19","","24.1","","101.42","","","","","","Mainly Clear"
"1996-05-06 12:00","1996","05","06","12:00","13.4","","-4.8","","28","","5","","28","","24.1","","101.38","","","","","","Mainly Clear"
"1996-05-06 13:00","1996","05","06","13:00","12.8","","-4.1","","31","","5","","22","","24.1","","101.45","","","","","","Mainly Clear"
"1996-05-06 14:00","1996","05","06","14:00","14.0","","-5.0","","26","","5","","19","","24.1","","101.52","","","","","","Clear"
"1996-05-06 15:00","1996","05","06","15:00","11.6","","-0.9","","42","","32","","13","","24.1","","101.48","","","","","","Clear"
"1996-05-06 16:00","1996","05","06","16:00","11.4","","-1.3","","41","","17","","13","","24.1","","101.48","","","","","","Clear"
"1996-05-06 17:00","1996","05","06","17:00","10.7","","-2.7","","39","","19","","19","","24.1","","101.48","","","","","","Clear"
"1996-05-06 18:00","1996","05","06","18:00","10.6","","-3.4","","37","","23","","13","","24.1","","101.52","","","","","","Clear"
"1996-05-06 19:00","1996","05","06","19:00","10.1","","-2.9","","40","","23","","13","","24.1","","101.55","","","","","","Clear"
"1996-05-06 20:00","1996","05","06","20:00","8.0","","0.3","","58","","24","","7","","24.1","","101.62","","","","","","Clear"
"1996-05-06 21:00","1996","05","06","21:00","7.6","","0.3","","60","","26","","13","","24.1","","101.69","","","","","","Clear"
"1996-05-06 22:00","1996","05","06","22:00","7.2","","-3.3","","47","","28","","15","","24.1","","101.75","","","","","","Clear"
"1996-05-06 23:00","1996","05","06","23:00"
"1996-05-07 00:00","1996","05","07","00:00"
"1996-05-07 01:00","1996","05","07","01:00"
"1996-05-07 02:00","1996","05","07","02:00"
"1996-05-07 03:00","1996","05","07","03:00"
"1996-05-07 04:00","1996","05","07","04:00"
"1996-05-07 05:00","1996","05","07","05:00","3.1","","-4.6","","57","","","","0","","24.1","","101.92","","","","","","Mainly Clear"
"1996-05-07 06:00","1996","05","07","06:00","4.9","","-3.6","","54","","","","0","","24.1","","101.95","","","","","","Mainly Clear"
"1996-05-07 07:00","1996","05","07","07:00","5.4","","2.1","","79","","19","","11","","24.1","","102.05","","","","","","Mainly Clear"
"1996-05-07 08:00","1996","05","07","08:00","5.5","","1.5","","75","","18","","13","","24.1","","102.05","","","","","","Mainly Clear"
"1996-05-07 09:00","1996","05","07","09:00","6.5","","1.6","","71","","18","","19","","24.1","","102.05","","","","","","Mostly Cloudy"
"1996-05-07 10:00","1996","05","07","10:00","7.3","","2.5","","72","","18","","15","","24.1","","102.05","","","","","","Mostly Cloudy"
"1996-05-07 11:00","1996","05","07","11:00","6.9","","3.2","","77","","19","","13","","24.1","","101.99","","","","","","Cloudy"
"1996-05-07 12:00","1996","05","07","12:00","8.8","","1.1","","58","","18","","9","","24.1","","101.85","","","","","","Cloudy"
"1996-05-07 13:00","1996","05","07","13:00","10.6","","0.9","","51","","17","","9","","24.1","","101.82","","","","","","Cloudy"
"1996-05-07 14:00","1996","05","07","14:00","11.8","","-1.9","","38","","17","","9","","24.1","","101.75","","","","","","Cloudy"
"1996-05-07 15:00","1996","05","07","15:00","15.1","","-1.8","","31","","24","","4","","24.1","","101.62","","","","","","Mostly Cloudy"
"1996-05-07 16:00","1996","05","07","16:00","15.2","","-1.6","","31","","","","0","","24.1","","101.45","","","","","","Cloudy"
"1996-05-07 17:00","1996","05","07","17:00","15.2","","-4.2","","26","","19","","4","","24.1","","101.38","","","","","","Cloudy"
"1996-05-07 18:00","1996","05","07","18:00","14.2","","-3.6","","29","","","","0","","24.1","","101.32","","","","","","Mostly Cloudy"
"1996-05-07 19:00","1996","05","07","19:00","12.6","","-2.0","","36","","18","","6","","24.1","","101.32","","","","","","Mostly Cloudy"
"1996-05-07 20:00","1996","05","07","20:00","12.4","","-2.2","","36","","14","","4","","24.1","","101.28","","","","","","Mostly Cloudy"
"1996-05-07 21:00","1996","05","07","21:00","11.2","","-1.3","","42","","20","","17","","24.1","","101.32","","","","","","Mostly Cloudy"
"1996-05-07 22:00","1996","05","07","22:00","9.2","","2.5","","63","","21","","20","","24.1","","101.35","","","","","","Mostly Cloudy"
"1996-05-07 23:00","1996","05","07","23:00"
"1996-05-08 00:00","1996","05","08","00:00"
"1996-05-08 01:00","1996","05","08","01:00"
"1996-05-08 02:00","1996","05","08","02:00"
"1996-05-08 03:00","1996","05","08","03:00"
"1996-05-08 04:00","1996","05","08","04:00"
"1996-05-08 05:00","1996","05","08","05:00","6.4","","3.5","","82","","","","0","","24.1","","101.32","","","","","","Mainly Clear"
"1996-05-08 06:00","1996","05","08","06:00","7.4","","4.1","","80","","","","0","","24.1","","101.35","","","","","","Mainly Clear"
"1996-05-08 07:00","1996","05","08","07:00","7.9","","4.5","","79","","17","","9","","24.1","","101.35","","","","","","Mainly Clear"
"1996-05-08 08:00","1996","05","08","08:00","8.0","","5.0","","81","","18","","9","","24.1","","101.38","","","","","","Mainly Clear"
"1996-05-08 09:00","1996","05","08","09:00","8.7","","5.0","","78","","18","","9","","24.1","","101.42","","","","","","Mainly Clear"
"1996-05-08 10:00","1996","05","08","10:00","8.9","","5.3","","78","","16","","9","","24.1","","101.38","","","","","","Mainly Clear"
"1996-05-08 11:00","1996","05","08","11:00","9.5","","5.9","","78","","17","","11","","24.1","","101.35","","","","","","Mainly Clear"
"1996-05-08 12:00","1996","05","08","12:00","11.4","","6.1","","70","","20","","9","","24.1","","101.35","","","","","","Mostly Cloudy"
"1996-05-08 13:00","1996","05","08","13:00","11.7","","6.2","","69","","19","","13","","24.1","","101.32","","","","","","Mostly Cloudy"
"1996-05-08 14:00","1996","05","08","14:00","13.2","","5.9","","61","","19","","11","","24.1","","101.32","","","","","","Mostly Cloudy"
"1996-05-08 15:00","1996","05","08","15:00","14.0","","5.5","","57","","18","","13","","24.1","","101.22","","","","","","Cloudy"
"1996-05-08 16:00","1996","05","08","16:00","14.2","","5.5","","56","","21","","7","","24.1","","101.15","","","","","","Cloudy"
"1996-05-08 17:00","1996","05","08","17:00","14.9","","6.4","","57","","22","","4","","24.1","","101.11","","","","","","Cloudy"
"1996-05-08 18:00","1996","05","08","18:00","13.7","","6.2","","60","","23","","4","","24.1","","101.01","","","","","","Cloudy"
"1996-05-08 19:00","1996","05","08","19:00","13.7","","6.2","","60","","","","0","","24.1","","101.05","","","","","","Mostly Cloudy"
"1996-05-08 20:00","1996","05","08","20:00","12.5","","6.5","","67","","29","","6","","24.1","","101.11","","","","","","Mostly Cloudy"
"1996-05-08 21:00","1996","05","08","21:00","13.8","","6.3","","61","","4","","6","","24.1","","101.08","","","","","","Cloudy"
"1996-05-08 22:00","1996","05","08","22:00","13.6","","6.4","","62","","1","","7","","24.1","","101.15","","","","","","Cloudy"
"1996-05-08 23:00","1996","05","08","23:00"
"1996-05-09 00:00","1996","05","09","00:00"
"1996-05-09 01:00","1996","05","09","01:00"
"1996-05-09 02:00","1996","05","09","02:00"
"1996-05-09 03:00","1996","05","09","03:00"
"1996-05-09 04:00","1996","05","09","04:00"
"1996-05-09 05:00","1996","05","09","05:00","12.7","","6.8","","67","","10","","11","","24.1","","101.05","","","","","","Rain Showers"
"1996-05-09 06:00","1996","05","09","06:00","12.4","","7.1","","70","","10","","9","","24.1","","101.11","","","","","","Cloudy"
"1996-05-09 07:00","1996","05","09","07:00","13.0","","7.7","","70","","13","","9","","24.1","","101.18","","","","","","Cloudy"
"1996-05-09 08:00","1996","05","09","08:00","12.4","","8.5","","77","","13","","19","","24.1","","101.18","","","","","","Cloudy"
"1996-05-09 09:00","1996","05","09","09:00","11.3","","8.7","","84","","15","","15","","24.1","","101.22","","","","","","Cloudy"
"1996-05-09 10:00","1996","05","09","10:00","10.2","","8.3","","88","","15","","19","","24.1","","101.22","","","","","","Cloudy"
"1996-05-09 11:00","1996","05","09","11:00","9.7","","7.0","","83","","15","","19","","24.1","","101.22","","","","","","Cloudy"
"1996-05-09 12:00","1996","05","09","12:00","10.3","","6.7","","78","","15","","22","","24.1","","101.15","","","","","","Cloudy"
"1996-05-09 13:00","1996","05","09","13:00","9.2","","6.3","","82","","15","","19","","24.1","","101.11","","","","","","Cloudy"
"1996-05-09 14:00","1996","05","09","14:00","9.5","","6.6","","82","","16","","19","","24.1","","101.11","","","","","","Cloudy"
"1996-05-09 15:00","1996","05","09","15:00","10.2","","7.7","","84","","16","","19","","16.1","","101.01","","","","","","Cloudy"
"1996-05-09 16:00","1996","05","09","16:00","9.7","","7.0","","83","","15","","15","","16.1","","101.01","","","","","","Cloudy"
"1996-05-09 17:00","1996","05","09","17:00","9.5","","7.1","","85","","16","","13","","16.1","","101.01","","","","","","Cloudy"
"1996-05-09 18:00","1996","05","09","18:00","8.8","","6.9","","88","","16","","7","","16.1","","101.01","","","","","","Cloudy"
"1996-05-09 19:00","1996","05","09","19:00","8.6","","7.0","","90","","17","","19","","16.1","","100.95","","","","","","Cloudy"
"1996-05-09 20:00","1996","05","09","20:00","8.8","","7.8","","93","","16","","11","","6.4","","100.95","","","","","","Rain Showers,Fog"
"1996-05-09 21:00","1996","05","09","21:00","9.1","","8.3","","95","","15","","17","","8.0","","100.91","","","","","","Rain Showers,Fog"
"1996-05-09 22:00","1996","05","09","22:00","9.5","","8.7","","95","","13","","11","","4.8","","100.91","","","","","","Rain,Fog"
"1996-05-09 23:00","1996","05","09","23:00"
"1996-05-10 00:00","1996","05","10","00:00"
"1996-05-10 01:00","1996","05","10","01:00"
"1996-05-10 02:00","1996","05","10","02:00"
"1996-05-10 03:00","1996","05","10","03:00"
"1996-05-10 04:00","1996","05","10","04:00"
"1996-05-10 05:00","1996","05","10","05:00","9.0","","8.4","","96","","24","","13","","2.8","","100.54","","","","","","Rain,Fog"
"1996-05-10 06:00","1996","05","10","06:00","9.0","","8.5","","97","","23","","11","","3.2","","100.58","","","","","","Rain,Fog"
"1996-05-10 07:00","1996","05","10","07:00","9.0","","8.6","","97","","22","","11","","2.4","","100.61","","","","","","Rain,Fog"
"1996-05-10 08:00","1996","05","10","08:00","7.9","","7.5","","97","","21","","9","","1.2","","100.58","","","","","","Rain,Fog"
"1996-05-10 09:00","1996","05","10","09:00","8.0","","7.8","","99","","19","","9","","0.8","","100.48","","","","","","Rain,Fog"
"1996-05-10 10:00","1996","05","10","10:00","7.8","","7.7","","99","","15","","7","","0.6","","100.48","","","","","","Drizzle,Fog"
"1996-05-10 11:00","1996","05","10","11:00","7.8","","7.7","","99","","19","","9","","0.2","","100.41","","","","","","Fog"
"1996-05-10 12:00","1996","05","10","12:00","7.8","","7.8","","100","","17","","7","","0.0","","100.38","","","","","","Fog"
"1996-05-10 13:00","1996","05","10","13:00","7.9","","7.8","","99","","","","0","","0.2","","100.28","","","","","","Drizzle,Fog"
"1996-05-10 14:00","1996","05","10","14:00","9.0","","8.6","","97","","13","","11","","0.2","","100.14","","","","","","Drizzle,Fog"
"1996-05-10 15:00","1996","05","10","15:00","10.6","","10.3","","98","","","","0","","0.0","","100.04","","","","","","Drizzle,Fog"
"1996-05-10 16:00","1996","05","10","16:00","12.1","","11.8","","98","","6","","6","","0.4","","99.91","","","","","","Rain,Fog"
"1996-05-10 17:00","1996","05","10","17:00","13.1","","13.0","","99","","3","","4","","0.8","","99.81","","","","","","Rain Showers,Fog"
"1996-05-10 18:00","1996","05","10","18:00","13.6","","13.5","","99","","35","","9","","1.2","","99.74","","","","","","Rain Showers,Fog"
"1996-05-10 19:00","1996","05","10","19:00","13.7","","13.5","","99","","35","","11","","3.2","","99.77","","","","","","Rain Showers,Fog"
"1996-05-10 20:00","1996","05","10","20:00","13.5","","13.2","","98","","1","","15","","4.8","","99.77","","","","","","Drizzle,Fog"
"1996-05-10 21:00","1996","05","10","21:00","13.5","","12.9","","96","","1","","11","","6.4","","99.81","","","","","","Drizzle,Fog"
"1996-05-10 22:00","1996","05","10","22:00","12.6","","11.6","","94","","2","","19","","16.1","","99.74","","","","","","Drizzle"
"1996-05-10 23:00","1996","05","10","23:00"
"1996-05-11 00:00","1996","05","11","00:00"
"1996-05-11 01:00","1996","05","11","01:00"
"1996-05-11 02:00","1996","05","11","02:00"
"1996-05-11 03:00","1996","05","11","03:00"
"1996-05-11 04:00","1996","05","11","04:00"
"1996-05-11 05:00","1996","05","11","05:00","8.6","","7.1","","90","","1","","22","","6.4","","99.91","","","","","","Rain,Fog"
"1996-05-11 06:00","1996","05","11","06:00","8.0","","6.4","","90","","1","","22","","19.3","","99.94","","","","","","Cloudy"
"1996-05-11 07:00","1996","05","11","07:00","7.6","","6.0","","90","","36","","19","","9.7","","99.97","","","","","","Rain,Fog"
"1996-05-11 08:00","1996","05","11","08:00","7.1","","5.4","","89","","1","","19","","9.7","","100.04","","","","","","Rain,Fog"
"1996-05-11 09:00","1996","05","11","09:00","6.8","","4.9","","88","","2","","22","","16.1","","100.01","","","","","","Rain"
"1996-05-11 10:00","1996","05","11","10:00","6.5","","4.9","","89","","1","","19","","6.4","","99.97","","","","","","Rain,Fog"
"1996-05-11 11:00","1996","05","11","11:00","6.8","","4.9","","88","","2","","19","","12.9","","99.97","","","","","","Rain"
"1996-05-11 12:00","1996","05","11","12:00","6.4","","4.8","","89","","3","","19","","12.9","","99.94","","","","","","Rain"
"1996-05-11 13:00","1996","05","11","13:00","6.0","","4.2","","88","","2","","19","","12.9","","99.91","","","","","","Rain"
"1996-05-11 14:00","1996","05","11","14:00","6.2","","4.5","","89","","2","","19","","16.1","","99.81","","","","","","Rain"
"1996-05-11 15:00","1996","05","11","15:00","6.4","","4.5","","88","","2","","22","","24.1","","99.74","","","","","","Cloudy"
"1996-05-11 16:00","1996","05","11","16:00","6.2","","4.1","","86","","1","","19","","24.1","","99.67","","","","","","Cloudy"
"1996-05-11 17:00","1996","05","11","17:00","6.2","","3.6","","83","","1","","28","","24.1","","99.67","","","","","","Cloudy"
"1996-05-11 18:00","1996","05","11","18:00","5.9","","3.4","","84","","1","","22","","8.0","","99.67","","","","","","Rain Showers,Fog"
"1996-05-11 19:00","1996","05","11","19:00","5.8","","3.3","","84","","1","","28","","8.0","","99.64","","","","","","Rain Showers,Fog"
"1996-05-11 20:00","1996","05","11","20:00","5.5","","3.1","","85","","36","","24","","8.0","","99.67","","","","","","Rain Showers,Fog"
"1996-05-11 21:00","1996","05","11","21:00","6.1","","2.9","","80","","36","","28","","8.0","","99.67","","","","","","Rain Showers,Fog"
"1996-05-11 22:00","1996","05","11","22:00","4.0","","2.3","","89","","36","","28","","8.0","","99.64","","","","","","Rain Showers,Fog"
"1996-05-11 23:00","1996","05","11","23:00"
"1996-05-12 00:00","1996","05","12","00:00"
"1996-05-12 01:00","1996","05","12","01:00"
"1996-05-12 02:00","1996","05","12","02:00"
"1996-05-12 03:00","1996","05","12","03:00"
"1996-05-12 04:00","1996","05","12","04:00"
"1996-05-12 05:00","1996","05","12","05:00","2.0","","0.6","","90","","34","","19","","11.3","","99.50","","","","","","Rain Showers"
"1996-05-12 06:00","1996","05","12","06:00","2.9","","-0.3","","79","","36","","22","","11.3","","99.50","","","","","","Rain Showers"
"1996-05-12 07:00","1996","05","12","07:00","3.0","","-0.1","","80","","32","","11","","16.1","","99.54","","","","","","Mostly Cloudy"
"1996-05-12 08:00","1996","05","12","08:00","3.9","","-1.5","","68","","33","","19","","19.3","","99.54","","","","","","Mostly Cloudy"
"1996-05-12 09:00","1996","05","12","09:00","4.1","","-2.6","","62","","33","","19","","19.3","","99.54","","","","","","Mostly Cloudy"
"1996-05-12 10:00","1996","05","12","10:00","5.6","","-2.2","","57","","34","","19","","19.3","","99.57","","","","","","Mostly Cloudy"
"1996-05-12 11:00","1996","05","12","11:00","6.9","","-1.6","","55","","33","","19","","19.3","","99.60","","","","","","Cloudy"
"1996-05-12 12:00","1996","05","12","12:00","7.7","","-1.4","","52","","34","","28","","19.3","","99.57","","","","","","Cloudy"
"1996-05-12 13:00","1996","05","12","13:00","9.1","","-1.1","","49","","30","","19","","19.3","","99.60","","","","","","Cloudy"
"1996-05-12 14:00","1996","05","12","14:00","9.9","","-0.9","","47","","35","","19","","24.1","","99.64","","","","","","Cloudy"
"1996-05-12 15:00","1996","05","12","15:00","5.6","","2.4","","80","","17","","19","","24.1","","99.67","","","","","","Cloudy"
"1996-05-12 16:00","1996","05","12","16:00","5.2","","2.9","","85","","18","","11","","24.1","","99.77","","","","","","Mostly Cloudy"
"1996-05-12 17:00","1996","05","12","17:00","5.6","","3.2","","85","","18","","9","","24.1","","99.81","","","","","","Mostly Cloudy"
"1996-05-12 18:00","1996","05","12","18:00","8.8","","-2.2","","46","","34","","15","","24.1","","99.81","","","","","","Mostly Cloudy"
"1996-05-12 19:00","1996","05","12","19:00","8.4","","-4.4","","40","","34","","19","","24.1","","99.91","","","","","","Mostly Cloudy"
"1996-05-12 20:00","1996","05","12","20:00","6.3","","-4.8","","45","","34","","11","","24.1","","99.97","","","","","","Mostly Cloudy"
"1996-05-12 21:00","1996","05","12","21:00","4.4","","-5.0","","50","","33","","7","","24.1","","100.04","","","","","","Clear"
"1996-05-12 22:00","1996","05","12","22:00","4.8","","-5.1","","49","","32","","15","","24.1","","100.11","","","","","","Clear"
"1996-05-12 23:00","1996","05","12","23:00"
"1996-05-13 00:00","1996","05","13","00:00"
"1996-05-13 01:00","1996","05","13","01:00"
"1996-05-13 02:00","1996","05","13","02:00"
"1996-05-13 03:00","1996","05","13","03:00"
"1996-05-13 04:00","1996","05","13","04:00"
"1996-05-13 05:00","1996","05","13","05:00","1.5","","-5.5","","60","","31","","22","","24.1","","100.38","","","","","","Mostly Cloudy"
"1996-05-13 06:00","1996","05","13","06:00","2.3","","-5.4","","57","","32","","20","","24.1","","100.48","","","","","","Mostly Cloudy"
"1996-05-13 07:00","1996","05","13","07:00","4.2","","-5.1","","51","","31","","20","","24.1","","100.61","","","","","","Mostly Cloudy"
"1996-05-13 08:00","1996","05","13","08:00","6.2","","-4.9","","45","","31","","9","","24.1","","100.64","","","","","","Mostly Cloudy"
"1996-05-13 09:00","1996","05","13","09:00","7.6","","-5.4","","39","","33","","19","","24.1","","100.68","","","","","","Mostly Cloudy"
"1996-05-13 10:00","1996","05","13","10:00","8.8","","-5.2","","37","","33","","19","","24.1","","100.68","","","","","","Mostly Cloudy"
"1996-05-13 11:00","1996","05","13","11:00","8.3","","-4.9","","39","","33","","19","","24.1","","100.71","","","","","","Mostly Cloudy"
"1996-05-13 12:00","1996","05","13","12:00","8.8","","-5.6","","36","","29","","19","","24.1","","100.71","","","","","","Mostly Cloudy"
"1996-05-13 13:00","1996","05","13","13:00","8.8","","-4.3","","39","","31","","19","","24.1","","100.71","","","","","","Mostly Cloudy"
"1996-05-13 14:00","1996","05","13","14:00","10.1","","-4.7","","35","","26","","19","","24.1","","100.71","","","","","","Mostly Cloudy"
"1996-05-13 15:00","1996","05","13","15:00","10.2","","-4.9","","34","","27","","19","","24.1","","100.64","","","","","","Mostly Cloudy"
"1996-05-13 16:00","1996","05","13","16:00","9.1","","-0.8","","50","","26","","19","","24.1","","100.71","","","","","","Rain Showers"
"1996-05-13 17:00","1996","05","13","17:00","8.7","","-2.1","","47","","25","","19","","24.1","","100.71","","","","","","Mostly Cloudy"
"1996-05-13 18:00","1996","05","13","18:00","8.7","","-2.1","","47","","25","","19","","24.1","","100.71","","","","","","Mostly Cloudy"
"1996-05-13 19:00","1996","05","13","19:00","8.2","","-1.6","","50","","25","","9","","24.1","","100.75","","","","","","Mainly Clear"
"1996-05-13 20:00","1996","05","13","20:00","7.5","","-2.5","","49","","28","","11","","24.1","","100.81","","","","","","Mainly Clear"
"1996-05-13 21:00","1996","05","13","21:00","6.4","","-3.0","","51","","24","","19","","24.1","","100.91","","","","","","Mainly Clear"
"1996-05-13 22:00","1996","05","13","22:00","5.9","","0.4","","68","","26","","11","","24.1","","100.95","","","","","","Clear"
"1996-05-13 23:00","1996","05","13","23:00"
"1996-05-14 00:00","1996","05","14","00:00"
"1996-05-14 01:00","1996","05","14","01:00"
"1996-05-14 02:00","1996","05","14","02:00"
"1996-05-14 03:00","1996","05","14","03:00"
"1996-05-14 04:00","1996","05","14","04:00"
"1996-05-14 05:00","1996","05","14","05:00","5.1","","0.2","","71","","22","","9","","24.1","","101.22","","","","","","Mostly Cloudy"
"1996-05-14 06:00","1996","05","14","06:00","5.3","","2.1","","80","","19","","19","","24.1","","101.32","","","","","","Mostly Cloudy"
"1996-05-14 07:00","1996","05","14","07:00","6.6","","1.7","","71","","22","","19","","24.1","","101.38","","","","","","Mostly Cloudy"
"1996-05-14 08:00","1996","05","14","08:00","8.2","","1.9","","64","","22","","15","","24.1","","101.38","","","","","","Cloudy"
"1996-05-14 09:00","1996","05","14","09:00","8.0","","1.9","","65","","23","","30","","24.1","","101.45","","","","","","Cloudy"
"1996-05-14 10:00","1996","05","14","10:00","7.8","","3.4","","74","","21","","26","","24.1","","101.42","","","","","","Mostly Cloudy"
"1996-05-14 11:00","1996","05","14","11:00","8.0","","3.2","","72","","18","","28","","24.1","","101.42","","","","","","Mostly Cloudy"
"1996-05-14 12:00","1996","05","14","12:00","8.8","","4.1","","72","","19","","19","","24.1","","101.38","","","","","","Mostly Cloudy"
"1996-05-14 13:00","1996","05","14","13:00","9.3","","3.8","","68","","21","","19","","24.1","","101.35","","","","","","Mostly Cloudy"
"1996-05-14 14:00","1996","05","14","14:00","9.9","","4.0","","67","","20","","19","","24.1","","101.32","","","","","","Mostly Cloudy"
"1996-05-14 15:00","1996","05","14","15:00","9.2","","3.4","","67","","20","","22","","24.1","","101.22","","","","","","Mostly Cloudy"
"1996-05-14 16:00","1996","05","14","16:00","14.2","","1.1","","41","","24","","19","","24.1","","101.15","","","","","","Mainly Clear"
"1996-05-14 17:00","1996","05","14","17:00","13.2","","1.4","","45","","24","","24","","24.1","","101.18","","","","","","Mainly Clear"
"1996-05-14 18:00","1996","05","14","18:00","13.1","","1.2","","44","","25","","26","","24.1","","101.15","","","","","","Mainly Clear"
"1996-05-14 19:00","1996","05","14","19:00","12.4","","1.0","","46","","24","","19","","24.1","","101.22","","","","","","Mainly Clear"
"1996-05-14 20:00","1996","05","14","20:00","8.4","","3.2","","70","","24","","15","","24.1","","101.25","","","","","","Mainly Clear"
"1996-05-14 21:00","1996","05","14","21:00","9.4","","0.8","","55","","24","","11","","24.1","","101.32","","","","","","Clear"
"1996-05-14 22:00","1996","05","14","22:00","8.2","","1.2","","61","","24","","9","","24.1","","101.35","","","","","","Clear"
"1996-05-14 23:00","1996","05","14","23:00"
"1996-05-15 00:00","1996","05","15","00:00"
"1996-05-15 01:00","1996","05","15","01:00"
"1996-05-15 02:00","1996","05","15","02:00"
"1996-05-15 03:00","1996","05","15","03:00"
"1996-05-15 04:00","1996","05","15","04:00"
"1996-05-15 05:00","1996","05","15","05:00","5.3","","2.6","","83","","21","","15","","24.1","","101.52","","","","","","Mostly Cloudy"
"1996-05-15 06:00","1996","05","15","06:00","5.8","","2.9","","82","","20","","6","","24.1","","101.55","","","","","","Mostly Cloudy"
"1996-05-15 07:00","1996","05","15","07:00","7.2","","3.0","","75","","","","0","","24.1","","101.62","","","","","","Mainly Clear"
"1996-05-15 08:00","1996","05","15","08:00","7.3","","3.6","","77","","18","","15","","24.1","","101.65","","","","","","Mainly Clear"
"1996-05-15 09:00","1996","05","15","09:00","7.7","","2.9","","72","","19","","7","","24.1","","101.65","","","","","","Mostly Cloudy"
"1996-05-15 10:00","1996","05","15","10:00","8.8","","3.2","","68","","16","","9","","24.1","","101.55","","","","","","Mostly Cloudy"
"1996-05-15 11:00","1996","05","15","11:00","11.7","","2.9","","55","","16","","7","","24.1","","101.52","","","","","","Mostly Cloudy"
"1996-05-15 12:00","1996","05","15","12:00","13.9","","1.9","","44","","16","","9","","24.1","","101.45","","","","","","Mostly Cloudy"
"1996-05-15 13:00","1996","05","15","13:00","14.5","","2.2","","43","","17","","13","","24.1","","101.42","","","","","","Mostly Cloudy"
"1996-05-15 14:00","1996","05","15","14:00","15.8","","3.6","","44","","18","","7","","24.1","","101.35","","","","","","Mostly Cloudy"
"1996-05-15 15:00","1996","05","15","15:00","16.8","","0.5","","33","","13","","11","","24.1","","101.28","","","","","","Cloudy"
"1996-05-15 16:00","1996","05","15","16:00","17.4","","0.9","","33","","18","","9","","24.1","","101.22","","","","","","Cloudy"
"1996-05-15 17:00","1996","05","15","17:00","17.5","","0.6","","32","","18","","9","","24.1","","101.11","","","","","","Mostly Cloudy"
"1996-05-15 18:00","1996","05","15","18:00","16.9","","0.4","","33","","18","","7","","24.1","","101.05","","","","","","Mainly Clear"
"1996-05-15 19:00","1996","05","15","19:00","16.3","","0.7","","35","","13","","9","","24.1","","101.05","","","","","","Mostly Cloudy"
"1996-05-15 20:00","1996","05","15","20:00","14.8","","1.2","","40","","12","","11","","24.1","","101.05","","","","","","Mostly Cloudy"
"1996-05-15 21:00","1996","05","15","21:00","12.4","","3.0","","53","","12","","9","","24.1","","101.05","","","","","","Mainly Clear"
"1996-05-15 22:00","1996","05","15","22:00","13.3","","0.1","","40","","","","0","","24.1","","101.01","","","","","","Mainly Clear"
"1996-05-15 23:00","1996","05","15","23:00"
"1996-05-16 00:00","1996","05","16","00:00"
"1996-05-16 01:00","1996","05","16","01:00"
"1996-05-16 02:00","1996","05","16","02:00"
"1996-05-16 03:00","1996","05","16","03:00"
"1996-05-16 04:00","1996","05","16","04:00"
"1996-05-16 05:00","1996","05","16","05:00","9.4","","3.9","","68","","15","","19","","24.1","","100.95","","","","","","Mostly Cloudy"
"1996-05-16 06:00","1996","05","16","06:00","9.5","","4.5","","71","","15","","11","","24.1","","101.01","","","","","","Mostly Cloudy"
"1996-05-16 07:00","1996","05","16","07:00","9.3","","5.0","","74","","15","","15","","24.1","","101.01","","","","","","Mostly Cloudy"
"1996-05-16 08:00","1996","05","16","08:00","9.1","","5.0","","75","","15","","19","","24.1","","101.01","","","","","","Cloudy"
"1996-05-16 09:00","1996","05","16","09:00","8.4","","5.0","","79","","18","","15","","24.1","","101.01","","","","","","Cloudy"
"1996-05-16 10:00","1996","05","16","10:00","8.4","","5.1","","80","","18","","9","","24.1","","101.01","","","","","","Cloudy"
"1996-05-16 11:00","1996","05","16","11:00","8.0","","5.2","","82","","","M","","M","24.1","","100.95","","","","","","Cloudy"
"1996-05-16 12:00","1996","05","16","12:00","8.6","","6.2","","85","","15","","15","","24.1","","100.91","","","","","","Cloudy"
"1996-05-16 13:00","1996","05","16","13:00","9.3","","7.1","","86","","16","","15","","24.1","","100.81","","","","","","Cloudy"
"1996-05-16 14:00","1996","05","16","14:00","9.1","","6.9","","86","","15","","11","","16.1","","100.78","","","","","","Cloudy"
"1996-05-16 15:00","1996","05","16","15:00","9.1","","7.2","","88","","16","","9","","16.1","","100.75","","","","","","Cloudy"
"1996-05-16 16:00","1996","05","16","16:00","9.4","","7.1","","86","","15","","9","","19.3","","100.71","","","","","","Cloudy"
"1996-05-16 17:00","1996","05","16","17:00","9.5","","7.4","","87","","15","","6","","19.3","","100.71","","","","","","Cloudy"
"1996-05-16 18:00","1996","05","16","18:00","9.9","","7.2","","83","","12","","6","","19.3","","100.68","","","","","","Cloudy"
"1996-05-16 19:00","1996","05","16","19:00","10.4","","7.3","","81","","","","0","","19.3","","100.68","","","","","","Cloudy"
"1996-05-16 20:00","1996","05","16","20:00","9.5","","7.0","","84","","","","0","","19.3","","100.64","","","","","","Cloudy"
"1996-05-16 21:00","1996","05","16","21:00","8.8","","6.3","","84","","","","0","","24.1","","100.64","","","","","","Cloudy"
"1996-05-16 22:00","1996","05","16","22:00","7.7","","6.2","","90","","32","","6","","24.1","","100.64","","","","","","Cloudy"
"1996-05-16 23:00","1996","05","16","23:00"
"1996-05-17 00:00","1996","05","17","00:00"
"1996-05-17 01:00","1996","05","17","01:00"
"1996-05-17 02:00","1996","05","17","02:00"
"1996-05-17 03:00","1996","05","17","03:00"
"1996-05-17 04:00","1996","05","17","04:00"
"1996-05-17 05:00","1996","05","17","05:00","5.8","","4.9","","94","","","","0","","0.8","","100.61","","","","","","Fog"
"1996-05-17 06:00","1996","05","17","06:00","6.6","","5.5","","93","","6","","4","","4.0","","100.58","","","","","","Fog"
"1996-05-17 07:00","1996","05","17","07:00","8.9","","7.9","","93","","13","","4","","4.0","","100.61","","","","","","Fog"
"1996-05-17 08:00","1996","05","17","08:00","8.9","","7.9","","93","","14","","7","","4.8","","100.64","","","","","","Fog"
"1996-05-17 09:00","1996","05","17","09:00","9.5","","8.3","","92","","17","","9","","6.4","","100.64","","","","","","Fog"
"1996-05-17 10:00","1996","05","17","10:00","10.0","","8.8","","92","","17","","13","","8.0","","100.64","","","","","","Fog"
"1996-05-17 11:00","1996","05","17","11:00","10.5","","8.9","","90","","21","","19","","8.0","","100.64","","","","","","Fog"
"1996-05-17 12:00","1996","05","17","12:00","10.5","","8.5","","87","","19","","17","","8.0","","100.61","","","","","","Fog"
"1996-05-17 13:00","1996","05","17","13:00","11.4","","8.9","","85","","22","","15","","8.0","","100.54","","","","","","Fog"
"1996-05-17 14:00","1996","05","17","14:00","11.2","","8.6","","84","","19","","15","","12.9","","100.51","","","","","","Mostly Cloudy"
"1996-05-17 15:00","1996","05","17","15:00","12.0","","8.0","","76","","20","","17","","12.9","","100.48","","","","","","Mostly Cloudy"
"1996-05-17 16:00","1996","05","17","16:00","13.6","","9.1","","74","","23","","11","","19.3","","100.41","","","","","","Mostly Cloudy"
"1996-05-17 17:00","1996","05","17","17:00","14.9","","9.1","","68","","21","","9","","19.3","","100.41","","","","","","Mostly Cloudy"
"1996-05-17 18:00","1996","05","17","18:00","12.4","","8.7","","78","","16","","7","","19.3","","100.41","","","","","","Mostly Cloudy"
"1996-05-17 19:00","1996","05","17","19:00","15.9","","9.4","","65","","","","0","","19.3","","100.34","","","","","","Mostly Cloudy"
"1996-05-17 20:00","1996","05","17","20:00","16.1","","9.5","","65","","","","0","","19.3","","100.28","","","","","","Mostly Cloudy"
"1996-05-17 21:00","1996","05","17","21:00","13.5","","9.3","","76","","","","0","","19.3","","100.38","","","","","","Cloudy"
"1996-05-17 22:00","1996","05","17","22:00","11.7","","8.8","","82","","","","0","","19.3","","100.38","","","","","","Cloudy"
"1996-05-17 23:00","1996","05","17","23:00"
"1996-05-18 00:00","1996","05","18","00:00"
"1996-05-18 01:00","1996","05","18","01:00"
"1996-05-18 02:00","1996","05","18","02:00"
"1996-05-18 03:00","1996","05","18","03:00"
"1996-05-18 04:00","1996","05","18","04:00"
"1996-05-18 05:00","1996","05","18","05:00","13.5","","10.6","","83","","7","","9","","16.1","","100.18","","","","","","Mostly Cloudy"
"1996-05-18 06:00","1996","05","18","06:00","14.5","","10.9","","79","","7","","11","","16.1","","100.18","","","","","","Thunderstorms"
"1996-05-18 07:00","1996","05","18","07:00","13.9","","11.7","","87","","5","","9","","12.9","","100.18","","","","","","Rain Showers"
"1996-05-18 08:00","1996","05","18","08:00","13.7","","11.8","","88","","3","","4","","12.9","","100.28","","","","","","Thunderstorms,Rain Showers"
"1996-05-18 09:00","1996","05","18","09:00","11.5","","10.6","","94","","14","","17","","12.9","","99.91","","","","","","Thunderstorms,Rain Showers"
"1996-05-18 10:00","1996","05","18","10:00","14.6","","13.4","","93","","30","","13","","12.9","","100.24","","","","","","Cloudy"
"1996-05-18 11:00","1996","05","18","11:00","17.1","","14.7","","86","","6","","6","","12.9","","100.07","","","","","","Cloudy"
"1996-05-18 12:00","1996","05","18","12:00","17.3","","14.5","","84","","6","","7","","12.9","","100.01","","","","","","Cloudy"
"1996-05-18 13:00","1996","05","18","13:00","16.6","","13.9","","84","","9","","15","","12.9","","99.87","","","","","","Cloudy"
"1996-05-18 14:00","1996","05","18","14:00","18.9","","15.6","","81","","10","","17","","12.9","","99.77","","","","","","Cloudy"
"1996-05-18 15:00","1996","05","18","15:00","19.9","","15.7","","77","","10","","15","","16.1","","99.77","","","","","","Cloudy"
"1996-05-18 16:00","1996","05","18","16:00","20.1","","16.4","","79","","12","","11","","16.1","","99.60","","25","","","","Cloudy"
"1996-05-18 17:00","1996","05","18","17:00","16.6","","14.8","","89","","","","0","","11.3","","99.60","","","","","","Cloudy"
"1996-05-18 18:00","1996","05","18","18:00","15.9","","14.4","","91","","28","","7","","11.3","","99.57","","","","","","Thunderstorms,Rain Showers"
"1996-05-18 19:00","1996","05","18","19:00","16.0","","15.1","","94","","19","","9","","9.7","","99.47","","","","","","Fog"
"1996-05-18 20:00","1996","05","18","20:00","13.2","","12.2","","94","","18","","7","","9.7","","99.50","","","","","","Fog"
"1996-05-18 21:00","1996","05","18","21:00","12.2","","11.4","","95","","18","","19","","4.8","","99.57","","","","","","Fog"
"1996-05-18 22:00","1996","05","18","22:00","14.2","","13.7","","97","","18","","11","","8.0","","99.60","","","","","","Thunderstorms,Fog"
"1996-05-18 23:00","1996","05","18","23:00"
"1996-05-19 00:00","1996","05","19","00:00"
"1996-05-19 01:00","1996","05","19","01:00"
"1996-05-19 02:00","1996","05","19","02:00"
"1996-05-19 03:00","1996","05","19","03:00"
"1996-05-19 04:00","1996","05","19","04:00"
"1996-05-19 05:00","1996","05","19","05:00","8.0","","7.7","","98","","15","","6","","0.0","","99.71","","","","","","Fog"
"1996-05-19 06:00","1996","05","19","06:00","8.3","","8.0","","98","","","","0","","0.0","","99.74","","","","","","Fog"
"1996-05-19 07:00","1996","05","19","07:00","7.8","","7.5","","98","","15","","7","","0.0","","99.77","","","","","","Fog"
"1996-05-19 08:00","1996","05","19","08:00","8.1","","7.9","","99","","15","","11","","0.0","","99.74","","","","","","Fog"
"1996-05-19 09:00","1996","05","19","09:00","9.0","","8.9","","99","","16","","7","","0.0","","99.77","","","","","","Fog"
"1996-05-19 10:00","1996","05","19","10:00","9.1","","8.8","","98","","17","","11","","0.2","","99.81","","","","","","Fog"
"1996-05-19 11:00","1996","05","19","11:00","10.2","","9.9","","98","","17","","9","","0.8","","99.57","","","","","","Fog"
"1996-05-19 12:00","1996","05","19","12:00","11.7","","11.5","","99","","18","","19","","0.2","","99.37","","","","","","Fog"
"1996-05-19 13:00","1996","05","19","13:00","14.3","","14.3","","100","","20","","11","","1.2","","99.37","","","","","","Fog"
"1996-05-19 14:00","1996","05","19","14:00","11.4","","11.4","","100","","18","","7","","0.2","","99.27","","","","","","Fog"
"1996-05-19 15:00","1996","05","19","15:00","13.1","","13.0","","99","","17","","7","","8.0","","99.17","","","","","","Fog"
"1996-05-19 16:00","1996","05","19","16:00","14.6","","13.5","","93","","18","","6","","11.3","","99.03","","","","","","Mostly Cloudy"
"1996-05-19 17:00","1996","05","19","17:00","15.8","","13.7","","87","","26","","13","","11.3","","99.07","","","","","","Mostly Cloudy"
"1996-05-19 18:00","1996","05","19","18:00","18.2","","15.1","","82","","25","","19","","12.9","","99.03","","","","","","Mostly Cloudy"
"1996-05-19 19:00","1996","05","19","19:00","16.0","","13.0","","82","","19","","11","","12.9","","98.97","","","","","","Mostly Cloudy"
"1996-05-19 20:00","1996","05","19","20:00","13.0","","10.7","","86","","21","","7","","16.1","","99.00","","","","","","Mostly Cloudy"
"1996-05-19 21:00","1996","05","19","21:00","13.1","","11.1","","88","","18","","13","","16.1","","99.00","","","","","","Mostly Cloudy"
"1996-05-19 22:00","1996","05","19","22:00","12.5","","10.4","","87","","21","","7","","19.3","","99.00","","","","","","Mainly Clear"
"1996-05-19 23:00","1996","05","19","23:00"
"1996-05-20 00:00","1996","05","20","00:00"
"1996-05-20 01:00","1996","05","20","01:00"
"1996-05-20 02:00","1996","05","20","02:00"
"1996-05-20 03:00","1996","05","20","03:00"
"1996-05-20 04:00","1996","05","20","04:00"
"1996-05-20 05:00","1996","05","20","05:00","17.2","","15.3","","89","","34","","9","","19.3","","98.93","","","","","","Cloudy"
"1996-05-20 06:00","1996","05","20","06:00","12.9","","11.3","","90","","19","","9","","19.3","","98.97","","","","","","Cloudy"
"1996-05-20 07:00","1996","05","20","07:00","17.2","","14.9","","86","","28","","6","","16.1","","98.93","","","","","","Cloudy"
"1996-05-20 08:00","1996","05","20","08:00","14.0","","12.4","","90","","23","","17","","12.9","","99.03","","","","","","Cloudy"
"1996-05-20 09:00","1996","05","20","09:00","19.4","","16.8","","85","","23","","13","","16.1","","99.07","","","","","","Cloudy"
"1996-05-20 10:00","1996","05","20","10:00","14.8","","13.2","","90","","21","","6","","19.3","","99.13","","","","","","Cloudy"
"1996-05-20 11:00","1996","05","20","11:00","14.7","","13.2","","91","","18","","9","","16.1","","99.10","","","","","","Cloudy"
"1996-05-20 12:00","1996","05","20","12:00","12.4","","11.1","","92","","18","","19","","16.1","","99.07","","","","","","Cloudy"
"1996-05-20 13:00","1996","05","20","13:00","12.0","","10.8","","92","","17","","24","","12.9","","99.07","","","","","","Cloudy"
"1996-05-20 14:00","1996","05","20","14:00","12.9","","11.2","","89","","18","","17","","12.9","","99.07","","","","","","Cloudy"
"1996-05-20 15:00","1996","05","20","15:00","13.3","","11.8","","91","","18","","9","","11.3","","99.03","","","","","","Cloudy"
"1996-05-20 16:00","1996","05","20","16:00","13.9","","12.4","","91","","18","","11","","11.3","","98.90","","","","","","Cloudy"
"1996-05-20 17:00","1996","05","20","17:00","14.6","","12.8","","89","","18","","7","","11.3","","98.93","","","","","","Cloudy"
"1996-05-20 18:00","1996","05","20","18:00","14.9","","12.8","","87","","21","","9","","11.3","","98.93","","","","","","Cloudy"
"1996-05-20 19:00","1996","05","20","19:00","21.8","","18.2","","80","","29","","9","","11.3","","98.83","","28","","","","Cloudy"
"1996-05-20 20:00","1996","05","20","20:00","19.8","","17.8","","88","","27","","6","","12.9","","98.93","","","","","","Cloudy"
"1996-05-20 21:00","1996","05","20","21:00","21.2","","18.7","","86","","33","","19","","12.9","","98.87","","28","","","","Thunderstorms,Rain Showers"
"1996-05-20 22:00","1996","05","20","22:00","19.5","","17.0","","85","","33","","7","","12.9","","98.90","","","","","","Thunderstorms,Rain Showers"
"1996-05-20 23:00","1996","05","20","23:00"
"1996-05-21 00:00","1996","05","21","00:00"
"1996-05-21 01:00","1996","05","21","01:00"
"1996-05-21 02:00","1996","05","21","02:00"
"1996-05-21 03:00","1996","05","21","03:00"
"1996-05-21 04:00","1996","05","21","04:00"
"1996-05-21 05:00","1996","05","21","05:00","14.6","","14.3","","98","","","","0","","3.2","","98.83","","","","","","Rain,Fog"
"1996-05-21 06:00","1996","05","21","06:00","14.4","","14.0","","97","","24","","6","","2.4","","98.90","","","","","","Fog"
"1996-05-21 07:00","1996","05","21","07:00","14.1","","13.7","","97","","","","0","","16.1","","98.97","","","","","","Rain Showers"
"1996-05-21 08:00","1996","05","21","08:00","15.1","","14.3","","95","","28","","9","","19.3","","99.00","","","","","","Cloudy"
"1996-05-21 09:00","1996","05","21","09:00","16.0","","14.5","","91","","29","","7","","24.1","","99.03","","","","","","Cloudy"
"1996-05-21 10:00","1996","05","21","10:00","16.6","","14.2","","86","","25","","13","","24.1","","99.03","","","","","","Mainly Clear"
"1996-05-21 11:00","1996","05","21","11:00","19.4","","14.5","","73","","23","","22","","24.1","","99.10","","","","","","Mainly Clear"
"1996-05-21 12:00","1996","05","21","12:00","14.6","","12.8","","89","","18","","13","","24.1","","99.10","","","","","","Mainly Clear"
"1996-05-21 13:00","1996","05","21","13:00","14.9","","12.6","","86","","20","","15","","24.1","","99.07","","","","","","Mainly Clear"
"1996-05-21 14:00","1996","05","21","14:00","17.2","","13.9","","81","","24","","13","","24.1","","99.03","","","","","","Mostly Cloudy"
"1996-05-21 15:00","1996","05","21","15:00","17.6","","13.3","","76","","22","","24","","24.1","","99.03","","","","","","Mostly Cloudy"
"1996-05-21 16:00","1996","05","21","16:00","17.9","","13.0","","73","","19","","19","","24.1","","99.03","","","","","","Mostly Cloudy"
"1996-05-21 17:00","1996","05","21","17:00","20.9","","13.4","","62","","24","","19","","24.1","","99.03","","","","","","Mostly Cloudy"
"1996-05-21 18:00","1996","05","21","18:00","21.2","","11.3","","53","","26","","19","","24.1","","99.07","","","","","","Mainly Clear"
"1996-05-21 19:00","1996","05","21","19:00","20.5","","10.4","","52","","28","","30","","24.1","","99.10","","","","","","Mainly Clear"
"1996-05-21 20:00","1996","05","21","20:00","18.6","","8.4","","51","","28","","28","","24.1","","99.17","","","","","","Mainly Clear"
"1996-05-21 21:00","1996","05","21","21:00","17.3","","8.2","","55","","30","","24","","24.1","","99.27","","","","","","Mainly Clear"
"1996-05-21 22:00","1996","05","21","22:00","16.7","","7.7","","55","","30","","28","","24.1","","99.34","","","","","","Mainly Clear"
"1996-05-21 23:00","1996","05","21","23:00"
"1996-05-22 00:00","1996","05","22","00:00"
"1996-05-22 01:00","1996","05","22","01:00"
"1996-05-22 02:00","1996","05","22","02:00"
"1996-05-22 03:00","1996","05","22","03:00"
"1996-05-22 04:00","1996","05","22","04:00"
"1996-05-22 05:00","1996","05","22","05:00","11.4","","7.3","","76","","27","","7","","24.1","","99.54","","","","","","Mostly Cloudy"
"1996-05-22 06:00","1996","05","22","06:00","12.3","","7.9","","74","","25","","7","","24.1","","99.57","","","","","","Mostly Cloudy"
"1996-05-22 07:00","1996","05","22","07:00","14.0","","8.4","","69","","28","","15","","24.1","","99.60","","","","","","Mainly Clear"
"1996-05-22 08:00","1996","05","22","08:00","16.1","","8.1","","59","","27","","15","","24.1","","99.60","","","","","","Mainly Clear"
"1996-05-22 09:00","1996","05","22","09:00","18.0","","6.7","","48","","28","","19","","24.1","","99.60","","","","","","Mainly Clear"
"1996-05-22 10:00","1996","05","22","10:00","18.6","","6.3","","45","","27","","22","","24.1","","99.60","","","","","","Mainly Clear"
"1996-05-22 11:00","1996","05","22","11:00","19.2","","5.8","","41","","27","","28","","24.1","","99.60","","","","","","Mainly Clear"
"1996-05-22 12:00","1996","05","22","12:00","19.8","","6.5","","42","","28","","28","","24.1","","99.60","","","","","","Mainly Clear"
"1996-05-22 13:00","1996","05","22","13:00","20.1","","6.4","","41","","27","","22","","24.1","","99.60","","","","","","Mainly Clear"
"1996-05-22 14:00","1996","05","22","14:00","20.5","","7.6","","43","","26","","19","","24.1","","99.60","","","","","","Mostly Cloudy"
"1996-05-22 15:00","1996","05","22","15:00","20.8","","8.1","","44","","27","","24","","24.1","","99.60","","","","","","Mostly Cloudy"
"1996-05-22 16:00","1996","05","22","16:00","20.7","","7.9","","44","","25","","24","","24.1","","99.67","","","","","","Mostly Cloudy"
"1996-05-22 17:00","1996","05","22","17:00","20.9","","7.3","","41","","27","","19","","24.1","","99.67","","","","","","Mostly Cloudy"
"1996-05-22 18:00","1996","05","22","18:00","20.5","","7.3","","42","","27","","24","","24.1","","99.67","","","","","","Mostly Cloudy"
"1996-05-22 19:00","1996","05","22","19:00","19.3","","7.6","","47","","28","","9","","24.1","","99.74","","","","","","Mostly Cloudy"
"1996-05-22 20:00","1996","05","22","20:00","16.4","","7.9","","57","","25","","15","","24.1","","99.84","","","","","","Cloudy"
"1996-05-22 21:00","1996","05","22","21:00","16.6","","7.1","","53","","30","","13","","24.1","","99.91","","","","","","Mostly Cloudy"
"1996-05-22 22:00","1996","05","22","22:00","15.4","","6.6","","56","","31","","15","","24.1","","99.97","","","","","","Mainly Clear"
"1996-05-22 23:00","1996","05","22","23:00"
"1996-05-23 00:00","1996","05","23","00:00"
"1996-05-23 01:00","1996","05","23","01:00"
"1996-05-23 02:00","1996","05","23","02:00"
"1996-05-23 03:00","1996","05","23","03:00"
"1996-05-23 04:00","1996","05","23","04:00"
"1996-05-23 05:00","1996","05","23","05:00","8.5","","6.5","","87","","35","","9","","24.1","","100.11","","","","","","Mainly Clear"
"1996-05-23 06:00","1996","05","23","06:00","11.1","","8.2","","82","","36","","4","","24.1","","100.18","","","","","","Mainly Clear"
"1996-05-23 07:00","1996","05","23","07:00","13.0","","9.7","","80","","","","0","","24.1","","100.28","","","","","","Mostly Cloudy"
"1996-05-23 08:00","1996","05","23","08:00","11.7","","9.3","","85","","18","","9","","24.1","","100.31","","","","","","Mainly Clear"
"1996-05-23 09:00","1996","05","23","09:00","11.1","","8.7","","85","","17","","9","","24.1","","100.31","","","","","","Mainly Clear"
"1996-05-23 10:00","1996","05","23","10:00","11.7","","8.5","","81","","19","","15","","24.1","","100.31","","","","","","Mostly Cloudy"
"1996-05-23 11:00","1996","05","23","11:00","10.9","","8.2","","83","","18","","11","","24.1","","100.31","","","","","","Mostly Cloudy"
"1996-05-23 12:00","1996","05","23","12:00","11.5","","9.1","","85","","19","","9","","24.1","","100.31","","","","","","Mostly Cloudy"
"1996-05-23 13:00","1996","05","23","13:00","11.7","","8.8","","82","","18","","7","","24.1","","100.28","","","","","","Mostly Cloudy"
"1996-05-23 14:00","1996","05","23","14:00","13.1","","8.5","","74","","18","","6","","24.1","","100.21","","","","","","Mostly Cloudy"
"1996-05-23 15:00","1996","05","23","15:00","13.5","","8.6","","72","","19","","6","","24.1","","100.21","","","","","","Mostly Cloudy"
"1996-05-23 16:00","1996","05","23","16:00","14.5","","7.9","","65","","25","","6","","24.1","","100.21","","","","","","Cloudy"
"1996-05-23 17:00","1996","05","23","17:00","14.7","","9.8","","72","","","","0","","16.1","","100.21","","","","","","Rain Showers"
"1996-05-23 18:00","1996","05","23","18:00","14.7","","8.5","","66","","","","0","","19.3","","100.21","","","","","","Rain Showers"
"1996-05-23 19:00","1996","05","23","19:00","14.1","","10.3","","78","","24","","11","","19.3","","100.28","","","","","","Rain Showers"
"1996-05-23 20:00","1996","05","23","20:00","12.6","","9.9","","84","","25","","15","","12.9","","100.31","","","","","","Rain Showers"
"1996-05-23 21:00","1996","05","23","21:00","11.8","","10.3","","91","","24","","15","","9.7","","100.38","","","","","","Rain Showers,Fog"
"1996-05-23 22:00","1996","05","23","22:00","12.0","","10.8","","92","","30","","4","","6.4","","100.44","","","","","","Rain Showers,Fog"
"1996-05-23 23:00","1996","05","23","23:00"
"1996-05-24 00:00","1996","05","24","00:00"
"1996-05-24 01:00","1996","05","24","01:00"
"1996-05-24 02:00","1996","05","24","02:00"
"1996-05-24 03:00","1996","05","24","03:00"
"1996-05-24 04:00","1996","05","24","04:00"
"1996-05-24 05:00","1996","05","24","05:00","8.2","","-3.2","","44","","4","","19","","24.1","","100.91","","","","","","Mainly Clear"
"1996-05-24 06:00","1996","05","24","06:00","7.8","","-3.0","","46","","3","","22","","24.1","","101.05","","","","","","Mainly Clear"
"1996-05-24 07:00","1996","05","24","07:00","8.4","","-3.5","","43","","2","","19","","24.1","","101.11","","","","","","Clear"
"1996-05-24 08:00","1996","05","24","08:00","9.1","","-4.1","","39","","2","","22","","24.1","","101.15","","","","","","Clear"
"1996-05-24 09:00","1996","05","24","09:00","10.5","","-3.8","","36","","36","","26","","24.1","","101.25","","","","","","Mainly Clear"
"1996-05-24 10:00","1996","05","24","10:00","11.4","","-3.1","","36","","36","","17","","24.1","","101.22","","","","","","Mainly Clear"
"1996-05-24 11:00","1996","05","24","11:00","11.5","","-3.3","","35","","3","","7","","24.1","","101.18","","","","","","Mainly Clear"
"1996-05-24 12:00","1996","05","24","12:00","13.8","","-2.0","","33","","14","","6","","24.1","","101.15","","","","","","Mainly Clear"
"1996-05-24 13:00","1996","05","24","13:00","13.5","","-0.5","","38","","","","0","","24.1","","101.08","","","","","","Mainly Clear"
"1996-05-24 14:00","1996","05","24","14:00","11.1","","2.9","","57","","19","","22","","24.1","","101.11","","","","","","Mainly Clear"
"1996-05-24 15:00","1996","05","24","15:00","12.0","","2.6","","53","","20","","24","","24.1","","101.11","","","","","","Mainly Clear"
"1996-05-24 16:00","1996","05","24","16:00","12.6","","2.0","","48","","23","","24","","24.1","","101.08","","","","","","Mainly Clear"
"1996-05-24 17:00","1996","05","24","17:00","11.8","","3.7","","58","","21","","22","","24.1","","101.08","","","","","","Mainly Clear"
"1996-05-24 18:00","1996","05","24","18:00","13.4","","2.0","","46","","24","","24","","24.1","","101.01","","","","","","Mainly Clear"
"1996-05-24 19:00","1996","05","24","19:00","11.6","","1.6","","50","","25","","19","","24.1","","101.05","","","","","","Mainly Clear"
"1996-05-24 20:00","1996","05","24","20:00","10.4","","3.2","","61","","24","","9","","24.1","","101.05","","","","","","Mainly Clear"
"1996-05-24 21:00","1996","05","24","21:00","8.9","","0.7","","56","","29","","7","","24.1","","100.98","","","","","","Clear"
"1996-05-24 22:00","1996","05","24","22:00","8.3","","1.5","","62","","32","","7","","24.1","","101.08","","","","","","Clear"
"1996-05-24 23:00","1996","05","24","23:00"
"1996-05-25 00:00","1996","05","25","00:00"
"1996-05-25 01:00","1996","05","25","01:00"
"1996-05-25 02:00","1996","05","25","02:00"
"1996-05-25 03:00","1996","05","25","03:00"
"1996-05-25 04:00","1996","05","25","04:00"
"1996-05-25 05:00","1996","05","25","05:00","6.6","","-0.7","","60","","2","","9","","24.1","","101.32","","","","","","Clear"
"1996-05-25 06:00","1996","05","25","06:00","7.8","","-0.3","","57","","3","","9","","24.1","","101.35","","","","","","Clear"
"1996-05-25 07:00","1996","05","25","07:00","9.5","","-1.7","","45","","4","","9","","24.1","","101.38","","","","","","Mainly Clear"
"1996-05-25 08:00","1996","05","25","08:00","10.5","","-2.1","","41","","6","","11","","24.1","","101.38","","","","","","Mainly Clear"
"1996-05-25 09:00","1996","05","25","09:00","11.5","","-1.4","","41","","","","0","","24.1","","101.38","","","","","","Mainly Clear"
"1996-05-25 10:00","1996","05","25","10:00","9.8","","2.8","","62","","19","","19","","24.1","","101.38","","","","","","Mainly Clear"
"1996-05-25 11:00","1996","05","25","11:00","9.8","","2.9","","62","","18","","22","","24.1","","101.35","","","","","","Mainly Clear"
"1996-05-25 12:00","1996","05","25","12:00","10.4","","3.9","","64","","20","","22","","24.1","","101.32","","","","","","Mainly Clear"
"1996-05-25 13:00","1996","05","25","13:00","10.4","","2.9","","60","","19","","19","","24.1","","101.28","","","","","","Mainly Clear"
"1996-05-25 14:00","1996","05","25","14:00","10.1","","2.2","","58","","19","","19","","24.1","","101.22","","","","","","Mainly Clear"
"1996-05-25 15:00","1996","05","25","15:00","10.2","","1.9","","56","","20","","19","","24.1","","101.15","","","","","","Mainly Clear"
"1996-05-25 16:00","1996","05","25","16:00","9.8","","2.7","","61","","20","","22","","24.1","","101.05","","","","","","Mainly Clear"
"1996-05-25 17:00","1996","05","25","17:00","10.2","","3.5","","63","","20","","22","","24.1","","101.01","","","","","","Mainly Clear"
"1996-05-25 18:00","1996","05","25","18:00","8.8","","4.3","","73","","17","","11","","24.1","","100.98","","","","","","Mostly Cloudy"
"1996-05-25 19:00","1996","05","25","19:00","8.4","","5.0","","79","","18","","11","","24.1","","100.91","","","","","","Mostly Cloudy"
"1996-05-25 20:00","1996","05","25","20:00","8.3","","4.8","","79","","13","","7","","24.1","","100.91","","","","","","Mainly Clear"
"1996-05-25 21:00","1996","05","25","21:00","7.9","","3.7","","75","","13","","9","","24.1","","100.95","","","","","","Mainly Clear"
"1996-05-25 22:00","1996","05","25","22:00","7.6","","3.6","","76","","16","","7","","24.1","","100.95","","","","","","Mainly Clear"
"1996-05-25 23:00","1996","05","25","23:00"
"1996-05-26 00:00","1996","05","26","00:00"
"1996-05-26 01:00","1996","05","26","01:00"
"1996-05-26 02:00","1996","05","26","02:00"
"1996-05-26 03:00","1996","05","26","03:00"
"1996-05-26 04:00","1996","05","26","04:00"
"1996-05-26 05:00","1996","05","26","05:00","5.5","","3.6","","88","","","","0","","24.1","","101.05","","","","","","Cloudy"
"1996-05-26 06:00","1996","05","26","06:00","6.7","","5.0","","89","","","","0","","24.1","","101.05","","","","","","Cloudy"
"1996-05-26 07:00","1996","05","26","07:00","8.6","","6.5","","87","","18","","7","","24.1","","101.05","","","","","","Cloudy"
"1996-05-26 08:00","1996","05","26","08:00","9.2","","5.2","","76","","17","","9","","24.1","","101.08","","","","","","Cloudy"
"1996-05-26 09:00","1996","05","26","09:00","9.5","","6.2","","80","","18","","11","","24.1","","101.08","","","","","","Cloudy"
"1996-05-26 10:00","1996","05","26","10:00","9.8","","6.8","","82","","18","","7","","24.1","","101.05","","","","","","Cloudy"
"1996-05-26 11:00","1996","05","26","11:00","10.5","","7.1","","79","","18","","9","","24.1","","100.98","","","","","","Cloudy"
"1996-05-26 12:00","1996","05","26","12:00","10.3","","7.2","","81","","17","","11","","24.1","","100.88","","","","","","Cloudy"
"1996-05-26 13:00","1996","05","26","13:00","10.7","","6.8","","77","","16","","13","","24.1","","100.81","","","","","","Cloudy"
"1996-05-26 14:00","1996","05","26","14:00","12.6","","6.0","","64","","21","","13","","24.1","","100.78","","","","","","Cloudy"
"1996-05-26 15:00","1996","05","26","15:00","13.0","","7.4","","69","","21","","13","","24.1","","100.81","","","","","","Cloudy"
"1996-05-26 16:00","1996","05","26","16:00","13.6","","6.7","","63","","21","","9","","24.1","","100.75","","","","","","Cloudy"
"1996-05-26 17:00","1996","05","26","17:00","13.1","","6.8","","66","","21","","6","","24.1","","100.68","","","","","","Cloudy"
"1996-05-26 18:00","1996","05","26","18:00","14.5","","3.8","","49","","25","","6","","24.1","","100.64","","","","","","Cloudy"
"1996-05-26 19:00","1996","05","26","19:00","14.2","","1.7","","43","","26","","6","","24.1","","100.68","","","","","","Cloudy"
"1996-05-26 20:00","1996","05","26","20:00","14.1","","0.1","","38","","26","","6","","24.1","","100.68","","","","","","Cloudy"
"1996-05-26 21:00","1996","05","26","21:00","13.4","","2.3","","47","","26","","6","","24.1","","100.71","","","","","","Cloudy"
"1996-05-26 22:00","1996","05","26","22:00","12.2","","1.8","","49","","33","","4","","24.1","","100.71","","","","","","Cloudy"
"1996-05-26 23:00","1996","05","26","23:00"
"1996-05-27 00:00","1996","05","27","00:00"
"1996-05-27 01:00","1996","05","27","01:00"
"1996-05-27 02:00","1996","05","27","02:00"
"1996-05-27 03:00","1996","05","27","03:00"
"1996-05-27 04:00","1996","05","27","04:00"
"1996-05-27 05:00","1996","05","27","05:00","6.3","","2.6","","77","","","","0","","24.1","","100.71","","","","","","Clear"
"1996-05-27 06:00","1996","05","27","06:00","9.3","","6.1","","80","","","","0","","24.1","","100.71","","","","","","Clear"
"1996-05-27 07:00","1996","05","27","07:00","11.7","","3.9","","59","","","","0","","24.1","","100.71","","","","","","Clear"
"1996-05-27 08:00","1996","05","27","08:00","13.0","","4.9","","58","","","","0","","24.1","","100.78","","","","","","Clear"
"1996-05-27 09:00","1996","05","27","09:00","12.4","","6.9","","69","","","","0","","24.1","","100.78","","","","","","Clear"
"1996-05-27 10:00","1996","05","27","10:00","12.6","","8.9","","78","","19","","11","","24.1","","100.75","","","","","","Mainly Clear"
"1996-05-27 11:00","1996","05","27","11:00","13.0","","7.9","","71","","19","","13","","24.1","","100.71","","","","","","Mainly Clear"
"1996-05-27 12:00","1996","05","27","12:00","13.9","","6.4","","61","","19","","17","","24.1","","100.71","","","","","","Mainly Clear"
"1996-05-27 13:00","1996","05","27","13:00","13.9","","6.6","","61","","19","","17","","24.1","","100.68","","","","","","Mainly Clear"
"1996-05-27 14:00","1996","05","27","14:00","16.6","","7.2","","54","","20","","19","","24.1","","100.68","","","","","","Mainly Clear"
"1996-05-27 15:00","1996","05","27","15:00","18.4","","4.1","","39","","22","","15","","24.1","","100.64","","","","","","Mainly Clear"
"1996-05-27 16:00","1996","05","27","16:00","18.3","","3.3","","37","","21","","11","","24.1","","100.54","","","","","","Mainly Clear"
"1996-05-27 17:00","1996","05","27","17:00","18.5","","3.9","","38","","24","","7","","24.1","","100.51","","","","","","Mostly Cloudy"
"1996-05-27 18:00","1996","05","27","18:00","18.2","","3.6","","38","","23","","6","","24.1","","100.48","","","","","","Mostly Cloudy"
"1996-05-27 19:00","1996","05","27","19:00","17.1","","2.7","","38","","28","","6","","24.1","","100.51","","","","","","Mostly Cloudy"
"1996-05-27 20:00","1996","05","27","20:00","15.3","","1.6","","39","","29","","6","","24.1","","100.54","","","","","","Mainly Clear"
"1996-05-27 21:00","1996","05","27","21:00","12.8","","2.5","","49","","34","","7","","24.1","","100.61","","","","","","Mainly Clear"
"1996-05-27 22:00","1996","05","27","22:00","11.7","","4.4","","61","","34","","9","","24.1","","100.61","","","","","","Mainly Clear"
"1996-05-27 23:00","1996","05","27","23:00"
"1996-05-28 00:00","1996","05","28","00:00"
"1996-05-28 01:00","1996","05","28","01:00"
"1996-05-28 02:00","1996","05","28","02:00"
"1996-05-28 03:00","1996","05","28","03:00"
"1996-05-28 04:00","1996","05","28","04:00"
"1996-05-28 05:00","1996","05","28","05:00","8.8","","6.4","","85","","","","0","","24.1","","100.54","","","","","","Mostly Cloudy"
"1996-05-28 06:00","1996","05","28","06:00","10.4","","7.5","","82","","","","0","","24.1","","100.54","","","","","","Mostly Cloudy"
"1996-05-28 07:00","1996","05","28","07:00","10.9","","7.1","","77","","19","","17","","24.1","","100.64","","","","","","Mostly Cloudy"
"1996-05-28 08:00","1996","05","28","08:00","11.0","","6.7","","75","","21","","17","","24.1","","100.61","","","","","","Mostly Cloudy"
"1996-05-28 09:00","1996","05","28","09:00","12.1","","8.9","","81","","19","","13","","16.1","","100.61","","","","","","Mostly Cloudy"
"1996-05-28 10:00","1996","05","28","10:00","13.0","","9.4","","79","","19","","13","","19.3","","100.61","","","","","","Mostly Cloudy"
"1996-05-28 11:00","1996","05","28","11:00","14.0","","9.5","","74","","19","","22","","19.3","","100.61","","","","","","Mostly Cloudy"
"1996-05-28 12:00","1996","05","28","12:00","13.9","","9.8","","76","","18","","19","","19.3","","100.51","","","","","","Mostly Cloudy"
"1996-05-28 13:00","1996","05","28","13:00","15.1","","9.7","","70","","17","","13","","19.3","","100.44","","","","","","Cloudy"
"1996-05-28 14:00","1996","05","28","14:00","15.7","","9.9","","68","","20","","15","","19.3","","100.41","","","","","","Cloudy"
"1996-05-28 15:00","1996","05","28","15:00","18.2","","9.0","","55","","24","","9","","19.3","","100.31","","","","","","Mostly Cloudy"
"1996-05-28 16:00","1996","05","28","16:00","18.5","","8.6","","52","","23","","9","","19.3","","100.28","","","","","","Mainly Clear"
"1996-05-28 17:00","1996","05","28","17:00","18.6","","7.5","","48","","24","","22","","24.1","","100.24","","","","","","Mainly Clear"
"1996-05-28 18:00","1996","05","28","18:00","16.8","","7.5","","54","","23","","19","","24.1","","100.21","","","","","","Mainly Clear"
"1996-05-28 19:00","1996","05","28","19:00","15.3","","7.2","","58","","23","","15","","24.1","","100.24","","","","","","Mainly Clear"
"1996-05-28 20:00","1996","05","28","20:00","13.9","","7.2","","64","","24","","11","","24.1","","100.21","","","","","","Mainly Clear"
"1996-05-28 21:00","1996","05","28","21:00","12.6","","7.7","","72","","24","","11","","24.1","","100.24","","","","","","Mainly Clear"
"1996-05-28 22:00","1996","05","28","22:00","14.4","","7.5","","63","","33","","15","","24.1","","100.41","","","","","","Mostly Cloudy"
"1996-05-28 23:00","1996","05","28","23:00"
"1996-05-29 00:00","1996","05","29","00:00"
"1996-05-29 01:00","1996","05","29","01:00"
"1996-05-29 02:00","1996","05","29","02:00"
"1996-05-29 03:00","1996","05","29","03:00"
"1996-05-29 04:00","1996","05","29","04:00"
"1996-05-29 05:00","1996","05","29","05:00","5.0","","-5.9","","45","","3","","15","","24.1","","100.61","","","","","","Mainly Clear"
"1996-05-29 06:00","1996","05","29","06:00","5.2","","-5.5","","46","","3","","22","","24.1","","100.64","","","","","","Mainly Clear"
"1996-05-29 07:00","1996","05","29","07:00","6.5","","-4.9","","44","","3","","19","","24.1","","100.64","","","","","","Mainly Clear"
"1996-05-29 08:00","1996","05","29","08:00","7.6","","-5.1","","40","","2","","24","","24.1","","100.61","","","","","","Mainly Clear"
"1996-05-29 09:00","1996","05","29","09:00","9.4","","-3.7","","39","","1","","13","","24.1","","100.58","","","","","","Clear"
"1996-05-29 10:00","1996","05","29","10:00","10.9","","-2.2","","40","","35","","13","","24.1","","100.54","","","","","","Clear"
"1996-05-29 11:00","1996","05","29","11:00","12.1","","-1.8","","38","","35","","15","","24.1","","100.51","","","","","","Clear"
"1996-05-29 12:00","1996","05","29","12:00","13.9","","-0.2","","38","","33","","9","","24.1","","100.48","","","","","","Mainly Clear"
"1996-05-29 13:00","1996","05","29","13:00","10.8","","2.6","","57","","17","","19","","24.1","","100.48","","","","","","Mainly Clear"
"1996-05-29 14:00","1996","05","29","14:00","9.8","","2.3","","60","","20","","22","","24.1","","100.44","","","","","","Mostly Cloudy"
"1996-05-29 15:00","1996","05","29","15:00","10.2","","3.6","","64","","22","","28","","24.1","","100.44","","","","","","Mostly Cloudy"
"1996-05-29 16:00","1996","05","29","16:00","10.6","","4.8","","67","","23","","13","","24.1","","100.41","","","","","","Mostly Cloudy"
"1996-05-29 17:00","1996","05","29","17:00","12.4","","4.9","","60","","22","","9","","24.1","","100.38","","","","","","Mostly Cloudy"
"1996-05-29 18:00","1996","05","29","18:00","13.1","","6.0","","62","","21","","9","","24.1","","100.34","","","","","","Mostly Cloudy"
"1996-05-29 19:00","1996","05","29","19:00","12.5","","6.8","","68","","20","","4","","24.1","","100.34","","","","","","Mostly Cloudy"
"1996-05-29 20:00","1996","05","29","20:00","12.3","","3.8","","56","","3","","22","","24.1","","100.44","","","","","","Mostly Cloudy"
"1996-05-29 21:00","1996","05","29","21:00","11.4","","4.3","","62","","36","","19","","24.1","","100.51","","","","","","Mostly Cloudy"
"1996-05-29 22:00","1996","05","29","22:00","9.2","","2.9","","65","","32","","26","","24.1","","100.61","","","","","","Mostly Cloudy"
"1996-05-29 23:00","1996","05","29","23:00"
"1996-05-30 00:00","1996","05","30","00:00"
"1996-05-30 01:00","1996","05","30","01:00"
"1996-05-30 02:00","1996","05","30","02:00"
"1996-05-30 03:00","1996","05","30","03:00"
"1996-05-30 04:00","1996","05","30","04:00"
"1996-05-30 05:00","1996","05","30","05:00","4.6","","2.2","","84","","32","","13","","24.1","","100.75","","","","","","Mainly Clear"
"1996-05-30 06:00","1996","05","30","06:00","6.4","","2.6","","77","","35","","19","","24.1","","100.81","","","","","","Mainly Clear"
"1996-05-30 07:00","1996","05","30","07:00","8.5","","2.4","","65","","1","","15","","24.1","","100.85","","","","","","Clear"
"1996-05-30 08:00","1996","05","30","08:00","10.8","","2.2","","55","","3","","15","","24.1","","100.91","","","","","","Mainly Clear"
"1996-05-30 09:00","1996","05","30","09:00","12.1","","1.5","","48","","4","","13","","24.1","","100.91","","","","","","Mainly Clear"
"1996-05-30 10:00","1996","05","30","10:00","13.8","","3.3","","49","","36","","6","","24.1","","100.95","","","","","","Mainly Clear"
"1996-05-30 11:00","1996","05","30","11:00","12.5","","6.9","","69","","33","","15","","24.1","","100.91","","","","","","Mainly Clear"
"1996-05-30 12:00","1996","05","30","12:00","11.2","","6.8","","74","","19","","15","","24.1","","100.91","","","","","","Mainly Clear"
"1996-05-30 13:00","1996","05","30","13:00","11.3","","6.9","","74","","19","","19","","24.1","","100.91","","","","","","Mainly Clear"
"1996-05-30 14:00","1996","05","30","14:00","12.0","","7.4","","73","","20","","15","","24.1","","100.91","","","","","","Mainly Clear"
"1996-05-30 15:00","1996","05","30","15:00","13.0","","7.7","","70","","19","","15","","24.1","","100.91","","","","","","Mainly Clear"
"1996-05-30 16:00","1996","05","30","16:00","12.7","","8.4","","75","","21","","15","","24.1","","100.88","","","","","","Mainly Clear"
"1996-05-30 17:00","1996","05","30","17:00","13.3","","8.6","","73","","19","","15","","24.1","","100.88","","","","","","Mainly Clear"
"1996-05-30 18:00","1996","05","30","18:00","12.8","","7.9","","72","","21","","13","","24.1","","100.91","","","","","","Mainly Clear"
"1996-05-30 19:00","1996","05","30","19:00","13.6","","5.6","","58","","25","","15","","24.1","","100.91","","","","","","Mainly Clear"
"1996-05-30 20:00","1996","05","30","20:00","12.6","","5.8","","63","","25","","13","","24.1","","100.91","","","","","","Mainly Clear"
"1996-05-30 21:00","1996","05","30","21:00","11.4","","6.7","","73","","24","","13","","24.1","","100.95","","","","","","Mainly Clear"
"1996-05-30 22:00","1996","05","30","22:00","10.7","","6.6","","76","","25","","13","","24.1","","100.95","","","","","","Clear"
"1996-05-30 23:00","1996","05","30","23:00"
"1996-05-31 00:00","1996","05","31","00:00"
"1996-05-31 01:00","1996","05","31","01:00"
"1996-05-31 02:00","1996","05","31","02:00"
"1996-05-31 03:00","1996","05","31","03:00"
"1996-05-31 04:00","1996","05","31","04:00"
"1996-05-31 05:00","1996","05","31","05:00","8.1","","3.6","","73","","28","","15","","24.1","","100.98","","","","","","Clear"
"1996-05-31 06:00","1996","05","31","06:00","9.2","","3.8","","69","","28","","15","","24.1","","100.98","","","","","","Clear"
"1996-05-31 07:00","1996","05","31","07:00","11.6","","4.3","","61","","28","","19","","25.0","","101.11","","","","","","Clear"
"1996-05-31 08:00","1996","05","31","08:00","13.8","","5.1","","56","","28","","13","","25.0","","101.11","","","","","","Mainly Clear"
"1996-05-31 09:00","1996","05","31","09:00","16.6","","6.5","","51","","32","","7","","24.1","","101.11","","","","","","Mainly Clear"
"1996-05-31 10:00","1996","05","31","10:00","14.1","","8.4","","69","","17","","19","","24.1","","101.11","","","","","","Mainly Clear"
"1996-05-31 11:00","1996","05","31","11:00","11.6","","8.3","","80","","16","","19","","24.1","","101.08","","","","","","Mainly Clear"
"1996-05-31 12:00","1996","05","31","12:00","12.4","","8.8","","79","","19","","19","","25.0","","101.05","","","","","","Mainly Clear"
"1996-05-31 13:00","1996","05","31","13:00","17.4","","9.2","","59","","21","","19","","25.0","","101.05","","","","","","Mainly Clear"
"1996-05-31 14:00","1996","05","31","14:00","18.0","","8.9","","55","","22","","19","","25.0","","101.01","","","","","","Mostly Cloudy"
"1996-05-31 15:00","1996","05","31","15:00","19.3","","7.2","","45","","22","","19","","24.1","","101.01","","","","","","Mostly Cloudy"
"1996-05-31 16:00","1996","05","31","16:00","19.6","","5.1","","39","","25","","19","","24.1","","101.01","","","","","","Mostly Cloudy"
"1996-05-31 17:00","1996","05","31","17:00","18.3","","4.9","","41","","24","","22","","24.1","","101.01","","","","","","Mostly Cloudy"
"1996-05-31 18:00","1996","05","31","18:00","18.2","","3.9","","39","","24","","19","","24.1","","100.98","","","","","","Mostly Cloudy"
"1996-05-31 19:00","1996","05","31","19:00","16.8","","4.5","","44","","24","","11","","24.1","","101.01","","","","","","Mainly Clear"
"1996-05-31 20:00","1996","05","31","20:00","15.0","","5.4","","53","","25","","15","","24.1","","101.01","","","","","","Mainly Clear"
"1996-05-31 21:00","1996","05","31","21:00","13.4","","5.9","","60","","25","","11","","24.1","","101.05","","","","","","Clear"
"1996-05-31 22:00","1996","05","31","22:00","12.5","","5.4","","62","","25","","7","","24.1","","101.08","","","","","","Clear"
"1996-05-31 23:00","1996","05","31","23:00"
