"Station Name","KINGSTON A"
"Province","ONTARIO"
"Latitude","44.22"
"Longitude","-76.60"
"Elevation","92.40"
"Climate Identifier","6104146"
"WMO Identifier",""
"TC Identifier","YGK"
"All times are specified in Local Standard Time (LST). Add 1 hour to adjust for Daylight Saving Time where and when it is observed."

"Legend"
"E","Estimated"
"M","Missing"
"NA","Not Available"

"Date/Time","Year","Month","Day","Time","Temp (°C)","Temp Flag","Dew Point Temp (°C)","Dew Point Temp Flag","Rel Hum (%)","Rel Hum Flag","Wind Dir (10s deg)","Wind Dir Flag","Wind Spd (km/h)","Wind Spd Flag","Visibility (km)","Visibility Flag","Stn Press (kPa)","Stn Press Flag","Hmdx","Hmdx Flag","Wind Chill","Wind Chill Flag","Weather"
"2003-11-01 00:00","2003","11","01","00:00"
"2003-11-01 01:00","2003","11","01","01:00"
"2003-11-01 02:00","2003","11","01","02:00"
"2003-11-01 03:00","2003","11","01","03:00"
"2003-11-01 04:00","2003","11","01","04:00"
"2003-11-01 05:00","2003","11","01","05:00"
"2003-11-01 06:00","2003","11","01","06:00","15.8","","11.2","","74","","27","","13","","24.1","","100.72","","","","","","Cloudy"
"2003-11-01 07:00","2003","11","01","07:00","14.7","","11.9","","83","","25","","11","","19.3","","100.80","","","","","","Mostly Cloudy"
"2003-11-01 08:00","2003","11","01","08:00","14.7","","10.2","","74","","29","","15","","19.3","","100.93","","","","","","Mostly Cloudy"
"2003-11-01 09:00","2003","11","01","09:00","13.9","","9.5","","75","","29","","15","","19.3","","101.03","","","","","","Mostly Cloudy"
"2003-11-01 10:00","2003","11","01","10:00","13.3","","8.4","","72","","28","","19","","24.1","","101.06","","","","","","Mostly Cloudy"
"2003-11-01 11:00","2003","11","01","11:00","13.9","","7.9","","67","","29","","17","","24.1","","101.13","","","","","","Mostly Cloudy"
"2003-11-01 12:00","2003","11","01","12:00","14.1","","7.5","","64","","28","","17","","24.1","","101.16","","","","","","Mostly Cloudy"
"2003-11-01 13:00","2003","11","01","13:00","14.0","","6.6","","61","","29","","15","","24.1","","101.13","","","","","","Mostly Cloudy"
"2003-11-01 14:00","2003","11","01","14:00","13.5","","7.2","","66","","25","","15","","24.1","","101.14","","","","","","Mostly Cloudy"
"2003-11-01 15:00","2003","11","01","15:00","12.8","","6.9","","67","","25","","17","","24.1","","101.18","","","","","","Mostly Cloudy"
"2003-11-01 16:00","2003","11","01","16:00","12.3","","6.6","","68","","24","","15","","24.1","","101.22","","","","","","Mostly Cloudy"
"2003-11-01 17:00","2003","11","01","17:00","11.6","","7.0","","73","","27","","9","","24.1","","101.28","","","","","","Mostly Cloudy"
"2003-11-01 18:00","2003","11","01","18:00","10.4","","6.9","","79","","24","","11","","24.1","","101.34","","","","","","Mostly Cloudy"
"2003-11-01 19:00","2003","11","01","19:00","10.4","","7.0","","79","","26","","11","","24.1","","101.34","","","","","","Mostly Cloudy"
"2003-11-01 20:00","2003","11","01","20:00","9.3","","4.9","","74","","28","","9","","24.1","","101.35","","","","","","Mostly Cloudy"
"2003-11-01 21:00","2003","11","01","21:00","8.4","","4.2","","75","","31","","9","","24.1","","101.37","","","","","","Cloudy"
"2003-11-01 22:00","2003","11","01","22:00","8.4","","3.7","","72","","32","","9","","24.1","","101.41","","","","","","Cloudy"
"2003-11-01 23:00","2003","11","01","23:00","8.0","","3.7","","74","","32","","11","","24.1","","101.39","","","","","","Cloudy"
"2003-11-02 00:00","2003","11","02","00:00"
"2003-11-02 01:00","2003","11","02","01:00"
"2003-11-02 02:00","2003","11","02","02:00"
"2003-11-02 03:00","2003","11","02","03:00"
"2003-11-02 04:00","2003","11","02","04:00"
"2003-11-02 05:00","2003","11","02","05:00"
"2003-11-02 06:00","2003","11","02","06:00","7.1","","4.8","","85","","35","","4","","19.3","","101.39","","","","","","Rain Showers"
"2003-11-02 07:00","2003","11","02","07:00","6.4","","5.2","","92","","","","0","","11.3","","101.35","","","","","","Rain Showers"
"2003-11-02 08:00","2003","11","02","08:00","6.4","","5.3","","93","","","","0","","16.1","","101.40","","","","","","Rain"
"2003-11-02 09:00","2003","11","02","09:00","7.5","","6.3","","92","","19","","4","","19.3","","101.40","","","","","","Rain"
"2003-11-02 10:00","2003","11","02","10:00","8.0","","6.7","","91","","15","","6","","19.3","","101.31","","","","","","Rain"
"2003-11-02 11:00","2003","11","02","11:00","8.3","","6.9","","91","","","","0","","19.3","","101.30","","","","","","Rain"
"2003-11-02 12:00","2003","11","02","12:00","8.0","","6.8","","92","","10","","4","","12.9","","101.24","","","","","","Rain"
"2003-11-02 13:00","2003","11","02","13:00","8.1","","7.3","","95","","13","","6","","16.1","","101.12","","","","","","Rain"
"2003-11-02 14:00","2003","11","02","14:00","8.2","","7.4","","95","","13","","9","","19.3","","101.08","","","","","","Cloudy"
"2003-11-02 15:00","2003","11","02","15:00","8.4","","7.1","","92","","15","","9","","19.3","","101.12","","","","","","Rain"
"2003-11-02 16:00","2003","11","02","16:00","8.0","","7.2","","95","","10","","7","","12.9","","101.10","","","","","","Rain"
"2003-11-02 17:00","2003","11","02","17:00","8.0","","7.4","","96","","10","","7","","11.3","","101.02","","","","","","Rain"
"2003-11-02 18:00","2003","11","02","18:00","7.9","","7.2","","95","","6","","6","","11.3","","101.03","","","","","","Rain"
"2003-11-02 19:00","2003","11","02","19:00","8.0","","7.3","","95","","4","","9","","11.3","","101.05","","","","","","Rain"
"2003-11-02 20:00","2003","11","02","20:00","7.8","","7.4","","97","","6","","9","","6.4","","101.00","","","","","","Rain,Fog"
"2003-11-02 21:00","2003","11","02","21:00","7.9","","7.5","","97","","6","","13","","6.4","","100.95","","","","","","Rain,Fog"
"2003-11-02 22:00","2003","11","02","22:00","8.0","","7.5","","97","","4","","13","","6.4","","100.98","","","","","","Fog"
"2003-11-02 23:00","2003","11","02","23:00","8.0","","7.4","","96","","5","","11","","11.3","","100.94","","","","","","Cloudy"
"2003-11-03 00:00","2003","11","03","00:00"
"2003-11-03 01:00","2003","11","03","01:00"
"2003-11-03 02:00","2003","11","03","02:00"
"2003-11-03 03:00","2003","11","03","03:00"
"2003-11-03 04:00","2003","11","03","04:00"
"2003-11-03 05:00","2003","11","03","05:00"
"2003-11-03 06:00","2003","11","03","06:00","7.5","","7.2","","98","","2","","7","","6.4","","101.01","","","","","","Rain,Fog"
"2003-11-03 07:00","2003","11","03","07:00","7.4","","7.1","","98","","","","0","","6.4","","101.01","","","","","","Rain,Fog"
"2003-11-03 08:00","2003","11","03","08:00","7.4","","7.2","","99","","2","","4","","8.0","","101.08","","","","","","Rain,Fog"
"2003-11-03 09:00","2003","11","03","09:00","7.6","","7.3","","98","","8","","4","","9.7","","101.08","","","","","","Fog"
"2003-11-03 10:00","2003","11","03","10:00","7.8","","7.2","","96","","","","0","","11.3","","101.09","","","","","","Drizzle"
"2003-11-03 11:00","2003","11","03","11:00","8.2","","7.6","","96","","36","","9","","11.3","","101.13","","","","","","Cloudy"
"2003-11-03 12:00","2003","11","03","12:00","8.1","","7.6","","97","","36","","6","","4.8","","101.09","","","","","","Drizzle,Fog"
"2003-11-03 13:00","2003","11","03","13:00","8.5","","7.8","","95","","1","","7","","12.9","","101.02","","","","","","Cloudy"
"2003-11-03 14:00","2003","11","03","14:00","9.0","","7.5","","90","","2","","13","","19.3","","101.03","","","","","","Cloudy"
"2003-11-03 15:00","2003","11","03","15:00","9.0","","7.2","","88","","4","","7","","19.3","","101.06","","","","","","Cloudy"
"2003-11-03 16:00","2003","11","03","16:00","8.6","","7.0","","90","","5","","9","","19.3","","101.01","","","","","","Cloudy"
"2003-11-03 17:00","2003","11","03","17:00","8.0","","6.4","","90","","4","","13","","19.3","","101.01","","","","","","Cloudy"
"2003-11-03 18:00","2003","11","03","18:00","7.7","","6.4","","91","","5","","17","","16.1","","101.00","","","","","","Drizzle"
"2003-11-03 19:00","2003","11","03","19:00","7.3","","6.5","","95","","3","","13","","16.1","","101.10","","","","","","Rain"
"2003-11-03 20:00","2003","11","03","20:00","7.0","","6.2","","95","","4","","11","","12.9","","101.17","","","","","","Rain"
"2003-11-03 21:00","2003","11","03","21:00","6.6","","5.7","","94","","3","","17","","11.3","","101.22","","","","","","Rain"
"2003-11-03 22:00","2003","11","03","22:00","6.6","","5.4","","92","","3","","19","","11.3","","101.22","","","","","","Rain"
"2003-11-03 23:00","2003","11","03","23:00","5.8","","4.0","","88","","4","","17","","24.1","","101.25","","","","","","Rain"
"2003-11-04 00:00","2003","11","04","00:00"
"2003-11-04 01:00","2003","11","04","01:00"
"2003-11-04 02:00","2003","11","04","02:00"
"2003-11-04 03:00","2003","11","04","03:00"
"2003-11-04 04:00","2003","11","04","04:00"
"2003-11-04 05:00","2003","11","04","05:00"
"2003-11-04 06:00","2003","11","04","06:00","3.3","","0.9","","84","","5","","24","","24.1","","101.33","","","","","","Cloudy"
"2003-11-04 07:00","2003","11","04","07:00","3.2","","0.9","","85","","5","","30","","24.1","","101.30","","","","","","Cloudy"
"2003-11-04 08:00","2003","11","04","08:00","2.8","","1.2","","89","","6","","30","","8.0","","101.33","","","","","","Rain,Fog"
"2003-11-04 09:00","2003","11","04","09:00","2.6","","-1.7","","73","","6","","33","","16.1","","101.30","","","","","","Cloudy"
"2003-11-04 10:00","2003","11","04","10:00","2.0","","-2.1","","74","","6","","33","","24.1","","101.24","","","","","","Cloudy"
"2003-11-04 11:00","2003","11","04","11:00","1.9","","-1.4","","79","","7","","41","","19.3","","101.22","","","","","","Cloudy"
"2003-11-04 12:00","2003","11","04","12:00","1.6","","-1.6","","79","","7","","37","","24.1","","101.18","","","","","","Cloudy"
"2003-11-04 13:00","2003","11","04","13:00","0.8","","-0.9","","88","","6","","32","","19.3","","101.08","","","","","","Cloudy"
"2003-11-04 14:00","2003","11","04","14:00","0.7","","-0.9","","89","","6","","33","","19.3","","100.94","","","","","","Cloudy"
"2003-11-04 15:00","2003","11","04","15:00","0.8","","-1.3","","86","","7","","24","","19.3","","100.86","","","","","","Cloudy"
"2003-11-04 16:00","2003","11","04","16:00","0.8","","-1.0","","88","","5","","28","","24.1","","100.86","","","","","","Cloudy"
"2003-11-04 17:00","2003","11","04","17:00","1.1","","-0.8","","87","","5","","20","","24.1","","100.77","","","","","","Cloudy"
"2003-11-04 18:00","2003","11","04","18:00","0.8","","-0.5","","91","","5","","22","","19.3","","100.76","","","","","","Rain Showers"
"2003-11-04 19:00","2003","11","04","19:00","0.9","","-0.3","","92","","5","","17","","16.1","","100.72","","","","","","Rain Showers"
"2003-11-04 20:00","2003","11","04","20:00","1.1","","0.4","","95","","5","","17","","16.1","","100.63","","","","","","Cloudy"
"2003-11-04 21:00","2003","11","04","21:00","1.2","","0.4","","94","","4","","13","","16.1","","100.61","","","","","","Cloudy"
"2003-11-04 22:00","2003","11","04","22:00","1.5","","0.9","","96","","3","","17","","16.1","","100.60","","","","","","Cloudy"
"2003-11-04 23:00","2003","11","04","23:00","1.5","","0.9","","96","","4","","17","","16.1","","100.55","","","","","","Cloudy"
"2003-11-05 00:00","2003","11","05","00:00"
"2003-11-05 01:00","2003","11","05","01:00"
"2003-11-05 02:00","2003","11","05","02:00"
"2003-11-05 03:00","2003","11","05","03:00"
"2003-11-05 04:00","2003","11","05","04:00"
"2003-11-05 05:00","2003","11","05","05:00"
"2003-11-05 06:00","2003","11","05","06:00","12.5","","11.7","","95","","18","","28","","24.1","","100.16","","","","","","Cloudy"
"2003-11-05 07:00","2003","11","05","07:00","12.1","","11.7","","97","","18","","24","","16.1","","100.20","","","","","","Rain"
"2003-11-05 08:00","2003","11","05","08:00","12.4","","12.0","","97","","18","","26","","24.1","","100.20","","","","","","Cloudy"
"2003-11-05 09:00","2003","11","05","09:00","12.5","","12.5","","100","","18","","30","","19.3","","100.24","","","","","","Rain Showers"
"2003-11-05 10:00","2003","11","05","10:00","12.8","","12.6","","99","","20","","37","","24.1","","100.24","","","","","","Cloudy"
"2003-11-05 11:00","2003","11","05","11:00","13.3","","12.9","","97","","18","","20","","24.1","","100.15","","","","","","Cloudy"
"2003-11-05 12:00","2003","11","05","12:00","13.2","","12.9","","98","","21","","17","","19.3","","100.14","","","","","","Cloudy"
"2003-11-05 13:00","2003","11","05","13:00","13.6","","13.2","","97","","23","","17","","19.3","","100.15","","","","","","Cloudy"
"2003-11-05 14:00","2003","11","05","14:00","14.2","","13.6","","96","","23","","11","","19.3","","100.12","","","","","","Cloudy"
"2003-11-05 15:00","2003","11","05","15:00","12.9","","12.9","","100","","21","","17","","11.3","","100.18","","","","","","Rain Showers"
"2003-11-05 16:00","2003","11","05","16:00","12.9","","12.9","","100","","22","","11","","4.8","","100.19","","","","","","Rain Showers,Fog"
"2003-11-05 17:00","2003","11","05","17:00","13.7","","13.6","","99","","29","","15","","12.9","","100.26","","","","","","Cloudy"
"2003-11-05 18:00","2003","11","05","18:00","12.0","","10.6","","91","","29","","13","","24.1","","100.45","","","","","","Mostly Cloudy"
"2003-11-05 19:00","2003","11","05","19:00","9.9","","7.9","","87","","29","","19","","24.1","","100.61","","","","","","Mostly Cloudy"
"2003-11-05 20:00","2003","11","05","20:00","9.3","","6.2","","81","","29","","15","","24.1","","100.75","","","","","","Cloudy"
"2003-11-05 21:00","2003","11","05","21:00","9.1","","6.2","","82","","29","","9","","24.1","","100.86","","","","","","Cloudy"
"2003-11-05 22:00","2003","11","05","22:00","8.8","","4.7","","75","","30","","15","","24.1","","100.91","","","","","","Cloudy"
"2003-11-05 23:00","2003","11","05","23:00","8.2","","4.5","","77","","29","","11","","24.1","","100.99","","","","","","Cloudy"
"2003-11-06 00:00","2003","11","06","00:00"
"2003-11-06 01:00","2003","11","06","01:00"
"2003-11-06 02:00","2003","11","06","02:00"
"2003-11-06 03:00","2003","11","06","03:00"
"2003-11-06 04:00","2003","11","06","04:00"
"2003-11-06 05:00","2003","11","06","05:00"
"2003-11-06 06:00","2003","11","06","06:00","5.1","","2.3","","82","","34","","9","","24.1","","101.18","","","","","","Cloudy"
"2003-11-06 07:00","2003","11","06","07:00","5.0","","2.1","","81","","34","","7","","24.1","","101.20","","","","","","Cloudy"
"2003-11-06 08:00","2003","11","06","08:00","5.1","","2.0","","80","","36","","7","","24.1","","101.25","","","","","","Cloudy"
"2003-11-06 09:00","2003","11","06","09:00","5.6","","2.0","","78","","32","","11","","24.1","","101.28","","","","","","Cloudy"
"2003-11-06 10:00","2003","11","06","10:00","5.8","","2.0","","77","","32","","7","","24.1","","101.31","","","","","","Cloudy"
"2003-11-06 11:00","2003","11","06","11:00","5.7","","1.5","","74","","31","","9","","24.1","","101.26","","","","","","Mostly Cloudy"
"2003-11-06 12:00","2003","11","06","12:00","6.0","","1.3","","72","","1","","9","","24.1","","101.10","","","","","","Mostly Cloudy"
"2003-11-06 13:00","2003","11","06","13:00","6.2","","0.8","","68","","34","","6","","24.1","","101.12","","","","","","Mostly Cloudy"
"2003-11-06 14:00","2003","11","06","14:00","6.2","","0.8","","68","","26","","7","","24.1","","101.14","","","","","","Cloudy"
"2003-11-06 15:00","2003","11","06","15:00","6.2","","0.7","","68","","29","","9","","24.1","","101.12","","","","","","Cloudy"
"2003-11-06 16:00","2003","11","06","16:00","6.0","","1.1","","71","","35","","7","","24.1","","101.04","","","","","","Mostly Cloudy"
"2003-11-06 17:00","2003","11","06","17:00","5.8","","0.6","","69","","29","","4","","24.1","","101.05","","","","","","Mostly Cloudy"
"2003-11-06 18:00","2003","11","06","18:00","4.5","","1.2","","79","","3","","6","","24.1","","101.03","","","","","","Mainly Clear"
"2003-11-06 19:00","2003","11","06","19:00","3.5","","1.4","","86","","1","","6","","24.1","","101.02","","","","","","Mainly Clear"
"2003-11-06 20:00","2003","11","06","20:00","1.8","","0.7","","92","","1","","6","","24.1","","101.03","","","","","","Mainly Clear"
"2003-11-06 21:00","2003","11","06","21:00","1.1","","0.6","","96","","35","","4","","24.1","","101.01","","","","","","Mainly Clear"
"2003-11-06 22:00","2003","11","06","22:00","1.2","","0.7","","96","","","","0","","24.1","","101.03","","","","","","Mainly Clear"
"2003-11-06 23:00","2003","11","06","23:00","2.4","","0.9","","90","","9","","6","","24.1","","100.98","","","","","","Mostly Cloudy"
"2003-11-07 00:00","2003","11","07","00:00"
"2003-11-07 01:00","2003","11","07","01:00"
"2003-11-07 02:00","2003","11","07","02:00"
"2003-11-07 03:00","2003","11","07","03:00"
"2003-11-07 04:00","2003","11","07","04:00"
"2003-11-07 05:00","2003","11","07","05:00"
"2003-11-07 06:00","2003","11","07","06:00","3.6","","-0.8","","73","","27","","6","","24.1","","100.87","","","","","","Mainly Clear"
"2003-11-07 07:00","2003","11","07","07:00","3.7","","0.9","","82","","21","","7","","24.1","","100.87","","","","","","Mainly Clear"
"2003-11-07 08:00","2003","11","07","08:00","5.1","","0.3","","71","","23","","13","","24.1","","100.87","","","","","","Mainly Clear"
"2003-11-07 09:00","2003","11","07","09:00","5.7","","-0.6","","64","","27","","22","","24.1","","100.86","","","","","","Mainly Clear"
"2003-11-07 10:00","2003","11","07","10:00","6.2","","-0.9","","60","","27","","28","","24.1","","100.84","","","","","","Mainly Clear"
"2003-11-07 11:00","2003","11","07","11:00","6.1","","-1.9","","56","","25","","28","","24.1","","100.81","","","","","","Mainly Clear"
"2003-11-07 12:00","2003","11","07","12:00","6.6","","-1.5","","56","","24","","32","","24.1","","100.74","","","","","","Mainly Clear"
"2003-11-07 13:00","2003","11","07","13:00","6.8","","-0.9","","58","","25","","37","","24.1","","100.71","","","","","","Mainly Clear"
"2003-11-07 14:00","2003","11","07","14:00","6.5","","-0.6","","60","","25","","41","","24.1","","100.65","","","","","","Mainly Clear"
"2003-11-07 15:00","2003","11","07","15:00","6.2","","-0.9","","60","","25","","39","","24.1","","100.65","","","","","","Mainly Clear"
"2003-11-07 16:00","2003","11","07","16:00","6.4","","-0.1","","63","","25","","37","","24.1","","100.65","","","","","","Mostly Cloudy"
"2003-11-07 17:00","2003","11","07","17:00","6.7","","-0.2","","61","","28","","24","","24.1","","100.67","","","","","","Mostly Cloudy"
"2003-11-07 18:00","2003","11","07","18:00","4.9","","-4.7","","50","","28","","24","","24.1","","100.85","","","","","","Mostly Cloudy"
"2003-11-07 19:00","2003","11","07","19:00","4.5","","-5.1","","50","","29","","28","","24.1","","100.94","","","","","","Mostly Cloudy"
"2003-11-07 20:00","2003","11","07","20:00","2.6","","-5.1","","57","","28","","30","","24.1","","101.07","","","","","","Mainly Clear"
"2003-11-07 21:00","2003","11","07","21:00","2.0","","-6.4","","54","","28","","22","","24.1","","101.13","","","","","","Mainly Clear"
"2003-11-07 22:00","2003","11","07","22:00","0.9","","-5.6","","62","","31","","15","","24.1","","101.18","","","","","","Mostly Cloudy"
"2003-11-07 23:00","2003","11","07","23:00","0.4","","-6.1","","62","","30","","17","","24.1","","101.24","","","","","","Mostly Cloudy"
"2003-11-08 00:00","2003","11","08","00:00"
"2003-11-08 01:00","2003","11","08","01:00"
"2003-11-08 02:00","2003","11","08","02:00"
"2003-11-08 03:00","2003","11","08","03:00"
"2003-11-08 04:00","2003","11","08","04:00"
"2003-11-08 05:00","2003","11","08","05:00"
"2003-11-08 06:00","2003","11","08","06:00","-5.1","","-13.3","","53","","31","","15","","24.1","","101.90","","","","-11","","Mainly Clear"
"2003-11-08 07:00","2003","11","08","07:00","-5.5","","-14.5","","49","","31","","13","","24.1","","101.99","","","","-11","","Mainly Clear"
"2003-11-08 08:00","2003","11","08","08:00","-4.7","","-14.0","","48","","31","","11","","24.1","","102.11","","","","-9","","Mainly Clear"
"2003-11-08 09:00","2003","11","08","09:00","-3.7","","-13.6","","46","","32","","19","","24.1","","102.18","","","","-10","","Clear"
"2003-11-08 10:00","2003","11","08","10:00","-1.8","","-12.7","","43","","30","","17","","24.1","","102.21","","","","-7","","Clear"
"2003-11-08 11:00","2003","11","08","11:00","-0.2","","-12.3","","40","","31","","20","","24.1","","102.26","","","","-5","","Mainly Clear"
"2003-11-08 12:00","2003","11","08","12:00","0.5","","-12.5","","37","","34","","24","","24.1","","102.22","","","","","","Mainly Clear"
"2003-11-08 13:00","2003","11","08","13:00","1.7","","-12.7","","33","","31","","22","","24.1","","102.21","","","","","","Mainly Clear"
"2003-11-08 14:00","2003","11","08","14:00","2.3","","-13.1","","31","","32","","19","","24.1","","102.23","","","","","","Mainly Clear"
"2003-11-08 15:00","2003","11","08","15:00","2.2","","-13.8","","29","","32","","20","","24.1","","102.25","","","","","","Mainly Clear"
"2003-11-08 16:00","2003","11","08","16:00","1.8","","-14.1","","30","","29","","11","","24.1","","102.31","","","","","","Clear"
"2003-11-08 17:00","2003","11","08","17:00","-0.1","","-14.1","","34","","29","","6","","24.1","","102.34","","","","-2","","Clear"
"2003-11-08 18:00","2003","11","08","18:00","-0.3","","-14.3","","34","","29","","7","","24.1","","102.38","","","","-3","","Clear"
"2003-11-08 19:00","2003","11","08","19:00","-1.1","","-14.7","","35","","29","","13","","24.1","","102.42","","","","-5","","Clear"
"2003-11-08 20:00","2003","11","08","20:00","-2.0","","-14.8","","37","","30","","13","","24.1","","102.43","","","","-6","","Clear"
"2003-11-08 21:00","2003","11","08","21:00","-2.7","","-14.4","","40","","30","","9","","24.1","","102.46","","","","-6","","Clear"
"2003-11-08 22:00","2003","11","08","22:00","-3.4","","-14.1","","43","","31","","9","","24.1","","102.52","","","","-7","","Clear"
"2003-11-08 23:00","2003","11","08","23:00","-3.0","","-14.5","","41","","32","","11","","24.1","","102.56","","","","-7","","Clear"
"2003-11-09 00:00","2003","11","09","00:00"
"2003-11-09 01:00","2003","11","09","01:00"
"2003-11-09 02:00","2003","11","09","02:00"
"2003-11-09 03:00","2003","11","09","03:00"
"2003-11-09 04:00","2003","11","09","04:00"
"2003-11-09 05:00","2003","11","09","05:00"
"2003-11-09 06:00","2003","11","09","06:00","-7.2","","-12.7","","65","","36","","4","","24.1","","102.78","","","","-9","","Mainly Clear"
"2003-11-09 07:00","2003","11","09","07:00","-7.7","","-13.2","","65","","36","","6","","24.1","","102.79","","","","-11","","Mainly Clear"
"2003-11-09 08:00","2003","11","09","08:00","-5.8","","-9.5","","75","","32","","4","","24.1","","102.83","","","","-8","","Mainly Clear"
"2003-11-09 09:00","2003","11","09","09:00","-0.3","","-7.2","","60","","29","","4","","24.1","","102.83","","","","-2","","Mostly Cloudy"
"2003-11-09 10:00","2003","11","09","10:00","1.0","","-8.7","","48","","29","","13","","24.1","","102.81","","","","","","Mostly Cloudy"
"2003-11-09 11:00","2003","11","09","11:00","1.1","","-9.5","","45","","27","","19","","24.1","","102.79","","","","","","Mostly Cloudy"
"2003-11-09 12:00","2003","11","09","12:00","2.0","","-7.9","","48","","27","","19","","24.1","","102.72","","","","","","Mostly Cloudy"
"2003-11-09 13:00","2003","11","09","13:00","2.6","","-7.9","","46","","28","","13","","24.1","","102.65","","","","","","Mostly Cloudy"
"2003-11-09 14:00","2003","11","09","14:00","2.9","","-7.8","","45","","28","","15","","24.1","","102.58","","","","","","Mostly Cloudy"
"2003-11-09 15:00","2003","11","09","15:00","2.7","","-7.2","","48","","27","","19","","24.1","","102.53","","","","","","Mostly Cloudy"
"2003-11-09 16:00","2003","11","09","16:00","2.6","","-7.3","","48","","27","","13","","24.1","","102.48","","","","","","Mainly Clear"
"2003-11-09 17:00","2003","11","09","17:00","1.7","","-7.2","","52","","28","","9","","24.1","","102.41","","","","","","Mainly Clear"
"2003-11-09 18:00","2003","11","09","18:00","0.8","","-7.0","","56","","28","","11","","24.1","","102.40","","","","","","Mainly Clear"
"2003-11-09 19:00","2003","11","09","19:00","0.8","","-6.7","","57","","27","","7","","24.1","","102.37","","","","","","Mainly Clear"
"2003-11-09 20:00","2003","11","09","20:00","1.3","","-5.7","","60","","27","","9","","24.1","","102.35","","","","","","Mainly Clear"
"2003-11-09 21:00","2003","11","09","21:00","2.1","","-3.7","","65","","27","","13","","24.1","","102.27","","","","","","Mainly Clear"
"2003-11-09 22:00","2003","11","09","22:00","2.2","","-3.0","","68","","27","","13","","24.1","","102.24","","","","","","Mainly Clear"
"2003-11-09 23:00","2003","11","09","23:00","2.4","","-2.7","","69","","26","","9","","24.1","","102.23","","","","","","Clear"
"2003-11-10 00:00","2003","11","10","00:00"
"2003-11-10 01:00","2003","11","10","01:00"
"2003-11-10 02:00","2003","11","10","02:00"
"2003-11-10 03:00","2003","11","10","03:00"
"2003-11-10 04:00","2003","11","10","04:00"
"2003-11-10 05:00","2003","11","10","05:00"
"2003-11-10 06:00","2003","11","10","06:00","1.4","","-3.8","","68","","27","","11","","24.1","","102.11","","","","","","Mainly Clear"
"2003-11-10 07:00","2003","11","10","07:00","2.5","","-3.0","","67","","27","","13","","24.1","","102.10","","","","","","Mainly Clear"
"2003-11-10 08:00","2003","11","10","08:00","2.9","","-1.0","","75","","29","","9","","24.1","","102.08","","","","","","Mainly Clear"
"2003-11-10 09:00","2003","11","10","09:00","4.0","","-0.8","","71","","25","","19","","24.1","","102.03","","","","","","Mainly Clear"
"2003-11-10 10:00","2003","11","10","10:00","5.0","","-1.4","","63","","26","","19","","24.1","","102.05","","","","","","Mainly Clear"
"2003-11-10 11:00","2003","11","10","11:00","5.5","","-1.3","","62","","25","","15","","24.1","","101.98","","","","","","Mostly Cloudy"
"2003-11-10 12:00","2003","11","10","12:00","6.9","","-0.5","","59","","24","","19","","24.1","","101.89","","","","","","Mostly Cloudy"
"2003-11-10 13:00","2003","11","10","13:00","6.8","","-0.6","","59","","23","","19","","24.1","","101.81","","","","","","Mostly Cloudy"
"2003-11-10 14:00","2003","11","10","14:00","6.8","","-0.1","","61","","22","","15","","24.1","","101.75","","","","","","Mostly Cloudy"
"2003-11-10 15:00","2003","11","10","15:00","6.2","","0.6","","67","","22","","20","","24.1","","101.68","","","","","","Mostly Cloudy"
"2003-11-10 16:00","2003","11","10","16:00","5.4","","0.5","","71","","22","","19","","24.1","","101.64","","","","","","Mostly Cloudy"
"2003-11-10 17:00","2003","11","10","17:00","5.0","","0.4","","72","","22","","17","","24.1","","101.65","","","","","","Mostly Cloudy"
"2003-11-10 18:00","2003","11","10","18:00","4.5","","-0.5","","70","","23","","15","","24.1","","101.67","","","","","","Mostly Cloudy"
"2003-11-10 19:00","2003","11","10","19:00","4.7","","-0.4","","69","","24","","11","","24.1","","101.65","","","","","","Cloudy"
"2003-11-10 20:00","2003","11","10","20:00","5.0","","-0.6","","67","","23","","11","","24.1","","101.55","","","","","","Cloudy"
"2003-11-10 21:00","2003","11","10","21:00","5.2","","-0.3","","68","","24","","9","","24.1","","101.52","","","","","","Cloudy"
"2003-11-10 22:00","2003","11","10","22:00","6.2","","-1.1","","59","","21","","19","","24.1","","101.45","","","","","","Mostly Cloudy"
"2003-11-10 23:00","2003","11","10","23:00","6.6","","-1.5","","56","","20","","20","","24.1","","101.42","","","","","","Mostly Cloudy"
"2003-11-11 00:00","2003","11","11","00:00"
"2003-11-11 01:00","2003","11","11","01:00"
"2003-11-11 02:00","2003","11","11","02:00"
"2003-11-11 03:00","2003","11","11","03:00"
"2003-11-11 04:00","2003","11","11","04:00"
"2003-11-11 05:00","2003","11","11","05:00"
"2003-11-11 06:00","2003","11","11","06:00","6.4","","0.9","","68","","18","","20","","24.1","","100.82","","","","","","Cloudy"
"2003-11-11 07:00","2003","11","11","07:00","6.9","","1.4","","68","","18","","22","","24.1","","100.80","","","","","","Cloudy"
"2003-11-11 08:00","2003","11","11","08:00","6.1","","1.5","","72","","15","","24","","19.3","","100.68","","","","","","Cloudy"
"2003-11-11 09:00","2003","11","11","09:00","7.3","","0.7","","63","","16","","32","","19.3","","100.60","","","","","","Cloudy"
"2003-11-11 10:00","2003","11","11","10:00","6.3","","2.6","","77","","16","","37","","16.1","","100.41","","","","","","Rain Showers"
"2003-11-11 11:00","2003","11","11","11:00","5.9","","3.6","","85","","18","","39","","12.9","","100.22","","","","","","Rain Showers"
"2003-11-11 12:00","2003","11","11","12:00","5.0","","4.1","","94","","18","","48","","6.4","","100.06","","","","","","Rain,Fog"
"2003-11-11 13:00","2003","11","11","13:00","5.7","","5.2","","97","","18","","44","","4.0","","99.90","","","","","","Rain,Fog"
"2003-11-11 14:00","2003","11","11","14:00","6.7","","6.5","","99","","19","","37","","3.2","","99.80","","","","","","Rain,Fog"
"2003-11-11 15:00","2003","11","11","15:00","7.0","","6.7","","98","","20","","41","","4.8","","99.74","","","","","","Rain,Fog"
"2003-11-11 16:00","2003","11","11","16:00","7.7","","7.6","","99","","21","","30","","8.0","","99.78","","","","","","Fog"
"2003-11-11 17:00","2003","11","11","17:00","8.8","","8.4","","97","","21","","28","","12.9","","99.79","","","","","","Cloudy"
"2003-11-11 18:00","2003","11","11","18:00","9.6","","9.1","","97","","23","","17","","12.9","","99.86","","","","","","Cloudy"
"2003-11-11 19:00","2003","11","11","19:00","9.8","","9.0","","95","","25","","13","","12.9","","99.91","","","","","","Cloudy"
"2003-11-11 20:00","2003","11","11","20:00","9.8","","8.7","","93","","26","","13","","12.9","","99.92","","","","","","Cloudy"
"2003-11-11 21:00","2003","11","11","21:00","10.0","","8.6","","91","","25","","11","","12.9","","99.95","","","","","","Cloudy"
"2003-11-11 22:00","2003","11","11","22:00","9.7","","8.4","","92","","24","","15","","19.3","","99.98","","","","","","Cloudy"
"2003-11-11 23:00","2003","11","11","23:00","9.6","","7.9","","89","","24","","11","","24.1","","99.99","","","","","","Cloudy"
"2003-11-12 00:00","2003","11","12","00:00"
"2003-11-12 01:00","2003","11","12","01:00"
"2003-11-12 02:00","2003","11","12","02:00"
"2003-11-12 03:00","2003","11","12","03:00"
"2003-11-12 04:00","2003","11","12","04:00"
"2003-11-12 05:00","2003","11","12","05:00"
"2003-11-12 06:00","2003","11","12","06:00","9.4","","9.4","","100","","25","","6","","12.9","","99.94","","","","","","Cloudy"
"2003-11-12 07:00","2003","11","12","07:00","9.1","","9.1","","100","","25","","6","","4.8","","99.94","","","","","","Fog"
"2003-11-12 08:00","2003","11","12","08:00","9.2","","9.1","","99","","27","","6","","6.4","","99.97","","","","","","Fog"
"2003-11-12 09:00","2003","11","12","09:00","9.3","","8.6","","95","","29","","7","","9.7","","99.99","","","","","","Fog"
"2003-11-12 10:00","2003","11","12","10:00","10.2","","8.2","","87","","2","","4","","11.3","","99.93","","","","","","Mostly Cloudy"
"2003-11-12 11:00","2003","11","12","11:00","11.2","","9.0","","86","","26","","6","","16.1","","99.94","","","","","","Mostly Cloudy"
"2003-11-12 12:00","2003","11","12","12:00","10.8","","8.2","","84","","19","","7","","24.1","","99.87","","","","","","Mainly Clear"
"2003-11-12 13:00","2003","11","12","13:00","10.6","","8.8","","89","","18","","13","","24.1","","99.79","","","","","","Mostly Cloudy"
"2003-11-12 14:00","2003","11","12","14:00","10.9","","8.8","","87","","17","","11","","24.1","","99.70","","","","","","Mostly Cloudy"
"2003-11-12 15:00","2003","11","12","15:00","10.5","","8.6","","88","","16","","9","","24.1","","99.63","","","","","","Mostly Cloudy"
"2003-11-12 16:00","2003","11","12","16:00","9.8","","7.9","","88","","16","","6","","24.1","","99.60","","","","","","Mostly Cloudy"
"2003-11-12 17:00","2003","11","12","17:00","9.5","","6.1","","79","","11","","9","","19.3","","99.42","","","","","","Thunderstorms"
"2003-11-12 18:00","2003","11","12","18:00","9.3","","8.0","","92","","9","","9","","8.0","","99.28","","","","","","Moderate Rain Showers,Fog"
"2003-11-12 19:00","2003","11","12","19:00","10.4","","9.2","","92","","2","","7","","19.3","","99.08","","","","","","Thunderstorms"
"2003-11-12 20:00","2003","11","12","20:00","10.2","","9.4","","95","","8","","15","","16.1","","98.80","","","","","","Rain Showers"
"2003-11-12 21:00","2003","11","12","21:00","10.8","","9.7","","93","","10","","7","","12.9","","98.59","","","","","","Thunderstorms,Rain Showers"
"2003-11-12 22:00","2003","11","12","22:00","10.9","","10.3","","96","","15","","17","","4.8","","98.30","","","","","","Thunderstorms,Moderate Rain Showers,Fog"
"2003-11-12 23:00","2003","11","12","23:00","11.7","","10.0","","89","","17","","37","","24.1","","97.97","","","","","","Cloudy"
"2003-11-13 00:00","2003","11","13","00:00"
"2003-11-13 01:00","2003","11","13","01:00"
"2003-11-13 02:00","2003","11","13","02:00"
"2003-11-13 03:00","2003","11","13","03:00"
"2003-11-13 04:00","2003","11","13","04:00"
"2003-11-13 05:00","2003","11","13","05:00"
"2003-11-13 06:00","2003","11","13","06:00","6.8","","2.5","","74","","25","","56","","24.1","","97.60","","","","","","Cloudy"
"2003-11-13 07:00","2003","11","13","07:00","5.5","","2.4","","80","","26","","54","","19.3","","97.57","","","","","","Rain Showers"
"2003-11-13 08:00","2003","11","13","08:00","4.8","","2.5","","85","","25","","54","","19.3","","97.55","","","","","","Rain Showers"
"2003-11-13 09:00","2003","11","13","09:00","3.8","","2.1","","89","","25","","37","","8.0","","97.44","","","","","","Rain Showers,Fog"
"2003-11-13 10:00","2003","11","13","10:00","3.9","","1.4","","84","","26","","56","","9.7","","97.33","","","","","","Rain Showers,Fog"
"2003-11-13 11:00","2003","11","13","11:00","3.9","","2.5","","91","","26","","44","","16.1","","97.36","","","","","","Rain Showers"
"2003-11-13 12:00","2003","11","13","12:00","3.7","","2.4","","91","","28","","30","","19.3","","97.41","","","","","","Cloudy"
"2003-11-13 13:00","2003","11","13","13:00","3.6","","1.6","","87","","31","","43","","12.9","","97.58","","","","","","Rain Showers"
"2003-11-13 14:00","2003","11","13","14:00","3.6","","-0.6","","74","","31","","37","","24.1","","97.78","","","","","","Cloudy"
"2003-11-13 15:00","2003","11","13","15:00","3.0","","-1.5","","72","","31","","44","","24.1","","98.02","","","","","","Cloudy"
"2003-11-13 16:00","2003","11","13","16:00","2.2","","-1.8","","75","","31","","44","","24.1","","98.27","","","","","","Cloudy"
"2003-11-13 17:00","2003","11","13","17:00","2.0","","-3.2","","68","","31","","41","","24.1","","98.47","","","","","","Cloudy"
"2003-11-13 18:00","2003","11","13","18:00","1.5","","-5.3","","61","","31","","37","","24.1","","98.72","","","","","","Mostly Cloudy"
"2003-11-13 19:00","2003","11","13","19:00","1.0","","-5.9","","60","","31","","37","","24.1","","98.91","","","","","","Mostly Cloudy"
"2003-11-13 20:00","2003","11","13","20:00","0.3","","-6.6","","60","","30","","33","","24.1","","99.07","","","","","","Mostly Cloudy"
"2003-11-13 21:00","2003","11","13","21:00","-0.7","","-7.7","","59","","31","","30","","24.1","","99.24","","","","-7","","Snow Showers"
"2003-11-13 22:00","2003","11","13","22:00","-1.2","","-8.2","","59","","31","","33","","24.1","","99.35","","","","-8","","Snow Showers"
"2003-11-13 23:00","2003","11","13","23:00","-1.4","","-8.4","","59","","30","","37","","24.1","","99.46","","","","-9","","Mostly Cloudy"
"2003-11-14 00:00","2003","11","14","00:00"
"2003-11-14 01:00","2003","11","14","01:00"
"2003-11-14 02:00","2003","11","14","02:00"
"2003-11-14 03:00","2003","11","14","03:00"
"2003-11-14 04:00","2003","11","14","04:00"
"2003-11-14 05:00","2003","11","14","05:00"
"2003-11-14 06:00","2003","11","14","06:00","-5.6","","-11.7","","62","","30","","17","","24.1","","99.95","","","","-12","","Mainly Clear"
"2003-11-14 07:00","2003","11","14","07:00","-5.6","","-12.0","","61","","31","","24","","24.1","","99.97","","","","-13","","Mainly Clear"
"2003-11-14 08:00","2003","11","14","08:00","-5.2","","-12.0","","59","","29","","20","","24.1","","100.04","","","","-12","","Mainly Clear"
"2003-11-14 09:00","2003","11","14","09:00","-4.1","","-11.7","","55","","30","","24","","24.1","","100.06","","","","-11","","Mainly Clear"
"2003-11-14 10:00","2003","11","14","10:00","-2.7","","-11.6","","50","","30","","13","","24.1","","100.04","","","","-7","","Mostly Cloudy"
"2003-11-14 11:00","2003","11","14","11:00","-1.3","","-11.5","","46","","29","","20","","24.1","","99.97","","","","-7","","Mostly Cloudy"
"2003-11-14 12:00","2003","11","14","12:00","-0.1","","-9.8","","48","","28","","20","","24.1","","99.87","","","","-5","","Mainly Clear"
"2003-11-14 13:00","2003","11","14","13:00","2.2","","-6.7","","52","","29","","32","","24.1","","99.75","","","","","","Mainly Clear"
"2003-11-14 14:00","2003","11","14","14:00","2.1","","-5.8","","56","","30","","24","","24.1","","99.73","","","","","","Mostly Cloudy"
"2003-11-14 15:00","2003","11","14","15:00","1.6","","-5.3","","60","","29","","22","","24.1","","99.73","","","","","","Mostly Cloudy"
"2003-11-14 16:00","2003","11","14","16:00","0.7","","-5.2","","65","","28","","22","","24.1","","99.76","","","","","","Mainly Clear"
"2003-11-14 17:00","2003","11","14","17:00","-0.5","","-4.9","","72","","29","","15","","24.1","","99.82","","","","-5","","Mainly Clear"
"2003-11-14 18:00","2003","11","14","18:00","-0.9","","-4.2","","78","","29","","17","","24.1","","99.90","","","","-6","","Mainly Clear"
"2003-11-14 19:00","2003","11","14","19:00","-1.4","","-4.2","","81","","30","","17","","24.1","","99.96","","","","-7","","Mainly Clear"
"2003-11-14 20:00","2003","11","14","20:00","-2.0","","-4.5","","83","","31","","13","","24.1","","100.01","","","","-6","","Clear"
"2003-11-14 21:00","2003","11","14","21:00","-2.9","","-5.7","","81","","30","","11","","24.1","","100.13","","","","-7","","Clear"
"2003-11-14 22:00","2003","11","14","22:00","-3.9","","-8.1","","73","","33","","7","","24.1","","100.21","","","","-7","","Clear"
"2003-11-14 23:00","2003","11","14","23:00","-3.9","","-8.9","","68","","29","","11","","24.1","","100.27","","","","-8","","Mainly Clear"
"2003-11-15 00:00","2003","11","15","00:00"
"2003-11-15 01:00","2003","11","15","01:00"
"2003-11-15 02:00","2003","11","15","02:00"
"2003-11-15 03:00","2003","11","15","03:00"
"2003-11-15 04:00","2003","11","15","04:00"
"2003-11-15 05:00","2003","11","15","05:00"
"2003-11-15 06:00","2003","11","15","06:00","-6.4","","-8.6","","84","","30","","9","","24.1","","100.67","","","","-11","","Clear"
"2003-11-15 07:00","2003","11","15","07:00","-6.8","","-8.6","","87","","30","","9","","24.1","","100.72","","","","-11","","Clear"
"2003-11-15 08:00","2003","11","15","08:00","-5.9","","-8.2","","84","","29","","9","","24.1","","100.79","","","","-10","","Clear"
"2003-11-15 09:00","2003","11","15","09:00","-3.8","","-7.5","","75","","30","","9","","24.1","","100.86","","","","-8","","Clear"
"2003-11-15 10:00","2003","11","15","10:00","-2.2","","-8.4","","62","","34","","7","","24.1","","100.89","","","","-5","","Clear"
"2003-11-15 11:00","2003","11","15","11:00","-0.6","","-9.2","","52","","2","","7","","24.1","","100.87","","","","-3","","Clear"
"2003-11-15 12:00","2003","11","15","12:00","1.1","","-10.1","","43","","35","","7","","24.1","","100.83","","","","","","Clear"
"2003-11-15 13:00","2003","11","15","13:00","2.2","","-10.2","","39","","24","","7","","24.1","","100.80","","","","","","Mainly Clear"
"2003-11-15 14:00","2003","11","15","14:00","2.6","","-8.7","","43","","25","","13","","24.1","","100.80","","","","","","Mainly Clear"
"2003-11-15 15:00","2003","11","15","15:00","3.2","","-8.4","","42","","26","","17","","24.1","","100.81","","","","","","Mainly Clear"
"2003-11-15 16:00","2003","11","15","16:00","3.0","","-8.4","","43","","27","","11","","24.1","","100.81","","","","","","Mainly Clear"
"2003-11-15 17:00","2003","11","15","17:00","2.1","","-6.7","","52","","28","","9","","24.1","","100.79","","","","","","Mainly Clear"
"2003-11-15 18:00","2003","11","15","18:00","1.8","","-6.9","","52","","27","","11","","24.1","","100.83","","","","","","Mainly Clear"
"2003-11-15 19:00","2003","11","15","19:00","1.6","","-5.8","","58","","27","","11","","24.1","","100.85","","","","","","Mainly Clear"
"2003-11-15 20:00","2003","11","15","20:00","0.5","","-4.0","","72","","28","","9","","24.1","","100.88","","","","","","Mainly Clear"
"2003-11-15 21:00","2003","11","15","21:00","-0.7","","-4.6","","75","","33","","7","","24.1","","100.91","","","","-3","","Clear"
"2003-11-15 22:00","2003","11","15","22:00","-1.4","","-4.6","","79","","29","","9","","24.1","","100.96","","","","-5","","Clear"
"2003-11-15 23:00","2003","11","15","23:00","-2.1","","-5.1","","80","","32","","7","","24.1","","100.97","","","","-5","","Clear"
"2003-11-16 00:00","2003","11","16","00:00"
"2003-11-16 01:00","2003","11","16","01:00"
"2003-11-16 02:00","2003","11","16","02:00"
"2003-11-16 03:00","2003","11","16","03:00"
"2003-11-16 04:00","2003","11","16","04:00"
"2003-11-16 05:00","2003","11","16","05:00"
"2003-11-16 06:00","2003","11","16","06:00","1.5","","-3.3","","70","","11","","7","","24.1","","101.14","","","","","","Cloudy"
"2003-11-16 07:00","2003","11","16","07:00","0.8","","-3.1","","75","","7","","9","","24.1","","101.17","","","","","","Cloudy"
"2003-11-16 08:00","2003","11","16","08:00","0.7","","-3.4","","74","","7","","7","","24.1","","101.22","","","","","","Cloudy"
"2003-11-16 09:00","2003","11","16","09:00","1.3","","-2.7","","75","","9","","6","","24.1","","101.25","","","","","","Cloudy"
"2003-11-16 10:00","2003","11","16","10:00","2.6","","-3.0","","67","","9","","7","","24.1","","101.27","","","","","","Cloudy"
"2003-11-16 11:00","2003","11","16","11:00","3.2","","-2.3","","67","","9","","11","","24.1","","101.27","","","","","","Cloudy"
"2003-11-16 12:00","2003","11","16","12:00","3.7","","-2.0","","66","","9","","11","","24.1","","101.21","","","","","","Cloudy"
"2003-11-16 13:00","2003","11","16","13:00","3.6","","-2.1","","66","","8","","9","","24.1","","101.20","","","","","","Cloudy"
"2003-11-16 14:00","2003","11","16","14:00","3.6","","-2.0","","67","","9","","9","","24.1","","101.16","","","","","","Cloudy"
"2003-11-16 15:00","2003","11","16","15:00","3.1","","-2.8","","65","","5","","9","","24.1","","101.18","","","","","","Mostly Cloudy"
"2003-11-16 16:00","2003","11","16","16:00","3.3","","-2.5","","66","","5","","11","","24.1","","101.17","","","","","","Mostly Cloudy"
"2003-11-16 17:00","2003","11","16","17:00","2.2","","-2.5","","71","","7","","9","","24.1","","101.17","","","","","","Mainly Clear"
"2003-11-16 18:00","2003","11","16","18:00","2.1","","-2.5","","72","","7","","7","","24.1","","101.22","","","","","","Mostly Cloudy"
"2003-11-16 19:00","2003","11","16","19:00","0.8","","-3.0","","76","","8","","11","","24.1","","101.22","","","","","","Mainly Clear"
"2003-11-16 20:00","2003","11","16","20:00","0.6","","-3.5","","74","","7","","9","","24.1","","101.23","","","","","","Mainly Clear"
"2003-11-16 21:00","2003","11","16","21:00","0.1","","-3.4","","77","","5","","6","","24.1","","101.20","","","","","","Mostly Cloudy"
"2003-11-16 22:00","2003","11","16","22:00","0.3","","-3.4","","76","","5","","11","","24.1","","101.18","","","","","","Mostly Cloudy"
"2003-11-16 23:00","2003","11","16","23:00","0.1","","-3.5","","77","","5","","11","","24.1","","101.15","","","","","","Mostly Cloudy"
"2003-11-17 00:00","2003","11","17","00:00"
"2003-11-17 01:00","2003","11","17","01:00"
"2003-11-17 02:00","2003","11","17","02:00"
"2003-11-17 03:00","2003","11","17","03:00"
"2003-11-17 04:00","2003","11","17","04:00"
"2003-11-17 05:00","2003","11","17","05:00"
"2003-11-17 06:00","2003","11","17","06:00","0.2","","-3.2","","78","","1","","13","","16.1","","101.16","","","","","","Freezing Rain"
"2003-11-17 07:00","2003","11","17","07:00","0.1","","-2.4","","83","","3","","19","","11.3","","101.17","","","","","","Rain,Freezing Rain"
"2003-11-17 08:00","2003","11","17","08:00","0.2","","-1.7","","87","","4","","15","","11.3","","101.21","","","","","","Rain,Freezing Rain"
"2003-11-17 09:00","2003","11","17","09:00","0.3","","-1.5","","88","","4","","20","","11.3","","101.24","","","","","","Rain,Freezing Rain"
"2003-11-17 10:00","2003","11","17","10:00","0.4","","-1.4","","88","","3","","17","","16.1","","101.32","","","","","","Cloudy"
"2003-11-17 11:00","2003","11","17","11:00","0.8","","-0.9","","88","","2","","13","","24.1","","101.35","","","","","","Cloudy"
"2003-11-17 12:00","2003","11","17","12:00","1.8","","-0.5","","85","","3","","13","","24.1","","101.34","","","","","","Mostly Cloudy"
"2003-11-17 13:00","2003","11","17","13:00","3.3","","0.9","","84","","4","","15","","24.1","","101.33","","","","","","Mostly Cloudy"
"2003-11-17 14:00","2003","11","17","14:00","4.6","","1.2","","79","","4","","9","","24.1","","101.30","","","","","","Mainly Clear"
"2003-11-17 15:00","2003","11","17","15:00","4.7","","0.9","","76","","35","","11","","24.1","","101.39","","","","","","Mostly Cloudy"
"2003-11-17 16:00","2003","11","17","16:00","3.8","","-0.7","","72","","5","","7","","24.1","","101.43","","","","","","Mostly Cloudy"
"2003-11-17 17:00","2003","11","17","17:00","3.3","","-1.1","","73","","6","","4","","24.1","","101.48","","","","","","Mainly Clear"
"2003-11-17 18:00","2003","11","17","18:00","2.8","","-1.2","","75","","4","","6","","24.1","","101.55","","","","","","Mostly Cloudy"
"2003-11-17 19:00","2003","11","17","19:00","2.3","","-1.7","","75","","7","","6","","24.1","","101.50","","","","","","Mainly Clear"
"2003-11-17 20:00","2003","11","17","20:00","1.8","","-2.3","","74","","7","","6","","24.1","","101.48","","","","","","Clear"
"2003-11-17 21:00","2003","11","17","21:00","0.1","","-2.7","","81","","2","","6","","24.1","","101.57","","","","","","Mainly Clear"
"2003-11-17 22:00","2003","11","17","22:00","-0.4","","-2.7","","84","","1","","7","","24.1","","101.60","","","","-3","","Mainly Clear"
"2003-11-17 23:00","2003","11","17","23:00","0.0","","-2.8","","81","","5","","6","","24.1","","101.57","","","","-2","","Clear"
"2003-11-18 00:00","2003","11","18","00:00"
"2003-11-18 01:00","2003","11","18","01:00"
"2003-11-18 02:00","2003","11","18","02:00"
"2003-11-18 03:00","2003","11","18","03:00"
"2003-11-18 04:00","2003","11","18","04:00"
"2003-11-18 05:00","2003","11","18","05:00"
"2003-11-18 06:00","2003","11","18","06:00","3.6","","3.2","","97","","13","","19","","6.4","","101.45","","","","","","Fog"
"2003-11-18 07:00","2003","11","18","07:00","3.7","","3.3","","97","","11","","13","","9.7","","101.38","","","","","","Fog"
"2003-11-18 08:00","2003","11","18","08:00","4.4","","3.7","","95","","12","","19","","16.1","","101.36","","","","","","Cloudy"
"2003-11-18 09:00","2003","11","18","09:00","5.1","","4.1","","93","","9","","19","","16.1","","101.21","","","","","","Mostly Cloudy"
"2003-11-18 10:00","2003","11","18","10:00","6.7","","5.0","","89","","13","","15","","19.3","","101.17","","","","","","Mainly Clear"
"2003-11-18 11:00","2003","11","18","11:00","7.7","","6.0","","89","","16","","15","","24.1","","101.14","","","","","","Cloudy"
"2003-11-18 12:00","2003","11","18","12:00","8.7","","6.4","","85","","16","","32","","24.1","","100.99","","","","","","Mostly Cloudy"
"2003-11-18 13:00","2003","11","18","13:00","8.9","","6.6","","85","","15","","24","","19.3","","100.89","","","","","","Mostly Cloudy"
"2003-11-18 14:00","2003","11","18","14:00","9.1","","6.8","","86","","15","","20","","24.1","","100.74","","","","","","Cloudy"
"2003-11-18 15:00","2003","11","18","15:00","9.5","","7.4","","87","","16","","17","","24.1","","100.68","","","","","","Cloudy"
"2003-11-18 16:00","2003","11","18","16:00","9.5","","7.1","","85","","15","","22","","24.1","","100.58","","","","","","Cloudy"
"2003-11-18 17:00","2003","11","18","17:00","9.6","","6.9","","83","","16","","28","","24.1","","100.52","","","","","","Cloudy"
"2003-11-18 18:00","2003","11","18","18:00","9.4","","7.3","","87","","16","","24","","24.1","","100.46","","","","","","Cloudy"
"2003-11-18 19:00","2003","11","18","19:00","9.5","","7.7","","89","","16","","24","","24.1","","100.34","","","","","","Cloudy"
"2003-11-18 20:00","2003","11","18","20:00","9.5","","7.8","","89","","17","","32","","24.1","","100.25","","","","","","Cloudy"
"2003-11-18 21:00","2003","11","18","21:00","9.5","","7.9","","90","","17","","28","","19.3","","100.14","","","","","","Cloudy"
"2003-11-18 22:00","2003","11","18","22:00","9.8","","8.1","","89","","17","","32","","19.3","","99.98","","","","","","Cloudy"
"2003-11-18 23:00","2003","11","18","23:00","10.0","","8.3","","89","","17","","30","","11.3","","99.91","","","","","","Cloudy"
"2003-11-19 00:00","2003","11","19","00:00"
"2003-11-19 01:00","2003","11","19","01:00"
"2003-11-19 02:00","2003","11","19","02:00"
"2003-11-19 03:00","2003","11","19","03:00"
"2003-11-19 04:00","2003","11","19","04:00"
"2003-11-19 05:00","2003","11","19","05:00"
"2003-11-19 06:00","2003","11","19","06:00","10.4","","10.0","","97","","19","","26","","9.7","","99.38","","","","","","Rain,Fog"
"2003-11-19 07:00","2003","11","19","07:00","10.5","","10.3","","99","","20","","22","","4.8","","99.35","","","","","","Rain,Fog"
"2003-11-19 08:00","2003","11","19","08:00","11.0","","10.4","","96","","18","","35","","16.1","","99.19","","","","","","Rain"
"2003-11-19 09:00","2003","11","19","09:00","10.8","","10.5","","98","","18","","32","","16.1","","99.12","","","","","","Rain"
"2003-11-19 10:00","2003","11","19","10:00","10.9","","10.8","","99","","18","","35","","12.9","","99.04","","","","","","Rain"
"2003-11-19 11:00","2003","11","19","11:00","11.2","","11.1","","99","","17","","33","","4.8","","98.92","","","","","","Rain,Fog"
"2003-11-19 12:00","2003","11","19","12:00","11.3","","11.3","","100","","16","","28","","6.4","","98.72","","","","","","Rain,Fog"
"2003-11-19 13:00","2003","11","19","13:00","12.8","","12.8","","100","","14","","35","","4.8","","98.46","","","","","","Rain,Fog"
"2003-11-19 14:00","2003","11","19","14:00","14.2","","13.7","","97","","13","","24","","16.1","","98.07","","","","","","Rain"
"2003-11-19 15:00","2003","11","19","15:00","14.4","","13.2","","92","","14","","24","","11.3","","97.97","","","","","","Rain"
"2003-11-19 16:00","2003","11","19","16:00","13.0","","12.3","","96","","22","","19","","9.7","","98.01","","","","","","Rain,Fog"
"2003-11-19 17:00","2003","11","19","17:00","11.2","","10.4","","95","","32","","15","","19.3","","98.22","","","","","","Rain"
"2003-11-19 18:00","2003","11","19","18:00","10.3","","9.5","","95","","27","","15","","19.3","","98.57","","","","","","Rain"
"2003-11-19 19:00","2003","11","19","19:00","9.7","","9.0","","95","","26","","17","","12.9","","98.74","","","","","","Rain"
"2003-11-19 20:00","2003","11","19","20:00","9.1","","7.9","","92","","27","","13","","24.1","","98.83","","","","","","Cloudy"
"2003-11-19 21:00","2003","11","19","21:00","8.7","","7.5","","92","","27","","13","","24.1","","98.93","","","","","","Cloudy"
"2003-11-19 22:00","2003","11","19","22:00","8.3","","7.2","","93","","28","","7","","24.1","","98.94","","","","","","Cloudy"
"2003-11-19 23:00","2003","11","19","23:00","8.0","","6.6","","91","","27","","11","","24.1","","99.06","","","","","","Cloudy"
"2003-11-20 00:00","2003","11","20","00:00"
"2003-11-20 01:00","2003","11","20","01:00"
"2003-11-20 02:00","2003","11","20","02:00"
"2003-11-20 03:00","2003","11","20","03:00"
"2003-11-20 04:00","2003","11","20","04:00"
"2003-11-20 05:00","2003","11","20","05:00"
"2003-11-20 06:00","2003","11","20","06:00","3.8","","2.4","","91","","30","","7","","24.1","","99.62","","","","","","Mainly Clear"
"2003-11-20 07:00","2003","11","20","07:00","2.6","","1.5","","92","","33","","7","","24.1","","99.78","","","","","","Mainly Clear"
"2003-11-20 08:00","2003","11","20","08:00","2.9","","1.8","","92","","34","","7","","24.1","","99.91","","","","","","Mainly Clear"
"2003-11-20 09:00","2003","11","20","09:00","4.7","","2.9","","88","","34","","6","","24.1","","99.98","","","","","","Mainly Clear"
"2003-11-20 10:00","2003","11","20","10:00","6.5","","3.9","","83","","32","","11","","24.1","","100.04","","","","","","Mostly Cloudy"
"2003-11-20 11:00","2003","11","20","11:00","6.2","","2.9","","79","","32","","17","","24.1","","100.08","","","","","","Mostly Cloudy"
"2003-11-20 12:00","2003","11","20","12:00","7.7","","3.1","","73","","36","","11","","24.1","","100.07","","","","","","Mainly Clear"
"2003-11-20 13:00","2003","11","20","13:00","7.8","","1.1","","63","","30","","9","","24.1","","100.03","","","","","","Mostly Cloudy"
"2003-11-20 14:00","2003","11","20","14:00","8.3","","1.6","","63","","1","","13","","24.1","","100.07","","","","","","Mostly Cloudy"
"2003-11-20 15:00","2003","11","20","15:00","8.4","","0.8","","59","","33","","6","","24.1","","100.09","","","","","","Mainly Clear"
"2003-11-20 16:00","2003","11","20","16:00","8.4","","1.0","","60","","27","","4","","24.1","","100.14","","","","","","Mainly Clear"
"2003-11-20 17:00","2003","11","20","17:00","6.1","","0.5","","67","","","","0","","24.1","","100.16","","","","","","Mainly Clear"
"2003-11-20 18:00","2003","11","20","18:00","5.8","","0.6","","69","","27","","11","","24.1","","100.20","","","","","","Mainly Clear"
"2003-11-20 19:00","2003","11","20","19:00","5.0","","1.2","","76","","28","","9","","24.1","","100.22","","","","","","Clear"
"2003-11-20 20:00","2003","11","20","20:00","3.8","","0.9","","81","","28","","9","","24.1","","100.18","","","","","","Clear"
"2003-11-20 21:00","2003","11","20","21:00","4.7","","2.1","","83","","27","","7","","24.1","","100.18","","","","","","Clear"
"2003-11-20 22:00","2003","11","20","22:00","4.3","","2.4","","87","","20","","6","","24.1","","100.15","","","","","","Clear"
"2003-11-20 23:00","2003","11","20","23:00","5.6","","3.2","","85","","22","","9","","24.1","","100.13","","","","","","Clear"
"2003-11-21 00:00","2003","11","21","00:00"
"2003-11-21 01:00","2003","11","21","01:00"
"2003-11-21 02:00","2003","11","21","02:00"
"2003-11-21 03:00","2003","11","21","03:00"
"2003-11-21 04:00","2003","11","21","04:00"
"2003-11-21 05:00","2003","11","21","05:00"
"2003-11-21 06:00","2003","11","21","06:00","6.9","","5.2","","89","","20","","17","","24.1","","100.00","","","","","","Clear"
"2003-11-21 07:00","2003","11","21","07:00","7.2","","5.2","","87","","20","","20","","24.1","","100.06","","","","","","Clear"
"2003-11-21 08:00","2003","11","21","08:00","7.6","","5.9","","89","","20","","15","","24.1","","100.10","","","","","","Clear"
"2003-11-21 09:00","2003","11","21","09:00","8.5","","6.8","","89","","22","","15","","24.1","","100.16","","","","","","Mainly Clear"
"2003-11-21 10:00","2003","11","21","10:00","9.4","","7.4","","87","","22","","13","","24.1","","100.18","","","","","","Mainly Clear"
"2003-11-21 11:00","2003","11","21","11:00","10.9","","7.4","","79","","25","","13","","24.1","","100.20","","","","","","Mainly Clear"
"2003-11-21 12:00","2003","11","21","12:00","12.7","","7.7","","72","","29","","11","","24.1","","100.18","","","","","","Mainly Clear"
"2003-11-21 13:00","2003","11","21","13:00","12.7","","7.9","","73","","25","","9","","24.1","","100.21","","","","","","Mainly Clear"
"2003-11-21 14:00","2003","11","21","14:00","14.8","","7.4","","61","","27","","9","","24.1","","100.22","","","","","","Mainly Clear"
"2003-11-21 15:00","2003","11","21","15:00","14.0","","7.4","","64","","28","","7","","24.1","","100.30","","","","","","Mainly Clear"
"2003-11-21 16:00","2003","11","21","16:00","13.8","","5.5","","57","","31","","7","","24.1","","100.35","","","","","","Mainly Clear"
"2003-11-21 17:00","2003","11","21","17:00","9.3","","6.8","","84","","25","","11","","24.1","","100.42","","","","","","Mainly Clear"
"2003-11-21 18:00","2003","11","21","18:00","8.8","","7.0","","88","","27","","9","","24.1","","100.50","","","","","","Clear"
"2003-11-21 19:00","2003","11","21","19:00","8.1","","5.4","","83","","28","","6","","24.1","","100.58","","","","","","Clear"
"2003-11-21 20:00","2003","11","21","20:00","6.6","","2.3","","74","","34","","9","","24.1","","100.64","","","","","","Clear"
"2003-11-21 21:00","2003","11","21","21:00","6.1","","3.2","","82","","36","","11","","24.1","","100.68","","","","","","Clear"
"2003-11-21 22:00","2003","11","21","22:00","4.5","","3.0","","90","","36","","11","","24.1","","100.73","","","","","","Clear"
"2003-11-21 23:00","2003","11","21","23:00","5.5","","3.2","","85","","2","","13","","24.1","","100.82","","","","","","Clear"
"2003-11-22 00:00","2003","11","22","00:00"
"2003-11-22 01:00","2003","11","22","01:00"
"2003-11-22 02:00","2003","11","22","02:00"
"2003-11-22 03:00","2003","11","22","03:00"
"2003-11-22 04:00","2003","11","22","04:00"
"2003-11-22 05:00","2003","11","22","05:00"
"2003-11-22 06:00","2003","11","22","06:00","2.0","","1.0","","93","","5","","9","","24.1","","100.99","","","","","","Mainly Clear"
"2003-11-22 07:00","2003","11","22","07:00","2.4","","1.4","","93","","4","","11","","24.1","","101.01","","","","","","Mostly Cloudy"
"2003-11-22 08:00","2003","11","22","08:00","2.8","","1.4","","90","","5","","15","","24.1","","101.04","","","","","","Mostly Cloudy"
"2003-11-22 09:00","2003","11","22","09:00","4.4","","1.9","","84","","5","","17","","24.1","","101.10","","","","","","Mostly Cloudy"
"2003-11-22 10:00","2003","11","22","10:00","5.9","","2.4","","78","","6","","17","","24.1","","101.12","","","","","","Mostly Cloudy"
"2003-11-22 11:00","2003","11","22","11:00","6.3","","2.3","","76","","6","","19","","24.1","","101.10","","","","","","Mostly Cloudy"
"2003-11-22 12:00","2003","11","22","12:00","7.5","","2.6","","71","","7","","17","","24.1","","101.03","","","","","","Mostly Cloudy"
"2003-11-22 13:00","2003","11","22","13:00","8.8","","3.1","","67","","6","","19","","24.1","","100.91","","","","","","Mainly Clear"
"2003-11-22 14:00","2003","11","22","14:00","9.4","","2.6","","62","","8","","20","","24.1","","100.89","","","","","","Mainly Clear"
"2003-11-22 15:00","2003","11","22","15:00","9.3","","2.5","","62","","5","","17","","24.1","","100.85","","","","","","Mainly Clear"
"2003-11-22 16:00","2003","11","22","16:00","8.3","","1.4","","62","","5","","13","","24.1","","100.87","","","","","","Mainly Clear"
"2003-11-22 17:00","2003","11","22","17:00","7.2","","0.5","","62","","5","","17","","24.1","","100.87","","","","","","Mainly Clear"
"2003-11-22 18:00","2003","11","22","18:00","6.1","","-1.6","","58","","5","","22","","24.1","","100.84","","","","","","Mainly Clear"
"2003-11-22 19:00","2003","11","22","19:00","5.2","","-1.9","","60","","6","","17","","24.1","","100.92","","","","","","Clear"
"2003-11-22 20:00","2003","11","22","20:00","4.3","","-2.0","","64","","5","","15","","24.1","","100.93","","","","","","Clear"
"2003-11-22 21:00","2003","11","22","21:00","3.7","","-1.9","","67","","5","","20","","24.1","","100.91","","","","","","Mainly Clear"
"2003-11-22 22:00","2003","11","22","22:00","3.8","","-1.7","","67","","6","","19","","24.1","","100.90","","","","","","Cloudy"
"2003-11-22 23:00","2003","11","22","23:00","4.0","","-1.5","","67","","6","","19","","24.1","","100.90","","","","","","Cloudy"
"2003-11-23 00:00","2003","11","23","00:00"
"2003-11-23 01:00","2003","11","23","01:00"
"2003-11-23 02:00","2003","11","23","02:00"
"2003-11-23 03:00","2003","11","23","03:00"
"2003-11-23 04:00","2003","11","23","04:00"
"2003-11-23 05:00","2003","11","23","05:00"
"2003-11-23 06:00","2003","11","23","06:00","3.2","","-0.6","","76","","5","","15","","24.1","","100.89","","","","","","Mainly Clear"
"2003-11-23 07:00","2003","11","23","07:00","2.9","","-0.3","","79","","5","","9","","24.1","","100.88","","","","","","Mainly Clear"
"2003-11-23 08:00","2003","11","23","08:00","3.0","","-0.1","","80","","5","","11","","24.1","","100.88","","","","","","Mostly Cloudy"
"2003-11-23 09:00","2003","11","23","09:00","4.3","","0.9","","79","","6","","9","","24.1","","100.87","","","","","","Mostly Cloudy"
"2003-11-23 10:00","2003","11","23","10:00","6.5","","2.2","","74","","7","","9","","24.1","","100.85","","","","","","Mostly Cloudy"
"2003-11-23 11:00","2003","11","23","11:00","8.8","","4.0","","72","","10","","7","","24.1","","100.80","","","","","","Mostly Cloudy"
"2003-11-23 12:00","2003","11","23","12:00","9.8","","5.4","","74","","11","","9","","24.1","","100.71","","","","","","Cloudy"
"2003-11-23 13:00","2003","11","23","13:00","11.6","","6.4","","70","","14","","15","","24.1","","100.62","","","","","","Mostly Cloudy"
"2003-11-23 14:00","2003","11","23","14:00","13.7","","7.3","","65","","13","","15","","24.1","","100.48","","","","","","Cloudy"
"2003-11-23 15:00","2003","11","23","15:00","13.5","","7.4","","67","","14","","19","","24.1","","100.41","","","","","","Cloudy"
"2003-11-23 16:00","2003","11","23","16:00","11.1","","7.8","","80","","17","","24","","24.1","","100.37","","","","","","Cloudy"
"2003-11-23 17:00","2003","11","23","17:00","11.0","","7.7","","80","","17","","26","","24.1","","100.31","","","","","","Cloudy"
"2003-11-23 18:00","2003","11","23","18:00","10.6","","7.7","","82","","17","","20","","24.1","","100.29","","","","","","Cloudy"
"2003-11-23 19:00","2003","11","23","19:00","10.7","","7.5","","81","","17","","24","","24.1","","100.25","","","","","","Cloudy"
"2003-11-23 20:00","2003","11","23","20:00","10.6","","7.4","","81","","17","","24","","24.1","","100.21","","","","","","Cloudy"
"2003-11-23 21:00","2003","11","23","21:00","10.3","","7.5","","83","","17","","26","","24.1","","100.16","","","","","","Cloudy"
"2003-11-23 22:00","2003","11","23","22:00","10.1","","7.4","","83","","17","","28","","24.1","","100.13","","","","","","Cloudy"
"2003-11-23 23:00","2003","11","23","23:00","9.7","","7.3","","85","","18","","22","","24.1","","100.13","","","","","","Mostly Cloudy"
"2003-11-24 00:00","2003","11","24","00:00"
"2003-11-24 01:00","2003","11","24","01:00"
"2003-11-24 02:00","2003","11","24","02:00"
"2003-11-24 03:00","2003","11","24","03:00"
"2003-11-24 04:00","2003","11","24","04:00"
"2003-11-24 05:00","2003","11","24","05:00"
"2003-11-24 06:00","2003","11","24","06:00","9.3","","6.4","","82","","17","","24","","24.1","","99.85","","","","","","Mainly Clear"
"2003-11-24 07:00","2003","11","24","07:00","9.4","","6.6","","83","","18","","32","","24.1","","99.76","","","","","","Mostly Cloudy"
"2003-11-24 08:00","2003","11","24","08:00","9.5","","6.4","","81","","18","","37","","24.1","","99.69","","","","","","Mostly Cloudy"
"2003-11-24 09:00","2003","11","24","09:00","9.6","","6.4","","80","","17","","41","","24.1","","99.60","","","","","","Mostly Cloudy"
"2003-11-24 10:00","2003","11","24","10:00","10.2","","6.4","","77","","18","","41","","24.1","","99.53","","","","","","Mostly Cloudy"
"2003-11-24 11:00","2003","11","24","11:00","10.2","","6.0","","75","","17","","41","","24.1","","99.37","","","","","","Mostly Cloudy"
"2003-11-24 12:00","2003","11","24","12:00","10.6","","6.6","","76","","17","","37","","24.1","","99.28","","","","","","Cloudy"
"2003-11-24 13:00","2003","11","24","13:00","11.0","","7.1","","77","","18","","28","","24.1","","99.19","","","","","","Cloudy"
"2003-11-24 14:00","2003","11","24","14:00","11.3","","7.7","","78","","19","","30","","24.1","","99.09","","","","","","Cloudy"
"2003-11-24 15:00","2003","11","24","15:00","10.1","","8.1","","87","","18","","30","","24.1","","98.95","","","","","","Cloudy"
"2003-11-24 16:00","2003","11","24","16:00","11.7","","8.8","","82","","20","","35","","12.9","","98.93","","","","","","Rain Showers"
"2003-11-24 17:00","2003","11","24","17:00","5.9","","3.5","","85","","26","","39","","16.1","","99.24","","","","","","Rain"
"2003-11-24 18:00","2003","11","24","18:00","4.2","","2.2","","87","","27","","39","","16.1","","99.41","","","","","","Cloudy"
"2003-11-24 19:00","2003","11","24","19:00","3.8","","1.4","","84","","25","","46","","16.1","","99.55","","","","","","Rain"
"2003-11-24 20:00","2003","11","24","20:00","2.3","","0.0","","85","","25","","44","","12.9","","99.82","","","","","","Snow"
"2003-11-24 21:00","2003","11","24","21:00","2.8","","-0.2","","81","","26","","32","","24.1","","99.74","","","","","","Cloudy"
"2003-11-24 22:00","2003","11","24","22:00","2.8","","-2.1","","70","","26","","35","","24.1","","99.96","","","","","","Cloudy"
"2003-11-24 23:00","2003","11","24","23:00","2.1","","-3.4","","67","","25","","43","","24.1","","99.96","","","","","","Cloudy"
"2003-11-25 00:00","2003","11","25","00:00"
"2003-11-25 01:00","2003","11","25","01:00"
"2003-11-25 02:00","2003","11","25","02:00"
"2003-11-25 03:00","2003","11","25","03:00"
"2003-11-25 04:00","2003","11","25","04:00"
"2003-11-25 05:00","2003","11","25","05:00"
"2003-11-25 06:00","2003","11","25","06:00","0.1","","-7.5","","57","","27","","30","","24.1","","100.34","","","","","","Snow Showers"
"2003-11-25 07:00","2003","11","25","07:00","-0.3","","-7.7","","57","","27","","32","","24.1","","100.49","","","","-7","","Mostly Cloudy"
"2003-11-25 08:00","2003","11","25","08:00","-0.4","","-8.0","","56","","27","","22","","24.1","","100.55","","","","-6","","Mainly Clear"
"2003-11-25 09:00","2003","11","25","09:00","0.1","","-7.7","","56","","27","","28","","24.1","","100.68","","","","","","Mostly Cloudy"
"2003-11-25 10:00","2003","11","25","10:00","0.5","","-6.5","","59","","28","","20","","24.1","","100.77","","","","","","Mostly Cloudy"
"2003-11-25 11:00","2003","11","25","11:00","0.9","","-7.1","","55","","28","","20","","24.1","","100.78","","","","","","Mostly Cloudy"
"2003-11-25 12:00","2003","11","25","12:00","1.1","","-7.0","","55","","29","","22","","24.1","","100.76","","","","","","Mostly Cloudy"
"2003-11-25 13:00","2003","11","25","13:00","2.1","","-6.3","","54","","30","","17","","24.1","","100.72","","","","","","Mostly Cloudy"
"2003-11-25 14:00","2003","11","25","14:00","2.1","","-6.0","","55","","28","","15","","24.1","","100.72","","","","","","Mostly Cloudy"
"2003-11-25 15:00","2003","11","25","15:00","2.1","","-5.4","","58","","27","","11","","24.1","","100.72","","","","","","Mostly Cloudy"
"2003-11-25 16:00","2003","11","25","16:00","2.1","","-4.3","","63","","23","","13","","24.1","","100.75","","","","","","Cloudy"
"2003-11-25 17:00","2003","11","25","17:00","2.0","","-3.9","","65","","23","","19","","24.1","","100.74","","","","","","Cloudy"
"2003-11-25 18:00","2003","11","25","18:00","2.1","","-3.2","","68","","24","","22","","24.1","","100.73","","","","","","Cloudy"
"2003-11-25 19:00","2003","11","25","19:00","2.1","","-2.3","","73","","25","","13","","24.1","","100.68","","","","","","Cloudy"
"2003-11-25 20:00","2003","11","25","20:00","3.0","","-2.4","","68","","22","","15","","24.1","","100.66","","","","","","Cloudy"
"2003-11-25 21:00","2003","11","25","21:00","3.5","","-1.2","","71","","23","","13","","24.1","","100.61","","","","","","Cloudy"
"2003-11-25 22:00","2003","11","25","22:00","4.3","","-1.2","","67","","22","","28","","24.1","","100.60","","","","","","Cloudy"
"2003-11-25 23:00","2003","11","25","23:00","4.0","","-2.2","","64","","22","","20","","24.1","","100.56","","","","","","Mostly Cloudy"
"2003-11-26 00:00","2003","11","26","00:00"
"2003-11-26 01:00","2003","11","26","01:00"
"2003-11-26 02:00","2003","11","26","02:00"
"2003-11-26 03:00","2003","11","26","03:00"
"2003-11-26 04:00","2003","11","26","04:00"
"2003-11-26 05:00","2003","11","26","05:00"
"2003-11-26 06:00","2003","11","26","06:00","3.8","","-2.5","","63","","22","","15","","24.1","","100.57","","","","","","Mainly Clear"
"2003-11-26 07:00","2003","11","26","07:00","4.1","","-1.9","","65","","22","","15","","24.1","","100.59","","","","","","Mostly Cloudy"
"2003-11-26 08:00","2003","11","26","08:00","4.7","","-2.1","","61","","22","","17","","24.1","","100.56","","","","","","Mostly Cloudy"
"2003-11-26 09:00","2003","11","26","09:00","5.0","","-0.5","","68","","21","","24","","24.1","","100.62","","","","","","Mostly Cloudy"
"2003-11-26 10:00","2003","11","26","10:00","5.4","","-0.2","","67","","22","","19","","24.1","","100.68","","","","","","Mostly Cloudy"
"2003-11-26 11:00","2003","11","26","11:00","6.6","","0.0","","63","","21","","22","","24.1","","100.64","","","","","","Mostly Cloudy"
"2003-11-26 12:00","2003","11","26","12:00","6.6","","-0.1","","62","","22","","20","","24.1","","100.62","","","","","","Mainly Clear"
"2003-11-26 13:00","2003","11","26","13:00","7.3","","0.4","","62","","21","","20","","24.1","","100.64","","","","","","Mostly Cloudy"
"2003-11-26 14:00","2003","11","26","14:00","7.2","","1.0","","65","","22","","20","","24.1","","100.63","","","","","","Mostly Cloudy"
"2003-11-26 15:00","2003","11","26","15:00","6.4","","1.7","","72","","22","","19","","24.1","","100.66","","","","","","Mostly Cloudy"
"2003-11-26 16:00","2003","11","26","16:00","6.3","","1.0","","69","","22","","17","","24.1","","100.75","","","","","","Mostly Cloudy"
"2003-11-26 17:00","2003","11","26","17:00","5.8","","0.8","","70","","23","","17","","24.1","","100.79","","","","","","Mostly Cloudy"
"2003-11-26 18:00","2003","11","26","18:00","5.5","","0.8","","72","","22","","13","","24.1","","100.84","","","","","","Mainly Clear"
"2003-11-26 19:00","2003","11","26","19:00","5.5","","1.2","","74","","22","","9","","24.1","","100.86","","","","","","Mostly Cloudy"
"2003-11-26 20:00","2003","11","26","20:00","6.6","","-0.2","","62","","21","","17","","24.1","","100.92","","","","","","Mostly Cloudy"
"2003-11-26 21:00","2003","11","26","21:00","6.5","","0.9","","67","","22","","11","","24.1","","100.97","","","","","","Mainly Clear"
"2003-11-26 22:00","2003","11","26","22:00","6.0","","1.7","","74","","22","","11","","24.1","","101.00","","","","","","Mainly Clear"
"2003-11-26 23:00","2003","11","26","23:00","5.7","","1.6","","75","","23","","11","","24.1","","101.03","","","","","","Mainly Clear"
"2003-11-27 00:00","2003","11","27","00:00"
"2003-11-27 01:00","2003","11","27","01:00"
"2003-11-27 02:00","2003","11","27","02:00"
"2003-11-27 03:00","2003","11","27","03:00"
"2003-11-27 04:00","2003","11","27","04:00"
"2003-11-27 05:00","2003","11","27","05:00"
"2003-11-27 06:00","2003","11","27","06:00","0.5","","-0.5","","93","","5","","7","","24.1","","101.11","","","","","","Mainly Clear"
"2003-11-27 07:00","2003","11","27","07:00","1.4","","0.0","","90","","7","","6","","16.1","","101.18","","","","","","Mostly Cloudy"
"2003-11-27 08:00","2003","11","27","08:00","1.8","","0.5","","91","","6","","6","","19.3","","101.13","","","","","","Mostly Cloudy"
"2003-11-27 09:00","2003","11","27","09:00","3.0","","0.9","","86","","8","","4","","24.1","","101.13","","","","","","Mostly Cloudy"
"2003-11-27 10:00","2003","11","27","10:00","5.1","","1.9","","80","","9","","9","","24.1","","101.11","","","","","","Mostly Cloudy"
"2003-11-27 11:00","2003","11","27","11:00","6.2","","1.1","","70","","14","","11","","24.1","","101.09","","","","","","Mostly Cloudy"
"2003-11-27 12:00","2003","11","27","12:00","7.0","","1.0","","66","","10","","7","","24.1","","100.98","","","","","","Cloudy"
"2003-11-27 13:00","2003","11","27","13:00","7.1","","1.0","","65","","10","","6","","24.1","","100.92","","","","","","Rain Showers"
"2003-11-27 14:00","2003","11","27","14:00","6.9","","2.6","","74","","8","","9","","19.3","","100.83","","","","","","Rain"
"2003-11-27 15:00","2003","11","27","15:00","5.6","","1.9","","77","","6","","13","","16.1","","100.77","","","","","","Rain"
"2003-11-27 16:00","2003","11","27","16:00","5.2","","2.8","","84","","5","","15","","16.1","","100.71","","","","","","Rain"
"2003-11-27 17:00","2003","11","27","17:00","4.8","","3.2","","89","","7","","15","","11.3","","100.71","","","","","","Rain"
"2003-11-27 18:00","2003","11","27","18:00","4.6","","3.6","","93","","8","","15","","11.3","","100.68","","","","","","Rain"
"2003-11-27 19:00","2003","11","27","19:00","5.2","","4.4","","95","","11","","17","","9.7","","100.58","","","","","","Rain,Fog"
"2003-11-27 20:00","2003","11","27","20:00","5.2","","4.6","","96","","13","","11","","9.7","","100.51","","","","","","Rain,Fog"
"2003-11-27 21:00","2003","11","27","21:00","5.2","","4.7","","97","","11","","7","","16.1","","100.40","","","","","","Cloudy"
"2003-11-27 22:00","2003","11","27","22:00","5.8","","4.7","","93","","14","","6","","24.1","","100.32","","","","","","Cloudy"
"2003-11-27 23:00","2003","11","27","23:00","6.6","","4.2","","85","","15","","9","","24.1","","100.26","","","","","","Rain"
"2003-11-28 00:00","2003","11","28","00:00"
"2003-11-28 01:00","2003","11","28","01:00"
"2003-11-28 02:00","2003","11","28","02:00"
"2003-11-28 03:00","2003","11","28","03:00"
"2003-11-28 04:00","2003","11","28","04:00"
"2003-11-28 05:00","2003","11","28","05:00"
"2003-11-28 06:00","2003","11","28","06:00","6.5","","6.3","","99","","","","0","","3.2","","100.01","","","","","","Fog"
"2003-11-28 07:00","2003","11","28","07:00","6.5","","6.3","","99","","","","0","","3.2","","99.95","","","","","","Fog"
"2003-11-28 08:00","2003","11","28","08:00","7.3","","6.7","","96","","16","","7","","16.1","","99.81","","","","","","Cloudy"
"2003-11-28 09:00","2003","11","28","09:00","7.3","","6.6","","95","","9","","7","","12.9","","99.72","","","","","","Cloudy"
"2003-11-28 10:00","2003","11","28","10:00","6.5","","5.7","","95","","7","","11","","8.0","","99.57","","","","","","Rain,Fog"
"2003-11-28 11:00","2003","11","28","11:00","5.5","","4.9","","96","","5","","15","","4.0","","99.34","","","","","","Rain,Fog"
"2003-11-28 12:00","2003","11","28","12:00","5.5","","4.9","","96","","6","","24","","3.2","","99.02","","","","","","Moderate Rain,Fog"
"2003-11-28 13:00","2003","11","28","13:00","5.8","","5.2","","96","","5","","22","","4.8","","98.83","","","","","","Rain,Fog"
"2003-11-28 14:00","2003","11","28","14:00","5.6","","5.0","","96","","5","","20","","4.0","","98.66","","","","","","Rain,Fog"
"2003-11-28 15:00","2003","11","28","15:00","5.5","","5.1","","97","","6","","20","","4.8","","98.49","","","","","","Rain,Fog"
"2003-11-28 16:00","2003","11","28","16:00","5.2","","4.7","","97","","5","","20","","9.7","","98.34","","","","","","Rain,Fog"
"2003-11-28 17:00","2003","11","28","17:00","4.9","","4.1","","95","","4","","19","","6.4","","98.23","","","","","","Rain,Fog"
"2003-11-28 18:00","2003","11","28","18:00","4.6","","4.2","","97","","4","","20","","12.9","","98.03","","","","","","Rain"
"2003-11-28 19:00","2003","11","28","19:00","4.4","","4.0","","97","","3","","15","","9.7","","98.00","","","","","","Rain,Fog"
"2003-11-28 20:00","2003","11","28","20:00","4.3","","3.9","","97","","36","","13","","9.7","","98.02","","","","","","Rain,Fog"
"2003-11-28 21:00","2003","11","28","21:00","4.0","","3.9","","99","","32","","7","","8.0","","97.89","","","","","","Rain,Fog"
"2003-11-28 22:00","2003","11","28","22:00","4.0","","3.7","","98","","28","","7","","12.9","","97.87","","","","","","Drizzle"
"2003-11-28 23:00","2003","11","28","23:00","3.8","","3.5","","98","","28","","11","","6.4","","97.78","","","","","","Drizzle,Fog"
"2003-11-29 00:00","2003","11","29","00:00"
"2003-11-29 01:00","2003","11","29","01:00"
"2003-11-29 02:00","2003","11","29","02:00"
"2003-11-29 03:00","2003","11","29","03:00"
"2003-11-29 04:00","2003","11","29","04:00"
"2003-11-29 05:00","2003","11","29","05:00"
"2003-11-29 06:00","2003","11","29","06:00","0.3","","-1.0","","91","","29","","28","","6.4","","97.36","","","","","","Snow"
"2003-11-29 07:00","2003","11","29","07:00","-1.0","","-2.1","","92","","29","","22","","1.6","","97.53","","","","-7","","Snow"
"2003-11-29 08:00","2003","11","29","08:00","-1.3","","-2.3","","93","","29","","26","","1.6","","97.70","","","","-8","","Snow"
"2003-11-29 09:00","2003","11","29","09:00","-2.3","","-3.1","","94","","29","","33","","1.2","","97.87","","","","-10","","Snow"
"2003-11-29 10:00","2003","11","29","10:00","-2.1","","-3.3","","91","","28","","26","","3.2","","98.04","","","","-9","","Snow"
"2003-11-29 11:00","2003","11","29","11:00","-1.6","","-3.1","","89","","29","","28","","2.4","","98.18","","","","-8","","Snow"
"2003-11-29 12:00","2003","11","29","12:00","-1.7","","-3.2","","89","","29","","26","","3.2","","98.30","","","","-8","","Snow"
"2003-11-29 13:00","2003","11","29","13:00","-1.4","","-4.3","","81","","29","","30","","24.1","","98.51","","","","-8","","Mostly Cloudy"
"2003-11-29 14:00","2003","11","29","14:00","-1.2","","-5.5","","73","","29","","43","","24.1","","98.73","","","","-9","","Mostly Cloudy"
"2003-11-29 15:00","2003","11","29","15:00","-0.3","","-5.0","","71","","28","","33","","24.1","","98.87","","","","-7","","Mainly Clear"
"2003-11-29 16:00","2003","11","29","16:00","-0.1","","-5.6","","66","","29","","32","","24.1","","99.04","","","","-7","","Mainly Clear"
"2003-11-29 17:00","2003","11","29","17:00","-0.2","","-5.5","","67","","28","","30","","24.1","","99.18","","","","-7","","Mainly Clear"
"2003-11-29 18:00","2003","11","29","18:00","0.3","","-4.1","","72","","27","","24","","24.1","","99.31","","","","","","Mainly Clear"
"2003-11-29 19:00","2003","11","29","19:00","0.8","","-3.5","","73","","27","","22","","24.1","","99.41","","","","","","Mainly Clear"
"2003-11-29 20:00","2003","11","29","20:00","1.5","","-3.0","","72","","26","","33","","24.1","","99.45","","","","","","Cloudy"
"2003-11-29 21:00","2003","11","29","21:00","2.2","","-2.8","","69","","26","","33","","24.1","","99.49","","","","","","Cloudy"
"2003-11-29 22:00","2003","11","29","22:00","2.4","","-2.0","","73","","27","","20","","24.1","","99.47","","","","","","Cloudy"
"2003-11-29 23:00","2003","11","29","23:00","3.3","","-1.6","","70","","26","","32","","24.1","","99.44","","","","","","Cloudy"
"2003-11-30 00:00","2003","11","30","00:00"
"2003-11-30 01:00","2003","11","30","01:00"
"2003-11-30 02:00","2003","11","30","02:00"
"2003-11-30 03:00","2003","11","30","03:00"
"2003-11-30 04:00","2003","11","30","04:00"
"2003-11-30 05:00","2003","11","30","05:00"
"2003-11-30 06:00","2003","11","30","06:00","3.2","","-0.9","","74","","26","","28","","24.1","","99.35","","","","","","Cloudy"
"2003-11-30 07:00","2003","11","30","07:00","3.4","","-0.3","","77","","25","","26","","24.1","","99.41","","","","","","Cloudy"
"2003-11-30 08:00","2003","11","30","08:00","3.8","","0.3","","78","","25","","32","","24.1","","99.46","","","","","","Cloudy"
"2003-11-30 09:00","2003","11","30","09:00","4.0","","0.5","","78","","26","","37","","24.1","","99.49","","","","","","Cloudy"
"2003-11-30 10:00","2003","11","30","10:00","4.3","","0.7","","77","","26","","30","","24.1","","99.56","","","","","","Cloudy"
"2003-11-30 11:00","2003","11","30","11:00","4.4","","0.6","","76","","24","","26","","24.1","","99.54","","","","","","Cloudy"
"2003-11-30 12:00","2003","11","30","12:00","4.6","","0.3","","74","","26","","22","","24.1","","99.51","","","","","","Cloudy"
"2003-11-30 13:00","2003","11","30","13:00","5.0","","0.2","","71","","26","","28","","24.1","","99.47","","","","","","Cloudy"
"2003-11-30 14:00","2003","11","30","14:00","5.1","","0.4","","72","","26","","30","","24.1","","99.48","","","","","","Mostly Cloudy"
"2003-11-30 15:00","2003","11","30","15:00","5.0","","0.3","","72","","27","","22","","24.1","","99.52","","","","","","Cloudy"
"2003-11-30 16:00","2003","11","30","16:00","5.3","","-0.7","","65","","27","","20","","24.1","","99.50","","","","","","Mostly Cloudy"
"2003-11-30 17:00","2003","11","30","17:00","5.1","","0.0","","70","","26","","19","","24.1","","99.52","","","","","","Mostly Cloudy"
"2003-11-30 18:00","2003","11","30","18:00","4.8","","0.5","","74","","22","","11","","24.1","","99.51","","","","","","Mostly Cloudy"
"2003-11-30 19:00","2003","11","30","19:00","5.1","","1.9","","80","","21","","9","","24.1","","99.46","","","","","","Mostly Cloudy"
"2003-11-30 20:00","2003","11","30","20:00","6.3","","3.5","","82","","22","","22","","24.1","","99.26","","","","","","Mostly Cloudy"
"2003-11-30 21:00","2003","11","30","21:00","6.4","","1.7","","72","","22","","26","","24.1","","99.21","","","","","","Cloudy"
"2003-11-30 22:00","2003","11","30","22:00","6.6","","2.1","","73","","22","","28","","24.1","","99.12","","","","","","Cloudy"
"2003-11-30 23:00","2003","11","30","23:00","6.2","","2.7","","78","","22","","30","","19.3","","98.97","","","","","","Rain Showers"
