"Station Name","KINGSTON A"
"Province","ONTARIO"
"Latitude","44.22"
"Longitude","-76.60"
"Elevation","92.40"
"Climate Identifier","6104146"
"WMO Identifier",""
"TC Identifier","YGK"
"All times are specified in Local Standard Time (LST). Add 1 hour to adjust for Daylight Saving Time where and when it is observed."

"Legend"
"E","Estimated"
"M","Missing"
"NA","Not Available"

"Date/Time","Year","Month","Day","Time","Temp (°C)","Temp Flag","Dew Point Temp (°C)","Dew Point Temp Flag","Rel Hum (%)","Rel Hum Flag","Wind Dir (10s deg)","Wind Dir Flag","Wind Spd (km/h)","Wind Spd Flag","Visibility (km)","Visibility Flag","Stn Press (kPa)","Stn Press Flag","Hmdx","Hmdx Flag","Wind Chill","Wind Chill Flag","Weather"
"1998-02-01 00:00","1998","02","01","00:00"
"1998-02-01 01:00","1998","02","01","01:00"
"1998-02-01 02:00","1998","02","01","02:00"
"1998-02-01 03:00","1998","02","01","03:00"
"1998-02-01 04:00","1998","02","01","04:00"
"1998-02-01 05:00","1998","02","01","05:00"
"1998-02-01 06:00","1998","02","01","06:00","0.4","","-2.3","","82","","21","","19","","19.3","","100.95","","","","","","Cloudy"
"1998-02-01 07:00","1998","02","01","07:00","0.2","","-2.0","","85","","21","","19","","19.3","","100.91","","","","","","Mostly Cloudy"
"1998-02-01 08:00","1998","02","01","08:00","0.0","","-2.1","","86","","20","","20","","24.1","","101.01","","","","-5","","Mostly Cloudy"
"1998-02-01 09:00","1998","02","01","09:00","0.6","","-1.3","","87","","20","","19","","24.1","","101.01","","","","","","Mainly Clear"
"1998-02-01 10:00","1998","02","01","10:00","0.4","","-1.6","","86","","20","","17","","24.1","","101.08","","","","","","Mainly Clear"
"1998-02-01 11:00","1998","02","01","11:00","0.9","","-1.0","","87","","20","","28","","24.1","","101.11","","","","","","Mainly Clear"
"1998-02-01 12:00","1998","02","01","12:00","0.6","","-1.5","","86","","19","","15","","24.1","","101.05","","","","","","Cloudy"
"1998-02-01 13:00","1998","02","01","13:00","1.2","","-0.9","","86","","20","","22","","24.1","","101.05","","","","","","Cloudy"
"1998-02-01 14:00","1998","02","01","14:00","1.2","","-1.1","","85","","19","","13","","24.1","","101.01","","","","","","Cloudy"
"1998-02-01 15:00","1998","02","01","15:00","1.2","","-1.1","","85","","19","","13","","24.1","","101.01","","","","","","Cloudy"
"1998-02-01 16:00","1998","02","01","16:00","0.8","","-1.2","","86","","18","","6","","24.1","","101.01","","","","","","Mostly Cloudy"
"1998-02-01 17:00","1998","02","01","17:00","0.5","","-1.3","","88","","18","","7","","24.1","","101.01","","","","","","Mostly Cloudy"
"1998-02-01 18:00","1998","02","01","18:00","0.4","","-1.3","","88","","17","","4","","24.1","","100.98","","","","","","Mostly Cloudy"
"1998-02-01 19:00","1998","02","01","19:00","0.4","","-1.3","","88","","20","","6","","24.1","","100.98","","","","","","Mainly Clear"
"1998-02-01 20:00","1998","02","01","20:00","-0.5","","-2.7","","85","","10","","6","","24.1","","100.91","","","","-3","","Mainly Clear"
"1998-02-01 21:00","1998","02","01","21:00","0.7","","-2.4","","80","","14","","9","","24.1","","100.88","","","","","","Mainly Clear"
"1998-02-01 22:00","1998","02","01","22:00","1.1","","-3.4","","72","","12","","11","","24.1","","100.85","","","","","","Mainly Clear"
"1998-02-01 23:00","1998","02","01","23:00","0.7","","-4.5","","68","","16","","15","","24.1","","100.85","","","","","","Clear"
"1998-02-02 00:00","1998","02","02","00:00"
"1998-02-02 01:00","1998","02","02","01:00"
"1998-02-02 02:00","1998","02","02","02:00"
"1998-02-02 03:00","1998","02","02","03:00"
"1998-02-02 04:00","1998","02","02","04:00"
"1998-02-02 05:00","1998","02","02","05:00"
"1998-02-02 06:00","1998","02","02","06:00","1.0","","-2.2","","79","","18","","19","","19.3","","100.81","","","","","","Mainly Clear"
"1998-02-02 07:00","1998","02","02","07:00","1.0","","-2.2","","79","","17","","15","","24.1","","100.85","","","","","","Mainly Clear"
"1998-02-02 08:00","1998","02","02","08:00","1.2","","-2.1","","79","","18","","17","","24.1","","100.81","","","","","","Mostly Cloudy"
"1998-02-02 09:00","1998","02","02","09:00","1.3","","-2.1","","78","","17","","22","","24.1","","100.78","","","","","","Cloudy"
"1998-02-02 10:00","1998","02","02","10:00","1.6","","-2.0","","77","","19","","15","","24.1","","100.75","","","","","","Cloudy"
"1998-02-02 11:00","1998","02","02","11:00","1.7","","-1.9","","77","","18","","13","","24.1","","100.78","","","","","","Mostly Cloudy"
"1998-02-02 12:00","1998","02","02","12:00","2.3","","-0.5","","82","","18","","9","","24.1","","100.71","","","","","","Cloudy"
"1998-02-02 13:00","1998","02","02","13:00","1.9","","-1.2","","80","","","","0","","24.1","","100.58","","","","","","Cloudy"
"1998-02-02 14:00","1998","02","02","14:00","2.0","","-1.2","","79","","20","","13","","24.1","","100.54","","","","","","Cloudy"
"1998-02-02 15:00","1998","02","02","15:00","2.5","","-0.9","","78","","19","","26","","24.1","","100.58","","","","","","Cloudy"
"1998-02-02 16:00","1998","02","02","16:00","2.6","","-0.7","","79","","19","","22","","24.1","","100.58","","","","","","Mostly Cloudy"
"1998-02-02 17:00","1998","02","02","17:00","2.3","","-0.8","","80","","20","","22","","24.1","","100.61","","","","","","Mostly Cloudy"
"1998-02-02 18:00","1998","02","02","18:00","2.6","","-0.9","","78","","21","","22","","24.1","","100.68","","","","","","Mostly Cloudy"
"1998-02-02 19:00","1998","02","02","19:00","2.5","","-0.6","","80","","20","","20","","24.1","","100.68","","","","","","Mostly Cloudy"
"1998-02-02 20:00","1998","02","02","20:00","3.0","","-0.2","","79","","22","","24","","24.1","","100.75","","","","","","Mostly Cloudy"
"1998-02-02 21:00","1998","02","02","21:00","3.2","","-0.2","","78","","25","","26","","24.1","","100.78","","","","","","Mostly Cloudy"
"1998-02-02 22:00","1998","02","02","22:00","2.2","","-1.0","","79","","26","","26","","24.1","","100.78","","","","","","Mainly Clear"
"1998-02-02 23:00","1998","02","02","23:00","1.9","","-1.6","","78","","25","","22","","24.1","","100.81","","","","","","Mainly Clear"
"1998-02-03 00:00","1998","02","03","00:00"
"1998-02-03 01:00","1998","02","03","01:00"
"1998-02-03 02:00","1998","02","03","02:00"
"1998-02-03 03:00","1998","02","03","03:00"
"1998-02-03 04:00","1998","02","03","04:00"
"1998-02-03 05:00","1998","02","03","05:00"
"1998-02-03 06:00","1998","02","03","06:00","1.1","","-1.7","","82","","25","","7","","24.1","","101.01","","","","","","Cloudy"
"1998-02-03 07:00","1998","02","03","07:00","1.4","","-1.5","","81","","28","","13","","24.1","","101.05","","","","","","Cloudy"
"1998-02-03 08:00","1998","02","03","08:00","0.7","","-2.4","","80","","28","","19","","24.1","","101.15","","","","","","Cloudy"
"1998-02-03 09:00","1998","02","03","09:00","0.7","","-3.3","","75","","27","","22","","24.1","","101.22","","","","","","Cloudy"
"1998-02-03 10:00","1998","02","03","10:00","0.6","","-3.3","","75","","27","","19","","24.1","","101.22","","","","","","Cloudy"
"1998-02-03 11:00","1998","02","03","11:00","0.8","","-3.3","","74","","28","","26","","24.1","","101.22","","","","","","Cloudy"
"1998-02-03 12:00","1998","02","03","12:00","0.8","","-3.5","","73","","27","","20","","24.1","","101.25","","","","","","Cloudy"
"1998-02-03 13:00","1998","02","03","13:00","1.0","","-2.9","","75","","28","","13","","24.1","","101.18","","","","","","Cloudy"
"1998-02-03 14:00","1998","02","03","14:00","1.1","","-3.0","","74","","29","","11","","24.1","","101.22","","","","","","Cloudy"
"1998-02-03 15:00","1998","02","03","15:00","1.1","","-3.5","","71","","35","","15","","24.1","","101.18","","","","","","Cloudy"
"1998-02-03 16:00","1998","02","03","16:00","-0.9","","-5.2","","73","","3","","19","","24.1","","101.28","","","","-6","","Cloudy"
"1998-02-03 17:00","1998","02","03","17:00","-1.4","","-5.9","","71","","4","","19","","24.1","","101.32","","","","-7","","Cloudy"
"1998-02-03 18:00","1998","02","03","18:00","-1.8","","-6.7","","69","","4","","15","","24.1","","101.32","","","","-7","","Cloudy"
"1998-02-03 19:00","1998","02","03","19:00","-2.7","","-8.1","","66","","5","","20","","24.1","","101.32","","","","-9","","Cloudy"
"1998-02-03 20:00","1998","02","03","20:00","-3.0","","-9.1","","63","","3","","19","","24.1","","101.32","","","","-9","","Cloudy"
"1998-02-03 21:00","1998","02","03","21:00","-3.4","","-9.8","","61","","3","","15","","24.1","","101.35","","","","-9","","Cloudy"
"1998-02-03 22:00","1998","02","03","22:00","-3.4","","-9.8","","61","","3","","15","","24.1","","101.42","","","","-9","","Cloudy"
"1998-02-03 23:00","1998","02","03","23:00","-5.0","","-11.9","","58","","3","","7","","24.1","","101.38","","","","-8","","Cloudy"
"1998-02-04 00:00","1998","02","04","00:00"
"1998-02-04 01:00","1998","02","04","01:00"
"1998-02-04 02:00","1998","02","04","02:00"
"1998-02-04 03:00","1998","02","04","03:00"
"1998-02-04 04:00","1998","02","04","04:00"
"1998-02-04 05:00","1998","02","04","05:00"
"1998-02-04 06:00","1998","02","04","06:00","-10.8","","-16.0","","65","","3","","13","","24.1","","101.32","","","","-17","","Mainly Clear"
"1998-02-04 07:00","1998","02","04","07:00","-11.1","","-16.2","","66","","3","","11","","24.1","","101.28","","","","-17","","Mainly Clear"
"1998-02-04 08:00","1998","02","04","08:00","-11.3","","-16.3","","66","","3","","11","","24.1","","101.35","","","","-17","","Cloudy"
"1998-02-04 09:00","1998","02","04","09:00","-10.8","","-16.0","","65","","3","","11","","24.1","","101.35","","","","-17","","Cloudy"
"1998-02-04 10:00","1998","02","04","10:00","-9.4","","-15.2","","63","","4","","20","","24.1","","101.28","","","","-17","","Cloudy"
"1998-02-04 11:00","1998","02","04","11:00","-8.1","","-14.8","","58","","3","","13","","24.1","","101.18","","","","-14","","Cloudy"
"1998-02-04 12:00","1998","02","04","12:00","-6.3","","-13.7","","56","","4","","19","","24.1","","101.08","","","","-13","","Cloudy"
"1998-02-04 13:00","1998","02","04","13:00","-5.6","","-13.1","","55","","2","","28","","24.1","","100.95","","","","-14","","Cloudy"
"1998-02-04 14:00","1998","02","04","14:00","-4.5","","-12.2","","55","","3","","28","","24.1","","100.88","","","","-12","","Cloudy"
"1998-02-04 15:00","1998","02","04","15:00","-4.7","","-12.7","","54","","4","","19","","24.1","","100.88","","","","-11","","Cloudy"
"1998-02-04 16:00","1998","02","04","16:00","-4.9","","-12.7","","54","","4","","24","","24.1","","100.88","","","","-12","","Cloudy"
"1998-02-04 17:00","1998","02","04","17:00","-5.2","","-12.8","","55","","5","","24","","24.1","","100.85","","","","-12","","Cloudy"
"1998-02-04 18:00","1998","02","04","18:00","-5.7","","-13.5","","54","","3","","26","","24.1","","100.81","","","","-13","","Cloudy"
"1998-02-04 19:00","1998","02","04","19:00","-6.1","","-13.7","","55","","3","","24","","24.1","","100.78","","","","-14","","Cloudy"
"1998-02-04 20:00","1998","02","04","20:00","-6.2","","-14.2","","53","","3","","24","","24.1","","100.75","","","","-14","","Cloudy"
"1998-02-04 21:00","1998","02","04","21:00","-6.4","","-14.3","","53","","3","","30","","24.1","","100.68","","","","-15","","Cloudy"
"1998-02-04 22:00","1998","02","04","22:00","-6.5","","-14.6","","53","","3","","26","","24.1","","100.61","","","","-14","","Cloudy"
"1998-02-04 23:00","1998","02","04","23:00","-6.5","","-15.5","","49","","4","","28","","24.1","","100.58","","","","-15","","Cloudy"
"1998-02-05 00:00","1998","02","05","00:00"
"1998-02-05 01:00","1998","02","05","01:00"
"1998-02-05 02:00","1998","02","05","02:00"
"1998-02-05 03:00","1998","02","05","03:00"
"1998-02-05 04:00","1998","02","05","04:00"
"1998-02-05 05:00","1998","02","05","05:00"
"1998-02-05 06:00","1998","02","05","06:00","-7.9","","-16.5","","50","","4","","22","","24.1","","100.41","","","","-16","","Mostly Cloudy"
"1998-02-05 07:00","1998","02","05","07:00","-7.9","","-16.6","","50","","5","","22","","24.1","","100.41","","","","-16","","Mostly Cloudy"
"1998-02-05 08:00","1998","02","05","08:00","-8.2","","-16.5","","51","","4","","28","","24.1","","100.38","","","","-17","","Mostly Cloudy"
"1998-02-05 09:00","1998","02","05","09:00","-7.9","","-16.4","","50","","5","","28","","24.1","","100.41","","","","-17","","Mostly Cloudy"
"1998-02-05 10:00","1998","02","05","10:00","-6.5","","-15.6","","48","","5","","22","","24.1","","100.41","","","","-14","","Mostly Cloudy"
"1998-02-05 11:00","1998","02","05","11:00","-6.1","","-15.4","","48","","5","","19","","24.1","","100.41","","","","-13","","Mostly Cloudy"
"1998-02-05 12:00","1998","02","05","12:00","-4.7","","-14.9","","45","","5","","19","","24.1","","100.34","","","","-11","","Cloudy"
"1998-02-05 13:00","1998","02","05","13:00","-2.7","","-14.0","","41","","4","","28","","24.1","","100.24","","","","-10","","Mostly Cloudy"
"1998-02-05 14:00","1998","02","05","14:00","-2.3","","-14.3","","39","","4","","28","","24.1","","100.21","","","","-9","","Mostly Cloudy"
"1998-02-05 15:00","1998","02","05","15:00","-1.8","","-13.9","","39","","2","","28","","24.1","","100.21","","","","-9","","Mostly Cloudy"
"1998-02-05 16:00","1998","02","05","16:00","-2.1","","-14.2","","39","","3","","28","","24.1","","100.18","","","","-9","","Mostly Cloudy"
"1998-02-05 17:00","1998","02","05","17:00","-2.8","","-14.4","","40","","3","","30","","24.1","","100.21","","","","-10","","Mostly Cloudy"
"1998-02-05 18:00","1998","02","05","18:00","-4.0","","-14.7","","43","","2","","17","","24.1","","100.24","","","","-10","","Mainly Clear"
"1998-02-05 19:00","1998","02","05","19:00","-4.7","","-14.7","","45","","4","","15","","24.1","","100.28","","","","-10","","Mainly Clear"
"1998-02-05 20:00","1998","02","05","20:00","-5.2","","-14.8","","47","","5","","20","","24.1","","100.28","","","","-12","","Clear"
"1998-02-05 21:00","1998","02","05","21:00","-5.3","","-15.1","","46","","5","","17","","24.1","","100.28","","","","-11","","Clear"
"1998-02-05 22:00","1998","02","05","22:00","-6.5","","-15.0","","51","","4","","17","","24.1","","100.31","","","","-13","","Clear"
"1998-02-05 23:00","1998","02","05","23:00","-6.9","","-15.0","","52","","4","","17","","24.1","","100.28","","","","-13","","Clear"
"1998-02-06 00:00","1998","02","06","00:00"
"1998-02-06 01:00","1998","02","06","01:00"
"1998-02-06 02:00","1998","02","06","02:00"
"1998-02-06 03:00","1998","02","06","03:00"
"1998-02-06 04:00","1998","02","06","04:00"
"1998-02-06 05:00","1998","02","06","05:00"
"1998-02-06 06:00","1998","02","06","06:00","-10.1","","-16.0","","62","","2","","11","","24.1","","100.44","","","","-16","","Clear"
"1998-02-06 07:00","1998","02","06","07:00","-10.6","","-16.4","","62","","3","","11","","24.1","","100.48","","","","-16","","Mainly Clear"
"1998-02-06 08:00","1998","02","06","08:00","-10.0","","-15.3","","65","","36","","9","","24.1","","100.54","","","","-15","","Clear"
"1998-02-06 09:00","1998","02","06","09:00","-9.3","","-14.8","","64","","36","","9","","24.1","","100.58","","","","-14","","Clear"
"1998-02-06 10:00","1998","02","06","10:00","-5.7","","-12.2","","60","","2","","11","","24.1","","100.61","","","","-10","","Clear"
"1998-02-06 11:00","1998","02","06","11:00","-4.6","","-11.8","","57","","2","","15","","24.1","","100.64","","","","-10","","Clear"
"1998-02-06 12:00","1998","02","06","12:00","-2.1","","-10.4","","53","","34","","7","","24.1","","100.68","","","","-5","","Clear"
"1998-02-06 13:00","1998","02","06","13:00","-1.2","","-10.9","","48","","36","","13","","24.1","","100.64","","","","-5","","Mainly Clear"
"1998-02-06 14:00","1998","02","06","14:00","-0.5","","-10.3","","47","","36","","9","","24.1","","100.58","","","","-4","","Mainly Clear"
"1998-02-06 15:00","1998","02","06","15:00","-0.9","","-9.2","","53","","15","","4","","24.1","","100.64","","","","-2","","Mainly Clear"
"1998-02-06 16:00","1998","02","06","16:00","-1.4","","-8.6","","58","","19","","7","","24.1","","100.64","","","","-4","","Mainly Clear"
"1998-02-06 17:00","1998","02","06","17:00","-1.2","","-8.2","","59","","20","","4","","24.1","","100.68","","","","-3","","Mainly Clear"
"1998-02-06 18:00","1998","02","06","18:00","-1.9","","-9.6","","56","","","","0","","24.1","","100.71","","","","","","Mainly Clear"
"1998-02-06 19:00","1998","02","06","19:00","-3.9","","-11.2","","57","","4","","6","","24.1","","100.75","","","","-7","","Clear"
"1998-02-06 20:00","1998","02","06","20:00","-4.3","","-10.9","","60","","3","","13","","24.1","","100.78","","","","-9","","Clear"
"1998-02-06 21:00","1998","02","06","21:00","-4.8","","-10.8","","63","","2","","11","","24.1","","100.85","","","","-9","","Clear"
"1998-02-06 22:00","1998","02","06","22:00","-5.8","","-11.3","","65","","36","","7","","24.1","","100.85","","","","-9","","Clear"
"1998-02-06 23:00","1998","02","06","23:00","-7.3","","-12.7","","65","","36","","7","","24.1","","100.88","","","","-11","","Clear"
"1998-02-07 00:00","1998","02","07","00:00"
"1998-02-07 01:00","1998","02","07","01:00"
"1998-02-07 02:00","1998","02","07","02:00"
"1998-02-07 03:00","1998","02","07","03:00"
"1998-02-07 04:00","1998","02","07","04:00"
"1998-02-07 05:00","1998","02","07","05:00"
"1998-02-07 06:00","1998","02","07","06:00","-9.6","","-14.0","","70","","1","","15","","24.1","","100.91","","","","-16","","Clear"
"1998-02-07 07:00","1998","02","07","07:00","-9.8","","-14.0","","71","","2","","22","","24.1","","100.91","","","","-18","","Mainly Clear"
"1998-02-07 08:00","1998","02","07","08:00","-10.2","","-14.2","","72","","3","","19","","24.1","","100.98","","","","-18","","Clear"
"1998-02-07 09:00","1998","02","07","09:00","-9.5","","-13.6","","72","","4","","22","","24.1","","100.98","","","","-18","","Clear"
"1998-02-07 10:00","1998","02","07","10:00","-8.4","","-12.8","","71","","5","","22","","24.1","","101.05","","","","-16","","Clear"
"1998-02-07 11:00","1998","02","07","11:00","-7.1","","-12.6","","65","","5","","19","","24.1","","101.05","","","","-14","","Clear"
"1998-02-07 12:00","1998","02","07","12:00","-4.8","","-11.3","","60","","5","","11","","24.1","","101.05","","","","-9","","Clear"
"1998-02-07 13:00","1998","02","07","13:00","-2.9","","-11.1","","53","","6","","11","","24.1","","100.91","","","","-7","","Clear"
"1998-02-07 14:00","1998","02","07","14:00","-2.3","","-11.0","","51","","6","","15","","24.1","","100.88","","","","-7","","Mainly Clear"
"1998-02-07 15:00","1998","02","07","15:00","-1.7","","-10.3","","52","","4","","15","","24.1","","100.85","","","","-7","","Mainly Clear"
"1998-02-07 16:00","1998","02","07","16:00","-2.3","","-10.8","","52","","3","","22","","24.1","","100.78","","","","-8","","Mainly Clear"
"1998-02-07 17:00","1998","02","07","17:00","-2.8","","-11.0","","53","","5","","22","","24.1","","100.81","","","","-9","","Mainly Clear"
"1998-02-07 18:00","1998","02","07","18:00","-4.1","","-11.2","","58","","4","","15","","24.1","","100.81","","","","-9","","Mainly Clear"
"1998-02-07 19:00","1998","02","07","19:00","-4.8","","-11.7","","58","","5","","9","","24.1","","100.88","","","","-9","","Clear"
"1998-02-07 20:00","1998","02","07","20:00","-5.5","","-12.3","","59","","4","","11","","24.1","","100.88","","","","-10","","Clear"
"1998-02-07 21:00","1998","02","07","21:00","-6.5","","-12.6","","62","","5","","11","","24.1","","100.88","","","","-11","","Clear"
"1998-02-07 22:00","1998","02","07","22:00","-7.0","","-12.9","","63","","5","","9","","24.1","","100.85","","","","-11","","Clear"
"1998-02-07 23:00","1998","02","07","23:00","-7.7","","-13.3","","64","","3","","9","","24.1","","100.85","","","","-12","","Clear"
"1998-02-08 00:00","1998","02","08","00:00"
"1998-02-08 01:00","1998","02","08","01:00"
"1998-02-08 02:00","1998","02","08","02:00"
"1998-02-08 03:00","1998","02","08","03:00"
"1998-02-08 04:00","1998","02","08","04:00"
"1998-02-08 05:00","1998","02","08","05:00"
"1998-02-08 06:00","1998","02","08","06:00","-8.1","","-14.4","","60","","6","","19","","24.1","","100.71","","","","-15","","Cloudy"
"1998-02-08 07:00","1998","02","08","07:00","-8.1","","-13.9","","63","","5","","19","","24.1","","100.78","","","","-15","","Cloudy"
"1998-02-08 08:00","1998","02","08","08:00","-8.5","","-13.9","","65","","3","","9","","24.1","","100.81","","","","-13","","Mainly Clear"
"1998-02-08 09:00","1998","02","08","09:00","-7.8","","-13.5","","64","","4","","11","","24.1","","100.88","","","","-13","","Mainly Clear"
"1998-02-08 10:00","1998","02","08","10:00","-6.5","","-12.6","","62","","6","","19","","24.1","","100.88","","","","-13","","Mainly Clear"
"1998-02-08 11:00","1998","02","08","11:00","-5.4","","-12.5","","57","","6","","19","","24.1","","100.88","","","","-12","","Clear"
"1998-02-08 12:00","1998","02","08","12:00","-3.9","","-11.4","","56","","6","","9","","24.1","","100.85","","","","-8","","Clear"
"1998-02-08 13:00","1998","02","08","13:00","-2.5","","-11.3","","51","","5","","11","","24.1","","100.75","","","","-7","","Clear"
"1998-02-08 14:00","1998","02","08","14:00","-1.0","","-10.9","","47","","8","","11","","24.1","","100.71","","","","-5","","Clear"
"1998-02-08 15:00","1998","02","08","15:00","-0.9","","-10.0","","50","","9","","11","","24.1","","100.68","","","","-5","","Clear"
"1998-02-08 16:00","1998","02","08","16:00","-1.8","","-9.2","","57","","13","","7","","24.1","","100.68","","","","-4","","Clear"
"1998-02-08 17:00","1998","02","08","17:00","-2.0","","-8.6","","61","","18","","4","","24.1","","100.75","","","","-3","","Clear"
"1998-02-08 18:00","1998","02","08","18:00","-2.9","","-9.1","","62","","","","0","","24.1","","100.75","","","","","","Clear"
"1998-02-08 19:00","1998","02","08","19:00","-5.1","","-10.8","","64","","","","0","","24.1","","100.78","","","","","","Clear"
"1998-02-08 20:00","1998","02","08","20:00","-5.2","","-10.4","","67","","","","0","","24.1","","100.78","","","","","","Clear"
"1998-02-08 21:00","1998","02","08","21:00","-7.3","","-11.6","","71","","34","","7","","24.1","","100.81","","","","-11","","Clear"
"1998-02-08 22:00","1998","02","08","22:00","-8.2","","-12.0","","74","","34","","7","","24.1","","100.78","","","","-12","","Clear"
"1998-02-08 23:00","1998","02","08","23:00","-8.1","","-11.6","","76","","","","0","","24.1","","100.78","","","","","","Clear"
"1998-02-09 00:00","1998","02","09","00:00"
"1998-02-09 01:00","1998","02","09","01:00"
"1998-02-09 02:00","1998","02","09","02:00"
"1998-02-09 03:00","1998","02","09","03:00"
"1998-02-09 04:00","1998","02","09","04:00"
"1998-02-09 05:00","1998","02","09","05:00"
"1998-02-09 06:00","1998","02","09","06:00","-11.9","","-14.6","","80","","","","0","","19.3","","100.81","","","","","","Clear"
"1998-02-09 07:00","1998","02","09","07:00","-11.5","","-12.9","","89","","","","0","","9.7","","100.81","","","","","","Haze"
"1998-02-09 08:00","1998","02","09","08:00","-10.5","","-12.5","","85","","","","0","","9.7","","100.91","","","","","","Fog"
"1998-02-09 09:00","1998","02","09","09:00","-5.8","","-8.1","","84","","24","","9","","11.3","","100.91","","","","-10","","Mainly Clear"
"1998-02-09 10:00","1998","02","09","10:00","-4.5","","-6.7","","85","","21","","6","","11.3","","100.95","","","","-7","","Mainly Clear"
"1998-02-09 11:00","1998","02","09","11:00","-3.0","","-5.6","","82","","23","","9","","16.1","","100.98","","","","-7","","Mainly Clear"
"1998-02-09 12:00","1998","02","09","12:00","-0.8","","-3.7","","81","","21","","7","","19.3","","100.95","","","","-3","","Mainly Clear"
"1998-02-09 13:00","1998","02","09","13:00","-0.5","","-5.1","","71","","19","","9","","19.3","","100.91","","","","-4","","Mainly Clear"
"1998-02-09 14:00","1998","02","09","14:00","-0.2","","-4.7","","72","","19","","9","","19.3","","100.88","","","","-3","","Mainly Clear"
"1998-02-09 15:00","1998","02","09","15:00","0.4","","-3.0","","78","","19","","7","","19.3","","100.91","","","","","","Mainly Clear"
"1998-02-09 16:00","1998","02","09","16:00","0.6","","-2.5","","80","","16","","9","","24.1","","100.91","","","","","","Mainly Clear"
"1998-02-09 17:00","1998","02","09","17:00","0.1","","-2.6","","82","","17","","7","","24.1","","100.95","","","","","","Mainly Clear"
"1998-02-09 18:00","1998","02","09","18:00","-0.7","","-3.6","","81","","22","","6","","16.1","","100.98","","","","-3","","Mainly Clear"
"1998-02-09 19:00","1998","02","09","19:00","-1.7","","-3.9","","85","","26","","4","","16.1","","101.05","","","","-3","","Mainly Clear"
"1998-02-09 20:00","1998","02","09","20:00","-1.8","","-4.5","","82","","23","","6","","16.1","","101.01","","","","-4","","Mainly Clear"
"1998-02-09 21:00","1998","02","09","21:00","-3.9","","-6.1","","85","","","","0","","0.4","","101.05","","","","","","Fog"
"1998-02-09 22:00","1998","02","09","22:00","-5.8","","-8.2","","83","","","","0","","0.2","","101.05","","","","","","Fog"
"1998-02-09 23:00","1998","02","09","23:00","-7.3","","-9.3","","86","","1","","6","","0.2","","101.05","","","","-10","","Fog"
"1998-02-10 00:00","1998","02","10","00:00"
"1998-02-10 01:00","1998","02","10","01:00"
"1998-02-10 02:00","1998","02","10","02:00"
"1998-02-10 03:00","1998","02","10","03:00"
"1998-02-10 04:00","1998","02","10","04:00"
"1998-02-10 05:00","1998","02","10","05:00"
"1998-02-10 06:00","1998","02","10","06:00","-5.8","","-6.4","","96","","9","","4","","12.9","","101.08","","","","-8","","Cloudy"
"1998-02-10 07:00","1998","02","10","07:00","-5.4","","-6.6","","91","","","","0","","6.4","","101.05","","","","","","Fog"
"1998-02-10 08:00","1998","02","10","08:00","-6.7","","-8.0","","90","","34","","9","","8.0","","101.15","","","","-11","","Fog"
"1998-02-10 09:00","1998","02","10","09:00","-5.3","","-6.6","","91","","36","","4","","8.0","","101.18","","","","-7","","Fog"
"1998-02-10 10:00","1998","02","10","10:00","-2.8","","-3.2","","97","","36","","4","","8.0","","101.18","","","","-4","","Fog"
"1998-02-10 11:00","1998","02","10","11:00","0.6","","0.0","","96","","9","","4","","8.0","","101.18","","","","","","Fog"
"1998-02-10 12:00","1998","02","10","12:00","1.4","","0.3","","92","","","","0","","8.0","","101.11","","","","","","Fog"
"1998-02-10 13:00","1998","02","10","13:00","2.3","","-0.5","","82","","17","","9","","8.0","","101.05","","","","","","Fog"
"1998-02-10 14:00","1998","02","10","14:00","1.5","","-1.6","","80","","16","","4","","8.0","","101.05","","","","","","Fog"
"1998-02-10 15:00","1998","02","10","15:00","1.9","","-1.6","","78","","19","","4","","8.0","","101.01","","","","","","Haze"
"1998-02-10 16:00","1998","02","10","16:00","2.0","","-2.0","","75","","","","0","","9.7","","101.01","","","","","","Haze"
"1998-02-10 17:00","1998","02","10","17:00","1.2","","-2.9","","74","","","","0","","9.7","","100.98","","","","","","Haze"
"1998-02-10 18:00","1998","02","10","18:00","0.0","","-4.3","","73","","16","","6","","9.7","","101.01","","","","-2","","Haze"
"1998-02-10 19:00","1998","02","10","19:00","-0.9","","-5.2","","73","","15","","4","","9.7","","100.95","","","","-2","","Haze"
"1998-02-10 20:00","1998","02","10","20:00","-1.3","","-5.1","","75","","","","0","","12.9","","100.95","","","","","","Mainly Clear"
"1998-02-10 21:00","1998","02","10","21:00","-2.6","","-5.9","","78","","","","0","","16.1","","100.95","","","","","","Cloudy"
"1998-02-10 22:00","1998","02","10","22:00","-2.6","","-5.5","","80","","","","0","","16.1","","100.95","","","","","","Cloudy"
"1998-02-10 23:00","1998","02","10","23:00","-3.6","","-6.0","","83","","","","0","","16.1","","100.88","","","","","","Cloudy"
"1998-02-11 00:00","1998","02","11","00:00"
"1998-02-11 01:00","1998","02","11","01:00"
"1998-02-11 02:00","1998","02","11","02:00"
"1998-02-11 03:00","1998","02","11","03:00"
"1998-02-11 04:00","1998","02","11","04:00"
"1998-02-11 05:00","1998","02","11","05:00"
"1998-02-11 06:00","1998","02","11","06:00","-2.5","","-4.6","","85","","9","","7","","19.3","","100.71","","","","-5","","Cloudy"
"1998-02-11 07:00","1998","02","11","07:00","-0.3","","-2.4","","86","","","","0","","12.9","","100.71","","","","","","Cloudy"
"1998-02-11 08:00","1998","02","11","08:00","1.2","","-1.8","","80","","15","","9","","11.3","","100.64","","","","","","Cloudy"
"1998-02-11 09:00","1998","02","11","09:00","1.9","","-1.2","","80","","14","","7","","9.7","","100.61","","","","","","Haze"
"1998-02-11 10:00","1998","02","11","10:00","2.8","","-1.2","","75","","12","","6","","9.7","","100.54","","","","","","Haze"
"1998-02-11 11:00","1998","02","11","11:00","3.0","","-2.3","","68","","12","","6","","9.7","","100.48","","","","","","Haze"
"1998-02-11 12:00","1998","02","11","12:00","4.3","","-1.7","","65","","14","","11","","9.7","","100.38","","","","","","Haze"
"1998-02-11 13:00","1998","02","11","13:00","5.1","","-1.4","","63","","12","","9","","9.7","","100.31","","","","","","Haze"
"1998-02-11 14:00","1998","02","11","14:00","4.8","","-1.2","","65","","14","","15","","12.9","","100.11","","","","","","Cloudy"
"1998-02-11 15:00","1998","02","11","15:00","5.5","","-1.1","","62","","13","","17","","12.9","","100.04","","","","","","Cloudy"
"1998-02-11 16:00","1998","02","11","16:00","5.5","","-0.9","","63","","14","","15","","12.9","","100.01","","","","","","Cloudy"
"1998-02-11 17:00","1998","02","11","17:00","6.2","","-0.8","","61","","12","","15","","12.9","","99.87","","","","","","Cloudy"
"1998-02-11 18:00","1998","02","11","18:00","5.8","","-1.1","","61","","12","","13","","12.9","","99.77","","","","","","Cloudy"
"1998-02-11 19:00","1998","02","11","19:00","6.0","","-1.0","","61","","13","","13","","19.3","","99.71","","","","","","Cloudy"
"1998-02-11 20:00","1998","02","11","20:00","5.6","","-0.4","","65","","12","","13","","19.3","","99.60","","","","","","Cloudy"
"1998-02-11 21:00","1998","02","11","21:00","5.1","","0.0","","70","","13","","13","","19.3","","99.57","","","","","","Cloudy"
"1998-02-11 22:00","1998","02","11","22:00","4.0","","0.8","","80","","15","","28","","19.3","","99.44","","","","","","Cloudy"
"1998-02-11 23:00","1998","02","11","23:00","2.8","","0.5","","85","","15","","22","","8.0","","99.34","","","","","","Rain,Fog"
"1998-02-12 00:00","1998","02","12","00:00"
"1998-02-12 01:00","1998","02","12","01:00"
"1998-02-12 02:00","1998","02","12","02:00"
"1998-02-12 03:00","1998","02","12","03:00"
"1998-02-12 04:00","1998","02","12","04:00"
"1998-02-12 05:00","1998","02","12","05:00"
"1998-02-12 06:00","1998","02","12","06:00","2.3","","1.4","","94","","18","","6","","11.3","","98.50","","","","","","Cloudy"
"1998-02-12 07:00","1998","02","12","07:00","2.2","","1.9","","98","","18","","4","","6.4","","98.43","","","","","","Fog"
"1998-02-12 08:00","1998","02","12","08:00","2.6","","1.2","","90","","23","","7","","4.0","","98.40","","","","","","Fog"
"1998-02-12 09:00","1998","02","12","09:00","2.6","","1.3","","91","","22","","11","","1.2","","98.43","","","","","","Fog"
"1998-02-12 10:00","1998","02","12","10:00","2.4","","1.8","","96","","24","","7","","0.4","","98.33","","","","","","Rain,Fog"
"1998-02-12 11:00","1998","02","12","11:00","2.6","","1.8","","94","","24","","9","","0.4","","98.30","","","","","","Rain,Fog"
"1998-02-12 12:00","1998","02","12","12:00","3.1","","2.3","","94","","26","","9","","1.2","","98.26","","","","","","Rain,Fog"
"1998-02-12 13:00","1998","02","12","13:00","2.9","","2.5","","97","","27","","19","","4.0","","98.23","","","","","","Rain,Fog"
"1998-02-12 14:00","1998","02","12","14:00","3.1","","2.4","","95","","27","","19","","16.1","","98.33","","","","","","Cloudy"
"1998-02-12 15:00","1998","02","12","15:00","2.6","","2.0","","96","","26","","19","","16.1","","98.43","","","","","","Cloudy"
"1998-02-12 16:00","1998","02","12","16:00","2.5","","1.8","","95","","26","","15","","16.1","","98.53","","","","","","Cloudy"
"1998-02-12 17:00","1998","02","12","17:00","2.6","","1.8","","94","","25","","20","","16.1","","98.66","","","","","","Cloudy"
"1998-02-12 18:00","1998","02","12","18:00","2.6","","1.8","","94","","26","","19","","16.1","","98.83","","","","","","Cloudy"
"1998-02-12 19:00","1998","02","12","19:00","2.4","","1.3","","92","","27","","24","","12.9","","98.97","","","","","","Cloudy"
"1998-02-12 20:00","1998","02","12","20:00","1.4","","-1.3","","82","","31","","24","","19.3","","99.13","","","","","","Cloudy"
"1998-02-12 21:00","1998","02","12","21:00","0.5","","-3.6","","74","","30","","22","","24.1","","99.27","","","","","","Mainly Clear"
"1998-02-12 22:00","1998","02","12","22:00","-0.5","","-5.0","","72","","31","","28","","24.1","","99.44","","","","-7","","Mostly Cloudy"
"1998-02-12 23:00","1998","02","12","23:00","-1.0","","-5.3","","73","","30","","22","","24.1","","99.57","","","","-7","","Mostly Cloudy"
"1998-02-13 00:00","1998","02","13","00:00"
"1998-02-13 01:00","1998","02","13","01:00"
"1998-02-13 02:00","1998","02","13","02:00"
"1998-02-13 03:00","1998","02","13","03:00"
"1998-02-13 04:00","1998","02","13","04:00"
"1998-02-13 05:00","1998","02","13","05:00"
"1998-02-13 06:00","1998","02","13","06:00","-5.7","","-10.1","","71","","34","","22","","24.1","","100.28","","","","-13","","Mostly Cloudy"
"1998-02-13 07:00","1998","02","13","07:00","-6.7","","-11.5","","69","","34","","19","","24.1","","100.44","","","","-14","","Mostly Cloudy"
"1998-02-13 08:00","1998","02","13","08:00","-7.9","","-12.6","","69","","35","","22","","24.1","","100.51","","","","-16","","Mainly Clear"
"1998-02-13 09:00","1998","02","13","09:00","-7.1","","-11.6","","70","","36","","24","","24.1","","100.58","","","","-15","","Mainly Clear"
"1998-02-13 10:00","1998","02","13","10:00","-6.2","","-11.3","","67","","35","","19","","24.1","","100.64","","","","-13","","Mainly Clear"
"1998-02-13 11:00","1998","02","13","11:00","-5.5","","-10.8","","66","","34","","19","","24.1","","100.71","","","","-12","","Mainly Clear"
"1998-02-13 12:00","1998","02","13","12:00","-4.8","","-10.9","","62","","34","","19","","24.1","","100.71","","","","-11","","Mostly Cloudy"
"1998-02-13 13:00","1998","02","13","13:00","-4.5","","-12.0","","56","","36","","13","","24.1","","100.71","","","","-10","","Mostly Cloudy"
"1998-02-13 14:00","1998","02","13","14:00","-4.0","","-12.3","","52","","35","","11","","24.1","","100.71","","","","-8","","Cloudy"
"1998-02-13 15:00","1998","02","13","15:00","-3.8","","-12.1","","52","","1","","11","","24.1","","100.71","","","","-8","","Cloudy"
"1998-02-13 16:00","1998","02","13","16:00","-3.3","","-12.4","","49","","33","","9","","24.1","","100.75","","","","-7","","Cloudy"
"1998-02-13 17:00","1998","02","13","17:00","-4.1","","-12.7","","51","","34","","9","","24.1","","100.78","","","","-8","","Cloudy"
"1998-02-13 18:00","1998","02","13","18:00","-4.7","","-13.5","","50","","2","","9","","24.1","","100.88","","","","-9","","Cloudy"
"1998-02-13 19:00","1998","02","13","19:00","-5.7","","-14.6","","49","","5","","15","","24.1","","100.95","","","","-11","","Mainly Clear"
"1998-02-13 20:00","1998","02","13","20:00","-6.6","","-15.2","","50","","2","","15","","24.1","","100.98","","","","-13","","Mainly Clear"
"1998-02-13 21:00","1998","02","13","21:00","-7.9","","-15.5","","54","","3","","13","","24.1","","101.01","","","","-14","","Mainly Clear"
"1998-02-13 22:00","1998","02","13","22:00","-8.7","","-15.9","","56","","2","","15","","24.1","","101.05","","","","-15","","Mainly Clear"
"1998-02-13 23:00","1998","02","13","23:00","-9.2","","-16.2","","57","","3","","20","","24.1","","101.08","","","","-17","","Mainly Clear"
"1998-02-14 00:00","1998","02","14","00:00"
"1998-02-14 01:00","1998","02","14","01:00"
"1998-02-14 02:00","1998","02","14","02:00"
"1998-02-14 03:00","1998","02","14","03:00"
"1998-02-14 04:00","1998","02","14","04:00"
"1998-02-14 05:00","1998","02","14","05:00"
"1998-02-14 06:00","1998","02","14","06:00","-14.5","","-22.5","","51","","1","","19","","24.1","","101.35","","","","-23","","Clear"
"1998-02-14 07:00","1998","02","14","07:00","-15.2","","-23.1","","51","","2","","15","","24.1","","101.42","","","","-23","","Mainly Clear"
"1998-02-14 08:00","1998","02","14","08:00","-15.5","","-23.7","","49","","2","","19","","24.1","","101.48","","","","-25","","Mainly Clear"
"1998-02-14 09:00","1998","02","14","09:00","-15.0","","-23.5","","48","","1","","22","","24.1","","101.55","","","","-25","","Mainly Clear"
"1998-02-14 10:00","1998","02","14","10:00","-13.6","","-23.1","","45","","2","","19","","24.1","","101.58","","","","-22","","Mostly Cloudy"
"1998-02-14 11:00","1998","02","14","11:00","-12.5","","-23.6","","39","","1","","19","","24.1","","101.69","","","","-21","","Mainly Clear"
"1998-02-14 12:00","1998","02","14","12:00","-12.3","","-23.5","","39","","2","","22","","24.1","","101.65","","","","-21","","Mainly Clear"
"1998-02-14 13:00","1998","02","14","13:00","-11.4","","-23.5","","36","","36","","19","","24.1","","101.65","","","","-19","","Mainly Clear"
"1998-02-14 14:00","1998","02","14","14:00","-10.8","","-22.2","","39","","2","","13","","24.1","","101.65","","","","-17","","Mainly Clear"
"1998-02-14 15:00","1998","02","14","15:00","-10.1","","-21.3","","39","","36","","15","","24.1","","101.65","","","","-17","","Clear"
"1998-02-14 16:00","1998","02","14","16:00","-9.7","","-21.8","","37","","35","","17","","24.1","","101.72","","","","-17","","Clear"
"1998-02-14 17:00","1998","02","14","17:00","-9.9","","-21.9","","37","","35","","7","","24.1","","101.75","","","","-14","","Clear"
"1998-02-14 18:00","1998","02","14","18:00","-10.5","","-22.8","","36","","5","","9","","24.1","","101.75","","","","-15","","Clear"
"1998-02-14 19:00","1998","02","14","19:00","-11.6","","-22.1","","41","","6","","13","","24.1","","101.82","","","","-18","","Clear"
"1998-02-14 20:00","1998","02","14","20:00","-12.5","","-22.4","","43","","5","","9","","24.1","","101.89","","","","-18","","Clear"
"1998-02-14 21:00","1998","02","14","21:00","-13.2","","-22.5","","46","","6","","4","","24.1","","101.92","","","","-16","","Clear"
"1998-02-14 22:00","1998","02","14","22:00","-13.4","","-22.4","","47","","6","","4","","24.1","","101.95","","","","-16","","Clear"
"1998-02-14 23:00","1998","02","14","23:00","-14.5","","-22.7","","50","","","","0","","24.1","","101.92","","","","","","Clear"
"1998-02-15 00:00","1998","02","15","00:00"
"1998-02-15 01:00","1998","02","15","01:00"
"1998-02-15 02:00","1998","02","15","02:00"
"1998-02-15 03:00","1998","02","15","03:00"
"1998-02-15 04:00","1998","02","15","04:00"
"1998-02-15 05:00","1998","02","15","05:00"
"1998-02-15 06:00","1998","02","15","06:00","-16.1","","-23.5","","53","","4","","9","","24.1","","102.22","","","","-22","","Mainly Clear"
"1998-02-15 07:00","1998","02","15","07:00","-16.6","","-23.9","","53","","6","","15","","24.1","","102.26","","","","-25","","Mainly Clear"
"1998-02-15 08:00","1998","02","15","08:00","-16.1","","-23.0","","55","","6","","13","","24.1","","102.32","","","","-24","","Mostly Cloudy"
"1998-02-15 09:00","1998","02","15","09:00","-14.0","","-20.6","","57","","7","","11","","24.1","","102.36","","","","-20","","Mostly Cloudy"
"1998-02-15 10:00","1998","02","15","10:00","-12.6","","-19.2","","58","","8","","9","","24.1","","102.39","","","","-18","","Cloudy"
"1998-02-15 11:00","1998","02","15","11:00","-11.2","","-18.7","","54","","13","","6","","24.1","","102.46","","","","-15","","Cloudy"
"1998-02-15 12:00","1998","02","15","12:00","-10.8","","-19.0","","51","","10","","13","","24.1","","102.39","","","","-17","","Cloudy"
"1998-02-15 13:00","1998","02","15","13:00","-9.9","","-18.3","","50","","11","","7","","24.1","","102.39","","","","-14","","Cloudy"
"1998-02-15 14:00","1998","02","15","14:00","-9.3","","-17.4","","52","","15","","7","","24.1","","102.26","","","","-13","","Cloudy"
"1998-02-15 15:00","1998","02","15","15:00","-9.1","","-17.2","","52","","12","","11","","24.1","","102.19","","","","-15","","Mostly Cloudy"
"1998-02-15 16:00","1998","02","15","16:00","-8.6","","-16.7","","52","","12","","6","","24.1","","102.22","","","","-12","","Mainly Clear"
"1998-02-15 17:00","1998","02","15","17:00","-8.5","","-17.1","","50","","12","","11","","24.1","","102.19","","","","-14","","Mainly Clear"
"1998-02-15 18:00","1998","02","15","18:00","-8.8","","-16.5","","54","","9","","7","","24.1","","102.22","","","","-13","","Mainly Clear"
"1998-02-15 19:00","1998","02","15","19:00","-8.7","","-15.8","","56","","6","","6","","24.1","","102.19","","","","-12","","Clear"
"1998-02-15 20:00","1998","02","15","20:00","-9.3","","-14.9","","64","","4","","6","","24.1","","102.16","","","","-13","","Clear"
"1998-02-15 21:00","1998","02","15","21:00","-9.7","","-15.3","","64","","5","","9","","24.1","","102.12","","","","-15","","Clear"
"1998-02-15 22:00","1998","02","15","22:00","-9.6","","-15.2","","64","","6","","7","","24.1","","102.12","","","","-14","","Clear"
"1998-02-15 23:00","1998","02","15","23:00","-10.0","","-15.5","","64","","4","","7","","24.1","","102.05","","","","-14","","Clear"
"1998-02-16 00:00","1998","02","16","00:00"
"1998-02-16 01:00","1998","02","16","01:00"
"1998-02-16 02:00","1998","02","16","02:00"
"1998-02-16 03:00","1998","02","16","03:00"
"1998-02-16 04:00","1998","02","16","04:00"
"1998-02-16 05:00","1998","02","16","05:00"
"1998-02-16 06:00","1998","02","16","06:00","-11.1","","-15.7","","69","","5","","7","","24.1","","101.92","","","","-15","","Mainly Clear"
"1998-02-16 07:00","1998","02","16","07:00","-11.0","","-15.8","","68","","5","","7","","24.1","","101.99","","","","-15","","Mainly Clear"
"1998-02-16 08:00","1998","02","16","08:00","-9.9","","-14.7","","68","","4","","9","","24.1","","102.05","","","","-15","","Mostly Cloudy"
"1998-02-16 09:00","1998","02","16","09:00","-7.0","","-12.7","","64","","5","","9","","24.1","","102.05","","","","-11","","Mostly Cloudy"
"1998-02-16 10:00","1998","02","16","10:00","-4.8","","-12.6","","54","","6","","15","","24.1","","101.99","","","","-10","","Cloudy"
"1998-02-16 11:00","1998","02","16","11:00"
"1998-02-16 12:00","1998","02","16","12:00","-1.9","","-11.6","","47","","10","","15","","24.1","","101.92","","","","-7","","Cloudy"
"1998-02-16 13:00","1998","02","16","13:00","-0.7","","-9.9","","50","","13","","9","","24.1","","101.85","","","","-4","","Cloudy"
"1998-02-16 14:00","1998","02","16","14:00","-0.1","","-9.0","","51","","14","","6","","24.1","","101.82","","","","-2","","Cloudy"
"1998-02-16 15:00","1998","02","16","15:00","0.9","","-8.0","","51","","13","","4","","24.1","","101.75","","","","","","Cloudy"
"1998-02-16 16:00","1998","02","16","16:00","1.3","","-8.0","","50","","9","","7","","24.1","","101.72","","","","","","Cloudy"
"1998-02-16 17:00","1998","02","16","17:00","1.9","","-7.9","","48","","8","","11","","24.1","","101.72","","","","","","Cloudy"
"1998-02-16 18:00","1998","02","16","18:00","0.8","","-9.2","","47","","7","","9","","24.1","","101.85","","","","","","Cloudy"
"1998-02-16 19:00","1998","02","16","19:00","0.5","","-9.1","","49","","6","","9","","24.1","","101.85","","","","","","Mostly Cloudy"
"1998-02-16 20:00","1998","02","16","20:00","0.5","","-9.5","","47","","6","","11","","24.1","","101.75","","","","","","Cloudy"
"1998-02-16 21:00","1998","02","16","21:00","-0.1","","-9.0","","51","","6","","13","","24.1","","101.75","","","","-4","","Cloudy"
"1998-02-16 22:00","1998","02","16","22:00","-0.4","","-8.2","","56","","7","","13","","24.1","","101.72","","","","-5","","Cloudy"
"1998-02-16 23:00","1998","02","16","23:00","-1.1","","-7.9","","60","","7","","11","","24.1","","101.72","","","","-5","","Cloudy"
"1998-02-17 00:00","1998","02","17","00:00"
"1998-02-17 01:00","1998","02","17","01:00"
"1998-02-17 02:00","1998","02","17","02:00"
"1998-02-17 03:00","1998","02","17","03:00"
"1998-02-17 04:00","1998","02","17","04:00"
"1998-02-17 05:00","1998","02","17","05:00"
"1998-02-17 06:00","1998","02","17","06:00","-1.0","","-7.2","","63","","6","","19","","19.3","","101.52","","","","-6","","Freezing Rain"
"1998-02-17 07:00","1998","02","17","07:00","-1.2","","-6.0","","70","","7","","19","","19.3","","101.48","","","","-7","","Freezing Rain"
"1998-02-17 08:00","1998","02","17","08:00","-1.0","","-5.4","","72","","6","","19","","19.3","","101.48","","","","-6","","Freezing Rain"
"1998-02-17 09:00","1998","02","17","09:00","-1.0","","-5.1","","74","","6","","22","","16.1","","101.45","","","","-7","","Freezing Rain"
"1998-02-17 10:00","1998","02","17","10:00","-0.7","","-4.3","","77","","7","","28","","19.3","","101.38","","","","-7","","Freezing Rain"
"1998-02-17 11:00","1998","02","17","11:00","0.4","","-3.7","","74","","4","","22","","19.3","","101.32","","","","","","Cloudy"
"1998-02-17 12:00","1998","02","17","12:00","2.0","","-2.9","","70","","6","","26","","19.3","","101.11","","","","","","Cloudy"
"1998-02-17 13:00","1998","02","17","13:00","3.0","","-3.4","","63","","6","","28","","19.3","","101.01","","","","","","Mostly Cloudy"
"1998-02-17 14:00","1998","02","17","14:00","3.3","","-4.0","","59","","7","","33","","19.3","","100.81","","","","","","Mostly Cloudy"
"1998-02-17 15:00","1998","02","17","15:00","2.8","","-5.5","","54","","5","","19","","19.3","","100.68","","","","","","Mostly Cloudy"
"1998-02-17 16:00","1998","02","17","16:00","2.2","","-6.0","","55","","4","","28","","19.3","","100.68","","","","","","Cloudy"
"1998-02-17 17:00","1998","02","17","17:00","1.9","","-6.3","","55","","6","","19","","19.3","","100.68","","","","","","Cloudy"
"1998-02-17 18:00","1998","02","17","18:00","1.6","","-5.5","","59","","5","","19","","19.3","","100.61","","","","","","Cloudy"
"1998-02-17 19:00","1998","02","17","19:00","1.8","","-5.9","","57","","6","","28","","24.1","","100.61","","","","","","Cloudy"
"1998-02-17 20:00","1998","02","17","20:00","0.9","","-3.6","","72","","6","","28","","16.1","","100.48","","","","","","Rain"
"1998-02-17 21:00","1998","02","17","21:00","0.8","","-1.1","","87","","6","","19","","12.9","","100.34","","","","","","Freezing Rain"
"1998-02-17 22:00","1998","02","17","22:00","1.0","","-0.4","","90","","6","","19","","16.1","","100.24","","","","","","Rain"
"1998-02-17 23:00","1998","02","17","23:00","1.1","","-0.1","","92","","7","","22","","11.3","","100.14","","","","","","Rain,Snow"
"1998-02-18 00:00","1998","02","18","00:00"
"1998-02-18 01:00","1998","02","18","01:00"
"1998-02-18 02:00","1998","02","18","02:00"
"1998-02-18 03:00","1998","02","18","03:00"
"1998-02-18 04:00","1998","02","18","04:00"
"1998-02-18 05:00","1998","02","18","05:00"
"1998-02-18 06:00","1998","02","18","06:00","0.6","","-0.7","","91","","6","","33","","6.4","","99.54","","","","","","Ice Pellets"
"1998-02-18 07:00","1998","02","18","07:00","0.4","","-0.6","","93","","5","","19","","8.0","","99.40","","","","","","Snow,Fog"
"1998-02-18 08:00","1998","02","18","08:00","0.5","","-0.5","","93","","5","","28","","16.1","","99.40","","","","","","Cloudy"
"1998-02-18 09:00","1998","02","18","09:00","0.7","","-0.5","","92","","5","","22","","16.1","","99.40","","","","","","Cloudy"
"1998-02-18 10:00","1998","02","18","10:00","0.8","","-0.3","","92","","4","","33","","16.1","","99.37","","","","","","Rain"
"1998-02-18 11:00","1998","02","18","11:00","0.8","","-0.3","","92","","6","","28","","19.3","","99.37","","","","","","Cloudy"
"1998-02-18 12:00","1998","02","18","12:00","1.0","","0.0","","93","","5","","19","","16.1","","99.37","","","","","","Rain Showers"
"1998-02-18 13:00","1998","02","18","13:00","1.4","","0.4","","93","","6","","28","","19.3","","99.30","","","","","","Cloudy"
"1998-02-18 14:00","1998","02","18","14:00","1.6","","0.6","","93","","6","","32","","19.3","","99.27","","","","","","Cloudy"
"1998-02-18 15:00","1998","02","18","15:00","1.6","","0.7","","94","","6","","26","","12.9","","99.27","","","","","","Rain Showers"
"1998-02-18 16:00","1998","02","18","16:00","1.8","","0.8","","93","","5","","28","","16.1","","99.27","","","","","","Cloudy"
"1998-02-18 17:00","1998","02","18","17:00","1.8","","0.6","","92","","4","","22","","19.3","","99.27","","","","","","Cloudy"
"1998-02-18 18:00","1998","02","18","18:00","1.9","","0.8","","92","","4","","28","","19.3","","99.30","","","","","","Cloudy"
"1998-02-18 19:00","1998","02","18","19:00","1.9","","0.7","","92","","5","","28","","19.3","","99.37","","","","","","Cloudy"
"1998-02-18 20:00","1998","02","18","20:00","1.8","","0.4","","90","","4","","28","","11.3","","99.37","","","","","","Cloudy"
"1998-02-18 21:00","1998","02","18","21:00","1.8","","0.6","","92","","4","","22","","8.0","","99.37","","","","","","Drizzle,Fog"
"1998-02-18 22:00","1998","02","18","22:00","1.7","","0.4","","91","","4","","19","","8.0","","99.37","","","","","","Drizzle,Fog"
"1998-02-18 23:00","1998","02","18","23:00","1.7","","0.4","","91","","5","","22","","8.0","","99.34","","","","","","Drizzle,Fog"
"1998-02-19 00:00","1998","02","19","00:00"
"1998-02-19 01:00","1998","02","19","01:00"
"1998-02-19 02:00","1998","02","19","02:00"
"1998-02-19 03:00","1998","02","19","03:00"
"1998-02-19 04:00","1998","02","19","04:00"
"1998-02-19 05:00","1998","02","19","05:00"
"1998-02-19 06:00","1998","02","19","06:00","1.0","","0.0","","93","","3","","13","","12.9","","99.37","","","","","","Cloudy"
"1998-02-19 07:00","1998","02","19","07:00","0.9","","-0.1","","93","","5","","15","","12.9","","99.40","","","","","","Cloudy"
"1998-02-19 08:00","1998","02","19","08:00","1.0","","-0.1","","92","","4","","19","","9.7","","99.40","","","","","","Fog"
"1998-02-19 09:00","1998","02","19","09:00","1.1","","0.1","","93","","3","","17","","12.9","","99.44","","","","","","Cloudy"
"1998-02-19 10:00","1998","02","19","10:00","1.5","","0.6","","94","","3","","19","","12.9","","99.47","","","","","","Cloudy"
"1998-02-19 11:00","1998","02","19","11:00","1.6","","0.6","","93","","4","","11","","16.1","","99.50","","","","","","Cloudy"
"1998-02-19 12:00","1998","02","19","12:00","1.9","","0.8","","92","","36","","15","","16.1","","99.54","","","","","","Cloudy"
"1998-02-19 13:00","1998","02","19","13:00","2.1","","1.3","","94","","36","","11","","19.3","","99.50","","","","","","Cloudy"
"1998-02-19 14:00","1998","02","19","14:00","2.4","","1.2","","92","","33","","4","","19.3","","99.54","","","","","","Cloudy"
"1998-02-19 15:00","1998","02","19","15:00","2.2","","1.2","","93","","31","","6","","19.3","","99.60","","","","","","Cloudy"
"1998-02-19 16:00","1998","02","19","16:00","2.1","","1.3","","94","","","","0","","16.1","","99.64","","","","","","Rain"
"1998-02-19 17:00","1998","02","19","17:00","1.5","","0.4","","92","","","","0","","9.7","","99.71","","","","","","Rain,Fog"
"1998-02-19 18:00","1998","02","19","18:00","1.2","","0.2","","93","","23","","6","","6.4","","99.71","","","","","","Rain,Fog"
"1998-02-19 19:00","1998","02","19","19:00","0.9","","-0.5","","90","","25","","7","","0.8","","99.81","","","","","","Rain,Fog"
"1998-02-19 20:00","1998","02","19","20:00","0.8","","-0.4","","92","","","","0","","0.8","","99.77","","","","","","Rain,Fog"
"1998-02-19 21:00","1998","02","19","21:00","0.8","","-0.5","","91","","22","","6","","0.4","","99.74","","","","","","Fog"
"1998-02-19 22:00","1998","02","19","22:00","0.7","","-0.8","","90","","22","","6","","0.4","","99.74","","","","","","Fog"
"1998-02-19 23:00","1998","02","19","23:00","0.8","","0.3","","96","","","","0","","0.8","","99.71","","","","","","Fog"
"1998-02-20 00:00","1998","02","20","00:00"
"1998-02-20 01:00","1998","02","20","01:00"
"1998-02-20 02:00","1998","02","20","02:00"
"1998-02-20 03:00","1998","02","20","03:00"
"1998-02-20 04:00","1998","02","20","04:00"
"1998-02-20 05:00","1998","02","20","05:00"
"1998-02-20 06:00","1998","02","20","06:00","1.1","","0.4","","95","","26","","13","","1.2","","99.64","","","","","","Rain,Fog"
"1998-02-20 07:00","1998","02","20","07:00","1.0","","0.7","","98","","25","","9","","1.2","","99.60","","","","","","Rain,Fog"
"1998-02-20 08:00","1998","02","20","08:00","0.9","","0.6","","98","","26","","9","","1.2","","99.60","","","","","","Fog"
"1998-02-20 09:00","1998","02","20","09:00","1.0","","0.8","","99","","27","","9","","1.2","","99.54","","","","","","Fog"
"1998-02-20 10:00","1998","02","20","10:00","1.2","","1.2","","100","","25","","6","","2.4","","99.54","","","","","","Fog"
"1998-02-20 11:00","1998","02","20","11:00","1.6","","1.6","","100","","26","","6","","4.0","","99.50","","","","","","Fog"
"1998-02-20 12:00","1998","02","20","12:00","1.4","","1.4","","100","","25","","6","","4.0","","99.50","","","","","","Fog"
"1998-02-20 13:00","1998","02","20","13:00","1.6","","1.6","","100","","25","","7","","4.0","","99.40","","","","","","Rain,Fog"
"1998-02-20 14:00","1998","02","20","14:00","1.5","","1.5","","100","","26","","6","","4.0","","99.37","","","","","","Rain,Fog"
"1998-02-20 15:00","1998","02","20","15:00","1.9","","1.9","","100","","27","","4","","4.0","","99.34","","","","","","Rain,Fog"
"1998-02-20 16:00","1998","02","20","16:00","1.7","","1.7","","100","","26","","6","","12.9","","99.30","","","","","","Rain"
"1998-02-20 17:00","1998","02","20","17:00","1.9","","1.9","","100","","24","","7","","9.7","","99.30","","","","","","Rain,Fog"
"1998-02-20 18:00","1998","02","20","18:00","1.5","","1.3","","99","","25","","9","","8.0","","99.34","","","","","","Drizzle,Fog"
"1998-02-20 19:00","1998","02","20","19:00","1.6","","1.2","","97","","26","","9","","9.7","","99.37","","","","","","Rain,Fog"
"1998-02-20 20:00","1998","02","20","20:00","1.5","","1.5","","100","","27","","4","","9.7","","99.37","","","","","","Rain,Fog"
"1998-02-20 21:00","1998","02","20","21:00","1.6","","1.3","","98","","32","","11","","16.1","","99.40","","","","","","Cloudy"
"1998-02-20 22:00","1998","02","20","22:00","1.2","","1.0","","99","","33","","7","","19.3","","99.40","","","","","","Cloudy"
"1998-02-20 23:00","1998","02","20","23:00","0.5","","-0.4","","94","","33","","19","","16.1","","99.40","","","","","","Snow Showers"
"1998-02-21 00:00","1998","02","21","00:00"
"1998-02-21 01:00","1998","02","21","01:00"
"1998-02-21 02:00","1998","02","21","02:00"
"1998-02-21 03:00","1998","02","21","03:00"
"1998-02-21 04:00","1998","02","21","04:00"
"1998-02-21 05:00","1998","02","21","05:00"
"1998-02-21 06:00","1998","02","21","06:00","-0.1","","-2.8","","82","","31","","9","","19.3","","99.64","","","","-3","","Mostly Cloudy"
"1998-02-21 07:00","1998","02","21","07:00","-0.2","","-2.6","","84","","31","","15","","24.1","","99.71","","","","-5","","Mostly Cloudy"
"1998-02-21 08:00","1998","02","21","08:00","-0.4","","-3.3","","81","","30","","19","","24.1","","99.77","","","","-6","","Mostly Cloudy"
"1998-02-21 09:00","1998","02","21","09:00","0.4","","-3.4","","76","","30","","19","","24.1","","99.84","","","","","","Mostly Cloudy"
"1998-02-21 10:00","1998","02","21","10:00","0.9","","-2.8","","76","","31","","13","","24.1","","99.84","","","","","","Mostly Cloudy"
"1998-02-21 11:00","1998","02","21","11:00","0.7","","-3.5","","73","","33","","22","","16.1","","99.91","","","","","","Snow Showers"
"1998-02-21 12:00","1998","02","21","12:00","1.9","","-3.5","","67","","32","","19","","24.1","","99.87","","","","","","Mostly Cloudy"
"1998-02-21 13:00","1998","02","21","13:00","3.0","","-2.6","","67","","31","","22","","24.1","","99.87","","","","","","Mostly Cloudy"
"1998-02-21 14:00","1998","02","21","14:00","3.3","","-1.7","","70","","28","","19","","24.1","","99.91","","","","","","Mostly Cloudy"
"1998-02-21 15:00","1998","02","21","15:00","4.1","","-1.2","","68","","27","","19","","24.1","","99.91","","","","","","Mainly Clear"
"1998-02-21 16:00","1998","02","21","16:00","4.5","","-1.5","","65","","27","","9","","24.1","","99.94","","","","","","Mainly Clear"
"1998-02-21 17:00","1998","02","21","17:00","2.8","","-2.7","","67","","26","","22","","24.1","","99.97","","","","","","Mostly Cloudy"
"1998-02-21 18:00","1998","02","21","18:00","1.9","","-2.6","","72","","26","","13","","24.1","","100.07","","","","","","Mainly Clear"
"1998-02-21 19:00","1998","02","21","19:00","1.2","","-2.2","","78","","25","","11","","24.1","","100.18","","","","","","Mainly Clear"
"1998-02-21 20:00","1998","02","21","20:00","1.9","","-1.7","","77","","27","","13","","24.1","","100.21","","","","","","Mainly Clear"
"1998-02-21 21:00","1998","02","21","21:00","1.7","","-2.0","","76","","28","","13","","24.1","","100.31","","","","","","Mostly Cloudy"
"1998-02-21 22:00","1998","02","21","22:00","1.0","","-2.3","","79","","29","","13","","24.1","","100.38","","","","","","Mainly Clear"
"1998-02-21 23:00","1998","02","21","23:00","0.1","","-3.3","","78","","27","","9","","24.1","","100.41","","","","","","Mainly Clear"
"1998-02-22 00:00","1998","02","22","00:00"
"1998-02-22 01:00","1998","02","22","01:00"
"1998-02-22 02:00","1998","02","22","02:00"
"1998-02-22 03:00","1998","02","22","03:00"
"1998-02-22 04:00","1998","02","22","04:00"
"1998-02-22 05:00","1998","02","22","05:00"
"1998-02-22 06:00","1998","02","22","06:00","-3.5","","-5.5","","86","","31","","11","","24.1","","100.81","","","","-8","","Mainly Clear"
"1998-02-22 07:00","1998","02","22","07:00","-3.9","","-5.5","","89","","28","","4","","24.1","","100.91","","","","-6","","Mainly Clear"
"1998-02-22 08:00","1998","02","22","08:00","-3.5","","-5.2","","88","","28","","7","","24.1","","100.95","","","","-6","","Mainly Clear"
"1998-02-22 09:00","1998","02","22","09:00","-1.5","","-3.5","","86","","32","","9","","24.1","","100.98","","","","-5","","Mainly Clear"
"1998-02-22 10:00","1998","02","22","10:00","-0.1","","-2.5","","84","","22","","9","","24.1","","101.01","","","","-3","","Mainly Clear"
"1998-02-22 11:00","1998","02","22","11:00","0.1","","-2.9","","80","","17","","7","","24.1","","100.98","","","","","","Mainly Clear"
"1998-02-22 12:00","1998","02","22","12:00","0.6","","-3.0","","77","","18","","15","","24.1","","100.98","","","","","","Mainly Clear"
"1998-02-22 13:00","1998","02","22","13:00","0.8","","-2.5","","79","","19","","24","","24.1","","100.98","","","","","","Mainly Clear"
"1998-02-22 14:00","1998","02","22","14:00","1.0","","-2.1","","80","","19","","17","","24.1","","100.98","","","","","","Mainly Clear"
"1998-02-22 15:00","1998","02","22","15:00","1.4","","-1.5","","81","","17","","15","","24.1","","100.98","","","","","","Mainly Clear"
"1998-02-22 16:00","1998","02","22","16:00","1.2","","-1.5","","82","","17","","15","","24.1","","100.91","","","","","","Mainly Clear"
"1998-02-22 17:00","1998","02","22","17:00","1.2","","-1.7","","81","","19","","19","","24.1","","100.91","","","","","","Mainly Clear"
"1998-02-22 18:00","1998","02","22","18:00","0.7","","-2.4","","80","","21","","11","","24.1","","100.88","","","","","","Mainly Clear"
"1998-02-22 19:00","1998","02","22","19:00","0.5","","-2.7","","79","","24","","9","","24.1","","100.98","","","","","","Mainly Clear"
"1998-02-22 20:00","1998","02","22","20:00","0.3","","-2.5","","81","","25","","7","","24.1","","101.01","","","","","","Mainly Clear"
"1998-02-22 21:00","1998","02","22","21:00","-0.7","","-2.7","","86","","24","","4","","24.1","","101.01","","","","-2","","Mainly Clear"
"1998-02-22 22:00","1998","02","22","22:00","-1.0","","-3.6","","82","","27","","7","","24.1","","101.05","","","","-4","","Mainly Clear"
"1998-02-22 23:00","1998","02","22","23:00","-1.1","","-3.5","","84","","26","","7","","24.1","","101.01","","","","-4","","Clear"
"1998-02-23 00:00","1998","02","23","00:00"
"1998-02-23 01:00","1998","02","23","01:00"
"1998-02-23 02:00","1998","02","23","02:00"
"1998-02-23 03:00","1998","02","23","03:00"
"1998-02-23 04:00","1998","02","23","04:00"
"1998-02-23 05:00","1998","02","23","05:00"
"1998-02-23 06:00","1998","02","23","06:00","-4.0","","-5.9","","87","","35","","9","","24.1","","100.91","","","","-8","","Cloudy"
"1998-02-23 07:00","1998","02","23","07:00","-3.3","","-5.6","","84","","2","","9","","24.1","","100.88","","","","-7","","Cloudy"
"1998-02-23 08:00","1998","02","23","08:00","-2.5","","-4.5","","86","","3","","17","","24.1","","100.78","","","","-8","","Cloudy"
"1998-02-23 09:00","1998","02","23","09:00","-1.7","","-3.9","","85","","7","","11","","24.1","","100.81","","","","-6","","Cloudy"
"1998-02-23 10:00","1998","02","23","10:00","-0.7","","-2.8","","86","","6","","15","","24.1","","100.78","","","","-5","","Cloudy"
"1998-02-23 11:00","1998","02","23","11:00","1.4","","-1.5","","81","","8","","19","","24.1","","100.68","","","","","","Cloudy"
"1998-02-23 12:00","1998","02","23","12:00","2.4","","-1.7","","74","","6","","19","","24.1","","100.61","","","","","","Cloudy"
"1998-02-23 13:00","1998","02","23","13:00","2.8","","-2.2","","70","","6","","19","","24.1","","100.48","","","","","","Cloudy"
"1998-02-23 14:00","1998","02","23","14:00","3.5","","-2.1","","67","","6","","26","","24.1","","100.41","","","","","","Mostly Cloudy"
"1998-02-23 15:00","1998","02","23","15:00","4.1","","-2.0","","64","","6","","22","","24.1","","100.34","","","","","","Mostly Cloudy"
"1998-02-23 16:00","1998","02","23","16:00","3.9","","-2.4","","63","","6","","22","","24.1","","100.31","","","","","","Mostly Cloudy"
"1998-02-23 17:00","1998","02","23","17:00","3.9","","-3.2","","60","","6","","19","","24.1","","100.28","","","","","","Cloudy"
"1998-02-23 18:00","1998","02","23","18:00","2.7","","-3.6","","63","","6","","22","","24.1","","100.21","","","","","","Cloudy"
"1998-02-23 19:00","1998","02","23","19:00","2.2","","-3.6","","65","","4","","15","","24.1","","100.18","","","","","","Cloudy"
"1998-02-23 20:00","1998","02","23","20:00","1.5","","-3.4","","70","","4","","19","","24.1","","100.07","","","","","","Cloudy"
"1998-02-23 21:00","1998","02","23","21:00","1.4","","-3.8","","68","","5","","22","","24.1","","100.04","","","","","","Cloudy"
"1998-02-23 22:00","1998","02","23","22:00","0.8","","-3.7","","72","","5","","19","","24.1","","99.97","","","","","","Mostly Cloudy"
"1998-02-23 23:00","1998","02","23","23:00","0.6","","-3.8","","72","","6","","15","","24.1","","99.94","","","","","","Mostly Cloudy"
"1998-02-24 00:00","1998","02","24","00:00"
"1998-02-24 01:00","1998","02","24","01:00"
"1998-02-24 02:00","1998","02","24","02:00"
"1998-02-24 03:00","1998","02","24","03:00"
"1998-02-24 04:00","1998","02","24","04:00"
"1998-02-24 05:00","1998","02","24","05:00"
"1998-02-24 06:00","1998","02","24","06:00","0.1","","-3.0","","80","","4","","13","","11.3","","99.71","","","","","","Snow"
"1998-02-24 07:00","1998","02","24","07:00","0.4","","-3.4","","76","","1","","15","","19.3","","99.67","","","","","","Cloudy"
"1998-02-24 08:00","1998","02","24","08:00","0.4","","-3.7","","74","","1","","13","","19.3","","99.71","","","","","","Cloudy"
"1998-02-24 09:00","1998","02","24","09:00","0.4","","-4.2","","71","","1","","15","","19.3","","99.67","","","","","","Cloudy"
"1998-02-24 10:00","1998","02","24","10:00","0.7","","-4.2","","70","","1","","13","","16.1","","99.64","","","","","","Cloudy"
"1998-02-24 11:00","1998","02","24","11:00","-0.1","","-3.6","","77","","3","","19","","6.4","","99.60","","","","-5","","Snow,Ice Pellets"
"1998-02-24 12:00","1998","02","24","12:00","0.9","","-3.2","","74","","1","","22","","16.1","","99.50","","","","","","Snow,Ice Pellets"
"1998-02-24 13:00","1998","02","24","13:00","2.2","","-4.1","","63","","3","","22","","24.1","","99.47","","","","","","Cloudy"
"1998-02-24 14:00","1998","02","24","14:00","2.6","","-4.5","","59","","2","","19","","19.3","","99.40","","","","","","Snow"
"1998-02-24 15:00","1998","02","24","15:00","0.6","","-2.1","","82","","3","","9","","16.1","","99.44","","","","","","Snow"
"1998-02-24 16:00","1998","02","24","16:00","2.0","","-4.1","","64","","3","","19","","19.3","","99.40","","","","","","Snow"
"1998-02-24 17:00","1998","02","24","17:00","2.1","","-4.4","","62","","5","","19","","12.9","","99.40","","","","","","Snow"
"1998-02-24 18:00","1998","02","24","18:00","0.4","","-2.2","","83","","1","","19","","1.2","","99.44","","","","","","Snow"
"1998-02-24 19:00","1998","02","24","19:00","0.2","","-1.8","","86","","33","","13","","1.2","","99.47","","","","","","Snow"
"1998-02-24 20:00","1998","02","24","20:00","0.3","","-1.2","","90","","34","","19","","9.7","","99.47","","","","","","Snow"
"1998-02-24 21:00","1998","02","24","21:00","0.4","","-0.9","","91","","32","","11","","8.0","","99.47","","","","","","Snow"
"1998-02-24 22:00","1998","02","24","22:00","0.4","","-0.7","","92","","33","","13","","8.0","","99.47","","","","","","Snow"
"1998-02-24 23:00","1998","02","24","23:00","0.4","","-0.7","","92","","34","","19","","3.2","","99.47","","","","","","Snow"
"1998-02-25 00:00","1998","02","25","00:00"
"1998-02-25 01:00","1998","02","25","01:00"
"1998-02-25 02:00","1998","02","25","02:00"
"1998-02-25 03:00","1998","02","25","03:00"
"1998-02-25 04:00","1998","02","25","04:00"
"1998-02-25 05:00","1998","02","25","05:00"
"1998-02-25 06:00","1998","02","25","06:00","2.8","","-2.7","","67","","32","","15","","24.1","","99.54","","","","","","Cloudy"
"1998-02-25 07:00","1998","02","25","07:00","2.9","","-2.9","","66","","32","","17","","19.3","","99.50","","","","","","Mostly Cloudy"
"1998-02-25 08:00","1998","02","25","08:00","3.1","","-2.6","","66","","34","","17","","19.3","","99.60","","","","","","Mostly Cloudy"
"1998-02-25 09:00","1998","02","25","09:00","4.6","","-3.3","","56","","33","","17","","24.1","","99.71","","","","","","Mostly Cloudy"
"1998-02-25 10:00","1998","02","25","10:00","5.8","","-2.7","","54","","33","","19","","24.1","","99.74","","","","","","Mostly Cloudy"
"1998-02-25 11:00","1998","02","25","11:00","6.8","","-1.9","","54","","35","","33","","24.1","","99.74","","","","","","Mostly Cloudy"
"1998-02-25 12:00","1998","02","25","12:00","8.4","","-0.4","","54","","33","","26","","24.1","","99.74","","","","","","Mainly Clear"
"1998-02-25 13:00","1998","02","25","13:00","9.9","","-0.4","","49","","33","","19","","24.1","","99.74","","","","","","Mainly Clear"
"1998-02-25 14:00","1998","02","25","14:00","10.4","","-0.9","","45","","34","","22","","24.1","","99.77","","","","","","Mainly Clear"
"1998-02-25 15:00","1998","02","25","15:00","10.6","","-1.6","","43","","33","","33","","24.1","","99.87","","","","","","Mainly Clear"
"1998-02-25 16:00","1998","02","25","16:00","10.3","","-1.9","","42","","35","","28","","24.1","","99.94","","","","","","Mainly Clear"
"1998-02-25 17:00","1998","02","25","17:00","9.5","","-2.1","","44","","34","","22","","24.1","","99.97","","","","","","Mainly Clear"
"1998-02-25 18:00","1998","02","25","18:00","6.9","","-3.1","","49","","34","","19","","24.1","","100.07","","","","","","Mainly Clear"
"1998-02-25 19:00","1998","02","25","19:00","6.4","","-3.6","","49","","33","","19","","24.1","","100.18","","","","","","Clear"
"1998-02-25 20:00","1998","02","25","20:00","5.2","","-3.7","","53","","32","","17","","24.1","","100.21","","","","","","Clear"
"1998-02-25 21:00","1998","02","25","21:00","4.4","","-4.1","","54","","32","","15","","24.1","","100.31","","","","","","Clear"
"1998-02-25 22:00","1998","02","25","22:00","3.9","","-4.3","","55","","33","","19","","24.1","","100.34","","","","","","Clear"
"1998-02-25 23:00","1998","02","25","23:00","4.0","","-4.4","","54","","33","","22","","24.1","","100.38","","","","","","Clear"
"1998-02-26 00:00","1998","02","26","00:00"
"1998-02-26 01:00","1998","02","26","01:00"
"1998-02-26 02:00","1998","02","26","02:00"
"1998-02-26 03:00","1998","02","26","03:00"
"1998-02-26 04:00","1998","02","26","04:00"
"1998-02-26 05:00","1998","02","26","05:00"
"1998-02-26 06:00","1998","02","26","06:00","0.1","","-3.5","","77","","35","","24","","24.1","","100.68","","","","","","Clear"
"1998-02-26 07:00","1998","02","26","07:00","0.1","","-3.5","","77","","2","","13","","24.1","","100.68","","","","","","Clear"
"1998-02-26 08:00","1998","02","26","08:00","1.0","","-3.4","","72","","1","","26","","24.1","","100.75","","","","","","Mainly Clear"
"1998-02-26 09:00","1998","02","26","09:00","1.5","","-3.6","","69","","36","","28","","24.1","","100.68","","","","","","Mostly Cloudy"
"1998-02-26 10:00","1998","02","26","10:00","2.7","","-2.9","","67","","36","","28","","24.1","","100.71","","","","","","Mostly Cloudy"
"1998-02-26 11:00","1998","02","26","11:00","4.3","","-2.6","","61","","35","","28","","24.1","","100.75","","","","","","Mostly Cloudy"
"1998-02-26 12:00","1998","02","26","12:00","5.7","","-2.5","","56","","4","","15","","24.1","","100.75","","","","","","Mostly Cloudy"
"1998-02-26 13:00","1998","02","26","13:00","6.6","","-2.8","","51","","1","","6","","24.1","","100.71","","","","","","Mostly Cloudy"
"1998-02-26 14:00","1998","02","26","14:00","2.6","","-3.1","","66","","20","","11","","24.1","","100.68","","","","","","Cloudy"
"1998-02-26 15:00","1998","02","26","15:00","3.1","","-1.0","","74","","21","","9","","24.1","","100.68","","","","","","Mostly Cloudy"
"1998-02-26 16:00","1998","02","26","16:00","4.4","","0.5","","76","","24","","9","","24.1","","100.64","","","","","","Mostly Cloudy"
"1998-02-26 17:00","1998","02","26","17:00","2.8","","0.9","","87","","18","","6","","24.1","","100.61","","","","","","Mostly Cloudy"
"1998-02-26 18:00","1998","02","26","18:00","2.0","","-1.3","","79","","8","","4","","24.1","","100.64","","","","","","Mostly Cloudy"
"1998-02-26 19:00","1998","02","26","19:00","2.6","","-1.3","","75","","2","","6","","24.1","","100.68","","","","","","Mainly Clear"
"1998-02-26 20:00","1998","02","26","20:00","1.6","","-2.6","","74","","36","","9","","24.1","","100.64","","","","","","Mainly Clear"
"1998-02-26 21:00","1998","02","26","21:00","2.2","","-3.5","","66","","","","0","","24.1","","100.61","","","","","","Clear"
"1998-02-26 22:00","1998","02","26","22:00","-0.2","","-5.8","","66","","","","0","","24.1","","100.61","","","","","","Clear"
"1998-02-26 23:00","1998","02","26","23:00","-2.0","","-7.3","","67","","36","","9","","24.1","","100.58","","","","-5","","Clear"
"1998-02-27 00:00","1998","02","27","00:00"
"1998-02-27 01:00","1998","02","27","01:00"
"1998-02-27 02:00","1998","02","27","02:00"
"1998-02-27 03:00","1998","02","27","03:00"
"1998-02-27 04:00","1998","02","27","04:00"
"1998-02-27 05:00","1998","02","27","05:00"
"1998-02-27 06:00","1998","02","27","06:00","-2.6","","-7.8","","67","","25","","7","","24.1","","100.44","","","","-5","","Mainly Clear"
"1998-02-27 07:00","1998","02","27","07:00","-3.9","","-7.7","","75","","30","","7","","24.1","","100.41","","","","-7","","Mostly Cloudy"
"1998-02-27 08:00","1998","02","27","08:00","-2.0","","-6.1","","73","","36","","6","","24.1","","100.41","","","","-4","","Mostly Cloudy"
"1998-02-27 09:00","1998","02","27","09:00","0.0","","-7.5","","57","","5","","20","","24.1","","100.31","","","","-5","","Cloudy"
"1998-02-27 10:00","1998","02","27","10:00","1.4","","-7.2","","53","","8","","28","","24.1","","100.24","","","","","","Cloudy"
"1998-02-27 11:00","1998","02","27","11:00","2.3","","-6.5","","52","","9","","19","","24.1","","100.24","","","","","","Cloudy"
"1998-02-27 12:00","1998","02","27","12:00","3.3","","-6.2","","50","","3","","19","","24.1","","100.14","","","","","","Cloudy"
"1998-02-27 13:00","1998","02","27","13:00","3.4","","-5.1","","54","","5","","7","","24.1","","100.04","","","","","","Cloudy"
"1998-02-27 14:00","1998","02","27","14:00","3.9","","-5.7","","50","","7","","22","","24.1","","99.94","","","","","","Cloudy"
"1998-02-27 15:00","1998","02","27","15:00","4.7","","-5.9","","46","","8","","15","","24.1","","99.94","","","","","","Cloudy"
"1998-02-27 16:00","1998","02","27","16:00","4.9","","-5.2","","48","","6","","19","","24.1","","99.87","","","","","","Cloudy"
"1998-02-27 17:00","1998","02","27","17:00","4.3","","-5.7","","48","","5","","20","","24.1","","99.84","","","","","","Mostly Cloudy"
"1998-02-27 18:00","1998","02","27","18:00","3.2","","-5.5","","53","","6","","11","","24.1","","99.87","","","","","","Mostly Cloudy"
"1998-02-27 19:00","1998","02","27","19:00","1.9","","-5.4","","58","","1","","6","","24.1","","99.94","","","","","","Mainly Clear"
"1998-02-27 20:00","1998","02","27","20:00","1.6","","-5.2","","61","","6","","13","","24.1","","99.97","","","","","","Mainly Clear"
"1998-02-27 21:00","1998","02","27","21:00","1.2","","-5.3","","62","","5","","19","","24.1","","99.91","","","","","","Mainly Clear"
"1998-02-27 22:00","1998","02","27","22:00","1.4","","-4.7","","64","","5","","22","","24.1","","99.91","","","","","","Cloudy"
"1998-02-27 23:00","1998","02","27","23:00","1.4","","-4.3","","66","","5","","19","","24.1","","99.94","","","","","","Mostly Cloudy"
"1998-02-28 00:00","1998","02","28","00:00"
"1998-02-28 01:00","1998","02","28","01:00"
"1998-02-28 02:00","1998","02","28","02:00"
"1998-02-28 03:00","1998","02","28","03:00"
"1998-02-28 04:00","1998","02","28","04:00"
"1998-02-28 05:00","1998","02","28","05:00"
"1998-02-28 06:00","1998","02","28","06:00","0.4","","-2.8","","79","","2","","9","","24.1","","100.01","","","","","","Mainly Clear"
"1998-02-28 07:00","1998","02","28","07:00","-0.1","","-3.2","","80","","5","","9","","24.1","","100.04","","","","-3","","Mainly Clear"
"1998-02-28 08:00","1998","02","28","08:00","0.4","","-2.6","","80","","4","","15","","24.1","","100.07","","","","","","Mostly Cloudy"
"1998-02-28 09:00","1998","02","28","09:00","2.1","","-1.6","","76","","5","","9","","24.1","","100.07","","","","","","Mostly Cloudy"
"1998-02-28 10:00","1998","02","28","10:00","4.0","","-1.2","","69","","5","","11","","24.1","","100.04","","","","","","Mostly Cloudy"
"1998-02-28 11:00","1998","02","28","11:00","6.0","","-0.7","","62","","4","","6","","24.1","","100.07","","","","","","Mostly Cloudy"
"1998-02-28 12:00","1998","02","28","12:00","4.7","","-0.6","","68","","17","","9","","24.1","","100.11","","","","","","Mostly Cloudy"
"1998-02-28 13:00","1998","02","28","13:00","7.0","","1.2","","67","","5","","9","","24.1","","100.04","","","","","","Cloudy"
"1998-02-28 14:00","1998","02","28","14:00","7.4","","-0.9","","56","","5","","11","","24.1","","100.04","","","","","","Cloudy"
"1998-02-28 15:00","1998","02","28","15:00","8.0","","-0.3","","56","","7","","9","","24.1","","99.97","","","","","","Cloudy"
"1998-02-28 16:00","1998","02","28","16:00","7.5","","","M","","M","4","","19","","24.1","","99.94","","","","","","Cloudy"
"1998-02-28 17:00","1998","02","28","17:00","6.6","","-1.0","","58","","3","","9","","24.1","","99.87","","","","","","Cloudy"
"1998-02-28 18:00","1998","02","28","18:00","5.8","","-1.1","","61","","4","","15","","24.1","","99.87","","","","","","Cloudy"
"1998-02-28 19:00","1998","02","28","19:00","4.8","","-0.7","","68","","3","","19","","24.1","","99.91","","","","","","Rain Showers"
"1998-02-28 20:00","1998","02","28","20:00","3.6","","0.0","","77","","11","","9","","8.0","","100.07","","","","","","Rain Showers,Fog"
"1998-02-28 21:00","1998","02","28","21:00","3.0","","0.4","","83","","3","","19","","8.0","","99.94","","","","","","Rain Showers,Fog"
"1998-02-28 22:00","1998","02","28","22:00","2.7","","0.8","","87","","36","","15","","8.0","","99.74","","","","","","Rain Showers,Fog"
"1998-02-28 23:00","1998","02","28","23:00","2.6","","0.8","","88","","3","","28","","8.0","","99.64","","","","","","Rain Showers,Fog"
