"Station Name","KINGSTON A"
"Province","ONTARIO"
"Latitude","44.22"
"Longitude","-76.60"
"Elevation","92.40"
"Climate Identifier","6104146"
"WMO Identifier",""
"TC Identifier","YGK"
"All times are specified in Local Standard Time (LST). Add 1 hour to adjust for Daylight Saving Time where and when it is observed."

"Legend"
"E","Estimated"
"M","Missing"
"NA","Not Available"

"Date/Time","Year","Month","Day","Time","Temp (°C)","Temp Flag","Dew Point Temp (°C)","Dew Point Temp Flag","Rel Hum (%)","Rel Hum Flag","Wind Dir (10s deg)","Wind Dir Flag","Wind Spd (km/h)","Wind Spd Flag","Visibility (km)","Visibility Flag","Stn Press (kPa)","Stn Press Flag","Hmdx","Hmdx Flag","Wind Chill","Wind Chill Flag","Weather"
"2004-02-01 00:00","2004","02","01","00:00"
"2004-02-01 01:00","2004","02","01","01:00"
"2004-02-01 02:00","2004","02","01","02:00"
"2004-02-01 03:00","2004","02","01","03:00"
"2004-02-01 04:00","2004","02","01","04:00"
"2004-02-01 05:00","2004","02","01","05:00"
"2004-02-01 06:00","2004","02","01","06:00","-16.3","","-19.7","","75","","29","","13","","24.1","","101.57","","","","-24","","Clear"
"2004-02-01 07:00","2004","02","01","07:00","-16.7","","-19.8","","77","","31","","9","","24.1","","101.67","","","","-23","","Mainly Clear"
"2004-02-01 08:00","2004","02","01","08:00","-16.6","","-19.4","","79","","28","","7","","24.1","","101.81","","","","-22","","Clear"
"2004-02-01 09:00","2004","02","01","09:00","-14.9","","-18.5","","74","","35","","7","","24.1","","101.85","","","","-20","","Clear"
"2004-02-01 10:00","2004","02","01","10:00","-11.4","","-16.2","","68","","36","","11","","24.1","","101.92","","","","-17","","Mainly Clear"
"2004-02-01 11:00","2004","02","01","11:00","-8.6","","-14.7","","61","","","","0","","24.1","","102.03","","","","","","Mainly Clear"
"2004-02-01 12:00","2004","02","01","12:00","-8.4","","-14.0","","64","","23","","7","","24.1","","102.02","","","","-12","","Mainly Clear"
"2004-02-01 13:00","2004","02","01","13:00","-7.8","","-13.2","","65","","23","","13","","24.1","","102.01","","","","-14","","Mostly Cloudy"
"2004-02-01 14:00","2004","02","01","14:00","-6.5","","-12.4","","63","","21","","11","","24.1","","101.99","","","","-11","","Mainly Clear"
"2004-02-01 15:00","2004","02","01","15:00","-6.1","","-12.3","","61","","23","","11","","24.1","","102.04","","","","-11","","Mainly Clear"
"2004-02-01 16:00","2004","02","01","16:00","-6.4","","-12.3","","63","","22","","6","","24.1","","102.05","","","","-9","","Mainly Clear"
"2004-02-01 17:00","2004","02","01","17:00","-7.1","","-12.5","","65","","20","","4","","24.1","","102.08","","","","-9","","Mainly Clear"
"2004-02-01 18:00","2004","02","01","18:00","-9.7","","-12.8","","78","","19","","7","","24.1","","102.16","","","","-14","","Mainly Clear"
"2004-02-01 19:00","2004","02","01","19:00","-9.7","","-12.5","","80","","8","","4","","24.1","","102.18","","","","-12","","Mainly Clear"
"2004-02-01 20:00","2004","02","01","20:00","-10.1","","-12.6","","82","","15","","4","","24.1","","102.20","","","","-12","","Mainly Clear"
"2004-02-01 21:00","2004","02","01","21:00","-11.1","","-13.5","","82","","","","0","","24.1","","102.22","","","","","","Mainly Clear"
"2004-02-01 22:00","2004","02","01","22:00","-11.5","","-14.3","","80","","7","","6","","24.1","","102.23","","","","-15","","Mainly Clear"
"2004-02-01 23:00","2004","02","01","23:00","-12.9","","-15.2","","83","","6","","4","","24.1","","102.25","","","","-16","","Mainly Clear"
"2004-02-02 00:00","2004","02","02","00:00"
"2004-02-02 01:00","2004","02","02","01:00"
"2004-02-02 02:00","2004","02","02","02:00"
"2004-02-02 03:00","2004","02","02","03:00"
"2004-02-02 04:00","2004","02","02","04:00"
"2004-02-02 05:00","2004","02","02","05:00"
"2004-02-02 06:00","2004","02","02","06:00","-14.5","","-16.6","","84","","5","","4","","24.1","","102.34","","","","-17","","Mainly Clear"
"2004-02-02 07:00","2004","02","02","07:00","-17.0","","-19.1","","84","","5","","6","","19.3","","102.37","","","","-22","","Mainly Clear"
"2004-02-02 08:00","2004","02","02","08:00","-16.4","","-16.9","","96","","5","","6","","24.1","","102.36","","","","-21","","Mainly Clear"
"2004-02-02 09:00","2004","02","02","09:00","-13.4","","-16.1","","80","","5","","4","","19.3","","102.40","","","","-16","","Mainly Clear"
"2004-02-02 10:00","2004","02","02","10:00","-8.6","","-10.4","","87","","9","","4","","16.1","","102.37","","","","-11","","Mostly Cloudy"
"2004-02-02 11:00","2004","02","02","11:00","-8.2","","-11.5","","77","","18","","6","","16.1","","102.33","","","","-11","","Mostly Cloudy"
"2004-02-02 12:00","2004","02","02","12:00","-6.8","","-9.4","","82","","18","","6","","24.1","","102.27","","","","-10","","Mostly Cloudy"
"2004-02-02 13:00","2004","02","02","13:00","-6.1","","-9.1","","79","","17","","6","","24.1","","102.14","","","","-9","","Mostly Cloudy"
"2004-02-02 14:00","2004","02","02","14:00","-5.7","","-8.7","","79","","18","","6","","24.1","","102.07","","","","-9","","Mostly Cloudy"
"2004-02-02 15:00","2004","02","02","15:00","-5.5","","-8.1","","82","","19","","6","","24.1","","102.01","","","","-8","","Cloudy"
"2004-02-02 16:00","2004","02","02","16:00","-5.3","","-8.1","","81","","","","0","","24.1","","101.97","","","","","","Cloudy"
"2004-02-02 17:00","2004","02","02","17:00","-5.9","","-9.0","","79","","13","","4","","24.1","","101.87","","","","-8","","Cloudy"
"2004-02-02 18:00","2004","02","02","18:00","-7.3","","-9.9","","82","","13","","6","","24.1","","101.83","","","","-10","","Cloudy"
"2004-02-02 19:00","2004","02","02","19:00","-6.5","","-10.4","","74","","5","","6","","24.1","","101.77","","","","-9","","Cloudy"
"2004-02-02 20:00","2004","02","02","20:00","-5.0","","-9.8","","69","","7","","9","","24.1","","101.73","","","","-9","","Mostly Cloudy"
"2004-02-02 21:00","2004","02","02","21:00","-5.7","","-10.2","","71","","6","","13","","24.1","","101.62","","","","-11","","Mostly Cloudy"
"2004-02-02 22:00","2004","02","02","22:00","-6.3","","-10.6","","72","","6","","15","","24.1","","101.49","","","","-12","","Mostly Cloudy"
"2004-02-02 23:00","2004","02","02","23:00","-6.9","","-11.2","","71","","7","","15","","24.1","","101.38","","","","-13","","Mainly Clear"
"2004-02-03 00:00","2004","02","03","00:00"
"2004-02-03 01:00","2004","02","03","01:00"
"2004-02-03 02:00","2004","02","03","02:00"
"2004-02-03 03:00","2004","02","03","03:00"
"2004-02-03 04:00","2004","02","03","04:00"
"2004-02-03 05:00","2004","02","03","05:00"
"2004-02-03 06:00","2004","02","03","06:00","-8.2","","-11.7","","76","","8","","11","","24.1","","100.83","","","","-13","","Mainly Clear"
"2004-02-03 07:00","2004","02","03","07:00","-7.4","","-10.6","","78","","8","","4","","24.1","","100.83","","","","-9","","Mostly Cloudy"
"2004-02-03 08:00","2004","02","03","08:00","-2.1","","-5.4","","78","","17","","7","","19.3","","100.78","","","","-5","","Freezing Drizzle"
"2004-02-03 09:00","2004","02","03","09:00","-1.8","","-5.6","","75","","16","","11","","24.1","","100.70","","","","-6","","Cloudy"
"2004-02-03 10:00","2004","02","03","10:00","-1.1","","-5.6","","71","","18","","28","","16.1","","100.69","","","","-8","","Snow"
"2004-02-03 11:00","2004","02","03","11:00","-1.4","","-4.6","","79","","18","","30","","9.7","","100.66","","","","-8","","Snow"
"2004-02-03 12:00","2004","02","03","12:00","-0.8","","-3.4","","83","","18","","24","","12.9","","100.52","","","","-7","","Freezing Rain"
"2004-02-03 13:00","2004","02","03","13:00","-0.1","","-2.1","","86","","18","","20","","9.7","","100.37","","","","-5","","Rain,Snow"
"2004-02-03 14:00","2004","02","03","14:00","0.0","","-1.9","","87","","19","","15","","9.7","","100.24","","","","-4","","Snow,Ice Pellets"
"2004-02-03 15:00","2004","02","03","15:00","-0.1","","-1.3","","92","","18","","11","","1.6","","100.23","","","","-4","","Snow"
"2004-02-03 16:00","2004","02","03","16:00","0.0","","-1.0","","93","","17","","13","","1.2","","100.17","","","","-4","","Snow"
"2004-02-03 17:00","2004","02","03","17:00","0.1","","-0.9","","93","","16","","15","","0.6","","100.12","","","","","","Moderate Snow"
"2004-02-03 18:00","2004","02","03","18:00","0.0","","-1.0","","93","","17","","9","","0.6","","100.08","","","","-3","","Moderate Snow"
"2004-02-03 19:00","2004","02","03","19:00","0.0","","-0.9","","94","","17","","15","","1.2","","100.03","","","","-4","","Snow"
"2004-02-03 20:00","2004","02","03","20:00","0.1","","-1.0","","92","","17","","17","","3.2","","99.95","","","","","","Snow"
"2004-02-03 21:00","2004","02","03","21:00","0.1","","-0.9","","93","","18","","17","","2.8","","99.90","","","","","","Snow"
"2004-02-03 22:00","2004","02","03","22:00","0.1","","-0.9","","93","","19","","17","","2.4","","99.89","","","","","","Snow"
"2004-02-03 23:00","2004","02","03","23:00","0.1","","-0.9","","93","","21","","15","","2.4","","99.87","","","","","","Snow"
"2004-02-04 00:00","2004","02","04","00:00"
"2004-02-04 01:00","2004","02","04","01:00"
"2004-02-04 02:00","2004","02","04","02:00"
"2004-02-04 03:00","2004","02","04","03:00"
"2004-02-04 04:00","2004","02","04","04:00"
"2004-02-04 05:00","2004","02","04","05:00"
"2004-02-04 06:00","2004","02","04","06:00","-2.1","","-7.9","","64","","28","","30","","24.1","","100.51","","","","-9","","Snow Showers"
"2004-02-04 07:00","2004","02","04","07:00","-3.5","","-10.1","","60","","28","","35","","24.1","","100.64","","","","-12","","Snow Showers"
"2004-02-04 08:00","2004","02","04","08:00","-4.2","","-9.3","","68","","27","","26","","24.1","","100.80","","","","-11","","Mostly Cloudy"
"2004-02-04 09:00","2004","02","04","09:00","-4.0","","-9.5","","66","","28","","22","","19.3","","100.91","","","","-11","","Mostly Cloudy"
"2004-02-04 10:00","2004","02","04","10:00","-4.0","","-9.0","","68","","28","","26","","24.1","","101.05","","","","-11","","Mostly Cloudy"
"2004-02-04 11:00","2004","02","04","11:00","-3.9","","-10.2","","62","","28","","33","","24.1","","101.16","","","","-12","","Mainly Clear"
"2004-02-04 12:00","2004","02","04","12:00","-4.1","","-11.7","","55","","27","","32","","24.1","","101.23","","","","-12","","Mainly Clear"
"2004-02-04 13:00","2004","02","04","13:00","-3.6","","-11.8","","53","","28","","26","","24.1","","101.24","","","","-11","","Mainly Clear"
"2004-02-04 14:00","2004","02","04","14:00","-3.6","","-11.2","","56","","27","","28","","24.1","","101.32","","","","-11","","Mainly Clear"
"2004-02-04 15:00","2004","02","04","15:00","-3.8","","-11.4","","56","","27","","26","","24.1","","101.39","","","","-11","","Mainly Clear"
"2004-02-04 16:00","2004","02","04","16:00","-4.0","","-11.4","","56","","27","","24","","24.1","","101.48","","","","-11","","Mainly Clear"
"2004-02-04 17:00","2004","02","04","17:00","-4.5","","-12.0","","56","","27","","24","","24.1","","101.50","","","","-12","","Mainly Clear"
"2004-02-04 18:00","2004","02","04","18:00","-6.9","","-12.4","","65","","26","","19","","24.1","","101.60","","","","-14","","Mainly Clear"
"2004-02-04 19:00","2004","02","04","19:00","-5.0","","-10.7","","64","","27","","20","","24.1","","101.71","","","","-12","","Mainly Clear"
"2004-02-04 20:00","2004","02","04","20:00","-6.0","","-10.9","","68","","26","","13","","24.1","","101.71","","","","-11","","Mainly Clear"
"2004-02-04 21:00","2004","02","04","21:00","-7.1","","-11.4","","71","","27","","17","","24.1","","101.81","","","","-14","","Mainly Clear"
"2004-02-04 22:00","2004","02","04","22:00","-6.5","","-11.1","","70","","27","","19","","24.1","","101.85","","","","-13","","Mainly Clear"
"2004-02-04 23:00","2004","02","04","23:00","-6.6","","-11.0","","71","","26","","19","","19.3","","101.91","","","","-13","","Snow Showers"
"2004-02-05 00:00","2004","02","05","00:00"
"2004-02-05 01:00","2004","02","05","01:00"
"2004-02-05 02:00","2004","02","05","02:00"
"2004-02-05 03:00","2004","02","05","03:00"
"2004-02-05 04:00","2004","02","05","04:00"
"2004-02-05 05:00","2004","02","05","05:00"
"2004-02-05 06:00","2004","02","05","06:00","-11.5","","-14.3","","80","","29","","9","","24.1","","102.50","","","","-17","","Clear"
"2004-02-05 07:00","2004","02","05","07:00","-11.3","","-14.2","","79","","27","","11","","24.1","","102.57","","","","-17","","Mainly Clear"
"2004-02-05 08:00","2004","02","05","08:00","-12.2","","-14.6","","82","","28","","13","","24.1","","102.68","","","","-19","","Mainly Clear"
"2004-02-05 09:00","2004","02","05","09:00","-10.0","","-13.3","","77","","32","","7","","24.1","","102.74","","","","-14","","Mainly Clear"
"2004-02-05 10:00","2004","02","05","10:00","-7.4","","-12.2","","68","","36","","15","","24.1","","102.68","","","","-14","","Mostly Cloudy"
"2004-02-05 11:00","2004","02","05","11:00","-6.3","","-11.9","","64","","36","","7","","24.1","","102.63","","","","-10","","Cloudy"
"2004-02-05 12:00","2004","02","05","12:00","-5.4","","-12.5","","57","","11","","4","","24.1","","102.54","","","","-7","","Cloudy"
"2004-02-05 13:00","2004","02","05","13:00","-6.4","","-11.5","","67","","18","","9","","24.1","","102.58","","","","-11","","Cloudy"
"2004-02-05 14:00","2004","02","05","14:00","-5.8","","-11.1","","66","","20","","7","","24.1","","102.68","","","","-9","","Cloudy"
"2004-02-05 15:00","2004","02","05","15:00","-6.4","","-11.1","","69","","18","","6","","24.1","","102.59","","","","-9","","Cloudy"
"2004-02-05 16:00","2004","02","05","16:00","-6.8","","-11.6","","69","","17","","6","","24.1","","102.59","","","","-10","","Cloudy"
"2004-02-05 17:00","2004","02","05","17:00","-7.3","","-11.7","","71","","17","","4","","24.1","","102.47","","","","-9","","Cloudy"
"2004-02-05 18:00","2004","02","05","18:00","-7.4","","-11.6","","72","","21","","4","","24.1","","102.59","","","","-9","","Cloudy"
"2004-02-05 19:00","2004","02","05","19:00","-7.3","","-12.2","","68","","9","","4","","24.1","","102.50","","","","-9","","Cloudy"
"2004-02-05 20:00","2004","02","05","20:00","-6.9","","-12.9","","62","","8","","4","","24.1","","102.46","","","","-9","","Cloudy"
"2004-02-05 21:00","2004","02","05","21:00","-7.1","","-11.6","","70","","6","","7","","24.1","","102.29","","","","-11","","Cloudy"
"2004-02-05 22:00","2004","02","05","22:00","-6.5","","-12.8","","61","","9","","11","","24.1","","102.21","","","","-11","","Cloudy"
"2004-02-05 23:00","2004","02","05","23:00","-6.4","","-11.6","","67","","8","","19","","24.1","","102.07","","","","-13","","Cloudy"
"2004-02-06 00:00","2004","02","06","00:00"
"2004-02-06 01:00","2004","02","06","01:00"
"2004-02-06 02:00","2004","02","06","02:00"
"2004-02-06 03:00","2004","02","06","03:00"
"2004-02-06 04:00","2004","02","06","04:00"
"2004-02-06 05:00","2004","02","06","05:00"
"2004-02-06 06:00","2004","02","06","06:00","-5.3","","-7.3","","86","","8","","26","","3.2","","101.03","","","","-13","","Snow"
"2004-02-06 07:00","2004","02","06","07:00","-5.4","","-7.4","","86","","8","","24","","2.4","","100.85","","","","-13","","Snow"
"2004-02-06 08:00","2004","02","06","08:00","-4.8","","-6.7","","87","","8","","28","","3.2","","100.70","","","","-12","","Freezing Drizzle,Snow"
"2004-02-06 09:00","2004","02","06","09:00","-4.5","","-6.6","","85","","8","","22","","4.0","","100.63","","","","-11","","Freezing Drizzle,Snow"
"2004-02-06 10:00","2004","02","06","10:00","-4.2","","-6.2","","86","","7","","17","","4.0","","100.34","","","","-10","","Freezing Drizzle,Snow"
"2004-02-06 11:00","2004","02","06","11:00","-3.2","","-4.7","","89","","7","","19","","2.4","","100.19","","","","-9","","Freezing Rain,Ice Pellets,Fog"
"2004-02-06 12:00","2004","02","06","12:00","-2.9","","-4.3","","90","","8","","17","","2.4","","100.04","","","","-8","","Freezing Rain,Snow"
"2004-02-06 13:00","2004","02","06","13:00","-3.5","","-5.1","","89","","8","","15","","2.4","","99.92","","","","-9","","Freezing Rain,Snow"
"2004-02-06 14:00","2004","02","06","14:00","-3.1","","-4.6","","89","","7","","15","","6.4","","99.81","","","","-8","","Freezing Drizzle"
"2004-02-06 15:00","2004","02","06","15:00","-3.5","","-5.0","","89","","7","","13","","2.4","","99.66","","","","-8","","Freezing Drizzle,Fog"
"2004-02-06 16:00","2004","02","06","16:00","-3.6","","-5.0","","90","","6","","9","","2.4","","99.62","","","","-7","","Freezing Drizzle,Fog"
"2004-02-06 17:00","2004","02","06","17:00","-3.0","","-4.4","","90","","5","","7","","2.4","","99.56","","","","-6","","Freezing Rain,Fog"
"2004-02-06 18:00","2004","02","06","18:00","-2.5","","-3.9","","90","","8","","6","","3.2","","99.47","","","","-5","","Freezing Drizzle,Fog"
"2004-02-06 19:00","2004","02","06","19:00","-1.5","","-2.8","","91","","9","","6","","9.7","","99.43","","","","-4","","Fog"
"2004-02-06 20:00","2004","02","06","20:00","0.4","","-0.9","","91","","15","","6","","6.4","","99.37","","","","","","Fog"
"2004-02-06 21:00","2004","02","06","21:00","0.8","","-0.3","","92","","21","","15","","9.7","","99.34","","","","","","Fog"
"2004-02-06 22:00","2004","02","06","22:00","1.7","","0.6","","92","","25","","13","","8.0","","99.27","","","","","","Fog"
"2004-02-06 23:00","2004","02","06","23:00","1.5","","0.4","","92","","24","","17","","8.0","","99.23","","","","","","Fog"
"2004-02-07 00:00","2004","02","07","00:00"
"2004-02-07 01:00","2004","02","07","01:00"
"2004-02-07 02:00","2004","02","07","02:00"
"2004-02-07 03:00","2004","02","07","03:00"
"2004-02-07 04:00","2004","02","07","04:00"
"2004-02-07 05:00","2004","02","07","05:00"
"2004-02-07 06:00","2004","02","07","06:00","-5.5","","-7.2","","88","","35","","17","","4.0","","99.09","","","","-12","","Snow"
"2004-02-07 07:00","2004","02","07","07:00","-6.1","","-8.0","","86","","36","","13","","6.4","","99.09","","","","-11","","Snow"
"2004-02-07 08:00","2004","02","07","08:00","-6.3","","-8.5","","84","","35","","9","","4.8","","99.18","","","","-11","","Snow"
"2004-02-07 09:00","2004","02","07","09:00","-6.1","","-8.9","","81","","34","","9","","4.8","","99.23","","","","-10","","Snow"
"2004-02-07 10:00","2004","02","07","10:00","-5.8","","-8.9","","79","","33","","13","","6.4","","99.29","","","","-11","","Snow"
"2004-02-07 11:00","2004","02","07","11:00","-6.0","","-10.0","","73","","34","","24","","6.4","","99.34","","","","-13","","Snow"
"2004-02-07 12:00","2004","02","07","12:00","-5.8","","-9.9","","73","","33","","19","","6.4","","99.40","","","","-12","","Snow"
"2004-02-07 13:00","2004","02","07","13:00","-5.9","","-10.8","","68","","32","","17","","24.1","","99.46","","","","-12","","Mostly Cloudy"
"2004-02-07 14:00","2004","02","07","14:00","-5.6","","-10.1","","71","","32","","20","","8.0","","99.53","","","","-12","","Snow Showers"
"2004-02-07 15:00","2004","02","07","15:00","-5.4","","-10.3","","68","","34","","19","","24.1","","99.63","","","","-12","","Snow Showers"
"2004-02-07 16:00","2004","02","07","16:00","-5.4","","-11.0","","65","","34","","19","","24.1","","99.73","","","","-12","","Snow Showers"
"2004-02-07 17:00","2004","02","07","17:00","-6.4","","-12.7","","61","","33","","19","","24.1","","99.84","","","","-13","","Mostly Cloudy"
"2004-02-07 18:00","2004","02","07","18:00","-7.4","","-13.4","","62","","33","","17","","24.1","","100.01","","","","-14","","Mostly Cloudy"
"2004-02-07 19:00","2004","02","07","19:00","-8.3","","-14.3","","62","","33","","22","","24.1","","100.12","","","","-16","","Mainly Clear"
"2004-02-07 20:00","2004","02","07","20:00","-9.4","","-15.3","","62","","33","","24","","24.1","","100.28","","","","-18","","Snow Showers"
"2004-02-07 21:00","2004","02","07","21:00","-10.8","","-16.4","","63","","33","","19","","24.1","","100.43","","","","-19","","Mainly Clear"
"2004-02-07 22:00","2004","02","07","22:00","-12.1","","-17.6","","64","","33","","17","","24.1","","100.54","","","","-20","","Clear"
"2004-02-07 23:00","2004","02","07","23:00","-13.0","","-18.9","","61","","33","","15","","24.1","","100.67","","","","-20","","Clear"
"2004-02-08 00:00","2004","02","08","00:00"
"2004-02-08 01:00","2004","02","08","01:00"
"2004-02-08 02:00","2004","02","08","02:00"
"2004-02-08 03:00","2004","02","08","03:00"
"2004-02-08 04:00","2004","02","08","04:00"
"2004-02-08 05:00","2004","02","08","05:00"
"2004-02-08 06:00","2004","02","08","06:00","-18.1","","-23.1","","65","","27","","9","","24.1","","101.42","","","","-24","","Mostly Cloudy"
"2004-02-08 07:00","2004","02","08","07:00","-18.0","","-23.9","","60","","27","","11","","24.1","","101.47","","","","-25","","Mainly Clear"
"2004-02-08 08:00","2004","02","08","08:00","-17.7","","-23.1","","63","","27","","7","","24.1","","101.53","","","","-23","","Mainly Clear"
"2004-02-08 09:00","2004","02","08","09:00","-17.5","","-23.0","","62","","26","","7","","24.1","","101.61","","","","-23","","Mainly Clear"
"2004-02-08 10:00","2004","02","08","10:00","-15.8","","-21.8","","60","","26","","9","","24.1","","101.66","","","","-22","","Mainly Clear"
"2004-02-08 11:00","2004","02","08","11:00","-13.4","","-20.6","","55","","24","","9","","24.1","","101.70","","","","-19","","Mainly Clear"
"2004-02-08 12:00","2004","02","08","12:00","-10.9","","-17.9","","56","","23","","13","","24.1","","101.63","","","","-17","","Mostly Cloudy"
"2004-02-08 13:00","2004","02","08","13:00","-9.1","","-16.4","","55","","22","","11","","24.1","","101.56","","","","-15","","Mostly Cloudy"
"2004-02-08 14:00","2004","02","08","14:00","-6.5","","-13.5","","58","","23","","13","","24.1","","101.50","","","","-12","","Mostly Cloudy"
"2004-02-08 15:00","2004","02","08","15:00","-4.7","","-10.6","","63","","25","","17","","24.1","","101.46","","","","-11","","Mostly Cloudy"
"2004-02-08 16:00","2004","02","08","16:00","-4.4","","-9.7","","66","","24","","20","","24.1","","101.37","","","","-11","","Mostly Cloudy"
"2004-02-08 17:00","2004","02","08","17:00","-3.0","","-9.9","","59","","25","","28","","24.1","","101.35","","","","-10","","Mostly Cloudy"
"2004-02-08 18:00","2004","02","08","18:00","-4.6","","-10.6","","63","","24","","24","","24.1","","101.35","","","","-12","","Mostly Cloudy"
"2004-02-08 19:00","2004","02","08","19:00","-4.7","","-10.7","","63","","24","","24","","24.1","","101.37","","","","-12","","Mainly Clear"
"2004-02-08 20:00","2004","02","08","20:00","-4.5","","-9.3","","69","","23","","26","","24.1","","101.38","","","","-12","","Mainly Clear"
"2004-02-08 21:00","2004","02","08","21:00","-4.2","","-10.3","","62","","25","","22","","24.1","","101.38","","","","-11","","Mainly Clear"
"2004-02-08 22:00","2004","02","08","22:00","-3.5","","-9.3","","64","","24","","24","","24.1","","101.37","","","","-10","","Mostly Cloudy"
"2004-02-08 23:00","2004","02","08","23:00","-2.8","","-7.9","","68","","25","","26","","24.1","","101.36","","","","-10","","Cloudy"
"2004-02-09 00:00","2004","02","09","00:00"
"2004-02-09 01:00","2004","02","09","01:00"
"2004-02-09 02:00","2004","02","09","02:00"
"2004-02-09 03:00","2004","02","09","03:00"
"2004-02-09 04:00","2004","02","09","04:00"
"2004-02-09 05:00","2004","02","09","05:00"
"2004-02-09 06:00","2004","02","09","06:00","-2.6","","-7.4","","70","","22","","26","","24.1","","101.07","","","","-9","","Mainly Clear"
"2004-02-09 07:00","2004","02","09","07:00","-2.7","","-7.5","","69","","21","","28","","24.1","","100.98","","","","-10","","Mostly Cloudy"
"2004-02-09 08:00","2004","02","09","08:00","-2.6","","-7.2","","71","","21","","26","","24.1","","100.92","","","","-9","","Cloudy"
"2004-02-09 09:00","2004","02","09","09:00","-2.2","","-6.9","","70","","21","","28","","24.1","","100.83","","","","-9","","Cloudy"
"2004-02-09 10:00","2004","02","09","10:00","-0.9","","-5.4","","71","","21","","28","","24.1","","100.72","","","","-7","","Cloudy"
"2004-02-09 11:00","2004","02","09","11:00","0.1","","-4.7","","70","","21","","28","","24.1","","100.66","","","","","","Cloudy"
"2004-02-09 12:00","2004","02","09","12:00","0.4","","-4.0","","72","","21","","30","","24.1","","100.53","","","","","","Cloudy"
"2004-02-09 13:00","2004","02","09","13:00","0.8","","-4.1","","70","","21","","37","","24.1","","100.43","","","","","","Cloudy"
"2004-02-09 14:00","2004","02","09","14:00","0.8","","-3.9","","71","","21","","32","","24.1","","100.39","","","","","","Cloudy"
"2004-02-09 15:00","2004","02","09","15:00","0.7","","-3.0","","76","","22","","28","","24.1","","100.39","","","","","","Cloudy"
"2004-02-09 16:00","2004","02","09","16:00","1.3","","-2.4","","76","","22","","30","","24.1","","100.40","","","","","","Cloudy"
"2004-02-09 17:00","2004","02","09","17:00","1.9","","-2.7","","72","","24","","35","","12.9","","100.39","","","","","","Snow Showers"
"2004-02-09 18:00","2004","02","09","18:00","2.2","","-2.9","","69","","24","","37","","24.1","","100.40","","","","","","Snow Showers"
"2004-02-09 19:00","2004","02","09","19:00","2.4","","-2.9","","68","","25","","37","","24.1","","100.42","","","","","","Snow Showers"
"2004-02-09 20:00","2004","02","09","20:00","2.3","","-3.2","","67","","25","","41","","24.1","","100.40","","","","","","Cloudy"
"2004-02-09 21:00","2004","02","09","21:00","2.1","","-3.2","","68","","25","","35","","24.1","","100.39","","","","","","Cloudy"
"2004-02-09 22:00","2004","02","09","22:00","2.0","","-3.3","","68","","25","","41","","24.1","","100.36","","","","","","Cloudy"
"2004-02-09 23:00","2004","02","09","23:00","1.6","","-3.4","","69","","25","","32","","24.1","","100.39","","","","","","Cloudy"
"2004-02-10 00:00","2004","02","10","00:00"
"2004-02-10 01:00","2004","02","10","01:00"
"2004-02-10 02:00","2004","02","10","02:00"
"2004-02-10 03:00","2004","02","10","03:00"
"2004-02-10 04:00","2004","02","10","04:00"
"2004-02-10 05:00","2004","02","10","05:00"
"2004-02-10 06:00","2004","02","10","06:00","-1.0","","-6.1","","68","","25","","15","","24.1","","100.32","","","","-6","","Cloudy"
"2004-02-10 07:00","2004","02","10","07:00","-0.9","","-5.7","","70","","25","","11","","19.3","","100.30","","","","-5","","Snow Showers"
"2004-02-10 08:00","2004","02","10","08:00","-1.0","","-5.2","","73","","23","","11","","19.3","","100.31","","","","-5","","Mostly Cloudy"
"2004-02-10 09:00","2004","02","10","09:00","-1.4","","-3.8","","84","","23","","17","","16.1","","100.30","","","","-7","","Snow Showers"
"2004-02-10 10:00","2004","02","10","10:00","-1.4","","-3.2","","88","","25","","20","","2.0","","100.25","","","","-7","","Snow Showers"
"2004-02-10 11:00","2004","02","10","11:00","-1.0","","-2.8","","88","","25","","26","","4.8","","100.19","","","","-7","","Snow Showers"
"2004-02-10 12:00","2004","02","10","12:00","0.3","","-3.2","","77","","25","","20","","24.1","","100.09","","","","","","Cloudy"
"2004-02-10 13:00","2004","02","10","13:00","0.1","","-3.4","","77","","25","","33","","19.3","","100.01","","","","","","Snow Showers"
"2004-02-10 14:00","2004","02","10","14:00","-0.6","","-2.9","","84","","25","","24","","4.8","","99.97","","","","-7","","Snow Showers"
"2004-02-10 15:00","2004","02","10","15:00","-1.1","","-3.2","","86","","25","","20","","2.4","","99.94","","","","-7","","Snow Showers"
"2004-02-10 16:00","2004","02","10","16:00","-1.0","","-3.6","","82","","25","","20","","24.1","","99.91","","","","-7","","Cloudy"
"2004-02-10 17:00","2004","02","10","17:00","-1.5","","-4.6","","79","","24","","15","","24.1","","99.88","","","","-6","","Mostly Cloudy"
"2004-02-10 18:00","2004","02","10","18:00","-2.8","","-5.0","","85","","25","","11","","19.3","","99.91","","","","-7","","Snow Showers"
"2004-02-10 19:00","2004","02","10","19:00","-1.7","","-5.1","","78","","23","","13","","19.3","","99.94","","","","-6","","Snow Showers"
"2004-02-10 20:00","2004","02","10","20:00","-1.7","","-4.4","","82","","26","","20","","12.9","","99.94","","","","-7","","Snow Showers"
"2004-02-10 21:00","2004","02","10","21:00","-2.1","","-5.4","","78","","26","","13","","19.3","","99.93","","","","-7","","Snow Showers"
"2004-02-10 22:00","2004","02","10","22:00","-1.6","","-6.9","","67","","27","","19","","24.1","","99.92","","","","-7","","Cloudy"
"2004-02-10 23:00","2004","02","10","23:00","-1.9","","-7.3","","67","","26","","17","","24.1","","99.91","","","","-7","","Cloudy"
"2004-02-11 00:00","2004","02","11","00:00"
"2004-02-11 01:00","2004","02","11","01:00"
"2004-02-11 02:00","2004","02","11","02:00"
"2004-02-11 03:00","2004","02","11","03:00"
"2004-02-11 04:00","2004","02","11","04:00"
"2004-02-11 05:00","2004","02","11","05:00"
"2004-02-11 06:00","2004","02","11","06:00","-7.2","","-12.2","","67","","27","","17","","24.1","","100.41","","","","-14","","Clear"
"2004-02-11 07:00","2004","02","11","07:00","-7.9","","-14.0","","62","","29","","17","","24.1","","100.53","","","","-15","","Mainly Clear"
"2004-02-11 08:00","2004","02","11","08:00","-8.6","","-15.0","","60","","29","","13","","24.1","","100.70","","","","-15","","Mainly Clear"
"2004-02-11 09:00","2004","02","11","09:00","-8.3","","-15.3","","57","","31","","20","","24.1","","100.80","","","","-16","","Mainly Clear"
"2004-02-11 10:00","2004","02","11","10:00","-8.1","","-15.3","","56","","30","","19","","24.1","","100.85","","","","-15","","Mainly Clear"
"2004-02-11 11:00","2004","02","11","11:00","-7.2","","-15.3","","52","","30","","15","","24.1","","100.94","","","","-13","","Mainly Clear"
"2004-02-11 12:00","2004","02","11","12:00","-7.0","","-15.7","","50","","29","","13","","24.1","","100.98","","","","-13","","Mainly Clear"
"2004-02-11 13:00","2004","02","11","13:00","-7.4","","-14.9","","55","","27","","13","","24.1","","101.01","","","","-13","","Mainly Clear"
"2004-02-11 14:00","2004","02","11","14:00","-6.7","","-14.4","","54","","25","","17","","24.1","","101.03","","","","-13","","Mainly Clear"
"2004-02-11 15:00","2004","02","11","15:00","-7.0","","-14.6","","55","","24","","19","","24.1","","101.06","","","","-14","","Mainly Clear"
"2004-02-11 16:00","2004","02","11","16:00","-7.2","","-14.8","","55","","26","","13","","24.1","","101.13","","","","-13","","Mainly Clear"
"2004-02-11 17:00","2004","02","11","17:00","-7.6","","-16.1","","51","","23","","9","","24.1","","101.15","","","","-12","","Mainly Clear"
"2004-02-11 18:00","2004","02","11","18:00","-9.5","","-16.6","","56","","26","","6","","24.1","","101.18","","","","-13","","Mainly Clear"
"2004-02-11 19:00","2004","02","11","19:00","-9.4","","-16.6","","56","","22","","9","","24.1","","101.23","","","","-14","","Mainly Clear"
"2004-02-11 20:00","2004","02","11","20:00","-10.1","","-16.3","","60","","25","","11","","24.1","","101.29","","","","-16","","Clear"
"2004-02-11 21:00","2004","02","11","21:00","-11.5","","-16.3","","68","","26","","9","","24.1","","101.31","","","","-17","","Clear"
"2004-02-11 22:00","2004","02","11","22:00","-10.7","","-15.9","","66","","31","","9","","24.1","","101.32","","","","-16","","Mainly Clear"
"2004-02-11 23:00","2004","02","11","23:00","-10.4","","-15.3","","67","","36","","13","","24.1","","101.26","","","","-17","","Mainly Clear"
"2004-02-12 00:00","2004","02","12","00:00"
"2004-02-12 01:00","2004","02","12","01:00"
"2004-02-12 02:00","2004","02","12","02:00"
"2004-02-12 03:00","2004","02","12","03:00"
"2004-02-12 04:00","2004","02","12","04:00"
"2004-02-12 05:00","2004","02","12","05:00"
"2004-02-12 06:00","2004","02","12","06:00","-6.7","","-9.2","","82","","10","","7","","4.0","","101.06","","","","-10","","Snow"
"2004-02-12 07:00","2004","02","12","07:00","-7.2","","-9.4","","84","","6","","11","","4.0","","101.02","","","","-12","","Snow"
"2004-02-12 08:00","2004","02","12","08:00","-7.9","","-10.5","","82","","5","","13","","6.4","","101.05","","","","-14","","Snow"
"2004-02-12 09:00","2004","02","12","09:00","-8.6","","-11.6","","79","","5","","17","","8.0","","101.07","","","","-15","","Snow"
"2004-02-12 10:00","2004","02","12","10:00","-8.6","","-11.6","","79","","5","","13","","6.4","","101.05","","","","-15","","Snow"
"2004-02-12 11:00","2004","02","12","11:00","-8.5","","-11.4","","80","","5","","19","","3.2","","101.01","","","","-16","","Snow"
"2004-02-12 12:00","2004","02","12","12:00","-7.6","","-11.0","","77","","5","","15","","16.1","","100.94","","","","-14","","Snow"
"2004-02-12 13:00","2004","02","12","13:00","-7.0","","-10.7","","75","","5","","9","","12.9","","100.86","","","","-11","","Snow"
"2004-02-12 14:00","2004","02","12","14:00","-6.5","","-10.1","","76","","6","","9","","9.7","","100.72","","","","-11","","Snow"
"2004-02-12 15:00","2004","02","12","15:00","-6.1","","-9.5","","77","","6","","9","","11.3","","100.70","","","","-10","","Snow"
"2004-02-12 16:00","2004","02","12","16:00","-5.9","","-9.3","","77","","8","","4","","6.4","","100.69","","","","-8","","Snow"
"2004-02-12 17:00","2004","02","12","17:00","-6.2","","-9.1","","80","","","","0","","6.4","","100.63","","","","","","Snow"
"2004-02-12 18:00","2004","02","12","18:00","-7.0","","-9.8","","80","","35","","4","","16.1","","100.63","","","","-9","","Snow"
"2004-02-12 19:00","2004","02","12","19:00","-6.5","","-9.0","","82","","19","","4","","16.1","","100.62","","","","-8","","Snow"
"2004-02-12 20:00","2004","02","12","20:00","-6.5","","-8.8","","84","","22","","7","","19.3","","100.58","","","","-10","","Cloudy"
"2004-02-12 21:00","2004","02","12","21:00","-6.6","","-9.2","","82","","27","","7","","19.3","","100.55","","","","-10","","Mostly Cloudy"
"2004-02-12 22:00","2004","02","12","22:00","-6.6","","-8.9","","84","","27","","6","","19.3","","100.53","","","","-10","","Cloudy"
"2004-02-12 23:00","2004","02","12","23:00","-7.5","","-9.8","","84","","24","","11","","19.3","","100.49","","","","-13","","Mainly Clear"
"2004-02-13 00:00","2004","02","13","00:00"
"2004-02-13 01:00","2004","02","13","01:00"
"2004-02-13 02:00","2004","02","13","02:00"
"2004-02-13 03:00","2004","02","13","03:00"
"2004-02-13 04:00","2004","02","13","04:00"
"2004-02-13 05:00","2004","02","13","05:00"
"2004-02-13 06:00","2004","02","13","06:00","-3.6","","-9.0","","66","","26","","26","","24.1","","100.17","","","","-11","","Mostly Cloudy"
"2004-02-13 07:00","2004","02","13","07:00","-4.1","","-8.7","","70","","25","","15","","24.1","","100.18","","","","-9","","Mostly Cloudy"
"2004-02-13 08:00","2004","02","13","08:00","-2.8","","-7.6","","69","","24","","13","","24.1","","100.11","","","","-7","","Cloudy"
"2004-02-13 09:00","2004","02","13","09:00","-1.8","","-6.3","","71","","25","","28","","24.1","","100.07","","","","-9","","Cloudy"
"2004-02-13 10:00","2004","02","13","10:00","-1.4","","-5.6","","73","","25","","33","","19.3","","100.01","","","","-9","","Cloudy"
"2004-02-13 11:00","2004","02","13","11:00","-1.4","","-5.3","","75","","25","","33","","19.3","","100.00","","","","-9","","Mostly Cloudy"
"2004-02-13 12:00","2004","02","13","12:00","-1.4","","-5.5","","74","","26","","41","","19.3","","99.96","","","","-9","","Cloudy"
"2004-02-13 13:00","2004","02","13","13:00","-1.0","","-5.2","","73","","25","","41","","19.3","","99.89","","","","-9","","Cloudy"
"2004-02-13 14:00","2004","02","13","14:00","-0.7","","-5.1","","72","","25","","44","","19.3","","99.82","","","","-9","","Cloudy"
"2004-02-13 15:00","2004","02","13","15:00","-0.7","","-5.1","","72","","25","","44","","19.3","","99.75","","","","-9","","Cloudy"
"2004-02-13 16:00","2004","02","13","16:00","-1.0","","-5.4","","72","","25","","43","","16.1","","99.72","","","","-9","","Cloudy"
"2004-02-13 17:00","2004","02","13","17:00","-1.4","","-5.7","","72","","25","","41","","16.1","","99.70","","","","-9","","Snow"
"2004-02-13 18:00","2004","02","13","18:00","-1.6","","-5.9","","72","","25","","39","","16.1","","99.70","","","","-9","","Cloudy"
"2004-02-13 19:00","2004","02","13","19:00","-1.7","","-6.0","","72","","25","","37","","16.1","","99.71","","","","-9","","Cloudy"
"2004-02-13 20:00","2004","02","13","20:00","-1.7","","-6.1","","72","","25","","33","","19.3","","99.71","","","","-9","","Cloudy"
"2004-02-13 21:00","2004","02","13","21:00","-1.5","","-6.1","","71","","25","","33","","19.3","","99.72","","","","-9","","Cloudy"
"2004-02-13 22:00","2004","02","13","22:00","-1.5","","-6.0","","71","","25","","28","","19.3","","99.72","","","","-8","","Cloudy"
"2004-02-13 23:00","2004","02","13","23:00","-1.5","","-6.1","","71","","26","","35","","19.3","","99.68","","","","-9","","Cloudy"
"2004-02-14 00:00","2004","02","14","00:00"
"2004-02-14 01:00","2004","02","14","01:00"
"2004-02-14 02:00","2004","02","14","02:00"
"2004-02-14 03:00","2004","02","14","03:00"
"2004-02-14 04:00","2004","02","14","04:00"
"2004-02-14 05:00","2004","02","14","05:00"
"2004-02-14 06:00","2004","02","14","06:00","-2.7","","-7.2","","71","","26","","20","","24.1","","99.77","","","","-9","","Cloudy"
"2004-02-14 07:00","2004","02","14","07:00","-2.7","","-6.9","","73","","26","","20","","19.3","","99.74","","","","-9","","Cloudy"
"2004-02-14 08:00","2004","02","14","08:00","-2.6","","-6.7","","73","","25","","20","","19.3","","99.79","","","","-9","","Cloudy"
"2004-02-14 09:00","2004","02","14","09:00","-2.4","","-6.1","","76","","25","","20","","4.8","","99.87","","","","-8","","Snow Showers"
"2004-02-14 10:00","2004","02","14","10:00","-1.7","","-5.5","","75","","26","","20","","8.0","","99.88","","","","-7","","Snow Showers"
"2004-02-14 11:00","2004","02","14","11:00","-1.2","","-6.2","","69","","28","","26","","19.3","","99.87","","","","-8","","Mostly Cloudy"
"2004-02-14 12:00","2004","02","14","12:00","-0.5","","-6.6","","63","","29","","13","","19.3","","99.92","","","","-5","","Mostly Cloudy"
"2004-02-14 13:00","2004","02","14","13:00","-0.1","","-7.2","","59","","27","","19","","24.1","","99.87","","","","-5","","Cloudy"
"2004-02-14 14:00","2004","02","14","14:00","0.2","","-8.3","","53","","29","","19","","24.1","","99.84","","","","","","Mostly Cloudy"
"2004-02-14 15:00","2004","02","14","15:00","-0.5","","-11.3","","44","","30","","22","","24.1","","99.92","","","","-6","","Mostly Cloudy"
"2004-02-14 16:00","2004","02","14","16:00","-4.5","","-10.0","","65","","7","","17","","24.1","","100.03","","","","-10","","Cloudy"
"2004-02-14 17:00","2004","02","14","17:00","-5.9","","-12.9","","58","","7","","17","","24.1","","100.14","","","","-12","","Mostly Cloudy"
"2004-02-14 18:00","2004","02","14","18:00","-8.2","","-14.8","","59","","7","","13","","24.1","","100.24","","","","-14","","Mostly Cloudy"
"2004-02-14 19:00","2004","02","14","19:00","-9.4","","-17.6","","51","","6","","15","","24.1","","100.36","","","","-16","","Mostly Cloudy"
"2004-02-14 20:00","2004","02","14","20:00","-10.9","","-19.6","","49","","4","","15","","24.1","","100.47","","","","-18","","Mostly Cloudy"
"2004-02-14 21:00","2004","02","14","21:00","-12.5","","-21.1","","49","","3","","20","","24.1","","100.57","","","","-21","","Mainly Clear"
"2004-02-14 22:00","2004","02","14","22:00","-13.8","","-22.8","","47","","2","","15","","24.1","","100.66","","","","-21","","Mainly Clear"
"2004-02-14 23:00","2004","02","14","23:00","-14.8","","-24.1","","45","","1","","11","","24.1","","100.79","","","","-21","","Mainly Clear"
"2004-02-15 00:00","2004","02","15","00:00"
"2004-02-15 01:00","2004","02","15","01:00"
"2004-02-15 02:00","2004","02","15","02:00"
"2004-02-15 03:00","2004","02","15","03:00"
"2004-02-15 04:00","2004","02","15","04:00"
"2004-02-15 05:00","2004","02","15","05:00"
"2004-02-15 06:00","2004","02","15","06:00","-21.2","","-30.5","","43","","1","","11","","22.5","","101.44","","","","-29","","Mainly Clear"
"2004-02-15 07:00","2004","02","15","07:00","-22.0","","-30.7","","45","","4","","7","","24.1","","101.55","","","","-28","","Mainly Clear"
"2004-02-15 08:00","2004","02","15","08:00","-22.0","","-30.2","","47","","4","","11","","24.1","","101.65","","","","-30","","Clear"
"2004-02-15 09:00","2004","02","15","09:00","-20.6","","-30.0","","43","","5","","9","","24.1","","101.72","","","","-27","","Clear"
"2004-02-15 10:00","2004","02","15","10:00","-19.4","","-29.2","","42","","10","","6","","24.1","","101.78","","","","-24","","Clear"
"2004-02-15 11:00","2004","02","15","11:00","-18.8","","-27.3","","47","","17","","11","","24.1","","101.81","","","","-26","","Clear"
"2004-02-15 12:00","2004","02","15","12:00","-17.8","","-26.9","","45","","18","","6","","24.1","","101.79","","","","-22","","Clear"
"2004-02-15 13:00","2004","02","15","13:00","-16.9","","-26.0","","45","","19","","6","","24.1","","101.74","","","","-21","","Clear"
"2004-02-15 14:00","2004","02","15","14:00","-15.0","","-23.0","","50","","17","","9","","24.1","","101.70","","","","-21","","Clear"
"2004-02-15 15:00","2004","02","15","15:00","-13.5","","-23.1","","44","","22","","11","","24.1","","101.72","","","","-20","","Clear"
"2004-02-15 16:00","2004","02","15","16:00","-13.0","","-23.0","","43","","23","","11","","24.1","","101.74","","","","-19","","Clear"
"2004-02-15 17:00","2004","02","15","17:00","-13.7","","-25.0","","38","","21","","9","","24.1","","101.71","","","","-19","","Clear"
"2004-02-15 18:00","2004","02","15","18:00","-17.0","","-23.8","","56","","16","","6","","24.1","","101.72","","","","-22","","Mainly Clear"
"2004-02-15 19:00","2004","02","15","19:00","-17.0","","-24.3","","53","","23","","6","","24.1","","101.74","","","","-22","","Mainly Clear"
"2004-02-15 20:00","2004","02","15","20:00","-15.3","","-24.3","","46","","27","","7","","24.1","","101.79","","","","-20","","Mainly Clear"
"2004-02-15 21:00","2004","02","15","21:00","-15.6","","-23.5","","51","","28","","7","","24.1","","101.86","","","","-21","","Mainly Clear"
"2004-02-15 22:00","2004","02","15","22:00","-16.8","","-26.6","","42","","29","","11","","24.1","","101.90","","","","-24","","Clear"
"2004-02-15 23:00","2004","02","15","23:00","-17.4","","-26.6","","45","","25","","7","","24.1","","101.97","","","","-23","","Clear"
"2004-02-16 00:00","2004","02","16","00:00"
"2004-02-16 01:00","2004","02","16","01:00"
"2004-02-16 02:00","2004","02","16","02:00"
"2004-02-16 03:00","2004","02","16","03:00"
"2004-02-16 04:00","2004","02","16","04:00"
"2004-02-16 05:00","2004","02","16","05:00"
"2004-02-16 06:00","2004","02","16","06:00","-19.8","","-25.1","","63","","27","","6","","24.1","","102.17","","","","-25","","Clear"
"2004-02-16 07:00","2004","02","16","07:00","-20.1","","-24.9","","65","","30","","6","","24.1","","102.22","","","","-25","","Mainly Clear"
"2004-02-16 08:00","2004","02","16","08:00","-18.2","","-23.3","","64","","33","","7","","24.1","","102.34","","","","-24","","Mainly Clear"
"2004-02-16 09:00","2004","02","16","09:00","-15.8","","-22.0","","59","","35","","7","","24.1","","102.46","","","","-21","","Mainly Clear"
"2004-02-16 10:00","2004","02","16","10:00","-12.9","","-19.7","","57","","36","","4","","24.1","","102.54","","","","-16","","Mainly Clear"
"2004-02-16 11:00","2004","02","16","11:00","-11.1","","-19.2","","51","","1","","7","","24.1","","102.54","","","","-15","","Mainly Clear"
"2004-02-16 12:00","2004","02","16","12:00","-9.5","","-19.1","","45","","","","0","","24.1","","102.51","","","","","","Mainly Clear"
"2004-02-16 13:00","2004","02","16","13:00","-10.4","","-17.6","","55","","17","","9","","24.1","","102.52","","","","-15","","Mainly Clear"
"2004-02-16 14:00","2004","02","16","14:00","-10.0","","-16.7","","58","","16","","9","","24.1","","102.53","","","","-15","","Mainly Clear"
"2004-02-16 15:00","2004","02","16","15:00","-9.3","","-15.4","","61","","14","","9","","24.1","","102.49","","","","-14","","Mainly Clear"
"2004-02-16 16:00","2004","02","16","16:00","-9.1","","-15.0","","62","","16","","9","","24.1","","102.50","","","","-14","","Mainly Clear"
"2004-02-16 17:00","2004","02","16","17:00","-9.9","","-15.3","","65","","15","","7","","24.1","","102.50","","","","-14","","Mainly Clear"
"2004-02-16 18:00","2004","02","16","18:00","-10.8","","-16.8","","61","","13","","9","","24.1","","102.55","","","","-16","","Mainly Clear"
"2004-02-16 19:00","2004","02","16","19:00","-11.3","","-17.9","","58","","13","","7","","24.1","","102.57","","","","-16","","Mainly Clear"
"2004-02-16 20:00","2004","02","16","20:00","-11.9","","-18.6","","57","","12","","4","","24.1","","102.61","","","","-14","","Mainly Clear"
"2004-02-16 21:00","2004","02","16","21:00","-12.6","","-19.5","","56","","11","","7","","24.1","","102.60","","","","-17","","Mainly Clear"
"2004-02-16 22:00","2004","02","16","22:00","-13.3","","-20.1","","57","","10","","6","","24.1","","102.60","","","","-17","","Clear"
"2004-02-16 23:00","2004","02","16","23:00","-13.4","","-19.4","","61","","8","","6","","24.1","","102.58","","","","-17","","Clear"
"2004-02-17 00:00","2004","02","17","00:00"
"2004-02-17 01:00","2004","02","17","01:00"
"2004-02-17 02:00","2004","02","17","02:00"
"2004-02-17 03:00","2004","02","17","03:00"
"2004-02-17 04:00","2004","02","17","04:00"
"2004-02-17 05:00","2004","02","17","05:00"
"2004-02-17 06:00","2004","02","17","06:00","-15.4","","-21.4","","60","","5","","9","","24.1","","102.42","","","","-21","","Mostly Cloudy"
"2004-02-17 07:00","2004","02","17","07:00","-14.9","","-20.7","","61","","5","","7","","24.1","","102.37","","","","-20","","Cloudy"
"2004-02-17 08:00","2004","02","17","08:00","-14.5","","-20.5","","60","","7","","9","","24.1","","102.37","","","","-20","","Cloudy"
"2004-02-17 09:00","2004","02","17","09:00","-13.7","","-19.8","","60","","5","","11","","24.1","","102.35","","","","-20","","Cloudy"
"2004-02-17 10:00","2004","02","17","10:00","-11.6","","-18.2","","58","","5","","7","","24.1","","102.28","","","","-16","","Cloudy"
"2004-02-17 11:00","2004","02","17","11:00","-9.0","","-16.5","","54","","9","","9","","24.1","","102.19","","","","-14","","Cloudy"
"2004-02-17 12:00","2004","02","17","12:00","-7.9","","-15.2","","56","","13","","11","","24.1","","102.12","","","","-13","","Cloudy"
"2004-02-17 13:00","2004","02","17","13:00","-6.8","","-12.5","","64","","14","","9","","24.1","","101.97","","","","-11","","Cloudy"
"2004-02-17 14:00","2004","02","17","14:00","-3.7","","-9.9","","62","","19","","19","","24.1","","101.88","","","","-10","","Cloudy"
"2004-02-17 15:00","2004","02","17","15:00","-3.5","","-9.0","","66","","20","","19","","24.1","","101.83","","","","-9","","Cloudy"
"2004-02-17 16:00","2004","02","17","16:00","-4.2","","-8.8","","70","","18","","11","","24.1","","101.82","","","","-9","","Cloudy"
"2004-02-17 17:00","2004","02","17","17:00","-4.3","","-8.9","","70","","17","","7","","24.1","","101.79","","","","-7","","Cloudy"
"2004-02-17 18:00","2004","02","17","18:00","-4.1","","-9.0","","69","","","","0","","24.1","","101.81","","","","","","Cloudy"
"2004-02-17 19:00","2004","02","17","19:00","-4.6","","-9.3","","70","","","","0","","24.1","","101.85","","","","","","Cloudy"
"2004-02-17 20:00","2004","02","17","20:00","-5.0","","-9.1","","73","","24","","4","","24.1","","101.84","","","","-7","","Cloudy"
"2004-02-17 21:00","2004","02","17","21:00","-4.8","","-9.9","","67","","","","0","","24.1","","101.78","","","","","","Cloudy"
"2004-02-17 22:00","2004","02","17","22:00","-4.7","","-11.0","","61","","31","","6","","24.1","","101.75","","","","-7","","Cloudy"
"2004-02-17 23:00","2004","02","17","23:00","-5.6","","-12.0","","61","","31","","6","","24.1","","101.73","","","","-8","","Mostly Cloudy"
"2004-02-18 00:00","2004","02","18","00:00"
"2004-02-18 01:00","2004","02","18","01:00"
"2004-02-18 02:00","2004","02","18","02:00"
"2004-02-18 03:00","2004","02","18","03:00"
"2004-02-18 04:00","2004","02","18","04:00"
"2004-02-18 05:00","2004","02","18","05:00"
"2004-02-18 06:00","2004","02","18","06:00","-14.4","","-17.8","","75","","34","","4","","24.1","","101.61","","","","-17","","Mainly Clear"
"2004-02-18 07:00","2004","02","18","07:00","-14.2","","-17.3","","77","","33","","6","","19.3","","101.57","","","","-18","","Mainly Clear"
"2004-02-18 08:00","2004","02","18","08:00","-13.7","","-16.6","","79","","","","0","","19.3","","101.61","","","","","","Mainly Clear"
"2004-02-18 09:00","2004","02","18","09:00","-10.6","","-14.3","","74","","35","","6","","16.1","","101.59","","","","-14","","Mostly Cloudy"
"2004-02-18 10:00","2004","02","18","10:00","-7.9","","-12.2","","71","","","","0","","19.3","","101.56","","","","","","Mostly Cloudy"
"2004-02-18 11:00","2004","02","18","11:00","-7.2","","-11.1","","74","","17","","4","","19.3","","101.56","","","","-9","","Mostly Cloudy"
"2004-02-18 12:00","2004","02","18","12:00","-4.7","","-9.1","","71","","19","","6","","19.3","","101.49","","","","-7","","Mostly Cloudy"
"2004-02-18 13:00","2004","02","18","13:00","-3.2","","-8.6","","66","","20","","9","","19.3","","101.40","","","","-7","","Mainly Clear"
"2004-02-18 14:00","2004","02","18","14:00","-2.9","","-8.0","","68","","17","","9","","24.1","","101.31","","","","-6","","Mostly Cloudy"
"2004-02-18 15:00","2004","02","18","15:00","-2.8","","-7.5","","70","","19","","15","","24.1","","101.15","","","","-8","","Mostly Cloudy"
"2004-02-18 16:00","2004","02","18","16:00","-2.9","","-7.7","","69","","20","","19","","24.1","","101.03","","","","-9","","Mostly Cloudy"
"2004-02-18 17:00","2004","02","18","17:00","-3.2","","-7.7","","71","","21","","17","","24.1","","100.92","","","","-9","","Mostly Cloudy"
"2004-02-18 18:00","2004","02","18","18:00","-3.9","","-7.6","","75","","22","","13","","24.1","","100.87","","","","-9","","Mostly Cloudy"
"2004-02-18 19:00","2004","02","18","19:00","-3.5","","-8.1","","70","","23","","7","","24.1","","100.75","","","","-6","","Cloudy"
"2004-02-18 20:00","2004","02","18","20:00","-3.2","","-6.9","","76","","22","","13","","24.1","","100.61","","","","-8","","Cloudy"
"2004-02-18 21:00","2004","02","18","21:00","-2.7","","-6.6","","74","","21","","15","","19.3","","100.49","","","","-8","","Cloudy"
"2004-02-18 22:00","2004","02","18","22:00","-2.8","","-6.2","","77","","20","","19","","24.1","","100.30","","","","-9","","Cloudy"
"2004-02-18 23:00","2004","02","18","23:00","-2.5","","-5.8","","78","","21","","13","","24.1","","100.26","","","","-7","","Cloudy"
"2004-02-19 00:00","2004","02","19","00:00"
"2004-02-19 01:00","2004","02","19","01:00"
"2004-02-19 02:00","2004","02","19","02:00"
"2004-02-19 03:00","2004","02","19","03:00"
"2004-02-19 04:00","2004","02","19","04:00"
"2004-02-19 05:00","2004","02","19","05:00"
"2004-02-19 06:00","2004","02","19","06:00","-1.9","","-5.9","","74","","31","","6","","24.1","","99.94","","","","-4","","Cloudy"
"2004-02-19 07:00","2004","02","19","07:00","-1.9","","-6.2","","72","","32","","9","","12.9","","100.00","","","","-5","","Cloudy"
"2004-02-19 08:00","2004","02","19","08:00","-1.8","","-6.6","","70","","33","","13","","12.9","","100.08","","","","-6","","Cloudy"
"2004-02-19 09:00","2004","02","19","09:00","-1.7","","-6.3","","71","","34","","9","","16.1","","100.16","","","","-5","","Cloudy"
"2004-02-19 10:00","2004","02","19","10:00","-1.1","","-6.0","","69","","33","","9","","16.1","","100.19","","","","-4","","Cloudy"
"2004-02-19 11:00","2004","02","19","11:00","-0.2","","-5.8","","66","","36","","7","","16.1","","100.23","","","","-3","","Cloudy"
"2004-02-19 12:00","2004","02","19","12:00","0.4","","-5.5","","65","","1","","6","","16.1","","100.28","","","","","","Cloudy"
"2004-02-19 13:00","2004","02","19","13:00","1.2","","-5.6","","60","","2","","4","","16.1","","100.25","","","","","","Cloudy"
"2004-02-19 14:00","2004","02","19","14:00","0.8","","-5.2","","64","","21","","9","","16.1","","100.27","","","","","","Cloudy"
"2004-02-19 15:00","2004","02","19","15:00","1.7","","-4.2","","65","","24","","13","","16.1","","100.23","","","","","","Mainly Clear"
"2004-02-19 16:00","2004","02","19","16:00","1.9","","-4.4","","63","","26","","6","","16.1","","100.24","","","","","","Mainly Clear"
"2004-02-19 17:00","2004","02","19","17:00","0.5","","-4.5","","69","","25","","15","","16.1","","100.35","","","","","","Mainly Clear"
"2004-02-19 18:00","2004","02","19","18:00","-0.8","","-5.2","","72","","25","","13","","16.1","","100.43","","","","-5","","Mostly Cloudy"
"2004-02-19 19:00","2004","02","19","19:00","-0.7","","-4.6","","75","","27","","9","","16.1","","100.46","","","","-4","","Mostly Cloudy"
"2004-02-19 20:00","2004","02","19","20:00","-1.4","","-4.8","","78","","27","","9","","16.1","","100.47","","","","-5","","Mostly Cloudy"
"2004-02-19 21:00","2004","02","19","21:00","-1.8","","-5.4","","76","","27","","4","","24.1","","100.42","","","","-3","","Mostly Cloudy"
"2004-02-19 22:00","2004","02","19","22:00","-1.9","","-5.8","","75","","27","","9","","24.1","","100.41","","","","-5","","Cloudy"
"2004-02-19 23:00","2004","02","19","23:00","-2.2","","-6.6","","72","","","","0","","24.1","","100.45","","","","","","Cloudy"
"2004-02-20 00:00","2004","02","20","00:00"
"2004-02-20 01:00","2004","02","20","01:00"
"2004-02-20 02:00","2004","02","20","02:00"
"2004-02-20 03:00","2004","02","20","03:00"
"2004-02-20 04:00","2004","02","20","04:00"
"2004-02-20 05:00","2004","02","20","05:00"
"2004-02-20 06:00","2004","02","20","06:00","-3.4","","-6.1","","82","","7","","7","","16.1","","100.45","","","","-6","","Mostly Cloudy"
"2004-02-20 07:00","2004","02","20","07:00","-1.7","","-5.7","","74","","8","","11","","16.1","","100.42","","","","-6","","Cloudy"
"2004-02-20 08:00","2004","02","20","08:00","-2.4","","-5.5","","79","","9","","11","","12.9","","100.39","","","","-6","","Cloudy"
"2004-02-20 09:00","2004","02","20","09:00","-1.4","","-5.7","","72","","9","","19","","12.9","","100.30","","","","-7","","Cloudy"
"2004-02-20 10:00","2004","02","20","10:00","-0.6","","-5.4","","70","","8","","17","","9.7","","100.24","","","","-6","","Haze"
"2004-02-20 11:00","2004","02","20","11:00","0.1","","-4.8","","70","","8","","19","","12.9","","100.15","","","","","","Cloudy"
"2004-02-20 12:00","2004","02","20","12:00","0.4","","-5.0","","67","","8","","15","","12.9","","100.06","","","","","","Cloudy"
"2004-02-20 13:00","2004","02","20","13:00","-0.3","","-3.9","","77","","9","","20","","2.4","","99.91","","","","-6","","Snow"
"2004-02-20 14:00","2004","02","20","14:00","-0.3","","-3.5","","79","","9","","28","","11.3","","99.73","","","","-7","","Cloudy"
"2004-02-20 15:00","2004","02","20","15:00","-0.8","","-3.0","","85","","8","","28","","4.8","","99.58","","","","-7","","Snow"
"2004-02-20 16:00","2004","02","20","16:00","-0.2","","-3.0","","81","","8","","35","","8.0","","99.37","","","","-7","","Haze"
"2004-02-20 17:00","2004","02","20","17:00","-0.1","","-3.3","","79","","9","","26","","9.7","","99.32","","","","-6","","Haze"
"2004-02-20 18:00","2004","02","20","18:00","-0.4","","-3.3","","81","","8","","28","","9.7","","99.11","","","","-7","","Haze"
"2004-02-20 19:00","2004","02","20","19:00","-0.5","","-3.3","","81","","6","","17","","12.9","","99.10","","","","-5","","Mostly Cloudy"
"2004-02-20 20:00","2004","02","20","20:00","-1.1","","-3.8","","82","","7","","20","","12.9","","99.01","","","","-7","","Cloudy"
"2004-02-20 21:00","2004","02","20","21:00","-1.2","","-3.9","","82","","6","","17","","12.9","","98.92","","","","-6","","Cloudy"
"2004-02-20 22:00","2004","02","20","22:00","-1.3","","-4.2","","81","","6","","13","","12.9","","98.86","","","","-6","","Cloudy"
"2004-02-20 23:00","2004","02","20","23:00","-1.6","","-3.6","","86","","7","","15","","1.6","","98.74","","","","-6","","Snow"
"2004-02-21 00:00","2004","02","21","00:00"
"2004-02-21 01:00","2004","02","21","01:00"
"2004-02-21 02:00","2004","02","21","02:00"
"2004-02-21 03:00","2004","02","21","03:00"
"2004-02-21 04:00","2004","02","21","04:00"
"2004-02-21 05:00","2004","02","21","05:00"
"2004-02-21 06:00","2004","02","21","06:00","0.5","","-1.4","","87","","20","","28","","6.4","","98.35","","","","","","Snow"
"2004-02-21 07:00","2004","02","21","07:00","0.3","","-1.6","","87","","21","","24","","1.6","","98.39","","","","","","Snow"
"2004-02-21 08:00","2004","02","21","08:00","1.1","","-0.9","","86","","23","","26","","6.4","","98.45","","","","","","Fog"
"2004-02-21 09:00","2004","02","21","09:00","2.0","","-1.1","","80","","23","","30","","16.1","","98.46","","","","","","Cloudy"
"2004-02-21 10:00","2004","02","21","10:00","2.0","","-1.6","","77","","22","","28","","19.3","","98.46","","","","","","Cloudy"
"2004-02-21 11:00","2004","02","21","11:00","1.8","","-1.9","","76","","22","","26","","19.3","","98.50","","","","","","Mostly Cloudy"
"2004-02-21 12:00","2004","02","21","12:00","1.9","","-2.1","","75","","22","","26","","19.3","","98.52","","","","","","Cloudy"
"2004-02-21 13:00","2004","02","21","13:00","1.3","","-1.9","","79","","22","","28","","12.9","","98.52","","","","","","Snow"
"2004-02-21 14:00","2004","02","21","14:00","0.9","","-1.6","","83","","21","","24","","16.1","","98.54","","","","","","Snow"
"2004-02-21 15:00","2004","02","21","15:00","1.0","","-1.5","","83","","23","","28","","16.1","","98.59","","","","","","Cloudy"
"2004-02-21 16:00","2004","02","21","16:00","0.7","","-2.2","","81","","22","","28","","16.1","","98.63","","","","","","Cloudy"
"2004-02-21 17:00","2004","02","21","17:00","0.8","","-2.2","","80","","23","","26","","12.9","","98.68","","","","","","Snow"
"2004-02-21 18:00","2004","02","21","18:00","-0.1","","-2.7","","83","","24","","22","","4.8","","98.79","","","","-6","","Snow"
"2004-02-21 19:00","2004","02","21","19:00","-0.4","","-2.7","","84","","25","","20","","4.8","","98.90","","","","-6","","Snow"
"2004-02-21 20:00","2004","02","21","20:00","-0.8","","-2.7","","87","","26","","17","","4.8","","98.97","","","","-6","","Snow"
"2004-02-21 21:00","2004","02","21","21:00","-0.8","","-2.7","","87","","27","","22","","4.8","","99.09","","","","-7","","Snow"
"2004-02-21 22:00","2004","02","21","22:00","-0.6","","-2.4","","88","","28","","22","","8.0","","99.21","","","","-6","","Snow"
"2004-02-21 23:00","2004","02","21","23:00","-0.7","","-2.8","","86","","29","","22","","8.0","","99.36","","","","-6","","Snow"
"2004-02-22 00:00","2004","02","22","00:00"
"2004-02-22 01:00","2004","02","22","01:00"
"2004-02-22 02:00","2004","02","22","02:00"
"2004-02-22 03:00","2004","02","22","03:00"
"2004-02-22 04:00","2004","02","22","04:00"
"2004-02-22 05:00","2004","02","22","05:00"
"2004-02-22 06:00","2004","02","22","06:00","-3.0","","-8.2","","67","","29","","13","","24.1","","100.28","","","","-8","","Mainly Clear"
"2004-02-22 07:00","2004","02","22","07:00","-3.7","","-9.2","","66","","30","","20","","24.1","","100.40","","","","-10","","Mainly Clear"
"2004-02-22 08:00","2004","02","22","08:00","-3.8","","-9.1","","67","","30","","19","","24.1","","100.53","","","","-10","","Mainly Clear"
"2004-02-22 09:00","2004","02","22","09:00","-3.3","","-9.1","","64","","30","","20","","24.1","","100.61","","","","-9","","Mainly Clear"
"2004-02-22 10:00","2004","02","22","10:00","-2.6","","-8.9","","62","","31","","20","","24.1","","100.69","","","","-9","","Mainly Clear"
"2004-02-22 11:00","2004","02","22","11:00","-1.8","","-8.7","","59","","32","","22","","24.1","","100.75","","","","-8","","Mainly Clear"
"2004-02-22 12:00","2004","02","22","12:00","-0.6","","-8.1","","57","","29","","17","","24.1","","100.81","","","","-6","","Mainly Clear"
"2004-02-22 13:00","2004","02","22","13:00","0.3","","-8.0","","54","","33","","24","","24.1","","100.80","","","","","","Mainly Clear"
"2004-02-22 14:00","2004","02","22","14:00","1.0","","-8.1","","51","","31","","17","","24.1","","100.83","","","","","","Mainly Clear"
"2004-02-22 15:00","2004","02","22","15:00","1.5","","-7.7","","50","","34","","19","","24.1","","100.86","","","","","","Mainly Clear"
"2004-02-22 16:00","2004","02","22","16:00","1.8","","-7.8","","49","","32","","17","","24.1","","100.94","","","","","","Mainly Clear"
"2004-02-22 17:00","2004","02","22","17:00","1.7","","-7.7","","50","","33","","15","","24.1","","101.00","","","","","","Mainly Clear"
"2004-02-22 18:00","2004","02","22","18:00","0.2","","-8.5","","52","","33","","9","","24.1","","101.11","","","","","","Clear"
"2004-02-22 19:00","2004","02","22","19:00","-1.9","","-9.5","","56","","34","","9","","24.1","","101.17","","","","-5","","Clear"
"2004-02-22 20:00","2004","02","22","20:00","-3.1","","-10.0","","59","","35","","7","","24.1","","101.22","","","","-6","","Clear"
"2004-02-22 21:00","2004","02","22","21:00","-3.7","","-10.3","","60","","35","","7","","24.1","","101.25","","","","-7","","Clear"
"2004-02-22 22:00","2004","02","22","22:00","-5.2","","-10.8","","65","","31","","7","","24.1","","101.27","","","","-8","","Clear"
"2004-02-22 23:00","2004","02","22","23:00","-6.6","","-11.7","","67","","31","","6","","24.1","","101.30","","","","-10","","Clear"
"2004-02-23 00:00","2004","02","23","00:00"
"2004-02-23 01:00","2004","02","23","01:00"
"2004-02-23 02:00","2004","02","23","02:00"
"2004-02-23 03:00","2004","02","23","03:00"
"2004-02-23 04:00","2004","02","23","04:00"
"2004-02-23 05:00","2004","02","23","05:00"
"2004-02-23 06:00","2004","02","23","06:00","-9.6","","-13.1","","76","","29","","6","","24.1","","101.55","","","","-13","","Clear"
"2004-02-23 07:00","2004","02","23","07:00","-12.2","","-15.6","","76","","30","","6","","24.1","","101.60","","","","-16","","Mainly Clear"
"2004-02-23 08:00","2004","02","23","08:00","-10.1","","-13.2","","78","","32","","7","","24.1","","101.64","","","","-14","","Mainly Clear"
"2004-02-23 09:00","2004","02","23","09:00","-8.3","","-12.6","","71","","36","","11","","24.1","","101.64","","","","-14","","Mainly Clear"
"2004-02-23 10:00","2004","02","23","10:00","-6.0","","-12.1","","62","","35","","7","","24.1","","101.61","","","","-9","","Mainly Clear"
"2004-02-23 11:00","2004","02","23","11:00","-5.0","","-12.2","","57","","36","","9","","24.1","","101.58","","","","-9","","Mainly Clear"
"2004-02-23 12:00","2004","02","23","12:00","-2.7","","-11.5","","51","","3","","7","","24.1","","101.54","","","","-6","","Clear"
"2004-02-23 13:00","2004","02","23","13:00","-4.2","","-10.3","","62","","17","","9","","24.1","","101.43","","","","-8","","Clear"
"2004-02-23 14:00","2004","02","23","14:00","-3.8","","-9.9","","63","","18","","9","","24.1","","101.38","","","","-8","","Mainly Clear"
"2004-02-23 15:00","2004","02","23","15:00","-3.6","","-10.1","","61","","16","","6","","24.1","","101.32","","","","-6","","Mainly Clear"
"2004-02-23 16:00","2004","02","23","16:00","-3.8","","-8.5","","70","","18","","11","","24.1","","101.32","","","","-8","","Mainly Clear"
"2004-02-23 17:00","2004","02","23","17:00","-4.5","","-8.7","","72","","18","","7","","24.1","","101.34","","","","-8","","Mainly Clear"
"2004-02-23 18:00","2004","02","23","18:00","-5.3","","-9.5","","72","","","","0","","24.1","","101.35","","","","","","Mainly Clear"
"2004-02-23 19:00","2004","02","23","19:00","-5.4","","-9.7","","72","","","","0","","24.1","","101.33","","","","","","Mainly Clear"
"2004-02-23 20:00","2004","02","23","20:00","-6.1","","-10.1","","73","","","","0","","24.1","","101.31","","","","","","Mainly Clear"
"2004-02-23 21:00","2004","02","23","21:00","-7.2","","-11.1","","74","","1","","6","","24.1","","101.27","","","","-10","","Mainly Clear"
"2004-02-23 22:00","2004","02","23","22:00","-8.9","","-12.4","","76","","36","","7","","24.1","","101.28","","","","-13","","Mainly Clear"
"2004-02-23 23:00","2004","02","23","23:00","-9.5","","-13.6","","72","","1","","7","","24.1","","101.27","","","","-13","","Mainly Clear"
"2004-02-24 00:00","2004","02","24","00:00"
"2004-02-24 01:00","2004","02","24","01:00"
"2004-02-24 02:00","2004","02","24","02:00"
"2004-02-24 03:00","2004","02","24","03:00"
"2004-02-24 04:00","2004","02","24","04:00"
"2004-02-24 05:00","2004","02","24","05:00"
"2004-02-24 06:00","2004","02","24","06:00","-7.7","","-14.7","","57","","3","","11","","24.1","","101.13","","","","-13","","Cloudy"
"2004-02-24 07:00","2004","02","24","07:00","-7.9","","-14.8","","58","","3","","13","","24.1","","101.19","","","","-14","","Mostly Cloudy"
"2004-02-24 08:00","2004","02","24","08:00","-7.7","","-14.6","","58","","2","","11","","24.1","","101.21","","","","-13","","Mostly Cloudy"
"2004-02-24 09:00","2004","02","24","09:00","-7.1","","-14.7","","55","","1","","11","","24.1","","101.19","","","","-12","","Mostly Cloudy"
"2004-02-24 10:00","2004","02","24","10:00","-6.5","","-14.9","","51","","1","","11","","24.1","","101.18","","","","-11","","Mostly Cloudy"
"2004-02-24 11:00","2004","02","24","11:00","-5.8","","-15.6","","46","","2","","13","","24.1","","101.14","","","","-11","","Mostly Cloudy"
"2004-02-24 12:00","2004","02","24","12:00","-4.1","","-16.4","","38","","2","","9","","24.1","","101.10","","","","-8","","Mostly Cloudy"
"2004-02-24 13:00","2004","02","24","13:00","-2.7","","-15.5","","37","","34","","4","","24.1","","101.05","","","","-4","","Mostly Cloudy"
"2004-02-24 14:00","2004","02","24","14:00","-1.6","","-15.9","","33","","36","","13","","24.1","","100.98","","","","-6","","Mostly Cloudy"
"2004-02-24 15:00","2004","02","24","15:00","-0.7","","-16.8","","28","","32","","13","","24.1","","100.96","","","","-5","","Mainly Clear"
"2004-02-24 16:00","2004","02","24","16:00","-3.8","","-11.3","","56","","36","","9","","24.1","","100.93","","","","-8","","Mainly Clear"
"2004-02-24 17:00","2004","02","24","17:00","-5.3","","-11.2","","63","","19","","7","","24.1","","100.93","","","","-9","","Mainly Clear"
"2004-02-24 18:00","2004","02","24","18:00","-5.0","","-12.1","","57","","","","0","","24.1","","100.96","","","","","","Clear"
"2004-02-24 19:00","2004","02","24","19:00","-6.2","","-12.0","","63","","","","0","","24.1","","101.02","","","","","","Clear"
"2004-02-24 20:00","2004","02","24","20:00","-6.8","","-12.5","","64","","","","0","","24.1","","101.03","","","","","","Clear"
"2004-02-24 21:00","2004","02","24","21:00","-8.7","","-13.5","","68","","35","","7","","24.1","","101.05","","","","-13","","Clear"
"2004-02-24 22:00","2004","02","24","22:00","-9.0","","-13.8","","68","","34","","9","","24.1","","101.07","","","","-14","","Clear"
"2004-02-24 23:00","2004","02","24","23:00","-9.0","","-17.5","","50","","34","","6","","24.1","","101.09","","","","-12","","Clear"
"2004-02-25 00:00","2004","02","25","00:00"
"2004-02-25 01:00","2004","02","25","01:00"
"2004-02-25 02:00","2004","02","25","02:00"
"2004-02-25 03:00","2004","02","25","03:00"
"2004-02-25 04:00","2004","02","25","04:00"
"2004-02-25 05:00","2004","02","25","05:00"
"2004-02-25 06:00","2004","02","25","06:00","-12.3","","-18.0","","62","","32","","7","","24.1","","101.27","","","","-17","","Clear"
"2004-02-25 07:00","2004","02","25","07:00","-13.1","","-17.8","","68","","36","","7","","24.1","","101.32","","","","-18","","Mainly Clear"
"2004-02-25 08:00","2004","02","25","08:00","-10.9","","-16.4","","64","","36","","6","","24.1","","101.41","","","","-15","","Mainly Clear"
"2004-02-25 09:00","2004","02","25","09:00","-7.2","","-14.8","","55","","36","","13","","24.1","","101.42","","","","-13","","Mainly Clear"
"2004-02-25 10:00","2004","02","25","10:00","-4.6","","-14.9","","44","","35","","15","","24.1","","101.43","","","","-10","","Mainly Clear"
"2004-02-25 11:00","2004","02","25","11:00","-3.0","","-14.9","","39","","36","","20","","24.1","","101.45","","","","-9","","Mainly Clear"
"2004-02-25 12:00","2004","02","25","12:00","-1.2","","-14.9","","34","","34","","19","","24.1","","101.47","","","","-7","","Mainly Clear"
"2004-02-25 13:00","2004","02","25","13:00","0.3","","-14.3","","32","","35","","19","","24.1","","101.44","","","","","","Mainly Clear"
"2004-02-25 14:00","2004","02","25","14:00","1.4","","-11.3","","38","","34","","15","","24.1","","101.45","","","","","","Mainly Clear"
"2004-02-25 15:00","2004","02","25","15:00","2.2","","-10.2","","39","","34","","15","","24.1","","101.46","","","","","","Mainly Clear"
"2004-02-25 16:00","2004","02","25","16:00","2.5","","-9.1","","42","","34","","13","","24.1","","101.49","","","","","","Mainly Clear"
"2004-02-25 17:00","2004","02","25","17:00","-0.2","","-8.4","","54","","36","","7","","24.1","","101.49","","","","-3","","Mainly Clear"
"2004-02-25 18:00","2004","02","25","18:00","-2.6","","-6.2","","76","","15","","4","","24.1","","101.52","","","","-4","","Mostly Cloudy"
"2004-02-25 19:00","2004","02","25","19:00","-2.4","","-6.3","","75","","4","","4","","24.1","","101.57","","","","-4","","Mostly Cloudy"
"2004-02-25 20:00","2004","02","25","20:00","-1.4","","-5.7","","72","","2","","6","","24.1","","101.58","","","","-4","","Mostly Cloudy"
"2004-02-25 21:00","2004","02","25","21:00","-1.2","","-6.7","","66","","2","","7","","24.1","","101.61","","","","-4","","Mostly Cloudy"
"2004-02-25 22:00","2004","02","25","22:00","-1.0","","-8.1","","59","","3","","9","","24.1","","101.65","","","","-4","","Mainly Clear"
"2004-02-25 23:00","2004","02","25","23:00","-2.1","","-8.9","","60","","2","","13","","24.1","","101.65","","","","-7","","Mainly Clear"
"2004-02-26 00:00","2004","02","26","00:00"
"2004-02-26 01:00","2004","02","26","01:00"
"2004-02-26 02:00","2004","02","26","02:00"
"2004-02-26 03:00","2004","02","26","03:00"
"2004-02-26 04:00","2004","02","26","04:00"
"2004-02-26 05:00","2004","02","26","05:00"
"2004-02-26 06:00","2004","02","26","06:00","-9.6","","-13.7","","72","","36","","11","","24.1","","101.99","","","","-15","","Clear"
"2004-02-26 07:00","2004","02","26","07:00","-9.7","","-14.0","","71","","36","","7","","24.1","","102.04","","","","-14","","Clear"
"2004-02-26 08:00","2004","02","26","08:00","-8.4","","-13.2","","68","","1","","13","","24.1","","102.10","","","","-14","","Mainly Clear"
"2004-02-26 09:00","2004","02","26","09:00","-6.9","","-13.1","","61","","4","","19","","24.1","","102.12","","","","-14","","Mainly Clear"
"2004-02-26 10:00","2004","02","26","10:00","-5.6","","-12.7","","57","","3","","7","","24.1","","102.13","","","","-9","","Mainly Clear"
"2004-02-26 11:00","2004","02","26","11:00","-4.4","","-12.7","","52","","36","","7","","24.1","","102.12","","","","-8","","Mainly Clear"
"2004-02-26 12:00","2004","02","26","12:00","-3.0","","-14.1","","42","","6","","11","","24.1","","102.05","","","","-7","","Mainly Clear"
"2004-02-26 13:00","2004","02","26","13:00","-1.8","","-10.7","","51","","","","0","","24.1","","102.10","","","","","","Mainly Clear"
"2004-02-26 14:00","2004","02","26","14:00","-2.8","","-10.0","","58","","20","","9","","24.1","","102.07","","","","-6","","Mainly Clear"
"2004-02-26 15:00","2004","02","26","15:00","-2.5","","-9.5","","59","","21","","15","","24.1","","102.12","","","","-7","","Mainly Clear"
"2004-02-26 16:00","2004","02","26","16:00","-1.9","","-10.2","","53","","21","","6","","24.1","","102.10","","","","-4","","Mainly Clear"
"2004-02-26 17:00","2004","02","26","17:00","-2.7","","-8.9","","62","","36","","7","","24.1","","101.99","","","","-6","","Mainly Clear"
"2004-02-26 18:00","2004","02","26","18:00","-3.9","","-9.8","","64","","12","","4","","24.1","","101.99","","","","-6","","Mainly Clear"
"2004-02-26 19:00","2004","02","26","19:00","-3.5","","-12.1","","51","","6","","6","","24.1","","101.98","","","","-6","","Mainly Clear"
"2004-02-26 20:00","2004","02","26","20:00","-3.7","","-15.7","","39","","3","","4","","24.1","","101.95","","","","-5","","Clear"
"2004-02-26 21:00","2004","02","26","21:00","-4.8","","-16.1","","41","","","","0","","24.1","","101.96","","","","","","Clear"
"2004-02-26 22:00","2004","02","26","22:00","-7.0","","-16.2","","48","","36","","7","","24.1","","101.98","","","","-11","","Clear"
"2004-02-26 23:00","2004","02","26","23:00","-8.5","","-16.6","","52","","36","","6","","24.1","","101.98","","","","-12","","Clear"
"2004-02-27 00:00","2004","02","27","00:00"
"2004-02-27 01:00","2004","02","27","01:00"
"2004-02-27 02:00","2004","02","27","02:00"
"2004-02-27 03:00","2004","02","27","03:00"
"2004-02-27 04:00","2004","02","27","04:00"
"2004-02-27 05:00","2004","02","27","05:00"
"2004-02-27 06:00","2004","02","27","06:00","-11.8","","-19.5","","53","","36","","13","","24.1","","102.04","","","","-18","","Mainly Clear"
"2004-02-27 07:00","2004","02","27","07:00","-12.0","","-19.7","","53","","36","","7","","24.1","","102.05","","","","-16","","Mainly Clear"
"2004-02-27 08:00","2004","02","27","08:00","-10.3","","-18.5","","51","","1","","4","","24.1","","102.09","","","","-13","","Mainly Clear"
"2004-02-27 09:00","2004","02","27","09:00","-6.8","","-15.4","","50","","15","","4","","24.1","","102.11","","","","-9","","Mainly Clear"
"2004-02-27 10:00","2004","02","27","10:00","-3.5","","-16.5","","36","","9","","9","","24.1","","102.09","","","","-7","","Mainly Clear"
"2004-02-27 11:00","2004","02","27","11:00","-3.3","","-10.7","","57","","23","","6","","24.1","","102.08","","","","-6","","Mainly Clear"
"2004-02-27 12:00","2004","02","27","12:00","-3.1","","-10.3","","57","","18","","7","","24.1","","102.04","","","","-6","","Mainly Clear"
"2004-02-27 13:00","2004","02","27","13:00","-2.2","","-10.2","","54","","19","","9","","24.1","","101.98","","","","-6","","Clear"
"2004-02-27 14:00","2004","02","27","14:00","-0.7","","-8.7","","55","","21","","11","","24.1","","101.90","","","","-4","","Clear"
"2004-02-27 15:00","2004","02","27","15:00","-0.6","","-9.4","","51","","22","","9","","24.1","","101.87","","","","-4","","Clear"
"2004-02-27 16:00","2004","02","27","16:00","-0.5","","-8.7","","54","","21","","6","","24.1","","101.87","","","","-3","","Clear"
"2004-02-27 17:00","2004","02","27","17:00","-1.8","","-6.8","","69","","21","","7","","24.1","","101.87","","","","-4","","Mainly Clear"
"2004-02-27 18:00","2004","02","27","18:00","-2.4","","-7.2","","70","","21","","7","","24.1","","101.86","","","","-5","","Mainly Clear"
"2004-02-27 19:00","2004","02","27","19:00","-3.5","","-7.4","","74","","26","","7","","24.1","","101.87","","","","-6","","Mainly Clear"
"2004-02-27 20:00","2004","02","27","20:00","-3.9","","-11.1","","57","","25","","7","","24.1","","101.85","","","","-7","","Mostly Cloudy"
"2004-02-27 21:00","2004","02","27","21:00","-4.5","","-11.0","","60","","26","","6","","24.1","","101.82","","","","-7","","Mostly Cloudy"
"2004-02-27 22:00","2004","02","27","22:00","-5.7","","-11.1","","66","","23","","6","","24.1","","101.78","","","","-9","","Mostly Cloudy"
"2004-02-27 23:00","2004","02","27","23:00","-6.1","","-10.3","","72","","19","","4","","24.1","","101.77","","","","-8","","Mostly Cloudy"
"2004-02-28 00:00","2004","02","28","00:00"
"2004-02-28 01:00","2004","02","28","01:00"
"2004-02-28 02:00","2004","02","28","02:00"
"2004-02-28 03:00","2004","02","28","03:00"
"2004-02-28 04:00","2004","02","28","04:00"
"2004-02-28 05:00","2004","02","28","05:00"
"2004-02-28 06:00","2004","02","28","06:00","-4.3","","-8.5","","72","","29","","17","","24.1","","101.63","","","","-10","","Mainly Clear"
"2004-02-28 07:00","2004","02","28","07:00","-4.3","","-8.6","","72","","28","","17","","24.1","","101.66","","","","-10","","Mainly Clear"
"2004-02-28 08:00","2004","02","28","08:00","-6.9","","-10.6","","75","","26","","11","","24.1","","101.70","","","","-12","","Mainly Clear"
"2004-02-28 09:00","2004","02","28","09:00","-3.5","","-7.9","","72","","27","","11","","24.1","","101.69","","","","-8","","Mainly Clear"
"2004-02-28 10:00","2004","02","28","10:00","0.5","","-6.4","","60","","28","","9","","24.1","","101.66","","","","","","Mostly Cloudy"
"2004-02-28 11:00","2004","02","28","11:00","1.7","","-5.2","","60","","27","","13","","24.1","","101.65","","","","","","Mostly Cloudy"
"2004-02-28 12:00","2004","02","28","12:00","2.2","","-5.3","","58","","27","","20","","24.1","","101.62","","","","","","Mostly Cloudy"
"2004-02-28 13:00","2004","02","28","13:00","3.7","","-4.2","","56","","24","","15","","24.1","","101.53","","","","","","Mainly Clear"
"2004-02-28 14:00","2004","02","28","14:00","4.4","","-3.8","","55","","25","","15","","24.1","","101.47","","","","","","Mainly Clear"
"2004-02-28 15:00","2004","02","28","15:00","4.8","","-3.9","","53","","23","","15","","24.1","","101.43","","","","","","Mainly Clear"
"2004-02-28 16:00","2004","02","28","16:00","4.4","","-3.6","","56","","24","","15","","24.1","","101.41","","","","","","Mainly Clear"
"2004-02-28 17:00","2004","02","28","17:00","3.6","","-4.5","","55","","24","","22","","24.1","","101.37","","","","","","Mainly Clear"
"2004-02-28 18:00","2004","02","28","18:00","1.9","","-5.9","","56","","25","","19","","24.1","","101.36","","","","","","Mainly Clear"
"2004-02-28 19:00","2004","02","28","19:00","0.1","","-5.9","","64","","26","","17","","24.1","","101.32","","","","","","Mainly Clear"
"2004-02-28 20:00","2004","02","28","20:00","-0.5","","-6.3","","65","","26","","13","","24.1","","101.33","","","","-5","","Mainly Clear"
"2004-02-28 21:00","2004","02","28","21:00","-0.5","","-6.8","","62","","27","","11","","24.1","","101.35","","","","-4","","Clear"
"2004-02-28 22:00","2004","02","28","22:00","-0.8","","-6.5","","65","","25","","11","","24.1","","101.37","","","","-5","","Clear"
"2004-02-28 23:00","2004","02","28","23:00","-0.1","","-5.4","","67","","24","","13","","24.1","","101.34","","","","-4","","Clear"
"2004-02-29 00:00","2004","02","29","00:00"
"2004-02-29 01:00","2004","02","29","01:00"
"2004-02-29 02:00","2004","02","29","02:00"
"2004-02-29 03:00","2004","02","29","03:00"
"2004-02-29 04:00","2004","02","29","04:00"
"2004-02-29 05:00","2004","02","29","05:00"
"2004-02-29 06:00","2004","02","29","06:00","-2.9","","-5.2","","84","","23","","6","","24.1","","101.16","","","","-5","","Mostly Cloudy"
"2004-02-29 07:00","2004","02","29","07:00","-3.2","","-5.7","","83","","21","","7","","16.1","","101.14","","","","-6","","Mostly Cloudy"
"2004-02-29 08:00","2004","02","29","08:00","-1.7","","-3.8","","86","","20","","11","","16.1","","101.10","","","","-6","","Mainly Clear"
"2004-02-29 09:00","2004","02","29","09:00","0.4","","-2.5","","81","","22","","9","","16.1","","101.11","","","","","","Mostly Cloudy"
"2004-02-29 10:00","2004","02","29","10:00","1.3","","-1.6","","81","","22","","7","","16.1","","101.10","","","","","","Mostly Cloudy"
"2004-02-29 11:00","2004","02","29","11:00","4.0","","-1.5","","67","","24","","19","","16.1","","101.03","","","","","","Mostly Cloudy"
"2004-02-29 12:00","2004","02","29","12:00","3.2","","-1.2","","73","","23","","17","","16.1","","100.99","","","","","","Mostly Cloudy"
"2004-02-29 13:00","2004","02","29","13:00","4.5","","-1.4","","65","","24","","17","","16.1","","100.97","","","","","","Mostly Cloudy"
"2004-02-29 14:00","2004","02","29","14:00","5.1","","-1.2","","64","","24","","19","","19.3","","100.89","","","","","","Mostly Cloudy"
"2004-02-29 15:00","2004","02","29","15:00","5.3","","-1.2","","63","","24","","17","","19.3","","100.87","","","","","","Mostly Cloudy"
"2004-02-29 16:00","2004","02","29","16:00","4.8","","-1.7","","63","","25","","24","","19.3","","100.82","","","","","","Mostly Cloudy"
"2004-02-29 17:00","2004","02","29","17:00","4.4","","-1.7","","65","","25","","17","","16.1","","100.78","","","","","","Mostly Cloudy"
"2004-02-29 18:00","2004","02","29","18:00","3.3","","-2.0","","68","","25","","17","","16.1","","100.85","","","","","","Mostly Cloudy"
"2004-02-29 19:00","2004","02","29","19:00","3.0","","-1.9","","70","","26","","11","","16.1","","100.93","","","","","","Mostly Cloudy"
"2004-02-29 20:00","2004","02","29","20:00","4.2","","-1.8","","65","","28","","11","","19.3","","100.95","","","","","","Mainly Clear"
"2004-02-29 21:00","2004","02","29","21:00","3.3","","-2.2","","67","","27","","9","","19.3","","100.96","","","","","","Mainly Clear"
"2004-02-29 22:00","2004","02","29","22:00","3.3","","-2.1","","68","","27","","11","","19.3","","100.99","","","","","","Mainly Clear"
"2004-02-29 23:00","2004","02","29","23:00","3.5","","-2.2","","66","","29","","7","","19.3","","101.04","","","","","","Clear"
