"Station Name","KINGSTON A"
"Province","ONTARIO"
"Latitude","44.22"
"Longitude","-76.60"
"Elevation","92.40"
"Climate Identifier","6104146"
"WMO Identifier",""
"TC Identifier","YGK"
"All times are specified in Local Standard Time (LST). Add 1 hour to adjust for Daylight Saving Time where and when it is observed."

"Legend"
"E","Estimated"
"M","Missing"
"NA","Not Available"

"Date/Time","Year","Month","Day","Time","Temp (°C)","Temp Flag","Dew Point Temp (°C)","Dew Point Temp Flag","Rel Hum (%)","Rel Hum Flag","Wind Dir (10s deg)","Wind Dir Flag","Wind Spd (km/h)","Wind Spd Flag","Visibility (km)","Visibility Flag","Stn Press (kPa)","Stn Press Flag","Hmdx","Hmdx Flag","Wind Chill","Wind Chill Flag","Weather"
"2009-12-01 00:00","2009","12","01","00:00"
"2009-12-01 01:00","2009","12","01","01:00"
"2009-12-01 02:00","2009","12","01","02:00"
"2009-12-01 03:00","2009","12","01","03:00"
"2009-12-01 04:00","2009","12","01","04:00"
"2009-12-01 05:00","2009","12","01","05:00"
"2009-12-01 06:00","2009","12","01","06:00","1.1","","0.6","","96","","23","","20","","16.1","","99.62","","","","","","Rain,Snow"
"2009-12-01 07:00","2009","12","01","07:00","2.2","","1.1","","92","","21","","20","","19.3","","99.62","","","","","","Rain,Snow"
"2009-12-01 08:00","2009","12","01","08:00","2.5","","1.2","","91","","21","","30","","12.9","","99.65","","","","","","Rain,Snow"
"2009-12-01 09:00","2009","12","01","09:00","2.2","","1.7","","96","","22","","19","","19.3","","99.67","","","","","","Rain"
"2009-12-01 10:00","2009","12","01","10:00","3.4","","1.4","","87","","26","","19","","24.1","","99.73","","","","","","Mostly Cloudy"
"2009-12-01 11:00","2009","12","01","11:00","4.5","","1.8","","83","","26","","26","","24.1","","99.75","","","","","","Mostly Cloudy"
"2009-12-01 12:00","2009","12","01","12:00","5.9","","2.1","","77","","26","","20","","24.1","","99.75","","","","","","Mostly Cloudy"
"2009-12-01 13:00","2009","12","01","13:00","6.0","","1.3","","72","","26","","28","","24.1","","99.79","","","","","","Mostly Cloudy"
"2009-12-01 14:00","2009","12","01","14:00","5.8","","0.4","","68","","25","","22","","24.1","","99.83","","","","","","Mostly Cloudy"
"2009-12-01 15:00","2009","12","01","15:00","6.2","","0.3","","66","","25","","24","","24.1","","99.89","","","","","","Mostly Cloudy"
"2009-12-01 16:00","2009","12","01","16:00","5.5","","0.0","","68","","27","","17","","24.1","","100.03","","","","","","Mostly Cloudy"
"2009-12-01 17:00","2009","12","01","17:00","4.6","","0.4","","74","","29","","11","","24.1","","100.12","","","","","","Mostly Cloudy"
"2009-12-01 18:00","2009","12","01","18:00","4.2","","0.5","","77","","29","","9","","24.1","","100.23","","","","","","Mostly Cloudy"
"2009-12-01 19:00","2009","12","01","19:00","4.5","","1.0","","78","","25","","11","","24.1","","100.33","","","","","","Mostly Cloudy"
"2009-12-01 20:00","2009","12","01","20:00","4.9","","1.3","","77","","25","","11","","24.1","","100.39","","","","","","Mostly Cloudy"
"2009-12-01 21:00","2009","12","01","21:00","4.9","","1.6","","79","","25","","9","","24.1","","100.43","","","","","","Cloudy"
"2009-12-01 22:00","2009","12","01","22:00","4.8","","1.5","","79","","25","","6","","24.1","","100.47","","","","","","Mostly Cloudy"
"2009-12-01 23:00","2009","12","01","23:00","4.0","","0.7","","79","","26","","6","","24.1","","100.46","","","","","","Mainly Clear"
"2009-12-02 00:00","2009","12","02","00:00"
"2009-12-02 01:00","2009","12","02","01:00"
"2009-12-02 02:00","2009","12","02","02:00"
"2009-12-02 03:00","2009","12","02","03:00"
"2009-12-02 04:00","2009","12","02","04:00"
"2009-12-02 05:00","2009","12","02","05:00"
"2009-12-02 06:00","2009","12","02","06:00","7.0","","3.9","","81","","19","","22","","24.1","","100.43","","","","","","Mostly Cloudy"
"2009-12-02 07:00","2009","12","02","07:00","6.9","","4.1","","82","","19","","30","","24.1","","100.46","","","","","","Mostly Cloudy"
"2009-12-02 08:00","2009","12","02","08:00","6.6","","4.0","","83","","18","","30","","24.1","","100.40","","","","","","Mainly Clear"
"2009-12-02 09:00","2009","12","02","09:00","6.8","","4.0","","82","","18","","33","","24.1","","100.48","","","","","","Mainly Clear"
"2009-12-02 10:00","2009","12","02","10:00","6.9","","3.9","","81","","18","","32","","24.1","","100.45","","","","","","Mostly Cloudy"
"2009-12-02 11:00","2009","12","02","11:00","6.9","","4.2","","83","","17","","28","","24.1","","100.32","","","","","","Mostly Cloudy"
"2009-12-02 12:00","2009","12","02","12:00","7.2","","3.7","","78","","17","","28","","24.1","","100.19","","","","","","Mostly Cloudy"
"2009-12-02 13:00","2009","12","02","13:00","7.3","","3.6","","77","","18","","30","","24.1","","100.16","","","","","","Cloudy"
"2009-12-02 14:00","2009","12","02","14:00","8.1","","4.4","","77","","17","","22","","24.1","","100.08","","","","","","Cloudy"
"2009-12-02 15:00","2009","12","02","15:00","8.4","","4.9","","79","","17","","11","","24.1","","100.05","","","","","","Mostly Cloudy"
"2009-12-02 16:00","2009","12","02","16:00","8.4","","5.3","","81","","18","","13","","24.1","","99.99","","","","","","Mostly Cloudy"
"2009-12-02 17:00","2009","12","02","17:00","8.6","","5.9","","83","","17","","11","","24.1","","99.90","","","","","","Cloudy"
"2009-12-02 18:00","2009","12","02","18:00","9.5","","5.1","","74","","18","","28","","24.1","","99.87","","","","","","Cloudy"
"2009-12-02 19:00","2009","12","02","19:00","9.4","","5.3","","76","","16","","19","","24.1","","99.83","","","","","","Cloudy"
"2009-12-02 20:00","2009","12","02","20:00","9.1","","6.2","","82","","18","","41","","19.3","","99.78","","","","","","Rain"
"2009-12-02 21:00","2009","12","02","21:00","8.1","","6.9","","92","","16","","19","","16.1","","99.68","","","","","","Rain"
"2009-12-02 22:00","2009","12","02","22:00","7.5","","6.3","","92","","11","","19","","12.9","","99.48","","","","","","Cloudy"
"2009-12-02 23:00","2009","12","02","23:00","6.7","","6.6","","99","","7","","30","","4.8","","99.07","","","","","","Rain,Fog"
"2009-12-03 00:00","2009","12","03","00:00"
"2009-12-03 01:00","2009","12","03","01:00"
"2009-12-03 02:00","2009","12","03","02:00"
"2009-12-03 03:00","2009","12","03","03:00"
"2009-12-03 04:00","2009","12","03","04:00"
"2009-12-03 05:00","2009","12","03","05:00"
"2009-12-03 06:00","2009","12","03","06:00","7.6","","7.5","","99","","3","","11","","4.8","","97.84","","","","","","Rain,Fog"
"2009-12-03 07:00","2009","12","03","07:00","7.6","","7.5","","99","","4","","7","","4.8","","97.80","","","","","","Rain,Fog"
"2009-12-03 08:00","2009","12","03","08:00","7.6","","7.6","","100","","4","","7","","3.2","","97.82","","","","","","Rain,Fog"
"2009-12-03 09:00","2009","12","03","09:00","7.7","","7.7","","100","","","","0","","4.8","","97.94","","","","","","Rain,Fog"
"2009-12-03 10:00","2009","12","03","10:00","8.4","","8.0","","97","","19","","4","","9.7","","98.03","","","","","","Fog"
"2009-12-03 11:00","2009","12","03","11:00","9.7","","9.2","","97","","24","","19","","9.7","","98.13","","","","","","Fog"
"2009-12-03 12:00","2009","12","03","12:00","8.8","","8.5","","98","","27","","15","","9.7","","98.27","","","","","","Fog"
"2009-12-03 13:00","2009","12","03","13:00","8.1","","7.5","","96","","26","","17","","24.1","","98.48","","","","","","Cloudy"
"2009-12-03 14:00","2009","12","03","14:00","8.1","","6.4","","89","","25","","24","","24.1","","98.66","","","","","","Cloudy"
"2009-12-03 15:00","2009","12","03","15:00","7.6","","5.7","","88","","25","","24","","24.1","","98.89","","","","","","Rain Showers"
"2009-12-03 16:00","2009","12","03","16:00","6.8","","3.9","","82","","26","","28","","24.1","","99.14","","","","","","Cloudy"
"2009-12-03 17:00","2009","12","03","17:00","6.0","","3.5","","84","","25","","24","","24.1","","99.36","","","","","","Cloudy"
"2009-12-03 18:00","2009","12","03","18:00","5.8","","3.0","","82","","24","","28","","24.1","","99.54","","","","","","Cloudy"
"2009-12-03 19:00","2009","12","03","19:00","5.5","","2.1","","79","","25","","28","","24.1","","99.66","","","","","","Cloudy"
"2009-12-03 20:00","2009","12","03","20:00","5.4","","2.5","","82","","26","","22","","24.1","","99.77","","","","","","Cloudy"
"2009-12-03 21:00","2009","12","03","21:00","5.3","","3.1","","86","","25","","15","","24.1","","99.82","","","","","","Mostly Cloudy"
"2009-12-03 22:00","2009","12","03","22:00","5.0","","0.6","","73","","27","","24","","24.1","","99.89","","","","","","Cloudy"
"2009-12-03 23:00","2009","12","03","23:00","4.7","","0.3","","73","","26","","24","","24.1","","99.94","","","","","","Mostly Cloudy"
"2009-12-04 00:00","2009","12","04","00:00"
"2009-12-04 01:00","2009","12","04","01:00"
"2009-12-04 02:00","2009","12","04","02:00"
"2009-12-04 03:00","2009","12","04","03:00"
"2009-12-04 04:00","2009","12","04","04:00"
"2009-12-04 05:00","2009","12","04","05:00"
"2009-12-04 06:00","2009","12","04","06:00","2.7","","-1.8","","72","","25","","19","","24.1","","100.39","","","","","","Mainly Clear"
"2009-12-04 07:00","2009","12","04","07:00","2.6","","-4.0","","62","","27","","11","","24.1","","100.43","","","","","","Mostly Cloudy"
"2009-12-04 08:00","2009","12","04","08:00","3.3","","-2.7","","65","","27","","13","","19.3","","100.50","","","","","","Snow"
"2009-12-04 09:00","2009","12","04","09:00","2.2","","0.3","","87","","23","","15","","19.3","","100.56","","","","","","Snow"
"2009-12-04 10:00","2009","12","04","10:00","1.2","","0.5","","95","","27","","15","","1.6","","100.61","","","","","","Snow Showers"
"2009-12-04 11:00","2009","12","04","11:00","1.5","","1.0","","96","","26","","17","","9.7","","100.60","","","","","","Snow Pellets"
"2009-12-04 12:00","2009","12","04","12:00","3.0","","1.4","","89","","22","","39","","19.3","","100.61","","","","","","Mostly Cloudy"
"2009-12-04 13:00","2009","12","04","13:00","3.7","","-0.8","","72","","22","","41","","19.3","","100.62","","","","","","Mostly Cloudy"
"2009-12-04 14:00","2009","12","04","14:00","3.3","","-1.3","","72","","22","","33","","24.1","","100.65","","","","","","Mostly Cloudy"
"2009-12-04 15:00","2009","12","04","15:00","3.3","","-1.2","","72","","22","","35","","24.1","","100.68","","","","","","Mostly Cloudy"
"2009-12-04 16:00","2009","12","04","16:00","3.1","","-1.9","","70","","22","","32","","24.1","","100.76","","","","","","Mostly Cloudy"
"2009-12-04 17:00","2009","12","04","17:00","3.1","","-1.3","","73","","22","","33","","24.1","","100.85","","","","","","Mostly Cloudy"
"2009-12-04 18:00","2009","12","04","18:00","3.1","","-4.6","","57","","25","","20","","24.1","","100.89","","","","","","Mostly Cloudy"
"2009-12-04 19:00","2009","12","04","19:00","2.9","","-5.2","","55","","25","","20","","24.1","","100.93","","","","","","Snow"
"2009-12-04 20:00","2009","12","04","20:00","2.6","","-4.1","","61","","27","","13","","24.1","","100.95","","","","","","Snow"
"2009-12-04 21:00","2009","12","04","21:00","1.9","","-7.2","","51","","26","","17","","24.1","","100.99","","","","","","Snow"
"2009-12-04 22:00","2009","12","04","22:00","1.4","","-6.9","","54","","26","","13","","24.1","","101.05","","","","","","Mostly Cloudy"
"2009-12-04 23:00","2009","12","04","23:00","0.6","","-7.3","","55","","26","","9","","24.1","","101.02","","","","","","Mostly Cloudy"
"2009-12-05 00:00","2009","12","05","00:00"
"2009-12-05 01:00","2009","12","05","01:00"
"2009-12-05 02:00","2009","12","05","02:00"
"2009-12-05 03:00","2009","12","05","03:00"
"2009-12-05 04:00","2009","12","05","04:00"
"2009-12-05 05:00","2009","12","05","05:00"
"2009-12-05 06:00","2009","12","05","06:00","-1.1","","-6.1","","69","","4","","4","","24.1","","101.05","","","","-2","","Cloudy"
"2009-12-05 07:00","2009","12","05","07:00","-1.7","","-5.4","","76","","4","","4","","24.1","","101.12","","","","-3","","Cloudy"
"2009-12-05 08:00","2009","12","05","08:00","-1.5","","-5.1","","76","","5","","4","","16.1","","101.05","","","","-3","","Cloudy"
"2009-12-05 09:00","2009","12","05","09:00","-0.5","","-5.7","","68","","5","","6","","16.1","","101.02","","","","-3","","Cloudy"
"2009-12-05 10:00","2009","12","05","10:00","0.3","","-5.7","","64","","3","","6","","16.1","","101.03","","","","","","Cloudy"
"2009-12-05 11:00","2009","12","05","11:00","0.8","","-5.4","","63","","4","","6","","19.3","","100.98","","","","","","Cloudy"
"2009-12-05 12:00","2009","12","05","12:00","1.8","","-6.0","","56","","7","","7","","19.3","","100.81","","","","","","Cloudy"
"2009-12-05 13:00","2009","12","05","13:00","2.0","","-6.3","","54","","","","0","","19.3","","100.76","","","","","","Cloudy"
"2009-12-05 14:00","2009","12","05","14:00","1.8","","-6.1","","56","","34","","9","","19.3","","100.70","","","","","","Cloudy"
"2009-12-05 15:00","2009","12","05","15:00","1.7","","-6.1","","56","","33","","9","","16.1","","100.75","","","","","","Cloudy"
"2009-12-05 16:00","2009","12","05","16:00","1.2","","-5.7","","60","","31","","6","","19.3","","100.75","","","","","","Cloudy"
"2009-12-05 17:00","2009","12","05","17:00","0.9","","-5.6","","62","","32","","9","","19.3","","100.74","","","","","","Cloudy"
"2009-12-05 18:00","2009","12","05","18:00","0.5","","-5.3","","65","","31","","6","","24.1","","100.73","","","","","","Cloudy"
"2009-12-05 19:00","2009","12","05","19:00","0.6","","-6.3","","60","","30","","6","","24.1","","100.71","","","","","","Cloudy"
"2009-12-05 20:00","2009","12","05","20:00","-0.1","","-5.9","","65","","28","","6","","24.1","","100.68","","","","-2","","Mainly Clear"
"2009-12-05 21:00","2009","12","05","21:00","-0.7","","-6.4","","65","","28","","7","","24.1","","100.65","","","","-3","","Mostly Cloudy"
"2009-12-05 22:00","2009","12","05","22:00","-1.4","","-7.0","","66","","30","","13","","24.1","","100.65","","","","-6","","Mainly Clear"
"2009-12-05 23:00","2009","12","05","23:00","-2.8","","-7.1","","72","","31","","7","","24.1","","100.67","","","","-6","","Mainly Clear"
"2009-12-06 00:00","2009","12","06","00:00"
"2009-12-06 01:00","2009","12","06","01:00"
"2009-12-06 02:00","2009","12","06","02:00"
"2009-12-06 03:00","2009","12","06","03:00"
"2009-12-06 04:00","2009","12","06","04:00"
"2009-12-06 05:00","2009","12","06","05:00"
"2009-12-06 06:00","2009","12","06","06:00","-4.1","","-7.6","","77","","28","","13","","24.1","","100.89","","","","-9","","Mostly Cloudy"
"2009-12-06 07:00","2009","12","06","07:00","-2.9","","-7.0","","73","","28","","17","","24.1","","100.94","","","","-8","","Cloudy"
"2009-12-06 08:00","2009","12","06","08:00","-2.1","","-6.0","","75","","27","","15","","24.1","","100.98","","","","-7","","Cloudy"
"2009-12-06 09:00","2009","12","06","09:00","-1.1","","-5.4","","73","","26","","19","","24.1","","101.04","","","","-6","","Cloudy"
"2009-12-06 10:00","2009","12","06","10:00","-0.3","","-5.3","","69","","27","","20","","24.1","","101.09","","","","-6","","Mostly Cloudy"
"2009-12-06 11:00","2009","12","06","11:00","0.8","","-5.1","","65","","28","","24","","24.1","","101.10","","","","","","Mainly Clear"
"2009-12-06 12:00","2009","12","06","12:00","1.7","","-4.6","","63","","28","","19","","24.1","","101.06","","","","","","Mainly Clear"
"2009-12-06 13:00","2009","12","06","13:00","1.6","","-5.4","","60","","27","","17","","24.1","","101.06","","","","","","Mainly Clear"
"2009-12-06 14:00","2009","12","06","14:00","1.6","","-5.6","","59","","26","","15","","24.1","","101.08","","","","","","Mostly Cloudy"
"2009-12-06 15:00","2009","12","06","15:00","1.8","","-5.5","","58","","25","","15","","24.1","","101.06","","","","","","Mainly Clear"
"2009-12-06 16:00","2009","12","06","16:00","2.0","","-5.9","","56","","26","","19","","24.1","","101.11","","","","","","Mainly Clear"
"2009-12-06 17:00","2009","12","06","17:00","1.9","","-5.2","","59","","25","","24","","24.1","","101.12","","","","","","Mainly Clear"
"2009-12-06 18:00","2009","12","06","18:00","1.9","","-4.5","","62","","25","","22","","24.1","","101.15","","","","","","Mainly Clear"
"2009-12-06 19:00","2009","12","06","19:00","2.0","","-3.6","","66","","25","","15","","24.1","","101.14","","","","","","Mostly Cloudy"
"2009-12-06 20:00","2009","12","06","20:00","2.9","","-4.2","","60","","22","","26","","24.1","","101.14","","","","","","Mostly Cloudy"
"2009-12-06 21:00","2009","12","06","21:00","3.1","","-2.5","","67","","22","","26","","24.1","","101.12","","","","","","Mostly Cloudy"
"2009-12-06 22:00","2009","12","06","22:00","3.4","","-2.2","","67","","25","","28","","24.1","","101.15","","","","","","Cloudy"
"2009-12-06 23:00","2009","12","06","23:00","2.8","","-3.3","","64","","26","","28","","24.1","","101.19","","","","","","Cloudy"
"2009-12-07 00:00","2009","12","07","00:00"
"2009-12-07 01:00","2009","12","07","01:00"
"2009-12-07 02:00","2009","12","07","02:00"
"2009-12-07 03:00","2009","12","07","03:00"
"2009-12-07 04:00","2009","12","07","04:00"
"2009-12-07 05:00","2009","12","07","05:00"
"2009-12-07 06:00","2009","12","07","06:00","-0.7","","-4.3","","77","","","","0","","24.1","","101.22","","","","","","Mostly Cloudy"
"2009-12-07 07:00","2009","12","07","07:00","-0.5","","-4.2","","76","","3","","6","","24.1","","101.24","","","","-3","","Cloudy"
"2009-12-07 08:00","2009","12","07","08:00","-0.8","","-3.2","","84","","5","","4","","19.3","","101.22","","","","-2","","Cloudy"
"2009-12-07 09:00","2009","12","07","09:00","-0.3","","-3.3","","80","","3","","7","","8.0","","101.20","","","","-3","","Fog"
"2009-12-07 10:00","2009","12","07","10:00","0.0","","-2.8","","81","","6","","9","","6.4","","101.13","","","","-3","","Snow"
"2009-12-07 11:00","2009","12","07","11:00","0.7","","-0.6","","91","","6","","9","","6.4","","101.07","","","","","","Snow"
"2009-12-07 12:00","2009","12","07","12:00","0.4","","0.1","","98","","5","","7","","1.0","","100.92","","","","","","Snow"
"2009-12-07 13:00","2009","12","07","13:00","0.1","","0.1","","100","","34","","7","","1.6","","100.82","","","","","","Snow"
"2009-12-07 14:00","2009","12","07","14:00","0.1","","0.1","","100","","7","","4","","0.4","","100.77","","","","","","Snow,Snow Grains,Fog"
"2009-12-07 15:00","2009","12","07","15:00","0.2","","0.1","","99","","","","0","","0.8","","100.76","","","","","","Moderate Snow,Snow Pellets,Fog"
"2009-12-07 16:00","2009","12","07","16:00","0.4","","0.1","","98","","27","","6","","4.8","","100.78","","","","","","Snow"
"2009-12-07 17:00","2009","12","07","17:00","0.6","","-0.2","","94","","29","","6","","4.8","","100.80","","","","","","Snow"
"2009-12-07 18:00","2009","12","07","18:00","0.3","","-0.4","","95","","30","","6","","8.0","","100.82","","","","","","Snow"
"2009-12-07 19:00","2009","12","07","19:00","-0.8","","-1.3","","96","","32","","4","","8.0","","100.84","","","","-2","","Snow"
"2009-12-07 20:00","2009","12","07","20:00","-0.5","","-0.6","","99","","32","","9","","4.8","","100.83","","","","-4","","Snow"
"2009-12-07 21:00","2009","12","07","21:00","-0.4","","-0.7","","98","","32","","6","","4.0","","100.85","","","","-2","","Snow"
"2009-12-07 22:00","2009","12","07","22:00","-1.0","","-1.1","","99","","32","","4","","16.1","","100.88","","","","-2","","Cloudy"
"2009-12-07 23:00","2009","12","07","23:00","-1.3","","-2.0","","95","","30","","7","","16.1","","100.91","","","","-4","","Cloudy"
"2009-12-08 00:00","2009","12","08","00:00"
"2009-12-08 01:00","2009","12","08","01:00"
"2009-12-08 02:00","2009","12","08","02:00"
"2009-12-08 03:00","2009","12","08","03:00"
"2009-12-08 04:00","2009","12","08","04:00"
"2009-12-08 05:00","2009","12","08","05:00"
"2009-12-08 06:00","2009","12","08","06:00","-2.9","","-3.8","","93","","34","","15","","24.1","","101.43","","","","-8","","Snow"
"2009-12-08 07:00","2009","12","08","07:00","-6.2","","-8.0","","87","","36","","7","","24.1","","101.50","","","","-10","","Mainly Clear"
"2009-12-08 08:00","2009","12","08","08:00","-6.3","","-7.3","","93","","","","0","","24.1","","101.54","","","","","","Mainly Clear"
"2009-12-08 09:00","2009","12","08","09:00","-6.8","","-7.0","","98","","","","0","","24.1","","101.64","","","","","","Mainly Clear"
"2009-12-08 10:00","2009","12","08","10:00","-4.3","","-4.6","","98","","35","","4","","24.1","","101.73","","","","-6","","Mainly Clear"
"2009-12-08 11:00","2009","12","08","11:00","-3.0","","-5.1","","85","","1","","4","","24.1","","101.74","","","","-5","","Mainly Clear"
"2009-12-08 12:00","2009","12","08","12:00","-2.0","","-5.8","","75","","","","0","","24.1","","101.69","","","","","","Mostly Cloudy"
"2009-12-08 13:00","2009","12","08","13:00","-1.7","","-6.9","","68","","34","","4","","24.1","","101.63","","","","-3","","Mostly Cloudy"
"2009-12-08 14:00","2009","12","08","14:00","-1.2","","-7.8","","61","","","","0","","24.1","","101.58","","","","","","Cloudy"
"2009-12-08 15:00","2009","12","08","15:00","-1.6","","-7.5","","64","","","","0","","24.1","","101.61","","","","","","Cloudy"
"2009-12-08 16:00","2009","12","08","16:00","-2.1","","-7.4","","67","","","","0","","24.1","","101.61","","","","","","Cloudy"
"2009-12-08 17:00","2009","12","08","17:00","-2.3","","-5.9","","76","","5","","7","","24.1","","101.53","","","","-5","","Cloudy"
"2009-12-08 18:00","2009","12","08","18:00","-3.3","","-6.1","","81","","4","","7","","24.1","","101.41","","","","-6","","Mainly Clear"
"2009-12-08 19:00","2009","12","08","19:00","-4.1","","-6.3","","85","","5","","4","","24.1","","101.44","","","","-6","","Clear"
"2009-12-08 20:00","2009","12","08","20:00","-4.1","","-7.0","","80","","5","","9","","24.1","","101.40","","","","-8","","Clear"
"2009-12-08 21:00","2009","12","08","21:00","-4.6","","-7.1","","83","","5","","7","","24.1","","101.38","","","","-8","","Mostly Cloudy"
"2009-12-08 22:00","2009","12","08","22:00","-4.1","","-7.0","","80","","5","","13","","24.1","","101.32","","","","-9","","Mostly Cloudy"
"2009-12-08 23:00","2009","12","08","23:00","-4.0","","-6.5","","83","","5","","19","","24.1","","101.14","","","","-10","","Cloudy"
"2009-12-09 00:00","2009","12","09","00:00"
"2009-12-09 01:00","2009","12","09","01:00"
"2009-12-09 02:00","2009","12","09","02:00"
"2009-12-09 03:00","2009","12","09","03:00"
"2009-12-09 04:00","2009","12","09","04:00"
"2009-12-09 05:00","2009","12","09","05:00"
"2009-12-09 06:00","2009","12","09","06:00","-3.2","","-3.7","","96","","6","","32","","1.2","","99.56","","","","-11","","Snow"
"2009-12-09 07:00","2009","12","09","07:00","-3.0","","-3.6","","96","","6","","35","","2.4","","99.31","","","","-11","","Snow"
"2009-12-09 08:00","2009","12","09","08:00","-3.1","","-3.7","","96","","6","","33","","0.8","","98.96","","","","-11","","Moderate Snow"
"2009-12-09 09:00","2009","12","09","09:00","-1.3","","-2.0","","95","","7","","35","","2.4","","98.67","","","","-9","","Snow"
"2009-12-09 10:00","2009","12","09","10:00","-1.2","","-1.9","","95","","7","","33","","2.4","","98.46","","","","-8","","Snow"
"2009-12-09 11:00","2009","12","09","11:00","-1.1","","-1.7","","96","","5","","26","","4.0","","98.17","","","","-7","","Freezing Rain,Snow"
"2009-12-09 12:00","2009","12","09","12:00","0.4","","0.3","","99","","8","","15","","9.7","","97.97","","","","","","Snow"
"2009-12-09 13:00","2009","12","09","13:00","1.8","","0.6","","92","","8","","15","","19.3","","97.61","","","","","","Rain,Snow"
"2009-12-09 14:00","2009","12","09","14:00","3.8","","1.3","","84","","13","","39","","24.1","","97.36","","","","","","Mostly Cloudy"
"2009-12-09 15:00","2009","12","09","15:00","5.1","","2.3","","82","","14","","50","","24.1","","97.27","","","","","","Rain"
"2009-12-09 16:00","2009","12","09","16:00","4.7","","3.2","","90","","16","","43","","19.3","","97.28","","","","","","Rain"
"2009-12-09 17:00","2009","12","09","17:00","4.8","","4.1","","95","","16","","43","","19.3","","97.29","","","","","","Rain"
"2009-12-09 18:00","2009","12","09","18:00","4.9","","4.7","","99","","19","","39","","16.1","","97.35","","","","","","Rain"
"2009-12-09 19:00","2009","12","09","19:00","5.2","","4.0","","92","","21","","26","","24.1","","97.43","","","","","","Cloudy"
"2009-12-09 20:00","2009","12","09","20:00","4.9","","0.9","","75","","23","","37","","24.1","","97.53","","","","","","Cloudy"
"2009-12-09 21:00","2009","12","09","21:00","4.5","","-0.4","","70","","24","","35","","24.1","","97.61","","","","","","Cloudy"
"2009-12-09 22:00","2009","12","09","22:00","4.2","","-0.7","","70","","23","","37","","24.1","","97.65","","","","","","Rain,Snow"
"2009-12-09 23:00","2009","12","09","23:00","3.5","","-0.7","","74","","23","","48","","24.1","","97.72","","","","","","Rain,Snow"
"2009-12-10 00:00","2009","12","10","00:00"
"2009-12-10 01:00","2009","12","10","01:00"
"2009-12-10 02:00","2009","12","10","02:00"
"2009-12-10 03:00","2009","12","10","03:00"
"2009-12-10 04:00","2009","12","10","04:00"
"2009-12-10 05:00","2009","12","10","05:00"
"2009-12-10 06:00","2009","12","10","06:00","0.0","","-1.2","","92","","24","","50","","3.2","","98.11","","","","-8","","Snow"
"2009-12-10 07:00","2009","12","10","07:00","0.1","","-2.5","","83","","24","","41","","2.4","","98.24","","","","","","Snow"
"2009-12-10 08:00","2009","12","10","08:00","-0.4","","-6.8","","62","","26","","44","","24.1","","98.28","","","","-8","","Mostly Cloudy"
"2009-12-10 09:00","2009","12","10","09:00","-0.7","","-7.5","","60","","25","","48","","24.1","","98.36","","","","-9","","Mainly Clear"
"2009-12-10 10:00","2009","12","10","10:00","-0.5","","-7.5","","59","","26","","44","","24.1","","98.44","","","","-8","","Mainly Clear"
"2009-12-10 11:00","2009","12","10","11:00","-0.5","","-7.2","","60","","26","","44","","24.1","","98.52","","","","-8","","Mostly Cloudy"
"2009-12-10 12:00","2009","12","10","12:00","-0.3","","-7.0","","61","","25","","37","","24.1","","98.53","","","","-8","","Snow"
"2009-12-10 13:00","2009","12","10","13:00","-0.1","","-8.1","","55","","24","","46","","24.1","","98.55","","","","-8","","Mostly Cloudy"
"2009-12-10 14:00","2009","12","10","14:00","-0.2","","-7.2","","59","","25","","35","","24.1","","98.59","","","","-7","","Cloudy"
"2009-12-10 15:00","2009","12","10","15:00","-0.3","","-7.2","","60","","24","","32","","24.1","","98.68","","","","-7","","Mostly Cloudy"
"2009-12-10 16:00","2009","12","10","16:00","-1.2","","-7.5","","62","","24","","39","","24.1","","98.76","","","","-9","","Mostly Cloudy"
"2009-12-10 17:00","2009","12","10","17:00","-1.7","","-7.7","","64","","25","","41","","24.1","","98.82","","","","-10","","Mostly Cloudy"
"2009-12-10 18:00","2009","12","10","18:00","-2.4","","-7.9","","66","","25","","46","","24.1","","98.95","","","","-11","","Mostly Cloudy"
"2009-12-10 19:00","2009","12","10","19:00","-3.0","","-8.4","","66","","26","","43","","24.1","","99.04","","","","-12","","Mainly Clear"
"2009-12-10 20:00","2009","12","10","20:00","-4.2","","-10.1","","63","","26","","43","","24.1","","99.19","","","","-13","","Mainly Clear"
"2009-12-10 21:00","2009","12","10","21:00","-4.7","","-10.4","","64","","26","","46","","24.1","","99.29","","","","-14","","Mostly Cloudy"
"2009-12-10 22:00","2009","12","10","22:00","-4.9","","-10.9","","63","","26","","37","","16.1","","99.34","","","","-14","","Snow"
"2009-12-10 23:00","2009","12","10","23:00","-5.0","","-11.2","","62","","26","","33","","24.1","","99.46","","","","-13","","Cloudy"
"2009-12-11 00:00","2009","12","11","00:00"
"2009-12-11 01:00","2009","12","11","01:00"
"2009-12-11 02:00","2009","12","11","02:00"
"2009-12-11 03:00","2009","12","11","03:00"
"2009-12-11 04:00","2009","12","11","04:00"
"2009-12-11 05:00","2009","12","11","05:00"
"2009-12-11 06:00","2009","12","11","06:00","-6.8","","-12.7","","63","","26","","30","","24.1","","99.87","","","","-15","","Mainly Clear"
"2009-12-11 07:00","2009","12","11","07:00","-7.0","","-12.8","","63","","26","","35","","24.1","","99.93","","","","-16","","Mainly Clear"
"2009-12-11 08:00","2009","12","11","08:00","-7.2","","-12.8","","64","","25","","35","","24.1","","99.97","","","","-16","","Mainly Clear"
"2009-12-11 09:00","2009","12","11","09:00","-6.7","","-12.0","","66","","26","","37","","24.1","","100.06","","","","-16","","Mainly Clear"
"2009-12-11 10:00","2009","12","11","10:00","-6.1","","-12.2","","62","","26","","41","","24.1","","100.14","","","","-16","","Mainly Clear"
"2009-12-11 11:00","2009","12","11","11:00","-5.6","","-13.7","","53","","26","","37","","24.1","","100.17","","","","-15","","Mainly Clear"
"2009-12-11 12:00","2009","12","11","12:00","-5.3","","-12.7","","56","","26","","30","","24.1","","100.16","","","","-13","","Mainly Clear"
"2009-12-11 13:00","2009","12","11","13:00","-4.8","","-13.8","","49","","26","","33","","24.1","","100.23","","","","-13","","Mainly Clear"
"2009-12-11 14:00","2009","12","11","14:00","-4.8","","-14.4","","47","","27","","35","","24.1","","100.29","","","","-13","","Mostly Cloudy"
"2009-12-11 15:00","2009","12","11","15:00","-4.7","","-13.1","","52","","26","","39","","24.1","","100.41","","","","-14","","Mainly Clear"
"2009-12-11 16:00","2009","12","11","16:00","-5.2","","-15.0","","46","","27","","35","","24.1","","100.52","","","","-14","","Mainly Clear"
"2009-12-11 17:00","2009","12","11","17:00","-5.8","","-14.3","","51","","26","","28","","24.1","","100.66","","","","-14","","Mainly Clear"
"2009-12-11 18:00","2009","12","11","18:00","-6.0","","-14.4","","51","","26","","30","","24.1","","100.76","","","","-14","","Mainly Clear"
"2009-12-11 19:00","2009","12","11","19:00","-6.3","","-13.4","","57","","26","","30","","24.1","","100.88","","","","-15","","Mainly Clear"
"2009-12-11 20:00","2009","12","11","20:00","-7.0","","-14.2","","56","","26","","30","","24.1","","100.96","","","","-16","","Clear"
"2009-12-11 21:00","2009","12","11","21:00","-7.4","","-14.0","","59","","26","","30","","24.1","","101.00","","","","-16","","Clear"
"2009-12-11 22:00","2009","12","11","22:00","-7.5","","-13.6","","62","","26","","26","","24.1","","101.04","","","","-16","","Clear"
"2009-12-11 23:00","2009","12","11","23:00","-7.8","","-13.4","","64","","26","","24","","24.1","","101.09","","","","-16","","Mainly Clear"
"2009-12-12 00:00","2009","12","12","00:00"
"2009-12-12 01:00","2009","12","12","01:00"
"2009-12-12 02:00","2009","12","12","02:00"
"2009-12-12 03:00","2009","12","12","03:00"
"2009-12-12 04:00","2009","12","12","04:00"
"2009-12-12 05:00","2009","12","12","05:00"
"2009-12-12 06:00","2009","12","12","06:00","-6.7","","-12.1","","65","","26","","19","","24.1","","101.57","","","","-14","","Mainly Clear"
"2009-12-12 07:00","2009","12","12","07:00","-6.0","","-11.0","","68","","27","","19","","24.1","","101.70","","","","-13","","Mostly Cloudy"
"2009-12-12 08:00","2009","12","12","08:00","-5.4","","-10.5","","67","","27","","20","","24.1","","101.79","","","","-12","","Mostly Cloudy"
"2009-12-12 09:00","2009","12","12","09:00","-4.6","","-10.4","","64","","27","","19","","24.1","","101.87","","","","-11","","Mainly Clear"
"2009-12-12 10:00","2009","12","12","10:00","-3.5","","-9.7","","62","","26","","15","","24.1","","101.91","","","","-9","","Mostly Cloudy"
"2009-12-12 11:00","2009","12","12","11:00","-2.6","","-8.8","","62","","27","","17","","24.1","","101.90","","","","-8","","Mostly Cloudy"
"2009-12-12 12:00","2009","12","12","12:00","-1.8","","-8.4","","61","","24","","19","","24.1","","101.84","","","","-7","","Mainly Clear"
"2009-12-12 13:00","2009","12","12","13:00","-0.7","","-8.1","","57","","24","","20","","24.1","","101.81","","","","-6","","Mainly Clear"
"2009-12-12 14:00","2009","12","12","14:00","-0.9","","-9.5","","52","","24","","26","","24.1","","101.77","","","","-7","","Mainly Clear"
"2009-12-12 15:00","2009","12","12","15:00","-0.7","","-6.2","","66","","21","","28","","24.1","","101.77","","","","-7","","Mainly Clear"
"2009-12-12 16:00","2009","12","12","16:00","-1.0","","-6.2","","68","","22","","26","","24.1","","101.79","","","","-7","","Mainly Clear"
"2009-12-12 17:00","2009","12","12","17:00","-1.1","","-6.0","","69","","21","","24","","24.1","","101.80","","","","-7","","Mainly Clear"
"2009-12-12 18:00","2009","12","12","18:00","-0.2","","-6.2","","64","","21","","26","","24.1","","101.78","","","","-6","","Mainly Clear"
"2009-12-12 19:00","2009","12","12","19:00","1.0","","-4.3","","68","","21","","28","","24.1","","101.75","","","","","","Mainly Clear"
"2009-12-12 20:00","2009","12","12","20:00","1.3","","-5.0","","63","","21","","30","","24.1","","101.71","","","","","","Mainly Clear"
"2009-12-12 21:00","2009","12","12","21:00","1.4","","-6.3","","56","","21","","26","","24.1","","101.69","","","","","","Clear"
"2009-12-12 22:00","2009","12","12","22:00","1.6","","-5.2","","61","","20","","22","","24.1","","101.59","","","","","","Clear"
"2009-12-12 23:00","2009","12","12","23:00","1.9","","-5.4","","58","","20","","22","","24.1","","101.53","","","","","","Mainly Clear"
"2009-12-13 00:00","2009","12","13","00:00"
"2009-12-13 01:00","2009","12","13","01:00"
"2009-12-13 02:00","2009","12","13","02:00"
"2009-12-13 03:00","2009","12","13","03:00"
"2009-12-13 04:00","2009","12","13","04:00"
"2009-12-13 05:00","2009","12","13","05:00"
"2009-12-13 06:00","2009","12","13","06:00","1.6","","-3.9","","67","","17","","41","","24.1","","100.85","","","","","","Mostly Cloudy"
"2009-12-13 07:00","2009","12","13","07:00","1.8","","-3.4","","68","","17","","39","","24.1","","100.75","","","","","","Mostly Cloudy"
"2009-12-13 08:00","2009","12","13","08:00","1.9","","-3.5","","67","","17","","39","","24.1","","100.71","","","","","","Mostly Cloudy"
"2009-12-13 09:00","2009","12","13","09:00","1.9","","-3.3","","68","","16","","39","","24.1","","100.52","","","","","","Cloudy"
"2009-12-13 10:00","2009","12","13","10:00","1.8","","-4.5","","63","","17","","44","","24.1","","100.50","","","","","","Cloudy"
"2009-12-13 11:00","2009","12","13","11:00","2.5","","-4.4","","60","","17","","43","","24.1","","100.35","","","","","","Cloudy"
"2009-12-13 12:00","2009","12","13","12:00","1.5","","-0.9","","84","","17","","41","","6.4","","100.11","","","","","","Snow"
"2009-12-13 13:00","2009","12","13","13:00","2.2","","1.0","","92","","18","","43","","9.7","","99.96","","","","","","Ice Pellets"
"2009-12-13 14:00","2009","12","13","14:00","2.1","","1.6","","96","","19","","43","","8.0","","99.90","","","","","","Rain,Fog"
"2009-12-13 15:00","2009","12","13","15:00","2.7","","2.3","","97","","21","","32","","11.3","","99.87","","","","","","Rain"
"2009-12-13 16:00","2009","12","13","16:00","2.4","","2.0","","97","","22","","20","","11.3","","99.89","","","","","","Rain"
"2009-12-13 17:00","2009","12","13","17:00","2.2","","1.7","","96","","23","","20","","19.3","","99.92","","","","","","Cloudy"
"2009-12-13 18:00","2009","12","13","18:00","2.2","","1.4","","94","","27","","13","","24.1","","100.00","","","","","","Cloudy"
"2009-12-13 19:00","2009","12","13","19:00","1.6","","1.3","","98","","26","","7","","24.1","","100.05","","","","","","Rain"
"2009-12-13 20:00","2009","12","13","20:00","1.4","","0.9","","96","","27","","11","","24.1","","100.15","","","","","","Cloudy"
"2009-12-13 21:00","2009","12","13","21:00","1.6","","0.9","","95","","28","","13","","24.1","","100.23","","","","","","Cloudy"
"2009-12-13 22:00","2009","12","13","22:00","1.8","","0.9","","94","","28","","19","","24.1","","100.30","","","","","","Cloudy"
"2009-12-13 23:00","2009","12","13","23:00","1.7","","1.0","","95","","28","","11","","24.1","","100.35","","","","","","Mostly Cloudy"
"2009-12-14 00:00","2009","12","14","00:00"
"2009-12-14 01:00","2009","12","14","01:00"
"2009-12-14 02:00","2009","12","14","02:00"
"2009-12-14 03:00","2009","12","14","03:00"
"2009-12-14 04:00","2009","12","14","04:00"
"2009-12-14 05:00","2009","12","14","05:00"
"2009-12-14 06:00","2009","12","14","06:00","-2.1","","-3.1","","93","","","","0","","24.1","","100.57","","","","","","Mainly Clear"
"2009-12-14 07:00","2009","12","14","07:00","-2.1","","-3.1","","93","","36","","9","","24.1","","100.62","","","","-6","","Mainly Clear"
"2009-12-14 08:00","2009","12","14","08:00","-0.9","","-2.2","","91","","2","","6","","24.1","","100.65","","","","-3","","Mostly Cloudy"
"2009-12-14 09:00","2009","12","14","09:00","0.1","","-1.3","","90","","23","","9","","24.1","","100.72","","","","","","Cloudy"
"2009-12-14 10:00","2009","12","14","10:00","1.6","","-1.9","","78","","","","0","","24.1","","100.69","","","","","","Cloudy"
"2009-12-14 11:00","2009","12","14","11:00","1.8","","-1.5","","79","","7","","6","","24.1","","100.62","","","","","","Cloudy"
"2009-12-14 12:00","2009","12","14","12:00","1.9","","-1.7","","77","","6","","7","","24.1","","100.56","","","","","","Cloudy"
"2009-12-14 13:00","2009","12","14","13:00","2.8","","0.1","","82","","12","","13","","24.1","","100.43","","","","","","Cloudy"
"2009-12-14 14:00","2009","12","14","14:00","2.7","","0.6","","86","","10","","11","","24.1","","100.30","","","","","","Cloudy"
"2009-12-14 15:00","2009","12","14","15:00","3.6","","2.1","","90","","14","","32","","24.1","","100.23","","","","","","Cloudy"
"2009-12-14 16:00","2009","12","14","16:00","4.1","","2.3","","88","","15","","28","","24.1","","100.19","","","","","","Cloudy"
"2009-12-14 17:00","2009","12","14","17:00","4.3","","2.3","","87","","18","","24","","24.1","","100.13","","","","","","Cloudy"
"2009-12-14 18:00","2009","12","14","18:00","4.1","","2.1","","87","","16","","26","","24.1","","100.05","","","","","","Cloudy"
"2009-12-14 19:00","2009","12","14","19:00","4.3","","2.2","","86","","15","","26","","24.1","","99.94","","","","","","Rain"
"2009-12-14 20:00","2009","12","14","20:00","3.7","","2.1","","89","","15","","22","","19.3","","99.87","","","","","","Rain"
"2009-12-14 21:00","2009","12","14","21:00","4.0","","2.8","","92","","16","","24","","16.1","","99.84","","","","","","Rain"
"2009-12-14 22:00","2009","12","14","22:00","3.9","","3.0","","94","","15","","22","","16.1","","99.78","","","","","","Rain"
"2009-12-14 23:00","2009","12","14","23:00","3.9","","3.2","","95","","15","","17","","12.9","","99.77","","","","","","Rain"
"2009-12-15 00:00","2009","12","15","00:00"
"2009-12-15 01:00","2009","12","15","01:00"
"2009-12-15 02:00","2009","12","15","02:00"
"2009-12-15 03:00","2009","12","15","03:00"
"2009-12-15 04:00","2009","12","15","04:00"
"2009-12-15 05:00","2009","12","15","05:00"
"2009-12-15 06:00","2009","12","15","06:00","1.4","","1.4","","100","","31","","9","","0.6","","99.75","","","","","","Fog"
"2009-12-15 07:00","2009","12","15","07:00","1.1","","1.1","","100","","29","","9","","0.6","","99.83","","","","","","Fog"
"2009-12-15 08:00","2009","12","15","08:00","1.1","","1.1","","100","","30","","7","","1.2","","99.98","","","","","","Fog"
"2009-12-15 09:00","2009","12","15","09:00","0.6","","0.4","","99","","31","","13","","3.2","","100.07","","","","","","Fog"
"2009-12-15 10:00","2009","12","15","10:00","0.2","","-0.6","","94","","31","","17","","9.7","","100.15","","","","","","Snow Grains,Fog"
"2009-12-15 11:00","2009","12","15","11:00","0.6","","-0.8","","90","","31","","11","","16.1","","100.22","","","","","","Cloudy"
"2009-12-15 12:00","2009","12","15","12:00","1.2","","-1.2","","84","","27","","17","","24.1","","100.24","","","","","","Mostly Cloudy"
"2009-12-15 13:00","2009","12","15","13:00","1.4","","-1.3","","82","","29","","20","","24.1","","100.23","","","","","","Cloudy"
"2009-12-15 14:00","2009","12","15","14:00","1.5","","-2.0","","78","","30","","17","","24.1","","100.26","","","","","","Cloudy"
"2009-12-15 15:00","2009","12","15","15:00","1.2","","-2.7","","75","","28","","15","","24.1","","100.34","","","","","","Snow"
"2009-12-15 16:00","2009","12","15","16:00","0.8","","-3.8","","71","","30","","15","","24.1","","100.39","","","","","","Cloudy"
"2009-12-15 17:00","2009","12","15","17:00","0.2","","-4.4","","71","","28","","15","","24.1","","100.50","","","","","","Mostly Cloudy"
"2009-12-15 18:00","2009","12","15","18:00","-0.2","","-5.9","","65","","29","","22","","24.1","","100.57","","","","-6","","Mostly Cloudy"
"2009-12-15 19:00","2009","12","15","19:00","-1.1","","-7.7","","61","","30","","13","","24.1","","100.62","","","","-5","","Cloudy"
"2009-12-15 20:00","2009","12","15","20:00","-1.9","","-9.7","","55","","30","","24","","24.1","","100.74","","","","-8","","Cloudy"
"2009-12-15 21:00","2009","12","15","21:00","-3.4","","-11.5","","53","","32","","33","","24.1","","100.84","","","","-11","","Mostly Cloudy"
"2009-12-15 22:00","2009","12","15","22:00","-4.7","","-12.7","","54","","32","","30","","24.1","","100.95","","","","-13","","Mainly Clear"
"2009-12-15 23:00","2009","12","15","23:00","-5.8","","-13.3","","55","","32","","22","","24.1","","101.05","","","","-13","","Clear"
"2009-12-16 00:00","2009","12","16","00:00"
"2009-12-16 01:00","2009","12","16","01:00"
"2009-12-16 02:00","2009","12","16","02:00"
"2009-12-16 03:00","2009","12","16","03:00"
"2009-12-16 04:00","2009","12","16","04:00"
"2009-12-16 05:00","2009","12","16","05:00"
"2009-12-16 06:00","2009","12","16","06:00","-6.1","","-11.6","","65","","27","","7","","24.1","","101.28","","","","-9","","Cloudy"
"2009-12-16 07:00","2009","12","16","07:00","-5.7","","-8.9","","78","","31","","4","","24.1","","101.25","","","","-8","","Snow"
"2009-12-16 08:00","2009","12","16","08:00","-4.2","","-9.0","","69","","26","","19","","24.1","","101.22","","","","-10","","Mostly Cloudy"
"2009-12-16 09:00","2009","12","16","09:00","-3.8","","-9.0","","67","","26","","26","","24.1","","101.22","","","","-11","","Cloudy"
"2009-12-16 10:00","2009","12","16","10:00","-3.6","","-10.3","","60","","27","","35","","24.1","","101.21","","","","-12","","Cloudy"
"2009-12-16 11:00","2009","12","16","11:00","-3.5","","-9.9","","61","","26","","30","","24.1","","101.19","","","","-11","","Snow"
"2009-12-16 12:00","2009","12","16","12:00","-3.6","","-9.4","","64","","27","","26","","19.3","","101.18","","","","-11","","Snow"
"2009-12-16 13:00","2009","12","16","13:00","-3.9","","-8.5","","70","","28","","24","","19.3","","101.15","","","","-11","","Snow"
"2009-12-16 14:00","2009","12","16","14:00","-3.9","","-8.5","","70","","27","","19","","19.3","","101.13","","","","-10","","Snow"
"2009-12-16 15:00","2009","12","16","15:00","-4.1","","-8.8","","70","","27","","19","","19.3","","101.15","","","","-10","","Snow"
"2009-12-16 16:00","2009","12","16","16:00","-4.5","","-10.6","","62","","28","","19","","24.1","","101.18","","","","-11","","Snow"
"2009-12-16 17:00","2009","12","16","17:00","-5.1","","-12.0","","58","","29","","22","","24.1","","101.25","","","","-12","","Mostly Cloudy"
"2009-12-16 18:00","2009","12","16","18:00","-5.5","","-12.6","","57","","29","","24","","24.1","","101.28","","","","-13","","Mostly Cloudy"
"2009-12-16 19:00","2009","12","16","19:00","-6.5","","-12.7","","61","","32","","24","","24.1","","101.37","","","","-14","","Snow"
"2009-12-16 20:00","2009","12","16","20:00","-7.6","","-13.8","","61","","30","","15","","24.1","","101.40","","","","-14","","Mainly Clear"
"2009-12-16 21:00","2009","12","16","21:00","-8.0","","-13.2","","66","","29","","15","","24.1","","101.46","","","","-14","","Mostly Cloudy"
"2009-12-16 22:00","2009","12","16","22:00","-8.4","","-14.0","","64","","30","","24","","24.1","","101.49","","","","-17","","Cloudy"
"2009-12-16 23:00","2009","12","16","23:00","-9.3","","-14.6","","65","","31","","15","","24.1","","101.51","","","","-16","","Mainly Clear"
"2009-12-17 00:00","2009","12","17","00:00"
"2009-12-17 01:00","2009","12","17","01:00"
"2009-12-17 02:00","2009","12","17","02:00"
"2009-12-17 03:00","2009","12","17","03:00"
"2009-12-17 04:00","2009","12","17","04:00"
"2009-12-17 05:00","2009","12","17","05:00"
"2009-12-17 06:00","2009","12","17","06:00","-14.6","","-20.2","","62","","36","","15","","24.1","","101.93","","","","-22","","Mainly Clear"
"2009-12-17 07:00","2009","12","17","07:00","-15.2","","-20.8","","62","","36","","9","","24.1","","101.98","","","","-21","","Mainly Clear"
"2009-12-17 08:00","2009","12","17","08:00","-15.5","","-20.6","","65","","34","","13","","24.1","","102.07","","","","-23","","Mainly Clear"
"2009-12-17 09:00","2009","12","17","09:00","-15.3","","-20.5","","64","","36","","13","","24.1","","102.10","","","","-23","","Mainly Clear"
"2009-12-17 10:00","2009","12","17","10:00","-14.6","","-22.6","","51","","34","","19","","24.1","","102.11","","","","-23","","Mainly Clear"
"2009-12-17 11:00","2009","12","17","11:00","-14.0","","-23.1","","46","","34","","17","","24.1","","102.10","","","","-22","","Mainly Clear"
"2009-12-17 12:00","2009","12","17","12:00","-13.3","","-21.5","","50","","32","","13","","24.1","","102.02","","","","-20","","Mainly Clear"
"2009-12-17 13:00","2009","12","17","13:00","-13.0","","-21.8","","48","","33","","13","","24.1","","101.99","","","","-20","","Mainly Clear"
"2009-12-17 14:00","2009","12","17","14:00","-12.7","","-21.9","","46","","35","","6","","24.1","","101.93","","","","-17","","Mainly Clear"
"2009-12-17 15:00","2009","12","17","15:00","-12.1","","-21.5","","45","","34","","7","","24.1","","101.92","","","","-16","","Mainly Clear"
"2009-12-17 16:00","2009","12","17","16:00","-11.7","","-21.1","","46","","30","","11","","24.1","","101.94","","","","-18","","Clear"
"2009-12-17 17:00","2009","12","17","17:00","-12.4","","-20.7","","50","","27","","4","","24.1","","101.93","","","","-15","","Clear"
"2009-12-17 18:00","2009","12","17","18:00","-12.8","","-19.9","","55","","36","","4","","24.1","","101.91","","","","-15","","Clear"
"2009-12-17 19:00","2009","12","17","19:00","-13.2","","-19.3","","60","","","","0","","24.1","","101.89","","","","","","Clear"
"2009-12-17 20:00","2009","12","17","20:00","-13.2","","-19.5","","59","","7","","4","","24.1","","101.85","","","","-16","","Clear"
"2009-12-17 21:00","2009","12","17","21:00","-14.1","","-17.2","","77","","30","","6","","24.1","","101.85","","","","-18","","Clear"
"2009-12-17 22:00","2009","12","17","22:00","-14.2","","-18.3","","71","","30","","6","","24.1","","101.86","","","","-18","","Clear"
"2009-12-17 23:00","2009","12","17","23:00","-14.8","","-18.7","","72","","34","","9","","24.1","","101.87","","","","-21","","Clear"
"2009-12-18 00:00","2009","12","18","00:00"
"2009-12-18 01:00","2009","12","18","01:00"
"2009-12-18 02:00","2009","12","18","02:00"
"2009-12-18 03:00","2009","12","18","03:00"
"2009-12-18 04:00","2009","12","18","04:00"
"2009-12-18 05:00","2009","12","18","05:00"
"2009-12-18 06:00","2009","12","18","06:00","-14.2","","-18.1","","72","","4","","6","","24.1","","101.62","","","","-18","","Mainly Clear"
"2009-12-18 07:00","2009","12","18","07:00","-14.5","","-17.7","","77","","3","","7","","24.1","","101.60","","","","-19","","Mainly Clear"
"2009-12-18 08:00","2009","12","18","08:00","-14.2","","-17.9","","73","","2","","6","","24.1","","101.63","","","","-18","","Mainly Clear"
"2009-12-18 09:00","2009","12","18","09:00","-12.6","","-15.6","","78","","3","","7","","24.1","","101.65","","","","-17","","Mostly Cloudy"
"2009-12-18 10:00","2009","12","18","10:00","-11.0","","-13.7","","80","","4","","11","","24.1","","101.62","","","","-17","","Mainly Clear"
"2009-12-18 11:00","2009","12","18","11:00","-9.9","","-13.7","","74","","6","","11","","24.1","","101.55","","","","-15","","Mainly Clear"
"2009-12-18 12:00","2009","12","18","12:00","-9.3","","-14.4","","66","","8","","7","","24.1","","101.42","","","","-13","","Mainly Clear"
"2009-12-18 13:00","2009","12","18","13:00","-8.4","","-15.1","","58","","3","","9","","24.1","","101.38","","","","-13","","Mainly Clear"
"2009-12-18 14:00","2009","12","18","14:00","-8.2","","-14.3","","61","","5","","7","","24.1","","101.29","","","","-12","","Mostly Cloudy"
"2009-12-18 15:00","2009","12","18","15:00","-7.6","","-14.3","","59","","6","","11","","24.1","","101.26","","","","-13","","Mostly Cloudy"
"2009-12-18 16:00","2009","12","18","16:00","-8.3","","-15.6","","56","","4","","11","","24.1","","101.19","","","","-14","","Mainly Clear"
"2009-12-18 17:00","2009","12","18","17:00","-9.1","","-16.1","","57","","5","","9","","24.1","","101.19","","","","-14","","Mainly Clear"
"2009-12-18 18:00","2009","12","18","18:00","-9.6","","-16.4","","58","","5","","9","","24.1","","101.18","","","","-14","","Clear"
"2009-12-18 19:00","2009","12","18","19:00","-10.5","","-16.0","","64","","3","","9","","24.1","","101.14","","","","-15","","Clear"
"2009-12-18 20:00","2009","12","18","20:00","-10.8","","-16.8","","61","","3","","13","","24.1","","101.07","","","","-17","","Clear"
"2009-12-18 21:00","2009","12","18","21:00","-11.1","","-17.3","","60","","3","","9","","24.1","","101.02","","","","-16","","Mainly Clear"
"2009-12-18 22:00","2009","12","18","22:00","-11.5","","-17.7","","60","","4","","9","","24.1","","100.98","","","","-17","","Mainly Clear"
"2009-12-18 23:00","2009","12","18","23:00","-11.8","","-17.9","","60","","3","","11","","24.1","","100.94","","","","-18","","Mainly Clear"
"2009-12-19 00:00","2009","12","19","00:00"
"2009-12-19 01:00","2009","12","19","01:00"
"2009-12-19 02:00","2009","12","19","02:00"
"2009-12-19 03:00","2009","12","19","03:00"
"2009-12-19 04:00","2009","12","19","04:00"
"2009-12-19 05:00","2009","12","19","05:00"
"2009-12-19 06:00","2009","12","19","06:00","-12.7","","-20.0","","54","","3","","11","","24.1","","100.64","","","","-19","","Mainly Clear"
"2009-12-19 07:00","2009","12","19","07:00","-13.0","","-20.2","","55","","2","","15","","24.1","","100.61","","","","-20","","Mostly Cloudy"
"2009-12-19 08:00","2009","12","19","08:00","-12.8","","-21.1","","50","","4","","15","","24.1","","100.59","","","","-20","","Mostly Cloudy"
"2009-12-19 09:00","2009","12","19","09:00","-11.9","","-20.5","","49","","4","","20","","24.1","","100.58","","","","-20","","Mostly Cloudy"
"2009-12-19 10:00","2009","12","19","10:00","-10.3","","-20.6","","43","","5","","19","","24.1","","100.55","","","","-18","","Mostly Cloudy"
"2009-12-19 11:00","2009","12","19","11:00","-9.1","","-21.1","","37","","3","","15","","24.1","","100.47","","","","-16","","Mostly Cloudy"
"2009-12-19 12:00","2009","12","19","12:00","-7.4","","-22.2","","30","","3","","20","","24.1","","100.39","","","","-15","","Mostly Cloudy"
"2009-12-19 13:00","2009","12","19","13:00","-6.8","","-21.5","","30","","2","","22","","24.1","","100.29","","","","-14","","Mostly Cloudy"
"2009-12-19 14:00","2009","12","19","14:00","-6.1","","-22.8","","25","","1","","15","","24.1","","100.26","","","","-12","","Mostly Cloudy"
"2009-12-19 15:00","2009","12","19","15:00","-5.9","","-21.9","","27","","1","","19","","24.1","","100.25","","","","-13","","Mostly Cloudy"
"2009-12-19 16:00","2009","12","19","16:00","-6.5","","-20.6","","32","","1","","19","","24.1","","100.18","","","","-13","","Mostly Cloudy"
"2009-12-19 17:00","2009","12","19","17:00","-7.2","","-21.2","","32","","1","","22","","24.1","","100.19","","","","-15","","Cloudy"
"2009-12-19 18:00","2009","12","19","18:00","-7.6","","-22.6","","29","","36","","24","","24.1","","100.23","","","","-16","","Cloudy"
"2009-12-19 19:00","2009","12","19","19:00","-8.1","","-21.2","","34","","1","","20","","24.1","","100.24","","","","-15","","Cloudy"
"2009-12-19 20:00","2009","12","19","20:00","-7.9","","-20.4","","36","","1","","20","","24.1","","100.24","","","","-15","","Cloudy"
"2009-12-19 21:00","2009","12","19","21:00","-8.1","","-18.7","","42","","1","","15","","24.1","","100.26","","","","-14","","Cloudy"
"2009-12-19 22:00","2009","12","19","22:00","-8.3","","-17.3","","48","","1","","15","","24.1","","100.26","","","","-15","","Cloudy"
"2009-12-19 23:00","2009","12","19","23:00","-8.4","","-16.6","","52","","36","","20","","24.1","","100.21","","","","-16","","Mostly Cloudy"
"2009-12-20 00:00","2009","12","20","00:00"
"2009-12-20 01:00","2009","12","20","01:00"
"2009-12-20 02:00","2009","12","20","02:00"
"2009-12-20 03:00","2009","12","20","03:00"
"2009-12-20 04:00","2009","12","20","04:00"
"2009-12-20 05:00","2009","12","20","05:00"
"2009-12-20 06:00","2009","12","20","06:00","-8.8","","-15.0","","61","","32","","11","","24.1","","100.20","","","","-14","","Mostly Cloudy"
"2009-12-20 07:00","2009","12","20","07:00","-9.1","","-14.6","","64","","33","","7","","24.1","","100.25","","","","-13","","Mostly Cloudy"
"2009-12-20 08:00","2009","12","20","08:00","-8.8","","-14.9","","61","","34","","9","","24.1","","100.32","","","","-13","","Cloudy"
"2009-12-20 09:00","2009","12","20","09:00","-7.9","","-14.7","","58","","34","","15","","24.1","","100.34","","","","-14","","Cloudy"
"2009-12-20 10:00","2009","12","20","10:00","-7.0","","-15.0","","53","","33","","19","","24.1","","100.36","","","","-14","","Cloudy"
"2009-12-20 11:00","2009","12","20","11:00","-5.9","","-16.4","","43","","33","","17","","24.1","","100.33","","","","-12","","Cloudy"
"2009-12-20 12:00","2009","12","20","12:00","-4.1","","-16.2","","38","","30","","17","","24.1","","100.28","","","","-10","","Mostly Cloudy"
"2009-12-20 13:00","2009","12","20","13:00","-3.0","","-13.8","","43","","31","","19","","24.1","","100.23","","","","-9","","Mostly Cloudy"
"2009-12-20 14:00","2009","12","20","14:00","-2.4","","-13.3","","43","","31","","20","","24.1","","100.22","","","","-8","","Mostly Cloudy"
"2009-12-20 15:00","2009","12","20","15:00","-1.8","","-12.0","","46","","30","","15","","24.1","","100.28","","","","-7","","Mostly Cloudy"
"2009-12-20 16:00","2009","12","20","16:00","-2.0","","-11.6","","48","","32","","20","","24.1","","100.34","","","","-8","","Mostly Cloudy"
"2009-12-20 17:00","2009","12","20","17:00","-2.9","","-11.6","","51","","30","","6","","24.1","","100.41","","","","-5","","Mainly Clear"
"2009-12-20 18:00","2009","12","20","18:00","-5.8","","-10.9","","67","","32","","6","","24.1","","100.44","","","","-9","","Mainly Clear"
"2009-12-20 19:00","2009","12","20","19:00","-5.0","","-10.4","","66","","33","","6","","24.1","","100.46","","","","-8","","Clear"
"2009-12-20 20:00","2009","12","20","20:00","-5.7","","-10.4","","69","","29","","7","","24.1","","100.45","","","","-9","","Clear"
"2009-12-20 21:00","2009","12","20","21:00","-7.1","","-9.9","","80","","31","","7","","24.1","","100.46","","","","-11","","Clear"
"2009-12-20 22:00","2009","12","20","22:00","-9.0","","-10.8","","87","","32","","7","","24.1","","100.45","","","","-13","","Mainly Clear"
"2009-12-20 23:00","2009","12","20","23:00","-8.3","","-10.1","","87","","32","","9","","24.1","","100.46","","","","-13","","Mostly Cloudy"
"2009-12-21 00:00","2009","12","21","00:00"
"2009-12-21 01:00","2009","12","21","01:00"
"2009-12-21 02:00","2009","12","21","02:00"
"2009-12-21 03:00","2009","12","21","03:00"
"2009-12-21 04:00","2009","12","21","04:00"
"2009-12-21 05:00","2009","12","21","05:00"
"2009-12-21 06:00","2009","12","21","06:00","-6.8","","-12.5","","64","","2","","6","","24.1","","100.52","","","","-10","","Mostly Cloudy"
"2009-12-21 07:00","2009","12","21","07:00","-7.0","","-12.5","","65","","29","","4","","24.1","","100.57","","","","-9","","Mostly Cloudy"
"2009-12-21 08:00","2009","12","21","08:00","-6.9","","-12.6","","64","","31","","4","","24.1","","100.58","","","","-9","","Mostly Cloudy"
"2009-12-21 09:00","2009","12","21","09:00","-6.6","","-12.1","","65","","33","","7","","24.1","","100.60","","","","-10","","Snow"
"2009-12-21 10:00","2009","12","21","10:00","-6.0","","-12.9","","58","","36","","11","","24.1","","100.60","","","","-11","","Mainly Clear"
"2009-12-21 11:00","2009","12","21","11:00","-4.8","","-13.6","","50","","34","","13","","24.1","","100.57","","","","-10","","Mainly Clear"
"2009-12-21 12:00","2009","12","21","12:00","-4.7","","-14.7","","45","","2","","6","","24.1","","100.52","","","","-7","","Clear"
"2009-12-21 13:00","2009","12","21","13:00","-3.9","","-14.5","","44","","32","","13","","24.1","","100.49","","","","-9","","Mainly Clear"
"2009-12-21 14:00","2009","12","21","14:00","-3.6","","-14.1","","44","","34","","13","","24.1","","100.48","","","","-8","","Mainly Clear"
"2009-12-21 15:00","2009","12","21","15:00","-3.7","","-13.5","","47","","31","","11","","24.1","","100.51","","","","-8","","Mainly Clear"
"2009-12-21 16:00","2009","12","21","16:00","-4.3","","-13.3","","49","","31","","11","","24.1","","100.56","","","","-9","","Mainly Clear"
"2009-12-21 17:00","2009","12","21","17:00","-4.9","","-13.2","","52","","30","","7","","24.1","","100.59","","","","-8","","Mainly Clear"
"2009-12-21 18:00","2009","12","21","18:00","-5.5","","-12.9","","56","","29","","9","","24.1","","100.62","","","","-10","","Mainly Clear"
"2009-12-21 19:00","2009","12","21","19:00","-7.7","","-12.9","","66","","34","","6","","24.1","","100.66","","","","-11","","Clear"
"2009-12-21 20:00","2009","12","21","20:00","-8.7","","-12.8","","72","","32","","6","","24.1","","100.70","","","","-12","","Clear"
"2009-12-21 21:00","2009","12","21","21:00","-9.6","","-13.6","","73","","33","","9","","24.1","","100.74","","","","-14","","Clear"
"2009-12-21 22:00","2009","12","21","22:00","-10.8","","-14.0","","77","","33","","9","","24.1","","100.77","","","","-16","","Clear"
"2009-12-21 23:00","2009","12","21","23:00","-11.3","","-13.9","","81","","32","","7","","24.1","","100.80","","","","-16","","Clear"
"2009-12-22 00:00","2009","12","22","00:00"
"2009-12-22 01:00","2009","12","22","01:00"
"2009-12-22 02:00","2009","12","22","02:00"
"2009-12-22 03:00","2009","12","22","03:00"
"2009-12-22 04:00","2009","12","22","04:00"
"2009-12-22 05:00","2009","12","22","05:00"
"2009-12-22 06:00","2009","12","22","06:00","-14.9","","-18.9","","71","","30","","15","","24.1","","101.07","","","","-23","","Clear"
"2009-12-22 07:00","2009","12","22","07:00","-15.5","","-19.4","","72","","31","","15","","24.1","","101.07","","","","-24","","Clear"
"2009-12-22 08:00","2009","12","22","08:00","-15.6","","-19.9","","70","","32","","11","","24.1","","101.09","","","","-22","","Clear"
"2009-12-22 09:00","2009","12","22","09:00","-14.5","","-19.6","","65","","31","","11","","24.1","","101.17","","","","-21","","Clear"
"2009-12-22 10:00","2009","12","22","10:00","-12.9","","-18.8","","61","","33","","19","","24.1","","101.19","","","","-21","","Clear"
"2009-12-22 11:00","2009","12","22","11:00","-11.6","","-18.5","","57","","32","","11","","24.1","","101.18","","","","-18","","Clear"
"2009-12-22 12:00","2009","12","22","12:00","-10.6","","-18.2","","54","","30","","13","","24.1","","101.15","","","","-17","","Clear"
"2009-12-22 13:00","2009","12","22","13:00","-9.0","","-17.7","","49","","29","","15","","24.1","","101.12","","","","-16","","Clear"
"2009-12-22 14:00","2009","12","22","14:00","-8.5","","-17.5","","48","","30","","13","","24.1","","101.12","","","","-14","","Mainly Clear"
"2009-12-22 15:00","2009","12","22","15:00","-8.0","","-17.4","","47","","30","","17","","24.1","","101.14","","","","-15","","Mainly Clear"
"2009-12-22 16:00","2009","12","22","16:00","-8.4","","-16.7","","51","","26","","15","","24.1","","101.18","","","","-15","","Mainly Clear"
"2009-12-22 17:00","2009","12","22","17:00","-9.1","","-16.4","","55","","26","","15","","24.1","","101.23","","","","-16","","Mainly Clear"
"2009-12-22 18:00","2009","12","22","18:00","-9.6","","-16.0","","60","","27","","15","","24.1","","101.26","","","","-16","","Clear"
"2009-12-22 19:00","2009","12","22","19:00","-10.1","","-15.8","","63","","27","","13","","24.1","","101.28","","","","-16","","Clear"
"2009-12-22 20:00","2009","12","22","20:00","-10.7","","-16.1","","64","","28","","15","","24.1","","101.31","","","","-18","","Mostly Cloudy"
"2009-12-22 21:00","2009","12","22","21:00","-10.7","","-16.5","","62","","30","","13","","24.1","","101.31","","","","-17","","Mostly Cloudy"
"2009-12-22 22:00","2009","12","22","22:00","-11.2","","-16.8","","63","","30","","15","","24.1","","101.30","","","","-18","","Mostly Cloudy"
"2009-12-22 23:00","2009","12","22","23:00","-11.6","","-17.5","","62","","30","","19","","24.1","","101.29","","","","-20","","Mostly Cloudy"
"2009-12-23 00:00","2009","12","23","00:00"
"2009-12-23 01:00","2009","12","23","01:00"
"2009-12-23 02:00","2009","12","23","02:00"
"2009-12-23 03:00","2009","12","23","03:00"
"2009-12-23 04:00","2009","12","23","04:00"
"2009-12-23 05:00","2009","12","23","05:00"
"2009-12-23 06:00","2009","12","23","06:00","-12.7","","-16.7","","72","","30","","15","","12.9","","101.24","","","","-20","","Snow"
"2009-12-23 07:00","2009","12","23","07:00","-12.5","","-15.6","","78","","29","","13","","6.4","","101.25","","","","-19","","Snow"
"2009-12-23 08:00","2009","12","23","08:00","-12.3","","-15.6","","76","","30","","15","","8.0","","101.26","","","","-20","","Snow"
"2009-12-23 09:00","2009","12","23","09:00","-11.7","","-16.1","","70","","30","","20","","24.1","","101.25","","","","-20","","Mostly Cloudy"
"2009-12-23 10:00","2009","12","23","10:00","-11.4","","-16.4","","66","","29","","22","","24.1","","101.30","","","","-20","","Mostly Cloudy"
"2009-12-23 11:00","2009","12","23","11:00","-10.5","","-15.9","","64","","30","","22","","24.1","","101.27","","","","-19","","Snow"
"2009-12-23 12:00","2009","12","23","12:00","-8.9","","-14.0","","66","","30","","20","","24.1","","101.24","","","","-16","","Mostly Cloudy"
"2009-12-23 13:00","2009","12","23","13:00","-7.9","","-14.0","","62","","28","","13","","24.1","","101.20","","","","-14","","Mostly Cloudy"
"2009-12-23 14:00","2009","12","23","14:00","-6.8","","-13.0","","61","","31","","20","","24.1","","101.21","","","","-14","","Mostly Cloudy"
"2009-12-23 15:00","2009","12","23","15:00","-6.2","","-12.6","","60","","31","","22","","24.1","","101.27","","","","-13","","Mostly Cloudy"
"2009-12-23 16:00","2009","12","23","16:00","-6.1","","-12.3","","61","","32","","15","","24.1","","101.35","","","","-12","","Cloudy"
"2009-12-23 17:00","2009","12","23","17:00","-6.1","","-12.2","","62","","30","","6","","24.1","","101.42","","","","-9","","Mostly Cloudy"
"2009-12-23 18:00","2009","12","23","18:00","-5.9","","-11.7","","64","","29","","7","","24.1","","101.50","","","","-9","","Cloudy"
"2009-12-23 19:00","2009","12","23","19:00","-5.9","","-11.2","","66","","27","","7","","24.1","","101.56","","","","-9","","Cloudy"
"2009-12-23 20:00","2009","12","23","20:00","-6.0","","-10.8","","69","","27","","9","","24.1","","101.61","","","","-10","","Cloudy"
"2009-12-23 21:00","2009","12","23","21:00","-6.0","","-10.7","","69","","29","","9","","24.1","","101.62","","","","-10","","Cloudy"
"2009-12-23 22:00","2009","12","23","22:00","-6.1","","-10.7","","70","","27","","9","","24.1","","101.66","","","","-10","","Cloudy"
"2009-12-23 23:00","2009","12","23","23:00","-6.1","","-10.2","","73","","28","","9","","24.1","","101.71","","","","-10","","Cloudy"
"2009-12-24 00:00","2009","12","24","00:00"
"2009-12-24 01:00","2009","12","24","01:00"
"2009-12-24 02:00","2009","12","24","02:00"
"2009-12-24 03:00","2009","12","24","03:00"
"2009-12-24 04:00","2009","12","24","04:00"
"2009-12-24 05:00","2009","12","24","05:00"
"2009-12-24 06:00","2009","12","24","06:00","-7.2","","-9.3","","85","","32","","7","","24.1","","101.92","","","","-11","","Cloudy"
"2009-12-24 07:00","2009","12","24","07:00","-6.9","","-8.9","","86","","30","","7","","24.1","","102.08","","","","-10","","Cloudy"
"2009-12-24 08:00","2009","12","24","08:00","-6.6","","-8.2","","88","","34","","6","","8.0","","102.08","","","","-10","","Snow"
"2009-12-24 09:00","2009","12","24","09:00","-5.9","","-7.2","","91","","34","","11","","6.4","","102.19","","","","-11","","Snow"
"2009-12-24 10:00","2009","12","24","10:00","-4.7","","-6.3","","89","","2","","7","","16.1","","102.12","","","","-8","","Mostly Cloudy"
"2009-12-24 11:00","2009","12","24","11:00","-2.9","","-5.7","","81","","36","","7","","24.1","","102.14","","","","-6","","Mostly Cloudy"
"2009-12-24 12:00","2009","12","24","12:00","-2.1","","-5.4","","78","","6","","11","","24.1","","102.04","","","","-6","","Mostly Cloudy"
"2009-12-24 13:00","2009","12","24","13:00","-1.4","","-5.1","","76","","1","","7","","24.1","","102.02","","","","-4","","Mostly Cloudy"
"2009-12-24 14:00","2009","12","24","14:00","-1.0","","-5.0","","74","","7","","11","","24.1","","102.04","","","","-5","","Mostly Cloudy"
"2009-12-24 15:00","2009","12","24","15:00","-1.0","","-4.7","","76","","4","","7","","24.1","","102.02","","","","-4","","Cloudy"
"2009-12-24 16:00","2009","12","24","16:00","-1.1","","-4.4","","78","","5","","15","","24.1","","102.02","","","","-6","","Cloudy"
"2009-12-24 17:00","2009","12","24","17:00","-1.0","","-4.3","","78","","6","","15","","24.1","","102.02","","","","-6","","Cloudy"
"2009-12-24 18:00","2009","12","24","18:00","-1.1","","-3.9","","81","","6","","17","","24.1","","102.01","","","","-6","","Cloudy"
"2009-12-24 19:00","2009","12","24","19:00","-1.2","","-3.5","","84","","8","","17","","24.1","","102.01","","","","-6","","Cloudy"
"2009-12-24 20:00","2009","12","24","20:00","-1.4","","-3.2","","88","","5","","17","","24.1","","102.01","","","","-7","","Cloudy"
"2009-12-24 21:00","2009","12","24","21:00","-1.5","","-3.2","","88","","5","","11","","24.1","","102.03","","","","-5","","Cloudy"
"2009-12-24 22:00","2009","12","24","22:00","-1.4","","-3.0","","89","","5","","13","","24.1","","101.99","","","","-6","","Cloudy"
"2009-12-24 23:00","2009","12","24","23:00","-1.4","","-2.7","","91","","5","","15","","24.1","","101.96","","","","-6","","Cloudy"
"2009-12-25 00:00","2009","12","25","00:00"
"2009-12-25 01:00","2009","12","25","01:00"
"2009-12-25 02:00","2009","12","25","02:00"
"2009-12-25 03:00","2009","12","25","03:00"
"2009-12-25 04:00","2009","12","25","04:00"
"2009-12-25 05:00","2009","12","25","05:00"
"2009-12-25 06:00","2009","12","25","06:00","-2.6","","-3.1","","96","","7","","19","","12.9","","101.82","","","","-8","","Cloudy"
"2009-12-25 07:00","2009","12","25","07:00","-2.8","","-3.1","","98","","6","","19","","12.9","","101.79","","","","-9","","Snow"
"2009-12-25 08:00","2009","12","25","08:00","-2.8","","-3.1","","98","","6","","20","","3.2","","101.69","","","","-9","","Snow"
"2009-12-25 09:00","2009","12","25","09:00","-2.7","","-3.1","","97","","5","","20","","4.8","","101.78","","","","-9","","Fog"
"2009-12-25 10:00","2009","12","25","10:00","-2.0","","-2.8","","94","","6","","19","","9.7","","101.82","","","","-8","","Fog"
"2009-12-25 11:00","2009","12","25","11:00","-1.6","","-2.7","","92","","5","","15","","19.3","","101.80","","","","-6","","Cloudy"
"2009-12-25 12:00","2009","12","25","12:00","-1.0","","-2.8","","88","","5","","26","","24.1","","101.56","","","","-7","","Cloudy"
"2009-12-25 13:00","2009","12","25","13:00","-0.4","","-2.8","","84","","5","","22","","24.1","","101.47","","","","-6","","Cloudy"
"2009-12-25 14:00","2009","12","25","14:00","-0.1","","-2.8","","82","","5","","22","","24.1","","101.42","","","","-6","","Cloudy"
"2009-12-25 15:00","2009","12","25","15:00","0.4","","-2.9","","78","","5","","20","","24.1","","101.39","","","","","","Cloudy"
"2009-12-25 16:00","2009","12","25","16:00","-0.1","","-3.0","","81","","6","","22","","24.1","","101.37","","","","-6","","Cloudy"
"2009-12-25 17:00","2009","12","25","17:00","-1.0","","-2.7","","88","","5","","30","","24.1","","101.33","","","","-8","","Cloudy"
"2009-12-25 18:00","2009","12","25","18:00","-0.8","","-2.4","","89","","5","","28","","24.1","","101.33","","","","-7","","Cloudy"
"2009-12-25 19:00","2009","12","25","19:00","-1.0","","-2.5","","90","","5","","22","","24.1","","101.34","","","","-7","","Cloudy"
"2009-12-25 20:00","2009","12","25","20:00","-1.1","","-2.5","","90","","5","","26","","19.3","","101.25","","","","-7","","Cloudy"
"2009-12-25 21:00","2009","12","25","21:00","-1.1","","-2.3","","92","","5","","24","","8.0","","101.23","","","","-7","","Freezing Rain"
"2009-12-25 22:00","2009","12","25","22:00","-1.0","","-1.9","","94","","5","","28","","8.0","","101.13","","","","-8","","Freezing Rain"
"2009-12-25 23:00","2009","12","25","23:00","-0.6","","-1.6","","93","","5","","24","","11.3","","101.03","","","","-7","","Freezing Rain"
"2009-12-26 00:00","2009","12","26","00:00"
"2009-12-26 01:00","2009","12","26","01:00"
"2009-12-26 02:00","2009","12","26","02:00"
"2009-12-26 03:00","2009","12","26","03:00"
"2009-12-26 04:00","2009","12","26","04:00"
"2009-12-26 05:00","2009","12","26","05:00"
"2009-12-26 06:00","2009","12","26","06:00","1.1","","0.5","","96","","6","","20","","19.3","","100.80","","","","","","Rain"
"2009-12-26 07:00","2009","12","26","07:00","1.3","","0.7","","96","","7","","15","","24.1","","100.82","","","","","","Rain"
"2009-12-26 08:00","2009","12","26","08:00","1.6","","0.6","","93","","5","","13","","19.3","","100.82","","","","","","Rain"
"2009-12-26 09:00","2009","12","26","09:00","1.5","","0.6","","94","","5","","9","","19.3","","100.84","","","","","","Rain"
"2009-12-26 10:00","2009","12","26","10:00","2.0","","1.1","","94","","5","","15","","19.3","","100.77","","","","","","Cloudy"
"2009-12-26 11:00","2009","12","26","11:00","1.6","","1.3","","98","","5","","9","","2.4","","100.74","","","","","","Rain,Fog"
"2009-12-26 12:00","2009","12","26","12:00","2.2","","1.7","","96","","5","","17","","19.3","","100.64","","","","","","Rain"
"2009-12-26 13:00","2009","12","26","13:00","2.0","","1.8","","99","","34","","7","","4.8","","100.69","","","","","","Rain,Fog"
"2009-12-26 14:00","2009","12","26","14:00","2.1","","2.0","","99","","4","","9","","2.4","","100.63","","","","","","Rain,Fog"
"2009-12-26 15:00","2009","12","26","15:00","1.8","","1.6","","99","","5","","13","","2.4","","100.60","","","","","","Rain,Fog"
"2009-12-26 16:00","2009","12","26","16:00","1.6","","1.5","","99","","4","","11","","2.4","","100.61","","","","","","Rain,Fog"
"2009-12-26 17:00","2009","12","26","17:00","1.6","","1.6","","100","","4","","7","","2.4","","100.60","","","","","","Rain,Fog"
"2009-12-26 18:00","2009","12","26","18:00","1.7","","1.7","","100","","5","","15","","4.0","","100.56","","","","","","Rain,Fog"
"2009-12-26 19:00","2009","12","26","19:00","1.3","","1.1","","99","","5","","15","","4.0","","100.55","","","","","","Rain,Fog"
"2009-12-26 20:00","2009","12","26","20:00","1.3","","1.1","","99","","6","","17","","6.4","","100.49","","","","","","Rain,Fog"
"2009-12-26 21:00","2009","12","26","21:00","1.4","","1.2","","99","","6","","19","","6.4","","100.46","","","","","","Rain,Fog"
"2009-12-26 22:00","2009","12","26","22:00","1.7","","1.6","","99","","7","","20","","4.8","","100.36","","","","","","Rain,Fog"
"2009-12-26 23:00","2009","12","26","23:00","1.9","","1.8","","99","","8","","20","","4.8","","100.29","","","","","","Rain,Fog"
"2009-12-27 00:00","2009","12","27","00:00"
"2009-12-27 01:00","2009","12","27","01:00"
"2009-12-27 02:00","2009","12","27","02:00"
"2009-12-27 03:00","2009","12","27","03:00"
"2009-12-27 04:00","2009","12","27","04:00"
"2009-12-27 05:00","2009","12","27","05:00"
"2009-12-27 06:00","2009","12","27","06:00","1.9","","1.9","","100","","24","","11","","1.2","","100.14","","","","","","Fog"
"2009-12-27 07:00","2009","12","27","07:00","0.3","","0.3","","100","","26","","4","","0.2","","100.15","","","","","","Fog"
"2009-12-27 08:00","2009","12","27","08:00","-0.6","","-0.8","","99","","7","","6","","0.4","","100.14","","","","-3","","Freezing Fog"
"2009-12-27 09:00","2009","12","27","09:00","-0.3","","-0.6","","98","","25","","4","","0.4","","100.12","","","","-2","","Freezing Fog"
"2009-12-27 10:00","2009","12","27","10:00","-0.1","","-0.2","","99","","","","0","","0.2","","100.11","","","","","","Freezing Fog"
"2009-12-27 11:00","2009","12","27","11:00","0.7","","0.7","","100","","","","0","","9.7","","100.05","","","","","","Fog"
"2009-12-27 12:00","2009","12","27","12:00","2.2","","1.5","","95","","16","","7","","24.1","","99.94","","","","","","Mainly Clear"
"2009-12-27 13:00","2009","12","27","13:00","3.7","","2.7","","93","","18","","11","","24.1","","99.87","","","","","","Mostly Cloudy"
"2009-12-27 14:00","2009","12","27","14:00","3.9","","0.2","","77","","23","","20","","24.1","","99.82","","","","","","Mostly Cloudy"
"2009-12-27 15:00","2009","12","27","15:00","3.7","","-0.5","","74","","24","","17","","24.1","","99.82","","","","","","Mostly Cloudy"
"2009-12-27 16:00","2009","12","27","16:00","2.9","","-2.2","","69","","24","","20","","24.1","","99.83","","","","","","Mostly Cloudy"
"2009-12-27 17:00","2009","12","27","17:00","1.9","","-2.9","","70","","23","","17","","24.1","","99.85","","","","","","Cloudy"
"2009-12-27 18:00","2009","12","27","18:00","1.5","","-2.7","","74","","24","","20","","24.1","","99.88","","","","","","Snow"
"2009-12-27 19:00","2009","12","27","19:00","1.2","","-2.4","","77","","23","","17","","24.1","","99.87","","","","","","Cloudy"
"2009-12-27 20:00","2009","12","27","20:00","0.4","","-1.8","","85","","22","","15","","24.1","","99.82","","","","","","Mostly Cloudy"
"2009-12-27 21:00","2009","12","27","21:00","0.7","","-1.3","","86","","22","","11","","24.1","","99.77","","","","","","Cloudy"
"2009-12-27 22:00","2009","12","27","22:00","0.8","","-1.1","","87","","21","","7","","24.1","","99.73","","","","","","Snow"
"2009-12-27 23:00","2009","12","27","23:00","1.2","","-1.5","","82","","24","","7","","24.1","","99.66","","","","","","Snow"
"2009-12-28 00:00","2009","12","28","00:00"
"2009-12-28 01:00","2009","12","28","01:00"
"2009-12-28 02:00","2009","12","28","02:00"
"2009-12-28 03:00","2009","12","28","03:00"
"2009-12-28 04:00","2009","12","28","04:00"
"2009-12-28 05:00","2009","12","28","05:00"
"2009-12-28 06:00","2009","12","28","06:00","-1.8","","-2.5","","95","","34","","15","","9.7","","99.07","","","","-7","","Snow"
"2009-12-28 07:00","2009","12","28","07:00","-1.7","","-2.5","","94","","34","","11","","6.4","","99.04","","","","-6","","Snow"
"2009-12-28 08:00","2009","12","28","08:00","-1.9","","-2.9","","93","","31","","11","","4.8","","99.04","","","","-6","","Snow"
"2009-12-28 09:00","2009","12","28","09:00","-1.9","","-3.8","","87","","28","","13","","24.1","","99.09","","","","-6","","Cloudy"
"2009-12-28 10:00","2009","12","28","10:00","-1.7","","-3.6","","87","","27","","13","","19.3","","99.12","","","","-6","","Snow"
"2009-12-28 11:00","2009","12","28","11:00","-1.8","","-4.4","","82","","28","","15","","19.3","","99.11","","","","-7","","Mostly Cloudy"
"2009-12-28 12:00","2009","12","28","12:00","-1.3","","-4.6","","78","","26","","17","","19.3","","99.05","","","","-6","","Mostly Cloudy"
"2009-12-28 13:00","2009","12","28","13:00","-1.2","","-5.3","","74","","25","","22","","24.1","","98.99","","","","-7","","Cloudy"
"2009-12-28 14:00","2009","12","28","14:00","-0.8","","-6.0","","68","","26","","26","","24.1","","98.96","","","","-7","","Mostly Cloudy"
"2009-12-28 15:00","2009","12","28","15:00","-1.1","","-6.4","","67","","25","","30","","24.1","","98.96","","","","-8","","Cloudy"
"2009-12-28 16:00","2009","12","28","16:00","-1.4","","-6.5","","68","","26","","17","","24.1","","98.95","","","","-7","","Cloudy"
"2009-12-28 17:00","2009","12","28","17:00","-1.7","","-6.0","","72","","25","","22","","16.1","","98.95","","","","-8","","Snow"
"2009-12-28 18:00","2009","12","28","18:00","-2.6","","-5.5","","80","","26","","7","","24.1","","98.92","","","","-5","","Snow"
"2009-12-28 19:00","2009","12","28","19:00","-2.2","","-3.3","","92","","23","","11","","8.0","","98.90","","","","-6","","Snow"
"2009-12-28 20:00","2009","12","28","20:00","-1.8","","-2.7","","94","","24","","19","","8.0","","98.83","","","","-7","","Snow"
"2009-12-28 21:00","2009","12","28","21:00","-1.1","","-3.7","","82","","25","","24","","12.9","","98.80","","","","-7","","Snow"
"2009-12-28 22:00","2009","12","28","22:00","-3.9","","-7.6","","75","","26","","33","","19.3","","98.88","","","","-12","","Snow"
"2009-12-28 23:00","2009","12","28","23:00","-7.3","","-10.7","","77","","31","","43","","8.0","","99.07","","","","-17","","Snow"
"2009-12-29 00:00","2009","12","29","00:00"
"2009-12-29 01:00","2009","12","29","01:00"
"2009-12-29 02:00","2009","12","29","02:00"
"2009-12-29 03:00","2009","12","29","03:00"
"2009-12-29 04:00","2009","12","29","04:00"
"2009-12-29 05:00","2009","12","29","05:00"
"2009-12-29 06:00","2009","12","29","06:00","-17.0","","-24.1","","54","","30","","26","","24.1","","100.73","","","","-28","","Mainly Clear"
"2009-12-29 07:00","2009","12","29","07:00","-17.4","","-24.1","","56","","30","","22","","24.1","","100.91","","","","-28","","Mainly Clear"
"2009-12-29 08:00","2009","12","29","08:00","-17.7","","-24.1","","57","","31","","20","","24.1","","101.04","","","","-28","","Clear"
"2009-12-29 09:00","2009","12","29","09:00","-17.4","","-24.6","","53","","30","","24","","24.1","","101.18","","","","-28","","Clear"
"2009-12-29 10:00","2009","12","29","10:00","-16.7","","-24.1","","53","","32","","28","","24.1","","101.33","","","","-28","","Clear"
"2009-12-29 11:00","2009","12","29","11:00","-15.8","","-23.8","","50","","31","","30","","24.1","","101.37","","","","-27","","Clear"
"2009-12-29 12:00","2009","12","29","12:00","-14.7","","-22.8","","50","","31","","20","","24.1","","101.40","","","","-24","","Clear"
"2009-12-29 13:00","2009","12","29","13:00","-13.6","","-22.8","","46","","29","","22","","24.1","","101.40","","","","-23","","Clear"
"2009-12-29 14:00","2009","12","29","14:00","-12.8","","-22.0","","46","","27","","24","","24.1","","101.43","","","","-22","","Clear"
"2009-12-29 15:00","2009","12","29","15:00","-12.6","","-21.4","","48","","24","","22","","24.1","","101.48","","","","-22","","Clear"
"2009-12-29 16:00","2009","12","29","16:00","-12.8","","-21.1","","50","","26","","20","","24.1","","101.53","","","","-21","","Mainly Clear"
"2009-12-29 17:00","2009","12","29","17:00","-13.2","","-21.0","","52","","26","","20","","24.1","","101.60","","","","-22","","Mainly Clear"
"2009-12-29 18:00","2009","12","29","18:00","-13.5","","-21.2","","52","","27","","15","","24.1","","101.64","","","","-21","","Mainly Clear"
"2009-12-29 19:00","2009","12","29","19:00","-13.7","","-20.5","","56","","27","","11","","24.1","","101.67","","","","-20","","Clear"
"2009-12-29 20:00","2009","12","29","20:00","-14.1","","-19.9","","61","","27","","11","","24.1","","101.67","","","","-21","","Clear"
"2009-12-29 21:00","2009","12","29","21:00","-14.5","","-19.3","","67","","30","","13","","24.1","","101.68","","","","-22","","Clear"
"2009-12-29 22:00","2009","12","29","22:00","-14.5","","-18.8","","70","","28","","11","","24.1","","101.74","","","","-21","","Mainly Clear"
"2009-12-29 23:00","2009","12","29","23:00","-14.7","","-18.7","","72","","32","","4","","24.1","","101.75","","","","-18","","Mainly Clear"
"2009-12-30 00:00","2009","12","30","00:00"
"2009-12-30 01:00","2009","12","30","01:00"
"2009-12-30 02:00","2009","12","30","02:00"
"2009-12-30 03:00","2009","12","30","03:00"
"2009-12-30 04:00","2009","12","30","04:00"
"2009-12-30 05:00","2009","12","30","05:00"
"2009-12-30 06:00","2009","12","30","06:00","-13.4","","-16.5","","77","","7","","7","","24.1","","101.73","","","","-18","","Cloudy"
"2009-12-30 07:00","2009","12","30","07:00","-12.4","","-15.3","","79","","2","","4","","24.1","","101.75","","","","-15","","Snow"
"2009-12-30 08:00","2009","12","30","08:00","-11.2","","-13.2","","85","","7","","4","","24.1","","101.74","","","","-14","","Snow"
"2009-12-30 09:00","2009","12","30","09:00","-7.9","","-8.8","","93","","12","","13","","24.1","","101.73","","","","-14","","Snow"
"2009-12-30 10:00","2009","12","30","10:00","-4.7","","-6.2","","89","","17","","15","","24.1","","101.71","","","","-10","","Snow"
"2009-12-30 11:00","2009","12","30","11:00","-3.4","","-7.0","","76","","20","","11","","24.1","","101.64","","","","-8","","Mostly Cloudy"
"2009-12-30 12:00","2009","12","30","12:00","-2.9","","-7.6","","70","","20","","13","","24.1","","101.53","","","","-8","","Mostly Cloudy"
"2009-12-30 13:00","2009","12","30","13:00","-2.6","","-8.2","","65","","23","","13","","24.1","","101.42","","","","-7","","Mostly Cloudy"
"2009-12-30 14:00","2009","12","30","14:00","-2.4","","-6.6","","73","","18","","13","","24.1","","101.38","","","","-7","","Mostly Cloudy"
"2009-12-30 15:00","2009","12","30","15:00","-2.5","","-6.7","","73","","21","","11","","24.1","","101.34","","","","-7","","Cloudy"
"2009-12-30 16:00","2009","12","30","16:00","-2.3","","-6.2","","75","","21","","15","","24.1","","101.31","","","","-7","","Cloudy"
"2009-12-30 17:00","2009","12","30","17:00","-2.1","","-5.4","","78","","22","","9","","24.1","","101.22","","","","-6","","Cloudy"
"2009-12-30 18:00","2009","12","30","18:00","-1.2","","-5.9","","70","","19","","22","","24.1","","101.17","","","","-7","","Cloudy"
"2009-12-30 19:00","2009","12","30","19:00","-1.2","","-6.1","","69","","18","","26","","24.1","","101.17","","","","-8","","Cloudy"
"2009-12-30 20:00","2009","12","30","20:00","-1.3","","-6.0","","70","","17","","26","","24.1","","101.08","","","","-8","","Cloudy"
"2009-12-30 21:00","2009","12","30","21:00","-1.2","","-5.1","","75","","17","","28","","24.1","","101.03","","","","-8","","Cloudy"
"2009-12-30 22:00","2009","12","30","22:00","-0.9","","-6.0","","68","","18","","26","","24.1","","100.95","","","","-7","","Mostly Cloudy"
"2009-12-30 23:00","2009","12","30","23:00","-0.7","","-5.5","","70","","17","","28","","24.1","","100.89","","","","-7","","Mostly Cloudy"
"2009-12-31 00:00","2009","12","31","00:00"
"2009-12-31 01:00","2009","12","31","01:00"
"2009-12-31 02:00","2009","12","31","02:00"
"2009-12-31 03:00","2009","12","31","03:00"
"2009-12-31 04:00","2009","12","31","04:00"
"2009-12-31 05:00","2009","12","31","05:00"
"2009-12-31 06:00","2009","12","31","06:00","-0.1","","-3.0","","81","","17","","28","","6.4","","100.65","","","","-6","","Snow"
"2009-12-31 07:00","2009","12","31","07:00","0.7","","-3.6","","73","","19","","30","","19.3","","100.65","","","","","","Snow"
"2009-12-31 08:00","2009","12","31","08:00","0.4","","-3.3","","76","","19","","26","","16.1","","100.59","","","","","","Snow"
"2009-12-31 09:00","2009","12","31","09:00","1.1","","-2.1","","79","","19","","15","","24.1","","100.57","","","","","","Cloudy"
"2009-12-31 10:00","2009","12","31","10:00","0.9","","-2.1","","80","","18","","30","","24.1","","100.58","","","","","","Cloudy"
"2009-12-31 11:00","2009","12","31","11:00","0.5","","-2.4","","81","","16","","28","","24.1","","100.54","","","","","","Cloudy"
"2009-12-31 12:00","2009","12","31","12:00","0.6","","-1.7","","85","","17","","24","","24.1","","100.44","","","","","","Cloudy"
"2009-12-31 13:00","2009","12","31","13:00","1.0","","-0.8","","88","","17","","30","","9.7","","100.40","","","","","","Snow"
"2009-12-31 14:00","2009","12","31","14:00","0.9","","0.0","","94","","18","","26","","6.4","","100.39","","","","","","Snow"
"2009-12-31 15:00","2009","12","31","15:00","1.1","","0.6","","96","","18","","24","","4.8","","100.37","","","","","","Snow"
"2009-12-31 16:00","2009","12","31","16:00","0.7","","0.4","","98","","17","","22","","1.2","","100.36","","","","","","Snow"
"2009-12-31 17:00","2009","12","31","17:00","0.9","","0.5","","97","","17","","20","","4.8","","100.35","","","","","","Snow"
"2009-12-31 18:00","2009","12","31","18:00","1.1","","0.6","","96","","17","","22","","8.0","","100.36","","","","","","Snow"
"2009-12-31 19:00","2009","12","31","19:00","1.2","","0.7","","96","","18","","22","","19.3","","100.35","","","","","","Rain,Snow"
"2009-12-31 20:00","2009","12","31","20:00","1.9","","0.9","","93","","17","","20","","19.3","","100.33","","","","","","Rain,Snow"
"2009-12-31 21:00","2009","12","31","21:00","0.9","","0.5","","97","","17","","22","","4.8","","100.29","","","","","","Rain,Snow"
"2009-12-31 22:00","2009","12","31","22:00","1.1","","0.7","","97","","17","","22","","9.7","","100.24","","","","","","Rain,Snow"
"2009-12-31 23:00","2009","12","31","23:00","1.3","","1.0","","98","","17","","22","","9.7","","100.22","","","","","","Rain,Snow"
