"Station Name","KINGSTON A"
"Province","ONTARIO"
"Latitude","44.22"
"Longitude","-76.60"
"Elevation","92.40"
"Climate Identifier","6104146"
"WMO Identifier",""
"TC Identifier","YGK"
"All times are specified in Local Standard Time (LST). Add 1 hour to adjust for Daylight Saving Time where and when it is observed."

"Legend"
"E","Estimated"
"M","Missing"
"NA","Not Available"

"Date/Time","Year","Month","Day","Time","Temp (°C)","Temp Flag","Dew Point Temp (°C)","Dew Point Temp Flag","Rel Hum (%)","Rel Hum Flag","Wind Dir (10s deg)","Wind Dir Flag","Wind Spd (km/h)","Wind Spd Flag","Visibility (km)","Visibility Flag","Stn Press (kPa)","Stn Press Flag","Hmdx","Hmdx Flag","Wind Chill","Wind Chill Flag","Weather"
"1998-01-01 00:00","1998","01","01","00:00"
"1998-01-01 01:00","1998","01","01","01:00"
"1998-01-01 02:00","1998","01","01","02:00"
"1998-01-01 03:00","1998","01","01","03:00"
"1998-01-01 04:00","1998","01","01","04:00"
"1998-01-01 05:00","1998","01","01","05:00"
"1998-01-01 06:00","1998","01","01","06:00","-19.9","","-24.7","","66","","6","","4","","12.9","","101.58","","","","-23","","Snow"
"1998-01-01 07:00","1998","01","01","07:00","-19.1","","-23.4","","69","","8","","7","","24.1","","101.52","","","","-25","","Cloudy"
"1998-01-01 08:00","1998","01","01","08:00","-13.4","","-16.9","","75","","10","","19","","24.1","","101.45","","","","-22","","Cloudy"
"1998-01-01 09:00","1998","01","01","09:00","-6.5","","-8.3","","87","","18","","20","","3.2","","101.35","","","","-13","","Snow Showers"
"1998-01-01 10:00","1998","01","01","10:00","-6.4","","-7.2","","94","","18","","30","","0.6","","101.18","","","","-15","","Snow,Blowing Snow"
"1998-01-01 11:00","1998","01","01","11:00","-3.9","","-5.9","","86","","21","","33","","0.6","","101.08","","","","-12","","Snow,Blowing Snow"
"1998-01-01 12:00","1998","01","01","12:00","-4.3","","-6.5","","85","","21","","33","","0.8","","100.88","","","","-12","","Snow,Blowing Snow"
"1998-01-01 13:00","1998","01","01","13:00","-4.4","","-6.1","","88","","20","","33","","0.8","","100.75","","","","-13","","Snow,Blowing Snow"
"1998-01-01 14:00","1998","01","01","14:00","-4.1","","-4.8","","95","","21","","33","","0.8","","100.64","","","","-12","","Snow,Blowing Snow"
"1998-01-01 15:00","1998","01","01","15:00","-3.7","","-5.2","","89","","18","","37","","6.4","","100.51","","","","-12","","Snow"
"1998-01-01 16:00","1998","01","01","16:00","-2.9","","-6.2","","78","","20","","37","","24.1","","100.41","","","","-11","","Cloudy"
"1998-01-01 17:00","1998","01","01","17:00","-1.7","","-6.3","","71","","20","","28","","24.1","","100.31","","","","-8","","Mostly Cloudy"
"1998-01-01 18:00","1998","01","01","18:00","-1.0","","-5.1","","74","","20","","28","","24.1","","100.24","","","","-8","","Cloudy"
"1998-01-01 19:00","1998","01","01","19:00","-0.3","","-4.2","","75","","20","","28","","24.1","","100.07","","","","-7","","Cloudy"
"1998-01-01 20:00","1998","01","01","20:00","0.7","","-3.2","","75","","20","","33","","24.1","","100.07","","","","","","Cloudy"
"1998-01-01 21:00","1998","01","01","21:00","1.3","","-3.0","","73","","21","","28","","24.1","","100.07","","","","","","Cloudy"
"1998-01-01 22:00","1998","01","01","22:00","1.9","","-1.2","","80","","22","","33","","24.1","","100.07","","","","","","Cloudy"
"1998-01-01 23:00","1998","01","01","23:00","3.5","","-0.7","","74","","23","","28","","24.1","","100.11","","","","","","Cloudy"
"1998-01-02 00:00","1998","01","02","00:00"
"1998-01-02 01:00","1998","01","02","01:00"
"1998-01-02 02:00","1998","01","02","02:00"
"1998-01-02 03:00","1998","01","02","03:00"
"1998-01-02 04:00","1998","01","02","04:00"
"1998-01-02 05:00","1998","01","02","05:00"
"1998-01-02 06:00","1998","01","02","06:00","3.3","","-0.7","","75","","25","","24","","24.1","","100.51","","","","","","Cloudy"
"1998-01-02 07:00","1998","01","02","07:00","3.1","","-0.6","","77","","25","","19","","24.1","","100.58","","","","","","Cloudy"
"1998-01-02 08:00","1998","01","02","08:00","3.1","","-0.5","","77","","25","","22","","24.1","","100.61","","","","","","Cloudy"
"1998-01-02 09:00","1998","01","02","09:00","3.1","","-0.3","","78","","24","","19","","24.1","","100.68","","","","","","Cloudy"
"1998-01-02 10:00","1998","01","02","10:00","3.4","","0.2","","80","","24","","17","","24.1","","100.71","","","","","","Cloudy"
"1998-01-02 11:00","1998","01","02","11:00","3.8","","0.6","","80","","24","","20","","24.1","","100.75","","","","","","Cloudy"
"1998-01-02 12:00","1998","01","02","12:00","4.0","","0.7","","79","","24","","26","","24.1","","100.71","","","","","","Cloudy"
"1998-01-02 13:00","1998","01","02","13:00","3.9","","0.5","","78","","23","","26","","24.1","","100.71","","","","","","Cloudy"
"1998-01-02 14:00","1998","01","02","14:00","3.8","","0.5","","79","","22","","19","","24.1","","100.71","","","","","","Cloudy"
"1998-01-02 15:00","1998","01","02","15:00","3.5","","0.9","","83","","20","","22","","24.1","","100.71","","","","","","Cloudy"
"1998-01-02 16:00","1998","01","02","16:00","3.5","","1.5","","87","","21","","19","","24.1","","100.75","","","","","","Cloudy"
"1998-01-02 17:00","1998","01","02","17:00","3.7","","1.5","","86","","20","","9","","24.1","","100.71","","","","","","Cloudy"
"1998-01-02 18:00","1998","01","02","18:00","4.4","","1.6","","82","","23","","15","","24.1","","100.71","","","","","","Cloudy"
"1998-01-02 19:00","1998","01","02","19:00","4.2","","1.2","","81","","22","","15","","24.1","","100.68","","","","","","Cloudy"
"1998-01-02 20:00","1998","01","02","20:00","4.5","","1.6","","81","","21","","22","","24.1","","100.64","","","","","","Cloudy"
"1998-01-02 21:00","1998","01","02","21:00","4.8","","1.3","","78","","22","","15","","24.1","","100.64","","","","","","Cloudy"
"1998-01-02 22:00","1998","01","02","22:00","4.9","","1.2","","77","","22","","19","","24.1","","100.61","","","","","","Cloudy"
"1998-01-02 23:00","1998","01","02","23:00","4.8","","1.0","","76","","22","","24","","24.1","","100.58","","","","","","Cloudy"
"1998-01-03 00:00","1998","01","03","00:00"
"1998-01-03 01:00","1998","01","03","01:00"
"1998-01-03 02:00","1998","01","03","02:00"
"1998-01-03 03:00","1998","01","03","03:00"
"1998-01-03 04:00","1998","01","03","04:00"
"1998-01-03 05:00","1998","01","03","05:00"
"1998-01-03 06:00","1998","01","03","06:00","5.8","","3.4","","85","","22","","19","","24.1","","100.41","","","","","","Cloudy"
"1998-01-03 07:00","1998","01","03","07:00","5.9","","3.3","","83","","22","","19","","24.1","","100.48","","","","","","Cloudy"
"1998-01-03 08:00","1998","01","03","08:00","6.1","","3.4","","83","","23","","22","","24.1","","100.44","","","","","","Cloudy"
"1998-01-03 09:00","1998","01","03","09:00","6.2","","3.4","","82","","22","","22","","24.1","","100.48","","","","","","Cloudy"
"1998-01-03 10:00","1998","01","03","10:00","7.0","","3.8","","80","","23","","24","","24.1","","100.51","","","","","","Cloudy"
"1998-01-03 11:00","1998","01","03","11:00","7.1","","3.5","","78","","22","","22","","24.1","","100.51","","","","","","Cloudy"
"1998-01-03 12:00","1998","01","03","12:00","7.3","","3.6","","77","","24","","22","","24.1","","100.48","","","","","","Cloudy"
"1998-01-03 13:00","1998","01","03","13:00","7.5","","3.8","","77","","24","","17","","24.1","","100.41","","","","","","Cloudy"
"1998-01-03 14:00","1998","01","03","14:00","7.7","","3.8","","76","","22","","17","","24.1","","100.38","","","","","","Cloudy"
"1998-01-03 15:00","1998","01","03","15:00","6.9","","3.3","","78","","24","","17","","24.1","","100.41","","","","","","Cloudy"
"1998-01-03 16:00","1998","01","03","16:00","6.1","","3.3","","82","","23","","24","","8.0","","100.44","","","","","","Rain,Fog"
"1998-01-03 17:00","1998","01","03","17:00","5.3","","3.5","","88","","22","","15","","16.1","","100.44","","","","","","Rain"
"1998-01-03 18:00","1998","01","03","18:00","6.2","","3.7","","84","","22","","15","","6.4","","100.51","","","","","","Rain,Fog"
"1998-01-03 19:00","1998","01","03","19:00","4.7","","3.5","","92","","21","","9","","4.8","","100.51","","","","","","Rain,Fog"
"1998-01-03 20:00","1998","01","03","20:00","5.8","","4.0","","88","","24","","15","","4.8","","100.54","","","","","","Rain,Fog"
"1998-01-03 21:00","1998","01","03","21:00","7.2","","5.2","","87","","24","","24","","8.0","","100.61","","","","","","Fog"
"1998-01-03 22:00","1998","01","03","22:00","7.1","","5.7","","91","","24","","19","","3.2","","100.64","","","","","","Fog"
"1998-01-03 23:00","1998","01","03","23:00","6.4","","5.3","","93","","25","","15","","1.6","","100.68","","","","","","Rain,Fog"
"1998-01-04 00:00","1998","01","04","00:00"
"1998-01-04 01:00","1998","01","04","01:00"
"1998-01-04 02:00","1998","01","04","02:00"
"1998-01-04 03:00","1998","01","04","03:00"
"1998-01-04 04:00","1998","01","04","04:00"
"1998-01-04 05:00","1998","01","04","05:00"
"1998-01-04 06:00","1998","01","04","06:00","-0.6","","-6.0","","67","","3","","19","","24.1","","101.58","","","","-6","","Cloudy"
"1998-01-04 07:00","1998","01","04","07:00","-2.1","","-9.4","","57","","3","","19","","24.1","","101.79","","","","-8","","Cloudy"
"1998-01-04 08:00","1998","01","04","08:00","-4.1","","-11.0","","59","","3","","19","","24.1","","101.85","","","","-10","","Cloudy"
"1998-01-04 09:00","1998","01","04","09:00","-5.0","","-11.7","","59","","4","","24","","24.1","","101.92","","","","-12","","Mostly Cloudy"
"1998-01-04 10:00","1998","01","04","10:00","-4.8","","-12.3","","56","","4","","22","","24.1","","101.99","","","","-12","","Cloudy"
"1998-01-04 11:00","1998","01","04","11:00","-5.2","","-13.1","","54","","3","","19","","24.1","","102.02","","","","-12","","Cloudy"
"1998-01-04 12:00","1998","01","04","12:00","-5.2","","-12.9","","55","","4","","22","","24.1","","101.99","","","","-12","","Cloudy"
"1998-01-04 13:00","1998","01","04","13:00","-5.0","","-12.3","","57","","5","","24","","24.1","","101.89","","","","-12","","Cloudy"
"1998-01-04 14:00","1998","01","04","14:00","-5.0","","-12.1","","57","","5","","28","","24.1","","101.85","","","","-13","","Cloudy"
"1998-01-04 15:00","1998","01","04","15:00","-5.0","","-11.5","","60","","6","","22","","19.3","","101.85","","","","-12","","Snow Showers"
"1998-01-04 16:00","1998","01","04","16:00","-5.9","","-9.0","","79","","4","","28","","19.3","","101.92","","","","-14","","Freezing Rain"
"1998-01-04 17:00","1998","01","04","17:00","-5.9","","-8.3","","83","","5","","28","","19.3","","101.85","","","","-14","","Freezing Rain"
"1998-01-04 18:00","1998","01","04","18:00","-5.8","","-7.8","","86","","6","","19","","12.9","","101.85","","","","-12","","Freezing Rain"
"1998-01-04 19:00","1998","01","04","19:00","-5.8","","-7.1","","91","","5","","19","","8.0","","101.82","","","","-12","","Freezing Drizzle,Fog"
"1998-01-04 20:00","1998","01","04","20:00","-5.3","","-6.6","","91","","6","","22","","8.0","","101.75","","","","-12","","Freezing Rain,Ice Pellets"
"1998-01-04 21:00","1998","01","04","21:00","-5.4","","-6.6","","91","","6","","26","","9.7","","101.69","","","","-13","","Freezing Drizzle,Fog"
"1998-01-04 22:00","1998","01","04","22:00","-5.8","","-6.7","","93","","6","","24","","8.0","","101.65","","","","-13","","Freezing Drizzle,Fog"
"1998-01-04 23:00","1998","01","04","23:00","-6.1","","-7.2","","92","","4","","22","","8.0","","101.65","","","","-13","","Fog"
"1998-01-05 00:00","1998","01","05","00:00"
"1998-01-05 01:00","1998","01","05","01:00"
"1998-01-05 02:00","1998","01","05","02:00"
"1998-01-05 03:00","1998","01","05","03:00"
"1998-01-05 04:00","1998","01","05","04:00"
"1998-01-05 05:00","1998","01","05","05:00"
"1998-01-05 06:00","1998","01","05","06:00","-1.8","","-2.4","","96","","5","","7","","11.3","","101.42","","","","-4","","Cloudy"
"1998-01-05 07:00","1998","01","05","07:00","-1.8","","-2.6","","94","","5","","7","","11.3","","101.38","","","","-4","","Cloudy"
"1998-01-05 08:00","1998","01","05","08:00","-1.8","","-2.6","","94","","5","","19","","4.0","","101.35","","","","-7","","Freezing Rain,Fog"
"1998-01-05 09:00","1998","01","05","09:00","-0.9","","-1.6","","95","","7","","15","","4.0","","101.35","","","","-6","","Freezing Rain,Fog"
"1998-01-05 10:00","1998","01","05","10:00","-0.3","","-1.1","","94","","5","","6","","4.0","","101.32","","","","-2","","Freezing Rain,Fog"
"1998-01-05 11:00","1998","01","05","11:00","0.1","","-0.5","","96","","","","0","","3.2","","101.28","","","","","","Rain,Fog"
"1998-01-05 12:00","1998","01","05","12:00","0.3","","-0.3","","96","","","","0","","3.2","","101.15","","","","","","Rain,Fog"
"1998-01-05 13:00","1998","01","05","13:00","0.4","","-0.1","","96","","","","0","","1.6","","101.01","","","","","","Rain,Fog"
"1998-01-05 14:00","1998","01","05","14:00","0.9","","0.2","","95","","","","0","","3.2","","101.01","","","","","","Rain,Fog"
"1998-01-05 15:00","1998","01","05","15:00","1.0","","0.5","","96","","35","","7","","4.0","","100.98","","","","","","Rain,Fog"
"1998-01-05 16:00","1998","01","05","16:00","1.0","","0.3","","95","","5","","9","","4.0","","100.98","","","","","","Rain,Fog"
"1998-01-05 17:00","1998","01","05","17:00","1.0","","0.2","","94","","5","","9","","4.8","","100.98","","","","","","Fog"
"1998-01-05 18:00","1998","01","05","18:00","0.7","","0.0","","95","","6","","19","","8.0","","100.98","","","","","","Fog"
"1998-01-05 19:00","1998","01","05","19:00","0.7","","0.0","","95","","5","","19","","8.0","","100.98","","","","","","Fog"
"1998-01-05 20:00","1998","01","05","20:00","0.7","","0.0","","95","","5","","15","","8.0","","100.88","","","","","","Fog"
"1998-01-05 21:00","1998","01","05","21:00","0.8","","0.2","","96","","6","","9","","8.0","","100.85","","","","","","Fog"
"1998-01-05 22:00","1998","01","05","22:00","0.8","","0.1","","95","","5","","13","","8.0","","100.78","","","","","","Rain,Fog"
"1998-01-05 23:00","1998","01","05","23:00","0.8","","0.1","","95","","5","","9","","8.0","","100.75","","","","","","Rain,Fog"
"1998-01-06 00:00","1998","01","06","00:00"
"1998-01-06 01:00","1998","01","06","01:00"
"1998-01-06 02:00","1998","01","06","02:00"
"1998-01-06 03:00","1998","01","06","03:00"
"1998-01-06 04:00","1998","01","06","04:00"
"1998-01-06 05:00","1998","01","06","05:00"
"1998-01-06 06:00","1998","01","06","06:00","4.7","","4.2","","97","","17","","15","","0.2","","100.24","","","","","","Fog"
"1998-01-06 07:00","1998","01","06","07:00","5.1","","5.1","","100","","16","","13","","0.2","","100.24","","","","","","Moderate Drizzle,Fog"
"1998-01-06 08:00","1998","01","06","08:00","5.9","","5.9","","100","","22","","15","","0.8","","100.24","","","","","","Moderate Drizzle,Fog"
"1998-01-06 09:00","1998","01","06","09:00","5.5","","5.4","","99","","","","0","","0.2","","100.28","","","","","","Moderate Drizzle,Fog"
"1998-01-06 10:00","1998","01","06","10:00","4.3","","4.3","","100","","3","","11","","0.4","","100.38","","","","","","Moderate Drizzle,Fog"
"1998-01-06 11:00","1998","01","06","11:00","1.7","","1.3","","97","","3","","9","","0.4","","100.44","","","","","","Fog"
"1998-01-06 12:00","1998","01","06","12:00","1.4","","1.0","","97","","2","","15","","0.4","","100.48","","","","","","Fog"
"1998-01-06 13:00","1998","01","06","13:00","1.5","","1.2","","98","","3","","13","","0.8","","100.48","","","","","","Fog"
"1998-01-06 14:00","1998","01","06","14:00","1.8","","1.6","","99","","2","","11","","2.4","","100.54","","","","","","Fog"
"1998-01-06 15:00","1998","01","06","15:00","1.7","","1.4","","98","","4","","4","","2.4","","100.58","","","","","","Fog"
"1998-01-06 16:00","1998","01","06","16:00","1.5","","1.4","","99","","","","0","","8.0","","100.71","","","","","","Fog"
"1998-01-06 17:00","1998","01","06","17:00","1.3","","1.0","","98","","","","0","","8.0","","100.71","","","","","","Fog"
"1998-01-06 18:00","1998","01","06","18:00","1.2","","1.2","","100","","","","0","","8.0","","100.81","","","","","","Drizzle,Fog"
"1998-01-06 19:00","1998","01","06","19:00","1.2","","0.8","","97","","4","","9","","6.4","","100.85","","","","","","Drizzle,Fog"
"1998-01-06 20:00","1998","01","06","20:00","1.1","","1.1","","100","","","","0","","6.4","","100.85","","","","","","Fog"
"1998-01-06 21:00","1998","01","06","21:00","1.0","","0.8","","99","","","","0","","6.4","","100.85","","","","","","Snow,Fog"
"1998-01-06 22:00","1998","01","06","22:00","1.1","","0.1","","93","","","","0","","6.4","","100.85","","","","","","Fog"
"1998-01-06 23:00","1998","01","06","23:00","1.1","","1.1","","100","","","","0","","6.4","","100.91","","","","","","Fog"
"1998-01-07 00:00","1998","01","07","00:00"
"1998-01-07 01:00","1998","01","07","01:00"
"1998-01-07 02:00","1998","01","07","02:00"
"1998-01-07 03:00","1998","01","07","03:00"
"1998-01-07 04:00","1998","01","07","04:00"
"1998-01-07 05:00","1998","01","07","05:00"
"1998-01-07 06:00","1998","01","07","06:00","0.4","","-0.4","","94","","4","","19","","3.2","","100.71","","","","","","Fog"
"1998-01-07 07:00","1998","01","07","07:00","0.2","","-0.3","","96","","5","","13","","3.2","","100.75","","","","","","Fog"
"1998-01-07 08:00","1998","01","07","08:00","-0.3","","-0.9","","96","","5","","15","","3.2","","100.75","","","","-5","","Rain,Fog"
"1998-01-07 09:00","1998","01","07","09:00","-0.1","","-0.8","","95","","3","","26","","3.2","","100.71","","","","-6","","Rain,Fog"
"1998-01-07 10:00","1998","01","07","10:00","-0.2","","-1.0","","94","","4","","33","","3.2","","100.68","","","","-7","","Freezing Rain,Fog"
"1998-01-07 11:00","1998","01","07","11:00","-0.4","","-1.2","","94","","3","","28","","3.2","","100.68","","","","-7","","Rain,Fog"
"1998-01-07 12:00","1998","01","07","12:00","-0.6","","-1.5","","94","","2","","24","","4.8","","100.58","","","","-7","","Rain,Fog"
"1998-01-07 13:00","1998","01","07","13:00","-0.7","","-1.5","","94","","3","","33","","4.8","","100.48","","","","-8","","Rain,Fog"
"1998-01-07 14:00","1998","01","07","14:00","-0.9","","-1.8","","94","","3","","22","","6.4","","100.41","","","","-7","","Fog"
"1998-01-07 15:00","1998","01","07","15:00","-1.3","","-2.3","","93","","4","","19","","8.0","","100.48","","","","-7","","Fog"
"1998-01-07 16:00","1998","01","07","16:00","-1.5","","-2.4","","94","","3","","28","","8.0","","100.44","","","","-8","","Fog"
"1998-01-07 17:00","1998","01","07","17:00","-1.6","","-2.8","","92","","4","","22","","6.4","","100.48","","","","-8","","Freezing Rain,Fog"
"1998-01-07 18:00","1998","01","07","18:00","-1.4","","-2.5","","92","","4","","19","","6.4","","100.48","","","","-7","","Freezing Rain,Fog"
"1998-01-07 19:00","1998","01","07","19:00","-1.4","","-2.5","","92","","4","","19","","6.4","","100.41","","","","-7","","Freezing Rain,Fog"
"1998-01-07 20:00","1998","01","07","20:00","-1.1","","-2.1","","93","","4","","22","","8.0","","100.41","","","","-7","","Freezing Rain,Fog"
"1998-01-07 21:00","1998","01","07","21:00","-0.9","","-2.0","","92","","4","","19","","8.0","","100.31","","","","-6","","Freezing Rain,Fog"
"1998-01-07 22:00","1998","01","07","22:00","-0.7","","-1.6","","94","","3","","19","E","6.4","","100.24","","","","-6","E","Freezing Rain,Fog"
"1998-01-07 23:00","1998","01","07","23:00","-0.4","","-1.4","","93","","4","","19","E","6.4","","100.14","","","","-6","E","Freezing Rain,Fog"
"1998-01-08 00:00","1998","01","08","00:00"
"1998-01-08 01:00","1998","01","08","01:00"
"1998-01-08 02:00","1998","01","08","02:00"
"1998-01-08 03:00","1998","01","08","03:00"
"1998-01-08 04:00","1998","01","08","04:00"
"1998-01-08 05:00","1998","01","08","05:00"
"1998-01-08 06:00","1998","01","08","06:00","0.4","","-0.7","","92","","4","","28","","6.4","","99.57","","","","","","Rain"
"1998-01-08 07:00","1998","01","08","07:00","0.4","","-0.4","","94","","5","","28","","6.4","","99.57","","","","","","Rain,Fog"
"1998-01-08 08:00","1998","01","08","08:00","0.3","","-0.9","","92","","4","","28","E","6.4","","99.54","","","","","","Rain,Fog"
"1998-01-08 09:00","1998","01","08","09:00","0.3","","-0.7","","93","","2","","19","E","9.7","","99.47","","","","","","Rain,Fog"
"1998-01-08 10:00","1998","01","08","10:00","0.2","","-0.9","","92","","2","","19","E","12.9","","99.50","","","","","","Cloudy"
"1998-01-08 11:00","1998","01","08","11:00","0.1","","-1.1","","92","","2","","19","E","9.7","","99.40","","","","","","Rain,Fog"
"1998-01-08 12:00","1998","01","08","12:00","0.2","","-0.9","","92","","2","","19","E","9.7","","99.40","","","","","","Freezing Rain,Fog"
"1998-01-08 13:00","1998","01","08","13:00","0.1","","-0.9","","93","","2","","37","E","9.7","","99.37","","","","","","Freezing Rain,Fog"
"1998-01-08 14:00","1998","01","08","14:00","0.1","","-0.9","","93","","3","","28","","6.4","","99.27","","","","","","Rain,Fog"
"1998-01-08 15:00","1998","01","08","15:00","0.0","","-1.0","","93","","2","","37","E","6.4","","99.27","","","","-7","E","Rain,Fog"
"1998-01-08 16:00","1998","01","08","16:00","-0.1","","-1.3","","92","","5","","28","","8.0","","99.24","","","","-6","","Rain,Freezing Rain,Fog"
"1998-01-08 17:00","1998","01","08","17:00","0.1","","-1.1","","92","","5","","28","","8.0","","99.20","","","","","","Rain,Fog"
"1998-01-08 18:00","1998","01","08","18:00","0.1","","-1.1","","92","","5","","28","","9.7","","99.17","","","","","","Rain,Freezing Rain,Fog"
"1998-01-08 19:00","1998","01","08","19:00","0.1","","-1.2","","91","","5","","28","","12.9","","99.24","","","","","","Rain,Freezing Rain"
"1998-01-08 20:00","1998","01","08","20:00","-0.3","","-1.4","","92","","5","","19","","19.3","","99.17","","","","-5","","Freezing Rain,Ice Pellets"
"1998-01-08 21:00","1998","01","08","21:00","-0.6","","-1.8","","92","","5","","19","","24.1","","99.17","","","","-6","","Cloudy"
"1998-01-08 22:00","1998","01","08","22:00","-0.9","","-2.2","","91","","5","","19","","24.1","","99.34","","","","-6","","Cloudy"
"1998-01-08 23:00","1998","01","08","23:00","-1.0","","-2.5","","90","","5","","19","","24.1","","99.40","","","","-6","","Cloudy"
"1998-01-09 00:00","1998","01","09","00:00"
"1998-01-09 01:00","1998","01","09","01:00"
"1998-01-09 02:00","1998","01","09","02:00"
"1998-01-09 03:00","1998","01","09","03:00"
"1998-01-09 04:00","1998","01","09","04:00"
"1998-01-09 05:00","1998","01","09","05:00"
"1998-01-09 06:00","1998","01","09","06:00","-2.1","","-3.1","","93","","2","","9","","6.4","","99.17","","","","-6","","Freezing Rain,Fog"
"1998-01-09 07:00","1998","01","09","07:00","-2.2","","-3.0","","94","","2","","19","","6.4","","99.10","","","","-8","","Freezing Rain,Fog"
"1998-01-09 08:00","1998","01","09","08:00","-1.4","","-2.4","","93","","2","","19","E","6.4","","98.97","","","","-7","E","Thunderstorms,Freezing Rain,Fog"
"1998-01-09 09:00","1998","01","09","09:00","-0.6","","-1.4","","94","","2","","19","E","4.0","","99.10","","","","-6","E","Thunderstorms,Freezing Rain,Fog"
"1998-01-09 10:00","1998","01","09","10:00","-0.2","","-1.0","","94","","2","","19","","16.1","","98.83","","","","-5","","Mostly Cloudy"
"1998-01-09 11:00","1998","01","09","11:00","-0.5","","-1.3","","94","","3","","28","E","16.1","","98.87","","","","-7","E","Cloudy"
"1998-01-09 12:00","1998","01","09","12:00","-0.5","","-1.3","","94","","5","","28","E","9.7","","98.73","","","","-7","E","Drizzle,Fog"
"1998-01-09 13:00","1998","01","09","13:00","-0.7","","-1.5","","94","","5","","28","E","3.2","","98.73","","","","-7","E","Freezing Drizzle,Fog"
"1998-01-09 14:00","1998","01","09","14:00","-0.8","","-1.4","","96","","36","","9","E","2.4","","98.83","","","","-4","E","Drizzle,Fog"
"1998-01-09 15:00","1998","01","09","15:00","-0.6","","-1.1","","96","","36","","9","E","4.0","","98.90","","","","-4","E","Freezing Rain,Fog"
"1998-01-09 16:00","1998","01","09","16:00","-0.3","","-0.8","","96","","36","","9","E","4.0","","98.97","","","","-3","E","Freezing Rain,Fog"
"1998-01-09 17:00","1998","01","09","17:00","0.0","","-0.9","","94","","36","","9","E","1.6","","99.07","","","","-3","E","Snow,Fog"
"1998-01-09 18:00","1998","01","09","18:00","0.0","","-0.9","","94","","36","","9","E","3.2","","99.20","","","","-3","E","Snow,Fog"
"1998-01-09 19:00","1998","01","09","19:00","0.3","","-0.5","","94","","36","","9","E","16.1","","99.34","","","","","","Cloudy"
"1998-01-09 20:00","1998","01","09","20:00","0.3","","-0.5","","94","","36","","9","E","16.1","","99.34","","","","","","Cloudy"
"1998-01-09 21:00","1998","01","09","21:00","1.8","","0.9","","94","","36","","9","E","16.1","","99.47","","","","","","Cloudy"
"1998-01-09 22:00","1998","01","09","22:00","2.1","","0.7","","90","","23","","28","E","16.1","","99.54","","","","","","Cloudy"
"1998-01-09 23:00","1998","01","09","23:00","1.9","","0.6","","91","","23","","28","E","24.1","","99.64","","","","","","Cloudy"
"1998-01-10 00:00","1998","01","10","00:00"
"1998-01-10 01:00","1998","01","10","01:00"
"1998-01-10 02:00","1998","01","10","02:00"
"1998-01-10 03:00","1998","01","10","03:00"
"1998-01-10 04:00","1998","01","10","04:00"
"1998-01-10 05:00","1998","01","10","05:00"
"1998-01-10 06:00","1998","01","10","06:00","1.8","","-1.2","","80","","24","","9","","19.3","","100.21","","","","","","Cloudy"
"1998-01-10 07:00","1998","01","10","07:00","1.6","","-1.5","","80","","24","","9","","9.7","","100.21","","","","","","Snow"
"1998-01-10 08:00","1998","01","10","08:00","1.1","","-0.7","","88","","23","","19","E","12.9","","100.18","","","","","","Snow"
"1998-01-10 09:00","1998","01","10","09:00","2.8","","-0.5","","79","","21","","28","","16.1","","100.14","","","","","","Mostly Cloudy"
"1998-01-10 10:00","1998","01","10","10:00","1.9","","-0.5","","84","","23","","28","","9.7","","100.21","","","","","","Rain,Snow,Fog"
"1998-01-10 11:00","1998","01","10","11:00","1.0","","-0.5","","90","","24","","28","","4.0","","100.24","","","","","","Rain,Snow,Fog"
"1998-01-10 12:00","1998","01","10","12:00","2.2","","-0.2","","84","","26","","28","","19.3","","100.18","","","","","","Mostly Cloudy"
"1998-01-10 13:00","1998","01","10","13:00","2.2","","-1.1","","79","","23","","22","","24.1","","100.14","","","","","","Mostly Cloudy"
"1998-01-10 14:00","1998","01","10","14:00","2.5","","-1.7","","74","","23","","28","","24.1","","100.14","","","","","","Mostly Cloudy"
"1998-01-10 15:00","1998","01","10","15:00","2.3","","-1.2","","78","","22","","28","","24.1","","100.14","","","","","","Mostly Cloudy"
"1998-01-10 16:00","1998","01","10","16:00","2.8","","-1.3","","74","","24","","37","","24.1","","100.14","","","","","","Mostly Cloudy"
"1998-01-10 17:00","1998","01","10","17:00","2.2","","-2.6","","71","","24","","37","","24.1","","100.18","","","","","","Mainly Clear"
"1998-01-10 18:00","1998","01","10","18:00","1.7","","-3.1","","70","","24","","28","","24.1","","100.18","","","","","","Mainly Clear"
"1998-01-10 19:00","1998","01","10","19:00","1.2","","-3.2","","72","","24","","28","","24.1","","100.24","","","","","","Mainly Clear"
"1998-01-10 20:00","1998","01","10","20:00","0.9","","-4.5","","67","","24","","28","","24.1","","100.28","","","","","","Mostly Cloudy"
"1998-01-10 21:00","1998","01","10","21:00","-1.6","","-6.3","","70","","28","","28","","24.1","","100.38","","","","-8","","Mostly Cloudy"
"1998-01-10 22:00","1998","01","10","22:00","-2.8","","-7.3","","71","","28","","13","","24.1","","100.44","","","","-7","","Mostly Cloudy"
"1998-01-10 23:00","1998","01","10","23:00","-2.6","","-8.0","","66","","27","","19","","24.1","","100.48","","","","-8","","Mostly Cloudy"
"1998-01-11 00:00","1998","01","11","00:00"
"1998-01-11 01:00","1998","01","11","01:00"
"1998-01-11 02:00","1998","01","11","02:00"
"1998-01-11 03:00","1998","01","11","03:00"
"1998-01-11 04:00","1998","01","11","04:00"
"1998-01-11 05:00","1998","01","11","05:00"
"1998-01-11 06:00","1998","01","11","06:00","-5.1","","-11.2","","62","","27","","22","","19.3","","100.64","","","","-12","","Snow"
"1998-01-11 07:00","1998","01","11","07:00","-5.2","","-11.0","","64","","29","","28","","19.3","","100.68","","","","-13","","Snow"
"1998-01-11 08:00","1998","01","11","08:00","-5.2","","-10.3","","67","","27","","19","","19.3","","100.68","","","","-12","","Cloudy"
"1998-01-11 09:00","1998","01","11","09:00","-3.6","","-9.5","","64","","27","","24","","19.3","","100.71","","","","-10","","Mostly Cloudy"
"1998-01-11 10:00","1998","01","11","10:00","-3.3","","-11.1","","55","","27","","19","","19.3","","100.75","","","","-9","","Mostly Cloudy"
"1998-01-11 11:00","1998","01","11","11:00","-3.5","","-11.8","","53","","28","","19","","19.3","","100.78","","","","-9","","Mostly Cloudy"
"1998-01-11 12:00","1998","01","11","12:00","-3.6","","-10.7","","58","","28","","28","","24.1","","100.75","","","","-11","","Mostly Cloudy"
"1998-01-11 13:00","1998","01","11","13:00","-4.3","","-9.2","","69","","30","","22","","24.1","","100.78","","","","-11","","Mostly Cloudy"
"1998-01-11 14:00","1998","01","11","14:00","-3.8","","-9.9","","63","","30","","19","","24.1","","100.81","","","","-10","","Mostly Cloudy"
"1998-01-11 15:00","1998","01","11","15:00","-4.3","","-10.9","","60","","27","","19","","24.1","","100.85","","","","-10","","Mainly Clear"
"1998-01-11 16:00","1998","01","11","16:00","-4.7","","-12.9","","53","","27","","24","","24.1","","100.91","","","","-12","","Mainly Clear"
"1998-01-11 17:00","1998","01","11","17:00","-5.8","","-13.5","","55","","28","","13","","24.1","","101.01","","","","-11","","Mainly Clear"
"1998-01-11 18:00","1998","01","11","18:00","-6.4","","-13.6","","57","","29","","11","","24.1","","101.08","","","","-11","","Mainly Clear"
"1998-01-11 19:00","1998","01","11","19:00","-7.0","","-13.6","","59","","29","","7","","24.1","","101.05","","","","-11","","Clear"
"1998-01-11 20:00","1998","01","11","20:00","-8.0","","-13.3","","66","","","","0","","24.1","","101.18","","","","","","Clear"
"1998-01-11 21:00","1998","01","11","21:00","-8.3","","-13.0","","69","","","","0","","24.1","","101.25","","","","","","Clear"
"1998-01-11 22:00","1998","01","11","22:00","-8.5","","-13.1","","69","","","","0","","24.1","","101.32","","","","","","Clear"
"1998-01-11 23:00","1998","01","11","23:00","-8.7","","-12.5","","74","","","","0","","24.1","","101.35","","","","","","Clear"
"1998-01-12 00:00","1998","01","12","00:00"
"1998-01-12 01:00","1998","01","12","01:00"
"1998-01-12 02:00","1998","01","12","02:00"
"1998-01-12 03:00","1998","01","12","03:00"
"1998-01-12 04:00","1998","01","12","04:00"
"1998-01-12 05:00","1998","01","12","05:00"
"1998-01-12 06:00","1998","01","12","06:00","-10.6","","-13.2","","81","","1","","6","","24.1","","101.48","","","","-14","","Mainly Clear"
"1998-01-12 07:00","1998","01","12","07:00","-10.6","","-13.3","","80","","","","0","","24.1","","101.52","","","","","","Mainly Clear"
"1998-01-12 08:00","1998","01","12","08:00","-10.0","","-12.3","","83","","5","","6","","24.1","","101.52","","","","-14","","Mainly Clear"
"1998-01-12 09:00","1998","01","12","09:00","-8.2","","-10.3","","85","","8","","9","","9.7","","101.55","","","","-13","","Snow Showers"
"1998-01-12 10:00","1998","01","12","10:00","-6.2","","-9.0","","81","","11","","9","","19.3","","101.58","","","","-10","","Mostly Cloudy"
"1998-01-12 11:00","1998","01","12","11:00","-5.1","","-8.8","","75","","12","","15","","24.1","","101.52","","","","-11","","Mostly Cloudy"
"1998-01-12 12:00","1998","01","12","12:00","-3.9","","-8.0","","73","","14","","26","","24.1","","101.42","","","","-11","","Mostly Cloudy"
"1998-01-12 13:00","1998","01","12","13:00","-3.4","","-7.5","","73","","15","","22","","24.1","","101.38","","","","-10","","Mostly Cloudy"
"1998-01-12 14:00","1998","01","12","14:00","-2.8","","-7.5","","70","","14","","15","","24.1","","101.28","","","","-8","","Mostly Cloudy"
"1998-01-12 15:00","1998","01","12","15:00","-2.4","","-8.2","","64","","14","","19","","24.1","","101.28","","","","-8","","Mainly Clear"
"1998-01-12 16:00","1998","01","12","16:00","-2.2","","-8.2","","63","","17","","13","","24.1","","101.25","","","","-7","","Mostly Cloudy"
"1998-01-12 17:00","1998","01","12","17:00","-3.2","","-8.5","","67","","9","","15","","24.1","","101.15","","","","-8","","Cloudy"
"1998-01-12 18:00","1998","01","12","18:00","-3.3","","-7.6","","72","","8","","13","","24.1","","101.05","","","","-8","","Mostly Cloudy"
"1998-01-12 19:00","1998","01","12","19:00","-2.7","","-7.1","","72","","9","","13","","24.1","","100.91","","","","-7","","Cloudy"
"1998-01-12 20:00","1998","01","12","20:00","-2.8","","-7.4","","71","","6","","11","","24.1","","100.85","","","","-7","","Cloudy"
"1998-01-12 21:00","1998","01","12","21:00","-3.1","","-6.8","","76","","6","","9","","24.1","","100.68","","","","-7","","Cloudy"
"1998-01-12 22:00","1998","01","12","22:00","-2.8","","-6.0","","79","","8","","11","","24.1","","100.58","","","","-7","","Cloudy"
"1998-01-12 23:00","1998","01","12","23:00","-1.0","","-5.0","","74","","13","","15","","24.1","","100.44","","","","-6","","Cloudy"
"1998-01-13 00:00","1998","01","13","00:00"
"1998-01-13 01:00","1998","01","13","01:00"
"1998-01-13 02:00","1998","01","13","02:00"
"1998-01-13 03:00","1998","01","13","03:00"
"1998-01-13 04:00","1998","01","13","04:00"
"1998-01-13 05:00","1998","01","13","05:00"
"1998-01-13 06:00","1998","01","13","06:00","3.2","","1.0","","85","","18","","37","","19.3","","99.54","","","","","","Rain"
"1998-01-13 07:00","1998","01","13","07:00","3.2","","1.6","","89","","21","","28","","16.1","","99.64","","","","","","Rain"
"1998-01-13 08:00","1998","01","13","08:00","2.0","","0.3","","88","","26","","19","","11.3","","99.81","","","","","","Rain"
"1998-01-13 09:00","1998","01","13","09:00","-0.2","","-1.1","","94","","27","","28","","11.3","","99.97","","","","-7","","Mostly Cloudy"
"1998-01-13 10:00","1998","01","13","10:00","0.4","","-0.7","","92","","28","","22","","24.1","","100.11","","","","","","Mostly Cloudy"
"1998-01-13 11:00","1998","01","13","11:00","-0.3","","-1.5","","92","","27","","28","","24.1","","100.24","","","","-7","","Mostly Cloudy"
"1998-01-13 12:00","1998","01","13","12:00","-0.7","","-3.9","","79","","26","","19","","24.1","","100.31","","","","-6","","Mostly Cloudy"
"1998-01-13 13:00","1998","01","13","13:00","-0.7","","-6.7","","64","","24","","28","","24.1","","100.34","","","","-7","","Mostly Cloudy"
"1998-01-13 14:00","1998","01","13","14:00","-1.3","","-8.0","","60","","26","","22","","24.1","","100.38","","","","-7","","Mostly Cloudy"
"1998-01-13 15:00","1998","01","13","15:00","-2.5","","-8.6","","63","","27","","28","","24.1","","100.51","","","","-10","","Mostly Cloudy"
"1998-01-13 16:00","1998","01","13","16:00","-2.9","","-11.1","","53","","28","","22","","24.1","","100.58","","","","-9","","Mostly Cloudy"
"1998-01-13 17:00","1998","01","13","17:00","-4.1","","-11.0","","59","","28","","37","","24.1","","100.75","","","","-13","","Mainly Clear"
"1998-01-13 18:00","1998","01","13","18:00","-5.2","","-12.7","","56","","28","","19","","24.1","","100.81","","","","-12","","Mainly Clear"
"1998-01-13 19:00","1998","01","13","19:00","-6.1","","-13.5","","56","","27","","22","","24.1","","100.91","","","","-13","","Mainly Clear"
"1998-01-13 20:00","1998","01","13","20:00","-6.5","","-12.5","","62","","27","","33","","24.1","","100.98","","","","-15","","Mainly Clear"
"1998-01-13 21:00","1998","01","13","21:00","-6.8","","-12.4","","64","","27","","32","","24.1","","101.05","","","","-16","","Mainly Clear"
"1998-01-13 22:00","1998","01","13","22:00","-7.5","","-12.2","","69","","30","","20","","24.1","","101.18","","","","-15","","Snow Showers"
"1998-01-13 23:00","1998","01","13","23:00","-7.5","","-12.4","","68","","30","","26","","24.1","","101.35","","","","-16","","Mostly Cloudy"
"1998-01-14 00:00","1998","01","14","00:00"
"1998-01-14 01:00","1998","01","14","01:00"
"1998-01-14 02:00","1998","01","14","02:00"
"1998-01-14 03:00","1998","01","14","03:00"
"1998-01-14 04:00","1998","01","14","04:00"
"1998-01-14 05:00","1998","01","14","05:00"
"1998-01-14 06:00","1998","01","14","06:00","-10.6","","-15.4","","68","","33","","19","","24.1","","101.92","","","","-18","","Mainly Clear"
"1998-01-14 07:00","1998","01","14","07:00","-11.6","","-17.6","","61","","34","","22","","24.1","","101.95","","","","-20","","Mainly Clear"
"1998-01-14 08:00","1998","01","14","08:00","-13.1","","-17.8","","68","","34","","9","","24.1","","102.09","","","","-19","","Mainly Clear"
"1998-01-14 09:00","1998","01","14","09:00","-13.4","","-17.6","","71","","4","","22","","24.1","","102.09","","","","-23","","Mainly Clear"
"1998-01-14 10:00","1998","01","14","10:00","-13.4","","-17.8","","69","","2","","19","","24.1","","102.16","","","","-22","","Mainly Clear"
"1998-01-14 11:00","1998","01","14","11:00","-13.3","","-19.5","","60","","5","","19","","24.1","","102.19","","","","-22","","Mainly Clear"
"1998-01-14 12:00","1998","01","14","12:00","-13.4","","-20.1","","57","","3","","9","","24.1","","102.22","","","","-19","","Mainly Clear"
"1998-01-14 13:00","1998","01","14","13:00","-12.8","","-19.9","","55","","10","","9","","24.1","","102.19","","","","-18","","Mainly Clear"
"1998-01-14 14:00","1998","01","14","14:00","-12.3","","-19.3","","56","","9","","9","","24.1","","102.19","","","","-18","","Mainly Clear"
"1998-01-14 15:00","1998","01","14","15:00","-12.4","","-19.4","","56","","8","","13","","24.1","","102.19","","","","-19","","Mainly Clear"
"1998-01-14 16:00","1998","01","14","16:00","-12.4","","-19.5","","55","","3","","9","","24.1","","102.19","","","","-18","","Mainly Clear"
"1998-01-14 17:00","1998","01","14","17:00","-13.1","","-19.9","","57","","6","","11","","24.1","","102.19","","","","-19","","Mainly Clear"
"1998-01-14 18:00","1998","01","14","18:00","-13.4","","-20.0","","58","","7","","11","","24.1","","102.16","","","","-20","","Mostly Cloudy"
"1998-01-14 19:00","1998","01","14","19:00","-13.5","","-19.7","","60","","7","","19","","24.1","","102.16","","","","-22","","Mostly Cloudy"
"1998-01-14 20:00","1998","01","14","20:00","-14.0","","-20.5","","58","","6","","17","","24.1","","102.12","","","","-22","","Mainly Clear"
"1998-01-14 21:00","1998","01","14","21:00","-13.8","","-20.6","","56","","6","","11","","24.1","","102.12","","","","-20","","Mostly Cloudy"
"1998-01-14 22:00","1998","01","14","22:00","-13.7","","-20.4","","57","","6","","13","","24.1","","102.12","","","","-21","","Mostly Cloudy"
"1998-01-14 23:00","1998","01","14","23:00","-13.8","","-21.2","","54","","6","","11","","24.1","","102.12","","","","-20","","Mostly Cloudy"
"1998-01-15 00:00","1998","01","15","00:00"
"1998-01-15 01:00","1998","01","15","01:00"
"1998-01-15 02:00","1998","01","15","02:00"
"1998-01-15 03:00","1998","01","15","03:00"
"1998-01-15 04:00","1998","01","15","04:00"
"1998-01-15 05:00","1998","01","15","05:00"
"1998-01-15 06:00","1998","01","15","06:00","-14.2","","-19.8","","62","","5","","28","","24.1","","101.32","","","","-25","","Cloudy"
"1998-01-15 07:00","1998","01","15","07:00","-14.0","","-19.3","","64","","5","","19","","24.1","","101.25","","","","-23","","Cloudy"
"1998-01-15 08:00","1998","01","15","08:00","-13.7","","-19.4","","62","","4","","19","","24.1","","101.28","","","","-22","","Cloudy"
"1998-01-15 09:00","1998","01","15","09:00","-13.8","","-17.5","","74","","5","","37","","1.0","","101.15","","","","-25","","Snow"
"1998-01-15 10:00","1998","01","15","10:00","-13.0","","-15.6","","81","","5","","28","","0.6","","101.08","","","","-23","","Moderate Snow"
"1998-01-15 11:00","1998","01","15","11:00","-12.1","","-14.9","","80","","6","","28","","1.6","","101.01","","","","-22","","Snow"
"1998-01-15 12:00","1998","01","15","12:00","-11.9","","-14.4","","82","","5","","28","","0.8","","100.85","","","","-22","","Moderate Snow"
"1998-01-15 13:00","1998","01","15","13:00","-11.7","","-13.6","","86","","5","","28","","0.6","","100.71","","","","-21","","Moderate Snow"
"1998-01-15 14:00","1998","01","15","14:00","-11.7","","-13.9","","84","","5","","28","","0.8","","100.68","","","","-21","","Moderate Snow"
"1998-01-15 15:00","1998","01","15","15:00","-11.8","","-14.2","","82","","4","","19","","3.2","","100.68","","","","-20","","Snow"
"1998-01-15 16:00","1998","01","15","16:00","-12.4","","-14.9","","82","","3","","19","","2.4","","100.68","","","","-21","","Snow"
"1998-01-15 17:00","1998","01","15","17:00","-12.8","","-15.5","","80","","4","","22","","2.4","","100.68","","","","-22","","Snow"
"1998-01-15 18:00","1998","01","15","18:00","-13.1","","-16.1","","78","","2","","28","","4.8","","100.68","","","","-23","","Snow"
"1998-01-15 19:00","1998","01","15","19:00","-13.4","","-16.2","","79","","2","","30","","4.8","","100.68","","","","-24","","Snow"
"1998-01-15 20:00","1998","01","15","20:00","-13.2","","-16.3","","77","","4","","37","","4.8","","100.64","","","","-25","","Snow"
"1998-01-15 21:00","1998","01","15","21:00","-13.3","","-16.3","","78","","4","","33","","4.8","","100.64","","","","-24","","Snow"
"1998-01-15 22:00","1998","01","15","22:00","-13.1","","-16.2","","77","","5","","30","","8.0","","100.58","","","","-24","","Snow"
"1998-01-15 23:00","1998","01","15","23:00","-13.0","","-15.9","","79","","4","","33","","4.0","","100.54","","","","-24","","Snow"
"1998-01-16 00:00","1998","01","16","00:00"
"1998-01-16 01:00","1998","01","16","01:00"
"1998-01-16 02:00","1998","01","16","02:00"
"1998-01-16 03:00","1998","01","16","03:00"
"1998-01-16 04:00","1998","01","16","04:00"
"1998-01-16 05:00","1998","01","16","05:00"
"1998-01-16 06:00","1998","01","16","06:00","-10.7","","-13.5","","80","","3","","19","","24.1","","100.38","","","","-19","","Cloudy"
"1998-01-16 07:00","1998","01","16","07:00","-10.4","","-12.9","","82","","5","","28","","24.1","","100.38","","","","-20","","Cloudy"
"1998-01-16 08:00","1998","01","16","08:00","-10.2","","-12.6","","83","","5","","33","","24.1","","100.41","","","","-20","","Cloudy"
"1998-01-16 09:00","1998","01","16","09:00","-9.8","","-12.2","","83","","4","","32","","24.1","","100.38","","","","-20","","Cloudy"
"1998-01-16 10:00","1998","01","16","10:00","-9.0","","-11.9","","79","","5","","28","","24.1","","100.38","","","","-18","","Cloudy"
"1998-01-16 11:00","1998","01","16","11:00","-8.5","","-11.4","","80","","5","","28","","24.1","","100.34","","","","-17","","Cloudy"
"1998-01-16 12:00","1998","01","16","12:00","-7.9","","-10.9","","79","","5","","19","","24.1","","100.38","","","","-15","","Cloudy"
"1998-01-16 13:00","1998","01","16","13:00","-7.7","","-10.7","","79","","4","","19","","24.1","","100.28","","","","-15","","Cloudy"
"1998-01-16 14:00","1998","01","16","14:00","-7.6","","-11.0","","77","","4","","19","","24.1","","100.28","","","","-15","","Cloudy"
"1998-01-16 15:00","1998","01","16","15:00","-7.4","","-10.8","","77","","3","","19","","24.1","","100.28","","","","-14","","Cloudy"
"1998-01-16 16:00","1998","01","16","16:00","-7.6","","-11.0","","77","","4","","22","","24.1","","100.24","","","","-15","","Cloudy"
"1998-01-16 17:00","1998","01","16","17:00","-7.8","","-10.6","","80","","5","","33","","24.1","","100.18","","","","-17","","Cloudy"
"1998-01-16 18:00","1998","01","16","18:00","-7.9","","-10.9","","79","","4","","19","","24.1","","100.24","","","","-15","","Cloudy"
"1998-01-16 19:00","1998","01","16","19:00","-7.9","","-10.9","","79","","5","","22","","24.1","","100.28","","","","-16","","Cloudy"
"1998-01-16 20:00","1998","01","16","20:00","-7.9","","-11.4","","76","","3","","19","","24.1","","100.31","","","","-15","","Cloudy"
"1998-01-16 21:00","1998","01","16","21:00","-7.8","","-11.6","","74","","5","","28","","24.1","","100.34","","","","-16","","Cloudy"
"1998-01-16 22:00","1998","01","16","22:00","-7.8","","-11.9","","72","","3","","26","","24.1","","100.38","","","","-16","","Cloudy"
"1998-01-16 23:00","1998","01","16","23:00","-7.6","","-12.2","","70","","3","","17","","24.1","","100.34","","","","-14","","Cloudy"
"1998-01-17 00:00","1998","01","17","00:00"
"1998-01-17 01:00","1998","01","17","01:00"
"1998-01-17 02:00","1998","01","17","02:00"
"1998-01-17 03:00","1998","01","17","03:00"
"1998-01-17 04:00","1998","01","17","04:00"
"1998-01-17 05:00","1998","01","17","05:00"
"1998-01-17 06:00","1998","01","17","06:00","-7.9","","-13.1","","66","","4","","19","","19.3","","100.34","","","","-15","","Cloudy"
"1998-01-17 07:00","1998","01","17","07:00","-7.9","","-12.4","","70","","5","","22","","19.3","","100.34","","","","-16","","Cloudy"
"1998-01-17 08:00","1998","01","17","08:00","-8.3","","-12.7","","71","","4","","24","","24.1","","100.34","","","","-16","","Cloudy"
"1998-01-17 09:00","1998","01","17","09:00","-8.4","","-12.4","","73","","4","","24","","24.1","","100.34","","","","-17","","Cloudy"
"1998-01-17 10:00","1998","01","17","10:00","-8.8","","-12.8","","73","","6","","22","","24.1","","100.44","","","","-17","","Cloudy"
"1998-01-17 11:00","1998","01","17","11:00","-8.8","","-13.3","","70","","5","","19","","24.1","","100.41","","","","-16","","Cloudy"
"1998-01-17 12:00","1998","01","17","12:00","-8.6","","-13.3","","69","","5","","22","","24.1","","100.38","","","","-16","","Cloudy"
"1998-01-17 13:00","1998","01","17","13:00","-8.5","","-13.0","","70","","4","","15","","24.1","","100.31","","","","-15","","Cloudy"
"1998-01-17 14:00","1998","01","17","14:00","-8.7","","-13.1","","70","","5","","28","","24.1","","100.31","","","","-18","","Cloudy"
"1998-01-17 15:00","1998","01","17","15:00","-8.9","","-13.5","","69","","4","","28","","24.1","","100.24","","","","-18","","Cloudy"
"1998-01-17 16:00","1998","01","17","16:00","-9.2","","-13.5","","71","","6","","19","","24.1","","100.24","","","","-17","","Cloudy"
"1998-01-17 17:00","1998","01","17","17:00","-9.1","","-13.3","","72","","6","","22","","24.1","","100.24","","","","-17","","Cloudy"
"1998-01-17 18:00","1998","01","17","18:00","-9.0","","-12.9","","73","","6","","22","","24.1","","100.21","","","","-17","","Cloudy"
"1998-01-17 19:00","1998","01","17","19:00","-8.9","","-12.1","","78","","6","","17","","24.1","","100.31","","","","-16","","Snow"
"1998-01-17 20:00","1998","01","17","20:00","-8.8","","-12.6","","74","","6","","26","","24.1","","100.28","","","","-17","","Snow"
"1998-01-17 21:00","1998","01","17","21:00","-9.0","","-12.8","","74","","6","","26","","24.1","","100.28","","","","-18","","Snow"
"1998-01-17 22:00","1998","01","17","22:00","-9.0","","-12.5","","76","","6","","22","","16.1","","100.21","","","","-17","","Snow"
"1998-01-17 23:00","1998","01","17","23:00","-9.0","","-12.0","","79","","6","","26","","6.4","","100.18","","","","-18","","Snow"
"1998-01-18 00:00","1998","01","18","00:00"
"1998-01-18 01:00","1998","01","18","01:00"
"1998-01-18 02:00","1998","01","18","02:00"
"1998-01-18 03:00","1998","01","18","03:00"
"1998-01-18 04:00","1998","01","18","04:00"
"1998-01-18 05:00","1998","01","18","05:00"
"1998-01-18 06:00","1998","01","18","06:00","-8.3","","-10.4","","85","","3","","15","","12.9","","100.38","","","","-15","","Snow"
"1998-01-18 07:00","1998","01","18","07:00","-8.9","","-11.4","","82","","2","","11","","19.3","","100.41","","","","-14","","Cloudy"
"1998-01-18 08:00","1998","01","18","08:00","-8.1","","-10.2","","85","","2","","9","","16.1","","100.44","","","","-13","","Cloudy"
"1998-01-18 09:00","1998","01","18","09:00","-7.8","","-9.9","","85","","3","","7","","16.1","","100.48","","","","-11","","Cloudy"
"1998-01-18 10:00","1998","01","18","10:00","-7.4","","-9.5","","85","","2","","6","","9.7","","100.51","","","","-11","","Snow"
"1998-01-18 11:00","1998","01","18","11:00","-6.6","","-8.6","","86","","3","","11","","12.9","","100.54","","","","-12","","Snow"
"1998-01-18 12:00","1998","01","18","12:00","-5.6","","-7.7","","85","","3","","6","","4.8","","100.51","","","","-8","","Snow"
"1998-01-18 13:00","1998","01","18","13:00","-5.1","","-7.3","","85","","7","","6","","12.9","","100.51","","","","-8","","Snow"
"1998-01-18 14:00","1998","01","18","14:00","-4.6","","-7.1","","83","","6","","6","","8.0","","100.51","","","","-7","","Snow"
"1998-01-18 15:00","1998","01","18","15:00","-4.4","","-6.7","","84","","7","","9","","4.8","","100.54","","","","-8","","Snow"
"1998-01-18 16:00","1998","01","18","16:00","-4.5","","-6.8","","84","","7","","9","","4.8","","100.54","","","","-8","","Snow"
"1998-01-18 17:00","1998","01","18","17:00","-4.7","","-6.9","","85","","6","","7","","4.8","","100.58","","","","-8","","Snow"
"1998-01-18 18:00","1998","01","18","18:00","-5.0","","-6.9","","86","","6","","9","","3.2","","100.61","","","","-9","","Snow"
"1998-01-18 19:00","1998","01","18","19:00","-5.2","","-7.2","","86","","6","","11","","4.8","","100.61","","","","-10","","Snow"
"1998-01-18 20:00","1998","01","18","20:00","-5.5","","-7.3","","87","","6","","9","","4.0","","100.61","","","","-10","","Snow"
"1998-01-18 21:00","1998","01","18","21:00","-5.9","","-7.5","","88","","7","","6","","11.3","","100.58","","","","-9","","Cloudy"
"1998-01-18 22:00","1998","01","18","22:00","-6.1","","-7.7","","88","","5","","7","","11.3","","100.54","","","","-9","","Cloudy"
"1998-01-18 23:00","1998","01","18","23:00","-6.2","","-7.8","","88","","4","","9","","11.3","","100.58","","","","-10","","Cloudy"
"1998-01-19 00:00","1998","01","19","00:00"
"1998-01-19 01:00","1998","01","19","01:00"
"1998-01-19 02:00","1998","01","19","02:00"
"1998-01-19 03:00","1998","01","19","03:00"
"1998-01-19 04:00","1998","01","19","04:00"
"1998-01-19 05:00","1998","01","19","05:00"
"1998-01-19 06:00","1998","01","19","06:00","-6.5","","-8.2","","88","","5","","15","","8.0","","100.51","","","","-12","","Snow"
"1998-01-19 07:00","1998","01","19","07:00","-6.6","","-8.1","","89","","5","","13","","9.7","","100.51","","","","-12","","Snow"
"1998-01-19 08:00","1998","01","19","08:00","-6.6","","-8.1","","89","","6","","15","","4.8","","100.54","","","","-13","","Snow,Fog"
"1998-01-19 09:00","1998","01","19","09:00","-6.3","","-7.5","","91","","8","","20","","8.0","","100.58","","","","-13","","Fog"
"1998-01-19 10:00","1998","01","19","10:00","-5.6","","-7.2","","88","","5","","17","","3.2","","100.61","","","","-12","","Snow"
"1998-01-19 11:00","1998","01","19","11:00","-5.0","","-6.7","","88","","5","","11","","2.4","","100.58","","","","-10","","Snow"
"1998-01-19 12:00","1998","01","19","12:00","-3.8","","-5.5","","88","","4","","13","","4.0","","100.51","","","","-9","","Snow"
"1998-01-19 13:00","1998","01","19","13:00","-2.5","","-4.6","","85","","4","","11","","6.4","","100.44","","","","-7","","Fog"
"1998-01-19 14:00","1998","01","19","14:00","-2.6","","-4.7","","85","","5","","11","","3.2","","100.41","","","","-7","","Snow"
"1998-01-19 15:00","1998","01","19","15:00","-2.9","","-4.4","","89","","5","","7","","3.2","","100.41","","","","-6","","Snow Showers"
"1998-01-19 16:00","1998","01","19","16:00","-2.9","","-4.4","","89","","3","","13","","4.8","","100.44","","","","-8","","Snow Showers"
"1998-01-19 17:00","1998","01","19","17:00","-3.1","","-4.6","","89","","4","","17","","3.2","","100.48","","","","-9","","Snow Showers"
"1998-01-19 18:00","1998","01","19","18:00","-3.3","","-4.6","","91","","4","","9","","8.0","","100.51","","","","-7","","Snow"
"1998-01-19 19:00","1998","01","19","19:00","-3.4","","-5.1","","88","","5","","15","","8.0","","100.54","","","","-9","","Snow"
"1998-01-19 20:00","1998","01","19","20:00","-3.6","","-4.9","","91","","6","","9","","4.8","","100.54","","","","-7","","Snow"
"1998-01-19 21:00","1998","01","19","21:00","-3.7","","-5.2","","89","","4","","15","","4.8","","100.54","","","","-9","","Snow"
"1998-01-19 22:00","1998","01","19","22:00","-3.9","","-5.4","","89","","6","","9","","3.2","","100.51","","","","-8","","Snow"
"1998-01-19 23:00","1998","01","19","23:00","-3.9","","-5.1","","91","","3","","9","","3.2","","100.54","","","","-8","","Snow"
"1998-01-20 00:00","1998","01","20","00:00"
"1998-01-20 01:00","1998","01","20","01:00"
"1998-01-20 02:00","1998","01","20","02:00"
"1998-01-20 03:00","1998","01","20","03:00"
"1998-01-20 04:00","1998","01","20","04:00"
"1998-01-20 05:00","1998","01","20","05:00"
"1998-01-20 06:00","1998","01","20","06:00","-4.9","","-6.4","","89","","3","","9","","9.7","","100.54","","","","-9","","Snow"
"1998-01-20 07:00","1998","01","20","07:00","-4.9","","-6.2","","91","","4","","9","","9.7","","100.58","","","","-9","","Snow"
"1998-01-20 08:00","1998","01","20","08:00","-5.2","","-6.1","","93","","33","","6","","8.0","","100.61","","","","-8","","Snow"
"1998-01-20 09:00","1998","01","20","09:00","-5.1","","-6.5","","90","","32","","7","","12.9","","100.64","","","","-8","","Cloudy"
"1998-01-20 10:00","1998","01","20","10:00","-4.1","","-5.4","","91","","34","","11","","11.3","","100.68","","","","-9","","Cloudy"
"1998-01-20 11:00","1998","01","20","11:00","-3.4","","-4.6","","91","","36","","9","","11.3","","100.75","","","","-7","","Cloudy"
"1998-01-20 12:00","1998","01","20","12:00","-2.4","","-3.2","","94","","","","0","","12.9","","100.75","","","","","","Cloudy"
"1998-01-20 13:00","1998","01","20","13:00","-2.1","","-3.1","","93","","","","0","","12.9","","100.71","","","","","","Mostly Cloudy"
"1998-01-20 14:00","1998","01","20","14:00","-1.7","","-2.7","","93","","27","","9","","12.9","","100.68","","","","-5","","Mostly Cloudy"
"1998-01-20 15:00","1998","01","20","15:00","-1.3","","-3.3","","86","","31","","9","","19.3","","100.71","","","","-5","","Cloudy"
"1998-01-20 16:00","1998","01","20","16:00","-1.6","","-3.8","","85","","30","","9","","19.3","","100.75","","","","-5","","Mostly Cloudy"
"1998-01-20 17:00","1998","01","20","17:00","-3.2","","-5.2","","86","","30","","9","","19.3","","100.81","","","","-7","","Mainly Clear"
"1998-01-20 18:00","1998","01","20","18:00","-2.2","","-4.2","","86","","29","","9","","24.1","","100.88","","","","-6","","Cloudy"
"1998-01-20 19:00","1998","01","20","19:00","-2.6","","-5.2","","82","","","","0","","24.1","","100.95","","","","","","Cloudy"
"1998-01-20 20:00","1998","01","20","20:00","-2.8","","-5.5","","82","","32","","6","","24.1","","101.01","","","","-5","","Cloudy"
"1998-01-20 21:00","1998","01","20","21:00","-2.8","","-5.6","","81","","35","","7","","9.7","","101.05","","","","-6","","Snow"
"1998-01-20 22:00","1998","01","20","22:00","-3.8","","-6.3","","83","","1","","13","","11.3","","101.08","","","","-9","","Snow"
"1998-01-20 23:00","1998","01","20","23:00","-4.6","","-7.1","","83","","3","","13","","16.1","","101.15","","","","-10","","Cloudy"
"1998-01-21 00:00","1998","01","21","00:00"
"1998-01-21 01:00","1998","01","21","01:00"
"1998-01-21 02:00","1998","01","21","02:00"
"1998-01-21 03:00","1998","01","21","03:00"
"1998-01-21 04:00","1998","01","21","04:00"
"1998-01-21 05:00","1998","01","21","05:00"
"1998-01-21 06:00","1998","01","21","06:00","-10.5","","-12.4","","86","","32","","9","","24.1","","101.35","","","","-15","","Clear"
"1998-01-21 07:00","1998","01","21","07:00","-10.4","","-12.3","","86","","33","","9","","24.1","","101.45","","","","-15","","Mainly Clear"
"1998-01-21 08:00","1998","01","21","08:00","-9.7","","-11.4","","87","","36","","7","","24.1","","101.52","","","","-14","","Mainly Clear"
"1998-01-21 09:00","1998","01","21","09:00","-9.7","","-11.3","","88","","36","","9","","19.3","","101.55","","","","-15","","Mainly Clear"
"1998-01-21 10:00","1998","01","21","10:00","-7.3","","-8.6","","90","","36","","9","","24.1","","101.58","","","","-12","","Mainly Clear"
"1998-01-21 11:00","1998","01","21","11:00","-4.9","","-7.6","","81","","1","","22","","24.1","","101.55","","","","-12","","Cloudy"
"1998-01-21 12:00","1998","01","21","12:00","-4.3","","-7.7","","77","","31","","13","","24.1","","101.58","","","","-9","","Cloudy"
"1998-01-21 13:00","1998","01","21","13:00","-4.1","","-8.0","","74","","35","","9","","24.1","","101.52","","","","-8","","Cloudy"
"1998-01-21 14:00","1998","01","21","14:00","-3.9","","-8.9","","68","","33","","9","","24.1","","101.48","","","","-8","","Cloudy"
"1998-01-21 15:00","1998","01","21","15:00","-3.9","","-9.0","","68","","34","","15","","24.1","","101.45","","","","-9","","Mostly Cloudy"
"1998-01-21 16:00","1998","01","21","16:00","-4.0","","-9.3","","67","","36","","9","","24.1","","101.48","","","","-8","","Mostly Cloudy"
"1998-01-21 17:00","1998","01","21","17:00","-4.3","","-9.4","","68","","2","","7","","24.1","","101.48","","","","-7","","Mostly Cloudy"
"1998-01-21 18:00","1998","01","21","18:00","-5.0","","-9.8","","69","","1","","9","","24.1","","101.58","","","","-9","","Mostly Cloudy"
"1998-01-21 19:00","1998","01","21","19:00","-5.4","","-9.7","","72","","1","","9","","24.1","","101.65","","","","-9","","Cloudy"
"1998-01-21 20:00","1998","01","21","20:00","-6.0","","-9.9","","74","","2","","19","","24.1","","101.72","","","","-13","","Cloudy"
"1998-01-21 21:00","1998","01","21","21:00","-6.6","","-11.0","","71","","2","","19","","24.1","","101.72","","","","-13","","Mostly Cloudy"
"1998-01-21 22:00","1998","01","21","22:00","-7.8","","-11.9","","72","","3","","19","","24.1","","101.75","","","","-15","","Mostly Cloudy"
"1998-01-21 23:00","1998","01","21","23:00","-8.7","","-13.0","","71","","4","","19","","24.1","","101.82","","","","-16","","Mostly Cloudy"
"1998-01-22 00:00","1998","01","22","00:00"
"1998-01-22 01:00","1998","01","22","01:00"
"1998-01-22 02:00","1998","01","22","02:00"
"1998-01-22 03:00","1998","01","22","03:00"
"1998-01-22 04:00","1998","01","22","04:00"
"1998-01-22 05:00","1998","01","22","05:00"
"1998-01-22 06:00","1998","01","22","06:00","-14.6","","-18.4","","73","","3","","17","","24.1","","101.99","","","","-23","","Mainly Clear"
"1998-01-22 07:00","1998","01","22","07:00","-14.8","","-18.6","","73","","4","","28","","24.1","","102.02","","","","-25","","Mainly Clear"
"1998-01-22 08:00","1998","01","22","08:00","-15.2","","-19.2","","71","","4","","19","","24.1","","102.09","","","","-24","","Mostly Cloudy"
"1998-01-22 09:00","1998","01","22","09:00","-15.5","","-19.7","","70","","4","","22","","24.1","","102.16","","","","-25","","Mostly Cloudy"
"1998-01-22 10:00","1998","01","22","10:00","-14.7","","-19.3","","68","","5","","26","","24.1","","102.22","","","","-25","","Mostly Cloudy"
"1998-01-22 11:00","1998","01","22","11:00","-13.1","","-18.9","","62","","4","","19","","24.1","","102.22","","","","-22","","Mainly Clear"
"1998-01-22 12:00","1998","01","22","12:00","-11.9","","-18.5","","58","","4","","28","","24.1","","102.12","","","","-22","","Mainly Clear"
"1998-01-22 13:00","1998","01","22","13:00","-10.8","","-18.6","","53","","5","","26","","24.1","","102.05","","","","-20","","Mainly Clear"
"1998-01-22 14:00","1998","01","22","14:00","-10.2","","-19.1","","48","","4","","28","","24.1","","102.02","","","","-19","","Mainly Clear"
"1998-01-22 15:00","1998","01","22","15:00","-9.8","","-20.5","","41","","5","","19","","24.1","","102.02","","","","-17","","Mainly Clear"
"1998-01-22 16:00","1998","01","22","16:00","-10.4","","-20.9","","42","","5","","19","","24.1","","101.99","","","","-18","","Mainly Clear"
"1998-01-22 17:00","1998","01","22","17:00","-11.5","","-21.9","","42","","3","","19","","24.1","","102.02","","","","-20","","Mainly Clear"
"1998-01-22 18:00","1998","01","22","18:00","-12.8","","-22.3","","45","","6","","28","","24.1","","102.09","","","","-23","","Mainly Clear"
"1998-01-22 19:00","1998","01","22","19:00","-14.0","","-23.0","","46","","5","","19","","24.1","","102.09","","","","-23","","Mainly Clear"
"1998-01-22 20:00","1998","01","22","20:00","-14.7","","-23.0","","49","","5","","19","","24.1","","102.05","","","","-24","","Mainly Clear"
"1998-01-22 21:00","1998","01","22","21:00","-15.2","","-23.2","","50","","5","","19","","24.1","","102.02","","","","-24","","Cloudy"
"1998-01-22 22:00","1998","01","22","22:00","-15.1","","-22.7","","52","","6","","19","","24.1","","101.95","","","","-24","","Cloudy"
"1998-01-22 23:00","1998","01","22","23:00","-14.9","","-22.4","","53","","5","","19","","24.1","","101.95","","","","-24","","Cloudy"
"1998-01-23 00:00","1998","01","23","00:00"
"1998-01-23 01:00","1998","01","23","01:00"
"1998-01-23 02:00","1998","01","23","02:00"
"1998-01-23 03:00","1998","01","23","03:00"
"1998-01-23 04:00","1998","01","23","04:00"
"1998-01-23 05:00","1998","01","23","05:00"
"1998-01-23 06:00","1998","01","23","06:00","-12.2","","-14.9","","80","","6","","28","","1.6","","101.42","","","","-22","","Snow"
"1998-01-23 07:00","1998","01","23","07:00","-11.7","","-13.1","","89","","5","","28","","1.6","","101.32","","","","-21","","Snow"
"1998-01-23 08:00","1998","01","23","08:00","-11.1","","-12.7","","88","","6","","19","","2.4","","101.18","","","","-19","","Snow"
"1998-01-23 09:00","1998","01","23","09:00","-11.4","","-13.2","","86","","6","","19","","2.4","","101.15","","","","-19","","Snow"
"1998-01-23 10:00","1998","01","23","10:00","-11.0","","-12.5","","89","","6","","28","","2.0","","101.05","","","","-21","","Snow"
"1998-01-23 11:00","1998","01","23","11:00","-10.4","","","M","","M","6","","28","","2.4","","100.91","","","","-20","","Snow"
"1998-01-23 12:00","1998","01","23","12:00","-9.5","","-11.0","","89","","6","","26","","2.0","","100.81","","","","-18","","Snow"
"1998-01-23 13:00","1998","01","23","13:00","-8.4","","-10.0","","88","","6","","19","","1.6","","100.75","","","","-16","","Snow"
"1998-01-23 14:00","1998","01","23","14:00","-7.3","","-8.6","","90","","7","","22","","2.4","","100.58","","","","-15","","Snow"
"1998-01-23 15:00","1998","01","23","15:00","-7.5","","-9.0","","89","","6","","19","","3.2","","100.54","","","","-15","","Snow,Ice Pellets"
"1998-01-23 16:00","1998","01","23","16:00","-7.3","","-8.5","","91","","6","","19","","1.6","","100.54","","","","-14","","Snow"
"1998-01-23 17:00","1998","01","23","17:00","-7.2","","-8.2","","93","","8","","15","","1.6","","100.51","","","","-13","","Snow"
"1998-01-23 18:00","1998","01","23","18:00","-6.5","","-7.5","","93","","8","","15","","1.6","","100.51","","","","-12","","Snow"
"1998-01-23 19:00","1998","01","23","19:00","-5.8","","-6.8","","93","","7","","13","","3.2","","100.44","","","","-11","","Snow"
"1998-01-23 20:00","1998","01","23","20:00","-2.7","","-3.9","","91","","10","","19","","3.2","","100.38","","","","-8","","Snow"
"1998-01-23 21:00","1998","01","23","21:00","-4.4","","-5.3","","93","","8","","6","","4.8","","100.34","","","","-7","","Snow"
"1998-01-23 22:00","1998","01","23","22:00","-4.2","","-5.1","","93","","6","","9","","4.8","","100.31","","","","-8","","Snow"
"1998-01-23 23:00","1998","01","23","23:00","-2.5","","-2.9","","97","","","","0","","8.0","","100.31","","","","","","Freezing Drizzle,Fog"
"1998-01-24 00:00","1998","01","24","00:00"
"1998-01-24 01:00","1998","01","24","01:00"
"1998-01-24 02:00","1998","01","24","02:00"
"1998-01-24 03:00","1998","01","24","03:00"
"1998-01-24 04:00","1998","01","24","04:00"
"1998-01-24 05:00","1998","01","24","05:00"
"1998-01-24 06:00","1998","01","24","06:00","0.5","","-0.3","","94","","25","","7","","8.0","","100.18","","","","","","Fog"
"1998-01-24 07:00","1998","01","24","07:00","0.4","","-0.2","","96","","28","","6","","4.8","","100.18","","","","","","Fog"
"1998-01-24 08:00","1998","01","24","08:00","0.3","","-0.2","","96","","","","0","","6.4","","100.24","","","","","","Fog"
"1998-01-24 09:00","1998","01","24","09:00","-0.4","","-1.2","","94","","36","","7","","6.4","","100.24","","","","-3","","Fog"
"1998-01-24 10:00","1998","01","24","10:00","-0.5","","-0.9","","97","","1","","9","","8.0","","100.24","","","","-4","","Fog"
"1998-01-24 11:00","1998","01","24","11:00","-0.7","","-1.0","","98","","","","0","","9.7","","100.21","","","","","","Fog"
"1998-01-24 12:00","1998","01","24","12:00","-0.3","","-0.7","","97","","1","","9","","8.0","","100.18","","","","-3","","Fog"
"1998-01-24 13:00","1998","01","24","13:00","-0.3","","-1.1","","94","","36","","9","","8.0","","100.11","","","","-3","","Fog"
"1998-01-24 14:00","1998","01","24","14:00","-0.4","","-1.2","","94","","34","","9","","9.7","","100.04","","","","-4","","Fog"
"1998-01-24 15:00","1998","01","24","15:00","-0.5","","-1.4","","94","","34","","9","","11.3","","100.01","","","","-4","","Cloudy"
"1998-01-24 16:00","1998","01","24","16:00","-0.3","","-1.8","","90","","","","0","","12.9","","100.04","","","","","","Cloudy"
"1998-01-24 17:00","1998","01","24","17:00","-0.7","","-2.1","","90","","","","0","","12.9","","100.04","","","","","","Cloudy"
"1998-01-24 18:00","1998","01","24","18:00","-0.8","","-2.2","","90","","5","","7","","12.9","","100.07","","","","-3","","Cloudy"
"1998-01-24 19:00","1998","01","24","19:00","-1.2","","-2.5","","91","","9","","6","","12.9","","100.07","","","","-3","","Cloudy"
"1998-01-24 20:00","1998","01","24","20:00","-1.5","","-2.9","","90","","11","","4","","12.9","","100.07","","","","-3","","Cloudy"
"1998-01-24 21:00","1998","01","24","21:00","-1.9","","-3.7","","87","","","","0","","12.9","","100.04","","","","","","Cloudy"
"1998-01-24 22:00","1998","01","24","22:00","-2.0","","-3.6","","89","","36","","7","","12.9","","99.97","","","","-5","","Cloudy"
"1998-01-24 23:00","1998","01","24","23:00","-1.8","","-3.1","","91","","","","0","","8.0","","100.04","","","","","","Snow Showers"
"1998-01-25 00:00","1998","01","25","00:00"
"1998-01-25 01:00","1998","01","25","01:00"
"1998-01-25 02:00","1998","01","25","02:00"
"1998-01-25 03:00","1998","01","25","03:00"
"1998-01-25 04:00","1998","01","25","04:00"
"1998-01-25 05:00","1998","01","25","05:00"
"1998-01-25 06:00","1998","01","25","06:00","-3.2","","-5.2","","86","","30","","11","","16.1","","100.11","","","","-7","","Mostly Cloudy"
"1998-01-25 07:00","1998","01","25","07:00","-3.8","","-5.9","","85","","30","","9","","16.1","","100.18","","","","-8","","Mostly Cloudy"
"1998-01-25 08:00","1998","01","25","08:00","-4.0","","-6.2","","85","","30","","19","","16.1","","100.31","","","","-10","","Mostly Cloudy"
"1998-01-25 09:00","1998","01","25","09:00","-5.0","","-7.8","","81","","31","","22","","24.1","","100.38","","","","-12","","Mainly Clear"
"1998-01-25 10:00","1998","01","25","10:00","-4.3","","-8.9","","70","","32","","19","","24.1","","100.48","","","","-10","","Clear"
"1998-01-25 11:00","1998","01","25","11:00","-4.2","","-8.6","","71","","29","","19","","24.1","","100.51","","","","-10","","Mainly Clear"
"1998-01-25 12:00","1998","01","25","12:00","-3.3","","-7.3","","74","","31","","22","","24.1","","100.51","","","","-10","","Clear"
"1998-01-25 13:00","1998","01","25","13:00","-2.4","","-6.7","","72","","29","","20","","24.1","","100.51","","","","-8","","Mainly Clear"
"1998-01-25 14:00","1998","01","25","14:00","-1.6","","-8.1","","61","","27","","19","","24.1","","100.51","","","","-7","","Mainly Clear"
"1998-01-25 15:00","1998","01","25","15:00","-1.9","","-8.1","","63","","28","","28","","6.4","","100.54","","","","-9","","Snow"
"1998-01-25 16:00","1998","01","25","16:00","-1.9","","-6.7","","70","","28","","15","","24.1","","100.58","","","","-7","","Cloudy"
"1998-01-25 17:00","1998","01","25","17:00","-1.9","","-6.6","","70","","28","","9","","19.3","","100.64","","","","-5","","Snow Showers"
"1998-01-25 18:00","1998","01","25","18:00","-1.9","","-5.4","","77","","25","","9","","3.2","","100.71","","","","-5","","Snow Showers"
"1998-01-25 19:00","1998","01","25","19:00","-2.9","","-5.7","","81","","31","","7","","8.0","","100.75","","","","-6","","Snow Showers"
"1998-01-25 20:00","1998","01","25","20:00","-2.1","","-4.7","","82","","5","","15","","24.1","","100.78","","","","-7","","Cloudy"
"1998-01-25 21:00","1998","01","25","21:00","-1.8","","-4.1","","84","","28","","19","","19.3","","100.85","","","","-7","","Snow Showers"
"1998-01-25 22:00","1998","01","25","22:00","-2.2","","-4.3","","85","","27","","22","","24.1","","100.91","","","","-8","","Mostly Cloudy"
"1998-01-25 23:00","1998","01","25","23:00","-3.3","","-7.1","","75","","30","","19","","24.1","","101.01","","","","-9","","Mostly Cloudy"
"1998-01-26 00:00","1998","01","26","00:00"
"1998-01-26 01:00","1998","01","26","01:00"
"1998-01-26 02:00","1998","01","26","02:00"
"1998-01-26 03:00","1998","01","26","03:00"
"1998-01-26 04:00","1998","01","26","04:00"
"1998-01-26 05:00","1998","01","26","05:00"
"1998-01-26 06:00","1998","01","26","06:00","-16.1","","-19.1","","78","","4","","22","","24.1","","101.79","","","","-26","","Mainly Clear"
"1998-01-26 07:00","1998","01","26","07:00","-16.9","","-22.5","","62","","3","","20","","24.1","","101.82","","","","-27","","Mainly Clear"
"1998-01-26 08:00","1998","01","26","08:00","-17.7","","-23.0","","63","","2","","19","","24.1","","101.95","","","","-27","","Mainly Clear"
"1998-01-26 09:00","1998","01","26","09:00","-17.6","","-23.1","","62","","2","","24","","24.1","","101.99","","","","-28","","Mainly Clear"
"1998-01-26 10:00","1998","01","26","10:00","-16.8","","-23.1","","58","","4","","22","","24.1","","102.05","","","","-27","","Mainly Clear"
"1998-01-26 11:00","1998","01","26","11:00","-15.9","","-23.2","","53","","2","","22","","24.1","","102.09","","","","-26","","Mainly Clear"
"1998-01-26 12:00","1998","01","26","12:00","-15.2","","-22.8","","52","","6","","19","","24.1","","102.12","","","","-24","","Mainly Clear"
"1998-01-26 13:00","1998","01","26","13:00","-14.5","","-23.4","","47","","9","","19","","24.1","","102.12","","","","-23","","Mainly Clear"
"1998-01-26 14:00","1998","01","26","14:00","-13.7","","-23.3","","44","","6","","19","","24.1","","102.12","","","","-22","","Mainly Clear"
"1998-01-26 15:00","1998","01","26","15:00","-13.4","","-23.1","","44","","5","","19","","24.1","","102.09","","","","-22","","Mainly Clear"
"1998-01-26 16:00","1998","01","26","16:00","-13.2","","-22.9","","44","","4","","15","","24.1","","102.09","","","","-21","","Mainly Clear"
"1998-01-26 17:00","1998","01","26","17:00","-14.0","","-23.5","","44","","5","","13","","24.1","","102.16","","","","-21","","Mainly Clear"
"1998-01-26 18:00","1998","01","26","18:00","-14.8","","-23.8","","46","","4","","9","","24.1","","102.16","","","","-21","","Mainly Clear"
"1998-01-26 19:00","1998","01","26","19:00","-15.6","","-23.8","","49","","4","","15","","24.1","","102.19","","","","-24","","Mainly Clear"
"1998-01-26 20:00","1998","01","26","20:00","-16.2","","-24.4","","49","","5","","17","","24.1","","102.22","","","","-25","","Mainly Clear"
"1998-01-26 21:00","1998","01","26","21:00","-16.5","","-24.5","","50","","6","","15","","24.1","","102.26","","","","-25","","Mainly Clear"
"1998-01-26 22:00","1998","01","26","22:00","-17.0","","-24.6","","52","","6","","13","","24.1","","102.22","","","","-25","","Clear"
"1998-01-26 23:00","1998","01","26","23:00","-17.5","","-24.6","","54","","5","","19","","24.1","","102.19","","","","-27","","Clear"
"1998-01-27 00:00","1998","01","27","00:00"
"1998-01-27 01:00","1998","01","27","01:00"
"1998-01-27 02:00","1998","01","27","02:00"
"1998-01-27 03:00","1998","01","27","03:00"
"1998-01-27 04:00","1998","01","27","04:00"
"1998-01-27 05:00","1998","01","27","05:00"
"1998-01-27 06:00","1998","01","27","06:00","-16.8","","-22.4","","62","","5","","24","","24.1","","101.82","","","","-27","","Cloudy"
"1998-01-27 07:00","1998","01","27","07:00","-16.3","","-22.0","","61","","5","","28","","24.1","","101.75","","","","-27","","Cloudy"
"1998-01-27 08:00","1998","01","27","08:00","-15.8","","-21.4","","62","","5","","28","","24.1","","101.72","","","","-27","","Cloudy"
"1998-01-27 09:00","1998","01","27","09:00","-15.1","","-20.6","","63","","5","","24","","24.1","","101.65","","","","-25","","Cloudy"
"1998-01-27 10:00","1998","01","27","10:00","-14.0","","-19.7","","62","","5","","28","","24.1","","101.58","","","","-24","","Cloudy"
"1998-01-27 11:00","1998","01","27","11:00","-12.6","","-18.1","","63","","4","","24","","24.1","","101.58","","","","-22","","Cloudy"
"1998-01-27 12:00","1998","01","27","12:00","-11.0","","-16.6","","63","","6","","19","","24.1","","101.52","","","","-19","","Cloudy"
"1998-01-27 13:00","1998","01","27","13:00","-9.3","","-13.9","","69","","6","","19","","24.1","","101.42","","","","-17","","Cloudy"
"1998-01-27 14:00","1998","01","27","14:00","-8.6","","-13.5","","68","","6","","19","","24.1","","101.35","","","","-16","","Cloudy"
"1998-01-27 15:00","1998","01","27","15:00","-7.5","","-12.5","","67","","5","","17","","24.1","","101.28","","","","-14","","Cloudy"
"1998-01-27 16:00","1998","01","27","16:00","-7.5","","-12.2","","69","","5","","13","","24.1","","101.28","","","","-13","","Cloudy"
"1998-01-27 17:00","1998","01","27","17:00","-7.2","","-12.0","","69","","4","","13","","16.1","","101.32","","","","-13","","Cloudy"
"1998-01-27 18:00","1998","01","27","18:00","-7.3","","-11.2","","74","","6","","15","","6.4","","101.25","","","","-13","","Snow"
"1998-01-27 19:00","1998","01","27","19:00","-7.5","","-10.3","","80","","6","","11","","19.3","","101.25","","","","-13","","Cloudy"
"1998-01-27 20:00","1998","01","27","20:00","-8.5","","-11.1","","81","","5","","11","","19.3","","101.18","","","","-14","","Cloudy"
"1998-01-27 21:00","1998","01","27","21:00","-9.1","","-11.6","","82","","4","","11","","19.3","","101.11","","","","-15","","Mainly Clear"
"1998-01-27 22:00","1998","01","27","22:00","-9.6","","-12.1","","82","","4","","9","","19.3","","101.08","","","","-14","","Mostly Cloudy"
"1998-01-27 23:00","1998","01","27","23:00","-8.7","","-11.1","","83","","6","","7","","19.3","","101.08","","","","-13","","Cloudy"
"1998-01-28 00:00","1998","01","28","00:00"
"1998-01-28 01:00","1998","01","28","01:00"
"1998-01-28 02:00","1998","01","28","02:00"
"1998-01-28 03:00","1998","01","28","03:00"
"1998-01-28 04:00","1998","01","28","04:00"
"1998-01-28 05:00","1998","01","28","05:00"
"1998-01-28 06:00","1998","01","28","06:00","-8.7","","-11.4","","81","","6","","15","","19.3","","100.78","","","","-15","","Mainly Clear"
"1998-01-28 07:00","1998","01","28","07:00","-9.1","","-11.4","","83","","5","","13","","19.3","","100.68","","","","-15","","Mainly Clear"
"1998-01-28 08:00","1998","01","28","08:00","-9.3","","-11.7","","83","","5","","13","","12.9","","100.75","","","","-15","","Mostly Cloudy"
"1998-01-28 09:00","1998","01","28","09:00","-8.3","","-10.5","","84","","2","","13","","12.9","","100.78","","","","-14","","Cloudy"
"1998-01-28 10:00","1998","01","28","10:00","-6.3","","-8.9","","82","","2","","19","","12.9","","100.78","","","","-13","","Cloudy"
"1998-01-28 11:00","1998","01","28","11:00","-4.4","","-7.7","","78","","3","","15","","16.1","","100.71","","","","-10","","Mainly Clear"
"1998-01-28 12:00","1998","01","28","12:00","-2.2","","-6.9","","70","","2","","13","","16.1","","100.54","","","","-7","","Mainly Clear"
"1998-01-28 13:00","1998","01","28","13:00","-0.6","","-6.6","","64","","7","","9","","16.1","","100.48","","","","-4","","Mainly Clear"
"1998-01-28 14:00","1998","01","28","14:00","0.0","","-6.9","","60","","5","","9","","12.9","","100.34","","","","-3","","Mainly Clear"
"1998-01-28 15:00","1998","01","28","15:00","0.6","","-7.0","","57","","2","","19","","12.9","","100.31","","","","","","Mostly Cloudy"
"1998-01-28 16:00","1998","01","28","16:00","0.1","","-7.3","","57","","5","","9","","12.9","","100.31","","","","","","Mostly Cloudy"
"1998-01-28 17:00","1998","01","28","17:00","-0.8","","-7.9","","59","","7","","9","","12.9","","100.31","","","","-4","","Mostly Cloudy"
"1998-01-28 18:00","1998","01","28","18:00","-2.4","","-8.7","","62","","5","","9","","12.9","","100.31","","","","-6","","Mostly Cloudy"
"1998-01-28 19:00","1998","01","28","19:00","-3.3","","-8.8","","66","","1","","7","","16.1","","100.31","","","","-6","","Mostly Cloudy"
"1998-01-28 20:00","1998","01","28","20:00","-4.2","","-9.5","","67","","1","","9","","16.1","","100.28","","","","-8","","Cloudy"
"1998-01-28 21:00","1998","01","28","21:00","-4.9","","-9.1","","72","","2","","9","","16.1","","100.24","","","","-9","","Mostly Cloudy"
"1998-01-28 22:00","1998","01","28","22:00","-6.0","","-9.9","","74","","1","","9","","16.1","","100.21","","","","-10","","Mostly Cloudy"
"1998-01-28 23:00","1998","01","28","23:00","-6.8","","-10.3","","76","","3","","9","","16.1","","100.18","","","","-11","","Mostly Cloudy"
"1998-01-29 00:00","1998","01","29","00:00"
"1998-01-29 01:00","1998","01","29","01:00"
"1998-01-29 02:00","1998","01","29","02:00"
"1998-01-29 03:00","1998","01","29","03:00"
"1998-01-29 04:00","1998","01","29","04:00"
"1998-01-29 05:00","1998","01","29","05:00"
"1998-01-29 06:00","1998","01","29","06:00","-10.2","","-11.9","","87","","4","","7","","16.1","","100.07","","","","-14","","Clear"
"1998-01-29 07:00","1998","01","29","07:00","-10.0","","-11.7","","87","","3","","9","","16.1","","100.07","","","","-15","","Mainly Clear"
"1998-01-29 08:00","1998","01","29","08:00","-8.7","","-10.9","","84","","4","","11","","16.1","","100.11","","","","-14","","Mostly Cloudy"
"1998-01-29 09:00","1998","01","29","09:00","-7.6","","-9.1","","89","","8","","9","","12.9","","100.07","","","","-12","","Cloudy"
"1998-01-29 10:00","1998","01","29","10:00","-6.6","","-8.2","","88","","7","","9","","8.0","","100.04","","","","-11","","Fog"
"1998-01-29 11:00","1998","01","29","11:00","-5.5","","-7.6","","85","","6","","9","","8.0","","99.97","","","","-10","","Fog"
"1998-01-29 12:00","1998","01","29","12:00","-3.7","","-6.4","","81","","6","","9","","8.0","","99.87","","","","-7","","Fog"
"1998-01-29 13:00","1998","01","29","13:00","-2.0","","-5.1","","79","","","","0","","8.0","","99.81","","","","","","Fog"
"1998-01-29 14:00","1998","01","29","14:00","-1.4","","-5.6","","73","","","","0","","9.7","","99.71","","","","","","Fog"
"1998-01-29 15:00","1998","01","29","15:00","-0.9","","-5.8","","69","","5","","7","","8.0","","99.64","","","","-3","","Fog"
"1998-01-29 16:00","1998","01","29","16:00","-0.7","","-6.0","","67","","5","","15","","9.7","","99.57","","","","-5","","Fog"
"1998-01-29 17:00","1998","01","29","17:00","-0.6","","-5.9","","67","","4","","15","","6.4","","99.57","","","","-5","","Fog"
"1998-01-29 18:00","1998","01","29","18:00","-0.3","","-5.6","","67","","4","","19","","6.4","","99.54","","","","-5","","Fog"
"1998-01-29 19:00","1998","01","29","19:00","-0.8","","-5.4","","71","","6","","28","","4.8","","99.50","","","","-7","","Snow Showers"
"1998-01-29 20:00","1998","01","29","20:00","-1.7","","-4.0","","84","","5","","15","","3.2","","99.57","","","","-7","","Snow Showers"
"1998-01-29 21:00","1998","01","29","21:00","-2.1","","-3.6","","89","","5","","24","","4.0","","99.50","","","","-8","","Ice Pellet Showers,Snow Showers"
"1998-01-29 22:00","1998","01","29","22:00","-1.7","","-2.9","","91","","5","","28","","6.4","","99.47","","","","-8","","Freezing Rain,Snow"
"1998-01-29 23:00","1998","01","29","23:00","-2.1","","-3.3","","91","","7","","28","","3.2","","99.40","","","","-9","","Snow"
"1998-01-30 00:00","1998","01","30","00:00"
"1998-01-30 01:00","1998","01","30","01:00"
"1998-01-30 02:00","1998","01","30","02:00"
"1998-01-30 03:00","1998","01","30","03:00"
"1998-01-30 04:00","1998","01","30","04:00"
"1998-01-30 05:00","1998","01","30","05:00"
"1998-01-30 06:00","1998","01","30","06:00","-4.0","","-5.4","","90","","2","","19","","6.4","","99.37","","","","-10","","Snow"
"1998-01-30 07:00","1998","01","30","07:00","-4.0","","-5.5","","89","","1","","19","","6.4","","99.40","","","","-10","","Snow"
"1998-01-30 08:00","1998","01","30","08:00","-3.8","","-5.4","","89","","1","","19","","9.7","","99.54","","","","-10","","Snow"
"1998-01-30 09:00","1998","01","30","09:00","-3.7","","-5.2","","89","","1","","17","","3.2","","99.60","","","","-9","","Snow"
"1998-01-30 10:00","1998","01","30","10:00","-3.1","","-4.5","","90","","2","","11","","2.4","","99.64","","","","-7","","Snow"
"1998-01-30 11:00","1998","01","30","11:00","-2.7","","-4.2","","89","","1","","11","","2.4","","99.64","","","","-7","","Snow"
"1998-01-30 12:00","1998","01","30","12:00","-2.3","","-3.5","","91","","36","","9","","3.2","","99.64","","","","-6","","Snow"
"1998-01-30 13:00","1998","01","30","13:00","-1.5","","-2.7","","92","","33","","7","","6.4","","99.64","","","","-4","","Snow"
"1998-01-30 14:00","1998","01","30","14:00","-1.0","","-2.4","","90","","36","","11","","8.0","","99.64","","","","-5","","Snow"
"1998-01-30 15:00","1998","01","30","15:00","-0.8","","-2.4","","89","","33","","9","","2.4","","99.74","","","","-4","","Snow"
"1998-01-30 16:00","1998","01","30","16:00","-0.5","","-2.0","","90","","31","","7","","4.8","","99.77","","","","-3","","Snow"
"1998-01-30 17:00","1998","01","30","17:00","-0.3","","-2.0","","88","","33","","7","","6.4","","99.84","","","","-3","","Snow,Fog"
"1998-01-30 18:00","1998","01","30","18:00","-0.6","","-2.1","","90","","31","","7","","9.7","","99.91","","","","-3","","Snow"
"1998-01-30 19:00","1998","01","30","19:00","-0.7","","-2.4","","88","","31","","7","","9.7","","99.94","","","","-3","","Snow"
"1998-01-30 20:00","1998","01","30","20:00","-0.8","","-2.6","","88","","31","","9","","12.9","","100.01","","","","-4","","Snow"
"1998-01-30 21:00","1998","01","30","21:00","-0.8","","-2.6","","88","","31","","9","","16.1","","100.04","","","","-4","","Snow"
"1998-01-30 22:00","1998","01","30","22:00","-0.8","","-2.7","","87","","36","","11","","16.1","","100.11","","","","-5","","Snow"
"1998-01-30 23:00","1998","01","30","23:00","-1.0","","-3.3","","84","","32","","9","","16.1","","100.14","","","","-4","","Snow"
"1998-01-31 00:00","1998","01","31","00:00"
"1998-01-31 01:00","1998","01","31","01:00"
"1998-01-31 02:00","1998","01","31","02:00"
"1998-01-31 03:00","1998","01","31","03:00"
"1998-01-31 04:00","1998","01","31","04:00"
"1998-01-31 05:00","1998","01","31","05:00"
"1998-01-31 06:00","1998","01","31","06:00","-8.1","","-9.9","","87","","33","","11","","24.1","","100.48","","","","-13","","Clear"
"1998-01-31 07:00","1998","01","31","07:00","-9.1","","-10.9","","87","","33","","15","","24.1","","100.58","","","","-16","","Mainly Clear"
"1998-01-31 08:00","1998","01","31","08:00","-10.3","","-11.2","","93","","34","","11","","24.1","","100.64","","","","-16","","Mainly Clear"
"1998-01-31 09:00","1998","01","31","09:00","-8.8","","-9.6","","94","","32","","6","","24.1","","100.71","","","","-12","","Mainly Clear"
"1998-01-31 10:00","1998","01","31","10:00","-6.4","","-8.0","","88","","27","","7","","24.1","","100.78","","","","-10","","Mainly Clear"
"1998-01-31 11:00","1998","01","31","11:00","-3.1","","-4.5","","90","","28","","9","","24.1","","100.78","","","","-7","","Mainly Clear"
"1998-01-31 12:00","1998","01","31","12:00","-2.5","","-4.4","","87","","24","","9","","24.1","","100.78","","","","-6","","Mainly Clear"
"1998-01-31 13:00","1998","01","31","13:00","-2.3","","-5.6","","78","","24","","9","","24.1","","100.75","","","","-6","","Mostly Cloudy"
"1998-01-31 14:00","1998","01","31","14:00","-1.2","","-5.3","","74","","25","","13","","24.1","","100.75","","","","-5","","Mostly Cloudy"
"1998-01-31 15:00","1998","01","31","15:00","-0.5","","-4.6","","74","","26","","11","","24.1","","100.75","","","","-4","","Mostly Cloudy"
"1998-01-31 16:00","1998","01","31","16:00","0.2","","-3.7","","75","","24","","11","","24.1","","100.78","","","","","","Mostly Cloudy"
"1998-01-31 17:00","1998","01","31","17:00","-1.2","","-5.0","","75","","24","","9","","24.1","","100.78","","","","-4","","Mainly Clear"
"1998-01-31 18:00","1998","01","31","18:00","-2.4","","-5.8","","77","","23","","11","","24.1","","100.81","","","","-6","","Mainly Clear"
"1998-01-31 19:00","1998","01","31","19:00","-3.2","","-6.1","","80","","24","","9","","24.1","","100.81","","","","-7","","Mainly Clear"
"1998-01-31 20:00","1998","01","31","20:00","-4.3","","-7.0","","81","","25","","7","","24.1","","100.85","","","","-7","","Mainly Clear"
"1998-01-31 21:00","1998","01","31","21:00","-4.3","","-7.1","","81","","26","","7","","24.1","","100.85","","","","-7","","Mainly Clear"
"1998-01-31 22:00","1998","01","31","22:00","-4.1","","-6.6","","83","","25","","7","","24.1","","100.88","","","","-7","","Mostly Cloudy"
"1998-01-31 23:00","1998","01","31","23:00","-3.0","","-5.3","","84","","","","0","","24.1","","100.88","","","","","","Cloudy"
