"Station Name","KINGSTON A"
"Province","ONTARIO"
"Latitude","44.22"
"Longitude","-76.60"
"Elevation","92.40"
"Climate Identifier","6104146"
"WMO Identifier",""
"TC Identifier","YGK"
"All times are specified in Local Standard Time (LST). Add 1 hour to adjust for Daylight Saving Time where and when it is observed."

"Legend"
"E","Estimated"
"M","Missing"
"NA","Not Available"

"Date/Time","Year","Month","Day","Time","Temp (°C)","Temp Flag","Dew Point Temp (°C)","Dew Point Temp Flag","Rel Hum (%)","Rel Hum Flag","Wind Dir (10s deg)","Wind Dir Flag","Wind Spd (km/h)","Wind Spd Flag","Visibility (km)","Visibility Flag","Stn Press (kPa)","Stn Press Flag","Hmdx","Hmdx Flag","Wind Chill","Wind Chill Flag","Weather"
"2002-06-01 00:00","2002","06","01","00:00"
"2002-06-01 01:00","2002","06","01","01:00"
"2002-06-01 02:00","2002","06","01","02:00"
"2002-06-01 03:00","2002","06","01","03:00"
"2002-06-01 04:00","2002","06","01","04:00"
"2002-06-01 05:00","2002","06","01","05:00","15.3","","9.6","","69","","24","","20","","24.1","","99.01","","","","","","Mostly Cloudy"
"2002-06-01 06:00","2002","06","01","06:00","14.9","","10.0","","72","","24","","15","","24.1","","99.02","","","","","","Mainly Clear"
"2002-06-01 07:00","2002","06","01","07:00","16.1","","10.3","","68","","25","","19","","24.1","","99.00","","","","","","Mainly Clear"
"2002-06-01 08:00","2002","06","01","08:00","17.4","","10.6","","64","","25","","20","","24.1","","98.97","","","","","","Clear"
"2002-06-01 09:00","2002","06","01","09:00","18.3","","11.0","","62","","25","","17","","24.1","","98.96","","","","","","Clear"
"2002-06-01 10:00","2002","06","01","10:00","19.7","","11.1","","58","","25","","22","","24.1","","98.93","","","","","","Mostly Cloudy"
"2002-06-01 11:00","2002","06","01","11:00","19.6","","11.5","","59","","25","","24","","24.1","","98.91","","","","","","Mostly Cloudy"
"2002-06-01 12:00","2002","06","01","12:00","24.2","","5.9","","31","","27","","35","","24.1","","98.87","","","","","","Mostly Cloudy"
"2002-06-01 13:00","2002","06","01","13:00","25.3","","6.4","","30","","28","","41","","24.1","","98.85","","25","","","","Mostly Cloudy"
"2002-06-01 14:00","2002","06","01","14:00","25.5","","5.9","","28","","27","","30","","24.1","","98.82","","25","","","","Mainly Clear"
"2002-06-01 15:00","2002","06","01","15:00","25.8","","6.1","","28","","27","","33","","24.1","","98.78","","25","","","","Mainly Clear"
"2002-06-01 16:00","2002","06","01","16:00","25.6","","6.2","","29","","28","","37","","24.1","","98.82","","25","","","","Mostly Cloudy"
"2002-06-01 17:00","2002","06","01","17:00","24.6","","5.9","","30","","28","","33","","24.1","","98.84","","","","","","Mostly Cloudy"
"2002-06-01 18:00","2002","06","01","18:00","23.9","","6.5","","33","","27","","26","","24.1","","98.82","","","","","","Mainly Clear"
"2002-06-01 19:00","2002","06","01","19:00","22.3","","7.4","","38","","27","","19","","24.1","","98.80","","","","","","Mainly Clear"
"2002-06-01 20:00","2002","06","01","20:00","21.8","","7.1","","39","","27","","20","","24.1","","98.80","","","","","","Mostly Cloudy"
"2002-06-01 21:00","2002","06","01","21:00","20.9","","7.8","","43","","28","","22","","24.1","","98.82","","","","","","Mostly Cloudy"
"2002-06-01 22:00","2002","06","01","22:00","18.7","","4.8","","40","","27","","26","","24.1","","98.94","","","","","","Rain Showers"
"2002-06-01 23:00","2002","06","01","23:00"
"2002-06-02 00:00","2002","06","02","00:00"
"2002-06-02 01:00","2002","06","02","01:00"
"2002-06-02 02:00","2002","06","02","02:00"
"2002-06-02 03:00","2002","06","02","03:00"
"2002-06-02 04:00","2002","06","02","04:00"
"2002-06-02 05:00","2002","06","02","05:00","13.1","","5.9","","62","","34","","17","","24.1","","99.08","","","","","","Mostly Cloudy"
"2002-06-02 06:00","2002","06","02","06:00","13.2","","3.5","","52","","33","","15","","24.1","","99.20","","","","","","Mostly Cloudy"
"2002-06-02 07:00","2002","06","02","07:00","12.9","","2.5","","49","","33","","30","","24.1","","99.32","","","","","","Mainly Clear"
"2002-06-02 08:00","2002","06","02","08:00","13.8","","3.2","","49","","34","","22","","24.1","","99.41","","","","","","Mainly Clear"
"2002-06-02 09:00","2002","06","02","09:00","13.9","","2.7","","47","","30","","15","","24.1","","99.46","","","","","","Mainly Clear"
"2002-06-02 10:00","2002","06","02","10:00","14.8","","3.8","","48","","34","","19","","24.1","","99.53","","","","","","Mostly Cloudy"
"2002-06-02 11:00","2002","06","02","11:00","15.2","","4.1","","47","","34","","24","","24.1","","99.61","","","","","","Mostly Cloudy"
"2002-06-02 12:00","2002","06","02","12:00","16.0","","3.8","","44","","31","","20","","24.1","","99.64","","","","","","Mostly Cloudy"
"2002-06-02 13:00","2002","06","02","13:00","16.1","","4.1","","45","","32","","13","","24.1","","99.63","","","","","","Mostly Cloudy"
"2002-06-02 14:00","2002","06","02","14:00","17.5","","4.0","","41","","32","","17","","24.1","","99.64","","","","","","Mainly Clear"
"2002-06-02 15:00","2002","06","02","15:00","17.5","","3.0","","38","","36","","11","","24.1","","99.66","","","","","","Mainly Clear"
"2002-06-02 16:00","2002","06","02","16:00","17.9","","2.1","","35","","32","","13","","24.1","","99.67","","","","","","Mainly Clear"
"2002-06-02 17:00","2002","06","02","17:00","18.1","","2.2","","34","","34","","11","","24.1","","99.72","","","","","","Mainly Clear"
"2002-06-02 18:00","2002","06","02","18:00","17.6","","2.4","","36","","35","","22","","24.1","","99.78","","","","","","Mainly Clear"
"2002-06-02 19:00","2002","06","02","19:00","16.6","","2.5","","39","","34","","19","","24.1","","99.84","","","","","","Mainly Clear"
"2002-06-02 20:00","2002","06","02","20:00","14.5","","2.1","","43","","36","","11","","24.1","","99.91","","","","","","Mainly Clear"
"2002-06-02 21:00","2002","06","02","21:00","12.5","","1.6","","47","","36","","13","","24.1","","100.00","","","","","","Mainly Clear"
"2002-06-02 22:00","2002","06","02","22:00","11.5","","1.2","","49","","35","","13","","24.1","","100.07","","","","","","Mainly Clear"
"2002-06-02 23:00","2002","06","02","23:00"
"2002-06-03 00:00","2002","06","03","00:00"
"2002-06-03 01:00","2002","06","03","01:00"
"2002-06-03 02:00","2002","06","03","02:00"
"2002-06-03 03:00","2002","06","03","03:00"
"2002-06-03 04:00","2002","06","03","04:00"
"2002-06-03 05:00","2002","06","03","05:00","5.1","","1.4","","77","","33","","6","","24.1","","100.59","","","","","","Mainly Clear"
"2002-06-03 06:00","2002","06","03","06:00","7.6","","2.0","","68","","35","","9","","24.1","","100.73","","","","","","Mainly Clear"
"2002-06-03 07:00","2002","06","03","07:00","9.2","","1.3","","58","","1","","15","","24.1","","100.79","","","","","","Mostly Cloudy"
"2002-06-03 08:00","2002","06","03","08:00","10.0","","0.8","","53","","36","","11","","24.1","","100.85","","","","","","Mostly Cloudy"
"2002-06-03 09:00","2002","06","03","09:00","10.8","","1.5","","53","","26","","7","","24.1","","100.86","","","","","","Mostly Cloudy"
"2002-06-03 10:00","2002","06","03","10:00","11.6","","2.0","","52","","33","","9","","24.1","","100.91","","","","","","Mostly Cloudy"
"2002-06-03 11:00","2002","06","03","11:00","11.1","","4.1","","62","","19","","20","","24.1","","100.92","","","","","","Cloudy"
"2002-06-03 12:00","2002","06","03","12:00","11.2","","4.2","","62","","20","","17","","24.1","","100.90","","","","","","Mostly Cloudy"
"2002-06-03 13:00","2002","06","03","13:00","11.8","","5.5","","65","","20","","17","","24.1","","100.84","","","","","","Mostly Cloudy"
"2002-06-03 14:00","2002","06","03","14:00","12.7","","5.7","","62","","21","","17","","24.1","","100.82","","","","","","Mostly Cloudy"
"2002-06-03 15:00","2002","06","03","15:00","12.3","","5.8","","64","","20","","19","","24.1","","100.85","","","","","","Mostly Cloudy"
"2002-06-03 16:00","2002","06","03","16:00","12.0","","6.6","","69","","20","","20","","24.1","","100.82","","","","","","Mostly Cloudy"
"2002-06-03 17:00","2002","06","03","17:00","11.4","","6.5","","72","","20","","17","","24.1","","100.80","","","","","","Mostly Cloudy"
"2002-06-03 18:00","2002","06","03","18:00","12.2","","7.2","","71","","21","","11","","24.1","","100.79","","","","","","Mainly Clear"
"2002-06-03 19:00","2002","06","03","19:00","12.4","","5.7","","64","","25","","7","","24.1","","100.80","","","","","","Mainly Clear"
"2002-06-03 20:00","2002","06","03","20:00","11.0","","5.2","","67","","23","","11","","24.1","","100.82","","","","","","Mainly Clear"
"2002-06-03 21:00","2002","06","03","21:00","10.5","","5.8","","73","","24","","9","","24.1","","100.89","","","","","","Mainly Clear"
"2002-06-03 22:00","2002","06","03","22:00","10.0","","5.9","","76","","27","","6","","24.1","","100.96","","","","","","Clear"
"2002-06-03 23:00","2002","06","03","23:00"
"2002-06-04 00:00","2002","06","04","00:00"
"2002-06-04 01:00","2002","06","04","01:00"
"2002-06-04 02:00","2002","06","04","02:00"
"2002-06-04 03:00","2002","06","04","03:00"
"2002-06-04 04:00","2002","06","04","04:00"
"2002-06-04 05:00","2002","06","04","05:00","4.5","","3.2","","91","","36","","6","","24.1","","100.96","","","","","","Mainly Clear"
"2002-06-04 06:00","2002","06","04","06:00","8.1","","6.3","","88","","4","","6","","24.1","","100.93","","","","","","Mainly Clear"
"2002-06-04 07:00","2002","06","04","07:00","11.0","","6.5","","74","","7","","11","","24.1","","100.93","","","","","","Mostly Cloudy"
"2002-06-04 08:00","2002","06","04","08:00","12.9","","6.8","","66","","9","","7","","24.1","","100.92","","","","","","Mostly Cloudy"
"2002-06-04 09:00","2002","06","04","09:00","14.4","","6.4","","59","","13","","13","","24.1","","100.87","","","","","","Cloudy"
"2002-06-04 10:00","2002","06","04","10:00","15.1","","7.0","","58","","9","","11","","24.1","","100.78","","","","","","Cloudy"
"2002-06-04 11:00","2002","06","04","11:00","17.0","","7.7","","54","","9","","9","","24.1","","100.72","","","","","","Mostly Cloudy"
"2002-06-04 12:00","2002","06","04","12:00","18.9","","8.1","","49","","11","","11","","24.1","","100.60","","","","","","Cloudy"
"2002-06-04 13:00","2002","06","04","13:00","18.3","","8.7","","53","","14","","6","","24.1","","100.56","","","","","","Cloudy"
"2002-06-04 14:00","2002","06","04","14:00","18.0","","8.0","","52","","13","","11","","24.1","","100.45","","","","","","Cloudy"
"2002-06-04 15:00","2002","06","04","15:00","16.3","","10.3","","68","","22","","7","","16.1","","100.55","","","","","","Rain Showers"
"2002-06-04 16:00","2002","06","04","16:00","13.9","","11.2","","84","","","","0","","19.3","","100.49","","","","","","Cloudy"
"2002-06-04 17:00","2002","06","04","17:00","14.9","","12.3","","84","","6","","7","","24.1","","100.39","","","","","","Cloudy"
"2002-06-04 18:00","2002","06","04","18:00","15.7","","12.4","","81","","11","","17","","24.1","","100.30","","","","","","Cloudy"
"2002-06-04 19:00","2002","06","04","19:00","15.8","","12.7","","82","","10","","15","","19.3","","100.25","","","","","","Rain Showers"
"2002-06-04 20:00","2002","06","04","20:00","15.3","","13.4","","88","","9","","11","","16.1","","100.17","","","","","","Rain Showers"
"2002-06-04 21:00","2002","06","04","21:00","15.2","","14.0","","93","","9","","9","","19.3","","100.11","","","","","","Rain Showers"
"2002-06-04 22:00","2002","06","04","22:00","15.7","","14.2","","91","","11","","7","","16.1","","100.05","","","","","","Rain Showers"
"2002-06-04 23:00","2002","06","04","23:00"
"2002-06-05 00:00","2002","06","05","00:00"
"2002-06-05 01:00","2002","06","05","01:00"
"2002-06-05 02:00","2002","06","05","02:00"
"2002-06-05 03:00","2002","06","05","03:00"
"2002-06-05 04:00","2002","06","05","04:00"
"2002-06-05 05:00","2002","06","05","05:00","12.2","","11.7","","97","","22","","11","","0.4","","99.90","","","","","","Fog"
"2002-06-05 06:00","2002","06","05","06:00","12.0","","11.6","","97","","22","","4","","0.4","","99.90","","","","","","Fog"
"2002-06-05 07:00","2002","06","05","07:00","12.8","","12.3","","97","","20","","6","","0.6","","99.94","","","","","","Rain Showers,Fog"
"2002-06-05 08:00","2002","06","05","08:00","12.2","","11.8","","97","","17","","9","","2.4","","99.89","","","","","","Rain Showers,Fog"
"2002-06-05 09:00","2002","06","05","09:00","12.4","","12.0","","97","","19","","11","","2.4","","99.91","","","","","","Rain Showers,Fog"
"2002-06-05 10:00","2002","06","05","10:00","14.1","","13.7","","97","","21","","9","","1.6","","99.91","","","","","","Fog"
"2002-06-05 11:00","2002","06","05","11:00","13.0","","13.0","","100","","19","","9","","0.6","","99.83","","","","","","Fog"
"2002-06-05 12:00","2002","06","05","12:00","13.2","","13.1","","99","","18","","6","","0.8","","99.79","","","","","","Fog"
"2002-06-05 13:00","2002","06","05","13:00","17.0","","16.5","","97","","24","","6","","3.2","","99.76","","","","","","Fog"
"2002-06-05 14:00","2002","06","05","14:00","16.1","","15.6","","97","","24","","9","","2.4","","99.79","","","","","","Rain Showers,Fog"
"2002-06-05 15:00","2002","06","05","15:00","19.2","","17.7","","91","","25","","15","","4.8","","99.71","","","","","","Fog"
"2002-06-05 16:00","2002","06","05","16:00","19.0","","17.1","","89","","26","","15","","4.8","","99.80","","","","","","Fog"
"2002-06-05 17:00","2002","06","05","17:00","20.0","","17.4","","85","","25","","13","","8.0","","99.74","","26","","","","Fog"
"2002-06-05 18:00","2002","06","05","18:00","19.7","","17.3","","86","","25","","11","","8.0","","99.78","","","","","","Fog"
"2002-06-05 19:00","2002","06","05","19:00","18.6","","16.5","","88","","3","","24","","16.1","","99.84","","","","","","Rain Showers"
"2002-06-05 20:00","2002","06","05","20:00","15.8","","13.8","","88","","2","","19","","24.1","","99.93","","","","","","Cloudy"
"2002-06-05 21:00","2002","06","05","21:00","15.5","","12.6","","83","","2","","15","","24.1","","100.04","","","","","","Cloudy"
"2002-06-05 22:00","2002","06","05","22:00","15.1","","12.0","","82","","4","","15","","24.1","","100.11","","","","","","Cloudy"
"2002-06-05 23:00","2002","06","05","23:00"
"2002-06-06 00:00","2002","06","06","00:00"
"2002-06-06 01:00","2002","06","06","01:00"
"2002-06-06 02:00","2002","06","06","02:00"
"2002-06-06 03:00","2002","06","06","03:00"
"2002-06-06 04:00","2002","06","06","04:00"
"2002-06-06 05:00","2002","06","06","05:00","12.9","","9.9","","82","","2","","15","","24.1","","100.31","","","","","","Cloudy"
"2002-06-06 06:00","2002","06","06","06:00","13.1","","9.6","","79","","2","","11","","24.1","","100.40","","","","","","Cloudy"
"2002-06-06 07:00","2002","06","06","07:00","13.8","","8.9","","72","","4","","15","","24.1","","100.48","","","","","","Mostly Cloudy"
"2002-06-06 08:00","2002","06","06","08:00","14.9","","9.0","","68","","4","","15","","24.1","","100.53","","","","","","Cloudy"
"2002-06-06 09:00","2002","06","06","09:00","16.5","","9.6","","64","","3","","19","","24.1","","100.55","","","","","","Cloudy"
"2002-06-06 10:00","2002","06","06","10:00","17.1","","9.2","","60","","3","","22","","24.1","","100.58","","","","","","Cloudy"
"2002-06-06 11:00","2002","06","06","11:00","18.6","","10.0","","57","","5","","19","","24.1","","100.61","","","","","","Cloudy"
"2002-06-06 12:00","2002","06","06","12:00","18.3","","8.4","","52","","4","","15","","24.1","","100.63","","","","","","Cloudy"
"2002-06-06 13:00","2002","06","06","13:00","18.9","","8.2","","50","","5","","17","","24.1","","100.61","","","","","","Cloudy"
"2002-06-06 14:00","2002","06","06","14:00","18.1","","7.9","","51","","5","","11","","24.1","","100.62","","","","","","Cloudy"
"2002-06-06 15:00","2002","06","06","15:00","18.2","","8.2","","52","","3","","11","","24.1","","100.60","","","","","","Cloudy"
"2002-06-06 16:00","2002","06","06","16:00","17.9","","8.1","","53","","4","","13","","24.1","","100.64","","","","","","Cloudy"
"2002-06-06 17:00","2002","06","06","17:00","17.4","","8.2","","55","","5","","15","","24.1","","100.63","","","","","","Cloudy"
"2002-06-06 18:00","2002","06","06","18:00","17.0","","8.2","","56","","1","","13","","24.1","","100.64","","","","","","Cloudy"
"2002-06-06 19:00","2002","06","06","19:00","16.4","","7.8","","57","","2","","7","","24.1","","100.67","","","","","","Cloudy"
"2002-06-06 20:00","2002","06","06","20:00","15.3","","6.8","","57","","2","","9","","24.1","","100.71","","","","","","Mostly Cloudy"
"2002-06-06 21:00","2002","06","06","21:00","14.1","","6.9","","62","","2","","7","","24.1","","100.77","","","","","","Mostly Cloudy"
"2002-06-06 22:00","2002","06","06","22:00","13.0","","6.7","","66","","2","","6","","24.1","","100.85","","","","","","Mostly Cloudy"
"2002-06-06 23:00","2002","06","06","23:00"
"2002-06-07 00:00","2002","06","07","00:00"
"2002-06-07 01:00","2002","06","07","01:00"
"2002-06-07 02:00","2002","06","07","02:00"
"2002-06-07 03:00","2002","06","07","03:00"
"2002-06-07 04:00","2002","06","07","04:00"
"2002-06-07 05:00","2002","06","07","05:00","6.9","","4.2","","83","","1","","9","","24.1","","101.01","","","","","","Mostly Cloudy"
"2002-06-07 06:00","2002","06","07","06:00","8.8","","5.8","","81","","36","","11","","24.1","","101.09","","","","","","Mainly Clear"
"2002-06-07 07:00","2002","06","07","07:00","12.5","","5.5","","62","","4","","11","","24.1","","101.12","","","","","","Mainly Clear"
"2002-06-07 08:00","2002","06","07","08:00","14.4","","7.2","","62","","6","","7","","24.1","","101.18","","","","","","Mainly Clear"
"2002-06-07 09:00","2002","06","07","09:00","14.9","","9.9","","72","","6","","6","","24.1","","101.22","","","","","","Mainly Clear"
"2002-06-07 10:00","2002","06","07","10:00","17.2","","8.4","","56","","13","","11","","24.1","","101.23","","","","","","Mainly Clear"
"2002-06-07 11:00","2002","06","07","11:00","18.8","","5.5","","42","","12","","11","","24.1","","101.25","","","","","","Mostly Cloudy"
"2002-06-07 12:00","2002","06","07","12:00","18.4","","6.7","","46","","14","","13","","24.1","","101.20","","","","","","Mostly Cloudy"
"2002-06-07 13:00","2002","06","07","13:00","19.0","","7.2","","46","","17","","11","","24.1","","101.18","","","","","","Mostly Cloudy"
"2002-06-07 14:00","2002","06","07","14:00","18.3","","10.3","","60","","16","","13","","24.1","","101.13","","","","","","Mainly Clear"
"2002-06-07 15:00","2002","06","07","15:00","20.1","","5.8","","39","","21","","13","","24.1","","101.14","","","","","","Mainly Clear"
"2002-06-07 16:00","2002","06","07","16:00","20.4","","6.9","","42","","20","","11","","24.1","","101.13","","","","","","Mainly Clear"
"2002-06-07 17:00","2002","06","07","17:00","20.5","","5.9","","39","","21","","7","","24.1","","101.11","","","","","","Mainly Clear"
"2002-06-07 18:00","2002","06","07","18:00","18.2","","7.5","","50","","19","","7","","24.1","","101.11","","","","","","Mostly Cloudy"
"2002-06-07 19:00","2002","06","07","19:00","17.9","","8.3","","53","","25","","7","","24.1","","101.12","","","","","","Mostly Cloudy"
"2002-06-07 20:00","2002","06","07","20:00","17.0","","7.8","","55","","27","","7","","24.1","","101.11","","","","","","Cloudy"
"2002-06-07 21:00","2002","06","07","21:00","16.0","","6.9","","55","","25","","6","","24.1","","101.09","","","","","","Mostly Cloudy"
"2002-06-07 22:00","2002","06","07","22:00","15.4","","6.6","","56","","","","0","","24.1","","101.11","","","","","","Mainly Clear"
"2002-06-07 23:00","2002","06","07","23:00"
"2002-06-08 00:00","2002","06","08","00:00"
"2002-06-08 01:00","2002","06","08","01:00"
"2002-06-08 02:00","2002","06","08","02:00"
"2002-06-08 03:00","2002","06","08","03:00"
"2002-06-08 04:00","2002","06","08","04:00"
"2002-06-08 05:00","2002","06","08","05:00","10.6","","8.2","","85","","","","0","","24.1","","101.12","","","","","","Mostly Cloudy"
"2002-06-08 06:00","2002","06","08","06:00","13.2","","11.4","","89","","17","","6","","24.1","","101.11","","","","","","Mainly Clear"
"2002-06-08 07:00","2002","06","08","07:00","13.7","","11.5","","87","","18","","13","","24.1","","101.06","","","","","","Mostly Cloudy"
"2002-06-08 08:00","2002","06","08","08:00","14.1","","10.8","","81","","18","","13","","24.1","","101.11","","","","","","Mostly Cloudy"
"2002-06-08 09:00","2002","06","08","09:00","14.9","","11.9","","82","","20","","13","","24.1","","101.10","","","","","","Mostly Cloudy"
"2002-06-08 10:00","2002","06","08","10:00","14.7","","11.8","","83","","20","","19","","24.1","","101.11","","","","","","Cloudy"
"2002-06-08 11:00","2002","06","08","11:00","14.7","","11.2","","80","","19","","19","","24.1","","101.09","","","","","","Cloudy"
"2002-06-08 12:00","2002","06","08","12:00","15.3","","11.3","","77","","20","","19","","24.1","","101.04","","","","","","Cloudy"
"2002-06-08 13:00","2002","06","08","13:00","14.7","","11.6","","82","","20","","13","","24.1","","100.99","","","","","","Cloudy"
"2002-06-08 14:00","2002","06","08","14:00","15.1","","11.6","","80","","18","","11","","24.1","","100.96","","","","","","Cloudy"
"2002-06-08 15:00","2002","06","08","15:00","15.7","","12.0","","79","","17","","7","","24.1","","100.92","","","","","","Mostly Cloudy"
"2002-06-08 16:00","2002","06","08","16:00","17.2","","12.5","","74","","17","","9","","24.1","","100.86","","","","","","Mostly Cloudy"
"2002-06-08 17:00","2002","06","08","17:00","16.8","","12.6","","76","","17","","9","","24.1","","100.80","","","","","","Mostly Cloudy"
"2002-06-08 18:00","2002","06","08","18:00","16.6","","12.3","","76","","19","","15","","24.1","","100.68","","","","","","Rain Showers"
"2002-06-08 19:00","2002","06","08","19:00","17.2","","11.9","","71","","21","","15","","24.1","","100.70","","","","","","Cloudy"
"2002-06-08 20:00","2002","06","08","20:00","17.9","","12.2","","69","","25","","7","","24.1","","100.70","","","","","","Cloudy"
"2002-06-08 21:00","2002","06","08","21:00","17.4","","12.1","","71","","25","","4","","24.1","","100.70","","","","","","Cloudy"
"2002-06-08 22:00","2002","06","08","22:00","17.6","","12.0","","70","","23","","6","","24.1","","100.68","","","","","","Cloudy"
"2002-06-08 23:00","2002","06","08","23:00"
"2002-06-09 00:00","2002","06","09","00:00"
"2002-06-09 01:00","2002","06","09","01:00"
"2002-06-09 02:00","2002","06","09","02:00"
"2002-06-09 03:00","2002","06","09","03:00"
"2002-06-09 04:00","2002","06","09","04:00"
"2002-06-09 05:00","2002","06","09","05:00","15.4","","13.9","","91","","23","","7","","12.9","","100.71","","","","","","Rain Showers"
"2002-06-09 06:00","2002","06","09","06:00","15.2","","14.1","","93","","21","","7","","11.3","","100.76","","","","","","Mostly Cloudy"
"2002-06-09 07:00","2002","06","09","07:00","14.8","","13.6","","93","","20","","9","","8.0","","100.74","","","","","","Fog"
"2002-06-09 08:00","2002","06","09","08:00","16.3","","14.6","","90","","23","","9","","8.0","","100.71","","","","","","Fog"
"2002-06-09 09:00","2002","06","09","09:00","17.1","","14.9","","87","","17","","11","","8.0","","100.64","","","","","","Fog"
"2002-06-09 10:00","2002","06","09","10:00","19.0","","15.6","","81","","22","","11","","8.0","","100.66","","","","","","Fog"
"2002-06-09 11:00","2002","06","09","11:00","18.5","","15.4","","82","","18","","11","","12.9","","100.66","","","","","","Mainly Clear"
"2002-06-09 12:00","2002","06","09","12:00","18.6","","14.8","","79","","21","","15","","24.1","","100.67","","","","","","Mainly Clear"
"2002-06-09 13:00","2002","06","09","13:00","18.5","","14.9","","80","","20","","11","","16.1","","100.64","","","","","","Cloudy"
"2002-06-09 14:00","2002","06","09","14:00","20.0","","15.8","","77","","19","","13","","24.1","","100.62","","","","","","Mostly Cloudy"
"2002-06-09 15:00","2002","06","09","15:00","20.5","","15.5","","73","","20","","13","","24.1","","100.57","","25","","","","Mostly Cloudy"
"2002-06-09 16:00","2002","06","09","16:00","19.1","","14.7","","76","","22","","9","","24.1","","100.55","","","","","","Mostly Cloudy"
"2002-06-09 17:00","2002","06","09","17:00","21.1","","16.4","","75","","27","","7","","19.3","","100.56","","26","","","","Mostly Cloudy"
"2002-06-09 18:00","2002","06","09","18:00","23.8","","14.7","","57","","6","","17","","24.1","","100.61","","28","","","","Mostly Cloudy"
"2002-06-09 19:00","2002","06","09","19:00","22.5","","11.8","","51","","4","","17","","24.1","","100.67","","25","","","","Mainly Clear"
"2002-06-09 20:00","2002","06","09","20:00","20.9","","10.6","","52","","3","","15","","24.1","","100.73","","","","","","Mainly Clear"
"2002-06-09 21:00","2002","06","09","21:00","19.3","","10.4","","56","","4","","9","","24.1","","100.80","","","","","","Mainly Clear"
"2002-06-09 22:00","2002","06","09","22:00","18.0","","10.3","","61","","3","","9","","24.1","","100.82","","","","","","Mainly Clear"
"2002-06-09 23:00","2002","06","09","23:00"
"2002-06-10 00:00","2002","06","10","00:00"
"2002-06-10 01:00","2002","06","10","01:00"
"2002-06-10 02:00","2002","06","10","02:00"
"2002-06-10 03:00","2002","06","10","03:00"
"2002-06-10 04:00","2002","06","10","04:00"
"2002-06-10 05:00","2002","06","10","05:00","10.9","","8.4","","85","","2","","6","","24.1","","100.93","","","","","","Mainly Clear"
"2002-06-10 06:00","2002","06","10","06:00","14.6","","9.0","","69","","4","","6","","24.1","","100.98","","","","","","Mainly Clear"
"2002-06-10 07:00","2002","06","10","07:00","17.0","","9.9","","63","","9","","7","","24.1","","101.04","","","","","","Mainly Clear"
"2002-06-10 08:00","2002","06","10","08:00","18.2","","9.2","","56","","11","","11","","24.1","","101.06","","","","","","Mostly Cloudy"
"2002-06-10 09:00","2002","06","10","09:00","19.0","","8.0","","49","","11","","11","","24.1","","101.06","","","","","","Mostly Cloudy"
"2002-06-10 10:00","2002","06","10","10:00","18.2","","9.3","","56","","15","","13","","24.1","","101.06","","","","","","Mainly Clear"
"2002-06-10 11:00","2002","06","10","11:00","18.8","","8.3","","50","","15","","6","","24.1","","101.02","","","","","","Mainly Clear"
"2002-06-10 12:00","2002","06","10","12:00","19.6","","9.2","","51","","14","","13","","24.1","","101.00","","","","","","Mainly Clear"
"2002-06-10 13:00","2002","06","10","13:00","19.6","","9.5","","52","","15","","13","","24.1","","100.96","","","","","","Mainly Clear"
"2002-06-10 14:00","2002","06","10","14:00","20.3","","9.1","","49","","21","","9","","24.1","","100.89","","","","","","Mainly Clear"
"2002-06-10 15:00","2002","06","10","15:00","20.5","","9.2","","48","","19","","11","","24.1","","100.81","","","","","","Mainly Clear"
"2002-06-10 16:00","2002","06","10","16:00","20.3","","10.4","","53","","16","","9","","24.1","","100.74","","","","","","Mainly Clear"
"2002-06-10 17:00","2002","06","10","17:00","21.1","","9.4","","47","","12","","17","","24.1","","100.63","","","","","","Mostly Cloudy"
"2002-06-10 18:00","2002","06","10","18:00","20.8","","8.7","","46","","10","","13","","24.1","","100.59","","","","","","Mostly Cloudy"
"2002-06-10 19:00","2002","06","10","19:00","20.1","","8.3","","47","","12","","7","","24.1","","100.59","","","","","","Mostly Cloudy"
"2002-06-10 20:00","2002","06","10","20:00","19.6","","7.7","","46","","11","","9","","24.1","","100.54","","","","","","Cloudy"
"2002-06-10 21:00","2002","06","10","21:00","19.0","","8.3","","50","","12","","9","","24.1","","100.51","","","","","","Cloudy"
"2002-06-10 22:00","2002","06","10","22:00","18.6","","9.3","","55","","9","","6","","24.1","","100.47","","","","","","Cloudy"
"2002-06-10 23:00","2002","06","10","23:00"
"2002-06-11 00:00","2002","06","11","00:00"
"2002-06-11 01:00","2002","06","11","01:00"
"2002-06-11 02:00","2002","06","11","02:00"
"2002-06-11 03:00","2002","06","11","03:00"
"2002-06-11 04:00","2002","06","11","04:00"
"2002-06-11 05:00","2002","06","11","05:00","16.9","","12.7","","76","","5","","6","","24.1","","100.09","","","","","","Mostly Cloudy"
"2002-06-11 06:00","2002","06","11","06:00","16.4","","14.1","","86","","14","","13","","24.1","","100.02","","","","","","Mostly Cloudy"
"2002-06-11 07:00","2002","06","11","07:00","16.6","","14.7","","89","","16","","13","","24.1","","99.98","","","","","","Mostly Cloudy"
"2002-06-11 08:00","2002","06","11","08:00","16.9","","14.6","","86","","19","","15","","9.7","","99.96","","","","","","Haze"
"2002-06-11 09:00","2002","06","11","09:00","17.8","","15.3","","85","","20","","15","","9.7","","99.92","","","","","","Haze"
"2002-06-11 10:00","2002","06","11","10:00","17.9","","15.7","","87","","18","","9","","9.7","","99.87","","","","","","Haze"
"2002-06-11 11:00","2002","06","11","11:00","18.6","","15.7","","83","","20","","11","","9.7","","99.83","","","","","","Haze"
"2002-06-11 12:00","2002","06","11","12:00","25.6","","19.8","","70","","24","","22","","9.7","","99.76","","33","","","","Haze"
"2002-06-11 13:00","2002","06","11","13:00","27.4","","19.6","","62","","24","","24","","9.7","","99.67","","35","","","","Haze"
"2002-06-11 14:00","2002","06","11","14:00","26.7","","19.2","","63","","25","","19","","12.9","","99.65","","34","","","","Mostly Cloudy"
"2002-06-11 15:00","2002","06","11","15:00","27.9","","18.6","","57","","26","","22","","24.1","","99.58","","34","","","","Mostly Cloudy"
"2002-06-11 16:00","2002","06","11","16:00","28.1","","18.1","","55","","24","","30","","12.9","","99.56","","34","","","","Mostly Cloudy"
"2002-06-11 17:00","2002","06","11","17:00","27.4","","17.1","","53","","24","","26","","16.1","","99.47","","33","","","","Cloudy"
"2002-06-11 18:00","2002","06","11","18:00","26.4","","15.9","","52","","24","","22","","19.3","","99.43","","31","","","","Cloudy"
"2002-06-11 19:00","2002","06","11","19:00","24.3","","15.7","","59","","26","","13","","19.3","","99.42","","29","","","","Mostly Cloudy"
"2002-06-11 20:00","2002","06","11","20:00","17.5","","15.5","","88","","6","","20","","19.3","","99.51","","","","","","Cloudy"
"2002-06-11 21:00","2002","06","11","21:00","16.0","","14.7","","92","","5","","22","","16.1","","99.58","","","","","","Rain Showers"
"2002-06-11 22:00","2002","06","11","22:00","14.9","","14.1","","95","","6","","13","","12.9","","99.56","","","","","","Moderate Rain Showers"
"2002-06-11 23:00","2002","06","11","23:00"
"2002-06-12 00:00","2002","06","12","00:00"
"2002-06-12 01:00","2002","06","12","01:00"
"2002-06-12 02:00","2002","06","12","02:00"
"2002-06-12 03:00","2002","06","12","03:00"
"2002-06-12 04:00","2002","06","12","04:00"
"2002-06-12 05:00","2002","06","12","05:00","12.8","","11.4","","91","","5","","15","","11.3","","99.47","","","","","","Rain Showers"
"2002-06-12 06:00","2002","06","12","06:00","12.9","","11.8","","93","","4","","20","","11.3","","99.50","","","","","","Rain Showers"
"2002-06-12 07:00","2002","06","12","07:00","13.1","","12.0","","93","","5","","17","","12.9","","99.50","","","","","","Rain Showers"
"2002-06-12 08:00","2002","06","12","08:00","13.1","","12.1","","94","","4","","17","","6.4","","99.54","","","","","","Rain Showers,Fog"
"2002-06-12 09:00","2002","06","12","09:00","13.6","","12.5","","93","","3","","22","","16.1","","99.57","","","","","","Cloudy"
"2002-06-12 10:00","2002","06","12","10:00","14.4","","12.5","","88","","1","","17","","24.1","","99.66","","","","","","Cloudy"
"2002-06-12 11:00","2002","06","12","11:00","15.3","","12.1","","81","","4","","17","","24.1","","99.69","","","","","","Cloudy"
"2002-06-12 12:00","2002","06","12","12:00","14.5","","12.1","","86","","2","","20","","24.1","","99.76","","","","","","Rain Showers"
"2002-06-12 13:00","2002","06","12","13:00","15.7","","12.4","","81","","3","","19","","24.1","","99.78","","","","","","Cloudy"
"2002-06-12 14:00","2002","06","12","14:00","15.8","","12.6","","81","","4","","19","","24.1","","99.85","","","","","","Cloudy"
"2002-06-12 15:00","2002","06","12","15:00","16.1","","12.9","","81","","2","","15","","24.1","","99.86","","","","","","Cloudy"
"2002-06-12 16:00","2002","06","12","16:00","16.4","","12.7","","79","","4","","15","","24.1","","99.90","","","","","","Cloudy"
"2002-06-12 17:00","2002","06","12","17:00","16.6","","12.8","","78","","6","","13","","24.1","","99.90","","","","","","Cloudy"
"2002-06-12 18:00","2002","06","12","18:00","16.8","","13.1","","79","","6","","6","","24.1","","99.93","","","","","","Mostly Cloudy"
"2002-06-12 19:00","2002","06","12","19:00","16.7","","13.4","","81","","2","","6","","24.1","","99.95","","","","","","Mainly Clear"
"2002-06-12 20:00","2002","06","12","20:00","15.9","","13.2","","84","","8","","4","","24.1","","99.95","","","","","","Mainly Clear"
"2002-06-12 21:00","2002","06","12","21:00","15.2","","13.7","","91","","","","0","","24.1","","100.02","","","","","","Mainly Clear"
"2002-06-12 22:00","2002","06","12","22:00","14.7","","13.4","","92","","10","","4","","24.1","","100.05","","","","","","Mainly Clear"
"2002-06-12 23:00","2002","06","12","23:00"
"2002-06-13 00:00","2002","06","13","00:00"
"2002-06-13 01:00","2002","06","13","01:00"
"2002-06-13 02:00","2002","06","13","02:00"
"2002-06-13 03:00","2002","06","13","03:00"
"2002-06-13 04:00","2002","06","13","04:00"
"2002-06-13 05:00","2002","06","13","05:00","13.9","","13.2","","96","","","","0","","24.1","","100.04","","","","","","Mostly Cloudy"
"2002-06-13 06:00","2002","06","13","06:00","14.8","","13.6","","93","","","","0","","12.9","","100.11","","","","","","Mostly Cloudy"
"2002-06-13 07:00","2002","06","13","07:00","15.4","","14.1","","92","","","","0","","12.9","","100.09","","","","","","Mostly Cloudy"
"2002-06-13 08:00","2002","06","13","08:00","15.6","","14.0","","90","","17","","6","","16.1","","100.13","","","","","","Mostly Cloudy"
"2002-06-13 09:00","2002","06","13","09:00","16.3","","14.4","","89","","17","","11","","16.1","","100.10","","","","","","Mostly Cloudy"
"2002-06-13 10:00","2002","06","13","10:00","17.1","","14.3","","84","","19","","7","","16.1","","100.07","","","","","","Mostly Cloudy"
"2002-06-13 11:00","2002","06","13","11:00","16.6","","14.3","","86","","18","","11","","24.1","","100.06","","","","","","Cloudy"
"2002-06-13 12:00","2002","06","13","12:00","18.5","","14.4","","77","","16","","9","","24.1","","100.05","","","","","","Mostly Cloudy"
"2002-06-13 13:00","2002","06","13","13:00","19.1","","14.8","","76","","16","","9","","24.1","","100.03","","","","","","Mostly Cloudy"
"2002-06-13 14:00","2002","06","13","14:00","19.9","","15.3","","75","","15","","13","","24.1","","100.04","","","","","","Mostly Cloudy"
"2002-06-13 15:00","2002","06","13","15:00","20.2","","15.4","","74","","16","","11","","24.1","","99.96","","","","","","Mostly Cloudy"
"2002-06-13 16:00","2002","06","13","16:00","22.0","","14.8","","64","","14","","9","","24.1","","99.95","","26","","","","Cloudy"
"2002-06-13 17:00","2002","06","13","17:00","23.4","","12.5","","50","","4","","11","","24.1","","99.89","","26","","","","Cloudy"
"2002-06-13 18:00","2002","06","13","18:00","22.8","","12.6","","53","","3","","15","","24.1","","99.94","","25","","","","Cloudy"
"2002-06-13 19:00","2002","06","13","19:00","22.4","","12.5","","53","","4","","9","","24.1","","100.00","","25","","","","Cloudy"
"2002-06-13 20:00","2002","06","13","20:00","20.8","","12.3","","58","","4","","9","","24.1","","99.96","","","","","","Mostly Cloudy"
"2002-06-13 21:00","2002","06","13","21:00","19.5","","12.4","","64","","7","","11","","24.1","","99.92","","","","","","Mostly Cloudy"
"2002-06-13 22:00","2002","06","13","22:00","19.4","","11.2","","59","","7","","11","","24.1","","99.97","","","","","","Mostly Cloudy"
"2002-06-13 23:00","2002","06","13","23:00"
"2002-06-14 00:00","2002","06","14","00:00"
"2002-06-14 01:00","2002","06","14","01:00"
"2002-06-14 02:00","2002","06","14","02:00"
"2002-06-14 03:00","2002","06","14","03:00"
"2002-06-14 04:00","2002","06","14","04:00"
"2002-06-14 05:00","2002","06","14","05:00","17.2","","12.4","","73","","6","","9","","24.1","","99.72","","","","","","Mostly Cloudy"
"2002-06-14 06:00","2002","06","14","06:00","17.4","","11.8","","70","","13","","20","","24.1","","99.63","","","","","","Cloudy"
"2002-06-14 07:00","2002","06","14","07:00","17.2","","11.6","","70","","9","","11","","24.1","","99.70","","","","","","Cloudy"
"2002-06-14 08:00","2002","06","14","08:00","16.6","","11.8","","73","","8","","19","","24.1","","99.69","","","","","","Rain Showers"
"2002-06-14 09:00","2002","06","14","09:00","16.3","","12.0","","76","","7","","11","","24.1","","99.64","","","","","","Rain Showers"
"2002-06-14 10:00","2002","06","14","10:00","16.3","","12.7","","79","","6","","13","","24.1","","99.67","","","","","","Rain Showers"
"2002-06-14 11:00","2002","06","14","11:00","16.8","","12.6","","76","","9","","22","","24.1","","99.61","","","","","","Cloudy"
"2002-06-14 12:00","2002","06","14","12:00","17.1","","13.1","","77","","9","","19","","24.1","","99.62","","","","","","Cloudy"
"2002-06-14 13:00","2002","06","14","13:00","16.9","","13.9","","82","","6","","17","","24.1","","99.58","","","","","","Rain Showers"
"2002-06-14 14:00","2002","06","14","14:00","16.9","","13.8","","82","","6","","15","","24.1","","99.57","","","","","","Rain Showers"
"2002-06-14 15:00","2002","06","14","15:00","18.1","","13.4","","74","","7","","20","","24.1","","99.53","","","","","","Cloudy"
"2002-06-14 16:00","2002","06","14","16:00","18.0","","12.9","","72","","9","","19","","24.1","","99.53","","","","","","Rain Showers"
"2002-06-14 17:00","2002","06","14","17:00","16.4","","14.4","","88","","9","","15","","8.0","","99.53","","","","","","Rain Showers,Fog"
"2002-06-14 18:00","2002","06","14","18:00","14.9","","13.9","","94","","13","","19","","9.7","","99.54","","","","","","Rain Showers,Fog"
"2002-06-14 19:00","2002","06","14","19:00","15.2","","14.2","","94","","11","","17","","11.3","","99.51","","","","","","Rain Showers"
"2002-06-14 20:00","2002","06","14","20:00","15.5","","13.9","","90","","10","","22","","19.3","","99.47","","","","","","Cloudy"
"2002-06-14 21:00","2002","06","14","21:00","15.3","","14.2","","93","","10","","19","","19.3","","99.50","","","","","","Rain Showers"
"2002-06-14 22:00","2002","06","14","22:00","15.6","","13.7","","88","","11","","15","","24.1","","99.48","","","","","","Rain Showers"
"2002-06-14 23:00","2002","06","14","23:00"
"2002-06-15 00:00","2002","06","15","00:00"
"2002-06-15 01:00","2002","06","15","01:00"
"2002-06-15 02:00","2002","06","15","02:00"
"2002-06-15 03:00","2002","06","15","03:00"
"2002-06-15 04:00","2002","06","15","04:00"
"2002-06-15 05:00","2002","06","15","05:00","13.1","","12.3","","95","","10","","9","","19.3","","99.25","","","","","","Rain"
"2002-06-15 06:00","2002","06","15","06:00","13.1","","12.2","","94","","10","","11","","19.3","","99.26","","","","","","Cloudy"
"2002-06-15 07:00","2002","06","15","07:00","13.4","","12.5","","94","","9","","11","","24.1","","99.22","","","","","","Cloudy"
"2002-06-15 08:00","2002","06","15","08:00","13.5","","12.7","","95","","9","","7","","24.1","","99.22","","","","","","Cloudy"
"2002-06-15 09:00","2002","06","15","09:00","13.8","","12.6","","92","","12","","13","","24.1","","99.21","","","","","","Cloudy"
"2002-06-15 10:00","2002","06","15","10:00","13.9","","12.5","","91","","13","","15","","24.1","","99.19","","","","","","Rain Showers"
"2002-06-15 11:00","2002","06","15","11:00","13.9","","12.6","","92","","13","","15","","24.1","","99.16","","","","","","Rain Showers"
"2002-06-15 12:00","2002","06","15","12:00","13.9","","12.9","","94","","15","","26","","19.3","","99.15","","","","","","Rain Showers"
"2002-06-15 13:00","2002","06","15","13:00","13.9","","12.9","","94","","15","","22","","19.3","","99.16","","","","","","Rain Showers"
"2002-06-15 14:00","2002","06","15","14:00","14.0","","12.7","","92","","17","","17","","19.3","","99.18","","","","","","Rain Showers"
"2002-06-15 15:00","2002","06","15","15:00","14.3","","13.1","","92","","18","","19","","24.1","","99.20","","","","","","Cloudy"
"2002-06-15 16:00","2002","06","15","16:00","14.6","","13.4","","93","","17","","11","","24.1","","99.18","","","","","","Mostly Cloudy"
"2002-06-15 17:00","2002","06","15","17:00","15.0","","13.9","","93","","12","","4","","24.1","","99.12","","","","","","Mostly Cloudy"
"2002-06-15 18:00","2002","06","15","18:00","15.8","","13.5","","86","","13","","13","","24.1","","99.15","","","","","","Mostly Cloudy"
"2002-06-15 19:00","2002","06","15","19:00","15.7","","13.4","","86","","12","","9","","24.1","","99.14","","","","","","Mostly Cloudy"
"2002-06-15 20:00","2002","06","15","20:00","15.1","","13.4","","90","","11","","6","","24.1","","99.16","","","","","","Cloudy"
"2002-06-15 21:00","2002","06","15","21:00","14.5","","12.4","","87","","11","","9","","24.1","","99.16","","","","","","Mostly Cloudy"
"2002-06-15 22:00","2002","06","15","22:00","14.3","","12.2","","87","","10","","9","","24.1","","99.15","","","","","","Cloudy"
"2002-06-15 23:00","2002","06","15","23:00"
"2002-06-16 00:00","2002","06","16","00:00"
"2002-06-16 01:00","2002","06","16","01:00"
"2002-06-16 02:00","2002","06","16","02:00"
"2002-06-16 03:00","2002","06","16","03:00"
"2002-06-16 04:00","2002","06","16","04:00"
"2002-06-16 05:00","2002","06","16","05:00","13.6","","12.4","","92","","21","","20","","16.1","","98.96","","","","","","Rain Showers"
"2002-06-16 06:00","2002","06","16","06:00","13.8","","11.9","","88","","22","","20","","24.1","","98.96","","","","","","Cloudy"
"2002-06-16 07:00","2002","06","16","07:00","13.7","","11.9","","89","","23","","20","","24.1","","99.00","","","","","","Rain Showers"
"2002-06-16 08:00","2002","06","16","08:00","13.8","","11.9","","88","","23","","19","","24.1","","99.02","","","","","","Cloudy"
"2002-06-16 09:00","2002","06","16","09:00","13.9","","12.0","","88","","23","","19","","8.0","","99.01","","","","","","Drizzle,Fog"
"2002-06-16 10:00","2002","06","16","10:00","14.2","","12.7","","91","","23","","20","","19.3","","99.02","","","","","","Cloudy"
"2002-06-16 11:00","2002","06","16","11:00","14.8","","13.0","","89","","24","","17","","19.3","","99.03","","","","","","Cloudy"
"2002-06-16 12:00","2002","06","16","12:00","15.9","","14.3","","90","","24","","19","","19.3","","99.08","","","","","","Rain Showers"
"2002-06-16 13:00","2002","06","16","13:00","16.7","","14.5","","87","","24","","22","","24.1","","99.10","","","","","","Mostly Cloudy"
"2002-06-16 14:00","2002","06","16","14:00","17.7","","13.7","","77","","24","","20","","24.1","","99.12","","","","","","Mostly Cloudy"
"2002-06-16 15:00","2002","06","16","15:00","18.6","","13.2","","71","","24","","24","","24.1","","99.15","","","","","","Mainly Clear"
"2002-06-16 16:00","2002","06","16","16:00","18.0","","12.3","","69","","24","","19","","24.1","","99.18","","","","","","Mostly Cloudy"
"2002-06-16 17:00","2002","06","16","17:00","17.6","","12.3","","71","","25","","20","","24.1","","99.22","","","","","","Mostly Cloudy"
"2002-06-16 18:00","2002","06","16","18:00","17.1","","13.1","","77","","24","","24","","24.1","","99.25","","","","","","Mostly Cloudy"
"2002-06-16 19:00","2002","06","16","19:00","15.7","","13.1","","85","","24","","17","","16.1","","99.32","","","","","","Rain Showers"
"2002-06-16 20:00","2002","06","16","20:00","14.9","","13.0","","88","","24","","11","","16.1","","99.37","","","","","","Cloudy"
"2002-06-16 21:00","2002","06","16","21:00","14.7","","13.1","","90","","25","","11","","24.1","","99.42","","","","","","Rain Showers"
"2002-06-16 22:00","2002","06","16","22:00","14.2","","12.9","","92","","26","","15","","11.3","","99.45","","","","","","Rain Showers"
"2002-06-16 23:00","2002","06","16","23:00"
"2002-06-17 00:00","2002","06","17","00:00"
"2002-06-17 01:00","2002","06","17","01:00"
"2002-06-17 02:00","2002","06","17","02:00"
"2002-06-17 03:00","2002","06","17","03:00"
"2002-06-17 04:00","2002","06","17","04:00"
"2002-06-17 05:00","2002","06","17","05:00","13.4","","11.0","","85","","23","","15","","24.1","","99.55","","","","","","Mostly Cloudy"
"2002-06-17 06:00","2002","06","17","06:00","13.7","","10.9","","83","","24","","17","","24.1","","99.58","","","","","","Mostly Cloudy"
"2002-06-17 07:00","2002","06","17","07:00","13.5","","11.9","","90","","25","","17","","24.1","","99.61","","","","","","Mostly Cloudy"
"2002-06-17 08:00","2002","06","17","08:00","14.1","","11.4","","84","","25","","22","","24.1","","99.62","","","","","","Rain Showers"
"2002-06-17 09:00","2002","06","17","09:00","15.5","","11.1","","75","","24","","24","","24.1","","99.61","","","","","","Mostly Cloudy"
"2002-06-17 10:00","2002","06","17","10:00","15.3","","10.7","","74","","25","","19","","24.1","","99.64","","","","","","Mostly Cloudy"
"2002-06-17 11:00","2002","06","17","11:00","14.4","","11.2","","81","","24","","24","","16.1","","99.69","","","","","","Cloudy"
"2002-06-17 12:00","2002","06","17","12:00","13.2","","12.2","","94","","24","","20","","4.8","","99.72","","","","","","Rain Showers,Fog"
"2002-06-17 13:00","2002","06","17","13:00","13.7","","10.4","","80","","27","","24","","16.1","","99.76","","","","","","Cloudy"
"2002-06-17 14:00","2002","06","17","14:00","14.0","","11.5","","85","","27","","20","","24.1","","99.82","","","","","","Mostly Cloudy"
"2002-06-17 15:00","2002","06","17","15:00","15.5","","10.7","","73","","26","","19","","24.1","","99.87","","","","","","Mostly Cloudy"
"2002-06-17 16:00","2002","06","17","16:00","15.8","","10.5","","71","","24","","17","","24.1","","99.90","","","","","","Mostly Cloudy"
"2002-06-17 17:00","2002","06","17","17:00","16.3","","9.7","","65","","28","","13","","24.1","","99.94","","","","","","Mostly Cloudy"
"2002-06-17 18:00","2002","06","17","18:00","16.1","","10.5","","69","","27","","11","","24.1","","100.02","","","","","","Mostly Cloudy"
"2002-06-17 19:00","2002","06","17","19:00","16.0","","10.2","","68","","28","","9","","24.1","","100.07","","","","","","Mostly Cloudy"
"2002-06-17 20:00","2002","06","17","20:00","15.5","","10.3","","71","","27","","11","","24.1","","100.10","","","","","","Mostly Cloudy"
"2002-06-17 21:00","2002","06","17","21:00","14.8","","10.2","","74","","26","","9","","24.1","","100.16","","","","","","Mostly Cloudy"
"2002-06-17 22:00","2002","06","17","22:00","14.2","","11.5","","84","","25","","9","","24.1","","100.22","","","","","","Mostly Cloudy"
"2002-06-17 23:00","2002","06","17","23:00"
"2002-06-18 00:00","2002","06","18","00:00"
"2002-06-18 01:00","2002","06","18","01:00"
"2002-06-18 02:00","2002","06","18","02:00"
"2002-06-18 03:00","2002","06","18","03:00"
"2002-06-18 04:00","2002","06","18","04:00"
"2002-06-18 05:00","2002","06","18","05:00","11.6","","9.9","","89","","27","","11","","24.1","","100.55","","","","","","Mainly Clear"
"2002-06-18 06:00","2002","06","18","06:00","12.1","","10.2","","88","","27","","6","","24.1","","100.64","","","","","","Mainly Clear"
"2002-06-18 07:00","2002","06","18","07:00","13.5","","10.8","","84","","31","","7","","24.1","","100.70","","","","","","Mainly Clear"
"2002-06-18 08:00","2002","06","18","08:00","14.2","","11.3","","83","","21","","7","","24.1","","100.77","","","","","","Mainly Clear"
"2002-06-18 09:00","2002","06","18","09:00","15.0","","12.7","","86","","19","","11","","24.1","","100.82","","","","","","Mainly Clear"
"2002-06-18 10:00","2002","06","18","10:00","15.6","","13.1","","85","","19","","17","","24.1","","100.90","","","","","","Mainly Clear"
"2002-06-18 11:00","2002","06","18","11:00","15.6","","12.5","","82","","19","","17","","24.1","","100.92","","","","","","Mainly Clear"
"2002-06-18 12:00","2002","06","18","12:00","16.0","","12.6","","80","","19","","24","","24.1","","100.96","","","","","","Mainly Clear"
"2002-06-18 13:00","2002","06","18","13:00","16.0","","12.3","","79","","20","","19","","24.1","","100.98","","","","","","Mainly Clear"
"2002-06-18 14:00","2002","06","18","14:00","16.6","","12.7","","78","","20","","19","","24.1","","100.95","","","","","","Mainly Clear"
"2002-06-18 15:00","2002","06","18","15:00","16.4","","13.0","","80","","19","","17","","24.1","","100.98","","","","","","Mainly Clear"
"2002-06-18 16:00","2002","06","18","16:00","16.6","","13.2","","80","","19","","15","","24.1","","100.98","","","","","","Mainly Clear"
"2002-06-18 17:00","2002","06","18","17:00","16.2","","12.6","","79","","20","","13","","24.1","","101.00","","","","","","Mainly Clear"
"2002-06-18 18:00","2002","06","18","18:00","16.2","","13.2","","82","","19","","9","","24.1","","101.04","","","","","","Mostly Cloudy"
"2002-06-18 19:00","2002","06","18","19:00","16.0","","13.3","","84","","18","","9","","24.1","","101.09","","","","","","Mainly Clear"
"2002-06-18 20:00","2002","06","18","20:00","14.6","","13.0","","90","","16","","9","","24.1","","101.14","","","","","","Mainly Clear"
"2002-06-18 21:00","2002","06","18","21:00","14.3","","12.6","","90","","16","","6","","24.1","","101.20","","","","","","Mainly Clear"
"2002-06-18 22:00","2002","06","18","22:00","14.3","","12.1","","87","","","","0","","24.1","","101.23","","","","","","Clear"
"2002-06-18 23:00","2002","06","18","23:00"
"2002-06-19 00:00","2002","06","19","00:00"
"2002-06-19 01:00","2002","06","19","01:00"
"2002-06-19 02:00","2002","06","19","02:00"
"2002-06-19 03:00","2002","06","19","03:00"
"2002-06-19 04:00","2002","06","19","04:00"
"2002-06-19 05:00","2002","06","19","05:00","10.9","","10.0","","94","","2","","4","","16.1","","101.56","","","","","","Clear"
"2002-06-19 06:00","2002","06","19","06:00","12.8","","11.5","","92","","35","","4","","16.1","","101.60","","","","","","Clear"
"2002-06-19 07:00","2002","06","19","07:00","15.7","","14.1","","90","","","","0","","24.1","","101.67","","","","","","Clear"
"2002-06-19 08:00","2002","06","19","08:00","15.6","","14.3","","92","","18","","9","","24.1","","101.72","","","","","","Clear"
"2002-06-19 09:00","2002","06","19","09:00","15.4","","13.9","","91","","18","","6","","24.1","","101.75","","","","","","Mainly Clear"
"2002-06-19 10:00","2002","06","19","10:00","16.3","","14.3","","88","","19","","6","","24.1","","101.77","","","","","","Mainly Clear"
"2002-06-19 11:00","2002","06","19","11:00","17.4","","12.6","","73","","20","","7","","24.1","","101.81","","","","","","Mainly Clear"
"2002-06-19 12:00","2002","06","19","12:00","19.8","","10.9","","56","","21","","7","","24.1","","101.81","","","","","","Mainly Clear"
"2002-06-19 13:00","2002","06","19","13:00","20.8","","11.8","","56","","23","","7","","24.1","","101.80","","","","","","Mainly Clear"
"2002-06-19 14:00","2002","06","19","14:00","21.9","","13.0","","57","","23","","7","","24.1","","101.80","","25","","","","Mainly Clear"
"2002-06-19 15:00","2002","06","19","15:00","22.5","","12.9","","55","","19","","9","","24.1","","101.78","","25","","","","Mainly Clear"
"2002-06-19 16:00","2002","06","19","16:00","22.9","","12.8","","53","","19","","7","","24.1","","101.77","","26","","","","Mainly Clear"
"2002-06-19 17:00","2002","06","19","17:00","22.9","","12.6","","52","","20","","7","","24.1","","101.75","","25","","","","Mainly Clear"
"2002-06-19 18:00","2002","06","19","18:00","22.3","","12.8","","55","","20","","7","","24.1","","101.72","","25","","","","Mainly Clear"
"2002-06-19 19:00","2002","06","19","19:00","20.3","","15.4","","73","","19","","6","","24.1","","101.68","","25","","","","Clear"
"2002-06-19 20:00","2002","06","19","20:00","19.6","","13.9","","70","","","","0","","24.1","","101.69","","","","","","Mainly Clear"
"2002-06-19 21:00","2002","06","19","21:00","18.3","","12.2","","68","","","","0","","24.1","","101.77","","","","","","Mainly Clear"
"2002-06-19 22:00","2002","06","19","22:00","16.6","","12.9","","79","","36","","9","","24.1","","101.81","","","","","","Mainly Clear"
"2002-06-19 23:00","2002","06","19","23:00"
"2002-06-20 00:00","2002","06","20","00:00"
"2002-06-20 01:00","2002","06","20","01:00"
"2002-06-20 02:00","2002","06","20","02:00"
"2002-06-20 03:00","2002","06","20","03:00"
"2002-06-20 04:00","2002","06","20","04:00"
"2002-06-20 05:00","2002","06","20","05:00","12.5","","10.9","","90","","4","","4","","24.1","","101.89","","","","","","Mainly Clear"
"2002-06-20 06:00","2002","06","20","06:00","16.7","","14.4","","86","","","","0","","24.1","","101.90","","","","","","Mainly Clear"
"2002-06-20 07:00","2002","06","20","07:00","16.9","","14.8","","87","","16","","9","","24.1","","101.94","","","","","","Mainly Clear"
"2002-06-20 08:00","2002","06","20","08:00","17.5","","14.8","","84","","16","","9","","24.1","","101.95","","","","","","Mainly Clear"
"2002-06-20 09:00","2002","06","20","09:00","17.7","","14.1","","79","","18","","11","","24.1","","101.97","","","","","","Mainly Clear"
"2002-06-20 10:00","2002","06","20","10:00","19.2","","14.3","","73","","20","","11","","24.1","","102.01","","","","","","Mainly Clear"
"2002-06-20 11:00","2002","06","20","11:00","19.6","","14.7","","73","","18","","9","","24.1","","102.00","","","","","","Mainly Clear"
"2002-06-20 12:00","2002","06","20","12:00","19.7","","15.2","","75","","18","","11","","24.1","","101.94","","","","","","Mainly Clear"
"2002-06-20 13:00","2002","06","20","13:00","20.3","","16.1","","77","","18","","9","","24.1","","101.86","","25","","","","Mainly Clear"
"2002-06-20 14:00","2002","06","20","14:00","21.1","","16.9","","77","","18","","11","","11.3","","101.80","","26","","","","Mostly Cloudy"
"2002-06-20 15:00","2002","06","20","15:00","21.1","","17.3","","79","","19","","9","","11.3","","101.73","","27","","","","Mostly Cloudy"
"2002-06-20 16:00","2002","06","20","16:00","21.3","","17.3","","78","","21","","9","","11.3","","101.68","","27","","","","Mostly Cloudy"
"2002-06-20 17:00","2002","06","20","17:00","23.0","","16.8","","68","","25","","6","","11.3","","101.67","","28","","","","Mostly Cloudy"
"2002-06-20 18:00","2002","06","20","18:00","23.4","","17.2","","68","","22","","4","","11.3","","101.63","","29","","","","Mostly Cloudy"
"2002-06-20 19:00","2002","06","20","19:00","23.2","","16.4","","66","","26","","6","","12.9","","101.68","","28","","","","Mostly Cloudy"
"2002-06-20 20:00","2002","06","20","20:00","22.2","","15.8","","67","","","","0","","12.9","","101.67","","27","","","","Mostly Cloudy"
"2002-06-20 21:00","2002","06","20","21:00","20.7","","16.3","","76","","34","","7","","19.3","","101.71","","26","","","","Mainly Clear"
"2002-06-20 22:00","2002","06","20","22:00","19.8","","16.0","","79","","34","","4","","19.3","","101.70","","","","","","Mainly Clear"
"2002-06-20 23:00","2002","06","20","23:00"
"2002-06-21 00:00","2002","06","21","00:00"
"2002-06-21 01:00","2002","06","21","01:00"
"2002-06-21 02:00","2002","06","21","02:00"
"2002-06-21 03:00","2002","06","21","03:00"
"2002-06-21 04:00","2002","06","21","04:00"
"2002-06-21 05:00","2002","06","21","05:00","17.8","","16.0","","89","","20","","13","","12.9","","101.64","","","","","","Mostly Cloudy"
"2002-06-21 06:00","2002","06","21","06:00","17.8","","16.3","","91","","21","","9","","8.0","","101.66","","","","","","Fog"
"2002-06-21 07:00","2002","06","21","07:00","18.1","","16.4","","90","","18","","15","","8.0","","101.70","","","","","","Fog"
"2002-06-21 08:00","2002","06","21","08:00","18.2","","16.4","","89","","19","","13","","6.4","","101.72","","","","","","Fog"
"2002-06-21 09:00","2002","06","21","09:00","18.7","","16.7","","88","","20","","17","","6.4","","101.71","","","","","","Fog"
"2002-06-21 10:00","2002","06","21","10:00","19.4","","17.3","","88","","18","","17","","8.0","","101.69","","","","","","Haze"
"2002-06-21 11:00","2002","06","21","11:00","19.6","","17.6","","88","","18","","15","","8.0","","101.66","","","","","","Haze"
"2002-06-21 12:00","2002","06","21","12:00","20.4","","17.8","","85","","19","","17","","8.0","","101.62","","26","","","","Haze"
"2002-06-21 13:00","2002","06","21","13:00","20.8","","17.5","","81","","20","","19","","8.0","","101.57","","26","","","","Haze"
"2002-06-21 14:00","2002","06","21","14:00","21.4","","17.7","","79","","19","","17","","8.0","","101.49","","27","","","","Haze"
"2002-06-21 15:00","2002","06","21","15:00","23.2","","18.3","","74","","20","","15","","8.0","","101.43","","29","","","","Haze"
"2002-06-21 16:00","2002","06","21","16:00","24.5","","18.6","","70","","22","","11","","8.0","","101.39","","31","","","","Haze"
"2002-06-21 17:00","2002","06","21","17:00","25.9","","17.9","","61","","24","","9","","9.7","","101.35","","32","","","","Haze"
"2002-06-21 18:00","2002","06","21","18:00","25.2","","19.2","","69","","31","","4","","9.7","","101.38","","32","","","","Thunderstorms,Haze"
"2002-06-21 19:00","2002","06","21","19:00","23.0","","19.8","","82","","34","","4","","8.0","","101.41","","30","","","","Haze"
"2002-06-21 20:00","2002","06","21","20:00","22.3","","19.3","","83","","25","","11","","4.8","","101.39","","29","","","","Rain Showers,Haze"
"2002-06-21 21:00","2002","06","21","21:00","22.1","","19.5","","85","","25","","6","","9.7","","101.38","","29","","","","Haze"
"2002-06-21 22:00","2002","06","21","22:00","20.4","","18.9","","91","","18","","9","","9.7","","101.37","","27","","","","Fog"
"2002-06-21 23:00","2002","06","21","23:00"
"2002-06-22 00:00","2002","06","22","00:00"
"2002-06-22 01:00","2002","06","22","01:00"
"2002-06-22 02:00","2002","06","22","02:00"
"2002-06-22 03:00","2002","06","22","03:00"
"2002-06-22 04:00","2002","06","22","04:00"
"2002-06-22 05:00","2002","06","22","05:00","18.9","","18.0","","95","","9","","6","","4.0","","101.38","","","","","","Fog"
"2002-06-22 06:00","2002","06","22","06:00","18.3","","17.4","","94","","15","","9","","3.2","","101.40","","","","","","Fog"
"2002-06-22 07:00","2002","06","22","07:00","18.3","","17.3","","94","","13","","7","","3.2","","101.42","","","","","","Fog"
"2002-06-22 08:00","2002","06","22","08:00","19.6","","18.1","","91","","10","","6","","4.8","","101.46","","","","","","Fog"
"2002-06-22 09:00","2002","06","22","09:00","19.9","","18.3","","91","","9","","13","","3.2","","101.50","","","","","","Fog"
"2002-06-22 10:00","2002","06","22","10:00","20.2","","18.5","","90","","24","","4","","4.8","","101.52","","27","","","","Fog"
"2002-06-22 11:00","2002","06","22","11:00","21.5","","19.2","","87","","10","","11","","4.8","","101.49","","28","","","","Haze"
"2002-06-22 12:00","2002","06","22","12:00","22.0","","19.3","","85","","8","","11","","4.8","","101.48","","29","","","","Rain Showers,Haze"
"2002-06-22 13:00","2002","06","22","13:00","22.1","","19.3","","84","","11","","11","","4.8","","101.44","","29","","","","Haze"
"2002-06-22 14:00","2002","06","22","14:00","19.8","","18.6","","93","","16","","13","","4.0","","101.40","","","","","","Rain Showers,Fog"
"2002-06-22 15:00","2002","06","22","15:00","20.1","","18.4","","90","","18","","9","","4.0","","101.33","","26","","","","Fog"
"2002-06-22 16:00","2002","06","22","16:00","19.5","","18.0","","91","","","","0","","4.0","","101.24","","","","","","Fog"
"2002-06-22 17:00","2002","06","22","17:00","19.5","","18.0","","91","","20","","4","","4.0","","101.19","","","","","","Fog"
"2002-06-22 18:00","2002","06","22","18:00","19.4","","18.0","","92","","20","","4","","4.8","","101.21","","","","","","Fog"
"2002-06-22 19:00","2002","06","22","19:00","19.7","","18.2","","91","","","","0","","4.8","","101.23","","","","","","Fog"
"2002-06-22 20:00","2002","06","22","20:00","19.5","","17.7","","89","","14","","4","","4.8","","101.19","","","","","","Fog"
"2002-06-22 21:00","2002","06","22","21:00","19.4","","17.8","","90","","13","","6","","6.4","","101.18","","","","","","Fog"
"2002-06-22 22:00","2002","06","22","22:00","19.0","","17.9","","93","","","","0","","6.4","","101.20","","","","","","Fog"
"2002-06-22 23:00","2002","06","22","23:00"
"2002-06-23 00:00","2002","06","23","00:00"
"2002-06-23 01:00","2002","06","23","01:00"
"2002-06-23 02:00","2002","06","23","02:00"
"2002-06-23 03:00","2002","06","23","03:00"
"2002-06-23 04:00","2002","06","23","04:00"
"2002-06-23 05:00","2002","06","23","05:00","17.5","","16.8","","96","","","","0","","1.2","","100.94","","","","","","Fog"
"2002-06-23 06:00","2002","06","23","06:00","18.5","","17.5","","94","","","","0","","1.6","","100.96","","","","","","Fog"
"2002-06-23 07:00","2002","06","23","07:00","19.0","","18.0","","94","","19","","6","","2.8","","100.96","","","","","","Fog"
"2002-06-23 08:00","2002","06","23","08:00","19.5","","18.1","","92","","18","","9","E","3.2","","100.94","","","","","","Fog"
"2002-06-23 09:00","2002","06","23","09:00","20.3","","17.9","","86","","19","","11","","4.8","","100.92","","26","","","","Haze"
"2002-06-23 10:00","2002","06","23","10:00","20.5","","18.3","","87","","19","","17","","4.8","","100.85","","27","","","","Haze"
"2002-06-23 11:00","2002","06","23","11:00","21.9","","19.4","","86","","19","","19","","4.8","","100.77","","29","","","","Haze"
"2002-06-23 12:00","2002","06","23","12:00","21.5","","19.0","","86","","19","","20","","4.8","","100.71","","28","","","","Haze"
"2002-06-23 13:00","2002","06","23","13:00","22.2","","19.7","","86","","20","","19","","4.8","","100.61","","30","","","","Haze"
"2002-06-23 14:00","2002","06","23","14:00","27.9","","20.9","","66","","24","","22","","6.4","","100.51","","36","","","","Haze"
"2002-06-23 15:00","2002","06","23","15:00","28.8","","20.8","","62","","24","","26","","6.4","","100.42","","37","","","","Haze"
"2002-06-23 16:00","2002","06","23","16:00","28.2","","20.1","","62","","25","","28","","6.4","","100.41","","36","","","","Haze"
"2002-06-23 17:00","2002","06","23","17:00","27.1","","20.5","","67","","25","","19","","6.4","","100.39","","35","","","","Haze"
"2002-06-23 18:00","2002","06","23","18:00","26.1","","20.3","","70","","25","","20","","6.4","","100.41","","34","","","","Haze"
"2002-06-23 19:00","2002","06","23","19:00","25.7","","19.6","","69","","34","","33","","6.4","","100.51","","33","","","","Thunderstorms,Rain Showers,Haze"
"2002-06-23 20:00","2002","06","23","20:00","21.5","","19.3","","87","","33","","11","","16.1","","100.55","","29","","","","Cloudy"
"2002-06-23 21:00","2002","06","23","21:00","21.4","","19.3","","88","","32","","9","","19.3","","100.65","","28","","","","Rain Showers"
"2002-06-23 22:00","2002","06","23","22:00","21.2","","19.6","","91","","31","","9","","24.1","","100.69","","28","","","","Mostly Cloudy"
"2002-06-23 23:00","2002","06","23","23:00"
"2002-06-24 00:00","2002","06","24","00:00"
"2002-06-24 01:00","2002","06","24","01:00"
"2002-06-24 02:00","2002","06","24","02:00"
"2002-06-24 03:00","2002","06","24","03:00"
"2002-06-24 04:00","2002","06","24","04:00"
"2002-06-24 05:00","2002","06","24","05:00","15.6","","11.6","","77","","1","","7","","24.1","","101.00","","","","","","Mainly Clear"
"2002-06-24 06:00","2002","06","24","06:00","16.0","","10.3","","69","","4","","11","","24.1","","101.03","","","","","","Mainly Clear"
"2002-06-24 07:00","2002","06","24","07:00","16.6","","9.3","","62","","2","","17","","24.1","","101.08","","","","","","Mainly Clear"
"2002-06-24 08:00","2002","06","24","08:00","17.9","","9.5","","58","","4","","17","","24.1","","101.12","","","","","","Mainly Clear"
"2002-06-24 09:00","2002","06","24","09:00","19.1","","10.1","","56","","3","","13","","24.1","","101.10","","","","","","Mainly Clear"
"2002-06-24 10:00","2002","06","24","10:00","19.8","","10.0","","53","","8","","11","","24.1","","101.12","","","","","","Mainly Clear"
"2002-06-24 11:00","2002","06","24","11:00","20.6","","9.5","","49","","11","","4","","24.1","","101.10","","","","","","Mostly Cloudy"
"2002-06-24 12:00","2002","06","24","12:00","20.2","","11.9","","59","","16","","15","","24.1","","101.05","","","","","","Mostly Cloudy"
"2002-06-24 13:00","2002","06","24","13:00","20.0","","13.6","","67","","20","","11","","24.1","","101.05","","","","","","Mostly Cloudy"
"2002-06-24 14:00","2002","06","24","14:00","21.8","","12.2","","54","","20","","9","","24.1","","101.03","","","","","","Mostly Cloudy"
"2002-06-24 15:00","2002","06","24","15:00","21.7","","13.7","","60","","20","","13","","24.1","","100.99","","25","","","","Mainly Clear"
"2002-06-24 16:00","2002","06","24","16:00","20.6","","15.5","","73","","","","0","","24.1","","100.94","","25","","","","Mainly Clear"
"2002-06-24 17:00","2002","06","24","17:00","21.3","","13.2","","60","","20","","11","","24.1","","100.89","","","","","","Mostly Cloudy"
"2002-06-24 18:00","2002","06","24","18:00","20.9","","13.3","","62","","22","","9","","24.1","","100.87","","","","","","Mostly Cloudy"
"2002-06-24 19:00","2002","06","24","19:00","20.4","","14.0","","67","","24","","9","","24.1","","100.82","","","","","","Mostly Cloudy"
"2002-06-24 20:00","2002","06","24","20:00","19.1","","12.1","","64","","23","","6","","24.1","","100.82","","","","","","Mostly Cloudy"
"2002-06-24 21:00","2002","06","24","21:00","18.9","","13.9","","73","","22","","4","","24.1","","100.85","","","","","","Mostly Cloudy"
"2002-06-24 22:00","2002","06","24","22:00","18.8","","13.9","","73","","26","","7","","24.1","","100.87","","","","","","Mostly Cloudy"
"2002-06-24 23:00","2002","06","24","23:00"
"2002-06-25 00:00","2002","06","25","00:00"
"2002-06-25 01:00","2002","06","25","01:00"
"2002-06-25 02:00","2002","06","25","02:00"
"2002-06-25 03:00","2002","06","25","03:00"
"2002-06-25 04:00","2002","06","25","04:00"
"2002-06-25 05:00","2002","06","25","05:00","18.4","","15.4","","83","","16","","9","","24.1","","100.80","","","","","","Mostly Cloudy"
"2002-06-25 06:00","2002","06","25","06:00","18.5","","15.4","","82","","17","","9","","24.1","","100.80","","","","","","Mostly Cloudy"
"2002-06-25 07:00","2002","06","25","07:00","18.8","","14.7","","77","","23","","9","","24.1","","100.85","","","","","","Cloudy"
"2002-06-25 08:00","2002","06","25","08:00","19.1","","13.3","","69","","23","","9","","24.1","","100.84","","","","","","Cloudy"
"2002-06-25 09:00","2002","06","25","09:00","19.5","","13.6","","69","","21","","7","","24.1","","100.80","","","","","","Cloudy"
"2002-06-25 10:00","2002","06","25","10:00","19.9","","16.1","","79","","18","","9","","24.1","","100.79","","","","","","Mostly Cloudy"
"2002-06-25 11:00","2002","06","25","11:00","20.0","","16.4","","80","","18","","7","","24.1","","100.78","","25","","","","Mostly Cloudy"
"2002-06-25 12:00","2002","06","25","12:00","20.6","","15.6","","73","","18","","11","","24.1","","100.74","","25","","","","Mostly Cloudy"
"2002-06-25 13:00","2002","06","25","13:00","21.1","","16.3","","74","","19","","13","","24.1","","100.65","","26","","","","Mainly Clear"
"2002-06-25 14:00","2002","06","25","14:00","21.5","","16.8","","75","","19","","11","","19.3","","100.57","","27","","","","Mainly Clear"
"2002-06-25 15:00","2002","06","25","15:00","21.8","","16.9","","74","","17","","4","","16.1","","100.55","","27","","","","Mostly Cloudy"
"2002-06-25 16:00","2002","06","25","16:00","22.1","","17.4","","75","","19","","7","","16.1","","100.49","","28","","","","Mostly Cloudy"
"2002-06-25 17:00","2002","06","25","17:00","22.4","","18.7","","80","","21","","9","","16.1","","100.35","","29","","","","Mostly Cloudy"
"2002-06-25 18:00","2002","06","25","18:00","21.6","","19.1","","86","","18","","7","","16.1","","100.35","","28","","","","Mostly Cloudy"
"2002-06-25 19:00","2002","06","25","19:00","21.6","","19.3","","87","","20","","7","","16.1","","100.36","","29","","","","Mostly Cloudy"
"2002-06-25 20:00","2002","06","25","20:00","22.0","","19.2","","84","","23","","6","","11.3","","100.33","","29","","","","Mostly Cloudy"
"2002-06-25 21:00","2002","06","25","21:00","22.3","","18.7","","80","","24","","9","","11.3","","100.35","","29","","","","Mostly Cloudy"
"2002-06-25 22:00","2002","06","25","22:00","21.6","","18.3","","82","","22","","9","","12.9","","100.34","","28","","","","Mainly Clear"
"2002-06-25 23:00","2002","06","25","23:00"
"2002-06-26 00:00","2002","06","26","00:00"
"2002-06-26 01:00","2002","06","26","01:00"
"2002-06-26 02:00","2002","06","26","02:00"
"2002-06-26 03:00","2002","06","26","03:00"
"2002-06-26 04:00","2002","06","26","04:00"
"2002-06-26 05:00","2002","06","26","05:00","20.1","","17.8","","87","","21","","4","","6.4","","100.21","","26","","","","Haze"
"2002-06-26 06:00","2002","06","26","06:00","20.3","","17.9","","86","","22","","9","","6.4","","100.21","","26","","","","Haze"
"2002-06-26 07:00","2002","06","26","07:00","20.6","","18.2","","86","","18","","13","","4.8","","100.19","","27","","","","Haze"
"2002-06-26 08:00","2002","06","26","08:00","20.7","","18.0","","85","","19","","13","","6.4","","100.18","","27","","","","Haze"
"2002-06-26 09:00","2002","06","26","09:00","21.1","","18.3","","84","","19","","15","","4.8","","100.13","","27","","","","Haze"
"2002-06-26 10:00","2002","06","26","10:00","21.2","","19.0","","87","","21","","7","","4.8","","100.13","","28","","","","Haze"
"2002-06-26 11:00","2002","06","26","11:00","23.8","","19.8","","78","","27","","4","","4.8","","100.15","","31","","","","Rain Showers,Haze"
"2002-06-26 12:00","2002","06","26","12:00","20.8","","19.2","","91","","19","","11","","3.2","","100.08","","28","","","","Rain Showers,Haze"
"2002-06-26 13:00","2002","06","26","13:00","21.2","","19.2","","88","","22","","11","","4.0","","100.03","","28","","","","Fog"
"2002-06-26 14:00","2002","06","26","14:00","21.4","","19.4","","88","","18","","9","","4.0","","99.94","","28","","","","Fog"
"2002-06-26 15:00","2002","06","26","15:00","21.5","","19.6","","89","","18","","13","","4.0","","99.85","","29","","","","Fog"
"2002-06-26 16:00","2002","06","26","16:00","22.0","","18.9","","83","","22","","20","","4.8","","99.72","","29","","","","Haze"
"2002-06-26 17:00","2002","06","26","17:00","21.5","","19.0","","86","","19","","17","","12.9","","99.70","","28","","","","Mostly Cloudy"
"2002-06-26 18:00","2002","06","26","18:00","21.4","","19.0","","86","","22","","7","","12.9","","99.68","","28","","","","Mostly Cloudy"
"2002-06-26 19:00","2002","06","26","19:00","20.7","","19.2","","91","","23","","4","","6.4","","99.58","","28","","","","Fog"
"2002-06-26 20:00","2002","06","26","20:00","20.8","","19.3","","91","","19","","9","","4.0","","99.57","","28","","","","Fog"
"2002-06-26 21:00","2002","06","26","21:00","21.5","","19.3","","87","","23","","9","","12.9","","99.57","","29","","","","Mostly Cloudy"
"2002-06-26 22:00","2002","06","26","22:00","22.4","","19.5","","84","","24","","9","","12.9","","99.50","","30","","","","Mostly Cloudy"
"2002-06-26 23:00","2002","06","26","23:00"
"2002-06-27 00:00","2002","06","27","00:00"
"2002-06-27 01:00","2002","06","27","01:00"
"2002-06-27 02:00","2002","06","27","02:00"
"2002-06-27 03:00","2002","06","27","03:00"
"2002-06-27 04:00","2002","06","27","04:00"
"2002-06-27 05:00","2002","06","27","05:00","19.5","","18.3","","93","","22","","7","","4.8","","99.50","","","","","","Fog"
"2002-06-27 06:00","2002","06","27","06:00","20.2","","19.0","","93","","22","","9","","6.4","","99.51","","27","","","","Fog"
"2002-06-27 07:00","2002","06","27","07:00","21.5","","19.1","","86","","24","","13","","6.4","","99.50","","28","","","","Fog"
"2002-06-27 08:00","2002","06","27","08:00","21.2","","19.1","","88","","23","","15","","4.8","","99.52","","28","","","","Haze"
"2002-06-27 09:00","2002","06","27","09:00","21.4","","19.3","","88","","19","","17","","4.8","","99.47","","28","","","","Haze"
"2002-06-27 10:00","2002","06","27","10:00","21.7","","19.1","","85","","19","","17","","4.8","","99.45","","29","","","","Haze"
"2002-06-27 11:00","2002","06","27","11:00","22.2","","19.8","","86","","19","","17","","4.8","","99.42","","30","","","","Haze"
"2002-06-27 12:00","2002","06","27","12:00","22.1","","19.7","","86","","20","","15","","6.4","","99.35","","29","","","","Haze"
"2002-06-27 13:00","2002","06","27","13:00","22.4","","20.2","","87","","25","","7","","8.0","","99.30","","30","","","","Rain Showers,Haze"
"2002-06-27 14:00","2002","06","27","14:00","24.8","","21.3","","81","","28","","6","","11.3","","99.23","","33","","","","Cloudy"
"2002-06-27 15:00","2002","06","27","15:00","21.8","","20.0","","90","","18","","11","","8.0","","99.17","","29","","","","Fog"
"2002-06-27 16:00","2002","06","27","16:00","21.1","","19.3","","89","","18","","15","","8.0","","99.18","","28","","","","Fog"
"2002-06-27 17:00","2002","06","27","17:00","23.5","","20.4","","83","","24","","15","","12.9","","99.18","","31","","","","Cloudy"
"2002-06-27 18:00","2002","06","27","18:00","22.1","","19.1","","83","","22","","15","","12.9","","99.16","","29","","","","Mostly Cloudy"
"2002-06-27 19:00","2002","06","27","19:00","20.8","","18.6","","87","","22","","11","","12.9","","99.23","","27","","","","Mostly Cloudy"
"2002-06-27 20:00","2002","06","27","20:00","20.3","","18.6","","90","","20","","7","","11.3","","99.24","","27","","","","Cloudy"
"2002-06-27 21:00","2002","06","27","21:00","20.6","","19.5","","93","","24","","7","","12.9","","99.32","","28","","","","Thunderstorms,Rain Showers"
"2002-06-27 22:00","2002","06","27","22:00","20.6","","19.6","","94","","31","","9","","24.1","","99.36","","28","","","","Mostly Cloudy"
"2002-06-27 23:00","2002","06","27","23:00"
"2002-06-28 00:00","2002","06","28","00:00"
"2002-06-28 01:00","2002","06","28","01:00"
"2002-06-28 02:00","2002","06","28","02:00"
"2002-06-28 03:00","2002","06","28","03:00"
"2002-06-28 04:00","2002","06","28","04:00"
"2002-06-28 05:00","2002","06","28","05:00","17.4","","15.8","","90","","34","","11","","24.1","","99.68","","","","","","Mostly Cloudy"
"2002-06-28 06:00","2002","06","28","06:00","18.2","","14.9","","81","","36","","13","","24.1","","99.74","","","","","","Mostly Cloudy"
"2002-06-28 07:00","2002","06","28","07:00","19.3","","14.7","","75","","36","","15","","24.1","","99.83","","","","","","Mostly Cloudy"
"2002-06-28 08:00","2002","06","28","08:00","21.1","","13.7","","63","","1","","15","","24.1","","99.93","","","","","","Mostly Cloudy"
"2002-06-28 09:00","2002","06","28","09:00","23.1","","13.4","","54","","34","","13","","24.1","","99.99","","26","","","","Mostly Cloudy"
"2002-06-28 10:00","2002","06","28","10:00","24.3","","11.2","","44","","36","","11","","24.1","","100.04","","26","","","","Cloudy"
"2002-06-28 11:00","2002","06","28","11:00","25.0","","12.8","","47","","35","","15","","24.1","","100.11","","28","","","","Mostly Cloudy"
"2002-06-28 12:00","2002","06","28","12:00","25.8","","13.0","","45","","32","","19","","24.1","","100.12","","29","","","","Mostly Cloudy"
"2002-06-28 13:00","2002","06","28","13:00","26.8","","12.1","","40","","1","","13","","24.1","","100.12","","29","","","","Mostly Cloudy"
"2002-06-28 14:00","2002","06","28","14:00","27.0","","12.3","","40","","34","","11","","24.1","","100.14","","29","","","","Mainly Clear"
"2002-06-28 15:00","2002","06","28","15:00","27.5","","12.9","","41","","33","","11","","24.1","","100.16","","30","","","","Mainly Clear"
"2002-06-28 16:00","2002","06","28","16:00","24.3","","16.3","","61","","32","","13","","24.1","","100.17","","29","","","","Mainly Clear"
"2002-06-28 17:00","2002","06","28","17:00","25.3","","15.9","","56","","24","","11","","24.1","","100.19","","30","","","","Mainly Clear"
"2002-06-28 18:00","2002","06","28","18:00","24.9","","15.8","","57","","22","","11","","24.1","","100.23","","29","","","","Mainly Clear"
"2002-06-28 19:00","2002","06","28","19:00","23.2","","15.6","","62","","23","","9","","24.1","","100.26","","28","","","","Mainly Clear"
"2002-06-28 20:00","2002","06","28","20:00","22.7","","17.2","","71","","27","","7","","24.1","","100.34","","28","","","","Mainly Clear"
"2002-06-28 21:00","2002","06","28","21:00","22.4","","14.6","","61","","28","","9","","24.1","","100.41","","26","","","","Mainly Clear"
"2002-06-28 22:00","2002","06","28","22:00","20.8","","15.2","","70","","33","","6","","24.1","","100.46","","25","","","","Mostly Cloudy"
"2002-06-28 23:00","2002","06","28","23:00"
"2002-06-29 00:00","2002","06","29","00:00"
"2002-06-29 01:00","2002","06","29","01:00"
"2002-06-29 02:00","2002","06","29","02:00"
"2002-06-29 03:00","2002","06","29","03:00"
"2002-06-29 04:00","2002","06","29","04:00"
"2002-06-29 05:00","2002","06","29","05:00","16.7","","15.5","","93","","1","","4","","24.1","","100.77","","","","","","Mostly Cloudy"
"2002-06-29 06:00","2002","06","29","06:00","17.8","","15.9","","89","","","","0","","24.1","","100.84","","","","","","Mostly Cloudy"
"2002-06-29 07:00","2002","06","29","07:00","20.0","","17.5","","86","","","","0","","24.1","","100.94","","26","","","","Mostly Cloudy"
"2002-06-29 08:00","2002","06","29","08:00","20.5","","17.6","","83","","17","","7","","24.1","","100.99","","26","","","","Mostly Cloudy"
"2002-06-29 09:00","2002","06","29","09:00","20.5","","18.1","","86","","17","","6","","24.1","","101.02","","27","","","","Mostly Cloudy"
"2002-06-29 10:00","2002","06","29","10:00","22.0","","18.7","","82","","17","","6","","19.3","","101.05","","29","","","","Mostly Cloudy"
"2002-06-29 11:00","2002","06","29","11:00","21.6","","19.0","","85","","17","","11","","19.3","","101.03","","28","","","","Mostly Cloudy"
"2002-06-29 12:00","2002","06","29","12:00","21.6","","18.7","","84","","18","","19","","19.3","","101.03","","28","","","","Mostly Cloudy"
"2002-06-29 13:00","2002","06","29","13:00","21.8","","18.7","","83","","18","","15","","19.3","","100.99","","28","","","","Mostly Cloudy"
"2002-06-29 14:00","2002","06","29","14:00","21.8","","18.3","","81","","20","","15","","19.3","","101.00","","28","","","","Mostly Cloudy"
"2002-06-29 15:00","2002","06","29","15:00","22.2","","18.0","","77","","20","","11","","19.3","","100.98","","28","","","","Mostly Cloudy"
"2002-06-29 16:00","2002","06","29","16:00","22.5","","18.1","","76","","21","","11","","19.3","","100.91","","29","","","","Mostly Cloudy"
"2002-06-29 17:00","2002","06","29","17:00","22.6","","18.2","","76","","18","","6","","19.3","","100.92","","29","","","","Mostly Cloudy"
"2002-06-29 18:00","2002","06","29","18:00","21.5","","18.4","","83","","19","","4","","19.3","","100.94","","28","","","","Mostly Cloudy"
"2002-06-29 19:00","2002","06","29","19:00","21.2","","18.5","","85","","16","","6","","19.3","","100.93","","28","","","","Mostly Cloudy"
"2002-06-29 20:00","2002","06","29","20:00","20.5","","18.2","","87","","12","","4","","19.3","","100.94","","27","","","","Mostly Cloudy"
"2002-06-29 21:00","2002","06","29","21:00","20.4","","18.3","","88","","","","0","","24.1","","100.96","","27","","","","Mostly Cloudy"
"2002-06-29 22:00","2002","06","29","22:00","19.5","","18.2","","92","","18","","4","","24.1","","100.99","","","","","","Mainly Clear"
"2002-06-29 23:00","2002","06","29","23:00"
"2002-06-30 00:00","2002","06","30","00:00"
"2002-06-30 01:00","2002","06","30","01:00"
"2002-06-30 02:00","2002","06","30","02:00"
"2002-06-30 03:00","2002","06","30","03:00"
"2002-06-30 04:00","2002","06","30","04:00"
"2002-06-30 05:00","2002","06","30","05:00","19.5","","18.1","","92","","17","","6","","24.1","","101.05","","","","","","Mainly Clear"
"2002-06-30 06:00","2002","06","30","06:00","20.0","","18.1","","89","","18","","7","","24.1","","101.08","","26","","","","Mostly Cloudy"
"2002-06-30 07:00","2002","06","30","07:00","20.2","","18.7","","91","","18","","9","","11.3","","101.09","","27","","","","Mainly Clear"
"2002-06-30 08:00","2002","06","30","08:00","20.6","","18.6","","88","","20","","15","","11.3","","101.11","","27","","","","Mostly Cloudy"
"2002-06-30 09:00","2002","06","30","09:00","20.8","","18.8","","88","","18","","11","","11.3","","101.11","","27","","","","Mostly Cloudy"
"2002-06-30 10:00","2002","06","30","10:00","21.1","","18.8","","87","","18","","15","","11.3","","101.09","","28","","","","Mostly Cloudy"
"2002-06-30 11:00","2002","06","30","11:00","21.4","","19.2","","87","","18","","15","","9.7","","101.08","","28","","","","Haze"
"2002-06-30 12:00","2002","06","30","12:00","21.7","","19.0","","85","","18","","13","","9.7","","101.03","","28","","","","Haze"
"2002-06-30 13:00","2002","06","30","13:00","22.1","","19.4","","85","","18","","13","","9.7","","100.97","","29","","","","Haze"
"2002-06-30 14:00","2002","06","30","14:00","22.6","","19.5","","83","","16","","13","","9.7","","100.93","","30","","","","Haze"
"2002-06-30 15:00","2002","06","30","15:00","21.8","","19.3","","86","","17","","9","","9.7","","100.89","","29","","","","Haze"
"2002-06-30 16:00","2002","06","30","16:00","22.9","","19.8","","83","","19","","11","","9.7","","100.83","","30","","","","Haze"
"2002-06-30 17:00","2002","06","30","17:00","22.9","","19.6","","82","","19","","17","","9.7","","100.79","","30","","","","Haze"
"2002-06-30 18:00","2002","06","30","18:00","22.6","","19.5","","83","","19","","11","","12.9","","100.78","","30","","","","Mainly Clear"
"2002-06-30 19:00","2002","06","30","19:00","21.9","","19.6","","87","","17","","7","","12.9","","100.75","","29","","","","Mostly Cloudy"
"2002-06-30 20:00","2002","06","30","20:00","21.5","","19.3","","87","","20","","13","","9.7","","100.74","","29","","","","Haze"
"2002-06-30 21:00","2002","06","30","21:00","21.6","","18.6","","83","","21","","9","","16.1","","100.76","","28","","","","Mostly Cloudy"
"2002-06-30 22:00","2002","06","30","22:00","21.8","","18.0","","79","","20","","7","","19.3","","100.76","","28","","","","Mostly Cloudy"
"2002-06-30 23:00","2002","06","30","23:00"
