"Station Name","KINGSTON A"
"Province","ONTARIO"
"Latitude","44.22"
"Longitude","-76.60"
"Elevation","92.40"
"Climate Identifier","6104146"
"WMO Identifier",""
"TC Identifier","YGK"
"All times are specified in Local Standard Time (LST). Add 1 hour to adjust for Daylight Saving Time where and when it is observed."

"Legend"
"E","Estimated"
"M","Missing"
"NA","Not Available"

"Date/Time","Year","Month","Day","Time","Temp (°C)","Temp Flag","Dew Point Temp (°C)","Dew Point Temp Flag","Rel Hum (%)","Rel Hum Flag","Wind Dir (10s deg)","Wind Dir Flag","Wind Spd (km/h)","Wind Spd Flag","Visibility (km)","Visibility Flag","Stn Press (kPa)","Stn Press Flag","Hmdx","Hmdx Flag","Wind Chill","Wind Chill Flag","Weather"
"2001-04-01 00:00","2001","04","01","00:00"
"2001-04-01 01:00","2001","04","01","01:00"
"2001-04-01 02:00","2001","04","01","02:00"
"2001-04-01 03:00","2001","04","01","03:00"
"2001-04-01 04:00","2001","04","01","04:00"
"2001-04-01 05:00","2001","04","01","05:00","-0.8","","-2.8","","86","","4","","15","","16.1","","99.81","","","","-5","","Snow"
"2001-04-01 06:00","2001","04","01","06:00","-1.0","","-2.8","","88","","5","","13","","12.9","","99.81","","","","-5","","Cloudy"
"2001-04-01 07:00","2001","04","01","07:00","-1.0","","-2.7","","88","","5","","13","","8.0","","99.84","","","","-5","","Snow"
"2001-04-01 08:00","2001","04","01","08:00","-0.8","","-2.6","","88","","5","","15","","4.0","","99.85","","","","-5","","Snow,Fog"
"2001-04-01 09:00","2001","04","01","09:00","-0.8","","-2.1","","91","","4","","13","","3.2","","99.85","","","","-5","","Freezing Drizzle,Fog"
"2001-04-01 10:00","2001","04","01","10:00","-0.3","","-1.9","","89","","5","","13","","11.3","","99.84","","","","-4","","Cloudy"
"2001-04-01 11:00","2001","04","01","11:00","0.7","","-1.6","","85","","6","","19","","12.9","","99.81","","","","","","Cloudy"
"2001-04-01 12:00","2001","04","01","12:00","1.4","","-1.5","","81","","4","","19","","12.9","","99.78","","","","","","Mostly Cloudy"
"2001-04-01 13:00","2001","04","01","13:00","2.5","","-1.1","","77","","6","","19","","12.9","","99.76","","","","","","Mostly Cloudy"
"2001-04-01 14:00","2001","04","01","14:00","2.5","","-1.3","","76","","5","","15","","16.1","","99.76","","","","","","Cloudy"
"2001-04-01 15:00","2001","04","01","15:00","2.6","","-1.4","","75","","5","","15","","19.3","","99.77","","","","","","Cloudy"
"2001-04-01 16:00","2001","04","01","16:00","2.4","","-1.8","","74","","5","","15","","19.3","","99.79","","","","","","Cloudy"
"2001-04-01 17:00","2001","04","01","17:00","2.3","","-1.7","","75","","4","","17","","24.1","","99.85","","","","","","Cloudy"
"2001-04-01 18:00","2001","04","01","18:00","2.3","","-1.9","","74","","4","","13","","24.1","","99.89","","","","","","Cloudy"
"2001-04-01 19:00","2001","04","01","19:00","1.6","","-2.3","","75","","5","","15","","24.1","","99.97","","","","","","Cloudy"
"2001-04-01 20:00","2001","04","01","20:00","1.1","","-2.3","","78","","4","","13","","24.1","","100.03","","","","","","Cloudy"
"2001-04-01 21:00","2001","04","01","21:00","0.8","","-2.5","","79","","5","","11","","24.1","","100.08","","","","","","Cloudy"
"2001-04-01 22:00","2001","04","01","22:00","0.6","","-2.6","","79","","5","","13","","24.1","","100.06","","","","","","Cloudy"
"2001-04-01 23:00","2001","04","01","23:00"
"2001-04-02 00:00","2001","04","02","00:00"
"2001-04-02 01:00","2001","04","02","01:00"
"2001-04-02 02:00","2001","04","02","02:00"
"2001-04-02 03:00","2001","04","02","03:00"
"2001-04-02 04:00","2001","04","02","04:00"
"2001-04-02 05:00","2001","04","02","05:00","-0.6","","-2.6","","86","","36","","9","","12.9","","100.21","","","","-4","","Snow"
"2001-04-02 06:00","2001","04","02","06:00","-0.7","","-2.4","","88","","35","","11","","8.0","","100.28","","","","-4","","Snow"
"2001-04-02 07:00","2001","04","02","07:00","-0.4","","-2.1","","88","","35","","11","","8.0","","100.35","","","","-4","","Snow"
"2001-04-02 08:00","2001","04","02","08:00","0.1","","-2.5","","83","","36","","17","","8.0","","100.42","","","","","","Snow"
"2001-04-02 09:00","2001","04","02","09:00","1.1","","-1.9","","80","","2","","13","","8.0","","100.43","","","","","","Snow"
"2001-04-02 10:00","2001","04","02","10:00","2.0","","-1.6","","77","","2","","13","","6.4","","100.45","","","","","","Snow"
"2001-04-02 11:00","2001","04","02","11:00","3.3","","-3.0","","63","","4","","13","","24.1","","100.45","","","","","","Mostly Cloudy"
"2001-04-02 12:00","2001","04","02","12:00","4.5","","-2.9","","59","","3","","7","","24.1","","100.44","","","","","","Mostly Cloudy"
"2001-04-02 13:00","2001","04","02","13:00","2.7","","-1.3","","75","","23","","11","","24.1","","100.48","","","","","","Mostly Cloudy"
"2001-04-02 14:00","2001","04","02","14:00","3.6","","-1.6","","69","","25","","19","","24.1","","100.49","","","","","","Mostly Cloudy"
"2001-04-02 15:00","2001","04","02","15:00","3.2","","-1.3","","72","","25","","17","","24.1","","100.50","","","","","","Mostly Cloudy"
"2001-04-02 16:00","2001","04","02","16:00","4.4","","-1.1","","67","","24","","15","","24.1","","100.50","","","","","","Mostly Cloudy"
"2001-04-02 17:00","2001","04","02","17:00"
"2001-04-02 18:00","2001","04","02","18:00","2.6","","-1.2","","76","","26","","13","","24.1","","100.59","","","","","","Cloudy"
"2001-04-02 19:00","2001","04","02","19:00","2.1","","-1.0","","80","","26","","17","","24.1","","100.60","","","","","","Cloudy"
"2001-04-02 20:00","2001","04","02","20:00","1.3","","-0.6","","87","","26","","11","","24.1","","100.67","","","","","","Cloudy"
"2001-04-02 21:00","2001","04","02","21:00","1.3","","-0.8","","86","","26","","9","","24.1","","100.68","","","","","","Cloudy"
"2001-04-02 22:00","2001","04","02","22:00","1.1","","-0.8","","87","","25","","7","","24.1","","100.66","","","","","","Cloudy"
"2001-04-02 23:00","2001","04","02","23:00"
"2001-04-03 00:00","2001","04","03","00:00"
"2001-04-03 01:00","2001","04","03","01:00"
"2001-04-03 02:00","2001","04","03","02:00"
"2001-04-03 03:00","2001","04","03","03:00"
"2001-04-03 04:00","2001","04","03","04:00"
"2001-04-03 05:00","2001","04","03","05:00","0.0","","-1.6","","89","","26","","4","","19.3","","100.66","","","","-1","","Mainly Clear"
"2001-04-03 06:00","2001","04","03","06:00","-0.7","","-1.9","","92","","","","0","","6.4","","100.72","","","","","","Fog"
"2001-04-03 07:00","2001","04","03","07:00","0.4","","-1.1","","90","","27","","6","","4.8","","100.78","","","","","","Fog"
"2001-04-03 08:00","2001","04","03","08:00","1.7","","-0.3","","87","","23","","4","","8.0","","100.81","","","","","","Fog"
"2001-04-03 09:00","2001","04","03","09:00","4.1","","0.5","","77","","21","","7","","16.1","","100.84","","","","","","Mainly Clear"
"2001-04-03 10:00","2001","04","03","10:00","3.1","","0.4","","82","","17","","11","","24.1","","100.86","","","","","","Mainly Clear"
"2001-04-03 11:00","2001","04","03","11:00","4.5","","0.2","","74","","19","","17","","24.1","","100.89","","","","","","Mostly Cloudy"
"2001-04-03 12:00","2001","04","03","12:00","4.8","","0.1","","72","","19","","19","","24.1","","100.88","","","","","","Mostly Cloudy"
"2001-04-03 13:00","2001","04","03","13:00","3.3","","0.2","","80","","20","","13","","24.1","","100.89","","","","","","Mostly Cloudy"
"2001-04-03 14:00","2001","04","03","14:00","3.5","","1.3","","85","","17","","15","","24.1","","100.89","","","","","","Mostly Cloudy"
"2001-04-03 15:00","2001","04","03","15:00","3.2","","1.1","","86","","21","","17","","24.1","","100.92","","","","","","Mostly Cloudy"
"2001-04-03 16:00","2001","04","03","16:00","4.4","","1.9","","84","","22","","17","","24.1","","100.95","","","","","","Mainly Clear"
"2001-04-03 17:00","2001","04","03","17:00","3.9","","1.4","","84","","21","","9","","24.1","","101.00","","","","","","Mainly Clear"
"2001-04-03 18:00","2001","04","03","18:00","2.6","","0.4","","85","","18","","4","","24.1","","101.06","","","","","","Mainly Clear"
"2001-04-03 19:00","2001","04","03","19:00","1.6","","-0.1","","88","","","","0","","24.1","","101.13","","","","","","Mainly Clear"
"2001-04-03 20:00","2001","04","03","20:00","2.4","","-0.2","","83","","26","","6","","24.1","","101.20","","","","","","Mainly Clear"
"2001-04-03 21:00","2001","04","03","21:00","0.8","","-1.1","","87","","","","0","","24.1","","101.28","","","","","","Clear"
"2001-04-03 22:00","2001","04","03","22:00","0.6","","-1.2","","88","","","","0","","24.1","","101.30","","","","","","Clear"
"2001-04-03 23:00","2001","04","03","23:00"
"2001-04-04 00:00","2001","04","04","00:00"
"2001-04-04 01:00","2001","04","04","01:00"
"2001-04-04 02:00","2001","04","04","02:00"
"2001-04-04 03:00","2001","04","04","03:00"
"2001-04-04 04:00","2001","04","04","04:00"
"2001-04-04 05:00","2001","04","04","05:00","-3.5","","-5.1","","89","","","","0","","8.0","","101.41","","","","","","Fog"
"2001-04-04 06:00","2001","04","04","06:00","-3.1","","-4.4","","91","","","","0","","0.4","","101.49","","","","","","Freezing Fog"
"2001-04-04 07:00","2001","04","04","07:00","-2.7","","-3.7","","93","","36","","4","","0.8","","101.57","","","","-4","","Freezing Fog"
"2001-04-04 08:00","2001","04","04","08:00","-0.1","","-0.3","","99","","","","0","","6.4","","101.60","","","","","","Fog"
"2001-04-04 09:00","2001","04","04","09:00","0.2","","-0.2","","97","","17","","7","","11.3","","101.64","","","","","","Mainly Clear"
"2001-04-04 10:00","2001","04","04","10:00","1.0","","0.1","","94","","17","","7","","16.1","","101.66","","","","","","Clear"
"2001-04-04 11:00","2001","04","04","11:00","2.2","","0.6","","89","","17","","11","","8.0","","101.65","","","","","","Fog"
"2001-04-04 12:00","2001","04","04","12:00","2.9","","0.8","","86","","18","","17","","8.0","","101.64","","","","","","Haze"
"2001-04-04 13:00","2001","04","04","13:00","2.6","","0.9","","89","","18","","15","","16.1","","101.60","","","","","","Clear"
"2001-04-04 14:00","2001","04","04","14:00","3.7","","1.1","","83","","19","","15","","24.1","","101.54","","","","","","Clear"
"2001-04-04 15:00","2001","04","04","15:00","4.1","","0.1","","75","","20","","19","","19.3","","101.51","","","","","","Clear"
"2001-04-04 16:00","2001","04","04","16:00","3.7","","0.5","","80","","19","","17","","19.3","","101.48","","","","","","Mainly Clear"
"2001-04-04 17:00","2001","04","04","17:00","3.4","","0.4","","81","","19","","13","","24.1","","101.47","","","","","","Mainly Clear"
"2001-04-04 18:00","2001","04","04","18:00","3.1","","-0.1","","79","","20","","15","","24.1","","101.46","","","","","","Mainly Clear"
"2001-04-04 19:00","2001","04","04","19:00","2.3","","-0.9","","79","","","","0","","24.1","","101.46","","","","","","Mainly Clear"
"2001-04-04 20:00","2001","04","04","20:00","2.6","","-1.2","","76","","6","","11","","24.1","","101.51","","","","","","Clear"
"2001-04-04 21:00","2001","04","04","21:00","1.5","","-1.9","","78","","9","","7","","24.1","","101.54","","","","","","Clear"
"2001-04-04 22:00","2001","04","04","22:00","1.5","","-1.8","","79","","1","","6","","24.1","","101.57","","","","","","Clear"
"2001-04-04 23:00","2001","04","04","23:00"
"2001-04-05 00:00","2001","04","05","00:00"
"2001-04-05 01:00","2001","04","05","01:00"
"2001-04-05 02:00","2001","04","05","02:00"
"2001-04-05 03:00","2001","04","05","03:00"
"2001-04-05 04:00","2001","04","05","04:00"
"2001-04-05 05:00","2001","04","05","05:00","-1.8","","-4.7","","81","","","","0","","24.1","","101.66","","","","","","Mainly Clear"
"2001-04-05 06:00","2001","04","05","06:00","-3.0","","-5.6","","82","","34","","6","","24.1","","101.70","","","","-5","","Mainly Clear"
"2001-04-05 07:00","2001","04","05","07:00","-0.1","","-3.6","","77","","34","","7","","24.1","","101.75","","","","-3","","Clear"
"2001-04-05 08:00","2001","04","05","08:00","1.3","","-1.2","","83","","","","0","","24.1","","101.77","","","","","","Mainly Clear"
"2001-04-05 09:00","2001","04","05","09:00","2.2","","-1.0","","79","","19","","7","","24.1","","101.77","","","","","","Mostly Cloudy"
"2001-04-05 10:00","2001","04","05","10:00","3.2","","-2.0","","69","","19","","7","","24.1","","101.81","","","","","","Mostly Cloudy"
"2001-04-05 11:00","2001","04","05","11:00","3.0","","-0.1","","80","","18","","13","","24.1","","101.77","","","","","","Mostly Cloudy"
"2001-04-05 12:00","2001","04","05","12:00","3.4","","0.4","","81","","18","","15","","24.1","","101.69","","","","","","Mainly Clear"
"2001-04-05 13:00","2001","04","05","13:00","4.2","","1.4","","82","","18","","19","","24.1","","101.59","","","","","","Mostly Cloudy"
"2001-04-05 14:00","2001","04","05","14:00","4.2","","0.9","","79","","18","","13","","24.1","","101.47","","","","","","Mostly Cloudy"
"2001-04-05 15:00","2001","04","05","15:00","3.8","","-0.1","","76","","19","","17","","24.1","","101.43","","","","","","Mostly Cloudy"
"2001-04-05 16:00","2001","04","05","16:00","4.4","","-0.4","","71","","19","","13","","24.1","","101.29","","","","","","Mostly Cloudy"
"2001-04-05 17:00","2001","04","05","17:00","3.5","","-0.6","","74","","18","","11","","24.1","","101.25","","","","","","Mostly Cloudy"
"2001-04-05 18:00","2001","04","05","18:00","3.9","","-1.2","","69","","22","","7","","24.1","","101.26","","","","","","Mostly Cloudy"
"2001-04-05 19:00","2001","04","05","19:00","3.4","","-0.9","","73","","22","","9","","24.1","","101.22","","","","","","Mostly Cloudy"
"2001-04-05 20:00","2001","04","05","20:00","3.2","","-1.2","","73","","","","0","","24.1","","101.18","","","","","","Mostly Cloudy"
"2001-04-05 21:00","2001","04","05","21:00","4.4","","-2.5","","61","","","","0","","24.1","","101.14","","","","","","Cloudy"
"2001-04-05 22:00","2001","04","05","22:00","4.9","","-3.5","","54","","","","0","","24.1","","101.07","","","","","","Cloudy"
"2001-04-05 23:00","2001","04","05","23:00"
"2001-04-06 00:00","2001","04","06","00:00"
"2001-04-06 01:00","2001","04","06","01:00"
"2001-04-06 02:00","2001","04","06","02:00"
"2001-04-06 03:00","2001","04","06","03:00"
"2001-04-06 04:00","2001","04","06","04:00"
"2001-04-06 05:00","2001","04","06","05:00","4.8","","-3.7","","54","","3","","11","","24.1","","100.60","","","","","","Cloudy"
"2001-04-06 06:00","2001","04","06","06:00","4.9","","-4.2","","52","","5","","13","","24.1","","100.51","","","","","","Cloudy"
"2001-04-06 07:00","2001","04","06","07:00","5.0","","-3.5","","54","","5","","13","","24.1","","100.48","","","","","","Mostly Cloudy"
"2001-04-06 08:00","2001","04","06","08:00","5.9","","-2.8","","54","","7","","13","","24.1","","100.41","","","","","","Cloudy"
"2001-04-06 09:00","2001","04","06","09:00","9.0","","-1.5","","48","","6","","9","","24.1","","100.34","","","","","","Mostly Cloudy"
"2001-04-06 10:00","2001","04","06","10:00","8.3","","-2.5","","46","","14","","7","","24.1","","100.29","","","","","","Cloudy"
"2001-04-06 11:00","2001","04","06","11:00","6.0","","0.0","","65","","13","","13","","19.3","","100.13","","","","","","Rain Showers"
"2001-04-06 12:00","2001","04","06","12:00","7.6","","1.1","","63","","","","0","","24.1","","100.14","","","","","","Cloudy"
"2001-04-06 13:00","2001","04","06","13:00","8.0","","0.7","","60","","13","","6","","24.1","","100.09","","","","","","Rain Showers"
"2001-04-06 14:00","2001","04","06","14:00","7.6","","3.2","","74","","7","","9","","19.3","","100.01","","","","","","Cloudy"
"2001-04-06 15:00","2001","04","06","15:00","7.7","","3.4","","74","","8","","11","","24.1","","99.95","","","","","","Cloudy"
"2001-04-06 16:00","2001","04","06","16:00","6.1","","2.9","","80","","8","","17","","24.1","","99.92","","","","","","Cloudy"
"2001-04-06 17:00","2001","04","06","17:00","5.5","","1.4","","75","","4","","15","","19.3","","100.01","","","","","","Cloudy"
"2001-04-06 18:00","2001","04","06","18:00","4.7","","-1.4","","65","","4","","17","","16.1","","100.00","","","","","","Rain Showers"
"2001-04-06 19:00","2001","04","06","19:00","3.8","","-1.4","","69","","3","","17","","16.1","","100.13","","","","","","Cloudy"
"2001-04-06 20:00","2001","04","06","20:00","3.5","","-0.9","","73","","3","","20","","16.1","","100.16","","","","","","Cloudy"
"2001-04-06 21:00","2001","04","06","21:00","3.2","","-0.7","","76","","3","","17","","16.1","","100.30","","","","","","Cloudy"
"2001-04-06 22:00","2001","04","06","22:00","3.0","","-0.7","","77","","2","","20","","19.3","","100.34","","","","","","Cloudy"
"2001-04-06 23:00","2001","04","06","23:00"
"2001-04-07 00:00","2001","04","07","00:00"
"2001-04-07 01:00","2001","04","07","01:00"
"2001-04-07 02:00","2001","04","07","02:00"
"2001-04-07 03:00","2001","04","07","03:00"
"2001-04-07 04:00","2001","04","07","04:00"
"2001-04-07 05:00","2001","04","07","05:00","1.4","","-1.0","","84","","5","","19","","24.1","","100.94","","","","","","Cloudy"
"2001-04-07 06:00","2001","04","07","06:00","1.4","","-1.8","","79","","5","","15","","24.1","","101.01","","","","","","Cloudy"
"2001-04-07 07:00","2001","04","07","07:00","1.9","","-2.5","","73","","6","","15","","24.1","","101.15","","","","","","Cloudy"
"2001-04-07 08:00","2001","04","07","08:00","3.0","","-1.6","","72","","7","","24","","24.1","","101.16","","","","","","Cloudy"
"2001-04-07 09:00","2001","04","07","09:00","3.4","","-0.5","","76","","9","","20","","24.1","","101.22","","","","","","Cloudy"
"2001-04-07 10:00","2001","04","07","10:00","4.7","","0.9","","76","","9","","22","","24.1","","101.15","","","","","","Cloudy"
"2001-04-07 11:00","2001","04","07","11:00","5.2","","0.8","","73","","9","","13","","24.1","","101.32","","","","","","Cloudy"
"2001-04-07 12:00","2001","04","07","12:00","5.7","","1.2","","73","","9","","20","","24.1","","101.20","","","","","","Cloudy"
"2001-04-07 13:00","2001","04","07","13:00","5.9","","1.2","","72","","7","","13","","24.1","","101.19","","","","","","Cloudy"
"2001-04-07 14:00","2001","04","07","14:00","7.0","","2.1","","71","","9","","15","","24.1","","101.10","","","","","","Cloudy"
"2001-04-07 15:00","2001","04","07","15:00","8.1","","3.2","","71","","8","","17","","24.1","","101.02","","","","","","Cloudy"
"2001-04-07 16:00","2001","04","07","16:00","7.8","","2.5","","69","","10","","19","","24.1","","100.86","","","","","","Cloudy"
"2001-04-07 17:00","2001","04","07","17:00","7.9","","2.5","","69","","9","","19","","24.1","","100.78","","","","","","Mostly Cloudy"
"2001-04-07 18:00","2001","04","07","18:00","7.6","","2.5","","70","","10","","24","","24.1","","100.72","","","","","","Cloudy"
"2001-04-07 19:00","2001","04","07","19:00","7.3","","1.6","","67","","9","","19","","24.1","","100.78","","","","","","Cloudy"
"2001-04-07 20:00","2001","04","07","20:00","6.9","","1.1","","67","","10","","26","","24.1","","100.60","","","","","","Cloudy"
"2001-04-07 21:00","2001","04","07","21:00","6.6","","1.1","","68","","12","","19","","24.1","","100.58","","","","","","Cloudy"
"2001-04-07 22:00","2001","04","07","22:00","6.9","","2.0","","71","","13","","17","","24.1","","100.45","","","","","","Cloudy"
"2001-04-07 23:00","2001","04","07","23:00"
"2001-04-08 00:00","2001","04","08","00:00"
"2001-04-08 01:00","2001","04","08","01:00"
"2001-04-08 02:00","2001","04","08","02:00"
"2001-04-08 03:00","2001","04","08","03:00"
"2001-04-08 04:00","2001","04","08","04:00"
"2001-04-08 05:00","2001","04","08","05:00","4.2","","1.5","","83","","17","","44","","24.1","","100.09","","","","","","Mostly Cloudy"
"2001-04-08 06:00","2001","04","08","06:00","4.1","","1.6","","84","","17","","28","","24.1","","100.06","","","","","","Mostly Cloudy"
"2001-04-08 07:00","2001","04","08","07:00","4.4","","2.0","","84","","17","","33","","24.1","","100.04","","","","","","Mostly Cloudy"
"2001-04-08 08:00","2001","04","08","08:00","4.9","","2.7","","86","","17","","28","","24.1","","100.00","","","","","","Mostly Cloudy"
"2001-04-08 09:00","2001","04","08","09:00","5.1","","2.7","","84","","16","","26","","24.1","","99.92","","","","","","Mostly Cloudy"
"2001-04-08 10:00","2001","04","08","10:00","6.2","","3.4","","82","","18","","35","","24.1","","99.78","","","","","","Mainly Clear"
"2001-04-08 11:00","2001","04","08","11:00","7.0","","4.1","","82","","17","","30","","24.1","","99.72","","","","","","Mainly Clear"
"2001-04-08 12:00","2001","04","08","12:00","7.4","","4.1","","80","","17","","41","","24.1","","99.52","","","","","","Mainly Clear"
"2001-04-08 13:00","2001","04","08","13:00","8.0","","4.7","","80","","18","","33","","24.1","","99.49","","","","","","Clear"
"2001-04-08 14:00","2001","04","08","14:00","9.4","","5.8","","78","","23","","28","","24.1","","99.52","","","","","","Clear"
"2001-04-08 15:00","2001","04","08","15:00","8.5","","5.3","","80","","20","","32","","19.3","","99.42","","","","","","Mainly Clear"
"2001-04-08 16:00","2001","04","08","16:00","8.0","","4.9","","81","","21","","24","","19.3","","99.39","","","","","","Mainly Clear"
"2001-04-08 17:00","2001","04","08","17:00","8.6","","4.7","","76","","20","","28","","19.3","","99.34","","","","","","Clear"
"2001-04-08 18:00","2001","04","08","18:00","8.5","","4.6","","76","","22","","19","","19.3","","99.36","","","","","","Mainly Clear"
"2001-04-08 19:00","2001","04","08","19:00","16.5","","6.7","","52","","32","","28","","19.3","","99.53","","","","","","Mainly Clear"
"2001-04-08 20:00","2001","04","08","20:00","13.3","","5.3","","58","","33","","17","","24.1","","99.71","","","","","","Clear"
"2001-04-08 21:00","2001","04","08","21:00","11.2","","4.5","","63","","30","","9","","24.1","","99.80","","","","","","Clear"
"2001-04-08 22:00","2001","04","08","22:00","10.7","","3.9","","63","","31","","20","","24.1","","99.86","","","","","","Clear"
"2001-04-08 23:00","2001","04","08","23:00"
"2001-04-09 00:00","2001","04","09","00:00"
"2001-04-09 01:00","2001","04","09","01:00"
"2001-04-09 02:00","2001","04","09","02:00"
"2001-04-09 03:00","2001","04","09","03:00"
"2001-04-09 04:00","2001","04","09","04:00"
"2001-04-09 05:00","2001","04","09","05:00","2.5","","0.1","","84","","26","","11","","24.1","","100.11","","","","","","Clear"
"2001-04-09 06:00","2001","04","09","06:00","1.9","","0.1","","88","","27","","7","","24.1","","100.17","","","","","","Mainly Clear"
"2001-04-09 07:00","2001","04","09","07:00","3.6","","1.0","","83","","30","","7","","24.1","","100.20","","","","","","Mainly Clear"
"2001-04-09 08:00","2001","04","09","08:00","5.5","","2.1","","79","","29","","6","","24.1","","100.27","","","","","","Mainly Clear"
"2001-04-09 09:00","2001","04","09","09:00","8.2","","2.1","","65","","36","","6","","24.1","","100.25","","","","","","Mostly Cloudy"
"2001-04-09 10:00","2001","04","09","10:00","6.8","","2.1","","72","","20","","7","","24.1","","100.18","","","","","","Mostly Cloudy"
"2001-04-09 11:00","2001","04","09","11:00","6.5","","2.5","","76","","17","","11","","24.1","","100.11","","","","","","Mostly Cloudy"
"2001-04-09 12:00","2001","04","09","12:00","7.1","","2.3","","71","","20","","17","","24.1","","100.09","","","","","","Mostly Cloudy"
"2001-04-09 13:00","2001","04","09","13:00","4.7","","1.5","","80","","20","","17","","24.1","","100.06","","","","","","Cloudy"
"2001-04-09 14:00","2001","04","09","14:00","3.7","","2.3","","91","","18","","9","","16.1","","99.99","","","","","","Rain Showers"
"2001-04-09 15:00","2001","04","09","15:00","4.8","","3.4","","91","","27","","11","","8.0","","100.05","","","","","","Rain Showers,Fog"
"2001-04-09 16:00","2001","04","09","16:00","6.4","","5.3","","93","","34","","7","","11.3","","99.98","","","","","","Rain Showers"
"2001-04-09 17:00","2001","04","09","17:00","7.5","","6.3","","92","","32","","4","","24.1","","100.01","","","","","","Cloudy"
"2001-04-09 18:00","2001","04","09","18:00","8.2","","4.3","","76","","2","","13","","24.1","","100.11","","","","","","Mostly Cloudy"
"2001-04-09 19:00","2001","04","09","19:00","7.0","","3.3","","77","","36","","11","","24.1","","100.17","","","","","","Mainly Clear"
"2001-04-09 20:00","2001","04","09","20:00","4.8","","2.8","","87","","35","","11","","24.1","","100.28","","","","","","Mainly Clear"
"2001-04-09 21:00","2001","04","09","21:00","3.6","","1.0","","83","","35","","13","","24.1","","100.33","","","","","","Mainly Clear"
"2001-04-09 22:00","2001","04","09","22:00","3.8","","0.3","","78","","36","","15","","24.1","","100.34","","","","","","Mainly Clear"
"2001-04-09 23:00","2001","04","09","23:00"
"2001-04-10 00:00","2001","04","10","00:00"
"2001-04-10 01:00","2001","04","10","01:00"
"2001-04-10 02:00","2001","04","10","02:00"
"2001-04-10 03:00","2001","04","10","03:00"
"2001-04-10 04:00","2001","04","10","04:00"
"2001-04-10 05:00","2001","04","10","05:00","0.5","","-1.8","","85","","35","","6","","24.1","","100.74","","","","","","Mainly Clear"
"2001-04-10 06:00","2001","04","10","06:00","0.8","","-1.7","","83","","36","","9","","24.1","","100.81","","","","","","Mainly Clear"
"2001-04-10 07:00","2001","04","10","07:00","2.9","","-0.6","","78","","2","","15","","24.1","","100.86","","","","","","Mainly Clear"
"2001-04-10 08:00","2001","04","10","08:00","5.1","","0.2","","71","","4","","17","","24.1","","100.89","","","","","","Mainly Clear"
"2001-04-10 09:00","2001","04","10","09:00","6.6","","0.9","","67","","6","","19","","24.1","","100.93","","","","","","Mostly Cloudy"
"2001-04-10 10:00","2001","04","10","10:00","7.7","","1.7","","66","","8","","19","","24.1","","100.90","","","","","","Mainly Clear"
"2001-04-10 11:00","2001","04","10","11:00","8.0","","2.3","","67","","12","","11","","24.1","","100.91","","","","","","Mostly Cloudy"
"2001-04-10 12:00","2001","04","10","12:00","9.1","","2.7","","64","","14","","19","","24.1","","100.84","","","","","","Mostly Cloudy"
"2001-04-10 13:00","2001","04","10","13:00","10.6","","3.1","","60","","11","","15","","24.1","","100.79","","","","","","Mostly Cloudy"
"2001-04-10 14:00","2001","04","10","14:00","10.3","","2.9","","60","","13","","24","","24.1","","100.79","","","","","","Mostly Cloudy"
"2001-04-10 15:00","2001","04","10","15:00","11.7","","2.6","","54","","11","","22","","24.1","","100.78","","","","","","Mostly Cloudy"
"2001-04-10 16:00","2001","04","10","16:00","12.2","","2.6","","52","","11","","24","","24.1","","100.73","","","","","","Mostly Cloudy"
"2001-04-10 17:00","2001","04","10","17:00","12.2","","1.9","","49","","9","","13","","24.1","","100.74","","","","","","Mostly Cloudy"
"2001-04-10 18:00","2001","04","10","18:00","12.1","","2.0","","50","","7","","9","","24.1","","100.79","","","","","","Mostly Cloudy"
"2001-04-10 19:00","2001","04","10","19:00","11.1","","1.3","","51","","5","","7","","24.1","","100.83","","","","","","Mainly Clear"
"2001-04-10 20:00","2001","04","10","20:00","9.5","","1.0","","55","","7","","13","","24.1","","100.81","","","","","","Mainly Clear"
"2001-04-10 21:00","2001","04","10","21:00","8.2","","0.6","","59","","5","","13","","24.1","","100.92","","","","","","Mainly Clear"
"2001-04-10 22:00","2001","04","10","22:00","7.1","","-0.3","","59","","5","","13","","24.1","","100.88","","","","","","Mainly Clear"
"2001-04-10 23:00","2001","04","10","23:00"
"2001-04-11 00:00","2001","04","11","00:00"
"2001-04-11 01:00","2001","04","11","01:00"
"2001-04-11 02:00","2001","04","11","02:00"
"2001-04-11 03:00","2001","04","11","03:00"
"2001-04-11 04:00","2001","04","11","04:00"
"2001-04-11 05:00","2001","04","11","05:00","3.2","","-1.4","","72","","3","","13","","24.1","","100.86","","","","","","Mostly Cloudy"
"2001-04-11 06:00","2001","04","11","06:00","3.3","","-1.2","","72","","4","","11","","24.1","","100.90","","","","","","Mostly Cloudy"
"2001-04-11 07:00","2001","04","11","07:00","4.3","","-0.8","","69","","3","","11","","24.1","","100.93","","","","","","Mostly Cloudy"
"2001-04-11 08:00","2001","04","11","08:00","5.6","","0.0","","67","","3","","11","","24.1","","100.95","","","","","","Mostly Cloudy"
"2001-04-11 09:00","2001","04","11","09:00","7.1","","1.0","","65","","5","","13","","24.1","","101.03","","","","","","Cloudy"
"2001-04-11 10:00","2001","04","11","10:00","8.8","","1.7","","61","","6","","15","","24.1","","101.07","","","","","","Cloudy"
"2001-04-11 11:00","2001","04","11","11:00","10.0","","2.6","","60","","5","","15","","24.1","","101.03","","","","","","Cloudy"
"2001-04-11 12:00","2001","04","11","12:00","11.5","","4.1","","60","","8","","13","","24.1","","100.96","","","","","","Cloudy"
"2001-04-11 13:00","2001","04","11","13:00","12.0","","6.0","","67","","11","","19","","24.1","","100.93","","","","","","Cloudy"
"2001-04-11 14:00","2001","04","11","14:00","12.7","","6.9","","68","","8","","15","","19.3","","100.95","","","","","","Cloudy"
"2001-04-11 15:00","2001","04","11","15:00","12.9","","6.9","","67","","9","","15","","19.3","","100.99","","","","","","Cloudy"
"2001-04-11 16:00","2001","04","11","16:00","12.5","","7.8","","73","","9","","17","","16.1","","100.96","","","","","","Cloudy"
"2001-04-11 17:00","2001","04","11","17:00","11.9","","7.4","","74","","9","","15","","16.1","","100.96","","","","","","Cloudy"
"2001-04-11 18:00","2001","04","11","18:00","11.8","","6.7","","71","","10","","13","","16.1","","100.95","","","","","","Cloudy"
"2001-04-11 19:00","2001","04","11","19:00","11.2","","5.7","","69","","11","","15","","19.3","","100.97","","","","","","Cloudy"
"2001-04-11 20:00","2001","04","11","20:00","11.4","","5.2","","66","","11","","17","","24.1","","100.98","","","","","","Cloudy"
"2001-04-11 21:00","2001","04","11","21:00","10.6","","4.8","","67","","12","","20","","24.1","","100.95","","","","","","Cloudy"
"2001-04-11 22:00","2001","04","11","22:00","10.1","","4.9","","70","","12","","17","","24.1","","100.87","","","","","","Cloudy"
"2001-04-11 23:00","2001","04","11","23:00"
"2001-04-12 00:00","2001","04","12","00:00"
"2001-04-12 01:00","2001","04","12","01:00"
"2001-04-12 02:00","2001","04","12","02:00"
"2001-04-12 03:00","2001","04","12","03:00"
"2001-04-12 04:00","2001","04","12","04:00"
"2001-04-12 05:00","2001","04","12","05:00","6.7","","4.2","","84","","17","","19","","24.1","","100.32","","","","","","Cloudy"
"2001-04-12 06:00","2001","04","12","06:00","6.5","","5.1","","91","","16","","9","","9.7","","100.28","","","","","","Thunderstorms,Rain Showers,Fog"
"2001-04-12 07:00","2001","04","12","07:00","6.3","","5.0","","91","","16","","17","","24.1","","100.14","","","","","","Cloudy"
"2001-04-12 08:00","2001","04","12","08:00","8.1","","6.5","","90","","15","","17","","19.3","","100.06","","","","","","Cloudy"
"2001-04-12 09:00","2001","04","12","09:00","7.7","","6.4","","91","","17","","26","","24.1","","100.06","","","","","","Cloudy"
"2001-04-12 10:00","2001","04","12","10:00","7.0","","5.9","","93","","18","","26","","24.1","","99.98","","","","","","Cloudy"
"2001-04-12 11:00","2001","04","12","11:00","7.0","","5.9","","93","","18","","19","","19.3","","99.92","","","","","","Rain Showers"
"2001-04-12 12:00","2001","04","12","12:00","8.1","","7.4","","95","","12","","22","","24.1","","99.56","","","","","","Rain Showers"
"2001-04-12 13:00","2001","04","12","13:00","10.0","","8.6","","91","","13","","22","","19.3","","99.42","","","","","","Mostly Cloudy"
"2001-04-12 14:00","2001","04","12","14:00","10.8","","8.9","","88","","15","","9","","16.1","","99.36","","","","","","Mainly Clear"
"2001-04-12 15:00","2001","04","12","15:00","12.2","","9.8","","85","","15","","19","","16.1","","99.22","","","","","","Mainly Clear"
"2001-04-12 16:00","2001","04","12","16:00","8.1","","6.6","","90","","16","","13","","16.1","","99.05","","","","","","Mostly Cloudy"
"2001-04-12 17:00","2001","04","12","17:00","9.4","","7.1","","86","","16","","17","","16.1","","99.01","","","","","","Mainly Clear"
"2001-04-12 18:00","2001","04","12","18:00","9.0","","6.8","","86","","17","","32","","24.1","","98.99","","","","","","Mainly Clear"
"2001-04-12 19:00","2001","04","12","19:00","9.4","","6.8","","84","","20","","26","","19.3","","99.11","","","","","","Mainly Clear"
"2001-04-12 20:00","2001","04","12","20:00","7.6","","5.0","","84","","19","","22","","24.1","","99.20","","","","","","Mainly Clear"
"2001-04-12 21:00","2001","04","12","21:00","14.0","","5.7","","57","","25","","28","","24.1","","99.20","","","","","","Clear"
"2001-04-12 22:00","2001","04","12","22:00","11.0","","4.5","","64","","24","","28","","24.1","","99.29","","","","","","Clear"
"2001-04-12 23:00","2001","04","12","23:00"
"2001-04-13 00:00","2001","04","13","00:00"
"2001-04-13 01:00","2001","04","13","01:00"
"2001-04-13 02:00","2001","04","13","02:00"
"2001-04-13 03:00","2001","04","13","03:00"
"2001-04-13 04:00","2001","04","13","04:00"
"2001-04-13 05:00","2001","04","13","05:00","7.7","","2.1","","68","","26","","28","","24.1","","99.56","","","","","","Mainly Clear"
"2001-04-13 06:00","2001","04","13","06:00","6.9","","1.8","","70","","26","","22","","24.1","","99.65","","","","","","Mainly Clear"
"2001-04-13 07:00","2001","04","13","07:00","7.8","","2.1","","67","","25","","24","","24.1","","99.70","","","","","","Mostly Cloudy"
"2001-04-13 08:00","2001","04","13","08:00","7.4","","2.4","","71","","26","","26","","24.1","","99.72","","","","","","Mostly Cloudy"
"2001-04-13 09:00","2001","04","13","09:00","8.5","","2.3","","65","","28","","24","","24.1","","99.75","","","","","","Mostly Cloudy"
"2001-04-13 10:00","2001","04","13","10:00","8.4","","-0.3","","54","","27","","39","","24.1","","99.80","","","","","","Mostly Cloudy"
"2001-04-13 11:00","2001","04","13","11:00","8.4","","-0.6","","53","","27","","43","","24.1","","99.84","","","","","","Mostly Cloudy"
"2001-04-13 12:00","2001","04","13","12:00","8.2","","-0.9","","53","","27","","43","","24.1","","99.89","","","","","","Mostly Cloudy"
"2001-04-13 13:00","2001","04","13","13:00","8.4","","-0.5","","53","","27","","37","","24.1","","99.94","","","","","","Mostly Cloudy"
"2001-04-13 14:00","2001","04","13","14:00","10.0","","0.6","","52","","28","","37","","24.1","","99.97","","","","","","Mostly Cloudy"
"2001-04-13 15:00","2001","04","13","15:00","10.3","","0.3","","50","","27","","28","","24.1","","99.97","","","","","","Mostly Cloudy"
"2001-04-13 16:00","2001","04","13","16:00","11.7","","0.1","","45","","30","","28","","24.1","","100.04","","","","","","Mainly Clear"
"2001-04-13 17:00","2001","04","13","17:00","10.3","","0.6","","51","","28","","22","","24.1","","100.09","","","","","","Mainly Clear"
"2001-04-13 18:00","2001","04","13","18:00","10.1","","-1.2","","45","","29","","26","","24.1","","100.18","","","","","","Mainly Clear"
"2001-04-13 19:00","2001","04","13","19:00","8.3","","-0.3","","55","","27","","17","","24.1","","100.28","","","","","","Mainly Clear"
"2001-04-13 20:00","2001","04","13","20:00","6.7","","-0.2","","61","","27","","19","","24.1","","100.41","","","","","","Mostly Cloudy"
"2001-04-13 21:00","2001","04","13","21:00","6.0","","-0.8","","62","","27","","20","","24.1","","100.49","","","","","","Mainly Clear"
"2001-04-13 22:00","2001","04","13","22:00","5.2","","-0.9","","65","","27","","19","","24.1","","100.54","","","","","","Mainly Clear"
"2001-04-13 23:00","2001","04","13","23:00"
"2001-04-14 00:00","2001","04","14","00:00"
"2001-04-14 01:00","2001","04","14","01:00"
"2001-04-14 02:00","2001","04","14","02:00"
"2001-04-14 03:00","2001","04","14","03:00"
"2001-04-14 04:00","2001","04","14","04:00"
"2001-04-14 05:00","2001","04","14","05:00","-0.2","","-2.6","","84","","31","","9","","24.1","","100.63","","","","-3","","Mainly Clear"
"2001-04-14 06:00","2001","04","14","06:00","-0.1","","-2.4","","84","","34","","9","","24.1","","100.63","","","","-3","","Clear"
"2001-04-14 07:00","2001","04","14","07:00","1.4","","-1.5","","81","","33","","9","","24.1","","100.66","","","","","","Clear"
"2001-04-14 08:00","2001","04","14","08:00","4.2","","-0.2","","73","","32","","9","","24.1","","100.69","","","","","","Mainly Clear"
"2001-04-14 09:00","2001","04","14","09:00","6.3","","-2.4","","54","","2","","7","","24.1","","100.59","","","","","","Clear"
"2001-04-14 10:00","2001","04","14","10:00","5.7","","0.4","","69","","20","","7","","24.1","","100.58","","","","","","Mainly Clear"
"2001-04-14 11:00","2001","04","14","11:00","6.0","","0.2","","66","","19","","22","","24.1","","100.56","","","","","","Mainly Clear"
"2001-04-14 12:00","2001","04","14","12:00","6.2","","-0.8","","61","","18","","19","","24.1","","100.49","","","","","","Mainly Clear"
"2001-04-14 13:00","2001","04","14","13:00","6.0","","0.6","","68","","19","","26","","24.1","","100.45","","","","","","Mainly Clear"
"2001-04-14 14:00","2001","04","14","14:00","5.5","","0.0","","68","","20","","22","","24.1","","100.42","","","","","","Mostly Cloudy"
"2001-04-14 15:00","2001","04","14","15:00","5.5","","-1.1","","62","","20","","22","","24.1","","100.35","","","","","","Cloudy"
"2001-04-14 16:00","2001","04","14","16:00","5.9","","-1.2","","60","","20","","24","","24.1","","100.30","","","","","","Cloudy"
"2001-04-14 17:00","2001","04","14","17:00","5.5","","-0.9","","63","","21","","20","","24.1","","100.30","","","","","","Mostly Cloudy"
"2001-04-14 18:00","2001","04","14","18:00","4.8","","-1.0","","66","","22","","17","","24.1","","100.29","","","","","","Mostly Cloudy"
"2001-04-14 19:00","2001","04","14","19:00","4.1","","-0.4","","72","","20","","6","","24.1","","100.26","","","","","","Mostly Cloudy"
"2001-04-14 20:00","2001","04","14","20:00","5.1","","0.1","","70","","","","0","","24.1","","100.26","","","","","","Mostly Cloudy"
"2001-04-14 21:00","2001","04","14","21:00","5.5","","-0.1","","67","","31","","6","","24.1","","100.28","","","","","","Cloudy"
"2001-04-14 22:00","2001","04","14","22:00","4.7","","1.3","","79","","26","","11","","24.1","","100.27","","","","","","Rain Showers"
"2001-04-14 23:00","2001","04","14","23:00"
"2001-04-15 00:00","2001","04","15","00:00"
"2001-04-15 01:00","2001","04","15","01:00"
"2001-04-15 02:00","2001","04","15","02:00"
"2001-04-15 03:00","2001","04","15","03:00"
"2001-04-15 04:00","2001","04","15","04:00"
"2001-04-15 05:00","2001","04","15","05:00","1.5","","-0.1","","89","","36","","9","","16.1","","100.15","","","","","","Mainly Clear"
"2001-04-15 06:00","2001","04","15","06:00","2.0","","0.3","","88","","","","0","","24.1","","100.18","","","","","","Mainly Clear"
"2001-04-15 07:00","2001","04","15","07:00","3.4","","1.6","","88","","34","","4","","24.1","","100.19","","","","","","Mainly Clear"
"2001-04-15 08:00","2001","04","15","08:00","5.7","","2.2","","78","","7","","6","","24.1","","100.23","","","","","","Mainly Clear"
"2001-04-15 09:00","2001","04","15","09:00","8.1","","2.3","","67","","9","","15","","24.1","","100.21","","","","","","Mainly Clear"
"2001-04-15 10:00","2001","04","15","10:00","10.0","","1.1","","54","","11","","17","","24.1","","100.14","","","","","","Mostly Cloudy"
"2001-04-15 11:00","2001","04","15","11:00","9.7","","0.3","","52","","11","","22","","24.1","","100.12","","","","","","Mostly Cloudy"
"2001-04-15 12:00","2001","04","15","12:00","10.6","","-4.5","","34","","12","","26","","24.1","","100.10","","","","","","Mostly Cloudy"
"2001-04-15 13:00","2001","04","15","13:00","11.6","","-3.0","","36","","11","","24","","24.1","","100.09","","","","","","Cloudy"
"2001-04-15 14:00","2001","04","15","14:00","11.8","","-2.8","","36","","11","","19","","24.1","","100.05","","","","","","Cloudy"
"2001-04-15 15:00","2001","04","15","15:00","11.7","","-3.0","","36","","10","","17","","24.1","","99.97","","","","","","Cloudy"
"2001-04-15 16:00","2001","04","15","16:00","12.8","","-3.0","","33","","7","","13","","24.1","","99.89","","","","","","Cloudy"
"2001-04-15 17:00","2001","04","15","17:00","12.0","","-3.1","","35","","5","","19","","24.1","","99.83","","","","","","Cloudy"
"2001-04-15 18:00","2001","04","15","18:00","11.5","","-3.0","","36","","5","","19","","24.1","","99.81","","","","","","Cloudy"
"2001-04-15 19:00","2001","04","15","19:00","10.4","","-2.5","","40","","4","","11","","24.1","","99.80","","","","","","Cloudy"
"2001-04-15 20:00","2001","04","15","20:00","9.5","","-2.4","","43","","4","","15","","24.1","","99.82","","","","","","Cloudy"
"2001-04-15 21:00","2001","04","15","21:00","8.4","","-2.1","","48","","4","","11","","24.1","","99.81","","","","","","Cloudy"
"2001-04-15 22:00","2001","04","15","22:00","8.3","","-2.6","","46","","3","","17","","24.1","","99.79","","","","","","Cloudy"
"2001-04-15 23:00","2001","04","15","23:00"
"2001-04-16 00:00","2001","04","16","00:00"
"2001-04-16 01:00","2001","04","16","01:00"
"2001-04-16 02:00","2001","04","16","02:00"
"2001-04-16 03:00","2001","04","16","03:00"
"2001-04-16 04:00","2001","04","16","04:00"
"2001-04-16 05:00","2001","04","16","05:00","3.7","","-8.2","","41","","4","","15","","24.1","","99.91","","","","","","Cloudy"
"2001-04-16 06:00","2001","04","16","06:00","3.3","","-8.1","","43","","3","","17","","24.1","","99.96","","","","","","Cloudy"
"2001-04-16 07:00","2001","04","16","07:00","3.7","","-7.9","","42","","3","","22","","24.1","","99.99","","","","","","Cloudy"
"2001-04-16 08:00","2001","04","16","08:00","5.7","","-7.0","","40","","3","","19","","24.1","","99.99","","","","","","Cloudy"
"2001-04-16 09:00","2001","04","16","09:00","7.5","","-6.4","","37","","5","","13","","24.1","","99.99","","","","","","Cloudy"
"2001-04-16 10:00","2001","04","16","10:00","9.2","","-6.7","","32","","36","","9","","24.1","","100.00","","","","","","Cloudy"
"2001-04-16 11:00","2001","04","16","11:00","8.0","","-2.7","","47","","18","","11","","24.1","","99.96","","","","","","Cloudy"
"2001-04-16 12:00","2001","04","16","12:00","9.2","","-4.8","","37","","16","","13","","24.1","","99.92","","","","","","Cloudy"
"2001-04-16 13:00","2001","04","16","13:00","7.0","","-0.6","","58","","18","","15","","24.1","","99.89","","","","","","Cloudy"
"2001-04-16 14:00","2001","04","16","14:00","7.2","","-2.7","","49","","20","","15","","24.1","","99.85","","","","","","Cloudy"
"2001-04-16 15:00","2001","04","16","15:00","5.9","","0.5","","68","","16","","11","","24.1","","99.80","","","","","","Cloudy"
"2001-04-16 16:00","2001","04","16","16:00","6.7","","0.2","","63","","20","","13","","24.1","","99.77","","","","","","Cloudy"
"2001-04-16 17:00","2001","04","16","17:00","9.8","","-3.9","","38","","24","","9","","24.1","","99.74","","","","","","Cloudy"
"2001-04-16 18:00","2001","04","16","18:00","8.1","","-3.9","","42","","27","","9","","24.1","","99.71","","","","","","Cloudy"
"2001-04-16 19:00","2001","04","16","19:00","7.4","","-4.6","","42","","28","","7","","24.1","","99.73","","","","","","Cloudy"
"2001-04-16 20:00","2001","04","16","20:00","7.0","","-5.4","","41","","29","","9","","24.1","","99.77","","","","","","Cloudy"
"2001-04-16 21:00","2001","04","16","21:00","6.1","","-3.8","","49","","31","","11","","24.1","","99.79","","","","","","Cloudy"
"2001-04-16 22:00","2001","04","16","22:00","4.8","","-4.9","","49","","34","","11","","24.1","","99.76","","","","","","Cloudy"
"2001-04-16 23:00","2001","04","16","23:00"
"2001-04-17 00:00","2001","04","17","00:00"
"2001-04-17 01:00","2001","04","17","01:00"
"2001-04-17 02:00","2001","04","17","02:00"
"2001-04-17 03:00","2001","04","17","03:00"
"2001-04-17 04:00","2001","04","17","04:00"
"2001-04-17 05:00","2001","04","17","05:00","4.3","","-7.7","","41","","4","","15","","24.1","","99.75","","","","","","Cloudy"
"2001-04-17 06:00","2001","04","17","06:00","3.9","","-7.6","","43","","4","","20","","24.1","","99.78","","","","","","Mostly Cloudy"
"2001-04-17 07:00","2001","04","17","07:00","4.3","","-8.5","","39","","5","","26","","24.1","","99.85","","","","","","Mostly Cloudy"
"2001-04-17 08:00","2001","04","17","08:00","5.2","","-8.2","","37","","5","","30","","24.1","","99.89","","","","","","Mostly Cloudy"
"2001-04-17 09:00","2001","04","17","09:00","5.7","","-8.3","","36","","3","","24","","24.1","","99.93","","","","","","Mostly Cloudy"
"2001-04-17 10:00","2001","04","17","10:00","6.9","","-7.9","","34","","4","","28","","24.1","","99.97","","","","","","Cloudy"
"2001-04-17 11:00","2001","04","17","11:00","7.6","","-7.9","","32","","4","","30","","24.1","","99.97","","","","","","Cloudy"
"2001-04-17 12:00","2001","04","17","12:00","7.7","","-8.2","","31","","2","","28","","24.1","","99.98","","","","","","Cloudy"
"2001-04-17 13:00","2001","04","17","13:00","8.4","","-8.6","","29","","2","","30","","24.1","","99.97","","","","","","Cloudy"
"2001-04-17 14:00","2001","04","17","14:00","7.9","","-9.9","","27","","3","","28","","24.1","","99.99","","","","","","Cloudy"
"2001-04-17 15:00","2001","04","17","15:00","8.2","","-9.9","","27","","1","","26","","24.1","","99.99","","","","","","Cloudy"
"2001-04-17 16:00","2001","04","17","16:00","8.2","","-10.5","","25","","3","","28","","24.1","","99.99","","","","","","Cloudy"
"2001-04-17 17:00","2001","04","17","17:00","8.2","","-10.9","","25","","3","","26","","24.1","","100.01","","","","","","Cloudy"
"2001-04-17 18:00","2001","04","17","18:00","7.2","","-11.8","","24","","3","","26","","24.1","","100.05","","","","","","Cloudy"
"2001-04-17 19:00","2001","04","17","19:00","5.8","","-12.8","","25","","36","","20","","24.1","","100.10","","","","","","Mostly Cloudy"
"2001-04-17 20:00","2001","04","17","20:00","4.3","","-12.1","","29","","36","","19","","24.1","","100.19","","","","","","Mainly Clear"
"2001-04-17 21:00","2001","04","17","21:00","3.3","","-11.1","","34","","36","","24","","24.1","","100.26","","","","","","Mainly Clear"
"2001-04-17 22:00","2001","04","17","22:00","2.6","","-10.2","","38","","36","","22","","24.1","","100.29","","","","","","Mainly Clear"
"2001-04-17 23:00","2001","04","17","23:00"
"2001-04-18 00:00","2001","04","18","00:00"
"2001-04-18 01:00","2001","04","18","01:00"
"2001-04-18 02:00","2001","04","18","02:00"
"2001-04-18 03:00","2001","04","18","03:00"
"2001-04-18 04:00","2001","04","18","04:00"
"2001-04-18 05:00","2001","04","18","05:00","-1.0","","-10.7","","48","","1","","22","","24.1","","100.37","","","","-7","","Mainly Clear"
"2001-04-18 06:00","2001","04","18","06:00","-1.0","","-9.9","","51","","36","","22","","24.1","","100.45","","","","-7","","Mainly Clear"
"2001-04-18 07:00","2001","04","18","07:00","-0.3","","-10.0","","48","","1","","30","","24.1","","100.48","","","","-7","","Mainly Clear"
"2001-04-18 08:00","2001","04","18","08:00","0.4","","-10.4","","44","","36","","30","","24.1","","100.51","","","","","","Mainly Clear"
"2001-04-18 09:00","2001","04","18","09:00","1.7","","-10.6","","40","","2","","22","","24.1","","100.50","","","","","","Mainly Clear"
"2001-04-18 10:00","2001","04","18","10:00","3.0","","-9.9","","38","","36","","24","","24.1","","100.48","","","","","","Mainly Clear"
"2001-04-18 11:00","2001","04","18","11:00","3.2","","-10.1","","37","","35","","30","","24.1","","100.44","","","","","","Mainly Clear"
"2001-04-18 12:00","2001","04","18","12:00","4.4","","-9.6","","35","","34","","13","","24.1","","100.41","","","","","","Mainly Clear"
"2001-04-18 13:00","2001","04","18","13:00","4.1","","-10.4","","34","","36","","19","","24.1","","100.37","","","","","","Mainly Clear"
"2001-04-18 14:00","2001","04","18","14:00","5.0","","-9.2","","35","","31","","13","","24.1","","100.38","","","","","","Mainly Clear"
"2001-04-18 15:00","2001","04","18","15:00","5.6","","-9.2","","34","","29","","13","","24.1","","100.36","","","","","","Mainly Clear"
"2001-04-18 16:00","2001","04","18","16:00","6.5","","-9.0","","32","","30","","17","","24.1","","100.36","","","","","","Mainly Clear"
"2001-04-18 17:00","2001","04","18","17:00","5.0","","-10.3","","32","","30","","7","","24.1","","100.39","","","","","","Mainly Clear"
"2001-04-18 18:00","2001","04","18","18:00","5.1","","-10.4","","32","","30","","13","","24.1","","100.42","","","","","","Mainly Clear"
"2001-04-18 19:00","2001","04","18","19:00","4.4","","-9.7","","35","","28","","9","","24.1","","100.47","","","","","","Mainly Clear"
"2001-04-18 20:00","2001","04","18","20:00","2.3","","-5.0","","58","","25","","19","","24.1","","100.54","","","","","","Mainly Clear"
"2001-04-18 21:00","2001","04","18","21:00","1.1","","-6.2","","58","","27","","7","","24.1","","100.59","","","","","","Mainly Clear"
"2001-04-18 22:00","2001","04","18","22:00","-0.6","","-6.2","","66","","28","","6","","24.1","","100.60","","","","-3","","Clear"
"2001-04-18 23:00","2001","04","18","23:00"
"2001-04-19 00:00","2001","04","19","00:00"
"2001-04-19 01:00","2001","04","19","01:00"
"2001-04-19 02:00","2001","04","19","02:00"
"2001-04-19 03:00","2001","04","19","03:00"
"2001-04-19 04:00","2001","04","19","04:00"
"2001-04-19 05:00","2001","04","19","05:00","-2.9","","-9.7","","59","","32","","11","","24.1","","100.79","","","","-7","","Mainly Clear"
"2001-04-19 06:00","2001","04","19","06:00","-2.5","","-9.7","","58","","32","","7","","24.1","","100.89","","","","-5","","Mainly Clear"
"2001-04-19 07:00","2001","04","19","07:00","0.1","","-8.2","","54","","33","","11","","24.1","","100.99","","","","","","Mainly Clear"
"2001-04-19 08:00","2001","04","19","08:00","3.0","","-8.0","","44","","34","","11","","24.1","","101.03","","","","","","Mainly Clear"
"2001-04-19 09:00","2001","04","19","09:00","4.1","","-7.0","","44","","23","","11","","24.1","","101.06","","","","","","Clear"
"2001-04-19 10:00","2001","04","19","10:00","6.3","","-8.1","","35","","31","","15","","24.1","","101.06","","","","","","Clear"
"2001-04-19 11:00","2001","04","19","11:00","6.6","","-7.7","","35","","24","","17","","24.1","","101.05","","","","","","Mainly Clear"
"2001-04-19 12:00","2001","04","19","12:00","4.7","","-0.8","","67","","20","","32","","24.1","","101.05","","","","","","Mainly Clear"
"2001-04-19 13:00","2001","04","19","13:00","4.6","","0.0","","72","","20","","28","","24.1","","101.03","","","","","","Mainly Clear"
"2001-04-19 14:00","2001","04","19","14:00","5.4","","0.6","","71","","19","","30","","24.1","","101.03","","","","","","Mostly Cloudy"
"2001-04-19 15:00","2001","04","19","15:00","6.8","","-2.4","","52","","22","","32","","24.1","","101.01","","","","","","Mainly Clear"
"2001-04-19 16:00","2001","04","19","16:00","7.4","","-5.4","","40","","22","","32","","24.1","","101.03","","","","","","Mainly Clear"
"2001-04-19 17:00","2001","04","19","17:00","7.2","","-4.5","","43","","23","","24","","24.1","","101.07","","","","","","Mostly Cloudy"
"2001-04-19 18:00","2001","04","19","18:00","6.2","","-5.0","","44","","22","","22","","24.1","","101.09","","","","","","Mostly Cloudy"
"2001-04-19 19:00","2001","04","19","19:00","5.2","","-4.6","","49","","22","","13","","24.1","","101.11","","","","","","Mostly Cloudy"
"2001-04-19 20:00","2001","04","19","20:00","4.2","","-4.1","","55","","22","","11","","24.1","","101.16","","","","","","Mainly Clear"
"2001-04-19 21:00","2001","04","19","21:00","3.3","","-3.0","","63","","20","","9","","24.1","","101.21","","","","","","Mainly Clear"
"2001-04-19 22:00","2001","04","19","22:00","2.8","","-0.1","","81","","18","","11","","24.1","","101.23","","","","","","Clear"
"2001-04-19 23:00","2001","04","19","23:00"
"2001-04-20 00:00","2001","04","20","00:00"
"2001-04-20 01:00","2001","04","20","01:00"
"2001-04-20 02:00","2001","04","20","02:00"
"2001-04-20 03:00","2001","04","20","03:00"
"2001-04-20 04:00","2001","04","20","04:00"
"2001-04-20 05:00","2001","04","20","05:00","2.6","","-1.2","","76","","18","","11","","24.1","","101.39","","","","","","Clear"
"2001-04-20 06:00","2001","04","20","06:00","2.9","","-1.1","","75","","18","","9","","24.1","","101.40","","","","","","Clear"
"2001-04-20 07:00","2001","04","20","07:00","4.0","","-0.5","","72","","21","","7","","24.1","","101.45","","","","","","Clear"
"2001-04-20 08:00","2001","04","20","08:00","4.8","","-0.6","","68","","16","","7","","24.1","","101.45","","","","","","Clear"
"2001-04-20 09:00","2001","04","20","09:00","6.2","","-1.6","","57","","17","","6","","24.1","","101.42","","","","","","Mainly Clear"
"2001-04-20 10:00","2001","04","20","10:00","7.7","","-2.6","","48","","18","","9","","24.1","","101.38","","","","","","Mainly Clear"
"2001-04-20 11:00","2001","04","20","11:00","8.8","","-3.0","","43","","19","","13","","24.1","","101.33","","","","","","Mainly Clear"
"2001-04-20 12:00","2001","04","20","12:00","10.6","","-3.6","","37","","17","","9","","24.1","","101.28","","","","","","Mainly Clear"
"2001-04-20 13:00","2001","04","20","13:00","11.4","","-4.1","","33","","16","","9","","24.1","","101.22","","","","","","Mainly Clear"
"2001-04-20 14:00","2001","04","20","14:00","12.0","","-3.7","","33","","18","","11","","24.1","","101.18","","","","","","Mostly Cloudy"
"2001-04-20 15:00","2001","04","20","15:00","12.6","","-3.1","","33","","17","","11","","24.1","","101.08","","","","","","Mostly Cloudy"
"2001-04-20 16:00","2001","04","20","16:00","13.4","","-2.6","","33","","19","","7","","24.1","","101.04","","","","","","Mostly Cloudy"
"2001-04-20 17:00","2001","04","20","17:00","14.2","","-3.1","","30","","","","0","","24.1","","101.03","","","","","","Mostly Cloudy"
"2001-04-20 18:00","2001","04","20","18:00","13.2","","-3.1","","32","","17","","4","","24.1","","101.03","","","","","","Mostly Cloudy"
"2001-04-20 19:00","2001","04","20","19:00","12.5","","-3.8","","32","","17","","4","","24.1","","101.04","","","","","","Mostly Cloudy"
"2001-04-20 20:00","2001","04","20","20:00","10.2","","-0.8","","46","","21","","17","","24.1","","101.15","","","","","","Mainly Clear"
"2001-04-20 21:00","2001","04","20","21:00","8.1","","2.1","","66","","22","","17","","24.1","","101.25","","","","","","Mainly Clear"
"2001-04-20 22:00","2001","04","20","22:00","5.6","","2.5","","80","","18","","15","","24.1","","101.27","","","","","","Mainly Clear"
"2001-04-20 23:00","2001","04","20","23:00"
"2001-04-21 00:00","2001","04","21","00:00"
"2001-04-21 01:00","2001","04","21","01:00"
"2001-04-21 02:00","2001","04","21","02:00"
"2001-04-21 03:00","2001","04","21","03:00"
"2001-04-21 04:00","2001","04","21","04:00"
"2001-04-21 05:00","2001","04","21","05:00","7.8","","3.8","","76","","12","","11","","24.1","","101.15","","","","","","Mostly Cloudy"
"2001-04-21 06:00","2001","04","21","06:00","8.7","","4.5","","75","","13","","13","","24.1","","101.21","","","","","","Mostly Cloudy"
"2001-04-21 07:00","2001","04","21","07:00","8.4","","4.8","","78","","14","","15","","24.1","","101.21","","","","","","Cloudy"
"2001-04-21 08:00","2001","04","21","08:00","9.2","","6.0","","80","","14","","20","","24.1","","101.16","","","","","","Cloudy"
"2001-04-21 09:00","2001","04","21","09:00","8.0","","5.6","","85","","16","","15","","24.1","","101.18","","","","","","Cloudy"
"2001-04-21 10:00","2001","04","21","10:00","9.2","","6.4","","83","","16","","15","","24.1","","101.15","","","","","","Cloudy"
"2001-04-21 11:00","2001","04","21","11:00","8.6","","6.2","","85","","16","","19","","19.3","","101.14","","","","","","Cloudy"
"2001-04-21 12:00","2001","04","21","12:00","9.2","","6.3","","82","","16","","13","","19.3","","101.10","","","","","","Cloudy"
"2001-04-21 13:00","2001","04","21","13:00","11.8","","7.7","","76","","16","","19","","16.1","","101.00","","","","","","Cloudy"
"2001-04-21 14:00","2001","04","21","14:00","12.1","","8.2","","77","","17","","15","","19.3","","100.94","","","","","","Cloudy"
"2001-04-21 15:00","2001","04","21","15:00","12.5","","8.5","","77","","16","","6","","12.9","","100.80","","","","","","Cloudy"
"2001-04-21 16:00","2001","04","21","16:00","13.1","","8.5","","74","","14","","9","","12.9","","100.71","","","","","","Cloudy"
"2001-04-21 17:00","2001","04","21","17:00","13.3","","10.4","","83","","14","","9","","6.4","","100.71","","","","","","Rain Showers,Haze"
"2001-04-21 18:00","2001","04","21","18:00","8.4","","7.3","","93","","20","","22","","4.8","","100.75","","","","","","Rain Showers,Fog"
"2001-04-21 19:00","2001","04","21","19:00","10.2","","9.7","","97","","25","","4","","2.4","","100.74","","","","","","Rain Showers,Fog"
"2001-04-21 20:00","2001","04","21","20:00","8.9","","8.7","","99","","16","","7","","0.4","","100.74","","","","","","Drizzle,Fog"
"2001-04-21 21:00","2001","04","21","21:00","7.7","","7.3","","97","","18","","13","","0.6","","100.70","","","","","","Drizzle,Fog"
"2001-04-21 22:00","2001","04","21","22:00","6.9","","6.6","","98","","21","","11","","4.8","","100.64","","","","","","Rain Showers,Fog"
"2001-04-21 23:00","2001","04","21","23:00"
"2001-04-22 00:00","2001","04","22","00:00"
"2001-04-22 01:00","2001","04","22","01:00"
"2001-04-22 02:00","2001","04","22","02:00"
"2001-04-22 03:00","2001","04","22","03:00"
"2001-04-22 04:00","2001","04","22","04:00"
"2001-04-22 05:00","2001","04","22","05:00","6.4","","5.5","","94","","21","","19","","8.0","","100.36","","","","","","Fog"
"2001-04-22 06:00","2001","04","22","06:00","12.0","","10.7","","92","","25","","22","","24.1","","100.41","","","","","","Mainly Clear"
"2001-04-22 07:00","2001","04","22","07:00","12.6","","10.7","","88","","25","","24","","9.7","","100.54","","","","","","Fog"
"2001-04-22 08:00","2001","04","22","08:00","13.3","","9.3","","77","","27","","32","","24.1","","100.65","","","","","","Mainly Clear"
"2001-04-22 09:00","2001","04","22","09:00","13.6","","8.4","","71","","27","","30","","24.1","","100.82","","","","","","Mainly Clear"
"2001-04-22 10:00","2001","04","22","10:00","13.1","","7.9","","71","","26","","32","","24.1","","100.93","","","","","","Mainly Clear"
"2001-04-22 11:00","2001","04","22","11:00","13.9","","8.0","","68","","27","","32","","24.1","","101.01","","","","","","Mostly Cloudy"
"2001-04-22 12:00","2001","04","22","12:00","13.3","","7.5","","68","","26","","22","","24.1","","101.03","","","","","","Mainly Clear"
"2001-04-22 13:00","2001","04","22","13:00","14.2","","7.8","","65","","26","","26","","24.1","","101.10","","","","","","Mostly Cloudy"
"2001-04-22 14:00","2001","04","22","14:00","14.9","","7.9","","63","","24","","20","","24.1","","101.19","","","","","","Mainly Clear"
"2001-04-22 15:00","2001","04","22","15:00","17.5","","8.5","","55","","31","","19","","24.1","","101.15","","","","","","Mostly Cloudy"
"2001-04-22 16:00","2001","04","22","16:00","18.5","","8.4","","52","","31","","19","","24.1","","101.18","","","","","","Mostly Cloudy"
"2001-04-22 17:00","2001","04","22","17:00","11.3","","6.3","","71","","27","","7","","24.1","","101.20","","","","","","Mostly Cloudy"
"2001-04-22 18:00","2001","04","22","18:00","7.3","","4.9","","85","","18","","9","","24.1","","101.25","","","","","","Mostly Cloudy"
"2001-04-22 19:00","2001","04","22","19:00","7.1","","4.7","","85","","19","","11","","24.1","","101.25","","","","","","Mostly Cloudy"
"2001-04-22 20:00","2001","04","22","20:00","7.9","","5.2","","83","","6","","4","","24.1","","101.29","","","","","","Mostly Cloudy"
"2001-04-22 21:00","2001","04","22","21:00","7.1","","4.8","","85","","6","","6","","24.1","","101.34","","","","","","Mainly Clear"
"2001-04-22 22:00","2001","04","22","22:00","8.2","","5.8","","85","","","","0","","24.1","","101.35","","","","","","Mostly Cloudy"
"2001-04-22 23:00","2001","04","22","23:00"
"2001-04-23 00:00","2001","04","23","00:00"
"2001-04-23 01:00","2001","04","23","01:00"
"2001-04-23 02:00","2001","04","23","02:00"
"2001-04-23 03:00","2001","04","23","03:00"
"2001-04-23 04:00","2001","04","23","04:00"
"2001-04-23 05:00","2001","04","23","05:00","9.1","","5.0","","75","","9","","13","","24.1","","101.06","","","","","","Mostly Cloudy"
"2001-04-23 06:00","2001","04","23","06:00","9.1","","5.3","","77","","11","","11","","24.1","","101.04","","","","","","Mostly Cloudy"
"2001-04-23 07:00","2001","04","23","07:00","10.6","","6.2","","74","","8","","11","","24.1","","101.00","","","","","","Mainly Clear"
"2001-04-23 08:00","2001","04","23","08:00","12.1","","7.3","","72","","9","","9","","24.1","","100.94","","","","","","Mostly Cloudy"
"2001-04-23 09:00","2001","04","23","09:00","13.3","","8.3","","72","","14","","11","","24.1","","100.84","","","","","","Mostly Cloudy"
"2001-04-23 10:00","2001","04","23","10:00","14.8","","9.0","","68","","16","","11","","24.1","","100.75","","","","","","Mostly Cloudy"
"2001-04-23 11:00","2001","04","23","11:00","14.0","","8.4","","69","","20","","13","","24.1","","100.64","","","","","","Cloudy"
"2001-04-23 12:00","2001","04","23","12:00","13.5","","8.3","","71","","18","","11","","24.1","","100.51","","","","","","Cloudy"
"2001-04-23 13:00","2001","04","23","13:00","14.9","","9.8","","72","","18","","13","","24.1","","100.37","","","","","","Cloudy"
"2001-04-23 14:00","2001","04","23","14:00","17.8","","11.6","","67","","22","","17","","24.1","","100.29","","","","","","Mostly Cloudy"
"2001-04-23 15:00","2001","04","23","15:00","14.8","","10.8","","77","","19","","17","","24.1","","100.15","","","","","","Mostly Cloudy"
"2001-04-23 16:00","2001","04","23","16:00","13.0","","9.5","","79","","18","","13","","19.3","","100.03","","","","","","Mostly Cloudy"
"2001-04-23 17:00","2001","04","23","17:00","19.4","","13.1","","67","","21","","13","","19.3","","99.95","","","","","","Mostly Cloudy"
"2001-04-23 18:00","2001","04","23","18:00","22.1","","13.3","","57","","25","","13","","19.3","","99.84","","25","","","","Mostly Cloudy"
"2001-04-23 19:00","2001","04","23","19:00","12.9","","8.5","","75","","21","","7","","24.1","","99.80","","","","","","Mostly Cloudy"
"2001-04-23 20:00","2001","04","23","20:00","10.6","","8.0","","84","","16","","13","","24.1","","99.78","","","","","","Mostly Cloudy"
"2001-04-23 21:00","2001","04","23","21:00","9.0","","6.9","","87","","18","","7","","24.1","","99.77","","","","","","Mainly Clear"
"2001-04-23 22:00","2001","04","23","22:00","9.0","","7.4","","90","","19","","9","","24.1","","99.68","","","","","","Mainly Clear"
"2001-04-23 23:00","2001","04","23","23:00"
"2001-04-24 00:00","2001","04","24","00:00"
"2001-04-24 01:00","2001","04","24","01:00"
"2001-04-24 02:00","2001","04","24","02:00"
"2001-04-24 03:00","2001","04","24","03:00"
"2001-04-24 04:00","2001","04","24","04:00"
"2001-04-24 05:00","2001","04","24","05:00","16.6","","11.7","","73","","25","","22","","24.1","","99.45","","","","","","Cloudy"
"2001-04-24 06:00","2001","04","24","06:00","15.7","","11.6","","77","","24","","22","","24.1","","99.47","","","","","","Cloudy"
"2001-04-24 07:00","2001","04","24","07:00","13.6","","10.8","","83","","25","","30","","19.3","","99.56","","","","","","Rain Showers"
"2001-04-24 08:00","2001","04","24","08:00","12.6","","10.6","","88","","24","","33","","24.1","","99.63","","","","","","Cloudy"
"2001-04-24 09:00","2001","04","24","09:00","11.3","","5.7","","68","","24","","39","","24.1","","99.68","","","","","","Mostly Cloudy"
"2001-04-24 10:00","2001","04","24","10:00","11.7","","5.0","","63","","24","","37","","24.1","","99.76","","","","","","Mostly Cloudy"
"2001-04-24 11:00","2001","04","24","11:00","11.1","","4.2","","62","","24","","39","","24.1","","99.88","","","","","","Mostly Cloudy"
"2001-04-24 12:00","2001","04","24","12:00","11.3","","3.0","","57","","24","","43","","24.1","","99.91","","","","","","Mostly Cloudy"
"2001-04-24 13:00","2001","04","24","13:00","11.3","","3.3","","58","","24","","48","","24.1","","99.96","","","","","","Mostly Cloudy"
"2001-04-24 14:00","2001","04","24","14:00","9.9","","3.1","","63","","24","","41","","24.1","","100.02","","","","","","Cloudy"
"2001-04-24 15:00","2001","04","24","15:00","9.2","","2.5","","63","","27","","32","","24.1","","100.16","","","","","","Mostly Cloudy"
"2001-04-24 16:00","2001","04","24","16:00","8.4","","2.8","","68","","28","","39","","24.1","","100.23","","","","","","Mostly Cloudy"
"2001-04-24 17:00","2001","04","24","17:00","8.8","","0.1","","54","","27","","35","","24.1","","100.34","","","","","","Mostly Cloudy"
"2001-04-24 18:00","2001","04","24","18:00","8.3","","-1.0","","52","","27","","35","","24.1","","100.43","","","","","","Mostly Cloudy"
"2001-04-24 19:00","2001","04","24","19:00","7.1","","-1.2","","55","","28","","28","","24.1","","100.56","","","","","","Mainly Clear"
"2001-04-24 20:00","2001","04","24","20:00","6.2","","1.0","","69","","31","","22","","24.1","","100.74","","","","","","Mainly Clear"
"2001-04-24 21:00","2001","04","24","21:00","5.0","","-0.4","","68","","32","","20","","24.1","","100.94","","","","","","Mainly Clear"
"2001-04-24 22:00","2001","04","24","22:00","3.7","","-1.5","","69","","34","","17","","24.1","","101.08","","","","","","Clear"
"2001-04-24 23:00","2001","04","24","23:00"
"2001-04-25 00:00","2001","04","25","00:00"
"2001-04-25 01:00","2001","04","25","01:00"
"2001-04-25 02:00","2001","04","25","02:00"
"2001-04-25 03:00","2001","04","25","03:00"
"2001-04-25 04:00","2001","04","25","04:00"
"2001-04-25 05:00","2001","04","25","05:00","-0.3","","-3.1","","81","","30","","7","","24.1","","101.30","","","","-3","","Mainly Clear"
"2001-04-25 06:00","2001","04","25","06:00","0.2","","-2.6","","81","","28","","7","","24.1","","101.37","","","","","","Mainly Clear"
"2001-04-25 07:00","2001","04","25","07:00","1.7","","-1.5","","79","","29","","11","","24.1","","101.40","","","","","","Mainly Clear"
"2001-04-25 08:00","2001","04","25","08:00","4.4","","-0.5","","70","","30","","13","","24.1","","101.42","","","","","","Mainly Clear"
"2001-04-25 09:00","2001","04","25","09:00","7.7","","1.2","","63","","31","","6","","24.1","","101.41","","","","","","Mainly Clear"
"2001-04-25 10:00","2001","04","25","10:00","6.4","","2.6","","77","","17","","19","","24.1","","101.45","","","","","","Mainly Clear"
"2001-04-25 11:00","2001","04","25","11:00","6.0","","3.4","","83","","17","","19","","24.1","","101.45","","","","","","Mostly Cloudy"
"2001-04-25 12:00","2001","04","25","12:00","6.3","","3.9","","85","","16","","20","","24.1","","101.43","","","","","","Mostly Cloudy"
"2001-04-25 13:00","2001","04","25","13:00","6.8","","3.3","","78","","18","","20","","24.1","","101.39","","","","","","Mostly Cloudy"
"2001-04-25 14:00","2001","04","25","14:00","7.0","","3.9","","81","","18","","22","","24.1","","101.37","","","","","","Mostly Cloudy"
"2001-04-25 15:00","2001","04","25","15:00","7.9","","3.5","","74","","19","","24","","24.1","","101.34","","","","","","Mostly Cloudy"
"2001-04-25 16:00","2001","04","25","16:00","8.2","","1.9","","64","","20","","26","","24.1","","101.29","","","","","","Mainly Clear"
"2001-04-25 17:00","2001","04","25","17:00","8.3","","1.6","","63","","21","","24","","24.1","","101.30","","","","","","Mainly Clear"
"2001-04-25 18:00","2001","04","25","18:00","7.4","","1.8","","68","","24","","19","","24.1","","101.31","","","","","","Clear"
"2001-04-25 19:00","2001","04","25","19:00","8.7","","-2.9","","44","","22","","13","","24.1","","101.33","","","","","","Clear"
"2001-04-25 20:00","2001","04","25","20:00","5.9","","-0.7","","63","","20","","9","","24.1","","101.36","","","","","","Clear"
"2001-04-25 21:00","2001","04","25","21:00","5.5","","-0.3","","66","","21","","6","","24.1","","101.43","","","","","","Clear"
"2001-04-25 22:00","2001","04","25","22:00","5.6","","-2.4","","56","","22","","9","","24.1","","101.41","","","","","","Clear"
"2001-04-25 23:00","2001","04","25","23:00"
"2001-04-26 00:00","2001","04","26","00:00"
"2001-04-26 01:00","2001","04","26","01:00"
"2001-04-26 02:00","2001","04","26","02:00"
"2001-04-26 03:00","2001","04","26","03:00"
"2001-04-26 04:00","2001","04","26","04:00"
"2001-04-26 05:00","2001","04","26","05:00","4.4","","1.7","","83","","19","","13","","24.1","","101.39","","","","","","Mainly Clear"
"2001-04-26 06:00","2001","04","26","06:00","4.7","","2.0","","83","","18","","13","","24.1","","101.43","","","","","","Mainly Clear"
"2001-04-26 07:00","2001","04","26","07:00","5.3","","2.3","","81","","20","","17","","24.1","","101.49","","","","","","Mainly Clear"
"2001-04-26 08:00","2001","04","26","08:00","6.1","","2.4","","77","","21","","17","","24.1","","101.51","","","","","","Mostly Cloudy"
"2001-04-26 09:00","2001","04","26","09:00","6.2","","3.1","","81","","19","","15","","24.1","","101.50","","","","","","Cloudy"
"2001-04-26 10:00","2001","04","26","10:00","6.1","","3.1","","81","","18","","19","","24.1","","101.49","","","","","","Cloudy"
"2001-04-26 11:00","2001","04","26","11:00","6.9","","3.3","","78","","19","","17","","24.1","","101.45","","","","","","Mainly Clear"
"2001-04-26 12:00","2001","04","26","12:00","7.7","","2.9","","72","","20","","15","","24.1","","101.38","","","","","","Mainly Clear"
"2001-04-26 13:00","2001","04","26","13:00","9.0","","3.6","","69","","20","","20","","24.1","","101.28","","","","","","Mainly Clear"
"2001-04-26 14:00","2001","04","26","14:00","8.8","","3.2","","68","","20","","19","","24.1","","101.17","","","","","","Mainly Clear"
"2001-04-26 15:00","2001","04","26","15:00","8.3","","3.3","","71","","20","","20","","24.1","","101.10","","","","","","Mainly Clear"
"2001-04-26 16:00","2001","04","26","16:00","14.3","","-0.3","","37","","23","","20","","24.1","","101.01","","","","","","Mainly Clear"
"2001-04-26 17:00","2001","04","26","17:00","10.5","","2.1","","56","","20","","13","","24.1","","100.94","","","","","","Mainly Clear"
"2001-04-26 18:00","2001","04","26","18:00","8.3","","1.8","","64","","18","","9","","24.1","","100.84","","","","","","Mostly Cloudy"
"2001-04-26 19:00","2001","04","26","19:00","8.2","","0.7","","59","","","","0","","24.1","","100.77","","","","","","Cloudy"
"2001-04-26 20:00","2001","04","26","20:00","8.4","","0.3","","57","","","","0","","24.1","","100.74","","","","","","Cloudy"
"2001-04-26 21:00","2001","04","26","21:00","8.7","","-0.5","","52","","","","0","","24.1","","100.75","","","","","","Cloudy"
"2001-04-26 22:00","2001","04","26","22:00","8.2","","-0.2","","55","","","","0","","24.1","","100.72","","","","","","Cloudy"
"2001-04-26 23:00","2001","04","26","23:00"
"2001-04-27 00:00","2001","04","27","00:00"
"2001-04-27 01:00","2001","04","27","01:00"
"2001-04-27 02:00","2001","04","27","02:00"
"2001-04-27 03:00","2001","04","27","03:00"
"2001-04-27 04:00","2001","04","27","04:00"
"2001-04-27 05:00","2001","04","27","05:00","6.0","","4.1","","88","","20","","15","","24.1","","100.52","","","","","","Mostly Cloudy"
"2001-04-27 06:00","2001","04","27","06:00","5.7","","4.4","","91","","19","","13","","24.1","","100.57","","","","","","Mostly Cloudy"
"2001-04-27 07:00","2001","04","27","07:00","5.8","","3.9","","88","","22","","9","","19.3","","100.60","","","","","","Cloudy"
"2001-04-27 08:00","2001","04","27","08:00","7.6","","5.1","","84","","26","","7","","12.9","","100.57","","","","","","Mainly Clear"
"2001-04-27 09:00","2001","04","27","09:00","8.9","","5.8","","81","","23","","7","","16.1","","100.57","","","","","","Mainly Clear"
"2001-04-27 10:00","2001","04","27","10:00","8.0","","5.6","","85","","16","","13","","19.3","","100.57","","","","","","Mainly Clear"
"2001-04-27 11:00","2001","04","27","11:00","9.6","","6.9","","83","","17","","15","","19.3","","100.56","","","","","","Mainly Clear"
"2001-04-27 12:00","2001","04","27","12:00","11.1","","7.4","","78","","17","","13","","24.1","","100.54","","","","","","Mainly Clear"
"2001-04-27 13:00","2001","04","27","13:00","10.5","","7.4","","81","","18","","17","","24.1","","100.53","","","","","","Mainly Clear"
"2001-04-27 14:00","2001","04","27","14:00","10.6","","6.9","","78","","20","","20","","19.3","","100.51","","","","","","Mainly Clear"
"2001-04-27 15:00","2001","04","27","15:00","11.8","","7.0","","72","","20","","24","","19.3","","100.52","","","","","","Mainly Clear"
"2001-04-27 16:00","2001","04","27","16:00","11.6","","6.7","","72","","22","","17","","19.3","","100.49","","","","","","Mainly Clear"
"2001-04-27 17:00","2001","04","27","17:00","10.7","","7.0","","78","","21","","13","","16.1","","100.48","","","","","","Mainly Clear"
"2001-04-27 18:00","2001","04","27","18:00","13.2","","7.6","","69","","36","","4","","19.3","","100.51","","","","","","Mainly Clear"
"2001-04-27 19:00","2001","04","27","19:00","12.9","","-0.9","","38","","3","","26","","24.1","","100.60","","","","","","Mainly Clear"
"2001-04-27 20:00","2001","04","27","20:00","11.0","","-3.5","","36","","2","","28","","24.1","","100.74","","","","","","Mainly Clear"
"2001-04-27 21:00","2001","04","27","21:00","8.7","","-3.6","","42","","1","","28","","24.1","","100.91","","","","","","Clear"
"2001-04-27 22:00","2001","04","27","22:00","6.9","","-4.9","","43","","1","","37","","24.1","","101.01","","","","","","Clear"
"2001-04-27 23:00","2001","04","27","23:00"
"2001-04-28 00:00","2001","04","28","00:00"
"2001-04-28 01:00","2001","04","28","01:00"
"2001-04-28 02:00","2001","04","28","02:00"
"2001-04-28 03:00","2001","04","28","03:00"
"2001-04-28 04:00","2001","04","28","04:00"
"2001-04-28 05:00","2001","04","28","05:00","-1.4","","-6.5","","68","","34","","9","","24.1","","101.57","","","","-5","","Mainly Clear"
"2001-04-28 06:00","2001","04","28","06:00","-0.5","","-5.1","","71","","35","","11","","24.1","","101.66","","","","-4","","Clear"
"2001-04-28 07:00","2001","04","28","07:00","3.0","","-5.2","","55","","34","","20","","24.1","","101.73","","","","","","Clear"
"2001-04-28 08:00","2001","04","28","08:00","4.4","","-7.2","","43","","1","","22","","24.1","","101.76","","","","","","Clear"
"2001-04-28 09:00","2001","04","28","09:00","5.6","","-8.4","","36","","33","","15","","24.1","","101.81","","","","","","Clear"
"2001-04-28 10:00","2001","04","28","10:00","6.9","","-7.8","","34","","34","","7","","24.1","","101.85","","","","","","Clear"
"2001-04-28 11:00","2001","04","28","11:00","7.8","","-9.3","","29","","36","","19","","24.1","","101.85","","","","","","Clear"
"2001-04-28 12:00","2001","04","28","12:00","8.8","","-9.2","","27","","36","","22","","24.1","","101.81","","","","","","Clear"
"2001-04-28 13:00","2001","04","28","13:00","9.8","","-9.8","","24","","32","","20","","24.1","","101.81","","","","","","Clear"
"2001-04-28 14:00","2001","04","28","14:00","10.9","","-9.0","","24","","33","","9","","24.1","","101.79","","","","","","Clear"
"2001-04-28 15:00","2001","04","28","15:00","6.6","","0.9","","67","","20","","20","","24.1","","101.79","","","","","","Clear"
"2001-04-28 16:00","2001","04","28","16:00","7.7","","1.0","","63","","20","","19","","24.1","","101.77","","","","","","Clear"
"2001-04-28 17:00","2001","04","28","17:00","7.2","","1.7","","68","","19","","13","","24.1","","101.79","","","","","","Clear"
"2001-04-28 18:00","2001","04","28","18:00","7.9","","-0.2","","57","","18","","6","","24.1","","101.78","","","","","","Clear"
"2001-04-28 19:00","2001","04","28","19:00","7.3","","0.6","","62","","11","","4","","24.1","","101.82","","","","","","Clear"
"2001-04-28 20:00","2001","04","28","20:00","6.4","","0.4","","65","","8","","4","","24.1","","101.87","","","","","","Clear"
"2001-04-28 21:00","2001","04","28","21:00","6.4","","-1.0","","59","","4","","4","","24.1","","101.96","","","","","","Clear"
"2001-04-28 22:00","2001","04","28","22:00","5.0","","-2.5","","58","","4","","6","","24.1","","101.99","","","","","","Clear"
"2001-04-28 23:00","2001","04","28","23:00"
"2001-04-29 00:00","2001","04","29","00:00"
"2001-04-29 01:00","2001","04","29","01:00"
"2001-04-29 02:00","2001","04","29","02:00"
"2001-04-29 03:00","2001","04","29","03:00"
"2001-04-29 04:00","2001","04","29","04:00"
"2001-04-29 05:00","2001","04","29","05:00","-1.2","","-6.0","","70","","36","","6","","24.1","","102.28","","","","-3","","Mainly Clear"
"2001-04-29 06:00","2001","04","29","06:00","0.1","","-5.2","","67","","35","","4","","24.1","","102.39","","","","","","Clear"
"2001-04-29 07:00","2001","04","29","07:00","3.2","","-3.0","","64","","34","","4","","24.1","","102.44","","","","","","Clear"
"2001-04-29 08:00","2001","04","29","08:00","6.1","","-0.3","","63","","20","","4","","24.1","","102.46","","","","","","Clear"
"2001-04-29 09:00","2001","04","29","09:00","6.6","","-4.6","","45","","18","","7","","24.1","","102.48","","","","","","Clear"
"2001-04-29 10:00","2001","04","29","10:00","6.8","","0.6","","65","","18","","19","","24.1","","102.50","","","","","","Mainly Clear"
"2001-04-29 11:00","2001","04","29","11:00","6.9","","2.1","","71","","19","","22","","24.1","","102.42","","","","","","Mainly Clear"
"2001-04-29 12:00","2001","04","29","12:00","7.1","","2.2","","71","","19","","22","","24.1","","102.39","","","","","","Mainly Clear"
"2001-04-29 13:00","2001","04","29","13:00","8.7","","1.6","","61","","20","","24","","24.1","","102.31","","","","","","Mainly Clear"
"2001-04-29 14:00","2001","04","29","14:00","8.6","","0.2","","55","","20","","24","","24.1","","102.27","","","","","","Mainly Clear"
"2001-04-29 15:00","2001","04","29","15:00","10.0","","0.6","","52","","20","","26","","24.1","","102.17","","","","","","Mainly Clear"
"2001-04-29 16:00","2001","04","29","16:00","9.2","","0.4","","54","","20","","26","","24.1","","102.11","","","","","","Mostly Cloudy"
"2001-04-29 17:00","2001","04","29","17:00","9.0","","1.0","","57","","20","","20","","24.1","","102.04","","","","","","Mostly Cloudy"
"2001-04-29 18:00","2001","04","29","18:00","9.2","","-0.8","","50","","21","","17","","24.1","","101.97","","","","","","Mostly Cloudy"
"2001-04-29 19:00","2001","04","29","19:00","9.5","","-2.1","","44","","22","","15","","24.1","","101.91","","","","","","Mainly Clear"
"2001-04-29 20:00","2001","04","29","20:00","8.2","","-2.9","","45","","25","","13","","24.1","","101.89","","","","","","Mainly Clear"
"2001-04-29 21:00","2001","04","29","21:00","5.9","","-0.3","","64","","21","","9","","24.1","","101.85","","","","","","Clear"
"2001-04-29 22:00","2001","04","29","22:00","5.9","","2.2","","77","","20","","9","","24.1","","101.81","","","","","","Clear"
"2001-04-29 23:00","2001","04","29","23:00"
"2001-04-30 00:00","2001","04","30","00:00"
"2001-04-30 01:00","2001","04","30","01:00"
"2001-04-30 02:00","2001","04","30","02:00"
"2001-04-30 03:00","2001","04","30","03:00"
"2001-04-30 04:00","2001","04","30","04:00"
"2001-04-30 05:00","2001","04","30","05:00","4.5","","-0.4","","70","","21","","7","","24.1","","101.60","","","","","","Mostly Cloudy"
"2001-04-30 06:00","2001","04","30","06:00","3.7","","-0.9","","72","","","","0","","24.1","","101.63","","","","","","Mostly Cloudy"
"2001-04-30 07:00","2001","04","30","07:00","5.9","","3.1","","82","","18","","6","","24.1","","101.66","","","","","","Mostly Cloudy"
"2001-04-30 08:00","2001","04","30","08:00","6.3","","3.2","","81","","16","","9","","24.1","","101.67","","","","","","Mostly Cloudy"
"2001-04-30 09:00","2001","04","30","09:00","6.7","","3.9","","82","","18","","11","","24.1","","101.65","","","","","","Mostly Cloudy"
"2001-04-30 10:00","2001","04","30","10:00","7.2","","4.4","","82","","18","","11","","24.1","","101.64","","","","","","Mostly Cloudy"
"2001-04-30 11:00","2001","04","30","11:00","6.9","","4.1","","82","","18","","11","","24.1","","101.58","","","","","","Mostly Cloudy"
"2001-04-30 12:00","2001","04","30","12:00","7.5","","4.2","","80","","18","","17","","24.1","","101.53","","","","","","Mostly Cloudy"
"2001-04-30 13:00","2001","04","30","13:00","8.8","","4.2","","73","","20","","19","","24.1","","101.41","","","","","","Mostly Cloudy"
"2001-04-30 14:00","2001","04","30","14:00","9.7","","4.4","","70","","21","","20","","24.1","","101.34","","","","","","Mostly Cloudy"
"2001-04-30 15:00","2001","04","30","15:00","8.7","","4.0","","72","","20","","22","","24.1","","101.22","","","","","","Mainly Clear"
"2001-04-30 16:00","2001","04","30","16:00","9.3","","2.6","","63","","20","","19","","24.1","","101.15","","","","","","Mainly Clear"
"2001-04-30 17:00","2001","04","30","17:00","9.0","","3.1","","66","","19","","19","","24.1","","101.09","","","","","","Mainly Clear"
"2001-04-30 18:00","2001","04","30","18:00","8.4","","2.7","","67","","20","","19","","24.1","","101.01","","","","","","Mainly Clear"
"2001-04-30 19:00","2001","04","30","19:00","8.0","","2.6","","69","","20","","13","","24.1","","100.99","","","","","","Mainly Clear"
"2001-04-30 20:00","2001","04","30","20:00","7.0","","3.3","","77","","18","","9","","24.1","","100.97","","","","","","Clear"
"2001-04-30 21:00","2001","04","30","21:00","6.9","","3.6","","79","","18","","9","","24.1","","100.95","","","","","","Clear"
"2001-04-30 22:00","2001","04","30","22:00","6.6","","3.5","","81","","18","","6","","24.1","","100.92","","","","","","Clear"
"2001-04-30 23:00","2001","04","30","23:00"
