"Station Name","KINGSTON A"
"Province","ONTARIO"
"Latitude","44.23"
"Longitude","-76.60"
"Elevation","92.40"
"Climate Identifier","6104149"
"WMO Identifier",""
"TC Identifier","YGK"
"All times are specified in Local Standard Time (LST). Add 1 hour to adjust for Daylight Saving Time where and when it is observed."

"Legend"
"E","Estimated"
"M","Missing"
"NA","Not Available"

"Date/Time","Year","Month","Day","Time","Temp (°C)","Temp Flag","Dew Point Temp (°C)","Dew Point Temp Flag","Rel Hum (%)","Rel Hum Flag","Wind Dir (10s deg)","Wind Dir Flag","Wind Spd (km/h)","Wind Spd Flag","Visibility (km)","Visibility Flag","Stn Press (kPa)","Stn Press Flag","Hmdx","Hmdx Flag","Wind Chill","Wind Chill Flag","Weather"
"2016-05-01 00:00","2016","05","01","00:00"
"2016-05-01 01:00","2016","05","01","01:00"
"2016-05-01 02:00","2016","05","01","02:00"
"2016-05-01 03:00","2016","05","01","03:00"
"2016-05-01 04:00","2016","05","01","04:00"
"2016-05-01 05:00","2016","05","01","05:00","8.1","","-1.4","","51","","7","","15","","19.3","","100.83","","","","","","Rain"
"2016-05-01 06:00","2016","05","01","06:00","6.6","","1.7","","71","","5","","12","","19.3","","100.82","","","","","","Rain"
"2016-05-01 07:00","2016","05","01","07:00","6.4","","3.7","","83","","6","","13","","19.3","","100.79","","","","","","Rain"
"2016-05-01 08:00","2016","05","01","08:00","6.9","","5.2","","89","","5","","15","","11.3","","100.78","","","","","","Rain"
"2016-05-01 09:00","2016","05","01","09:00","7.7","","6.7","","93","","5","","17","","6.4","","100.76","","","","","","Rain,Fog"
"2016-05-01 10:00","2016","05","01","10:00","9.0","","8.1","","94","","10","","13","","9.7","","100.80","","","","","","Rain,Fog"
"2016-05-01 11:00","2016","05","01","11:00","9.2","","7.2","","87","","12","","18","","16.1","","100.76","","","","","","Rain"
"2016-05-01 12:00","2016","05","01","12:00","9.4","","6.7","","83","","12","","15","","19.3","","100.70","","","","","","Rain"
"2016-05-01 13:00","2016","05","01","13:00","9.1","","6.6","","84","","11","","11","","19.3","","100.58","","","","","","Drizzle"
"2016-05-01 14:00","2016","05","01","14:00","9.2","","6.8","","85","","11","","8","","9.7","","100.61","","","","","","Rain"
"2016-05-01 15:00","2016","05","01","15:00","8.7","","7.6","","93","","6","","14","","4.0","","100.55","","","","","","Drizzle,Fog"
"2016-05-01 16:00","2016","05","01","16:00","8.4","","7.5","","94","","5","","14","","3.2","","100.54","","","","","","Rain,Fog"
"2016-05-01 17:00","2016","05","01","17:00","8.3","","7.2","","93","","6","","16","","4.8","","100.54","","","","","","Drizzle,Fog"
"2016-05-01 18:00","2016","05","01","18:00","8.1","","7.2","","94","","6","","13","","3.2","","100.53","","","","","","Drizzle,Fog"
"2016-05-01 19:00","2016","05","01","19:00","8.0","","7.3","","95","","4","","13","","3.2","","100.53","","","","","","Drizzle,Fog"
"2016-05-01 20:00","2016","05","01","20:00","7.8","","7.1","","95","","2","","14","","4.8","","100.57","","","","","","Rain,Fog"
"2016-05-01 21:00","2016","05","01","21:00","7.4","","6.7","","95","","2","","18","","6.4","","100.57","","","","","","Rain,Fog"
"2016-05-01 22:00","2016","05","01","22:00","6.8","","5.9","","94","","2","","17","","4.8","","100.57","","","","","","Rain,Fog"
"2016-05-01 23:00","2016","05","01","23:00"
"2016-05-02 00:00","2016","05","02","00:00"
"2016-05-02 01:00","2016","05","02","01:00"
"2016-05-02 02:00","2016","05","02","02:00"
"2016-05-02 03:00","2016","05","02","03:00"
"2016-05-02 04:00","2016","05","02","04:00"
"2016-05-02 05:00","2016","05","02","05:00","6.5","","5.9","","96","","1","","14","","1.2","","100.40","","","","","","Fog"
"2016-05-02 06:00","2016","05","02","06:00","6.6","","6.0","","96","","1","","12","","6.4","","100.38","","","","","","Fog"
"2016-05-02 07:00","2016","05","02","07:00","6.6","","6.0","","96","","2","","16","","9.7","","100.34","","","","","","Fog"
"2016-05-02 08:00","2016","05","02","08:00","7.1","","6.1","","93","","36","","15","","12.9","","100.40","","","","","","NA"
"2016-05-02 09:00","2016","05","02","09:00","7.3","","5.9","","91","","2","","15","","16.1","","100.33","","","","","","NA"
"2016-05-02 10:00","2016","05","02","10:00","7.8","","6.0","","88","","2","","19","","19.3","","100.30","","","","","","Cloudy"
"2016-05-02 11:00","2016","05","02","11:00","8.3","","6.1","","86","","1","","16","","19.3","","100.34","","","","","","Rain"
"2016-05-02 12:00","2016","05","02","12:00","8.9","","5.7","","80","","1","","17","","24.1","","100.37","","","","","","NA"
"2016-05-02 13:00","2016","05","02","13:00","9.2","","6.0","","80","","36","","13","","24.1","","100.38","","","","","","Cloudy"
"2016-05-02 14:00","2016","05","02","14:00","9.4","","5.4","","76","","36","","15","","24.1","","100.40","","","","","","NA"
"2016-05-02 15:00","2016","05","02","15:00","10.1","","5.9","","75","","1","","21","","24.1","","100.39","","","","","","NA"
"2016-05-02 16:00","2016","05","02","16:00","10.1","","5.3","","72","","1","","19","","24.1","","100.41","","","","","","Cloudy"
"2016-05-02 17:00","2016","05","02","17:00","9.7","","5.5","","75","","3","","14","","24.1","","100.45","","","","","","NA"
"2016-05-02 18:00","2016","05","02","18:00","9.7","","5.3","","74","","4","","5","","24.1","","100.49","","","","","","NA"
"2016-05-02 19:00","2016","05","02","19:00","8.8","","4.8","","76","","3","","8","","24.1","","100.46","","","","","","Mostly Cloudy"
"2016-05-02 20:00","2016","05","02","20:00","7.6","","4.7","","82","","10","","3","","24.1","","100.51","","","","","","NA"
"2016-05-02 21:00","2016","05","02","21:00","7.1","","4.8","","85","","6","","4","","24.1","","100.50","","","","","","NA"
"2016-05-02 22:00","2016","05","02","22:00","6.1","","4.8","","91","","7","","7","","24.1","","100.47","","","","","","Mainly Clear"
"2016-05-02 23:00","2016","05","02","23:00"
"2016-05-03 00:00","2016","05","03","00:00"
"2016-05-03 01:00","2016","05","03","01:00"
"2016-05-03 02:00","2016","05","03","02:00"
"2016-05-03 03:00","2016","05","03","03:00"
"2016-05-03 04:00","2016","05","03","04:00"
"2016-05-03 05:00","2016","05","03","05:00","3.3","","2.7","","96","","35","","5","","16.1","","100.32","","","","","","NA"
"2016-05-03 06:00","2016","05","03","06:00","3.6","","3.0","","96","","4","","4","","12.9","","100.31","","","","","","NA"
"2016-05-03 07:00","2016","05","03","07:00","7.7","","6.0","","89","","6","","9","","12.9","","100.30","","","","","","Mainly Clear"
"2016-05-03 08:00","2016","05","03","08:00","9.7","","6.3","","79","","5","","10","","16.1","","100.28","","","","","","NA"
"2016-05-03 09:00","2016","05","03","09:00","11.5","","5.2","","65","","3","","9","","19.3","","100.22","","","","","","NA"
"2016-05-03 10:00","2016","05","03","10:00","11.5","","3.8","","59","","6","","13","","24.1","","100.18","","","","","","Mostly Cloudy"
"2016-05-03 11:00","2016","05","03","11:00","11.6","","5.1","","64","","13","","21","","24.1","","100.17","","","","","","NA"
"2016-05-03 12:00","2016","05","03","12:00","12.4","","3.7","","55","","11","","18","","24.1","","100.11","","","","","","NA"
"2016-05-03 13:00","2016","05","03","13:00","12.0","","4.5","","60","","16","","18","","24.1","","100.03","","","","","","Mostly Cloudy"
"2016-05-03 14:00","2016","05","03","14:00","12.5","","4.5","","58","","18","","14","","24.1","","99.98","","","","","","NA"
"2016-05-03 15:00","2016","05","03","15:00","13.5","","3.4","","50","","17","","9","","24.1","","99.90","","","","","","NA"
"2016-05-03 16:00","2016","05","03","16:00","13.0","","2.6","","49","","20","","8","","24.1","","99.87","","","","","","Mostly Cloudy"
"2016-05-03 17:00","2016","05","03","17:00","13.6","","3.2","","49","","19","","9","","24.1","","99.84","","","","","","NA"
"2016-05-03 18:00","2016","05","03","18:00","13.0","","3.7","","53","","22","","9","","24.1","","99.82","","","","","","NA"
"2016-05-03 19:00","2016","05","03","19:00","11.0","","4.7","","65","","24","","5","","24.1","","99.82","","","","","","Mostly Cloudy"
"2016-05-03 20:00","2016","05","03","20:00","10.4","","4.4","","66","","22","","8","","24.1","","99.85","","","","","","NA"
"2016-05-03 21:00","2016","05","03","21:00","10.2","","4.2","","66","","34","","3","","24.1","","99.87","","","","","","NA"
"2016-05-03 22:00","2016","05","03","22:00","9.9","","4.3","","68","","28","","3","","24.1","","99.84","","","","","","Mostly Cloudy"
"2016-05-03 23:00","2016","05","03","23:00"
"2016-05-04 00:00","2016","05","04","00:00"
"2016-05-04 01:00","2016","05","04","01:00"
"2016-05-04 02:00","2016","05","04","02:00"
"2016-05-04 03:00","2016","05","04","03:00"
"2016-05-04 04:00","2016","05","04","04:00"
"2016-05-04 05:00","2016","05","04","05:00","7.4","","5.2","","86","","11","","5","","24.1","","99.69","","","","","","NA"
"2016-05-04 06:00","2016","05","04","06:00","8.3","","4.3","","76","","4","","8","","24.1","","99.70","","","","","","NA"
"2016-05-04 07:00","2016","05","04","07:00","8.8","","4.6","","75","","5","","10","","24.1","","99.72","","","","","","Mostly Cloudy"
"2016-05-04 08:00","2016","05","04","08:00","9.8","","5.0","","72","","8","","5","","24.1","","99.72","","","","","","NA"
"2016-05-04 09:00","2016","05","04","09:00","10.7","","5.9","","72","","7","","5","","24.1","","99.73","","","","","","NA"
"2016-05-04 10:00","2016","05","04","10:00","9.3","","6.9","","85","","13","","3","","16.1","","99.73","","","","","","Rain Showers"
"2016-05-04 11:00","2016","05","04","11:00","10.6","","7.9","","83","","31","","3","","19.3","","99.71","","","","","","NA"
"2016-05-04 12:00","2016","05","04","12:00","12.4","","8.3","","76","","33","","15","","24.1","","99.68","","","","","","NA"
"2016-05-04 13:00","2016","05","04","13:00","13.9","","6.3","","60","","8","","10","","24.1","","99.65","","","","","","Mostly Cloudy"
"2016-05-04 14:00","2016","05","04","14:00","14.7","","6.6","","58","","10","","11","","24.1","","99.60","","","","","","NA"
"2016-05-04 15:00","2016","05","04","15:00","14.6","","6.5","","58","","6","","22","","24.1","","99.55","","","","","","NA"
"2016-05-04 16:00","2016","05","04","16:00","15.5","","7.1","","57","","8","","17","","24.1","","99.55","","","","","","Mostly Cloudy"
"2016-05-04 17:00","2016","05","04","17:00","14.0","","6.7","","61","","4","","27","","24.1","","99.57","","","","","","NA"
"2016-05-04 18:00","2016","05","04","18:00","14.5","","7.6","","63","","6","","20","","24.1","","99.62","","","","","","NA"
"2016-05-04 19:00","2016","05","04","19:00","12.8","","7.5","","70","","7","","22","","24.1","","99.65","","","","","","Mostly Cloudy"
"2016-05-04 20:00","2016","05","04","20:00","11.9","","7.5","","74","","6","","17","","24.1","","99.71","","","","","","NA"
"2016-05-04 21:00","2016","05","04","21:00","11.6","","7.7","","77","","5","","12","","24.1","","99.74","","","","","","NA"
"2016-05-04 22:00","2016","05","04","22:00","11.5","","8.2","","80","","5","","11","","24.1","","99.75","","","","","","Cloudy"
"2016-05-04 23:00","2016","05","04","23:00"
"2016-05-05 00:00","2016","05","05","00:00"
"2016-05-05 01:00","2016","05","05","01:00"
"2016-05-05 02:00","2016","05","05","02:00"
"2016-05-05 03:00","2016","05","05","03:00"
"2016-05-05 04:00","2016","05","05","04:00"
"2016-05-05 05:00","2016","05","05","05:00","9.7","","8.2","","90","","3","","9","","19.3","","99.80","","","","","","NA"
"2016-05-05 06:00","2016","05","05","06:00","10.0","","7.8","","86","","4","","13","","19.3","","99.85","","","","","","NA"
"2016-05-05 07:00","2016","05","05","07:00","10.5","","7.4","","81","","5","","16","","24.1","","99.90","","","","","","Mostly Cloudy"
"2016-05-05 08:00","2016","05","05","08:00","11.7","","7.5","","75","","2","","17","","24.1","","99.91","","","","","","NA"
"2016-05-05 09:00","2016","05","05","09:00","13.7","","7.3","","65","","3","","17","","24.1","","99.90","","","","","","NA"
"2016-05-05 10:00","2016","05","05","10:00","14.1","","5.8","","57","","5","","25","","24.1","","99.88","","","","","","Mostly Cloudy"
"2016-05-05 11:00","2016","05","05","11:00","15.2","","6.0","","54","","6","","29","","24.1","","99.88","","","","","","NA"
"2016-05-05 12:00","2016","05","05","12:00","14.9","","5.5","","53","","3","","24","","24.1","","99.88","","","","","","NA"
"2016-05-05 13:00","2016","05","05","13:00","15.0","","5.6","","53","","3","","28","","24.1","","99.85","","","","","","Mostly Cloudy"
"2016-05-05 14:00","2016","05","05","14:00","16.8","","6.1","","49","","6","","25","","24.1","","99.78","","","","","","NA"
"2016-05-05 15:00","2016","05","05","15:00","17.5","","5.2","","44","","6","","24","","24.1","","99.75","","","","","","NA"
"2016-05-05 16:00","2016","05","05","16:00","17.6","","4.0","","40","","5","","23","","24.1","","99.72","","","","","","Mainly Clear"
"2016-05-05 17:00","2016","05","05","17:00","17.5","","3.1","","38","","4","","30","","24.1","","99.71","","","","","","NA"
"2016-05-05 18:00","2016","05","05","18:00","16.9","","3.3","","40","","4","","25","","24.1","","99.72","","","","","","NA"
"2016-05-05 19:00","2016","05","05","19:00","13.9","","4.8","","54","","10","","18","","24.1","","99.77","","","","","","Mainly Clear"
"2016-05-05 20:00","2016","05","05","20:00","12.1","","4.6","","60","","8","","13","","24.1","","99.80","","","","","","NA"
"2016-05-05 21:00","2016","05","05","21:00","12.2","","4.7","","60","","4","","7","","24.1","","99.83","","","","","","NA"
"2016-05-05 22:00","2016","05","05","22:00","10.8","","4.3","","64","","3","","8","","24.1","","99.82","","","","","","Clear"
"2016-05-05 23:00","2016","05","05","23:00"
"2016-05-06 00:00","2016","05","06","00:00"
"2016-05-06 01:00","2016","05","06","01:00"
"2016-05-06 02:00","2016","05","06","02:00"
"2016-05-06 03:00","2016","05","06","03:00"
"2016-05-06 04:00","2016","05","06","04:00"
"2016-05-06 05:00","2016","05","06","05:00","6.5","","3.7","","82","","1","","8","","24.1","","99.94","","","","","","NA"
"2016-05-06 06:00","2016","05","06","06:00","9.0","","4.3","","72","","3","","11","","24.1","","100.04","","","","","","NA"
"2016-05-06 07:00","2016","05","06","07:00","11.3","","4.3","","62","","4","","14","","24.1","","100.04","","","","","","Mainly Clear"
"2016-05-06 08:00","2016","05","06","08:00","13.1","","4.1","","54","","3","","21","","24.1","","100.03","","","","","","NA"
"2016-05-06 09:00","2016","05","06","09:00","15.0","","4.7","","50","","3","","22","","24.1","","100.06","","","","","","NA"
"2016-05-06 10:00","2016","05","06","10:00","16.4","","3.9","","43","","4","","24","","24.1","","100.10","","","","","","Mainly Clear"
"2016-05-06 11:00","2016","05","06","11:00","17.4","","3.8","","40","","6","","30","","24.1","","100.05","","","","","","NA"
"2016-05-06 12:00","2016","05","06","12:00","18.7","","2.2","","33","","3","","32","","24.1","","99.97","","","","","","NA"
"2016-05-06 13:00","2016","05","06","13:00","19.1","","3.0","","34","","3","","25","","24.1","","99.93","","","","","","Mostly Cloudy"
"2016-05-06 14:00","2016","05","06","14:00","19.8","","0.9","","28","","5","","28","","24.1","","99.89","","","","","","NA"
"2016-05-06 15:00","2016","05","06","15:00","19.2","","2.7","","33","","2","","24","","24.1","","99.82","","","","","","NA"
"2016-05-06 16:00","2016","05","06","16:00","17.8","","1.4","","33","","10","","21","","24.1","","99.84","","","","","","Mostly Cloudy"
"2016-05-06 17:00","2016","05","06","17:00","18.6","","1.3","","31","","6","","15","","24.1","","99.81","","","","","","NA"
"2016-05-06 18:00","2016","05","06","18:00","17.6","","2.1","","35","","11","","8","","24.1","","99.83","","","","","","NA"
"2016-05-06 19:00","2016","05","06","19:00","15.4","","3.0","","43","","8","","12","","24.1","","99.84","","","","","","Mostly Cloudy"
"2016-05-06 20:00","2016","05","06","20:00","15.6","","2.5","","41","","4","","13","","24.1","","99.84","","","","","","NA"
"2016-05-06 21:00","2016","05","06","21:00","12.1","","4.6","","60","","17","","9","","24.1","","99.86","","","","","","NA"
"2016-05-06 22:00","2016","05","06","22:00","11.5","","4.8","","63","","20","","5","","24.1","","99.87","","","","","","Cloudy"
"2016-05-06 23:00","2016","05","06","23:00"
"2016-05-07 00:00","2016","05","07","00:00"
"2016-05-07 01:00","2016","05","07","01:00"
"2016-05-07 02:00","2016","05","07","02:00"
"2016-05-07 03:00","2016","05","07","03:00"
"2016-05-07 04:00","2016","05","07","04:00"
"2016-05-07 05:00","2016","05","07","05:00","11.8","","10.4","","91","","36","","2","","24.1","","99.73","","","","","","NA"
"2016-05-07 06:00","2016","05","07","06:00","11.4","","10.0","","91","","17","","7","","24.1","","99.76","","","","","","NA"
"2016-05-07 07:00","2016","05","07","07:00","10.7","","9.0","","89","","14","","17","","24.1","","99.76","","","","","","Mostly Cloudy"
"2016-05-07 08:00","2016","05","07","08:00","11.2","","9.5","","89","","16","","17","","24.1","","99.76","","","","","","NA"
"2016-05-07 09:00","2016","05","07","09:00","11.7","","9.3","","85","","18","","13","","24.1","","99.74","","","","","","NA"
"2016-05-07 10:00","2016","05","07","10:00","12.1","","9.5","","84","","17","","14","","24.1","","99.69","","","","","","Mainly Clear"
"2016-05-07 11:00","2016","05","07","11:00","14.4","","10.3","","76","","19","","17","","24.1","","99.66","","","","","","NA"
"2016-05-07 12:00","2016","05","07","12:00","15.2","","8.3","","63","","21","","20","","24.1","","99.62","","","","","","NA"
"2016-05-07 13:00","2016","05","07","13:00","15.6","","8.2","","61","","19","","14","","24.1","","99.52","","","","","","Mostly Cloudy"
"2016-05-07 14:00","2016","05","07","14:00","16.2","","7.8","","57","","19","","16","","24.1","","99.46","","","","","","NA"
"2016-05-07 15:00","2016","05","07","15:00","15.8","","7.1","","56","","21","","10","","24.1","","99.40","","","","","","NA"
"2016-05-07 16:00","2016","05","07","16:00","15.3","","7.2","","58","","19","","8","","24.1","","99.30","","","","","","Mostly Cloudy"
"2016-05-07 17:00","2016","05","07","17:00","14.8","","6.7","","58","","13","","8","","24.1","","99.24","","","","","","NA"
"2016-05-07 18:00","2016","05","07","18:00","14.3","","6.5","","59","","21","","3","","24.1","","99.21","","","","","","NA"
"2016-05-07 19:00","2016","05","07","19:00","13.9","","5.8","","58","","36","","3","","24.1","","99.17","","","","","","Cloudy"
"2016-05-07 20:00","2016","05","07","20:00","13.5","","6.4","","62","","22","","4","","24.1","","99.16","","","","","","NA"
"2016-05-07 21:00","2016","05","07","21:00","12.7","","8.4","","75","","27","","5","","24.1","","99.13","","","","","","Rain"
"2016-05-07 22:00","2016","05","07","22:00","11.9","","8.0","","77","","12","","3","","24.1","","99.04","","","","","","Rain"
"2016-05-07 23:00","2016","05","07","23:00"
"2016-05-08 00:00","2016","05","08","00:00"
"2016-05-08 01:00","2016","05","08","01:00"
"2016-05-08 02:00","2016","05","08","02:00"
"2016-05-08 03:00","2016","05","08","03:00"
"2016-05-08 04:00","2016","05","08","04:00"
"2016-05-08 05:00","2016","05","08","05:00","4.2","","2.1","","86","","35","","31","","24.1","","99.13","","","","","","NA"
"2016-05-08 06:00","2016","05","08","06:00","3.9","","1.1","","82","","33","","29","","24.1","","99.35","","","","","","NA"
"2016-05-08 07:00","2016","05","08","07:00","5.3","","1.1","","74","","33","","17","","24.1","","99.49","","","","","","Mainly Clear"
"2016-05-08 08:00","2016","05","08","08:00","6.3","","0.2","","65","","33","","26","","24.1","","99.56","","","","","","NA"
"2016-05-08 09:00","2016","05","08","09:00","8.5","","-0.8","","52","","30","","19","","24.1","","99.61","","","","","","NA"
"2016-05-08 10:00","2016","05","08","10:00","9.4","","-1.0","","48","","32","","19","","24.1","","99.63","","","","","","Mainly Clear"
"2016-05-08 11:00","2016","05","08","11:00","11.0","","-0.7","","44","","31","","22","","24.1","","99.67","","","","","","NA"
"2016-05-08 12:00","2016","05","08","12:00","12.0","","-1.1","","40","","29","","18","","24.1","","99.68","","","","","","NA"
"2016-05-08 13:00","2016","05","08","13:00","13.3","","1.1","","43","","30","","22","","24.1","","99.69","","","","","","Mostly Cloudy"
"2016-05-08 14:00","2016","05","08","14:00","12.4","","-0.8","","40","","27","","28","","24.1","","99.73","","","","","","NA"
"2016-05-08 15:00","2016","05","08","15:00","13.1","","-0.8","","38","","27","","21","","24.1","","99.72","","","","","","NA"
"2016-05-08 16:00","2016","05","08","16:00","10.6","","3.0","","59","","24","","26","","24.1","","99.71","","","","","","Mostly Cloudy"
"2016-05-08 17:00","2016","05","08","17:00","10.2","","3.7","","64","","24","","28","","24.1","","99.76","","","","","","NA"
"2016-05-08 18:00","2016","05","08","18:00","9.8","","4.2","","68","","25","","20","","24.1","","99.79","","","","","","NA"
"2016-05-08 19:00","2016","05","08","19:00","9.1","","4.2","","71","","24","","23","","24.1","","99.84","","","","","","Mostly Cloudy"
"2016-05-08 20:00","2016","05","08","20:00","8.6","","4.3","","74","","24","","15","","24.1","","99.94","","","","","","NA"
"2016-05-08 21:00","2016","05","08","21:00","8.4","","3.7","","72","","26","","9","","24.1","","100.02","","","","","","NA"
"2016-05-08 22:00","2016","05","08","22:00","7.0","","0.7","","64","","4","","19","","24.1","","100.08","","","","","","Mostly Cloudy"
"2016-05-08 23:00","2016","05","08","23:00"
"2016-05-09 00:00","2016","05","09","00:00"
"2016-05-09 01:00","2016","05","09","01:00"
"2016-05-09 02:00","2016","05","09","02:00"
"2016-05-09 03:00","2016","05","09","03:00"
"2016-05-09 04:00","2016","05","09","04:00"
"2016-05-09 05:00","2016","05","09","05:00","0.9","","0.2","","95","","35","","7","","24.1","","100.49","","","","","","NA"
"2016-05-09 06:00","2016","05","09","06:00","2.5","","1.8","","95","","29","","6","","24.1","","100.56","","","","","","NA"
"2016-05-09 07:00","2016","05","09","07:00","4.8","","-1.6","","63","","33","","10","","24.1","","100.58","","","","","","Clear"
"2016-05-09 08:00","2016","05","09","08:00","6.2","","-3.2","","51","","30","","9","","24.1","","100.63","","","","","","NA"
"2016-05-09 09:00","2016","05","09","09:00","7.2","","-4.2","","44","","31","","8","","24.1","","100.65","","","","","","NA"
"2016-05-09 10:00","2016","05","09","10:00","8.7","","-3.5","","42","","28","","8","","24.1","","100.69","","","","","","Mostly Cloudy"
"2016-05-09 11:00","2016","05","09","11:00","9.3","","-3.6","","40","","24","","9","","24.1","","100.73","","","","","","NA"
"2016-05-09 12:00","2016","05","09","12:00","10.0","","1.4","","55","","20","","24","","24.1","","100.69","","","","","","NA"
"2016-05-09 13:00","2016","05","09","13:00","9.5","","1.9","","59","","21","","34","","24.1","","100.67","","","","","","Mostly Cloudy"
"2016-05-09 14:00","2016","05","09","14:00","9.6","","0.0","","51","","23","","29","","24.1","","100.70","","","","","","NA"
"2016-05-09 15:00","2016","05","09","15:00","11.6","","1.0","","48","","24","","30","","24.1","","100.68","","","","","","NA"
"2016-05-09 16:00","2016","05","09","16:00","11.6","","0.4","","46","","23","","27","","24.1","","100.70","","","","","","Mostly Cloudy"
"2016-05-09 17:00","2016","05","09","17:00","11.2","","0.6","","48","","23","","25","","24.1","","100.73","","","","","","NA"
"2016-05-09 18:00","2016","05","09","18:00","10.8","","0.0","","47","","23","","23","","24.1","","100.77","","","","","","NA"
"2016-05-09 19:00","2016","05","09","19:00","9.6","","1.0","","55","","23","","14","","24.1","","100.81","","","","","","Mainly Clear"
"2016-05-09 20:00","2016","05","09","20:00","7.6","","2.5","","70","","24","","8","","24.1","","100.88","","","","","","NA"
"2016-05-09 21:00","2016","05","09","21:00","7.7","","-1.0","","54","","26","","11","","24.1","","100.97","","","","","","NA"
"2016-05-09 22:00","2016","05","09","22:00","6.8","","-1.1","","57","","31","","6","","24.1","","101.00","","","","","","Clear"
"2016-05-09 23:00","2016","05","09","23:00"
"2016-05-10 00:00","2016","05","10","00:00"
"2016-05-10 01:00","2016","05","10","01:00"
"2016-05-10 02:00","2016","05","10","02:00"
"2016-05-10 03:00","2016","05","10","03:00"
"2016-05-10 04:00","2016","05","10","04:00"
"2016-05-10 05:00","2016","05","10","05:00","0.6","","-1.5","","86","","36","","3","","24.1","","101.29","","","","","","NA"
"2016-05-10 06:00","2016","05","10","06:00","1.7","","-0.6","","85","","35","","9","","24.1","","101.34","","","","","","NA"
"2016-05-10 07:00","2016","05","10","07:00","7.6","","-0.1","","58","","32","","7","","24.1","","101.41","","","","","","Clear"
"2016-05-10 08:00","2016","05","10","08:00","10.9","","-0.8","","44","","35","","6","","24.1","","101.46","","","","","","NA"
"2016-05-10 09:00","2016","05","10","09:00","12.7","","0.2","","42","","20","","9","","24.1","","101.44","","","","","","NA"
"2016-05-10 10:00","2016","05","10","10:00","11.2","","2.3","","54","","18","","20","","24.1","","101.44","","","","","","Mainly Clear"
"2016-05-10 11:00","2016","05","10","11:00","11.3","","0.1","","46","","19","","23","","24.1","","101.42","","","","","","NA"
"2016-05-10 12:00","2016","05","10","12:00","12.5","","-2.1","","36","","18","","20","","24.1","","101.35","","","","","","NA"
"2016-05-10 13:00","2016","05","10","13:00","11.4","","1.4","","50","","17","","21","","24.1","","101.31","","","","","","Mainly Clear"
"2016-05-10 14:00","2016","05","10","14:00","12.5","","0.6","","44","","20","","22","","24.1","","101.26","","","","","","NA"
"2016-05-10 15:00","2016","05","10","15:00","12.8","","0.3","","42","","19","","21","","24.1","","101.23","","","","","","NA"
"2016-05-10 16:00","2016","05","10","16:00","13.5","","0.2","","40","","20","","16","","24.1","","101.16","","","","","","Mainly Clear"
"2016-05-10 17:00","2016","05","10","17:00","13.2","","0.3","","41","","20","","18","","24.1","","101.12","","","","","","NA"
"2016-05-10 18:00","2016","05","10","18:00","12.4","","0.9","","45","","19","","14","","24.1","","101.09","","","","","","NA"
"2016-05-10 19:00","2016","05","10","19:00","10.8","","0.8","","50","","22","","8","","24.1","","101.10","","","","","","Mainly Clear"
"2016-05-10 20:00","2016","05","10","20:00","9.4","","-0.2","","51","","36","","2","","24.1","","101.11","","","","","","NA"
"2016-05-10 21:00","2016","05","10","21:00","8.2","","0.2","","57","","7","","7","","24.1","","101.15","","","","","","NA"
"2016-05-10 22:00","2016","05","10","22:00","6.4","","-0.6","","61","","33","","6","","24.1","","101.15","","","","","","Clear"
"2016-05-10 23:00","2016","05","10","23:00"
"2016-05-11 00:00","2016","05","11","00:00"
"2016-05-11 01:00","2016","05","11","01:00"
"2016-05-11 02:00","2016","05","11","02:00"
"2016-05-11 03:00","2016","05","11","03:00"
"2016-05-11 04:00","2016","05","11","04:00"
"2016-05-11 05:00","2016","05","11","05:00","2.3","","-0.3","","83","","36","","8","","24.1","","101.25","","","","","","NA"
"2016-05-11 06:00","2016","05","11","06:00","4.2","","1.4","","82","","1","","5","","24.1","","101.28","","","","","","NA"
"2016-05-11 07:00","2016","05","11","07:00","10.4","","3.0","","60","","4","","10","","24.1","","101.29","","","","","","Mainly Clear"
"2016-05-11 08:00","2016","05","11","08:00","13.7","","4.1","","52","","5","","10","","24.1","","101.32","","","","","","NA"
"2016-05-11 09:00","2016","05","11","09:00","16.7","","3.1","","40","","7","","15","","24.1","","101.31","","","","","","NA"
"2016-05-11 10:00","2016","05","11","10:00","17.8","","3.0","","37","","6","","16","","24.1","","101.27","","","","","","Mainly Clear"
"2016-05-11 11:00","2016","05","11","11:00","18.5","","2.1","","33","","12","","8","","24.1","","101.23","","","","","","NA"
"2016-05-11 12:00","2016","05","11","12:00","16.0","","4.8","","47","","17","","13","","24.1","","101.20","","","","","","NA"
"2016-05-11 13:00","2016","05","11","13:00","18.0","","4.3","","40","","18","","12","","24.1","","101.12","","","","","","Mainly Clear"
"2016-05-11 14:00","2016","05","11","14:00","18.6","","0.4","","29","","17","","12","","24.1","","101.06","","","","","","NA"
"2016-05-11 15:00","2016","05","11","15:00","18.9","","3.2","","35","","19","","16","","24.1","","101.00","","","","","","NA"
"2016-05-11 16:00","2016","05","11","16:00","19.5","","1.6","","30","","19","","7","","24.1","","100.97","","","","","","Mainly Clear"
"2016-05-11 17:00","2016","05","11","17:00","19.6","","1.7","","30","","19","","9","","24.1","","100.97","","","","","","NA"
"2016-05-11 18:00","2016","05","11","18:00","19.1","","3.0","","34","","24","","4","","24.1","","100.95","","","","","","NA"
"2016-05-11 19:00","2016","05","11","19:00","16.4","","2.2","","38","","23","","5","","24.1","","100.96","","","","","","Mainly Clear"
"2016-05-11 20:00","2016","05","11","20:00","14.2","","0.9","","40","","9","","4","","24.1","","100.94","","","","","","NA"
"2016-05-11 21:00","2016","05","11","21:00","13.8","","0.9","","41","","7","","4","","24.1","","100.97","","","","","","NA"
"2016-05-11 22:00","2016","05","11","22:00","11.5","","3.3","","57","","35","","6","","24.1","","100.97","","","","","","Clear"
"2016-05-11 23:00","2016","05","11","23:00"
"2016-05-12 00:00","2016","05","12","00:00"
"2016-05-12 01:00","2016","05","12","01:00"
"2016-05-12 02:00","2016","05","12","02:00"
"2016-05-12 03:00","2016","05","12","03:00"
"2016-05-12 04:00","2016","05","12","04:00"
"2016-05-12 05:00","2016","05","12","05:00","7.8","","2.1","","67","","4","","8","","24.1","","100.92","","","","","","NA"
"2016-05-12 06:00","2016","05","12","06:00","8.8","","3.0","","67","","6","","7","","24.1","","100.92","","","","","","NA"
"2016-05-12 07:00","2016","05","12","07:00","13.8","","3.6","","50","","14","","5","","24.1","","100.91","","","","","","Mostly Cloudy"
"2016-05-12 08:00","2016","05","12","08:00","14.2","","3.7","","49","","15","","8","","24.1","","100.89","","","","","","NA"
"2016-05-12 09:00","2016","05","12","09:00","14.8","","2.4","","43","","16","","8","","24.1","","100.84","","","","","","NA"
"2016-05-12 10:00","2016","05","12","10:00","16.5","","3.3","","41","","19","","7","","24.1","","100.80","","","","","","Mostly Cloudy"
"2016-05-12 11:00","2016","05","12","11:00","17.7","","1.3","","33","","16","","8","","24.1","","100.70","","","","","","NA"
"2016-05-12 12:00","2016","05","12","12:00","18.7","","2.7","","34","","17","","12","","24.1","","100.61","","","","","","NA"
"2016-05-12 13:00","2016","05","12","13:00","20.5","","4.7","","35","","18","","11","","24.1","","100.56","","","","","","Mostly Cloudy"
"2016-05-12 14:00","2016","05","12","14:00","22.5","","4.3","","30","","16","","8","","24.1","","100.44","","","","","","NA"
"2016-05-12 15:00","2016","05","12","15:00","24.5","","4.5","","27","","15","","8","","24.1","","100.35","","","","","","NA"
"2016-05-12 16:00","2016","05","12","16:00","24.7","","4.1","","26","","19","","7","","24.1","","100.27","","","","","","Mostly Cloudy"
"2016-05-12 17:00","2016","05","12","17:00","24.3","","4.3","","27","","17","","8","","24.1","","100.19","","","","","","NA"
"2016-05-12 18:00","2016","05","12","18:00","23.5","","7.4","","35","","5","","3","","24.1","","100.08","","","","","","NA"
"2016-05-12 19:00","2016","05","12","19:00","23.9","","6.4","","32","","9","","5","","24.1","","99.99","","","","","","Mostly Cloudy"
"2016-05-12 20:00","2016","05","12","20:00","21.1","","8.5","","44","","9","","8","","24.1","","99.97","","","","","","NA"
"2016-05-12 21:00","2016","05","12","21:00","21.6","","8.0","","41","","6","","8","","24.1","","99.93","","","","","","NA"
"2016-05-12 22:00","2016","05","12","22:00","21.1","","8.2","","43","","10","","11","","24.1","","99.86","","","","","","Mostly Cloudy"
"2016-05-12 23:00","2016","05","12","23:00"
"2016-05-13 00:00","2016","05","13","00:00"
"2016-05-13 01:00","2016","05","13","01:00"
"2016-05-13 02:00","2016","05","13","02:00"
"2016-05-13 03:00","2016","05","13","03:00"
"2016-05-13 04:00","2016","05","13","04:00"
"2016-05-13 05:00","2016","05","13","05:00","12.4","","10.7","","89","","19","","8","","9.7","","99.46","","","","","","Rain Showers,Fog"
"2016-05-13 06:00","2016","05","13","06:00","12.7","","11.1","","90","","23","","21","","8.1","","99.47","","","","","","Rain Showers,Fog"
"2016-05-13 07:00","2016","05","13","07:00","12.3","","11.5","","95","","18","","25","","2.4","","99.45","","","","","","Rain Showers,Fog"
"2016-05-13 08:00","2016","05","13","08:00","12.3","","11.8","","97","","21","","17","","2.4","","99.48","","","","","","Rain,Fog"
"2016-05-13 09:00","2016","05","13","09:00","13.4","","12.8","","96","","23","","22","","6.4","","99.54","","","","","","Rain,Fog"
"2016-05-13 10:00","2016","05","13","10:00","15.0","","13.7","","92","","24","","19","","24.1","","99.55","","","","","","Mostly Cloudy"
"2016-05-13 11:00","2016","05","13","11:00","16.5","","14.4","","87","","22","","23","","24.1","","99.53","","","","","","NA"
"2016-05-13 12:00","2016","05","13","12:00","15.0","","12.0","","82","","18","","18","","24.1","","99.51","","","","","","NA"
"2016-05-13 13:00","2016","05","13","13:00","17.8","","14.0","","78","","23","","27","","24.1","","99.50","","","","","","Mostly Cloudy"
"2016-05-13 14:00","2016","05","13","14:00","18.4","","12.9","","70","","24","","30","","24.1","","99.50","","","","","","NA"
"2016-05-13 15:00","2016","05","13","15:00","21.5","","9.6","","46","","27","","28","","24.1","","99.52","","","","","","NA"
"2016-05-13 16:00","2016","05","13","16:00","20.6","","8.7","","46","","29","","26","","24.1","","99.56","","","","","","Mainly Clear"
"2016-05-13 17:00","2016","05","13","17:00","20.6","","7.7","","43","","26","","27","","24.1","","99.58","","","","","","NA"
"2016-05-13 18:00","2016","05","13","18:00","19.8","","8.0","","46","","29","","18","","24.1","","99.58","","","","","","NA"
"2016-05-13 19:00","2016","05","13","19:00","18.2","","6.8","","47","","27","","19","","24.1","","99.64","","","","","","Clear"
"2016-05-13 20:00","2016","05","13","20:00","13.9","","8.8","","71","","24","","17","","24.1","","99.73","","","","","","NA"
"2016-05-13 21:00","2016","05","13","21:00","12.5","","8.8","","78","","24","","15","","24.1","","99.78","","","","","","NA"
"2016-05-13 22:00","2016","05","13","22:00","11.9","","8.4","","79","","25","","12","","24.1","","99.80","","","","","","Mainly Clear"
"2016-05-13 23:00","2016","05","13","23:00"
"2016-05-14 00:00","2016","05","14","00:00"
"2016-05-14 01:00","2016","05","14","01:00"
"2016-05-14 02:00","2016","05","14","02:00"
"2016-05-14 03:00","2016","05","14","03:00"
"2016-05-14 04:00","2016","05","14","04:00"
"2016-05-14 05:00","2016","05","14","05:00","9.1","","8.2","","94","","15","","17","","4.0","","99.56","","","","","","Fog"
"2016-05-14 06:00","2016","05","14","06:00","9.9","","8.8","","93","","17","","9","","6.4","","99.52","","","","","","Fog"
"2016-05-14 07:00","2016","05","14","07:00","10.9","","9.5","","91","","16","","11","","9.7","","99.42","","","","","","Fog"
"2016-05-14 08:00","2016","05","14","08:00","11.2","","9.1","","87","","16","","17","","16.1","","99.37","","","","","","NA"
"2016-05-14 09:00","2016","05","14","09:00","11.1","","8.9","","86","","18","","13","","19.3","","99.30","","","","","","NA"
"2016-05-14 10:00","2016","05","14","10:00","13.0","","9.7","","80","","15","","18","","19.3","","99.18","","","","","","Cloudy"
"2016-05-14 11:00","2016","05","14","11:00","11.6","","9.4","","86","","16","","14","","19.3","","99.08","","","","","","Rain"
"2016-05-14 12:00","2016","05","14","12:00","13.6","","9.3","","75","","16","","23","","19.3","","98.96","","","","","","Rain Showers"
"2016-05-14 13:00","2016","05","14","13:00","11.7","","9.3","","85","","21","","17","","11.3","","98.92","","","","","","Rain Showers"
"2016-05-14 14:00","2016","05","14","14:00","11.2","","9.5","","89","","16","","11","","16.1","","98.89","","","","","","Rain Showers"
"2016-05-14 15:00","2016","05","14","15:00","12.4","","10.3","","87","","19","","32","","16.1","","98.86","","","","","","Rain Showers"
"2016-05-14 16:00","2016","05","14","16:00","12.4","","7.7","","73","","24","","43","","24.1","","98.88","","","","","","Mostly Cloudy"
"2016-05-14 17:00","2016","05","14","17:00","10.9","","7.2","","78","","24","","28","","24.1","","98.97","","","","","","NA"
"2016-05-14 18:00","2016","05","14","18:00","9.4","","4.2","","70","","25","","30","","24.1","","99.12","","","","","","NA"
"2016-05-14 19:00","2016","05","14","19:00","8.9","","4.0","","71","","26","","26","","24.1","","99.19","","","","","","Cloudy"
"2016-05-14 20:00","2016","05","14","20:00","8.6","","3.7","","71","","27","","22","","24.1","","99.29","","","","","","NA"
"2016-05-14 21:00","2016","05","14","21:00","7.6","","3.1","","73","","27","","16","","24.1","","99.35","","","","","","NA"
"2016-05-14 22:00","2016","05","14","22:00","6.8","","3.1","","77","","26","","20","","24.1","","99.40","","","","","","Mostly Cloudy"
"2016-05-14 23:00","2016","05","14","23:00"
"2016-05-15 00:00","2016","05","15","00:00"
"2016-05-15 01:00","2016","05","15","01:00"
"2016-05-15 02:00","2016","05","15","02:00"
"2016-05-15 03:00","2016","05","15","03:00"
"2016-05-15 04:00","2016","05","15","04:00"
"2016-05-15 05:00","2016","05","15","05:00","4.3","","0.6","","77","","26","","19","","24.1","","99.48","","","","","","Rain"
"2016-05-15 06:00","2016","05","15","06:00","4.0","","0.9","","80","","27","","19","","24.1","","99.54","","","","","","Rain"
"2016-05-15 07:00","2016","05","15","07:00","3.8","","1.5","","85","","26","","18","","16.1","","99.57","","","","","","Rain"
"2016-05-15 08:00","2016","05","15","08:00","4.0","","2.4","","89","","28","","19","","16.1","","99.59","","","","","","Rain"
"2016-05-15 09:00","2016","05","15","09:00","4.8","","3.0","","88","","25","","13","","19.3","","99.59","","","","","","Rain"
"2016-05-15 10:00","2016","05","15","10:00","5.4","","3.6","","88","","24","","20","","19.3","","99.58","","","","","","Rain"
"2016-05-15 11:00","2016","05","15","11:00","5.9","","2.9","","81","","27","","23","","16.1","","99.59","","","","","","Rain Showers"
"2016-05-15 12:00","2016","05","15","12:00","5.8","","2.1","","77","","28","","23","","12.9","","99.60","","","","","","Rain Showers"
"2016-05-15 13:00","2016","05","15","13:00","7.1","","0.1","","61","","26","","28","","24.1","","99.60","","","","","","Rain Showers"
"2016-05-15 14:00","2016","05","15","14:00","7.1","","-0.1","","60","","26","","32","","24.1","","99.65","","","","","","NA"
"2016-05-15 15:00","2016","05","15","15:00","7.2","","-2.0","","52","","26","","34","","24.1","","99.67","","","","","","NA"
"2016-05-15 16:00","2016","05","15","16:00","6.6","","-2.6","","52","","27","","21","","24.1","","99.74","","","","","","Cloudy"
"2016-05-15 17:00","2016","05","15","17:00","6.5","","-2.4","","53","","30","","23","","24.1","","99.82","","","","","","NA"
"2016-05-15 18:00","2016","05","15","18:00","5.5","","-3.1","","54","","27","","26","","24.1","","99.90","","","","","","NA"
"2016-05-15 19:00","2016","05","15","19:00","5.4","","-3.9","","51","","29","","19","","24.1","","99.97","","","","","","Cloudy"
"2016-05-15 20:00","2016","05","15","20:00","5.0","","-4.6","","50","","28","","17","","24.1","","100.04","","","","","","NA"
"2016-05-15 21:00","2016","05","15","21:00","4.9","","-4.4","","51","","28","","15","","24.1","","100.13","","","","","","NA"
"2016-05-15 22:00","2016","05","15","22:00","4.4","","-3.4","","57","","27","","22","","24.1","","100.16","","","","","","Mostly Cloudy"
"2016-05-15 23:00","2016","05","15","23:00"
"2016-05-16 00:00","2016","05","16","00:00"
"2016-05-16 01:00","2016","05","16","01:00"
"2016-05-16 02:00","2016","05","16","02:00"
"2016-05-16 03:00","2016","05","16","03:00"
"2016-05-16 04:00","2016","05","16","04:00"
"2016-05-16 05:00","2016","05","16","05:00","3.5","","-1.7","","69","","27","","23","","24.1","","100.30","","","","","","NA"
"2016-05-16 06:00","2016","05","16","06:00","3.9","","-0.9","","71","","27","","16","","24.1","","100.39","","","","","","NA"
"2016-05-16 07:00","2016","05","16","07:00","5.5","","-2.6","","56","","29","","19","","24.1","","100.45","","","","","","Mainly Clear"
"2016-05-16 08:00","2016","05","16","08:00","6.8","","-4.9","","43","","30","","34","","24.1","","100.47","","","","","","NA"
"2016-05-16 09:00","2016","05","16","09:00","7.8","","-4.3","","42","","27","","24","","24.1","","100.47","","","","","","NA"
"2016-05-16 10:00","2016","05","16","10:00","9.4","","-3.5","","40","","30","","28","","24.1","","100.47","","","","","","Mainly Clear"
"2016-05-16 11:00","2016","05","16","11:00","10.6","","-2.8","","39","","27","","31","","24.1","","100.48","","","","","","NA"
"2016-05-16 12:00","2016","05","16","12:00","11.8","","-2.4","","37","","25","","27","","24.1","","100.48","","","","","","NA"
"2016-05-16 13:00","2016","05","16","13:00","13.5","","-1.2","","36","","26","","22","","24.1","","100.44","","","","","","Mostly Cloudy"
"2016-05-16 14:00","2016","05","16","14:00","10.9","","1.2","","51","","24","","34","","24.1","","100.46","","","","","","NA"
"2016-05-16 15:00","2016","05","16","15:00","11.5","","0.9","","48","","24","","23","","24.1","","100.51","","","","","","NA"
"2016-05-16 16:00","2016","05","16","16:00","12.3","","0.8","","45","","26","","22","","24.1","","100.52","","","","","","Mostly Cloudy"
"2016-05-16 17:00","2016","05","16","17:00","12.9","","0.4","","42","","26","","19","","24.1","","100.56","","","","","","NA"
"2016-05-16 18:00","2016","05","16","18:00","11.8","","0.3","","45","","28","","15","","24.1","","100.63","","","","","","NA"
"2016-05-16 19:00","2016","05","16","19:00","11.4","","0.5","","47","","29","","12","","24.1","","100.61","","","","","","Mostly Cloudy"
"2016-05-16 20:00","2016","05","16","20:00","10.3","","0.9","","52","","29","","6","","24.1","","100.66","","","","","","NA"
"2016-05-16 21:00","2016","05","16","21:00","9.3","","0.5","","54","","27","","7","","24.1","","100.69","","","","","","NA"
"2016-05-16 22:00","2016","05","16","22:00","7.7","","1.3","","64","","33","","4","","24.1","","100.72","","","","","","Mainly Clear"
"2016-05-16 23:00","2016","05","16","23:00"
"2016-05-17 00:00","2016","05","17","00:00"
"2016-05-17 01:00","2016","05","17","01:00"
"2016-05-17 02:00","2016","05","17","02:00"
"2016-05-17 03:00","2016","05","17","03:00"
"2016-05-17 04:00","2016","05","17","04:00"
"2016-05-17 05:00","2016","05","17","05:00","2.0","","0.2","","88","","35","","14","","24.1","","100.89","","","","","","NA"
"2016-05-17 06:00","2016","05","17","06:00","5.8","","1.7","","75","","4","","7","","24.1","","100.96","","","","","","NA"
"2016-05-17 07:00","2016","05","17","07:00","8.4","","1.8","","63","","5","","11","","24.1","","101.04","","","","","","Mainly Clear"
"2016-05-17 08:00","2016","05","17","08:00","10.1","","1.0","","53","","6","","16","","24.1","","101.09","","","","","","NA"
"2016-05-17 09:00","2016","05","17","09:00","11.1","","1.9","","53","","14","","15","","24.1","","101.09","","","","","","NA"
"2016-05-17 10:00","2016","05","17","10:00","11.1","","1.9","","53","","16","","16","","24.1","","101.10","","","","","","Clear"
"2016-05-17 11:00","2016","05","17","11:00","12.1","","2.6","","52","","19","","15","","24.1","","101.08","","","","","","NA"
"2016-05-17 12:00","2016","05","17","12:00","12.3","","3.6","","55","","18","","16","","24.1","","101.03","","","","","","NA"
"2016-05-17 13:00","2016","05","17","13:00","11.8","","4.8","","62","","19","","22","","24.1","","101.00","","","","","","Mainly Clear"
"2016-05-17 14:00","2016","05","17","14:00","10.5","","4.2","","65","","19","","21","","24.1","","100.99","","","","","","NA"
"2016-05-17 15:00","2016","05","17","15:00","11.3","","6.1","","70","","16","","15","","24.1","","100.98","","","","","","Rain Showers"
"2016-05-17 16:00","2016","05","17","16:00","12.2","","5.0","","61","","20","","18","","24.1","","100.91","","","","","","Rain Showers"
"2016-05-17 17:00","2016","05","17","17:00","11.2","","6.2","","71","","19","","21","","24.1","","100.91","","","","","","NA"
"2016-05-17 18:00","2016","05","17","18:00","10.5","","5.9","","73","","19","","18","","24.1","","100.88","","","","","","NA"
"2016-05-17 19:00","2016","05","17","19:00","10.6","","5.8","","72","","21","","7","","24.1","","100.90","","","","","","Mainly Clear"
"2016-05-17 20:00","2016","05","17","20:00","9.9","","3.9","","66","","25","","9","","24.1","","100.95","","","","","","NA"
"2016-05-17 21:00","2016","05","17","21:00","8.9","","3.6","","69","","3","","11","","24.1","","101.05","","","","","","NA"
"2016-05-17 22:00","2016","05","17","22:00","9.2","","2.6","","63","","4","","16","","24.1","","101.10","","","","","","Mainly Clear"
"2016-05-17 23:00","2016","05","17","23:00"
"2016-05-18 00:00","2016","05","18","00:00"
"2016-05-18 01:00","2016","05","18","01:00"
"2016-05-18 02:00","2016","05","18","02:00"
"2016-05-18 03:00","2016","05","18","03:00"
"2016-05-18 04:00","2016","05","18","04:00"
"2016-05-18 05:00","2016","05","18","05:00","3.1","","1.3","","88","","36","","11","","24.1","","101.21","","","","","","NA"
"2016-05-18 06:00","2016","05","18","06:00","5.8","","3.3","","84","","36","","12","","24.1","","101.24","","","","","","NA"
"2016-05-18 07:00","2016","05","18","07:00","8.0","","3.3","","72","","1","","14","","24.1","","101.28","","","","","","Mainly Clear"
"2016-05-18 08:00","2016","05","18","08:00","8.9","","3.8","","70","","4","","8","","24.1","","101.31","","","","","","NA"
"2016-05-18 09:00","2016","05","18","09:00","9.2","","3.2","","66","","6","","13","","24.1","","101.30","","","","","","NA"
"2016-05-18 10:00","2016","05","18","10:00","10.7","","3.8","","62","","2","","14","","24.1","","101.27","","","","","","Mostly Cloudy"
"2016-05-18 11:00","2016","05","18","11:00","11.5","","5.0","","64","","17","","16","","24.1","","101.24","","","","","","NA"
"2016-05-18 12:00","2016","05","18","12:00","11.8","","5.0","","63","","18","","13","","24.1","","101.19","","","","","","NA"
"2016-05-18 13:00","2016","05","18","13:00","12.6","","5.3","","61","","18","","16","","24.1","","101.13","","","","","","Mainly Clear"
"2016-05-18 14:00","2016","05","18","14:00","11.6","","4.6","","62","","19","","21","","24.1","","101.08","","","","","","NA"
"2016-05-18 15:00","2016","05","18","15:00","13.4","","4.6","","55","","19","","17","","24.1","","101.03","","","","","","NA"
"2016-05-18 16:00","2016","05","18","16:00","14.0","","4.6","","53","","21","","13","","24.1","","100.97","","","","","","Mostly Cloudy"
"2016-05-18 17:00","2016","05","18","17:00","14.2","","4.3","","51","","18","","11","","24.1","","100.95","","","","","","NA"
"2016-05-18 18:00","2016","05","18","18:00","12.1","","4.1","","58","","25","","14","","24.1","","100.94","","","","","","NA"
"2016-05-18 19:00","2016","05","18","19:00","11.5","","5.2","","65","","25","","10","","24.1","","100.93","","","","","","Mainly Clear"
"2016-05-18 20:00","2016","05","18","20:00","10.4","","5.0","","69","","28","","10","","24.1","","100.92","","","","","","NA"
"2016-05-18 21:00","2016","05","18","21:00","9.9","","4.9","","71","","30","","13","","24.1","","100.94","","","","","","NA"
"2016-05-18 22:00","2016","05","18","22:00","9.4","","4.2","","70","","31","","17","","24.1","","100.93","","","","","","Clear"
"2016-05-18 23:00","2016","05","18","23:00"
"2016-05-19 00:00","2016","05","19","00:00"
"2016-05-19 01:00","2016","05","19","01:00"
"2016-05-19 02:00","2016","05","19","02:00"
"2016-05-19 03:00","2016","05","19","03:00"
"2016-05-19 04:00","2016","05","19","04:00"
"2016-05-19 05:00","2016","05","19","05:00","5.4","","3.9","","90","","32","","6","","24.1","","100.90","","","","","","NA"
"2016-05-19 06:00","2016","05","19","06:00","8.9","","6.2","","83","","36","","1","","24.1","","100.93","","","","","","NA"
"2016-05-19 07:00","2016","05","19","07:00","9.9","","6.6","","80","","16","","5","","24.1","","100.96","","","","","","Mostly Cloudy"
"2016-05-19 08:00","2016","05","19","08:00","11.0","","6.6","","74","","17","","10","","24.1","","100.99","","","","","","NA"
"2016-05-19 09:00","2016","05","19","09:00","12.0","","7.0","","71","","17","","12","","24.1","","101.00","","","","","","NA"
"2016-05-19 10:00","2016","05","19","10:00","11.7","","6.2","","69","","18","","17","","24.1","","100.99","","","","","","Mostly Cloudy"
"2016-05-19 11:00","2016","05","19","11:00","11.6","","7.7","","77","","16","","15","","24.1","","100.98","","","","","","NA"
"2016-05-19 12:00","2016","05","19","12:00","10.6","","7.3","","80","","16","","7","","24.1","","101.01","","","","","","NA"
"2016-05-19 13:00","2016","05","19","13:00","13.4","","8.7","","73","","19","","10","","24.1","","100.98","","","","","","Rain Showers"
"2016-05-19 14:00","2016","05","19","14:00","16.1","","8.4","","60","","25","","20","","24.1","","100.94","","","","","","NA"
"2016-05-19 15:00","2016","05","19","15:00","16.8","","6.4","","50","","24","","17","","24.1","","100.90","","","","","","NA"
"2016-05-19 16:00","2016","05","19","16:00","16.8","","7.0","","52","","25","","17","","24.1","","100.89","","","","","","Mostly Cloudy"
"2016-05-19 17:00","2016","05","19","17:00","15.8","","7.4","","57","","8","","14","","24.1","","100.96","","","","","","NA"
"2016-05-19 18:00","2016","05","19","18:00","14.5","","7.8","","64","","15","","9","","24.1","","100.95","","","","","","NA"
"2016-05-19 19:00","2016","05","19","19:00","12.2","","7.3","","72","","36","","2","","24.1","","100.96","","","","","","Mainly Clear"
"2016-05-19 20:00","2016","05","19","20:00","11.2","","7.4","","77","","36","","2","","24.1","","100.99","","","","","","NA"
"2016-05-19 21:00","2016","05","19","21:00","10.0","","6.2","","77","","25","","7","","24.1","","101.05","","","","","","NA"
"2016-05-19 22:00","2016","05","19","22:00","9.1","","7.9","","92","","35","","5","","24.1","","101.07","","","","","","Mainly Clear"
"2016-05-19 23:00","2016","05","19","23:00"
"2016-05-20 00:00","2016","05","20","00:00"
"2016-05-20 01:00","2016","05","20","01:00"
"2016-05-20 02:00","2016","05","20","02:00"
"2016-05-20 03:00","2016","05","20","03:00"
"2016-05-20 04:00","2016","05","20","04:00"
"2016-05-20 05:00","2016","05","20","05:00","4.1","","3.5","","96","","8","","5","","16.1","","101.19","","","","","","NA"
"2016-05-20 06:00","2016","05","20","06:00","6.1","","5.7","","97","","36","","2","","16.1","","101.25","","","","","","NA"
"2016-05-20 07:00","2016","05","20","07:00","9.1","","8.5","","96","","36","","2","","19.3","","101.32","","","","","","Mostly Cloudy"
"2016-05-20 08:00","2016","05","20","08:00","10.6","","8.5","","87","","16","","7","","24.1","","101.39","","","","","","NA"
"2016-05-20 09:00","2016","05","20","09:00","12.3","","8.6","","78","","17","","9","","24.1","","101.44","","","","","","NA"
"2016-05-20 10:00","2016","05","20","10:00","13.8","","7.8","","67","","16","","11","","24.1","","101.46","","","","","","Mainly Clear"
"2016-05-20 11:00","2016","05","20","11:00","13.1","","7.2","","67","","16","","13","","24.1","","101.43","","","","","","NA"
"2016-05-20 12:00","2016","05","20","12:00","13.6","","8.1","","69","","16","","18","","24.1","","101.37","","","","","","NA"
"2016-05-20 13:00","2016","05","20","13:00","12.6","","7.7","","72","","16","","16","","24.1","","101.31","","","","","","Mainly Clear"
"2016-05-20 14:00","2016","05","20","14:00","12.7","","7.6","","71","","16","","17","","24.1","","101.25","","","","","","NA"
"2016-05-20 15:00","2016","05","20","15:00","13.1","","6.5","","64","","18","","16","","24.1","","101.20","","","","","","NA"
"2016-05-20 16:00","2016","05","20","16:00","13.8","","6.9","","63","","20","","16","","24.1","","101.15","","","","","","Mainly Clear"
"2016-05-20 17:00","2016","05","20","17:00","13.6","","6.8","","63","","18","","11","","24.1","","101.08","","","","","","NA"
"2016-05-20 18:00","2016","05","20","18:00","12.9","","7.6","","70","","17","","10","","24.1","","101.06","","","","","","NA"
"2016-05-20 19:00","2016","05","20","19:00","11.4","","7.9","","79","","14","","7","","24.1","","101.03","","","","","","Mostly Cloudy"
"2016-05-20 20:00","2016","05","20","20:00","9.6","","7.2","","85","","12","","4","","24.1","","101.02","","","","","","NA"
"2016-05-20 21:00","2016","05","20","21:00","9.0","","6.8","","86","","5","","5","","24.1","","101.02","","","","","","NA"
"2016-05-20 22:00","2016","05","20","22:00","9.0","","6.6","","85","","11","","5","","24.1","","100.99","","","","","","Mainly Clear"
"2016-05-20 23:00","2016","05","20","23:00"
"2016-05-21 00:00","2016","05","21","00:00"
"2016-05-21 01:00","2016","05","21","01:00"
"2016-05-21 02:00","2016","05","21","02:00"
"2016-05-21 03:00","2016","05","21","03:00"
"2016-05-21 04:00","2016","05","21","04:00"
"2016-05-21 05:00","2016","05","21","05:00","6.6","","5.2","","91","","36","","2","","24.1","","100.83","","","","","","NA"
"2016-05-21 06:00","2016","05","21","06:00","8.4","","7.0","","91","","35","","6","","24.1","","100.83","","","","","","NA"
"2016-05-21 07:00","2016","05","21","07:00","11.0","","8.8","","86","","1","","4","","24.1","","100.78","","","","","","Cloudy"
"2016-05-21 08:00","2016","05","21","08:00","14.5","","6.7","","59","","36","","3","","24.1","","100.76","","","","","","NA"
"2016-05-21 09:00","2016","05","21","09:00","16.4","","4.5","","45","","17","","3","","24.1","","100.74","","","","","","NA"
"2016-05-21 10:00","2016","05","21","10:00","16.9","","4.0","","42","","15","","7","","24.1","","100.71","","","","","","Cloudy"
"2016-05-21 11:00","2016","05","21","11:00","17.0","","5.4","","46","","18","","9","","24.1","","100.68","","","","","","NA"
"2016-05-21 12:00","2016","05","21","12:00","16.5","","6.4","","51","","17","","11","","24.1","","100.63","","","","","","NA"
"2016-05-21 13:00","2016","05","21","13:00","17.1","","7.5","","53","","17","","12","","24.1","","100.56","","","","","","Mostly Cloudy"
"2016-05-21 14:00","2016","05","21","14:00","17.4","","7.3","","51","","17","","9","","24.1","","100.48","","","","","","NA"
"2016-05-21 15:00","2016","05","21","15:00","17.3","","8.0","","54","","18","","13","","24.1","","100.42","","","","","","NA"
"2016-05-21 16:00","2016","05","21","16:00","16.6","","8.4","","58","","18","","13","","24.1","","100.39","","","","","","Mostly Cloudy"
"2016-05-21 17:00","2016","05","21","17:00","16.1","","9.6","","65","","17","","12","","24.1","","100.34","","","","","","NA"
"2016-05-21 18:00","2016","05","21","18:00","14.6","","9.2","","70","","19","","6","","24.1","","100.29","","","","","","NA"
"2016-05-21 19:00","2016","05","21","19:00","13.4","","9.7","","78","","19","","8","","24.1","","100.29","","","","","","Mostly Cloudy"
"2016-05-21 20:00","2016","05","21","20:00","13.7","","8.0","","68","","21","","11","","24.1","","100.30","","","","","","NA"
"2016-05-21 21:00","2016","05","21","21:00","13.8","","9.1","","73","","24","","11","","24.1","","100.29","","","","","","NA"
"2016-05-21 22:00","2016","05","21","22:00","12.6","","9.5","","81","","22","","10","","24.1","","100.26","","","","","","Mostly Cloudy"
"2016-05-21 23:00","2016","05","21","23:00"
"2016-05-22 00:00","2016","05","22","00:00"
"2016-05-22 01:00","2016","05","22","01:00"
"2016-05-22 02:00","2016","05","22","02:00"
"2016-05-22 03:00","2016","05","22","03:00"
"2016-05-22 04:00","2016","05","22","04:00"
"2016-05-22 05:00","2016","05","22","05:00","9.3","","7.9","","91","","31","","5","","24.1","","100.09","","","","","","NA"
"2016-05-22 06:00","2016","05","22","06:00","10.4","","9.0","","91","","31","","6","","24.1","","100.14","","","","","","NA"
"2016-05-22 07:00","2016","05","22","07:00","13.5","","9.2","","75","","1","","10","","24.1","","100.16","","","","","","Mostly Cloudy"
"2016-05-22 08:00","2016","05","22","08:00","16.7","","9.7","","63","","2","","15","","24.1","","100.17","","","","","","NA"
"2016-05-22 09:00","2016","05","22","09:00","18.1","","9.6","","57","","2","","18","","24.1","","100.17","","","","","","NA"
"2016-05-22 10:00","2016","05","22","10:00","19.4","","10.0","","54","","1","","10","","24.1","","100.18","","","","","","Mostly Cloudy"
"2016-05-22 11:00","2016","05","22","11:00","17.4","","11.3","","67","","19","","13","","24.1","","100.19","","","","","","NA"
"2016-05-22 12:00","2016","05","22","12:00","17.2","","10.9","","66","","18","","13","","24.1","","100.17","","","","","","NA"
"2016-05-22 13:00","2016","05","22","13:00","17.5","","10.5","","63","","20","","14","","24.1","","100.18","","","","","","Mostly Cloudy"
"2016-05-22 14:00","2016","05","22","14:00","16.8","","10.9","","68","","19","","17","","24.1","","100.15","","","","","","NA"
"2016-05-22 15:00","2016","05","22","15:00","17.9","","12.2","","69","","21","","14","","24.1","","100.12","","","","","","NA"
"2016-05-22 16:00","2016","05","22","16:00","20.3","","13.6","","65","","20","","11","","24.1","","100.09","","","","","","Mostly Cloudy"
"2016-05-22 17:00","2016","05","22","17:00","20.9","","11.4","","54","","15","","6","","24.1","","100.07","","","","","","NA"
"2016-05-22 18:00","2016","05","22","18:00","23.5","","7.8","","36","","3","","12","","24.1","","100.07","","","","","","NA"
"2016-05-22 19:00","2016","05","22","19:00","18.5","","10.9","","61","","24","","9","","24.1","","100.09","","","","","","Mainly Clear"
"2016-05-22 20:00","2016","05","22","20:00","16.1","","10.3","","68","","31","","6","","24.1","","100.16","","","","","","NA"
"2016-05-22 21:00","2016","05","22","21:00","16.2","","8.0","","58","","33","","9","","24.1","","100.24","","","","","","NA"
"2016-05-22 22:00","2016","05","22","22:00","14.6","","7.5","","62","","35","","9","","24.1","","100.31","","","","","","Clear"
"2016-05-22 23:00","2016","05","22","23:00"
"2016-05-23 00:00","2016","05","23","00:00"
"2016-05-23 01:00","2016","05","23","01:00"
"2016-05-23 02:00","2016","05","23","02:00"
"2016-05-23 03:00","2016","05","23","03:00"
"2016-05-23 04:00","2016","05","23","04:00"
"2016-05-23 05:00","2016","05","23","05:00","9.1","","6.0","","81","","35","","14","","24.1","","100.42","","","","","","NA"
"2016-05-23 06:00","2016","05","23","06:00","12.7","","8.0","","73","","1","","9","","24.1","","100.46","","","","","","NA"
"2016-05-23 07:00","2016","05","23","07:00","17.3","","7.2","","51","","7","","5","","24.1","","100.53","","","","","","Clear"
"2016-05-23 08:00","2016","05","23","08:00","20.0","","7.5","","44","","6","","10","","24.1","","100.54","","","","","","NA"
"2016-05-23 09:00","2016","05","23","09:00","18.5","","9.4","","55","","18","","6","","24.1","","100.52","","","","","","NA"
"2016-05-23 10:00","2016","05","23","10:00","19.7","","9.4","","51","","20","","10","","24.1","","100.51","","","","","","Clear"
"2016-05-23 11:00","2016","05","23","11:00","20.1","","9.5","","50","","14","","12","","24.1","","100.50","","","","","","NA"
"2016-05-23 12:00","2016","05","23","12:00","19.5","","9.8","","53","","19","","20","","24.1","","100.46","","","","","","NA"
"2016-05-23 13:00","2016","05","23","13:00","22.6","","10.9","","47","","20","","15","","24.1","","100.41","","","","","","Clear"
"2016-05-23 14:00","2016","05","23","14:00","24.7","","9.6","","38","","20","","19","","24.1","","100.35","","26","","","","NA"
"2016-05-23 15:00","2016","05","23","15:00","23.4","","11.3","","46","","20","","19","","24.1","","100.30","","25","","","","NA"
"2016-05-23 16:00","2016","05","23","16:00","18.7","","9.9","","56","","18","","16","","24.1","","100.24","","","","","","Clear"
"2016-05-23 17:00","2016","05","23","17:00","17.9","","9.4","","57","","19","","18","","24.1","","100.19","","","","","","NA"
"2016-05-23 18:00","2016","05","23","18:00","16.5","","10.0","","65","","18","","10","","24.1","","100.16","","","","","","NA"
"2016-05-23 19:00","2016","05","23","19:00","15.4","","10.8","","74","","24","","5","","24.1","","100.16","","","","","","Mainly Clear"
"2016-05-23 20:00","2016","05","23","20:00","14.1","","10.0","","76","","15","","9","","24.1","","100.17","","","","","","NA"
"2016-05-23 21:00","2016","05","23","21:00","12.1","","9.5","","84","","12","","5","","24.1","","100.22","","","","","","NA"
"2016-05-23 22:00","2016","05","23","22:00","11.5","","8.9","","84","","12","","5","","24.1","","100.24","","","","","","Clear"
"2016-05-23 23:00","2016","05","23","23:00"
"2016-05-24 00:00","2016","05","24","00:00"
"2016-05-24 01:00","2016","05","24","01:00"
"2016-05-24 02:00","2016","05","24","02:00"
"2016-05-24 03:00","2016","05","24","03:00"
"2016-05-24 04:00","2016","05","24","04:00"
"2016-05-24 05:00","2016","05","24","05:00","9.6","","6.3","","80","","36","","9","","24.1","","100.25","","","","","","NA"
"2016-05-24 06:00","2016","05","24","06:00","11.7","","7.5","","75","","0","","1","","24.1","","100.30","","","","","","NA"
"2016-05-24 07:00","2016","05","24","07:00","14.5","","10.0","","74","","25","","10","","24.1","","100.34","","","","","","Mainly Clear"
"2016-05-24 08:00","2016","05","24","08:00","16.2","","8.5","","60","","18","","7","","24.1","","100.37","","","","","","NA"
"2016-05-24 09:00","2016","05","24","09:00","17.2","","5.9","","47","","16","","9","","24.1","","100.35","","","","","","NA"
"2016-05-24 10:00","2016","05","24","10:00","18.8","","7.1","","46","","18","","12","","24.1","","100.34","","","","","","Mainly Clear"
"2016-05-24 11:00","2016","05","24","11:00","21.1","","7.5","","41","","19","","13","","24.1","","100.35","","","","","","NA"
"2016-05-24 12:00","2016","05","24","12:00","22.1","","8.0","","40","","21","","11","","24.1","","100.32","","","","","","NA"
"2016-05-24 13:00","2016","05","24","13:00","22.2","","8.1","","40","","19","","17","","24.1","","100.29","","","","","","Mainly Clear"
"2016-05-24 14:00","2016","05","24","14:00","23.3","","8.8","","39","","19","","19","","24.1","","100.25","","","","","","NA"
"2016-05-24 15:00","2016","05","24","15:00","25.2","","7.1","","31","","23","","18","","24.1","","100.23","","25","","","","NA"
"2016-05-24 16:00","2016","05","24","16:00","23.5","","6.9","","34","","19","","19","","24.1","","100.19","","","","","","Mainly Clear"
"2016-05-24 17:00","2016","05","24","17:00","22.9","","8.0","","38","","22","","16","","17.7","","100.18","","","","","","NA"
"2016-05-24 18:00","2016","05","24","18:00","21.8","","8.5","","42","","23","","19","","17.7","","100.18","","","","","","NA"
"2016-05-24 19:00","2016","05","24","19:00","20.5","","8.3","","45","","24","","18","","17.7","","100.17","","","","","","Mainly Clear"
"2016-05-24 20:00","2016","05","24","20:00","17.4","","9.1","","58","","23","","11","","17.7","","100.18","","","","","","NA"
"2016-05-24 21:00","2016","05","24","21:00","16.9","","8.7","","58","","23","","13","","17.7","","100.21","","","","","","NA"
"2016-05-24 22:00","2016","05","24","22:00","17.5","","8.5","","55","","25","","10","","17.7","","100.24","","","","","","Mainly Clear"
"2016-05-24 23:00","2016","05","24","23:00"
"2016-05-25 00:00","2016","05","25","00:00"
"2016-05-25 01:00","2016","05","25","01:00"
"2016-05-25 02:00","2016","05","25","02:00"
"2016-05-25 03:00","2016","05","25","03:00"
"2016-05-25 04:00","2016","05","25","04:00"
"2016-05-25 05:00","2016","05","25","05:00","12.4","","10.8","","90","","16","","8","","19.3","","100.40","","","","","","NA"
"2016-05-25 06:00","2016","05","25","06:00","12.9","","10.5","","85","","18","","15","","24.1","","100.46","","","","","","NA"
"2016-05-25 07:00","2016","05","25","07:00","13.4","","9.9","","79","","19","","21","","24.1","","100.46","","","","","","Mostly Cloudy"
"2016-05-25 08:00","2016","05","25","08:00","14.2","","9.1","","71","","19","","18","","24.1","","100.48","","","","","","NA"
"2016-05-25 09:00","2016","05","25","09:00","15.5","","9.2","","66","","18","","15","","24.1","","100.50","","","","","","NA"
"2016-05-25 10:00","2016","05","25","10:00","15.7","","10.3","","70","","12","","10","","24.1","","100.46","","","","","","Mostly Cloudy"
"2016-05-25 11:00","2016","05","25","11:00","18.2","","11.4","","64","","17","","5","","24.1","","100.50","","","","","","NA"
"2016-05-25 12:00","2016","05","25","12:00","23.5","","13.2","","52","","23","","18","","24.1","","100.49","","26","","","","NA"
"2016-05-25 13:00","2016","05","25","13:00","25.1","","13.2","","47","","22","","18","","24.1","","100.48","","28","","","","Mainly Clear"
"2016-05-25 14:00","2016","05","25","14:00","26.8","","13.7","","44","","23","","22","","24.1","","100.47","","30","","","","NA"
"2016-05-25 15:00","2016","05","25","15:00","25.4","","13.8","","48","","19","","21","","24.1","","100.44","","29","","","","NA"
"2016-05-25 16:00","2016","05","25","16:00","24.0","","13.7","","52","","20","","19","","24.1","","100.45","","27","","","","Mostly Cloudy"
"2016-05-25 17:00","2016","05","25","17:00","24.6","","13.0","","48","","24","","22","","24.1","","100.43","","27","","","","NA"
"2016-05-25 18:00","2016","05","25","18:00","23.4","","12.9","","51","","24","","21","","24.1","","100.43","","26","","","","NA"
"2016-05-25 19:00","2016","05","25","19:00","24.1","","13.8","","52","","36","","16","","24.1","","100.50","","27","","","","Mainly Clear"
"2016-05-25 20:00","2016","05","25","20:00","21.8","","13.8","","60","","4","","9","","24.1","","100.57","","25","","","","NA"
"2016-05-25 21:00","2016","05","25","21:00","20.7","","13.0","","61","","2","","8","","24.1","","100.67","","","","","","NA"
"2016-05-25 22:00","2016","05","25","22:00","19.0","","13.5","","70","","3","","8","","24.1","","100.66","","","","","","Clear"
"2016-05-25 23:00","2016","05","25","23:00"
"2016-05-26 00:00","2016","05","26","00:00"
"2016-05-26 01:00","2016","05","26","01:00"
"2016-05-26 02:00","2016","05","26","02:00"
"2016-05-26 03:00","2016","05","26","03:00"
"2016-05-26 04:00","2016","05","26","04:00"
"2016-05-26 05:00","2016","05","26","05:00","15.7","","11.5","","76","","4","","13","","24.1","","100.78","","","","","","NA"
"2016-05-26 06:00","2016","05","26","06:00","16.7","","12.1","","74","","6","","14","","24.1","","100.80","","","","","","NA"
"2016-05-26 07:00","2016","05","26","07:00","17.9","","12.4","","70","","5","","16","","24.1","","100.78","","","","","","Mostly Cloudy"
"2016-05-26 08:00","2016","05","26","08:00","19.9","","13.2","","65","","7","","16","","24.1","","100.75","","","","","","NA"
"2016-05-26 09:00","2016","05","26","09:00","20.6","","13.2","","62","","13","","18","","24.1","","100.73","","","","","","NA"
"2016-05-26 10:00","2016","05","26","10:00","21.5","","14.3","","63","","15","","12","","24.1","","100.71","","25","","","","Cloudy"
"2016-05-26 11:00","2016","05","26","11:00","21.8","","14.3","","62","","15","","9","","24.1","","100.67","","25","","","","NA"
"2016-05-26 12:00","2016","05","26","12:00","22.4","","12.5","","53","","16","","14","","19.3","","100.62","","25","","","","NA"
"2016-05-26 13:00","2016","05","26","13:00","21.4","","11.8","","54","","20","","4","","24.1","","100.57","","","","","","Cloudy"
"2016-05-26 14:00","2016","05","26","14:00","25.2","","13.6","","48","","14","","8","","24.1","","100.51","","28","","","","NA"
"2016-05-26 15:00","2016","05","26","15:00","23.9","","13.3","","51","","16","","8","","19.3","","100.49","","27","","","","NA"
"2016-05-26 16:00","2016","05","26","16:00","24.0","","14.0","","53","","25","","7","","24.1","","100.47","","27","","","","Cloudy"
"2016-05-26 17:00","2016","05","26","17:00","22.4","","16.5","","69","","1","","5","","24.1","","100.40","","27","","","","NA"
"2016-05-26 18:00","2016","05","26","18:00","22.5","","16.6","","69","","36","","3","","24.1","","100.39","","28","","","","NA"
"2016-05-26 19:00","2016","05","26","19:00","21.4","","16.0","","71","","36","","2","","24.1","","100.38","","26","","","","Mostly Cloudy"
"2016-05-26 20:00","2016","05","26","20:00","20.8","","16.1","","74","","12","","5","","24.1","","100.34","","25","","","","NA"
"2016-05-26 21:00","2016","05","26","21:00","19.8","","15.7","","77","","11","","4","","24.1","","100.39","","","","","","NA"
"2016-05-26 22:00","2016","05","26","22:00","17.5","","15.0","","85","","18","","4","","24.1","","100.37","","","","","","Mainly Clear"
"2016-05-26 23:00","2016","05","26","23:00"
"2016-05-27 00:00","2016","05","27","00:00"
"2016-05-27 01:00","2016","05","27","01:00"
"2016-05-27 02:00","2016","05","27","02:00"
"2016-05-27 03:00","2016","05","27","03:00"
"2016-05-27 04:00","2016","05","27","04:00"
"2016-05-27 05:00","2016","05","27","05:00","15.0","","14.2","","95","","15","","7","","8.1","","100.33","","","","","","Fog"
"2016-05-27 06:00","2016","05","27","06:00","15.4","","14.5","","94","","15","","11","","6.4","","100.37","","","","","","Fog"
"2016-05-27 07:00","2016","05","27","07:00","16.3","","14.7","","90","","17","","14","","6.4","","100.41","","","","","","Fog"
"2016-05-27 08:00","2016","05","27","08:00","16.8","","14.7","","87","","14","","9","","6.4","","100.43","","","","","","Fog"
"2016-05-27 09:00","2016","05","27","09:00","17.7","","14.8","","83","","17","","13","","9.7","","100.41","","","","","","Fog"
"2016-05-27 10:00","2016","05","27","10:00","18.0","","14.7","","81","","15","","12","","9.7","","100.41","","","","","","Haze"
"2016-05-27 11:00","2016","05","27","11:00","18.5","","15.2","","81","","18","","18","","9.7","","100.42","","","","","","Haze"
"2016-05-27 12:00","2016","05","27","12:00","18.7","","15.4","","81","","18","","21","","8.1","","100.41","","","","","","Haze"
"2016-05-27 13:00","2016","05","27","13:00","19.9","","16.2","","79","","18","","15","","6.4","","100.38","","","","","","Haze"
"2016-05-27 14:00","2016","05","27","14:00","20.9","","17.0","","78","","18","","20","","24.1","","100.37","","26","","","","NA"
"2016-05-27 15:00","2016","05","27","15:00","21.9","","17.1","","74","","18","","10","","12.9","","100.40","","27","","","","NA"
"2016-05-27 16:00","2016","05","27","16:00","24.2","","18.3","","69","","20","","16","","12.9","","100.37","","30","","","","Mainly Clear"
"2016-05-27 17:00","2016","05","27","17:00","21.4","","16.7","","74","","17","","12","","16.1","","100.30","","26","","","","NA"
"2016-05-27 18:00","2016","05","27","18:00","22.0","","17.0","","73","","17","","7","","12.9","","100.32","","27","","","","NA"
"2016-05-27 19:00","2016","05","27","19:00","18.7","","16.2","","85","","17","","4","","12.9","","100.35","","","","","","Mostly Cloudy"
"2016-05-27 20:00","2016","05","27","20:00","16.6","","15.0","","90","","13","","5","","9.7","","100.38","","","","","","Fog"
"2016-05-27 21:00","2016","05","27","21:00","16.0","","15.1","","94","","16","","10","","12.9","","100.48","","","","","","NA"
"2016-05-27 22:00","2016","05","27","22:00","15.8","","15.0","","95","","17","","14","","9.7","","100.51","","","","","","Fog"
"2016-05-27 23:00","2016","05","27","23:00"
"2016-05-28 00:00","2016","05","28","00:00"
"2016-05-28 01:00","2016","05","28","01:00"
"2016-05-28 02:00","2016","05","28","02:00"
"2016-05-28 03:00","2016","05","28","03:00"
"2016-05-28 04:00","2016","05","28","04:00"
"2016-05-28 05:00","2016","05","28","05:00","16.1","","15.6","","97","","18","","5","","4.8","","100.69","","","","","","Fog"
"2016-05-28 06:00","2016","05","28","06:00","16.8","","16.2","","96","","17","","7","","4.0","","100.75","","","","","","Fog"
"2016-05-28 07:00","2016","05","28","07:00","17.5","","16.9","","96","","16","","5","","3.2","","100.78","","","","","","Fog"
"2016-05-28 08:00","2016","05","28","08:00","18.2","","16.2","","88","","17","","8","","8.1","","100.80","","","","","","Fog"
"2016-05-28 09:00","2016","05","28","09:00","18.1","","15.6","","85","","16","","8","","8.1","","100.80","","","","","","Fog"
"2016-05-28 10:00","2016","05","28","10:00","19.7","","17.2","","85","","17","","11","","9.7","","100.84","","","","","","Fog"
"2016-05-28 11:00","2016","05","28","11:00","20.8","","17.3","","80","","17","","14","","12.9","","100.87","","26","","","","NA"
"2016-05-28 12:00","2016","05","28","12:00","22.0","","18.7","","81","","16","","12","","12.9","","100.84","","29","","","","NA"
"2016-05-28 13:00","2016","05","28","13:00","22.7","","18.1","","75","","15","","9","","12.9","","100.82","","29","","","","Mostly Cloudy"
"2016-05-28 14:00","2016","05","28","14:00","24.9","","17.0","","61","","16","","11","","19.3","","100.76","","30","","","","NA"
"2016-05-28 15:00","2016","05","28","15:00","26.0","","17.3","","58","","17","","11","","24.1","","100.72","","31","","","","NA"
"2016-05-28 16:00","2016","05","28","16:00","26.1","","16.5","","55","","17","","9","","24.1","","100.68","","31","","","","Mostly Cloudy"
"2016-05-28 17:00","2016","05","28","17:00","25.5","","17.1","","59","","18","","10","","24.1","","100.65","","31","","","","NA"
"2016-05-28 18:00","2016","05","28","18:00","23.9","","17.5","","67","","21","","8","","24.1","","100.66","","30","","","","NA"
"2016-05-28 19:00","2016","05","28","19:00","22.5","","17.5","","73","","18","","5","","24.1","","100.66","","28","","","","Mainly Clear"
"2016-05-28 20:00","2016","05","28","20:00","20.9","","17.0","","78","","19","","8","","24.1","","100.69","","26","","","","NA"
"2016-05-28 21:00","2016","05","28","21:00","19.4","","16.9","","85","","","","0","","24.1","","100.71","","","","","","NA"
"2016-05-28 22:00","2016","05","28","22:00","18.6","","16.6","","88","","36","","1","","24.1","","100.71","","","","","","Mainly Clear"
"2016-05-28 23:00","2016","05","28","23:00"
"2016-05-29 00:00","2016","05","29","00:00"
"2016-05-29 01:00","2016","05","29","01:00"
"2016-05-29 02:00","2016","05","29","02:00"
"2016-05-29 03:00","2016","05","29","03:00"
"2016-05-29 04:00","2016","05","29","04:00"
"2016-05-29 05:00","2016","05","29","05:00","19.6","","17.4","","87","","14","","12","","19.3","","100.67","","","","","","Rain Showers"
"2016-05-29 06:00","2016","05","29","06:00","19.2","","17.6","","90","","17","","3","","19.3","","100.69","","","","","","NA"
"2016-05-29 07:00","2016","05","29","07:00","20.1","","18.1","","88","","20","","9","","19.3","","100.71","","26","","","","Mostly Cloudy"
"2016-05-29 08:00","2016","05","29","08:00","22.1","","18.6","","80","","16","","10","","24.1","","100.72","","29","","","","NA"
"2016-05-29 09:00","2016","05","29","09:00","21.3","","18.5","","84","","18","","13","","19.3","","100.72","","28","","","","NA"
"2016-05-29 10:00","2016","05","29","10:00","21.3","","18.3","","83","","15","","10","","19.3","","100.67","","28","","","","Mostly Cloudy"
"2016-05-29 11:00","2016","05","29","11:00","22.4","","18.6","","79","","16","","10","","19.3","","100.64","","29","","","","NA"
"2016-05-29 12:00","2016","05","29","12:00","22.2","","18.3","","78","","15","","14","","19.3","","100.58","","28","","","","NA"
"2016-05-29 13:00","2016","05","29","13:00","22.2","","18.3","","78","","18","","16","","19.3","","100.54","","28","","","","Mostly Cloudy"
"2016-05-29 14:00","2016","05","29","14:00","21.8","","18.3","","80","","17","","22","","16.1","","100.51","","28","","","","NA"
"2016-05-29 15:00","2016","05","29","15:00","23.9","","18.9","","73","","19","","20","","19.3","","100.41","","31","","","","NA"
"2016-05-29 16:00","2016","05","29","16:00","25.9","","18.5","","63","","20","","10","","16.1","","100.37","","32","","","","Mostly Cloudy"
"2016-05-29 17:00","2016","05","29","17:00","21.5","","16.8","","74","","18","","25","","16.1","","100.37","","27","","","","NA"
"2016-05-29 18:00","2016","05","29","18:00","19.6","","17.2","","86","","19","","20","","16.1","","100.33","","","","","","NA"
"2016-05-29 19:00","2016","05","29","19:00","21.4","","17.7","","79","","23","","8","","19.3","","100.32","","27","","","","Cloudy"
"2016-05-29 20:00","2016","05","29","20:00","21.0","","17.3","","79","","15","","4","","24.1","","100.33","","26","","","","NA"
"2016-05-29 21:00","2016","05","29","21:00","21.3","","16.1","","72","","25","","3","","24.1","","100.33","","26","","","","Rain"
"2016-05-29 22:00","2016","05","29","22:00","20.0","","16.3","","79","","24","","6","","24.1","","100.28","","25","","","","Cloudy"
"2016-05-29 23:00","2016","05","29","23:00"
"2016-05-30 00:00","2016","05","30","00:00"
"2016-05-30 01:00","2016","05","30","01:00"
"2016-05-30 02:00","2016","05","30","02:00"
"2016-05-30 03:00","2016","05","30","03:00"
"2016-05-30 04:00","2016","05","30","04:00"
"2016-05-30 05:00","2016","05","30","05:00","15.9","","14.8","","93","","17","","11","","24.1","","100.18","","","","","","NA"
"2016-05-30 06:00","2016","05","30","06:00","16.4","","14.8","","90","","18","","11","","24.1","","100.17","","","","","","NA"
"2016-05-30 07:00","2016","05","30","07:00","17.2","","15.2","","88","","19","","16","","24.1","","100.18","","","","","","Mostly Cloudy"
"2016-05-30 08:00","2016","05","30","08:00","19.6","","16.1","","80","","18","","13","","24.1","","100.18","","","","","","NA"
"2016-05-30 09:00","2016","05","30","09:00","23.0","","16.9","","68","","23","","16","","24.1","","100.14","","28","","","","NA"
"2016-05-30 10:00","2016","05","30","10:00","21.8","","16.4","","71","","19","","16","","24.1","","100.07","","27","","","","Mainly Clear"
"2016-05-30 11:00","2016","05","30","11:00","23.2","","16.4","","65","","20","","21","","24.1","","100.07","","28","","","","NA"
"2016-05-30 12:00","2016","05","30","12:00","25.5","","15.7","","54","","22","","29","","24.1","","100.06","","30","","","","NA"
"2016-05-30 13:00","2016","05","30","13:00","25.5","","15.7","","54","","23","","30","","24.1","","100.04","","30","","","","Mostly Cloudy"
"2016-05-30 14:00","2016","05","30","14:00","26.1","","16.5","","55","","22","","28","","24.1","","100.03","","31","","","","NA"
"2016-05-30 15:00","2016","05","30","15:00","26.1","","16.2","","54","","23","","26","","24.1","","100.02","","31","","","","NA"
"2016-05-30 16:00","2016","05","30","16:00","24.9","","15.4","","55","","24","","27","","24.1","","100.02","","29","","","","Mostly Cloudy"
"2016-05-30 17:00","2016","05","30","17:00","25.0","","15.2","","54","","24","","28","","24.1","","100.00","","29","","","","NA"
"2016-05-30 18:00","2016","05","30","18:00","23.2","","14.6","","58","","25","","16","","24.1","","100.01","","27","","","","NA"
"2016-05-30 19:00","2016","05","30","19:00","24.3","","9.7","","39","","27","","23","","24.1","","100.04","","25","","","","Mainly Clear"
"2016-05-30 20:00","2016","05","30","20:00","21.9","","9.6","","45","","28","","18","","24.1","","100.10","","","","","","NA"
"2016-05-30 21:00","2016","05","30","21:00","20.3","","9.1","","48","","27","","12","","24.1","","100.19","","","","","","NA"
"2016-05-30 22:00","2016","05","30","22:00","19.0","","9.9","","55","","26","","11","","24.1","","100.24","","","","","","Clear"
"2016-05-30 23:00","2016","05","30","23:00"
"2016-05-31 00:00","2016","05","31","00:00"
"2016-05-31 01:00","2016","05","31","01:00"
"2016-05-31 02:00","2016","05","31","02:00"
"2016-05-31 03:00","2016","05","31","03:00"
"2016-05-31 04:00","2016","05","31","04:00"
"2016-05-31 05:00","2016","05","31","05:00","14.9","","12.1","","83","","24","","16","","24.1","","100.30","","","","","","NA"
"2016-05-31 06:00","2016","05","31","06:00","15.7","","11.9","","78","","25","","13","","24.1","","100.34","","","","","","NA"
"2016-05-31 07:00","2016","05","31","07:00","17.3","","12.7","","74","","22","","11","","24.1","","100.36","","","","","","Clear"
"2016-05-31 08:00","2016","05","31","08:00","19.7","","12.6","","63","","23","","16","","24.1","","100.37","","","","","","NA"
"2016-05-31 09:00","2016","05","31","09:00","21.7","","12.4","","55","","23","","17","","24.1","","100.36","","","","","","NA"
"2016-05-31 10:00","2016","05","31","10:00","22.8","","11.1","","47","","24","","25","","24.1","","100.31","","25","","","","Clear"
"2016-05-31 11:00","2016","05","31","11:00","25.3","","10.6","","39","","25","","19","","24.1","","100.29","","27","","","","NA"
"2016-05-31 12:00","2016","05","31","12:00","24.5","","10.6","","41","","23","","23","","24.1","","100.27","","26","","","","NA"
"2016-05-31 13:00","2016","05","31","13:00","23.9","","11.4","","45","","23","","30","","24.1","","100.27","","26","","","","Mainly Clear"
"2016-05-31 14:00","2016","05","31","14:00","22.5","","12.9","","54","","20","","26","","24.1","","100.25","","25","","","","NA"
"2016-05-31 15:00","2016","05","31","15:00","23.2","","10.8","","45","","20","","13","","24.1","","100.24","","25","","","","NA"
"2016-05-31 16:00","2016","05","31","16:00","23.6","","10.1","","42","","25","","21","","24.1","","100.26","","25","","","","Mainly Clear"
"2016-05-31 17:00","2016","05","31","17:00","25.2","","10.5","","39","","34","","22","","24.1","","100.30","","27","","","","NA"
"2016-05-31 18:00","2016","05","31","18:00","22.3","","10.3","","46","","35","","31","","24.1","","100.43","","","","","","NA"
"2016-05-31 19:00","2016","05","31","19:00","19.7","","8.5","","48","","36","","26","","24.1","","100.53","","","","","","Mostly Cloudy"
"2016-05-31 20:00","2016","05","31","20:00","17.5","","7.6","","52","","36","","15","","24.1","","100.62","","","","","","NA"
"2016-05-31 21:00","2016","05","31","21:00","15.5","","6.8","","56","","36","","20","","24.1","","100.75","","","","","","NA"
"2016-05-31 22:00","2016","05","31","22:00","13.9","","6.3","","60","","2","","15","","24.1","","100.80","","","","","","Clear"
"2016-05-31 23:00","2016","05","31","23:00"
