"Station Name","KINGSTON A"
"Province","ONTARIO"
"Latitude","44.23"
"Longitude","-76.60"
"Elevation","92.40"
"Climate Identifier","6104149"
"WMO Identifier",""
"TC Identifier","YGK"
"All times are specified in Local Standard Time (LST). Add 1 hour to adjust for Daylight Saving Time where and when it is observed."

"Legend"
"E","Estimated"
"M","Missing"
"NA","Not Available"

"Date/Time","Year","Month","Day","Time","Temp (°C)","Temp Flag","Dew Point Temp (°C)","Dew Point Temp Flag","Rel Hum (%)","Rel Hum Flag","Wind Dir (10s deg)","Wind Dir Flag","Wind Spd (km/h)","Wind Spd Flag","Visibility (km)","Visibility Flag","Stn Press (kPa)","Stn Press Flag","Hmdx","Hmdx Flag","Wind Chill","Wind Chill Flag","Weather"
"2014-01-01 00:00","2014","01","01","00:00"
"2014-01-01 01:00","2014","01","01","01:00"
"2014-01-01 02:00","2014","01","01","02:00"
"2014-01-01 03:00","2014","01","01","03:00"
"2014-01-01 04:00","2014","01","01","04:00"
"2014-01-01 05:00","2014","01","01","05:00"
"2014-01-01 06:00","2014","01","01","06:00","-16.3","","-18.4","","84","","36","","5","","24.1","","101.48","","","","-20","","NA"
"2014-01-01 07:00","2014","01","01","07:00","-15.8","","-19.0","","77","","33","","9","","24.1","","101.55","","","","-22","","Clear"
"2014-01-01 08:00","2014","01","01","08:00","-15.4","","-18.4","","78","","32","","7","","24.1","","101.64","","","","-20","","NA"
"2014-01-01 09:00","2014","01","01","09:00","-14.1","","-18.3","","71","","34","","18","","24.1","","101.72","","","","-23","","NA"
"2014-01-01 10:00","2014","01","01","10:00","-13.8","","-19.2","","64","","35","","13","","24.1","","101.87","","","","-21","","Mostly Cloudy"
"2014-01-01 11:00","2014","01","01","11:00","-13.2","","-20.0","","57","","36","","18","","24.1","","101.86","","","","-21","","NA"
"2014-01-01 12:00","2014","01","01","12:00","-13.1","","-20.2","","56","","35","","20","","24.1","","101.80","","","","-22","","NA"
"2014-01-01 13:00","2014","01","01","13:00","-12.8","","-20.7","","52","","36","","12","","24.1","","101.86","","","","-19","","Mostly Cloudy"
"2014-01-01 14:00","2014","01","01","14:00","-12.7","","-21.8","","47","","36","","15","","24.1","","101.84","","","","-20","","NA"
"2014-01-01 15:00","2014","01","01","15:00","-12.4","","-21.6","","47","","34","","9","","24.1","","101.88","","","","-18","","NA"
"2014-01-01 16:00","2014","01","01","16:00","-14.8","","-21.2","","59","","5","","18","","24.1","","101.86","","","","-23","","Mostly Cloudy"
"2014-01-01 17:00","2014","01","01","17:00","-16.3","","-22.2","","61","","4","","17","","24.1","","101.88","","","","-25","","NA"
"2014-01-01 18:00","2014","01","01","18:00","-17.5","","-23.3","","61","","4","","17","","24.1","","101.94","","","","-27","","NA"
"2014-01-01 19:00","2014","01","01","19:00","-18.0","","-23.8","","61","","4","","21","","24.1","","101.99","","","","-28","","Cloudy"
"2014-01-01 20:00","2014","01","01","20:00","-19.5","","-25.8","","58","","5","","26","","24.1","","102.02","","","","-31","","NA"
"2014-01-01 21:00","2014","01","01","21:00","-20.3","","-26.6","","58","","3","","20","","24.1","","102.03","","","","-31","","NA"
"2014-01-01 22:00","2014","01","01","22:00","-20.3","","-27.4","","54","","3","","24","","24.1","","101.99","","","","-32","","Cloudy"
"2014-01-01 23:00","2014","01","01","23:00","-20.7","","-26.6","","60","","5","","25","","24.1","","102.00","","","","-33","","NA"
"2014-01-02 00:00","2014","01","02","00:00"
"2014-01-02 01:00","2014","01","02","01:00"
"2014-01-02 02:00","2014","01","02","02:00"
"2014-01-02 03:00","2014","01","02","03:00"
"2014-01-02 04:00","2014","01","02","04:00"
"2014-01-02 05:00","2014","01","02","05:00"
"2014-01-02 06:00","2014","01","02","06:00","-23.2","","-30.1","","54","","3","","24","","19.3","","101.68","","","","-36","","Snow,Blowing Snow"
"2014-01-02 07:00","2014","01","02","07:00","-23.4","","-29.5","","58","","4","","24","","19.3","","101.69","","","","-36","","Snow,Blowing Snow"
"2014-01-02 08:00","2014","01","02","08:00","-23.7","","-29.3","","61","","2","","30","","24.1","","101.61","","","","-37","","Blowing Snow"
"2014-01-02 09:00","2014","01","02","09:00","-23.5","","-28.9","","62","","3","","32","","19.3","","101.58","","","","-38","","Blowing Snow"
"2014-01-02 10:00","2014","01","02","10:00","-23.3","","-28.9","","61","","2","","33","","19.3","","101.52","","","","-37","","Snow,Blowing Snow"
"2014-01-02 11:00","2014","01","02","11:00","-23.0","","-29.0","","59","","2","","32","","24.1","","101.41","","","","-37","","Snow,Blowing Snow"
"2014-01-02 12:00","2014","01","02","12:00","-22.5","","-28.9","","57","","2","","27","","9.7","","101.29","","","","-35","","Snow,Blowing Snow"
"2014-01-02 13:00","2014","01","02","13:00","-22.6","","-27.9","","63","","2","","29","","2.4","","101.19","","","","-36","","Snow,Blowing Snow"
"2014-01-02 14:00","2014","01","02","14:00","-22.4","","-27.3","","65","","2","","37","","1.6","","100.98","","","","-37","","Snow,Blowing Snow"
"2014-01-02 15:00","2014","01","02","15:00","-22.4","","-27.1","","66","","3","","30","","1.6","","100.98","","","","-36","","Snow,Blowing Snow"
"2014-01-02 16:00","2014","01","02","16:00","-22.7","","-26.8","","70","","3","","31","","2.4","","100.97","","","","-36","","Snow,Blowing Snow"
"2014-01-02 17:00","2014","01","02","17:00","-22.8","","-26.7","","71","","2","","29","","2.0","","100.93","","","","-36","","Snow,Blowing Snow"
"2014-01-02 18:00","2014","01","02","18:00","-22.9","","-27.0","","70","","2","","35","","2.8","","100.89","","","","-37","","Snow,Blowing Snow"
"2014-01-02 19:00","2014","01","02","19:00","-22.6","","-26.5","","71","","2","","33","","3.2","","100.89","","","","-36","","Snow,Blowing Snow"
"2014-01-02 20:00","2014","01","02","20:00","-22.1","","-26.0","","71","","2","","33","","3.2","","100.85","","","","-36","","Snow,Blowing Snow"
"2014-01-02 21:00","2014","01","02","21:00","-21.7","","-25.8","","70","","2","","33","","3.6","","100.80","","","","-35","","Snow,Blowing Snow"
"2014-01-02 22:00","2014","01","02","22:00","-21.5","","-25.4","","71","","2","","33","","4.0","","100.84","","","","-35","","Snow,Blowing Snow"
"2014-01-02 23:00","2014","01","02","23:00","-21.7","","-25.6","","71","","2","","30","","6.4","","100.79","","","","-35","","Snow,Blowing Snow"
"2014-01-03 00:00","2014","01","03","00:00"
"2014-01-03 01:00","2014","01","03","01:00"
"2014-01-03 02:00","2014","01","03","02:00"
"2014-01-03 03:00","2014","01","03","03:00"
"2014-01-03 04:00","2014","01","03","04:00"
"2014-01-03 05:00","2014","01","03","05:00"
"2014-01-03 06:00","2014","01","03","06:00","-23.0","","-27.6","","67","","35","","16","","24.1","","101.16","","","","-33","","Snow Showers"
"2014-01-03 07:00","2014","01","03","07:00","-24.0","","-29.0","","64","","33","","18","","24.1","","101.29","","","","-35","","Mainly Clear"
"2014-01-03 08:00","2014","01","03","08:00","-25.0","","-30.3","","62","","35","","18","","24.1","","101.41","","","","-36","","NA"
"2014-01-03 09:00","2014","01","03","09:00","-25.1","","-31.0","","59","","35","","19","","24.1","","101.52","","","","-37","","NA"
"2014-01-03 10:00","2014","01","03","10:00","-24.3","","-30.6","","57","","36","","11","","24.1","","101.60","","","","-33","","Clear"
"2014-01-03 11:00","2014","01","03","11:00","-23.1","","-30.9","","50","","34","","10","","24.1","","101.64","","","","-31","","NA"
"2014-01-03 12:00","2014","01","03","12:00","-21.7","","-30.5","","46","","35","","10","","24.1","","101.63","","","","-29","","NA"
"2014-01-03 13:00","2014","01","03","13:00","-20.4","","-30.8","","40","","34","","5","","24.1","","101.66","","","","-25","","Clear"
"2014-01-03 14:00","2014","01","03","14:00","-19.2","","-30.0","","39","","22","","5","","24.1","","101.69","","","","-23","","NA"
"2014-01-03 15:00","2014","01","03","15:00","-18.6","","-26.9","","49","","22","","9","","24.1","","101.74","","","","-25","","NA"
"2014-01-03 16:00","2014","01","03","16:00","-18.6","","-26.4","","51","","20","","9","","24.1","","101.82","","","","-25","","Clear"
"2014-01-03 17:00","2014","01","03","17:00","-19.0","","-27.9","","46","","26","","5","","24.1","","101.84","","","","-23","","NA"
"2014-01-03 18:00","2014","01","03","18:00","-19.9","","-27.0","","54","","30","","6","","24.1","","101.90","","","","-25","","NA"
"2014-01-03 19:00","2014","01","03","19:00","-21.2","","-26.9","","61","","30","","5","","24.1","","101.87","","","","-26","","Clear"
"2014-01-03 20:00","2014","01","03","20:00","-20.9","","-26.4","","62","","7","","7","","24.1","","101.81","","","","-27","","NA"
"2014-01-03 21:00","2014","01","03","21:00","-22.4","","-26.3","","71","","4","","4","","24.1","","101.77","","","","-26","","NA"
"2014-01-03 22:00","2014","01","03","22:00","-24.0","","-27.3","","75","","4","","8","","24.1","","101.74","","","","-31","","Clear"
"2014-01-03 23:00","2014","01","03","23:00","-22.5","","-25.2","","79","","5","","6","","24.1","","101.65","","","","-28","","Ice Crystals"
"2014-01-04 00:00","2014","01","04","00:00"
"2014-01-04 01:00","2014","01","04","01:00"
"2014-01-04 02:00","2014","01","04","02:00"
"2014-01-04 03:00","2014","01","04","03:00"
"2014-01-04 04:00","2014","01","04","04:00"
"2014-01-04 05:00","2014","01","04","05:00"
"2014-01-04 06:00","2014","01","04","06:00","-7.5","","-10.7","","78","","18","","40","","24.1","","101.17","","","","-17","","Snow Showers"
"2014-01-04 07:00","2014","01","04","07:00","-7.9","","-11.4","","76","","18","","44","","24.1","","101.08","","","","-18","","Snow Showers"
"2014-01-04 08:00","2014","01","04","08:00","-7.6","","-11.3","","75","","18","","39","","24.1","","101.07","","","","-17","","NA"
"2014-01-04 09:00","2014","01","04","09:00","-6.7","","-10.4","","75","","18","","38","","24.1","","101.03","","","","-16","","NA"
"2014-01-04 10:00","2014","01","04","10:00","-5.4","","-11.4","","63","","18","","45","","24.1","","100.91","","","","-15","","Blowing Snow"
"2014-01-04 11:00","2014","01","04","11:00","-5.0","","-10.2","","67","","18","","52","","24.1","","100.71","","","","-15","","Blowing Snow"
"2014-01-04 12:00","2014","01","04","12:00","-3.6","","-8.9","","67","","18","","41","","24.1","","100.57","","","","-12","","NA"
"2014-01-04 13:00","2014","01","04","13:00","-2.8","","-9.3","","61","","19","","45","","24.1","","100.48","","","","-12","","Mostly Cloudy"
"2014-01-04 14:00","2014","01","04","14:00","-2.0","","-8.6","","61","","19","","45","","24.1","","100.45","","","","-10","","NA"
"2014-01-04 15:00","2014","01","04","15:00","-1.4","","-8.2","","60","","18","","46","","24.1","","100.40","","","","-10","","NA"
"2014-01-04 16:00","2014","01","04","16:00","-0.8","","-6.6","","65","","19","","35","","24.1","","100.44","","","","-8","","Mostly Cloudy"
"2014-01-04 17:00","2014","01","04","17:00","-0.5","","-5.9","","67","","19","","36","","24.1","","100.43","","","","-8","","NA"
"2014-01-04 18:00","2014","01","04","18:00","-0.3","","-5.1","","70","","20","","24","","24.1","","100.50","","","","-6","","NA"
"2014-01-04 19:00","2014","01","04","19:00","-0.1","","-4.4","","73","","19","","26","","24.1","","100.52","","","","-6","","Mostly Cloudy"
"2014-01-04 20:00","2014","01","04","20:00","0.1","","-4.7","","70","","21","","26","","24.1","","100.58","","","","","","NA"
"2014-01-04 21:00","2014","01","04","21:00","0.6","","-4.3","","70","","21","","26","","24.1","","100.60","","","","","","NA"
"2014-01-04 22:00","2014","01","04","22:00","0.5","","-4.2","","71","","20","","27","","24.1","","100.63","","","","","","Cloudy"
"2014-01-04 23:00","2014","01","04","23:00","0.4","","-4.3","","71","","20","","27","","24.1","","100.68","","","","","","NA"
"2014-01-05 00:00","2014","01","05","00:00"
"2014-01-05 01:00","2014","01","05","01:00"
"2014-01-05 02:00","2014","01","05","02:00"
"2014-01-05 03:00","2014","01","05","03:00"
"2014-01-05 04:00","2014","01","05","04:00"
"2014-01-05 05:00","2014","01","05","05:00"
"2014-01-05 06:00","2014","01","05","06:00","-1.2","","-2.9","","88","","20","","4","","24.1","","100.85","","","","-3","","NA"
"2014-01-05 07:00","2014","01","05","07:00","-1.2","","-2.8","","89","","21","","4","","24.1","","100.86","","","","-3","","Snow"
"2014-01-05 08:00","2014","01","05","08:00","-0.8","","-2.2","","90","","20","","7","","16.1","","100.93","","","","-3","","Snow"
"2014-01-05 09:00","2014","01","05","09:00","-0.9","","-5.0","","74","","16","","27","","24.1","","100.93","","","","-7","","NA"
"2014-01-05 10:00","2014","01","05","10:00","-0.8","","-5.2","","72","","17","","28","","24.1","","100.98","","","","-7","","Cloudy"
"2014-01-05 11:00","2014","01","05","11:00","-0.9","","-5.7","","70","","17","","23","","24.1","","100.91","","","","-7","","NA"
"2014-01-05 12:00","2014","01","05","12:00","-0.8","","-5.6","","70","","17","","21","","24.1","","100.86","","","","-6","","NA"
"2014-01-05 13:00","2014","01","05","13:00","-0.5","","-5.1","","71","","14","","10","","24.1","","100.71","","","","-4","","Cloudy"
"2014-01-05 14:00","2014","01","05","14:00","-0.7","","-6.3","","66","","12","","15","","24.1","","100.64","","","","-5","","NA"
"2014-01-05 15:00","2014","01","05","15:00","-0.8","","-6.2","","67","","6","","9","","24.1","","100.58","","","","-4","","NA"
"2014-01-05 16:00","2014","01","05","16:00","-0.7","","-7.8","","59","","6","","21","","24.1","","100.46","","","","-6","","Cloudy"
"2014-01-05 17:00","2014","01","05","17:00","-0.9","","-7.9","","59","","6","","18","","24.1","","100.36","","","","-6","","NA"
"2014-01-05 18:00","2014","01","05","18:00","-0.9","","-7.9","","59","","5","","21","","24.1","","100.18","","","","-7","","Snow"
"2014-01-05 19:00","2014","01","05","19:00","-1.1","","-7.1","","64","","6","","26","","19.3","","99.98","","","","-7","","Freezing Rain,Snow"
"2014-01-05 20:00","2014","01","05","20:00","-1.0","","-5.4","","72","","6","","26","","19.3","","99.68","","","","-7","","Freezing Rain"
"2014-01-05 21:00","2014","01","05","21:00","-0.9","","-2.3","","90","","4","","16","","4.8","","99.47","","","","-6","","Moderate Freezing Rain,Fog"
"2014-01-05 22:00","2014","01","05","22:00","-0.2","","-1.1","","94","","6","","25","","9.7","","99.21","","","","-6","","Freezing Rain,Fog"
"2014-01-05 23:00","2014","01","05","23:00","0.7","","0.3","","97","","7","","11","","9.7","","98.95","","","","","","Fog"
"2014-01-06 00:00","2014","01","06","00:00"
"2014-01-06 01:00","2014","01","06","01:00"
"2014-01-06 02:00","2014","01","06","02:00"
"2014-01-06 03:00","2014","01","06","03:00"
"2014-01-06 04:00","2014","01","06","04:00"
"2014-01-06 05:00","2014","01","06","05:00"
"2014-01-06 06:00","2014","01","06","06:00","6.4","","4.7","","89","","20","","42","","24.1","","97.90","","","","","","Rain"
"2014-01-06 07:00","2014","01","06","07:00","4.8","","3.2","","89","","21","","40","","24.1","","97.89","","","","","","Rain"
"2014-01-06 08:00","2014","01","06","08:00","1.5","","","M","","M","23","","51","","24.1","","98.05","","","","","","NA"
"2014-01-06 09:00","2014","01","06","09:00","-0.5","","-3.9","","78","","24","","48","","24.1","","98.35","","","","-9","","NA"
"2014-01-06 10:00","2014","01","06","10:00","-2.1","","-6.7","","71","","26","","30","","24.1","","98.62","","","","-9","","Cloudy"
"2014-01-06 11:00","2014","01","06","11:00","-3.3","","-8.8","","66","","26","","39","","24.1","","98.73","","","","-12","","NA"
"2014-01-06 12:00","2014","01","06","12:00","-3.4","","-9.1","","65","","26","","30","","19.3","","98.75","","","","-11","","Snow"
"2014-01-06 13:00","2014","01","06","13:00","-3.7","","-9.2","","66","","26","","28","","19.3","","98.79","","","","-11","","Mostly Cloudy"
"2014-01-06 14:00","2014","01","06","14:00","-4.2","","-9.6","","66","","27","","28","","24.1","","98.87","","","","-12","","Snow Showers"
"2014-01-06 15:00","2014","01","06","15:00","-3.8","","-9.9","","63","","28","","26","","24.1","","98.92","","","","-11","","Snow Showers"
"2014-01-06 16:00","2014","01","06","16:00","-4.0","","-11.5","","56","","27","","28","","24.1","","98.97","","","","-11","","Mostly Cloudy"
"2014-01-06 17:00","2014","01","06","17:00","-5.2","","-7.8","","82","","25","","22","","6.4","","98.97","","","","-12","","Snow Showers,Blowing Snow"
"2014-01-06 18:00","2014","01","06","18:00","-5.8","","-11.0","","67","","25","","31","","19.3","","99.05","","","","-14","","Snow Showers,Blowing Snow"
"2014-01-06 19:00","2014","01","06","19:00","-6.5","","-11.3","","69","","25","","34","","0.6","","99.13","","","","-15","","Moderate Snow Showers,Blowing Snow"
"2014-01-06 20:00","2014","01","06","20:00","-8.7","","-10.3","","88","","23","","40","","0.6","","99.17","","","","-19","","Moderate Snow,Blowing Snow"
"2014-01-06 21:00","2014","01","06","21:00","-9.7","","-13.2","","76","","25","","37","","3.2","","99.23","","","","-20","","Snow Showers,Blowing Snow"
"2014-01-06 22:00","2014","01","06","22:00","-11.2","","-14.8","","75","","26","","46","","3.2","","99.26","","","","-23","","Snow Showers,Blowing Snow"
"2014-01-06 23:00","2014","01","06","23:00","-11.8","","-16.1","","71","","26","","25","","9.7","","99.26","","","","-21","","Snow"
"2014-01-07 00:00","2014","01","07","00:00"
"2014-01-07 01:00","2014","01","07","01:00"
"2014-01-07 02:00","2014","01","07","02:00"
"2014-01-07 03:00","2014","01","07","03:00"
"2014-01-07 04:00","2014","01","07","04:00"
"2014-01-07 05:00","2014","01","07","05:00"
"2014-01-07 06:00","2014","01","07","06:00","-15.1","","-22.5","","54","","27","","39","","24.1","","99.90","","","","-27","","Blowing Snow"
"2014-01-07 07:00","2014","01","07","07:00","-16.1","","-22.0","","61","","26","","40","","24.1","","99.98","","","","-29","","Blowing Snow"
"2014-01-07 08:00","2014","01","07","08:00","-16.9","","-23.2","","59","","27","","38","","24.1","","100.08","","","","-30","","Blowing Snow"
"2014-01-07 09:00","2014","01","07","09:00","-16.7","","-24.2","","53","","26","","33","","24.1","","100.17","","","","-29","","Blowing Snow"
"2014-01-07 10:00","2014","01","07","10:00","-16.5","","-24.2","","52","","26","","34","","24.1","","100.24","","","","-29","","Blowing Snow"
"2014-01-07 11:00","2014","01","07","11:00","-15.1","","-23.1","","51","","27","","36","","8.1","","100.24","","","","-27","","Blowing Snow"
"2014-01-07 12:00","2014","01","07","12:00","-14.3","","-20.7","","59","","25","","36","","24.1","","100.20","","","","-26","","NA"
"2014-01-07 13:00","2014","01","07","13:00","-14.1","","-19.9","","62","","25","","37","","24.1","","100.19","","","","-26","","Blowing Snow"
"2014-01-07 14:00","2014","01","07","14:00","-13.8","","-19.1","","65","","26","","40","","16.1","","100.21","","","","-26","","Snow,Blowing Snow"
"2014-01-07 15:00","2014","01","07","15:00","-13.6","","-19.0","","64","","26","","37","","24.1","","100.29","","","","-25","","Snow,Blowing Snow"
"2014-01-07 16:00","2014","01","07","16:00","-13.3","","-18.0","","68","","26","","31","","24.1","","100.35","","","","-24","","Snow,Blowing Snow"
"2014-01-07 17:00","2014","01","07","17:00","-13.2","","-18.3","","66","","25","","48","","24.1","","100.41","","","","-26","","Blowing Snow"
"2014-01-07 18:00","2014","01","07","18:00","-13.1","","-17.5","","70","","26","","34","","24.1","","100.51","","","","-24","","Blowing Snow"
"2014-01-07 19:00","2014","01","07","19:00","-13.1","","-19.5","","59","","26","","37","","24.1","","100.60","","","","-25","","Mainly Clear"
"2014-01-07 20:00","2014","01","07","20:00","-12.8","","-19.5","","58","","26","","31","","24.1","","100.65","","","","-23","","NA"
"2014-01-07 21:00","2014","01","07","21:00","-12.4","","-17.5","","66","","26","","29","","24.1","","100.73","","","","-23","","NA"
"2014-01-07 22:00","2014","01","07","22:00","-12.4","","-17.7","","65","","27","","24","","24.1","","100.85","","","","-22","","Mainly Clear"
"2014-01-07 23:00","2014","01","07","23:00","-12.8","","-17.5","","68","","27","","22","","24.1","","100.95","","","","-22","","NA"
"2014-01-08 00:00","2014","01","08","00:00"
"2014-01-08 01:00","2014","01","08","01:00"
"2014-01-08 02:00","2014","01","08","02:00"
"2014-01-08 03:00","2014","01","08","03:00"
"2014-01-08 04:00","2014","01","08","04:00"
"2014-01-08 05:00","2014","01","08","05:00"
"2014-01-08 06:00","2014","01","08","06:00","-12.5","","-18.4","","62","","26","","21","","24.1","","101.43","","","","-21","","NA"
"2014-01-08 07:00","2014","01","08","07:00","-12.9","","-18.6","","63","","26","","15","","24.1","","101.51","","","","-20","","Mostly Cloudy"
"2014-01-08 08:00","2014","01","08","08:00","-13.2","","-19.0","","62","","27","","15","","24.1","","101.58","","","","-21","","NA"
"2014-01-08 09:00","2014","01","08","09:00","-12.1","","-19.0","","57","","26","","17","","24.1","","101.66","","","","-20","","NA"
"2014-01-08 10:00","2014","01","08","10:00","-11.0","","-18.2","","56","","26","","19","","24.1","","101.73","","","","-19","","Mainly Clear"
"2014-01-08 11:00","2014","01","08","11:00","-10.0","","-16.6","","59","","25","","17","","24.1","","101.71","","","","-17","","NA"
"2014-01-08 12:00","2014","01","08","12:00","-9.1","","-15.5","","60","","26","","17","","24.1","","101.63","","","","-16","","NA"
"2014-01-08 13:00","2014","01","08","13:00","-8.2","","-15.1","","58","","25","","17","","24.1","","101.59","","","","-15","","Mainly Clear"
"2014-01-08 14:00","2014","01","08","14:00","-7.8","","-14.9","","57","","25","","21","","24.1","","101.57","","","","-15","","NA"
"2014-01-08 15:00","2014","01","08","15:00","-8.2","","-14.3","","62","","25","","28","","24.1","","101.62","","","","-17","","NA"
"2014-01-08 16:00","2014","01","08","16:00","-8.4","","-15.1","","59","","26","","24","","24.1","","101.64","","","","-17","","Mainly Clear"
"2014-01-08 17:00","2014","01","08","17:00","-9.2","","-16.0","","58","","26","","21","","24.1","","101.70","","","","-17","","NA"
"2014-01-08 18:00","2014","01","08","18:00","-9.3","","-15.7","","60","","26","","14","","24.1","","101.72","","","","-16","","NA"
"2014-01-08 19:00","2014","01","08","19:00","-9.4","","-15.8","","60","","26","","12","","24.1","","101.76","","","","-15","","Mostly Cloudy"
"2014-01-08 20:00","2014","01","08","20:00","-9.4","","-15.6","","61","","26","","9","","24.1","","101.78","","","","-14","","NA"
"2014-01-08 21:00","2014","01","08","21:00","-9.3","","-15.3","","62","","26","","10","","24.1","","101.79","","","","-14","","NA"
"2014-01-08 22:00","2014","01","08","22:00","-9.2","","-15.0","","63","","28","","9","","24.1","","101.83","","","","-14","","Cloudy"
"2014-01-08 23:00","2014","01","08","23:00","-9.7","","-15.3","","64","","27","","13","","24.1","","101.84","","","","-16","","NA"
"2014-01-09 00:00","2014","01","09","00:00"
"2014-01-09 01:00","2014","01","09","01:00"
"2014-01-09 02:00","2014","01","09","02:00"
"2014-01-09 03:00","2014","01","09","03:00"
"2014-01-09 04:00","2014","01","09","04:00"
"2014-01-09 05:00","2014","01","09","05:00"
"2014-01-09 06:00","2014","01","09","06:00","-9.9","","-14.6","","69","","27","","12","","24.1","","102.26","","","","-16","","NA"
"2014-01-09 07:00","2014","01","09","07:00","-10.4","","-14.7","","71","","29","","11","","24.1","","102.36","","","","-16","","Mainly Clear"
"2014-01-09 08:00","2014","01","09","08:00","-10.9","","-14.8","","73","","29","","11","","24.1","","102.44","","","","-17","","NA"
"2014-01-09 09:00","2014","01","09","09:00","-10.6","","-14.7","","72","","30","","8","","24.1","","102.56","","","","-15","","NA"
"2014-01-09 10:00","2014","01","09","10:00","-9.1","","-14.5","","65","","34","","7","","24.1","","102.60","","","","-13","","Mainly Clear"
"2014-01-09 11:00","2014","01","09","11:00","-7.3","","-14.4","","57","","33","","9","","24.1","","102.63","","","","-12","","NA"
"2014-01-09 12:00","2014","01","09","12:00","-6.4","","-14.3","","54","","25","","2","","24.1","","102.56","","","","-7","","NA"
"2014-01-09 13:00","2014","01","09","13:00","-6.4","","-13.6","","57","","15","","4","","24.1","","102.47","","","","-8","","Mainly Clear"
"2014-01-09 14:00","2014","01","09","14:00","-6.1","","-12.7","","60","","17","","9","","24.1","","102.43","","","","-10","","NA"
"2014-01-09 15:00","2014","01","09","15:00","-6.2","","-12.4","","62","","18","","15","","24.1","","102.41","","","","-12","","NA"
"2014-01-09 16:00","2014","01","09","16:00","-6.2","","-11.0","","69","","18","","13","","24.1","","102.39","","","","-12","","Mainly Clear"
"2014-01-09 17:00","2014","01","09","17:00","-6.9","","-11.0","","73","","13","","14","","24.1","","102.34","","","","-13","","Snow"
"2014-01-09 18:00","2014","01","09","18:00","-6.1","","-9.2","","79","","14","","17","","24.1","","102.32","","","","-12","","Snow"
"2014-01-09 19:00","2014","01","09","19:00","-4.8","","-10.0","","67","","21","","19","","24.1","","102.30","","","","-11","","Snow"
"2014-01-09 20:00","2014","01","09","20:00","-4.3","","-9.5","","67","","17","","24","","24.1","","102.22","","","","-11","","NA"
"2014-01-09 21:00","2014","01","09","21:00","-6.1","","-8.9","","81","","13","","17","","24.1","","102.13","","","","-12","","NA"
"2014-01-09 22:00","2014","01","09","22:00","-6.7","","-9.8","","79","","13","","15","","24.1","","102.07","","","","-13","","Mostly Cloudy"
"2014-01-09 23:00","2014","01","09","23:00","-8.1","","-11.0","","80","","7","","10","","24.1","","102.00","","","","-13","","NA"
"2014-01-10 00:00","2014","01","10","00:00"
"2014-01-10 01:00","2014","01","10","01:00"
"2014-01-10 02:00","2014","01","10","02:00"
"2014-01-10 03:00","2014","01","10","03:00"
"2014-01-10 04:00","2014","01","10","04:00"
"2014-01-10 05:00","2014","01","10","05:00"
"2014-01-10 06:00","2014","01","10","06:00","-1.3","","-2.0","","95","","19","","19","","2.4","","101.55","","","","-7","","Snow"
"2014-01-10 07:00","2014","01","10","07:00","-1.4","","-2.1","","95","","18","","20","","4.8","","101.53","","","","-7","","Snow"
"2014-01-10 08:00","2014","01","10","08:00","-1.6","","-2.2","","96","","17","","22","","2.4","","101.50","","","","-8","","Snow,Fog"
"2014-01-10 09:00","2014","01","10","09:00","-1.1","","-1.7","","96","","18","","18","","1.6","","101.53","","","","-6","","Snow,Fog,Blowing Snow"
"2014-01-10 10:00","2014","01","10","10:00","-0.8","","-1.4","","96","","18","","23","","1.6","","101.53","","","","-7","","Snow,Fog,Blowing Snow"
"2014-01-10 11:00","2014","01","10","11:00","-0.8","","-1.5","","95","","17","","22","","2.4","","101.45","","","","-7","","Snow,Fog"
"2014-01-10 12:00","2014","01","10","12:00","-0.6","","-1.7","","92","","18","","18","","6.4","","101.37","","","","-6","","Fog"
"2014-01-10 13:00","2014","01","10","13:00","-0.1","","-1.5","","90","","18","","17","","6.4","","101.26","","","","-5","","Fog"
"2014-01-10 14:00","2014","01","10","14:00","0.2","","-1.3","","90","","18","","16","","6.4","","101.23","","","","","","Fog"
"2014-01-10 15:00","2014","01","10","15:00","0.2","","-1.0","","92","","18","","11","","6.4","","101.21","","","","","","Fog"
"2014-01-10 16:00","2014","01","10","16:00","0.2","","-1.0","","92","","15","","15","","6.4","","101.19","","","","","","Fog"
"2014-01-10 17:00","2014","01","10","17:00","0.4","","-0.9","","91","","16","","17","","8.1","","101.13","","","","","","Fog"
"2014-01-10 18:00","2014","01","10","18:00","0.6","","-1.0","","89","","15","","15","","16.1","","101.06","","","","","","NA"
"2014-01-10 19:00","2014","01","10","19:00","0.7","","-1.1","","88","","14","","10","","16.1","","101.03","","","","","","Cloudy"
"2014-01-10 20:00","2014","01","10","20:00","0.9","","-1.0","","87","","14","","7","","19.3","","100.97","","","","","","NA"
"2014-01-10 21:00","2014","01","10","21:00","1.1","","-1.0","","86","","12","","10","","19.3","","100.85","","","","","","NA"
"2014-01-10 22:00","2014","01","10","22:00","1.1","","-0.5","","89","","14","","7","","24.1","","100.76","","","","","","Cloudy"
"2014-01-10 23:00","2014","01","10","23:00","0.6","","-0.9","","90","","16","","12","","24.1","","100.66","","","","","","NA"
"2014-01-11 00:00","2014","01","11","00:00"
"2014-01-11 01:00","2014","01","11","01:00"
"2014-01-11 02:00","2014","01","11","02:00"
"2014-01-11 03:00","2014","01","11","03:00"
"2014-01-11 04:00","2014","01","11","04:00"
"2014-01-11 05:00","2014","01","11","05:00"
"2014-01-11 06:00","2014","01","11","06:00","2.4","","1.5","","94","","13","","7","","19.3","","99.46","","","","","","NA"
"2014-01-11 07:00","2014","01","11","07:00","3.0","","2.3","","95","","16","","12","","24.1","","99.29","","","","","","Cloudy"
"2014-01-11 08:00","2014","01","11","08:00","3.4","","2.5","","94","","17","","24","","24.1","","99.13","","","","","","NA"
"2014-01-11 09:00","2014","01","11","09:00","3.4","","2.8","","96","","17","","25","","9.7","","99.03","","","","","","Rain,Fog"
"2014-01-11 10:00","2014","01","11","10:00","4.0","","3.6","","97","","17","","24","","4.8","","98.93","","","","","","Rain,Fog"
"2014-01-11 11:00","2014","01","11","11:00","3.2","","2.9","","98","","17","","16","","0.2","","98.80","","","","","","Rain,Fog"
"2014-01-11 12:00","2014","01","11","12:00","3.8","","3.7","","99","","17","","17","","0.2","","98.57","","","","","","Rain,Fog"
"2014-01-11 13:00","2014","01","11","13:00","3.8","","3.7","","99","","15","","24","","0.2","","98.24","","","","","","Rain,Fog"
"2014-01-11 14:00","2014","01","11","14:00","4.4","","4.3","","99","","15","","22","","0.2","","97.99","","","","","","Rain,Fog"
"2014-01-11 15:00","2014","01","11","15:00","4.7","","4.6","","99","","20","","12","","0.8","","97.92","","","","","","Fog"
"2014-01-11 16:00","2014","01","11","16:00","4.3","","4.2","","99","","17","","27","","0.4","","97.83","","","","","","Fog"
"2014-01-11 17:00","2014","01","11","17:00","4.6","","4.5","","99","","18","","29","","0.2","","97.76","","","","","","Fog"
"2014-01-11 18:00","2014","01","11","18:00","4.8","","4.7","","99","","21","","31","","2.0","","97.75","","","","","","Rain,Fog"
"2014-01-11 19:00","2014","01","11","19:00","4.8","","4.7","","99","","24","","26","","12.9","","97.81","","","","","","Rain"
"2014-01-11 20:00","2014","01","11","20:00","5.0","","4.6","","97","","23","","33","","16.1","","97.85","","","","","","NA"
"2014-01-11 21:00","2014","01","11","21:00","4.0","","2.8","","92","","23","","30","","19.3","","97.95","","","","","","NA"
"2014-01-11 22:00","2014","01","11","22:00","3.5","","2.3","","92","","23","","30","","24.1","","98.05","","","","","","Cloudy"
"2014-01-11 23:00","2014","01","11","23:00","3.4","","1.6","","88","","24","","34","","24.1","","98.12","","","","","","NA"
"2014-01-12 00:00","2014","01","12","00:00"
"2014-01-12 01:00","2014","01","12","01:00"
"2014-01-12 02:00","2014","01","12","02:00"
"2014-01-12 03:00","2014","01","12","03:00"
"2014-01-12 04:00","2014","01","12","04:00"
"2014-01-12 05:00","2014","01","12","05:00"
"2014-01-12 06:00","2014","01","12","06:00","1.9","","-1.2","","80","","25","","21","","19.3","","98.96","","","","","","Snow"
"2014-01-12 07:00","2014","01","12","07:00","1.8","","-1.3","","80","","25","","24","","24.1","","99.07","","","","","","Snow"
"2014-01-12 08:00","2014","01","12","08:00","2.3","","-1.7","","75","","25","","26","","24.1","","99.20","","","","","","NA"
"2014-01-12 09:00","2014","01","12","09:00","1.6","","-1.3","","81","","24","","26","","24.1","","99.36","","","","","","NA"
"2014-01-12 10:00","2014","01","12","10:00","1.7","","-1.4","","80","","24","","26","","24.1","","99.48","","","","","","Snow Showers"
"2014-01-12 11:00","2014","01","12","11:00","1.7","","-1.7","","78","","24","","22","","24.1","","99.55","","","","","","Snow Showers"
"2014-01-12 12:00","2014","01","12","12:00","1.5","","-1.8","","79","","25","","25","","24.1","","99.58","","","","","","Snow Showers"
"2014-01-12 13:00","2014","01","12","13:00","1.6","","-1.8","","78","","25","","20","","24.1","","99.63","","","","","","Snow Showers"
"2014-01-12 14:00","2014","01","12","14:00","1.7","","-1.7","","78","","25","","21","","24.1","","99.69","","","","","","Snow Showers"
"2014-01-12 15:00","2014","01","12","15:00","1.8","","-1.8","","77","","25","","23","","24.1","","99.78","","","","","","NA"
"2014-01-12 16:00","2014","01","12","16:00","1.6","","-1.8","","78","","24","","20","","24.1","","99.93","","","","","","Cloudy"
"2014-01-12 17:00","2014","01","12","17:00","1.6","","-1.5","","80","","24","","22","","24.1","","100.01","","","","","","NA"
"2014-01-12 18:00","2014","01","12","18:00","1.5","","-1.6","","80","","24","","22","","24.1","","100.14","","","","","","NA"
"2014-01-12 19:00","2014","01","12","19:00","1.5","","-1.1","","83","","23","","18","","24.1","","100.22","","","","","","Cloudy"
"2014-01-12 20:00","2014","01","12","20:00","1.5","","-1.1","","83","","24","","22","","24.1","","100.27","","","","","","NA"
"2014-01-12 21:00","2014","01","12","21:00","1.5","","-1.1","","83","","22","","22","","24.1","","100.24","","","","","","NA"
"2014-01-12 22:00","2014","01","12","22:00","1.0","","-1.4","","84","","22","","20","","24.1","","100.27","","","","","","Mainly Clear"
"2014-01-12 23:00","2014","01","12","23:00","0.4","","-1.5","","87","","20","","17","","24.1","","100.23","","","","","","NA"
"2014-01-13 00:00","2014","01","13","00:00"
"2014-01-13 01:00","2014","01","13","01:00"
"2014-01-13 02:00","2014","01","13","02:00"
"2014-01-13 03:00","2014","01","13","03:00"
"2014-01-13 04:00","2014","01","13","04:00"
"2014-01-13 05:00","2014","01","13","05:00"
"2014-01-13 06:00","2014","01","13","06:00","0.1","","-2.0","","86","","17","","19","","24.1","","99.98","","","","","","NA"
"2014-01-13 07:00","2014","01","13","07:00","0.4","","-2.5","","81","","18","","26","","24.1","","99.94","","","","","","Mainly Clear"
"2014-01-13 08:00","2014","01","13","08:00","0.7","","-2.4","","80","","17","","32","","24.1","","99.92","","","","","","NA"
"2014-01-13 09:00","2014","01","13","09:00","1.1","","-2.0","","80","","17","","29","","24.1","","99.91","","","","","","NA"
"2014-01-13 10:00","2014","01","13","10:00","1.3","","-1.4","","82","","17","","27","","24.1","","99.88","","","","","","Mostly Cloudy"
"2014-01-13 11:00","2014","01","13","11:00","1.8","","-1.1","","81","","18","","22","","24.1","","99.81","","","","","","NA"
"2014-01-13 12:00","2014","01","13","12:00","2.5","","-0.6","","80","","19","","14","","24.1","","99.68","","","","","","NA"
"2014-01-13 13:00","2014","01","13","13:00","2.9","","-0.4","","79","","18","","22","","24.1","","99.58","","","","","","Cloudy"
"2014-01-13 14:00","2014","01","13","14:00","2.9","","-0.6","","78","","17","","21","","24.1","","99.48","","","","","","NA"
"2014-01-13 15:00","2014","01","13","15:00","3.3","","-0.7","","75","","18","","25","","24.1","","99.47","","","","","","NA"
"2014-01-13 16:00","2014","01","13","16:00","2.9","","-0.7","","77","","17","","23","","24.1","","99.46","","","","","","Cloudy"
"2014-01-13 17:00","2014","01","13","17:00","4.1","","-1.5","","67","","17","","28","","24.1","","99.45","","","","","","NA"
"2014-01-13 18:00","2014","01","13","18:00","4.4","","-1.4","","66","","16","","32","","24.1","","99.41","","","","","","Rain"
"2014-01-13 19:00","2014","01","13","19:00","3.8","","-0.8","","72","","18","","23","","24.1","","99.42","","","","","","Rain"
"2014-01-13 20:00","2014","01","13","20:00","3.1","","0.0","","80","","19","","18","","19.3","","99.42","","","","","","Rain"
"2014-01-13 21:00","2014","01","13","21:00","2.5","","0.4","","86","","17","","23","","16.1","","99.43","","","","","","Rain"
"2014-01-13 22:00","2014","01","13","22:00","3.0","","0.6","","84","","17","","27","","16.1","","99.38","","","","","","Rain"
"2014-01-13 23:00","2014","01","13","23:00","2.6","","1.3","","91","","17","","26","","12.9","","99.33","","","","","","Rain"
"2014-01-14 00:00","2014","01","14","00:00"
"2014-01-14 01:00","2014","01","14","01:00"
"2014-01-14 02:00","2014","01","14","02:00"
"2014-01-14 03:00","2014","01","14","03:00"
"2014-01-14 04:00","2014","01","14","04:00"
"2014-01-14 05:00","2014","01","14","05:00"
"2014-01-14 06:00","2014","01","14","06:00","1.7","","1.4","","98","","22","","6","","0.6","","99.28","","","","","","Fog"
"2014-01-14 07:00","2014","01","14","07:00","2.5","","2.4","","99","","25","","8","","0.8","","99.36","","","","","","Fog"
"2014-01-14 08:00","2014","01","14","08:00","2.7","","2.6","","99","","25","","14","","0.4","","99.42","","","","","","Fog"
"2014-01-14 09:00","2014","01","14","09:00","1.9","","1.8","","99","","21","","4","","0.2","","99.46","","","","","","Fog"
"2014-01-14 10:00","2014","01","14","10:00","1.5","","1.4","","99","","22","","8","","0.2","","99.56","","","","","","Fog"
"2014-01-14 11:00","2014","01","14","11:00","2.0","","1.9","","99","","24","","9","","0.2","","99.59","","","","","","Fog"
"2014-01-14 12:00","2014","01","14","12:00","2.4","","2.3","","99","","23","","8","","2.4","","99.49","","","","","","Fog"
"2014-01-14 13:00","2014","01","14","13:00","2.7","","2.3","","97","","25","","8","","6.4","","99.53","","","","","","Fog"
"2014-01-14 14:00","2014","01","14","14:00","3.7","","-0.1","","76","","30","","13","","24.1","","99.54","","","","","","NA"
"2014-01-14 15:00","2014","01","14","15:00","3.7","","-2.3","","65","","28","","14","","24.1","","99.62","","","","","","NA"
"2014-01-14 16:00","2014","01","14","16:00","3.2","","-2.1","","68","","30","","9","","24.1","","99.64","","","","","","Mostly Cloudy"
"2014-01-14 17:00","2014","01","14","17:00","1.9","","-1.5","","78","","26","","8","","24.1","","99.65","","","","","","NA"
"2014-01-14 18:00","2014","01","14","18:00","0.3","","-2.1","","84","","22","","6","","24.1","","99.75","","","","","","NA"
"2014-01-14 19:00","2014","01","14","19:00","0.1","","-2.5","","83","","27","","7","","24.1","","99.76","","","","","","Mainly Clear"
"2014-01-14 20:00","2014","01","14","20:00","-0.4","","-3.3","","81","","24","","12","","24.1","","99.85","","","","-4","","NA"
"2014-01-14 21:00","2014","01","14","21:00","-0.6","","-4.1","","77","","26","","8","","24.1","","99.87","","","","-3","","NA"
"2014-01-14 22:00","2014","01","14","22:00","-1.3","","-4.8","","77","","26","","8","","24.1","","99.88","","","","-4","","Mainly Clear"
"2014-01-14 23:00","2014","01","14","23:00","-2.4","","-4.6","","85","","35","","4","","24.1","","99.92","","","","-4","","NA"
"2014-01-15 00:00","2014","01","15","00:00"
"2014-01-15 01:00","2014","01","15","01:00"
"2014-01-15 02:00","2014","01","15","02:00"
"2014-01-15 03:00","2014","01","15","03:00"
"2014-01-15 04:00","2014","01","15","04:00"
"2014-01-15 05:00","2014","01","15","05:00"
"2014-01-15 06:00","2014","01","15","06:00","-1.6","","-2.6","","93","","12","","8","","19.3","","99.76","","","","-5","","Snow"
"2014-01-15 07:00","2014","01","15","07:00","-0.4","","-1.0","","96","","16","","10","","2.0","","99.80","","","","-4","","Snow"
"2014-01-15 08:00","2014","01","15","08:00","0.1","","-0.2","","98","","18","","19","","1.2","","99.84","","","","","","Snow"
"2014-01-15 09:00","2014","01","15","09:00","0.6","","0.2","","97","","19","","23","","4.0","","99.93","","","","","","Snow,Fog"
"2014-01-15 10:00","2014","01","15","10:00","1.0","","-1.9","","81","","24","","22","","12.9","","99.99","","","","","","Cloudy"
"2014-01-15 11:00","2014","01","15","11:00","0.3","","-4.2","","72","","25","","23","","24.1","","100.05","","","","","","NA"
"2014-01-15 12:00","2014","01","15","12:00","0.4","","-4.8","","68","","25","","27","","24.1","","100.01","","","","","","NA"
"2014-01-15 13:00","2014","01","15","13:00","0.2","","-4.5","","71","","24","","19","","24.1","","100.01","","","","","","Cloudy"
"2014-01-15 14:00","2014","01","15","14:00","0.2","","-4.6","","70","","24","","28","","24.1","","100.06","","","","","","NA"
"2014-01-15 15:00","2014","01","15","15:00","-0.2","","-5.8","","66","","24","","21","","24.1","","100.12","","","","-6","","NA"
"2014-01-15 16:00","2014","01","15","16:00","-0.3","","-6.5","","63","","24","","31","","24.1","","100.14","","","","-7","","Cloudy"
"2014-01-15 17:00","2014","01","15","17:00","-1.0","","-6.2","","68","","25","","20","","24.1","","100.20","","","","-7","","NA"
"2014-01-15 18:00","2014","01","15","18:00","-1.7","","-5.9","","73","","25","","18","","24.1","","100.26","","","","-7","","NA"
"2014-01-15 19:00","2014","01","15","19:00","-2.0","","-5.7","","76","","25","","18","","24.1","","100.26","","","","-7","","Mostly Cloudy"
"2014-01-15 20:00","2014","01","15","20:00","-1.4","","-6.2","","70","","26","","22","","24.1","","100.26","","","","-7","","NA"
"2014-01-15 21:00","2014","01","15","21:00","-1.5","","-5.9","","72","","26","","17","","24.1","","100.30","","","","-7","","NA"
"2014-01-15 22:00","2014","01","15","22:00","-1.6","","-5.6","","74","","25","","19","","24.1","","100.29","","","","-7","","Mostly Cloudy"
"2014-01-15 23:00","2014","01","15","23:00","-2.2","","-5.7","","77","","25","","12","","24.1","","100.27","","","","-6","","NA"
"2014-01-16 00:00","2014","01","16","00:00"
"2014-01-16 01:00","2014","01","16","01:00"
"2014-01-16 02:00","2014","01","16","02:00"
"2014-01-16 03:00","2014","01","16","03:00"
"2014-01-16 04:00","2014","01","16","04:00"
"2014-01-16 05:00","2014","01","16","05:00"
"2014-01-16 06:00","2014","01","16","06:00","-4.1","","-9.0","","69","","25","","4","","24.1","","100.32","","","","-6","","NA"
"2014-01-16 07:00","2014","01","16","07:00","-4.0","","-8.5","","71","","20","","5","","19.3","","100.37","","","","-6","","Snow"
"2014-01-16 08:00","2014","01","16","08:00","-4.4","","-7.7","","78","","34","","4","","19.3","","100.35","","","","-6","","Snow"
"2014-01-16 09:00","2014","01","16","09:00","-4.1","","-10.1","","63","","5","","3","","24.1","","100.38","","","","-5","","Snow"
"2014-01-16 10:00","2014","01","16","10:00","-3.4","","-9.5","","63","","13","","7","","24.1","","100.44","","","","-6","","Mostly Cloudy"
"2014-01-16 11:00","2014","01","16","11:00","-3.5","","-8.0","","71","","12","","10","","9.7","","100.40","","","","-7","","Snow"
"2014-01-16 12:00","2014","01","16","12:00","-2.3","","-6.5","","73","","14","","13","","22.5","","100.32","","","","-7","","NA"
"2014-01-16 13:00","2014","01","16","13:00","-2.7","","-4.9","","85","","12","","11","","8.1","","100.23","","","","-7","","Snow"
"2014-01-16 14:00","2014","01","16","14:00","-2.1","","-4.8","","82","","12","","13","","24.1","","100.14","","","","-7","","NA"
"2014-01-16 15:00","2014","01","16","15:00","-2.1","","-4.9","","81","","12","","9","","19.3","","100.18","","","","-6","","NA"
"2014-01-16 16:00","2014","01","16","16:00","-2.6","","-5.9","","78","","11","","10","","24.1","","100.17","","","","-6","","Mostly Cloudy"
"2014-01-16 17:00","2014","01","16","17:00","-4.3","","-7.4","","79","","9","","10","","24.1","","100.09","","","","-8","","NA"
"2014-01-16 18:00","2014","01","16","18:00","-4.3","","-7.3","","80","","7","","8","","24.1","","100.13","","","","-8","","NA"
"2014-01-16 19:00","2014","01","16","19:00","-4.3","","-6.5","","85","","5","","7","","24.1","","100.14","","","","-7","","Mostly Cloudy"
"2014-01-16 20:00","2014","01","16","20:00","-4.2","","-6.5","","84","","8","","11","","24.1","","100.13","","","","-9","","NA"
"2014-01-16 21:00","2014","01","16","21:00","-3.4","","-6.5","","79","","8","","10","","24.1","","100.15","","","","-7","","NA"
"2014-01-16 22:00","2014","01","16","22:00","-3.2","","-6.5","","78","","9","","16","","24.1","","100.16","","","","-9","","Cloudy"
"2014-01-16 23:00","2014","01","16","23:00","-3.1","","-6.9","","75","","7","","16","","24.1","","100.10","","","","-8","","NA"
"2014-01-17 00:00","2014","01","17","00:00"
"2014-01-17 01:00","2014","01","17","01:00"
"2014-01-17 02:00","2014","01","17","02:00"
"2014-01-17 03:00","2014","01","17","03:00"
"2014-01-17 04:00","2014","01","17","04:00"
"2014-01-17 05:00","2014","01","17","05:00"
"2014-01-17 06:00","2014","01","17","06:00","-1.2","","-3.7","","83","","15","","19","","24.1","","99.76","","","","-7","","NA"
"2014-01-17 07:00","2014","01","17","07:00","-1.1","","-3.6","","83","","16","","19","","12.9","","99.80","","","","-6","","Snow"
"2014-01-17 08:00","2014","01","17","08:00","-1.2","","-2.0","","94","","19","","24","","2.4","","99.83","","","","-7","","Snow"
"2014-01-17 09:00","2014","01","17","09:00","-1.0","","-2.0","","93","","19","","27","","3.2","","99.86","","","","-7","","Snow"
"2014-01-17 10:00","2014","01","17","10:00","-0.9","","-2.3","","90","","18","","29","","6.4","","99.88","","","","-8","","Snow"
"2014-01-17 11:00","2014","01","17","11:00","-0.5","","-2.2","","88","","18","","26","","8.1","","99.86","","","","-7","","Snow"
"2014-01-17 12:00","2014","01","17","12:00","0.0","","-2.1","","86","","19","","27","","12.9","","99.80","","","","-6","","Snow"
"2014-01-17 13:00","2014","01","17","13:00","0.8","","-2.1","","81","","19","","22","","19.3","","99.74","","","","","","Mostly Cloudy"
"2014-01-17 14:00","2014","01","17","14:00","0.5","","-2.4","","81","","22","","22","","8.1","","99.76","","","","","","Snow"
"2014-01-17 15:00","2014","01","17","15:00","0.9","","-3.4","","73","","23","","19","","24.1","","99.79","","","","","","NA"
"2014-01-17 16:00","2014","01","17","16:00","0.9","","-3.4","","73","","23","","17","","24.1","","99.81","","","","","","Mostly Cloudy"
"2014-01-17 17:00","2014","01","17","17:00","0.9","","-4.0","","70","","22","","20","","24.1","","99.87","","","","","","NA"
"2014-01-17 18:00","2014","01","17","18:00","-0.4","","-4.0","","77","","22","","16","","24.1","","99.91","","","","-5","","NA"
"2014-01-17 19:00","2014","01","17","19:00","-1.2","","-3.9","","82","","24","","15","","24.1","","99.97","","","","-6","","Mainly Clear"
"2014-01-17 20:00","2014","01","17","20:00","-1.6","","-4.6","","80","","24","","8","","24.1","","99.98","","","","-5","","NA"
"2014-01-17 21:00","2014","01","17","21:00","-1.5","","-4.3","","81","","24","","5","","24.1","","99.98","","","","-3","","NA"
"2014-01-17 22:00","2014","01","17","22:00","-3.2","","-4.2","","93","","20","","5","","24.1","","99.96","","","","-5","","Mainly Clear"
"2014-01-17 23:00","2014","01","17","23:00","-4.1","","-5.2","","92","","24","","3","","24.1","","99.97","","","","-5","","NA"
"2014-01-18 00:00","2014","01","18","00:00"
"2014-01-18 01:00","2014","01","18","01:00"
"2014-01-18 02:00","2014","01","18","02:00"
"2014-01-18 03:00","2014","01","18","03:00"
"2014-01-18 04:00","2014","01","18","04:00"
"2014-01-18 05:00","2014","01","18","05:00"
"2014-01-18 06:00","2014","01","18","06:00","-1.1","","-2.2","","92","","19","","9","","24.1","","99.70","","","","-4","","NA"
"2014-01-18 07:00","2014","01","18","07:00","-1.8","","-2.9","","92","","23","","14","","24.1","","99.68","","","","-6","","Cloudy"
"2014-01-18 08:00","2014","01","18","08:00","-2.9","","-3.6","","95","","28","","4","","16.1","","99.67","","","","-4","","Snow"
"2014-01-18 09:00","2014","01","18","09:00","-3.0","","-4.1","","92","","2","","12","","2.4","","99.68","","","","-7","","Snow"
"2014-01-18 10:00","2014","01","18","10:00","-2.6","","-3.7","","92","","32","","9","","2.0","","99.77","","","","-6","","Snow"
"2014-01-18 11:00","2014","01","18","11:00","-2.5","","-3.6","","92","","32","","13","","1.2","","99.78","","","","-7","","Snow"
"2014-01-18 12:00","2014","01","18","12:00","-2.6","","-4.0","","90","","30","","15","","1.2","","99.73","","","","-8","","Snow"
"2014-01-18 13:00","2014","01","18","13:00","-2.1","","-3.5","","90","","31","","13","","1.6","","99.69","","","","-7","","Snow"
"2014-01-18 14:00","2014","01","18","14:00","-2.0","","-3.7","","88","","28","","15","","2.4","","99.69","","","","-7","","Snow"
"2014-01-18 15:00","2014","01","18","15:00","-1.5","","-3.1","","89","","27","","13","","1.6","","99.69","","","","-6","","Snow"
"2014-01-18 16:00","2014","01","18","16:00","-1.8","","-3.8","","86","","27","","16","","6.4","","99.75","","","","-7","","Snow"
"2014-01-18 17:00","2014","01","18","17:00","-2.3","","-4.2","","87","","26","","17","","8.1","","99.80","","","","-8","","Snow"
"2014-01-18 18:00","2014","01","18","18:00","-3.0","","-4.4","","90","","26","","14","","16.1","","99.86","","","","-8","","Snow"
"2014-01-18 19:00","2014","01","18","19:00","-4.1","","-5.7","","89","","25","","13","","16.1","","99.86","","","","-9","","Snow"
"2014-01-18 20:00","2014","01","18","20:00","-5.3","","-6.3","","93","","24","","14","","19.3","","99.86","","","","-11","","Snow"
"2014-01-18 21:00","2014","01","18","21:00","-5.3","","-7.4","","85","","25","","15","","24.1","","99.84","","","","-11","","NA"
"2014-01-18 22:00","2014","01","18","22:00","-5.4","","-7.7","","84","","25","","12","","24.1","","99.81","","","","-10","","Cloudy"
"2014-01-18 23:00","2014","01","18","23:00","-4.1","","-6.4","","84","","25","","17","","24.1","","99.79","","","","-10","","Snow"
"2014-01-19 00:00","2014","01","19","00:00"
"2014-01-19 01:00","2014","01","19","01:00"
"2014-01-19 02:00","2014","01","19","02:00"
"2014-01-19 03:00","2014","01","19","03:00"
"2014-01-19 04:00","2014","01","19","04:00"
"2014-01-19 05:00","2014","01","19","05:00"
"2014-01-19 06:00","2014","01","19","06:00","-5.4","","-7.1","","88","","21","","27","","4.0","","99.40","","","","-13","","Snow Showers"
"2014-01-19 07:00","2014","01","19","07:00","-5.7","","-8.0","","84","","21","","32","","4.8","","99.32","","","","-14","","Snow Showers"
"2014-01-19 08:00","2014","01","19","08:00","-5.8","","-8.6","","81","","22","","26","","4.0","","99.26","","","","-14","","Snow Showers,Blowing Snow"
"2014-01-19 09:00","2014","01","19","09:00","-5.6","","-8.2","","82","","22","","30","","2.4","","99.17","","","","-14","","Snow Showers,Blowing Snow"
"2014-01-19 10:00","2014","01","19","10:00","-5.2","","-7.2","","86","","21","","33","","4.8","","99.04","","","","-14","","Snow Showers,Blowing Snow"
"2014-01-19 11:00","2014","01","19","11:00","-4.6","","-7.9","","78","","21","","44","","12.9","","98.91","","","","-14","","Snow Showers,Blowing Snow"
"2014-01-19 12:00","2014","01","19","12:00","-4.8","","-7.3","","83","","22","","37","","2.4","","98.79","","","","-14","","Snow Showers,Blowing Snow"
"2014-01-19 13:00","2014","01","19","13:00","-4.2","","-6.4","","85","","21","","37","","2.0","","98.61","","","","-13","","Snow Showers,Blowing Snow"
"2014-01-19 14:00","2014","01","19","14:00","-3.8","","-5.4","","89","","21","","43","","1.0","","98.48","","","","-13","","Snow,Blowing Snow"
"2014-01-19 15:00","2014","01","19","15:00","-3.3","","-4.4","","92","","22","","40","","0.8","","98.47","","","","-12","","Snow,Blowing Snow"
"2014-01-19 16:00","2014","01","19","16:00","-2.7","","-4.0","","91","","23","","32","","1.0","","98.46","","","","-10","","Snow,Blowing Snow"
"2014-01-19 17:00","2014","01","19","17:00","-2.6","","-4.2","","89","","24","","42","","3.2","","98.53","","","","-11","","Snow,Blowing Snow"
"2014-01-19 18:00","2014","01","19","18:00","-2.3","","-4.3","","86","","24","","33","","8.1","","98.57","","","","-10","","Snow,Blowing Snow"
"2014-01-19 19:00","2014","01","19","19:00","-1.9","","-4.1","","85","","24","","31","","16.1","","98.63","","","","-9","","Snow,Blowing Snow"
"2014-01-19 20:00","2014","01","19","20:00","-1.4","","-3.8","","84","","24","","36","","24.1","","98.65","","","","-9","","Blowing Snow"
"2014-01-19 21:00","2014","01","19","21:00"
"2014-01-19 22:00","2014","01","19","22:00","-1.2","","-3.6","","84","","24","","34","","19.3","","98.71","","","","-8","","Snow,Blowing Snow"
"2014-01-19 23:00","2014","01","19","23:00","-1.2","","-4.1","","81","","26","","24","","19.3","","98.68","","","","-7","","Snow,Blowing Snow"
"2014-01-20 00:00","2014","01","20","00:00"
"2014-01-20 01:00","2014","01","20","01:00"
"2014-01-20 02:00","2014","01","20","02:00"
"2014-01-20 03:00","2014","01","20","03:00"
"2014-01-20 04:00","2014","01","20","04:00"
"2014-01-20 05:00","2014","01","20","05:00"
"2014-01-20 06:00","2014","01","20","06:00","-9.0","","-11.1","","85","","2","","16","","3.2","","98.96","","","","-16","","Snow"
"2014-01-20 07:00","2014","01","20","07:00","-9.9","","-12.4","","82","","3","","23","","2.4","","99.07","","","","-18","","Snow"
"2014-01-20 08:00","2014","01","20","08:00","-11.1","","-13.8","","81","","3","","16","","4.0","","99.18","","","","-18","","Snow,Blowing Snow"
"2014-01-20 09:00","2014","01","20","09:00","-11.7","","-15.0","","77","","3","","21","","16.1","","99.33","","","","-20","","Snow,Blowing Snow"
"2014-01-20 10:00","2014","01","20","10:00","-12.7","","-16.9","","71","","2","","24","","6.4","","99.41","","","","-22","","Snow,Blowing Snow"
"2014-01-20 11:00","2014","01","20","11:00","-12.9","","-17.6","","68","","3","","23","","8.1","","99.46","","","","-22","","Snow,Blowing Snow"
"2014-01-20 12:00","2014","01","20","12:00","-13.1","","-18.2","","66","","2","","17","","24.1","","99.50","","","","-21","","NA"
"2014-01-20 13:00","2014","01","20","13:00","-13.1","","-18.6","","64","","36","","15","","24.1","","99.59","","","","-21","","Mainly Clear"
"2014-01-20 14:00","2014","01","20","14:00","-13.1","","-20.6","","54","","33","","14","","24.1","","99.66","","","","-20","","NA"
"2014-01-20 15:00","2014","01","20","15:00","-13.3","","-20.6","","55","","36","","16","","24.1","","99.79","","","","-21","","NA"
"2014-01-20 16:00","2014","01","20","16:00","-13.9","","-20.3","","59","","36","","15","","24.1","","99.93","","","","-22","","Mainly Clear"
"2014-01-20 17:00","2014","01","20","17:00","-15.1","","-21.0","","61","","34","","13","","24.1","","100.09","","","","-22","","NA"
"2014-01-20 18:00","2014","01","20","18:00","-15.3","","-21.0","","62","","35","","10","","24.1","","100.24","","","","-22","","NA"
"2014-01-20 19:00","2014","01","20","19:00","-16.7","","-20.6","","72","","36","","7","","24.1","","100.36","","","","-22","","Clear"
"2014-01-20 20:00","2014","01","20","20:00","-18.4","","-21.4","","78","","9","","1","","24.1","","100.44","","","","-19","","NA"
"2014-01-20 21:00","2014","01","20","21:00","-20.1","","-22.3","","83","","36","","9","","24.1","","100.49","","","","-27","","NA"
"2014-01-20 22:00","2014","01","20","22:00","-20.3","","-24.0","","73","","19","","2","","24.1","","100.61","","","","-22","","Clear"
"2014-01-20 23:00","2014","01","20","23:00","-22.4","","-25.0","","80","","34","","5","","24.1","","100.73","","","","-27","","NA"
"2014-01-21 00:00","2014","01","21","00:00"
"2014-01-21 01:00","2014","01","21","01:00"
"2014-01-21 02:00","2014","01","21","02:00"
"2014-01-21 03:00","2014","01","21","03:00"
"2014-01-21 04:00","2014","01","21","04:00"
"2014-01-21 05:00","2014","01","21","05:00"
"2014-01-21 06:00","2014","01","21","06:00","-27.7","","-30.7","","76","","33","","9","","24.1","","101.00","","","","-36","","NA"
"2014-01-21 07:00","2014","01","21","07:00","-28.6","","-31.5","","77","","1","","10","","24.1","","100.97","","","","-37","","Mainly Clear"
"2014-01-21 08:00","2014","01","21","08:00","-25.4","","-29.1","","72","","1","","15","","24.1","","100.99","","","","-36","","NA"
"2014-01-21 09:00","2014","01","21","09:00","-23.9","","-28.4","","67","","1","","21","","24.1","","101.01","","","","-36","","NA"
"2014-01-21 10:00","2014","01","21","10:00","-23.2","","-28.1","","65","","36","","14","","24.1","","101.14","","","","-33","","Mainly Clear"
"2014-01-21 11:00","2014","01","21","11:00","-21.7","","-27.5","","60","","7","","11","","24.1","","101.18","","","","-30","","NA"
"2014-01-21 12:00","2014","01","21","12:00","-20.6","","-27.1","","57","","4","","6","","24.1","","101.13","","","","-26","","NA"
"2014-01-21 13:00","2014","01","21","13:00","-19.9","","-27.0","","54","","35","","10","","24.1","","101.08","","","","-27","","Mostly Cloudy"
"2014-01-21 14:00","2014","01","21","14:00","-19.6","","-27.1","","52","","1","","8","","24.1","","101.00","","","","-26","","NA"
"2014-01-21 15:00","2014","01","21","15:00","-19.3","","-26.9","","52","","5","","11","","24.1","","101.00","","","","-27","","NA"
"2014-01-21 16:00","2014","01","21","16:00","-19.4","","-26.5","","54","","4","","12","","24.1","","100.98","","","","-27","","Mainly Clear"
"2014-01-21 17:00","2014","01","21","17:00","-20.2","","-27.1","","55","","4","","9","","24.1","","100.99","","","","-27","","NA"
"2014-01-21 18:00","2014","01","21","18:00","-20.8","","-26.9","","59","","4","","8","","24.1","","101.04","","","","-27","","NA"
"2014-01-21 19:00","2014","01","21","19:00","-21.7","","-27.4","","61","","3","","9","","24.1","","101.09","","","","-29","","Clear"
"2014-01-21 20:00","2014","01","21","20:00","-22.6","","-28.2","","61","","3","","10","","24.1","","101.08","","","","-30","","NA"
"2014-01-21 21:00","2014","01","21","21:00","-23.1","","-28.7","","61","","4","","12","","24.1","","101.09","","","","-32","","NA"
"2014-01-21 22:00","2014","01","21","22:00","-23.7","","-29.1","","62","","5","","11","","24.1","","101.11","","","","-32","","Clear"
"2014-01-21 23:00","2014","01","21","23:00","-25.0","","-29.3","","68","","1","","9","","24.1","","101.11","","","","-33","","NA"
"2014-01-22 00:00","2014","01","22","00:00"
"2014-01-22 01:00","2014","01","22","01:00"
"2014-01-22 02:00","2014","01","22","02:00"
"2014-01-22 03:00","2014","01","22","03:00"
"2014-01-22 04:00","2014","01","22","04:00"
"2014-01-22 05:00","2014","01","22","05:00"
"2014-01-22 06:00","2014","01","22","06:00","-28.4","","-31.7","","74","","36","","18","","24.1","","100.85","","","","-40","","NA"
"2014-01-22 07:00","2014","01","22","07:00","-28.5","","-31.6","","75","","36","","9","","24.1","","100.91","","","","-37","","Clear"
"2014-01-22 08:00","2014","01","22","08:00","-28.9","","-32.3","","73","","35","","13","","24.1","","100.91","","","","-39","","NA"
"2014-01-22 09:00","2014","01","22","09:00","-26.6","","-30.5","","70","","35","","13","","24.1","","100.89","","","","-36","","NA"
"2014-01-22 10:00","2014","01","22","10:00","-23.5","","-28.4","","65","","36","","12","","24.1","","100.84","","","","-32","","Mainly Clear"
"2014-01-22 11:00","2014","01","22","11:00","-21.6","","-27.4","","60","","35","","10","","24.1","","100.80","","","","-29","","NA"
"2014-01-22 12:00","2014","01","22","12:00","-21.3","","-26.3","","65","","17","","9","","24.1","","100.72","","","","-28","","NA"
"2014-01-22 13:00","2014","01","22","13:00","-20.3","","-25.8","","62","","21","","9","","24.1","","100.68","","","","-27","","Mostly Cloudy"
"2014-01-22 14:00","2014","01","22","14:00","-18.2","","-26.0","","51","","34","","12","","24.1","","100.59","","","","-26","","NA"
"2014-01-22 15:00","2014","01","22","15:00","-18.2","","-24.8","","57","","22","","12","","24.1","","100.59","","","","-26","","NA"
"2014-01-22 16:00","2014","01","22","16:00","-17.0","","-25.1","","50","","31","","14","","24.1","","100.63","","","","-25","","Mostly Cloudy"
"2014-01-22 17:00","2014","01","22","17:00","-19.2","","-25.0","","61","","24","","15","","24.1","","100.66","","","","-28","","NA"
"2014-01-22 18:00","2014","01","22","18:00","-20.5","","-25.5","","65","","24","","9","","24.1","","100.71","","","","-27","","NA"
"2014-01-22 19:00","2014","01","22","19:00","-20.3","","-25.8","","62","","27","","10","","24.1","","100.72","","","","-28","","Mainly Clear"
"2014-01-22 20:00","2014","01","22","20:00","-21.3","","-26.3","","65","","25","","5","","24.1","","100.75","","","","-26","","NA"
"2014-01-22 21:00","2014","01","22","21:00","-22.2","","-26.3","","70","","33","","4","","24.1","","100.73","","","","-26","","NA"
"2014-01-22 22:00","2014","01","22","22:00","-21.9","","-25.8","","71","","1","","4","","24.1","","100.77","","","","-26","","Cloudy"
"2014-01-22 23:00","2014","01","22","23:00","-22.8","","-26.1","","75","","35","","6","","24.1","","100.75","","","","-28","","NA"
"2014-01-23 00:00","2014","01","23","00:00"
"2014-01-23 01:00","2014","01","23","01:00"
"2014-01-23 02:00","2014","01","23","02:00"
"2014-01-23 03:00","2014","01","23","03:00"
"2014-01-23 04:00","2014","01","23","04:00"
"2014-01-23 05:00","2014","01","23","05:00"
"2014-01-23 06:00","2014","01","23","06:00","-22.2","","-25.8","","73","","1","","9","","24.1","","100.87","","","","-29","","NA"
"2014-01-23 07:00","2014","01","23","07:00","-22.2","","-26.0","","72","","34","","6","","24.1","","100.93","","","","-28","","Cloudy"
"2014-01-23 08:00","2014","01","23","08:00","-21.8","","-25.6","","72","","36","","10","","24.1","","100.98","","","","-29","","NA"
"2014-01-23 09:00","2014","01","23","09:00","-21.2","","-25.6","","68","","35","","10","","24.1","","101.00","","","","-29","","NA"
"2014-01-23 10:00","2014","01","23","10:00","-20.3","","-25.3","","65","","35","","10","","24.1","","101.06","","","","-28","","Cloudy"
"2014-01-23 11:00","2014","01","23","11:00","-19.4","","-25.2","","61","","33","","8","","24.1","","101.11","","","","-26","","NA"
"2014-01-23 12:00","2014","01","23","12:00","-18.2","","-24.4","","59","","33","","3","","24.1","","101.05","","","","-21","","NA"
"2014-01-23 13:00","2014","01","23","13:00","-17.7","","-23.7","","60","","19","","9","","24.1","","101.06","","","","-24","","Mostly Cloudy"
"2014-01-23 14:00","2014","01","23","14:00","-17.4","","-23.1","","62","","20","","9","","24.1","","101.07","","","","-24","","NA"
"2014-01-23 15:00","2014","01","23","15:00","-16.5","","-22.8","","59","","21","","13","","24.1","","101.11","","","","-24","","NA"
"2014-01-23 16:00","2014","01","23","16:00","-16.3","","-23.0","","57","","23","","12","","24.1","","101.20","","","","-24","","Mostly Cloudy"
"2014-01-23 17:00","2014","01","23","17:00","-16.5","","-22.2","","62","","24","","8","","24.1","","101.26","","","","-22","","NA"
"2014-01-23 18:00","2014","01","23","18:00","-16.6","","-22.9","","59","","28","","7","","24.1","","101.33","","","","-22","","NA"
"2014-01-23 19:00","2014","01","23","19:00","-16.9","","-23.5","","57","","32","","9","","24.1","","101.40","","","","-23","","Mostly Cloudy"
"2014-01-23 20:00","2014","01","23","20:00","-17.5","","-24.1","","57","","32","","9","","24.1","","101.46","","","","-24","","NA"
"2014-01-23 21:00","2014","01","23","21:00","-18.6","","-24.6","","60","","34","","12","","24.1","","101.48","","","","-26","","NA"
"2014-01-23 22:00","2014","01","23","22:00","-19.2","","-25.1","","60","","32","","7","","24.1","","101.53","","","","-25","","Mainly Clear"
"2014-01-23 23:00","2014","01","23","23:00","-20.5","","-25.5","","65","","35","","7","","24.1","","101.56","","","","-26","","NA"
"2014-01-24 00:00","2014","01","24","00:00"
"2014-01-24 01:00","2014","01","24","01:00"
"2014-01-24 02:00","2014","01","24","02:00"
"2014-01-24 03:00","2014","01","24","03:00"
"2014-01-24 04:00","2014","01","24","04:00"
"2014-01-24 05:00","2014","01","24","05:00"
"2014-01-24 06:00","2014","01","24","06:00","-24.5","","-27.6","","76","","27","","13","","24.1","","101.64","","","","-34","","NA"
"2014-01-24 07:00","2014","01","24","07:00","-26.1","","-29.5","","74","","","","","M","24.1","","101.62","","","","","","Mainly Clear"
"2014-01-24 08:00","2014","01","24","08:00","-25.4","","-28.5","","76","","1","","4","","24.1","","101.53","","","","-29","","NA"
"2014-01-24 09:00","2014","01","24","09:00","-23.0","","-26.6","","73","","8","","8","","24.1","","101.42","","","","-30","","NA"
"2014-01-24 10:00","2014","01","24","10:00","-21.5","","-25.1","","73","","14","","13","","24.1","","101.42","","","","-30","","Mainly Clear"
"2014-01-24 11:00","2014","01","24","11:00","-16.0","","-19.2","","77","","12","","15","","24.1","","101.25","","","","-24","","NA"
"2014-01-24 12:00","2014","01","24","12:00","-12.9","","-17.5","","69","","19","","22","","24.1","","101.01","","","","-22","","NA"
"2014-01-24 13:00","2014","01","24","13:00","-12.3","","-14.6","","83","","16","","22","","1.2","","100.78","","","","-21","","Snow"
"2014-01-24 14:00","2014","01","24","14:00","-10.2","","-12.6","","83","","21","","40","","0.8","","100.58","","","","-21","","Moderate Snow,Blowing Snow"
"2014-01-24 15:00","2014","01","24","15:00","-9.6","","-13.6","","73","","22","","46","","8.1","","100.42","","","","-21","","Snow,Blowing Snow"
"2014-01-24 16:00","2014","01","24","16:00","-9.0","","-13.9","","68","","22","","38","","12.9","","100.32","","","","-19","","Snow Showers,Blowing Snow"
"2014-01-24 17:00","2014","01","24","17:00","-8.7","","-14.2","","65","","22","","31","","24.1","","100.22","","","","-18","","Blowing Snow"
"2014-01-24 18:00","2014","01","24","18:00","-8.3","","-13.6","","66","","20","","42","","24.1","","100.06","","","","-19","","Blowing Snow"
"2014-01-24 19:00","2014","01","24","19:00","-7.8","","-14.1","","61","","21","","37","","24.1","","99.91","","","","-18","","Blowing Snow"
"2014-01-24 20:00","2014","01","24","20:00","-7.7","","-14.0","","61","","21","","41","","24.1","","99.79","","","","-18","","Blowing Snow"
"2014-01-24 21:00","2014","01","24","21:00","-7.4","","-14.1","","59","","22","","42","","24.1","","99.67","","","","-17","","Blowing Snow"
"2014-01-24 22:00","2014","01","24","22:00","-7.8","","-13.1","","66","","22","","40","","16.1","","99.57","","","","-18","","Snow Showers,Blowing Snow"
"2014-01-24 23:00","2014","01","24","23:00","-7.7","","-12.6","","68","","22","","44","","19.3","","99.44","","","","-18","","Snow Showers,Blowing Snow"
"2014-01-25 00:00","2014","01","25","00:00"
"2014-01-25 01:00","2014","01","25","01:00"
"2014-01-25 02:00","2014","01","25","02:00"
"2014-01-25 03:00","2014","01","25","03:00"
"2014-01-25 04:00","2014","01","25","04:00"
"2014-01-25 05:00","2014","01","25","05:00"
"2014-01-25 06:00","2014","01","25","06:00","-6.9","","-8.1","","91","","20","","42","","0.4","","98.62","","","","-17","","Snow,Blowing Snow"
"2014-01-25 07:00","2014","01","25","07:00","-6.9","","-8.1","","91","","19","","49","","0.6","","98.52","","","","-17","","Snow,Blowing Snow"
"2014-01-25 08:00","2014","01","25","08:00","-6.5","","-8.2","","88","","20","","46","","0.8","","98.45","","","","-17","","Snow,Blowing Snow"
"2014-01-25 09:00","2014","01","25","09:00","-6.0","","-7.4","","90","","19","","42","","1.2","","98.37","","","","-16","","Snow,Blowing Snow"
"2014-01-25 10:00","2014","01","25","10:00","-5.6","","-7.3","","88","","20","","46","","1.2","","98.31","","","","-15","","Snow,Blowing Snow"
"2014-01-25 11:00","2014","01","25","11:00","-5.2","","-6.9","","88","","20","","46","","1.2","","98.22","","","","-15","","Snow,Blowing Snow"
"2014-01-25 12:00","2014","01","25","12:00","-4.9","","-6.3","","90","","19","","41","","1.2","","98.07","","","","-14","","Snow,Blowing Snow"
"2014-01-25 13:00","2014","01","25","13:00","-4.6","","-5.7","","92","","19","","44","","0.4","","97.95","","","","-14","","Snow,Blowing Snow"
"2014-01-25 14:00","2014","01","25","14:00","-4.2","","-5.5","","91","","20","","42","","0.4","","97.86","","","","-13","","Snow,Blowing Snow"
"2014-01-25 15:00","2014","01","25","15:00","-3.8","","-4.9","","92","","20","","38","","0.8","","97.81","","","","-12","","Snow,Blowing Snow"
"2014-01-25 16:00","2014","01","25","16:00","-3.6","","-4.7","","92","","20","","33","","1.2","","97.79","","","","-12","","Snow,Blowing Snow"
"2014-01-25 17:00","2014","01","25","17:00","-4.4","","-5.7","","91","","26","","16","","1.2","","97.84","","","","-10","","Snow,Blowing Snow"
"2014-01-25 18:00","2014","01","25","18:00","-6.0","","-10.3","","72","","29","","23","","12.9","","97.98","","","","-13","","Snow"
"2014-01-25 19:00","2014","01","25","19:00","-7.6","","-11.0","","77","","30","","24","","9.7","","98.17","","","","-16","","Snow"
"2014-01-25 20:00","2014","01","25","20:00","-9.7","","-16.1","","60","","28","","32","","24.1","","98.40","","","","-19","","Snow"
"2014-01-25 21:00","2014","01","25","21:00","-12.0","","-20.0","","52","","27","","30","","24.1","","98.58","","","","-22","","Snow,Blowing Snow"
"2014-01-25 22:00","2014","01","25","22:00","-13.4","","-20.9","","54","","27","","26","","24.1","","98.74","","","","-23","","Blowing Snow"
"2014-01-25 23:00","2014","01","25","23:00","-14.8","","-22.0","","55","","27","","20","","24.1","","98.89","","","","-24","","Blowing Snow"
"2014-01-26 00:00","2014","01","26","00:00"
"2014-01-26 01:00","2014","01","26","01:00"
"2014-01-26 02:00","2014","01","26","02:00"
"2014-01-26 03:00","2014","01","26","03:00"
"2014-01-26 04:00","2014","01","26","04:00"
"2014-01-26 05:00","2014","01","26","05:00"
"2014-01-26 06:00","2014","01","26","06:00","-22.3","","-26.1","","72","","30","","7","","24.1","","99.48","","","","-28","","NA"
"2014-01-26 07:00","2014","01","26","07:00","-23.3","","-26.6","","75","","34","","12","","24.1","","99.53","","","","-32","","Mainly Clear"
"2014-01-26 08:00","2014","01","26","08:00","-23.3","","-26.7","","74","","21","","6","","24.1","","99.68","","","","-29","","NA"
"2014-01-26 09:00","2014","01","26","09:00","-20.6","","-25.9","","63","","22","","4","","24.1","","99.72","","","","-24","","NA"
"2014-01-26 10:00","2014","01","26","10:00","-19.8","","-25.4","","62","","36","","1","","24.1","","99.73","","","","-21","","Mostly Cloudy"
"2014-01-26 11:00","2014","01","26","11:00","-18.0","","-23.8","","61","","11","","8","","24.1","","99.70","","","","-24","","NA"
"2014-01-26 12:00","2014","01","26","12:00","-16.5","","-22.4","","61","","11","","12","","24.1","","99.60","","","","-24","","NA"
"2014-01-26 13:00","2014","01","26","13:00","-15.2","","-20.2","","66","","12","","8","","16.1","","99.50","","","","-21","","Cloudy"
"2014-01-26 14:00","2014","01","26","14:00","-14.2","","-18.2","","72","","9","","11","","12.9","","99.40","","","","-21","","Snow"
"2014-01-26 15:00","2014","01","26","15:00","-13.5","","-17.0","","75","","6","","6","","8.1","","99.35","","","","-18","","Snow"
"2014-01-26 16:00","2014","01","26","16:00","-13.1","","-15.6","","82","","6","","14","","1.6","","99.34","","","","-20","","Snow"
"2014-01-26 17:00","2014","01","26","17:00","-13.1","","-15.3","","84","","8","","10","","2.8","","99.25","","","","-19","","Snow"
"2014-01-26 18:00","2014","01","26","18:00","-9.4","","-11.6","","84","","17","","28","","2.4","","99.19","","","","-18","","Snow,Blowing Snow"
"2014-01-26 19:00","2014","01","26","19:00","-8.9","","-10.5","","88","","17","","32","","0.8","","99.13","","","","-18","","Snow,Blowing Snow"
"2014-01-26 20:00","2014","01","26","20:00","-8.3","","-10.2","","86","","17","","30","","4.0","","99.07","","","","-17","","Snow,Blowing Snow"
"2014-01-26 21:00","2014","01","26","21:00","-7.8","","-9.5","","88","","17","","33","","2.4","","99.02","","","","-17","","Snow,Blowing Snow"
"2014-01-26 22:00","2014","01","26","22:00","-7.0","","-8.4","","90","","17","","37","","2.4","","98.87","","","","-16","","Snow,Blowing Snow"
"2014-01-26 23:00","2014","01","26","23:00","-5.4","","-6.8","","90","","19","","33","","6.4","","98.87","","","","-14","","Snow,Blowing Snow"
"2014-01-27 00:00","2014","01","27","00:00"
"2014-01-27 01:00","2014","01","27","01:00"
"2014-01-27 02:00","2014","01","27","02:00"
"2014-01-27 03:00","2014","01","27","03:00"
"2014-01-27 04:00","2014","01","27","04:00"
"2014-01-27 05:00","2014","01","27","05:00"
"2014-01-27 06:00","2014","01","27","06:00","-4.7","","-6.0","","91","","29","","11","","1.6","","98.20","","","","-9","","Snow"
"2014-01-27 07:00","2014","01","27","07:00","-5.3","","-6.7","","90","","26","","23","","1.6","","98.38","","","","-12","","Snow"
"2014-01-27 08:00","2014","01","27","08:00","-7.1","","-10.3","","78","","26","","28","","9.7","","98.69","","","","-15","","Blowing Snow"
"2014-01-27 09:00","2014","01","27","09:00","-8.8","","-12.6","","74","","25","","40","","6.4","","98.98","","","","-19","","Blowing Snow"
"2014-01-27 10:00","2014","01","27","10:00","-9.1","","-13.8","","69","","25","","41","","6.4","","99.21","","","","-20","","Blowing Snow"
"2014-01-27 11:00","2014","01","27","11:00","-9.0","","-14.8","","63","","26","","36","","4.8","","99.46","","","","-19","","Blowing Snow"
"2014-01-27 12:00","2014","01","27","12:00","-9.3","","-17.5","","52","","28","","37","","12.9","","99.61","","","","-19","","Blowing Snow"
"2014-01-27 13:00","2014","01","27","13:00","-9.9","","-18.7","","49","","27","","44","","24.1","","99.76","","","","-21","","Blowing Snow"
"2014-01-27 14:00","2014","01","27","14:00","-10.0","","-19.6","","46","","28","","37","","19.3","","99.83","","","","-20","","Blowing Snow"
"2014-01-27 15:00","2014","01","27","15:00","-10.4","","-19.4","","48","","28","","36","","24.1","","99.94","","","","-21","","Blowing Snow"
"2014-01-27 16:00","2014","01","27","16:00","-10.9","","-19.9","","48","","27","","34","","24.1","","100.10","","","","-21","","Blowing Snow"
"2014-01-27 17:00","2014","01","27","17:00","-12.1","","-21.5","","46","","29","","26","","24.1","","100.16","","","","-22","","Blowing Snow"
"2014-01-27 18:00","2014","01","27","18:00","-13.4","","-22.7","","46","","28","","19","","24.1","","100.29","","","","-22","","Blowing Snow"
"2014-01-27 19:00","2014","01","27","19:00","-14.6","","-22.7","","51","","30","","11","","24.1","","100.39","","","","-21","","Clear"
"2014-01-27 20:00","2014","01","27","20:00","-15.2","","-23.7","","49","","27","","5","","24.1","","100.47","","","","-19","","NA"
"2014-01-27 21:00","2014","01","27","21:00","-15.6","","-23.8","","50","","28","","6","","24.1","","100.53","","","","-20","","NA"
"2014-01-27 22:00","2014","01","27","22:00","-15.7","","-24.4","","48","","28","","12","","24.1","","100.63","","","","-23","","Cloudy"
"2014-01-27 23:00","2014","01","27","23:00","-17.0","","-25.6","","48","","26","","10","","24.1","","100.67","","","","-24","","NA"
"2014-01-28 00:00","2014","01","28","00:00"
"2014-01-28 01:00","2014","01","28","01:00"
"2014-01-28 02:00","2014","01","28","02:00"
"2014-01-28 03:00","2014","01","28","03:00"
"2014-01-28 04:00","2014","01","28","04:00"
"2014-01-28 05:00","2014","01","28","05:00"
"2014-01-28 06:00","2014","01","28","06:00","-19.5","","-23.8","","69","","25","","13","","24.1","","101.04","","","","-28","","NA"
"2014-01-28 07:00","2014","01","28","07:00","-19.1","","-23.5","","69","","25","","12","","24.1","","101.11","","","","-27","","Clear"
"2014-01-28 08:00","2014","01","28","08:00","-18.3","","-23.4","","65","","24","","10","","24.1","","101.16","","","","-25","","NA"
"2014-01-28 09:00","2014","01","28","09:00","-17.2","","-23.1","","61","","25","","9","","24.1","","101.19","","","","-23","","NA"
"2014-01-28 10:00","2014","01","28","10:00","-14.1","","-21.1","","56","","26","","19","","24.1","","101.23","","","","-23","","Mainly Clear"
"2014-01-28 11:00","2014","01","28","11:00","-12.5","","-19.6","","56","","24","","24","","24.1","","101.29","","","","-22","","NA"
"2014-01-28 12:00","2014","01","28","12:00","-11.4","","-16.0","","69","","25","","28","","9.7","","101.23","","","","-21","","Snow Showers"
"2014-01-28 13:00","2014","01","28","13:00","-11.3","","-15.2","","73","","24","","27","","9.7","","101.17","","","","-21","","Snow Showers,Blowing Snow"
"2014-01-28 14:00","2014","01","28","14:00","-11.6","","-14.6","","79","","24","","27","","2.4","","101.09","","","","-21","","Snow Showers,Blowing Snow"
"2014-01-28 15:00","2014","01","28","15:00","-11.1","","-13.4","","83","","24","","31","","1.6","","101.07","","","","-21","","Snow Showers,Blowing Snow"
"2014-01-28 16:00","2014","01","28","16:00","-11.5","","-13.5","","85","","23","","28","","0.8","","101.09","","","","-21","","Snow Showers,Blowing Snow"
"2014-01-28 17:00","2014","01","28","17:00","-11.9","","-14.2","","83","","23","","30","","0.8","","101.09","","","","-22","","Snow,Blowing Snow"
"2014-01-28 18:00","2014","01","28","18:00","-11.9","","-14.4","","82","","22","","30","","4.8","","101.07","","","","-22","","Snow Showers,Blowing Snow"
"2014-01-28 19:00","2014","01","28","19:00","-11.9","","-15.5","","75","","23","","32","","16.1","","101.06","","","","-22","","Snow Showers,Blowing Snow"
"2014-01-28 20:00","2014","01","28","20:00","-12.0","","-15.9","","73","","22","","30","","19.3","","101.05","","","","-22","","Snow,Blowing Snow"
"2014-01-28 21:00","2014","01","28","21:00","-11.5","","-15.4","","73","","22","","39","","16.1","","101.03","","","","-23","","Snow,Blowing Snow"
"2014-01-28 22:00","2014","01","28","22:00","-11.8","","-14.7","","79","","22","","39","","3.2","","100.97","","","","-23","","Snow Showers,Blowing Snow"
"2014-01-28 23:00","2014","01","28","23:00","-12.2","","-15.0","","80","","22","","32","","9.7","","100.91","","","","-23","","Snow,Blowing Snow"
"2014-01-29 00:00","2014","01","29","00:00"
"2014-01-29 01:00","2014","01","29","01:00"
"2014-01-29 02:00","2014","01","29","02:00"
"2014-01-29 03:00","2014","01","29","03:00"
"2014-01-29 04:00","2014","01","29","04:00"
"2014-01-29 05:00","2014","01","29","05:00"
"2014-01-29 06:00","2014","01","29","06:00","-13.8","","-16.1","","83","","31","","5","","4.0","","100.53","","","","-17","","Snow"
"2014-01-29 07:00","2014","01","29","07:00","-12.6","","-15.5","","79","","23","","26","","8.1","","100.50","","","","-22","","Snow,Blowing Snow"
"2014-01-29 08:00","2014","01","29","08:00","-12.4","","-16.0","","75","","22","","30","","12.9","","100.47","","","","-23","","Blowing Snow"
"2014-01-29 09:00","2014","01","29","09:00","-11.8","","-14.7","","79","","22","","38","","3.2","","100.46","","","","-23","","Snow,Blowing Snow"
"2014-01-29 10:00","2014","01","29","10:00","-11.3","","-14.1","","80","","22","","35","","2.0","","100.43","","","","-22","","Snow,Blowing Snow"
"2014-01-29 11:00","2014","01","29","11:00","-11.8","","-14.4","","81","","27","","17","","0.8","","100.42","","","","-19","","Snow,Blowing Snow"
"2014-01-29 12:00","2014","01","29","12:00","-12.1","","-15.8","","74","","28","","21","","2.4","","100.40","","","","-21","","Snow,Blowing Snow"
"2014-01-29 13:00","2014","01","29","13:00","-11.5","","-14.6","","78","","24","","22","","4.0","","100.35","","","","-20","","Snow,Blowing Snow"
"2014-01-29 14:00","2014","01","29","14:00","-11.1","","-15.9","","68","","27","","22","","4.8","","100.38","","","","-20","","Snow,Blowing Snow"
"2014-01-29 15:00","2014","01","29","15:00","-10.8","","-15.6","","68","","25","","30","","12.9","","100.42","","","","-21","","Snow,Blowing Snow"
"2014-01-29 16:00","2014","01","29","16:00","-10.4","","-15.8","","65","","27","","27","","24.1","","100.44","","","","-20","","Blowing Snow"
"2014-01-29 17:00","2014","01","29","17:00","-10.5","","-16.1","","64","","26","","26","","24.1","","100.56","","","","-20","","Blowing Snow"
"2014-01-29 18:00","2014","01","29","18:00","-11.1","","-17.2","","61","","25","","19","","24.1","","100.66","","","","-19","","Blowing Snow"
"2014-01-29 19:00","2014","01","29","19:00","-11.0","","-18.2","","56","","25","","22","","24.1","","100.75","","","","-20","","Clear"
"2014-01-29 20:00","2014","01","29","20:00","-12.4","","-17.9","","64","","24","","11","","24.1","","100.81","","","","-18","","NA"
"2014-01-29 21:00","2014","01","29","21:00","-13.1","","-17.8","","68","","24","","12","","24.1","","100.88","","","","-20","","NA"
"2014-01-29 22:00","2014","01","29","22:00","-12.1","","-16.7","","69","","26","","14","","24.1","","100.96","","","","-19","","Clear"
"2014-01-29 23:00","2014","01","29","23:00","-12.4","","-16.3","","73","","24","","10","","24.1","","101.02","","","","-18","","NA"
"2014-01-30 00:00","2014","01","30","00:00"
"2014-01-30 01:00","2014","01","30","01:00"
"2014-01-30 02:00","2014","01","30","02:00"
"2014-01-30 03:00","2014","01","30","03:00"
"2014-01-30 04:00","2014","01","30","04:00"
"2014-01-30 05:00","2014","01","30","05:00"
"2014-01-30 06:00","2014","01","30","06:00","-10.1","","-12.6","","82","","22","","10","","8.1","","101.24","","","","-15","","Snow"
"2014-01-30 07:00","2014","01","30","07:00","-9.7","","-11.6","","86","","21","","8","","9.7","","101.29","","","","-14","","Snow"
"2014-01-30 08:00","2014","01","30","08:00","-7.3","","-10.3","","79","","21","","28","","9.7","","101.33","","","","-16","","Snow"
"2014-01-30 09:00","2014","01","30","09:00","-7.2","","-10.7","","76","","20","","30","","24.1","","101.35","","","","-16","","Snow"
"2014-01-30 10:00","2014","01","30","10:00","-6.9","","-10.6","","75","","19","","29","","24.1","","101.35","","","","-15","","Mostly Cloudy"
"2014-01-30 11:00","2014","01","30","11:00","-6.5","","-10.2","","75","","19","","28","","24.1","","101.36","","","","-15","","NA"
"2014-01-30 12:00","2014","01","30","12:00","-5.9","","-9.8","","74","","19","","31","","24.1","","101.22","","","","-14","","NA"
"2014-01-30 13:00","2014","01","30","13:00","-5.3","","-9.2","","74","","19","","34","","24.1","","101.09","","","","-14","","Mainly Clear"
"2014-01-30 14:00","2014","01","30","14:00","-4.8","","-8.9","","73","","19","","29","","24.1","","101.01","","","","-13","","NA"
"2014-01-30 15:00","2014","01","30","15:00","-5.2","","-9.9","","70","","19","","26","","24.1","","100.91","","","","-13","","NA"
"2014-01-30 16:00","2014","01","30","16:00","-5.9","","-11.1","","67","","18","","23","","24.1","","100.82","","","","-13","","Mostly Cloudy"
"2014-01-30 17:00","2014","01","30","17:00","-6.2","","-10.8","","70","","18","","15","","24.1","","100.71","","","","-12","","NA"
"2014-01-30 18:00","2014","01","30","18:00","-4.8","","-10.4","","65","","16","","21","","24.1","","100.57","","","","-11","","NA"
"2014-01-30 19:00","2014","01","30","19:00","-5.3","","-9.4","","73","","16","","21","","24.1","","100.47","","","","-12","","Cloudy"
"2014-01-30 20:00","2014","01","30","20:00","-4.0","","-9.1","","68","","17","","28","","24.1","","100.24","","","","-11","","NA"
"2014-01-30 21:00","2014","01","30","21:00","-4.0","","-8.5","","71","","17","","30","","24.1","","100.12","","","","-12","","NA"
"2014-01-30 22:00","2014","01","30","22:00","-3.7","","-8.6","","69","","18","","28","","24.1","","100.02","","","","-11","","Cloudy"
"2014-01-30 23:00","2014","01","30","23:00","-3.7","","-8.0","","72","","19","","35","","24.1","","100.01","","","","-12","","Blowing Snow"
"2014-01-31 00:00","2014","01","31","00:00"
"2014-01-31 01:00","2014","01","31","01:00"
"2014-01-31 02:00","2014","01","31","02:00"
"2014-01-31 03:00","2014","01","31","03:00"
"2014-01-31 04:00","2014","01","31","04:00"
"2014-01-31 05:00","2014","01","31","05:00"
"2014-01-31 06:00","2014","01","31","06:00","-0.9","","-3.9","","80","","23","","25","","19.3","","100.08","","","","-7","","Snow"
"2014-01-31 07:00","2014","01","31","07:00","-0.6","","-3.5","","81","","24","","23","","19.3","","100.09","","","","-6","","Snow"
"2014-01-31 08:00","2014","01","31","08:00","-0.6","","-3.1","","83","","23","","21","","19.3","","100.20","","","","-6","","Snow"
"2014-01-31 09:00","2014","01","31","09:00","-0.2","","-3.1","","81","","24","","18","","16.1","","100.33","","","","-5","","Snow"
"2014-01-31 10:00","2014","01","31","10:00","-0.1","","-3.7","","77","","24","","22","","19.3","","100.42","","","","-6","","Snow"
"2014-01-31 11:00","2014","01","31","11:00","0.4","","-4.3","","71","","25","","19","","24.1","","100.47","","","","","","NA"
"2014-01-31 12:00","2014","01","31","12:00","1.3","","-5.0","","63","","24","","23","","24.1","","100.48","","","","","","NA"
"2014-01-31 13:00","2014","01","31","13:00","1.2","","-4.9","","64","","26","","15","","24.1","","100.53","","","","","","Cloudy"
"2014-01-31 14:00","2014","01","31","14:00","0.9","","-5.6","","62","","28","","19","","24.1","","100.49","","","","","","NA"
"2014-01-31 15:00","2014","01","31","15:00","0.5","","-6.0","","62","","26","","18","","24.1","","100.55","","","","","","NA"
"2014-01-31 16:00","2014","01","31","16:00","-0.2","","-6.6","","62","","25","","12","","24.1","","100.65","","","","-4","","Cloudy"
"2014-01-31 17:00","2014","01","31","17:00","-1.0","","-7.2","","63","","25","","13","","24.1","","100.78","","","","-5","","NA"
"2014-01-31 18:00","2014","01","31","18:00","-1.7","","-7.9","","63","","25","","14","","24.1","","100.84","","","","-6","","NA"
"2014-01-31 19:00","2014","01","31","19:00","-2.7","","-8.4","","65","","25","","12","","24.1","","100.90","","","","-7","","Mostly Cloudy"
"2014-01-31 20:00","2014","01","31","20:00","-4.2","","-8.3","","73","","24","","7","","24.1","","100.96","","","","-7","","NA"
"2014-01-31 21:00","2014","01","31","21:00","-4.2","","-8.7","","71","","23","","7","","24.1","","101.01","","","","-7","","NA"
"2014-01-31 22:00","2014","01","31","22:00","-4.5","","-8.8","","72","","29","","4","","24.1","","101.03","","","","-6","","Cloudy"
"2014-01-31 23:00","2014","01","31","23:00","-5.0","","-9.5","","71","","28","","7","","24.1","","101.08","","","","-8","","NA"
