"Station Name","KINGSTON A"
"Province","ONTARIO"
"Latitude","44.22"
"Longitude","-76.60"
"Elevation","92.40"
"Climate Identifier","6104146"
"WMO Identifier",""
"TC Identifier","YGK"
"All times are specified in Local Standard Time (LST). Add 1 hour to adjust for Daylight Saving Time where and when it is observed."

"Legend"
"E","Estimated"
"M","Missing"
"NA","Not Available"

"Date/Time","Year","Month","Day","Time","Temp (°C)","Temp Flag","Dew Point Temp (°C)","Dew Point Temp Flag","Rel Hum (%)","Rel Hum Flag","Wind Dir (10s deg)","Wind Dir Flag","Wind Spd (km/h)","Wind Spd Flag","Visibility (km)","Visibility Flag","Stn Press (kPa)","Stn Press Flag","Hmdx","Hmdx Flag","Wind Chill","Wind Chill Flag","Weather"
"2000-09-01 00:00","2000","09","01","00:00"
"2000-09-01 01:00","2000","09","01","01:00"
"2000-09-01 02:00","2000","09","01","02:00"
"2000-09-01 03:00","2000","09","01","03:00"
"2000-09-01 04:00","2000","09","01","04:00"
"2000-09-01 05:00","2000","09","01","05:00","22.3","","21.4","","95","","21","","9","","9.7","","100.71","","31","","","","Fog"
"2000-09-01 06:00","2000","09","01","06:00","22.2","","21.5","","96","","23","","6","","9.7","","100.78","","31","","","","Fog"
"2000-09-01 07:00","2000","09","01","07:00","22.8","","21.8","","94","","21","","9","","11.3","","100.78","","32","","","","Mainly Clear"
"2000-09-01 08:00","2000","09","01","08:00","23.5","","21.5","","89","","22","","7","","11.3","","100.78","","32","","","","Mainly Clear"
"2000-09-01 09:00","2000","09","01","09:00","23.1","","21.9","","93","","18","","13","","11.3","","100.78","","32","","","","Mainly Clear"
"2000-09-01 10:00","2000","09","01","10:00","23.9","","22.4","","91","","20","","13","","11.3","","100.75","","34","","","","Mainly Clear"
"2000-09-01 11:00","2000","09","01","11:00","23.6","","22.1","","91","","20","","15","","11.3","","100.75","","33","","","","Mostly Cloudy"
"2000-09-01 12:00","2000","09","01","12:00","23.9","","22.2","","90","","18","","13","","12.9","","100.75","","33","","","","Mostly Cloudy"
"2000-09-01 13:00","2000","09","01","13:00","24.3","","22.5","","90","","20","","15","","12.9","","100.71","","34","","","","Mostly Cloudy"
"2000-09-01 14:00","2000","09","01","14:00","24.6","","22.6","","89","","19","","15","","12.9","","100.64","","34","","","","Mainly Clear"
"2000-09-01 15:00","2000","09","01","15:00","25.0","","22.3","","85","","20","","9","","12.9","","100.61","","35","","","","Mainly Clear"
"2000-09-01 16:00","2000","09","01","16:00","24.8","","22.3","","86","","17","","13","","12.9","","100.54","","34","","","","Mainly Clear"
"2000-09-01 17:00","2000","09","01","17:00","24.6","","22.0","","85","","19","","4","","12.9","","100.54","","34","","","","Mainly Clear"
"2000-09-01 18:00","2000","09","01","18:00","24.5","","21.3","","82","","","","0","","12.9","","100.51","","33","","","","Mainly Clear"
"2000-09-01 19:00","2000","09","01","19:00","23.5","","21.6","","89","","","","0","","11.3","","100.51","","32","","","","Mainly Clear"
"2000-09-01 20:00","2000","09","01","20:00","22.7","","20.8","","89","","","","0","","12.9","","100.58","","31","","","","Mostly Cloudy"
"2000-09-01 21:00","2000","09","01","21:00","23.4","","20.4","","83","","5","","13","","24.1","","100.61","","31","","","","Mostly Cloudy"
"2000-09-01 22:00","2000","09","01","22:00","21.6","","18.7","","84","","2","","19","","24.1","","100.68","","28","","","","Mainly Clear"
"2000-09-01 23:00","2000","09","01","23:00"
"2000-09-02 00:00","2000","09","02","00:00"
"2000-09-02 01:00","2000","09","02","01:00"
"2000-09-02 02:00","2000","09","02","02:00"
"2000-09-02 03:00","2000","09","02","03:00"
"2000-09-02 04:00","2000","09","02","04:00"
"2000-09-02 05:00","2000","09","02","05:00","17.6","","13.9","","79","","7","","17","","24.1","","100.54","","","","","","Cloudy"
"2000-09-02 06:00","2000","09","02","06:00","17.3","","14.5","","84","","5","","15","","24.1","","100.58","","","","","","Cloudy"
"2000-09-02 07:00","2000","09","02","07:00","16.9","","13.7","","81","","5","","20","","24.1","","100.58","","","","","","Cloudy"
"2000-09-02 08:00","2000","09","02","08:00","17.1","","13.3","","78","","3","","13","","24.1","","100.64","","","","","","Cloudy"
"2000-09-02 09:00","2000","09","02","09:00","17.0","","13.0","","77","","5","","20","","24.1","","100.64","","","","","","Cloudy"
"2000-09-02 10:00","2000","09","02","10:00","14.9","","14.2","","96","","5","","7","","9.7","","100.61","","","","","","Rain Showers,Fog"
"2000-09-02 11:00","2000","09","02","11:00","15.3","","14.2","","93","","4","","15","","24.1","","100.61","","","","","","Cloudy"
"2000-09-02 12:00","2000","09","02","12:00","15.8","","14.8","","94","","2","","17","","24.1","","100.58","","","","","","Cloudy"
"2000-09-02 13:00","2000","09","02","13:00","16.5","","14.8","","90","","3","","11","","24.1","","100.61","","","","","","Cloudy"
"2000-09-02 14:00","2000","09","02","14:00","16.3","","14.7","","90","","3","","13","","24.1","","100.58","","","","","","Cloudy"
"2000-09-02 15:00","2000","09","02","15:00","17.2","","15.0","","87","","3","","15","","24.1","","100.51","","","","","","Cloudy"
"2000-09-02 16:00","2000","09","02","16:00","17.5","","15.1","","86","","3","","13","","24.1","","100.48","","","","","","Cloudy"
"2000-09-02 17:00","2000","09","02","17:00","16.6","","14.7","","89","","4","","15","","24.1","","100.48","","","","","","Cloudy"
"2000-09-02 18:00","2000","09","02","18:00","16.1","","14.4","","90","","7","","13","","24.1","","100.44","","","","","","Cloudy"
"2000-09-02 19:00","2000","09","02","19:00","15.7","","14.3","","91","","3","","15","","19.3","","100.48","","","","","","Cloudy"
"2000-09-02 20:00","2000","09","02","20:00","15.7","","14.3","","91","","4","","17","","24.1","","100.58","","","","","","Cloudy"
"2000-09-02 21:00","2000","09","02","21:00","15.7","","14.3","","91","","4","","13","","24.1","","100.54","","","","","","Cloudy"
"2000-09-02 22:00","2000","09","02","22:00","15.6","","14.4","","93","","3","","9","","24.1","","100.51","","","","","","Cloudy"
"2000-09-02 23:00","2000","09","02","23:00"
"2000-09-03 00:00","2000","09","03","00:00"
"2000-09-03 01:00","2000","09","03","01:00"
"2000-09-03 02:00","2000","09","03","02:00"
"2000-09-03 03:00","2000","09","03","03:00"
"2000-09-03 04:00","2000","09","03","04:00"
"2000-09-03 05:00","2000","09","03","05:00","15.3","","12.9","","86","","4","","7","","24.1","","100.44","","","","","","Cloudy"
"2000-09-03 06:00","2000","09","03","06:00","15.4","","12.6","","83","","4","","7","","24.1","","100.51","","","","","","Cloudy"
"2000-09-03 07:00","2000","09","03","07:00","15.4","","13.1","","86","","7","","11","","24.1","","100.51","","","","","","Cloudy"
"2000-09-03 08:00","2000","09","03","08:00","15.7","","12.6","","82","","4","","9","","24.1","","100.48","","","","","","Cloudy"
"2000-09-03 09:00","2000","09","03","09:00","16.6","","13.1","","80","","4","","7","","24.1","","100.48","","","","","","Cloudy"
"2000-09-03 10:00","2000","09","03","10:00","17.5","","13.2","","76","","36","","6","","24.1","","100.51","","","","","","Cloudy"
"2000-09-03 11:00","2000","09","03","11:00","18.0","","14.2","","78","","7","","7","","24.1","","100.48","","","","","","Cloudy"
"2000-09-03 12:00","2000","09","03","12:00","18.4","","14.9","","80","","14","","11","","24.1","","100.41","","","","","","Cloudy"
"2000-09-03 13:00","2000","09","03","13:00","18.6","","14.9","","79","","15","","13","","24.1","","100.31","","","","","","Cloudy"
"2000-09-03 14:00","2000","09","03","14:00","18.7","","15.5","","82","","15","","4","","24.1","","100.24","","","","","","Mostly Cloudy"
"2000-09-03 15:00","2000","09","03","15:00","19.6","","16.2","","81","","15","","19","","24.1","","100.11","","","","","","Mostly Cloudy"
"2000-09-03 16:00","2000","09","03","16:00","19.6","","15.7","","78","","18","","4","","24.1","","100.18","","","","","","Mostly Cloudy"
"2000-09-03 17:00","2000","09","03","17:00","19.7","","16.1","","80","","13","","6","","24.1","","100.11","","","","","","Mostly Cloudy"
"2000-09-03 18:00","2000","09","03","18:00","19.5","","15.2","","76","","13","","9","","24.1","","100.04","","","","","","Cloudy"
"2000-09-03 19:00","2000","09","03","19:00","19.5","","15.4","","77","","15","","6","","19.3","","100.07","","","","","","Rain Showers"
"2000-09-03 20:00","2000","09","03","20:00","18.2","","16.5","","90","","7","","6","","24.1","","100.07","","","","","","Cloudy"
"2000-09-03 21:00","2000","09","03","21:00","17.5","","16.2","","92","","6","","11","","24.1","","100.11","","","","","","Cloudy"
"2000-09-03 22:00","2000","09","03","22:00","17.4","","16.1","","92","","7","","11","","24.1","","100.11","","","","","","Cloudy"
"2000-09-03 23:00","2000","09","03","23:00"
"2000-09-04 00:00","2000","09","04","00:00"
"2000-09-04 01:00","2000","09","04","01:00"
"2000-09-04 02:00","2000","09","04","02:00"
"2000-09-04 03:00","2000","09","04","03:00"
"2000-09-04 04:00","2000","09","04","04:00"
"2000-09-04 05:00","2000","09","04","05:00","14.5","","14.0","","97","","2","","28","","4.8","","100.18","","","","","","Rain,Fog"
"2000-09-04 06:00","2000","09","04","06:00","13.3","","12.5","","95","","2","","24","","19.3","","100.31","","","","","","Cloudy"
"2000-09-04 07:00","2000","09","04","07:00","13.0","","11.9","","93","","3","","28","","19.3","","100.38","","","","","","Cloudy"
"2000-09-04 08:00","2000","09","04","08:00","12.8","","11.8","","94","","3","","32","","24.1","","100.44","","","","","","Cloudy"
"2000-09-04 09:00","2000","09","04","09:00","12.4","","10.2","","86","","3","","28","","24.1","","100.51","","","","","","Cloudy"
"2000-09-04 10:00","2000","09","04","10:00","13.6","","9.4","","76","","4","","33","","24.1","","100.58","","","","","","Mostly Cloudy"
"2000-09-04 11:00","2000","09","04","11:00","14.5","","8.2","","66","","3","","33","","24.1","","100.64","","","","","","Mostly Cloudy"
"2000-09-04 12:00","2000","09","04","12:00","15.9","","7.9","","59","","3","","28","","24.1","","100.68","","","","","","Mostly Cloudy"
"2000-09-04 13:00","2000","09","04","13:00","17.0","","7.4","","53","","5","","32","","24.1","","100.68","","","","","","Mainly Clear"
"2000-09-04 14:00","2000","09","04","14:00","17.1","","6.2","","49","","4","","24","","24.1","","100.71","","","","","","Mainly Clear"
"2000-09-04 15:00","2000","09","04","15:00","17.4","","6.2","","48","","2","","33","","24.1","","100.78","","","","","","Mainly Clear"
"2000-09-04 16:00","2000","09","04","16:00","18.4","","6.3","","45","","2","","30","","24.1","","100.85","","","","","","Mainly Clear"
"2000-09-04 17:00","2000","09","04","17:00","16.7","","5.7","","48","","1","","17","","24.1","","100.91","","","","","","Mainly Clear"
"2000-09-04 18:00","2000","09","04","18:00","15.7","","4.7","","48","","1","","22","","24.1","","100.98","","","","","","Mainly Clear"
"2000-09-04 19:00","2000","09","04","19:00","14.0","","4.7","","53","","1","","19","","24.1","","101.08","","","","","","Mainly Clear"
"2000-09-04 20:00","2000","09","04","20:00","12.8","","4.1","","55","","1","","19","","24.1","","101.22","","","","","","Clear"
"2000-09-04 21:00","2000","09","04","21:00","11.5","","3.9","","60","","36","","13","","24.1","","101.32","","","","","","Clear"
"2000-09-04 22:00","2000","09","04","22:00","10.6","","3.8","","63","","1","","13","","24.1","","101.42","","","","","","Clear"
"2000-09-04 23:00","2000","09","04","23:00"
"2000-09-05 00:00","2000","09","05","00:00"
"2000-09-05 01:00","2000","09","05","01:00"
"2000-09-05 02:00","2000","09","05","02:00"
"2000-09-05 03:00","2000","09","05","03:00"
"2000-09-05 04:00","2000","09","05","04:00"
"2000-09-05 05:00","2000","09","05","05:00","6.4","","3.9","","84","","1","","4","","24.1","","101.69","","","","","","Clear"
"2000-09-05 06:00","2000","09","05","06:00","5.4","","3.9","","90","","36","","7","","24.1","","101.82","","","","","","Mainly Clear"
"2000-09-05 07:00","2000","09","05","07:00","7.7","","5.0","","83","","36","","13","","24.1","","101.85","","","","","","Mainly Clear"
"2000-09-05 08:00","2000","09","05","08:00","10.0","","4.9","","71","","2","","17","","24.1","","101.85","","","","","","Mainly Clear"
"2000-09-05 09:00","2000","09","05","09:00","11.5","","5.2","","65","","2","","15","","24.1","","101.92","","","","","","Mainly Clear"
"2000-09-05 10:00","2000","09","05","10:00","12.7","","4.5","","57","","3","","15","","24.1","","101.95","","","","","","Mainly Clear"
"2000-09-05 11:00","2000","09","05","11:00","13.7","","5.3","","57","","1","","9","","24.1","","101.95","","","","","","Mainly Clear"
"2000-09-05 12:00","2000","09","05","12:00","14.8","","5.1","","52","","34","","11","","24.1","","101.95","","","","","","Mainly Clear"
"2000-09-05 13:00","2000","09","05","13:00","15.9","","4.7","","47","","7","","15","","24.1","","101.92","","","","","","Mainly Clear"
"2000-09-05 14:00","2000","09","05","14:00","16.1","","4.6","","46","","7","","15","","24.1","","101.89","","","","","","Mainly Clear"
"2000-09-05 15:00","2000","09","05","15:00","16.5","","5.0","","46","","2","","7","","24.1","","101.89","","","","","","Mainly Clear"
"2000-09-05 16:00","2000","09","05","16:00","16.4","","5.1","","47","","3","","9","","24.1","","101.89","","","","","","Clear"
"2000-09-05 17:00","2000","09","05","17:00","16.2","","4.6","","46","","36","","13","","24.1","","101.89","","","","","","Clear"
"2000-09-05 18:00","2000","09","05","18:00","15.5","","5.0","","50","","1","","11","","24.1","","101.89","","","","","","Clear"
"2000-09-05 19:00","2000","09","05","19:00","14.2","","5.0","","54","","5","","7","","24.1","","101.92","","","","","","Clear"
"2000-09-05 20:00","2000","09","05","20:00","13.0","","5.1","","59","","5","","4","","24.1","","101.99","","","","","","Clear"
"2000-09-05 21:00","2000","09","05","21:00","9.8","","7.4","","85","","36","","6","","24.1","","101.99","","","","","","Clear"
"2000-09-05 22:00","2000","09","05","22:00","9.5","","6.3","","80","","4","","7","","24.1","","102.02","","","","","","Clear"
"2000-09-05 23:00","2000","09","05","23:00"
"2000-09-06 00:00","2000","09","06","00:00"
"2000-09-06 01:00","2000","09","06","01:00"
"2000-09-06 02:00","2000","09","06","02:00"
"2000-09-06 03:00","2000","09","06","03:00"
"2000-09-06 04:00","2000","09","06","04:00"
"2000-09-06 05:00","2000","09","06","05:00","5.5","","4.7","","95","","2","","6","","24.1","","102.12","","","","","","Clear"
"2000-09-06 06:00","2000","09","06","06:00","6.4","","5.3","","93","","36","","9","","24.1","","102.19","","","","","","Clear"
"2000-09-06 07:00","2000","09","06","07:00","9.1","","7.6","","90","","2","","6","","24.1","","102.26","","","","","","Clear"
"2000-09-06 08:00","2000","09","06","08:00","12.0","","8.1","","77","","4","","11","","24.1","","102.29","","","","","","Mainly Clear"
"2000-09-06 09:00","2000","09","06","09:00","14.1","","8.7","","70","","12","","6","","24.1","","102.29","","","","","","Mainly Clear"
"2000-09-06 10:00","2000","09","06","10:00","14.9","","9.3","","69","","13","","13","","24.1","","102.29","","","","","","Mostly Cloudy"
"2000-09-06 11:00","2000","09","06","11:00","15.5","","9.6","","68","","17","","9","","24.1","","102.19","","","","","","Mainly Clear"
"2000-09-06 12:00","2000","09","06","12:00","15.9","","8.8","","63","","17","","15","","24.1","","102.16","","","","","","Mostly Cloudy"
"2000-09-06 13:00","2000","09","06","13:00","16.0","","8.3","","60","","19","","7","","24.1","","102.09","","","","","","Mostly Cloudy"
"2000-09-06 14:00","2000","09","06","14:00","16.6","","8.7","","60","","16","","11","","24.1","","102.05","","","","","","Mostly Cloudy"
"2000-09-06 15:00","2000","09","06","15:00","16.9","","8.0","","56","","21","","7","","24.1","","101.92","","","","","","Mostly Cloudy"
"2000-09-06 16:00","2000","09","06","16:00","16.6","","9.0","","61","","17","","6","","24.1","","101.89","","","","","","Mainly Clear"
"2000-09-06 17:00","2000","09","06","17:00","16.6","","8.5","","59","","20","","7","","24.1","","101.85","","","","","","Mainly Clear"
"2000-09-06 18:00","2000","09","06","18:00","16.4","","8.6","","60","","","","0","","24.1","","101.79","","","","","","Mostly Cloudy"
"2000-09-06 19:00","2000","09","06","19:00","14.6","","8.5","","67","","","","0","","24.1","","101.72","","","","","","Mostly Cloudy"
"2000-09-06 20:00","2000","09","06","20:00","12.6","","8.0","","74","","2","","4","","24.1","","101.72","","","","","","Mainly Clear"
"2000-09-06 21:00","2000","09","06","21:00","12.0","","8.5","","79","","3","","4","","24.1","","101.72","","","","","","Mainly Clear"
"2000-09-06 22:00","2000","09","06","22:00","9.5","","7.9","","90","","3","","4","","24.1","","101.69","","","","","","Mainly Clear"
"2000-09-06 23:00","2000","09","06","23:00"
"2000-09-07 00:00","2000","09","07","00:00"
"2000-09-07 01:00","2000","09","07","01:00"
"2000-09-07 02:00","2000","09","07","02:00"
"2000-09-07 03:00","2000","09","07","03:00"
"2000-09-07 04:00","2000","09","07","04:00"
"2000-09-07 05:00","2000","09","07","05:00","17.2","","12.7","","75","","22","","19","","24.1","","101.52","","","","","","Mostly Cloudy"
"2000-09-07 06:00","2000","09","07","06:00","17.1","","13.3","","78","","23","","17","","24.1","","101.52","","","","","","Mostly Cloudy"
"2000-09-07 07:00","2000","09","07","07:00","17.2","","14.1","","82","","21","","19","","24.1","","101.55","","","","","","Mostly Cloudy"
"2000-09-07 08:00","2000","09","07","08:00","17.4","","13.1","","76","","22","","20","","24.1","","101.48","","","","","","Mostly Cloudy"
"2000-09-07 09:00","2000","09","07","09:00","18.6","","13.2","","71","","21","","20","","24.1","","101.48","","","","","","Mostly Cloudy"
"2000-09-07 10:00","2000","09","07","10:00","18.5","","13.5","","73","","21","","24","","24.1","","101.45","","","","","","Mostly Cloudy"
"2000-09-07 11:00","2000","09","07","11:00","18.2","","13.9","","76","","20","","22","","24.1","","101.35","","","","","","Mainly Clear"
"2000-09-07 12:00","2000","09","07","12:00","18.6","","14.4","","77","","19","","24","","24.1","","101.28","","","","","","Mainly Clear"
"2000-09-07 13:00","2000","09","07","13:00","18.9","","13.9","","73","","20","","22","","24.1","","101.22","","","","","","Mainly Clear"
"2000-09-07 14:00","2000","09","07","14:00","18.7","","13.5","","72","","19","","26","","24.1","","101.08","","","","","","Mainly Clear"
"2000-09-07 15:00","2000","09","07","15:00","19.5","","13.2","","67","","19","","20","","24.1","","100.98","","","","","","Mainly Clear"
"2000-09-07 16:00","2000","09","07","16:00","19.6","","13.0","","66","","20","","19","","24.1","","100.95","","","","","","Mainly Clear"
"2000-09-07 17:00","2000","09","07","17:00","19.6","","13.4","","67","","20","","20","","24.1","","100.85","","","","","","Mainly Clear"
"2000-09-07 18:00","2000","09","07","18:00","19.8","","13.2","","66","","21","","17","","24.1","","100.78","","","","","","Mainly Clear"
"2000-09-07 19:00","2000","09","07","19:00","19.3","","13.1","","67","","24","","9","","24.1","","100.78","","","","","","Mainly Clear"
"2000-09-07 20:00","2000","09","07","20:00","18.9","","13.0","","69","","21","","7","","24.1","","100.78","","","","","","Mainly Clear"
"2000-09-07 21:00","2000","09","07","21:00","19.3","","15.8","","80","","21","","13","","24.1","","100.68","","","","","","Clear"
"2000-09-07 22:00","2000","09","07","22:00","19.3","","16.2","","82","","20","","17","","24.1","","100.64","","","","","","Clear"
"2000-09-07 23:00","2000","09","07","23:00"
"2000-09-08 00:00","2000","09","08","00:00"
"2000-09-08 01:00","2000","09","08","01:00"
"2000-09-08 02:00","2000","09","08","02:00"
"2000-09-08 03:00","2000","09","08","03:00"
"2000-09-08 04:00","2000","09","08","04:00"
"2000-09-08 05:00","2000","09","08","05:00","19.3","","16.1","","82","","22","","17","","24.1","","100.51","","","","","","Mostly Cloudy"
"2000-09-08 06:00","2000","09","08","06:00","19.4","","17.1","","87","","21","","17","","24.1","","100.48","","","","","","Mostly Cloudy"
"2000-09-08 07:00","2000","09","08","07:00","19.6","","16.3","","81","","21","","28","","24.1","","100.48","","","","","","Mostly Cloudy"
"2000-09-08 08:00","2000","09","08","08:00"
"2000-09-08 09:00","2000","09","08","09:00","20.6","","16.6","","78","","20","","22","","24.1","","100.44","","26","","","","Mainly Clear"
"2000-09-08 10:00","2000","09","08","10:00","20.8","","17.6","","82","","21","","22","","19.3","","100.44","","27","","","","Mostly Cloudy"
"2000-09-08 11:00","2000","09","08","11:00","21.5","","17.5","","78","","23","","22","","19.3","","100.38","","27","","","","Cloudy"
"2000-09-08 12:00","2000","09","08","12:00","21.5","","18.1","","81","","24","","22","","24.1","","100.38","","28","","","","Mostly Cloudy"
"2000-09-08 13:00","2000","09","08","13:00","22.3","","19.0","","82","","25","","20","","16.1","","100.38","","29","","","","Mostly Cloudy"
"2000-09-08 14:00","2000","09","08","14:00","22.9","","19.2","","80","","25","","19","","16.1","","100.34","","30","","","","Cloudy"
"2000-09-08 15:00","2000","09","08","15:00","23.7","","19.3","","76","","24","","24","","12.9","","100.31","","31","","","","Mainly Clear"
"2000-09-08 16:00","2000","09","08","16:00","24.1","","19.1","","74","","25","","22","","12.9","","100.31","","31","","","","Mainly Clear"
"2000-09-08 17:00","2000","09","08","17:00","23.5","","19.0","","76","","25","","22","","12.9","","100.31","","30","","","","Clear"
"2000-09-08 18:00","2000","09","08","18:00","22.6","","19.0","","80","","26","","13","","12.9","","100.34","","29","","","","Mainly Clear"
"2000-09-08 19:00","2000","09","08","19:00","21.1","","19.1","","88","","25","","17","","12.9","","100.44","","28","","","","Mainly Clear"
"2000-09-08 20:00","2000","09","08","20:00","20.2","","18.3","","89","","27","","11","","12.9","","100.51","","26","","","","Mainly Clear"
"2000-09-08 21:00","2000","09","08","21:00","19.3","","18.2","","93","","27","","9","","19.3","","100.58","","","","","","Mainly Clear"
"2000-09-08 22:00","2000","09","08","22:00","16.3","","14.5","","89","","34","","7","","19.3","","100.58","","","","","","Mainly Clear"
"2000-09-08 23:00","2000","09","08","23:00"
"2000-09-09 00:00","2000","09","09","00:00"
"2000-09-09 01:00","2000","09","09","01:00"
"2000-09-09 02:00","2000","09","09","02:00"
"2000-09-09 03:00","2000","09","09","03:00"
"2000-09-09 04:00","2000","09","09","04:00"
"2000-09-09 05:00","2000","09","09","05:00","12.8","","10.1","","84","","","","0","","24.1","","100.71","","","","","","Mainly Clear"
"2000-09-09 06:00","2000","09","09","06:00","12.4","","10.1","","86","","36","","9","","24.1","","100.75","","","","","","Mainly Clear"
"2000-09-09 07:00","2000","09","09","07:00","12.9","","11.0","","88","","36","","7","","24.1","","100.81","","","","","","Mainly Clear"
"2000-09-09 08:00","2000","09","09","08:00","17.1","","12.8","","76","","5","","15","","24.1","","100.85","","","","","","Mainly Clear"
"2000-09-09 09:00","2000","09","09","09:00","19.0","","13.5","","70","","6","","11","","24.1","","100.88","","","","","","Mainly Clear"
"2000-09-09 10:00","2000","09","09","10:00","20.1","","15.6","","75","","18","","7","","24.1","","100.91","","","","","","Mainly Clear"
"2000-09-09 11:00","2000","09","09","11:00","21.4","","16.1","","72","","17","","11","","24.1","","100.88","","26","","","","Mainly Clear"
"2000-09-09 12:00","2000","09","09","12:00","21.5","","15.9","","70","","19","","9","","24.1","","100.88","","26","","","","Mainly Clear"
"2000-09-09 13:00","2000","09","09","13:00","21.8","","16.0","","70","","19","","9","","24.1","","100.85","","26","","","","Mainly Clear"
"2000-09-09 14:00","2000","09","09","14:00","21.9","","15.8","","68","","20","","11","","24.1","","100.85","","26","","","","Mainly Clear"
"2000-09-09 15:00","2000","09","09","15:00","22.1","","16.4","","70","","19","","11","","24.1","","100.85","","27","","","","Clear"
"2000-09-09 16:00","2000","09","09","16:00","21.8","","16.5","","72","","20","","13","","24.1","","100.81","","27","","","","Mainly Clear"
"2000-09-09 17:00","2000","09","09","17:00","21.9","","15.4","","67","","22","","9","","24.1","","100.81","","26","","","","Mainly Clear"
"2000-09-09 18:00","2000","09","09","18:00","21.4","","13.6","","61","","22","","4","","24.1","","100.81","","25","","","","Mainly Clear"
"2000-09-09 19:00","2000","09","09","19:00","20.3","","15.0","","72","","25","","6","","24.1","","100.81","","","","","","Mainly Clear"
"2000-09-09 20:00","2000","09","09","20:00","18.1","","14.2","","78","","","","0","","24.1","","100.88","","","","","","Mainly Clear"
"2000-09-09 21:00","2000","09","09","21:00","16.7","","14.3","","86","","5","","4","","24.1","","100.88","","","","","","Mainly Clear"
"2000-09-09 22:00","2000","09","09","22:00","14.6","","12.9","","90","","3","","4","","24.1","","100.91","","","","","","Mainly Clear"
"2000-09-09 23:00","2000","09","09","23:00"
"2000-09-10 00:00","2000","09","10","00:00"
"2000-09-10 01:00","2000","09","10","01:00"
"2000-09-10 02:00","2000","09","10","02:00"
"2000-09-10 03:00","2000","09","10","03:00"
"2000-09-10 04:00","2000","09","10","04:00"
"2000-09-10 05:00","2000","09","10","05:00","14.4","","13.9","","97","","4","","6","","24.1","","101.01","","","","","","Mainly Clear"
"2000-09-10 06:00","2000","09","10","06:00","14.7","","14.2","","97","","7","","6","","24.1","","101.05","","","","","","Mostly Cloudy"
"2000-09-10 07:00","2000","09","10","07:00","16.3","","15.1","","93","","7","","7","","24.1","","101.01","","","","","","Mainly Clear"
"2000-09-10 08:00","2000","09","10","08:00","19.0","","16.4","","85","","10","","9","","24.1","","101.01","","","","","","Mainly Clear"
"2000-09-10 09:00","2000","09","10","09:00","19.4","","16.4","","83","","14","","6","","24.1","","101.05","","","","","","Cloudy"
"2000-09-10 10:00","2000","09","10","10:00","19.8","","17.0","","84","","14","","4","","19.3","","101.05","","","","","","Cloudy"
"2000-09-10 11:00","2000","09","10","11:00","22.0","","17.8","","77","","14","","11","","16.1","","100.95","","28","","","","Mostly Cloudy"
"2000-09-10 12:00","2000","09","10","12:00","22.4","","18.1","","77","","","","0","","12.9","","100.95","","28","","","","Mostly Cloudy"
"2000-09-10 13:00","2000","09","10","13:00","22.2","","18.0","","77","","15","","9","","12.9","","100.78","","28","","","","Cloudy"
"2000-09-10 14:00","2000","09","10","14:00","24.3","","18.3","","69","","17","","9","","12.9","","100.71","","31","","","","Cloudy"
"2000-09-10 15:00","2000","09","10","15:00","25.2","","19.1","","69","","14","","7","","12.9","","100.64","","32","","","","Mostly Cloudy"
"2000-09-10 16:00","2000","09","10","16:00","25.7","","19.6","","69","","16","","7","","12.9","","100.61","","33","","","","Mostly Cloudy"
"2000-09-10 17:00","2000","09","10","17:00","25.1","","20.0","","73","","15","","7","","16.1","","100.61","","33","","","","Mostly Cloudy"
"2000-09-10 18:00","2000","09","10","18:00","25.0","","20.0","","74","","13","","11","","16.1","","100.58","","33","","","","Mostly Cloudy"
"2000-09-10 19:00","2000","09","10","19:00","24.4","","20.0","","76","","10","","7","","16.1","","100.54","","32","","","","Mostly Cloudy"
"2000-09-10 20:00","2000","09","10","20:00","24.2","","20.0","","77","","13","","17","","12.9","","100.54","","32","","","","Cloudy"
"2000-09-10 21:00","2000","09","10","21:00","22.9","","20.6","","87","","15","","19","","12.9","","100.48","","31","","","","Cloudy"
"2000-09-10 22:00","2000","09","10","22:00","22.4","","20.6","","90","","16","","17","","12.9","","100.48","","30","","","","Cloudy"
"2000-09-10 23:00","2000","09","10","23:00"
"2000-09-11 00:00","2000","09","11","00:00"
"2000-09-11 01:00","2000","09","11","01:00"
"2000-09-11 02:00","2000","09","11","02:00"
"2000-09-11 03:00","2000","09","11","03:00"
"2000-09-11 04:00","2000","09","11","04:00"
"2000-09-11 05:00","2000","09","11","05:00","20.8","","20.1","","96","","14","","19","","3.2","","100.41","","28","","","","Rain,Fog"
"2000-09-11 06:00","2000","09","11","06:00","20.6","","20.1","","97","","17","","22","","2.4","","100.41","","28","","","","Rain,Fog"
"2000-09-11 07:00","2000","09","11","07:00","20.9","","20.4","","97","","21","","30","","2.4","","100.44","","29","","","","Rain,Fog"
"2000-09-11 08:00","2000","09","11","08:00","20.7","","20.5","","99","","21","","24","","1.6","","100.44","","29","","","","Rain,Fog"
"2000-09-11 09:00","2000","09","11","09:00","21.0","","20.7","","98","","23","","17","","4.8","","100.48","","29","","","","Fog"
"2000-09-11 10:00","2000","09","11","10:00","21.1","","20.8","","98","","22","","13","","4.8","","100.51","","29","","","","Fog"
"2000-09-11 11:00","2000","09","11","11:00","21.0","","21.0","","100","","20","","19","","2.4","","100.48","","29","","","","Fog"
"2000-09-11 12:00","2000","09","11","12:00","21.0","","21.0","","100","","21","","20","","0.2","","100.44","","29","","","","Fog"
"2000-09-11 13:00","2000","09","11","13:00","21.5","","21.5","","100","","20","","11","","3.2","","100.44","","30","","","","Fog"
"2000-09-11 14:00","2000","09","11","14:00","22.1","","21.9","","99","","20","","17","","3.2","","100.41","","31","","","","Fog"
"2000-09-11 15:00","2000","09","11","15:00","22.3","","21.3","","94","","20","","20","","12.9","","100.34","","31","","","","Mostly Cloudy"
"2000-09-11 16:00","2000","09","11","16:00","22.0","","20.6","","92","","20","","26","","19.3","","100.31","","30","","","","Mainly Clear"
"2000-09-11 17:00","2000","09","11","17:00","21.5","","20.7","","95","","18","","17","","16.1","","100.31","","30","","","","Mainly Clear"
"2000-09-11 18:00","2000","09","11","18:00","21.1","","20.6","","97","","20","","7","","4.8","","100.31","","29","","","","Fog"
"2000-09-11 19:00","2000","09","11","19:00","21.0","","20.3","","96","","18","","13","","8.0","","100.31","","29","","","","Fog"
"2000-09-11 20:00","2000","09","11","20:00","21.2","","20.4","","95","","17","","19","","9.7","","100.31","","29","","","","Fog"
"2000-09-11 21:00","2000","09","11","21:00","21.0","","20.2","","95","","17","","22","","6.4","","100.31","","29","","","","Fog"
"2000-09-11 22:00","2000","09","11","22:00","21.1","","19.9","","93","","17","","26","","8.0","","100.28","","29","","","","Fog"
"2000-09-11 23:00","2000","09","11","23:00"
"2000-09-12 00:00","2000","09","12","00:00"
"2000-09-12 01:00","2000","09","12","01:00"
"2000-09-12 02:00","2000","09","12","02:00"
"2000-09-12 03:00","2000","09","12","03:00"
"2000-09-12 04:00","2000","09","12","04:00"
"2000-09-12 05:00","2000","09","12","05:00","20.7","","19.5","","93","","18","","28","","8.0","","99.91","","28","","","","Fog"
"2000-09-12 06:00","2000","09","12","06:00","21.1","","19.8","","92","","19","","30","","8.0","","99.87","","29","","","","Fog"
"2000-09-12 07:00","2000","09","12","07:00","21.3","","19.7","","91","","19","","37","","11.3","","99.91","","29","","","","Mostly Cloudy"
"2000-09-12 08:00","2000","09","12","08:00","21.2","","19.8","","92","","18","","30","","12.9","","99.84","","29","","","","Mostly Cloudy"
"2000-09-12 09:00","2000","09","12","09:00","21.9","","20.2","","90","","19","","37","","12.9","","99.81","","30","","","","Mostly Cloudy"
"2000-09-12 10:00","2000","09","12","10:00","22.6","","20.4","","87","","18","","33","","11.3","","99.74","","31","","","","Mainly Clear"
"2000-09-12 11:00","2000","09","12","11:00","22.0","","20.4","","91","","19","","24","","9.7","","99.71","","30","","","","Fog"
"2000-09-12 12:00","2000","09","12","12:00","22.2","","20.6","","91","","21","","22","","9.7","","99.74","","30","","","","Fog"
"2000-09-12 13:00","2000","09","12","13:00","21.9","","20.7","","93","","22","","17","","8.0","","99.71","","30","","","","Rain Showers,Fog"
"2000-09-12 14:00","2000","09","12","14:00","21.9","","21.1","","95","","20","","11","","12.9","","99.64","","30","","","","Cloudy"
"2000-09-12 15:00","2000","09","12","15:00","23.4","","20.9","","86","","24","","26","","12.9","","99.54","","32","","","","Mostly Cloudy"
"2000-09-12 16:00","2000","09","12","16:00","23.6","","20.6","","83","","26","","26","","19.3","","99.47","","32","","","","Mostly Cloudy"
"2000-09-12 17:00","2000","09","12","17:00","23.7","","20.6","","83","","24","","22","","19.3","","99.57","","32","","","","Mostly Cloudy"
"2000-09-12 18:00","2000","09","12","18:00","23.3","","20.1","","82","","24","","19","","19.3","","99.64","","31","","","","Cloudy"
"2000-09-12 19:00","2000","09","12","19:00","22.1","","19.9","","87","","25","","24","","19.3","","99.71","","30","","","","Mostly Cloudy"
"2000-09-12 20:00","2000","09","12","20:00","21.5","","18.3","","82","","29","","17","","24.1","","99.84","","28","","","","Cloudy"
"2000-09-12 21:00","2000","09","12","21:00","19.9","","17.2","","84","","31","","20","","24.1","","99.84","","","","","","Cloudy"
"2000-09-12 22:00","2000","09","12","22:00","18.7","","16.4","","86","","31","","17","","24.1","","99.94","","","","","","Mostly Cloudy"
"2000-09-12 23:00","2000","09","12","23:00"
"2000-09-13 00:00","2000","09","13","00:00"
"2000-09-13 01:00","2000","09","13","01:00"
"2000-09-13 02:00","2000","09","13","02:00"
"2000-09-13 03:00","2000","09","13","03:00"
"2000-09-13 04:00","2000","09","13","04:00"
"2000-09-13 05:00","2000","09","13","05:00","13.0","","11.7","","92","","32","","13","","24.1","","100.31","","","","","","Mainly Clear"
"2000-09-13 06:00","2000","09","13","06:00","12.3","","11.2","","93","","30","","9","","24.1","","100.34","","","","","","Mainly Clear"
"2000-09-13 07:00","2000","09","13","07:00","12.7","","11.3","","91","","30","","11","","24.1","","100.41","","","","","","Mainly Clear"
"2000-09-13 08:00","2000","09","13","08:00","14.0","","11.2","","83","","33","","15","","24.1","","100.48","","","","","","Mainly Clear"
"2000-09-13 09:00","2000","09","13","09:00","16.0","","12.1","","78","","33","","13","","24.1","","100.51","","","","","","Mainly Clear"
"2000-09-13 10:00","2000","09","13","10:00","17.9","","13.1","","73","","33","","7","","24.1","","100.51","","","","","","Mainly Clear"
"2000-09-13 11:00","2000","09","13","11:00","18.8","","12.4","","66","","31","","11","","24.1","","100.51","","","","","","Mainly Clear"
"2000-09-13 12:00","2000","09","13","12:00","19.6","","10.6","","56","","29","","13","","24.1","","100.51","","","","","","Mainly Clear"
"2000-09-13 13:00","2000","09","13","13:00","20.3","","10.0","","52","","28","","15","","24.1","","100.48","","","","","","Mainly Clear"
"2000-09-13 14:00","2000","09","13","14:00","20.7","","8.9","","47","","27","","11","","24.1","","100.44","","","","","","Mainly Clear"
"2000-09-13 15:00","2000","09","13","15:00","21.2","","9.0","","46","","25","","20","","24.1","","100.44","","","","","","Mainly Clear"
"2000-09-13 16:00","2000","09","13","16:00","20.9","","9.1","","47","","24","","15","","24.1","","100.41","","","","","","Clear"
"2000-09-13 17:00","2000","09","13","17:00","19.9","","11.4","","58","","25","","26","","24.1","","100.41","","","","","","Clear"
"2000-09-13 18:00","2000","09","13","18:00","18.3","","11.7","","65","","25","","20","","24.1","","100.44","","","","","","Mainly Clear"
"2000-09-13 19:00","2000","09","13","19:00","17.3","","11.8","","70","","22","","15","","24.1","","100.48","","","","","","Mainly Clear"
"2000-09-13 20:00","2000","09","13","20:00","17.4","","12.3","","72","","23","","15","","24.1","","100.48","","","","","","Mainly Clear"
"2000-09-13 21:00","2000","09","13","21:00","17.5","","12.9","","74","","22","","15","","24.1","","100.51","","","","","","Mostly Cloudy"
"2000-09-13 22:00","2000","09","13","22:00","17.9","","13.9","","77","","23","","9","","24.1","","100.51","","","","","","Mostly Cloudy"
"2000-09-13 23:00","2000","09","13","23:00"
"2000-09-14 00:00","2000","09","14","00:00"
"2000-09-14 01:00","2000","09","14","01:00"
"2000-09-14 02:00","2000","09","14","02:00"
"2000-09-14 03:00","2000","09","14","03:00"
"2000-09-14 04:00","2000","09","14","04:00"
"2000-09-14 05:00","2000","09","14","05:00","18.3","","13.9","","76","","20","","20","","24.1","","100.31","","","","","","Mostly Cloudy"
"2000-09-14 06:00","2000","09","14","06:00","17.6","","11.8","","69","","22","","17","","24.1","","100.31","","","","","","Mostly Cloudy"
"2000-09-14 07:00","2000","09","14","07:00","18.1","","15.2","","83","","20","","20","","24.1","","100.28","","","","","","Mostly Cloudy"
"2000-09-14 08:00","2000","09","14","08:00","18.6","","16.1","","85","","19","","22","","24.1","","100.28","","","","","","Mostly Cloudy"
"2000-09-14 09:00","2000","09","14","09:00","17.8","","15.9","","89","","18","","28","","24.1","","100.28","","","","","","Mostly Cloudy"
"2000-09-14 10:00","2000","09","14","10:00","18.6","","15.9","","84","","20","","26","","24.1","","100.21","","","","","","Mostly Cloudy"
"2000-09-14 11:00","2000","09","14","11:00","19.4","","16.2","","82","","21","","30","","24.1","","100.18","","","","","","Cloudy"
"2000-09-14 12:00","2000","09","14","12:00","19.5","","16.4","","82","","20","","22","","24.1","","100.11","","","","","","Mostly Cloudy"
"2000-09-14 13:00","2000","09","14","13:00","19.5","","16.3","","82","","20","","20","","24.1","","100.01","","","","","","Cloudy"
"2000-09-14 14:00","2000","09","14","14:00","19.4","","16.4","","83","","19","","19","","24.1","","99.91","","","","","","Cloudy"
"2000-09-14 15:00","2000","09","14","15:00","19.1","","16.3","","84","","20","","19","","19.3","","99.87","","","","","","Rain"
"2000-09-14 16:00","2000","09","14","16:00","16.6","","15.6","","94","","33","","9","","16.1","","99.87","","","","","","Rain"
"2000-09-14 17:00","2000","09","14","17:00","16.5","","15.6","","94","","","","0","","12.9","","99.84","","","","","","Rain"
"2000-09-14 18:00","2000","09","14","18:00","16.2","","15.8","","97","","9","","4","","16.1","","99.77","","","","","","Rain"
"2000-09-14 19:00","2000","09","14","19:00","16.3","","15.8","","97","","10","","7","","12.9","","99.67","","","","","","Rain"
"2000-09-14 20:00","2000","09","14","20:00","17.2","","15.4","","89","","14","","11","","16.1","","99.60","","","","","","Cloudy"
"2000-09-14 21:00","2000","09","14","21:00","16.3","","15.4","","94","","36","","6","","19.3","","99.50","","","","","","Rain"
"2000-09-14 22:00","2000","09","14","22:00","15.9","","15.5","","97","","31","","20","","3.2","","99.50","","","","","","Moderate Rain,Fog"
"2000-09-14 23:00","2000","09","14","23:00"
"2000-09-15 00:00","2000","09","15","00:00"
"2000-09-15 01:00","2000","09","15","01:00"
"2000-09-15 02:00","2000","09","15","02:00"
"2000-09-15 03:00","2000","09","15","03:00"
"2000-09-15 04:00","2000","09","15","04:00"
"2000-09-15 05:00","2000","09","15","05:00","11.8","","11.4","","97","","28","","13","","24.1","","99.27","","","","","","Mostly Cloudy"
"2000-09-15 06:00","2000","09","15","06:00","12.1","","11.6","","97","","28","","13","","24.1","","99.27","","","","","","Cloudy"
"2000-09-15 07:00","2000","09","15","07:00","12.6","","12.1","","97","","29","","13","","24.1","","99.27","","","","","","Mostly Cloudy"
"2000-09-15 08:00","2000","09","15","08:00","13.9","","12.8","","93","","31","","15","","24.1","","99.20","","","","","","Mainly Clear"
"2000-09-15 09:00","2000","09","15","09:00","15.3","","12.8","","85","","35","","24","","24.1","","99.24","","","","","","Mostly Cloudy"
"2000-09-15 10:00","2000","09","15","10:00","15.7","","12.0","","79","","34","","17","","24.1","","99.27","","","","","","Mostly Cloudy"
"2000-09-15 11:00","2000","09","15","11:00","15.6","","10.6","","72","","33","","24","","24.1","","99.27","","","","","","Mostly Cloudy"
"2000-09-15 12:00","2000","09","15","12:00","16.0","","10.8","","71","","34","","26","","24.1","","99.30","","","","","","Mostly Cloudy"
"2000-09-15 13:00","2000","09","15","13:00","15.5","","10.3","","71","","34","","17","","24.1","","99.34","","","","","","Mostly Cloudy"
"2000-09-15 14:00","2000","09","15","14:00","15.5","","10.1","","70","","35","","20","","24.1","","99.37","","","","","","Mostly Cloudy"
"2000-09-15 15:00","2000","09","15","15:00","13.8","","10.0","","78","","31","","24","","24.1","","99.44","","","","","","Rain Showers"
"2000-09-15 16:00","2000","09","15","16:00","13.3","","9.1","","76","","34","","24","","24.1","","99.47","","","","","","Mostly Cloudy"
"2000-09-15 17:00","2000","09","15","17:00","13.5","","9.0","","74","","34","","24","","24.1","","99.54","","","","","","Mostly Cloudy"
"2000-09-15 18:00","2000","09","15","18:00","13.3","","8.7","","74","","35","","15","","24.1","","99.60","","","","","","Mostly Cloudy"
"2000-09-15 19:00","2000","09","15","19:00","12.4","","7.8","","73","","35","","11","","24.1","","99.64","","","","","","Mostly Cloudy"
"2000-09-15 20:00","2000","09","15","20:00","11.4","","8.5","","82","","35","","9","","24.1","","99.71","","","","","","Mainly Clear"
"2000-09-15 21:00","2000","09","15","21:00","10.3","","7.4","","82","","35","","7","","24.1","","99.71","","","","","","Mainly Clear"
"2000-09-15 22:00","2000","09","15","22:00","10.2","","7.8","","85","","28","","7","","24.1","","99.74","","","","","","Mainly Clear"
"2000-09-15 23:00","2000","09","15","23:00"
"2000-09-16 00:00","2000","09","16","00:00"
"2000-09-16 01:00","2000","09","16","01:00"
"2000-09-16 02:00","2000","09","16","02:00"
"2000-09-16 03:00","2000","09","16","03:00"
"2000-09-16 04:00","2000","09","16","04:00"
"2000-09-16 05:00","2000","09","16","05:00","6.6","","4.9","","89","","31","","15","","24.1","","99.87","","","","","","Mainly Clear"
"2000-09-16 06:00","2000","09","16","06:00","6.4","","4.6","","88","","32","","17","","24.1","","99.84","","","","","","Mainly Clear"
"2000-09-16 07:00","2000","09","16","07:00","7.0","","4.9","","86","","31","","15","","24.1","","99.91","","","","","","Mainly Clear"
"2000-09-16 08:00","2000","09","16","08:00","9.4","","5.8","","78","","30","","19","","24.1","","99.94","","","","","","Mainly Clear"
"2000-09-16 09:00","2000","09","16","09:00","11.1","","4.9","","66","","31","","22","","24.1","","99.94","","","","","","Mainly Clear"
"2000-09-16 10:00","2000","09","16","10:00","12.1","","5.7","","65","","29","","19","","24.1","","99.97","","","","","","Mostly Cloudy"
"2000-09-16 11:00","2000","09","16","11:00","12.9","","6.0","","63","","29","","15","","24.1","","99.97","","","","","","Mostly Cloudy"
"2000-09-16 12:00","2000","09","16","12:00","13.8","","5.5","","57","","27","","19","","24.1","","99.94","","","","","","Mostly Cloudy"
"2000-09-16 13:00","2000","09","16","13:00","14.0","","5.6","","57","","31","","19","","24.1","","99.94","","","","","","Mostly Cloudy"
"2000-09-16 14:00","2000","09","16","14:00","14.3","","5.6","","56","","29","","22","","24.1","","99.94","","","","","","Mostly Cloudy"
"2000-09-16 15:00","2000","09","16","15:00","13.9","","4.8","","54","","27","","20","","24.1","","99.97","","","","","","Mostly Cloudy"
"2000-09-16 16:00","2000","09","16","16:00","14.2","","4.4","","52","","28","","22","","24.1","","99.97","","","","","","Mostly Cloudy"
"2000-09-16 17:00","2000","09","16","17:00","14.3","","4.7","","52","","28","","17","","24.1","","99.97","","","","","","Mainly Clear"
"2000-09-16 18:00","2000","09","16","18:00","13.2","","4.7","","56","","28","","11","","24.1","","100.01","","","","","","Mainly Clear"
"2000-09-16 19:00","2000","09","16","19:00","11.9","","4.8","","62","","27","","17","","24.1","","100.07","","","","","","Mainly Clear"
"2000-09-16 20:00","2000","09","16","20:00","10.8","","5.0","","67","","27","","17","","24.1","","100.14","","","","","","Mainly Clear"
"2000-09-16 21:00","2000","09","16","21:00","10.1","","4.7","","69","","28","","19","","24.1","","100.21","","","","","","Mainly Clear"
"2000-09-16 22:00","2000","09","16","22:00","9.9","","4.8","","71","","27","","15","","24.1","","100.21","","","","","","Mainly Clear"
"2000-09-16 23:00","2000","09","16","23:00"
"2000-09-17 00:00","2000","09","17","00:00"
"2000-09-17 01:00","2000","09","17","01:00"
"2000-09-17 02:00","2000","09","17","02:00"
"2000-09-17 03:00","2000","09","17","03:00"
"2000-09-17 04:00","2000","09","17","04:00"
"2000-09-17 05:00","2000","09","17","05:00","13.7","","10.1","","79","","27","","20","","24.1","","100.07","","","","","","Cloudy"
"2000-09-17 06:00","2000","09","17","06:00","14.3","","10.3","","77","","26","","20","","24.1","","100.04","","","","","","Mostly Cloudy"
"2000-09-17 07:00","2000","09","17","07:00","14.7","","11.2","","80","","25","","32","","24.1","","100.01","","","","","","Mostly Cloudy"
"2000-09-17 08:00","2000","09","17","08:00","15.0","","11.7","","81","","25","","35","","24.1","","99.97","","","","","","Mostly Cloudy"
"2000-09-17 09:00","2000","09","17","09:00","16.0","","11.6","","75","","25","","35","","24.1","","99.97","","","","","","Mostly Cloudy"
"2000-09-17 10:00","2000","09","17","10:00","16.6","","11.2","","70","","24","","30","","24.1","","99.91","","","","","","Mostly Cloudy"
"2000-09-17 11:00","2000","09","17","11:00","18.1","","12.6","","70","","25","","46","","24.1","","99.87","","","","","","Mainly Clear"
"2000-09-17 12:00","2000","09","17","12:00","18.5","","12.3","","67","","26","","35","","24.1","","99.87","","","","","","Mostly Cloudy"
"2000-09-17 13:00","2000","09","17","13:00","18.2","","11.3","","64","","26","","33","","24.1","","99.84","","","","","","Mostly Cloudy"
"2000-09-17 14:00","2000","09","17","14:00","18.5","","11.6","","64","","25","","30","","24.1","","99.84","","","","","","Mostly Cloudy"
"2000-09-17 15:00","2000","09","17","15:00","18.4","","11.8","","65","","24","","26","","24.1","","99.81","","","","","","Mostly Cloudy"
"2000-09-17 16:00","2000","09","17","16:00","18.9","","12.5","","66","","24","","26","","24.1","","99.81","","","","","","Mostly Cloudy"
"2000-09-17 17:00","2000","09","17","17:00","18.7","","12.7","","68","","25","","20","","24.1","","99.84","","","","","","Mostly Cloudy"
"2000-09-17 18:00","2000","09","17","18:00","17.7","","12.9","","73","","23","","17","","24.1","","99.84","","","","","","Mostly Cloudy"
"2000-09-17 19:00","2000","09","17","19:00","17.6","","14.8","","84","","25","","19","","24.1","","99.87","","","","","","Mostly Cloudy"
"2000-09-17 20:00","2000","09","17","20:00","17.6","","15.1","","85","","25","","20","","24.1","","99.94","","","","","","Mostly Cloudy"
"2000-09-17 21:00","2000","09","17","21:00","16.9","","13.9","","82","","27","","19","","24.1","","100.01","","","","","","Mainly Clear"
"2000-09-17 22:00","2000","09","17","22:00","16.0","","12.3","","79","","28","","19","","24.1","","100.07","","","","","","Mainly Clear"
"2000-09-17 23:00","2000","09","17","23:00"
"2000-09-18 00:00","2000","09","18","00:00"
"2000-09-18 01:00","2000","09","18","01:00"
"2000-09-18 02:00","2000","09","18","02:00"
"2000-09-18 03:00","2000","09","18","03:00"
"2000-09-18 04:00","2000","09","18","04:00"
"2000-09-18 05:00","2000","09","18","05:00","9.0","","8.5","","97","","35","","9","","24.1","","100.41","","","","","","Mainly Clear"
"2000-09-18 06:00","2000","09","18","06:00","8.2","","8.1","","99","","36","","9","","24.1","","100.51","","","","","","Mainly Clear"
"2000-09-18 07:00","2000","09","18","07:00","10.3","","9.8","","97","","1","","6","","24.1","","100.61","","","","","","Mainly Clear"
"2000-09-18 08:00","2000","09","18","08:00","14.0","","10.2","","78","","6","","9","","24.1","","100.64","","","","","","Mainly Clear"
"2000-09-18 09:00","2000","09","18","09:00","16.0","","11.4","","74","","11","","9","","24.1","","100.68","","","","","","Mainly Clear"
"2000-09-18 10:00","2000","09","18","10:00","16.4","","12.9","","80","","18","","9","","24.1","","100.75","","","","","","Mainly Clear"
"2000-09-18 11:00","2000","09","18","11:00","16.6","","13.4","","81","","19","","11","","24.1","","100.75","","","","","","Mainly Clear"
"2000-09-18 12:00","2000","09","18","12:00","17.1","","14.4","","84","","19","","20","","24.1","","100.68","","","","","","Mainly Clear"
"2000-09-18 13:00","2000","09","18","13:00","17.7","","14.0","","79","","19","","28","","24.1","","100.68","","","","","","Mainly Clear"
"2000-09-18 14:00","2000","09","18","14:00","18.2","","14.2","","77","","20","","20","","24.1","","100.61","","","","","","Mainly Clear"
"2000-09-18 15:00","2000","09","18","15:00","18.0","","13.7","","76","","20","","20","","24.1","","100.58","","","","","","Mainly Clear"
"2000-09-18 16:00","2000","09","18","16:00","18.4","","13.1","","71","","22","","19","","24.1","","100.51","","","","","","Mainly Clear"
"2000-09-18 17:00","2000","09","18","17:00","18.8","","11.0","","60","","20","","20","","24.1","","100.48","","","","","","Mainly Clear"
"2000-09-18 18:00","2000","09","18","18:00","17.0","","13.1","","78","","20","","20","","24.1","","100.48","","","","","","Mainly Clear"
"2000-09-18 19:00","2000","09","18","19:00","16.6","","14.2","","86","","21","","11","","24.1","","100.51","","","","","","Mainly Clear"
"2000-09-18 20:00","2000","09","18","20:00","16.4","","14.5","","89","","","","0","","24.1","","100.51","","","","","","Mainly Clear"
"2000-09-18 21:00","2000","09","18","21:00","16.5","","14.8","","90","","18","","9","","24.1","","100.48","","","","","","Mainly Clear"
"2000-09-18 22:00","2000","09","18","22:00","16.9","","15.5","","91","","18","","7","","24.1","","100.41","","","","","","Mainly Clear"
"2000-09-18 23:00","2000","09","18","23:00"
"2000-09-19 00:00","2000","09","19","00:00"
"2000-09-19 01:00","2000","09","19","01:00"
"2000-09-19 02:00","2000","09","19","02:00"
"2000-09-19 03:00","2000","09","19","03:00"
"2000-09-19 04:00","2000","09","19","04:00"
"2000-09-19 05:00","2000","09","19","05:00","17.6","","16.2","","92","","20","","20","","19.3","","100.28","","","","","","Cloudy"
"2000-09-19 06:00","2000","09","19","06:00","17.3","","16.3","","94","","19","","19","","19.3","","100.31","","","","","","Mostly Cloudy"
"2000-09-19 07:00","2000","09","19","07:00","17.5","","16.0","","91","","20","","19","","19.3","","100.31","","","","","","Mostly Cloudy"
"2000-09-19 08:00","2000","09","19","08:00","17.6","","16.0","","90","","19","","20","","19.3","","100.31","","","","","","Mainly Clear"
"2000-09-19 09:00","2000","09","19","09:00","18.4","","16.2","","87","","19","","15","","24.1","","100.31","","","","","","Mainly Clear"
"2000-09-19 10:00","2000","09","19","10:00","19.0","","16.9","","88","","18","","15","","16.1","","100.31","","","","","","Mainly Clear"
"2000-09-19 11:00","2000","09","19","11:00","18.9","","16.3","","85","","21","","15","","19.3","","100.24","","","","","","Mainly Clear"
"2000-09-19 12:00","2000","09","19","12:00","19.3","","17.0","","87","","19","","17","","19.3","","100.21","","","","","","Mainly Clear"
"2000-09-19 13:00","2000","09","19","13:00","19.4","","17.2","","87","","19","","19","","19.3","","100.14","","","","","","Mainly Clear"
"2000-09-19 14:00","2000","09","19","14:00","19.4","","17.3","","88","","20","","17","","19.3","","100.11","","","","","","Mainly Clear"
"2000-09-19 15:00","2000","09","19","15:00","19.8","","17.6","","87","","18","","13","","19.3","","100.01","","","","","","Mainly Clear"
"2000-09-19 16:00","2000","09","19","16:00","19.8","","16.9","","83","","20","","13","","19.3","","99.94","","","","","","Mostly Cloudy"
"2000-09-19 17:00","2000","09","19","17:00","19.3","","17.0","","87","","16","","7","","19.3","","99.91","","","","","","Mostly Cloudy"
"2000-09-19 18:00","2000","09","19","18:00","18.5","","16.7","","89","","17","","7","","19.3","","99.91","","","","","","Mostly Cloudy"
"2000-09-19 19:00","2000","09","19","19:00","18.4","","16.2","","87","","17","","11","","24.1","","99.84","","","","","","Mostly Cloudy"
"2000-09-19 20:00","2000","09","19","20:00","18.6","","15.9","","84","","19","","19","","24.1","","99.84","","","","","","Mainly Clear"
"2000-09-19 21:00","2000","09","19","21:00","18.3","","16.0","","86","","20","","13","","24.1","","99.84","","","","","","Mainly Clear"
"2000-09-19 22:00","2000","09","19","22:00","18.3","","16.5","","89","","19","","20","","24.1","","99.84","","","","","","Clear"
"2000-09-19 23:00","2000","09","19","23:00"
"2000-09-20 00:00","2000","09","20","00:00"
"2000-09-20 01:00","2000","09","20","01:00"
"2000-09-20 02:00","2000","09","20","02:00"
"2000-09-20 03:00","2000","09","20","03:00"
"2000-09-20 04:00","2000","09","20","04:00"
"2000-09-20 05:00","2000","09","20","05:00","17.2","","16.8","","97","","18","","15","","16.1","","99.74","","","","","","Mainly Clear"
"2000-09-20 06:00","2000","09","20","06:00","17.4","","16.5","","94","","18","","17","","16.1","","99.74","","","","","","Mostly Cloudy"
"2000-09-20 07:00","2000","09","20","07:00","17.7","","16.4","","92","","19","","17","","16.1","","99.71","","","","","","Mostly Cloudy"
"2000-09-20 08:00","2000","09","20","08:00","18.2","","16.7","","91","","18","","19","","16.1","","99.71","","","","","","Mostly Cloudy"
"2000-09-20 09:00","2000","09","20","09:00","18.4","","16.6","","89","","18","","19","","16.1","","99.71","","","","","","Mostly Cloudy"
"2000-09-20 10:00","2000","09","20","10:00","19.4","","17.2","","87","","20","","17","","16.1","","99.71","","","","","","Mostly Cloudy"
"2000-09-20 11:00","2000","09","20","11:00","20.0","","17.4","","85","","18","","9","","16.1","","99.64","","26","","","","Mostly Cloudy"
"2000-09-20 12:00","2000","09","20","12:00","20.1","","17.8","","87","","18","","22","","16.1","","99.54","","26","","","","Mainly Clear"
"2000-09-20 13:00","2000","09","20","13:00","20.4","","17.6","","84","","19","","17","","19.3","","99.47","","26","","","","Mostly Cloudy"
"2000-09-20 14:00","2000","09","20","14:00","20.7","","18.3","","86","","18","","20","","19.3","","99.44","","27","","","","Mostly Cloudy"
"2000-09-20 15:00","2000","09","20","15:00","21.0","","18.3","","85","","19","","17","","16.1","","99.37","","27","","","","Mostly Cloudy"
"2000-09-20 16:00","2000","09","20","16:00","21.5","","18.5","","83","","22","","9","","16.1","","99.34","","28","","","","Mostly Cloudy"
"2000-09-20 17:00","2000","09","20","17:00","22.0","","18.2","","79","","24","","7","","19.3","","99.27","","28","","","","Cloudy"
"2000-09-20 18:00","2000","09","20","18:00","20.1","","17.7","","86","","21","","7","","19.3","","99.20","","26","","","","Mostly Cloudy"
"2000-09-20 19:00","2000","09","20","19:00","19.3","","17.5","","89","","19","","9","","19.3","","99.13","","","","","","Mostly Cloudy"
"2000-09-20 20:00","2000","09","20","20:00","19.6","","17.5","","88","","19","","17","","16.1","","99.10","","","","","","Mostly Cloudy"
"2000-09-20 21:00","2000","09","20","21:00","20.2","","17.5","","84","","18","","26","","16.1","","98.97","","26","","","","Cloudy"
"2000-09-20 22:00","2000","09","20","22:00","20.3","","17.4","","83","","18","","33","","16.1","","98.87","","26","","","","Cloudy"
"2000-09-20 23:00","2000","09","20","23:00"
"2000-09-21 00:00","2000","09","21","00:00"
"2000-09-21 01:00","2000","09","21","01:00"
"2000-09-21 02:00","2000","09","21","02:00"
"2000-09-21 03:00","2000","09","21","03:00"
"2000-09-21 04:00","2000","09","21","04:00"
"2000-09-21 05:00","2000","09","21","05:00","14.8","","13.1","","90","","26","","37","","24.1","","98.93","","","","","","Cloudy"
"2000-09-21 06:00","2000","09","21","06:00","14.6","","11.8","","83","","25","","30","","24.1","","99.17","","","","","","Mostly Cloudy"
"2000-09-21 07:00","2000","09","21","07:00","14.7","","11.6","","82","","25","","33","","24.1","","99.24","","","","","","Mainly Clear"
"2000-09-21 08:00","2000","09","21","08:00","15.3","","11.6","","79","","25","","33","","24.1","","99.27","","","","","","Mainly Clear"
"2000-09-21 09:00","2000","09","21","09:00","16.2","","11.1","","72","","25","","30","","24.1","","99.34","","","","","","Mainly Clear"
"2000-09-21 10:00","2000","09","21","10:00","16.5","","11.1","","70","","25","","39","","24.1","","99.37","","","","","","Mostly Cloudy"
"2000-09-21 11:00","2000","09","21","11:00","16.4","","10.3","","67","","25","","41","","24.1","","99.40","","","","","","Mostly Cloudy"
"2000-09-21 12:00","2000","09","21","12:00","14.7","","9.8","","72","","28","","28","","24.1","","99.50","","","","","","Mostly Cloudy"
"2000-09-21 13:00","2000","09","21","13:00","15.8","","8.4","","61","","25","","41","","24.1","","99.57","","","","","","Mostly Cloudy"
"2000-09-21 14:00","2000","09","21","14:00","16.4","","9.4","","63","","25","","41","","24.1","","99.64","","","","","","Mostly Cloudy"
"2000-09-21 15:00","2000","09","21","15:00","15.4","","9.1","","66","","25","","41","","24.1","","99.74","","","","","","Mostly Cloudy"
"2000-09-21 16:00","2000","09","21","16:00","14.8","","8.8","","67","","25","","41","","24.1","","99.84","","","","","","Mostly Cloudy"
"2000-09-21 17:00","2000","09","21","17:00","14.6","","9.1","","70","","25","","28","","24.1","","99.94","","","","","","Mostly Cloudy"
"2000-09-21 18:00","2000","09","21","18:00","14.0","","9.0","","72","","25","","39","","24.1","","100.04","","","","","","Mostly Cloudy"
"2000-09-21 19:00","2000","09","21","19:00","13.8","","9.0","","73","","25","","37","","24.1","","100.18","","","","","","Rain Showers"
"2000-09-21 20:00","2000","09","21","20:00","13.1","","8.9","","76","","27","","22","","24.1","","100.31","","","","","","Rain Showers"
"2000-09-21 21:00","2000","09","21","21:00","11.4","","10.1","","92","","29","","17","","12.9","","100.38","","","","","","Rain Showers"
"2000-09-21 22:00","2000","09","21","22:00","11.7","","9.9","","89","","27","","17","","24.1","","100.41","","","","","","Cloudy"
"2000-09-21 23:00","2000","09","21","23:00"
"2000-09-22 00:00","2000","09","22","00:00"
"2000-09-22 01:00","2000","09","22","01:00"
"2000-09-22 02:00","2000","09","22","02:00"
"2000-09-22 03:00","2000","09","22","03:00"
"2000-09-22 04:00","2000","09","22","04:00"
"2000-09-22 05:00","2000","09","22","05:00","8.8","","5.0","","77","","35","","17","","24.1","","100.98","","","","","","Mostly Cloudy"
"2000-09-22 06:00","2000","09","22","06:00","7.6","","3.5","","75","","36","","13","","24.1","","101.08","","","","","","Mainly Clear"
"2000-09-22 07:00","2000","09","22","07:00","7.3","","3.5","","77","","36","","13","","24.1","","101.15","","","","","","Mainly Clear"
"2000-09-22 08:00","2000","09","22","08:00","8.8","","3.0","","67","","1","","19","","24.1","","101.18","","","","","","Mainly Clear"
"2000-09-22 09:00","2000","09","22","09:00","10.5","","3.0","","60","","1","","11","","24.1","","101.22","","","","","","Mainly Clear"
"2000-09-22 10:00","2000","09","22","10:00","11.7","","2.7","","54","","1","","11","","24.1","","101.25","","","","","","Mainly Clear"
"2000-09-22 11:00","2000","09","22","11:00","12.7","","3.0","","52","","6","","9","","24.1","","101.22","","","","","","Mainly Clear"
"2000-09-22 12:00","2000","09","22","12:00","13.1","","5.5","","60","","17","","17","","24.1","","101.15","","","","","","Mainly Clear"
"2000-09-22 13:00","2000","09","22","13:00","13.5","","6.2","","61","","18","","15","","24.1","","101.11","","","","","","Mainly Clear"
"2000-09-22 14:00","2000","09","22","14:00","13.3","","6.4","","63","","19","","17","","24.1","","101.11","","","","","","Mainly Clear"
"2000-09-22 15:00","2000","09","22","15:00","14.0","","6.7","","61","","22","","13","","24.1","","101.08","","","","","","Mainly Clear"
"2000-09-22 16:00","2000","09","22","16:00","13.4","","4.4","","54","","25","","6","","24.1","","101.05","","","","","","Mostly Cloudy"
"2000-09-22 17:00","2000","09","22","17:00","13.1","","6.0","","62","","18","","6","","24.1","","101.05","","","","","","Mostly Cloudy"
"2000-09-22 18:00","2000","09","22","18:00","13.1","","6.0","","62","","31","","4","","24.1","","101.05","","","","","","Mostly Cloudy"
"2000-09-22 19:00","2000","09","22","19:00","12.1","","7.7","","74","","36","","6","","24.1","","101.01","","","","","","Cloudy"
"2000-09-22 20:00","2000","09","22","20:00","12.5","","7.3","","71","","5","","7","","24.1","","100.98","","","","","","Cloudy"
"2000-09-22 21:00","2000","09","22","21:00","12.1","","7.4","","73","","7","","7","","24.1","","100.91","","","","","","Cloudy"
"2000-09-22 22:00","2000","09","22","22:00","13.5","","7.7","","68","","12","","19","","24.1","","100.81","","","","","","Cloudy"
"2000-09-22 23:00","2000","09","22","23:00"
"2000-09-23 00:00","2000","09","23","00:00"
"2000-09-23 01:00","2000","09","23","01:00"
"2000-09-23 02:00","2000","09","23","02:00"
"2000-09-23 03:00","2000","09","23","03:00"
"2000-09-23 04:00","2000","09","23","04:00"
"2000-09-23 05:00","2000","09","23","05:00","12.0","","9.8","","86","","11","","13","","12.9","","100.44","","","","","","Rain"
"2000-09-23 06:00","2000","09","23","06:00","13.6","","12.9","","96","","15","","30","","9.7","","100.31","","","","","","Rain,Fog"
"2000-09-23 07:00","2000","09","23","07:00","13.3","","12.7","","96","","14","","15","","8.0","","100.34","","","","","","Rain,Fog"
"2000-09-23 08:00","2000","09","23","08:00","13.7","","13.3","","97","","15","","26","","4.0","","100.21","","","","","","Rain,Fog"
"2000-09-23 09:00","2000","09","23","09:00","14.6","","14.3","","98","","17","","32","","8.0","","100.07","","","","","","Rain,Fog"
"2000-09-23 10:00","2000","09","23","10:00","15.0","","14.6","","97","","18","","22","","12.9","","100.01","","","","","","Rain"
"2000-09-23 11:00","2000","09","23","11:00","15.7","","14.9","","95","","19","","28","","12.9","","99.97","","","","","","Rain"
"2000-09-23 12:00","2000","09","23","12:00","16.1","","15.2","","94","","19","","32","","16.1","","99.87","","","","","","Cloudy"
"2000-09-23 13:00","2000","09","23","13:00","16.4","","15.4","","94","","18","","30","","16.1","","99.77","","","","","","Cloudy"
"2000-09-23 14:00","2000","09","23","14:00","16.7","","16.2","","97","","19","","19","","4.8","","99.71","","","","","","Fog"
"2000-09-23 15:00","2000","09","23","15:00","17.6","","16.7","","94","","20","","24","","6.4","","99.67","","","","","","Rain Showers,Fog"
"2000-09-23 16:00","2000","09","23","16:00","18.3","","16.8","","91","","21","","22","","11.3","","99.71","","","","","","Cloudy"
"2000-09-23 17:00","2000","09","23","17:00","18.2","","16.9","","92","","20","","26","","11.3","","99.67","","","","","","Rain Showers"
"2000-09-23 18:00","2000","09","23","18:00","17.8","","17.2","","96","","19","","22","","8.0","","99.60","","","","","","Rain Showers,Fog"
"2000-09-23 19:00","2000","09","23","19:00","17.8","","17.5","","98","","23","","6","","8.0","","99.57","","","","","","Rain Showers,Fog"
"2000-09-23 20:00","2000","09","23","20:00","18.2","","17.7","","97","","21","","24","","8.0","","99.57","","","","","","Rain Showers,Fog"
"2000-09-23 21:00","2000","09","23","21:00","18.3","","17.6","","96","","21","","26","","8.0","","99.54","","","","","","Rain Showers,Fog"
"2000-09-23 22:00","2000","09","23","22:00","18.2","","18.0","","99","","25","","15","","8.0","","99.54","","","","","","Thunderstorms,Rain Showers,Fog"
"2000-09-23 23:00","2000","09","23","23:00"
"2000-09-24 00:00","2000","09","24","00:00"
"2000-09-24 01:00","2000","09","24","01:00"
"2000-09-24 02:00","2000","09","24","02:00"
"2000-09-24 03:00","2000","09","24","03:00"
"2000-09-24 04:00","2000","09","24","04:00"
"2000-09-24 05:00","2000","09","24","05:00","11.9","","10.2","","89","","1","","20","","24.1","","99.91","","","","","","Cloudy"
"2000-09-24 06:00","2000","09","24","06:00","11.3","","9.0","","86","","36","","17","","24.1","","100.01","","","","","","Mostly Cloudy"
"2000-09-24 07:00","2000","09","24","07:00","11.0","","8.3","","83","","36","","13","","24.1","","100.07","","","","","","Mostly Cloudy"
"2000-09-24 08:00","2000","09","24","08:00","11.5","","8.6","","82","","36","","15","","24.1","","100.11","","","","","","Mostly Cloudy"
"2000-09-24 09:00","2000","09","24","09:00","12.3","","8.5","","78","","35","","26","","24.1","","100.18","","","","","","Mostly Cloudy"
"2000-09-24 10:00","2000","09","24","10:00","12.8","","8.4","","75","","35","","13","","24.1","","100.18","","","","","","Mostly Cloudy"
"2000-09-24 11:00","2000","09","24","11:00","13.6","","7.9","","68","","36","","15","","24.1","","100.18","","","","","","Mostly Cloudy"
"2000-09-24 12:00","2000","09","24","12:00","13.5","","7.6","","67","","34","","15","","24.1","","100.18","","","","","","Mostly Cloudy"
"2000-09-24 13:00","2000","09","24","13:00","13.5","","7.3","","66","","35","","13","","24.1","","100.18","","","","","","Mostly Cloudy"
"2000-09-24 14:00","2000","09","24","14:00","14.2","","6.6","","60","","30","","13","","24.1","","100.18","","","","","","Mostly Cloudy"
"2000-09-24 15:00","2000","09","24","15:00","15.0","","6.4","","56","","35","","15","","24.1","","100.11","","","","","","Mainly Clear"
"2000-09-24 16:00","2000","09","24","16:00","14.6","","5.6","","55","","33","","13","","24.1","","100.11","","","","","","Mainly Clear"
"2000-09-24 17:00","2000","09","24","17:00","14.3","","4.9","","53","","35","","6","","24.1","","100.18","","","","","","Mainly Clear"
"2000-09-24 18:00","2000","09","24","18:00","12.8","","3.7","","54","","2","","7","","24.1","","100.21","","","","","","Mainly Clear"
"2000-09-24 19:00","2000","09","24","19:00","10.1","","4.3","","67","","36","","9","","24.1","","100.24","","","","","","Mainly Clear"
"2000-09-24 20:00","2000","09","24","20:00","9.6","","3.9","","68","","2","","9","","24.1","","100.28","","","","","","Mainly Clear"
"2000-09-24 21:00","2000","09","24","21:00","8.4","","3.8","","73","","3","","11","","24.1","","100.31","","","","","","Clear"
"2000-09-24 22:00","2000","09","24","22:00","6.6","","4.0","","83","","4","","7","","24.1","","100.38","","","","","","Clear"
"2000-09-24 23:00","2000","09","24","23:00"
"2000-09-25 00:00","2000","09","25","00:00"
"2000-09-25 01:00","2000","09","25","01:00"
"2000-09-25 02:00","2000","09","25","02:00"
"2000-09-25 03:00","2000","09","25","03:00"
"2000-09-25 04:00","2000","09","25","04:00"
"2000-09-25 05:00","2000","09","25","05:00","3.0","","1.9","","92","","35","","6","","24.1","","100.61","","","","","","Mainly Clear"
"2000-09-25 06:00","2000","09","25","06:00","2.0","","1.2","","94","","36","","9","","24.1","","100.68","","","","","","Mainly Clear"
"2000-09-25 07:00","2000","09","25","07:00","3.7","","2.8","","94","","35","","13","","24.1","","100.71","","","","","","Mainly Clear"
"2000-09-25 08:00","2000","09","25","08:00","6.3","","3.6","","83","","34","","9","","24.1","","100.78","","","","","","Mainly Clear"
"2000-09-25 09:00","2000","09","25","09:00","8.7","","1.6","","61","","35","","4","","24.1","","100.81","","","","","","Mainly Clear"
"2000-09-25 10:00","2000","09","25","10:00","10.1","","2.0","","57","","35","","4","","24.1","","100.78","","","","","","Mainly Clear"
"2000-09-25 11:00","2000","09","25","11:00","11.3","","2.3","","54","","","","0","","24.1","","100.71","","","","","","Mainly Clear"
"2000-09-25 12:00","2000","09","25","12:00","11.8","","4.4","","60","","19","","15","","24.1","","100.71","","","","","","Mainly Clear"
"2000-09-25 13:00","2000","09","25","13:00","12.0","","4.7","","61","","18","","13","","24.1","","100.68","","","","","","Mostly Cloudy"
"2000-09-25 14:00","2000","09","25","14:00","12.2","","4.7","","60","","15","","9","","24.1","","100.61","","","","","","Mostly Cloudy"
"2000-09-25 15:00","2000","09","25","15:00","11.7","","4.1","","60","","18","","9","","24.1","","100.61","","","","","","Mostly Cloudy"
"2000-09-25 16:00","2000","09","25","16:00","11.8","","4.8","","62","","20","","9","","24.1","","100.54","","","","","","Mostly Cloudy"
"2000-09-25 17:00","2000","09","25","17:00","11.6","","4.7","","63","","19","","7","","24.1","","100.51","","","","","","Cloudy"
"2000-09-25 18:00","2000","09","25","18:00","11.3","","3.9","","60","","","","0","","24.1","","100.54","","","","","","Cloudy"
"2000-09-25 19:00","2000","09","25","19:00","9.5","","6.3","","80","","35","","7","","24.1","","100.58","","","","","","Cloudy"
"2000-09-25 20:00","2000","09","25","20:00","8.4","","6.1","","85","","35","","9","","24.1","","100.61","","","","","","Cloudy"
"2000-09-25 21:00","2000","09","25","21:00","8.0","","5.9","","87","","35","","11","","24.1","","100.61","","","","","","Cloudy"
"2000-09-25 22:00","2000","09","25","22:00","7.5","","5.8","","89","","35","","11","","24.1","","100.61","","","","","","Cloudy"
"2000-09-25 23:00","2000","09","25","23:00"
"2000-09-26 00:00","2000","09","26","00:00"
"2000-09-26 01:00","2000","09","26","01:00"
"2000-09-26 02:00","2000","09","26","02:00"
"2000-09-26 03:00","2000","09","26","03:00"
"2000-09-26 04:00","2000","09","26","04:00"
"2000-09-26 05:00","2000","09","26","05:00","6.2","","4.9","","91","","4","","9","","24.1","","100.58","","","","","","Mostly Cloudy"
"2000-09-26 06:00","2000","09","26","06:00","6.0","","4.7","","91","","3","","7","","24.1","","100.61","","","","","","Mostly Cloudy"
"2000-09-26 07:00","2000","09","26","07:00","6.7","","5.4","","91","","35","","6","","24.1","","100.68","","","","","","Mostly Cloudy"
"2000-09-26 08:00","2000","09","26","08:00","8.8","","6.5","","85","","3","","6","","24.1","","100.68","","","","","","Mostly Cloudy"
"2000-09-26 09:00","2000","09","26","09:00","11.7","","6.3","","69","","","","0","","24.1","","100.75","","","","","","Mostly Cloudy"
"2000-09-26 10:00","2000","09","26","10:00","13.5","","5.5","","58","","13","","4","","24.1","","100.75","","","","","","Mostly Cloudy"
"2000-09-26 11:00","2000","09","26","11:00","13.8","","4.4","","53","","24","","7","","24.1","","100.71","","","","","","Mostly Cloudy"
"2000-09-26 12:00","2000","09","26","12:00","14.4","","3.7","","49","","18","","9","","24.1","","100.68","","","","","","Mostly Cloudy"
"2000-09-26 13:00","2000","09","26","13:00","14.6","","4.5","","51","","18","","13","","24.1","","100.61","","","","","","Mainly Clear"
"2000-09-26 14:00","2000","09","26","14:00","14.4","","5.2","","54","","19","","17","","24.1","","100.58","","","","","","Mainly Clear"
"2000-09-26 15:00","2000","09","26","15:00","14.6","","5.2","","53","","20","","19","","24.1","","100.54","","","","","","Mainly Clear"
"2000-09-26 16:00","2000","09","26","16:00","14.3","","6.0","","57","","21","","22","","24.1","","100.54","","","","","","Mainly Clear"
"2000-09-26 17:00","2000","09","26","17:00","13.9","","7.3","","64","","20","","22","","24.1","","100.54","","","","","","Mainly Clear"
"2000-09-26 18:00","2000","09","26","18:00","13.3","","7.5","","68","","22","","17","","24.1","","100.54","","","","","","Mainly Clear"
"2000-09-26 19:00","2000","09","26","19:00","12.6","","7.0","","69","","23","","17","","24.1","","100.54","","","","","","Mainly Clear"
"2000-09-26 20:00","2000","09","26","20:00","12.3","","7.0","","70","","25","","13","","24.1","","100.58","","","","","","Clear"
"2000-09-26 21:00","2000","09","26","21:00","12.2","","7.8","","74","","26","","11","","24.1","","100.61","","","","","","Clear"
"2000-09-26 22:00","2000","09","26","22:00","12.0","","8.7","","80","","25","","6","","24.1","","100.58","","","","","","Clear"
"2000-09-26 23:00","2000","09","26","23:00"
"2000-09-27 00:00","2000","09","27","00:00"
"2000-09-27 01:00","2000","09","27","01:00"
"2000-09-27 02:00","2000","09","27","02:00"
"2000-09-27 03:00","2000","09","27","03:00"
"2000-09-27 04:00","2000","09","27","04:00"
"2000-09-27 05:00","2000","09","27","05:00","13.1","","11.1","","88","","23","","19","","24.1","","100.41","","","","","","Mainly Clear"
"2000-09-27 06:00","2000","09","27","06:00","13.3","","11.8","","91","","23","","22","","24.1","","100.41","","","","","","Mainly Clear"
"2000-09-27 07:00","2000","09","27","07:00","14.0","","12.2","","89","","25","","22","","24.1","","100.44","","","","","","Mainly Clear"
"2000-09-27 08:00","2000","09","27","08:00","14.9","","12.6","","86","","25","","24","","24.1","","100.44","","","","","","Mainly Clear"
"2000-09-27 09:00","2000","09","27","09:00","16.0","","12.5","","80","","24","","26","","24.1","","100.44","","","","","","Mainly Clear"
"2000-09-27 10:00","2000","09","27","10:00","16.7","","12.0","","74","","24","","26","","24.1","","100.44","","","","","","Mainly Clear"
"2000-09-27 11:00","2000","09","27","11:00","17.8","","11.4","","66","","24","","24","","24.1","","100.41","","","","","","Mainly Clear"
"2000-09-27 12:00","2000","09","27","12:00","18.0","","11.1","","64","","24","","26","","19.3","","100.41","","","","","","Mainly Clear"
"2000-09-27 13:00","2000","09","27","13:00","18.7","","11.6","","63","","23","","20","","19.3","","100.41","","","","","","Mainly Clear"
"2000-09-27 14:00","2000","09","27","14:00","18.9","","12.0","","64","","24","","19","","24.1","","100.34","","","","","","Mostly Cloudy"
"2000-09-27 15:00","2000","09","27","15:00","19.3","","12.4","","64","","23","","19","","24.1","","100.34","","","","","","Mostly Cloudy"
"2000-09-27 16:00","2000","09","27","16:00","18.4","","12.3","","68","","27","","19","","19.3","","100.38","","","","","","Mostly Cloudy"
"2000-09-27 17:00","2000","09","27","17:00","16.5","","11.7","","73","","35","","22","","24.1","","100.44","","","","","","Cloudy"
"2000-09-27 18:00","2000","09","27","18:00","14.9","","10.1","","73","","36","","17","","24.1","","100.51","","","","","","Cloudy"
"2000-09-27 19:00","2000","09","27","19:00","13.5","","9.1","","75","","35","","26","","24.1","","100.58","","","","","","Cloudy"
"2000-09-27 20:00","2000","09","27","20:00","10.3","","7.9","","85","","3","","19","","24.1","","100.75","","","","","","Rain Showers"
"2000-09-27 21:00","2000","09","27","21:00","9.1","","4.6","","73","","2","","24","","24.1","","100.85","","","","","","Cloudy"
"2000-09-27 22:00","2000","09","27","22:00","8.7","","3.6","","70","","1","","17","","24.1","","100.95","","","","","","Cloudy"
"2000-09-27 23:00","2000","09","27","23:00"
"2000-09-28 00:00","2000","09","28","00:00"
"2000-09-28 01:00","2000","09","28","01:00"
"2000-09-28 02:00","2000","09","28","02:00"
"2000-09-28 03:00","2000","09","28","03:00"
"2000-09-28 04:00","2000","09","28","04:00"
"2000-09-28 05:00","2000","09","28","05:00","1.6","","-2.4","","75","","1","","9","","24.1","","101.45","","","","","","Mainly Clear"
"2000-09-28 06:00","2000","09","28","06:00","0.8","","-2.7","","77","","36","","15","","24.1","","101.48","","","","","","Mainly Clear"
"2000-09-28 07:00","2000","09","28","07:00","1.4","","-2.2","","77","","36","","11","","24.1","","101.58","","","","","","Clear"
"2000-09-28 08:00","2000","09","28","08:00","3.3","","-2.7","","65","","36","","24","","24.1","","101.65","","","","","","Mainly Clear"
"2000-09-28 09:00","2000","09","28","09:00","4.8","","-3.4","","55","","2","","17","","24.1","","101.72","","","","","","Mainly Clear"
"2000-09-28 10:00","2000","09","28","10:00","5.6","","-6.5","","41","","3","","24","","24.1","","101.72","","","","","","Mainly Clear"
"2000-09-28 11:00","2000","09","28","11:00","7.3","","-4.4","","43","","2","","20","","24.1","","101.75","","","","","","Mainly Clear"
"2000-09-28 12:00","2000","09","28","12:00","7.0","","-3.3","","48","","1","","9","","24.1","","101.75","","","","","","Mainly Clear"
"2000-09-28 13:00","2000","09","28","13:00","8.2","","-3.2","","44","","36","","15","","24.1","","101.69","","","","","","Mainly Clear"
"2000-09-28 14:00","2000","09","28","14:00","8.5","","-3.3","","43","","31","","11","","24.1","","101.65","","","","","","Mainly Clear"
"2000-09-28 15:00","2000","09","28","15:00","8.6","","-3.3","","43","","33","","11","","24.1","","101.62","","","","","","Mainly Clear"
"2000-09-28 16:00","2000","09","28","16:00","8.6","","-3.7","","42","","34","","9","","24.1","","101.58","","","","","","Mainly Clear"
"2000-09-28 17:00","2000","09","28","17:00","8.5","","-3.9","","41","","36","","4","","24.1","","101.62","","","","","","Mainly Clear"
"2000-09-28 18:00","2000","09","28","18:00","7.7","","-4.5","","42","","","","0","","24.1","","101.62","","","","","","Clear"
"2000-09-28 19:00","2000","09","28","19:00","6.3","","-3.3","","50","","","","0","","24.1","","101.65","","","","","","Clear"
"2000-09-28 20:00","2000","09","28","20:00","3.9","","0.3","","77","","36","","7","","24.1","","101.72","","","","","","Clear"
"2000-09-28 21:00","2000","09","28","21:00","1.7","","-0.1","","88","","1","","4","","24.1","","101.72","","","","","","Clear"
"2000-09-28 22:00","2000","09","28","22:00","1.1","","-0.5","","89","","36","","6","","24.1","","101.75","","","","","","Clear"
"2000-09-28 23:00","2000","09","28","23:00"
"2000-09-29 00:00","2000","09","29","00:00"
"2000-09-29 01:00","2000","09","29","01:00"
"2000-09-29 02:00","2000","09","29","02:00"
"2000-09-29 03:00","2000","09","29","03:00"
"2000-09-29 04:00","2000","09","29","04:00"
"2000-09-29 05:00","2000","09","29","05:00","-0.7","","-1.9","","92","","36","","7","","24.1","","101.82","","","","-3","","Mainly Clear"
"2000-09-29 06:00","2000","09","29","06:00","-0.7","","-1.7","","93","","35","","11","","24.1","","101.85","","","","-4","","Mainly Clear"
"2000-09-29 07:00","2000","09","29","07:00","1.2","","-0.3","","90","","36","","6","","24.1","","101.85","","","","","","Mainly Clear"
"2000-09-29 08:00","2000","09","29","08:00","6.2","","3.6","","83","","35","","6","","24.1","","101.89","","","","","","Mainly Clear"
"2000-09-29 09:00","2000","09","29","09:00","9.4","","4.0","","69","","20","","7","","24.1","","101.89","","","","","","Mainly Clear"
"2000-09-29 10:00","2000","09","29","10:00","10.8","","3.6","","61","","26","","11","","24.1","","101.92","","","","","","Mainly Clear"
"2000-09-29 11:00","2000","09","29","11:00","11.2","","4.8","","65","","20","","22","","24.1","","101.89","","","","","","Mainly Clear"
"2000-09-29 12:00","2000","09","29","12:00","11.3","","5.9","","69","","21","","20","","24.1","","101.82","","","","","","Mainly Clear"
"2000-09-29 13:00","2000","09","29","13:00","11.4","","6.0","","69","","22","","26","","24.1","","101.79","","","","","","Mainly Clear"
"2000-09-29 14:00","2000","09","29","14:00","11.3","","5.8","","69","","21","","22","","24.1","","101.75","","","","","","Mainly Clear"
"2000-09-29 15:00","2000","09","29","15:00","11.3","","5.9","","69","","19","","22","","24.1","","101.69","","","","","","Mainly Clear"
"2000-09-29 16:00","2000","09","29","16:00","11.7","","5.5","","66","","21","","20","","24.1","","101.62","","","","","","Mainly Clear"
"2000-09-29 17:00","2000","09","29","17:00","11.9","","5.1","","63","","22","","15","","24.1","","101.55","","","","","","Mostly Cloudy"
"2000-09-29 18:00","2000","09","29","18:00","11.5","","5.6","","67","","23","","13","","24.1","","101.52","","","","","","Mainly Clear"
"2000-09-29 19:00","2000","09","29","19:00","11.5","","5.6","","67","","24","","9","","24.1","","101.52","","","","","","Mainly Clear"
"2000-09-29 20:00","2000","09","29","20:00","12.6","","6.3","","65","","22","","13","","24.1","","101.48","","","","","","Mostly Cloudy"
"2000-09-29 21:00","2000","09","29","21:00","14.5","","7.3","","62","","20","","20","","24.1","","101.45","","","","","","Mostly Cloudy"
"2000-09-29 22:00","2000","09","29","22:00","14.4","","8.8","","69","","19","","28","","24.1","","101.38","","","","","","Mainly Clear"
"2000-09-29 23:00","2000","09","29","23:00"
"2000-09-30 00:00","2000","09","30","00:00"
"2000-09-30 01:00","2000","09","30","01:00"
"2000-09-30 02:00","2000","09","30","02:00"
"2000-09-30 03:00","2000","09","30","03:00"
"2000-09-30 04:00","2000","09","30","04:00"
"2000-09-30 05:00","2000","09","30","05:00","13.7","","9.6","","76","","22","","20","","24.1","","101.25","","","","","","Mainly Clear"
"2000-09-30 06:00","2000","09","30","06:00","13.6","","9.6","","77","","21","","28","","24.1","","101.25","","","","","","Mostly Cloudy"
"2000-09-30 07:00","2000","09","30","07:00","13.4","","9.4","","77","","20","","28","","24.1","","101.25","","","","","","Mostly Cloudy"
"2000-09-30 08:00","2000","09","30","08:00","13.2","","9.6","","79","","20","","24","","24.1","","101.25","","","","","","Mostly Cloudy"
"2000-09-30 09:00","2000","09","30","09:00","13.0","","8.8","","76","","20","","28","","24.1","","101.25","","","","","","Mostly Cloudy"
"2000-09-30 10:00","2000","09","30","10:00","13.9","","9.6","","75","","20","","20","","24.1","","101.22","","","","","","Mostly Cloudy"
"2000-09-30 11:00","2000","09","30","11:00","14.5","","10.0","","74","","20","","26","","24.1","","101.15","","","","","","Mostly Cloudy"
"2000-09-30 12:00","2000","09","30","12:00","14.9","","10.2","","73","","20","","26","","24.1","","101.11","","","","","","Mostly Cloudy"
"2000-09-30 13:00","2000","09","30","13:00","15.1","","10.5","","74","","20","","28","","24.1","","101.05","","","","","","Mostly Cloudy"
"2000-09-30 14:00","2000","09","30","14:00","16.0","","11.5","","75","","20","","26","","24.1","","100.98","","","","","","Mostly Cloudy"
"2000-09-30 15:00","2000","09","30","15:00","16.3","","12.2","","77","","20","","24","","24.1","","100.91","","","","","","Cloudy"
"2000-09-30 16:00","2000","09","30","16:00","16.5","","12.9","","79","","20","","20","","24.1","","100.88","","","","","","Cloudy"
"2000-09-30 17:00","2000","09","30","17:00","15.9","","13.9","","88","","19","","15","","24.1","","100.85","","","","","","Cloudy"
"2000-09-30 18:00","2000","09","30","18:00","16.0","","12.9","","82","","22","","13","","24.1","","100.81","","","","","","Cloudy"
"2000-09-30 19:00","2000","09","30","19:00","16.1","","13.6","","85","","19","","17","","24.1","","100.81","","","","","","Cloudy"
"2000-09-30 20:00","2000","09","30","20:00","16.1","","13.8","","86","","20","","15","","24.1","","100.81","","","","","","Mostly Cloudy"
"2000-09-30 21:00","2000","09","30","21:00","15.8","","14.5","","92","","19","","15","","24.1","","100.81","","","","","","Mostly Cloudy"
"2000-09-30 22:00","2000","09","30","22:00","15.8","","14.7","","93","","19","","13","","19.3","","100.85","","","","","","Mostly Cloudy"
"2000-09-30 23:00","2000","09","30","23:00"
