"Station Name","KINGSTON A"
"Province","ONTARIO"
"Latitude","44.22"
"Longitude","-76.60"
"Elevation","92.40"
"Climate Identifier","6104146"
"WMO Identifier",""
"TC Identifier","YGK"
"All times are specified in Local Standard Time (LST). Add 1 hour to adjust for Daylight Saving Time where and when it is observed."

"Legend"
"E","Estimated"
"M","Missing"
"NA","Not Available"

"Date/Time","Year","Month","Day","Time","Temp (°C)","Temp Flag","Dew Point Temp (°C)","Dew Point Temp Flag","Rel Hum (%)","Rel Hum Flag","Wind Dir (10s deg)","Wind Dir Flag","Wind Spd (km/h)","Wind Spd Flag","Visibility (km)","Visibility Flag","Stn Press (kPa)","Stn Press Flag","Hmdx","Hmdx Flag","Wind Chill","Wind Chill Flag","Weather"
"1995-02-01 00:00","1995","02","01","00:00","","M","","M","","M","23","","22","","","M","","M","","","","","NA"
"1995-02-01 01:00","1995","02","01","01:00","","M","","M","","M","23","","20","","","M","","M","","","","","NA"
"1995-02-01 02:00","1995","02","01","02:00","","M","","M","","M","23","","24","","","M","","M","","","","","NA"
"1995-02-01 03:00","1995","02","01","03:00","","M","","M","","M","23","","24","","","M","","M","","","","","NA"
"1995-02-01 04:00","1995","02","01","04:00","","M","","M","","M","23","","26","","","M","","M","","","","","NA"
"1995-02-01 05:00","1995","02","01","05:00","","M","","M","","M","23","","24","","","M","","M","","","","","NA"
"1995-02-01 06:00","1995","02","01","06:00","1.1","","-0.8","","87","","25","","15","","12.9","","98.53","","","","","","Cloudy"
"1995-02-01 07:00","1995","02","01","07:00","1.1","","-0.8","","87","","25","","19","","8.0","","98.56","","","","","","Fog"
"1995-02-01 08:00","1995","02","01","08:00","1.4","","-0.7","","86","","24","","19","","8.0","","98.63","","","","","","Haze"
"1995-02-01 09:00","1995","02","01","09:00","1.2","","-0.4","","89","","24","","15","","8.0","","98.66","","","","","","Fog"
"1995-02-01 10:00","1995","02","01","10:00","2.0","","-0.1","","86","","24","","19","","8.0","","98.66","","","","","","Fog"
"1995-02-01 11:00","1995","02","01","11:00","2.7","","0.1","","83","","24","","22","","9.7","","98.70","","","","","","Haze"
"1995-02-01 12:00","1995","02","01","12:00","2.4","","-0.3","","82","","24","","22","","12.9","","98.63","","","","","","Cloudy"
"1995-02-01 13:00","1995","02","01","13:00","2.4","","-0.2","","83","","24","","22","","11.3","","98.63","","","","","","Cloudy"
"1995-02-01 14:00","1995","02","01","14:00","3.1","","-0.1","","79","","27","","22","","11.3","","98.63","","","","","","Rain,Snow"
"1995-02-01 15:00","1995","02","01","15:00","2.2","","-0.2","","84","","25","","19","","11.3","","98.63","","","","","","Cloudy"
"1995-02-01 16:00","1995","02","01","16:00","1.7","","-0.3","","87","","25","","19","","11.3","","98.66","","","","","","Cloudy"
"1995-02-01 17:00","1995","02","01","17:00","1.4","","-0.5","","87","","25","","15","","8.0","","98.70","","","","","","Fog"
"1995-02-01 18:00","1995","02","01","18:00","1.2","","-0.6","","88","","26","","19","","8.0","","98.80","","","","","","Snow Showers,Fog"
"1995-02-01 19:00","1995","02","01","19:00","0.1","","-1.2","","91","","34","","11","","3.2","","98.93","","","","","","Snow Showers,Fog"
"1995-02-01 20:00","1995","02","01","20:00","-0.3","","-1.7","","90","","36","","15","","4.0","","98.97","","","","-5","","Snow Showers,Fog"
"1995-02-01 21:00","1995","02","01","21:00","-1.4","","-4.5","","79","","36","","22","","12.9","","99.03","","","","-7","","Snow Showers"
"1995-02-01 22:00","1995","02","01","22:00","-2.8","","-7.3","","71","","36","","19","","24.1","","99.13","","","","-9","","Cloudy"
"1995-02-01 23:00","1995","02","01","23:00","-4.6","","-10.0","","66","","36","","19","","24.1","","99.24","","","","-11","","Cloudy"
"1995-02-02 00:00","1995","02","02","00:00","","M","","M","","M","36","","22","","","M","","M","","","","","NA"
"1995-02-02 01:00","1995","02","02","01:00","","M","","M","","M","36","","19","","","M","","M","","","","","NA"
"1995-02-02 02:00","1995","02","02","02:00","","M","","M","","M","1","","20","","","M","","M","","","","","NA"
"1995-02-02 03:00","1995","02","02","03:00","","M","","M","","M","35","","19","","","M","","M","","","","","NA"
"1995-02-02 04:00","1995","02","02","04:00","","M","","M","","M","35","","24","","","M","","M","","","","","NA"
"1995-02-02 05:00","1995","02","02","05:00","","M","","M","","M","36","","22","","","M","","M","","","","","NA"
"1995-02-02 06:00","1995","02","02","06:00","-13.9","","-18.4","","69","","35","","22","","25.0","","99.97","","","","-23","","Mainly Clear"
"1995-02-02 07:00","1995","02","02","07:00","-14.7","","-18.7","","72","","1","","19","","25.0","","100.07","","","","-24","","Mainly Clear"
"1995-02-02 08:00","1995","02","02","08:00","-14.9","","-19.4","","68","","1","","19","","25.0","","100.18","","","","-24","","Mainly Clear"
"1995-02-02 09:00","1995","02","02","09:00","-14.8","","-19.5","","67","","2","","19","","25.0","","100.21","","","","-24","","Mainly Clear"
"1995-02-02 10:00","1995","02","02","10:00","-13.9","","-18.7","","67","","36","","19","","25.0","","100.31","","","","-23","","Mainly Clear"
"1995-02-02 11:00","1995","02","02","11:00","-12.8","","-18.5","","62","","2","","17","","25.0","","100.31","","","","-21","","Mainly Clear"
"1995-02-02 12:00","1995","02","02","12:00","-11.5","","-18.5","","56","","34","","19","","25.0","","100.31","","","","-20","","Mainly Clear"
"1995-02-02 13:00","1995","02","02","13:00","-10.4","","-17.2","","57","","1","","15","","25.0","","100.28","","","","-17","","Mainly Clear"
"1995-02-02 14:00","1995","02","02","14:00","-9.2","","-17.2","","52","","35","","15","","25.0","","100.31","","","","-16","","Mainly Clear"
"1995-02-02 15:00","1995","02","02","15:00","-8.1","","-16.7","","50","","33","","19","","25.0","","100.38","","","","-15","","Mainly Clear"
"1995-02-02 16:00","1995","02","02","16:00","-8.3","","-17.7","","47","","36","","6","","25.0","","100.41","","","","-12","","Mainly Clear"
"1995-02-02 17:00","1995","02","02","17:00","-8.4","","-17.5","","48","","2","","9","","25.0","","100.44","","","","-13","","Mainly Clear"
"1995-02-02 18:00","1995","02","02","18:00","-9.4","","-17.4","","52","","1","","7","","25.0","","100.54","","","","-13","","Mainly Clear"
"1995-02-02 19:00","1995","02","02","19:00","-9.8","","-17.2","","55","","4","","7","","25.0","","100.64","","","","-14","","Mainly Clear"
"1995-02-02 20:00","1995","02","02","20:00","-11.0","","-17.4","","59","","2","","6","","25.0","","100.68","","","","-15","","Mainly Clear"
"1995-02-02 21:00","1995","02","02","21:00","-11.9","","-18.0","","60","","36","","4","","25.0","","100.75","","","","-14","","Clear"
"1995-02-02 22:00","1995","02","02","22:00","-12.5","","-18.1","","63","","","","0","","25.0","","100.78","","","","","","Clear"
"1995-02-02 23:00","1995","02","02","23:00","-14.3","","-17.9","","74","","33","","7","","25.0","","100.81","","","","-19","","Clear"
"1995-02-03 00:00","1995","02","03","00:00","","M","","M","","M","33","","7","","","M","","M","","","","","NA"
"1995-02-03 01:00","1995","02","03","01:00","","M","","M","","M","32","","4","","","M","","M","","","","","NA"
"1995-02-03 02:00","1995","02","03","02:00","","M","","M","","M","34","","7","","","M","","M","","","","","NA"
"1995-02-03 03:00","1995","02","03","03:00","","M","","M","","M","33","","9","","","M","","M","","","","","NA"
"1995-02-03 04:00","1995","02","03","04:00","","M","","M","","M","34","","11","","","M","","M","","","","","NA"
"1995-02-03 05:00","1995","02","03","05:00","","M","","M","","M","1","","7","","","M","","M","","","","","NA"
"1995-02-03 06:00","1995","02","03","06:00","-15.3","","-19.9","","68","","36","","9","","25.0","","101.01","","","","-21","","Clear"
"1995-02-03 07:00","1995","02","03","07:00","-15.7","","-20.3","","68","","2","","7","","25.0","","101.05","","","","-21","","Clear"
"1995-02-03 08:00","1995","02","03","08:00","-15.0","","-19.6","","68","","4","","6","","25.0","","101.05","","","","-19","","Mainly Clear"
"1995-02-03 09:00","1995","02","03","09:00","-12.7","","-19.4","","57","","4","","11","","25.0","","101.01","","","","-19","","Mostly Cloudy"
"1995-02-03 10:00","1995","02","03","10:00","-10.6","","-17.3","","58","","6","","6","","25.0","","101.01","","","","-14","","Mainly Clear"
"1995-02-03 11:00","1995","02","03","11:00","-9.3","","-16.9","","54","","14","","6","","25.0","","100.98","","","","-13","","Mainly Clear"
"1995-02-03 12:00","1995","02","03","12:00","-8.2","","-13.9","","63","","14","","4","","25.0","","100.88","","","","-10","","Mainly Clear"
"1995-02-03 13:00","1995","02","03","13:00","-7.6","","-13.5","","63","","19","","7","","25.0","","100.81","","","","-11","","Mainly Clear"
"1995-02-03 14:00","1995","02","03","14:00","-7.3","","-13.1","","63","","16","","4","","25.0","","100.71","","","","-9","","Mostly Cloudy"
"1995-02-03 15:00","1995","02","03","15:00","-6.9","","-13.5","","59","","16","","6","","25.0","","100.64","","","","-10","","Mostly Cloudy"
"1995-02-03 16:00","1995","02","03","16:00","-7.2","","-13.8","","59","","18","","4","","24.1","","100.58","","","","-9","","Mostly Cloudy"
"1995-02-03 17:00","1995","02","03","17:00","-7.6","","-15.6","","53","","","","0","","24.1","","100.51","","","","","","Mostly Cloudy"
"1995-02-03 18:00","1995","02","03","18:00","-8.2","","-14.5","","60","","","","0","","24.1","","100.44","","","","","","Mostly Cloudy"
"1995-02-03 19:00","1995","02","03","19:00","-8.0","","-14.6","","59","","4","","4","","24.1","","100.41","","","","-10","","Mostly Cloudy"
"1995-02-03 20:00","1995","02","03","20:00","-8.3","","-14.5","","61","","5","","9","","24.1","","100.31","","","","-13","","Mostly Cloudy"
"1995-02-03 21:00","1995","02","03","21:00","-8.4","","-14.1","","63","","7","","11","","24.1","","100.18","","","","-14","","Mostly Cloudy"
"1995-02-03 22:00","1995","02","03","22:00","-8.2","","-14.1","","62","","3","","7","","24.1","","100.18","","","","-12","","Mostly Cloudy"
"1995-02-03 23:00","1995","02","03","23:00","-8.4","","-13.6","","66","","7","","9","","24.1","","100.01","","","","-13","","Mostly Cloudy"
"1995-02-04 00:00","1995","02","04","00:00","","M","","M","","M","3","","9","","","M","","M","","","","","NA"
"1995-02-04 01:00","1995","02","04","01:00","","M","","M","","M","4","","11","","","M","","M","","","","","NA"
"1995-02-04 02:00","1995","02","04","02:00","","M","","M","","M","3","","13","","","M","","M","","","","","NA"
"1995-02-04 03:00","1995","02","04","03:00","","M","","M","","M","3","","11","","","M","","M","","","","","NA"
"1995-02-04 04:00","1995","02","04","04:00","","M","","M","","M","4","","13","","","M","","M","","","","","NA"
"1995-02-04 05:00","1995","02","04","05:00","","M","","M","","M","14","","30","","","M","","M","","","","","NA"
"1995-02-04 06:00","1995","02","04","06:00","-4.7","","-6.5","","87","","13","","19","","3.2","","99.27","","","","-11","","Snow"
"1995-02-04 07:00","1995","02","04","07:00","-5.4","","-6.7","","91","","9","","11","","3.2","","99.24","","","","-10","","Snow"
"1995-02-04 08:00","1995","02","04","08:00","-7.3","","-8.6","","90","","5","","15","","2.4","","99.17","","","","-13","","Snow"
"1995-02-04 09:00","1995","02","04","09:00","-6.7","","-8.1","","90","","6","","13","","1.6","","99.07","","","","-12","","Snow"
"1995-02-04 10:00","1995","02","04","10:00","-5.5","","-6.8","","91","","7","","15","","1.2","","98.97","","","","-11","","Snow"
"1995-02-04 11:00","1995","02","04","11:00","-5.3","","-6.9","","88","","6","","19","","1.6","","98.87","","","","-12","","Snow"
"1995-02-04 12:00","1995","02","04","12:00","-5.4","","-7.3","","86","","5","","19","","3.2","","98.73","","","","-12","","Snow"
"1995-02-04 13:00","1995","02","04","13:00","-5.8","","-7.7","","86","","4","","15","","1.6","","98.56","","","","-12","","Snow"
"1995-02-04 14:00","1995","02","04","14:00","-5.7","","-7.3","","88","","2","","19","","0.8","","98.53","","","","-12","","Moderate Snow"
"1995-02-04 15:00","1995","02","04","15:00","-6.0","","-7.7","","88","","2","","24","","1.2","","98.43","","","","-13","","Snow"
"1995-02-04 16:00","1995","02","04","16:00","-6.2","","-8.3","","85","","36","","19","","1.6","","98.33","","","","-13","","Snow"
"1995-02-04 17:00","1995","02","04","17:00","-7.1","","-9.2","","85","","2","","19","","1.6","","98.36","","","","-14","","Snow"
"1995-02-04 18:00","1995","02","04","18:00","-7.2","","-9.4","","84","","36","","19","","1.6","","98.36","","","","-14","","Snow"
"1995-02-04 19:00","1995","02","04","19:00","-7.7","","-9.4","","88","","35","","19","","1.6","","98.33","","","","-15","","Snow"
"1995-02-04 20:00","1995","02","04","20:00","-8.1","","-9.9","","87","","34","","28","","4.8","","98.26","","","","-17","","Snow"
"1995-02-04 21:00","1995","02","04","21:00","-8.0","","-9.9","","86","","34","","28","","3.2","","98.19","","","","-17","","Snow"
"1995-02-04 22:00","1995","02","04","22:00","-8.0","","-10.2","","84","","33","","19","","6.4","","98.19","","","","-15","","Snow"
"1995-02-04 23:00","1995","02","04","23:00","-7.8","","-10.3","","82","","34","","28","","6.4","","98.13","","","","-16","","Snow"
"1995-02-05 00:00","1995","02","05","00:00","","M","","M","","M","31","","37","","","M","","M","","","","","NA"
"1995-02-05 01:00","1995","02","05","01:00","","M","","M","","M","31","","33","","","M","","M","","","","","NA"
"1995-02-05 02:00","1995","02","05","02:00","","M","","M","","M","31","","33","","","M","","M","","","","","NA"
"1995-02-05 03:00","1995","02","05","03:00","","M","","M","","M","31","","32","","","M","","M","","","","","NA"
"1995-02-05 04:00","1995","02","05","04:00","","M","","M","","M","30","","19","","","M","","M","","","","","NA"
"1995-02-05 05:00","1995","02","05","05:00","","M","","M","","M","31","","28","","","M","","M","","","","","NA"
"1995-02-05 06:00","1995","02","05","06:00","-19.6","","-23.7","","70","","33","","28","","4.8","","98.53","","","","-32","","Snow"
"1995-02-05 07:00","1995","02","05","07:00","-21.0","","-27.3","","57","","33","","22","","4.8","","98.63","","","","-32","","Snow"
"1995-02-05 08:00","1995","02","05","08:00","-21.6","","-27.8","","57","","33","","28","","2.4","","98.73","","","","-34","","Snow"
"1995-02-05 09:00","1995","02","05","09:00","-21.7","","-28.2","","56","","31","","22","","3.2","","98.77","","","","-33","","Snow"
"1995-02-05 10:00","1995","02","05","10:00","-21.5","","-27.7","","57","","33","","19","","3.2","","98.83","","","","-32","","Snow"
"1995-02-05 11:00","1995","02","05","11:00","-21.0","","-28.2","","52","","33","","22","","6.4","","98.83","","","","-32","","Snow"
"1995-02-05 12:00","1995","02","05","12:00","-20.6","","-26.6","","59","","30","","19","","4.8","","98.87","","","","-31","","Snow"
"1995-02-05 13:00","1995","02","05","13:00","-20.0","","-26.0","","59","","30","","24","","2.4","","98.87","","","","-31","","Snow"
"1995-02-05 14:00","1995","02","05","14:00","-19.7","","-25.9","","58","","31","","19","","4.0","","98.90","","","","-30","","Snow"
"1995-02-05 15:00","1995","02","05","15:00","-19.2","","-25.4","","58","","30","","19","","4.8","","98.93","","","","-29","","Snow"
"1995-02-05 16:00","1995","02","05","16:00","-19.4","","-25.9","","56","","29","","19","","3.2","","99.03","","","","-29","","Snow"
"1995-02-05 17:00","1995","02","05","17:00","-19.9","","-26.1","","58","","28","","19","","4.0","","99.07","","","","-30","","Snow"
"1995-02-05 18:00","1995","02","05","18:00","-20.0","","-25.9","","59","","29","","19","","6.4","","99.17","","","","-30","","Snow"
"1995-02-05 19:00","1995","02","05","19:00","-19.9","","-26.6","","55","","30","","22","","19.3","","99.24","","","","-31","","Mostly Cloudy"
"1995-02-05 20:00","1995","02","05","20:00","-20.5","","-30.1","","42","","31","","28","","19.3","","99.34","","","","-33","","Mostly Cloudy"
"1995-02-05 21:00","1995","02","05","21:00","-20.9","","-29.9","","44","","30","","19","","24.1","","99.37","","","","-31","","Mostly Cloudy"
"1995-02-05 22:00","1995","02","05","22:00","-21.7","","-30.8","","44","","29","","19","","24.1","","99.37","","","","-32","","Mostly Cloudy"
"1995-02-05 23:00","1995","02","05","23:00","-22.5","","-31.5","","44","","30","","19","","24.1","","99.40","","","","-33","","Mostly Cloudy"
"1995-02-06 00:00","1995","02","06","00:00","","M","","M","","M","28","","17","","","M","","M","","","","","NA"
"1995-02-06 01:00","1995","02","06","01:00","","M","","M","","M","28","","11","","","M","","M","","","","","NA"
"1995-02-06 02:00","1995","02","06","02:00","","M","","M","","M","27","","13","","","M","","M","","","","","NA"
"1995-02-06 03:00","1995","02","06","03:00","","M","","M","","M","27","","11","","","M","","M","","","","","NA"
"1995-02-06 04:00","1995","02","06","04:00","","M","","M","","M","26","","11","","","M","","M","","","","","NA"
"1995-02-06 05:00","1995","02","06","05:00","","M","","M","","M","26","","11","","","M","","M","","","","","NA"
"1995-02-06 06:00","1995","02","06","06:00","-26.0","","-32.5","","54","","29","","7","","24.1","","99.40","","","","-33","","Clear"
"1995-02-06 07:00","1995","02","06","07:00","-26.5","","-33.0","","54","","29","","9","","24.1","","99.44","","","","-34","","Mainly Clear"
"1995-02-06 08:00","1995","02","06","08:00","-26.3","","-32.9","","54","","31","","13","","24.1","","99.47","","","","-36","","Mainly Clear"
"1995-02-06 09:00","1995","02","06","09:00","-25.1","","-33.2","","47","","31","","19","","24.1","","99.47","","","","-37","","Mainly Clear"
"1995-02-06 10:00","1995","02","06","10:00","-24.5","","-33.2","","44","","33","","19","","24.1","","99.47","","","","-36","","Mainly Clear"
"1995-02-06 11:00","1995","02","06","11:00","-23.3","","-32.7","","42","","31","","19","","24.1","","99.47","","","","-34","","Mainly Clear"
"1995-02-06 12:00","1995","02","06","12:00","-23.1","","-32.7","","41","","30","","11","","24.1","","99.47","","","","-31","","Mainly Clear"
"1995-02-06 13:00","1995","02","06","13:00","-21.8","","-31.7","","40","","28","","22","","24.1","","99.44","","","","-33","","Mostly Cloudy"
"1995-02-06 14:00","1995","02","06","14:00","-21.2","","-32.0","","37","","27","","19","","24.1","","99.44","","","","-32","","Mostly Cloudy"
"1995-02-06 15:00","1995","02","06","15:00","-20.4","","-32.1","","34","","29","","22","","24.1","","99.47","","","","-31","","Cloudy"
"1995-02-06 16:00","1995","02","06","16:00","-20.4","","-31.8","","35","","29","","19","","24.1","","99.50","","","","-31","","Cloudy"
"1995-02-06 17:00","1995","02","06","17:00","-20.5","","-31.5","","37","","28","","24","","24.1","","99.50","","","","-32","","Mostly Cloudy"
"1995-02-06 18:00","1995","02","06","18:00","-21.2","","-31.7","","38","","29","","13","","24.1","","99.57","","","","-30","","Cloudy"
"1995-02-06 19:00","1995","02","06","19:00","-21.6","","-31.3","","41","","28","","11","","24.1","","99.67","","","","-30","","Mostly Cloudy"
"1995-02-06 20:00","1995","02","06","20:00","-22.3","","-31.8","","42","","31","","9","","24.1","","99.71","","","","-29","","Mostly Cloudy"
"1995-02-06 21:00","1995","02","06","21:00","-22.2","","-31.3","","43","","30","","9","","24.1","","99.74","","","","-29","","Mostly Cloudy"
"1995-02-06 22:00","1995","02","06","22:00","-21.6","","-30.7","","44","","30","","13","","24.1","","99.77","","","","-30","","Cloudy"
"1995-02-06 23:00","1995","02","06","23:00","-21.5","","-30.1","","46","","29","","19","","24.1","","99.77","","","","-32","","Cloudy"
"1995-02-07 00:00","1995","02","07","00:00","","M","","M","","M","26","","11","","","M","","M","","","","","NA"
"1995-02-07 01:00","1995","02","07","01:00","","M","","M","","M","24","","17","","","M","","M","","","","","NA"
"1995-02-07 02:00","1995","02","07","02:00","","M","","M","","M","25","","15","","","M","","M","","","","","NA"
"1995-02-07 03:00","1995","02","07","03:00","","M","","M","","M","25","","15","","","M","","M","","","","","NA"
"1995-02-07 04:00","1995","02","07","04:00","","M","","M","","M","25","","13","","","M","","M","","","","","NA"
"1995-02-07 05:00","1995","02","07","05:00","","M","","M","","M","25","","13","","","M","","M","","","","","NA"
"1995-02-07 06:00","1995","02","07","06:00","-19.1","","-27.9","","46","","26","","9","","24.1","","99.87","","","","-26","","Mostly Cloudy"
"1995-02-07 07:00","1995","02","07","07:00","-20.3","","-28.3","","49","","30","","7","","24.1","","99.87","","","","-26","","Mainly Clear"
"1995-02-07 08:00","1995","02","07","08:00","-19.3","","-26.9","","51","","27","","7","","24.1","","99.91","","","","-25","","Mostly Cloudy"
"1995-02-07 09:00","1995","02","07","09:00","-18.2","","-26.4","","49","","28","","6","","24.1","","99.91","","","","-23","","Mostly Cloudy"
"1995-02-07 10:00","1995","02","07","10:00","-16.2","","-25.1","","46","","36","","7","","24.1","","99.87","","","","-21","","Mostly Cloudy"
"1995-02-07 11:00","1995","02","07","11:00","-15.2","","-24.8","","44","","","","0","","24.1","","99.84","","","","","","Mostly Cloudy"
"1995-02-07 12:00","1995","02","07","12:00","-14.6","","-22.4","","51","","15","","7","","24.1","","99.77","","","","-19","","Mostly Cloudy"
"1995-02-07 13:00","1995","02","07","13:00","-13.6","","-20.6","","56","","21","","9","","16.1","","99.71","","","","-19","","Snow"
"1995-02-07 14:00","1995","02","07","14:00","-13.0","","-18.2","","65","","18","","9","","8.0","","99.60","","","","-18","","Snow"
"1995-02-07 15:00","1995","02","07","15:00","-12.2","","-16.1","","73","","","","0","","4.8","","99.57","","","","","","Snow"
"1995-02-07 16:00","1995","02","07","16:00","-11.7","","-15.4","","74","","","","0","","4.0","","99.57","","","","","","Snow"
"1995-02-07 17:00","1995","02","07","17:00","-11.9","","-15.2","","76","","","","0","","9.7","","99.50","","","","","","Snow"
"1995-02-07 18:00","1995","02","07","18:00","-12.4","","-15.1","","80","","","","0","","24.1","","99.50","","","","","","Mostly Cloudy"
"1995-02-07 19:00","1995","02","07","19:00","-13.4","","-16.0","","81","","35","","9","","24.1","","99.54","","","","-19","","Mostly Cloudy"
"1995-02-07 20:00","1995","02","07","20:00","-12.9","","-15.5","","81","","35","","9","","19.3","","99.57","","","","-18","","Snow"
"1995-02-07 21:00","1995","02","07","21:00","-14.7","","-17.5","","79","","33","","9","","24.1","","99.60","","","","-20","","Mostly Cloudy"
"1995-02-07 22:00","1995","02","07","22:00","-15.0","","-17.8","","79","","31","","13","","24.1","","99.60","","","","-22","","Mostly Cloudy"
"1995-02-07 23:00","1995","02","07","23:00","-14.8","","-17.6","","79","","27","","7","","24.1","","99.67","","","","-20","","Mostly Cloudy"
"1995-02-08 00:00","1995","02","08","00:00","","M","","M","","M","27","","11","","","M","","M","","","","","NA"
"1995-02-08 01:00","1995","02","08","01:00","","M","","M","","M","34","","7","","","M","","M","","","","","NA"
"1995-02-08 02:00","1995","02","08","02:00","","M","","M","","M","33","","11","","","M","","M","","","","","NA"
"1995-02-08 03:00","1995","02","08","03:00","","M","","M","","M","29","","11","","","M","","M","","","","","NA"
"1995-02-08 04:00","1995","02","08","04:00","","M","","M","","M","33","","9","","","M","","M","","","","","NA"
"1995-02-08 05:00","1995","02","08","05:00","","M","","M","","M","33","","9","","","M","","M","","","","","NA"
"1995-02-08 06:00","1995","02","08","06:00","-19.8","","-24.3","","67","","36","","13","","24.1","","99.94","","","","-28","","Mainly Clear"
"1995-02-08 07:00","1995","02","08","07:00","-20.9","","-25.2","","68","","36","","13","","24.1","","99.97","","","","-30","","Mainly Clear"
"1995-02-08 08:00","1995","02","08","08:00","-20.0","","-24.8","","66","","36","","11","","24.1","","100.07","","","","-28","","Mainly Clear"
"1995-02-08 09:00","1995","02","08","09:00","-18.5","","-23.9","","62","","1","","11","","24.1","","100.11","","","","-26","","Mainly Clear"
"1995-02-08 10:00","1995","02","08","10:00","-17.1","","-23.0","","60","","36","","13","","24.1","","100.18","","","","-25","","Mainly Clear"
"1995-02-08 11:00","1995","02","08","11:00","-16.1","","-23.2","","54","","33","","9","","24.1","","100.21","","","","-22","","Mainly Clear"
"1995-02-08 12:00","1995","02","08","12:00","-15.3","","-22.0","","57","","21","","11","","24.1","","100.11","","","","-22","","Mainly Clear"
"1995-02-08 13:00","1995","02","08","13:00","-13.5","","-21.8","","50","","27","","19","","24.1","","100.14","","","","-22","","Mainly Clear"
"1995-02-08 14:00","1995","02","08","14:00","-13.0","","-21.9","","47","","26","","15","","24.1","","100.07","","","","-20","","Mostly Cloudy"
"1995-02-08 15:00","1995","02","08","15:00","-12.8","","-21.3","","49","","26","","19","","24.1","","100.07","","","","-21","","Mainly Clear"
"1995-02-08 16:00","1995","02","08","16:00","-12.7","","-21.5","","48","","25","","22","","24.1","","100.11","","","","-22","","Mainly Clear"
"1995-02-08 17:00","1995","02","08","17:00","-13.0","","-21.8","","48","","25","","17","","24.1","","100.07","","","","-21","","Mainly Clear"
"1995-02-08 18:00","1995","02","08","18:00","-13.7","","-22.3","","48","","26","","22","","24.1","","100.11","","","","-23","","Mostly Cloudy"
"1995-02-08 19:00","1995","02","08","19:00","-13.5","","-22.2","","48","","28","","22","","24.1","","100.11","","","","-23","","Cloudy"
"1995-02-08 20:00","1995","02","08","20:00","-13.3","","-21.7","","49","","27","","19","","24.1","","100.14","","","","-22","","Cloudy"
"1995-02-08 21:00","1995","02","08","21:00","-12.6","","-19.4","","57","","27","","15","","24.1","","100.18","","","","-20","","Cloudy"
"1995-02-08 22:00","1995","02","08","22:00","-12.1","","-17.5","","64","","27","","22","","24.1","","100.14","","","","-21","","Cloudy"
"1995-02-08 23:00","1995","02","08","23:00","-11.7","","-16.4","","68","","26","","17","","24.1","","100.11","","","","-19","","Cloudy"
"1995-02-09 00:00","1995","02","09","00:00","","M","","M","","M","26","","15","","","M","","M","","","","","NA"
"1995-02-09 01:00","1995","02","09","01:00","","M","","M","","M","24","","13","","","M","","M","","","","","NA"
"1995-02-09 02:00","1995","02","09","02:00","","M","","M","","M","25","","19","","","M","","M","","","","","NA"
"1995-02-09 03:00","1995","02","09","03:00","","M","","M","","M","25","","22","","","M","","M","","","","","NA"
"1995-02-09 04:00","1995","02","09","04:00","","M","","M","","M","26","","28","","","M","","M","","","","","NA"
"1995-02-09 05:00","1995","02","09","05:00","","M","","M","","M","26","","19","","","M","","M","","","","","NA"
"1995-02-09 06:00","1995","02","09","06:00","-8.5","","-12.3","","74","","26","","22","","16.1","","99.81","","","","-16","","Snow"
"1995-02-09 07:00","1995","02","09","07:00","-8.1","","-11.7","","75","","24","","19","","16.1","","99.77","","","","-15","","Snow"
"1995-02-09 08:00","1995","02","09","08:00","-7.7","","-10.7","","79","","26","","19","","9.7","","99.67","","","","-15","","Snow"
"1995-02-09 09:00","1995","02","09","09:00","-7.5","","-9.3","","87","","26","","7","","2.4","","99.57","","","","-11","","Snow"
"1995-02-09 10:00","1995","02","09","10:00","-5.8","","-7.6","","87","","24","","37","","6.4","","99.54","","","","-15","","Snow"
"1995-02-09 11:00","1995","02","09","11:00","-5.5","","-8.4","","80","","23","","28","","4.0","","99.47","","","","-13","","Snow"
"1995-02-09 12:00","1995","02","09","12:00","-5.9","","-7.4","","89","","23","","28","","0.8","","99.40","","","","-14","","Moderate Snow"
"1995-02-09 13:00","1995","02","09","13:00","-5.3","","-6.5","","91","","23","","28","","1.6","","99.30","","","","-13","","Snow"
"1995-02-09 14:00","1995","02","09","14:00","-5.0","","-6.3","","91","","23","","33","","4.0","","99.24","","","","-13","","Snow"
"1995-02-09 15:00","1995","02","09","15:00","-4.5","","-5.8","","91","","24","","28","","2.4","","99.20","","","","-12","","Snow"
"1995-02-09 16:00","1995","02","09","16:00","-4.3","","-5.5","","91","","24","","30","","1.6","","99.17","","","","-12","","Snow Showers,Blowing Snow"
"1995-02-09 17:00","1995","02","09","17:00","-4.0","","-5.7","","88","","24","","28","","12.9","","99.20","","","","-11","","Snow Showers"
"1995-02-09 18:00","1995","02","09","18:00","-3.8","","-6.2","","83","","24","","28","","19.3","","99.20","","","","-11","","Snow Showers"
"1995-02-09 19:00","1995","02","09","19:00","-3.8","","-6.9","","79","","25","","24","","24.1","","99.20","","","","-11","","Mostly Cloudy"
"1995-02-09 20:00","1995","02","09","20:00","-3.6","","-6.6","","80","","26","","28","","24.1","","99.24","","","","-11","","Mostly Cloudy"
"1995-02-09 21:00","1995","02","09","21:00","-3.2","","-6.4","","79","","27","","26","","24.1","","99.27","","","","-10","","Mostly Cloudy"
"1995-02-09 22:00","1995","02","09","22:00","-4.2","","-7.6","","77","","27","","24","","24.1","","99.37","","","","-11","","Mainly Clear"
"1995-02-09 23:00","1995","02","09","23:00","-5.2","","-8.2","","79","","25","","19","","24.1","","99.47","","","","-12","","Mainly Clear"
"1995-02-10 00:00","1995","02","10","00:00","","M","","M","","M","26","","15","","","M","","M","","","","","NA"
"1995-02-10 01:00","1995","02","10","01:00","","M","","M","","M","25","","9","","","M","","M","","","","","NA"
"1995-02-10 02:00","1995","02","10","02:00","","M","","M","","M","33","","4","","","M","","M","","","","","NA"
"1995-02-10 03:00","1995","02","10","03:00","","M","","M","","M","","","0","","","M","","M","","","","","NA"
"1995-02-10 04:00","1995","02","10","04:00","","M","","M","","M","","","0","","","M","","M","","","","","NA"
"1995-02-10 05:00","1995","02","10","05:00","","M","","M","","M","","","0","","","M","","M","","","","","NA"
"1995-02-10 06:00","1995","02","10","06:00","-11.0","","-12.2","","91","","6","","13","","24.1","","99.77","","","","-17","","Mainly Clear"
"1995-02-10 07:00","1995","02","10","07:00","-11.6","","-12.9","","90","","6","","11","","24.1","","99.77","","","","-18","","Mostly Cloudy"
"1995-02-10 08:00","1995","02","10","08:00","-11.3","","-14.1","","80","","7","","9","","24.1","","99.77","","","","-16","","Mostly Cloudy"
"1995-02-10 09:00","1995","02","10","09:00","-9.8","","-13.1","","77","","7","","9","","19.3","","99.71","","","","-15","","Snow"
"1995-02-10 10:00","1995","02","10","10:00","-8.4","","-12.1","","75","","6","","17","","16.1","","99.60","","","","-15","","Snow"
"1995-02-10 11:00","1995","02","10","11:00","-7.0","","-9.9","","80","","6","","17","","4.0","","99.47","","","","-13","","Snow"
"1995-02-10 12:00","1995","02","10","12:00","-5.8","","-7.7","","86","","9","","11","","4.8","","99.34","","","","-11","","Snow"
"1995-02-10 13:00","1995","02","10","13:00","-1.9","","-3.9","","86","","17","","22","","6.4","","99.17","","","","-8","","Snow"
"1995-02-10 14:00","1995","02","10","14:00","-2.1","","-3.7","","89","","17","","19","","2.4","","99.10","","","","-8","","Snow"
"1995-02-10 15:00","1995","02","10","15:00","-1.9","","-2.6","","95","","17","","24","","1.2","","99.00","","","","-8","","Snow"
"1995-02-10 16:00","1995","02","10","16:00","-1.7","","-2.3","","96","","16","","24","","1.2","","98.93","","","","-8","","Snow"
"1995-02-10 17:00","1995","02","10","17:00","-1.5","","-2.1","","96","","16","","28","","1.2","","98.83","","","","-8","","Snow"
"1995-02-10 18:00","1995","02","10","18:00","-1.2","","-1.8","","96","","16","","24","","1.2","","98.73","","","","-7","","Snow"
"1995-02-10 19:00","1995","02","10","19:00","-0.9","","-1.4","","96","","13","","32","","0.8","","98.66","","","","-8","","Snow,Blowing Snow"
"1995-02-10 20:00","1995","02","10","20:00","-0.5","","-1.1","","96","","18","","28","","3.2","","98.56","","","","-7","","Snow,Blowing Snow"
"1995-02-10 21:00","1995","02","10","21:00","0.1","","-0.5","","96","","19","","33","","2.4","","98.53","","","","","","Snow,Blowing Snow"
"1995-02-10 22:00","1995","02","10","22:00","0.5","","0.1","","97","","21","","30","","6.4","","98.53","","","","","","Snow"
"1995-02-10 23:00","1995","02","10","23:00","0.8","","0.4","","97","","22","","28","","11.3","","98.53","","","","","","Snow"
"1995-02-11 00:00","1995","02","11","00:00","","M","","M","","M","22","","30","","","M","","M","","","","","NA"
"1995-02-11 01:00","1995","02","11","01:00","","M","","M","","M","24","","30","","","M","","M","","","","","NA"
"1995-02-11 02:00","1995","02","11","02:00","","M","","M","","M","24","","28","","","M","","M","","","","","NA"
"1995-02-11 03:00","1995","02","11","03:00","","M","","M","","M","24","","33","","","M","","M","","","","","NA"
"1995-02-11 04:00","1995","02","11","04:00","","M","","M","","M","25","","26","","","M","","M","","","","","NA"
"1995-02-11 05:00","1995","02","11","05:00","","M","","M","","M","25","","19","","","M","","M","","","","","NA"
"1995-02-11 06:00","1995","02","11","06:00","-7.1","","-11.8","","69","","24","","15","","24.1","","99.10","","","","-13","","Clear"
"1995-02-11 07:00","1995","02","11","07:00","-7.7","","-12.5","","68","","26","","17","","24.1","","99.13","","","","-14","","Mainly Clear"
"1995-02-11 08:00","1995","02","11","08:00","-7.9","","-13.8","","63","","26","","22","","24.1","","99.24","","","","-16","","Mainly Clear"
"1995-02-11 09:00","1995","02","11","09:00","-7.2","","-14.7","","55","","24","","22","","24.1","","99.24","","","","-15","","Mainly Clear"
"1995-02-11 10:00","1995","02","11","10:00","-6.8","","-15.5","","50","","24","","24","","24.1","","99.24","","","","-14","","Mainly Clear"
"1995-02-11 11:00","1995","02","11","11:00","-6.4","","-14.5","","53","","26","","24","","24.1","","99.20","","","","-14","","Mostly Cloudy"
"1995-02-11 12:00","1995","02","11","12:00","-7.4","","-10.1","","81","","26","","22","","1.6","","99.20","","","","-15","","Snow Showers"
"1995-02-11 13:00","1995","02","11","13:00","-7.5","","-9.7","","84","","26","","19","","4.0","","99.13","","","","-15","","Snow Showers"
"1995-02-11 14:00","1995","02","11","14:00","-7.8","","-12.1","","71","","24","","19","","11.3","","99.17","","","","-15","","Snow"
"1995-02-11 15:00","1995","02","11","15:00","-7.7","","-15.6","","53","","27","","22","","19.3","","99.27","","","","-15","","Mainly Clear"
"1995-02-11 16:00","1995","02","11","16:00","-9.0","","-16.7","","54","","27","","22","","24.1","","99.37","","","","-17","","Mainly Clear"
"1995-02-11 17:00","1995","02","11","17:00","-10.1","","-17.7","","54","","28","","19","","24.1","","99.37","","","","-18","","Mostly Cloudy"
"1995-02-11 18:00","1995","02","11","18:00","-10.5","","-18.6","","51","","27","","19","","24.1","","99.44","","","","-18","","Cloudy"
"1995-02-11 19:00","1995","02","11","19:00","-11.9","","-18.4","","58","","28","","22","","24.1","","99.50","","","","-21","","Mainly Clear"
"1995-02-11 20:00","1995","02","11","20:00","-13.0","","-20.0","","56","","28","","24","","24.1","","99.60","","","","-22","","Mainly Clear"
"1995-02-11 21:00","1995","02","11","21:00","-14.5","","-22.6","","50","","28","","28","","24.1","","99.71","","","","-25","","Mainly Clear"
"1995-02-11 22:00","1995","02","11","22:00","-15.5","","-23.3","","51","","28","","22","","24.1","","99.77","","","","-25","","Mainly Clear"
"1995-02-11 23:00","1995","02","11","23:00","-16.3","","-23.1","","56","","27","","28","","24.1","","99.81","","","","-27","","Clear"
"1995-02-12 00:00","1995","02","12","00:00","","M","","M","","M","25","","19","","","M","","M","","","","","NA"
"1995-02-12 01:00","1995","02","12","01:00","","M","","M","","M","26","","19","","","M","","M","","","","","NA"
"1995-02-12 02:00","1995","02","12","02:00","","M","","M","","M","25","","15","","","M","","M","","","","","NA"
"1995-02-12 03:00","1995","02","12","03:00","","M","","M","","M","25","","15","","","M","","M","","","","","NA"
"1995-02-12 04:00","1995","02","12","04:00","","M","","M","","M","25","","19","","","M","","M","","","","","NA"
"1995-02-12 05:00","1995","02","12","05:00","","M","","M","","M","26","","28","","","M","","M","","","","","NA"
"1995-02-12 06:00","1995","02","12","06:00","-16.0","","-24.0","","50","","26","","22","","25.0","","99.81","","","","-26","","Clear"
"1995-02-12 07:00","1995","02","12","07:00","-14.8","","-22.3","","53","","26","","26","","25.0","","99.91","","","","-25","","Mainly Clear"
"1995-02-12 08:00","1995","02","12","08:00","-15.1","","-21.6","","58","","26","","28","","25.0","","99.97","","","","-26","","Mainly Clear"
"1995-02-12 09:00","1995","02","12","09:00","-14.9","","-20.8","","61","","26","","19","","25.0","","100.11","","","","-24","","Mainly Clear"
"1995-02-12 10:00","1995","02","12","10:00","-14.5","","-23.6","","46","","28","","22","","25.0","","100.21","","","","-24","","Mainly Clear"
"1995-02-12 11:00","1995","02","12","11:00","-13.4","","-25.5","","35","","29","","22","","25.0","","100.31","","","","-23","","Clear"
"1995-02-12 12:00","1995","02","12","12:00","-12.5","","-25.8","","32","","28","","26","","25.0","","100.34","","","","-22","","Mainly Clear"
"1995-02-12 13:00","1995","02","12","13:00","-11.8","","-24.8","","33","","28","","28","","25.0","","100.38","","","","-22","","Mainly Clear"
"1995-02-12 14:00","1995","02","12","14:00","-10.9","","-21.7","","41","","25","","19","","25.0","","100.41","","","","-19","","Mainly Clear"
"1995-02-12 15:00","1995","02","12","15:00","-10.5","","-19.9","","46","","24","","19","","25.0","","100.41","","","","-18","","Mainly Clear"
"1995-02-12 16:00","1995","02","12","16:00","-10.4","","-18.6","","51","","25","","22","","25.0","","100.48","","","","-19","","Mainly Clear"
"1995-02-12 17:00","1995","02","12","17:00","-11.4","","-18.9","","54","","27","","19","","25.0","","100.51","","","","-19","","Mainly Clear"
"1995-02-12 18:00","1995","02","12","18:00","-11.1","","-17.5","","59","","26","","17","","25.0","","100.58","","","","-19","","Mainly Clear"
"1995-02-12 19:00","1995","02","12","19:00","-10.8","","-17.8","","56","","28","","15","","25.0","","100.61","","","","-18","","Mostly Cloudy"
"1995-02-12 20:00","1995","02","12","20:00","-11.5","","-17.4","","62","","27","","7","","25.0","","100.64","","","","-16","","Mostly Cloudy"
"1995-02-12 21:00","1995","02","12","21:00","-12.7","","-18.0","","64","","26","","9","","25.0","","100.68","","","","-18","","Mainly Clear"
"1995-02-12 22:00","1995","02","12","22:00","-12.2","","-17.7","","64","","25","","13","","25.0","","100.71","","","","-19","","Mainly Clear"
"1995-02-12 23:00","1995","02","12","23:00","-11.8","","-17.8","","61","","25","","19","","25.0","","100.75","","","","-20","","Mainly Clear"
"1995-02-13 00:00","1995","02","13","00:00","","M","","M","","M","25","","17","","","M","","M","","","","","NA"
"1995-02-13 01:00","1995","02","13","01:00","","M","","M","","M","25","","15","","","M","","M","","","","","NA"
"1995-02-13 02:00","1995","02","13","02:00","","M","","M","","M","27","","11","","","M","","M","","","","","NA"
"1995-02-13 03:00","1995","02","13","03:00","","M","","M","","M","25","","13","","","M","","M","","","","","NA"
"1995-02-13 04:00","1995","02","13","04:00","","M","","M","","M","26","","13","","","M","","M","","","","","NA"
"1995-02-13 05:00","1995","02","13","05:00","","M","","M","","M","26","","11","","","M","","M","","","","","NA"
"1995-02-13 06:00","1995","02","13","06:00","-12.5","","-18.0","","63","","27","","13","","25.0","","100.81","","","","-19","","Clear"
"1995-02-13 07:00","1995","02","13","07:00","-12.6","","-17.5","","67","","26","","13","","25.0","","100.81","","","","-19","","Mainly Clear"
"1995-02-13 08:00","1995","02","13","08:00","-11.9","","-16.9","","66","","25","","11","","24.1","","100.81","","","","-18","","Mainly Clear"
"1995-02-13 09:00","1995","02","13","09:00","-10.2","","-17.1","","57","","26","","17","","24.1","","100.81","","","","-17","","Mainly Clear"
"1995-02-13 10:00","1995","02","13","10:00","-8.2","","-16.4","","52","","26","","19","","24.1","","100.81","","","","-15","","Mainly Clear"
"1995-02-13 11:00","1995","02","13","11:00","-6.5","","-18.2","","39","","27","","22","","24.1","","100.75","","","","-14","","Mainly Clear"
"1995-02-13 12:00","1995","02","13","12:00","-4.7","","-13.0","","52","","25","","26","","24.1","","100.71","","","","-12","","Mostly Cloudy"
"1995-02-13 13:00","1995","02","13","13:00","-4.9","","-13.6","","50","","25","","22","","24.1","","100.64","","","","-12","","Mostly Cloudy"
"1995-02-13 14:00","1995","02","13","14:00","-5.1","","-11.7","","60","","25","","26","","24.1","","100.58","","","","-13","","Mainly Clear"
"1995-02-13 15:00","1995","02","13","15:00","-6.7","","-8.5","","87","","24","","22","","2.0","","","M","","","-14","","Snow Showers"
"1995-02-13 16:00","1995","02","13","16:00","-6.8","","-10.1","","77","","24","","22","","16.1","","100.51","","","","-14","","Mainly Clear"
"1995-02-13 17:00","1995","02","13","17:00","-7.0","","-10.1","","79","","24","","22","","16.1","","100.54","","","","-14","","Mostly Cloudy"
"1995-02-13 18:00","1995","02","13","18:00","-7.2","","-13.6","","60","","28","","19","","24.1","","100.54","","","","-14","","Mostly Cloudy"
"1995-02-13 19:00","1995","02","13","19:00","-8.3","","-13.5","","66","","25","","11","","24.1","","100.54","","","","-14","","Mostly Cloudy"
"1995-02-13 20:00","1995","02","13","20:00","-9.4","","-14.0","","69","","26","","9","","24.1","","100.54","","","","-14","","Mainly Clear"
"1995-02-13 21:00","1995","02","13","21:00","-8.7","","-13.9","","66","","27","","15","","24.1","","100.54","","","","-15","","Clear"
"1995-02-13 22:00","1995","02","13","22:00","-8.9","","-14.0","","66","","27","","19","","24.1","","100.51","","","","-16","","Mainly Clear"
"1995-02-13 23:00","1995","02","13","23:00","-9.3","","-15.0","","63","","27","","15","","24.1","","100.51","","","","-16","","Mainly Clear"
"1995-02-14 00:00","1995","02","14","00:00","","M","","M","","M","25","","13","","","M","","M","","","","","NA"
"1995-02-14 01:00","1995","02","14","01:00","","M","","M","","M","26","","15","","","M","","M","","","","","NA"
"1995-02-14 02:00","1995","02","14","02:00","","M","","M","","M","26","","15","","","M","","M","","","","","NA"
"1995-02-14 03:00","1995","02","14","03:00","","M","","M","","M","27","","9","","","M","","M","","","","","NA"
"1995-02-14 04:00","1995","02","14","04:00","","M","","M","","M","26","","11","","","M","","M","","","","","NA"
"1995-02-14 05:00","1995","02","14","05:00","","M","","M","","M","27","","11","","","M","","M","","","","","NA"
"1995-02-14 06:00","1995","02","14","06:00","-13.1","","-15.4","","83","","26","","9","","25.0","","101.11","","","","-19","","Clear"
"1995-02-14 07:00","1995","02","14","07:00","-13.0","","-15.2","","84","","28","","11","","25.0","","101.22","","","","-19","","Clear"
"1995-02-14 08:00","1995","02","14","08:00","-12.7","","-15.3","","81","","28","","19","","24.1","","101.32","","","","-21","","Mainly Clear"
"1995-02-14 09:00","1995","02","14","09:00","-10.8","","-14.5","","74","","27","","9","","24.1","","101.38","","","","-16","","Mainly Clear"
"1995-02-14 10:00","1995","02","14","10:00","-9.4","","-13.9","","70","","25","","9","","24.1","","101.45","","","","-14","","Clear"
"1995-02-14 11:00","1995","02","14","11:00","-8.0","","-13.9","","62","","24","","19","","24.1","","101.48","","","","-15","","Clear"
"1995-02-14 12:00","1995","02","14","12:00","-6.8","","-13.5","","59","","24","","13","","24.1","","101.48","","","","-12","","Mainly Clear"
"1995-02-14 13:00","1995","02","14","13:00","-5.5","","-12.9","","56","","23","","19","","24.1","","101.45","","","","-12","","Mainly Clear"
"1995-02-14 14:00","1995","02","14","14:00","-5.4","","-12.6","","57","","24","","22","","24.1","","101.45","","","","-12","","Mainly Clear"
"1995-02-14 15:00","1995","02","14","15:00","-5.6","","-13.7","","53","","24","","19","","24.1","","101.45","","","","-12","","Mainly Clear"
"1995-02-14 16:00","1995","02","14","16:00","-5.4","","-12.9","","56","","24","","19","","24.1","","101.45","","","","-12","","Mainly Clear"
"1995-02-14 17:00","1995","02","14","17:00","-6.1","","-12.7","","60","","24","","19","","24.1","","101.52","","","","-13","","Mainly Clear"
"1995-02-14 18:00","1995","02","14","18:00","-7.5","","-9.9","","83","","24","","11","","24.1","","101.55","","","","-13","","Mainly Clear"
"1995-02-14 19:00","1995","02","14","19:00","-7.0","","-9.0","","86","","24","","19","","9.7","","101.58","","","","-14","","Snow Showers"
"1995-02-14 20:00","1995","02","14","20:00","-6.8","","-9.7","","80","","24","","19","","16.1","","101.62","","","","-14","","Snow Showers"
"1995-02-14 21:00","1995","02","14","21:00","-6.7","","-9.8","","79","","24","","17","","11.3","","101.58","","","","-13","","Snow Showers"
"1995-02-14 22:00","1995","02","14","22:00","-7.2","","-9.5","","84","","26","","13","","19.3","","101.58","","","","-13","","Snow Showers"
"1995-02-14 23:00","1995","02","14","23:00","-7.2","","-9.2","","86","","27","","11","","19.3","","101.58","","","","-12","","Snow Showers"
"1995-02-15 00:00","1995","02","15","00:00","","M","","M","","M","31","","2","","","M","","M","","","","","NA"
"1995-02-15 01:00","1995","02","15","01:00","","M","","M","","M","","","0","","","M","","M","","","","","NA"
"1995-02-15 02:00","1995","02","15","02:00","","M","","M","","M","","","0","","","M","","M","","","","","NA"
"1995-02-15 03:00","1995","02","15","03:00","","M","","M","","M","11","","9","","","M","","M","","","","","NA"
"1995-02-15 04:00","1995","02","15","04:00","","M","","M","","M","18","","26","","","M","","M","","","","","NA"
"1995-02-15 05:00","1995","02","15","05:00","","M","","M","","M","13","","19","","","M","","M","","","","","NA"
"1995-02-15 06:00","1995","02","15","06:00","-11.1","","-15.5","","70","","12","","15","","24.1","","101.35","","","","-18","","Mostly Cloudy"
"1995-02-15 07:00","1995","02","15","07:00","-11.4","","-15.9","","69","","12","","13","","24.1","","101.32","","","","-18","","Mostly Cloudy"
"1995-02-15 08:00","1995","02","15","08:00","-9.9","","-15.1","","66","","12","","20","","24.1","","101.15","","","","-18","","Cloudy"
"1995-02-15 09:00","1995","02","15","09:00","-8.7","","-14.6","","62","","13","","19","","24.1","","101.01","","","","-16","","Cloudy"
"1995-02-15 10:00","1995","02","15","10:00","-5.5","","-10.0","","71","","15","","22","","24.1","","100.85","","","","-13","","Cloudy"
"1995-02-15 11:00","1995","02","15","11:00","-4.2","","-8.9","","70","","17","","33","","24.1","","100.54","","","","-12","","Mostly Cloudy"
"1995-02-15 12:00","1995","02","15","12:00","-3.9","","-8.1","","73","","17","","33","","19.3","","100.38","","","","-12","","Snow"
"1995-02-15 13:00","1995","02","15","13:00","-3.6","","-6.9","","78","","17","","33","","9.7","","100.21","","","","-12","","Snow"
"1995-02-15 14:00","1995","02","15","14:00","-2.6","","-5.3","","82","","17","","32","","9.7","","99.97","","","","-10","","Freezing Drizzle,Snow"
"1995-02-15 15:00","1995","02","15","15:00","-1.3","","-3.2","","87","","17","","28","","4.8","","99.74","","","","-8","","Freezing Rain,Fog"
"1995-02-15 16:00","1995","02","15","16:00","-0.4","","-3.4","","80","","17","","28","","8.0","","99.54","","","","-7","","Haze"
"1995-02-15 17:00","1995","02","15","17:00","0.3","","-2.8","","80","","17","","28","","12.9","","99.37","","","","","","Cloudy"
"1995-02-15 18:00","1995","02","15","18:00","0.4","","-1.4","","88","","18","","37","","4.8","","99.30","","","","","","Snow,Ice Pellets"
"1995-02-15 19:00","1995","02","15","19:00","0.6","","-1.0","","89","","19","","33","","6.4","","99.20","","","","","","Rain,Snow"
"1995-02-15 20:00","1995","02","15","20:00","0.8","","-0.4","","92","","19","","37","","6.4","","99.07","","","","","","Rain,Snow"
"1995-02-15 21:00","1995","02","15","21:00","1.1","","0.0","","92","","18","","37","","8.0","","99.13","","","","","","Rain,Snow"
"1995-02-15 22:00","1995","02","15","22:00","1.1","","0.2","","94","","21","","28","","8.0","","99.17","","","","","","Rain,Fog"
"1995-02-15 23:00","1995","02","15","23:00","1.4","","0.5","","94","","21","","28","","12.9","","99.24","","","","","","Rain"
"1995-02-16 00:00","1995","02","16","00:00","","M","","M","","M","27","","33","","","M","","M","","","","","NA"
"1995-02-16 01:00","1995","02","16","01:00","","M","","M","","M","26","","26","","","M","","M","","","","","NA"
"1995-02-16 02:00","1995","02","16","02:00","","M","","M","","M","26","","30","","","M","","M","","","","","NA"
"1995-02-16 03:00","1995","02","16","03:00","","M","","M","","M","27","","19","","","M","","M","","","","","NA"
"1995-02-16 04:00","1995","02","16","04:00","","M","","M","","M","26","","22","","","M","","M","","","","","NA"
"1995-02-16 05:00","1995","02","16","05:00","","M","","M","","M","26","","15","","","M","","M","","","","","NA"
"1995-02-16 06:00","1995","02","16","06:00","0.5","","-6.7","","58","","26","","13","","24.1","","100.24","","","","","","Mostly Cloudy"
"1995-02-16 07:00","1995","02","16","07:00","-0.4","","-5.2","","70","","26","","13","","24.1","","100.38","","","","-5","","Mostly Cloudy"
"1995-02-16 08:00","1995","02","16","08:00","-0.5","","-5.6","","68","","26","","19","","24.1","","100.48","","","","-6","","Mostly Cloudy"
"1995-02-16 09:00","1995","02","16","09:00","0.1","","-5.1","","68","","26","","19","","24.1","","100.61","","","","","","Mainly Clear"
"1995-02-16 10:00","1995","02","16","10:00","0.2","","-4.9","","69","","27","","17","","24.1","","100.71","","","","","","Mainly Clear"
"1995-02-16 11:00","1995","02","16","11:00","0.5","","-4.7","","68","","26","","19","","24.1","","100.75","","","","","","Mainly Clear"
"1995-02-16 12:00","1995","02","16","12:00","-1.0","","-4.1","","79","","32","","22","","12.9","","100.81","","","","-7","","Snow Showers"
"1995-02-16 13:00","1995","02","16","13:00","0.6","","-5.4","","64","","29","","19","","24.1","","100.71","","","","","","Snow Showers"
"1995-02-16 14:00","1995","02","16","14:00","0.5","","-6.5","","59","","28","","19","","24.1","","100.71","","","","","","Mostly Cloudy"
"1995-02-16 15:00","1995","02","16","15:00","0.4","","-5.8","","63","","26","","15","","24.1","","100.88","","","","","","Mostly Cloudy"
"1995-02-16 16:00","1995","02","16","16:00","0.4","","-6.2","","61","","25","","13","","24.1","","100.91","","","","","","Mostly Cloudy"
"1995-02-16 17:00","1995","02","16","17:00","0.1","","-5.8","","64","","24","","15","","24.1","","100.95","","","","","","Mostly Cloudy"
"1995-02-16 18:00","1995","02","16","18:00","-1.1","","-5.8","","70","","24","","13","","24.1","","100.95","","","","-5","","Mostly Cloudy"
"1995-02-16 19:00","1995","02","16","19:00","-2.2","","-6.2","","74","","24","","9","","24.1","","101.08","","","","-6","","Mainly Clear"
"1995-02-16 20:00","1995","02","16","20:00","-3.0","","-7.0","","74","","24","","9","","24.1","","101.11","","","","-7","","Mainly Clear"
"1995-02-16 21:00","1995","02","16","21:00","-3.9","","-7.6","","75","","26","","9","","24.1","","101.15","","","","-8","","Mainly Clear"
"1995-02-16 22:00","1995","02","16","22:00","-4.5","","-8.6","","73","","25","","9","","24.1","","101.18","","","","-8","","Mostly Cloudy"
"1995-02-16 23:00","1995","02","16","23:00","-5.7","","-9.3","","76","","26","","7","","24.1","","101.22","","","","-9","","Mainly Clear"
"1995-02-17 00:00","1995","02","17","00:00","","M","","M","","M","30","","7","","","M","","M","","","","","NA"
"1995-02-17 01:00","1995","02","17","01:00","","M","","M","","M","30","","6","","","M","","M","","","","","NA"
"1995-02-17 02:00","1995","02","17","02:00","","M","","M","","M","35","","7","","","M","","M","","","","","NA"
"1995-02-17 03:00","1995","02","17","03:00","","M","","M","","M","24","","2","","","M","","M","","","","","NA"
"1995-02-17 04:00","1995","02","17","04:00","","M","","M","","M","","","0","","","M","","M","","","","","NA"
"1995-02-17 05:00","1995","02","17","05:00","","M","","M","","M","24","","4","","","M","","M","","","","","NA"
"1995-02-17 06:00","1995","02","17","06:00","-7.7","","-11.2","","76","","27","","6","","24.1","","101.48","","","","-11","","Mostly Cloudy"
"1995-02-17 07:00","1995","02","17","07:00","-7.4","","-10.7","","77","","22","","6","","24.1","","101.55","","","","-11","","Mostly Cloudy"
"1995-02-17 08:00","1995","02","17","08:00","-6.4","","-10.3","","74","","27","","6","","24.1","","101.69","","","","-9","","Mostly Cloudy"
"1995-02-17 09:00","1995","02","17","09:00","-5.6","","-9.7","","73","","25","","6","","24.1","","101.79","","","","-8","","Mainly Clear"
"1995-02-17 10:00","1995","02","17","10:00","-3.4","","-8.1","","70","","21","","7","","24.1","","101.79","","","","-6","","Mainly Clear"
"1995-02-17 11:00","1995","02","17","11:00","-1.6","","-7.1","","66","","","","0","","24.1","","101.79","","","","","","Mainly Clear"
"1995-02-17 12:00","1995","02","17","12:00","-1.0","","-5.9","","69","","20","","19","","24.1","","101.75","","","","-6","","Mainly Clear"
"1995-02-17 13:00","1995","02","17","13:00","-0.7","","-5.4","","70","","20","","20","","24.1","","101.69","","","","-6","","Mainly Clear"
"1995-02-17 14:00","1995","02","17","14:00","-0.1","","-3.1","","80","","20","","19","","24.1","","101.69","","","","-5","","Mostly Cloudy"
"1995-02-17 15:00","1995","02","17","15:00","0.4","","-4.8","","68","","23","","22","","24.1","","101.58","","","","","","Mostly Cloudy"
"1995-02-17 16:00","1995","02","17","16:00","-0.3","","-5.5","","68","","22","","24","","24.1","","101.55","","","","-6","","Mostly Cloudy"
"1995-02-17 17:00","1995","02","17","17:00","-0.7","","-5.1","","72","","23","","24","","24.1","","101.55","","","","-7","","Mostly Cloudy"
"1995-02-17 18:00","1995","02","17","18:00","-1.0","","-4.5","","77","","22","","19","","24.1","","101.52","","","","-6","","Mainly Clear"
"1995-02-17 19:00","1995","02","17","19:00","-1.5","","-4.5","","80","","21","","19","","24.1","","101.58","","","","-7","","Mainly Clear"
"1995-02-17 20:00","1995","02","17","20:00","-1.5","","-3.7","","85","","21","","15","","24.1","","101.58","","","","-6","","Mainly Clear"
"1995-02-17 21:00","1995","02","17","21:00","-0.7","","-4.8","","74","","23","","22","","24.1","","101.52","","","","-6","","Mainly Clear"
"1995-02-17 22:00","1995","02","17","22:00","-0.7","","-4.8","","74","","23","","24","","24.1","","101.45","","","","-7","","Mainly Clear"
"1995-02-17 23:00","1995","02","17","23:00","-0.9","","-4.9","","74","","22","","15","","24.1","","101.42","","","","-6","","Mainly Clear"
"1995-02-18 00:00","1995","02","18","00:00","","M","","M","","M","21","","11","","","M","","M","","","","","NA"
"1995-02-18 01:00","1995","02","18","01:00","","M","","M","","M","","","0","","","M","","M","","","","","NA"
"1995-02-18 02:00","1995","02","18","02:00","","M","","M","","M","21","","4","","","M","","M","","","","","NA"
"1995-02-18 03:00","1995","02","18","03:00","","M","","M","","M","19","","7","","","M","","M","","","","","NA"
"1995-02-18 04:00","1995","02","18","04:00","","M","","M","","M","19","","9","","","M","","M","","","","","NA"
"1995-02-18 05:00","1995","02","18","05:00","","M","","M","","M","21","","7","","","M","","M","","","","","NA"
"1995-02-18 06:00","1995","02","18","06:00","-2.1","","-3.6","","89","","21","","7","","12.9","","101.69","","","","-5","","Cloudy"
"1995-02-18 07:00","1995","02","18","07:00","-1.9","","-3.3","","90","","21","","7","","8.0","","101.72","","","","-5","","Fog"
"1995-02-18 08:00","1995","02","18","08:00","-2.4","","-3.7","","91","","23","","2","","8.0","","101.79","","","","-3","","Fog"
"1995-02-18 09:00","1995","02","18","09:00","-0.9","","-2.2","","91","","16","","6","","6.4","","101.82","","","","-3","","Fog"
"1995-02-18 10:00","1995","02","18","10:00","-0.7","","-1.8","","92","","18","","6","","6.4","","101.85","","","","-3","","Fog"
"1995-02-18 11:00","1995","02","18","11:00","1.2","","-0.7","","87","","20","","19","","8.0","","101.82","","","","","","Fog"
"1995-02-18 12:00","1995","02","18","12:00","1.6","","-0.7","","85","","17","","13","","9.7","","101.82","","","","","","Haze"
"1995-02-18 13:00","1995","02","18","13:00","1.3","","-0.3","","89","","19","","11","","9.7","","101.75","","","","","","Haze"
"1995-02-18 14:00","1995","02","18","14:00","1.5","","-0.7","","85","","17","","15","","9.7","","101.69","","","","","","Haze"
"1995-02-18 15:00","1995","02","18","15:00","1.1","","-1.0","","86","","19","","11","","9.7","","101.65","","","","","","Haze"
"1995-02-18 16:00","1995","02","18","16:00","0.8","","-1.0","","88","","20","","6","","9.7","","101.58","","","","","","Haze"
"1995-02-18 17:00","1995","02","18","17:00","0.6","","-1.9","","83","","16","","4","","9.7","","101.55","","","","","","Haze"
"1995-02-18 18:00","1995","02","18","18:00","0.3","","-2.1","","84","","10","","4","","11.3","","101.48","","","","","","Mostly Cloudy"
"1995-02-18 19:00","1995","02","18","19:00","-0.4","","-3.1","","82","","","","0","","19.3","","101.45","","","","","","Mainly Clear"
"1995-02-18 20:00","1995","02","18","20:00","-0.6","","-3.5","","81","","12","","7","","19.3","","101.38","","","","-3","","Mainly Clear"
"1995-02-18 21:00","1995","02","18","21:00","-0.8","","-4.3","","77","","7","","4","","16.1","","101.32","","","","-2","","Mainly Clear"
"1995-02-18 22:00","1995","02","18","22:00","0.7","","-5.2","","65","","15","","9","","16.1","","101.25","","","","","","Mostly Cloudy"
"1995-02-18 23:00","1995","02","18","23:00","-1.0","","-4.3","","78","","16","","11","","16.1","","101.15","","","","-5","","Mostly Cloudy"
"1995-02-19 00:00","1995","02","19","00:00","","M","","M","","M","17","","15","","","M","","M","","","","","NA"
"1995-02-19 01:00","1995","02","19","01:00","","M","","M","","M","17","","19","","","M","","M","","","","","NA"
"1995-02-19 02:00","1995","02","19","02:00","","M","","M","","M","17","","19","","","M","","M","","","","","NA"
"1995-02-19 03:00","1995","02","19","03:00","","M","","M","","M","16","","17","","","M","","M","","","","","NA"
"1995-02-19 04:00","1995","02","19","04:00","","M","","M","","M","17","","9","","","M","","M","","","","","NA"
"1995-02-19 05:00","1995","02","19","05:00","","M","","M","","M","18","","11","","","M","","M","","","","","NA"
"1995-02-19 06:00","1995","02","19","06:00","0.6","","-2.4","","80","","19","","22","","24.1","","100.71","","","","","","Mostly Cloudy"
"1995-02-19 07:00","1995","02","19","07:00","1.2","","-2.1","","79","","18","","26","","24.1","","100.71","","","","","","Mostly Cloudy"
"1995-02-19 08:00","1995","02","19","08:00","1.4","","-1.8","","79","","20","","15","","24.1","","100.75","","","","","","Cloudy"
"1995-02-19 09:00","1995","02","19","09:00","1.9","","-1.4","","79","","21","","17","","24.1","","100.75","","","","","","Cloudy"
"1995-02-19 10:00","1995","02","19","10:00","2.6","","-0.7","","79","","20","","20","","19.3","","100.75","","","","","","Cloudy"
"1995-02-19 11:00","1995","02","19","11:00","2.9","","-0.4","","79","","21","","20","","16.1","","100.75","","","","","","Cloudy"
"1995-02-19 12:00","1995","02","19","12:00","2.5","","-0.6","","80","","20","","20","","12.9","","100.68","","","","","","Cloudy"
"1995-02-19 13:00","1995","02","19","13:00","4.2","","0.8","","79","","25","","11","","12.9","","100.61","","","","","","Cloudy"
"1995-02-19 14:00","1995","02","19","14:00","2.6","","0.0","","83","","18","","6","","12.9","","100.61","","","","","","Cloudy"
"1995-02-19 15:00","1995","02","19","15:00","2.9","","0.3","","83","","25","","7","","12.9","","100.61","","","","","","Cloudy"
"1995-02-19 16:00","1995","02","19","16:00","4.4","","-0.6","","70","","26","","7","","12.9","","100.61","","","","","","Mostly Cloudy"
"1995-02-19 17:00","1995","02","19","17:00","3.7","","-0.6","","73","","25","","4","","12.9","","100.61","","","","","","Mainly Clear"
"1995-02-19 18:00","1995","02","19","18:00","2.3","","-1.2","","78","","","","0","","9.7","","100.64","","","","","","Haze"
"1995-02-19 19:00","1995","02","19","19:00","0.9","","-1.3","","85","","","","0","","9.7","","100.64","","","","","","Haze"
"1995-02-19 20:00","1995","02","19","20:00","-0.2","","-1.8","","89","","","","0","","11.3","","100.71","","","","","","Mainly Clear"
"1995-02-19 21:00","1995","02","19","21:00","1.0","","-1.9","","81","","4","","11","","11.3","","100.78","","","","","","Mainly Clear"
"1995-02-19 22:00","1995","02","19","22:00","0.4","","-2.4","","81","","4","","9","","11.3","","100.75","","","","","","Mainly Clear"
"1995-02-19 23:00","1995","02","19","23:00","0.1","","-3.3","","78","","4","","9","","11.3","","100.68","","","","","","Mainly Clear"
"1995-02-20 00:00","1995","02","20","00:00","","M","","M","","M","3","","13","","","M","","M","","","","","NA"
"1995-02-20 01:00","1995","02","20","01:00","","M","","M","","M","4","","13","","","M","","M","","","","","NA"
"1995-02-20 02:00","1995","02","20","02:00","","M","","M","","M","2","","11","","","M","","M","","","","","NA"
"1995-02-20 03:00","1995","02","20","03:00","","M","","M","","M","2","","13","","","M","","M","","","","","NA"
"1995-02-20 04:00","1995","02","20","04:00","","M","","M","","M","3","","19","","","M","","M","","","","","NA"
"1995-02-20 05:00","1995","02","20","05:00","","M","","M","","M","4","","17","","","M","","M","","","","","NA"
"1995-02-20 06:00","1995","02","20","06:00","-3.5","","-7.5","","74","","5","","19","","24.1","","100.28","","","","-9","","Clear"
"1995-02-20 07:00","1995","02","20","07:00","-3.9","","-7.6","","75","","5","","19","","24.1","","100.21","","","","-10","","Mainly Clear"
"1995-02-20 08:00","1995","02","20","08:00","-3.4","","-7.1","","76","","5","","24","","24.1","","100.11","","","","-10","","Mostly Cloudy"
"1995-02-20 09:00","1995","02","20","09:00","-1.9","","-5.9","","74","","7","","19","","24.1","","100.07","","","","-7","","Mostly Cloudy"
"1995-02-20 10:00","1995","02","20","10:00","-0.7","","-4.8","","74","","3","","19","","24.1","","99.97","","","","-6","","Cloudy"
"1995-02-20 11:00","1995","02","20","11:00","0.9","","-3.5","","72","","8","","19","","24.1","","99.84","","","","","","Cloudy"
"1995-02-20 12:00","1995","02","20","12:00","2.6","","-2.4","","70","","6","","9","","9.7","","99.71","","","","","","Haze"
"1995-02-20 13:00","1995","02","20","13:00","3.7","","-2.4","","64","","7","","15","","9.7","","99.50","","","","","","Haze"
"1995-02-20 14:00","1995","02","20","14:00","4.3","","-1.8","","64","","7","","9","","9.7","","99.40","","","","","","Haze"
"1995-02-20 15:00","1995","02","20","15:00","5.1","","-2.0","","60","","6","","7","","12.9","","99.30","","","","","","Cloudy"
"1995-02-20 16:00","1995","02","20","16:00","4.0","","-2.8","","61","","3","","11","","12.9","","99.27","","","","","","Cloudy"
"1995-02-20 17:00","1995","02","20","17:00","3.0","","-3.6","","62","","4","","9","","12.9","","99.24","","","","","","Cloudy"
"1995-02-20 18:00","1995","02","20","18:00","1.7","","-4.7","","62","","4","","13","","19.3","","99.20","","","","","","Cloudy"
"1995-02-20 19:00","1995","02","20","19:00","1.2","","-4.5","","66","","4","","11","","24.1","","99.17","","","","","","Cloudy"
"1995-02-20 20:00","1995","02","20","20:00","0.6","","-4.7","","68","","4","","7","","24.1","","99.17","","","","","","Cloudy"
"1995-02-20 21:00","1995","02","20","21:00","0.1","","-4.9","","69","","3","","7","","24.1","","99.10","","","","","","Cloudy"
"1995-02-20 22:00","1995","02","20","22:00","-0.4","","-5.0","","71","","3","","9","","24.1","","99.03","","","","-4","","Cloudy"
"1995-02-20 23:00","1995","02","20","23:00","-0.6","","-4.8","","73","","2","","11","","24.1","","99.00","","","","-4","","Cloudy"
"1995-02-21 00:00","1995","02","21","00:00","","M","","M","","M","1","","9","","","M","","M","","","","","NA"
"1995-02-21 01:00","1995","02","21","01:00","","M","","M","","M","36","","6","","","M","","M","","","","","NA"
"1995-02-21 02:00","1995","02","21","02:00","","M","","M","","M","35","","7","","","M","","M","","","","","NA"
"1995-02-21 03:00","1995","02","21","03:00","","M","","M","","M","35","","4","","","M","","M","","","","","NA"
"1995-02-21 04:00","1995","02","21","04:00","","M","","M","","M","36","","4","","","M","","M","","","","","NA"
"1995-02-21 05:00","1995","02","21","05:00","","M","","M","","M","35","","7","","","M","","M","","","","","NA"
"1995-02-21 06:00","1995","02","21","06:00","-2.8","","-3.9","","92","","36","","11","","3.2","","99.03","","","","-7","","Snow"
"1995-02-21 07:00","1995","02","21","07:00","-3.1","","-4.7","","89","","1","","15","","3.2","","99.10","","","","-8","","Snow"
"1995-02-21 08:00","1995","02","21","08:00","-3.1","","-4.9","","87","","36","","15","","2.4","","99.24","","","","-8","","Snow"
"1995-02-21 09:00","1995","02","21","09:00","-2.5","","-4.8","","84","","35","","15","","12.9","","99.27","","","","-7","","Snow"
"1995-02-21 10:00","1995","02","21","10:00","-2.1","","-4.8","","82","","35","","19","","4.0","","99.37","","","","-8","","Snow"
"1995-02-21 11:00","1995","02","21","11:00","-1.1","","-5.0","","75","","35","","22","","8.0","","99.47","","","","-7","","Snow"
"1995-02-21 12:00","1995","02","21","12:00","-1.0","","-4.9","","75","","36","","22","","6.4","","99.57","","","","-7","","Snow"
"1995-02-21 13:00","1995","02","21","13:00","-0.8","","-5.7","","69","","36","","22","","24.1","","99.57","","","","-7","","Cloudy"
"1995-02-21 14:00","1995","02","21","14:00","-1.0","","-7.0","","64","","35","","22","","24.1","","99.60","","","","-7","","Mostly Cloudy"
"1995-02-21 15:00","1995","02","21","15:00","-1.1","","-8.6","","57","","34","","22","","24.1","","99.71","","","","-7","","Cloudy"
"1995-02-21 16:00","1995","02","21","16:00","-1.9","","-9.4","","56","","33","","19","","24.1","","99.77","","","","-7","","Mostly Cloudy"
"1995-02-21 17:00","1995","02","21","17:00","-2.6","","-10.0","","57","","34","","19","","24.1","","99.91","","","","-8","","Mostly Cloudy"
"1995-02-21 18:00","1995","02","21","18:00","-3.6","","-11.8","","53","","1","","15","","24.1","","100.01","","","","-9","","Mainly Clear"
"1995-02-21 19:00","1995","02","21","19:00","-6.1","","-12.2","","62","","35","","13","","24.1","","100.21","","","","-11","","Mainly Clear"
"1995-02-21 20:00","1995","02","21","20:00","-7.0","","-13.9","","58","","35","","11","","24.1","","100.28","","","","-12","","Clear"
"1995-02-21 21:00","1995","02","21","21:00","-7.6","","-14.6","","57","","35","","11","","24.1","","100.38","","","","-13","","Clear"
"1995-02-21 22:00","1995","02","21","22:00","-8.6","","-15.3","","58","","36","","7","","24.1","","100.41","","","","-12","","Clear"
"1995-02-21 23:00","1995","02","21","23:00","-8.3","","-15.6","","56","","36","","9","","24.1","","100.48","","","","-13","","Clear"
"1995-02-22 00:00","1995","02","22","00:00","","M","","M","","M","35","","11","","","M","","M","","","","","NA"
"1995-02-22 01:00","1995","02","22","01:00","","M","","M","","M","34","","9","","","M","","M","","","","","NA"
"1995-02-22 02:00","1995","02","22","02:00","","M","","M","","M","33","","9","","","M","","M","","","","","NA"
"1995-02-22 03:00","1995","02","22","03:00","","M","","M","","M","32","","7","","","M","","M","","","","","NA"
"1995-02-22 04:00","1995","02","22","04:00","","M","","M","","M","31","","7","","","M","","M","","","","","NA"
"1995-02-22 05:00","1995","02","22","05:00","","M","","M","","M","33","","9","","","M","","M","","","","","NA"
"1995-02-22 06:00","1995","02","22","06:00","-13.7","","-17.6","","72","","23","","11","","25.0","","100.85","","","","-20","","Clear"
"1995-02-22 07:00","1995","02","22","07:00","-14.4","","-18.0","","74","","36","","11","","24.1","","100.85","","","","-21","","Mainly Clear"
"1995-02-22 08:00","1995","02","22","08:00","-13.0","","-17.7","","68","","35","","9","","24.1","","100.91","","","","-18","","Mostly Cloudy"
"1995-02-22 09:00","1995","02","22","09:00","-11.2","","-17.3","","61","","36","","7","","24.1","","100.91","","","","-15","","Mostly Cloudy"
"1995-02-22 10:00","1995","02","22","10:00","-11.1","","-16.4","","65","","16","","9","","24.1","","100.91","","","","-16","","Mostly Cloudy"
"1995-02-22 11:00","1995","02","22","11:00","-9.7","","-14.6","","67","","18","","9","","24.1","","100.88","","","","-15","","Cloudy"
"1995-02-22 12:00","1995","02","22","12:00","-8.9","","-13.6","","69","","18","","9","","24.1","","100.75","","","","-14","","Cloudy"
"1995-02-22 13:00","1995","02","22","13:00","-8.5","","-13.9","","65","","19","","6","","24.1","","100.71","","","","-12","","Cloudy"
"1995-02-22 14:00","1995","02","22","14:00","-7.0","","-12.7","","64","","27","","13","","24.1","","100.64","","","","-13","","Cloudy"
"1995-02-22 15:00","1995","02","22","15:00","-6.3","","-12.1","","63","","23","","9","","24.1","","100.61","","","","-11","","Mostly Cloudy"
"1995-02-22 16:00","1995","02","22","16:00","-6.4","","-10.7","","71","","19","","9","","24.1","","100.58","","","","-11","","Cloudy"
"1995-02-22 17:00","1995","02","22","17:00","-6.1","","-9.6","","76","","20","","9","","24.1","","100.54","","","","-10","","Cloudy"
"1995-02-22 18:00","1995","02","22","18:00","-5.8","","-8.7","","80","","14","","6","","16.1","","100.48","","","","-9","","Snow Showers"
"1995-02-22 19:00","1995","02","22","19:00","-6.1","","-8.4","","84","","13","","7","","24.1","","100.51","","","","-9","","Cloudy"
"1995-02-22 20:00","1995","02","22","20:00","-5.9","","-8.2","","84","","13","","7","","24.1","","100.48","","","","-9","","Cloudy"
"1995-02-22 21:00","1995","02","22","21:00","-5.5","","-8.0","","83","","13","","7","","24.1","","100.44","","","","-9","","Cloudy"
"1995-02-22 22:00","1995","02","22","22:00","-5.4","","-8.1","","81","","12","","6","","24.1","","100.31","","","","-8","","Cloudy"
"1995-02-22 23:00","1995","02","22","23:00","-5.1","","-7.8","","81","","8","","4","","24.1","","100.41","","","","-7","","Cloudy"
"1995-02-23 00:00","1995","02","23","00:00","","M","","M","","M","","","0","","","M","","M","","","","","NA"
"1995-02-23 01:00","1995","02","23","01:00","","M","","M","","M","8","","4","","","M","","M","","","","","NA"
"1995-02-23 02:00","1995","02","23","02:00","","M","","M","","M","1","","4","","","M","","M","","","","","NA"
"1995-02-23 03:00","1995","02","23","03:00","","M","","M","","M","","","0","","","M","","M","","","","","NA"
"1995-02-23 04:00","1995","02","23","04:00","","M","","M","","M","","","0","","","M","","M","","","","","NA"
"1995-02-23 05:00","1995","02","23","05:00","","M","","M","","M","1","","4","","","M","","M","","","","","NA"
"1995-02-23 06:00","1995","02","23","06:00","-6.8","","-8.9","","85","","3","","6","","25.0","","100.31","","","","-10","","Mainly Clear"
"1995-02-23 07:00","1995","02","23","07:00","-7.3","","-9.4","","85","","3","","6","","24.1","","100.28","","","","-10","","Mainly Clear"
"1995-02-23 08:00","1995","02","23","08:00","-5.5","","-8.1","","82","","4","","9","","24.1","","100.28","","","","-10","","Mainly Clear"
"1995-02-23 09:00","1995","02","23","09:00","-2.8","","-7.2","","72","","6","","9","","24.1","","100.28","","","","-6","","Clear"
"1995-02-23 10:00","1995","02","23","10:00","-0.6","","-5.4","","70","","10","","6","","24.1","","100.21","","","","-3","","Mainly Clear"
"1995-02-23 11:00","1995","02","23","11:00","0.6","","-6.2","","60","","13","","9","","24.1","","100.18","","","","","","Mostly Cloudy"
"1995-02-23 12:00","1995","02","23","12:00","1.4","","-4.5","","65","","13","","9","","24.1","","100.07","","","","","","Cloudy"
"1995-02-23 13:00","1995","02","23","13:00","2.1","","-4.7","","61","","13","","7","","19.3","","99.84","","","","","","Cloudy"
"1995-02-23 14:00","1995","02","23","14:00","2.6","","-4.3","","60","","13","","9","","19.3","","99.74","","","","","","Cloudy"
"1995-02-23 15:00","1995","02","23","15:00","2.4","","-5.1","","58","","10","","6","","19.3","","99.71","","","","","","Cloudy"
"1995-02-23 16:00","1995","02","23","16:00","-2.6","","-4.4","","87","","8","","6","","19.3","","99.57","","","","-5","","Cloudy"
"1995-02-23 17:00","1995","02","23","17:00","1.7","","-3.9","","66","","12","","6","","19.3","","99.50","","","","","","Cloudy"
"1995-02-23 18:00","1995","02","23","18:00","1.7","","-3.0","","71","","12","","9","","19.3","","99.47","","","","","","Snow"
"1995-02-23 19:00","1995","02","23","19:00","0.8","","-1.4","","85","","11","","6","","4.8","","99.44","","","","","","Snow"
"1995-02-23 20:00","1995","02","23","20:00","0.9","","-0.7","","89","","9","","6","","8.0","","99.37","","","","","","Snow"
"1995-02-23 21:00","1995","02","23","21:00","1.1","","0.0","","92","","10","","4","","8.0","","99.34","","","","","","Rain,Snow,Fog"
"1995-02-23 22:00","1995","02","23","22:00","1.1","","0.1","","93","","","","0","","3.2","","99.30","","","","","","Rain,Fog"
"1995-02-23 23:00","1995","02","23","23:00","0.7","","0.1","","96","","","","0","","0.4","","99.24","","","","","","Fog"
"1995-02-24 00:00","1995","02","24","00:00","","M","","M","","M","24","","11","","","M","","M","","","","","NA"
"1995-02-24 01:00","1995","02","24","01:00","","M","","M","","M","24","","15","","","M","","M","","","","","NA"
"1995-02-24 02:00","1995","02","24","02:00","","M","","M","","M","21","","13","","","M","","M","","","","","NA"
"1995-02-24 03:00","1995","02","24","03:00","","M","","M","","M","22","","7","","","M","","M","","","","","NA"
"1995-02-24 04:00","1995","02","24","04:00","","M","","M","","M","24","","13","","","M","","M","","","","","NA"
"1995-02-24 05:00","1995","02","24","05:00","","M","","M","","M","23","","17","","","M","","M","","","","","NA"
"1995-02-24 06:00","1995","02","24","06:00","-0.4","","-1.4","","93","","27","","26","","8.0","","99.20","","","","-7","","Snow"
"1995-02-24 07:00","1995","02","24","07:00","-1.6","","-4.3","","82","","27","","19","","24.1","","99.27","","","","-7","","Mostly Cloudy"
"1995-02-24 08:00","1995","02","24","08:00","-2.7","","-5.6","","80","","26","","22","","24.1","","99.37","","","","-9","","Cloudy"
"1995-02-24 09:00","1995","02","24","09:00","-4.7","","-8.1","","77","","26","","33","","24.1","","99.50","","","","-13","","Cloudy"
"1995-02-24 10:00","1995","02","24","10:00","-6.0","","-9.7","","75","","26","","28","","24.1","","99.57","","","","-14","","Mostly Cloudy"
"1995-02-24 11:00","1995","02","24","11:00","-6.1","","-10.7","","70","","26","","26","","24.1","","99.67","","","","-14","","Mostly Cloudy"
"1995-02-24 12:00","1995","02","24","12:00","-5.7","","-10.3","","70","","26","","28","","24.1","","99.77","","","","-14","","Mostly Cloudy"
"1995-02-24 13:00","1995","02","24","13:00","-6.9","","-13.4","","60","","26","","28","","24.1","","99.84","","","","-15","","Mostly Cloudy"
"1995-02-24 14:00","1995","02","24","14:00","-6.8","","-13.6","","58","","26","","28","","24.1","","99.94","","","","-15","","Mostly Cloudy"
"1995-02-24 15:00","1995","02","24","15:00","-6.7","","-13.6","","58","","26","","28","","24.1","","100.01","","","","-15","","Mostly Cloudy"
"1995-02-24 16:00","1995","02","24","16:00","-7.2","","-15.4","","52","","28","","22","","24.1","","100.11","","","","-15","","Mostly Cloudy"
"1995-02-24 17:00","1995","02","24","17:00","-7.6","","-15.2","","54","","28","","28","","24.1","","100.24","","","","-16","","Cloudy"
"1995-02-24 18:00","1995","02","24","18:00","-7.6","","-15.2","","54","","30","","22","","24.1","","100.38","","","","-15","","Cloudy"
"1995-02-24 19:00","1995","02","24","19:00","-8.1","","-15.1","","57","","29","","22","","19.3","","100.54","","","","-16","","Snow Showers"
"1995-02-24 20:00","1995","02","24","20:00","-8.7","","-16.2","","55","","29","","22","","19.3","","100.61","","","","-17","","Snow Showers"
"1995-02-24 21:00","1995","02","24","21:00","-9.6","","-17.0","","55","","29","","22","","24.1","","100.75","","","","-18","","Mainly Clear"
"1995-02-24 22:00","1995","02","24","22:00","-10.4","","-16.8","","59","","29","","19","","24.1","","100.78","","","","-18","","Mainly Clear"
"1995-02-24 23:00","1995","02","24","23:00","-10.9","","-16.3","","64","","28","","19","","24.1","","100.81","","","","-19","","Mainly Clear"
"1995-02-25 00:00","1995","02","25","00:00","","M","","M","","M","27","","17","","","M","","M","","","","","NA"
"1995-02-25 01:00","1995","02","25","01:00","","M","","M","","M","29","","13","","","M","","M","","","","","NA"
"1995-02-25 02:00","1995","02","25","02:00","","M","","M","","M","28","","13","","","M","","M","","","","","NA"
"1995-02-25 03:00","1995","02","25","03:00","","M","","M","","M","26","","9","","","M","","M","","","","","NA"
"1995-02-25 04:00","1995","02","25","04:00","","M","","M","","M","28","","7","","","M","","M","","","","","NA"
"1995-02-25 05:00","1995","02","25","05:00","","M","","M","","M","29","","7","","","M","","M","","","","","NA"
"1995-02-25 06:00","1995","02","25","06:00","-12.3","","-19.0","","57","","30","","7","","25.0","","100.91","","","","-17","","Mainly Clear"
"1995-02-25 07:00","1995","02","25","07:00","-12.2","","-19.2","","56","","30","","7","","25.0","","100.95","","","","-17","","Mostly Cloudy"
"1995-02-25 08:00","1995","02","25","08:00","-12.1","","-19.1","","56","","34","","19","","24.1","","101.01","","","","-20","","Mostly Cloudy"
"1995-02-25 09:00","1995","02","25","09:00","-11.6","","-19.7","","51","","34","","15","","24.1","","101.05","","","","-19","","Mostly Cloudy"
"1995-02-25 10:00","1995","02","25","10:00","-11.9","","-20.0","","51","","35","","22","","24.1","","101.08","","","","-21","","Mostly Cloudy"
"1995-02-25 11:00","1995","02","25","11:00","-11.3","","-20.7","","46","","34","","22","","24.1","","101.08","","","","-20","","Mostly Cloudy"
"1995-02-25 12:00","1995","02","25","12:00","-10.8","","-21.3","","42","","35","","22","","24.1","","101.08","","","","-19","","Mostly Cloudy"
"1995-02-25 13:00","1995","02","25","13:00","-10.1","","-20.7","","42","","36","","15","","24.1","","101.11","","","","-17","","Mostly Cloudy"
"1995-02-25 14:00","1995","02","25","14:00","-8.4","","-19.7","","40","","35","","13","","24.1","","101.08","","","","-14","","Mostly Cloudy"
"1995-02-25 15:00","1995","02","25","15:00","-8.3","","-20.5","","37","","31","","13","","24.1","","101.05","","","","-14","","Mainly Clear"
"1995-02-25 16:00","1995","02","25","16:00","-8.0","","-20.3","","36","","32","","19","","24.1","","101.11","","","","-15","","Mainly Clear"
"1995-02-25 17:00","1995","02","25","17:00","-8.5","","-21.4","","34","","35","","9","","24.1","","101.15","","","","-13","","Mainly Clear"
"1995-02-25 18:00","1995","02","25","18:00","-9.4","","-21.5","","37","","35","","9","","24.1","","101.25","","","","-14","","Mainly Clear"
"1995-02-25 19:00","1995","02","25","19:00","-10.4","","-21.6","","39","","1","","9","","24.1","","101.35","","","","-15","","Mainly Clear"
"1995-02-25 20:00","1995","02","25","20:00","-10.9","","-22.4","","38","","36","","9","","24.1","","101.42","","","","-16","","Mainly Clear"
"1995-02-25 21:00","1995","02","25","21:00","-12.3","","-21.9","","45","","5","","7","","24.1","","101.48","","","","-17","","Mainly Clear"
"1995-02-25 22:00","1995","02","25","22:00","-13.4","","-21.9","","49","","3","","6","","24.1","","101.58","","","","-17","","Clear"
"1995-02-25 23:00","1995","02","25","23:00","-13.9","","-22.5","","48","","4","","11","","24.1","","101.65","","","","-20","","Clear"
"1995-02-26 00:00","1995","02","26","00:00","","M","","M","","M","1","","7","","","M","","M","","","","","NA"
"1995-02-26 01:00","1995","02","26","01:00","","M","","M","","M","2","","9","","","M","","M","","","","","NA"
"1995-02-26 02:00","1995","02","26","02:00","","M","","M","","M","3","","9","","","M","","M","","","","","NA"
"1995-02-26 03:00","1995","02","26","03:00","","M","","M","","M","3","","11","","","M","","M","","","","","NA"
"1995-02-26 04:00","1995","02","26","04:00","","M","","M","","M","3","","11","","","M","","M","","","","","NA"
"1995-02-26 05:00","1995","02","26","05:00","","M","","M","","M","3","","11","","","M","","M","","","","","NA"
"1995-02-26 06:00","1995","02","26","06:00","-18.6","","-27.0","","48","","4","","17","","25.0","","102.05","","","","-28","","Clear"
"1995-02-26 07:00","1995","02","26","07:00","-19.1","","-27.1","","49","","3","","13","","25.0","","102.19","","","","-27","","Clear"
"1995-02-26 08:00","1995","02","26","08:00","-18.8","","-26.9","","49","","3","","15","","24.1","","102.26","","","","-28","","Clear"
"1995-02-26 09:00","1995","02","26","09:00","-16.8","","-26.8","","42","","2","","19","","24.1","","102.36","","","","-26","","Clear"
"1995-02-26 10:00","1995","02","26","10:00","-15.2","","-26.1","","39","","5","","19","","24.1","","102.42","","","","-24","","Mainly Clear"
"1995-02-26 11:00","1995","02","26","11:00","-14.6","","-26.7","","35","","6","","19","","24.1","","102.16","","","","-23","","Mainly Clear"
"1995-02-26 12:00","1995","02","26","12:00","-13.4","","-26.7","","32","","3","","19","","24.1","","102.46","","","","-22","","Mainly Clear"
"1995-02-26 13:00","1995","02","26","13:00","-12.2","","-25.3","","33","","8","","17","","24.1","","102.42","","","","-20","","Mainly Clear"
"1995-02-26 14:00","1995","02","26","14:00","-11.6","","-24.3","","34","","6","","19","","24.1","","102.42","","","","-20","","Mainly Clear"
"1995-02-26 15:00","1995","02","26","15:00","-11.1","","-24.2","","33","","7","","17","","24.1","","102.42","","","","-19","","Mainly Clear"
"1995-02-26 16:00","1995","02","26","16:00","-11.2","","-24.8","","32","","4","","15","","24.1","","102.36","","","","-18","","Mainly Clear"
"1995-02-26 17:00","1995","02","26","17:00","-11.3","","-24.5","","33","","4","","19","","24.1","","102.39","","","","-19","","Mainly Clear"
"1995-02-26 18:00","1995","02","26","18:00","-12.3","","-24.9","","34","","3","","15","","24.1","","102.39","","","","-20","","Mainly Clear"
"1995-02-26 19:00","1995","02","26","19:00","-12.9","","-24.7","","37","","6","","15","","24.1","","102.39","","","","-20","","Mainly Clear"
"1995-02-26 20:00","1995","02","26","20:00","-13.4","","-24.5","","39","","5","","11","","24.1","","102.42","","","","-20","","Mainly Clear"
"1995-02-26 21:00","1995","02","26","21:00","-14.0","","-24.8","","40","","5","","15","","24.1","","102.39","","","","-22","","Mainly Clear"
"1995-02-26 22:00","1995","02","26","22:00","-14.8","","-24.7","","43","","5","","20","","24.1","","102.36","","","","-24","","Mainly Clear"
"1995-02-26 23:00","1995","02","26","23:00","-15.2","","-24.5","","45","","5","","19","","24.1","","102.29","","","","-24","","Clear"
"1995-02-27 00:00","1995","02","27","00:00","","M","","M","","M","4","","19","","","M","","M","","","","","NA"
"1995-02-27 01:00","1995","02","27","01:00","","M","","M","","M","4","","22","","","M","","M","","","","","NA"
"1995-02-27 02:00","1995","02","27","02:00","","M","","M","","M","5","","22","","","M","","M","","","","","NA"
"1995-02-27 03:00","1995","02","27","03:00","","M","","M","","M","4","","24","","","M","","M","","","","","NA"
"1995-02-27 04:00","1995","02","27","04:00","","M","","M","","M","4","","22","","","M","","M","","","","","NA"
"1995-02-27 05:00","1995","02","27","05:00","","M","","M","","M","4","","19","","","M","","M","","","","","NA"
"1995-02-27 06:00","1995","02","27","06:00","-12.5","","-21.0","","49","","4","","11","","25.0","","101.75","","","","-19","","Cloudy"
"1995-02-27 07:00","1995","02","27","07:00","-12.5","","-21.0","","49","","5","","19","","25.0","","101.69","","","","-21","","Cloudy"
"1995-02-27 08:00","1995","02","27","08:00","-12.1","","-17.6","","64","","5","","15","","4.0","","101.69","","","","-19","","Snow"
"1995-02-27 09:00","1995","02","27","09:00","-12.0","","-14.8","","80","","5","","19","","3.2","","101.45","","","","-20","","Snow"
"1995-02-27 10:00","1995","02","27","10:00","-11.4","","-13.8","","82","","5","","19","","2.0","","101.48","","","","-19","","Snow"
"1995-02-27 11:00","1995","02","27","11:00","-10.0","","-11.8","","87","","4","","19","","2.4","","101.45","","","","-18","","Snow"
"1995-02-27 12:00","1995","02","27","12:00","-8.3","","-10.1","","87","","6","","19","","4.0","","101.38","","","","-16","","Snow"
"1995-02-27 13:00","1995","02","27","13:00","-8.1","","-10.0","","86","","5","","19","","4.0","","101.22","","","","-15","","Freezing Drizzle,Snow Grains,Fog"
"1995-02-27 14:00","1995","02","27","14:00","-7.4","","-8.9","","89","","6","","19","","6.4","","101.05","","","","-14","","Freezing Rain,Fog"
"1995-02-27 15:00","1995","02","27","15:00","-7.3","","-9.0","","88","","5","","19","","6.4","","100.98","","","","-14","","Freezing Rain,Fog"
"1995-02-27 16:00","1995","02","27","16:00","-7.8","","-9.4","","88","","5","","11","","6.4","","100.95","","","","-13","","Freezing Rain,Ice Pellets,Fog"
"1995-02-27 17:00","1995","02","27","17:00","-8.8","","-10.4","","88","","4","","19","","2.0","","100.91","","","","-16","","Snow,Fog"
"1995-02-27 18:00","1995","02","27","18:00","-9.5","","-11.2","","87","","5","","19","","2.4","","100.91","","","","-17","","Snow,Fog"
"1995-02-27 19:00","1995","02","27","19:00","-9.7","","-11.5","","87","","3","","20","","2.4","","100.95","","","","-17","","Snow,Fog"
"1995-02-27 20:00","1995","02","27","20:00","-10.4","","-12.3","","86","","3","","24","","2.4","","100.95","","","","-19","","Snow,Fog"
"1995-02-27 21:00","1995","02","27","21:00","-10.7","","-12.5","","87","","3","","19","","4.8","","100.95","","","","-19","","Snow,Fog"
"1995-02-27 22:00","1995","02","27","22:00","-10.8","","-13.0","","84","","3","","19","","16.1","","100.95","","","","-19","","Snow"
"1995-02-27 23:00","1995","02","27","23:00","-10.3","","-12.6","","83","","3","","15","","19.3","","100.95","","","","-17","","Cloudy"
"1995-02-28 00:00","1995","02","28","00:00","","M","","M","","M","3","","19","","","M","","M","","","","","NA"
"1995-02-28 01:00","1995","02","28","01:00","","M","","M","","M","3","","15","","","M","","M","","","","","NA"
"1995-02-28 02:00","1995","02","28","02:00","","M","","M","","M","2","","19","","","M","","M","","","","","NA"
"1995-02-28 03:00","1995","02","28","03:00","","M","","M","","M","2","","15","","","M","","M","","","","","NA"
"1995-02-28 04:00","1995","02","28","04:00","","M","","M","","M","2","","22","","","M","","M","","","","","NA"
"1995-02-28 05:00","1995","02","28","05:00","","M","","M","","M","36","","22","","","M","","M","","","","","NA"
"1995-02-28 06:00","1995","02","28","06:00","-8.6","","-10.3","","87","","3","","28","","3.2","","100.81","","","","-17","","Freezing Drizzle,Snow"
"1995-02-28 07:00","1995","02","28","07:00","-8.4","","-10.1","","88","","3","","19","","2.4","","100.81","","","","-16","","Snow,Snow Grains"
"1995-02-28 08:00","1995","02","28","08:00","-7.9","","-9.7","","87","","2","","22","","4.0","","100.85","","","","-16","","Snow"
"1995-02-28 09:00","1995","02","28","09:00","-7.5","","-9.4","","86","","3","","22","","3.2","","100.88","","","","-15","","Snow"
"1995-02-28 10:00","1995","02","28","10:00","-7.1","","-8.9","","87","","3","","19","","1.6","","100.91","","","","-14","","Snow"
"1995-02-28 11:00","1995","02","28","11:00","-6.1","","-9.6","","76","","3","","19","","9.7","","100.91","","","","-13","","Snow"
"1995-02-28 12:00","1995","02","28","12:00","-5.0","","-8.3","","78","","2","","19","","16.1","","100.91","","","","-11","","Cloudy"
"1995-02-28 13:00","1995","02","28","13:00","-3.9","","-8.0","","73","","2","","19","","16.1","","100.91","","","","-10","","Cloudy"
"1995-02-28 14:00","1995","02","28","14:00","-3.2","","-7.5","","72","","4","","19","","24.1","","100.88","","","","-9","","Mostly Cloudy"
"1995-02-28 15:00","1995","02","28","15:00","-2.2","","-7.5","","67","","2","","13","","24.1","","100.91","","","","-7","","Cloudy"
"1995-02-28 16:00","1995","02","28","16:00","-2.3","","-7.3","","69","","2","","15","","24.1","","100.98","","","","-7","","Cloudy"
"1995-02-28 17:00","1995","02","28","17:00","-2.4","","-7.3","","69","","2","","13","","24.1","","101.01","","","","-7","","Cloudy"
"1995-02-28 18:00","1995","02","28","18:00","-2.6","","-7.3","","70","","3","","9","","24.1","","101.05","","","","-6","","Cloudy"
"1995-02-28 19:00","1995","02","28","19:00","-2.9","","-7.7","","69","","1","","9","","24.1","","101.15","","","","-6","","Cloudy"
"1995-02-28 20:00","1995","02","28","20:00","-3.0","","-7.8","","69","","1","","9","","24.1","","101.22","","","","-7","","Cloudy"
"1995-02-28 21:00","1995","02","28","21:00","-3.2","","-7.7","","71","","2","","6","","24.1","","101.15","","","","-6","","Cloudy"
"1995-02-28 22:00","1995","02","28","22:00","-3.3","","-7.7","","72","","2","","6","","24.1","","101.15","","","","-6","","Cloudy"
"1995-02-28 23:00","1995","02","28","23:00","-3.8","","-7.8","","74","","","","0","","24.1","","101.15","","","","","","Cloudy"
