"Station Name","KINGSTON A"
"Province","ONTARIO"
"Latitude","44.22"
"Longitude","-76.60"
"Elevation","92.40"
"Climate Identifier","6104146"
"WMO Identifier",""
"TC Identifier","YGK"
"All times are specified in Local Standard Time (LST). Add 1 hour to adjust for Daylight Saving Time where and when it is observed."

"Legend"
"E","Estimated"
"M","Missing"
"NA","Not Available"

"Date/Time","Year","Month","Day","Time","Temp (°C)","Temp Flag","Dew Point Temp (°C)","Dew Point Temp Flag","Rel Hum (%)","Rel Hum Flag","Wind Dir (10s deg)","Wind Dir Flag","Wind Spd (km/h)","Wind Spd Flag","Visibility (km)","Visibility Flag","Stn Press (kPa)","Stn Press Flag","Hmdx","Hmdx Flag","Wind Chill","Wind Chill Flag","Weather"
"2008-08-01 00:00","2008","08","01","00:00"
"2008-08-01 01:00","2008","08","01","01:00"
"2008-08-01 02:00","2008","08","01","02:00"
"2008-08-01 03:00","2008","08","01","03:00"
"2008-08-01 04:00","2008","08","01","04:00"
"2008-08-01 05:00","2008","08","01","05:00","18.3","","16.6","","90","","28","","9","","24.1","","99.44","","","","","","Mainly Clear"
"2008-08-01 06:00","2008","08","01","06:00","18.3","","16.6","","90","","28","","7","","24.1","","99.47","","","","","","Mainly Clear"
"2008-08-01 07:00","2008","08","01","07:00","19.6","","16.9","","84","","28","","11","","24.1","","99.50","","","","","","Mainly Clear"
"2008-08-01 08:00","2008","08","01","08:00","21.7","","17.7","","78","","24","","7","","24.1","","99.51","","27","","","","Clear"
"2008-08-01 09:00","2008","08","01","09:00","22.1","","18.2","","79","","24","","13","","24.1","","99.51","","28","","","","Mainly Clear"
"2008-08-01 10:00","2008","08","01","10:00","23.1","","18.5","","75","","23","","15","","24.1","","99.53","","29","","","","Mostly Cloudy"
"2008-08-01 11:00","2008","08","01","11:00","23.9","","18.6","","72","","23","","20","","24.1","","99.55","","30","","","","Mostly Cloudy"
"2008-08-01 12:00","2008","08","01","12:00","25.5","","17.1","","60","","25","","19","","24.1","","99.58","","31","","","","Mainly Clear"
"2008-08-01 13:00","2008","08","01","13:00","25.4","","17.9","","63","","22","","20","","24.1","","99.56","","31","","","","Mainly Clear"
"2008-08-01 14:00","2008","08","01","14:00","23.9","","19.2","","75","","21","","26","","24.1","","99.54","","31","","","","Mostly Cloudy"
"2008-08-01 15:00","2008","08","01","15:00","24.6","","19.3","","72","","22","","20","","24.1","","99.52","","32","","","","Mainly Clear"
"2008-08-01 16:00","2008","08","01","16:00","25.6","","18.2","","64","","24","","19","","24.1","","99.47","","32","","","","Mainly Clear"
"2008-08-01 17:00","2008","08","01","17:00","25.3","","19.2","","69","","24","","22","","24.1","","99.44","","32","","","","Mainly Clear"
"2008-08-01 18:00","2008","08","01","18:00","24.8","","18.0","","66","","24","","17","","24.1","","99.43","","31","","","","Mainly Clear"
"2008-08-01 19:00","2008","08","01","19:00","24.2","","18.0","","68","","25","","13","","24.1","","99.47","","30","","","","Mainly Clear"
"2008-08-01 20:00","2008","08","01","20:00","22.6","","18.0","","75","","27","","7","","24.1","","99.50","","29","","","","Mostly Cloudy"
"2008-08-01 21:00","2008","08","01","21:00","22.6","","17.1","","71","","27","","7","","24.1","","99.55","","28","","","","Mostly Cloudy"
"2008-08-01 22:00","2008","08","01","22:00","21.8","","18.3","","81","","27","","9","","19.3","","99.57","","28","","","","Thunderstorms,Rain Showers"
"2008-08-01 23:00","2008","08","01","23:00"
"2008-08-02 00:00","2008","08","02","00:00"
"2008-08-02 01:00","2008","08","02","01:00"
"2008-08-02 02:00","2008","08","02","02:00"
"2008-08-02 03:00","2008","08","02","03:00"
"2008-08-02 04:00","2008","08","02","04:00"
"2008-08-02 05:00","2008","08","02","05:00","17.4","","16.0","","91","","2","","6","","24.1","","99.42","","","","","","Mostly Cloudy"
"2008-08-02 06:00","2008","08","02","06:00","17.8","","16.4","","92","","","","0","","24.1","","99.50","","","","","","Mostly Cloudy"
"2008-08-02 07:00","2008","08","02","07:00","18.8","","16.9","","89","","2","","4","","24.1","","99.52","","","","","","Mostly Cloudy"
"2008-08-02 08:00","2008","08","02","08:00","19.9","","17.7","","87","","7","","4","","24.1","","99.51","","","","","","Mostly Cloudy"
"2008-08-02 09:00","2008","08","02","09:00","20.6","","17.5","","82","","","","0","","24.1","","99.53","","26","","","","Mostly Cloudy"
"2008-08-02 10:00","2008","08","02","10:00","21.0","","17.6","","81","","","","0","","24.1","","99.56","","27","","","","Mostly Cloudy"
"2008-08-02 11:00","2008","08","02","11:00","21.8","","17.1","","75","","21","","11","","24.1","","99.59","","27","","","","Mostly Cloudy"
"2008-08-02 12:00","2008","08","02","12:00","22.1","","17.4","","75","","24","","13","","24.1","","99.53","","28","","","","Mostly Cloudy"
"2008-08-02 13:00","2008","08","02","13:00","22.3","","17.4","","74","","24","","11","","24.1","","99.52","","28","","","","Mostly Cloudy"
"2008-08-02 14:00","2008","08","02","14:00","23.4","","17.9","","71","","36","","24","","24.1","","99.57","","29","","","","Thunderstorms"
"2008-08-02 15:00","2008","08","02","15:00","20.0","","17.1","","83","","29","","6","","11.3","","99.63","","25","","","","Thunderstorms,Rain Showers"
"2008-08-02 16:00","2008","08","02","16:00","20.2","","17.2","","83","","33","","4","","16.1","","99.60","","26","","","","Rain Showers"
"2008-08-02 17:00","2008","08","02","17:00","21.3","","17.2","","77","","35","","6","","24.1","","99.68","","27","","","","Mostly Cloudy"
"2008-08-02 18:00","2008","08","02","18:00","20.8","","17.9","","83","","31","","4","","24.1","","99.69","","27","","","","Mostly Cloudy"
"2008-08-02 19:00","2008","08","02","19:00","19.6","","17.7","","89","","31","","7","","24.1","","99.71","","","","","","Thunderstorms"
"2008-08-02 20:00","2008","08","02","20:00","18.3","","17.1","","93","","34","","7","","24.1","","99.75","","","","","","Mostly Cloudy"
"2008-08-02 21:00","2008","08","02","21:00","18.9","","17.2","","90","","34","","7","","24.1","","99.80","","","","","","Mostly Cloudy"
"2008-08-02 22:00","2008","08","02","22:00","18.2","","16.8","","92","","33","","11","","24.1","","99.82","","","","","","Mainly Clear"
"2008-08-02 23:00","2008","08","02","23:00"
"2008-08-03 00:00","2008","08","03","00:00"
"2008-08-03 01:00","2008","08","03","01:00"
"2008-08-03 02:00","2008","08","03","02:00"
"2008-08-03 03:00","2008","08","03","03:00"
"2008-08-03 04:00","2008","08","03","04:00"
"2008-08-03 05:00","2008","08","03","05:00","16.3","","15.2","","93","","34","","17","","24.1","","99.94","","","","","","Mainly Clear"
"2008-08-03 06:00","2008","08","03","06:00","16.5","","15.3","","93","","35","","17","","24.1","","99.98","","","","","","Mainly Clear"
"2008-08-03 07:00","2008","08","03","07:00","17.7","","15.6","","88","","34","","22","","24.1","","100.03","","","","","","Mostly Cloudy"
"2008-08-03 08:00","2008","08","03","08:00","19.2","","16.1","","82","","1","","17","","24.1","","100.06","","","","","","Mostly Cloudy"
"2008-08-03 09:00","2008","08","03","09:00","19.9","","16.1","","79","","32","","13","","24.1","","100.10","","","","","","Mostly Cloudy"
"2008-08-03 10:00","2008","08","03","10:00","21.9","","16.5","","71","","34","","13","","24.1","","100.11","","27","","","","Mostly Cloudy"
"2008-08-03 11:00","2008","08","03","11:00","23.5","","16.3","","64","","2","","11","","24.1","","100.08","","28","","","","Mostly Cloudy"
"2008-08-03 12:00","2008","08","03","12:00","23.9","","16.6","","64","","","","0","","24.1","","100.06","","29","","","","Mostly Cloudy"
"2008-08-03 13:00","2008","08","03","13:00","23.3","","17.5","","70","","","","0","","24.1","","100.07","","29","","","","Mostly Cloudy"
"2008-08-03 14:00","2008","08","03","14:00","25.0","","16.3","","58","","32","","9","","24.1","","100.06","","30","","","","Mostly Cloudy"
"2008-08-03 15:00","2008","08","03","15:00","25.0","","16.0","","57","","32","","20","","24.1","","100.07","","30","","","","Mostly Cloudy"
"2008-08-03 16:00","2008","08","03","16:00","25.0","","15.6","","56","","31","","15","","24.1","","100.05","","29","","","","Mostly Cloudy"
"2008-08-03 17:00","2008","08","03","17:00","24.7","","16.1","","59","","30","","17","","24.1","","100.05","","29","","","","Mostly Cloudy"
"2008-08-03 18:00","2008","08","03","18:00","23.9","","15.5","","59","","31","","13","","24.1","","100.05","","28","","","","Mostly Cloudy"
"2008-08-03 19:00","2008","08","03","19:00","22.9","","15.6","","63","","30","","11","","24.1","","100.11","","27","","","","Mostly Cloudy"
"2008-08-03 20:00","2008","08","03","20:00","21.7","","15.9","","70","","31","","9","","24.1","","100.19","","26","","","","Mostly Cloudy"
"2008-08-03 21:00","2008","08","03","21:00","21.1","","16.2","","74","","31","","11","","24.1","","100.21","","26","","","","Mainly Clear"
"2008-08-03 22:00","2008","08","03","22:00","19.4","","16.1","","81","","34","","6","","24.1","","100.19","","","","","","Mainly Clear"
"2008-08-03 23:00","2008","08","03","23:00"
"2008-08-04 00:00","2008","08","04","00:00"
"2008-08-04 01:00","2008","08","04","01:00"
"2008-08-04 02:00","2008","08","04","02:00"
"2008-08-04 03:00","2008","08","04","03:00"
"2008-08-04 04:00","2008","08","04","04:00"
"2008-08-04 05:00","2008","08","04","05:00","18.3","","15.8","","85","","32","","15","","24.1","","100.25","","","","","","Mostly Cloudy"
"2008-08-04 06:00","2008","08","04","06:00","18.9","","16.3","","85","","33","","11","","24.1","","100.29","","","","","","Mostly Cloudy"
"2008-08-04 07:00","2008","08","04","07:00","19.5","","16.4","","82","","33","","11","","24.1","","100.34","","","","","","Mostly Cloudy"
"2008-08-04 08:00","2008","08","04","08:00","21.1","","16.7","","76","","34","","13","","24.1","","100.37","","26","","","","Mostly Cloudy"
"2008-08-04 09:00","2008","08","04","09:00","22.2","","17.0","","72","","32","","7","","24.1","","100.38","","27","","","","Mostly Cloudy"
"2008-08-04 10:00","2008","08","04","10:00","23.8","","16.7","","64","","31","","15","","24.1","","100.39","","29","","","","Mostly Cloudy"
"2008-08-04 11:00","2008","08","04","11:00","25.0","","16.6","","60","","30","","15","","24.1","","100.38","","30","","","","Mostly Cloudy"
"2008-08-04 12:00","2008","08","04","12:00","26.1","","17.2","","58","","31","","15","","24.1","","100.36","","32","","","","Mostly Cloudy"
"2008-08-04 13:00","2008","08","04","13:00","26.9","","16.9","","54","","27","","11","","24.1","","100.33","","32","","","","Mostly Cloudy"
"2008-08-04 14:00","2008","08","04","14:00","26.8","","15.8","","51","","29","","9","","24.1","","100.30","","31","","","","Mostly Cloudy"
"2008-08-04 15:00","2008","08","04","15:00","26.9","","17.4","","56","","24","","20","","24.1","","100.27","","32","","","","Mostly Cloudy"
"2008-08-04 16:00","2008","08","04","16:00","25.9","","18.0","","62","","24","","19","","24.1","","100.27","","32","","","","Mostly Cloudy"
"2008-08-04 17:00","2008","08","04","17:00","25.4","","18.0","","64","","24","","20","","24.1","","100.25","","31","","","","Mostly Cloudy"
"2008-08-04 18:00","2008","08","04","18:00","24.6","","17.7","","65","","25","","22","","24.1","","100.30","","30","","","","Mostly Cloudy"
"2008-08-04 19:00","2008","08","04","19:00","23.9","","16.2","","62","","27","","11","","24.1","","100.33","","29","","","","Mostly Cloudy"
"2008-08-04 20:00","2008","08","04","20:00","22.5","","15.8","","66","","25","","11","","24.1","","100.31","","27","","","","Mainly Clear"
"2008-08-04 21:00","2008","08","04","21:00","21.8","","15.5","","67","","27","","9","","24.1","","100.35","","26","","","","Mainly Clear"
"2008-08-04 22:00","2008","08","04","22:00","21.1","","15.6","","71","","27","","6","","24.1","","100.34","","25","","","","Mostly Cloudy"
"2008-08-04 23:00","2008","08","04","23:00"
"2008-08-05 00:00","2008","08","05","00:00"
"2008-08-05 01:00","2008","08","05","01:00"
"2008-08-05 02:00","2008","08","05","02:00"
"2008-08-05 03:00","2008","08","05","03:00"
"2008-08-05 04:00","2008","08","05","04:00"
"2008-08-05 05:00","2008","08","05","05:00","18.2","","16.3","","89","","","","0","","24.1","","100.41","","","","","","Mostly Cloudy"
"2008-08-05 06:00","2008","08","05","06:00","18.9","","16.7","","87","","35","","7","","24.1","","100.39","","","","","","Mostly Cloudy"
"2008-08-05 07:00","2008","08","05","07:00","20.0","","16.5","","80","","35","","9","","24.1","","100.39","","25","","","","Mainly Clear"
"2008-08-05 08:00","2008","08","05","08:00","22.2","","17.2","","73","","3","","6","","24.1","","100.35","","28","","","","Mainly Clear"
"2008-08-05 09:00","2008","08","05","09:00","22.9","","18.1","","74","","17","","11","","24.1","","100.32","","29","","","","Mainly Clear"
"2008-08-05 10:00","2008","08","05","10:00","22.6","","18.0","","75","","19","","17","","24.1","","100.35","","29","","","","Mainly Clear"
"2008-08-05 11:00","2008","08","05","11:00","23.1","","20.0","","83","","16","","15","","24.1","","100.34","","31","","","","Mainly Clear"
"2008-08-05 12:00","2008","08","05","12:00","23.4","","20.1","","82","","17","","11","","24.1","","100.32","","31","","","","Mainly Clear"
"2008-08-05 13:00","2008","08","05","13:00","23.9","","19.7","","77","","18","","11","","24.1","","100.29","","31","","","","Mainly Clear"
"2008-08-05 14:00","2008","08","05","14:00","24.5","","17.7","","66","","19","","13","","24.1","","100.22","","30","","","","Mainly Clear"
"2008-08-05 15:00","2008","08","05","15:00","24.3","","17.0","","64","","20","","13","","24.1","","100.14","","30","","","","Mainly Clear"
"2008-08-05 16:00","2008","08","05","16:00","25.2","","16.6","","59","","18","","7","","24.1","","100.05","","30","","","","Mostly Cloudy"
"2008-08-05 17:00","2008","08","05","17:00","25.2","","15.0","","53","","10","","4","","24.1","","100.04","","29","","","","Mostly Cloudy"
"2008-08-05 18:00","2008","08","05","18:00","25.2","","16.2","","57","","9","","6","","24.1","","99.97","","30","","","","Mostly Cloudy"
"2008-08-05 19:00","2008","08","05","19:00","24.7","","16.4","","60","","9","","7","","24.1","","99.95","","30","","","","Cloudy"
"2008-08-05 20:00","2008","08","05","20:00","24.3","","16.4","","61","","9","","11","","24.1","","99.90","","29","","","","Cloudy"
"2008-08-05 21:00","2008","08","05","21:00","21.8","","18.7","","83","","24","","35","","12.9","","100.10","","28","","","","Thunderstorms,Moderate Rain Showers"
"2008-08-05 22:00","2008","08","05","22:00","20.6","","19.4","","93","","","","0","","11.3","","99.98","","28","","","","Rain Showers"
"2008-08-05 23:00","2008","08","05","23:00"
"2008-08-06 00:00","2008","08","06","00:00"
"2008-08-06 01:00","2008","08","06","01:00"
"2008-08-06 02:00","2008","08","06","02:00"
"2008-08-06 03:00","2008","08","06","03:00"
"2008-08-06 04:00","2008","08","06","04:00"
"2008-08-06 05:00","2008","08","06","05:00","20.4","","19.2","","93","","33","","13","","12.9","","99.68","","27","","","","Cloudy"
"2008-08-06 06:00","2008","08","06","06:00","20.6","","18.9","","90","","29","","6","","12.9","","99.71","","27","","","","Mostly Cloudy"
"2008-08-06 07:00","2008","08","06","07:00","21.0","","18.7","","87","","31","","7","","19.3","","99.74","","28","","","","Mainly Clear"
"2008-08-06 08:00","2008","08","06","08:00","22.5","","18.2","","77","","32","","17","","24.1","","99.75","","29","","","","Mainly Clear"
"2008-08-06 09:00","2008","08","06","09:00","23.5","","17.3","","68","","33","","17","","24.1","","99.80","","29","","","","Mainly Clear"
"2008-08-06 10:00","2008","08","06","10:00","24.4","","16.8","","63","","31","","22","","24.1","","99.83","","30","","","","Mainly Clear"
"2008-08-06 11:00","2008","08","06","11:00","25.5","","15.8","","55","","33","","19","","24.1","","99.83","","30","","","","Mainly Clear"
"2008-08-06 12:00","2008","08","06","12:00","26.1","","15.3","","51","","29","","19","","24.1","","99.82","","30","","","","Mainly Clear"
"2008-08-06 13:00","2008","08","06","13:00","27.0","","16.2","","52","","30","","15","","24.1","","99.81","","32","","","","Mainly Clear"
"2008-08-06 14:00","2008","08","06","14:00","27.0","","15.2","","48","","28","","15","","24.1","","99.78","","31","","","","Mainly Clear"
"2008-08-06 15:00","2008","08","06","15:00","26.3","","16.6","","55","","26","","7","","24.1","","99.75","","31","","","","Thunderstorms"
"2008-08-06 16:00","2008","08","06","16:00","26.2","","17.4","","58","","24","","11","","24.1","","99.76","","32","","","","Mainly Clear"
"2008-08-06 17:00","2008","08","06","17:00","25.5","","18.3","","64","","24","","7","","24.1","","99.74","","32","","","","Thunderstorms,Rain Showers"
"2008-08-06 18:00","2008","08","06","18:00","24.1","","17.1","","65","","21","","6","","24.1","","99.73","","29","","","","Mostly Cloudy"
"2008-08-06 19:00","2008","08","06","19:00","24.2","","18.6","","71","","27","","7","","24.1","","99.75","","31","","","","Mostly Cloudy"
"2008-08-06 20:00","2008","08","06","20:00","23.2","","16.0","","64","","27","","15","","24.1","","99.78","","28","","","","Mostly Cloudy"
"2008-08-06 21:00","2008","08","06","21:00","21.6","","15.4","","68","","29","","9","","24.1","","99.82","","26","","","","Mainly Clear"
"2008-08-06 22:00","2008","08","06","22:00","20.6","","15.9","","74","","32","","17","","24.1","","99.80","","25","","","","Mainly Clear"
"2008-08-06 23:00","2008","08","06","23:00"
"2008-08-07 00:00","2008","08","07","00:00"
"2008-08-07 01:00","2008","08","07","01:00"
"2008-08-07 02:00","2008","08","07","02:00"
"2008-08-07 03:00","2008","08","07","03:00"
"2008-08-07 04:00","2008","08","07","04:00"
"2008-08-07 05:00","2008","08","07","05:00","17.1","","15.6","","91","","32","","7","","24.1","","99.68","","","","","","Mainly Clear"
"2008-08-07 06:00","2008","08","07","06:00","17.0","","15.7","","92","","36","","6","","24.1","","99.71","","","","","","Mostly Cloudy"
"2008-08-07 07:00","2008","08","07","07:00","18.9","","16.5","","86","","34","","11","","24.1","","99.71","","","","","","Mostly Cloudy"
"2008-08-07 08:00","2008","08","07","08:00","21.5","","16.5","","73","","2","","11","","24.1","","99.71","","26","","","","Mostly Cloudy"
"2008-08-07 09:00","2008","08","07","09:00","21.9","","17.6","","77","","19","","7","","24.1","","99.71","","28","","","","Mostly Cloudy"
"2008-08-07 10:00","2008","08","07","10:00","21.9","","17.6","","77","","19","","19","","24.1","","99.71","","28","","","","Mostly Cloudy"
"2008-08-07 11:00","2008","08","07","11:00","22.2","","17.2","","73","","21","","15","","19.3","","99.69","","28","","","","Thunderstorms,Rain Showers"
"2008-08-07 12:00","2008","08","07","12:00","21.9","","18.5","","81","","20","","15","","24.1","","99.58","","28","","","","Mostly Cloudy"
"2008-08-07 13:00","2008","08","07","13:00","21.9","","18.2","","80","","20","","19","","24.1","","99.57","","28","","","","Thunderstorms"
"2008-08-07 14:00","2008","08","07","14:00","19.0","","15.0","","78","","35","","20","","24.1","","99.69","","","","","","Thunderstorms"
"2008-08-07 15:00","2008","08","07","15:00","16.8","","15.0","","89","","","","0","","19.3","","99.63","","","","","","Rain Showers"
"2008-08-07 16:00","2008","08","07","16:00","19.4","","16.7","","84","","36","","15","","24.1","","99.54","","","","","","Mostly Cloudy"
"2008-08-07 17:00","2008","08","07","17:00","21.1","","16.1","","73","","28","","13","","24.1","","99.56","","26","","","","Mostly Cloudy"
"2008-08-07 18:00","2008","08","07","18:00","20.2","","16.2","","78","","29","","6","","24.1","","99.58","","25","","","","Mostly Cloudy"
"2008-08-07 19:00","2008","08","07","19:00","19.5","","16.5","","83","","30","","6","","24.1","","99.58","","","","","","Mostly Cloudy"
"2008-08-07 20:00","2008","08","07","20:00","18.2","","16.1","","88","","","","0","","24.1","","99.56","","","","","","Mostly Cloudy"
"2008-08-07 21:00","2008","08","07","21:00","18.2","","16.3","","89","","26","","6","","24.1","","99.57","","","","","","Mainly Clear"
"2008-08-07 22:00","2008","08","07","22:00","16.6","","15.9","","96","","31","","6","","24.1","","99.57","","","","","","Mainly Clear"
"2008-08-07 23:00","2008","08","07","23:00"
"2008-08-08 00:00","2008","08","08","00:00"
"2008-08-08 01:00","2008","08","08","01:00"
"2008-08-08 02:00","2008","08","08","02:00"
"2008-08-08 03:00","2008","08","08","03:00"
"2008-08-08 04:00","2008","08","08","04:00"
"2008-08-08 05:00","2008","08","08","05:00","16.4","","15.4","","94","","34","","7","","24.1","","99.48","","","","","","Cloudy"
"2008-08-08 06:00","2008","08","08","06:00","16.6","","15.5","","93","","35","","9","","24.1","","99.52","","","","","","Mostly Cloudy"
"2008-08-08 07:00","2008","08","08","07:00","16.9","","16.0","","94","","34","","7","","24.1","","99.53","","","","","","Rain"
"2008-08-08 08:00","2008","08","08","08:00","17.8","","16.3","","91","","35","","13","","24.1","","99.52","","","","","","Mostly Cloudy"
"2008-08-08 09:00","2008","08","08","09:00","19.3","","16.3","","83","","34","","11","","24.1","","99.51","","","","","","Mostly Cloudy"
"2008-08-08 10:00","2008","08","08","10:00","20.0","","15.3","","74","","35","","13","","24.1","","99.53","","","","","","Mostly Cloudy"
"2008-08-08 11:00","2008","08","08","11:00","21.6","","15.3","","67","","29","","13","","24.1","","99.50","","26","","","","Mostly Cloudy"
"2008-08-08 12:00","2008","08","08","12:00","19.1","","15.0","","77","","21","","4","","24.1","","99.49","","","","","","Rain Showers"
"2008-08-08 13:00","2008","08","08","13:00","19.4","","15.8","","80","","36","","7","","19.3","","99.52","","","","","","Thunderstorms,Rain Showers"
"2008-08-08 14:00","2008","08","08","14:00","18.1","","15.2","","83","","","","0","","24.1","","99.50","","","","","","Mostly Cloudy"
"2008-08-08 15:00","2008","08","08","15:00","19.2","","15.8","","81","","28","","15","","24.1","","99.51","","","","","","Mostly Cloudy"
"2008-08-08 16:00","2008","08","08","16:00","19.6","","15.5","","77","","32","","15","","24.1","","99.48","","","","","","Mostly Cloudy"
"2008-08-08 17:00","2008","08","08","17:00","20.0","","14.6","","71","","34","","24","","24.1","","99.52","","","","","","Mostly Cloudy"
"2008-08-08 18:00","2008","08","08","18:00","18.8","","15.0","","79","","35","","15","","24.1","","99.61","","","","","","Mostly Cloudy"
"2008-08-08 19:00","2008","08","08","19:00","17.9","","13.7","","76","","34","","20","","24.1","","99.66","","","","","","Mostly Cloudy"
"2008-08-08 20:00","2008","08","08","20:00","17.2","","14.7","","85","","33","","11","","24.1","","99.67","","","","","","Mostly Cloudy"
"2008-08-08 21:00","2008","08","08","21:00","16.9","","15.0","","89","","29","","9","","24.1","","99.73","","","","","","Mostly Cloudy"
"2008-08-08 22:00","2008","08","08","22:00","17.0","","14.7","","86","","31","","17","","24.1","","99.73","","","","","","Mainly Clear"
"2008-08-08 23:00","2008","08","08","23:00"
"2008-08-09 00:00","2008","08","09","00:00"
"2008-08-09 01:00","2008","08","09","01:00"
"2008-08-09 02:00","2008","08","09","02:00"
"2008-08-09 03:00","2008","08","09","03:00"
"2008-08-09 04:00","2008","08","09","04:00"
"2008-08-09 05:00","2008","08","09","05:00","13.5","","12.1","","91","","34","","11","","24.1","","99.90","","","","","","Mainly Clear"
"2008-08-09 06:00","2008","08","09","06:00","13.8","","12.5","","92","","","","0","","24.1","","99.94","","","","","","Mainly Clear"
"2008-08-09 07:00","2008","08","09","07:00","15.7","","12.8","","83","","29","","9","","24.1","","99.98","","","","","","Mainly Clear"
"2008-08-09 08:00","2008","08","09","08:00","18.4","","13.7","","74","","","","0","","24.1","","100.01","","","","","","Mainly Clear"
"2008-08-09 09:00","2008","08","09","09:00","19.5","","14.9","","75","","","","0","","24.1","","100.01","","","","","","Mostly Cloudy"
"2008-08-09 10:00","2008","08","09","10:00","20.7","","13.4","","63","","23","","6","","24.1","","100.01","","","","","","Mostly Cloudy"
"2008-08-09 11:00","2008","08","09","11:00","21.4","","13.5","","61","","20","","17","","24.1","","100.01","","","","","","Mostly Cloudy"
"2008-08-09 12:00","2008","08","09","12:00","21.5","","14.9","","66","","19","","22","","24.1","","99.99","","25","","","","Mostly Cloudy"
"2008-08-09 13:00","2008","08","09","13:00","21.7","","15.5","","68","","20","","24","","24.1","","99.96","","26","","","","Mostly Cloudy"
"2008-08-09 14:00","2008","08","09","14:00","22.3","","16.4","","69","","21","","22","","24.1","","99.92","","27","","","","Mostly Cloudy"
"2008-08-09 15:00","2008","08","09","15:00","22.2","","14.7","","62","","21","","19","","24.1","","99.90","","26","","","","Mostly Cloudy"
"2008-08-09 16:00","2008","08","09","16:00","21.8","","13.9","","61","","21","","19","","24.1","","99.90","","25","","","","Mostly Cloudy"
"2008-08-09 17:00","2008","08","09","17:00","21.4","","14.4","","64","","21","","13","","24.1","","99.95","","25","","","","Mostly Cloudy"
"2008-08-09 18:00","2008","08","09","18:00","21.2","","14.0","","63","","21","","9","","24.1","","99.87","","25","","","","Mostly Cloudy"
"2008-08-09 19:00","2008","08","09","19:00","21.0","","14.3","","66","","21","","6","","24.1","","99.86","","25","","","","Mostly Cloudy"
"2008-08-09 20:00","2008","08","09","20:00","20.4","","14.9","","71","","13","","9","","24.1","","99.87","","","","","","Rain Showers"
"2008-08-09 21:00","2008","08","09","21:00","19.8","","14.9","","73","","11","","11","","24.1","","99.84","","","","","","Mostly Cloudy"
"2008-08-09 22:00","2008","08","09","22:00","19.8","","13.2","","66","","9","","11","","24.1","","99.78","","","","","","Mostly Cloudy"
"2008-08-09 23:00","2008","08","09","23:00"
"2008-08-10 00:00","2008","08","10","00:00"
"2008-08-10 01:00","2008","08","10","01:00"
"2008-08-10 02:00","2008","08","10","02:00"
"2008-08-10 03:00","2008","08","10","03:00"
"2008-08-10 04:00","2008","08","10","04:00"
"2008-08-10 05:00","2008","08","10","05:00","17.7","","13.7","","77","","16","","20","","24.1","","99.82","","","","","","Cloudy"
"2008-08-10 06:00","2008","08","10","06:00","18.2","","14.2","","77","","16","","24","","24.1","","99.84","","","","","","Mostly Cloudy"
"2008-08-10 07:00","2008","08","10","07:00","18.1","","14.7","","81","","15","","28","","24.1","","99.87","","","","","","Mostly Cloudy"
"2008-08-10 08:00","2008","08","10","08:00","18.9","","15.0","","78","","18","","26","","24.1","","99.91","","","","","","Mostly Cloudy"
"2008-08-10 09:00","2008","08","10","09:00","19.6","","15.7","","78","","18","","24","","24.1","","99.94","","","","","","Mostly Cloudy"
"2008-08-10 10:00","2008","08","10","10:00","19.1","","14.2","","73","","19","","33","","24.1","","99.97","","","","","","Funnel Cloud"
"2008-08-10 11:00","2008","08","10","11:00","20.0","","16.2","","79","","18","","20","","24.1","","99.97","","25","","","","Mostly Cloudy"
"2008-08-10 12:00","2008","08","10","12:00","19.7","","14.8","","73","","20","","13","","24.1","","100.01","","","","","","Mostly Cloudy"
"2008-08-10 13:00","2008","08","10","13:00","20.5","","15.1","","71","","20","","11","","24.1","","99.98","","25","","","","Mostly Cloudy"
"2008-08-10 14:00","2008","08","10","14:00","20.7","","15.1","","70","","19","","11","","24.1","","99.98","","25","","","","Mostly Cloudy"
"2008-08-10 15:00","2008","08","10","15:00","21.0","","14.9","","68","","14","","6","","24.1","","99.91","","25","","","","Mostly Cloudy"
"2008-08-10 16:00","2008","08","10","16:00","21.8","","14.9","","65","","20","","7","","24.1","","99.92","","26","","","","Mostly Cloudy"
"2008-08-10 17:00","2008","08","10","17:00","21.3","","14.8","","66","","20","","6","","24.1","","99.94","","25","","","","Mostly Cloudy"
"2008-08-10 18:00","2008","08","10","18:00","21.5","","15.4","","68","","","","0","","24.1","","99.92","","26","","","","Mostly Cloudy"
"2008-08-10 19:00","2008","08","10","19:00","21.5","","15.2","","67","","7","","11","","24.1","","99.98","","26","","","","Mostly Cloudy"
"2008-08-10 20:00","2008","08","10","20:00","20.3","","15.4","","73","","5","","11","","24.1","","99.95","","25","","","","Mostly Cloudy"
"2008-08-10 21:00","2008","08","10","21:00","19.7","","16.0","","79","","5","","13","","24.1","","99.98","","","","","","Thunderstorms,Rain Showers"
"2008-08-10 22:00","2008","08","10","22:00","19.1","","15.8","","81","","4","","9","","24.1","","100.00","","","","","","Mostly Cloudy"
"2008-08-10 23:00","2008","08","10","23:00"
"2008-08-11 00:00","2008","08","11","00:00"
"2008-08-11 01:00","2008","08","11","01:00"
"2008-08-11 02:00","2008","08","11","02:00"
"2008-08-11 03:00","2008","08","11","03:00"
"2008-08-11 04:00","2008","08","11","04:00"
"2008-08-11 05:00","2008","08","11","05:00","16.6","","15.8","","95","","7","","4","","19.3","","100.02","","","","","","Cloudy"
"2008-08-11 06:00","2008","08","11","06:00","18.0","","14.2","","78","","11","","9","","24.1","","100.06","","","","","","Mostly Cloudy"
"2008-08-11 07:00","2008","08","11","07:00","17.2","","15.7","","91","","1","","6","","24.1","","100.07","","","","","","Cloudy"
"2008-08-11 08:00","2008","08","11","08:00","17.3","","16.2","","93","","36","","6","","19.3","","100.07","","","","","","Rain"
"2008-08-11 09:00","2008","08","11","09:00","17.8","","15.5","","86","","36","","7","","24.1","","100.12","","","","","","Cloudy"
"2008-08-11 10:00","2008","08","11","10:00","18.9","","15.9","","83","","33","","9","","24.1","","100.09","","","","","","Mostly Cloudy"
"2008-08-11 11:00","2008","08","11","11:00","20.1","","15.3","","74","","35","","9","","24.1","","100.08","","","","","","Mostly Cloudy"
"2008-08-11 12:00","2008","08","11","12:00","20.4","","16.3","","77","","15","","9","","24.1","","100.04","","25","","","","Mostly Cloudy"
"2008-08-11 13:00","2008","08","11","13:00","18.2","","16.1","","88","","","","0","","24.1","","100.01","","","","","","Thunderstorms,Rain Showers"
"2008-08-11 14:00","2008","08","11","14:00","19.6","","15.8","","79","","18","","7","","24.1","","99.97","","","","","","Mostly Cloudy"
"2008-08-11 15:00","2008","08","11","15:00","20.0","","16.3","","79","","25","","7","","24.1","","99.93","","25","","","","Mostly Cloudy"
"2008-08-11 16:00","2008","08","11","16:00","21.1","","16.9","","77","","24","","11","","24.1","","99.90","","26","","","","Thunderstorms"
"2008-08-11 17:00","2008","08","11","17:00","17.9","","15.7","","87","","9","","11","","16.1","","99.96","","","","","","Thunderstorms,Moderate Rain Showers"
"2008-08-11 18:00","2008","08","11","18:00","18.9","","16.1","","84","","","","0","","24.1","","99.94","","","","","","Rain"
"2008-08-11 19:00","2008","08","11","19:00","18.6","","16.9","","90","","","","0","","24.1","","99.93","","","","","","Mostly Cloudy"
"2008-08-11 20:00","2008","08","11","20:00","16.8","","16.0","","95","","25","","6","","24.1","","99.91","","","","","","Mainly Clear"
"2008-08-11 21:00","2008","08","11","21:00","16.4","","15.3","","93","","33","","13","","24.1","","99.95","","","","","","Mainly Clear"
"2008-08-11 22:00","2008","08","11","22:00","16.6","","15.0","","90","","34","","9","","24.1","","99.95","","","","","","Mainly Clear"
"2008-08-11 23:00","2008","08","11","23:00"
"2008-08-12 00:00","2008","08","12","00:00"
"2008-08-12 01:00","2008","08","12","01:00"
"2008-08-12 02:00","2008","08","12","02:00"
"2008-08-12 03:00","2008","08","12","03:00"
"2008-08-12 04:00","2008","08","12","04:00"
"2008-08-12 05:00","2008","08","12","05:00","14.4","","13.3","","93","","34","","11","","24.1","","99.85","","","","","","Mainly Clear"
"2008-08-12 06:00","2008","08","12","06:00","14.6","","13.5","","93","","34","","13","","24.1","","99.88","","","","","","Mainly Clear"
"2008-08-12 07:00","2008","08","12","07:00","16.2","","14.0","","87","","36","","15","","24.1","","99.91","","","","","","Mainly Clear"
"2008-08-12 08:00","2008","08","12","08:00","18.7","","14.7","","78","","31","","11","","24.1","","99.92","","","","","","Mainly Clear"
"2008-08-12 09:00","2008","08","12","09:00","20.1","","15.0","","72","","31","","7","","24.1","","99.91","","","","","","Mostly Cloudy"
"2008-08-12 10:00","2008","08","12","10:00","20.7","","14.1","","66","","33","","13","","24.1","","99.94","","","","","","Mostly Cloudy"
"2008-08-12 11:00","2008","08","12","11:00","22.0","","14.3","","62","","31","","4","","24.1","","99.93","","26","","","","Mostly Cloudy"
"2008-08-12 12:00","2008","08","12","12:00","22.8","","12.5","","52","","31","","9","","24.1","","99.88","","25","","","","Mainly Clear"
"2008-08-12 13:00","2008","08","12","13:00","23.8","","12.2","","48","","32","","17","","24.1","","99.82","","26","","","","Mainly Clear"
"2008-08-12 14:00","2008","08","12","14:00","23.5","","11.3","","46","","32","","17","","24.1","","99.81","","25","","","","Mainly Clear"
"2008-08-12 15:00","2008","08","12","15:00","24.1","","11.5","","45","","34","","17","","24.1","","99.76","","26","","","","Mainly Clear"
"2008-08-12 16:00","2008","08","12","16:00","23.7","","10.6","","44","","33","","17","","24.1","","99.75","","25","","","","Mainly Clear"
"2008-08-12 17:00","2008","08","12","17:00","23.2","","10.7","","45","","34","","15","","24.1","","99.75","","25","","","","Mainly Clear"
"2008-08-12 18:00","2008","08","12","18:00","22.4","","11.6","","50","","36","","13","","24.1","","99.76","","","","","","Clear"
"2008-08-12 19:00","2008","08","12","19:00","19.6","","12.1","","62","","36","","4","","24.1","","99.79","","","","","","Mostly Cloudy"
"2008-08-12 20:00","2008","08","12","20:00","18.3","","12.1","","67","","36","","6","","24.1","","99.81","","","","","","Mainly Clear"
"2008-08-12 21:00","2008","08","12","21:00","17.4","","12.4","","72","","36","","4","","24.1","","99.86","","","","","","Mainly Clear"
"2008-08-12 22:00","2008","08","12","22:00","16.0","","13.5","","85","","","","0","","24.1","","99.87","","","","","","Mainly Clear"
"2008-08-12 23:00","2008","08","12","23:00"
"2008-08-13 00:00","2008","08","13","00:00"
"2008-08-13 01:00","2008","08","13","01:00"
"2008-08-13 02:00","2008","08","13","02:00"
"2008-08-13 03:00","2008","08","13","03:00"
"2008-08-13 04:00","2008","08","13","04:00"
"2008-08-13 05:00","2008","08","13","05:00","14.1","","11.9","","87","","","","0","","24.1","","99.76","","","","","","Mostly Cloudy"
"2008-08-13 06:00","2008","08","13","06:00","14.9","","13.3","","90","","","","0","","24.1","","99.75","","","","","","Mostly Cloudy"
"2008-08-13 07:00","2008","08","13","07:00","18.5","","16.0","","85","","","","0","","24.1","","99.75","","","","","","Mostly Cloudy"
"2008-08-13 08:00","2008","08","13","08:00","16.6","","15.0","","90","","29","","28","","1.6","","99.82","","","","","","Thunderstorms,Rain Showers,Fog"
"2008-08-13 09:00","2008","08","13","09:00","17.3","","15.4","","89","","34","","11","","24.1","","99.73","","","","","","Rain Showers"
"2008-08-13 10:00","2008","08","13","10:00","18.0","","14.7","","81","","2","","4","","24.1","","99.82","","","","","","Mostly Cloudy"
"2008-08-13 11:00","2008","08","13","11:00","19.6","","15.0","","75","","23","","9","","24.1","","99.83","","","","","","Mostly Cloudy"
"2008-08-13 12:00","2008","08","13","12:00","19.9","","15.0","","73","","22","","6","","24.1","","99.80","","","","","","Mostly Cloudy"
"2008-08-13 13:00","2008","08","13","13:00","20.3","","15.1","","72","","29","","11","","24.1","","99.79","","","","","","Mostly Cloudy"
"2008-08-13 14:00","2008","08","13","14:00","20.4","","15.0","","71","","35","","11","","24.1","","99.79","","","","","","Mostly Cloudy"
"2008-08-13 15:00","2008","08","13","15:00","21.0","","14.5","","66","","36","","6","","24.1","","99.72","","25","","","","Mostly Cloudy"
"2008-08-13 16:00","2008","08","13","16:00","22.3","","15.0","","63","","","","0","","24.1","","99.74","","26","","","","Mainly Clear"
"2008-08-13 17:00","2008","08","13","17:00","20.7","","15.0","","70","","17","","7","","24.1","","99.79","","25","","","","Mostly Cloudy"
"2008-08-13 18:00","2008","08","13","18:00","20.6","","14.8","","69","","18","","6","","24.1","","99.79","","","","","","Mostly Cloudy"
"2008-08-13 19:00","2008","08","13","19:00","20.2","","14.9","","72","","16","","4","","24.1","","99.82","","","","","","Mostly Cloudy"
"2008-08-13 20:00","2008","08","13","20:00","18.4","","14.9","","80","","","","0","","24.1","","99.87","","","","","","Mainly Clear"
"2008-08-13 21:00","2008","08","13","21:00","18.2","","14.6","","80","","5","","4","","24.1","","99.90","","","","","","Mainly Clear"
"2008-08-13 22:00","2008","08","13","22:00","16.4","","14.2","","87","","","","0","","24.1","","99.91","","","","","","Mainly Clear"
"2008-08-13 23:00","2008","08","13","23:00"
"2008-08-14 00:00","2008","08","14","00:00"
"2008-08-14 01:00","2008","08","14","01:00"
"2008-08-14 02:00","2008","08","14","02:00"
"2008-08-14 03:00","2008","08","14","03:00"
"2008-08-14 04:00","2008","08","14","04:00"
"2008-08-14 05:00","2008","08","14","05:00","12.1","","11.2","","94","","35","","7","","24.1","","99.88","","","","","","Mainly Clear"
"2008-08-14 06:00","2008","08","14","06:00","12.4","","11.7","","95","","35","","9","","24.1","","99.94","","","","","","Mainly Clear"
"2008-08-14 07:00","2008","08","14","07:00","16.0","","14.7","","92","","","","0","","24.1","","99.97","","","","","","Mainly Clear"
"2008-08-14 08:00","2008","08","14","08:00","19.6","","15.2","","76","","","","0","","24.1","","100.01","","","","","","Clear"
"2008-08-14 09:00","2008","08","14","09:00","20.6","","15.6","","73","","9","","4","","24.1","","100.02","","25","","","","Mainly Clear"
"2008-08-14 10:00","2008","08","14","10:00","20.6","","15.1","","71","","17","","11","","24.1","","100.05","","25","","","","Mainly Clear"
"2008-08-14 11:00","2008","08","14","11:00","21.4","","16.0","","71","","16","","7","","24.1","","100.04","","26","","","","Mainly Clear"
"2008-08-14 12:00","2008","08","14","12:00","20.8","","16.0","","74","","18","","13","","24.1","","100.04","","25","","","","Mostly Cloudy"
"2008-08-14 13:00","2008","08","14","13:00","21.4","","15.8","","70","","20","","15","","24.1","","100.03","","26","","","","Mostly Cloudy"
"2008-08-14 14:00","2008","08","14","14:00","20.7","","14.7","","68","","18","","7","","24.1","","100.05","","","","","","Thunderstorms"
"2008-08-14 15:00","2008","08","14","15:00","21.8","","15.2","","66","","20","","9","","24.1","","100.06","","26","","","","Mostly Cloudy"
"2008-08-14 16:00","2008","08","14","16:00","21.7","","15.4","","67","","25","","19","","24.1","","100.08","","26","","","","Mostly Cloudy"
"2008-08-14 17:00","2008","08","14","17:00","21.6","","14.7","","65","","30","","6","","24.1","","100.07","","25","","","","Mainly Clear"
"2008-08-14 18:00","2008","08","14","18:00","22.1","","14.8","","63","","30","","7","","24.1","","100.07","","26","","","","Mainly Clear"
"2008-08-14 19:00","2008","08","14","19:00","21.1","","14.5","","66","","26","","4","","24.1","","100.11","","25","","","","Mainly Clear"
"2008-08-14 20:00","2008","08","14","20:00","19.2","","14.1","","72","","29","","6","","24.1","","100.15","","","","","","Mainly Clear"
"2008-08-14 21:00","2008","08","14","21:00","18.3","","13.3","","73","","28","","4","","24.1","","100.22","","","","","","Mainly Clear"
"2008-08-14 22:00","2008","08","14","22:00","17.0","","13.8","","81","","35","","6","","24.1","","100.23","","","","","","Clear"
"2008-08-14 23:00","2008","08","14","23:00"
"2008-08-15 00:00","2008","08","15","00:00"
"2008-08-15 01:00","2008","08","15","01:00"
"2008-08-15 02:00","2008","08","15","02:00"
"2008-08-15 03:00","2008","08","15","03:00"
"2008-08-15 04:00","2008","08","15","04:00"
"2008-08-15 05:00","2008","08","15","05:00","13.1","","11.9","","92","","35","","11","","24.1","","100.32","","","","","","Mostly Cloudy"
"2008-08-15 06:00","2008","08","15","06:00","13.1","","12.1","","94","","35","","11","","24.1","","100.37","","","","","","Mostly Cloudy"
"2008-08-15 07:00","2008","08","15","07:00","16.3","","14.1","","87","","3","","4","","24.1","","100.44","","","","","","Mostly Cloudy"
"2008-08-15 08:00","2008","08","15","08:00","19.5","","15.6","","78","","7","","7","","24.1","","100.49","","","","","","Mostly Cloudy"
"2008-08-15 09:00","2008","08","15","09:00","20.0","","15.9","","77","","15","","9","","24.1","","100.51","","25","","","","Mostly Cloudy"
"2008-08-15 10:00","2008","08","15","10:00","20.1","","15.4","","74","","16","","7","","24.1","","100.54","","","","","","Mostly Cloudy"
"2008-08-15 11:00","2008","08","15","11:00","21.0","","16.9","","77","","25","","19","","24.1","","100.52","","26","","","","Thunderstorms"
"2008-08-15 12:00","2008","08","15","12:00","19.1","","13.7","","71","","28","","22","","24.1","","100.57","","","","","","Thunderstorms"
"2008-08-15 13:00","2008","08","15","13:00","20.7","","13.9","","65","","31","","19","","24.1","","100.53","","","","","","Thunderstorms"
"2008-08-15 14:00","2008","08","15","14:00","21.9","","12.6","","56","","36","","7","","24.1","","100.49","","","","","","Mostly Cloudy"
"2008-08-15 15:00","2008","08","15","15:00","21.7","","13.3","","59","","9","","17","","24.1","","100.48","","25","","","","Mostly Cloudy"
"2008-08-15 16:00","2008","08","15","16:00","21.1","","13.2","","61","","9","","6","","24.1","","100.52","","","","","","Mostly Cloudy"
"2008-08-15 17:00","2008","08","15","17:00","21.4","","13.4","","60","","27","","6","","24.1","","100.49","","","","","","Mostly Cloudy"
"2008-08-15 18:00","2008","08","15","18:00","21.5","","14.2","","63","","27","","6","","24.1","","100.52","","25","","","","Mostly Cloudy"
"2008-08-15 19:00","2008","08","15","19:00","20.9","","14.0","","65","","26","","7","","24.1","","100.54","","","","","","Mostly Cloudy"
"2008-08-15 20:00","2008","08","15","20:00","18.9","","14.2","","74","","36","","4","","24.1","","100.51","","","","","","Mainly Clear"
"2008-08-15 21:00","2008","08","15","21:00","18.0","","14.5","","80","","31","","6","","24.1","","100.55","","","","","","Mainly Clear"
"2008-08-15 22:00","2008","08","15","22:00","17.4","","14.5","","83","","","","0","","24.1","","100.56","","","","","","Mostly Cloudy"
"2008-08-15 23:00","2008","08","15","23:00"
"2008-08-16 00:00","2008","08","16","00:00"
"2008-08-16 01:00","2008","08","16","01:00"
"2008-08-16 02:00","2008","08","16","02:00"
"2008-08-16 03:00","2008","08","16","03:00"
"2008-08-16 04:00","2008","08","16","04:00"
"2008-08-16 05:00","2008","08","16","05:00","14.6","","13.2","","91","","28","","6","","24.1","","100.43","","","","","","Mainly Clear"
"2008-08-16 06:00","2008","08","16","06:00","14.7","","13.2","","91","","31","","13","","24.1","","100.46","","","","","","Mainly Clear"
"2008-08-16 07:00","2008","08","16","07:00","16.6","","13.8","","84","","31","","9","","24.1","","100.47","","","","","","Mainly Clear"
"2008-08-16 08:00","2008","08","16","08:00","18.3","","14.5","","79","","28","","7","","24.1","","100.45","","","","","","Mainly Clear"
"2008-08-16 09:00","2008","08","16","09:00","20.1","","15.2","","73","","24","","13","","24.1","","100.44","","","","","","Mainly Clear"
"2008-08-16 10:00","2008","08","16","10:00","20.7","","16.2","","75","","23","","15","","24.1","","100.43","","25","","","","Mainly Clear"
"2008-08-16 11:00","2008","08","16","11:00","22.2","","16.7","","71","","22","","15","","24.1","","100.39","","27","","","","Mainly Clear"
"2008-08-16 12:00","2008","08","16","12:00","23.5","","16.9","","66","","24","","15","","24.1","","100.32","","29","","","","Mostly Cloudy"
"2008-08-16 13:00","2008","08","16","13:00","24.1","","16.5","","63","","30","","9","","24.1","","100.25","","29","","","","Mostly Cloudy"
"2008-08-16 14:00","2008","08","16","14:00","24.2","","16.1","","61","","26","","11","","24.1","","100.20","","29","","","","Mostly Cloudy"
"2008-08-16 15:00","2008","08","16","15:00","24.4","","14.7","","55","","26","","11","","24.1","","100.12","","28","","","","Mostly Cloudy"
"2008-08-16 16:00","2008","08","16","16:00","24.7","","17.2","","63","","24","","24","","24.1","","100.10","","30","","","","Mainly Clear"
"2008-08-16 17:00","2008","08","16","17:00","24.3","","16.9","","63","","24","","24","","24.1","","100.08","","30","","","","Mainly Clear"
"2008-08-16 18:00","2008","08","16","18:00","23.1","","16.1","","65","","25","","28","","24.1","","100.07","","28","","","","Mainly Clear"
"2008-08-16 19:00","2008","08","16","19:00","22.6","","15.9","","66","","25","","17","","24.1","","100.09","","27","","","","Mainly Clear"
"2008-08-16 20:00","2008","08","16","20:00","22.0","","16.5","","71","","25","","15","","24.1","","100.13","","27","","","","Mainly Clear"
"2008-08-16 21:00","2008","08","16","21:00","20.9","","15.3","","70","","27","","13","","24.1","","100.16","","25","","","","Mainly Clear"
"2008-08-16 22:00","2008","08","16","22:00","19.8","","13.3","","66","","27","","13","","24.1","","100.16","","","","","","Mainly Clear"
"2008-08-16 23:00","2008","08","16","23:00"
"2008-08-17 00:00","2008","08","17","00:00"
"2008-08-17 01:00","2008","08","17","01:00"
"2008-08-17 02:00","2008","08","17","02:00"
"2008-08-17 03:00","2008","08","17","03:00"
"2008-08-17 04:00","2008","08","17","04:00"
"2008-08-17 05:00","2008","08","17","05:00","19.1","","14.8","","76","","27","","13","","24.1","","100.10","","","","","","Mostly Cloudy"
"2008-08-17 06:00","2008","08","17","06:00","19.3","","14.3","","73","","27","","13","","24.1","","100.12","","","","","","Mostly Cloudy"
"2008-08-17 07:00","2008","08","17","07:00","19.3","","14.2","","72","","27","","13","","24.1","","100.16","","","","","","Mainly Clear"
"2008-08-17 08:00","2008","08","17","08:00","20.7","","14.8","","69","","29","","13","","24.1","","100.17","","25","","","","Mainly Clear"
"2008-08-17 09:00","2008","08","17","09:00","21.6","","15.8","","70","","29","","13","","24.1","","100.17","","26","","","","Mostly Cloudy"
"2008-08-17 10:00","2008","08","17","10:00","22.8","","16.7","","68","","30","","11","","24.1","","100.20","","28","","","","Mostly Cloudy"
"2008-08-17 11:00","2008","08","17","11:00","23.8","","17.3","","67","","22","","19","","24.1","","100.19","","29","","","","Mostly Cloudy"
"2008-08-17 12:00","2008","08","17","12:00","25.0","","17.3","","62","","24","","17","","24.1","","100.14","","30","","","","Mostly Cloudy"
"2008-08-17 13:00","2008","08","17","13:00","24.6","","17.5","","65","","23","","15","","24.1","","100.11","","30","","","","Mostly Cloudy"
"2008-08-17 14:00","2008","08","17","14:00","25.6","","18.9","","67","","22","","24","","24.1","","100.08","","32","","","","Mainly Clear"
"2008-08-17 15:00","2008","08","17","15:00","25.0","","18.8","","68","","24","","30","","24.1","","100.08","","32","","","","Mainly Clear"
"2008-08-17 16:00","2008","08","17","16:00","24.1","","17.9","","68","","25","","22","","24.1","","100.08","","30","","","","Mainly Clear"
"2008-08-17 17:00","2008","08","17","17:00","24.6","","16.4","","60","","26","","15","","24.1","","100.06","","29","","","","Mainly Clear"
"2008-08-17 18:00","2008","08","17","18:00","23.6","","16.6","","65","","25","","15","","24.1","","100.07","","29","","","","Mainly Clear"
"2008-08-17 19:00","2008","08","17","19:00","23.1","","18.0","","73","","25","","9","","24.1","","100.06","","29","","","","Mainly Clear"
"2008-08-17 20:00","2008","08","17","20:00","22.7","","17.9","","74","","26","","11","","24.1","","100.05","","29","","","","Mainly Clear"
"2008-08-17 21:00","2008","08","17","21:00","22.3","","18.4","","79","","25","","7","","24.1","","100.07","","29","","","","Clear"
"2008-08-17 22:00","2008","08","17","22:00","21.6","","17.6","","78","","22","","13","","24.1","","100.08","","27","","","","Clear"
"2008-08-17 23:00","2008","08","17","23:00"
"2008-08-18 00:00","2008","08","18","00:00"
"2008-08-18 01:00","2008","08","18","01:00"
"2008-08-18 02:00","2008","08","18","02:00"
"2008-08-18 03:00","2008","08","18","03:00"
"2008-08-18 04:00","2008","08","18","04:00"
"2008-08-18 05:00","2008","08","18","05:00","20.3","","18.9","","92","","21","","11","","9.7","","100.01","","27","","","","Fog"
"2008-08-18 06:00","2008","08","18","06:00","20.6","","18.8","","89","","21","","13","","12.9","","100.02","","27","","","","Mainly Clear"
"2008-08-18 07:00","2008","08","18","07:00","22.0","","19.7","","87","","22","","17","","12.9","","100.01","","29","","","","Mostly Cloudy"
"2008-08-18 08:00","2008","08","18","08:00","22.5","","19.5","","83","","22","","20","","12.9","","100.02","","30","","","","Mostly Cloudy"
"2008-08-18 09:00","2008","08","18","09:00","23.2","","19.8","","81","","21","","19","","12.9","","99.99","","31","","","","Mostly Cloudy"
"2008-08-18 10:00","2008","08","18","10:00","23.9","","20.1","","79","","21","","22","","12.9","","99.97","","32","","","","Mostly Cloudy"
"2008-08-18 11:00","2008","08","18","11:00","25.4","","19.7","","71","","24","","26","","16.1","","99.95","","33","","","","Mostly Cloudy"
"2008-08-18 12:00","2008","08","18","12:00","26.0","","19.7","","68","","24","","28","","19.3","","99.91","","33","","","","Mainly Clear"
"2008-08-18 13:00","2008","08","18","13:00","26.8","","20.1","","67","","23","","26","","19.3","","99.86","","34","","","","Mainly Clear"
"2008-08-18 14:00","2008","08","18","14:00","26.9","","20.5","","68","","22","","28","","19.3","","99.75","","35","","","","Mainly Clear"
"2008-08-18 15:00","2008","08","18","15:00","27.9","","19.5","","60","","25","","33","","24.1","","99.68","","35","","","","Mostly Cloudy"
"2008-08-18 16:00","2008","08","18","16:00","25.9","","19.6","","68","","25","","22","","24.1","","99.78","","33","","","","Mostly Cloudy"
"2008-08-18 17:00","2008","08","18","17:00","24.4","","19.9","","76","","25","","33","","16.1","","99.77","","32","","","","Thunderstorms,Rain Showers"
"2008-08-18 18:00","2008","08","18","18:00","21.3","","18.2","","82","","24","","35","","19.3","","99.80","","27","","","","Thunderstorms,Rain Showers"
"2008-08-18 19:00","2008","08","18","19:00","20.0","","17.4","","85","","31","","6","","24.1","","99.88","","26","","","","Thunderstorms"
"2008-08-18 20:00","2008","08","18","20:00","19.7","","17.7","","88","","1","","6","","24.1","","99.87","","","","","","Cloudy"
"2008-08-18 21:00","2008","08","18","21:00","19.7","","18.3","","92","","36","","6","","24.1","","99.92","","","","","","Thunderstorms"
"2008-08-18 22:00","2008","08","18","22:00","19.6","","18.4","","93","","2","","9","","24.1","","99.93","","","","","","Cloudy"
"2008-08-18 23:00","2008","08","18","23:00"
"2008-08-19 00:00","2008","08","19","00:00"
"2008-08-19 01:00","2008","08","19","01:00"
"2008-08-19 02:00","2008","08","19","02:00"
"2008-08-19 03:00","2008","08","19","03:00"
"2008-08-19 04:00","2008","08","19","04:00"
"2008-08-19 05:00","2008","08","19","05:00","12.1","","9.4","","84","","36","","17","","24.1","","100.48","","","","","","Mainly Clear"
"2008-08-19 06:00","2008","08","19","06:00","11.8","","8.8","","82","","35","","22","","24.1","","100.55","","","","","","Mainly Clear"
"2008-08-19 07:00","2008","08","19","07:00","12.5","","9.0","","79","","34","","24","","24.1","","100.69","","","","","","Mainly Clear"
"2008-08-19 08:00","2008","08","19","08:00","13.9","","8.8","","71","","1","","22","","24.1","","100.76","","","","","","Mainly Clear"
"2008-08-19 09:00","2008","08","19","09:00","14.8","","7.8","","63","","2","","26","","24.1","","100.82","","","","","","Mainly Clear"
"2008-08-19 10:00","2008","08","19","10:00","15.9","","7.9","","59","","1","","17","","24.1","","100.83","","","","","","Mainly Clear"
"2008-08-19 11:00","2008","08","19","11:00","16.6","","7.9","","56","","35","","15","","24.1","","100.90","","","","","","Mainly Clear"
"2008-08-19 12:00","2008","08","19","12:00","17.7","","8.6","","55","","36","","24","","24.1","","100.87","","","","","","Mainly Clear"
"2008-08-19 13:00","2008","08","19","13:00","18.7","","8.7","","52","","33","","20","","24.1","","100.91","","","","","","Mainly Clear"
"2008-08-19 14:00","2008","08","19","14:00","19.5","","8.5","","49","","32","","20","","24.1","","100.90","","","","","","Mainly Clear"
"2008-08-19 15:00","2008","08","19","15:00","19.5","","8.0","","47","","35","","22","","24.1","","100.89","","","","","","Mainly Clear"
"2008-08-19 16:00","2008","08","19","16:00","20.0","","8.6","","48","","34","","19","","24.1","","100.93","","","","","","Mainly Clear"
"2008-08-19 17:00","2008","08","19","17:00","19.1","","8.4","","50","","35","","11","","24.1","","100.96","","","","","","Mainly Clear"
"2008-08-19 18:00","2008","08","19","18:00","18.9","","8.1","","49","","2","","11","","24.1","","100.97","","","","","","Mainly Clear"
"2008-08-19 19:00","2008","08","19","19:00","17.6","","8.3","","54","","1","","7","","24.1","","101.02","","","","","","Mainly Clear"
"2008-08-19 20:00","2008","08","19","20:00","15.8","","9.1","","64","","36","","4","","24.1","","101.06","","","","","","Clear"
"2008-08-19 21:00","2008","08","19","21:00","13.3","","10.0","","80","","34","","6","","24.1","","101.10","","","","","","Mainly Clear"
"2008-08-19 22:00","2008","08","19","22:00","12.6","","10.1","","85","","33","","4","","24.1","","101.12","","","","","","Mainly Clear"
"2008-08-19 23:00","2008","08","19","23:00"
"2008-08-20 00:00","2008","08","20","00:00"
"2008-08-20 01:00","2008","08","20","01:00"
"2008-08-20 02:00","2008","08","20","02:00"
"2008-08-20 03:00","2008","08","20","03:00"
"2008-08-20 04:00","2008","08","20","04:00"
"2008-08-20 05:00","2008","08","20","05:00","9.4","","8.1","","92","","35","","11","","24.1","","101.25","","","","","","Mainly Clear"
"2008-08-20 06:00","2008","08","20","06:00","10.3","","8.6","","89","","36","","11","","24.1","","101.35","","","","","","Mainly Clear"
"2008-08-20 07:00","2008","08","20","07:00","12.1","","9.5","","84","","36","","9","","24.1","","101.39","","","","","","Mainly Clear"
"2008-08-20 08:00","2008","08","20","08:00","16.0","","10.0","","68","","35","","7","","24.1","","101.45","","","","","","Mainly Clear"
"2008-08-20 09:00","2008","08","20","09:00","17.7","","9.5","","59","","35","","7","","24.1","","101.45","","","","","","Mainly Clear"
"2008-08-20 10:00","2008","08","20","10:00","18.0","","10.1","","60","","16","","11","","24.1","","101.46","","","","","","Mainly Clear"
"2008-08-20 11:00","2008","08","20","11:00","18.7","","9.6","","55","","17","","13","","24.1","","101.43","","","","","","Mainly Clear"
"2008-08-20 12:00","2008","08","20","12:00","19.2","","9.7","","54","","17","","9","","24.1","","101.40","","","","","","Mainly Clear"
"2008-08-20 13:00","2008","08","20","13:00","20.0","","10.3","","54","","19","","13","","24.1","","101.36","","","","","","Mainly Clear"
"2008-08-20 14:00","2008","08","20","14:00","19.7","","10.4","","55","","20","","15","","24.1","","101.32","","","","","","Mainly Clear"
"2008-08-20 15:00","2008","08","20","15:00","19.7","","10.5","","55","","19","","19","","24.1","","101.27","","","","","","Mainly Clear"
"2008-08-20 16:00","2008","08","20","16:00","20.2","","11.1","","56","","20","","13","","24.1","","101.25","","","","","","Mostly Cloudy"
"2008-08-20 17:00","2008","08","20","17:00","20.0","","10.7","","55","","23","","15","","24.1","","101.22","","","","","","Mostly Cloudy"
"2008-08-20 18:00","2008","08","20","18:00","19.5","","10.1","","55","","22","","13","","24.1","","101.21","","","","","","Mostly Cloudy"
"2008-08-20 19:00","2008","08","20","19:00","18.7","","10.3","","58","","22","","11","","24.1","","101.20","","","","","","Mostly Cloudy"
"2008-08-20 20:00","2008","08","20","20:00","18.2","","10.1","","59","","24","","11","","24.1","","101.21","","","","","","Mostly Cloudy"
"2008-08-20 21:00","2008","08","20","21:00","18.1","","10.3","","60","","27","","11","","24.1","","101.23","","","","","","Mainly Clear"
"2008-08-20 22:00","2008","08","20","22:00","17.6","","11.1","","66","","25","","9","","24.1","","101.24","","","","","","Mainly Clear"
"2008-08-20 23:00","2008","08","20","23:00"
"2008-08-21 00:00","2008","08","21","00:00"
"2008-08-21 01:00","2008","08","21","01:00"
"2008-08-21 02:00","2008","08","21","02:00"
"2008-08-21 03:00","2008","08","21","03:00"
"2008-08-21 04:00","2008","08","21","04:00"
"2008-08-21 05:00","2008","08","21","05:00","11.5","","9.7","","89","","","","0","","24.1","","101.36","","","","","","Mainly Clear"
"2008-08-21 06:00","2008","08","21","06:00","11.7","","10.1","","90","","34","","7","","24.1","","101.41","","","","","","Clear"
"2008-08-21 07:00","2008","08","21","07:00","14.8","","11.6","","81","","","","0","","24.1","","101.43","","","","","","Clear"
"2008-08-21 08:00","2008","08","21","08:00","18.8","","12.6","","67","","","","0","","24.1","","101.45","","","","","","Mainly Clear"
"2008-08-21 09:00","2008","08","21","09:00","19.6","","13.7","","69","","18","","6","","24.1","","101.47","","","","","","Mainly Clear"
"2008-08-21 10:00","2008","08","21","10:00","20.2","","13.8","","67","","20","","6","","24.1","","101.48","","","","","","Mainly Clear"
"2008-08-21 11:00","2008","08","21","11:00","21.0","","15.0","","69","","19","","13","","24.1","","101.49","","25","","","","Clear"
"2008-08-21 12:00","2008","08","21","12:00","21.0","","15.8","","72","","19","","13","","24.1","","101.46","","25","","","","Clear"
"2008-08-21 13:00","2008","08","21","13:00","21.6","","16.0","","70","","19","","15","","24.1","","101.45","","26","","","","Clear"
"2008-08-21 14:00","2008","08","21","14:00","21.7","","14.3","","63","","19","","15","","24.1","","101.41","","25","","","","Clear"
"2008-08-21 15:00","2008","08","21","15:00","22.0","","14.2","","61","","19","","11","","24.1","","101.38","","25","","","","Mainly Clear"
"2008-08-21 16:00","2008","08","21","16:00","22.5","","10.8","","48","","18","","6","","24.1","","101.33","","","","","","Mainly Clear"
"2008-08-21 17:00","2008","08","21","17:00","22.5","","11.7","","50","","","","0","","24.1","","101.31","","25","","","","Mostly Cloudy"
"2008-08-21 18:00","2008","08","21","18:00","22.1","","13.1","","57","","","","0","","24.1","","101.30","","25","","","","Mostly Cloudy"
"2008-08-21 19:00","2008","08","21","19:00","21.2","","12.9","","59","","","","0","","24.1","","101.25","","","","","","Mostly Cloudy"
"2008-08-21 20:00","2008","08","21","20:00","19.4","","12.2","","63","","","","0","","24.1","","101.30","","","","","","Mainly Clear"
"2008-08-21 21:00","2008","08","21","21:00","18.1","","12.7","","71","","6","","4","","24.1","","101.29","","","","","","Mainly Clear"
"2008-08-21 22:00","2008","08","21","22:00","17.0","","12.9","","77","","3","","4","","24.1","","101.30","","","","","","Mainly Clear"
"2008-08-21 23:00","2008","08","21","23:00"
"2008-08-22 00:00","2008","08","22","00:00"
"2008-08-22 01:00","2008","08","22","01:00"
"2008-08-22 02:00","2008","08","22","02:00"
"2008-08-22 03:00","2008","08","22","03:00"
"2008-08-22 04:00","2008","08","22","04:00"
"2008-08-22 05:00","2008","08","22","05:00","15.7","","14.6","","93","","6","","6","","24.1","","101.38","","","","","","Mainly Clear"
"2008-08-22 06:00","2008","08","22","06:00","15.2","","13.7","","91","","3","","6","","24.1","","101.44","","","","","","Mainly Clear"
"2008-08-22 07:00","2008","08","22","07:00","21.6","","17.7","","78","","18","","22","","24.1","","101.47","","27","","","","Mostly Cloudy"
"2008-08-22 08:00","2008","08","22","08:00","21.8","","17.8","","78","","18","","19","","24.1","","101.50","","28","","","","Mostly Cloudy"
"2008-08-22 09:00","2008","08","22","09:00","22.2","","17.7","","76","","19","","15","","24.1","","101.51","","28","","","","Mostly Cloudy"
"2008-08-22 10:00","2008","08","22","10:00","22.4","","17.7","","75","","19","","17","","24.1","","101.53","","28","","","","Mostly Cloudy"
"2008-08-22 11:00","2008","08","22","11:00","23.2","","18.2","","73","","18","","15","","24.1","","101.52","","29","","","","Mostly Cloudy"
"2008-08-22 12:00","2008","08","22","12:00","23.8","","18.5","","72","","18","","13","","24.1","","101.51","","30","","","","Mostly Cloudy"
"2008-08-22 13:00","2008","08","22","13:00","23.8","","18.0","","70","","16","","13","","24.1","","101.49","","30","","","","Mostly Cloudy"
"2008-08-22 14:00","2008","08","22","14:00","24.2","","18.5","","71","","16","","13","","24.1","","101.43","","31","","","","Mostly Cloudy"
"2008-08-22 15:00","2008","08","22","15:00","24.4","","18.4","","69","","17","","6","","24.1","","101.40","","31","","","","Mostly Cloudy"
"2008-08-22 16:00","2008","08","22","16:00","25.7","","14.9","","51","","21","","4","","24.1","","101.37","","30","","","","Mostly Cloudy"
"2008-08-22 17:00","2008","08","22","17:00","26.0","","16.9","","57","","18","","4","","24.1","","101.35","","31","","","","Mostly Cloudy"
"2008-08-22 18:00","2008","08","22","18:00","25.6","","17.1","","59","","14","","4","","24.1","","101.32","","31","","","","Mostly Cloudy"
"2008-08-22 19:00","2008","08","22","19:00","24.9","","17.3","","63","","10","","4","","24.1","","101.30","","30","","","","Mostly Cloudy"
"2008-08-22 20:00","2008","08","22","20:00","24.8","","16.8","","61","","12","","7","","24.1","","101.32","","30","","","","Mostly Cloudy"
"2008-08-22 21:00","2008","08","22","21:00","22.9","","17.4","","71","","8","","6","","24.1","","101.33","","28","","","","Mainly Clear"
"2008-08-22 22:00","2008","08","22","22:00","21.8","","17.5","","77","","9","","6","","24.1","","101.30","","27","","","","Mainly Clear"
"2008-08-22 23:00","2008","08","22","23:00"
"2008-08-23 00:00","2008","08","23","00:00"
"2008-08-23 01:00","2008","08","23","01:00"
"2008-08-23 02:00","2008","08","23","02:00"
"2008-08-23 03:00","2008","08","23","03:00"
"2008-08-23 04:00","2008","08","23","04:00"
"2008-08-23 05:00","2008","08","23","05:00","22.0","","18.7","","82","","18","","17","","24.1","","101.27","","29","","","","Mostly Cloudy"
"2008-08-23 06:00","2008","08","23","06:00","21.9","","18.5","","81","","19","","24","","24.1","","101.31","","28","","","","Mostly Cloudy"
"2008-08-23 07:00","2008","08","23","07:00","21.7","","18.1","","80","","18","","24","","24.1","","101.33","","28","","","","Mostly Cloudy"
"2008-08-23 08:00","2008","08","23","08:00","22.0","","18.0","","78","","18","","30","","24.1","","101.31","","28","","","","Mostly Cloudy"
"2008-08-23 09:00","2008","08","23","09:00","22.2","","18.0","","77","","18","","22","","24.1","","101.26","","28","","","","Mostly Cloudy"
"2008-08-23 10:00","2008","08","23","10:00","22.7","","17.8","","74","","18","","26","","24.1","","101.22","","29","","","","Mostly Cloudy"
"2008-08-23 11:00","2008","08","23","11:00","23.4","","19.0","","76","","18","","24","","24.1","","101.17","","30","","","","Mostly Cloudy"
"2008-08-23 12:00","2008","08","23","12:00","24.2","","19.0","","73","","18","","19","","24.1","","101.13","","31","","","","Mostly Cloudy"
"2008-08-23 13:00","2008","08","23","13:00","24.1","","19.4","","75","","18","","17","","24.1","","101.08","","31","","","","Mostly Cloudy"
"2008-08-23 14:00","2008","08","23","14:00","24.4","","19.5","","74","","17","","15","","24.1","","101.03","","32","","","","Mostly Cloudy"
"2008-08-23 15:00","2008","08","23","15:00","24.9","","20.1","","75","","17","","15","","24.1","","100.94","","33","","","","Mostly Cloudy"
"2008-08-23 16:00","2008","08","23","16:00","24.3","","20.3","","78","","19","","11","","24.1","","100.91","","32","","","","Mostly Cloudy"
"2008-08-23 17:00","2008","08","23","17:00","24.7","","20.5","","77","","17","","9","","24.1","","100.87","","33","","","","Mostly Cloudy"
"2008-08-23 18:00","2008","08","23","18:00","24.2","","20.0","","77","","18","","7","","24.1","","100.78","","32","","","","Mainly Clear"
"2008-08-23 19:00","2008","08","23","19:00","23.5","","20.1","","81","","16","","11","","24.1","","100.75","","31","","","","Mainly Clear"
"2008-08-23 20:00","2008","08","23","20:00","23.7","","19.9","","79","","18","","9","","24.1","","100.77","","31","","","","Mainly Clear"
"2008-08-23 21:00","2008","08","23","21:00","23.6","","19.7","","79","","17","","15","","24.1","","100.73","","31","","","","Clear"
"2008-08-23 22:00","2008","08","23","22:00","23.3","","19.5","","79","","18","","22","","24.1","","100.68","","30","","","","Clear"
"2008-08-23 23:00","2008","08","23","23:00"
"2008-08-24 00:00","2008","08","24","00:00"
"2008-08-24 01:00","2008","08","24","01:00"
"2008-08-24 02:00","2008","08","24","02:00"
"2008-08-24 03:00","2008","08","24","03:00"
"2008-08-24 04:00","2008","08","24","04:00"
"2008-08-24 05:00","2008","08","24","05:00","22.2","","18.8","","81","","19","","19","","19.3","","100.48","","29","","","","Mostly Cloudy"
"2008-08-24 06:00","2008","08","24","06:00","22.1","","18.4","","80","","18","","22","","19.3","","100.45","","28","","","","Mostly Cloudy"
"2008-08-24 07:00","2008","08","24","07:00","22.1","","18.4","","80","","20","","22","","19.3","","100.46","","28","","","","Mostly Cloudy"
"2008-08-24 08:00","2008","08","24","08:00","22.2","","18.6","","80","","19","","22","","24.1","","100.42","","29","","","","Mostly Cloudy"
"2008-08-24 09:00","2008","08","24","09:00","22.1","","18.1","","78","","20","","22","","24.1","","100.38","","28","","","","Mostly Cloudy"
"2008-08-24 10:00","2008","08","24","10:00","22.6","","18.3","","77","","20","","22","","24.1","","100.37","","29","","","","Mostly Cloudy"
"2008-08-24 11:00","2008","08","24","11:00","23.4","","18.9","","76","","19","","22","","24.1","","100.29","","30","","","","Mostly Cloudy"
"2008-08-24 12:00","2008","08","24","12:00","23.5","","19.5","","78","","19","","20","","24.1","","100.23","","31","","","","Cloudy"
"2008-08-24 13:00","2008","08","24","13:00","24.0","","19.6","","76","","20","","24","","24.1","","100.19","","31","","","","Mostly Cloudy"
"2008-08-24 14:00","2008","08","24","14:00","23.3","","19.2","","78","","20","","19","","24.1","","100.14","","30","","","","Mostly Cloudy"
"2008-08-24 15:00","2008","08","24","15:00","23.5","","19.0","","76","","21","","15","","19.3","","100.10","","30","","","","Cloudy"
"2008-08-24 16:00","2008","08","24","16:00","23.7","","19.5","","77","","20","","11","","19.3","","100.01","","31","","","","Mostly Cloudy"
"2008-08-24 17:00","2008","08","24","17:00","23.9","","19.9","","78","","23","","6","","16.1","","99.97","","31","","","","Mostly Cloudy"
"2008-08-24 18:00","2008","08","24","18:00","24.0","","19.4","","75","","22","","9","","16.1","","99.96","","31","","","","Mostly Cloudy"
"2008-08-24 19:00","2008","08","24","19:00","23.2","","19.3","","79","","","","0","","16.1","","99.93","","30","","","","Mostly Cloudy"
"2008-08-24 20:00","2008","08","24","20:00","22.4","","19.6","","84","","","","0","","19.3","","99.96","","30","","","","Mainly Clear"
"2008-08-24 21:00","2008","08","24","21:00","22.3","","19.6","","85","","26","","7","","16.1","","100.02","","30","","","","Clear"
"2008-08-24 22:00","2008","08","24","22:00","21.5","","18.4","","83","","31","","13","","16.1","","100.00","","28","","","","Mainly Clear"
"2008-08-24 23:00","2008","08","24","23:00"
"2008-08-25 00:00","2008","08","25","00:00"
"2008-08-25 01:00","2008","08","25","01:00"
"2008-08-25 02:00","2008","08","25","02:00"
"2008-08-25 03:00","2008","08","25","03:00"
"2008-08-25 04:00","2008","08","25","04:00"
"2008-08-25 05:00","2008","08","25","05:00","14.1","","12.3","","89","","","","0","","24.1","","100.27","","","","","","Mainly Clear"
"2008-08-25 06:00","2008","08","25","06:00","13.8","","11.8","","88","","","","0","","24.1","","100.36","","","","","","Mainly Clear"
"2008-08-25 07:00","2008","08","25","07:00","15.3","","11.5","","78","","36","","17","","24.1","","100.41","","","","","","Mostly Cloudy"
"2008-08-25 08:00","2008","08","25","08:00","16.0","","10.8","","71","","34","","13","","24.1","","100.46","","","","","","Mainly Clear"
"2008-08-25 09:00","2008","08","25","09:00","17.1","","10.4","","65","","35","","26","","24.1","","100.51","","","","","","Mainly Clear"
"2008-08-25 10:00","2008","08","25","10:00","18.1","","9.3","","56","","34","","20","","24.1","","100.54","","","","","","Mainly Clear"
"2008-08-25 11:00","2008","08","25","11:00","18.7","","9.1","","54","","35","","20","","24.1","","100.56","","","","","","Mostly Cloudy"
"2008-08-25 12:00","2008","08","25","12:00","18.9","","9.2","","53","","35","","24","","24.1","","100.55","","","","","","Mostly Cloudy"
"2008-08-25 13:00","2008","08","25","13:00","18.8","","9.1","","53","","35","","15","","24.1","","100.55","","","","","","Mostly Cloudy"
"2008-08-25 14:00","2008","08","25","14:00","18.8","","9.2","","54","","32","","20","","24.1","","100.55","","","","","","Mostly Cloudy"
"2008-08-25 15:00","2008","08","25","15:00","19.3","","9.6","","53","","34","","19","","24.1","","100.52","","","","","","Mostly Cloudy"
"2008-08-25 16:00","2008","08","25","16:00","19.4","","9.7","","53","","1","","15","","24.1","","100.54","","","","","","Mostly Cloudy"
"2008-08-25 17:00","2008","08","25","17:00","19.3","","9.4","","53","","33","","7","","24.1","","100.57","","","","","","Mainly Clear"
"2008-08-25 18:00","2008","08","25","18:00","19.1","","10.3","","57","","35","","4","","24.1","","100.56","","","","","","Mainly Clear"
"2008-08-25 19:00","2008","08","25","19:00","18.2","","9.9","","58","","","","0","","24.1","","100.59","","","","","","Mainly Clear"
"2008-08-25 20:00","2008","08","25","20:00","15.0","","10.5","","74","","","","0","","24.1","","100.65","","","","","","Mainly Clear"
"2008-08-25 21:00","2008","08","25","21:00","13.6","","11.0","","84","","","","0","","24.1","","100.71","","","","","","Clear"
"2008-08-25 22:00","2008","08","25","22:00","12.2","","10.4","","89","","","","0","","24.1","","100.72","","","","","","Clear"
"2008-08-25 23:00","2008","08","25","23:00"
"2008-08-26 00:00","2008","08","26","00:00"
"2008-08-26 01:00","2008","08","26","01:00"
"2008-08-26 02:00","2008","08","26","02:00"
"2008-08-26 03:00","2008","08","26","03:00"
"2008-08-26 04:00","2008","08","26","04:00"
"2008-08-26 05:00","2008","08","26","05:00","9.1","","7.1","","87","","35","","9","","24.1","","100.86","","","","","","Mainly Clear"
"2008-08-26 06:00","2008","08","26","06:00","9.1","","7.2","","88","","36","","9","","24.1","","100.92","","","","","","Mostly Cloudy"
"2008-08-26 07:00","2008","08","26","07:00","12.0","","8.7","","80","","","","0","","24.1","","100.98","","","","","","Mostly Cloudy"
"2008-08-26 08:00","2008","08","26","08:00","15.3","","8.1","","62","","2","","6","","24.1","","101.01","","","","","","Mostly Cloudy"
"2008-08-26 09:00","2008","08","26","09:00","17.5","","7.5","","52","","1","","4","","24.1","","101.06","","","","","","Mostly Cloudy"
"2008-08-26 10:00","2008","08","26","10:00","18.6","","4.1","","38","","3","","15","","24.1","","101.09","","","","","","Mostly Cloudy"
"2008-08-26 11:00","2008","08","26","11:00","20.4","","4.7","","36","","36","","15","","24.1","","101.07","","","","","","Mostly Cloudy"
"2008-08-26 12:00","2008","08","26","12:00","21.5","","4.7","","33","","34","","11","","24.1","","101.04","","","","","","Mostly Cloudy"
"2008-08-26 13:00","2008","08","26","13:00","21.8","","3.6","","30","","5","","9","","24.1","","100.98","","","","","","Mostly Cloudy"
"2008-08-26 14:00","2008","08","26","14:00","22.8","","4.2","","30","","34","","4","","24.1","","100.94","","","","","","Mostly Cloudy"
"2008-08-26 15:00","2008","08","26","15:00","22.7","","4.0","","29","","2","","11","","24.1","","100.90","","","","","","Mostly Cloudy"
"2008-08-26 16:00","2008","08","26","16:00","22.5","","5.4","","33","","34","","7","","24.1","","100.87","","","","","","Mostly Cloudy"
"2008-08-26 17:00","2008","08","26","17:00","22.5","","6.3","","35","","35","","7","","24.1","","100.86","","","","","","Mostly Cloudy"
"2008-08-26 18:00","2008","08","26","18:00","20.8","","10.5","","52","","13","","7","","24.1","","100.86","","","","","","Mostly Cloudy"
"2008-08-26 19:00","2008","08","26","19:00","20.3","","9.7","","51","","23","","6","","24.1","","100.88","","","","","","Mostly Cloudy"
"2008-08-26 20:00","2008","08","26","20:00","18.7","","10.4","","58","","","","0","","24.1","","100.95","","","","","","Mostly Cloudy"
"2008-08-26 21:00","2008","08","26","21:00","15.5","","10.8","","74","","36","","6","","24.1","","100.99","","","","","","Mostly Cloudy"
"2008-08-26 22:00","2008","08","26","22:00","16.6","","10.9","","69","","","","0","","24.1","","100.99","","","","","","Mainly Clear"
"2008-08-26 23:00","2008","08","26","23:00"
"2008-08-27 00:00","2008","08","27","00:00"
"2008-08-27 01:00","2008","08","27","01:00"
"2008-08-27 02:00","2008","08","27","02:00"
"2008-08-27 03:00","2008","08","27","03:00"
"2008-08-27 04:00","2008","08","27","04:00"
"2008-08-27 05:00","2008","08","27","05:00","11.2","","9.1","","87","","4","","6","","24.1","","100.93","","","","","","Mainly Clear"
"2008-08-27 06:00","2008","08","27","06:00","11.1","","9.5","","90","","","","0","","24.1","","100.96","","","","","","Mostly Cloudy"
"2008-08-27 07:00","2008","08","27","07:00","15.2","","10.2","","72","","6","","7","","24.1","","100.95","","","","","","Mostly Cloudy"
"2008-08-27 08:00","2008","08","27","08:00","18.6","","10.9","","61","","","","0","","24.1","","100.99","","","","","","Mostly Cloudy"
"2008-08-27 09:00","2008","08","27","09:00","19.1","","9.7","","54","","12","","11","","24.1","","100.98","","","","","","Mostly Cloudy"
"2008-08-27 10:00","2008","08","27","10:00","20.3","","10.7","","54","","","","0","","24.1","","101.00","","","","","","Mostly Cloudy"
"2008-08-27 11:00","2008","08","27","11:00","20.6","","11.3","","55","","","","0","","24.1","","101.02","","","","","","Mostly Cloudy"
"2008-08-27 12:00","2008","08","27","12:00","21.6","","9.9","","47","","16","","4","","24.1","","101.01","","","","","","Mostly Cloudy"
"2008-08-27 13:00","2008","08","27","13:00","21.1","","10.0","","49","","","","0","","24.1","","100.94","","","","","","Mostly Cloudy"
"2008-08-27 14:00","2008","08","27","14:00","21.4","","10.1","","48","","","","0","","24.1","","100.88","","","","","","Mostly Cloudy"
"2008-08-27 15:00","2008","08","27","15:00","22.0","","10.2","","47","","","","0","","24.1","","100.83","","","","","","Mostly Cloudy"
"2008-08-27 16:00","2008","08","27","16:00","23.4","","8.1","","38","","","","0","","24.1","","100.75","","","","","","Mostly Cloudy"
"2008-08-27 17:00","2008","08","27","17:00","22.1","","9.4","","44","","","","0","","24.1","","100.73","","","","","","Mostly Cloudy"
"2008-08-27 18:00","2008","08","27","18:00","21.7","","10.8","","50","","","","0","","24.1","","100.72","","","","","","Mostly Cloudy"
"2008-08-27 19:00","2008","08","27","19:00","19.5","","12.0","","62","","","","0","","24.1","","100.73","","","","","","Mostly Cloudy"
"2008-08-27 20:00","2008","08","27","20:00","17.5","","11.5","","68","","","","0","","24.1","","100.76","","","","","","Mostly Cloudy"
"2008-08-27 21:00","2008","08","27","21:00","17.7","","12.1","","70","","","","0","","24.1","","100.79","","","","","","Mostly Cloudy"
"2008-08-27 22:00","2008","08","27","22:00","18.7","","12.1","","65","","","","0","","24.1","","100.75","","","","","","Mostly Cloudy"
"2008-08-27 23:00","2008","08","27","23:00"
"2008-08-28 00:00","2008","08","28","00:00"
"2008-08-28 01:00","2008","08","28","01:00"
"2008-08-28 02:00","2008","08","28","02:00"
"2008-08-28 03:00","2008","08","28","03:00"
"2008-08-28 04:00","2008","08","28","04:00"
"2008-08-28 05:00","2008","08","28","05:00","14.9","","13.1","","89","","","","0","","24.1","","100.64","","","","","","Cloudy"
"2008-08-28 06:00","2008","08","28","06:00","16.0","","13.7","","86","","","","0","","24.1","","100.65","","","","","","Cloudy"
"2008-08-28 07:00","2008","08","28","07:00","17.3","","13.8","","80","","","","0","","24.1","","100.67","","","","","","Mostly Cloudy"
"2008-08-28 08:00","2008","08","28","08:00","18.6","","14.2","","76","","","","0","","24.1","","100.70","","","","","","Mostly Cloudy"
"2008-08-28 09:00","2008","08","28","09:00","20.7","","14.8","","69","","36","","4","E","24.1","","100.73","","25","","","","Mostly Cloudy"
"2008-08-28 10:00","2008","08","28","10:00","22.1","","15.4","","66","","17","","4","","24.1","","100.71","","26","","","","Mostly Cloudy"
"2008-08-28 11:00","2008","08","28","11:00","22.6","","15.3","","63","","16","","9","","24.1","","100.67","","27","","","","Mostly Cloudy"
"2008-08-28 12:00","2008","08","28","12:00","22.6","","15.1","","63","","17","","13","","24.1","","100.63","","27","","","","Mainly Clear"
"2008-08-28 13:00","2008","08","28","13:00","23.0","","14.0","","57","","19","","11","","24.1","","100.61","","26","","","","Mainly Clear"
"2008-08-28 14:00","2008","08","28","14:00","23.1","","13.6","","55","","21","","9","","24.1","","100.60","","26","","","","Mostly Cloudy"
"2008-08-28 15:00","2008","08","28","15:00","22.9","","13.8","","56","","23","","15","","24.1","","100.57","","26","","","","Mostly Cloudy"
"2008-08-28 16:00","2008","08","28","16:00","23.1","","13.7","","55","","23","","15","","24.1","","100.54","","26","","","","Mostly Cloudy"
"2008-08-28 17:00","2008","08","28","17:00","22.4","","13.7","","58","","22","","13","","24.1","","100.49","","26","","","","Mostly Cloudy"
"2008-08-28 18:00","2008","08","28","18:00","21.8","","14.1","","62","","22","","13","","24.1","","100.43","","25","","","","Mostly Cloudy"
"2008-08-28 19:00","2008","08","28","19:00","21.3","","14.1","","64","","24","","6","","24.1","","100.47","","25","","","","Mostly Cloudy"
"2008-08-28 20:00","2008","08","28","20:00","20.8","","14.1","","65","","","","0","","24.1","","100.52","","","","","","Cloudy"
"2008-08-28 21:00","2008","08","28","21:00","20.8","","14.2","","66","","","","0","","24.1","","100.52","","","","","","Cloudy"
"2008-08-28 22:00","2008","08","28","22:00","19.9","","15.2","","74","","23","","6","","24.1","","100.51","","","","","","Rain"
"2008-08-28 23:00","2008","08","28","23:00"
"2008-08-29 00:00","2008","08","29","00:00"
"2008-08-29 01:00","2008","08","29","01:00"
"2008-08-29 02:00","2008","08","29","02:00"
"2008-08-29 03:00","2008","08","29","03:00"
"2008-08-29 04:00","2008","08","29","04:00"
"2008-08-29 05:00","2008","08","29","05:00","19.9","","16.2","","79","","17","","30","","24.1","","100.34","","","","","","Cloudy"
"2008-08-29 06:00","2008","08","29","06:00","19.2","","16.0","","82","","18","","35","","19.3","","100.33","","","","","","Drizzle"
"2008-08-29 07:00","2008","08","29","07:00","19.3","","16.0","","81","","19","","30","","24.1","","100.36","","","","","","Cloudy"
"2008-08-29 08:00","2008","08","29","08:00","19.2","","16.2","","83","","19","","30","","24.1","","100.36","","","","","","Cloudy"
"2008-08-29 09:00","2008","08","29","09:00","18.7","","16.5","","87","","18","","30","","16.1","","100.38","","","","","","Drizzle"
"2008-08-29 10:00","2008","08","29","10:00","19.1","","16.5","","85","","19","","32","","24.1","","100.38","","","","","","Cloudy"
"2008-08-29 11:00","2008","08","29","11:00","19.0","","16.3","","84","","18","","26","","24.1","","100.36","","","","","","Cloudy"
"2008-08-29 12:00","2008","08","29","12:00","19.4","","16.8","","85","","19","","26","","24.1","","100.31","","","","","","Cloudy"
"2008-08-29 13:00","2008","08","29","13:00","19.8","","16.9","","83","","18","","24","","24.1","","100.31","","","","","","Cloudy"
"2008-08-29 14:00","2008","08","29","14:00","20.0","","17.2","","84","","18","","22","","24.1","","100.26","","25","","","","Cloudy"
"2008-08-29 15:00","2008","08","29","15:00","20.2","","17.4","","84","","19","","19","","24.1","","100.24","","26","","","","Cloudy"
"2008-08-29 16:00","2008","08","29","16:00","20.4","","17.7","","84","","19","","19","","24.1","","100.23","","26","","","","Cloudy"
"2008-08-29 17:00","2008","08","29","17:00","20.7","","17.7","","83","","20","","19","","24.1","","100.24","","26","","","","Cloudy"
"2008-08-29 18:00","2008","08","29","18:00","20.9","","17.9","","83","","21","","11","","24.1","","100.25","","27","","","","Cloudy"
"2008-08-29 19:00","2008","08","29","19:00","21.1","","18.1","","83","","19","","17","","24.1","","100.24","","27","","","","Cloudy"
"2008-08-29 20:00","2008","08","29","20:00","20.9","","18.3","","85","","18","","19","","24.1","","100.29","","27","","","","Cloudy"
"2008-08-29 21:00","2008","08","29","21:00","21.1","","18.5","","85","","19","","13","","24.1","","100.31","","27","","","","Cloudy"
"2008-08-29 22:00","2008","08","29","22:00","20.8","","16.5","","76","","18","","13","","24.1","","100.29","","26","","","","Mainly Clear"
"2008-08-29 23:00","2008","08","29","23:00"
"2008-08-30 00:00","2008","08","30","00:00"
"2008-08-30 01:00","2008","08","30","01:00"
"2008-08-30 02:00","2008","08","30","02:00"
"2008-08-30 03:00","2008","08","30","03:00"
"2008-08-30 04:00","2008","08","30","04:00"
"2008-08-30 05:00","2008","08","30","05:00","18.8","","17.5","","92","","31","","4","","11.3","","100.32","","","","","","Mostly Cloudy"
"2008-08-30 06:00","2008","08","30","06:00","17.9","","17.2","","96","","32","","7","","0.4","","100.41","","","","","","Fog"
"2008-08-30 07:00","2008","08","30","07:00","18.5","","17.9","","96","","28","","4","","2.4","","100.48","","","","","","Fog"
"2008-08-30 08:00","2008","08","30","08:00","19.5","","18.1","","92","","31","","4","","8.0","","100.52","","","","","","Fog"
"2008-08-30 09:00","2008","08","30","09:00","20.4","","18.0","","86","","24","","6","","9.7","","100.56","","26","","","","Fog"
"2008-08-30 10:00","2008","08","30","10:00","22.0","","17.5","","76","","35","","7","","12.9","","100.60","","28","","","","Mainly Clear"
"2008-08-30 11:00","2008","08","30","11:00","22.4","","17.8","","75","","22","","11","","16.1","","100.61","","28","","","","Mainly Clear"
"2008-08-30 12:00","2008","08","30","12:00","22.8","","18.4","","76","","20","","17","","19.3","","100.60","","29","","","","Mainly Clear"
"2008-08-30 13:00","2008","08","30","13:00","22.9","","19.0","","79","","19","","22","","19.3","","100.58","","30","","","","Mainly Clear"
"2008-08-30 14:00","2008","08","30","14:00","23.2","","19.2","","78","","19","","24","","12.9","","100.56","","30","","","","Mainly Clear"
"2008-08-30 15:00","2008","08","30","15:00","24.3","","17.9","","67","","22","","15","","16.1","","100.51","","30","","","","Clear"
"2008-08-30 16:00","2008","08","30","16:00","27.0","","10.3","","35","","30","","13","","24.1","","100.51","","28","","","","Mainly Clear"
"2008-08-30 17:00","2008","08","30","17:00","26.2","","12.6","","43","","31","","6","","24.1","","100.53","","29","","","","Mainly Clear"
"2008-08-30 18:00","2008","08","30","18:00","25.3","","15.3","","54","","26","","13","","24.1","","100.56","","29","","","","Mainly Clear"
"2008-08-30 19:00","2008","08","30","19:00","23.2","","15.6","","62","","27","","11","","24.1","","100.61","","28","","","","Mainly Clear"
"2008-08-30 20:00","2008","08","30","20:00","21.3","","16.0","","72","","26","","11","","24.1","","100.68","","26","","","","Clear"
"2008-08-30 21:00","2008","08","30","21:00","20.6","","13.6","","64","","30","","15","","24.1","","100.73","","","","","","Clear"
"2008-08-30 22:00","2008","08","30","22:00","20.0","","12.8","","63","","31","","13","","24.1","","100.79","","","","","","Clear"
"2008-08-30 23:00","2008","08","30","23:00"
"2008-08-31 00:00","2008","08","31","00:00"
"2008-08-31 01:00","2008","08","31","01:00"
"2008-08-31 02:00","2008","08","31","02:00"
"2008-08-31 03:00","2008","08","31","03:00"
"2008-08-31 04:00","2008","08","31","04:00"
"2008-08-31 05:00","2008","08","31","05:00","14.2","","11.5","","84","","34","","15","","24.1","","101.02","","","","","","Mainly Clear"
"2008-08-31 06:00","2008","08","31","06:00","14.3","","11.8","","85","","36","","11","","24.1","","101.12","","","","","","Clear"
"2008-08-31 07:00","2008","08","31","07:00","16.7","","12.9","","78","","36","","11","","24.1","","101.19","","","","","","Clear"
"2008-08-31 08:00","2008","08","31","08:00","20.2","","13.9","","67","","36","","9","","24.1","","101.23","","","","","","Clear"
"2008-08-31 09:00","2008","08","31","09:00","21.5","","15.3","","68","","17","","4","","24.1","","101.29","","26","","","","Clear"
"2008-08-31 10:00","2008","08","31","10:00","21.6","","15.6","","69","","17","","9","","24.1","","101.30","","26","","","","Clear"
"2008-08-31 11:00","2008","08","31","11:00","22.6","","17.0","","71","","16","","7","","24.1","","101.29","","28","","","","Mainly Clear"
"2008-08-31 12:00","2008","08","31","12:00","23.1","","17.1","","69","","36","","9","","24.1","","101.24","","28","","","","Mainly Clear"
"2008-08-31 13:00","2008","08","31","13:00","22.4","","17.1","","72","","19","","19","","24.1","","101.20","","28","","","","Mainly Clear"
"2008-08-31 14:00","2008","08","31","14:00","22.6","","16.8","","70","","18","","20","","24.1","","101.15","","28","","","","Mainly Clear"
"2008-08-31 15:00","2008","08","31","15:00","23.6","","16.4","","64","","21","","20","","24.1","","101.13","","28","","","","Mainly Clear"
"2008-08-31 16:00","2008","08","31","16:00","23.2","","16.6","","66","","21","","20","","24.1","","101.12","","28","","","","Mainly Clear"
"2008-08-31 17:00","2008","08","31","17:00","23.0","","15.2","","61","","20","","15","","24.1","","101.10","","27","","","","Clear"
"2008-08-31 18:00","2008","08","31","18:00","22.6","","16.0","","66","","22","","9","","24.1","","101.08","","27","","","","Clear"
"2008-08-31 19:00","2008","08","31","19:00","22.1","","15.8","","67","","24","","9","","24.1","","101.08","","27","","","","Clear"
"2008-08-31 20:00","2008","08","31","20:00","21.4","","16.7","","75","","27","","7","","24.1","","101.13","","26","","","","Mainly Clear"
"2008-08-31 21:00","2008","08","31","21:00","20.4","","14.9","","71","","27","","7","","24.1","","101.13","","","","","","Clear"
"2008-08-31 22:00","2008","08","31","22:00","18.3","","14.2","","77","","28","","4","","24.1","","101.17","","","","","","Clear"
"2008-08-31 23:00","2008","08","31","23:00"
