"Station Name","KINGSTON A"
"Province","ONTARIO"
"Latitude","44.22"
"Longitude","-76.60"
"Elevation","92.40"
"Climate Identifier","6104146"
"WMO Identifier",""
"TC Identifier","YGK"
"All times are specified in Local Standard Time (LST). Add 1 hour to adjust for Daylight Saving Time where and when it is observed."

"Legend"
"E","Estimated"
"M","Missing"
"NA","Not Available"

"Date/Time","Year","Month","Day","Time","Temp (°C)","Temp Flag","Dew Point Temp (°C)","Dew Point Temp Flag","Rel Hum (%)","Rel Hum Flag","Wind Dir (10s deg)","Wind Dir Flag","Wind Spd (km/h)","Wind Spd Flag","Visibility (km)","Visibility Flag","Stn Press (kPa)","Stn Press Flag","Hmdx","Hmdx Flag","Wind Chill","Wind Chill Flag","Weather"
"2008-12-01 00:00","2008","12","01","00:00"
"2008-12-01 01:00","2008","12","01","01:00"
"2008-12-01 02:00","2008","12","01","02:00"
"2008-12-01 03:00","2008","12","01","03:00"
"2008-12-01 04:00","2008","12","01","04:00"
"2008-12-01 05:00","2008","12","01","05:00"
"2008-12-01 06:00","2008","12","01","06:00","4.2","","2.7","","90","","14","","20","","12.9","","97.88","","","","","","Rain"
"2008-12-01 07:00","2008","12","01","07:00","5.9","","3.7","","86","","19","","35","","16.1","","97.94","","","","","","Rain"
"2008-12-01 08:00","2008","12","01","08:00","6.7","","2.7","","76","","20","","39","","24.1","","97.96","","","","","","Mostly Cloudy"
"2008-12-01 09:00","2008","12","01","09:00","6.4","","1.6","","71","","21","","43","","24.1","","98.01","","","","","","Rain"
"2008-12-01 10:00","2008","12","01","10:00","5.1","","1.7","","79","","22","","37","","16.1","","98.14","","","","","","Rain"
"2008-12-01 11:00","2008","12","01","11:00","5.7","","2.3","","79","","22","","26","","24.1","","98.15","","","","","","Cloudy"
"2008-12-01 12:00","2008","12","01","12:00","6.4","","1.5","","71","","22","","33","","24.1","","98.17","","","","","","Cloudy"
"2008-12-01 13:00","2008","12","01","13:00","5.6","","0.7","","71","","22","","32","","24.1","","98.25","","","","","","Rain"
"2008-12-01 14:00","2008","12","01","14:00","5.1","","-0.4","","68","","21","","35","","24.1","","98.30","","","","","","Mostly Cloudy"
"2008-12-01 15:00","2008","12","01","15:00","5.7","","-0.3","","65","","22","","35","","24.1","","98.33","","","","","","Mostly Cloudy"
"2008-12-01 16:00","2008","12","01","16:00","5.1","","-0.3","","68","","22","","33","","24.1","","98.41","","","","","","Mostly Cloudy"
"2008-12-01 17:00","2008","12","01","17:00","4.9","","-0.1","","70","","22","","32","","24.1","","98.46","","","","","","Mostly Cloudy"
"2008-12-01 18:00","2008","12","01","18:00","5.3","","-1.6","","61","","22","","37","","24.1","","98.53","","","","","","Mostly Cloudy"
"2008-12-01 19:00","2008","12","01","19:00","5.5","","-2.2","","58","","23","","44","","24.1","","98.62","","","","","","Cloudy"
"2008-12-01 20:00","2008","12","01","20:00","5.5","","-1.8","","59","","23","","43","","24.1","","98.64","","","","","","Cloudy"
"2008-12-01 21:00","2008","12","01","21:00","5.3","","-1.4","","62","","22","","46","","24.1","","98.70","","","","","","Cloudy"
"2008-12-01 22:00","2008","12","01","22:00","4.8","","-0.4","","69","","23","","35","","24.1","","98.75","","","","","","Cloudy"
"2008-12-01 23:00","2008","12","01","23:00","4.2","","-0.4","","72","","23","","46","","24.1","","98.83","","","","","","Rain Showers"
"2008-12-02 00:00","2008","12","02","00:00"
"2008-12-02 01:00","2008","12","02","01:00"
"2008-12-02 02:00","2008","12","02","02:00"
"2008-12-02 03:00","2008","12","02","03:00"
"2008-12-02 04:00","2008","12","02","04:00"
"2008-12-02 05:00","2008","12","02","05:00"
"2008-12-02 06:00","2008","12","02","06:00","1.5","","-3.8","","68","","26","","24","","24.1","","99.61","","","","","","Snow"
"2008-12-02 07:00","2008","12","02","07:00","1.0","","-4.7","","66","","27","","28","","24.1","","99.73","","","","","","Snow"
"2008-12-02 08:00","2008","12","02","08:00","0.7","","-4.9","","66","","26","","22","","24.1","","99.88","","","","","","Cloudy"
"2008-12-02 09:00","2008","12","02","09:00","0.5","","-4.9","","67","","26","","28","","24.1","","100.03","","","","","","Mostly Cloudy"
"2008-12-02 10:00","2008","12","02","10:00","0.4","","-5.5","","65","","27","","26","","24.1","","100.21","","","","","","Cloudy"
"2008-12-02 11:00","2008","12","02","11:00","0.5","","-5.4","","65","","28","","26","","24.1","","100.30","","","","","","Mostly Cloudy"
"2008-12-02 12:00","2008","12","02","12:00","1.5","","-5.8","","58","","29","","26","","24.1","","100.34","","","","","","Mainly Clear"
"2008-12-02 13:00","2008","12","02","13:00","1.7","","-5.1","","61","","27","","15","","24.1","","100.38","","","","","","Mostly Cloudy"
"2008-12-02 14:00","2008","12","02","14:00","1.5","","-5.1","","61","","26","","17","","24.1","","100.39","","","","","","Mostly Cloudy"
"2008-12-02 15:00","2008","12","02","15:00","1.6","","-5.9","","57","","27","","15","","24.1","","100.47","","","","","","Mostly Cloudy"
"2008-12-02 16:00","2008","12","02","16:00","1.8","","-6.6","","54","","26","","24","","24.1","","100.54","","","","","","Mostly Cloudy"
"2008-12-02 17:00","2008","12","02","17:00","1.8","","-6.4","","54","","25","","22","","24.1","","100.62","","","","","","Snow Showers"
"2008-12-02 18:00","2008","12","02","18:00","1.8","","-5.7","","57","","25","","22","","24.1","","100.67","","","","","","Snow Showers"
"2008-12-02 19:00","2008","12","02","19:00","1.5","","-5.7","","59","","25","","20","","19.3","","100.68","","","","","","Snow Showers"
"2008-12-02 20:00","2008","12","02","20:00","1.2","","-5.3","","62","","26","","17","","16.1","","100.73","","","","","","Snow Showers"
"2008-12-02 21:00","2008","12","02","21:00","1.2","","-3.0","","74","","24","","26","","19.3","","100.75","","","","","","Snow Showers"
"2008-12-02 22:00","2008","12","02","22:00","1.6","","-5.3","","60","","24","","32","","24.1","","100.75","","","","","","Snow Showers"
"2008-12-02 23:00","2008","12","02","23:00","1.5","","-6.3","","56","","25","","30","","24.1","","100.75","","","","","","Snow Showers"
"2008-12-03 00:00","2008","12","03","00:00"
"2008-12-03 01:00","2008","12","03","01:00"
"2008-12-03 02:00","2008","12","03","02:00"
"2008-12-03 03:00","2008","12","03","03:00"
"2008-12-03 04:00","2008","12","03","04:00"
"2008-12-03 05:00","2008","12","03","05:00"
"2008-12-03 06:00","2008","12","03","06:00","0.8","","-5.5","","63","","22","","33","","24.1","","100.88","","","","","","Cloudy"
"2008-12-03 07:00","2008","12","03","07:00","0.7","","-5.4","","64","","21","","28","","24.1","","100.87","","","","","","Cloudy"
"2008-12-03 08:00","2008","12","03","08:00","1.1","","-4.4","","67","","22","","30","","24.1","","100.84","","","","","","Mostly Cloudy"
"2008-12-03 09:00","2008","12","03","09:00","1.3","","-4.0","","68","","22","","30","","24.1","","100.84","","","","","","Mostly Cloudy"
"2008-12-03 10:00","2008","12","03","10:00","1.6","","-3.8","","67","","20","","32","","24.1","","100.85","","","","","","Cloudy"
"2008-12-03 11:00","2008","12","03","11:00","1.9","","-3.6","","67","","19","","37","","24.1","","100.79","","","","","","Mostly Cloudy"
"2008-12-03 12:00","2008","12","03","12:00","2.5","","-2.9","","67","","20","","28","","24.1","","100.71","","","","","","Mostly Cloudy"
"2008-12-03 13:00","2008","12","03","13:00","2.9","","-2.7","","67","","20","","33","","24.1","","100.63","","","","","","Mostly Cloudy"
"2008-12-03 14:00","2008","12","03","14:00","3.3","","-2.2","","67","","18","","33","","24.1","","100.54","","","","","","Mostly Cloudy"
"2008-12-03 15:00","2008","12","03","15:00","4.0","","-1.9","","65","","18","","30","","24.1","","100.49","","","","","","Mostly Cloudy"
"2008-12-03 16:00","2008","12","03","16:00","4.6","","-1.9","","63","","19","","35","","24.1","","100.46","","","","","","Mostly Cloudy"
"2008-12-03 17:00","2008","12","03","17:00","5.1","","-1.9","","61","","19","","35","","24.1","","100.44","","","","","","Mostly Cloudy"
"2008-12-03 18:00","2008","12","03","18:00","5.5","","-0.9","","63","","18","","33","","24.1","","100.37","","","","","","Cloudy"
"2008-12-03 19:00","2008","12","03","19:00","5.8","","-0.9","","62","","18","","35","","24.1","","100.30","","","","","","Cloudy"
"2008-12-03 20:00","2008","12","03","20:00","6.1","","-0.7","","62","","18","","41","","24.1","","100.19","","","","","","Cloudy"
"2008-12-03 21:00","2008","12","03","21:00","6.1","","-0.2","","64","","18","","43","","24.1","","100.07","","","","","","Cloudy"
"2008-12-03 22:00","2008","12","03","22:00","6.3","","-0.6","","61","","19","","50","","24.1","","100.05","","","","","","Cloudy"
"2008-12-03 23:00","2008","12","03","23:00","6.0","","0.0","","65","","19","","44","","24.1","","100.02","","","","","","Rain"
"2008-12-04 00:00","2008","12","04","00:00"
"2008-12-04 01:00","2008","12","04","01:00"
"2008-12-04 02:00","2008","12","04","02:00"
"2008-12-04 03:00","2008","12","04","03:00"
"2008-12-04 04:00","2008","12","04","04:00"
"2008-12-04 05:00","2008","12","04","05:00"
"2008-12-04 06:00","2008","12","04","06:00","6.1","","2.7","","79","","20","","35","","16.1","","99.73","","","","","","Rain"
"2008-12-04 07:00","2008","12","04","07:00","5.6","","3.4","","86","","25","","26","","9.7","","99.80","","","","","","Rain,Drizzle,Fog"
"2008-12-04 08:00","2008","12","04","08:00","4.9","","1.9","","81","","25","","30","","24.1","","99.87","","","","","","Cloudy"
"2008-12-04 09:00","2008","12","04","09:00","5.5","","1.9","","78","","25","","32","","16.1","","99.99","","","","","","Rain"
"2008-12-04 10:00","2008","12","04","10:00","4.2","","1.3","","81","","26","","20","","19.3","","100.11","","","","","","Rain"
"2008-12-04 11:00","2008","12","04","11:00","4.0","","-0.2","","74","","27","","19","","24.1","","100.24","","","","","","Mostly Cloudy"
"2008-12-04 12:00","2008","12","04","12:00","3.5","","-1.8","","68","","27","","26","","24.1","","100.31","","","","","","Mostly Cloudy"
"2008-12-04 13:00","2008","12","04","13:00","3.4","","-3.3","","61","","25","","28","","24.1","","100.35","","","","","","Mostly Cloudy"
"2008-12-04 14:00","2008","12","04","14:00","3.9","","-5.0","","52","","25","","30","","24.1","","100.41","","","","","","Mostly Cloudy"
"2008-12-04 15:00","2008","12","04","15:00","2.5","","-5.6","","55","","28","","28","","24.1","","100.53","","","","","","Mostly Cloudy"
"2008-12-04 16:00","2008","12","04","16:00","1.8","","-6.8","","53","","27","","22","","24.1","","100.63","","","","","","Mostly Cloudy"
"2008-12-04 17:00","2008","12","04","17:00","1.2","","-6.6","","56","","27","","17","","24.1","","100.71","","","","","","Mostly Cloudy"
"2008-12-04 18:00","2008","12","04","18:00","0.7","","-8.2","","51","","29","","26","","24.1","","100.79","","","","","","Mostly Cloudy"
"2008-12-04 19:00","2008","12","04","19:00","-0.5","","-9.9","","49","","30","","17","","24.1","","100.89","","","","-5","","Mostly Cloudy"
"2008-12-04 20:00","2008","12","04","20:00","-1.6","","-9.8","","54","","32","","19","","24.1","","100.94","","","","-7","","Mostly Cloudy"
"2008-12-04 21:00","2008","12","04","21:00","-1.6","","-10.2","","52","","30","","19","","24.1","","100.98","","","","-7","","Cloudy"
"2008-12-04 22:00","2008","12","04","22:00","-1.8","","-11.9","","46","","31","","15","","24.1","","100.99","","","","-7","","Cloudy"
"2008-12-04 23:00","2008","12","04","23:00","-2.0","","-11.8","","47","","31","","17","","24.1","","101.00","","","","-7","","Cloudy"
"2008-12-05 00:00","2008","12","05","00:00"
"2008-12-05 01:00","2008","12","05","01:00"
"2008-12-05 02:00","2008","12","05","02:00"
"2008-12-05 03:00","2008","12","05","03:00"
"2008-12-05 04:00","2008","12","05","04:00"
"2008-12-05 05:00","2008","12","05","05:00"
"2008-12-05 06:00","2008","12","05","06:00","-3.4","","-9.3","","64","","28","","9","","24.1","","101.03","","","","-7","","Mainly Clear"
"2008-12-05 07:00","2008","12","05","07:00","-3.8","","-9.4","","65","","27","","13","","24.1","","101.06","","","","-9","","Mainly Clear"
"2008-12-05 08:00","2008","12","05","08:00","-3.8","","-9.0","","67","","27","","13","","24.1","","101.09","","","","-9","","Mainly Clear"
"2008-12-05 09:00","2008","12","05","09:00","-2.9","","-9.2","","62","","25","","24","","24.1","","101.11","","","","-10","","Mostly Cloudy"
"2008-12-05 10:00","2008","12","05","10:00","-2.6","","-9.7","","58","","26","","20","","24.1","","101.11","","","","-9","","Mainly Clear"
"2008-12-05 11:00","2008","12","05","11:00","-1.7","","-9.7","","54","","27","","24","","24.1","","101.07","","","","-8","","Mainly Clear"
"2008-12-05 12:00","2008","12","05","12:00","-1.1","","-10.8","","48","","27","","28","","24.1","","100.99","","","","-8","","Mainly Clear"
"2008-12-05 13:00","2008","12","05","13:00","-1.5","","-9.5","","54","","26","","19","","24.1","","100.94","","","","-7","","Snow Showers"
"2008-12-05 14:00","2008","12","05","14:00","-1.3","","-11.1","","47","","26","","17","","24.1","","100.88","","","","-6","","Mainly Clear"
"2008-12-05 15:00","2008","12","05","15:00","-1.4","","-12.1","","44","","26","","17","","24.1","","100.86","","","","-7","","Mainly Clear"
"2008-12-05 16:00","2008","12","05","16:00","-2.0","","-11.9","","47","","26","","22","","24.1","","100.88","","","","-8","","Mainly Clear"
"2008-12-05 17:00","2008","12","05","17:00","-3.0","","-12.1","","49","","28","","13","","24.1","","100.87","","","","-8","","Mainly Clear"
"2008-12-05 18:00","2008","12","05","18:00","-2.8","","-11.8","","50","","28","","13","","24.1","","100.87","","","","-7","","Mostly Cloudy"
"2008-12-05 19:00","2008","12","05","19:00","-2.4","","-11.4","","50","","26","","22","","24.1","","100.90","","","","-9","","Snow"
"2008-12-05 20:00","2008","12","05","20:00","-3.0","","-10.6","","56","","29","","13","","24.1","","100.93","","","","-8","","Snow"
"2008-12-05 21:00","2008","12","05","21:00","-3.8","","-11.7","","54","","27","","15","","24.1","","100.91","","","","-9","","Mainly Clear"
"2008-12-05 22:00","2008","12","05","22:00","-4.0","","-13.0","","50","","24","","30","","24.1","","100.89","","","","-12","","Mainly Clear"
"2008-12-05 23:00","2008","12","05","23:00","-5.2","","-13.6","","52","","28","","15","","24.1","","100.88","","","","-11","","Mostly Cloudy"
"2008-12-06 00:00","2008","12","06","00:00"
"2008-12-06 01:00","2008","12","06","01:00"
"2008-12-06 02:00","2008","12","06","02:00"
"2008-12-06 03:00","2008","12","06","03:00"
"2008-12-06 04:00","2008","12","06","04:00"
"2008-12-06 05:00","2008","12","06","05:00"
"2008-12-06 06:00","2008","12","06","06:00","-2.1","","-7.9","","64","","23","","30","","19.3","","100.57","","","","-9","","Snow"
"2008-12-06 07:00","2008","12","06","07:00","-2.1","","-8.0","","64","","22","","26","","24.1","","100.56","","","","-9","","Snow"
"2008-12-06 08:00","2008","12","06","08:00","-1.4","","-8.0","","61","","21","","32","","24.1","","100.50","","","","-9","","Snow"
"2008-12-06 09:00","2008","12","06","09:00","-1.8","","-9.1","","57","","20","","33","","24.1","","100.45","","","","-9","","Mostly Cloudy"
"2008-12-06 10:00","2008","12","06","10:00","-2.1","","-9.1","","59","","19","","37","","24.1","","100.40","","","","-10","","Mostly Cloudy"
"2008-12-06 11:00","2008","12","06","11:00","-2.1","","-8.7","","61","","20","","33","","24.1","","100.32","","","","-10","","Snow Showers"
"2008-12-06 12:00","2008","12","06","12:00","-2.2","","-8.8","","61","","20","","33","","24.1","","100.21","","","","-10","","Mostly Cloudy"
"2008-12-06 13:00","2008","12","06","13:00","-2.0","","-8.7","","60","","20","","33","","24.1","","100.13","","","","-9","","Mostly Cloudy"
"2008-12-06 14:00","2008","12","06","14:00","-1.9","","-9.6","","56","","20","","33","","24.1","","100.04","","","","-9","","Mostly Cloudy"
"2008-12-06 15:00","2008","12","06","15:00","-1.7","","-9.1","","57","","19","","30","","24.1","","99.98","","","","-9","","Mostly Cloudy"
"2008-12-06 16:00","2008","12","06","16:00","-1.1","","-8.7","","56","","18","","32","","24.1","","99.92","","","","-8","","Cloudy"
"2008-12-06 17:00","2008","12","06","17:00","-0.8","","-8.6","","55","","19","","32","","24.1","","99.85","","","","-8","","Cloudy"
"2008-12-06 18:00","2008","12","06","18:00","-0.4","","-8.4","","55","","20","","35","","24.1","","99.79","","","","-7","","Snow"
"2008-12-06 19:00","2008","12","06","19:00","0.0","","-6.6","","61","","19","","35","","16.1","","99.72","","","","-7","","Snow"
"2008-12-06 20:00","2008","12","06","20:00","-1.2","","-5.1","","75","","18","","33","","3.2","","99.65","","","","-8","","Snow"
"2008-12-06 21:00","2008","12","06","21:00","-1.1","","-4.1","","80","","18","","43","","3.2","","99.56","","","","-9","","Snow"
"2008-12-06 22:00","2008","12","06","22:00","-0.9","","-3.6","","82","","18","","41","","3.2","","99.46","","","","-9","","Snow"
"2008-12-06 23:00","2008","12","06","23:00","-0.9","","-3.2","","84","","19","","44","","2.4","","99.40","","","","-9","","Snow"
"2008-12-07 00:00","2008","12","07","00:00"
"2008-12-07 01:00","2008","12","07","01:00"
"2008-12-07 02:00","2008","12","07","02:00"
"2008-12-07 03:00","2008","12","07","03:00"
"2008-12-07 04:00","2008","12","07","04:00"
"2008-12-07 05:00","2008","12","07","05:00"
"2008-12-07 06:00","2008","12","07","06:00","0.1","","-3.5","","77","","27","","22","","19.3","","98.94","","","","","","Snow"
"2008-12-07 07:00","2008","12","07","07:00","-1.7","","-5.8","","74","","28","","19","","24.1","","99.00","","","","-7","","Mainly Clear"
"2008-12-07 08:00","2008","12","07","08:00","-2.7","","-6.1","","77","","27","","20","","24.1","","99.08","","","","-9","","Mainly Clear"
"2008-12-07 09:00","2008","12","07","09:00","-2.5","","-6.1","","76","","27","","20","","24.1","","99.13","","","","-8","","Mostly Cloudy"
"2008-12-07 10:00","2008","12","07","10:00","-3.1","","-6.3","","79","","27","","19","","8.0","","99.23","","","","-9","","Snow"
"2008-12-07 11:00","2008","12","07","11:00","-2.4","","-7.3","","69","","33","","28","","12.9","","99.33","","","","-9","","Snow"
"2008-12-07 12:00","2008","12","07","12:00","-4.6","","-10.0","","66","","32","","30","","24.1","","99.49","","","","-12","","Mostly Cloudy"
"2008-12-07 13:00","2008","12","07","13:00","-6.5","","-13.0","","60","","32","","28","","24.1","","99.67","","","","-15","","Mainly Clear"
"2008-12-07 14:00","2008","12","07","14:00","-7.9","","-15.5","","54","","34","","44","","24.1","","99.84","","","","-18","","Mainly Clear"
"2008-12-07 15:00","2008","12","07","15:00","-8.8","","-16.4","","54","","33","","26","","24.1","","100.06","","","","-17","","Mainly Clear"
"2008-12-07 16:00","2008","12","07","16:00","-9.6","","-17.8","","51","","31","","24","","24.1","","100.28","","","","-18","","Mainly Clear"
"2008-12-07 17:00","2008","12","07","17:00","-10.8","","-20.3","","45","","31","","30","","24.1","","100.47","","","","-21","","Mainly Clear"
"2008-12-07 18:00","2008","12","07","18:00","-11.7","","-20.8","","47","","31","","20","","24.1","","100.64","","","","-20","","Mainly Clear"
"2008-12-07 19:00","2008","12","07","19:00","-12.7","","-21.1","","49","","31","","13","","24.1","","100.82","","","","-20","","Clear"
"2008-12-07 20:00","2008","12","07","20:00","-13.4","","-21.7","","50","","32","","17","","24.1","","100.96","","","","-21","","Clear"
"2008-12-07 21:00","2008","12","07","21:00","-14.5","","-21.8","","54","","32","","15","","24.1","","101.08","","","","-22","","Clear"
"2008-12-07 22:00","2008","12","07","22:00","-15.6","","-22.6","","55","","32","","22","","24.1","","101.15","","","","-25","","Clear"
"2008-12-07 23:00","2008","12","07","23:00","-16.2","","-22.5","","58","","31","","13","","24.1","","101.23","","","","-24","","Clear"
"2008-12-08 00:00","2008","12","08","00:00"
"2008-12-08 01:00","2008","12","08","01:00"
"2008-12-08 02:00","2008","12","08","02:00"
"2008-12-08 03:00","2008","12","08","03:00"
"2008-12-08 04:00","2008","12","08","04:00"
"2008-12-08 05:00","2008","12","08","05:00"
"2008-12-08 06:00","2008","12","08","06:00","-18.1","","-23.2","","64","","34","","6","","24.1","","101.68","","","","-23","","Clear"
"2008-12-08 07:00","2008","12","08","07:00","-19.0","","-24.8","","60","","35","","6","","24.1","","101.72","","","","-24","","Mainly Clear"
"2008-12-08 08:00","2008","12","08","08:00","-17.9","","-23.4","","62","","4","","7","","24.1","","101.78","","","","-23","","Mainly Clear"
"2008-12-08 09:00","2008","12","08","09:00","-16.7","","-23.0","","58","","5","","9","","24.1","","101.80","","","","-23","","Mainly Clear"
"2008-12-08 10:00","2008","12","08","10:00","-14.9","","-22.3","","53","","6","","13","","24.1","","101.87","","","","-22","","Mainly Clear"
"2008-12-08 11:00","2008","12","08","11:00","-13.4","","-19.6","","60","","9","","11","","24.1","","101.86","","","","-20","","Mainly Clear"
"2008-12-08 12:00","2008","12","08","12:00","-13.1","","-18.3","","65","","9","","13","","24.1","","101.83","","","","-20","","Mostly Cloudy"
"2008-12-08 13:00","2008","12","08","13:00","-11.9","","-17.1","","65","","8","","7","","24.1","","101.80","","","","-16","","Mainly Clear"
"2008-12-08 14:00","2008","12","08","14:00","-11.4","","-16.6","","65","","10","","9","","24.1","","101.77","","","","-17","","Mainly Clear"
"2008-12-08 15:00","2008","12","08","15:00","-11.1","","-16.5","","64","","10","","13","","24.1","","101.75","","","","-18","","Mainly Clear"
"2008-12-08 16:00","2008","12","08","16:00","-10.8","","-16.3","","64","","9","","11","","24.1","","101.76","","","","-17","","Mostly Cloudy"
"2008-12-08 17:00","2008","12","08","17:00","-11.1","","-16.9","","62","","7","","15","","24.1","","101.75","","","","-18","","Snow Showers"
"2008-12-08 18:00","2008","12","08","18:00","-10.8","","-15.8","","67","","7","","11","","24.1","","101.72","","","","-17","","Mainly Clear"
"2008-12-08 19:00","2008","12","08","19:00","-11.7","","-16.9","","65","","5","","4","","24.1","","101.73","","","","-14","","Mainly Clear"
"2008-12-08 20:00","2008","12","08","20:00","-10.9","","-15.7","","68","","5","","6","","24.1","","101.70","","","","-15","","Mostly Cloudy"
"2008-12-08 21:00","2008","12","08","21:00","-10.5","","-15.2","","68","","7","","13","","24.1","","101.62","","","","-17","","Mostly Cloudy"
"2008-12-08 22:00","2008","12","08","22:00","-9.4","","-14.3","","67","","7","","19","","24.1","","101.55","","","","-17","","Cloudy"
"2008-12-08 23:00","2008","12","08","23:00","-8.6","","-13.7","","67","","8","","15","","24.1","","101.48","","","","-15","","Cloudy"
"2008-12-09 00:00","2008","12","09","00:00"
"2008-12-09 01:00","2008","12","09","01:00"
"2008-12-09 02:00","2008","12","09","02:00"
"2008-12-09 03:00","2008","12","09","03:00"
"2008-12-09 04:00","2008","12","09","04:00"
"2008-12-09 05:00","2008","12","09","05:00"
"2008-12-09 06:00","2008","12","09","06:00","-1.7","","-3.8","","86","","18","","35","","1.6","","100.89","","","","-9","","Snow,Blowing Snow"
"2008-12-09 07:00","2008","12","09","07:00","-1.5","","-3.6","","86","","16","","41","","1.2","","100.76","","","","-9","","Snow,Blowing Snow"
"2008-12-09 08:00","2008","12","09","08:00","-0.6","","-3.8","","79","","17","","44","","24.1","","100.67","","","","-9","","Snow"
"2008-12-09 09:00","2008","12","09","09:00","0.4","","-3.7","","74","","18","","48","","24.1","","100.59","","","","","","Mostly Cloudy"
"2008-12-09 10:00","2008","12","09","10:00","0.5","","-4.2","","71","","18","","44","","24.1","","100.56","","","","","","Mostly Cloudy"
"2008-12-09 11:00","2008","12","09","11:00","1.9","","-2.7","","72","","18","","39","","24.1","","100.50","","","","","","Cloudy"
"2008-12-09 12:00","2008","12","09","12:00","3.7","","-1.5","","69","","19","","39","","24.1","","100.37","","","","","","Cloudy"
"2008-12-09 13:00","2008","12","09","13:00","3.4","","-1.4","","71","","20","","41","","19.3","","100.39","","","","","","Rain"
"2008-12-09 14:00","2008","12","09","14:00","4.0","","-1.0","","70","","20","","37","","24.1","","100.29","","","","","","Rain"
"2008-12-09 15:00","2008","12","09","15:00","4.0","","-0.4","","73","","19","","44","","19.3","","100.23","","","","","","Rain"
"2008-12-09 16:00","2008","12","09","16:00","4.4","","-0.8","","69","","19","","37","","24.1","","100.20","","","","","","Cloudy"
"2008-12-09 17:00","2008","12","09","17:00","4.2","","1.0","","80","","19","","35","","19.3","","100.14","","","","","","Rain"
"2008-12-09 18:00","2008","12","09","18:00","4.0","","1.6","","84","","18","","26","","16.1","","100.09","","","","","","Rain"
"2008-12-09 19:00","2008","12","09","19:00","4.3","","2.4","","87","","18","","13","","16.1","","100.04","","","","","","Rain"
"2008-12-09 20:00","2008","12","09","20:00","5.4","","3.3","","86","","20","","22","","6.4","","99.98","","","","","","Rain,Fog"
"2008-12-09 21:00","2008","12","09","21:00","5.4","","3.6","","88","","21","","17","","6.4","","99.90","","","","","","Rain,Fog"
"2008-12-09 22:00","2008","12","09","22:00","5.5","","3.8","","89","","24","","11","","6.4","","99.89","","","","","","Rain,Drizzle,Fog"
"2008-12-09 23:00","2008","12","09","23:00","5.9","","4.2","","89","","22","","20","","6.4","","99.79","","","","","","Rain,Drizzle,Fog"
"2008-12-10 00:00","2008","12","10","00:00"
"2008-12-10 01:00","2008","12","10","01:00"
"2008-12-10 02:00","2008","12","10","02:00"
"2008-12-10 03:00","2008","12","10","03:00"
"2008-12-10 04:00","2008","12","10","04:00"
"2008-12-10 05:00","2008","12","10","05:00"
"2008-12-10 06:00","2008","12","10","06:00","-2.4","","-4.8","","84","","1","","17","","16.1","","99.92","","","","-8","","Freezing Rain"
"2008-12-10 07:00","2008","12","10","07:00","-4.5","","-7.0","","83","","35","","17","","3.2","","100.11","","","","-10","","Snow"
"2008-12-10 08:00","2008","12","10","08:00","-5.1","","-7.9","","81","","34","","11","","6.4","","100.32","","","","-10","","Snow"
"2008-12-10 09:00","2008","12","10","09:00","-5.3","","-8.4","","79","","36","","17","","9.7","","100.47","","","","-11","","Snow"
"2008-12-10 10:00","2008","12","10","10:00","-5.6","","-8.6","","79","","34","","13","","8.0","","100.61","","","","-11","","Snow"
"2008-12-10 11:00","2008","12","10","11:00","-5.7","","-8.7","","79","","35","","9","","24.1","","100.63","","","","-10","","Snow"
"2008-12-10 12:00","2008","12","10","12:00","-5.3","","-8.7","","77","","32","","11","","24.1","","100.74","","","","-10","","Mostly Cloudy"
"2008-12-10 13:00","2008","12","10","13:00","-5.1","","-8.7","","76","","35","","17","","24.1","","100.76","","","","-11","","Mostly Cloudy"
"2008-12-10 14:00","2008","12","10","14:00","-4.9","","-8.5","","76","","34","","7","","24.1","","100.78","","","","-8","","Mostly Cloudy"
"2008-12-10 15:00","2008","12","10","15:00","-4.9","","-8.5","","76","","36","","7","","24.1","","100.85","","","","-8","","Mostly Cloudy"
"2008-12-10 16:00","2008","12","10","16:00","-5.4","","-9.3","","74","","1","","11","","24.1","","101.00","","","","-10","","Mostly Cloudy"
"2008-12-10 17:00","2008","12","10","17:00","-6.6","","-10.0","","77","","1","","6","","24.1","","101.02","","","","-10","","Mainly Clear"
"2008-12-10 18:00","2008","12","10","18:00","-7.6","","-11.0","","77","","2","","9","","24.1","","101.15","","","","-12","","Mainly Clear"
"2008-12-10 19:00","2008","12","10","19:00","-7.6","","-11.3","","75","","3","","9","","24.1","","101.22","","","","-12","","Mainly Clear"
"2008-12-10 20:00","2008","12","10","20:00","-8.4","","-12.6","","72","","3","","11","","24.1","","101.27","","","","-14","","Mainly Clear"
"2008-12-10 21:00","2008","12","10","21:00","-9.7","","-13.9","","71","","2","","13","","24.1","","101.25","","","","-16","","Mainly Clear"
"2008-12-10 22:00","2008","12","10","22:00","-10.7","","-14.3","","75","","2","","11","","24.1","","101.26","","","","-16","","Mainly Clear"
"2008-12-10 23:00","2008","12","10","23:00","-11.2","","-14.9","","74","","2","","11","","24.1","","101.29","","","","-17","","Mainly Clear"
"2008-12-11 00:00","2008","12","11","00:00"
"2008-12-11 01:00","2008","12","11","01:00"
"2008-12-11 02:00","2008","12","11","02:00"
"2008-12-11 03:00","2008","12","11","03:00"
"2008-12-11 04:00","2008","12","11","04:00"
"2008-12-11 05:00","2008","12","11","05:00"
"2008-12-11 06:00","2008","12","11","06:00","-13.9","","-17.7","","73","","4","","15","","24.1","","101.06","","","","-22","","Mainly Clear"
"2008-12-11 07:00","2008","12","11","07:00","-14.0","","-17.5","","75","","3","","9","","24.1","","101.02","","","","-20","","Mainly Clear"
"2008-12-11 08:00","2008","12","11","08:00","-13.8","","-17.2","","75","","5","","9","","24.1","","101.07","","","","-19","","Mostly Cloudy"
"2008-12-11 09:00","2008","12","11","09:00","-13.4","","-16.8","","76","","5","","11","","24.1","","101.07","","","","-20","","Mostly Cloudy"
"2008-12-11 10:00","2008","12","11","10:00","-12.4","","-15.3","","79","","5","","11","","24.1","","100.98","","","","-18","","Mostly Cloudy"
"2008-12-11 11:00","2008","12","11","11:00","-11.1","","-14.0","","79","","1","","13","","24.1","","100.91","","","","-18","","Mostly Cloudy"
"2008-12-11 12:00","2008","12","11","12:00","-10.0","","-13.1","","78","","5","","11","","24.1","","100.84","","","","-16","","Mostly Cloudy"
"2008-12-11 13:00","2008","12","11","13:00","-8.8","","-11.7","","79","","6","","7","","24.1","","100.68","","","","-13","","Mostly Cloudy"
"2008-12-11 14:00","2008","12","11","14:00","-8.7","","-11.8","","78","","5","","9","","24.1","","100.66","","","","-13","","Cloudy"
"2008-12-11 15:00","2008","12","11","15:00","-8.3","","-11.3","","79","","8","","15","","24.1","","100.51","","","","-15","","Cloudy"
"2008-12-11 16:00","2008","12","11","16:00","-8.6","","-11.5","","80","","4","","13","","16.1","","100.48","","","","-15","","Cloudy"
"2008-12-11 17:00","2008","12","11","17:00","-8.7","","-11.7","","79","","5","","9","","16.1","","100.42","","","","-13","","Cloudy"
"2008-12-11 18:00","2008","12","11","18:00","-8.7","","-11.8","","78","","5","","11","","16.1","","100.32","","","","-14","","Cloudy"
"2008-12-11 19:00","2008","12","11","19:00","-8.8","","-11.7","","79","","3","","9","","19.3","","100.34","","","","-13","","Cloudy"
"2008-12-11 20:00","2008","12","11","20:00","-8.8","","-11.8","","79","","3","","13","","19.3","","100.30","","","","-15","","Cloudy"
"2008-12-11 21:00","2008","12","11","21:00","-8.8","","-11.9","","78","","1","","17","","19.3","","100.21","","","","-16","","Cloudy"
"2008-12-11 22:00","2008","12","11","22:00","-8.9","","-11.7","","80","","2","","13","","19.3","","100.08","","","","-15","","Cloudy"
"2008-12-11 23:00","2008","12","11","23:00","-8.9","","-11.6","","81","","3","","13","","19.3","","99.99","","","","-15","","Cloudy"
"2008-12-12 00:00","2008","12","12","00:00"
"2008-12-12 01:00","2008","12","12","01:00"
"2008-12-12 02:00","2008","12","12","02:00"
"2008-12-12 03:00","2008","12","12","03:00"
"2008-12-12 04:00","2008","12","12","04:00"
"2008-12-12 05:00","2008","12","12","05:00"
"2008-12-12 06:00","2008","12","12","06:00","-9.2","","-12.4","","78","","2","","17","","19.3","","99.33","","","","-16","","Snow"
"2008-12-12 07:00","2008","12","12","07:00","-8.6","","-11.8","","78","","36","","13","","19.3","","99.45","","","","-15","","Cloudy"
"2008-12-12 08:00","2008","12","12","08:00","-8.5","","-11.5","","79","","34","","13","","16.1","","99.52","","","","-14","","Cloudy"
"2008-12-12 09:00","2008","12","12","09:00","-7.9","","-11.0","","78","","32","","9","","16.1","","99.57","","","","-12","","Cloudy"
"2008-12-12 10:00","2008","12","12","10:00","-6.8","","-9.9","","79","","31","","9","","16.1","","99.65","","","","-11","","Cloudy"
"2008-12-12 11:00","2008","12","12","11:00","-5.9","","-9.0","","79","","32","","13","","24.1","","99.63","","","","-11","","Cloudy"
"2008-12-12 12:00","2008","12","12","12:00","-4.8","","-7.8","","79","","29","","9","","24.1","","99.59","","","","-9","","Cloudy"
"2008-12-12 13:00","2008","12","12","13:00","-3.9","","-7.0","","79","","32","","15","","24.1","","99.60","","","","-9","","Cloudy"
"2008-12-12 14:00","2008","12","12","14:00","-3.2","","-6.4","","79","","28","","11","","19.3","","99.67","","","","-7","","Snow"
"2008-12-12 15:00","2008","12","12","15:00","-3.3","","-6.2","","80","","32","","11","","19.3","","99.81","","","","-8","","Snow"
"2008-12-12 16:00","2008","12","12","16:00","-3.7","","-6.6","","80","","32","","6","","16.1","","99.94","","","","-6","","Snow"
"2008-12-12 17:00","2008","12","12","17:00","-4.3","","-7.2","","80","","32","","15","","1.2","","100.06","","","","-10","","Snow"
"2008-12-12 18:00","2008","12","12","18:00","-4.8","","-9.3","","71","","30","","17","","24.1","","100.16","","","","-11","","Mostly Cloudy"
"2008-12-12 19:00","2008","12","12","19:00","-5.9","","-10.7","","69","","30","","15","","24.1","","100.30","","","","-12","","Mainly Clear"
"2008-12-12 20:00","2008","12","12","20:00","-7.8","","-12.8","","67","","33","","19","","24.1","","100.42","","","","-15","","Mainly Clear"
"2008-12-12 21:00","2008","12","12","21:00","-9.7","","-14.3","","69","","34","","17","","24.1","","100.55","","","","-17","","Mainly Clear"
"2008-12-12 22:00","2008","12","12","22:00","-12.1","","-16.8","","68","","34","","17","","24.1","","100.71","","","","-20","","Clear"
"2008-12-12 23:00","2008","12","12","23:00","-14.1","","-18.7","","68","","35","","17","","24.1","","100.82","","","","-22","","Clear"
"2008-12-13 00:00","2008","12","13","00:00"
"2008-12-13 01:00","2008","12","13","01:00"
"2008-12-13 02:00","2008","12","13","02:00"
"2008-12-13 03:00","2008","12","13","03:00"
"2008-12-13 04:00","2008","12","13","04:00"
"2008-12-13 05:00","2008","12","13","05:00"
"2008-12-13 06:00","2008","12","13","06:00","-19.9","","-23.7","","72","","36","","9","","24.1","","101.41","","","","-27","","Mainly Clear"
"2008-12-13 07:00","2008","12","13","07:00","-19.6","","-24.1","","67","","36","","7","","24.1","","101.53","","","","-25","","Mainly Clear"
"2008-12-13 08:00","2008","12","13","08:00","-18.6","","-22.7","","70","","36","","7","","24.1","","101.58","","","","-24","","Mainly Clear"
"2008-12-13 09:00","2008","12","13","09:00","-16.2","","-20.9","","67","","5","","6","","24.1","","101.65","","","","-21","","Mostly Cloudy"
"2008-12-13 10:00","2008","12","13","10:00","-14.0","","-18.6","","68","","11","","9","","24.1","","101.64","","","","-20","","Snow"
"2008-12-13 11:00","2008","12","13","11:00","-11.9","","-14.9","","78","","10","","9","","6.4","","101.65","","","","-17","","Snow"
"2008-12-13 12:00","2008","12","13","12:00","-10.5","","-13.6","","78","","11","","13","","4.0","","101.57","","","","-17","","Snow"
"2008-12-13 13:00","2008","12","13","13:00","-9.6","","-12.5","","79","","9","","15","","3.2","","101.48","","","","-16","","Snow"
"2008-12-13 14:00","2008","12","13","14:00","-9.2","","-12.1","","79","","9","","15","","12.9","","101.45","","","","-16","","Snow"
"2008-12-13 15:00","2008","12","13","15:00","-6.9","","-9.5","","82","","10","","19","","2.4","","101.45","","","","-14","","Snow"
"2008-12-13 16:00","2008","12","13","16:00","-3.0","","-6.1","","79","","17","","28","","8.0","","101.41","","","","-10","","Snow"
"2008-12-13 17:00","2008","12","13","17:00","-2.0","","-6.7","","70","","18","","26","","24.1","","101.41","","","","-9","","Cloudy"
"2008-12-13 18:00","2008","12","13","18:00","-1.6","","-6.3","","70","","19","","30","","24.1","","101.42","","","","-9","","Snow"
"2008-12-13 19:00","2008","12","13","19:00","-1.0","","-6.0","","69","","20","","33","","24.1","","101.44","","","","-8","","Snow"
"2008-12-13 20:00","2008","12","13","20:00","-0.9","","-5.4","","71","","19","","32","","24.1","","101.44","","","","-8","","Snow"
"2008-12-13 21:00","2008","12","13","21:00","-0.4","","-4.6","","73","","18","","35","","24.1","","101.44","","","","-7","","Cloudy"
"2008-12-13 22:00","2008","12","13","22:00","0.2","","-4.2","","72","","19","","32","","24.1","","101.42","","","","","","Mostly Cloudy"
"2008-12-13 23:00","2008","12","13","23:00","-0.1","","-4.1","","74","","19","","32","","24.1","","101.38","","","","-7","","Cloudy"
"2008-12-14 00:00","2008","12","14","00:00"
"2008-12-14 01:00","2008","12","14","01:00"
"2008-12-14 02:00","2008","12","14","02:00"
"2008-12-14 03:00","2008","12","14","03:00"
"2008-12-14 04:00","2008","12","14","04:00"
"2008-12-14 05:00","2008","12","14","05:00"
"2008-12-14 06:00","2008","12","14","06:00","0.9","","-3.8","","71","","19","","37","","24.1","","101.17","","","","","","Snow"
"2008-12-14 07:00","2008","12","14","07:00","0.9","","-3.8","","71","","18","","41","","24.1","","101.10","","","","","","Mostly Cloudy"
"2008-12-14 08:00","2008","12","14","08:00","1.0","","-4.1","","69","","18","","33","","24.1","","101.09","","","","","","Cloudy"
"2008-12-14 09:00","2008","12","14","09:00","1.9","","-2.7","","72","","18","","33","","24.1","","101.04","","","","","","Cloudy"
"2008-12-14 10:00","2008","12","14","10:00","1.9","","-2.9","","70","","18","","37","","24.1","","101.03","","","","","","Cloudy"
"2008-12-14 11:00","2008","12","14","11:00","3.0","","-2.8","","66","","19","","43","","24.1","","100.95","","","","","","Mostly Cloudy"
"2008-12-14 12:00","2008","12","14","12:00","3.3","","-2.3","","67","","19","","43","","24.1","","100.90","","","","","","Mostly Cloudy"
"2008-12-14 13:00","2008","12","14","13:00","3.7","","-2.3","","65","","19","","37","","24.1","","100.83","","","","","","Mostly Cloudy"
"2008-12-14 14:00","2008","12","14","14:00","4.0","","-1.8","","66","","19","","39","","24.1","","100.82","","","","","","Cloudy"
"2008-12-14 15:00","2008","12","14","15:00","4.2","","-1.6","","66","","20","","33","","24.1","","100.87","","","","","","Cloudy"
"2008-12-14 16:00","2008","12","14","16:00","4.4","","-1.4","","66","","19","","37","","24.1","","100.90","","","","","","Cloudy"
"2008-12-14 17:00","2008","12","14","17:00","4.5","","-0.9","","68","","19","","33","","24.1","","100.91","","","","","","Cloudy"
"2008-12-14 18:00","2008","12","14","18:00","4.7","","-0.7","","68","","18","","43","","24.1","","100.95","","","","","","Cloudy"
"2008-12-14 19:00","2008","12","14","19:00","4.7","","0.3","","73","","20","","39","","24.1","","101.00","","","","","","Rain"
"2008-12-14 20:00","2008","12","14","20:00","4.2","","0.9","","79","","19","","41","","19.3","","101.00","","","","","","Rain"
"2008-12-14 21:00","2008","12","14","21:00","3.7","","0.8","","81","","18","","37","","19.3","","100.97","","","","","","Rain"
"2008-12-14 22:00","2008","12","14","22:00","4.1","","0.5","","77","","18","","39","","24.1","","100.96","","","","","","Cloudy"
"2008-12-14 23:00","2008","12","14","23:00","4.4","","0.4","","75","","18","","33","","24.1","","100.88","","","","","","Cloudy"
"2008-12-15 00:00","2008","12","15","00:00"
"2008-12-15 01:00","2008","12","15","01:00"
"2008-12-15 02:00","2008","12","15","02:00"
"2008-12-15 03:00","2008","12","15","03:00"
"2008-12-15 04:00","2008","12","15","04:00"
"2008-12-15 05:00","2008","12","15","05:00"
"2008-12-15 06:00","2008","12","15","06:00","6.5","","2.4","","75","","18","","37","","24.1","","100.31","","","","","","Cloudy"
"2008-12-15 07:00","2008","12","15","07:00","6.6","","2.9","","77","","19","","33","","16.1","","100.27","","","","","","Rain"
"2008-12-15 08:00","2008","12","15","08:00","6.7","","3.5","","80","","18","","41","","19.3","","100.16","","","","","","Rain"
"2008-12-15 09:00","2008","12","15","09:00","7.2","","3.7","","78","","19","","43","","19.3","","100.14","","","","","","Rain"
"2008-12-15 10:00","2008","12","15","10:00","7.6","","3.9","","77","","19","","43","","19.3","","100.08","","","","","","Rain"
"2008-12-15 11:00","2008","12","15","11:00","7.4","","4.2","","80","","20","","46","","19.3","","100.03","","","","","","Rain"
"2008-12-15 12:00","2008","12","15","12:00","7.3","","4.4","","82","","20","","48","","12.9","","100.01","","","","","","Rain"
"2008-12-15 13:00","2008","12","15","13:00","7.3","","5.1","","86","","20","","39","","12.9","","100.02","","","","","","Rain"
"2008-12-15 14:00","2008","12","15","14:00","9.0","","4.7","","74","","24","","50","","16.1","","100.12","","","","","","Rain"
"2008-12-15 15:00","2008","12","15","15:00","7.7","","3.1","","73","","24","","48","","24.1","","100.23","","","","","","Rain"
"2008-12-15 16:00","2008","12","15","16:00","6.6","","1.6","","70","","24","","39","","24.1","","100.33","","","","","","Mostly Cloudy"
"2008-12-15 17:00","2008","12","15","17:00","5.5","","0.0","","68","","25","","48","","24.1","","100.49","","","","","","Mostly Cloudy"
"2008-12-15 18:00","2008","12","15","18:00","3.9","","-2.8","","62","","25","","52","","24.1","","100.68","","","","","","Mostly Cloudy"
"2008-12-15 19:00","2008","12","15","19:00","2.1","","-4.5","","62","","26","","33","","24.1","","100.85","","","","","","Mainly Clear"
"2008-12-15 20:00","2008","12","15","20:00","0.4","","-5.5","","65","","26","","35","","24.1","","101.09","","","","","","Mainly Clear"
"2008-12-15 21:00","2008","12","15","21:00","-0.9","","-8.5","","56","","27","","28","","24.1","","101.27","","","","-7","","Mostly Cloudy"
"2008-12-15 22:00","2008","12","15","22:00","-2.7","","-10.5","","55","","27","","35","","24.1","","101.47","","","","-11","","Mostly Cloudy"
"2008-12-15 23:00","2008","12","15","23:00","-3.2","","-11.2","","54","","27","","32","","24.1","","101.63","","","","-11","","Cloudy"
"2008-12-16 00:00","2008","12","16","00:00"
"2008-12-16 01:00","2008","12","16","01:00"
"2008-12-16 02:00","2008","12","16","02:00"
"2008-12-16 03:00","2008","12","16","03:00"
"2008-12-16 04:00","2008","12","16","04:00"
"2008-12-16 05:00","2008","12","16","05:00"
"2008-12-16 06:00","2008","12","16","06:00","-6.3","","-12.9","","59","","27","","11","","24.1","","102.28","","","","-11","","Mainly Clear"
"2008-12-16 07:00","2008","12","16","07:00","-6.7","","-13.0","","61","","27","","15","","24.1","","102.33","","","","-13","","Mainly Clear"
"2008-12-16 08:00","2008","12","16","08:00","-6.9","","-13.1","","61","","27","","13","","24.1","","102.37","","","","-12","","Mainly Clear"
"2008-12-16 09:00","2008","12","16","09:00","-6.1","","-12.8","","59","","28","","15","","24.1","","102.40","","","","-12","","Mainly Clear"
"2008-12-16 10:00","2008","12","16","10:00","-4.5","","-12.1","","55","","28","","9","","24.1","","102.42","","","","-8","","Mainly Clear"
"2008-12-16 11:00","2008","12","16","11:00","-3.7","","-12.1","","52","","30","","11","","24.1","","102.44","","","","-8","","Mostly Cloudy"
"2008-12-16 12:00","2008","12","16","12:00","-3.4","","-12.9","","48","","26","","9","","24.1","","102.40","","","","-7","","Mostly Cloudy"
"2008-12-16 13:00","2008","12","16","13:00","-3.2","","-12.2","","50","","23","","7","","24.1","","102.30","","","","-6","","Cloudy"
"2008-12-16 14:00","2008","12","16","14:00","-3.4","","-12.3","","50","","31","","7","","24.1","","102.26","","","","-6","","Mostly Cloudy"
"2008-12-16 15:00","2008","12","16","15:00","-3.6","","-13.0","","48","","2","","4","","24.1","","102.22","","","","-5","","Mostly Cloudy"
"2008-12-16 16:00","2008","12","16","16:00","-3.8","","-13.2","","48","","","","0","","24.1","","102.25","","","","","","Cloudy"
"2008-12-16 17:00","2008","12","16","17:00","-3.9","","-12.8","","50","","7","","6","","24.1","","102.20","","","","-7","","Cloudy"
"2008-12-16 18:00","2008","12","16","18:00","-3.8","","-12.1","","52","","14","","13","","24.1","","102.13","","","","-9","","Cloudy"
"2008-12-16 19:00","2008","12","16","19:00","-3.6","","-11.3","","55","","13","","11","","24.1","","102.05","","","","-8","","Cloudy"
"2008-12-16 20:00","2008","12","16","20:00","-3.6","","-11.4","","55","","11","","15","","24.1","","102.00","","","","-9","","Cloudy"
"2008-12-16 21:00","2008","12","16","21:00","-3.6","","-10.9","","57","","10","","13","","24.1","","101.92","","","","-8","","Cloudy"
"2008-12-16 22:00","2008","12","16","22:00","-3.3","","-10.3","","58","","9","","11","","24.1","","101.82","","","","-8","","Cloudy"
"2008-12-16 23:00","2008","12","16","23:00","-3.2","","-9.6","","61","","11","","19","","24.1","","101.71","","","","-9","","Cloudy"
"2008-12-17 00:00","2008","12","17","00:00"
"2008-12-17 01:00","2008","12","17","01:00"
"2008-12-17 02:00","2008","12","17","02:00"
"2008-12-17 03:00","2008","12","17","03:00"
"2008-12-17 04:00","2008","12","17","04:00"
"2008-12-17 05:00","2008","12","17","05:00"
"2008-12-17 06:00","2008","12","17","06:00","-3.8","","-6.3","","83","","8","","13","","2.4","","100.43","","","","-9","","Snow"
"2008-12-17 07:00","2008","12","17","07:00","-3.3","","-5.6","","84","","8","","15","","4.0","","100.31","","","","-8","","Snow"
"2008-12-17 08:00","2008","12","17","08:00","-4.6","","-7.1","","83","","5","","15","","1.0","","100.23","","","","-10","","Snow"
"2008-12-17 09:00","2008","12","17","09:00","-4.7","","-7.4","","81","","1","","15","","1.6","","100.31","","","","-10","","Snow,Snow Grains"
"2008-12-17 10:00","2008","12","17","10:00","-5.3","","-8.3","","79","","3","","20","","4.8","","100.33","","","","-12","","Snow"
"2008-12-17 11:00","2008","12","17","11:00","-4.7","","-8.4","","75","","2","","11","","24.1","","100.37","","","","-9","","Cloudy"
"2008-12-17 12:00","2008","12","17","12:00","-4.1","","-7.5","","77","","32","","4","","24.1","","100.39","","","","-6","","Cloudy"
"2008-12-17 13:00","2008","12","17","13:00","-3.4","","-7.1","","76","","30","","6","","24.1","","100.45","","","","-6","","Cloudy"
"2008-12-17 14:00","2008","12","17","14:00","-3.0","","-6.6","","76","","29","","15","","24.1","","100.57","","","","-8","","Cloudy"
"2008-12-17 15:00","2008","12","17","15:00","-3.1","","-6.9","","75","","26","","13","","24.1","","100.60","","","","-8","","Cloudy"
"2008-12-17 16:00","2008","12","17","16:00","-3.0","","-7.3","","72","","27","","15","","24.1","","100.76","","","","-8","","Cloudy"
"2008-12-17 17:00","2008","12","17","17:00","-2.7","","-7.4","","70","","26","","7","","24.1","","100.86","","","","-6","","Mostly Cloudy"
"2008-12-17 18:00","2008","12","17","18:00","-2.3","","-6.8","","71","","26","","7","","24.1","","100.93","","","","-5","","Mostly Cloudy"
"2008-12-17 19:00","2008","12","17","19:00","-1.8","","-6.5","","70","","21","","11","","24.1","","100.97","","","","-6","","Cloudy"
"2008-12-17 20:00","2008","12","17","20:00","-1.2","","-5.9","","70","","20","","7","","24.1","","101.00","","","","-4","","Snow"
"2008-12-17 21:00","2008","12","17","21:00","-0.5","","-6.0","","66","","28","","15","","24.1","","100.99","","","","-5","","Cloudy"
"2008-12-17 22:00","2008","12","17","22:00","-0.8","","-6.0","","68","","29","","15","","24.1","","101.07","","","","-5","","Snow"
"2008-12-17 23:00","2008","12","17","23:00","-0.5","","-5.6","","68","","26","","15","","24.1","","101.11","","","","-5","","Mostly Cloudy"
"2008-12-18 00:00","2008","12","18","00:00"
"2008-12-18 01:00","2008","12","18","01:00"
"2008-12-18 02:00","2008","12","18","02:00"
"2008-12-18 03:00","2008","12","18","03:00"
"2008-12-18 04:00","2008","12","18","04:00"
"2008-12-18 05:00","2008","12","18","05:00"
"2008-12-18 06:00","2008","12","18","06:00","-3.4","","-8.8","","66","","27","","17","","24.1","","101.39","","","","-9","","Mainly Clear"
"2008-12-18 07:00","2008","12","18","07:00","-4.0","","-9.2","","67","","28","","13","","24.1","","101.42","","","","-9","","Mostly Cloudy"
"2008-12-18 08:00","2008","12","18","08:00","-3.9","","-9.5","","65","","27","","15","","24.1","","101.45","","","","-9","","Mainly Clear"
"2008-12-18 09:00","2008","12","18","09:00","-3.6","","-9.0","","66","","26","","9","","24.1","","101.51","","","","-7","","Mainly Clear"
"2008-12-18 10:00","2008","12","18","10:00","-2.9","","-8.8","","64","","27","","13","","24.1","","101.52","","","","-8","","Mainly Clear"
"2008-12-18 11:00","2008","12","18","11:00","-2.1","","-8.9","","60","","28","","15","","24.1","","101.50","","","","-7","","Mainly Clear"
"2008-12-18 12:00","2008","12","18","12:00","-1.4","","-8.4","","59","","25","","13","","24.1","","101.42","","","","-6","","Mainly Clear"
"2008-12-18 13:00","2008","12","18","13:00","-0.8","","-8.6","","55","","25","","13","","24.1","","101.37","","","","-5","","Mainly Clear"
"2008-12-18 14:00","2008","12","18","14:00","-1.1","","-8.8","","56","","30","","20","","24.1","","101.33","","","","-7","","Mostly Cloudy"
"2008-12-18 15:00","2008","12","18","15:00","-1.4","","-8.6","","58","","27","","20","","24.1","","101.32","","","","-7","","Mostly Cloudy"
"2008-12-18 16:00","2008","12","18","16:00","-1.8","","-8.8","","59","","26","","20","","24.1","","101.30","","","","-8","","Mostly Cloudy"
"2008-12-18 17:00","2008","12","18","17:00","-2.8","","-9.8","","58","","27","","17","","24.1","","101.39","","","","-8","","Mostly Cloudy"
"2008-12-18 18:00","2008","12","18","18:00","-3.5","","-10.2","","60","","29","","13","","24.1","","101.43","","","","-8","","Mostly Cloudy"
"2008-12-18 19:00","2008","12","18","19:00","-4.4","","-10.6","","62","","28","","11","","24.1","","101.46","","","","-9","","Mostly Cloudy"
"2008-12-18 20:00","2008","12","18","20:00","-4.3","","-11.0","","60","","29","","15","","24.1","","101.50","","","","-10","","Mainly Clear"
"2008-12-18 21:00","2008","12","18","21:00","-5.4","","-11.2","","64","","29","","11","","24.1","","101.53","","","","-10","","Mainly Clear"
"2008-12-18 22:00","2008","12","18","22:00","-5.9","","-11.3","","66","","28","","9","","24.1","","101.58","","","","-10","","Mainly Clear"
"2008-12-18 23:00","2008","12","18","23:00","-6.1","","-11.5","","66","","29","","7","","24.1","","101.58","","","","-9","","Mainly Clear"
"2008-12-19 00:00","2008","12","19","00:00"
"2008-12-19 01:00","2008","12","19","01:00"
"2008-12-19 02:00","2008","12","19","02:00"
"2008-12-19 03:00","2008","12","19","03:00"
"2008-12-19 04:00","2008","12","19","04:00"
"2008-12-19 05:00","2008","12","19","05:00"
"2008-12-19 06:00","2008","12","19","06:00","-9.8","","-14.4","","69","","5","","19","","24.1","","101.63","","","","-17","","Snow"
"2008-12-19 07:00","2008","12","19","07:00","-10.5","","-16.1","","63","","5","","26","","24.1","","101.63","","","","-20","","Cloudy"
"2008-12-19 08:00","2008","12","19","08:00","-11.1","","-17.2","","61","","4","","28","","24.1","","101.61","","","","-21","","Cloudy"
"2008-12-19 09:00","2008","12","19","09:00","-11.8","","-17.8","","61","","5","","26","","24.1","","101.53","","","","-21","","Cloudy"
"2008-12-19 10:00","2008","12","19","10:00","-12.1","","-18.2","","60","","5","","26","","24.1","","101.44","","","","-22","","Cloudy"
"2008-12-19 11:00","2008","12","19","11:00","-12.4","","-18.5","","60","","5","","24","","4.8","","101.21","","","","-22","","Snow"
"2008-12-19 12:00","2008","12","19","12:00","-13.1","","-17.0","","72","","5","","20","","1.2","","101.01","","","","-22","","Snow"
"2008-12-19 13:00","2008","12","19","13:00","-13.7","","-17.2","","75","","4","","37","","0.6","","100.72","","","","-25","","Moderate Snow,Blowing Snow"
"2008-12-19 14:00","2008","12","19","14:00","-13.7","","-17.4","","74","","4","","35","","0.8","","100.53","","","","-25","","Moderate Snow,Blowing Snow"
"2008-12-19 15:00","2008","12","19","15:00","-13.5","","-17.5","","72","","3","","28","","1.0","","100.55","","","","-24","","Snow,Blowing Snow"
"2008-12-19 16:00","2008","12","19","16:00","-14.5","","-18.2","","73","","4","","30","","0.6","","100.57","","","","-25","","Snow,Blowing Snow"
"2008-12-19 17:00","2008","12","19","17:00","-15.3","","-19.2","","72","","3","","41","","0.8","","100.51","","","","-28","","Snow,Blowing Snow"
"2008-12-19 18:00","2008","12","19","18:00","-16.3","","-20.1","","72","","4","","35","","0.8","","100.50","","","","-29","","Snow,Blowing Snow"
"2008-12-19 19:00","2008","12","19","19:00","-16.8","","-20.8","","71","","3","","35","","1.6","","100.57","","","","-29","","Snow,Blowing Snow"
"2008-12-19 20:00","2008","12","19","20:00","-16.8","","-21.2","","69","","3","","39","","2.4","","100.62","","","","-30","","Snow,Blowing Snow"
"2008-12-19 21:00","2008","12","19","21:00","-16.7","","-20.9","","70","","4","","43","","3.2","","100.63","","","","-30","","Snow,Blowing Snow"
"2008-12-19 22:00","2008","12","19","22:00","-16.6","","-21.0","","69","","4","","33","","3.2","","100.70","","","","-29","","Snow,Blowing Snow"
"2008-12-19 23:00","2008","12","19","23:00","-16.4","","-20.9","","68","","3","","30","","4.8","","100.89","","","","-28","","Snow"
"2008-12-20 00:00","2008","12","20","00:00"
"2008-12-20 01:00","2008","12","20","01:00"
"2008-12-20 02:00","2008","12","20","02:00"
"2008-12-20 03:00","2008","12","20","03:00"
"2008-12-20 04:00","2008","12","20","04:00"
"2008-12-20 05:00","2008","12","20","05:00"
"2008-12-20 06:00","2008","12","20","06:00","-15.4","","-20.4","","65","","3","","20","","19.3","","101.16","","","","-25","","Snow"
"2008-12-20 07:00","2008","12","20","07:00","-15.6","","-20.5","","66","","2","","17","","19.3","","101.24","","","","-24","","Snow"
"2008-12-20 08:00","2008","12","20","08:00","-16.2","","-20.6","","69","","36","","11","","24.1","","101.29","","","","-23","","Mainly Clear"
"2008-12-20 09:00","2008","12","20","09:00","-16.7","","-20.9","","70","","1","","15","","24.1","","101.29","","","","-25","","Clear"
"2008-12-20 10:00","2008","12","20","10:00","-16.0","","-20.5","","68","","2","","22","","24.1","","101.32","","","","-26","","Mainly Clear"
"2008-12-20 11:00","2008","12","20","11:00","-14.6","","-19.7","","65","","1","","19","","24.1","","101.29","","","","-23","","Mainly Clear"
"2008-12-20 12:00","2008","12","20","12:00","-14.0","","-19.5","","63","","1","","26","","24.1","","101.24","","","","-24","","Mainly Clear"
"2008-12-20 13:00","2008","12","20","13:00","-13.4","","-19.0","","63","","3","","19","","24.1","","101.19","","","","-22","","Mainly Clear"
"2008-12-20 14:00","2008","12","20","14:00","-12.5","","-19.1","","58","","4","","17","","24.1","","101.22","","","","-20","","Mainly Clear"
"2008-12-20 15:00","2008","12","20","15:00","-12.5","","-19.0","","58","","6","","19","","24.1","","101.22","","","","-21","","Mainly Clear"
"2008-12-20 16:00","2008","12","20","16:00","-13.4","","-19.6","","60","","5","","19","","24.1","","101.24","","","","-22","","Mainly Clear"
"2008-12-20 17:00","2008","12","20","17:00","-14.1","","-20.1","","60","","3","","11","","24.1","","101.23","","","","-21","","Mainly Clear"
"2008-12-20 18:00","2008","12","20","18:00","-15.2","","-20.6","","63","","5","","11","","24.1","","101.22","","","","-22","","Mainly Clear"
"2008-12-20 19:00","2008","12","20","19:00","-16.0","","-21.1","","65","","4","","13","","24.1","","101.22","","","","-24","","Mainly Clear"
"2008-12-20 20:00","2008","12","20","20:00","-16.6","","-21.6","","65","","5","","17","","24.1","","101.11","","","","-25","","Mainly Clear"
"2008-12-20 21:00","2008","12","20","21:00","-17.0","","-21.0","","71","","5","","20","","24.1","","101.02","","","","-27","","Mainly Clear"
"2008-12-20 22:00","2008","12","20","22:00","-17.0","","-20.7","","73","","5","","22","","24.1","","100.94","","","","-27","","Mainly Clear"
"2008-12-20 23:00","2008","12","20","23:00","-17.1","","-20.7","","74","","5","","24","","24.1","","100.87","","","","-28","","Cloudy"
"2008-12-21 00:00","2008","12","21","00:00"
"2008-12-21 01:00","2008","12","21","01:00"
"2008-12-21 02:00","2008","12","21","02:00"
"2008-12-21 03:00","2008","12","21","03:00"
"2008-12-21 04:00","2008","12","21","04:00"
"2008-12-21 05:00","2008","12","21","05:00"
"2008-12-21 06:00","2008","12","21","06:00","-13.7","","-17.7","","72","","5","","30","","8.0","","99.53","","","","-24","","Snow"
"2008-12-21 07:00","2008","12","21","07:00","-13.1","","-16.8","","74","","5","","30","","1.2","","99.39","","","","-24","","Snow"
"2008-12-21 08:00","2008","12","21","08:00","-12.4","","-16.0","","74","","6","","32","","0.4","","99.24","","","","-23","","Moderate Snow,Blowing Snow"
"2008-12-21 09:00","2008","12","21","09:00","-11.7","","-14.9","","77","","7","","30","","0.6","","99.19","","","","-22","","Moderate Snow"
"2008-12-21 10:00","2008","12","21","10:00","-10.1","","-13.2","","78","","6","","20","","1.2","","99.07","","","","-18","","Snow"
"2008-12-21 11:00","2008","12","21","11:00","-1.8","","-6.0","","73","","16","","44","","0.6","","98.95","","","","-10","","Moderate Snow,Blowing Snow"
"2008-12-21 12:00","2008","12","21","12:00","0.0","","-2.6","","83","","21","","48","","6.4","","98.80","","","","-8","","Snow,Blowing Snow"
"2008-12-21 13:00","2008","12","21","13:00","-0.6","","-4.8","","73","","23","","37","","24.1","","98.74","","","","-8","","Mostly Cloudy"
"2008-12-21 14:00","2008","12","21","14:00","-1.9","","-5.5","","76","","25","","30","","1.6","","98.73","","","","-9","","Snow"
"2008-12-21 15:00","2008","12","21","15:00","-2.7","","-6.4","","76","","26","","15","","24.1","","98.72","","","","-8","","Snow"
"2008-12-21 16:00","2008","12","21","16:00","-2.7","","-5.9","","79","","24","","22","","1.6","","98.76","","","","-9","","Snow"
"2008-12-21 17:00","2008","12","21","17:00","-3.2","","-7.1","","74","","25","","26","","4.8","","98.76","","","","-10","","Snow,Blowing Snow"
"2008-12-21 18:00","2008","12","21","18:00","-4.0","","-8.0","","74","","25","","46","","8.0","","98.79","","","","-13","","Snow,Blowing Snow"
"2008-12-21 19:00","2008","12","21","19:00","-5.0","","-8.5","","76","","26","","33","","11.3","","98.81","","","","-13","","Snow,Blowing Snow"
"2008-12-21 20:00","2008","12","21","20:00","-6.8","","-10.4","","75","","27","","33","","6.4","","98.86","","","","-16","","Snow"
"2008-12-21 21:00","2008","12","21","21:00","-7.9","","-11.9","","73","","27","","33","","16.1","","98.91","","","","-17","","Snow"
"2008-12-21 22:00","2008","12","21","22:00","-8.5","","-11.9","","76","","27","","37","","3.2","","98.92","","","","-18","","Snow"
"2008-12-21 23:00","2008","12","21","23:00","-8.8","","-11.9","","78","","27","","28","","2.4","","98.94","","","","-18","","Snow"
"2008-12-22 00:00","2008","12","22","00:00"
"2008-12-22 01:00","2008","12","22","01:00"
"2008-12-22 02:00","2008","12","22","02:00"
"2008-12-22 03:00","2008","12","22","03:00"
"2008-12-22 04:00","2008","12","22","04:00"
"2008-12-22 05:00","2008","12","22","05:00"
"2008-12-22 06:00","2008","12","22","06:00","-12.9","","-17.4","","69","","28","","22","","24.1","","99.42","","","","-22","","Mainly Clear"
"2008-12-22 07:00","2008","12","22","07:00","-13.3","","-17.3","","72","","28","","22","","24.1","","99.57","","","","-22","","Mainly Clear"
"2008-12-22 08:00","2008","12","22","08:00","-13.4","","-17.9","","69","","28","","20","","24.1","","99.81","","","","-22","","Mainly Clear"
"2008-12-22 09:00","2008","12","22","09:00","-13.7","","-18.8","","65","","29","","24","","24.1","","99.99","","","","-23","","Mostly Cloudy"
"2008-12-22 10:00","2008","12","22","10:00","-13.7","","-19.2","","63","","29","","19","","24.1","","100.14","","","","-22","","Mostly Cloudy"
"2008-12-22 11:00","2008","12","22","11:00","-13.7","","-19.7","","60","","30","","22","","24.1","","100.28","","","","-23","","Mainly Clear"
"2008-12-22 12:00","2008","12","22","12:00","-13.3","","-19.3","","61","","30","","22","","24.1","","100.41","","","","-22","","Mainly Clear"
"2008-12-22 13:00","2008","12","22","13:00","-12.9","","-19.6","","57","","30","","19","","24.1","","100.55","","","","-21","","Mainly Clear"
"2008-12-22 14:00","2008","12","22","14:00","-12.8","","-19.5","","57","","28","","19","","24.1","","100.77","","","","-21","","Mostly Cloudy"
"2008-12-22 15:00","2008","12","22","15:00","-12.3","","-19.3","","56","","26","","17","","24.1","","100.87","","","","-20","","Mostly Cloudy"
"2008-12-22 16:00","2008","12","22","16:00","-12.1","","-19.9","","52","","26","","17","","24.1","","101.05","","","","-20","","Mainly Clear"
"2008-12-22 17:00","2008","12","22","17:00","-12.2","","-19.8","","53","","27","","15","","24.1","","101.16","","","","-19","","Mainly Clear"
"2008-12-22 18:00","2008","12","22","18:00","-12.7","","-19.8","","55","","26","","15","","24.1","","101.29","","","","-20","","Clear"
"2008-12-22 19:00","2008","12","22","19:00","-12.8","","-19.3","","58","","27","","13","","24.1","","101.41","","","","-20","","Clear"
"2008-12-22 20:00","2008","12","22","20:00","-14.2","","-20.0","","61","","28","","17","","24.1","","101.55","","","","-22","","Clear"
"2008-12-22 21:00","2008","12","22","21:00","-14.4","","-19.9","","63","","29","","13","","24.1","","101.66","","","","-22","","Clear"
"2008-12-22 22:00","2008","12","22","22:00","-15.4","","-20.2","","67","","30","","6","","24.1","","101.74","","","","-20","","Clear"
"2008-12-22 23:00","2008","12","22","23:00","-15.2","","-19.8","","68","","28","","4","","24.1","","101.87","","","","-18","","Mainly Clear"
"2008-12-23 00:00","2008","12","23","00:00"
"2008-12-23 01:00","2008","12","23","01:00"
"2008-12-23 02:00","2008","12","23","02:00"
"2008-12-23 03:00","2008","12","23","03:00"
"2008-12-23 04:00","2008","12","23","04:00"
"2008-12-23 05:00","2008","12","23","05:00"
"2008-12-23 06:00","2008","12","23","06:00","-12.3","","-16.9","","69","","","","0","","24.1","","102.16","","","","","","Cloudy"
"2008-12-23 07:00","2008","12","23","07:00","-11.9","","-16.1","","71","","","","0","","24.1","","102.15","","","","","","Snow"
"2008-12-23 08:00","2008","12","23","08:00","-10.5","","-15.1","","69","","","","0","","24.1","","102.14","","","","","","Snow"
"2008-12-23 09:00","2008","12","23","09:00","-10.1","","-13.9","","74","","32","","7","","19.3","","102.21","","","","-14","","Snow"
"2008-12-23 10:00","2008","12","23","10:00","-6.5","","-10.8","","71","","25","","11","","4.8","","102.21","","","","-11","","Snow"
"2008-12-23 11:00","2008","12","23","11:00","-6.5","","-9.6","","79","","28","","11","","8.0","","102.22","","","","-11","","Snow"
"2008-12-23 12:00","2008","12","23","12:00","-5.9","","-8.6","","81","","26","","4","","24.1","","102.11","","","","-8","","Mostly Cloudy"
"2008-12-23 13:00","2008","12","23","13:00","-4.2","","-8.5","","72","","23","","22","","16.1","","102.02","","","","-11","","Snow"
"2008-12-23 14:00","2008","12","23","14:00","-4.0","","-8.1","","73","","22","","26","","6.4","","102.03","","","","-11","","Snow"
"2008-12-23 15:00","2008","12","23","15:00","-3.5","","-8.0","","71","","21","","30","","16.1","","101.94","","","","-11","","Snow"
"2008-12-23 16:00","2008","12","23","16:00","-3.6","","-8.4","","69","","18","","32","","24.1","","101.86","","","","-11","","Cloudy"
"2008-12-23 17:00","2008","12","23","17:00","-3.4","","-9.3","","64","","18","","32","","24.1","","101.78","","","","-11","","Cloudy"
"2008-12-23 18:00","2008","12","23","18:00","-2.5","","-9.3","","60","","18","","33","","24.1","","101.68","","","","-10","","Cloudy"
"2008-12-23 19:00","2008","12","23","19:00","-2.4","","-8.3","","64","","18","","37","","19.3","","101.61","","","","-10","","Snow"
"2008-12-23 20:00","2008","12","23","20:00","-2.9","","-7.0","","73","","18","","35","","9.7","","101.46","","","","-11","","Snow"
"2008-12-23 21:00","2008","12","23","21:00","-2.5","","-5.4","","80","","18","","43","","2.4","","101.35","","","","-11","","Snow,Blowing Snow"
"2008-12-23 22:00","2008","12","23","22:00","-2.0","","-5.9","","75","","18","","46","","19.3","","101.23","","","","-11","","Snow,Blowing Snow"
"2008-12-23 23:00","2008","12","23","23:00","-1.8","","-4.8","","80","","18","","44","","8.0","","101.10","","","","-10","","Snow,Blowing Snow"
"2008-12-24 00:00","2008","12","24","00:00"
"2008-12-24 01:00","2008","12","24","01:00"
"2008-12-24 02:00","2008","12","24","02:00"
"2008-12-24 03:00","2008","12","24","03:00"
"2008-12-24 04:00","2008","12","24","04:00"
"2008-12-24 05:00","2008","12","24","05:00"
"2008-12-24 06:00","2008","12","24","06:00","-0.5","","-2.6","","86","","19","","44","","4.0","","100.62","","","","-8","","Snow,Blowing Snow"
"2008-12-24 07:00","2008","12","24","07:00","0.2","","-1.9","","86","","19","","39","","6.4","","100.59","","","","","","Snow,Blowing Snow"
"2008-12-24 08:00","2008","12","24","08:00","0.9","","-1.4","","85","","19","","39","","19.3","","100.53","","","","","","Rain"
"2008-12-24 09:00","2008","12","24","09:00","1.3","","-1.3","","83","","19","","35","","8.0","","100.53","","","","","","Snow,Ice Pellets"
"2008-12-24 10:00","2008","12","24","10:00","1.8","","-0.8","","83","","19","","33","","16.1","","100.47","","","","","","Rain,Ice Pellets"
"2008-12-24 11:00","2008","12","24","11:00","2.0","","-0.9","","81","","18","","33","","19.3","","100.39","","","","","","Rain"
"2008-12-24 12:00","2008","12","24","12:00","2.5","","-0.7","","79","","18","","30","","24.1","","100.26","","","","","","Cloudy"
"2008-12-24 13:00","2008","12","24","13:00","2.8","","-0.4","","79","","18","","33","","24.1","","100.02","","","","","","Cloudy"
"2008-12-24 14:00","2008","12","24","14:00","2.7","","-0.1","","82","","18","","28","","24.1","","99.84","","","","","","Cloudy"
"2008-12-24 15:00","2008","12","24","15:00","3.2","","0.1","","80","","17","","35","","24.1","","99.58","","","","","","Cloudy"
"2008-12-24 16:00","2008","12","24","16:00","3.6","","0.5","","80","","16","","33","","24.1","","99.33","","","","","","Cloudy"
"2008-12-24 17:00","2008","12","24","17:00","3.4","","0.9","","84","","17","","33","","8.0","","99.24","","","","","","Moderate Rain,Fog"
"2008-12-24 18:00","2008","12","24","18:00","3.4","","1.7","","89","","17","","35","","8.0","","98.98","","","","","","Rain,Fog"
"2008-12-24 19:00","2008","12","24","19:00","4.4","","2.4","","87","","19","","35","","19.3","","98.82","","","","","","Rain"
"2008-12-24 20:00","2008","12","24","20:00","5.1","","2.6","","84","","21","","39","","12.9","","98.67","","","","","","Rain"
"2008-12-24 21:00","2008","12","24","21:00","6.8","","4.0","","82","","24","","43","","24.1","","98.76","","","","","","Rain"
"2008-12-24 22:00","2008","12","24","22:00","6.0","","1.7","","74","","25","","52","","24.1","","98.81","","","","","","Rain"
"2008-12-24 23:00","2008","12","24","23:00","4.4","","-0.1","","73","","25","","48","","24.1","","98.98","","","","","","Mostly Cloudy"
"2008-12-25 00:00","2008","12","25","00:00"
"2008-12-25 01:00","2008","12","25","01:00"
"2008-12-25 02:00","2008","12","25","02:00"
"2008-12-25 03:00","2008","12","25","03:00"
"2008-12-25 04:00","2008","12","25","04:00"
"2008-12-25 05:00","2008","12","25","05:00"
"2008-12-25 06:00","2008","12","25","06:00","0.8","","-6.1","","60","","27","","22","","24.1","","100.53","","","","","","Mostly Cloudy"
"2008-12-25 07:00","2008","12","25","07:00","0.4","","-5.4","","65","","27","","19","","24.1","","100.76","","","","","","Mostly Cloudy"
"2008-12-25 08:00","2008","12","25","08:00","0.0","","-6.4","","62","","26","","19","","24.1","","101.04","","","","-5","","Mainly Clear"
"2008-12-25 09:00","2008","12","25","09:00","-0.3","","-6.3","","64","","27","","19","","24.1","","101.10","","","","-5","","Mainly Clear"
"2008-12-25 10:00","2008","12","25","10:00","0.4","","-6.6","","59","","28","","24","","24.1","","101.28","","","","","","Mainly Clear"
"2008-12-25 11:00","2008","12","25","11:00","0.8","","-6.2","","59","","29","","19","","24.1","","101.36","","","","","","Mainly Clear"
"2008-12-25 12:00","2008","12","25","12:00","1.3","","-6.7","","55","","29","","15","","24.1","","101.39","","","","","","Mainly Clear"
"2008-12-25 13:00","2008","12","25","13:00","1.5","","-7.0","","53","","28","","13","","24.1","","101.43","","","","","","Mostly Cloudy"
"2008-12-25 14:00","2008","12","25","14:00","0.7","","-7.0","","56","","27","","17","","24.1","","101.49","","","","","","Mostly Cloudy"
"2008-12-25 15:00","2008","12","25","15:00","0.6","","-7.5","","55","","27","","24","","24.1","","101.55","","","","","","Mainly Clear"
"2008-12-25 16:00","2008","12","25","16:00","0.1","","-8.6","","52","","27","","19","","24.1","","101.68","","","","","","Mainly Clear"
"2008-12-25 17:00","2008","12","25","17:00","-1.1","","-8.9","","55","","28","","9","","24.1","","101.78","","","","-4","","Mainly Clear"
"2008-12-25 18:00","2008","12","25","18:00","-1.9","","-8.9","","59","","27","","11","","24.1","","101.85","","","","-6","","Mainly Clear"
"2008-12-25 19:00","2008","12","25","19:00","-2.6","","-9.0","","61","","27","","13","","24.1","","101.95","","","","-7","","Clear"
"2008-12-25 20:00","2008","12","25","20:00","-3.3","","-8.9","","65","","28","","13","","24.1","","102.04","","","","-8","","Clear"
"2008-12-25 21:00","2008","12","25","21:00","-3.8","","-9.4","","65","","28","","13","","24.1","","102.10","","","","-9","","Clear"
"2008-12-25 22:00","2008","12","25","22:00","-5.1","","-9.8","","70","","33","","7","","24.1","","102.14","","","","-8","","Clear"
"2008-12-25 23:00","2008","12","25","23:00","-6.2","","-10.7","","70","","2","","9","","24.1","","102.13","","","","-10","","Mainly Clear"
"2008-12-26 00:00","2008","12","26","00:00"
"2008-12-26 01:00","2008","12","26","01:00"
"2008-12-26 02:00","2008","12","26","02:00"
"2008-12-26 03:00","2008","12","26","03:00"
"2008-12-26 04:00","2008","12","26","04:00"
"2008-12-26 05:00","2008","12","26","05:00"
"2008-12-26 06:00","2008","12","26","06:00","-2.1","","-8.3","","62","","11","","9","","24.1","","102.18","","","","-6","","Cloudy"
"2008-12-26 07:00","2008","12","26","07:00","-1.8","","-9.1","","57","","12","","11","","24.1","","102.18","","","","-6","","Mostly Cloudy"
"2008-12-26 08:00","2008","12","26","08:00","-1.7","","-9.1","","57","","12","","13","","24.1","","102.20","","","","-6","","Mostly Cloudy"
"2008-12-26 09:00","2008","12","26","09:00","-1.7","","-7.6","","64","","12","","19","","24.1","","102.12","","","","-7","","Cloudy"
"2008-12-26 10:00","2008","12","26","10:00","-1.4","","-6.7","","67","","13","","24","","24.1","","102.11","","","","-8","","Cloudy"
"2008-12-26 11:00","2008","12","26","11:00","-0.2","","-5.2","","69","","18","","32","","24.1","","102.10","","","","-7","","Cloudy"
"2008-12-26 12:00","2008","12","26","12:00","0.0","","-5.5","","66","","17","","24","","24.1","","101.98","","","","-6","","Cloudy"
"2008-12-26 13:00","2008","12","26","13:00","-0.1","","-6.0","","64","","15","","24","","24.1","","101.85","","","","-6","","Cloudy"
"2008-12-26 14:00","2008","12","26","14:00","-0.9","","-3.9","","80","","17","","30","","3.2","","101.73","","","","-8","","Snow"
"2008-12-26 15:00","2008","12","26","15:00","-1.0","","-4.1","","79","","14","","26","","11.3","","101.63","","","","-7","","Snow"
"2008-12-26 16:00","2008","12","26","16:00","0.2","","-4.0","","73","","14","","22","","24.1","","101.58","","","","","","Cloudy"
"2008-12-26 17:00","2008","12","26","17:00","0.4","","-4.2","","71","","15","","26","","24.1","","101.59","","","","","","Cloudy"
"2008-12-26 18:00","2008","12","26","18:00","0.8","","-4.1","","70","","16","","30","","24.1","","101.54","","","","","","Snow"
"2008-12-26 19:00","2008","12","26","19:00","1.1","","-3.9","","69","","15","","24","","24.1","","101.44","","","","","","Cloudy"
"2008-12-26 20:00","2008","12","26","20:00","1.5","","-3.6","","69","","16","","26","","24.1","","101.40","","","","","","Cloudy"
"2008-12-26 21:00","2008","12","26","21:00","1.7","","-3.4","","69","","17","","28","","24.1","","101.39","","","","","","Cloudy"
"2008-12-26 22:00","2008","12","26","22:00","1.6","","-3.1","","71","","17","","32","","24.1","","101.29","","","","","","Cloudy"
"2008-12-26 23:00","2008","12","26","23:00","1.6","","-2.8","","73","","18","","30","","24.1","","101.24","","","","","","Cloudy"
"2008-12-27 00:00","2008","12","27","00:00"
"2008-12-27 01:00","2008","12","27","01:00"
"2008-12-27 02:00","2008","12","27","02:00"
"2008-12-27 03:00","2008","12","27","03:00"
"2008-12-27 04:00","2008","12","27","04:00"
"2008-12-27 05:00","2008","12","27","05:00"
"2008-12-27 06:00","2008","12","27","06:00","2.2","","0.2","","87","","17","","22","","3.2","","100.75","","","","","","Rain,Fog"
"2008-12-27 07:00","2008","12","27","07:00","2.3","","0.4","","87","","17","","24","","4.8","","100.70","","","","","","Rain,Fog"
"2008-12-27 08:00","2008","12","27","08:00","2.7","","0.9","","88","","17","","22","","1.2","","100.64","","","","","","Drizzle,Fog"
"2008-12-27 09:00","2008","12","27","09:00","3.2","","1.6","","89","","19","","15","","2.4","","100.61","","","","","","Rain,Drizzle,Fog"
"2008-12-27 10:00","2008","12","27","10:00","3.9","","2.1","","88","","19","","19","","1.6","","100.63","","","","","","Rain,Fog"
"2008-12-27 11:00","2008","12","27","11:00","3.5","","1.8","","89","","19","","20","","1.2","","100.60","","","","","","Drizzle,Fog"
"2008-12-27 12:00","2008","12","27","12:00","3.5","","1.8","","89","","18","","15","","1.2","","100.50","","","","","","Fog"
"2008-12-27 13:00","2008","12","27","13:00","3.7","","2.0","","89","","18","","17","","1.6","","100.38","","","","","","Rain,Fog"
"2008-12-27 14:00","2008","12","27","14:00","4.2","","2.7","","90","","19","","15","","2.4","","100.36","","","","","","Rain,Fog"
"2008-12-27 15:00","2008","12","27","15:00","4.2","","2.6","","89","","20","","9","","0.4","","100.35","","","","","","Rain,Fog"
"2008-12-27 16:00","2008","12","27","16:00","4.7","","3.1","","89","","18","","15","","0.4","","100.33","","","","","","Rain,Fog"
"2008-12-27 17:00","2008","12","27","17:00","4.7","","2.9","","88","","18","","11","","0.4","","100.27","","","","","","Rain,Fog"
"2008-12-27 18:00","2008","12","27","18:00","5.1","","3.6","","90","","20","","7","","12.9","","100.23","","","","","","Rain"
"2008-12-27 19:00","2008","12","27","19:00","5.1","","3.5","","89","","19","","15","","12.9","","100.15","","","","","","Cloudy"
"2008-12-27 20:00","2008","12","27","20:00","5.4","","3.6","","88","","18","","20","","12.9","","100.10","","","","","","Cloudy"
"2008-12-27 21:00","2008","12","27","21:00","5.3","","3.4","","88","","18","","19","","12.9","","100.05","","","","","","Cloudy"
"2008-12-27 22:00","2008","12","27","22:00","5.6","","3.6","","87","","18","","13","","16.1","","99.91","","","","","","Cloudy"
"2008-12-27 23:00","2008","12","27","23:00","5.3","","3.4","","88","","18","","26","","16.1","","99.80","","","","","","Mainly Clear"
"2008-12-28 00:00","2008","12","28","00:00"
"2008-12-28 01:00","2008","12","28","01:00"
"2008-12-28 02:00","2008","12","28","02:00"
"2008-12-28 03:00","2008","12","28","03:00"
"2008-12-28 04:00","2008","12","28","04:00"
"2008-12-28 05:00","2008","12","28","05:00"
"2008-12-28 06:00","2008","12","28","06:00","5.7","","3.2","","84","","21","","9","","24.1","","99.25","","","","","","Mostly Cloudy"
"2008-12-28 07:00","2008","12","28","07:00","5.9","","3.1","","82","","18","","24","","24.1","","99.07","","","","","","Mostly Cloudy"
"2008-12-28 08:00","2008","12","28","08:00","6.4","","3.2","","80","","17","","39","","24.1","","98.86","","","","","","Mostly Cloudy"
"2008-12-28 09:00","2008","12","28","09:00","5.9","","3.2","","83","","18","","30","","24.1","","98.83","","","","","","Mostly Cloudy"
"2008-12-28 10:00","2008","12","28","10:00","6.7","","3.3","","79","","18","","39","","24.1","","98.70","","","","","","Mostly Cloudy"
"2008-12-28 11:00","2008","12","28","11:00","8.2","","2.2","","66","","24","","54","","24.1","","99.04","","","","","","Cloudy"
"2008-12-28 12:00","2008","12","28","12:00","5.2","","-0.1","","69","","24","","57","","24.1","","99.16","","","","","","Mostly Cloudy"
"2008-12-28 13:00","2008","12","28","13:00","4.1","","-1.8","","65","","24","","59","","24.1","","99.30","","","","","","Mostly Cloudy"
"2008-12-28 14:00","2008","12","28","14:00","3.5","","-2.9","","63","","24","","65","","24.1","","99.38","","","","","","Mostly Cloudy"
"2008-12-28 15:00","2008","12","28","15:00","3.2","","-3.3","","62","","25","","52","","24.1","","99.53","","","","","","Mostly Cloudy"
"2008-12-28 16:00","2008","12","28","16:00","3.0","","-4.5","","58","","25","","61","","24.1","","99.67","","","","","","Mainly Clear"
"2008-12-28 17:00","2008","12","28","17:00","2.8","","-3.9","","61","","25","","52","","24.1","","99.82","","","","","","Mostly Cloudy"
"2008-12-28 18:00","2008","12","28","18:00","2.8","","-3.8","","62","","25","","50","","24.1","","99.97","","","","","","Mostly Cloudy"
"2008-12-28 19:00","2008","12","28","19:00","2.7","","-3.5","","64","","25","","46","","24.1","","100.10","","","","","","Cloudy"
"2008-12-28 20:00","2008","12","28","20:00","2.4","","-3.3","","66","","25","","35","","24.1","","100.23","","","","","","Cloudy"
"2008-12-28 21:00","2008","12","28","21:00","2.4","","-3.4","","65","","26","","32","","24.1","","100.32","","","","","","Cloudy"
"2008-12-28 22:00","2008","12","28","22:00","2.1","","-3.5","","66","","25","","20","","24.1","","100.37","","","","","","Mainly Clear"
"2008-12-28 23:00","2008","12","28","23:00","1.9","","-3.5","","67","","25","","26","","24.1","","100.41","","","","","","Mostly Cloudy"
"2008-12-29 00:00","2008","12","29","00:00"
"2008-12-29 01:00","2008","12","29","01:00"
"2008-12-29 02:00","2008","12","29","02:00"
"2008-12-29 03:00","2008","12","29","03:00"
"2008-12-29 04:00","2008","12","29","04:00"
"2008-12-29 05:00","2008","12","29","05:00"
"2008-12-29 06:00","2008","12","29","06:00","1.4","","-4.2","","66","","26","","15","","24.1","","100.49","","","","","","Cloudy"
"2008-12-29 07:00","2008","12","29","07:00","1.1","","-4.3","","67","","27","","13","","24.1","","100.51","","","","","","Cloudy"
"2008-12-29 08:00","2008","12","29","08:00","1.0","","-4.2","","68","","26","","15","","24.1","","100.50","","","","","","Cloudy"
"2008-12-29 09:00","2008","12","29","09:00","1.0","","-4.3","","68","","26","","13","","24.1","","100.50","","","","","","Cloudy"
"2008-12-29 10:00","2008","12","29","10:00","1.1","","-4.7","","65","","27","","13","","24.1","","100.47","","","","","","Cloudy"
"2008-12-29 11:00","2008","12","29","11:00","1.1","","-4.7","","65","","26","","20","","24.1","","100.41","","","","","","Cloudy"
"2008-12-29 12:00","2008","12","29","12:00","1.5","","-4.9","","62","","25","","19","","24.1","","100.29","","","","","","Mostly Cloudy"
"2008-12-29 13:00","2008","12","29","13:00","2.4","","-5.4","","56","","25","","22","","24.1","","100.14","","","","","","Mostly Cloudy"
"2008-12-29 14:00","2008","12","29","14:00","1.7","","-5.4","","59","","25","","17","","24.1","","99.98","","","","","","Mainly Clear"
"2008-12-29 15:00","2008","12","29","15:00","1.5","","-5.0","","62","","23","","22","","24.1","","99.85","","","","","","Mainly Clear"
"2008-12-29 16:00","2008","12","29","16:00","0.7","","-4.8","","67","","21","","19","","24.1","","99.78","","","","","","Mainly Clear"
"2008-12-29 17:00","2008","12","29","17:00","1.3","","-3.6","","70","","18","","19","","24.1","","99.60","","","","","","Mostly Cloudy"
"2008-12-29 18:00","2008","12","29","18:00","1.6","","-2.9","","72","","17","","22","","24.1","","99.41","","","","","","Mostly Cloudy"
"2008-12-29 19:00","2008","12","29","19:00","2.0","","-3.0","","69","","16","","28","","24.1","","99.27","","","","","","Cloudy"
"2008-12-29 20:00","2008","12","29","20:00","2.2","","-2.8","","69","","18","","33","","24.1","","99.14","","","","","","Cloudy"
"2008-12-29 21:00","2008","12","29","21:00","2.7","","-1.5","","74","","22","","22","","19.3","","98.94","","","","","","Rain Showers"
"2008-12-29 22:00","2008","12","29","22:00","2.6","","-1.0","","77","","22","","17","","16.1","","98.79","","","","","","Rain Showers"
"2008-12-29 23:00","2008","12","29","23:00","3.4","","-0.8","","74","","25","","30","","16.1","","98.73","","","","","","Rain Showers"
"2008-12-30 00:00","2008","12","30","00:00"
"2008-12-30 01:00","2008","12","30","01:00"
"2008-12-30 02:00","2008","12","30","02:00"
"2008-12-30 03:00","2008","12","30","03:00"
"2008-12-30 04:00","2008","12","30","04:00"
"2008-12-30 05:00","2008","12","30","05:00"
"2008-12-30 06:00","2008","12","30","06:00","-0.8","","-7.5","","60","","28","","32","","24.1","","99.52","","","","-8","","Mainly Clear"
"2008-12-30 07:00","2008","12","30","07:00","-2.4","","-11.3","","50","","29","","37","","24.1","","99.71","","","","-10","","Mainly Clear"
"2008-12-30 08:00","2008","12","30","08:00","-3.2","","-12.8","","47","","30","","30","","24.1","","99.86","","","","-11","","Mainly Clear"
"2008-12-30 09:00","2008","12","30","09:00","-3.3","","-12.9","","47","","29","","24","","24.1","","100.05","","","","-10","","Mainly Clear"
"2008-12-30 10:00","2008","12","30","10:00","-3.6","","-13.6","","46","","29","","33","","24.1","","100.21","","","","-12","","Mainly Clear"
"2008-12-30 11:00","2008","12","30","11:00","-3.6","","-13.5","","46","","31","","26","","24.1","","100.25","","","","-11","","Mostly Cloudy"
"2008-12-30 12:00","2008","12","30","12:00","-3.5","","-13.4","","46","","31","","24","","24.1","","100.23","","","","-10","","Mostly Cloudy"
"2008-12-30 13:00","2008","12","30","13:00","-3.1","","-14.9","","40","","29","","28","","24.1","","100.25","","","","-10","","Mostly Cloudy"
"2008-12-30 14:00","2008","12","30","14:00","-3.2","","-14.5","","41","","27","","24","","24.1","","100.29","","","","-10","","Mostly Cloudy"
"2008-12-30 15:00","2008","12","30","15:00","-3.6","","-15.6","","39","","30","","22","","24.1","","100.29","","","","-10","","Mainly Clear"
"2008-12-30 16:00","2008","12","30","16:00","-3.6","","-15.7","","39","","24","","22","","24.1","","100.33","","","","-10","","Mainly Clear"
"2008-12-30 17:00","2008","12","30","17:00","-4.5","","-15.1","","43","","29","","7","","24.1","","100.34","","","","-8","","Mostly Cloudy"
"2008-12-30 18:00","2008","12","30","18:00","-5.8","","-13.4","","55","","32","","4","","24.1","","100.30","","","","-8","","Mostly Cloudy"
"2008-12-30 19:00","2008","12","30","19:00","-5.3","","-15.0","","46","","31","","4","","24.1","","100.27","","","","-7","","Mostly Cloudy"
"2008-12-30 20:00","2008","12","30","20:00","-5.2","","-14.8","","47","","31","","6","","24.1","","100.20","","","","-8","","Mostly Cloudy"
"2008-12-30 21:00","2008","12","30","21:00","-5.3","","-14.4","","49","","31","","4","","24.1","","100.17","","","","-7","","Mostly Cloudy"
"2008-12-30 22:00","2008","12","30","22:00","-6.1","","-13.9","","54","","36","","6","","24.1","","100.07","","","","-9","","Mostly Cloudy"
"2008-12-30 23:00","2008","12","30","23:00","-5.9","","-13.4","","55","","36","","6","","24.1","","100.03","","","","-9","","Cloudy"
"2008-12-31 00:00","2008","12","31","00:00"
"2008-12-31 01:00","2008","12","31","01:00"
"2008-12-31 02:00","2008","12","31","02:00"
"2008-12-31 03:00","2008","12","31","03:00"
"2008-12-31 04:00","2008","12","31","04:00"
"2008-12-31 05:00","2008","12","31","05:00"
"2008-12-31 06:00","2008","12","31","06:00","-11.7","","-16.3","","69","","2","","30","","4.8","","99.67","","","","-22","","Snow"
"2008-12-31 07:00","2008","12","31","07:00","-12.1","","-16.5","","70","","2","","28","","3.2","","99.81","","","","-22","","Snow"
"2008-12-31 08:00","2008","12","31","08:00","-12.7","","-17.1","","70","","3","","28","","2.4","","99.87","","","","-23","","Snow"
"2008-12-31 09:00","2008","12","31","09:00","-12.7","","-17.4","","68","","2","","22","","4.0","","99.96","","","","-22","","Snow"
"2008-12-31 10:00","2008","12","31","10:00","-13.0","","-19.0","","61","","1","","30","","24.1","","100.06","","","","-23","","Cloudy"
"2008-12-31 11:00","2008","12","31","11:00","-12.5","","-20.1","","53","","35","","37","","24.1","","100.17","","","","-24","","Mostly Cloudy"
"2008-12-31 12:00","2008","12","31","12:00","-12.3","","-19.9","","53","","36","","24","","24.1","","100.21","","","","-22","","Mostly Cloudy"
"2008-12-31 13:00","2008","12","31","13:00","-11.8","","-20.3","","49","","35","","30","","24.1","","100.25","","","","-22","","Mostly Cloudy"
"2008-12-31 14:00","2008","12","31","14:00","-11.7","","-20.6","","48","","34","","28","","24.1","","100.31","","","","-21","","Mainly Clear"
"2008-12-31 15:00","2008","12","31","15:00","-11.4","","-20.5","","47","","33","","20","","24.1","","100.40","","","","-20","","Mainly Clear"
"2008-12-31 16:00","2008","12","31","16:00","-11.6","","-20.7","","47","","32","","19","","24.1","","100.51","","","","-20","","Mainly Clear"
"2008-12-31 17:00","2008","12","31","17:00","-12.4","","-21.3","","47","","33","","15","","24.1","","100.63","","","","-20","","Mainly Clear"
"2008-12-31 18:00","2008","12","31","18:00","-12.6","","-21.8","","46","","33","","17","","24.1","","100.75","","","","-20","","Mainly Clear"
"2008-12-31 19:00","2008","12","31","19:00","-13.4","","-21.7","","50","","34","","17","","24.1","","100.84","","","","-21","","Mainly Clear"
"2008-12-31 20:00","2008","12","31","20:00","-14.0","","-22.0","","51","","36","","20","","24.1","","100.93","","","","-23","","Clear"
"2008-12-31 21:00","2008","12","31","21:00","-14.8","","-22.4","","52","","36","","13","","24.1","","101.01","","","","-22","","Clear"
"2008-12-31 22:00","2008","12","31","22:00","-15.2","","-22.2","","55","","33","","7","","24.1","","101.06","","","","-20","","Mainly Clear"
"2008-12-31 23:00","2008","12","31","23:00","-14.9","","-21.7","","56","","32","","17","","24.1","","101.10","","","","-23","","Mostly Cloudy"
