"Station Name","KINGSTON A"
"Province","ONTARIO"
"Latitude","44.22"
"Longitude","-76.60"
"Elevation","92.40"
"Climate Identifier","6104146"
"WMO Identifier",""
"TC Identifier","YGK"
"All times are specified in Local Standard Time (LST). Add 1 hour to adjust for Daylight Saving Time where and when it is observed."

"Legend"
"E","Estimated"
"M","Missing"
"NA","Not Available"

"Date/Time","Year","Month","Day","Time","Temp (°C)","Temp Flag","Dew Point Temp (°C)","Dew Point Temp Flag","Rel Hum (%)","Rel Hum Flag","Wind Dir (10s deg)","Wind Dir Flag","Wind Spd (km/h)","Wind Spd Flag","Visibility (km)","Visibility Flag","Stn Press (kPa)","Stn Press Flag","Hmdx","Hmdx Flag","Wind Chill","Wind Chill Flag","Weather"
"2003-08-01 00:00","2003","08","01","00:00"
"2003-08-01 01:00","2003","08","01","01:00"
"2003-08-01 02:00","2003","08","01","02:00"
"2003-08-01 03:00","2003","08","01","03:00"
"2003-08-01 04:00","2003","08","01","04:00"
"2003-08-01 05:00","2003","08","01","05:00","19.5","","18.0","","91","","14","","19","E","16.1","","100.77","","","","","","Rain Showers"
"2003-08-01 06:00","2003","08","01","06:00","19.2","","17.7","","91","","14","","9","E","19.3","","100.79","","","","","","Rain Showers"
"2003-08-01 07:00","2003","08","01","07:00","19.1","","17.6","","91","","14","","11","E","24.1","","100.76","","","","","","Mostly Cloudy"
"2003-08-01 08:00","2003","08","01","08:00","19.8","","17.9","","89","","14","","9","E","24.1","","100.71","","","","","","Mostly Cloudy"
"2003-08-01 09:00","2003","08","01","09:00","20.0","","17.7","","87","","14","","9","E","24.1","","100.73","","26","","","","Mostly Cloudy"
"2003-08-01 10:00","2003","08","01","10:00","20.5","","17.5","","83","","9","","6","E","24.1","","100.75","","26","","","","Cloudy"
"2003-08-01 11:00","2003","08","01","11:00","21.5","","17.5","","78","","","","0","","24.1","","100.73","","27","","","","Mostly Cloudy"
"2003-08-01 12:00","2003","08","01","12:00","21.3","","17.9","","81","","18","","6","E","24.1","","100.69","","27","","","","Mostly Cloudy"
"2003-08-01 13:00","2003","08","01","13:00","21.8","","18.0","","79","","14","","9","E","24.1","","100.68","","28","","","","Cloudy"
"2003-08-01 14:00","2003","08","01","14:00","21.8","","17.2","","75","","9","","11","E","24.1","","100.64","","27","","","","Cloudy"
"2003-08-01 15:00","2003","08","01","15:00","22.2","","17.3","","74","","9","","11","E","24.1","","100.61","","28","","","","Cloudy"
"2003-08-01 16:00","2003","08","01","16:00","22.9","","17.3","","71","","5","","11","E","24.1","","100.55","","28","","","","Cloudy"
"2003-08-01 17:00","2003","08","01","17:00","22.9","","17.7","","73","","9","","6","E","24.1","","100.54","","29","","","","Cloudy"
"2003-08-01 18:00","2003","08","01","18:00","22.8","","17.3","","71","","9","","7","E","24.1","","100.50","","28","","","","Cloudy"
"2003-08-01 19:00","2003","08","01","19:00","22.8","","17.1","","70","","","","0","","24.1","","100.51","","28","","","","Cloudy"
"2003-08-01 20:00","2003","08","01","20:00","21.9","","18.8","","83","","18","","9","E","24.1","","100.53","","29","","","","Cloudy"
"2003-08-01 21:00","2003","08","01","21:00","21.0","","18.3","","85","","23","","9","E","24.1","","100.53","","27","","","","Cloudy"
"2003-08-01 22:00","2003","08","01","22:00","20.6","","18.2","","86","","18","","6","E","24.1","","100.51","","27","","","","Mainly Clear"
"2003-08-01 23:00","2003","08","01","23:00"
"2003-08-02 00:00","2003","08","02","00:00"
"2003-08-02 01:00","2003","08","02","01:00"
"2003-08-02 02:00","2003","08","02","02:00"
"2003-08-02 03:00","2003","08","02","03:00"
"2003-08-02 04:00","2003","08","02","04:00"
"2003-08-02 05:00","2003","08","02","05:00","17.5","","16.9","","96","","36","","6","E","19.3","","100.51","","","","","","Mainly Clear"
"2003-08-02 06:00","2003","08","02","06:00","18.3","","17.4","","94","","5","","6","E","19.3","","100.53","","","","","","Mainly Clear"
"2003-08-02 07:00","2003","08","02","07:00","20.2","","18.5","","90","","5","","6","E","19.3","","100.53","","27","","","","Mainly Clear"
"2003-08-02 08:00","2003","08","02","08:00","21.3","","19.3","","88","","18","","9","E","24.1","","100.53","","28","","","","Mainly Clear"
"2003-08-02 09:00","2003","08","02","09:00","21.9","","19.5","","86","","18","","9","E","24.1","","100.55","","29","","","","Mainly Clear"
"2003-08-02 10:00","2003","08","02","10:00","21.8","","19.0","","84","","18","","9","E","24.1","","100.54","","29","","","","Mainly Clear"
"2003-08-02 11:00","2003","08","02","11:00","23.5","","19.9","","80","","18","","9","E","24.1","","100.50","","31","","","","Mainly Clear"
"2003-08-02 12:00","2003","08","02","12:00","23.6","","19.8","","79","","18","","13","E","24.1","","100.50","","31","","","","Mainly Clear"
"2003-08-02 13:00","2003","08","02","13:00","22.9","","19.8","","83","","18","","7","E","19.3","","100.46","","30","","","","Cloudy"
"2003-08-02 14:00","2003","08","02","14:00","23.2","","19.8","","81","","18","","4","E","24.1","","100.44","","31","","","","Cloudy"
"2003-08-02 15:00","2003","08","02","15:00","24.3","","20.3","","78","","14","","4","E","24.1","","100.42","","32","","","","Cloudy"
"2003-08-02 16:00","2003","08","02","16:00","25.6","","19.6","","69","","9","","7","E","24.1","","100.41","","33","","","","Cloudy"
"2003-08-02 17:00","2003","08","02","17:00","24.6","","20.5","","78","","9","","9","E","11.3","","100.39","","33","","","","Rain Showers"
"2003-08-02 18:00","2003","08","02","18:00","23.5","","20.5","","83","","14","","11","E","19.3","","100.40","","31","","","","Cloudy"
"2003-08-02 19:00","2003","08","02","19:00","23.4","","20.2","","82","","9","","11","E","11.3","","100.38","","31","","","","Mostly Cloudy"
"2003-08-02 20:00","2003","08","02","20:00","22.6","","19.6","","83","","14","","11","E","24.1","","100.41","","30","","","","Cloudy"
"2003-08-02 21:00","2003","08","02","21:00","22.1","","20.1","","88","","14","","9","E","19.3","","100.45","","30","","","","Cloudy"
"2003-08-02 22:00","2003","08","02","22:00","21.6","","19.9","","90","","9","","6","E","19.3","","100.47","","29","","","","Cloudy"
"2003-08-02 23:00","2003","08","02","23:00"
"2003-08-03 00:00","2003","08","03","00:00"
"2003-08-03 01:00","2003","08","03","01:00"
"2003-08-03 02:00","2003","08","03","02:00"
"2003-08-03 03:00","2003","08","03","03:00"
"2003-08-03 04:00","2003","08","03","04:00"
"2003-08-03 05:00","2003","08","03","05:00","20.9","","19.9","","94","","18","","7","E","8.0","","100.55","","28","","","","Fog"
"2003-08-03 06:00","2003","08","03","06:00","19.6","","18.6","","94","","","","0","","8.0","","100.55","","","","","","Fog"
"2003-08-03 07:00","2003","08","03","07:00","20.4","","19.2","","93","","","","0","","4.8","","100.62","","27","","","","Fog"
"2003-08-03 08:00","2003","08","03","08:00","21.9","","20.2","","90","","18","","6","E","4.8","","100.62","","30","","","","Fog"
"2003-08-03 09:00","2003","08","03","09:00","22.3","","20.2","","88","","14","","7","E","4.8","","100.64","","30","","","","Fog"
"2003-08-03 10:00","2003","08","03","10:00","22.6","","20.9","","90","","18","","11","E","4.8","","100.64","","31","","","","Fog"
"2003-08-03 11:00","2003","08","03","11:00","23.5","","19.8","","80","","18","","6","E","6.4","","100.59","","31","","","","Fog"
"2003-08-03 12:00","2003","08","03","12:00","23.5","","20.5","","83","","18","","7","E","6.4","","100.56","","31","","","","Fog"
"2003-08-03 13:00","2003","08","03","13:00","24.0","","20.8","","82","","18","","4","E","6.4","","100.53","","32","","","","Fog"
"2003-08-03 14:00","2003","08","03","14:00","25.2","","19.7","","72","","18","","4","E","9.7","","100.48","","33","","","","Fog"
"2003-08-03 15:00","2003","08","03","15:00","26.6","","20.5","","69","","18","","4","E","8.0","","100.44","","35","","","","Fog"
"2003-08-03 16:00","2003","08","03","16:00","26.8","","21.1","","71","","18","","4","E","8.0","","100.39","","35","","","","Fog"
"2003-08-03 17:00","2003","08","03","17:00","28.0","","20.5","","64","","5","","11","E","6.4","","100.32","","36","","","","Haze"
"2003-08-03 18:00","2003","08","03","18:00","26.4","","21.0","","72","","9","","7","E","8.0","","100.32","","35","","","","Rain Showers,Fog"
"2003-08-03 19:00","2003","08","03","19:00","24.8","","22.2","","85","","5","","11","E","8.0","","100.29","","34","","","","Thunderstorms,Rain Showers,Fog"
"2003-08-03 20:00","2003","08","03","20:00","21.3","","20.5","","95","","9","","9","E","6.4","","100.38","","29","","","","Thunderstorms,Rain Showers,Fog"
"2003-08-03 21:00","2003","08","03","21:00","21.6","","20.6","","94","","14","","11","E","16.1","","100.37","","30","","","","Rain Showers"
"2003-08-03 22:00","2003","08","03","22:00","21.8","","20.7","","93","","14","","15","E","24.1","","100.33","","30","","","","Cloudy"
"2003-08-03 23:00","2003","08","03","23:00"
"2003-08-04 00:00","2003","08","04","00:00"
"2003-08-04 01:00","2003","08","04","01:00"
"2003-08-04 02:00","2003","08","04","02:00"
"2003-08-04 03:00","2003","08","04","03:00"
"2003-08-04 04:00","2003","08","04","04:00"
"2003-08-04 05:00","2003","08","04","05:00","22.3","","20.9","","92","","18","","20","E","8.0","","100.19","","31","","","","Fog"
"2003-08-04 06:00","2003","08","04","06:00","21.8","","20.7","","93","","23","","13","E","4.0","","100.19","","30","","","","Fog"
"2003-08-04 07:00","2003","08","04","07:00","21.7","","20.7","","94","","23","","13","E","4.0","","100.24","","30","","","","Fog"
"2003-08-04 08:00","2003","08","04","08:00","22.2","","20.6","","91","","23","","9","E","9.7","","100.25","","30","","","","Fog"
"2003-08-04 09:00","2003","08","04","09:00","22.8","","19.9","","84","","23","","9","E","16.1","","100.25","","30","","","","Cloudy"
"2003-08-04 10:00","2003","08","04","10:00","23.8","","20.1","","80","","18","","11","E","16.1","","100.29","","31","","","","Cloudy"
"2003-08-04 11:00","2003","08","04","11:00","23.3","","20.9","","86","","18","","17","E","12.9","","100.29","","32","","","","Mostly Cloudy"
"2003-08-04 12:00","2003","08","04","12:00","23.6","","21.0","","85","","18","","17","E","9.7","","100.27","","32","","","","Haze"
"2003-08-04 13:00","2003","08","04","13:00","23.5","","20.7","","84","","18","","17","E","9.7","","100.24","","32","","","","Haze"
"2003-08-04 14:00","2003","08","04","14:00","23.5","","20.9","","85","","18","","15","E","11.3","","100.21","","32","","","","Mostly Cloudy"
"2003-08-04 15:00","2003","08","04","15:00","23.6","","21.1","","86","","18","","17","E","11.3","","100.15","","32","","","","Mostly Cloudy"
"2003-08-04 16:00","2003","08","04","16:00","23.5","","20.8","","85","","18","","15","E","11.3","","100.13","","32","","","","Mostly Cloudy"
"2003-08-04 17:00","2003","08","04","17:00","23.6","","20.6","","83","","18","","9","E","11.3","","100.08","","32","","","","Mainly Clear"
"2003-08-04 18:00","2003","08","04","18:00","23.5","","20.6","","84","","18","","6","E","11.3","","100.06","","32","","","","Mainly Clear"
"2003-08-04 19:00","2003","08","04","19:00","23.1","","20.2","","84","","18","","4","E","11.3","","100.06","","31","","","","Mainly Clear"
"2003-08-04 20:00","2003","08","04","20:00","22.6","","20.5","","88","","18","","4","E","12.9","","100.11","","31","","","","Mainly Clear"
"2003-08-04 21:00","2003","08","04","21:00","22.2","","19.6","","85","","","","0","","16.1","","100.12","","29","","","","Mainly Clear"
"2003-08-04 22:00","2003","08","04","22:00","21.9","","19.6","","87","","","","0","","16.1","","100.10","","29","","","","Cloudy"
"2003-08-04 23:00","2003","08","04","23:00"
"2003-08-05 00:00","2003","08","05","00:00"
"2003-08-05 01:00","2003","08","05","01:00"
"2003-08-05 02:00","2003","08","05","02:00"
"2003-08-05 03:00","2003","08","05","03:00"
"2003-08-05 04:00","2003","08","05","04:00"
"2003-08-05 05:00","2003","08","05","05:00","20.6","","19.5","","93","","36","","4","E","6.4","","100.06","","28","","","","Fog"
"2003-08-05 06:00","2003","08","05","06:00","20.4","","19.3","","93","","36","","11","E","6.4","","100.07","","27","","","","Fog"
"2003-08-05 07:00","2003","08","05","07:00","22.2","","19.3","","84","","36","","9","E","8.0","","100.09","","29","","","","Haze"
"2003-08-05 08:00","2003","08","05","08:00","23.5","","19.2","","77","","5","","9","E","8.0","","100.09","","30","","","","Haze"
"2003-08-05 09:00","2003","08","05","09:00","25.2","","20.2","","74","","9","","4","E","9.7","","100.09","","33","","","","Haze"
"2003-08-05 10:00","2003","08","05","10:00","24.3","","20.7","","80","","18","","7","E","9.7","","100.07","","32","","","","Haze"
"2003-08-05 11:00","2003","08","05","11:00","23.8","","21.6","","88","","18","","13","E","6.4","","100.09","","33","","","","Haze"
"2003-08-05 12:00","2003","08","05","12:00","23.9","","21.7","","88","","18","","9","E","8.0","","100.00","","33","","","","Haze"
"2003-08-05 13:00","2003","08","05","13:00","24.4","","21.3","","83","","18","","9","E","9.7","","99.99","","33","","","","Haze"
"2003-08-05 14:00","2003","08","05","14:00","25.6","","21.2","","77","","18","","7","E","11.3","","99.91","","34","","","","Cloudy"
"2003-08-05 15:00","2003","08","05","15:00","26.3","","18.7","","63","","18","","4","E","11.3","","99.88","","33","","","","Cloudy"
"2003-08-05 16:00","2003","08","05","16:00","25.6","","20.2","","72","","18","","6","E","11.3","","99.89","","33","","","","Cloudy"
"2003-08-05 17:00","2003","08","05","17:00","24.8","","21.5","","82","","18","","7","E","11.3","","99.89","","34","","","","Cloudy"
"2003-08-05 18:00","2003","08","05","18:00","24.9","","20.7","","78","","23","","7","E","11.3","","99.87","","33","","","","Cloudy"
"2003-08-05 19:00","2003","08","05","19:00","23.6","","21.3","","87","","18","","11","E","11.3","","99.89","","32","","","","Rain Showers"
"2003-08-05 20:00","2003","08","05","20:00","23.4","","21.4","","89","","18","","4","E","11.3","","99.90","","32","","","","Rain Showers"
"2003-08-05 21:00","2003","08","05","21:00","22.9","","20.6","","87","","18","","7","E","11.3","","99.89","","31","","","","Rain Showers"
"2003-08-05 22:00","2003","08","05","22:00","22.4","","20.8","","91","","18","","6","E","12.9","","99.87","","31","","","","Cloudy"
"2003-08-05 23:00","2003","08","05","23:00"
"2003-08-06 00:00","2003","08","06","00:00"
"2003-08-06 01:00","2003","08","06","01:00"
"2003-08-06 02:00","2003","08","06","02:00"
"2003-08-06 03:00","2003","08","06","03:00"
"2003-08-06 04:00","2003","08","06","04:00"
"2003-08-06 05:00","2003","08","06","05:00","21.0","","19.6","","92","","","","0","","12.9","","99.86","","28","","","","Rain Showers"
"2003-08-06 06:00","2003","08","06","06:00","20.7","","19.2","","91","","","","0","","9.7","","99.84","","28","","","","Rain Showers,Fog"
"2003-08-06 07:00","2003","08","06","07:00","21.6","","19.8","","90","","18","","7","E","16.1","","99.84","","29","","","","Cloudy"
"2003-08-06 08:00","2003","08","06","08:00","22.1","","20.4","","90","","18","","9","E","11.3","","99.90","","30","","","","Cloudy"
"2003-08-06 09:00","2003","08","06","09:00","22.3","","19.8","","86","","23","","13","E","11.3","","99.92","","30","","","","Cloudy"
"2003-08-06 10:00","2003","08","06","10:00","22.5","","19.1","","81","","23","","19","E","12.9","","99.93","","29","","","","Cloudy"
"2003-08-06 11:00","2003","08","06","11:00","22.8","","20.3","","86","","18","","19","E","8.0","","99.93","","31","","","","Haze"
"2003-08-06 12:00","2003","08","06","12:00","22.4","","20.1","","87","","18","","20","E","8.0","","99.91","","30","","","","Haze"
"2003-08-06 13:00","2003","08","06","13:00","22.3","","20.2","","88","","18","","22","E","8.0","","99.90","","30","","","","Haze"
"2003-08-06 14:00","2003","08","06","14:00","23.4","","20.6","","84","","18","","22","E","8.0","","99.87","","31","","","","Haze"
"2003-08-06 15:00","2003","08","06","15:00","22.7","","20.2","","86","","20","","20","","8.0","","99.87","","30","","","","Thunderstorms,Haze"
"2003-08-06 16:00","2003","08","06","16:00","21.2","","18.3","","84","","29","","15","","8.0","","99.88","","27","","","","Thunderstorms,Rain Showers,Fog"
"2003-08-06 17:00","2003","08","06","17:00","21.5","","19.4","","88","","26","","6","","11.3","","99.91","","29","","","","Cloudy"
"2003-08-06 18:00","2003","08","06","18:00","21.6","","18.9","","85","","28","","7","","11.3","","99.91","","28","","","","Rain Showers"
"2003-08-06 19:00","2003","08","06","19:00","21.3","","19.3","","88","","26","","6","","11.3","","99.91","","28","","","","Mostly Cloudy"
"2003-08-06 20:00","2003","08","06","20:00","20.9","","19.6","","92","","22","","4","","12.9","","99.96","","28","","","","Mostly Cloudy"
"2003-08-06 21:00","2003","08","06","21:00","21.1","","19.3","","89","","","","0","","16.1","","100.01","","28","","","","Rain Showers"
"2003-08-06 22:00","2003","08","06","22:00","20.1","","18.9","","93","","22","","4","","19.3","","100.01","","27","","","","Mostly Cloudy"
"2003-08-06 23:00","2003","08","06","23:00"
"2003-08-07 00:00","2003","08","07","00:00"
"2003-08-07 01:00","2003","08","07","01:00"
"2003-08-07 02:00","2003","08","07","02:00"
"2003-08-07 03:00","2003","08","07","03:00"
"2003-08-07 04:00","2003","08","07","04:00"
"2003-08-07 05:00","2003","08","07","05:00","18.1","","17.9","","99","","1","","6","","3.2","","100.07","","","","","","Fog"
"2003-08-07 06:00","2003","08","07","06:00","18.6","","18.1","","97","","4","","4","","6.4","","100.09","","","","","","Fog"
"2003-08-07 07:00","2003","08","07","07:00","21.6","","20.2","","92","","19","","7","","6.4","","100.12","","29","","","","Fog"
"2003-08-07 08:00","2003","08","07","08:00","21.7","","19.9","","90","","18","","11","","6.4","","100.14","","29","","","","Fog"
"2003-08-07 09:00","2003","08","07","09:00","22.2","","20.1","","88","","17","","11","","9.7","","100.19","","30","","","","Fog"
"2003-08-07 10:00","2003","08","07","10:00","22.6","","20.1","","86","","17","","15","","9.7","","100.21","","30","","","","Haze"
"2003-08-07 11:00","2003","08","07","11:00","21.9","","19.8","","88","","19","","11","","8.0","","100.22","","29","","","","Haze"
"2003-08-07 12:00","2003","08","07","12:00","22.8","","20.2","","85","","20","","11","","8.0","","100.19","","31","","","","Haze"
"2003-08-07 13:00","2003","08","07","13:00","22.9","","20.3","","85","","21","","9","","9.7","","100.18","","31","","","","Haze"
"2003-08-07 14:00","2003","08","07","14:00","23.2","","20.3","","84","","18","","11","","9.7","","100.13","","31","","","","Haze"
"2003-08-07 15:00","2003","08","07","15:00","23.5","","20.4","","83","","18","","11","","9.7","","100.09","","31","","","","Haze"
"2003-08-07 16:00","2003","08","07","16:00","23.6","","20.2","","81","","19","","9","","12.9","","100.07","","31","","","","Mainly Clear"
"2003-08-07 17:00","2003","08","07","17:00","23.5","","20.1","","81","","20","","7","","12.9","","100.08","","31","","","","Mainly Clear"
"2003-08-07 18:00","2003","08","07","18:00","23.0","","20.0","","83","","18","","4","","16.1","","100.08","","31","","","","Mainly Clear"
"2003-08-07 19:00","2003","08","07","19:00","23.0","","20.0","","83","","21","","6","","19.3","","100.10","","31","","","","Mainly Clear"
"2003-08-07 20:00","2003","08","07","20:00","22.2","","19.8","","86","","15","","4","","19.3","","100.13","","30","","","","Mainly Clear"
"2003-08-07 21:00","2003","08","07","21:00","21.7","","19.5","","87","","","","0","","19.3","","100.14","","29","","","","Clear"
"2003-08-07 22:00","2003","08","07","22:00","20.8","","19.2","","91","","36","","6","","19.3","","100.15","","28","","","","Clear"
"2003-08-07 23:00","2003","08","07","23:00"
"2003-08-08 00:00","2003","08","08","00:00"
"2003-08-08 01:00","2003","08","08","01:00"
"2003-08-08 02:00","2003","08","08","02:00"
"2003-08-08 03:00","2003","08","08","03:00"
"2003-08-08 04:00","2003","08","08","04:00"
"2003-08-08 05:00","2003","08","08","05:00","19.8","","18.5","","92","","5","","7","","9.7","","100.11","","","","","","Fog"
"2003-08-08 06:00","2003","08","08","06:00","19.7","","18.5","","93","","36","","4","","9.7","","100.14","","","","","","Fog"
"2003-08-08 07:00","2003","08","08","07:00","21.3","","19.3","","88","","5","","6","","9.7","","100.18","","28","","","","Fog"
"2003-08-08 08:00","2003","08","08","08:00","22.3","","19.7","","85","","4","","6","","12.9","","100.22","","30","","","","Mostly Cloudy"
"2003-08-08 09:00","2003","08","08","09:00","23.2","","20.0","","82","","8","","6","","12.9","","100.24","","31","","","","Mostly Cloudy"
"2003-08-08 10:00","2003","08","08","10:00","24.2","","20.3","","79","","8","","7","","16.1","","100.25","","32","","","","Mainly Clear"
"2003-08-08 11:00","2003","08","08","11:00","25.3","","19.2","","69","","1","","13","","19.3","","100.23","","32","","","","Mostly Cloudy"
"2003-08-08 12:00","2003","08","08","12:00","26.2","","19.2","","65","","36","","7","","19.3","","100.22","","33","","","","Mostly Cloudy"
"2003-08-08 13:00","2003","08","08","13:00","26.8","","18.8","","62","","32","","7","","19.3","","100.18","","33","","","","Mainly Clear"
"2003-08-08 14:00","2003","08","08","14:00","25.9","","21.6","","77","","19","","13","","19.3","","100.14","","35","","","","Mainly Clear"
"2003-08-08 15:00","2003","08","08","15:00","25.5","","20.9","","76","","20","","17","","19.3","","100.18","","34","","","","Mainly Clear"
"2003-08-08 16:00","2003","08","08","16:00","26.5","","19.8","","67","","24","","9","","24.1","","100.15","","34","","","","Mostly Cloudy"
"2003-08-08 17:00","2003","08","08","17:00","25.7","","20.6","","73","","21","","7","","16.1","","100.17","","34","","","","Mostly Cloudy"
"2003-08-08 18:00","2003","08","08","18:00","25.2","","21.1","","78","","23","","7","","16.1","","100.21","","34","","","","Mostly Cloudy"
"2003-08-08 19:00","2003","08","08","19:00","24.6","","20.4","","77","","27","","6","","19.3","","100.22","","33","","","","Mostly Cloudy"
"2003-08-08 20:00","2003","08","08","20:00","23.8","","20.5","","82","","23","","6","","19.3","","100.31","","32","","","","Mainly Clear"
"2003-08-08 21:00","2003","08","08","21:00","23.2","","20.3","","84","","","","0","","19.3","","100.35","","31","","","","Mostly Cloudy"
"2003-08-08 22:00","2003","08","08","22:00","22.6","","19.4","","82","","","","0","","24.1","","100.35","","30","","","","Mostly Cloudy"
"2003-08-08 23:00","2003","08","08","23:00"
"2003-08-09 00:00","2003","08","09","00:00"
"2003-08-09 01:00","2003","08","09","01:00"
"2003-08-09 02:00","2003","08","09","02:00"
"2003-08-09 03:00","2003","08","09","03:00"
"2003-08-09 04:00","2003","08","09","04:00"
"2003-08-09 05:00","2003","08","09","05:00","21.2","","18.5","","85","","4","","9","","24.1","","100.42","","28","","","","Cloudy"
"2003-08-09 06:00","2003","08","09","06:00","21.1","","18.9","","87","","4","","7","","24.1","","100.46","","28","","","","Cloudy"
"2003-08-09 07:00","2003","08","09","07:00","21.1","","18.8","","87","","6","","9","","24.1","","100.52","","28","","","","Cloudy"
"2003-08-09 08:00","2003","08","09","08:00","21.9","","19.2","","85","","7","","13","","24.1","","100.55","","29","","","","Cloudy"
"2003-08-09 09:00","2003","08","09","09:00","23.0","","19.6","","81","","5","","7","","24.1","","100.55","","30","","","","Mostly Cloudy"
"2003-08-09 10:00","2003","08","09","10:00","23.8","","21.2","","85","","17","","7","","16.1","","100.55","","32","","","","Mostly Cloudy"
"2003-08-09 11:00","2003","08","09","11:00","23.8","","21.2","","85","","16","","7","","19.3","","100.55","","32","","","","Cloudy"
"2003-08-09 12:00","2003","08","09","12:00","24.6","","21.4","","82","","18","","7","","16.1","","100.53","","33","","","","Mostly Cloudy"
"2003-08-09 13:00","2003","08","09","13:00","25.6","","19.5","","69","","18","","7","","12.9","","100.49","","33","","","","Mostly Cloudy"
"2003-08-09 14:00","2003","08","09","14:00","26.3","","20.3","","70","","22","","6","","12.9","","100.44","","34","","","","Mostly Cloudy"
"2003-08-09 15:00","2003","08","09","15:00","25.7","","20.7","","74","","18","","7","","11.3","","100.43","","34","","","","Cloudy"
"2003-08-09 16:00","2003","08","09","16:00","25.0","","20.2","","75","","13","","9","","16.1","","100.39","","33","","","","Mostly Cloudy"
"2003-08-09 17:00","2003","08","09","17:00","24.8","","21.0","","79","","21","","4","","16.1","","100.37","","33","","","","Cloudy"
"2003-08-09 18:00","2003","08","09","18:00","25.3","","20.4","","74","","7","","9","","16.1","","100.36","","33","","","","Cloudy"
"2003-08-09 19:00","2003","08","09","19:00","25.2","","20.0","","73","","5","","6","","12.9","","100.41","","33","","","","Cloudy"
"2003-08-09 20:00","2003","08","09","20:00","23.9","","21.0","","84","","3","","7","","12.9","","100.41","","32","","","","Rain Showers"
"2003-08-09 21:00","2003","08","09","21:00","23.5","","21.0","","86","","6","","11","","12.9","","100.39","","32","","","","Rain Showers"
"2003-08-09 22:00","2003","08","09","22:00","23.2","","20.7","","86","","36","","6","","11.3","","100.40","","31","","","","Cloudy"
"2003-08-09 23:00","2003","08","09","23:00"
"2003-08-10 00:00","2003","08","10","00:00"
"2003-08-10 01:00","2003","08","10","01:00"
"2003-08-10 02:00","2003","08","10","02:00"
"2003-08-10 03:00","2003","08","10","03:00"
"2003-08-10 04:00","2003","08","10","04:00"
"2003-08-10 05:00","2003","08","10","05:00","21.8","","20.5","","92","","5","","7","","9.7","","100.23","","30","","","","Fog"
"2003-08-10 06:00","2003","08","10","06:00","21.8","","20.5","","92","","5","","6","","8.0","","100.27","","30","","","","Fog"
"2003-08-10 07:00","2003","08","10","07:00","22.2","","20.6","","91","","3","","4","","9.7","","100.29","","30","","","","Fog"
"2003-08-10 08:00","2003","08","10","08:00","22.7","","20.7","","88","","","","0","","9.7","","100.30","","31","","","","Rain Showers,Fog"
"2003-08-10 09:00","2003","08","10","09:00","23.1","","20.6","","86","","1","","4","","9.7","","100.26","","31","","","","Haze"
"2003-08-10 10:00","2003","08","10","10:00","22.5","","20.9","","91","","18","","6","","9.7","","100.26","","31","","","","Rain Showers,Fog"
"2003-08-10 11:00","2003","08","10","11:00","22.7","","21.3","","92","","25","","6","","9.7","","100.29","","31","","","","Rain Showers,Fog"
"2003-08-10 12:00","2003","08","10","12:00","22.4","","21.3","","94","","28","","6","","4.8","","100.26","","31","","","","Moderate Rain Showers,Fog"
"2003-08-10 13:00","2003","08","10","13:00","22.9","","21.5","","92","","26","","9","","8.0","","100.26","","32","","","","Rain Showers,Fog"
"2003-08-10 14:00","2003","08","10","14:00","24.9","","21.9","","83","","29","","7","","12.9","","100.19","","34","","","","Mostly Cloudy"
"2003-08-10 15:00","2003","08","10","15:00","25.3","","21.9","","81","","25","","7","","12.9","","100.16","","35","","","","Mostly Cloudy"
"2003-08-10 16:00","2003","08","10","16:00","24.5","","21.9","","85","","19","","13","","11.3","","100.14","","34","","","","Mostly Cloudy"
"2003-08-10 17:00","2003","08","10","17:00","24.2","","21.7","","86","","20","","13","","11.3","","100.13","","33","","","","Mostly Cloudy"
"2003-08-10 18:00","2003","08","10","18:00","23.9","","21.4","","86","","25","","13","","11.3","","100.16","","33","","","","Thunderstorms"
"2003-08-10 19:00","2003","08","10","19:00","22.0","","19.7","","87","","30","","9","","11.3","","100.18","","29","","","","Mostly Cloudy"
"2003-08-10 20:00","2003","08","10","20:00","21.6","","19.0","","85","","1","","4","","24.1","","100.26","","28","","","","Mostly Cloudy"
"2003-08-10 21:00","2003","08","10","21:00","21.4","","19.3","","88","","","","0","","19.3","","100.27","","28","","","","Mostly Cloudy"
"2003-08-10 22:00","2003","08","10","22:00","21.5","","19.3","","87","","27","","4","","19.3","","100.30","","29","","","","Mostly Cloudy"
"2003-08-10 23:00","2003","08","10","23:00"
"2003-08-11 00:00","2003","08","11","00:00"
"2003-08-11 01:00","2003","08","11","01:00"
"2003-08-11 02:00","2003","08","11","02:00"
"2003-08-11 03:00","2003","08","11","03:00"
"2003-08-11 04:00","2003","08","11","04:00"
"2003-08-11 05:00","2003","08","11","05:00","19.2","","18.3","","95","","1","","6","","8.0","","100.33","","","","","","Fog"
"2003-08-11 06:00","2003","08","11","06:00","19.3","","18.4","","95","","36","","6","","6.4","","100.36","","","","","","Fog"
"2003-08-11 07:00","2003","08","11","07:00","20.6","","19.3","","92","","36","","6","","8.0","","100.41","","28","","","","Fog"
"2003-08-11 08:00","2003","08","11","08:00","24.0","","20.7","","82","","","","0","","9.7","","100.43","","32","","","","Haze"
"2003-08-11 09:00","2003","08","11","09:00","23.7","","20.8","","84","","18","","7","","9.7","","100.45","","32","","","","Haze"
"2003-08-11 10:00","2003","08","11","10:00","23.8","","20.9","","84","","17","","6","","12.9","","100.47","","32","","","","Cloudy"
"2003-08-11 11:00","2003","08","11","11:00","24.5","","21.1","","81","","18","","6","","16.1","","100.49","","33","","","","Cloudy"
"2003-08-11 12:00","2003","08","11","12:00","24.7","","21.2","","81","","18","","7","","16.1","","100.47","","33","","","","Cloudy"
"2003-08-11 13:00","2003","08","11","13:00","25.5","","21.9","","81","","16","","11","","16.1","","100.43","","35","","","","Cloudy"
"2003-08-11 14:00","2003","08","11","14:00","25.3","","20.8","","76","","25","","7","","16.1","","100.46","","34","","","","Cloudy"
"2003-08-11 15:00","2003","08","11","15:00","26.7","","21.0","","71","","","","0","","16.1","","100.39","","35","","","","Mostly Cloudy"
"2003-08-11 16:00","2003","08","11","16:00","26.8","","19.7","","65","","4","","13","","24.1","","100.41","","34","","","","Cloudy"
"2003-08-11 17:00","2003","08","11","17:00","26.6","","20.1","","68","","3","","7","","24.1","","100.41","","34","","","","Cloudy"
"2003-08-11 18:00","2003","08","11","18:00","26.4","","19.3","","65","","3","","6","","24.1","","100.44","","33","","","","Cloudy"
"2003-08-11 19:00","2003","08","11","19:00","25.5","","19.6","","70","","5","","6","","24.1","","100.47","","33","","","","Mostly Cloudy"
"2003-08-11 20:00","2003","08","11","20:00","24.6","","18.9","","71","","1","","7","","24.1","","100.55","","31","","","","Cloudy"
"2003-08-11 21:00","2003","08","11","21:00","23.7","","18.8","","74","","2","","7","","24.1","","100.60","","30","","","","Cloudy"
"2003-08-11 22:00","2003","08","11","22:00","23.4","","19.0","","76","","2","","9","","24.1","","100.60","","30","","","","Cloudy"
"2003-08-11 23:00","2003","08","11","23:00"
"2003-08-12 00:00","2003","08","12","00:00"
"2003-08-12 01:00","2003","08","12","01:00"
"2003-08-12 02:00","2003","08","12","02:00"
"2003-08-12 03:00","2003","08","12","03:00"
"2003-08-12 04:00","2003","08","12","04:00"
"2003-08-12 05:00","2003","08","12","05:00","20.7","","18.7","","88","","4","","9","","19.3","","100.78","","27","","","","Mostly Cloudy"
"2003-08-12 06:00","2003","08","12","06:00","20.7","","18.8","","89","","5","","13","","19.3","","100.80","","27","","","","Cloudy"
"2003-08-12 07:00","2003","08","12","07:00","21.2","","19.1","","88","","4","","13","","19.3","","100.85","","28","","","","Cloudy"
"2003-08-12 08:00","2003","08","12","08:00","22.2","","18.9","","82","","4","","15","","16.1","","100.91","","29","","","","Mostly Cloudy"
"2003-08-12 09:00","2003","08","12","09:00","23.2","","18.8","","76","","5","","17","","19.3","","100.94","","30","","","","Mostly Cloudy"
"2003-08-12 10:00","2003","08","12","10:00","23.5","","18.9","","75","","5","","17","","19.3","","100.97","","30","","","","Mostly Cloudy"
"2003-08-12 11:00","2003","08","12","11:00","25.0","","19.2","","70","","5","","13","","24.1","","100.99","","32","","","","Mostly Cloudy"
"2003-08-12 12:00","2003","08","12","12:00","26.2","","20.0","","69","","7","","13","","24.1","","101.02","","34","","","","Cloudy"
"2003-08-12 13:00","2003","08","12","13:00","26.6","","19.4","","65","","3","","13","","24.1","","101.00","","34","","","","Cloudy"
"2003-08-12 14:00","2003","08","12","14:00","27.8","","19.8","","62","","7","","13","","24.1","","100.98","","35","","","","Mostly Cloudy"
"2003-08-12 15:00","2003","08","12","15:00","28.2","","20.3","","62","","6","","9","","24.1","","100.96","","36","","","","Mostly Cloudy"
"2003-08-12 16:00","2003","08","12","16:00","27.6","","19.3","","61","","5","","11","","24.1","","100.99","","35","","","","Mostly Cloudy"
"2003-08-12 17:00","2003","08","12","17:00","25.7","","21.4","","77","","","","0","","24.1","","101.01","","34","","","","Rain Showers"
"2003-08-12 18:00","2003","08","12","18:00","25.2","","22.4","","84","","12","","6","","24.1","","101.01","","35","","","","Thunderstorms"
"2003-08-12 19:00","2003","08","12","19:00","24.2","","20.7","","81","","4","","13","","24.1","","101.10","","32","","","","Thunderstorms"
"2003-08-12 20:00","2003","08","12","20:00","23.4","","21.0","","86","","35","","4","","24.1","","101.16","","32","","","","Mostly Cloudy"
"2003-08-12 21:00","2003","08","12","21:00","22.5","","21.1","","92","","1","","7","","24.1","","101.21","","31","","","","Mostly Cloudy"
"2003-08-12 22:00","2003","08","12","22:00","21.7","","20.5","","93","","34","","9","","24.1","","101.20","","30","","","","Mainly Clear"
"2003-08-12 23:00","2003","08","12","23:00"
"2003-08-13 00:00","2003","08","13","00:00"
"2003-08-13 01:00","2003","08","13","01:00"
"2003-08-13 02:00","2003","08","13","02:00"
"2003-08-13 03:00","2003","08","13","03:00"
"2003-08-13 04:00","2003","08","13","04:00"
"2003-08-13 05:00","2003","08","13","05:00","19.8","","18.4","","92","","1","","4","","19.3","","101.32","","","","","","Mainly Clear"
"2003-08-13 06:00","2003","08","13","06:00","19.6","","18.3","","92","","36","","6","","19.3","","101.39","","","","","","Clear"
"2003-08-13 07:00","2003","08","13","07:00","22.1","","19.1","","83","","","","0","","19.3","","101.45","","29","","","","Clear"
"2003-08-13 08:00","2003","08","13","08:00","24.1","","20.3","","79","","","","0","","24.1","","101.50","","32","","","","Clear"
"2003-08-13 09:00","2003","08","13","09:00","24.3","","20.1","","77","","26","","4","","24.1","","101.54","","32","","","","Clear"
"2003-08-13 10:00","2003","08","13","10:00","24.9","","20.2","","75","","18","","4","","19.3","","101.56","","33","","","","Clear"
"2003-08-13 11:00","2003","08","13","11:00","25.5","","20.6","","74","","17","","9","","24.1","","101.56","","34","","","","Mainly Clear"
"2003-08-13 12:00","2003","08","13","12:00","26.3","","21.7","","76","","18","","11","","24.1","","101.54","","35","","","","Mainly Clear"
"2003-08-13 13:00","2003","08","13","13:00","26.1","","21.6","","76","","20","","15","","24.1","","101.52","","35","","","","Mainly Clear"
"2003-08-13 14:00","2003","08","13","14:00","26.8","","20.4","","68","","20","","17","","24.1","","101.47","","35","","","","Mainly Clear"
"2003-08-13 15:00","2003","08","13","15:00","27.1","","20.2","","66","","20","","17","","24.1","","101.43","","35","","","","Mainly Clear"
"2003-08-13 16:00","2003","08","13","16:00","27.2","","20.2","","66","","20","","15","","24.1","","101.40","","35","","","","Mainly Clear"
"2003-08-13 17:00","2003","08","13","17:00","27.3","","20.6","","67","","22","","15","","24.1","","101.40","","35","","","","Mainly Clear"
"2003-08-13 18:00","2003","08","13","18:00","27.2","","20.7","","68","","23","","11","","24.1","","101.39","","35","","","","Mainly Clear"
"2003-08-13 19:00","2003","08","13","19:00","26.2","","20.2","","70","","24","","9","","24.1","","101.43","","34","","","","Mainly Clear"
"2003-08-13 20:00","2003","08","13","20:00","25.2","","19.6","","71","","25","","9","","24.1","","101.44","","32","","","","Mainly Clear"
"2003-08-13 21:00","2003","08","13","21:00","24.8","","19.6","","73","","26","","11","","24.1","","101.47","","32","","","","Clear"
"2003-08-13 22:00","2003","08","13","22:00","24.0","","19.1","","74","","27","","11","","24.1","","101.48","","31","","","","Clear"
"2003-08-13 23:00","2003","08","13","23:00"
"2003-08-14 00:00","2003","08","14","00:00"
"2003-08-14 01:00","2003","08","14","01:00"
"2003-08-14 02:00","2003","08","14","02:00"
"2003-08-14 03:00","2003","08","14","03:00"
"2003-08-14 04:00","2003","08","14","04:00"
"2003-08-14 05:00","2003","08","14","05:00","19.3","","17.6","","90","","29","","6","","19.3","","101.58","","","","","","Mainly Clear"
"2003-08-14 06:00","2003","08","14","06:00","20.0","","17.6","","86","","31","","13","","19.3","","101.63","","26","","","","Mostly Cloudy"
"2003-08-14 07:00","2003","08","14","07:00","20.7","","17.9","","84","","29","","6","","24.1","","101.64","","27","","","","Mostly Cloudy"
"2003-08-14 08:00","2003","08","14","08:00","22.3","","18.4","","79","","32","","9","","24.1","","101.65","","29","","","","Mostly Cloudy"
"2003-08-14 09:00","2003","08","14","09:00","24.4","","18.3","","69","","32","","7","","19.3","","101.62","","31","","","","Mostly Cloudy"
"2003-08-14 10:00","2003","08","14","10:00","25.6","","19.5","","69","","24","","13","","24.1","","101.59","","33","","","","Mainly Clear"
"2003-08-14 11:00","2003","08","14","11:00","26.9","","18.7","","61","","24","","11","","24.1","","101.57","","33","","","","Mainly Clear"
"2003-08-14 12:00","2003","08","14","12:00","27.9","","18.5","","57","","24","","11","","24.1","","101.51","","34","","","","Mostly Cloudy"
"2003-08-14 13:00","2003","08","14","13:00","29.0","","17.2","","49","","25","","17","","24.1","","101.47","","34","","","","Mainly Clear"
"2003-08-14 14:00","2003","08","14","14:00","29.6","","16.3","","45","","24","","15","","24.1","","101.40","","34","","","","Mostly Cloudy"
"2003-08-14 15:00","2003","08","14","15:00","26.6","","21.8","","75","","22","","15","","24.1","","101.33","","36","","","","Mostly Cloudy"
"2003-08-14 16:00","2003","08","14","16:00","27.2","","21.7","","72","","22","","15","","24.1","","101.30","","36","","","","Mostly Cloudy"
"2003-08-14 17:00","2003","08","14","17:00","27.5","","19.9","","63","","22","","15","","24.1","","101.25","","35","","","","Mainly Clear"
"2003-08-14 18:00","2003","08","14","18:00","26.9","","19.6","","64","","23","","11","","24.1","","101.22","","34","","","","Mainly Clear"
"2003-08-14 19:00","2003","08","14","19:00","26.0","","19.4","","67","","23","","9","","24.1","","101.22","","33","","","","Mostly Cloudy"
"2003-08-14 20:00","2003","08","14","20:00","24.7","","20.4","","77","","26","","9","","24.1","","101.23","","33","","","","Mostly Cloudy"
"2003-08-14 21:00","2003","08","14","21:00","23.9","","19.5","","76","","27","","9","","24.1","","101.25","","31","","","","Mainly Clear"
"2003-08-14 22:00","2003","08","14","22:00","23.3","","18.8","","76","","27","","11","","24.1","","101.25","","30","","","","Mainly Clear"
"2003-08-14 23:00","2003","08","14","23:00"
"2003-08-15 00:00","2003","08","15","00:00"
"2003-08-15 01:00","2003","08","15","01:00"
"2003-08-15 02:00","2003","08","15","02:00"
"2003-08-15 03:00","2003","08","15","03:00"
"2003-08-15 04:00","2003","08","15","04:00"
"2003-08-15 05:00","2003","08","15","05:00","18.6","","16.3","","86","","28","","7","","24.1","","101.11","","","","","","Mainly Clear"
"2003-08-15 06:00","2003","08","15","06:00","18.5","","16.6","","89","","29","","9","","24.1","","101.13","","","","","","Mainly Clear"
"2003-08-15 07:00","2003","08","15","07:00","20.2","","17.6","","85","","31","","9","","24.1","","101.13","","26","","","","Clear"
"2003-08-15 08:00","2003","08","15","08:00","22.5","","18.3","","77","","31","","13","","24.1","","101.12","","29","","","","Clear"
"2003-08-15 09:00","2003","08","15","09:00","24.9","","19.3","","71","","32","","15","","24.1","","101.06","","32","","","","Mainly Clear"
"2003-08-15 10:00","2003","08","15","10:00","26.1","","19.7","","68","","29","","7","","24.1","","101.02","","33","","","","Mainly Clear"
"2003-08-15 11:00","2003","08","15","11:00","27.3","","19.8","","64","","23","","15","","24.1","","100.97","","35","","","","Mainly Clear"
"2003-08-15 12:00","2003","08","15","12:00","25.3","","21.1","","78","","20","","20","","24.1","","100.89","","34","","","","Mainly Clear"
"2003-08-15 13:00","2003","08","15","13:00","26.5","","21.4","","74","","21","","17","","24.1","","100.82","","35","","","","Mainly Clear"
"2003-08-15 14:00","2003","08","15","14:00","26.7","","22.2","","76","","21","","19","","24.1","","100.72","","36","","","","Mainly Clear"
"2003-08-15 15:00","2003","08","15","15:00","29.0","","20.5","","60","","23","","22","","19.3","","100.60","","37","","","","Mainly Clear"
"2003-08-15 16:00","2003","08","15","16:00","27.4","","21.1","","69","","23","","19","","16.1","","100.52","","36","","","","Clear"
"2003-08-15 17:00","2003","08","15","17:00","28.6","","20.2","","60","","24","","24","","12.9","","100.45","","36","","","","Clear"
"2003-08-15 18:00","2003","08","15","18:00","27.9","","20.3","","63","","25","","17","","9.7","","100.35","","36","","","","Haze"
"2003-08-15 19:00","2003","08","15","19:00","27.1","","20.3","","66","","25","","13","","9.7","","100.30","","35","","","","Haze"
"2003-08-15 20:00","2003","08","15","20:00","26.1","","21.0","","74","","25","","19","","8.0","","100.29","","35","","","","Haze"
"2003-08-15 21:00","2003","08","15","21:00","25.2","","21.5","","80","","25","","15","","9.7","","100.29","","34","","","","Haze"
"2003-08-15 22:00","2003","08","15","22:00","24.5","","21.4","","83","","25","","15","","9.7","","100.26","","33","","","","Haze"
"2003-08-15 23:00","2003","08","15","23:00"
"2003-08-16 00:00","2003","08","16","00:00"
"2003-08-16 01:00","2003","08","16","01:00"
"2003-08-16 02:00","2003","08","16","02:00"
"2003-08-16 03:00","2003","08","16","03:00"
"2003-08-16 04:00","2003","08","16","04:00"
"2003-08-16 05:00","2003","08","16","05:00","22.4","","19.5","","84","","27","","13","","8.0","","99.88","","30","","","","Fog"
"2003-08-16 06:00","2003","08","16","06:00","22.6","","19.6","","83","","29","","11","","9.7","","99.88","","30","","","","Haze"
"2003-08-16 07:00","2003","08","16","07:00","22.5","","19.6","","84","","26","","7","","8.0","","99.89","","30","","","","Haze"
"2003-08-16 08:00","2003","08","16","08:00","23.2","","20.2","","83","","30","","7","","6.4","","99.88","","31","","","","Haze"
"2003-08-16 09:00","2003","08","16","09:00","23.9","","20.1","","79","","31","","7","","6.4","","99.90","","32","","","","Haze"
"2003-08-16 10:00","2003","08","16","10:00","25.6","","19.2","","68","","34","","13","","11.3","","99.91","","33","","","","Mostly Cloudy"
"2003-08-16 11:00","2003","08","16","11:00","26.5","","17.2","","57","","4","","11","","24.1","","99.93","","32","","","","Mainly Clear"
"2003-08-16 12:00","2003","08","16","12:00","27.3","","16.7","","52","","36","","9","","24.1","","99.90","","32","","","","Mostly Cloudy"
"2003-08-16 13:00","2003","08","16","13:00","27.6","","16.6","","51","","34","","17","","24.1","","99.87","","33","","","","Mostly Cloudy"
"2003-08-16 14:00","2003","08","16","14:00","27.5","","16.2","","50","","35","","17","","24.1","","99.85","","32","","","","Mostly Cloudy"
"2003-08-16 15:00","2003","08","16","15:00","27.3","","14.9","","47","","4","","13","","24.1","","99.85","","31","","","","Mostly Cloudy"
"2003-08-16 16:00","2003","08","16","16:00","27.5","","15.6","","48","","1","","13","","24.1","","99.87","","32","","","","Mainly Clear"
"2003-08-16 17:00","2003","08","16","17:00","26.8","","16.4","","53","","36","","11","","24.1","","99.86","","32","","","","Mainly Clear"
"2003-08-16 18:00","2003","08","16","18:00","25.9","","16.3","","55","","1","","13","","24.1","","99.82","","31","","","","Mainly Clear"
"2003-08-16 19:00","2003","08","16","19:00","24.9","","15.7","","57","","1","","9","","24.1","","99.89","","29","","","","Mainly Clear"
"2003-08-16 20:00","2003","08","16","20:00","22.7","","15.9","","65","","36","","13","","24.1","","99.97","","27","","","","Mainly Clear"
"2003-08-16 21:00","2003","08","16","21:00","22.0","","14.6","","63","","2","","20","","24.1","","100.03","","26","","","","Mainly Clear"
"2003-08-16 22:00","2003","08","16","22:00","21.2","","13.9","","63","","1","","17","","24.1","","100.08","","25","","","","Clear"
"2003-08-16 23:00","2003","08","16","23:00"
"2003-08-17 00:00","2003","08","17","00:00"
"2003-08-17 01:00","2003","08","17","01:00"
"2003-08-17 02:00","2003","08","17","02:00"
"2003-08-17 03:00","2003","08","17","03:00"
"2003-08-17 04:00","2003","08","17","04:00"
"2003-08-17 05:00","2003","08","17","05:00","15.5","","13.1","","86","","1","","13","","24.1","","100.34","","","","","","Mainly Clear"
"2003-08-17 06:00","2003","08","17","06:00","16.2","","13.4","","83","","1","","9","","24.1","","100.42","","","","","","Mainly Clear"
"2003-08-17 07:00","2003","08","17","07:00","17.5","","13.5","","77","","2","","20","","24.1","","100.43","","","","","","Mainly Clear"
"2003-08-17 08:00","2003","08","17","08:00","18.5","","13.7","","74","","1","","20","","24.1","","100.45","","","","","","Mainly Clear"
"2003-08-17 09:00","2003","08","17","09:00","19.8","","14.2","","70","","3","","15","","24.1","","100.45","","","","","","Mainly Clear"
"2003-08-17 10:00","2003","08","17","10:00","21.1","","14.0","","64","","3","","9","","24.1","","100.48","","","","","","Mainly Clear"
"2003-08-17 11:00","2003","08","17","11:00","21.5","","14.1","","63","","1","","6","","24.1","","100.46","","25","","","","Mostly Cloudy"
"2003-08-17 12:00","2003","08","17","12:00","22.6","","13.9","","58","","2","","11","","24.1","","100.44","","26","","","","Mostly Cloudy"
"2003-08-17 13:00","2003","08","17","13:00","23.9","","13.3","","51","","4","","11","","24.1","","100.42","","27","","","","Mostly Cloudy"
"2003-08-17 14:00","2003","08","17","14:00","25.1","","14.0","","50","","3","","15","","24.1","","100.40","","28","","","","Mostly Cloudy"
"2003-08-17 15:00","2003","08","17","15:00","24.2","","13.6","","52","","4","","17","","24.1","","100.38","","27","","","","Mostly Cloudy"
"2003-08-17 16:00","2003","08","17","16:00","24.4","","12.9","","49","","4","","15","","24.1","","100.42","","27","","","","Mostly Cloudy"
"2003-08-17 17:00","2003","08","17","17:00","23.9","","12.5","","49","","4","","15","","24.1","","100.43","","26","","","","Mainly Clear"
"2003-08-17 18:00","2003","08","17","18:00","23.9","","12.3","","48","","2","","15","","24.1","","100.42","","26","","","","Mainly Clear"
"2003-08-17 19:00","2003","08","17","19:00","22.8","","12.7","","53","","2","","9","","24.1","","100.47","","25","","","","Mainly Clear"
"2003-08-17 20:00","2003","08","17","20:00","20.0","","13.7","","67","","35","","9","","24.1","","100.51","","","","","","Clear"
"2003-08-17 21:00","2003","08","17","21:00","18.2","","13.6","","75","","35","","7","","24.1","","100.56","","","","","","Clear"
"2003-08-17 22:00","2003","08","17","22:00","16.8","","13.8","","82","","35","","9","","24.1","","100.57","","","","","","Mainly Clear"
"2003-08-17 23:00","2003","08","17","23:00"
"2003-08-18 00:00","2003","08","18","00:00"
"2003-08-18 01:00","2003","08","18","01:00"
"2003-08-18 02:00","2003","08","18","02:00"
"2003-08-18 03:00","2003","08","18","03:00"
"2003-08-18 04:00","2003","08","18","04:00"
"2003-08-18 05:00","2003","08","18","05:00","14.5","","12.7","","89","","36","","13","","24.1","","100.72","","","","","","Mainly Clear"
"2003-08-18 06:00","2003","08","18","06:00","15.6","","12.8","","83","","36","","9","","24.1","","100.76","","","","","","Mainly Clear"
"2003-08-18 07:00","2003","08","18","07:00","17.7","","13.5","","76","","1","","9","","24.1","","100.82","","","","","","Mainly Clear"
"2003-08-18 08:00","2003","08","18","08:00","20.3","","14.6","","70","","4","","9","","24.1","","100.86","","","","","","Mainly Clear"
"2003-08-18 09:00","2003","08","18","09:00","21.7","","15.2","","67","","8","","4","","24.1","","100.88","","26","","","","Mainly Clear"
"2003-08-18 10:00","2003","08","18","10:00","21.9","","16.6","","72","","16","","9","","24.1","","100.90","","27","","","","Mainly Clear"
"2003-08-18 11:00","2003","08","18","11:00","23.4","","17.4","","69","","17","","11","","24.1","","100.89","","29","","","","Mainly Clear"
"2003-08-18 12:00","2003","08","18","12:00","23.2","","17.5","","70","","18","","13","","24.1","","100.88","","29","","","","Mainly Clear"
"2003-08-18 13:00","2003","08","18","13:00","24.1","","17.5","","67","","19","","13","","24.1","","100.89","","30","","","","Mainly Clear"
"2003-08-18 14:00","2003","08","18","14:00","24.8","","17.8","","65","","20","","11","","24.1","","100.87","","31","","","","Mainly Clear"
"2003-08-18 15:00","2003","08","18","15:00","24.8","","18.0","","66","","20","","13","","24.1","","100.84","","31","","","","Mainly Clear"
"2003-08-18 16:00","2003","08","18","16:00","25.2","","17.6","","63","","20","","13","","24.1","","100.81","","31","","","","Mainly Clear"
"2003-08-18 17:00","2003","08","18","17:00","25.4","","18.1","","64","","25","","11","","24.1","","100.81","","31","","","","Mainly Clear"
"2003-08-18 18:00","2003","08","18","18:00","24.9","","17.4","","63","","26","","9","","24.1","","100.81","","30","","","","Mainly Clear"
"2003-08-18 19:00","2003","08","18","19:00","23.5","","17.2","","68","","25","","9","","24.1","","100.82","","29","","","","Mostly Cloudy"
"2003-08-18 20:00","2003","08","18","20:00","22.7","","16.4","","68","","25","","11","","24.1","","100.86","","28","","","","Mostly Cloudy"
"2003-08-18 21:00","2003","08","18","21:00","22.2","","16.3","","69","","25","","7","","24.1","","100.90","","27","","","","Mainly Clear"
"2003-08-18 22:00","2003","08","18","22:00","21.9","","16.3","","71","","26","","9","","24.1","","100.91","","27","","","","Clear"
"2003-08-18 23:00","2003","08","18","23:00"
"2003-08-19 00:00","2003","08","19","00:00"
"2003-08-19 01:00","2003","08","19","01:00"
"2003-08-19 02:00","2003","08","19","02:00"
"2003-08-19 03:00","2003","08","19","03:00"
"2003-08-19 04:00","2003","08","19","04:00"
"2003-08-19 05:00","2003","08","19","05:00","17.8","","14.4","","80","","29","","9","","24.1","","101.04","","","","","","Mainly Clear"
"2003-08-19 06:00","2003","08","19","06:00","18.2","","14.8","","81","","29","","9","","24.1","","101.06","","","","","","Mainly Clear"
"2003-08-19 07:00","2003","08","19","07:00","19.6","","15.5","","77","","27","","6","","24.1","","101.10","","","","","","Mainly Clear"
"2003-08-19 08:00","2003","08","19","08:00","21.0","","16.1","","74","","27","","4","","24.1","","101.12","","26","","","","Mainly Clear"
"2003-08-19 09:00","2003","08","19","09:00","22.7","","15.1","","62","","24","","11","","24.1","","101.11","","27","","","","Mainly Clear"
"2003-08-19 10:00","2003","08","19","10:00","23.9","","16.7","","64","","25","","11","","24.1","","101.08","","29","","","","Mainly Clear"
"2003-08-19 11:00","2003","08","19","11:00","24.0","","19.9","","78","","21","","13","","24.1","","101.06","","31","","","","Mainly Clear"
"2003-08-19 12:00","2003","08","19","12:00","24.5","","20.2","","77","","19","","24","","24.1","","101.01","","32","","","","Mainly Clear"
"2003-08-19 13:00","2003","08","19","13:00","24.1","","20.4","","80","","20","","26","","24.1","","100.96","","32","","","","Mainly Clear"
"2003-08-19 14:00","2003","08","19","14:00","24.3","","20.6","","80","","21","","22","","24.1","","100.95","","32","","","","Mainly Clear"
"2003-08-19 15:00","2003","08","19","15:00","25.7","","18.2","","63","","22","","22","","24.1","","100.92","","32","","","","Mainly Clear"
"2003-08-19 16:00","2003","08","19","16:00","26.4","","14.0","","46","","22","","22","","24.1","","100.92","","30","","","","Mainly Clear"
"2003-08-19 17:00","2003","08","19","17:00","26.7","","13.2","","43","","24","","19","","24.1","","100.88","","30","","","","Mainly Clear"
"2003-08-19 18:00","2003","08","19","18:00","25.5","","11.8","","42","","25","","9","","24.1","","100.85","","28","","","","Mainly Clear"
"2003-08-19 19:00","2003","08","19","19:00","23.9","","9.9","","41","","24","","11","","24.1","","100.84","","25","","","","Mainly Clear"
"2003-08-19 20:00","2003","08","19","20:00","22.6","","12.1","","51","","25","","7","","24.1","","100.90","","25","","","","Mainly Clear"
"2003-08-19 21:00","2003","08","19","21:00","22.4","","13.9","","59","","26","","9","","24.1","","100.95","","26","","","","Clear"
"2003-08-19 22:00","2003","08","19","22:00","21.8","","14.1","","62","","26","","7","","24.1","","100.94","","25","","","","Clear"
"2003-08-19 23:00","2003","08","19","23:00"
"2003-08-20 00:00","2003","08","20","00:00"
"2003-08-20 01:00","2003","08","20","01:00"
"2003-08-20 02:00","2003","08","20","02:00"
"2003-08-20 03:00","2003","08","20","03:00"
"2003-08-20 04:00","2003","08","20","04:00"
"2003-08-20 05:00","2003","08","20","05:00","16.2","","13.7","","85","","","","0","","16.1","","100.90","","","","","","Mainly Clear"
"2003-08-20 06:00","2003","08","20","06:00","16.4","","14.4","","88","","36","","6","","12.9","","100.94","","","","","","Mainly Clear"
"2003-08-20 07:00","2003","08","20","07:00","19.8","","17.1","","84","","1","","4","","11.3","","100.99","","","","","","Mainly Clear"
"2003-08-20 08:00","2003","08","20","08:00","21.3","","17.3","","78","","","","0","","16.1","","100.99","","27","","","","Mainly Clear"
"2003-08-20 09:00","2003","08","20","09:00","22.9","","18.4","","76","","16","","4","","19.3","","101.01","","29","","","","Mostly Cloudy"
"2003-08-20 10:00","2003","08","20","10:00","23.0","","19.3","","80","","18","","9","","19.3","","100.99","","30","","","","Mostly Cloudy"
"2003-08-20 11:00","2003","08","20","11:00","23.6","","20.1","","81","","18","","13","","19.3","","101.00","","31","","","","Mostly Cloudy"
"2003-08-20 12:00","2003","08","20","12:00","24.3","","21.0","","82","","18","","19","","12.9","","100.92","","33","","","","Mostly Cloudy"
"2003-08-20 13:00","2003","08","20","13:00","24.8","","21.5","","82","","20","","20","","12.9","","100.89","","34","","","","Mostly Cloudy"
"2003-08-20 14:00","2003","08","20","14:00","24.9","","22.3","","86","","18","","19","E","12.9","","100.84","","35","","","","Mainly Clear"
"2003-08-20 15:00","2003","08","20","15:00","24.3","","20.6","","80","","18","","20","","24.1","","100.81","","32","","","","Mainly Clear"
"2003-08-20 16:00","2003","08","20","16:00","25.4","","19.8","","71","","21","","22","","16.1","","100.77","","33","","","","Mainly Clear"
"2003-08-20 17:00","2003","08","20","17:00","24.3","","19.5","","75","","20","","19","","24.1","","100.79","","31","","","","Mostly Cloudy"
"2003-08-20 18:00","2003","08","20","18:00","24.2","","19.3","","74","","21","","13","","24.1","","100.74","","31","","","","Mostly Cloudy"
"2003-08-20 19:00","2003","08","20","19:00","23.1","","19.6","","81","","22","","11","","24.1","","100.74","","30","","","","Mostly Cloudy"
"2003-08-20 20:00","2003","08","20","20:00","22.9","","19.9","","83","","21","","11","","24.1","","100.73","","30","","","","Mostly Cloudy"
"2003-08-20 21:00","2003","08","20","21:00","23.0","","17.8","","73","","23","","9","","24.1","","100.71","","29","","","","Mainly Clear"
"2003-08-20 22:00","2003","08","20","22:00","22.6","","18.4","","77","","21","","7","","24.1","","100.70","","29","","","","Mainly Clear"
"2003-08-20 23:00","2003","08","20","23:00"
"2003-08-21 00:00","2003","08","21","00:00"
"2003-08-21 01:00","2003","08","21","01:00"
"2003-08-21 02:00","2003","08","21","02:00"
"2003-08-21 03:00","2003","08","21","03:00"
"2003-08-21 04:00","2003","08","21","04:00"
"2003-08-21 05:00","2003","08","21","05:00","17.5","","16.4","","93","","9","","4","","4.8","","100.59","","","","","","Fog"
"2003-08-21 06:00","2003","08","21","06:00","17.1","","16.3","","95","","","","0","","4.8","","100.59","","","","","","Fog"
"2003-08-21 07:00","2003","08","21","07:00","22.7","","21.6","","94","","20","","11","","4.8","","100.56","","32","","","","Fog"
"2003-08-21 08:00","2003","08","21","08:00","23.8","","21.0","","84","","24","","7","","8.0","","100.54","","32","","","","Haze"
"2003-08-21 09:00","2003","08","21","09:00","23.9","","21.5","","86","","19","","13","","8.0","","100.54","","33","","","","Haze"
"2003-08-21 10:00","2003","08","21","10:00","24.5","","20.9","","80","","20","","19","","6.4","","100.50","","33","","","","Haze"
"2003-08-21 11:00","2003","08","21","11:00","24.8","","21.2","","80","","19","","17","","6.4","","100.46","","33","","","","Haze"
"2003-08-21 12:00","2003","08","21","12:00","25.0","","21.1","","79","","20","","19","","6.4","","100.37","","34","","","","Haze"
"2003-08-21 13:00","2003","08","21","13:00","25.2","","21.1","","78","","20","","24","","24.1","","100.31","","34","","","","Mainly Clear"
"2003-08-21 14:00","2003","08","21","14:00","25.1","","21.2","","79","","19","","22","","6.4","","100.23","","34","","","","Haze"
"2003-08-21 15:00","2003","08","21","15:00","25.6","","21.4","","78","","19","","20","","6.4","","100.13","","34","","","","Haze"
"2003-08-21 16:00","2003","08","21","16:00","25.4","","21.4","","79","","20","","17","","6.4","","100.13","","34","","","","Haze"
"2003-08-21 17:00","2003","08","21","17:00","25.1","","21.1","","79","","20","","15","","6.4","","100.08","","34","","","","Haze"
"2003-08-21 18:00","2003","08","21","18:00","24.5","","21.3","","82","","20","","15","","6.4","","100.02","","33","","","","Haze"
"2003-08-21 19:00","2003","08","21","19:00","24.0","","21.5","","86","","20","","9","","4.8","","99.96","","33","","","","Haze"
"2003-08-21 20:00","2003","08","21","20:00","24.5","","21.4","","83","","19","","19","","6.4","","99.85","","33","","","","Haze"
"2003-08-21 21:00","2003","08","21","21:00","24.5","","21.8","","85","","19","","15","","9.7","","99.86","","34","","","","Haze"
"2003-08-21 22:00","2003","08","21","22:00","24.3","","21.9","","86","","20","","13","","9.7","","99.83","","34","","","","Haze"
"2003-08-21 23:00","2003","08","21","23:00"
"2003-08-22 00:00","2003","08","22","00:00"
"2003-08-22 01:00","2003","08","22","01:00"
"2003-08-22 02:00","2003","08","22","02:00"
"2003-08-22 03:00","2003","08","22","03:00"
"2003-08-22 04:00","2003","08","22","04:00"
"2003-08-22 05:00","2003","08","22","05:00","22.1","","19.7","","86","","24","","17","","12.9","","99.80","","29","","","","Mostly Cloudy"
"2003-08-22 06:00","2003","08","22","06:00","22.2","","20.1","","88","","26","","11","","16.1","","99.90","","30","","","","Mainly Clear"
"2003-08-22 07:00","2003","08","22","07:00","22.5","","18.8","","80","","30","","13","","16.1","","99.88","","29","","","","Mainly Clear"
"2003-08-22 08:00","2003","08","22","08:00","22.9","","18.4","","76","","29","","13","","19.3","","99.91","","29","","","","Mainly Clear"
"2003-08-22 09:00","2003","08","22","09:00","24.3","","18.3","","69","","30","","9","","24.1","","99.90","","31","","","","Mainly Clear"
"2003-08-22 10:00","2003","08","22","10:00","26.0","","17.5","","59","","29","","13","","24.1","","99.91","","32","","","","Mainly Clear"
"2003-08-22 11:00","2003","08","22","11:00","26.6","","17.0","","56","","31","","15","","24.1","","99.91","","32","","","","Mainly Clear"
"2003-08-22 12:00","2003","08","22","12:00","28.1","","15.5","","46","","29","","15","","24.1","","99.90","","32","","","","Mainly Clear"
"2003-08-22 13:00","2003","08","22","13:00","27.2","","16.0","","50","","29","","17","","24.1","","99.89","","32","","","","Mainly Clear"
"2003-08-22 14:00","2003","08","22","14:00","27.4","","16.2","","50","","26","","17","","24.1","","99.86","","32","","","","Mainly Clear"
"2003-08-22 15:00","2003","08","22","15:00","27.8","","15.1","","46","","29","","11","","24.1","","99.86","","32","","","","Mainly Clear"
"2003-08-22 16:00","2003","08","22","16:00","28.4","","12.0","","36","","30","","19","","24.1","","99.86","","31","","","","Mainly Clear"
"2003-08-22 17:00","2003","08","22","17:00","27.0","","12.2","","40","","31","","20","","24.1","","99.87","","29","","","","Mainly Clear"
"2003-08-22 18:00","2003","08","22","18:00","26.3","","12.1","","41","","31","","13","","24.1","","99.88","","29","","","","Mainly Clear"
"2003-08-22 19:00","2003","08","22","19:00","24.3","","12.5","","48","","29","","15","","24.1","","99.91","","27","","","","Clear"
"2003-08-22 20:00","2003","08","22","20:00","22.9","","13.7","","56","","27","","9","","24.1","","99.99","","26","","","","Clear"
"2003-08-22 21:00","2003","08","22","21:00","21.4","","13.8","","62","","29","","13","","24.1","","100.04","","25","","","","Clear"
"2003-08-22 22:00","2003","08","22","22:00","20.7","","13.1","","62","","29","","13","","24.1","","100.05","","","","","","Clear"
"2003-08-22 23:00","2003","08","22","23:00"
"2003-08-23 00:00","2003","08","23","00:00"
"2003-08-23 01:00","2003","08","23","01:00"
"2003-08-23 02:00","2003","08","23","02:00"
"2003-08-23 03:00","2003","08","23","03:00"
"2003-08-23 04:00","2003","08","23","04:00"
"2003-08-23 05:00","2003","08","23","05:00","13.9","","10.6","","80","","35","","11","","24.1","","100.30","","","","","","Clear"
"2003-08-23 06:00","2003","08","23","06:00","15.3","","8.6","","64","","34","","15","","24.1","","100.39","","","","","","Clear"
"2003-08-23 07:00","2003","08","23","07:00","16.1","","8.9","","62","","34","","11","","24.1","","100.45","","","","","","Clear"
"2003-08-23 08:00","2003","08","23","08:00","17.5","","6.8","","49","","36","","22","","24.1","","100.53","","","","","","Mainly Clear"
"2003-08-23 09:00","2003","08","23","09:00","18.8","","7.4","","47","","33","","13","","24.1","","100.56","","","","","","Mainly Clear"
"2003-08-23 10:00","2003","08","23","10:00","21.2","","5.5","","36","","32","","13","","24.1","","100.58","","","","","","Mainly Clear"
"2003-08-23 11:00","2003","08","23","11:00","22.2","","4.0","","30","","32","","11","","24.1","","100.54","","","","","","Mainly Clear"
"2003-08-23 12:00","2003","08","23","12:00","23.1","","3.2","","27","","32","","22","","24.1","","100.51","","","","","","Mainly Clear"
"2003-08-23 13:00","2003","08","23","13:00","24.2","","3.8","","27","","33","","19","","24.1","","100.51","","","","","","Mainly Clear"
"2003-08-23 14:00","2003","08","23","14:00","24.4","","3.7","","26","","30","","22","","24.1","","100.49","","","","","","Mainly Clear"
"2003-08-23 15:00","2003","08","23","15:00","24.8","","2.7","","24","","34","","17","","24.1","","100.46","","","","","","Mainly Clear"
"2003-08-23 16:00","2003","08","23","16:00","24.8","","2.2","","23","","31","","26","","24.1","","100.44","","","","","","Mainly Clear"
"2003-08-23 17:00","2003","08","23","17:00","23.9","","0.9","","22","","32","","17","","24.1","","100.44","","","","","","Mainly Clear"
"2003-08-23 18:00","2003","08","23","18:00","22.4","","1.7","","25","","35","","15","","24.1","","100.46","","","","","","Clear"
"2003-08-23 19:00","2003","08","23","19:00","19.3","","2.9","","34","","33","","13","","24.1","","100.52","","","","","","Clear"
"2003-08-23 20:00","2003","08","23","20:00","16.8","","3.5","","41","","34","","9","","24.1","","100.63","","","","","","Clear"
"2003-08-23 21:00","2003","08","23","21:00","14.8","","4.1","","49","","36","","9","","24.1","","100.69","","","","","","Clear"
"2003-08-23 22:00","2003","08","23","22:00","13.2","","4.2","","54","","34","","11","","24.1","","100.75","","","","","","Clear"
"2003-08-23 23:00","2003","08","23","23:00"
"2003-08-24 00:00","2003","08","24","00:00"
"2003-08-24 01:00","2003","08","24","01:00"
"2003-08-24 02:00","2003","08","24","02:00"
"2003-08-24 03:00","2003","08","24","03:00"
"2003-08-24 04:00","2003","08","24","04:00"
"2003-08-24 05:00","2003","08","24","05:00","9.2","","5.7","","79","","32","","7","","24.1","","100.95","","","","","","Mainly Clear"
"2003-08-24 06:00","2003","08","24","06:00","8.6","","6.2","","85","","34","","7","","24.1","","101.00","","","","","","Mainly Clear"
"2003-08-24 07:00","2003","08","24","07:00","11.9","","7.6","","75","","34","","9","","24.1","","101.03","","","","","","Mainly Clear"
"2003-08-24 08:00","2003","08","24","08:00","15.1","","8.4","","64","","35","","6","","24.1","","101.04","","","","","","Mainly Clear"
"2003-08-24 09:00","2003","08","24","09:00","17.3","","7.3","","52","","22","","9","","24.1","","101.02","","","","","","Mainly Clear"
"2003-08-24 10:00","2003","08","24","10:00","18.9","","7.1","","46","","23","","11","","24.1","","100.99","","","","","","Mainly Clear"
"2003-08-24 11:00","2003","08","24","11:00","20.7","","7.1","","41","","23","","19","","24.1","","100.86","","","","","","Mainly Clear"
"2003-08-24 12:00","2003","08","24","12:00","20.7","","7.1","","41","","23","","19","","24.1","","100.86","","","","","","Mainly Clear"
"2003-08-24 13:00","2003","08","24","13:00","21.9","","7.3","","39","","25","","19","","24.1","","100.77","","","","","","Mainly Clear"
"2003-08-24 14:00","2003","08","24","14:00","22.2","","6.7","","37","","23","","19","","24.1","","100.69","","","","","","Mainly Clear"
"2003-08-24 15:00","2003","08","24","15:00","22.2","","9.9","","46","","25","","22","","24.1","","100.62","","","","","","Mainly Clear"
"2003-08-24 16:00","2003","08","24","16:00","22.2","","9.5","","44","","25","","19","","24.1","","100.58","","","","","","Mostly Cloudy"
"2003-08-24 17:00","2003","08","24","17:00","21.0","","9.9","","49","","25","","20","","24.1","","100.55","","","","","","Mostly Cloudy"
"2003-08-24 18:00","2003","08","24","18:00","19.9","","10.1","","53","","24","","17","","24.1","","100.50","","","","","","Mostly Cloudy"
"2003-08-24 19:00","2003","08","24","19:00","19.9","","10.0","","53","","26","","15","","24.1","","100.47","","","","","","Cloudy"
"2003-08-24 20:00","2003","08","24","20:00","20.0","","10.3","","54","","27","","15","","24.1","","100.52","","","","","","Cloudy"
"2003-08-24 21:00","2003","08","24","21:00","19.1","","10.3","","57","","","","0","","24.1","","100.46","","","","","","Cloudy"
"2003-08-24 22:00","2003","08","24","22:00","19.0","","10.4","","57","","","","0","","24.1","","100.43","","","","","","Cloudy"
"2003-08-24 23:00","2003","08","24","23:00"
"2003-08-25 00:00","2003","08","25","00:00"
"2003-08-25 01:00","2003","08","25","01:00"
"2003-08-25 02:00","2003","08","25","02:00"
"2003-08-25 03:00","2003","08","25","03:00"
"2003-08-25 04:00","2003","08","25","04:00"
"2003-08-25 05:00","2003","08","25","05:00","20.8","","15.7","","73","","23","","17","","24.1","","100.02","","25","","","","Cloudy"
"2003-08-25 06:00","2003","08","25","06:00","20.8","","15.7","","73","","22","","15","","24.1","","100.00","","25","","","","Mostly Cloudy"
"2003-08-25 07:00","2003","08","25","07:00","21.0","","16.0","","73","","23","","17","","24.1","","99.98","","26","","","","Mostly Cloudy"
"2003-08-25 08:00","2003","08","25","08:00","21.7","","17.2","","76","","24","","15","","24.1","","99.99","","27","","","","Cloudy"
"2003-08-25 09:00","2003","08","25","09:00","22.8","","17.5","","72","","26","","13","","24.1","","99.99","","28","","","","Mostly Cloudy"
"2003-08-25 10:00","2003","08","25","10:00","23.0","","17.1","","69","","31","","11","","24.1","","100.00","","28","","","","Mostly Cloudy"
"2003-08-25 11:00","2003","08","25","11:00","23.8","","17.6","","68","","24","","13","","24.1","","100.02","","30","","","","Cloudy"
"2003-08-25 12:00","2003","08","25","12:00","23.8","","18.1","","70","","28","","7","","24.1","","100.03","","30","","","","Cloudy"
"2003-08-25 13:00","2003","08","25","13:00","25.2","","17.8","","64","","32","","13","","24.1","","100.06","","31","","","","Cloudy"
"2003-08-25 14:00","2003","08","25","14:00","25.8","","17.2","","59","","31","","19","","24.1","","100.05","","31","","","","Mostly Cloudy"
"2003-08-25 15:00","2003","08","25","15:00","26.4","","17.3","","57","","30","","15","","24.1","","100.12","","32","","","","Mostly Cloudy"
"2003-08-25 16:00","2003","08","25","16:00","26.8","","16.8","","54","","32","","15","","24.1","","100.16","","32","","","","Mostly Cloudy"
"2003-08-25 17:00","2003","08","25","17:00","26.1","","16.2","","54","","1","","13","","24.1","","100.19","","31","","","","Mainly Clear"
"2003-08-25 18:00","2003","08","25","18:00","24.7","","16.8","","61","","6","","13","","24.1","","100.23","","30","","","","Mainly Clear"
"2003-08-25 19:00","2003","08","25","19:00","22.4","","16.7","","70","","8","","9","","24.1","","100.27","","27","","","","Mainly Clear"
"2003-08-25 20:00","2003","08","25","20:00","21.1","","16.7","","76","","11","","7","","24.1","","100.33","","26","","","","Mainly Clear"
"2003-08-25 21:00","2003","08","25","21:00","20.4","","16.7","","79","","9","","7","","24.1","","100.37","","25","","","","Clear"
"2003-08-25 22:00","2003","08","25","22:00","19.9","","16.5","","81","","10","","7","","24.1","","100.38","","","","","","Clear"
"2003-08-25 23:00","2003","08","25","23:00"
"2003-08-26 00:00","2003","08","26","00:00"
"2003-08-26 01:00","2003","08","26","01:00"
"2003-08-26 02:00","2003","08","26","02:00"
"2003-08-26 03:00","2003","08","26","03:00"
"2003-08-26 04:00","2003","08","26","04:00"
"2003-08-26 05:00","2003","08","26","05:00","17.2","","15.2","","88","","","","0","","24.1","","100.30","","","","","","Mostly Cloudy"
"2003-08-26 06:00","2003","08","26","06:00","19.4","","17.2","","87","","14","","11","","24.1","","100.21","","","","","","Mostly Cloudy"
"2003-08-26 07:00","2003","08","26","07:00","20.8","","17.2","","80","","17","","15","","24.1","","100.20","","26","","","","Mostly Cloudy"
"2003-08-26 08:00","2003","08","26","08:00","21.6","","18.2","","81","","18","","20","","24.1","","100.13","","28","","","","Mostly Cloudy"
"2003-08-26 09:00","2003","08","26","09:00","21.5","","19.1","","86","","20","","22","","12.9","","100.14","","28","","","","Cloudy"
"2003-08-26 10:00","2003","08","26","10:00","21.8","","19.6","","87","","19","","15","","12.9","","100.08","","29","","","","Cloudy"
"2003-08-26 11:00","2003","08","26","11:00","22.1","","19.7","","86","","18","","17","","12.9","","99.97","","29","","","","Cloudy"
"2003-08-26 12:00","2003","08","26","12:00","22.0","","19.7","","87","","19","","13","","12.9","","99.90","","29","","","","Cloudy"
"2003-08-26 13:00","2003","08","26","13:00","22.3","","19.3","","83","","20","","15","","12.9","","99.82","","29","","","","Cloudy"
"2003-08-26 14:00","2003","08","26","14:00","23.0","","19.6","","81","","20","","20","","9.7","","99.65","","30","","","","Haze"
"2003-08-26 15:00","2003","08","26","15:00","23.5","","20.6","","84","","21","","19","","8.0","","99.58","","32","","","","Haze"
"2003-08-26 16:00","2003","08","26","16:00","23.7","","20.4","","82","","25","","17","","8.0","","99.55","","32","","","","Haze"
"2003-08-26 17:00","2003","08","26","17:00","24.2","","20.1","","78","","25","","19","","6.4","","99.49","","32","","","","Haze"
"2003-08-26 18:00","2003","08","26","18:00","24.2","","19.4","","75","","25","","19","","9.7","","99.45","","31","","","","Haze"
"2003-08-26 19:00","2003","08","26","19:00","23.9","","19.3","","75","","26","","20","","11.3","","99.46","","31","","","","Mainly Clear"
"2003-08-26 20:00","2003","08","26","20:00","23.5","","19.2","","77","","25","","19","","19.3","","99.49","","30","","","","Mainly Clear"
"2003-08-26 21:00","2003","08","26","21:00","23.0","","19.9","","83","","25","","17","","24.1","","99.51","","30","","","","Mainly Clear"
"2003-08-26 22:00","2003","08","26","22:00","22.8","","19.3","","81","","25","","17","","24.1","","99.53","","30","","","","Clear"
"2003-08-26 23:00","2003","08","26","23:00"
"2003-08-27 00:00","2003","08","27","00:00"
"2003-08-27 01:00","2003","08","27","01:00"
"2003-08-27 02:00","2003","08","27","02:00"
"2003-08-27 03:00","2003","08","27","03:00"
"2003-08-27 04:00","2003","08","27","04:00"
"2003-08-27 05:00","2003","08","27","05:00","19.7","","14.2","","71","","26","","15","","24.1","","99.80","","","","","","Clear"
"2003-08-27 06:00","2003","08","27","06:00","19.3","","14.3","","73","","27","","11","","24.1","","99.83","","","","","","Mainly Clear"
"2003-08-27 07:00","2003","08","27","07:00","19.6","","14.6","","73","","27","","15","","24.1","","99.84","","","","","","Mainly Clear"
"2003-08-27 08:00","2003","08","27","08:00","20.3","","14.5","","69","","27","","17","","24.1","","99.84","","","","","","Mainly Clear"
"2003-08-27 09:00","2003","08","27","09:00","22.2","","13.5","","58","","26","","19","","24.1","","99.80","","25","","","","Mainly Clear"
"2003-08-27 10:00","2003","08","27","10:00","23.6","","12.9","","51","","28","","19","","24.1","","99.85","","26","","","","Mainly Clear"
"2003-08-27 11:00","2003","08","27","11:00","25.2","","13.7","","49","","29","","19","","24.1","","99.88","","28","","","","Mainly Clear"
"2003-08-27 12:00","2003","08","27","12:00","26.6","","13.3","","44","","29","","20","","24.1","","99.87","","30","","","","Mainly Clear"
"2003-08-27 13:00","2003","08","27","13:00","27.8","","9.7","","32","","28","","20","","24.1","","99.88","","29","","","","Mainly Clear"
"2003-08-27 14:00","2003","08","27","14:00","27.7","","9.3","","32","","30","","20","","24.1","","99.91","","29","","","","Mainly Clear"
"2003-08-27 15:00","2003","08","27","15:00","27.3","","8.3","","30","","32","","20","","24.1","","99.93","","28","","","","Mainly Clear"
"2003-08-27 16:00","2003","08","27","16:00","26.8","","6.4","","27","","32","","22","","24.1","","99.98","","27","","","","Mainly Clear"
"2003-08-27 17:00","2003","08","27","17:00","25.7","","5.1","","27","","33","","19","","24.1","","99.99","","25","","","","Mainly Clear"
"2003-08-27 18:00","2003","08","27","18:00","24.5","","6.8","","32","","32","","13","","24.1","","100.10","","","","","","Mainly Clear"
"2003-08-27 19:00","2003","08","27","19:00","20.9","","6.6","","39","","33","","11","","24.1","","100.19","","","","","","Mainly Clear"
"2003-08-27 20:00","2003","08","27","20:00","19.8","","9.6","","52","","4","","15","","24.1","","100.37","","","","","","Mainly Clear"
"2003-08-27 21:00","2003","08","27","21:00","18.3","","9.3","","56","","3","","9","","24.1","","100.43","","","","","","Clear"
"2003-08-27 22:00","2003","08","27","22:00","17.3","","8.8","","57","","2","","7","","24.1","","100.53","","","","","","Clear"
"2003-08-27 23:00","2003","08","27","23:00"
"2003-08-28 00:00","2003","08","28","00:00"
"2003-08-28 01:00","2003","08","28","01:00"
"2003-08-28 02:00","2003","08","28","02:00"
"2003-08-28 03:00","2003","08","28","03:00"
"2003-08-28 04:00","2003","08","28","04:00"
"2003-08-28 05:00","2003","08","28","05:00","9.5","","8.1","","91","","35","","7","","24.1","","100.93","","","","","","Mainly Clear"
"2003-08-28 06:00","2003","08","28","06:00","9.6","","8.3","","92","","36","","13","","24.1","","101.03","","","","","","Mostly Cloudy"
"2003-08-28 07:00","2003","08","28","07:00","11.8","","9.5","","86","","36","","9","","24.1","","101.12","","","","","","Mostly Cloudy"
"2003-08-28 08:00","2003","08","28","08:00","14.1","","9.6","","74","","35","","7","","24.1","","101.16","","","","","","Mostly Cloudy"
"2003-08-28 09:00","2003","08","28","09:00","16.6","","9.4","","62","","","","0","","24.1","","101.22","","","","","","Mostly Cloudy"
"2003-08-28 10:00","2003","08","28","10:00","16.6","","9.7","","64","","15","","9","","24.1","","101.18","","","","","","Mostly Cloudy"
"2003-08-28 11:00","2003","08","28","11:00","17.8","","9.4","","58","","19","","11","","24.1","","101.15","","","","","","Mostly Cloudy"
"2003-08-28 12:00","2003","08","28","12:00","17.9","","10.1","","60","","19","","11","","24.1","","101.10","","","","","","Mostly Cloudy"
"2003-08-28 13:00","2003","08","28","13:00","18.9","","10.8","","59","","17","","22","","24.1","","101.02","","","","","","Mostly Cloudy"
"2003-08-28 14:00","2003","08","28","14:00","19.4","","10.9","","58","","20","","20","","24.1","","101.00","","","","","","Mostly Cloudy"
"2003-08-28 15:00","2003","08","28","15:00","19.5","","12.2","","63","","20","","24","","24.1","","100.99","","","","","","Mostly Cloudy"
"2003-08-28 16:00","2003","08","28","16:00","19.8","","13.5","","67","","21","","19","","24.1","","101.00","","","","","","Mostly Cloudy"
"2003-08-28 17:00","2003","08","28","17:00","19.9","","12.6","","63","","21","","15","","24.1","","100.92","","","","","","Mostly Cloudy"
"2003-08-28 18:00","2003","08","28","18:00","19.5","","12.5","","64","","22","","6","","24.1","","100.89","","","","","","Mostly Cloudy"
"2003-08-28 19:00","2003","08","28","19:00","19.1","","13.0","","68","","25","","6","","24.1","","100.87","","","","","","Mostly Cloudy"
"2003-08-28 20:00","2003","08","28","20:00","19.6","","11.3","","59","","18","","11","","24.1","","100.84","","","","","","Mostly Cloudy"
"2003-08-28 21:00","2003","08","28","21:00","19.4","","12.6","","65","","17","","17","","24.1","","100.79","","","","","","Mainly Clear"
"2003-08-28 22:00","2003","08","28","22:00","19.6","","13.0","","66","","17","","19","","24.1","","100.74","","","","","","Mainly Clear"
"2003-08-28 23:00","2003","08","28","23:00"
"2003-08-29 00:00","2003","08","29","00:00"
"2003-08-29 01:00","2003","08","29","01:00"
"2003-08-29 02:00","2003","08","29","02:00"
"2003-08-29 03:00","2003","08","29","03:00"
"2003-08-29 04:00","2003","08","29","04:00"
"2003-08-29 05:00","2003","08","29","05:00","19.9","","15.9","","78","","18","","26","","24.1","","100.32","","","","","","Mostly Cloudy"
"2003-08-29 06:00","2003","08","29","06:00","20.1","","16.4","","79","","19","","26","","24.1","","100.32","","25","","","","Cloudy"
"2003-08-29 07:00","2003","08","29","07:00","20.8","","17.2","","80","","19","","28","","24.1","","100.28","","26","","","","Cloudy"
"2003-08-29 08:00","2003","08","29","08:00","21.5","","18.0","","80","","19","","30","","19.3","","100.17","","28","","","","Cloudy"
"2003-08-29 09:00","2003","08","29","09:00","22.5","","18.7","","79","","19","","32","","12.9","","100.08","","29","","","","Cloudy"
"2003-08-29 10:00","2003","08","29","10:00","22.7","","20.7","","88","","20","","30","","9.7","","100.03","","31","","","","Fog"
"2003-08-29 11:00","2003","08","29","11:00","24.1","","20.5","","80","","22","","20","","6.4","","99.99","","32","","","","Haze"
"2003-08-29 12:00","2003","08","29","12:00","23.9","","20.7","","82","","21","","24","","6.4","","99.94","","32","","","","Haze"
"2003-08-29 13:00","2003","08","29","13:00","23.4","","21.3","","88","","22","","22","","6.4","","99.85","","32","","","","Thunderstorms,Rain Showers,Haze"
"2003-08-29 14:00","2003","08","29","14:00","25.3","","22.0","","82","","22","","20","","6.4","","99.82","","35","","","","Haze"
"2003-08-29 15:00","2003","08","29","15:00","27.0","","21.6","","72","","25","","26","","9.7","","99.75","","36","","","","Haze"
"2003-08-29 16:00","2003","08","29","16:00","26.4","","21.0","","72","","25","","28","","9.7","","99.80","","35","","","","Haze"
"2003-08-29 17:00","2003","08","29","17:00","25.5","","21.0","","76","","27","","17","","11.3","","99.89","","34","","","","Cloudy"
"2003-08-29 18:00","2003","08","29","18:00","24.4","","21.0","","81","","27","","15","","11.3","","99.94","","33","","","","Cloudy"
"2003-08-29 19:00","2003","08","29","19:00","22.9","","17.5","","72","","28","","13","","24.1","","100.05","","29","","","","Mostly Cloudy"
"2003-08-29 20:00","2003","08","29","20:00","22.0","","15.7","","67","","29","","17","","24.1","","100.15","","26","","","","Mostly Cloudy"
"2003-08-29 21:00","2003","08","29","21:00","21.5","","15.2","","67","","28","","17","","24.1","","100.26","","26","","","","Cloudy"
"2003-08-29 22:00","2003","08","29","22:00","21.1","","14.4","","66","","29","","17","","24.1","","100.29","","25","","","","Cloudy"
"2003-08-29 23:00","2003","08","29","23:00"
"2003-08-30 00:00","2003","08","30","00:00"
"2003-08-30 01:00","2003","08","30","01:00"
"2003-08-30 02:00","2003","08","30","02:00"
"2003-08-30 03:00","2003","08","30","03:00"
"2003-08-30 04:00","2003","08","30","04:00"
"2003-08-30 05:00","2003","08","30","05:00","13.9","","10.9","","82","","35","","13","","24.1","","100.72","","","","","","Mostly Cloudy"
"2003-08-30 06:00","2003","08","30","06:00","12.7","","10.3","","85","","35","","11","","24.1","","100.84","","","","","","Mostly Cloudy"
"2003-08-30 07:00","2003","08","30","07:00","14.8","","10.2","","74","","36","","11","","24.1","","100.93","","","","","","Mostly Cloudy"
"2003-08-30 08:00","2003","08","30","08:00","15.2","","9.5","","69","","36","","17","","24.1","","100.99","","","","","","Mostly Cloudy"
"2003-08-30 09:00","2003","08","30","09:00","16.0","","8.9","","63","","36","","11","","24.1","","101.03","","","","","","Mostly Cloudy"
"2003-08-30 10:00","2003","08","30","10:00","15.9","","8.0","","59","","1","","15","","24.1","","101.06","","","","","","Mostly Cloudy"
"2003-08-30 11:00","2003","08","30","11:00","17.5","","7.8","","53","","35","","19","","24.1","","101.09","","","","","","Mostly Cloudy"
"2003-08-30 12:00","2003","08","30","12:00","17.7","","7.9","","53","","1","","13","","24.1","","101.14","","","","","","Mostly Cloudy"
"2003-08-30 13:00","2003","08","30","13:00","18.6","","7.4","","48","","1","","11","","24.1","","101.17","","","","","","Mostly Cloudy"
"2003-08-30 14:00","2003","08","30","14:00","19.4","","7.6","","46","","2","","15","","24.1","","101.16","","","","","","Mostly Cloudy"
"2003-08-30 15:00","2003","08","30","15:00","18.9","","6.8","","45","","1","","6","","24.1","","101.21","","","","","","Mainly Clear"
"2003-08-30 16:00","2003","08","30","16:00","19.5","","7.3","","45","","34","","6","","24.1","","101.21","","","","","","Mainly Clear"
"2003-08-30 17:00","2003","08","30","17:00","20.3","","6.8","","41","","36","","13","","24.1","","101.20","","","","","","Mainly Clear"
"2003-08-30 18:00","2003","08","30","18:00","19.7","","6.4","","42","","2","","9","","24.1","","101.19","","","","","","Mainly Clear"
"2003-08-30 19:00","2003","08","30","19:00","18.3","","5.4","","43","","6","","6","","24.1","","101.24","","","","","","Mainly Clear"
"2003-08-30 20:00","2003","08","30","20:00","16.3","","7.7","","57","","11","","7","","24.1","","101.32","","","","","","Mainly Clear"
"2003-08-30 21:00","2003","08","30","21:00","18.1","","9.3","","56","","18","","11","","24.1","","101.35","","","","","","Clear"
"2003-08-30 22:00","2003","08","30","22:00","16.0","","10.9","","72","","27","","9","","24.1","","101.40","","","","","","Clear"
"2003-08-30 23:00","2003","08","30","23:00"
"2003-08-31 00:00","2003","08","31","00:00"
"2003-08-31 01:00","2003","08","31","01:00"
"2003-08-31 02:00","2003","08","31","02:00"
"2003-08-31 03:00","2003","08","31","03:00"
"2003-08-31 04:00","2003","08","31","04:00"
"2003-08-31 05:00","2003","08","31","05:00","11.4","","10.4","","94","","33","","6","","24.1","","101.49","","","","","","Mostly Cloudy"
"2003-08-31 06:00","2003","08","31","06:00","11.3","","10.2","","93","","","","0","","24.1","","101.57","","","","","","Mostly Cloudy"
"2003-08-31 07:00","2003","08","31","07:00","13.3","","10.4","","83","","","","0","","24.1","","101.60","","","","","","Mostly Cloudy"
"2003-08-31 08:00","2003","08","31","08:00","16.0","","10.1","","68","","30","","4","","24.1","","101.62","","","","","","Mostly Cloudy"
"2003-08-31 09:00","2003","08","31","09:00","17.1","","11.0","","67","","24","","7","","24.1","","101.63","","","","","","Mostly Cloudy"
"2003-08-31 10:00","2003","08","31","10:00","19.1","","11.8","","63","","21","","9","","24.1","","101.61","","","","","","Mostly Cloudy"
"2003-08-31 11:00","2003","08","31","11:00","19.5","","10.4","","56","","21","","9","","24.1","","101.59","","","","","","Mostly Cloudy"
"2003-08-31 12:00","2003","08","31","12:00","20.3","","9.5","","50","","20","","19","","24.1","","101.54","","","","","","Mostly Cloudy"
"2003-08-31 13:00","2003","08","31","13:00","20.4","","9.4","","49","","20","","19","","24.1","","101.50","","","","","","Mostly Cloudy"
"2003-08-31 14:00","2003","08","31","14:00","20.2","","12.4","","61","","21","","22","","24.1","","101.46","","","","","","Mostly Cloudy"
"2003-08-31 15:00","2003","08","31","15:00","21.2","","12.4","","57","","21","","22","","24.1","","101.42","","","","","","Mostly Cloudy"
"2003-08-31 16:00","2003","08","31","16:00","20.0","","11.1","","57","","20","","20","","24.1","","101.38","","","","","","Mostly Cloudy"
"2003-08-31 17:00","2003","08","31","17:00","20.4","","10.9","","54","","23","","19","","24.1","","101.34","","","","","","Mostly Cloudy"
"2003-08-31 18:00","2003","08","31","18:00","20.0","","10.4","","54","","24","","13","","24.1","","101.31","","","","","","Mostly Cloudy"
"2003-08-31 19:00","2003","08","31","19:00","19.3","","9.5","","53","","24","","9","","24.1","","101.29","","","","","","Cloudy"
"2003-08-31 20:00","2003","08","31","20:00","19.1","","9.7","","54","","24","","7","","24.1","","101.29","","","","","","Cloudy"
"2003-08-31 21:00","2003","08","31","21:00","18.8","","10.3","","58","","26","","6","","24.1","","101.27","","","","","","Cloudy"
"2003-08-31 22:00","2003","08","31","22:00","18.6","","11.1","","62","","25","","9","","24.1","","101.27","","","","","","Cloudy"
"2003-08-31 23:00","2003","08","31","23:00"
