"Station Name","KINGSTON A"
"Province","ONTARIO"
"Latitude","44.22"
"Longitude","-76.60"
"Elevation","92.40"
"Climate Identifier","6104146"
"WMO Identifier",""
"TC Identifier","YGK"
"All times are specified in Local Standard Time (LST). Add 1 hour to adjust for Daylight Saving Time where and when it is observed."

"Legend"
"E","Estimated"
"M","Missing"
"NA","Not Available"

"Date/Time","Year","Month","Day","Time","Temp (°C)","Temp Flag","Dew Point Temp (°C)","Dew Point Temp Flag","Rel Hum (%)","Rel Hum Flag","Wind Dir (10s deg)","Wind Dir Flag","Wind Spd (km/h)","Wind Spd Flag","Visibility (km)","Visibility Flag","Stn Press (kPa)","Stn Press Flag","Hmdx","Hmdx Flag","Wind Chill","Wind Chill Flag","Weather"
"1999-09-01 00:00","1999","09","01","00:00"
"1999-09-01 01:00","1999","09","01","01:00"
"1999-09-01 02:00","1999","09","01","02:00"
"1999-09-01 03:00","1999","09","01","03:00"
"1999-09-01 04:00","1999","09","01","04:00"
"1999-09-01 05:00","1999","09","01","05:00","10.0","","7.5","","84","","36","","7","","24.1","","101.25","","","","","","Clear"
"1999-09-01 06:00","1999","09","01","06:00","11.3","","8.3","","82","","2","","4","","24.1","","101.28","","","","","","Mainly Clear"
"1999-09-01 07:00","1999","09","01","07:00","14.1","","9.9","","76","","35","","9","","24.1","","101.35","","","","","","Mainly Clear"
"1999-09-01 08:00","1999","09","01","08:00","19.5","","13.2","","67","","","","0","","24.1","","101.28","","","","","","Mainly Clear"
"1999-09-01 09:00","1999","09","01","09:00","20.5","","16.4","","77","","18","","6","","24.1","","101.28","","25","","","","Mainly Clear"
"1999-09-01 10:00","1999","09","01","10:00","20.9","","16.1","","74","","18","","11","","24.1","","101.28","","26","","","","Mainly Clear"
"1999-09-01 11:00","1999","09","01","11:00","22.3","","14.9","","63","","19","","13","","24.1","","101.25","","26","","","","Mainly Clear"
"1999-09-01 12:00","1999","09","01","12:00","22.8","","15.8","","65","","18","","13","","24.1","","101.18","","27","","","","Mainly Clear"
"1999-09-01 13:00","1999","09","01","13:00","22.9","","16.2","","66","","18","","15","","24.1","","101.15","","28","","","","Mainly Clear"
"1999-09-01 14:00","1999","09","01","14:00","23.5","","15.2","","60","","18","","17","","24.1","","101.08","","28","","","","Mainly Clear"
"1999-09-01 15:00","1999","09","01","15:00","23.3","","14.5","","58","","19","","17","","24.1","","101.01","","27","","","","Mainly Clear"
"1999-09-01 16:00","1999","09","01","16:00","23.1","","16.1","","65","","20","","15","","24.1","","100.98","","28","","","","Mainly Clear"
"1999-09-01 17:00","1999","09","01","17:00","22.6","","16.9","","70","","20","","13","","24.1","","100.95","","28","","","","Mainly Clear"
"1999-09-01 18:00","1999","09","01","18:00","22.5","","16.9","","71","","21","","13","","24.1","","100.88","","28","","","","Mainly Clear"
"1999-09-01 19:00","1999","09","01","19:00","21.4","","15.6","","70","","25","","6","","24.1","","100.88","","26","","","","Mainly Clear"
"1999-09-01 20:00","1999","09","01","20:00","20.7","","15.6","","73","","","","0","","24.1","","100.88","","25","","","","Mainly Clear"
"1999-09-01 21:00","1999","09","01","21:00","18.4","","14.9","","80","","","","0","","24.1","","100.88","","","","","","Mainly Clear"
"1999-09-01 22:00","1999","09","01","22:00","17.8","","","M","","M","27","","6","","24.1","","100.91","","","","","","Mainly Clear"
"1999-09-01 23:00","1999","09","01","23:00"
"1999-09-02 00:00","1999","09","02","00:00"
"1999-09-02 01:00","1999","09","02","01:00"
"1999-09-02 02:00","1999","09","02","02:00"
"1999-09-02 03:00","1999","09","02","03:00"
"1999-09-02 04:00","1999","09","02","04:00"
"1999-09-02 05:00","1999","09","02","05:00","12.0","","12.0","","100","","32","","6","","19.3","","100.95","","","","","","Mainly Clear"
"1999-09-02 06:00","1999","09","02","06:00","11.7","","11.7","","100","","33","","7","","16.1","","100.98","","","","","","Mainly Clear"
"1999-09-02 07:00","1999","09","02","07:00","15.9","","15.5","","97","","4","","4","","19.3","","101.05","","","","","","Mainly Clear"
"1999-09-02 08:00","1999","09","02","08:00","19.5","","16.5","","83","","31","","6","","24.1","","101.01","","","","","","Mainly Clear"
"1999-09-02 09:00","1999","09","02","09:00","22.4","","13.1","","56","","22","","6","","24.1","","100.98","","25","","","","Mainly Clear"
"1999-09-02 10:00","1999","09","02","10:00","25.3","","13.1","","47","","22","","6","","24.1","","100.98","","28","","","","Mainly Clear"
"1999-09-02 11:00","1999","09","02","11:00","23.9","","17.4","","67","","18","","11","","24.1","","100.95","","29","","","","Mainly Clear"
"1999-09-02 12:00","1999","09","02","12:00","24.9","","15.4","","56","","19","","19","","24.1","","100.88","","29","","","","Mainly Clear"
"1999-09-02 13:00","1999","09","02","13:00","23.9","","18.2","","70","","19","","26","","24.1","","100.85","","30","","","","Mainly Clear"
"1999-09-02 14:00","1999","09","02","14:00","23.8","","19.4","","76","","19","","22","","24.1","","100.78","","31","","","","Mainly Clear"
"1999-09-02 15:00","1999","09","02","15:00","24.4","","18.5","","70","","20","","24","","24.1","","100.75","","31","","","","Mainly Clear"
"1999-09-02 16:00","1999","09","02","16:00","24.5","","19.3","","73","","20","","19","","24.1","","100.71","","32","","","","Mainly Clear"
"1999-09-02 17:00","1999","09","02","17:00","23.6","","19.6","","78","","20","","13","","24.1","","100.68","","31","","","","Mainly Clear"
"1999-09-02 18:00","1999","09","02","18:00","23.8","","19.9","","79","","22","","11","","24.1","","100.64","","31","","","","Mainly Clear"
"1999-09-02 19:00","1999","09","02","19:00","23.5","","16.9","","66","","25","","11","","24.1","","100.68","","29","","","","Mainly Clear"
"1999-09-02 20:00","1999","09","02","20:00","23.3","","16.6","","66","","27","","11","","24.1","","100.68","","28","","","","Clear"
"1999-09-02 21:00","1999","09","02","21:00","22.7","","15.4","","63","","26","","7","","24.1","","100.71","","27","","","","Clear"
"1999-09-02 22:00","1999","09","02","22:00","21.7","","16.7","","73","","25","","7","","24.1","","100.68","","27","","","","Clear"
"1999-09-02 23:00","1999","09","02","23:00"
"1999-09-03 00:00","1999","09","03","00:00"
"1999-09-03 01:00","1999","09","03","01:00"
"1999-09-03 02:00","1999","09","03","02:00"
"1999-09-03 03:00","1999","09","03","03:00"
"1999-09-03 04:00","1999","09","03","04:00"
"1999-09-03 05:00","1999","09","03","05:00","13.5","","13.0","","97","","35","","11","","19.3","","100.75","","","","","","Mainly Clear"
"1999-09-03 06:00","1999","09","03","06:00","14.4","","13.7","","96","","2","","9","","19.3","","100.78","","","","","","Mainly Clear"
"1999-09-03 07:00","1999","09","03","07:00","17.8","","16.5","","92","","4","","9","","9.7","","100.81","","","","","","Fog"
"1999-09-03 08:00","1999","09","03","08:00","20.2","","18.3","","89","","8","","11","","9.7","","100.78","","26","","","","Fog"
"1999-09-03 09:00","1999","09","03","09:00","22.5","","19.7","","84","","12","","6","","9.7","","100.85","","30","","","","Fog"
"1999-09-03 10:00","1999","09","03","10:00","22.8","","19.2","","80","","17","","13","","11.3","","100.85","","30","","","","Mainly Clear"
"1999-09-03 11:00","1999","09","03","11:00","22.9","","20.7","","87","","17","","17","","24.1","","100.81","","31","","","","Mainly Clear"
"1999-09-03 12:00","1999","09","03","12:00","22.9","","20.3","","85","","19","","13","","11.3","","100.81","","31","","","","Mainly Clear"
"1999-09-03 13:00","1999","09","03","13:00","23.1","","20.3","","84","","17","","9","","11.3","","100.75","","31","","","","Mainly Clear"
"1999-09-03 14:00","1999","09","03","14:00","23.8","","19.9","","79","","18","","17","","11.3","","100.71","","31","","","","Mainly Clear"
"1999-09-03 15:00","1999","09","03","15:00","24.3","","20.1","","77","","19","","15","","12.9","","100.68","","32","","","","Mainly Clear"
"1999-09-03 16:00","1999","09","03","16:00","23.7","","20.1","","80","","19","","15","","12.9","","100.68","","31","","","","Mainly Clear"
"1999-09-03 17:00","1999","09","03","17:00","24.5","","18.8","","71","","20","","9","","16.1","","100.64","","31","","","","Mainly Clear"
"1999-09-03 18:00","1999","09","03","18:00","25.0","","19.1","","70","","24","","4","","16.1","","100.61","","32","","","","Mainly Clear"
"1999-09-03 19:00","1999","09","03","19:00","24.5","","18.1","","68","","25","","6","","19.3","","100.64","","31","","","","Mainly Clear"
"1999-09-03 20:00","1999","09","03","20:00","22.9","","17.6","","72","","","","0","","19.3","","100.68","","29","","","","Mainly Clear"
"1999-09-03 21:00","1999","09","03","21:00","21.8","","16.9","","74","","36","","6","","24.1","","100.71","","27","","","","Mainly Clear"
"1999-09-03 22:00","1999","09","03","22:00","21.6","","17.4","","77","","4","","4","","24.1","","100.71","","27","","","","Mainly Clear"
"1999-09-03 23:00","1999","09","03","23:00"
"1999-09-04 00:00","1999","09","04","00:00"
"1999-09-04 01:00","1999","09","04","01:00"
"1999-09-04 02:00","1999","09","04","02:00"
"1999-09-04 03:00","1999","09","04","03:00"
"1999-09-04 04:00","1999","09","04","04:00"
"1999-09-04 05:00","1999","09","04","05:00","18.3","","16.8","","91","","6","","4","","12.9","","100.81","","","","","","Mostly Cloudy"
"1999-09-04 06:00","1999","09","04","06:00","17.2","","16.4","","95","","2","","6","","9.7","","100.88","","","","","","Fog"
"1999-09-04 07:00","1999","09","04","07:00","19.7","","18.0","","90","","5","","4","","9.7","","100.91","","","","","","Fog"
"1999-09-04 08:00","1999","09","04","08:00","22.3","","17.7","","75","","10","","4","","9.7","","100.95","","28","","","","Haze"
"1999-09-04 09:00","1999","09","04","09:00","23.2","","17.7","","71","","16","","7","","9.7","","100.95","","29","","","","Haze"
"1999-09-04 10:00","1999","09","04","10:00","23.2","","19.1","","78","","16","","11","","11.3","","100.95","","30","","","","Mostly Cloudy"
"1999-09-04 11:00","1999","09","04","11:00","23.6","","19.4","","77","","18","","9","","11.3","","100.95","","31","","","","Mainly Clear"
"1999-09-04 12:00","1999","09","04","12:00","24.2","","19.3","","74","","16","","13","","11.3","","100.91","","31","","","","Mainly Clear"
"1999-09-04 13:00","1999","09","04","13:00","25.5","","19.8","","71","","16","","11","","12.9","","100.91","","33","","","","Mostly Cloudy"
"1999-09-04 14:00","1999","09","04","14:00","25.3","","18.7","","67","","18","","11","","12.9","","100.85","","32","","","","Mostly Cloudy"
"1999-09-04 15:00","1999","09","04","15:00","27.0","","17.8","","57","","19","","7","","19.3","","100.81","","33","","","","Cloudy"
"1999-09-04 16:00","1999","09","04","16:00","27.9","","16.9","","51","","23","","11","","19.3","","100.78","","33","","","","Cloudy"
"1999-09-04 17:00","1999","09","04","17:00","27.8","","16.7","","51","","26","","7","","19.3","","100.78","","33","","","","Cloudy"
"1999-09-04 18:00","1999","09","04","18:00","27.2","","16.4","","52","","28","","7","","19.3","","100.75","","32","","","","Cloudy"
"1999-09-04 19:00","1999","09","04","19:00","26.1","","15.8","","53","","34","","4","","24.1","","100.78","","31","","","","Mostly Cloudy"
"1999-09-04 20:00","1999","09","04","20:00","25.1","","16.1","","57","","","","0","","24.1","","100.81","","30","","","","Mostly Cloudy"
"1999-09-04 21:00","1999","09","04","21:00","23.5","","17.6","","69","","12","","6","","24.1","","100.85","","29","","","","Mostly Cloudy"
"1999-09-04 22:00","1999","09","04","22:00","23.5","","18.5","","74","","11","","4","","24.1","","100.85","","30","","","","Mostly Cloudy"
"1999-09-04 23:00","1999","09","04","23:00"
"1999-09-05 00:00","1999","09","05","00:00"
"1999-09-05 01:00","1999","09","05","01:00"
"1999-09-05 02:00","1999","09","05","02:00"
"1999-09-05 03:00","1999","09","05","03:00"
"1999-09-05 04:00","1999","09","05","04:00"
"1999-09-05 05:00","1999","09","05","05:00","22.9","","19.3","","80","","16","","13","","24.1","","100.88","","30","","","","Cloudy"
"1999-09-05 06:00","1999","09","05","06:00","22.6","","19.4","","82","","17","","17","","24.1","","100.88","","30","","","","Cloudy"
"1999-09-05 07:00","1999","09","05","07:00","22.6","","19.5","","83","","16","","17","","24.1","","100.95","","30","","","","Cloudy"
"1999-09-05 08:00","1999","09","05","08:00","23.0","","19.5","","81","","17","","20","","24.1","","100.95","","30","","","","Cloudy"
"1999-09-05 09:00","1999","09","05","09:00","22.7","","19.1","","80","","17","","20","","24.1","","100.98","","30","","","","Cloudy"
"1999-09-05 10:00","1999","09","05","10:00","23.9","","19.9","","78","","17","","15","","24.1","","100.98","","31","","","","Cloudy"
"1999-09-05 11:00","1999","09","05","11:00","23.8","","19.8","","78","","17","","11","","24.1","","100.95","","31","","","","Cloudy"
"1999-09-05 12:00","1999","09","05","12:00","24.3","","19.8","","76","","17","","13","","24.1","","100.95","","32","","","","Cloudy"
"1999-09-05 13:00","1999","09","05","13:00","24.8","","19.1","","71","","18","","13","","24.1","","100.88","","32","","","","Cloudy"
"1999-09-05 14:00","1999","09","05","14:00","25.5","","16.3","","57","","22","","6","","24.1","","100.85","","30","","","","Cloudy"
"1999-09-05 15:00","1999","09","05","15:00","26.7","","14.3","","47","","","","0","","24.1","","100.75","","30","","","","Cloudy"
"1999-09-05 16:00","1999","09","05","16:00","27.2","","13.0","","42","","31","","7","","24.1","","100.68","","30","","","","Mostly Cloudy"
"1999-09-05 17:00","1999","09","05","17:00","27.3","","13.7","","43","","","","0","","24.1","","100.68","","30","","","","Mostly Cloudy"
"1999-09-05 18:00","1999","09","05","18:00","27.4","","13.2","","42","","4","","6","","24.1","","100.64","","30","","","","Mostly Cloudy"
"1999-09-05 19:00","1999","09","05","19:00","26.8","","12.3","","41","","6","","7","","24.1","","100.61","","29","","","","Mostly Cloudy"
"1999-09-05 20:00","1999","09","05","20:00","26.0","","12.7","","44","","7","","9","","24.1","","100.61","","29","","","","Mostly Cloudy"
"1999-09-05 21:00","1999","09","05","21:00","24.5","","15.0","","55","","8","","9","","24.1","","100.58","","28","","","","Mostly Cloudy"
"1999-09-05 22:00","1999","09","05","22:00","25.1","","16.4","","59","","12","","11","","24.1","","100.58","","30","","","","Mostly Cloudy"
"1999-09-05 23:00","1999","09","05","23:00"
"1999-09-06 00:00","1999","09","06","00:00"
"1999-09-06 01:00","1999","09","06","01:00"
"1999-09-06 02:00","1999","09","06","02:00"
"1999-09-06 03:00","1999","09","06","03:00"
"1999-09-06 04:00","1999","09","06","04:00"
"1999-09-06 05:00","1999","09","06","05:00","21.4","","21.1","","98","","11","","9","","16.1","","100.44","","30","","","","Rain Showers"
"1999-09-06 06:00","1999","09","06","06:00","21.3","","21.0","","98","","9","","9","","19.3","","100.41","","30","","","","Cloudy"
"1999-09-06 07:00","1999","09","06","07:00","21.6","","21.2","","98","","11","","11","","24.1","","100.38","","30","","","","Cloudy"
"1999-09-06 08:00","1999","09","06","08:00","22.0","","21.0","","94","","14","","11","","11.3","","100.41","","30","","","","Rain Showers"
"1999-09-06 09:00","1999","09","06","09:00","22.4","","21.6","","95","","16","","19","","16.1","","100.38","","31","","","","Rain Showers"
"1999-09-06 10:00","1999","09","06","10:00","23.1","","21.9","","93","","16","","19","","19.3","","100.34","","32","","","","Cloudy"
"1999-09-06 11:00","1999","09","06","11:00","23.3","","21.8","","91","","18","","19","","19.3","","100.31","","32","","","","Cloudy"
"1999-09-06 12:00","1999","09","06","12:00","23.9","","22.0","","89","","17","","15","","19.3","","100.24","","33","","","","Mostly Cloudy"
"1999-09-06 13:00","1999","09","06","13:00","25.2","","22.2","","83","","16","","15","","19.3","","100.18","","35","","","","Mainly Clear"
"1999-09-06 14:00","1999","09","06","14:00","26.1","","22.5","","81","","17","","11","","19.3","","100.11","","36","","","","Mainly Clear"
"1999-09-06 15:00","1999","09","06","15:00","25.9","","22.0","","79","","16","","11","","19.3","","100.04","","35","","","","Mainly Clear"
"1999-09-06 16:00","1999","09","06","16:00","26.0","","21.9","","78","","17","","9","","19.3","","99.97","","35","","","","Mainly Clear"
"1999-09-06 17:00","1999","09","06","17:00","26.8","","20.6","","69","","14","","7","","19.3","","99.94","","35","","","","Mainly Clear"
"1999-09-06 18:00","1999","09","06","18:00","26.5","","19.9","","67","","","","0","","19.3","","99.94","","34","","","","Mostly Cloudy"
"1999-09-06 19:00","1999","09","06","19:00","26.2","","20.5","","71","","7","","4","","19.3","","99.97","","34","","","","Cloudy"
"1999-09-06 20:00","1999","09","06","20:00","25.5","","20.7","","75","","8","","4","","19.3","","100.01","","34","","","","Mainly Clear"
"1999-09-06 21:00","1999","09","06","21:00","24.8","","20.7","","78","","7","","4","","19.3","","100.01","","33","","","","Mainly Clear"
"1999-09-06 22:00","1999","09","06","22:00","25.3","","20.2","","73","","12","","6","","19.3","","99.97","","33","","","","Cloudy"
"1999-09-06 23:00","1999","09","06","23:00"
"1999-09-07 00:00","1999","09","07","00:00"
"1999-09-07 01:00","1999","09","07","01:00"
"1999-09-07 02:00","1999","09","07","02:00"
"1999-09-07 03:00","1999","09","07","03:00"
"1999-09-07 04:00","1999","09","07","04:00"
"1999-09-07 05:00","1999","09","07","05:00","22.7","","21.6","","94","","21","","13","","9.7","","100.01","","32","","","","Rain,Fog"
"1999-09-07 06:00","1999","09","07","06:00","22.5","","21.6","","95","","17","","7","","9.7","","100.04","","31","","","","Rain,Fog"
"1999-09-07 07:00","1999","09","07","07:00","22.0","","20.8","","93","","13","","11","","8.0","","100.04","","30","","","","Rain,Fog"
"1999-09-07 08:00","1999","09","07","08:00","21.8","","20.6","","93","","7","","7","","8.0","","100.01","","30","","","","Rain,Fog"
"1999-09-07 09:00","1999","09","07","09:00","22.0","","20.7","","92","","6","","13","","8.0","","99.97","","30","","","","Rain,Fog"
"1999-09-07 10:00","1999","09","07","10:00","21.9","","20.7","","93","","9","","19","","6.4","","99.94","","30","","","","Rain,Fog"
"1999-09-07 11:00","1999","09","07","11:00","20.4","","19.8","","96","","8","","24","","2.8","","99.87","","28","","","","Moderate Rain,Fog"
"1999-09-07 12:00","1999","09","07","12:00","19.9","","19.4","","97","","5","","30","","2.8","","99.81","","","","","","Rain,Fog"
"1999-09-07 13:00","1999","09","07","13:00","19.9","","19.7","","99","","5","","24","","2.8","","99.77","","","","","","Rain,Fog"
"1999-09-07 14:00","1999","09","07","14:00","19.8","","19.6","","99","","5","","22","","2.4","","99.74","","","","","","Rain,Fog"
"1999-09-07 15:00","1999","09","07","15:00","19.9","","19.7","","99","","5","","24","","2.4","","99.64","","","","","","Rain,Fog"
"1999-09-07 16:00","1999","09","07","16:00","20.3","","20.0","","98","","4","","17","","6.4","","99.64","","28","","","","Fog"
"1999-09-07 17:00","1999","09","07","17:00","20.4","","20.0","","98","","4","","13","","9.7","","99.60","","28","","","","Fog"
"1999-09-07 18:00","1999","09","07","18:00","20.3","","19.8","","97","","4","","19","","9.7","","99.64","","28","","","","Fog"
"1999-09-07 19:00","1999","09","07","19:00","20.2","","19.7","","97","","4","","15","","8.0","","99.64","","28","","","","Fog"
"1999-09-07 20:00","1999","09","07","20:00","20.1","","19.6","","97","","2","","19","","8.0","","99.67","","27","","","","Fog"
"1999-09-07 21:00","1999","09","07","21:00","20.0","","19.6","","98","","3","","15","","6.4","","99.67","","27","","","","Rain,Fog"
"1999-09-07 22:00","1999","09","07","22:00","20.0","","19.6","","98","","2","","15","","6.4","","99.71","","27","","","","Rain,Fog"
"1999-09-07 23:00","1999","09","07","23:00"
"1999-09-08 00:00","1999","09","08","00:00"
"1999-09-08 01:00","1999","09","08","01:00"
"1999-09-08 02:00","1999","09","08","02:00"
"1999-09-08 03:00","1999","09","08","03:00"
"1999-09-08 04:00","1999","09","08","04:00"
"1999-09-08 05:00","1999","09","08","05:00","19.8","","19.8","","100","","29","","11","","6.4","","99.60","","","","","","Rain Showers,Fog"
"1999-09-08 06:00","1999","09","08","06:00","19.8","","19.8","","100","","28","","11","","4.0","","99.64","","","","","","Rain Showers,Fog"
"1999-09-08 07:00","1999","09","08","07:00","19.5","","19.5","","100","","29","","17","","4.8","","99.67","","","","","","Rain Showers,Fog"
"1999-09-08 08:00","1999","09","08","08:00","19.7","","19.6","","99","","31","","19","","4.8","","99.67","","","","","","Rain Showers,Fog"
"1999-09-08 09:00","1999","09","08","09:00","20.2","","19.9","","98","","29","","17","","9.7","","99.71","","28","","","","Fog"
"1999-09-08 10:00","1999","09","08","10:00","20.6","","19.9","","96","","28","","11","","9.7","","99.71","","28","","","","Fog"
"1999-09-08 11:00","1999","09","08","11:00","21.1","","19.9","","93","","30","","11","","12.9","","99.71","","29","","","","Cloudy"
"1999-09-08 12:00","1999","09","08","12:00","21.4","","19.7","","90","","27","","13","","12.9","","99.74","","29","","","","Cloudy"
"1999-09-08 13:00","1999","09","08","13:00","23.9","","19.8","","78","","23","","17","","19.3","","99.67","","31","","","","Mostly Cloudy"
"1999-09-08 14:00","1999","09","08","14:00","22.3","","20.0","","87","","23","","19","","16.1","","99.67","","30","","","","Rain Showers"
"1999-09-08 15:00","1999","09","08","15:00","22.7","","20.7","","88","","24","","9","","19.3","","99.67","","31","","","","Mostly Cloudy"
"1999-09-08 16:00","1999","09","08","16:00","23.4","","20.6","","84","","20","","15","","16.1","","99.67","","31","","","","Mostly Cloudy"
"1999-09-08 17:00","1999","09","08","17:00","23.6","","20.4","","82","","23","","11","","11.3","","99.64","","32","","","","Mostly Cloudy"
"1999-09-08 18:00","1999","09","08","18:00","22.2","","21.2","","94","","21","","13","","9.7","","99.67","","31","","","","Fog"
"1999-09-08 19:00","1999","09","08","19:00","22.2","","20.1","","88","","25","","13","","8.0","","99.71","","30","","","","Fog"
"1999-09-08 20:00","1999","09","08","20:00","21.7","","18.3","","81","","22","","7","","11.3","","99.77","","28","","","","Mostly Cloudy"
"1999-09-08 21:00","1999","09","08","21:00","21.7","","18.0","","79","","24","","9","","16.1","","99.77","","28","","","","Mostly Cloudy"
"1999-09-08 22:00","1999","09","08","22:00","20.9","","18.3","","85","","24","","7","","12.9","","99.74","","27","","","","Mostly Cloudy"
"1999-09-08 23:00","1999","09","08","23:00"
"1999-09-09 00:00","1999","09","09","00:00"
"1999-09-09 01:00","1999","09","09","01:00"
"1999-09-09 02:00","1999","09","09","02:00"
"1999-09-09 03:00","1999","09","09","03:00"
"1999-09-09 04:00","1999","09","09","04:00"
"1999-09-09 05:00","1999","09","09","05:00","21.5","","20.5","","94","","18","","13","","6.4","","99.77","","29","","","","Fog"
"1999-09-09 06:00","1999","09","09","06:00","21.1","","20.4","","96","","18","","19","","6.4","","99.77","","29","","","","Fog"
"1999-09-09 07:00","1999","09","09","07:00","21.4","","20.1","","92","","18","","15","","6.4","","99.77","","29","","","","Fog"
"1999-09-09 08:00","1999","09","09","08:00","21.5","","20.1","","92","","20","","17","","6.4","","99.77","","29","","","","Fog"
"1999-09-09 09:00","1999","09","09","09:00","22.0","","20.2","","90","","18","","19","","6.4","","99.77","","30","","","","Fog"
"1999-09-09 10:00","1999","09","09","10:00","22.2","","20.1","","88","","20","","20","","8.0","","99.77","","30","","","","Fog"
"1999-09-09 11:00","1999","09","09","11:00","22.6","","20.6","","88","","19","","19","","4.8","","99.77","","31","","","","Haze"
"1999-09-09 12:00","1999","09","09","12:00","22.9","","20.7","","87","","21","","9","","6.4","","99.74","","31","","","","Haze"
"1999-09-09 13:00","1999","09","09","13:00","24.2","","18.9","","72","","28","","15","","6.4","","99.77","","31","","","","Haze"
"1999-09-09 14:00","1999","09","09","14:00","20.1","","18.8","","92","","31","","15","","4.0","","99.84","","27","","","","Rain Showers,Fog"
"1999-09-09 15:00","1999","09","09","15:00","20.2","","18.5","","90","","5","","6","","6.4","","99.74","","27","","","","Fog"
"1999-09-09 16:00","1999","09","09","16:00","20.6","","18.9","","90","","15","","6","","11.3","","99.74","","27","","","","Rain Showers"
"1999-09-09 17:00","1999","09","09","17:00","21.1","","18.7","","86","","17","","4","","11.3","","99.74","","28","","","","Cloudy"
"1999-09-09 18:00","1999","09","09","18:00","21.3","","19.2","","88","","20","","4","","11.3","","99.71","","28","","","","Cloudy"
"1999-09-09 19:00","1999","09","09","19:00","20.9","","18.9","","88","","17","","4","","12.9","","99.74","","28","","","","Cloudy"
"1999-09-09 20:00","1999","09","09","20:00","20.3","","19.3","","94","","","","0","","11.3","","99.74","","27","","","","Cloudy"
"1999-09-09 21:00","1999","09","09","21:00","20.2","","19.5","","96","","","","0","","11.3","","99.77","","27","","","","Thunderstorms,Rain Showers"
"1999-09-09 22:00","1999","09","09","22:00","20.8","","19.4","","92","","","","0","","11.3","","99.77","","28","","","","Cloudy"
"1999-09-09 23:00","1999","09","09","23:00"
"1999-09-10 00:00","1999","09","10","00:00"
"1999-09-10 01:00","1999","09","10","01:00"
"1999-09-10 02:00","1999","09","10","02:00"
"1999-09-10 03:00","1999","09","10","03:00"
"1999-09-10 04:00","1999","09","10","04:00"
"1999-09-10 05:00","1999","09","10","05:00","18.6","","14.7","","78","","14","","22","","24.1","","99.74","","","","","","Cloudy"
"1999-09-10 06:00","1999","09","10","06:00","18.7","","16.4","","86","","17","","17","","24.1","","99.77","","","","","","Cloudy"
"1999-09-10 07:00","1999","09","10","07:00","19.1","","16.2","","83","","18","","11","","24.1","","99.81","","","","","","Mostly Cloudy"
"1999-09-10 08:00","1999","09","10","08:00","19.9","","17.1","","84","","18","","15","","24.1","","99.81","","","","","","Mostly Cloudy"
"1999-09-10 09:00","1999","09","10","09:00","19.7","","17.8","","89","","18","","24","","24.1","","99.84","","","","","","Cloudy"
"1999-09-10 10:00","1999","09","10","10:00","20.5","","17.6","","83","","18","","19","","24.1","","99.84","","26","","","","Mostly Cloudy"
"1999-09-10 11:00","1999","09","10","11:00","20.9","","18.1","","84","","18","","20","","24.1","","99.81","","27","","","","Mostly Cloudy"
"1999-09-10 12:00","1999","09","10","12:00","21.9","","19.0","","84","","20","","22","","19.3","","99.74","","29","","","","Mostly Cloudy"
"1999-09-10 13:00","1999","09","10","13:00","22.4","","18.5","","79","","20","","22","","24.1","","99.67","","29","","","","Mostly Cloudy"
"1999-09-10 14:00","1999","09","10","14:00","22.9","","11.7","","49","","25","","26","","24.1","","99.64","","25","","","","Mostly Cloudy"
"1999-09-10 15:00","1999","09","10","15:00","23.9","","12.3","","48","","24","","24","","24.1","","99.64","","26","","","","Mostly Cloudy"
"1999-09-10 16:00","1999","09","10","16:00","22.8","","13.4","","55","","25","","19","","24.1","","99.64","","26","","","","Mainly Clear"
"1999-09-10 17:00","1999","09","10","17:00","21.8","","10.8","","50","","25","","28","","24.1","","99.67","","","","","","Mainly Clear"
"1999-09-10 18:00","1999","09","10","18:00","20.8","","10.8","","53","","26","","19","","24.1","","99.74","","","","","","Mainly Clear"
"1999-09-10 19:00","1999","09","10","19:00","20.0","","10.8","","55","","25","","24","","24.1","","99.77","","","","","","Mainly Clear"
"1999-09-10 20:00","1999","09","10","20:00","19.3","","12.3","","64","","25","","19","","24.1","","99.84","","","","","","Mostly Cloudy"
"1999-09-10 21:00","1999","09","10","21:00","19.0","","10.8","","59","","26","","19","","24.1","","99.87","","","","","","Mainly Clear"
"1999-09-10 22:00","1999","09","10","22:00","17.7","","10.5","","63","","26","","9","","24.1","","99.91","","","","","","Clear"
"1999-09-10 23:00","1999","09","10","23:00"
"1999-09-11 00:00","1999","09","11","00:00"
"1999-09-11 01:00","1999","09","11","01:00"
"1999-09-11 02:00","1999","09","11","02:00"
"1999-09-11 03:00","1999","09","11","03:00"
"1999-09-11 04:00","1999","09","11","04:00"
"1999-09-11 05:00","1999","09","11","05:00","18.0","","13.1","","73","","23","","15","","24.1","","99.87","","","","","","Mostly Cloudy"
"1999-09-11 06:00","1999","09","11","06:00","18.4","","11.4","","64","","26","","19","","24.1","","99.91","","","","","","Mainly Clear"
"1999-09-11 07:00","1999","09","11","07:00","17.6","","11.9","","69","","23","","11","","24.1","","99.94","","","","","","Mainly Clear"
"1999-09-11 08:00","1999","09","11","08:00","18.9","","11.5","","62","","25","","19","","24.1","","99.97","","","","","","Mainly Clear"
"1999-09-11 09:00","1999","09","11","09:00","19.6","","10.6","","56","","27","","19","","24.1","","100.07","","","","","","Mainly Clear"
"1999-09-11 10:00","1999","09","11","10:00","20.7","","11.6","","56","","26","","24","","24.1","","100.11","","","","","","Mainly Clear"
"1999-09-11 11:00","1999","09","11","11:00","21.5","","10.3","","49","","27","","22","","24.1","","100.11","","","","","","Mostly Cloudy"
"1999-09-11 12:00","1999","09","11","12:00","21.7","","11.1","","51","","25","","24","","24.1","","100.14","","","","","","Mostly Cloudy"
"1999-09-11 13:00","1999","09","11","13:00","21.1","","11.1","","53","","30","","17","","24.1","","100.21","","","","","","Mostly Cloudy"
"1999-09-11 14:00","1999","09","11","14:00","21.4","","10.7","","50","","28","","19","","24.1","","100.24","","","","","","Mostly Cloudy"
"1999-09-11 15:00","1999","09","11","15:00","21.3","","11.1","","52","","25","","19","","24.1","","100.24","","","","","","Mostly Cloudy"
"1999-09-11 16:00","1999","09","11","16:00","21.2","","10.2","","49","","26","","19","","24.1","","100.31","","","","","","Mainly Clear"
"1999-09-11 17:00","1999","09","11","17:00","21.3","","12.1","","56","","24","","19","","24.1","","100.34","","","","","","Mainly Clear"
"1999-09-11 18:00","1999","09","11","18:00","20.4","","11.8","","58","","25","","19","","24.1","","100.41","","","","","","Mainly Clear"
"1999-09-11 19:00","1999","09","11","19:00","19.9","","12.4","","62","","26","","19","","24.1","","100.51","","","","","","Mainly Clear"
"1999-09-11 20:00","1999","09","11","20:00","18.4","","11.9","","66","","28","","11","","24.1","","100.58","","","","","","Clear"
"1999-09-11 21:00","1999","09","11","21:00","17.2","","11.5","","69","","29","","11","","24.1","","100.64","","","","","","Clear"
"1999-09-11 22:00","1999","09","11","22:00","16.4","","11.1","","71","","31","","11","","24.1","","100.71","","","","","","Clear"
"1999-09-11 23:00","1999","09","11","23:00"
"1999-09-12 00:00","1999","09","12","00:00"
"1999-09-12 01:00","1999","09","12","01:00"
"1999-09-12 02:00","1999","09","12","02:00"
"1999-09-12 03:00","1999","09","12","03:00"
"1999-09-12 04:00","1999","09","12","04:00"
"1999-09-12 05:00","1999","09","12","05:00","9.6","","9.2","","97","","34","","6","","24.1","","100.98","","","","","","Mainly Clear"
"1999-09-12 06:00","1999","09","12","06:00","9.3","","9.1","","99","","34","","9","","24.1","","101.05","","","","","","Mainly Clear"
"1999-09-12 07:00","1999","09","12","07:00","11.8","","10.7","","93","","1","","6","","24.1","","101.08","","","","","","Mainly Clear"
"1999-09-12 08:00","1999","09","12","08:00","16.1","","13.2","","83","","36","","4","","24.1","","101.11","","","","","","Mainly Clear"
"1999-09-12 09:00","1999","09","12","09:00","18.8","","12.6","","67","","15","","6","","24.1","","101.18","","","","","","Mainly Clear"
"1999-09-12 10:00","1999","09","12","10:00","18.8","","15.8","","83","","16","","9","","24.1","","101.15","","","","","","Mainly Clear"
"1999-09-12 11:00","1999","09","12","11:00","20.0","","16.3","","79","","17","","24","","24.1","","101.15","","25","","","","Mainly Clear"
"1999-09-12 12:00","1999","09","12","12:00","20.2","","16.2","","78","","17","","19","","24.1","","101.11","","25","","","","Mainly Clear"
"1999-09-12 13:00","1999","09","12","13:00","20.6","","16.1","","75","","18","","19","","24.1","","101.08","","25","","","","Mainly Clear"
"1999-09-12 14:00","1999","09","12","14:00","20.7","","14.9","","69","","16","","15","","24.1","","101.01","","25","","","","Mainly Clear"
"1999-09-12 15:00","1999","09","12","15:00","21.2","","13.9","","63","","16","","11","","24.1","","100.91","","25","","","","Mainly Clear"
"1999-09-12 16:00","1999","09","12","16:00","21.5","","11.8","","54","","20","","6","","24.1","","100.95","","","","","","Mainly Clear"
"1999-09-12 17:00","1999","09","12","17:00","21.4","","12.1","","55","","15","","4","","24.1","","100.85","","","","","","Mainly Clear"
"1999-09-12 18:00","1999","09","12","18:00","21.0","","13.2","","61","","11","","4","","24.1","","100.85","","","","","","Mainly Clear"
"1999-09-12 19:00","1999","09","12","19:00","20.4","","13.4","","64","","7","","6","","24.1","","100.85","","","","","","Mainly Clear"
"1999-09-12 20:00","1999","09","12","20:00","19.5","","12.3","","63","","7","","9","","24.1","","100.85","","","","","","Mainly Clear"
"1999-09-12 21:00","1999","09","12","21:00","18.9","","13.2","","69","","9","","9","","24.1","","100.81","","","","","","Mainly Clear"
"1999-09-12 22:00","1999","09","12","22:00","20.2","","13.6","","66","","10","","11","","24.1","","100.81","","","","","","Mainly Clear"
"1999-09-12 23:00","1999","09","12","23:00"
"1999-09-13 00:00","1999","09","13","00:00"
"1999-09-13 01:00","1999","09","13","01:00"
"1999-09-13 02:00","1999","09","13","02:00"
"1999-09-13 03:00","1999","09","13","03:00"
"1999-09-13 04:00","1999","09","13","04:00"
"1999-09-13 05:00","1999","09","13","05:00","20.8","","16.2","","75","","18","","26","","24.1","","100.61","","26","","","","Mainly Clear"
"1999-09-13 06:00","1999","09","13","06:00","20.7","","16.1","","75","","18","","30","","24.1","","100.61","","25","","","","Cloudy"
"1999-09-13 07:00","1999","09","13","07:00","20.8","","16.0","","74","","18","","24","","24.1","","100.61","","25","","","","Cloudy"
"1999-09-13 08:00","1999","09","13","08:00","20.7","","16.1","","75","","18","","30","","24.1","","100.61","","25","","","","Cloudy"
"1999-09-13 09:00","1999","09","13","09:00","21.1","","16.0","","73","","18","","30","","24.1","","100.64","","26","","","","Cloudy"
"1999-09-13 10:00","1999","09","13","10:00","21.5","","16.8","","75","","18","","30","","19.3","","100.58","","27","","","","Cloudy"
"1999-09-13 11:00","1999","09","13","11:00","22.9","","17.1","","70","","19","","24","","19.3","","100.58","","28","","","","Cloudy"
"1999-09-13 12:00","1999","09","13","12:00","23.2","","17.4","","70","","19","","28","","19.3","","100.54","","29","","","","Mostly Cloudy"
"1999-09-13 13:00","1999","09","13","13:00","23.6","","17.6","","69","","20","","26","","19.3","","100.51","","29","","","","Mostly Cloudy"
"1999-09-13 14:00","1999","09","13","14:00","23.5","","17.7","","70","","20","","22","","19.3","","100.51","","29","","","","Mostly Cloudy"
"1999-09-13 15:00","1999","09","13","15:00","23.9","","15.8","","61","","24","","11","","19.3","","100.48","","28","","","","Mostly Cloudy"
"1999-09-13 16:00","1999","09","13","16:00","23.4","","16.1","","64","","25","","11","","16.1","","100.44","","28","","","","Cloudy"
"1999-09-13 17:00","1999","09","13","17:00","22.0","","15.8","","68","","27","","7","","24.1","","100.48","","26","","","","Cloudy"
"1999-09-13 18:00","1999","09","13","18:00","20.5","","16.5","","78","","29","","11","","16.1","","100.44","","25","","","","Cloudy"
"1999-09-13 19:00","1999","09","13","19:00","19.8","","17.2","","85","","28","","11","","16.1","","100.51","","","","","","Rain Showers"
"1999-09-13 20:00","1999","09","13","20:00","18.9","","17.9","","94","","23","","9","","9.7","","100.58","","","","","","Rain Showers,Fog"
"1999-09-13 21:00","1999","09","13","21:00","18.7","","18.0","","96","","16","","4","","11.3","","100.51","","","","","","Rain Showers"
"1999-09-13 22:00","1999","09","13","22:00","19.4","","18.5","","95","","19","","6","","12.9","","100.51","","","","","","Rain Showers"
"1999-09-13 23:00","1999","09","13","23:00"
"1999-09-14 00:00","1999","09","14","00:00"
"1999-09-14 01:00","1999","09","14","01:00"
"1999-09-14 02:00","1999","09","14","02:00"
"1999-09-14 03:00","1999","09","14","03:00"
"1999-09-14 04:00","1999","09","14","04:00"
"1999-09-14 05:00","1999","09","14","05:00","19.7","","18.3","","92","","24","","7","","9.7","","100.48","","","","","","Fog"
"1999-09-14 06:00","1999","09","14","06:00","19.7","","18.4","","92","","22","","11","","9.7","","100.51","","","","","","Fog"
"1999-09-14 07:00","1999","09","14","07:00","20.0","","18.0","","88","","21","","9","","12.9","","100.51","","26","","","","Cloudy"
"1999-09-14 08:00","1999","09","14","08:00","19.9","","17.5","","86","","22","","11","","12.9","","100.51","","","","","","Cloudy"
"1999-09-14 09:00","1999","09","14","09:00","20.2","","17.8","","86","","22","","11","","16.1","","100.58","","26","","","","Cloudy"
"1999-09-14 10:00","1999","09","14","10:00","20.3","","18.1","","87","","22","","11","","16.1","","100.58","","26","","","","Cloudy"
"1999-09-14 11:00","1999","09","14","11:00","20.8","","18.2","","85","","22","","15","","16.1","","100.61","","27","","","","Cloudy"
"1999-09-14 12:00","1999","09","14","12:00","21.1","","18.3","","84","","19","","22","","12.9","","100.58","","27","","","","Cloudy"
"1999-09-14 13:00","1999","09","14","13:00","21.6","","18.3","","82","","20","","20","","12.9","","100.58","","28","","","","Mostly Cloudy"
"1999-09-14 14:00","1999","09","14","14:00","21.4","","18.2","","82","","19","","24","","12.9","","100.54","","28","","","","Mainly Clear"
"1999-09-14 15:00","1999","09","14","15:00","21.5","","17.5","","78","","20","","22","","12.9","","100.54","","27","","","","Mainly Clear"
"1999-09-14 16:00","1999","09","14","16:00","21.0","","17.6","","81","","21","","13","","12.9","","100.51","","27","","","","Mainly Clear"
"1999-09-14 17:00","1999","09","14","17:00","20.8","","14.8","","69","","23","","13","","19.3","","100.51","","25","","","","Mostly Cloudy"
"1999-09-14 18:00","1999","09","14","18:00","20.6","","11.9","","57","","25","","9","","24.1","","100.51","","","","","","Mostly Cloudy"
"1999-09-14 19:00","1999","09","14","19:00","20.1","","11.9","","59","","25","","11","","24.1","","100.54","","","","","","Mostly Cloudy"
"1999-09-14 20:00","1999","09","14","20:00","19.5","","11.5","","60","","23","","11","","24.1","","100.61","","","","","","Mainly Clear"
"1999-09-14 21:00","1999","09","14","21:00","19.3","","11.5","","61","","22","","13","","24.1","","100.64","","","","","","Mainly Clear"
"1999-09-14 22:00","1999","09","14","22:00","18.8","","11.8","","64","","24","","9","","24.1","","100.64","","","","","","Clear"
"1999-09-14 23:00","1999","09","14","23:00"
"1999-09-15 00:00","1999","09","15","00:00"
"1999-09-15 01:00","1999","09","15","01:00"
"1999-09-15 02:00","1999","09","15","02:00"
"1999-09-15 03:00","1999","09","15","03:00"
"1999-09-15 04:00","1999","09","15","04:00"
"1999-09-15 05:00","1999","09","15","05:00","12.0","","9.8","","86","","29","","7","","24.1","","100.88","","","","","","Mainly Clear"
"1999-09-15 06:00","1999","09","15","06:00","11.7","","9.7","","88","","30","","7","","24.1","","100.88","","","","","","Mainly Clear"
"1999-09-15 07:00","1999","09","15","07:00","13.1","","11.4","","89","","","","0","","24.1","","100.91","","","","","","Mainly Clear"
"1999-09-15 08:00","1999","09","15","08:00","17.1","","10.8","","66","","26","","7","","24.1","","100.91","","","","","","Mainly Clear"
"1999-09-15 09:00","1999","09","15","09:00","18.5","","10.8","","61","","24","","11","","24.1","","100.91","","","","","","Mainly Clear"
"1999-09-15 10:00","1999","09","15","10:00","19.5","","8.2","","48","","24","","13","","24.1","","100.98","","","","","","Mainly Clear"
"1999-09-15 11:00","1999","09","15","11:00","20.8","","9.1","","47","","24","","17","","24.1","","100.95","","","","","","Mainly Clear"
"1999-09-15 12:00","1999","09","15","12:00","20.0","","10.5","","54","","19","","19","","24.1","","100.95","","","","","","Mostly Cloudy"
"1999-09-15 13:00","1999","09","15","13:00","19.6","","10.6","","56","","19","","24","","24.1","","100.91","","","","","","Cloudy"
"1999-09-15 14:00","1999","09","15","14:00","19.3","","12.6","","65","","19","","22","","24.1","","100.88","","","","","","Mostly Cloudy"
"1999-09-15 15:00","1999","09","15","15:00","19.3","","11.2","","59","","21","","19","","24.1","","100.85","","","","","","Cloudy"
"1999-09-15 16:00","1999","09","15","16:00","19.5","","9.5","","52","","23","","15","","24.1","","100.81","","","","","","Cloudy"
"1999-09-15 17:00","1999","09","15","17:00","19.3","","9.9","","54","","23","","11","","24.1","","100.81","","","","","","Cloudy"
"1999-09-15 18:00","1999","09","15","18:00","18.8","","10.1","","57","","20","","9","","24.1","","100.81","","","","","","Mostly Cloudy"
"1999-09-15 19:00","1999","09","15","19:00","18.5","","16.0","","85","","23","","6","","24.1","","100.81","","","","","","Mostly Cloudy"
"1999-09-15 20:00","1999","09","15","20:00","18.5","","10.3","","59","","22","","4","","24.1","","100.81","","","","","","Cloudy"
"1999-09-15 21:00","1999","09","15","21:00","15.2","","11.8","","80","","34","","6","","24.1","","100.78","","","","","","Cloudy"
"1999-09-15 22:00","1999","09","15","22:00","14.2","","11.9","","86","","36","","7","","24.1","","100.78","","","","","","Cloudy"
"1999-09-15 23:00","1999","09","15","23:00"
"1999-09-16 00:00","1999","09","16","00:00"
"1999-09-16 01:00","1999","09","16","01:00"
"1999-09-16 02:00","1999","09","16","02:00"
"1999-09-16 03:00","1999","09","16","03:00"
"1999-09-16 04:00","1999","09","16","04:00"
"1999-09-16 05:00","1999","09","16","05:00","12.2","","10.9","","92","","36","","9","","24.1","","100.68","","","","","","Cloudy"
"1999-09-16 06:00","1999","09","16","06:00","13.5","","11.4","","87","","3","","11","","24.1","","100.68","","","","","","Cloudy"
"1999-09-16 07:00","1999","09","16","07:00","14.3","","11.5","","83","","5","","15","","24.1","","100.61","","","","","","Cloudy"
"1999-09-16 08:00","1999","09","16","08:00","15.0","","10.8","","76","","4","","17","","24.1","","100.54","","","","","","Cloudy"
"1999-09-16 09:00","1999","09","16","09:00","15.5","","10.5","","72","","3","","19","","24.1","","100.61","","","","","","Cloudy"
"1999-09-16 10:00","1999","09","16","10:00","15.8","","10.4","","70","","4","","19","","24.1","","100.61","","","","","","Cloudy"
"1999-09-16 11:00","1999","09","16","11:00","16.2","","10.7","","70","","4","","19","","24.1","","100.51","","","","","","Cloudy"
"1999-09-16 12:00","1999","09","16","12:00","16.4","","10.9","","70","","3","","11","","24.1","","100.54","","","","","","Cloudy"
"1999-09-16 13:00","1999","09","16","13:00","16.3","","11.0","","71","","2","","20","","24.1","","100.41","","","","","","Cloudy"
"1999-09-16 14:00","1999","09","16","14:00","16.2","","11.4","","73","","2","","20","","24.1","","100.38","","","","","","Cloudy"
"1999-09-16 15:00","1999","09","16","15:00","16.3","","10.8","","70","","2","","20","","24.1","","100.31","","","","","","Cloudy"
"1999-09-16 16:00","1999","09","16","16:00","16.2","","11.1","","72","","2","","24","","24.1","","100.31","","","","","","Cloudy"
"1999-09-16 17:00","1999","09","16","17:00","16.1","","11.3","","73","","2","","22","","24.1","","100.21","","","","","","Cloudy"
"1999-09-16 18:00","1999","09","16","18:00","15.7","","12.0","","79","","2","","22","","24.1","","100.18","","","","","","Mostly Cloudy"
"1999-09-16 19:00","1999","09","16","19:00","15.4","","11.6","","78","","1","","24","","16.1","","100.07","","","","","","Rain Showers"
"1999-09-16 20:00","1999","09","16","20:00","15.4","","11.2","","76","","2","","30","","16.1","","100.04","","","","","","Rain"
"1999-09-16 21:00","1999","09","16","21:00","15.1","","10.2","","73","","1","","26","","16.1","","100.07","","","","","","Rain"
"1999-09-16 22:00","1999","09","16","22:00","14.5","","10.1","","75","","36","","30","","16.1","","99.97","","","","","","Rain"
"1999-09-16 23:00","1999","09","16","23:00"
"1999-09-17 00:00","1999","09","17","00:00"
"1999-09-17 01:00","1999","09","17","01:00"
"1999-09-17 02:00","1999","09","17","02:00"
"1999-09-17 03:00","1999","09","17","03:00"
"1999-09-17 04:00","1999","09","17","04:00"
"1999-09-17 05:00","1999","09","17","05:00","12.8","","8.9","","77","","34","","20","","24.1","","100.14","","","","","","Cloudy"
"1999-09-17 06:00","1999","09","17","06:00","12.5","","8.9","","79","","34","","19","","24.1","","100.24","","","","","","Mostly Cloudy"
"1999-09-17 07:00","1999","09","17","07:00","12.4","","8.9","","79","","34","","19","","24.1","","100.28","","","","","","Mostly Cloudy"
"1999-09-17 08:00","1999","09","17","08:00","12.7","","9.0","","78","","34","","20","","24.1","","100.28","","","","","","Mostly Cloudy"
"1999-09-17 09:00","1999","09","17","09:00","14.4","","9.3","","71","","34","","24","","24.1","","100.38","","","","","","Mostly Cloudy"
"1999-09-17 10:00","1999","09","17","10:00","15.7","","9.4","","66","","36","","20","","24.1","","100.44","","","","","","Mostly Cloudy"
"1999-09-17 11:00","1999","09","17","11:00","16.8","","9.2","","61","","34","","28","","24.1","","100.44","","","","","","Mostly Cloudy"
"1999-09-17 12:00","1999","09","17","12:00","18.0","","8.0","","52","","36","","22","","24.1","","100.44","","","","","","Mostly Cloudy"
"1999-09-17 13:00","1999","09","17","13:00","19.6","","8.4","","48","","34","","19","","24.1","","100.44","","","","","","Mostly Cloudy"
"1999-09-17 14:00","1999","09","17","14:00","20.0","","9.1","","49","","32","","19","","24.1","","100.48","","","","","","Mostly Cloudy"
"1999-09-17 15:00","1999","09","17","15:00","20.4","","7.8","","44","","34","","28","","24.1","","100.48","","","","","","Mostly Cloudy"
"1999-09-17 16:00","1999","09","17","16:00","20.3","","7.3","","43","","33","","19","","24.1","","100.51","","","","","","Mostly Cloudy"
"1999-09-17 17:00","1999","09","17","17:00","19.5","","7.5","","46","","36","","19","","24.1","","100.54","","","","","","Mostly Cloudy"
"1999-09-17 18:00","1999","09","17","18:00","19.0","","7.0","","46","","36","","13","","24.1","","100.61","","","","","","Mostly Cloudy"
"1999-09-17 19:00","1999","09","17","19:00","16.0","","7.8","","58","","35","","9","","24.1","","100.64","","","","","","Mainly Clear"
"1999-09-17 20:00","1999","09","17","20:00","14.9","","7.9","","63","","34","","7","","24.1","","100.68","","","","","","Mainly Clear"
"1999-09-17 21:00","1999","09","17","21:00","14.5","","8.3","","66","","32","","11","","24.1","","100.68","","","","","","Clear"
"1999-09-17 22:00","1999","09","17","22:00","13.4","","8.1","","70","","33","","11","","24.1","","100.71","","","","","","Clear"
"1999-09-17 23:00","1999","09","17","23:00"
"1999-09-18 00:00","1999","09","18","00:00"
"1999-09-18 01:00","1999","09","18","01:00"
"1999-09-18 02:00","1999","09","18","02:00"
"1999-09-18 03:00","1999","09","18","03:00"
"1999-09-18 04:00","1999","09","18","04:00"
"1999-09-18 05:00","1999","09","18","05:00","9.1","","7.6","","90","","34","","13","","24.1","","100.88","","","","","","Mainly Clear"
"1999-09-18 06:00","1999","09","18","06:00","8.9","","8.2","","95","","34","","13","","24.1","","100.91","","","","","","Mainly Clear"
"1999-09-18 07:00","1999","09","18","07:00","11.0","","9.4","","90","","35","","13","","24.1","","100.91","","","","","","Mainly Clear"
"1999-09-18 08:00","1999","09","18","08:00","14.0","","10.2","","78","","34","","11","","24.1","","100.91","","","","","","Mainly Clear"
"1999-09-18 09:00","1999","09","18","09:00","17.3","","10.3","","63","","36","","6","","24.1","","100.91","","","","","","Mainly Clear"
"1999-09-18 10:00","1999","09","18","10:00","18.4","","10.2","","59","","25","","11","","24.1","","100.95","","","","","","Mainly Clear"
"1999-09-18 11:00","1999","09","18","11:00","19.4","","12.2","","63","","29","","9","","24.1","","100.91","","","","","","Mainly Clear"
"1999-09-18 12:00","1999","09","18","12:00","19.3","","13.1","","67","","18","","17","","24.1","","100.88","","","","","","Mainly Clear"
"1999-09-18 13:00","1999","09","18","13:00","18.4","","11.4","","64","","20","","22","","24.1","","100.85","","","","","","Mainly Clear"
"1999-09-18 14:00","1999","09","18","14:00","19.7","","14.0","","70","","20","","24","","24.1","","100.78","","","","","","Mainly Clear"
"1999-09-18 15:00","1999","09","18","15:00","19.8","","13.6","","67","","20","","22","","24.1","","100.75","","","","","","Mainly Clear"
"1999-09-18 16:00","1999","09","18","16:00","19.9","","13.8","","68","","21","","20","","24.1","","100.68","","","","","","Mainly Clear"
"1999-09-18 17:00","1999","09","18","17:00","19.8","","13.0","","65","","23","","15","","24.1","","100.68","","","","","","Mostly Cloudy"
"1999-09-18 18:00","1999","09","18","18:00","19.2","","10.6","","57","","25","","19","","24.1","","100.64","","","","","","Mostly Cloudy"
"1999-09-18 19:00","1999","09","18","19:00","18.0","","10.9","","63","","25","","11","","24.1","","100.71","","","","","","Mainly Clear"
"1999-09-18 20:00","1999","09","18","20:00","17.5","","12.9","","74","","25","","11","","24.1","","100.75","","","","","","Mainly Clear"
"1999-09-18 21:00","1999","09","18","21:00","16.6","","13.3","","81","","24","","9","","24.1","","100.75","","","","","","Mainly Clear"
"1999-09-18 22:00","1999","09","18","22:00","16.5","","13.1","","80","","22","","7","","24.1","","100.78","","","","","","Clear"
"1999-09-18 23:00","1999","09","18","23:00"
"1999-09-19 00:00","1999","09","19","00:00"
"1999-09-19 01:00","1999","09","19","01:00"
"1999-09-19 02:00","1999","09","19","02:00"
"1999-09-19 03:00","1999","09","19","03:00"
"1999-09-19 04:00","1999","09","19","04:00"
"1999-09-19 05:00","1999","09","19","05:00","17.1","","14.4","","84","","18","","20","","24.1","","100.78","","","","","","Mainly Clear"
"1999-09-19 06:00","1999","09","19","06:00","17.0","","13.7","","81","","18","","22","","24.1","","100.81","","","","","","Mainly Clear"
"1999-09-19 07:00","1999","09","19","07:00","17.2","","14.3","","83","","18","","19","","24.1","","100.88","","","","","","Mainly Clear"
"1999-09-19 08:00","1999","09","19","08:00","17.5","","14.3","","81","","18","","20","","24.1","","100.88","","","","","","Clear"
"1999-09-19 09:00","1999","09","19","09:00","18.2","","13.9","","76","","18","","17","","24.1","","100.88","","","","","","Clear"
"1999-09-19 10:00","1999","09","19","10:00","18.1","","13.9","","76","","19","","17","","24.1","","100.88","","","","","","Clear"
"1999-09-19 11:00","1999","09","19","11:00","19.1","","14.2","","73","","19","","19","","24.1","","100.81","","","","","","Mainly Clear"
"1999-09-19 12:00","1999","09","19","12:00","19.6","","14.9","","74","","19","","24","","24.1","","100.75","","","","","","Mainly Clear"
"1999-09-19 13:00","1999","09","19","13:00","20.7","","14.9","","69","","19","","20","","24.1","","100.64","","25","","","","Mainly Clear"
"1999-09-19 14:00","1999","09","19","14:00","20.9","","15.3","","70","","19","","19","","24.1","","100.61","","25","","","","Mainly Clear"
"1999-09-19 15:00","1999","09","19","15:00","21.0","","15.3","","70","","19","","13","","24.1","","100.58","","25","","","","Mainly Clear"
"1999-09-19 16:00","1999","09","19","16:00","20.7","","16.0","","74","","16","","9","","24.1","","100.54","","25","","","","Mainly Clear"
"1999-09-19 17:00","1999","09","19","17:00","20.3","","16.2","","77","","16","","9","","24.1","","100.51","","25","","","","Mainly Clear"
"1999-09-19 18:00","1999","09","19","18:00","19.2","","15.8","","81","","17","","7","","24.1","","100.44","","","","","","Mainly Clear"
"1999-09-19 19:00","1999","09","19","19:00","18.6","","15.3","","81","","","","0","","24.1","","100.41","","","","","","Mainly Clear"
"1999-09-19 20:00","1999","09","19","20:00","17.1","","13.8","","81","","10","","6","","24.1","","100.38","","","","","","Mainly Clear"
"1999-09-19 21:00","1999","09","19","21:00","16.6","","13.7","","83","","9","","6","","24.1","","100.31","","","","","","Mostly Cloudy"
"1999-09-19 22:00","1999","09","19","22:00","16.6","","13.8","","84","","8","","7","","24.1","","100.28","","","","","","Mostly Cloudy"
"1999-09-19 23:00","1999","09","19","23:00"
"1999-09-20 00:00","1999","09","20","00:00"
"1999-09-20 01:00","1999","09","20","01:00"
"1999-09-20 02:00","1999","09","20","02:00"
"1999-09-20 03:00","1999","09","20","03:00"
"1999-09-20 04:00","1999","09","20","04:00"
"1999-09-20 05:00","1999","09","20","05:00","18.8","","15.7","","82","","20","","26","","24.1","","100.07","","","","","","Clear"
"1999-09-20 06:00","1999","09","20","06:00","18.6","","15.8","","84","","20","","26","","24.1","","100.07","","","","","","Mainly Clear"
"1999-09-20 07:00","1999","09","20","07:00","18.4","","16.1","","86","","19","","26","","24.1","","100.01","","","","","","Mainly Clear"
"1999-09-20 08:00","1999","09","20","08:00","18.6","","16.0","","85","","18","","22","","24.1","","100.01","","","","","","Mainly Clear"
"1999-09-20 09:00","1999","09","20","09:00","18.9","","16.2","","84","","19","","28","","24.1","","99.97","","","","","","Cloudy"
"1999-09-20 10:00","1999","09","20","10:00","19.8","","16.6","","82","","19","","33","","19.3","","99.91","","","","","","Cloudy"
"1999-09-20 11:00","1999","09","20","11:00","20.5","","16.7","","79","","19","","28","","24.1","","99.84","","26","","","","Cloudy"
"1999-09-20 12:00","1999","09","20","12:00","20.5","","16.7","","79","","19","","32","","24.1","","99.84","","26","","","","Cloudy"
"1999-09-20 13:00","1999","09","20","13:00","20.5","","16.6","","78","","20","","24","","24.1","","99.77","","26","","","","Cloudy"
"1999-09-20 14:00","1999","09","20","14:00","20.6","","17.5","","82","","20","","24","","24.1","","99.74","","26","","","","Cloudy"
"1999-09-20 15:00","1999","09","20","15:00","20.6","","17.7","","83","","22","","19","","24.1","","99.74","","26","","","","Cloudy"
"1999-09-20 16:00","1999","09","20","16:00","19.7","","17.4","","87","","22","","19","","6.4","","99.74","","","","","","Rain Showers,Fog"
"1999-09-20 17:00","1999","09","20","17:00","17.8","","17.0","","95","","25","","28","","4.8","","99.81","","","","","","Rain Showers,Fog"
"1999-09-20 18:00","1999","09","20","18:00","15.1","","13.9","","93","","32","","19","","8.0","","99.87","","","","","","Rain Showers,Fog"
"1999-09-20 19:00","1999","09","20","19:00","13.8","","13.6","","99","","36","","28","","4.8","","99.94","","","","","","Rain Showers,Fog"
"1999-09-20 20:00","1999","09","20","20:00","10.7","","10.2","","97","","35","","19","","12.9","","100.04","","","","","","Rain Showers"
"1999-09-20 21:00","1999","09","20","21:00","9.9","","9.1","","95","","36","","19","","24.1","","100.18","","","","","","Cloudy"
"1999-09-20 22:00","1999","09","20","22:00","9.4","","7.6","","89","","36","","19","","24.1","","100.24","","","","","","Cloudy"
"1999-09-20 23:00","1999","09","20","23:00"
"1999-09-21 00:00","1999","09","21","00:00"
"1999-09-21 01:00","1999","09","21","01:00"
"1999-09-21 02:00","1999","09","21","02:00"
"1999-09-21 03:00","1999","09","21","03:00"
"1999-09-21 04:00","1999","09","21","04:00"
"1999-09-21 05:00","1999","09","21","05:00","7.4","","4.7","","83","","1","","20","","24.1","","100.44","","","","","","Cloudy"
"1999-09-21 06:00","1999","09","21","06:00","7.6","","4.4","","80","","3","","17","","24.1","","100.51","","","","","","Mostly Cloudy"
"1999-09-21 07:00","1999","09","21","07:00","7.3","","4.4","","82","","1","","22","","24.1","","100.58","","","","","","Mostly Cloudy"
"1999-09-21 08:00","1999","09","21","08:00","7.6","","4.6","","81","","2","","28","","24.1","","100.58","","","","","","Mostly Cloudy"
"1999-09-21 09:00","1999","09","21","09:00","7.8","","4.3","","79","","2","","22","","24.1","","100.64","","","","","","Cloudy"
"1999-09-21 10:00","1999","09","21","10:00","8.4","","4.5","","76","","36","","20","","24.1","","100.68","","","","","","Cloudy"
"1999-09-21 11:00","1999","09","21","11:00","8.7","","4.2","","73","","36","","24","","24.1","","100.68","","","","","","Mostly Cloudy"
"1999-09-21 12:00","1999","09","21","12:00","8.9","","4.2","","72","","36","","24","","24.1","","100.64","","","","","","Mostly Cloudy"
"1999-09-21 13:00","1999","09","21","13:00","9.5","","4.8","","72","","1","","17","","24.1","","100.64","","","","","","Mostly Cloudy"
"1999-09-21 14:00","1999","09","21","14:00","11.5","","4.7","","63","","1","","13","","24.1","","100.58","","","","","","Mostly Cloudy"
"1999-09-21 15:00","1999","09","21","15:00","11.6","","4.4","","61","","2","","13","","24.1","","100.58","","","","","","Mostly Cloudy"
"1999-09-21 16:00","1999","09","21","16:00","12.0","","4.7","","61","","36","","11","","24.1","","100.51","","","","","","Mostly Cloudy"
"1999-09-21 17:00","1999","09","21","17:00","12.1","","3.8","","57","","2","","15","","24.1","","100.54","","","","","","Mostly Cloudy"
"1999-09-21 18:00","1999","09","21","18:00","11.9","","4.4","","60","","5","","9","","24.1","","100.54","","","","","","Mostly Cloudy"
"1999-09-21 19:00","1999","09","21","19:00","10.4","","5.2","","70","","1","","7","","24.1","","100.58","","","","","","Mostly Cloudy"
"1999-09-21 20:00","1999","09","21","20:00","8.4","","5.2","","80","","34","","7","","24.1","","100.61","","","","","","Mostly Cloudy"
"1999-09-21 21:00","1999","09","21","21:00","7.8","","5.0","","82","","34","","13","","24.1","","100.58","","","","","","Mostly Cloudy"
"1999-09-21 22:00","1999","09","21","22:00","7.9","","4.4","","79","","34","","17","","24.1","","100.54","","","","","","Mostly Cloudy"
"1999-09-21 23:00","1999","09","21","23:00"
"1999-09-22 00:00","1999","09","22","00:00"
"1999-09-22 01:00","1999","09","22","01:00"
"1999-09-22 02:00","1999","09","22","02:00"
"1999-09-22 03:00","1999","09","22","03:00"
"1999-09-22 04:00","1999","09","22","04:00"
"1999-09-22 05:00","1999","09","22","05:00","6.0","","3.3","","83","","35","","15","","24.1","","100.31","","","","","","Cloudy"
"1999-09-22 06:00","1999","09","22","06:00","6.1","","3.2","","82","","34","","15","","24.1","","100.31","","","","","","Mostly Cloudy"
"1999-09-22 07:00","1999","09","22","07:00","6.5","","3.2","","79","","36","","13","","24.1","","100.31","","","","","","Mostly Cloudy"
"1999-09-22 08:00","1999","09","22","08:00","7.1","","3.5","","78","","36","","20","","24.1","","100.28","","","","","","Mostly Cloudy"
"1999-09-22 09:00","1999","09","22","09:00","7.9","","3.8","","75","","35","","13","","24.1","","100.31","","","","","","Mostly Cloudy"
"1999-09-22 10:00","1999","09","22","10:00","9.0","","3.8","","70","","36","","15","","24.1","","100.28","","","","","","Mostly Cloudy"
"1999-09-22 11:00","1999","09","22","11:00","9.9","","3.2","","63","","36","","22","","24.1","","100.21","","","","","","Mostly Cloudy"
"1999-09-22 12:00","1999","09","22","12:00","10.0","","2.7","","60","","35","","17","","24.1","","100.21","","","","","","Mostly Cloudy"
"1999-09-22 13:00","1999","09","22","13:00","10.2","","1.4","","54","","3","","9","","24.1","","100.18","","","","","","Mostly Cloudy"
"1999-09-22 14:00","1999","09","22","14:00","11.2","","3.2","","58","","30","","11","","24.1","","100.14","","","","","","Mostly Cloudy"
"1999-09-22 15:00","1999","09","22","15:00","11.7","","1.9","","51","","","","0","","24.1","","100.11","","","","","","Mostly Cloudy"
"1999-09-22 16:00","1999","09","22","16:00","11.8","","3.3","","56","","14","","11","","24.1","","100.04","","","","","","Mostly Cloudy"
"1999-09-22 17:00","1999","09","22","17:00","11.9","","4.8","","62","","16","","13","","24.1","","100.01","","","","","","Mainly Clear"
"1999-09-22 18:00","1999","09","22","18:00","11.9","","5.3","","64","","19","","13","","24.1","","100.01","","","","","","Mainly Clear"
"1999-09-22 19:00","1999","09","22","19:00","12.5","","6.9","","69","","19","","11","","24.1","","99.94","","","","","","Mainly Clear"
"1999-09-22 20:00","1999","09","22","20:00","13.0","","8.2","","73","","22","","7","","24.1","","99.91","","","","","","Mainly Clear"
"1999-09-22 21:00","1999","09","22","21:00","9.6","","6.7","","82","","31","","6","","24.1","","99.87","","","","","","Clear"
"1999-09-22 22:00","1999","09","22","22:00","9.0","","6.1","","82","","32","","7","","24.1","","99.91","","","","","","Clear"
"1999-09-22 23:00","1999","09","22","23:00"
"1999-09-23 00:00","1999","09","23","00:00"
"1999-09-23 01:00","1999","09","23","01:00"
"1999-09-23 02:00","1999","09","23","02:00"
"1999-09-23 03:00","1999","09","23","03:00"
"1999-09-23 04:00","1999","09","23","04:00"
"1999-09-23 05:00","1999","09","23","05:00","7.9","","6.3","","90","","28","","7","","24.1","","99.71","","","","","","Clear"
"1999-09-23 06:00","1999","09","23","06:00","7.0","","6.0","","93","","1","","4","","24.1","","99.71","","","","","","Mainly Clear"
"1999-09-23 07:00","1999","09","23","07:00","8.7","","7.2","","90","","9","","4","","24.1","","99.67","","","","","","Mainly Clear"
"1999-09-23 08:00","1999","09","23","08:00","16.3","","11.5","","73","","23","","20","","24.1","","99.67","","","","","","Mainly Clear"
"1999-09-23 09:00","1999","09","23","09:00","17.0","","12.3","","74","","23","","22","","24.1","","99.60","","","","","","Mainly Clear"
"1999-09-23 10:00","1999","09","23","10:00","17.6","","14.0","","79","","24","","20","","24.1","","99.57","","","","","","Mainly Clear"
"1999-09-23 11:00","1999","09","23","11:00","18.9","","14.0","","73","","23","","28","","24.1","","99.47","","","","","","Mainly Clear"
"1999-09-23 12:00","1999","09","23","12:00","20.1","","13.9","","67","","24","","28","","24.1","","99.47","","","","","","Mainly Clear"
"1999-09-23 13:00","1999","09","23","13:00","21.5","","14.5","","64","","24","","24","","24.1","","99.44","","25","","","","Mostly Cloudy"
"1999-09-23 14:00","1999","09","23","14:00","21.0","","13.9","","64","","24","","22","","24.1","","99.44","","","","","","Mostly Cloudy"
"1999-09-23 15:00","1999","09","23","15:00","20.6","","13.4","","63","","24","","28","","24.1","","99.40","","","","","","Mostly Cloudy"
"1999-09-23 16:00","1999","09","23","16:00","20.8","","12.1","","57","","25","","19","","24.1","","99.44","","","","","","Mostly Cloudy"
"1999-09-23 17:00","1999","09","23","17:00","21.4","","12.8","","58","","24","","19","","24.1","","99.44","","","","","","Mostly Cloudy"
"1999-09-23 18:00","1999","09","23","18:00","20.3","","13.7","","66","","24","","19","","24.1","","99.44","","","","","","Mostly Cloudy"
"1999-09-23 19:00","1999","09","23","19:00","19.5","","11.5","","60","","23","","22","","24.1","","99.47","","","","","","Mainly Clear"
"1999-09-23 20:00","1999","09","23","20:00","19.4","","10.7","","57","","24","","19","","24.1","","99.54","","","","","","Mainly Clear"
"1999-09-23 21:00","1999","09","23","21:00","18.7","","13.1","","70","","23","","19","","24.1","","99.54","","","","","","Mainly Clear"
"1999-09-23 22:00","1999","09","23","22:00","18.6","","11.8","","65","","27","","11","","24.1","","99.57","","","","","","Mainly Clear"
"1999-09-23 23:00","1999","09","23","23:00"
"1999-09-24 00:00","1999","09","24","00:00"
"1999-09-24 01:00","1999","09","24","01:00"
"1999-09-24 02:00","1999","09","24","02:00"
"1999-09-24 03:00","1999","09","24","03:00"
"1999-09-24 04:00","1999","09","24","04:00"
"1999-09-24 05:00","1999","09","24","05:00","16.4","","12.1","","76","","21","","17","","24.1","","99.54","","","","","","Mainly Clear"
"1999-09-24 06:00","1999","09","24","06:00","16.4","","12.6","","78","","22","","11","","24.1","","99.54","","","","","","Mainly Clear"
"1999-09-24 07:00","1999","09","24","07:00","16.8","","12.7","","77","","23","","13","","24.1","","99.54","","","","","","Mostly Cloudy"
"1999-09-24 08:00","1999","09","24","08:00","17.2","","12.3","","73","","24","","11","","24.1","","99.57","","","","","","Mostly Cloudy"
"1999-09-24 09:00","1999","09","24","09:00","17.7","","12.3","","71","","25","","13","","24.1","","99.60","","","","","","Cloudy"
"1999-09-24 10:00","1999","09","24","10:00","16.8","","12.5","","76","","28","","11","","24.1","","99.64","","","","","","Cloudy"
"1999-09-24 11:00","1999","09","24","11:00","16.3","","13.3","","82","","9","","4","","24.1","","99.60","","","","","","Cloudy"
"1999-09-24 12:00","1999","09","24","12:00","16.4","","13.6","","84","","34","","7","","24.1","","99.64","","","","","","Rain Showers"
"1999-09-24 13:00","1999","09","24","13:00","15.6","","14.4","","93","","36","","7","","24.1","","99.64","","","","","","Mostly Cloudy"
"1999-09-24 14:00","1999","09","24","14:00","16.1","","14.5","","90","","","","0","","24.1","","99.64","","","","","","Mostly Cloudy"
"1999-09-24 15:00","1999","09","24","15:00","16.7","","13.7","","82","","19","","7","","24.1","","99.71","","","","","","Mostly Cloudy"
"1999-09-24 16:00","1999","09","24","16:00","16.9","","14.1","","84","","18","","11","","24.1","","99.71","","","","","","Mostly Cloudy"
"1999-09-24 17:00","1999","09","24","17:00","13.1","","10.6","","85","","1","","20","","24.1","","99.81","","","","","","Mostly Cloudy"
"1999-09-24 18:00","1999","09","24","18:00","11.7","","10.0","","89","","1","","24","","24.1","","99.84","","","","","","Mostly Cloudy"
"1999-09-24 19:00","1999","09","24","19:00","11.3","","9.7","","90","","36","","19","","24.1","","99.94","","","","","","Mostly Cloudy"
"1999-09-24 20:00","1999","09","24","20:00","10.8","","9.3","","90","","35","","20","","24.1","","100.07","","","","","","Mostly Cloudy"
"1999-09-24 21:00","1999","09","24","21:00","9.6","","8.5","","93","","35","","11","","24.1","","100.14","","","","","","Mainly Clear"
"1999-09-24 22:00","1999","09","24","22:00","9.5","","8.6","","94","","2","","11","","24.1","","100.18","","","","","","Mainly Clear"
"1999-09-24 23:00","1999","09","24","23:00"
"1999-09-25 00:00","1999","09","25","00:00"
"1999-09-25 01:00","1999","09","25","01:00"
"1999-09-25 02:00","1999","09","25","02:00"
"1999-09-25 03:00","1999","09","25","03:00"
"1999-09-25 04:00","1999","09","25","04:00"
"1999-09-25 05:00","1999","09","25","05:00","5.4","","5.4","","100","","35","","9","","24.1","","100.38","","","","","","Mainly Clear"
"1999-09-25 06:00","1999","09","25","06:00","5.0","","5.0","","100","","35","","7","","24.1","","100.41","","","","","","Mainly Clear"
"1999-09-25 07:00","1999","09","25","07:00","6.7","","6.5","","99","","34","","9","","24.1","","100.51","","","","","","Mainly Clear"
"1999-09-25 08:00","1999","09","25","08:00","9.4","","7.9","","90","","34","","6","","24.1","","100.58","","","","","","Mainly Clear"
"1999-09-25 09:00","1999","09","25","09:00","11.7","","8.0","","78","","34","","13","","24.1","","100.61","","","","","","Mainly Clear"
"1999-09-25 10:00","1999","09","25","10:00","13.6","","5.4","","58","","35","","11","","24.1","","100.64","","","","","","Mainly Clear"
"1999-09-25 11:00","1999","09","25","11:00","14.2","","4.2","","51","","35","","9","","24.1","","100.68","","","","","","Mostly Cloudy"
"1999-09-25 12:00","1999","09","25","12:00","14.6","","4.0","","49","","33","","11","","24.1","","100.71","","","","","","Mostly Cloudy"
"1999-09-25 13:00","1999","09","25","13:00","15.0","","4.9","","51","","34","","9","","24.1","","100.71","","","","","","Mostly Cloudy"
"1999-09-25 14:00","1999","09","25","14:00","15.9","","5.5","","50","","33","","11","","24.1","","100.68","","","","","","Mostly Cloudy"
"1999-09-25 15:00","1999","09","25","15:00","15.7","","7.7","","59","","4","","9","","24.1","","100.75","","","","","","Mostly Cloudy"
"1999-09-25 16:00","1999","09","25","16:00","14.8","","6.5","","58","","20","","9","","24.1","","100.78","","","","","","Mostly Cloudy"
"1999-09-25 17:00","1999","09","25","17:00","14.6","","6.9","","60","","17","","13","","24.1","","100.78","","","","","","Mainly Clear"
"1999-09-25 18:00","1999","09","25","18:00","14.6","","6.5","","58","","20","","4","","24.1","","100.85","","","","","","Mainly Clear"
"1999-09-25 19:00","1999","09","25","19:00","13.2","","7.0","","66","","","","0","","24.1","","100.91","","","","","","Mainly Clear"
"1999-09-25 20:00","1999","09","25","20:00","12.5","","5.6","","63","","4","","4","","24.1","","100.95","","","","","","Clear"
"1999-09-25 21:00","1999","09","25","21:00","9.4","","6.1","","80","","2","","4","","24.1","","101.05","","","","","","Clear"
"1999-09-25 22:00","1999","09","25","22:00","8.2","","6.3","","88","","","","0","","24.1","","101.08","","","","","","Mainly Clear"
"1999-09-25 23:00","1999","09","25","23:00"
"1999-09-26 00:00","1999","09","26","00:00"
"1999-09-26 01:00","1999","09","26","01:00"
"1999-09-26 02:00","1999","09","26","02:00"
"1999-09-26 03:00","1999","09","26","03:00"
"1999-09-26 04:00","1999","09","26","04:00"
"1999-09-26 05:00","1999","09","26","05:00","7.6","","7.2","","97","","7","","9","","24.1","","101.25","","","","","","Clear"
"1999-09-26 06:00","1999","09","26","06:00","7.1","","6.8","","98","","8","","9","","24.1","","101.28","","","","","","Clear"
"1999-09-26 07:00","1999","09","26","07:00","8.3","","7.2","","93","","7","","7","","24.1","","101.28","","","","","","Clear"
"1999-09-26 08:00","1999","09","26","08:00","11.7","","9.3","","85","","9","","9","","24.1","","101.35","","","","","","Clear"
"1999-09-26 09:00","1999","09","26","09:00","14.0","","8.9","","71","","14","","17","","24.1","","101.38","","","","","","Clear"
"1999-09-26 10:00","1999","09","26","10:00","14.9","","8.8","","67","","13","","15","","24.1","","101.35","","","","","","Clear"
"1999-09-26 11:00","1999","09","26","11:00","16.0","","9.2","","64","","16","","11","","24.1","","101.32","","","","","","Clear"
"1999-09-26 12:00","1999","09","26","12:00","17.2","","8.7","","57","","14","","13","","24.1","","101.25","","","","","","Clear"
"1999-09-26 13:00","1999","09","26","13:00","18.8","","9.7","","55","","11","","9","","24.1","","101.18","","","","","","Clear"
"1999-09-26 14:00","1999","09","26","14:00","18.7","","9.6","","55","","13","","11","","24.1","","101.15","","","","","","Mainly Clear"
"1999-09-26 15:00","1999","09","26","15:00","18.9","","10.7","","59","","11","","11","","24.1","","101.08","","","","","","Mainly Clear"
"1999-09-26 16:00","1999","09","26","16:00","19.5","","10.9","","58","","12","","11","","24.1","","101.01","","","","","","Mainly Clear"
"1999-09-26 17:00","1999","09","26","17:00","19.3","","10.6","","57","","9","","9","","24.1","","101.01","","","","","","Mainly Clear"
"1999-09-26 18:00","1999","09","26","18:00","18.6","","10.3","","58","","7","","7","","24.1","","101.01","","","","","","Mainly Clear"
"1999-09-26 19:00","1999","09","26","19:00","17.1","","10.6","","66","","5","","9","","24.1","","101.05","","","","","","Mainly Clear"
"1999-09-26 20:00","1999","09","26","20:00","15.8","","10.7","","72","","8","","7","","24.1","","101.05","","","","","","Mainly Clear"
"1999-09-26 21:00","1999","09","26","21:00","15.2","","10.4","","73","","5","","7","","24.1","","101.08","","","","","","Mainly Clear"
"1999-09-26 22:00","1999","09","26","22:00","14.9","","10.9","","77","","9","","6","","24.1","","101.08","","","","","","Mainly Clear"
"1999-09-26 23:00","1999","09","26","23:00"
"1999-09-27 00:00","1999","09","27","00:00"
"1999-09-27 01:00","1999","09","27","01:00"
"1999-09-27 02:00","1999","09","27","02:00"
"1999-09-27 03:00","1999","09","27","03:00"
"1999-09-27 04:00","1999","09","27","04:00"
"1999-09-27 05:00","1999","09","27","05:00","17.3","","15.5","","89","","18","","19","","24.1","","101.15","","","","","","Clear"
"1999-09-27 06:00","1999","09","27","06:00","17.2","","15.4","","89","","18","","28","","19.3","","101.15","","","","","","Mostly Cloudy"
"1999-09-27 07:00","1999","09","27","07:00","17.3","","15.5","","89","","18","","22","","19.3","","101.25","","","","","","Mostly Cloudy"
"1999-09-27 08:00","1999","09","27","08:00","17.3","","15.4","","89","","18","","22","","19.3","","101.25","","","","","","Cloudy"
"1999-09-27 09:00","1999","09","27","09:00","17.6","","15.8","","89","","18","","19","","24.1","","101.28","","","","","","Cloudy"
"1999-09-27 10:00","1999","09","27","10:00","18.4","","16.5","","89","","18","","28","","12.9","","101.28","","","","","","Cloudy"
"1999-09-27 11:00","1999","09","27","11:00","18.9","","17.0","","89","","17","","22","","11.3","","101.25","","","","","","Mostly Cloudy"
"1999-09-27 12:00","1999","09","27","12:00","19.9","","17.5","","86","","17","","20","","11.3","","101.22","","","","","","Mostly Cloudy"
"1999-09-27 13:00","1999","09","27","13:00","20.2","","17.8","","86","","17","","20","","11.3","","101.15","","26","","","","Mostly Cloudy"
"1999-09-27 14:00","1999","09","27","14:00","19.9","","17.5","","86","","17","","28","","11.3","","101.08","","","","","","Mostly Cloudy"
"1999-09-27 15:00","1999","09","27","15:00","19.9","","17.7","","87","","16","","15","","11.3","","101.08","","","","","","Mostly Cloudy"
"1999-09-27 16:00","1999","09","27","16:00","19.9","","17.8","","88","","15","","13","","11.3","","101.08","","","","","","Cloudy"
"1999-09-27 17:00","1999","09","27","17:00","19.9","","17.7","","87","","15","","15","","11.3","","101.11","","","","","","Cloudy"
"1999-09-27 18:00","1999","09","27","18:00","19.9","","17.3","","85","","14","","19","","11.3","","101.08","","","","","","Cloudy"
"1999-09-27 19:00","1999","09","27","19:00","19.8","","17.3","","86","","14","","17","","11.3","","101.11","","","","","","Cloudy"
"1999-09-27 20:00","1999","09","27","20:00","19.2","","17.5","","90","","14","","17","","11.3","","101.15","","","","","","Mostly Cloudy"
"1999-09-27 21:00","1999","09","27","21:00","18.9","","17.6","","92","","16","","15","","11.3","","101.15","","","","","","Mostly Cloudy"
"1999-09-27 22:00","1999","09","27","22:00","18.9","","17.6","","92","","17","","19","","11.3","","101.15","","","","","","Mostly Cloudy"
"1999-09-27 23:00","1999","09","27","23:00"
"1999-09-28 00:00","1999","09","28","00:00"
"1999-09-28 01:00","1999","09","28","01:00"
"1999-09-28 02:00","1999","09","28","02:00"
"1999-09-28 03:00","1999","09","28","03:00"
"1999-09-28 04:00","1999","09","28","04:00"
"1999-09-28 05:00","1999","09","28","05:00","18.4","","17.6","","95","","17","","19","","19.3","","101.18","","","","","","Clear"
"1999-09-28 06:00","1999","09","28","06:00","18.3","","17.6","","96","","19","","11","","12.9","","101.25","","","","","","Mainly Clear"
"1999-09-28 07:00","1999","09","28","07:00","18.6","","17.8","","95","","19","","9","","9.7","","101.25","","","","","","Fog"
"1999-09-28 08:00","1999","09","28","08:00","19.1","","18.0","","93","","18","","11","","9.7","","101.22","","","","","","Fog"
"1999-09-28 09:00","1999","09","28","09:00","19.7","","18.3","","92","","18","","13","","9.7","","101.22","","","","","","Fog"
"1999-09-28 10:00","1999","09","28","10:00","20.0","","18.3","","90","","19","","15","","11.3","","101.22","","26","","","","Mainly Clear"
"1999-09-28 11:00","1999","09","28","11:00","20.3","","19.1","","93","","18","","13","","11.3","","101.18","","27","","","","Mainly Clear"
"1999-09-28 12:00","1999","09","28","12:00","20.9","","19.2","","90","","18","","9","","9.7","","101.15","","28","","","","Fog"
"1999-09-28 13:00","1999","09","28","13:00","21.6","","19.2","","86","","17","","13","","11.3","","100.98","","29","","","","Mainly Clear"
"1999-09-28 14:00","1999","09","28","14:00","21.7","","19.2","","86","","17","","13","","11.3","","100.95","","29","","","","Mainly Clear"
"1999-09-28 15:00","1999","09","28","15:00","22.6","","19.6","","83","","19","","15","","11.3","","100.98","","30","","","","Cloudy"
"1999-09-28 16:00","1999","09","28","16:00","22.1","","19.1","","83","","17","","9","","16.1","","100.91","","29","","","","Mostly Cloudy"
"1999-09-28 17:00","1999","09","28","17:00","20.9","","19.0","","89","","17","","11","","16.1","","100.91","","28","","","","Mainly Clear"
"1999-09-28 18:00","1999","09","28","18:00","20.9","","18.7","","87","","18","","19","","12.9","","100.88","","27","","","","Mostly Cloudy"
"1999-09-28 19:00","1999","09","28","19:00","20.3","","18.6","","90","","17","","19","","11.3","","100.81","","27","","","","Mostly Cloudy"
"1999-09-28 20:00","1999","09","28","20:00","20.0","","18.5","","91","","17","","13","","11.3","","100.78","","26","","","","Mostly Cloudy"
"1999-09-28 21:00","1999","09","28","21:00","20.1","","18.3","","89","","18","","19","","12.9","","100.81","","26","","","","Cloudy"
"1999-09-28 22:00","1999","09","28","22:00","19.8","","18.2","","90","","17","","17","","12.9","","100.75","","","","","","Mostly Cloudy"
"1999-09-28 23:00","1999","09","28","23:00"
"1999-09-29 00:00","1999","09","29","00:00"
"1999-09-29 01:00","1999","09","29","01:00"
"1999-09-29 02:00","1999","09","29","02:00"
"1999-09-29 03:00","1999","09","29","03:00"
"1999-09-29 04:00","1999","09","29","04:00"
"1999-09-29 05:00","1999","09","29","05:00","19.3","","18.1","","93","","17","","22","","19.3","","100.48","","","","","","Mainly Clear"
"1999-09-29 06:00","1999","09","29","06:00","19.3","","18.1","","93","","17","","22","","16.1","","100.48","","","","","","Cloudy"
"1999-09-29 07:00","1999","09","29","07:00","19.4","","18.2","","93","","16","","19","","12.9","","100.44","","","","","","Cloudy"
"1999-09-29 08:00","1999","09","29","08:00","19.0","","18.3","","96","","18","","22","","4.8","","100.41","","","","","","Rain Showers,Fog"
"1999-09-29 09:00","1999","09","29","09:00","18.8","","18.4","","98","","16","","24","","8.0","","100.31","","","","","","Thunderstorms,Rain Showers,Fog"
"1999-09-29 10:00","1999","09","29","10:00","19.3","","18.4","","95","","16","","20","","9.7","","100.24","","","","","","Fog"
"1999-09-29 11:00","1999","09","29","11:00","19.5","","18.5","","94","","16","","19","","9.7","","100.21","","","","","","Fog"
"1999-09-29 12:00","1999","09","29","12:00","20.4","","19.0","","92","","16","","20","","9.7","","100.07","","27","","","","Fog"
"1999-09-29 13:00","1999","09","29","13:00","20.9","","19.3","","91","","19","","19","","11.3","","100.01","","28","","","","Mostly Cloudy"
"1999-09-29 14:00","1999","09","29","14:00","20.0","","19.0","","94","","18","","24","","6.4","","99.84","","27","","","","Rain Showers,Fog"
"1999-09-29 15:00","1999","09","29","15:00","19.7","","18.8","","95","","18","","19","","6.4","","99.77","","","","","","Rain Showers,Fog"
"1999-09-29 16:00","1999","09","29","16:00","19.9","","18.7","","93","","17","","19","","12.9","","99.64","","","","","","Cloudy"
"1999-09-29 17:00","1999","09","29","17:00","20.0","","18.5","","91","","17","","19","","12.9","","99.54","","26","","","","Cloudy"
"1999-09-29 18:00","1999","09","29","18:00","19.8","","18.6","","93","","16","","19","","12.9","","99.47","","","","","","Rain Showers"
"1999-09-29 19:00","1999","09","29","19:00","20.1","","18.1","","88","","16","","28","","19.3","","99.37","","26","","","","Cloudy"
"1999-09-29 20:00","1999","09","29","20:00","20.0","","17.2","","84","","16","","28","","19.3","","99.27","","25","","","","Cloudy"
"1999-09-29 21:00","1999","09","29","21:00","19.9","","17.4","","86","","17","","37","","19.3","","99.17","","","","","","Cloudy"
"1999-09-29 22:00","1999","09","29","22:00","19.5","","17.4","","88","","18","","28","","11.3","","99.07","","","","","","Rain Showers"
"1999-09-29 23:00","1999","09","29","23:00"
"1999-09-30 00:00","1999","09","30","00:00"
"1999-09-30 01:00","1999","09","30","01:00"
"1999-09-30 02:00","1999","09","30","02:00"
"1999-09-30 03:00","1999","09","30","03:00"
"1999-09-30 04:00","1999","09","30","04:00"
"1999-09-30 05:00","1999","09","30","05:00","11.4","","10.5","","94","","26","","30","","9.7","","98.73","","","","","","Rain,Fog"
"1999-09-30 06:00","1999","09","30","06:00","11.1","","9.7","","91","","27","","26","","24.1","","98.80","","","","","","Cloudy"
"1999-09-30 07:00","1999","09","30","07:00","10.4","","9.2","","92","","27","","26","","24.1","","98.97","","","","","","Cloudy"
"1999-09-30 08:00","1999","09","30","08:00","11.3","","8.8","","85","","26","","37","","24.1","","99.07","","","","","","Mostly Cloudy"
"1999-09-30 09:00","1999","09","30","09:00","11.3","","7.6","","78","","26","","35","","24.1","","99.13","","","","","","Mostly Cloudy"
"1999-09-30 10:00","1999","09","30","10:00","11.0","","7.5","","79","","27","","30","","24.1","","99.20","","","","","","Mostly Cloudy"
"1999-09-30 11:00","1999","09","30","11:00","12.0","","6.7","","70","","28","","32","","24.1","","99.30","","","","","","Mostly Cloudy"
"1999-09-30 12:00","1999","09","30","12:00","12.3","","6.7","","69","","29","","24","","24.1","","99.37","","","","","","Mostly Cloudy"
"1999-09-30 13:00","1999","09","30","13:00","12.1","","6.4","","68","","29","","26","","24.1","","99.54","","","","","","Mostly Cloudy"
"1999-09-30 14:00","1999","09","30","14:00","13.5","","7.0","","65","","28","","28","","24.1","","99.57","","","","","","Mostly Cloudy"
"1999-09-30 15:00","1999","09","30","15:00","14.6","","6.6","","59","","29","","28","","24.1","","99.60","","","","","","Mostly Cloudy"
"1999-09-30 16:00","1999","09","30","16:00","15.4","","5.1","","50","","27","","28","","24.1","","99.67","","","","","","Mainly Clear"
"1999-09-30 17:00","1999","09","30","17:00","15.3","","4.7","","49","","28","","19","","24.1","","99.74","","","","","","Mainly Clear"
"1999-09-30 18:00","1999","09","30","18:00","14.3","","4.1","","50","","27","","19","","24.1","","99.81","","","","","","Mainly Clear"
"1999-09-30 19:00","1999","09","30","19:00","12.8","","5.6","","62","","27","","19","","24.1","","99.87","","","","","","Mainly Clear"
"1999-09-30 20:00","1999","09","30","20:00","12.6","","6.2","","65","","27","","28","","24.1","","99.94","","","","","","Clear"
"1999-09-30 21:00","1999","09","30","21:00","12.5","","6.9","","69","","27","","11","","24.1","","99.94","","","","","","Clear"
"1999-09-30 22:00","1999","09","30","22:00","12.6","","6.9","","68","","26","","11","","24.1","","99.97","","","","","","Clear"
"1999-09-30 23:00","1999","09","30","23:00"
