"Station Name","KINGSTON A"
"Province","ONTARIO"
"Latitude","44.22"
"Longitude","-76.60"
"Elevation","92.40"
"Climate Identifier","6104146"
"WMO Identifier",""
"TC Identifier","YGK"
"All times are specified in Local Standard Time (LST). Add 1 hour to adjust for Daylight Saving Time where and when it is observed."

"Legend"
"E","Estimated"
"M","Missing"
"NA","Not Available"

"Date/Time","Year","Month","Day","Time","Temp (°C)","Temp Flag","Dew Point Temp (°C)","Dew Point Temp Flag","Rel Hum (%)","Rel Hum Flag","Wind Dir (10s deg)","Wind Dir Flag","Wind Spd (km/h)","Wind Spd Flag","Visibility (km)","Visibility Flag","Stn Press (kPa)","Stn Press Flag","Hmdx","Hmdx Flag","Wind Chill","Wind Chill Flag","Weather"
"2000-02-01 00:00","2000","02","01","00:00"
"2000-02-01 01:00","2000","02","01","01:00"
"2000-02-01 02:00","2000","02","01","02:00"
"2000-02-01 03:00","2000","02","01","03:00"
"2000-02-01 04:00","2000","02","01","04:00"
"2000-02-01 05:00","2000","02","01","05:00"
"2000-02-01 06:00","2000","02","01","06:00","-1.9","","-3.5","","89","","26","","24","","12.9","","99.27","","","","-8","","Snow"
"2000-02-01 07:00","2000","02","01","07:00","-2.1","","-4.0","","87","","26","","24","","16.1","","99.27","","","","-8","","Snow"
"2000-02-01 08:00","2000","02","01","08:00","-2.5","","-4.4","","87","","27","","20","","12.9","","99.30","","","","-8","","Snow"
"2000-02-01 09:00","2000","02","01","09:00","-2.9","","-4.3","","90","","27","","20","","3.2","","99.37","","","","-9","","Snow"
"2000-02-01 10:00","2000","02","01","10:00","-3.0","","-5.0","","86","","33","","17","","8.0","","99.47","","","","-9","","Snow,Fog"
"2000-02-01 11:00","2000","02","01","11:00","-2.4","","-5.7","","78","","35","","13","","24.1","","99.54","","","","-7","","Mostly Cloudy"
"2000-02-01 12:00","2000","02","01","12:00","-2.1","","-6.2","","73","","28","","15","","24.1","","99.47","","","","-7","","Mostly Cloudy"
"2000-02-01 13:00","2000","02","01","13:00","-1.8","","-7.7","","64","","29","","19","","16.1","","99.47","","","","-7","","Snow Showers"
"2000-02-01 14:00","2000","02","01","14:00","-1.9","","-6.8","","69","","28","","17","","24.1","","99.47","","","","-7","","Mostly Cloudy"
"2000-02-01 15:00","2000","02","01","15:00","-3.1","","-6.1","","80","","27","","19","","3.2","","99.47","","","","-9","","Snow Showers"
"2000-02-01 16:00","2000","02","01","16:00","-2.8","","-8.3","","66","","29","","17","","12.9","","99.54","","","","-8","","Snow Showers"
"2000-02-01 17:00","2000","02","01","17:00","-4.6","","-6.5","","87","","34","","28","","4.0","","99.67","","","","-12","","Snow Showers"
"2000-02-01 18:00","2000","02","01","18:00","-6.2","","-12.2","","62","","33","","17","","16.1","","99.81","","","","-12","","Mainly Clear"
"2000-02-01 19:00","2000","02","01","19:00","-7.8","","-13.4","","64","","32","","20","","24.1","","99.91","","","","-15","","Mainly Clear"
"2000-02-01 20:00","2000","02","01","20:00","-8.1","","-13.6","","65","","31","","19","","24.1","","99.97","","","","-15","","Mostly Cloudy"
"2000-02-01 21:00","2000","02","01","21:00","-8.4","","-13.6","","66","","31","","19","","24.1","","100.04","","","","-16","","Mostly Cloudy"
"2000-02-01 22:00","2000","02","01","22:00","-9.3","","-14.1","","68","","30","","15","","24.1","","100.11","","","","-16","","Mostly Cloudy"
"2000-02-01 23:00","2000","02","01","23:00","-9.4","","-14.4","","67","","30","","19","","16.1","","100.14","","","","-17","","Snow Showers"
"2000-02-02 00:00","2000","02","02","00:00"
"2000-02-02 01:00","2000","02","02","01:00"
"2000-02-02 02:00","2000","02","02","02:00"
"2000-02-02 03:00","2000","02","02","03:00"
"2000-02-02 04:00","2000","02","02","04:00"
"2000-02-02 05:00","2000","02","02","05:00"
"2000-02-02 06:00","2000","02","02","06:00","-16.1","","-22.2","","59","","27","","7","","24.1","","100.68","","","","-21","","Mainly Clear"
"2000-02-02 07:00","2000","02","02","07:00","-15.5","","-21.5","","60","","27","","9","","24.1","","100.71","","","","-21","","Mainly Clear"
"2000-02-02 08:00","2000","02","02","08:00","-15.6","","-21.2","","62","","27","","9","","24.1","","100.78","","","","-22","","Mainly Clear"
"2000-02-02 09:00","2000","02","02","09:00","-14.8","","-21.2","","58","","30","","17","","24.1","","100.81","","","","-23","","Mainly Clear"
"2000-02-02 10:00","2000","02","02","10:00","-13.8","","-21.6","","52","","31","","19","","24.1","","100.81","","","","-22","","Mainly Clear"
"2000-02-02 11:00","2000","02","02","11:00","-12.3","","-21.7","","45","","31","","26","","24.1","","100.85","","","","-22","","Mainly Clear"
"2000-02-02 12:00","2000","02","02","12:00","-11.0","","-20.3","","46","","29","","17","","24.1","","100.81","","","","-18","","Mainly Clear"
"2000-02-02 13:00","2000","02","02","13:00","-6.9","","-18.8","","38","","26","","24","","24.1","","100.78","","","","-15","","Mainly Clear"
"2000-02-02 14:00","2000","02","02","14:00","-10.9","","-18.7","","53","","27","","22","","24.1","","100.75","","","","-19","","Clear"
"2000-02-02 15:00","2000","02","02","15:00","-9.7","","-18.5","","49","","26","","17","","24.1","","100.75","","","","-17","","Mainly Clear"
"2000-02-02 16:00","2000","02","02","16:00","-9.7","","-18.8","","47","","26","","20","","24.1","","100.75","","","","-17","","Mainly Clear"
"2000-02-02 17:00","2000","02","02","17:00","-10.1","","-19.5","","46","","26","","19","","24.1","","100.75","","","","-18","","Mainly Clear"
"2000-02-02 18:00","2000","02","02","18:00","-10.9","","-21.5","","41","","27","","19","","24.1","","100.78","","","","-19","","Mainly Clear"
"2000-02-02 19:00","2000","02","02","19:00","-11.2","","-22.7","","38","","27","","17","","24.1","","100.85","","","","-19","","Mainly Clear"
"2000-02-02 20:00","2000","02","02","20:00","-12.1","","-23.3","","39","","28","","11","","24.1","","100.81","","","","-18","","Mainly Clear"
"2000-02-02 21:00","2000","02","02","21:00","-12.7","","-23.7","","39","","27","","9","","24.1","","100.81","","","","-18","","Mainly Clear"
"2000-02-02 22:00","2000","02","02","22:00","-14.1","","-22.7","","48","","30","","4","","24.1","","100.78","","","","-17","","Mainly Clear"
"2000-02-02 23:00","2000","02","02","23:00","-13.0","","-20.8","","52","","31","","6","","24.1","","100.71","","","","-17","","Mostly Cloudy"
"2000-02-03 00:00","2000","02","03","00:00"
"2000-02-03 01:00","2000","02","03","01:00"
"2000-02-03 02:00","2000","02","03","02:00"
"2000-02-03 03:00","2000","02","03","03:00"
"2000-02-03 04:00","2000","02","03","04:00"
"2000-02-03 05:00","2000","02","03","05:00"
"2000-02-03 06:00","2000","02","03","06:00","-11.8","","-18.9","","56","","7","","11","","24.1","","100.34","","","","-18","","Cloudy"
"2000-02-03 07:00","2000","02","03","07:00","-12.9","","-20.4","","53","","6","","13","","24.1","","100.28","","","","-20","","Mostly Cloudy"
"2000-02-03 08:00","2000","02","03","08:00","-13.0","","-20.5","","53","","6","","13","","24.1","","100.24","","","","-20","","Mostly Cloudy"
"2000-02-03 09:00","2000","02","03","09:00","-12.1","","-20.0","","52","","6","","20","","24.1","","100.24","","","","-21","","Cloudy"
"2000-02-03 10:00","2000","02","03","10:00","-10.8","","-19.2","","50","","7","","13","","24.1","","100.21","","","","-17","","Cloudy"
"2000-02-03 11:00","2000","02","03","11:00","-10.6","","-19.2","","49","","5","","13","","24.1","","100.14","","","","-17","","Cloudy"
"2000-02-03 12:00","2000","02","03","12:00","-9.0","","-19.2","","43","","5","","19","","16.1","","100.07","","","","-16","","Snow"
"2000-02-03 13:00","2000","02","03","13:00","-8.6","","-18.6","","44","","4","","15","","19.3","","100.04","","","","-15","","Snow"
"2000-02-03 14:00","2000","02","03","14:00","-9.4","","-12.6","","77","","5","","20","","3.2","","99.97","","","","-17","","Snow"
"2000-02-03 15:00","2000","02","03","15:00","-8.9","","-12.4","","76","","4","","19","","6.4","","99.97","","","","-16","","Snow"
"2000-02-03 16:00","2000","02","03","16:00","-8.2","","-12.5","","71","","4","","20","","24.1","","99.97","","","","-16","","Mostly Cloudy"
"2000-02-03 17:00","2000","02","03","17:00","-8.7","","-13.6","","68","","5","","20","","24.1","","100.01","","","","-16","","Mostly Cloudy"
"2000-02-03 18:00","2000","02","03","18:00","-8.9","","-14.5","","64","","5","","17","","24.1","","100.07","","","","-16","","Snow"
"2000-02-03 19:00","2000","02","03","19:00","-9.2","","-17.7","","50","","5","","19","","24.1","","100.11","","","","-17","","Cloudy"
"2000-02-03 20:00","2000","02","03","20:00","-9.4","","-18.5","","48","","5","","19","","24.1","","100.11","","","","-17","","Cloudy"
"2000-02-03 21:00","2000","02","03","21:00","-9.7","","-20.8","","40","","5","","22","","24.1","","100.11","","","","-18","","Cloudy"
"2000-02-03 22:00","2000","02","03","22:00","-10.1","","-21.5","","39","","5","","22","","24.1","","100.07","","","","-18","","Cloudy"
"2000-02-03 23:00","2000","02","03","23:00","-10.2","","-22.4","","36","","4","","24","","24.1","","100.07","","","","-19","","Cloudy"
"2000-02-04 00:00","2000","02","04","00:00"
"2000-02-04 01:00","2000","02","04","01:00"
"2000-02-04 02:00","2000","02","04","02:00"
"2000-02-04 03:00","2000","02","04","03:00"
"2000-02-04 04:00","2000","02","04","04:00"
"2000-02-04 05:00","2000","02","04","05:00"
"2000-02-04 06:00","2000","02","04","06:00","-13.0","","-20.0","","56","","3","","19","","24.1","","100.11","","","","-21","","Mainly Clear"
"2000-02-04 07:00","2000","02","04","07:00","-13.7","","-20.1","","58","","4","","22","","24.1","","100.04","","","","-23","","Mostly Cloudy"
"2000-02-04 08:00","2000","02","04","08:00","-13.6","","-20.1","","58","","4","","20","","24.1","","100.11","","","","-22","","Mostly Cloudy"
"2000-02-04 09:00","2000","02","04","09:00","-13.0","","-19.3","","59","","3","","22","","24.1","","100.21","","","","-22","","Mostly Cloudy"
"2000-02-04 10:00","2000","02","04","10:00","-11.8","","-18.3","","58","","3","","19","","24.1","","100.24","","","","-20","","Mostly Cloudy"
"2000-02-04 11:00","2000","02","04","11:00","-10.7","","-18.2","","54","","3","","19","","24.1","","100.24","","","","-19","","Mostly Cloudy"
"2000-02-04 12:00","2000","02","04","12:00","-9.7","","-16.5","","58","","2","","22","","24.1","","100.21","","","","-18","","Mostly Cloudy"
"2000-02-04 13:00","2000","02","04","13:00","-8.4","","-15.5","","57","","1","","19","","24.1","","100.14","","","","-16","","Mostly Cloudy"
"2000-02-04 14:00","2000","02","04","14:00","-7.3","","-14.2","","58","","2","","19","","24.1","","100.14","","","","-14","","Mostly Cloudy"
"2000-02-04 15:00","2000","02","04","15:00","-6.5","","-13.5","","58","","3","","15","","24.1","","100.14","","","","-12","","Mostly Cloudy"
"2000-02-04 16:00","2000","02","04","16:00","-6.7","","-14.1","","56","","4","","15","","24.1","","100.18","","","","-13","","Mostly Cloudy"
"2000-02-04 17:00","2000","02","04","17:00","-6.8","","-14.0","","56","","2","","15","","24.1","","100.21","","","","-13","","Mostly Cloudy"
"2000-02-04 18:00","2000","02","04","18:00","-7.3","","-14.5","","56","","5","","9","","24.1","","100.31","","","","-12","","Mostly Cloudy"
"2000-02-04 19:00","2000","02","04","19:00","-7.8","","-14.6","","58","","2","","4","","24.1","","100.34","","","","-10","","Mostly Cloudy"
"2000-02-04 20:00","2000","02","04","20:00","-9.2","","-15.5","","60","","3","","4","","24.1","","100.34","","","","-11","","Mainly Clear"
"2000-02-04 21:00","2000","02","04","21:00","-10.9","","-15.8","","67","","35","","6","","24.1","","100.34","","","","-15","","Mainly Clear"
"2000-02-04 22:00","2000","02","04","22:00","-12.1","","-15.5","","76","","","","0","","24.1","","100.34","","","","","","Mainly Clear"
"2000-02-04 23:00","2000","02","04","23:00","-15.0","","-18.4","","75","","35","","7","","24.1","","100.41","","","","-20","","Clear"
"2000-02-05 00:00","2000","02","05","00:00"
"2000-02-05 01:00","2000","02","05","01:00"
"2000-02-05 02:00","2000","02","05","02:00"
"2000-02-05 03:00","2000","02","05","03:00"
"2000-02-05 04:00","2000","02","05","04:00"
"2000-02-05 05:00","2000","02","05","05:00"
"2000-02-05 06:00","2000","02","05","06:00","-14.8","","-20.0","","65","","26","","11","","24.1","","100.28","","","","-21","","Clear"
"2000-02-05 07:00","2000","02","05","07:00","-13.4","","-19.9","","58","","26","","9","","24.1","","100.24","","","","-19","","Mostly Cloudy"
"2000-02-05 08:00","2000","02","05","08:00","-12.0","","-17.2","","65","","27","","7","","24.1","","100.28","","","","-16","","Mostly Cloudy"
"2000-02-05 09:00","2000","02","05","09:00","-9.9","","-12.1","","84","","25","","11","","19.3","","100.24","","","","-15","","Snow Showers"
"2000-02-05 10:00","2000","02","05","10:00","-5.3","","-7.8","","83","","26","","19","","6.4","","100.21","","","","-12","","Snow Showers"
"2000-02-05 11:00","2000","02","05","11:00","-3.5","","-5.1","","89","","25","","24","","4.0","","100.11","","","","-10","","Snow Showers"
"2000-02-05 12:00","2000","02","05","12:00","-2.9","","-5.9","","80","","25","","26","","24.1","","100.01","","","","-10","","Mostly Cloudy"
"2000-02-05 13:00","2000","02","05","13:00","-1.3","","-5.6","","73","","25","","35","","24.1","","99.91","","","","-9","","Mostly Cloudy"
"2000-02-05 14:00","2000","02","05","14:00","-2.1","","-5.6","","77","","24","","35","","24.1","","99.81","","","","-10","","Mostly Cloudy"
"2000-02-05 15:00","2000","02","05","15:00","-2.1","","-6.3","","73","","25","","33","","24.1","","99.74","","","","-10","","Mostly Cloudy"
"2000-02-05 16:00","2000","02","05","16:00","-2.2","","-5.9","","76","","25","","30","","24.1","","99.74","","","","-9","","Cloudy"
"2000-02-05 17:00","2000","02","05","17:00","-2.1","","-6.2","","73","","25","","26","","24.1","","99.74","","","","-9","","Cloudy"
"2000-02-05 18:00","2000","02","05","18:00","-2.0","","-5.6","","76","","26","","28","","12.9","","99.74","","","","-9","","Snow"
"2000-02-05 19:00","2000","02","05","19:00","-2.2","","-5.0","","81","","26","","32","","9.7","","99.77","","","","-10","","Snow"
"2000-02-05 20:00","2000","02","05","20:00","-2.2","","-4.6","","84","","27","","33","","4.8","","99.84","","","","-10","","Snow"
"2000-02-05 21:00","2000","02","05","21:00","-3.3","","-5.4","","85","","34","","26","","2.4","","99.97","","","","-10","","Snow"
"2000-02-05 22:00","2000","02","05","22:00","-4.7","","-8.2","","76","","34","","19","","24.1","","100.21","","","","-11","","Mostly Cloudy"
"2000-02-05 23:00","2000","02","05","23:00","-6.1","","-12.5","","60","","34","","26","","24.1","","100.38","","","","-14","","Mainly Clear"
"2000-02-06 00:00","2000","02","06","00:00"
"2000-02-06 01:00","2000","02","06","01:00"
"2000-02-06 02:00","2000","02","06","02:00"
"2000-02-06 03:00","2000","02","06","03:00"
"2000-02-06 04:00","2000","02","06","04:00"
"2000-02-06 05:00","2000","02","06","05:00"
"2000-02-06 06:00","2000","02","06","06:00","-11.8","","-16.7","","67","","25","","19","","24.1","","101.08","","","","-20","","Clear"
"2000-02-06 07:00","2000","02","06","07:00","-11.0","","-16.3","","65","","25","","15","","24.1","","101.11","","","","-18","","Clear"
"2000-02-06 08:00","2000","02","06","08:00","-10.3","","-16.7","","59","","27","","19","","24.1","","101.18","","","","-18","","Clear"
"2000-02-06 09:00","2000","02","06","09:00","-8.5","","-14.4","","62","","28","","20","","24.1","","101.25","","","","-16","","Mainly Clear"
"2000-02-06 10:00","2000","02","06","10:00","-7.0","","-15.0","","53","","28","","32","","24.1","","101.35","","","","-16","","Mainly Clear"
"2000-02-06 11:00","2000","02","06","11:00","-5.9","","-15.2","","48","","28","","15","","24.1","","101.35","","","","-12","","Mainly Clear"
"2000-02-06 12:00","2000","02","06","12:00","-5.1","","-13.7","","51","","27","","20","","24.1","","101.25","","","","-12","","Mainly Clear"
"2000-02-06 13:00","2000","02","06","13:00","-3.5","","-11.4","","54","","28","","26","","24.1","","101.15","","","","-11","","Mainly Clear"
"2000-02-06 14:00","2000","02","06","14:00","-2.5","","-10.6","","54","","27","","22","","24.1","","101.05","","","","-9","","Mainly Clear"
"2000-02-06 15:00","2000","02","06","15:00","-2.0","","-9.8","","55","","25","","30","","24.1","","100.98","","","","-9","","Mainly Clear"
"2000-02-06 16:00","2000","02","06","16:00","-1.7","","-8.3","","61","","24","","19","","24.1","","100.88","","","","-7","","Mainly Clear"
"2000-02-06 17:00","2000","02","06","17:00","-2.1","","-8.0","","64","","24","","26","","24.1","","100.81","","","","-9","","Mainly Clear"
"2000-02-06 18:00","2000","02","06","18:00","-2.1","","-7.7","","65","","24","","28","","24.1","","100.75","","","","-9","","Mostly Cloudy"
"2000-02-06 19:00","2000","02","06","19:00","-2.1","","-7.6","","66","","24","","33","","24.1","","100.68","","","","-10","","Mostly Cloudy"
"2000-02-06 20:00","2000","02","06","20:00","-2.6","","-7.5","","69","","23","","32","","24.1","","100.64","","","","-10","","Mostly Cloudy"
"2000-02-06 21:00","2000","02","06","21:00","-2.8","","-8.5","","65","","24","","37","","24.1","","100.44","","","","-11","","Mainly Clear"
"2000-02-06 22:00","2000","02","06","22:00","-2.0","","-8.0","","63","","24","","33","","24.1","","100.31","","","","-9","","Cloudy"
"2000-02-06 23:00","2000","02","06","23:00","-2.1","","-7.1","","69","","24","","32","","24.1","","100.24","","","","-9","","Cloudy"
"2000-02-07 00:00","2000","02","07","00:00"
"2000-02-07 01:00","2000","02","07","01:00"
"2000-02-07 02:00","2000","02","07","02:00"
"2000-02-07 03:00","2000","02","07","03:00"
"2000-02-07 04:00","2000","02","07","04:00"
"2000-02-07 05:00","2000","02","07","05:00"
"2000-02-07 06:00","2000","02","07","06:00","-1.2","","-5.4","","73","","25","","24","","19.3","","99.87","","","","-7","","Cloudy"
"2000-02-07 07:00","2000","02","07","07:00","-1.2","","-4.8","","76","","25","","30","","12.9","","99.81","","","","-8","","Mostly Cloudy"
"2000-02-07 08:00","2000","02","07","08:00","-0.6","","-4.8","","73","","26","","30","","12.9","","99.91","","","","-7","","Snow Showers"
"2000-02-07 09:00","2000","02","07","09:00","-1.1","","-4.1","","80","","29","","22","","2.4","","100.01","","","","-7","","Snow Showers"
"2000-02-07 10:00","2000","02","07","10:00","-3.4","","-8.4","","68","","35","","26","","24.1","","100.21","","","","-10","","Mostly Cloudy"
"2000-02-07 11:00","2000","02","07","11:00","-3.0","","-10.1","","58","","35","","33","","24.1","","100.41","","","","-11","","Mostly Cloudy"
"2000-02-07 12:00","2000","02","07","12:00","-3.7","","-10.7","","58","","36","","28","","24.1","","100.54","","","","-11","","Mainly Clear"
"2000-02-07 13:00","2000","02","07","13:00","-4.3","","-15.7","","41","","34","","26","","24.1","","100.64","","","","-12","","Mainly Clear"
"2000-02-07 14:00","2000","02","07","14:00","-4.1","","-14.3","","45","","34","","26","","24.1","","100.71","","","","-11","","Mainly Clear"
"2000-02-07 15:00","2000","02","07","15:00","-4.6","","-18.9","","32","","33","","24","","24.1","","100.85","","","","-12","","Clear"
"2000-02-07 16:00","2000","02","07","16:00","-5.4","","-19.0","","33","","34","","20","","24.1","","100.98","","","","-12","","Clear"
"2000-02-07 17:00","2000","02","07","17:00","-6.4","","-18.9","","36","","36","","11","","24.1","","101.05","","","","-11","","Clear"
"2000-02-07 18:00","2000","02","07","18:00","-7.4","","-19.6","","37","","32","","15","","24.1","","101.25","","","","-14","","Mainly Clear"
"2000-02-07 19:00","2000","02","07","19:00","-10.2","","-20.3","","43","","35","","9","","24.1","","101.35","","","","-15","","Mainly Clear"
"2000-02-07 20:00","2000","02","07","20:00","-11.0","","-21.0","","43","","36","","7","","24.1","","101.52","","","","-15","","Clear"
"2000-02-07 21:00","2000","02","07","21:00","-13.4","","-22.9","","45","","35","","11","","24.1","","101.58","","","","-20","","Clear"
"2000-02-07 22:00","2000","02","07","22:00","-13.9","","-22.8","","47","","34","","11","","24.1","","101.69","","","","-20","","Clear"
"2000-02-07 23:00","2000","02","07","23:00","-15.2","","-23.8","","48","","36","","11","","24.1","","101.79","","","","-22","","Clear"
"2000-02-08 00:00","2000","02","08","00:00"
"2000-02-08 01:00","2000","02","08","01:00"
"2000-02-08 02:00","2000","02","08","02:00"
"2000-02-08 03:00","2000","02","08","03:00"
"2000-02-08 04:00","2000","02","08","04:00"
"2000-02-08 05:00","2000","02","08","05:00"
"2000-02-08 06:00","2000","02","08","06:00","-19.8","","-26.1","","57","","","","0","","24.1","","102.12","","","","","","Clear"
"2000-02-08 07:00","2000","02","08","07:00","-21.9","","-27.3","","62","","","","0","","24.1","","102.19","","","","","","Clear"
"2000-02-08 08:00","2000","02","08","08:00","-20.1","","-25.3","","63","","","","0","","24.1","","102.19","","","","","","Clear"
"2000-02-08 09:00","2000","02","08","09:00","-16.7","","-22.0","","63","","8","","4","","24.1","","102.26","","","","-20","","Mainly Clear"
"2000-02-08 10:00","2000","02","08","10:00","-10.7","","-15.8","","66","","","","0","","24.1","","102.22","","","","","","Mainly Clear"
"2000-02-08 11:00","2000","02","08","11:00","-8.7","","-13.2","","70","","","","0","","24.1","","102.19","","","","","","Mainly Clear"
"2000-02-08 12:00","2000","02","08","12:00","-5.4","","-11.7","","61","","21","","30","","24.1","","102.12","","","","-14","","Mainly Clear"
"2000-02-08 13:00","2000","02","08","13:00","-4.9","","-10.0","","67","","21","","30","","24.1","","101.99","","","","-13","","Mainly Clear"
"2000-02-08 14:00","2000","02","08","14:00","-4.8","","-10.3","","65","","22","","28","","24.1","","101.89","","","","-12","","Mainly Clear"
"2000-02-08 15:00","2000","02","08","15:00","-4.7","","-10.8","","62","","22","","30","","24.1","","101.79","","","","-13","","Mainly Clear"
"2000-02-08 16:00","2000","02","08","16:00","-4.7","","-10.8","","62","","21","","28","","24.1","","101.69","","","","-12","","Mainly Clear"
"2000-02-08 17:00","2000","02","08","17:00","-4.7","","-11.0","","61","","22","","24","","24.1","","101.58","","","","-12","","Mainly Clear"
"2000-02-08 18:00","2000","02","08","18:00","-4.7","","-11.0","","61","","23","","17","","24.1","","101.45","","","","-11","","Mainly Clear"
"2000-02-08 19:00","2000","02","08","19:00","-3.9","","-10.1","","62","","22","","26","","24.1","","101.38","","","","-11","","Mainly Clear"
"2000-02-08 20:00","2000","02","08","20:00","-3.1","","-9.2","","63","","21","","32","","24.1","","101.25","","","","-11","","Mainly Clear"
"2000-02-08 21:00","2000","02","08","21:00","-3.4","","-8.3","","69","","19","","30","","24.1","","101.18","","","","-11","","Mainly Clear"
"2000-02-08 22:00","2000","02","08","22:00","-2.5","","-7.4","","69","","20","","30","","24.1","","101.05","","","","-10","","Clear"
"2000-02-08 23:00","2000","02","08","23:00","-1.8","","-6.6","","70","","21","","33","","24.1","","100.95","","","","-9","","Mainly Clear"
"2000-02-09 00:00","2000","02","09","00:00"
"2000-02-09 01:00","2000","02","09","01:00"
"2000-02-09 02:00","2000","02","09","02:00"
"2000-02-09 03:00","2000","02","09","03:00"
"2000-02-09 04:00","2000","02","09","04:00"
"2000-02-09 05:00","2000","02","09","05:00"
"2000-02-09 06:00","2000","02","09","06:00","-0.3","","-4.7","","72","","21","","33","","24.1","","100.18","","","","-7","","Cloudy"
"2000-02-09 07:00","2000","02","09","07:00","0.2","","-3.3","","77","","21","","32","","24.1","","100.07","","","","","","Cloudy"
"2000-02-09 08:00","2000","02","09","08:00","0.1","","-1.9","","86","","22","","26","","3.2","","100.01","","","","","","Snow"
"2000-02-09 09:00","2000","02","09","09:00","0.6","","-0.5","","92","","23","","28","","1.6","","100.04","","","","","","Snow"
"2000-02-09 10:00","2000","02","09","10:00","0.4","","-0.2","","96","","24","","26","","1.2","","100.07","","","","","","Snow"
"2000-02-09 11:00","2000","02","09","11:00","1.0","","-0.3","","91","","25","","30","","4.8","","100.11","","","","","","Snow"
"2000-02-09 12:00","2000","02","09","12:00","1.5","","-0.4","","87","","25","","22","","6.4","","100.04","","","","","","Fog"
"2000-02-09 13:00","2000","02","09","13:00","1.9","","-0.9","","82","","25","","24","","6.4","","100.01","","","","","","Fog"
"2000-02-09 14:00","2000","02","09","14:00","2.1","","-1.0","","80","","25","","20","","6.4","","99.97","","","","","","Fog"
"2000-02-09 15:00","2000","02","09","15:00","2.0","","-0.9","","81","","25","","19","","6.4","","100.01","","","","","","Snow,Haze"
"2000-02-09 16:00","2000","02","09","16:00","1.9","","-0.6","","83","","26","","15","","8.0","","100.04","","","","","","Haze"
"2000-02-09 17:00","2000","02","09","17:00","1.9","","-0.9","","82","","25","","15","","8.0","","100.11","","","","","","Haze"
"2000-02-09 18:00","2000","02","09","18:00","1.6","","-0.8","","84","","25","","13","","8.0","","100.21","","","","","","Haze"
"2000-02-09 19:00","2000","02","09","19:00","1.7","","-0.6","","85","","26","","13","","8.0","","100.31","","","","","","Haze"
"2000-02-09 20:00","2000","02","09","20:00","1.9","","-0.9","","82","","26","","7","","8.0","","100.31","","","","","","Haze"
"2000-02-09 21:00","2000","02","09","21:00","1.6","","-0.6","","85","","26","","6","","8.0","","100.38","","","","","","Haze"
"2000-02-09 22:00","2000","02","09","22:00","-1.6","","-5.7","","74","","2","","22","","19.3","","100.51","","","","-8","","Cloudy"
"2000-02-09 23:00","2000","02","09","23:00","-2.5","","-7.0","","71","","4","","17","","24.1","","100.58","","","","-8","","Cloudy"
"2000-02-10 00:00","2000","02","10","00:00"
"2000-02-10 01:00","2000","02","10","01:00"
"2000-02-10 02:00","2000","02","10","02:00"
"2000-02-10 03:00","2000","02","10","03:00"
"2000-02-10 04:00","2000","02","10","04:00"
"2000-02-10 05:00","2000","02","10","05:00"
"2000-02-10 06:00","2000","02","10","06:00","-10.3","","-15.7","","65","","3","","20","","24.1","","100.91","","","","-18","","Mainly Clear"
"2000-02-10 07:00","2000","02","10","07:00","-10.8","","-17.0","","60","","4","","19","","24.1","","100.95","","","","-19","","Mostly Cloudy"
"2000-02-10 08:00","2000","02","10","08:00","-11.2","","-18.4","","55","","4","","19","","24.1","","100.98","","","","-19","","Cloudy"
"2000-02-10 09:00","2000","02","10","09:00","-10.2","","-18.2","","52","","4","","22","","24.1","","100.91","","","","-18","","Mostly Cloudy"
"2000-02-10 10:00","2000","02","10","10:00","-9.5","","-17.1","","54","","4","","17","","24.1","","100.71","","","","-17","","Mostly Cloudy"
"2000-02-10 11:00","2000","02","10","11:00","-8.7","","-15.4","","58","","4","","22","","24.1","","100.88","","","","-17","","Cloudy"
"2000-02-10 12:00","2000","02","10","12:00","-7.8","","-14.2","","60","","4","","19","","24.1","","100.88","","","","-15","","Cloudy"
"2000-02-10 13:00","2000","02","10","13:00","-6.5","","-12.7","","61","","5","","19","","24.1","","100.71","","","","-13","","Cloudy"
"2000-02-10 14:00","2000","02","10","14:00","-6.8","","-12.0","","66","","4","","26","","4.8","","100.51","","","","-15","","Snow"
"2000-02-10 15:00","2000","02","10","15:00","-7.4","","-11.3","","74","","5","","28","","12.9","","100.41","","","","-16","","Cloudy"
"2000-02-10 16:00","2000","02","10","16:00","-8.1","","-11.1","","79","","4","","22","","2.4","","100.38","","","","-16","","Snow"
"2000-02-10 17:00","2000","02","10","17:00","-8.8","","-11.7","","79","","5","","28","","12.9","","100.28","","","","-18","","Cloudy"
"2000-02-10 18:00","2000","02","10","18:00","-9.6","","-12.2","","81","","5","","33","","11.3","","100.21","","","","-19","","Cloudy"
"2000-02-10 19:00","2000","02","10","19:00","-10.1","","-12.6","","82","","5","","33","","3.2","","100.11","","","","-20","","Snow"
"2000-02-10 20:00","2000","02","10","20:00","-10.5","","-12.9","","82","","5","","28","","1.6","","99.94","","","","-20","","Snow"
"2000-02-10 21:00","2000","02","10","21:00","-10.6","","-13.0","","82","","5","","24","","1.6","","99.84","","","","-19","","Snow"
"2000-02-10 22:00","2000","02","10","22:00","-10.6","","-13.2","","81","","4","","28","","8.0","","99.74","","","","-20","","Haze"
"2000-02-10 23:00","2000","02","10","23:00","-10.5","","-13.1","","81","","4","","24","","3.2","","99.71","","","","-19","","Snow"
"2000-02-11 00:00","2000","02","11","00:00"
"2000-02-11 01:00","2000","02","11","01:00"
"2000-02-11 02:00","2000","02","11","02:00"
"2000-02-11 03:00","2000","02","11","03:00"
"2000-02-11 04:00","2000","02","11","04:00"
"2000-02-11 05:00","2000","02","11","05:00"
"2000-02-11 06:00","2000","02","11","06:00","-9.7","","-12.3","","81","","2","","20","","4.8","","99.54","","","","-17","","Snow"
"2000-02-11 07:00","2000","02","11","07:00","-9.1","","-11.7","","81","","1","","17","","8.0","","99.60","","","","-16","","Snow"
"2000-02-11 08:00","2000","02","11","08:00","-8.7","","-11.6","","79","","36","","13","","4.0","","99.67","","","","-15","","Snow"
"2000-02-11 09:00","2000","02","11","09:00","-8.3","","-11.2","","80","","34","","13","","12.9","","99.81","","","","-14","","Snow"
"2000-02-11 10:00","2000","02","11","10:00","-8.0","","-10.9","","80","","33","","13","","4.0","","99.87","","","","-14","","Snow"
"2000-02-11 11:00","2000","02","11","11:00","-7.2","","-10.5","","77","","34","","11","","12.9","","99.94","","","","-12","","Snow"
"2000-02-11 12:00","2000","02","11","12:00","-6.0","","-10.1","","73","","33","","13","","24.1","","100.01","","","","-11","","Mostly Cloudy"
"2000-02-11 13:00","2000","02","11","13:00","-5.1","","-10.6","","65","","34","","15","","24.1","","100.01","","","","-11","","Mostly Cloudy"
"2000-02-11 14:00","2000","02","11","14:00","-3.8","","-10.4","","60","","31","","17","","24.1","","100.04","","","","-10","","Mostly Cloudy"
"2000-02-11 15:00","2000","02","11","15:00","-2.8","","-10.4","","56","","34","","11","","24.1","","100.11","","","","-7","","Mainly Clear"
"2000-02-11 16:00","2000","02","11","16:00","-3.2","","-11.8","","51","","33","","24","","24.1","","100.21","","","","-10","","Mainly Clear"
"2000-02-11 17:00","2000","02","11","17:00","-4.3","","-11.9","","55","","34","","9","","24.1","","100.31","","","","-8","","Mainly Clear"
"2000-02-11 18:00","2000","02","11","18:00","-5.6","","-13.9","","52","","33","","13","","24.1","","100.48","","","","-11","","Mainly Clear"
"2000-02-11 19:00","2000","02","11","19:00","-7.1","","-15.4","","52","","32","","11","","24.1","","100.68","","","","-12","","Clear"
"2000-02-11 20:00","2000","02","11","20:00","-8.8","","-16.6","","53","","35","","9","","24.1","","100.78","","","","-13","","Clear"
"2000-02-11 21:00","2000","02","11","21:00","-10.5","","-17.3","","57","","35","","7","","24.1","","100.91","","","","-15","","Clear"
"2000-02-11 22:00","2000","02","11","22:00","-11.5","","-17.9","","59","","31","","7","","24.1","","100.98","","","","-16","","Clear"
"2000-02-11 23:00","2000","02","11","23:00","-12.3","","-17.8","","64","","29","","4","","24.1","","101.08","","","","-15","","Clear"
"2000-02-12 00:00","2000","02","12","00:00"
"2000-02-12 01:00","2000","02","12","01:00"
"2000-02-12 02:00","2000","02","12","02:00"
"2000-02-12 03:00","2000","02","12","03:00"
"2000-02-12 04:00","2000","02","12","04:00"
"2000-02-12 05:00","2000","02","12","05:00"
"2000-02-12 06:00","2000","02","12","06:00","-20.9","","-24.4","","73","","","","0","","24.1","","101.55","","","","","","Clear"
"2000-02-12 07:00","2000","02","12","07:00","-21.7","","-25.8","","69","","","","0","","24.1","","101.62","","","","","","Clear"
"2000-02-12 08:00","2000","02","12","08:00","-22.2","","-26.1","","71","","35","","11","","24.1","","101.69","","","","-30","","Clear"
"2000-02-12 09:00","2000","02","12","09:00","-18.3","","-22.7","","68","","","","0","","24.1","","101.72","","","","","","Mainly Clear"
"2000-02-12 10:00","2000","02","12","10:00","-14.3","","-19.2","","66","","","","0","","24.1","","101.72","","","","","","Mainly Clear"
"2000-02-12 11:00","2000","02","12","11:00","-12.0","","-17.3","","65","","","","0","","24.1","","101.69","","","","","","Mainly Clear"
"2000-02-12 12:00","2000","02","12","12:00","-11.0","","-22.1","","40","","15","","4","","24.1","","101.65","","","","-13","","Mainly Clear"
"2000-02-12 13:00","2000","02","12","13:00","-10.2","","-18.3","","51","","17","","6","","24.1","","101.62","","","","-14","","Mainly Clear"
"2000-02-12 14:00","2000","02","12","14:00","-10.5","","-17.5","","56","","17","","6","","24.1","","101.55","","","","-14","","Mainly Clear"
"2000-02-12 15:00","2000","02","12","15:00","-8.0","","-15.9","","53","","","","0","","24.1","","101.48","","","","","","Mainly Clear"
"2000-02-12 16:00","2000","02","12","16:00","-9.0","","-15.5","","59","","17","","4","","24.1","","101.45","","","","-11","","Mainly Clear"
"2000-02-12 17:00","2000","02","12","17:00","-9.6","","-15.6","","62","","15","","4","","24.1","","101.42","","","","-12","","Mostly Cloudy"
"2000-02-12 18:00","2000","02","12","18:00","-11.1","","-15.5","","70","","11","","4","","24.1","","101.45","","","","-14","","Mostly Cloudy"
"2000-02-12 19:00","2000","02","12","19:00","-11.9","","-15.9","","72","","10","","7","","24.1","","101.42","","","","-16","","Mostly Cloudy"
"2000-02-12 20:00","2000","02","12","20:00","-10.9","","-14.6","","74","","13","","7","","24.1","","101.35","","","","-15","","Mostly Cloudy"
"2000-02-12 21:00","2000","02","12","21:00","-11.9","","-16.5","","69","","13","","11","","24.1","","101.35","","","","-18","","Cloudy"
"2000-02-12 22:00","2000","02","12","22:00","-11.2","","-15.4","","71","","13","","7","","24.1","","101.32","","","","-15","","Cloudy"
"2000-02-12 23:00","2000","02","12","23:00","-12.9","","-16.2","","76","","4","","4","","24.1","","101.25","","","","-16","","Cloudy"
"2000-02-13 00:00","2000","02","13","00:00"
"2000-02-13 01:00","2000","02","13","01:00"
"2000-02-13 02:00","2000","02","13","02:00"
"2000-02-13 03:00","2000","02","13","03:00"
"2000-02-13 04:00","2000","02","13","04:00"
"2000-02-13 05:00","2000","02","13","05:00"
"2000-02-13 06:00","2000","02","13","06:00","-9.9","","-15.9","","61","","11","","9","","24.1","","101.01","","","","-15","","Cloudy"
"2000-02-13 07:00","2000","02","13","07:00","-9.4","","-15.2","","63","","13","","4","","24.1","","101.01","","","","-12","","Cloudy"
"2000-02-13 08:00","2000","02","13","08:00","-7.0","","-11.9","","68","","13","","13","","24.1","","101.01","","","","-13","","Cloudy"
"2000-02-13 09:00","2000","02","13","09:00","-6.1","","-11.3","","67","","13","","13","","24.1","","101.05","","","","-11","","Cloudy"
"2000-02-13 10:00","2000","02","13","10:00","-5.7","","-11.6","","63","","14","","13","","24.1","","100.98","","","","-11","","Cloudy"
"2000-02-13 11:00","2000","02","13","11:00","-5.0","","-11.5","","60","","13","","7","","24.1","","100.95","","","","-8","","Cloudy"
"2000-02-13 12:00","2000","02","13","12:00","-4.3","","-11.7","","56","","8","","9","","24.1","","100.88","","","","-8","","Cloudy"
"2000-02-13 13:00","2000","02","13","13:00","-3.9","","-11.3","","56","","8","","11","","24.1","","100.78","","","","-8","","Cloudy"
"2000-02-13 14:00","2000","02","13","14:00","-3.5","","-12.2","","51","","6","","13","","24.1","","100.68","","","","-8","","Cloudy"
"2000-02-13 15:00","2000","02","13","15:00","-3.2","","-11.4","","53","","4","","11","","24.1","","100.71","","","","-7","","Cloudy"
"2000-02-13 16:00","2000","02","13","16:00","-3.2","","-11.9","","51","","6","","22","","24.1","","100.61","","","","-10","","Cloudy"
"2000-02-13 17:00","2000","02","13","17:00","-3.3","","-11.8","","52","","5","","22","","24.1","","100.58","","","","-10","","Cloudy"
"2000-02-13 18:00","2000","02","13","18:00","-4.1","","-10.2","","62","","6","","22","","16.1","","100.61","","","","-11","","Snow"
"2000-02-13 19:00","2000","02","13","19:00","-5.4","","-8.3","","80","","5","","20","","9.7","","100.68","","","","-12","","Snow"
"2000-02-13 20:00","2000","02","13","20:00","-6.2","","-8.7","","82","","5","","20","","24.1","","100.58","","","","-13","","Cloudy"
"2000-02-13 21:00","2000","02","13","21:00","-6.8","","-8.8","","86","","6","","28","","6.4","","100.51","","","","-15","","Snow"
"2000-02-13 22:00","2000","02","13","22:00","-6.8","","-8.8","","86","","5","","26","","16.1","","100.41","","","","-15","","Snow"
"2000-02-13 23:00","2000","02","13","23:00","-6.5","","-8.6","","85","","5","","20","","16.1","","100.34","","","","-13","","Snow"
"2000-02-14 00:00","2000","02","14","00:00"
"2000-02-14 01:00","2000","02","14","01:00"
"2000-02-14 02:00","2000","02","14","02:00"
"2000-02-14 03:00","2000","02","14","03:00"
"2000-02-14 04:00","2000","02","14","04:00"
"2000-02-14 05:00","2000","02","14","05:00"
"2000-02-14 06:00","2000","02","14","06:00","-6.7","","-8.7","","86","","4","","28","","2.4","","99.64","","","","-15","","Snow"
"2000-02-14 07:00","2000","02","14","07:00","-6.8","","-8.8","","86","","4","","26","","2.4","","99.54","","","","-15","","Snow"
"2000-02-14 08:00","2000","02","14","08:00","-6.6","","-8.7","","85","","4","","30","","1.6","","99.44","","","","-15","","Snow"
"2000-02-14 09:00","2000","02","14","09:00","-6.5","","-8.7","","84","","4","","32","","1.6","","99.37","","","","-15","","Snow"
"2000-02-14 10:00","2000","02","14","10:00","-6.2","","-8.3","","85","","4","","32","","1.2","","99.24","","","","-15","","Snow"
"2000-02-14 11:00","2000","02","14","11:00","-5.4","","-8.0","","82","","3","","26","","4.0","","99.24","","","","-13","","Snow"
"2000-02-14 12:00","2000","02","14","12:00","-4.6","","-7.7","","79","","4","","26","","4.8","","99.20","","","","-12","","Snow"
"2000-02-14 13:00","2000","02","14","13:00","-3.8","","-6.6","","81","","3","","28","","6.4","","99.13","","","","-11","","Snow"
"2000-02-14 14:00","2000","02","14","14:00","-3.4","","-7.2","","75","","4","","26","","16.1","","99.24","","","","-10","","Cloudy"
"2000-02-14 15:00","2000","02","14","15:00","-3.3","","-7.2","","74","","3","","17","","24.1","","99.30","","","","-9","","Cloudy"
"2000-02-14 16:00","2000","02","14","16:00","-4.5","","-6.8","","84","","1","","26","","3.2","","99.40","","","","-12","","Snow"
"2000-02-14 17:00","2000","02","14","17:00","-4.9","","-6.4","","89","","36","","15","","1.2","","99.54","","","","-10","","Snow"
"2000-02-14 18:00","2000","02","14","18:00","-5.2","","-6.5","","91","","34","","15","","1.6","","99.60","","","","-11","","Snow"
"2000-02-14 19:00","2000","02","14","19:00","-5.4","","-7.1","","88","","35","","17","","1.6","","99.71","","","","-11","","Snow"
"2000-02-14 20:00","2000","02","14","20:00","-5.5","","-7.0","","89","","34","","11","","1.6","","99.77","","","","-10","","Snow"
"2000-02-14 21:00","2000","02","14","21:00","-5.5","","-6.9","","90","","26","","9","","19.3","","99.91","","","","-10","","Cloudy"
"2000-02-14 22:00","2000","02","14","22:00","-5.3","","-7.2","","86","","28","","7","","19.3","","99.94","","","","-9","","Cloudy"
"2000-02-14 23:00","2000","02","14","23:00","-5.0","","-7.6","","82","","28","","6","","19.3","","99.97","","","","-8","","Cloudy"
"2000-02-15 00:00","2000","02","15","00:00"
"2000-02-15 01:00","2000","02","15","01:00"
"2000-02-15 02:00","2000","02","15","02:00"
"2000-02-15 03:00","2000","02","15","03:00"
"2000-02-15 04:00","2000","02","15","04:00"
"2000-02-15 05:00","2000","02","15","05:00"
"2000-02-15 06:00","2000","02","15","06:00","-11.9","","-14.7","","80","","29","","13","","24.1","","100.61","","","","-19","","Mainly Clear"
"2000-02-15 07:00","2000","02","15","07:00","-12.9","","-15.5","","81","","29","","9","","24.1","","100.78","","","","-18","","Mainly Clear"
"2000-02-15 08:00","2000","02","15","08:00","-12.4","","-15.0","","81","","28","","11","","24.1","","100.88","","","","-18","","Mainly Clear"
"2000-02-15 09:00","2000","02","15","09:00","-10.7","","-14.1","","76","","29","","7","","24.1","","100.95","","","","-15","","Mainly Clear"
"2000-02-15 10:00","2000","02","15","10:00","-9.6","","-13.3","","74","","25","","11","","24.1","","101.05","","","","-15","","Mainly Clear"
"2000-02-15 11:00","2000","02","15","11:00","-6.8","","-10.9","","73","","24","","9","","24.1","","101.01","","","","-11","","Mainly Clear"
"2000-02-15 12:00","2000","02","15","12:00","-4.9","","-9.4","","71","","24","","11","","24.1","","101.01","","","","-9","","Mainly Clear"
"2000-02-15 13:00","2000","02","15","13:00","-3.2","","-8.6","","66","","22","","9","","24.1","","100.98","","","","-7","","Mainly Clear"
"2000-02-15 14:00","2000","02","15","14:00","-1.5","","-7.0","","66","","25","","22","","24.1","","100.91","","","","-7","","Mainly Clear"
"2000-02-15 15:00","2000","02","15","15:00","-1.1","","-6.5","","67","","25","","19","","24.1","","100.95","","","","-6","","Mainly Clear"
"2000-02-15 16:00","2000","02","15","16:00","-1.4","","-7.0","","66","","24","","26","","24.1","","100.95","","","","-8","","Mostly Cloudy"
"2000-02-15 17:00","2000","02","15","17:00","-2.1","","-7.4","","67","","23","","17","","24.1","","100.88","","","","-7","","Mainly Clear"
"2000-02-15 18:00","2000","02","15","18:00","-3.2","","-7.5","","72","","23","","13","","24.1","","100.91","","","","-8","","Mainly Clear"
"2000-02-15 19:00","2000","02","15","19:00","-4.3","","-8.0","","75","","24","","7","","24.1","","100.88","","","","-7","","Mainly Clear"
"2000-02-15 20:00","2000","02","15","20:00","-4.8","","-8.5","","75","","23","","9","","24.1","","100.81","","","","-9","","Mainly Clear"
"2000-02-15 21:00","2000","02","15","21:00","-2.3","","-6.1","","75","","23","","15","","24.1","","100.85","","","","-7","","Cloudy"
"2000-02-15 22:00","2000","02","15","22:00","-1.8","","-6.2","","72","","23","","11","","24.1","","100.75","","","","-6","","Cloudy"
"2000-02-15 23:00","2000","02","15","23:00","-1.4","","-5.6","","73","","22","","17","","24.1","","100.71","","","","-7","","Cloudy"
"2000-02-16 00:00","2000","02","16","00:00"
"2000-02-16 01:00","2000","02","16","01:00"
"2000-02-16 02:00","2000","02","16","02:00"
"2000-02-16 03:00","2000","02","16","03:00"
"2000-02-16 04:00","2000","02","16","04:00"
"2000-02-16 05:00","2000","02","16","05:00"
"2000-02-16 06:00","2000","02","16","06:00","-0.4","","-1.4","","93","","19","","35","","8.0","","99.71","","","","-7","","Snow"
"2000-02-16 07:00","2000","02","16","07:00","0.5","","-0.8","","91","","20","","24","","4.8","","99.71","","","","","","Rain,Snow,Fog"
"2000-02-16 08:00","2000","02","16","08:00","0.9","","-1.1","","86","","20","","30","","12.9","","99.64","","","","","","Snow"
"2000-02-16 09:00","2000","02","16","09:00","0.6","","-0.6","","92","","21","","19","","3.2","","99.64","","","","","","Snow"
"2000-02-16 10:00","2000","02","16","10:00","0.6","","0.0","","96","","25","","17","","1.6","","99.67","","","","","","Snow"
"2000-02-16 11:00","2000","02","16","11:00","0.8","","0.3","","96","","26","","11","","3.2","","99.67","","","","","","Snow"
"2000-02-16 12:00","2000","02","16","12:00","0.9","","0.1","","94","","27","","15","","6.4","","99.74","","","","","","Snow"
"2000-02-16 13:00","2000","02","16","13:00","1.6","","0.2","","90","","29","","20","","12.9","","99.77","","","","","","Cloudy"
"2000-02-16 14:00","2000","02","16","14:00","1.5","","-0.9","","84","","29","","20","","16.1","","99.87","","","","","","Cloudy"
"2000-02-16 15:00","2000","02","16","15:00","1.9","","-0.7","","83","","31","","17","","16.1","","99.94","","","","","","Cloudy"
"2000-02-16 16:00","2000","02","16","16:00","2.2","","-1.7","","75","","28","","24","","16.1","","100.14","","","","","","Cloudy"
"2000-02-16 17:00","2000","02","16","17:00","1.6","","-3.0","","71","","30","","33","","12.9","","100.28","","","","","","Snow"
"2000-02-16 18:00","2000","02","16","18:00","0.0","","-5.1","","68","","30","","30","","19.3","","100.44","","","","-6","","Mainly Clear"
"2000-02-16 19:00","2000","02","16","19:00","-1.4","","-7.4","","64","","30","","24","","24.1","","100.71","","","","-8","","Mainly Clear"
"2000-02-16 20:00","2000","02","16","20:00","-2.2","","-7.4","","67","","29","","22","","24.1","","100.88","","","","-8","","Cloudy"
"2000-02-16 21:00","2000","02","16","21:00","-4.6","","-10.2","","65","","34","","22","","19.3","","101.11","","","","-11","","Mainly Clear"
"2000-02-16 22:00","2000","02","16","22:00","-5.9","","-12.2","","61","","35","","33","","24.1","","101.28","","","","-15","","Mostly Cloudy"
"2000-02-16 23:00","2000","02","16","23:00","-6.7","","-13.3","","59","","34","","22","","24.1","","101.42","","","","-14","","Mostly Cloudy"
"2000-02-17 00:00","2000","02","17","00:00"
"2000-02-17 01:00","2000","02","17","01:00"
"2000-02-17 02:00","2000","02","17","02:00"
"2000-02-17 03:00","2000","02","17","03:00"
"2000-02-17 04:00","2000","02","17","04:00"
"2000-02-17 05:00","2000","02","17","05:00"
"2000-02-17 06:00","2000","02","17","06:00","-15.9","","-19.0","","77","","35","","9","","24.1","","102.19","","","","-22","","Mainly Clear"
"2000-02-17 07:00","2000","02","17","07:00","-17.3","","-20.5","","76","","36","","7","","24.1","","102.29","","","","-23","","Mainly Clear"
"2000-02-17 08:00","2000","02","17","08:00","-16.3","","-20.1","","72","","35","","7","","24.1","","102.46","","","","-21","","Clear"
"2000-02-17 09:00","2000","02","17","09:00","-13.8","","-20.2","","58","","36","","15","","24.1","","102.52","","","","-21","","Clear"
"2000-02-17 10:00","2000","02","17","10:00","-12.9","","-21.2","","50","","35","","9","","24.1","","102.63","","","","-18","","Clear"
"2000-02-17 11:00","2000","02","17","11:00","-12.0","","-21.9","","44","","2","","4","","24.1","","102.66","","","","-15","","Clear"
"2000-02-17 12:00","2000","02","17","12:00","-11.1","","-21.7","","41","","5","","6","","24.1","","102.59","","","","-15","","Clear"
"2000-02-17 13:00","2000","02","17","13:00","-11.5","","-20.6","","47","","18","","9","","24.1","","102.52","","","","-17","","Mainly Clear"
"2000-02-17 14:00","2000","02","17","14:00","-10.5","","-20.3","","44","","19","","9","","24.1","","102.52","","","","-15","","Mainly Clear"
"2000-02-17 15:00","2000","02","17","15:00","-10.6","","-18.5","","52","","15","","11","","24.1","","102.49","","","","-16","","Clear"
"2000-02-17 16:00","2000","02","17","16:00","-9.9","","-19.5","","45","","20","","7","","24.1","","102.49","","","","-14","","Mainly Clear"
"2000-02-17 17:00","2000","02","17","17:00","-10.7","","-17.9","","55","","14","","9","","24.1","","102.42","","","","-16","","Mainly Clear"
"2000-02-17 18:00","2000","02","17","18:00","-12.5","","-19.6","","55","","13","","11","","24.1","","102.42","","","","-19","","Mainly Clear"
"2000-02-17 19:00","2000","02","17","19:00","-12.9","","-20.3","","54","","14","","11","","24.1","","102.46","","","","-19","","Clear"
"2000-02-17 20:00","2000","02","17","20:00","-12.7","","-19.8","","55","","9","","9","","24.1","","102.39","","","","-18","","Mainly Clear"
"2000-02-17 21:00","2000","02","17","21:00","-13.3","","-20.5","","55","","11","","7","","24.1","","102.39","","","","-18","","Mainly Clear"
"2000-02-17 22:00","2000","02","17","22:00","-15.8","","-20.9","","65","","1","","6","","24.1","","102.39","","","","-20","","Mainly Clear"
"2000-02-17 23:00","2000","02","17","23:00","-15.0","","-20.6","","62","","6","","6","","24.1","","102.32","","","","-19","","Mostly Cloudy"
"2000-02-18 00:00","2000","02","18","00:00"
"2000-02-18 01:00","2000","02","18","01:00"
"2000-02-18 02:00","2000","02","18","02:00"
"2000-02-18 03:00","2000","02","18","03:00"
"2000-02-18 04:00","2000","02","18","04:00"
"2000-02-18 05:00","2000","02","18","05:00"
"2000-02-18 06:00","2000","02","18","06:00","-12.1","","-18.1","","61","","6","","13","","24.1","","101.89","","","","-19","","Cloudy"
"2000-02-18 07:00","2000","02","18","07:00","-12.5","","-19.4","","56","","6","","13","","24.1","","101.89","","","","-19","","Cloudy"
"2000-02-18 08:00","2000","02","18","08:00","-12.1","","-19.7","","53","","5","","19","","24.1","","101.89","","","","-20","","Cloudy"
"2000-02-18 09:00","2000","02","18","09:00","-11.0","","-18.8","","53","","6","","15","","24.1","","101.85","","","","-18","","Cloudy"
"2000-02-18 10:00","2000","02","18","10:00","-9.3","","-14.9","","64","","6","","20","","24.1","","101.72","","","","-17","","Cloudy"
"2000-02-18 11:00","2000","02","18","11:00","-7.7","","-13.4","","64","","6","","15","","24.1","","101.62","","","","-14","","Cloudy"
"2000-02-18 12:00","2000","02","18","12:00","-7.0","","-11.3","","71","","6","","15","","3.2","","101.55","","","","-13","","Snow"
"2000-02-18 13:00","2000","02","18","13:00","-6.9","","-9.0","","85","","5","","20","","1.6","","101.38","","","","-14","","Snow"
"2000-02-18 14:00","2000","02","18","14:00","-6.4","","-8.4","","86","","5","","24","","1.6","","101.28","","","","-14","","Snow"
"2000-02-18 15:00","2000","02","18","15:00","-6.2","","-8.0","","87","","5","","19","","1.2","","101.15","","","","-13","","Snow"
"2000-02-18 16:00","2000","02","18","16:00","-6.4","","-8.1","","88","","5","","20","","1.6","","101.01","","","","-13","","Snow"
"2000-02-18 17:00","2000","02","18","17:00","-6.5","","-8.4","","86","","4","","20","","1.6","","100.98","","","","-13","","Snow"
"2000-02-18 18:00","2000","02","18","18:00","-7.6","","-9.4","","87","","5","","28","","1.6","","100.88","","","","-16","","Snow"
"2000-02-18 19:00","2000","02","18","19:00","-8.0","","-9.9","","86","","4","","17","","2.0","","100.88","","","","-15","","Snow"
"2000-02-18 20:00","2000","02","18","20:00","-8.2","","-10.4","","84","","5","","20","","6.4","","100.78","","","","-16","","Snow"
"2000-02-18 21:00","2000","02","18","21:00","-8.3","","-10.4","","85","","4","","20","","11.3","","100.68","","","","-16","","Snow"
"2000-02-18 22:00","2000","02","18","22:00","-8.7","","-10.8","","85","","3","","19","","16.1","","100.64","","","","-16","","Cloudy"
"2000-02-18 23:00","2000","02","18","23:00","-9.0","","-11.4","","83","","4","","22","","16.1","","100.68","","","","-17","","Cloudy"
"2000-02-19 00:00","2000","02","19","00:00"
"2000-02-19 01:00","2000","02","19","01:00"
"2000-02-19 02:00","2000","02","19","02:00"
"2000-02-19 03:00","2000","02","19","03:00"
"2000-02-19 04:00","2000","02","19","04:00"
"2000-02-19 05:00","2000","02","19","05:00"
"2000-02-19 06:00","2000","02","19","06:00","-9.1","","-13.2","","72","","3","","22","","24.1","","100.51","","","","-17","","Snow"
"2000-02-19 07:00","2000","02","19","07:00","-8.9","","-13.1","","72","","3","","24","","24.1","","100.58","","","","-17","","Mostly Cloudy"
"2000-02-19 08:00","2000","02","19","08:00","-9.0","","-13.9","","68","","4","","26","","24.1","","100.68","","","","-18","","Cloudy"
"2000-02-19 09:00","2000","02","19","09:00","-8.5","","-13.2","","69","","3","","24","","24.1","","100.71","","","","-17","","Mostly Cloudy"
"2000-02-19 10:00","2000","02","19","10:00","-7.9","","-12.4","","70","","4","","28","","24.1","","100.71","","","","-17","","Mainly Clear"
"2000-02-19 11:00","2000","02","19","11:00","-6.5","","-11.5","","68","","5","","26","","24.1","","100.75","","","","-14","","Mainly Clear"
"2000-02-19 12:00","2000","02","19","12:00","-5.0","","-10.0","","68","","3","","17","","24.1","","100.75","","","","-11","","Clear"
"2000-02-19 13:00","2000","02","19","13:00","-3.9","","-10.7","","59","","1","","19","","24.1","","100.68","","","","-10","","Clear"
"2000-02-19 14:00","2000","02","19","14:00","-3.0","","-10.5","","56","","2","","22","","24.1","","100.68","","","","-9","","Mainly Clear"
"2000-02-19 15:00","2000","02","19","15:00","-1.9","","-10.0","","54","","36","","11","","24.1","","100.71","","","","-6","","Mainly Clear"
"2000-02-19 16:00","2000","02","19","16:00","-1.9","","-10.2","","53","","36","","11","","24.1","","100.75","","","","-6","","Mainly Clear"
"2000-02-19 17:00","2000","02","19","17:00","-2.8","","-10.5","","55","","32","","7","","24.1","","100.75","","","","-6","","Mainly Clear"
"2000-02-19 18:00","2000","02","19","18:00","-5.6","","-10.6","","68","","16","","7","","24.1","","100.78","","","","-9","","Mainly Clear"
"2000-02-19 19:00","2000","02","19","19:00","-6.6","","-11.3","","69","","16","","11","","24.1","","100.81","","","","-12","","Cloudy"
"2000-02-19 20:00","2000","02","19","20:00","-5.7","","-9.8","","73","","25","","9","","24.1","","100.85","","","","-10","","Cloudy"
"2000-02-19 21:00","2000","02","19","21:00","-5.6","","-8.5","","80","","23","","9","","24.1","","100.85","","","","-10","","Cloudy"
"2000-02-19 22:00","2000","02","19","22:00","-6.7","","-8.9","","84","","25","","7","","24.1","","100.81","","","","-10","","Cloudy"
"2000-02-19 23:00","2000","02","19","23:00","-7.1","","-8.6","","89","","25","","9","","24.1","","100.81","","","","-11","","Cloudy"
"2000-02-20 00:00","2000","02","20","00:00"
"2000-02-20 01:00","2000","02","20","01:00"
"2000-02-20 02:00","2000","02","20","02:00"
"2000-02-20 03:00","2000","02","20","03:00"
"2000-02-20 04:00","2000","02","20","04:00"
"2000-02-20 05:00","2000","02","20","05:00"
"2000-02-20 06:00","2000","02","20","06:00","-8.1","","-10.6","","82","","25","","15","E","24.1","","100.78","","","","-14","E","Mostly Cloudy"
"2000-02-20 07:00","2000","02","20","07:00","-8.5","","-10.5","","85","","25","","6","","24.1","","100.78","","","","-12","","Mostly Cloudy"
"2000-02-20 08:00","2000","02","20","08:00","-7.7","","-9.9","","84","","25","","6","","24.1","","100.78","","","","-11","","Mainly Clear"
"2000-02-20 09:00","2000","02","20","09:00","-6.1","","-8.6","","82","","25","","13","","24.1","","100.78","","","","-11","","Mostly Cloudy"
"2000-02-20 10:00","2000","02","20","10:00","-2.7","","-5.7","","80","","26","","19","","24.1","","100.78","","","","-8","","Cloudy"
"2000-02-20 11:00","2000","02","20","11:00","-1.1","","-5.9","","70","","27","","22","","24.1","","100.75","","","","-7","","Mostly Cloudy"
"2000-02-20 12:00","2000","02","20","12:00","-0.4","","-6.1","","65","","27","","26","","24.1","","100.75","","","","-7","","Mostly Cloudy"
"2000-02-20 13:00","2000","02","20","13:00","-0.2","","-6.1","","64","","27","","24","","24.1","","100.68","","","","-6","","Mostly Cloudy"
"2000-02-20 14:00","2000","02","20","14:00","0.2","","-6.6","","60","","28","","26","","24.1","","100.68","","","","","","Mostly Cloudy"
"2000-02-20 15:00","2000","02","20","15:00","0.6","","-7.0","","57","","27","","24","","24.1","","100.68","","","","","","Mostly Cloudy"
"2000-02-20 16:00","2000","02","20","16:00","0.6","","-7.6","","54","","28","","24","","24.1","","100.75","","","","","","Cloudy"
"2000-02-20 17:00","2000","02","20","17:00","-0.2","","-7.1","","60","","26","","19","","24.1","","100.78","","","","-5","","Mostly Cloudy"
"2000-02-20 18:00","2000","02","20","18:00","-1.1","","-5.8","","70","","26","","13","","24.1","","100.88","","","","-5","","Mostly Cloudy"
"2000-02-20 19:00","2000","02","20","19:00","-1.0","","-5.8","","70","","29","","17","","24.1","","101.01","","","","-6","","Mostly Cloudy"
"2000-02-20 20:00","2000","02","20","20:00","-1.6","","-5.6","","74","","28","","13","","24.1","","101.05","","","","-6","","Mainly Clear"
"2000-02-20 21:00","2000","02","20","21:00","-2.2","","-6.8","","71","","28","","17","","24.1","","101.11","","","","-8","","Mainly Clear"
"2000-02-20 22:00","2000","02","20","22:00","-3.8","","-7.1","","78","","27","","9","","24.1","","101.15","","","","-8","","Clear"
"2000-02-20 23:00","2000","02","20","23:00","-5.4","","-8.3","","80","","27","","11","","24.1","","101.22","","","","-10","","Clear"
"2000-02-21 00:00","2000","02","21","00:00"
"2000-02-21 01:00","2000","02","21","01:00"
"2000-02-21 02:00","2000","02","21","02:00"
"2000-02-21 03:00","2000","02","21","03:00"
"2000-02-21 04:00","2000","02","21","04:00"
"2000-02-21 05:00","2000","02","21","05:00"
"2000-02-21 06:00","2000","02","21","06:00","-5.1","","-7.4","","84","","26","","9","","24.1","","101.48","","","","-9","","Mostly Cloudy"
"2000-02-21 07:00","2000","02","21","07:00","-3.8","","-6.6","","81","","28","","11","","24.1","","101.58","","","","-8","","Mostly Cloudy"
"2000-02-21 08:00","2000","02","21","08:00","-3.6","","-6.6","","80","","26","","13","","24.1","","101.72","","","","-8","","Mostly Cloudy"
"2000-02-21 09:00","2000","02","21","09:00","-2.7","","-6.1","","77","","25","","9","","24.1","","101.72","","","","-6","","Mostly Cloudy"
"2000-02-21 10:00","2000","02","21","10:00","-1.2","","-4.9","","76","","23","","9","","24.1","","101.79","","","","-4","","Cloudy"
"2000-02-21 11:00","2000","02","21","11:00","0.1","","-5.0","","69","","23","","11","","24.1","","101.75","","","","","","Cloudy"
"2000-02-21 12:00","2000","02","21","12:00","1.1","","-5.0","","64","","23","","17","","24.1","","101.72","","","","","","Cloudy"
"2000-02-21 13:00","2000","02","21","13:00","1.7","","-4.6","","63","","24","","19","","24.1","","101.65","","","","","","Cloudy"
"2000-02-21 14:00","2000","02","21","14:00","1.6","","-4.3","","65","","24","","22","","24.1","","101.65","","","","","","Cloudy"
"2000-02-21 15:00","2000","02","21","15:00","1.9","","-3.6","","67","","24","","24","","24.1","","101.62","","","","","","Cloudy"
"2000-02-21 16:00","2000","02","21","16:00","1.5","","-3.7","","68","","25","","20","","24.1","","101.62","","","","","","Mostly Cloudy"
"2000-02-21 17:00","2000","02","21","17:00","-0.1","","-2.9","","81","","20","","17","","16.1","","101.58","","","","-5","","Mostly Cloudy"
"2000-02-21 18:00","2000","02","21","18:00","-0.5","","-2.7","","85","","21","","13","","12.9","","101.62","","","","-5","","Cloudy"
"2000-02-21 19:00","2000","02","21","19:00","-1.4","","-3.9","","83","","21","","9","","16.1","","101.65","","","","-5","","Mostly Cloudy"
"2000-02-21 20:00","2000","02","21","20:00","-1.2","","-2.9","","88","","20","","13","","19.3","","101.62","","","","-5","","Mostly Cloudy"
"2000-02-21 21:00","2000","02","21","21:00","-0.7","","-2.6","","87","","23","","6","","19.3","","101.62","","","","-3","","Mostly Cloudy"
"2000-02-21 22:00","2000","02","21","22:00","-2.4","","-3.7","","91","","13","","6","","16.1","","101.62","","","","-5","","Mostly Cloudy"
"2000-02-21 23:00","2000","02","21","23:00","-2.4","","-3.4","","93","","18","","7","","16.1","","101.62","","","","-5","","Mostly Cloudy"
"2000-02-22 00:00","2000","02","22","00:00"
"2000-02-22 01:00","2000","02","22","01:00"
"2000-02-22 02:00","2000","02","22","02:00"
"2000-02-22 03:00","2000","02","22","03:00"
"2000-02-22 04:00","2000","02","22","04:00"
"2000-02-22 05:00","2000","02","22","05:00"
"2000-02-22 06:00","2000","02","22","06:00","-7.9","","-8.9","","93","","","","0","","4.8","","101.69","","","","","","Fog"
"2000-02-22 07:00","2000","02","22","07:00","-6.1","","-7.6","","89","","8","","6","","4.0","","101.72","","","","-9","","Fog"
"2000-02-22 08:00","2000","02","22","08:00","-2.1","","-2.8","","95","","15","","7","","6.4","","101.79","","","","-5","","Fog"
"2000-02-22 09:00","2000","02","22","09:00","-1.1","","-2.4","","91","","18","","11","","9.7","","101.79","","","","-5","","Fog"
"2000-02-22 10:00","2000","02","22","10:00","0.0","","-2.0","","86","","18","","15","","12.9","","101.79","","","","-4","","Mostly Cloudy"
"2000-02-22 11:00","2000","02","22","11:00","0.8","","-1.4","","85","","17","","13","","12.9","","101.75","","","","","","Mostly Cloudy"
"2000-02-22 12:00","2000","02","22","12:00","1.6","","-1.3","","81","","18","","13","","12.9","","101.72","","","","","","Mostly Cloudy"
"2000-02-22 13:00","2000","02","22","13:00","2.4","","-1.5","","75","","18","","15","","16.1","","101.62","","","","","","Mostly Cloudy"
"2000-02-22 14:00","2000","02","22","14:00","2.5","","-1.2","","77","","20","","9","","24.1","","101.55","","","","","","Mostly Cloudy"
"2000-02-22 15:00","2000","02","22","15:00","3.3","","-1.3","","72","","24","","9","","16.1","","101.52","","","","","","Mostly Cloudy"
"2000-02-22 16:00","2000","02","22","16:00","3.7","","-1.3","","70","","23","","11","","19.3","","101.52","","","","","","Mostly Cloudy"
"2000-02-22 17:00","2000","02","22","17:00","4.0","","-1.3","","68","","24","","9","","24.1","","101.48","","","","","","Mostly Cloudy"
"2000-02-22 18:00","2000","02","22","18:00","2.8","","-1.3","","74","","20","","4","","24.1","","101.45","","","","","","Cloudy"
"2000-02-22 19:00","2000","02","22","19:00","3.2","","-1.2","","73","","19","","13","","24.1","","101.48","","","","","","Cloudy"
"2000-02-22 20:00","2000","02","22","20:00","2.9","","-1.0","","75","","19","","17","","24.1","","101.42","","","","","","Cloudy"
"2000-02-22 21:00","2000","02","22","21:00","2.2","","-1.0","","79","","18","","19","","24.1","","101.45","","","","","","Cloudy"
"2000-02-22 22:00","2000","02","22","22:00","2.5","","-0.9","","78","","18","","24","","24.1","","101.42","","","","","","Cloudy"
"2000-02-22 23:00","2000","02","22","23:00","2.4","","-0.9","","79","","18","","24","","24.1","","101.42","","","","","","Cloudy"
"2000-02-23 00:00","2000","02","23","00:00"
"2000-02-23 01:00","2000","02","23","01:00"
"2000-02-23 02:00","2000","02","23","02:00"
"2000-02-23 03:00","2000","02","23","03:00"
"2000-02-23 04:00","2000","02","23","04:00"
"2000-02-23 05:00","2000","02","23","05:00"
"2000-02-23 06:00","2000","02","23","06:00","2.0","","-0.5","","83","","19","","11","","24.1","","101.35","","","","","","Mostly Cloudy"
"2000-02-23 07:00","2000","02","23","07:00","2.5","","-0.5","","81","","19","","20","","24.1","","101.28","","","","","","Cloudy"
"2000-02-23 08:00","2000","02","23","08:00","2.6","","-0.8","","78","","20","","20","","24.1","","101.28","","","","","","Cloudy"
"2000-02-23 09:00","2000","02","23","09:00","3.3","","-0.9","","74","","19","","26","","24.1","","101.28","","","","","","Cloudy"
"2000-02-23 10:00","2000","02","23","10:00","3.7","","-0.7","","73","","20","","30","","24.1","","101.28","","","","","","Mostly Cloudy"
"2000-02-23 11:00","2000","02","23","11:00","3.9","","-0.3","","74","","20","","22","","24.1","","101.28","","","","","","Mostly Cloudy"
"2000-02-23 12:00","2000","02","23","12:00","3.8","","-0.1","","76","","22","","20","","24.1","","101.28","","","","","","Cloudy"
"2000-02-23 13:00","2000","02","23","13:00","4.9","","0.1","","71","","22","","13","","24.1","","101.25","","","","","","Cloudy"
"2000-02-23 14:00","2000","02","23","14:00","5.4","","0.3","","70","","23","","13","","24.1","","101.22","","","","","","Cloudy"
"2000-02-23 15:00","2000","02","23","15:00","4.1","","0.3","","76","","22","","13","","24.1","","101.22","","","","","","Cloudy"
"2000-02-23 16:00","2000","02","23","16:00","3.7","","0.2","","78","","21","","19","","24.1","","101.22","","","","","","Cloudy"
"2000-02-23 17:00","2000","02","23","17:00","2.7","","0.1","","83","","20","","19","","24.1","","101.22","","","","","","Cloudy"
"2000-02-23 18:00","2000","02","23","18:00","2.6","","0.2","","84","","22","","13","","24.1","","101.22","","","","","","Cloudy"
"2000-02-23 19:00","2000","02","23","19:00","3.7","","1.1","","83","","22","","13","","24.1","","101.32","","","","","","Cloudy"
"2000-02-23 20:00","2000","02","23","20:00","3.0","","1.0","","87","","24","","7","","24.1","","101.32","","","","","","Cloudy"
"2000-02-23 21:00","2000","02","23","21:00","1.9","","0.6","","91","","","","0","","24.1","","101.28","","","","","","Cloudy"
"2000-02-23 22:00","2000","02","23","22:00","2.5","","1.2","","91","","25","","13","","24.1","","101.35","","","","","","Cloudy"
"2000-02-23 23:00","2000","02","23","23:00","1.8","","0.8","","93","","16","","4","","19.3","","101.32","","","","","","Cloudy"
"2000-02-24 00:00","2000","02","24","00:00"
"2000-02-24 01:00","2000","02","24","01:00"
"2000-02-24 02:00","2000","02","24","02:00"
"2000-02-24 03:00","2000","02","24","03:00"
"2000-02-24 04:00","2000","02","24","04:00"
"2000-02-24 05:00","2000","02","24","05:00"
"2000-02-24 06:00","2000","02","24","06:00","2.9","","2.7","","99","","35","","6","","0.4","","101.35","","","","","","Fog"
"2000-02-24 07:00","2000","02","24","07:00","2.7","","2.7","","100","","","","0","","0.8","","101.32","","","","","","Rain Showers,Fog"
"2000-02-24 08:00","2000","02","24","08:00","2.6","","2.3","","98","","","","0","","0.2","","101.35","","","","","","Rain Showers,Fog"
"2000-02-24 09:00","2000","02","24","09:00","2.7","","2.4","","98","","","","0","","0.6","","101.45","","","","","","Rain Showers,Fog"
"2000-02-24 10:00","2000","02","24","10:00","3.5","","3.3","","99","","13","","4","","2.4","","101.38","","","","","","Rain Showers,Fog"
"2000-02-24 11:00","2000","02","24","11:00","3.9","","3.6","","98","","12","","9","","3.2","","101.35","","","","","","Fog"
"2000-02-24 12:00","2000","02","24","12:00","4.3","","3.3","","93","","17","","6","","8.0","","101.28","","","","","","Fog"
"2000-02-24 13:00","2000","02","24","13:00","5.1","","3.6","","90","","","","0","","12.9","","101.15","","","","","","Cloudy"
"2000-02-24 14:00","2000","02","24","14:00","6.6","","3.7","","82","","36","","4","","12.9","","101.11","","","","","","Cloudy"
"2000-02-24 15:00","2000","02","24","15:00","7.9","","4.1","","77","","6","","7","","12.9","","101.08","","","","","","Cloudy"
"2000-02-24 16:00","2000","02","24","16:00","6.2","","4.1","","86","","6","","17","","9.7","","101.05","","","","","","Haze"
"2000-02-24 17:00","2000","02","24","17:00","5.8","","4.4","","91","","6","","13","","8.0","","101.01","","","","","","Fog"
"2000-02-24 18:00","2000","02","24","18:00","5.6","","4.5","","93","","36","","20","","6.4","","101.01","","","","","","Fog"
"2000-02-24 19:00","2000","02","24","19:00","5.2","","4.2","","93","","5","","17","","4.0","","101.08","","","","","","Rain,Fog"
"2000-02-24 20:00","2000","02","24","20:00","5.6","","4.7","","94","","6","","22","","6.4","","101.01","","","","","","Rain,Fog"
"2000-02-24 21:00","2000","02","24","21:00","5.0","","4.3","","95","","6","","22","","4.8","","101.01","","","","","","Fog"
"2000-02-24 22:00","2000","02","24","22:00","5.1","","4.5","","96","","6","","20","","4.8","","101.01","","","","","","Fog"
"2000-02-24 23:00","2000","02","24","23:00","4.8","","4.2","","96","","6","","22","","3.2","","101.01","","","","","","Rain,Fog"
"2000-02-25 00:00","2000","02","25","00:00"
"2000-02-25 01:00","2000","02","25","01:00"
"2000-02-25 02:00","2000","02","25","02:00"
"2000-02-25 03:00","2000","02","25","03:00"
"2000-02-25 04:00","2000","02","25","04:00"
"2000-02-25 05:00","2000","02","25","05:00"
"2000-02-25 06:00","2000","02","25","06:00","4.5","","3.7","","95","","6","","19","","4.0","","100.85","","","","","","Rain,Fog"
"2000-02-25 07:00","2000","02","25","07:00","4.1","","3.5","","96","","6","","22","","3.2","","100.88","","","","","","Rain,Fog"
"2000-02-25 08:00","2000","02","25","08:00","3.2","","2.3","","94","","5","","24","","2.4","","100.98","","","","","","Fog"
"2000-02-25 09:00","2000","02","25","09:00","1.9","","0.9","","93","","4","","26","","2.4","","101.01","","","","","","Rain,Fog"
"2000-02-25 10:00","2000","02","25","10:00","1.5","","0.3","","92","","4","","26","","4.8","","101.01","","","","","","Rain,Fog"
"2000-02-25 11:00","2000","02","25","11:00","1.5","","0.3","","92","","5","","26","","8.0","","101.08","","","","","","Rain,Fog"
"2000-02-25 12:00","2000","02","25","12:00","1.3","","0.3","","93","","5","","30","","12.9","","101.08","","","","","","Rain"
"2000-02-25 13:00","2000","02","25","13:00","1.3","","0.1","","92","","4","","24","","12.9","","101.11","","","","","","Cloudy"
"2000-02-25 14:00","2000","02","25","14:00","1.0","","0.0","","93","","4","","26","","2.4","","101.15","","","","","","Drizzle,Fog"
"2000-02-25 15:00","2000","02","25","15:00","1.0","","0.2","","94","","4","","20","","2.4","","101.22","","","","","","Fog"
"2000-02-25 16:00","2000","02","25","16:00","0.8","","0.0","","94","","5","","17","","2.4","","101.28","","","","","","Fog"
"2000-02-25 17:00","2000","02","25","17:00","0.7","","-0.1","","94","","3","","13","","2.4","","101.35","","","","","","Fog"
"2000-02-25 18:00","2000","02","25","18:00","0.6","","-0.3","","94","","5","","15","","2.4","","101.45","","","","","","Fog"
"2000-02-25 19:00","2000","02","25","19:00","0.5","","-0.2","","95","","4","","15","","2.4","","101.48","","","","","","Fog"
"2000-02-25 20:00","2000","02","25","20:00","0.5","","-0.1","","96","","5","","13","","2.4","","101.52","","","","","","Fog"
"2000-02-25 21:00","2000","02","25","21:00","0.6","","0.1","","96","","5","","9","","2.4","","101.52","","","","","","Fog"
"2000-02-25 22:00","2000","02","25","22:00","0.7","","0.3","","97","","4","","6","","2.4","","101.58","","","","","","Fog"
"2000-02-25 23:00","2000","02","25","23:00","0.9","","0.4","","96","","4","","6","","2.4","","101.58","","","","","","Fog"
"2000-02-26 00:00","2000","02","26","00:00"
"2000-02-26 01:00","2000","02","26","01:00"
"2000-02-26 02:00","2000","02","26","02:00"
"2000-02-26 03:00","2000","02","26","03:00"
"2000-02-26 04:00","2000","02","26","04:00"
"2000-02-26 05:00","2000","02","26","05:00"
"2000-02-26 06:00","2000","02","26","06:00","2.2","","0.8","","90","","18","","7","","24.1","","101.69","","","","","","Cloudy"
"2000-02-26 07:00","2000","02","26","07:00","3.1","","1.7","","91","","12","","7","","24.1","","101.58","","","","","","Mostly Cloudy"
"2000-02-26 08:00","2000","02","26","08:00","4.3","","2.6","","89","","13","","6","","19.3","","101.62","","","","","","Mostly Cloudy"
"2000-02-26 09:00","2000","02","26","09:00","4.3","","0.1","","74","","14","","11","","24.1","","101.62","","","","","","Cloudy"
"2000-02-26 10:00","2000","02","26","10:00","3.8","","2.0","","88","","15","","13","","24.1","","101.52","","","","","","Cloudy"
"2000-02-26 11:00","2000","02","26","11:00","4.1","","2.2","","87","","18","","13","","24.1","","101.48","","","","","","Mostly Cloudy"
"2000-02-26 12:00","2000","02","26","12:00","4.1","","2.0","","86","","17","","15","","24.1","","101.48","","","","","","Mostly Cloudy"
"2000-02-26 13:00","2000","02","26","13:00","4.4","","2.2","","86","","17","","19","","24.1","","101.35","","","","","","Mostly Cloudy"
"2000-02-26 14:00","2000","02","26","14:00","4.3","","2.4","","87","","17","","19","","24.1","","101.28","","","","","","Mostly Cloudy"
"2000-02-26 15:00","2000","02","26","15:00","5.6","","2.8","","82","","17","","11","","12.9","","101.25","","","","","","Mostly Cloudy"
"2000-02-26 16:00","2000","02","26","16:00","5.5","","3.0","","84","","16","","15","","12.9","","101.18","","","","","","Mostly Cloudy"
"2000-02-26 17:00","2000","02","26","17:00","4.2","","1.9","","85","","16","","13","","19.3","","101.15","","","","","","Mostly Cloudy"
"2000-02-26 18:00","2000","02","26","18:00","4.3","","1.9","","84","","17","","17","","19.3","","101.15","","","","","","Mostly Cloudy"
"2000-02-26 19:00","2000","02","26","19:00","3.0","","1.1","","87","","17","","13","","24.1","","101.11","","","","","","Cloudy"
"2000-02-26 20:00","2000","02","26","20:00","3.6","","1.6","","87","","18","","11","","24.1","","101.08","","","","","","Cloudy"
"2000-02-26 21:00","2000","02","26","21:00","3.3","","1.6","","89","","17","","26","","24.1","","101.05","","","","","","Mostly Cloudy"
"2000-02-26 22:00","2000","02","26","22:00","3.8","","2.2","","89","","17","","19","","24.1","","100.98","","","","","","Mostly Cloudy"
"2000-02-26 23:00","2000","02","26","23:00","4.0","","2.4","","89","","16","","20","","24.1","","100.85","","","","","","Mainly Clear"
"2000-02-27 00:00","2000","02","27","00:00"
"2000-02-27 01:00","2000","02","27","01:00"
"2000-02-27 02:00","2000","02","27","02:00"
"2000-02-27 03:00","2000","02","27","03:00"
"2000-02-27 04:00","2000","02","27","04:00"
"2000-02-27 05:00","2000","02","27","05:00"
"2000-02-27 06:00","2000","02","27","06:00","3.7","","2.6","","93","","16","","17","","19.3","","100.48","","","","","","Mainly Clear"
"2000-02-27 07:00","2000","02","27","07:00","3.9","","2.7","","92","","17","","19","","19.3","","100.41","","","","","","Cloudy"
"2000-02-27 08:00","2000","02","27","08:00","4.9","","3.5","","91","","16","","7","","19.3","","100.38","","","","","","Cloudy"
"2000-02-27 09:00","2000","02","27","09:00","4.2","","2.9","","91","","19","","9","","19.3","","100.34","","","","","","Cloudy"
"2000-02-27 10:00","2000","02","27","10:00","4.5","","3.1","","91","","19","","15","","19.3","","100.28","","","","","","Mostly Cloudy"
"2000-02-27 11:00","2000","02","27","11:00","5.2","","3.3","","88","","18","","26","","19.3","","100.21","","","","","","Mostly Cloudy"
"2000-02-27 12:00","2000","02","27","12:00","3.8","","2.6","","92","","18","","17","","19.3","","100.11","","","","","","Mostly Cloudy"
"2000-02-27 13:00","2000","02","27","13:00","4.7","","3.2","","90","","19","","19","","19.3","","100.04","","","","","","Cloudy"
"2000-02-27 14:00","2000","02","27","14:00","5.1","","3.3","","88","","19","","20","","19.3","","99.97","","","","","","Cloudy"
"2000-02-27 15:00","2000","02","27","15:00","8.7","","5.8","","82","","23","","28","","16.1","","100.11","","","","","","Rain Showers"
"2000-02-27 16:00","2000","02","27","16:00","3.6","","2.8","","94","","20","","22","","9.7","","100.04","","","","","","Rain Showers,Fog"
"2000-02-27 17:00","2000","02","27","17:00","4.7","","4.4","","98","","20","","26","","6.4","","100.11","","","","","","Rain Showers,Fog"
"2000-02-27 18:00","2000","02","27","18:00","4.4","","4.0","","97","","22","","22","","8.0","","100.14","","","","","","Rain Showers,Fog"
"2000-02-27 19:00","2000","02","27","19:00","4.2","","3.5","","95","","21","","20","","11.3","","100.24","","","","","","Rain"
"2000-02-27 20:00","2000","02","27","20:00","3.6","","3.3","","98","","21","","24","","9.7","","100.21","","","","","","Rain Showers,Fog"
"2000-02-27 21:00","2000","02","27","21:00","4.6","","3.4","","92","","23","","22","","19.3","","100.21","","","","","","Cloudy"
"2000-02-27 22:00","2000","02","27","22:00","3.5","","2.6","","94","","24","","15","","19.3","","100.28","","","","","","Cloudy"
"2000-02-27 23:00","2000","02","27","23:00","3.0","","1.9","","92","","25","","13","","19.3","","100.24","","","","","","Cloudy"
"2000-02-28 00:00","2000","02","28","00:00"
"2000-02-28 01:00","2000","02","28","01:00"
"2000-02-28 02:00","2000","02","28","02:00"
"2000-02-28 03:00","2000","02","28","03:00"
"2000-02-28 04:00","2000","02","28","04:00"
"2000-02-28 05:00","2000","02","28","05:00"
"2000-02-28 06:00","2000","02","28","06:00","1.9","","0.0","","87","","25","","15","","24.1","","100.24","","","","","","Cloudy"
"2000-02-28 07:00","2000","02","28","07:00","1.7","","-0.1","","88","","25","","11","","24.1","","100.28","","","","","","Cloudy"
"2000-02-28 08:00","2000","02","28","08:00","1.9","","0.0","","87","","25","","13","","24.1","","100.34","","","","","","Cloudy"
"2000-02-28 09:00","2000","02","28","09:00","2.9","","-0.1","","81","","28","","15","","24.1","","100.38","","","","","","Mostly Cloudy"
"2000-02-28 10:00","2000","02","28","10:00","3.6","","-2.2","","66","","27","","32","","24.1","","100.38","","","","","","Mostly Cloudy"
"2000-02-28 11:00","2000","02","28","11:00","3.4","","-2.0","","68","","29","","28","","24.1","","100.41","","","","","","Mostly Cloudy"
"2000-02-28 12:00","2000","02","28","12:00","3.2","","-2.5","","66","","26","","17","","24.1","","100.41","","","","","","Mostly Cloudy"
"2000-02-28 13:00","2000","02","28","13:00","3.8","","-2.9","","62","","29","","24","","24.1","","100.41","","","","","","Mostly Cloudy"
"2000-02-28 14:00","2000","02","28","14:00","4.4","","-2.8","","59","","29","","22","","24.1","","100.44","","","","","","Cloudy"
"2000-02-28 15:00","2000","02","28","15:00","4.7","","-2.3","","60","","28","","30","","24.1","","100.51","","","","","","Mostly Cloudy"
"2000-02-28 16:00","2000","02","28","16:00","4.5","","-2.0","","63","","30","","22","","24.1","","100.61","","","","","","Mostly Cloudy"
"2000-02-28 17:00","2000","02","28","17:00","4.4","","-2.3","","62","","30","","15","","24.1","","100.71","","","","","","Mostly Cloudy"
"2000-02-28 18:00","2000","02","28","18:00","3.8","","-4.0","","57","","33","","15","","24.1","","100.85","","","","","","Mostly Cloudy"
"2000-02-28 19:00","2000","02","28","19:00","2.7","","-3.9","","62","","34","","17","","24.1","","100.95","","","","","","Cloudy"
"2000-02-28 20:00","2000","02","28","20:00","1.9","","-4.8","","61","","32","","22","","24.1","","101.05","","","","","","Cloudy"
"2000-02-28 21:00","2000","02","28","21:00","1.2","","-5.6","","60","","34","","22","","24.1","","101.15","","","","","","Cloudy"
"2000-02-28 22:00","2000","02","28","22:00","0.3","","-6.2","","62","","32","","17","","24.1","","101.22","","","","","","Mostly Cloudy"
"2000-02-28 23:00","2000","02","28","23:00","-0.3","","-6.2","","64","","31","","7","","24.1","","101.28","","","","-3","","Cloudy"
"2000-02-29 00:00","2000","02","29","00:00"
"2000-02-29 01:00","2000","02","29","01:00"
"2000-02-29 02:00","2000","02","29","02:00"
"2000-02-29 03:00","2000","02","29","03:00"
"2000-02-29 04:00","2000","02","29","04:00"
"2000-02-29 05:00","2000","02","29","05:00"
"2000-02-29 06:00","2000","02","29","06:00","-5.0","","-7.5","","83","","29","","4","","24.1","","101.52","","","","-7","","Clear"
"2000-02-29 07:00","2000","02","29","07:00","-5.6","","-7.9","","84","","30","","6","","24.1","","101.58","","","","-8","","Clear"
"2000-02-29 08:00","2000","02","29","08:00","-3.6","","-6.5","","80","","29","","6","","24.1","","101.65","","","","-6","","Clear"
"2000-02-29 09:00","2000","02","29","09:00","-2.1","","-6.5","","72","","34","","9","","24.1","","101.65","","","","-6","","Mainly Clear"
"2000-02-29 10:00","2000","02","29","10:00","-0.7","","-6.6","","64","","34","","6","","24.1","","101.58","","","","-3","","Mainly Clear"
"2000-02-29 11:00","2000","02","29","11:00","-0.7","","-5.4","","70","","18","","13","","24.1","","101.62","","","","-5","","Mainly Clear"
"2000-02-29 12:00","2000","02","29","12:00","0.0","","-5.0","","69","","20","","17","","24.1","","101.55","","","","-5","","Mainly Clear"
"2000-02-29 13:00","2000","02","29","13:00","0.1","","-4.4","","72","","18","","19","","24.1","","101.45","","","","","","Mainly Clear"
"2000-02-29 14:00","2000","02","29","14:00","-0.1","","-4.5","","72","","18","","15","","24.1","","101.35","","","","-5","","Mostly Cloudy"
"2000-02-29 15:00","2000","02","29","15:00","0.1","","-4.2","","73","","19","","20","","24.1","","101.35","","","","","","Mostly Cloudy"
"2000-02-29 16:00","2000","02","29","16:00","-0.3","","-4.1","","75","","20","","17","","24.1","","101.35","","","","-5","","Mostly Cloudy"
"2000-02-29 17:00","2000","02","29","17:00","-0.2","","-4.0","","76","","20","","15","","24.1","","101.32","","","","-5","","Cloudy"
"2000-02-29 18:00","2000","02","29","18:00","-0.2","","-3.5","","78","","21","","6","","24.1","","101.32","","","","-2","","Cloudy"
"2000-02-29 19:00","2000","02","29","19:00","-0.7","","-2.9","","85","","16","","4","","24.1","","101.28","","","","-2","","Mostly Cloudy"
"2000-02-29 20:00","2000","02","29","20:00","-0.7","","-3.1","","84","","14","","7","","24.1","","101.28","","","","-3","","Mostly Cloudy"
"2000-02-29 21:00","2000","02","29","21:00","-0.9","","-3.1","","85","","12","","9","","24.1","","101.15","","","","-4","","Mostly Cloudy"
"2000-02-29 22:00","2000","02","29","22:00","-1.1","","-3.5","","84","","10","","7","","24.1","","101.08","","","","-4","","Mainly Clear"
"2000-02-29 23:00","2000","02","29","23:00","-1.0","","-4.3","","78","","10","","13","","24.1","","101.05","","","","-5","","Mainly Clear"
