"Station Name","KINGSTON A"
"Province","ONTARIO"
"Current Station Operator","NAV Canada"
"Latitude","44.23"
"Longitude","-76.60"
"Elevation","92.40"
"Climate Identifier","6104149"
"WMO Identifier",""
"TC Identifier","YGK"
"All times are specified in Local Standard Time (LST). Add 1 hour to adjust for Daylight Saving Time where and when it is observed."

"Legend"
"E","Estimated"
"M","Missing"
"NA","Not Available"

"Date/Time","Year","Month","Day","Time","Temp (°C)","Temp Flag","Dew Point Temp (°C)","Dew Point Temp Flag","Rel Hum (%)","Rel Hum Flag","Wind Dir (10s deg)","Wind Dir Flag","Wind Spd (km/h)","Wind Spd Flag","Visibility (km)","Visibility Flag","Stn Press (kPa)","Stn Press Flag","Hmdx","Hmdx Flag","Wind Chill","Wind Chill Flag","Weather"
"2018-10-01 00:00","2018","10","01","00:00"
"2018-10-01 01:00","2018","10","01","01:00"
"2018-10-01 02:00","2018","10","01","02:00"
"2018-10-01 03:00","2018","10","01","03:00"
"2018-10-01 04:00","2018","10","01","04:00"
"2018-10-01 05:00","2018","10","01","05:00","6.8","","6.4","","97","","2","","12","","24.1","","101.67","","","","","","Rain"
"2018-10-01 06:00","2018","10","01","06:00","7.0","","6.5","","97","","4","","6","","19.3","","101.68","","","","","","Rain"
"2018-10-01 07:00","2018","10","01","07:00","7.0","","6.0","","94","","2","","9","","24.1","","101.70","","","","","","Rain"
"2018-10-01 08:00","2018","10","01","08:00","7.4","","6.2","","92","","2","","16","","24.1","","101.79","","","","","","NA"
"2018-10-01 09:00","2018","10","01","09:00","7.7","","6.2","","91","","2","","14","","24.1","","101.79","","","","","","NA"
"2018-10-01 10:00","2018","10","01","10:00","7.9","","6.1","","88","","3","","11","","24.1","","101.79","","","","","","Rain"
"2018-10-01 11:00","2018","10","01","11:00","9.1","","6.9","","86","","1","","10","","24.1","","101.81","","","","","","Rain"
"2018-10-01 12:00","2018","10","01","12:00","10.0","","4.9","","70","","5","","15","","24.1","","101.79","","","","","","NA"
"2018-10-01 13:00","2018","10","01","13:00","10.2","","4.9","","69","","4","","20","","24.1","","101.72","","","","","","Cloudy"
"2018-10-01 14:00","2018","10","01","14:00","10.4","","4.8","","68","","4","","18","","24.1","","101.74","","","","","","NA"
"2018-10-01 15:00","2018","10","01","15:00","10.4","","4.3","","65","","4","","20","","24.1","","101.69","","","","","","NA"
"2018-10-01 16:00","2018","10","01","16:00","10.4","","5.9","","74","","4","","16","","24.1","","101.65","","","","","","Cloudy"
"2018-10-01 17:00","2018","10","01","17:00","10.4","","6.2","","75","","5","","17","","24.1","","101.57","","","","","","NA"
"2018-10-01 18:00","2018","10","01","18:00","10.2","","6.8","","80","","6","","18","","24.1","","101.51","","","","","","NA"
"2018-10-01 19:00","2018","10","01","19:00","10.1","","6.6","","79","","5","","14","","24.1","","101.56","","","","","","Cloudy"
"2018-10-01 20:00","2018","10","01","20:00","10.1","","6.7","","79","","6","","17","","24.1","","101.48","","","","","","NA"
"2018-10-01 21:00","2018","10","01","21:00","10.1","","7.0","","81","","5","","16","","24.1","","101.42","","","","","","NA"
"2018-10-01 22:00","2018","10","01","22:00","10.1","","7.8","","86","","4","","17","","24.1","","101.35","","","","","","Rain"
"2018-10-01 23:00","2018","10","01","23:00"
"2018-10-02 00:00","2018","10","02","00:00"
"2018-10-02 01:00","2018","10","02","01:00"
"2018-10-02 02:00","2018","10","02","02:00"
"2018-10-02 03:00","2018","10","02","03:00"
"2018-10-02 04:00","2018","10","02","04:00"
"2018-10-02 05:00","2018","10","02","05:00","8.8","","8.8","","100","","1","","19","","16.1","","100.98","","","","","","Rain Showers"
"2018-10-02 06:00","2018","10","02","06:00","8.9","","8.8","","100","","4","","24","","12.9","","100.86","","","","","","Moderate Rain Showers"
"2018-10-02 07:00","2018","10","02","07:00","9.1","","9.1","","100","","6","","20","","9.7","","100.74","","","","","","Rain Showers,Fog"
"2018-10-02 08:00","2018","10","02","08:00","9.3","","9.3","","100","","5","","18","","8.1","","100.73","","","","","","Rain,Fog"
"2018-10-02 09:00","2018","10","02","09:00","9.2","","9.2","","100","","1","","18","","9.7","","100.72","","","","","","Rain,Fog"
"2018-10-02 10:00","2018","10","02","10:00","9.2","","9.2","","100","","2","","21","","9.7","","100.72","","","","","","Rain,Fog"
"2018-10-02 11:00","2018","10","02","11:00","9.6","","9.5","","100","","4","","16","","16.1","","100.62","","","","","","NA"
"2018-10-02 12:00","2018","10","02","12:00","9.9","","9.8","","99","","2","","17","","19.3","","100.59","","","","","","Rain"
"2018-10-02 13:00","2018","10","02","13:00","10.6","","10.2","","97","","3","","19","","24.1","","100.53","","","","","","Cloudy"
"2018-10-02 14:00","2018","10","02","14:00","10.8","","10.4","","97","","2","","12","","24.1","","100.49","","","","","","NA"
"2018-10-02 15:00","2018","10","02","15:00","10.6","","10.3","","98","","4","","12","","24.1","","100.42","","","","","","NA"
"2018-10-02 16:00","2018","10","02","16:00","10.5","","10.2","","98","","4","","16","","24.1","","100.42","","","","","","Cloudy"
"2018-10-02 17:00","2018","10","02","17:00","9.9","","9.8","","99","","4","","25","","19.3","","100.36","","","","","","NA"
"2018-10-02 18:00","2018","10","02","18:00","9.6","","9.6","","100","","4","","22","","4.8","","100.30","","","","","","Rain,Fog"
"2018-10-02 19:00","2018","10","02","19:00","9.7","","9.7","","100","","1","","10","","16.1","","100.40","","","","","","Rain"
"2018-10-02 20:00","2018","10","02","20:00","9.9","","9.8","","100","","36","","15","","24.1","","100.42","","","","","","NA"
"2018-10-02 21:00","2018","10","02","21:00","9.9","","9.7","","99","","2","","14","","24.1","","100.39","","","","","","NA"
"2018-10-02 22:00","2018","10","02","22:00","10.1","","10.0","","99","","1","","14","","24.1","","100.47","","","","","","Cloudy"
"2018-10-02 23:00","2018","10","02","23:00"
"2018-10-03 00:00","2018","10","03","00:00"
"2018-10-03 01:00","2018","10","03","01:00"
"2018-10-03 02:00","2018","10","03","02:00"
"2018-10-03 03:00","2018","10","03","03:00"
"2018-10-03 04:00","2018","10","03","04:00"
"2018-10-03 05:00","2018","10","03","05:00","10.3","","10.3","","100","","36","","5","","16.1","","100.75","","","","","","NA"
"2018-10-03 06:00","2018","10","03","06:00","10.3","","10.3","","100","","31","","5","","19.3","","100.84","","","","","","NA"
"2018-10-03 07:00","2018","10","03","07:00","10.4","","10.4","","100","","33","","4","","11.3","","100.89","","","","","","Cloudy"
"2018-10-03 08:00","2018","10","03","08:00","11.1","","11.0","","99","","1","","5","","16.1","","100.90","","","","","","NA"
"2018-10-03 09:00","2018","10","03","09:00","11.3","","10.7","","96","","36","","2","","16.1","","100.93","","","","","","NA"
"2018-10-03 10:00","2018","10","03","10:00","11.8","","10.9","","95","","36","","2","","19.3","","100.91","","","","","","Cloudy"
"2018-10-03 11:00","2018","10","03","11:00","12.6","","11.7","","94","","23","","4","","19.3","","100.95","","","","","","NA"
"2018-10-03 12:00","2018","10","03","12:00","13.2","","12.0","","92","","23","","9","","16.1","","100.95","","","","","","NA"
"2018-10-03 13:00","2018","10","03","13:00","13.4","","11.9","","91","","21","","8","","19.3","","100.89","","","","","","Cloudy"
"2018-10-03 14:00","2018","10","03","14:00","13.2","","12.2","","93","","19","","13","","24.1","","100.88","","","","","","NA"
"2018-10-03 15:00","2018","10","03","15:00","13.7","","12.2","","90","","17","","10","","24.1","","100.81","","","","","","NA"
"2018-10-03 16:00","2018","10","03","16:00","13.8","","12.1","","90","","19","","14","","24.1","","100.76","","","","","","Cloudy"
"2018-10-03 17:00","2018","10","03","17:00","13.8","","12.3","","91","","17","","18","","24.1","","100.68","","","","","","NA"
"2018-10-03 18:00","2018","10","03","18:00","13.7","","12.3","","91","","18","","18","","24.1","","100.61","","","","","","NA"
"2018-10-03 19:00","2018","10","03","19:00","13.7","","12.6","","93","","17","","19","","24.1","","100.57","","","","","","Mostly Cloudy"
"2018-10-03 20:00","2018","10","03","20:00","14.5","","13.3","","93","","17","","25","","24.1","","100.50","","","","","","NA"
"2018-10-03 21:00","2018","10","03","21:00","14.7","","13.9","","95","","17","","28","","24.1","","100.45","","","","","","NA"
"2018-10-03 22:00","2018","10","03","22:00","15.1","","13.9","","93","","17","","30","","24.1","","100.36","","","","","","Mostly Cloudy"
"2018-10-03 23:00","2018","10","03","23:00"
"2018-10-04 00:00","2018","10","04","00:00"
"2018-10-04 01:00","2018","10","04","01:00"
"2018-10-04 02:00","2018","10","04","02:00"
"2018-10-04 03:00","2018","10","04","03:00"
"2018-10-04 04:00","2018","10","04","04:00"
"2018-10-04 05:00","2018","10","04","05:00","17.2","","16.3","","94","","18","","31","","24.1","","99.66","","","","","","NA"
"2018-10-04 06:00","2018","10","04","06:00","17.7","","16.9","","95","","18","","28","","24.1","","99.65","","","","","","NA"
"2018-10-04 07:00","2018","10","04","07:00","17.2","","17.2","","100","","19","","26","","8.1","","99.70","","","","","","Rain"
"2018-10-04 08:00","2018","10","04","08:00","17.8","","17.8","","100","","18","","35","","6.4","","99.72","","","","","","Rain,Fog"
"2018-10-04 09:00","2018","10","04","09:00","18.0","","18.0","","100","","22","","20","","8.1","","99.74","","","","","","Fog"
"2018-10-04 10:00","2018","10","04","10:00","18.2","","18.2","","100","","21","","22","","9.7","","99.76","","","","","","Rain Showers,Fog"
"2018-10-04 11:00","2018","10","04","11:00","21.4","","21.0","","97","","24","","18","","19.3","","99.80","","30","","","","NA"
"2018-10-04 12:00","2018","10","04","12:00","23.7","","13.7","","53","","31","","27","","24.1","","99.83","","27","","","","NA"
"2018-10-04 13:00","2018","10","04","13:00","23.3","","11.0","","45","","30","","25","","24.1","","99.89","","25","","","","Mainly Clear"
"2018-10-04 14:00","2018","10","04","14:00","23.0","","10.5","","45","","31","","31","","24.1","","100.00","","25","","","","NA"
"2018-10-04 15:00","2018","10","04","15:00","22.2","","10.5","","47","","30","","19","","24.1","","100.13","","","","","","NA"
"2018-10-04 16:00","2018","10","04","16:00","21.3","","11.1","","52","","31","","23","","24.1","","100.24","","","","","","Clear"
"2018-10-04 17:00","2018","10","04","17:00","19.8","","10.8","","56","","31","","16","","24.1","","100.36","","","","","","NA"
"2018-10-04 18:00","2018","10","04","18:00","16.6","","9.8","","64","","34","","16","","24.1","","100.53","","","","","","NA"
"2018-10-04 19:00","2018","10","04","19:00","14.7","","7.0","","60","","34","","15","","24.1","","100.68","","","","","","Clear"
"2018-10-04 20:00","2018","10","04","20:00","13.1","","5.8","","61","","2","","19","","24.1","","100.84","","","","","","NA"
"2018-10-04 21:00","2018","10","04","21:00","11.2","","2.9","","57","","1","","20","","24.1","","101.00","","","","","","NA"
"2018-10-04 22:00","2018","10","04","22:00","9.7","","2.1","","59","","1","","17","","24.1","","101.12","","","","","","Clear"
"2018-10-04 23:00","2018","10","04","23:00"
"2018-10-05 00:00","2018","10","05","00:00"
"2018-10-05 01:00","2018","10","05","01:00"
"2018-10-05 02:00","2018","10","05","02:00"
"2018-10-05 03:00","2018","10","05","03:00"
"2018-10-05 04:00","2018","10","05","04:00"
"2018-10-05 05:00","2018","10","05","05:00","3.8","","1.5","","85","","2","","9","","24.1","","101.38","","","","","","NA"
"2018-10-05 06:00","2018","10","05","06:00","3.7","","-0.2","","75","","2","","10","","24.1","","101.46","","","","","","NA"
"2018-10-05 07:00","2018","10","05","07:00","4.7","","-0.6","","68","","2","","13","","24.1","","101.52","","","","","","Mainly Clear"
"2018-10-05 08:00","2018","10","05","08:00","6.1","","-1.4","","59","","5","","22","","24.1","","101.50","","","","","","NA"
"2018-10-05 09:00","2018","10","05","09:00","7.3","","-1.1","","55","","4","","19","","24.1","","101.51","","","","","","NA"
"2018-10-05 10:00","2018","10","05","10:00","8.4","","0.3","","57","","4","","15","","24.1","","101.50","","","","","","Mostly Cloudy"
"2018-10-05 11:00","2018","10","05","11:00","9.5","","1.6","","57","","4","","10","","24.1","","101.47","","","","","","NA"
"2018-10-05 12:00","2018","10","05","12:00","10.8","","3.2","","59","","1","","12","","24.1","","101.37","","","","","","NA"
"2018-10-05 13:00","2018","10","05","13:00","10.1","","1.5","","55","","2","","18","","24.1","","101.24","","","","","","Mostly Cloudy"
"2018-10-05 14:00","2018","10","05","14:00","10.8","","1.6","","53","","4","","16","","24.1","","101.25","","","","","","NA"
"2018-10-05 15:00","2018","10","05","15:00","11.3","","2.1","","53","","2","","20","","24.1","","101.20","","","","","","NA"
"2018-10-05 16:00","2018","10","05","16:00","10.5","","0.8","","51","","4","","20","","24.1","","101.12","","","","","","Mostly Cloudy"
"2018-10-05 17:00","2018","10","05","17:00","10.4","","1.4","","53","","6","","15","","24.1","","101.11","","","","","","NA"
"2018-10-05 18:00","2018","10","05","18:00","10.2","","1.8","","56","","6","","17","","24.1","","101.09","","","","","","NA"
"2018-10-05 19:00","2018","10","05","19:00","10.1","","1.5","","55","","5","","19","","24.1","","101.13","","","","","","Mostly Cloudy"
"2018-10-05 20:00","2018","10","05","20:00","9.8","","2.4","","60","","5","","20","","24.1","","101.11","","","","","","NA"
"2018-10-05 21:00","2018","10","05","21:00","9.4","","2.1","","60","","5","","18","","24.1","","101.15","","","","","","NA"
"2018-10-05 22:00","2018","10","05","22:00","9.1","","1.9","","61","","5","","18","","24.1","","101.06","","","","","","Mostly Cloudy"
"2018-10-05 23:00","2018","10","05","23:00"
"2018-10-06 00:00","2018","10","06","00:00"
"2018-10-06 01:00","2018","10","06","01:00"
"2018-10-06 02:00","2018","10","06","02:00"
"2018-10-06 03:00","2018","10","06","03:00"
"2018-10-06 04:00","2018","10","06","04:00"
"2018-10-06 05:00","2018","10","06","05:00","8.4","","4.5","","76","","5","","17","","24.1","","100.83","","","","","","NA"
"2018-10-06 06:00","2018","10","06","06:00","8.4","","4.8","","78","","4","","14","","24.1","","100.86","","","","","","NA"
"2018-10-06 07:00","2018","10","06","07:00","8.2","","5.1","","81","","6","","16","","24.1","","100.82","","","","","","Cloudy"
"2018-10-06 08:00","2018","10","06","08:00","8.6","","5.2","","79","","4","","13","","24.1","","100.81","","","","","","NA"
"2018-10-06 09:00","2018","10","06","09:00","8.0","","6.8","","92","","4","","7","","4.8","","100.85","","","","","","Rain,Fog"
"2018-10-06 10:00","2018","10","06","10:00","8.3","","8.2","","99","","3","","13","","12.9","","100.74","","","","","","Rain"
"2018-10-06 11:00","2018","10","06","11:00","9.6","","9.6","","100","","3","","8","","19.3","","100.68","","","","","","NA"
"2018-10-06 12:00","2018","10","06","12:00","10.4","","10.2","","99","","4","","9","","19.3","","100.64","","","","","","NA"
"2018-10-06 13:00","2018","10","06","13:00","11.0","","10.8","","99","","8","","7","","16.1","","100.57","","","","","","Cloudy"
"2018-10-06 14:00","2018","10","06","14:00","11.8","","11.8","","100","","13","","5","","6.4","","100.52","","","","","","Rain,Fog"
"2018-10-06 15:00","2018","10","06","15:00","13.6","","13.6","","100","","15","","8","","11.3","","100.42","","","","","","Rain"
"2018-10-06 16:00","2018","10","06","16:00","14.1","","14.1","","100","","35","","10","","11.3","","100.44","","","","","","Cloudy"
"2018-10-06 17:00","2018","10","06","17:00","14.0","","14.0","","100","","1","","8","","12.9","","100.45","","","","","","NA"
"2018-10-06 18:00","2018","10","06","18:00","13.6","","13.6","","100","","35","","13","","12.9","","100.52","","","","","","NA"
"2018-10-06 19:00","2018","10","06","19:00","13.1","","13.1","","100","","1","","10","","3.2","","100.57","","","","","","Fog"
"2018-10-06 20:00","2018","10","06","20:00","12.9","","12.9","","100","","11","","7","","3.2","","100.58","","","","","","Fog"
"2018-10-06 21:00","2018","10","06","21:00","13.3","","13.3","","100","","35","","5","","6.4","","100.62","","","","","","Fog"
"2018-10-06 22:00","2018","10","06","22:00","13.3","","13.3","","100","","32","","7","","6.4","","100.66","","","","","","Fog"
"2018-10-06 23:00","2018","10","06","23:00"
"2018-10-07 00:00","2018","10","07","00:00"
"2018-10-07 01:00","2018","10","07","01:00"
"2018-10-07 02:00","2018","10","07","02:00"
"2018-10-07 03:00","2018","10","07","03:00"
"2018-10-07 04:00","2018","10","07","04:00"
"2018-10-07 05:00","2018","10","07","05:00","10.8","","10.0","","95","","3","","15","","24.1","","100.99","","","","","","NA"
"2018-10-07 06:00","2018","10","07","06:00","10.4","","9.3","","93","","1","","17","","24.1","","101.12","","","","","","NA"
"2018-10-07 07:00","2018","10","07","07:00","10.0","","9.3","","95","","1","","14","","24.1","","101.22","","","","","","Cloudy"
"2018-10-07 08:00","2018","10","07","08:00","10.6","","9.2","","91","","3","","18","","24.1","","101.27","","","","","","NA"
"2018-10-07 09:00","2018","10","07","09:00","11.3","","9.2","","87","","2","","16","","24.1","","101.36","","","","","","NA"
"2018-10-07 10:00","2018","10","07","10:00","11.1","","8.7","","85","","1","","21","","24.1","","101.42","","","","","","Cloudy"
"2018-10-07 11:00","2018","10","07","11:00","11.5","","8.7","","83","","2","","17","","24.1","","101.46","","","","","","NA"
"2018-10-07 12:00","2018","10","07","12:00","12.0","","9.0","","82","","2","","17","","24.1","","101.46","","","","","","NA"
"2018-10-07 13:00","2018","10","07","13:00","12.5","","9.2","","80","","3","","15","","24.1","","101.44","","","","","","Cloudy"
"2018-10-07 14:00","2018","10","07","14:00","11.6","","8.8","","82","","4","","20","","24.1","","101.46","","","","","","NA"
"2018-10-07 15:00","2018","10","07","15:00","10.8","","8.3","","84","","4","","21","","24.1","","101.50","","","","","","NA"
"2018-10-07 16:00","2018","10","07","16:00","10.5","","8.5","","87","","2","","18","","24.1","","101.57","","","","","","Cloudy"
"2018-10-07 17:00","2018","10","07","17:00","10.4","","8.4","","87","","1","","15","","24.1","","101.66","","","","","","NA"
"2018-10-07 18:00","2018","10","07","18:00","10.3","","8.2","","86","","3","","13","","24.1","","101.70","","","","","","NA"
"2018-10-07 19:00","2018","10","07","19:00","10.2","","8.0","","86","","5","","16","","24.1","","101.71","","","","","","Cloudy"
"2018-10-07 20:00","2018","10","07","20:00","10.2","","7.8","","85","","4","","17","","24.1","","101.72","","","","","","NA"
"2018-10-07 21:00","2018","10","07","21:00","10.1","","8.0","","87","","3","","17","","24.1","","101.76","","","","","","NA"
"2018-10-07 22:00","2018","10","07","22:00","9.8","","7.6","","86","","4","","16","","24.1","","101.76","","","","","","Cloudy"
"2018-10-07 23:00","2018","10","07","23:00"
"2018-10-08 00:00","2018","10","08","00:00"
"2018-10-08 01:00","2018","10","08","01:00"
"2018-10-08 02:00","2018","10","08","02:00"
"2018-10-08 03:00","2018","10","08","03:00"
"2018-10-08 04:00","2018","10","08","04:00"
"2018-10-08 05:00","2018","10","08","05:00","8.4","","5.8","","83","","5","","19","","24.1","","101.77","","","","","","NA"
"2018-10-08 06:00","2018","10","08","06:00","8.2","","5.9","","85","","4","","16","","24.1","","101.80","","","","","","NA"
"2018-10-08 07:00","2018","10","08","07:00","8.3","","6.3","","87","","6","","18","","24.1","","101.81","","","","","","Cloudy"
"2018-10-08 08:00","2018","10","08","08:00","8.5","","6.5","","87","","5","","21","","12.9","","101.78","","","","","","NA"
"2018-10-08 09:00","2018","10","08","09:00","8.8","","6.6","","86","","5","","22","","24.1","","101.77","","","","","","NA"
"2018-10-08 10:00","2018","10","08","10:00","8.9","","6.8","","86","","4","","18","","24.1","","101.74","","","","","","Cloudy"
"2018-10-08 11:00","2018","10","08","11:00","9.9","","7.7","","86","","4","","17","","24.1","","101.66","","","","","","NA"
"2018-10-08 12:00","2018","10","08","12:00","11.1","","8.4","","83","","5","","18","","24.1","","101.56","","","","","","NA"
"2018-10-08 13:00","2018","10","08","13:00","11.8","","8.9","","82","","6","","13","","24.1","","101.45","","","","","","Cloudy"
"2018-10-08 14:00","2018","10","08","14:00","12.4","","9.8","","84","","6","","15","","24.1","","101.37","","","","","","NA"
"2018-10-08 15:00","2018","10","08","15:00","12.7","","10.7","","88","","3","","10","","24.1","","101.30","","","","","","NA"
"2018-10-08 16:00","2018","10","08","16:00","13.9","","11.5","","86","","4","","10","","24.1","","101.24","","","","","","Mainly Clear"
"2018-10-08 17:00","2018","10","08","17:00","13.2","","11.4","","89","","2","","10","","24.1","","101.27","","","","","","NA"
"2018-10-08 18:00","2018","10","08","18:00","12.2","","11.2","","93","","3","","11","","24.1","","101.26","","","","","","NA"
"2018-10-08 19:00","2018","10","08","19:00","11.7","","10.8","","94","","4","","13","","24.1","","101.25","","","","","","Mostly Cloudy"
"2018-10-08 20:00","2018","10","08","20:00","11.4","","10.6","","95","","6","","12","","24.1","","101.20","","","","","","NA"
"2018-10-08 21:00","2018","10","08","21:00","11.5","","10.6","","94","","3","","8","","24.1","","101.15","","","","","","Thunderstorms"
"2018-10-08 22:00","2018","10","08","22:00","11.6","","11.6","","100","","25","","3","","16.1","","101.16","","","","","","Rain Showers"
"2018-10-08 23:00","2018","10","08","23:00"
"2018-10-09 00:00","2018","10","09","00:00"
"2018-10-09 01:00","2018","10","09","01:00"
"2018-10-09 02:00","2018","10","09","02:00"
"2018-10-09 03:00","2018","10","09","03:00"
"2018-10-09 04:00","2018","10","09","04:00"
"2018-10-09 05:00","2018","10","09","05:00","16.6","","16.6","","100","","20","","12","","16.1","","101.05","","","","","","NA"
"2018-10-09 06:00","2018","10","09","06:00","16.7","","16.7","","100","","21","","9","","9.7","","101.08","","","","","","Fog"
"2018-10-09 07:00","2018","10","09","07:00","17.2","","17.2","","100","","20","","8","","9.7","","101.09","","","","","","Fog"
"2018-10-09 08:00","2018","10","09","08:00","17.6","","17.6","","100","","20","","9","","9.7","","101.10","","","","","","Fog"
"2018-10-09 09:00","2018","10","09","09:00","19.2","","18.7","","96","","20","","17","","19.3","","101.09","","","","","","NA"
"2018-10-09 10:00","2018","10","09","10:00","20.5","","19.1","","92","","19","","19","","16.1","","101.08","","27","","","","Mainly Clear"
"2018-10-09 11:00","2018","10","09","11:00","20.7","","18.9","","89","","19","","21","","19.3","","101.02","","27","","","","NA"
"2018-10-09 12:00","2018","10","09","12:00","21.0","","19.1","","89","","18","","19","","24.1","","100.96","","28","","","","NA"
"2018-10-09 13:00","2018","10","09","13:00","20.1","","18.5","","90","","17","","19","","24.1","","100.90","","26","","","","Mostly Cloudy"
"2018-10-09 14:00","2018","10","09","14:00","20.7","","18.8","","89","","18","","14","","24.1","","100.86","","27","","","","NA"
"2018-10-09 15:00","2018","10","09","15:00","19.9","","18.6","","92","","18","","10","","24.1","","100.85","","","","","","NA"
"2018-10-09 16:00","2018","10","09","16:00","19.9","","18.5","","92","","18","","10","","24.1","","100.81","","","","","","Mainly Clear"
"2018-10-09 17:00","2018","10","09","17:00","19.4","","18.5","","94","","19","","9","","24.1","","100.77","","","","","","NA"
"2018-10-09 18:00","2018","10","09","18:00","17.6","","17.6","","100","","15","","3","","24.1","","100.77","","","","","","NA"
"2018-10-09 19:00","2018","10","09","19:00","17.6","","17.4","","99","","36","","2","","24.1","","100.77","","","","","","Mainly Clear"
"2018-10-09 20:00","2018","10","09","20:00","17.1","","17.1","","100","","31","","5","","24.1","","100.76","","","","","","NA"
"2018-10-09 21:00","2018","10","09","21:00","17.2","","17.2","","100","","17","","8","","24.1","","100.75","","","","","","NA"
"2018-10-09 22:00","2018","10","09","22:00","17.7","","17.7","","100","","19","","10","","24.1","","100.73","","","","","","Mainly Clear"
"2018-10-09 23:00","2018","10","09","23:00"
"2018-10-10 00:00","2018","10","10","00:00"
"2018-10-10 01:00","2018","10","10","01:00"
"2018-10-10 02:00","2018","10","10","02:00"
"2018-10-10 03:00","2018","10","10","03:00"
"2018-10-10 04:00","2018","10","10","04:00"
"2018-10-10 05:00","2018","10","10","05:00","16.2","","16.2","","100","","15","","8","","24.1","","100.61","","","","","","NA"
"2018-10-10 06:00","2018","10","10","06:00","16.6","","16.6","","100","","17","","9","","24.1","","100.63","","","","","","NA"
"2018-10-10 07:00","2018","10","10","07:00","16.7","","16.7","","100","","17","","10","","24.1","","100.62","","","","","","Mainly Clear"
"2018-10-10 08:00","2018","10","10","08:00","17.3","","17.3","","100","","19","","9","","24.1","","100.61","","","","","","NA"
"2018-10-10 09:00","2018","10","10","09:00","18.6","","18.1","","97","","19","","10","","24.1","","100.55","","","","","","NA"
"2018-10-10 10:00","2018","10","10","10:00","19.5","","18.5","","94","","19","","15","","24.1","","100.49","","","","","","Mainly Clear"
"2018-10-10 11:00","2018","10","10","11:00","19.5","","18.5","","94","","17","","10","","24.1","","100.40","","","","","","NA"
"2018-10-10 12:00","2018","10","10","12:00","20.5","","18.8","","89","","19","","14","","24.1","","100.32","","27","","","","NA"
"2018-10-10 13:00","2018","10","10","13:00","21.5","","19.4","","88","","20","","9","","24.1","","100.21","","29","","","","Mostly Cloudy"
"2018-10-10 14:00","2018","10","10","14:00","22.7","","20.0","","85","","20","","11","","24.1","","100.13","","30","","","","NA"
"2018-10-10 15:00","2018","10","10","15:00","22.1","","19.4","","84","","17","","6","","24.1","","100.06","","29","","","","NA"
"2018-10-10 16:00","2018","10","10","16:00","20.7","","18.9","","89","","18","","10","","24.1","","100.00","","27","","","","Mostly Cloudy"
"2018-10-10 17:00","2018","10","10","17:00","20.8","","19.4","","92","","13","","4","","24.1","","99.95","","28","","","","NA"
"2018-10-10 18:00","2018","10","10","18:00","20.5","","19.3","","93","","36","","3","","24.1","","99.89","","28","","","","NA"
"2018-10-10 19:00","2018","10","10","19:00","20.1","","18.1","","88","","20","","7","","24.1","","99.81","","26","","","","Cloudy"
"2018-10-10 20:00","2018","10","10","20:00","19.9","","17.8","","87","","16","","18","","24.1","","99.74","","","","","","NA"
"2018-10-10 21:00","2018","10","10","21:00","19.2","","17.6","","90","","16","","18","","24.1","","99.67","","","","","","NA"
"2018-10-10 22:00","2018","10","10","22:00","18.9","","17.3","","91","","17","","18","","24.1","","99.65","","","","","","Cloudy"
"2018-10-10 23:00","2018","10","10","23:00"
"2018-10-11 00:00","2018","10","11","00:00"
"2018-10-11 01:00","2018","10","11","01:00"
"2018-10-11 02:00","2018","10","11","02:00"
"2018-10-11 03:00","2018","10","11","03:00"
"2018-10-11 04:00","2018","10","11","04:00"
"2018-10-11 05:00","2018","10","11","05:00","18.7","","18.7","","100","","20","","28","","16.1","","99.19","","","","","","NA"
"2018-10-11 06:00","2018","10","11","06:00","19.2","","19.2","","100","","20","","25","","16.1","","99.18","","","","","","Rain"
"2018-10-11 07:00","2018","10","11","07:00","19.5","","19.5","","100","","20","","18","","16.1","","99.18","","","","","","Rain"
"2018-10-11 08:00","2018","10","11","08:00","18.8","","18.8","","100","","23","","14","","9.7","","99.15","","","","","","Fog"
"2018-10-11 09:00","2018","10","11","09:00","18.5","","18.5","","100","","20","","20","","9.7","","99.11","","","","","","Fog"
"2018-10-11 10:00","2018","10","11","10:00","20.2","","20.1","","100","","22","","21","","16.1","","99.08","","28","","","","Cloudy"
"2018-10-11 11:00","2018","10","11","11:00","20.9","","20.4","","97","","22","","21","","24.1","","99.04","","29","","","","NA"
"2018-10-11 12:00","2018","10","11","12:00","21.8","","20.1","","90","","23","","25","","24.1","","98.99","","29","","","","NA"
"2018-10-11 13:00","2018","10","11","13:00","21.6","","19.4","","87","","24","","21","","24.1","","98.93","","29","","","","Mostly Cloudy"
"2018-10-11 14:00","2018","10","11","14:00","22.1","","16.7","","71","","24","","24","","24.1","","98.89","","27","","","","NA"
"2018-10-11 15:00","2018","10","11","15:00","21.1","","15.1","","68","","24","","28","","24.1","","98.89","","25","","","","NA"
"2018-10-11 16:00","2018","10","11","16:00","19.9","","15.0","","73","","23","","24","","24.1","","98.93","","","","","","Cloudy"
"2018-10-11 17:00","2018","10","11","17:00","18.9","","14.0","","73","","27","","17","","24.1","","98.99","","","","","","NA"
"2018-10-11 18:00","2018","10","11","18:00","16.4","","10.8","","69","","27","","24","","24.1","","99.13","","","","","","NA"
"2018-10-11 19:00","2018","10","11","19:00","14.6","","9.3","","70","","28","","20","","24.1","","99.21","","","","","","Mostly Cloudy"
"2018-10-11 20:00","2018","10","11","20:00","14.1","","8.6","","69","","27","","20","","24.1","","99.29","","","","","","NA"
"2018-10-11 21:00","2018","10","11","21:00","13.7","","7.7","","66","","28","","19","","24.1","","99.33","","","","","","NA"
"2018-10-11 22:00","2018","10","11","22:00","13.0","","7.2","","67","","28","","17","","24.1","","99.43","","","","","","Cloudy"
"2018-10-11 23:00","2018","10","11","23:00"
"2018-10-12 00:00","2018","10","12","00:00"
"2018-10-12 01:00","2018","10","12","01:00"
"2018-10-12 02:00","2018","10","12","02:00"
"2018-10-12 03:00","2018","10","12","03:00"
"2018-10-12 04:00","2018","10","12","04:00"
"2018-10-12 05:00","2018","10","12","05:00","8.8","","3.8","","71","","29","","18","","24.1","","99.55","","","","","","NA"
"2018-10-12 06:00","2018","10","12","06:00","7.2","","4.5","","83","","30","","27","","24.1","","99.63","","","","","","Rain Showers"
"2018-10-12 07:00","2018","10","12","07:00","6.6","","4.1","","84","","29","","15","","24.1","","99.70","","","","","","Mainly Clear"
"2018-10-12 08:00","2018","10","12","08:00","8.3","","3.1","","69","","29","","17","","24.1","","99.72","","","","","","NA"
"2018-10-12 09:00","2018","10","12","09:00","8.7","","1.3","","60","","28","","18","","24.1","","99.70","","","","","","NA"
"2018-10-12 10:00","2018","10","12","10:00","9.2","","2.1","","61","","28","","17","","24.1","","99.69","","","","","","Mostly Cloudy"
"2018-10-12 11:00","2018","10","12","11:00","10.8","","3.1","","59","","27","","22","","24.1","","99.65","","","","","","NA"
"2018-10-12 12:00","2018","10","12","12:00","9.5","","3.8","","67","","29","","21","","24.1","","99.62","","","","","","Rain Showers"
"2018-10-12 13:00","2018","10","12","13:00","11.4","","3.6","","58","","27","","18","","24.1","","99.57","","","","","","Mostly Cloudy"
"2018-10-12 14:00","2018","10","12","14:00","10.2","","3.2","","62","","26","","13","","24.1","","99.54","","","","","","NA"
"2018-10-12 15:00","2018","10","12","15:00","10.2","","3.1","","61","","26","","18","","24.1","","99.52","","","","","","Rain Showers"
"2018-10-12 16:00","2018","10","12","16:00","9.9","","3.4","","64","","25","","26","","24.1","","99.52","","","","","","Mostly Cloudy"
"2018-10-12 17:00","2018","10","12","17:00","9.5","","2.7","","62","","25","","23","","24.1","","99.53","","","","","","NA"
"2018-10-12 18:00","2018","10","12","18:00","8.5","","2.2","","64","","26","","18","","24.1","","99.57","","","","","","NA"
"2018-10-12 19:00","2018","10","12","19:00","8.0","","2.2","","67","","27","","15","","24.1","","99.61","","","","","","Mainly Clear"
"2018-10-12 20:00","2018","10","12","20:00","7.4","","2.6","","71","","28","","16","","24.1","","99.66","","","","","","NA"
"2018-10-12 21:00","2018","10","12","21:00","7.3","","2.5","","71","","30","","18","","24.1","","99.67","","","","","","NA"
"2018-10-12 22:00","2018","10","12","22:00","7.1","","2.3","","71","","30","","19","","24.1","","99.71","","","","","","Mostly Cloudy"
"2018-10-12 23:00","2018","10","12","23:00"
"2018-10-13 00:00","2018","10","13","00:00"
"2018-10-13 01:00","2018","10","13","01:00"
"2018-10-13 02:00","2018","10","13","02:00"
"2018-10-13 03:00","2018","10","13","03:00"
"2018-10-13 04:00","2018","10","13","04:00"
"2018-10-13 05:00","2018","10","13","05:00","6.1","","2.5","","77","","24","","16","","24.1","","99.76","","","","","","Rain"
"2018-10-13 06:00","2018","10","13","06:00","5.7","","1.9","","76","","27","","12","","24.1","","99.80","","","","","","NA"
"2018-10-13 07:00","2018","10","13","07:00","5.6","","3.3","","85","","28","","13","","24.1","","99.90","","","","","","Mostly Cloudy"
"2018-10-13 08:00","2018","10","13","08:00","5.3","","2.0","","79","","32","","14","","24.1","","99.96","","","","","","NA"
"2018-10-13 09:00","2018","10","13","09:00","7.1","","1.4","","67","","30","","15","","24.1","","99.99","","","","","","NA"
"2018-10-13 10:00","2018","10","13","10:00","8.0","","0.4","","59","","29","","17","","24.1","","100.02","","","","","","Mostly Cloudy"
"2018-10-13 11:00","2018","10","13","11:00","9.1","","0.9","","56","","30","","15","","24.1","","100.07","","","","","","NA"
"2018-10-13 12:00","2018","10","13","12:00","10.1","","0.3","","50","","26","","23","","24.1","","100.05","","","","","","NA"
"2018-10-13 13:00","2018","10","13","13:00","9.1","","-0.4","","51","","27","","28","","24.1","","100.09","","","","","","Mostly Cloudy"
"2018-10-13 14:00","2018","10","13","14:00","9.2","","-0.4","","51","","26","","18","","24.1","","100.13","","","","","","NA"
"2018-10-13 15:00","2018","10","13","15:00","9.7","","0.6","","53","","27","","16","","24.1","","100.16","","","","","","NA"
"2018-10-13 16:00","2018","10","13","16:00","8.9","","-0.4","","52","","27","","21","","24.1","","100.22","","","","","","Mostly Cloudy"
"2018-10-13 17:00","2018","10","13","17:00","8.4","","0.8","","58","","28","","16","","24.1","","100.28","","","","","","NA"
"2018-10-13 18:00","2018","10","13","18:00","8.0","","1.3","","63","","27","","15","","24.1","","100.36","","","","","","NA"
"2018-10-13 19:00","2018","10","13","19:00","7.2","","1.1","","65","","26","","12","","24.1","","100.46","","","","","","Mostly Cloudy"
"2018-10-13 20:00","2018","10","13","20:00","6.1","","1.4","","72","","27","","11","","24.1","","100.52","","","","","","NA"
"2018-10-13 21:00","2018","10","13","21:00","5.6","","1.5","","75","","28","","12","","24.1","","100.57","","","","","","NA"
"2018-10-13 22:00","2018","10","13","22:00","5.4","","1.8","","77","","30","","10","","24.1","","100.60","","","","","","Mainly Clear"
"2018-10-13 23:00","2018","10","13","23:00"
"2018-10-14 00:00","2018","10","14","00:00"
"2018-10-14 01:00","2018","10","14","01:00"
"2018-10-14 02:00","2018","10","14","02:00"
"2018-10-14 03:00","2018","10","14","03:00"
"2018-10-14 04:00","2018","10","14","04:00"
"2018-10-14 05:00","2018","10","14","05:00","3.2","","0.9","","85","","29","","8","","24.1","","100.94","","","","","","NA"
"2018-10-14 06:00","2018","10","14","06:00","1.4","","0.6","","94","","1","","4","","24.1","","100.91","","","","","","NA"
"2018-10-14 07:00","2018","10","14","07:00","1.3","","1.0","","98","","33","","4","","24.1","","100.97","","","","","","Mostly Cloudy"
"2018-10-14 08:00","2018","10","14","08:00","4.5","","3.5","","94","","36","","3","","24.1","","101.03","","","","","","NA"
"2018-10-14 09:00","2018","10","14","09:00","10.0","","3.0","","62","","19","","12","","24.1","","101.03","","","","","","NA"
"2018-10-14 10:00","2018","10","14","10:00","11.1","","3.5","","59","","19","","21","","24.1","","101.08","","","","","","Mostly Cloudy"
"2018-10-14 11:00","2018","10","14","11:00","11.7","","4.0","","59","","21","","24","","24.1","","101.09","","","","","","NA"
"2018-10-14 12:00","2018","10","14","12:00","11.9","","5.3","","64","","19","","24","","24.1","","101.02","","","","","","NA"
"2018-10-14 13:00","2018","10","14","13:00","12.2","","5.1","","61","","20","","25","","24.1","","100.97","","","","","","Mostly Cloudy"
"2018-10-14 14:00","2018","10","14","14:00","12.4","","5.3","","61","","20","","28","","24.1","","100.94","","","","","","NA"
"2018-10-14 15:00","2018","10","14","15:00","12.1","","5.8","","65","","20","","25","","24.1","","100.93","","","","","","NA"
"2018-10-14 16:00","2018","10","14","16:00","12.3","","7.3","","71","","20","","22","","24.1","","100.90","","","","","","Mainly Clear"
"2018-10-14 17:00","2018","10","14","17:00","11.5","","7.5","","76","","20","","15","","24.1","","100.88","","","","","","NA"
"2018-10-14 18:00","2018","10","14","18:00","10.7","","7.6","","81","","21","","13","","24.1","","100.88","","","","","","NA"
"2018-10-14 19:00","2018","10","14","19:00","10.5","","7.2","","80","","23","","10","","24.1","","100.90","","","","","","Mainly Clear"
"2018-10-14 20:00","2018","10","14","20:00","7.8","","6.9","","94","","24","","3","","24.1","","100.89","","","","","","NA"
"2018-10-14 21:00","2018","10","14","21:00","7.1","","7.0","","99","","36","","2","","24.1","","100.88","","","","","","NA"
"2018-10-14 22:00","2018","10","14","22:00","6.3","","6.2","","100","","2","","4","","24.1","","100.86","","","","","","Mainly Clear"
"2018-10-14 23:00","2018","10","14","23:00"
"2018-10-15 00:00","2018","10","15","00:00"
"2018-10-15 01:00","2018","10","15","01:00"
"2018-10-15 02:00","2018","10","15","02:00"
"2018-10-15 03:00","2018","10","15","03:00"
"2018-10-15 04:00","2018","10","15","04:00"
"2018-10-15 05:00","2018","10","15","05:00","10.8","","8.9","","88","","16","","24","","24.1","","100.39","","","","","","NA"
"2018-10-15 06:00","2018","10","15","06:00","10.8","","8.5","","86","","16","","23","","24.1","","100.34","","","","","","NA"
"2018-10-15 07:00","2018","10","15","07:00","10.6","","8.9","","89","","17","","23","","24.1","","100.28","","","","","","Rain"
"2018-10-15 08:00","2018","10","15","08:00","10.6","","9.2","","91","","17","","22","","24.1","","100.21","","","","","","NA"
"2018-10-15 09:00","2018","10","15","09:00","10.9","","9.7","","92","","18","","26","","24.1","","100.06","","","","","","NA"
"2018-10-15 10:00","2018","10","15","10:00","11.1","","11.1","","100","","18","","28","","3.6","","99.95","","","","","","Rain,Fog"
"2018-10-15 11:00","2018","10","15","11:00","11.5","","11.4","","100","","19","","31","","4.0","","99.80","","","","","","Rain,Fog"
"2018-10-15 12:00","2018","10","15","12:00","12.3","","12.3","","100","","20","","27","","4.8","","99.67","","","","","","Rain,Fog"
"2018-10-15 13:00","2018","10","15","13:00","13.0","","13.0","","100","","20","","34","","8.1","","99.52","","","","","","Rain,Fog"
"2018-10-15 14:00","2018","10","15","14:00","13.7","","13.7","","100","","21","","28","","4.8","","99.45","","","","","","Rain,Fog"
"2018-10-15 15:00","2018","10","15","15:00","13.5","","11.6","","88","","25","","30","","24.1","","99.46","","","","","","Rain"
"2018-10-15 16:00","2018","10","15","16:00","13.0","","11.4","","90","","25","","28","","80.5","","99.50","","","","","","Cloudy"
"2018-10-15 17:00","2018","10","15","17:00","13.2","","9.5","","78","","25","","35","","24.1","","99.54","","","","","","NA"
"2018-10-15 18:00","2018","10","15","18:00","10.4","","8.1","","85","","27","","29","","24.1","","99.73","","","","","","NA"
"2018-10-15 19:00","2018","10","15","19:00","9.2","","3.9","","69","","28","","39","","24.1","","99.87","","","","","","Mainly Clear"
"2018-10-15 20:00","2018","10","15","20:00","8.4","","1.9","","63","","26","","39","","24.1","","99.99","","","","","","NA"
"2018-10-15 21:00","2018","10","15","21:00","6.2","","1.4","","71","","26","","34","","24.1","","100.20","","","","","","NA"
"2018-10-15 22:00","2018","10","15","22:00","5.1","","0.5","","72","","26","","28","","24.1","","100.37","","","","","","Mainly Clear"
"2018-10-15 23:00","2018","10","15","23:00"
"2018-10-16 00:00","2018","10","16","00:00"
"2018-10-16 01:00","2018","10","16","01:00"
"2018-10-16 02:00","2018","10","16","02:00"
"2018-10-16 03:00","2018","10","16","03:00"
"2018-10-16 04:00","2018","10","16","04:00"
"2018-10-16 05:00","2018","10","16","05:00","3.7","","0.8","","81","","27","","18","","24.1","","100.74","","","","","","NA"
"2018-10-16 06:00","2018","10","16","06:00","4.1","","1.6","","83","","26","","18","","24.1","","100.79","","","","","","NA"
"2018-10-16 07:00","2018","10","16","07:00","4.0","","1.7","","85","","26","","16","","24.1","","100.81","","","","","","Mainly Clear"
"2018-10-16 08:00","2018","10","16","08:00","5.4","","2.1","","80","","26","","18","","24.1","","100.87","","","","","","NA"
"2018-10-16 09:00","2018","10","16","09:00","6.5","","2.0","","72","","25","","19","","24.1","","100.85","","","","","","NA"
"2018-10-16 10:00","2018","10","16","10:00","7.5","","0.8","","62","","26","","27","","24.1","","100.85","","","","","","Mostly Cloudy"
"2018-10-16 11:00","2018","10","16","11:00","8.4","","-0.4","","54","","25","","23","","24.1","","100.69","","","","","","NA"
"2018-10-16 12:00","2018","10","16","12:00","8.3","","1.0","","60","","23","","31","","24.1","","100.60","","","","","","NA"
"2018-10-16 13:00","2018","10","16","13:00","8.6","","1.3","","60","","23","","36","","24.1","","100.54","","","","","","Mostly Cloudy"
"2018-10-16 14:00","2018","10","16","14:00","8.7","","2.1","","63","","23","","34","","24.1","","100.46","","","","","","NA"
"2018-10-16 15:00","2018","10","16","15:00","8.4","","1.4","","61","","24","","30","","24.1","","100.41","","","","","","NA"
"2018-10-16 16:00","2018","10","16","16:00","8.8","","1.2","","59","","24","","29","","24.1","","100.34","","","","","","Mostly Cloudy"
"2018-10-16 17:00","2018","10","16","17:00","8.3","","1.9","","64","","24","","23","","24.1","","100.34","","","","","","NA"
"2018-10-16 18:00","2018","10","16","18:00","8.2","","2.7","","68","","21","","17","","24.1","","100.27","","","","","","NA"
"2018-10-16 19:00","2018","10","16","19:00","8.3","","4.6","","77","","22","","12","","24.1","","100.24","","","","","","Mostly Cloudy"
"2018-10-16 20:00","2018","10","16","20:00","9.2","","5.2","","76","","22","","18","","24.1","","100.17","","","","","","NA"
"2018-10-16 21:00","2018","10","16","21:00","9.9","","5.4","","73","","23","","25","","24.1","","100.15","","","","","","NA"
"2018-10-16 22:00","2018","10","16","22:00","10.8","","5.5","","70","","25","","32","","24.1","","100.11","","","","","","Mainly Clear"
"2018-10-16 23:00","2018","10","16","23:00"
"2018-10-17 00:00","2018","10","17","00:00"
"2018-10-17 01:00","2018","10","17","01:00"
"2018-10-17 02:00","2018","10","17","02:00"
"2018-10-17 03:00","2018","10","17","03:00"
"2018-10-17 04:00","2018","10","17","04:00"
"2018-10-17 05:00","2018","10","17","05:00","8.8","","2.5","","64","","25","","18","","24.1","","99.78","","","","","","NA"
"2018-10-17 06:00","2018","10","17","06:00","7.9","","2.4","","68","","27","","16","","24.1","","99.81","","","","","","NA"
"2018-10-17 07:00","2018","10","17","07:00","7.4","","2.7","","72","","29","","20","","24.1","","99.85","","","","","","Cloudy"
"2018-10-17 08:00","2018","10","17","08:00","7.1","","3.3","","77","","28","","19","","24.1","","99.89","","","","","","NA"
"2018-10-17 09:00","2018","10","17","09:00","8.2","","3.5","","72","","29","","20","","24.1","","99.88","","","","","","NA"
"2018-10-17 10:00","2018","10","17","10:00","8.4","","3.0","","69","","31","","24","","24.1","","99.91","","","","","","Mostly Cloudy"
"2018-10-17 11:00","2018","10","17","11:00","8.3","","1.3","","61","","30","","18","","24.1","","99.94","","","","","","NA"
"2018-10-17 12:00","2018","10","17","12:00","9.2","","-0.4","","51","","29","","22","","24.1","","99.95","","","","","","NA"
"2018-10-17 13:00","2018","10","17","13:00","8.7","","-0.5","","52","","28","","22","","24.1","","99.95","","","","","","Mostly Cloudy"
"2018-10-17 14:00","2018","10","17","14:00","8.4","","-1.7","","49","","29","","22","","24.1","","100.01","","","","","","NA"
"2018-10-17 15:00","2018","10","17","15:00","8.2","","-3.6","","43","","27","","30","","24.1","","100.08","","","","","","NA"
"2018-10-17 16:00","2018","10","17","16:00","8.5","","-4.1","","41","","30","","18","","24.1","","100.16","","","","","","Mostly Cloudy"
"2018-10-17 17:00","2018","10","17","17:00","6.7","","-6.8","","38","","29","","26","","24.1","","100.25","","","","","","NA"
"2018-10-17 18:00","2018","10","17","18:00","5.9","","-7.6","","37","","29","","27","","24.1","","100.42","","","","","","NA"
"2018-10-17 19:00","2018","10","17","19:00","5.2","","-5.7","","45","","30","","20","","24.1","","100.58","","","","","","Mainly Clear"
"2018-10-17 20:00","2018","10","17","20:00","2.8","","-3.5","","63","","31","","12","","24.1","","100.72","","","","","","NA"
"2018-10-17 21:00","2018","10","17","21:00","2.4","","-4.5","","61","","31","","18","","24.1","","100.86","","","","","","NA"
"2018-10-17 22:00","2018","10","17","22:00","1.7","","-5.8","","57","","31","","17","","24.1","","100.93","","","","","","Mainly Clear"
"2018-10-17 23:00","2018","10","17","23:00"
"2018-10-18 00:00","2018","10","18","00:00"
"2018-10-18 01:00","2018","10","18","01:00"
"2018-10-18 02:00","2018","10","18","02:00"
"2018-10-18 03:00","2018","10","18","03:00"
"2018-10-18 04:00","2018","10","18","04:00"
"2018-10-18 05:00","2018","10","18","05:00","-1.6","","-6.8","","68","","30","","14","","24.1","","101.58","","","","-6","","NA"
"2018-10-18 06:00","2018","10","18","06:00","-2.4","","-6.6","","73","","28","","12","","24.1","","101.69","","","","-7","","NA"
"2018-10-18 07:00","2018","10","18","07:00","-1.9","","-6.6","","71","","28","","14","","24.1","","101.78","","","","-7","","Mainly Clear"
"2018-10-18 08:00","2018","10","18","08:00","-0.4","","-6.5","","63","","29","","17","","24.1","","101.81","","","","-5","","NA"
"2018-10-18 09:00","2018","10","18","09:00","1.3","","-7.1","","54","","30","","20","","24.1","","101.83","","","","","","NA"
"2018-10-18 10:00","2018","10","18","10:00","2.7","","-6.7","","50","","29","","15","","24.1","","101.84","","","","","","Clear"
"2018-10-18 11:00","2018","10","18","11:00","4.2","","-6.6","","46","","28","","17","","24.1","","101.80","","","","","","NA"
"2018-10-18 12:00","2018","10","18","12:00","4.5","","-8.2","","39","","24","","21","","24.1","","101.72","","","","","","NA"
"2018-10-18 13:00","2018","10","18","13:00","5.0","","-7.7","","39","","25","","18","","24.1","","101.67","","","","","","Mainly Clear"
"2018-10-18 14:00","2018","10","18","14:00","5.7","","-6.5","","41","","25","","25","","24.1","","101.56","","","","","","NA"
"2018-10-18 15:00","2018","10","18","15:00","5.5","","-5.9","","43","","26","","25","","24.1","","101.55","","","","","","NA"
"2018-10-18 16:00","2018","10","18","16:00","4.9","","-5.3","","47","","26","","23","","24.1","","101.52","","","","","","Mainly Clear"
"2018-10-18 17:00","2018","10","18","17:00","4.2","","-2.8","","60","","25","","23","","24.1","","101.50","","","","","","NA"
"2018-10-18 18:00","2018","10","18","18:00","4.3","","-1.7","","65","","26","","20","","24.1","","101.48","","","","","","NA"
"2018-10-18 19:00","2018","10","18","19:00","4.8","","-1.6","","63","","25","","24","","24.1","","101.42","","","","","","Mainly Clear"
"2018-10-18 20:00","2018","10","18","20:00","5.2","","-1.4","","62","","27","","17","","24.1","","101.31","","","","","","NA"
"2018-10-18 21:00","2018","10","18","21:00","5.6","","0.5","","70","","22","","25","","24.1","","101.22","","","","","","NA"
"2018-10-18 22:00","2018","10","18","22:00","6.7","","2.4","","74","","23","","25","","24.1","","101.17","","","","","","Mainly Clear"
"2018-10-18 23:00","2018","10","18","23:00"
"2018-10-19 00:00","2018","10","19","00:00"
"2018-10-19 01:00","2018","10","19","01:00"
"2018-10-19 02:00","2018","10","19","02:00"
"2018-10-19 03:00","2018","10","19","03:00"
"2018-10-19 04:00","2018","10","19","04:00"
"2018-10-19 05:00","2018","10","19","05:00","8.0","","2.1","","66","","25","","21","","24.1","","100.84","","","","","","NA"
"2018-10-19 06:00","2018","10","19","06:00","8.3","","2.2","","65","","25","","29","","24.1","","100.78","","","","","","NA"
"2018-10-19 07:00","2018","10","19","07:00","8.9","","3.5","","68","","25","","26","","24.1","","100.74","","","","","","Mainly Clear"
"2018-10-19 08:00","2018","10","19","08:00","10.0","","3.5","","64","","25","","30","","24.1","","100.71","","","","","","NA"
"2018-10-19 09:00","2018","10","19","09:00","11.5","","4.1","","60","","25","","31","","24.1","","100.65","","","","","","NA"
"2018-10-19 10:00","2018","10","19","10:00","12.2","","5.5","","64","","23","","32","","24.1","","100.55","","","","","","Mostly Cloudy"
"2018-10-19 11:00","2018","10","19","11:00","12.9","","7.0","","67","","23","","29","","24.1","","100.47","","","","","","NA"
"2018-10-19 12:00","2018","10","19","12:00","13.8","","7.1","","64","","23","","39","","24.1","","100.35","","","","","","NA"
"2018-10-19 13:00","2018","10","19","13:00","14.1","","7.7","","65","","24","","35","","24.1","","100.27","","","","","","Mostly Cloudy"
"2018-10-19 14:00","2018","10","19","14:00","14.0","","8.3","","68","","21","","27","","24.1","","100.18","","","","","","NA"
"2018-10-19 15:00","2018","10","19","15:00","13.5","","7.8","","68","","23","","28","","24.1","","100.06","","","","","","NA"
"2018-10-19 16:00","2018","10","19","16:00","13.2","","8.4","","73","","23","","24","","24.1","","99.99","","","","","","Cloudy"
"2018-10-19 17:00","2018","10","19","17:00","12.9","","6.8","","66","","22","","27","","24.1","","99.90","","","","","","NA"
"2018-10-19 18:00","2018","10","19","18:00","12.6","","3.5","","53","","22","","27","","24.1","","99.81","","","","","","NA"
"2018-10-19 19:00","2018","10","19","19:00","12.9","","3.6","","53","","23","","30","","24.1","","99.69","","","","","","Cloudy"
"2018-10-19 20:00","2018","10","19","20:00","13.3","","4.2","","54","","23","","26","","24.1","","99.56","","","","","","NA"
"2018-10-19 21:00","2018","10","19","21:00","12.8","","4.8","","58","","22","","32","","24.1","","99.46","","","","","","NA"
"2018-10-19 22:00","2018","10","19","22:00","12.0","","5.3","","63","","24","","36","","24.1","","99.37","","","","","","Rain Showers"
"2018-10-19 23:00","2018","10","19","23:00"
"2018-10-20 00:00","2018","10","20","00:00"
"2018-10-20 01:00","2018","10","20","01:00"
"2018-10-20 02:00","2018","10","20","02:00"
"2018-10-20 03:00","2018","10","20","03:00"
"2018-10-20 04:00","2018","10","20","04:00"
"2018-10-20 05:00","2018","10","20","05:00","10.4","","9.1","","91","","24","","39","","16.1","","98.81","","","","","","Rain"
"2018-10-20 06:00","2018","10","20","06:00","9.6","","7.3","","85","","25","","32","","24.1","","98.88","","","","","","NA"
"2018-10-20 07:00","2018","10","20","07:00","8.7","","6.9","","88","","26","","21","","24.1","","98.93","","","","","","Mainly Clear"
"2018-10-20 08:00","2018","10","20","08:00","9.6","","6.0","","78","","25","","26","","24.1","","99.02","","","","","","NA"
"2018-10-20 09:00","2018","10","20","09:00","10.2","","5.2","","71","","25","","28","","24.1","","99.07","","","","","","NA"
"2018-10-20 10:00","2018","10","20","10:00","11.2","","4.7","","64","","25","","28","","24.1","","99.09","","","","","","Mainly Clear"
"2018-10-20 11:00","2018","10","20","11:00","12.1","","3.6","","56","","25","","30","","24.1","","99.11","","","","","","NA"
"2018-10-20 12:00","2018","10","20","12:00","12.2","","2.0","","49","","27","","28","","24.1","","99.09","","","","","","NA"
"2018-10-20 13:00","2018","10","20","13:00","13.2","","-0.2","","40","","25","","26","","24.1","","99.06","","","","","","Mainly Clear"
"2018-10-20 14:00","2018","10","20","14:00","12.9","","-1.6","","36","","27","","25","","24.1","","99.00","","","","","","NA"
"2018-10-20 15:00","2018","10","20","15:00","11.6","","-2.5","","37","","27","","18","","24.1","","99.03","","","","","","NA"
"2018-10-20 16:00","2018","10","20","16:00","10.7","","-2.7","","39","","27","","17","","24.1","","99.08","","","","","","Mostly Cloudy"
"2018-10-20 17:00","2018","10","20","17:00","9.7","","-2.0","","44","","27","","10","","24.1","","99.13","","","","","","NA"
"2018-10-20 18:00","2018","10","20","18:00","8.9","","-1.8","","47","","27","","13","","24.1","","99.19","","","","","","NA"
"2018-10-20 19:00","2018","10","20","19:00","8.0","","-1.6","","51","","29","","13","","24.1","","99.28","","","","","","Mostly Cloudy"
"2018-10-20 20:00","2018","10","20","20:00","6.1","","-1.1","","60","","34","","14","","24.1","","99.34","","","","","","NA"
"2018-10-20 21:00","2018","10","20","21:00","4.5","","-0.9","","68","","35","","16","","24.1","","99.45","","","","","","NA"
"2018-10-20 22:00","2018","10","20","22:00","4.4","","-1.6","","65","","1","","14","","24.1","","99.57","","","","","","Mostly Cloudy"
"2018-10-20 23:00","2018","10","20","23:00"
"2018-10-21 00:00","2018","10","21","00:00"
"2018-10-21 01:00","2018","10","21","01:00"
"2018-10-21 02:00","2018","10","21","02:00"
"2018-10-21 03:00","2018","10","21","03:00"
"2018-10-21 04:00","2018","10","21","04:00"
"2018-10-21 05:00","2018","10","21","05:00","1.1","","-5.9","","60","","32","","21","","24.1","","100.31","","","","","","NA"
"2018-10-21 06:00","2018","10","21","06:00","0.4","","-6.0","","62","","32","","18","","24.1","","100.45","","","","","","NA"
"2018-10-21 07:00","2018","10","21","07:00","0.2","","-6.5","","60","","34","","20","","24.1","","100.59","","","","","","Mostly Cloudy"
"2018-10-21 08:00","2018","10","21","08:00","2.1","","-6.8","","52","","33","","20","","24.1","","100.68","","","","","","NA"
"2018-10-21 09:00","2018","10","21","09:00","1.9","","-7.5","","50","","29","","22","","24.1","","100.75","","","","","","NA"
"2018-10-21 10:00","2018","10","21","10:00","3.0","","-7.6","","45","","32","","24","","24.1","","100.79","","","","","","Mostly Cloudy"
"2018-10-21 11:00","2018","10","21","11:00","3.7","","-6.4","","48","","31","","21","","24.1","","100.76","","","","","","NA"
"2018-10-21 12:00","2018","10","21","12:00","4.5","","-6.7","","44","","27","","18","","24.1","","100.77","","","","","","NA"
"2018-10-21 13:00","2018","10","21","13:00","4.3","","-7.8","","41","","30","","28","","24.1","","100.72","","","","","","Mostly Cloudy"
"2018-10-21 14:00","2018","10","21","14:00","4.6","","-7.0","","43","","30","","15","","24.1","","100.70","","","","","","NA"
"2018-10-21 15:00","2018","10","21","15:00","4.5","","-6.9","","43","","28","","23","","24.1","","100.69","","","","","","NA"
"2018-10-21 16:00","2018","10","21","16:00","4.2","","-7.2","","43","","29","","14","","24.1","","100.73","","","","","","Mostly Cloudy"
"2018-10-21 17:00","2018","10","21","17:00","3.9","","-7.0","","45","","30","","15","","24.1","","100.74","","","","","","NA"
"2018-10-21 18:00","2018","10","21","18:00","2.5","","-6.0","","54","","29","","10","","24.1","","100.78","","","","","","NA"
"2018-10-21 19:00","2018","10","21","19:00","1.9","","-5.8","","57","","29","","9","","24.1","","100.80","","","","","","Mostly Cloudy"
"2018-10-21 20:00","2018","10","21","20:00","2.0","","-5.5","","58","","28","","11","","24.1","","100.82","","","","","","NA"
"2018-10-21 21:00","2018","10","21","21:00","1.6","","-4.7","","63","","28","","10","","24.1","","100.87","","","","","","NA"
"2018-10-21 22:00","2018","10","21","22:00","2.0","","-4.1","","64","","28","","11","","24.1","","100.91","","","","","","Mostly Cloudy"
"2018-10-21 23:00","2018","10","21","23:00"
"2018-10-22 00:00","2018","10","22","00:00"
"2018-10-22 01:00","2018","10","22","01:00"
"2018-10-22 02:00","2018","10","22","02:00"
"2018-10-22 03:00","2018","10","22","03:00"
"2018-10-22 04:00","2018","10","22","04:00"
"2018-10-22 05:00","2018","10","22","05:00","2.1","","0.0","","86","","36","","2","","24.1","","","M","","","","","NA"
"2018-10-22 06:00","2018","10","22","06:00","2.5","","0.6","","87","","36","","3","","24.1","","","M","","","","","NA"
"2018-10-22 07:00","2018","10","22","07:00","2.3","","0.5","","88","","34","","5","","24.1","","","M","","","","","Mostly Cloudy"
"2018-10-22 08:00","2018","10","22","08:00","3.8","","0.5","","79","","1","","4","","24.1","","100.86","","","","","","NA"
"2018-10-22 09:00","2018","10","22","09:00","5.7","","1.2","","73","","36","","2","","24.1","","100.83","","","","","","NA"
"2018-10-22 10:00","2018","10","22","10:00","6.8","","1.2","","68","","13","","7","","24.1","","100.82","","","","","","Mostly Cloudy"
"2018-10-22 11:00","2018","10","22","11:00","7.0","","1.6","","69","","17","","7","","24.1","","100.81","","","","","","NA"
"2018-10-22 12:00","2018","10","22","12:00","7.6","","1.8","","66","","15","","9","","24.1","","100.73","","","","","","NA"
"2018-10-22 13:00","2018","10","22","13:00","7.6","","2.4","","70","","15","","6","","24.1","","100.69","","","","","","Rain Showers"
"2018-10-22 14:00","2018","10","22","14:00","7.6","","3.6","","76","","17","","4","","24.1","","100.63","","","","","","Rain Showers"
"2018-10-22 15:00","2018","10","22","15:00","7.9","","4.7","","81","","22","","15","","24.1","","100.61","","","","","","Rain Showers"
"2018-10-22 16:00","2018","10","22","16:00","8.3","","4.3","","76","","25","","13","","24.1","","100.63","","","","","","Rain Showers"
"2018-10-22 17:00","2018","10","22","17:00","6.5","","5.2","","91","","35","","3","","24.1","","100.64","","","","","","NA"
"2018-10-22 18:00","2018","10","22","18:00","5.9","","5.7","","99","","5","","8","","24.1","","100.66","","","","","","NA"
"2018-10-22 19:00","2018","10","22","19:00","5.7","","5.4","","98","","7","","7","","24.1","","100.69","","","","","","Cloudy"
"2018-10-22 20:00","2018","10","22","20:00","5.7","","5.4","","97","","7","","9","","24.1","","100.73","","","","","","NA"
"2018-10-22 21:00","2018","10","22","21:00","5.5","","5.4","","99","","5","","7","","24.1","","100.71","","","","","","NA"
"2018-10-22 22:00","2018","10","22","22:00","4.9","","4.8","","100","","2","","5","","24.1","","100.69","","","","","","Mostly Cloudy"
"2018-10-22 23:00","2018","10","22","23:00"
"2018-10-23 00:00","2018","10","23","00:00"
"2018-10-23 01:00","2018","10","23","01:00"
"2018-10-23 02:00","2018","10","23","02:00"
"2018-10-23 03:00","2018","10","23","03:00"
"2018-10-23 04:00","2018","10","23","04:00"
"2018-10-23 05:00","2018","10","23","05:00","4.4","","4.0","","97","","6","","10","","24.1","","100.45","","","","","","NA"
"2018-10-23 06:00","2018","10","23","06:00","4.1","","3.8","","98","","5","","10","","24.1","","100.40","","","","","","NA"
"2018-10-23 07:00","2018","10","23","07:00","4.3","","3.8","","96","","5","","11","","24.1","","100.43","","","","","","Mostly Cloudy"
"2018-10-23 08:00","2018","10","23","08:00","4.1","","3.6","","97","","6","","11","","24.1","","100.38","","","","","","NA"
"2018-10-23 09:00","2018","10","23","09:00","5.9","","4.3","","89","","5","","16","","24.1","","100.32","","","","","","NA"
"2018-10-23 10:00","2018","10","23","10:00","7.4","","4.8","","83","","6","","7","","24.1","","100.33","","","","","","Mostly Cloudy"
"2018-10-23 11:00","2018","10","23","11:00","8.9","","5.1","","77","","6","","12","","24.1","","100.29","","","","","","NA"
"2018-10-23 12:00","2018","10","23","12:00","8.8","","4.1","","72","","10","","3","","24.1","","100.26","","","","","","NA"
"2018-10-23 13:00","2018","10","23","13:00","9.3","","3.6","","68","","8","","5","","24.1","","100.22","","","","","","Cloudy"
"2018-10-23 14:00","2018","10","23","14:00","9.7","","2.9","","63","","33","","6","","24.1","","100.23","","","","","","NA"
"2018-10-23 15:00","2018","10","23","15:00","9.7","","3.5","","65","","24","","4","","24.1","","100.24","","","","","","NA"
"2018-10-23 16:00","2018","10","23","16:00","9.8","","3.8","","66","","27","","8","","24.1","","100.29","","","","","","Cloudy"
"2018-10-23 17:00","2018","10","23","17:00","8.5","","5.1","","79","","27","","10","","24.1","","100.34","","","","","","NA"
"2018-10-23 18:00","2018","10","23","18:00","7.6","","4.7","","82","","30","","12","","24.1","","100.38","","","","","","NA"
"2018-10-23 19:00","2018","10","23","19:00","7.2","","4.8","","85","","33","","13","","24.1","","100.42","","","","","","Mostly Cloudy"
"2018-10-23 20:00","2018","10","23","20:00","6.8","","4.7","","86","","34","","11","","24.1","","100.47","","","","","","NA"
"2018-10-23 21:00","2018","10","23","21:00","7.0","","4.0","","81","","2","","12","","24.1","","100.48","","","","","","NA"
"2018-10-23 22:00","2018","10","23","22:00","6.2","","3.7","","84","","5","","13","","24.1","","100.51","","","","","","Cloudy"
"2018-10-23 23:00","2018","10","23","23:00"
"2018-10-24 00:00","2018","10","24","00:00"
"2018-10-24 01:00","2018","10","24","01:00"
"2018-10-24 02:00","2018","10","24","02:00"
"2018-10-24 03:00","2018","10","24","03:00"
"2018-10-24 04:00","2018","10","24","04:00"
"2018-10-24 05:00","2018","10","24","05:00","3.0","","0.4","","83","","34","","11","","24.1","","100.86","","","","","","NA"
"2018-10-24 06:00","2018","10","24","06:00","2.9","","0.5","","84","","34","","7","","24.1","","100.92","","","","","","NA"
"2018-10-24 07:00","2018","10","24","07:00","3.6","","1.8","","88","","35","","10","","24.1","","101.01","","","","","","Cloudy"
"2018-10-24 08:00","2018","10","24","08:00","4.6","","2.7","","87","","31","","14","","24.1","","101.03","","","","","","NA"
"2018-10-24 09:00","2018","10","24","09:00","5.6","","3.1","","84","","34","","16","","24.1","","101.11","","","","","","NA"
"2018-10-24 10:00","2018","10","24","10:00","6.1","","2.4","","77","","34","","22","","24.1","","101.16","","","","","","Mostly Cloudy"
"2018-10-24 11:00","2018","10","24","11:00","6.7","","2.3","","74","","34","","18","","24.1","","101.17","","","","","","NA"
"2018-10-24 12:00","2018","10","24","12:00","7.6","","2.7","","71","","33","","16","","24.1","","101.17","","","","","","NA"
"2018-10-24 13:00","2018","10","24","13:00","8.3","","2.4","","66","","32","","16","","24.1","","101.15","","","","","","Mostly Cloudy"
"2018-10-24 14:00","2018","10","24","14:00","8.0","","1.7","","64","","31","","14","","24.1","","101.13","","","","","","NA"
"2018-10-24 15:00","2018","10","24","15:00","7.2","","1.5","","67","","33","","18","","24.1","","101.16","","","","","","NA"
"2018-10-24 16:00","2018","10","24","16:00","6.6","","0.7","","66","","32","","21","","24.1","","101.15","","","","","","Mostly Cloudy"
"2018-10-24 17:00","2018","10","24","17:00","5.7","","0.2","","67","","34","","18","","24.1","","101.19","","","","","","NA"
"2018-10-24 18:00","2018","10","24","18:00","5.5","","0.0","","68","","30","","12","","24.1","","101.23","","","","","","NA"
"2018-10-24 19:00","2018","10","24","19:00","5.2","","-0.8","","65","","31","","12","","24.1","","101.22","","","","","","Cloudy"
"2018-10-24 20:00","2018","10","24","20:00","4.6","","-1.6","","64","","34","","24","","24.1","","101.25","","","","","","NA"
"2018-10-24 21:00","2018","10","24","21:00","4.1","","-2.1","","64","","33","","17","","24.1","","101.29","","","","","","NA"
"2018-10-24 22:00","2018","10","24","22:00","3.5","","-2.8","","63","","35","","16","","24.1","","101.31","","","","","","Cloudy"
"2018-10-24 23:00","2018","10","24","23:00"
"2018-10-25 00:00","2018","10","25","00:00"
"2018-10-25 01:00","2018","10","25","01:00"
"2018-10-25 02:00","2018","10","25","02:00"
"2018-10-25 03:00","2018","10","25","03:00"
"2018-10-25 04:00","2018","10","25","04:00"
"2018-10-25 05:00","2018","10","25","05:00","0.8","","-3.6","","72","","32","","8","","24.1","","101.17","","","","","","NA"
"2018-10-25 06:00","2018","10","25","06:00","0.8","","-3.3","","74","","33","","7","","24.1","","101.18","","","","","","NA"
"2018-10-25 07:00","2018","10","25","07:00","0.8","","-3.2","","75","","33","","7","","24.1","","101.19","","","","","","Cloudy"
"2018-10-25 08:00","2018","10","25","08:00","1.2","","-2.9","","74","","31","","8","","24.1","","101.19","","","","","","NA"
"2018-10-25 09:00","2018","10","25","09:00","1.6","","-4.2","","65","","34","","19","","24.1","","101.19","","","","","","NA"
"2018-10-25 10:00","2018","10","25","10:00","2.7","","-4.2","","60","","34","","25","","24.1","","101.16","","","","","","Mostly Cloudy"
"2018-10-25 11:00","2018","10","25","11:00","3.5","","-4.5","","56","","31","","19","","24.1","","101.14","","","","","","NA"
"2018-10-25 12:00","2018","10","25","12:00","5.2","","-4.0","","52","","31","","17","","24.1","","101.04","","","","","","NA"
"2018-10-25 13:00","2018","10","25","13:00","5.7","","-3.8","","50","","32","","15","","24.1","","100.95","","","","","","Mainly Clear"
"2018-10-25 14:00","2018","10","25","14:00","5.8","","-4.3","","48","","35","","13","","24.1","","100.90","","","","","","NA"
"2018-10-25 15:00","2018","10","25","15:00","6.2","","-5.1","","44","","30","","14","","24.1","","100.88","","","","","","NA"
"2018-10-25 16:00","2018","10","25","16:00","5.5","","-5.0","","47","","33","","15","","24.1","","100.86","","","","","","Mainly Clear"
"2018-10-25 17:00","2018","10","25","17:00","4.6","","-4.4","","52","","31","","10","","24.1","","100.88","","","","","","NA"
"2018-10-25 18:00","2018","10","25","18:00","4.4","","-3.9","","55","","29","","7","","24.1","","100.92","","","","","","NA"
"2018-10-25 19:00","2018","10","25","19:00","3.6","","-3.2","","61","","2","","8","","24.1","","100.90","","","","","","Mostly Cloudy"
"2018-10-25 20:00","2018","10","25","20:00","2.5","","-4.3","","61","","4","","8","","24.1","","100.91","","","","","","NA"
"2018-10-25 21:00","2018","10","25","21:00","1.1","","-3.8","","70","","36","","2","","24.1","","100.94","","","","","","NA"
"2018-10-25 22:00","2018","10","25","22:00","-0.1","","-2.1","","87","","3","","4","","24.1","","100.92","","","","-1","","Mostly Cloudy"
"2018-10-25 23:00","2018","10","25","23:00"
"2018-10-26 00:00","2018","10","26","00:00"
"2018-10-26 01:00","2018","10","26","01:00"
"2018-10-26 02:00","2018","10","26","02:00"
"2018-10-26 03:00","2018","10","26","03:00"
"2018-10-26 04:00","2018","10","26","04:00"
"2018-10-26 05:00","2018","10","26","05:00","0.3","","-3.1","","78","","5","","9","","24.1","","100.90","","","","","","NA"
"2018-10-26 06:00","2018","10","26","06:00","0.0","","-2.8","","81","","5","","11","","24.1","","100.90","","","","-4","","NA"
"2018-10-26 07:00","2018","10","26","07:00","0.8","","-3.5","","73","","6","","10","","24.1","","100.90","","","","","","Mostly Cloudy"
"2018-10-26 08:00","2018","10","26","08:00","1.4","","-3.8","","69","","6","","12","","24.1","","100.96","","","","","","NA"
"2018-10-26 09:00","2018","10","26","09:00","2.0","","-5.0","","60","","7","","14","","24.1","","100.99","","","","","","NA"
"2018-10-26 10:00","2018","10","26","10:00","2.9","","-4.4","","58","","6","","12","","24.1","","101.01","","","","","","Cloudy"
"2018-10-26 11:00","2018","10","26","11:00","3.4","","-3.5","","61","","8","","13","","24.1","","100.99","","","","","","NA"
"2018-10-26 12:00","2018","10","26","12:00","3.6","","-4.3","","56","","9","","10","","24.1","","100.96","","","","","","NA"
"2018-10-26 13:00","2018","10","26","13:00","4.0","","-4.3","","55","","12","","7","","24.1","","100.90","","","","","","Mostly Cloudy"
"2018-10-26 14:00","2018","10","26","14:00","4.4","","-3.8","","55","","9","","12","","24.1","","100.84","","","","","","NA"
"2018-10-26 15:00","2018","10","26","15:00","4.2","","-3.9","","56","","8","","6","","24.1","","100.80","","","","","","NA"
"2018-10-26 16:00","2018","10","26","16:00","4.3","","-3.0","","59","","8","","7","","24.1","","100.75","","","","","","Mostly Cloudy"
"2018-10-26 17:00","2018","10","26","17:00","4.1","","-2.7","","61","","5","","11","","24.1","","100.75","","","","","","NA"
"2018-10-26 18:00","2018","10","26","18:00","3.9","","-3.2","","60","","6","","11","","24.1","","100.75","","","","","","NA"
"2018-10-26 19:00","2018","10","26","19:00","3.2","","-2.6","","65","","5","","10","","24.1","","100.75","","","","","","Mostly Cloudy"
"2018-10-26 20:00","2018","10","26","20:00","3.4","","-2.9","","64","","5","","15","","24.1","","100.71","","","","","","NA"
"2018-10-26 21:00","2018","10","26","21:00","3.2","","-3.0","","64","","5","","13","","24.1","","100.72","","","","","","NA"
"2018-10-26 22:00","2018","10","26","22:00","3.2","","-3.4","","62","","5","","16","","24.1","","100.67","","","","","","Mostly Cloudy"
"2018-10-26 23:00","2018","10","26","23:00"
"2018-10-27 00:00","2018","10","27","00:00"
"2018-10-27 01:00","2018","10","27","01:00"
"2018-10-27 02:00","2018","10","27","02:00"
"2018-10-27 03:00","2018","10","27","03:00"
"2018-10-27 04:00","2018","10","27","04:00"
"2018-10-27 05:00","2018","10","27","05:00","2.5","","-5.1","","57","","5","","20","","24.1","","100.49","","","","","","NA"
"2018-10-27 06:00","2018","10","27","06:00","2.3","","-4.8","","59","","4","","21","","24.1","","100.42","","","","","","NA"
"2018-10-27 07:00","2018","10","27","07:00","2.4","","-4.8","","59","","4","","18","","24.1","","100.39","","","","","","Mostly Cloudy"
"2018-10-27 08:00","2018","10","27","08:00","2.9","","-4.8","","57","","4","","20","","24.1","","100.38","","","","","","NA"
"2018-10-27 09:00","2018","10","27","09:00","3.7","","-5.0","","53","","5","","22","","24.1","","100.39","","","","","","NA"
"2018-10-27 10:00","2018","10","27","10:00","4.2","","-5.4","","50","","4","","23","","24.1","","100.38","","","","","","Cloudy"
"2018-10-27 11:00","2018","10","27","11:00","4.5","","-5.1","","50","","4","","26","","24.1","","100.34","","","","","","NA"
"2018-10-27 12:00","2018","10","27","12:00","4.8","","-3.8","","53","","5","","26","","24.1","","100.22","","","","","","Rain"
"2018-10-27 13:00","2018","10","27","13:00","4.2","","-4.1","","55","","3","","26","","24.1","","100.14","","","","","","Cloudy"
"2018-10-27 14:00","2018","10","27","14:00","3.3","","-1.6","","71","","4","","22","","12.9","","100.13","","","","","","Rain"
"2018-10-27 15:00","2018","10","27","15:00","2.5","","0.0","","84","","3","","21","","9.7","","100.09","","","","","","Rain,Fog"
"2018-10-27 16:00","2018","10","27","16:00","2.2","","0.8","","90","","3","","24","","9.7","","100.01","","","","","","Rain,Fog"
"2018-10-27 17:00","2018","10","27","17:00","1.7","","0.9","","94","","3","","25","","9.7","","100.00","","","","","","Rain,Fog"
"2018-10-27 18:00","2018","10","27","18:00","1.3","","0.7","","96","","4","","25","","9.7","","99.93","","","","","","Rain,Snow"
"2018-10-27 19:00","2018","10","27","19:00","1.4","","0.8","","96","","4","","24","","8.1","","99.94","","","","","","Rain,Snow"
"2018-10-27 20:00","2018","10","27","20:00","1.3","","0.8","","96","","3","","22","","12.9","","99.90","","","","","","Snow"
"2018-10-27 21:00","2018","10","27","21:00","1.2","","0.5","","95","","4","","26","","16.1","","99.80","","","","","","Snow"
"2018-10-27 22:00","2018","10","27","22:00","1.1","","0.6","","96","","3","","23","","12.9","","99.77","","","","","","Snow"
"2018-10-27 23:00","2018","10","27","23:00"
"2018-10-28 00:00","2018","10","28","00:00"
"2018-10-28 01:00","2018","10","28","01:00"
"2018-10-28 02:00","2018","10","28","02:00"
"2018-10-28 03:00","2018","10","28","03:00"
"2018-10-28 04:00","2018","10","28","04:00"
"2018-10-28 05:00","2018","10","28","05:00","0.9","","0.6","","98","","1","","10","","12.9","","99.48","","","","","","Snow"
"2018-10-28 06:00","2018","10","28","06:00","0.3","","0.3","","100","","34","","9","","6.4","","99.50","","","","","","Snow"
"2018-10-28 07:00","2018","10","28","07:00","0.3","","0.3","","100","","35","","10","","6.4","","99.49","","","","","","Snow"
"2018-10-28 08:00","2018","10","28","08:00","1.1","","1.1","","100","","34","","10","","12.9","","99.52","","","","","","NA"
"2018-10-28 09:00","2018","10","28","09:00","1.4","","1.2","","99","","32","","7","","16.1","","99.53","","","","","","Rain"
"2018-10-28 10:00","2018","10","28","10:00","2.0","","1.4","","96","","28","","10","","19.3","","99.51","","","","","","Cloudy"
"2018-10-28 11:00","2018","10","28","11:00","3.1","","2.0","","93","","27","","8","","24.1","","99.50","","","","","","NA"
"2018-10-28 12:00","2018","10","28","12:00","3.9","","2.0","","87","","25","","14","","24.1","","99.49","","","","","","NA"
"2018-10-28 13:00","2018","10","28","13:00","3.4","","2.0","","91","","26","","14","","12.9","","99.48","","","","","","Rain"
"2018-10-28 14:00","2018","10","28","14:00","4.3","","2.4","","88","","26","","13","","12.9","","99.42","","","","","","Rain"
"2018-10-28 15:00","2018","10","28","15:00","4.1","","2.7","","90","","27","","9","","19.3","","99.39","","","","","","Rain"
"2018-10-28 16:00","2018","10","28","16:00","4.2","","3.0","","92","","29","","4","","24.1","","99.39","","","","","","Rain"
"2018-10-28 17:00","2018","10","28","17:00","3.9","","3.3","","96","","36","","2","","16.1","","99.39","","","","","","Rain"
"2018-10-28 18:00","2018","10","28","18:00","3.8","","3.5","","98","","33","","4","","12.9","","99.42","","","","","","Rain"
"2018-10-28 19:00","2018","10","28","19:00","3.6","","3.3","","98","","35","","5","","19.3","","99.41","","","","","","Rain"
"2018-10-28 20:00","2018","10","28","20:00","3.7","","3.5","","99","","33","","5","","24.1","","99.39","","","","","","NA"
"2018-10-28 21:00","2018","10","28","21:00","3.6","","3.4","","98","","33","","4","","24.1","","99.38","","","","","","NA"
"2018-10-28 22:00","2018","10","28","22:00","3.6","","3.5","","99","","3","","3","","24.1","","99.38","","","","","","Cloudy"
"2018-10-28 23:00","2018","10","28","23:00"
"2018-10-29 00:00","2018","10","29","00:00"
"2018-10-29 01:00","2018","10","29","01:00"
"2018-10-29 02:00","2018","10","29","02:00"
"2018-10-29 03:00","2018","10","29","03:00"
"2018-10-29 04:00","2018","10","29","04:00"
"2018-10-29 05:00","2018","10","29","05:00","3.7","","3.7","","100","","33","","5","","19.3","","99.38","","","","","","Rain"
"2018-10-29 06:00","2018","10","29","06:00","4.0","","3.8","","98","","30","","9","","19.3","","99.41","","","","","","Rain"
"2018-10-29 07:00","2018","10","29","07:00","4.1","","3.7","","98","","31","","9","","16.1","","99.46","","","","","","Rain"
"2018-10-29 08:00","2018","10","29","08:00","4.3","","3.8","","97","","25","","10","","19.3","","99.54","","","","","","NA"
"2018-10-29 09:00","2018","10","29","09:00","4.8","","3.9","","94","","26","","10","","24.1","","99.57","","","","","","NA"
"2018-10-29 10:00","2018","10","29","10:00","5.3","","3.8","","90","","28","","16","","19.3","","99.60","","","","","","Cloudy"
"2018-10-29 11:00","2018","10","29","11:00","6.2","","3.8","","85","","28","","21","","24.1","","99.61","","","","","","NA"
"2018-10-29 12:00","2018","10","29","12:00","5.4","","4.0","","91","","28","","15","","24.1","","99.62","","","","","","NA"
"2018-10-29 13:00","2018","10","29","13:00","6.1","","2.8","","79","","28","","17","","24.1","","99.62","","","","","","Cloudy"
"2018-10-29 14:00","2018","10","29","14:00","6.6","","2.5","","75","","27","","22","","24.1","","99.65","","","","","","Rain"
"2018-10-29 15:00","2018","10","29","15:00","5.0","","2.8","","85","","27","","21","","19.3","","99.72","","","","","","Rain"
"2018-10-29 16:00","2018","10","29","16:00","4.5","","1.8","","82","","29","","20","","24.1","","99.79","","","","","","Cloudy"
"2018-10-29 17:00","2018","10","29","17:00","3.4","","0.8","","83","","29","","17","","24.1","","99.91","","","","","","Rain"
"2018-10-29 18:00","2018","10","29","18:00","3.0","","0.2","","81","","28","","15","","24.1","","100.01","","","","","","NA"
"2018-10-29 19:00","2018","10","29","19:00","3.0","","0.0","","80","","28","","16","","24.1","","100.10","","","","","","Cloudy"
"2018-10-29 20:00","2018","10","29","20:00","3.0","","-0.5","","78","","28","","16","","24.1","","100.17","","","","","","NA"
"2018-10-29 21:00","2018","10","29","21:00","2.0","","-0.8","","82","","30","","11","","24.1","","100.20","","","","","","NA"
"2018-10-29 22:00","2018","10","29","22:00","1.0","","-1.1","","86","","28","","10","","24.1","","100.24","","","","","","Mainly Clear"
"2018-10-29 23:00","2018","10","29","23:00"
"2018-10-30 00:00","2018","10","30","00:00"
"2018-10-30 01:00","2018","10","30","01:00"
"2018-10-30 02:00","2018","10","30","02:00"
"2018-10-30 03:00","2018","10","30","03:00"
"2018-10-30 04:00","2018","10","30","04:00"
"2018-10-30 05:00","2018","10","30","05:00","-0.5","","-1.9","","90","","28","","13","","24.1","","100.56","","","","-5","","NA"
"2018-10-30 06:00","2018","10","30","06:00","-1.0","","-2.1","","92","","28","","7","","24.1","","100.62","","","","-4","","NA"
"2018-10-30 07:00","2018","10","30","07:00","-0.9","","-1.6","","95","","29","","12","","24.1","","100.68","","","","-5","","Mainly Clear"
"2018-10-30 08:00","2018","10","30","08:00","0.4","","-1.2","","89","","29","","11","","24.1","","100.74","","","","","","NA"
"2018-10-30 09:00","2018","10","30","09:00","1.9","","-1.2","","80","","30","","12","","24.1","","100.77","","","","","","NA"
"2018-10-30 10:00","2018","10","30","10:00","2.8","","-1.4","","74","","33","","6","","24.1","","100.78","","","","","","Mostly Cloudy"
"2018-10-30 11:00","2018","10","30","11:00","3.3","","-1.9","","69","","36","","1","","24.1","","100.78","","","","","","NA"
"2018-10-30 12:00","2018","10","30","12:00","4.7","","-0.6","","69","","24","","15","","24.1","","100.77","","","","","","NA"
"2018-10-30 13:00","2018","10","30","13:00","6.0","","-0.7","","62","","29","","12","","24.1","","100.76","","","","","","Mainly Clear"
"2018-10-30 14:00","2018","10","30","14:00","6.6","","-1.0","","58","","22","","13","","24.1","","100.75","","","","","","NA"
"2018-10-30 15:00","2018","10","30","15:00","7.3","","-0.8","","56","","22","","15","","24.1","","100.79","","","","","","NA"
"2018-10-30 16:00","2018","10","30","16:00","7.7","","-1.9","","51","","25","","8","","24.1","","100.77","","","","","","Mainly Clear"
"2018-10-30 17:00","2018","10","30","17:00","6.1","","-0.9","","61","","20","","13","","24.1","","100.75","","","","","","NA"
"2018-10-30 18:00","2018","10","30","18:00","5.9","","-0.5","","63","","22","","9","","24.1","","100.79","","","","","","NA"
"2018-10-30 19:00","2018","10","30","19:00","5.5","","2.4","","80","","23","","11","","24.1","","100.80","","","","","","Mainly Clear"
"2018-10-30 20:00","2018","10","30","20:00","1.6","","0.3","","91","","23","","3","","24.1","","100.76","","","","","","NA"
"2018-10-30 21:00","2018","10","30","21:00","0.1","","-0.6","","95","","36","","2","","24.1","","100.72","","","","","","NA"
"2018-10-30 22:00","2018","10","30","22:00","-0.6","","-0.9","","97","","7","","5","","24.1","","100.69","","","","-2","","Mainly Clear"
"2018-10-30 23:00","2018","10","30","23:00"
"2018-10-31 00:00","2018","10","31","00:00"
"2018-10-31 01:00","2018","10","31","01:00"
"2018-10-31 02:00","2018","10","31","02:00"
"2018-10-31 03:00","2018","10","31","03:00"
"2018-10-31 04:00","2018","10","31","04:00"
"2018-10-31 05:00","2018","10","31","05:00","6.3","","3.1","","80","","8","","14","","24.1","","100.27","","","","","","NA"
"2018-10-31 06:00","2018","10","31","06:00","5.7","","2.4","","79","","10","","11","","24.1","","100.21","","","","","","Rain"
"2018-10-31 07:00","2018","10","31","07:00","5.8","","4.3","","90","","12","","10","","19.3","","100.09","","","","","","Rain"
"2018-10-31 08:00","2018","10","31","08:00","8.3","","6.3","","88","","16","","30","","19.3","","100.00","","","","","","Rain"
"2018-10-31 09:00","2018","10","31","09:00","8.6","","7.7","","94","","17","","33","","19.3","","99.89","","","","","","Rain"
"2018-10-31 10:00","2018","10","31","10:00","9.3","","7.7","","89","","17","","26","","19.3","","99.80","","","","","","Rain"
"2018-10-31 11:00","2018","10","31","11:00","10.1","","7.8","","86","","17","","24","","24.1","","99.71","","","","","","NA"
"2018-10-31 12:00","2018","10","31","12:00","10.4","","9.4","","93","","18","","24","","16.1","","99.56","","","","","","Rain"
"2018-10-31 13:00","2018","10","31","13:00","11.3","","10.5","","95","","21","","20","","24.1","","99.54","","","","","","Rain"
"2018-10-31 14:00","2018","10","31","14:00","11.1","","10.8","","98","","20","","17","","9.7","","99.54","","","","","","Rain,Fog"
"2018-10-31 15:00","2018","10","31","15:00","11.3","","11.3","","100","","20","","18","","2.4","","99.59","","","","","","Rain,Fog"
"2018-10-31 16:00","2018","10","31","16:00","11.9","","11.9","","100","","22","","14","","4.8","","99.61","","","","","","Rain,Fog"
"2018-10-31 17:00","2018","10","31","17:00","11.9","","11.9","","100","","26","","10","","6.4","","99.68","","","","","","Rain,Fog"
"2018-10-31 18:00","2018","10","31","18:00","11.7","","11.7","","100","","26","","9","","19.3","","99.79","","","","","","NA"
"2018-10-31 19:00","2018","10","31","19:00","11.3","","11.3","","100","","24","","8","","19.3","","99.83","","","","","","Cloudy"
"2018-10-31 20:00","2018","10","31","20:00","11.1","","11.1","","100","","28","","10","","24.1","","99.87","","","","","","NA"
"2018-10-31 21:00","2018","10","31","21:00","10.5","","10.4","","99","","26","","12","","24.1","","99.99","","","","","","NA"
"2018-10-31 22:00","2018","10","31","22:00","9.4","","9.2","","99","","28","","13","","24.1","","100.01","","","","","","Mainly Clear"
"2018-10-31 23:00","2018","10","31","23:00"
