"Station Name","KINGSTON A"
"Province","ONTARIO"
"Latitude","44.22"
"Longitude","-76.60"
"Elevation","92.40"
"Climate Identifier","6104146"
"WMO Identifier",""
"TC Identifier","YGK"
"All times are specified in Local Standard Time (LST). Add 1 hour to adjust for Daylight Saving Time where and when it is observed."

"Legend"
"E","Estimated"
"M","Missing"
"NA","Not Available"

"Date/Time","Year","Month","Day","Time","Temp (°C)","Temp Flag","Dew Point Temp (°C)","Dew Point Temp Flag","Rel Hum (%)","Rel Hum Flag","Wind Dir (10s deg)","Wind Dir Flag","Wind Spd (km/h)","Wind Spd Flag","Visibility (km)","Visibility Flag","Stn Press (kPa)","Stn Press Flag","Hmdx","Hmdx Flag","Wind Chill","Wind Chill Flag","Weather"
"1998-12-01 00:00","1998","12","01","00:00"
"1998-12-01 01:00","1998","12","01","01:00"
"1998-12-01 02:00","1998","12","01","02:00"
"1998-12-01 03:00","1998","12","01","03:00"
"1998-12-01 04:00","1998","12","01","04:00"
"1998-12-01 05:00","1998","12","01","05:00"
"1998-12-01 06:00","1998","12","01","06:00","7.6","","3.7","","76","","27","","28","","24.1","","99.77","","","","","","Rain Showers"
"1998-12-01 07:00","1998","12","01","07:00","6.9","","4.1","","82","","28","","22","","24.1","","99.97","","","","","","Rain Showers"
"1998-12-01 08:00","1998","12","01","08:00","6.9","","3.8","","81","","28","","32","","24.1","","100.14","","","","","","Mostly Cloudy"
"1998-12-01 09:00","1998","12","01","09:00","7.1","","3.3","","77","","28","","28","","24.1","","100.28","","","","","","Mostly Cloudy"
"1998-12-01 10:00","1998","12","01","10:00","7.3","","2.3","","71","","29","","28","","24.1","","100.38","","","","","","Mostly Cloudy"
"1998-12-01 11:00","1998","12","01","11:00","7.6","","1.2","","64","","28","","28","","24.1","","100.51","","","","","","Mainly Clear"
"1998-12-01 12:00","1998","12","01","12:00","8.6","","-1.2","","50","","28","","28","","24.1","","100.54","","","","","","Mainly Clear"
"1998-12-01 13:00","1998","12","01","13:00","9.0","","-1.5","","48","","27","","28","","24.1","","100.61","","","","","","Mainly Clear"
"1998-12-01 14:00","1998","12","01","14:00","9.4","","-1.1","","48","","27","","32","","24.1","","100.64","","","","","","Mainly Clear"
"1998-12-01 15:00","1998","12","01","15:00","8.8","","0.4","","56","","25","","28","","24.1","","100.68","","","","","","Mainly Clear"
"1998-12-01 16:00","1998","12","01","16:00","8.1","","-0.2","","56","","28","","28","","24.1","","100.78","","","","","","Mainly Clear"
"1998-12-01 17:00","1998","12","01","17:00","7.1","","0.5","","63","","26","","19","","24.1","","100.88","","","","","","Mainly Clear"
"1998-12-01 18:00","1998","12","01","18:00","6.6","","2.4","","75","","25","","19","","24.1","","100.88","","","","","","Clear"
"1998-12-01 19:00","1998","12","01","19:00","6.8","","3.3","","78","","24","","19","","24.1","","100.88","","","","","","Clear"
"1998-12-01 20:00","1998","12","01","20:00","7.1","","3.3","","77","","24","","19","","24.1","","100.88","","","","","","Clear"
"1998-12-01 21:00","1998","12","01","21:00","7.0","","4.1","","82","","25","","19","","24.1","","100.88","","","","","","Clear"
"1998-12-01 22:00","1998","12","01","22:00","7.1","","4.9","","86","","25","","28","","24.1","","100.88","","","","","","Clear"
"1998-12-01 23:00","1998","12","01","23:00","6.8","","4.9","","88","","24","","19","","16.1","","100.81","","","","","","Mainly Clear"
"1998-12-02 00:00","1998","12","02","00:00"
"1998-12-02 01:00","1998","12","02","01:00"
"1998-12-02 02:00","1998","12","02","02:00"
"1998-12-02 03:00","1998","12","02","03:00"
"1998-12-02 04:00","1998","12","02","04:00"
"1998-12-02 05:00","1998","12","02","05:00"
"1998-12-02 06:00","1998","12","02","06:00","8.8","","4.9","","76","","23","","33","","24.1","","100.24","","","","","","Clear"
"1998-12-02 07:00","1998","12","02","07:00","9.0","","4.3","","72","","24","","22","","24.1","","100.21","","","","","","Mainly Clear"
"1998-12-02 08:00","1998","12","02","08:00","9.3","","4.4","","71","","24","","28","","24.1","","100.18","","","","","","Mainly Clear"
"1998-12-02 09:00","1998","12","02","09:00","9.9","","4.7","","70","","25","","28","","24.1","","100.18","","","","","","Mainly Clear"
"1998-12-02 10:00","1998","12","02","10:00","10.8","","4.7","","66","","24","","22","","24.1","","100.07","","","","","","Mainly Clear"
"1998-12-02 11:00","1998","12","02","11:00","11.3","","4.6","","63","","25","","28","","24.1","","100.04","","","","","","Mostly Cloudy"
"1998-12-02 12:00","1998","12","02","12:00","12.0","","5.4","","64","","27","","32","","24.1","","99.97","","","","","","Mostly Cloudy"
"1998-12-02 13:00","1998","12","02","13:00","11.5","","5.0","","64","","24","","28","","24.1","","99.91","","","","","","Mostly Cloudy"
"1998-12-02 14:00","1998","12","02","14:00","11.3","","5.3","","67","","26","","22","","24.1","","99.84","","","","","","Mostly Cloudy"
"1998-12-02 15:00","1998","12","02","15:00","10.8","","5.2","","68","","25","","19","","24.1","","99.87","","","","","","Cloudy"
"1998-12-02 16:00","1998","12","02","16:00","10.9","","5.4","","69","","25","","19","","24.1","","99.91","","","","","","Cloudy"
"1998-12-02 17:00","1998","12","02","17:00","10.7","","5.7","","71","","26","","17","","24.1","","99.94","","","","","","Cloudy"
"1998-12-02 18:00","1998","12","02","18:00","10.4","","5.7","","73","","26","","19","","24.1","","99.97","","","","","","Cloudy"
"1998-12-02 19:00","1998","12","02","19:00","10.1","","5.8","","75","","25","","20","","24.1","","100.04","","","","","","Cloudy"
"1998-12-02 20:00","1998","12","02","20:00","9.5","","6.3","","80","","25","","15","","16.1","","100.07","","","","","","Cloudy"
"1998-12-02 21:00","1998","12","02","21:00","9.1","","6.4","","83","","24","","13","","24.1","","100.11","","","","","","Cloudy"
"1998-12-02 22:00","1998","12","02","22:00","9.1","","6.6","","84","","25","","15","","24.1","","100.11","","","","","","Cloudy"
"1998-12-02 23:00","1998","12","02","23:00","8.8","","7.1","","89","","25","","7","","24.1","","100.14","","","","","","Cloudy"
"1998-12-03 00:00","1998","12","03","00:00"
"1998-12-03 01:00","1998","12","03","01:00"
"1998-12-03 02:00","1998","12","03","02:00"
"1998-12-03 03:00","1998","12","03","03:00"
"1998-12-03 04:00","1998","12","03","04:00"
"1998-12-03 05:00","1998","12","03","05:00"
"1998-12-03 06:00","1998","12","03","06:00","8.4","","7.0","","91","","6","","9","","24.1","","99.94","","","","","","Cloudy"
"1998-12-03 07:00","1998","12","03","07:00","8.5","","7.9","","96","","13","","7","","16.1","","99.94","","","","","","Cloudy"
"1998-12-03 08:00","1998","12","03","08:00","8.7","","8.4","","98","","","","0","","12.9","","99.94","","","","","","Cloudy"
"1998-12-03 09:00","1998","12","03","09:00","9.0","","8.2","","95","","9","","7","","12.9","","99.91","","","","","","Cloudy"
"1998-12-03 10:00","1998","12","03","10:00","9.3","","7.9","","91","","15","","7","","19.3","","99.84","","","","","","Cloudy"
"1998-12-03 11:00","1998","12","03","11:00","9.5","","8.0","","90","","19","","9","","19.3","","99.74","","","","","","Cloudy"
"1998-12-03 12:00","1998","12","03","12:00","10.2","","8.3","","88","","22","","9","","19.3","","99.74","","","","","","Cloudy"
"1998-12-03 13:00","1998","12","03","13:00","9.5","","7.9","","90","","19","","7","","16.1","","99.64","","","","","","Cloudy"
"1998-12-03 14:00","1998","12","03","14:00","9.3","","7.9","","91","","21","","9","","11.3","","99.60","","","","","","Rain Showers"
"1998-12-03 15:00","1998","12","03","15:00","10.1","","8.6","","90","","24","","9","","8.0","","99.60","","","","","","Rain Showers,Fog"
"1998-12-03 16:00","1998","12","03","16:00","10.4","","8.9","","90","","24","","15","","4.8","","99.64","","","","","","Rain Showers,Fog"
"1998-12-03 17:00","1998","12","03","17:00","10.6","","9.3","","92","","26","","15","","6.4","","99.64","","","","","","Fog"
"1998-12-03 18:00","1998","12","03","18:00","10.3","","9.0","","92","","25","","19","","12.9","","99.71","","","","","","Cloudy"
"1998-12-03 19:00","1998","12","03","19:00","10.7","","9.2","","90","","25","","22","","12.9","","99.74","","","","","","Cloudy"
"1998-12-03 20:00","1998","12","03","20:00","10.7","","9.4","","92","","26","","19","","12.9","","99.77","","","","","","Cloudy"
"1998-12-03 21:00","1998","12","03","21:00","10.8","","9.6","","92","","25","","22","","12.9","","99.77","","","","","","Cloudy"
"1998-12-03 22:00","1998","12","03","22:00","11.2","","9.9","","92","","26","","19","","12.9","","99.81","","","","","","Cloudy"
"1998-12-03 23:00","1998","12","03","23:00","11.1","","9.8","","92","","24","","11","","11.3","","99.81","","","","","","Cloudy"
"1998-12-04 00:00","1998","12","04","00:00"
"1998-12-04 01:00","1998","12","04","01:00"
"1998-12-04 02:00","1998","12","04","02:00"
"1998-12-04 03:00","1998","12","04","03:00"
"1998-12-04 04:00","1998","12","04","04:00"
"1998-12-04 05:00","1998","12","04","05:00"
"1998-12-04 06:00","1998","12","04","06:00","9.2","","9.2","","100","","24","","11","","9.7","","99.94","","","","","","Fog"
"1998-12-04 07:00","1998","12","04","07:00","9.1","","9.1","","100","","24","","15","","8.0","","100.01","","","","","","Fog"
"1998-12-04 08:00","1998","12","04","08:00","9.1","","9.0","","99","","24","","15","","4.8","","100.07","","","","","","Fog"
"1998-12-04 09:00","1998","12","04","09:00","9.7","","9.6","","99","","24","","19","","4.8","","100.11","","","","","","Fog"
"1998-12-04 10:00","1998","12","04","10:00","10.1","","9.7","","97","","25","","20","","8.0","","100.21","","","","","","Fog"
"1998-12-04 11:00","1998","12","04","11:00","12.4","","10.6","","89","","28","","19","","12.9","","100.21","","","","","","Clear"
"1998-12-04 12:00","1998","12","04","12:00","13.9","","6.9","","63","","27","","19","","19.3","","100.21","","","","","","Mainly Clear"
"1998-12-04 13:00","1998","12","04","13:00","14.8","","1.3","","40","","28","","19","","24.1","","100.24","","","","","","Mainly Clear"
"1998-12-04 14:00","1998","12","04","14:00","15.0","","0.3","","37","","29","","22","","24.1","","100.24","","","","","","Clear"
"1998-12-04 15:00","1998","12","04","15:00","15.0","","-0.1","","36","","29","","22","","24.1","","100.28","","","","","","Clear"
"1998-12-04 16:00","1998","12","04","16:00","12.2","","1.7","","49","","27","","6","","24.1","","100.34","","","","","","Clear"
"1998-12-04 17:00","1998","12","04","17:00","10.6","","1.5","","53","","23","","7","","24.1","","100.48","","","","","","Clear"
"1998-12-04 18:00","1998","12","04","18:00","9.2","","3.9","","69","","25","","11","","24.1","","100.54","","","","","","Clear"
"1998-12-04 19:00","1998","12","04","19:00","7.7","","1.5","","65","","36","","9","","24.1","","100.61","","","","","","Clear"
"1998-12-04 20:00","1998","12","04","20:00","6.9","","1.7","","69","","7","","15","","24.1","","100.68","","","","","","Clear"
"1998-12-04 21:00","1998","12","04","21:00","4.1","","0.5","","77","","5","","9","","24.1","","100.71","","","","","","Clear"
"1998-12-04 22:00","1998","12","04","22:00","3.9","","0.5","","78","","4","","13","","24.1","","100.75","","","","","","Clear"
"1998-12-04 23:00","1998","12","04","23:00","4.1","","-0.2","","74","","4","","19","","24.1","","100.78","","","","","","Clear"
"1998-12-05 00:00","1998","12","05","00:00"
"1998-12-05 01:00","1998","12","05","01:00"
"1998-12-05 02:00","1998","12","05","02:00"
"1998-12-05 03:00","1998","12","05","03:00"
"1998-12-05 04:00","1998","12","05","04:00"
"1998-12-05 05:00","1998","12","05","05:00"
"1998-12-05 06:00","1998","12","05","06:00","-0.2","","-2.6","","84","","3","","11","","24.1","","100.95","","","","-4","","Mainly Clear"
"1998-12-05 07:00","1998","12","05","07:00","-0.3","","-3.0","","82","","5","","13","","24.1","","100.95","","","","-4","","Mainly Clear"
"1998-12-05 08:00","1998","12","05","08:00","-0.2","","-3.0","","81","","6","","17","","24.1","","100.98","","","","-5","","Mostly Cloudy"
"1998-12-05 09:00","1998","12","05","09:00","0.6","","-2.6","","79","","6","","19","","24.1","","100.98","","","","","","Mostly Cloudy"
"1998-12-05 10:00","1998","12","05","10:00","1.1","","-2.4","","77","","6","","19","","24.1","","100.95","","","","","","Cloudy"
"1998-12-05 11:00","1998","12","05","11:00","1.4","","-1.7","","80","","5","","19","","24.1","","100.85","","","","","","Cloudy"
"1998-12-05 12:00","1998","12","05","12:00","1.6","","-1.1","","82","","5","","19","","19.3","","100.75","","","","","","Rain Showers"
"1998-12-05 13:00","1998","12","05","13:00","1.8","","-1.3","","80","","5","","22","","24.1","","100.64","","","","","","Cloudy"
"1998-12-05 14:00","1998","12","05","14:00","1.6","","-0.5","","86","","5","","19","","24.1","","100.54","","","","","","Cloudy"
"1998-12-05 15:00","1998","12","05","15:00","1.8","","-0.4","","85","","5","","22","","24.1","","100.54","","","","","","Cloudy"
"1998-12-05 16:00","1998","12","05","16:00","1.9","","-0.4","","85","","5","","19","","24.1","","100.54","","","","","","Cloudy"
"1998-12-05 17:00","1998","12","05","17:00","1.7","","-0.6","","85","","7","","19","","24.1","","100.44","","","","","","Cloudy"
"1998-12-05 18:00","1998","12","05","18:00","1.7","","-0.6","","85","","5","","26","","24.1","","100.34","","","","","","Cloudy"
"1998-12-05 19:00","1998","12","05","19:00","2.0","","-0.1","","86","","4","","22","","24.1","","100.31","","","","","","Cloudy"
"1998-12-05 20:00","1998","12","05","20:00","2.0","","0.0","","87","","5","","22","","24.1","","100.18","","","","","","Rain Showers"
"1998-12-05 21:00","1998","12","05","21:00","2.2","","0.5","","89","","4","","19","","24.1","","100.07","","","","","","Rain Showers"
"1998-12-05 22:00","1998","12","05","22:00","2.0","","1.0","","93","","3","","17","","16.1","","100.04","","","","","","Rain Showers"
"1998-12-05 23:00","1998","12","05","23:00","2.2","","1.6","","96","","6","","7","","16.1","","99.97","","","","","","Rain Showers"
"1998-12-06 00:00","1998","12","06","00:00"
"1998-12-06 01:00","1998","12","06","01:00"
"1998-12-06 02:00","1998","12","06","02:00"
"1998-12-06 03:00","1998","12","06","03:00"
"1998-12-06 04:00","1998","12","06","04:00"
"1998-12-06 05:00","1998","12","06","05:00"
"1998-12-06 06:00","1998","12","06","06:00","5.5","","5.5","","100","","15","","4","","6.4","","99.91","","","","","","Fog"
"1998-12-06 07:00","1998","12","06","07:00","6.4","","6.4","","100","","19","","4","","4.8","","99.94","","","","","","Fog"
"1998-12-06 08:00","1998","12","06","08:00","7.5","","7.4","","99","","22","","6","","3.2","","99.94","","","","","","Fog"
"1998-12-06 09:00","1998","12","06","09:00","9.0","","8.5","","97","","23","","9","","2.4","","99.94","","","","","","Fog"
"1998-12-06 10:00","1998","12","06","10:00","9.3","","9.2","","99","","17","","4","","2.4","","99.87","","","","","","Fog"
"1998-12-06 11:00","1998","12","06","11:00","9.5","","9.5","","100","","16","","9","","4.0","","99.81","","","","","","Fog"
"1998-12-06 12:00","1998","12","06","12:00","10.2","","10.2","","100","","","","0","","6.4","","99.74","","","","","","Fog"
"1998-12-06 13:00","1998","12","06","13:00","11.1","","10.8","","98","","22","","13","","9.7","","99.74","","","","","","Fog"
"1998-12-06 14:00","1998","12","06","14:00","10.8","","10.5","","98","","27","","7","","11.3","","99.64","","","","","","Cloudy"
"1998-12-06 15:00","1998","12","06","15:00","12.4","","11.6","","95","","25","","13","","8.0","","99.64","","","","","","Rain Showers,Fog"
"1998-12-06 16:00","1998","12","06","16:00","11.5","","11.2","","98","","23","","7","","8.0","","99.57","","","","","","Rain Showers,Fog"
"1998-12-06 17:00","1998","12","06","17:00","10.5","","10.2","","98","","22","","11","","8.0","","99.57","","","","","","Fog"
"1998-12-06 18:00","1998","12","06","18:00","11.2","","10.6","","96","","18","","9","","8.0","","99.54","","","","","","Fog"
"1998-12-06 19:00","1998","12","06","19:00","11.9","","11.3","","96","","20","","11","","8.0","","99.44","","","","","","Fog"
"1998-12-06 20:00","1998","12","06","20:00","11.9","","11.5","","97","","20","","6","","9.7","","99.34","","","","","","Fog"
"1998-12-06 21:00","1998","12","06","21:00","11.4","","10.8","","96","","20","","13","","9.7","","99.20","","","","","","Rain Showers,Fog"
"1998-12-06 22:00","1998","12","06","22:00","11.3","","10.9","","97","","17","","19","","16.1","","99.00","","","","","","Rain Showers"
"1998-12-06 23:00","1998","12","06","23:00","14.8","","13.8","","94","","24","","33","","4.8","","99.03","","","","","","Rain Showers,Fog"
"1998-12-07 00:00","1998","12","07","00:00"
"1998-12-07 01:00","1998","12","07","01:00"
"1998-12-07 02:00","1998","12","07","02:00"
"1998-12-07 03:00","1998","12","07","03:00"
"1998-12-07 04:00","1998","12","07","04:00"
"1998-12-07 05:00","1998","12","07","05:00"
"1998-12-07 06:00","1998","12","07","06:00","12.7","","11.2","","91","","26","","24","","19.3","","98.90","","","","","","Cloudy"
"1998-12-07 07:00","1998","12","07","07:00","8.3","","6.4","","88","","35","","37","","24.1","","99.37","","","","","","Cloudy"
"1998-12-07 08:00","1998","12","07","08:00","5.6","","2.0","","78","","33","","22","","24.1","","99.67","","","","","","Mostly Cloudy"
"1998-12-07 09:00","1998","12","07","09:00","5.9","","2.0","","76","","34","","22","","24.1","","99.97","","","","","","Mainly Clear"
"1998-12-07 10:00","1998","12","07","10:00","6.5","","1.3","","69","","34","","22","","24.1","","100.21","","","","","","Mainly Clear"
"1998-12-07 11:00","1998","12","07","11:00","7.7","","1.3","","64","","31","","28","","24.1","","100.38","","","","","","Mostly Cloudy"
"1998-12-07 12:00","1998","12","07","12:00","6.9","","-0.4","","60","","33","","22","","24.1","","100.41","","","","","","Mostly Cloudy"
"1998-12-07 13:00","1998","12","07","13:00","7.0","","-1.5","","55","","33","","19","","24.1","","100.51","","","","","","Mostly Cloudy"
"1998-12-07 14:00","1998","12","07","14:00","7.4","","-1.5","","53","","33","","15","","24.1","","100.54","","","","","","Cloudy"
"1998-12-07 15:00","1998","12","07","15:00","6.8","","-1.5","","55","","31","","13","","24.1","","100.64","","","","","","Mostly Cloudy"
"1998-12-07 16:00","1998","12","07","16:00","5.6","","-1.5","","60","","32","","9","","24.1","","100.75","","","","","","Mostly Cloudy"
"1998-12-07 17:00","1998","12","07","17:00","5.5","","-0.7","","64","","1","","9","","24.1","","100.81","","","","","","Mostly Cloudy"
"1998-12-07 18:00","1998","12","07","18:00","3.7","","-1.9","","67","","36","","15","","24.1","","100.91","","","","","","Mainly Clear"
"1998-12-07 19:00","1998","12","07","19:00","1.9","","-3.7","","66","","3","","13","","24.1","","101.05","","","","","","Mainly Clear"
"1998-12-07 20:00","1998","12","07","20:00","0.7","","-4.3","","69","","5","","15","","24.1","","101.08","","","","","","Mainly Clear"
"1998-12-07 21:00","1998","12","07","21:00","-0.7","","-4.7","","74","","7","","9","","24.1","","101.25","","","","-4","","Mainly Clear"
"1998-12-07 22:00","1998","12","07","22:00","-1.0","","-5.7","","70","","5","","24","","24.1","","101.18","","","","-7","","Clear"
"1998-12-07 23:00","1998","12","07","23:00","-1.8","","-6.1","","72","","5","","17","","24.1","","101.22","","","","-7","","Clear"
"1998-12-08 00:00","1998","12","08","00:00"
"1998-12-08 01:00","1998","12","08","01:00"
"1998-12-08 02:00","1998","12","08","02:00"
"1998-12-08 03:00","1998","12","08","03:00"
"1998-12-08 04:00","1998","12","08","04:00"
"1998-12-08 05:00","1998","12","08","05:00"
"1998-12-08 06:00","1998","12","08","06:00","-2.6","","-5.3","","82","","5","","15","","24.1","","101.05","","","","-8","","Cloudy"
"1998-12-08 07:00","1998","12","08","07:00","-2.2","","-4.9","","82","","6","","22","","24.1","","100.95","","","","-8","","Cloudy"
"1998-12-08 08:00","1998","12","08","08:00"
"1998-12-08 09:00","1998","12","08","09:00"
"1998-12-08 10:00","1998","12","08","10:00"
"1998-12-08 11:00","1998","12","08","11:00","-0.9","","-3.7","","81","","7","","19","","12.9","","100.81","","","","-6","","Snow Showers"
"1998-12-08 12:00","1998","12","08","12:00","-1.1","","-2.9","","88","","7","","19","","9.7","","100.61","","","","-6","","Snow Showers"
"1998-12-08 13:00","1998","12","08","13:00","-0.9","","-2.3","","90","","4","","11","","8.0","","100.64","","","","-5","","Snow Showers"
"1998-12-08 14:00","1998","12","08","14:00","-1.0","","-2.2","","92","","4","","11","","8.0","","100.61","","","","-5","","Snow Showers"
"1998-12-08 15:00","1998","12","08","15:00","-0.2","","-1.9","","88","","36","","17","","16.1","","100.58","","","","-5","","Cloudy"
"1998-12-08 16:00","1998","12","08","16:00","0.1","","-2.3","","84","","2","","13","","24.1","","100.64","","","","","","Mostly Cloudy"
"1998-12-08 17:00","1998","12","08","17:00","-0.1","","-2.4","","84","","36","","9","","24.1","","100.68","","","","-3","","Mostly Cloudy"
"1998-12-08 18:00","1998","12","08","18:00","0.1","","-2.2","","84","","33","","7","","24.1","","100.71","","","","","","Cloudy"
"1998-12-08 19:00","1998","12","08","19:00","0.0","","-2.0","","86","","28","","7","","24.1","","100.78","","","","-2","","Mostly Cloudy"
"1998-12-08 20:00","1998","12","08","20:00","0.0","","-2.3","","84","","29","","9","","24.1","","100.81","","","","-3","","Cloudy"
"1998-12-08 21:00","1998","12","08","21:00","0.1","","-2.1","","85","","","","0","","24.1","","100.85","","","","","","Mostly Cloudy"
"1998-12-08 22:00","1998","12","08","22:00","0.1","","-2.3","","84","","18","","6","","24.1","","100.81","","","","","","Mainly Clear"
"1998-12-08 23:00","1998","12","08","23:00","-0.6","","-3.0","","84","","33","","4","","24.1","","100.85","","","","-2","","Mainly Clear"
"1998-12-09 00:00","1998","12","09","00:00"
"1998-12-09 01:00","1998","12","09","01:00"
"1998-12-09 02:00","1998","12","09","02:00"
"1998-12-09 03:00","1998","12","09","03:00"
"1998-12-09 04:00","1998","12","09","04:00"
"1998-12-09 05:00","1998","12","09","05:00"
"1998-12-09 06:00","1998","12","09","06:00","1.8","","-0.6","","84","","27","","19","","24.1","","101.01","","","","","","Clear"
"1998-12-09 07:00","1998","12","09","07:00","1.2","","-1.3","","83","","28","","13","","24.1","","101.08","","","","","","Mainly Clear"
"1998-12-09 08:00","1998","12","09","08:00","0.6","","-1.6","","85","","26","","9","","24.1","","101.11","","","","","","Mainly Clear"
"1998-12-09 09:00","1998","12","09","09:00","1.6","","-0.5","","86","","27","","13","","24.1","","101.25","","","","","","Mostly Cloudy"
"1998-12-09 10:00","1998","12","09","10:00","2.3","","0.0","","85","","31","","22","","24.1","","101.35","","","","","","Mostly Cloudy"
"1998-12-09 11:00","1998","12","09","11:00","4.1","","1.7","","84","","30","","15","","24.1","","101.32","","","","","","Mainly Clear"
"1998-12-09 12:00","1998","12","09","12:00","5.5","","1.4","","75","","31","","22","","24.1","","101.28","","","","","","Mainly Clear"
"1998-12-09 13:00","1998","12","09","13:00","5.5","","-0.1","","67","","29","","19","","24.1","","101.28","","","","","","Mainly Clear"
"1998-12-09 14:00","1998","12","09","14:00","5.2","","-0.5","","67","","30","","19","","24.1","","101.32","","","","","","Mainly Clear"
"1998-12-09 15:00","1998","12","09","15:00","5.4","","-1.7","","60","","29","","19","","24.1","","101.32","","","","","","Mainly Clear"
"1998-12-09 16:00","1998","12","09","16:00","5.1","","-2.0","","60","","27","","15","","24.1","","101.38","","","","","","Mainly Clear"
"1998-12-09 17:00","1998","12","09","17:00","4.1","","-2.3","","63","","27","","9","","24.1","","101.45","","","","","","Mainly Clear"
"1998-12-09 18:00","1998","12","09","18:00","3.9","","-1.6","","67","","26","","7","","24.1","","101.45","","","","","","Mainly Clear"
"1998-12-09 19:00","1998","12","09","19:00","4.0","","-1.1","","69","","26","","7","","24.1","","101.48","","","","","","Clear"
"1998-12-09 20:00","1998","12","09","20:00","2.6","","-2.1","","71","","27","","9","","24.1","","101.52","","","","","","Clear"
"1998-12-09 21:00","1998","12","09","21:00","1.4","","-2.8","","74","","28","","9","","24.1","","101.55","","","","","","Clear"
"1998-12-09 22:00","1998","12","09","22:00","1.0","","-3.1","","74","","29","","7","","24.1","","101.58","","","","","","Clear"
"1998-12-09 23:00","1998","12","09","23:00","1.6","","-2.6","","74","","26","","9","","24.1","","101.55","","","","","","Clear"
"1998-12-10 00:00","1998","12","10","00:00"
"1998-12-10 01:00","1998","12","10","01:00"
"1998-12-10 02:00","1998","12","10","02:00"
"1998-12-10 03:00","1998","12","10","03:00"
"1998-12-10 04:00","1998","12","10","04:00"
"1998-12-10 05:00","1998","12","10","05:00"
"1998-12-10 06:00","1998","12","10","06:00","3.3","","-0.3","","77","","23","","9","","24.1","","101.32","","","","","","Mostly Cloudy"
"1998-12-10 07:00","1998","12","10","07:00","4.0","","0.9","","80","","24","","19","","16.1","","101.28","","","","","","Mostly Cloudy"
"1998-12-10 08:00","1998","12","10","08:00","3.9","","1.6","","85","","23","","19","","16.1","","101.25","","","","","","Mostly Cloudy"
"1998-12-10 09:00","1998","12","10","09:00","4.8","","2.8","","87","","25","","19","","19.3","","101.18","","","","","","Mostly Cloudy"
"1998-12-10 10:00","1998","12","10","10:00","6.1","","3.8","","85","","23","","22","","19.3","","101.11","","","","","","Mostly Cloudy"
"1998-12-10 11:00","1998","12","10","11:00","6.2","","2.8","","79","","25","","28","","24.1","","101.05","","","","","","Mostly Cloudy"
"1998-12-10 12:00","1998","12","10","12:00","6.0","","2.3","","77","","26","","28","","24.1","","101.01","","","","","","Mostly Cloudy"
"1998-12-10 13:00","1998","12","10","13:00","6.2","","2.1","","75","","25","","19","","24.1","","100.91","","","","","","Cloudy"
"1998-12-10 14:00","1998","12","10","14:00","6.0","","1.1","","71","","25","","22","","24.1","","100.81","","","","","","Cloudy"
"1998-12-10 15:00","1998","12","10","15:00","5.8","","0.4","","68","","27","","19","","24.1","","100.78","","","","","","Mostly Cloudy"
"1998-12-10 16:00","1998","12","10","16:00","5.0","","0.4","","72","","24","","28","","24.1","","100.85","","","","","","Mostly Cloudy"
"1998-12-10 17:00","1998","12","10","17:00","4.1","","0.4","","77","","24","","28","","24.1","","100.81","","","","","","Mostly Cloudy"
"1998-12-10 18:00","1998","12","10","18:00","4.5","","1.5","","81","","24","","28","","19.3","","100.88","","","","","","Mostly Cloudy"
"1998-12-10 19:00","1998","12","10","19:00","5.1","","2.1","","81","","26","","28","","19.3","","100.85","","","","","","Cloudy"
"1998-12-10 20:00","1998","12","10","20:00","4.9","","0.7","","74","","27","","33","","24.1","","100.85","","","","","","Cloudy"
"1998-12-10 21:00","1998","12","10","21:00","4.2","","-0.7","","70","","28","","28","","24.1","","100.88","","","","","","Cloudy"
"1998-12-10 22:00","1998","12","10","22:00","3.7","","-0.5","","74","","28","","19","","24.1","","100.88","","","","","","Cloudy"
"1998-12-10 23:00","1998","12","10","23:00","3.5","","-0.5","","75","","28","","19","","24.1","","100.88","","","","","","Cloudy"
"1998-12-11 00:00","1998","12","11","00:00"
"1998-12-11 01:00","1998","12","11","01:00"
"1998-12-11 02:00","1998","12","11","02:00"
"1998-12-11 03:00","1998","12","11","03:00"
"1998-12-11 04:00","1998","12","11","04:00"
"1998-12-11 05:00","1998","12","11","05:00"
"1998-12-11 06:00","1998","12","11","06:00","0.5","","-1.5","","86","","28","","13","","24.1","","101.15","","","","","","Mainly Clear"
"1998-12-11 07:00","1998","12","11","07:00","0.0","","-2.4","","84","","28","","15","","24.1","","101.18","","","","-4","","Mainly Clear"
"1998-12-11 08:00","1998","12","11","08:00","-0.9","","-3.5","","82","","28","","9","","24.1","","101.25","","","","-4","","Mainly Clear"
"1998-12-11 09:00","1998","12","11","09:00","-0.3","","-2.7","","84","","30","","19","","24.1","","101.35","","","","-5","","Mainly Clear"
"1998-12-11 10:00","1998","12","11","10:00","0.8","","-3.3","","74","","30","","22","","24.1","","101.45","","","","","","Mainly Clear"
"1998-12-11 11:00","1998","12","11","11:00","1.5","","-7.3","","52","","30","","26","","24.1","","101.45","","","","","","Mainly Clear"
"1998-12-11 12:00","1998","12","11","12:00","2.6","","-6.9","","50","","31","","26","","24.1","","101.45","","","","","","Mainly Clear"
"1998-12-11 13:00","1998","12","11","13:00","3.5","","-7.7","","44","","34","","22","","24.1","","101.45","","","","","","Mainly Clear"
"1998-12-11 14:00","1998","12","11","14:00","3.7","","-6.8","","46","","34","","19","","24.1","","101.45","","","","","","Mainly Clear"
"1998-12-11 15:00","1998","12","11","15:00","4.2","","-5.8","","48","","27","","6","","24.1","","101.48","","","","","","Mainly Clear"
"1998-12-11 16:00","1998","12","11","16:00","3.3","","-5.0","","54","","27","","9","","24.1","","101.55","","","","","","Mostly Cloudy"
"1998-12-11 17:00","1998","12","11","17:00","3.1","","-4.4","","58","","27","","15","","24.1","","101.58","","","","","","Mostly Cloudy"
"1998-12-11 18:00","1998","12","11","18:00","3.1","","-3.2","","63","","27","","9","","24.1","","101.58","","","","","","Mostly Cloudy"
"1998-12-11 19:00","1998","12","11","19:00","2.8","","-2.4","","69","","26","","9","","24.1","","101.62","","","","","","Mainly Clear"
"1998-12-11 20:00","1998","12","11","20:00","3.4","","-1.4","","71","","25","","9","","24.1","","101.58","","","","","","Mainly Clear"
"1998-12-11 21:00","1998","12","11","21:00","3.3","","-1.2","","72","","23","","9","","24.1","","101.58","","","","","","Mostly Cloudy"
"1998-12-11 22:00","1998","12","11","22:00","3.0","","-1.5","","72","","23","","11","","24.1","","101.58","","","","","","Mostly Cloudy"
"1998-12-11 23:00","1998","12","11","23:00","3.5","","-0.8","","73","","24","","13","","24.1","","101.58","","","","","","Mainly Clear"
"1998-12-12 00:00","1998","12","12","00:00"
"1998-12-12 01:00","1998","12","12","01:00"
"1998-12-12 02:00","1998","12","12","02:00"
"1998-12-12 03:00","1998","12","12","03:00"
"1998-12-12 04:00","1998","12","12","04:00"
"1998-12-12 05:00","1998","12","12","05:00"
"1998-12-12 06:00","1998","12","12","06:00","5.3","","2.5","","82","","23","","19","","19.3","","101.22","","","","","","Mostly Cloudy"
"1998-12-12 07:00","1998","12","12","07:00","4.8","","2.4","","84","","23","","19","","19.3","","101.18","","","","","","Mostly Cloudy"
"1998-12-12 08:00","1998","12","12","08:00","5.2","","2.9","","85","","23","","19","","19.3","","101.18","","","","","","Mostly Cloudy"
"1998-12-12 09:00","1998","12","12","09:00","5.9","","3.4","","84","","24","","28","","19.3","","101.15","","","","","","Mostly Cloudy"
"1998-12-12 10:00","1998","12","12","10:00","6.7","","3.3","","79","","24","","28","","19.3","","101.11","","","","","","Mainly Clear"
"1998-12-12 11:00","1998","12","12","11:00","7.0","","2.8","","75","","25","","28","","19.3","","101.11","","","","","","Mainly Clear"
"1998-12-12 12:00","1998","12","12","12:00","7.6","","3.0","","73","","24","","28","","19.3","","101.01","","","","","","Mostly Cloudy"
"1998-12-12 13:00","1998","12","12","13:00","7.5","","2.1","","69","","24","","28","","24.1","","100.95","","","","","","Mainly Clear"
"1998-12-12 14:00","1998","12","12","14:00","7.8","","1.2","","63","","24","","28","","24.1","","100.91","","","","","","Mainly Clear"
"1998-12-12 15:00","1998","12","12","15:00","7.9","","-0.1","","57","","25","","22","","24.1","","100.91","","","","","","Mainly Clear"
"1998-12-12 16:00","1998","12","12","16:00","7.3","","-0.3","","58","","26","","28","","16.1","","100.95","","","","","","Mainly Clear"
"1998-12-12 17:00","1998","12","12","17:00","6.9","","0.7","","65","","25","","28","","19.3","","100.98","","","","","","Mainly Clear"
"1998-12-12 18:00","1998","12","12","18:00","6.1","","2.2","","76","","25","","19","","19.3","","100.98","","","","","","Mainly Clear"
"1998-12-12 19:00","1998","12","12","19:00","5.3","","2.6","","83","","25","","19","","24.1","","100.95","","","","","","Clear"
"1998-12-12 20:00","1998","12","12","20:00","4.8","","2.2","","83","","25","","9","","19.3","","100.91","","","","","","Clear"
"1998-12-12 21:00","1998","12","12","21:00","4.9","","2.8","","86","","25","","19","","19.3","","100.88","","","","","","Clear"
"1998-12-12 22:00","1998","12","12","22:00","5.1","","3.3","","88","","26","","19","","19.3","","100.85","","","","","","Mostly Cloudy"
"1998-12-12 23:00","1998","12","12","23:00","5.3","","3.2","","86","","25","","19","","19.3","","100.81","","","","","","Mostly Cloudy"
"1998-12-13 00:00","1998","12","13","00:00"
"1998-12-13 01:00","1998","12","13","01:00"
"1998-12-13 02:00","1998","12","13","02:00"
"1998-12-13 03:00","1998","12","13","03:00"
"1998-12-13 04:00","1998","12","13","04:00"
"1998-12-13 05:00","1998","12","13","05:00"
"1998-12-13 06:00","1998","12","13","06:00","3.4","","1.5","","87","","26","","11","","24.1","","100.64","","","","","","Mainly Clear"
"1998-12-13 07:00","1998","12","13","07:00","2.5","","1.2","","91","","28","","11","","24.1","","100.68","","","","","","Mainly Clear"
"1998-12-13 08:00","1998","12","13","08:00","1.2","","-0.6","","88","","25","","7","","24.1","","100.68","","","","","","Mainly Clear"
"1998-12-13 09:00","1998","12","13","09:00","1.9","","0.7","","92","","30","","11","","24.1","","100.71","","","","","","Mainly Clear"
"1998-12-13 10:00","1998","12","13","10:00","4.8","","3.0","","88","","32","","13","","24.1","","100.68","","","","","","Mainly Clear"
"1998-12-13 11:00","1998","12","13","11:00","4.8","","2.0","","82","","33","","19","","24.1","","100.64","","","","","","Mainly Clear"
"1998-12-13 12:00","1998","12","13","12:00","5.8","","2.5","","79","","34","","19","","24.1","","100.58","","","","","","Mainly Clear"
"1998-12-13 13:00","1998","12","13","13:00","7.0","","1.8","","69","","31","","19","","24.1","","100.54","","","","","","Mainly Clear"
"1998-12-13 14:00","1998","12","13","14:00","7.1","","1.1","","66","","1","","9","","24.1","","100.51","","","","","","Mainly Clear"
"1998-12-13 15:00","1998","12","13","15:00","7.2","","-0.7","","57","","36","","19","","24.1","","100.58","","","","","","Mainly Clear"
"1998-12-13 16:00","1998","12","13","16:00","5.6","","-2.0","","58","","36","","15","","24.1","","100.61","","","","","","Mainly Clear"
"1998-12-13 17:00","1998","12","13","17:00","3.8","","-4.5","","55","","1","","13","","24.1","","100.71","","","","","","Mainly Clear"
"1998-12-13 18:00","1998","12","13","18:00","2.7","","-5.7","","54","","2","","19","","24.1","","100.78","","","","","","Mainly Clear"
"1998-12-13 19:00","1998","12","13","19:00","1.8","","-6.7","","53","","1","","19","","24.1","","100.91","","","","","","Clear"
"1998-12-13 20:00","1998","12","13","20:00","0.4","","-7.2","","57","","2","","9","","24.1","","101.01","","","","","","Clear"
"1998-12-13 21:00","1998","12","13","21:00","-2.2","","-8.1","","64","","35","","9","","24.1","","101.05","","","","-6","","Clear"
"1998-12-13 22:00","1998","12","13","22:00","-1.9","","-7.7","","64","","36","","11","","24.1","","101.05","","","","-6","","Clear"
"1998-12-13 23:00","1998","12","13","23:00","-4.0","","-9.3","","67","","35","","13","","24.1","","101.05","","","","-9","","Clear"
"1998-12-14 00:00","1998","12","14","00:00"
"1998-12-14 01:00","1998","12","14","01:00"
"1998-12-14 02:00","1998","12","14","02:00"
"1998-12-14 03:00","1998","12","14","03:00"
"1998-12-14 04:00","1998","12","14","04:00"
"1998-12-14 05:00","1998","12","14","05:00"
"1998-12-14 06:00","1998","12","14","06:00","-6.9","","-9.2","","84","","34","","13","","24.1","","101.32","","","","-12","","Clear"
"1998-12-14 07:00","1998","12","14","07:00","-7.0","","-8.8","","87","","34","","11","","24.1","","101.35","","","","-12","","Mainly Clear"
"1998-12-14 08:00","1998","12","14","08:00","-7.1","","-9.0","","86","","35","","9","","24.1","","101.38","","","","-11","","Clear"
"1998-12-14 09:00","1998","12","14","09:00","-3.9","","-5.9","","86","","35","","9","","24.1","","101.48","","","","-8","","Clear"
"1998-12-14 10:00","1998","12","14","10:00","-1.5","","-4.1","","82","","35","","9","","24.1","","101.48","","","","-5","","Clear"
"1998-12-14 11:00","1998","12","14","11:00","-0.6","","-5.0","","72","","36","","7","","24.1","","101.52","","","","-3","","Clear"
"1998-12-14 12:00","1998","12","14","12:00","0.4","","-4.6","","69","","3","","6","","24.1","","101.45","","","","","","Mainly Clear"
"1998-12-14 13:00","1998","12","14","13:00","0.6","","-4.8","","67","","26","","13","","24.1","","101.42","","","","","","Mainly Clear"
"1998-12-14 14:00","1998","12","14","14:00","1.0","","-4.8","","65","","26","","13","","24.1","","101.38","","","","","","Mainly Clear"
"1998-12-14 15:00","1998","12","14","15:00","1.2","","-5.1","","63","","26","","11","","24.1","","101.42","","","","","","Mainly Clear"
"1998-12-14 16:00","1998","12","14","16:00","0.8","","-5.6","","62","","21","","19","","24.1","","101.38","","","","","","Mostly Cloudy"
"1998-12-14 17:00","1998","12","14","17:00","0.6","","-5.4","","64","","23","","22","","24.1","","101.35","","","","","","Mostly Cloudy"
"1998-12-14 18:00","1998","12","14","18:00","0.4","","-4.7","","69","","24","","26","","24.1","","101.35","","","","","","Mostly Cloudy"
"1998-12-14 19:00","1998","12","14","19:00","0.8","","-3.2","","75","","23","","22","","24.1","","101.35","","","","","","Mostly Cloudy"
"1998-12-14 20:00","1998","12","14","20:00","1.0","","-2.5","","77","","23","","19","","24.1","","101.32","","","","","","Mostly Cloudy"
"1998-12-14 21:00","1998","12","14","21:00","1.6","","-1.6","","79","","24","","19","","24.1","","101.28","","","","","","Mostly Cloudy"
"1998-12-14 22:00","1998","12","14","22:00","2.1","","-1.0","","80","","23","","22","","24.1","","101.18","","","","","","Mostly Cloudy"
"1998-12-14 23:00","1998","12","14","23:00","3.0","","-0.2","","79","","23","","19","","24.1","","101.22","","","","","","Mostly Cloudy"
"1998-12-15 00:00","1998","12","15","00:00"
"1998-12-15 01:00","1998","12","15","01:00"
"1998-12-15 02:00","1998","12","15","02:00"
"1998-12-15 03:00","1998","12","15","03:00"
"1998-12-15 04:00","1998","12","15","04:00"
"1998-12-15 05:00","1998","12","15","05:00"
"1998-12-15 06:00","1998","12","15","06:00","4.6","","2.4","","86","","23","","22","","24.1","","100.78","","","","","","Mainly Clear"
"1998-12-15 07:00","1998","12","15","07:00","4.7","","2.8","","87","","23","","22","","24.1","","100.78","","","","","","Mainly Clear"
"1998-12-15 08:00","1998","12","15","08:00","5.1","","3.1","","87","","23","","20","","24.1","","100.71","","","","","","Clear"
"1998-12-15 09:00","1998","12","15","09:00","8.8","","4.5","","74","","23","","20","","24.1","","100.61","","","","","","Clear"
"1998-12-15 10:00","1998","12","15","10:00","8.5","","4.2","","74","","25","","37","","24.1","","100.64","","","","","","Mainly Clear"
"1998-12-15 11:00","1998","12","15","11:00","7.9","","3.7","","75","","24","","28","","24.1","","100.58","","","","","","Mainly Clear"
"1998-12-15 12:00","1998","12","15","12:00","8.3","","3.7","","73","","25","","28","","24.1","","100.48","","","","","","Mainly Clear"
"1998-12-15 13:00","1998","12","15","13:00","8.5","","3.8","","72","","24","","28","","24.1","","100.41","","","","","","Mainly Clear"
"1998-12-15 14:00","1998","12","15","14:00","8.5","","3.2","","69","","25","","33","","24.1","","100.31","","","","","","Mainly Clear"
"1998-12-15 15:00","1998","12","15","15:00","8.4","","2.8","","68","","25","","22","","24.1","","100.34","","","","","","Mainly Clear"
"1998-12-15 16:00","1998","12","15","16:00","8.0","","2.9","","70","","25","","19","","24.1","","100.34","","","","","","Mostly Cloudy"
"1998-12-15 17:00","1998","12","15","17:00","7.6","","3.6","","76","","25","","19","","24.1","","100.34","","","","","","Mainly Clear"
"1998-12-15 18:00","1998","12","15","18:00","7.3","","4.5","","82","","25","","19","","24.1","","100.34","","","","","","Mainly Clear"
"1998-12-15 19:00","1998","12","15","19:00","6.8","","4.1","","83","","25","","19","","24.1","","100.41","","","","","","Clear"
"1998-12-15 20:00","1998","12","15","20:00","6.5","","4.2","","85","","26","","19","","24.1","","100.41","","","","","","Clear"
"1998-12-15 21:00","1998","12","15","21:00","5.8","","4.0","","88","","26","","13","","24.1","","100.41","","","","","","Clear"
"1998-12-15 22:00","1998","12","15","22:00","5.6","","3.5","","86","","26","","13","","24.1","","100.41","","","","","","Mostly Cloudy"
"1998-12-15 23:00","1998","12","15","23:00","5.2","","3.2","","87","","25","","9","","19.3","","100.41","","","","","","Mostly Cloudy"
"1998-12-16 00:00","1998","12","16","00:00"
"1998-12-16 01:00","1998","12","16","01:00"
"1998-12-16 02:00","1998","12","16","02:00"
"1998-12-16 03:00","1998","12","16","03:00"
"1998-12-16 04:00","1998","12","16","04:00"
"1998-12-16 05:00","1998","12","16","05:00"
"1998-12-16 06:00","1998","12","16","06:00","0.5","","-0.7","","92","","33","","9","","24.1","","100.38","","","","","","Mainly Clear"
"1998-12-16 07:00","1998","12","16","07:00","-0.5","","-1.5","","93","","35","","7","","24.1","","100.34","","","","-3","","Mainly Clear"
"1998-12-16 08:00","1998","12","16","08:00","-0.4","","-1.8","","90","","35","","9","","24.1","","100.34","","","","-4","","Mostly Cloudy"
"1998-12-16 09:00","1998","12","16","09:00","2.9","","1.4","","90","","5","","11","","24.1","","100.38","","","","","","Mostly Cloudy"
"1998-12-16 10:00","1998","12","16","10:00","4.1","","-0.7","","71","","2","","13","","24.1","","100.38","","","","","","Mostly Cloudy"
"1998-12-16 11:00","1998","12","16","11:00","4.4","","-2.5","","61","","5","","17","","24.1","","100.34","","","","","","Cloudy"
"1998-12-16 12:00","1998","12","16","12:00","4.8","","-2.4","","60","","5","","13","","24.1","","100.21","","","","","","Mostly Cloudy"
"1998-12-16 13:00","1998","12","16","13:00","5.0","","-1.5","","63","","6","","19","","24.1","","100.18","","","","","","Mostly Cloudy"
"1998-12-16 14:00","1998","12","16","14:00","4.7","","-2.0","","62","","4","","11","","24.1","","100.11","","","","","","Cloudy"
"1998-12-16 15:00","1998","12","16","15:00","5.2","","-1.8","","61","","7","","9","","24.1","","100.04","","","","","","Mostly Cloudy"
"1998-12-16 16:00","1998","12","16","16:00","4.0","","-2.2","","64","","6","","11","","24.1","","100.01","","","","","","Cloudy"
"1998-12-16 17:00","1998","12","16","17:00","3.2","","-3.1","","63","","5","","13","","24.1","","99.97","","","","","","Cloudy"
"1998-12-16 18:00","1998","12","16","18:00","2.9","","-3.0","","65","","5","","9","","24.1","","99.97","","","","","","Mostly Cloudy"
"1998-12-16 19:00","1998","12","16","19:00","2.7","","-3.4","","64","","5","","7","","24.1","","99.94","","","","","","Mostly Cloudy"
"1998-12-16 20:00","1998","12","16","20:00","2.2","","-4.1","","63","","7","","15","","24.1","","99.91","","","","","","Mostly Cloudy"
"1998-12-16 21:00","1998","12","16","21:00","1.9","","-3.9","","65","","5","","15","","24.1","","99.91","","","","","","Cloudy"
"1998-12-16 22:00","1998","12","16","22:00","0.6","","-3.1","","76","","5","","11","","24.1","","99.87","","","","","","Cloudy"
"1998-12-16 23:00","1998","12","16","23:00","0.0","","-2.2","","85","","5","","15","","19.3","","99.81","","","","-4","","Snow Showers"
"1998-12-17 00:00","1998","12","17","00:00"
"1998-12-17 01:00","1998","12","17","01:00"
"1998-12-17 02:00","1998","12","17","02:00"
"1998-12-17 03:00","1998","12","17","03:00"
"1998-12-17 04:00","1998","12","17","04:00"
"1998-12-17 05:00","1998","12","17","05:00"
"1998-12-17 06:00","1998","12","17","06:00","-0.7","","-5.0","","73","","36","","17","","24.1","","99.57","","","","-6","","Snow"
"1998-12-17 07:00","1998","12","17","07:00","-0.7","","-5.8","","68","","3","","15","","24.1","","99.60","","","","-5","","Cloudy"
"1998-12-17 08:00","1998","12","17","08:00","-1.0","","-5.2","","73","","3","","22","","24.1","","99.64","","","","-7","","Cloudy"
"1998-12-17 09:00","1998","12","17","09:00","-1.3","","-4.9","","76","","2","","22","","16.1","","99.64","","","","-7","","Cloudy"
"1998-12-17 10:00","1998","12","17","10:00","-0.7","","-4.2","","77","","36","","11","","24.1","","99.64","","","","-4","","Mostly Cloudy"
"1998-12-17 11:00","1998","12","17","11:00","0.1","","-5.7","","65","","5","","15","","24.1","","99.64","","","","","","Mostly Cloudy"
"1998-12-17 12:00","1998","12","17","12:00","0.0","","-6.6","","61","","2","","15","","24.1","","99.60","","","","-4","","Mostly Cloudy"
"1998-12-17 13:00","1998","12","17","13:00","0.1","","-7.0","","59","","36","","22","","24.1","","99.57","","","","","","Mostly Cloudy"
"1998-12-17 14:00","1998","12","17","14:00","0.4","","-7.5","","55","","2","","19","","24.1","","99.60","","","","","","Mostly Cloudy"
"1998-12-17 15:00","1998","12","17","15:00","0.9","","-7.8","","52","","35","","19","","24.1","","99.71","","","","","","Mostly Cloudy"
"1998-12-17 16:00","1998","12","17","16:00","0.6","","-7.8","","53","","36","","11","","24.1","","99.71","","","","","","Mostly Cloudy"
"1998-12-17 17:00","1998","12","17","17:00","-1.2","","-8.2","","59","","36","","7","","24.1","","99.74","","","","-4","","Mostly Cloudy"
"1998-12-17 18:00","1998","12","17","18:00","-2.8","","-9.2","","61","","35","","7","","24.1","","99.87","","","","-6","","Mostly Cloudy"
"1998-12-17 19:00","1998","12","17","19:00","-3.2","","-9.2","","63","","35","","7","","24.1","","99.91","","","","-6","","Mostly Cloudy"
"1998-12-17 20:00","1998","12","17","20:00","-2.7","","-8.3","","65","","1","","6","","24.1","","99.94","","","","-5","","Mainly Clear"
"1998-12-17 21:00","1998","12","17","21:00","-4.0","","-9.1","","68","","36","","4","","24.1","","99.94","","","","-6","","Mainly Clear"
"1998-12-17 22:00","1998","12","17","22:00","-5.3","","-9.7","","71","","35","","7","","24.1","","99.97","","","","-9","","Mainly Clear"
"1998-12-17 23:00","1998","12","17","23:00","-5.6","","-9.6","","73","","32","","7","","24.1","","100.04","","","","-9","","Mainly Clear"
"1998-12-18 00:00","1998","12","18","00:00"
"1998-12-18 01:00","1998","12","18","01:00"
"1998-12-18 02:00","1998","12","18","02:00"
"1998-12-18 03:00","1998","12","18","03:00"
"1998-12-18 04:00","1998","12","18","04:00"
"1998-12-18 05:00","1998","12","18","05:00"
"1998-12-18 06:00","1998","12","18","06:00","-7.0","","-10.7","","75","","36","","9","","24.1","","100.75","","","","-11","","Clear"
"1998-12-18 07:00","1998","12","18","07:00","-7.5","","-11.3","","74","","36","","6","","24.1","","100.81","","","","-11","","Mainly Clear"
"1998-12-18 08:00","1998","12","18","08:00","-9.1","","-12.4","","77","","34","","9","","24.1","","100.98","","","","-14","","Mainly Clear"
"1998-12-18 09:00","1998","12","18","09:00","-7.2","","-10.5","","77","","35","","13","","24.1","","101.11","","","","-13","","Mainly Clear"
"1998-12-18 10:00","1998","12","18","10:00","-6.4","","-10.4","","73","","34","","9","","24.1","","101.18","","","","-11","","Mainly Clear"
"1998-12-18 11:00","1998","12","18","11:00","-5.8","","-11.2","","66","","1","","9","","24.1","","101.25","","","","-10","","Mainly Clear"
"1998-12-18 12:00","1998","12","18","12:00","-4.8","","-11.9","","58","","1","","9","","24.1","","101.22","","","","-9","","Mainly Clear"
"1998-12-18 13:00","1998","12","18","13:00","-3.6","","-11.2","","56","","","","0","","24.1","","101.25","","","","","","Mainly Clear"
"1998-12-18 14:00","1998","12","18","14:00","-3.4","","-12.1","","51","","21","","9","","24.1","","101.22","","","","-7","","Mostly Cloudy"
"1998-12-18 15:00","1998","12","18","15:00","-3.4","","-11.2","","55","","18","","9","","24.1","","101.22","","","","-7","","Mostly Cloudy"
"1998-12-18 16:00","1998","12","18","16:00","-3.9","","-11.4","","56","","18","","6","","24.1","","101.25","","","","-7","","Mostly Cloudy"
"1998-12-18 17:00","1998","12","18","17:00","-4.0","","-10.8","","59","","18","","6","","24.1","","101.28","","","","-7","","Cloudy"
"1998-12-18 18:00","1998","12","18","18:00","-3.6","","-10.0","","61","","14","","15","","24.1","","101.22","","","","-9","","Cloudy"
"1998-12-18 19:00","1998","12","18","19:00","-2.5","","-7.5","","68","","13","","13","","24.1","","101.15","","","","-7","","Cloudy"
"1998-12-18 20:00","1998","12","18","20:00","-1.7","","-5.2","","77","","12","","15","","24.1","","101.05","","","","-7","","Cloudy"
"1998-12-18 21:00","1998","12","18","21:00","-0.5","","-4.3","","75","","15","","28","","24.1","","101.05","","","","-7","","Cloudy"
"1998-12-18 22:00","1998","12","18","22:00","-0.3","","-3.5","","79","","15","","28","","24.1","","101.01","","","","-7","","Cloudy"
"1998-12-18 23:00","1998","12","18","23:00","-0.7","","-4.3","","77","","12","","22","","24.1","","100.98","","","","-6","","Snow"
"1998-12-19 00:00","1998","12","19","00:00"
"1998-12-19 01:00","1998","12","19","01:00"
"1998-12-19 02:00","1998","12","19","02:00"
"1998-12-19 03:00","1998","12","19","03:00"
"1998-12-19 04:00","1998","12","19","04:00"
"1998-12-19 05:00","1998","12","19","05:00"
"1998-12-19 06:00","1998","12","19","06:00","5.2","","1.3","","76","","20","","37","","24.1","","100.51","","","","","","Rain Showers"
"1998-12-19 07:00","1998","12","19","07:00","5.0","","3.2","","88","","22","","26","","16.1","","100.51","","","","","","Rain Showers"
"1998-12-19 08:00","1998","12","19","08:00","4.4","","3.8","","96","","19","","37","","6.4","","100.58","","","","","","Rain Showers"
"1998-12-19 09:00","1998","12","19","09:00","4.6","","3.9","","95","","20","","33","","16.1","","100.61","","","","","","Rain Showers"
"1998-12-19 10:00","1998","12","19","10:00","4.8","","4.2","","96","","21","","33","","11.3","","100.58","","","","","","Rain Showers"
"1998-12-19 11:00","1998","12","19","11:00","4.6","","3.9","","95","","21","","33","","12.9","","100.58","","","","","","Rain Showers"
"1998-12-19 12:00","1998","12","19","12:00","4.9","","4.1","","95","","21","","30","","12.9","","100.58","","","","","","Rain Showers"
"1998-12-19 13:00","1998","12","19","13:00","4.2","","2.8","","91","","20","","35","","9.7","","100.54","","","","","","Rain Showers"
"1998-12-19 14:00","1998","12","19","14:00","4.8","","4.4","","97","","22","","28","","11.3","","100.51","","","","","","Rain Showers"
"1998-12-19 15:00","1998","12","19","15:00","5.0","","4.4","","96","","22","","26","","11.3","","100.54","","","","","","Rain Showers"
"1998-12-19 16:00","1998","12","19","16:00","5.4","","4.7","","95","","23","","24","","11.3","","100.61","","","","","","Rain Showers"
"1998-12-19 17:00","1998","12","19","17:00","5.8","","5.1","","95","","24","","19","","11.3","","100.68","","","","","","Rain Showers"
"1998-12-19 18:00","1998","12","19","18:00","6.0","","5.1","","94","","24","","19","","9.7","","100.75","","","","","","Rain Showers,Fog"
"1998-12-19 19:00","1998","12","19","19:00","5.9","","5.1","","95","","24","","28","","24.1","","100.81","","","","","","Cloudy"
"1998-12-19 20:00","1998","12","19","20:00","5.7","","5.1","","96","","23","","28","","24.1","","100.88","","","","","","Cloudy"
"1998-12-19 21:00","1998","12","19","21:00","5.4","","4.7","","95","","25","","24","","24.1","","100.95","","","","","","Cloudy"
"1998-12-19 22:00","1998","12","19","22:00","5.1","","4.2","","94","","26","","19","","24.1","","101.01","","","","","","Cloudy"
"1998-12-19 23:00","1998","12","19","23:00","4.4","","2.9","","90","","26","","13","","24.1","","101.08","","","","","","Cloudy"
"1998-12-20 00:00","1998","12","20","00:00"
"1998-12-20 01:00","1998","12","20","01:00"
"1998-12-20 02:00","1998","12","20","02:00"
"1998-12-20 03:00","1998","12","20","03:00"
"1998-12-20 04:00","1998","12","20","04:00"
"1998-12-20 05:00","1998","12","20","05:00"
"1998-12-20 06:00","1998","12","20","06:00","-2.7","","-7.7","","68","","1","","19","","24.1","","101.85","","","","-8","","Mostly Cloudy"
"1998-12-20 07:00","1998","12","20","07:00","-5.0","","-9.0","","73","","2","","22","","24.1","","101.92","","","","-12","","Mainly Clear"
"1998-12-20 08:00","1998","12","20","08:00","-6.2","","-9.9","","75","","5","","22","","24.1","","102.09","","","","-13","","Mainly Clear"
"1998-12-20 09:00","1998","12","20","09:00","-6.8","","-10.9","","73","","5","","22","","24.1","","102.19","","","","-14","","Mainly Clear"
"1998-12-20 10:00","1998","12","20","10:00","-6.4","","-11.1","","69","","5","","22","","24.1","","102.22","","","","-14","","Cloudy"
"1998-12-20 11:00","1998","12","20","11:00","-5.9","","-10.5","","70","","5","","22","","24.1","","102.26","","","","-13","","Cloudy"
"1998-12-20 12:00","1998","12","20","12:00","-4.7","","-9.8","","67","","5","","22","","24.1","","102.26","","","","-12","","Cloudy"
"1998-12-20 13:00","1998","12","20","13:00","-4.5","","-9.9","","66","","6","","19","","24.1","","102.19","","","","-11","","Cloudy"
"1998-12-20 14:00","1998","12","20","14:00","-4.3","","-10.0","","64","","6","","19","","24.1","","102.09","","","","-10","","Cloudy"
"1998-12-20 15:00","1998","12","20","15:00","-4.4","","-9.9","","65","","4","","19","","24.1","","102.16","","","","-11","","Cloudy"
"1998-12-20 16:00","1998","12","20","16:00","-4.5","","-10.0","","65","","6","","19","","24.1","","102.12","","","","-11","","Cloudy"
"1998-12-20 17:00","1998","12","20","17:00","-4.5","","-9.6","","67","","5","","20","","24.1","","102.05","","","","-11","","Cloudy"
"1998-12-20 18:00","1998","12","20","18:00","-4.6","","-9.6","","68","","4","","28","","24.1","","102.02","","","","-12","","Cloudy"
"1998-12-20 19:00","1998","12","20","19:00","-4.6","","-9.4","","69","","6","","28","","24.1","","102.02","","","","-12","","Cloudy"
"1998-12-20 20:00","1998","12","20","20:00","-4.6","","-8.8","","72","","5","","28","","24.1","","101.95","","","","-12","","Cloudy"
"1998-12-20 21:00","1998","12","20","21:00","-4.5","","-8.8","","72","","6","","22","","24.1","","101.92","","","","-11","","Snow"
"1998-12-20 22:00","1998","12","20","22:00","-4.3","","-8.3","","74","","7","","28","","24.1","","101.79","","","","-12","","Snow"
"1998-12-20 23:00","1998","12","20","23:00","-4.3","","-8.1","","75","","5","","22","","24.1","","101.72","","","","-11","","Snow"
"1998-12-21 00:00","1998","12","21","00:00"
"1998-12-21 01:00","1998","12","21","01:00"
"1998-12-21 02:00","1998","12","21","02:00"
"1998-12-21 03:00","1998","12","21","03:00"
"1998-12-21 04:00","1998","12","21","04:00"
"1998-12-21 05:00","1998","12","21","05:00"
"1998-12-21 06:00","1998","12","21","06:00","-2.7","","-4.5","","87","","4","","9","","8.0","","101.08","","","","-6","","Freezing Rain,Fog"
"1998-12-21 07:00","1998","12","21","07:00","-2.2","","-3.5","","91","","3","","9","","8.0","","101.11","","","","-6","","Freezing Rain,Fog"
"1998-12-21 08:00","1998","12","21","08:00","-1.3","","-2.1","","94","","4","","7","","4.8","","101.08","","","","-4","","Freezing Rain,Fog"
"1998-12-21 09:00","1998","12","21","09:00","0.3","","-0.2","","96","","3","","6","","3.2","","101.05","","","","","","Rain,Fog"
"1998-12-21 10:00","1998","12","21","10:00","5.5","","5.5","","100","","19","","19","","4.0","","100.95","","","","","","Rain,Fog"
"1998-12-21 11:00","1998","12","21","11:00","5.9","","5.9","","100","","18","","19","","2.4","","100.75","","","","","","Drizzle,Fog"
"1998-12-21 12:00","1998","12","21","12:00","5.9","","5.9","","100","","18","","22","","6.4","","100.58","","","","","","Rain,Fog"
"1998-12-21 13:00","1998","12","21","13:00","6.5","","6.5","","100","","19","","20","","6.4","","100.48","","","","","","Rain,Fog"
"1998-12-21 14:00","1998","12","21","14:00","6.2","","6.2","","100","","18","","19","","6.4","","100.24","","","","","","Rain,Fog"
"1998-12-21 15:00","1998","12","21","15:00","6.4","","6.4","","100","","18","","19","","4.8","","100.18","","","","","","Rain,Fog"
"1998-12-21 16:00","1998","12","21","16:00","6.7","","6.7","","100","","19","","19","","4.8","","100.11","","","","","","Drizzle,Fog"
"1998-12-21 17:00","1998","12","21","17:00","6.9","","6.9","","100","","18","","19","","4.0","","99.97","","","","","","Rain,Fog"
"1998-12-21 18:00","1998","12","21","18:00","7.0","","7.0","","100","","18","","19","","4.8","","99.87","","","","","","Drizzle,Fog"
"1998-12-21 19:00","1998","12","21","19:00","7.7","","7.7","","100","","20","","19","","4.8","","99.74","","","","","","Drizzle,Fog"
"1998-12-21 20:00","1998","12","21","20:00","7.9","","7.9","","100","","18","","19","","4.0","","99.50","","","","","","Drizzle,Fog"
"1998-12-21 21:00","1998","12","21","21:00","7.8","","7.8","","100","","18","","28","","11.3","","99.34","","","","","","Cloudy"
"1998-12-21 22:00","1998","12","21","22:00","8.2","","7.9","","98","","18","","28","","11.3","","99.10","","","","","","Cloudy"
"1998-12-21 23:00","1998","12","21","23:00","8.3","","8.3","","100","","26","","19","","9.7","","99.07","","","","","","Rain,Fog"
"1998-12-22 00:00","1998","12","22","00:00"
"1998-12-22 01:00","1998","12","22","01:00"
"1998-12-22 02:00","1998","12","22","02:00"
"1998-12-22 03:00","1998","12","22","03:00"
"1998-12-22 04:00","1998","12","22","04:00"
"1998-12-22 05:00","1998","12","22","05:00"
"1998-12-22 06:00","1998","12","22","06:00","-0.5","","-0.8","","98","","28","","19","","24.1","","99.57","","","","-6","","Cloudy"
"1998-12-22 07:00","1998","12","22","07:00","-1.5","","-2.2","","95","","29","","19","","24.1","","99.71","","","","-7","","Mostly Cloudy"
"1998-12-22 08:00","1998","12","22","08:00","-2.5","","-3.5","","93","","29","","19","","24.1","","99.91","","","","-8","","Mostly Cloudy"
"1998-12-22 09:00","1998","12","22","09:00","-3.3","","-4.4","","92","","29","","19","","24.1","","100.11","","","","-9","","Mostly Cloudy"
"1998-12-22 10:00","1998","12","22","10:00","-3.9","","-6.2","","84","","28","","19","","24.1","","100.21","","","","-10","","Mainly Clear"
"1998-12-22 11:00","1998","12","22","11:00","-4.1","","-7.8","","75","","29","","28","","24.1","","100.31","","","","-12","","Mostly Cloudy"
"1998-12-22 12:00","1998","12","22","12:00","-4.3","","-9.4","","68","","29","","22","","24.1","","100.31","","","","-11","","Mostly Cloudy"
"1998-12-22 13:00","1998","12","22","13:00","-4.8","","-11.9","","58","","30","","28","","24.1","","100.38","","","","-12","","Mostly Cloudy"
"1998-12-22 14:00","1998","12","22","14:00","-5.3","","-11.4","","62","","30","","28","","24.1","","100.51","","","","-13","","Mostly Cloudy"
"1998-12-22 15:00","1998","12","22","15:00","-6.0","","-11.8","","63","","31","","28","","9.7","","100.78","","","","-14","","Snow Showers"
"1998-12-22 16:00","1998","12","22","16:00","-7.3","","-11.9","","70","","30","","28","","19.3","","101.01","","","","-16","","Mostly Cloudy"
"1998-12-22 17:00","1998","12","22","17:00","-8.5","","-14.2","","63","","30","","22","","24.1","","101.28","","","","-16","","Mainly Clear"
"1998-12-22 18:00","1998","12","22","18:00","-9.2","","-15.0","","63","","29","","28","","24.1","","101.48","","","","-18","","Mainly Clear"
"1998-12-22 19:00","1998","12","22","19:00","-9.9","","-16.7","","58","","31","","22","","24.1","","101.62","","","","-18","","Mainly Clear"
"1998-12-22 20:00","1998","12","22","20:00","-10.6","","-17.1","","59","","30","","19","","24.1","","101.85","","","","-18","","Mainly Clear"
"1998-12-22 21:00","1998","12","22","21:00","-11.0","","-16.9","","62","","30","","11","","24.1","","101.92","","","","-17","","Mainly Clear"
"1998-12-22 22:00","1998","12","22","22:00","-11.3","","-16.9","","63","","29","","11","","24.1","","101.99","","","","-17","","Mainly Clear"
"1998-12-22 23:00","1998","12","22","23:00","-11.8","","-17.1","","65","","31","","4","","24.1","","102.02","","","","-14","","Mainly Clear"
"1998-12-23 00:00","1998","12","23","00:00"
"1998-12-23 01:00","1998","12","23","01:00"
"1998-12-23 02:00","1998","12","23","02:00"
"1998-12-23 03:00","1998","12","23","03:00"
"1998-12-23 04:00","1998","12","23","04:00"
"1998-12-23 05:00","1998","12","23","05:00"
"1998-12-23 06:00","1998","12","23","06:00","-11.2","","-15.6","","70","","1","","4","","24.1","","102.02","","","","-14","","Mostly Cloudy"
"1998-12-23 07:00","1998","12","23","07:00","-10.7","","-14.9","","71","","","","0","","24.1","","102.02","","","","","","Mostly Cloudy"
"1998-12-23 08:00","1998","12","23","08:00","-9.1","","-13.2","","72","","32","","6","","24.1","","102.05","","","","-12","","Mostly Cloudy"
"1998-12-23 09:00","1998","12","23","09:00","-9.7","","-14.0","","71","","28","","6","","24.1","","102.12","","","","-13","","Mostly Cloudy"
"1998-12-23 10:00","1998","12","23","10:00","-8.0","","-12.3","","71","","27","","9","","24.1","","102.16","","","","-13","","Mostly Cloudy"
"1998-12-23 11:00","1998","12","23","11:00","-6.8","","-11.4","","70","","27","","15","","24.1","","102.05","","","","-13","","Mostly Cloudy"
"1998-12-23 12:00","1998","12","23","12:00","-6.7","","-11.7","","68","","28","","22","","24.1","","101.99","","","","-14","","Snow Showers"
"1998-12-23 13:00","1998","12","23","13:00","-5.9","","-9.9","","73","","27","","15","","24.1","","101.92","","","","-12","","Mostly Cloudy"
"1998-12-23 14:00","1998","12","23","14:00","-5.7","","-9.7","","73","","27","","19","","24.1","","101.89","","","","-12","","Mostly Cloudy"
"1998-12-23 15:00","1998","12","23","15:00","-5.7","","-10.0","","72","","26","","22","","24.1","","101.89","","","","-13","","Mostly Cloudy"
"1998-12-23 16:00","1998","12","23","16:00","-5.9","","-10.4","","70","","27","","11","","24.1","","101.85","","","","-11","","Cloudy"
"1998-12-23 17:00","1998","12","23","17:00","-5.6","","-9.3","","75","","23","","11","","8.0","","101.85","","","","-10","","Snow Showers"
"1998-12-23 18:00","1998","12","23","18:00","-5.6","","-9.3","","75","","28","","7","","12.9","","101.79","","","","-9","","Snow Showers"
"1998-12-23 19:00","1998","12","23","19:00","-4.3","","-7.8","","77","","26","","19","","24.1","","101.72","","","","-10","","Mainly Clear"
"1998-12-23 20:00","1998","12","23","20:00","-3.6","","-7.0","","77","","24","","28","","12.9","","101.69","","","","-11","","Snow Showers"
"1998-12-23 21:00","1998","12","23","21:00","-3.7","","-7.5","","75","","28","","19","","12.9","","101.69","","","","-10","","Snow Showers"
"1998-12-23 22:00","1998","12","23","22:00","-4.5","","-8.0","","76","","28","","15","","16.1","","101.69","","","","-10","","Snow Showers"
"1998-12-23 23:00","1998","12","23","23:00","-4.5","","-7.5","","80","","28","","9","","16.1","","101.62","","","","-8","","Snow Showers"
"1998-12-24 00:00","1998","12","24","00:00"
"1998-12-24 01:00","1998","12","24","01:00"
"1998-12-24 02:00","1998","12","24","02:00"
"1998-12-24 03:00","1998","12","24","03:00"
"1998-12-24 04:00","1998","12","24","04:00"
"1998-12-24 05:00","1998","12","24","05:00"
"1998-12-24 06:00","1998","12","24","06:00","-6.2","","-10.7","","70","","28","","11","","24.1","","101.38","","","","-11","","Mainly Clear"
"1998-12-24 07:00","1998","12","24","07:00","-6.3","","-10.7","","71","","28","","15","","24.1","","101.35","","","","-12","","Mainly Clear"
"1998-12-24 08:00","1998","12","24","08:00","-5.8","","-10.6","","69","","28","","19","","24.1","","101.32","","","","-12","","Mainly Clear"
"1998-12-24 09:00","1998","12","24","09:00","-5.7","","-10.8","","67","","27","","19","","24.1","","101.35","","","","-12","","Mainly Clear"
"1998-12-24 10:00","1998","12","24","10:00","-4.4","","-10.0","","65","","26","","19","","24.1","","101.32","","","","-11","","Mainly Clear"
"1998-12-24 11:00","1998","12","24","11:00","-4.0","","-11.2","","57","","27","","32","","24.1","","101.22","","","","-12","","Mainly Clear"
"1998-12-24 12:00","1998","12","24","12:00","-3.5","","-11.0","","56","","27","","19","","24.1","","101.15","","","","-9","","Mainly Clear"
"1998-12-24 13:00","1998","12","24","13:00","-3.2","","-10.2","","58","","27","","28","","24.1","","101.11","","","","-10","","Mainly Clear"
"1998-12-24 14:00","1998","12","24","14:00","-3.6","","-11.4","","55","","25","","28","","24.1","","101.11","","","","-11","","Mainly Clear"
"1998-12-24 15:00","1998","12","24","15:00","-3.9","","-11.2","","57","","27","","28","","24.1","","101.11","","","","-11","","Mostly Cloudy"
"1998-12-24 16:00","1998","12","24","16:00","-4.0","","-11.2","","57","","25","","22","","24.1","","101.22","","","","-11","","Mostly Cloudy"
"1998-12-24 17:00","1998","12","24","17:00","-4.4","","-11.2","","59","","26","","28","","24.1","","101.22","","","","-12","","Mainly Clear"
"1998-12-24 18:00","1998","12","24","18:00","-4.7","","-11.4","","59","","26","","28","","24.1","","101.25","","","","-12","","Mainly Clear"
"1998-12-24 19:00","1998","12","24","19:00","-4.7","","-11.4","","59","","26","","28","","24.1","","101.25","","","","-12","","Mainly Clear"
"1998-12-24 20:00","1998","12","24","20:00","-4.7","","-11.5","","59","","27","","28","","24.1","","101.28","","","","-12","","Clear"
"1998-12-24 21:00","1998","12","24","21:00","-5.0","","-11.1","","62","","27","","28","","24.1","","101.35","","","","-13","","Clear"
"1998-12-24 22:00","1998","12","24","22:00","-5.0","","-10.8","","64","","27","","28","","24.1","","101.38","","","","-13","","Clear"
"1998-12-24 23:00","1998","12","24","23:00","-5.2","","-10.7","","65","","26","","22","","24.1","","101.42","","","","-12","","Clear"
"1998-12-25 00:00","1998","12","25","00:00"
"1998-12-25 01:00","1998","12","25","01:00"
"1998-12-25 02:00","1998","12","25","02:00"
"1998-12-25 03:00","1998","12","25","03:00"
"1998-12-25 04:00","1998","12","25","04:00"
"1998-12-25 05:00","1998","12","25","05:00"
"1998-12-25 06:00","1998","12","25","06:00","-4.5","","-8.8","","72","","27","","22","","24.1","","101.45","","","","-11","","Clear"
"1998-12-25 07:00","1998","12","25","07:00","-3.8","","-7.9","","73","","27","","19","","24.1","","101.45","","","","-10","","Mainly Clear"
"1998-12-25 08:00","1998","12","25","08:00","-3.1","","-7.2","","73","","26","","24","","24.1","","101.48","","","","-10","","Mostly Cloudy"
"1998-12-25 09:00","1998","12","25","09:00","-3.1","","-8.5","","66","","27","","24","","24.1","","101.52","","","","-10","","Mostly Cloudy"
"1998-12-25 10:00","1998","12","25","10:00","-3.0","","-8.5","","66","","24","","19","","6.4","","101.62","","","","-9","","Snow Showers"
"1998-12-25 11:00","1998","12","25","11:00","-4.1","","-6.7","","82","","27","","24","","19.3","","101.58","","","","-11","","Snow Showers"
"1998-12-25 12:00","1998","12","25","12:00","-2.3","","-5.0","","82","","26","","19","","24.1","","101.52","","","","-8","","Mostly Cloudy"
"1998-12-25 13:00","1998","12","25","13:00","-2.4","","-6.3","","75","","26","","28","","19.3","","101.45","","","","-9","","Snow Showers"
"1998-12-25 14:00","1998","12","25","14:00","-1.8","","-7.6","","65","","26","","19","","24.1","","101.38","","","","-7","","Mainly Clear"
"1998-12-25 15:00","1998","12","25","15:00","-1.6","","-8.0","","62","","25","","22","","24.1","","101.38","","","","-8","","Mainly Clear"
"1998-12-25 16:00","1998","12","25","16:00","-2.1","","-8.7","","61","","26","","19","","24.1","","101.42","","","","-8","","Mainly Clear"
"1998-12-25 17:00","1998","12","25","17:00","-2.1","","-8.4","","62","","25","","19","","24.1","","101.42","","","","-8","","Mainly Clear"
"1998-12-25 18:00","1998","12","25","18:00","-2.3","","-8.6","","62","","26","","28","","24.1","","101.42","","","","-9","","Mainly Clear"
"1998-12-25 19:00","1998","12","25","19:00","-1.8","","-7.7","","64","","24","","15","","24.1","","101.35","","","","-7","","Mostly Cloudy"
"1998-12-25 20:00","1998","12","25","20:00","-1.3","","-7.2","","64","","24","","19","","24.1","","101.32","","","","-7","","Mostly Cloudy"
"1998-12-25 21:00","1998","12","25","21:00","-0.6","","-6.4","","65","","23","","19","","24.1","","101.25","","","","-6","","Snow Showers"
"1998-12-25 22:00","1998","12","25","22:00","-0.7","","-7.0","","62","","24","","19","","24.1","","101.25","","","","-6","","Mostly Cloudy"
"1998-12-25 23:00","1998","12","25","23:00","-1.3","","-7.5","","63","","23","","19","","24.1","","101.25","","","","-7","","Mainly Clear"
"1998-12-26 00:00","1998","12","26","00:00"
"1998-12-26 01:00","1998","12","26","01:00"
"1998-12-26 02:00","1998","12","26","02:00"
"1998-12-26 03:00","1998","12","26","03:00"
"1998-12-26 04:00","1998","12","26","04:00"
"1998-12-26 05:00","1998","12","26","05:00"
"1998-12-26 06:00","1998","12","26","06:00","-0.5","","-7.2","","60","","22","","28","","24.1","","100.68","","","","-7","","Mainly Clear"
"1998-12-26 07:00","1998","12","26","07:00","-0.3","","-6.9","","61","","22","","26","","24.1","","100.64","","","","-6","","Mainly Clear"
"1998-12-26 08:00","1998","12","26","08:00","0.2","","-6.5","","61","","21","","26","","24.1","","100.54","","","","","","Mostly Cloudy"
"1998-12-26 09:00","1998","12","26","09:00","0.1","","-5.9","","64","","20","","28","","24.1","","100.54","","","","","","Mostly Cloudy"
"1998-12-26 10:00","1998","12","26","10:00","0.6","","-6.0","","61","","21","","22","","24.1","","100.48","","","","","","Cloudy"
"1998-12-26 11:00","1998","12","26","11:00","0.8","","-6.9","","56","","21","","19","","24.1","","100.38","","","","","","Mostly Cloudy"
"1998-12-26 12:00","1998","12","26","12:00","0.9","","-7.0","","55","","23","","28","","24.1","","100.31","","","","","","Mostly Cloudy"
"1998-12-26 13:00","1998","12","26","13:00","0.7","","-7.2","","55","","22","","22","","24.1","","100.18","","","","","","Mostly Cloudy"
"1998-12-26 14:00","1998","12","26","14:00","0.0","","-6.9","","60","","23","","28","","9.7","","100.18","","","","-6","","Snow Showers"
"1998-12-26 15:00","1998","12","26","15:00","0.1","","-4.1","","73","","22","","22","","16.1","","100.18","","","","","","Snow Showers"
"1998-12-26 16:00","1998","12","26","16:00","1.3","","-3.7","","69","","26","","28","","19.3","","100.21","","","","","","Mostly Cloudy"
"1998-12-26 17:00","1998","12","26","17:00","0.7","","-5.1","","65","","26","","19","","19.3","","100.34","","","","","","Mostly Cloudy"
"1998-12-26 18:00","1998","12","26","18:00","0.1","","-5.2","","67","","27","","19","","24.1","","100.34","","","","","","Mostly Cloudy"
"1998-12-26 19:00","1998","12","26","19:00","-1.4","","-6.1","","70","","30","","26","","24.1","","100.61","","","","-8","","Mostly Cloudy"
"1998-12-26 20:00","1998","12","26","20:00","-2.6","","-6.4","","75","","29","","19","","24.1","","100.71","","","","-8","","Mainly Clear"
"1998-12-26 21:00","1998","12","26","21:00","-3.2","","-6.7","","77","","28","","15","","24.1","","100.85","","","","-8","","Mainly Clear"
"1998-12-26 22:00","1998","12","26","22:00","-4.1","","-7.0","","80","","28","","13","","24.1","","100.95","","","","-9","","Mainly Clear"
"1998-12-26 23:00","1998","12","26","23:00","-5.4","","-8.8","","77","","31","","9","","24.1","","100.98","","","","-9","","Mainly Clear"
"1998-12-27 00:00","1998","12","27","00:00"
"1998-12-27 01:00","1998","12","27","01:00"
"1998-12-27 02:00","1998","12","27","02:00"
"1998-12-27 03:00","1998","12","27","03:00"
"1998-12-27 04:00","1998","12","27","04:00"
"1998-12-27 05:00","1998","12","27","05:00"
"1998-12-27 06:00","1998","12","27","06:00","-6.7","","-9.7","","79","","27","","7","","24.1","","101.22","","","","-10","","Mainly Clear"
"1998-12-27 07:00","1998","12","27","07:00","-9.3","","-12.1","","80","","","","0","","24.1","","101.22","","","","","","Mainly Clear"
"1998-12-27 08:00","1998","12","27","08:00","-8.9","","-11.4","","82","","","","0","","24.1","","101.25","","","","","","Mainly Clear"
"1998-12-27 09:00","1998","12","27","09:00","-6.5","","-9.3","","80","","","","0","","24.1","","101.25","","","","","","Mainly Clear"
"1998-12-27 10:00","1998","12","27","10:00","0.3","","-3.7","","74","","21","","19","","24.1","","101.25","","","","","","Cloudy"
"1998-12-27 11:00","1998","12","27","11:00","0.6","","-4.1","","71","","20","","22","","24.1","","101.18","","","","","","Cloudy"
"1998-12-27 12:00","1998","12","27","12:00","0.8","","-4.3","","69","","19","","28","","24.1","","101.05","","","","","","Cloudy"
"1998-12-27 13:00","1998","12","27","13:00","1.0","","-4.6","","66","","19","","28","","24.1","","100.88","","","","","","Cloudy"
"1998-12-27 14:00","1998","12","27","14:00","1.5","","-3.8","","68","","19","","28","","24.1","","100.88","","","","","","Cloudy"
"1998-12-27 15:00","1998","12","27","15:00","1.3","","-3.0","","73","","19","","28","","16.1","","100.68","","","","","","Snow Showers"
"1998-12-27 16:00","1998","12","27","16:00","1.4","","-0.9","","85","","16","","28","","24.1","","100.51","","","","","","Cloudy"
"1998-12-27 17:00","1998","12","27","17:00","1.9","","-1.3","","79","","17","","19","","24.1","","100.48","","","","","","Cloudy"
"1998-12-27 18:00","1998","12","27","18:00","2.8","","-1.2","","75","","18","","37","","24.1","","100.41","","","","","","Cloudy"
"1998-12-27 19:00","1998","12","27","19:00","3.8","","-1.7","","67","","18","","37","","24.1","","100.38","","","","","","Cloudy"
"1998-12-27 20:00","1998","12","27","20:00","4.4","","-2.0","","63","","19","","37","","24.1","","100.31","","","","","","Cloudy"
"1998-12-27 21:00","1998","12","27","21:00","4.3","","-1.2","","67","","20","","37","","24.1","","100.28","","","","","","Mostly Cloudy"
"1998-12-27 22:00","1998","12","27","22:00","4.4","","-0.8","","69","","21","","28","","24.1","","100.31","","","","","","Mostly Cloudy"
"1998-12-27 23:00","1998","12","27","23:00","4.7","","0.2","","73","","20","","28","","24.1","","100.38","","","","","","Cloudy"
"1998-12-28 00:00","1998","12","28","00:00"
"1998-12-28 01:00","1998","12","28","01:00"
"1998-12-28 02:00","1998","12","28","02:00"
"1998-12-28 03:00","1998","12","28","03:00"
"1998-12-28 04:00","1998","12","28","04:00"
"1998-12-28 05:00","1998","12","28","05:00"
"1998-12-28 06:00","1998","12","28","06:00","3.7","","-0.1","","76","","26","","33","","24.1","","100.61","","","","","","Mostly Cloudy"
"1998-12-28 07:00","1998","12","28","07:00","3.4","","0.5","","81","","26","","26","","24.1","","100.64","","","","","","Mostly Cloudy"
"1998-12-28 08:00","1998","12","28","08:00","2.8","","-0.6","","78","","27","","19","","24.1","","100.71","","","","","","Mostly Cloudy"
"1998-12-28 09:00","1998","12","28","09:00","1.0","","-1.6","","83","","28","","11","","24.1","","100.78","","","","","","Mostly Cloudy"
"1998-12-28 10:00","1998","12","28","10:00","2.7","","-0.4","","80","","29","","19","","24.1","","100.88","","","","","","Mainly Clear"
"1998-12-28 11:00","1998","12","28","11:00","4.4","","-0.9","","68","","27","","15","","24.1","","100.95","","","","","","Mainly Clear"
"1998-12-28 12:00","1998","12","28","12:00","4.5","","-3.1","","58","","29","","11","","24.1","","100.88","","","","","","Mainly Clear"
"1998-12-28 13:00","1998","12","28","13:00","4.0","","-4.7","","53","","28","","15","","24.1","","100.85","","","","","","Mainly Clear"
"1998-12-28 14:00","1998","12","28","14:00","4.2","","-5.1","","51","","29","","19","","24.1","","100.81","","","","","","Mainly Clear"
"1998-12-28 15:00","1998","12","28","15:00","4.1","","-5.1","","51","","29","","9","","24.1","","100.81","","","","","","Mainly Clear"
"1998-12-28 16:00","1998","12","28","16:00","2.9","","-5.3","","55","","33","","6","","24.1","","100.75","","","","","","Mainly Clear"
"1998-12-28 17:00","1998","12","28","17:00","1.0","","-6.5","","57","","","","0","","24.1","","100.81","","","","","","Mainly Clear"
"1998-12-28 18:00","1998","12","28","18:00","-0.6","","-7.3","","60","","","","0","","24.1","","100.78","","","","","","Mainly Clear"
"1998-12-28 19:00","1998","12","28","19:00","-1.9","","-7.3","","67","","","","0","","24.1","","100.78","","","","","","Clear"
"1998-12-28 20:00","1998","12","28","20:00","-3.1","","-7.3","","73","","","","0","","24.1","","100.78","","","","","","Clear"
"1998-12-28 21:00","1998","12","28","21:00","-3.5","","-6.6","","79","","12","","6","","24.1","","100.78","","","","-6","","Clear"
"1998-12-28 22:00","1998","12","28","22:00","-3.1","","-6.8","","76","","","","0","","24.1","","100.75","","","","","","Clear"
"1998-12-28 23:00","1998","12","28","23:00","-5.0","","-7.5","","83","","36","","9","","24.1","","100.75","","","","-9","","Clear"
"1998-12-29 00:00","1998","12","29","00:00"
"1998-12-29 01:00","1998","12","29","01:00"
"1998-12-29 02:00","1998","12","29","02:00"
"1998-12-29 03:00","1998","12","29","03:00"
"1998-12-29 04:00","1998","12","29","04:00"
"1998-12-29 05:00","1998","12","29","05:00"
"1998-12-29 06:00","1998","12","29","06:00","1.9","","-0.7","","83","","19","","26","","24.1","","100.18","","","","","","Mostly Cloudy"
"1998-12-29 07:00","1998","12","29","07:00","1.7","","-0.6","","85","","18","","28","","24.1","","100.14","","","","","","Mostly Cloudy"
"1998-12-29 08:00","1998","12","29","08:00","1.7","","0.0","","88","","18","","22","","24.1","","100.07","","","","","","Cloudy"
"1998-12-29 09:00","1998","12","29","09:00","1.4","","-0.3","","88","","17","","28","","16.1","","99.97","","","","","","Cloudy"
"1998-12-29 10:00","1998","12","29","10:00","2.0","","0.0","","87","","18","","28","","19.3","","99.87","","","","","","Cloudy"
"1998-12-29 11:00","1998","12","29","11:00","2.1","","-0.1","","85","","18","","28","","16.1","","99.77","","","","","","Cloudy"
"1998-12-29 12:00","1998","12","29","12:00","2.2","","-0.2","","84","","17","","28","","16.1","","99.54","","","","","","Cloudy"
"1998-12-29 13:00","1998","12","29","13:00","2.5","","0.2","","85","","18","","33","","16.1","","99.34","","","","","","Cloudy"
"1998-12-29 14:00","1998","12","29","14:00","2.5","","0.1","","84","","17","","37","","16.1","","99.17","","","","","","Cloudy"
"1998-12-29 15:00","1998","12","29","15:00","2.9","","0.9","","87","","17","","37","","16.1","","99.10","","","","","","Cloudy"
"1998-12-29 16:00","1998","12","29","16:00","2.7","","0.9","","88","","18","","37","","16.1","","99.07","","","","","","Cloudy"
"1998-12-29 17:00","1998","12","29","17:00","2.3","","1.9","","97","","18","","28","","4.8","","98.97","","","","","","Rain,Fog"
"1998-12-29 18:00","1998","12","29","18:00","2.4","","2.1","","98","","18","","28","","8.0","","98.90","","","","","","Rain,Fog"
"1998-12-29 19:00","1998","12","29","19:00","2.7","","2.4","","98","","18","","28","","9.7","","98.77","","","","","","Fog"
"1998-12-29 20:00","1998","12","29","20:00","3.4","","2.9","","97","","19","","28","","11.3","","98.66","","","","","","Cloudy"
"1998-12-29 21:00","1998","12","29","21:00","3.4","","2.9","","97","","19","","22","","8.0","","98.53","","","","","","Rain,Fog"
"1998-12-29 22:00","1998","12","29","22:00","3.3","","2.9","","97","","21","","19","","8.0","","98.46","","","","","","Rain,Fog"
"1998-12-29 23:00","1998","12","29","23:00","3.0","","2.7","","98","","22","","19","","9.7","","98.40","","","","","","Rain,Fog"
"1998-12-30 00:00","1998","12","30","00:00"
"1998-12-30 01:00","1998","12","30","01:00"
"1998-12-30 02:00","1998","12","30","02:00"
"1998-12-30 03:00","1998","12","30","03:00"
"1998-12-30 04:00","1998","12","30","04:00"
"1998-12-30 05:00","1998","12","30","05:00"
"1998-12-30 06:00","1998","12","30","06:00","-15.4","","-19.0","","74","","33","","19","","24.1","","99.40","","","","-24","","Mainly Clear"
"1998-12-30 07:00","1998","12","30","07:00","-16.9","","-20.6","","73","","33","","28","","24.1","","99.54","","","","-28","","Mainly Clear"
"1998-12-30 08:00","1998","12","30","08:00","-17.6","","-25.0","","52","","31","","28","","24.1","","99.60","","","","-29","","Mainly Clear"
"1998-12-30 09:00","1998","12","30","09:00","-17.4","","-23.1","","61","","32","","28","","24.1","","99.71","","","","-29","","Mainly Clear"
"1998-12-30 10:00","1998","12","30","10:00","-17.0","","-23.3","","58","","31","","28","","24.1","","99.87","","","","-28","","Mainly Clear"
"1998-12-30 11:00","1998","12","30","11:00","-16.4","","-23.3","","55","","31","","28","","24.1","","99.94","","","","-28","","Mainly Clear"
"1998-12-30 12:00","1998","12","30","12:00","-15.2","","-22.1","","56","","33","","22","","24.1","","99.97","","","","-25","","Clear"
"1998-12-30 13:00","1998","12","30","13:00","-14.5","","-21.7","","54","","31","","28","","24.1","","100.01","","","","-25","","Clear"
"1998-12-30 14:00","1998","12","30","14:00","-14.1","","-21.1","","55","","31","","19","","24.1","","100.04","","","","-23","","Mainly Clear"
"1998-12-30 15:00","1998","12","30","15:00","-13.8","","-20.5","","57","","31","","19","","24.1","","100.18","","","","-22","","Mainly Clear"
"1998-12-30 16:00","1998","12","30","16:00","-14.1","","-20.8","","57","","31","","15","","24.1","","100.31","","","","-22","","Mainly Clear"
"1998-12-30 17:00","1998","12","30","17:00","-14.8","","-21.3","","58","","28","","22","","24.1","","100.34","","","","-24","","Mainly Clear"
"1998-12-30 18:00","1998","12","30","18:00","-15.6","","-21.8","","59","","28","","11","","24.1","","100.38","","","","-22","","Mainly Clear"
"1998-12-30 19:00","1998","12","30","19:00","-15.8","","-21.4","","62","","28","","15","","24.1","","100.51","","","","-24","","Mainly Clear"
"1998-12-30 20:00","1998","12","30","20:00","-16.0","","-21.4","","63","","29","","17","","24.1","","100.54","","","","-25","","Mainly Clear"
"1998-12-30 21:00","1998","12","30","21:00","-16.7","","-22.0","","63","","30","","11","","24.1","","100.58","","","","-24","","Mainly Clear"
"1998-12-30 22:00","1998","12","30","22:00","-17.1","","-22.6","","62","","32","","11","","24.1","","100.68","","","","-24","","Mainly Clear"
"1998-12-30 23:00","1998","12","30","23:00","-17.7","","-23.0","","63","","31","","11","","24.1","","100.68","","","","-25","","Mainly Clear"
"1998-12-31 00:00","1998","12","31","00:00"
"1998-12-31 01:00","1998","12","31","01:00"
"1998-12-31 02:00","1998","12","31","02:00"
"1998-12-31 03:00","1998","12","31","03:00"
"1998-12-31 04:00","1998","12","31","04:00"
"1998-12-31 05:00","1998","12","31","05:00"
"1998-12-31 06:00","1998","12","31","06:00","-21.0","","-26.2","","63","","4","","19","","9.7","","100.71","","","","-31","","Snow"
"1998-12-31 07:00","1998","12","31","07:00","-20.6","","-25.5","","65","","5","","19","","4.8","","100.71","","","","-31","","Snow"
"1998-12-31 08:00","1998","12","31","08:00","-20.6","","-24.9","","68","","6","","11","","1.6","","100.71","","","","-28","","Snow"
"1998-12-31 09:00","1998","12","31","09:00","-19.8","","-23.5","","72","","5","","13","","3.2","","100.68","","","","-28","","Snow"
"1998-12-31 10:00","1998","12","31","10:00","-18.6","","-22.2","","73","","4","","19","","6.4","","100.68","","","","-28","","Snow"
"1998-12-31 11:00","1998","12","31","11:00","-17.6","","-21.0","","75","","6","","15","","12.9","","100.58","","","","-26","","Snow"
"1998-12-31 12:00","1998","12","31","12:00","-15.6","","-18.8","","76","","8","","15","","9.7","","100.44","","","","-24","","Snow"
"1998-12-31 13:00","1998","12","31","13:00","-14.2","","-17.4","","77","","5","","11","","19.3","","100.34","","","","-21","","Cloudy"
"1998-12-31 14:00","1998","12","31","14:00","-12.7","","-15.3","","81","","5","","13","","19.3","","100.28","","","","-20","","Cloudy"
"1998-12-31 15:00","1998","12","31","15:00","-11.8","","-14.4","","81","","6","","9","","16.1","","100.21","","","","-17","","Cloudy"
"1998-12-31 16:00","1998","12","31","16:00","-11.5","","-13.3","","86","","5","","7","","6.4","","100.21","","","","-16","","Snow"
"1998-12-31 17:00","1998","12","31","17:00","-11.5","","-13.1","","88","","6","","9","","4.0","","100.21","","","","-17","","Snow"
"1998-12-31 18:00","1998","12","31","18:00","-11.1","","-12.5","","89","","5","","6","","6.4","","100.14","","","","-15","","Snow"
"1998-12-31 19:00","1998","12","31","19:00","-11.4","","-12.3","","93","","5","","4","","8.0","","100.14","","","","-14","","Snow"
"1998-12-31 20:00","1998","12","31","20:00","-11.2","","-12.6","","89","","4","","6","","12.9","","100.11","","","","-15","","Cloudy"
"1998-12-31 21:00","1998","12","31","21:00","-11.9","","-13.1","","91","","2","","2","","19.3","","100.04","","","","-13","","Cloudy"
"1998-12-31 22:00","1998","12","31","22:00","-9.4","","-11.1","","87","","29","","11","","19.3","","100.04","","","","-15","","Mostly Cloudy"
"1998-12-31 23:00","1998","12","31","23:00","-8.8","","-10.6","","87","","28","","15","","19.3","","100.04","","","","-15","","Mostly Cloudy"
