"Station Name","KINGSTON A"
"Province","ONTARIO"
"Latitude","44.23"
"Longitude","-76.60"
"Elevation","92.40"
"Climate Identifier","6104149"
"WMO Identifier",""
"TC Identifier","YGK"
"All times are specified in Local Standard Time (LST). Add 1 hour to adjust for Daylight Saving Time where and when it is observed."

"Legend"
"E","Estimated"
"M","Missing"
"NA","Not Available"

"Date/Time","Year","Month","Day","Time","Temp (°C)","Temp Flag","Dew Point Temp (°C)","Dew Point Temp Flag","Rel Hum (%)","Rel Hum Flag","Wind Dir (10s deg)","Wind Dir Flag","Wind Spd (km/h)","Wind Spd Flag","Visibility (km)","Visibility Flag","Stn Press (kPa)","Stn Press Flag","Hmdx","Hmdx Flag","Wind Chill","Wind Chill Flag","Weather"
"2016-01-01 00:00","2016","01","01","00:00"
"2016-01-01 01:00","2016","01","01","01:00"
"2016-01-01 02:00","2016","01","01","02:00"
"2016-01-01 03:00","2016","01","01","03:00"
"2016-01-01 04:00","2016","01","01","04:00"
"2016-01-01 05:00","2016","01","01","05:00"
"2016-01-01 06:00","2016","01","01","06:00","-0.9","","-4.1","","79","","26","","17","","24.1","","100.30","","","","-6","","NA"
"2016-01-01 07:00","2016","01","01","07:00","-0.6","","-4.1","","77","","26","","16","","24.1","","100.29","","","","-5","","Snow"
"2016-01-01 08:00","2016","01","01","08:00","-0.2","","-5.0","","70","","27","","16","","24.1","","100.28","","","","-5","","Snow"
"2016-01-01 09:00","2016","01","01","09:00","-0.2","","-5.2","","69","","27","","16","","19.3","","100.28","","","","-5","","Snow"
"2016-01-01 10:00","2016","01","01","10:00","-0.5","","-5.1","","71","","26","","18","","19.3","","100.28","","","","-6","","Snow,Blowing Snow"
"2016-01-01 11:00","2016","01","01","11:00","-0.6","","-4.3","","76","","26","","20","","16.1","","100.25","","","","-6","","Snow"
"2016-01-01 12:00","2016","01","01","12:00","-0.2","","-4.7","","72","","25","","21","","19.3","","100.16","","","","-6","","Snow Showers"
"2016-01-01 13:00","2016","01","01","13:00","0.7","","-5.8","","62","","25","","22","","24.1","","100.07","","","","","","Mostly Cloudy"
"2016-01-01 14:00","2016","01","01","14:00","0.5","","-7.5","","55","","25","","21","","24.1","","100.05","","","","","","NA"
"2016-01-01 15:00","2016","01","01","15:00","0.0","","-9.8","","48","","28","","25","","24.1","","100.06","","","","-6","","NA"
"2016-01-01 16:00","2016","01","01","16:00","-0.3","","-9.8","","49","","27","","21","","24.1","","100.10","","","","-6","","Cloudy"
"2016-01-01 17:00","2016","01","01","17:00","-0.9","","-9.6","","52","","27","","20","","24.1","","100.14","","","","-6","","NA"
"2016-01-01 18:00","2016","01","01","18:00","-1.3","","-8.5","","58","","26","","19","","24.1","","100.18","","","","-7","","NA"
"2016-01-01 19:00","2016","01","01","19:00","-1.7","","-7.6","","64","","27","","25","","24.1","","100.27","","","","-8","","Cloudy"
"2016-01-01 20:00","2016","01","01","20:00","-1.6","","-7.2","","66","","27","","19","","24.1","","100.29","","","","-7","","Snow"
"2016-01-01 21:00","2016","01","01","21:00","-1.6","","-7.4","","65","","27","","23","","24.1","","100.31","","","","-8","","NA"
"2016-01-01 22:00","2016","01","01","22:00","-1.6","","-7.2","","66","","27","","24","","24.1","","100.31","","","","-8","","Snow"
"2016-01-01 23:00","2016","01","01","23:00","-1.5","","-6.9","","67","","27","","17","","24.1","","100.33","","","","-7","","NA"
"2016-01-02 00:00","2016","01","02","00:00"
"2016-01-02 01:00","2016","01","02","01:00"
"2016-01-02 02:00","2016","01","02","02:00"
"2016-01-02 03:00","2016","01","02","03:00"
"2016-01-02 04:00","2016","01","02","04:00"
"2016-01-02 05:00","2016","01","02","05:00"
"2016-01-02 06:00","2016","01","02","06:00","-1.7","","-7.6","","64","","25","","28","","24.1","","100.32","","","","-8","","NA"
"2016-01-02 07:00","2016","01","02","07:00","-1.6","","-7.8","","63","","27","","22","","24.1","","100.32","","","","-8","","Cloudy"
"2016-01-02 08:00","2016","01","02","08:00","-2.3","","-7.8","","66","","26","","21","","24.1","","100.32","","","","-8","","NA"
"2016-01-02 09:00","2016","01","02","09:00","-1.9","","-7.4","","66","","26","","18","","24.1","","100.32","","","","-7","","NA"
"2016-01-02 10:00","2016","01","02","10:00","-1.6","","-5.6","","74","","26","","16","","19.3","","100.32","","","","-7","","Snow Showers"
"2016-01-02 11:00","2016","01","02","11:00","-1.4","","-5.5","","74","","26","","15","","12.9","","100.31","","","","-6","","Snow Showers"
"2016-01-02 12:00","2016","01","02","12:00","-0.4","","-5.0","","71","","25","","17","","19.3","","100.15","","","","-5","","Snow Showers"
"2016-01-02 13:00","2016","01","02","13:00","0.3","","-3.4","","76","","24","","23","","19.3","","100.07","","","","","","Snow Showers"
"2016-01-02 14:00","2016","01","02","14:00","0.8","","-5.3","","64","","24","","28","","24.1","","100.01","","","","","","Snow Showers"
"2016-01-02 15:00","2016","01","02","15:00","0.8","","-5.9","","61","","24","","26","","24.1","","99.97","","","","","","NA"
"2016-01-02 16:00","2016","01","02","16:00","0.6","","-6.1","","61","","25","","27","","24.1","","99.98","","","","","","Cloudy"
"2016-01-02 17:00","2016","01","02","17:00","0.2","","-5.8","","64","","26","","17","","24.1","","100.01","","","","","","Snow"
"2016-01-02 18:00","2016","01","02","18:00","-0.1","","-5.5","","67","","26","","19","","24.1","","100.02","","","","-5","","NA"
"2016-01-02 19:00","2016","01","02","19:00","0.1","","-5.3","","67","","25","","18","","24.1","","99.94","","","","","","Cloudy"
"2016-01-02 20:00","2016","01","02","20:00","0.2","","-4.5","","71","","22","","17","","24.1","","99.89","","","","","","NA"
"2016-01-02 21:00","2016","01","02","21:00","1.6","","-3.5","","69","","24","","35","","24.1","","99.76","","","","","","NA"
"2016-01-02 22:00","2016","01","02","22:00","1.8","","-2.2","","75","","22","","37","","24.1","","99.65","","","","","","Cloudy"
"2016-01-02 23:00","2016","01","02","23:00","1.8","","-2.0","","76","","22","","36","","24.1","","99.59","","","","","","NA"
"2016-01-03 00:00","2016","01","03","00:00"
"2016-01-03 01:00","2016","01","03","01:00"
"2016-01-03 02:00","2016","01","03","02:00"
"2016-01-03 03:00","2016","01","03","03:00"
"2016-01-03 04:00","2016","01","03","04:00"
"2016-01-03 05:00","2016","01","03","05:00"
"2016-01-03 06:00","2016","01","03","06:00","1.5","","-3.8","","68","","25","","29","","17.7","","99.24","","","","","","Snow"
"2016-01-03 07:00","2016","01","03","07:00","1.8","","-2.7","","72","","26","","29","","14.5","","99.26","","","","","","Snow"
"2016-01-03 08:00","2016","01","03","08:00","1.0","","-1.1","","86","","25","","22","","9.7","","99.29","","","","","","Snow"
"2016-01-03 09:00","2016","01","03","09:00","1.5","","-1.6","","80","","27","","21","","16.1","","99.36","","","","","","Snow"
"2016-01-03 10:00","2016","01","03","10:00","2.0","","-2.0","","75","","26","","20","","24.1","","99.39","","","","","","Cloudy"
"2016-01-03 11:00","2016","01","03","11:00","2.2","","-2.3","","72","","27","","20","","24.1","","99.42","","","","","","NA"
"2016-01-03 12:00","2016","01","03","12:00","1.4","","-2.0","","78","","27","","24","","9.7","","99.42","","","","","","Snow Showers"
"2016-01-03 13:00","2016","01","03","13:00","1.8","","-2.7","","72","","30","","17","","24.1","","99.46","","","","","","Cloudy"
"2016-01-03 14:00","2016","01","03","14:00","1.6","","-4.7","","63","","32","","18","","24.1","","99.53","","","","","","NA"
"2016-01-03 15:00","2016","01","03","15:00","-0.8","","-5.2","","72","","34","","22","","24.1","","99.69","","","","-7","","NA"
"2016-01-03 16:00","2016","01","03","16:00","-2.4","","-7.3","","69","","33","","29","","24.1","","99.86","","","","-9","","Mostly Cloudy"
"2016-01-03 17:00","2016","01","03","17:00","-3.8","","-9.3","","66","","33","","34","","24.1","","100.03","","","","-12","","NA"
"2016-01-03 18:00","2016","01","03","18:00","-5.7","","-11.3","","65","","36","","27","","24.1","","100.22","","","","-14","","NA"
"2016-01-03 19:00","2016","01","03","19:00","-7.3","","-12.4","","67","","36","","22","","24.1","","100.35","","","","-15","","Snow"
"2016-01-03 20:00","2016","01","03","20:00","-8.2","","-13.5","","66","","33","","19","","24.1","","100.47","","","","-15","","Snow"
"2016-01-03 21:00","2016","01","03","21:00","-9.3","","-14.5","","66","","36","","18","","24.1","","100.56","","","","-17","","Snow"
"2016-01-03 22:00","2016","01","03","22:00","-10.7","","-16.1","","65","","1","","21","","24.1","","100.68","","","","-19","","Snow"
"2016-01-03 23:00","2016","01","03","23:00","-11.7","","-17.2","","64","","36","","17","","24.1","","100.77","","","","-19","","Snow"
"2016-01-04 00:00","2016","01","04","00:00"
"2016-01-04 01:00","2016","01","04","01:00"
"2016-01-04 02:00","2016","01","04","02:00"
"2016-01-04 03:00","2016","01","04","03:00"
"2016-01-04 04:00","2016","01","04","04:00"
"2016-01-04 05:00","2016","01","04","05:00"
"2016-01-04 06:00","2016","01","04","06:00","-17.6","","-22.7","","65","","36","","19","","24.1","","101.25","","","","-27","","NA"
"2016-01-04 07:00","2016","01","04","07:00","-17.9","","-23.2","","64","","36","","19","","24.1","","101.35","","","","-28","","Mainly Clear"
"2016-01-04 08:00","2016","01","04","08:00","-17.8","","-23.4","","62","","36","","22","","24.1","","101.44","","","","-28","","NA"
"2016-01-04 09:00","2016","01","04","09:00","-17.1","","-23.7","","57","","1","","28","","24.1","","101.55","","","","-28","","NA"
"2016-01-04 10:00","2016","01","04","10:00","-16.0","","-22.9","","56","","2","","18","","24.1","","101.62","","","","-25","","Mainly Clear"
"2016-01-04 11:00","2016","01","04","11:00","-15.4","","-23.0","","53","","3","","25","","24.1","","101.69","","","","-26","","NA"
"2016-01-04 12:00","2016","01","04","12:00","-14.9","","-22.5","","53","","2","","20","","24.1","","101.70","","","","-24","","NA"
"2016-01-04 13:00","2016","01","04","13:00","-14.1","","-22.0","","52","","2","","26","","24.1","","101.75","","","","-24","","Mainly Clear"
"2016-01-04 14:00","2016","01","04","14:00","-13.6","","-22.2","","49","","36","","26","","24.1","","101.77","","","","-24","","NA"
"2016-01-04 15:00","2016","01","04","15:00","-13.0","","-21.9","","48","","36","","19","","24.1","","101.87","","","","-21","","NA"
"2016-01-04 16:00","2016","01","04","16:00","-13.3","","-22.4","","47","","2","","17","","24.1","","102.00","","","","-21","","Mainly Clear"
"2016-01-04 17:00","2016","01","04","17:00","-14.1","","-22.2","","51","","1","","20","","24.1","","102.06","","","","-23","","NA"
"2016-01-04 18:00","2016","01","04","18:00","-14.9","","-21.4","","58","","34","","23","","24.1","","102.18","","","","-25","","NA"
"2016-01-04 19:00","2016","01","04","19:00","-15.4","","-21.3","","61","","36","","16","","24.1","","102.27","","","","-24","","Clear"
"2016-01-04 20:00","2016","01","04","20:00","-15.9","","-21.2","","64","","34","","8","","24.1","","102.35","","","","-21","","NA"
"2016-01-04 21:00","2016","01","04","21:00","-16.0","","-21.0","","66","","31","","9","","24.1","","102.42","","","","-22","","NA"
"2016-01-04 22:00","2016","01","04","22:00","-16.5","","-20.8","","70","","33","","11","","24.1","","102.46","","","","-23","","Clear"
"2016-01-04 23:00","2016","01","04","23:00","-16.7","","-20.5","","73","","32","","9","","24.1","","102.50","","","","-23","","NA"
"2016-01-05 00:00","2016","01","05","00:00"
"2016-01-05 01:00","2016","01","05","01:00"
"2016-01-05 02:00","2016","01","05","02:00"
"2016-01-05 03:00","2016","01","05","03:00"
"2016-01-05 04:00","2016","01","05","04:00"
"2016-01-05 05:00","2016","01","05","05:00"
"2016-01-05 06:00","2016","01","05","06:00","-18.3","","-21.1","","79","","33","","10","","24.1","","102.67","","","","-25","","NA"
"2016-01-05 07:00","2016","01","05","07:00","-18.0","","-21.0","","78","","33","","8","","24.1","","102.70","","","","-24","","Mainly Clear"
"2016-01-05 08:00","2016","01","05","08:00","-18.2","","-21.2","","78","","33","","5","","24.1","","102.71","","","","-22","","NA"
"2016-01-05 09:00","2016","01","05","09:00","-15.8","","-19.3","","75","","32","","7","","24.1","","102.71","","","","-21","","NA"
"2016-01-05 10:00","2016","01","05","10:00","-13.1","","-19.5","","59","","27","","12","","24.1","","102.75","","","","-20","","Clear"
"2016-01-05 11:00","2016","01","05","11:00","-11.3","","-18.7","","55","","27","","11","","24.1","","102.76","","","","-17","","NA"
"2016-01-05 12:00","2016","01","05","12:00","-10.0","","-15.0","","67","","23","","14","","24.1","","102.69","","","","-16","","NA"
"2016-01-05 13:00","2016","01","05","13:00","-8.8","","-12.3","","76","","24","","14","","24.1","","102.60","","","","-15","","Mostly Cloudy"
"2016-01-05 14:00","2016","01","05","14:00","-7.2","","-10.6","","77","","24","","16","","24.1","","102.50","","","","-14","","NA"
"2016-01-05 15:00","2016","01","05","15:00","-5.8","","-9.2","","77","","23","","21","","24.1","","102.45","","","","-13","","NA"
"2016-01-05 16:00","2016","01","05","16:00","-5.2","","-9.1","","74","","23","","19","","24.1","","102.41","","","","-12","","Mostly Cloudy"
"2016-01-05 17:00","2016","01","05","17:00","-4.7","","-8.8","","73","","22","","22","","24.1","","102.31","","","","-12","","NA"
"2016-01-05 18:00","2016","01","05","18:00","-4.8","","-9.1","","72","","22","","28","","24.1","","102.21","","","","-12","","NA"
"2016-01-05 19:00","2016","01","05","19:00","-4.1","","-8.3","","73","","21","","24","","24.1","","102.18","","","","-11","","Mostly Cloudy"
"2016-01-05 20:00","2016","01","05","20:00","-3.5","","-8.4","","69","","21","","28","","24.1","","102.20","","","","-11","","NA"
"2016-01-05 21:00","2016","01","05","21:00","-3.1","","-8.4","","67","","21","","32","","24.1","","102.14","","","","-11","","NA"
"2016-01-05 22:00","2016","01","05","22:00","-2.9","","-7.8","","69","","21","","27","","24.1","","102.15","","","","-10","","Mainly Clear"
"2016-01-05 23:00","2016","01","05","23:00","-2.3","","-8.6","","62","","22","","29","","24.1","","102.10","","","","-9","","NA"
"2016-01-06 00:00","2016","01","06","00:00"
"2016-01-06 01:00","2016","01","06","01:00"
"2016-01-06 02:00","2016","01","06","02:00"
"2016-01-06 03:00","2016","01","06","03:00"
"2016-01-06 04:00","2016","01","06","04:00"
"2016-01-06 05:00","2016","01","06","05:00"
"2016-01-06 06:00","2016","01","06","06:00","-0.7","","-6.3","","66","","22","","24","","24.1","","101.88","","","","-7","","NA"
"2016-01-06 07:00","2016","01","06","07:00","-0.5","","-5.7","","68","","22","","21","","24.1","","101.88","","","","-6","","Mainly Clear"
"2016-01-06 08:00","2016","01","06","08:00","-0.4","","-5.6","","68","","22","","22","","24.1","","101.87","","","","-6","","NA"
"2016-01-06 09:00","2016","01","06","09:00","0.0","","-5.6","","66","","22","","21","","24.1","","101.87","","","","-5","","NA"
"2016-01-06 10:00","2016","01","06","10:00","1.0","","-5.1","","64","","22","","22","","24.1","","101.87","","","","","","Mostly Cloudy"
"2016-01-06 11:00","2016","01","06","11:00","1.5","","-4.8","","63","","23","","28","","24.1","","101.84","","","","","","NA"
"2016-01-06 12:00","2016","01","06","12:00","1.9","","-4.4","","63","","23","","25","","24.1","","101.71","","","","","","NA"
"2016-01-06 13:00","2016","01","06","13:00","2.3","","-3.6","","65","","23","","21","","24.1","","101.66","","","","","","Mainly Clear"
"2016-01-06 14:00","2016","01","06","14:00","2.1","","-3.4","","67","","23","","23","","24.1","","101.59","","","","","","NA"
"2016-01-06 15:00","2016","01","06","15:00","2.0","","-3.9","","65","","23","","24","","24.1","","101.55","","","","","","NA"
"2016-01-06 16:00","2016","01","06","16:00","1.8","","-3.7","","67","","23","","26","","24.1","","101.52","","","","","","Mainly Clear"
"2016-01-06 17:00","2016","01","06","17:00","1.1","","-4.0","","69","","22","","17","","24.1","","101.49","","","","","","NA"
"2016-01-06 18:00","2016","01","06","18:00","0.9","","-5.2","","64","","22","","16","","24.1","","101.52","","","","","","NA"
"2016-01-06 19:00","2016","01","06","19:00","1.4","","-5.3","","61","","22","","17","","24.1","","101.53","","","","","","Mainly Clear"
"2016-01-06 20:00","2016","01","06","20:00","1.2","","-5.7","","60","","23","","18","","24.1","","101.55","","","","","","NA"
"2016-01-06 21:00","2016","01","06","21:00","1.2","","-5.3","","62","","22","","16","","24.1","","101.53","","","","","","NA"
"2016-01-06 22:00","2016","01","06","22:00","0.8","","-5.5","","63","","22","","12","","24.1","","101.51","","","","","","Mostly Cloudy"
"2016-01-06 23:00","2016","01","06","23:00","1.3","","-5.4","","61","","23","","16","","24.1","","101.54","","","","","","NA"
"2016-01-07 00:00","2016","01","07","00:00"
"2016-01-07 01:00","2016","01","07","01:00"
"2016-01-07 02:00","2016","01","07","02:00"
"2016-01-07 03:00","2016","01","07","03:00"
"2016-01-07 04:00","2016","01","07","04:00"
"2016-01-07 05:00","2016","01","07","05:00"
"2016-01-07 06:00","2016","01","07","06:00","-5.0","","-6.7","","88","","35","","7","","24.1","","101.43","","","","-8","","NA"
"2016-01-07 07:00","2016","01","07","07:00","-5.5","","-7.0","","89","","8","","4","","24.1","","101.44","","","","-7","","Mostly Cloudy"
"2016-01-07 08:00","2016","01","07","08:00","-7.1","","-8.5","","90","","36","","7","","19.3","","101.45","","","","-11","","NA"
"2016-01-07 09:00","2016","01","07","09:00","-6.4","","-7.9","","89","","36","","7","","19.3","","101.48","","","","-10","","NA"
"2016-01-07 10:00","2016","01","07","10:00","-1.7","","-4.9","","79","","33","","4","","19.3","","101.48","","","","-3","","Mostly Cloudy"
"2016-01-07 11:00","2016","01","07","11:00","-0.1","","-4.6","","72","","36","","3","","19.3","","101.43","","","","-1","","NA"
"2016-01-07 12:00","2016","01","07","12:00","1.0","","-3.5","","72","","36","","1","","19.3","","101.38","","","","","","NA"
"2016-01-07 13:00","2016","01","07","13:00","1.8","","-2.5","","73","","19","","4","","24.1","","101.33","","","","","","Mostly Cloudy"
"2016-01-07 14:00","2016","01","07","14:00","2.2","","-2.7","","70","","18","","5","","24.1","","101.25","","","","","","NA"
"2016-01-07 15:00","2016","01","07","15:00","2.2","","-2.3","","72","","36","","3","","24.1","","101.25","","","","","","NA"
"2016-01-07 16:00","2016","01","07","16:00","1.8","","-2.0","","76","","11","","4","","24.1","","101.25","","","","","","Mostly Cloudy"
"2016-01-07 17:00","2016","01","07","17:00","1.3","","-2.3","","77","","10","","5","","24.1","","101.28","","","","","","NA"
"2016-01-07 18:00","2016","01","07","18:00","-0.1","","-2.2","","86","","6","","4","","24.1","","101.28","","","","-1","","NA"
"2016-01-07 19:00","2016","01","07","19:00","0.3","","-2.3","","83","","8","","7","","24.1","","101.27","","","","","","Mainly Clear"
"2016-01-07 20:00","2016","01","07","20:00","-0.6","","-3.0","","84","","8","","8","","24.1","","101.28","","","","-3","","NA"
"2016-01-07 21:00","2016","01","07","21:00","-2.3","","-4.2","","87","","4","","6","","24.1","","101.30","","","","-5","","NA"
"2016-01-07 22:00","2016","01","07","22:00","-2.9","","-4.8","","87","","3","","7","","24.1","","101.26","","","","-6","","Clear"
"2016-01-07 23:00","2016","01","07","23:00","-4.2","","-5.6","","90","","36","","8","","24.1","","101.24","","","","-8","","NA"
"2016-01-08 00:00","2016","01","08","00:00"
"2016-01-08 01:00","2016","01","08","01:00"
"2016-01-08 02:00","2016","01","08","02:00"
"2016-01-08 03:00","2016","01","08","03:00"
"2016-01-08 04:00","2016","01","08","04:00"
"2016-01-08 05:00","2016","01","08","05:00"
"2016-01-08 06:00","2016","01","08","06:00","-4.6","","-6.9","","84","","4","","13","","24.1","","101.07","","","","-10","","NA"
"2016-01-08 07:00","2016","01","08","07:00","-5.0","","-7.1","","85","","4","","14","","24.1","","101.09","","","","-10","","Mainly Clear"
"2016-01-08 08:00","2016","01","08","08:00","-5.3","","-7.3","","86","","5","","12","","19.3","","101.06","","","","-10","","NA"
"2016-01-08 09:00","2016","01","08","09:00","-4.8","","-6.9","","85","","4","","9","","24.1","","101.11","","","","-9","","NA"
"2016-01-08 10:00","2016","01","08","10:00","-3.6","","-6.4","","81","","5","","14","","19.3","","101.07","","","","-9","","Mostly Cloudy"
"2016-01-08 11:00","2016","01","08","11:00","-2.6","","-5.9","","78","","5","","11","","19.3","","101.01","","","","-7","","NA"
"2016-01-08 12:00","2016","01","08","12:00","-1.7","","-6.1","","72","","5","","11","","19.3","","100.94","","","","-6","","NA"
"2016-01-08 13:00","2016","01","08","13:00","-0.3","","-6.1","","65","","5","","11","","19.3","","100.81","","","","-4","","Cloudy"
"2016-01-08 14:00","2016","01","08","14:00","0.1","","-5.9","","64","","5","","11","","19.3","","100.73","","","","","","NA"
"2016-01-08 15:00","2016","01","08","15:00","0.4","","-6.7","","59","","2","","9","","24.1","","100.77","","","","","","NA"
"2016-01-08 16:00","2016","01","08","16:00","0.3","","-6.6","","60","","4","","13","","24.1","","100.74","","","","","","Cloudy"
"2016-01-08 17:00","2016","01","08","17:00","-0.4","","-6.2","","65","","6","","11","","24.1","","100.72","","","","-4","","NA"
"2016-01-08 18:00","2016","01","08","18:00","-1.4","","-6.2","","70","","7","","15","","24.1","","100.68","","","","-6","","NA"
"2016-01-08 19:00","2016","01","08","19:00","-1.0","","-5.8","","70","","9","","10","","24.1","","100.67","","","","-5","","Cloudy"
"2016-01-08 20:00","2016","01","08","20:00","3.5","","-1.7","","69","","14","","28","","24.1","","100.64","","","","","","NA"
"2016-01-08 21:00","2016","01","08","21:00","3.5","","-1.5","","70","","15","","32","","24.1","","100.60","","","","","","NA"
"2016-01-08 22:00","2016","01","08","22:00","3.5","","-1.1","","72","","16","","36","","24.1","","100.55","","","","","","Cloudy"
"2016-01-08 23:00","2016","01","08","23:00","3.5","","-0.5","","75","","15","","35","","24.1","","100.51","","","","","","NA"
"2016-01-09 00:00","2016","01","09","00:00"
"2016-01-09 01:00","2016","01","09","01:00"
"2016-01-09 02:00","2016","01","09","02:00"
"2016-01-09 03:00","2016","01","09","03:00"
"2016-01-09 04:00","2016","01","09","04:00"
"2016-01-09 05:00","2016","01","09","05:00"
"2016-01-09 06:00","2016","01","09","06:00","3.8","","1.4","","84","","16","","35","","24.1","","100.32","","","","","","NA"
"2016-01-09 07:00","2016","01","09","07:00","3.9","","1.5","","84","","16","","36","","24.1","","100.31","","","","","","Mostly Cloudy"
"2016-01-09 08:00","2016","01","09","08:00","4.0","","1.6","","84","","16","","31","","24.1","","100.35","","","","","","NA"
"2016-01-09 09:00","2016","01","09","09:00","3.9","","1.9","","87","","16","","35","","19.3","","100.38","","","","","","Rain"
"2016-01-09 10:00","2016","01","09","10:00","3.9","","2.3","","89","","16","","36","","19.3","","100.38","","","","","","Rain"
"2016-01-09 11:00","2016","01","09","11:00","4.1","","2.6","","90","","16","","37","","19.3","","100.37","","","","","","Rain"
"2016-01-09 12:00","2016","01","09","12:00","4.3","","2.7","","89","","17","","30","","24.1","","100.35","","","","","","Rain"
"2016-01-09 13:00","2016","01","09","13:00","4.4","","3.1","","91","","17","","32","","19.3","","100.30","","","","","","Rain"
"2016-01-09 14:00","2016","01","09","14:00","4.6","","3.4","","92","","16","","25","","19.3","","100.28","","","","","","Rain"
"2016-01-09 15:00","2016","01","09","15:00","4.9","","3.4","","90","","16","","30","","19.3","","100.28","","","","","","NA"
"2016-01-09 16:00","2016","01","09","16:00","5.0","","3.5","","90","","16","","27","","24.1","","100.33","","","","","","Cloudy"
"2016-01-09 17:00","2016","01","09","17:00","5.1","","3.4","","89","","16","","25","","24.1","","100.35","","","","","","Rain"
"2016-01-09 18:00","2016","01","09","18:00","5.4","","3.6","","88","","16","","26","","24.1","","100.35","","","","","","Rain"
"2016-01-09 19:00","2016","01","09","19:00","5.3","","3.6","","89","","16","","23","","24.1","","100.40","","","","","","Cloudy"
"2016-01-09 20:00","2016","01","09","20:00","5.1","","3.4","","89","","16","","26","","24.1","","100.40","","","","","","NA"
"2016-01-09 21:00","2016","01","09","21:00","5.1","","3.4","","89","","16","","22","","24.1","","100.39","","","","","","NA"
"2016-01-09 22:00","2016","01","09","22:00","5.0","","3.3","","89","","16","","28","","24.1","","100.31","","","","","","Cloudy"
"2016-01-09 23:00","2016","01","09","23:00","5.2","","3.4","","88","","15","","19","","24.1","","100.28","","","","","","NA"
"2016-01-10 00:00","2016","01","10","00:00"
"2016-01-10 01:00","2016","01","10","01:00"
"2016-01-10 02:00","2016","01","10","02:00"
"2016-01-10 03:00","2016","01","10","03:00"
"2016-01-10 04:00","2016","01","10","04:00"
"2016-01-10 05:00","2016","01","10","05:00"
"2016-01-10 06:00","2016","01","10","06:00","4.8","","3.2","","89","","6","","10","","24.1","","99.42","","","","","","NA"
"2016-01-10 07:00","2016","01","10","07:00","4.9","","3.6","","91","","9","","15","","6.4","","99.36","","","","","","Rain,Fog"
"2016-01-10 08:00","2016","01","10","08:00","4.6","","3.9","","95","","6","","16","","6.4","","99.13","","","","","","Rain,Fog"
"2016-01-10 09:00","2016","01","10","09:00","5.8","","5.2","","96","","9","","29","","6.4","","98.86","","","","","","Rain,Fog"
"2016-01-10 10:00","2016","01","10","10:00","6.2","","4.9","","91","","8","","35","","9.7","","98.51","","","","","","Rain,Fog"
"2016-01-10 11:00","2016","01","10","11:00","6.5","","4.7","","88","","9","","36","","24.1","","98.22","","","","","","Rain"
"2016-01-10 12:00","2016","01","10","12:00","5.6","","4.4","","92","","8","","12","","4.8","","97.96","","","","","","Rain,Fog"
"2016-01-10 13:00","2016","01","10","13:00","5.6","","4.9","","95","","33","","5","","4.0","","97.73","","","","","","Rain,Fog"
"2016-01-10 14:00","2016","01","10","14:00","6.4","","5.5","","94","","15","","13","","9.7","","97.56","","","","","","Rain,Fog"
"2016-01-10 15:00","2016","01","10","15:00","6.9","","5.9","","93","","18","","36","","9.7","","97.50","","","","","","Rain,Fog"
"2016-01-10 16:00","2016","01","10","16:00","6.4","","5.5","","94","","19","","28","","9.7","","97.50","","","","","","Rain,Fog"
"2016-01-10 17:00","2016","01","10","17:00","7.1","","6.2","","94","","20","","23","","12.9","","97.52","","","","","","Rain"
"2016-01-10 18:00","2016","01","10","18:00","6.9","","5.2","","89","","21","","41","","12.9","","97.54","","","","","","Rain"
"2016-01-10 19:00","2016","01","10","19:00","2.2","","0.3","","87","","25","","55","","12.9","","97.75","","","","","","Cloudy"
"2016-01-10 20:00","2016","01","10","20:00","-0.6","","-2.8","","85","","26","","40","","6.4","","98.03","","","","-8","","Snow"
"2016-01-10 21:00","2016","01","10","21:00","-1.2","","-6.0","","70","","26","","44","","24.1","","98.28","","","","-9","","Snow"
"2016-01-10 22:00","2016","01","10","22:00","-1.5","","-5.7","","73","","27","","36","","24.1","","98.50","","","","-9","","Snow"
"2016-01-10 23:00","2016","01","10","23:00","-2.0","","-8.1","","63","","25","","41","","24.1","","98.72","","","","-10","","Snow"
"2016-01-11 00:00","2016","01","11","00:00"
"2016-01-11 01:00","2016","01","11","01:00"
"2016-01-11 02:00","2016","01","11","02:00"
"2016-01-11 03:00","2016","01","11","03:00"
"2016-01-11 04:00","2016","01","11","04:00"
"2016-01-11 05:00","2016","01","11","05:00"
"2016-01-11 06:00","2016","01","11","06:00","-5.8","","-12.6","","59","","26","","31","","24.1","","99.44","","","","-14","","NA"
"2016-01-11 07:00","2016","01","11","07:00","-6.1","","-12.9","","59","","27","","26","","24.1","","99.55","","","","-14","","Mostly Cloudy"
"2016-01-11 08:00","2016","01","11","08:00","-6.6","","-11.8","","67","","27","","21","","24.1","","99.63","","","","-14","","Snow Showers"
"2016-01-11 09:00","2016","01","11","09:00","-6.5","","-13.1","","60","","27","","22","","24.1","","99.72","","","","-14","","NA"
"2016-01-11 10:00","2016","01","11","10:00","-5.8","","-13.3","","56","","28","","35","","24.1","","99.81","","","","-15","","Snow Showers"
"2016-01-11 11:00","2016","01","11","11:00","-6.4","","-11.6","","67","","29","","20","","12.9","","99.88","","","","-13","","Snow Showers,Blowing Snow"
"2016-01-11 12:00","2016","01","11","12:00","-7.1","","-10.5","","77","","30","","20","","4.8","","99.90","","","","-14","","Snow Showers,Blowing Snow"
"2016-01-11 13:00","2016","01","11","13:00","-6.3","","-12.4","","62","","28","","20","","24.1","","99.94","","","","-13","","Snow Showers"
"2016-01-11 14:00","2016","01","11","14:00","-5.3","","-13.5","","53","","27","","22","","24.1","","99.99","","","","-12","","NA"
"2016-01-11 15:00","2016","01","11","15:00","-5.7","","-14.8","","49","","29","","26","","24.1","","100.07","","","","-13","","NA"
"2016-01-11 16:00","2016","01","11","16:00","-5.9","","-15.0","","49","","28","","25","","24.1","","100.14","","","","-13","","Mainly Clear"
"2016-01-11 17:00","2016","01","11","17:00","-7.0","","-14.8","","54","","26","","20","","24.1","","100.27","","","","-14","","NA"
"2016-01-11 18:00","2016","01","11","18:00","-7.6","","-15.2","","55","","27","","19","","24.1","","100.35","","","","-15","","NA"
"2016-01-11 19:00","2016","01","11","19:00","-8.2","","-14.9","","59","","27","","8","","24.1","","100.41","","","","-12","","Clear"
"2016-01-11 20:00","2016","01","11","20:00","-8.7","","-14.9","","61","","29","","9","","24.1","","100.41","","","","-13","","NA"
"2016-01-11 21:00","2016","01","11","21:00","-9.2","","-14.6","","65","","31","","7","","24.1","","100.41","","","","-13","","NA"
"2016-01-11 22:00","2016","01","11","22:00","-8.7","","-14.2","","65","","25","","4","","24.1","","100.44","","","","-11","","Mostly Cloudy"
"2016-01-11 23:00","2016","01","11","23:00","-7.8","","-13.5","","64","","27","","9","","24.1","","100.45","","","","-12","","NA"
"2016-01-12 00:00","2016","01","12","00:00"
"2016-01-12 01:00","2016","01","12","01:00"
"2016-01-12 02:00","2016","01","12","02:00"
"2016-01-12 03:00","2016","01","12","03:00"
"2016-01-12 04:00","2016","01","12","04:00"
"2016-01-12 05:00","2016","01","12","05:00"
"2016-01-12 06:00","2016","01","12","06:00","-5.2","","-11.8","","60","","16","","27","","24.1","","99.81","","","","-13","","NA"
"2016-01-12 07:00","2016","01","12","07:00","-4.9","","-9.0","","73","","16","","34","","6.4","","99.69","","","","-13","","Snow Showers"
"2016-01-12 08:00","2016","01","12","08:00","-5.1","","-7.4","","84","","15","","37","","1.2","","99.55","","","","-14","","Snow Showers,Blowing Snow"
"2016-01-12 09:00","2016","01","12","09:00","-4.2","","-6.5","","84","","17","","42","","0.8","","99.45","","","","-13","","Snow,Blowing Snow"
"2016-01-12 10:00","2016","01","12","10:00","-3.5","","-5.7","","85","","18","","40","","0.8","","99.35","","","","-12","","Snow,Blowing Snow"
"2016-01-12 11:00","2016","01","12","11:00","-2.8","","-5.0","","85","","18","","40","","1.2","","99.23","","","","-11","","Snow,Blowing Snow"
"2016-01-12 12:00","2016","01","12","12:00","-2.2","","-4.4","","85","","18","","39","","1.6","","99.05","","","","-10","","Snow,Blowing Snow"
"2016-01-12 13:00","2016","01","12","13:00","-1.2","","-4.4","","79","","19","","38","","4.0","","98.90","","","","-9","","Snow,Blowing Snow"
"2016-01-12 14:00","2016","01","12","14:00","-1.0","","-3.2","","85","","18","","41","","2.4","","98.77","","","","-9","","Snow,Blowing Snow"
"2016-01-12 15:00","2016","01","12","15:00","-0.6","","-3.0","","84","","18","","46","","1.6","","98.69","","","","-9","","Snow,Blowing Snow"
"2016-01-12 16:00","2016","01","12","16:00","-1.2","","-3.9","","82","","21","","29","","19.3","","98.73","","","","-8","","Cloudy"
"2016-01-12 17:00","2016","01","12","17:00","-1.6","","-6.8","","68","","23","","44","","17.7","","98.75","","","","-10","","Blowing Snow"
"2016-01-12 18:00","2016","01","12","18:00","-2.3","","-7.2","","69","","25","","34","","14.5","","98.79","","","","-10","","Blowing Snow"
"2016-01-12 19:00","2016","01","12","19:00","-4.2","","-9.5","","67","","25","","37","","12.9","","98.96","","","","-13","","Blowing Snow"
"2016-01-12 20:00","2016","01","12","20:00","-5.4","","-8.8","","77","","25","","30","","16.1","","99.00","","","","-14","","Snow Showers,Blowing Snow"
"2016-01-12 21:00","2016","01","12","21:00","-5.3","","-8.2","","80","","24","","22","","8.1","","98.99","","","","-12","","Snow Showers,Blowing Snow"
"2016-01-12 22:00","2016","01","12","22:00","-6.7","","-9.1","","83","","28","","11","","17.7","","98.96","","","","-12","","Snow Showers"
"2016-01-12 23:00","2016","01","12","23:00","-6.9","","-10.6","","75","","27","","19","","19.3","","99.07","","","","-14","","NA"
"2016-01-13 00:00","2016","01","13","00:00"
"2016-01-13 01:00","2016","01","13","01:00"
"2016-01-13 02:00","2016","01","13","02:00"
"2016-01-13 03:00","2016","01","13","03:00"
"2016-01-13 04:00","2016","01","13","04:00"
"2016-01-13 05:00","2016","01","13","05:00"
"2016-01-13 06:00","2016","01","13","06:00","-12.3","","-16.0","","74","","28","","18","","24.1","","99.92","","","","-20","","NA"
"2016-01-13 07:00","2016","01","13","07:00","-13.0","","-16.7","","74","","28","","23","","24.1","","100.07","","","","-22","","Mainly Clear"
"2016-01-13 08:00","2016","01","13","08:00","-13.5","","-17.5","","72","","28","","20","","24.1","","100.15","","","","-22","","NA"
"2016-01-13 09:00","2016","01","13","09:00","-13.4","","-17.8","","70","","29","","22","","24.1","","100.27","","","","-23","","NA"
"2016-01-13 10:00","2016","01","13","10:00","-12.7","","-17.8","","66","","29","","22","","24.1","","100.37","","","","-22","","Mainly Clear"
"2016-01-13 11:00","2016","01","13","11:00","-11.4","","-17.7","","60","","27","","16","","24.1","","100.38","","","","-19","","NA"
"2016-01-13 12:00","2016","01","13","12:00","-10.1","","-17.5","","55","","25","","12","","24.1","","100.34","","","","-16","","NA"
"2016-01-13 13:00","2016","01","13","13:00","-9.7","","-17.8","","52","","25","","20","","24.1","","100.28","","","","-17","","Mainly Clear"
"2016-01-13 14:00","2016","01","13","14:00","-8.9","","-17.8","","49","","26","","14","","24.1","","100.23","","","","-15","","NA"
"2016-01-13 15:00","2016","01","13","15:00","-8.4","","-17.3","","49","","30","","15","","24.1","","100.21","","","","-15","","NA"
"2016-01-13 16:00","2016","01","13","16:00","-9.0","","-16.5","","55","","33","","22","","24.1","","100.16","","","","-17","","Mostly Cloudy"
"2016-01-13 17:00","2016","01","13","17:00","-10.0","","-16.4","","60","","34","","10","","24.1","","100.16","","","","-15","","NA"
"2016-01-13 18:00","2016","01","13","18:00","-9.3","","-16.1","","58","","24","","4","","24.1","","100.19","","","","-12","","NA"
"2016-01-13 19:00","2016","01","13","19:00","-9.1","","-15.1","","62","","36","","2","","24.1","","100.13","","","","-10","","Cloudy"
"2016-01-13 20:00","2016","01","13","20:00","-8.4","","-11.6","","78","","21","","10","","8.1","","100.11","","","","-13","","Snow"
"2016-01-13 21:00","2016","01","13","21:00","-8.2","","-10.9","","81","","26","","10","","4.0","","100.06","","","","-13","","Snow"
"2016-01-13 22:00","2016","01","13","22:00","-8.9","","-12.1","","78","","27","","13","","6.4","","100.05","","","","-15","","Snow"
"2016-01-13 23:00","2016","01","13","23:00","-9.3","","-12.3","","79","","27","","6","","16.1","","99.95","","","","-13","","Snow"
"2016-01-14 00:00","2016","01","14","00:00"
"2016-01-14 01:00","2016","01","14","01:00"
"2016-01-14 02:00","2016","01","14","02:00"
"2016-01-14 03:00","2016","01","14","03:00"
"2016-01-14 04:00","2016","01","14","04:00"
"2016-01-14 05:00","2016","01","14","05:00"
"2016-01-14 06:00","2016","01","14","06:00","-7.8","","-9.5","","88","","8","","6","","3.2","","99.65","","","","-11","","Snow"
"2016-01-14 07:00","2016","01","14","07:00","-5.9","","-8.3","","83","","24","","8","","16.1","","99.65","","","","-10","","Snow"
"2016-01-14 08:00","2016","01","14","08:00","-6.9","","-10.5","","76","","26","","12","","24.1","","99.68","","","","-12","","NA"
"2016-01-14 09:00","2016","01","14","09:00","-6.2","","-10.5","","72","","25","","13","","24.1","","99.72","","","","-12","","NA"
"2016-01-14 10:00","2016","01","14","10:00","-6.0","","-11.2","","67","","27","","12","","24.1","","99.82","","","","-11","","Mostly Cloudy"
"2016-01-14 11:00","2016","01","14","11:00","-5.5","","-10.3","","69","","27","","16","","19.3","","99.85","","","","-11","","NA"
"2016-01-14 12:00","2016","01","14","12:00","-5.2","","-10.2","","68","","26","","18","","24.1","","99.80","","","","-11","","NA"
"2016-01-14 13:00","2016","01","14","13:00","-4.0","","-9.8","","64","","25","","13","","24.1","","99.80","","","","-9","","Mainly Clear"
"2016-01-14 14:00","2016","01","14","14:00"
"2016-01-14 15:00","2016","01","14","15:00","-3.8","","-9.7","","64","","28","","12","","24.1","","99.85","","","","-8","","NA"
"2016-01-14 16:00","2016","01","14","16:00","-3.6","","-9.7","","63","","25","","10","","24.1","","99.94","","","","-8","","Mostly Cloudy"
"2016-01-14 17:00","2016","01","14","17:00","-3.9","","-9.6","","65","","28","","8","","24.1","","100.03","","","","-7","","NA"
"2016-01-14 18:00","2016","01","14","18:00","-4.0","","-9.5","","66","","28","","4","","24.1","","100.11","","","","-6","","NA"
"2016-01-14 19:00","2016","01","14","19:00","-5.0","","-9.8","","69","","36","","1","","24.1","","100.13","","","","-5","","Mostly Cloudy"
"2016-01-14 20:00","2016","01","14","20:00","-5.4","","-9.5","","73","","36","","3","","24.1","","100.16","","","","-7","","NA"
"2016-01-14 21:00","2016","01","14","21:00","-5.9","","-9.0","","79","","36","","1","","24.1","","100.19","","","","-6","","NA"
"2016-01-14 22:00","2016","01","14","22:00","-4.6","","-7.9","","78","","36","","2","","24.1","","100.16","","","","-5","","Cloudy"
"2016-01-14 23:00","2016","01","14","23:00","-4.0","","-7.8","","75","","24","","3","","8.1","","100.16","","","","-5","","Snow"
"2016-01-15 00:00","2016","01","15","00:00"
"2016-01-15 01:00","2016","01","15","01:00"
"2016-01-15 02:00","2016","01","15","02:00"
"2016-01-15 03:00","2016","01","15","03:00"
"2016-01-15 04:00","2016","01","15","04:00"
"2016-01-15 05:00","2016","01","15","05:00"
"2016-01-15 06:00","2016","01","15","06:00","-4.5","","-7.1","","82","","4","","19","","19.3","","100.05","","","","-11","","NA"
"2016-01-15 07:00","2016","01","15","07:00","-4.7","","-7.8","","79","","5","","21","","19.3","","99.96","","","","-11","","Cloudy"
"2016-01-15 08:00","2016","01","15","08:00","-4.5","","-8.1","","76","","5","","21","","24.1","","99.95","","","","-11","","NA"
"2016-01-15 09:00","2016","01","15","09:00","-4.4","","-8.4","","74","","5","","20","","24.1","","99.93","","","","-11","","NA"
"2016-01-15 10:00","2016","01","15","10:00","-4.3","","-8.1","","75","","5","","22","","24.1","","99.86","","","","-11","","Cloudy"
"2016-01-15 11:00","2016","01","15","11:00","-3.8","","-7.8","","74","","5","","24","","24.1","","99.77","","","","-11","","NA"
"2016-01-15 12:00","2016","01","15","12:00","-3.3","","-7.7","","72","","5","","22","","24.1","","99.67","","","","-10","","NA"
"2016-01-15 13:00","2016","01","15","13:00","-3.2","","-7.6","","72","","4","","22","","24.1","","99.61","","","","-10","","Cloudy"
"2016-01-15 14:00","2016","01","15","14:00","-3.1","","-7.5","","72","","4","","25","","24.1","","99.48","","","","-10","","NA"
"2016-01-15 15:00","2016","01","15","15:00","-3.6","","-7.8","","73","","5","","22","","19.3","","99.39","","","","-10","","NA"
"2016-01-15 16:00","2016","01","15","16:00","-3.7","","-7.9","","73","","3","","15","","24.1","","99.38","","","","-9","","Mostly Cloudy"
"2016-01-15 17:00","2016","01","15","17:00","-4.7","","-8.5","","75","","4","","18","","19.3","","99.32","","","","-11","","Blowing Snow"
"2016-01-15 18:00","2016","01","15","18:00","-5.8","","-9.2","","77","","4","","26","","24.1","","99.30","","","","-14","","NA"
"2016-01-15 19:00","2016","01","15","19:00","-6.5","","-9.7","","78","","5","","23","","24.1","","99.29","","","","-14","","Cloudy"
"2016-01-15 20:00","2016","01","15","20:00","-7.1","","-10.2","","79","","5","","22","","24.1","","99.11","","","","-15","","NA"
"2016-01-15 21:00","2016","01","15","21:00","-7.1","","-10.2","","79","","4","","17","","24.1","","99.03","","","","-14","","NA"
"2016-01-15 22:00","2016","01","15","22:00","-6.7","","-9.9","","78","","4","","19","","24.1","","98.90","","","","-14","","Cloudy"
"2016-01-15 23:00","2016","01","15","23:00","-6.3","","-9.5","","78","","2","","16","","24.1","","98.88","","","","-12","","NA"
"2016-01-16 00:00","2016","01","16","00:00"
"2016-01-16 01:00","2016","01","16","01:00"
"2016-01-16 02:00","2016","01","16","02:00"
"2016-01-16 03:00","2016","01","16","03:00"
"2016-01-16 04:00","2016","01","16","04:00"
"2016-01-16 05:00","2016","01","16","05:00"
"2016-01-16 06:00","2016","01","16","06:00","-5.8","","-7.9","","85","","6","","8","","16.1","","98.43","","","","-10","","Freezing Rain"
"2016-01-16 07:00","2016","01","16","07:00","-4.3","","-5.9","","89","","4","","5","","6.4","","98.44","","","","-6","","Freezing Rain,Fog"
"2016-01-16 08:00","2016","01","16","08:00","-2.7","","-3.8","","92","","8","","10","","3.2","","98.43","","","","-7","","Freezing Rain,Fog"
"2016-01-16 09:00","2016","01","16","09:00","0.2","","-0.7","","94","","15","","8","","2.0","","98.44","","","","","","Drizzle,Fog"
"2016-01-16 10:00","2016","01","16","10:00","2.2","","1.5","","95","","23","","12","","9.7","","98.51","","","","","","Fog"
"2016-01-16 11:00","2016","01","16","11:00","2.4","","1.4","","93","","25","","16","","12.9","","98.57","","","","","","Rain"
"2016-01-16 12:00","2016","01","16","12:00","1.9","","0.0","","87","","28","","28","","19.3","","98.58","","","","","","NA"
"2016-01-16 13:00","2016","01","16","13:00","1.0","","-2.6","","77","","27","","30","","24.1","","98.64","","","","","","Cloudy"
"2016-01-16 14:00","2016","01","16","14:00","0.1","","-4.4","","72","","28","","30","","24.1","","98.78","","","","","","NA"
"2016-01-16 15:00","2016","01","16","15:00","-0.5","","-5.7","","68","","27","","27","","24.1","","98.96","","","","-7","","NA"
"2016-01-16 16:00","2016","01","16","16:00","-1.1","","-6.1","","69","","27","","16","","24.1","","99.10","","","","-6","","Cloudy"
"2016-01-16 17:00","2016","01","16","17:00","-1.6","","-6.6","","69","","27","","21","","24.1","","99.23","","","","-7","","NA"
"2016-01-16 18:00","2016","01","16","18:00","-1.6","","-6.6","","69","","26","","25","","24.1","","99.38","","","","-8","","NA"
"2016-01-16 19:00","2016","01","16","19:00","-2.1","","-6.9","","70","","28","","21","","24.1","","99.49","","","","-8","","Cloudy"
"2016-01-16 20:00","2016","01","16","20:00","-2.5","","-7.6","","68","","29","","21","","24.1","","99.57","","","","-9","","NA"
"2016-01-16 21:00","2016","01","16","21:00","-2.7","","-7.3","","71","","27","","14","","24.1","","99.64","","","","-8","","NA"
"2016-01-16 22:00","2016","01","16","22:00","-3.2","","-8.7","","66","","26","","21","","24.1","","99.72","","","","-9","","Mainly Clear"
"2016-01-16 23:00","2016","01","16","23:00","-2.9","","-7.8","","69","","28","","18","","24.1","","99.79","","","","-9","","Snow"
"2016-01-17 00:00","2016","01","17","00:00"
"2016-01-17 01:00","2016","01","17","01:00"
"2016-01-17 02:00","2016","01","17","02:00"
"2016-01-17 03:00","2016","01","17","03:00"
"2016-01-17 04:00","2016","01","17","04:00"
"2016-01-17 05:00","2016","01","17","05:00"
"2016-01-17 06:00","2016","01","17","06:00","-5.2","","-8.1","","80","","6","","4","","24.1","","99.95","","","","-7","","NA"
"2016-01-17 07:00","2016","01","17","07:00","-4.8","","-7.7","","80","","11","","6","","24.1","","100.03","","","","-8","","Cloudy"
"2016-01-17 08:00","2016","01","17","08:00","-3.1","","-6.1","","80","","13","","17","","19.3","","99.97","","","","-9","","Snow"
"2016-01-17 09:00","2016","01","17","09:00","-2.9","","-4.9","","86","","12","","7","","3.2","","99.91","","","","-6","","Snow"
"2016-01-17 10:00","2016","01","17","10:00","-2.3","","-5.0","","82","","13","","11","","19.3","","99.89","","","","-6","","Snow"
"2016-01-17 11:00","2016","01","17","11:00","-1.4","","-4.1","","82","","15","","20","","8.1","","99.92","","","","-7","","Snow"
"2016-01-17 12:00","2016","01","17","12:00","-1.2","","-3.1","","87","","13","","22","","2.4","","99.79","","","","-7","","Snow"
"2016-01-17 13:00","2016","01","17","13:00","-0.6","","-3.8","","79","","22","","15","","24.1","","99.67","","","","-5","","Snow"
"2016-01-17 14:00","2016","01","17","14:00","0.0","","-5.4","","67","","20","","23","","24.1","","99.60","","","","-6","","Snow"
"2016-01-17 15:00","2016","01","17","15:00","-0.1","","-4.0","","75","","20","","23","","16.1","","99.54","","","","-6","","Snow"
"2016-01-17 16:00","2016","01","17","16:00","-0.7","","-2.1","","90","","20","","22","","1.2","","99.52","","","","-6","","Snow"
"2016-01-17 17:00","2016","01","17","17:00","0.0","","-3.0","","80","","18","","28","","9.7","","99.43","","","","-6","","Snow"
"2016-01-17 18:00","2016","01","17","18:00","-1.9","","-3.2","","91","","26","","13","","2.0","","99.40","","","","-6","","Snow"
"2016-01-17 19:00","2016","01","17","19:00","-2.5","","-4.1","","89","","28","","18","","2.4","","99.35","","","","-8","","Snow"
"2016-01-17 20:00","2016","01","17","20:00","-3.0","","-4.9","","87","","29","","13","","4.8","","99.36","","","","-8","","Snow"
"2016-01-17 21:00","2016","01","17","21:00","-4.1","","-6.1","","86","","31","","20","","2.8","","99.36","","","","-10","","Snow"
"2016-01-17 22:00","2016","01","17","22:00","-5.1","","-9.9","","69","","26","","12","","24.1","","99.40","","","","-10","","Snow"
"2016-01-17 23:00","2016","01","17","23:00","-6.2","","-9.9","","75","","27","","23","","24.1","","99.45","","","","-14","","Snow"
"2016-01-18 00:00","2016","01","18","00:00"
"2016-01-18 01:00","2016","01","18","01:00"
"2016-01-18 02:00","2016","01","18","02:00"
"2016-01-18 03:00","2016","01","18","03:00"
"2016-01-18 04:00","2016","01","18","04:00"
"2016-01-18 05:00","2016","01","18","05:00"
"2016-01-18 06:00","2016","01","18","06:00","-13.1","","-15.9","","80","","28","","17","","24.1","","99.55","","","","-21","","NA"
"2016-01-18 07:00","2016","01","18","07:00","-13.4","","-16.5","","78","","27","","20","","24.1","","99.63","","","","-22","","Mainly Clear"
"2016-01-18 08:00","2016","01","18","08:00","-13.6","","-17.3","","74","","28","","21","","24.1","","99.69","","","","-23","","NA"
"2016-01-18 09:00","2016","01","18","09:00","-13.0","","-17.9","","67","","27","","22","","24.1","","99.77","","","","-22","","NA"
"2016-01-18 10:00","2016","01","18","10:00","-12.4","","-18.1","","63","","28","","18","","24.1","","99.84","","","","-20","","Mainly Clear"
"2016-01-18 11:00","2016","01","18","11:00","-11.4","","-18.3","","57","","27","","24","","24.1","","99.85","","","","-20","","NA"
"2016-01-18 12:00","2016","01","18","12:00","-10.6","","-18.0","","55","","26","","22","","24.1","","99.80","","","","-19","","NA"
"2016-01-18 13:00","2016","01","18","13:00","-10.0","","-18.1","","52","","26","","28","","24.1","","99.78","","","","-19","","Blowing Snow"
"2016-01-18 14:00","2016","01","18","14:00","-10.1","","-18.9","","49","","29","","30","","24.1","","99.81","","","","-20","","Blowing Snow"
"2016-01-18 15:00","2016","01","18","15:00","-10.1","","-18.0","","53","","28","","21","","24.1","","99.85","","","","-18","","NA"
"2016-01-18 16:00","2016","01","18","16:00","-10.8","","-18.2","","55","","27","","23","","24.1","","99.93","","","","-19","","Blowing Snow"
"2016-01-18 17:00","2016","01","18","17:00","-11.4","","-18.8","","55","","28","","23","","24.1","","100.01","","","","-20","","Blowing Snow"
"2016-01-18 18:00","2016","01","18","18:00","-12.3","","-19.2","","57","","28","","17","","24.1","","100.10","","","","-20","","NA"
"2016-01-18 19:00","2016","01","18","19:00","-13.0","","-19.4","","59","","28","","18","","24.1","","100.16","","","","-21","","Clear"
"2016-01-18 20:00","2016","01","18","20:00","-13.7","","-19.3","","63","","29","","20","","24.1","","100.24","","","","-23","","NA"
"2016-01-18 21:00","2016","01","18","21:00","-14.2","","-19.8","","63","","30","","16","","24.1","","100.30","","","","-22","","NA"
"2016-01-18 22:00","2016","01","18","22:00","-15.3","","-20.1","","67","","28","","16","","24.1","","100.33","","","","-24","","Clear"
"2016-01-18 23:00","2016","01","18","23:00","-16.0","","-20.3","","70","","27","","18","","24.1","","100.40","","","","-25","","NA"
"2016-01-19 00:00","2016","01","19","00:00"
"2016-01-19 01:00","2016","01","19","01:00"
"2016-01-19 02:00","2016","01","19","02:00"
"2016-01-19 03:00","2016","01","19","03:00"
"2016-01-19 04:00","2016","01","19","04:00"
"2016-01-19 05:00","2016","01","19","05:00"
"2016-01-19 06:00","2016","01","19","06:00","-19.2","","-22.9","","73","","28","","22","","24.1","","100.67","","","","-30","","NA"
"2016-01-19 07:00","2016","01","19","07:00","-19.0","","-23.2","","70","","28","","19","","24.1","","100.70","","","","-29","","Mostly Cloudy"
"2016-01-19 08:00","2016","01","19","08:00","-18.6","","-23.1","","68","","28","","20","","32.2","","100.74","","","","-29","","NA"
"2016-01-19 09:00","2016","01","19","09:00","-16.7","","-22.4","","62","","29","","22","","24.1","","100.73","","","","-27","","NA"
"2016-01-19 10:00","2016","01","19","10:00","-15.2","","-22.6","","54","","30","","27","","24.1","","100.79","","","","-26","","Blowing Snow"
"2016-01-19 11:00","2016","01","19","11:00","-14.5","","-21.9","","54","","30","","27","","24.1","","100.83","","","","-25","","Blowing Snow"
"2016-01-19 12:00","2016","01","19","12:00","-13.5","","-20.5","","56","","29","","27","","16.1","","100.77","","","","-24","","Snow,Blowing Snow"
"2016-01-19 13:00","2016","01","19","13:00","-11.7","","-18.6","","57","","27","","25","","24.1","","100.74","","","","-21","","Blowing Snow"
"2016-01-19 14:00","2016","01","19","14:00","-10.0","","-17.4","","55","","26","","23","","24.1","","100.71","","","","-18","","Blowing Snow"
"2016-01-19 15:00","2016","01","19","15:00","-9.2","","-16.5","","56","","26","","26","","24.1","","100.69","","","","-18","","Blowing Snow"
"2016-01-19 16:00","2016","01","19","16:00","-8.3","","-15.4","","57","","26","","26","","24.1","","100.72","","","","-17","","Blowing Snow"
"2016-01-19 17:00","2016","01","19","17:00","-8.4","","-14.9","","60","","27","","24","","24.1","","100.83","","","","-17","","Blowing Snow"
"2016-01-19 18:00","2016","01","19","18:00","-8.7","","-14.7","","62","","28","","12","","24.1","","100.93","","","","-14","","NA"
"2016-01-19 19:00","2016","01","19","19:00","-9.1","","-14.9","","63","","29","","22","","24.1","","101.03","","","","-17","","Mostly Cloudy"
"2016-01-19 20:00","2016","01","19","20:00","-9.6","","-15.0","","65","","29","","14","","24.1","","101.12","","","","-16","","NA"
"2016-01-19 21:00","2016","01","19","21:00","-9.7","","-15.1","","65","","29","","19","","24.1","","101.20","","","","-17","","NA"
"2016-01-19 22:00","2016","01","19","22:00","-9.6","","-14.8","","66","","28","","16","","24.1","","101.21","","","","-16","","Cloudy"
"2016-01-19 23:00","2016","01","19","23:00","-9.6","","-14.5","","68","","28","","12","","24.1","","101.27","","","","-15","","NA"
"2016-01-20 00:00","2016","01","20","00:00"
"2016-01-20 01:00","2016","01","20","01:00"
"2016-01-20 02:00","2016","01","20","02:00"
"2016-01-20 03:00","2016","01","20","03:00"
"2016-01-20 04:00","2016","01","20","04:00"
"2016-01-20 05:00","2016","01","20","05:00"
"2016-01-20 06:00","2016","01","20","06:00","-12.6","","-15.7","","78","","27","","11","","24.1","","101.36","","","","-19","","NA"
"2016-01-20 07:00","2016","01","20","07:00","-12.8","","-15.9","","78","","28","","17","","24.1","","101.42","","","","-21","","Mainly Clear"
"2016-01-20 08:00","2016","01","20","08:00","-13.2","","-16.4","","77","","31","","17","","24.1","","101.42","","","","-21","","NA"
"2016-01-20 09:00","2016","01","20","09:00","-12.1","","-15.8","","74","","28","","16","","24.1","","101.46","","","","-20","","NA"
"2016-01-20 10:00","2016","01","20","10:00","-10.2","","-15.2","","67","","35","","8","","24.1","","101.44","","","","-15","","Mainly Clear"
"2016-01-20 11:00","2016","01","20","11:00","-7.7","","-14.0","","61","","36","","7","","24.1","","101.36","","","","-11","","NA"
"2016-01-20 12:00","2016","01","20","12:00","-5.7","","-12.7","","58","","19","","4","","24.1","","101.25","","","","-8","","NA"
"2016-01-20 13:00","2016","01","20","13:00","-5.7","","-12.7","","58","","18","","6","","24.1","","101.14","","","","-9","","Clear"
"2016-01-20 14:00","2016","01","20","14:00","-5.6","","-12.8","","57","","20","","10","","24.1","","101.06","","","","-10","","NA"
"2016-01-20 15:00","2016","01","20","15:00","-5.8","","-11.8","","63","","21","","8","","24.1","","100.99","","","","-10","","NA"
"2016-01-20 16:00","2016","01","20","16:00","-5.3","","-13.0","","55","","26","","9","","24.1","","100.96","","","","-9","","Mostly Cloudy"
"2016-01-20 17:00","2016","01","20","17:00","-5.9","","-12.7","","59","","32","","7","","24.1","","100.94","","","","-9","","NA"
"2016-01-20 18:00","2016","01","20","18:00","-7.9","","-13.0","","67","","27","","4","","24.1","","100.95","","","","-10","","NA"
"2016-01-20 19:00","2016","01","20","19:00","-6.9","","-11.7","","69","","30","","8","","24.1","","100.95","","","","-11","","Mostly Cloudy"
"2016-01-20 20:00","2016","01","20","20:00","-6.9","","-11.5","","70","","29","","11","","24.1","","100.96","","","","-12","","NA"
"2016-01-20 21:00","2016","01","20","21:00","-7.6","","-11.5","","74","","30","","12","","24.1","","100.94","","","","-13","","NA"
"2016-01-20 22:00","2016","01","20","22:00","-9.0","","-12.3","","77","","33","","12","","24.1","","100.96","","","","-15","","Mainly Clear"
"2016-01-20 23:00","2016","01","20","23:00","-9.8","","-12.5","","81","","34","","11","","24.1","","100.98","","","","-15","","NA"
"2016-01-21 00:00","2016","01","21","00:00"
"2016-01-21 01:00","2016","01","21","01:00"
"2016-01-21 02:00","2016","01","21","02:00"
"2016-01-21 03:00","2016","01","21","03:00"
"2016-01-21 04:00","2016","01","21","04:00"
"2016-01-21 05:00","2016","01","21","05:00"
"2016-01-21 06:00","2016","01","21","06:00","-13.8","","-16.2","","82","","35","","14","","24.1","","101.21","","","","-21","","NA"
"2016-01-21 07:00","2016","01","21","07:00","-13.7","","-16.0","","83","","35","","10","","24.1","","101.24","","","","-20","","Mainly Clear"
"2016-01-21 08:00","2016","01","21","08:00","-14.3","","-16.9","","81","","34","","12","","24.1","","101.29","","","","-21","","NA"
"2016-01-21 09:00","2016","01","21","09:00","-12.6","","-15.5","","79","","35","","11","","24.1","","101.30","","","","-19","","NA"
"2016-01-21 10:00","2016","01","21","10:00","-10.0","","-14.0","","73","","35","","17","","24.1","","101.36","","","","-17","","Mainly Clear"
"2016-01-21 11:00","2016","01","21","11:00","-8.7","","-14.5","","63","","1","","12","","24.1","","101.43","","","","-14","","NA"
"2016-01-21 12:00","2016","01","21","12:00","-7.8","","-14.7","","58","","36","","9","","24.1","","101.38","","","","-12","","NA"
"2016-01-21 13:00","2016","01","21","13:00","-6.5","","-15.1","","51","","35","","18","","24.1","","101.34","","","","-13","","Mostly Cloudy"
"2016-01-21 14:00","2016","01","21","14:00","-6.5","","-14.8","","52","","35","","8","","24.1","","101.34","","","","-10","","NA"
"2016-01-21 15:00","2016","01","21","15:00","-6.3","","-14.4","","53","","34","","8","","24.1","","101.33","","","","-10","","NA"
"2016-01-21 16:00","2016","01","21","16:00","-6.3","","-13.9","","55","","33","","15","","19.3","","101.36","","","","-12","","Mostly Cloudy"
"2016-01-21 17:00","2016","01","21","17:00","-6.6","","-13.1","","60","","35","","8","","24.1","","101.41","","","","-10","","NA"
"2016-01-21 18:00","2016","01","21","18:00","-7.2","","-13.7","","60","","33","","11","","24.1","","101.47","","","","-12","","NA"
"2016-01-21 19:00","2016","01","21","19:00","-8.7","","-14.2","","65","","34","","10","","24.1","","101.52","","","","-14","","Mainly Clear"
"2016-01-21 20:00","2016","01","21","20:00","-10.1","","-14.8","","69","","33","","12","","24.1","","101.56","","","","-16","","NA"
"2016-01-21 21:00","2016","01","21","21:00","-11.1","","-15.7","","69","","34","","14","","24.1","","101.59","","","","-18","","NA"
"2016-01-21 22:00","2016","01","21","22:00","-12.0","","-16.1","","72","","34","","13","","24.1","","101.58","","","","-19","","Clear"
"2016-01-21 23:00","2016","01","21","23:00","-12.6","","-16.3","","74","","33","","13","","24.1","","101.60","","","","-19","","NA"
"2016-01-22 00:00","2016","01","22","00:00"
"2016-01-22 01:00","2016","01","22","01:00"
"2016-01-22 02:00","2016","01","22","02:00"
"2016-01-22 03:00","2016","01","22","03:00"
"2016-01-22 04:00","2016","01","22","04:00"
"2016-01-22 05:00","2016","01","22","05:00"
"2016-01-22 06:00","2016","01","22","06:00","-13.0","","-15.9","","79","","35","","11","","24.1","","101.54","","","","-19","","NA"
"2016-01-22 07:00","2016","01","22","07:00","-13.4","","-16.2","","80","","34","","10","","24.1","","101.63","","","","-19","","Clear"
"2016-01-22 08:00","2016","01","22","08:00","-14.4","","-17.1","","80","","33","","11","","24.1","","101.71","","","","-21","","NA"
"2016-01-22 09:00","2016","01","22","09:00","-11.2","","-15.5","","71","","33","","7","","24.1","","101.73","","","","-15","","NA"
"2016-01-22 10:00","2016","01","22","10:00","-8.2","","-13.5","","66","","32","","3","","24.1","","101.72","","","","-10","","Mostly Cloudy"
"2016-01-22 11:00","2016","01","22","11:00","-4.9","","-14.1","","49","","33","","10","","24.1","","101.69","","","","-9","","NA"
"2016-01-22 12:00","2016","01","22","12:00","-4.1","","-15.5","","41","","30","","13","","24.1","","101.60","","","","-9","","NA"
"2016-01-22 13:00","2016","01","22","13:00","-4.0","","-12.5","","52","","33","","13","","24.1","","101.51","","","","-9","","Mostly Cloudy"
"2016-01-22 14:00","2016","01","22","14:00","-4.3","","-11.6","","57","","35","","13","","24.1","","101.39","","","","-9","","NA"
"2016-01-22 15:00","2016","01","22","15:00","-4.4","","-11.7","","57","","34","","11","","24.1","","101.37","","","","-9","","NA"
"2016-01-22 16:00","2016","01","22","16:00","-4.9","","-11.7","","59","","33","","8","","24.1","","101.36","","","","-8","","Cloudy"
"2016-01-22 17:00","2016","01","22","17:00","-4.8","","-11.9","","58","","32","","5","","24.1","","101.39","","","","-7","","NA"
"2016-01-22 18:00","2016","01","22","18:00","-5.8","","-12.2","","61","","35","","6","","24.1","","101.36","","","","-9","","NA"
"2016-01-22 19:00","2016","01","22","19:00","-7.0","","-12.1","","67","","36","","11","","24.1","","101.32","","","","-12","","Mostly Cloudy"
"2016-01-22 20:00","2016","01","22","20:00","-6.5","","-10.8","","72","","2","","11","","24.1","","101.37","","","","-11","","Snow"
"2016-01-22 21:00","2016","01","22","21:00","-7.3","","-11.0","","75","","4","","6","","24.1","","101.40","","","","-10","","NA"
"2016-01-22 22:00","2016","01","22","22:00","-8.9","","-12.2","","77","","36","","11","","24.1","","101.31","","","","-14","","Mainly Clear"
"2016-01-22 23:00","2016","01","22","23:00","-8.5","","-12.5","","73","","2","","13","","24.1","","101.29","","","","-14","","NA"
"2016-01-23 00:00","2016","01","23","00:00"
"2016-01-23 01:00","2016","01","23","01:00"
"2016-01-23 02:00","2016","01","23","02:00"
"2016-01-23 03:00","2016","01","23","03:00"
"2016-01-23 04:00","2016","01","23","04:00"
"2016-01-23 05:00","2016","01","23","05:00"
"2016-01-23 06:00","2016","01","23","06:00","-12.0","","-15.1","","78","","2","","26","","24.1","","100.92","","","","-22","","NA"
"2016-01-23 07:00","2016","01","23","07:00","-12.1","","-15.4","","77","","2","","23","","24.1","","100.99","","","","-21","","Mainly Clear"
"2016-01-23 08:00","2016","01","23","08:00","-12.6","","-16.0","","76","","2","","24","","24.1","","100.87","","","","-22","","NA"
"2016-01-23 09:00","2016","01","23","09:00","-12.3","","-15.9","","75","","3","","22","","24.1","","100.84","","","","-21","","NA"
"2016-01-23 10:00","2016","01","23","10:00","-11.8","","-15.9","","72","","3","","22","","24.1","","100.87","","","","-21","","Mostly Cloudy"
"2016-01-23 11:00","2016","01","23","11:00","-10.7","","-15.7","","67","","3","","25","","24.1","","100.89","","","","-20","","NA"
"2016-01-23 12:00","2016","01","23","12:00","-9.0","","-14.8","","63","","2","","21","","24.1","","100.74","","","","-17","","NA"
"2016-01-23 13:00","2016","01","23","13:00","-8.3","","-14.8","","60","","2","","31","","24.1","","100.61","","","","-17","","Mainly Clear"
"2016-01-23 14:00","2016","01","23","14:00","-7.5","","-14.6","","57","","1","","27","","24.1","","100.50","","","","-16","","NA"
"2016-01-23 15:00","2016","01","23","15:00","-7.1","","-14.7","","55","","1","","18","","24.1","","100.48","","","","-14","","NA"
"2016-01-23 16:00","2016","01","23","16:00","-7.4","","-15.2","","54","","1","","24","","24.1","","100.51","","","","-15","","Mainly Clear"
"2016-01-23 17:00","2016","01","23","17:00","-8.4","","-15.7","","56","","2","","19","","24.1","","100.56","","","","-16","","NA"
"2016-01-23 18:00","2016","01","23","18:00","-9.8","","-16.0","","61","","1","","14","","24.1","","100.60","","","","-16","","NA"
"2016-01-23 19:00","2016","01","23","19:00","-11.8","","-16.8","","67","","34","","12","","24.1","","100.60","","","","-18","","Clear"
"2016-01-23 20:00","2016","01","23","20:00","-12.3","","-17.2","","67","","36","","10","","24.1","","100.62","","","","-18","","NA"
"2016-01-23 21:00","2016","01","23","21:00","-12.7","","-17.3","","69","","34","","8","","24.1","","100.66","","","","-18","","NA"
"2016-01-23 22:00","2016","01","23","22:00","-13.4","","-17.6","","71","","35","","8","","24.1","","100.59","","","","-18","","Clear"
"2016-01-23 23:00","2016","01","23","23:00","-14.3","","-18.0","","74","","33","","9","","24.1","","100.58","","","","-20","","NA"
"2016-01-24 00:00","2016","01","24","00:00"
"2016-01-24 01:00","2016","01","24","01:00"
"2016-01-24 02:00","2016","01","24","02:00"
"2016-01-24 03:00","2016","01","24","03:00"
"2016-01-24 04:00","2016","01","24","04:00"
"2016-01-24 05:00","2016","01","24","05:00"
"2016-01-24 06:00","2016","01","24","06:00","-17.1","","-20.1","","78","","33","","8","","24.1","","100.58","","","","-23","","NA"
"2016-01-24 07:00","2016","01","24","07:00","-16.7","","-19.5","","79","","1","","3","","24.1","","100.66","","","","-19","","Mostly Cloudy"
"2016-01-24 08:00","2016","01","24","08:00","-16.9","","-19.9","","78","","35","","9","","24.1","","100.67","","","","-23","","NA"
"2016-01-24 09:00","2016","01","24","09:00","-14.6","","-18.0","","76","","36","","6","","24.1","","100.69","","","","-19","","NA"
"2016-01-24 10:00","2016","01","24","10:00","-11.3","","-14.9","","75","","36","","2","","24.1","","100.73","","","","-13","","Cloudy"
"2016-01-24 11:00","2016","01","24","11:00","-8.3","","-12.5","","72","","23","","6","","24.1","","100.74","","","","-12","","NA"
"2016-01-24 12:00","2016","01","24","12:00","-7.0","","-13.5","","60","","22","","9","","24.1","","100.70","","","","-11","","NA"
"2016-01-24 13:00","2016","01","24","13:00","-6.3","","-13.3","","58","","23","","14","","24.1","","100.68","","","","-12","","Cloudy"
"2016-01-24 14:00","2016","01","24","14:00","-5.8","","-12.4","","60","","23","","9","","24.1","","100.60","","","","-10","","NA"
"2016-01-24 15:00","2016","01","24","15:00","-5.8","","-11.2","","66","","22","","4","","3.2","","100.60","","","","-8","","Snow"
"2016-01-24 16:00","2016","01","24","16:00","-6.3","","-8.7","","83","","19","","8","","4.8","","100.61","","","","-10","","Snow"
"2016-01-24 17:00","2016","01","24","17:00","-5.9","","-8.0","","85","","21","","8","","8.1","","100.63","","","","-10","","Snow"
"2016-01-24 18:00","2016","01","24","18:00","-5.1","","-7.1","","86","","36","","3","","19.3","","100.66","","","","-6","","Snow"
"2016-01-24 19:00","2016","01","24","19:00","-5.4","","-7.2","","87","","9","","5","","24.1","","100.67","","","","-8","","Cloudy"
"2016-01-24 20:00","2016","01","24","20:00","-4.7","","-6.4","","88","","9","","4","","24.1","","100.71","","","","-6","","NA"
"2016-01-24 21:00","2016","01","24","21:00","-4.3","","-6.2","","87","","6","","6","","24.1","","100.73","","","","-7","","Snow"
"2016-01-24 22:00","2016","01","24","22:00","-4.1","","-5.8","","88","","12","","7","","24.1","","100.73","","","","-7","","Cloudy"
"2016-01-24 23:00","2016","01","24","23:00","-3.2","","-4.8","","89","","36","","1","","24.1","","100.73","","","","-4","","NA"
"2016-01-25 00:00","2016","01","25","00:00"
"2016-01-25 01:00","2016","01","25","01:00"
"2016-01-25 02:00","2016","01","25","02:00"
"2016-01-25 03:00","2016","01","25","03:00"
"2016-01-25 04:00","2016","01","25","04:00"
"2016-01-25 05:00","2016","01","25","05:00"
"2016-01-25 06:00","2016","01","25","06:00","-6.7","","-8.1","","90","","4","","5","","24.1","","100.99","","","","-9","","NA"
"2016-01-25 07:00","2016","01","25","07:00","-5.3","","-7.0","","88","","7","","4","","19.3","","101.03","","","","-7","","Mostly Cloudy"
"2016-01-25 08:00","2016","01","25","08:00","-4.6","","-6.6","","86","","4","","3","","19.3","","101.05","","","","-6","","NA"
"2016-01-25 09:00","2016","01","25","09:00","-3.0","","-4.7","","88","","10","","3","","19.3","","101.08","","","","-4","","NA"
"2016-01-25 10:00","2016","01","25","10:00","0.5","","-2.4","","81","","18","","14","","19.3","","101.08","","","","","","Cloudy"
"2016-01-25 11:00","2016","01","25","11:00","0.5","","-2.4","","81","","17","","22","","24.1","","101.10","","","","","","NA"
"2016-01-25 12:00","2016","01","25","12:00","0.2","","-3.5","","76","","17","","24","","19.3","","101.06","","","","","","NA"
"2016-01-25 13:00","2016","01","25","13:00","0.2","","-3.5","","76","","17","","21","","24.1","","101.02","","","","","","Cloudy"
"2016-01-25 14:00","2016","01","25","14:00","0.0","","-4.6","","71","","16","","22","","24.1","","100.95","","","","-6","","NA"
"2016-01-25 15:00","2016","01","25","15:00","0.5","","-4.4","","70","","16","","27","","24.1","","100.87","","","","","","NA"
"2016-01-25 16:00","2016","01","25","16:00","0.7","","-4.5","","68","","16","","24","","24.1","","100.82","","","","","","Cloudy"
"2016-01-25 17:00","2016","01","25","17:00","0.8","","-4.5","","68","","15","","24","","24.1","","100.78","","","","","","NA"
"2016-01-25 18:00","2016","01","25","18:00","0.7","","-4.2","","70","","15","","24","","24.1","","100.72","","","","","","NA"
"2016-01-25 19:00","2016","01","25","19:00","0.8","","-4.1","","70","","15","","26","","24.1","","100.69","","","","","","Mainly Clear"
"2016-01-25 20:00","2016","01","25","20:00","0.9","","-3.8","","71","","15","","25","","24.1","","100.57","","","","","","NA"
"2016-01-25 21:00","2016","01","25","21:00","1.2","","-3.9","","69","","16","","30","","24.1","","100.47","","","","","","NA"
"2016-01-25 22:00","2016","01","25","22:00","1.4","","-3.7","","69","","16","","28","","24.1","","100.40","","","","","","Mainly Clear"
"2016-01-25 23:00","2016","01","25","23:00","1.6","","-4.1","","66","","17","","31","","24.1","","100.30","","","","","","NA"
"2016-01-26 00:00","2016","01","26","00:00"
"2016-01-26 01:00","2016","01","26","01:00"
"2016-01-26 02:00","2016","01","26","02:00"
"2016-01-26 03:00","2016","01","26","03:00"
"2016-01-26 04:00","2016","01","26","04:00"
"2016-01-26 05:00","2016","01","26","05:00"
"2016-01-26 06:00","2016","01","26","06:00","1.1","","-1.8","","81","","17","","28","","24.1","","99.76","","","","","","Rain Showers"
"2016-01-26 07:00","2016","01","26","07:00","1.6","","-1.5","","80","","17","","35","","24.1","","99.64","","","","","","Cloudy"
"2016-01-26 08:00","2016","01","26","08:00","1.9","","-1.4","","79","","17","","32","","24.1","","99.63","","","","","","Rain Showers"
"2016-01-26 09:00","2016","01","26","09:00","2.0","","-0.9","","81","","17","","34","","24.1","","99.55","","","","","","Rain Showers"
"2016-01-26 10:00","2016","01","26","10:00","2.8","","-0.3","","80","","18","","25","","24.1","","99.49","","","","","","Cloudy"
"2016-01-26 11:00","2016","01","26","11:00","2.5","","0.4","","86","","18","","29","","16.1","","99.43","","","","","","Rain Showers"
"2016-01-26 12:00","2016","01","26","12:00","3.1","","1.2","","87","","19","","23","","24.1","","99.34","","","","","","Rain Showers"
"2016-01-26 13:00","2016","01","26","13:00","4.2","","1.6","","83","","21","","27","","24.1","","99.32","","","","","","Rain Showers"
"2016-01-26 14:00","2016","01","26","14:00","4.5","","1.0","","78","","24","","41","","24.1","","99.33","","","","","","NA"
"2016-01-26 15:00","2016","01","26","15:00","3.6","","0.7","","81","","24","","36","","24.1","","99.39","","","","","","NA"
"2016-01-26 16:00","2016","01","26","16:00","3.0","","0.2","","82","","24","","38","","16.1","","99.51","","","","","","Rain Showers"
"2016-01-26 17:00","2016","01","26","17:00","2.7","","-0.2","","81","","24","","37","","24.1","","99.58","","","","","","NA"
"2016-01-26 18:00","2016","01","26","18:00","2.6","","-0.3","","81","","24","","32","","24.1","","99.71","","","","","","NA"
"2016-01-26 19:00","2016","01","26","19:00","2.5","","-0.3","","82","","24","","34","","24.1","","99.83","","","","","","Cloudy"
"2016-01-26 20:00","2016","01","26","20:00","2.2","","-0.4","","83","","24","","33","","24.1","","99.92","","","","","","NA"
"2016-01-26 21:00","2016","01","26","21:00","2.2","","-0.4","","83","","24","","30","","24.1","","99.96","","","","","","NA"
"2016-01-26 22:00","2016","01","26","22:00","1.7","","-0.2","","87","","24","","24","","16.1","","99.99","","","","","","Snow"
"2016-01-26 23:00","2016","01","26","23:00","2.0","","-0.4","","84","","24","","27","","16.1","","100.03","","","","","","Snow"
"2016-01-27 00:00","2016","01","27","00:00"
"2016-01-27 01:00","2016","01","27","01:00"
"2016-01-27 02:00","2016","01","27","02:00"
"2016-01-27 03:00","2016","01","27","03:00"
"2016-01-27 04:00","2016","01","27","04:00"
"2016-01-27 05:00","2016","01","27","05:00"
"2016-01-27 06:00","2016","01","27","06:00","0.8","","-2.3","","80","","31","","14","","19.3","","100.24","","","","","","Snow"
"2016-01-27 07:00","2016","01","27","07:00","-0.2","","-3.9","","76","","31","","22","","19.3","","100.34","","","","-6","","Snow"
"2016-01-27 08:00","2016","01","27","08:00","-0.8","","-5.4","","71","","30","","18","","24.1","","100.44","","","","-6","","NA"
"2016-01-27 09:00","2016","01","27","09:00","-1.9","","-6.1","","73","","35","","18","","24.1","","100.54","","","","-7","","NA"
"2016-01-27 10:00","2016","01","27","10:00","-1.3","","-7.1","","65","","30","","16","","24.1","","100.65","","","","-6","","Mostly Cloudy"
"2016-01-27 11:00","2016","01","27","11:00","-0.6","","-8.3","","56","","28","","14","","24.1","","100.68","","","","-5","","NA"
"2016-01-27 12:00","2016","01","27","12:00","-1.3","","-10.5","","50","","27","","21","","24.1","","100.68","","","","-7","","NA"
"2016-01-27 13:00","2016","01","27","13:00","-1.0","","-10.7","","48","","27","","22","","24.1","","100.72","","","","-7","","NA"
"2016-01-27 14:00","2016","01","27","14:00","-0.7","","-10.2","","49","","28","","17","","24.1","","100.74","","","","-6","","NA"
"2016-01-27 15:00","2016","01","27","15:00","-1.1","","-9.3","","54","","25","","15","","24.1","","100.69","","","","-6","","NA"
"2016-01-27 16:00","2016","01","27","16:00","-1.8","","-10.7","","51","","25","","18","","24.1","","100.69","","","","-7","","Clear"
"2016-01-27 17:00","2016","01","27","17:00","-2.6","","-11.4","","51","","26","","15","","24.1","","100.75","","","","-8","","NA"
"2016-01-27 18:00","2016","01","27","18:00","-3.4","","-11.4","","54","","26","","11","","24.1","","100.76","","","","-8","","NA"
"2016-01-27 19:00","2016","01","27","19:00","-3.7","","-11.5","","55","","25","","9","","24.1","","100.78","","","","-7","","Clear"
"2016-01-27 20:00","2016","01","27","20:00","-3.7","","-10.2","","61","","23","","9","","24.1","","100.72","","","","-7","","NA"
"2016-01-27 21:00","2016","01","27","21:00","-3.4","","-9.5","","63","","22","","13","","24.1","","100.68","","","","-8","","NA"
"2016-01-27 22:00","2016","01","27","22:00","-3.1","","-8.6","","66","","19","","13","","24.1","","100.61","","","","-8","","Clear"
"2016-01-27 23:00","2016","01","27","23:00","-0.7","","-7.3","","61","","18","","20","","24.1","","100.53","","","","-6","","NA"
"2016-01-28 00:00","2016","01","28","00:00"
"2016-01-28 01:00","2016","01","28","01:00"
"2016-01-28 02:00","2016","01","28","02:00"
"2016-01-28 03:00","2016","01","28","03:00"
"2016-01-28 04:00","2016","01","28","04:00"
"2016-01-28 05:00","2016","01","28","05:00"
"2016-01-28 06:00","2016","01","28","06:00","0.0","","-5.8","","65","","20","","27","","24.1","","99.86","","","","-6","","NA"
"2016-01-28 07:00","2016","01","28","07:00","-0.1","","-6.1","","64","","20","","33","","24.1","","99.80","","","","-7","","Mostly Cloudy"
"2016-01-28 08:00","2016","01","28","08:00","-0.4","","-6.2","","65","","21","","34","","24.1","","99.77","","","","-7","","NA"
"2016-01-28 09:00","2016","01","28","09:00","-0.8","","-5.2","","72","","20","","37","","4.8","","99.70","","","","-8","","Snow,Blowing Snow"
"2016-01-28 10:00","2016","01","28","10:00","-1.1","","-4.3","","79","","19","","32","","4.0","","99.63","","","","-8","","Snow,Blowing Snow"
"2016-01-28 11:00","2016","01","28","11:00","-1.1","","-3.8","","82","","19","","36","","3.2","","99.54","","","","-9","","Snow,Blowing Snow"
"2016-01-28 12:00","2016","01","28","12:00","-1.1","","-3.0","","87","","19","","36","","2.4","","99.39","","","","-9","","Snow,Blowing Snow"
"2016-01-28 13:00","2016","01","28","13:00","-0.6","","-2.7","","86","","19","","43","","16.1","","99.30","","","","-8","","Blowing Snow"
"2016-01-28 14:00","2016","01","28","14:00","-0.1","","-3.0","","81","","18","","40","","24.1","","99.21","","","","-8","","NA"
"2016-01-28 15:00","2016","01","28","15:00","1.0","","-3.5","","72","","18","","35","","24.1","","99.11","","","","","","NA"
"2016-01-28 16:00","2016","01","28","16:00","1.6","","-3.3","","70","","18","","30","","19.3","","99.08","","","","","","Cloudy"
"2016-01-28 17:00","2016","01","28","17:00","1.8","","-3.1","","70","","18","","27","","24.1","","99.06","","","","","","NA"
"2016-01-28 18:00","2016","01","28","18:00","2.2","","-2.5","","71","","20","","19","","24.1","","99.05","","","","","","Snow Showers"
"2016-01-28 19:00","2016","01","28","19:00","1.7","","-1.7","","78","","25","","12","","19.3","","99.06","","","","","","Snow Showers"
"2016-01-28 20:00","2016","01","28","20:00","1.1","","-1.3","","84","","21","","11","","17.7","","99.05","","","","","","Snow Showers"
"2016-01-28 21:00","2016","01","28","21:00","0.8","","-0.8","","89","","18","","10","","11.3","","98.95","","","","","","Snow Showers"
"2016-01-28 22:00","2016","01","28","22:00","1.1","","-0.8","","87","","18","","13","","16.1","","98.89","","","","","","Snow Showers"
"2016-01-28 23:00","2016","01","28","23:00","1.9","","-2.3","","74","","19","","27","","19.3","","98.83","","","","","","Snow Showers"
"2016-01-29 00:00","2016","01","29","00:00"
"2016-01-29 01:00","2016","01","29","01:00"
"2016-01-29 02:00","2016","01","29","02:00"
"2016-01-29 03:00","2016","01","29","03:00"
"2016-01-29 04:00","2016","01","29","04:00"
"2016-01-29 05:00","2016","01","29","05:00"
"2016-01-29 06:00","2016","01","29","06:00","0.2","","-0.5","","95","","28","","14","","12.9","","98.65","","","","","","Snow"
"2016-01-29 07:00","2016","01","29","07:00","0.0","","-1.4","","90","","28","","16","","16.1","","98.69","","","","-5","","Snow"
"2016-01-29 08:00","2016","01","29","08:00","-0.6","","-2.2","","89","","27","","16","","16.1","","98.73","","","","-5","","Snow"
"2016-01-29 09:00","2016","01","29","09:00","-0.9","","-2.8","","87","","27","","13","","16.1","","98.79","","","","-5","","NA"
"2016-01-29 10:00","2016","01","29","10:00","-1.3","","-3.3","","86","","25","","13","","12.9","","98.86","","","","-6","","Snow"
"2016-01-29 11:00","2016","01","29","11:00","-2.3","","-4.3","","86","","26","","21","","4.8","","98.93","","","","-8","","Snow"
"2016-01-29 12:00","2016","01","29","12:00","-1.6","","-4.0","","84","","30","","22","","4.8","","98.93","","","","-8","","Snow"
"2016-01-29 13:00","2016","01","29","13:00","-2.3","","-5.5","","79","","32","","22","","16.1","","98.98","","","","-8","","Mostly Cloudy"
"2016-01-29 14:00","2016","01","29","14:00","-4.2","","-7.5","","78","","30","","25","","4.8","","99.10","","","","-11","","Snow"
"2016-01-29 15:00","2016","01","29","15:00","-4.5","","-8.5","","74","","31","","19","","16.1","","99.22","","","","-11","","Snow"
"2016-01-29 16:00","2016","01","29","16:00","-4.5","","-9.0","","71","","31","","19","","24.1","","99.37","","","","-11","","Snow"
"2016-01-29 17:00","2016","01","29","17:00","-5.6","","-10.2","","70","","29","","14","","24.1","","99.54","","","","-11","","NA"
"2016-01-29 18:00","2016","01","29","18:00","-6.1","","-10.9","","69","","28","","14","","24.1","","99.70","","","","-12","","NA"
"2016-01-29 19:00","2016","01","29","19:00","-6.5","","-11.3","","69","","30","","15","","24.1","","99.82","","","","-12","","Mostly Cloudy"
"2016-01-29 20:00","2016","01","29","20:00","-7.3","","-12.2","","68","","33","","17","","24.1","","99.95","","","","-14","","NA"
"2016-01-29 21:00","2016","01","29","21:00","-7.7","","-12.3","","70","","32","","12","","24.1","","100.03","","","","-13","","NA"
"2016-01-29 22:00","2016","01","29","22:00","-8.8","","-12.8","","73","","33","","13","","24.1","","100.12","","","","-15","","Mostly Cloudy"
"2016-01-29 23:00","2016","01","29","23:00","-10.1","","-14.8","","69","","31","","13","","24.1","","100.16","","","","-16","","NA"
"2016-01-30 00:00","2016","01","30","00:00"
"2016-01-30 01:00","2016","01","30","01:00"
"2016-01-30 02:00","2016","01","30","02:00"
"2016-01-30 03:00","2016","01","30","03:00"
"2016-01-30 04:00","2016","01","30","04:00"
"2016-01-30 05:00","2016","01","30","05:00"
"2016-01-30 06:00","2016","01","30","06:00","-9.9","","-12.7","","80","","36","","1","","24.1","","100.39","","","","-10","","NA"
"2016-01-30 07:00","2016","01","30","07:00","-8.6","","-11.0","","83","","20","","3","","24.1","","100.37","","","","-10","","Cloudy"
"2016-01-30 08:00","2016","01","30","08:00","-6.2","","-8.3","","85","","16","","15","","24.1","","100.29","","","","-12","","NA"
"2016-01-30 09:00","2016","01","30","09:00","-2.5","","-5.7","","79","","17","","28","","24.1","","100.13","","","","-10","","NA"
"2016-01-30 10:00","2016","01","30","10:00","-2.1","","-6.1","","74","","18","","37","","24.1","","100.03","","","","-10","","Mostly Cloudy"
"2016-01-30 11:00","2016","01","30","11:00","-1.9","","-6.3","","72","","16","","41","","24.1","","99.91","","","","-10","","NA"
"2016-01-30 12:00","2016","01","30","12:00","-0.8","","-6.0","","68","","17","","35","","24.1","","99.74","","","","-8","","NA"
"2016-01-30 13:00","2016","01","30","13:00","0.2","","-5.2","","67","","17","","36","","24.1","","99.58","","","","","","Mostly Cloudy"
"2016-01-30 14:00","2016","01","30","14:00","1.4","","-4.3","","66","","18","","28","","24.1","","99.48","","","","","","NA"
"2016-01-30 15:00","2016","01","30","15:00","1.9","","-3.2","","69","","19","","21","","24.1","","99.46","","","","","","NA"
"2016-01-30 16:00","2016","01","30","16:00","2.1","","-3.4","","67","","18","","21","","24.1","","99.42","","","","","","Cloudy"
"2016-01-30 17:00","2016","01","30","17:00","2.4","","-2.7","","69","","20","","15","","24.1","","99.45","","","","","","NA"
"2016-01-30 18:00","2016","01","30","18:00","2.7","","-2.2","","70","","19","","17","","24.1","","99.43","","","","","","NA"
"2016-01-30 19:00","2016","01","30","19:00","2.5","","-1.7","","74","","19","","18","","24.1","","99.49","","","","","","Cloudy"
"2016-01-30 20:00","2016","01","30","20:00","2.5","","-1.3","","76","","19","","20","","24.1","","99.54","","","","","","NA"
"2016-01-30 21:00","2016","01","30","21:00","2.6","","-0.9","","78","","19","","19","","24.1","","99.52","","","","","","NA"
"2016-01-30 22:00","2016","01","30","22:00","2.3","","-0.3","","83","","19","","18","","24.1","","99.54","","","","","","Mostly Cloudy"
"2016-01-30 23:00","2016","01","30","23:00","2.3","","-0.1","","84","","20","","15","","24.1","","99.62","","","","","","NA"
"2016-01-31 00:00","2016","01","31","00:00"
"2016-01-31 01:00","2016","01","31","01:00"
"2016-01-31 02:00","2016","01","31","02:00"
"2016-01-31 03:00","2016","01","31","03:00"
"2016-01-31 04:00","2016","01","31","04:00"
"2016-01-31 05:00","2016","01","31","05:00"
"2016-01-31 06:00","2016","01","31","06:00","2.7","","-0.9","","77","","22","","13","","24.1","","99.70","","","","","","NA"
"2016-01-31 07:00","2016","01","31","07:00","2.3","","-0.6","","81","","22","","12","","24.1","","99.68","","","","","","Mostly Cloudy"
"2016-01-31 08:00","2016","01","31","08:00","2.9","","-0.2","","80","","23","","13","","24.1","","99.72","","","","","","NA"
"2016-01-31 09:00","2016","01","31","09:00","3.2","","-0.1","","79","","21","","14","","24.1","","99.69","","","","","","NA"
"2016-01-31 10:00","2016","01","31","10:00","4.2","","0.0","","74","","20","","19","","24.1","","99.72","","","","","","Cloudy"
"2016-01-31 11:00","2016","01","31","11:00","3.2","","0.1","","80","","18","","10","","24.1","","99.63","","","","","","NA"
"2016-01-31 12:00","2016","01","31","12:00","4.6","","0.9","","77","","19","","13","","22.5","","99.60","","","","","","NA"
"2016-01-31 13:00","2016","01","31","13:00","5.6","","0.6","","70","","22","","11","","24.1","","99.55","","","","","","Cloudy"
"2016-01-31 14:00","2016","01","31","14:00","4.3","","0.8","","78","","19","","10","","24.1","","99.43","","","","","","NA"
"2016-01-31 15:00","2016","01","31","15:00","4.2","","1.1","","80","","15","","7","","24.1","","99.39","","","","","","NA"
"2016-01-31 16:00","2016","01","31","16:00","4.3","","0.5","","76","","15","","5","","24.1","","99.31","","","","","","Cloudy"
"2016-01-31 17:00","2016","01","31","17:00","4.3","","1.2","","80","","18","","5","","24.1","","99.30","","","","","","Rain Showers"
"2016-01-31 18:00","2016","01","31","18:00","4.4","","1.1","","79","","18","","15","","19.3","","99.24","","","","","","Rain"
"2016-01-31 19:00","2016","01","31","19:00","4.7","","1.9","","82","","18","","10","","16.1","","99.24","","","","","","Rain"
"2016-01-31 20:00","2016","01","31","20:00","5.2","","1.3","","76","","16","","10","","19.3","","99.13","","","","","","Rain"
"2016-01-31 21:00","2016","01","31","21:00","4.4","","1.1","","79","","14","","13","","24.1","","98.98","","","","","","Rain"
"2016-01-31 22:00","2016","01","31","22:00","5.1","","1.2","","76","","18","","21","","24.1","","98.94","","","","","","Rain"
"2016-01-31 23:00","2016","01","31","23:00","5.3","","2.3","","81","","20","","17","","24.1","","98.79","","","","","","NA"
