"Station Name","KINGSTON A"
"Province","ONTARIO"
"Latitude","44.22"
"Longitude","-76.60"
"Elevation","92.40"
"Climate Identifier","6104146"
"WMO Identifier",""
"TC Identifier","YGK"
"All times are specified in Local Standard Time (LST). Add 1 hour to adjust for Daylight Saving Time where and when it is observed."

"Legend"
"E","Estimated"
"M","Missing"
"NA","Not Available"

"Date/Time","Year","Month","Day","Time","Temp (°C)","Temp Flag","Dew Point Temp (°C)","Dew Point Temp Flag","Rel Hum (%)","Rel Hum Flag","Wind Dir (10s deg)","Wind Dir Flag","Wind Spd (km/h)","Wind Spd Flag","Visibility (km)","Visibility Flag","Stn Press (kPa)","Stn Press Flag","Hmdx","Hmdx Flag","Wind Chill","Wind Chill Flag","Weather"
"1996-02-01 00:00","1996","02","01","00:00"
"1996-02-01 01:00","1996","02","01","01:00"
"1996-02-01 02:00","1996","02","01","02:00"
"1996-02-01 03:00","1996","02","01","03:00"
"1996-02-01 04:00","1996","02","01","04:00"
"1996-02-01 05:00","1996","02","01","05:00"
"1996-02-01 06:00","1996","02","01","06:00","-18.1","","-24.6","","57","","6","","9","","24.1","","101.08","","","","-24","","Mainly Clear"
"1996-02-01 07:00","1996","02","01","07:00","-18.1","","-24.0","","60","","5","","6","","24.1","","101.11","","","","-23","","Mostly Cloudy"
"1996-02-01 08:00","1996","02","01","08:00","-17.2","","-23.9","","56","","6","","9","","24.1","","101.15","","","","-23","","Mostly Cloudy"
"1996-02-01 09:00","1996","02","01","09:00","-14.8","","-22.0","","54","","6","","9","","24.1","","101.15","","","","-21","","Mostly Cloudy"
"1996-02-01 10:00","1996","02","01","10:00","-13.4","","-20.1","","57","","10","","13","","24.1","","101.15","","","","-20","","Mostly Cloudy"
"1996-02-01 11:00","1996","02","01","11:00","-12.1","","-16.5","","70","","12","","19","","24.1","","101.15","","","","-20","","Mostly Cloudy"
"1996-02-01 12:00","1996","02","01","12:00","-11.2","","-15.5","","70","","10","","22","","6.4","","101.05","","","","-20","","Snow Showers"
"1996-02-01 13:00","1996","02","01","13:00","-10.3","","-13.1","","80","","8","","15","","16.1","","100.95","","","","-17","","Mostly Cloudy"
"1996-02-01 14:00","1996","02","01","14:00","-9.0","","-12.7","","74","","23","","6","","11.3","","100.91","","","","-12","","Snow Showers"
"1996-02-01 15:00","1996","02","01","15:00","-9.0","","-13.5","","70","","26","","11","","24.1","","100.95","","","","-14","","Mostly Cloudy"
"1996-02-01 16:00","1996","02","01","16:00","-8.4","","-13.8","","65","","23","","11","","24.1","","100.98","","","","-14","","Mostly Cloudy"
"1996-02-01 17:00","1996","02","01","17:00","-9.4","","-12.9","","76","","21","","15","","24.1","","100.98","","","","-16","","Mostly Cloudy"
"1996-02-01 18:00","1996","02","01","18:00","-9.3","","-13.3","","73","","22","","15","","16.1","","100.95","","","","-16","","Snow Showers"
"1996-02-01 19:00","1996","02","01","19:00","-9.0","","-14.1","","66","","22","","15","","6.4","","100.95","","","","-16","","Snow Showers"
"1996-02-01 20:00","1996","02","01","20:00","-8.8","","-13.3","","70","","24","","15","","24.1","","100.91","","","","-15","","Mostly Cloudy"
"1996-02-01 21:00","1996","02","01","21:00","-8.9","","-14.2","","65","","24","","13","","24.1","","100.85","","","","-15","","Mostly Cloudy"
"1996-02-01 22:00","1996","02","01","22:00","-8.9","","-15.5","","59","","23","","9","","24.1","","100.81","","","","-14","","Mostly Cloudy"
"1996-02-01 23:00","1996","02","01","23:00","-8.3","","-14.8","","59","","22","","17","","24.1","","100.75","","","","-15","","Cloudy"
"1996-02-02 00:00","1996","02","02","00:00"
"1996-02-02 01:00","1996","02","02","01:00"
"1996-02-02 02:00","1996","02","02","02:00"
"1996-02-02 03:00","1996","02","02","03:00"
"1996-02-02 04:00","1996","02","02","04:00"
"1996-02-02 05:00","1996","02","02","05:00"
"1996-02-02 06:00","1996","02","02","06:00","-11.9","","-18.5","","58","","26","","19","","24.1","","100.78","","","","-20","","Mainly Clear"
"1996-02-02 07:00","1996","02","02","07:00","-12.7","","-18.9","","60","","28","","22","","24.1","","100.91","","","","-22","","Mainly Clear"
"1996-02-02 08:00","1996","02","02","08:00","-13.4","","-20.7","","54","","28","","28","","24.1","","101.05","","","","-24","","Mainly Clear"
"1996-02-02 09:00","1996","02","02","09:00","-13.6","","-21.3","","52","","27","","28","","24.1","","101.15","","","","-24","","Mainly Clear"
"1996-02-02 10:00","1996","02","02","10:00","-14.2","","-21.4","","54","","27","","28","","24.1","","101.35","","","","-25","","Mainly Clear"
"1996-02-02 11:00","1996","02","02","11:00","-13.6","","-20.7","","55","","28","","19","","24.1","","101.35","","","","-22","","Mainly Clear"
"1996-02-02 12:00","1996","02","02","12:00","-13.2","","-20.6","","54","","29","","19","","24.1","","101.38","","","","-22","","Mainly Clear"
"1996-02-02 13:00","1996","02","02","13:00","-12.4","","-20.0","","53","","27","","17","","24.1","","101.38","","","","-20","","Mainly Clear"
"1996-02-02 14:00","1996","02","02","14:00","-11.9","","-20.2","","50","","28","","11","","24.1","","101.35","","","","-18","","Mostly Cloudy"
"1996-02-02 15:00","1996","02","02","15:00","-12.1","","-20.9","","48","","27","","17","","24.1","","101.32","","","","-20","","Mostly Cloudy"
"1996-02-02 16:00","1996","02","02","16:00","-12.3","","-22.5","","42","","29","","19","","24.1","","101.45","","","","-21","","Mostly Cloudy"
"1996-02-02 17:00","1996","02","02","17:00","-12.9","","-22.4","","45","","28","","19","","24.1","","101.48","","","","-21","","Cloudy"
"1996-02-02 18:00","1996","02","02","18:00","-13.3","","-20.9","","53","","28","","9","","24.1","","101.48","","","","-19","","Cloudy"
"1996-02-02 19:00","1996","02","02","19:00","-13.7","","-21.9","","50","","28","","9","","24.1","","101.55","","","","-19","","Cloudy"
"1996-02-02 20:00","1996","02","02","20:00","-14.5","","-22.4","","51","","28","","9","","24.1","","101.58","","","","-20","","Mostly Cloudy"
"1996-02-02 21:00","1996","02","02","21:00","-15.1","","-22.7","","52","","34","","19","","24.1","","101.58","","","","-24","","Mostly Cloudy"
"1996-02-02 22:00","1996","02","02","22:00","-15.4","","-25.8","","41","","36","","13","","24.1","","101.58","","","","-23","","Cloudy"
"1996-02-02 23:00","1996","02","02","23:00","-15.9","","-27.9","","35","","6","","13","","24.1","","101.58","","","","-23","","Mostly Cloudy"
"1996-02-03 00:00","1996","02","03","00:00"
"1996-02-03 01:00","1996","02","03","01:00"
"1996-02-03 02:00","1996","02","03","02:00"
"1996-02-03 03:00","1996","02","03","03:00"
"1996-02-03 04:00","1996","02","03","04:00"
"1996-02-03 05:00","1996","02","03","05:00"
"1996-02-03 06:00","1996","02","03","06:00","-19.9","","-29.0","","44","","1","","9","","24.1","","101.62","","","","-27","","Clear"
"1996-02-03 07:00","1996","02","03","07:00","-20.5","","-29.1","","46","","2","","11","","24.1","","101.65","","","","-28","","Mainly Clear"
"1996-02-03 08:00","1996","02","03","08:00","-20.5","","-29.0","","47","","1","","9","","24.1","","101.69","","","","-27","","Mainly Clear"
"1996-02-03 09:00","1996","02","03","09:00","-19.4","","-28.4","","45","","4","","11","","24.1","","101.75","","","","-27","","Clear"
"1996-02-03 10:00","1996","02","03","10:00","-17.8","","-27.8","","41","","7","","9","","24.1","","101.75","","","","-24","","Mainly Clear"
"1996-02-03 11:00","1996","02","03","11:00","-16.6","","-27.0","","40","","","","0","","24.1","","101.75","","","","","","Mainly Clear"
"1996-02-03 12:00","1996","02","03","12:00","-14.9","","-26.5","","37","","","","0","","24.1","","101.69","","","","","","Mainly Clear"
"1996-02-03 13:00","1996","02","03","13:00","-14.9","","-24.7","","43","","","","0","","24.1","","101.65","","","","","","Mainly Clear"
"1996-02-03 14:00","1996","02","03","14:00","-15.3","","-24.8","","44","","21","","11","","24.1","","101.65","","","","-22","","Mainly Clear"
"1996-02-03 15:00","1996","02","03","15:00","-15.4","","-25.3","","42","","17","","7","","24.1","","101.65","","","","-20","","Mainly Clear"
"1996-02-03 16:00","1996","02","03","16:00","-15.2","","-25.5","","41","","17","","7","","24.1","","101.69","","","","-20","","Mainly Clear"
"1996-02-03 17:00","1996","02","03","17:00","-15.6","","-24.6","","46","","17","","7","","24.1","","101.69","","","","-21","","Mainly Clear"
"1996-02-03 18:00","1996","02","03","18:00","-15.8","","-24.8","","46","","17","","4","","24.1","","101.75","","","","-19","","Mainly Clear"
"1996-02-03 19:00","1996","02","03","19:00","-16.1","","-24.9","","47","","17","","4","","24.1","","101.75","","","","-19","","Mainly Clear"
"1996-02-03 20:00","1996","02","03","20:00","-16.4","","-23.9","","52","","","","0","","24.1","","101.79","","","","","","Mainly Clear"
"1996-02-03 21:00","1996","02","03","21:00","-17.7","","-23.0","","63","","","","0","","24.1","","101.89","","","","","","Mainly Clear"
"1996-02-03 22:00","1996","02","03","22:00","-17.2","","-24.5","","53","","33","","4","","24.1","","101.79","","","","-20","","Mainly Clear"
"1996-02-03 23:00","1996","02","03","23:00","-18.3","","-25.5","","53","","33","","9","","24.1","","101.82","","","","-25","","Mainly Clear"
"1996-02-04 00:00","1996","02","04","00:00"
"1996-02-04 01:00","1996","02","04","01:00"
"1996-02-04 02:00","1996","02","04","02:00"
"1996-02-04 03:00","1996","02","04","03:00"
"1996-02-04 04:00","1996","02","04","04:00"
"1996-02-04 05:00","1996","02","04","05:00"
"1996-02-04 06:00","1996","02","04","06:00","-21.6","","-27.9","","57","","34","","11","","24.1","","101.82","","","","-30","","Clear"
"1996-02-04 07:00","1996","02","04","07:00","-21.7","","-27.8","","58","","34","","9","","24.1","","101.89","","","","-29","","Mainly Clear"
"1996-02-04 08:00","1996","02","04","08:00","-21.9","","-27.6","","60","","33","","11","","24.1","","101.89","","","","-30","","Mainly Clear"
"1996-02-04 09:00","1996","02","04","09:00","-20.0","","-26.5","","56","","33","","11","","24.1","","101.92","","","","-28","","Mainly Clear"
"1996-02-04 10:00","1996","02","04","10:00","-17.7","","-24.8","","54","","34","","11","","24.1","","101.95","","","","-25","","Mainly Clear"
"1996-02-04 11:00","1996","02","04","11:00","-16.5","","-24.6","","50","","30","","6","","24.1","","101.99","","","","-21","","Clear"
"1996-02-04 12:00","1996","02","04","12:00","-15.4","","-23.2","","51","","31","","15","","24.1","","101.92","","","","-23","","Mainly Clear"
"1996-02-04 13:00","1996","02","04","13:00","-14.5","","-27.6","","32","","26","","7","","24.1","","101.89","","","","-19","","Mainly Clear"
"1996-02-04 14:00","1996","02","04","14:00","-13.9","","-22.2","","49","","25","","19","","24.1","","101.79","","","","-23","","Mainly Clear"
"1996-02-04 15:00","1996","02","04","15:00","-13.7","","-22.2","","49","","28","","19","","24.1","","101.82","","","","-22","","Mainly Clear"
"1996-02-04 16:00","1996","02","04","16:00","-13.4","","-23.5","","42","","25","","13","","24.1","","101.85","","","","-20","","Mainly Clear"
"1996-02-04 17:00","1996","02","04","17:00","-13.5","","-23.4","","43","","24","","17","","24.1","","101.85","","","","-22","","Mainly Clear"
"1996-02-04 18:00","1996","02","04","18:00","-14.0","","-23.1","","46","","27","","15","","24.1","","101.85","","","","-22","","Mainly Clear"
"1996-02-04 19:00","1996","02","04","19:00","-14.5","","-22.5","","51","","27","","19","","24.1","","101.89","","","","-23","","Mainly Clear"
"1996-02-04 20:00","1996","02","04","20:00","-15.1","","-23.1","","50","","27","","11","","24.1","","101.92","","","","-22","","Clear"
"1996-02-04 21:00","1996","02","04","21:00","-15.6","","-23.2","","52","","27","","11","","24.1","","101.89","","","","-22","","Clear"
"1996-02-04 22:00","1996","02","04","22:00","-15.9","","-22.8","","55","","27","","15","","24.1","","101.85","","","","-24","","Clear"
"1996-02-04 23:00","1996","02","04","23:00","-16.3","","-22.1","","61","","28","","6","","24.1","","101.85","","","","-21","","Clear"
"1996-02-05 00:00","1996","02","05","00:00"
"1996-02-05 01:00","1996","02","05","01:00"
"1996-02-05 02:00","1996","02","05","02:00"
"1996-02-05 03:00","1996","02","05","03:00"
"1996-02-05 04:00","1996","02","05","04:00"
"1996-02-05 05:00","1996","02","05","05:00"
"1996-02-05 06:00","1996","02","05","06:00","-18.7","","-23.8","","64","","22","","4","","24.1","","101.82","","","","-22","","Mainly Clear"
"1996-02-05 07:00","1996","02","05","07:00","-16.6","","-22.2","","62","","18","","7","","24.1","","101.75","","","","-22","","Mainly Clear"
"1996-02-05 08:00","1996","02","05","08:00","-15.6","","-21.6","","60","","17","","9","","24.1","","101.65","","","","-22","","Mostly Cloudy"
"1996-02-05 09:00","1996","02","05","09:00","-14.4","","-18.8","","69","","18","","11","","3.2","","101.58","","","","-21","","Snow Showers"
"1996-02-05 10:00","1996","02","05","10:00","-14.0","","-17.3","","76","","16","","19","","3.2","","101.55","","","","-23","","Snow Showers"
"1996-02-05 11:00","1996","02","05","11:00","-13.7","","-16.7","","78","","15","","19","","4.8","","101.45","","","","-22","","Snow Showers"
"1996-02-05 12:00","1996","02","05","12:00","-11.8","","-15.2","","76","","23","","33","","4.0","","101.38","","","","-22","","Snow Showers"
"1996-02-05 13:00","1996","02","05","13:00","-12.2","","-17.4","","65","","22","","26","","2.4","","101.28","","","","-22","","Snow Showers"
"1996-02-05 14:00","1996","02","05","14:00","-11.6","","-14.7","","78","","22","","30","","4.0","","101.15","","","","-22","","Snow Showers"
"1996-02-05 15:00","1996","02","05","15:00","-11.6","","-13.5","","86","","22","","22","","0.8","","101.08","","","","-20","","Moderate Snow Showers"
"1996-02-05 16:00","1996","02","05","16:00","-11.0","","-14.8","","73","","24","","24","","9.7","","101.01","","","","-20","","Snow Showers"
"1996-02-05 17:00","1996","02","05","17:00","-11.0","","-14.8","","73","","24","","15","","3.2","","101.05","","","","-18","","Snow Showers"
"1996-02-05 18:00","1996","02","05","18:00","-10.9","","-13.3","","82","","21","","19","","3.2","","101.05","","","","-19","","Snow Showers"
"1996-02-05 19:00","1996","02","05","19:00","-10.3","","-12.4","","85","","23","","24","","0.4","","101.05","","","","-19","","Heavy Snow Showers"
"1996-02-05 20:00","1996","02","05","20:00","-11.9","","-16.7","","67","","30","","15","","19.3","","101.11","","","","-19","","Mostly Cloudy"
"1996-02-05 21:00","1996","02","05","21:00","-13.5","","-17.2","","74","","30","","6","","19.3","","101.18","","","","-18","","Mostly Cloudy"
"1996-02-05 22:00","1996","02","05","22:00","-14.6","","-17.6","","78","","23","","9","","24.1","","101.22","","","","-20","","Mainly Clear"
"1996-02-05 23:00","1996","02","05","23:00","-15.0","","-17.0","","85","","26","","4","","24.1","","101.35","","","","-18","","Mainly Clear"
"1996-02-06 00:00","1996","02","06","00:00"
"1996-02-06 01:00","1996","02","06","01:00"
"1996-02-06 02:00","1996","02","06","02:00"
"1996-02-06 03:00","1996","02","06","03:00"
"1996-02-06 04:00","1996","02","06","04:00"
"1996-02-06 05:00","1996","02","06","05:00"
"1996-02-06 06:00","1996","02","06","06:00","-16.6","","-19.0","","82","","29","","9","","24.1","","101.65","","","","-23","","Clear"
"1996-02-06 07:00","1996","02","06","07:00","-16.5","","-18.8","","82","","26","","6","","24.1","","101.75","","","","-21","","Mainly Clear"
"1996-02-06 08:00","1996","02","06","08:00","-17.2","","-19.4","","83","","29","","7","","24.1","","101.79","","","","-22","","Mostly Cloudy"
"1996-02-06 09:00","1996","02","06","09:00","-16.1","","-18.7","","80","","29","","6","","24.1","","101.89","","","","-21","","Mostly Cloudy"
"1996-02-06 10:00","1996","02","06","10:00","-14.6","","-17.9","","76","","24","","6","","24.1","","102.02","","","","-19","","Mostly Cloudy"
"1996-02-06 11:00","1996","02","06","11:00","-13.8","","-17.2","","75","","24","","11","","24.1","","102.05","","","","-20","","Mostly Cloudy"
"1996-02-06 12:00","1996","02","06","12:00","-12.2","","-16.5","","70","","26","","17","","24.1","","101.99","","","","-20","","Mainly Clear"
"1996-02-06 13:00","1996","02","06","13:00","-10.5","","-16.3","","62","","27","","19","","24.1","","102.02","","","","-18","","Mainly Clear"
"1996-02-06 14:00","1996","02","06","14:00","-9.7","","-16.7","","57","","24","","15","","24.1","","102.02","","","","-16","","Mainly Clear"
"1996-02-06 15:00","1996","02","06","15:00","-9.2","","-16.0","","58","","25","","19","","24.1","","101.95","","","","-17","","Mainly Clear"
"1996-02-06 16:00","1996","02","06","16:00","-9.7","","-16.7","","57","","26","","6","","24.1","","101.95","","","","-13","","Mostly Cloudy"
"1996-02-06 17:00","1996","02","06","17:00","-9.4","","-16.4","","57","","27","","9","","24.1","","101.95","","","","-14","","Mostly Cloudy"
"1996-02-06 18:00","1996","02","06","18:00","-9.7","","-15.9","","61","","31","","4","","24.1","","101.95","","","","-12","","Mostly Cloudy"
"1996-02-06 19:00","1996","02","06","19:00","-10.4","","-15.4","","67","","21","","6","","24.1","","101.95","","","","-14","","Mostly Cloudy"
"1996-02-06 20:00","1996","02","06","20:00","-9.5","","-13.8","","71","","18","","6","","24.1","","101.95","","","","-13","","Cloudy"
"1996-02-06 21:00","1996","02","06","21:00","-9.4","","-13.2","","74","","15","","7","","19.3","","101.85","","","","-13","","Snow Showers"
"1996-02-06 22:00","1996","02","06","22:00","-9.5","","-12.4","","79","","14","","11","","24.1","","101.75","","","","-15","","Mostly Cloudy"
"1996-02-06 23:00","1996","02","06","23:00","-9.9","","-12.6","","81","","14","","11","","24.1","","101.69","","","","-15","","Mostly Cloudy"
"1996-02-07 00:00","1996","02","07","00:00"
"1996-02-07 01:00","1996","02","07","01:00"
"1996-02-07 02:00","1996","02","07","02:00"
"1996-02-07 03:00","1996","02","07","03:00"
"1996-02-07 04:00","1996","02","07","04:00"
"1996-02-07 05:00","1996","02","07","05:00"
"1996-02-07 06:00","1996","02","07","06:00","-5.8","","-8.8","","79","","18","","24","","24.1","","101.15","","","","-13","","Cloudy"
"1996-02-07 07:00","1996","02","07","07:00","-6.2","","-9.1","","80","","17","","20","","24.1","","101.05","","","","-13","","Mostly Cloudy"
"1996-02-07 08:00","1996","02","07","08:00","-5.6","","-8.9","","78","","18","","19","","24.1","","100.95","","","","-12","","Mostly Cloudy"
"1996-02-07 09:00","1996","02","07","09:00","-5.1","","-8.6","","76","","18","","19","","24.1","","100.85","","","","-12","","Mostly Cloudy"
"1996-02-07 10:00","1996","02","07","10:00","-4.3","","-7.7","","77","","18","","24","","24.1","","100.71","","","","-11","","Mostly Cloudy"
"1996-02-07 11:00","1996","02","07","11:00","-3.2","","-6.6","","77","","18","","22","","24.1","","100.64","","","","-10","","Mostly Cloudy"
"1996-02-07 12:00","1996","02","07","12:00","-1.5","","-5.5","","74","","19","","24","","24.1","","100.54","","","","-8","","Cloudy"
"1996-02-07 13:00","1996","02","07","13:00","-1.3","","-5.2","","75","","19","","28","","12.9","","100.41","","","","-8","","Snow"
"1996-02-07 14:00","1996","02","07","14:00","-2.1","","-3.0","","94","","18","","28","","0.8","","100.28","","","","-9","","Moderate Snow"
"1996-02-07 15:00","1996","02","07","15:00","-1.1","","-2.5","","90","","18","","28","","8.0","","100.11","","","","-8","","Blowing Snow"
"1996-02-07 16:00","1996","02","07","16:00","-1.0","","-2.2","","92","","16","","39","","8.0","","99.97","","","","-9","","Blowing Snow"
"1996-02-07 17:00","1996","02","07","17:00","-0.3","","-2.6","","84","","18","","30","","11.3","","99.97","","","","-7","","Cloudy"
"1996-02-07 18:00","1996","02","07","18:00","0.5","","-3.0","","77","","18","","37","","11.3","","99.94","","","","","","Cloudy"
"1996-02-07 19:00","1996","02","07","19:00","0.4","","-2.8","","79","","19","","33","","8.0","","99.91","","","","","","Snow Showers"
"1996-02-07 20:00","1996","02","07","20:00","0.3","","-2.4","","82","","18","","33","","6.4","","99.91","","","","","","Snow Showers"
"1996-02-07 21:00","1996","02","07","21:00","0.1","","-1.9","","86","","19","","37","","6.4","","99.87","","","","","","Snow Showers"
"1996-02-07 22:00","1996","02","07","22:00","0.4","","-2.0","","84","","19","","43","","6.4","","99.81","","","","","","Drizzle,Fog"
"1996-02-07 23:00","1996","02","07","23:00","0.7","","-2.2","","81","","19","","44","","6.4","","99.77","","","","","","Drizzle,Fog"
"1996-02-08 00:00","1996","02","08","00:00"
"1996-02-08 01:00","1996","02","08","01:00"
"1996-02-08 02:00","1996","02","08","02:00"
"1996-02-08 03:00","1996","02","08","03:00"
"1996-02-08 04:00","1996","02","08","04:00"
"1996-02-08 05:00","1996","02","08","05:00"
"1996-02-08 06:00","1996","02","08","06:00","1.1","","-0.5","","89","","20","","19","","9.7","","99.67","","","","","","Drizzle,Fog"
"1996-02-08 07:00","1996","02","08","07:00","1.2","","0.3","","94","","20","","19","","8.0","","99.64","","","","","","Drizzle,Fog"
"1996-02-08 08:00","1996","02","08","08:00","0.9","","0.4","","96","","19","","19","","1.6","","99.60","","","","","","Drizzle,Fog"
"1996-02-08 09:00","1996","02","08","09:00","0.5","","-0.2","","95","","18","","19","","1.2","","99.57","","","","","","Drizzle,Fog"
"1996-02-08 10:00","1996","02","08","10:00","0.6","","-0.1","","95","","19","","22","","4.0","","99.47","","","","","","Drizzle,Fog"
"1996-02-08 11:00","1996","02","08","11:00","1.0","","-0.2","","92","","18","","22","","8.0","","99.40","","","","","","Drizzle,Fog"
"1996-02-08 12:00","1996","02","08","12:00","1.1","","-0.3","","90","","17","","28","","11.3","","99.27","","","","","","Cloudy"
"1996-02-08 13:00","1996","02","08","13:00","1.5","","-0.2","","88","","17","","24","","12.9","","99.07","","","","","","Cloudy"
"1996-02-08 14:00","1996","02","08","14:00","1.7","","-0.3","","87","","16","","22","","16.1","","98.97","","","","","","Rain Showers"
"1996-02-08 15:00","1996","02","08","15:00","1.7","","0.0","","88","","18","","19","","9.7","","98.87","","","","","","Rain Showers,Fog"
"1996-02-08 16:00","1996","02","08","16:00","1.3","","0.3","","93","","16","","19","","4.8","","98.80","","","","","","Rain Showers,Fog"
"1996-02-08 17:00","1996","02","08","17:00","1.4","","0.4","","93","","15","","19","","3.2","","98.66","","","","","","Rain Showers,Fog"
"1996-02-08 18:00","1996","02","08","18:00","1.3","","0.6","","95","","14","","19","","2.4","","98.63","","","","","","Rain Showers,Fog"
"1996-02-08 19:00","1996","02","08","19:00","1.6","","1.0","","96","","16","","19","","3.2","","98.46","","","","","","Rain,Fog"
"1996-02-08 20:00","1996","02","08","20:00","2.0","","1.4","","96","","18","","24","","4.0","","98.36","","","","","","Rain,Fog"
"1996-02-08 21:00","1996","02","08","21:00","3.0","","2.2","","94","","20","","22","","3.2","","98.33","","","","","","Rain,Fog"
"1996-02-08 22:00","1996","02","08","22:00","2.2","","1.8","","97","","23","","19","","4.0","","98.33","","","","","","Rain,Fog"
"1996-02-08 23:00","1996","02","08","23:00","2.2","","1.6","","96","","24","","15","","4.8","","98.33","","","","","","Rain,Fog"
"1996-02-09 00:00","1996","02","09","00:00"
"1996-02-09 01:00","1996","02","09","01:00"
"1996-02-09 02:00","1996","02","09","02:00"
"1996-02-09 03:00","1996","02","09","03:00"
"1996-02-09 04:00","1996","02","09","04:00"
"1996-02-09 05:00","1996","02","09","05:00"
"1996-02-09 06:00","1996","02","09","06:00","1.7","","0.2","","90","","29","","13","","19.3","","98.66","","","","","","Rain"
"1996-02-09 07:00","1996","02","09","07:00","1.7","","0.3","","90","","28","","15","","19.3","","98.73","","","","","","Rain,Snow"
"1996-02-09 08:00","1996","02","09","08:00","1.7","","0.5","","92","","29","","19","","19.3","","98.83","","","","","","Rain,Snow"
"1996-02-09 09:00","1996","02","09","09:00","2.4","","0.4","","87","","32","","19","","24.1","","98.90","","","","","","Rain"
"1996-02-09 10:00","1996","02","09","10:00","2.8","","0.4","","84","","31","","22","","24.1","","99.00","","","","","","Cloudy"
"1996-02-09 11:00","1996","02","09","11:00","3.3","","-0.3","","77","","32","","22","","24.1","","99.07","","","","","","Cloudy"
"1996-02-09 12:00","1996","02","09","12:00","2.8","","-0.4","","79","","33","","19","","19.3","","99.13","","","","","","Rain Showers"
"1996-02-09 13:00","1996","02","09","13:00","2.7","","-0.3","","81","","32","","22","","24.1","","99.13","","","","","","Mostly Cloudy"
"1996-02-09 14:00","1996","02","09","14:00","2.6","","-1.1","","77","","33","","22","","24.1","","99.13","","","","","","Cloudy"
"1996-02-09 15:00","1996","02","09","15:00","2.8","","-1.4","","74","","32","","15","","24.1","","99.24","","","","","","Mostly Cloudy"
"1996-02-09 16:00","1996","02","09","16:00","2.8","","-2.2","","70","","30","","15","","24.1","","99.27","","","","","","Mostly Cloudy"
"1996-02-09 17:00","1996","02","09","17:00","2.1","","-1.8","","75","","32","","9","","24.1","","99.37","","","","","","Mostly Cloudy"
"1996-02-09 18:00","1996","02","09","18:00","1.5","","-1.7","","79","","31","","4","","24.1","","99.44","","","","","","Mostly Cloudy"
"1996-02-09 19:00","1996","02","09","19:00","1.4","","-1.6","","80","","29","","4","","24.1","","99.44","","","","","","Mostly Cloudy"
"1996-02-09 20:00","1996","02","09","20:00","1.2","","-1.6","","82","","30","","2","","24.1","","99.50","","","","","","Cloudy"
"1996-02-09 21:00","1996","02","09","21:00","1.3","","-1.5","","82","","32","","9","","24.1","","99.57","","","","","","Cloudy"
"1996-02-09 22:00","1996","02","09","22:00","0.7","","-3.2","","75","","35","","19","","24.1","","99.60","","","","","","Cloudy"
"1996-02-09 23:00","1996","02","09","23:00","-0.1","","-4.1","","74","","36","","19","","24.1","","99.67","","","","-5","","Cloudy"
"1996-02-10 00:00","1996","02","10","00:00"
"1996-02-10 01:00","1996","02","10","01:00"
"1996-02-10 02:00","1996","02","10","02:00"
"1996-02-10 03:00","1996","02","10","03:00"
"1996-02-10 04:00","1996","02","10","04:00"
"1996-02-10 05:00","1996","02","10","05:00"
"1996-02-10 06:00","1996","02","10","06:00","-4.9","","-7.5","","82","","","","0","","24.1","","99.87","","","","","","Mostly Cloudy"
"1996-02-10 07:00","1996","02","10","07:00","-4.6","","-7.7","","79","","","","0","","24.1","","99.91","","","","","","Mostly Cloudy"
"1996-02-10 08:00","1996","02","10","08:00","-4.3","","-7.3","","80","","","","0","","24.1","","99.91","","","","","","Mostly Cloudy"
"1996-02-10 09:00","1996","02","10","09:00","-3.5","","-7.8","","72","","9","","6","","24.1","","99.87","","","","-6","","Mostly Cloudy"
"1996-02-10 10:00","1996","02","10","10:00","-3.2","","-7.2","","74","","13","","9","","24.1","","99.87","","","","-7","","Cloudy"
"1996-02-10 11:00","1996","02","10","11:00","-3.2","","-7.2","","74","","16","","9","","24.1","","99.84","","","","-7","","Cloudy"
"1996-02-10 12:00","1996","02","10","12:00","-2.6","","-6.3","","76","","15","","7","","24.1","","99.67","","","","-5","","Cloudy"
"1996-02-10 13:00","1996","02","10","13:00","-2.5","","-6.5","","74","","13","","11","","24.1","","99.67","","","","-7","","Cloudy"
"1996-02-10 14:00","1996","02","10","14:00","-2.0","","-5.8","","75","","13","","11","","8.0","","99.57","","","","-6","","Snow Showers"
"1996-02-10 15:00","1996","02","10","15:00","-2.1","","-5.4","","78","","10","","19","","19.3","","99.47","","","","-8","","Cloudy"
"1996-02-10 16:00","1996","02","10","16:00","-1.5","","-4.9","","78","","10","","19","","24.1","","99.40","","","","-7","","Snow Showers"
"1996-02-10 17:00","1996","02","10","17:00","-1.2","","-4.8","","76","","9","","13","","24.1","","99.34","","","","-5","","Cloudy"
"1996-02-10 18:00","1996","02","10","18:00","-0.9","","-4.9","","74","","10","","13","","24.1","","99.27","","","","-5","","Cloudy"
"1996-02-10 19:00","1996","02","10","19:00","-0.9","","-4.7","","75","","8","","15","","19.3","","99.20","","","","-6","","Snow Showers"
"1996-02-10 20:00","1996","02","10","20:00","-1.0","","-4.7","","76","","6","","19","","24.1","","99.03","","","","-6","","Cloudy"
"1996-02-10 21:00","1996","02","10","21:00","-0.8","","-4.7","","75","","6","","20","","24.1","","98.90","","","","-6","","Cloudy"
"1996-02-10 22:00","1996","02","10","22:00","-0.9","","-4.2","","78","","7","","19","","24.1","","98.73","","","","-6","","Cloudy"
"1996-02-10 23:00","1996","02","10","23:00","-0.9","","-4.0","","79","","7","","24","","4.8","","98.53","","","","-7","","Snow Showers"
"1996-02-11 00:00","1996","02","11","00:00"
"1996-02-11 01:00","1996","02","11","01:00"
"1996-02-11 02:00","1996","02","11","02:00"
"1996-02-11 03:00","1996","02","11","03:00"
"1996-02-11 04:00","1996","02","11","04:00"
"1996-02-11 05:00","1996","02","11","05:00"
"1996-02-11 06:00","1996","02","11","06:00","2.4","","1.5","","94","","23","","22","","4.8","","98.09","","","","","","Rain,Fog"
"1996-02-11 07:00","1996","02","11","07:00","2.3","","0.8","","90","","23","","22","","8.0","","98.03","","","","","","Rain,Fog"
"1996-02-11 08:00","1996","02","11","08:00","1.8","","-0.6","","84","","24","","24","","8.0","","98.13","","","","","","Rain,Fog"
"1996-02-11 09:00","1996","02","11","09:00","1.8","","-1.7","","78","","24","","24","","8.0","","98.13","","","","","","Snow Showers,Fog"
"1996-02-11 10:00","1996","02","11","10:00","1.1","","-1.3","","84","","24","","22","","4.0","","98.09","","","","","","Snow Showers"
"1996-02-11 11:00","1996","02","11","11:00","2.1","","-1.4","","78","","24","","22","","24.1","","98.09","","","","","","Cloudy"
"1996-02-11 12:00","1996","02","11","12:00","2.2","","-1.2","","78","","24","","28","","24.1","","98.06","","","","","","Cloudy"
"1996-02-11 13:00","1996","02","11","13:00","2.4","","-0.8","","79","","24","","26","","24.1","","97.96","","","","","","Cloudy"
"1996-02-11 14:00","1996","02","11","14:00","2.4","","-1.0","","78","","24","","30","","24.1","","97.93","","","","","","Cloudy"
"1996-02-11 15:00","1996","02","11","15:00","2.0","","-1.2","","79","","23","","24","","24.1","","97.93","","","","","","Cloudy"
"1996-02-11 16:00","1996","02","11","16:00","1.6","","-0.6","","85","","25","","22","","19.3","","97.96","","","","","","Snow Showers"
"1996-02-11 17:00","1996","02","11","17:00","0.4","","-0.7","","92","","26","","13","","1.6","","97.99","","","","","","Snow Showers"
"1996-02-11 18:00","1996","02","11","18:00","-2.6","","-4.0","","90","","36","","28","","3.2","","98.13","","","","-10","","Snow Showers,Fog"
"1996-02-11 19:00","1996","02","11","19:00","-3.9","","-8.1","","73","","35","","33","","16.1","","98.30","","","","-12","","Snow Showers"
"1996-02-11 20:00","1996","02","11","20:00","-5.4","","-10.2","","69","","36","","33","","24.1","","98.46","","","","-14","","Cloudy"
"1996-02-11 21:00","1996","02","11","21:00","-6.7","","-11.8","","67","","35","","28","","24.1","","98.77","","","","-15","","Snow Showers"
"1996-02-11 22:00","1996","02","11","22:00","-7.5","","-12.3","","68","","35","","33","","16.1","","98.93","","","","-17","","Snow Showers"
"1996-02-11 23:00","1996","02","11","23:00","-7.8","","-13.4","","64","","35","","19","","19.3","","99.03","","","","-15","","Snow Showers"
"1996-02-12 00:00","1996","02","12","00:00"
"1996-02-12 01:00","1996","02","12","01:00"
"1996-02-12 02:00","1996","02","12","02:00"
"1996-02-12 03:00","1996","02","12","03:00"
"1996-02-12 04:00","1996","02","12","04:00"
"1996-02-12 05:00","1996","02","12","05:00"
"1996-02-12 06:00","1996","02","12","06:00","-17.1","","-22.6","","62","","34","","22","","24.1","","99.81","","","","-27","","Mainly Clear"
"1996-02-12 07:00","1996","02","12","07:00","-17.9","","-23.1","","64","","33","","19","","24.1","","99.94","","","","-28","","Mainly Clear"
"1996-02-12 08:00","1996","02","12","08:00","-18.1","","-24.4","","58","","36","","33","","24.1","","100.01","","","","-31","","Mainly Clear"
"1996-02-12 09:00","1996","02","12","09:00","-18.1","","-24.4","","58","","33","","28","","24.1","","100.11","","","","-30","","Mainly Clear"
"1996-02-12 10:00","1996","02","12","10:00","-17.7","","-24.5","","55","","33","","28","","24.1","","100.14","","","","-29","","Mainly Clear"
"1996-02-12 11:00","1996","02","12","11:00","-16.7","","-23.7","","55","","2","","17","","24.1","","100.21","","","","-26","","Mainly Clear"
"1996-02-12 12:00","1996","02","12","12:00","-15.9","","-23.5","","52","","34","","19","","24.1","","100.18","","","","-25","","Mainly Clear"
"1996-02-12 13:00","1996","02","12","13:00","-16.2","","-23.5","","53","","30","","9","","24.1","","100.14","","","","-22","","Mostly Cloudy"
"1996-02-12 14:00","1996","02","12","14:00","-15.2","","-23.3","","50","","30","","19","","24.1","","100.07","","","","-24","","Mostly Cloudy"
"1996-02-12 15:00","1996","02","12","15:00","-14.2","","-22.8","","48","","28","","13","","24.1","","100.07","","","","-21","","Mostly Cloudy"
"1996-02-12 16:00","1996","02","12","16:00","-13.7","","-22.0","","50","","28","","11","","24.1","","100.07","","","","-20","","Mostly Cloudy"
"1996-02-12 17:00","1996","02","12","17:00","-14.2","","-22.7","","49","","28","","13","","24.1","","100.07","","","","-21","","Mostly Cloudy"
"1996-02-12 18:00","1996","02","12","18:00","-14.3","","-20.7","","58","","31","","15","","24.1","","100.11","","","","-22","","Mostly Cloudy"
"1996-02-12 19:00","1996","02","12","19:00","-14.0","","-19.4","","64","","32","","11","","24.1","","100.14","","","","-20","","Mostly Cloudy"
"1996-02-12 20:00","1996","02","12","20:00","-14.8","","-22.1","","54","","32","","19","","24.1","","100.21","","","","-24","","Mostly Cloudy"
"1996-02-12 21:00","1996","02","12","21:00","-15.4","","-22.4","","55","","32","","17","","24.1","","100.21","","","","-24","","Snow Showers"
"1996-02-12 22:00","1996","02","12","22:00","-16.0","","-22.8","","56","","34","","28","","24.1","","100.21","","","","-27","","Mainly Clear"
"1996-02-12 23:00","1996","02","12","23:00","-16.5","","-23.9","","53","","34","","19","","24.1","","100.24","","","","-26","","Mainly Clear"
"1996-02-13 00:00","1996","02","13","00:00"
"1996-02-13 01:00","1996","02","13","01:00"
"1996-02-13 02:00","1996","02","13","02:00"
"1996-02-13 03:00","1996","02","13","03:00"
"1996-02-13 04:00","1996","02","13","04:00"
"1996-02-13 05:00","1996","02","13","05:00"
"1996-02-13 06:00","1996","02","13","06:00","-18.9","","-25.9","","54","","31","","19","","24.1","","100.21","","","","-29","","Mainly Clear"
"1996-02-13 07:00","1996","02","13","07:00","-19.1","","-25.9","","55","","31","","13","","24.1","","100.24","","","","-27","","Mostly Cloudy"
"1996-02-13 08:00","1996","02","13","08:00","-18.6","","-25.7","","54","","31","","13","","24.1","","100.28","","","","-27","","Cloudy"
"1996-02-13 09:00","1996","02","13","09:00","-17.9","","-24.2","","58","","29","","19","","11.3","","100.31","","","","-28","","Cloudy"
"1996-02-13 10:00","1996","02","13","10:00","-17.3","","-24.1","","55","","30","","19","","24.1","","100.28","","","","-27","","Mostly Cloudy"
"1996-02-13 11:00","1996","02","13","11:00","-15.5","","-22.3","","56","","29","","19","","24.1","","100.21","","","","-25","","Mainly Clear"
"1996-02-13 12:00","1996","02","13","12:00","-14.3","","-22.6","","49","","27","","9","","24.1","","100.11","","","","-20","","Mostly Cloudy"
"1996-02-13 13:00","1996","02","13","13:00","-11.4","","-19.8","","50","","26","","15","","24.1","","99.97","","","","-18","","Mainly Clear"
"1996-02-13 14:00","1996","02","13","14:00","-9.7","","-17.5","","53","","26","","19","","24.1","","99.87","","","","-17","","Mainly Clear"
"1996-02-13 15:00","1996","02","13","15:00","-8.1","","-16.5","","51","","27","","33","","24.1","","99.77","","","","-17","","Mainly Clear"
"1996-02-13 16:00","1996","02","13","16:00","-8.0","","-17.1","","48","","26","","24","","24.1","","99.71","","","","-16","","Mainly Clear"
"1996-02-13 17:00","1996","02","13","17:00","-8.2","","-16.4","","52","","26","","24","","24.1","","99.74","","","","-16","","Mainly Clear"
"1996-02-13 18:00","1996","02","13","18:00","-8.8","","-15.9","","56","","28","","15","","24.1","","99.74","","","","-15","","Mainly Clear"
"1996-02-13 19:00","1996","02","13","19:00","-9.1","","-15.4","","60","","30","","19","","24.1","","99.67","","","","-17","","Mainly Clear"
"1996-02-13 20:00","1996","02","13","20:00","-10.5","","-15.8","","65","","28","","7","","24.1","","99.64","","","","-15","","Mainly Clear"
"1996-02-13 21:00","1996","02","13","21:00","-10.4","","-15.2","","68","","27","","4","","24.1","","99.64","","","","-13","","Clear"
"1996-02-13 22:00","1996","02","13","22:00","-10.6","","-13.8","","77","","18","","7","","24.1","","99.60","","","","-15","","Snow Showers"
"1996-02-13 23:00","1996","02","13","23:00","-10.3","","-13.0","","81","","14","","4","","24.1","","99.60","","","","-13","","Mainly Clear"
"1996-02-14 00:00","1996","02","14","00:00"
"1996-02-14 01:00","1996","02","14","01:00"
"1996-02-14 02:00","1996","02","14","02:00"
"1996-02-14 03:00","1996","02","14","03:00"
"1996-02-14 04:00","1996","02","14","04:00"
"1996-02-14 05:00","1996","02","14","05:00"
"1996-02-14 06:00","1996","02","14","06:00","-9.5","","-13.2","","74","","6","","19","","24.1","","98.97","","","","-17","","Cloudy"
"1996-02-14 07:00","1996","02","14","07:00","-9.6","","-13.1","","76","","6","","19","","24.1","","98.97","","","","-17","","Cloudy"
"1996-02-14 08:00","1996","02","14","08:00","-9.4","","-13.5","","72","","6","","17","","24.1","","98.97","","","","-16","","Cloudy"
"1996-02-14 09:00","1996","02","14","09:00","-9.2","","-13.7","","70","","5","","22","","16.1","","98.93","","","","-17","","Snow Showers"
"1996-02-14 10:00","1996","02","14","10:00","-9.1","","-12.3","","78","","4","","22","","4.0","","98.90","","","","-17","","Snow"
"1996-02-14 11:00","1996","02","14","11:00","-8.4","","-11.6","","78","","4","","22","","3.2","","98.87","","","","-16","","Snow"
"1996-02-14 12:00","1996","02","14","12:00","-7.8","","-11.9","","72","","4","","22","","8.0","","98.87","","","","-15","","Snow"
"1996-02-14 13:00","1996","02","14","13:00","-6.7","","-12.9","","61","","4","","19","","24.1","","98.83","","","","-14","","Cloudy"
"1996-02-14 14:00","1996","02","14","14:00","-6.9","","-13.9","","57","","2","","22","","24.1","","98.83","","","","-14","","Cloudy"
"1996-02-14 15:00","1996","02","14","15:00","-7.1","","-14.8","","54","","3","","19","","24.1","","98.93","","","","-14","","Mostly Cloudy"
"1996-02-14 16:00","1996","02","14","16:00","-7.2","","-15.0","","54","","2","","22","","24.1","","99.03","","","","-15","","Cloudy"
"1996-02-14 17:00","1996","02","14","17:00","-8.1","","-16.1","","53","","36","","22","","24.1","","99.13","","","","-16","","Mostly Cloudy"
"1996-02-14 18:00","1996","02","14","18:00","-8.8","","-16.4","","54","","3","","13","","24.1","","99.24","","","","-15","","Mostly Cloudy"
"1996-02-14 19:00","1996","02","14","19:00","-9.4","","-16.9","","54","","2","","13","","24.1","","99.27","","","","-15","","Mainly Clear"
"1996-02-14 20:00","1996","02","14","20:00","-9.9","","-17.6","","53","","1","","11","","24.1","","99.37","","","","-15","","Mainly Clear"
"1996-02-14 21:00","1996","02","14","21:00","-10.5","","-17.5","","56","","2","","4","","24.1","","99.44","","","","-13","","Mainly Clear"
"1996-02-14 22:00","1996","02","14","22:00","-11.1","","-17.5","","59","","2","","13","","24.1","","99.37","","","","-18","","Mainly Clear"
"1996-02-14 23:00","1996","02","14","23:00","-11.5","","-17.6","","61","","2","","7","","24.1","","99.44","","","","-16","","Mainly Clear"
"1996-02-15 00:00","1996","02","15","00:00"
"1996-02-15 01:00","1996","02","15","01:00"
"1996-02-15 02:00","1996","02","15","02:00"
"1996-02-15 03:00","1996","02","15","03:00"
"1996-02-15 04:00","1996","02","15","04:00"
"1996-02-15 05:00","1996","02","15","05:00"
"1996-02-15 06:00","1996","02","15","06:00","-13.4","","-17.8","","69","","2","","7","","24.1","","99.57","","","","-18","","Cloudy"
"1996-02-15 07:00","1996","02","15","07:00","-13.5","","-17.5","","72","","3","","6","","24.1","","99.64","","","","-18","","Cloudy"
"1996-02-15 08:00","1996","02","15","08:00","-13.1","","-17.8","","68","","3","","7","","24.1","","99.77","","","","-18","","Mostly Cloudy"
"1996-02-15 09:00","1996","02","15","09:00","-11.9","","-17.1","","65","","","","0","","24.1","","99.81","","","","","","Mostly Cloudy"
"1996-02-15 10:00","1996","02","15","10:00","-11.2","","-16.5","","65","","7","","7","","24.1","","99.81","","","","-15","","Mostly Cloudy"
"1996-02-15 11:00","1996","02","15","11:00","-9.4","","-16.1","","58","","17","","6","","24.1","","99.87","","","","-13","","Mainly Clear"
"1996-02-15 12:00","1996","02","15","12:00","-9.2","","-15.0","","63","","16","","9","","24.1","","99.81","","","","-14","","Mostly Cloudy"
"1996-02-15 13:00","1996","02","15","13:00","-8.4","","-14.8","","60","","17","","11","","24.1","","99.81","","","","-14","","Mainly Clear"
"1996-02-15 14:00","1996","02","15","14:00","-7.8","","-15.1","","56","","17","","9","","24.1","","99.81","","","","-12","","Mainly Clear"
"1996-02-15 15:00","1996","02","15","15:00","-7.7","","-14.5","","58","","18","","13","","24.1","","99.87","","","","-13","","Mainly Clear"
"1996-02-15 16:00","1996","02","15","16:00","-7.2","","-13.7","","60","","18","","11","","24.1","","99.94","","","","-12","","Mainly Clear"
"1996-02-15 17:00","1996","02","15","17:00","-8.1","","-14.1","","62","","14","","6","","24.1","","99.97","","","","-11","","Mainly Clear"
"1996-02-15 18:00","1996","02","15","18:00","-9.0","","-13.7","","69","","15","","7","","24.1","","100.04","","","","-13","","Mainly Clear"
"1996-02-15 19:00","1996","02","15","19:00","-8.6","","-13.1","","70","","15","","7","","24.1","","100.11","","","","-12","","Mostly Cloudy"
"1996-02-15 20:00","1996","02","15","20:00","-8.3","","-13.1","","68","","16","","6","","24.1","","100.18","","","","-12","","Mostly Cloudy"
"1996-02-15 21:00","1996","02","15","21:00","-8.1","","-13.2","","67","","15","","4","","24.1","","100.21","","","","-10","","Mostly Cloudy"
"1996-02-15 22:00","1996","02","15","22:00","-8.1","","-12.9","","68","","14","","4","","24.1","","100.21","","","","-10","","Snow Showers"
"1996-02-15 23:00","1996","02","15","23:00","-7.9","","-11.8","","74","","16","","4","","24.1","","100.21","","","","-10","","Snow Showers"
"1996-02-16 00:00","1996","02","16","00:00"
"1996-02-16 01:00","1996","02","16","01:00"
"1996-02-16 02:00","1996","02","16","02:00"
"1996-02-16 03:00","1996","02","16","03:00"
"1996-02-16 04:00","1996","02","16","04:00"
"1996-02-16 05:00","1996","02","16","05:00"
"1996-02-16 06:00","1996","02","16","06:00","-13.2","","-14.2","","92","","34","","4","","16.1","","100.28","","","","-16","","Mostly Cloudy"
"1996-02-16 07:00","1996","02","16","07:00","-12.9","","-14.8","","86","","31","","4","","19.3","","100.34","","","","-16","","Mostly Cloudy"
"1996-02-16 08:00","1996","02","16","08:00","-10.9","","-13.0","","84","","34","","7","","19.3","","100.44","","","","-15","","Mostly Cloudy"
"1996-02-16 09:00","1996","02","16","09:00","-10.1","","-12.7","","81","","3","","7","","24.1","","100.44","","","","-14","","Mainly Clear"
"1996-02-16 10:00","1996","02","16","10:00","-8.7","","-11.7","","79","","7","","4","","24.1","","100.48","","","","-11","","Mainly Clear"
"1996-02-16 11:00","1996","02","16","11:00","-8.6","","-11.3","","81","","16","","7","","24.1","","100.44","","","","-12","","Mainly Clear"
"1996-02-16 12:00","1996","02","16","12:00","-7.8","","-11.2","","77","","18","","7","","24.1","","100.38","","","","-11","","Mainly Clear"
"1996-02-16 13:00","1996","02","16","13:00","-7.1","","-11.6","","70","","17","","9","","24.1","","100.28","","","","-11","","Mostly Cloudy"
"1996-02-16 14:00","1996","02","16","14:00","-5.8","","-12.3","","60","","17","","6","","24.1","","100.18","","","","-9","","Mostly Cloudy"
"1996-02-16 15:00","1996","02","16","15:00","-5.1","","-11.3","","62","","15","","7","","24.1","","100.18","","","","-8","","Mostly Cloudy"
"1996-02-16 16:00","1996","02","16","16:00","-4.5","","-12.6","","53","","35","","7","","24.1","","100.07","","","","-8","","Mostly Cloudy"
"1996-02-16 17:00","1996","02","16","17:00","-6.2","","-11.7","","65","","32","","4","","24.1","","100.14","","","","-8","","Mainly Clear"
"1996-02-16 18:00","1996","02","16","18:00","-7.7","","-11.6","","74","","17","","9","","24.1","","100.11","","","","-12","","Mainly Clear"
"1996-02-16 19:00","1996","02","16","19:00","-8.4","","-12.2","","74","","","","0","","24.1","","100.01","","","","","","Mainly Clear"
"1996-02-16 20:00","1996","02","16","20:00","-8.0","","-12.1","","72","","15","","7","","24.1","","100.07","","","","-12","","Clear"
"1996-02-16 21:00","1996","02","16","21:00","-8.6","","-12.8","","72","","18","","4","","24.1","","100.07","","","","-11","","Clear"
"1996-02-16 22:00","1996","02","16","22:00","-9.8","","-13.1","","77","","35","","6","","24.1","","100.01","","","","-13","","Clear"
"1996-02-16 23:00","1996","02","16","23:00","-10.0","","-13.0","","79","","2","","4","","24.1","","99.97","","","","-12","","Clear"
"1996-02-17 00:00","1996","02","17","00:00"
"1996-02-17 01:00","1996","02","17","01:00"
"1996-02-17 02:00","1996","02","17","02:00"
"1996-02-17 03:00","1996","02","17","03:00"
"1996-02-17 04:00","1996","02","17","04:00"
"1996-02-17 05:00","1996","02","17","05:00"
"1996-02-17 06:00","1996","02","17","06:00","-13.5","","-16.8","","76","","32","","7","","24.1","","99.67","","","","-18","","Mainly Clear"
"1996-02-17 07:00","1996","02","17","07:00","-13.6","","-16.7","","77","","28","","7","","24.1","","99.64","","","","-18","","Mainly Clear"
"1996-02-17 08:00","1996","02","17","08:00","-12.9","","-16.0","","78","","27","","4","","24.1","","99.60","","","","-16","","Mainly Clear"
"1996-02-17 09:00","1996","02","17","09:00","-10.8","","-14.7","","73","","28","","11","","24.1","","99.60","","","","-17","","Mainly Clear"
"1996-02-17 10:00","1996","02","17","10:00","-9.2","","-13.2","","73","","23","","7","","24.1","","99.50","","","","-13","","Mainly Clear"
"1996-02-17 11:00","1996","02","17","11:00","-7.6","","-12.1","","70","","24","","15","","24.1","","99.44","","","","-14","","Mostly Cloudy"
"1996-02-17 12:00","1996","02","17","12:00","-6.1","","-11.8","","64","","24","","13","","24.1","","99.34","","","","-11","","Mostly Cloudy"
"1996-02-17 13:00","1996","02","17","13:00","-5.5","","-10.9","","66","","23","","4","","24.1","","99.17","","","","-7","","Snow Showers"
"1996-02-17 14:00","1996","02","17","14:00","-4.9","","-8.4","","76","","24","","20","","19.3","","99.10","","","","-11","","Mostly Cloudy"
"1996-02-17 15:00","1996","02","17","15:00","-4.9","","-10.6","","64","","23","","22","","19.3","","99.03","","","","-12","","Mostly Cloudy"
"1996-02-17 16:00","1996","02","17","16:00","-4.9","","-8.9","","73","","23","","17","","19.3","","98.93","","","","-11","","Cloudy"
"1996-02-17 17:00","1996","02","17","17:00","-5.0","","-7.4","","83","","24","","7","","11.3","","98.93","","","","-8","","Snow Showers"
"1996-02-17 18:00","1996","02","17","18:00","-5.5","","-9.3","","75","","25","","7","","16.1","","98.90","","","","-9","","Mostly Cloudy"
"1996-02-17 19:00","1996","02","17","19:00","-5.4","","-9.8","","71","","26","","13","","24.1","","98.87","","","","-11","","Mostly Cloudy"
"1996-02-17 20:00","1996","02","17","20:00","-5.3","","-10.7","","66","","29","","13","","24.1","","98.87","","","","-10","","Mainly Clear"
"1996-02-17 21:00","1996","02","17","21:00","-5.9","","-10.0","","73","","28","","7","","24.1","","98.87","","","","-9","","Mainly Clear"
"1996-02-17 22:00","1996","02","17","22:00","-7.0","","-10.0","","79","","31","","11","","24.1","","98.83","","","","-12","","Mainly Clear"
"1996-02-17 23:00","1996","02","17","23:00","-6.9","","-9.6","","81","","31","","7","","24.1","","98.83","","","","-10","","Mainly Clear"
"1996-02-18 00:00","1996","02","18","00:00"
"1996-02-18 01:00","1996","02","18","01:00"
"1996-02-18 02:00","1996","02","18","02:00"
"1996-02-18 03:00","1996","02","18","03:00"
"1996-02-18 04:00","1996","02","18","04:00"
"1996-02-18 05:00","1996","02","18","05:00"
"1996-02-18 06:00","1996","02","18","06:00","-13.4","","-18.2","","67","","33","","22","","24.1","","99.30","","","","-23","","Mainly Clear"
"1996-02-18 07:00","1996","02","18","07:00","-15.4","","-20.9","","63","","33","","9","","24.1","","99.50","","","","-21","","Mainly Clear"
"1996-02-18 08:00","1996","02","18","08:00","-16.2","","-22.0","","61","","34","","19","","24.1","","99.67","","","","-25","","Mainly Clear"
"1996-02-18 09:00","1996","02","18","09:00","-15.8","","-21.9","","59","","34","","19","","24.1","","99.81","","","","-25","","Mainly Clear"
"1996-02-18 10:00","1996","02","18","10:00","-15.4","","-23.7","","49","","32","","19","","24.1","","99.94","","","","-24","","Mainly Clear"
"1996-02-18 11:00","1996","02","18","11:00","-15.0","","-23.8","","47","","30","","22","","24.1","","100.01","","","","-25","","Mainly Clear"
"1996-02-18 12:00","1996","02","18","12:00","-14.2","","-23.0","","47","","28","","15","","24.1","","100.01","","","","-22","","Mainly Clear"
"1996-02-18 13:00","1996","02","18","13:00","-13.1","","-22.1","","47","","25","","19","","24.1","","100.01","","","","-22","","Mainly Clear"
"1996-02-18 14:00","1996","02","18","14:00","-12.4","","-21.0","","49","","24","","19","","24.1","","99.97","","","","-21","","Mainly Clear"
"1996-02-18 15:00","1996","02","18","15:00","-12.1","","-21.6","","45","","24","","22","","24.1","","100.01","","","","-21","","Mainly Clear"
"1996-02-18 16:00","1996","02","18","16:00","-12.2","","-22.3","","43","","25","","22","","24.1","","100.07","","","","-21","","Mainly Clear"
"1996-02-18 17:00","1996","02","18","17:00","-12.6","","-22.7","","43","","25","","24","","24.1","","100.14","","","","-22","","Mainly Clear"
"1996-02-18 18:00","1996","02","18","18:00","-13.3","","-24.3","","39","","28","","22","","24.1","","100.21","","","","-22","","Mainly Clear"
"1996-02-18 19:00","1996","02","18","19:00","-13.4","","-24.0","","40","","26","","19","","24.1","","100.38","","","","-22","","Clear"
"1996-02-18 20:00","1996","02","18","20:00","-13.7","","-23.6","","43","","28","","13","","24.1","","100.51","","","","-21","","Clear"
"1996-02-18 21:00","1996","02","18","21:00","-14.1","","-23.4","","45","","33","","6","","24.1","","100.54","","","","-18","","Clear"
"1996-02-18 22:00","1996","02","18","22:00","-15.3","","-22.9","","52","","","","0","","24.1","","100.61","","","","","","Clear"
"1996-02-18 23:00","1996","02","18","23:00","-14.9","","-22.5","","52","","","","0","","24.1","","100.64","","","","","","Mainly Clear"
"1996-02-19 00:00","1996","02","19","00:00"
"1996-02-19 01:00","1996","02","19","01:00"
"1996-02-19 02:00","1996","02","19","02:00"
"1996-02-19 03:00","1996","02","19","03:00"
"1996-02-19 04:00","1996","02","19","04:00"
"1996-02-19 05:00","1996","02","19","05:00"
"1996-02-19 06:00","1996","02","19","06:00","-11.8","","-13.9","","84","","7","","19","","8.0","","100.85","","","","-20","","Snow Showers"
"1996-02-19 07:00","1996","02","19","07:00","-9.9","","-12.4","","82","","14","","19","","16.1","","100.85","","","","-18","","Snow Showers"
"1996-02-19 08:00","1996","02","19","08:00","-9.8","","-13.1","","77","","16","","19","","24.1","","100.91","","","","-17","","Snow Showers"
"1996-02-19 09:00","1996","02","19","09:00","-9.1","","-12.8","","74","","15","","22","","24.1","","100.95","","","","-17","","Cloudy"
"1996-02-19 10:00","1996","02","19","10:00","-8.2","","-11.9","","75","","15","","19","","24.1","","101.01","","","","-15","","Cloudy"
"1996-02-19 11:00","1996","02","19","11:00","-7.1","","-11.6","","70","","15","","19","","24.1","","101.11","","","","-14","","Cloudy"
"1996-02-19 12:00","1996","02","19","12:00","-6.2","","-11.1","","68","","15","","22","","24.1","","100.98","","","","-13","","Cloudy"
"1996-02-19 13:00","1996","02","19","13:00","-4.9","","-10.0","","67","","16","","19","","24.1","","100.91","","","","-11","","Mostly Cloudy"
"1996-02-19 14:00","1996","02","19","14:00","-2.9","","-8.8","","64","","16","","19","","24.1","","100.85","","","","-9","","Mostly Cloudy"
"1996-02-19 15:00","1996","02","19","15:00","-2.5","","-8.1","","65","","16","","15","","24.1","","100.85","","","","-7","","Mainly Clear"
"1996-02-19 16:00","1996","02","19","16:00","-2.3","","-7.6","","67","","16","","9","","24.1","","100.81","","","","-6","","Mainly Clear"
"1996-02-19 17:00","1996","02","19","17:00","-1.9","","-8.2","","62","","15","","11","","24.1","","100.81","","","","-6","","Mostly Cloudy"
"1996-02-19 18:00","1996","02","19","18:00","-2.3","","-7.0","","70","","15","","15","","24.1","","100.81","","","","-7","","Mostly Cloudy"
"1996-02-19 19:00","1996","02","19","19:00","-1.9","","-6.1","","73","","16","","22","","24.1","","100.81","","","","-8","","Cloudy"
"1996-02-19 20:00","1996","02","19","20:00","-1.2","","-4.8","","76","","16","","26","","24.1","","100.78","","","","-8","","Cloudy"
"1996-02-19 21:00","1996","02","19","21:00","-0.7","","-4.1","","78","","16","","28","","24.1","","100.78","","","","-7","","Cloudy"
"1996-02-19 22:00","1996","02","19","22:00","-0.5","","-3.6","","80","","16","","22","","24.1","","100.78","","","","-6","","Cloudy"
"1996-02-19 23:00","1996","02","19","23:00","-0.2","","-3.2","","80","","16","","19","","24.1","","100.78","","","","-5","","Cloudy"
"1996-02-20 00:00","1996","02","20","00:00"
"1996-02-20 01:00","1996","02","20","01:00"
"1996-02-20 02:00","1996","02","20","02:00"
"1996-02-20 03:00","1996","02","20","03:00"
"1996-02-20 04:00","1996","02","20","04:00"
"1996-02-20 05:00","1996","02","20","05:00"
"1996-02-20 06:00","1996","02","20","06:00","1.7","","-0.2","","87","","16","","28","","12.9","","100.78","","","","","","Rain"
"1996-02-20 07:00","1996","02","20","07:00","1.8","","0.7","","92","","17","","28","","4.8","","100.78","","","","","","Rain,Fog"
"1996-02-20 08:00","1996","02","20","08:00","2.0","","1.2","","94","","16","","26","","4.8","","100.85","","","","","","Rain,Fog"
"1996-02-20 09:00","1996","02","20","09:00","2.2","","1.3","","94","","17","","22","","4.8","","100.81","","","","","","Rain,Fog"
"1996-02-20 10:00","1996","02","20","10:00","2.5","","1.6","","94","","17","","22","","8.0","","100.78","","","","","","Rain,Fog"
"1996-02-20 11:00","1996","02","20","11:00","2.7","","1.9","","94","","17","","22","","8.0","","100.75","","","","","","Rain,Fog"
"1996-02-20 12:00","1996","02","20","12:00","2.7","","2.1","","96","","17","","22","","9.7","","100.71","","","","","","Rain,Fog"
"1996-02-20 13:00","1996","02","20","13:00","3.0","","2.3","","95","","17","","22","","6.4","","100.64","","","","","","Rain,Fog"
"1996-02-20 14:00","1996","02","20","14:00","3.0","","2.3","","95","","17","","22","","6.4","","100.64","","","","","","Rain,Fog"
"1996-02-20 15:00","1996","02","20","15:00","2.5","","2.0","","96","","17","","22","","6.4","","100.64","","","","","","Rain,Fog"
"1996-02-20 16:00","1996","02","20","16:00","2.6","","2.1","","96","","19","","15","","4.8","","100.64","","","","","","Rain,Fog"
"1996-02-20 17:00","1996","02","20","17:00","2.3","","2.1","","99","","17","","13","","1.2","","100.64","","","","","","Rain,Fog"
"1996-02-20 18:00","1996","02","20","18:00","2.5","","2.3","","99","","16","","11","","0.4","","100.61","","","","","","Rain,Fog"
"1996-02-20 19:00","1996","02","20","19:00","3.0","","3.0","","100","","15","","15","","2.4","","100.61","","","","","","Rain,Fog"
"1996-02-20 20:00","1996","02","20","20:00","2.6","","2.4","","99","","18","","9","","0.4","","100.61","","","","","","Rain,Fog"
"1996-02-20 21:00","1996","02","20","21:00","4.4","","3.8","","96","","17","","22","","3.2","","100.64","","","","","","Rain,Fog"
"1996-02-20 22:00","1996","02","20","22:00","4.6","","4.4","","99","","","","0","","0.4","","100.54","","","","","","Rain,Fog"
"1996-02-20 23:00","1996","02","20","23:00","5.0","","5.0","","100","","14","","6","","3.2","","100.51","","","","","","Rain,Fog"
"1996-02-21 00:00","1996","02","21","00:00"
"1996-02-21 01:00","1996","02","21","01:00"
"1996-02-21 02:00","1996","02","21","02:00"
"1996-02-21 03:00","1996","02","21","03:00"
"1996-02-21 04:00","1996","02","21","04:00"
"1996-02-21 05:00","1996","02","21","05:00"
"1996-02-21 06:00","1996","02","21","06:00","4.0","","4.0","","100","","","","0","","0.4","","100.41","","","","","","Fog"
"1996-02-21 07:00","1996","02","21","07:00","1.4","","1.1","","98","","21","","9","","0.4","","100.48","","","","","","Fog"
"1996-02-21 08:00","1996","02","21","08:00","3.3","","3.2","","99","","29","","4","","0.2","","100.58","","","","","","Fog"
"1996-02-21 09:00","1996","02","21","09:00","3.1","","2.6","","97","","23","","6","","0.4","","100.61","","","","","","Fog"
"1996-02-21 10:00","1996","02","21","10:00","4.0","","3.7","","98","","28","","6","","0.4","","100.71","","","","","","Fog"
"1996-02-21 11:00","1996","02","21","11:00","5.8","","5.8","","100","","34","","9","","2.4","","100.71","","","","","","Fog"
"1996-02-21 12:00","1996","02","21","12:00","7.1","","7.1","","100","","5","","7","","16.1","","100.71","","","","","","Cloudy"
"1996-02-21 13:00","1996","02","21","13:00","7.1","","6.6","","97","","5","","11","","16.1","","100.64","","","","","","Cloudy"
"1996-02-21 14:00","1996","02","21","14:00","6.7","","5.9","","95","","5","","11","","19.3","","100.68","","","","","","Cloudy"
"1996-02-21 15:00","1996","02","21","15:00","5.1","","4.2","","94","","3","","19","","24.1","","100.68","","","","","","Cloudy"
"1996-02-21 16:00","1996","02","21","16:00","4.0","","3.0","","93","","3","","11","","11.3","","100.71","","","","","","Cloudy"
"1996-02-21 17:00","1996","02","21","17:00","3.2","","2.1","","92","","4","","17","","11.3","","100.71","","","","","","Cloudy"
"1996-02-21 18:00","1996","02","21","18:00","1.5","","1.4","","99","","1","","15","","4.8","","100.75","","","","","","Drizzle,Fog"
"1996-02-21 19:00","1996","02","21","19:00","1.9","","0.9","","93","","2","","15","","6.4","","100.81","","","","","","Drizzle,Fog"
"1996-02-21 20:00","1996","02","21","20:00","1.3","","0.1","","92","","3","","19","","8.0","","100.81","","","","","","Rain Showers,Fog"
"1996-02-21 21:00","1996","02","21","21:00","1.1","","-0.2","","91","","2","","22","","9.7","","100.81","","","","","","Fog"
"1996-02-21 22:00","1996","02","21","22:00","0.8","","-0.6","","90","","3","","24","","11.3","","100.78","","","","","","Cloudy"
"1996-02-21 23:00","1996","02","21","23:00","0.7","","-0.8","","90","","2","","19","","11.3","","100.78","","","","","","Cloudy"
"1996-02-22 00:00","1996","02","22","00:00"
"1996-02-22 01:00","1996","02","22","01:00"
"1996-02-22 02:00","1996","02","22","02:00"
"1996-02-22 03:00","1996","02","22","03:00"
"1996-02-22 04:00","1996","02","22","04:00"
"1996-02-22 05:00","1996","02","22","05:00"
"1996-02-22 06:00","1996","02","22","06:00","-0.4","","-2.6","","85","","3","","19","","24.1","","100.71","","","","-6","","Cloudy"
"1996-02-22 07:00","1996","02","22","07:00","-0.4","","-2.7","","84","","3","","19","","24.1","","100.71","","","","-6","","Cloudy"
"1996-02-22 08:00","1996","02","22","08:00","-0.7","","-2.6","","87","","2","","11","","24.1","","100.71","","","","-4","","Cloudy"
"1996-02-22 09:00","1996","02","22","09:00","-0.7","","-2.6","","87","","2","","19","","24.1","","100.71","","","","-6","","Cloudy"
"1996-02-22 10:00","1996","02","22","10:00","-0.6","","-2.7","","86","","1","","19","","11.3","","100.75","","","","-6","","Freezing Drizzle"
"1996-02-22 11:00","1996","02","22","11:00","-0.3","","-2.2","","87","","36","","11","","11.3","","100.71","","","","-4","","Freezing Rain"
"1996-02-22 12:00","1996","02","22","12:00","-0.2","","-1.8","","89","","36","","9","","11.3","","100.68","","","","-3","","Freezing Rain"
"1996-02-22 13:00","1996","02","22","13:00","0.3","","-1.4","","88","","1","","13","","11.3","","100.64","","","","","","Rain"
"1996-02-22 14:00","1996","02","22","14:00","0.5","","-0.9","","90","","1","","7","","11.3","","100.61","","","","","","Cloudy"
"1996-02-22 15:00","1996","02","22","15:00","0.8","","-0.8","","89","","3","","7","","11.3","","100.61","","","","","","Cloudy"
"1996-02-22 16:00","1996","02","22","16:00","0.7","","-1.0","","88","","1","","7","","16.1","","100.61","","","","","","Cloudy"
"1996-02-22 17:00","1996","02","22","17:00","0.5","","-1.5","","86","","2","","7","","16.1","","100.61","","","","","","Cloudy"
"1996-02-22 18:00","1996","02","22","18:00","0.4","","-1.5","","87","","36","","9","","11.3","","100.64","","","","","","Cloudy"
"1996-02-22 19:00","1996","02","22","19:00","0.4","","-1.4","","88","","36","","6","","9.7","","100.68","","","","","","Fog"
"1996-02-22 20:00","1996","02","22","20:00","0.4","","-1.1","","90","","2","","7","","12.9","","100.64","","","","","","Cloudy"
"1996-02-22 21:00","1996","02","22","21:00","0.5","","-0.9","","90","","3","","6","","12.9","","100.71","","","","","","Cloudy"
"1996-02-22 22:00","1996","02","22","22:00","0.4","","-0.9","","91","","","","0","","12.9","","100.68","","","","","","Cloudy"
"1996-02-22 23:00","1996","02","22","23:00","0.3","","-0.9","","92","","26","","6","","12.9","","100.71","","","","","","Cloudy"
"1996-02-23 00:00","1996","02","23","00:00"
"1996-02-23 01:00","1996","02","23","01:00"
"1996-02-23 02:00","1996","02","23","02:00"
"1996-02-23 03:00","1996","02","23","03:00"
"1996-02-23 04:00","1996","02","23","04:00"
"1996-02-23 05:00","1996","02","23","05:00"
"1996-02-23 06:00","1996","02","23","06:00","0.4","","-0.9","","91","","","","0","","24.1","","100.61","","","","","","Cloudy"
"1996-02-23 07:00","1996","02","23","07:00","0.7","","-0.9","","89","","","","0","","19.3","","100.61","","","","","","Cloudy"
"1996-02-23 08:00","1996","02","23","08:00","1.1","","-1.1","","85","","7","","4","","11.3","","100.54","","","","","","Cloudy"
"1996-02-23 09:00","1996","02","23","09:00","1.6","","-0.6","","85","","7","","7","","6.4","","100.54","","","","","","Fog"
"1996-02-23 10:00","1996","02","23","10:00","1.9","","0.5","","90","","7","","9","","6.4","","100.51","","","","","","Fog"
"1996-02-23 11:00","1996","02","23","11:00","1.5","","0.4","","92","","14","","6","","8.0","","100.44","","","","","","Fog"
"1996-02-23 12:00","1996","02","23","12:00","1.7","","0.5","","92","","14","","11","","8.0","","100.41","","","","","","Fog"
"1996-02-23 13:00","1996","02","23","13:00","2.1","","0.9","","92","","12","","9","","8.0","","100.28","","","","","","Fog"
"1996-02-23 14:00","1996","02","23","14:00","3.0","","1.6","","90","","15","","6","","8.0","","100.18","","","","","","Fog"
"1996-02-23 15:00","1996","02","23","15:00","3.7","","2.1","","89","","9","","11","","6.4","","100.11","","","","","","Fog"
"1996-02-23 16:00","1996","02","23","16:00","4.2","","2.4","","88","","7","","19","","8.0","","99.97","","","","","","Fog"
"1996-02-23 17:00","1996","02","23","17:00","4.0","","2.5","","90","","7","","11","","9.7","","99.94","","","","","","Fog"
"1996-02-23 18:00","1996","02","23","18:00","3.7","","2.3","","91","","6","","13","","6.4","","99.84","","","","","","Fog"
"1996-02-23 19:00","1996","02","23","19:00","3.2","","1.7","","90","","5","","15","","9.7","","99.77","","","","","","Fog"
"1996-02-23 20:00","1996","02","23","20:00","3.3","","1.9","","91","","7","","19","","9.7","","99.64","","","","","","Fog"
"1996-02-23 21:00","1996","02","23","21:00","3.6","","2.5","","93","","8","","19","","9.7","","99.44","","","","","","Fog"
"1996-02-23 22:00","1996","02","23","22:00","4.8","","3.2","","89","","9","","19","","12.9","","99.24","","","","","","Cloudy"
"1996-02-23 23:00","1996","02","23","23:00","5.1","","3.2","","88","","8","","22","","12.9","","99.03","","","","","","Cloudy"
"1996-02-24 00:00","1996","02","24","00:00"
"1996-02-24 01:00","1996","02","24","01:00"
"1996-02-24 02:00","1996","02","24","02:00"
"1996-02-24 03:00","1996","02","24","03:00"
"1996-02-24 04:00","1996","02","24","04:00"
"1996-02-24 05:00","1996","02","24","05:00"
"1996-02-24 06:00","1996","02","24","06:00","4.8","","3.9","","94","","21","","28","","4.0","","98.19","","","","","","Rain Showers,Fog"
"1996-02-24 07:00","1996","02","24","07:00","5.5","","3.8","","89","","24","","37","","8.0","","98.30","","","","","","Fog"
"1996-02-24 08:00","1996","02","24","08:00","4.5","","1.5","","81","","24","","37","","11.3","","98.33","","","","","","Cloudy"
"1996-02-24 09:00","1996","02","24","09:00","3.8","","0.8","","81","","25","","46","","11.3","","98.40","","","","","","Mostly Cloudy"
"1996-02-24 10:00","1996","02","24","10:00","3.1","","0.5","","83","","25","","46","","19.3","","98.46","","","","","","Rain Showers"
"1996-02-24 11:00","1996","02","24","11:00","3.0","","0.2","","82","","25","","46","","11.3","","98.50","","","","","","Rain Showers"
"1996-02-24 12:00","1996","02","24","12:00","2.7","","-0.1","","82","","24","","37","","16.1","","98.50","","","","","","Cloudy"
"1996-02-24 13:00","1996","02","24","13:00","2.4","","0.3","","86","","24","","37","","11.3","","98.53","","","","","","Rain Showers"
"1996-02-24 14:00","1996","02","24","14:00","2.5","","0.0","","84","","24","","37","","12.9","","98.56","","","","","","Rain Showers"
"1996-02-24 15:00","1996","02","24","15:00","2.2","","0.1","","86","","24","","37","","9.7","","98.56","","","","","","Rain Showers,Snow Showers"
"1996-02-24 16:00","1996","02","24","16:00","2.3","","-0.2","","84","","25","","33","","19.3","","98.63","","","","","","Rain Showers"
"1996-02-24 17:00","1996","02","24","17:00","2.3","","-0.3","","83","","25","","33","","11.3","","98.70","","","","","","Rain Showers"
"1996-02-24 18:00","1996","02","24","18:00","1.3","","-0.2","","90","","25","","22","","8.0","","98.77","","","","","","Rain Showers,Fog"
"1996-02-24 19:00","1996","02","24","19:00","2.4","","-1.0","","78","","26","","28","","19.3","","98.77","","","","","","Cloudy"
"1996-02-24 20:00","1996","02","24","20:00","3.0","","-2.0","","70","","27","","37","","19.3","","98.77","","","","","","Cloudy"
"1996-02-24 21:00","1996","02","24","21:00","3.3","","-2.4","","66","","27","","28","","24.1","","98.80","","","","","","Cloudy"
"1996-02-24 22:00","1996","02","24","22:00","3.3","","-2.9","","64","","27","","37","","24.1","","98.83","","","","","","Cloudy"
"1996-02-24 23:00","1996","02","24","23:00","3.2","","-3.2","","63","","30","","33","","24.1","","98.90","","","","","","Mostly Cloudy"
"1996-02-25 00:00","1996","02","25","00:00"
"1996-02-25 01:00","1996","02","25","01:00"
"1996-02-25 02:00","1996","02","25","02:00"
"1996-02-25 03:00","1996","02","25","03:00"
"1996-02-25 04:00","1996","02","25","04:00"
"1996-02-25 05:00","1996","02","25","05:00"
"1996-02-25 06:00","1996","02","25","06:00","1.5","","-6.6","","55","","27","","19","","24.1","","99.34","","","","","","Mainly Clear"
"1996-02-25 07:00","1996","02","25","07:00","1.1","","-6.9","","55","","27","","19","","24.1","","99.44","","","","","","Mainly Clear"
"1996-02-25 08:00","1996","02","25","08:00","1.1","","-6.9","","55","","27","","24","","24.1","","99.50","","","","","","Mainly Clear"
"1996-02-25 09:00","1996","02","25","09:00","2.5","","-6.7","","51","","28","","22","","24.1","","99.57","","","","","","Mainly Clear"
"1996-02-25 10:00","1996","02","25","10:00","3.9","","-6.9","","45","","29","","19","","24.1","","99.60","","","","","","Mainly Clear"
"1996-02-25 11:00","1996","02","25","11:00","5.8","","-7.0","","39","","30","","19","","24.1","","99.60","","","","","","Clear"
"1996-02-25 12:00","1996","02","25","12:00","6.9","","-7.8","","34","","27","","28","","24.1","","99.60","","","","","","Clear"
"1996-02-25 13:00","1996","02","25","13:00","8.5","","-7.8","","31","","30","","28","","24.1","","99.57","","","","","","Clear"
"1996-02-25 14:00","1996","02","25","14:00","8.8","","-8.1","","29","","28","","28","","24.1","","99.57","","","","","","Clear"
"1996-02-25 15:00","1996","02","25","15:00","9.1","","-7.0","","31","","30","","22","","24.1","","99.57","","","","","","Clear"
"1996-02-25 16:00","1996","02","25","16:00","7.6","","-4.8","","41","","28","","22","","24.1","","99.60","","","","","","Clear"
"1996-02-25 17:00","1996","02","25","17:00","6.6","","-5.1","","43","","27","","22","","24.1","","99.67","","","","","","Clear"
"1996-02-25 18:00","1996","02","25","18:00","4.5","","-5.7","","47","","27","","19","","24.1","","99.77","","","","","","Mainly Clear"
"1996-02-25 19:00","1996","02","25","19:00","3.2","","-5.3","","54","","27","","19","","24.1","","99.87","","","","","","Clear"
"1996-02-25 20:00","1996","02","25","20:00","2.2","","-5.1","","58","","27","","15","","24.1","","99.94","","","","","","Clear"
"1996-02-25 21:00","1996","02","25","21:00","1.3","","-4.9","","63","","27","","19","","24.1","","100.04","","","","","","Clear"
"1996-02-25 22:00","1996","02","25","22:00","0.4","","-4.9","","68","","27","","13","","24.1","","100.11","","","","","","Clear"
"1996-02-25 23:00","1996","02","25","23:00","-0.2","","-3.9","","76","","25","","9","","24.1","","100.14","","","","-3","","Clear"
"1996-02-26 00:00","1996","02","26","00:00"
"1996-02-26 01:00","1996","02","26","01:00"
"1996-02-26 02:00","1996","02","26","02:00"
"1996-02-26 03:00","1996","02","26","03:00"
"1996-02-26 04:00","1996","02","26","04:00"
"1996-02-26 05:00","1996","02","26","05:00"
"1996-02-26 06:00","1996","02","26","06:00","-3.9","","-6.3","","83","","29","","9","","24.1","","100.44","","","","-8","","Clear"
"1996-02-26 07:00","1996","02","26","07:00","-5.0","","-7.0","","86","","33","","7","","24.1","","100.51","","","","-8","","Mainly Clear"
"1996-02-26 08:00","1996","02","26","08:00","-1.8","","-6.3","","71","","2","","17","","24.1","","100.58","","","","-7","","Mainly Clear"
"1996-02-26 09:00","1996","02","26","09:00","-1.2","","-6.7","","66","","2","","19","","24.1","","100.58","","","","-7","","Mainly Clear"
"1996-02-26 10:00","1996","02","26","10:00","-1.0","","-7.3","","62","","3","","19","","24.1","","100.61","","","","-6","","Mainly Clear"
"1996-02-26 11:00","1996","02","26","11:00","0.2","","-8.2","","53","","8","","19","","24.1","","100.61","","","","","","Mainly Clear"
"1996-02-26 12:00","1996","02","26","12:00","1.6","","-8.1","","48","","33","","6","","24.1","","100.61","","","","","","Mainly Clear"
"1996-02-26 13:00","1996","02","26","13:00","2.3","","-6.9","","51","","34","","9","","24.1","","100.58","","","","","","Mainly Clear"
"1996-02-26 14:00","1996","02","26","14:00","1.0","","-4.2","","68","","21","","9","","24.1","","100.51","","","","","","Mainly Clear"
"1996-02-26 15:00","1996","02","26","15:00","-0.2","","-4.1","","75","","18","","17","","24.1","","100.48","","","","-5","","Mainly Clear"
"1996-02-26 16:00","1996","02","26","16:00","0.5","","-3.8","","73","","19","","11","","24.1","","100.44","","","","","","Mainly Clear"
"1996-02-26 17:00","1996","02","26","17:00","0.8","","-4.2","","69","","21","","9","","24.1","","100.48","","","","","","Mainly Clear"
"1996-02-26 18:00","1996","02","26","18:00","-0.7","","-3.3","","83","","21","","9","","24.1","","100.54","","","","-4","","Clear"
"1996-02-26 19:00","1996","02","26","19:00","-0.8","","-3.1","","84","","21","","7","","24.1","","100.61","","","","-3","","Clear"
"1996-02-26 20:00","1996","02","26","20:00","-1.5","","-4.5","","80","","","","0","","24.1","","100.68","","","","","","Clear"
"1996-02-26 21:00","1996","02","26","21:00","-1.7","","-4.2","","83","","","","0","","24.1","","100.71","","","","","","Clear"
"1996-02-26 22:00","1996","02","26","22:00","-1.4","","-4.5","","79","","5","","7","","24.1","","100.71","","","","-4","","Clear"
"1996-02-26 23:00","1996","02","26","23:00","-2.1","","-6.3","","73","","5","","6","","24.1","","100.75","","","","-4","","Clear"
"1996-02-27 00:00","1996","02","27","00:00"
"1996-02-27 01:00","1996","02","27","01:00"
"1996-02-27 02:00","1996","02","27","02:00"
"1996-02-27 03:00","1996","02","27","03:00"
"1996-02-27 04:00","1996","02","27","04:00"
"1996-02-27 05:00","1996","02","27","05:00"
"1996-02-27 06:00","1996","02","27","06:00","-5.8","","-9.1","","77","","4","","9","","24.1","","100.64","","","","-10","","Mainly Clear"
"1996-02-27 07:00","1996","02","27","07:00","-5.6","","-9.0","","77","","3","","4","","24.1","","100.71","","","","-7","","Mainly Clear"
"1996-02-27 08:00","1996","02","27","08:00","-4.3","","-8.5","","72","","7","","9","","24.1","","100.64","","","","-8","","Mainly Clear"
"1996-02-27 09:00","1996","02","27","09:00","-2.6","","-7.7","","68","","7","","19","","24.1","","100.54","","","","-8","","Mainly Clear"
"1996-02-27 10:00","1996","02","27","10:00","-0.9","","-7.4","","61","","8","","17","","24.1","","100.48","","","","-6","","Mostly Cloudy"
"1996-02-27 11:00","1996","02","27","11:00","-1.1","","-6.9","","65","","10","","11","","24.1","","100.38","","","","-5","","Cloudy"
"1996-02-27 12:00","1996","02","27","12:00","0.2","","-7.6","","56","","7","","7","","24.1","","100.31","","","","","","Cloudy"
"1996-02-27 13:00","1996","02","27","13:00","-0.5","","-7.5","","59","","5","","11","","24.1","","100.18","","","","-4","","Cloudy"
"1996-02-27 14:00","1996","02","27","14:00","0.2","","-7.7","","55","","5","","20","","24.1","","100.01","","","","","","Cloudy"
"1996-02-27 15:00","1996","02","27","15:00","-0.2","","-7.2","","59","","4","","24","","24.1","","99.91","","","","-6","","Cloudy"
"1996-02-27 16:00","1996","02","27","16:00","0.0","","-6.8","","60","","5","","22","","19.3","","99.71","","","","-6","","Rain Showers"
"1996-02-27 17:00","1996","02","27","17:00","-0.2","","-5.7","","66","","6","","19","","19.3","","99.71","","","","-5","","Freezing Rain"
"1996-02-27 18:00","1996","02","27","18:00","-0.2","","-4.4","","73","","8","","15","","19.3","","99.60","","","","-5","","Freezing Rain"
"1996-02-27 19:00","1996","02","27","19:00","-0.9","","-4.6","","76","","13","","19","","24.1","","99.30","","","","-6","","Mostly Cloudy"
"1996-02-27 20:00","1996","02","27","20:00","-0.3","","-3.6","","78","","35","","19","","24.1","","99.44","","","","-5","","Cloudy"
"1996-02-27 21:00","1996","02","27","21:00","0.1","","-3.4","","77","","2","","11","","24.1","","99.37","","","","","","Cloudy"
"1996-02-27 22:00","1996","02","27","22:00","-0.1","","-4.5","","72","","5","","9","","24.1","","99.27","","","","-3","","Cloudy"
"1996-02-27 23:00","1996","02","27","23:00","-0.3","","-4.7","","72","","6","","11","","24.1","","99.17","","","","-4","","Cloudy"
"1996-02-28 00:00","1996","02","28","00:00"
"1996-02-28 01:00","1996","02","28","01:00"
"1996-02-28 02:00","1996","02","28","02:00"
"1996-02-28 03:00","1996","02","28","03:00"
"1996-02-28 04:00","1996","02","28","04:00"
"1996-02-28 05:00","1996","02","28","05:00"
"1996-02-28 06:00","1996","02","28","06:00","1.1","","0.2","","94","","28","","19","","6.4","","98.66","","","","","","Fog"
"1996-02-28 07:00","1996","02","28","07:00","1.4","","0.3","","92","","29","","13","","6.4","","98.66","","","","","","Fog"
"1996-02-28 08:00","1996","02","28","08:00","1.3","","0.2","","92","","24","","17","","6.4","","98.80","","","","","","Fog"
"1996-02-28 09:00","1996","02","28","09:00","1.7","","0.3","","90","","24","","19","","9.7","","98.80","","","","","","Fog"
"1996-02-28 10:00","1996","02","28","10:00","2.1","","-2.3","","73","","28","","28","","12.9","","98.80","","","","","","Cloudy"
"1996-02-28 11:00","1996","02","28","11:00","2.2","","-3.2","","67","","29","","22","","16.1","","98.77","","","","","","Cloudy"
"1996-02-28 12:00","1996","02","28","12:00","1.5","","-3.2","","71","","27","","22","","24.1","","98.77","","","","","","Mostly Cloudy"
"1996-02-28 13:00","1996","02","28","13:00","1.2","","-2.5","","76","","26","","19","","24.1","","98.73","","","","","","Mostly Cloudy"
"1996-02-28 14:00","1996","02","28","14:00","1.2","","-1.3","","83","","24","","22","","4.8","","98.63","","","","","","Snow Showers"
"1996-02-28 15:00","1996","02","28","15:00","0.1","","-0.9","","93","","28","","22","","0.4","","98.63","","","","","","Heavy Snow Showers"
"1996-02-28 16:00","1996","02","28","16:00","-1.3","","-4.3","","80","","28","","19","","24.1","","98.73","","","","-7","","Cloudy"
"1996-02-28 17:00","1996","02","28","17:00","-1.3","","-6.8","","66","","27","","32","","24.1","","98.83","","","","-8","","Mostly Cloudy"
"1996-02-28 18:00","1996","02","28","18:00","-2.0","","-7.7","","65","","27","","28","","24.1","","98.97","","","","-9","","Cloudy"
"1996-02-28 19:00","1996","02","28","19:00","-3.1","","-9.2","","63","","27","","28","","16.1","","99.17","","","","-10","","Snow Showers"
"1996-02-28 20:00","1996","02","28","20:00","-4.6","","-7.2","","82","","28","","28","","1.6","","99.30","","","","-12","","Snow Showers"
"1996-02-28 21:00","1996","02","28","21:00","-4.9","","-9.3","","71","","32","","19","","8.0","","99.44","","","","-11","","Snow Showers"
"1996-02-28 22:00","1996","02","28","22:00","-7.3","","-12.6","","66","","33","","28","","19.3","","99.57","","","","-16","","Mostly Cloudy"
"1996-02-28 23:00","1996","02","28","23:00","-8.7","","-14.6","","62","","33","","22","","24.1","","99.71","","","","-17","","Cloudy"
"1996-02-29 00:00","1996","02","29","00:00"
"1996-02-29 01:00","1996","02","29","01:00"
"1996-02-29 02:00","1996","02","29","02:00"
"1996-02-29 03:00","1996","02","29","03:00"
"1996-02-29 04:00","1996","02","29","04:00"
"1996-02-29 05:00","1996","02","29","05:00"
"1996-02-29 06:00","1996","02","29","06:00","-14.9","","-19.7","","67","","31","","9","","24.1","","100.44","","","","-21","","Mainly Clear"
"1996-02-29 07:00","1996","02","29","07:00","-15.2","","-19.8","","68","","31","","11","","24.1","","100.51","","","","-22","","Mainly Clear"
"1996-02-29 08:00","1996","02","29","08:00","-14.7","","-20.1","","63","","33","","19","","24.1","","100.58","","","","-24","","Mainly Clear"
"1996-02-29 09:00","1996","02","29","09:00","-14.0","","-19.8","","61","","32","","19","","24.1","","100.61","","","","-23","","Mainly Clear"
"1996-02-29 10:00","1996","02","29","10:00","-13.0","","-20.0","","56","","33","","9","","24.1","","100.64","","","","-18","","Mainly Clear"
"1996-02-29 11:00","1996","02","29","11:00","-11.8","","-18.5","","57","","34","","15","","24.1","","100.64","","","","-19","","Mainly Clear"
"1996-02-29 12:00","1996","02","29","12:00","-10.6","","-19.1","","50","","24","","13","","24.1","","100.64","","","","-17","","Mainly Clear"
"1996-02-29 13:00","1996","02","29","13:00","-9.4","","-17.7","","51","","22","","19","","24.1","","100.61","","","","-17","","Mainly Clear"
"1996-02-29 14:00","1996","02","29","14:00","-9.0","","-17.2","","51","","22","","19","","24.1","","100.54","","","","-16","","Mainly Clear"
"1996-02-29 15:00","1996","02","29","15:00","-8.0","","-17.2","","48","","24","","22","","24.1","","100.54","","","","-16","","Mainly Clear"
"1996-02-29 16:00","1996","02","29","16:00","-7.9","","-17.2","","47","","25","","19","","24.1","","100.51","","","","-15","","Mainly Clear"
"1996-02-29 17:00","1996","02","29","17:00","-8.1","","-16.8","","50","","27","","19","","24.1","","100.51","","","","-15","","Mostly Cloudy"
"1996-02-29 18:00","1996","02","29","18:00","-8.4","","-17.3","","49","","27","","19","","24.1","","100.51","","","","-16","","Cloudy"
"1996-02-29 19:00","1996","02","29","19:00","-8.2","","-15.9","","54","","26","","19","","24.1","","100.51","","","","-15","","Cloudy"
"1996-02-29 20:00","1996","02","29","20:00","-8.2","","-15.6","","55","","26","","7","","24.1","","100.48","","","","-12","","Cloudy"
"1996-02-29 21:00","1996","02","29","21:00","-8.2","","-14.6","","60","","25","","7","","24.1","","100.41","","","","-12","","Cloudy"
"1996-02-29 22:00","1996","02","29","22:00","-8.3","","-13.2","","68","","22","","7","","24.1","","100.34","","","","-12","","Mostly Cloudy"
"1996-02-29 23:00","1996","02","29","23:00","-7.9","","-12.9","","67","","26","","11","","24.1","","100.34","","","","-13","","Mostly Cloudy"
