"Station Name","KINGSTON A"
"Province","ONTARIO"
"Latitude","44.22"
"Longitude","-76.60"
"Elevation","92.40"
"Climate Identifier","6104146"
"WMO Identifier",""
"TC Identifier","YGK"
"All times are specified in Local Standard Time (LST). Add 1 hour to adjust for Daylight Saving Time where and when it is observed."

"Legend"
"E","Estimated"
"M","Missing"
"NA","Not Available"

"Date/Time","Year","Month","Day","Time","Temp (°C)","Temp Flag","Dew Point Temp (°C)","Dew Point Temp Flag","Rel Hum (%)","Rel Hum Flag","Wind Dir (10s deg)","Wind Dir Flag","Wind Spd (km/h)","Wind Spd Flag","Visibility (km)","Visibility Flag","Stn Press (kPa)","Stn Press Flag","Hmdx","Hmdx Flag","Wind Chill","Wind Chill Flag","Weather"
"2007-02-01 00:00","2007","02","01","00:00"
"2007-02-01 01:00","2007","02","01","01:00"
"2007-02-01 02:00","2007","02","01","02:00"
"2007-02-01 03:00","2007","02","01","03:00"
"2007-02-01 04:00","2007","02","01","04:00"
"2007-02-01 05:00","2007","02","01","05:00"
"2007-02-01 06:00","2007","02","01","06:00","-3.2","","-7.9","","70","","21","","33","","24.1","","100.03","","","","-11","","Cloudy"
"2007-02-01 07:00","2007","02","01","07:00","-4.0","","-6.6","","82","","21","","30","","8.0","","100.05","","","","-12","","Snow Showers"
"2007-02-01 08:00","2007","02","01","08:00","-3.5","","-6.3","","81","","20","","37","","16.1","","100.05","","","","-12","","Snow Showers"
"2007-02-01 09:00","2007","02","01","09:00","-4.0","","-6.6","","82","","23","","20","","8.0","","100.05","","","","-10","","Snow Showers"
"2007-02-01 10:00","2007","02","01","10:00","-4.7","","-7.1","","83","","27","","15","","6.4","","100.05","","","","-10","","Snow Showers"
"2007-02-01 11:00","2007","02","01","11:00","-4.1","","-6.5","","83","","22","","11","","24.1","","100.05","","","","-9","","Mainly Clear"
"2007-02-01 12:00","2007","02","01","12:00","-2.9","","-7.3","","72","","22","","26","","16.1","","99.95","","","","-10","","Snow Showers"
"2007-02-01 13:00","2007","02","01","13:00","-2.3","","-7.3","","69","","21","","30","","24.1","","99.85","","","","-9","","Mostly Cloudy"
"2007-02-01 14:00","2007","02","01","14:00","-1.9","","-7.5","","65","","20","","33","","24.1","","99.84","","","","-9","","Mostly Cloudy"
"2007-02-01 15:00","2007","02","01","15:00","-1.5","","-7.7","","63","","22","","30","","24.1","","99.82","","","","-8","","Mostly Cloudy"
"2007-02-01 16:00","2007","02","01","16:00","-1.8","","-8.1","","62","","22","","24","","24.1","","99.84","","","","-8","","Cloudy"
"2007-02-01 17:00","2007","02","01","17:00","-1.8","","-8.9","","58","","20","","22","","24.1","","99.87","","","","-8","","Cloudy"
"2007-02-01 18:00","2007","02","01","18:00","-1.8","","-8.2","","62","","21","","24","","24.1","","99.86","","","","-8","","Mostly Cloudy"
"2007-02-01 19:00","2007","02","01","19:00","-1.9","","-8.4","","61","","23","","15","","24.1","","99.87","","","","-7","","Cloudy"
"2007-02-01 20:00","2007","02","01","20:00","-1.8","","-7.9","","63","","23","","20","","24.1","","99.86","","","","-8","","Cloudy"
"2007-02-01 21:00","2007","02","01","21:00","-2.0","","-7.3","","67","","21","","13","","24.1","","99.83","","","","-6","","Mostly Cloudy"
"2007-02-01 22:00","2007","02","01","22:00","-1.9","","-7.0","","68","","20","","9","","24.1","","99.83","","","","-5","","Cloudy"
"2007-02-01 23:00","2007","02","01","23:00","-1.8","","-6.8","","69","","23","","9","","24.1","","99.80","","","","-5","","Cloudy"
"2007-02-02 00:00","2007","02","02","00:00"
"2007-02-02 01:00","2007","02","02","01:00"
"2007-02-02 02:00","2007","02","02","02:00"
"2007-02-02 03:00","2007","02","02","03:00"
"2007-02-02 04:00","2007","02","02","04:00"
"2007-02-02 05:00","2007","02","02","05:00"
"2007-02-02 06:00","2007","02","02","06:00","-3.0","","-4.8","","87","","9","","7","","12.9","","99.54","","","","-6","","Snow Showers"
"2007-02-02 07:00","2007","02","02","07:00","-3.2","","-5.4","","85","","10","","11","","12.9","","99.51","","","","-7","","Snow"
"2007-02-02 08:00","2007","02","02","08:00","-2.6","","-4.5","","87","","11","","11","","6.4","","99.43","","","","-7","","Snow"
"2007-02-02 09:00","2007","02","02","09:00","-0.8","","-2.5","","88","","16","","22","","8.0","","99.33","","","","-7","","Snow"
"2007-02-02 10:00","2007","02","02","10:00","-0.8","","-2.4","","89","","16","","24","","8.0","","99.31","","","","-7","","Snow"
"2007-02-02 11:00","2007","02","02","11:00","-0.7","","-2.4","","88","","17","","20","","4.8","","99.25","","","","-6","","Snow"
"2007-02-02 12:00","2007","02","02","12:00","-0.9","","-2.1","","92","","18","","20","","1.2","","99.12","","","","-6","","Snow"
"2007-02-02 13:00","2007","02","02","13:00","-0.3","","-2.1","","88","","17","","20","","6.4","","99.00","","","","-6","","Snow"
"2007-02-02 14:00","2007","02","02","14:00","-0.5","","-2.6","","86","","22","","17","","6.4","","98.92","","","","-5","","Snow"
"2007-02-02 15:00","2007","02","02","15:00","-0.7","","-2.7","","86","","23","","9","","3.2","","98.89","","","","-4","","Snow"
"2007-02-02 16:00","2007","02","02","16:00","-1.8","","-3.0","","91","","23","","17","","1.6","","98.91","","","","-7","","Snow"
"2007-02-02 17:00","2007","02","02","17:00","-2.2","","-3.5","","91","","25","","11","","1.6","","98.89","","","","-6","","Snow"
"2007-02-02 18:00","2007","02","02","18:00","-2.5","","-3.7","","91","","26","","9","","2.4","","98.95","","","","-6","","Snow"
"2007-02-02 19:00","2007","02","02","19:00","-3.4","","-5.1","","88","","27","","17","","4.0","","99.00","","","","-9","","Snow"
"2007-02-02 20:00","2007","02","02","20:00","-3.7","","-5.4","","88","","27","","13","","4.0","","99.00","","","","-9","","Snow"
"2007-02-02 21:00","2007","02","02","21:00","-3.7","","-5.1","","90","","24","","11","","1.6","","98.99","","","","-8","","Snow"
"2007-02-02 22:00","2007","02","02","22:00","-2.6","","-4.2","","89","","24","","15","","3.2","","98.97","","","","-8","","Snow"
"2007-02-02 23:00","2007","02","02","23:00","-4.5","","-7.1","","82","","26","","32","","8.0","","99.07","","","","-13","","Snow"
"2007-02-03 00:00","2007","02","03","00:00"
"2007-02-03 01:00","2007","02","03","01:00"
"2007-02-03 02:00","2007","02","03","02:00"
"2007-02-03 03:00","2007","02","03","03:00"
"2007-02-03 04:00","2007","02","03","04:00"
"2007-02-03 05:00","2007","02","03","05:00"
"2007-02-03 06:00","2007","02","03","06:00","-10.8","","-15.1","","71","","25","","19","","24.1","","99.66","","","","-19","","Clear"
"2007-02-03 07:00","2007","02","03","07:00","-11.0","","-15.4","","70","","25","","15","","24.1","","99.70","","","","-18","","Mainly Clear"
"2007-02-03 08:00","2007","02","03","08:00","-10.6","","-15.3","","68","","25","","13","","24.1","","99.72","","","","-17","","Mainly Clear"
"2007-02-03 09:00","2007","02","03","09:00","-8.8","","-15.5","","58","","27","","24","","24.1","","99.74","","","","-17","","Clear"
"2007-02-03 10:00","2007","02","03","10:00","-8.0","","-13.9","","62","","25","","20","","24.1","","99.77","","","","-15","","Mainly Clear"
"2007-02-03 11:00","2007","02","03","11:00","-7.8","","-11.5","","75","","24","","20","","16.1","","99.77","","","","-15","","Snow Showers"
"2007-02-03 12:00","2007","02","03","12:00","-7.9","","-10.8","","80","","22","","19","","9.7","","99.70","","","","-15","","Snow Showers"
"2007-02-03 13:00","2007","02","03","13:00","-8.2","","-9.6","","90","","23","","26","","0.4","","99.66","","","","-17","","Heavy Snow"
"2007-02-03 14:00","2007","02","03","14:00","-7.8","","-9.1","","90","","24","","26","","0.4","","99.59","","","","-16","","Heavy Snow Showers"
"2007-02-03 15:00","2007","02","03","15:00","-8.6","","-10.0","","90","","25","","15","","0.4","","99.57","","","","-15","","Heavy Snow Showers"
"2007-02-03 16:00","2007","02","03","16:00","-8.4","","-9.7","","90","","26","","11","","0.4","","99.59","","","","-14","","Heavy Snow Showers"
"2007-02-03 17:00","2007","02","03","17:00","-8.4","","-9.9","","89","","27","","17","","1.6","","99.65","","","","-15","","Snow Showers"
"2007-02-03 18:00","2007","02","03","18:00","-8.5","","-10.1","","88","","27","","11","","16.1","","99.70","","","","-14","","Snow Showers"
"2007-02-03 19:00","2007","02","03","19:00","-9.0","","-10.7","","87","","29","","4","","8.0","","99.70","","","","-11","","Snow Showers"
"2007-02-03 20:00","2007","02","03","20:00","-8.3","","-9.0","","95","","25","","24","","0.8","","99.71","","","","-16","","Moderate Snow Showers"
"2007-02-03 21:00","2007","02","03","21:00","-8.6","","-10.1","","89","","24","","24","","4.8","","99.73","","","","-17","","Snow Showers"
"2007-02-03 22:00","2007","02","03","22:00","-9.0","","-11.7","","81","","25","","19","","19.3","","99.77","","","","-16","","Snow Showers"
"2007-02-03 23:00","2007","02","03","23:00","-9.5","","-12.5","","79","","25","","20","","24.1","","99.78","","","","-17","","Cloudy"
"2007-02-04 00:00","2007","02","04","00:00"
"2007-02-04 01:00","2007","02","04","01:00"
"2007-02-04 02:00","2007","02","04","02:00"
"2007-02-04 03:00","2007","02","04","03:00"
"2007-02-04 04:00","2007","02","04","04:00"
"2007-02-04 05:00","2007","02","04","05:00"
"2007-02-04 06:00","2007","02","04","06:00","-13.4","","-16.5","","77","","26","","26","","24.1","","100.12","","","","-23","","Mainly Clear"
"2007-02-04 07:00","2007","02","04","07:00","-13.9","","-17.2","","76","","26","","24","","24.1","","100.15","","","","-24","","Mainly Clear"
"2007-02-04 08:00","2007","02","04","08:00","-14.3","","-17.7","","75","","27","","22","","24.1","","100.17","","","","-24","","Mostly Cloudy"
"2007-02-04 09:00","2007","02","04","09:00","-13.5","","-18.6","","65","","27","","24","","24.1","","100.15","","","","-23","","Mostly Cloudy"
"2007-02-04 10:00","2007","02","04","10:00","-13.2","","-19.0","","62","","27","","19","","24.1","","100.15","","","","-22","","Cloudy"
"2007-02-04 11:00","2007","02","04","11:00","-12.5","","-18.1","","63","","27","","26","","24.1","","100.13","","","","-22","","Cloudy"
"2007-02-04 12:00","2007","02","04","12:00","-12.2","","-18.9","","57","","27","","24","","24.1","","100.08","","","","-21","","Cloudy"
"2007-02-04 13:00","2007","02","04","13:00","-12.0","","-19.1","","56","","25","","22","","24.1","","100.04","","","","-21","","Cloudy"
"2007-02-04 14:00","2007","02","04","14:00","-11.6","","-19.5","","52","","25","","22","","24.1","","99.98","","","","-20","","Cloudy"
"2007-02-04 15:00","2007","02","04","15:00","-11.9","","-19.4","","54","","26","","24","","24.1","","100.00","","","","-21","","Cloudy"
"2007-02-04 16:00","2007","02","04","16:00","-12.1","","-19.2","","55","","26","","19","","24.1","","100.03","","","","-20","","Cloudy"
"2007-02-04 17:00","2007","02","04","17:00","-12.8","","-19.6","","57","","26","","20","","24.1","","100.09","","","","-21","","Cloudy"
"2007-02-04 18:00","2007","02","04","18:00","-13.6","","-19.1","","63","","27","","20","","24.1","","100.15","","","","-22","","Mostly Cloudy"
"2007-02-04 19:00","2007","02","04","19:00","-14.5","","-20.8","","59","","27","","20","","24.1","","100.25","","","","-24","","Mostly Cloudy"
"2007-02-04 20:00","2007","02","04","20:00","-15.1","","-20.9","","61","","27","","20","","24.1","","100.31","","","","-24","","Mostly Cloudy"
"2007-02-04 21:00","2007","02","04","21:00","-16.0","","-21.3","","64","","27","","15","","24.1","","100.36","","","","-24","","Mainly Clear"
"2007-02-04 22:00","2007","02","04","22:00","-16.9","","-24.4","","52","","26","","15","","24.1","","100.36","","","","-25","","Mainly Clear"
"2007-02-04 23:00","2007","02","04","23:00","-16.8","","-23.8","","55","","26","","11","","24.1","","100.33","","","","-24","","Mainly Clear"
"2007-02-05 00:00","2007","02","05","00:00"
"2007-02-05 01:00","2007","02","05","01:00"
"2007-02-05 02:00","2007","02","05","02:00"
"2007-02-05 03:00","2007","02","05","03:00"
"2007-02-05 04:00","2007","02","05","04:00"
"2007-02-05 05:00","2007","02","05","05:00"
"2007-02-05 06:00","2007","02","05","06:00","-15.5","","-21.3","","61","","26","","17","","24.1","","100.20","","","","-24","","Mostly Cloudy"
"2007-02-05 07:00","2007","02","05","07:00","-14.2","","-19.9","","62","","27","","22","","16.1","","100.25","","","","-24","","Snow"
"2007-02-05 08:00","2007","02","05","08:00","-16.3","","-21.3","","65","","30","","17","","16.1","","100.41","","","","-25","","Snow"
"2007-02-05 09:00","2007","02","05","09:00","-17.2","","-24.7","","52","","30","","20","","16.1","","100.54","","","","-27","","Cloudy"
"2007-02-05 10:00","2007","02","05","10:00","-17.4","","-25.5","","49","","30","","17","","24.1","","100.59","","","","-26","","Mostly Cloudy"
"2007-02-05 11:00","2007","02","05","11:00","-16.9","","-25.0","","49","","28","","15","","24.1","","100.66","","","","-25","","Mainly Clear"
"2007-02-05 12:00","2007","02","05","12:00","-17.2","","-26.3","","45","","25","","22","","24.1","","100.68","","","","-27","","Mostly Cloudy"
"2007-02-05 13:00","2007","02","05","13:00","-16.7","","-25.9","","45","","27","","24","","24.1","","100.65","","","","-27","","Cloudy"
"2007-02-05 14:00","2007","02","05","14:00","-16.4","","-24.7","","49","","24","","24","","24.1","","100.65","","","","-27","","Mostly Cloudy"
"2007-02-05 15:00","2007","02","05","15:00","-15.9","","-24.5","","48","","25","","22","","24.1","","100.63","","","","-26","","Mostly Cloudy"
"2007-02-05 16:00","2007","02","05","16:00","-14.7","","-23.2","","48","","26","","17","","24.1","","100.64","","","","-23","","Mainly Clear"
"2007-02-05 17:00","2007","02","05","17:00","-15.0","","-22.6","","52","","27","","24","","24.1","","100.65","","","","-25","","Mainly Clear"
"2007-02-05 18:00","2007","02","05","18:00","-15.2","","-22.1","","56","","27","","24","","24.1","","100.67","","","","-25","","Mainly Clear"
"2007-02-05 19:00","2007","02","05","19:00","-14.9","","-21.7","","56","","26","","22","","24.1","","100.69","","","","-24","","Mostly Cloudy"
"2007-02-05 20:00","2007","02","05","20:00","-14.6","","-20.8","","59","","27","","17","","24.1","","100.68","","","","-23","","Mostly Cloudy"
"2007-02-05 21:00","2007","02","05","21:00","-14.2","","-19.6","","64","","26","","22","","24.1","","100.66","","","","-24","","Mainly Clear"
"2007-02-05 22:00","2007","02","05","22:00","-14.3","","-19.8","","63","","27","","20","","24.1","","100.70","","","","-23","","Mainly Clear"
"2007-02-05 23:00","2007","02","05","23:00","-14.8","","-20.4","","62","","27","","19","","24.1","","100.71","","","","-24","","Mainly Clear"
"2007-02-06 00:00","2007","02","06","00:00"
"2007-02-06 01:00","2007","02","06","01:00"
"2007-02-06 02:00","2007","02","06","02:00"
"2007-02-06 03:00","2007","02","06","03:00"
"2007-02-06 04:00","2007","02","06","04:00"
"2007-02-06 05:00","2007","02","06","05:00"
"2007-02-06 06:00","2007","02","06","06:00","-13.5","","-21.3","","52","","26","","17","","24.1","","100.80","","","","-22","","Mostly Cloudy"
"2007-02-06 07:00","2007","02","06","07:00","-14.6","","-22.5","","51","","27","","15","","24.1","","100.82","","","","-22","","Mostly Cloudy"
"2007-02-06 08:00","2007","02","06","08:00","-14.1","","-23.0","","47","","27","","13","","24.1","","100.85","","","","-21","","Mostly Cloudy"
"2007-02-06 09:00","2007","02","06","09:00","-13.4","","-22.7","","45","","27","","17","","24.1","","100.88","","","","-21","","Mostly Cloudy"
"2007-02-06 10:00","2007","02","06","10:00","-12.2","","-23.9","","37","","27","","19","","24.1","","100.86","","","","-20","","Mainly Clear"
"2007-02-06 11:00","2007","02","06","11:00","-10.6","","-24.9","","30","","26","","24","","24.1","","100.85","","","","-19","","Mainly Clear"
"2007-02-06 12:00","2007","02","06","12:00","-9.4","","-23.5","","31","","27","","17","","24.1","","100.79","","","","-16","","Mainly Clear"
"2007-02-06 13:00","2007","02","06","13:00","-8.8","","-21.3","","36","","27","","20","","24.1","","100.70","","","","-16","","Mostly Cloudy"
"2007-02-06 14:00","2007","02","06","14:00","-8.2","","-19.2","","41","","27","","17","","24.1","","100.62","","","","-15","","Mainly Clear"
"2007-02-06 15:00","2007","02","06","15:00","-8.1","","-19.0","","41","","26","","24","","24.1","","100.57","","","","-16","","Mainly Clear"
"2007-02-06 16:00","2007","02","06","16:00","-8.4","","-17.5","","48","","27","","19","","24.1","","100.55","","","","-16","","Mainly Clear"
"2007-02-06 17:00","2007","02","06","17:00","-9.1","","-18.0","","48","","26","","13","","24.1","","100.52","","","","-15","","Mainly Clear"
"2007-02-06 18:00","2007","02","06","18:00","-9.5","","-9.9","","97","","22","","19","","8.0","","100.47","","","","-17","","Snow"
"2007-02-06 19:00","2007","02","06","19:00","-10.3","","-13.1","","80","","25","","17","","19.3","","100.42","","","","-18","","Snow"
"2007-02-06 20:00","2007","02","06","20:00","-10.4","","-13.3","","79","","25","","17","","24.1","","100.39","","","","-18","","Mainly Clear"
"2007-02-06 21:00","2007","02","06","21:00","-11.2","","-14.9","","74","","26","","13","","24.1","","100.35","","","","-18","","Mainly Clear"
"2007-02-06 22:00","2007","02","06","22:00","-12.4","","-16.9","","69","","26","","13","","24.1","","100.32","","","","-19","","Mainly Clear"
"2007-02-06 23:00","2007","02","06","23:00","-14.0","","-18.9","","66","","29","","9","","24.1","","100.27","","","","-20","","Mainly Clear"
"2007-02-07 00:00","2007","02","07","00:00"
"2007-02-07 01:00","2007","02","07","01:00"
"2007-02-07 02:00","2007","02","07","02:00"
"2007-02-07 03:00","2007","02","07","03:00"
"2007-02-07 04:00","2007","02","07","04:00"
"2007-02-07 05:00","2007","02","07","05:00"
"2007-02-07 06:00","2007","02","07","06:00","-17.4","","-20.4","","77","","26","","7","","24.1","","100.08","","","","-23","","Mainly Clear"
"2007-02-07 07:00","2007","02","07","07:00","-18.9","","-23.4","","68","","31","","9","","24.1","","100.08","","","","-25","","Mainly Clear"
"2007-02-07 08:00","2007","02","07","08:00","-18.1","","-21.2","","77","","27","","9","","24.1","","100.12","","","","-24","","Mainly Clear"
"2007-02-07 09:00","2007","02","07","09:00","-15.9","","-20.0","","71","","27","","7","","24.1","","100.15","","","","-21","","Mainly Clear"
"2007-02-07 10:00","2007","02","07","10:00","-14.2","","-18.7","","69","","26","","7","","24.1","","100.16","","","","-19","","Mostly Cloudy"
"2007-02-07 11:00","2007","02","07","11:00","-12.1","","-17.3","","65","","24","","11","","24.1","","100.12","","","","-18","","Mostly Cloudy"
"2007-02-07 12:00","2007","02","07","12:00","-9.9","","-15.7","","63","","24","","13","","24.1","","100.07","","","","-16","","Mostly Cloudy"
"2007-02-07 13:00","2007","02","07","13:00","-7.9","","-15.8","","53","","25","","22","","24.1","","99.98","","","","-16","","Mostly Cloudy"
"2007-02-07 14:00","2007","02","07","14:00","-7.5","","-14.4","","58","","25","","22","","24.1","","99.95","","","","-15","","Mostly Cloudy"
"2007-02-07 15:00","2007","02","07","15:00","-7.3","","-14.0","","59","","25","","32","","24.1","","99.95","","","","-16","","Mostly Cloudy"
"2007-02-07 16:00","2007","02","07","16:00","-7.7","","-14.1","","60","","26","","28","","24.1","","99.94","","","","-16","","Mostly Cloudy"
"2007-02-07 17:00","2007","02","07","17:00","-7.3","","-13.1","","63","","25","","19","","24.1","","99.95","","","","-14","","Mostly Cloudy"
"2007-02-07 18:00","2007","02","07","18:00","-7.6","","-12.9","","66","","24","","20","","24.1","","99.94","","","","-15","","Mostly Cloudy"
"2007-02-07 19:00","2007","02","07","19:00","-7.7","","-12.1","","71","","25","","20","","24.1","","99.95","","","","-15","","Mostly Cloudy"
"2007-02-07 20:00","2007","02","07","20:00","-7.7","","-13.0","","66","","25","","28","","24.1","","99.92","","","","-16","","Mainly Clear"
"2007-02-07 21:00","2007","02","07","21:00","-8.3","","-13.6","","66","","25","","28","","24.1","","99.90","","","","-17","","Mainly Clear"
"2007-02-07 22:00","2007","02","07","22:00","-8.4","","-14.0","","64","","25","","22","","24.1","","99.88","","","","-16","","Mainly Clear"
"2007-02-07 23:00","2007","02","07","23:00","-8.0","","-13.5","","65","","26","","26","","24.1","","99.85","","","","-16","","Mostly Cloudy"
"2007-02-08 00:00","2007","02","08","00:00"
"2007-02-08 01:00","2007","02","08","01:00"
"2007-02-08 02:00","2007","02","08","02:00"
"2007-02-08 03:00","2007","02","08","03:00"
"2007-02-08 04:00","2007","02","08","04:00"
"2007-02-08 05:00","2007","02","08","05:00"
"2007-02-08 06:00","2007","02","08","06:00","-10.6","","-12.8","","84","","26","","9","","24.1","","99.73","","","","-16","","Cloudy"
"2007-02-08 07:00","2007","02","08","07:00","-11.1","","-13.3","","84","","28","","7","","24.1","","99.73","","","","-15","","Cloudy"
"2007-02-08 08:00","2007","02","08","08:00","-11.5","","-13.8","","83","","28","","9","","24.1","","99.80","","","","-17","","Mostly Cloudy"
"2007-02-08 09:00","2007","02","08","09:00","-11.0","","-13.9","","79","","31","","15","","16.1","","99.87","","","","-18","","Cloudy"
"2007-02-08 10:00","2007","02","08","10:00","-9.6","","-15.6","","62","","31","","22","","24.1","","99.92","","","","-18","","Mainly Clear"
"2007-02-08 11:00","2007","02","08","11:00","-8.0","","-15.7","","54","","28","","20","","24.1","","99.92","","","","-15","","Mainly Clear"
"2007-02-08 12:00","2007","02","08","12:00","-7.2","","-15.8","","50","","28","","19","","24.1","","99.98","","","","-14","","Mainly Clear"
"2007-02-08 13:00","2007","02","08","13:00","-6.1","","-16.3","","44","","27","","26","","24.1","","99.98","","","","-14","","Clear"
"2007-02-08 14:00","2007","02","08","14:00","-5.4","","-15.7","","44","","30","","19","","24.1","","99.93","","","","-12","","Mainly Clear"
"2007-02-08 15:00","2007","02","08","15:00","-6.6","","-14.0","","56","","23","","28","","24.1","","99.92","","","","-15","","Mainly Clear"
"2007-02-08 16:00","2007","02","08","16:00","-7.1","","-14.9","","54","","24","","26","","24.1","","99.96","","","","-15","","Cloudy"
"2007-02-08 17:00","2007","02","08","17:00","-7.0","","-14.3","","56","","25","","20","","24.1","","99.92","","","","-14","","Cloudy"
"2007-02-08 18:00","2007","02","08","18:00","-7.0","","-13.6","","59","","26","","17","","24.1","","99.83","","","","-13","","Cloudy"
"2007-02-08 19:00","2007","02","08","19:00","-7.0","","-12.7","","64","","22","","15","","19.3","","99.74","","","","-13","","Snow Showers"
"2007-02-08 20:00","2007","02","08","20:00","-6.4","","-11.4","","68","","25","","30","","24.1","","99.70","","","","-15","","Cloudy"
"2007-02-08 21:00","2007","02","08","21:00","-7.3","","-12.6","","66","","25","","30","","24.1","","99.63","","","","-16","","Mainly Clear"
"2007-02-08 22:00","2007","02","08","22:00","-7.2","","-12.9","","64","","25","","28","","24.1","","99.58","","","","-16","","Mainly Clear"
"2007-02-08 23:00","2007","02","08","23:00","-7.7","","-13.0","","66","","27","","26","","24.1","","99.57","","","","-16","","Mainly Clear"
"2007-02-09 00:00","2007","02","09","00:00"
"2007-02-09 01:00","2007","02","09","01:00"
"2007-02-09 02:00","2007","02","09","02:00"
"2007-02-09 03:00","2007","02","09","03:00"
"2007-02-09 04:00","2007","02","09","04:00"
"2007-02-09 05:00","2007","02","09","05:00"
"2007-02-09 06:00","2007","02","09","06:00","-15.1","","-21.7","","57","","30","","15","","24.1","","100.14","","","","-23","","Mainly Clear"
"2007-02-09 07:00","2007","02","09","07:00","-16.0","","-23.7","","52","","28","","13","","24.1","","100.24","","","","-24","","Mainly Clear"
"2007-02-09 08:00","2007","02","09","08:00","-16.2","","-22.6","","58","","26","","15","","24.1","","100.36","","","","-24","","Mainly Clear"
"2007-02-09 09:00","2007","02","09","09:00","-15.9","","-22.8","","55","","27","","19","","24.1","","100.41","","","","-25","","Mostly Cloudy"
"2007-02-09 10:00","2007","02","09","10:00","-14.9","","-22.5","","52","","28","","20","","24.1","","100.45","","","","-24","","Mainly Clear"
"2007-02-09 11:00","2007","02","09","11:00","-14.0","","-22.2","","50","","27","","19","","24.1","","100.43","","","","-23","","Mainly Clear"
"2007-02-09 12:00","2007","02","09","12:00","-12.7","","-20.9","","50","","27","","19","","24.1","","100.41","","","","-21","","Mainly Clear"
"2007-02-09 13:00","2007","02","09","13:00","-11.6","","-20.3","","48","","25","","28","","24.1","","100.35","","","","-21","","Mainly Clear"
"2007-02-09 14:00","2007","02","09","14:00","-10.4","","-19.4","","48","","27","","24","","24.1","","100.26","","","","-19","","Mainly Clear"
"2007-02-09 15:00","2007","02","09","15:00","-9.2","","-18.3","","48","","27","","24","","24.1","","100.27","","","","-18","","Mainly Clear"
"2007-02-09 16:00","2007","02","09","16:00","-8.3","","-17.2","","49","","26","","24","","24.1","","100.28","","","","-16","","Mainly Clear"
"2007-02-09 17:00","2007","02","09","17:00","-8.2","","-16.5","","51","","27","","15","","24.1","","100.29","","","","-15","","Mainly Clear"
"2007-02-09 18:00","2007","02","09","18:00","-8.9","","-15.9","","57","","26","","17","","24.1","","100.33","","","","-16","","Mainly Clear"
"2007-02-09 19:00","2007","02","09","19:00","-9.0","","-14.9","","62","","25","","15","","24.1","","100.36","","","","-16","","Clear"
"2007-02-09 20:00","2007","02","09","20:00","-9.2","","-13.6","","70","","26","","17","","24.1","","100.34","","","","-16","","Clear"
"2007-02-09 21:00","2007","02","09","21:00","-9.6","","-13.2","","75","","25","","9","","24.1","","100.36","","","","-14","","Clear"
"2007-02-09 22:00","2007","02","09","22:00","-9.9","","-13.0","","78","","26","","15","","24.1","","100.36","","","","-17","","Clear"
"2007-02-09 23:00","2007","02","09","23:00","-9.9","","-12.8","","79","","27","","11","","24.1","","100.38","","","","-15","","Clear"
"2007-02-10 00:00","2007","02","10","00:00"
"2007-02-10 01:00","2007","02","10","01:00"
"2007-02-10 02:00","2007","02","10","02:00"
"2007-02-10 03:00","2007","02","10","03:00"
"2007-02-10 04:00","2007","02","10","04:00"
"2007-02-10 05:00","2007","02","10","05:00"
"2007-02-10 06:00","2007","02","10","06:00","-7.4","","-11.1","","75","","27","","7","","24.1","","100.11","","","","-11","","Snow Showers"
"2007-02-10 07:00","2007","02","10","07:00","-6.1","","-12.3","","61","","26","","22","","24.1","","100.10","","","","-13","","Mostly Cloudy"
"2007-02-10 08:00","2007","02","10","08:00","-7.2","","-13.2","","62","","25","","13","","24.1","","100.12","","","","-13","","Mainly Clear"
"2007-02-10 09:00","2007","02","10","09:00","-6.1","","-10.8","","69","","27","","22","","24.1","","100.13","","","","-13","","Mainly Clear"
"2007-02-10 10:00","2007","02","10","10:00","-6.5","","-9.7","","78","","27","","11","","16.1","","100.14","","","","-11","","Mostly Cloudy"
"2007-02-10 11:00","2007","02","10","11:00","-5.6","","-12.0","","61","","27","","20","","24.1","","100.17","","","","-12","","Mostly Cloudy"
"2007-02-10 12:00","2007","02","10","12:00","-4.9","","-10.8","","63","","25","","22","","24.1","","100.19","","","","-12","","Mainly Clear"
"2007-02-10 13:00","2007","02","10","13:00","-4.1","","-10.8","","60","","25","","22","","24.1","","100.18","","","","-11","","Mainly Clear"
"2007-02-10 14:00","2007","02","10","14:00","-3.3","","-13.5","","45","","25","","32","","24.1","","100.18","","","","-11","","Mostly Cloudy"
"2007-02-10 15:00","2007","02","10","15:00","-3.8","","-11.4","","56","","25","","24","","24.1","","100.20","","","","-11","","Mostly Cloudy"
"2007-02-10 16:00","2007","02","10","16:00","-4.0","","-14.6","","43","","25","","24","","24.1","","100.27","","","","-11","","Mainly Clear"
"2007-02-10 17:00","2007","02","10","17:00","-5.0","","-14.2","","48","","26","","22","","24.1","","100.35","","","","-12","","Mainly Clear"
"2007-02-10 18:00","2007","02","10","18:00","-6.6","","-15.5","","49","","26","","19","","24.1","","100.47","","","","-13","","Mainly Clear"
"2007-02-10 19:00","2007","02","10","19:00","-7.5","","-16.1","","50","","26","","20","","24.1","","100.58","","","","-15","","Mainly Clear"
"2007-02-10 20:00","2007","02","10","20:00","-8.7","","-16.3","","54","","26","","20","","24.1","","100.69","","","","-16","","Mainly Clear"
"2007-02-10 21:00","2007","02","10","21:00","-9.7","","-16.2","","59","","27","","15","","24.1","","100.74","","","","-16","","Mainly Clear"
"2007-02-10 22:00","2007","02","10","22:00","-10.4","","-16.1","","63","","26","","15","","24.1","","100.78","","","","-17","","Mainly Clear"
"2007-02-10 23:00","2007","02","10","23:00","-10.7","","-15.5","","68","","26","","11","","24.1","","100.83","","","","-16","","Mainly Clear"
"2007-02-11 00:00","2007","02","11","00:00"
"2007-02-11 01:00","2007","02","11","01:00"
"2007-02-11 02:00","2007","02","11","02:00"
"2007-02-11 03:00","2007","02","11","03:00"
"2007-02-11 04:00","2007","02","11","04:00"
"2007-02-11 05:00","2007","02","11","05:00"
"2007-02-11 06:00","2007","02","11","06:00","-7.8","","-13.3","","65","","25","","9","","24.1","","100.81","","","","-12","","Mostly Cloudy"
"2007-02-11 07:00","2007","02","11","07:00","-8.3","","-13.6","","66","","25","","11","","24.1","","100.79","","","","-14","","Mainly Clear"
"2007-02-11 08:00","2007","02","11","08:00","-8.4","","-12.6","","72","","22","","6","","24.1","","100.79","","","","-12","","Mostly Cloudy"
"2007-02-11 09:00","2007","02","11","09:00","-7.9","","-10.3","","83","","24","","13","","1.6","","100.80","","","","-14","","Snow Showers"
"2007-02-11 10:00","2007","02","11","10:00","-7.5","","-9.3","","87","","23","","9","","1.6","","100.77","","","","-12","","Snow Showers"
"2007-02-11 11:00","2007","02","11","11:00","-7.5","","-9.1","","88","","22","","11","","1.6","","100.75","","","","-13","","Snow Showers"
"2007-02-11 12:00","2007","02","11","12:00","-6.7","","-8.5","","87","","23","","11","","2.0","","100.69","","","","-12","","Snow Showers"
"2007-02-11 13:00","2007","02","11","13:00","-5.9","","-8.6","","81","","22","","39","","4.8","","100.63","","","","-15","","Snow Showers"
"2007-02-11 14:00","2007","02","11","14:00","-5.8","","-9.1","","77","","22","","33","","8.0","","100.56","","","","-14","","Snow Showers"
"2007-02-11 15:00","2007","02","11","15:00","-6.0","","-10.7","","69","","22","","32","","16.1","","100.56","","","","-15","","Snow Showers"
"2007-02-11 16:00","2007","02","11","16:00","-6.2","","-10.5","","72","","22","","32","","16.1","","100.57","","","","-15","","Snow Showers"
"2007-02-11 17:00","2007","02","11","17:00","-6.3","","-9.7","","77","","21","","32","","4.0","","100.56","","","","-15","","Snow Showers"
"2007-02-11 18:00","2007","02","11","18:00","-5.7","","-8.8","","79","","22","","30","","6.4","","100.58","","","","-14","","Snow Showers"
"2007-02-11 19:00","2007","02","11","19:00","-5.5","","-8.3","","81","","22","","33","","4.0","","100.59","","","","-14","","Snow Showers"
"2007-02-11 20:00","2007","02","11","20:00","-5.3","","-9.0","","75","","25","","24","","24.1","","100.62","","","","-13","","Cloudy"
"2007-02-11 21:00","2007","02","11","21:00","-5.9","","-13.1","","57","","26","","19","","24.1","","100.66","","","","-13","","Cloudy"
"2007-02-11 22:00","2007","02","11","22:00","-6.2","","-12.4","","61","","25","","20","","24.1","","100.66","","","","-13","","Mainly Clear"
"2007-02-11 23:00","2007","02","11","23:00","-6.2","","-11.1","","68","","24","","15","","24.1","","100.65","","","","-12","","Mainly Clear"
"2007-02-12 00:00","2007","02","12","00:00"
"2007-02-12 01:00","2007","02","12","01:00"
"2007-02-12 02:00","2007","02","12","02:00"
"2007-02-12 03:00","2007","02","12","03:00"
"2007-02-12 04:00","2007","02","12","04:00"
"2007-02-12 05:00","2007","02","12","05:00"
"2007-02-12 06:00","2007","02","12","06:00","-8.5","","-11.8","","77","","27","","11","","24.1","","100.89","","","","-14","","Mostly Cloudy"
"2007-02-12 07:00","2007","02","12","07:00","-7.4","","-11.1","","75","","28","","11","","19.3","","101.00","","","","-12","","Snow"
"2007-02-12 08:00","2007","02","12","08:00","-7.1","","-12.8","","64","","28","","11","","24.1","","101.09","","","","-12","","Mostly Cloudy"
"2007-02-12 09:00","2007","02","12","09:00","-7.2","","-12.7","","65","","29","","9","","24.1","","101.15","","","","-12","","Mostly Cloudy"
"2007-02-12 10:00","2007","02","12","10:00","-8.5","","-14.7","","61","","36","","22","","24.1","","101.19","","","","-16","","Mainly Clear"
"2007-02-12 11:00","2007","02","12","11:00","-8.8","","-15.6","","58","","35","","15","","24.1","","101.26","","","","-15","","Mainly Clear"
"2007-02-12 12:00","2007","02","12","12:00","-8.3","","-16.9","","50","","34","","15","","24.1","","101.25","","","","-15","","Mainly Clear"
"2007-02-12 13:00","2007","02","12","13:00","-7.2","","-16.9","","46","","31","","15","","24.1","","101.23","","","","-13","","Mostly Cloudy"
"2007-02-12 14:00","2007","02","12","14:00","-6.6","","-18.7","","38","","31","","11","","24.1","","101.23","","","","-12","","Mainly Clear"
"2007-02-12 15:00","2007","02","12","15:00","-6.9","","-19.9","","35","","35","","11","","24.1","","101.23","","","","-12","","Mainly Clear"
"2007-02-12 16:00","2007","02","12","16:00","-6.2","","-22.0","","27","","32","","13","","24.1","","101.27","","","","-12","","Mainly Clear"
"2007-02-12 17:00","2007","02","12","17:00","-8.6","","-21.4","","35","","35","","7","","24.1","","101.33","","","","-12","","Mainly Clear"
"2007-02-12 18:00","2007","02","12","18:00","-10.6","","-23.1","","35","","35","","9","","24.1","","101.41","","","","-16","","Mainly Clear"
"2007-02-12 19:00","2007","02","12","19:00","-11.9","","-23.2","","39","","4","","17","","24.1","","101.56","","","","-20","","Mainly Clear"
"2007-02-12 20:00","2007","02","12","20:00","-13.9","","-24.7","","40","","4","","17","","24.1","","101.67","","","","-22","","Clear"
"2007-02-12 21:00","2007","02","12","21:00","-14.9","","-25.7","","39","","2","","13","","24.1","","101.74","","","","-22","","Clear"
"2007-02-12 22:00","2007","02","12","22:00","-15.9","","-26.2","","41","","3","","9","","24.1","","101.87","","","","-22","","Clear"
"2007-02-12 23:00","2007","02","12","23:00","-16.4","","-26.8","","40","","1","","17","","24.1","","101.94","","","","-25","","Clear"
"2007-02-13 00:00","2007","02","13","00:00"
"2007-02-13 01:00","2007","02","13","01:00"
"2007-02-13 02:00","2007","02","13","02:00"
"2007-02-13 03:00","2007","02","13","03:00"
"2007-02-13 04:00","2007","02","13","04:00"
"2007-02-13 05:00","2007","02","13","05:00"
"2007-02-13 06:00","2007","02","13","06:00","-21.3","","-28.9","","50","","36","","9","","24.1","","102.28","","","","-28","","Mainly Clear"
"2007-02-13 07:00","2007","02","13","07:00","-21.2","","-29.0","","49","","1","","11","","24.1","","102.31","","","","-29","","Mostly Cloudy"
"2007-02-13 08:00","2007","02","13","08:00","-21.0","","-28.5","","51","","1","","9","","24.1","","102.40","","","","-28","","Cloudy"
"2007-02-13 09:00","2007","02","13","09:00","-20.3","","-28.7","","47","","2","","15","","24.1","","102.42","","","","-29","","Cloudy"
"2007-02-13 10:00","2007","02","13","10:00","-19.4","","-28.4","","45","","2","","15","","24.1","","102.40","","","","-28","","Cloudy"
"2007-02-13 11:00","2007","02","13","11:00","-18.7","","-28.3","","43","","4","","11","","24.1","","102.40","","","","-26","","Cloudy"
"2007-02-13 12:00","2007","02","13","12:00","-17.6","","-28.0","","40","","6","","13","","24.1","","102.33","","","","-25","","Cloudy"
"2007-02-13 13:00","2007","02","13","13:00","-16.3","","-27.1","","39","","6","","17","","24.1","","102.24","","","","-25","","Cloudy"
"2007-02-13 14:00","2007","02","13","14:00","-16.1","","-27.0","","39","","2","","17","","24.1","","102.11","","","","-25","","Cloudy"
"2007-02-13 15:00","2007","02","13","15:00","-15.6","","-26.9","","37","","5","","15","","24.1","","102.02","","","","-24","","Cloudy"
"2007-02-13 16:00","2007","02","13","16:00","-15.6","","-26.8","","38","","4","","15","","24.1","","101.94","","","","-24","","Cloudy"
"2007-02-13 17:00","2007","02","13","17:00","-15.5","","-26.5","","38","","2","","11","","24.1","","101.91","","","","-22","","Cloudy"
"2007-02-13 18:00","2007","02","13","18:00","-15.7","","-26.2","","40","","2","","15","","19.3","","101.82","","","","-24","","Cloudy"
"2007-02-13 19:00","2007","02","13","19:00","-15.8","","-26.1","","41","","3","","17","","19.3","","101.76","","","","-24","","Cloudy"
"2007-02-13 20:00","2007","02","13","20:00","-15.8","","-25.8","","42","","3","","19","","19.3","","101.69","","","","-25","","Cloudy"
"2007-02-13 21:00","2007","02","13","21:00","-15.9","","-26.0","","42","","3","","20","","24.1","","101.63","","","","-25","","Cloudy"
"2007-02-13 22:00","2007","02","13","22:00","-15.9","","-25.4","","44","","3","","22","","24.1","","101.50","","","","-26","","Cloudy"
"2007-02-13 23:00","2007","02","13","23:00","-15.9","","-25.1","","45","","3","","15","","24.1","","101.42","","","","-24","","Snow"
"2007-02-14 00:00","2007","02","14","00:00"
"2007-02-14 01:00","2007","02","14","01:00"
"2007-02-14 02:00","2007","02","14","02:00"
"2007-02-14 03:00","2007","02","14","03:00"
"2007-02-14 04:00","2007","02","14","04:00"
"2007-02-14 05:00","2007","02","14","05:00"
"2007-02-14 06:00","2007","02","14","06:00","-15.4","","-19.3","","72","","3","","22","","2.4","","100.56","","","","-25","","Snow"
"2007-02-14 07:00","2007","02","14","07:00","-15.2","","-19.3","","71","","3","","26","","1.6","","100.46","","","","-26","","Snow"
"2007-02-14 08:00","2007","02","14","08:00","-15.4","","-19.2","","73","","2","","33","","2.0","","100.35","","","","-27","","Snow"
"2007-02-14 09:00","2007","02","14","09:00","-14.9","","-19.4","","68","","2","","26","","3.2","","100.30","","","","-25","","Snow"
"2007-02-14 10:00","2007","02","14","10:00","-14.6","","-19.5","","66","","4","","30","","3.2","","100.19","","","","-26","","Snow"
"2007-02-14 11:00","2007","02","14","11:00","-14.5","","-19.0","","69","","1","","35","","1.6","","100.06","","","","-26","","Snow"
"2007-02-14 12:00","2007","02","14","12:00","-14.2","","-18.7","","69","","2","","28","","1.6","","99.93","","","","-25","","Snow"
"2007-02-14 13:00","2007","02","14","13:00","-13.7","","-18.1","","69","","1","","28","","2.0","","99.83","","","","-24","","Snow"
"2007-02-14 14:00","2007","02","14","14:00","-13.4","","-18.1","","68","","1","","28","","2.0","","99.74","","","","-24","","Snow"
"2007-02-14 15:00","2007","02","14","15:00","-13.4","","-17.1","","74","","35","","19","","1.2","","99.71","","","","-22","","Snow"
"2007-02-14 16:00","2007","02","14","16:00","-13.0","","-16.4","","76","","35","","24","","1.6","","99.72","","","","-22","","Snow"
"2007-02-14 17:00","2007","02","14","17:00","-13.0","","-16.3","","76","","34","","20","","1.6","","99.75","","","","-22","","Snow"
"2007-02-14 18:00","2007","02","14","18:00","-12.7","","-16.2","","75","","34","","19","","3.2","","99.81","","","","-21","","Snow"
"2007-02-14 19:00","2007","02","14","19:00","-12.4","","-15.5","","78","","32","","17","","3.2","","99.85","","","","-20","","Snow"
"2007-02-14 20:00","2007","02","14","20:00","-12.2","","-15.1","","79","","31","","11","","3.2","","99.82","","","","-18","","Snow"
"2007-02-14 21:00","2007","02","14","21:00","-12.3","","-18.1","","62","","31","","19","","24.1","","99.77","","","","-21","","Mainly Clear"
"2007-02-14 22:00","2007","02","14","22:00","-13.1","","-19.7","","58","","32","","22","","24.1","","99.78","","","","-22","","Mainly Clear"
"2007-02-14 23:00","2007","02","14","23:00","-13.1","","-20.8","","52","","31","","20","","24.1","","99.81","","","","-22","","Mostly Cloudy"
"2007-02-15 00:00","2007","02","15","00:00"
"2007-02-15 01:00","2007","02","15","01:00"
"2007-02-15 02:00","2007","02","15","02:00"
"2007-02-15 03:00","2007","02","15","03:00"
"2007-02-15 04:00","2007","02","15","04:00"
"2007-02-15 05:00","2007","02","15","05:00"
"2007-02-15 06:00","2007","02","15","06:00","-20.3","","-26.9","","56","","27","","19","","24.1","","99.91","","","","-31","","Clear"
"2007-02-15 07:00","2007","02","15","07:00","-21.0","","-27.7","","55","","27","","17","","24.1","","99.94","","","","-31","","Mainly Clear"
"2007-02-15 08:00","2007","02","15","08:00","-20.5","","-27.4","","54","","28","","17","","24.1","","99.97","","","","-30","","Mostly Cloudy"
"2007-02-15 09:00","2007","02","15","09:00","-19.5","","-27.3","","50","","28","","24","","24.1","","99.99","","","","-31","","Mostly Cloudy"
"2007-02-15 10:00","2007","02","15","10:00","-18.8","","-26.9","","49","","27","","22","","24.1","","99.98","","","","-29","","Mostly Cloudy"
"2007-02-15 11:00","2007","02","15","11:00","-18.5","","-26.5","","49","","24","","24","","24.1","","99.95","","","","-29","","Mostly Cloudy"
"2007-02-15 12:00","2007","02","15","12:00","-17.3","","-25.2","","50","","26","","26","","24.1","","99.91","","","","-28","","Mostly Cloudy"
"2007-02-15 13:00","2007","02","15","13:00","-16.4","","-24.8","","48","","26","","24","","24.1","","99.82","","","","-27","","Mostly Cloudy"
"2007-02-15 14:00","2007","02","15","14:00","-15.0","","-24.2","","45","","26","","30","","24.1","","99.75","","","","-26","","Mostly Cloudy"
"2007-02-15 15:00","2007","02","15","15:00","-14.7","","-23.5","","47","","25","","28","","24.1","","99.73","","","","-25","","Mainly Clear"
"2007-02-15 16:00","2007","02","15","16:00","-14.1","","-22.4","","49","","25","","24","","24.1","","99.70","","","","-24","","Mainly Clear"
"2007-02-15 17:00","2007","02","15","17:00","-14.0","","-22.1","","50","","25","","24","","24.1","","99.71","","","","-24","","Mainly Clear"
"2007-02-15 18:00","2007","02","15","18:00","-14.4","","-21.9","","53","","26","","19","","24.1","","99.76","","","","-23","","Mainly Clear"
"2007-02-15 19:00","2007","02","15","19:00","-14.3","","-21.4","","55","","25","","22","","24.1","","99.74","","","","-24","","Mainly Clear"
"2007-02-15 20:00","2007","02","15","20:00","-14.0","","-20.3","","59","","25","","22","","24.1","","99.67","","","","-23","","Mostly Cloudy"
"2007-02-15 21:00","2007","02","15","21:00","-13.7","","-19.8","","60","","27","","24","","24.1","","99.64","","","","-23","","Mostly Cloudy"
"2007-02-15 22:00","2007","02","15","22:00","-14.1","","-19.7","","63","","27","","17","","24.1","","99.62","","","","-22","","Mostly Cloudy"
"2007-02-15 23:00","2007","02","15","23:00","-14.0","","-19.7","","62","","25","","17","","24.1","","99.54","","","","-22","","Mostly Cloudy"
"2007-02-16 00:00","2007","02","16","00:00"
"2007-02-16 01:00","2007","02","16","01:00"
"2007-02-16 02:00","2007","02","16","02:00"
"2007-02-16 03:00","2007","02","16","03:00"
"2007-02-16 04:00","2007","02","16","04:00"
"2007-02-16 05:00","2007","02","16","05:00"
"2007-02-16 06:00","2007","02","16","06:00","-13.4","","-20.4","","56","","25","","13","","24.1","","99.40","","","","-20","","Mainly Clear"
"2007-02-16 07:00","2007","02","16","07:00","-13.5","","-20.5","","56","","26","","17","","24.1","","99.43","","","","-22","","Mostly Cloudy"
"2007-02-16 08:00","2007","02","16","08:00","-13.0","","-20.1","","55","","27","","17","","24.1","","99.49","","","","-21","","Mostly Cloudy"
"2007-02-16 09:00","2007","02","16","09:00","-12.6","","-19.8","","55","","26","","19","","24.1","","99.52","","","","-21","","Mostly Cloudy"
"2007-02-16 10:00","2007","02","16","10:00","-10.8","","-19.2","","50","","26","","22","","24.1","","99.52","","","","-19","","Mostly Cloudy"
"2007-02-16 11:00","2007","02","16","11:00","-9.8","","-18.0","","51","","26","","26","","24.1","","99.47","","","","-19","","Mostly Cloudy"
"2007-02-16 12:00","2007","02","16","12:00","-7.7","","-16.2","","50","","26","","22","","24.1","","99.41","","","","-15","","Mostly Cloudy"
"2007-02-16 13:00","2007","02","16","13:00","-6.4","","-13.7","","56","","25","","26","","24.1","","99.33","","","","-14","","Mainly Clear"
"2007-02-16 14:00","2007","02","16","14:00","-6.2","","-12.0","","63","","25","","24","","24.1","","99.31","","","","-14","","Mainly Clear"
"2007-02-16 15:00","2007","02","16","15:00","-5.2","","-9.4","","72","","25","","22","","24.1","","99.33","","","","-12","","Mostly Cloudy"
"2007-02-16 16:00","2007","02","16","16:00","-4.6","","-8.4","","75","","25","","24","","19.3","","99.31","","","","-12","","Snow Showers"
"2007-02-16 17:00","2007","02","16","17:00","-4.0","","-9.6","","65","","25","","30","","24.1","","99.31","","","","-12","","Mostly Cloudy"
"2007-02-16 18:00","2007","02","16","18:00","-5.8","","-10.3","","70","","24","","19","","24.1","","99.37","","","","-12","","Mainly Clear"
"2007-02-16 19:00","2007","02","16","19:00","-5.9","","-11.4","","65","","25","","24","","24.1","","99.39","","","","-13","","Mainly Clear"
"2007-02-16 20:00","2007","02","16","20:00","-5.9","","-11.9","","63","","25","","19","","24.1","","99.44","","","","-13","","Mainly Clear"
"2007-02-16 21:00","2007","02","16","21:00","-6.1","","-12.2","","62","","26","","19","","24.1","","99.44","","","","-13","","Mainly Clear"
"2007-02-16 22:00","2007","02","16","22:00","-6.4","","-12.4","","62","","26","","22","","24.1","","99.47","","","","-14","","Mainly Clear"
"2007-02-16 23:00","2007","02","16","23:00","-6.5","","-12.0","","65","","26","","20","","24.1","","99.49","","","","-13","","Mainly Clear"
"2007-02-17 00:00","2007","02","17","00:00"
"2007-02-17 01:00","2007","02","17","01:00"
"2007-02-17 02:00","2007","02","17","02:00"
"2007-02-17 03:00","2007","02","17","03:00"
"2007-02-17 04:00","2007","02","17","04:00"
"2007-02-17 05:00","2007","02","17","05:00"
"2007-02-17 06:00","2007","02","17","06:00","-8.2","","-14.0","","63","","28","","15","","24.1","","99.58","","","","-15","","Cloudy"
"2007-02-17 07:00","2007","02","17","07:00","-8.5","","-14.5","","62","","27","","17","","24.1","","99.58","","","","-15","","Cloudy"
"2007-02-17 08:00","2007","02","17","08:00","-8.2","","-14.5","","60","","28","","15","","24.1","","99.59","","","","-15","","Cloudy"
"2007-02-17 09:00","2007","02","17","09:00","-7.6","","-13.7","","62","","28","","15","","24.1","","99.56","","","","-14","","Mostly Cloudy"
"2007-02-17 10:00","2007","02","17","10:00","-7.0","","-12.7","","64","","22","","15","","24.1","","99.56","","","","-13","","Mostly Cloudy"
"2007-02-17 11:00","2007","02","17","11:00","-6.4","","-11.6","","67","","22","","13","","24.1","","99.52","","","","-12","","Mostly Cloudy"
"2007-02-17 12:00","2007","02","17","12:00","-5.9","","-9.7","","74","","18","","15","","12.9","","99.48","","","","-12","","Cloudy"
"2007-02-17 13:00","2007","02","17","13:00","-5.6","","-7.9","","84","","18","","13","","12.9","","99.41","","","","-11","","Snow Showers"
"2007-02-17 14:00","2007","02","17","14:00","-3.4","","-7.5","","73","","21","","24","","12.9","","99.34","","","","-10","","Snow Showers"
"2007-02-17 15:00","2007","02","17","15:00","-4.2","","-6.4","","85","","22","","22","","3.2","","99.34","","","","-11","","Snow Showers"
"2007-02-17 16:00","2007","02","17","16:00","-4.2","","-6.1","","87","","22","","17","","3.2","","99.34","","","","-10","","Snow"
"2007-02-17 17:00","2007","02","17","17:00","-4.8","","-6.3","","89","","23","","11","","1.2","","99.34","","","","-9","","Snow Showers"
"2007-02-17 18:00","2007","02","17","18:00","-4.7","","-6.1","","90","","23","","9","","1.6","","99.36","","","","-9","","Snow Showers"
"2007-02-17 19:00","2007","02","17","19:00","-5.0","","-6.5","","89","","23","","11","","3.2","","99.37","","","","-10","","Snow"
"2007-02-17 20:00","2007","02","17","20:00","-5.3","","-7.1","","87","","23","","13","","4.8","","99.38","","","","-10","","Snow"
"2007-02-17 21:00","2007","02","17","21:00","-5.5","","-7.2","","88","","24","","13","","4.8","","99.38","","","","-11","","Snow"
"2007-02-17 22:00","2007","02","17","22:00","-5.8","","-7.3","","89","","23","","9","","4.0","","99.32","","","","-10","","Snow Showers"
"2007-02-17 23:00","2007","02","17","23:00","-6.2","","-7.6","","90","","24","","9","","4.0","","99.28","","","","-10","","Snow"
"2007-02-18 00:00","2007","02","18","00:00"
"2007-02-18 01:00","2007","02","18","01:00"
"2007-02-18 02:00","2007","02","18","02:00"
"2007-02-18 03:00","2007","02","18","03:00"
"2007-02-18 04:00","2007","02","18","04:00"
"2007-02-18 05:00","2007","02","18","05:00"
"2007-02-18 06:00","2007","02","18","06:00","-9.1","","-11.2","","85","","29","","11","","19.3","","99.30","","","","-15","","Snow"
"2007-02-18 07:00","2007","02","18","07:00","-8.8","","-11.2","","83","","31","","11","","19.3","","99.37","","","","-14","","Snow"
"2007-02-18 08:00","2007","02","18","08:00","-9.9","","-13.2","","77","","28","","13","","24.1","","99.48","","","","-16","","Mainly Clear"
"2007-02-18 09:00","2007","02","18","09:00","-10.1","","-13.6","","76","","30","","11","","24.1","","99.55","","","","-16","","Mainly Clear"
"2007-02-18 10:00","2007","02","18","10:00","-9.3","","-13.9","","69","","30","","17","","24.1","","99.58","","","","-16","","Mainly Clear"
"2007-02-18 11:00","2007","02","18","11:00","-7.6","","-13.3","","64","","31","","17","","24.1","","99.61","","","","-14","","Mostly Cloudy"
"2007-02-18 12:00","2007","02","18","12:00","-7.4","","-13.8","","60","","33","","19","","24.1","","99.60","","","","-14","","Mostly Cloudy"
"2007-02-18 13:00","2007","02","18","13:00","-7.8","","-13.7","","63","","32","","17","","19.3","","99.60","","","","-14","","Snow Showers"
"2007-02-18 14:00","2007","02","18","14:00","-7.7","","-14.0","","61","","33","","17","","24.1","","99.62","","","","-14","","Mostly Cloudy"
"2007-02-18 15:00","2007","02","18","15:00","-7.8","","-13.9","","62","","31","","15","","24.1","","99.66","","","","-14","","Mainly Clear"
"2007-02-18 16:00","2007","02","18","16:00","-8.2","","-13.4","","66","","32","","15","","24.1","","99.71","","","","-15","","Mostly Cloudy"
"2007-02-18 17:00","2007","02","18","17:00","-8.0","","-15.4","","55","","33","","19","","24.1","","99.78","","","","-15","","Mainly Clear"
"2007-02-18 18:00","2007","02","18","18:00","-9.7","","-17.6","","52","","33","","20","","24.1","","99.93","","","","-17","","Mainly Clear"
"2007-02-18 19:00","2007","02","18","19:00","-12.0","","-19.8","","52","","33","","19","","24.1","","100.08","","","","-20","","Mainly Clear"
"2007-02-18 20:00","2007","02","18","20:00","-13.2","","-20.5","","54","","33","","19","","24.1","","100.22","","","","-22","","Clear"
"2007-02-18 21:00","2007","02","18","21:00","-14.3","","-21.3","","55","","33","","24","","24.1","","100.34","","","","-24","","Clear"
"2007-02-18 22:00","2007","02","18","22:00","-16.0","","-22.6","","57","","34","","17","","24.1","","100.45","","","","-25","","Clear"
"2007-02-18 23:00","2007","02","18","23:00","-16.4","","-26.1","","43","","31","","11","","24.1","","100.57","","","","-23","","Clear"
"2007-02-19 00:00","2007","02","19","00:00"
"2007-02-19 01:00","2007","02","19","01:00"
"2007-02-19 02:00","2007","02","19","02:00"
"2007-02-19 03:00","2007","02","19","03:00"
"2007-02-19 04:00","2007","02","19","04:00"
"2007-02-19 05:00","2007","02","19","05:00"
"2007-02-19 06:00","2007","02","19","06:00","-23.6","","-29.4","","59","","31","","7","","24.1","","101.00","","","","-30","","Clear"
"2007-02-19 07:00","2007","02","19","07:00","-23.9","","-29.5","","60","","33","","6","","24.1","","101.03","","","","-30","","Mainly Clear"
"2007-02-19 08:00","2007","02","19","08:00","-24.0","","-29.3","","62","","35","","9","","24.1","","101.10","","","","-31","","Clear"
"2007-02-19 09:00","2007","02","19","09:00","-19.9","","-26.5","","56","","36","","7","","24.1","","101.11","","","","-26","","Mainly Clear"
"2007-02-19 10:00","2007","02","19","10:00","-16.6","","-26.9","","41","","36","","4","","24.1","","101.06","","","","-20","","Mainly Clear"
"2007-02-19 11:00","2007","02","19","11:00","-16.0","","-23.9","","51","","15","","9","","24.1","","101.05","","","","-22","","Mainly Clear"
"2007-02-19 12:00","2007","02","19","12:00","-15.2","","-25.3","","42","","14","","11","","24.1","","100.93","","","","-22","","Mainly Clear"
"2007-02-19 13:00","2007","02","19","13:00","-14.8","","-23.9","","46","","14","","11","","24.1","","100.84","","","","-21","","Mainly Clear"
"2007-02-19 14:00","2007","02","19","14:00","-14.6","","-23.4","","47","","15","","11","","24.1","","100.73","","","","-21","","Mostly Cloudy"
"2007-02-19 15:00","2007","02","19","15:00","-14.1","","-23.2","","46","","14","","9","","24.1","","100.67","","","","-20","","Mostly Cloudy"
"2007-02-19 16:00","2007","02","19","16:00","-14.0","","-23.3","","45","","11","","11","","24.1","","100.51","","","","-20","","Mostly Cloudy"
"2007-02-19 17:00","2007","02","19","17:00","-13.5","","-22.7","","46","","8","","13","","24.1","","100.33","","","","-20","","Snow Showers"
"2007-02-19 18:00","2007","02","19","18:00","-12.9","","-22.2","","46","","7","","17","","24.1","","100.20","","","","-21","","Cloudy"
"2007-02-19 19:00","2007","02","19","19:00","-12.0","","-20.9","","48","","8","","17","","24.1","","100.05","","","","-20","","Mostly Cloudy"
"2007-02-19 20:00","2007","02","19","20:00","-11.1","","-19.1","","52","","8","","17","","24.1","","99.81","","","","-19","","Mainly Clear"
"2007-02-19 21:00","2007","02","19","21:00","-11.1","","-18.4","","55","","7","","13","","24.1","","99.73","","","","-18","","Mainly Clear"
"2007-02-19 22:00","2007","02","19","22:00","-11.3","","-18.3","","56","","7","","13","","24.1","","99.60","","","","-18","","Clear"
"2007-02-19 23:00","2007","02","19","23:00","-10.5","","-17.2","","58","","8","","11","","24.1","","99.44","","","","-16","","Mainly Clear"
"2007-02-20 00:00","2007","02","20","00:00"
"2007-02-20 01:00","2007","02","20","01:00"
"2007-02-20 02:00","2007","02","20","02:00"
"2007-02-20 03:00","2007","02","20","03:00"
"2007-02-20 04:00","2007","02","20","04:00"
"2007-02-20 05:00","2007","02","20","05:00"
"2007-02-20 06:00","2007","02","20","06:00","0.4","","-1.8","","85","","19","","15","","24.1","","99.05","","","","","","Cloudy"
"2007-02-20 07:00","2007","02","20","07:00","0.6","","-1.2","","88","","22","","7","","24.1","","99.08","","","","","","Cloudy"
"2007-02-20 08:00","2007","02","20","08:00","2.3","","-0.9","","79","","25","","13","","24.1","","99.15","","","","","","Cloudy"
"2007-02-20 09:00","2007","02","20","09:00","2.3","","-0.7","","81","","24","","9","","24.1","","99.21","","","","","","Cloudy"
"2007-02-20 10:00","2007","02","20","10:00","2.4","","-2.5","","70","","29","","11","","24.1","","99.24","","","","","","Cloudy"
"2007-02-20 11:00","2007","02","20","11:00","2.2","","-3.0","","68","","29","","13","","24.1","","99.24","","","","","","Cloudy"
"2007-02-20 12:00","2007","02","20","12:00","3.0","","-1.8","","71","","29","","9","","24.1","","99.22","","","","","","Cloudy"
"2007-02-20 13:00","2007","02","20","13:00","3.7","","-2.7","","63","","26","","7","","24.1","","99.20","","","","","","Cloudy"
"2007-02-20 14:00","2007","02","20","14:00","1.1","","-1.6","","82","","18","","11","","16.1","","99.21","","","","","","Cloudy"
"2007-02-20 15:00","2007","02","20","15:00","0.8","","-1.5","","85","","18","","13","","16.1","","99.21","","","","","","Cloudy"
"2007-02-20 16:00","2007","02","20","16:00","1.1","","-1.8","","81","","18","","11","","16.1","","99.22","","","","","","Cloudy"
"2007-02-20 17:00","2007","02","20","17:00","1.4","","-2.0","","78","","22","","4","","12.9","","99.22","","","","","","Cloudy"
"2007-02-20 18:00","2007","02","20","18:00","1.3","","-2.0","","79","","22","","4","","12.9","","99.23","","","","","","Cloudy"
"2007-02-20 19:00","2007","02","20","19:00","1.1","","-1.9","","80","","26","","7","","12.9","","99.27","","","","","","Cloudy"
"2007-02-20 20:00","2007","02","20","20:00","1.9","","-2.7","","72","","27","","7","","12.9","","99.32","","","","","","Cloudy"
"2007-02-20 21:00","2007","02","20","21:00","1.7","","-2.8","","72","","29","","7","","16.1","","99.36","","","","","","Cloudy"
"2007-02-20 22:00","2007","02","20","22:00","1.4","","-4.8","","63","","30","","11","","19.3","","99.40","","","","","","Mostly Cloudy"
"2007-02-20 23:00","2007","02","20","23:00","0.9","","-5.4","","63","","29","","11","","24.1","","99.47","","","","","","Mainly Clear"
"2007-02-21 00:00","2007","02","21","00:00"
"2007-02-21 01:00","2007","02","21","01:00"
"2007-02-21 02:00","2007","02","21","02:00"
"2007-02-21 03:00","2007","02","21","03:00"
"2007-02-21 04:00","2007","02","21","04:00"
"2007-02-21 05:00","2007","02","21","05:00"
"2007-02-21 06:00","2007","02","21","06:00","-6.5","","-9.9","","77","","1","","7","","24.1","","99.97","","","","-10","","Clear"
"2007-02-21 07:00","2007","02","21","07:00","-7.9","","-10.6","","81","","18","","4","","24.1","","100.06","","","","-10","","Mainly Clear"
"2007-02-21 08:00","2007","02","21","08:00","-9.0","","-11.1","","85","","35","","7","","24.1","","100.20","","","","-13","","Mainly Clear"
"2007-02-21 09:00","2007","02","21","09:00","-5.3","","-8.3","","79","","","","0","","24.1","","100.23","","","","","","Mostly Cloudy"
"2007-02-21 10:00","2007","02","21","10:00","-3.2","","-8.0","","69","","7","","6","","24.1","","100.27","","","","-6","","Mostly Cloudy"
"2007-02-21 11:00","2007","02","21","11:00","-3.4","","-7.1","","76","","18","","6","","24.1","","100.31","","","","-6","","Mostly Cloudy"
"2007-02-21 12:00","2007","02","21","12:00","-2.7","","-7.2","","71","","16","","9","","24.1","","100.30","","","","-6","","Mostly Cloudy"
"2007-02-21 13:00","2007","02","21","13:00","-2.1","","-7.1","","69","","16","","11","","24.1","","100.27","","","","-6","","Mainly Clear"
"2007-02-21 14:00","2007","02","21","14:00","-1.8","","-7.0","","68","","19","","9","","24.1","","100.27","","","","-5","","Mainly Clear"
"2007-02-21 15:00","2007","02","21","15:00","-1.8","","-6.3","","71","","17","","6","","24.1","","100.24","","","","-4","","Mainly Clear"
"2007-02-21 16:00","2007","02","21","16:00","-1.7","","-5.5","","75","","15","","7","","24.1","","100.26","","","","-4","","Mostly Cloudy"
"2007-02-21 17:00","2007","02","21","17:00","-2.1","","-4.9","","81","","16","","7","","24.1","","100.23","","","","-5","","Mainly Clear"
"2007-02-21 18:00","2007","02","21","18:00","-3.1","","-5.2","","85","","17","","7","","24.1","","100.25","","","","-6","","Mainly Clear"
"2007-02-21 19:00","2007","02","21","19:00","-3.3","","-5.2","","87","","14","","7","","24.1","","100.26","","","","-6","","Mainly Clear"
"2007-02-21 20:00","2007","02","21","20:00","-3.0","","-4.5","","89","","15","","9","","24.1","","100.22","","","","-7","","Mainly Clear"
"2007-02-21 21:00","2007","02","21","21:00","-3.9","","-5.1","","91","","17","","4","","24.1","","100.18","","","","-6","","Mostly Cloudy"
"2007-02-21 22:00","2007","02","21","22:00","-3.7","","-5.0","","91","","15","","4","","24.1","","100.10","","","","-5","","Mostly Cloudy"
"2007-02-21 23:00","2007","02","21","23:00","-3.3","","-4.6","","91","","15","","6","","24.1","","100.04","","","","-6","","Mostly Cloudy"
"2007-02-22 00:00","2007","02","22","00:00"
"2007-02-22 01:00","2007","02","22","01:00"
"2007-02-22 02:00","2007","02","22","02:00"
"2007-02-22 03:00","2007","02","22","03:00"
"2007-02-22 04:00","2007","02","22","04:00"
"2007-02-22 05:00","2007","02","22","05:00"
"2007-02-22 06:00","2007","02","22","06:00","-2.4","","-5.0","","82","","14","","11","","24.1","","99.46","","","","-6","","Cloudy"
"2007-02-22 07:00","2007","02","22","07:00","-1.8","","-4.1","","84","","14","","7","","24.1","","99.36","","","","-4","","Cloudy"
"2007-02-22 08:00","2007","02","22","08:00","-1.3","","-3.9","","82","","15","","6","","24.1","","99.24","","","","-4","","Cloudy"
"2007-02-22 09:00","2007","02","22","09:00","-0.7","","-3.8","","79","","15","","19","","24.1","","99.10","","","","-6","","Cloudy"
"2007-02-22 10:00","2007","02","22","10:00","-0.2","","-4.2","","74","","13","","19","","24.1","","98.93","","","","-5","","Cloudy"
"2007-02-22 11:00","2007","02","22","11:00","0.4","","-3.5","","75","","14","","6","","24.1","","98.94","","","","","","Cloudy"
"2007-02-22 12:00","2007","02","22","12:00","0.9","","-3.2","","74","","12","","7","","19.3","","98.87","","","","","","Cloudy"
"2007-02-22 13:00","2007","02","22","13:00","1.1","","-2.3","","78","","10","","7","","6.4","","98.79","","","","","","Snow Showers"
"2007-02-22 14:00","2007","02","22","14:00","0.6","","-0.7","","91","","9","","6","","1.6","","98.76","","","","","","Snow Showers"
"2007-02-22 15:00","2007","02","22","15:00","0.6","","-0.6","","92","","11","","4","","2.4","","98.78","","","","","","Snow Showers"
"2007-02-22 16:00","2007","02","22","16:00","0.8","","-0.5","","91","","7","","6","","2.4","","98.83","","","","","","Snow Showers"
"2007-02-22 17:00","2007","02","22","17:00","-1.3","","-3.4","","86","","3","","17","","4.8","","98.93","","","","-6","","Snow Showers"
"2007-02-22 18:00","2007","02","22","18:00","-2.9","","-5.4","","83","","2","","19","","2.4","","99.07","","","","-9","","Snow Showers"
"2007-02-22 19:00","2007","02","22","19:00","-4.9","","-7.2","","84","","1","","22","","2.4","","99.21","","","","-12","","Snow Showers"
"2007-02-22 20:00","2007","02","22","20:00","-5.6","","-8.0","","83","","36","","19","","2.4","","99.31","","","","-12","","Snow"
"2007-02-22 21:00","2007","02","22","21:00","-6.1","","-8.6","","82","","1","","22","","3.2","","99.44","","","","-13","","Snow"
"2007-02-22 22:00","2007","02","22","22:00","-5.4","","-8.5","","79","","1","","22","","4.8","","99.54","","","","-12","","Snow"
"2007-02-22 23:00","2007","02","22","23:00","-4.9","","-7.9","","79","","36","","20","","4.8","","99.64","","","","-11","","Snow"
"2007-02-23 00:00","2007","02","23","00:00"
"2007-02-23 01:00","2007","02","23","01:00"
"2007-02-23 02:00","2007","02","23","02:00"
"2007-02-23 03:00","2007","02","23","03:00"
"2007-02-23 04:00","2007","02","23","04:00"
"2007-02-23 05:00","2007","02","23","05:00"
"2007-02-23 06:00","2007","02","23","06:00","-9.5","","-16.1","","59","","34","","20","","24.1","","100.68","","","","-17","","Mostly Cloudy"
"2007-02-23 07:00","2007","02","23","07:00","-10.5","","-16.4","","62","","34","","33","","24.1","","100.77","","","","-21","","Mostly Cloudy"
"2007-02-23 08:00","2007","02","23","08:00","-11.3","","-17.6","","60","","34","","24","","24.1","","100.90","","","","-20","","Mostly Cloudy"
"2007-02-23 09:00","2007","02","23","09:00","-11.2","","-17.5","","60","","34","","32","","24.1","","100.96","","","","-21","","Mostly Cloudy"
"2007-02-23 10:00","2007","02","23","10:00","-10.5","","-17.5","","56","","33","","26","","24.1","","101.01","","","","-20","","Mainly Clear"
"2007-02-23 11:00","2007","02","23","11:00","-9.4","","-18.1","","49","","30","","19","","24.1","","101.02","","","","-17","","Mainly Clear"
"2007-02-23 12:00","2007","02","23","12:00","-8.7","","-17.1","","51","","31","","24","","24.1","","101.00","","","","-17","","Mainly Clear"
"2007-02-23 13:00","2007","02","23","13:00","-7.5","","-17.9","","43","","31","","20","","24.1","","100.93","","","","-15","","Clear"
"2007-02-23 14:00","2007","02","23","14:00","-6.2","","-18.3","","38","","30","","15","","24.1","","100.85","","","","-12","","Clear"
"2007-02-23 15:00","2007","02","23","15:00","-5.4","","-18.8","","34","","30","","30","","24.1","","100.79","","","","-14","","Clear"
"2007-02-23 16:00","2007","02","23","16:00","-4.9","","-18.2","","34","","29","","22","","24.1","","100.79","","","","-12","","Clear"
"2007-02-23 17:00","2007","02","23","17:00","-5.4","","-17.4","","38","","32","","24","","24.1","","100.79","","","","-13","","Mainly Clear"
"2007-02-23 18:00","2007","02","23","18:00","-6.8","","-17.3","","43","","33","","22","","24.1","","100.88","","","","-14","","Mainly Clear"
"2007-02-23 19:00","2007","02","23","19:00","-7.7","","-16.7","","48","","33","","22","","24.1","","101.01","","","","-15","","Mostly Cloudy"
"2007-02-23 20:00","2007","02","23","20:00","-9.4","","-17.6","","51","","33","","26","","24.1","","101.08","","","","-18","","Mostly Cloudy"
"2007-02-23 21:00","2007","02","23","21:00","-10.0","","-18.3","","51","","34","","28","","24.1","","101.14","","","","-19","","Mostly Cloudy"
"2007-02-23 22:00","2007","02","23","22:00","-10.3","","-18.0","","53","","32","","22","","24.1","","101.20","","","","-19","","Mostly Cloudy"
"2007-02-23 23:00","2007","02","23","23:00","-11.0","","-18.3","","55","","34","","19","","24.1","","101.19","","","","-19","","Mostly Cloudy"
"2007-02-24 00:00","2007","02","24","00:00"
"2007-02-24 01:00","2007","02","24","01:00"
"2007-02-24 02:00","2007","02","24","02:00"
"2007-02-24 03:00","2007","02","24","03:00"
"2007-02-24 04:00","2007","02","24","04:00"
"2007-02-24 05:00","2007","02","24","05:00"
"2007-02-24 06:00","2007","02","24","06:00","-13.5","","-19.6","","60","","27","","13","","24.1","","101.45","","","","-20","","Mostly Cloudy"
"2007-02-24 07:00","2007","02","24","07:00","-13.4","","-19.2","","62","","27","","11","","24.1","","101.53","","","","-20","","Mostly Cloudy"
"2007-02-24 08:00","2007","02","24","08:00","-13.2","","-19.2","","61","","28","","11","","24.1","","101.57","","","","-19","","Mostly Cloudy"
"2007-02-24 09:00","2007","02","24","09:00","-12.5","","-18.5","","61","","24","","9","","24.1","","101.54","","","","-18","","Mainly Clear"
"2007-02-24 10:00","2007","02","24","10:00","-10.9","","-16.8","","62","","34","","9","","24.1","","101.52","","","","-16","","Mainly Clear"
"2007-02-24 11:00","2007","02","24","11:00","-9.8","","-16.3","","59","","1","","6","","24.1","","101.45","","","","-13","","Mainly Clear"
"2007-02-24 12:00","2007","02","24","12:00","-8.9","","-15.7","","58","","20","","13","","24.1","","101.44","","","","-15","","Mainly Clear"
"2007-02-24 13:00","2007","02","24","13:00","-7.3","","-14.4","","57","","22","","13","","24.1","","101.41","","","","-13","","Mainly Clear"
"2007-02-24 14:00","2007","02","24","14:00","-6.5","","-13.4","","58","","23","","15","","24.1","","101.31","","","","-12","","Mainly Clear"
"2007-02-24 15:00","2007","02","24","15:00","-5.8","","-13.1","","56","","22","","15","","24.1","","101.28","","","","-12","","Mainly Clear"
"2007-02-24 16:00","2007","02","24","16:00","-4.8","","-12.3","","56","","22","","11","","24.1","","101.25","","","","-9","","Clear"
"2007-02-24 17:00","2007","02","24","17:00","-5.0","","-11.7","","59","","24","","9","","24.1","","101.29","","","","-9","","Mainly Clear"
"2007-02-24 18:00","2007","02","24","18:00","-6.8","","-12.2","","65","","23","","9","","24.1","","101.38","","","","-11","","Mainly Clear"
"2007-02-24 19:00","2007","02","24","19:00","-7.5","","-12.9","","65","","1","","7","","24.1","","101.38","","","","-11","","Clear"
"2007-02-24 20:00","2007","02","24","20:00","-8.1","","-12.2","","72","","","","0","","24.1","","101.45","","","","","","Clear"
"2007-02-24 21:00","2007","02","24","21:00","-9.0","","-12.4","","76","","4","","4","","24.1","","101.53","","","","-11","","Clear"
"2007-02-24 22:00","2007","02","24","22:00","-12.4","","-15.0","","81","","34","","9","","24.1","","101.52","","","","-18","","Clear"
"2007-02-24 23:00","2007","02","24","23:00","-13.4","","-16.3","","79","","34","","11","","24.1","","101.46","","","","-20","","Clear"
"2007-02-25 00:00","2007","02","25","00:00"
"2007-02-25 01:00","2007","02","25","01:00"
"2007-02-25 02:00","2007","02","25","02:00"
"2007-02-25 03:00","2007","02","25","03:00"
"2007-02-25 04:00","2007","02","25","04:00"
"2007-02-25 05:00","2007","02","25","05:00"
"2007-02-25 06:00","2007","02","25","06:00","-13.9","","-17.5","","74","","36","","9","","24.1","","101.38","","","","-20","","Clear"
"2007-02-25 07:00","2007","02","25","07:00","-12.1","","-17.2","","66","","2","","9","","24.1","","101.34","","","","-17","","Mostly Cloudy"
"2007-02-25 08:00","2007","02","25","08:00","-11.2","","-17.2","","61","","6","","11","","24.1","","101.36","","","","-17","","Mostly Cloudy"
"2007-02-25 09:00","2007","02","25","09:00","-10.0","","-16.8","","57","","6","","9","","24.1","","101.36","","","","-15","","Mostly Cloudy"
"2007-02-25 10:00","2007","02","25","10:00","-8.7","","-15.9","","56","","6","","15","","24.1","","101.29","","","","-15","","Mostly Cloudy"
"2007-02-25 11:00","2007","02","25","11:00","-7.7","","-15.7","","53","","5","","20","","24.1","","101.09","","","","-15","","Mostly Cloudy"
"2007-02-25 12:00","2007","02","25","12:00","-6.5","","-15.0","","51","","6","","19","","24.1","","100.97","","","","-13","","Mostly Cloudy"
"2007-02-25 13:00","2007","02","25","13:00","-4.7","","-14.0","","48","","6","","15","","24.1","","100.85","","","","-10","","Mostly Cloudy"
"2007-02-25 14:00","2007","02","25","14:00","-3.3","","-13.2","","46","","7","","15","","24.1","","100.69","","","","-8","","Mainly Clear"
"2007-02-25 15:00","2007","02","25","15:00","-2.1","","-12.2","","46","","5","","19","","24.1","","100.60","","","","-8","","Mainly Clear"
"2007-02-25 16:00","2007","02","25","16:00","-2.3","","-12.4","","46","","5","","24","","24.1","","100.39","","","","-9","","Mainly Clear"
"2007-02-25 17:00","2007","02","25","17:00","-2.5","","-12.2","","47","","4","","17","","24.1","","100.39","","","","-8","","Mainly Clear"
"2007-02-25 18:00","2007","02","25","18:00","-2.9","","-12.6","","47","","3","","22","","24.1","","100.37","","","","-9","","Mostly Cloudy"
"2007-02-25 19:00","2007","02","25","19:00","-3.1","","-12.5","","48","","4","","22","","24.1","","100.32","","","","-9","","Cloudy"
"2007-02-25 20:00","2007","02","25","20:00","-3.9","","-12.3","","52","","4","","22","","24.1","","100.28","","","","-10","","Mostly Cloudy"
"2007-02-25 21:00","2007","02","25","21:00","-4.7","","-12.4","","55","","5","","24","","24.1","","100.20","","","","-12","","Mostly Cloudy"
"2007-02-25 22:00","2007","02","25","22:00","-5.0","","-12.7","","55","","5","","22","","24.1","","100.12","","","","-12","","Cloudy"
"2007-02-25 23:00","2007","02","25","23:00","-4.7","","-13.0","","52","","4","","24","","24.1","","100.00","","","","-12","","Cloudy"
"2007-02-26 00:00","2007","02","26","00:00"
"2007-02-26 01:00","2007","02","26","01:00"
"2007-02-26 02:00","2007","02","26","02:00"
"2007-02-26 03:00","2007","02","26","03:00"
"2007-02-26 04:00","2007","02","26","04:00"
"2007-02-26 05:00","2007","02","26","05:00"
"2007-02-26 06:00","2007","02","26","06:00","-5.0","","-13.4","","52","","4","","24","","16.1","","99.77","","","","-12","","Snow"
"2007-02-26 07:00","2007","02","26","07:00","-5.6","","-13.5","","54","","3","","22","","19.3","","99.83","","","","-13","","Snow"
"2007-02-26 08:00","2007","02","26","08:00","-6.4","","-13.2","","58","","4","","26","","19.3","","99.88","","","","-14","","Snow"
"2007-02-26 09:00","2007","02","26","09:00","-6.3","","-14.0","","54","","4","","20","","24.1","","99.89","","","","-13","","Mostly Cloudy"
"2007-02-26 10:00","2007","02","26","10:00","-5.9","","-14.1","","52","","3","","24","","24.1","","99.84","","","","-13","","Mostly Cloudy"
"2007-02-26 11:00","2007","02","26","11:00","-5.4","","-13.9","","51","","3","","20","","24.1","","99.81","","","","-12","","Mostly Cloudy"
"2007-02-26 12:00","2007","02","26","12:00","-4.4","","-13.3","","50","","2","","15","","24.1","","99.81","","","","-10","","Cloudy"
"2007-02-26 13:00","2007","02","26","13:00","-3.7","","-12.4","","51","","3","","19","","24.1","","99.78","","","","-10","","Cloudy"
"2007-02-26 14:00","2007","02","26","14:00","-3.0","","-11.6","","51","","2","","13","","24.1","","99.80","","","","-8","","Cloudy"
"2007-02-26 15:00","2007","02","26","15:00","-3.1","","-10.3","","57","","2","","13","","24.1","","99.82","","","","-8","","Cloudy"
"2007-02-26 16:00","2007","02","26","16:00","-2.9","","-12.2","","49","","2","","19","","24.1","","99.84","","","","-9","","Mostly Cloudy"
"2007-02-26 17:00","2007","02","26","17:00","-2.7","","-11.8","","50","","3","","15","","24.1","","99.88","","","","-8","","Mostly Cloudy"
"2007-02-26 18:00","2007","02","26","18:00","-2.6","","-11.7","","50","","1","","11","","24.1","","99.94","","","","-7","","Mostly Cloudy"
"2007-02-26 19:00","2007","02","26","19:00","-2.6","","-10.8","","53","","2","","13","","24.1","","99.98","","","","-7","","Snow"
"2007-02-26 20:00","2007","02","26","20:00","-2.8","","-9.8","","58","","1","","11","","24.1","","99.99","","","","-7","","Cloudy"
"2007-02-26 21:00","2007","02","26","21:00","-2.8","","-9.6","","59","","3","","11","","19.3","","100.05","","","","-7","","Snow Showers"
"2007-02-26 22:00","2007","02","26","22:00","-3.3","","-8.5","","67","","2","","7","","24.1","","100.09","","","","-6","","Snow Showers"
"2007-02-26 23:00","2007","02","26","23:00","-3.5","","-8.6","","68","","2","","13","","19.3","","100.10","","","","-8","","Snow Showers"
"2007-02-27 00:00","2007","02","27","00:00"
"2007-02-27 01:00","2007","02","27","01:00"
"2007-02-27 02:00","2007","02","27","02:00"
"2007-02-27 03:00","2007","02","27","03:00"
"2007-02-27 04:00","2007","02","27","04:00"
"2007-02-27 05:00","2007","02","27","05:00"
"2007-02-27 06:00","2007","02","27","06:00","-6.5","","-14.0","","55","","3","","9","","24.1","","100.16","","","","-11","","Mostly Cloudy"
"2007-02-27 07:00","2007","02","27","07:00","-7.3","","-13.8","","60","","3","","13","","24.1","","100.23","","","","-13","","Mostly Cloudy"
"2007-02-27 08:00","2007","02","27","08:00","-6.9","","-13.7","","58","","3","","13","","24.1","","100.27","","","","-12","","Mostly Cloudy"
"2007-02-27 09:00","2007","02","27","09:00","-5.4","","-13.0","","55","","2","","13","","24.1","","100.28","","","","-11","","Mainly Clear"
"2007-02-27 10:00","2007","02","27","10:00","-4.4","","-12.6","","53","","4","","9","","24.1","","100.32","","","","-8","","Mainly Clear"
"2007-02-27 11:00","2007","02","27","11:00","-2.7","","-11.7","","50","","5","","11","","24.1","","100.31","","","","-7","","Mainly Clear"
"2007-02-27 12:00","2007","02","27","12:00","-0.3","","-9.7","","49","","7","","13","","24.1","","100.33","","","","-4","","Mostly Cloudy"
"2007-02-27 13:00","2007","02","27","13:00","0.2","","-9.1","","50","","7","","11","","24.1","","100.28","","","","","","Mainly Clear"
"2007-02-27 14:00","2007","02","27","14:00","0.1","","-8.2","","54","","17","","4","","24.1","","100.28","","","","","","Mainly Clear"
"2007-02-27 15:00","2007","02","27","15:00","-1.3","","-7.6","","62","","17","","7","","24.1","","100.32","","","","-4","","Mainly Clear"
"2007-02-27 16:00","2007","02","27","16:00","-1.9","","-7.0","","68","","20","","11","","24.1","","100.37","","","","-6","","Mainly Clear"
"2007-02-27 17:00","2007","02","27","17:00","-2.0","","-7.1","","68","","21","","9","","24.1","","100.42","","","","-5","","Mainly Clear"
"2007-02-27 18:00","2007","02","27","18:00","-3.5","","-8.1","","70","","24","","9","","24.1","","100.48","","","","-7","","Mainly Clear"
"2007-02-27 19:00","2007","02","27","19:00","-4.3","","-8.4","","73","","24","","7","","24.1","","100.55","","","","-7","","Mainly Clear"
"2007-02-27 20:00","2007","02","27","20:00","-4.9","","-9.5","","70","","25","","9","","24.1","","100.56","","","","-9","","Mainly Clear"
"2007-02-27 21:00","2007","02","27","21:00","-5.0","","-9.6","","70","","26","","7","","24.1","","100.59","","","","-8","","Mainly Clear"
"2007-02-27 22:00","2007","02","27","22:00","-6.5","","-10.2","","75","","27","","4","","24.1","","100.60","","","","-8","","Mainly Clear"
"2007-02-27 23:00","2007","02","27","23:00","-6.9","","-10.0","","79","","25","","6","","24.1","","100.59","","","","-10","","Mainly Clear"
"2007-02-28 00:00","2007","02","28","00:00"
"2007-02-28 01:00","2007","02","28","01:00"
"2007-02-28 02:00","2007","02","28","02:00"
"2007-02-28 03:00","2007","02","28","03:00"
"2007-02-28 04:00","2007","02","28","04:00"
"2007-02-28 05:00","2007","02","28","05:00"
"2007-02-28 06:00","2007","02","28","06:00","-9.2","","-11.9","","81","","8","","4","","24.1","","100.83","","","","-11","","Mainly Clear"
"2007-02-28 07:00","2007","02","28","07:00","-12.0","","-14.8","","80","","27","","4","","24.1","","100.94","","","","-15","","Mainly Clear"
"2007-02-28 08:00","2007","02","28","08:00","-11.8","","-14.7","","79","","3","","7","","24.1","","100.98","","","","-16","","Mostly Cloudy"
"2007-02-28 09:00","2007","02","28","09:00","-6.2","","-15.6","","47","","3","","7","","24.1","","101.03","","","","-10","","Mainly Clear"
"2007-02-28 10:00","2007","02","28","10:00","-4.7","","-16.2","","40","","2","","13","","24.1","","101.06","","","","-10","","Mainly Clear"
"2007-02-28 11:00","2007","02","28","11:00","-3.5","","-15.9","","38","","34","","7","","24.1","","101.07","","","","-6","","Mainly Clear"
"2007-02-28 12:00","2007","02","28","12:00","-4.0","","-11.0","","58","","18","","4","","24.1","","101.09","","","","-6","","Mainly Clear"
"2007-02-28 13:00","2007","02","28","13:00","-3.4","","-12.4","","50","","16","","7","","24.1","","101.06","","","","-6","","Mainly Clear"
"2007-02-28 14:00","2007","02","28","14:00","-2.8","","-11.2","","52","","15","","6","","24.1","","101.01","","","","-5","","Mainly Clear"
"2007-02-28 15:00","2007","02","28","15:00","-2.9","","-9.3","","61","","18","","11","","24.1","","101.00","","","","-7","","Mainly Clear"
"2007-02-28 16:00","2007","02","28","16:00","-2.8","","-10.5","","55","","20","","13","","24.1","","101.02","","","","-7","","Mainly Clear"
"2007-02-28 17:00","2007","02","28","17:00","-3.6","","-10.5","","59","","18","","7","","24.1","","101.03","","","","-7","","Mainly Clear"
"2007-02-28 18:00","2007","02","28","18:00","-3.9","","-11.5","","55","","24","","7","","24.1","","101.08","","","","-7","","Mainly Clear"
"2007-02-28 19:00","2007","02","28","19:00","-5.0","","-11.6","","60","","26","","6","","24.1","","101.16","","","","-8","","Mainly Clear"
"2007-02-28 20:00","2007","02","28","20:00","-5.6","","-11.3","","64","","36","","4","","24.1","","101.18","","","","-7","","Mainly Clear"
"2007-02-28 21:00","2007","02","28","21:00","-8.0","","-12.2","","72","","33","","7","","24.1","","101.24","","","","-12","","Mainly Clear"
"2007-02-28 22:00","2007","02","28","22:00","-9.8","","-14.1","","71","","33","","7","","24.1","","101.21","","","","-14","","Clear"
"2007-02-28 23:00","2007","02","28","23:00","-11.0","","-14.4","","76","","35","","7","","24.1","","101.18","","","","-15","","Clear"
