"Station Name","KINGSTON A"
"Province","ONTARIO"
"Latitude","44.22"
"Longitude","-76.60"
"Elevation","92.40"
"Climate Identifier","6104146"
"WMO Identifier",""
"TC Identifier","YGK"
"All times are specified in Local Standard Time (LST). Add 1 hour to adjust for Daylight Saving Time where and when it is observed."

"Legend"
"E","Estimated"
"M","Missing"
"NA","Not Available"

"Date/Time","Year","Month","Day","Time","Temp (°C)","Temp Flag","Dew Point Temp (°C)","Dew Point Temp Flag","Rel Hum (%)","Rel Hum Flag","Wind Dir (10s deg)","Wind Dir Flag","Wind Spd (km/h)","Wind Spd Flag","Visibility (km)","Visibility Flag","Stn Press (kPa)","Stn Press Flag","Hmdx","Hmdx Flag","Wind Chill","Wind Chill Flag","Weather"
"1995-04-01 00:00","1995","04","01","00:00","","M","","M","","M","35","","15","","","M","","M","","","","","NA"
"1995-04-01 01:00","1995","04","01","01:00","","M","","M","","M","36","","15","","","M","","M","","","","","NA"
"1995-04-01 02:00","1995","04","01","02:00","","M","","M","","M","35","","13","","","M","","M","","","","","NA"
"1995-04-01 03:00","1995","04","01","03:00","","M","","M","","M","35","","9","","","M","","M","","","","","NA"
"1995-04-01 04:00","1995","04","01","04:00","","M","","M","","M","35","","7","","","M","","M","","","","","NA"
"1995-04-01 05:00","1995","04","01","05:00","","M","","M","","M","35","","11","","","M","","M","","","","","NA"
"1995-04-01 06:00","1995","04","01","06:00","-6.1","","-13.1","","58","","33","","9","","24.1","","100.51","","","","-10","","Clear"
"1995-04-01 07:00","1995","04","01","07:00","-3.7","","-11.7","","54","","35","","11","","24.1","","100.54","","","","-8","","Clear"
"1995-04-01 08:00","1995","04","01","08:00","-1.6","","-13.2","","41","","36","","15","","24.1","","100.54","","","","-6","","Clear"
"1995-04-01 09:00","1995","04","01","09:00","0.1","","-15.0","","31","","1","","7","","24.1","","100.61","","","","","","Clear"
"1995-04-01 10:00","1995","04","01","10:00","0.5","","-15.0","","30","","36","","19","","24.1","","100.61","","","","","","Clear"
"1995-04-01 11:00","1995","04","01","11:00","1.2","","-15.6","","27","","2","","11","","24.1","","100.61","","","","","","Clear"
"1995-04-01 12:00","1995","04","01","12:00","2.1","","-14.5","","28","","3","","13","","24.1","","100.54","","","","","","Clear"
"1995-04-01 13:00","1995","04","01","13:00","2.7","","-14.7","","26","","36","","15","","24.1","","100.48","","","","","","Mainly Clear"
"1995-04-01 14:00","1995","04","01","14:00","1.9","","-9.6","","42","","19","","13","","24.1","","100.44","","","","","","Mainly Clear"
"1995-04-01 15:00","1995","04","01","15:00","1.9","","-8.8","","45","","19","","20","","24.1","","100.38","","","","","","Mainly Clear"
"1995-04-01 16:00","1995","04","01","16:00","1.4","","-9.1","","45","","20","","20","","24.1","","100.38","","","","","","Mainly Clear"
"1995-04-01 17:00","1995","04","01","17:00","1.3","","-8.9","","47","","22","","15","","24.1","","100.38","","","","","","Mainly Clear"
"1995-04-01 18:00","1995","04","01","18:00","0.7","","-7.8","","53","","21","","13","","24.1","","100.38","","","","","","Mainly Clear"
"1995-04-01 19:00","1995","04","01","19:00","0.2","","-7.1","","58","","21","","13","","24.1","","100.41","","","","","","Mainly Clear"
"1995-04-01 20:00","1995","04","01","20:00","0.1","","-7.6","","56","","22","","11","","24.1","","100.44","","","","","","Mainly Clear"
"1995-04-01 21:00","1995","04","01","21:00","-0.2","","-7.7","","57","","22","","9","","24.1","","100.44","","","","-3","","Clear"
"1995-04-01 22:00","1995","04","01","22:00","0.3","","-6.6","","60","","22","","7","","24.1","","100.44","","","","","","Clear"
"1995-04-01 23:00","1995","04","01","23:00","-0.1","","-6.0","","64","","22","","7","","24.1","","100.44","","","","-3","","Clear"
"1995-04-02 00:00","1995","04","02","00:00","","M","","M","","M","21","","4","","","M","","M","","","","","NA"
"1995-04-02 01:00","1995","04","02","01:00","","M","","M","","M","22","","6","","","M","","M","","","","","NA"
"1995-04-02 02:00","1995","04","02","02:00","","M","","M","","M","","","0","","","M","","M","","","","","NA"
"1995-04-02 03:00","1995","04","02","03:00","","M","","M","","M","","","0","","","M","","M","","","","","NA"
"1995-04-02 04:00","1995","04","02","04:00","","M","","M","","M","","","0","","","M","","M","","","","","NA"
"1995-04-02 05:00","1995","04","02","05:00","-5.7","","-7.4","","88","","","","0","","24.1","","100.51","","","","","","Mainly Clear"
"1995-04-02 06:00","1995","04","02","06:00","-5.4","","-7.3","","86","","4","","6","","24.1","","100.51","","","","-8","","Mainly Clear"
"1995-04-02 07:00","1995","04","02","07:00","-2.4","","-5.1","","82","","","","0","","24.1","","100.61","","","","","","Mainly Clear"
"1995-04-02 08:00","1995","04","02","08:00","1.5","","-2.8","","73","","19","","6","","24.1","","100.64","","","","","","Mainly Clear"
"1995-04-02 09:00","1995","04","02","09:00","2.3","","-5.5","","56","","18","","9","","24.1","","100.68","","","","","","Mainly Clear"
"1995-04-02 10:00","1995","04","02","10:00","2.7","","-4.9","","57","","17","","15","","24.1","","100.71","","","","","","Mainly Clear"
"1995-04-02 11:00","1995","04","02","11:00","2.8","","-6.3","","51","","19","","19","","24.1","","100.75","","","","","","Mostly Cloudy"
"1995-04-02 12:00","1995","04","02","12:00","3.4","","-5.2","","53","","19","","19","","24.1","","100.75","","","","","","Mostly Cloudy"
"1995-04-02 13:00","1995","04","02","13:00","2.8","","-6.1","","52","","18","","19","","24.1","","100.75","","","","","","Mostly Cloudy"
"1995-04-02 14:00","1995","04","02","14:00","3.2","","-6.2","","50","","18","","19","","24.1","","100.71","","","","","","Mostly Cloudy"
"1995-04-02 15:00","1995","04","02","15:00","3.7","","-6.4","","48","","18","","11","","24.1","","100.71","","","","","","Mostly Cloudy"
"1995-04-02 16:00","1995","04","02","16:00","3.7","","-7.5","","44","","19","","13","","24.1","","100.71","","","","","","Mainly Clear"
"1995-04-02 17:00","1995","04","02","17:00","3.7","","-7.0","","45","","21","","15","","24.1","","100.75","","","","","","Mainly Clear"
"1995-04-02 18:00","1995","04","02","18:00","3.3","","-7.4","","45","","22","","7","","24.1","","100.75","","","","","","Mainly Clear"
"1995-04-02 19:00","1995","04","02","19:00","2.4","","-8.9","","43","","22","","7","","24.1","","100.75","","","","","","Mainly Clear"
"1995-04-02 20:00","1995","04","02","20:00","1.5","","-7.8","","50","","25","","6","","24.1","","100.75","","","","","","Clear"
"1995-04-02 21:00","1995","04","02","21:00","0.4","","-6.8","","58","","17","","4","","24.1","","100.78","","","","","","Clear"
"1995-04-02 22:00","1995","04","02","22:00","0.2","","-5.0","","68","","","","0","","24.1","","100.81","","","","","","Clear"
"1995-04-02 23:00","1995","04","02","23:00","","M","","M","","M","","","0","","","M","","M","","","","","NA"
"1995-04-03 00:00","1995","04","03","00:00","","M","","M","","M","11","","4","","","M","","M","","","","","NA"
"1995-04-03 01:00","1995","04","03","01:00","","M","","M","","M","12","","4","","","M","","M","","","","","NA"
"1995-04-03 02:00","1995","04","03","02:00","","M","","M","","M","","","0","","","M","","M","","","","","NA"
"1995-04-03 03:00","1995","04","03","03:00","","M","","M","","M","21","","4","","","M","","M","","","","","NA"
"1995-04-03 04:00","1995","04","03","04:00","","M","","M","","M","19","","7","","","M","","M","","","","","NA"
"1995-04-03 05:00","1995","04","03","05:00","1.0","","-2.8","","76","","17","","9","","24.1","","100.81","","","","","","Mainly Clear"
"1995-04-03 06:00","1995","04","03","06:00","1.5","","-3.7","","68","","18","","19","","24.1","","100.75","","","","","","Mainly Clear"
"1995-04-03 07:00","1995","04","03","07:00","1.7","","-4.3","","64","","17","","22","","24.1","","100.75","","","","","","Cloudy"
"1995-04-03 08:00","1995","04","03","08:00","1.8","","-4.0","","65","","17","","22","","24.1","","100.75","","","","","","Cloudy"
"1995-04-03 09:00","1995","04","03","09:00","2.4","","-3.9","","63","","17","","28","","24.1","","100.64","","","","","","Cloudy"
"1995-04-03 10:00","1995","04","03","10:00","2.5","","-4.2","","61","","16","","37","","24.1","","100.51","","","","","","Cloudy"
"1995-04-03 11:00","1995","04","03","11:00","3.8","","-3.8","","58","","16","","28","","24.1","","100.41","","","","","","Cloudy"
"1995-04-03 12:00","1995","04","03","12:00","4.3","","-2.5","","61","","19","","28","","24.1","","100.28","","","","","","Cloudy"
"1995-04-03 13:00","1995","04","03","13:00","4.3","","-0.2","","73","","18","","28","","24.1","","100.11","","","","","","Cloudy"
"1995-04-03 14:00","1995","04","03","14:00","4.4","","0.1","","74","","17","","19","","24.1","","99.87","","","","","","Cloudy"
"1995-04-03 15:00","1995","04","03","15:00","4.6","","0.6","","75","","16","","28","","24.1","","99.67","","","","","","Cloudy"
"1995-04-03 16:00","1995","04","03","16:00","4.6","","0.3","","74","","16","","24","","16.1","","99.57","","","","","","Rain Showers"
"1995-04-03 17:00","1995","04","03","17:00","3.7","","1.7","","87","","17","","22","","8.0","","99.57","","","","","","Rain Showers"
"1995-04-03 18:00","1995","04","03","18:00","3.9","","2.5","","91","","20","","19","","4.8","","99.60","","","","","","Rain Showers,Fog"
"1995-04-03 19:00","1995","04","03","19:00","3.9","","3.1","","95","","21","","17","","6.4","","99.57","","","","","","Fog"
"1995-04-03 20:00","1995","04","03","20:00","3.2","","2.6","","96","","19","","15","","4.8","","99.60","","","","","","Fog"
"1995-04-03 21:00","1995","04","03","21:00","2.8","","2.3","","97","","17","","13","","4.8","","99.64","","","","","","Fog"
"1995-04-03 22:00","1995","04","03","22:00","3.0","","2.5","","97","","16","","11","","4.0","","99.64","","","","","","Fog"
"1995-04-03 23:00","1995","04","03","23:00","","M","","M","","M","6","","9","","","M","","M","","","","","NA"
"1995-04-04 00:00","1995","04","04","00:00","","M","","M","","M","","","0","","","M","","M","","","","","NA"
"1995-04-04 01:00","1995","04","04","01:00","","M","","M","","M","21","","7","","","M","","M","","","","","NA"
"1995-04-04 02:00","1995","04","04","02:00","","M","","M","","M","20","","9","","","M","","M","","","","","NA"
"1995-04-04 03:00","1995","04","04","03:00","","M","","M","","M","21","","13","","","M","","M","","","","","NA"
"1995-04-04 04:00","1995","04","04","04:00","","M","","M","","M","20","","17","","","M","","M","","","","","NA"
"1995-04-04 05:00","1995","04","04","05:00","3.8","","3.5","","98","","20","","19","","16.1","","98.80","","","","","","Cloudy"
"1995-04-04 06:00","1995","04","04","06:00","4.4","","3.9","","97","","21","","13","","8.0","","98.77","","","","","","Fog"
"1995-04-04 07:00","1995","04","04","07:00","6.3","","5.6","","95","","22","","13","","9.7","","98.66","","","","","","Fog"
"1995-04-04 08:00","1995","04","04","08:00","5.9","","5.0","","94","","24","","19","","4.0","","98.66","","","","","","Rain Showers,Fog"
"1995-04-04 09:00","1995","04","04","09:00","2.9","","1.5","","90","","28","","28","","16.1","","98.66","","","","","","Cloudy"
"1995-04-04 10:00","1995","04","04","10:00","0.4","","-3.5","","75","","29","","28","","19.3","","98.83","","","","","","Snow Showers"
"1995-04-04 11:00","1995","04","04","11:00","0.8","","-5.3","","64","","29","","28","","24.1","","98.93","","","","","","Mainly Clear"
"1995-04-04 12:00","1995","04","04","12:00","0.7","","-7.8","","53","","27","","37","","24.1","","99.10","","","","","","Mostly Cloudy"
"1995-04-04 13:00","1995","04","04","13:00","-1.4","","-11.7","","45","","27","","37","","24.1","","99.30","","","","-9","","Mostly Cloudy"
"1995-04-04 14:00","1995","04","04","14:00","-1.8","","-13.6","","40","","27","","37","","24.1","","99.44","","","","-10","","Mostly Cloudy"
"1995-04-04 15:00","1995","04","04","15:00","-2.3","","-15.2","","36","","27","","44","","24.1","","99.57","","","","-11","","Mainly Clear"
"1995-04-04 16:00","1995","04","04","16:00","-3.6","","-16.2","","37","","26","","46","","24.1","","99.67","","","","-13","","Mainly Clear"
"1995-04-04 17:00","1995","04","04","17:00","-4.6","","-17.4","","36","","26","","28","","24.1","","99.84","","","","-12","","Mainly Clear"
"1995-04-04 18:00","1995","04","04","18:00","-6.1","","-17.9","","39","","27","","24","","24.1","","99.97","","","","-14","","Mainly Clear"
"1995-04-04 19:00","1995","04","04","19:00","-7.2","","-17.6","","43","","29","","28","","24.1","","100.07","","","","-16","","Mainly Clear"
"1995-04-04 20:00","1995","04","04","20:00","-7.0","","-18.1","","41","","28","","28","","24.1","","100.21","","","","-15","","Mainly Clear"
"1995-04-04 21:00","1995","04","04","21:00","-8.4","","-18.5","","44","","29","","33","","24.1","","100.31","","","","-18","","Clear"
"1995-04-04 22:00","1995","04","04","22:00","-8.8","","-18.3","","46","","30","","19","","24.1","","100.38","","","","-16","","Clear"
"1995-04-04 23:00","1995","04","04","23:00","","M","","M","","M","31","","9","","","M","","M","","","","","NA"
"1995-04-05 00:00","1995","04","05","00:00","","M","","M","","M","29","","9","","","M","","M","","","","","NA"
"1995-04-05 01:00","1995","04","05","01:00","","M","","M","","M","29","","9","","","M","","M","","","","","NA"
"1995-04-05 02:00","1995","04","05","02:00","","M","","M","","M","32","","7","","","M","","M","","","","","NA"
"1995-04-05 03:00","1995","04","05","03:00","","M","","M","","M","33","","13","","","M","","M","","","","","NA"
"1995-04-05 04:00","1995","04","05","04:00","","M","","M","","M","33","","7","","","M","","M","","","","","NA"
"1995-04-05 05:00","1995","04","05","05:00","-11.4","","-17.8","","59","","30","","9","","24.1","","100.41","","","","-17","","Mainly Clear"
"1995-04-05 06:00","1995","04","05","06:00","-11.5","","-17.4","","62","","30","","9","","24.1","","100.58","","","","-17","","Mainly Clear"
"1995-04-05 07:00","1995","04","05","07:00","-10.4","","-17.1","","58","","31","","9","","24.1","","100.61","","","","-15","","Mainly Clear"
"1995-04-05 08:00","1995","04","05","08:00","-9.0","","-17.2","","51","","31","","19","","24.1","","100.64","","","","-16","","Mainly Clear"
"1995-04-05 09:00","1995","04","05","09:00","-8.0","","-18.3","","43","","30","","28","","24.1","","100.64","","","","-17","","Clear"
"1995-04-05 10:00","1995","04","05","10:00","-5.9","","-18.5","","36","","31","","28","","24.1","","100.61","","","","-14","","Clear"
"1995-04-05 11:00","1995","04","05","11:00","-4.2","","-19.6","","29","","29","","28","","24.1","","100.54","","","","-12","","Mainly Clear"
"1995-04-05 12:00","1995","04","05","12:00","-3.2","","-19.9","","26","","31","","37","","24.1","","100.48","","","","-11","","Mainly Clear"
"1995-04-05 13:00","1995","04","05","13:00","-1.9","","-18.8","","26","","29","","33","","24.1","","100.51","","","","-9","","Mainly Clear"
"1995-04-05 14:00","1995","04","05","14:00","-1.8","","-19.1","","25","","29","","19","","24.1","","100.48","","","","-7","","Mainly Clear"
"1995-04-05 15:00","1995","04","05","15:00","-2.1","","-19.4","","25","","27","","28","","24.1","","100.48","","","","-9","","Mainly Clear"
"1995-04-05 16:00","1995","04","05","16:00","-1.6","","-18.7","","26","","30","","19","","24.1","","100.48","","","","-7","","Mainly Clear"
"1995-04-05 17:00","1995","04","05","17:00","-1.5","","-18.4","","26","","31","","19","","24.1","","100.54","","","","-7","","Mainly Clear"
"1995-04-05 18:00","1995","04","05","18:00","-2.3","","-18.1","","29","","29","","19","","24.1","","100.61","","","","-8","","Mainly Clear"
"1995-04-05 19:00","1995","04","05","19:00","-3.2","","-17.6","","32","","29","","19","","24.1","","100.68","","","","-9","","Mainly Clear"
"1995-04-05 20:00","1995","04","05","20:00","-3.9","","-15.1","","41","","25","","13","","24.1","","100.81","","","","-9","","Mainly Clear"
"1995-04-05 21:00","1995","04","05","21:00","-4.7","","-14.8","","45","","27","","15","","24.1","","100.91","","","","-10","","Clear"
"1995-04-05 22:00","1995","04","05","22:00","-5.1","","-15.1","","45","","29","","11","","24.1","","100.95","","","","-10","","Clear"
"1995-04-05 23:00","1995","04","05","23:00","","M","","M","","M","28","","6","","","M","","M","","","","","NA"
"1995-04-06 00:00","1995","04","06","00:00","","M","","M","","M","30","","4","","","M","","M","","","","","NA"
"1995-04-06 01:00","1995","04","06","01:00","","M","","M","","M","34","","4","","","M","","M","","","","","NA"
"1995-04-06 02:00","1995","04","06","02:00","","M","","M","","M","33","","4","","","M","","M","","","","","NA"
"1995-04-06 03:00","1995","04","06","03:00","","M","","M","","M","34","","4","","","M","","M","","","","","NA"
"1995-04-06 04:00","1995","04","06","04:00","","M","","M","","M","1","","6","","","M","","M","","","","","NA"
"1995-04-06 05:00","1995","04","06","05:00","-8.9","","-13.6","","69","","2","","9","","24.1","","100.91","","","","-14","","Clear"
"1995-04-06 06:00","1995","04","06","06:00","-7.9","","-13.4","","65","","5","","9","","24.1","","100.85","","","","-12","","Mainly Clear"
"1995-04-06 07:00","1995","04","06","07:00","-4.9","","-13.7","","50","","10","","20","","24.1","","100.85","","","","-11","","Cloudy"
"1995-04-06 08:00","1995","04","06","08:00","-3.9","","-14.0","","45","","12","","22","","24.1","","100.78","","","","-10","","Cloudy"
"1995-04-06 09:00","1995","04","06","09:00","-2.5","","-14.7","","39","","12","","19","","24.1","","100.64","","","","-8","","Cloudy"
"1995-04-06 10:00","1995","04","06","10:00","-2.9","","-12.9","","46","","16","","19","","24.1","","100.64","","","","-9","","Cloudy"
"1995-04-06 11:00","1995","04","06","11:00","-3.4","","-10.9","","56","","15","","9","","4.0","","100.51","","","","-7","","Snow"
"1995-04-06 12:00","1995","04","06","12:00","-4.3","","-6.8","","83","","13","","15","","3.2","","100.38","","","","-10","","Snow"
"1995-04-06 13:00","1995","04","06","13:00","-3.8","","-6.1","","84","","6","","11","","1.2","","100.34","","","","-8","","Snow"
"1995-04-06 14:00","1995","04","06","14:00","-3.9","","-5.8","","87","","9","","19","","3.2","","100.11","","","","-10","","Snow"
"1995-04-06 15:00","1995","04","06","15:00","-3.8","","-5.6","","87","","5","","15","","1.2","","100.18","","","","-9","","Snow"
"1995-04-06 16:00","1995","04","06","16:00","-3.5","","-5.6","","85","","7","","19","","6.4","","100.04","","","","-9","","Snow"
"1995-04-06 17:00","1995","04","06","17:00","-3.5","","-5.6","","85","","7","","19","","6.4","","100.01","","","","-9","","Snow"
"1995-04-06 18:00","1995","04","06","18:00","-3.9","","-6.1","","85","","4","","19","","8.0","","100.04","","","","-10","","Snow"
"1995-04-06 19:00","1995","04","06","19:00","-3.9","","-6.4","","83","","4","","19","","12.9","","100.04","","","","-10","","Snow"
"1995-04-06 20:00","1995","04","06","20:00","-4.0","","-6.5","","83","","4","","15","","12.9","","100.11","","","","-9","","Snow"
"1995-04-06 21:00","1995","04","06","21:00","-4.5","","-7.2","","81","","4","","24","","19.3","","100.18","","","","-12","","Cloudy"
"1995-04-06 22:00","1995","04","06","22:00","-4.9","","-7.8","","80","","4","","22","","19.3","","100.18","","","","-12","","Cloudy"
"1995-04-06 23:00","1995","04","06","23:00","","M","","M","","M","5","","22","","","M","","M","","","","","NA"
"1995-04-07 00:00","1995","04","07","00:00","","M","","M","","M","4","","15","","","M","","M","","","","","NA"
"1995-04-07 01:00","1995","04","07","01:00","","M","","M","","M","4","","17","","","M","","M","","","","","NA"
"1995-04-07 02:00","1995","04","07","02:00","","M","","M","","M","3","","19","","","M","","M","","","","","NA"
"1995-04-07 03:00","1995","04","07","03:00","","M","","M","","M","3","","13","","","M","","M","","","","","NA"
"1995-04-07 04:00","1995","04","07","04:00","","M","","M","","M","3","","15","","","M","","M","","","","","NA"
"1995-04-07 05:00","1995","04","07","05:00","-6.8","","-9.4","","82","","36","","9","","19.3","","100.54","","","","-11","","Mainly Clear"
"1995-04-07 06:00","1995","04","07","06:00","-7.3","","-9.5","","84","","1","","11","","24.1","","100.58","","","","-12","","Mainly Clear"
"1995-04-07 07:00","1995","04","07","07:00","-6.4","","-9.3","","80","","2","","13","","24.1","","100.71","","","","-12","","Clear"
"1995-04-07 08:00","1995","04","07","08:00","-4.7","","-10.3","","65","","4","","19","","24.1","","100.75","","","","-11","","Clear"
"1995-04-07 09:00","1995","04","07","09:00","-3.4","","-9.9","","61","","2","","19","","24.1","","100.78","","","","-9","","Clear"
"1995-04-07 10:00","1995","04","07","10:00","-2.0","","-9.8","","55","","1","","24","","24.1","","100.81","","","","-8","","Clear"
"1995-04-07 11:00","1995","04","07","11:00","-1.0","","-9.8","","51","","1","","15","","24.1","","100.78","","","","-6","","Clear"
"1995-04-07 12:00","1995","04","07","12:00","0.2","","-9.7","","47","","34","","9","","24.1","","100.75","","","","","","Clear"
"1995-04-07 13:00","1995","04","07","13:00","1.4","","-10.2","","42","","5","","15","","24.1","","100.75","","","","","","Clear"
"1995-04-07 14:00","1995","04","07","14:00","1.5","","-7.2","","52","","17","","7","","24.1","","100.71","","","","","","Clear"
"1995-04-07 15:00","1995","04","07","15:00","1.3","","-7.7","","51","","18","","13","","24.1","","100.68","","","","","","Clear"
"1995-04-07 16:00","1995","04","07","16:00","1.1","","-6.4","","57","","17","","11","","24.1","","100.64","","","","","","Clear"
"1995-04-07 17:00","1995","04","07","17:00","1.0","","-4.7","","66","","19","","19","","24.1","","100.68","","","","","","Clear"
"1995-04-07 18:00","1995","04","07","18:00","0.4","","-5.5","","65","","23","","11","","24.1","","100.64","","","","","","Clear"
"1995-04-07 19:00","1995","04","07","19:00","-0.5","","-5.5","","69","","23","","11","","24.1","","100.71","","","","-4","","Mainly Clear"
"1995-04-07 20:00","1995","04","07","20:00","-1.0","","-5.8","","70","","24","","9","","24.1","","100.75","","","","-4","","Mainly Clear"
"1995-04-07 21:00","1995","04","07","21:00","-1.3","","-5.0","","76","","26","","15","","24.1","","100.75","","","","-6","","Mainly Clear"
"1995-04-07 22:00","1995","04","07","22:00","-2.6","","-6.2","","76","","28","","7","","24.1","","100.71","","","","-5","","Mainly Clear"
"1995-04-07 23:00","1995","04","07","23:00","","M","","M","","M","29","","7","","","M","","M","","","","","NA"
"1995-04-08 00:00","1995","04","08","00:00","","M","","M","","M","","","0","","","M","","M","","","","","NA"
"1995-04-08 01:00","1995","04","08","01:00","","M","","M","","M","","","0","","","M","","M","","","","","NA"
"1995-04-08 02:00","1995","04","08","02:00","","M","","M","","M","11","","4","","","M","","M","","","","","NA"
"1995-04-08 03:00","1995","04","08","03:00","","M","","M","","M","","","0","","","M","","M","","","","","NA"
"1995-04-08 04:00","1995","04","08","04:00","","M","","M","","M","","","0","","","M","","M","","","","","NA"
"1995-04-08 05:00","1995","04","08","05:00","-2.9","","-5.3","","83","","","","0","","24.1","","100.48","","","","","","Cloudy"
"1995-04-08 06:00","1995","04","08","06:00","-1.8","","-4.1","","84","","12","","4","","24.1","","100.51","","","","-3","","Cloudy"
"1995-04-08 07:00","1995","04","08","07:00","-0.3","","-2.7","","84","","12","","9","","19.3","","100.41","","","","-3","","Cloudy"
"1995-04-08 08:00","1995","04","08","08:00","0.3","","-3.0","","78","","9","","9","","19.3","","100.38","","","","","","Cloudy"
"1995-04-08 09:00","1995","04","08","09:00","1.2","","-5.9","","59","","13","","13","","19.3","","100.34","","","","","","Cloudy"
"1995-04-08 10:00","1995","04","08","10:00","1.2","","-5.5","","61","","13","","15","","19.3","","100.31","","","","","","Cloudy"
"1995-04-08 11:00","1995","04","08","11:00","1.7","","-5.6","","58","","15","","9","","19.3","","100.21","","","","","","Cloudy"
"1995-04-08 12:00","1995","04","08","12:00","2.3","","-4.7","","60","","16","","9","","19.3","","100.11","","","","","","Cloudy"
"1995-04-08 13:00","1995","04","08","13:00","1.7","","-2.4","","74","","16","","7","","19.3","","100.01","","","","","","Cloudy"
"1995-04-08 14:00","1995","04","08","14:00","2.7","","-1.9","","72","","13","","9","","19.3","","99.97","","","","","","Cloudy"
"1995-04-08 15:00","1995","04","08","15:00","3.0","","-2.4","","68","","11","","11","","24.1","","99.97","","","","","","Cloudy"
"1995-04-08 16:00","1995","04","08","16:00","3.6","","-1.4","","70","","9","","6","","24.1","","99.94","","","","","","Cloudy"
"1995-04-08 17:00","1995","04","08","17:00","3.6","","-1.3","","70","","11","","4","","19.3","","99.91","","","","","","Cloudy"
"1995-04-08 18:00","1995","04","08","18:00","3.6","","-0.8","","73","","","","0","","19.3","","99.91","","","","","","Cloudy"
"1995-04-08 19:00","1995","04","08","19:00","3.3","","-0.9","","74","","12","","4","","19.3","","99.84","","","","","","Cloudy"
"1995-04-08 20:00","1995","04","08","20:00","3.3","","-0.6","","76","","15","","7","","19.3","","99.87","","","","","","Cloudy"
"1995-04-08 21:00","1995","04","08","21:00","2.5","","0.3","","85","","18","","7","","19.3","","99.84","","","","","","Cloudy"
"1995-04-08 22:00","1995","04","08","22:00","2.2","","0.6","","89","","18","","6","","19.3","","99.84","","","","","","Cloudy"
"1995-04-08 23:00","1995","04","08","23:00","","M","","M","","M","24","","4","","","M","","M","","","","","NA"
"1995-04-09 00:00","1995","04","09","00:00","","M","","M","","M","","","0","","","M","","M","","","","","NA"
"1995-04-09 01:00","1995","04","09","01:00","","M","","M","","M","","","0","","","M","","M","","","","","NA"
"1995-04-09 02:00","1995","04","09","02:00","","M","","M","","M","24","","4","","","M","","M","","","","","NA"
"1995-04-09 03:00","1995","04","09","03:00","","M","","M","","M","28","","6","","","M","","M","","","","","NA"
"1995-04-09 04:00","1995","04","09","04:00","","M","","M","","M","","","0","","","M","","M","","","","","NA"
"1995-04-09 05:00","1995","04","09","05:00","1.6","","-0.1","","88","","24","","6","","16.1","","99.71","","","","","","Cloudy"
"1995-04-09 06:00","1995","04","09","06:00","1.8","","0.1","","88","","26","","7","","11.3","","99.77","","","","","","Cloudy"
"1995-04-09 07:00","1995","04","09","07:00","2.0","","-0.2","","85","","25","","9","","9.7","","99.87","","","","","","Haze"
"1995-04-09 08:00","1995","04","09","08:00","2.4","","-0.2","","83","","26","","7","","9.7","","99.87","","","","","","Haze"
"1995-04-09 09:00","1995","04","09","09:00","4.2","","-1.0","","69","","31","","13","","11.3","","99.91","","","","","","Cloudy"
"1995-04-09 10:00","1995","04","09","10:00","5.4","","-0.4","","66","","36","","7","","12.9","","99.87","","","","","","Cloudy"
"1995-04-09 11:00","1995","04","09","11:00","6.2","","-1.9","","56","","33","","7","","19.3","","99.87","","","","","","Cloudy"
"1995-04-09 12:00","1995","04","09","12:00","6.7","","-4.0","","46","","33","","17","","19.3","","99.97","","","","","","Cloudy"
"1995-04-09 13:00","1995","04","09","13:00","7.1","","-5.1","","41","","32","","19","","24.1","","99.94","","","","","","Cloudy"
"1995-04-09 14:00","1995","04","09","14:00","6.8","","-6.7","","37","","35","","19","","24.1","","99.91","","","","","","Cloudy"
"1995-04-09 15:00","1995","04","09","15:00","6.9","","-8.3","","33","","33","","15","","24.1","","100.01","","","","","","Cloudy"
"1995-04-09 16:00","1995","04","09","16:00","7.1","","-9.0","","31","","34","","15","","24.1","","100.07","","","","","","Cloudy"
"1995-04-09 17:00","1995","04","09","17:00","6.0","","-10.5","","29","","36","","22","","24.1","","100.18","","","","","","Cloudy"
"1995-04-09 18:00","1995","04","09","18:00","4.7","","-13.8","","25","","34","","22","","24.1","","100.34","","","","","","Mostly Cloudy"
"1995-04-09 19:00","1995","04","09","19:00","2.9","","-16.9","","22","","35","","24","","24.1","","100.54","","","","","","Mostly Cloudy"
"1995-04-09 20:00","1995","04","09","20:00","1.1","","-15.7","","27","","35","","19","","24.1","","100.75","","","","","","Mainly Clear"
"1995-04-09 21:00","1995","04","09","21:00","0.0","","-15.7","","30","","36","","24","","24.1","","100.85","","","","-6","","Mainly Clear"
"1995-04-09 22:00","1995","04","09","22:00","-1.1","","-17.2","","28","","36","","28","","24.1","","100.95","","","","-8","","Mainly Clear"
"1995-04-09 23:00","1995","04","09","23:00","","M","","M","","M","3","","13","","","M","","M","","","","","NA"
"1995-04-10 00:00","1995","04","10","00:00","","M","","M","","M","2","","6","","","M","","M","","","","","NA"
"1995-04-10 01:00","1995","04","10","01:00","","M","","M","","M","2","","7","","","M","","M","","","","","NA"
"1995-04-10 02:00","1995","04","10","02:00","","M","","M","","M","2","","7","","","M","","M","","","","","NA"
"1995-04-10 03:00","1995","04","10","03:00","","M","","M","","M","4","","4","","","M","","M","","","","","NA"
"1995-04-10 04:00","1995","04","10","04:00","","M","","M","","M","5","","7","","","M","","M","","","","","NA"
"1995-04-10 05:00","1995","04","10","05:00","-4.6","","-12.1","","56","","3","","13","","24.1","","101.48","","","","-10","","Mainly Clear"
"1995-04-10 06:00","1995","04","10","06:00","-4.6","","-11.8","","57","","2","","9","","24.1","","101.62","","","","-8","","Mostly Cloudy"
"1995-04-10 07:00","1995","04","10","07:00","-2.9","","-11.1","","53","","35","","6","","24.1","","101.89","","","","-5","","Mostly Cloudy"
"1995-04-10 08:00","1995","04","10","08:00","-1.3","","-10.9","","48","","2","","13","","24.1","","101.85","","","","-6","","Mostly Cloudy"
"1995-04-10 09:00","1995","04","10","09:00","-0.3","","-11.5","","43","","3","","9","","24.1","","101.95","","","","-3","","Mostly Cloudy"
"1995-04-10 10:00","1995","04","10","10:00","0.8","","-12.0","","38","","3","","9","","24.1","","101.95","","","","","","Cloudy"
"1995-04-10 11:00","1995","04","10","11:00","0.7","","-9.4","","47","","","","0","","24.1","","101.89","","","","","","Mostly Cloudy"
"1995-04-10 12:00","1995","04","10","12:00","1.5","","-8.3","","48","","2","","9","","24.1","","101.82","","","","","","Cloudy"
"1995-04-10 13:00","1995","04","10","13:00","3.0","","-6.3","","50","","15","","7","","24.1","","101.82","","","","","","Cloudy"
"1995-04-10 14:00","1995","04","10","14:00","2.0","","-5.9","","56","","18","","9","","24.1","","101.79","","","","","","Mostly Cloudy"
"1995-04-10 15:00","1995","04","10","15:00","2.0","","-5.8","","56","","19","","13","","24.1","","101.82","","","","","","Mostly Cloudy"
"1995-04-10 16:00","1995","04","10","16:00","2.9","","-6.6","","50","","18","","7","","24.1","","101.75","","","","","","Mostly Cloudy"
"1995-04-10 17:00","1995","04","10","17:00","2.7","","-6.2","","52","","20","","7","","24.1","","101.75","","","","","","Mainly Clear"
"1995-04-10 18:00","1995","04","10","18:00","2.5","","-5.3","","56","","19","","6","","24.1","","101.72","","","","","","Mainly Clear"
"1995-04-10 19:00","1995","04","10","19:00","1.5","","-7.4","","52","","21","","4","","24.1","","101.79","","","","","","Mainly Clear"
"1995-04-10 20:00","1995","04","10","20:00","0.3","","-8.4","","52","","27","","4","","24.1","","101.82","","","","","","Clear"
"1995-04-10 21:00","1995","04","10","21:00","0.0","","-5.9","","64","","29","","6","","24.1","","101.85","","","","-2","","Clear"
"1995-04-10 22:00","1995","04","10","22:00","-2.2","","-7.9","","65","","35","","11","","24.1","","101.85","","","","-6","","Clear"
"1995-04-10 23:00","1995","04","10","23:00","","M","","M","","M","1","","6","","","M","","M","","","","","NA"
"1995-04-11 00:00","1995","04","11","00:00","","M","","M","","M","4","","4","","","M","","M","","","","","NA"
"1995-04-11 01:00","1995","04","11","01:00","","M","","M","","M","6","","7","","","M","","M","","","","","NA"
"1995-04-11 02:00","1995","04","11","02:00","","M","","M","","M","6","","7","","","M","","M","","","","","NA"
"1995-04-11 03:00","1995","04","11","03:00","","M","","M","","M","7","","7","","","M","","M","","","","","NA"
"1995-04-11 04:00","1995","04","11","04:00","","M","","M","","M","6","","9","","","M","","M","","","","","NA"
"1995-04-11 05:00","1995","04","11","05:00","0.3","","-8.2","","53","","5","","13","","24.1","","101.89","","","","","","Mostly Cloudy"
"1995-04-11 06:00","1995","04","11","06:00","0.9","","-8.2","","51","","6","","15","","24.1","","101.92","","","","","","Mostly Cloudy"
"1995-04-11 07:00","1995","04","11","07:00","1.9","","-8.0","","48","","7","","19","","24.1","","101.95","","","","","","Mostly Cloudy"
"1995-04-11 08:00","1995","04","11","08:00","3.9","","-7.5","","43","","8","","19","","24.1","","101.95","","","","","","Mostly Cloudy"
"1995-04-11 09:00","1995","04","11","09:00","5.8","","-6.0","","42","","8","","19","","24.1","","101.95","","","","","","Mostly Cloudy"
"1995-04-11 10:00","1995","04","11","10:00","8.0","","-5.4","","38","","9","","13","","24.1","","101.89","","","","","","Mostly Cloudy"
"1995-04-11 11:00","1995","04","11","11:00","8.6","","-4.0","","41","","12","","11","","24.1","","101.79","","","","","","Mainly Clear"
"1995-04-11 12:00","1995","04","11","12:00","11.6","","-5.0","","31","","9","","19","","24.1","","101.69","","","","","","Mainly Clear"
"1995-04-11 13:00","1995","04","11","13:00","12.2","","-4.2","","32","","9","","19","","24.1","","101.58","","","","","","Mainly Clear"
"1995-04-11 14:00","1995","04","11","14:00","13.2","","-3.6","","31","","10","","22","","24.1","","101.48","","","","","","Mainly Clear"
"1995-04-11 15:00","1995","04","11","15:00","14.9","","-4.2","","26","","8","","19","","24.1","","101.38","","","","","","Mainly Clear"
"1995-04-11 16:00","1995","04","11","16:00","15.0","","-5.1","","25","","13","","15","","24.1","","101.28","","","","","","Mainly Clear"
"1995-04-11 17:00","1995","04","11","17:00","11.7","","-4.8","","31","","16","","6","","24.1","","101.25","","","","","","Mainly Clear"
"1995-04-11 18:00","1995","04","11","18:00","13.5","","-4.3","","29","","11","","13","","24.1","","101.18","","","","","","Mainly Clear"
"1995-04-11 19:00","1995","04","11","19:00","12.6","","-3.1","","33","","9","","15","","24.1","","101.18","","","","","","Mainly Clear"
"1995-04-11 20:00","1995","04","11","20:00","10.4","","-4.3","","35","","7","","19","","24.1","","101.15","","","","","","Mostly Cloudy"
"1995-04-11 21:00","1995","04","11","21:00","10.0","","-3.5","","38","","8","","11","","24.1","","101.05","","","","","","Mostly Cloudy"
"1995-04-11 22:00","1995","04","11","22:00","10.1","","-1.3","","45","","12","","19","","24.1","","100.95","","","","","","Mostly Cloudy"
"1995-04-11 23:00","1995","04","11","23:00","","M","","M","","M","16","","19","","","M","","M","","","","","NA"
"1995-04-12 00:00","1995","04","12","00:00","","M","","M","","M","16","","15","","","M","","M","","","","","NA"
"1995-04-12 01:00","1995","04","12","01:00","","M","","M","","M","17","","20","","","M","","M","","","","","NA"
"1995-04-12 02:00","1995","04","12","02:00","","M","","M","","M","18","","26","","","M","","M","","","","","NA"
"1995-04-12 03:00","1995","04","12","03:00","","M","","M","","M","18","","20","","","M","","M","","","","","NA"
"1995-04-12 04:00","1995","04","12","04:00","","M","","M","","M","16","","28","","","M","","M","","","","","NA"
"1995-04-12 05:00","1995","04","12","05:00","5.9","","0.9","","70","","15","","19","","24.1","","100.58","","","","","","Mostly Cloudy"
"1995-04-12 06:00","1995","04","12","06:00","6.6","","0.6","","65","","15","","19","","24.1","","100.61","","","","","","Cloudy"
"1995-04-12 07:00","1995","04","12","07:00","6.2","","1.4","","71","","16","","19","","24.1","","100.64","","","","","","Mostly Cloudy"
"1995-04-12 08:00","1995","04","12","08:00","6.8","","2.1","","72","","15","","17","","24.1","","100.61","","","","","","Mostly Cloudy"
"1995-04-12 09:00","1995","04","12","09:00","6.2","","2.6","","78","","17","","15","","24.1","","100.58","","","","","","Cloudy"
"1995-04-12 10:00","1995","04","12","10:00","6.5","","3.8","","83","","17","","7","","9.7","","100.54","","","","","","Rain,Fog"
"1995-04-12 11:00","1995","04","12","11:00","6.0","","4.9","","93","","18","","19","","12.9","","100.48","","","","","","Rain"
"1995-04-12 12:00","1995","04","12","12:00","6.2","","5.3","","94","","18","","19","","8.0","","100.38","","","","","","Rain Showers,Fog"
"1995-04-12 13:00","1995","04","12","13:00","5.8","","5.0","","95","","17","","22","","8.0","","100.31","","","","","","Rain Showers,Fog"
"1995-04-12 14:00","1995","04","12","14:00","5.8","","5.1","","95","","18","","19","","9.7","","100.21","","","","","","Rain Showers,Fog"
"1995-04-12 15:00","1995","04","12","15:00","6.3","","5.9","","97","","19","","13","","3.2","","100.14","","","","","","Rain Showers,Fog"
"1995-04-12 16:00","1995","04","12","16:00","8.0","","7.9","","99","","23","","9","","0.2","","100.14","","","","","","Rain Showers,Fog"
"1995-04-12 17:00","1995","04","12","17:00","8.5","","8.5","","100","","27","","9","","0.6","","100.07","","","","","","Rain Showers,Fog"
"1995-04-12 18:00","1995","04","12","18:00","7.7","","7.7","","100","","19","","4","","0.4","","100.01","","","","","","Rain Showers,Fog"
"1995-04-12 19:00","1995","04","12","19:00","8.2","","8.2","","100","","25","","6","","0.4","","99.97","","","","","","Rain Showers,Fog"
"1995-04-12 20:00","1995","04","12","20:00","5.2","","5.0","","99","","16","","11","","0.4","","99.84","","","","","","Rain Showers,Fog"
"1995-04-12 21:00","1995","04","12","21:00","6.4","","6.3","","99","","15","","4","","0.4","","99.77","","","","","","Fog"
"1995-04-12 22:00","1995","04","12","22:00","5.6","","5.4","","99","","17","","9","","0.4","","99.71","","","","","","Fog"
"1995-04-12 23:00","1995","04","12","23:00","","M","","M","","M","18","","4","","","M","","M","","","","","NA"
"1995-04-13 00:00","1995","04","13","00:00","","M","","M","","M","25","","7","","","M","","M","","","","","NA"
"1995-04-13 01:00","1995","04","13","01:00","","M","","M","","M","22","","11","","","M","","M","","","","","NA"
"1995-04-13 02:00","1995","04","13","02:00","","M","","M","","M","25","","24","","","M","","M","","","","","NA"
"1995-04-13 03:00","1995","04","13","03:00","","M","","M","","M","25","","22","","","M","","M","","","","","NA"
"1995-04-13 04:00","1995","04","13","04:00","","M","","M","","M","26","","13","","","M","","M","","","","","NA"
"1995-04-13 05:00","1995","04","13","05:00","4.2","","2.5","","89","","24","","19","","19.3","","99.47","","","","","","Mostly Cloudy"
"1995-04-13 06:00","1995","04","13","06:00","4.0","","1.8","","86","","24","","11","","19.3","","99.47","","","","","","Mostly Cloudy"
"1995-04-13 07:00","1995","04","13","07:00","4.2","","2.0","","86","","24","","22","","16.1","","99.50","","","","","","Rain Showers"
"1995-04-13 08:00","1995","04","13","08:00","3.9","","2.2","","89","","23","","19","","16.1","","99.50","","","","","","Rain Showers"
"1995-04-13 09:00","1995","04","13","09:00","6.3","","3.4","","82","","24","","28","","16.1","","99.50","","","","","","Mostly Cloudy"
"1995-04-13 10:00","1995","04","13","10:00","4.4","","2.3","","86","","21","","19","","19.3","","99.54","","","","","","Cloudy"
"1995-04-13 11:00","1995","04","13","11:00","7.2","","3.2","","76","","23","","28","","19.3","","99.50","","","","","","Mostly Cloudy"
"1995-04-13 12:00","1995","04","13","12:00","7.0","","2.6","","74","","23","","28","","19.3","","99.47","","","","","","Mostly Cloudy"
"1995-04-13 13:00","1995","04","13","13:00","6.0","","2.9","","80","","22","","28","","19.3","","99.44","","","","","","Mostly Cloudy"
"1995-04-13 14:00","1995","04","13","14:00","7.8","","1.8","","66","","24","","28","","19.3","","99.37","","","","","","Mostly Cloudy"
"1995-04-13 15:00","1995","04","13","15:00","7.2","","1.0","","65","","23","","22","","24.1","","99.37","","","","","","Cloudy"
"1995-04-13 16:00","1995","04","13","16:00","7.4","","0.5","","62","","25","","24","","24.1","","99.40","","","","","","Cloudy"
"1995-04-13 17:00","1995","04","13","17:00","7.3","","0.4","","62","","25","","22","","24.1","","99.44","","","","","","Mostly Cloudy"
"1995-04-13 18:00","1995","04","13","18:00","6.9","","0.1","","62","","24","","19","","24.1","","99.47","","","","","","Mostly Cloudy"
"1995-04-13 19:00","1995","04","13","19:00","5.7","","1.2","","73","","24","","24","","24.1","","99.50","","","","","","Cloudy"
"1995-04-13 20:00","1995","04","13","20:00","4.3","","1.9","","84","","26","","19","","24.1","","99.57","","","","","","Cloudy"
"1995-04-13 21:00","1995","04","13","21:00","4.4","","1.8","","83","","26","","19","","24.1","","99.57","","","","","","Cloudy"
"1995-04-13 22:00","1995","04","13","22:00","4.1","","1.9","","86","","25","","13","","24.1","","99.57","","","","","","Cloudy"
"1995-04-13 23:00","1995","04","13","23:00","","M","","M","","M","27","","9","","","M","","M","","","","","NA"
"1995-04-14 00:00","1995","04","14","00:00","","M","","M","","M","30","","4","","","M","","M","","","","","NA"
"1995-04-14 01:00","1995","04","14","01:00","","M","","M","","M","30","","6","","","M","","M","","","","","NA"
"1995-04-14 02:00","1995","04","14","02:00","","M","","M","","M","34","","7","","","M","","M","","","","","NA"
"1995-04-14 03:00","1995","04","14","03:00","","M","","M","","M","33","","7","","","M","","M","","","","","NA"
"1995-04-14 04:00","1995","04","14","04:00","","M","","M","","M","33","","9","","","M","","M","","","","","NA"
"1995-04-14 05:00","1995","04","14","05:00","0.8","","-1.5","","85","","27","","13","","24.1","","99.67","","","","","","Mostly Cloudy"
"1995-04-14 06:00","1995","04","14","06:00","1.0","","-1.2","","85","","28","","15","","24.1","","99.71","","","","","","Mostly Cloudy"
"1995-04-14 07:00","1995","04","14","07:00","1.8","","-0.5","","85","","30","","13","","24.1","","99.77","","","","","","Mostly Cloudy"
"1995-04-14 08:00","1995","04","14","08:00","3.6","","0.3","","79","","31","","9","","24.1","","99.81","","","","","","Mostly Cloudy"
"1995-04-14 09:00","1995","04","14","09:00","6.3","","1.2","","70","","32","","22","","24.1","","99.81","","","","","","Mostly Cloudy"
"1995-04-14 10:00","1995","04","14","10:00","6.0","","0.6","","68","","35","","19","","24.1","","99.87","","","","","","Cloudy"
"1995-04-14 11:00","1995","04","14","11:00","8.0","","0.6","","59","","29","","6","","24.1","","99.87","","","","","","Mostly Cloudy"
"1995-04-14 12:00","1995","04","14","12:00","9.6","","-1.0","","48","","33","","19","","24.1","","99.84","","","","","","Mostly Cloudy"
"1995-04-14 13:00","1995","04","14","13:00","8.8","","-1.8","","47","","32","","22","","24.1","","99.84","","","","","","Cloudy"
"1995-04-14 14:00","1995","04","14","14:00","9.3","","-2.2","","44","","32","","19","","24.1","","99.84","","","","","","Mostly Cloudy"
"1995-04-14 15:00","1995","04","14","15:00","8.6","","-2.2","","47","","32","","19","","24.1","","99.87","","","","","","Mostly Cloudy"
"1995-04-14 16:00","1995","04","14","16:00","8.9","","-2.5","","45","","32","","19","","24.1","","99.91","","","","","","Mostly Cloudy"
"1995-04-14 17:00","1995","04","14","17:00","8.1","","-2.3","","48","","33","","22","","24.1","","99.94","","","","","","Mostly Cloudy"
"1995-04-14 18:00","1995","04","14","18:00","7.0","","-3.3","","48","","33","","19","","24.1","","100.01","","","","","","Mostly Cloudy"
"1995-04-14 19:00","1995","04","14","19:00","5.9","","-4.1","","49","","34","","19","","24.1","","100.04","","","","","","Mostly Cloudy"
"1995-04-14 20:00","1995","04","14","20:00","4.4","","-4.3","","53","","35","","22","","24.1","","100.18","","","","","","Mainly Clear"
"1995-04-14 21:00","1995","04","14","21:00","1.5","","-5.3","","61","","35","","9","","24.1","","100.18","","","","","","Mainly Clear"
"1995-04-14 22:00","1995","04","14","22:00","1.1","","-5.6","","61","","31","","6","","24.1","","100.18","","","","","","Mainly Clear"
"1995-04-14 23:00","1995","04","14","23:00","","M","","M","","M","31","","11","","","M","","M","","","","","NA"
"1995-04-15 00:00","1995","04","15","00:00","","M","","M","","M","33","","11","","","M","","M","","","","","NA"
"1995-04-15 01:00","1995","04","15","01:00","","M","","M","","M","32","","9","","","M","","M","","","","","NA"
"1995-04-15 02:00","1995","04","15","02:00","","M","","M","","M","32","","9","","","M","","M","","","","","NA"
"1995-04-15 03:00","1995","04","15","03:00","","M","","M","","M","32","","13","","","M","","M","","","","","NA"
"1995-04-15 04:00","1995","04","15","04:00","","M","","M","","M","32","","15","","","M","","M","","","","","NA"
"1995-04-15 05:00","1995","04","15","05:00","-1.7","","-10.3","","52","","29","","7","","24.1","","100.14","","","","-4","","Mainly Clear"
"1995-04-15 06:00","1995","04","15","06:00","-2.6","","-10.0","","57","","27","","6","","24.1","","100.18","","","","-5","","Mainly Clear"
"1995-04-15 07:00","1995","04","15","07:00","-1.6","","-9.3","","56","","27","","6","","24.1","","100.18","","","","-4","","Mainly Clear"
"1995-04-15 08:00","1995","04","15","08:00","0.8","","-9.3","","47","","33","","19","","24.1","","100.18","","","","","","Mostly Cloudy"
"1995-04-15 09:00","1995","04","15","09:00","1.5","","-8.9","","46","","30","","19","","24.1","","100.18","","","","","","Mostly Cloudy"
"1995-04-15 10:00","1995","04","15","10:00","3.8","","-7.6","","43","","33","","15","","24.1","","100.11","","","","","","Mostly Cloudy"
"1995-04-15 11:00","1995","04","15","11:00","4.5","","-7.1","","43","","33","","19","","24.1","","100.07","","","","","","Mostly Cloudy"
"1995-04-15 12:00","1995","04","15","12:00","5.9","","-6.5","","41","","31","","19","","24.1","","100.01","","","","","","Mostly Cloudy"
"1995-04-15 13:00","1995","04","15","13:00","6.6","","-6.2","","39","","33","","19","","24.1","","99.97","","","","","","Mostly Cloudy"
"1995-04-15 14:00","1995","04","15","14:00","8.3","","-6.0","","36","","29","","19","","24.1","","99.91","","","","","","Mostly Cloudy"
"1995-04-15 15:00","1995","04","15","15:00","8.8","","-5.2","","37","","31","","19","","24.1","","99.87","","","","","","Mostly Cloudy"
"1995-04-15 16:00","1995","04","15","16:00","8.3","","-4.8","","39","","31","","22","","24.1","","99.87","","","","","","Cloudy"
"1995-04-15 17:00","1995","04","15","17:00","8.0","","-4.3","","41","","30","","19","","24.1","","99.87","","","","","","Mostly Cloudy"
"1995-04-15 18:00","1995","04","15","18:00","8.2","","-4.9","","39","","29","","15","","24.1","","99.87","","","","","","Mostly Cloudy"
"1995-04-15 19:00","1995","04","15","19:00","8.0","","-5.0","","39","","32","","19","","24.1","","99.91","","","","","","Mostly Cloudy"
"1995-04-15 20:00","1995","04","15","20:00","7.6","","-4.7","","41","","31","","9","","24.1","","99.94","","","","","","Mostly Cloudy"
"1995-04-15 21:00","1995","04","15","21:00","6.3","","-4.3","","47","","28","","19","","24.1","","99.97","","","","","","Mostly Cloudy"
"1995-04-15 22:00","1995","04","15","22:00","4.9","","-5.0","","49","","28","","22","","24.1","","99.94","","","","","","Mostly Cloudy"
"1995-04-15 23:00","1995","04","15","23:00","","M","","M","","M","29","","22","","","M","","M","","","","","NA"
"1995-04-16 00:00","1995","04","16","00:00","","M","","M","","M","29","","19","","","M","","M","","","","","NA"
"1995-04-16 01:00","1995","04","16","01:00","","M","","M","","M","30","","13","","","M","","M","","","","","NA"
"1995-04-16 02:00","1995","04","16","02:00","","M","","M","","M","30","","11","","","M","","M","","","","","NA"
"1995-04-16 03:00","1995","04","16","03:00","","M","","M","","M","32","","15","","","M","","M","","","","","NA"
"1995-04-16 04:00","1995","04","16","04:00","","M","","M","","M","30","","9","","","M","","M","","","","","NA"
"1995-04-16 05:00","1995","04","16","05:00","-0.2","","-8.6","","53","","28","","17","","24.1","","99.97","","","","-5","","Mainly Clear"
"1995-04-16 06:00","1995","04","16","06:00","-0.7","","-8.2","","57","","28","","15","","24.1","","100.04","","","","-5","","Mainly Clear"
"1995-04-16 07:00","1995","04","16","07:00","1.3","","-8.2","","49","","30","","15","","24.1","","100.14","","","","","","Mainly Clear"
"1995-04-16 08:00","1995","04","16","08:00","3.1","","-9.3","","40","","33","","19","","24.1","","100.11","","","","","","Mainly Clear"
"1995-04-16 09:00","1995","04","16","09:00","4.4","","-8.6","","38","","35","","19","","24.1","","100.18","","","","","","Mainly Clear"
"1995-04-16 10:00","1995","04","16","10:00","4.4","","-8.4","","39","","34","","19","","24.1","","100.18","","","","","","Mostly Cloudy"
"1995-04-16 11:00","1995","04","16","11:00","6.2","","-7.1","","38","","36","","19","","24.1","","100.18","","","","","","Mostly Cloudy"
"1995-04-16 12:00","1995","04","16","12:00","7.5","","-6.4","","37","","32","","19","","24.1","","100.18","","","","","","Mostly Cloudy"
"1995-04-16 13:00","1995","04","16","13:00","8.9","","-5.3","","36","","35","","19","","24.1","","100.18","","","","","","Mostly Cloudy"
"1995-04-16 14:00","1995","04","16","14:00","5.6","","-2.6","","56","","17","","19","","24.1","","100.18","","","","","","Mostly Cloudy"
"1995-04-16 15:00","1995","04","16","15:00","4.6","","-0.7","","68","","18","","22","","24.1","","100.21","","","","","","Mostly Cloudy"
"1995-04-16 16:00","1995","04","16","16:00","4.4","","0.6","","76","","17","","19","","24.1","","100.21","","","","","","Mostly Cloudy"
"1995-04-16 17:00","1995","04","16","17:00","4.0","","1.1","","81","","16","","9","","24.1","","100.28","","","","","","Mostly Cloudy"
"1995-04-16 18:00","1995","04","16","18:00","4.0","","1.2","","82","","19","","6","","24.1","","100.38","","","","","","Mostly Cloudy"
"1995-04-16 19:00","1995","04","16","19:00","3.6","","0.0","","77","","7","","4","","24.1","","100.44","","","","","","Mainly Clear"
"1995-04-16 20:00","1995","04","16","20:00","4.4","","-3.0","","59","","6","","9","","24.1","","100.54","","","","","","Mainly Clear"
"1995-04-16 21:00","1995","04","16","21:00","3.7","","-5.6","","51","","5","","6","","24.1","","100.61","","","","","","Mainly Clear"
"1995-04-16 22:00","1995","04","16","22:00","2.6","","-5.6","","55","","5","","6","","24.1","","100.64","","","","","","Clear"
"1995-04-16 23:00","1995","04","16","23:00","","M","","M","","M","5","","6","","","M","","M","","","","","NA"
"1995-04-17 00:00","1995","04","17","00:00","","M","","M","","M","36","","6","","","M","","M","","","","","NA"
"1995-04-17 01:00","1995","04","17","01:00","","M","","M","","M","2","","7","","","M","","M","","","","","NA"
"1995-04-17 02:00","1995","04","17","02:00","","M","","M","","M","2","","9","","","M","","M","","","","","NA"
"1995-04-17 03:00","1995","04","17","03:00","","M","","M","","M","3","","7","","","M","","M","","","","","NA"
"1995-04-17 04:00","1995","04","17","04:00","","M","","M","","M","3","","7","","","M","","M","","","","","NA"
"1995-04-17 05:00","1995","04","17","05:00","-2.2","","-7.5","","67","","3","","4","","25.0","","100.75","","","","-4","","Clear"
"1995-04-17 06:00","1995","04","17","06:00","-1.0","","-6.7","","65","","2","","9","","25.0","","100.51","","","","-4","","Clear"
"1995-04-17 07:00","1995","04","17","07:00","-0.3","","-6.7","","62","","3","","11","","25.0","","100.81","","","","-4","","Clear"
"1995-04-17 08:00","1995","04","17","08:00","1.4","","-6.6","","55","","1","","13","","25.0","","100.81","","","","","","Clear"
"1995-04-17 09:00","1995","04","17","09:00","3.0","","-6.3","","50","","6","","7","","25.0","","100.81","","","","","","Mainly Clear"
"1995-04-17 10:00","1995","04","17","10:00","3.2","","-4.2","","58","","19","","15","","25.0","","100.85","","","","","","Mainly Clear"
"1995-04-17 11:00","1995","04","17","11:00","3.8","","-4.3","","55","","16","","13","","25.0","","100.75","","","","","","Mainly Clear"
"1995-04-17 12:00","1995","04","17","12:00","3.2","","-3.2","","63","","17","","15","","25.0","","100.71","","","","","","Mainly Clear"
"1995-04-17 13:00","1995","04","17","13:00","4.1","","-3.1","","59","","19","","19","","25.0","","100.68","","","","","","Mainly Clear"
"1995-04-17 14:00","1995","04","17","14:00","4.6","","-2.1","","62","","19","","19","","24.1","","100.61","","","","","","Mainly Clear"
"1995-04-17 15:00","1995","04","17","15:00","5.9","","-2.9","","53","","21","","7","","25.0","","100.58","","","","","","Mostly Cloudy"
"1995-04-17 16:00","1995","04","17","16:00","5.8","","-2.2","","56","","20","","7","","24.1","","100.54","","","","","","Mostly Cloudy"
"1995-04-17 17:00","1995","04","17","17:00","6.0","","-2.5","","54","","24","","4","","24.1","","100.61","","","","","","Cloudy"
"1995-04-17 18:00","1995","04","17","18:00","5.0","","-0.9","","66","","26","","7","","24.1","","100.61","","","","","","Cloudy"
"1995-04-17 19:00","1995","04","17","19:00","5.3","","-3.0","","55","","","","0","","24.1","","100.58","","","","","","Mostly Cloudy"
"1995-04-17 20:00","1995","04","17","20:00","5.1","","-3.1","","55","","32","","4","","24.1","","100.58","","","","","","Mostly Cloudy"
"1995-04-17 21:00","1995","04","17","21:00","4.5","","-2.2","","62","","","","0","","24.1","","100.64","","","","","","Mainly Clear"
"1995-04-17 22:00","1995","04","17","22:00","3.1","","-2.4","","67","","34","","7","","24.1","","100.75","","","","","","Mainly Clear"
"1995-04-17 23:00","1995","04","17","23:00","","M","","M","","M","33","","6","","","M","","M","","","","","NA"
"1995-04-18 00:00","1995","04","18","00:00","","M","","M","","M","36","","7","","","M","","M","","","","","NA"
"1995-04-18 01:00","1995","04","18","01:00","","M","","M","","M","3","","7","","","M","","M","","","","","NA"
"1995-04-18 02:00","1995","04","18","02:00","","M","","M","","M","2","","7","","","M","","M","","","","","NA"
"1995-04-18 03:00","1995","04","18","03:00","","M","","M","","M","2","","9","","","M","","M","","","","","NA"
"1995-04-18 04:00","1995","04","18","04:00","","M","","M","","M","3","","9","","","M","","M","","","","","NA"
"1995-04-18 05:00","1995","04","18","05:00","-0.3","","-4.7","","72","","36","","9","","24.1","","100.91","","","","-3","","Mainly Clear"
"1995-04-18 06:00","1995","04","18","06:00","0.4","","-4.1","","72","","3","","11","","24.1","","100.95","","","","","","Mainly Clear"
"1995-04-18 07:00","1995","04","18","07:00","2.7","","-3.3","","65","","5","","13","","24.1","","100.95","","","","","","Mostly Cloudy"
"1995-04-18 08:00","1995","04","18","08:00","4.8","","-2.9","","57","","6","","15","","24.1","","100.95","","","","","","Mostly Cloudy"
"1995-04-18 09:00","1995","04","18","09:00","5.3","","-1.9","","60","","8","","11","","24.1","","100.95","","","","","","Mostly Cloudy"
"1995-04-18 10:00","1995","04","18","10:00","5.9","","-1.5","","59","","13","","15","","24.1","","100.91","","","","","","Mostly Cloudy"
"1995-04-18 11:00","1995","04","18","11:00","6.6","","0.1","","63","","16","","11","","24.1","","100.88","","","","","","Mostly Cloudy"
"1995-04-18 12:00","1995","04","18","12:00","7.9","","-0.7","","55","","14","","17","","24.1","","100.81","","","","","","Cloudy"
"1995-04-18 13:00","1995","04","18","13:00","9.5","","-0.9","","48","","15","","13","","24.1","","100.71","","","","","","Cloudy"
"1995-04-18 14:00","1995","04","18","14:00","11.0","","-2.8","","38","","14","","15","","24.1","","100.61","","","","","","Cloudy"
"1995-04-18 15:00","1995","04","18","15:00","11.5","","-6.2","","28","","13","","7","","24.1","","100.48","","","","","","Cloudy"
"1995-04-18 16:00","1995","04","18","16:00","12.7","","-5.2","","28","","8","","19","","24.1","","100.28","","","","","","Cloudy"
"1995-04-18 17:00","1995","04","18","17:00","12.8","","-5.6","","27","","7","","15","","24.1","","100.14","","","","","","Cloudy"
"1995-04-18 18:00","1995","04","18","18:00","12.5","","-3.5","","33","","8","","13","","24.1","","100.07","","","","","","Cloudy"
"1995-04-18 19:00","1995","04","18","19:00","12.1","","-2.0","","37","","8","","19","","24.1","","99.91","","","","","","Cloudy"
"1995-04-18 20:00","1995","04","18","20:00","11.7","","-0.3","","43","","7","","19","","24.1","","99.81","","","","","","Cloudy"
"1995-04-18 21:00","1995","04","18","21:00","11.7","","0.7","","47","","7","","19","","24.1","","99.71","","","","","","Cloudy"
"1995-04-18 22:00","1995","04","18","22:00","12.0","","1.0","","47","","6","","15","","24.1","","99.64","","","","","","Cloudy"
"1995-04-18 23:00","1995","04","18","23:00","","M","","M","","M","9","","15","","","M","","M","","","","","NA"
"1995-04-19 00:00","1995","04","19","00:00","","M","","M","","M","11","","22","","","M","","M","","","","","NA"
"1995-04-19 01:00","1995","04","19","01:00","","M","","M","","M","16","","15","","","M","","M","","","","","NA"
"1995-04-19 02:00","1995","04","19","02:00","","M","","M","","M","17","","30","","","M","","M","","","","","NA"
"1995-04-19 03:00","1995","04","19","03:00","","M","","M","","M","18","","41","","","M","","M","","","","","NA"
"1995-04-19 04:00","1995","04","19","04:00","","M","","M","","M","17","","35","","","M","","M","","","","","NA"
"1995-04-19 05:00","1995","04","19","05:00","8.3","","6.5","","88","","18","","28","","12.9","","98.83","","","","","","Mainly Clear"
"1995-04-19 06:00","1995","04","19","06:00","8.0","","6.8","","92","","18","","28","","12.9","","98.83","","","","","","Mostly Cloudy"
"1995-04-19 07:00","1995","04","19","07:00","8.5","","6.9","","90","","18","","32","","16.1","","98.87","","","","","","Cloudy"
"1995-04-19 08:00","1995","04","19","08:00","7.3","","6.0","","91","","18","","19","","16.1","","98.93","","","","","","Mostly Cloudy"
"1995-04-19 09:00","1995","04","19","09:00","7.6","","6.4","","92","","21","","19","","12.9","","98.93","","","","","","Mostly Cloudy"
"1995-04-19 10:00","1995","04","19","10:00","13.6","","7.9","","68","","24","","28","","24.1","","99.03","","","","","","Mostly Cloudy"
"1995-04-19 11:00","1995","04","19","11:00","11.1","","5.3","","67","","24","","26","","24.1","","99.10","","","","","","Mostly Cloudy"
"1995-04-19 12:00","1995","04","19","12:00","13.3","","5.6","","60","","24","","28","","24.1","","99.13","","","","","","Mainly Clear"
"1995-04-19 13:00","1995","04","19","13:00","14.1","","5.4","","56","","25","","37","","24.1","","99.17","","","","","","Mainly Clear"
"1995-04-19 14:00","1995","04","19","14:00","14.6","","4.8","","52","","24","","37","","24.1","","99.20","","","","","","Mostly Cloudy"
"1995-04-19 15:00","1995","04","19","15:00","12.2","","3.9","","57","","25","","33","","24.1","","99.30","","","","","","Mostly Cloudy"
"1995-04-19 16:00","1995","04","19","16:00","12.1","","4.2","","58","","25","","37","","24.1","","99.44","","","","","","Cloudy"
"1995-04-19 17:00","1995","04","19","17:00","10.4","","4.3","","66","","26","","28","","24.1","","99.54","","","","","","Cloudy"
"1995-04-19 18:00","1995","04","19","18:00","9.5","","4.4","","70","","24","","19","","24.1","","99.67","","","","","","Cloudy"
"1995-04-19 19:00","1995","04","19","19:00","9.5","","4.4","","70","","28","","19","","24.1","","99.77","","","","","","Cloudy"
"1995-04-19 20:00","1995","04","19","20:00","8.0","","4.0","","76","","25","","19","","24.1","","99.87","","","","","","Cloudy"
"1995-04-19 21:00","1995","04","19","21:00","8.3","","2.9","","69","","27","","19","","24.1","","99.97","","","","","","Cloudy"
"1995-04-19 22:00","1995","04","19","22:00","7.4","","0.8","","63","","27","","19","","24.1","","100.01","","","","","","Cloudy"
"1995-04-19 23:00","1995","04","19","23:00","","M","","M","","M","27","","19","","","M","","M","","","","","NA"
"1995-04-20 00:00","1995","04","20","00:00","","M","","M","","M","27","","19","","","M","","M","","","","","NA"
"1995-04-20 01:00","1995","04","20","01:00","","M","","M","","M","27","","13","","","M","","M","","","","","NA"
"1995-04-20 02:00","1995","04","20","02:00","","M","","M","","M","28","","13","","","M","","M","","","","","NA"
"1995-04-20 03:00","1995","04","20","03:00","","M","","M","","M","27","","9","","","M","","M","","","","","NA"
"1995-04-20 04:00","1995","04","20","04:00","","M","","M","","M","29","","9","","","M","","M","","","","","NA"
"1995-04-20 05:00","1995","04","20","05:00","4.6","","0.4","","74","","27","","9","","24.1","","100.44","","","","","","Mostly Cloudy"
"1995-04-20 06:00","1995","04","20","06:00","4.3","","-1.1","","68","","33","","19","","24.1","","100.58","","","","","","Mostly Cloudy"
"1995-04-20 07:00","1995","04","20","07:00","5.0","","-1.2","","64","","29","","11","","24.1","","100.71","","","","","","Mostly Cloudy"
"1995-04-20 08:00","1995","04","20","08:00","4.8","","-1.8","","62","","1","","9","","24.1","","100.75","","","","","","Mostly Cloudy"
"1995-04-20 09:00","1995","04","20","09:00","6.2","","-1.8","","56","","36","","9","","24.1","","100.78","","","","","","Mostly Cloudy"
"1995-04-20 10:00","1995","04","20","10:00","6.9","","-1.4","","55","","6","","9","","24.1","","100.81","","","","","","Mostly Cloudy"
"1995-04-20 11:00","1995","04","20","11:00","6.0","","0.5","","68","","16","","13","","24.1","","100.85","","","","","","Mostly Cloudy"
"1995-04-20 12:00","1995","04","20","12:00","7.2","","0.8","","64","","19","","13","","24.1","","100.88","","","","","","Mainly Clear"
"1995-04-20 13:00","1995","04","20","13:00","6.5","","0.2","","64","","19","","15","","24.1","","100.85","","","","","","Mostly Cloudy"
"1995-04-20 14:00","1995","04","20","14:00","6.2","","0.1","","65","","16","","11","","24.1","","100.81","","","","","","Cloudy"
"1995-04-20 15:00","1995","04","20","15:00","5.6","","0.0","","67","","20","","19","","24.1","","100.78","","","","","","Cloudy"
"1995-04-20 16:00","1995","04","20","16:00","5.7","","0.3","","68","","21","","19","","24.1","","100.71","","","","","","Cloudy"
"1995-04-20 17:00","1995","04","20","17:00","5.6","","0.7","","71","","20","","9","","24.1","","100.68","","","","","","Cloudy"
"1995-04-20 18:00","1995","04","20","18:00","6.5","","0.1","","64","","24","","9","","24.1","","100.64","","","","","","Cloudy"
"1995-04-20 19:00","1995","04","20","19:00","5.9","","-0.2","","65","","27","","6","","24.1","","100.64","","","","","","Mostly Cloudy"
"1995-04-20 20:00","1995","04","20","20:00","6.4","","0.0","","64","","1","","2","","25.0","","100.61","","","","","","Mostly Cloudy"
"1995-04-20 21:00","1995","04","20","21:00","6.5","","0.2","","64","","","","0","","25.0","","100.64","","","","","","Cloudy"
"1995-04-20 22:00","1995","04","20","22:00","6.4","","0.8","","67","","35","","7","","25.0","","100.68","","","","","","Cloudy"
"1995-04-20 23:00","1995","04","20","23:00","","M","","M","","M","6","","11","","","M","","M","","","","","NA"
"1995-04-21 00:00","1995","04","21","00:00","","M","","M","","M","9","","13","","","M","","M","","","","","NA"
"1995-04-21 01:00","1995","04","21","01:00","","M","","M","","M","10","","17","","","M","","M","","","","","NA"
"1995-04-21 02:00","1995","04","21","02:00","","M","","M","","M","9","","13","","","M","","M","","","","","NA"
"1995-04-21 03:00","1995","04","21","03:00","","M","","M","","M","9","","15","","","M","","M","","","","","NA"
"1995-04-21 04:00","1995","04","21","04:00","","M","","M","","M","7","","17","","","M","","M","","","","","NA"
"1995-04-21 05:00","1995","04","21","05:00","8.1","","0.4","","58","","6","","24","","24.1","","100.18","","","","","","Cloudy"
"1995-04-21 06:00","1995","04","21","06:00","8.1","","0.7","","60","","6","","20","","24.1","","100.04","","","","","","Cloudy"
"1995-04-21 07:00","1995","04","21","07:00","8.8","","1.4","","60","","6","","24","","24.1","","99.97","","","","","","Cloudy"
"1995-04-21 08:00","1995","04","21","08:00","10.0","","2.4","","59","","6","","19","","24.1","","99.81","","","","","","Cloudy"
"1995-04-21 09:00","1995","04","21","09:00","10.5","","2.6","","58","","8","","19","","24.1","","99.71","","","","","","Cloudy"
"1995-04-21 10:00","1995","04","21","10:00","11.9","","3.4","","56","","7","","19","","24.1","","99.50","","","","","","Cloudy"
"1995-04-21 11:00","1995","04","21","11:00","13.0","","4.2","","55","","7","","17","","24.1","","99.34","","","","","","Rain Showers"
"1995-04-21 12:00","1995","04","21","12:00","11.8","","6.9","","72","","13","","19","","9.7","","99.27","","","","","","Rain Showers,Fog"
"1995-04-21 13:00","1995","04","21","13:00","9.2","","7.1","","87","","14","","24","","8.0","","99.13","","","","","","Rain Showers,Fog"
"1995-04-21 14:00","1995","04","21","14:00","8.1","","7.4","","95","","14","","28","","9.7","","99.00","","","","","","Rain Showers,Fog"
"1995-04-21 15:00","1995","04","21","15:00","8.3","","7.1","","92","","18","","33","","16.1","","98.80","","","","","","Rain Showers"
"1995-04-21 16:00","1995","04","21","16:00","11.9","","8.8","","81","","19","","46","","12.9","","99.00","","","","","","Cloudy"
"1995-04-21 17:00","1995","04","21","17:00","9.5","","7.5","","87","","21","","33","","12.9","","98.97","","","","","","Mostly Cloudy"
"1995-04-21 18:00","1995","04","21","18:00","8.3","","6.8","","90","","20","","28","","12.9","","99.03","","","","","","Mainly Clear"
"1995-04-21 19:00","1995","04","21","19:00","9.2","","7.8","","91","","22","","6","","12.9","","99.07","","","","","","Mainly Clear"
"1995-04-21 20:00","1995","04","21","20:00","6.5","","5.8","","95","","19","","6","","12.9","","99.13","","","","","","Mainly Clear"
"1995-04-21 21:00","1995","04","21","21:00","6.9","","5.9","","93","","22","","9","","12.9","","99.13","","","","","","Thunderstorms,Rain Showers"
"1995-04-21 22:00","1995","04","21","22:00","8.1","","7.7","","97","","18","","13","","6.4","","99.13","","","","","","Thunderstorms,Rain Showers,Fog"
"1995-04-21 23:00","1995","04","21","23:00","","M","","M","","M","22","","15","","","M","","M","","","","","NA"
"1995-04-22 00:00","1995","04","22","00:00","","M","","M","","M","24","","19","","","M","","M","","","","","NA"
"1995-04-22 01:00","1995","04","22","01:00","","M","","M","","M","23","","17","","","M","","M","","","","","NA"
"1995-04-22 02:00","1995","04","22","02:00","","M","","M","","M","24","","28","","","M","","M","","","","","NA"
"1995-04-22 03:00","1995","04","22","03:00","","M","","M","","M","26","","20","","","M","","M","","","","","NA"
"1995-04-22 04:00","1995","04","22","04:00","","M","","M","","M","27","","26","","","M","","M","","","","","NA"
"1995-04-22 05:00","1995","04","22","05:00","7.6","","3.9","","77","","27","","22","","24.1","","99.40","","","","","","Mostly Cloudy"
"1995-04-22 06:00","1995","04","22","06:00","6.4","","2.5","","76","","26","","19","","24.1","","99.47","","","","","","Mostly Cloudy"
"1995-04-22 07:00","1995","04","22","07:00","6.3","","2.0","","74","","27","","19","","24.1","","99.60","","","","","","Mostly Cloudy"
"1995-04-22 08:00","1995","04","22","08:00","6.3","","2.2","","75","","27","","19","","24.1","","99.67","","","","","","Mostly Cloudy"
"1995-04-22 09:00","1995","04","22","09:00","6.7","","1.4","","69","","27","","19","","24.1","","99.64","","","","","","Mostly Cloudy"
"1995-04-22 10:00","1995","04","22","10:00","6.6","","1.2","","68","","28","","19","","24.1","","99.60","","","","","","Mostly Cloudy"
"1995-04-22 11:00","1995","04","22","11:00","7.6","","0.5","","61","","27","","22","","24.1","","99.71","","","","","","Mostly Cloudy"
"1995-04-22 12:00","1995","04","22","12:00","7.1","","1.3","","67","","26","","19","","24.1","","99.77","","","","","","Mostly Cloudy"
"1995-04-22 13:00","1995","04","22","13:00","7.6","","1.9","","67","","24","","19","","24.1","","99.81","","","","","","Mostly Cloudy"
"1995-04-22 14:00","1995","04","22","14:00","8.0","","1.4","","63","","25","","19","","24.1","","99.77","","","","","","Cloudy"
"1995-04-22 15:00","1995","04","22","15:00","8.5","","0.6","","58","","27","","19","","24.1","","99.77","","","","","","Cloudy"
"1995-04-22 16:00","1995","04","22","16:00","8.8","","1.3","","59","","25","","19","","24.1","","99.81","","","","","","Cloudy"
"1995-04-22 17:00","1995","04","22","17:00","8.8","","0.9","","58","","25","","15","","24.1","","99.84","","","","","","Cloudy"
"1995-04-22 18:00","1995","04","22","18:00","8.6","","1.6","","61","","30","","9","","24.1","","99.87","","","","","","Mostly Cloudy"
"1995-04-22 19:00","1995","04","22","19:00","8.1","","0.0","","57","","33","","15","","24.1","","100.04","","","","","","Mostly Cloudy"
"1995-04-22 20:00","1995","04","22","20:00","7.6","","-1.3","","53","","33","","9","","24.1","","100.18","","","","","","Mostly Cloudy"
"1995-04-22 21:00","1995","04","22","21:00","6.9","","0.3","","63","","29","","7","","24.1","","100.24","","","","","","Cloudy"
"1995-04-22 22:00","1995","04","22","22:00","6.8","","-1.3","","56","","33","","15","","24.1","","100.28","","","","","","Mainly Clear"
"1995-04-22 23:00","1995","04","22","23:00","","M","","M","","M","31","","9","","","M","","M","","","","","NA"
"1995-04-23 00:00","1995","04","23","00:00","","M","","M","","M","30","","11","","","M","","M","","","","","NA"
"1995-04-23 01:00","1995","04","23","01:00","","M","","M","","M","29","","11","","","M","","M","","","","","NA"
"1995-04-23 02:00","1995","04","23","02:00","","M","","M","","M","29","","11","","","M","","M","","","","","NA"
"1995-04-23 03:00","1995","04","23","03:00","","M","","M","","M","28","","9","","","M","","M","","","","","NA"
"1995-04-23 04:00","1995","04","23","04:00","","M","","M","","M","30","","7","","","M","","M","","","","","NA"
"1995-04-23 05:00","1995","04","23","05:00","2.2","","0.5","","89","","26","","7","","24.1","","100.31","","","","","","Mostly Cloudy"
"1995-04-23 06:00","1995","04","23","06:00","2.6","","1.0","","89","","28","","11","","24.1","","100.41","","","","","","Mostly Cloudy"
"1995-04-23 07:00","1995","04","23","07:00","4.1","","0.4","","77","","35","","15","","24.1","","100.41","","","","","","Mainly Clear"
"1995-04-23 08:00","1995","04","23","08:00","4.9","","-1.2","","65","","32","","15","","24.1","","100.41","","","","","","Mainly Clear"
"1995-04-23 09:00","1995","04","23","09:00","5.1","","-3.2","","55","","31","","19","","24.1","","100.41","","","","","","Mostly Cloudy"
"1995-04-23 10:00","1995","04","23","10:00","6.5","","-4.1","","47","","33","","15","","24.1","","100.41","","","","","","Mostly Cloudy"
"1995-04-23 11:00","1995","04","23","11:00","6.2","","-5.4","","43","","35","","22","","24.1","","100.44","","","","","","Mainly Clear"
"1995-04-23 12:00","1995","04","23","12:00","7.1","","-4.8","","42","","28","","20","","24.1","","100.41","","","","","","Mainly Clear"
"1995-04-23 13:00","1995","04","23","13:00","7.5","","-1.7","","52","","29","","13","","24.1","","100.41","","","","","","Mainly Clear"
"1995-04-23 14:00","1995","04","23","14:00","6.0","","-0.7","","62","","17","","19","","24.1","","100.41","","","","","","Mainly Clear"
"1995-04-23 15:00","1995","04","23","15:00","6.2","","0.5","","67","","19","","19","","24.1","","100.34","","","","","","Mainly Clear"
"1995-04-23 16:00","1995","04","23","16:00","7.1","","0.6","","63","","18","","15","","24.1","","100.24","","","","","","Mostly Cloudy"
"1995-04-23 17:00","1995","04","23","17:00","7.5","","0.5","","61","","19","","17","","24.1","","100.24","","","","","","Mostly Cloudy"
"1995-04-23 18:00","1995","04","23","18:00","5.9","","-1.3","","60","","23","","22","","24.1","","100.18","","","","","","Mostly Cloudy"
"1995-04-23 19:00","1995","04","23","19:00","5.2","","-1.2","","63","","25","","22","","24.1","","100.18","","","","","","Mostly Cloudy"
"1995-04-23 20:00","1995","04","23","20:00","4.9","","-1.2","","65","","30","","11","","24.1","","100.21","","","","","","Mostly Cloudy"
"1995-04-23 21:00","1995","04","23","21:00","3.6","","-2.1","","66","","33","","9","","24.1","","100.28","","","","","","Mostly Cloudy"
"1995-04-23 22:00","1995","04","23","22:00","4.7","","-5.6","","47","","3","","11","","24.1","","100.24","","","","","","Mainly Clear"
"1995-04-23 23:00","1995","04","23","23:00","","M","","M","","M","4","","13","","","M","","M","","","","","NA"
"1995-04-24 00:00","1995","04","24","00:00","","M","","M","","M","3","","20","","","M","","M","","","","","NA"
"1995-04-24 01:00","1995","04","24","01:00","","M","","M","","M","3","","22","","","M","","M","","","","","NA"
"1995-04-24 02:00","1995","04","24","02:00","","M","","M","","M","4","","13","","","M","","M","","","","","NA"
"1995-04-24 03:00","1995","04","24","03:00","","M","","M","","M","5","","7","","","M","","M","","","","","NA"
"1995-04-24 04:00","1995","04","24","04:00","","M","","M","","M","5","","7","","","M","","M","","","","","NA"
"1995-04-24 05:00","1995","04","24","05:00","-1.0","","-7.0","","64","","2","","13","","24.1","","100.21","","","","-5","","Mostly Cloudy"
"1995-04-24 06:00","1995","04","24","06:00","-0.6","","-6.8","","63","","2","","7","","24.1","","100.21","","","","-3","","Mostly Cloudy"
"1995-04-24 07:00","1995","04","24","07:00","1.0","","-6.8","","56","","4","","17","","24.1","","100.28","","","","","","Mostly Cloudy"
"1995-04-24 08:00","1995","04","24","08:00","2.2","","-6.4","","53","","5","","15","","24.1","","100.24","","","","","","Mainly Clear"
"1995-04-24 09:00","1995","04","24","09:00","3.7","","-6.0","","49","","6","","20","","24.1","","100.21","","","","","","Mostly Cloudy"
"1995-04-24 10:00","1995","04","24","10:00","4.9","","-5.6","","47","","1","","15","","24.1","","100.18","","","","","","Mostly Cloudy"
"1995-04-24 11:00","1995","04","24","11:00","6.9","","-4.1","","45","","8","","15","","24.1","","100.14","","","","","","Mostly Cloudy"
"1995-04-24 12:00","1995","04","24","12:00","6.0","","-2.3","","55","","29","","6","","24.1","","100.07","","","","","","Mostly Cloudy"
"1995-04-24 13:00","1995","04","24","13:00","5.9","","-1.0","","61","","19","","15","","24.1","","99.97","","","","","","Mainly Clear"
"1995-04-24 14:00","1995","04","24","14:00","6.1","","-1.3","","59","","19","","17","","24.1","","99.91","","","","","","Mainly Clear"
"1995-04-24 15:00","1995","04","24","15:00","6.1","","-1.2","","59","","20","","15","","24.1","","99.87","","","","","","Mainly Clear"
"1995-04-24 16:00","1995","04","24","16:00","6.7","","-1.7","","55","","19","","17","","24.1","","99.84","","","","","","Mainly Clear"
"1995-04-24 17:00","1995","04","24","17:00","6.3","","-1.1","","59","","21","","15","","24.1","","99.84","","","","","","Mainly Clear"
"1995-04-24 18:00","1995","04","24","18:00","8.1","","-2.5","","47","","24","","15","","24.1","","99.84","","","","","","Mainly Clear"
"1995-04-24 19:00","1995","04","24","19:00","6.2","","-0.2","","64","","25","","11","","24.1","","99.87","","","","","","Mainly Clear"
"1995-04-24 20:00","1995","04","24","20:00","5.0","","-1.6","","62","","27","","11","","24.1","","99.91","","","","","","Mainly Clear"
"1995-04-24 21:00","1995","04","24","21:00","3.5","","-2.2","","66","","27","","6","","24.1","","99.97","","","","","","Mainly Clear"
"1995-04-24 22:00","1995","04","24","22:00","2.3","","-2.5","","71","","29","","7","","24.1","","99.97","","","","","","Mainly Clear"
"1995-04-24 23:00","1995","04","24","23:00","","M","","M","","M","30","","7","","","M","","M","","","","","NA"
"1995-04-25 00:00","1995","04","25","00:00","","M","","M","","M","29","","4","","","M","","M","","","","","NA"
"1995-04-25 01:00","1995","04","25","01:00","","M","","M","","M","32","","4","","","M","","M","","","","","NA"
"1995-04-25 02:00","1995","04","25","02:00","","M","","M","","M","","","0","","","M","","M","","","","","NA"
"1995-04-25 03:00","1995","04","25","03:00","","M","","M","","M","","","0","","","M","","M","","","","","NA"
"1995-04-25 04:00","1995","04","25","04:00","","M","","M","","M","","","0","","","M","","M","","","","","NA"
"1995-04-25 05:00","1995","04","25","05:00","-0.1","","-2.4","","84","","","","0","","24.1","","100.01","","","","","","Mainly Clear"
"1995-04-25 06:00","1995","04","25","06:00","0.9","","-1.1","","86","","","","0","","24.1","","100.04","","","","","","Mainly Clear"
"1995-04-25 07:00","1995","04","25","07:00","3.8","","1.2","","83","","15","","7","","24.1","","100.11","","","","","","Mainly Clear"
"1995-04-25 08:00","1995","04","25","08:00","4.8","","2.4","","84","","18","","9","","24.1","","100.11","","","","","","Mostly Cloudy"
"1995-04-25 09:00","1995","04","25","09:00","5.3","","3.5","","88","","19","","19","","24.1","","100.18","","","","","","Mostly Cloudy"
"1995-04-25 10:00","1995","04","25","10:00","5.7","","3.6","","86","","17","","19","","24.1","","100.18","","","","","","Cloudy"
"1995-04-25 11:00","1995","04","25","11:00","6.0","","3.2","","82","","18","","19","","24.1","","100.18","","","","","","Cloudy"
"1995-04-25 12:00","1995","04","25","12:00","6.3","","2.8","","78","","18","","19","","24.1","","100.11","","","","","","Mostly Cloudy"
"1995-04-25 13:00","1995","04","25","13:00","7.1","","2.7","","74","","19","","19","","24.1","","100.07","","","","","","Cloudy"
"1995-04-25 14:00","1995","04","25","14:00","8.1","","2.2","","66","","20","","22","","24.1","","100.07","","","","","","Cloudy"
"1995-04-25 15:00","1995","04","25","15:00","6.6","","2.0","","72","","18","","13","","24.1","","100.04","","","","","","Cloudy"
"1995-04-25 16:00","1995","04","25","16:00","7.5","","1.8","","67","","18","","19","","24.1","","100.01","","","","","","Cloudy"
"1995-04-25 17:00","1995","04","25","17:00","6.4","","1.5","","71","","20","","19","","24.1","","100.01","","","","","","Cloudy"
"1995-04-25 18:00","1995","04","25","18:00","6.5","","1.3","","69","","19","","19","","24.1","","100.04","","","","","","Cloudy"
"1995-04-25 19:00","1995","04","25","19:00","9.4","","1.8","","59","","24","","19","","24.1","","100.07","","","","","","Cloudy"
"1995-04-25 20:00","1995","04","25","20:00","7.9","","1.7","","65","","26","","15","","24.1","","100.11","","","","","","Cloudy"
"1995-04-25 21:00","1995","04","25","21:00","8.4","","3.3","","70","","25","","24","","24.1","","100.18","","","","","","Rain Showers"
"1995-04-25 22:00","1995","04","25","22:00","7.7","","3.4","","74","","25","","22","","24.1","","100.21","","","","","","Cloudy"
"1995-04-25 23:00","1995","04","25","23:00","","M","","M","","M","24","","22","","","M","","M","","","","","NA"
"1995-04-26 00:00","1995","04","26","00:00","","M","","M","","M","24","","15","","","M","","M","","","","","NA"
"1995-04-26 01:00","1995","04","26","01:00","","M","","M","","M","29","","19","","","M","","M","","","","","NA"
"1995-04-26 02:00","1995","04","26","02:00","","M","","M","","M","30","","17","","","M","","M","","","","","NA"
"1995-04-26 03:00","1995","04","26","03:00","","M","","M","","M","28","","19","","","M","","M","","","","","NA"
"1995-04-26 04:00","1995","04","26","04:00","","M","","M","","M","27","","15","","","M","","M","","","","","NA"
"1995-04-26 05:00","1995","04","26","05:00","5.9","","0.1","","66","","27","","19","","24.1","","100.44","","","","","","Cloudy"
"1995-04-26 06:00","1995","04","26","06:00","5.4","","1.5","","76","","26","","15","","24.1","","100.51","","","","","","Cloudy"
"1995-04-26 07:00","1995","04","26","07:00","6.6","","0.5","","65","","27","","15","","24.1","","100.64","","","","","","Mostly Cloudy"
"1995-04-26 08:00","1995","04","26","08:00","7.8","","0.6","","60","","29","","22","","24.1","","100.75","","","","","","Mostly Cloudy"
"1995-04-26 09:00","1995","04","26","09:00","8.9","","0.1","","54","","29","","20","","24.1","","100.75","","","","","","Mainly Clear"
"1995-04-26 10:00","1995","04","26","10:00","9.8","","0.9","","54","","31","","13","","24.1","","100.75","","","","","","Mostly Cloudy"
"1995-04-26 11:00","1995","04","26","11:00","7.3","","3.9","","79","","20","","19","","24.1","","100.81","","","","","","Mostly Cloudy"
"1995-04-26 12:00","1995","04","26","12:00","7.4","","3.9","","78","","20","","19","","24.1","","100.81","","","","","","Mostly Cloudy"
"1995-04-26 13:00","1995","04","26","13:00","7.0","","3.1","","76","","19","","22","","24.1","","100.78","","","","","","Mostly Cloudy"
"1995-04-26 14:00","1995","04","26","14:00","7.9","","2.6","","69","","21","","20","","24.1","","100.81","","","","","","Cloudy"
"1995-04-26 15:00","1995","04","26","15:00","7.3","","1.4","","66","","20","","24","","24.1","","100.81","","","","","","Cloudy"
"1995-04-26 16:00","1995","04","26","16:00","8.0","","2.0","","66","","24","","19","","24.1","","100.81","","","","","","Cloudy"
"1995-04-26 17:00","1995","04","26","17:00","6.7","","3.2","","78","","24","","13","","24.1","","100.81","","","","","","Rain Showers"
"1995-04-26 18:00","1995","04","26","18:00","6.1","","3.7","","85","","24","","9","","24.1","","100.81","","","","","","Cloudy"
"1995-04-26 19:00","1995","04","26","19:00","5.5","","4.2","","91","","20","","6","","8.0","","100.81","","","","","","Rain Showers,Fog"
"1995-04-26 20:00","1995","04","26","20:00","5.1","","4.2","","94","","19","","6","","6.4","","100.91","","","","","","Rain Showers,Fog"
"1995-04-26 21:00","1995","04","26","21:00","4.8","","4.2","","96","","15","","9","","4.8","","100.85","","","","","","Rain Showers,Fog"
"1995-04-26 22:00","1995","04","26","22:00","5.1","","4.5","","96","","16","","9","","3.2","","100.81","","","","","","Moderate Rain Showers,Fog"
"1995-04-26 23:00","1995","04","26","23:00","","M","","M","","M","22","","4","","","M","","M","","","","","NA"
"1995-04-27 00:00","1995","04","27","00:00","","M","","M","","M","8","","4","","","M","","M","","","","","NA"
"1995-04-27 01:00","1995","04","27","01:00","","M","","M","","M","","","0","","","M","","M","","","","","NA"
"1995-04-27 02:00","1995","04","27","02:00","","M","","M","","M","3","","4","","","M","","M","","","","","NA"
"1995-04-27 03:00","1995","04","27","03:00","","M","","M","","M","10","","7","","","M","","M","","","","","NA"
"1995-04-27 04:00","1995","04","27","04:00","","M","","M","","M","9","","7","","","M","","M","","","","","NA"
"1995-04-27 05:00","1995","04","27","05:00","6.6","","5.8","","95","","6","","11","","8.0","","100.78","","","","","","Fog"
"1995-04-27 06:00","1995","04","27","06:00","6.6","","5.7","","94","","6","","7","","8.0","","100.58","","","","","","Fog"
"1995-04-27 07:00","1995","04","27","07:00","6.9","","5.7","","92","","6","","11","","16.1","","100.61","","","","","","Cloudy"
"1995-04-27 08:00","1995","04","27","08:00","7.3","","5.6","","89","","5","","9","","16.1","","100.58","","","","","","Cloudy"
"1995-04-27 09:00","1995","04","27","09:00","8.1","","6.5","","90","","6","","19","","16.1","","100.51","","","","","","Cloudy"
"1995-04-27 10:00","1995","04","27","10:00","9.9","","7.2","","83","","7","","19","","19.3","","100.44","","","","","","Cloudy"
"1995-04-27 11:00","1995","04","27","11:00","11.5","","6.8","","73","","7","","20","","19.3","","100.38","","","","","","Cloudy"
"1995-04-27 12:00","1995","04","27","12:00","11.9","","5.5","","65","","6","","17","","24.1","","100.24","","","","","","Cloudy"
"1995-04-27 13:00","1995","04","27","13:00","11.8","","7.8","","76","","5","","15","","16.1","","100.18","","","","","","Rain Showers"
"1995-04-27 14:00","1995","04","27","14:00","12.2","","7.3","","72","","6","","19","","12.9","","100.14","","","","","","Rain Showers"
"1995-04-27 15:00","1995","04","27","15:00","12.8","","8.1","","73","","8","","19","","24.1","","99.97","","","","","","Mostly Cloudy"
"1995-04-27 16:00","1995","04","27","16:00","13.5","","8.4","","71","","7","","19","","24.1","","99.87","","","","","","Mostly Cloudy"
"1995-04-27 17:00","1995","04","27","17:00","12.4","","7.9","","74","","6","","22","","24.1","","99.74","","","","","","Mostly Cloudy"
"1995-04-27 18:00","1995","04","27","18:00","11.7","","8.4","","80","","2","","19","","19.3","","99.77","","","","","","Rain Showers"
"1995-04-27 19:00","1995","04","27","19:00","10.7","","8.4","","86","","3","","9","","11.3","","99.87","","","","","","Rain Showers"
"1995-04-27 20:00","1995","04","27","20:00","10.3","","8.6","","89","","2","","19","","11.3","","99.84","","","","","","Rain Showers"
"1995-04-27 21:00","1995","04","27","21:00","9.9","","8.6","","92","","36","","9","","11.3","","99.84","","","","","","Rain Showers"
"1995-04-27 22:00","1995","04","27","22:00","9.5","","8.6","","94","","7","","7","","9.7","","99.81","","","","","","Rain Showers,Fog"
"1995-04-27 23:00","1995","04","27","23:00","","M","","M","","M","24","","4","","","M","","M","","","","","NA"
"1995-04-28 00:00","1995","04","28","00:00","","M","","M","","M","20","","17","","","M","","M","","","","","NA"
"1995-04-28 01:00","1995","04","28","01:00","","M","","M","","M","22","","9","","","M","","M","","","","","NA"
"1995-04-28 02:00","1995","04","28","02:00","","M","","M","","M","21","","15","","","M","","M","","","","","NA"
"1995-04-28 03:00","1995","04","28","03:00","","M","","M","","M","21","","7","","","M","","M","","","","","NA"
"1995-04-28 04:00","1995","04","28","04:00","","M","","M","","M","22","","13","","","M","","M","","","","","NA"
"1995-04-28 05:00","1995","04","28","05:00","5.3","","4.0","","91","","21","","19","","16.1","","99.94","","","","","","Mostly Cloudy"
"1995-04-28 06:00","1995","04","28","06:00","5.6","","3.9","","89","","21","","17","","16.1","","99.94","","","","","","Mainly Clear"
"1995-04-28 07:00","1995","04","28","07:00","6.9","","4.2","","83","","24","","19","","16.1","","100.01","","","","","","Mostly Cloudy"
"1995-04-28 08:00","1995","04","28","08:00","6.7","","2.9","","77","","25","","22","","19.3","","100.07","","","","","","Mostly Cloudy"
"1995-04-28 09:00","1995","04","28","09:00","7.1","","4.1","","81","","22","","19","","19.3","","100.11","","","","","","Mostly Cloudy"
"1995-04-28 10:00","1995","04","28","10:00","6.0","","4.0","","87","","21","","19","","19.3","","100.11","","","","","","Cloudy"
"1995-04-28 11:00","1995","04","28","11:00","6.4","","3.9","","84","","20","","19","","19.3","","100.14","","","","","","Mostly Cloudy"
"1995-04-28 12:00","1995","04","28","12:00","8.5","","2.5","","66","","26","","19","","19.3","","100.11","","","","","","Mostly Cloudy"
"1995-04-28 13:00","1995","04","28","13:00","8.3","","1.8","","64","","24","","22","","19.3","","100.14","","","","","","Mostly Cloudy"
"1995-04-28 14:00","1995","04","28","14:00","9.1","","1.8","","60","","24","","22","","19.3","","100.14","","","","","","Mostly Cloudy"
"1995-04-28 15:00","1995","04","28","15:00","9.1","","3.2","","67","","23","","28","","24.1","","100.14","","","","","","Mostly Cloudy"
"1995-04-28 16:00","1995","04","28","16:00","9.4","","1.6","","58","","23","","22","","24.1","","100.18","","","","","","Cloudy"
"1995-04-28 17:00","1995","04","28","17:00","8.9","","2.1","","62","","24","","19","","24.1","","100.21","","","","","","Cloudy"
"1995-04-28 18:00","1995","04","28","18:00","7.9","","1.9","","66","","24","","19","","24.1","","100.21","","","","","","Cloudy"
"1995-04-28 19:00","1995","04","28","19:00","6.7","","2.4","","74","","23","","11","","24.1","","100.24","","","","","","Cloudy"
"1995-04-28 20:00","1995","04","28","20:00","7.2","","2.8","","74","","24","","9","","24.1","","100.28","","","","","","Cloudy"
"1995-04-28 21:00","1995","04","28","21:00","7.2","","2.8","","74","","24","","9","","24.1","","100.28","","","","","","Cloudy"
"1995-04-28 22:00","1995","04","28","22:00","6.8","","2.8","","76","","22","","7","","24.1","","100.28","","","","","","Cloudy"
"1995-04-28 23:00","1995","04","28","23:00","","M","","M","","M","19","","9","","","M","","M","","","","","NA"
"1995-04-29 00:00","1995","04","29","00:00","","M","","M","","M","18","","9","","","M","","M","","","","","NA"
"1995-04-29 01:00","1995","04","29","01:00","","M","","M","","M","20","","11","","","M","","M","","","","","NA"
"1995-04-29 02:00","1995","04","29","02:00","","M","","M","","M","22","","6","","","M","","M","","","","","NA"
"1995-04-29 03:00","1995","04","29","03:00","","M","","M","","M","24","","15","","","M","","M","","","","","NA"
"1995-04-29 04:00","1995","04","29","04:00","","M","","M","","M","25","","7","","","M","","M","","","","","NA"
"1995-04-29 05:00","1995","04","29","05:00","5.5","","3.4","","86","","22","","9","","16.1","","100.24","","","","","","Mostly Cloudy"
"1995-04-29 06:00","1995","04","29","06:00","6.0","","2.6","","79","","23","","17","","16.1","","100.28","","","","","","Mostly Cloudy"
"1995-04-29 07:00","1995","04","29","07:00","6.3","","2.5","","77","","25","","17","","24.1","","100.28","","","","","","Mainly Clear"
"1995-04-29 08:00","1995","04","29","08:00","7.4","","2.6","","72","","24","","19","","24.1","","100.28","","","","","","Mostly Cloudy"
"1995-04-29 09:00","1995","04","29","09:00","7.4","","1.6","","67","","25","","15","","24.1","","100.31","","","","","","Mostly Cloudy"
"1995-04-29 10:00","1995","04","29","10:00","8.3","","2.5","","67","","24","","15","","24.1","","100.31","","","","","","Mostly Cloudy"
"1995-04-29 11:00","1995","04","29","11:00","7.7","","2.3","","69","","24","","15","","24.1","","100.34","","","","","","Mostly Cloudy"
"1995-04-29 12:00","1995","04","29","12:00","7.3","","2.5","","72","","23","","19","","24.1","","100.38","","","","","","Mostly Cloudy"
"1995-04-29 13:00","1995","04","29","13:00","6.9","","2.5","","74","","23","","19","","24.1","","100.44","","","","","","Mostly Cloudy"
"1995-04-29 14:00","1995","04","29","14:00","6.7","","2.5","","75","","25","","19","","24.1","","100.44","","","","","","Cloudy"
"1995-04-29 15:00","1995","04","29","15:00","7.3","","3.0","","74","","24","","19","","24.1","","100.44","","","","","","Mostly Cloudy"
"1995-04-29 16:00","1995","04","29","16:00","8.6","","3.5","","70","","24","","17","","24.1","","100.44","","","","","","Mostly Cloudy"
"1995-04-29 17:00","1995","04","29","17:00","7.9","","3.0","","71","","23","","11","","24.1","","100.44","","","","","","Mostly Cloudy"
"1995-04-29 18:00","1995","04","29","18:00","7.3","","3.2","","75","","24","","13","","24.1","","100.44","","","","","","Mostly Cloudy"
"1995-04-29 19:00","1995","04","29","19:00","6.9","","3.3","","78","","26","","9","","24.1","","100.48","","","","","","Mostly Cloudy"
"1995-04-29 20:00","1995","04","29","20:00","7.5","","2.2","","69","","28","","13","","24.1","","100.51","","","","","","Mainly Clear"
"1995-04-29 21:00","1995","04","29","21:00","4.5","","1.4","","80","","29","","9","","24.1","","100.61","","","","","","Mainly Clear"
"1995-04-29 22:00","1995","04","29","22:00","5.1","","1.5","","78","","29","","7","","24.1","","100.61","","","","","","Mainly Clear"
"1995-04-29 23:00","1995","04","29","23:00","","M","","M","","M","30","","7","","","M","","M","","","","","NA"
"1995-04-30 00:00","1995","04","30","00:00","","M","","M","","M","31","","4","","","M","","M","","","","","NA"
"1995-04-30 01:00","1995","04","30","01:00","","M","","M","","M","33","","7","","","M","","M","","","","","NA"
"1995-04-30 02:00","1995","04","30","02:00","","M","","M","","M","33","","9","","","M","","M","","","","","NA"
"1995-04-30 03:00","1995","04","30","03:00","","M","","M","","M","36","","11","","","M","","M","","","","","NA"
"1995-04-30 04:00","1995","04","30","04:00","","M","","M","","M","1","","6","","","M","","M","","","","","NA"
"1995-04-30 05:00","1995","04","30","05:00","1.8","","0.4","","90","","","","0","","24.1","","100.61","","","","","","Mainly Clear"
"1995-04-30 06:00","1995","04","30","06:00","3.6","","2.2","","91","","","","0","","24.1","","100.64","","","","","","Mainly Clear"
"1995-04-30 07:00","1995","04","30","07:00","4.8","","3.1","","89","","","","0","","24.1","","100.71","","","","","","Mostly Cloudy"
"1995-04-30 08:00","1995","04","30","08:00","6.9","","4.4","","84","","3","","6","","19.3","","100.71","","","","","","Mostly Cloudy"
"1995-04-30 09:00","1995","04","30","09:00","7.7","","4.2","","78","","11","","9","","19.3","","100.71","","","","","","Mostly Cloudy"
"1995-04-30 10:00","1995","04","30","10:00","7.5","","5.4","","87","","17","","17","","19.3","","100.64","","","","","","Mostly Cloudy"
"1995-04-30 11:00","1995","04","30","11:00","7.6","","4.3","","80","","15","","9","","19.3","","100.61","","","","","","Cloudy"
"1995-04-30 12:00","1995","04","30","12:00","7.8","","4.4","","79","","20","","11","","19.3","","100.58","","","","","","Cloudy"
"1995-04-30 13:00","1995","04","30","13:00","7.6","","4.7","","82","","18","","9","","19.3","","100.61","","","","","","Cloudy"
"1995-04-30 14:00","1995","04","30","14:00","7.9","","4.8","","81","","15","","9","","19.3","","100.61","","","","","","Cloudy"
"1995-04-30 15:00","1995","04","30","15:00","10.2","","3.2","","62","","8","","9","","19.3","","100.54","","","","","","Cloudy"
"1995-04-30 16:00","1995","04","30","16:00","11.0","","1.7","","53","","2","","15","","19.3","","100.54","","","","","","Mostly Cloudy"
"1995-04-30 17:00","1995","04","30","17:00","11.1","","1.9","","53","","2","","17","","24.1","","100.54","","","","","","Mostly Cloudy"
"1995-04-30 18:00","1995","04","30","18:00","10.9","","1.8","","53","","3","","7","","24.1","","100.58","","","","","","Mostly Cloudy"
"1995-04-30 19:00","1995","04","30","19:00","9.5","","2.1","","60","","2","","9","","24.1","","100.54","","","","","","Mostly Cloudy"
"1995-04-30 20:00","1995","04","30","20:00","8.1","","1.9","","65","","2","","7","","24.1","","100.54","","","","","","Mostly Cloudy"
"1995-04-30 21:00","1995","04","30","21:00","7.6","","1.7","","66","","","","0","","24.1","","100.54","","","","","","Mostly Cloudy"
"1995-04-30 22:00","1995","04","30","22:00","6.9","","1.8","","70","","35","","6","","24.1","","100.58","","","","","","Mainly Clear"
"1995-04-30 23:00","1995","04","30","23:00","","M","","M","","M","3","","9","","","M","","M","","","","","NA"
