"Station Name","KINGSTON A"
"Province","ONTARIO"
"Latitude","44.22"
"Longitude","-76.60"
"Elevation","92.40"
"Climate Identifier","6104146"
"WMO Identifier",""
"TC Identifier","YGK"
"All times are specified in Local Standard Time (LST). Add 1 hour to adjust for Daylight Saving Time where and when it is observed."

"Legend"
"E","Estimated"
"M","Missing"
"NA","Not Available"

"Date/Time","Year","Month","Day","Time","Temp (°C)","Temp Flag","Dew Point Temp (°C)","Dew Point Temp Flag","Rel Hum (%)","Rel Hum Flag","Wind Dir (10s deg)","Wind Dir Flag","Wind Spd (km/h)","Wind Spd Flag","Visibility (km)","Visibility Flag","Stn Press (kPa)","Stn Press Flag","Hmdx","Hmdx Flag","Wind Chill","Wind Chill Flag","Weather"
"2011-06-01 00:00","2011","06","01","00:00"
"2011-06-01 01:00","2011","06","01","01:00"
"2011-06-01 02:00","2011","06","01","02:00"
"2011-06-01 03:00","2011","06","01","03:00"
"2011-06-01 04:00","2011","06","01","04:00"
"2011-06-01 05:00","2011","06","01","05:00","17.6","","17.0","","96","","20","","7","","12.9","","100.22","","","","","","Mainly Clear"
"2011-06-01 06:00","2011","06","01","06:00","21.1","","18.3","","84","","23","","17","","12.9","","100.21","","27","","","","Mostly Cloudy"
"2011-06-01 07:00","2011","06","01","07:00","21.4","","18.0","","81","","23","","15","","12.9","","100.23","","27","","","","Mainly Clear"
"2011-06-01 08:00","2011","06","01","08:00","20.2","","17.6","","85","","22","","13","","12.9","","100.23","","26","","","","Mainly Clear"
"2011-06-01 09:00","2011","06","01","09:00","18.2","","15.7","","85","","18","","26","","16.1","","100.16","","","","","","Mainly Clear"
"2011-06-01 10:00","2011","06","01","10:00","20.8","","16.8","","78","","20","","24","","16.1","","100.09","","26","","","","Mainly Clear"
"2011-06-01 11:00","2011","06","01","11:00","19.7","","16.7","","83","","20","","24","","16.1","","100.02","","","","","","Mainly Clear"
"2011-06-01 12:00","2011","06","01","12:00","25.6","","13.8","","48","","23","","48","","24.1","","99.97","","29","","","","Mainly Clear"
"2011-06-01 13:00","2011","06","01","13:00","25.6","","11.3","","41","","23","","44","","24.1","","99.86","","28","","","","Mainly Clear"
"2011-06-01 14:00","2011","06","01","14:00","24.5","","9.9","","40","","24","","46","","24.1","","99.82","","26","","","","Mainly Clear"
"2011-06-01 15:00","2011","06","01","15:00","23.7","","9.1","","39","","23","","39","","24.1","","99.80","","25","","","","Clear"
"2011-06-01 16:00","2011","06","01","16:00","24.2","","8.1","","36","","23","","41","","24.1","","99.81","","25","","","","Clear"
"2011-06-01 17:00","2011","06","01","17:00","23.7","","8.3","","37","","23","","32","","24.1","","99.82","","","","","","Clear"
"2011-06-01 18:00","2011","06","01","18:00","21.9","","9.3","","45","","23","","28","","24.1","","99.84","","","","","","Clear"
"2011-06-01 19:00","2011","06","01","19:00","23.4","","7.2","","35","","27","","20","","24.1","","99.91","","","","","","Clear"
"2011-06-01 20:00","2011","06","01","20:00","21.1","","7.0","","40","","29","","20","","24.1","","99.99","","","","","","Clear"
"2011-06-01 21:00","2011","06","01","21:00","19.4","","6.8","","44","","30","","24","","24.1","","100.06","","","","","","Mainly Clear"
"2011-06-01 22:00","2011","06","01","22:00","18.2","","7.0","","48","","27","","11","","24.1","","100.08","","","","","","Mostly Cloudy"
"2011-06-01 23:00","2011","06","01","23:00"
"2011-06-02 00:00","2011","06","02","00:00"
"2011-06-02 01:00","2011","06","02","01:00"
"2011-06-02 02:00","2011","06","02","02:00"
"2011-06-02 03:00","2011","06","02","03:00"
"2011-06-02 04:00","2011","06","02","04:00"
"2011-06-02 05:00","2011","06","02","05:00","11.9","","5.0","","63","","26","","19","","24.1","","100.14","","","","","","Mainly Clear"
"2011-06-02 06:00","2011","06","02","06:00","11.8","","5.5","","65","","26","","22","","24.1","","100.26","","","","","","Mostly Cloudy"
"2011-06-02 07:00","2011","06","02","07:00","12.5","","5.8","","64","","26","","19","","24.1","","100.31","","","","","","Mostly Cloudy"
"2011-06-02 08:00","2011","06","02","08:00","12.6","","5.9","","64","","27","","33","","24.1","","100.35","","","","","","Mostly Cloudy"
"2011-06-02 09:00","2011","06","02","09:00","13.2","","5.8","","61","","28","","24","","24.1","","100.41","","","","","","Mostly Cloudy"
"2011-06-02 10:00","2011","06","02","10:00","13.8","","3.9","","51","","29","","26","","24.1","","100.46","","","","","","Mostly Cloudy"
"2011-06-02 11:00","2011","06","02","11:00","14.9","","4.2","","49","","29","","22","","24.1","","100.49","","","","","","Mainly Clear"
"2011-06-02 12:00","2011","06","02","12:00","16.4","","4.1","","44","","32","","32","","24.1","","100.47","","","","","","Mainly Clear"
"2011-06-02 13:00","2011","06","02","13:00","17.5","","4.2","","41","","31","","20","","24.1","","100.51","","","","","","Mainly Clear"
"2011-06-02 14:00","2011","06","02","14:00","18.8","","4.3","","38","","28","","22","","24.1","","100.48","","","","","","Mainly Clear"
"2011-06-02 15:00","2011","06","02","15:00","19.1","","3.5","","36","","30","","22","","24.1","","100.45","","","","","","Mainly Clear"
"2011-06-02 16:00","2011","06","02","16:00","20.0","","2.2","","31","","29","","19","","24.1","","100.42","","","","","","Mainly Clear"
"2011-06-02 17:00","2011","06","02","17:00","20.1","","0.1","","26","","31","","20","","24.1","","100.42","","","","","","Clear"
"2011-06-02 18:00","2011","06","02","18:00","19.6","","0.4","","28","","31","","24","","24.1","","100.46","","","","","","Clear"
"2011-06-02 19:00","2011","06","02","19:00","18.7","","1.4","","31","","30","","19","","24.1","","100.49","","","","","","Clear"
"2011-06-02 20:00","2011","06","02","20:00","17.2","","2.2","","36","","29","","9","","24.1","","100.53","","","","","","Clear"
"2011-06-02 21:00","2011","06","02","21:00","13.3","","4.1","","54","","34","","7","","24.1","","100.64","","","","","","Clear"
"2011-06-02 22:00","2011","06","02","22:00","14.0","","5.4","","56","","26","","17","","24.1","","100.69","","","","","","Clear"
"2011-06-02 23:00","2011","06","02","23:00"
"2011-06-03 00:00","2011","06","03","00:00"
"2011-06-03 01:00","2011","06","03","01:00"
"2011-06-03 02:00","2011","06","03","02:00"
"2011-06-03 03:00","2011","06","03","03:00"
"2011-06-03 04:00","2011","06","03","04:00"
"2011-06-03 05:00","2011","06","03","05:00","8.3","","5.8","","84","","32","","13","","24.1","","100.96","","","","","","Mainly Clear"
"2011-06-03 06:00","2011","06","03","06:00","10.6","","6.9","","78","","33","","11","","24.1","","101.04","","","","","","Mainly Clear"
"2011-06-03 07:00","2011","06","03","07:00","13.5","","6.1","","61","","34","","15","","24.1","","101.07","","","","","","Mainly Clear"
"2011-06-03 08:00","2011","06","03","08:00","14.7","","3.5","","47","","35","","22","","24.1","","101.10","","","","","","Clear"
"2011-06-03 09:00","2011","06","03","09:00","16.0","","3.0","","42","","36","","24","","24.1","","101.12","","","","","","Clear"
"2011-06-03 10:00","2011","06","03","10:00","17.5","","2.8","","37","","34","","20","","24.1","","101.11","","","","","","Mainly Clear"
"2011-06-03 11:00","2011","06","03","11:00","18.9","","1.9","","32","","33","","17","","24.1","","101.08","","","","","","Mainly Clear"
"2011-06-03 12:00","2011","06","03","12:00","19.2","","2.7","","33","","35","","17","","24.1","","101.04","","","","","","Mostly Cloudy"
"2011-06-03 13:00","2011","06","03","13:00","20.2","","2.2","","30","","34","","15","","24.1","","100.99","","","","","","Mostly Cloudy"
"2011-06-03 14:00","2011","06","03","14:00","20.8","","0.7","","26","","33","","9","","24.1","","100.98","","","","","","Mostly Cloudy"
"2011-06-03 15:00","2011","06","03","15:00","15.2","","9.7","","70","","18","","17","","24.1","","100.95","","","","","","Mostly Cloudy"
"2011-06-03 16:00","2011","06","03","16:00","15.6","","10.6","","72","","14","","7","","24.1","","100.89","","","","","","Mostly Cloudy"
"2011-06-03 17:00","2011","06","03","17:00","15.9","","10.8","","72","","16","","9","","24.1","","100.84","","","","","","Mainly Clear"
"2011-06-03 18:00","2011","06","03","18:00","17.4","","10.4","","63","","18","","9","","24.1","","100.81","","","","","","Mainly Clear"
"2011-06-03 19:00","2011","06","03","19:00","15.1","","10.6","","74","","24","","7","","24.1","","100.83","","","","","","Mainly Clear"
"2011-06-03 20:00","2011","06","03","20:00","16.7","","8.9","","60","","24","","9","","24.1","","100.82","","","","","","Mainly Clear"
"2011-06-03 21:00","2011","06","03","21:00","14.2","","9.1","","71","","","","0","","24.1","","100.83","","","","","","Mainly Clear"
"2011-06-03 22:00","2011","06","03","22:00","12.5","","8.8","","78","","35","","6","","24.1","","100.88","","","","","","Mainly Clear"
"2011-06-03 23:00","2011","06","03","23:00"
"2011-06-04 00:00","2011","06","04","00:00"
"2011-06-04 01:00","2011","06","04","01:00"
"2011-06-04 02:00","2011","06","04","02:00"
"2011-06-04 03:00","2011","06","04","03:00"
"2011-06-04 04:00","2011","06","04","04:00"
"2011-06-04 05:00","2011","06","04","05:00","13.0","","10.9","","87","","","","0","","24.1","","100.84","","","","","","Mostly Cloudy"
"2011-06-04 06:00","2011","06","04","06:00","14.0","","11.5","","85","","","","0","","24.1","","100.88","","","","","","Mostly Cloudy"
"2011-06-04 07:00","2011","06","04","07:00","13.6","","11.9","","89","","15","","6","","24.1","","100.80","","","","","","Mostly Cloudy"
"2011-06-04 08:00","2011","06","04","08:00","13.5","","11.5","","88","","20","","6","","19.3","","100.81","","","","","","Cloudy"
"2011-06-04 09:00","2011","06","04","09:00","13.5","","10.9","","84","","14","","7","","19.3","","100.80","","","","","","Mostly Cloudy"
"2011-06-04 10:00","2011","06","04","10:00","13.3","","11.2","","87","","19","","4","","24.1","","100.89","","","","","","Mostly Cloudy"
"2011-06-04 11:00","2011","06","04","11:00","16.0","","11.2","","73","","29","","15","","24.1","","100.94","","","","","","Rain"
"2011-06-04 12:00","2011","06","04","12:00","15.4","","11.5","","78","","23","","11","","24.1","","100.73","","","","","","Rain"
"2011-06-04 13:00","2011","06","04","13:00","14.4","","12.1","","86","","24","","13","","24.1","","100.65","","","","","","Cloudy"
"2011-06-04 14:00","2011","06","04","14:00","16.6","","10.1","","65","","24","","15","","24.1","","100.69","","","","","","Mostly Cloudy"
"2011-06-04 15:00","2011","06","04","15:00","17.6","","10.7","","64","","24","","15","","24.1","","100.61","","","","","","Mostly Cloudy"
"2011-06-04 16:00","2011","06","04","16:00","14.6","","11.0","","79","","18","","11","","24.1","","100.66","","","","","","Mostly Cloudy"
"2011-06-04 17:00","2011","06","04","17:00","14.4","","11.5","","83","","16","","13","","24.1","","100.60","","","","","","Mainly Clear"
"2011-06-04 18:00","2011","06","04","18:00","14.0","","11.6","","85","","17","","11","","24.1","","100.57","","","","","","Mainly Clear"
"2011-06-04 19:00","2011","06","04","19:00","13.1","","11.2","","88","","18","","9","","24.1","","100.54","","","","","","Mostly Cloudy"
"2011-06-04 20:00","2011","06","04","20:00","13.0","","11.2","","89","","18","","6","","24.1","","100.51","","","","","","Mostly Cloudy"
"2011-06-04 21:00","2011","06","04","21:00","12.9","","10.9","","88","","19","","6","","24.1","","100.51","","","","","","Mainly Clear"
"2011-06-04 22:00","2011","06","04","22:00","13.1","","10.2","","83","","","","0","","24.1","","100.53","","","","","","Mainly Clear"
"2011-06-04 23:00","2011","06","04","23:00"
"2011-06-05 00:00","2011","06","05","00:00"
"2011-06-05 01:00","2011","06","05","01:00"
"2011-06-05 02:00","2011","06","05","02:00"
"2011-06-05 03:00","2011","06","05","03:00"
"2011-06-05 04:00","2011","06","05","04:00"
"2011-06-05 05:00","2011","06","05","05:00","13.4","","12.0","","91","","","","0","","19.3","","100.46","","","","","","Mostly Cloudy"
"2011-06-05 06:00","2011","06","05","06:00","14.2","","12.3","","88","","","","0","","19.3","","100.54","","","","","","Cloudy"
"2011-06-05 07:00","2011","06","05","07:00","14.6","","11.5","","82","","26","","4","","19.3","","100.55","","","","","","Cloudy"
"2011-06-05 08:00","2011","06","05","08:00","16.3","","12.3","","77","","27","","4","","19.3","","100.55","","","","","","Cloudy"
"2011-06-05 09:00","2011","06","05","09:00","17.8","","13.0","","73","","27","","9","","24.1","","100.53","","","","","","Mainly Clear"
"2011-06-05 10:00","2011","06","05","10:00","19.2","","14.2","","73","","22","","9","","24.1","","100.54","","","","","","Mostly Cloudy"
"2011-06-05 11:00","2011","06","05","11:00","15.2","","13.0","","87","","18","","15","","24.1","","100.55","","","","","","Cloudy"
"2011-06-05 12:00","2011","06","05","12:00","14.7","","13.0","","90","","16","","17","","24.1","","100.56","","","","","","Mostly Cloudy"
"2011-06-05 13:00","2011","06","05","13:00","14.5","","12.5","","88","","17","","15","","19.3","","100.56","","","","","","Mostly Cloudy"
"2011-06-05 14:00","2011","06","05","14:00","14.9","","12.8","","87","","18","","15","","19.3","","100.57","","","","","","Mostly Cloudy"
"2011-06-05 15:00","2011","06","05","15:00","16.8","","14.0","","84","","19","","15","","16.1","","100.60","","","","","","Mostly Cloudy"
"2011-06-05 16:00","2011","06","05","16:00","19.8","","15.6","","77","","23","","9","","9.7","","100.58","","","","","","Haze"
"2011-06-05 17:00","2011","06","05","17:00","17.4","","14.6","","84","","19","","9","","12.9","","100.58","","","","","","Mainly Clear"
"2011-06-05 18:00","2011","06","05","18:00","18.3","","15.3","","83","","21","","9","","12.9","","100.56","","","","","","Mainly Clear"
"2011-06-05 19:00","2011","06","05","19:00","18.3","","15.3","","83","","24","","7","","16.1","","100.61","","","","","","Mainly Clear"
"2011-06-05 20:00","2011","06","05","20:00","15.9","","14.4","","91","","21","","4","","12.9","","100.60","","","","","","Mainly Clear"
"2011-06-05 21:00","2011","06","05","21:00","14.8","","13.7","","93","","7","","6","","24.1","","100.64","","","","","","Mainly Clear"
"2011-06-05 22:00","2011","06","05","22:00","14.5","","13.6","","94","","14","","6","","12.9","","100.65","","","","","","Mainly Clear"
"2011-06-05 23:00","2011","06","05","23:00"
"2011-06-06 00:00","2011","06","06","00:00"
"2011-06-06 01:00","2011","06","06","01:00"
"2011-06-06 02:00","2011","06","06","02:00"
"2011-06-06 03:00","2011","06","06","03:00"
"2011-06-06 04:00","2011","06","06","04:00"
"2011-06-06 05:00","2011","06","06","05:00","12.6","","12.4","","99","","17","","4","","0.4","","100.67","","","","","","Fog"
"2011-06-06 06:00","2011","06","06","06:00","14.6","","14.1","","97","","22","","4","","3.2","","100.72","","","","","","Fog"
"2011-06-06 07:00","2011","06","06","07:00","16.0","","14.8","","93","","23","","4","","9.7","","100.71","","","","","","Fog"
"2011-06-06 08:00","2011","06","06","08:00","16.6","","15.3","","92","","18","","6","","9.7","","100.73","","","","","","Fog"
"2011-06-06 09:00","2011","06","06","09:00","16.0","","14.8","","93","","16","","11","","9.7","","100.73","","","","","","Fog"
"2011-06-06 10:00","2011","06","06","10:00","15.4","","13.7","","90","","15","","13","","9.7","","100.73","","","","","","Fog"
"2011-06-06 11:00","2011","06","06","11:00","15.4","","13.8","","90","","17","","11","","12.9","","100.70","","","","","","Mainly Clear"
"2011-06-06 12:00","2011","06","06","12:00","16.3","","14.3","","88","","18","","13","","12.9","","100.69","","","","","","Mainly Clear"
"2011-06-06 13:00","2011","06","06","13:00","17.2","","15.1","","87","","17","","13","","16.1","","100.63","","","","","","Mainly Clear"
"2011-06-06 14:00","2011","06","06","14:00","19.5","","16.0","","80","","20","","17","","16.1","","100.60","","","","","","Mainly Clear"
"2011-06-06 15:00","2011","06","06","15:00","20.4","","16.2","","77","","18","","13","","24.1","","100.54","","25","","","","Mostly Cloudy"
"2011-06-06 16:00","2011","06","06","16:00","19.7","","15.3","","76","","19","","13","","24.1","","100.49","","","","","","Mostly Cloudy"
"2011-06-06 17:00","2011","06","06","17:00","20.7","","15.1","","70","","19","","13","","24.1","","100.44","","25","","","","Mainly Clear"
"2011-06-06 18:00","2011","06","06","18:00","19.1","","15.0","","77","","18","","11","","24.1","","100.43","","","","","","Mainly Clear"
"2011-06-06 19:00","2011","06","06","19:00","17.8","","14.6","","82","","18","","9","","24.1","","100.39","","","","","","Mainly Clear"
"2011-06-06 20:00","2011","06","06","20:00","17.5","","13.5","","77","","23","","4","","24.1","","100.36","","","","","","Mainly Clear"
"2011-06-06 21:00","2011","06","06","21:00","17.2","","13.6","","79","","18","","6","","24.1","","100.37","","","","","","Mainly Clear"
"2011-06-06 22:00","2011","06","06","22:00","16.0","","13.8","","87","","20","","11","","24.1","","100.35","","","","","","Mainly Clear"
"2011-06-06 23:00","2011","06","06","23:00"
"2011-06-07 00:00","2011","06","07","00:00"
"2011-06-07 01:00","2011","06","07","01:00"
"2011-06-07 02:00","2011","06","07","02:00"
"2011-06-07 03:00","2011","06","07","03:00"
"2011-06-07 04:00","2011","06","07","04:00"
"2011-06-07 05:00","2011","06","07","05:00","15.3","","13.8","","91","","17","","6","","24.1","","100.15","","","","","","Mostly Cloudy"
"2011-06-07 06:00","2011","06","07","06:00","15.9","","14.0","","88","","17","","11","","24.1","","100.20","","","","","","Mostly Cloudy"
"2011-06-07 07:00","2011","06","07","07:00","16.8","","14.1","","84","","18","","13","","24.1","","100.18","","","","","","Mostly Cloudy"
"2011-06-07 08:00","2011","06","07","08:00","16.9","","14.3","","85","","19","","13","","24.1","","100.18","","","","","","Mostly Cloudy"
"2011-06-07 09:00","2011","06","07","09:00","17.4","","14.7","","84","","18","","13","","24.1","","100.14","","","","","","Cloudy"
"2011-06-07 10:00","2011","06","07","10:00","18.4","","14.6","","79","","17","","11","","24.1","","100.14","","","","","","Mostly Cloudy"
"2011-06-07 11:00","2011","06","07","11:00","18.5","","15.2","","81","","17","","11","","24.1","","100.10","","","","","","Mostly Cloudy"
"2011-06-07 12:00","2011","06","07","12:00","18.7","","15.6","","82","","18","","20","","24.1","","100.08","","","","","","Mainly Clear"
"2011-06-07 13:00","2011","06","07","13:00","18.8","","15.8","","83","","18","","17","","19.3","","100.02","","","","","","Mainly Clear"
"2011-06-07 14:00","2011","06","07","14:00","18.6","","15.3","","81","","18","","15","","19.3","","99.98","","","","","","Mainly Clear"
"2011-06-07 15:00","2011","06","07","15:00","20.4","","16.4","","78","","19","","19","","19.3","","99.93","","25","","","","Mainly Clear"
"2011-06-07 16:00","2011","06","07","16:00","19.3","","15.9","","81","","18","","20","","19.3","","99.89","","","","","","Mostly Cloudy"
"2011-06-07 17:00","2011","06","07","17:00","18.4","","15.8","","85","","18","","9","","19.3","","99.95","","","","","","Mainly Clear"
"2011-06-07 18:00","2011","06","07","18:00","19.4","","16.2","","82","","19","","11","","24.1","","99.93","","","","","","Mainly Clear"
"2011-06-07 19:00","2011","06","07","19:00","18.6","","16.2","","86","","18","","11","","24.1","","99.92","","","","","","Mostly Cloudy"
"2011-06-07 20:00","2011","06","07","20:00","17.8","","15.7","","88","","16","","7","","19.3","","99.99","","","","","","Mainly Clear"
"2011-06-07 21:00","2011","06","07","21:00","16.9","","15.4","","91","","18","","7","","19.3","","100.05","","","","","","Mainly Clear"
"2011-06-07 22:00","2011","06","07","22:00","17.0","","15.9","","93","","","","0","","19.3","","100.06","","","","","","Mainly Clear"
"2011-06-07 23:00","2011","06","07","23:00"
"2011-06-08 00:00","2011","06","08","00:00"
"2011-06-08 01:00","2011","06","08","01:00"
"2011-06-08 02:00","2011","06","08","02:00"
"2011-06-08 03:00","2011","06","08","03:00"
"2011-06-08 04:00","2011","06","08","04:00"
"2011-06-08 05:00","2011","06","08","05:00","15.9","","15.4","","97","","20","","15","","1.2","","99.97","","","","","","Fog"
"2011-06-08 06:00","2011","06","08","06:00","16.4","","15.7","","96","","19","","11","","1.6","","99.93","","","","","","Fog"
"2011-06-08 07:00","2011","06","08","07:00","17.2","","16.4","","95","","18","","19","","2.8","","99.98","","","","","","Fog"
"2011-06-08 08:00","2011","06","08","08:00","17.1","","16.1","","94","","16","","19","","2.8","","99.97","","","","","","Fog"
"2011-06-08 09:00","2011","06","08","09:00","17.1","","16.0","","93","","18","","17","","3.2","","99.98","","","","","","Fog"
"2011-06-08 10:00","2011","06","08","10:00","17.3","","16.1","","93","","18","","17","","2.4","","99.96","","","","","","Fog"
"2011-06-08 11:00","2011","06","08","11:00","18.7","","17.2","","91","","18","","22","","3.2","","99.89","","","","","","Fog"
"2011-06-08 12:00","2011","06","08","12:00","19.3","","17.5","","89","","18","","24","","4.8","","99.85","","","","","","Fog"
"2011-06-08 13:00","2011","06","08","13:00","20.6","","17.6","","83","","18","","19","","8.0","","99.78","","26","","","","Haze"
"2011-06-08 14:00","2011","06","08","14:00","22.6","","18.5","","78","","18","","19","","8.0","","99.74","","29","","","","Haze"
"2011-06-08 15:00","2011","06","08","15:00","22.4","","18.4","","78","","18","","17","","8.0","","99.73","","29","","","","Haze"
"2011-06-08 16:00","2011","06","08","16:00","22.2","","17.8","","76","","28","","22","","2.4","","100.02","","28","","","","Thunderstorms,Moderate Rain Showers,Fog"
"2011-06-08 17:00","2011","06","08","17:00","18.9","","16.6","","87","","12","","4","","19.3","","99.94","","","","","","Thunderstorms"
"2011-06-08 18:00","2011","06","08","18:00","19.1","","16.9","","87","","17","","7","","19.3","","99.82","","","","","","Cloudy"
"2011-06-08 19:00","2011","06","08","19:00","18.7","","15.8","","83","","18","","7","","19.3","","99.80","","","","","","Cloudy"
"2011-06-08 20:00","2011","06","08","20:00","20.9","","17.0","","78","","27","","28","","9.7","","100.04","","26","","","","Thunderstorms,Rain Showers"
"2011-06-08 21:00","2011","06","08","21:00","19.4","","16.7","","84","","23","","24","","19.3","","100.02","","","","","","Thunderstorms,Rain Showers"
"2011-06-08 22:00","2011","06","08","22:00","18.6","","16.8","","89","","15","","11","","24.1","","99.69","","","","","","Rain"
"2011-06-08 23:00","2011","06","08","23:00"
"2011-06-09 00:00","2011","06","09","00:00"
"2011-06-09 01:00","2011","06","09","01:00"
"2011-06-09 02:00","2011","06","09","02:00"
"2011-06-09 03:00","2011","06","09","03:00"
"2011-06-09 04:00","2011","06","09","04:00"
"2011-06-09 05:00","2011","06","09","05:00","16.4","","15.2","","93","","17","","11","","9.7","","99.70","","","","","","Fog"
"2011-06-09 06:00","2011","06","09","06:00","16.7","","15.7","","94","","","","0","","8.0","","99.79","","","","","","Fog"
"2011-06-09 07:00","2011","06","09","07:00","18.4","","16.7","","90","","12","","4","","6.4","","99.68","","","","","","Fog"
"2011-06-09 08:00","2011","06","09","08:00","18.3","","16.7","","90","","15","","13","","6.4","","99.68","","","","","","Fog"
"2011-06-09 09:00","2011","06","09","09:00","21.3","","18.2","","82","","25","","22","","8.0","","99.87","","27","","","","Haze"
"2011-06-09 10:00","2011","06","09","10:00","25.8","","20.0","","70","","25","","9","","9.7","","99.84","","33","","","","Haze"
"2011-06-09 11:00","2011","06","09","11:00","27.6","","19.5","","61","","28","","15","","9.7","","99.88","","35","","","","Haze"
"2011-06-09 12:00","2011","06","09","12:00","26.1","","19.0","","65","","24","","9","","12.9","","99.88","","33","","","","Mostly Cloudy"
"2011-06-09 13:00","2011","06","09","13:00","26.6","","19.0","","63","","23","","11","","12.9","","99.85","","33","","","","Cloudy"
"2011-06-09 14:00","2011","06","09","14:00","26.8","","18.3","","60","","26","","13","","16.1","","99.85","","33","","","","Cloudy"
"2011-06-09 15:00","2011","06","09","15:00","25.6","","18.1","","63","","25","","17","","19.3","","99.85","","32","","","","Mostly Cloudy"
"2011-06-09 16:00","2011","06","09","16:00","25.5","","18.1","","64","","25","","20","","19.3","","99.84","","32","","","","Mostly Cloudy"
"2011-06-09 17:00","2011","06","09","17:00","25.9","","18.3","","63","","25","","13","","19.3","","99.85","","32","","","","Mostly Cloudy"
"2011-06-09 18:00","2011","06","09","18:00","22.6","","20.1","","86","","3","","11","","24.1","","99.97","","30","","","","Cloudy"
"2011-06-09 19:00","2011","06","09","19:00","20.9","","17.0","","78","","35","","22","","24.1","","100.06","","26","","","","Cloudy"
"2011-06-09 20:00","2011","06","09","20:00","18.4","","13.7","","74","","3","","24","","24.1","","100.22","","","","","","Rain"
"2011-06-09 21:00","2011","06","09","21:00","17.5","","12.5","","72","","35","","19","","24.1","","100.41","","","","","","Rain"
"2011-06-09 22:00","2011","06","09","22:00","16.7","","11.8","","73","","36","","15","","24.1","","100.43","","","","","","Cloudy"
"2011-06-09 23:00","2011","06","09","23:00"
"2011-06-10 00:00","2011","06","10","00:00"
"2011-06-10 01:00","2011","06","10","01:00"
"2011-06-10 02:00","2011","06","10","02:00"
"2011-06-10 03:00","2011","06","10","03:00"
"2011-06-10 04:00","2011","06","10","04:00"
"2011-06-10 05:00","2011","06","10","05:00","12.8","","8.1","","73","","35","","17","","24.1","","100.61","","","","","","Mostly Cloudy"
"2011-06-10 06:00","2011","06","10","06:00","13.3","","8.0","","70","","36","","15","","24.1","","100.63","","","","","","Mostly Cloudy"
"2011-06-10 07:00","2011","06","10","07:00","14.4","","7.7","","64","","1","","17","","24.1","","100.71","","","","","","Mostly Cloudy"
"2011-06-10 08:00","2011","06","10","08:00","15.0","","7.6","","61","","1","","17","","24.1","","100.76","","","","","","Mostly Cloudy"
"2011-06-10 09:00","2011","06","10","09:00","16.6","","8.8","","60","","1","","15","","24.1","","100.76","","","","","","Mostly Cloudy"
"2011-06-10 10:00","2011","06","10","10:00","17.6","","9.8","","60","","2","","15","","24.1","","100.83","","","","","","Mostly Cloudy"
"2011-06-10 11:00","2011","06","10","11:00","18.7","","10.3","","58","","6","","19","","24.1","","100.85","","","","","","Mostly Cloudy"
"2011-06-10 12:00","2011","06","10","12:00","19.6","","10.7","","56","","36","","7","","24.1","","100.85","","","","","","Mostly Cloudy"
"2011-06-10 13:00","2011","06","10","13:00","20.4","","10.5","","53","","4","","15","","24.1","","100.76","","","","","","Mostly Cloudy"
"2011-06-10 14:00","2011","06","10","14:00","19.4","","13.1","","67","","15","","11","","24.1","","100.72","","","","","","Mostly Cloudy"
"2011-06-10 15:00","2011","06","10","15:00","20.2","","11.4","","57","","6","","9","","24.1","","100.68","","","","","","Mostly Cloudy"
"2011-06-10 16:00","2011","06","10","16:00","21.2","","10.7","","51","","5","","9","","24.1","","100.59","","","","","","Mostly Cloudy"
"2011-06-10 17:00","2011","06","10","17:00","21.1","","10.1","","49","","3","","17","","24.1","","100.60","","","","","","Cloudy"
"2011-06-10 18:00","2011","06","10","18:00","20.5","","9.7","","50","","3","","13","","24.1","","100.56","","","","","","Cloudy"
"2011-06-10 19:00","2011","06","10","19:00","19.9","","9.8","","52","","1","","11","","24.1","","100.58","","","","","","Cloudy"
"2011-06-10 20:00","2011","06","10","20:00","19.2","","10.0","","55","","2","","9","","24.1","","100.56","","","","","","Cloudy"
"2011-06-10 21:00","2011","06","10","21:00","18.6","","10.5","","59","","36","","11","","24.1","","100.64","","","","","","Rain"
"2011-06-10 22:00","2011","06","10","22:00","18.5","","9.3","","55","","1","","11","","24.1","","100.62","","","","","","Rain"
"2011-06-10 23:00","2011","06","10","23:00"
"2011-06-11 00:00","2011","06","11","00:00"
"2011-06-11 01:00","2011","06","11","01:00"
"2011-06-11 02:00","2011","06","11","02:00"
"2011-06-11 03:00","2011","06","11","03:00"
"2011-06-11 04:00","2011","06","11","04:00"
"2011-06-11 05:00","2011","06","11","05:00","15.5","","10.3","","71","","5","","9","","24.1","","100.35","","","","","","Mostly Cloudy"
"2011-06-11 06:00","2011","06","11","06:00","16.3","","10.1","","67","","5","","13","","24.1","","100.37","","","","","","Mostly Cloudy"
"2011-06-11 07:00","2011","06","11","07:00","16.9","","10.6","","66","","4","","13","","24.1","","100.37","","","","","","Mostly Cloudy"
"2011-06-11 08:00","2011","06","11","08:00","18.2","","11.4","","64","","5","","13","","24.1","","100.36","","","","","","Mostly Cloudy"
"2011-06-11 09:00","2011","06","11","09:00","19.9","","13.3","","66","","9","","7","","24.1","","100.31","","","","","","Mostly Cloudy"
"2011-06-11 10:00","2011","06","11","10:00","20.4","","14.1","","67","","13","","9","","24.1","","100.27","","","","","","Mostly Cloudy"
"2011-06-11 11:00","2011","06","11","11:00","20.0","","13.7","","67","","14","","13","","24.1","","100.25","","","","","","Mostly Cloudy"
"2011-06-11 12:00","2011","06","11","12:00","21.8","","15.2","","66","","14","","11","","24.1","","100.18","","26","","","","Mostly Cloudy"
"2011-06-11 13:00","2011","06","11","13:00","22.1","","16.1","","69","","9","","13","","24.1","","100.09","","27","","","","Cloudy"
"2011-06-11 14:00","2011","06","11","14:00","21.5","","16.9","","75","","11","","11","","24.1","","100.05","","27","","","","Cloudy"
"2011-06-11 15:00","2011","06","11","15:00","22.2","","17.2","","73","","7","","17","","24.1","","99.98","","28","","","","Cloudy"
"2011-06-11 16:00","2011","06","11","16:00","21.9","","17.3","","75","","9","","13","","24.1","","99.99","","27","","","","Cloudy"
"2011-06-11 17:00","2011","06","11","17:00","19.9","","18.3","","91","","10","","13","","3.2","","99.98","","","","","","Thunderstorms,Moderate Rain Showers"
"2011-06-11 18:00","2011","06","11","18:00","19.4","","18.2","","93","","10","","15","","19.3","","99.90","","","","","","Mostly Cloudy"
"2011-06-11 19:00","2011","06","11","19:00","19.3","","18.3","","94","","13","","7","","9.7","","99.89","","","","","","Fog"
"2011-06-11 20:00","2011","06","11","20:00","19.2","","17.8","","92","","12","","9","","9.7","","99.89","","","","","","Fog"
"2011-06-11 21:00","2011","06","11","21:00","17.8","","16.8","","94","","16","","20","","12.9","","99.89","","","","","","Rain"
"2011-06-11 22:00","2011","06","11","22:00","16.6","","15.9","","96","","17","","19","","24.1","","99.90","","","","","","Cloudy"
"2011-06-11 23:00","2011","06","11","23:00"
"2011-06-12 00:00","2011","06","12","00:00"
"2011-06-12 01:00","2011","06","12","01:00"
"2011-06-12 02:00","2011","06","12","02:00"
"2011-06-12 03:00","2011","06","12","03:00"
"2011-06-12 04:00","2011","06","12","04:00"
"2011-06-12 05:00","2011","06","12","05:00","15.6","","15.3","","98","","18","","17","","11.3","","99.87","","","","","","Cloudy"
"2011-06-12 06:00","2011","06","12","06:00","15.6","","15.2","","97","","19","","15","","9.7","","99.87","","","","","","Fog"
"2011-06-12 07:00","2011","06","12","07:00","15.5","","15.2","","98","","19","","9","","4.8","","99.88","","","","","","Drizzle,Fog"
"2011-06-12 08:00","2011","06","12","08:00","17.5","","14.2","","81","","27","","15","","16.1","","99.89","","","","","","Mostly Cloudy"
"2011-06-12 09:00","2011","06","12","09:00","18.2","","14.0","","76","","25","","19","","24.1","","99.90","","","","","","Mostly Cloudy"
"2011-06-12 10:00","2011","06","12","10:00","18.9","","13.7","","72","","23","","17","","24.1","","99.88","","","","","","Mainly Clear"
"2011-06-12 11:00","2011","06","12","11:00","19.0","","13.2","","69","","22","","22","","24.1","","99.87","","","","","","Mainly Clear"
"2011-06-12 12:00","2011","06","12","12:00","19.9","","13.4","","66","","22","","9","","24.1","","99.87","","","","","","Mainly Clear"
"2011-06-12 13:00","2011","06","12","13:00","20.1","","13.5","","66","","23","","20","","24.1","","99.86","","","","","","Mainly Clear"
"2011-06-12 14:00","2011","06","12","14:00","19.9","","12.9","","64","","24","","19","","24.1","","99.86","","","","","","Mostly Cloudy"
"2011-06-12 15:00","2011","06","12","15:00","19.7","","12.1","","62","","23","","20","","24.1","","99.86","","","","","","Mostly Cloudy"
"2011-06-12 16:00","2011","06","12","16:00","19.6","","11.1","","58","","25","","19","","24.1","","99.89","","","","","","Mostly Cloudy"
"2011-06-12 17:00","2011","06","12","17:00","17.7","","12.8","","73","","22","","22","","24.1","","99.91","","","","","","Mostly Cloudy"
"2011-06-12 18:00","2011","06","12","18:00","18.2","","11.1","","63","","25","","20","","24.1","","99.96","","","","","","Mostly Cloudy"
"2011-06-12 19:00","2011","06","12","19:00","17.3","","11.7","","70","","24","","17","","24.1","","100.00","","","","","","Mostly Cloudy"
"2011-06-12 20:00","2011","06","12","20:00","16.8","","11.0","","69","","26","","15","","24.1","","100.03","","","","","","Mainly Clear"
"2011-06-12 21:00","2011","06","12","21:00","15.7","","11.0","","74","","26","","11","","24.1","","100.05","","","","","","Mainly Clear"
"2011-06-12 22:00","2011","06","12","22:00","15.1","","11.3","","78","","25","","13","","24.1","","100.07","","","","","","Mainly Clear"
"2011-06-12 23:00","2011","06","12","23:00"
"2011-06-13 00:00","2011","06","13","00:00"
"2011-06-13 01:00","2011","06","13","01:00"
"2011-06-13 02:00","2011","06","13","02:00"
"2011-06-13 03:00","2011","06","13","03:00"
"2011-06-13 04:00","2011","06","13","04:00"
"2011-06-13 05:00","2011","06","13","05:00","13.5","","11.5","","88","","24","","9","","24.1","","100.04","","","","","","Mainly Clear"
"2011-06-13 06:00","2011","06","13","06:00","14.1","","11.5","","84","","27","","9","","24.1","","100.08","","","","","","Mostly Cloudy"
"2011-06-13 07:00","2011","06","13","07:00","14.8","","12.2","","84","","26","","13","","24.1","","100.13","","","","","","Mostly Cloudy"
"2011-06-13 08:00","2011","06","13","08:00","15.8","","12.6","","81","","26","","4","","24.1","","100.15","","","","","","Mostly Cloudy"
"2011-06-13 09:00","2011","06","13","09:00","16.6","","13.7","","83","","22","","13","","24.1","","100.14","","","","","","Mostly Cloudy"
"2011-06-13 10:00","2011","06","13","10:00","15.7","","14.1","","90","","21","","7","","19.3","","100.15","","","","","","Rain"
"2011-06-13 11:00","2011","06","13","11:00","15.4","","14.0","","91","","18","","13","","19.3","","100.14","","","","","","Rain"
"2011-06-13 12:00","2011","06","13","12:00","16.3","","14.7","","90","","20","","15","","24.1","","100.13","","","","","","Mostly Cloudy"
"2011-06-13 13:00","2011","06","13","13:00","16.6","","13.6","","82","","18","","17","","24.1","","100.13","","","","","","Mostly Cloudy"
"2011-06-13 14:00","2011","06","13","14:00","15.9","","14.2","","90","","18","","13","","19.3","","100.16","","","","","","Rain Showers"
"2011-06-13 15:00","2011","06","13","15:00","15.4","","14.6","","95","","18","","13","","16.1","","100.13","","","","","","Rain Showers"
"2011-06-13 16:00","2011","06","13","16:00","15.8","","14.8","","94","","25","","15","","16.1","","100.13","","","","","","Rain Showers"
"2011-06-13 17:00","2011","06","13","17:00","16.7","","15.6","","93","","27","","9","","9.7","","100.15","","","","","","Rain Showers"
"2011-06-13 18:00","2011","06","13","18:00","16.0","","15.2","","95","","36","","9","","4.8","","100.21","","","","","","Rain Showers,Fog"
"2011-06-13 19:00","2011","06","13","19:00","14.4","","12.9","","91","","4","","22","","4.8","","100.27","","","","","","Rain Showers,Fog"
"2011-06-13 20:00","2011","06","13","20:00","13.5","","12.4","","93","","4","","19","","16.1","","100.31","","","","","","Rain Showers"
"2011-06-13 21:00","2011","06","13","21:00","13.3","","11.7","","90","","3","","15","","24.1","","100.35","","","","","","Rain"
"2011-06-13 22:00","2011","06","13","22:00","13.5","","12.4","","93","","2","","17","","24.1","","100.35","","","","","","Cloudy"
"2011-06-13 23:00","2011","06","13","23:00"
"2011-06-14 00:00","2011","06","14","00:00"
"2011-06-14 01:00","2011","06","14","01:00"
"2011-06-14 02:00","2011","06","14","02:00"
"2011-06-14 03:00","2011","06","14","03:00"
"2011-06-14 04:00","2011","06","14","04:00"
"2011-06-14 05:00","2011","06","14","05:00","12.9","","10.6","","86","","2","","19","","24.1","","100.50","","","","","","Cloudy"
"2011-06-14 06:00","2011","06","14","06:00","12.6","","9.6","","82","","1","","33","","24.1","","100.51","","","","","","Mostly Cloudy"
"2011-06-14 07:00","2011","06","14","07:00","13.0","","9.1","","77","","4","","33","","24.1","","100.56","","","","","","Mostly Cloudy"
"2011-06-14 08:00","2011","06","14","08:00","13.4","","9.2","","76","","3","","26","","24.1","","100.63","","","","","","Mostly Cloudy"
"2011-06-14 09:00","2011","06","14","09:00","13.5","","8.3","","71","","2","","26","","24.1","","100.66","","","","","","Cloudy"
"2011-06-14 10:00","2011","06","14","10:00","14.1","","9.0","","71","","3","","26","","24.1","","100.70","","","","","","Mostly Cloudy"
"2011-06-14 11:00","2011","06","14","11:00","16.1","","8.8","","62","","3","","43","","24.1","","100.65","","","","","","Mostly Cloudy"
"2011-06-14 12:00","2011","06","14","12:00","17.0","","9.1","","60","","5","","30","","24.1","","100.63","","","","","","Mainly Clear"
"2011-06-14 13:00","2011","06","14","13:00","18.9","","10.5","","58","","2","","32","","24.1","","100.59","","","","","","Mainly Clear"
"2011-06-14 14:00","2011","06","14","14:00","19.4","","9.5","","53","","4","","17","","24.1","","100.56","","","","","","Mainly Clear"
"2011-06-14 15:00","2011","06","14","15:00","20.6","","9.8","","50","","2","","24","","24.1","","100.53","","","","","","Mainly Clear"
"2011-06-14 16:00","2011","06","14","16:00","21.5","","9.3","","46","","2","","22","","24.1","","100.49","","","","","","Clear"
"2011-06-14 17:00","2011","06","14","17:00","21.9","","8.8","","43","","4","","17","","24.1","","100.47","","","","","","Clear"
"2011-06-14 18:00","2011","06","14","18:00","21.5","","8.3","","43","","2","","15","","24.1","","100.47","","","","","","Clear"
"2011-06-14 19:00","2011","06","14","19:00","20.4","","10.1","","52","","29","","6","","24.1","","100.46","","","","","","Clear"
"2011-06-14 20:00","2011","06","14","20:00","18.8","","9.8","","56","","24","","9","","24.1","","100.45","","","","","","Mainly Clear"
"2011-06-14 21:00","2011","06","14","21:00","17.3","","10.1","","63","","25","","9","","24.1","","100.45","","","","","","Mainly Clear"
"2011-06-14 22:00","2011","06","14","22:00","15.9","","12.4","","80","","24","","15","","24.1","","100.45","","","","","","Clear"
"2011-06-14 23:00","2011","06","14","23:00"
"2011-06-15 00:00","2011","06","15","00:00"
"2011-06-15 01:00","2011","06","15","01:00"
"2011-06-15 02:00","2011","06","15","02:00"
"2011-06-15 03:00","2011","06","15","03:00"
"2011-06-15 04:00","2011","06","15","04:00"
"2011-06-15 05:00","2011","06","15","05:00","13.8","","10.2","","79","","29","","9","","24.1","","100.24","","","","","","Clear"
"2011-06-15 06:00","2011","06","15","06:00","15.7","","11.0","","74","","30","","11","","24.1","","100.25","","","","","","Clear"
"2011-06-15 07:00","2011","06","15","07:00","18.5","","11.6","","64","","33","","11","","24.1","","100.27","","","","","","Clear"
"2011-06-15 08:00","2011","06","15","08:00","17.3","","13.7","","79","","","","0","","24.1","","100.25","","","","","","Clear"
"2011-06-15 09:00","2011","06","15","09:00","16.0","","13.0","","82","","14","","13","","24.1","","100.23","","","","","","Clear"
"2011-06-15 10:00","2011","06","15","10:00","16.4","","13.1","","81","","18","","13","","24.1","","100.26","","","","","","Clear"
"2011-06-15 11:00","2011","06","15","11:00","17.5","","13.5","","77","","18","","11","","24.1","","100.26","","","","","","Clear"
"2011-06-15 12:00","2011","06","15","12:00","17.5","","14.3","","81","","17","","11","","24.1","","100.20","","","","","","Clear"
"2011-06-15 13:00","2011","06","15","13:00","17.8","","15.1","","84","","18","","17","","24.1","","100.19","","","","","","Mainly Clear"
"2011-06-15 14:00","2011","06","15","14:00","17.6","","14.9","","84","","16","","17","","24.1","","100.16","","","","","","Mainly Clear"
"2011-06-15 15:00","2011","06","15","15:00","18.1","","14.5","","79","","16","","9","","24.1","","100.12","","","","","","Mainly Clear"
"2011-06-15 16:00","2011","06","15","16:00","19.6","","15.3","","76","","14","","9","","24.1","","100.06","","","","","","Mainly Clear"
"2011-06-15 17:00","2011","06","15","17:00","19.8","","15.9","","78","","","","0","","24.1","","100.02","","","","","","Mainly Clear"
"2011-06-15 18:00","2011","06","15","18:00","24.2","","16.2","","61","","23","","11","","24.1","","99.99","","29","","","","Mainly Clear"
"2011-06-15 19:00","2011","06","15","19:00","22.2","","15.1","","64","","22","","9","","24.1","","99.97","","26","","","","Mainly Clear"
"2011-06-15 20:00","2011","06","15","20:00","17.5","","14.6","","83","","24","","9","","24.1","","99.97","","","","","","Mainly Clear"
"2011-06-15 21:00","2011","06","15","21:00","17.6","","13.9","","79","","15","","7","","24.1","","100.01","","","","","","Mainly Clear"
"2011-06-15 22:00","2011","06","15","22:00","16.3","","14.5","","89","","14","","7","","24.1","","100.02","","","","","","Mainly Clear"
"2011-06-15 23:00","2011","06","15","23:00"
"2011-06-16 00:00","2011","06","16","00:00"
"2011-06-16 01:00","2011","06","16","01:00"
"2011-06-16 02:00","2011","06","16","02:00"
"2011-06-16 03:00","2011","06","16","03:00"
"2011-06-16 04:00","2011","06","16","04:00"
"2011-06-16 05:00","2011","06","16","05:00","14.7","","13.3","","91","","18","","6","","24.1","","100.05","","","","","","Clear"
"2011-06-16 06:00","2011","06","16","06:00","15.9","","12.8","","82","","22","","6","","24.1","","100.07","","","","","","Clear"
"2011-06-16 07:00","2011","06","16","07:00","16.1","","13.5","","85","","15","","9","","24.1","","100.12","","","","","","Clear"
"2011-06-16 08:00","2011","06","16","08:00","16.0","","13.9","","87","","16","","11","","24.1","","100.12","","","","","","Mainly Clear"
"2011-06-16 09:00","2011","06","16","09:00","16.8","","14.7","","87","","17","","11","","19.3","","100.12","","","","","","Clear"
"2011-06-16 10:00","2011","06","16","10:00","16.9","","14.8","","87","","17","","13","","19.3","","100.13","","","","","","Mainly Clear"
"2011-06-16 11:00","2011","06","16","11:00","17.6","","13.7","","78","","14","","9","","16.1","","100.09","","","","","","Clear"
"2011-06-16 12:00","2011","06","16","12:00","19.7","","14.3","","71","","16","","7","","19.3","","100.07","","","","","","Mainly Clear"
"2011-06-16 13:00","2011","06","16","13:00","20.9","","13.9","","64","","18","","7","","12.9","","100.03","","","","","","Mainly Clear"
"2011-06-16 14:00","2011","06","16","14:00","23.2","","14.1","","57","","20","","7","","12.9","","99.99","","27","","","","Mainly Clear"
"2011-06-16 15:00","2011","06","16","15:00","23.9","","15.7","","60","","18","","7","","19.3","","99.96","","28","","","","Mainly Clear"
"2011-06-16 16:00","2011","06","16","16:00","24.5","","14.0","","52","","22","","7","","19.3","","99.92","","28","","","","Mainly Clear"
"2011-06-16 17:00","2011","06","16","17:00","25.4","","15.2","","53","","21","","9","","19.3","","99.90","","29","","","","Mainly Clear"
"2011-06-16 18:00","2011","06","16","18:00","22.6","","13.8","","58","","23","","17","","24.1","","99.95","","26","","","","Mainly Clear"
"2011-06-16 19:00","2011","06","16","19:00","21.2","","13.0","","59","","25","","11","","24.1","","99.96","","","","","","Mostly Cloudy"
"2011-06-16 20:00","2011","06","16","20:00","20.2","","12.1","","60","","25","","9","","24.1","","99.98","","","","","","Mostly Cloudy"
"2011-06-16 21:00","2011","06","16","21:00","19.6","","11.7","","60","","19","","4","","24.1","","99.99","","","","","","Mostly Cloudy"
"2011-06-16 22:00","2011","06","16","22:00","18.7","","11.8","","64","","","","0","","24.1","","99.97","","","","","","Mainly Clear"
"2011-06-16 23:00","2011","06","16","23:00"
"2011-06-17 00:00","2011","06","17","00:00"
"2011-06-17 01:00","2011","06","17","01:00"
"2011-06-17 02:00","2011","06","17","02:00"
"2011-06-17 03:00","2011","06","17","03:00"
"2011-06-17 04:00","2011","06","17","04:00"
"2011-06-17 05:00","2011","06","17","05:00","17.3","","15.9","","91","","11","","9","","19.3","","99.98","","","","","","Cloudy"
"2011-06-17 06:00","2011","06","17","06:00","17.5","","15.8","","90","","16","","11","","19.3","","99.98","","","","","","Cloudy"
"2011-06-17 07:00","2011","06","17","07:00","17.0","","15.6","","91","","18","","9","","19.3","","100.02","","","","","","Cloudy"
"2011-06-17 08:00","2011","06","17","08:00","16.6","","15.5","","93","","19","","9","","16.1","","100.05","","","","","","Cloudy"
"2011-06-17 09:00","2011","06","17","09:00","16.6","","15.5","","93","","18","","7","","16.1","","100.03","","","","","","Cloudy"
"2011-06-17 10:00","2011","06","17","10:00","17.8","","15.9","","89","","","","0","","9.7","","100.01","","","","","","Haze"
"2011-06-17 11:00","2011","06","17","11:00","16.8","","15.5","","92","","16","","11","","9.7","","100.03","","","","","","Haze"
"2011-06-17 12:00","2011","06","17","12:00","18.3","","16.0","","86","","12","","9","","8.0","","100.03","","","","","","Haze"
"2011-06-17 13:00","2011","06","17","13:00","18.3","","16.4","","89","","16","","13","","8.0","","100.01","","","","","","Haze"
"2011-06-17 14:00","2011","06","17","14:00","17.7","","16.0","","90","","18","","7","","9.7","","100.00","","","","","","Haze"
"2011-06-17 15:00","2011","06","17","15:00","17.4","","15.7","","90","","16","","9","","9.7","","99.92","","","","","","Haze"
"2011-06-17 16:00","2011","06","17","16:00","17.8","","15.9","","89","","17","","13","","9.7","","99.92","","","","","","Haze"
"2011-06-17 17:00","2011","06","17","17:00","17.9","","16.0","","89","","18","","15","","9.7","","99.93","","","","","","Haze"
"2011-06-17 18:00","2011","06","17","18:00","17.7","","16.0","","90","","18","","13","","11.3","","99.91","","","","","","Mainly Clear"
"2011-06-17 19:00","2011","06","17","19:00","17.7","","16.0","","90","","21","","7","","12.9","","99.92","","","","","","Mainly Clear"
"2011-06-17 20:00","2011","06","17","20:00","16.9","","15.7","","93","","20","","7","","12.9","","99.91","","","","","","Mainly Clear"
"2011-06-17 21:00","2011","06","17","21:00","17.0","","16.2","","95","","15","","7","","12.9","","99.93","","","","","","Mainly Clear"
"2011-06-17 22:00","2011","06","17","22:00","17.0","","16.3","","96","","","","0","","12.9","","99.96","","","","","","Mostly Cloudy"
"2011-06-17 23:00","2011","06","17","23:00"
"2011-06-18 00:00","2011","06","18","00:00"
"2011-06-18 01:00","2011","06","18","01:00"
"2011-06-18 02:00","2011","06","18","02:00"
"2011-06-18 03:00","2011","06","18","03:00"
"2011-06-18 04:00","2011","06","18","04:00"
"2011-06-18 05:00","2011","06","18","05:00","15.6","","15.4","","99","","1","","6","","0.4","","100.00","","","","","","Fog"
"2011-06-18 06:00","2011","06","18","06:00","16.1","","15.9","","99","","36","","7","","3.2","","100.03","","","","","","Fog"
"2011-06-18 07:00","2011","06","18","07:00","17.3","","16.1","","93","","","","0","","6.4","","100.04","","","","","","Fog"
"2011-06-18 08:00","2011","06","18","08:00","17.5","","16.3","","93","","15","","7","","6.4","","100.03","","","","","","Fog"
"2011-06-18 09:00","2011","06","18","09:00","18.7","","16.9","","89","","17","","7","","19.3","","100.08","","","","","","Mainly Clear"
"2011-06-18 10:00","2011","06","18","10:00","18.9","","16.9","","88","","17","","7","","16.1","","100.07","","","","","","Mainly Clear"
"2011-06-18 11:00","2011","06","18","11:00","18.6","","17.0","","90","","17","","15","","12.9","","100.08","","","","","","Mainly Clear"
"2011-06-18 12:00","2011","06","18","12:00","18.9","","17.2","","90","","16","","9","","12.9","","100.09","","","","","","Mainly Clear"
"2011-06-18 13:00","2011","06","18","13:00","20.5","","17.6","","83","","15","","11","","12.9","","100.01","","26","","","","Mainly Clear"
"2011-06-18 14:00","2011","06","18","14:00","20.4","","17.6","","84","","18","","19","","12.9","","100.02","","26","","","","Mainly Clear"
"2011-06-18 15:00","2011","06","18","15:00","21.5","","17.4","","77","","19","","19","","19.3","","99.97","","27","","","","Mainly Clear"
"2011-06-18 16:00","2011","06","18","16:00","19.9","","17.1","","84","","18","","20","","19.3","","99.94","","","","","","Mainly Clear"
"2011-06-18 17:00","2011","06","18","17:00","19.5","","16.9","","85","","17","","17","","24.1","","99.90","","","","","","Mainly Clear"
"2011-06-18 18:00","2011","06","18","18:00","19.5","","16.5","","83","","16","","13","","24.1","","99.91","","","","","","Mainly Clear"
"2011-06-18 19:00","2011","06","18","19:00","19.0","","16.4","","85","","9","","6","","24.1","","99.94","","","","","","Clear"
"2011-06-18 20:00","2011","06","18","20:00","18.9","","16.1","","84","","2","","6","","24.1","","100.00","","","","","","Mainly Clear"
"2011-06-18 21:00","2011","06","18","21:00","19.0","","10.1","","56","","2","","11","","24.1","","100.05","","","","","","Clear"
"2011-06-18 22:00","2011","06","18","22:00","18.4","","8.3","","52","","2","","9","","24.1","","100.12","","","","","","Clear"
"2011-06-18 23:00","2011","06","18","23:00"
"2011-06-19 00:00","2011","06","19","00:00"
"2011-06-19 01:00","2011","06","19","01:00"
"2011-06-19 02:00","2011","06","19","02:00"
"2011-06-19 03:00","2011","06","19","03:00"
"2011-06-19 04:00","2011","06","19","04:00"
"2011-06-19 05:00","2011","06","19","05:00","11.2","","7.3","","77","","33","","7","","24.1","","100.32","","","","","","Mainly Clear"
"2011-06-19 06:00","2011","06","19","06:00","14.3","","7.9","","65","","36","","11","","24.1","","100.32","","","","","","Mainly Clear"
"2011-06-19 07:00","2011","06","19","07:00","17.1","","7.2","","52","","4","","11","","24.1","","100.35","","","","","","Mostly Cloudy"
"2011-06-19 08:00","2011","06","19","08:00","17.1","","7.0","","51","","1","","15","","24.1","","100.37","","","","","","Mostly Cloudy"
"2011-06-19 09:00","2011","06","19","09:00","18.4","","7.5","","49","","36","","15","","24.1","","100.36","","","","","","Mostly Cloudy"
"2011-06-19 10:00","2011","06","19","10:00","19.8","","8.1","","47","","2","","13","","24.1","","100.31","","","","","","Mostly Cloudy"
"2011-06-19 11:00","2011","06","19","11:00","20.5","","7.8","","44","","32","","11","","24.1","","100.35","","","","","","Mostly Cloudy"
"2011-06-19 12:00","2011","06","19","12:00","20.4","","8.8","","47","","1","","7","","24.1","","100.28","","","","","","Mostly Cloudy"
"2011-06-19 13:00","2011","06","19","13:00","18.8","","11.2","","61","","16","","15","","24.1","","100.27","","","","","","Mostly Cloudy"
"2011-06-19 14:00","2011","06","19","14:00","18.6","","11.5","","63","","18","","15","","24.1","","100.23","","","","","","Mostly Cloudy"
"2011-06-19 15:00","2011","06","19","15:00","19.0","","12.0","","64","","20","","11","","24.1","","100.16","","","","","","Mostly Cloudy"
"2011-06-19 16:00","2011","06","19","16:00","18.9","","12.3","","66","","20","","15","","24.1","","100.20","","","","","","Mainly Clear"
"2011-06-19 17:00","2011","06","19","17:00","18.9","","11.9","","64","","18","","17","","24.1","","100.16","","","","","","Mainly Clear"
"2011-06-19 18:00","2011","06","19","18:00","20.0","","10.6","","55","","22","","13","","24.1","","100.15","","","","","","Mainly Clear"
"2011-06-19 19:00","2011","06","19","19:00","18.9","","11.4","","62","","22","","13","","24.1","","100.18","","","","","","Mainly Clear"
"2011-06-19 20:00","2011","06","19","20:00","18.4","","11.4","","64","","26","","9","","24.1","","100.15","","","","","","Mostly Cloudy"
"2011-06-19 21:00","2011","06","19","21:00","15.9","","10.9","","72","","28","","7","","24.1","","100.19","","","","","","Mostly Cloudy"
"2011-06-19 22:00","2011","06","19","22:00","15.0","","10.0","","72","","32","","9","","24.1","","100.17","","","","","","Mainly Clear"
"2011-06-19 23:00","2011","06","19","23:00"
"2011-06-20 00:00","2011","06","20","00:00"
"2011-06-20 01:00","2011","06","20","01:00"
"2011-06-20 02:00","2011","06","20","02:00"
"2011-06-20 03:00","2011","06","20","03:00"
"2011-06-20 04:00","2011","06","20","04:00"
"2011-06-20 05:00","2011","06","20","05:00","12.4","","9.8","","84","","36","","4","","24.1","","100.23","","","","","","Mostly Cloudy"
"2011-06-20 06:00","2011","06","20","06:00","16.8","","11.5","","71","","","","0","","24.1","","100.27","","","","","","Mostly Cloudy"
"2011-06-20 07:00","2011","06","20","07:00","17.3","","12.4","","73","","8","","4","","24.1","","100.28","","","","","","Mostly Cloudy"
"2011-06-20 08:00","2011","06","20","08:00","17.0","","13.3","","79","","16","","7","","24.1","","100.30","","","","","","Mostly Cloudy"
"2011-06-20 09:00","2011","06","20","09:00","17.6","","14.6","","83","","17","","7","","24.1","","100.29","","","","","","Mainly Clear"
"2011-06-20 10:00","2011","06","20","10:00","18.3","","15.2","","82","","16","","6","","24.1","","100.24","","","","","","Mainly Clear"
"2011-06-20 11:00","2011","06","20","11:00","19.0","","15.1","","78","","17","","11","","24.1","","100.24","","","","","","Mainly Clear"
"2011-06-20 12:00","2011","06","20","12:00","19.9","","15.1","","74","","18","","13","","24.1","","100.22","","","","","","Mainly Clear"
"2011-06-20 13:00","2011","06","20","13:00","21.8","","13.2","","58","","17","","13","","24.1","","100.19","","25","","","","Mostly Cloudy"
"2011-06-20 14:00","2011","06","20","14:00","22.5","","12.5","","53","","19","","15","","24.1","","100.17","","25","","","","Mostly Cloudy"
"2011-06-20 15:00","2011","06","20","15:00","23.9","","12.3","","48","","21","","13","","24.1","","100.15","","26","","","","Mostly Cloudy"
"2011-06-20 16:00","2011","06","20","16:00","23.1","","11.5","","48","","18","","13","","24.1","","100.12","","25","","","","Mostly Cloudy"
"2011-06-20 17:00","2011","06","20","17:00","23.3","","11.2","","46","","18","","7","","24.1","","100.06","","25","","","","Mostly Cloudy"
"2011-06-20 18:00","2011","06","20","18:00","23.4","","11.2","","46","","24","","6","","24.1","","100.08","","25","","","","Mostly Cloudy"
"2011-06-20 19:00","2011","06","20","19:00","23.5","","12.0","","48","","","","0","","24.1","","100.09","","26","","","","Mostly Cloudy"
"2011-06-20 20:00","2011","06","20","20:00","22.8","","11.9","","50","","6","","6","","24.1","","100.06","","25","","","","Mostly Cloudy"
"2011-06-20 21:00","2011","06","20","21:00","21.1","","14.3","","65","","3","","6","","24.1","","100.12","","25","","","","Mostly Cloudy"
"2011-06-20 22:00","2011","06","20","22:00","21.9","","12.8","","56","","3","","6","","24.1","","100.10","","25","","","","Mostly Cloudy"
"2011-06-20 23:00","2011","06","20","23:00"
"2011-06-21 00:00","2011","06","21","00:00"
"2011-06-21 01:00","2011","06","21","01:00"
"2011-06-21 02:00","2011","06","21","02:00"
"2011-06-21 03:00","2011","06","21","03:00"
"2011-06-21 04:00","2011","06","21","04:00"
"2011-06-21 05:00","2011","06","21","05:00","15.8","","12.2","","79","","3","","9","","24.1","","100.24","","","","","","Mainly Clear"
"2011-06-21 06:00","2011","06","21","06:00","17.8","","13.5","","76","","3","","7","","24.1","","100.26","","","","","","Mainly Clear"
"2011-06-21 07:00","2011","06","21","07:00","20.5","","13.3","","63","","3","","11","","24.1","","100.28","","","","","","Mainly Clear"
"2011-06-21 08:00","2011","06","21","08:00","22.8","","13.5","","56","","4","","11","","24.1","","100.31","","26","","","","Mainly Clear"
"2011-06-21 09:00","2011","06","21","09:00","23.7","","12.3","","49","","6","","15","","24.1","","100.26","","26","","","","Mainly Clear"
"2011-06-21 10:00","2011","06","21","10:00","25.2","","11.7","","43","","8","","20","","24.1","","100.29","","27","","","","Mainly Clear"
"2011-06-21 11:00","2011","06","21","11:00","24.8","","12.2","","45","","12","","19","","24.1","","100.29","","27","","","","Mostly Cloudy"
"2011-06-21 12:00","2011","06","21","12:00","26.1","","11.9","","41","","10","","22","","24.1","","100.28","","28","","","","Mainly Clear"
"2011-06-21 13:00","2011","06","21","13:00","25.2","","11.6","","43","","13","","17","","24.1","","100.28","","27","","","","Mostly Cloudy"
"2011-06-21 14:00","2011","06","21","14:00","26.2","","11.2","","39","","4","","13","","24.1","","100.27","","28","","","","Mostly Cloudy"
"2011-06-21 15:00","2011","06","21","15:00","26.1","","11.9","","41","","4","","13","","24.1","","100.24","","28","","","","Mostly Cloudy"
"2011-06-21 16:00","2011","06","21","16:00","25.8","","12.8","","44","","2","","19","","24.1","","100.25","","28","","","","Mostly Cloudy"
"2011-06-21 17:00","2011","06","21","17:00","25.0","","12.4","","45","","3","","9","","24.1","","100.20","","27","","","","Mostly Cloudy"
"2011-06-21 18:00","2011","06","21","18:00","24.2","","12.5","","48","","1","","11","","24.1","","100.19","","27","","","","Cloudy"
"2011-06-21 19:00","2011","06","21","19:00","23.0","","13.8","","56","","34","","15","","24.1","","100.24","","26","","","","Cloudy"
"2011-06-21 20:00","2011","06","21","20:00","22.5","","14.0","","59","","36","","11","","24.1","","100.19","","26","","","","Cloudy"
"2011-06-21 21:00","2011","06","21","21:00","22.0","","14.2","","61","","3","","9","","24.1","","100.20","","25","","","","Cloudy"
"2011-06-21 22:00","2011","06","21","22:00","21.6","","14.2","","63","","2","","9","","24.1","","100.24","","25","","","","Cloudy"
"2011-06-21 23:00","2011","06","21","23:00"
"2011-06-22 00:00","2011","06","22","00:00"
"2011-06-22 01:00","2011","06","22","01:00"
"2011-06-22 02:00","2011","06","22","02:00"
"2011-06-22 03:00","2011","06","22","03:00"
"2011-06-22 04:00","2011","06","22","04:00"
"2011-06-22 05:00","2011","06","22","05:00","19.4","","11.9","","62","","5","","13","","24.1","","100.12","","","","","","Rain Showers"
"2011-06-22 06:00","2011","06","22","06:00","17.5","","13.7","","78","","3","","19","","19.3","","100.10","","","","","","Rain Showers"
"2011-06-22 07:00","2011","06","22","07:00","17.9","","13.4","","75","","4","","22","","24.1","","99.98","","","","","","Cloudy"
"2011-06-22 08:00","2011","06","22","08:00","18.1","","14.0","","77","","5","","19","","24.1","","100.00","","","","","","Cloudy"
"2011-06-22 09:00","2011","06","22","09:00","19.6","","15.2","","76","","6","","13","","24.1","","100.03","","","","","","Cloudy"
"2011-06-22 10:00","2011","06","22","10:00","19.8","","15.7","","77","","11","","9","","24.1","","100.08","","","","","","Cloudy"
"2011-06-22 11:00","2011","06","22","11:00","18.8","","16.7","","88","","13","","13","","19.3","","100.05","","","","","","Rain"
"2011-06-22 12:00","2011","06","22","12:00","18.6","","17.1","","91","","10","","7","","12.9","","100.02","","","","","","Rain"
"2011-06-22 13:00","2011","06","22","13:00","19.4","","17.9","","91","","5","","15","","8.0","","99.98","","","","","","Rain,Fog"
"2011-06-22 14:00","2011","06","22","14:00","18.5","","17.2","","92","","3","","13","","6.4","","99.94","","","","","","Rain,Fog"
"2011-06-22 15:00","2011","06","22","15:00","18.9","","17.7","","93","","5","","15","","9.7","","99.89","","","","","","Rain,Fog"
"2011-06-22 16:00","2011","06","22","16:00","19.5","","18.2","","92","","5","","17","","9.7","","99.87","","","","","","Rain,Fog"
"2011-06-22 17:00","2011","06","22","17:00","19.7","","18.2","","91","","6","","19","","12.9","","99.83","","","","","","Cloudy"
"2011-06-22 18:00","2011","06","22","18:00","19.5","","18.0","","91","","6","","15","","16.1","","99.82","","","","","","Cloudy"
"2011-06-22 19:00","2011","06","22","19:00","19.6","","18.1","","91","","4","","11","","24.1","","99.81","","","","","","Cloudy"
"2011-06-22 20:00","2011","06","22","20:00","19.6","","18.1","","91","","5","","11","","24.1","","99.74","","","","","","Cloudy"
"2011-06-22 21:00","2011","06","22","21:00","19.3","","18.1","","93","","5","","11","","24.1","","99.77","","","","","","Cloudy"
"2011-06-22 22:00","2011","06","22","22:00","19.0","","18.0","","94","","6","","11","","12.9","","99.71","","","","","","Cloudy"
"2011-06-22 23:00","2011","06","22","23:00"
"2011-06-23 00:00","2011","06","23","00:00"
"2011-06-23 01:00","2011","06","23","01:00"
"2011-06-23 02:00","2011","06","23","02:00"
"2011-06-23 03:00","2011","06","23","03:00"
"2011-06-23 04:00","2011","06","23","04:00"
"2011-06-23 05:00","2011","06","23","05:00","18.9","","17.8","","93","","1","","4","","12.9","","99.55","","","","","","Rain"
"2011-06-23 06:00","2011","06","23","06:00","18.7","","17.7","","94","","7","","9","","16.1","","99.49","","","","","","Rain"
"2011-06-23 07:00","2011","06","23","07:00","18.7","","17.8","","95","","10","","11","","12.9","","99.51","","","","","","Cloudy"
"2011-06-23 08:00","2011","06","23","08:00","19.5","","18.2","","92","","13","","11","","9.7","","99.44","","","","","","Fog"
"2011-06-23 09:00","2011","06","23","09:00","18.7","","17.9","","95","","17","","13","","8.0","","99.48","","","","","","Fog"
"2011-06-23 10:00","2011","06","23","10:00","19.3","","18.2","","93","","20","","11","","4.0","","99.48","","","","","","Fog"
"2011-06-23 11:00","2011","06","23","11:00","20.1","","18.3","","89","","18","","17","","9.7","","99.47","","26","","","","Fog"
"2011-06-23 12:00","2011","06","23","12:00","20.0","","18.2","","89","","16","","13","","11.3","","99.43","","26","","","","Mainly Clear"
"2011-06-23 13:00","2011","06","23","13:00","20.6","","18.6","","88","","17","","17","","11.3","","99.42","","27","","","","Mainly Clear"
"2011-06-23 14:00","2011","06","23","14:00","21.7","","19.2","","86","","16","","20","","16.1","","99.36","","29","","","","Mainly Clear"
"2011-06-23 15:00","2011","06","23","15:00","21.1","","18.7","","86","","16","","13","","16.1","","99.30","","28","","","","Mainly Clear"
"2011-06-23 16:00","2011","06","23","16:00","21.5","","18.9","","85","","16","","7","","19.3","","99.24","","28","","","","Mostly Cloudy"
"2011-06-23 17:00","2011","06","23","17:00","22.2","","18.2","","78","","14","","7","","16.1","","99.20","","28","","","","Mostly Cloudy"
"2011-06-23 18:00","2011","06","23","18:00","23.4","","18.4","","74","","2","","6","","16.1","","99.13","","30","","","","Mostly Cloudy"
"2011-06-23 19:00","2011","06","23","19:00","19.3","","17.2","","88","","25","","39","","2.4","","99.23","","","","","","Thunderstorms,Heavy Rain Showers,Fog"
"2011-06-23 20:00","2011","06","23","20:00","18.6","","17.6","","94","","","","0","","6.4","","99.24","","","","","","Thunderstorms,Rain Showers,Fog"
"2011-06-23 21:00","2011","06","23","21:00","18.8","","17.9","","95","","10","","7","","16.1","","99.23","","","","","","Cloudy"
"2011-06-23 22:00","2011","06","23","22:00","18.5","","17.7","","95","","11","","9","","16.1","","99.22","","","","","","Cloudy"
"2011-06-23 23:00","2011","06","23","23:00"
"2011-06-24 00:00","2011","06","24","00:00"
"2011-06-24 01:00","2011","06","24","01:00"
"2011-06-24 02:00","2011","06","24","02:00"
"2011-06-24 03:00","2011","06","24","03:00"
"2011-06-24 04:00","2011","06","24","04:00"
"2011-06-24 05:00","2011","06","24","05:00","18.9","","17.9","","94","","17","","19","","19.3","","99.15","","","","","","Cloudy"
"2011-06-24 06:00","2011","06","24","06:00","18.9","","17.8","","93","","18","","19","","19.3","","99.17","","","","","","Cloudy"
"2011-06-24 07:00","2011","06","24","07:00","19.0","","17.8","","93","","18","","15","","19.3","","99.18","","","","","","Cloudy"
"2011-06-24 08:00","2011","06","24","08:00","19.3","","18.0","","92","","17","","19","","19.3","","99.20","","","","","","Mostly Cloudy"
"2011-06-24 09:00","2011","06","24","09:00","19.6","","18.0","","90","","18","","19","","19.3","","99.19","","","","","","Mostly Cloudy"
"2011-06-24 10:00","2011","06","24","10:00","20.1","","18.2","","89","","19","","24","","16.1","","99.20","","26","","","","Mostly Cloudy"
"2011-06-24 11:00","2011","06","24","11:00","20.4","","18.5","","89","","18","","22","","16.1","","99.18","","27","","","","Mostly Cloudy"
"2011-06-24 12:00","2011","06","24","12:00","20.6","","18.2","","86","","19","","19","","19.3","","99.15","","27","","","","Mostly Cloudy"
"2011-06-24 13:00","2011","06","24","13:00","20.6","","18.3","","87","","18","","20","","19.3","","99.10","","27","","","","Mostly Cloudy"
"2011-06-24 14:00","2011","06","24","14:00","20.4","","18.2","","87","","19","","13","","19.3","","99.07","","27","","","","Mostly Cloudy"
"2011-06-24 15:00","2011","06","24","15:00","19.8","","17.9","","89","","18","","17","","19.3","","99.07","","","","","","Mostly Cloudy"
"2011-06-24 16:00","2011","06","24","16:00","19.9","","18.0","","89","","18","","22","","24.1","","99.11","","","","","","Mostly Cloudy"
"2011-06-24 17:00","2011","06","24","17:00","19.6","","17.7","","89","","18","","19","","24.1","","99.13","","","","","","Mostly Cloudy"
"2011-06-24 18:00","2011","06","24","18:00","20.0","","17.9","","88","","18","","20","","24.1","","99.13","","26","","","","Mostly Cloudy"
"2011-06-24 19:00","2011","06","24","19:00","19.6","","17.6","","88","","18","","17","","24.1","","99.19","","","","","","Mostly Cloudy"
"2011-06-24 20:00","2011","06","24","20:00","19.0","","17.4","","90","","20","","13","","24.1","","99.22","","","","","","Rain"
"2011-06-24 21:00","2011","06","24","21:00","18.6","","17.4","","93","","18","","7","","24.1","","99.27","","","","","","Mostly Cloudy"
"2011-06-24 22:00","2011","06","24","22:00","18.8","","17.2","","90","","20","","13","","24.1","","99.29","","","","","","Rain Showers"
"2011-06-24 23:00","2011","06","24","23:00"
"2011-06-25 00:00","2011","06","25","00:00"
"2011-06-25 01:00","2011","06","25","01:00"
"2011-06-25 02:00","2011","06","25","02:00"
"2011-06-25 03:00","2011","06","25","03:00"
"2011-06-25 04:00","2011","06","25","04:00"
"2011-06-25 05:00","2011","06","25","05:00","18.2","","16.9","","92","","21","","13","","24.1","","99.43","","","","","","Cloudy"
"2011-06-25 06:00","2011","06","25","06:00","18.3","","16.6","","90","","21","","15","","24.1","","99.49","","","","","","Mostly Cloudy"
"2011-06-25 07:00","2011","06","25","07:00","18.7","","16.2","","85","","23","","17","","24.1","","99.54","","","","","","Cloudy"
"2011-06-25 08:00","2011","06","25","08:00","18.9","","16.2","","84","","22","","15","","24.1","","99.58","","","","","","Cloudy"
"2011-06-25 09:00","2011","06","25","09:00","18.6","","16.8","","89","","21","","17","","24.1","","99.60","","","","","","Rain Showers"
"2011-06-25 10:00","2011","06","25","10:00","19.5","","15.3","","77","","24","","24","","24.1","","99.64","","","","","","Mostly Cloudy"
"2011-06-25 11:00","2011","06","25","11:00","19.6","","15.4","","77","","23","","19","","24.1","","99.66","","","","","","Cloudy"
"2011-06-25 12:00","2011","06","25","12:00","18.8","","16.3","","85","","20","","19","","24.1","","99.65","","","","","","Mostly Cloudy"
"2011-06-25 13:00","2011","06","25","13:00","19.8","","16.5","","81","","22","","20","","19.3","","99.66","","","","","","Mostly Cloudy"
"2011-06-25 14:00","2011","06","25","14:00","20.7","","15.7","","73","","22","","22","","24.1","","99.67","","25","","","","Mostly Cloudy"
"2011-06-25 15:00","2011","06","25","15:00","20.2","","15.8","","76","","23","","15","","24.1","","99.69","","25","","","","Mostly Cloudy"
"2011-06-25 16:00","2011","06","25","16:00","20.3","","15.6","","74","","23","","17","","24.1","","99.74","","25","","","","Mostly Cloudy"
"2011-06-25 17:00","2011","06","25","17:00","19.8","","15.6","","77","","23","","22","","24.1","","99.80","","","","","","Cloudy"
"2011-06-25 18:00","2011","06","25","18:00","19.3","","15.7","","80","","24","","17","","24.1","","99.86","","","","","","Cloudy"
"2011-06-25 19:00","2011","06","25","19:00","19.0","","16.0","","83","","23","","11","","24.1","","99.90","","","","","","Cloudy"
"2011-06-25 20:00","2011","06","25","20:00","18.9","","15.8","","82","","23","","13","","24.1","","99.92","","","","","","Cloudy"
"2011-06-25 21:00","2011","06","25","21:00","18.6","","15.9","","84","","24","","19","","24.1","","99.97","","","","","","Cloudy"
"2011-06-25 22:00","2011","06","25","22:00","18.6","","16.3","","86","","23","","15","","24.1","","99.99","","","","","","Cloudy"
"2011-06-25 23:00","2011","06","25","23:00"
"2011-06-26 00:00","2011","06","26","00:00"
"2011-06-26 01:00","2011","06","26","01:00"
"2011-06-26 02:00","2011","06","26","02:00"
"2011-06-26 03:00","2011","06","26","03:00"
"2011-06-26 04:00","2011","06","26","04:00"
"2011-06-26 05:00","2011","06","26","05:00","17.8","","15.7","","88","","25","","7","","24.1","","100.06","","","","","","Mostly Cloudy"
"2011-06-26 06:00","2011","06","26","06:00","17.9","","15.7","","87","","25","","11","","24.1","","100.16","","","","","","Cloudy"
"2011-06-26 07:00","2011","06","26","07:00","18.2","","15.8","","86","","27","","11","","24.1","","100.21","","","","","","Cloudy"
"2011-06-26 08:00","2011","06","26","08:00","19.5","","16.0","","80","","29","","9","","24.1","","100.25","","","","","","Mostly Cloudy"
"2011-06-26 09:00","2011","06","26","09:00","20.2","","15.8","","76","","34","","13","","24.1","","100.25","","25","","","","Cloudy"
"2011-06-26 10:00","2011","06","26","10:00","20.1","","16.6","","80","","29","","7","","24.1","","100.29","","25","","","","Cloudy"
"2011-06-26 11:00","2011","06","26","11:00","19.4","","17.5","","89","","33","","13","","9.7","","100.34","","","","","","Fog"
"2011-06-26 12:00","2011","06","26","12:00","19.3","","17.8","","91","","17","","15","","24.1","","100.32","","","","","","Mostly Cloudy"
"2011-06-26 13:00","2011","06","26","13:00","18.7","","17.1","","90","","18","","15","","16.1","","100.32","","","","","","Rain Showers"
"2011-06-26 14:00","2011","06","26","14:00","19.3","","17.5","","89","","20","","15","","24.1","","100.30","","","","","","Rain Showers"
"2011-06-26 15:00","2011","06","26","15:00","19.2","","17.5","","90","","18","","15","","24.1","","100.33","","","","","","Mostly Cloudy"
"2011-06-26 16:00","2011","06","26","16:00","19.5","","17.8","","90","","19","","15","","24.1","","100.34","","","","","","Mostly Cloudy"
"2011-06-26 17:00","2011","06","26","17:00","20.4","","17.8","","85","","20","","11","","24.1","","100.35","","26","","","","Mainly Clear"
"2011-06-26 18:00","2011","06","26","18:00","21.1","","17.8","","81","","22","","9","","24.1","","100.37","","27","","","","Mainly Clear"
"2011-06-26 19:00","2011","06","26","19:00","19.8","","17.0","","84","","21","","7","","24.1","","100.40","","","","","","Mainly Clear"
"2011-06-26 20:00","2011","06","26","20:00","20.0","","17.0","","83","","24","","7","","24.1","","100.44","","25","","","","Mainly Clear"
"2011-06-26 21:00","2011","06","26","21:00","19.2","","16.3","","83","","25","","9","","24.1","","100.46","","","","","","Mainly Clear"
"2011-06-26 22:00","2011","06","26","22:00","18.4","","16.6","","89","","25","","7","","24.1","","100.52","","","","","","Clear"
"2011-06-26 23:00","2011","06","26","23:00"
"2011-06-27 00:00","2011","06","27","00:00"
"2011-06-27 01:00","2011","06","27","01:00"
"2011-06-27 02:00","2011","06","27","02:00"
"2011-06-27 03:00","2011","06","27","03:00"
"2011-06-27 04:00","2011","06","27","04:00"
"2011-06-27 05:00","2011","06","27","05:00","13.8","","13.1","","96","","36","","4","","24.1","","100.65","","","","","","Mainly Clear"
"2011-06-27 06:00","2011","06","27","06:00","16.0","","15.2","","95","","","","0","","24.1","","100.68","","","","","","Mainly Clear"
"2011-06-27 07:00","2011","06","27","07:00","18.4","","16.4","","88","","","","0","","24.1","","100.69","","","","","","Mainly Clear"
"2011-06-27 08:00","2011","06","27","08:00","18.6","","16.5","","88","","15","","6","","24.1","","100.70","","","","","","Mainly Clear"
"2011-06-27 09:00","2011","06","27","09:00","19.3","","16.5","","84","","15","","11","","24.1","","100.69","","","","","","Mainly Clear"
"2011-06-27 10:00","2011","06","27","10:00","19.7","","17.3","","86","","15","","13","","24.1","","100.65","","","","","","Mainly Clear"
"2011-06-27 11:00","2011","06","27","11:00","19.6","","17.2","","86","","17","","11","","24.1","","100.65","","","","","","Mostly Cloudy"
"2011-06-27 12:00","2011","06","27","12:00","20.1","","17.5","","85","","18","","13","","24.1","","100.66","","26","","","","Mostly Cloudy"
"2011-06-27 13:00","2011","06","27","13:00","20.6","","17.1","","80","","18","","11","","24.1","","100.61","","26","","","","Mostly Cloudy"
"2011-06-27 14:00","2011","06","27","14:00","21.3","","16.5","","74","","18","","15","","24.1","","100.56","","26","","","","Mostly Cloudy"
"2011-06-27 15:00","2011","06","27","15:00","21.5","","16.9","","75","","18","","11","","24.1","","100.50","","27","","","","Mostly Cloudy"
"2011-06-27 16:00","2011","06","27","16:00","22.7","","14.9","","61","","14","","6","","24.1","","100.39","","27","","","","Mostly Cloudy"
"2011-06-27 17:00","2011","06","27","17:00","22.3","","15.3","","65","","18","","6","","24.1","","100.36","","26","","","","Mostly Cloudy"
"2011-06-27 18:00","2011","06","27","18:00","22.4","","14.7","","62","","","","0","","24.1","","100.29","","26","","","","Mostly Cloudy"
"2011-06-27 19:00","2011","06","27","19:00","22.2","","15.4","","65","","","","0","","24.1","","100.27","","26","","","","Mostly Cloudy"
"2011-06-27 20:00","2011","06","27","20:00","21.6","","13.5","","60","","","","0","","24.1","","100.28","","25","","","","Mostly Cloudy"
"2011-06-27 21:00","2011","06","27","21:00","20.9","","13.4","","62","","","","0","","24.1","","100.32","","","","","","Mostly Cloudy"
"2011-06-27 22:00","2011","06","27","22:00","20.6","","14.1","","66","","6","","4","","24.1","","100.29","","","","","","Mostly Cloudy"
"2011-06-27 23:00","2011","06","27","23:00"
"2011-06-28 00:00","2011","06","28","00:00"
"2011-06-28 01:00","2011","06","28","01:00"
"2011-06-28 02:00","2011","06","28","02:00"
"2011-06-28 03:00","2011","06","28","03:00"
"2011-06-28 04:00","2011","06","28","04:00"
"2011-06-28 05:00","2011","06","28","05:00","20.2","","17.2","","83","","15","","19","","24.1","","99.94","","26","","","","Mostly Cloudy"
"2011-06-28 06:00","2011","06","28","06:00","20.1","","17.2","","83","","15","","19","","16.1","","99.91","","26","","","","Cloudy"
"2011-06-28 07:00","2011","06","28","07:00","20.2","","17.2","","83","","16","","19","","16.1","","99.89","","26","","","","Cloudy"
"2011-06-28 08:00","2011","06","28","08:00","20.5","","17.6","","83","","16","","19","","19.3","","99.88","","26","","","","Cloudy"
"2011-06-28 09:00","2011","06","28","09:00","20.2","","17.6","","85","","16","","15","","19.3","","99.87","","26","","","","Cloudy"
"2011-06-28 10:00","2011","06","28","10:00","20.7","","18.1","","85","","16","","19","","16.1","","99.84","","27","","","","Mostly Cloudy"
"2011-06-28 11:00","2011","06","28","11:00","20.9","","18.3","","85","","17","","17","","16.1","","99.83","","27","","","","Cloudy"
"2011-06-28 12:00","2011","06","28","12:00","21.0","","18.6","","86","","17","","13","","12.9","","99.78","","27","","","","Cloudy"
"2011-06-28 13:00","2011","06","28","13:00","21.6","","18.8","","84","","17","","13","","12.9","","99.68","","28","","","","Cloudy"
"2011-06-28 14:00","2011","06","28","14:00","22.2","","19.0","","82","","16","","19","","12.9","","99.65","","29","","","","Cloudy"
"2011-06-28 15:00","2011","06","28","15:00","22.3","","19.2","","83","","16","","15","","12.9","","99.55","","29","","","","Mostly Cloudy"
"2011-06-28 16:00","2011","06","28","16:00","23.2","","20.0","","82","","16","","19","","16.1","","99.48","","31","","","","Mostly Cloudy"
"2011-06-28 17:00","2011","06","28","17:00","21.8","","18.5","","82","","18","","28","","19.3","","99.47","","28","","","","Mostly Cloudy"
"2011-06-28 18:00","2011","06","28","18:00","23.7","","18.4","","72","","24","","24","","24.1","","99.54","","30","","","","Mainly Clear"
"2011-06-28 19:00","2011","06","28","19:00","22.2","","16.9","","72","","32","","4","","24.1","","99.60","","27","","","","Mainly Clear"
"2011-06-28 20:00","2011","06","28","20:00","21.7","","16.6","","73","","","","0","","24.1","","99.67","","27","","","","Mainly Clear"
"2011-06-28 21:00","2011","06","28","21:00","19.6","","16.4","","82","","","","0","","24.1","","99.72","","","","","","Mainly Clear"
"2011-06-28 22:00","2011","06","28","22:00","19.6","","17.3","","87","","25","","6","","24.1","","99.73","","","","","","Mainly Clear"
"2011-06-28 23:00","2011","06","28","23:00"
"2011-06-29 00:00","2011","06","29","00:00"
"2011-06-29 01:00","2011","06","29","01:00"
"2011-06-29 02:00","2011","06","29","02:00"
"2011-06-29 03:00","2011","06","29","03:00"
"2011-06-29 04:00","2011","06","29","04:00"
"2011-06-29 05:00","2011","06","29","05:00","16.9","","12.6","","76","","26","","26","","24.1","","99.79","","","","","","Mostly Cloudy"
"2011-06-29 06:00","2011","06","29","06:00","16.9","","12.7","","76","","27","","24","","24.1","","99.84","","","","","","Mainly Clear"
"2011-06-29 07:00","2011","06","29","07:00","17.5","","13.2","","76","","25","","20","","24.1","","99.90","","","","","","Mostly Cloudy"
"2011-06-29 08:00","2011","06","29","08:00","18.2","","13.1","","72","","26","","24","","24.1","","99.91","","","","","","Mostly Cloudy"
"2011-06-29 09:00","2011","06","29","09:00","18.2","","13.6","","75","","27","","19","","24.1","","99.94","","","","","","Cloudy"
"2011-06-29 10:00","2011","06","29","10:00","18.5","","13.7","","74","","25","","19","","24.1","","99.99","","","","","","Cloudy"
"2011-06-29 11:00","2011","06","29","11:00","18.6","","13.2","","71","","28","","30","","24.1","","100.01","","","","","","Cloudy"
"2011-06-29 12:00","2011","06","29","12:00","18.5","","13.1","","71","","25","","22","","24.1","","100.02","","","","","","Rain Showers"
"2011-06-29 13:00","2011","06","29","13:00","18.9","","12.6","","67","","26","","22","","24.1","","100.00","","","","","","Cloudy"
"2011-06-29 14:00","2011","06","29","14:00","18.8","","13.8","","73","","25","","22","","24.1","","100.02","","","","","","Mostly Cloudy"
"2011-06-29 15:00","2011","06","29","15:00","19.9","","13.6","","67","","27","","22","","24.1","","100.04","","","","","","Mostly Cloudy"
"2011-06-29 16:00","2011","06","29","16:00","20.7","","13.4","","63","","27","","20","","24.1","","100.05","","","","","","Mostly Cloudy"
"2011-06-29 17:00","2011","06","29","17:00","20.6","","13.9","","65","","25","","15","","24.1","","100.07","","","","","","Mostly Cloudy"
"2011-06-29 18:00","2011","06","29","18:00","20.7","","15.1","","70","","28","","13","","24.1","","100.11","","25","","","","Mostly Cloudy"
"2011-06-29 19:00","2011","06","29","19:00","20.7","","13.9","","65","","28","","15","","24.1","","100.15","","","","","","Mostly Cloudy"
"2011-06-29 20:00","2011","06","29","20:00","19.8","","13.9","","69","","30","","13","","24.1","","100.20","","","","","","Mostly Cloudy"
"2011-06-29 21:00","2011","06","29","21:00","19.6","","13.6","","68","","25","","7","","24.1","","100.25","","","","","","Cloudy"
"2011-06-29 22:00","2011","06","29","22:00","18.5","","15.1","","81","","28","","9","","24.1","","100.31","","","","","","Mostly Cloudy"
"2011-06-29 23:00","2011","06","29","23:00"
"2011-06-30 00:00","2011","06","30","00:00"
"2011-06-30 01:00","2011","06","30","01:00"
"2011-06-30 02:00","2011","06","30","02:00"
"2011-06-30 03:00","2011","06","30","03:00"
"2011-06-30 04:00","2011","06","30","04:00"
"2011-06-30 05:00","2011","06","30","05:00","13.7","","11.2","","85","","26","","9","","24.1","","100.41","","","","","","Mainly Clear"
"2011-06-30 06:00","2011","06","30","06:00","14.1","","11.3","","83","","27","","11","","24.1","","100.43","","","","","","Mainly Clear"
"2011-06-30 07:00","2011","06","30","07:00","16.0","","11.4","","74","","28","","7","","24.1","","100.49","","","","","","Mostly Cloudy"
"2011-06-30 08:00","2011","06","30","08:00","18.3","","10.3","","60","","29","","9","","24.1","","100.52","","","","","","Mostly Cloudy"
"2011-06-30 09:00","2011","06","30","09:00","19.8","","9.0","","50","","28","","15","","24.1","","100.51","","","","","","Mostly Cloudy"
"2011-06-30 10:00","2011","06","30","10:00","21.1","","6.6","","39","","29","","22","","24.1","","100.47","","","","","","Mainly Clear"
"2011-06-30 11:00","2011","06","30","11:00","22.2","","7.5","","39","","29","","19","","24.1","","100.41","","","","","","Mainly Clear"
"2011-06-30 12:00","2011","06","30","12:00","22.8","","6.9","","36","","32","","11","","24.1","","100.38","","","","","","Mainly Clear"
"2011-06-30 13:00","2011","06","30","13:00","24.2","","5.4","","30","","31","","9","","24.1","","100.35","","","","","","Mainly Clear"
"2011-06-30 14:00","2011","06","30","14:00","24.6","","5.6","","29","","26","","9","","24.1","","100.33","","","","","","Mainly Clear"
"2011-06-30 15:00","2011","06","30","15:00","25.5","","4.9","","27","","31","","15","","24.1","","100.28","","25","","","","Mainly Clear"
"2011-06-30 16:00","2011","06","30","16:00","25.7","","5.1","","27","","28","","15","","24.1","","100.26","","25","","","","Mainly Clear"
"2011-06-30 17:00","2011","06","30","17:00","25.5","","4.8","","26","","32","","15","","24.1","","100.25","","25","","","","Mainly Clear"
"2011-06-30 18:00","2011","06","30","18:00","22.4","","13.9","","59","","22","","11","","24.1","","100.27","","26","","","","Mainly Clear"
"2011-06-30 19:00","2011","06","30","19:00","21.4","","12.5","","57","","22","","15","","24.1","","100.31","","","","","","Mainly Clear"
"2011-06-30 20:00","2011","06","30","20:00","20.5","","12.7","","61","","25","","11","","24.1","","100.35","","","","","","Mainly Clear"
"2011-06-30 21:00","2011","06","30","21:00","20.4","","14.8","","70","","31","","4","","24.1","","100.40","","","","","","Mostly Cloudy"
"2011-06-30 22:00","2011","06","30","22:00","20.3","","12.0","","59","","31","","4","","24.1","","100.40","","","","","","Mostly Cloudy"
"2011-06-30 23:00","2011","06","30","23:00"
