"Station Name","KINGSTON A"
"Province","ONTARIO"
"Latitude","44.23"
"Longitude","-76.60"
"Elevation","92.40"
"Climate Identifier","6104149"
"WMO Identifier",""
"TC Identifier","YGK"
"All times are specified in Local Standard Time (LST). Add 1 hour to adjust for Daylight Saving Time where and when it is observed."

"Legend"
"E","Estimated"
"M","Missing"
"NA","Not Available"

"Date/Time","Year","Month","Day","Time","Temp (°C)","Temp Flag","Dew Point Temp (°C)","Dew Point Temp Flag","Rel Hum (%)","Rel Hum Flag","Wind Dir (10s deg)","Wind Dir Flag","Wind Spd (km/h)","Wind Spd Flag","Visibility (km)","Visibility Flag","Stn Press (kPa)","Stn Press Flag","Hmdx","Hmdx Flag","Wind Chill","Wind Chill Flag","Weather"
"2013-03-01 00:00","2013","03","01","00:00"
"2013-03-01 01:00","2013","03","01","01:00"
"2013-03-01 02:00","2013","03","01","02:00"
"2013-03-01 03:00","2013","03","01","03:00"
"2013-03-01 04:00","2013","03","01","04:00"
"2013-03-01 05:00","2013","03","01","05:00"
"2013-03-01 06:00","2013","03","01","06:00","-0.6","","-3.0","","84","","35","","26","","24.1","","99.68","","","","-7","","Snow"
"2013-03-01 07:00","2013","03","01","07:00","-0.7","","-3.4","","82","","35","","24","","24.1","","99.74","","","","-7","","Snow"
"2013-03-01 08:00","2013","03","01","08:00","-0.9","","-3.6","","82","","34","","23","","24.1","","99.81","","","","-7","","Snow"
"2013-03-01 09:00","2013","03","01","09:00","-0.9","","-3.9","","80","","33","","18","","24.1","","99.84","","","","-6","","Snow"
"2013-03-01 10:00","2013","03","01","10:00","-1.0","","-4.4","","78","","33","","18","","24.1","","99.87","","","","-6","","Snow"
"2013-03-01 11:00","2013","03","01","11:00","-1.2","","-5.3","","74","","35","","33","","24.1","","99.90","","","","-8","","NA"
"2013-03-01 12:00","2013","03","01","12:00","-0.8","","-5.6","","70","","32","","21","","24.1","","99.94","","","","-6","","NA"
"2013-03-01 13:00","2013","03","01","13:00","0.4","","-5.6","","64","","33","","24","","24.1","","99.93","","","","","","Mostly Cloudy"
"2013-03-01 14:00","2013","03","01","14:00","0.3","","-5.5","","65","","33","","20","","24.1","","99.94","","","","","","NA"
"2013-03-01 15:00","2013","03","01","15:00","-0.3","","-5.7","","67","","35","","23","","24.1","","99.95","","","","-6","","NA"
"2013-03-01 16:00","2013","03","01","16:00","-0.7","","-5.9","","68","","33","","20","","24.1","","99.99","","","","-6","","Cloudy"
"2013-03-01 17:00","2013","03","01","17:00","-1.0","","-5.8","","70","","34","","19","","24.1","","100.02","","","","-6","","Snow"
"2013-03-01 18:00","2013","03","01","18:00","-1.6","","-6.2","","71","","34","","21","","24.1","","100.09","","","","-7","","Snow"
"2013-03-01 19:00","2013","03","01","19:00","-2.0","","-6.2","","73","","35","","22","","24.1","","100.14","","","","-8","","Snow"
"2013-03-01 20:00","2013","03","01","20:00","-2.7","","-6.9","","73","","34","","27","","19.3","","100.16","","","","-10","","Snow"
"2013-03-01 21:00","2013","03","01","21:00","-3.4","","-7.4","","74","","35","","21","","24.1","","100.18","","","","-10","","Snow"
"2013-03-01 22:00","2013","03","01","22:00","-3.8","","-7.6","","75","","34","","17","","19.3","","100.19","","","","-10","","Snow"
"2013-03-01 23:00","2013","03","01","23:00","-4.5","","-8.3","","75","","34","","24","","24.1","","100.19","","","","-12","","Snow"
"2013-03-02 00:00","2013","03","02","00:00"
"2013-03-02 01:00","2013","03","02","01:00"
"2013-03-02 02:00","2013","03","02","02:00"
"2013-03-02 03:00","2013","03","02","03:00"
"2013-03-02 04:00","2013","03","02","04:00"
"2013-03-02 05:00","2013","03","02","05:00"
"2013-03-02 06:00","2013","03","02","06:00","-7.5","","-10.1","","82","","35","","19","","3.2","","100.20","","","","-15","","Snow"
"2013-03-02 07:00","2013","03","02","07:00","-7.6","","-9.7","","85","","34","","12","","4.0","","100.23","","","","-13","","Snow"
"2013-03-02 08:00","2013","03","02","08:00","-7.2","","-10.1","","80","","35","","13","","12.9","","100.24","","","","-13","","Snow"
"2013-03-02 09:00","2013","03","02","09:00","-6.8","","-10.5","","75","","33","","13","","24.1","","100.23","","","","-12","","Snow"
"2013-03-02 10:00","2013","03","02","10:00","-6.5","","-10.8","","72","","36","","15","","24.1","","100.22","","","","-12","","Cloudy"
"2013-03-02 11:00","2013","03","02","11:00","-6.1","","-10.5","","71","","35","","13","","24.1","","100.21","","","","-11","","NA"
"2013-03-02 12:00","2013","03","02","12:00","-5.6","","-10.4","","69","","31","","15","","24.1","","100.16","","","","-11","","Snow"
"2013-03-02 13:00","2013","03","02","13:00","-5.2","","-10.4","","67","","1","","12","","24.1","","100.12","","","","-10","","Snow"
"2013-03-02 14:00","2013","03","02","14:00","-4.9","","-9.8","","69","","35","","11","","24.1","","100.09","","","","-9","","NA"
"2013-03-02 15:00","2013","03","02","15:00","-4.6","","-10.0","","66","","34","","8","","24.1","","100.06","","","","-8","","NA"
"2013-03-02 16:00","2013","03","02","16:00","-4.2","","-9.6","","66","","36","","13","","24.1","","100.06","","","","-9","","Cloudy"
"2013-03-02 17:00","2013","03","02","17:00","-4.3","","-9.7","","66","","1","","8","","24.1","","100.05","","","","-8","","NA"
"2013-03-02 18:00","2013","03","02","18:00","-4.5","","-9.6","","68","","2","","9","","24.1","","100.11","","","","-8","","NA"
"2013-03-02 19:00","2013","03","02","19:00","-5.1","","-9.8","","70","","36","","13","","24.1","","100.14","","","","-10","","Cloudy"
"2013-03-02 20:00","2013","03","02","20:00","-5.5","","-10.0","","71","","35","","15","","24.1","","100.13","","","","-11","","NA"
"2013-03-02 21:00","2013","03","02","21:00","-5.6","","-10.4","","69","","35","","15","","24.1","","100.14","","","","-11","","NA"
"2013-03-02 22:00","2013","03","02","22:00","-6.1","","-10.2","","73","","34","","24","","24.1","","100.11","","","","-14","","Cloudy"
"2013-03-02 23:00","2013","03","02","23:00","-6.3","","-10.7","","71","","35","","18","","24.1","","100.09","","","","-13","","NA"
"2013-03-03 00:00","2013","03","03","00:00"
"2013-03-03 01:00","2013","03","03","01:00"
"2013-03-03 02:00","2013","03","03","02:00"
"2013-03-03 03:00","2013","03","03","03:00"
"2013-03-03 04:00","2013","03","03","04:00"
"2013-03-03 05:00","2013","03","03","05:00"
"2013-03-03 06:00","2013","03","03","06:00","-9.0","","-12.5","","76","","31","","11","","24.1","","100.02","","","","-14","","NA"
"2013-03-03 07:00","2013","03","03","07:00","-9.3","","-12.8","","76","","32","","14","","24.1","","100.03","","","","-16","","Cloudy"
"2013-03-03 08:00","2013","03","03","08:00","-8.8","","-12.5","","75","","33","","13","","24.1","","100.04","","","","-15","","NA"
"2013-03-03 09:00","2013","03","03","09:00","-8.0","","-12.0","","73","","34","","13","","19.3","","100.03","","","","-14","","NA"
"2013-03-03 10:00","2013","03","03","10:00","-7.1","","-11.7","","70","","35","","8","","24.1","","100.02","","","","-11","","Cloudy"
"2013-03-03 11:00","2013","03","03","11:00","-6.0","","-11.2","","67","","28","","9","","24.1","","99.99","","","","-10","","NA"
"2013-03-03 12:00","2013","03","03","12:00","-5.4","","-10.6","","67","","28","","5","","24.1","","99.96","","","","-8","","Snow Showers"
"2013-03-03 13:00","2013","03","03","13:00","-4.6","","-9.6","","68","","25","","10","","24.1","","99.90","","","","-9","","Snow"
"2013-03-03 14:00","2013","03","03","14:00","-4.7","","-9.6","","69","","22","","13","","24.1","","99.87","","","","-10","","Snow"
"2013-03-03 15:00","2013","03","03","15:00","-4.4","","-8.7","","72","","22","","15","","24.1","","99.87","","","","-10","","Snow"
"2013-03-03 16:00","2013","03","03","16:00","-3.7","","-9.4","","65","","28","","13","","24.1","","99.87","","","","-9","","Mostly Cloudy"
"2013-03-03 17:00","2013","03","03","17:00","-3.7","","-9.6","","64","","29","","12","","24.1","","99.90","","","","-8","","NA"
"2013-03-03 18:00","2013","03","03","18:00","-4.1","","-8.1","","74","","24","","13","","24.1","","99.93","","","","-9","","NA"
"2013-03-03 19:00","2013","03","03","19:00","-4.1","","-8.1","","74","","25","","9","","19.3","","99.96","","","","-8","","Snow"
"2013-03-03 20:00","2013","03","03","20:00","-4.0","","-8.2","","73","","27","","9","","24.1","","99.95","","","","-8","","Snow"
"2013-03-03 21:00","2013","03","03","21:00","-4.1","","-8.2","","73","","26","","13","","24.1","","99.96","","","","-9","","Snow"
"2013-03-03 22:00","2013","03","03","22:00","-4.5","","-8.3","","75","","26","","12","","24.1","","99.94","","","","-9","","Snow"
"2013-03-03 23:00","2013","03","03","23:00","-4.5","","-7.9","","77","","26","","7","","24.1","","99.93","","","","-8","","Snow"
"2013-03-04 00:00","2013","03","04","00:00"
"2013-03-04 01:00","2013","03","04","01:00"
"2013-03-04 02:00","2013","03","04","02:00"
"2013-03-04 03:00","2013","03","04","03:00"
"2013-03-04 04:00","2013","03","04","04:00"
"2013-03-04 05:00","2013","03","04","05:00"
"2013-03-04 06:00","2013","03","04","06:00","-6.9","","-11.5","","70","","30","","10","","24.1","","100.15","","","","-12","","NA"
"2013-03-04 07:00","2013","03","04","07:00","-6.8","","-11.2","","71","","29","","10","","24.1","","100.15","","","","-11","","Cloudy"
"2013-03-04 08:00","2013","03","04","08:00","-6.5","","-11.5","","68","","29","","14","","24.1","","100.18","","","","-12","","NA"
"2013-03-04 09:00","2013","03","04","09:00","-6.1","","-11.7","","65","","32","","17","","24.1","","100.16","","","","-12","","NA"
"2013-03-04 10:00","2013","03","04","10:00","-5.1","","-11.5","","61","","31","","12","","24.1","","100.15","","","","-10","","Mainly Clear"
"2013-03-04 11:00","2013","03","04","11:00","-3.7","","-11.0","","57","","30","","9","","24.1","","100.16","","","","-7","","NA"
"2013-03-04 12:00","2013","03","04","12:00","-3.0","","-10.4","","57","","25","","15","","24.1","","100.13","","","","-8","","NA"
"2013-03-04 13:00","2013","03","04","13:00","-2.4","","-9.4","","59","","23","","26","","24.1","","100.08","","","","-9","","Mainly Clear"
"2013-03-04 14:00","2013","03","04","14:00","-1.4","","-8.6","","58","","24","","23","","24.1","","100.04","","","","-7","","NA"
"2013-03-04 15:00","2013","03","04","15:00","-0.5","","-8.5","","55","","25","","24","","24.1","","100.06","","","","-6","","NA"
"2013-03-04 16:00","2013","03","04","16:00","-0.5","","-7.8","","58","","25","","22","","24.1","","100.06","","","","-6","","Cloudy"
"2013-03-04 17:00","2013","03","04","17:00","-0.8","","-7.6","","60","","25","","17","","24.1","","100.11","","","","-6","","NA"
"2013-03-04 18:00","2013","03","04","18:00","-1.1","","-7.9","","60","","26","","15","","24.1","","100.17","","","","-6","","NA"
"2013-03-04 19:00","2013","03","04","19:00","-0.4","","-7.0","","61","","29","","15","","24.1","","100.24","","","","-5","","Mostly Cloudy"
"2013-03-04 20:00","2013","03","04","20:00","-0.7","","-6.7","","64","","33","","15","","24.1","","100.33","","","","-5","","NA"
"2013-03-04 21:00","2013","03","04","21:00","-1.6","","-7.4","","65","","36","","20","","24.1","","100.41","","","","-7","","Snow"
"2013-03-04 22:00","2013","03","04","22:00","-2.6","","-8.5","","64","","35","","22","","19.3","","100.46","","","","-9","","Snow"
"2013-03-04 23:00","2013","03","04","23:00","-3.4","","-8.5","","68","","35","","19","","19.3","","100.47","","","","-9","","Snow"
"2013-03-05 00:00","2013","03","05","00:00"
"2013-03-05 01:00","2013","03","05","01:00"
"2013-03-05 02:00","2013","03","05","02:00"
"2013-03-05 03:00","2013","03","05","03:00"
"2013-03-05 04:00","2013","03","05","04:00"
"2013-03-05 05:00","2013","03","05","05:00"
"2013-03-05 06:00","2013","03","05","06:00","-6.2","","-9.9","","75","","28","","5","","24.1","","100.76","","","","-9","","NA"
"2013-03-05 07:00","2013","03","05","07:00","-6.7","","-9.9","","78","","30","","5","","24.1","","100.81","","","","-9","","Mostly Cloudy"
"2013-03-05 08:00","2013","03","05","08:00","-6.4","","-9.6","","78","","34","","6","","24.1","","100.84","","","","-9","","NA"
"2013-03-05 09:00","2013","03","05","09:00","-5.5","","-9.6","","73","","35","","7","","24.1","","100.86","","","","-9","","NA"
"2013-03-05 10:00","2013","03","05","10:00","-4.3","","-9.0","","70","","","","0","","24.1","","100.86","","","","","","Mostly Cloudy"
"2013-03-05 11:00","2013","03","05","11:00","-3.5","","-8.0","","71","","17","","8","","24.1","","100.84","","","","-7","","NA"
"2013-03-05 12:00","2013","03","05","12:00","-3.2","","-7.9","","70","","16","","10","","24.1","","100.84","","","","-7","","NA"
"2013-03-05 13:00","2013","03","05","13:00","-2.5","","-7.6","","68","","16","","11","","24.1","","100.83","","","","-7","","Mainly Clear"
"2013-03-05 14:00","2013","03","05","14:00","-2.3","","-7.2","","69","","18","","10","","24.1","","100.86","","","","-6","","NA"
"2013-03-05 15:00","2013","03","05","15:00","-2.0","","-6.8","","70","","19","","10","","24.1","","100.85","","","","-6","","NA"
"2013-03-05 16:00","2013","03","05","16:00","-1.8","","-6.4","","71","","18","","8","","24.1","","100.82","","","","-5","","Mainly Clear"
"2013-03-05 17:00","2013","03","05","17:00","-1.5","","-6.1","","71","","20","","4","","24.1","","100.81","","","","-3","","NA"
"2013-03-05 18:00","2013","03","05","18:00","-2.3","","-5.5","","79","","","","0","","24.1","","100.80","","","","","","NA"
"2013-03-05 19:00","2013","03","05","19:00","-3.1","","-6.2","","79","","35","","6","","24.1","","100.72","","","","-6","","Clear"
"2013-03-05 20:00","2013","03","05","20:00","-2.0","","-6.0","","74","","2","","10","","24.1","","100.71","","","","-6","","NA"
"2013-03-05 21:00","2013","03","05","21:00","-1.3","","-5.2","","75","","4","","19","","24.1","","100.70","","","","-7","","NA"
"2013-03-05 22:00","2013","03","05","22:00","-1.3","","-4.8","","77","","4","","19","","24.1","","100.68","","","","-7","","Clear"
"2013-03-05 23:00","2013","03","05","23:00","-1.4","","-4.8","","78","","5","","26","","24.1","","100.66","","","","-8","","NA"
"2013-03-06 00:00","2013","03","06","00:00"
"2013-03-06 01:00","2013","03","06","01:00"
"2013-03-06 02:00","2013","03","06","02:00"
"2013-03-06 03:00","2013","03","06","03:00"
"2013-03-06 04:00","2013","03","06","04:00"
"2013-03-06 05:00","2013","03","06","05:00"
"2013-03-06 06:00","2013","03","06","06:00","-1.7","","-3.1","","90","","5","","28","","24.1","","100.75","","","","-8","","NA"
"2013-03-06 07:00","2013","03","06","07:00","-1.3","","-2.6","","91","","4","","21","","9.7","","100.84","","","","-7","","Fog"
"2013-03-06 08:00","2013","03","06","08:00","-0.6","","-2.0","","90","","4","","21","","9.7","","100.91","","","","-6","","Snow,Fog"
"2013-03-06 09:00","2013","03","06","09:00","0.4","","-1.5","","87","","4","","21","","16.1","","100.92","","","","","","NA"
"2013-03-06 10:00","2013","03","06","10:00","1.6","","-1.3","","81","","5","","24","","24.1","","100.92","","","","","","Cloudy"
"2013-03-06 11:00","2013","03","06","11:00","2.1","","-1.0","","80","","4","","21","","24.1","","100.97","","","","","","NA"
"2013-03-06 12:00","2013","03","06","12:00","3.3","","-1.1","","73","","5","","21","","24.1","","100.95","","","","","","NA"
"2013-03-06 13:00","2013","03","06","13:00","4.1","","-1.1","","69","","3","","18","","24.1","","100.94","","","","","","Cloudy"
"2013-03-06 14:00","2013","03","06","14:00","4.7","","-1.3","","65","","3","","18","","24.1","","100.92","","","","","","NA"
"2013-03-06 15:00","2013","03","06","15:00","4.5","","-1.3","","66","","5","","19","","24.1","","100.92","","","","","","NA"
"2013-03-06 16:00","2013","03","06","16:00","4.8","","-1.6","","63","","3","","18","","24.1","","100.92","","","","","","Cloudy"
"2013-03-06 17:00","2013","03","06","17:00","4.4","","-1.6","","65","","4","","20","","24.1","","100.95","","","","","","NA"
"2013-03-06 18:00","2013","03","06","18:00","3.4","","-1.8","","69","","4","","21","","24.1","","101.01","","","","","","NA"
"2013-03-06 19:00","2013","03","06","19:00","3.1","","-2.0","","69","","4","","18","","24.1","","101.05","","","","","","Cloudy"
"2013-03-06 20:00","2013","03","06","20:00","2.5","","-2.4","","70","","5","","22","","24.1","","101.07","","","","","","NA"
"2013-03-06 21:00","2013","03","06","21:00","2.1","","-2.4","","72","","5","","21","","24.1","","101.07","","","","","","NA"
"2013-03-06 22:00","2013","03","06","22:00","1.4","","-2.7","","74","","5","","23","","24.1","","101.04","","","","","","Mainly Clear"
"2013-03-06 23:00","2013","03","06","23:00","0.7","","-3.1","","76","","3","","12","","24.1","","101.05","","","","","","NA"
"2013-03-07 00:00","2013","03","07","00:00"
"2013-03-07 01:00","2013","03","07","01:00"
"2013-03-07 02:00","2013","03","07","02:00"
"2013-03-07 03:00","2013","03","07","03:00"
"2013-03-07 04:00","2013","03","07","04:00"
"2013-03-07 05:00","2013","03","07","05:00"
"2013-03-07 06:00","2013","03","07","06:00","0.0","","-2.9","","81","","3","","17","","24.1","","101.09","","","","-5","","Snow"
"2013-03-07 07:00","2013","03","07","07:00","-0.1","","-2.8","","82","","3","","14","","24.1","","101.11","","","","-4","","Cloudy"
"2013-03-07 08:00","2013","03","07","08:00","0.1","","-2.9","","80","","3","","18","","24.1","","101.17","","","","","","NA"
"2013-03-07 09:00","2013","03","07","09:00","0.3","","-3.3","","77","","3","","20","","24.1","","101.19","","","","","","NA"
"2013-03-07 10:00","2013","03","07","10:00","0.6","","-3.7","","73","","4","","23","","24.1","","101.23","","","","","","Cloudy"
"2013-03-07 11:00","2013","03","07","11:00","0.9","","-4.6","","67","","4","","26","","24.1","","101.24","","","","","","NA"
"2013-03-07 12:00","2013","03","07","12:00","1.4","","-4.9","","63","","5","","18","","24.1","","101.28","","","","","","NA"
"2013-03-07 13:00","2013","03","07","13:00","2.1","","-5.6","","57","","1","","16","","24.1","","101.23","","","","","","Cloudy"
"2013-03-07 14:00","2013","03","07","14:00","2.7","","-6.7","","50","","3","","20","","24.1","","101.22","","","","","","NA"
"2013-03-07 15:00","2013","03","07","15:00","1.2","","-5.1","","63","","3","","26","","24.1","","101.27","","","","","","NA"
"2013-03-07 16:00","2013","03","07","16:00","0.9","","-4.6","","67","","1","","18","","24.1","","101.31","","","","","","Cloudy"
"2013-03-07 17:00","2013","03","07","17:00","0.9","","-5.6","","62","","3","","19","","24.1","","101.33","","","","","","NA"
"2013-03-07 18:00","2013","03","07","18:00","0.0","","-4.8","","70","","36","","15","","24.1","","101.40","","","","-4","","NA"
"2013-03-07 19:00","2013","03","07","19:00","-0.1","","-6.7","","61","","1","","15","","24.1","","101.42","","","","-5","","Cloudy"
"2013-03-07 20:00","2013","03","07","20:00","-0.5","","-6.1","","66","","1","","10","","24.1","","101.45","","","","-4","","NA"
"2013-03-07 21:00","2013","03","07","21:00","-0.7","","-7.1","","62","","1","","17","","24.1","","101.44","","","","-6","","NA"
"2013-03-07 22:00","2013","03","07","22:00","-0.9","","-6.9","","64","","2","","12","","24.1","","101.45","","","","-5","","Cloudy"
"2013-03-07 23:00","2013","03","07","23:00","-1.0","","-6.4","","67","","1","","14","","24.1","","101.43","","","","-5","","Snow"
"2013-03-08 00:00","2013","03","08","00:00"
"2013-03-08 01:00","2013","03","08","01:00"
"2013-03-08 02:00","2013","03","08","02:00"
"2013-03-08 03:00","2013","03","08","03:00"
"2013-03-08 04:00","2013","03","08","04:00"
"2013-03-08 05:00","2013","03","08","05:00"
"2013-03-08 06:00","2013","03","08","06:00","-2.3","","-5.8","","77","","34","","14","","24.1","","101.51","","","","-7","","NA"
"2013-03-08 07:00","2013","03","08","07:00","-2.6","","-6.1","","77","","33","","14","","24.1","","101.59","","","","-7","","Mostly Cloudy"
"2013-03-08 08:00","2013","03","08","08:00","-1.7","","-5.9","","73","","34","","16","","24.1","","101.64","","","","-7","","NA"
"2013-03-08 09:00","2013","03","08","09:00","0.1","","-6.3","","62","","2","","22","","24.1","","101.65","","","","","","NA"
"2013-03-08 10:00","2013","03","08","10:00","0.9","","-6.7","","57","","2","","20","","24.1","","101.67","","","","","","Mostly Cloudy"
"2013-03-08 11:00","2013","03","08","11:00","1.8","","-5.8","","57","","36","","21","","24.1","","101.68","","","","","","NA"
"2013-03-08 12:00","2013","03","08","12:00","2.6","","-6.0","","53","","34","","15","","24.1","","101.69","","","","","","NA"
"2013-03-08 13:00","2013","03","08","13:00","3.1","","-5.8","","52","","36","","19","","24.1","","101.65","","","","","","Mostly Cloudy"
"2013-03-08 14:00","2013","03","08","14:00","3.7","","-5.5","","51","","35","","21","","24.1","","101.60","","","","","","NA"
"2013-03-08 15:00","2013","03","08","15:00","4.1","","-5.4","","50","","35","","19","","24.1","","101.60","","","","","","NA"
"2013-03-08 16:00","2013","03","08","16:00","4.4","","-6.0","","47","","35","","19","","24.1","","101.62","","","","","","Mainly Clear"
"2013-03-08 17:00","2013","03","08","17:00","4.2","","-5.1","","51","","34","","13","","24.1","","101.63","","","","","","NA"
"2013-03-08 18:00","2013","03","08","18:00","3.9","","-6.1","","48","","1","","9","","24.1","","101.69","","","","","","NA"
"2013-03-08 19:00","2013","03","08","19:00","0.1","","-4.7","","70","","18","","10","","24.1","","101.75","","","","","","Clear"
"2013-03-08 20:00","2013","03","08","20:00","-0.1","","-3.0","","81","","","","0","","24.1","","101.77","","","","","","NA"
"2013-03-08 21:00","2013","03","08","21:00","-1.1","","-3.8","","82","","","","0","","24.1","","101.77","","","","","","NA"
"2013-03-08 22:00","2013","03","08","22:00","-2.0","","-5.5","","77","","33","","5","","24.1","","101.78","","","","-4","","Clear"
"2013-03-08 23:00","2013","03","08","23:00","-3.0","","-5.8","","81","","30","","6","","24.1","","101.75","","","","-5","","NA"
"2013-03-09 00:00","2013","03","09","00:00"
"2013-03-09 01:00","2013","03","09","01:00"
"2013-03-09 02:00","2013","03","09","02:00"
"2013-03-09 03:00","2013","03","09","03:00"
"2013-03-09 04:00","2013","03","09","04:00"
"2013-03-09 05:00","2013","03","09","05:00"
"2013-03-09 06:00","2013","03","09","06:00","-4.9","","-8.3","","77","","36","","10","","24.1","","101.73","","","","-9","","NA"
"2013-03-09 07:00","2013","03","09","07:00","-5.4","","-9.0","","76","","35","","8","","24.1","","101.75","","","","-9","","Clear"
"2013-03-09 08:00","2013","03","09","08:00","-3.3","","-7.3","","74","","34","","4","","24.1","","101.82","","","","-5","","NA"
"2013-03-09 09:00","2013","03","09","09:00","-0.8","","-7.2","","62","","","","0","","24.1","","101.85","","","","","","NA"
"2013-03-09 10:00","2013","03","09","10:00","0.1","","-6.6","","61","","15","","11","","24.1","","101.84","","","","","","Clear"
"2013-03-09 11:00","2013","03","09","11:00","0.7","","-5.4","","64","","16","","10","","24.1","","101.82","","","","","","NA"
"2013-03-09 12:00","2013","03","09","12:00","1.5","","-4.6","","64","","17","","7","","24.1","","101.80","","","","","","NA"
"2013-03-09 13:00","2013","03","09","13:00","1.7","","-4.6","","63","","19","","10","","24.1","","101.74","","","","","","Mainly Clear"
"2013-03-09 14:00","2013","03","09","14:00","2.3","","-4.7","","60","","19","","9","","24.1","","101.71","","","","","","NA"
"2013-03-09 15:00","2013","03","09","15:00","2.5","","-3.6","","64","","20","","8","","24.1","","101.68","","","","","","NA"
"2013-03-09 16:00","2013","03","09","16:00","2.9","","-3.2","","64","","18","","8","","24.1","","101.64","","","","","","Mainly Clear"
"2013-03-09 17:00","2013","03","09","17:00","0.9","","-2.2","","80","","18","","7","","24.1","","101.63","","","","","","NA"
"2013-03-09 18:00","2013","03","09","18:00","-0.4","","-2.6","","85","","","","0","","24.1","","101.57","","","","","","NA"
"2013-03-09 19:00","2013","03","09","19:00","-0.1","","-2.2","","86","","","","0","","24.1","","101.57","","","","","","Cloudy"
"2013-03-09 20:00","2013","03","09","20:00","-0.5","","-3.2","","82","","","","0","","24.1","","101.59","","","","","","NA"
"2013-03-09 21:00","2013","03","09","21:00","-1.1","","-3.5","","84","","5","","4","","24.1","","101.52","","","","-2","","NA"
"2013-03-09 22:00","2013","03","09","22:00","-1.5","","-4.0","","83","","","","0","","24.1","","101.51","","","","","","Mostly Cloudy"
"2013-03-09 23:00","2013","03","09","23:00","-2.5","","-4.7","","85","","8","","6","","24.1","","101.43","","","","-5","","NA"
"2013-03-10 00:00","2013","03","10","00:00"
"2013-03-10 01:00","2013","03","10","01:00"
"2013-03-10 02:00","2013","03","10","02:00"
"2013-03-10 03:00","2013","03","10","03:00"
"2013-03-10 04:00","2013","03","10","04:00"
"2013-03-10 05:00","2013","03","10","05:00","-0.6","","-4.0","","78","","8","","6","","24.1","","101.13","","","","-3","","NA"
"2013-03-10 06:00","2013","03","10","06:00","1.5","","-3.6","","69","","13","","11","","24.1","","101.08","","","","","","NA"
"2013-03-10 07:00","2013","03","10","07:00","1.1","","-3.8","","70","","10","","6","","24.1","","101.02","","","","","","Mostly Cloudy"
"2013-03-10 08:00","2013","03","10","08:00","3.0","","-3.6","","62","","16","","5","","24.1","","101.04","","","","","","NA"
"2013-03-10 09:00","2013","03","10","09:00","2.9","","-2.0","","70","","17","","15","","24.1","","100.99","","","","","","NA"
"2013-03-10 10:00","2013","03","10","10:00","3.2","","-1.9","","69","","17","","15","","24.1","","100.98","","","","","","Mostly Cloudy"
"2013-03-10 11:00","2013","03","10","11:00","4.0","","-2.0","","65","","19","","5","","24.1","","100.93","","","","","","NA"
"2013-03-10 12:00","2013","03","10","12:00","4.3","","-1.9","","64","","21","","9","","24.1","","100.89","","","","","","NA"
"2013-03-10 13:00","2013","03","10","13:00","4.8","","-2.1","","61","","17","","18","","24.1","","100.78","","","","","","Cloudy"
"2013-03-10 14:00","2013","03","10","14:00","5.1","","-1.8","","61","","20","","12","","24.1","","100.72","","","","","","NA"
"2013-03-10 15:00","2013","03","10","15:00","4.9","","-1.6","","63","","18","","13","","24.1","","100.60","","","","","","NA"
"2013-03-10 16:00","2013","03","10","16:00","5.2","","-1.7","","61","","18","","16","","24.1","","100.53","","","","","","Cloudy"
"2013-03-10 17:00","2013","03","10","17:00","4.6","","-1.2","","66","","17","","14","","24.1","","100.53","","","","","","NA"
"2013-03-10 18:00","2013","03","10","18:00","5.2","","-1.3","","63","","17","","11","","24.1","","100.54","","","","","","NA"
"2013-03-10 19:00","2013","03","10","19:00","6.0","","-1.6","","58","","16","","21","","24.1","","100.57","","","","","","Cloudy"
"2013-03-10 20:00","2013","03","10","20:00","5.4","","-1.5","","61","","17","","18","","24.1","","100.61","","","","","","NA"
"2013-03-10 21:00","2013","03","10","21:00","5.3","","-1.6","","61","","17","","21","","24.1","","100.60","","","","","","NA"
"2013-03-10 22:00","2013","03","10","22:00","5.6","","-1.6","","60","","16","","28","","24.1","","100.59","","","","","","Cloudy"
"2013-03-10 23:00","2013","03","10","23:00"
"2013-03-11 00:00","2013","03","11","00:00"
"2013-03-11 01:00","2013","03","11","01:00"
"2013-03-11 02:00","2013","03","11","02:00"
"2013-03-11 03:00","2013","03","11","03:00"
"2013-03-11 04:00","2013","03","11","04:00"
"2013-03-11 05:00","2013","03","11","05:00","4.6","","-1.2","","66","","13","","16","","24.1","","100.35","","","","","","NA"
"2013-03-11 06:00","2013","03","11","06:00","4.3","","-1.1","","68","","14","","21","","24.1","","100.32","","","","","","NA"
"2013-03-11 07:00","2013","03","11","07:00","4.0","","-0.8","","71","","18","","15","","24.1","","100.40","","","","","","Cloudy"
"2013-03-11 08:00","2013","03","11","08:00","4.4","","-0.8","","69","","15","","13","","24.1","","100.41","","","","","","NA"
"2013-03-11 09:00","2013","03","11","09:00","4.2","","-0.8","","70","","16","","17","","24.1","","100.37","","","","","","NA"
"2013-03-11 10:00","2013","03","11","10:00","4.7","","-0.9","","67","","16","","19","","24.1","","100.36","","","","","","Cloudy"
"2013-03-11 11:00","2013","03","11","11:00","4.6","","-0.8","","68","","15","","22","","24.1","","100.22","","","","","","NA"
"2013-03-11 12:00","2013","03","11","12:00","4.4","","-0.6","","70","","16","","21","","24.1","","100.25","","","","","","NA"
"2013-03-11 13:00","2013","03","11","13:00","5.3","","-0.1","","68","","16","","22","","24.1","","100.11","","","","","","Cloudy"
"2013-03-11 14:00","2013","03","11","14:00","5.3","","-0.1","","68","","16","","22","","24.1","","99.98","","","","","","NA"
"2013-03-11 15:00","2013","03","11","15:00","5.3","","0.1","","69","","14","","12","","24.1","","99.99","","","","","","NA"
"2013-03-11 16:00","2013","03","11","16:00","5.7","","0.3","","68","","14","","8","","24.1","","99.90","","","","","","Mostly Cloudy"
"2013-03-11 17:00","2013","03","11","17:00","5.2","","0.2","","70","","15","","17","","24.1","","99.85","","","","","","NA"
"2013-03-11 18:00","2013","03","11","18:00","6.0","","-0.1","","65","","17","","21","","24.1","","99.78","","","","","","NA"
"2013-03-11 19:00","2013","03","11","19:00","4.8","","0.0","","71","","15","","17","","24.1","","99.70","","","","","","Cloudy"
"2013-03-11 20:00","2013","03","11","20:00","4.5","","0.5","","75","","15","","18","","24.1","","99.65","","","","","","Rain"
"2013-03-11 21:00","2013","03","11","21:00","4.8","","1.1","","77","","17","","20","","24.1","","99.75","","","","","","Rain"
"2013-03-11 22:00","2013","03","11","22:00","4.2","","2.1","","86","","16","","24","","19.3","","99.67","","","","","","Rain"
"2013-03-11 23:00","2013","03","11","23:00"
"2013-03-12 00:00","2013","03","12","00:00"
"2013-03-12 01:00","2013","03","12","01:00"
"2013-03-12 02:00","2013","03","12","02:00"
"2013-03-12 03:00","2013","03","12","03:00"
"2013-03-12 04:00","2013","03","12","04:00"
"2013-03-12 05:00","2013","03","12","05:00","4.3","","4.2","","99","","23","","12","","14.5","","99.66","","","","","","Rain"
"2013-03-12 06:00","2013","03","12","06:00","3.2","","2.5","","95","","25","","15","","14.5","","99.75","","","","","","Rain"
"2013-03-12 07:00","2013","03","12","07:00","2.7","","1.8","","94","","23","","18","","24.1","","99.78","","","","","","Cloudy"
"2013-03-12 08:00","2013","03","12","08:00","2.8","","1.2","","89","","22","","18","","24.1","","99.79","","","","","","Rain"
"2013-03-12 09:00","2013","03","12","09:00","2.9","","1.1","","88","","21","","13","","24.1","","99.85","","","","","","NA"
"2013-03-12 10:00","2013","03","12","10:00","3.0","","0.9","","86","","22","","14","","24.1","","99.85","","","","","","Mostly Cloudy"
"2013-03-12 11:00","2013","03","12","11:00","3.2","","0.9","","85","","23","","15","","24.1","","99.85","","","","","","NA"
"2013-03-12 12:00","2013","03","12","12:00","3.8","","1.8","","87","","21","","14","","24.1","","99.80","","","","","","NA"
"2013-03-12 13:00","2013","03","12","13:00","3.3","","1.4","","87","","20","","19","","24.1","","99.81","","","","","","Cloudy"
"2013-03-12 14:00","2013","03","12","14:00","4.9","","1.0","","76","","23","","27","","24.1","","99.74","","","","","","NA"
"2013-03-12 15:00","2013","03","12","15:00","4.1","","0.1","","75","","24","","23","","24.1","","99.75","","","","","","NA"
"2013-03-12 16:00","2013","03","12","16:00","3.3","","-0.3","","77","","24","","23","","24.1","","99.81","","","","","","Mostly Cloudy"
"2013-03-12 17:00","2013","03","12","17:00","2.7","","0.1","","83","","24","","20","","24.1","","99.84","","","","","","NA"
"2013-03-12 18:00","2013","03","12","18:00","2.2","","-0.1","","85","","25","","17","","24.1","","99.90","","","","","","NA"
"2013-03-12 19:00","2013","03","12","19:00","2.4","","-0.2","","83","","24","","22","","24.1","","99.96","","","","","","Cloudy"
"2013-03-12 20:00","2013","03","12","20:00","2.3","","0.0","","85","","25","","18","","24.1","","100.00","","","","","","NA"
"2013-03-12 21:00","2013","03","12","21:00","1.8","","0.0","","88","","23","","17","","24.1","","100.02","","","","","","NA"
"2013-03-12 22:00","2013","03","12","22:00","1.5","","-0.1","","89","","25","","16","","24.1","","100.02","","","","","","Cloudy"
"2013-03-12 23:00","2013","03","12","23:00"
"2013-03-13 00:00","2013","03","13","00:00"
"2013-03-13 01:00","2013","03","13","01:00"
"2013-03-13 02:00","2013","03","13","02:00"
"2013-03-13 03:00","2013","03","13","03:00"
"2013-03-13 04:00","2013","03","13","04:00"
"2013-03-13 05:00","2013","03","13","05:00","0.0","","-1.1","","92","","25","","10","","24.1","","99.95","","","","-3","","NA"
"2013-03-13 06:00","2013","03","13","06:00","-0.2","","-1.2","","93","","24","","8","","24.1","","99.92","","","","-3","","NA"
"2013-03-13 07:00","2013","03","13","07:00","-0.2","","-0.9","","95","","25","","11","","14.5","","99.94","","","","-4","","Snow"
"2013-03-13 08:00","2013","03","13","08:00","-0.2","","-0.8","","96","","23","","6","","1.2","","99.94","","","","-2","","Snow"
"2013-03-13 09:00","2013","03","13","09:00","-0.2","","-0.8","","96","","24","","7","","3.2","","99.92","","","","-3","","Snow"
"2013-03-13 10:00","2013","03","13","10:00","-0.1","","-1.5","","90","","22","","12","","12.9","","99.93","","","","-4","","Snow"
"2013-03-13 11:00","2013","03","13","11:00","0.8","","-1.1","","87","","23","","15","","24.1","","99.94","","","","","","Snow"
"2013-03-13 12:00","2013","03","13","12:00","2.0","","-2.0","","75","","24","","15","","24.1","","99.92","","","","","","NA"
"2013-03-13 13:00","2013","03","13","13:00","0.9","","-1.0","","87","","21","","24","","4.0","","99.88","","","","","","Snow"
"2013-03-13 14:00","2013","03","13","14:00","1.8","","0.0","","88","","20","","22","","19.3","","99.82","","","","","","NA"
"2013-03-13 15:00","2013","03","13","15:00","2.0","","-0.9","","81","","22","","16","","19.3","","99.80","","","","","","NA"
"2013-03-13 16:00","2013","03","13","16:00","1.7","","-0.9","","83","","20","","16","","24.1","","99.79","","","","","","Mostly Cloudy"
"2013-03-13 17:00","2013","03","13","17:00","1.0","","-1.7","","82","","22","","18","","16.1","","99.80","","","","","","Snow Showers"
"2013-03-13 18:00","2013","03","13","18:00","-0.1","","-1.7","","89","","25","","18","","24.1","","99.84","","","","-5","","NA"
"2013-03-13 19:00","2013","03","13","19:00","-0.2","","-3.9","","76","","25","","22","","24.1","","99.85","","","","-6","","Mainly Clear"
"2013-03-13 20:00","2013","03","13","20:00","-1.1","","-5.2","","74","","26","","23","","24.1","","99.89","","","","-7","","NA"
"2013-03-13 21:00","2013","03","13","21:00","-1.3","","-4.3","","80","","24","","19","","12.9","","99.90","","","","-7","","Snow Showers"
"2013-03-13 22:00","2013","03","13","22:00","-2.5","","-7.1","","71","","26","","21","","24.1","","99.93","","","","-9","","Mainly Clear"
"2013-03-13 23:00","2013","03","13","23:00"
"2013-03-14 00:00","2013","03","14","00:00"
"2013-03-14 01:00","2013","03","14","01:00"
"2013-03-14 02:00","2013","03","14","02:00"
"2013-03-14 03:00","2013","03","14","03:00"
"2013-03-14 04:00","2013","03","14","04:00"
"2013-03-14 05:00","2013","03","14","05:00","-8.2","","-13.9","","64","","32","","22","","24.1","","100.20","","","","-16","","NA"
"2013-03-14 06:00","2013","03","14","06:00","-8.8","","-14.6","","63","","32","","26","","24.1","","100.29","","","","-17","","NA"
"2013-03-14 07:00","2013","03","14","07:00","-9.9","","-16.7","","58","","31","","26","","24.1","","100.42","","","","-19","","Mostly Cloudy"
"2013-03-14 08:00","2013","03","14","08:00","-9.2","","-15.8","","59","","30","","25","","24.1","","100.48","","","","-18","","NA"
"2013-03-14 09:00","2013","03","14","09:00","-8.7","","-15.8","","57","","30","","18","","24.1","","100.49","","","","-16","","NA"
"2013-03-14 10:00","2013","03","14","10:00","-7.6","","-14.5","","58","","30","","15","","24.1","","100.44","","","","-14","","Mostly Cloudy"
"2013-03-14 11:00","2013","03","14","11:00","-7.1","","-13.0","","63","","27","","18","","24.1","","100.40","","","","-14","","NA"
"2013-03-14 12:00","2013","03","14","12:00","-5.5","","-12.5","","58","","30","","25","","24.1","","100.32","","","","-13","","NA"
"2013-03-14 13:00","2013","03","14","13:00","-4.6","","-11.2","","60","","29","","20","","24.1","","100.28","","","","-11","","Mostly Cloudy"
"2013-03-14 14:00","2013","03","14","14:00","-3.1","","-11.2","","54","","28","","27","","24.1","","100.20","","","","-10","","NA"
"2013-03-14 15:00","2013","03","14","15:00","-2.8","","-11.1","","53","","31","","31","","24.1","","100.22","","","","-10","","NA"
"2013-03-14 16:00","2013","03","14","16:00","-2.2","","-11.0","","51","","32","","22","","24.1","","100.22","","","","-8","","Mostly Cloudy"
"2013-03-14 17:00","2013","03","14","17:00","-1.7","","-10.8","","50","","31","","19","","24.1","","100.25","","","","-7","","NA"
"2013-03-14 18:00","2013","03","14","18:00","-1.9","","-11.5","","48","","31","","18","","24.1","","100.29","","","","-7","","NA"
"2013-03-14 19:00","2013","03","14","19:00","-2.4","","-12.5","","46","","31","","18","","24.1","","100.36","","","","-8","","Mostly Cloudy"
"2013-03-14 20:00","2013","03","14","20:00","-3.7","","-12.2","","52","","33","","10","","24.1","","100.42","","","","-8","","NA"
"2013-03-14 21:00","2013","03","14","21:00","-4.2","","-12.4","","53","","29","","10","","24.1","","100.48","","","","-8","","NA"
"2013-03-14 22:00","2013","03","14","22:00","-5.2","","-12.5","","57","","27","","7","","24.1","","100.52","","","","-8","","Mainly Clear"
"2013-03-14 23:00","2013","03","14","23:00"
"2013-03-15 00:00","2013","03","15","00:00"
"2013-03-15 01:00","2013","03","15","01:00"
"2013-03-15 02:00","2013","03","15","02:00"
"2013-03-15 03:00","2013","03","15","03:00"
"2013-03-15 04:00","2013","03","15","04:00"
"2013-03-15 05:00","2013","03","15","05:00","-4.4","","-8.9","","71","","25","","7","","24.1","","100.05","","","","-8","","NA"
"2013-03-15 06:00","2013","03","15","06:00","-4.0","","-7.8","","75","","21","","9","","24.1","","99.96","","","","-8","","NA"
"2013-03-15 07:00","2013","03","15","07:00","-2.3","","-6.1","","75","","20","","13","","24.1","","99.83","","","","-7","","Cloudy"
"2013-03-15 08:00","2013","03","15","08:00","-0.6","","-3.8","","79","","20","","24","","6.4","","99.68","","","","-7","","Snow"
"2013-03-15 09:00","2013","03","15","09:00","-0.9","","-2.8","","87","","20","","27","","1.6","","99.57","","","","-7","","Snow"
"2013-03-15 10:00","2013","03","15","10:00","-0.3","","-1.6","","91","","24","","18","","1.6","","99.47","","","","-5","","Snow"
"2013-03-15 11:00","2013","03","15","11:00","-0.4","","-1.8","","90","","24","","26","","2.0","","99.40","","","","-7","","Snow"
"2013-03-15 12:00","2013","03","15","12:00","1.0","","-2.2","","79","","24","","25","","24.1","","99.32","","","","","","Snow"
"2013-03-15 13:00","2013","03","15","13:00","0.7","","-1.1","","88","","25","","27","","4.8","","99.29","","","","","","Snow"
"2013-03-15 14:00","2013","03","15","14:00","3.0","","-1.0","","75","","25","","31","","19.3","","99.19","","","","","","NA"
"2013-03-15 15:00","2013","03","15","15:00","4.3","","-4.2","","54","","27","","26","","24.1","","99.19","","","","","","Snow"
"2013-03-15 16:00","2013","03","15","16:00","3.5","","-5.5","","52","","27","","28","","24.1","","99.22","","","","","","Snow Showers"
"2013-03-15 17:00","2013","03","15","17:00","3.1","","-5.6","","53","","30","","15","","24.1","","99.30","","","","","","NA"
"2013-03-15 18:00","2013","03","15","18:00","2.2","","-8.6","","45","","31","","21","","24.1","","99.44","","","","","","NA"
"2013-03-15 19:00","2013","03","15","19:00","0.3","","-9.2","","49","","34","","28","","24.1","","99.60","","","","","","Mainly Clear"
"2013-03-15 20:00","2013","03","15","20:00","-1.1","","-9.8","","52","","33","","21","","24.1","","99.74","","","","-7","","NA"
"2013-03-15 21:00","2013","03","15","21:00","-2.0","","-10.6","","52","","32","","20","","24.1","","99.85","","","","-8","","NA"
"2013-03-15 22:00","2013","03","15","22:00","-3.0","","-11.3","","53","","31","","13","","24.1","","99.97","","","","-8","","Clear"
"2013-03-15 23:00","2013","03","15","23:00"
"2013-03-16 00:00","2013","03","16","00:00"
"2013-03-16 01:00","2013","03","16","01:00"
"2013-03-16 02:00","2013","03","16","02:00"
"2013-03-16 03:00","2013","03","16","03:00"
"2013-03-16 04:00","2013","03","16","04:00"
"2013-03-16 05:00","2013","03","16","05:00","-7.8","","-15.1","","56","","1","","19","","24.1","","100.18","","","","-15","","NA"
"2013-03-16 06:00","2013","03","16","06:00","-8.2","","-15.7","","55","","1","","20","","24.1","","100.19","","","","-16","","NA"
"2013-03-16 07:00","2013","03","16","07:00","-8.4","","-15.9","","55","","3","","18","","24.1","","100.25","","","","-15","","Mostly Cloudy"
"2013-03-16 08:00","2013","03","16","08:00","-8.7","","-15.6","","58","","1","","24","","24.1","","100.26","","","","-17","","NA"
"2013-03-16 09:00","2013","03","16","09:00","-7.6","","-15.2","","55","","2","","16","","24.1","","100.25","","","","-14","","NA"
"2013-03-16 10:00","2013","03","16","10:00","-6.9","","-15.4","","51","","4","","16","","24.1","","100.23","","","","-13","","Mostly Cloudy"
"2013-03-16 11:00","2013","03","16","11:00","-6.6","","-15.7","","49","","7","","10","","24.1","","100.22","","","","-11","","NA"
"2013-03-16 12:00","2013","03","16","12:00","-5.6","","-14.7","","49","","4","","9","","24.1","","100.19","","","","-10","","NA"
"2013-03-16 13:00","2013","03","16","13:00","-5.0","","-15.2","","45","","1","","5","","24.1","","100.13","","","","-7","","Mostly Cloudy"
"2013-03-16 14:00","2013","03","16","14:00","-5.1","","-15.0","","46","","33","","10","","24.1","","100.11","","","","-9","","NA"
"2013-03-16 15:00","2013","03","16","15:00","-4.8","","-14.5","","47","","35","","6","","24.1","","100.12","","","","-8","","NA"
"2013-03-16 16:00","2013","03","16","16:00","-4.8","","-15.0","","45","","1","","5","","24.1","","100.12","","","","-7","","Mostly Cloudy"
"2013-03-16 17:00","2013","03","16","17:00","-4.2","","-15.3","","42","","28","","5","","24.1","","100.14","","","","-6","","NA"
"2013-03-16 18:00","2013","03","16","18:00","-5.1","","-14.3","","49","","13","","6","","24.1","","100.16","","","","-8","","NA"
"2013-03-16 19:00","2013","03","16","19:00","-5.6","","-13.5","","54","","12","","4","","24.1","","100.21","","","","-7","","Clear"
"2013-03-16 20:00","2013","03","16","20:00","-5.9","","-12.9","","58","","23","","11","","24.1","","100.29","","","","-11","","NA"
"2013-03-16 21:00","2013","03","16","21:00","-5.6","","-12.2","","60","","22","","13","","24.1","","100.33","","","","-11","","NA"
"2013-03-16 22:00","2013","03","16","22:00","-5.6","","-10.6","","68","","23","","10","","24.1","","100.32","","","","-10","","Clear"
"2013-03-16 23:00","2013","03","16","23:00"
"2013-03-17 00:00","2013","03","17","00:00"
"2013-03-17 01:00","2013","03","17","01:00"
"2013-03-17 02:00","2013","03","17","02:00"
"2013-03-17 03:00","2013","03","17","03:00"
"2013-03-17 04:00","2013","03","17","04:00"
"2013-03-17 05:00","2013","03","17","05:00","-8.0","","-13.9","","63","","30","","11","","24.1","","100.67","","","","-13","","NA"
"2013-03-17 06:00","2013","03","17","06:00","-8.9","","-14.5","","64","","30","","8","","24.1","","100.78","","","","-13","","NA"
"2013-03-17 07:00","2013","03","17","07:00","-9.0","","-13.5","","70","","34","","7","","24.1","","100.84","","","","-13","","Mainly Clear"
"2013-03-17 08:00","2013","03","17","08:00","-6.9","","-13.0","","62","","31","","6","","24.1","","100.95","","","","-10","","NA"
"2013-03-17 09:00","2013","03","17","09:00","-5.2","","-13.6","","52","","31","","17","","24.1","","101.03","","","","-11","","NA"
"2013-03-17 10:00","2013","03","17","10:00","-4.4","","-14.9","","44","","33","","15","","24.1","","101.11","","","","-10","","Clear"
"2013-03-17 11:00","2013","03","17","11:00","-3.2","","-15.6","","38","","32","","19","","24.1","","101.18","","","","-9","","NA"
"2013-03-17 12:00","2013","03","17","12:00","-2.8","","-16.6","","34","","33","","27","","24.1","","101.23","","","","-10","","NA"
"2013-03-17 13:00","2013","03","17","13:00","-2.0","","-15.9","","34","","33","","17","","24.1","","101.22","","","","-7","","Clear"
"2013-03-17 14:00","2013","03","17","14:00","-2.7","","-18.5","","29","","34","","14","","24.1","","101.24","","","","-8","","NA"
"2013-03-17 15:00","2013","03","17","15:00","-2.2","","-18.4","","28","","31","","10","","24.1","","101.27","","","","-6","","NA"
"2013-03-17 16:00","2013","03","17","16:00","-1.6","","-17.1","","30","","34","","15","","24.1","","101.31","","","","-6","","Clear"
"2013-03-17 17:00","2013","03","17","17:00","-2.2","","-18.0","","29","","1","","10","","24.1","","101.35","","","","-6","","NA"
"2013-03-17 18:00","2013","03","17","18:00","-3.1","","-18.0","","31","","32","","6","","24.1","","101.39","","","","-6","","NA"
"2013-03-17 19:00","2013","03","17","19:00","-3.4","","-15.5","","39","","10","","2","","24.1","","101.49","","","","-4","","Clear"
"2013-03-17 20:00","2013","03","17","20:00","-3.8","","-15.0","","42","","14","","2","","24.1","","101.54","","","","-5","","NA"
"2013-03-17 21:00","2013","03","17","21:00","-6.7","","-13.5","","59","","7","","3","","24.1","","101.56","","","","-8","","NA"
"2013-03-17 22:00","2013","03","17","22:00","-7.1","","-12.1","","68","","2","","4","","24.1","","101.59","","","","-9","","Clear"
"2013-03-17 23:00","2013","03","17","23:00"
"2013-03-18 00:00","2013","03","18","00:00"
"2013-03-18 01:00","2013","03","18","01:00"
"2013-03-18 02:00","2013","03","18","02:00"
"2013-03-18 03:00","2013","03","18","03:00"
"2013-03-18 04:00","2013","03","18","04:00"
"2013-03-18 05:00","2013","03","18","05:00","-8.6","","-14.4","","63","","6","","14","","24.1","","101.71","","","","-15","","NA"
"2013-03-18 06:00","2013","03","18","06:00","-8.2","","-14.1","","63","","5","","15","","24.1","","101.75","","","","-15","","NA"
"2013-03-18 07:00","2013","03","18","07:00","-7.7","","-12.8","","67","","7","","14","","24.1","","101.77","","","","-14","","Mostly Cloudy"
"2013-03-18 08:00","2013","03","18","08:00","-5.3","","-12.8","","56","","9","","17","","24.1","","101.79","","","","-11","","NA"
"2013-03-18 09:00","2013","03","18","09:00","-3.7","","-12.4","","51","","8","","20","","24.1","","101.67","","","","-10","","NA"
"2013-03-18 10:00","2013","03","18","10:00","-2.3","","-12.7","","45","","7","","22","","24.1","","101.58","","","","-8","","Cloudy"
"2013-03-18 11:00","2013","03","18","11:00","-2.0","","-14.9","","37","","7","","29","","24.1","","101.50","","","","-9","","NA"
"2013-03-18 12:00","2013","03","18","12:00","-1.3","","-13.9","","38","","7","","28","","24.1","","101.39","","","","-8","","NA"
"2013-03-18 13:00","2013","03","18","13:00","-0.9","","-14.2","","36","","6","","33","","24.1","","101.21","","","","-8","","Cloudy"
"2013-03-18 14:00","2013","03","18","14:00"
"2013-03-18 15:00","2013","03","18","15:00","1.1","","-13.5","","33","","7","","26","","24.1","","100.90","","","","","","NA"
"2013-03-18 16:00","2013","03","18","16:00","1.2","","-13.4","","33","","7","","28","","24.1","","100.77","","","","","","Cloudy"
"2013-03-18 17:00","2013","03","18","17:00","1.0","","-12.5","","36","","7","","21","","24.1","","100.68","","","","","","NA"
"2013-03-18 18:00","2013","03","18","18:00","0.5","","-11.6","","40","","8","","17","","24.1","","100.66","","","","","","NA"
"2013-03-18 19:00","2013","03","18","19:00","-0.5","","-4.9","","72","","11","","22","","16.1","","100.64","","","","-6","","Snow"
"2013-03-18 20:00","2013","03","18","20:00","-2.1","","-4.3","","85","","7","","22","","4.0","","100.46","","","","-8","","Snow"
"2013-03-18 21:00","2013","03","18","21:00","-2.4","","-3.7","","91","","7","","31","","4.8","","100.31","","","","-10","","Snow"
"2013-03-18 22:00","2013","03","18","22:00","-2.0","","-2.8","","94","","8","","28","","0.8","","100.17","","","","-9","","Moderate Snow"
"2013-03-18 23:00","2013","03","18","23:00"
"2013-03-19 00:00","2013","03","19","00:00"
"2013-03-19 01:00","2013","03","19","01:00"
"2013-03-19 02:00","2013","03","19","02:00"
"2013-03-19 03:00","2013","03","19","03:00"
"2013-03-19 04:00","2013","03","19","04:00"
"2013-03-19 05:00","2013","03","19","05:00","-0.6","","-1.3","","95","","16","","39","","4.0","","99.54","","","","-8","","Snow,Blowing Snow"
"2013-03-19 06:00","2013","03","19","06:00","-0.3","","-1.2","","94","","16","","42","","16.1","","99.51","","","","-8","","Snow"
"2013-03-19 07:00","2013","03","19","07:00","-0.2","","-0.9","","95","","16","","34","","6.4","","99.55","","","","-7","","Snow"
"2013-03-19 08:00","2013","03","19","08:00","-0.2","","-0.8","","96","","16","","35","","3.2","","99.52","","","","-7","","Snow"
"2013-03-19 09:00","2013","03","19","09:00","0.5","","-0.5","","93","","17","","33","","24.1","","99.53","","","","","","NA"
"2013-03-19 10:00","2013","03","19","10:00","1.2","","-0.4","","89","","16","","30","","24.1","","99.50","","","","","","Mostly Cloudy"
"2013-03-19 11:00","2013","03","19","11:00","1.2","","-0.7","","87","","15","","31","","24.1","","99.47","","","","","","NA"
"2013-03-19 12:00","2013","03","19","12:00","1.5","","-0.8","","85","","17","","24","","24.1","","99.44","","","","","","NA"
"2013-03-19 13:00","2013","03","19","13:00","1.0","","-0.8","","88","","17","","24","","24.1","","99.45","","","","","","Snow"
"2013-03-19 14:00","2013","03","19","14:00","0.5","","-1.1","","89","","23","","26","","4.8","","99.46","","","","","","Snow"
"2013-03-19 15:00","2013","03","19","15:00","-0.2","","-1.6","","90","","24","","21","","3.2","","99.49","","","","-6","","Snow"
"2013-03-19 16:00","2013","03","19","16:00","0.9","","-4.4","","68","","24","","30","","19.3","","99.52","","","","","","Mostly Cloudy"
"2013-03-19 17:00","2013","03","19","17:00","0.1","","-4.6","","71","","24","","22","","24.1","","99.58","","","","","","NA"
"2013-03-19 18:00","2013","03","19","18:00","-1.3","","-5.0","","76","","25","","28","","24.1","","99.62","","","","-8","","NA"
"2013-03-19 19:00","2013","03","19","19:00","-1.6","","-4.9","","78","","25","","22","","24.1","","99.69","","","","-8","","Mostly Cloudy"
"2013-03-19 20:00","2013","03","19","20:00","-1.9","","-4.9","","80","","26","","15","","24.1","","99.74","","","","-7","","NA"
"2013-03-19 21:00","2013","03","19","21:00","-2.5","","-4.5","","86","","26","","10","","19.3","","99.75","","","","-6","","NA"
"2013-03-19 22:00","2013","03","19","22:00","-2.5","","-6.0","","77","","25","","14","","24.1","","99.76","","","","-7","","Mostly Cloudy"
"2013-03-19 23:00","2013","03","19","23:00"
"2013-03-20 00:00","2013","03","20","00:00"
"2013-03-20 01:00","2013","03","20","01:00"
"2013-03-20 02:00","2013","03","20","02:00"
"2013-03-20 03:00","2013","03","20","03:00"
"2013-03-20 04:00","2013","03","20","04:00"
"2013-03-20 05:00","2013","03","20","05:00","-3.8","","-5.8","","86","","24","","21","","9.7","","99.65","","","","-10","","Snow Showers"
"2013-03-20 06:00","2013","03","20","06:00","-3.6","","-5.3","","88","","25","","21","","9.7","","99.65","","","","-10","","Snow Showers,Blowing Snow"
"2013-03-20 07:00","2013","03","20","07:00","-3.3","","-4.7","","90","","25","","16","","3.2","","99.64","","","","-9","","Snow Showers,Blowing Snow"
"2013-03-20 08:00","2013","03","20","08:00","-2.8","","-4.5","","88","","25","","23","","2.4","","99.62","","","","-9","","Snow Showers,Blowing Snow"
"2013-03-20 09:00","2013","03","20","09:00","-2.1","","-4.6","","83","","25","","28","","6.4","","99.62","","","","-9","","Snow Showers,Blowing Snow"
"2013-03-20 10:00","2013","03","20","10:00","-0.7","","-5.5","","70","","26","","28","","24.1","","99.61","","","","-7","","Mostly Cloudy"
"2013-03-20 11:00","2013","03","20","11:00","0.2","","-5.8","","64","","26","","18","","24.1","","99.61","","","","","","NA"
"2013-03-20 12:00","2013","03","20","12:00","0.5","","-6.2","","61","","23","","30","","24.1","","99.60","","","","","","NA"
"2013-03-20 13:00","2013","03","20","13:00","0.5","","-6.0","","62","","23","","29","","24.1","","99.58","","","","","","Cloudy"
"2013-03-20 14:00","2013","03","20","14:00","0.5","","-6.4","","60","","24","","33","","24.1","","99.55","","","","","","NA"
"2013-03-20 15:00","2013","03","20","15:00","0.4","","-6.1","","62","","24","","31","","24.1","","99.55","","","","","","Snow Showers"
"2013-03-20 16:00","2013","03","20","16:00","-0.2","","-6.4","","63","","23","","33","","24.1","","99.58","","","","-7","","Mostly Cloudy"
"2013-03-20 17:00","2013","03","20","17:00","-0.6","","-5.6","","69","","24","","29","","24.1","","99.62","","","","-7","","Snow Showers"
"2013-03-20 18:00","2013","03","20","18:00","-1.1","","-6.1","","69","","24","","29","","24.1","","99.67","","","","-8","","NA"
"2013-03-20 19:00","2013","03","20","19:00","-2.4","","-4.6","","85","","25","","20","","24.1","","99.71","","","","-8","","Snow Showers"
"2013-03-20 20:00","2013","03","20","20:00","-1.8","","-6.4","","71","","25","","18","","24.1","","99.70","","","","-7","","NA"
"2013-03-20 21:00","2013","03","20","21:00","-2.7","","-7.4","","70","","26","","22","","24.1","","99.69","","","","-9","","NA"
"2013-03-20 22:00","2013","03","20","22:00","-3.4","","-8.3","","69","","26","","17","","24.1","","99.70","","","","-9","","Mainly Clear"
"2013-03-20 23:00","2013","03","20","23:00"
"2013-03-21 00:00","2013","03","21","00:00"
"2013-03-21 01:00","2013","03","21","01:00"
"2013-03-21 02:00","2013","03","21","02:00"
"2013-03-21 03:00","2013","03","21","03:00"
"2013-03-21 04:00","2013","03","21","04:00"
"2013-03-21 05:00","2013","03","21","05:00","-6.2","","-10.1","","74","","25","","15","","24.1","","99.58","","","","-12","","NA"
"2013-03-21 06:00","2013","03","21","06:00","-6.1","","-9.5","","77","","25","","15","","24.1","","99.57","","","","-12","","NA"
"2013-03-21 07:00","2013","03","21","07:00","-5.4","","-9.2","","75","","26","","16","","24.1","","99.59","","","","-11","","Mostly Cloudy"
"2013-03-21 08:00","2013","03","21","08:00","-4.6","","-8.9","","72","","24","","15","","24.1","","99.57","","","","-10","","NA"
"2013-03-21 09:00","2013","03","21","09:00","-3.0","","-8.9","","64","","27","","17","","24.1","","99.55","","","","-9","","NA"
"2013-03-21 10:00","2013","03","21","10:00","-1.5","","-9.2","","56","","25","","18","","24.1","","99.52","","","","-7","","Mostly Cloudy"
"2013-03-21 11:00","2013","03","21","11:00","-1.4","","-9.6","","54","","23","","28","","24.1","","99.52","","","","-8","","NA"
"2013-03-21 12:00","2013","03","21","12:00","-0.7","","-8.7","","55","","23","","28","","24.1","","99.50","","","","-7","","NA"
"2013-03-21 13:00","2013","03","21","13:00","-0.6","","-8.1","","57","","24","","28","","24.1","","99.47","","","","-7","","Mostly Cloudy"
"2013-03-21 14:00","2013","03","21","14:00","-1.0","","-7.2","","63","","24","","27","","16.1","","99.46","","","","-7","","Snow"
"2013-03-21 15:00","2013","03","21","15:00","-1.4","","-7.0","","66","","24","","29","","19.3","","99.43","","","","-8","","Snow"
"2013-03-21 16:00","2013","03","21","16:00","-1.9","","-5.2","","78","","23","","23","","9.7","","99.44","","","","-8","","Snow"
"2013-03-21 17:00","2013","03","21","17:00","-1.9","","-4.6","","82","","24","","21","","12.9","","99.43","","","","-8","","Snow"
"2013-03-21 18:00","2013","03","21","18:00","-2.1","","-3.8","","88","","24","","18","","8.1","","99.43","","","","-8","","Snow"
"2013-03-21 19:00","2013","03","21","19:00","-2.3","","-4.2","","87","","24","","14","","19.3","","99.43","","","","-7","","Snow"
"2013-03-21 20:00","2013","03","21","20:00","-2.6","","-4.5","","87","","22","","11","","24.1","","99.42","","","","-7","","NA"
"2013-03-21 21:00","2013","03","21","21:00","-2.3","","-3.9","","89","","23","","9","","24.1","","99.41","","","","-6","","NA"
"2013-03-21 22:00","2013","03","21","22:00","-2.1","","-3.8","","88","","25","","8","","24.1","","99.40","","","","-5","","Snow"
"2013-03-21 23:00","2013","03","21","23:00"
"2013-03-22 00:00","2013","03","22","00:00"
"2013-03-22 01:00","2013","03","22","01:00"
"2013-03-22 02:00","2013","03","22","02:00"
"2013-03-22 03:00","2013","03","22","03:00"
"2013-03-22 04:00","2013","03","22","04:00"
"2013-03-22 05:00","2013","03","22","05:00","-4.2","","-5.9","","88","","29","","8","","19.3","","99.43","","","","-8","","Snow"
"2013-03-22 06:00","2013","03","22","06:00","-4.4","","-5.8","","90","","32","","6","","12.9","","99.48","","","","-7","","Snow"
"2013-03-22 07:00","2013","03","22","07:00","-4.5","","-6.5","","86","","35","","13","","24.1","","99.55","","","","-10","","Snow"
"2013-03-22 08:00","2013","03","22","08:00","-4.2","","-6.4","","85","","34","","9","","4.0","","99.58","","","","-8","","Snow"
"2013-03-22 09:00","2013","03","22","09:00","-3.6","","-6.7","","79","","32","","13","","4.0","","99.60","","","","-8","","Snow"
"2013-03-22 10:00","2013","03","22","10:00","-3.5","","-9.0","","66","","32","","16","","24.1","","99.64","","","","-9","","Mainly Clear"
"2013-03-22 11:00","2013","03","22","11:00","-3.0","","-11.3","","53","","32","","17","","24.1","","99.66","","","","-9","","NA"
"2013-03-22 12:00","2013","03","22","12:00","-1.8","","-9.7","","55","","29","","19","","24.1","","99.67","","","","-7","","NA"
"2013-03-22 13:00","2013","03","22","13:00","-0.4","","-8.6","","54","","28","","16","","24.1","","99.66","","","","-5","","Mostly Cloudy"
"2013-03-22 14:00","2013","03","22","14:00","0.3","","-7.3","","57","","24","","23","","24.1","","99.65","","","","","","NA"
"2013-03-22 15:00","2013","03","22","15:00","-0.2","","-6.6","","62","","24","","22","","24.1","","99.67","","","","-6","","NA"
"2013-03-22 16:00","2013","03","22","16:00","1.1","","-6.7","","56","","26","","20","","24.1","","99.68","","","","","","Mostly Cloudy"
"2013-03-22 17:00","2013","03","22","17:00","1.2","","-6.6","","56","","27","","22","","24.1","","99.71","","","","","","NA"
"2013-03-22 18:00","2013","03","22","18:00","0.6","","-5.7","","63","","25","","23","","24.1","","99.76","","","","","","NA"
"2013-03-22 19:00","2013","03","22","19:00","0.1","","-4.9","","69","","25","","18","","24.1","","99.81","","","","","","Mostly Cloudy"
"2013-03-22 20:00","2013","03","22","20:00","-0.9","","-5.5","","71","","26","","18","","24.1","","99.89","","","","-6","","NA"
"2013-03-22 21:00","2013","03","22","21:00","-1.1","","-5.3","","73","","26","","19","","24.1","","99.94","","","","-6","","NA"
"2013-03-22 22:00","2013","03","22","22:00","-1.5","","-5.5","","74","","27","","15","","24.1","","99.95","","","","-6","","Mostly Cloudy"
"2013-03-22 23:00","2013","03","22","23:00"
"2013-03-23 00:00","2013","03","23","00:00"
"2013-03-23 01:00","2013","03","23","01:00"
"2013-03-23 02:00","2013","03","23","02:00"
"2013-03-23 03:00","2013","03","23","03:00"
"2013-03-23 04:00","2013","03","23","04:00"
"2013-03-23 05:00","2013","03","23","05:00","-4.0","","-6.6","","82","","31","","15","","24.1","","100.00","","","","-9","","NA"
"2013-03-23 06:00","2013","03","23","06:00","-4.3","","-6.8","","83","","29","","14","","24.1","","100.05","","","","-9","","NA"
"2013-03-23 07:00","2013","03","23","07:00","-3.3","","-6.6","","78","","29","","14","","24.1","","100.09","","","","-8","","Mainly Clear"
"2013-03-23 08:00","2013","03","23","08:00","-1.8","","-6.0","","73","","29","","18","","24.1","","100.09","","","","-7","","NA"
"2013-03-23 09:00","2013","03","23","09:00","-0.2","","-5.6","","67","","32","","28","","24.1","","100.11","","","","-7","","NA"
"2013-03-23 10:00","2013","03","23","10:00","0.2","","-5.8","","64","","30","","26","","24.1","","100.12","","","","","","Mostly Cloudy"
"2013-03-23 11:00","2013","03","23","11:00","1.7","","-6.4","","55","","31","","26","","24.1","","100.10","","","","","","NA"
"2013-03-23 12:00","2013","03","23","12:00","2.0","","-7.1","","51","","30","","19","","24.1","","100.10","","","","","","NA"
"2013-03-23 13:00","2013","03","23","13:00","2.3","","-6.3","","53","","29","","22","","24.1","","100.09","","","","","","Mostly Cloudy"
"2013-03-23 14:00","2013","03","23","14:00","2.5","","-6.9","","50","","28","","21","","24.1","","100.07","","","","","","NA"
"2013-03-23 15:00","2013","03","23","15:00","2.6","","-6.8","","50","","28","","21","","24.1","","100.07","","","","","","NA"
"2013-03-23 16:00","2013","03","23","16:00","3.0","","-7.3","","47","","31","","22","","24.1","","100.10","","","","","","Mostly Cloudy"
"2013-03-23 17:00","2013","03","23","17:00","2.8","","-7.2","","48","","33","","24","","24.1","","100.16","","","","","","NA"
"2013-03-23 18:00","2013","03","23","18:00","2.3","","-7.9","","47","","30","","19","","24.1","","100.21","","","","","","NA"
"2013-03-23 19:00","2013","03","23","19:00","1.3","","-7.8","","51","","31","","15","","24.1","","100.23","","","","","","Mainly Clear"
"2013-03-23 20:00","2013","03","23","20:00","0.4","","-7.9","","54","","29","","10","","24.1","","100.30","","","","","","NA"
"2013-03-23 21:00","2013","03","23","21:00","0.4","","-7.6","","55","","28","","13","","24.1","","100.32","","","","","","NA"
"2013-03-23 22:00","2013","03","23","22:00","0.4","","-7.4","","56","","30","","14","","24.1","","100.31","","","","","","Mostly Cloudy"
"2013-03-23 23:00","2013","03","23","23:00"
"2013-03-24 00:00","2013","03","24","00:00"
"2013-03-24 01:00","2013","03","24","01:00"
"2013-03-24 02:00","2013","03","24","02:00"
"2013-03-24 03:00","2013","03","24","03:00"
"2013-03-24 04:00","2013","03","24","04:00"
"2013-03-24 05:00","2013","03","24","05:00","-0.7","","-6.7","","64","","29","","14","","24.1","","100.29","","","","-5","","NA"
"2013-03-24 06:00","2013","03","24","06:00","-1.0","","-6.6","","66","","30","","16","","24.1","","100.36","","","","-6","","NA"
"2013-03-24 07:00","2013","03","24","07:00","-0.4","","-6.2","","65","","31","","15","","24.1","","100.34","","","","-5","","Mostly Cloudy"
"2013-03-24 08:00","2013","03","24","08:00","0.1","","-6.1","","63","","32","","19","","24.1","","100.36","","","","","","NA"
"2013-03-24 09:00","2013","03","24","09:00","1.6","","-5.8","","58","","32","","22","","24.1","","100.35","","","","","","NA"
"2013-03-24 10:00","2013","03","24","10:00","1.1","","-6.0","","59","","35","","21","","24.1","","100.27","","","","","","Mostly Cloudy"
"2013-03-24 11:00","2013","03","24","11:00","2.0","","-7.1","","51","","1","","4","","24.1","","100.25","","","","","","NA"
"2013-03-24 12:00","2013","03","24","12:00","1.9","","-6.7","","53","","15","","10","","24.1","","100.23","","","","","","NA"
"2013-03-24 13:00","2013","03","24","13:00","2.2","","-5.9","","55","","17","","10","","24.1","","100.13","","","","","","Cloudy"
"2013-03-24 14:00","2013","03","24","14:00","1.7","","-5.3","","60","","19","","12","","24.1","","100.07","","","","","","NA"
"2013-03-24 15:00","2013","03","24","15:00","2.0","","-5.4","","58","","18","","8","","24.1","","99.97","","","","","","NA"
"2013-03-24 16:00","2013","03","24","16:00","1.8","","-6.3","","55","","18","","8","","24.1","","99.93","","","","","","Mostly Cloudy"
"2013-03-24 17:00","2013","03","24","17:00","2.7","","-5.0","","57","","6","","18","","24.1","","99.91","","","","","","NA"
"2013-03-24 18:00","2013","03","24","18:00","2.4","","-5.5","","56","","4","","19","","24.1","","99.94","","","","","","NA"
"2013-03-24 19:00","2013","03","24","19:00","2.2","","-5.0","","59","","3","","10","","24.1","","99.93","","","","","","Mostly Cloudy"
"2013-03-24 20:00","2013","03","24","20:00","1.9","","-4.6","","62","","5","","16","","24.1","","99.91","","","","","","NA"
"2013-03-24 21:00","2013","03","24","21:00","1.0","","-4.9","","65","","5","","15","","24.1","","99.91","","","","","","NA"
"2013-03-24 22:00","2013","03","24","22:00","-0.1","","-4.9","","70","","5","","12","","24.1","","99.87","","","","-4","","Mostly Cloudy"
"2013-03-24 23:00","2013","03","24","23:00"
"2013-03-25 00:00","2013","03","25","00:00"
"2013-03-25 01:00","2013","03","25","01:00"
"2013-03-25 02:00","2013","03","25","02:00"
"2013-03-25 03:00","2013","03","25","03:00"
"2013-03-25 04:00","2013","03","25","04:00"
"2013-03-25 05:00","2013","03","25","05:00","-1.1","","-5.5","","72","","5","","17","","24.1","","99.57","","","","-6","","NA"
"2013-03-25 06:00","2013","03","25","06:00","-1.4","","-5.6","","73","","5","","15","","24.1","","99.58","","","","-6","","NA"
"2013-03-25 07:00","2013","03","25","07:00","-1.3","","-5.5","","73","","5","","19","","24.1","","99.61","","","","-7","","Cloudy"
"2013-03-25 08:00","2013","03","25","08:00","-0.2","","-5.2","","69","","5","","22","","24.1","","99.58","","","","-6","","NA"
"2013-03-25 09:00","2013","03","25","09:00","1.2","","-4.3","","67","","5","","23","","24.1","","99.54","","","","","","NA"
"2013-03-25 10:00","2013","03","25","10:00","3.0","","-3.8","","61","","5","","26","","24.1","","99.50","","","","","","Mostly Cloudy"
"2013-03-25 11:00","2013","03","25","11:00","4.3","","-2.6","","61","","7","","26","","24.1","","99.44","","","","","","NA"
"2013-03-25 12:00","2013","03","25","12:00","5.2","","-2.2","","59","","4","","24","","24.1","","99.40","","","","","","NA"
"2013-03-25 13:00","2013","03","25","13:00","4.2","","-3.1","","59","","2","","26","","24.1","","99.36","","","","","","Cloudy"
"2013-03-25 14:00","2013","03","25","14:00","3.7","","-3.6","","59","","3","","26","","24.1","","99.32","","","","","","NA"
"2013-03-25 15:00","2013","03","25","15:00","4.0","","-3.5","","58","","4","","25","","24.1","","99.29","","","","","","NA"
"2013-03-25 16:00","2013","03","25","16:00","4.6","","-3.4","","56","","4","","28","","24.1","","99.30","","","","","","Mostly Cloudy"
"2013-03-25 17:00","2013","03","25","17:00","4.1","","-3.7","","57","","3","","24","","24.1","","99.32","","","","","","NA"
"2013-03-25 18:00","2013","03","25","18:00","3.7","","-3.6","","59","","4","","22","","24.1","","99.39","","","","","","NA"
"2013-03-25 19:00","2013","03","25","19:00","3.0","","-3.6","","62","","2","","14","","24.1","","99.46","","","","","","Mostly Cloudy"
"2013-03-25 20:00","2013","03","25","20:00","0.4","","-3.7","","74","","36","","11","","24.1","","99.49","","","","","","NA"
"2013-03-25 21:00","2013","03","25","21:00","-0.1","","-3.8","","76","","34","","14","","24.1","","99.52","","","","-4","","NA"
"2013-03-25 22:00","2013","03","25","22:00","1.1","","-3.4","","72","","36","","9","","24.1","","99.51","","","","","","Mostly Cloudy"
"2013-03-25 23:00","2013","03","25","23:00"
"2013-03-26 00:00","2013","03","26","00:00"
"2013-03-26 01:00","2013","03","26","01:00"
"2013-03-26 02:00","2013","03","26","02:00"
"2013-03-26 03:00","2013","03","26","03:00"
"2013-03-26 04:00","2013","03","26","04:00"
"2013-03-26 05:00","2013","03","26","05:00","1.2","","-3.5","","71","","3","","13","","24.1","","99.69","","","","","","NA"
"2013-03-26 06:00","2013","03","26","06:00","0.6","","-3.7","","73","","2","","10","","22.5","","99.75","","","","","","NA"
"2013-03-26 07:00","2013","03","26","07:00","0.7","","-4.2","","70","","5","","17","","24.1","","99.82","","","","","","Cloudy"
"2013-03-26 08:00","2013","03","26","08:00","2.0","","-3.9","","65","","6","","14","","24.1","","99.87","","","","","","NA"
"2013-03-26 09:00","2013","03","26","09:00","2.7","","-4.3","","60","","6","","14","","24.1","","99.90","","","","","","NA"
"2013-03-26 10:00","2013","03","26","10:00","3.8","","-4.2","","56","","5","","8","","24.1","","99.93","","","","","","Mainly Clear"
"2013-03-26 11:00","2013","03","26","11:00","4.7","","-3.6","","55","","8","","5","","24.1","","99.95","","","","","","NA"
"2013-03-26 12:00","2013","03","26","12:00","5.4","","-1.7","","60","","15","","5","","24.1","","99.94","","","","","","NA"
"2013-03-26 13:00","2013","03","26","13:00","5.8","","-0.9","","62","","19","","17","","24.1","","99.97","","","","","","Mostly Cloudy"
"2013-03-26 14:00","2013","03","26","14:00","4.4","","-1.8","","64","","20","","19","","24.1","","99.96","","","","","","NA"
"2013-03-26 15:00","2013","03","26","15:00","4.2","","-1.8","","65","","21","","17","","24.1","","99.96","","","","","","NA"
"2013-03-26 16:00","2013","03","26","16:00","4.6","","-0.6","","69","","23","","18","","24.1","","99.98","","","","","","Mostly Cloudy"
"2013-03-26 17:00","2013","03","26","17:00","4.5","","0.6","","76","","20","","10","","24.1","","100.01","","","","","","NA"
"2013-03-26 18:00","2013","03","26","18:00","1.9","","-0.9","","82","","23","","12","","24.1","","100.01","","","","","","NA"
"2013-03-26 19:00","2013","03","26","19:00","1.9","","-1.4","","79","","24","","9","","24.1","","100.05","","","","","","Mainly Clear"
"2013-03-26 20:00","2013","03","26","20:00","1.6","","-1.3","","81","","25","","8","","24.1","","100.09","","","","","","NA"
"2013-03-26 21:00","2013","03","26","21:00","1.9","","-1.5","","78","","25","","13","","24.1","","100.10","","","","","","NA"
"2013-03-26 22:00","2013","03","26","22:00","1.4","","-1.8","","79","","25","","12","","24.1","","100.06","","","","","","Mostly Cloudy"
"2013-03-26 23:00","2013","03","26","23:00"
"2013-03-27 00:00","2013","03","27","00:00"
"2013-03-27 01:00","2013","03","27","01:00"
"2013-03-27 02:00","2013","03","27","02:00"
"2013-03-27 03:00","2013","03","27","03:00"
"2013-03-27 04:00","2013","03","27","04:00"
"2013-03-27 05:00","2013","03","27","05:00","-1.1","","-4.0","","81","","29","","11","","24.1","","100.00","","","","-5","","NA"
"2013-03-27 06:00","2013","03","27","06:00","-1.2","","-4.1","","81","","26","","7","","24.1","","100.07","","","","-4","","NA"
"2013-03-27 07:00","2013","03","27","07:00","-0.9","","-4.1","","79","","26","","3","","24.1","","100.14","","","","-2","","Mostly Cloudy"
"2013-03-27 08:00","2013","03","27","08:00","0.7","","-4.0","","71","","29","","10","","24.1","","100.20","","","","","","NA"
"2013-03-27 09:00","2013","03","27","09:00","3.0","","-3.6","","62","","30","","9","","24.1","","100.21","","","","","","NA"
"2013-03-27 10:00","2013","03","27","10:00","5.3","","-2.8","","56","","35","","10","","24.1","","100.22","","","","","","Mostly Cloudy"
"2013-03-27 11:00","2013","03","27","11:00","6.1","","-1.3","","59","","22","","14","","24.1","","100.25","","","","","","NA"
"2013-03-27 12:00","2013","03","27","12:00","4.4","","-1.4","","66","","27","","3","","24.1","","100.27","","","","","","NA"
"2013-03-27 13:00","2013","03","27","13:00","6.7","","0.8","","66","","21","","17","","24.1","","100.24","","","","","","Mostly Cloudy"
"2013-03-27 14:00","2013","03","27","14:00","3.9","","-0.7","","72","","19","","19","","24.1","","100.23","","","","","","NA"
"2013-03-27 15:00","2013","03","27","15:00","6.6","","0.1","","63","","23","","9","","24.1","","100.26","","","","","","NA"
"2013-03-27 16:00","2013","03","27","16:00","6.9","","-1.0","","57","","24","","9","","24.1","","100.27","","","","","","Cloudy"
"2013-03-27 17:00","2013","03","27","17:00","4.9","","-0.1","","70","","26","","9","","19.3","","100.33","","","","","","Rain Showers"
"2013-03-27 18:00","2013","03","27","18:00","3.5","","-0.5","","75","","24","","10","","24.1","","100.37","","","","","","NA"
"2013-03-27 19:00","2013","03","27","19:00","4.3","","-1.1","","68","","35","","5","","24.1","","100.44","","","","","","Mostly Cloudy"
"2013-03-27 20:00","2013","03","27","20:00","4.1","","-1.5","","67","","30","","7","","24.1","","100.46","","","","","","NA"
"2013-03-27 21:00","2013","03","27","21:00","2.6","","-0.7","","79","","24","","10","","24.1","","100.48","","","","","","NA"
"2013-03-27 22:00","2013","03","27","22:00","1.8","","-1.1","","81","","27","","7","","24.1","","100.49","","","","","","Cloudy"
"2013-03-27 23:00","2013","03","27","23:00"
"2013-03-28 00:00","2013","03","28","00:00"
"2013-03-28 01:00","2013","03","28","01:00"
"2013-03-28 02:00","2013","03","28","02:00"
"2013-03-28 03:00","2013","03","28","03:00"
"2013-03-28 04:00","2013","03","28","04:00"
"2013-03-28 05:00","2013","03","28","05:00","2.0","","-1.3","","79","","31","","12","","24.1","","100.53","","","","","","NA"
"2013-03-28 06:00","2013","03","28","06:00","1.9","","-1.2","","80","","29","","10","","24.1","","100.58","","","","","","NA"
"2013-03-28 07:00","2013","03","28","07:00","2.3","","-1.0","","79","","28","","8","","24.1","","100.65","","","","","","Mostly Cloudy"
"2013-03-28 08:00","2013","03","28","08:00","3.3","","-0.3","","77","","31","","9","","24.1","","100.69","","","","","","NA"
"2013-03-28 09:00","2013","03","28","09:00","4.3","","0.1","","74","","32","","13","","24.1","","100.72","","","","","","NA"
"2013-03-28 10:00","2013","03","28","10:00","6.5","","1.6","","71","","28","","12","","24.1","","100.75","","","","","","Mostly Cloudy"
"2013-03-28 11:00","2013","03","28","11:00","6.7","","1.0","","67","","24","","16","","24.1","","100.75","","","","","","NA"
"2013-03-28 12:00","2013","03","28","12:00","7.5","","1.6","","66","","22","","15","","24.1","","100.73","","","","","","NA"
"2013-03-28 13:00","2013","03","28","13:00","6.6","","0.9","","67","","23","","16","","24.1","","100.73","","","","","","Mostly Cloudy"
"2013-03-28 14:00","2013","03","28","14:00","7.1","","0.8","","64","","24","","13","","24.1","","100.73","","","","","","NA"
"2013-03-28 15:00","2013","03","28","15:00","8.9","","-0.4","","52","","30","","10","","24.1","","100.71","","","","","","NA"
"2013-03-28 16:00","2013","03","28","16:00","7.7","","-0.5","","56","","23","","13","","24.1","","100.72","","","","","","Cloudy"
"2013-03-28 17:00","2013","03","28","17:00","7.9","","-0.8","","54","","27","","16","","24.1","","100.75","","","","","","NA"
"2013-03-28 18:00","2013","03","28","18:00","6.9","","-0.1","","61","","26","","11","","24.1","","100.80","","","","","","NA"
"2013-03-28 19:00","2013","03","28","19:00","6.4","","-0.6","","61","","26","","10","","24.1","","100.85","","","","","","Cloudy"
"2013-03-28 20:00","2013","03","28","20:00","4.4","","-0.4","","71","","23","","13","","24.1","","100.90","","","","","","NA"
"2013-03-28 21:00","2013","03","28","21:00","4.7","","-1.1","","66","","25","","12","","24.1","","100.93","","","","","","NA"
"2013-03-28 22:00","2013","03","28","22:00","4.3","","-1.1","","68","","26","","14","","24.1","","100.93","","","","","","Cloudy"
"2013-03-28 23:00","2013","03","28","23:00"
"2013-03-29 00:00","2013","03","29","00:00"
"2013-03-29 01:00","2013","03","29","01:00"
"2013-03-29 02:00","2013","03","29","02:00"
"2013-03-29 03:00","2013","03","29","03:00"
"2013-03-29 04:00","2013","03","29","04:00"
"2013-03-29 05:00","2013","03","29","05:00","2.0","","-1.8","","76","","29","","13","","24.1","","100.95","","","","","","NA"
"2013-03-29 06:00","2013","03","29","06:00","1.7","","-1.6","","79","","29","","9","","24.1","","100.97","","","","","","NA"
"2013-03-29 07:00","2013","03","29","07:00","1.8","","-1.6","","78","","28","","12","","24.1","","101.01","","","","","","Cloudy"
"2013-03-29 08:00","2013","03","29","08:00","2.7","","-1.5","","74","","30","","8","","24.1","","101.02","","","","","","NA"
"2013-03-29 09:00","2013","03","29","09:00","4.9","","-1.1","","65","","31","","11","","24.1","","101.00","","","","","","NA"
"2013-03-29 10:00","2013","03","29","10:00","5.2","","0.2","","70","","25","","9","","24.1","","101.02","","","","","","Mostly Cloudy"
"2013-03-29 11:00","2013","03","29","11:00","6.5","","0.2","","64","","23","","14","","24.1","","101.00","","","","","","NA"
"2013-03-29 12:00","2013","03","29","12:00","6.8","","-0.2","","61","","29","","20","","24.1","","100.96","","","","","","NA"
"2013-03-29 13:00","2013","03","29","13:00","7.1","","-0.4","","59","","26","","8","","24.1","","100.93","","","","","","Cloudy"
"2013-03-29 14:00","2013","03","29","14:00","4.2","","0.2","","75","","17","","12","","24.1","","100.89","","","","","","NA"
"2013-03-29 15:00","2013","03","29","15:00","7.4","","0.2","","60","","31","","13","","24.1","","100.84","","","","","","NA"
"2013-03-29 16:00","2013","03","29","16:00","6.9","","0.4","","63","","25","","13","","24.1","","100.83","","","","","","Mostly Cloudy"
"2013-03-29 17:00","2013","03","29","17:00","6.4","","0.7","","67","","24","","13","","24.1","","100.83","","","","","","NA"
"2013-03-29 18:00","2013","03","29","18:00","5.7","","0.3","","68","","23","","13","","24.1","","100.84","","","","","","NA"
"2013-03-29 19:00","2013","03","29","19:00","3.7","","0.1","","77","","23","","12","","24.1","","100.84","","","","","","Mainly Clear"
"2013-03-29 20:00","2013","03","29","20:00","2.8","","-0.5","","79","","24","","12","","24.1","","100.88","","","","","","NA"
"2013-03-29 21:00","2013","03","29","21:00","2.7","","-0.8","","78","","25","","12","","24.1","","100.91","","","","","","NA"
"2013-03-29 22:00","2013","03","29","22:00","1.9","","-0.9","","82","","26","","10","","24.1","","100.91","","","","","","Mainly Clear"
"2013-03-29 23:00","2013","03","29","23:00"
"2013-03-30 00:00","2013","03","30","00:00"
"2013-03-30 01:00","2013","03","30","01:00"
"2013-03-30 02:00","2013","03","30","02:00"
"2013-03-30 03:00","2013","03","30","03:00"
"2013-03-30 04:00","2013","03","30","04:00"
"2013-03-30 05:00","2013","03","30","05:00","-1.7","","-6.7","","69","","33","","15","","24.1","","100.96","","","","-7","","NA"
"2013-03-30 06:00","2013","03","30","06:00","-2.3","","-6.7","","72","","34","","14","","24.1","","101.01","","","","-7","","NA"
"2013-03-30 07:00","2013","03","30","07:00","-0.6","","-5.8","","68","","35","","4","","24.1","","101.06","","","","-2","","Clear"
"2013-03-30 08:00","2013","03","30","08:00","1.7","","-5.3","","60","","18","","3","","24.1","","101.08","","","","","","NA"
"2013-03-30 09:00","2013","03","30","09:00","3.1","","-5.6","","53","","16","","8","","24.1","","101.09","","","","","","NA"
"2013-03-30 10:00","2013","03","30","10:00","4.0","","-6.0","","48","","16","","10","","24.1","","101.09","","","","","","Clear"
"2013-03-30 11:00","2013","03","30","11:00","5.3","","-3.3","","54","","17","","14","","24.1","","101.07","","","","","","NA"
"2013-03-30 12:00","2013","03","30","12:00","4.5","","-2.8","","59","","17","","17","","24.1","","101.00","","","","","","NA"
"2013-03-30 13:00","2013","03","30","13:00","4.8","","-1.9","","62","","18","","23","","24.1","","100.95","","","","","","Mainly Clear"
"2013-03-30 14:00","2013","03","30","14:00","5.5","","1.8","","77","","19","","19","","24.1","","100.87","","","","","","NA"
"2013-03-30 15:00","2013","03","30","15:00","7.1","","-0.4","","59","","19","","27","","24.1","","100.84","","","","","","NA"
"2013-03-30 16:00","2013","03","30","16:00","8.2","","-0.3","","55","","20","","22","","24.1","","100.81","","","","","","Mainly Clear"
"2013-03-30 17:00","2013","03","30","17:00","7.6","","-3.3","","46","","22","","22","","24.1","","100.81","","","","","","NA"
"2013-03-30 18:00","2013","03","30","18:00","5.4","","-3.2","","54","","20","","9","","24.1","","100.78","","","","","","NA"
"2013-03-30 19:00","2013","03","30","19:00","3.2","","-3.8","","60","","21","","16","","24.1","","100.76","","","","","","Mainly Clear"
"2013-03-30 20:00","2013","03","30","20:00","2.0","","-3.7","","66","","21","","11","","24.1","","100.76","","","","","","NA"
"2013-03-30 21:00","2013","03","30","21:00","0.3","","-3.1","","78","","15","","7","","24.1","","100.73","","","","","","NA"
"2013-03-30 22:00","2013","03","30","22:00","0.9","","-1.5","","84","","20","","9","","24.1","","100.71","","","","","","Mainly Clear"
"2013-03-30 23:00","2013","03","30","23:00"
"2013-03-31 00:00","2013","03","31","00:00"
"2013-03-31 01:00","2013","03","31","01:00"
"2013-03-31 02:00","2013","03","31","02:00"
"2013-03-31 03:00","2013","03","31","03:00"
"2013-03-31 04:00","2013","03","31","04:00"
"2013-03-31 05:00","2013","03","31","05:00","2.7","","-2.0","","71","","17","","13","","24.1","","100.27","","","","","","NA"
"2013-03-31 06:00","2013","03","31","06:00","2.8","","-1.8","","72","","17","","18","","24.1","","100.19","","","","","","NA"
"2013-03-31 07:00","2013","03","31","07:00","3.2","","-1.7","","70","","17","","26","","24.1","","100.13","","","","","","Cloudy"
"2013-03-31 08:00","2013","03","31","08:00","3.6","","-1.4","","70","","16","","26","","24.1","","100.07","","","","","","NA"
"2013-03-31 09:00","2013","03","31","09:00","4.1","","-1.3","","68","","16","","28","","24.1","","99.97","","","","","","NA"
"2013-03-31 10:00","2013","03","31","10:00","5.0","","-0.8","","66","","16","","24","","24.1","","99.88","","","","","","Mostly Cloudy"
"2013-03-31 11:00","2013","03","31","11:00","6.1","","0.0","","65","","16","","21","","24.1","","99.78","","","","","","NA"
"2013-03-31 12:00","2013","03","31","12:00","6.9","","0.8","","65","","16","","22","","24.1","","99.67","","","","","","NA"
"2013-03-31 13:00","2013","03","31","13:00","7.1","","1.0","","65","","16","","20","","24.1","","99.57","","","","","","Mostly Cloudy"
"2013-03-31 14:00","2013","03","31","14:00","6.8","","1.9","","71","","18","","15","","24.1","","99.48","","","","","","NA"
"2013-03-31 15:00","2013","03","31","15:00","5.9","","2.0","","76","","18","","14","","24.1","","99.44","","","","","","NA"
"2013-03-31 16:00","2013","03","31","16:00","6.9","","3.2","","77","","18","","41","","24.1","","99.41","","","","","","Rain"
"2013-03-31 17:00","2013","03","31","17:00","4.7","","3.8","","94","","16","","33","","12.9","","99.42","","","","","","Rain"
"2013-03-31 18:00","2013","03","31","18:00","4.1","","3.5","","96","","16","","30","","4.8","","99.41","","","","","","Rain,Fog"
"2013-03-31 19:00","2013","03","31","19:00","3.9","","3.5","","97","","18","","26","","8.1","","99.40","","","","","","Rain,Fog"
"2013-03-31 20:00","2013","03","31","20:00","3.8","","3.4","","97","","16","","21","","8.1","","99.37","","","","","","Rain,Fog"
"2013-03-31 21:00","2013","03","31","21:00","3.6","","3.3","","98","","15","","21","","2.4","","99.32","","","","","","Rain,Fog"
"2013-03-31 22:00","2013","03","31","22:00","3.7","","3.4","","98","","17","","21","","6.4","","99.25","","","","","","Fog"
"2013-03-31 23:00","2013","03","31","23:00"
