"Station Name","KILLARNEY (AUT)"
"Province","ONTARIO"
"Latitude","45.97"
"Longitude","-81.48"
"Elevation","196.30"
"Climate Identifier","605DJ25"
"WMO Identifier","71460"
"TC Identifier","WBE"
"All times are specified in Local Standard Time (LST). Add 1 hour to adjust for Daylight Saving Time where and when it is observed."

"Legend"
"E","Estimated"
"M","Missing"
"NA","Not Available"

"Date/Time","Year","Month","Day","Time","Temp (°C)","Temp Flag","Dew Point Temp (°C)","Dew Point Temp Flag","Rel Hum (%)","Rel Hum Flag","Wind Dir (10s deg)","Wind Dir Flag","Wind Spd (km/h)","Wind Spd Flag","Visibility (km)","Visibility Flag","Stn Press (kPa)","Stn Press Flag","Hmdx","Hmdx Flag","Wind Chill","Wind Chill Flag","Weather"
"2016-01-01 00:00","2016","01","01","00:00","-0.8","","-3.4","","82","","26","","29","","","","98.95","","","","-7","","NA"
"2016-01-01 01:00","2016","01","01","01:00","-0.6","","-4.1","","77","","26","","30","","","","98.90","","","","-7","","NA"
"2016-01-01 02:00","2016","01","01","02:00","-1.0","","-5.1","","73","","26","","28","","","","98.88","","","","-8","","NA"
"2016-01-01 03:00","2016","01","01","03:00","-1.1","","-5.2","","74","","27","","26","","","","98.87","","","","-7","","NA"
"2016-01-01 04:00","2016","01","01","04:00","-1.2","","-5.3","","74","","26","","27","","","","98.77","","","","-8","","NA"
"2016-01-01 05:00","2016","01","01","05:00","-2.5","","-4.8","","84","","31","","13","","","","98.75","","","","-7","","NA"
"2016-01-01 06:00","2016","01","01","06:00","-3.0","","-5.4","","83","","30","","19","","","","98.73","","","","-9","","NA"
"2016-01-01 07:00","2016","01","01","07:00","-3.8","","-5.5","","87","","32","","11","","","","98.73","","","","-8","","NA"
"2016-01-01 08:00","2016","01","01","08:00","-3.3","","-7.1","","75","","30","","25","","","","98.70","","","","-10","","NA"
"2016-01-01 09:00","2016","01","01","09:00","-3.0","","-7.3","","72","","29","","22","","","","98.73","","","","-9","","NA"
"2016-01-01 10:00","2016","01","01","10:00","-3.2","","-6.4","","78","","30","","15","","","","98.78","","","","-8","","NA"
"2016-01-01 11:00","2016","01","01","11:00","-2.9","","-5.5","","82","","30","","17","","","","98.80","","","","-8","","NA"
"2016-01-01 12:00","2016","01","01","12:00","-2.2","","-5.2","","80","","30","","19","","","","98.75","","","","-8","","NA"
"2016-01-01 13:00","2016","01","01","13:00","-1.9","","-5.4","","77","","29","","27","","","","98.71","","","","-9","","NA"
"2016-01-01 14:00","2016","01","01","14:00","-1.6","","-5.6","","74","","30","","26","","","","98.71","","","","-8","","NA"
"2016-01-01 15:00","2016","01","01","15:00","-1.6","","-5.6","","74","","28","","30","","","","98.71","","","","-9","","NA"
"2016-01-01 16:00","2016","01","01","16:00","-1.7","","-6.2","","71","","29","","30","","","","98.78","","","","-9","","NA"
"2016-01-01 17:00","2016","01","01","17:00","-1.7","","-6.0","","73","","29","","28","","","","98.85","","","","-8","","NA"
"2016-01-01 18:00","2016","01","01","18:00","-1.7","","-5.8","","74","","30","","19","","","","98.89","","","","-7","","NA"
"2016-01-01 19:00","2016","01","01","19:00","-1.4","","-5.3","","75","","29","","20","","","","98.93","","","","-7","","NA"
"2016-01-01 20:00","2016","01","01","20:00","-1.4","","-5.0","","76","","29","","19","","","","98.96","","","","-7","","NA"
"2016-01-01 21:00","2016","01","01","21:00","-1.2","","-4.8","","77","","30","","12","","","","98.96","","","","-5","","NA"
"2016-01-01 22:00","2016","01","01","22:00","-1.6","","-5.1","","77","","31","","9","","","","98.97","","","","-5","","NA"
"2016-01-01 23:00","2016","01","01","23:00","-0.9","","-5.4","","71","","27","","19","","","","98.97","","","","-6","","NA"
"2016-01-02 00:00","2016","01","02","00:00","-0.9","","-5.1","","73","","26","","27","","","","98.93","","","","-7","","NA"
"2016-01-02 01:00","2016","01","02","01:00","-1.1","","-5.7","","71","","27","","30","","","","98.91","","","","-8","","NA"
"2016-01-02 02:00","2016","01","02","02:00","-1.3","","-6.2","","69","","25","","22","","","","98.82","","","","-7","","NA"
"2016-01-02 03:00","2016","01","02","03:00","-1.3","","-5.8","","71","","23","","26","","","","98.80","","","","-8","","NA"
"2016-01-02 04:00","2016","01","02","04:00","-1.2","","-5.4","","73","","25","","17","","","","98.73","","","","-6","","NA"
"2016-01-02 05:00","2016","01","02","05:00","-0.7","","-4.2","","77","","26","","23","","","","98.69","","","","-7","","NA"
"2016-01-02 06:00","2016","01","02","06:00","-1.1","","-4.2","","79","","29","","27","","","","98.67","","","","-8","","NA"
"2016-01-02 07:00","2016","01","02","07:00","-1.0","","-4.7","","76","","29","","20","","","","98.66","","","","-7","","NA"
"2016-01-02 08:00","2016","01","02","08:00","-1.0","","-6.0","","69","","28","","34","","","","98.70","","","","-8","","NA"
"2016-01-02 09:00","2016","01","02","09:00","-1.1","","-5.5","","72","","28","","21","","","","98.71","","","","-7","","NA"
"2016-01-02 10:00","2016","01","02","10:00","-1.3","","-5.5","","73","","26","","23","","","","98.70","","","","-7","","NA"
"2016-01-02 11:00","2016","01","02","11:00","-1.1","","-4.8","","76","","26","","25","","","","98.67","","","","-7","","NA"
"2016-01-02 12:00","2016","01","02","12:00","-1.0","","-4.3","","78","","27","","26","","","","98.58","","","","-7","","NA"
"2016-01-02 13:00","2016","01","02","13:00","-0.5","","-4.2","","76","","28","","27","","","","98.48","","","","-7","","NA"
"2016-01-02 14:00","2016","01","02","14:00","-0.3","","-4.0","","76","","27","","27","","","","98.39","","","","-7","","NA"
"2016-01-02 15:00","2016","01","02","15:00","-0.4","","-4.0","","76","","27","","26","","","","98.34","","","","-7","","NA"
"2016-01-02 16:00","2016","01","02","16:00","-0.1","","-3.6","","77","","26","","16","","","","98.31","","","","-5","","NA"
"2016-01-02 17:00","2016","01","02","17:00","-0.2","","-3.7","","78","","24","","26","","","","98.21","","","","-6","","NA"
"2016-01-02 18:00","2016","01","02","18:00","-0.5","","-3.9","","77","","23","","31","","","","98.13","","","","-7","","NA"
"2016-01-02 19:00","2016","01","02","19:00","-0.1","","-3.3","","78","","25","","13","","","","98.12","","","","-4","","NA"
"2016-01-02 20:00","2016","01","02","20:00","0.5","","-2.9","","78","","22","","12","","","","98.00","","","","","","NA"
"2016-01-02 21:00","2016","01","02","21:00","0.0","","-3.3","","79","","34","","3","","","","97.92","","","","-1","","NA"
"2016-01-02 22:00","2016","01","02","22:00","0.1","","-3.0","","80","","35","","5","","","","97.82","","","","","","NA"
"2016-01-02 23:00","2016","01","02","23:00","1.3","","-2.7","","75","","25","","11","","","","97.76","","","","","","NA"
"2016-01-03 00:00","2016","01","03","00:00","1.2","","-2.7","","75","","30","","16","","","","97.75","","","","","","NA"
"2016-01-03 01:00","2016","01","03","01:00","0.4","","-3.6","","75","","31","","23","","","","97.76","","","","","","NA"
"2016-01-03 02:00","2016","01","03","02:00","0.0","","-2.9","","81","","31","","19","","","","97.83","","","","-5","","NA"
"2016-01-03 03:00","2016","01","03","03:00","-0.3","","-2.7","","84","","31","","19","","","","97.97","","","","-5","","NA"
"2016-01-03 04:00","2016","01","03","04:00","-1.2","","-3.9","","82","","34","","19","","","","98.05","","","","-7","","NA"
"2016-01-03 05:00","2016","01","03","05:00","-3.7","","-8.6","","68","","1","","21","","","","98.21","","","","-10","","NA"
"2016-01-03 06:00","2016","01","03","06:00","-4.2","","-9.3","","68","","1","","22","","","","98.37","","","","-11","","NA"
"2016-01-03 07:00","2016","01","03","07:00","-5.0","","-10.4","","66","","36","","22","","","","98.55","","","","-12","","NA"
"2016-01-03 08:00","2016","01","03","08:00","-6.5","","-12.6","","62","","1","","24","","","","98.72","","","","-14","","NA"
"2016-01-03 09:00","2016","01","03","09:00","-7.8","","-13.3","","65","","36","","17","","","","98.90","","","","-14","","NA"
"2016-01-03 10:00","2016","01","03","10:00","-9.0","","-15.7","","58","","1","","22","","","","99.01","","","","-17","","NA"
"2016-01-03 11:00","2016","01","03","11:00","-9.0","","-16.4","","55","","1","","16","","","","99.12","","","","-16","","NA"
"2016-01-03 12:00","2016","01","03","12:00","-8.9","","-16.4","","55","","36","","16","","","","99.14","","","","-16","","NA"
"2016-01-03 13:00","2016","01","03","13:00","-9.5","","-18.2","","49","","35","","15","","","","99.18","","","","-16","","NA"
"2016-01-03 14:00","2016","01","03","14:00","-9.5","","-18.1","","49","","34","","18","","","","99.24","","","","-17","","NA"
"2016-01-03 15:00","2016","01","03","15:00","-8.8","","-17.6","","49","","35","","14","","","","99.30","","","","-15","","NA"
"2016-01-03 16:00","2016","01","03","16:00","-9.4","","-17.9","","50","","36","","14","","","","99.39","","","","-16","","NA"
"2016-01-03 17:00","2016","01","03","17:00","-10.3","","-17.9","","54","","36","","10","","","","99.48","","","","-16","","NA"
"2016-01-03 18:00","2016","01","03","18:00","-11.1","","-17.8","","58","","2","","9","","","","99.59","","","","-16","","NA"
"2016-01-03 19:00","2016","01","03","19:00","-11.3","","-17.6","","60","","2","","10","","","","99.65","","","","-17","","NA"
"2016-01-03 20:00","2016","01","03","20:00","-11.7","","-18.0","","59","","2","","9","","","","99.75","","","","-17","","NA"
"2016-01-03 21:00","2016","01","03","21:00","-12.4","","-18.7","","59","","2","","17","","","","99.78","","","","-20","","NA"
"2016-01-03 22:00","2016","01","03","22:00","-13.1","","-19.6","","58","","2","","13","","","","99.87","","","","-20","","NA"
"2016-01-03 23:00","2016","01","03","23:00","-13.9","","-20.4","","58","","3","","12","","","","99.96","","","","-21","","NA"
"2016-01-04 00:00","2016","01","04","00:00","-15.0","","-20.9","","61","","4","","15","","","","100.02","","","","-23","","NA"
"2016-01-04 01:00","2016","01","04","01:00","-15.9","","-21.2","","64","","3","","10","","","","100.07","","","","-22","","NA"
"2016-01-04 02:00","2016","01","04","02:00","-16.4","","-21.4","","65","","3","","11","","","","100.15","","","","-23","","NA"
"2016-01-04 03:00","2016","01","04","03:00","-16.9","","-21.1","","70","","36","","8","","","","100.26","","","","-23","","NA"
"2016-01-04 04:00","2016","01","04","04:00","-17.2","","-22.2","","65","","3","","12","","","","100.36","","","","-25","","NA"
"2016-01-04 05:00","2016","01","04","05:00","-17.8","","-22.5","","67","","3","","9","","","","100.44","","","","-24","","NA"
"2016-01-04 06:00","2016","01","04","06:00","-18.5","","-22.5","","71","","2","","9","","","","100.57","","","","-25","","NA"
"2016-01-04 07:00","2016","01","04","07:00","-18.9","","-23.0","","70","","2","","8","","","","100.66","","","","-25","","NA"
"2016-01-04 08:00","2016","01","04","08:00","-19.1","","-23.2","","70","","4","","7","","","","100.81","","","","-25","","NA"
"2016-01-04 09:00","2016","01","04","09:00","-18.7","","-23.0","","69","","2","","5","","","","100.90","","","","-23","","NA"
"2016-01-04 10:00","2016","01","04","10:00","-17.9","","-22.8","","65","","2","","13","","","","100.96","","","","-26","","NA"
"2016-01-04 11:00","2016","01","04","11:00","-16.5","","-22.5","","60","","3","","13","","","","101.08","","","","-24","","NA"
"2016-01-04 12:00","2016","01","04","12:00","-15.2","","-22.5","","54","","1","","10","","","","101.06","","","","-21","","NA"
"2016-01-04 13:00","2016","01","04","13:00","-14.3","","-22.2","","51","","36","","10","","","","101.03","","","","-20","","NA"
"2016-01-04 14:00","2016","01","04","14:00","-13.8","","-22.1","","50","","5","","9","","","","101.01","","","","-19","","NA"
"2016-01-04 15:00","2016","01","04","15:00","-12.5","","-21.4","","47","","29","","4","","","","101.02","","","","-15","","NA"
"2016-01-04 16:00","2016","01","04","16:00","-12.5","","-20.9","","50","","32","","6","","","","101.08","","","","-16","","NA"
"2016-01-04 17:00","2016","01","04","17:00","-13.9","","-22.0","","51","","1","","5","","","","101.11","","","","-17","","NA"
"2016-01-04 18:00","2016","01","04","18:00","-14.2","","-21.9","","52","","2","","6","","","","101.13","","","","-18","","NA"
"2016-01-04 19:00","2016","01","04","19:00","-14.0","","-21.6","","53","","4","","4","","","","101.16","","","","-17","","NA"
"2016-01-04 20:00","2016","01","04","20:00","-15.5","","-22.0","","57","","4","","10","","","","101.18","","","","-22","","NA"
"2016-01-04 21:00","2016","01","04","21:00","-14.8","","-21.5","","57","","5","","9","","","","101.22","","","","-21","","NA"
"2016-01-04 22:00","2016","01","04","22:00","-15.7","","-20.3","","68","","4","","9","","","","101.20","","","","-22","","NA"
"2016-01-04 23:00","2016","01","04","23:00","-14.3","","-18.6","","70","","3","","7","","","","101.15","","","","-19","","NA"
"2016-01-05 00:00","2016","01","05","00:00","-11.2","","-14.7","","75","","25","","11","","","","101.06","","","","-17","","NA"
"2016-01-05 01:00","2016","01","05","01:00","-10.0","","-13.5","","76","","26","","13","","","","101.02","","","","-16","","NA"
"2016-01-05 02:00","2016","01","05","02:00","-8.5","","-11.7","","78","","23","","26","","","","101.00","","","","-17","","NA"
"2016-01-05 03:00","2016","01","05","03:00","-6.7","","-10.1","","76","","23","","30","","","","101.01","","","","-15","","NA"
"2016-01-05 04:00","2016","01","05","04:00","-5.9","","-9.5","","75","","25","","25","","","","100.93","","","","-13","","NA"
"2016-01-05 05:00","2016","01","05","05:00","-5.4","","-9.3","","74","","25","","23","","","","100.88","","","","-13","","NA"
"2016-01-05 06:00","2016","01","05","06:00","-4.6","","-9.3","","70","","25","","27","","","","100.84","","","","-12","","NA"
"2016-01-05 07:00","2016","01","05","07:00","-4.7","","-9.5","","69","","25","","27","","","","100.85","","","","-12","","NA"
"2016-01-05 08:00","2016","01","05","08:00","-4.6","","-9.1","","70","","25","","32","","","","100.84","","","","-13","","NA"
"2016-01-05 09:00","2016","01","05","09:00","-4.4","","-9.3","","69","","25","","36","","","","100.82","","","","-13","","NA"
"2016-01-05 10:00","2016","01","05","10:00","-3.8","","-8.5","","70","","26","","32","","","","100.83","","","","-12","","NA"
"2016-01-05 11:00","2016","01","05","11:00","-3.3","","-8.0","","70","","26","","33","","","","100.81","","","","-11","","NA"
"2016-01-05 12:00","2016","01","05","12:00","-3.0","","-7.8","","70","","24","","36","","","","100.70","","","","-11","","NA"
"2016-01-05 13:00","2016","01","05","13:00","-2.7","","-8.1","","66","","23","","45","","","","100.55","","","","-11","","NA"
"2016-01-05 14:00","2016","01","05","14:00","-2.2","","-6.0","","75","","24","","37","","","","100.47","","","","-10","","NA"
"2016-01-05 15:00","2016","01","05","15:00","-2.0","","-6.0","","74","","24","","40","","","","100.42","","","","-10","","NA"
"2016-01-05 16:00","2016","01","05","16:00","-1.9","","-5.9","","74","","24","","41","","","","100.43","","","","-10","","NA"
"2016-01-05 17:00","2016","01","05","17:00","-1.7","","-6.9","","67","","23","","48","","","","100.37","","","","-10","","NA"
"2016-01-05 18:00","2016","01","05","18:00","-1.8","","-6.6","","70","","23","","43","","","","100.31","","","","-10","","NA"
"2016-01-05 19:00","2016","01","05","19:00","-1.5","","-6.3","","70","","24","","36","","","","100.26","","","","-9","","NA"
"2016-01-05 20:00","2016","01","05","20:00","-1.5","","-6.3","","70","","25","","31","","","","100.24","","","","-9","","NA"
"2016-01-05 21:00","2016","01","05","21:00","-1.2","","-5.9","","70","","25","","33","","","","100.19","","","","-8","","NA"
"2016-01-05 22:00","2016","01","05","22:00","-0.9","","-5.6","","71","","24","","34","","","","100.17","","","","-8","","NA"
"2016-01-05 23:00","2016","01","05","23:00","-0.8","","-5.4","","71","","25","","35","","","","100.17","","","","-8","","NA"
"2016-01-06 00:00","2016","01","06","00:00","-0.7","","-5.5","","70","","25","","30","","","","100.17","","","","-7","","NA"
"2016-01-06 01:00","2016","01","06","01:00","-0.8","","-5.1","","73","","24","","30","","","","100.13","","","","-8","","NA"
"2016-01-06 02:00","2016","01","06","02:00","-0.5","","-4.7","","73","","25","","28","","","","100.11","","","","-7","","NA"
"2016-01-06 03:00","2016","01","06","03:00","-0.2","","-4.2","","75","","25","","25","","","","100.10","","","","-6","","NA"
"2016-01-06 04:00","2016","01","06","04:00","0.0","","-3.9","","75","","25","","24","","","","100.06","","","","-6","","NA"
"2016-01-06 05:00","2016","01","06","05:00","0.2","","-3.5","","76","","24","","32","","","","100.00","","","","","","NA"
"2016-01-06 06:00","2016","01","06","06:00","0.5","","-3.0","","77","","24","","33","","","","99.99","","","","","","NA"
"2016-01-06 07:00","2016","01","06","07:00","0.4","","-2.9","","79","","24","","29","","","","100.01","","","","","","NA"
"2016-01-06 08:00","2016","01","06","08:00","0.4","","-2.9","","79","","24","","28","","","","100.01","","","","","","NA"
"2016-01-06 09:00","2016","01","06","09:00","0.5","","-2.8","","79","","24","","33","","","","100.01","","","","","","NA"
"2016-01-06 10:00","2016","01","06","10:00","0.5","","-2.8","","79","","24","","33","","","","100.00","","","","","","NA"
"2016-01-06 11:00","2016","01","06","11:00","1.0","","-2.5","","78","","24","","30","","","","100.00","","","","","","NA"
"2016-01-06 12:00","2016","01","06","12:00","1.3","","-2.7","","75","","22","","32","","","","99.93","","","","","","NA"
"2016-01-06 13:00","2016","01","06","13:00","1.7","","-2.9","","72","","24","","26","","","","99.89","","","","","","NA"
"2016-01-06 14:00","2016","01","06","14:00","1.5","","-2.5","","75","","24","","27","","","","99.85","","","","","","NA"
"2016-01-06 15:00","2016","01","06","15:00","1.5","","-2.7","","74","","23","","25","","","","99.84","","","","","","NA"
"2016-01-06 16:00","2016","01","06","16:00","1.5","","-2.6","","74","","22","","33","","","","99.84","","","","","","NA"
"2016-01-06 17:00","2016","01","06","17:00","1.6","","-2.6","","74","","22","","34","","","","99.86","","","","","","NA"
"2016-01-06 18:00","2016","01","06","18:00","1.5","","-2.2","","77","","22","","32","","","","99.88","","","","","","NA"
"2016-01-06 19:00","2016","01","06","19:00","1.7","","-1.9","","77","","22","","34","","","","99.89","","","","","","NA"
"2016-01-06 20:00","2016","01","06","20:00","1.9","","-1.8","","77","","21","","35","","","","99.90","","","","","","NA"
"2016-01-06 21:00","2016","01","06","21:00","1.8","","-1.7","","78","","22","","27","","","","99.91","","","","","","NA"
"2016-01-06 22:00","2016","01","06","22:00","1.6","","-1.4","","80","","24","","14","","","","99.90","","","","","","NA"
"2016-01-06 23:00","2016","01","06","23:00","1.9","","-1.2","","80","","24","","15","","","","99.89","","","","","","NA"
"2016-01-07 00:00","2016","01","07","00:00","1.8","","-1.7","","78","","25","","11","","","","99.90","","","","","","NA"
"2016-01-07 01:00","2016","01","07","01:00","1.5","","-1.9","","78","","26","","8","","","","99.89","","","","","","NA"
"2016-01-07 02:00","2016","01","07","02:00","1.7","","-1.7","","79","","25","","5","","","","99.86","","","","","","NA"
"2016-01-07 03:00","2016","01","07","03:00","1.6","","-1.7","","79","","28","","4","","","","99.89","","","","","","NA"
"2016-01-07 04:00","2016","01","07","04:00","1.3","","-1.9","","79","","5","","6","","","","99.81","","","","","","NA"
"2016-01-07 05:00","2016","01","07","05:00","1.8","","-1.3","","80","","21","","2","","","","99.85","","","","","","NA"
"2016-01-07 06:00","2016","01","07","06:00","1.5","","-1.4","","81","","0","","1","","","","99.83","","","","","","NA"
"2016-01-07 07:00","2016","01","07","07:00","1.2","","-1.1","","85","","8","","7","","","","99.84","","","","","","NA"
"2016-01-07 08:00","2016","01","07","08:00","1.0","","-1.7","","82","","33","","4","","","","99.86","","","","","","NA"
"2016-01-07 09:00","2016","01","07","09:00","1.6","","-1.2","","82","","32","","2","","","","99.85","","","","","","NA"
"2016-01-07 10:00","2016","01","07","10:00","1.6","","-0.9","","84","","8","","5","","","","99.87","","","","","","NA"
"2016-01-07 11:00","2016","01","07","11:00","2.7","","-1.5","","74","","20","","10","","","","99.85","","","","","","NA"
"2016-01-07 12:00","2016","01","07","12:00","3.0","","-1.4","","73","","19","","13","","","","99.80","","","","","","NA"
"2016-01-07 13:00","2016","01","07","13:00","3.2","","-0.9","","75","","19","","15","","","","99.76","","","","","","NA"
"2016-01-07 14:00","2016","01","07","14:00","3.0","","-0.7","","77","","23","","11","","","","99.75","","","","","","NA"
"2016-01-07 15:00","2016","01","07","15:00","3.1","","-1.5","","72","","22","","4","","","","99.72","","","","","","NA"
"2016-01-07 16:00","2016","01","07","16:00","3.0","","-1.0","","75","","22","","3","","","","99.72","","","","","","NA"
"2016-01-07 17:00","2016","01","07","17:00","2.9","","-0.5","","78","","22","","1","","","","99.73","","","","","","NA"
"2016-01-07 18:00","2016","01","07","18:00","2.8","","-0.6","","79","","19","","2","","","","99.72","","","","","","NA"
"2016-01-07 19:00","2016","01","07","19:00","3.3","","0.3","","80","","19","","14","","","","99.76","","","","","","NA"
"2016-01-07 20:00","2016","01","07","20:00","3.5","","-0.1","","78","","20","","16","","","","99.80","","","","","","NA"
"2016-01-07 21:00","2016","01","07","21:00","3.4","","-0.2","","77","","22","","13","","","","99.79","","","","","","NA"
"2016-01-07 22:00","2016","01","07","22:00","2.9","","-0.4","","79","","29","","3","","","","99.77","","","","","","NA"
"2016-01-07 23:00","2016","01","07","23:00","3.2","","0.7","","84","","18","","7","","","","99.71","","","","","","NA"
"2016-01-08 00:00","2016","01","08","00:00","3.5","","0.6","","81","","16","","16","","","","99.67","","","","","","NA"
"2016-01-08 01:00","2016","01","08","01:00","3.5","","-0.3","","76","","15","","16","","","","99.61","","","","","","NA"
"2016-01-08 02:00","2016","01","08","02:00","3.6","","-1.4","","70","","14","","21","","","","99.55","","","","","","NA"
"2016-01-08 03:00","2016","01","08","03:00","3.6","","-1.5","","69","","14","","23","","","","99.60","","","","","","NA"
"2016-01-08 04:00","2016","01","08","04:00","3.3","","1.0","","85","","13","","24","","","","99.54","","","","","","NA"
"2016-01-08 05:00","2016","01","08","05:00","3.4","","0.5","","82","","14","","21","","","","99.52","","","","","","NA"
"2016-01-08 06:00","2016","01","08","06:00","3.5","","-0.6","","74","","16","","14","","","","99.52","","","","","","NA"
"2016-01-08 07:00","2016","01","08","07:00","1.4","","-0.7","","86","","6","","6","","","","99.51","","","","","","NA"
"2016-01-08 08:00","2016","01","08","08:00","3.4","","-0.6","","75","","15","","14","","","","99.50","","","","","","NA"
"2016-01-08 09:00","2016","01","08","09:00","1.4","","-0.3","","89","","8","","22","","","","99.44","","","","","","NA"
"2016-01-08 10:00","2016","01","08","10:00","1.4","","-0.1","","90","","10","","32","","","","99.41","","","","","","NA"
"2016-01-08 11:00","2016","01","08","11:00","2.3","","0.0","","85","","13","","34","","","","99.38","","","","","","NA"
"2016-01-08 12:00","2016","01","08","12:00","1.9","","-0.3","","85","","12","","30","","","","99.30","","","","","","NA"
"2016-01-08 13:00","2016","01","08","13:00","2.1","","-0.1","","86","","12","","28","","","","99.22","","","","","","NA"
"2016-01-08 14:00","2016","01","08","14:00","2.5","","0.0","","84","","13","","30","","","","99.16","","","","","","NA"
"2016-01-08 15:00","2016","01","08","15:00","2.5","","-0.1","","83","","12","","28","","","","99.07","","","","","","NA"
"2016-01-08 16:00","2016","01","08","16:00","2.1","","-0.9","","81","","12","","28","","","","99.01","","","","","","NA"
"2016-01-08 17:00","2016","01","08","17:00","2.3","","-2.2","","72","","13","","31","","","","98.98","","","","","","NA"
"2016-01-08 18:00","2016","01","08","18:00","2.8","","-3.2","","65","","13","","33","","","","98.95","","","","","","NA"
"2016-01-08 19:00","2016","01","08","19:00"
"2016-01-08 20:00","2016","01","08","20:00","1.0","","-3.4","","72","","6","","12","","","","98.86","","","","","","NA"
"2016-01-08 21:00","2016","01","08","21:00","0.5","","-3.4","","75","","7","","11","","","","98.81","","","","","","NA"
"2016-01-08 22:00","2016","01","08","22:00","3.0","","-1.0","","75","","13","","30","","","","98.73","","","","","","NA"
"2016-01-08 23:00","2016","01","08","23:00","3.0","","-0.5","","78","","13","","35","","","","98.67","","","","","","NA"
"2016-01-09 00:00","2016","01","09","00:00","3.1","","0.2","","81","","14","","33","","","","98.64","","","","","","NA"
"2016-01-09 01:00","2016","01","09","01:00","3.4","","-0.1","","78","","15","","33","","","","98.58","","","","","","NA"
"2016-01-09 02:00","2016","01","09","02:00","1.7","","0.1","","89","","15","","23","","","","98.54","","","","","","NA"
"2016-01-09 03:00","2016","01","09","03:00","1.5","","0.3","","92","","13","","24","","","","98.49","","","","","","NA"
"2016-01-09 04:00","2016","01","09","04:00","2.1","","0.6","","90","","13","","25","","","","98.42","","","","","","NA"
"2016-01-09 05:00","2016","01","09","05:00","1.8","","0.8","","93","","11","","25","","","","98.36","","","","","","NA"
"2016-01-09 06:00","2016","01","09","06:00","0.9","","0.1","","95","","8","","20","","","","98.32","","","","","","NA"
"2016-01-09 07:00","2016","01","09","07:00","1.4","","0.7","","95","","9","","21","","","","98.31","","","","","","NA"
"2016-01-09 08:00","2016","01","09","08:00","1.5","","0.8","","95","","7","","14","","","","98.32","","","","","","NA"
"2016-01-09 09:00","2016","01","09","09:00","4.1","","3.3","","95","","18","","19","","","","98.35","","","","","","NA"
"2016-01-09 10:00","2016","01","09","10:00","4.0","","3.2","","95","","24","","8","","","","98.35","","","","","","NA"
"2016-01-09 11:00","2016","01","09","11:00","4.0","","3.2","","95","","24","","14","","","","98.38","","","","","","NA"
"2016-01-09 12:00","2016","01","09","12:00","3.7","","3.0","","95","","27","","13","","","","98.36","","","","","","NA"
"2016-01-09 13:00","2016","01","09","13:00","3.6","","2.6","","93","","24","","16","","","","98.41","","","","","","NA"
"2016-01-09 14:00","2016","01","09","14:00","3.5","","2.3","","92","","26","","13","","","","98.43","","","","","","NA"
"2016-01-09 15:00","2016","01","09","15:00","3.5","","2.3","","92","","24","","12","","","","98.46","","","","","","NA"
"2016-01-09 16:00","2016","01","09","16:00","3.5","","2.2","","92","","24","","10","","","","98.53","","","","","","NA"
"2016-01-09 17:00","2016","01","09","17:00","3.4","","2.2","","92","","25","","13","","","","98.60","","","","","","NA"
"2016-01-09 18:00","2016","01","09","18:00","3.0","","1.9","","93","","24","","2","","","","98.60","","","","","","NA"
"2016-01-09 19:00","2016","01","09","19:00","3.3","","2.3","","93","","27","","2","","","","98.60","","","","","","NA"
"2016-01-09 20:00","2016","01","09","20:00","3.3","","2.4","","94","","16","","3","","","","98.59","","","","","","NA"
"2016-01-09 21:00","2016","01","09","21:00","3.0","","2.1","","94","","7","","7","","","","98.52","","","","","","NA"
"2016-01-09 22:00","2016","01","09","22:00","2.7","","1.9","","95","","9","","12","","","","98.46","","","","","","NA"
"2016-01-09 23:00","2016","01","09","23:00","2.7","","2.0","","95","","9","","13","","","","98.40","","","","","","NA"
"2016-01-10 00:00","2016","01","10","00:00","3.9","","3.2","","95","","14","","18","","","","98.29","","","","","","NA"
"2016-01-10 01:00","2016","01","10","01:00","3.2","","2.4","","95","","10","","15","","","","98.13","","","","","","NA"
"2016-01-10 02:00","2016","01","10","02:00","3.2","","2.5","","95","","7","","9","","","","98.08","","","","","","NA"
"2016-01-10 03:00","2016","01","10","03:00","3.3","","2.6","","95","","6","","11","","","","97.95","","","","","","NA"
"2016-01-10 04:00","2016","01","10","04:00","3.4","","2.7","","95","","5","","9","","","","97.80","","","","","","NA"
"2016-01-10 05:00","2016","01","10","05:00","3.2","","2.5","","95","","7","","20","","","","97.63","","","","","","NA"
"2016-01-10 06:00","2016","01","10","06:00","3.5","","2.8","","95","","9","","23","","","","97.56","","","","","","NA"
"2016-01-10 07:00","2016","01","10","07:00","4.2","","3.5","","95","","13","","20","","","","97.47","","","","","","NA"
"2016-01-10 08:00","2016","01","10","08:00","4.0","","3.3","","95","","13","","19","","","","97.33","","","","","","NA"
"2016-01-10 09:00","2016","01","10","09:00","1.5","","0.8","","95","","33","","16","","","","97.26","","","","","","NA"
"2016-01-10 10:00","2016","01","10","10:00","-2.7","","-3.6","","94","","35","","19","","","","97.19","","","","-8","","NA"
"2016-01-10 11:00","2016","01","10","11:00","-5.2","","-6.9","","88","","36","","20","","","","97.10","","","","-12","","NA"
"2016-01-10 12:00","2016","01","10","12:00","-6.8","","-8.7","","87","","35","","19","","","","96.92","","","","-14","","NA"
"2016-01-10 13:00","2016","01","10","13:00","-8.0","","-10.4","","83","","35","","23","","","","96.83","","","","-16","","NA"
"2016-01-10 14:00","2016","01","10","14:00","-9.5","","-11.6","","85","","34","","23","","","","96.78","","","","-18","","NA"
"2016-01-10 15:00","2016","01","10","15:00","-10.7","","-13.0","","83","","33","","22","","","","96.81","","","","-19","","NA"
"2016-01-10 16:00","2016","01","10","16:00","-11.2","","-13.5","","83","","33","","20","","","","96.98","","","","-19","","NA"
"2016-01-10 17:00","2016","01","10","17:00","-11.7","","-14.2","","81","","33","","25","","","","97.13","","","","-21","","NA"
"2016-01-10 18:00","2016","01","10","18:00","-12.0","","-14.5","","82","","32","","23","","","","97.26","","","","-21","","NA"
"2016-01-10 19:00","2016","01","10","19:00","-12.5","","-16.1","","75","","31","","25","","","","97.41","","","","-22","","NA"
"2016-01-10 20:00","2016","01","10","20:00","-12.6","","-15.9","","76","","30","","27","","","","97.53","","","","-22","","NA"
"2016-01-10 21:00","2016","01","10","21:00","-13.2","","-17.2","","72","","31","","29","","","","97.64","","","","-24","","NA"
"2016-01-10 22:00","2016","01","10","22:00","-13.6","","-18.2","","68","","31","","31","","","","97.73","","","","-24","","NA"
"2016-01-10 23:00","2016","01","10","23:00","-13.6","","-18.0","","69","","31","","30","","","","97.82","","","","-24","","NA"
"2016-01-11 00:00","2016","01","11","00:00","-13.9","","-18.4","","69","","31","","28","","","","97.93","","","","-24","","NA"
"2016-01-11 01:00","2016","01","11","01:00","-13.6","","-17.3","","74","","31","","24","","","","98.01","","","","-23","","NA"
"2016-01-11 02:00","2016","01","11","02:00","-14.5","","-18.3","","73","","31","","24","","","","98.08","","","","-24","","NA"
"2016-01-11 03:00","2016","01","11","03:00","-14.9","","-18.6","","73","","31","","22","","","","98.19","","","","-24","","NA"
"2016-01-11 04:00","2016","01","11","04:00","-15.8","","-20.1","","70","","31","","25","","","","98.25","","","","-26","","NA"
"2016-01-11 05:00","2016","01","11","05:00","-16.2","","-20.1","","72","","31","","21","","","","98.34","","","","-26","","NA"
"2016-01-11 06:00","2016","01","11","06:00","-16.5","","-20.6","","71","","31","","21","","","","98.44","","","","-26","","NA"
"2016-01-11 07:00","2016","01","11","07:00","-16.7","","-20.9","","70","","31","","21","","","","98.52","","","","-27","","NA"
"2016-01-11 08:00","2016","01","11","08:00","-16.8","","-20.4","","73","","31","","13","","","","98.59","","","","-25","","NA"
"2016-01-11 09:00","2016","01","11","09:00","-16.0","","-20.2","","70","","31","","13","","","","98.68","","","","-24","","NA"
"2016-01-11 10:00","2016","01","11","10:00","-14.8","","-19.3","","69","","30","","11","","","","98.74","","","","-21","","NA"
"2016-01-11 11:00","2016","01","11","11:00","-13.9","","-18.7","","67","","30","","12","","","","98.78","","","","-21","","NA"
"2016-01-11 12:00","2016","01","11","12:00","-13.2","","-18.8","","63","","29","","15","","","","98.82","","","","-21","","NA"
"2016-01-11 13:00","2016","01","11","13:00","-11.6","","-18.1","","58","","30","","16","","","","98.77","","","","-19","","NA"
"2016-01-11 14:00","2016","01","11","14:00","-10.7","","-18.5","","52","","32","","12","","","","98.76","","","","-17","","NA"
"2016-01-11 15:00","2016","01","11","15:00","-10.2","","-19.2","","48","","31","","16","","","","98.75","","","","-17","","NA"
"2016-01-11 16:00","2016","01","11","16:00","-9.8","","-18.5","","49","","31","","11","","","","98.80","","","","-15","","NA"
"2016-01-11 17:00","2016","01","11","17:00","-11.0","","-18.7","","53","","35","","8","","","","98.82","","","","-16","","NA"
"2016-01-11 18:00","2016","01","11","18:00","-11.3","","-17.6","","60","","36","","8","","","","98.81","","","","-16","","NA"
"2016-01-11 19:00","2016","01","11","19:00","-11.0","","-17.4","","59","","2","","7","","","","98.80","","","","-15","","NA"
"2016-01-11 20:00","2016","01","11","20:00","-12.1","","-17.8","","63","","3","","10","","","","98.78","","","","-18","","NA"
"2016-01-11 21:00","2016","01","11","21:00","-11.1","","-16.4","","65","","5","","9","","","","98.71","","","","-16","","NA"
"2016-01-11 22:00","2016","01","11","22:00","-10.9","","-15.9","","66","","6","","10","","","","98.65","","","","-16","","NA"
"2016-01-11 23:00","2016","01","11","23:00","-10.5","","-15.5","","67","","7","","17","","","","98.62","","","","-18","","NA"
"2016-01-12 00:00","2016","01","12","00:00","-11.4","","-14.0","","81","","5","","12","","","","98.57","","","","-18","","NA"
"2016-01-12 01:00","2016","01","12","01:00","-11.6","","-13.6","","85","","6","","14","","","","98.45","","","","-18","","NA"
"2016-01-12 02:00","2016","01","12","02:00","-11.2","","-13.5","","83","","6","","16","","","","98.33","","","","-18","","NA"
"2016-01-12 03:00","2016","01","12","03:00","-11.3","","-13.5","","84","","6","","16","","","","98.24","","","","-19","","NA"
"2016-01-12 04:00","2016","01","12","04:00","-11.3","","-13.6","","83","","5","","15","","","","98.09","","","","-18","","NA"
"2016-01-12 05:00","2016","01","12","05:00","-11.2","","-13.4","","84","","5","","14","","","","98.00","","","","-18","","NA"
"2016-01-12 06:00","2016","01","12","06:00","-11.2","","-13.1","","86","","5","","17","","","","97.92","","","","-19","","NA"
"2016-01-12 07:00","2016","01","12","07:00","-10.9","","-12.6","","87","","5","","17","","","","97.82","","","","-18","","NA"
"2016-01-12 08:00","2016","01","12","08:00","-10.7","","-12.3","","88","","5","","20","","","","97.74","","","","-19","","NA"
"2016-01-12 09:00","2016","01","12","09:00","-10.5","","-12.1","","88","","5","","21","","","","97.64","","","","-19","","NA"
"2016-01-12 10:00","2016","01","12","10:00","-9.8","","-11.4","","88","","6","","22","","","","97.63","","","","-18","","NA"
"2016-01-12 11:00","2016","01","12","11:00","-9.7","","-11.4","","88","","5","","16","","","","97.60","","","","-17","","NA"
"2016-01-12 12:00","2016","01","12","12:00","-9.0","","-10.8","","87","","3","","13","","","","97.55","","","","-15","","NA"
"2016-01-12 13:00","2016","01","12","13:00","-9.5","","-11.9","","83","","1","","15","","","","97.52","","","","-16","","NA"
"2016-01-12 14:00","2016","01","12","14:00","-9.1","","-12.0","","79","","1","","15","","","","97.56","","","","-16","","NA"
"2016-01-12 15:00","2016","01","12","15:00","-8.7","","-12.1","","76","","34","","14","","","","97.67","","","","-15","","NA"
"2016-01-12 16:00","2016","01","12","16:00","-9.2","","-12.5","","76","","34","","15","","","","97.79","","","","-16","","NA"
"2016-01-12 17:00","2016","01","12","17:00","-9.7","","-12.7","","79","","33","","16","","","","97.95","","","","-17","","NA"
"2016-01-12 18:00","2016","01","12","18:00","-9.6","","-12.8","","77","","31","","20","","","","98.07","","","","-17","","NA"
"2016-01-12 19:00","2016","01","12","19:00","-10.1","","-13.2","","78","","31","","19","","","","98.21","","","","-18","","NA"
"2016-01-12 20:00","2016","01","12","20:00","-10.9","","-14.6","","74","","34","","15","","","","98.32","","","","-18","","NA"
"2016-01-12 21:00","2016","01","12","21:00","-11.2","","-14.7","","76","","32","","16","","","","98.39","","","","-18","","NA"
"2016-01-12 22:00","2016","01","12","22:00","-12.5","","-16.6","","72","","34","","18","","","","98.47","","","","-21","","NA"
"2016-01-12 23:00","2016","01","12","23:00","-13.5","","-17.0","","75","","34","","22","","","","98.57","","","","-23","","NA"
"2016-01-13 00:00","2016","01","13","00:00","-15.3","","-19.4","","71","","33","","22","","","","98.69","","","","-25","","NA"
"2016-01-13 01:00","2016","01","13","01:00","-17.2","","-21.5","","69","","32","","30","","","","98.75","","","","-29","","NA"
"2016-01-13 02:00","2016","01","13","02:00","-18.4","","-22.6","","70","","34","","14","","","","98.86","","","","-27","","NA"
"2016-01-13 03:00","2016","01","13","03:00","-19.0","","-23.3","","69","","32","","17","","","","98.97","","","","-28","","NA"
"2016-01-13 04:00","2016","01","13","04:00","-19.3","","-23.2","","71","","31","","12","","","","99.04","","","","-27","","NA"
"2016-01-13 05:00","2016","01","13","05:00","-20.0","","-24.1","","70","","34","","14","","","","99.05","","","","-29","","NA"
"2016-01-13 06:00","2016","01","13","06:00","-20.4","","-24.3","","71","","36","","6","","","","99.01","","","","-25","","NA"
"2016-01-13 07:00","2016","01","13","07:00","-20.9","","-25.0","","69","","4","","6","","","","98.99","","","","-26","","NA"
"2016-01-13 08:00","2016","01","13","08:00","-19.7","","-22.3","","80","","28","","6","","","","99.03","","","","-25","","NA"
"2016-01-13 09:00","2016","01","13","09:00","-19.3","","-23.8","","67","","35","","7","","","","99.04","","","","-25","","NA"
"2016-01-13 10:00","2016","01","13","10:00","-17.0","","-19.1","","84","","6","","10","","","","99.08","","","","-24","","NA"
"2016-01-13 11:00","2016","01","13","11:00","-16.5","","-18.8","","83","","9","","16","","","","99.06","","","","-25","","NA"
"2016-01-13 12:00","2016","01","13","12:00","-16.0","","-18.8","","79","","9","","14","","","","98.95","","","","-24","","NA"
"2016-01-13 13:00","2016","01","13","13:00","-14.9","","-17.9","","78","","10","","12","","","","98.83","","","","-22","","NA"
"2016-01-13 14:00","2016","01","13","14:00","-14.2","","-17.7","","75","","9","","16","","","","98.73","","","","-22","","NA"
"2016-01-13 15:00","2016","01","13","15:00","-13.8","","-16.6","","79","","8","","13","","","","98.63","","","","-21","","NA"
"2016-01-13 16:00","2016","01","13","16:00","-13.3","","-15.5","","84","","9","","18","","","","98.57","","","","-22","","NA"
"2016-01-13 17:00","2016","01","13","17:00","-13.3","","-15.3","","85","","9","","21","","","","98.52","","","","-22","","NA"
"2016-01-13 18:00","2016","01","13","18:00","-13.5","","-15.5","","85","","7","","16","","","","98.47","","","","-21","","NA"
"2016-01-13 19:00","2016","01","13","19:00","-13.5","","-15.5","","85","","7","","17","","","","98.42","","","","-22","","NA"
"2016-01-13 20:00","2016","01","13","20:00","-13.3","","-15.1","","86","","6","","15","","","","98.33","","","","-21","","NA"
"2016-01-13 21:00","2016","01","13","21:00","-12.0","","-13.7","","87","","8","","19","","","","98.23","","","","-20","","NA"
"2016-01-13 22:00","2016","01","13","22:00","-12.7","","-14.5","","87","","6","","15","","","","98.15","","","","-20","","NA"
"2016-01-13 23:00","2016","01","13","23:00","-13.0","","-14.9","","86","","6","","12","","","","98.08","","","","-20","","NA"
"2016-01-14 00:00","2016","01","14","00:00","-13.2","","-15.1","","85","","2","","12","","","","98.08","","","","-20","","NA"
"2016-01-14 01:00","2016","01","14","01:00","-11.3","","-13.0","","88","","31","","8","","","","98.07","","","","-16","","NA"
"2016-01-14 02:00","2016","01","14","02:00","-10.8","","-12.8","","85","","31","","9","","","","98.07","","","","-16","","NA"
"2016-01-14 03:00","2016","01","14","03:00","-11.9","","-14.0","","84","","29","","10","","","","98.13","","","","-18","","NA"
"2016-01-14 04:00","2016","01","14","04:00","-12.3","","-14.7","","83","","30","","10","","","","98.19","","","","-18","","NA"
"2016-01-14 05:00","2016","01","14","05:00","-12.2","","-15.1","","79","","33","","11","","","","98.20","","","","-18","","NA"
"2016-01-14 06:00","2016","01","14","06:00","-11.6","","-14.5","","79","","31","","11","","","","98.23","","","","-18","","NA"
"2016-01-14 07:00","2016","01","14","07:00","-13.3","","-15.9","","81","","32","","17","","","","98.33","","","","-21","","NA"
"2016-01-14 08:00","2016","01","14","08:00","-14.7","","-17.3","","81","","28","","5","","","","98.45","","","","-18","","NA"
"2016-01-14 09:00","2016","01","14","09:00","-14.3","","-17.9","","74","","13","","3","","","","98.55","","","","-16","","NA"
"2016-01-14 10:00","2016","01","14","10:00","-15.8","","-19.6","","73","","34","","7","","","","98.62","","","","-21","","NA"
"2016-01-14 11:00","2016","01","14","11:00","-15.3","","-19.7","","69","","34","","13","","","","98.65","","","","-23","","NA"
"2016-01-14 12:00","2016","01","14","12:00","-13.3","","-18.1","","67","","34","","11","","","","98.61","","","","-20","","NA"
"2016-01-14 13:00","2016","01","14","13:00","-13.0","","-18.7","","62","","4","","10","","","","98.61","","","","-19","","NA"
"2016-01-14 14:00","2016","01","14","14:00","-12.2","","-19.2","","56","","2","","6","","","","98.64","","","","-16","","NA"
"2016-01-14 15:00","2016","01","14","15:00","-12.7","","-19.1","","59","","6","","8","","","","98.69","","","","-18","","NA"
"2016-01-14 16:00","2016","01","14","16:00","-13.3","","-19.3","","61","","3","","8","","","","98.77","","","","-18","","NA"
"2016-01-14 17:00","2016","01","14","17:00","-13.5","","-18.7","","65","","4","","8","","","","98.78","","","","-19","","NA"
"2016-01-14 18:00","2016","01","14","18:00","-13.9","","-19.2","","64","","4","","8","","","","98.91","","","","-19","","NA"
"2016-01-14 19:00","2016","01","14","19:00","-14.2","","-18.7","","69","","4","","8","","","","98.88","","","","-19","","NA"
"2016-01-14 20:00","2016","01","14","20:00","-13.8","","-19.0","","65","","5","","12","","","","98.92","","","","-21","","NA"
"2016-01-14 21:00","2016","01","14","21:00","-13.5","","-18.1","","68","","5","","10","","","","98.89","","","","-19","","NA"
"2016-01-14 22:00","2016","01","14","22:00","-13.7","","-18.1","","70","","6","","16","","","","98.87","","","","-22","","NA"
"2016-01-14 23:00","2016","01","14","23:00","-13.8","","-17.9","","71","","5","","14","","","","98.89","","","","-21","","NA"
"2016-01-15 00:00","2016","01","15","00:00","-13.9","","-17.9","","72","","6","","19","","","","98.83","","","","-23","","NA"
"2016-01-15 01:00","2016","01","15","01:00","-13.9","","-17.5","","74","","6","","17","","","","98.82","","","","-22","","NA"
"2016-01-15 02:00","2016","01","15","02:00","-14.3","","-18.1","","73","","6","","18","","","","98.72","","","","-23","","NA"
"2016-01-15 03:00","2016","01","15","03:00","-14.0","","-17.2","","76","","6","","19","","","","98.66","","","","-23","","NA"
"2016-01-15 04:00","2016","01","15","04:00","-14.0","","-17.7","","73","","6","","18","","","","98.64","","","","-22","","NA"
"2016-01-15 05:00","2016","01","15","05:00","-13.8","","-17.4","","74","","6","","19","","","","98.61","","","","-22","","NA"
"2016-01-15 06:00","2016","01","15","06:00","-13.6","","-17.2","","74","","6","","20","","","","98.48","","","","-22","","NA"
"2016-01-15 07:00","2016","01","15","07:00","-13.0","","-16.1","","78","","6","","22","","","","98.38","","","","-22","","NA"
"2016-01-15 08:00","2016","01","15","08:00","-11.9","","-14.5","","82","","6","","26","","","","98.28","","","","-21","","NA"
"2016-01-15 09:00","2016","01","15","09:00","-12.2","","-14.0","","86","","6","","23","","","","98.23","","","","-21","","NA"
"2016-01-15 10:00","2016","01","15","10:00","-11.7","","-13.4","","87","","6","","23","","","","98.13","","","","-21","","NA"
"2016-01-15 11:00","2016","01","15","11:00","-10.9","","-12.6","","87","","7","","26","","","","98.05","","","","-20","","NA"
"2016-01-15 12:00","2016","01","15","12:00","-10.2","","-11.7","","88","","6","","24","","","","97.89","","","","-19","","NA"
"2016-01-15 13:00","2016","01","15","13:00","-9.6","","-11.1","","89","","7","","19","","","","97.85","","","","-17","","NA"
"2016-01-15 14:00","2016","01","15","14:00","-8.8","","-10.1","","90","","7","","22","","","","97.69","","","","-17","","NA"
"2016-01-15 15:00","2016","01","15","15:00","-7.7","","-8.9","","91","","7","","21","","","","97.55","","","","-15","","NA"
"2016-01-15 16:00","2016","01","15","16:00","-7.0","","-8.1","","92","","7","","24","","","","97.46","","","","-15","","NA"
"2016-01-15 17:00","2016","01","15","17:00","-6.4","","-7.5","","92","","7","","22","","","","97.40","","","","-14","","NA"
"2016-01-15 18:00","2016","01","15","18:00","-6.2","","-7.3","","92","","6","","22","","","","97.41","","","","-13","","NA"
"2016-01-15 19:00","2016","01","15","19:00","-5.4","","-6.7","","91","","5","","20","","","","97.35","","","","-12","","NA"
"2016-01-15 20:00","2016","01","15","20:00","-4.9","","-6.1","","91","","2","","10","","","","97.35","","","","-9","","NA"
"2016-01-15 21:00","2016","01","15","21:00","-5.2","","-6.5","","90","","8","","41","","","","97.16","","","","-14","","NA"
"2016-01-15 22:00","2016","01","15","22:00","-6.4","","-7.7","","91","","6","","19","","","","97.12","","","","-13","","NA"
"2016-01-15 23:00","2016","01","15","23:00","-5.5","","-6.7","","91","","4","","10","","","","97.09","","","","-10","","NA"
"2016-01-16 00:00","2016","01","16","00:00","-5.0","","-6.1","","92","","2","","8","","","","97.02","","","","-9","","NA"
"2016-01-16 01:00","2016","01","16","01:00","-6.5","","-7.7","","91","","3","","8","","","","96.93","","","","-10","","NA"
"2016-01-16 02:00","2016","01","16","02:00","-7.5","","-8.7","","91","","33","","7","","","","96.97","","","","-11","","NA"
"2016-01-16 03:00","2016","01","16","03:00","-8.3","","-9.8","","89","","34","","8","","","","97.02","","","","-12","","NA"
"2016-01-16 04:00","2016","01","16","04:00","-8.7","","-10.3","","88","","35","","17","","","","97.06","","","","-16","","NA"
"2016-01-16 05:00","2016","01","16","05:00","-9.7","","-11.8","","85","","34","","12","","","","97.12","","","","-16","","NA"
"2016-01-16 06:00","2016","01","16","06:00","-10.4","","-12.9","","82","","34","","19","","","","97.23","","","","-18","","NA"
"2016-01-16 07:00","2016","01","16","07:00","-11.2","","-13.9","","81","","34","","15","","","","97.35","","","","-18","","NA"
"2016-01-16 08:00","2016","01","16","08:00","-11.9","","-14.9","","78","","34","","16","","","","97.48","","","","-19","","NA"
"2016-01-16 09:00","2016","01","16","09:00","-12.1","","-15.5","","75","","32","","16","","","","97.59","","","","-20","","NA"
"2016-01-16 10:00","2016","01","16","10:00","-11.8","","-15.6","","73","","32","","15","","","","97.73","","","","-19","","NA"
"2016-01-16 11:00","2016","01","16","11:00","-11.8","","-15.7","","73","","32","","20","","","","97.81","","","","-20","","NA"
"2016-01-16 12:00","2016","01","16","12:00","-11.7","","-15.7","","72","","31","","25","","","","97.84","","","","-21","","NA"
"2016-01-16 13:00","2016","01","16","13:00","-10.8","","-15.3","","70","","33","","14","","","","97.86","","","","-17","","NA"
"2016-01-16 14:00","2016","01","16","14:00","-10.5","","-15.4","","67","","29","","17","","","","97.93","","","","-18","","NA"
"2016-01-16 15:00","2016","01","16","15:00","-10.0","","-14.3","","70","","31","","16","","","","97.98","","","","-17","","NA"
"2016-01-16 16:00","2016","01","16","16:00","-9.6","","-13.7","","72","","31","","16","","","","98.06","","","","-16","","NA"
"2016-01-16 17:00","2016","01","16","17:00","-9.9","","-14.3","","70","","31","","13","","","","98.16","","","","-16","","NA"
"2016-01-16 18:00","2016","01","16","18:00","-10.9","","-14.9","","72","","33","","9","","","","98.28","","","","-16","","NA"
"2016-01-16 19:00","2016","01","16","19:00","-11.1","","-15.0","","73","","34","","10","","","","98.35","","","","-17","","NA"
"2016-01-16 20:00","2016","01","16","20:00","-12.0","","-15.5","","75","","35","","9","","","","98.41","","","","-17","","NA"
"2016-01-16 21:00","2016","01","16","21:00","-12.3","","-16.0","","74","","6","","8","","","","98.42","","","","-17","","NA"
"2016-01-16 22:00","2016","01","16","22:00","-12.8","","-16.8","","72","","4","","3","","","","98.42","","","","-15","","NA"
"2016-01-16 23:00","2016","01","16","23:00","-12.3","","-16.3","","72","","6","","4","","","","98.44","","","","-15","","NA"
"2016-01-17 00:00","2016","01","17","00:00","-11.5","","-15.0","","76","","8","","11","","","","98.43","","","","-17","","NA"
"2016-01-17 01:00","2016","01","17","01:00","-12.7","","-16.1","","76","","7","","20","","","","98.38","","","","-21","","NA"
"2016-01-17 02:00","2016","01","17","02:00","-13.0","","-16.6","","74","","7","","22","","","","98.39","","","","-22","","NA"
"2016-01-17 03:00","2016","01","17","03:00","-13.4","","-16.0","","81","","7","","18","","","","98.40","","","","-22","","NA"
"2016-01-17 04:00","2016","01","17","04:00","-14.2","","-16.9","","80","","5","","12","","","","98.32","","","","-21","","NA"
"2016-01-17 05:00","2016","01","17","05:00","-13.8","","-16.4","","81","","6","","15","","","","98.32","","","","-21","","NA"
"2016-01-17 06:00","2016","01","17","06:00","-13.9","","-16.3","","82","","6","","12","","","","98.30","","","","-21","","NA"
"2016-01-17 07:00","2016","01","17","07:00","-14.0","","-16.4","","82","","6","","10","","","","98.33","","","","-20","","NA"
"2016-01-17 08:00","2016","01","17","08:00","-13.4","","-15.8","","82","","6","","10","","","","98.32","","","","-19","","NA"
"2016-01-17 09:00","2016","01","17","09:00","-12.6","","-15.1","","82","","6","","8","","","","98.34","","","","-18","","NA"
"2016-01-17 10:00","2016","01","17","10:00","-10.4","","-13.3","","79","","9","","10","","","","98.33","","","","-16","","NA"
"2016-01-17 11:00","2016","01","17","11:00","-10.3","","-13.2","","80","","5","","7","","","","98.34","","","","-14","","NA"
"2016-01-17 12:00","2016","01","17","12:00","-10.2","","-13.3","","78","","34","","6","","","","98.29","","","","-14","","NA"
"2016-01-17 13:00","2016","01","17","13:00","-9.1","","-13.4","","71","","30","","4","","","","98.22","","","","-11","","NA"
"2016-01-17 14:00","2016","01","17","14:00","-9.3","","-13.4","","73","","31","","6","","","","98.23","","","","-13","","NA"
"2016-01-17 15:00","2016","01","17","15:00","-10.1","","-13.8","","74","","33","","11","","","","98.21","","","","-16","","NA"
"2016-01-17 16:00","2016","01","17","16:00","-10.9","","-15.0","","72","","33","","15","","","","98.28","","","","-18","","NA"
"2016-01-17 17:00","2016","01","17","17:00"
"2016-01-17 18:00","2016","01","17","18:00","-12.4","","-15.5","","78","","33","","10","","","","98.37","","","","-18","","NA"
"2016-01-17 19:00","2016","01","17","19:00","-13.9","","-17.4","","75","","34","","18","","","","98.42","","","","-22","","NA"
"2016-01-17 20:00","2016","01","17","20:00","-15.0","","-18.8","","72","","34","","12","","","","98.48","","","","-22","","NA"
"2016-01-17 21:00","2016","01","17","21:00","-15.9","","-19.1","","77","","32","","15","","","","98.52","","","","-24","","NA"
"2016-01-17 22:00","2016","01","17","22:00","-16.3","","-19.9","","73","","34","","16","","","","98.54","","","","-25","","NA"
"2016-01-17 23:00","2016","01","17","23:00","-16.9","","-20.8","","72","","36","","11","","","","98.56","","","","-24","","NA"
"2016-01-18 00:00","2016","01","18","00:00","-17.3","","-21.1","","72","","33","","7","","","","98.62","","","","-23","","NA"
"2016-01-18 01:00","2016","01","18","01:00","-18.1","","-21.7","","73","","33","","10","","","","98.64","","","","-25","","NA"
"2016-01-18 02:00","2016","01","18","02:00","-18.4","","-22.0","","73","","31","","11","","","","98.68","","","","-26","","NA"
"2016-01-18 03:00","2016","01","18","03:00","-18.9","","-22.2","","75","","33","","9","","","","98.75","","","","-25","","NA"
"2016-01-18 04:00","2016","01","18","04:00","-19.3","","-22.4","","77","","32","","12","","","","98.76","","","","-27","","NA"
"2016-01-18 05:00","2016","01","18","05:00","-20.0","","-23.0","","77","","32","","13","","","","98.77","","","","-28","","NA"
"2016-01-18 06:00","2016","01","18","06:00","-20.0","","-23.3","","75","","34","","10","","","","98.80","","","","-27","","NA"
"2016-01-18 07:00","2016","01","18","07:00","-20.4","","-23.5","","76","","32","","11","","","","98.84","","","","-28","","NA"
"2016-01-18 08:00","2016","01","18","08:00","-20.8","","-24.6","","72","","32","","16","","","","98.88","","","","-30","","NA"
"2016-01-18 09:00","2016","01","18","09:00","-20.5","","-24.2","","72","","28","","12","","","","98.94","","","","-29","","NA"
"2016-01-18 10:00","2016","01","18","10:00","-18.5","","-23.3","","66","","5","","3","","","","98.96","","","","-21","","NA"
"2016-01-18 11:00","2016","01","18","11:00","-18.6","","-23.1","","68","","33","","13","","","","99.02","","","","-27","","NA"
"2016-01-18 12:00","2016","01","18","12:00","-17.2","","-22.7","","62","","32","","8","","","","99.02","","","","-23","","NA"
"2016-01-18 13:00","2016","01","18","13:00","-17.3","","-22.1","","66","","27","","18","","","","99.02","","","","-27","","NA"
"2016-01-18 14:00","2016","01","18","14:00","-16.2","","-22.0","","61","","32","","13","","","","98.99","","","","-24","","NA"
"2016-01-18 15:00","2016","01","18","15:00","-16.4","","-22.2","","61","","30","","16","","","","99.05","","","","-25","","NA"
"2016-01-18 16:00","2016","01","18","16:00","-15.4","","-21.2","","61","","31","","12","","","","99.09","","","","-22","","NA"
"2016-01-18 17:00","2016","01","18","17:00","-16.1","","-21.1","","65","","31","","8","","","","99.17","","","","-22","","NA"
"2016-01-18 18:00","2016","01","18","18:00","-16.6","","-20.7","","70","","30","","8","","","","99.23","","","","-22","","NA"
"2016-01-18 19:00","2016","01","18","19:00","-17.2","","-21.7","","68","","33","","9","","","","99.33","","","","-23","","NA"
"2016-01-18 20:00","2016","01","18","20:00","-17.8","","-22.3","","68","","33","","9","","","","99.41","","","","-24","","NA"
"2016-01-18 21:00","2016","01","18","21:00","-17.4","","-22.6","","64","","34","","13","","","","99.46","","","","-25","","NA"
"2016-01-18 22:00","2016","01","18","22:00","-17.4","","-22.3","","66","","30","","8","","","","99.51","","","","-23","","NA"
"2016-01-18 23:00","2016","01","18","23:00","-18.1","","-22.3","","70","","29","","7","","","","99.56","","","","-23","","NA"
"2016-01-19 00:00","2016","01","19","00:00","-18.8","","-22.7","","71","","30","","8","","","","99.59","","","","-25","","NA"
"2016-01-19 01:00","2016","01","19","01:00","-19.0","","-22.8","","71","","29","","10","","","","99.62","","","","-26","","NA"
"2016-01-19 02:00","2016","01","19","02:00","-19.5","","-23.3","","72","","32","","12","","","","99.65","","","","-27","","NA"
"2016-01-19 03:00","2016","01","19","03:00","-19.2","","-22.9","","73","","31","","13","","","","99.69","","","","-27","","NA"
"2016-01-19 04:00","2016","01","19","04:00","-18.5","","-22.2","","73","","30","","18","","","","99.75","","","","-28","","NA"
"2016-01-19 05:00","2016","01","19","05:00","-18.5","","-22.1","","73","","31","","23","","","","99.78","","","","-29","","NA"
"2016-01-19 06:00","2016","01","19","06:00","-18.3","","-21.8","","74","","30","","24","","","","99.77","","","","-29","","NA"
"2016-01-19 07:00","2016","01","19","07:00","-18.3","","-21.8","","74","","29","","24","","","","99.82","","","","-29","","NA"
"2016-01-19 08:00","2016","01","19","08:00","-18.5","","-21.8","","75","","30","","22","","","","99.93","","","","-29","","NA"
"2016-01-19 09:00","2016","01","19","09:00","-17.4","","-21.1","","73","","30","","27","","","","99.95","","","","-29","","NA"
"2016-01-19 10:00","2016","01","19","10:00","-16.3","","-20.5","","70","","30","","26","","","","100.02","","","","-27","","NA"
"2016-01-19 11:00","2016","01","19","11:00","-15.5","","-20.2","","67","","31","","24","","","","100.07","","","","-26","","NA"
"2016-01-19 12:00","2016","01","19","12:00","-14.5","","-19.4","","66","","30","","19","","","","100.06","","","","-23","","NA"
"2016-01-19 13:00","2016","01","19","13:00","-13.7","","-19.0","","65","","29","","20","","","","100.04","","","","-23","","NA"
"2016-01-19 14:00","2016","01","19","14:00","-12.3","","-17.5","","65","","30","","21","","","","100.04","","","","-21","","NA"
"2016-01-19 15:00","2016","01","19","15:00","-10.6","","-15.9","","65","","30","","22","","","","100.06","","","","-19","","NA"
"2016-01-19 16:00","2016","01","19","16:00","-9.7","","-15.0","","65","","29","","17","","","","100.09","","","","-17","","NA"
"2016-01-19 17:00","2016","01","19","17:00","-9.5","","-14.4","","67","","29","","21","","","","100.12","","","","-17","","NA"
"2016-01-19 18:00","2016","01","19","18:00","-9.8","","-14.4","","69","","30","","16","","","","100.16","","","","-17","","NA"
"2016-01-19 19:00","2016","01","19","19:00","-10.2","","-14.0","","74","","30","","17","","","","100.21","","","","-17","","NA"
"2016-01-19 20:00","2016","01","19","20:00","-10.3","","-13.6","","77","","30","","16","","","","100.23","","","","-17","","NA"
"2016-01-19 21:00","2016","01","19","21:00","-10.0","","-13.2","","78","","31","","19","","","","100.23","","","","-18","","NA"
"2016-01-19 22:00","2016","01","19","22:00","-9.5","","-12.6","","78","","31","","23","","","","100.23","","","","-18","","NA"
"2016-01-19 23:00","2016","01","19","23:00","-8.9","","-12.1","","77","","31","","16","","","","100.23","","","","-16","","NA"
"2016-01-20 00:00","2016","01","20","00:00","-8.5","","-12.0","","76","","31","","15","","","","100.22","","","","-15","","NA"
"2016-01-20 01:00","2016","01","20","01:00","-8.4","","-11.8","","77","","33","","9","","","","100.17","","","","-13","","NA"
"2016-01-20 02:00","2016","01","20","02:00","-8.3","","-11.4","","79","","29","","8","","","","100.17","","","","-12","","NA"
"2016-01-20 03:00","2016","01","20","03:00","-8.4","","-11.5","","78","","32","","4","","","","100.16","","","","-11","","NA"
"2016-01-20 04:00","2016","01","20","04:00","-8.2","","-11.3","","78","","32","","6","","","","100.15","","","","-11","","NA"
"2016-01-20 05:00","2016","01","20","05:00","-8.1","","-11.0","","80","","32","","5","","","","100.11","","","","-11","","NA"
"2016-01-20 06:00","2016","01","20","06:00","-8.2","","-10.9","","81","","1","","7","","","","100.08","","","","-12","","NA"
"2016-01-20 07:00","2016","01","20","07:00","-7.9","","-10.5","","82","","30","","6","","","","100.08","","","","-11","","NA"
"2016-01-20 08:00","2016","01","20","08:00","-7.7","","-10.1","","83","","32","","4","","","","100.06","","","","-10","","NA"
"2016-01-20 09:00","2016","01","20","09:00","-7.7","","-10.6","","80","","35","","3","","","","100.05","","","","-9","","NA"
"2016-01-20 10:00","2016","01","20","10:00","-6.7","","-11.8","","67","","35","","6","","","","100.02","","","","-10","","NA"
"2016-01-20 11:00","2016","01","20","11:00","-6.5","","-12.6","","62","","36","","12","","","","99.98","","","","-12","","NA"
"2016-01-20 12:00","2016","01","20","12:00","-6.2","","-12.6","","60","","35","","9","","","","99.93","","","","-10","","NA"
"2016-01-20 13:00","2016","01","20","13:00","-6.2","","-12.5","","61","","35","","14","","","","99.82","","","","-12","","NA"
"2016-01-20 14:00","2016","01","20","14:00","-5.8","","-12.2","","61","","35","","13","","","","99.73","","","","-11","","NA"
"2016-01-20 15:00","2016","01","20","15:00","-5.6","","-12.1","","60","","32","","10","","","","99.72","","","","-10","","NA"
"2016-01-20 16:00","2016","01","20","16:00","-5.7","","-12.2","","60","","34","","6","","","","99.72","","","","-9","","NA"
"2016-01-20 17:00","2016","01","20","17:00","-6.1","","-11.8","","64","","1","","8","","","","99.74","","","","-10","","NA"
"2016-01-20 18:00","2016","01","20","18:00","-6.8","","-12.2","","65","","34","","7","","","","99.75","","","","-10","","NA"
"2016-01-20 19:00","2016","01","20","19:00","-7.7","","-12.7","","67","","34","","7","","","","99.80","","","","-11","","NA"
"2016-01-20 20:00","2016","01","20","20:00","-8.1","","-13.2","","67","","32","","6","","","","99.83","","","","-11","","NA"
"2016-01-20 21:00","2016","01","20","21:00","-9.7","","-13.5","","74","","31","","7","","","","99.81","","","","-14","","NA"
"2016-01-20 22:00","2016","01","20","22:00","-9.7","","-13.2","","76","","32","","9","","","","99.84","","","","-15","","NA"
"2016-01-20 23:00","2016","01","20","23:00","-8.4","","-13.4","","67","","32","","9","","","","99.84","","","","-13","","NA"
"2016-01-21 00:00","2016","01","21","00:00","-7.9","","-12.9","","68","","33","","8","","","","99.88","","","","-12","","NA"
"2016-01-21 01:00","2016","01","21","01:00","-7.5","","-11.9","","70","","35","","6","","","","99.91","","","","-11","","NA"
"2016-01-21 02:00","2016","01","21","02:00","-7.4","","-11.2","","74","","32","","6","","","","99.96","","","","-11","","NA"
"2016-01-21 03:00","2016","01","21","03:00","-7.6","","-11.1","","76","","35","","10","","","","100.02","","","","-12","","NA"
"2016-01-21 04:00","2016","01","21","04:00","-7.8","","-11.2","","77","","33","","7","","","","100.04","","","","-11","","NA"
"2016-01-21 05:00","2016","01","21","05:00","-8.1","","-11.3","","78","","34","","5","","","","100.05","","","","-11","","NA"
"2016-01-21 06:00","2016","01","21","06:00","-8.0","","-11.3","","77","","3","","5","","","","100.08","","","","-11","","NA"
"2016-01-21 07:00","2016","01","21","07:00","-8.3","","-11.4","","78","","1","","5","","","","100.12","","","","-11","","NA"
"2016-01-21 08:00","2016","01","21","08:00","-8.0","","-11.4","","76","","4","","7","","","","100.14","","","","-12","","NA"
"2016-01-21 09:00","2016","01","21","09:00","-7.7","","-11.3","","75","","4","","6","","","","100.19","","","","-11","","NA"
"2016-01-21 10:00","2016","01","21","10:00","-7.2","","-11.4","","72","","6","","2","","","","100.25","","","","-8","","NA"
"2016-01-21 11:00","2016","01","21","11:00","-6.4","","-11.0","","70","","25","","5","","","","100.29","","","","-9","","NA"
"2016-01-21 12:00","2016","01","21","12:00","-5.7","","-10.9","","67","","31","","6","","","","100.30","","","","-9","","NA"
"2016-01-21 13:00","2016","01","21","13:00","-5.2","","-10.7","","66","","26","","4","","","","100.25","","","","-7","","NA"
"2016-01-21 14:00","2016","01","21","14:00","-5.1","","-10.9","","63","","26","","3","","","","100.21","","","","-6","","NA"
"2016-01-21 15:00","2016","01","21","15:00","-5.1","","-10.4","","66","","20","","6","","","","100.19","","","","-8","","NA"
"2016-01-21 16:00","2016","01","21","16:00","-4.9","","-10.7","","64","","22","","9","","","","100.22","","","","-9","","NA"
"2016-01-21 17:00","2016","01","21","17:00","-5.0","","-11.1","","62","","5","","2","","","","100.24","","","","-6","","NA"
"2016-01-21 18:00","2016","01","21","18:00","-5.1","","-10.8","","64","","28","","5","","","","100.28","","","","-7","","NA"
"2016-01-21 19:00","2016","01","21","19:00","-5.7","","-10.3","","70","","27","","8","","","","100.26","","","","-9","","NA"
"2016-01-21 20:00","2016","01","21","20:00","-6.4","","-10.3","","74","","1","","7","","","","100.30","","","","-10","","NA"
"2016-01-21 21:00","2016","01","21","21:00","-5.9","","-10.6","","70","","32","","5","","","","100.29","","","","-8","","NA"
"2016-01-21 22:00","2016","01","21","22:00","-5.9","","-10.5","","70","","33","","4","","","","100.29","","","","-8","","NA"
"2016-01-21 23:00","2016","01","21","23:00","-5.5","","-9.8","","72","","33","","6","","","","100.27","","","","-8","","NA"
"2016-01-22 00:00","2016","01","22","00:00","-5.5","","-10.0","","70","","32","","4","","","","100.28","","","","-7","","NA"
"2016-01-22 01:00","2016","01","22","01:00","-5.0","","-10.7","","64","","35","","6","","","","100.29","","","","-8","","NA"
"2016-01-22 02:00","2016","01","22","02:00","-4.6","","-9.9","","66","","3","","4","","","","100.25","","","","-6","","NA"
"2016-01-22 03:00","2016","01","22","03:00","-5.0","","-7.5","","82","","9","","3","","","","100.24","","","","-6","","NA"
"2016-01-22 04:00","2016","01","22","04:00","-5.6","","-8.1","","83","","7","","4","","","","100.26","","","","-7","","NA"
"2016-01-22 05:00","2016","01","22","05:00","-6.3","","-8.3","","85","","5","","5","","","","100.26","","","","-9","","NA"
"2016-01-22 06:00","2016","01","22","06:00","-6.4","","-8.4","","86","","1","","7","","","","100.22","","","","-10","","NA"
"2016-01-22 07:00","2016","01","22","07:00","-5.8","","-8.4","","82","","2","","7","","","","100.29","","","","-9","","NA"
"2016-01-22 08:00","2016","01","22","08:00","-6.0","","-8.7","","82","","7","","7","","","","100.35","","","","-9","","NA"
"2016-01-22 09:00","2016","01","22","09:00","-6.0","","-9.7","","75","","6","","6","","","","100.39","","","","-9","","NA"
"2016-01-22 10:00","2016","01","22","10:00","-5.6","","-10.8","","66","","7","","10","","","","100.44","","","","-10","","NA"
"2016-01-22 11:00","2016","01","22","11:00","-5.0","","-11.0","","63","","7","","12","","","","100.43","","","","-10","","NA"
"2016-01-22 12:00","2016","01","22","12:00","-4.3","","-12.0","","55","","7","","14","","","","100.37","","","","-9","","NA"
"2016-01-22 13:00","2016","01","22","13:00","-4.0","","-11.5","","56","","7","","8","","","","100.33","","","","-7","","NA"
"2016-01-22 14:00","2016","01","22","14:00","-4.0","","-11.8","","55","","2","","7","","","","100.32","","","","-7","","NA"
"2016-01-22 15:00","2016","01","22","15:00","-3.8","","-11.5","","55","","2","","7","","","","100.25","","","","-7","","NA"
"2016-01-22 16:00","2016","01","22","16:00","-4.0","","-12.7","","51","","2","","11","","","","100.22","","","","-8","","NA"
"2016-01-22 17:00","2016","01","22","17:00","-5.2","","-13.6","","52","","4","","7","","","","100.24","","","","-8","","NA"
"2016-01-22 18:00","2016","01","22","18:00","-6.8","","-13.1","","61","","3","","7","","","","100.28","","","","-10","","NA"
"2016-01-22 19:00","2016","01","22","19:00","-7.8","","-12.4","","69","","4","","9","","","","100.30","","","","-12","","NA"
"2016-01-22 20:00","2016","01","22","20:00","-8.5","","-12.5","","73","","3","","10","","","","100.33","","","","-13","","NA"
"2016-01-22 21:00","2016","01","22","21:00","-9.5","","-12.9","","76","","4","","7","","","","100.35","","","","-13","","NA"
"2016-01-22 22:00","2016","01","22","22:00","-10.3","","-13.2","","79","","3","","9","","","","100.35","","","","-15","","NA"
"2016-01-22 23:00","2016","01","22","23:00","-10.8","","-13.6","","80","","2","","10","","","","100.30","","","","-16","","NA"
"2016-01-23 00:00","2016","01","23","00:00","-11.0","","-13.7","","80","","3","","7","","","","100.30","","","","-15","","NA"
"2016-01-23 01:00","2016","01","23","01:00","-11.1","","-13.6","","81","","3","","7","","","","100.26","","","","-15","","NA"
"2016-01-23 02:00","2016","01","23","02:00","-11.3","","-13.7","","83","","6","","8","","","","100.21","","","","-16","","NA"
"2016-01-23 03:00","2016","01","23","03:00","-11.7","","-13.7","","85","","8","","6","","","","100.19","","","","-15","","NA"
"2016-01-23 04:00","2016","01","23","04:00","-12.0","","-14.3","","83","","5","","9","","","","100.15","","","","-17","","NA"
"2016-01-23 05:00","2016","01","23","05:00","-12.1","","-14.5","","82","","2","","8","","","","100.10","","","","-17","","NA"
"2016-01-23 06:00","2016","01","23","06:00","-12.5","","-14.8","","83","","3","","6","","","","100.07","","","","-16","","NA"
"2016-01-23 07:00","2016","01","23","07:00","-12.5","","-14.9","","82","","4","","5","","","","100.10","","","","-16","","NA"
"2016-01-23 08:00","2016","01","23","08:00","-12.8","","-15.1","","83","","3","","6","","","","100.08","","","","-17","","NA"
"2016-01-23 09:00","2016","01","23","09:00","-12.8","","-15.3","","81","","4","","5","","","","100.07","","","","-16","","NA"
"2016-01-23 10:00","2016","01","23","10:00","-12.0","","-14.6","","81","","8","","5","","","","100.09","","","","-15","","NA"
"2016-01-23 11:00","2016","01","23","11:00","-9.9","","-13.8","","73","","8","","1","","","","100.01","","","","-10","","NA"
"2016-01-23 12:00","2016","01","23","12:00","-9.4","","-14.3","","68","","27","","5","","","","99.90","","","","-12","","NA"
"2016-01-23 13:00","2016","01","23","13:00","-9.7","","-14.3","","69","","26","","11","","","","99.76","","","","-15","","NA"
"2016-01-23 14:00","2016","01","23","14:00","-8.6","","-13.5","","68","","27","","15","","","","99.67","","","","-15","","NA"
"2016-01-23 15:00","2016","01","23","15:00","-7.8","","-13.2","","65","","27","","15","","","","99.61","","","","-14","","NA"
"2016-01-23 16:00","2016","01","23","16:00","-7.7","","-12.5","","69","","27","","10","","","","99.57","","","","-13","","NA"
"2016-01-23 17:00","2016","01","23","17:00","-8.1","","-12.3","","72","","26","","8","","","","99.52","","","","-12","","NA"
"2016-01-23 18:00","2016","01","23","18:00","-9.8","","-12.6","","79","","30","","10","","","","99.48","","","","-15","","NA"
"2016-01-23 19:00","2016","01","23","19:00","-10.1","","-12.4","","83","","31","","14","","","","99.52","","","","-17","","NA"
"2016-01-23 20:00","2016","01","23","20:00","-10.5","","-13.0","","81","","5","","3","","","","99.45","","","","-12","","NA"
"2016-01-23 21:00","2016","01","23","21:00","-10.7","","-12.6","","87","","27","","3","","","","99.40","","","","-13","","NA"
"2016-01-23 22:00","2016","01","23","22:00","-10.1","","-12.6","","82","","30","","11","","","","99.36","","","","-16","","NA"
"2016-01-23 23:00","2016","01","23","23:00","-9.7","","-11.9","","84","","35","","4","","","","99.34","","","","-12","","NA"
"2016-01-24 00:00","2016","01","24","00:00","-8.2","","-10.3","","85","","24","","3","","","","99.32","","","","-10","","NA"
"2016-01-24 01:00","2016","01","24","01:00","-7.3","","-9.6","","84","","32","","3","","","","99.22","","","","-9","","NA"
"2016-01-24 02:00","2016","01","24","02:00","-7.7","","-9.7","","85","","7","","2","","","","99.15","","","","-9","","NA"
"2016-01-24 03:00","2016","01","24","03:00","-6.4","","-8.4","","86","","10","","6","","","","99.09","","","","-9","","NA"
"2016-01-24 04:00","2016","01","24","04:00","-4.9","","-7.0","","85","","19","","3","","","","99.03","","","","-6","","NA"
"2016-01-24 05:00","2016","01","24","05:00","-4.3","","-6.8","","83","","27","","9","","","","98.99","","","","-8","","NA"
"2016-01-24 06:00","2016","01","24","06:00","-2.6","","-5.0","","84","","24","","10","","","","98.94","","","","-6","","NA"
"2016-01-24 07:00","2016","01","24","07:00","-2.9","","-5.2","","84","","28","","5","","","","98.94","","","","-5","","NA"
"2016-01-24 08:00","2016","01","24","08:00","-1.9","","-4.3","","84","","21","","25","","","","98.90","","","","-8","","NA"
"2016-01-24 09:00","2016","01","24","09:00","-1.7","","-3.4","","88","","22","","16","","","","98.93","","","","-7","","NA"
"2016-01-24 10:00","2016","01","24","10:00","-2.1","","-3.3","","91","","28","","5","","","","98.98","","","","-4","","NA"
"2016-01-24 11:00","2016","01","24","11:00","-1.9","","-2.7","","94","","23","","10","","","","98.97","","","","-6","","NA"
"2016-01-24 12:00","2016","01","24","12:00","-1.4","","-2.2","","95","","20","","11","","","","98.91","","","","-5","","NA"
"2016-01-24 13:00","2016","01","24","13:00","-1.3","","-2.1","","95","","22","","11","","","","98.86","","","","-5","","NA"
"2016-01-24 14:00","2016","01","24","14:00","-1.1","","-2.0","","94","","23","","10","","","","98.83","","","","-5","","NA"
"2016-01-24 15:00","2016","01","24","15:00","-1.1","","-2.3","","92","","23","","13","","","","98.84","","","","-5","","NA"
"2016-01-24 16:00","2016","01","24","16:00","-1.1","","-3.2","","86","","27","","10","","","","98.89","","","","-5","","NA"
"2016-01-24 17:00","2016","01","24","17:00","-1.1","","-3.1","","87","","26","","5","","","","98.93","","","","-3","","NA"
"2016-01-24 18:00","2016","01","24","18:00","-1.2","","-3.3","","86","","26","","4","","","","98.98","","","","-3","","NA"
"2016-01-24 19:00","2016","01","24","19:00","-1.1","","-3.0","","87","","14","","2","","","","99.03","","","","-2","","NA"
"2016-01-24 20:00","2016","01","24","20:00","-1.1","","-3.0","","86","","22","","8","","","","99.11","","","","-4","","NA"
"2016-01-24 21:00","2016","01","24","21:00","-1.2","","-2.9","","89","","28","","3","","","","99.13","","","","-2","","NA"
"2016-01-24 22:00","2016","01","24","22:00","-1.1","","-2.9","","88","","2","","2","","","","99.16","","","","-2","","NA"
"2016-01-24 23:00","2016","01","24","23:00","-1.6","","-2.6","","93","","7","","7","","","","99.13","","","","-4","","NA"
"2016-01-25 00:00","2016","01","25","00:00","-1.5","","-2.6","","92","","4","","4","","","","99.19","","","","-3","","NA"
"2016-01-25 01:00","2016","01","25","01:00","-1.5","","-2.7","","91","","7","","5","","","","99.20","","","","-3","","NA"
"2016-01-25 02:00","2016","01","25","02:00","-1.6","","-2.6","","93","","8","","8","","","","99.22","","","","-5","","NA"
"2016-01-25 03:00","2016","01","25","03:00","-1.5","","-2.3","","95","","7","","9","","","","99.25","","","","-5","","NA"
"2016-01-25 04:00","2016","01","25","04:00","-1.5","","-2.3","","95","","7","","9","","","","99.22","","","","-5","","NA"
"2016-01-25 05:00","2016","01","25","05:00","-1.2","","-1.9","","95","","7","","6","","","","99.26","","","","-3","","NA"
"2016-01-25 06:00","2016","01","25","06:00","-1.0","","-1.8","","95","","7","","7","","","","99.28","","","","-4","","NA"
"2016-01-25 07:00","2016","01","25","07:00","0.0","","-2.3","","84","","17","","22","","","","99.28","","","","-6","","NA"
"2016-01-25 08:00","2016","01","25","08:00","0.0","","-2.7","","82","","16","","21","","","","99.28","","","","-5","","NA"
"2016-01-25 09:00","2016","01","25","09:00","0.0","","-2.4","","84","","17","","19","","","","99.26","","","","-5","","NA"
"2016-01-25 10:00","2016","01","25","10:00","-0.2","","-2.1","","87","","16","","25","","","","99.24","","","","-6","","NA"
"2016-01-25 11:00","2016","01","25","11:00","0.3","","-2.5","","81","","18","","29","","","","99.23","","","","","","NA"
"2016-01-25 12:00","2016","01","25","12:00","0.2","","-2.6","","81","","19","","21","","","","99.13","","","","","","NA"
"2016-01-25 13:00","2016","01","25","13:00","0.3","","-2.2","","84","","17","","18","","","","99.02","","","","","","NA"
"2016-01-25 14:00","2016","01","25","14:00","0.5","","-2.1","","83","","17","","25","","","","98.92","","","","","","NA"
"2016-01-25 15:00","2016","01","25","15:00","0.7","","-1.9","","83","","16","","21","","","","98.86","","","","","","NA"
"2016-01-25 16:00","2016","01","25","16:00","0.8","","-1.7","","84","","15","","20","","","","98.81","","","","","","NA"
"2016-01-25 17:00","2016","01","25","17:00","0.9","","-1.7","","83","","15","","24","","","","98.72","","","","","","NA"
"2016-01-25 18:00","2016","01","25","18:00","1.2","","-2.4","","77","","17","","17","","","","98.70","","","","","","NA"
"2016-01-25 19:00","2016","01","25","19:00","1.1","","-2.1","","79","","19","","11","","","","98.67","","","","","","NA"
"2016-01-25 20:00","2016","01","25","20:00","1.2","","-2.1","","79","","18","","17","","","","98.58","","","","","","NA"
"2016-01-25 21:00","2016","01","25","21:00","1.4","","-1.6","","80","","17","","22","","","","98.48","","","","","","NA"
"2016-01-25 22:00","2016","01","25","22:00","1.6","","-0.4","","87","","18","","22","","","","98.40","","","","","","NA"
"2016-01-25 23:00","2016","01","25","23:00","1.2","","-0.5","","89","","22","","6","","","","98.25","","","","","","NA"
"2016-01-26 00:00","2016","01","26","00:00","1.0","","-0.6","","89","","21","","6","","","","98.20","","","","","","NA"
"2016-01-26 01:00","2016","01","26","01:00","1.3","","-0.5","","88","","25","","2","","","","98.13","","","","","","NA"
"2016-01-26 02:00","2016","01","26","02:00","0.6","","-0.6","","92","","5","","6","","","","98.02","","","","","","NA"
"2016-01-26 03:00","2016","01","26","03:00","0.3","","-0.6","","93","","6","","6","","","","97.95","","","","","","NA"
"2016-01-26 04:00","2016","01","26","04:00","0.2","","-0.6","","95","","5","","4","","","","97.86","","","","","","NA"
"2016-01-26 05:00","2016","01","26","05:00","0.3","","-0.4","","95","","6","","7","","","","97.74","","","","","","NA"
"2016-01-26 06:00","2016","01","26","06:00","0.2","","-0.5","","95","","7","","6","","","","97.67","","","","","","NA"
"2016-01-26 07:00","2016","01","26","07:00","0.1","","-0.5","","95","","6","","4","","","","97.62","","","","","","NA"
"2016-01-26 08:00","2016","01","26","08:00","0.2","","-0.5","","96","","0","","1","","","","97.63","","","","","","NA"
"2016-01-26 09:00","2016","01","26","09:00","0.2","","-0.4","","96","","33","","8","","","","97.63","","","","","","NA"
"2016-01-26 10:00","2016","01","26","10:00","0.4","","-0.3","","95","","33","","8","","","","97.67","","","","","","NA"
"2016-01-26 11:00","2016","01","26","11:00","0.6","","-0.7","","91","","34","","8","","","","97.74","","","","","","NA"
"2016-01-26 12:00","2016","01","26","12:00","0.6","","-1.1","","89","","30","","13","","","","97.82","","","","","","NA"
"2016-01-26 13:00","2016","01","26","13:00","0.3","","-1.3","","89","","29","","15","","","","97.91","","","","","","NA"
"2016-01-26 14:00","2016","01","26","14:00","-0.1","","-2.0","","87","","31","","19","","","","98.03","","","","-5","","NA"
"2016-01-26 15:00","2016","01","26","15:00","-0.7","","-3.1","","84","","33","","17","","","","98.14","","","","-6","","NA"
"2016-01-26 16:00","2016","01","26","16:00","-1.8","","-4.7","","80","","32","","17","","","","98.36","","","","-7","","NA"
"2016-01-26 17:00","2016","01","26","17:00","-3.3","","-5.9","","83","","33","","20","","","","98.50","","","","-9","","NA"
"2016-01-26 18:00","2016","01","26","18:00","-4.7","","-6.9","","84","","32","","16","","","","98.69","","","","-10","","NA"
"2016-01-26 19:00","2016","01","26","19:00","-5.0","","-7.2","","85","","33","","10","","","","98.81","","","","-9","","NA"
"2016-01-26 20:00","2016","01","26","20:00","-5.6","","-9.0","","77","","34","","14","","","","98.89","","","","-11","","NA"
"2016-01-26 21:00","2016","01","26","21:00","-6.0","","-8.5","","82","","34","","9","","","","98.97","","","","-10","","NA"
"2016-01-26 22:00","2016","01","26","22:00","-6.4","","-9.0","","82","","34","","10","","","","99.04","","","","-11","","NA"
"2016-01-26 23:00","2016","01","26","23:00","-7.2","","-9.7","","82","","34","","11","","","","99.13","","","","-12","","NA"
"2016-01-27 00:00","2016","01","27","00:00","-8.0","","-11.1","","78","","35","","14","","","","99.16","","","","-14","","NA"
"2016-01-27 01:00","2016","01","27","01:00","-8.6","","-11.6","","79","","35","","11","","","","99.19","","","","-14","","NA"
"2016-01-27 02:00","2016","01","27","02:00","-8.9","","-11.7","","80","","30","","4","","","","99.23","","","","-11","","NA"
"2016-01-27 03:00","2016","01","27","03:00","-8.9","","-12.0","","78","","31","","7","","","","99.31","","","","-13","","NA"
"2016-01-27 04:00","2016","01","27","04:00","-9.6","","-12.6","","79","","31","","9","","","","99.38","","","","-14","","NA"
"2016-01-27 05:00","2016","01","27","05:00","-10.2","","-12.8","","81","","32","","5","","","","99.45","","","","-13","","NA"
"2016-01-27 06:00","2016","01","27","06:00","-10.2","","-12.9","","81","","30","","4","","","","99.48","","","","-13","","NA"
"2016-01-27 07:00","2016","01","27","07:00","-11.2","","-13.4","","84","","31","","8","","","","99.52","","","","-16","","NA"
"2016-01-27 08:00","2016","01","27","08:00","-10.6","","-12.4","","86","","31","","6","","","","99.52","","","","-14","","NA"
"2016-01-27 09:00","2016","01","27","09:00","-9.9","","-12.2","","83","","31","","7","","","","99.55","","","","-14","","NA"
"2016-01-27 10:00","2016","01","27","10:00","-7.0","","-11.1","","73","","32","","3","","","","99.49","","","","-9","","NA"
"2016-01-27 11:00","2016","01","27","11:00","-5.9","","-9.6","","75","","22","","5","","","","99.55","","","","-8","","NA"
"2016-01-27 12:00","2016","01","27","12:00","-4.9","","-8.3","","77","","20","","13","","","","99.44","","","","-10","","NA"
"2016-01-27 13:00","2016","01","27","13:00","-3.3","","-7.1","","75","","19","","4","","","","99.31","","","","-5","","NA"
"2016-01-27 14:00","2016","01","27","14:00","-2.9","","-5.7","","81","","22","","10","","","","99.17","","","","-7","","NA"
"2016-01-27 15:00","2016","01","27","15:00","-1.5","","-6.2","","70","","24","","23","","","","99.07","","","","-8","","NA"
"2016-01-27 16:00","2016","01","27","16:00","-1.7","","-6.0","","72","","24","","19","","","","99.05","","","","-7","","NA"
"2016-01-27 17:00","2016","01","27","17:00","-1.3","","-8.5","","58","","24","","28","","","","98.96","","","","-8","","NA"
"2016-01-27 18:00","2016","01","27","18:00","-1.2","","-7.0","","65","","21","","24","","","","98.89","","","","-7","","NA"
"2016-01-27 19:00","2016","01","27","19:00","-0.8","","-6.0","","68","","21","","28","","","","98.75","","","","-7","","NA"
"2016-01-27 20:00","2016","01","27","20:00","-0.3","","-4.7","","73","","21","","33","","","","98.67","","","","-7","","NA"
"2016-01-27 21:00","2016","01","27","21:00","-0.4","","-4.6","","73","","22","","36","","","","98.56","","","","-8","","NA"
"2016-01-27 22:00","2016","01","27","22:00","-0.6","","-5.4","","70","","22","","44","","","","98.48","","","","-9","","NA"
"2016-01-27 23:00","2016","01","27","23:00","-0.7","","-5.1","","72","","21","","44","","","","98.36","","","","-9","","NA"
"2016-01-28 00:00","2016","01","28","00:00","-1.2","","-4.1","","81","","21","","54","","","","98.20","","","","-10","","NA"
"2016-01-28 01:00","2016","01","28","01:00","-1.8","","-3.4","","89","","21","","46","","","","98.19","","","","-10","","NA"
"2016-01-28 02:00","2016","01","28","02:00","-1.6","","-3.6","","86","","21","","42","","","","98.03","","","","-10","","NA"
"2016-01-28 03:00","2016","01","28","03:00","-1.2","","-3.2","","86","","20","","38","","","","97.91","","","","-9","","NA"
"2016-01-28 04:00","2016","01","28","04:00","-1.0","","-2.6","","89","","21","","37","","","","97.76","","","","-8","","NA"
"2016-01-28 05:00","2016","01","28","05:00","-0.6","","-2.2","","89","","21","","30","","","","97.59","","","","-7","","NA"
"2016-01-28 06:00","2016","01","28","06:00","0.0","","-2.8","","82","","21","","41","","","","97.51","","","","-7","","NA"
"2016-01-28 07:00","2016","01","28","07:00","0.3","","-2.2","","84","","21","","39","","","","97.46","","","","","","NA"
"2016-01-28 08:00","2016","01","28","08:00","0.1","","-1.8","","87","","21","","38","","","","97.38","","","","","","NA"
"2016-01-28 09:00","2016","01","28","09:00","0.3","","-1.3","","89","","21","","35","","","","97.32","","","","","","NA"
"2016-01-28 10:00","2016","01","28","10:00","0.0","","-1.0","","93","","21","","34","","","","97.22","","","","-7","","NA"
"2016-01-28 11:00","2016","01","28","11:00","0.1","","-0.7","","95","","22","","37","","","","97.17","","","","","","NA"
"2016-01-28 12:00","2016","01","28","12:00","0.3","","-0.6","","94","","23","","33","","","","97.14","","","","","","NA"
"2016-01-28 13:00","2016","01","28","13:00","0.5","","-0.6","","92","","24","","21","","","","97.08","","","","","","NA"
"2016-01-28 14:00","2016","01","28","14:00","-0.5","","-2.4","","87","","28","","22","","","","97.11","","","","-6","","NA"
"2016-01-28 15:00","2016","01","28","15:00","-0.4","","-3.0","","82","","29","","21","","","","97.13","","","","-6","","NA"
"2016-01-28 16:00","2016","01","28","16:00","-0.1","","-3.3","","79","","27","","19","","","","97.15","","","","-5","","NA"
"2016-01-28 17:00","2016","01","28","17:00","-0.5","","-2.5","","86","","28","","11","","","","97.19","","","","-4","","NA"
"2016-01-28 18:00","2016","01","28","18:00","-0.6","","-2.4","","88","","28","","11","","","","97.26","","","","-4","","NA"
"2016-01-28 19:00","2016","01","28","19:00","-1.3","","-2.9","","88","","29","","11","","","","97.30","","","","-5","","NA"
"2016-01-28 20:00","2016","01","28","20:00","-5.6","","-9.3","","75","","36","","26","","","","97.45","","","","-13","","NA"
"2016-01-28 21:00","2016","01","28","21:00","-8.7","","-12.6","","73","","1","","25","","","","97.58","","","","-17","","NA"
"2016-01-28 22:00","2016","01","28","22:00","-11.1","","-15.5","","70","","36","","24","","","","97.68","","","","-20","","NA"
"2016-01-28 23:00","2016","01","28","23:00","-12.4","","-16.8","","70","","36","","19","","","","97.77","","","","-21","","NA"
"2016-01-29 00:00","2016","01","29","00:00","-13.7","","-18.1","","69","","36","","17","","","","97.85","","","","-22","","NA"
"2016-01-29 01:00","2016","01","29","01:00","-14.6","","-18.9","","70","","36","","12","","","","97.95","","","","-21","","NA"
"2016-01-29 02:00","2016","01","29","02:00","-15.5","","-20.2","","67","","36","","18","","","","98.05","","","","-24","","NA"
"2016-01-29 03:00","2016","01","29","03:00","-16.6","","-21.1","","68","","35","","19","","","","98.16","","","","-26","","NA"
"2016-01-29 04:00","2016","01","29","04:00","-17.2","","-21.5","","69","","34","","12","","","","98.25","","","","-25","","NA"
"2016-01-29 05:00","2016","01","29","05:00","-18.1","","-22.5","","69","","35","","11","","","","98.32","","","","-25","","NA"
"2016-01-29 06:00","2016","01","29","06:00","-18.3","","-22.6","","69","","34","","5","","","","98.41","","","","-22","","NA"
"2016-01-29 07:00","2016","01","29","07:00","-18.6","","-22.4","","72","","26","","10","","","","98.52","","","","-26","","NA"
"2016-01-29 08:00","2016","01","29","08:00","-19.1","","-23.3","","69","","27","","18","","","","98.62","","","","-29","","NA"
"2016-01-29 09:00","2016","01","29","09:00","-19.0","","-24.1","","64","","29","","11","","","","98.69","","","","-26","","NA"
"2016-01-29 10:00","2016","01","29","10:00","-18.0","","-24.9","","55","","33","","12","","","","98.79","","","","-26","","NA"
"2016-01-29 11:00","2016","01","29","11:00","-16.0","","-24.1","","50","","31","","9","","","","98.78","","","","-22","","NA"
"2016-01-29 12:00","2016","01","29","12:00","-14.9","","-22.6","","52","","34","","14","","","","98.77","","","","-22","","NA"
"2016-01-29 13:00","2016","01","29","13:00","-13.5","","-21.0","","53","","31","","18","","","","98.75","","","","-22","","NA"
"2016-01-29 14:00","2016","01","29","14:00","-13.2","","-20.5","","54","","30","","18","","","","98.80","","","","-21","","NA"
"2016-01-29 15:00","2016","01","29","15:00","-10.8","","-19.1","","50","","36","","6","","","","98.77","","","","-14","","NA"
"2016-01-29 16:00","2016","01","29","16:00","-10.9","","-18.1","","55","","28","","16","","","","98.86","","","","-18","","NA"
"2016-01-29 17:00","2016","01","29","17:00","-11.9","","-18.2","","59","","28","","15","","","","98.94","","","","-19","","NA"
"2016-01-29 18:00","2016","01","29","18:00","-12.9","","-17.4","","69","","30","","7","","","","98.95","","","","-17","","NA"
"2016-01-29 19:00","2016","01","29","19:00","-13.4","","-18.1","","68","","31","","11","","","","98.94","","","","-20","","NA"
"2016-01-29 20:00","2016","01","29","20:00","-13.4","","-18.1","","68","","34","","8","","","","98.95","","","","-18","","NA"
"2016-01-29 21:00","2016","01","29","21:00","-13.0","","-18.1","","65","","36","","7","","","","98.91","","","","-18","","NA"
"2016-01-29 22:00","2016","01","29","22:00","-12.6","","-18.2","","63","","6","","6","","","","98.86","","","","-17","","NA"
"2016-01-29 23:00","2016","01","29","23:00","-12.7","","-17.1","","69","","5","","10","","","","98.81","","","","-18","","NA"
"2016-01-30 00:00","2016","01","30","00:00","-12.0","","-15.7","","74","","5","","10","","","","98.80","","","","-18","","NA"
"2016-01-30 01:00","2016","01","30","01:00","-9.5","","-12.0","","82","","7","","10","","","","98.68","","","","-15","","NA"
"2016-01-30 02:00","2016","01","30","02:00","-8.0","","-10.5","","82","","10","","15","","","","98.55","","","","-14","","NA"
"2016-01-30 03:00","2016","01","30","03:00","","M","-5.9","","76","","19","","34","","","","98.42","","","","","","NA"
"2016-01-30 04:00","2016","01","30","04:00","-2.2","","-4.5","","85","","17","","40","","","","98.21","","","","-10","","NA"
"2016-01-30 05:00","2016","01","30","05:00","-1.9","","-3.9","","86","","17","","46","","","","98.06","","","","-10","","NA"
"2016-01-30 06:00","2016","01","30","06:00","-1.7","","-4.4","","82","","18","","42","","","","97.95","","","","-10","","NA"
"2016-01-30 07:00","2016","01","30","07:00","-1.6","","-4.2","","83","","17","","44","","","","97.88","","","","-10","","NA"
"2016-01-30 08:00","2016","01","30","08:00","-0.7","","-2.8","","86","","17","","38","","","","97.76","","","","-8","","NA"
"2016-01-30 09:00","2016","01","30","09:00","0.5","","-1.1","","89","","21","","29","","","","97.75","","","","","","NA"
"2016-01-30 10:00","2016","01","30","10:00","1.0","","-2.0","","80","","22","","34","","","","97.67","","","","","","NA"
"2016-01-30 11:00","2016","01","30","11:00","1.1","","-1.7","","81","","23","","26","","","","97.66","","","","","","NA"
"2016-01-30 12:00","2016","01","30","12:00","1.5","","-1.4","","81","","24","","25","","","","97.60","","","","","","NA"
"2016-01-30 13:00","2016","01","30","13:00","1.8","","-1.4","","79","","25","","23","","","","97.60","","","","","","NA"
"2016-01-30 14:00","2016","01","30","14:00","1.8","","-1.4","","80","","24","","24","","","","97.54","","","","","","NA"
"2016-01-30 15:00","2016","01","30","15:00","1.8","","-1.3","","80","","24","","21","","","","97.55","","","","","","NA"
"2016-01-30 16:00","2016","01","30","16:00","1.8","","-1.2","","81","","24","","21","","","","97.63","","","","","","NA"
"2016-01-30 17:00","2016","01","30","17:00","1.7","","-0.9","","83","","23","","16","","","","97.70","","","","","","NA"
"2016-01-30 18:00","2016","01","30","18:00","1.6","","-0.8","","84","","23","","17","","","","97.77","","","","","","NA"
"2016-01-30 19:00","2016","01","30","19:00","1.4","","-0.9","","85","","23","","11","","","","97.82","","","","","","NA"
"2016-01-30 20:00","2016","01","30","20:00","0.8","","-0.5","","91","","21","","6","","","","97.82","","","","","","NA"
"2016-01-30 21:00","2016","01","30","21:00","1.4","","-0.2","","89","","22","","9","","","","97.82","","","","","","NA"
"2016-01-30 22:00","2016","01","30","22:00","1.8","","0.0","","88","","26","","9","","","","97.81","","","","","","NA"
"2016-01-30 23:00","2016","01","30","23:00","2.3","","0.2","","86","","25","","9","","","","97.81","","","","","","NA"
"2016-01-31 00:00","2016","01","31","00:00","3.6","","0.0","","77","","26","","9","","","","97.85","","","","","","NA"
"2016-01-31 01:00","2016","01","31","01:00","3.4","","-0.3","","77","","27","","17","","","","97.87","","","","","","NA"
"2016-01-31 02:00","2016","01","31","02:00","3.8","","-0.8","","72","","26","","20","","","","97.88","","","","","","NA"
"2016-01-31 03:00","2016","01","31","03:00","3.6","","-0.7","","73","","27","","20","","","","97.88","","","","","","NA"
"2016-01-31 04:00","2016","01","31","04:00","3.3","","-0.8","","75","","27","","12","","","","97.90","","","","","","NA"
"2016-01-31 05:00","2016","01","31","05:00","2.8","","-0.7","","78","","21","","10","","","","97.91","","","","","","NA"
"2016-01-31 06:00","2016","01","31","06:00","3.2","","-0.5","","77","","24","","14","","","","97.95","","","","","","NA"
"2016-01-31 07:00","2016","01","31","07:00","2.9","","-0.2","","80","","29","","11","","","","97.93","","","","","","NA"
"2016-01-31 08:00","2016","01","31","08:00","2.3","","-0.5","","82","","21","","8","","","","97.94","","","","","","NA"
"2016-01-31 09:00","2016","01","31","09:00","1.5","","0.2","","91","","23","","7","","","","97.99","","","","","","NA"
"2016-01-31 10:00","2016","01","31","10:00","1.8","","0.4","","91","","20","","12","","","","98.01","","","","","","NA"
"2016-01-31 11:00","2016","01","31","11:00","2.7","","1.3","","91","","24","","9","","","","97.97","","","","","","NA"
"2016-01-31 12:00","2016","01","31","12:00","2.1","","1.0","","92","","18","","5","","","","97.91","","","","","","NA"
"2016-01-31 13:00","2016","01","31","13:00","2.2","","1.2","","93","","17","","1","","","","97.82","","","","","","NA"
"2016-01-31 14:00","2016","01","31","14:00","1.9","","0.9","","93","","9","","8","","","","97.73","","","","","","NA"
"2016-01-31 15:00","2016","01","31","15:00","1.8","","1.0","","94","","12","","7","","","","97.71","","","","","","NA"
"2016-01-31 16:00","2016","01","31","16:00","1.7","","0.9","","95","","5","","7","","","","97.63","","","","","","NA"
"2016-01-31 17:00","2016","01","31","17:00","2.2","","1.5","","95","","5","","9","","","","97.54","","","","","","NA"
"2016-01-31 18:00","2016","01","31","18:00","1.8","","1.1","","95","","7","","8","","","","97.55","","","","","","NA"
"2016-01-31 19:00","2016","01","31","19:00","1.8","","1.1","","95","","4","","7","","","","97.51","","","","","","NA"
"2016-01-31 20:00","2016","01","31","20:00","1.0","","0.4","","95","","4","","7","","","","97.46","","","","","","NA"
"2016-01-31 21:00","2016","01","31","21:00","0.7","","0.1","","95","","36","","8","","","","97.39","","","","","","NA"
"2016-01-31 22:00","2016","01","31","22:00","0.5","","-0.2","","95","","33","","9","","","","97.41","","","","","","NA"
"2016-01-31 23:00","2016","01","31","23:00","0.8","","0.1","","95","","32","","11","","","","97.43","","","","","","NA"
