"Station Name","KILLARNEY (AUT)"
"Province","ONTARIO"
"Latitude","45.97"
"Longitude","-81.48"
"Elevation","196.30"
"Climate Identifier","605DJ25"
"WMO Identifier","71460"
"TC Identifier","WBE"
"All times are specified in Local Standard Time (LST). Add 1 hour to adjust for Daylight Saving Time where and when it is observed."

"Legend"
"E","Estimated"
"M","Missing"
"NA","Not Available"

"Date/Time","Year","Month","Day","Time","Temp (°C)","Temp Flag","Dew Point Temp (°C)","Dew Point Temp Flag","Rel Hum (%)","Rel Hum Flag","Wind Dir (10s deg)","Wind Dir Flag","Wind Spd (km/h)","Wind Spd Flag","Visibility (km)","Visibility Flag","Stn Press (kPa)","Stn Press Flag","Hmdx","Hmdx Flag","Wind Chill","Wind Chill Flag","Weather"
"2011-12-01 00:00","2011","12","01","00:00","0.5","","-4.8","","68","","5","","4","","","","99.54","","","","","","NA"
"2011-12-01 01:00","2011","12","01","01:00","0.5","","-4.5","","69","","7","","9","","","","99.55","","","","","","NA"
"2011-12-01 02:00","2011","12","01","02:00","0.3","","-4.6","","70","","7","","15","","","","99.61","","","","","","NA"
"2011-12-01 03:00","2011","12","01","03:00","-0.6","","-4.6","","74","","5","","7","","","","99.71","","","","-3","","NA"
"2011-12-01 04:00","2011","12","01","04:00","-1.0","","-3.5","","83","","8","","17","","","","99.71","","","","-6","","NA"
"2011-12-01 05:00","2011","12","01","05:00","-1.5","","-3.4","","87","","8","","15","","","","99.78","","","","-6","","NA"
"2011-12-01 06:00","2011","12","01","06:00","-1.7","","-3.3","","89","","9","","19","","","","99.81","","","","-7","","NA"
"2011-12-01 07:00","2011","12","01","07:00","-1.8","","-2.5","","95","","7","","13","","","","99.86","","","","-6","","NA"
"2011-12-01 08:00","2011","12","01","08:00","-1.9","","-2.4","","96","","7","","13","","","","99.88","","","","-6","","NA"
"2011-12-01 09:00","2011","12","01","09:00","-1.4","","-1.8","","97","","7","","15","","","","99.85","","","","-6","","NA"
"2011-12-01 10:00","2011","12","01","10:00","-1.1","","-1.5","","97","","8","","19","","","","99.87","","","","-6","","NA"
"2011-12-01 11:00","2011","12","01","11:00","-0.7","","-1.1","","97","","8","","15","","","","99.88","","","","-5","","NA"
"2011-12-01 12:00","2011","12","01","12:00","-0.4","","-0.8","","97","","7","","9","","","","99.84","","","","-4","","NA"
"2011-12-01 13:00","2011","12","01","13:00","-0.1","","-0.5","","97","","6","","7","","","","99.75","","","","-3","","NA"
"2011-12-01 14:00","2011","12","01","14:00","0.8","","0.3","","96","","9","","13","","","","99.70","","","","","","NA"
"2011-12-01 15:00","2011","12","01","15:00","0.8","","0.4","","97","","7","","7","","","","99.67","","","","","","NA"
"2011-12-01 16:00","2011","12","01","16:00","0.4","","0.1","","98","","5","","7","","","","99.69","","","","","","NA"
"2011-12-01 17:00","2011","12","01","17:00","0.3","","0.1","","99","","4","","6","","","","99.73","","","","","","NA"
"2011-12-01 18:00","2011","12","01","18:00","0.0","","-0.2","","99","","35","","7","","","","99.79","","","","-2","","NA"
"2011-12-01 19:00","2011","12","01","19:00","-0.6","","-1.2","","96","","33","","7","","","","99.83","","","","-3","","NA"
"2011-12-01 20:00","2011","12","01","20:00","-0.9","","-1.9","","93","","35","","9","","","","99.86","","","","-4","","NA"
"2011-12-01 21:00","2011","12","01","21:00","-1.0","","-2.1","","92","","34","","6","","","","99.89","","","","-3","","NA"
"2011-12-01 22:00","2011","12","01","22:00","-0.9","","-1.9","","93","","33","","6","","","","99.89","","","","-3","","NA"
"2011-12-01 23:00","2011","12","01","23:00","-1.0","","-2.1","","92","","35","","6","","","","99.90","","","","-3","","NA"
"2011-12-02 00:00","2011","12","02","00:00","-1.1","","-2.2","","92","","36","","6","","","","99.93","","","","-3","","NA"
"2011-12-02 01:00","2011","12","02","01:00","-1.4","","-2.5","","92","","1","","4","","","","99.92","","","","-3","","NA"
"2011-12-02 02:00","2011","12","02","02:00","-1.5","","-2.7","","92","","35","","7","","","","99.96","","","","-4","","NA"
"2011-12-02 03:00","2011","12","02","03:00","-1.8","","-3.0","","91","","36","","2","","","","99.98","","","","-3","","NA"
"2011-12-02 04:00","2011","12","02","04:00","-2.2","","-3.6","","90","","1","","7","","","","99.98","","","","-5","","NA"
"2011-12-02 05:00","2011","12","02","05:00","-2.8","","-4.8","","86","","36","","11","","","","100.04","","","","-7","","NA"
"2011-12-02 06:00","2011","12","02","06:00","-3.5","","-5.6","","85","","36","","9","","","","100.14","","","","-7","","NA"
"2011-12-02 07:00","2011","12","02","07:00","-4.0","","-6.5","","83","","1","","11","","","","100.24","","","","-8","","NA"
"2011-12-02 08:00","2011","12","02","08:00","-4.5","","-6.7","","85","","1","","11","","","","100.31","","","","-9","","NA"
"2011-12-02 09:00","2011","12","02","09:00","-5.0","","-7.2","","85","","1","","13","","","","100.40","","","","-10","","NA"
"2011-12-02 10:00","2011","12","02","10:00","-5.5","","-8.7","","78","","2","","15","","","","100.49","","","","-11","","NA"
"2011-12-02 11:00","2011","12","02","11:00","-5.6","","-10.0","","71","","36","","17","","","","100.55","","","","-12","","NA"
"2011-12-02 12:00","2011","12","02","12:00","-4.6","","-9.4","","69","","1","","7","","","","100.56","","","","-8","","NA"
"2011-12-02 13:00","2011","12","02","13:00","-4.8","","-9.3","","71","","32","","9","","","","100.60","","","","-9","","NA"
"2011-12-02 14:00","2011","12","02","14:00","-4.4","","-8.8","","71","","29","","13","","","","100.63","","","","-9","","NA"
"2011-12-02 15:00","2011","12","02","15:00","-4.0","","-8.3","","72","","33","","7","","","","100.73","","","","-7","","NA"
"2011-12-02 16:00","2011","12","02","16:00","-3.9","","-8.2","","72","","35","","4","","","","100.69","","","","-6","","NA"
"2011-12-02 17:00","2011","12","02","17:00","-4.4","","-8.1","","75","","1","","4","","","","100.74","","","","-6","","NA"
"2011-12-02 18:00","2011","12","02","18:00","-2.9","","-7.3","","72","","25","","11","","","","100.77","","","","-7","","NA"
"2011-12-02 19:00","2011","12","02","19:00","-2.5","","-7.3","","70","","21","","13","","","","100.83","","","","-7","","NA"
"2011-12-02 20:00","2011","12","02","20:00","-1.4","","-5.8","","72","","20","","19","","","","100.86","","","","-7","","NA"
"2011-12-02 21:00","2011","12","02","21:00","-0.6","","-4.3","","76","","21","","20","","","","100.85","","","","-6","","NA"
"2011-12-02 22:00","2011","12","02","22:00","0.0","","-4.1","","74","","21","","19","","","","100.82","","","","-5","","NA"
"2011-12-02 23:00","2011","12","02","23:00","0.4","","-4.3","","71","","21","","30","","","","100.82","","","","","","NA"
"2011-12-03 00:00","2011","12","03","00:00","1.4","","-3.6","","69","","20","","35","","","","100.77","","","","","","NA"
"2011-12-03 01:00","2011","12","03","01:00","1.8","","-2.7","","72","","22","","37","","","","100.71","","","","","","NA"
"2011-12-03 02:00","2011","12","03","02:00","1.6","","-2.2","","76","","24","","26","","","","100.69","","","","","","NA"
"2011-12-03 03:00","2011","12","03","03:00","2.1","","-1.7","","76","","22","","33","","","","100.65","","","","","","NA"
"2011-12-03 04:00","2011","12","03","04:00","2.5","","-2.4","","70","","21","","35","","","","100.59","","","","","","NA"
"2011-12-03 05:00","2011","12","03","05:00","2.9","","-1.1","","75","","22","","37","","","","100.56","","","","","","NA"
"2011-12-03 06:00","2011","12","03","06:00","3.6","","-1.1","","71","","20","","41","","","","100.46","","","","","","NA"
"2011-12-03 07:00","2011","12","03","07:00","4.1","","-0.1","","74","","20","","43","","","","100.42","","","","","","NA"
"2011-12-03 08:00","2011","12","03","08:00","4.7","","-0.1","","71","","19","","50","","","","100.36","","","","","","NA"
"2011-12-03 09:00","2011","12","03","09:00","5.3","","1.7","","78","","19","","46","","","","100.31","","","","","","NA"
"2011-12-03 10:00","2011","12","03","10:00","5.6","","2.7","","82","","21","","50","","","","100.31","","","","","","NA"
"2011-12-03 11:00","2011","12","03","11:00","5.8","","3.3","","84","","20","","43","","","","100.29","","","","","","NA"
"2011-12-03 12:00","2011","12","03","12:00","5.8","","3.9","","88","","19","","48","","","","100.19","","","","","","NA"
"2011-12-03 13:00","2011","12","03","13:00","5.9","","4.1","","88","","19","","48","","","","100.01","","","","","","NA"
"2011-12-03 14:00","2011","12","03","14:00","5.9","","4.6","","91","","20","","48","","","","99.98","","","","","","NA"
"2011-12-03 15:00","2011","12","03","15:00","5.8","","4.3","","90","","21","","37","","","","99.95","","","","","","NA"
"2011-12-03 16:00","2011","12","03","16:00","5.8","","4.2","","89","","22","","33","","","","99.93","","","","","","NA"
"2011-12-03 17:00","2011","12","03","17:00","5.9","","4.2","","89","","21","","37","","","","99.89","","","","","","NA"
"2011-12-03 18:00","2011","12","03","18:00","6.0","","4.3","","89","","21","","37","","","","99.86","","","","","","NA"
"2011-12-03 19:00","2011","12","03","19:00","5.9","","4.6","","91","","22","","35","","","","99.82","","","","","","NA"
"2011-12-03 20:00","2011","12","03","20:00","5.9","","4.6","","91","","20","","32","","","","99.74","","","","","","NA"
"2011-12-03 21:00","2011","12","03","21:00","6.3","","5.1","","92","","21","","33","","","","99.73","","","","","","NA"
"2011-12-03 22:00","2011","12","03","22:00","6.7","","5.4","","91","","20","","32","","","","99.72","","","","","","NA"
"2011-12-03 23:00","2011","12","03","23:00","6.9","","5.4","","90","","20","","35","","","","99.68","","","","","","NA"
"2011-12-04 00:00","2011","12","04","00:00","7.0","","4.8","","86","","19","","24","","","","99.62","","","","","","NA"
"2011-12-04 01:00","2011","12","04","01:00","6.8","","4.6","","86","","17","","19","","","","99.48","","","","","","NA"
"2011-12-04 02:00","2011","12","04","02:00","7.4","","4.5","","82","","18","","28","","","","99.37","","","","","","NA"
"2011-12-04 03:00","2011","12","04","03:00","7.7","","4.2","","78","","18","","35","","","","99.22","","","","","","NA"
"2011-12-04 04:00","2011","12","04","04:00","7.6","","4.4","","80","","18","","26","","","","99.18","","","","","","NA"
"2011-12-04 05:00","2011","12","04","05:00","8.0","","4.5","","79","","19","","32","","","","99.10","","","","","","NA"
"2011-12-04 06:00","2011","12","04","06:00","7.4","","5.0","","85","","21","","28","","","","98.99","","","","","","NA"
"2011-12-04 07:00","2011","12","04","07:00","6.7","","5.3","","91","","21","","35","","","","98.97","","","","","","NA"
"2011-12-04 08:00","2011","12","04","08:00","6.9","","5.4","","90","","22","","32","","","","98.96","","","","","","NA"
"2011-12-04 09:00","2011","12","04","09:00","6.6","","5.6","","93","","21","","28","","","","98.96","","","","","","NA"
"2011-12-04 10:00","2011","12","04","10:00","6.9","","5.8","","93","","22","","28","","","","98.90","","","","","","NA"
"2011-12-04 11:00","2011","12","04","11:00","7.2","","6.0","","92","","22","","32","","","","98.90","","","","","","NA"
"2011-12-04 12:00","2011","12","04","12:00","7.3","","6.2","","93","","22","","39","","","","98.83","","","","","","NA"
"2011-12-04 13:00","2011","12","04","13:00","7.5","","6.3","","92","","23","","41","","","","98.80","","","","","","NA"
"2011-12-04 14:00","2011","12","04","14:00","7.6","","6.5","","93","","23","","44","","","","98.85","","","","","","NA"
"2011-12-04 15:00","2011","12","04","15:00","7.6","","6.6","","93","","22","","37","","","","98.89","","","","","","NA"
"2011-12-04 16:00","2011","12","04","16:00","7.7","","6.6","","93","","23","","35","","","","98.95","","","","","","NA"
"2011-12-04 17:00","2011","12","04","17:00","7.6","","6.8","","95","","23","","32","","","","99.01","","","","","","NA"
"2011-12-04 18:00","2011","12","04","18:00","8.5","","7.1","","91","","24","","28","","","","99.10","","","","","","NA"
"2011-12-04 19:00","2011","12","04","19:00","7.8","","6.3","","90","","25","","19","","","","99.14","","","","","","NA"
"2011-12-04 20:00","2011","12","04","20:00","6.9","","5.6","","91","","27","","19","","","","99.25","","","","","","NA"
"2011-12-04 21:00","2011","12","04","21:00","5.5","","4.3","","92","","30","","15","","","","99.33","","","","","","NA"
"2011-12-04 22:00","2011","12","04","22:00","5.4","","4.1","","91","","28","","15","","","","99.43","","","","","","NA"
"2011-12-04 23:00","2011","12","04","23:00","2.5","","1.2","","91","","1","","15","","","","99.57","","","","","","NA"
"2011-12-05 00:00","2011","12","05","00:00","1.6","","0.3","","91","","2","","11","","","","99.64","","","","","","NA"
"2011-12-05 01:00","2011","12","05","01:00","0.8","","-0.3","","92","","2","","9","","","","99.71","","","","","","NA"
"2011-12-05 02:00","2011","12","05","02:00","0.6","","-0.9","","90","","1","","9","","","","99.79","","","","","","NA"
"2011-12-05 03:00","2011","12","05","03:00","0.3","","-1.5","","88","","1","","4","","","","99.87","","","","","","NA"
"2011-12-05 04:00","2011","12","05","04:00","-0.2","","-2.1","","87","","1","","9","","","","99.88","","","","-3","","NA"
"2011-12-05 05:00","2011","12","05","05:00","-0.7","","-2.6","","87","","2","","9","","","","99.96","","","","-4","","NA"
"2011-12-05 06:00","2011","12","05","06:00","-1.1","","-2.9","","88","","2","","11","","","","99.94","","","","-5","","NA"
"2011-12-05 07:00","2011","12","05","07:00","-1.0","","-3.2","","85","","3","","6","","","","100.06","","","","-3","","NA"
"2011-12-05 08:00","2011","12","05","08:00","-1.1","","-3.3","","85","","2","","6","","","","100.11","","","","-3","","NA"
"2011-12-05 09:00","2011","12","05","09:00","-1.3","","-3.3","","86","","1","","7","","","","100.20","","","","-4","","NA"
"2011-12-05 10:00","2011","12","05","10:00","-1.6","","-3.8","","85","","1","","9","","","","100.22","","","","-5","","NA"
"2011-12-05 11:00","2011","12","05","11:00","-1.6","","-3.7","","86","","3","","6","","","","100.19","","","","-4","","NA"
"2011-12-05 12:00","2011","12","05","12:00","-1.6","","-3.8","","85","","5","","7","","","","100.19","","","","-4","","NA"
"2011-12-05 13:00","2011","12","05","13:00","-1.7","","-3.9","","85","","3","","7","","","","100.21","","","","-4","","NA"
"2011-12-05 14:00","2011","12","05","14:00","-1.6","","-3.9","","84","","1","","9","","","","100.17","","","","-5","","NA"
"2011-12-05 15:00","2011","12","05","15:00","-2.1","","-4.3","","85","","35","","11","","","","100.17","","","","-6","","NA"
"2011-12-05 16:00","2011","12","05","16:00","-2.2","","-4.7","","83","","1","","7","","","","100.24","","","","-5","","NA"
"2011-12-05 17:00","2011","12","05","17:00","-2.5","","-5.2","","82","","3","","9","","","","100.21","","","","-6","","NA"
"2011-12-05 18:00","2011","12","05","18:00","-3.0","","-5.8","","81","","2","","6","","","","100.27","","","","-5","","NA"
"2011-12-05 19:00","2011","12","05","19:00","-3.4","","-6.0","","82","","1","","9","","","","100.31","","","","-7","","NA"
"2011-12-05 20:00","2011","12","05","20:00","-3.8","","-6.4","","82","","1","","9","","","","100.27","","","","-8","","NA"
"2011-12-05 21:00","2011","12","05","21:00","-3.8","","-6.3","","83","","2","","6","","","","100.33","","","","-6","","NA"
"2011-12-05 22:00","2011","12","05","22:00","-4.1","","-6.7","","82","","2","","7","","","","100.33","","","","-7","","NA"
"2011-12-05 23:00","2011","12","05","23:00","-4.5","","-7.0","","83","","1","","9","","","","100.29","","","","-8","","NA"
"2011-12-06 00:00","2011","12","06","00:00","-5.2","","-7.4","","84","","2","","11","","","","100.26","","","","-10","","NA"
"2011-12-06 01:00","2011","12","06","01:00","-5.8","","-7.9","","85","","2","","7","","","","100.15","","","","-9","","NA"
"2011-12-06 02:00","2011","12","06","02:00","-6.1","","-8.5","","83","","3","","6","","","","100.18","","","","-9","","NA"
"2011-12-06 03:00","2011","12","06","03:00","-6.3","","-8.9","","82","","2","","6","","","","100.15","","","","-9","","NA"
"2011-12-06 04:00","2011","12","06","04:00","-6.3","","-9.3","","79","","1","","4","","","","100.14","","","","-8","","NA"
"2011-12-06 05:00","2011","12","06","05:00","-6.9","","-9.9","","79","","2","","7","","","","100.20","","","","-10","","NA"
"2011-12-06 06:00","2011","12","06","06:00","-7.4","","-10.4","","79","","36","","9","","","","100.18","","","","-12","","NA"
"2011-12-06 07:00","2011","12","06","07:00","-8.1","","-11.5","","76","","3","","11","","","","100.21","","","","-13","","NA"
"2011-12-06 08:00","2011","12","06","08:00","-8.9","","-12.2","","77","","1","","11","","","","100.20","","","","-14","","NA"
"2011-12-06 09:00","2011","12","06","09:00","-8.8","","-12.1","","77","","36","","9","","","","100.20","","","","-13","","NA"
"2011-12-06 10:00","2011","12","06","10:00","-8.1","","-12.0","","73","","1","","7","","","","100.17","","","","-12","","NA"
"2011-12-06 11:00","2011","12","06","11:00","-6.2","","-11.4","","67","","4","","4","","","","100.11","","","","-8","","NA"
"2011-12-06 12:00","2011","12","06","12:00","-5.5","","-10.3","","69","","15","","4","","","","99.99","","","","-7","","NA"
"2011-12-06 13:00","2011","12","06","13:00","-5.0","","-10.2","","67","","25","","7","","","","99.91","","","","-8","","NA"
"2011-12-06 14:00","2011","12","06","14:00","-4.3","","-9.1","","69","","19","","7","","","","99.82","","","","-7","","NA"
"2011-12-06 15:00","2011","12","06","15:00","-2.9","","-9.7","","59","","30","","6","","","","99.77","","","","-5","","NA"
"2011-12-06 16:00","2011","12","06","16:00","-3.1","","-10.0","","59","","34","","6","","","","99.72","","","","-6","","NA"
"2011-12-06 17:00","2011","12","06","17:00","-4.2","","-9.8","","65","","35","","6","","","","99.71","","","","-7","","NA"
"2011-12-06 18:00","2011","12","06","18:00","-5.1","","-9.7","","70","","1","","7","","","","99.68","","","","-8","","NA"
"2011-12-06 19:00","2011","12","06","19:00","-5.5","","-10.1","","70","","4","","6","","","","99.66","","","","-8","","NA"
"2011-12-06 20:00","2011","12","06","20:00","-5.9","","-10.5","","70","","4","","6","","","","99.64","","","","-9","","NA"
"2011-12-06 21:00","2011","12","06","21:00","-5.9","","-10.2","","72","","4","","7","","","","99.59","","","","-9","","NA"
"2011-12-06 22:00","2011","12","06","22:00","-5.6","","-10.9","","66","","4","","6","","","","99.53","","","","-8","","NA"
"2011-12-06 23:00","2011","12","06","23:00","-6.3","","-10.3","","73","","4","","6","","","","99.46","","","","-9","","NA"
"2011-12-07 00:00","2011","12","07","00:00","-5.9","","-9.2","","77","","5","","7","","","","99.36","","","","-9","","NA"
"2011-12-07 01:00","2011","12","07","01:00","-5.9","","-8.7","","81","","4","","4","","","","99.28","","","","-8","","NA"
"2011-12-07 02:00","2011","12","07","02:00","-5.0","","-8.2","","78","","3","","6","","","","99.23","","","","-8","","NA"
"2011-12-07 03:00","2011","12","07","03:00","-3.6","","-6.7","","79","","","","0","","","","99.23","","","","","","NA"
"2011-12-07 04:00","2011","12","07","04:00","-1.2","","-5.1","","75","","26","","24","","","","99.16","","","","-7","","NA"
"2011-12-07 05:00","2011","12","07","05:00","-1.4","","-5.8","","72","","27","","24","","","","99.08","","","","-8","","NA"
"2011-12-07 06:00","2011","12","07","06:00","-1.1","","-5.6","","71","","25","","17","","","","99.03","","","","-6","","NA"
"2011-12-07 07:00","2011","12","07","07:00","-0.8","","-5.7","","69","","25","","19","","","","98.95","","","","-6","","NA"
"2011-12-07 08:00","2011","12","07","08:00","-0.5","","-5.7","","68","","26","","19","","","","98.93","","","","-6","","NA"
"2011-12-07 09:00","2011","12","07","09:00","-0.4","","-6.4","","64","","27","","19","","","","98.90","","","","-6","","NA"
"2011-12-07 10:00","2011","12","07","10:00","-0.4","","-6.9","","61","","27","","30","","","","98.87","","","","-7","","NA"
"2011-12-07 11:00","2011","12","07","11:00","-0.4","","-5.6","","68","","26","","20","","","","98.84","","","","-6","","NA"
"2011-12-07 12:00","2011","12","07","12:00","-0.1","","-5.9","","65","","24","","19","","","","98.72","","","","-5","","NA"
"2011-12-07 13:00","2011","12","07","13:00","0.2","","-7.1","","58","","25","","20","","","","98.62","","","","","","NA"
"2011-12-07 14:00","2011","12","07","14:00","0.7","","-6.7","","58","","24","","22","","","","98.56","","","","","","NA"
"2011-12-07 15:00","2011","12","07","15:00","0.8","","-6.2","","59","","24","","22","","","","98.50","","","","","","NA"
"2011-12-07 16:00","2011","12","07","16:00","0.5","","-5.5","","64","","25","","22","","","","98.51","","","","","","NA"
"2011-12-07 17:00","2011","12","07","17:00","0.7","","-4.9","","66","","24","","22","","","","98.52","","","","","","NA"
"2011-12-07 18:00","2011","12","07","18:00","0.7","","-4.0","","71","","24","","22","","","","98.51","","","","","","NA"
"2011-12-07 19:00","2011","12","07","19:00","-0.3","","-1.5","","92","","28","","20","","","","98.54","","","","-6","","NA"
"2011-12-07 20:00","2011","12","07","20:00","-0.1","","-2.3","","85","","28","","19","","","","98.57","","","","-5","","NA"
"2011-12-07 21:00","2011","12","07","21:00","-0.4","","-3.5","","80","","32","","15","","","","98.55","","","","-5","","NA"
"2011-12-07 22:00","2011","12","07","22:00","-0.6","","-3.9","","78","","30","","22","","","","98.52","","","","-6","","NA"
"2011-12-07 23:00","2011","12","07","23:00","-0.9","","-4.5","","77","","31","","19","","","","98.55","","","","-6","","NA"
"2011-12-08 00:00","2011","12","08","00:00","-1.3","","-5.4","","74","","31","","20","","","","98.64","","","","-7","","NA"
"2011-12-08 01:00","2011","12","08","01:00","-1.7","","-7.1","","67","","34","","15","","","","98.65","","","","-7","","NA"
"2011-12-08 02:00","2011","12","08","02:00","-2.3","","-8.8","","61","","32","","11","","","","98.72","","","","-6","","NA"
"2011-12-08 03:00","2011","12","08","03:00","-2.7","","-8.3","","65","","29","","9","","","","98.81","","","","-6","","NA"
"2011-12-08 04:00","2011","12","08","04:00","-3.1","","-9.1","","63","","31","","6","","","","98.83","","","","-6","","NA"
"2011-12-08 05:00","2011","12","08","05:00","-3.1","","-6.4","","78","","27","","4","","","","98.85","","","","-5","","NA"
"2011-12-08 06:00","2011","12","08","06:00","-2.4","","-4.0","","89","","24","","9","","","","98.85","","","","-6","","NA"
"2011-12-08 07:00","2011","12","08","07:00","-1.1","","-3.8","","82","","22","","32","","","","98.81","","","","-8","","NA"
"2011-12-08 08:00","2011","12","08","08:00","-1.0","","-3.7","","82","","25","","24","","","","98.79","","","","-7","","NA"
"2011-12-08 09:00","2011","12","08","09:00","0.2","","-4.1","","73","","24","","39","","","","98.75","","","","","","NA"
"2011-12-08 10:00","2011","12","08","10:00","0.2","","-5.6","","65","","25","","43","","","","98.69","","","","","","NA"
"2011-12-08 11:00","2011","12","08","11:00","-0.3","","-2.6","","84","","26","","44","","","","98.79","","","","-8","","NA"
"2011-12-08 12:00","2011","12","08","12:00","0.1","","-7.6","","56","","26","","43","","","","98.78","","","","","","NA"
"2011-12-08 13:00","2011","12","08","13:00","-0.5","","-9.3","","51","","27","","41","","","","98.86","","","","-8","","NA"
"2011-12-08 14:00","2011","12","08","14:00","-1.4","","-8.1","","60","","26","","41","","","","98.88","","","","-9","","NA"
"2011-12-08 15:00","2011","12","08","15:00","-1.1","","-9.1","","55","","26","","37","","","","98.90","","","","-9","","NA"
"2011-12-08 16:00","2011","12","08","16:00","-1.3","","-11.6","","45","","26","","46","","","","98.95","","","","-10","","NA"
"2011-12-08 17:00","2011","12","08","17:00","-1.4","","-10.0","","52","","27","","41","","","","99.05","","","","-9","","NA"
"2011-12-08 18:00","2011","12","08","18:00","-1.3","","-9.4","","54","","27","","41","","","","99.11","","","","-9","","NA"
"2011-12-08 19:00","2011","12","08","19:00","-1.6","","-7.0","","67","","26","","35","","","","99.17","","","","-9","","NA"
"2011-12-08 20:00","2011","12","08","20:00","-2.5","","-5.8","","78","","26","","35","","","","99.23","","","","-10","","NA"
"2011-12-08 21:00","2011","12","08","21:00","-2.6","","-4.6","","86","","27","","33","","","","99.25","","","","-10","","NA"
"2011-12-08 22:00","2011","12","08","22:00","-2.8","","-4.3","","89","","28","","28","","","","99.25","","","","-10","","NA"
"2011-12-08 23:00","2011","12","08","23:00","-2.8","","-10.4","","56","","31","","19","","","","99.32","","","","-9","","NA"
"2011-12-09 00:00","2011","12","09","00:00","-3.6","","-12.5","","50","","30","","17","","","","99.40","","","","-9","","NA"
"2011-12-09 01:00","2011","12","09","01:00","-4.1","","-12.9","","50","","31","","11","","","","99.44","","","","-9","","NA"
"2011-12-09 02:00","2011","12","09","02:00","-4.8","","-14.0","","49","","36","","6","","","","99.46","","","","-8","","NA"
"2011-12-09 03:00","2011","12","09","03:00","-4.8","","-13.8","","49","","33","","7","","","","99.46","","","","-8","","NA"
"2011-12-09 04:00","2011","12","09","04:00","-4.5","","-13.2","","51","","33","","4","","","","99.42","","","","-6","","NA"
"2011-12-09 05:00","2011","12","09","05:00","-4.5","","-12.7","","53","","36","","6","","","","99.40","","","","-7","","NA"
"2011-12-09 06:00","2011","12","09","06:00","-4.6","","-12.4","","54","","32","","4","","","","99.41","","","","-6","","NA"
"2011-12-09 07:00","2011","12","09","07:00","-3.4","","-8.5","","68","","26","","15","","","","99.43","","","","-9","","NA"
"2011-12-09 08:00","2011","12","09","08:00","-3.4","","-7.4","","74","","25","","15","","","","99.43","","","","-9","","NA"
"2011-12-09 09:00","2011","12","09","09:00","-3.4","","-6.9","","77","","25","","19","","","","99.43","","","","-9","","NA"
"2011-12-09 10:00","2011","12","09","10:00","-3.8","","-5.8","","86","","29","","15","","","","99.46","","","","-9","","NA"
"2011-12-09 11:00","2011","12","09","11:00","-4.6","","-6.5","","87","","33","","9","","","","99.47","","","","-8","","NA"
"2011-12-09 12:00","2011","12","09","12:00","-4.8","","-6.7","","87","","32","","13","","","","99.45","","","","-10","","NA"
"2011-12-09 13:00","2011","12","09","13:00","-4.4","","-6.6","","85","","29","","17","","","","99.43","","","","-10","","NA"
"2011-12-09 14:00","2011","12","09","14:00","-3.5","","-9.4","","64","","28","","32","","","","99.39","","","","-11","","NA"
"2011-12-09 15:00","2011","12","09","15:00","-3.5","","-11.2","","55","","28","","35","","","","99.40","","","","-12","","NA"
"2011-12-09 16:00","2011","12","09","16:00","-3.6","","-11.6","","54","","27","","33","","","","99.45","","","","-12","","NA"
"2011-12-09 17:00","2011","12","09","17:00","-3.9","","-11.2","","57","","28","","35","","","","99.53","","","","-12","","NA"
"2011-12-09 18:00","2011","12","09","18:00","-4.0","","-10.2","","62","","27","","33","","","","99.60","","","","-12","","NA"
"2011-12-09 19:00","2011","12","09","19:00","-4.0","","-11.0","","58","","26","","26","","","","99.67","","","","-11","","NA"
"2011-12-09 20:00","2011","12","09","20:00","-3.7","","-9.2","","66","","27","","24","","","","99.73","","","","-11","","NA"
"2011-12-09 21:00","2011","12","09","21:00","-4.9","","-9.0","","73","","32","","15","","","","99.77","","","","-10","","NA"
"2011-12-09 22:00","2011","12","09","22:00","-5.0","","-10.3","","66","","32","","15","","","","99.79","","","","-11","","NA"
"2011-12-09 23:00","2011","12","09","23:00","-5.8","","-9.1","","77","","31","","11","","","","99.82","","","","-11","","NA"
"2011-12-10 00:00","2011","12","10","00:00","-6.3","","-11.9","","64","","34","","7","","","","99.83","","","","-10","","NA"
"2011-12-10 01:00","2011","12","10","01:00","-5.5","","-9.4","","74","","31","","15","","","","99.80","","","","-11","","NA"
"2011-12-10 02:00","2011","12","10","02:00","-6.1","","-9.9","","74","","33","","13","","","","99.83","","","","-11","","NA"
"2011-12-10 03:00","2011","12","10","03:00","-6.7","","-10.5","","74","","33","","9","","","","99.90","","","","-11","","NA"
"2011-12-10 04:00","2011","12","10","04:00","-7.0","","-10.4","","77","","33","","11","","","","99.91","","","","-12","","NA"
"2011-12-10 05:00","2011","12","10","05:00","-6.7","","-9.1","","83","","33","","9","","","","99.92","","","","-11","","NA"
"2011-12-10 06:00","2011","12","10","06:00","-6.7","","-9.8","","79","","33","","9","","","","99.96","","","","-11","","NA"
"2011-12-10 07:00","2011","12","10","07:00","-6.9","","-10.2","","77","","34","","11","","","","100.02","","","","-12","","NA"
"2011-12-10 08:00","2011","12","10","08:00","-6.9","","-11.1","","72","","30","","13","","","","100.09","","","","-12","","NA"
"2011-12-10 09:00","2011","12","10","09:00","-6.4","","-10.3","","74","","30","","13","","","","100.16","","","","-12","","NA"
"2011-12-10 10:00","2011","12","10","10:00","-5.6","","-10.0","","71","","30","","11","","","","100.19","","","","-10","","NA"
"2011-12-10 11:00","2011","12","10","11:00","-5.5","","-9.7","","72","","31","","11","","","","100.23","","","","-10","","NA"
"2011-12-10 12:00","2011","12","10","12:00","-4.9","","-9.4","","71","","32","","7","","","","100.20","","","","-8","","NA"
"2011-12-10 13:00","2011","12","10","13:00","-5.0","","-8.5","","76","","31","","11","","","","100.15","","","","-10","","NA"
"2011-12-10 14:00","2011","12","10","14:00","-4.1","","-7.7","","76","","28","","6","","","","100.16","","","","-7","","NA"
"2011-12-10 15:00","2011","12","10","15:00","-3.5","","-7.8","","72","","26","","24","","","","100.14","","","","-10","","NA"
"2011-12-10 16:00","2011","12","10","16:00","-3.8","","-6.9","","79","","26","","24","","","","100.17","","","","-11","","NA"
"2011-12-10 17:00","2011","12","10","17:00","-3.4","","-8.6","","67","","27","","26","","","","100.18","","","","-10","","NA"
"2011-12-10 18:00","2011","12","10","18:00","-3.2","","-8.7","","66","","26","","24","","","","100.21","","","","-10","","NA"
"2011-12-10 19:00","2011","12","10","19:00","-2.9","","-9.2","","62","","26","","26","","","","100.23","","","","-10","","NA"
"2011-12-10 20:00","2011","12","10","20:00","-2.6","","-7.9","","67","","26","","24","","","","100.25","","","","-9","","NA"
"2011-12-10 21:00","2011","12","10","21:00","-2.3","","-9.2","","59","","25","","26","","","","100.26","","","","-9","","NA"
"2011-12-10 22:00","2011","12","10","22:00","-2.2","","-9.5","","57","","26","","20","","","","100.25","","","","-8","","NA"
"2011-12-10 23:00","2011","12","10","23:00","-2.1","","-9.3","","58","","27","","26","","","","100.26","","","","-9","","NA"
"2011-12-11 00:00","2011","12","11","00:00","-2.0","","-9.8","","55","","26","","26","","","","100.27","","","","-9","","NA"
"2011-12-11 01:00","2011","12","11","01:00","-1.8","","-8.9","","58","","25","","15","","","","100.24","","","","-7","","NA"
"2011-12-11 02:00","2011","12","11","02:00","-1.3","","-8.2","","59","","23","","24","","","","100.20","","","","-7","","NA"
"2011-12-11 03:00","2011","12","11","03:00","-0.9","","-7.5","","61","","24","","26","","","","100.21","","","","-7","","NA"
"2011-12-11 04:00","2011","12","11","04:00","-0.4","","-5.5","","68","","23","","32","","","","100.15","","","","-7","","NA"
"2011-12-11 05:00","2011","12","11","05:00","0.0","","-3.3","","78","","23","","37","","","","100.13","","","","-7","","NA"
"2011-12-11 06:00","2011","12","11","06:00","0.2","","-3.7","","75","","23","","43","","","","100.15","","","","","","NA"
"2011-12-11 07:00","2011","12","11","07:00","0.6","","-2.8","","78","","22","","43","","","","100.14","","","","","","NA"
"2011-12-11 08:00","2011","12","11","08:00","0.7","","-2.2","","81","","23","","44","","","","100.15","","","","","","NA"
"2011-12-11 09:00","2011","12","11","09:00","0.4","","-2.6","","80","","22","","35","","","","100.18","","","","","","NA"
"2011-12-11 10:00","2011","12","11","10:00","0.7","","-2.2","","81","","23","","39","","","","100.14","","","","","","NA"
"2011-12-11 11:00","2011","12","11","11:00","1.0","","-2.1","","80","","23","","33","","","","100.12","","","","","","NA"
"2011-12-11 12:00","2011","12","11","12:00","1.6","","-1.7","","79","","24","","33","","","","100.05","","","","","","NA"
"2011-12-11 13:00","2011","12","11","13:00","2.1","","-1.4","","78","","24","","33","","","","99.98","","","","","","NA"
"2011-12-11 14:00","2011","12","11","14:00","2.8","","-1.2","","75","","24","","33","","","","99.91","","","","","","NA"
"2011-12-11 15:00","2011","12","11","15:00","3.6","","0.0","","77","","23","","32","","","","99.87","","","","","","NA"
"2011-12-11 16:00","2011","12","11","16:00","3.9","","1.0","","81","","22","","37","","","","99.87","","","","","","NA"
"2011-12-11 17:00","2011","12","11","17:00","4.1","","0.6","","78","","24","","41","","","","99.88","","","","","","NA"
"2011-12-11 18:00","2011","12","11","18:00","4.3","","0.8","","78","","23","","48","","","","99.84","","","","","","NA"
"2011-12-11 19:00","2011","12","11","19:00","4.6","","0.8","","76","","23","","48","","","","99.88","","","","","","NA"
"2011-12-11 20:00","2011","12","11","20:00","4.7","","0.6","","75","","23","","43","","","","99.89","","","","","","NA"
"2011-12-11 21:00","2011","12","11","21:00","4.8","","1.1","","77","","23","","43","","","","99.92","","","","","","NA"
"2011-12-11 22:00","2011","12","11","22:00","4.6","","0.8","","76","","24","","33","","","","99.95","","","","","","NA"
"2011-12-11 23:00","2011","12","11","23:00","4.7","","0.7","","75","","24","","30","","","","100.00","","","","","","NA"
"2011-12-12 00:00","2011","12","12","00:00","4.4","","0.8","","77","","24","","20","","","","100.05","","","","","","NA"
"2011-12-12 01:00","2011","12","12","01:00","4.1","","0.8","","79","","24","","30","","","","100.08","","","","","","NA"
"2011-12-12 02:00","2011","12","12","02:00","3.7","","0.1","","77","","24","","32","","","","100.11","","","","","","NA"
"2011-12-12 03:00","2011","12","12","03:00","3.4","","0.2","","80","","24","","28","","","","100.17","","","","","","NA"
"2011-12-12 04:00","2011","12","12","04:00","3.1","","0.1","","81","","24","","30","","","","100.16","","","","","","NA"
"2011-12-12 05:00","2011","12","12","05:00","3.0","","0.3","","82","","24","","24","","","","100.20","","","","","","NA"
"2011-12-12 06:00","2011","12","12","06:00","3.4","","0.5","","81","","26","","24","","","","100.21","","","","","","NA"
"2011-12-12 07:00","2011","12","12","07:00","3.8","","0.7","","80","","26","","24","","","","100.22","","","","","","NA"
"2011-12-12 08:00","2011","12","12","08:00","4.0","","1.4","","83","","25","","19","","","","100.24","","","","","","NA"
"2011-12-12 09:00","2011","12","12","09:00","4.3","","2.1","","86","","23","","24","","","","100.29","","","","","","NA"
"2011-12-12 10:00","2011","12","12","10:00","4.4","","2.4","","87","","24","","24","","","","100.33","","","","","","NA"
"2011-12-12 11:00","2011","12","12","11:00","4.8","","3.0","","88","","22","","17","","","","100.37","","","","","","NA"
"2011-12-12 12:00","2011","12","12","12:00","4.5","","2.7","","88","","22","","30","","","","100.32","","","","","","NA"
"2011-12-12 13:00","2011","12","12","13:00","4.6","","2.3","","85","","25","","17","","","","100.31","","","","","","NA"
"2011-12-12 14:00","2011","12","12","14:00","4.8","","2.6","","86","","24","","13","","","","100.29","","","","","","NA"
"2011-12-12 15:00","2011","12","12","15:00","4.7","","2.6","","86","","25","","9","","","","100.28","","","","","","NA"
"2011-12-12 16:00","2011","12","12","16:00","4.3","","3.1","","92","","23","","20","","","","100.32","","","","","","NA"
"2011-12-12 17:00","2011","12","12","17:00","4.2","","3.1","","93","","24","","11","","","","100.32","","","","","","NA"
"2011-12-12 18:00","2011","12","12","18:00","4.5","","3.2","","91","","22","","22","","","","100.34","","","","","","NA"
"2011-12-12 19:00","2011","12","12","19:00","4.5","","3.5","","93","","22","","17","","","","100.32","","","","","","NA"
"2011-12-12 20:00","2011","12","12","20:00","4.5","","3.3","","92","","22","","26","","","","100.30","","","","","","NA"
"2011-12-12 21:00","2011","12","12","21:00","4.4","","3.5","","94","","22","","17","","","","100.31","","","","","","NA"
"2011-12-12 22:00","2011","12","12","22:00","4.5","","3.7","","95","","24","","15","","","","100.29","","","","","","NA"
"2011-12-12 23:00","2011","12","12","23:00","4.5","","3.4","","93","","26","","13","","","","100.30","","","","","","NA"
"2011-12-13 00:00","2011","12","13","00:00","4.5","","3.4","","93","","24","","17","","","","100.30","","","","","","NA"
"2011-12-13 01:00","2011","12","13","01:00","4.3","","3.5","","95","","26","","15","","","","100.29","","","","","","NA"
"2011-12-13 02:00","2011","12","13","02:00","4.2","","3.1","","93","","26","","20","","","","100.28","","","","","","NA"
"2011-12-13 03:00","2011","12","13","03:00","4.2","","2.8","","91","","27","","24","","","","100.30","","","","","","NA"
"2011-12-13 04:00","2011","12","13","04:00","3.8","","2.5","","91","","27","","20","","","","100.29","","","","","","NA"
"2011-12-13 05:00","2011","12","13","05:00","3.7","","2.7","","93","","29","","19","","","","100.31","","","","","","NA"
"2011-12-13 06:00","2011","12","13","06:00","3.4","","2.3","","92","","29","","19","","","","100.37","","","","","","NA"
"2011-12-13 07:00","2011","12","13","07:00","3.1","","2.1","","93","","30","","11","","","","100.42","","","","","","NA"
"2011-12-13 08:00","2011","12","13","08:00","2.9","","1.6","","91","","29","","4","","","","100.45","","","","","","NA"
"2011-12-13 09:00","2011","12","13","09:00","2.7","","1.6","","92","","31","","4","","","","100.48","","","","","","NA"
"2011-12-13 10:00","2011","12","13","10:00","2.9","","1.9","","93","","32","","4","","","","100.53","","","","","","NA"
"2011-12-13 11:00","2011","12","13","11:00","3.1","","1.7","","91","","29","","6","","","","100.56","","","","","","NA"
"2011-12-13 12:00","2011","12","13","12:00","3.5","","1.9","","89","","33","","6","","","","100.49","","","","","","NA"
"2011-12-13 13:00","2011","12","13","13:00","3.4","","1.9","","90","","14","","2","","","","100.47","","","","","","NA"
"2011-12-13 14:00","2011","12","13","14:00","3.4","","1.7","","89","","11","","2","","","","100.44","","","","","","NA"
"2011-12-13 15:00","2011","12","13","15:00","3.5","","1.7","","88","","","","0","","","","100.45","","","","","","NA"
"2011-12-13 16:00","2011","12","13","16:00","3.4","","1.9","","90","","7","","2","","","","100.46","","","","","","NA"
"2011-12-13 17:00","2011","12","13","17:00","3.1","","2.1","","93","","7","","9","","","","100.46","","","","","","NA"
"2011-12-13 18:00","2011","12","13","18:00","2.6","","1.9","","95","","6","","9","","","","100.47","","","","","","NA"
"2011-12-13 19:00","2011","12","13","19:00","2.5","","1.9","","96","","7","","9","","","","100.50","","","","","","NA"
"2011-12-13 20:00","2011","12","13","20:00","2.4","","1.8","","96","","7","","13","","","","100.47","","","","","","NA"
"2011-12-13 21:00","2011","12","13","21:00","2.2","","1.8","","97","","7","","13","","","","100.43","","","","","","NA"
"2011-12-13 22:00","2011","12","13","22:00","2.2","","1.8","","97","","7","","11","","","","100.42","","","","","","NA"
"2011-12-13 23:00","2011","12","13","23:00","2.2","","1.7","","96","","7","","11","","","","100.41","","","","","","NA"
"2011-12-14 00:00","2011","12","14","00:00","2.0","","1.6","","97","","7","","13","","","","100.35","","","","","","NA"
"2011-12-14 01:00","2011","12","14","01:00","1.9","","1.6","","98","","7","","11","","","","100.31","","","","","","NA"
"2011-12-14 02:00","2011","12","14","02:00","1.9","","1.7","","99","","7","","11","","","","100.33","","","","","","NA"
"2011-12-14 03:00","2011","12","14","03:00","1.8","","1.6","","99","","7","","13","","","","100.28","","","","","","NA"
"2011-12-14 04:00","2011","12","14","04:00","1.8","","1.6","","99","","7","","11","","","","100.24","","","","","","NA"
"2011-12-14 05:00","2011","12","14","05:00","1.8","","1.6","","99","","7","","11","","","","100.21","","","","","","NA"
"2011-12-14 06:00","2011","12","14","06:00","1.9","","1.7","","99","","7","","13","","","","100.16","","","","","","NA"
"2011-12-14 07:00","2011","12","14","07:00","2.0","","1.9","","99","","8","","13","","","","100.15","","","","","","NA"
"2011-12-14 08:00","2011","12","14","08:00","1.9","","1.8","","99","","7","","15","","","","100.07","","","","","","NA"
"2011-12-14 09:00","2011","12","14","09:00","2.1","","2.0","","99","","7","","15","","","","100.02","","","","","","NA"
"2011-12-14 10:00","2011","12","14","10:00","2.9","","2.8","","99","","8","","15","","","","100.01","","","","","","NA"
"2011-12-14 11:00","2011","12","14","11:00","5.1","","2.8","","85","","15","","24","","","","99.92","","","","","","NA"
"2011-12-14 12:00","2011","12","14","12:00","4.9","","2.3","","83","","14","","26","","","","99.78","","","","","","NA"
"2011-12-14 13:00","2011","12","14","13:00","5.2","","1.7","","78","","14","","33","","","","99.61","","","","","","NA"
"2011-12-14 14:00","2011","12","14","14:00","5.2","","2.4","","82","","15","","28","","","","99.56","","","","","","NA"
"2011-12-14 15:00","2011","12","14","15:00","4.2","","2.2","","87","","15","","32","","","","99.39","","","","","","NA"
"2011-12-14 16:00","2011","12","14","16:00","4.5","","3.4","","93","","14","","37","","","","99.24","","","","","","NA"
"2011-12-14 17:00","2011","12","14","17:00","4.9","","3.9","","93","","14","","35","","","","99.13","","","","","","NA"
"2011-12-14 18:00","2011","12","14","18:00","5.0","","4.2","","95","","14","","35","","","","98.97","","","","","","NA"
"2011-12-14 19:00","2011","12","14","19:00","5.3","","4.7","","96","","15","","33","","","","98.91","","","","","","NA"
"2011-12-14 20:00","2011","12","14","20:00","5.3","","4.9","","97","","16","","30","","","","98.82","","","","","","NA"
"2011-12-14 21:00","2011","12","14","21:00","5.5","","5.0","","97","","15","","28","","","","98.67","","","","","","NA"
"2011-12-14 22:00","2011","12","14","22:00","5.5","","5.1","","97","","16","","24","","","","98.52","","","","","","NA"
"2011-12-14 23:00","2011","12","14","23:00","5.9","","5.5","","97","","17","","26","","","","98.35","","","","","","NA"
"2011-12-15 00:00","2011","12","15","00:00","6.1","","5.8","","98","","19","","22","","","","98.25","","","","","","NA"
"2011-12-15 01:00","2011","12","15","01:00","6.1","","5.8","","98","","19","","22","","","","98.06","","","","","","NA"
"2011-12-15 02:00","2011","12","15","02:00","6.3","","6.0","","98","","20","","20","","","","97.95","","","","","","NA"
"2011-12-15 03:00","2011","12","15","03:00","6.6","","6.3","","98","","20","","17","","","","97.81","","","","","","NA"
"2011-12-15 04:00","2011","12","15","04:00","7.0","","6.7","","98","","20","","26","","","","97.61","","","","","","NA"
"2011-12-15 05:00","2011","12","15","05:00","7.0","","6.7","","98","","24","","11","","","","97.53","","","","","","NA"
"2011-12-15 06:00","2011","12","15","06:00","8.0","","7.6","","97","","23","","33","","","","97.45","","","","","","NA"
"2011-12-15 07:00","2011","12","15","07:00","7.1","","6.8","","98","","23","","19","","","","97.39","","","","","","NA"
"2011-12-15 08:00","2011","12","15","08:00","6.7","","6.4","","98","","23","","24","","","","97.35","","","","","","NA"
"2011-12-15 09:00","2011","12","15","09:00","8.4","","8.0","","97","","25","","13","","","","97.31","","","","","","NA"
"2011-12-15 10:00","2011","12","15","10:00","8.4","","8.0","","97","","24","","11","","","","97.30","","","","","","NA"
"2011-12-15 11:00","2011","12","15","11:00","8.5","","8.1","","97","","26","","13","","","","97.27","","","","","","NA"
"2011-12-15 12:00","2011","12","15","12:00","7.0","","6.1","","94","","28","","22","","","","97.25","","","","","","NA"
"2011-12-15 13:00","2011","12","15","13:00","6.1","","5.1","","93","","28","","24","","","","97.27","","","","","","NA"
"2011-12-15 14:00","2011","12","15","14:00","5.3","","4.0","","91","","28","","37","","","","97.33","","","","","","NA"
"2011-12-15 15:00","2011","12","15","15:00","4.9","","3.3","","89","","28","","32","","","","97.38","","","","","","NA"
"2011-12-15 16:00","2011","12","15","16:00","4.6","","2.3","","85","","28","","35","","","","97.51","","","","","","NA"
"2011-12-15 17:00","2011","12","15","17:00","4.4","","2.6","","88","","28","","30","","","","97.58","","","","","","NA"
"2011-12-15 18:00","2011","12","15","18:00","4.1","","2.5","","89","","28","","30","","","","97.63","","","","","","NA"
"2011-12-15 19:00","2011","12","15","19:00","3.9","","2.2","","89","","28","","32","","","","97.70","","","","","","NA"
"2011-12-15 20:00","2011","12","15","20:00","3.9","","2.2","","89","","28","","30","","","","97.78","","","","","","NA"
"2011-12-15 21:00","2011","12","15","21:00","3.6","","0.7","","81","","28","","44","","","","97.82","","","","","","NA"
"2011-12-15 22:00","2011","12","15","22:00","2.0","","0.6","","90","","28","","41","","","","97.94","","","","","","NA"
"2011-12-15 23:00","2011","12","15","23:00","1.6","","0.1","","90","","28","","37","","","","98.07","","","","","","NA"
"2011-12-16 00:00","2011","12","16","00:00","1.5","","0.0","","90","","28","","41","","","","98.21","","","","","","NA"
"2011-12-16 01:00","2011","12","16","01:00","0.9","","0.1","","94","","28","","39","","","","98.36","","","","","","NA"
"2011-12-16 02:00","2011","12","16","02:00","1.2","","-0.3","","90","","29","","33","","","","98.55","","","","","","NA"
"2011-12-16 03:00","2011","12","16","03:00","1.4","","-0.1","","90","","30","","22","","","","98.79","","","","","","NA"
"2011-12-16 04:00","2011","12","16","04:00","1.3","","0.0","","91","","30","","11","","","","98.97","","","","","","NA"
"2011-12-16 05:00","2011","12","16","05:00","0.9","","-0.9","","88","","33","","13","","","","99.13","","","","","","NA"
"2011-12-16 06:00","2011","12","16","06:00","-0.2","","-1.9","","88","","34","","11","","","","99.32","","","","-4","","NA"
"2011-12-16 07:00","2011","12","16","07:00","-1.6","","-3.7","","86","","33","","11","","","","99.57","","","","-5","","NA"
"2011-12-16 08:00","2011","12","16","08:00","-2.7","","-4.9","","85","","36","","17","","","","99.68","","","","-8","","NA"
"2011-12-16 09:00","2011","12","16","09:00","-3.2","","-5.4","","85","","2","","9","","","","99.73","","","","-7","","NA"
"2011-12-16 10:00","2011","12","16","10:00","-4.3","","-7.7","","77","","36","","19","","","","99.83","","","","-10","","NA"
"2011-12-16 11:00","2011","12","16","11:00","-4.2","","-7.6","","77","","35","","9","","","","99.90","","","","-8","","NA"
"2011-12-16 12:00","2011","12","16","12:00","-4.0","","-7.7","","75","","34","","9","","","","99.93","","","","-8","","NA"
"2011-12-16 13:00","2011","12","16","13:00","-4.0","","-7.8","","75","","33","","9","","","","99.84","","","","-8","","NA"
"2011-12-16 14:00","2011","12","16","14:00","-4.9","","-8.3","","77","","35","","13","","","","99.88","","","","-10","","NA"
"2011-12-16 15:00","2011","12","16","15:00","-4.8","","-8.6","","75","","35","","7","","","","99.90","","","","-8","","NA"
"2011-12-16 16:00","2011","12","16","16:00","-4.8","","-8.2","","77","","35","","6","","","","99.94","","","","-8","","NA"
"2011-12-16 17:00","2011","12","16","17:00","-5.0","","-8.2","","78","","34","","11","","","","99.97","","","","-10","","NA"
"2011-12-16 18:00","2011","12","16","18:00","-5.5","","-9.2","","75","","34","","13","","","","99.98","","","","-11","","NA"
"2011-12-16 19:00","2011","12","16","19:00","-6.2","","-9.8","","76","","36","","9","","","","100.02","","","","-10","","NA"
"2011-12-16 20:00","2011","12","16","20:00","-7.8","","-11.9","","72","","35","","13","","","","100.07","","","","-14","","NA"
"2011-12-16 21:00","2011","12","16","21:00","-8.6","","-12.4","","74","","36","","13","","","","100.10","","","","-15","","NA"
"2011-12-16 22:00","2011","12","16","22:00","-9.3","","-13.9","","69","","35","","11","","","","100.13","","","","-15","","NA"
"2011-12-16 23:00","2011","12","16","23:00","-9.9","","-13.1","","77","","34","","9","","","","100.19","","","","-15","","NA"
"2011-12-17 00:00","2011","12","17","00:00","-10.8","","-15.1","","71","","34","","17","","","","100.20","","","","-18","","NA"
"2011-12-17 01:00","2011","12","17","01:00","-11.6","","-15.9","","70","","35","","9","","","","100.23","","","","-17","","NA"
"2011-12-17 02:00","2011","12","17","02:00","-12.0","","-15.7","","74","","1","","2","","","","100.26","","","","-13","","NA"
"2011-12-17 03:00","2011","12","17","03:00","-12.3","","-16.9","","69","","36","","9","","","","100.32","","","","-18","","NA"
"2011-12-17 04:00","2011","12","17","04:00","-12.6","","-16.9","","70","","2","","6","","","","100.31","","","","-17","","NA"
"2011-12-17 05:00","2011","12","17","05:00","-12.8","","-17.5","","68","","36","","9","","","","100.31","","","","-18","","NA"
"2011-12-17 06:00","2011","12","17","06:00","-13.0","","-17.5","","69","","","","0","","","","100.33","","","","","","NA"
"2011-12-17 07:00","2011","12","17","07:00","-13.4","","-16.3","","79","","36","","7","","","","100.36","","","","-18","","NA"
"2011-12-17 08:00","2011","12","17","08:00","-13.6","","-17.6","","72","","1","","6","","","","100.38","","","","-18","","NA"
"2011-12-17 09:00","2011","12","17","09:00","-12.5","","-16.6","","71","","1","","7","","","","100.36","","","","-17","","NA"
"2011-12-17 10:00","2011","12","17","10:00","-11.2","","-17.1","","62","","7","","7","","","","100.37","","","","-15","","NA"
"2011-12-17 11:00","2011","12","17","11:00","-10.4","","-18.1","","53","","10","","9","","","","100.37","","","","-15","","NA"
"2011-12-17 12:00","2011","12","17","12:00","-9.6","","-18.2","","50","","14","","2","","","","100.28","","","","-11","","NA"
"2011-12-17 13:00","2011","12","17","13:00","-9.0","","-15.5","","59","","11","","6","","","","100.18","","","","-12","","NA"
"2011-12-17 14:00","2011","12","17","14:00","-8.3","","-13.8","","64","","12","","6","","","","100.15","","","","-12","","NA"
"2011-12-17 15:00","2011","12","17","15:00","-7.6","","-11.8","","72","","14","","6","","","","100.10","","","","-11","","NA"
"2011-12-17 16:00","2011","12","17","16:00","-6.8","","-10.7","","74","","13","","9","","","","100.05","","","","-11","","NA"
"2011-12-17 17:00","2011","12","17","17:00","-6.8","","-10.3","","76","","14","","15","","","","99.99","","","","-13","","NA"
"2011-12-17 18:00","2011","12","17","18:00","-6.3","","-10.4","","73","","15","","19","","","","100.01","","","","-13","","NA"
"2011-12-17 19:00","2011","12","17","19:00","-5.8","","-10.4","","70","","15","","19","","","","99.95","","","","-12","","NA"
"2011-12-17 20:00","2011","12","17","20:00","-5.4","","-11.1","","64","","14","","22","","","","99.87","","","","-12","","NA"
"2011-12-17 21:00","2011","12","17","21:00","-4.1","","-8.8","","70","","16","","24","","","","99.83","","","","-11","","NA"
"2011-12-17 22:00","2011","12","17","22:00","-3.8","","-9.8","","63","","19","","22","","","","99.79","","","","-10","","NA"
"2011-12-17 23:00","2011","12","17","23:00","-3.0","","-7.9","","69","","18","","20","","","","99.68","","","","-9","","NA"
"2011-12-18 00:00","2011","12","18","00:00","-2.3","","-6.4","","73","","17","","28","","","","99.61","","","","-9","","NA"
"2011-12-18 01:00","2011","12","18","01:00","-2.2","","-6.5","","72","","17","","32","","","","99.53","","","","-10","","NA"
"2011-12-18 02:00","2011","12","18","02:00","-2.0","","-5.9","","75","","17","","32","","","","99.47","","","","-9","","NA"
"2011-12-18 03:00","2011","12","18","03:00","-1.6","","-5.3","","76","","17","","35","","","","99.45","","","","-9","","NA"
"2011-12-18 04:00","2011","12","18","04:00","-0.6","","-3.6","","80","","17","","30","","","","99.41","","","","-7","","NA"
"2011-12-18 05:00","2011","12","18","05:00","-0.5","","-1.2","","95","","18","","35","","","","99.36","","","","-8","","NA"
"2011-12-18 06:00","2011","12","18","06:00","-0.6","","-2.8","","85","","26","","13","","","","99.36","","","","-5","","NA"
"2011-12-18 07:00","2011","12","18","07:00","-1.0","","-3.3","","84","","27","","11","","","","99.39","","","","-5","","NA"
"2011-12-18 08:00","2011","12","18","08:00","-1.1","","-3.3","","85","","26","","11","","","","99.39","","","","-5","","NA"
"2011-12-18 09:00","2011","12","18","09:00","-1.5","","-4.1","","82","","26","","15","","","","99.43","","","","-6","","NA"
"2011-12-18 10:00","2011","12","18","10:00","-0.6","","-4.2","","77","","28","","17","","","","99.47","","","","-6","","NA"
"2011-12-18 11:00","2011","12","18","11:00","-0.7","","-3.9","","79","","28","","11","","","","99.51","","","","-4","","NA"
"2011-12-18 12:00","2011","12","18","12:00","-0.6","","-3.0","","84","","25","","13","","","","99.45","","","","-5","","NA"
"2011-12-18 13:00","2011","12","18","13:00","-0.2","","-3.2","","80","","25","","15","","","","99.40","","","","-5","","NA"
"2011-12-18 14:00","2011","12","18","14:00","0.1","","-5.3","","67","","24","","20","","","","99.37","","","","","","NA"
"2011-12-18 15:00","2011","12","18","15:00","0.1","","-4.3","","72","","24","","15","","","","99.31","","","","","","NA"
"2011-12-18 16:00","2011","12","18","16:00","0.7","","-3.4","","74","","24","","22","","","","99.27","","","","","","NA"
"2011-12-18 17:00","2011","12","18","17:00","0.9","","-3.8","","71","","23","","32","","","","99.22","","","","","","NA"
"2011-12-18 18:00","2011","12","18","18:00","1.2","","-3.0","","74","","21","","41","","","","99.13","","","","","","NA"
"2011-12-18 19:00","2011","12","18","19:00","1.4","","-2.7","","74","","21","","37","","","","99.06","","","","","","NA"
"2011-12-18 20:00","2011","12","18","20:00","1.9","","-1.6","","78","","21","","39","","","","98.94","","","","","","NA"
"2011-12-18 21:00","2011","12","18","21:00","2.2","","-1.4","","77","","21","","39","","","","98.80","","","","","","NA"
"2011-12-18 22:00","2011","12","18","22:00","2.7","","-0.3","","81","","21","","41","","","","98.69","","","","","","NA"
"2011-12-18 23:00","2011","12","18","23:00","3.1","","0.4","","82","","21","","37","","","","98.54","","","","","","NA"
"2011-12-19 00:00","2011","12","19","00:00","3.3","","0.2","","80","","21","","50","","","","98.36","","","","","","NA"
"2011-12-19 01:00","2011","12","19","01:00","3.7","","0.3","","78","","21","","41","","","","98.22","","","","","","NA"
"2011-12-19 02:00","2011","12","19","02:00","4.1","","1.3","","82","","23","","48","","","","98.06","","","","","","NA"
"2011-12-19 03:00","2011","12","19","03:00","3.9","","1.1","","82","","23","","44","","","","97.99","","","","","","NA"
"2011-12-19 04:00","2011","12","19","04:00","3.9","","1.3","","83","","23","","41","","","","97.92","","","","","","NA"
"2011-12-19 05:00","2011","12","19","05:00","4.3","","1.5","","82","","24","","28","","","","97.87","","","","","","NA"
"2011-12-19 06:00","2011","12","19","06:00","4.6","","1.8","","82","","25","","28","","","","97.88","","","","","","NA"
"2011-12-19 07:00","2011","12","19","07:00","4.7","","2.1","","83","","26","","24","","","","97.96","","","","","","NA"
"2011-12-19 08:00","2011","12","19","08:00","4.8","","1.7","","80","","27","","30","","","","98.00","","","","","","NA"
"2011-12-19 09:00","2011","12","19","09:00","4.5","","1.4","","80","","29","","30","","","","98.12","","","","","","NA"
"2011-12-19 10:00","2011","12","19","10:00","4.0","","1.2","","82","","28","","24","","","","98.20","","","","","","NA"
"2011-12-19 11:00","2011","12","19","11:00","4.3","","1.0","","79","","29","","20","","","","98.33","","","","","","NA"
"2011-12-19 12:00","2011","12","19","12:00","4.3","","0.6","","77","","28","","22","","","","98.39","","","","","","NA"
"2011-12-19 13:00","2011","12","19","13:00","2.2","","0.7","","90","","31","","11","","","","98.47","","","","","","NA"
"2011-12-19 14:00","2011","12","19","14:00","2.9","","-1.9","","71","","35","","9","","","","98.60","","","","","","NA"
"2011-12-19 15:00","2011","12","19","15:00","1.5","","-4.2","","66","","34","","15","","","","98.74","","","","","","NA"
"2011-12-19 16:00","2011","12","19","16:00","-0.7","","-5.9","","68","","34","","11","","","","98.94","","","","-4","","NA"
"2011-12-19 17:00","2011","12","19","17:00","-1.8","","-6.9","","68","","36","","19","","","","99.08","","","","-7","","NA"
"2011-12-19 18:00","2011","12","19","18:00","-2.9","","-7.8","","69","","1","","20","","","","99.26","","","","-9","","NA"
"2011-12-19 19:00","2011","12","19","19:00","-3.8","","-8.7","","69","","34","","19","","","","99.42","","","","-10","","NA"
"2011-12-19 20:00","2011","12","19","20:00","-5.0","","-9.7","","70","","35","","17","","","","99.58","","","","-11","","NA"
"2011-12-19 21:00","2011","12","19","21:00","-5.7","","-10.3","","70","","35","","17","","","","99.69","","","","-12","","NA"
"2011-12-19 22:00","2011","12","19","22:00","-6.3","","-10.5","","72","","35","","11","","","","99.80","","","","-11","","NA"
"2011-12-19 23:00","2011","12","19","23:00","-6.4","","-10.5","","73","","33","","7","","","","99.91","","","","-10","","NA"
"2011-12-20 00:00","2011","12","20","00:00","-7.0","","-11.0","","73","","1","","7","","","","99.97","","","","-11","","NA"
"2011-12-20 01:00","2011","12","20","01:00","-7.2","","-11.0","","74","","1","","6","","","","99.96","","","","-10","","NA"
"2011-12-20 02:00","2011","12","20","02:00","-7.7","","-11.1","","77","","4","","6","","","","99.95","","","","-11","","NA"
"2011-12-20 03:00","2011","12","20","03:00","-8.4","","-11.2","","80","","3","","4","","","","100.04","","","","-11","","NA"
"2011-12-20 04:00","2011","12","20","04:00","-8.8","","-12.1","","77","","36","","4","","","","100.08","","","","-11","","NA"
"2011-12-20 05:00","2011","12","20","05:00","-8.9","","-12.2","","77","","1","","4","","","","100.05","","","","-11","","NA"
"2011-12-20 06:00","2011","12","20","06:00","-8.8","","-12.2","","76","","","","0","","","","100.07","","","","","","NA"
"2011-12-20 07:00","2011","12","20","07:00","-8.8","","-12.6","","74","","4","","4","","","","100.09","","","","-11","","NA"
"2011-12-20 08:00","2011","12","20","08:00","-9.6","","-12.5","","79","","4","","7","","","","100.11","","","","-14","","NA"
"2011-12-20 09:00","2011","12","20","09:00","-9.6","","-12.0","","83","","2","","7","","","","100.04","","","","-14","","NA"
"2011-12-20 10:00","2011","12","20","10:00","-8.0","","-10.7","","81","","2","","9","","","","100.00","","","","-13","","NA"
"2011-12-20 11:00","2011","12","20","11:00","-5.4","","-8.7","","78","","8","","6","","","","99.84","","","","-8","","NA"
"2011-12-20 12:00","2011","12","20","12:00","-3.9","","-7.0","","79","","20","","9","","","","99.71","","","","-8","","NA"
"2011-12-20 13:00","2011","12","20","13:00","-3.2","","-7.1","","74","","23","","19","","","","99.62","","","","-9","","NA"
"2011-12-20 14:00","2011","12","20","14:00","-3.0","","-7.4","","72","","22","","15","","","","99.49","","","","-8","","NA"
"2011-12-20 15:00","2011","12","20","15:00","-2.5","","-6.4","","75","","24","","19","","","","99.38","","","","-8","","NA"
"2011-12-20 16:00","2011","12","20","16:00","-1.2","","-6.0","","70","","22","","24","","","","99.35","","","","-7","","NA"
"2011-12-20 17:00","2011","12","20","17:00","-0.9","","-5.4","","71","","24","","19","","","","99.28","","","","-6","","NA"
"2011-12-20 18:00","2011","12","20","18:00","-0.3","","-4.5","","73","","22","","26","","","","99.18","","","","-6","","NA"
"2011-12-20 19:00","2011","12","20","19:00","0.6","","-3.4","","75","","21","","35","","","","99.11","","","","","","NA"
"2011-12-20 20:00","2011","12","20","20:00","0.8","","-2.9","","76","","20","","35","","","","99.03","","","","","","NA"
"2011-12-20 21:00","2011","12","20","21:00","1.0","","-2.8","","76","","22","","35","","","","98.96","","","","","","NA"
"2011-12-20 22:00","2011","12","20","22:00","0.8","","-4.2","","69","","25","","26","","","","98.90","","","","","","NA"
"2011-12-20 23:00","2011","12","20","23:00","0.1","","-4.4","","72","","26","","26","","","","98.81","","","","","","NA"
"2011-12-21 00:00","2011","12","21","00:00","-0.2","","-4.7","","72","","27","","20","","","","98.80","","","","-5","","NA"
"2011-12-21 01:00","2011","12","21","01:00","0.0","","-4.8","","70","","25","","26","","","","98.74","","","","-6","","NA"
"2011-12-21 02:00","2011","12","21","02:00","0.1","","-4.3","","72","","27","","19","","","","98.69","","","","","","NA"
"2011-12-21 03:00","2011","12","21","03:00","0.0","","-4.2","","73","","27","","9","","","","98.67","","","","-3","","NA"
"2011-12-21 04:00","2011","12","21","04:00","0.6","","-3.4","","75","","25","","15","","","","98.55","","","","","","NA"
"2011-12-21 05:00","2011","12","21","05:00","0.3","","-3.6","","75","","27","","15","","","","98.49","","","","","","NA"
"2011-12-21 06:00","2011","12","21","06:00","-0.1","","-3.3","","79","","27","","9","","","","98.45","","","","-3","","NA"
"2011-12-21 07:00","2011","12","21","07:00","-0.2","","-3.7","","77","","27","","7","","","","98.43","","","","-3","","NA"
"2011-12-21 08:00","2011","12","21","08:00","-0.3","","-3.4","","80","","29","","2","","","","98.37","","","","-1","","NA"
"2011-12-21 09:00","2011","12","21","09:00","-0.3","","-3.4","","80","","34","","4","","","","98.33","","","","-2","","NA"
"2011-12-21 10:00","2011","12","21","10:00","0.2","","-3.1","","78","","","","0","","","","98.30","","","","","","NA"
"2011-12-21 11:00","2011","12","21","11:00","0.6","","-2.7","","79","","7","","6","","","","98.26","","","","","","NA"
"2011-12-21 12:00","2011","12","21","12:00","1.3","","-2.7","","75","","5","","2","","","","98.19","","","","","","NA"
"2011-12-21 13:00","2011","12","21","13:00","1.8","","-2.8","","71","","34","","6","","","","98.08","","","","","","NA"
"2011-12-21 14:00","2011","12","21","14:00","1.9","","-2.3","","74","","15","","2","","","","98.01","","","","","","NA"
"2011-12-21 15:00","2011","12","21","15:00","1.9","","-1.8","","76","","10","","2","","","","97.90","","","","","","NA"
"2011-12-21 16:00","2011","12","21","16:00","1.9","","-1.4","","79","","17","","7","","","","97.92","","","","","","NA"
"2011-12-21 17:00","2011","12","21","17:00","1.9","","-1.7","","77","","25","","6","","","","98.04","","","","","","NA"
"2011-12-21 18:00","2011","12","21","18:00","1.9","","-1.3","","79","","30","","13","","","","98.13","","","","","","NA"
"2011-12-21 19:00","2011","12","21","19:00","1.9","","-1.2","","80","","29","","15","","","","98.20","","","","","","NA"
"2011-12-21 20:00","2011","12","21","20:00","1.9","","-1.1","","80","","30","","9","","","","98.24","","","","","","NA"
"2011-12-21 21:00","2011","12","21","21:00","1.4","","-1.4","","82","","31","","9","","","","98.36","","","","","","NA"
"2011-12-21 22:00","2011","12","21","22:00","0.5","","-1.8","","85","","31","","2","","","","98.40","","","","","","NA"
"2011-12-21 23:00","2011","12","21","23:00","0.4","","-1.3","","88","","30","","9","","","","98.51","","","","","","NA"
"2011-12-22 00:00","2011","12","22","00:00","0.5","","-0.5","","93","","25","","4","","","","98.58","","","","","","NA"
"2011-12-22 01:00","2011","12","22","01:00","0.9","","-0.2","","92","","29","","11","","","","98.64","","","","","","NA"
"2011-12-22 02:00","2011","12","22","02:00","0.9","","-0.2","","92","","30","","9","","","","98.75","","","","","","NA"
"2011-12-22 03:00","2011","12","22","03:00","1.4","","-0.1","","90","","27","","9","","","","98.82","","","","","","NA"
"2011-12-22 04:00","2011","12","22","04:00","1.2","","-0.3","","90","","29","","4","","","","98.83","","","","","","NA"
"2011-12-22 05:00","2011","12","22","05:00","1.4","","-0.5","","87","","29","","11","","","","98.92","","","","","","NA"
"2011-12-22 06:00","2011","12","22","06:00","1.1","","-1.9","","80","","31","","13","","","","98.96","","","","","","NA"
"2011-12-22 07:00","2011","12","22","07:00","0.7","","-1.7","","84","","30","","7","","","","99.03","","","","","","NA"
"2011-12-22 08:00","2011","12","22","08:00","0.2","","-1.0","","92","","31","","2","","","","99.08","","","","","","NA"
"2011-12-22 09:00","2011","12","22","09:00","0.7","","0.2","","96","","25","","7","","","","99.18","","","","","","NA"
"2011-12-22 10:00","2011","12","22","10:00","1.4","","0.9","","96","","26","","11","","","","99.25","","","","","","NA"
"2011-12-22 11:00","2011","12","22","11:00","2.0","","0.7","","91","","29","","11","","","","99.22","","","","","","NA"
"2011-12-22 12:00","2011","12","22","12:00","2.7","","-0.2","","81","","31","","15","","","","99.26","","","","","","NA"
"2011-12-22 13:00","2011","12","22","13:00","2.0","","-1.5","","78","","1","","13","","","","99.27","","","","","","NA"
"2011-12-22 14:00","2011","12","22","14:00","2.4","","-1.9","","73","","31","","9","","","","99.38","","","","","","NA"
"2011-12-22 15:00","2011","12","22","15:00","2.3","","-2.2","","72","","34","","4","","","","99.38","","","","","","NA"
"2011-12-22 16:00","2011","12","22","16:00","0.5","","-3.0","","77","","35","","13","","","","99.36","","","","","","NA"
"2011-12-22 17:00","2011","12","22","17:00","-0.8","","-4.4","","77","","4","","13","","","","99.47","","","","-5","","NA"
"2011-12-22 18:00","2011","12","22","18:00","-2.0","","-6.3","","72","","3","","11","","","","99.60","","","","-6","","NA"
"2011-12-22 19:00","2011","12","22","19:00","-3.4","","-7.4","","74","","2","","17","","","","99.60","","","","-9","","NA"
"2011-12-22 20:00","2011","12","22","20:00","-4.3","","-8.5","","72","","2","","11","","","","99.66","","","","-9","","NA"
"2011-12-22 21:00","2011","12","22","21:00","-5.8","","-10.0","","72","","1","","15","","","","99.74","","","","-12","","NA"
"2011-12-22 22:00","2011","12","22","22:00","-6.8","","-10.9","","73","","2","","9","","","","99.74","","","","-11","","NA"
"2011-12-22 23:00","2011","12","22","23:00","-8.3","","-12.2","","73","","2","","13","","","","99.75","","","","-14","","NA"
"2011-12-23 00:00","2011","12","23","00:00","-10.0","","-14.0","","72","","1","","15","","","","99.82","","","","-17","","NA"
"2011-12-23 01:00","2011","12","23","01:00","-11.1","","-14.7","","75","","1","","11","","","","99.88","","","","-17","","NA"
"2011-12-23 02:00","2011","12","23","02:00","-11.6","","-15.1","","75","","1","","9","","","","99.91","","","","-17","","NA"
"2011-12-23 03:00","2011","12","23","03:00","-11.9","","-15.5","","75","","1","","11","","","","99.98","","","","-18","","NA"
"2011-12-23 04:00","2011","12","23","04:00","-13.2","","-17.6","","69","","1","","17","","","","100.04","","","","-21","","NA"
"2011-12-23 05:00","2011","12","23","05:00","-14.2","","-19.3","","65","","2","","22","","","","100.08","","","","-24","","NA"
"2011-12-23 06:00","2011","12","23","06:00","-14.9","","-18.8","","72","","1","","7","","","","100.16","","","","-20","","NA"
"2011-12-23 07:00","2011","12","23","07:00","-15.6","","-20.0","","69","","2","","15","","","","100.22","","","","-24","","NA"
"2011-12-23 08:00","2011","12","23","08:00","-15.9","","-20.2","","69","","2","","9","","","","100.31","","","","-22","","NA"
"2011-12-23 09:00","2011","12","23","09:00","-15.5","","-20.0","","68","","2","","11","","","","100.38","","","","-22","","NA"
"2011-12-23 10:00","2011","12","23","10:00","-14.8","","-20.0","","65","","1","","9","","","","100.42","","","","-21","","NA"
"2011-12-23 11:00","2011","12","23","11:00","-13.9","","-20.0","","60","","1","","13","","","","100.42","","","","-21","","NA"
"2011-12-23 12:00","2011","12","23","12:00","-12.9","","-19.8","","56","","4","","9","","","","100.35","","","","-18","","NA"
"2011-12-23 13:00","2011","12","23","13:00","-12.2","","-19.6","","54","","8","","9","","","","100.28","","","","-17","","NA"
"2011-12-23 14:00","2011","12","23","14:00","-11.0","","-17.9","","57","","10","","9","","","","100.22","","","","-16","","NA"
"2011-12-23 15:00","2011","12","23","15:00","-10.4","","-17.3","","57","","12","","4","","","","100.26","","","","-13","","NA"
"2011-12-23 16:00","2011","12","23","16:00","-10.2","","-16.7","","59","","26","","4","","","","100.33","","","","-13","","NA"
"2011-12-23 17:00","2011","12","23","17:00","-11.2","","-16.0","","68","","33","","7","","","","100.34","","","","-15","","NA"
"2011-12-23 18:00","2011","12","23","18:00","-11.7","","-17.2","","64","","3","","6","","","","100.37","","","","-15","","NA"
"2011-12-23 19:00","2011","12","23","19:00","-10.6","","-15.0","","70","","6","","13","","","","100.31","","","","-17","","NA"
"2011-12-23 20:00","2011","12","23","20:00","-11.0","","-15.7","","68","","7","","19","","","","100.36","","","","-19","","NA"
"2011-12-23 21:00","2011","12","23","21:00","-11.1","","-15.9","","68","","7","","19","","","","100.34","","","","-19","","NA"
"2011-12-23 22:00","2011","12","23","22:00","-11.2","","-16.1","","67","","7","","19","","","","100.34","","","","-19","","NA"
"2011-12-23 23:00","2011","12","23","23:00","-11.3","","-16.0","","68","","7","","19","","","","100.37","","","","-19","","NA"
"2011-12-24 00:00","2011","12","24","00:00","-11.1","","-16.2","","66","","8","","22","","","","100.37","","","","-20","","NA"
"2011-12-24 01:00","2011","12","24","01:00","-11.7","","-16.5","","68","","6","","11","","","","100.39","","","","-18","","NA"
"2011-12-24 02:00","2011","12","24","02:00","-11.7","","-15.8","","72","","6","","13","","","","100.41","","","","-18","","NA"
"2011-12-24 03:00","2011","12","24","03:00","-11.9","","-15.6","","74","","6","","13","","","","100.48","","","","-19","","NA"
"2011-12-24 04:00","2011","12","24","04:00","-11.8","","-15.1","","76","","6","","15","","","","100.45","","","","-19","","NA"
"2011-12-24 05:00","2011","12","24","05:00","-11.3","","-13.9","","81","","7","","19","","","","100.43","","","","-19","","NA"
"2011-12-24 06:00","2011","12","24","06:00","-11.5","","-15.1","","75","","6","","13","","","","100.47","","","","-18","","NA"
"2011-12-24 07:00","2011","12","24","07:00","-11.1","","-14.7","","75","","6","","11","","","","100.50","","","","-17","","NA"
"2011-12-24 08:00","2011","12","24","08:00","-10.3","","-13.1","","80","","8","","22","","","","100.50","","","","-19","","NA"
"2011-12-24 09:00","2011","12","24","09:00","-9.9","","-13.0","","78","","8","","20","","","","100.52","","","","-18","","NA"
"2011-12-24 10:00","2011","12","24","10:00","-8.9","","-11.7","","80","","7","","22","","","","100.52","","","","-17","","NA"
"2011-12-24 11:00","2011","12","24","11:00","-7.1","","-9.4","","84","","8","","28","","","","100.46","","","","-15","","NA"
"2011-12-24 12:00","2011","12","24","12:00","-5.6","","-7.0","","90","","8","","30","","","","100.33","","","","-14","","NA"
"2011-12-24 13:00","2011","12","24","13:00","-5.5","","-6.3","","94","","31","","19","","","","100.19","","","","-12","","NA"
"2011-12-24 14:00","2011","12","24","14:00","-0.8","","-1.1","","98","","17","","30","","","","100.04","","","","-8","","NA"
"2011-12-24 15:00","2011","12","24","15:00","0.2","","-2.1","","84","","21","","32","","","","99.91","","","","","","NA"
"2011-12-24 16:00","2011","12","24","16:00","0.1","","-0.1","","99","","20","","50","","","","99.88","","","","","","NA"
"2011-12-24 17:00","2011","12","24","17:00","0.3","","-0.3","","96","","19","","44","","","","99.81","","","","","","NA"
"2011-12-24 18:00","2011","12","24","18:00","0.6","","-0.8","","90","","21","","44","","","","99.76","","","","","","NA"
"2011-12-24 19:00","2011","12","24","19:00","1.6","","-0.8","","84","","21","","44","","","","99.63","","","","","","NA"
"2011-12-24 20:00","2011","12","24","20:00","1.8","","-2.6","","73","","21","","43","","","","99.61","","","","","","NA"
"2011-12-24 21:00","2011","12","24","21:00","0.0","","-0.5","","96","","22","","39","","","","99.54","","","","-7","","NA"
"2011-12-24 22:00","2011","12","24","22:00","0.1","","-0.2","","98","","22","","35","","","","99.44","","","","","","NA"
"2011-12-24 23:00","2011","12","24","23:00","1.0","","-0.5","","90","","21","","32","","","","99.31","","","","","","NA"
"2011-12-25 00:00","2011","12","25","00:00","1.9","","-0.8","","82","","21","","39","","","","99.17","","","","","","NA"
"2011-12-25 01:00","2011","12","25","01:00","2.0","","-2.0","","75","","23","","35","","","","99.07","","","","","","NA"
"2011-12-25 02:00","2011","12","25","02:00","2.0","","-1.2","","79","","21","","32","","","","98.96","","","","","","NA"
"2011-12-25 03:00","2011","12","25","03:00","2.1","","-0.4","","83","","23","","28","","","","98.88","","","","","","NA"
"2011-12-25 04:00","2011","12","25","04:00","2.2","","-0.3","","84","","23","","26","","","","98.78","","","","","","NA"
"2011-12-25 05:00","2011","12","25","05:00","2.3","","-0.7","","81","","23","","28","","","","98.70","","","","","","NA"
"2011-12-25 06:00","2011","12","25","06:00","2.2","","-0.8","","81","","24","","26","","","","98.64","","","","","","NA"
"2011-12-25 07:00","2011","12","25","07:00","2.3","","-0.6","","81","","23","","26","","","","98.67","","","","","","NA"
"2011-12-25 08:00","2011","12","25","08:00","2.2","","-0.3","","84","","24","","20","","","","98.62","","","","","","NA"
"2011-12-25 09:00","2011","12","25","09:00","2.2","","-0.2","","84","","23","","17","","","","98.60","","","","","","NA"
"2011-12-25 10:00","2011","12","25","10:00","2.2","","-0.1","","85","","24","","17","","","","98.60","","","","","","NA"
"2011-12-25 11:00","2011","12","25","11:00","2.3","","0.3","","87","","24","","15","","","","98.56","","","","","","NA"
"2011-12-25 12:00","2011","12","25","12:00","2.7","","0.2","","84","","27","","17","","","","98.46","","","","","","NA"
"2011-12-25 13:00","2011","12","25","13:00","2.4","","0.3","","86","","28","","9","","","","98.42","","","","","","NA"
"2011-12-25 14:00","2011","12","25","14:00","1.9","","0.8","","92","","29","","13","","","","98.42","","","","","","NA"
"2011-12-25 15:00","2011","12","25","15:00","0.7","","-0.3","","93","","32","","13","","","","98.48","","","","","","NA"
"2011-12-25 16:00","2011","12","25","16:00","0.6","","-0.2","","94","","31","","13","","","","98.59","","","","","","NA"
"2011-12-25 17:00","2011","12","25","17:00","0.4","","-0.4","","94","","30","","15","","","","98.74","","","","","","NA"
"2011-12-25 18:00","2011","12","25","18:00","0.6","","-0.2","","94","","30","","17","","","","98.88","","","","","","NA"
"2011-12-25 19:00","2011","12","25","19:00","0.6","","-0.4","","93","","31","","15","","","","98.98","","","","","","NA"
"2011-12-25 20:00","2011","12","25","20:00","0.8","","-0.8","","89","","30","","15","","","","99.12","","","","","","NA"
"2011-12-25 21:00","2011","12","25","21:00","0.7","","-1.3","","86","","31","","15","","","","99.20","","","","","","NA"
"2011-12-25 22:00","2011","12","25","22:00","0.1","","-2.4","","83","","33","","17","","","","99.31","","","","","","NA"
"2011-12-25 23:00","2011","12","25","23:00","-0.4","","-3.3","","81","","34","","13","","","","99.40","","","","-5","","NA"
"2011-12-26 00:00","2011","12","26","00:00","-0.7","","-4.1","","78","","32","","15","","","","99.50","","","","-5","","NA"
"2011-12-26 01:00","2011","12","26","01:00","-1.0","","-4.6","","77","","31","","11","","","","99.57","","","","-5","","NA"
"2011-12-26 02:00","2011","12","26","02:00","-1.1","","-4.9","","75","","32","","11","","","","99.57","","","","-5","","NA"
"2011-12-26 03:00","2011","12","26","03:00","-1.2","","-5.7","","71","","31","","13","","","","99.67","","","","-5","","NA"
"2011-12-26 04:00","2011","12","26","04:00","-1.3","","-5.3","","74","","31","","9","","","","99.69","","","","-5","","NA"
"2011-12-26 05:00","2011","12","26","05:00","-1.1","","-5.7","","71","","29","","19","","","","99.68","","","","-6","","NA"
"2011-12-26 06:00","2011","12","26","06:00","-0.8","","-5.6","","70","","28","","17","","","","99.68","","","","-6","","NA"
"2011-12-26 07:00","2011","12","26","07:00","-0.8","","-5.0","","73","","27","","9","","","","99.71","","","","-4","","NA"
"2011-12-26 08:00","2011","12","26","08:00","0.1","","-4.4","","72","","26","","26","","","","99.68","","","","","","NA"
"2011-12-26 09:00","2011","12","26","09:00","0.2","","-3.8","","74","","25","","17","","","","99.66","","","","","","NA"
"2011-12-26 10:00","2011","12","26","10:00","1.0","","-3.1","","74","","23","","32","","","","99.62","","","","","","NA"
"2011-12-26 11:00","2011","12","26","11:00","1.6","","-3.3","","70","","24","","32","","","","99.58","","","","","","NA"
"2011-12-26 12:00","2011","12","26","12:00","2.1","","-2.6","","71","","24","","35","","","","99.41","","","","","","NA"
"2011-12-26 13:00","2011","12","26","13:00","2.1","","-1.5","","77","","23","","41","","","","99.28","","","","","","NA"
"2011-12-26 14:00","2011","12","26","14:00","2.9","","-1.0","","75","","23","","37","","","","99.19","","","","","","NA"
"2011-12-26 15:00","2011","12","26","15:00","3.5","","-0.2","","77","","22","","39","","","","99.09","","","","","","NA"
"2011-12-26 16:00","2011","12","26","16:00","3.7","","-0.2","","76","","23","","37","","","","99.04","","","","","","NA"
"2011-12-26 17:00","2011","12","26","17:00","3.6","","0.4","","80","","22","","35","","","","99.01","","","","","","NA"
"2011-12-26 18:00","2011","12","26","18:00","3.9","","0.3","","77","","21","","37","","","","98.95","","","","","","NA"
"2011-12-26 19:00","2011","12","26","19:00","4.2","","0.3","","76","","22","","39","","","","98.87","","","","","","NA"
"2011-12-26 20:00","2011","12","26","20:00","4.7","","0.2","","73","","21","","41","","","","98.71","","","","","","NA"
"2011-12-26 21:00","2011","12","26","21:00","4.9","","0.3","","72","","22","","52","","","","98.56","","","","","","NA"
"2011-12-26 22:00","2011","12","26","22:00","5.0","","0.1","","71","","23","","41","","","","98.46","","","","","","NA"
"2011-12-26 23:00","2011","12","26","23:00","5.0","","-0.1","","70","","23","","43","","","","98.35","","","","","","NA"
"2011-12-27 00:00","2011","12","27","00:00","4.7","","0.1","","72","","23","","50","","","","98.31","","","","","","NA"
"2011-12-27 01:00","2011","12","27","01:00","4.6","","-0.8","","68","","24","","30","","","","98.23","","","","","","NA"
"2011-12-27 02:00","2011","12","27","02:00","4.6","","-0.2","","71","","24","","30","","","","98.21","","","","","","NA"
"2011-12-27 03:00","2011","12","27","03:00","4.5","","0.0","","73","","24","","37","","","","98.20","","","","","","NA"
"2011-12-27 04:00","2011","12","27","04:00","4.0","","0.5","","78","","24","","33","","","","98.17","","","","","","NA"
"2011-12-27 05:00","2011","12","27","05:00","2.8","","1.4","","90","","24","","32","","","","98.09","","","","","","NA"
"2011-12-27 06:00","2011","12","27","06:00","2.6","","1.5","","92","","22","","30","","","","97.98","","","","","","NA"
"2011-12-27 07:00","2011","12","27","07:00","2.9","","1.8","","92","","22","","32","","","","97.99","","","","","","NA"
"2011-12-27 08:00","2011","12","27","08:00","2.8","","1.7","","92","","21","","32","","","","97.98","","","","","","NA"
"2011-12-27 09:00","2011","12","27","09:00","2.9","","1.8","","92","","23","","28","","","","97.99","","","","","","NA"
"2011-12-27 10:00","2011","12","27","10:00","2.6","","1.8","","94","","23","","15","","","","97.91","","","","","","NA"
"2011-12-27 11:00","2011","12","27","11:00","2.5","","2.0","","96","","","","0","","","","97.84","","","","","","NA"
"2011-12-27 12:00","2011","12","27","12:00","2.3","","1.6","","95","","27","","4","","","","97.75","","","","","","NA"
"2011-12-27 13:00","2011","12","27","13:00","1.7","","0.8","","94","","25","","2","","","","97.64","","","","","","NA"
"2011-12-27 14:00","2011","12","27","14:00","1.2","","0.6","","96","","5","","2","","","","97.56","","","","","","NA"
"2011-12-27 15:00","2011","12","27","15:00","0.6","","0.3","","98","","5","","4","","","","97.45","","","","","","NA"
"2011-12-27 16:00","2011","12","27","16:00","0.8","","0.6","","99","","7","","6","","","","97.43","","","","","","NA"
"2011-12-27 17:00","2011","12","27","17:00","0.5","","0.3","","99","","6","","4","","","","97.45","","","","","","NA"
"2011-12-27 18:00","2011","12","27","18:00","-0.9","","-1.2","","98","","1","","20","","","","97.52","","","","-6","","NA"
"2011-12-27 19:00","2011","12","27","19:00","-5.2","","-6.9","","88","","1","","24","","","","97.59","","","","-12","","NA"
"2011-12-27 20:00","2011","12","27","20:00","-7.3","","-9.1","","87","","1","","20","","","","97.64","","","","-14","","NA"
"2011-12-27 21:00","2011","12","27","21:00","-9.5","","-11.7","","84","","1","","28","","","","97.65","","","","-19","","NA"
"2011-12-27 22:00","2011","12","27","22:00","-10.6","","-13.4","","80","","1","","17","","","","97.73","","","","-18","","NA"
"2011-12-27 23:00","2011","12","27","23:00","-11.6","","-14.3","","80","","36","","22","","","","97.86","","","","-20","","NA"
"2011-12-28 00:00","2011","12","28","00:00","-12.4","","-15.0","","81","","35","","19","","","","97.99","","","","-21","","NA"
"2011-12-28 01:00","2011","12","28","01:00","-13.0","","-16.1","","78","","36","","20","","","","98.12","","","","-22","","NA"
"2011-12-28 02:00","2011","12","28","02:00","-13.7","","-16.8","","77","","35","","19","","","","98.25","","","","-22","","NA"
"2011-12-28 03:00","2011","12","28","03:00","-14.1","","-16.5","","82","","33","","17","","","","98.38","","","","-22","","NA"
"2011-12-28 04:00","2011","12","28","04:00","-14.9","","-17.6","","80","","35","","19","","","","98.41","","","","-24","","NA"
"2011-12-28 05:00","2011","12","28","05:00","-15.6","","-18.4","","79","","34","","22","","","","98.49","","","","-25","","NA"
"2011-12-28 06:00","2011","12","28","06:00","-16.4","","-19.4","","78","","34","","24","","","","98.58","","","","-27","","NA"
"2011-12-28 07:00","2011","12","28","07:00","-17.2","","-20.8","","74","","35","","19","","","","98.66","","","","-27","","NA"
"2011-12-28 08:00","2011","12","28","08:00","-18.2","","-22.5","","69","","35","","11","","","","98.83","","","","-25","","NA"
"2011-12-28 09:00","2011","12","28","09:00","-18.4","","-22.7","","69","","31","","6","","","","98.96","","","","-23","","NA"
"2011-12-28 10:00","2011","12","28","10:00","-19.1","","-23.7","","67","","31","","15","","","","99.07","","","","-28","","NA"
"2011-12-28 11:00","2011","12","28","11:00","-18.3","","-23.0","","67","","34","","15","","","","99.09","","","","-27","","NA"
"2011-12-28 12:00","2011","12","28","12:00","-17.6","","-22.3","","67","","34","","19","","","","99.04","","","","-27","","NA"
"2011-12-28 13:00","2011","12","28","13:00","-16.2","","-21.5","","64","","34","","15","","","","99.02","","","","-24","","NA"
"2011-12-28 14:00","2011","12","28","14:00","-14.8","","-20.4","","62","","32","","13","","","","99.09","","","","-22","","NA"
"2011-12-28 15:00","2011","12","28","15:00","-13.2","","-19.9","","57","","35","","9","","","","99.12","","","","-19","","NA"
"2011-12-28 16:00","2011","12","28","16:00","-12.9","","-18.6","","62","","35","","11","","","","99.19","","","","-19","","NA"
"2011-12-28 17:00","2011","12","28","17:00","-13.7","","-18.3","","68","","32","","7","","","","99.25","","","","-18","","NA"
"2011-12-28 18:00","2011","12","28","18:00","-14.0","","-18.7","","68","","32","","6","","","","99.30","","","","-18","","NA"
"2011-12-28 19:00","2011","12","28","19:00","-14.8","","-19.0","","70","","35","","15","","","","99.29","","","","-23","","NA"
"2011-12-28 20:00","2011","12","28","20:00","-15.3","","-19.9","","68","","36","","6","","","","99.33","","","","-20","","NA"
"2011-12-28 21:00","2011","12","28","21:00","-15.8","","-19.6","","73","","31","","7","","","","99.30","","","","-21","","NA"
"2011-12-28 22:00","2011","12","28","22:00","-16.7","","-20.1","","75","","2","","9","","","","99.25","","","","-23","","NA"
"2011-12-28 23:00","2011","12","28","23:00","-16.3","","-20.4","","71","","1","","6","","","","99.28","","","","-21","","NA"
"2011-12-29 00:00","2011","12","29","00:00","-16.2","","-20.5","","69","","3","","7","","","","99.23","","","","-21","","NA"
"2011-12-29 01:00","2011","12","29","01:00","-16.0","","-19.4","","75","","4","","9","","","","99.21","","","","-22","","NA"
"2011-12-29 02:00","2011","12","29","02:00","-16.5","","-20.0","","74","","5","","9","","","","99.21","","","","-23","","NA"
"2011-12-29 03:00","2011","12","29","03:00","-17.2","","-20.0","","79","","5","","13","","","","99.18","","","","-25","","NA"
"2011-12-29 04:00","2011","12","29","04:00","-17.2","","-19.1","","85","","6","","19","","","","99.13","","","","-27","","NA"
"2011-12-29 05:00","2011","12","29","05:00","-17.7","","-20.7","","77","","7","","20","","","","99.05","","","","-28","","NA"
"2011-12-29 06:00","2011","12","29","06:00","-17.2","","-18.9","","87","","7","","26","","","","99.01","","","","-28","","NA"
"2011-12-29 07:00","2011","12","29","07:00","-17.8","","-19.6","","86","","7","","20","","","","98.97","","","","-28","","NA"
"2011-12-29 08:00","2011","12","29","08:00","-17.7","","-19.6","","85","","7","","22","","","","98.98","","","","-28","","NA"
"2011-12-29 09:00","2011","12","29","09:00","-17.9","","-21.1","","76","","6","","17","","","","99.01","","","","-27","","NA"
"2011-12-29 10:00","2011","12","29","10:00","-15.8","","-18.8","","78","","7","","24","","","","98.99","","","","-26","","NA"
"2011-12-29 11:00","2011","12","29","11:00","-14.1","","-18.1","","72","","7","","24","","","","98.94","","","","-24","","NA"
"2011-12-29 12:00","2011","12","29","12:00","-13.1","","-16.0","","79","","7","","24","","","","98.84","","","","-23","","NA"
"2011-12-29 13:00","2011","12","29","13:00","-12.2","","-14.5","","83","","7","","22","","","","98.75","","","","-21","","NA"
"2011-12-29 14:00","2011","12","29","14:00","-10.7","","-12.5","","87","","8","","30","","","","98.65","","","","-20","","NA"
"2011-12-29 15:00","2011","12","29","15:00","-10.1","","-12.7","","81","","8","","30","","","","98.62","","","","-20","","NA"
"2011-12-29 16:00","2011","12","29","16:00","-9.8","","-12.2","","83","","7","","26","","","","98.61","","","","-19","","NA"
"2011-12-29 17:00","2011","12","29","17:00","-10.6","","-13.3","","80","","7","","24","","","","98.61","","","","-19","","NA"
"2011-12-29 18:00","2011","12","29","18:00","-10.9","","-13.5","","81","","7","","22","","","","98.67","","","","-19","","NA"
"2011-12-29 19:00","2011","12","29","19:00","-10.7","","-12.9","","84","","7","","26","","","","98.67","","","","-20","","NA"
"2011-12-29 20:00","2011","12","29","20:00","-10.7","","-12.4","","87","","6","","22","","","","98.70","","","","-19","","NA"
"2011-12-29 21:00","2011","12","29","21:00","-9.8","","-11.3","","89","","7","","24","","","","98.70","","","","-18","","NA"
"2011-12-29 22:00","2011","12","29","22:00","-9.8","","-11.2","","89","","7","","30","","","","98.68","","","","-19","","NA"
"2011-12-29 23:00","2011","12","29","23:00","-9.7","","-11.1","","89","","6","","24","","","","98.66","","","","-18","","NA"
"2011-12-30 00:00","2011","12","30","00:00","-9.2","","-10.4","","91","","7","","22","","","","98.66","","","","-17","","NA"
"2011-12-30 01:00","2011","12","30","01:00","-9.3","","-10.5","","91","","7","","20","","","","98.63","","","","-17","","NA"
"2011-12-30 02:00","2011","12","30","02:00","-9.3","","-10.4","","92","","6","","22","","","","98.61","","","","-17","","NA"
"2011-12-30 03:00","2011","12","30","03:00","-9.0","","-10.1","","92","","7","","22","","","","98.66","","","","-17","","NA"
"2011-12-30 04:00","2011","12","30","04:00","-9.1","","-10.4","","90","","6","","22","","","","98.64","","","","-17","","NA"
"2011-12-30 05:00","2011","12","30","05:00","-8.2","","-9.1","","93","","7","","28","","","","98.61","","","","-17","","NA"
"2011-12-30 06:00","2011","12","30","06:00","-8.6","","-9.7","","92","","7","","26","","","","98.63","","","","-17","","NA"
"2011-12-30 07:00","2011","12","30","07:00","-8.9","","-10.2","","90","","7","","24","","","","98.69","","","","-17","","NA"
"2011-12-30 08:00","2011","12","30","08:00","-8.7","","-9.8","","92","","7","","19","","","","98.70","","","","-16","","NA"
"2011-12-30 09:00","2011","12","30","09:00","-8.9","","-10.3","","90","","6","","19","","","","98.73","","","","-16","","NA"
"2011-12-30 10:00","2011","12","30","10:00","-8.4","","-9.7","","90","","7","","19","","","","98.75","","","","-16","","NA"
"2011-12-30 11:00","2011","12","30","11:00","-8.4","","-9.8","","90","","7","","19","","","","98.70","","","","-16","","NA"
"2011-12-30 12:00","2011","12","30","12:00","-7.8","","-9.0","","91","","7","","19","","","","98.65","","","","-15","","NA"
"2011-12-30 13:00","2011","12","30","13:00","-7.6","","-8.2","","95","","7","","22","","","","98.61","","","","-15","","NA"
"2011-12-30 14:00","2011","12","30","14:00","-7.4","","-7.9","","96","","7","","19","","","","98.56","","","","-14","","NA"
"2011-12-30 15:00","2011","12","30","15:00","-7.3","","-7.9","","95","","7","","15","","","","98.58","","","","-13","","NA"
"2011-12-30 16:00","2011","12","30","16:00","-7.4","","-8.0","","95","","6","","17","","","","98.61","","","","-14","","NA"
"2011-12-30 17:00","2011","12","30","17:00","-7.5","","-8.1","","95","","6","","15","","","","98.63","","","","-14","","NA"
"2011-12-30 18:00","2011","12","30","18:00","-7.2","","-7.8","","95","","6","","15","","","","98.63","","","","-13","","NA"
"2011-12-30 19:00","2011","12","30","19:00","-7.4","","-8.0","","95","","5","","15","","","","98.60","","","","-14","","NA"
"2011-12-30 20:00","2011","12","30","20:00","-6.7","","-7.3","","95","","6","","15","","","","98.66","","","","-13","","NA"
"2011-12-30 21:00","2011","12","30","21:00","-6.6","","-7.2","","95","","6","","15","","","","98.65","","","","-13","","NA"
"2011-12-30 22:00","2011","12","30","22:00","-6.7","","-7.3","","95","","5","","15","","","","98.58","","","","-13","","NA"
"2011-12-30 23:00","2011","12","30","23:00","-5.8","","-6.3","","96","","6","","11","","","","98.58","","","","-11","","NA"
"2011-12-31 00:00","2011","12","31","00:00","-6.0","","-6.6","","96","","3","","9","","","","98.51","","","","-10","","NA"
"2011-12-31 01:00","2011","12","31","01:00","-5.5","","-6.2","","95","","2","","7","","","","98.44","","","","-9","","NA"
"2011-12-31 02:00","2011","12","31","02:00","-5.2","","-6.0","","94","","35","","4","","","","98.40","","","","-7","","NA"
"2011-12-31 03:00","2011","12","31","03:00","-4.9","","-5.8","","93","","29","","4","","","","98.44","","","","-7","","NA"
"2011-12-31 04:00","2011","12","31","04:00","-4.5","","-5.5","","93","","34","","2","","","","98.52","","","","-5","","NA"
"2011-12-31 05:00","2011","12","31","05:00","-5.3","","-5.9","","96","","1","","9","","","","98.54","","","","-9","","NA"
"2011-12-31 06:00","2011","12","31","06:00","-5.2","","-6.0","","94","","6","","4","","","","98.60","","","","-7","","NA"
"2011-12-31 07:00","2011","12","31","07:00","-4.7","","-5.9","","91","","3","","4","","","","98.69","","","","-6","","NA"
"2011-12-31 08:00","2011","12","31","08:00","-3.7","","-5.1","","90","","3","","9","","","","98.75","","","","-7","","NA"
"2011-12-31 09:00","2011","12","31","09:00","-4.0","","-5.3","","91","","2","","6","","","","98.81","","","","-7","","NA"
"2011-12-31 10:00","2011","12","31","10:00","-4.0","","-5.6","","89","","1","","9","","","","98.97","","","","-8","","NA"
"2011-12-31 11:00","2011","12","31","11:00","-3.6","","-5.4","","87","","29","","6","","","","98.99","","","","-6","","NA"
"2011-12-31 12:00","2011","12","31","12:00","-3.2","","-4.8","","89","","33","","9","","","","98.97","","","","-7","","NA"
"2011-12-31 13:00","2011","12","31","13:00","-2.4","","-4.2","","87","","36","","4","","","","98.89","","","","-4","","NA"
"2011-12-31 14:00","2011","12","31","14:00","-2.6","","-4.0","","90","","32","","7","","","","98.96","","","","-5","","NA"
"2011-12-31 15:00","2011","12","31","15:00","-2.7","","-3.6","","94","","32","","4","","","","99.00","","","","-4","","NA"
"2011-12-31 16:00","2011","12","31","16:00","-3.0","","-3.5","","96","","29","","2","","","","99.12","","","","-4","","NA"
"2011-12-31 17:00","2011","12","31","17:00","-3.1","","-3.5","","97","","29","","9","","","","99.23","","","","-7","","NA"
"2011-12-31 18:00","2011","12","31","18:00","-3.5","","-4.0","","96","","33","","6","","","","99.26","","","","-6","","NA"
"2011-12-31 19:00","2011","12","31","19:00","-3.6","","-4.1","","96","","33","","2","","","","99.28","","","","-4","","NA"
"2011-12-31 20:00","2011","12","31","20:00","-3.5","","-3.9","","97","","14","","4","","","","99.30","","","","-5","","NA"
"2011-12-31 21:00","2011","12","31","21:00","-3.1","","-3.5","","97","","10","","6","","","","99.26","","","","-6","","NA"
"2011-12-31 22:00","2011","12","31","22:00","-1.8","","-2.5","","95","","15","","11","","","","99.23","","","","-6","","NA"
"2011-12-31 23:00","2011","12","31","23:00","-1.2","","-2.2","","93","","11","","15","","","","99.17","","","","-6","","NA"
