"Station Name","KILLARNEY (AUT)"
"Province","ONTARIO"
"Latitude","45.97"
"Longitude","-81.48"
"Elevation","196.30"
"Climate Identifier","605DJ25"
"WMO Identifier","71460"
"TC Identifier","WBE"
"All times are specified in Local Standard Time (LST). Add 1 hour to adjust for Daylight Saving Time where and when it is observed."

"Legend"
"E","Estimated"
"M","Missing"
"NA","Not Available"

"Date/Time","Year","Month","Day","Time","Temp (°C)","Temp Flag","Dew Point Temp (°C)","Dew Point Temp Flag","Rel Hum (%)","Rel Hum Flag","Wind Dir (10s deg)","Wind Dir Flag","Wind Spd (km/h)","Wind Spd Flag","Visibility (km)","Visibility Flag","Stn Press (kPa)","Stn Press Flag","Hmdx","Hmdx Flag","Wind Chill","Wind Chill Flag","Weather"
"2004-03-01 00:00","2004","03","01","00:00","0.0","","-0.8","","94","","9","","6","","8.0","","99.72","","","","-2","","NA"
"2004-03-01 01:00","2004","03","01","01:00","0.3","","-0.6","","94","","9","","7","","8.0","","99.72","","","","","","NA"
"2004-03-01 02:00","2004","03","01","02:00","0.9","","-0.3","","92","","7","","7","","12.9","","99.74","","","","","","NA"
"2004-03-01 03:00","2004","03","01","03:00","0.6","","-0.3","","94","","6","","7","","9.7","","99.71","","","","","","NA"
"2004-03-01 04:00","2004","03","01","04:00","-1.6","","-1.8","","99","","8","","11","","6.4","","99.63","","","","-5","","NA"
"2004-03-01 05:00","2004","03","01","05:00","0.1","","-0.8","","94","","5","","13","","11.3","","99.65","","","","","","NA"
"2004-03-01 06:00","2004","03","01","06:00","-1.6","","-2.1","","96","","9","","13","","8.0","","99.72","","","","-6","","NA"
"2004-03-01 07:00","2004","03","01","07:00","-0.9","","-1.7","","94","","6","","13","","15.0","","99.63","","","","-5","","NA"
"2004-03-01 08:00","2004","03","01","08:00","-0.5","","-2.0","","90","","8","","20","","15.0","","99.60","","","","-6","","NA"
"2004-03-01 09:00","2004","03","01","09:00","0.1","","-2.5","","83","","8","","20","","15.0","","99.63","","","","","","NA"
"2004-03-01 10:00","2004","03","01","10:00","0.8","","-1.8","","83","","9","","17","","15.0","","99.65","","","","","","NA"
"2004-03-01 11:00","2004","03","01","11:00","1.4","","-2.1","","77","","9","","19","","15.0","","99.49","","","","","","NA"
"2004-03-01 12:00","2004","03","01","12:00","1.8","","-1.5","","79","","9","","22","","15.0","","99.35","","","","","","NA"
"2004-03-01 13:00","2004","03","01","13:00","1.7","","-1.3","","80","","9","","17","","15.0","","99.31","","","","","","NA"
"2004-03-01 14:00","2004","03","01","14:00","1.9","","-0.9","","82","","10","","7","","12.9","","99.11","","","","","","NA"
"2004-03-01 15:00","2004","03","01","15:00","2.9","","-0.8","","77","","9","","17","","15.0","","98.99","","","","","","NA"
"2004-03-01 16:00","2004","03","01","16:00","3.0","","-1.1","","74","","14","","32","","15.0","","98.88","","","","","","NA"
"2004-03-01 17:00","2004","03","01","17:00","2.5","","-0.3","","82","","13","","39","","15.0","","98.66","","","","","","NA"
"2004-03-01 18:00","2004","03","01","18:00","1.4","","0.6","","94","","14","","30","","11.3","","98.70","","","","","","NA"
"2004-03-01 19:00","2004","03","01","19:00","1.2","","1.1","","99","","11","","11","","4.8","","98.61","","","","","","NA"
"2004-03-01 20:00","2004","03","01","20:00","1.4","","1.3","","99","","11","","13","","1.0","","98.61","","","","","","NA"
"2004-03-01 21:00","2004","03","01","21:00","1.9","","1.8","","99","","14","","13","","0.0","","98.57","","","","","","NA"
"2004-03-01 22:00","2004","03","01","22:00","1.6","","1.5","","99","","10","","13","","0.0","","98.48","","","","","","NA"
"2004-03-01 23:00","2004","03","01","23:00","2.3","","2.2","","99","","13","","15","","0.0","","98.41","","","","","","NA"
"2004-03-02 00:00","2004","03","02","00:00","1.9","","1.8","","99","","9","","15","","0.0","","98.28","","","","","","NA"
"2004-03-02 01:00","2004","03","02","01:00","2.1","","2.0","","99","","9","","17","","2.6","","98.16","","","","","","NA"
"2004-03-02 02:00","2004","03","02","02:00","1.9","","1.6","","98","","9","","11","","4.8","","98.09","","","","","","NA"
"2004-03-02 03:00","2004","03","02","03:00","2.4","","2.1","","98","","18","","11","","2.9","","97.96","","","","","","NA"
"2004-03-02 04:00","2004","03","02","04:00","2.0","","1.7","","98","","9","","11","","0.0","","97.83","","","","","","NA"
"2004-03-02 05:00","2004","03","02","05:00","3.1","","2.8","","98","","34","","6","","0.6","","97.83","","","","","","NA"
"2004-03-02 06:00","2004","03","02","06:00","3.3","","3.0","","98","","18","","7","","6.4","","97.87","","","","","","NA"
"2004-03-02 07:00","2004","03","02","07:00","2.5","","2.2","","98","","23","","13","","1.0","","97.85","","","","","","NA"
"2004-03-02 08:00","2004","03","02","08:00","3.1","","2.8","","98","","23","","20","","15.0","","97.92","","","","","","NA"
"2004-03-02 09:00","2004","03","02","09:00","3.5","","3.2","","98","","26","","24","","15.0","","98.01","","","","","","NA"
"2004-03-02 10:00","2004","03","02","10:00","3.3","","3.0","","98","","26","","24","","15.0","","98.07","","","","","","NA"
"2004-03-02 11:00","2004","03","02","11:00","2.9","","2.6","","98","","27","","30","","9.7","","98.18","","","","","","NA"
"2004-03-02 12:00","2004","03","02","12:00","2.3","","1.4","","94","","27","","33","","15.0","","98.30","","","","","","NA"
"2004-03-02 13:00","2004","03","02","13:00","1.7","","0.7","","93","","27","","43","","15.0","","98.39","","","","","","NA"
"2004-03-02 14:00","2004","03","02","14:00","1.2","","0.2","","93","","27","","39","","15.0","","98.54","","","","","","NA"
"2004-03-02 15:00","2004","03","02","15:00","2.2","","0.7","","90","","28","","28","","15.0","","98.68","","","","","","NA"
"2004-03-02 16:00","2004","03","02","16:00","2.4","","0.6","","88","","28","","30","","15.0","","98.86","","","","","","NA"
"2004-03-02 17:00","2004","03","02","17:00","2.0","","-0.2","","85","","27","","30","","15.0","","99.06","","","","","","NA"
"2004-03-02 18:00","2004","03","02","18:00","1.6","","-0.6","","85","","28","","24","","15.0","","99.24","","","","","","NA"
"2004-03-02 19:00","2004","03","02","19:00","1.7","","-0.5","","85","","29","","26","","15.0","","99.35","","","","","","NA"
"2004-03-02 20:00","2004","03","02","20:00","1.4","","-0.6","","87","","29","","17","","15.0","","99.47","","","","","","NA"
"2004-03-02 21:00","2004","03","02","21:00","1.2","","-1.0","","85","","30","","15","","15.0","","99.58","","","","","","NA"
"2004-03-02 22:00","2004","03","02","22:00","1.3","","-0.6","","87","","27","","6","","15.0","","99.69","","","","","","NA"
"2004-03-02 23:00","2004","03","02","23:00","1.7","","-0.8","","83","","34","","7","","15.0","","99.78","","","","","","NA"
"2004-03-03 00:00","2004","03","03","00:00","1.5","","-2.2","","76","","30","","4","","15.0","","99.83","","","","","","NA"
"2004-03-03 01:00","2004","03","03","01:00","0.9","","-1.0","","87","","30","","6","","15.0","","99.85","","","","","","NA"
"2004-03-03 02:00","2004","03","03","02:00","0.8","","-0.7","","90","","32","","6","","15.0","","99.92","","","","","","NA"
"2004-03-03 03:00","2004","03","03","03:00","0.8","","-1.7","","83","","4","","4","","15.0","","99.94","","","","","","NA"
"2004-03-03 04:00","2004","03","03","04:00","0.7","","-2.8","","77","","4","","4","","15.0","","99.92","","","","","","NA"
"2004-03-03 05:00","2004","03","03","05:00","0.4","","-2.9","","78","","4","","6","","15.0","","99.99","","","","","","NA"
"2004-03-03 06:00","2004","03","03","06:00","0.1","","-2.7","","81","","5","","6","","15.0","","100.05","","","","","","NA"
"2004-03-03 07:00","2004","03","03","07:00","-0.1","","-2.4","","84","","7","","7","","15.0","","100.14","","","","-3","","NA"
"2004-03-03 08:00","2004","03","03","08:00","-0.4","","-2.9","","83","","9","","13","","15.0","","100.17","","","","-5","","NA"
"2004-03-03 09:00","2004","03","03","09:00","-0.4","","-4.2","","75","","8","","13","","15.0","","100.16","","","","-5","","NA"
"2004-03-03 10:00","2004","03","03","10:00"
"2004-03-03 11:00","2004","03","03","11:00"
"2004-03-03 12:00","2004","03","03","12:00"
"2004-03-03 13:00","2004","03","03","13:00"
"2004-03-03 14:00","2004","03","03","14:00"
"2004-03-03 15:00","2004","03","03","15:00"
"2004-03-03 16:00","2004","03","03","16:00"
"2004-03-03 17:00","2004","03","03","17:00"
"2004-03-03 18:00","2004","03","03","18:00"
"2004-03-03 19:00","2004","03","03","19:00"
"2004-03-03 20:00","2004","03","03","20:00"
"2004-03-03 21:00","2004","03","03","21:00"
"2004-03-03 22:00","2004","03","03","22:00"
"2004-03-03 23:00","2004","03","03","23:00"
"2004-03-04 00:00","2004","03","04","00:00"
"2004-03-04 01:00","2004","03","04","01:00"
"2004-03-04 02:00","2004","03","04","02:00"
"2004-03-04 03:00","2004","03","04","03:00"
"2004-03-04 04:00","2004","03","04","04:00"
"2004-03-04 05:00","2004","03","04","05:00"
"2004-03-04 06:00","2004","03","04","06:00"
"2004-03-04 07:00","2004","03","04","07:00"
"2004-03-04 08:00","2004","03","04","08:00"
"2004-03-04 09:00","2004","03","04","09:00"
"2004-03-04 10:00","2004","03","04","10:00"
"2004-03-04 11:00","2004","03","04","11:00"
"2004-03-04 12:00","2004","03","04","12:00"
"2004-03-04 13:00","2004","03","04","13:00"
"2004-03-04 14:00","2004","03","04","14:00"
"2004-03-04 15:00","2004","03","04","15:00"
"2004-03-04 16:00","2004","03","04","16:00"
"2004-03-04 17:00","2004","03","04","17:00"
"2004-03-04 18:00","2004","03","04","18:00"
"2004-03-04 19:00","2004","03","04","19:00"
"2004-03-04 20:00","2004","03","04","20:00"
"2004-03-04 21:00","2004","03","04","21:00"
"2004-03-04 22:00","2004","03","04","22:00"
"2004-03-04 23:00","2004","03","04","23:00"
"2004-03-05 00:00","2004","03","05","00:00"
"2004-03-05 01:00","2004","03","05","01:00"
"2004-03-05 02:00","2004","03","05","02:00"
"2004-03-05 03:00","2004","03","05","03:00"
"2004-03-05 04:00","2004","03","05","04:00"
"2004-03-05 05:00","2004","03","05","05:00"
"2004-03-05 06:00","2004","03","05","06:00"
"2004-03-05 07:00","2004","03","05","07:00"
"2004-03-05 08:00","2004","03","05","08:00"
"2004-03-05 09:00","2004","03","05","09:00"
"2004-03-05 10:00","2004","03","05","10:00"
"2004-03-05 11:00","2004","03","05","11:00"
"2004-03-05 12:00","2004","03","05","12:00"
"2004-03-05 13:00","2004","03","05","13:00"
"2004-03-05 14:00","2004","03","05","14:00"
"2004-03-05 15:00","2004","03","05","15:00"
"2004-03-05 16:00","2004","03","05","16:00"
"2004-03-05 17:00","2004","03","05","17:00"
"2004-03-05 18:00","2004","03","05","18:00"
"2004-03-05 19:00","2004","03","05","19:00"
"2004-03-05 20:00","2004","03","05","20:00"
"2004-03-05 21:00","2004","03","05","21:00"
"2004-03-05 22:00","2004","03","05","22:00"
"2004-03-05 23:00","2004","03","05","23:00"
"2004-03-06 00:00","2004","03","06","00:00"
"2004-03-06 01:00","2004","03","06","01:00"
"2004-03-06 02:00","2004","03","06","02:00"
"2004-03-06 03:00","2004","03","06","03:00"
"2004-03-06 04:00","2004","03","06","04:00"
"2004-03-06 05:00","2004","03","06","05:00"
"2004-03-06 06:00","2004","03","06","06:00"
"2004-03-06 07:00","2004","03","06","07:00"
"2004-03-06 08:00","2004","03","06","08:00"
"2004-03-06 09:00","2004","03","06","09:00"
"2004-03-06 10:00","2004","03","06","10:00"
"2004-03-06 11:00","2004","03","06","11:00"
"2004-03-06 12:00","2004","03","06","12:00"
"2004-03-06 13:00","2004","03","06","13:00"
"2004-03-06 14:00","2004","03","06","14:00"
"2004-03-06 15:00","2004","03","06","15:00"
"2004-03-06 16:00","2004","03","06","16:00"
"2004-03-06 17:00","2004","03","06","17:00"
"2004-03-06 18:00","2004","03","06","18:00"
"2004-03-06 19:00","2004","03","06","19:00"
"2004-03-06 20:00","2004","03","06","20:00"
"2004-03-06 21:00","2004","03","06","21:00"
"2004-03-06 22:00","2004","03","06","22:00"
"2004-03-06 23:00","2004","03","06","23:00"
"2004-03-07 00:00","2004","03","07","00:00"
"2004-03-07 01:00","2004","03","07","01:00"
"2004-03-07 02:00","2004","03","07","02:00"
"2004-03-07 03:00","2004","03","07","03:00"
"2004-03-07 04:00","2004","03","07","04:00"
"2004-03-07 05:00","2004","03","07","05:00"
"2004-03-07 06:00","2004","03","07","06:00"
"2004-03-07 07:00","2004","03","07","07:00"
"2004-03-07 08:00","2004","03","07","08:00"
"2004-03-07 09:00","2004","03","07","09:00"
"2004-03-07 10:00","2004","03","07","10:00"
"2004-03-07 11:00","2004","03","07","11:00"
"2004-03-07 12:00","2004","03","07","12:00"
"2004-03-07 13:00","2004","03","07","13:00"
"2004-03-07 14:00","2004","03","07","14:00"
"2004-03-07 15:00","2004","03","07","15:00"
"2004-03-07 16:00","2004","03","07","16:00"
"2004-03-07 17:00","2004","03","07","17:00"
"2004-03-07 18:00","2004","03","07","18:00"
"2004-03-07 19:00","2004","03","07","19:00"
"2004-03-07 20:00","2004","03","07","20:00"
"2004-03-07 21:00","2004","03","07","21:00"
"2004-03-07 22:00","2004","03","07","22:00"
"2004-03-07 23:00","2004","03","07","23:00"
"2004-03-08 00:00","2004","03","08","00:00"
"2004-03-08 01:00","2004","03","08","01:00"
"2004-03-08 02:00","2004","03","08","02:00"
"2004-03-08 03:00","2004","03","08","03:00"
"2004-03-08 04:00","2004","03","08","04:00"
"2004-03-08 05:00","2004","03","08","05:00"
"2004-03-08 06:00","2004","03","08","06:00"
"2004-03-08 07:00","2004","03","08","07:00"
"2004-03-08 08:00","2004","03","08","08:00"
"2004-03-08 09:00","2004","03","08","09:00"
"2004-03-08 10:00","2004","03","08","10:00"
"2004-03-08 11:00","2004","03","08","11:00"
"2004-03-08 12:00","2004","03","08","12:00"
"2004-03-08 13:00","2004","03","08","13:00"
"2004-03-08 14:00","2004","03","08","14:00"
"2004-03-08 15:00","2004","03","08","15:00"
"2004-03-08 16:00","2004","03","08","16:00"
"2004-03-08 17:00","2004","03","08","17:00"
"2004-03-08 18:00","2004","03","08","18:00"
"2004-03-08 19:00","2004","03","08","19:00"
"2004-03-08 20:00","2004","03","08","20:00"
"2004-03-08 21:00","2004","03","08","21:00"
"2004-03-08 22:00","2004","03","08","22:00"
"2004-03-08 23:00","2004","03","08","23:00"
"2004-03-09 00:00","2004","03","09","00:00"
"2004-03-09 01:00","2004","03","09","01:00"
"2004-03-09 02:00","2004","03","09","02:00"
"2004-03-09 03:00","2004","03","09","03:00"
"2004-03-09 04:00","2004","03","09","04:00"
"2004-03-09 05:00","2004","03","09","05:00"
"2004-03-09 06:00","2004","03","09","06:00"
"2004-03-09 07:00","2004","03","09","07:00"
"2004-03-09 08:00","2004","03","09","08:00"
"2004-03-09 09:00","2004","03","09","09:00"
"2004-03-09 10:00","2004","03","09","10:00"
"2004-03-09 11:00","2004","03","09","11:00"
"2004-03-09 12:00","2004","03","09","12:00"
"2004-03-09 13:00","2004","03","09","13:00"
"2004-03-09 14:00","2004","03","09","14:00"
"2004-03-09 15:00","2004","03","09","15:00"
"2004-03-09 16:00","2004","03","09","16:00"
"2004-03-09 17:00","2004","03","09","17:00"
"2004-03-09 18:00","2004","03","09","18:00"
"2004-03-09 19:00","2004","03","09","19:00"
"2004-03-09 20:00","2004","03","09","20:00"
"2004-03-09 21:00","2004","03","09","21:00"
"2004-03-09 22:00","2004","03","09","22:00"
"2004-03-09 23:00","2004","03","09","23:00"
"2004-03-10 00:00","2004","03","10","00:00"
"2004-03-10 01:00","2004","03","10","01:00"
"2004-03-10 02:00","2004","03","10","02:00"
"2004-03-10 03:00","2004","03","10","03:00"
"2004-03-10 04:00","2004","03","10","04:00"
"2004-03-10 05:00","2004","03","10","05:00"
"2004-03-10 06:00","2004","03","10","06:00"
"2004-03-10 07:00","2004","03","10","07:00"
"2004-03-10 08:00","2004","03","10","08:00"
"2004-03-10 09:00","2004","03","10","09:00"
"2004-03-10 10:00","2004","03","10","10:00"
"2004-03-10 11:00","2004","03","10","11:00"
"2004-03-10 12:00","2004","03","10","12:00"
"2004-03-10 13:00","2004","03","10","13:00"
"2004-03-10 14:00","2004","03","10","14:00"
"2004-03-10 15:00","2004","03","10","15:00"
"2004-03-10 16:00","2004","03","10","16:00"
"2004-03-10 17:00","2004","03","10","17:00"
"2004-03-10 18:00","2004","03","10","18:00"
"2004-03-10 19:00","2004","03","10","19:00"
"2004-03-10 20:00","2004","03","10","20:00"
"2004-03-10 21:00","2004","03","10","21:00"
"2004-03-10 22:00","2004","03","10","22:00"
"2004-03-10 23:00","2004","03","10","23:00"
"2004-03-11 00:00","2004","03","11","00:00"
"2004-03-11 01:00","2004","03","11","01:00"
"2004-03-11 02:00","2004","03","11","02:00"
"2004-03-11 03:00","2004","03","11","03:00"
"2004-03-11 04:00","2004","03","11","04:00"
"2004-03-11 05:00","2004","03","11","05:00"
"2004-03-11 06:00","2004","03","11","06:00"
"2004-03-11 07:00","2004","03","11","07:00"
"2004-03-11 08:00","2004","03","11","08:00"
"2004-03-11 09:00","2004","03","11","09:00"
"2004-03-11 10:00","2004","03","11","10:00"
"2004-03-11 11:00","2004","03","11","11:00"
"2004-03-11 12:00","2004","03","11","12:00"
"2004-03-11 13:00","2004","03","11","13:00"
"2004-03-11 14:00","2004","03","11","14:00"
"2004-03-11 15:00","2004","03","11","15:00"
"2004-03-11 16:00","2004","03","11","16:00"
"2004-03-11 17:00","2004","03","11","17:00"
"2004-03-11 18:00","2004","03","11","18:00"
"2004-03-11 19:00","2004","03","11","19:00"
"2004-03-11 20:00","2004","03","11","20:00"
"2004-03-11 21:00","2004","03","11","21:00"
"2004-03-11 22:00","2004","03","11","22:00"
"2004-03-11 23:00","2004","03","11","23:00"
"2004-03-12 00:00","2004","03","12","00:00"
"2004-03-12 01:00","2004","03","12","01:00"
"2004-03-12 02:00","2004","03","12","02:00"
"2004-03-12 03:00","2004","03","12","03:00"
"2004-03-12 04:00","2004","03","12","04:00"
"2004-03-12 05:00","2004","03","12","05:00"
"2004-03-12 06:00","2004","03","12","06:00"
"2004-03-12 07:00","2004","03","12","07:00"
"2004-03-12 08:00","2004","03","12","08:00"
"2004-03-12 09:00","2004","03","12","09:00"
"2004-03-12 10:00","2004","03","12","10:00"
"2004-03-12 11:00","2004","03","12","11:00"
"2004-03-12 12:00","2004","03","12","12:00"
"2004-03-12 13:00","2004","03","12","13:00"
"2004-03-12 14:00","2004","03","12","14:00"
"2004-03-12 15:00","2004","03","12","15:00"
"2004-03-12 16:00","2004","03","12","16:00"
"2004-03-12 17:00","2004","03","12","17:00"
"2004-03-12 18:00","2004","03","12","18:00"
"2004-03-12 19:00","2004","03","12","19:00"
"2004-03-12 20:00","2004","03","12","20:00"
"2004-03-12 21:00","2004","03","12","21:00"
"2004-03-12 22:00","2004","03","12","22:00"
"2004-03-12 23:00","2004","03","12","23:00"
"2004-03-13 00:00","2004","03","13","00:00"
"2004-03-13 01:00","2004","03","13","01:00"
"2004-03-13 02:00","2004","03","13","02:00"
"2004-03-13 03:00","2004","03","13","03:00"
"2004-03-13 04:00","2004","03","13","04:00"
"2004-03-13 05:00","2004","03","13","05:00"
"2004-03-13 06:00","2004","03","13","06:00"
"2004-03-13 07:00","2004","03","13","07:00"
"2004-03-13 08:00","2004","03","13","08:00"
"2004-03-13 09:00","2004","03","13","09:00"
"2004-03-13 10:00","2004","03","13","10:00"
"2004-03-13 11:00","2004","03","13","11:00"
"2004-03-13 12:00","2004","03","13","12:00"
"2004-03-13 13:00","2004","03","13","13:00"
"2004-03-13 14:00","2004","03","13","14:00"
"2004-03-13 15:00","2004","03","13","15:00"
"2004-03-13 16:00","2004","03","13","16:00"
"2004-03-13 17:00","2004","03","13","17:00"
"2004-03-13 18:00","2004","03","13","18:00"
"2004-03-13 19:00","2004","03","13","19:00"
"2004-03-13 20:00","2004","03","13","20:00"
"2004-03-13 21:00","2004","03","13","21:00"
"2004-03-13 22:00","2004","03","13","22:00"
"2004-03-13 23:00","2004","03","13","23:00"
"2004-03-14 00:00","2004","03","14","00:00"
"2004-03-14 01:00","2004","03","14","01:00"
"2004-03-14 02:00","2004","03","14","02:00"
"2004-03-14 03:00","2004","03","14","03:00"
"2004-03-14 04:00","2004","03","14","04:00"
"2004-03-14 05:00","2004","03","14","05:00"
"2004-03-14 06:00","2004","03","14","06:00"
"2004-03-14 07:00","2004","03","14","07:00"
"2004-03-14 08:00","2004","03","14","08:00"
"2004-03-14 09:00","2004","03","14","09:00"
"2004-03-14 10:00","2004","03","14","10:00"
"2004-03-14 11:00","2004","03","14","11:00"
"2004-03-14 12:00","2004","03","14","12:00"
"2004-03-14 13:00","2004","03","14","13:00"
"2004-03-14 14:00","2004","03","14","14:00"
"2004-03-14 15:00","2004","03","14","15:00"
"2004-03-14 16:00","2004","03","14","16:00"
"2004-03-14 17:00","2004","03","14","17:00"
"2004-03-14 18:00","2004","03","14","18:00"
"2004-03-14 19:00","2004","03","14","19:00"
"2004-03-14 20:00","2004","03","14","20:00"
"2004-03-14 21:00","2004","03","14","21:00"
"2004-03-14 22:00","2004","03","14","22:00"
"2004-03-14 23:00","2004","03","14","23:00"
"2004-03-15 00:00","2004","03","15","00:00"
"2004-03-15 01:00","2004","03","15","01:00"
"2004-03-15 02:00","2004","03","15","02:00"
"2004-03-15 03:00","2004","03","15","03:00"
"2004-03-15 04:00","2004","03","15","04:00"
"2004-03-15 05:00","2004","03","15","05:00"
"2004-03-15 06:00","2004","03","15","06:00"
"2004-03-15 07:00","2004","03","15","07:00"
"2004-03-15 08:00","2004","03","15","08:00"
"2004-03-15 09:00","2004","03","15","09:00"
"2004-03-15 10:00","2004","03","15","10:00"
"2004-03-15 11:00","2004","03","15","11:00"
"2004-03-15 12:00","2004","03","15","12:00"
"2004-03-15 13:00","2004","03","15","13:00"
"2004-03-15 14:00","2004","03","15","14:00"
"2004-03-15 15:00","2004","03","15","15:00"
"2004-03-15 16:00","2004","03","15","16:00"
"2004-03-15 17:00","2004","03","15","17:00"
"2004-03-15 18:00","2004","03","15","18:00"
"2004-03-15 19:00","2004","03","15","19:00"
"2004-03-15 20:00","2004","03","15","20:00"
"2004-03-15 21:00","2004","03","15","21:00"
"2004-03-15 22:00","2004","03","15","22:00"
"2004-03-15 23:00","2004","03","15","23:00"
"2004-03-16 00:00","2004","03","16","00:00"
"2004-03-16 01:00","2004","03","16","01:00"
"2004-03-16 02:00","2004","03","16","02:00"
"2004-03-16 03:00","2004","03","16","03:00"
"2004-03-16 04:00","2004","03","16","04:00"
"2004-03-16 05:00","2004","03","16","05:00"
"2004-03-16 06:00","2004","03","16","06:00"
"2004-03-16 07:00","2004","03","16","07:00"
"2004-03-16 08:00","2004","03","16","08:00"
"2004-03-16 09:00","2004","03","16","09:00"
"2004-03-16 10:00","2004","03","16","10:00"
"2004-03-16 11:00","2004","03","16","11:00"
"2004-03-16 12:00","2004","03","16","12:00"
"2004-03-16 13:00","2004","03","16","13:00"
"2004-03-16 14:00","2004","03","16","14:00"
"2004-03-16 15:00","2004","03","16","15:00"
"2004-03-16 16:00","2004","03","16","16:00"
"2004-03-16 17:00","2004","03","16","17:00"
"2004-03-16 18:00","2004","03","16","18:00"
"2004-03-16 19:00","2004","03","16","19:00"
"2004-03-16 20:00","2004","03","16","20:00"
"2004-03-16 21:00","2004","03","16","21:00"
"2004-03-16 22:00","2004","03","16","22:00"
"2004-03-16 23:00","2004","03","16","23:00"
"2004-03-17 00:00","2004","03","17","00:00"
"2004-03-17 01:00","2004","03","17","01:00"
"2004-03-17 02:00","2004","03","17","02:00"
"2004-03-17 03:00","2004","03","17","03:00"
"2004-03-17 04:00","2004","03","17","04:00"
"2004-03-17 05:00","2004","03","17","05:00"
"2004-03-17 06:00","2004","03","17","06:00"
"2004-03-17 07:00","2004","03","17","07:00"
"2004-03-17 08:00","2004","03","17","08:00"
"2004-03-17 09:00","2004","03","17","09:00","-8.5","","-21.7","","34","","8","","22","","15.0","","99.58","","","","-16","","NA"
"2004-03-17 10:00","2004","03","17","10:00","-7.2","","-22.3","","29","","9","","24","","15.0","","99.54","","","","-15","","NA"
"2004-03-17 11:00","2004","03","17","11:00","-6.5","","-20.9","","31","","14","","24","","15.0","","99.51","","","","-14","","NA"
"2004-03-17 12:00","2004","03","17","12:00","-6.3","","-19.4","","35","","14","","22","","15.0","","99.44","","","","-14","","NA"
"2004-03-17 13:00","2004","03","17","13:00","-5.7","","-17.8","","38","","14","","15","","15.0","","99.40","","","","-11","","NA"
"2004-03-17 14:00","2004","03","17","14:00","-5.5","","-17.7","","38","","15","","11","","15.0","","99.35","","","","-10","","NA"
"2004-03-17 15:00","2004","03","17","15:00","-5.6","","-17.1","","40","","18","","9","","15.0","","99.29","","","","-10","","NA"
"2004-03-17 16:00","2004","03","17","16:00","-5.1","","-16.1","","42","","16","","9","","15.0","","99.27","","","","-9","","NA"
"2004-03-17 17:00","2004","03","17","17:00","-5.1","","-16.1","","42","","16","","9","","15.0","","99.27","","","","-9","","NA"
"2004-03-17 18:00","2004","03","17","18:00","-3.8","","-14.1","","45","","24","","9","","15.0","","99.24","","","","-8","","NA"
"2004-03-17 19:00","2004","03","17","19:00","-4.5","","-13.2","","51","","31","","4","","15.0","","99.27","","","","-6","","NA"
"2004-03-17 20:00","2004","03","17","20:00","-4.4","","-12.9","","51","","","M","2","","15.0","","99.29","","","","-5","","NA"
"2004-03-17 21:00","2004","03","17","21:00","-4.5","","-12.3","","54","","32","","4","","15.0","","99.31","","","","-6","","NA"
"2004-03-17 22:00","2004","03","17","22:00","-5.0","","-12.7","","55","","32","","6","","15.0","","99.31","","","","-8","","NA"
"2004-03-17 23:00","2004","03","17","23:00","-5.6","","-13.3","","55","","","M","4","","15.0","","99.29","","","","-7","","NA"
"2004-03-18 00:00","2004","03","18","00:00","-6.5","","-14.1","","55","","29","","6","","15.0","","99.27","","","","-9","","NA"
"2004-03-18 01:00","2004","03","18","01:00","-6.0","","-13.9","","54","","32","","7","","15.0","","99.29","","","","-9","","NA"
"2004-03-18 02:00","2004","03","18","02:00","-6.0","","-13.7","","54","","32","","7","","15.0","","99.31","","","","-9","","NA"
"2004-03-18 03:00","2004","03","18","03:00","-6.7","","-12.3","","64","","7","","2","","15.0","","99.29","","","","-8","","NA"
"2004-03-18 04:00","2004","03","18","04:00","-7.2","","-12.0","","69","","10","","4","","15.0","","99.29","","","","-9","","NA"
"2004-03-18 05:00","2004","03","18","05:00","-8.2","","-10.5","","83","","8","","11","","15.0","","99.31","","","","-13","","NA"
"2004-03-18 06:00","2004","03","18","06:00","-7.3","","-10.9","","75","","5","","6","","4.0","","99.35","","","","-10","","NA"
"2004-03-18 07:00","2004","03","18","07:00","-7.2","","-9.8","","82","","6","","6","","1.9","","99.36","","","","-10","","NA"
"2004-03-18 08:00","2004","03","18","08:00","-6.9","","-8.8","","86","","8","","9","","8.0","","99.40","","","","-11","","NA"
"2004-03-18 09:00","2004","03","18","09:00","-5.3","","-7.1","","87","","8","","9","","15.0","","99.42","","","","-9","","NA"
"2004-03-18 10:00","2004","03","18","10:00","-4.2","","-6.4","","85","","9","","7","","8.0","","99.47","","","","-7","","NA"
"2004-03-18 11:00","2004","03","18","11:00","-3.6","","-6.2","","82","","8","","7","","2.6","","99.49","","","","-7","","NA"
"2004-03-18 12:00","2004","03","18","12:00","-2.6","","-5.7","","79","","15","","15","","15.0","","99.51","","","","-8","","NA"
"2004-03-18 13:00","2004","03","18","13:00","-2.3","","-5.7","","77","","14","","15","","15.0","","99.49","","","","-7","","NA"
"2004-03-18 14:00","2004","03","18","14:00","-2.0","","-6.1","","73","","14","","15","","15.0","","99.49","","","","-7","","NA"
"2004-03-18 15:00","2004","03","18","15:00","-2.1","","-5.5","","77","","16","","15","","15.0","","99.51","","","","-7","","NA"
"2004-03-18 16:00","2004","03","18","16:00","-2.0","","-4.9","","81","","15","","11","","15.0","","99.53","","","","-6","","NA"
"2004-03-18 17:00","2004","03","18","17:00","-2.3","","-4.1","","87","","16","","13","","15.0","","99.54","","","","-7","","NA"
"2004-03-18 18:00","2004","03","18","18:00","-2.6","","-4.0","","90","","18","","13","","15.0","","99.58","","","","-7","","NA"
"2004-03-18 19:00","2004","03","18","19:00","-2.9","","-3.5","","96","","15","","6","","15.0","","99.63","","","","-5","","NA"
"2004-03-18 20:00","2004","03","18","20:00","-3.1","","-3.7","","96","","14","","7","","15.0","","99.71","","","","-6","","NA"
"2004-03-18 21:00","2004","03","18","21:00","-3.0","","-3.6","","96","","21","","6","","15.0","","99.78","","","","-5","","NA"
"2004-03-18 22:00","2004","03","18","22:00","-3.5","","-4.1","","96","","7","","6","","15.0","","99.81","","","","-6","","NA"
"2004-03-18 23:00","2004","03","18","23:00","-4.1","","-4.7","","96","","2","","4","","15.0","","99.83","","","","-6","","NA"
"2004-03-19 00:00","2004","03","19","00:00","-4.1","","-4.7","","96","","4","","2","","15.0","","99.87","","","","-5","","NA"
"2004-03-19 01:00","2004","03","19","01:00","-5.3","","-5.9","","96","","11","","2","","15.0","","99.90","","","","-6","","NA"
"2004-03-19 02:00","2004","03","19","02:00","-5.3","","-5.9","","96","","32","","4","","15.0","","99.99","","","","-7","","NA"
"2004-03-19 03:00","2004","03","19","03:00","-4.8","","-5.4","","96","","31","","2","","15.0","","100.03","","","","-6","","NA"
"2004-03-19 04:00","2004","03","19","04:00","-4.8","","-5.4","","96","","","","0","","15.0","","100.07","","","","","","NA"
"2004-03-19 05:00","2004","03","19","05:00","-4.5","","-5.1","","96","","","","0","","15.0","","100.17","","","","","","NA"
"2004-03-19 06:00","2004","03","19","06:00","-5.7","","-6.3","","96","","5","","6","","15.0","","100.23","","","","-9","","NA"
"2004-03-19 07:00","2004","03","19","07:00","-5.2","","-5.8","","96","","8","","6","","15.0","","100.30","","","","-8","","NA"
"2004-03-19 08:00","2004","03","19","08:00","-4.3","","-4.9","","96","","9","","7","","15.0","","100.39","","","","-7","","NA"
"2004-03-19 09:00","2004","03","19","09:00","-4.4","","-5.0","","96","","9","","7","","15.0","","100.43","","","","-8","","NA"
"2004-03-19 10:00","2004","03","19","10:00","-3.0","","-3.9","","93","","8","","6","","15.0","","100.46","","","","-5","","NA"
"2004-03-19 11:00","2004","03","19","11:00","-1.5","","-4.4","","81","","9","","7","","15.0","","100.52","","","","-4","","NA"
"2004-03-19 12:00","2004","03","19","12:00","0.6","","-3.4","","75","","10","","9","","15.0","","100.52","","","","","","NA"
"2004-03-19 13:00","2004","03","19","13:00","0.3","","-2.8","","80","","10","","9","","15.0","","100.50","","","","","","NA"
"2004-03-19 14:00","2004","03","19","14:00","1.8","","-2.2","","75","","12","","6","","15.0","","100.46","","","","","","NA"
"2004-03-19 15:00","2004","03","19","15:00","0.6","","-2.7","","79","","18","","24","","15.0","","100.43","","","","","","NA"
"2004-03-19 16:00","2004","03","19","16:00"
"2004-03-19 17:00","2004","03","19","17:00","0.2","","-1.6","","88","","18","","28","","15.0","","100.35","","","","","","NA"
"2004-03-19 18:00","2004","03","19","18:00","-0.1","","-1.3","","92","","18","","26","","8.0","","100.39","","","","-6","","NA"
"2004-03-19 19:00","2004","03","19","19:00","-0.4","","-1.5","","92","","18","","24","","8.0","","100.30","","","","-6","","NA"
"2004-03-19 20:00","2004","03","19","20:00","-0.2","","-1.1","","94","","14","","22","","12.9","","100.14","","","","-6","","NA"
"2004-03-19 21:00","2004","03","19","21:00","0.7","","-3.5","","73","","18","","28","","15.0","","100.08","","","","","","NA"
"2004-03-19 22:00","2004","03","19","22:00","-0.2","","-1.1","","94","","18","","19","","0.0","","100.12","","","","-5","","NA"
"2004-03-19 23:00","2004","03","19","23:00","0.0","","-0.5","","96","","18","","20","","1.9","","100.01","","","","-5","","NA"
"2004-03-20 00:00","2004","03","20","00:00","0.2","","-0.3","","96","","18","","39","","1.6","","99.85","","","","","","NA"
"2004-03-20 01:00","2004","03","20","01:00","0.4","","-0.7","","92","","19","","28","","9.7","","99.81","","","","","","NA"
"2004-03-20 02:00","2004","03","20","02:00","-0.1","","-0.7","","96","","18","","35","","0.5","","99.67","","","","-7","","NA"
"2004-03-20 03:00","2004","03","20","03:00","0.2","","-0.3","","96","","18","","35","","11.3","","99.44","","","","","","NA"
"2004-03-20 04:00","2004","03","20","04:00","0.2","","-0.3","","96","","19","","26","","9.7","","99.26","","","","","","NA"
"2004-03-20 05:00","2004","03","20","05:00","0.5","","-0.2","","95","","18","","22","","12.9","","99.17","","","","","","NA"
"2004-03-20 06:00","2004","03","20","06:00","1.0","","0.4","","96","","18","","20","","12.9","","99.04","","","","","","NA"
"2004-03-20 07:00","2004","03","20","07:00","1.7","","0.4","","91","","20","","6","","15.0","","98.97","","","","","","NA"
"2004-03-20 08:00","2004","03","20","08:00","1.6","","-0.3","","87","","21","","13","","15.0","","98.77","","","","","","NA"
"2004-03-20 09:00","2004","03","20","09:00","1.5","","0.1","","90","","23","","20","","15.0","","98.68","","","","","","NA"
"2004-03-20 10:00","2004","03","20","10:00","1.5","","0.1","","90","","21","","7","","11.3","","98.55","","","","","","NA"
"2004-03-20 11:00","2004","03","20","11:00","1.7","","0.7","","93","","23","","7","","8.0","","98.37","","","","","","NA"
"2004-03-20 12:00","2004","03","20","12:00","1.5","","0.7","","94","","16","","4","","4.8","","98.28","","","","","","NA"
"2004-03-20 13:00","2004","03","20","13:00","3.2","","1.7","","90","","26","","15","","9.7","","98.21","","","","","","NA"
"2004-03-20 14:00","2004","03","20","14:00","3.1","","1.2","","87","","23","","13","","11.3","","98.14","","","","","","NA"
"2004-03-20 15:00","2004","03","20","15:00","3.5","","-0.6","","74","","20","","6","","12.9","","98.10","","","","","","NA"
"2004-03-20 16:00","2004","03","20","16:00","4.4","","-4.2","","54","","27","","28","","15.0","","98.16","","","","","","NA"
"2004-03-20 17:00","2004","03","20","17:00","2.4","","-3.8","","64","","27","","37","","15.0","","98.18","","","","","","NA"
"2004-03-20 18:00","2004","03","20","18:00","2.8","","-3.4","","64","","27","","32","","15.0","","98.21","","","","","","NA"
"2004-03-20 19:00","2004","03","20","19:00","2.2","","-5.8","","55","","28","","30","","15.0","","98.32","","","","","","NA"
"2004-03-20 20:00","2004","03","20","20:00","1.0","","-3.9","","70","","29","","26","","15.0","","98.36","","","","","","NA"
"2004-03-20 21:00","2004","03","20","21:00","0.7","","-3.1","","76","","29","","30","","11.3","","98.39","","","","","","NA"
"2004-03-20 22:00","2004","03","20","22:00","0.6","","-1.6","","85","","32","","20","","1.9","","98.46","","","","","","NA"
"2004-03-20 23:00","2004","03","20","23:00","0.2","","-5.5","","65","","35","","19","","15.0","","98.61","","","","","","NA"
"2004-03-21 00:00","2004","03","21","00:00","-1.4","","-9.4","","54","","34","","24","","15.0","","98.72","","","","-8","","NA"
"2004-03-21 01:00","2004","03","21","01:00","-3.1","","-11.4","","53","","35","","28","","15.0","","98.86","","","","-10","","NA"
"2004-03-21 02:00","2004","03","21","02:00","-4.4","","-12.6","","53","","35","","28","","15.0","","98.97","","","","-12","","NA"
"2004-03-21 03:00","2004","03","21","03:00","-5.5","","-14.1","","51","","34","","30","","15.0","","99.06","","","","-14","","NA"
"2004-03-21 04:00","2004","03","21","04:00","-6.7","","-14.8","","52","","35","","26","","15.0","","99.20","","","","-15","","NA"
"2004-03-21 05:00","2004","03","21","05:00","-7.7","","-16.2","","50","","34","","20","","15.0","","99.36","","","","-15","","NA"
"2004-03-21 06:00","2004","03","21","06:00","-9.0","","-16.9","","53","","33","","19","","15.0","","99.53","","","","-16","","NA"
"2004-03-21 07:00","2004","03","21","07:00","-9.9","","-17.8","","52","","33","","17","","15.0","","99.63","","","","-17","","NA"
"2004-03-21 08:00","2004","03","21","08:00","-10.3","","-18.8","","50","","33","","22","","15.0","","99.71","","","","-19","","NA"
"2004-03-21 09:00","2004","03","21","09:00","-9.8","","-19.1","","47","","34","","20","","15.0","","99.78","","","","-18","","NA"
"2004-03-21 10:00","2004","03","21","10:00","-9.1","","-19.2","","44","","35","","28","","15.0","","99.83","","","","-18","","NA"
"2004-03-21 11:00","2004","03","21","11:00","-8.1","","-19.1","","41","","34","","26","","15.0","","99.89","","","","-16","","NA"
"2004-03-21 12:00","2004","03","21","12:00","-6.8","","-20.5","","33","","36","","26","","15.0","","99.90","","","","-15","","NA"
"2004-03-21 13:00","2004","03","21","13:00","-5.1","","-23.1","","23","","35","","22","","15.0","","99.90","","","","-12","","NA"
"2004-03-21 14:00","2004","03","21","14:00","-5.1","","-24.1","","21","","34","","17","","15.0","","99.87","","","","-11","","NA"
"2004-03-21 15:00","2004","03","21","15:00","-4.4","","-24.1","","20","","36","","19","","15.0","","99.92","","","","-11","","NA"
"2004-03-21 16:00","2004","03","21","16:00","-4.9","","-25.1","","19","","35","","20","","15.0","","99.98","","","","-11","","NA"
"2004-03-21 17:00","2004","03","21","17:00","-5.0","","-25.2","","19","","35","","22","","15.0","","100.01","","","","-12","","NA"
"2004-03-21 18:00","2004","03","21","18:00","-5.7","","-25.2","","20","","34","","19","","15.0","","100.07","","","","-12","","NA"
"2004-03-21 19:00","2004","03","21","19:00","-6.8","","-25.6","","21","","34","","9","","15.0","","100.12","","","","-11","","NA"
"2004-03-21 20:00","2004","03","21","20:00","-7.5","","-24.7","","24","","33","","17","","15.0","","100.19","","","","-14","","NA"
"2004-03-21 21:00","2004","03","21","21:00","-8.1","","-24.8","","25","","34","","19","","15.0","","100.23","","","","-15","","NA"
"2004-03-21 22:00","2004","03","21","22:00","-8.8","","-24.5","","27","","33","","15","","15.0","","100.26","","","","-15","","NA"
"2004-03-21 23:00","2004","03","21","23:00","-9.4","","-24.2","","29","","35","","13","","15.0","","100.28","","","","-15","","NA"
"2004-03-22 00:00","2004","03","22","00:00","-10.1","","-24.5","","30","","34","","15","","15.0","","100.30","","","","-17","","NA"
"2004-03-22 01:00","2004","03","22","01:00","-11.2","","-24.4","","33","","36","","11","","15.0","","100.34","","","","-17","","NA"
"2004-03-22 02:00","2004","03","22","02:00","-11.7","","-23.9","","36","","35","","11","","15.0","","100.35","","","","-18","","NA"
"2004-03-22 03:00","2004","03","22","03:00","-12.8","","-24.0","","39","","34","","7","","15.0","","100.32","","","","-17","","NA"
"2004-03-22 04:00","2004","03","22","04:00","-13.4","","-23.4","","43","","32","","7","","15.0","","100.32","","","","-18","","NA"
"2004-03-22 05:00","2004","03","22","05:00","-13.9","","-23.4","","45","","32","","9","","15.0","","100.37","","","","-20","","NA"
"2004-03-22 06:00","2004","03","22","06:00","-14.5","","-22.5","","51","","31","","9","","15.0","","100.37","","","","-20","","NA"
"2004-03-22 07:00","2004","03","22","07:00","-14.2","","-22.2","","51","","31","","7","","15.0","","100.41","","","","-19","","NA"
"2004-03-22 08:00","2004","03","22","08:00","-13.1","","-22.4","","46","","29","","15","","15.0","","100.44","","","","-21","","NA"
"2004-03-22 09:00","2004","03","22","09:00","-12.0","","-23.0","","40","","28","","13","","15.0","","100.44","","","","-19","","NA"
"2004-03-22 10:00","2004","03","22","10:00","-11.2","","-23.7","","35","","27","","13","","15.0","","100.43","","","","-18","","NA"
"2004-03-22 11:00","2004","03","22","11:00","-10.1","","-23.1","","34","","28","","19","","15.0","","100.39","","","","-18","","NA"
"2004-03-22 12:00","2004","03","22","12:00","-8.6","","-22.8","","31","","28","","26","","15.0","","100.30","","","","-17","","NA"
"2004-03-22 13:00","2004","03","22","13:00","-7.4","","-21.4","","32","","27","","26","","15.0","","100.21","","","","-16","","NA"
"2004-03-22 14:00","2004","03","22","14:00","-5.9","","-19.3","","34","","30","","20","","15.0","","100.05","","","","-13","","NA"
"2004-03-22 15:00","2004","03","22","15:00","-5.1","","-14.5","","48","","24","","22","","15.0","","99.96","","","","-12","","NA"
"2004-03-22 16:00","2004","03","22","16:00","-4.9","","-11.8","","58","","27","","28","","6.4","","99.87","","","","-13","","NA"
"2004-03-22 17:00","2004","03","22","17:00","-4.2","","-13.9","","47","","27","","26","","15.0","","99.78","","","","-11","","NA"
"2004-03-22 18:00","2004","03","22","18:00","-4.0","","-14.8","","43","","27","","24","","15.0","","99.71","","","","-11","","NA"
"2004-03-22 19:00","2004","03","22","19:00","-4.0","","-13.5","","48","","27","","19","","15.0","","99.67","","","","-10","","NA"
"2004-03-22 20:00","2004","03","22","20:00","-3.6","","-11.9","","53","","24","","22","","15.0","","99.63","","","","-10","","NA"
"2004-03-22 21:00","2004","03","22","21:00","-3.7","","-12.0","","53","","25","","13","","15.0","","99.58","","","","-9","","NA"
"2004-03-22 22:00","2004","03","22","22:00","-3.7","","-12.7","","50","","27","","15","","15.0","","99.54","","","","-9","","NA"
"2004-03-22 23:00","2004","03","22","23:00","-3.2","","-11.3","","53","","25","","15","","15.0","","99.44","","","","-8","","NA"
"2004-03-23 00:00","2004","03","23","00:00","-2.8","","-10.9","","54","","24","","24","","15.0","","99.35","","","","-9","","NA"
"2004-03-23 01:00","2004","03","23","01:00","-2.7","","-9.5","","59","","26","","17","","15.0","","99.26","","","","-8","","NA"
"2004-03-23 02:00","2004","03","23","02:00","-1.9","","-10.1","","53","","24","","30","","15.0","","99.17","","","","-9","","NA"
"2004-03-23 03:00","2004","03","23","03:00","-1.8","","-9.3","","57","","26","","26","","15.0","","99.13","","","","-8","","NA"
"2004-03-23 04:00","2004","03","23","04:00","-1.3","","-8.4","","58","","23","","28","","15.0","","99.08","","","","-8","","NA"
"2004-03-23 05:00","2004","03","23","05:00","-1.4","","-7.6","","63","","26","","19","","15.0","","99.08","","","","-7","","NA"
"2004-03-23 06:00","2004","03","23","06:00","-2.1","","-4.7","","82","","28","","22","","15.0","","99.13","","","","-8","","NA"
"2004-03-23 07:00","2004","03","23","07:00","-2.5","","-7.5","","68","","29","","22","","15.0","","99.22","","","","-9","","NA"
"2004-03-23 08:00","2004","03","23","08:00","-3.1","","-8.6","","66","","28","","28","","15.0","","99.31","","","","-10","","NA"
"2004-03-23 09:00","2004","03","23","09:00","-2.5","","-9.7","","58","","30","","20","","15.0","","99.40","","","","-8","","NA"
"2004-03-23 10:00","2004","03","23","10:00","-2.2","","-12.6","","45","","29","","35","","15.0","","99.45","","","","-10","","NA"
"2004-03-23 11:00","2004","03","23","11:00","-1.4","","-14.6","","36","","28","","32","","15.0","","99.54","","","","-9","","NA"
"2004-03-23 12:00","2004","03","23","12:00","-1.5","","-16.9","","30","","31","","32","","15.0","","99.62","","","","-9","","NA"
"2004-03-23 13:00","2004","03","23","13:00","-1.2","","-17.1","","29","","30","","26","","15.0","","99.67","","","","-8","","NA"
"2004-03-23 14:00","2004","03","23","14:00","-0.9","","-18.1","","26","","28","","30","","15.0","","99.76","","","","-8","","NA"
"2004-03-23 15:00","2004","03","23","15:00","-1.2","","-14.1","","37","","27","","32","","15.0","","99.81","","","","-8","","NA"
"2004-03-23 16:00","2004","03","23","16:00","-1.0","","-13.9","","37","","27","","30","","15.0","","99.89","","","","-8","","NA"
"2004-03-23 17:00","2004","03","23","17:00","-1.6","","-13.8","","39","","27","","28","","15.0","","99.94","","","","-8","","NA"
"2004-03-23 18:00","2004","03","23","18:00","-1.8","","-13.7","","40","","27","","26","","15.0","","100.03","","","","-8","","NA"
"2004-03-23 19:00","2004","03","23","19:00","-2.9","","-13.8","","43","","27","","19","","15.0","","100.07","","","","-9","","NA"
"2004-03-23 20:00","2004","03","23","20:00","-3.8","","-13.6","","46","","29","","9","","15.0","","100.12","","","","-8","","NA"
"2004-03-23 21:00","2004","03","23","21:00","-4.1","","-14.4","","45","","29","","11","","15.0","","100.19","","","","-9","","NA"
"2004-03-23 22:00","2004","03","23","22:00","-4.9","","-14.6","","47","","32","","6","","15.0","","100.21","","","","-8","","NA"
"2004-03-23 23:00","2004","03","23","23:00","-5.5","","-12.5","","58","","","","0","","15.0","","100.23","","","","","","NA"
"2004-03-24 00:00","2004","03","24","00:00","-5.3","","-13.2","","54","","30","","4","","15.0","","100.23","","","","-7","","NA"
"2004-03-24 01:00","2004","03","24","01:00","-4.8","","-13.5","","51","","27","","6","","15.0","","100.21","","","","-8","","NA"
"2004-03-24 02:00","2004","03","24","02:00","-5.4","","-14.8","","48","","32","","7","","15.0","","100.19","","","","-9","","NA"
"2004-03-24 03:00","2004","03","24","03:00","-4.8","","-15.6","","43","","34","","4","","15.0","","100.19","","","","-7","","NA"
"2004-03-24 04:00","2004","03","24","04:00","-6.8","","-13.1","","61","","10","","4","","15.0","","100.17","","","","-9","","NA"
"2004-03-24 05:00","2004","03","24","05:00","-6.4","","-13.6","","57","","7","","11","","15.0","","100.12","","","","-11","","NA"
"2004-03-24 06:00","2004","03","24","06:00","-5.5","","-11.9","","61","","7","","13","","15.0","","100.08","","","","-11","","NA"
"2004-03-24 07:00","2004","03","24","07:00","-5.4","","-9.7","","72","","9","","17","","15.0","","100.05","","","","-11","","NA"
"2004-03-24 08:00","2004","03","24","08:00","-4.1","","-7.5","","77","","9","","19","","15.0","","100.03","","","","-10","","NA"
"2004-03-24 09:00","2004","03","24","09:00","-1.8","","-4.9","","79","","12","","32","","15.0","","99.99","","","","-9","","NA"
"2004-03-24 10:00","2004","03","24","10:00","-1.6","","-5.0","","78","","13","","32","","15.0","","99.96","","","","-9","","NA"
"2004-03-24 11:00","2004","03","24","11:00","-1.0","","-3.9","","81","","13","","35","","15.0","","99.85","","","","-8","","NA"
"2004-03-24 12:00","2004","03","24","12:00","-0.3","","-2.8","","83","","11","","28","","15.0","","99.81","","","","-7","","NA"
"2004-03-24 13:00","2004","03","24","13:00","0.5","","-1.7","","85","","9","","20","","15.0","","99.80","","","","","","NA"
"2004-03-24 14:00","2004","03","24","14:00","0.9","","-1.3","","85","","12","","20","","15.0","","99.71","","","","","","NA"
"2004-03-24 15:00","2004","03","24","15:00","0.8","","-1.4","","85","","9","","17","","15.0","","99.72","","","","","","NA"
"2004-03-24 16:00","2004","03","24","16:00","0.7","","-0.7","","90","","9","","17","","15.0","","99.67","","","","","","NA"
"2004-03-24 17:00","2004","03","24","17:00","0.8","","0.2","","96","","13","","17","","8.0","","99.67","","","","","","NA"
"2004-03-24 18:00","2004","03","24","18:00","1.2","","0.8","","97","","11","","15","","0.0","","99.69","","","","","","NA"
"2004-03-24 19:00","2004","03","24","19:00","1.6","","1.3","","98","","14","","24","","0.0","","99.67","","","","","","NA"
"2004-03-24 20:00","2004","03","24","20:00","1.7","","1.4","","98","","14","","32","","0.0","","99.67","","","","","","NA"
"2004-03-24 21:00","2004","03","24","21:00","1.4","","1.1","","98","","14","","22","","0.0","","99.69","","","","","","NA"
"2004-03-24 22:00","2004","03","24","22:00","1.4","","1.0","","97","","14","","24","","0.8","","99.65","","","","","","NA"
"2004-03-24 23:00","2004","03","24","23:00","1.3","","1.0","","98","","14","","15","","4.0","","99.67","","","","","","NA"
"2004-03-25 00:00","2004","03","25","00:00","1.5","","1.2","","98","","13","","15","","0.6","","99.63","","","","","","NA"
"2004-03-25 01:00","2004","03","25","01:00","1.7","","1.4","","98","","9","","11","","0.5","","99.60","","","","","","NA"
"2004-03-25 02:00","2004","03","25","02:00","1.7","","1.4","","98","","8","","11","","0.2","","99.54","","","","","","NA"
"2004-03-25 03:00","2004","03","25","03:00","1.6","","1.3","","98","","6","","7","","0.0","","99.56","","","","","","NA"
"2004-03-25 04:00","2004","03","25","04:00","1.6","","1.3","","98","","6","","7","","0.0","","99.58","","","","","","NA"
"2004-03-25 05:00","2004","03","25","05:00","2.0","","1.7","","98","","5","","4","","0.0","","99.65","","","","","","NA"
"2004-03-25 06:00","2004","03","25","06:00","2.2","","1.9","","98","","8","","2","","0.0","","99.74","","","","","","NA"
"2004-03-25 07:00","2004","03","25","07:00","2.1","","1.8","","98","","6","","9","","0.0","","99.81","","","","","","NA"
"2004-03-25 08:00","2004","03","25","08:00","2.4","","2.1","","98","","13","","2","","0.0","","99.87","","","","","","NA"
"2004-03-25 09:00","2004","03","25","09:00","2.0","","1.7","","98","","15","","4","","0.0","","99.94","","","","","","NA"
"2004-03-25 10:00","2004","03","25","10:00","4.2","","3.9","","98","","","","0","","0.0","","99.98","","","","","","NA"
"2004-03-25 11:00","2004","03","25","11:00","2.8","","2.1","","95","","14","","7","","0.0","","100.01","","","","","","NA"
"2004-03-25 12:00","2004","03","25","12:00","2.2","","0.7","","90","","8","","6","","0.0","","100.01","","","","","","NA"
"2004-03-25 13:00","2004","03","25","13:00","2.1","","0.8","","91","","11","","7","","","M","100.03","","","","","","NA"
"2004-03-25 14:00","2004","03","25","14:00","1.3","","-0.1","","90","","9","","9","","0.0","","100.05","","","","","","NA"
"2004-03-25 15:00","2004","03","25","15:00","1.7","","0.8","","94","","8","","13","","0.0","","100.05","","","","","","NA"
"2004-03-25 16:00","2004","03","25","16:00","3.1","","2.2","","94","","6","","13","","0.0","","100.03","","","","","","NA"
"2004-03-25 17:00","2004","03","25","17:00","2.2","","1.3","","94","","9","","15","","0.0","","100.01","","","","","","NA"
"2004-03-25 18:00","2004","03","25","18:00","1.3","","0.5","","94","","9","","17","","0.0","","100.05","","","","","","NA"
"2004-03-25 19:00","2004","03","25","19:00","2.7","","1.8","","94","","9","","15","","0.0","","100.05","","","","","","NA"
"2004-03-25 20:00","2004","03","25","20:00","3.2","","2.3","","94","","9","","17","","0.0","","100.03","","","","","","NA"
"2004-03-25 21:00","2004","03","25","21:00","3.8","","2.9","","94","","7","","15","","0.3","","100.01","","","","","","NA"
"2004-03-25 22:00","2004","03","25","22:00","4.3","","3.4","","94","","9","","13","","0.8","","99.96","","","","","","NA"
"2004-03-25 23:00","2004","03","25","23:00","3.8","","2.9","","94","","10","","13","","1.1","","99.89","","","","","","NA"
"2004-03-26 00:00","2004","03","26","00:00","4.0","","3.1","","94","","9","","15","","0.0","","99.83","","","","","","NA"
"2004-03-26 01:00","2004","03","26","01:00","4.6","","3.7","","94","","9","","11","","1.6","","99.74","","","","","","NA"
"2004-03-26 02:00","2004","03","26","02:00","4.2","","3.3","","94","","9","","11","","0.0","","99.69","","","","","","NA"
"2004-03-26 03:00","2004","03","26","03:00","5.1","","4.2","","94","","9","","9","","0.0","","99.58","","","","","","NA"
"2004-03-26 04:00","2004","03","26","04:00","5.0","","4.1","","94","","18","","35","","","M","99.53","","","","","","NA"
"2004-03-26 05:00","2004","03","26","05:00","4.7","","3.8","","94","","18","","26","","","M","99.49","","","","","","NA"
"2004-03-26 06:00","2004","03","26","06:00","4.9","","4.0","","94","","23","","19","","0.0","","99.44","","","","","","NA"
"2004-03-26 07:00","2004","03","26","07:00","6.0","","5.1","","94","","23","","20","","0.0","","99.44","","","","","","NA"
"2004-03-26 08:00","2004","03","26","08:00","7.2","","6.3","","94","","9","","4","","0.0","","99.42","","","","","","NA"
"2004-03-26 09:00","2004","03","26","09:00","6.4","","5.5","","94","","23","","11","","0.0","","99.42","","","","","","NA"
"2004-03-26 10:00","2004","03","26","10:00","5.1","","4.2","","94","","9","","6","","0.0","","99.42","","","","","","NA"
"2004-03-26 11:00","2004","03","26","11:00","4.6","","3.7","","94","","12","","4","","0.0","","99.44","","","","","","NA"
"2004-03-26 12:00","2004","03","26","12:00","6.8","","5.9","","94","","31","","6","","0.0","","99.45","","","","","","NA"
"2004-03-26 13:00","2004","03","26","13:00","5.9","","5.2","","95","","26","","4","","0.0","","99.47","","","","","","NA"
"2004-03-26 14:00","2004","03","26","14:00","8.7","","8.0","","95","","27","","9","","0.2","","99.49","","","","","","NA"
"2004-03-26 15:00","2004","03","26","15:00","9.1","","8.2","","94","","27","","9","","15.0","","99.56","","","","","","NA"
"2004-03-26 16:00","2004","03","26","16:00","9.8","","8.1","","89","","27","","6","","15.0","","99.65","","","","","","NA"
"2004-03-26 17:00","2004","03","26","17:00","8.3","","6.9","","91","","30","","9","","15.0","","99.72","","","","","","NA"
"2004-03-26 18:00","2004","03","26","18:00","10.2","","7.5","","83","","","M","6","","15.0","","99.85","","","","","","NA"
"2004-03-26 19:00","2004","03","26","19:00","7.6","","5.8","","88","","1","","15","","15.0","","99.99","","","","","","NA"
"2004-03-26 20:00","2004","03","26","20:00","4.8","","3.0","","88","","1","","17","","15.0","","100.14","","","","","","NA"
"2004-03-26 21:00","2004","03","26","21:00","4.1","","1.7","","84","","36","","20","","15.0","","100.25","","","","","","NA"
"2004-03-26 22:00","2004","03","26","22:00","3.0","","0.4","","83","","3","","9","","15.0","","100.30","","","","","","NA"
"2004-03-26 23:00","2004","03","26","23:00","2.3","","-0.9","","79","","2","","9","","15.0","","100.37","","","","","","NA"
"2004-03-27 00:00","2004","03","27","00:00","1.5","","-1.7","","79","","1","","9","","15.0","","100.43","","","","","","NA"
"2004-03-27 01:00","2004","03","27","01:00","1.6","","-1.9","","78","","6","","6","","15.0","","100.46","","","","","","NA"
"2004-03-27 02:00","2004","03","27","02:00","0.9","","-2.9","","76","","36","","9","","15.0","","100.50","","","","","","NA"
"2004-03-27 03:00","2004","03","27","03:00","-0.3","","-3.8","","77","","1","","11","","15.0","","100.52","","","","-4","","NA"
"2004-03-27 04:00","2004","03","27","04:00","-0.9","","-2.9","","86","","3","","11","","15.0","","100.55","","","","-5","","NA"
"2004-03-27 05:00","2004","03","27","05:00","-1.2","","-3.0","","88","","3","","7","","15.0","","100.61","","","","-4","","NA"
"2004-03-27 06:00","2004","03","27","06:00","-1.3","","-3.3","","86","","2","","9","","15.0","","100.68","","","","-5","","NA"
"2004-03-27 07:00","2004","03","27","07:00","-1.6","","-3.4","","87","","2","","9","","15.0","","100.77","","","","-5","","NA"
"2004-03-27 08:00","2004","03","27","08:00","-1.5","","-3.5","","86","","3","","13","","15.0","","100.82","","","","-6","","NA"
"2004-03-27 09:00","2004","03","27","09:00","-1.1","","-3.2","","86","","2","","7","","15.0","","100.86","","","","-4","","NA"
"2004-03-27 10:00","2004","03","27","10:00","-0.2","","-3.3","","80","","1","","9","","15.0","","100.86","","","","-3","","NA"
"2004-03-27 11:00","2004","03","27","11:00","1.6","","-3.4","","69","","7","","13","","15.0","","100.82","","","","","","NA"
"2004-03-27 12:00","2004","03","27","12:00","2.3","","-4.3","","62","","7","","15","","15.0","","100.80","","","","","","NA"
"2004-03-27 13:00","2004","03","27","13:00","3.5","","-4.8","","55","","6","","13","","15.0","","100.79","","","","","","NA"
"2004-03-27 14:00","2004","03","27","14:00","4.9","","-5.3","","48","","5","","13","","15.0","","100.71","","","","","","NA"
"2004-03-27 15:00","2004","03","27","15:00","5.6","","-5.8","","44","","6","","11","","15.0","","100.64","","","","","","NA"
"2004-03-27 16:00","2004","03","27","16:00","4.7","","-4.9","","50","","9","","11","","15.0","","100.62","","","","","","NA"
"2004-03-27 17:00","2004","03","27","17:00","1.3","","-2.7","","75","","23","","19","","15.0","","100.66","","","","","","NA"
"2004-03-27 18:00","2004","03","27","18:00","3.1","","-2.1","","69","","24","","4","","15.0","","100.68","","","","","","NA"
"2004-03-27 19:00","2004","03","27","19:00","1.6","","-2.1","","76","","32","","4","","15.0","","100.71","","","","","","NA"
"2004-03-27 20:00","2004","03","27","20:00","2.3","","-1.9","","74","","5","","6","","15.0","","100.77","","","","","","NA"
"2004-03-27 21:00","2004","03","27","21:00","0.9","","-1.7","","83","","9","","9","","15.0","","100.79","","","","","","NA"
"2004-03-27 22:00","2004","03","27","22:00","0.9","","-2.1","","80","","8","","17","","15.0","","100.77","","","","","","NA"
"2004-03-27 23:00","2004","03","27","23:00","0.6","","-2.2","","81","","8","","20","","15.0","","100.71","","","","","","NA"
"2004-03-28 00:00","2004","03","28","00:00","0.0","","-2.0","","86","","9","","17","","15.0","","100.70","","","","-5","","NA"
"2004-03-28 01:00","2004","03","28","01:00","-0.2","","-0.7","","96","","9","","26","","15.0","","100.68","","","","-6","","NA"
"2004-03-28 02:00","2004","03","28","02:00","0.2","","-0.3","","96","","11","","19","","0.0","","100.71","","","","","","NA"
"2004-03-28 03:00","2004","03","28","03:00","0.3","","-0.2","","96","","9","","17","","0.0","","100.70","","","","","","NA"
"2004-03-28 04:00","2004","03","28","04:00","0.8","","0.4","","97","","9","","20","","0.0","","100.64","","","","","","NA"
"2004-03-28 05:00","2004","03","28","05:00","0.9","","0.5","","97","","9","","22","","0.0","","100.66","","","","","","NA"
"2004-03-28 06:00","2004","03","28","06:00","0.8","","0.4","","97","","9","","22","","0.0","","100.70","","","","","","NA"
"2004-03-28 07:00","2004","03","28","07:00","1.1","","0.7","","97","","9","","30","","5.6","","100.70","","","","","","NA"
"2004-03-28 08:00","2004","03","28","08:00","1.2","","0.8","","97","","9","","24","","15.0","","100.70","","","","","","NA"
"2004-03-28 09:00","2004","03","28","09:00","1.3","","0.9","","97","","9","","26","","15.0","","100.70","","","","","","NA"
"2004-03-28 10:00","2004","03","28","10:00","1.7","","1.3","","97","","9","","22","","15.0","","100.62","","","","","","NA"
"2004-03-28 11:00","2004","03","28","11:00","2.2","","0.6","","89","","9","","20","","15.0","","100.59","","","","","","NA"
"2004-03-28 12:00","2004","03","28","12:00","3.0","","0.1","","81","","9","","19","","15.0","","100.55","","","","","","NA"
"2004-03-28 13:00","2004","03","28","13:00","3.3","","0.2","","80","","13","","26","","15.0","","100.44","","","","","","NA"
"2004-03-28 14:00","2004","03","28","14:00","2.9","","-0.6","","78","","16","","15","","15.0","","100.41","","","","","","NA"
"2004-03-28 15:00","2004","03","28","15:00","3.9","","-1.4","","68","","10","","7","","15.0","","100.35","","","","","","NA"
"2004-03-28 16:00","2004","03","28","16:00","4.1","","-0.8","","70","","9","","11","","15.0","","100.26","","","","","","NA"
"2004-03-28 17:00","2004","03","28","17:00","4.6","","-0.1","","72","","8","","9","","15.0","","100.21","","","","","","NA"
"2004-03-28 18:00","2004","03","28","18:00","5.0","","0.2","","71","","9","","13","","15.0","","100.12","","","","","","NA"
"2004-03-28 19:00","2004","03","28","19:00","4.5","","-0.6","","69","","9","","17","","15.0","","99.99","","","","","","NA"
"2004-03-28 20:00","2004","03","28","20:00","4.4","","-0.3","","71","","11","","17","","15.0","","99.99","","","","","","NA"
"2004-03-28 21:00","2004","03","28","21:00","4.1","","-0.2","","74","","9","","15","","15.0","","99.98","","","","","","NA"
"2004-03-28 22:00","2004","03","28","22:00","3.9","","0.8","","80","","9","","22","","15.0","","99.85","","","","","","NA"
"2004-03-28 23:00","2004","03","28","23:00","3.4","","0.6","","82","","9","","20","","15.0","","99.78","","","","","","NA"
"2004-03-29 00:00","2004","03","29","00:00","2.7","","0.1","","83","","6","","19","","15.0","","99.65","","","","","","NA"
"2004-03-29 01:00","2004","03","29","01:00","3.2","","0.3","","81","","7","","22","","15.0","","99.60","","","","","","NA"
"2004-03-29 02:00","2004","03","29","02:00","3.4","","0.3","","80","","5","","11","","15.0","","99.56","","","","","","NA"
"2004-03-29 03:00","2004","03","29","03:00","3.8","","-0.3","","75","","7","","22","","15.0","","99.44","","","","","","NA"
"2004-03-29 04:00","2004","03","29","04:00","3.8","","-0.7","","72","","10","","32","","15.0","","99.36","","","","","","NA"
"2004-03-29 05:00","2004","03","29","05:00","3.5","","-1.2","","71","","12","","11","","15.0","","99.45","","","","","","NA"
"2004-03-29 06:00","2004","03","29","06:00","3.4","","-1.1","","72","","14","","19","","15.0","","99.45","","","","","","NA"
"2004-03-29 07:00","2004","03","29","07:00","2.9","","-0.8","","77","","14","","17","","15.0","","99.49","","","","","","NA"
"2004-03-29 08:00","2004","03","29","08:00","2.6","","-0.4","","81","","9","","13","","15.0","","99.49","","","","","","NA"
"2004-03-29 09:00","2004","03","29","09:00","2.4","","0.3","","86","","8","","11","","15.0","","99.51","","","","","","NA"
"2004-03-29 10:00","2004","03","29","10:00","3.8","","2.3","","90","","3","","6","","15.0","","99.51","","","","","","NA"
"2004-03-29 11:00","2004","03","29","11:00","1.9","","0.8","","92","","9","","13","","15.0","","99.54","","","","","","NA"
"2004-03-29 12:00","2004","03","29","12:00","2.6","","1.9","","95","","9","","11","","15.0","","99.58","","","","","","NA"
"2004-03-29 13:00","2004","03","29","13:00","1.7","","1.1","","96","","9","","15","","0.0","","99.56","","","","","","NA"
"2004-03-29 14:00","2004","03","29","14:00","1.5","","0.9","","96","","9","","13","","0.0","","99.65","","","","","","NA"
"2004-03-29 15:00","2004","03","29","15:00","1.5","","0.9","","96","","9","","15","","0.0","","99.60","","","","","","NA"
"2004-03-29 16:00","2004","03","29","16:00","2.0","","1.4","","96","","9","","9","","0.0","","99.63","","","","","","NA"
"2004-03-29 17:00","2004","03","29","17:00","2.7","","2.1","","96","","9","","4","","0.0","","99.65","","","","","","NA"
"2004-03-29 18:00","2004","03","29","18:00","3.2","","2.6","","96","","3","","2","","0.0","","99.63","","","","","","NA"
"2004-03-29 19:00","2004","03","29","19:00","2.8","","2.2","","96","","9","","7","","0.0","","99.62","","","","","","NA"
"2004-03-29 20:00","2004","03","29","20:00","2.7","","2.1","","96","","9","","6","","0.0","","99.72","","","","","","NA"
"2004-03-29 21:00","2004","03","29","21:00","2.4","","1.8","","96","","33","","6","","0.0","","99.72","","","","","","NA"
"2004-03-29 22:00","2004","03","29","22:00","3.3","","2.7","","96","","3","","4","","11.3","","99.65","","","","","","NA"
"2004-03-29 23:00","2004","03","29","23:00","2.3","","1.7","","96","","9","","4","","0.0","","99.71","","","","","","NA"
"2004-03-30 00:00","2004","03","30","00:00","1.8","","1.2","","96","","6","","4","","0.0","","99.67","","","","","","NA"
"2004-03-30 01:00","2004","03","30","01:00","1.5","","0.9","","96","","9","","6","","0.0","","99.74","","","","","","NA"
"2004-03-30 02:00","2004","03","30","02:00","1.2","","0.6","","96","","8","","7","","0.0","","99.67","","","","","","NA"
"2004-03-30 03:00","2004","03","30","03:00","1.1","","0.5","","96","","8","","11","","0.0","","99.69","","","","","","NA"
"2004-03-30 04:00","2004","03","30","04:00","1.5","","0.9","","96","","5","","6","","0.0","","99.67","","","","","","NA"
"2004-03-30 05:00","2004","03","30","05:00","1.5","","0.9","","96","","4","","6","","0.0","","99.62","","","","","","NA"
"2004-03-30 06:00","2004","03","30","06:00","1.6","","1.0","","96","","32","","4","","15.0","","99.65","","","","","","NA"
"2004-03-30 07:00","2004","03","30","07:00","1.7","","1.1","","96","","31","","4","","15.0","","99.69","","","","","","NA"
"2004-03-30 08:00","2004","03","30","08:00","2.2","","1.6","","96","","30","","6","","15.0","","99.69","","","","","","NA"
"2004-03-30 09:00","2004","03","30","09:00","3.4","","2.8","","96","","23","","2","","15.0","","99.65","","","","","","NA"
"2004-03-30 10:00","2004","03","30","10:00","4.4","","1.4","","81","","14","","7","","15.0","","99.63","","","","","","NA"
"2004-03-30 11:00","2004","03","30","11:00","3.5","","-1.2","","71","","19","","6","","15.0","","99.63","","","","","","NA"
"2004-03-30 12:00","2004","03","30","12:00","5.2","","0.6","","72","","17","","2","","15.0","","99.54","","","","","","NA"
"2004-03-30 13:00","2004","03","30","13:00","5.0","","-0.1","","70","","19","","9","","15.0","","99.53","","","","","","NA"
"2004-03-30 14:00","2004","03","30","14:00","4.4","","0.2","","74","","19","","6","","15.0","","99.53","","","","","","NA"
"2004-03-30 15:00","2004","03","30","15:00","3.8","","-1.3","","69","","19","","4","","15.0","","99.53","","","","","","NA"
"2004-03-30 16:00","2004","03","30","16:00","4.9","","1.4","","78","","23","","6","","15.0","","99.47","","","","","","NA"
"2004-03-30 17:00","2004","03","30","17:00","5.1","","2.1","","81","","23","","9","","15.0","","99.51","","","","","","NA"
"2004-03-30 18:00","2004","03","30","18:00","5.7","","2.5","","80","","23","","4","","15.0","","99.51","","","","","","NA"
"2004-03-30 19:00","2004","03","30","19:00","5.2","","1.9","","79","","31","","6","","15.0","","99.49","","","","","","NA"
"2004-03-30 20:00","2004","03","30","20:00","4.5","","2.0","","84","","32","","9","","15.0","","99.51","","","","","","NA"
"2004-03-30 21:00","2004","03","30","21:00","5.3","","2.0","","79","","32","","7","","15.0","","99.54","","","","","","NA"
"2004-03-30 22:00","2004","03","30","22:00","4.9","","1.6","","79","","33","","7","","15.0","","99.49","","","","","","NA"
"2004-03-30 23:00","2004","03","30","23:00","4.3","","1.7","","83","","","","0","","15.0","","99.49","","","","","","NA"
"2004-03-31 00:00","2004","03","31","00:00","5.0","","0.8","","74","","35","","9","","15.0","","99.49","","","","","","NA"
"2004-03-31 01:00","2004","03","31","01:00","5.1","","-1.0","","65","","1","","9","","15.0","","99.47","","","","","","NA"
"2004-03-31 02:00","2004","03","31","02:00","4.8","","-4.1","","52","","2","","11","","15.0","","99.49","","","","","","NA"
"2004-03-31 03:00","2004","03","31","03:00","3.5","","-5.3","","52","","1","","17","","15.0","","99.47","","","","","","NA"
"2004-03-31 04:00","2004","03","31","04:00","3.0","","-5.5","","54","","2","","17","","15.0","","99.49","","","","","","NA"
"2004-03-31 05:00","2004","03","31","05:00","2.7","","-5.8","","53","","2","","15","","15.0","","99.51","","","","","","NA"
"2004-03-31 06:00","2004","03","31","06:00","2.6","","-5.9","","53","","3","","17","","15.0","","99.49","","","","","","NA"
"2004-03-31 07:00","2004","03","31","07:00","2.0","","-5.9","","56","","2","","15","","15.0","","99.54","","","","","","NA"
"2004-03-31 08:00","2004","03","31","08:00","1.8","","-6.6","","54","","2","","13","","15.0","","99.60","","","","","","NA"
"2004-03-31 09:00","2004","03","31","09:00","2.2","","-7.2","","50","","2","","17","","15.0","","99.63","","","","","","NA"
"2004-03-31 10:00","2004","03","31","10:00","3.5","","-8.0","","43","","2","","17","","15.0","","99.65","","","","","","NA"
"2004-03-31 11:00","2004","03","31","11:00","3.8","","-8.6","","40","","1","","20","","15.0","","99.63","","","","","","NA"
"2004-03-31 12:00","2004","03","31","12:00","4.9","","-9.4","","35","","3","","20","","15.0","","99.58","","","","","","NA"
"2004-03-31 13:00","2004","03","31","13:00","4.6","","-9.6","","35","","3","","17","","15.0","","99.56","","","","","","NA"
"2004-03-31 14:00","2004","03","31","14:00","4.4","","-10.2","","34","","4","","15","","15.0","","99.53","","","","","","NA"
"2004-03-31 15:00","2004","03","31","15:00","4.4","","-10.2","","34","","4","","19","","15.0","","99.49","","","","","","NA"
"2004-03-31 16:00","2004","03","31","16:00","3.9","","-9.2","","38","","4","","19","","15.0","","99.51","","","","","","NA"
"2004-03-31 17:00","2004","03","31","17:00","4.1","","-10.1","","35","","3","","15","","15.0","","99.53","","","","","","NA"
"2004-03-31 18:00","2004","03","31","18:00","3.2","","-10.9","","35","","3","","20","","15.0","","99.54","","","","","","NA"
"2004-03-31 19:00","2004","03","31","19:00","2.7","","-11.3","","35","","4","","13","","15.0","","99.62","","","","","","NA"
"2004-03-31 20:00","2004","03","31","20:00","2.3","","-11.7","","35","","4","","15","","15.0","","99.67","","","","","","NA"
"2004-03-31 21:00","2004","03","31","21:00","2.0","","-11.9","","35","","4","","19","","15.0","","99.67","","","","","","NA"
"2004-03-31 22:00","2004","03","31","22:00","1.6","","-11.6","","37","","4","","13","","15.0","","99.65","","","","","","NA"
"2004-03-31 23:00","2004","03","31","23:00","1.2","","-11.6","","38","","4","","17","","15.0","","99.65","","","","","","NA"
