"Station Name","KILLARNEY (AUT)"
"Province","ONTARIO"
"Latitude","45.97"
"Longitude","-81.48"
"Elevation","196.30"
"Climate Identifier","605DJ25"
"WMO Identifier","71460"
"TC Identifier","WBE"
"All times are specified in Local Standard Time (LST). Add 1 hour to adjust for Daylight Saving Time where and when it is observed."

"Legend"
"E","Estimated"
"M","Missing"
"NA","Not Available"

"Date/Time","Year","Month","Day","Time","Temp (°C)","Temp Flag","Dew Point Temp (°C)","Dew Point Temp Flag","Rel Hum (%)","Rel Hum Flag","Wind Dir (10s deg)","Wind Dir Flag","Wind Spd (km/h)","Wind Spd Flag","Visibility (km)","Visibility Flag","Stn Press (kPa)","Stn Press Flag","Hmdx","Hmdx Flag","Wind Chill","Wind Chill Flag","Weather"
"2015-01-01 00:00","2015","01","01","00:00","-7.2","","-11.0","","74","","28","","37","","","","98.35","","","","-17","","NA"
"2015-01-01 01:00","2015","01","01","01:00","-6.6","","-11.0","","71","","27","","45","","","","98.30","","","","-17","","NA"
"2015-01-01 02:00","2015","01","01","02:00","-6.5","","-10.2","","75","","27","","31","","","","98.29","","","","-15","","NA"
"2015-01-01 03:00","2015","01","01","03:00","-6.6","","-10.2","","76","","27","","36","","","","98.28","","","","-16","","NA"
"2015-01-01 04:00","2015","01","01","04:00","-5.7","","-9.8","","73","","27","","37","","","","98.21","","","","-15","","NA"
"2015-01-01 05:00","2015","01","01","05:00","-5.4","","-9.7","","71","","26","","32","","","","98.15","","","","-14","","NA"
"2015-01-01 06:00","2015","01","01","06:00","-5.3","","-9.3","","74","","27","","34","","","","98.12","","","","-14","","NA"
"2015-01-01 07:00","2015","01","01","07:00","-5.2","","-10.0","","69","","27","","35","","","","98.09","","","","-14","","NA"
"2015-01-01 08:00","2015","01","01","08:00","-5.0","","-8.7","","75","","27","","30","","","","98.08","","","","-13","","NA"
"2015-01-01 09:00","2015","01","01","09:00","-4.7","","-6.4","","88","","27","","24","","","","98.04","","","","-12","","NA"
"2015-01-01 10:00","2015","01","01","10:00","-4.6","","-6.4","","87","","26","","32","","","","98.03","","","","-13","","NA"
"2015-01-01 11:00","2015","01","01","11:00","-4.6","","-6.3","","88","","25","","28","","","","98.03","","","","-12","","NA"
"2015-01-01 12:00","2015","01","01","12:00","-4.3","","-6.4","","85","","25","","29","","","","97.92","","","","-12","","NA"
"2015-01-01 13:00","2015","01","01","13:00","-4.1","","-6.7","","82","","26","","35","","","","97.80","","","","-12","","NA"
"2015-01-01 14:00","2015","01","01","14:00","-4.6","","-6.1","","89","","28","","33","","","","97.82","","","","-13","","NA"
"2015-01-01 15:00","2015","01","01","15:00","-3.1","","-7.6","","71","","27","","36","","","","97.86","","","","-11","","NA"
"2015-01-01 16:00","2015","01","01","16:00","-3.0","","-8.3","","67","","27","","34","","","","97.92","","","","-11","","NA"
"2015-01-01 17:00","2015","01","01","17:00","-3.3","","-7.8","","71","","27","","34","","","","98.02","","","","-11","","NA"
"2015-01-01 18:00","2015","01","01","18:00","-3.4","","-9.3","","63","","29","","34","","","","98.13","","","","-11","","NA"
"2015-01-01 19:00","2015","01","01","19:00","-4.2","","-11.9","","55","","29","","34","","","","98.30","","","","-12","","NA"
"2015-01-01 20:00","2015","01","01","20:00","-5.0","","-11.7","","59","","30","","22","","","","98.45","","","","-12","","NA"
"2015-01-01 21:00","2015","01","01","21:00","-5.8","","-14.0","","53","","30","","27","","","","98.53","","","","-14","","NA"
"2015-01-01 22:00","2015","01","01","22:00","-6.4","","-13.6","","56","","30","","27","","","","98.66","","","","-14","","NA"
"2015-01-01 23:00","2015","01","01","23:00","-7.5","","-13.2","","64","","32","","19","","","","98.81","","","","-15","","NA"
"2015-01-02 00:00","2015","01","02","00:00","-9.0","","-15.6","","59","","33","","15","","","","98.97","","","","-16","","NA"
"2015-01-02 01:00","2015","01","02","01:00","-10.0","","-16.3","","60","","34","","9","","","","99.03","","","","-15","","NA"
"2015-01-02 02:00","2015","01","02","02:00","-10.6","","-16.9","","60","","31","","12","","","","99.13","","","","-17","","NA"
"2015-01-02 03:00","2015","01","02","03:00","-11.6","","-17.0","","64","","33","","12","","","","99.30","","","","-18","","NA"
"2015-01-02 04:00","2015","01","02","04:00","-12.2","","-17.5","","65","","31","","9","","","","99.35","","","","-17","","NA"
"2015-01-02 05:00","2015","01","02","05:00","-12.9","","-19.1","","60","","32","","10","","","","99.41","","","","-19","","NA"
"2015-01-02 06:00","2015","01","02","06:00","-13.6","","-19.9","","59","","32","","11","","","","99.57","","","","-20","","NA"
"2015-01-02 07:00","2015","01","02","07:00","-13.8","","-19.5","","62","","31","","5","","","","99.68","","","","-17","","NA"
"2015-01-02 08:00","2015","01","02","08:00","-14.6","","-21.0","","58","","31","","10","","","","99.75","","","","-21","","NA"
"2015-01-02 09:00","2015","01","02","09:00","-14.6","","-23.7","","46","","32","","10","","","","99.88","","","","-21","","NA"
"2015-01-02 10:00","2015","01","02","10:00","-14.4","","-24.1","","44","","33","","16","","","","99.91","","","","-22","","NA"
"2015-01-02 11:00","2015","01","02","11:00","-13.3","","-22.2","","47","","32","","10","","","","99.98","","","","-19","","NA"
"2015-01-02 12:00","2015","01","02","12:00","-12.1","","-20.6","","49","","27","","2","","","","99.99","","","","-13","","NA"
"2015-01-02 13:00","2015","01","02","13:00","-11.7","","-19.1","","54","","27","","8","","","","100.01","","","","-16","","NA"
"2015-01-02 14:00","2015","01","02","14:00","-10.8","","-18.3","","54","","29","","5","","","","100.04","","","","-14","","NA"
"2015-01-02 15:00","2015","01","02","15:00","-10.6","","-16.7","","61","","29","","8","","","","100.10","","","","-15","","NA"
"2015-01-02 16:00","2015","01","02","16:00","-10.2","","-16.6","","59","","32","","4","","","","100.12","","","","-13","","NA"
"2015-01-02 17:00","2015","01","02","17:00","-10.8","","-16.8","","61","","2","","6","","","","100.19","","","","-14","","NA"
"2015-01-02 18:00","2015","01","02","18:00","-10.8","","-16.4","","63","","3","","7","","","","100.24","","","","-15","","NA"
"2015-01-02 19:00","2015","01","02","19:00","-10.9","","-16.4","","64","","4","","9","","","","100.30","","","","-16","","NA"
"2015-01-02 20:00","2015","01","02","20:00","-11.1","","-15.6","","69","","5","","9","","","","100.37","","","","-16","","NA"
"2015-01-02 21:00","2015","01","02","21:00","-11.1","","-16.3","","65","","5","","10","","","","100.35","","","","-17","","NA"
"2015-01-02 22:00","2015","01","02","22:00","-11.5","","-16.4","","67","","4","","7","","","","100.41","","","","-16","","NA"
"2015-01-02 23:00","2015","01","02","23:00","-10.8","","-15.6","","68","","5","","10","","","","100.43","","","","-16","","NA"
"2015-01-03 00:00","2015","01","03","00:00","-9.4","","-12.6","","77","","6","","11","","","","100.41","","","","-15","","NA"
"2015-01-03 01:00","2015","01","03","01:00","-9.7","","-12.2","","82","","5","","11","","","","100.33","","","","-15","","NA"
"2015-01-03 02:00","2015","01","03","02:00","-9.4","","-11.1","","87","","6","","14","","","","100.31","","","","-16","","NA"
"2015-01-03 03:00","2015","01","03","03:00","-8.5","","-10.5","","85","","6","","19","","","","100.39","","","","-16","","NA"
"2015-01-03 04:00","2015","01","03","04:00","-6.7","","-8.3","","88","","7","","20","","","","100.26","","","","-14","","NA"
"2015-01-03 05:00","2015","01","03","05:00","-3.0","","-4.8","","87","","12","","38","","","","100.12","","","","-11","","NA"
"2015-01-03 06:00","2015","01","03","06:00","-1.2","","-6.6","","67","","16","","29","","","","100.16","","","","-8","","NA"
"2015-01-03 07:00","2015","01","03","07:00","-1.2","","-6.8","","66","","15","","37","","","","100.06","","","","-9","","NA"
"2015-01-03 08:00","2015","01","03","08:00","-0.3","","-4.8","","72","","17","","39","","","","100.12","","","","-8","","NA"
"2015-01-03 09:00","2015","01","03","09:00","-1.5","","-3.8","","84","","17","","33","","","","100.11","","","","-9","","NA"
"2015-01-03 10:00","2015","01","03","10:00","-1.5","","-2.7","","92","","16","","40","","","","99.87","","","","-9","","NA"
"2015-01-03 11:00","2015","01","03","11:00","-1.0","","-2.3","","91","","15","","36","","","","99.83","","","","-8","","NA"
"2015-01-03 12:00","2015","01","03","12:00","-0.9","","-2.2","","91","","15","","51","","","","99.76","","","","-9","","NA"
"2015-01-03 13:00","2015","01","03","13:00","-1.2","","-3.3","","86","","14","","44","","","","99.65","","","","-9","","NA"
"2015-01-03 14:00","2015","01","03","14:00","-1.0","","-2.9","","87","","13","","43","","","","99.47","","","","-9","","NA"
"2015-01-03 15:00","2015","01","03","15:00","-1.2","","-3.1","","87","","13","","46","","","","99.31","","","","-9","","NA"
"2015-01-03 16:00","2015","01","03","16:00","-1.8","","-3.8","","86","","12","","45","","","","99.32","","","","-10","","NA"
"2015-01-03 17:00","2015","01","03","17:00","-3.4","","-4.7","","91","","9","","33","","","","99.18","","","","-11","","NA"
"2015-01-03 18:00","2015","01","03","18:00","-3.1","","-4.7","","89","","9","","31","","","","99.11","","","","-11","","NA"
"2015-01-03 19:00","2015","01","03","19:00","-3.4","","-5.3","","87","","9","","27","","","","99.09","","","","-11","","NA"
"2015-01-03 20:00","2015","01","03","20:00","-3.7","","-5.5","","87","","8","","26","","","","99.00","","","","-11","","NA"
"2015-01-03 21:00","2015","01","03","21:00","-4.1","","-5.5","","90","","7","","19","","","","98.94","","","","-10","","NA"
"2015-01-03 22:00","2015","01","03","22:00","-4.8","","-6.7","","87","","6","","15","","","","98.84","","","","-10","","NA"
"2015-01-03 23:00","2015","01","03","23:00","-5.3","","-7.4","","85","","5","","13","","","","98.83","","","","-10","","NA"
"2015-01-04 00:00","2015","01","04","00:00","-5.6","","-7.8","","85","","6","","14","","","","98.77","","","","-11","","NA"
"2015-01-04 01:00","2015","01","04","01:00","-6.2","","-8.5","","84","","5","","15","","","","98.67","","","","-12","","NA"
"2015-01-04 02:00","2015","01","04","02:00","-6.2","","-8.4","","85","","6","","14","","","","98.54","","","","-12","","NA"
"2015-01-04 03:00","2015","01","04","03:00","-6.4","","-8.2","","87","","6","","8","","","","98.53","","","","-10","","NA"
"2015-01-04 04:00","2015","01","04","04:00","-7.1","","-8.5","","90","","3","","6","","","","98.50","","","","-10","","NA"
"2015-01-04 05:00","2015","01","04","05:00","-7.5","","-8.8","","91","","3","","8","","","","98.40","","","","-12","","NA"
"2015-01-04 06:00","2015","01","04","06:00","-7.7","","-9.1","","89","","4","","9","","","","98.24","","","","-12","","NA"
"2015-01-04 07:00","2015","01","04","07:00","-7.6","","-9.2","","88","","5","","10","","","","98.12","","","","-12","","NA"
"2015-01-04 08:00","2015","01","04","08:00","-7.4","","-9.4","","86","","3","","11","","","","98.13","","","","-12","","NA"
"2015-01-04 09:00","2015","01","04","09:00","-7.1","","-9.2","","85","","1","","8","","","","98.10","","","","-11","","NA"
"2015-01-04 10:00","2015","01","04","10:00","-7.3","","-9.2","","86","","2","","11","","","","97.96","","","","-12","","NA"
"2015-01-04 11:00","2015","01","04","11:00","-7.4","","-9.2","","87","","1","","11","","","","98.04","","","","-12","","NA"
"2015-01-04 12:00","2015","01","04","12:00","-7.1","","-8.8","","87","","34","","11","","","","98.03","","","","-12","","NA"
"2015-01-04 13:00","2015","01","04","13:00","-6.4","","-8.7","","83","","36","","14","","","","97.91","","","","-12","","NA"
"2015-01-04 14:00","2015","01","04","14:00","-6.7","","-10.2","","76","","36","","16","","","","97.96","","","","-13","","NA"
"2015-01-04 15:00","2015","01","04","15:00","-7.0","","-10.7","","75","","34","","13","","","","98.12","","","","-13","","NA"
"2015-01-04 16:00","2015","01","04","16:00","-9.4","","-12.3","","79","","34","","14","","","","98.22","","","","-16","","NA"
"2015-01-04 17:00","2015","01","04","17:00","-10.8","","-14.3","","76","","36","","14","","","","98.31","","","","-17","","NA"
"2015-01-04 18:00","2015","01","04","18:00","-12.1","","-15.3","","77","","33","","17","","","","98.48","","","","-20","","NA"
"2015-01-04 19:00","2015","01","04","19:00","-13.6","","-16.5","","79","","34","","17","","","","98.67","","","","-22","","NA"
"2015-01-04 20:00","2015","01","04","20:00","-14.2","","-17.2","","78","","34","","14","","","","98.78","","","","-22","","NA"
"2015-01-04 21:00","2015","01","04","21:00","-15.2","","-18.1","","78","","32","","15","","","","98.87","","","","-23","","NA"
"2015-01-04 22:00","2015","01","04","22:00","-16.4","","-19.7","","76","","32","","20","","","","98.97","","","","-26","","NA"
"2015-01-04 23:00","2015","01","04","23:00","-17.2","","-20.8","","74","","32","","20","","","","99.07","","","","-27","","NA"
"2015-01-05 00:00","2015","01","05","00:00","-18.0","","-21.5","","74","","33","","18","","","","99.16","","","","-27","","NA"
"2015-01-05 01:00","2015","01","05","01:00","-18.5","","-22.8","","69","","32","","17","","","","99.29","","","","-28","","NA"
"2015-01-05 02:00","2015","01","05","02:00","-18.7","","-22.3","","73","","31","","16","","","","99.37","","","","-28","","NA"
"2015-01-05 03:00","2015","01","05","03:00","-19.7","","-24.2","","68","","31","","16","","","","99.54","","","","-29","","NA"
"2015-01-05 04:00","2015","01","05","04:00","-20.5","","-24.9","","68","","32","","17","","","","99.64","","","","-30","","NA"
"2015-01-05 05:00","2015","01","05","05:00","-20.9","","-24.7","","72","","31","","16","","","","99.70","","","","-31","","NA"
"2015-01-05 06:00","2015","01","05","06:00","-21.5","","-25.3","","71","","31","","16","","","","99.82","","","","-31","","NA"
"2015-01-05 07:00","2015","01","05","07:00","-22.5","","-26.9","","67","","32","","14","","","","99.93","","","","-32","","NA"
"2015-01-05 08:00","2015","01","05","08:00","-23.0","","-26.9","","71","","32","","10","","","","100.06","","","","-31","","NA"
"2015-01-05 09:00","2015","01","05","09:00","-23.1","","-27.8","","65","","33","","8","","","","100.10","","","","-30","","NA"
"2015-01-05 10:00","2015","01","05","10:00","-22.5","","-27.9","","62","","31","","12","","","","100.19","","","","-31","","NA"
"2015-01-05 11:00","2015","01","05","11:00","-21.2","","-27.9","","55","","32","","13","","","","100.15","","","","-30","","NA"
"2015-01-05 12:00","2015","01","05","12:00","-18.7","","-25.5","","55","","32","","12","","","","100.10","","","","-26","","NA"
"2015-01-05 13:00","2015","01","05","13:00","-17.9","","-24.8","","55","","33","","17","","","","100.02","","","","-27","","NA"
"2015-01-05 14:00","2015","01","05","14:00","-16.1","","-21.3","","64","","28","","24","","","","100.03","","","","-26","","NA"
"2015-01-05 15:00","2015","01","05","15:00","-15.4","","-20.3","","66","","28","","20","","","","100.05","","","","-25","","NA"
"2015-01-05 16:00","2015","01","05","16:00","-15.1","","-18.4","","76","","30","","13","","","","100.08","","","","-22","","NA"
"2015-01-05 17:00","2015","01","05","17:00","-14.9","","-17.0","","84","","30","","12","","","","100.09","","","","-22","","NA"
"2015-01-05 18:00","2015","01","05","18:00","-13.8","","-16.4","","81","","29","","12","","","","100.11","","","","-21","","NA"
"2015-01-05 19:00","2015","01","05","19:00","-13.3","","-15.7","","82","","29","","13","","","","100.09","","","","-20","","NA"
"2015-01-05 20:00","2015","01","05","20:00","-13.2","","-15.4","","83","","29","","13","","","","100.03","","","","-20","","NA"
"2015-01-05 21:00","2015","01","05","21:00","-13.1","","-15.3","","83","","32","","11","","","","100.04","","","","-19","","NA"
"2015-01-05 22:00","2015","01","05","22:00","-13.2","","-15.6","","82","","31","","9","","","","100.04","","","","-19","","NA"
"2015-01-05 23:00","2015","01","05","23:00","-13.9","","-15.9","","85","","30","","6","","","","99.99","","","","-18","","NA"
"2015-01-06 00:00","2015","01","06","00:00","-13.7","","-16.0","","83","","31","","9","","","","99.97","","","","-19","","NA"
"2015-01-06 01:00","2015","01","06","01:00","-14.0","","-16.0","","85","","32","","9","","","","99.93","","","","-20","","NA"
"2015-01-06 02:00","2015","01","06","02:00","-14.0","","-15.8","","86","","29","","8","","","","99.87","","","","-19","","NA"
"2015-01-06 03:00","2015","01","06","03:00","-14.2","","-16.5","","83","","30","","9","","","","99.87","","","","-20","","NA"
"2015-01-06 04:00","2015","01","06","04:00","-13.8","","-16.1","","83","","31","","11","","","","99.74","","","","-20","","NA"
"2015-01-06 05:00","2015","01","06","05:00","-13.9","","-16.4","","82","","32","","12","","","","99.66","","","","-21","","NA"
"2015-01-06 06:00","2015","01","06","06:00","-13.9","","-16.1","","84","","31","","7","","","","99.59","","","","-19","","NA"
"2015-01-06 07:00","2015","01","06","07:00","-13.3","","-15.7","","82","","30","","8","","","","99.53","","","","-18","","NA"
"2015-01-06 08:00","2015","01","06","08:00","-13.6","","-15.8","","83","","31","","5","","","","99.49","","","","-17","","NA"
"2015-01-06 09:00","2015","01","06","09:00","-12.5","","-14.7","","84","","29","","10","","","","99.42","","","","-18","","NA"
"2015-01-06 10:00","2015","01","06","10:00","-12.2","","-14.5","","83","","31","","9","","","","99.32","","","","-17","","NA"
"2015-01-06 11:00","2015","01","06","11:00","-10.7","","-13.5","","80","","29","","7","","","","99.19","","","","-15","","NA"
"2015-01-06 12:00","2015","01","06","12:00","-8.8","","-13.1","","71","","27","","22","","","","99.06","","","","-17","","NA"
"2015-01-06 13:00","2015","01","06","13:00","-8.3","","-12.8","","70","","25","","24","","","","98.94","","","","-16","","NA"
"2015-01-06 14:00","2015","01","06","14:00","-8.0","","-11.6","","76","","27","","24","","","","98.86","","","","-16","","NA"
"2015-01-06 15:00","2015","01","06","15:00","-7.9","","-11.4","","76","","27","","26","","","","98.79","","","","-16","","NA"
"2015-01-06 16:00","2015","01","06","16:00","-8.1","","-11.7","","75","","27","","24","","","","98.74","","","","-16","","NA"
"2015-01-06 17:00","2015","01","06","17:00","-8.1","","-11.4","","77","","27","","17","","","","98.65","","","","-15","","NA"
"2015-01-06 18:00","2015","01","06","18:00","-8.5","","-11.3","","80","","29","","16","","","","98.60","","","","-15","","NA"
"2015-01-06 19:00","2015","01","06","19:00","-9.3","","-11.0","","87","","29","","24","","","","98.56","","","","-18","","NA"
"2015-01-06 20:00","2015","01","06","20:00","-9.8","","-12.8","","78","","31","","17","","","","98.56","","","","-17","","NA"
"2015-01-06 21:00","2015","01","06","21:00","-10.6","","-14.7","","72","","33","","18","","","","98.60","","","","-18","","NA"
"2015-01-06 22:00","2015","01","06","22:00","-12.7","","-17.9","","65","","34","","17","","","","98.68","","","","-21","","NA"
"2015-01-06 23:00","2015","01","06","23:00","-14.6","","-20.1","","63","","36","","20","","","","98.79","","","","-24","","NA"
"2015-01-07 00:00","2015","01","07","00:00","-16.1","","-21.2","","65","","1","","21","","","","98.85","","","","-26","","NA"
"2015-01-07 01:00","2015","01","07","01:00","-17.9","","-24.0","","59","","1","","18","","","","98.99","","","","-27","","NA"
"2015-01-07 02:00","2015","01","07","02:00","-18.5","","-23.9","","62","","36","","13","","","","99.13","","","","-27","","NA"
"2015-01-07 03:00","2015","01","07","03:00","-19.1","","-24.7","","61","","34","","15","","","","99.32","","","","-28","","NA"
"2015-01-07 04:00","2015","01","07","04:00","-20.5","","-27.8","","52","","1","","19","","","","99.47","","","","-31","","NA"
"2015-01-07 05:00","2015","01","07","05:00","-21.2","","-26.2","","64","","35","","14","","","","99.59","","","","-30","","NA"
"2015-01-07 06:00","2015","01","07","06:00","-22.8","","-29.9","","53","","35","","23","","","","99.74","","","","-35","","NA"
"2015-01-07 07:00","2015","01","07","07:00","-24.1","","-31.4","","51","","35","","23","","","","99.91","","","","-36","","NA"
"2015-01-07 08:00","2015","01","07","08:00","-24.9","","-32.2","","51","","36","","19","","","","100.07","","","","-36","","NA"
"2015-01-07 09:00","2015","01","07","09:00","-25.3","","-32.2","","52","","34","","24","","","","100.20","","","","-38","","NA"
"2015-01-07 10:00","2015","01","07","10:00","-25.3","","-31.9","","54","","34","","20","","","","100.30","","","","-37","","NA"
"2015-01-07 11:00","2015","01","07","11:00","-24.5","","-31.0","","55","","34","","18","","","","100.36","","","","-36","","NA"
"2015-01-07 12:00","2015","01","07","12:00","-24.4","","-31.5","","52","","33","","19","","","","100.37","","","","-36","","NA"
"2015-01-07 13:00","2015","01","07","13:00","-23.3","","-30.8","","50","","33","","19","","","","100.39","","","","-34","","NA"
"2015-01-07 14:00","2015","01","07","14:00","-22.4","","-30.4","","48","","31","","17","","","","100.34","","","","-33","","NA"
"2015-01-07 15:00","2015","01","07","15:00","-21.6","","-28.7","","53","","30","","22","","","","100.38","","","","-33","","NA"
"2015-01-07 16:00","2015","01","07","16:00","-21.3","","-27.9","","55","","30","","20","","","","100.37","","","","-32","","NA"
"2015-01-07 17:00","2015","01","07","17:00","-21.3","","-27.3","","58","","29","","19","","","","100.39","","","","-32","","NA"
"2015-01-07 18:00","2015","01","07","18:00","-21.4","","-27.4","","58","","30","","13","","","","100.37","","","","-30","","NA"
"2015-01-07 19:00","2015","01","07","19:00","-21.1","","-26.8","","60","","29","","12","","","","100.32","","","","-29","","NA"
"2015-01-07 20:00","2015","01","07","20:00","-20.1","","-24.7","","67","","29","","14","","","","100.23","","","","-29","","NA"
"2015-01-07 21:00","2015","01","07","21:00","-21.2","","-26.2","","64","","33","","8","","","","100.07","","","","-28","","NA"
"2015-01-07 22:00","2015","01","07","22:00","-20.2","","-23.7","","74","","34","","9","","","","99.92","","","","-27","","NA"
"2015-01-07 23:00","2015","01","07","23:00","-18.4","","-20.8","","82","","31","","9","","","","99.81","","","","-25","","NA"
"2015-01-08 00:00","2015","01","08","00:00","-16.5","","-18.7","","83","","30","","15","","","","99.69","","","","-25","","NA"
"2015-01-08 01:00","2015","01","08","01:00","-15.1","","-17.2","","84","","29","","16","","","","99.61","","","","-23","","NA"
"2015-01-08 02:00","2015","01","08","02:00","-13.7","","-15.8","","84","","29","","16","","","","99.55","","","","-22","","NA"
"2015-01-08 03:00","2015","01","08","03:00","-12.4","","-14.8","","82","","30","","21","","","","99.52","","","","-21","","NA"
"2015-01-08 04:00","2015","01","08","04:00","-12.0","","-14.5","","82","","29","","20","","","","99.44","","","","-20","","NA"
"2015-01-08 05:00","2015","01","08","05:00","-11.6","","-13.9","","83","","29","","20","","","","99.38","","","","-20","","NA"
"2015-01-08 06:00","2015","01","08","06:00","-11.0","","-12.9","","85","","28","","15","","","","99.30","","","","-18","","NA"
"2015-01-08 07:00","2015","01","08","07:00","-10.7","","-12.5","","87","","28","","13","","","","99.25","","","","-17","","NA"
"2015-01-08 08:00","2015","01","08","08:00","-8.0","","-10.2","","84","","27","","27","","","","99.19","","","","-16","","NA"
"2015-01-08 09:00","2015","01","08","09:00","-8.5","","-12.2","","74","","26","","32","","","","99.18","","","","-18","","NA"
"2015-01-08 10:00","2015","01","08","10:00","-8.7","","-11.1","","83","","25","","31","","","","99.07","","","","-18","","NA"
"2015-01-08 11:00","2015","01","08","11:00","-8.6","","-11.2","","81","","26","","34","","","","99.01","","","","-18","","NA"
"2015-01-08 12:00","2015","01","08","12:00","-8.6","","-10.9","","83","","24","","35","","","","98.87","","","","-18","","NA"
"2015-01-08 13:00","2015","01","08","13:00","-8.3","","-11.2","","80","","25","","39","","","","98.74","","","","-18","","NA"
"2015-01-08 14:00","2015","01","08","14:00","-8.3","","-11.1","","80","","25","","33","","","","98.64","","","","-18","","NA"
"2015-01-08 15:00","2015","01","08","15:00","-8.3","","-11.5","","77","","25","","33","","","","98.58","","","","-18","","NA"
"2015-01-08 16:00","2015","01","08","16:00","-8.2","","-11.9","","75","","24","","33","","","","98.48","","","","-18","","NA"
"2015-01-08 17:00","2015","01","08","17:00","-8.1","","-11.4","","77","","24","","38","","","","98.38","","","","-18","","NA"
"2015-01-08 18:00","2015","01","08","18:00","-8.1","","-10.7","","82","","24","","29","","","","98.25","","","","-17","","NA"
"2015-01-08 19:00","2015","01","08","19:00","-8.1","","-10.5","","83","","24","","20","","","","98.13","","","","-15","","NA"
"2015-01-08 20:00","2015","01","08","20:00","-7.4","","-9.3","","87","","24","","33","","","","97.99","","","","-17","","NA"
"2015-01-08 21:00","2015","01","08","21:00","-8.1","","-10.5","","83","","24","","42","","","","97.87","","","","-18","","NA"
"2015-01-08 22:00","2015","01","08","22:00","-8.5","","-10.7","","84","","25","","28","","","","97.75","","","","-17","","NA"
"2015-01-08 23:00","2015","01","08","23:00","-9.8","","-11.9","","84","","28","","28","","","","97.68","","","","-19","","NA"
"2015-01-09 00:00","2015","01","09","00:00","-10.0","","-12.2","","84","","28","","27","","","","97.59","","","","-19","","NA"
"2015-01-09 01:00","2015","01","09","01:00","-10.3","","-12.7","","83","","28","","21","","","","97.54","","","","-18","","NA"
"2015-01-09 02:00","2015","01","09","02:00","-10.2","","-12.8","","81","","28","","25","","","","97.56","","","","-19","","NA"
"2015-01-09 03:00","2015","01","09","03:00","-10.4","","-12.7","","83","","28","","29","","","","97.63","","","","-20","","NA"
"2015-01-09 04:00","2015","01","09","04:00","-11.3","","-14.5","","77","","30","","17","","","","97.69","","","","-19","","NA"
"2015-01-09 05:00","2015","01","09","05:00","-12.3","","-16.1","","74","","31","","15","","","","97.76","","","","-20","","NA"
"2015-01-09 06:00","2015","01","09","06:00","-12.9","","-16.4","","75","","31","","15","","","","97.85","","","","-20","","NA"
"2015-01-09 07:00","2015","01","09","07:00","-13.8","","-17.4","","74","","30","","15","","","","97.95","","","","-21","","NA"
"2015-01-09 08:00","2015","01","09","08:00","-13.6","","-16.3","","80","","30","","18","","","","98.12","","","","-22","","NA"
"2015-01-09 09:00","2015","01","09","09:00","-14.2","","-17.3","","77","","32","","18","","","","98.33","","","","-23","","NA"
"2015-01-09 10:00","2015","01","09","10:00","-14.6","","-20.4","","61","","32","","22","","","","98.56","","","","-24","","NA"
"2015-01-09 11:00","2015","01","09","11:00","-14.5","","-20.8","","59","","32","","17","","","","98.69","","","","-23","","NA"
"2015-01-09 12:00","2015","01","09","12:00","-14.4","","-20.3","","61","","30","","20","","","","98.76","","","","-23","","NA"
"2015-01-09 13:00","2015","01","09","13:00","-14.1","","-21.8","","52","","30","","17","","","","98.72","","","","-22","","NA"
"2015-01-09 14:00","2015","01","09","14:00","-13.5","","-20.9","","53","","29","","16","","","","98.76","","","","-21","","NA"
"2015-01-09 15:00","2015","01","09","15:00","-13.7","","-18.7","","66","","26","","16","","","","98.82","","","","-22","","NA"
"2015-01-09 16:00","2015","01","09","16:00","-13.5","","-19.7","","60","","29","","14","","","","98.88","","","","-21","","NA"
"2015-01-09 17:00","2015","01","09","17:00","-14.1","","-19.0","","66","","27","","13","","","","98.93","","","","-21","","NA"
"2015-01-09 18:00","2015","01","09","18:00","-14.2","","-17.0","","79","","30","","12","","","","99.00","","","","-21","","NA"
"2015-01-09 19:00","2015","01","09","19:00","-15.0","","-18.1","","77","","30","","10","","","","99.04","","","","-21","","NA"
"2015-01-09 20:00","2015","01","09","20:00","-15.2","","-17.6","","82","","29","","10","","","","99.08","","","","-21","","NA"
"2015-01-09 21:00","2015","01","09","21:00","-13.3","","-18.6","","64","","29","","19","","","","99.11","","","","-22","","NA"
"2015-01-09 22:00","2015","01","09","22:00","-12.9","","-19.0","","60","","29","","29","","","","99.12","","","","-23","","NA"
"2015-01-09 23:00","2015","01","09","23:00","-12.7","","-16.8","","72","","29","","25","","","","99.17","","","","-22","","NA"
"2015-01-10 00:00","2015","01","10","00:00","-12.7","","-16.8","","72","","28","","35","","","","99.18","","","","-24","","NA"
"2015-01-10 01:00","2015","01","10","01:00","-13.8","","-17.9","","71","","31","","24","","","","99.24","","","","-23","","NA"
"2015-01-10 02:00","2015","01","10","02:00","-14.8","","-19.9","","65","","33","","13","","","","99.31","","","","-22","","NA"
"2015-01-10 03:00","2015","01","10","03:00","-16.1","","-21.2","","65","","31","","15","","","","99.43","","","","-24","","NA"
"2015-01-10 04:00","2015","01","10","04:00","-16.8","","-20.6","","72","","31","","11","","","","99.46","","","","-24","","NA"
"2015-01-10 05:00","2015","01","10","05:00","-17.2","","-20.5","","75","","30","","8","","","","99.51","","","","-23","","NA"
"2015-01-10 06:00","2015","01","10","06:00","-18.2","","-20.9","","79","","30","","7","","","","99.50","","","","-24","","NA"
"2015-01-10 07:00","2015","01","10","07:00","-18.5","","-21.4","","78","","31","","7","","","","99.57","","","","-24","","NA"
"2015-01-10 08:00","2015","01","10","08:00","-18.2","","-21.1","","78","","30","","7","","","","99.62","","","","-24","","NA"
"2015-01-10 09:00","2015","01","10","09:00","-17.9","","-20.5","","80","","33","","9","","","","99.66","","","","-24","","NA"
"2015-01-10 10:00","2015","01","10","10:00","-15.7","","-18.1","","82","","33","","5","","","","99.67","","","","-19","","NA"
"2015-01-10 11:00","2015","01","10","11:00","-12.5","","-14.3","","86","","27","","9","","","","99.63","","","","-18","","NA"
"2015-01-10 12:00","2015","01","10","12:00","-10.4","","-12.8","","83","","29","","10","","","","99.54","","","","-16","","NA"
"2015-01-10 13:00","2015","01","10","13:00","-9.2","","-12.3","","78","","25","","27","","","","99.49","","","","-18","","NA"
"2015-01-10 14:00","2015","01","10","14:00","-9.0","","-12.0","","79","","24","","37","","","","99.43","","","","-19","","NA"
"2015-01-10 15:00","2015","01","10","15:00","-8.6","","-12.0","","76","","25","","29","","","","99.40","","","","-18","","NA"
"2015-01-10 16:00","2015","01","10","16:00","-8.3","","-10.8","","82","","26","","30","","","","99.47","","","","-17","","NA"
"2015-01-10 17:00","2015","01","10","17:00","-8.8","","-11.1","","83","","28","","27","","","","99.55","","","","-18","","NA"
"2015-01-10 18:00","2015","01","10","18:00","-8.9","","-12.2","","77","","27","","21","","","","99.63","","","","-17","","NA"
"2015-01-10 19:00","2015","01","10","19:00","-8.7","","-12.7","","73","","28","","22","","","","99.69","","","","-17","","NA"
"2015-01-10 20:00","2015","01","10","20:00","-10.4","","-13.9","","75","","30","","14","","","","99.77","","","","-17","","NA"
"2015-01-10 21:00","2015","01","10","21:00","-8.5","","-12.0","","76","","27","","13","","","","99.81","","","","-14","","NA"
"2015-01-10 22:00","2015","01","10","22:00","-7.1","","-11.5","","71","","26","","18","","","","99.86","","","","-14","","NA"
"2015-01-10 23:00","2015","01","10","23:00","-6.5","","-11.7","","66","","26","","26","","","","99.91","","","","-14","","NA"
"2015-01-11 00:00","2015","01","11","00:00","-6.7","","-12.1","","65","","25","","23","","","","99.93","","","","-14","","NA"
"2015-01-11 01:00","2015","01","11","01:00","-6.6","","-11.3","","69","","25","","21","","","","99.92","","","","-14","","NA"
"2015-01-11 02:00","2015","01","11","02:00","-6.4","","-10.7","","72","","24","","17","","","","99.91","","","","-13","","NA"
"2015-01-11 03:00","2015","01","11","03:00","-5.7","","-9.1","","77","","25","","16","","","","99.89","","","","-12","","NA"
"2015-01-11 04:00","2015","01","11","04:00","-5.1","","-8.0","","80","","24","","16","","","","99.84","","","","-11","","NA"
"2015-01-11 05:00","2015","01","11","05:00","-4.0","","-6.5","","83","","23","","34","","","","99.78","","","","-12","","NA"
"2015-01-11 06:00","2015","01","11","06:00","-4.1","","-7.1","","80","","24","","20","","","","99.76","","","","-10","","NA"
"2015-01-11 07:00","2015","01","11","07:00","-4.2","","-7.0","","81","","25","","20","","","","99.79","","","","-11","","NA"
"2015-01-11 08:00","2015","01","11","08:00","-4.0","","-7.2","","78","","24","","26","","","","99.80","","","","-11","","NA"
"2015-01-11 09:00","2015","01","11","09:00","-4.2","","-7.0","","81","","25","","17","","","","99.87","","","","-10","","NA"
"2015-01-11 10:00","2015","01","11","10:00","-4.3","","-6.3","","86","","25","","16","","","","99.87","","","","-10","","NA"
"2015-01-11 11:00","2015","01","11","11:00","-4.2","","-6.5","","84","","27","","16","","","","99.91","","","","-10","","NA"
"2015-01-11 12:00","2015","01","11","12:00","-4.7","","-7.2","","82","","28","","15","","","","99.85","","","","-10","","NA"
"2015-01-11 13:00","2015","01","11","13:00","-4.3","","-7.1","","81","","28","","13","","","","99.78","","","","-9","","NA"
"2015-01-11 14:00","2015","01","11","14:00","-4.8","","-7.5","","81","","30","","13","","","","99.78","","","","-10","","NA"
"2015-01-11 15:00","2015","01","11","15:00","-4.6","","-7.3","","82","","31","","12","","","","99.80","","","","-9","","NA"
"2015-01-11 16:00","2015","01","11","16:00","-5.3","","-8.1","","81","","33","","13","","","","99.85","","","","-10","","NA"
"2015-01-11 17:00","2015","01","11","17:00","-5.5","","-7.9","","83","","32","","8","","","","99.89","","","","-9","","NA"
"2015-01-11 18:00","2015","01","11","18:00","-5.7","","-8.1","","83","","31","","7","","","","99.90","","","","-9","","NA"
"2015-01-11 19:00","2015","01","11","19:00","-5.7","","-8.3","","82","","30","","9","","","","99.94","","","","-10","","NA"
"2015-01-11 20:00","2015","01","11","20:00","-6.1","","-7.6","","89","","31","","4","","","","99.95","","","","-8","","NA"
"2015-01-11 21:00","2015","01","11","21:00","-6.3","","-7.5","","91","","31","","6","","","","99.95","","","","-9","","NA"
"2015-01-11 22:00","2015","01","11","22:00","-6.5","","-7.7","","91","","32","","9","","","","99.94","","","","-11","","NA"
"2015-01-11 23:00","2015","01","11","23:00","-6.7","","-7.9","","91","","32","","9","","","","99.95","","","","-11","","NA"
"2015-01-12 00:00","2015","01","12","00:00","-6.9","","-8.1","","91","","31","","6","","","","99.90","","","","-10","","NA"
"2015-01-12 01:00","2015","01","12","01:00","-7.3","","-8.7","","90","","31","","6","","","","99.87","","","","-10","","NA"
"2015-01-12 02:00","2015","01","12","02:00","-7.4","","-8.7","","90","","32","","6","","","","99.87","","","","-11","","NA"
"2015-01-12 03:00","2015","01","12","03:00","-7.6","","-8.9","","90","","33","","4","","","","99.88","","","","-10","","NA"
"2015-01-12 04:00","2015","01","12","04:00","-7.6","","-8.8","","91","","32","","4","","","","99.88","","","","-10","","NA"
"2015-01-12 05:00","2015","01","12","05:00","-7.6","","-8.8","","91","","30","","6","","","","99.88","","","","-11","","NA"
"2015-01-12 06:00","2015","01","12","06:00","-7.8","","-9.0","","91","","33","","5","","","","99.92","","","","-10","","NA"
"2015-01-12 07:00","2015","01","12","07:00","-8.4","","-9.9","","89","","34","","8","","","","99.99","","","","-13","","NA"
"2015-01-12 08:00","2015","01","12","08:00","-9.1","","-10.7","","89","","35","","7","","","","100.06","","","","-13","","NA"
"2015-01-12 09:00","2015","01","12","09:00","-9.2","","-11.2","","85","","3","","3","","","","100.14","","","","-11","","NA"
"2015-01-12 10:00","2015","01","12","10:00","-9.2","","-12.0","","80","","2","","8","","","","100.27","","","","-14","","NA"
"2015-01-12 11:00","2015","01","12","11:00","-9.7","","-13.4","","74","","2","","14","","","","100.37","","","","-16","","NA"
"2015-01-12 12:00","2015","01","12","12:00","-9.9","","-15.0","","66","","1","","21","","","","100.41","","","","-18","","NA"
"2015-01-12 13:00","2015","01","12","13:00","-10.5","","-16.9","","60","","2","","19","","","","100.49","","","","-18","","NA"
"2015-01-12 14:00","2015","01","12","14:00","-11.4","","-18.4","","56","","2","","16","","","","100.59","","","","-19","","NA"
"2015-01-12 15:00","2015","01","12","15:00","-12.6","","-19.7","","55","","36","","17","","","","100.73","","","","-20","","NA"
"2015-01-12 16:00","2015","01","12","16:00","-14.2","","-21.7","","53","","1","","16","","","","100.88","","","","-22","","NA"
"2015-01-12 17:00","2015","01","12","17:00","-15.9","","-23.5","","52","","1","","18","","","","101.02","","","","-25","","NA"
"2015-01-12 18:00","2015","01","12","18:00","-17.0","","-23.8","","56","","1","","12","","","","101.20","","","","-24","","NA"
"2015-01-12 19:00","2015","01","12","19:00","-18.0","","-24.5","","57","","1","","10","","","","101.37","","","","-25","","NA"
"2015-01-12 20:00","2015","01","12","20:00","-18.9","","-25.2","","57","","2","","6","","","","101.50","","","","-24","","NA"
"2015-01-12 21:00","2015","01","12","21:00","-19.4","","-25.3","","59","","35","","12","","","","101.59","","","","-27","","NA"
"2015-01-12 22:00","2015","01","12","22:00","-19.7","","-25.1","","62","","5","","4","","","","101.63","","","","-23","","NA"
"2015-01-12 23:00","2015","01","12","23:00","-20.4","","-25.8","","62","","1","","14","","","","101.65","","","","-29","","NA"
"2015-01-13 00:00","2015","01","13","00:00","-20.7","","-25.8","","64","","35","","10","","","","101.67","","","","-28","","NA"
"2015-01-13 01:00","2015","01","13","01:00","-21.0","","-25.0","","70","","29","","8","","","","101.70","","","","-27","","NA"
"2015-01-13 02:00","2015","01","13","02:00","-21.6","","-25.1","","73","","30","","8","","","","101.71","","","","-28","","NA"
"2015-01-13 03:00","2015","01","13","03:00","-22.1","","-25.6","","73","","30","","6","","","","101.80","","","","-27","","NA"
"2015-01-13 04:00","2015","01","13","04:00","-22.7","","-26.3","","73","","32","","8","","","","101.82","","","","-29","","NA"
"2015-01-13 05:00","2015","01","13","05:00","-23.2","","-26.8","","73","","33","","10","","","","101.81","","","","-31","","NA"
"2015-01-13 06:00","2015","01","13","06:00","-23.4","","-26.8","","73","","33","","10","","","","101.81","","","","-31","","NA"
"2015-01-13 07:00","2015","01","13","07:00","-23.0","","-26.4","","74","","32","","9","","","","101.85","","","","-30","","NA"
"2015-01-13 08:00","2015","01","13","08:00","-22.8","","-26.7","","70","","32","","4","","","","101.86","","","","-27","","NA"
"2015-01-13 09:00","2015","01","13","09:00","-21.0","","-25.2","","69","","32","","10","","","","101.92","","","","-28","","NA"
"2015-01-13 10:00","2015","01","13","10:00","-18.8","","-23.9","","64","","31","","9","","","","101.94","","","","-25","","NA"
"2015-01-13 11:00","2015","01","13","11:00","-16.7","","-21.2","","68","","28","","7","","","","101.94","","","","-22","","NA"
"2015-01-13 12:00","2015","01","13","12:00","-15.5","","-18.1","","80","","28","","9","","","","101.83","","","","-21","","NA"
"2015-01-13 13:00","2015","01","13","13:00","-13.8","","-18.4","","69","","23","","8","","","","101.73","","","","-19","","NA"
"2015-01-13 14:00","2015","01","13","14:00","-13.1","","-18.8","","62","","24","","11","","","","101.62","","","","-19","","NA"
"2015-01-13 15:00","2015","01","13","15:00","-12.6","","-16.8","","71","","20","","9","","","","101.56","","","","-18","","NA"
"2015-01-13 16:00","2015","01","13","16:00","-11.9","","-16.4","","69","","24","","11","","","","101.49","","","","-18","","NA"
"2015-01-13 17:00","2015","01","13","17:00","-12.0","","-18.8","","57","","20","","9","","","","101.43","","","","-17","","NA"
"2015-01-13 18:00","2015","01","13","18:00","-13.1","","-18.7","","63","","28","","10","","","","101.38","","","","-19","","NA"
"2015-01-13 19:00","2015","01","13","19:00","-12.5","","-19.5","","56","","28","","4","","","","101.31","","","","-15","","NA"
"2015-01-13 20:00","2015","01","13","20:00","-10.0","","-13.8","","74","","21","","16","","","","101.21","","","","-17","","NA"
"2015-01-13 21:00","2015","01","13","21:00","-8.6","","-11.9","","77","","20","","27","","","","101.13","","","","-17","","NA"
"2015-01-13 22:00","2015","01","13","22:00","-7.6","","-11.8","","72","","21","","31","","","","101.02","","","","-17","","NA"
"2015-01-13 23:00","2015","01","13","23:00","-7.6","","-10.8","","78","","22","","30","","","","100.90","","","","-16","","NA"
"2015-01-14 00:00","2015","01","14","00:00","-7.9","","-11.0","","78","","24","","26","","","","100.81","","","","-16","","NA"
"2015-01-14 01:00","2015","01","14","01:00","-7.3","","-10.6","","78","","21","","28","","","","100.69","","","","-16","","NA"
"2015-01-14 02:00","2015","01","14","02:00","-6.2","","-9.8","","75","","22","","29","","","","100.61","","","","-14","","NA"
"2015-01-14 03:00","2015","01","14","03:00","-6.1","","-9.9","","74","","22","","28","","","","100.52","","","","-14","","NA"
"2015-01-14 04:00","2015","01","14","04:00","-5.5","","-9.8","","72","","22","","28","","","","100.41","","","","-13","","NA"
"2015-01-14 05:00","2015","01","14","05:00","-5.7","","-9.7","","73","","24","","23","","","","100.31","","","","-13","","NA"
"2015-01-14 06:00","2015","01","14","06:00","-5.5","","-10.1","","70","","22","","31","","","","100.22","","","","-14","","NA"
"2015-01-14 07:00","2015","01","14","07:00","-6.6","","-10.2","","76","","25","","16","","","","100.17","","","","-13","","NA"
"2015-01-14 08:00","2015","01","14","08:00","-7.1","","-10.7","","76","","26","","17","","","","100.10","","","","-14","","NA"
"2015-01-14 09:00","2015","01","14","09:00","-7.4","","-11.3","","74","","25","","18","","","","100.09","","","","-14","","NA"
"2015-01-14 10:00","2015","01","14","10:00","-7.3","","-11.5","","72","","25","","20","","","","100.07","","","","-14","","NA"
"2015-01-14 11:00","2015","01","14","11:00","-7.0","","-11.5","","70","","25","","21","","","","100.03","","","","-14","","NA"
"2015-01-14 12:00","2015","01","14","12:00","-6.2","","-10.4","","72","","24","","18","","","","99.94","","","","-13","","NA"
"2015-01-14 13:00","2015","01","14","13:00","-5.6","","-9.8","","72","","25","","16","","","","99.85","","","","-12","","NA"
"2015-01-14 14:00","2015","01","14","14:00","-5.2","","-9.4","","72","","26","","18","","","","99.79","","","","-11","","NA"
"2015-01-14 15:00","2015","01","14","15:00","-4.8","","-9.0","","72","","25","","14","","","","99.75","","","","-10","","NA"
"2015-01-14 16:00","2015","01","14","16:00","-4.7","","-8.9","","72","","26","","14","","","","99.77","","","","-10","","NA"
"2015-01-14 17:00","2015","01","14","17:00","-4.8","","-8.7","","74","","25","","12","","","","99.78","","","","-10","","NA"
"2015-01-14 18:00","2015","01","14","18:00","-4.7","","-8.3","","76","","25","","11","","","","99.75","","","","-9","","NA"
"2015-01-14 19:00","2015","01","14","19:00","-4.7","","-8.6","","74","","25","","13","","","","99.74","","","","-10","","NA"
"2015-01-14 20:00","2015","01","14","20:00","-4.7","","-8.1","","77","","26","","9","","","","99.74","","","","-9","","NA"
"2015-01-14 21:00","2015","01","14","21:00","-4.4","","-7.9","","77","","25","","11","","","","99.70","","","","-9","","NA"
"2015-01-14 22:00","2015","01","14","22:00","-4.1","","-7.4","","78","","26","","12","","","","99.69","","","","-9","","NA"
"2015-01-14 23:00","2015","01","14","23:00","-3.7","","-7.1","","77","","25","","14","","","","99.64","","","","-9","","NA"
"2015-01-15 00:00","2015","01","15","00:00","-3.3","","-6.8","","77","","24","","24","","","","99.56","","","","-10","","NA"
"2015-01-15 01:00","2015","01","15","01:00","-3.3","","-6.7","","77","","23","","26","","","","99.47","","","","-10","","NA"
"2015-01-15 02:00","2015","01","15","02:00","-3.1","","-6.6","","76","","22","","24","","","","99.41","","","","-10","","NA"
"2015-01-15 03:00","2015","01","15","03:00","-3.0","","-7.1","","73","","22","","27","","","","99.36","","","","-10","","NA"
"2015-01-15 04:00","2015","01","15","04:00","-3.0","","-7.3","","73","","23","","25","","","","99.26","","","","-10","","NA"
"2015-01-15 05:00","2015","01","15","05:00","-3.0","","-7.0","","74","","23","","30","","","","99.14","","","","-10","","NA"
"2015-01-15 06:00","2015","01","15","06:00","-3.1","","-6.6","","77","","22","","30","","","","99.06","","","","-11","","NA"
"2015-01-15 07:00","2015","01","15","07:00","-2.9","","-5.7","","81","","23","","33","","","","98.99","","","","-11","","NA"
"2015-01-15 08:00","2015","01","15","08:00","-2.9","","-5.6","","81","","23","","32","","","","98.87","","","","-10","","NA"
"2015-01-15 09:00","2015","01","15","09:00","-2.9","","-5.5","","82","","23","","33","","","","98.82","","","","-11","","NA"
"2015-01-15 10:00","2015","01","15","10:00","-2.8","","-5.5","","82","","23","","31","","","","98.74","","","","-10","","NA"
"2015-01-15 11:00","2015","01","15","11:00","-2.4","","-5.4","","80","","24","","33","","","","98.61","","","","-10","","NA"
"2015-01-15 12:00","2015","01","15","12:00","-2.3","","-5.4","","80","","23","","42","","","","98.41","","","","-11","","NA"
"2015-01-15 13:00","2015","01","15","13:00","-2.6","","-4.9","","84","","24","","36","","","","98.32","","","","-10","","NA"
"2015-01-15 14:00","2015","01","15","14:00","-2.5","","-4.5","","86","","24","","29","","","","98.18","","","","-10","","NA"
"2015-01-15 15:00","2015","01","15","15:00","-2.0","","-4.3","","84","","25","","26","","","","98.13","","","","-9","","NA"
"2015-01-15 16:00","2015","01","15","16:00","-1.6","","-3.6","","86","","24","","27","","","","98.03","","","","-8","","NA"
"2015-01-15 17:00","2015","01","15","17:00","-1.4","","-3.7","","84","","24","","28","","","","98.01","","","","-8","","NA"
"2015-01-15 18:00","2015","01","15","18:00","-1.3","","-2.7","","90","","24","","23","","","","98.00","","","","-7","","NA"
"2015-01-15 19:00","2015","01","15","19:00","-0.9","","-2.8","","87","","27","","25","","","","98.00","","","","-7","","NA"
"2015-01-15 20:00","2015","01","15","20:00","-1.1","","-3.9","","81","","28","","32","","","","97.98","","","","-8","","NA"
"2015-01-15 21:00","2015","01","15","21:00","-1.2","","-4.1","","81","","28","","42","","","","97.97","","","","-9","","NA"
"2015-01-15 22:00","2015","01","15","22:00","-2.5","","-6.5","","74","","30","","35","","","","98.01","","","","-10","","NA"
"2015-01-15 23:00","2015","01","15","23:00","-3.4","","-8.5","","68","","29","","29","","","","98.07","","","","-11","","NA"
"2015-01-16 00:00","2015","01","16","00:00","-4.5","","-10.8","","62","","31","","26","","","","98.15","","","","-12","","NA"
"2015-01-16 01:00","2015","01","16","01:00","-6.1","","-12.1","","62","","31","","29","","","","98.26","","","","-14","","NA"
"2015-01-16 02:00","2015","01","16","02:00","-7.9","","-13.3","","65","","34","","18","","","","98.43","","","","-15","","NA"
"2015-01-16 03:00","2015","01","16","03:00","-10.5","","-16.2","","63","","36","","18","","","","98.64","","","","-18","","NA"
"2015-01-16 04:00","2015","01","16","04:00","-11.9","","-18.0","","61","","34","","14","","","","98.77","","","","-19","","NA"
"2015-01-16 05:00","2015","01","16","05:00","-13.7","","-20.7","","55","","35","","12","","","","98.95","","","","-20","","NA"
"2015-01-16 06:00","2015","01","16","06:00","-15.1","","-21.7","","57","","33","","10","","","","99.15","","","","-21","","NA"
"2015-01-16 07:00","2015","01","16","07:00","-15.8","","-21.8","","60","","33","","12","","","","99.29","","","","-23","","NA"
"2015-01-16 08:00","2015","01","16","08:00","-16.7","","-22.1","","63","","34","","13","","","","99.44","","","","-24","","NA"
"2015-01-16 09:00","2015","01","16","09:00","-16.7","","-21.9","","64","","34","","15","","","","99.57","","","","-25","","NA"
"2015-01-16 10:00","2015","01","16","10:00","-16.5","","-23.0","","57","","33","","15","","","","99.69","","","","-25","","NA"
"2015-01-16 11:00","2015","01","16","11:00","-15.9","","-22.5","","57","","31","","16","","","","99.79","","","","-24","","NA"
"2015-01-16 12:00","2015","01","16","12:00","-15.2","","-22.7","","53","","32","","17","","","","99.83","","","","-24","","NA"
"2015-01-16 13:00","2015","01","16","13:00","-14.4","","-22.7","","49","","31","","14","","","","99.82","","","","-22","","NA"
"2015-01-16 14:00","2015","01","16","14:00","-14.1","","-23.4","","45","","31","","17","","","","99.81","","","","-22","","NA"
"2015-01-16 15:00","2015","01","16","15:00","-12.9","","-22.1","","46","","33","","13","","","","99.89","","","","-20","","NA"
"2015-01-16 16:00","2015","01","16","16:00","-12.6","","-22.0","","45","","33","","12","","","","99.95","","","","-19","","NA"
"2015-01-16 17:00","2015","01","16","17:00","-14.0","","-20.1","","60","","30","","13","","","","100.03","","","","-21","","NA"
"2015-01-16 18:00","2015","01","16","18:00","-15.3","","-20.7","","63","","30","","13","","","","100.10","","","","-23","","NA"
"2015-01-16 19:00","2015","01","16","19:00","-16.4","","-20.9","","68","","30","","7","","","","100.11","","","","-21","","NA"
"2015-01-16 20:00","2015","01","16","20:00","-16.4","","-21.4","","65","","34","","8","","","","100.13","","","","-22","","NA"
"2015-01-16 21:00","2015","01","16","21:00","-16.7","","-21.6","","66","","32","","8","","","","100.17","","","","-22","","NA"
"2015-01-16 22:00","2015","01","16","22:00"
"2015-01-16 23:00","2015","01","16","23:00"
"2015-01-17 00:00","2015","01","17","00:00"
"2015-01-17 01:00","2015","01","17","01:00"
"2015-01-17 02:00","2015","01","17","02:00"
"2015-01-17 03:00","2015","01","17","03:00"
"2015-01-17 04:00","2015","01","17","04:00"
"2015-01-17 05:00","2015","01","17","05:00"
"2015-01-17 06:00","2015","01","17","06:00"
"2015-01-17 07:00","2015","01","17","07:00"
"2015-01-17 08:00","2015","01","17","08:00"
"2015-01-17 09:00","2015","01","17","09:00"
"2015-01-17 10:00","2015","01","17","10:00","-6.2","","-10.4","","72","","15","","51","","","","99.15","","","","-17","","NA"
"2015-01-17 11:00","2015","01","17","11:00","-5.5","","-9.2","","75","","14","","49","","","","98.98","","","","-16","","NA"
"2015-01-17 12:00","2015","01","17","12:00","-4.8","","-8.0","","78","","14","","52","","","","98.72","","","","-15","","NA"
"2015-01-17 13:00","2015","01","17","13:00","-4.7","","-6.4","","88","","14","","55","","","","98.47","","","","-15","","NA"
"2015-01-17 14:00","2015","01","17","14:00","-3.5","","-5.6","","86","","15","","52","","","","98.29","","","","-13","","NA"
"2015-01-17 15:00","2015","01","17","15:00","-2.5","","-4.7","","85","","15","","51","","","","98.07","","","","-12","","NA"
"2015-01-17 16:00","2015","01","17","16:00","-1.5","","-3.5","","86","","15","","48","","","","97.94","","","","-10","","NA"
"2015-01-17 17:00","2015","01","17","17:00","-0.4","","-3.9","","77","","17","","44","","","","97.86","","","","-8","","NA"
"2015-01-17 18:00","2015","01","17","18:00","0.4","","-2.2","","83","","17","","34","","","","97.76","","","","","","NA"
"2015-01-17 19:00","2015","01","17","19:00","0.9","","-1.3","","85","","17","","31","","","","97.72","","","","","","NA"
"2015-01-17 20:00","2015","01","17","20:00","2.3","","-0.4","","82","","20","","35","","","","97.62","","","","","","NA"
"2015-01-17 21:00","2015","01","17","21:00","2.3","","-0.1","","84","","20","","37","","","","97.52","","","","","","NA"
"2015-01-17 22:00","2015","01","17","22:00","2.6","","0.0","","83","","22","","30","","","","97.47","","","","","","NA"
"2015-01-17 23:00","2015","01","17","23:00","2.0","","0.3","","89","","24","","27","","","","97.44","","","","","","NA"
"2015-01-18 00:00","2015","01","18","00:00","1.5","","0.1","","91","","24","","22","","","","97.41","","","","","","NA"
"2015-01-18 01:00","2015","01","18","01:00","1.3","","0.2","","92","","24","","22","","","","97.38","","","","","","NA"
"2015-01-18 02:00","2015","01","18","02:00","1.2","","0.1","","93","","23","","24","","","","97.38","","","","","","NA"
"2015-01-18 03:00","2015","01","18","03:00","1.0","","0.0","","93","","23","","23","","","","97.39","","","","","","NA"
"2015-01-18 04:00","2015","01","18","04:00","1.2","","0.3","","94","","24","","15","","","","97.39","","","","","","NA"
"2015-01-18 05:00","2015","01","18","05:00","1.4","","0.3","","92","","23","","18","","","","97.38","","","","","","NA"
"2015-01-18 06:00","2015","01","18","06:00","1.8","","0.8","","94","","24","","18","","","","97.42","","","","","","NA"
"2015-01-18 07:00","2015","01","18","07:00","1.5","","0.6","","94","","26","","17","","","","97.50","","","","","","NA"
"2015-01-18 08:00","2015","01","18","08:00","1.4","","0.0","","90","","26","","17","","","","97.57","","","","","","NA"
"2015-01-18 09:00","2015","01","18","09:00","1.0","","-0.3","","91","","27","","18","","","","97.65","","","","","","NA"
"2015-01-18 10:00","2015","01","18","10:00","0.9","","-0.6","","90","","26","","17","","","","97.74","","","","","","NA"
"2015-01-18 11:00","2015","01","18","11:00","1.1","","-1.2","","85","","28","","17","","","","97.79","","","","","","NA"
"2015-01-18 12:00","2015","01","18","12:00","0.9","","-1.2","","86","","27","","16","","","","97.80","","","","","","NA"
"2015-01-18 13:00","2015","01","18","13:00","0.4","","-2.1","","83","","28","","23","","","","97.78","","","","","","NA"
"2015-01-18 14:00","2015","01","18","14:00","-0.1","","-2.1","","86","","28","","27","","","","97.80","","","","-6","","NA"
"2015-01-18 15:00","2015","01","18","15:00","-0.1","","-2.4","","84","","28","","25","","","","97.90","","","","-6","","NA"
"2015-01-18 16:00","2015","01","18","16:00","-0.6","","-3.4","","81","","28","","28","","","","97.99","","","","-7","","NA"
"2015-01-18 17:00","2015","01","18","17:00","-1.1","","-2.8","","88","","28","","26","","","","98.11","","","","-7","","NA"
"2015-01-18 18:00","2015","01","18","18:00","-1.1","","-2.6","","90","","29","","17","","","","98.20","","","","-6","","NA"
"2015-01-18 19:00","2015","01","18","19:00","-1.4","","-2.6","","92","","29","","20","","","","98.24","","","","-7","","NA"
"2015-01-18 20:00","2015","01","18","20:00","-3.1","","-5.3","","85","","35","","17","","","","98.36","","","","-9","","NA"
"2015-01-18 21:00","2015","01","18","21:00","-4.7","","-8.0","","77","","1","","16","","","","98.48","","","","-10","","NA"
"2015-01-18 22:00","2015","01","18","22:00","-4.9","","-8.2","","78","","36","","12","","","","98.56","","","","-10","","NA"
"2015-01-18 23:00","2015","01","18","23:00","-6.1","","-10.5","","71","","36","","14","","","","98.67","","","","-12","","NA"
"2015-01-19 00:00","2015","01","19","00:00","-7.1","","-11.0","","74","","1","","12","","","","98.75","","","","-12","","NA"
"2015-01-19 01:00","2015","01","19","01:00","-8.3","","-12.2","","74","","36","","11","","","","98.81","","","","-14","","NA"
"2015-01-19 02:00","2015","01","19","02:00","-9.1","","-13.4","","71","","1","","11","","","","98.91","","","","-15","","NA"
"2015-01-19 03:00","2015","01","19","03:00","-10.2","","-14.5","","71","","35","","14","","","","99.00","","","","-17","","NA"
"2015-01-19 04:00","2015","01","19","04:00","-11.1","","-15.6","","69","","36","","9","","","","99.02","","","","-16","","NA"
"2015-01-19 05:00","2015","01","19","05:00","-11.9","","-16.8","","67","","2","","12","","","","99.08","","","","-18","","NA"
"2015-01-19 06:00","2015","01","19","06:00","-12.4","","-16.8","","70","","35","","10","","","","99.15","","","","-18","","NA"
"2015-01-19 07:00","2015","01","19","07:00","-12.8","","-17.6","","67","","1","","8","","","","99.20","","","","-18","","NA"
"2015-01-19 08:00","2015","01","19","08:00","-13.0","","-17.8","","67","","36","","9","","","","99.20","","","","-18","","NA"
"2015-01-19 09:00","2015","01","19","09:00","-13.3","","-18.4","","66","","36","","12","","","","99.28","","","","-20","","NA"
"2015-01-19 10:00","2015","01","19","10:00","-13.0","","-18.4","","64","","36","","15","","","","99.31","","","","-20","","NA"
"2015-01-19 11:00","2015","01","19","11:00","-12.4","","-18.8","","59","","3","","9","","","","99.34","","","","-18","","NA"
"2015-01-19 12:00","2015","01","19","12:00","-12.5","","-18.8","","59","","33","","10","","","","99.33","","","","-18","","NA"
"2015-01-19 13:00","2015","01","19","13:00","-11.9","","-19.2","","55","","34","","10","","","","99.26","","","","-18","","NA"
"2015-01-19 14:00","2015","01","19","14:00","-10.7","","-18.3","","53","","33","","12","","","","99.25","","","","-17","","NA"
"2015-01-19 15:00","2015","01","19","15:00","-10.6","","-19.5","","48","","1","","14","","","","99.23","","","","-17","","NA"
"2015-01-19 16:00","2015","01","19","16:00","-9.9","","-18.9","","48","","1","","7","","","","99.24","","","","-14","","NA"
"2015-01-19 17:00","2015","01","19","17:00","-11.3","","-19.0","","53","","1","","7","","","","99.28","","","","-16","","NA"
"2015-01-19 18:00","2015","01","19","18:00","-12.2","","-19.1","","56","","4","","2","","","","99.31","","","","-13","","NA"
"2015-01-19 19:00","2015","01","19","19:00","-12.9","","-19.3","","58","","1","","4","","","","99.33","","","","-16","","NA"
"2015-01-19 20:00","2015","01","19","20:00","-13.6","","-19.3","","62","","36","","5","","","","99.36","","","","-17","","NA"
"2015-01-19 21:00","2015","01","19","21:00","-14.5","","-19.8","","64","","2","","8","","","","99.35","","","","-20","","NA"
"2015-01-19 22:00","2015","01","19","22:00","-15.0","","-20.6","","62","","3","","4","","","","99.35","","","","-18","","NA"
"2015-01-19 23:00","2015","01","19","23:00","-16.0","","-21.1","","65","","4","","6","","","","99.32","","","","-20","","NA"
"2015-01-20 00:00","2015","01","20","00:00","-16.7","","-21.2","","68","","5","","7","","","","99.28","","","","-22","","NA"
"2015-01-20 01:00","2015","01","20","01:00","-17.0","","-21.7","","67","","4","","11","","","","99.28","","","","-24","","NA"
"2015-01-20 02:00","2015","01","20","02:00","-17.7","","-21.4","","73","","34","","4","","","","99.32","","","","-21","","NA"
"2015-01-20 03:00","2015","01","20","03:00","-17.4","","-22.2","","66","","1","","11","","","","99.34","","","","-25","","NA"
"2015-01-20 04:00","2015","01","20","04:00","-18.1","","-22.7","","67","","2","","9","","","","99.35","","","","-24","","NA"
"2015-01-20 05:00","2015","01","20","05:00","-18.9","","-21.7","","78","","31","","4","","","","99.37","","","","-22","","NA"
"2015-01-20 06:00","2015","01","20","06:00","-18.9","","-21.8","","78","","33","","4","","","","99.36","","","","-22","","NA"
"2015-01-20 07:00","2015","01","20","07:00","-18.5","","-22.2","","73","","34","","5","","","","99.36","","","","-23","","NA"
"2015-01-20 08:00","2015","01","20","08:00","-19.2","","-23.4","","70","","34","","3","","","","99.40","","","","-22","","NA"
"2015-01-20 09:00","2015","01","20","09:00","-15.9","","-22.3","","58","","2","","5","","","","99.45","","","","-20","","NA"
"2015-01-20 10:00","2015","01","20","10:00","-12.4","","-18.8","","59","","8","","1","","","","99.49","","","","-13","","NA"
"2015-01-20 11:00","2015","01","20","11:00","-12.7","","-18.4","","63","","12","","3","","","","99.54","","","","-15","","NA"
"2015-01-20 12:00","2015","01","20","12:00","-11.9","","-19.7","","52","","26","","5","","","","99.49","","","","-15","","NA"
"2015-01-20 13:00","2015","01","20","13:00","-11.1","","-19.0","","52","","24","","7","","","","99.47","","","","-15","","NA"
"2015-01-20 14:00","2015","01","20","14:00","-10.6","","-17.5","","57","","24","","9","","","","99.43","","","","-16","","NA"
"2015-01-20 15:00","2015","01","20","15:00","-10.0","","-20.0","","44","","28","","12","","","","99.46","","","","-16","","NA"
"2015-01-20 16:00","2015","01","20","16:00","-9.7","","-19.5","","45","","28","","13","","","","99.49","","","","-16","","NA"
"2015-01-20 17:00","2015","01","20","17:00","-10.8","","-20.0","","47","","30","","11","","","","99.55","","","","-17","","NA"
"2015-01-20 18:00","2015","01","20","18:00","-12.5","","-20.5","","51","","33","","9","","","","99.57","","","","-18","","NA"
"2015-01-20 19:00","2015","01","20","19:00","-12.5","","-20.3","","52","","32","","11","","","","99.64","","","","-19","","NA"
"2015-01-20 20:00","2015","01","20","20:00","-13.4","","-19.9","","58","","34","","7","","","","99.62","","","","-18","","NA"
"2015-01-20 21:00","2015","01","20","21:00","-12.6","","-20.7","","51","","6","","2","","","","99.62","","","","-14","","NA"
"2015-01-20 22:00","2015","01","20","22:00","-14.2","","-20.6","","58","","32","","7","","","","99.63","","","","-19","","NA"
"2015-01-20 23:00","2015","01","20","23:00","-11.4","","-21.6","","42","","33","","5","","","","99.66","","","","-15","","NA"
"2015-01-21 00:00","2015","01","21","00:00","-13.9","","-20.1","","60","","","","0","","","","99.65","","","","","","NA"
"2015-01-21 01:00","2015","01","21","01:00","-13.6","","-18.2","","68","","8","","2","","","","99.66","","","","-15","","NA"
"2015-01-21 02:00","2015","01","21","02:00","-13.7","","-21.5","","52","","4","","7","","","","99.68","","","","-18","","NA"
"2015-01-21 03:00","2015","01","21","03:00","-13.0","","-22.0","","47","","4","","8","","","","99.69","","","","-18","","NA"
"2015-01-21 04:00","2015","01","21","04:00","-13.3","","-19.2","","61","","10","","3","","","","99.67","","","","-15","","NA"
"2015-01-21 05:00","2015","01","21","05:00","-14.6","","-19.9","","64","","8","","6","","","","99.69","","","","-19","","NA"
"2015-01-21 06:00","2015","01","21","06:00","-14.7","","-21.0","","59","","6","","10","","","","99.71","","","","-21","","NA"
"2015-01-21 07:00","2015","01","21","07:00","-15.3","","-20.8","","63","","6","","12","","","","99.72","","","","-22","","NA"
"2015-01-21 08:00","2015","01","21","08:00","-15.1","","-20.3","","65","","6","","11","","","","99.72","","","","-22","","NA"
"2015-01-21 09:00","2015","01","21","09:00","-14.0","","-19.3","","64","","6","","11","","","","99.75","","","","-20","","NA"
"2015-01-21 10:00","2015","01","21","10:00","-12.8","","-17.5","","68","","8","","14","","","","99.79","","","","-20","","NA"
"2015-01-21 11:00","2015","01","21","11:00","-11.8","","-16.5","","68","","9","","10","","","","99.83","","","","-17","","NA"
"2015-01-21 12:00","2015","01","21","12:00","-10.8","","-16.8","","61","","8","","8","","","","99.79","","","","-15","","NA"
"2015-01-21 13:00","2015","01","21","13:00","-9.6","","-16.3","","58","","12","","4","","","","99.73","","","","-12","","NA"
"2015-01-21 14:00","2015","01","21","14:00","-8.8","","-14.8","","62","","16","","4","","","","99.67","","","","-11","","NA"
"2015-01-21 15:00","2015","01","21","15:00","-7.9","","-13.9","","62","","20","","9","","","","99.68","","","","-12","","NA"
"2015-01-21 16:00","2015","01","21","16:00","-7.4","","-13.7","","61","","21","","6","","","","99.71","","","","-11","","NA"
"2015-01-21 17:00","2015","01","21","17:00","-7.5","","-13.4","","63","","18","","4","","","","99.75","","","","-10","","NA"
"2015-01-21 18:00","2015","01","21","18:00","-7.9","","-13.8","","62","","0","","1","","","","99.78","","","","-8","","NA"
"2015-01-21 19:00","2015","01","21","19:00","-8.3","","-13.4","","67","","31","","2","","","","99.81","","","","-9","","NA"
"2015-01-21 20:00","2015","01","21","20:00","-8.3","","-14.3","","62","","1","","6","","","","99.81","","","","-12","","NA"
"2015-01-21 21:00","2015","01","21","21:00","-8.4","","-14.3","","62","","33","","3","","","","99.84","","","","-10","","NA"
"2015-01-21 22:00","2015","01","21","22:00","-8.6","","-15.1","","59","","1","","7","","","","99.89","","","","-12","","NA"
"2015-01-21 23:00","2015","01","21","23:00","-8.4","","-16.5","","52","","3","","3","","","","99.91","","","","-10","","NA"
"2015-01-22 00:00","2015","01","22","00:00","-8.8","","-16.4","","54","","3","","4","","","","99.91","","","","-11","","NA"
"2015-01-22 01:00","2015","01","22","01:00","-8.5","","-17.6","","48","","7","","5","","","","99.89","","","","-11","","NA"
"2015-01-22 02:00","2015","01","22","02:00","-8.6","","-18.0","","47","","6","","2","","","","99.90","","","","-10","","NA"
"2015-01-22 03:00","2015","01","22","03:00","-9.1","","-17.2","","52","","35","","6","","","","99.95","","","","-12","","NA"
"2015-01-22 04:00","2015","01","22","04:00","-9.3","","-16.7","","55","","32","","6","","","","99.99","","","","-13","","NA"
"2015-01-22 05:00","2015","01","22","05:00","-9.9","","-15.1","","65","","31","","7","","","","100.00","","","","-14","","NA"
"2015-01-22 06:00","2015","01","22","06:00","-9.7","","-13.7","","73","","29","","8","","","","100.04","","","","-14","","NA"
"2015-01-22 07:00","2015","01","22","07:00","-9.6","","-13.0","","76","","29","","4","","","","100.10","","","","-12","","NA"
"2015-01-22 08:00","2015","01","22","08:00","-9.1","","-12.0","","79","","29","","7","","","","100.14","","","","-13","","NA"
"2015-01-22 09:00","2015","01","22","09:00","-8.6","","-11.3","","81","","31","","12","","","","100.15","","","","-14","","NA"
"2015-01-22 10:00","2015","01","22","10:00","-7.4","","-10.1","","81","","28","","7","","","","100.16","","","","-11","","NA"
"2015-01-22 11:00","2015","01","22","11:00","-6.7","","-9.6","","80","","30","","8","","","","100.17","","","","-11","","NA"
"2015-01-22 12:00","2015","01","22","12:00","-5.8","","-8.9","","79","","30","","8","","","","100.14","","","","-10","","NA"
"2015-01-22 13:00","2015","01","22","13:00","-5.0","","-8.0","","79","","30","","14","","","","100.12","","","","-10","","NA"
"2015-01-22 14:00","2015","01","22","14:00","-3.7","","-8.7","","68","","28","","15","","","","100.10","","","","-9","","NA"
"2015-01-22 15:00","2015","01","22","15:00","-3.7","","-9.9","","62","","28","","23","","","","100.09","","","","-10","","NA"
"2015-01-22 16:00","2015","01","22","16:00","-4.2","","-10.2","","63","","28","","28","","","","100.08","","","","-12","","NA"
"2015-01-22 17:00","2015","01","22","17:00","-5.3","","-10.6","","66","","28","","27","","","","100.14","","","","-13","","NA"
"2015-01-22 18:00","2015","01","22","18:00","-6.1","","-10.6","","70","","28","","23","","","","100.18","","","","-13","","NA"
"2015-01-22 19:00","2015","01","22","19:00","-6.6","","-10.7","","73","","29","","19","","","","100.23","","","","-13","","NA"
"2015-01-22 20:00","2015","01","22","20:00","-7.3","","-11.2","","74","","29","","13","","","","100.19","","","","-13","","NA"
"2015-01-22 21:00","2015","01","22","21:00","-7.9","","-11.5","","75","","28","","9","","","","100.12","","","","-12","","NA"
"2015-01-22 22:00","2015","01","22","22:00","-7.9","","-11.2","","77","","30","","10","","","","100.02","","","","-13","","NA"
"2015-01-22 23:00","2015","01","22","23:00","-8.0","","-11.1","","79","","30","","8","","","","99.95","","","","-12","","NA"
"2015-01-23 00:00","2015","01","23","00:00","-8.1","","-10.8","","81","","28","","6","","","","99.90","","","","-11","","NA"
"2015-01-23 01:00","2015","01","23","01:00","-7.1","","-9.7","","81","","28","","9","","","","99.80","","","","-11","","NA"
"2015-01-23 02:00","2015","01","23","02:00","-7.2","","-9.8","","82","","36","","4","","","","99.71","","","","-9","","NA"
"2015-01-23 03:00","2015","01","23","03:00","-5.3","","-7.6","","84","","26","","8","","","","99.59","","","","-9","","NA"
"2015-01-23 04:00","2015","01","23","04:00","-4.5","","-6.7","","85","","28","","14","","","","99.50","","","","-10","","NA"
"2015-01-23 05:00","2015","01","23","05:00","-3.5","","-5.8","","84","","27","","13","","","","99.40","","","","-8","","NA"
"2015-01-23 06:00","2015","01","23","06:00","-2.8","","-5.0","","85","","24","","17","","","","99.25","","","","-8","","NA"
"2015-01-23 07:00","2015","01","23","07:00","-2.2","","-4.8","","82","","24","","21","","","","99.15","","","","-8","","NA"
"2015-01-23 08:00","2015","01","23","08:00","-1.5","","-5.0","","77","","25","","24","","","","99.08","","","","-8","","NA"
"2015-01-23 09:00","2015","01","23","09:00","-1.4","","-5.2","","75","","25","","33","","","","99.00","","","","-9","","NA"
"2015-01-23 10:00","2015","01","23","10:00","-1.2","","-4.9","","76","","24","","28","","","","98.93","","","","-8","","NA"
"2015-01-23 11:00","2015","01","23","11:00","-0.6","","-4.5","","75","","24","","24","","","","98.89","","","","-7","","NA"
"2015-01-23 12:00","2015","01","23","12:00","-0.4","","-3.9","","77","","25","","29","","","","98.80","","","","-7","","NA"
"2015-01-23 13:00","2015","01","23","13:00","-0.4","","-3.3","","81","","25","","30","","","","98.67","","","","-7","","NA"
"2015-01-23 14:00","2015","01","23","14:00","-0.5","","-2.6","","86","","24","","30","","","","98.58","","","","-7","","NA"
"2015-01-23 15:00","2015","01","23","15:00","-0.1","","-3.0","","81","","25","","26","","","","98.52","","","","-6","","NA"
"2015-01-23 16:00","2015","01","23","16:00","-0.5","","-2.0","","89","","24","","26","","","","98.47","","","","-7","","NA"
"2015-01-23 17:00","2015","01","23","17:00","-0.3","","-2.2","","87","","25","","24","","","","98.44","","","","-6","","NA"
"2015-01-23 18:00","2015","01","23","18:00","-0.5","","-1.5","","93","","25","","22","","","","98.40","","","","-6","","NA"
"2015-01-23 19:00","2015","01","23","19:00","-0.5","","-1.3","","94","","25","","20","","","","98.40","","","","-6","","NA"
"2015-01-23 20:00","2015","01","23","20:00","-0.3","","-1.2","","94","","25","","17","","","","98.37","","","","-5","","NA"
"2015-01-23 21:00","2015","01","23","21:00","-0.3","","-1.4","","92","","26","","21","","","","98.32","","","","-6","","NA"
"2015-01-23 22:00","2015","01","23","22:00","-0.2","","-1.1","","94","","27","","17","","","","98.23","","","","-5","","NA"
"2015-01-23 23:00","2015","01","23","23:00","-0.3","","-1.4","","92","","26","","17","","","","98.15","","","","-5","","NA"
"2015-01-24 00:00","2015","01","24","00:00","-0.4","","-1.3","","93","","26","","14","","","","98.08","","","","-5","","NA"
"2015-01-24 01:00","2015","01","24","01:00","-0.3","","-1.1","","95","","25","","15","","","","97.98","","","","-5","","NA"
"2015-01-24 02:00","2015","01","24","02:00","-0.2","","-0.9","","95","","25","","14","","","","97.93","","","","-4","","NA"
"2015-01-24 03:00","2015","01","24","03:00","-0.2","","-0.9","","95","","26","","17","","","","97.89","","","","-5","","NA"
"2015-01-24 04:00","2015","01","24","04:00","-0.2","","-1.0","","95","","27","","13","","","","97.80","","","","-4","","NA"
"2015-01-24 05:00","2015","01","24","05:00","-0.3","","-1.2","","93","","25","","9","","","","97.73","","","","-3","","NA"
"2015-01-24 06:00","2015","01","24","06:00","-0.3","","-1.2","","94","","26","","11","","","","97.67","","","","-4","","NA"
"2015-01-24 07:00","2015","01","24","07:00","-0.2","","-1.1","","94","","26","","10","","","","97.63","","","","-4","","NA"
"2015-01-24 08:00","2015","01","24","08:00","-0.2","","-1.1","","94","","24","","8","","","","97.60","","","","-3","","NA"
"2015-01-24 09:00","2015","01","24","09:00","-0.1","","-1.0","","94","","24","","9","","","","97.54","","","","-3","","NA"
"2015-01-24 10:00","2015","01","24","10:00","0.1","","-0.9","","93","","27","","12","","","","97.50","","","","","","NA"
"2015-01-24 11:00","2015","01","24","11:00","0.2","","-0.8","","93","","28","","15","","","","97.47","","","","","","NA"
"2015-01-24 12:00","2015","01","24","12:00","0.3","","-0.7","","93","","28","","21","","","","97.37","","","","","","NA"
"2015-01-24 13:00","2015","01","24","13:00","0.7","","-0.5","","92","","28","","22","","","","97.28","","","","","","NA"
"2015-01-24 14:00","2015","01","24","14:00","0.6","","-0.7","","91","","28","","24","","","","97.22","","","","","","NA"
"2015-01-24 15:00","2015","01","24","15:00","0.9","","-0.8","","89","","28","","22","","","","97.19","","","","","","NA"
"2015-01-24 16:00","2015","01","24","16:00","0.8","","-0.9","","89","","28","","22","","","","97.20","","","","","","NA"
"2015-01-24 17:00","2015","01","24","17:00","-0.2","","-1.8","","90","","30","","25","","","","97.31","","","","-6","","NA"
"2015-01-24 18:00","2015","01","24","18:00","-2.7","","-6.1","","77","","35","","11","","","","97.49","","","","-7","","NA"
"2015-01-24 19:00","2015","01","24","19:00","-5.5","","-9.6","","73","","1","","15","","","","97.67","","","","-11","","NA"
"2015-01-24 20:00","2015","01","24","20:00","-8.4","","-13.0","","70","","36","","15","","","","97.87","","","","-15","","NA"
"2015-01-24 21:00","2015","01","24","21:00","-10.1","","-14.5","","70","","35","","9","","","","97.99","","","","-15","","NA"
"2015-01-24 22:00","2015","01","24","22:00","-11.5","","-16.5","","66","","36","","22","","","","98.07","","","","-20","","NA"
"2015-01-24 23:00","2015","01","24","23:00","-12.3","","-17.0","","68","","35","","16","","","","98.17","","","","-20","","NA"
"2015-01-25 00:00","2015","01","25","00:00","-13.1","","-17.4","","70","","34","","8","","","","98.28","","","","-18","","NA"
"2015-01-25 01:00","2015","01","25","01:00","-13.9","","-18.8","","66","","34","","10","","","","98.36","","","","-20","","NA"
"2015-01-25 02:00","2015","01","25","02:00","-14.6","","-19.4","","67","","34","","6","","","","98.48","","","","-19","","NA"
"2015-01-25 03:00","2015","01","25","03:00","-15.4","","-20.7","","64","","36","","9","","","","98.61","","","","-21","","NA"
"2015-01-25 04:00","2015","01","25","04:00","-16.3","","-20.9","","67","","36","","5","","","","98.73","","","","-20","","NA"
"2015-01-25 05:00","2015","01","25","05:00","-16.7","","-20.8","","71","","31","","8","","","","98.84","","","","-22","","NA"
"2015-01-25 06:00","2015","01","25","06:00","-17.4","","-21.7","","69","","34","","18","","","","98.91","","","","-27","","NA"
"2015-01-25 07:00","2015","01","25","07:00","-17.8","","-22.5","","67","","35","","19","","","","99.05","","","","-27","","NA"
"2015-01-25 08:00","2015","01","25","08:00","-17.8","","-23.1","","64","","35","","19","","","","99.13","","","","-27","","NA"
"2015-01-25 09:00","2015","01","25","09:00","-17.0","","-23.0","","59","","35","","7","","","","99.21","","","","-22","","NA"
"2015-01-25 10:00","2015","01","25","10:00","-15.2","","-22.2","","55","","5","","4","","","","99.26","","","","-18","","NA"
"2015-01-25 11:00","2015","01","25","11:00","-14.8","","-22.8","","51","","5","","9","","","","99.30","","","","-21","","NA"
"2015-01-25 12:00","2015","01","25","12:00","-13.6","","-23.1","","45","","3","","9","","","","99.31","","","","-19","","NA"
"2015-01-25 13:00","2015","01","25","13:00","-12.7","","-23.6","","40","","4","","10","","","","99.30","","","","-18","","NA"
"2015-01-25 14:00","2015","01","25","14:00","-11.4","","-23.1","","37","","2","","7","","","","99.33","","","","-16","","NA"
"2015-01-25 15:00","2015","01","25","15:00","-10.4","","-23.8","","33","","2","","8","","","","99.41","","","","-15","","NA"
"2015-01-25 16:00","2015","01","25","16:00","-10.5","","-23.2","","35","","28","","11","","","","99.47","","","","-16","","NA"
"2015-01-25 17:00","2015","01","25","17:00","-10.9","","-22.2","","39","","29","","6","","","","99.52","","","","-15","","NA"
"2015-01-25 18:00","2015","01","25","18:00","-12.7","","-21.3","","48","","31","","9","","","","99.55","","","","-18","","NA"
"2015-01-25 19:00","2015","01","25","19:00","-13.4","","-21.1","","52","","35","","11","","","","99.63","","","","-20","","NA"
"2015-01-25 20:00","2015","01","25","20:00","-14.4","","-20.5","","60","","1","","3","","","","99.67","","","","-17","","NA"
"2015-01-25 21:00","2015","01","25","21:00","-13.8","","-20.7","","56","","2","","9","","","","99.68","","","","-19","","NA"
"2015-01-25 22:00","2015","01","25","22:00","-14.6","","-21.5","","56","","4","","9","","","","99.67","","","","-20","","NA"
"2015-01-25 23:00","2015","01","25","23:00","-14.9","","-21.5","","57","","4","","9","","","","99.63","","","","-21","","NA"
"2015-01-26 00:00","2015","01","26","00:00","-15.4","","-21.3","","61","","6","","13","","","","99.58","","","","-23","","NA"
"2015-01-26 01:00","2015","01","26","01:00","-15.8","","-21.6","","61","","6","","13","","","","99.59","","","","-23","","NA"
"2015-01-26 02:00","2015","01","26","02:00","-16.3","","-21.7","","63","","6","","12","","","","99.58","","","","-24","","NA"
"2015-01-26 03:00","2015","01","26","03:00","-16.7","","-21.8","","65","","6","","13","","","","99.59","","","","-24","","NA"
"2015-01-26 04:00","2015","01","26","04:00","-17.1","","-22.1","","65","","6","","12","","","","99.59","","","","-25","","NA"
"2015-01-26 05:00","2015","01","26","05:00","-17.3","","-21.9","","67","","6","","16","","","","99.54","","","","-26","","NA"
"2015-01-26 06:00","2015","01","26","06:00","-17.5","","-22.5","","65","","6","","15","","","","99.52","","","","-26","","NA"
"2015-01-26 07:00","2015","01","26","07:00","-17.9","","-22.5","","67","","7","","17","","","","99.55","","","","-27","","NA"
"2015-01-26 08:00","2015","01","26","08:00","-18.1","","-23.0","","65","","6","","16","","","","99.54","","","","-27","","NA"
"2015-01-26 09:00","2015","01","26","09:00","-17.2","","-22.3","","64","","7","","18","","","","99.55","","","","-26","","NA"
"2015-01-26 10:00","2015","01","26","10:00","-16.3","","-20.8","","68","","8","","21","","","","99.54","","","","-26","","NA"
"2015-01-26 11:00","2015","01","26","11:00","-15.2","","-19.2","","72","","10","","21","","","","99.57","","","","-25","","NA"
"2015-01-26 12:00","2015","01","26","12:00","-14.8","","-18.3","","74","","10","","19","","","","99.54","","","","-24","","NA"
"2015-01-26 13:00","2015","01","26","13:00","-12.7","","-17.2","","69","","11","","13","","","","99.50","","","","-20","","NA"
"2015-01-26 14:00","2015","01","26","14:00","-11.0","","-17.9","","57","","9","","9","","","","99.42","","","","-16","","NA"
"2015-01-26 15:00","2015","01","26","15:00","-9.8","","-16.2","","59","","12","","17","","","","99.38","","","","-17","","NA"
"2015-01-26 16:00","2015","01","26","16:00","-9.3","","-17.9","","50","","10","","16","","","","99.40","","","","-16","","NA"
"2015-01-26 17:00","2015","01","26","17:00","-9.7","","-18.1","","50","","7","","14","","","","99.44","","","","-16","","NA"
"2015-01-26 18:00","2015","01","26","18:00","-11.3","","-19.0","","53","","6","","11","","","","99.47","","","","-17","","NA"
"2015-01-26 19:00","2015","01","26","19:00","-12.3","","-19.4","","56","","6","","11","","","","99.51","","","","-18","","NA"
"2015-01-26 20:00","2015","01","26","20:00","-12.5","","-18.9","","59","","7","","19","","","","99.58","","","","-21","","NA"
"2015-01-26 21:00","2015","01","26","21:00","-13.1","","-18.8","","63","","6","","20","","","","99.61","","","","-22","","NA"
"2015-01-26 22:00","2015","01","26","22:00","-13.5","","-18.6","","66","","7","","22","","","","99.60","","","","-23","","NA"
"2015-01-26 23:00","2015","01","26","23:00","-14.4","","-19.9","","63","","5","","14","","","","99.64","","","","-22","","NA"
"2015-01-27 00:00","2015","01","27","00:00","-14.5","","-20.0","","63","","7","","20","","","","99.62","","","","-24","","NA"
"2015-01-27 01:00","2015","01","27","01:00","-14.3","","-20.3","","61","","6","","17","","","","99.65","","","","-23","","NA"
"2015-01-27 02:00","2015","01","27","02:00","-14.5","","-20.6","","60","","6","","16","","","","99.64","","","","-23","","NA"
"2015-01-27 03:00","2015","01","27","03:00","-14.9","","-21.2","","59","","6","","14","","","","99.67","","","","-22","","NA"
"2015-01-27 04:00","2015","01","27","04:00","-14.9","","-21.9","","55","","6","","14","","","","99.68","","","","-22","","NA"
"2015-01-27 05:00","2015","01","27","05:00","-15.0","","-22.2","","54","","5","","12","","","","99.69","","","","-22","","NA"
"2015-01-27 06:00","2015","01","27","06:00","-15.1","","-22.0","","55","","5","","13","","","","99.75","","","","-22","","NA"
"2015-01-27 07:00","2015","01","27","07:00","-15.8","","-21.7","","61","","6","","13","","","","99.84","","","","-23","","NA"
"2015-01-27 08:00","2015","01","27","08:00","-16.3","","-21.8","","63","","2","","7","","","","99.88","","","","-21","","NA"
"2015-01-27 09:00","2015","01","27","09:00","-14.4","","-21.8","","54","","2","","8","","","","99.90","","","","-20","","NA"
"2015-01-27 10:00","2015","01","27","10:00","-11.9","","-22.4","","41","","2","","6","","","","99.92","","","","-16","","NA"
"2015-01-27 11:00","2015","01","27","11:00","-12.6","","-20.1","","54","","9","","23","","","","99.97","","","","-22","","NA"
"2015-01-27 12:00","2015","01","27","12:00","-10.2","","-19.7","","46","","9","","14","","","","99.95","","","","-17","","NA"
"2015-01-27 13:00","2015","01","27","13:00","-8.9","","-24.0","","28","","1","","9","","","","99.91","","","","-14","","NA"
"2015-01-27 14:00","2015","01","27","14:00","-7.4","","-24.3","","24","","3","","8","","","","99.87","","","","-11","","NA"
"2015-01-27 15:00","2015","01","27","15:00","-6.7","","-26.0","","20","","2","","12","","","","99.89","","","","-12","","NA"
"2015-01-27 16:00","2015","01","27","16:00","-6.5","","-26.1","","19","","3","","9","","","","99.90","","","","-11","","NA"
"2015-01-27 17:00","2015","01","27","17:00","-7.3","","-26.7","","20","","1","","7","","","","99.93","","","","-11","","NA"
"2015-01-27 18:00","2015","01","27","18:00","-9.0","","-22.8","","32","","31","","4","","","","99.99","","","","-11","","NA"
"2015-01-27 19:00","2015","01","27","19:00","-8.6","","-25.2","","25","","2","","5","","","","100.02","","","","-11","","NA"
"2015-01-27 20:00","2015","01","27","20:00","-9.6","","-24.2","","29","","30","","9","","","","100.03","","","","-14","","NA"
"2015-01-27 21:00","2015","01","27","21:00","-11.4","","-23.6","","36","","30","","4","","","","100.01","","","","-14","","NA"
"2015-01-27 22:00","2015","01","27","22:00","-10.3","","-21.9","","38","","33","","7","","","","100.05","","","","-14","","NA"
"2015-01-27 23:00","2015","01","27","23:00","-10.8","","-20.7","","44","","3","","7","","","","100.04","","","","-15","","NA"
"2015-01-28 00:00","2015","01","28","00:00","-12.0","","-19.6","","53","","5","","3","","","","100.05","","","","-14","","NA"
"2015-01-28 01:00","2015","01","28","01:00","-13.0","","-19.7","","57","","31","","8","","","","100.01","","","","-18","","NA"
"2015-01-28 02:00","2015","01","28","02:00","-14.6","","-20.4","","62","","31","","9","","","","100.04","","","","-20","","NA"
"2015-01-28 03:00","2015","01","28","03:00","-14.0","","-19.3","","64","","14","","2","","","","100.05","","","","-15","","NA"
"2015-01-28 04:00","2015","01","28","04:00","-14.1","","-20.1","","61","","33","","3","","","","100.11","","","","-16","","NA"
"2015-01-28 05:00","2015","01","28","05:00","-14.5","","-20.1","","62","","32","","6","","","","100.15","","","","-19","","NA"
"2015-01-28 06:00","2015","01","28","06:00","-15.2","","-20.1","","66","","31","","9","","","","100.21","","","","-21","","NA"
"2015-01-28 07:00","2015","01","28","07:00","-14.8","","-19.8","","66","","32","","8","","","","100.28","","","","-20","","NA"
"2015-01-28 08:00","2015","01","28","08:00","-15.1","","-19.7","","68","","32","","7","","","","100.27","","","","-20","","NA"
"2015-01-28 09:00","2015","01","28","09:00","-14.3","","-19.4","","65","","30","","6","","","","100.29","","","","-18","","NA"
"2015-01-28 10:00","2015","01","28","10:00","-12.0","","-17.7","","62","","29","","7","","","","100.26","","","","-16","","NA"
"2015-01-28 11:00","2015","01","28","11:00","-9.0","","-18.0","","48","","28","","6","","","","100.27","","","","-12","","NA"
"2015-01-28 12:00","2015","01","28","12:00","-7.8","","-17.8","","44","","30","","6","","","","100.21","","","","-11","","NA"
"2015-01-28 13:00","2015","01","28","13:00","-6.9","","-17.3","","43","","23","","9","","","","100.18","","","","-11","","NA"
"2015-01-28 14:00","2015","01","28","14:00","-5.9","","-15.3","","48","","20","","9","","","","100.12","","","","-10","","NA"
"2015-01-28 15:00","2015","01","28","15:00","-6.3","","-14.2","","54","","17","","10","","","","100.10","","","","-11","","NA"
"2015-01-28 16:00","2015","01","28","16:00","-5.7","","-13.1","","56","","14","","12","","","","100.03","","","","-11","","NA"
"2015-01-28 17:00","2015","01","28","17:00","-5.5","","-10.2","","69","","14","","12","","","","100.02","","","","-10","","NA"
"2015-01-28 18:00","2015","01","28","18:00","-5.2","","-8.7","","76","","16","","24","","","","99.95","","","","-12","","NA"
"2015-01-28 19:00","2015","01","28","19:00","-5.3","","-9.3","","74","","16","","24","","","","99.97","","","","-13","","NA"
"2015-01-28 20:00","2015","01","28","20:00","-4.7","","-7.8","","79","","15","","20","","","","99.91","","","","-11","","NA"
"2015-01-28 21:00","2015","01","28","21:00","-4.1","","-6.2","","85","","15","","19","","","","99.87","","","","-10","","NA"
"2015-01-28 22:00","2015","01","28","22:00","-3.5","","-5.8","","84","","16","","18","","","","99.83","","","","-9","","NA"
"2015-01-28 23:00","2015","01","28","23:00","-3.6","","-6.5","","81","","16","","32","","","","99.74","","","","-11","","NA"
"2015-01-29 00:00","2015","01","29","00:00","-3.6","","-7.2","","76","","17","","33","","","","99.71","","","","-12","","NA"
"2015-01-29 01:00","2015","01","29","01:00","-3.6","","-7.0","","77","","16","","25","","","","99.65","","","","-11","","NA"
"2015-01-29 02:00","2015","01","29","02:00","-3.5","","-6.1","","82","","15","","27","","","","99.53","","","","-11","","NA"
"2015-01-29 03:00","2015","01","29","03:00","-3.6","","-6.7","","80","","15","","28","","","","99.44","","","","-11","","NA"
"2015-01-29 04:00","2015","01","29","04:00","-3.7","","-7.8","","73","","14","","34","","","","99.24","","","","-12","","NA"
"2015-01-29 05:00","2015","01","29","05:00","-3.2","","-7.9","","70","","15","","30","","","","99.16","","","","-11","","NA"
"2015-01-29 06:00","2015","01","29","06:00","-2.5","","-8.4","","64","","15","","38","","","","98.96","","","","-11","","NA"
"2015-01-29 07:00","2015","01","29","07:00","-3.1","","-5.9","","81","","13","","39","","","","98.83","","","","-11","","NA"
"2015-01-29 08:00","2015","01","29","08:00","-3.3","","-7.0","","75","","14","","44","","","","98.76","","","","-12","","NA"
"2015-01-29 09:00","2015","01","29","09:00","-3.0","","-5.0","","86","","17","","32","","","","98.67","","","","-11","","NA"
"2015-01-29 10:00","2015","01","29","10:00","-3.3","","-4.1","","94","","15","","28","","","","98.58","","","","-11","","NA"
"2015-01-29 11:00","2015","01","29","11:00","-2.8","","-3.6","","94","","15","","25","","","","98.51","","","","-10","","NA"
"2015-01-29 12:00","2015","01","29","12:00","-2.5","","-3.2","","95","","17","","21","","","","98.43","","","","-9","","NA"
"2015-01-29 13:00","2015","01","29","13:00","-1.8","","-2.6","","95","","25","","8","","","","98.32","","","","-5","","NA"
"2015-01-29 14:00","2015","01","29","14:00","-2.0","","-3.7","","89","","31","","13","","","","98.23","","","","-6","","NA"
"2015-01-29 15:00","2015","01","29","15:00","-2.2","","-4.0","","88","","30","","13","","","","98.20","","","","-7","","NA"
"2015-01-29 16:00","2015","01","29","16:00","-2.3","","-4.2","","87","","32","","13","","","","98.25","","","","-7","","NA"
"2015-01-29 17:00","2015","01","29","17:00","-2.4","","-5.8","","78","","34","","12","","","","98.33","","","","-7","","NA"
"2015-01-29 18:00","2015","01","29","18:00","-2.8","","-5.9","","79","","33","","13","","","","98.47","","","","-7","","NA"
"2015-01-29 19:00","2015","01","29","19:00","-2.9","","-5.8","","80","","32","","13","","","","98.56","","","","-8","","NA"
"2015-01-29 20:00","2015","01","29","20:00","-3.0","","-5.9","","80","","32","","12","","","","98.65","","","","-7","","NA"
"2015-01-29 21:00","2015","01","29","21:00","-2.9","","-6.3","","77","","34","","14","","","","98.74","","","","-8","","NA"
"2015-01-29 22:00","2015","01","29","22:00","-5.6","","-9.7","","73","","35","","22","","","","98.92","","","","-13","","NA"
"2015-01-29 23:00","2015","01","29","23:00","-10.1","","-14.6","","70","","35","","25","","","","99.07","","","","-19","","NA"
"2015-01-30 00:00","2015","01","30","00:00","-11.5","","-16.2","","68","","36","","30","","","","99.19","","","","-21","","NA"
"2015-01-30 01:00","2015","01","30","01:00","-12.8","","-18.1","","65","","1","","33","","","","99.31","","","","-24","","NA"
"2015-01-30 02:00","2015","01","30","02:00","-14.3","","-19.7","","63","","35","","26","","","","99.50","","","","-24","","NA"
"2015-01-30 03:00","2015","01","30","03:00","-15.6","","-21.3","","62","","36","","22","","","","99.71","","","","-25","","NA"
"2015-01-30 04:00","2015","01","30","04:00","-16.7","","-22.2","","63","","35","","21","","","","99.89","","","","-27","","NA"
"2015-01-30 05:00","2015","01","30","05:00","-17.5","","-22.9","","63","","35","","26","","","","100.03","","","","-29","","NA"
"2015-01-30 06:00","2015","01","30","06:00","-18.4","","-23.9","","62","","35","","22","","","","100.21","","","","-29","","NA"
"2015-01-30 07:00","2015","01","30","07:00","-19.1","","-24.2","","64","","35","","18","","","","100.34","","","","-29","","NA"
"2015-01-30 08:00","2015","01","30","08:00","-19.6","","-24.7","","64","","33","","18","","","","100.45","","","","-29","","NA"
"2015-01-30 09:00","2015","01","30","09:00","-19.4","","-25.4","","59","","34","","18","","","","100.52","","","","-29","","NA"
"2015-01-30 10:00","2015","01","30","10:00","-18.8","","-25.5","","56","","34","","20","","","","100.54","","","","-29","","NA"
"2015-01-30 11:00","2015","01","30","11:00","-18.1","","-25.6","","52","","34","","16","","","","100.59","","","","-27","","NA"
"2015-01-30 12:00","2015","01","30","12:00","-16.8","","-25.7","","46","","34","","18","","","","100.53","","","","-26","","NA"
"2015-01-30 13:00","2015","01","30","13:00","-15.6","","-25.4","","43","","33","","17","","","","100.52","","","","-24","","NA"
"2015-01-30 14:00","2015","01","30","14:00","-14.9","","-25.4","","41","","30","","21","","","","100.47","","","","-24","","NA"
"2015-01-30 15:00","2015","01","30","15:00","-13.9","","-26.1","","35","","31","","18","","","","100.46","","","","-22","","NA"
"2015-01-30 16:00","2015","01","30","16:00","-15.3","","-22.4","","54","","28","","23","","","","100.47","","","","-25","","NA"
"2015-01-30 17:00","2015","01","30","17:00","-15.6","","-22.6","","55","","28","","15","","","","100.47","","","","-24","","NA"
"2015-01-30 18:00","2015","01","30","18:00","-16.9","","-22.2","","63","","29","","9","","","","100.48","","","","-23","","NA"
"2015-01-30 19:00","2015","01","30","19:00","-17.3","","-22.7","","63","","31","","9","","","","100.51","","","","-24","","NA"
"2015-01-30 20:00","2015","01","30","20:00","-18.3","","-23.1","","66","","30","","7","","","","100.51","","","","-24","","NA"
"2015-01-30 21:00","2015","01","30","21:00","-17.4","","-22.8","","63","","30","","6","","","","100.47","","","","-22","","NA"
"2015-01-30 22:00","2015","01","30","22:00","-18.4","","-22.5","","70","","","","0","","","","100.43","","","","","","NA"
"2015-01-30 23:00","2015","01","30","23:00","-18.4","","-23.1","","67","","31","","7","","","","100.39","","","","-24","","NA"
"2015-01-31 00:00","2015","01","31","00:00","-18.1","","-23.0","","65","","30","","3","","","","100.37","","","","-21","","NA"
"2015-01-31 01:00","2015","01","31","01:00","-18.1","","-22.5","","68","","12","","4","","","","100.33","","","","-21","","NA"
"2015-01-31 02:00","2015","01","31","02:00","-18.2","","-22.1","","72","","3","","3","","","","100.28","","","","-21","","NA"
"2015-01-31 03:00","2015","01","31","03:00","-16.6","","-20.1","","74","","7","","8","","","","100.18","","","","-22","","NA"
"2015-01-31 04:00","2015","01","31","04:00","-16.2","","-18.9","","79","","1","","3","","","","100.14","","","","-18","","NA"
"2015-01-31 05:00","2015","01","31","05:00","-16.1","","-18.8","","80","","2","","3","","","","100.08","","","","-18","","NA"
"2015-01-31 06:00","2015","01","31","06:00","-16.4","","-19.8","","75","","3","","6","","","","100.02","","","","-21","","NA"
"2015-01-31 07:00","2015","01","31","07:00","-14.8","","-18.4","","74","","5","","5","","","","99.97","","","","-18","","NA"
"2015-01-31 08:00","2015","01","31","08:00","-14.5","","-17.9","","75","","6","","5","","","","99.94","","","","-18","","NA"
"2015-01-31 09:00","2015","01","31","09:00","-13.3","","-16.0","","80","","7","","10","","","","99.87","","","","-19","","NA"
"2015-01-31 10:00","2015","01","31","10:00","-12.0","","-14.1","","84","","8","","9","","","","99.84","","","","-17","","NA"
"2015-01-31 11:00","2015","01","31","11:00","-9.1","","-10.7","","88","","9","","6","","","","99.77","","","","-12","","NA"
"2015-01-31 12:00","2015","01","31","12:00","-6.1","","-8.0","","86","","19","","17","","","","99.69","","","","-12","","NA"
"2015-01-31 13:00","2015","01","31","13:00","-5.6","","-7.6","","86","","23","","10","","","","99.58","","","","-10","","NA"
"2015-01-31 14:00","2015","01","31","14:00","-5.3","","-7.6","","84","","19","","9","","","","99.48","","","","-9","","NA"
"2015-01-31 15:00","2015","01","31","15:00","-4.7","","-6.9","","85","","23","","3","","","","99.47","","","","-6","","NA"
"2015-01-31 16:00","2015","01","31","16:00","-4.3","","-6.6","","84","","28","","13","","","","99.45","","","","-9","","NA"
"2015-01-31 17:00","2015","01","31","17:00","-4.8","","-7.0","","84","","29","","9","","","","99.48","","","","-9","","NA"
"2015-01-31 18:00","2015","01","31","18:00","-4.9","","-7.3","","83","","28","","15","","","","99.56","","","","-10","","NA"
"2015-01-31 19:00","2015","01","31","19:00","-5.9","","-8.8","","80","","29","","16","","","","99.63","","","","-12","","NA"
"2015-01-31 20:00","2015","01","31","20:00","-7.6","","-9.8","","85","","29","","9","","","","99.68","","","","-12","","NA"
"2015-01-31 21:00","2015","01","31","21:00","-9.3","","-12.6","","77","","35","","19","","","","99.82","","","","-17","","NA"
"2015-01-31 22:00","2015","01","31","22:00","-12.0","","-16.6","","68","","36","","21","","","","99.91","","","","-21","","NA"
"2015-01-31 23:00","2015","01","31","23:00","-14.2","","-20.4","","59","","2","","16","","","","100.03","","","","-22","","NA"
