"Station Name","KILLARNEY (AUT)"
"Province","ONTARIO"
"Latitude","45.97"
"Longitude","-81.48"
"Elevation","196.30"
"Climate Identifier","605DJ25"
"WMO Identifier","71460"
"TC Identifier","WBE"
"All times are specified in Local Standard Time (LST). Add 1 hour to adjust for Daylight Saving Time where and when it is observed."

"Legend"
"E","Estimated"
"M","Missing"
"NA","Not Available"

"Date/Time","Year","Month","Day","Time","Temp (°C)","Temp Flag","Dew Point Temp (°C)","Dew Point Temp Flag","Rel Hum (%)","Rel Hum Flag","Wind Dir (10s deg)","Wind Dir Flag","Wind Spd (km/h)","Wind Spd Flag","Visibility (km)","Visibility Flag","Stn Press (kPa)","Stn Press Flag","Hmdx","Hmdx Flag","Wind Chill","Wind Chill Flag","Weather"
"2010-04-01 00:00","2010","04","01","00:00","6.0","","-0.2","","64","","7","","19","","","","98.88","","","","","","NA"
"2010-04-01 01:00","2010","04","01","01:00","5.7","","0.4","","69","","7","","19","","","","98.90","","","","","","NA"
"2010-04-01 02:00","2010","04","01","02:00","5.8","","0.4","","68","","8","","15","","","","98.89","","","","","","NA"
"2010-04-01 03:00","2010","04","01","03:00","5.7","","0.6","","70","","7","","15","","","","98.88","","","","","","NA"
"2010-04-01 04:00","2010","04","01","04:00","4.8","","0.9","","76","","8","","17","","","","98.86","","","","","","NA"
"2010-04-01 05:00","2010","04","01","05:00","5.1","","0.9","","74","","7","","13","","","","98.90","","","","","","NA"
"2010-04-01 06:00","2010","04","01","06:00","5.1","","0.8","","74","","8","","13","","","","98.94","","","","","","NA"
"2010-04-01 07:00","2010","04","01","07:00","5.2","","0.9","","74","","7","","13","","","","99.00","","","","","","NA"
"2010-04-01 08:00","2010","04","01","08:00","4.9","","0.9","","75","","8","","17","","","","99.00","","","","","","NA"
"2010-04-01 09:00","2010","04","01","09:00","5.1","","0.8","","74","","9","","17","","","","99.03","","","","","","NA"
"2010-04-01 10:00","2010","04","01","10:00","5.2","","0.5","","72","","8","","19","","","","99.03","","","","","","NA"
"2010-04-01 11:00","2010","04","01","11:00","4.9","","0.1","","71","","8","","17","","","","99.03","","","","","","NA"
"2010-04-01 12:00","2010","04","01","12:00","6.0","","0.1","","66","","8","","11","","","","99.05","","","","","","NA"
"2010-04-01 13:00","2010","04","01","13:00","5.5","","-0.7","","64","","10","","9","","","","98.99","","","","","","NA"
"2010-04-01 14:00","2010","04","01","14:00","6.0","","-0.6","","63","","11","","7","","","","98.96","","","","","","NA"
"2010-04-01 15:00","2010","04","01","15:00","7.6","","-0.7","","56","","12","","4","","","","98.91","","","","","","NA"
"2010-04-01 16:00","2010","04","01","16:00","9.0","","0.1","","54","","9","","13","","","","98.81","","","","","","NA"
"2010-04-01 17:00","2010","04","01","17:00","9.2","","0.0","","53","","9","","9","","","","98.83","","","","","","NA"
"2010-04-01 18:00","2010","04","01","18:00","10.7","","0.1","","48","","9","","9","","","","98.81","","","","","","NA"
"2010-04-01 19:00","2010","04","01","19:00","10.8","","1.0","","51","","8","","11","","","","98.76","","","","","","NA"
"2010-04-01 20:00","2010","04","01","20:00","13.2","","2.4","","48","","8","","11","","","","98.76","","","","","","NA"
"2010-04-01 21:00","2010","04","01","21:00","11.8","","2.2","","52","","9","","17","","","","98.75","","","","","","NA"
"2010-04-01 22:00","2010","04","01","22:00","10.8","","3.1","","59","","8","","17","","","","98.72","","","","","","NA"
"2010-04-01 23:00","2010","04","01","23:00","8.1","","3.1","","71","","7","","19","","","","98.74","","","","","","NA"
"2010-04-02 00:00","2010","04","02","00:00","8.7","","3.0","","67","","8","","19","","","","98.75","","","","","","NA"
"2010-04-02 01:00","2010","04","02","01:00","6.9","","2.9","","76","","9","","20","","","","98.73","","","","","","NA"
"2010-04-02 02:00","2010","04","02","02:00","7.3","","3.0","","74","","7","","22","","","","98.71","","","","","","NA"
"2010-04-02 03:00","2010","04","02","03:00","7.0","","3.0","","76","","7","","22","","","","98.71","","","","","","NA"
"2010-04-02 04:00","2010","04","02","04:00","7.3","","2.9","","74","","7","","19","","","","98.73","","","","","","NA"
"2010-04-02 05:00","2010","04","02","05:00","7.1","","2.9","","75","","8","","19","","","","98.75","","","","","","NA"
"2010-04-02 06:00","2010","04","02","06:00","6.7","","2.6","","75","","8","","19","","","","98.81","","","","","","NA"
"2010-04-02 07:00","2010","04","02","07:00","5.9","","2.4","","78","","8","","19","","","","98.81","","","","","","NA"
"2010-04-02 08:00","2010","04","02","08:00","5.1","","2.3","","82","","8","","15","","","","98.80","","","","","","NA"
"2010-04-02 09:00","2010","04","02","09:00","6.0","","2.6","","79","","8","","9","","","","98.85","","","","","","NA"
"2010-04-02 10:00","2010","04","02","10:00","5.8","","2.7","","80","","8","","13","","","","98.86","","","","","","NA"
"2010-04-02 11:00","2010","04","02","11:00","5.6","","2.8","","82","","8","","17","","","","98.86","","","","","","NA"
"2010-04-02 12:00","2010","04","02","12:00","7.2","","3.6","","78","","8","","19","","","","98.85","","","","","","NA"
"2010-04-02 13:00","2010","04","02","13:00","7.1","","3.2","","76","","9","","17","","","","98.87","","","","","","NA"
"2010-04-02 14:00","2010","04","02","14:00","7.0","","3.1","","76","","10","","17","","","","98.84","","","","","","NA"
"2010-04-02 15:00","2010","04","02","15:00","6.1","","3.3","","82","","8","","19","","","","98.84","","","","","","NA"
"2010-04-02 16:00","2010","04","02","16:00","8.4","","3.1","","69","","10","","17","","","","98.82","","","","","","NA"
"2010-04-02 17:00","2010","04","02","17:00","7.0","","3.3","","77","","9","","19","","","","98.79","","","","","","NA"
"2010-04-02 18:00","2010","04","02","18:00","8.5","","3.6","","71","","9","","17","","","","98.84","","","","","","NA"
"2010-04-02 19:00","2010","04","02","19:00","11.8","","3.6","","57","","6","","6","","","","98.82","","","","","","NA"
"2010-04-02 20:00","2010","04","02","20:00","13.3","","2.9","","49","","14","","11","","","","98.83","","","","","","NA"
"2010-04-02 21:00","2010","04","02","21:00","10.4","","2.6","","58","","13","","11","","","","98.82","","","","","","NA"
"2010-04-02 22:00","2010","04","02","22:00","9.2","","3.0","","65","","5","","4","","","","98.77","","","","","","NA"
"2010-04-02 23:00","2010","04","02","23:00","11.2","","3.2","","58","","11","","15","","","","98.72","","","","","","NA"
"2010-04-03 00:00","2010","04","03","00:00","11.4","","3.0","","56","","8","","15","","","","98.73","","","","","","NA"
"2010-04-03 01:00","2010","04","03","01:00","10.7","","2.6","","57","","8","","20","","","","98.71","","","","","","NA"
"2010-04-03 02:00","2010","04","03","02:00","9.6","","2.5","","61","","8","","19","","","","98.70","","","","","","NA"
"2010-04-03 03:00","2010","04","03","03:00","9.2","","2.5","","63","","8","","19","","","","98.65","","","","","","NA"
"2010-04-03 04:00","2010","04","03","04:00","9.5","","2.5","","62","","8","","19","","","","98.63","","","","","","NA"
"2010-04-03 05:00","2010","04","03","05:00","9.0","","2.4","","63","","8","","20","","","","98.59","","","","","","NA"
"2010-04-03 06:00","2010","04","03","06:00","9.7","","2.7","","62","","8","","20","","","","98.59","","","","","","NA"
"2010-04-03 07:00","2010","04","03","07:00","9.3","","2.3","","62","","7","","17","","","","98.53","","","","","","NA"
"2010-04-03 08:00","2010","04","03","08:00","8.6","","2.2","","64","","9","","19","","","","98.49","","","","","","NA"
"2010-04-03 09:00","2010","04","03","09:00","7.5","","1.9","","68","","9","","22","","","","98.45","","","","","","NA"
"2010-04-03 10:00","2010","04","03","10:00","8.7","","1.6","","61","","10","","13","","","","98.42","","","","","","NA"
"2010-04-03 11:00","2010","04","03","11:00","8.9","","1.6","","60","","10","","13","","","","98.37","","","","","","NA"
"2010-04-03 12:00","2010","04","03","12:00","7.6","","1.5","","65","","8","","24","","","","98.30","","","","","","NA"
"2010-04-03 13:00","2010","04","03","13:00","7.9","","1.8","","65","","8","","19","","","","98.23","","","","","","NA"
"2010-04-03 14:00","2010","04","03","14:00","8.0","","2.4","","68","","8","","20","","","","98.12","","","","","","NA"
"2010-04-03 15:00","2010","04","03","15:00","8.0","","2.7","","69","","8","","20","","","","97.94","","","","","","NA"
"2010-04-03 16:00","2010","04","03","16:00","8.9","","3.0","","66","","8","","17","","","","97.84","","","","","","NA"
"2010-04-03 17:00","2010","04","03","17:00","8.0","","2.4","","68","","15","","9","","","","97.94","","","","","","NA"
"2010-04-03 18:00","2010","04","03","18:00","9.7","","5.4","","75","","23","","32","","","","97.96","","","","","","NA"
"2010-04-03 19:00","2010","04","03","19:00","5.8","","4.4","","91","","18","","33","","","","97.92","","","","","","NA"
"2010-04-03 20:00","2010","04","03","20:00","7.8","","6.9","","94","","25","","24","","","","98.09","","","","","","NA"
"2010-04-03 21:00","2010","04","03","21:00","7.3","","5.4","","88","","26","","32","","","","98.41","","","","","","NA"
"2010-04-03 22:00","2010","04","03","22:00","7.0","","4.5","","84","","25","","28","","","","98.68","","","","","","NA"
"2010-04-03 23:00","2010","04","03","23:00","6.7","","4.8","","88","","26","","17","","","","98.84","","","","","","NA"
"2010-04-04 00:00","2010","04","04","00:00","5.7","","3.3","","85","","27","","19","","","","98.96","","","","","","NA"
"2010-04-04 01:00","2010","04","04","01:00","5.0","","3.1","","87","","26","","7","","","","99.08","","","","","","NA"
"2010-04-04 02:00","2010","04","04","02:00","4.0","","2.6","","91","","28","","6","","","","99.16","","","","","","NA"
"2010-04-04 03:00","2010","04","04","03:00","3.5","","2.5","","93","","13","","7","","","","99.25","","","","","","NA"
"2010-04-04 04:00","2010","04","04","04:00","3.3","","2.2","","92","","21","","7","","","","99.27","","","","","","NA"
"2010-04-04 05:00","2010","04","04","05:00","3.5","","2.6","","94","","14","","4","","","","99.28","","","","","","NA"
"2010-04-04 06:00","2010","04","04","06:00","3.9","","2.8","","93","","12","","2","","","","99.38","","","","","","NA"
"2010-04-04 07:00","2010","04","04","07:00","3.2","","2.0","","92","","8","","9","","","","99.45","","","","","","NA"
"2010-04-04 08:00","2010","04","04","08:00","3.7","","2.6","","93","","8","","9","","","","99.46","","","","","","NA"
"2010-04-04 09:00","2010","04","04","09:00","4.3","","2.1","","86","","9","","7","","","","99.49","","","","","","NA"
"2010-04-04 10:00","2010","04","04","10:00","4.5","","2.1","","84","","9","","7","","","","99.55","","","","","","NA"
"2010-04-04 11:00","2010","04","04","11:00","4.7","","2.2","","84","","8","","13","","","","99.54","","","","","","NA"
"2010-04-04 12:00","2010","04","04","12:00","5.4","","2.5","","82","","11","","11","","","","99.54","","","","","","NA"
"2010-04-04 13:00","2010","04","04","13:00","4.7","","1.7","","81","","12","","9","","","","99.50","","","","","","NA"
"2010-04-04 14:00","2010","04","04","14:00","5.8","","1.5","","74","","16","","11","","","","99.43","","","","","","NA"
"2010-04-04 15:00","2010","04","04","15:00","5.7","","1.2","","73","","12","","11","","","","99.34","","","","","","NA"
"2010-04-04 16:00","2010","04","04","16:00","5.4","","1.4","","75","","15","","13","","","","99.21","","","","","","NA"
"2010-04-04 17:00","2010","04","04","17:00","6.5","","0.7","","66","","10","","9","","","","99.13","","","","","","NA"
"2010-04-04 18:00","2010","04","04","18:00","6.8","","0.3","","63","","13","","11","","","","99.06","","","","","","NA"
"2010-04-04 19:00","2010","04","04","19:00","8.0","","-0.8","","54","","11","","22","","","","99.03","","","","","","NA"
"2010-04-04 20:00","2010","04","04","20:00","5.7","","0.4","","69","","10","","15","","","","98.91","","","","","","NA"
"2010-04-04 21:00","2010","04","04","21:00","5.7","","0.5","","69","","23","","6","","","","98.84","","","","","","NA"
"2010-04-04 22:00","2010","04","04","22:00","6.4","","0.3","","65","","21","","22","","","","98.78","","","","","","NA"
"2010-04-04 23:00","2010","04","04","23:00","9.3","","2.4","","62","","32","","11","","","","98.70","","","","","","NA"
"2010-04-05 00:00","2010","04","05","00:00","11.9","","3.2","","55","","19","","20","","","","98.68","","","","","","NA"
"2010-04-05 01:00","2010","04","05","01:00","11.0","","2.8","","57","","28","","15","","","","98.66","","","","","","NA"
"2010-04-05 02:00","2010","04","05","02:00","10.1","","3.1","","62","","27","","22","","","","98.63","","","","","","NA"
"2010-04-05 03:00","2010","04","05","03:00","9.7","","4.0","","68","","28","","19","","","","98.61","","","","","","NA"
"2010-04-05 04:00","2010","04","05","04:00","7.6","","2.5","","70","","27","","6","","","","98.62","","","","","","NA"
"2010-04-05 05:00","2010","04","05","05:00","8.2","","4.7","","79","","3","","4","","","","98.55","","","","","","NA"
"2010-04-05 06:00","2010","04","05","06:00","5.7","","4.1","","89","","19","","11","","","","98.62","","","","","","NA"
"2010-04-05 07:00","2010","04","05","07:00","5.9","","4.9","","93","","25","","4","","","","98.64","","","","","","NA"
"2010-04-05 08:00","2010","04","05","08:00","6.7","","3.9","","82","","9","","4","","","","98.65","","","","","","NA"
"2010-04-05 09:00","2010","04","05","09:00","5.6","","3.8","","88","","13","","6","","","","98.63","","","","","","NA"
"2010-04-05 10:00","2010","04","05","10:00","7.1","","4.3","","82","","18","","6","","","","98.60","","","","","","NA"
"2010-04-05 11:00","2010","04","05","11:00","7.4","","5.3","","87","","18","","9","","","","98.57","","","","","","NA"
"2010-04-05 12:00","2010","04","05","12:00","13.4","","8.2","","71","","22","","15","","","","98.59","","","","","","NA"
"2010-04-05 13:00","2010","04","05","13:00","12.3","","5.9","","65","","28","","33","","","","98.64","","","","","","NA"
"2010-04-05 14:00","2010","04","05","14:00","12.3","","5.2","","62","","28","","32","","","","98.73","","","","","","NA"
"2010-04-05 15:00","2010","04","05","15:00","11.7","","4.4","","61","","28","","44","","","","98.84","","","","","","NA"
"2010-04-05 16:00","2010","04","05","16:00","12.3","","3.2","","54","","28","","43","","","","98.85","","","","","","NA"
"2010-04-05 17:00","2010","04","05","17:00","12.8","","2.6","","50","","28","","37","","","","98.91","","","","","","NA"
"2010-04-05 18:00","2010","04","05","18:00","11.5","","3.3","","57","","28","","26","","","","98.94","","","","","","NA"
"2010-04-05 19:00","2010","04","05","19:00","11.0","","3.1","","58","","28","","19","","","","98.96","","","","","","NA"
"2010-04-05 20:00","2010","04","05","20:00","10.1","","0.8","","52","","28","","17","","","","99.07","","","","","","NA"
"2010-04-05 21:00","2010","04","05","21:00","9.5","","-1.7","","45","","28","","13","","","","99.06","","","","","","NA"
"2010-04-05 22:00","2010","04","05","22:00","9.2","","-2.1","","45","","28","","11","","","","99.02","","","","","","NA"
"2010-04-05 23:00","2010","04","05","23:00","9.0","","-2.0","","46","","32","","9","","","","98.95","","","","","","NA"
"2010-04-06 00:00","2010","04","06","00:00","7.6","","-0.4","","57","","7","","6","","","","98.96","","","","","","NA"
"2010-04-06 01:00","2010","04","06","01:00","6.3","","2.0","","74","","24","","6","","","","99.02","","","","","","NA"
"2010-04-06 02:00","2010","04","06","02:00","5.9","","2.1","","77","","22","","6","","","","99.01","","","","","","NA"
"2010-04-06 03:00","2010","04","06","03:00","7.8","","2.5","","69","","32","","2","","","","98.94","","","","","","NA"
"2010-04-06 04:00","2010","04","06","04:00","7.8","","2.5","","69","","31","","7","","","","98.96","","","","","","NA"
"2010-04-06 05:00","2010","04","06","05:00","7.6","","3.1","","73","","36","","4","","","","98.81","","","","","","NA"
"2010-04-06 06:00","2010","04","06","06:00","5.9","","2.8","","80","","8","","4","","","","98.69","","","","","","NA"
"2010-04-06 07:00","2010","04","06","07:00","6.0","","2.6","","79","","9","","2","","","","98.70","","","","","","NA"
"2010-04-06 08:00","2010","04","06","08:00","6.3","","2.9","","79","","","","0","","","","98.76","","","","","","NA"
"2010-04-06 09:00","2010","04","06","09:00","5.5","","3.0","","84","","11","","6","","","","98.73","","","","","","NA"
"2010-04-06 10:00","2010","04","06","10:00","5.5","","3.6","","88","","12","","2","","","","98.78","","","","","","NA"
"2010-04-06 11:00","2010","04","06","11:00","5.0","","2.8","","86","","9","","9","","","","98.71","","","","","","NA"
"2010-04-06 12:00","2010","04","06","12:00","5.4","","2.9","","84","","9","","11","","","","98.60","","","","","","NA"
"2010-04-06 13:00","2010","04","06","13:00","5.0","","3.1","","87","","11","","17","","","","98.53","","","","","","NA"
"2010-04-06 14:00","2010","04","06","14:00","5.4","","4.5","","94","","8","","13","","","","98.45","","","","","","NA"
"2010-04-06 15:00","2010","04","06","15:00","5.8","","5.0","","95","","8","","7","","","","98.40","","","","","","NA"
"2010-04-06 16:00","2010","04","06","16:00","5.9","","5.2","","95","","8","","9","","","","98.34","","","","","","NA"
"2010-04-06 17:00","2010","04","06","17:00","6.7","","6.0","","95","","2","","4","","","","98.33","","","","","","NA"
"2010-04-06 18:00","2010","04","06","18:00","7.5","","6.9","","96","","5","","7","","","","98.22","","","","","","NA"
"2010-04-06 19:00","2010","04","06","19:00","7.7","","7.1","","96","","4","","9","","","","98.08","","","","","","NA"
"2010-04-06 20:00","2010","04","06","20:00","7.8","","7.1","","95","","1","","7","","","","98.24","","","","","","NA"
"2010-04-06 21:00","2010","04","06","21:00","7.7","","7.0","","95","","4","","4","","","","98.18","","","","","","NA"
"2010-04-06 22:00","2010","04","06","22:00","7.2","","6.6","","96","","8","","13","","","","98.05","","","","","","NA"
"2010-04-06 23:00","2010","04","06","23:00","7.8","","7.1","","95","","36","","11","","","","98.12","","","","","","NA"
"2010-04-07 00:00","2010","04","07","00:00","7.7","","6.8","","94","","3","","2","","","","98.07","","","","","","NA"
"2010-04-07 01:00","2010","04","07","01:00","7.7","","6.9","","95","","2","","7","","","","98.03","","","","","","NA"
"2010-04-07 02:00","2010","04","07","02:00","7.6","","6.8","","95","","1","","9","","","","97.89","","","","","","NA"
"2010-04-07 03:00","2010","04","07","03:00","7.3","","6.6","","95","","3","","6","","","","97.81","","","","","","NA"
"2010-04-07 04:00","2010","04","07","04:00","7.3","","6.5","","95","","3","","6","","","","97.88","","","","","","NA"
"2010-04-07 05:00","2010","04","07","05:00","7.3","","6.6","","95","","29","","6","","","","97.96","","","","","","NA"
"2010-04-07 06:00","2010","04","07","06:00","7.3","","6.6","","95","","36","","6","","","","98.00","","","","","","NA"
"2010-04-07 07:00","2010","04","07","07:00","7.7","","6.9","","95","","32","","11","","","","98.10","","","","","","NA"
"2010-04-07 08:00","2010","04","07","08:00","8.4","","6.8","","90","","36","","7","","","","98.18","","","","","","NA"
"2010-04-07 09:00","2010","04","07","09:00","7.8","","5.2","","84","","2","","13","","","","98.28","","","","","","NA"
"2010-04-07 10:00","2010","04","07","10:00","6.9","","2.9","","76","","3","","15","","","","98.39","","","","","","NA"
"2010-04-07 11:00","2010","04","07","11:00","7.2","","2.1","","70","","1","","13","","","","98.46","","","","","","NA"
"2010-04-07 12:00","2010","04","07","12:00","7.3","","-0.5","","58","","2","","17","","","","98.46","","","","","","NA"
"2010-04-07 13:00","2010","04","07","13:00","8.3","","-1.2","","51","","5","","15","","","","98.49","","","","","","NA"
"2010-04-07 14:00","2010","04","07","14:00","8.8","","-1.8","","47","","4","","13","","","","98.52","","","","","","NA"
"2010-04-07 15:00","2010","04","07","15:00","8.8","","-2.8","","44","","5","","15","","","","98.54","","","","","","NA"
"2010-04-07 16:00","2010","04","07","16:00","9.2","","-3.0","","42","","5","","9","","","","98.55","","","","","","NA"
"2010-04-07 17:00","2010","04","07","17:00","9.5","","-4.1","","38","","4","","17","","","","98.56","","","","","","NA"
"2010-04-07 18:00","2010","04","07","18:00","9.4","","-4.4","","37","","7","","15","","","","98.59","","","","","","NA"
"2010-04-07 19:00","2010","04","07","19:00","8.9","","-3.8","","40","","7","","9","","","","98.68","","","","","","NA"
"2010-04-07 20:00","2010","04","07","20:00","8.6","","-3.6","","42","","6","","13","","","","98.62","","","","","","NA"
"2010-04-07 21:00","2010","04","07","21:00","8.3","","-4.7","","39","","7","","20","","","","98.63","","","","","","NA"
"2010-04-07 22:00","2010","04","07","22:00","7.5","","-5.1","","40","","6","","24","","","","98.56","","","","","","NA"
"2010-04-07 23:00","2010","04","07","23:00","6.4","","-5.6","","42","","6","","26","","","","98.54","","","","","","NA"
"2010-04-08 00:00","2010","04","08","00:00","3.9","","-4.1","","56","","6","","20","","","","98.57","","","","","","NA"
"2010-04-08 01:00","2010","04","08","01:00","2.6","","-3.3","","65","","5","","19","","","","98.52","","","","","","NA"
"2010-04-08 02:00","2010","04","08","02:00","0.7","","-1.7","","84","","5","","24","","","","98.40","","","","","","NA"
"2010-04-08 03:00","2010","04","08","03:00","0.0","","-2.1","","86","","3","","22","","","","98.36","","","","-6","","NA"
"2010-04-08 04:00","2010","04","08","04:00","-0.2","","-1.9","","88","","5","","17","","","","98.28","","","","-5","","NA"
"2010-04-08 05:00","2010","04","08","05:00","-0.6","","-2.6","","86","","6","","13","","","","98.28","","","","-5","","NA"
"2010-04-08 06:00","2010","04","08","06:00","-0.8","","-2.7","","87","","7","","17","","","","98.18","","","","-6","","NA"
"2010-04-08 07:00","2010","04","08","07:00","-1.2","","-2.5","","91","","5","","13","","","","98.11","","","","-5","","NA"
"2010-04-08 08:00","2010","04","08","08:00","-1.0","","-2.7","","88","","6","","11","","","","97.99","","","","-5","","NA"
"2010-04-08 09:00","2010","04","08","09:00","-0.9","","-2.3","","90","","5","","11","","","","97.85","","","","-5","","NA"
"2010-04-08 10:00","2010","04","08","10:00","-0.5","","-1.7","","92","","6","","7","","","","97.81","","","","-3","","NA"
"2010-04-08 11:00","2010","04","08","11:00","-0.4","","-1.9","","90","","6","","7","","","","97.68","","","","-3","","NA"
"2010-04-08 12:00","2010","04","08","12:00","-0.2","","-1.7","","90","","6","","7","","","","97.60","","","","-3","","NA"
"2010-04-08 13:00","2010","04","08","13:00","0.2","","-1.0","","92","","6","","7","","","","97.41","","","","","","NA"
"2010-04-08 14:00","2010","04","08","14:00","0.5","","-0.8","","91","","7","","30","","","","97.51","","","","","","NA"
"2010-04-08 15:00","2010","04","08","15:00","0.8","","-0.2","","93","","7","","20","","","","97.42","","","","","","NA"
"2010-04-08 16:00","2010","04","08","16:00","1.0","","0.0","","93","","7","","28","","","","97.47","","","","","","NA"
"2010-04-08 17:00","2010","04","08","17:00","1.1","","0.3","","94","","6","","17","","","","97.47","","","","","","NA"
"2010-04-08 18:00","2010","04","08","18:00","1.1","","0.4","","95","","6","","17","","","","97.45","","","","","","NA"
"2010-04-08 19:00","2010","04","08","19:00","1.1","","0.5","","96","","1","","7","","","","97.53","","","","","","NA"
"2010-04-08 20:00","2010","04","08","20:00","1.0","","0.5","","96","","34","","9","","","","97.57","","","","","","NA"
"2010-04-08 21:00","2010","04","08","21:00","1.0","","0.5","","96","","32","","11","","","","97.62","","","","","","NA"
"2010-04-08 22:00","2010","04","08","22:00","0.4","","-0.2","","96","","29","","17","","","","97.67","","","","","","NA"
"2010-04-08 23:00","2010","04","08","23:00","-0.1","","-1.3","","92","","28","","22","","","","97.73","","","","-6","","NA"
"2010-04-09 00:00","2010","04","09","00:00","-0.7","","-2.2","","90","","28","","20","","","","97.79","","","","-6","","NA"
"2010-04-09 01:00","2010","04","09","01:00","-1.2","","-2.4","","92","","28","","22","","","","97.84","","","","-7","","NA"
"2010-04-09 02:00","2010","04","09","02:00","-1.3","","-3.5","","85","","28","","19","","","","97.88","","","","-7","","NA"
"2010-04-09 03:00","2010","04","09","03:00","-1.2","","-4.4","","79","","28","","20","","","","97.94","","","","-7","","NA"
"2010-04-09 04:00","2010","04","09","04:00","-1.0","","-4.2","","79","","28","","22","","","","97.99","","","","-7","","NA"
"2010-04-09 05:00","2010","04","09","05:00","-1.3","","-4.2","","81","","29","","22","","","","98.04","","","","-7","","NA"
"2010-04-09 06:00","2010","04","09","06:00","-1.3","","-4.0","","82","","29","","22","","","","98.09","","","","-7","","NA"
"2010-04-09 07:00","2010","04","09","07:00","-1.6","","-4.7","","79","","30","","19","","","","98.17","","","","-7","","NA"
"2010-04-09 08:00","2010","04","09","08:00","-1.5","","-4.6","","79","","30","","15","","","","98.26","","","","-6","","NA"
"2010-04-09 09:00","2010","04","09","09:00","-1.8","","-4.1","","84","","30","","20","","","","98.30","","","","-8","","NA"
"2010-04-09 10:00","2010","04","09","10:00","-1.5","","-4.5","","80","","29","","20","","","","98.38","","","","-7","","NA"
"2010-04-09 11:00","2010","04","09","11:00","-0.6","","-4.4","","75","","29","","22","","","","98.44","","","","-6","","NA"
"2010-04-09 12:00","2010","04","09","12:00","0.0","","-3.4","","78","","28","","26","","","","98.47","","","","-6","","NA"
"2010-04-09 13:00","2010","04","09","13:00","1.3","","-4.3","","66","","28","","28","","","","98.50","","","","","","NA"
"2010-04-09 14:00","2010","04","09","14:00","1.8","","-4.4","","63","","30","","20","","","","98.56","","","","","","NA"
"2010-04-09 15:00","2010","04","09","15:00","2.2","","-4.9","","59","","29","","24","","","","98.62","","","","","","NA"
"2010-04-09 16:00","2010","04","09","16:00","2.7","","-5.0","","57","","29","","20","","","","98.72","","","","","","NA"
"2010-04-09 17:00","2010","04","09","17:00","2.9","","-4.9","","56","","32","","19","","","","98.84","","","","","","NA"
"2010-04-09 18:00","2010","04","09","18:00","2.9","","-4.8","","57","","32","","17","","","","98.93","","","","","","NA"
"2010-04-09 19:00","2010","04","09","19:00","2.3","","-3.7","","64","","30","","13","","","","99.05","","","","","","NA"
"2010-04-09 20:00","2010","04","09","20:00","2.6","","-3.9","","62","","30","","19","","","","99.17","","","","","","NA"
"2010-04-09 21:00","2010","04","09","21:00","2.5","","-4.3","","61","","30","","17","","","","99.26","","","","","","NA"
"2010-04-09 22:00","2010","04","09","22:00","1.9","","-4.2","","64","","30","","17","","","","99.32","","","","","","NA"
"2010-04-09 23:00","2010","04","09","23:00","1.5","","-4.0","","67","","29","","11","","","","99.38","","","","","","NA"
"2010-04-10 00:00","2010","04","10","00:00","1.6","","-3.5","","69","","28","","17","","","","99.46","","","","","","NA"
"2010-04-10 01:00","2010","04","10","01:00","1.4","","-2.7","","74","","28","","17","","","","99.53","","","","","","NA"
"2010-04-10 02:00","2010","04","10","02:00","1.4","","-2.8","","74","","29","","19","","","","99.54","","","","","","NA"
"2010-04-10 03:00","2010","04","10","03:00","1.1","","-2.1","","79","","27","","19","","","","99.57","","","","","","NA"
"2010-04-10 04:00","2010","04","10","04:00","1.0","","-1.9","","81","","29","","17","","","","99.65","","","","","","NA"
"2010-04-10 05:00","2010","04","10","05:00","0.8","","-2.3","","80","","29","","15","","","","99.71","","","","","","NA"
"2010-04-10 06:00","2010","04","10","06:00","0.8","","-2.0","","82","","28","","17","","","","99.76","","","","","","NA"
"2010-04-10 07:00","2010","04","10","07:00","1.5","","-1.2","","82","","30","","20","","","","99.86","","","","","","NA"
"2010-04-10 08:00","2010","04","10","08:00","2.5","","-1.8","","73","","28","","20","","","","99.89","","","","","","NA"
"2010-04-10 09:00","2010","04","10","09:00","3.2","","-2.5","","66","","30","","15","","","","99.88","","","","","","NA"
"2010-04-10 10:00","2010","04","10","10:00","3.6","","-2.3","","65","","26","","17","","","","99.85","","","","","","NA"
"2010-04-10 11:00","2010","04","10","11:00","3.6","","-1.0","","72","","19","","13","","","","99.85","","","","","","NA"
"2010-04-10 12:00","2010","04","10","12:00","3.3","","-2.5","","66","","23","","24","","","","99.78","","","","","","NA"
"2010-04-10 13:00","2010","04","10","13:00","2.8","","-1.0","","76","","18","","20","","","","99.69","","","","","","NA"
"2010-04-10 14:00","2010","04","10","14:00","2.5","","-1.2","","77","","17","","22","","","","99.55","","","","","","NA"
"2010-04-10 15:00","2010","04","10","15:00","2.8","","-1.0","","76","","19","","19","","","","99.50","","","","","","NA"
"2010-04-10 16:00","2010","04","10","16:00","3.0","","-0.7","","77","","13","","13","","","","99.50","","","","","","NA"
"2010-04-10 17:00","2010","04","10","17:00","3.2","","-0.6","","76","","11","","11","","","","99.44","","","","","","NA"
"2010-04-10 18:00","2010","04","10","18:00","3.6","","-0.6","","74","","9","","15","","","","99.44","","","","","","NA"
"2010-04-10 19:00","2010","04","10","19:00","3.6","","-0.5","","75","","10","","19","","","","99.37","","","","","","NA"
"2010-04-10 20:00","2010","04","10","20:00","2.4","","-1.6","","75","","34","","7","","","","99.49","","","","","","NA"
"2010-04-10 21:00","2010","04","10","21:00","2.8","","-1.2","","75","","31","","7","","","","99.56","","","","","","NA"
"2010-04-10 22:00","2010","04","10","22:00","2.5","","-0.6","","80","","31","","11","","","","99.59","","","","","","NA"
"2010-04-10 23:00","2010","04","10","23:00","2.1","","-0.7","","82","","29","","9","","","","99.63","","","","","","NA"
"2010-04-11 00:00","2010","04","11","00:00","2.5","","-0.2","","82","","27","","11","","","","99.74","","","","","","NA"
"2010-04-11 01:00","2010","04","11","01:00","1.8","","0.0","","88","","28","","11","","","","99.79","","","","","","NA"
"2010-04-11 02:00","2010","04","11","02:00","1.6","","0.5","","92","","27","","11","","","","99.84","","","","","","NA"
"2010-04-11 03:00","2010","04","11","03:00","2.0","","0.9","","92","","28","","17","","","","99.85","","","","","","NA"
"2010-04-11 04:00","2010","04","11","04:00","1.9","","0.3","","89","","31","","19","","","","99.88","","","","","","NA"
"2010-04-11 05:00","2010","04","11","05:00","1.4","","-0.4","","88","","32","","6","","","","99.96","","","","","","NA"
"2010-04-11 06:00","2010","04","11","06:00","1.1","","-0.4","","90","","27","","2","","","","100.01","","","","","","NA"
"2010-04-11 07:00","2010","04","11","07:00","2.0","","0.9","","92","","28","","7","","","","100.11","","","","","","NA"
"2010-04-11 08:00","2010","04","11","08:00","2.4","","0.8","","89","","24","","13","","","","100.16","","","","","","NA"
"2010-04-11 09:00","2010","04","11","09:00","3.5","","0.9","","83","","28","","15","","","","100.20","","","","","","NA"
"2010-04-11 10:00","2010","04","11","10:00","3.4","","0.6","","82","","23","","19","","","","100.15","","","","","","NA"
"2010-04-11 11:00","2010","04","11","11:00","5.0","","1.0","","75","","25","","7","","","","100.23","","","","","","NA"
"2010-04-11 12:00","2010","04","11","12:00","6.4","","-0.7","","60","","29","","20","","","","100.17","","","","","","NA"
"2010-04-11 13:00","2010","04","11","13:00","8.2","","-2.3","","47","","29","","19","","","","100.15","","","","","","NA"
"2010-04-11 14:00","2010","04","11","14:00","8.1","","-1.4","","51","","27","","24","","","","100.12","","","","","","NA"
"2010-04-11 15:00","2010","04","11","15:00","9.2","","-1.9","","46","","29","","17","","","","100.13","","","","","","NA"
"2010-04-11 16:00","2010","04","11","16:00","10.0","","-1.6","","44","","28","","20","","","","100.12","","","","","","NA"
"2010-04-11 17:00","2010","04","11","17:00","10.3","","-5.3","","33","","27","","26","","","","100.13","","","","","","NA"
"2010-04-11 18:00","2010","04","11","18:00","9.3","","-3.0","","42","","30","","15","","","","100.20","","","","","","NA"
"2010-04-11 19:00","2010","04","11","19:00","8.5","","-2.5","","46","","29","","6","","","","100.24","","","","","","NA"
"2010-04-11 20:00","2010","04","11","20:00","7.3","","-2.7","","49","","28","","7","","","","100.33","","","","","","NA"
"2010-04-11 21:00","2010","04","11","21:00","6.8","","-3.7","","47","","33","","7","","","","100.41","","","","","","NA"
"2010-04-11 22:00","2010","04","11","22:00","7.3","","-5.5","","40","","34","","7","","","","100.44","","","","","","NA"
"2010-04-11 23:00","2010","04","11","23:00","6.7","","-6.1","","40","","35","","6","","","","100.46","","","","","","NA"
"2010-04-12 00:00","2010","04","12","00:00","6.0","","-5.9","","42","","34","","7","","","","100.52","","","","","","NA"
"2010-04-12 01:00","2010","04","12","01:00","5.1","","-7.0","","41","","1","","11","","","","100.58","","","","","","NA"
"2010-04-12 02:00","2010","04","12","02:00","3.9","","-7.0","","45","","6","","9","","","","100.62","","","","","","NA"
"2010-04-12 03:00","2010","04","12","03:00","3.5","","-7.4","","45","","5","","9","","","","100.66","","","","","","NA"
"2010-04-12 04:00","2010","04","12","04:00","2.8","","-6.8","","49","","4","","7","","","","100.72","","","","","","NA"
"2010-04-12 05:00","2010","04","12","05:00","2.6","","-6.9","","50","","2","","6","","","","100.79","","","","","","NA"
"2010-04-12 06:00","2010","04","12","06:00","2.5","","-6.4","","52","","29","","4","","","","100.86","","","","","","NA"
"2010-04-12 07:00","2010","04","12","07:00","3.7","","-3.6","","59","","17","","2","","","","100.92","","","","","","NA"
"2010-04-12 08:00","2010","04","12","08:00","3.5","","-4.7","","55","","11","","7","","","","100.98","","","","","","NA"
"2010-04-12 09:00","2010","04","12","09:00","4.0","","-5.0","","52","","19","","7","","","","101.03","","","","","","NA"
"2010-04-12 10:00","2010","04","12","10:00","3.6","","-1.9","","67","","20","","11","","","","101.08","","","","","","NA"
"2010-04-12 11:00","2010","04","12","11:00","4.1","","-1.9","","65","","18","","15","","","","101.04","","","","","","NA"
"2010-04-12 12:00","2010","04","12","12:00","3.6","","-1.7","","68","","20","","13","","","","100.99","","","","","","NA"
"2010-04-12 13:00","2010","04","12","13:00","4.4","","-1.9","","64","","20","","15","","","","100.94","","","","","","NA"
"2010-04-12 14:00","2010","04","12","14:00","3.7","","-1.4","","69","","21","","15","","","","100.91","","","","","","NA"
"2010-04-12 15:00","2010","04","12","15:00","3.6","","-0.7","","73","","21","","13","","","","100.87","","","","","","NA"
"2010-04-12 16:00","2010","04","12","16:00","3.8","","-2.0","","66","","22","","13","","","","100.86","","","","","","NA"
"2010-04-12 17:00","2010","04","12","17:00","4.3","","-2.1","","63","","23","","11","","","","100.85","","","","","","NA"
"2010-04-12 18:00","2010","04","12","18:00","5.3","","-2.5","","57","","18","","4","","","","100.84","","","","","","NA"
"2010-04-12 19:00","2010","04","12","19:00","7.0","","-2.8","","50","","28","","7","","","","100.83","","","","","","NA"
"2010-04-12 20:00","2010","04","12","20:00","6.8","","-2.6","","51","","30","","9","","","","100.83","","","","","","NA"
"2010-04-12 21:00","2010","04","12","21:00","6.2","","-1.6","","57","","27","","7","","","","100.85","","","","","","NA"
"2010-04-12 22:00","2010","04","12","22:00","7.6","","-2.9","","47","","30","","11","","","","100.83","","","","","","NA"
"2010-04-12 23:00","2010","04","12","23:00","7.4","","-1.1","","55","","29","","11","","","","100.85","","","","","","NA"
"2010-04-13 00:00","2010","04","13","00:00","6.8","","-0.7","","59","","30","","9","","","","100.88","","","","","","NA"
"2010-04-13 01:00","2010","04","13","01:00","5.9","","-0.2","","65","","26","","6","","","","100.91","","","","","","NA"
"2010-04-13 02:00","2010","04","13","02:00","5.2","","0.0","","69","","28","","9","","","","100.93","","","","","","NA"
"2010-04-13 03:00","2010","04","13","03:00","5.0","","-0.6","","67","","33","","6","","","","100.91","","","","","","NA"
"2010-04-13 04:00","2010","04","13","04:00","4.9","","-1.0","","66","","32","","7","","","","100.92","","","","","","NA"
"2010-04-13 05:00","2010","04","13","05:00","5.0","","-1.2","","64","","29","","11","","","","100.93","","","","","","NA"
"2010-04-13 06:00","2010","04","13","06:00","3.7","","0.0","","77","","8","","9","","","","100.96","","","","","","NA"
"2010-04-13 07:00","2010","04","13","07:00","4.7","","0.8","","76","","15","","2","","","","101.04","","","","","","NA"
"2010-04-13 08:00","2010","04","13","08:00","4.4","","0.7","","77","","21","","7","","","","101.15","","","","","","NA"
"2010-04-13 09:00","2010","04","13","09:00","5.8","","-2.6","","55","","13","","4","","","","101.16","","","","","","NA"
"2010-04-13 10:00","2010","04","13","10:00","6.0","","-3.5","","50","","22","","13","","","","101.20","","","","","","NA"
"2010-04-13 11:00","2010","04","13","11:00","6.3","","-0.9","","60","","18","","6","","","","101.19","","","","","","NA"
"2010-04-13 12:00","2010","04","13","12:00","6.1","","-1.9","","56","","19","","7","","","","101.14","","","","","","NA"
"2010-04-13 13:00","2010","04","13","13:00","6.1","","-2.2","","55","","21","","13","","","","101.12","","","","","","NA"
"2010-04-13 14:00","2010","04","13","14:00","7.2","","-6.7","","36","","22","","17","","","","101.11","","","","","","NA"
"2010-04-13 15:00","2010","04","13","15:00","7.2","","-6.2","","38","","21","","17","","","","101.08","","","","","","NA"
"2010-04-13 16:00","2010","04","13","16:00","7.2","","-3.8","","45","","21","","15","","","","101.06","","","","","","NA"
"2010-04-13 17:00","2010","04","13","17:00","7.7","","-4.3","","42","","21","","13","","","","101.06","","","","","","NA"
"2010-04-13 18:00","2010","04","13","18:00","9.7","","-10.0","","24","","23","","15","","","","101.04","","","","","","NA"
"2010-04-13 19:00","2010","04","13","19:00","9.1","","-6.7","","32","","29","","6","","","","101.03","","","","","","NA"
"2010-04-13 20:00","2010","04","13","20:00","8.2","","-4.2","","41","","31","","9","","","","101.10","","","","","","NA"
"2010-04-13 21:00","2010","04","13","21:00","7.8","","-4.1","","43","","32","","11","","","","101.10","","","","","","NA"
"2010-04-13 22:00","2010","04","13","22:00","7.4","","-2.9","","48","","34","","7","","","","101.07","","","","","","NA"
"2010-04-13 23:00","2010","04","13","23:00","6.4","","-2.1","","54","","30","","4","","","","101.05","","","","","","NA"
"2010-04-14 00:00","2010","04","14","00:00","6.0","","-2.2","","56","","30","","4","","","","101.08","","","","","","NA"
"2010-04-14 01:00","2010","04","14","01:00","5.9","","-2.1","","56","","6","","6","","","","101.11","","","","","","NA"
"2010-04-14 02:00","2010","04","14","02:00","4.4","","1.3","","80","","18","","2","","","","101.12","","","","","","NA"
"2010-04-14 03:00","2010","04","14","03:00","5.2","","-1.5","","62","","","","0","","","","101.13","","","","","","NA"
"2010-04-14 04:00","2010","04","14","04:00","3.3","","-0.3","","77","","7","","2","","","","101.17","","","","","","NA"
"2010-04-14 05:00","2010","04","14","05:00","3.1","","0.4","","82","","9","","2","","","","101.18","","","","","","NA"
"2010-04-14 06:00","2010","04","14","06:00","2.6","","1.3","","91","","6","","6","","","","101.22","","","","","","NA"
"2010-04-14 07:00","2010","04","14","07:00","4.7","","0.1","","72","","3","","6","","","","101.26","","","","","","NA"
"2010-04-14 08:00","2010","04","14","08:00","6.9","","-1.3","","56","","8","","6","","","","101.26","","","","","","NA"
"2010-04-14 09:00","2010","04","14","09:00","6.9","","-1.7","","54","","8","","9","","","","101.24","","","","","","NA"
"2010-04-14 10:00","2010","04","14","10:00","7.8","","-1.9","","50","","8","","7","","","","101.23","","","","","","NA"
"2010-04-14 11:00","2010","04","14","11:00","8.7","","-3.4","","42","","8","","6","","","","101.19","","","","","","NA"
"2010-04-14 12:00","2010","04","14","12:00","7.0","","-3.7","","46","","11","","9","","","","101.12","","","","","","NA"
"2010-04-14 13:00","2010","04","14","13:00","6.7","","-3.6","","48","","11","","6","","","","101.03","","","","","","NA"
"2010-04-14 14:00","2010","04","14","14:00","7.0","","-2.4","","51","","14","","4","","","","100.99","","","","","","NA"
"2010-04-14 15:00","2010","04","14","15:00","6.2","","-2.1","","55","","8","","7","","","","100.87","","","","","","NA"
"2010-04-14 16:00","2010","04","14","16:00","6.7","","-0.7","","59","","8","","6","","","","100.80","","","","","","NA"
"2010-04-14 17:00","2010","04","14","17:00","6.6","","-0.5","","60","","9","","6","","","","100.71","","","","","","NA"
"2010-04-14 18:00","2010","04","14","18:00","7.2","","-3.5","","46","","11","","4","","","","100.65","","","","","","NA"
"2010-04-14 19:00","2010","04","14","19:00","6.3","","-3.1","","51","","9","","4","","","","100.56","","","","","","NA"
"2010-04-14 20:00","2010","04","14","20:00","5.9","","-2.7","","54","","10","","4","","","","100.51","","","","","","NA"
"2010-04-14 21:00","2010","04","14","21:00","5.7","","-1.9","","58","","7","","7","","","","100.45","","","","","","NA"
"2010-04-14 22:00","2010","04","14","22:00","5.8","","-2.9","","54","","7","","7","","","","100.41","","","","","","NA"
"2010-04-14 23:00","2010","04","14","23:00","6.3","","-5.7","","42","","7","","7","","","","100.38","","","","","","NA"
"2010-04-15 00:00","2010","04","15","00:00","6.8","","-5.9","","40","","8","","11","","","","100.36","","","","","","NA"
"2010-04-15 01:00","2010","04","15","01:00","7.2","","-6.2","","38","","8","","7","","","","100.31","","","","","","NA"
"2010-04-15 02:00","2010","04","15","02:00","6.7","","-3.8","","47","","10","","11","","","","100.26","","","","","","NA"
"2010-04-15 03:00","2010","04","15","03:00","6.3","","-3.3","","50","","8","","11","","","","100.20","","","","","","NA"
"2010-04-15 04:00","2010","04","15","04:00","6.0","","-1.4","","59","","8","","13","","","","100.18","","","","","","NA"
"2010-04-15 05:00","2010","04","15","05:00","5.6","","-0.2","","66","","8","","11","","","","100.14","","","","","","NA"
"2010-04-15 06:00","2010","04","15","06:00","4.9","","1.3","","77","","8","","9","","","","100.14","","","","","","NA"
"2010-04-15 07:00","2010","04","15","07:00","4.9","","1.6","","79","","9","","9","","","","100.12","","","","","","NA"
"2010-04-15 08:00","2010","04","15","08:00","4.7","","1.6","","80","","11","","19","","","","99.99","","","","","","NA"
"2010-04-15 09:00","2010","04","15","09:00","5.2","","1.6","","78","","9","","19","","","","99.92","","","","","","NA"
"2010-04-15 10:00","2010","04","15","10:00","5.8","","1.8","","75","","8","","15","","","","99.91","","","","","","NA"
"2010-04-15 11:00","2010","04","15","11:00","5.4","","1.7","","77","","9","","13","","","","99.85","","","","","","NA"
"2010-04-15 12:00","2010","04","15","12:00","6.8","","2.6","","75","","8","","13","","","","99.78","","","","","","NA"
"2010-04-15 13:00","2010","04","15","13:00","6.2","","2.2","","76","","8","","11","","","","99.68","","","","","","NA"
"2010-04-15 14:00","2010","04","15","14:00","5.6","","1.9","","77","","11","","20","","","","99.59","","","","","","NA"
"2010-04-15 15:00","2010","04","15","15:00","5.7","","2.3","","79","","8","","11","","","","99.49","","","","","","NA"
"2010-04-15 16:00","2010","04","15","16:00","5.7","","2.7","","81","","8","","11","","","","99.36","","","","","","NA"
"2010-04-15 17:00","2010","04","15","17:00","6.0","","2.9","","80","","8","","13","","","","99.28","","","","","","NA"
"2010-04-15 18:00","2010","04","15","18:00","7.9","","3.3","","73","","7","","11","","","","99.13","","","","","","NA"
"2010-04-15 19:00","2010","04","15","19:00","7.8","","3.9","","76","","10","","9","","","","99.04","","","","","","NA"
"2010-04-15 20:00","2010","04","15","20:00","8.2","","4.3","","76","","7","","7","","","","98.99","","","","","","NA"
"2010-04-15 21:00","2010","04","15","21:00","9.2","","4.8","","74","","1","","6","","","","99.03","","","","","","NA"
"2010-04-15 22:00","2010","04","15","22:00","9.8","","5.0","","72","","12","","2","","","","98.88","","","","","","NA"
"2010-04-15 23:00","2010","04","15","23:00","7.6","","4.3","","80","","11","","6","","","","98.77","","","","","","NA"
"2010-04-16 00:00","2010","04","16","00:00","6.7","","3.7","","81","","8","","6","","","","98.73","","","","","","NA"
"2010-04-16 01:00","2010","04","16","01:00","7.3","","4.3","","81","","6","","6","","","","98.63","","","","","","NA"
"2010-04-16 02:00","2010","04","16","02:00","6.9","","4.2","","83","","","","0","","","","98.58","","","","","","NA"
"2010-04-16 03:00","2010","04","16","03:00","10.4","","5.2","","70","","30","","9","","","","98.47","","","","","","NA"
"2010-04-16 04:00","2010","04","16","04:00","10.6","","6.9","","78","","28","","13","","","","98.45","","","","","","NA"
"2010-04-16 05:00","2010","04","16","05:00","9.3","","6.6","","83","","27","","15","","","","98.46","","","","","","NA"
"2010-04-16 06:00","2010","04","16","06:00","8.4","","6.0","","85","","28","","20","","","","98.47","","","","","","NA"
"2010-04-16 07:00","2010","04","16","07:00","7.9","","3.9","","76","","28","","20","","","","98.50","","","","","","NA"
"2010-04-16 08:00","2010","04","16","08:00","8.9","","4.2","","72","","28","","24","","","","98.49","","","","","","NA"
"2010-04-16 09:00","2010","04","16","09:00","9.0","","2.8","","65","","28","","32","","","","98.47","","","","","","NA"
"2010-04-16 10:00","2010","04","16","10:00","9.6","","1.6","","57","","28","","35","","","","98.42","","","","","","NA"
"2010-04-16 11:00","2010","04","16","11:00","10.0","","1.8","","57","","27","","35","","","","98.35","","","","","","NA"
"2010-04-16 12:00","2010","04","16","12:00","9.7","","1.9","","58","","28","","48","","","","98.30","","","","","","NA"
"2010-04-16 13:00","2010","04","16","13:00","9.9","","1.5","","56","","28","","46","","","","98.27","","","","","","NA"
"2010-04-16 14:00","2010","04","16","14:00","9.0","","2.2","","62","","27","","46","","","","98.27","","","","","","NA"
"2010-04-16 15:00","2010","04","16","15:00","8.0","","1.0","","61","","28","","43","","","","98.24","","","","","","NA"
"2010-04-16 16:00","2010","04","16","16:00","6.7","","-1.7","","55","","27","","52","","","","98.23","","","","","","NA"
"2010-04-16 17:00","2010","04","16","17:00","6.4","","-1.7","","56","","28","","48","","","","98.23","","","","","","NA"
"2010-04-16 18:00","2010","04","16","18:00","4.9","","-0.7","","67","","27","","41","","","","98.26","","","","","","NA"
"2010-04-16 19:00","2010","04","16","19:00","4.4","","-0.3","","71","","27","","41","","","","98.24","","","","","","NA"
"2010-04-16 20:00","2010","04","16","20:00","4.8","","-0.8","","67","","28","","32","","","","98.28","","","","","","NA"
"2010-04-16 21:00","2010","04","16","21:00","4.7","","-0.4","","69","","28","","28","","","","98.30","","","","","","NA"
"2010-04-16 22:00","2010","04","16","22:00","4.8","","-1.3","","65","","30","","20","","","","98.30","","","","","","NA"
"2010-04-16 23:00","2010","04","16","23:00","4.1","","-4.6","","53","","31","","22","","","","98.33","","","","","","NA"
"2010-04-17 00:00","2010","04","17","00:00","2.9","","-4.6","","58","","32","","24","","","","98.38","","","","","","NA"
"2010-04-17 01:00","2010","04","17","01:00","1.8","","-4.1","","65","","31","","22","","","","98.40","","","","","","NA"
"2010-04-17 02:00","2010","04","17","02:00","1.3","","-3.0","","73","","31","","13","","","","98.37","","","","","","NA"
"2010-04-17 03:00","2010","04","17","03:00","1.2","","-2.3","","77","","30","","17","","","","98.37","","","","","","NA"
"2010-04-17 04:00","2010","04","17","04:00","1.5","","-3.1","","71","","30","","17","","","","98.37","","","","","","NA"
"2010-04-17 05:00","2010","04","17","05:00","1.5","","-3.8","","68","","30","","20","","","","98.40","","","","","","NA"
"2010-04-17 06:00","2010","04","17","06:00","1.5","","-4.1","","66","","31","","17","","","","98.45","","","","","","NA"
"2010-04-17 07:00","2010","04","17","07:00","1.4","","-3.3","","71","","31","","17","","","","98.52","","","","","","NA"
"2010-04-17 08:00","2010","04","17","08:00","1.3","","-1.8","","80","","30","","19","","","","98.57","","","","","","NA"
"2010-04-17 09:00","2010","04","17","09:00","1.7","","-2.9","","71","","31","","19","","","","98.60","","","","","","NA"
"2010-04-17 10:00","2010","04","17","10:00","2.5","","-3.1","","67","","33","","19","","","","98.65","","","","","","NA"
"2010-04-17 11:00","2010","04","17","11:00","2.6","","-2.5","","69","","31","","20","","","","98.69","","","","","","NA"
"2010-04-17 12:00","2010","04","17","12:00","2.9","","-1.7","","72","","29","","20","","","","98.72","","","","","","NA"
"2010-04-17 13:00","2010","04","17","13:00","4.0","","-1.3","","68","","31","","20","","","","98.77","","","","","","NA"
"2010-04-17 14:00","2010","04","17","14:00","4.8","","0.3","","73","","34","","17","","","","98.84","","","","","","NA"
"2010-04-17 15:00","2010","04","17","15:00","5.0","","0.5","","73","","33","","13","","","","98.87","","","","","","NA"
"2010-04-17 16:00","2010","04","17","16:00","5.2","","-0.4","","67","","35","","17","","","","98.92","","","","","","NA"
"2010-04-17 17:00","2010","04","17","17:00","4.7","","0.2","","73","","35","","11","","","","99.03","","","","","","NA"
"2010-04-17 18:00","2010","04","17","18:00","4.1","","0.2","","76","","1","","19","","","","99.13","","","","","","NA"
"2010-04-17 19:00","2010","04","17","19:00","3.0","","0.5","","84","","35","","17","","","","99.19","","","","","","NA"
"2010-04-17 20:00","2010","04","17","20:00","3.0","","0.9","","86","","34","","15","","","","99.25","","","","","","NA"
"2010-04-17 21:00","2010","04","17","21:00","3.2","","0.7","","84","","33","","13","","","","99.30","","","","","","NA"
"2010-04-17 22:00","2010","04","17","22:00","3.3","","0.3","","81","","33","","13","","","","99.31","","","","","","NA"
"2010-04-17 23:00","2010","04","17","23:00","3.4","","0.3","","80","","35","","15","","","","99.32","","","","","","NA"
"2010-04-18 00:00","2010","04","18","00:00","3.6","","0.2","","78","","36","","17","","","","99.33","","","","","","NA"
"2010-04-18 01:00","2010","04","18","01:00","3.7","","0.3","","78","","36","","15","","","","99.35","","","","","","NA"
"2010-04-18 02:00","2010","04","18","02:00","3.9","","0.5","","78","","36","","13","","","","99.35","","","","","","NA"
"2010-04-18 03:00","2010","04","18","03:00","4.1","","0.5","","77","","36","","6","","","","99.40","","","","","","NA"
"2010-04-18 04:00","2010","04","18","04:00","4.3","","0.4","","76","","1","","11","","","","99.43","","","","","","NA"
"2010-04-18 05:00","2010","04","18","05:00","4.4","","0.3","","75","","1","","11","","","","99.47","","","","","","NA"
"2010-04-18 06:00","2010","04","18","06:00","4.1","","-0.2","","74","","3","","13","","","","99.57","","","","","","NA"
"2010-04-18 07:00","2010","04","18","07:00","4.5","","-0.4","","70","","1","","15","","","","99.66","","","","","","NA"
"2010-04-18 08:00","2010","04","18","08:00","5.6","","-0.8","","63","","36","","17","","","","99.70","","","","","","NA"
"2010-04-18 09:00","2010","04","18","09:00","7.3","","-0.8","","56","","35","","17","","","","99.73","","","","","","NA"
"2010-04-18 10:00","2010","04","18","10:00","8.9","","-1.5","","48","","35","","15","","","","99.73","","","","","","NA"
"2010-04-18 11:00","2010","04","18","11:00","10.3","","-7.2","","28","","2","","22","","","","99.70","","","","","","NA"
"2010-04-18 12:00","2010","04","18","12:00","11.7","","-5.3","","30","","2","","11","","","","99.63","","","","","","NA"
"2010-04-18 13:00","2010","04","18","13:00","11.9","","-5.3","","30","","35","","17","","","","99.60","","","","","","NA"
"2010-04-18 14:00","2010","04","18","14:00","13.0","","-4.5","","29","","34","","19","","","","99.57","","","","","","NA"
"2010-04-18 15:00","2010","04","18","15:00","13.2","","-5.3","","27","","34","","20","","","","99.54","","","","","","NA"
"2010-04-18 16:00","2010","04","18","16:00","14.0","","-4.5","","27","","36","","15","","","","99.51","","","","","","NA"
"2010-04-18 17:00","2010","04","18","17:00","12.2","","-1.7","","38","","28","","24","","","","99.51","","","","","","NA"
"2010-04-18 18:00","2010","04","18","18:00","11.4","","-1.3","","41","","29","","17","","","","99.50","","","","","","NA"
"2010-04-18 19:00","2010","04","18","19:00","12.2","","-4.3","","31","","36","","13","","","","99.54","","","","","","NA"
"2010-04-18 20:00","2010","04","18","20:00","11.0","","-3.3","","37","","35","","13","","","","99.62","","","","","","NA"
"2010-04-18 21:00","2010","04","18","21:00","10.3","","-2.9","","39","","34","","11","","","","99.69","","","","","","NA"
"2010-04-18 22:00","2010","04","18","22:00","9.7","","-3.0","","41","","34","","13","","","","99.71","","","","","","NA"
"2010-04-18 23:00","2010","04","18","23:00","9.3","","-3.4","","41","","36","","7","","","","99.74","","","","","","NA"
"2010-04-19 00:00","2010","04","19","00:00","8.6","","-4.0","","41","","1","","11","","","","99.77","","","","","","NA"
"2010-04-19 01:00","2010","04","19","01:00","7.8","","-4.3","","42","","35","","6","","","","99.79","","","","","","NA"
"2010-04-19 02:00","2010","04","19","02:00","6.3","","-3.0","","51","","32","","9","","","","99.81","","","","","","NA"
"2010-04-19 03:00","2010","04","19","03:00","5.3","","-2.6","","57","","32","","11","","","","99.85","","","","","","NA"
"2010-04-19 04:00","2010","04","19","04:00","5.2","","-2.7","","57","","34","","11","","","","99.86","","","","","","NA"
"2010-04-19 05:00","2010","04","19","05:00","4.9","","-2.4","","59","","34","","9","","","","99.88","","","","","","NA"
"2010-04-19 06:00","2010","04","19","06:00","4.6","","-1.7","","64","","32","","7","","","","99.93","","","","","","NA"
"2010-04-19 07:00","2010","04","19","07:00","6.1","","-1.3","","59","","32","","6","","","","99.97","","","","","","NA"
"2010-04-19 08:00","2010","04","19","08:00","7.6","","-1.5","","52","","34","","7","","","","100.01","","","","","","NA"
"2010-04-19 09:00","2010","04","19","09:00","9.5","","-2.2","","44","","35","","9","","","","99.99","","","","","","NA"
"2010-04-19 10:00","2010","04","19","10:00","10.7","","-2.1","","41","","34","","11","","","","99.98","","","","","","NA"
"2010-04-19 11:00","2010","04","19","11:00","11.7","","-2.5","","37","","35","","7","","","","99.95","","","","","","NA"
"2010-04-19 12:00","2010","04","19","12:00","10.2","","-1.3","","45","","18","","15","","","","99.88","","","","","","NA"
"2010-04-19 13:00","2010","04","19","13:00","12.2","","-1.6","","38","","20","","11","","","","99.83","","","","","","NA"
"2010-04-19 14:00","2010","04","19","14:00","12.7","","-1.2","","38","","25","","22","","","","99.79","","","","","","NA"
"2010-04-19 15:00","2010","04","19","15:00","13.1","","-1.5","","36","","27","","26","","","","99.73","","","","","","NA"
"2010-04-19 16:00","2010","04","19","16:00","13.3","","-1.4","","36","","27","","24","","","","99.68","","","","","","NA"
"2010-04-19 17:00","2010","04","19","17:00","13.3","","-1.1","","37","","28","","24","","","","99.65","","","","","","NA"
"2010-04-19 18:00","2010","04","19","18:00","12.5","","-0.4","","41","","29","","17","","","","99.64","","","","","","NA"
"2010-04-19 19:00","2010","04","19","19:00","11.7","","-0.8","","42","","29","","22","","","","99.62","","","","","","NA"
"2010-04-19 20:00","2010","04","19","20:00","10.7","","0.2","","48","","30","","17","","","","99.65","","","","","","NA"
"2010-04-19 21:00","2010","04","19","21:00","9.9","","0.2","","51","","32","","15","","","","99.67","","","","","","NA"
"2010-04-19 22:00","2010","04","19","22:00","9.3","","0.3","","53","","31","","15","","","","99.64","","","","","","NA"
"2010-04-19 23:00","2010","04","19","23:00","8.5","","0.6","","58","","32","","11","","","","99.62","","","","","","NA"
"2010-04-20 00:00","2010","04","20","00:00","7.7","","1.0","","63","","30","","6","","","","99.61","","","","","","NA"
"2010-04-20 01:00","2010","04","20","01:00","7.2","","1.1","","65","","30","","6","","","","99.56","","","","","","NA"
"2010-04-20 02:00","2010","04","20","02:00","6.7","","1.6","","70","","30","","6","","","","99.53","","","","","","NA"
"2010-04-20 03:00","2010","04","20","03:00","5.9","","1.5","","73","","30","","4","","","","99.50","","","","","","NA"
"2010-04-20 04:00","2010","04","20","04:00","5.4","","1.9","","78","","29","","4","","","","99.49","","","","","","NA"
"2010-04-20 05:00","2010","04","20","05:00","5.4","","1.6","","76","","30","","6","","","","99.47","","","","","","NA"
"2010-04-20 06:00","2010","04","20","06:00","4.4","","2.2","","86","","27","","4","","","","99.48","","","","","","NA"
"2010-04-20 07:00","2010","04","20","07:00","6.8","","2.1","","72","","31","","11","","","","99.49","","","","","","NA"
"2010-04-20 08:00","2010","04","20","08:00","8.1","","1.9","","65","","29","","15","","","","99.46","","","","","","NA"
"2010-04-20 09:00","2010","04","20","09:00","9.1","","2.0","","61","","29","","11","","","","99.44","","","","","","NA"
"2010-04-20 10:00","2010","04","20","10:00","7.8","","1.9","","66","","22","","13","","","","99.40","","","","","","NA"
"2010-04-20 11:00","2010","04","20","11:00","12.6","","-1.7","","37","","30","","17","","","","99.32","","","","","","NA"
"2010-04-20 12:00","2010","04","20","12:00","13.5","","-5.1","","27","","28","","20","","","","99.25","","","","","","NA"
"2010-04-20 13:00","2010","04","20","13:00","10.4","","-2.4","","41","","22","","20","","","","99.19","","","","","","NA"
"2010-04-20 14:00","2010","04","20","14:00","8.5","","-0.1","","55","","21","","17","","","","99.12","","","","","","NA"
"2010-04-20 15:00","2010","04","20","15:00","10.5","","-2.3","","41","","21","","20","","","","99.04","","","","","","NA"
"2010-04-20 16:00","2010","04","20","16:00","7.6","","1.8","","67","","20","","6","","","","99.01","","","","","","NA"
"2010-04-20 17:00","2010","04","20","17:00","7.5","","0.6","","62","","21","","6","","","","98.97","","","","","","NA"
"2010-04-20 18:00","2010","04","20","18:00","8.0","","0.9","","61","","21","","15","","","","98.91","","","","","","NA"
"2010-04-20 19:00","2010","04","20","19:00","11.1","","0.0","","46","","26","","9","","","","98.87","","","","","","NA"
"2010-04-20 20:00","2010","04","20","20:00","10.1","","0.0","","49","","27","","15","","","","98.89","","","","","","NA"
"2010-04-20 21:00","2010","04","20","21:00","8.3","","-0.7","","53","","28","","7","","","","98.88","","","","","","NA"
"2010-04-20 22:00","2010","04","20","22:00","7.1","","0.1","","61","","30","","6","","","","98.85","","","","","","NA"
"2010-04-20 23:00","2010","04","20","23:00","6.9","","-0.4","","60","","27","","4","","","","98.82","","","","","","NA"
"2010-04-21 00:00","2010","04","21","00:00","6.3","","-0.5","","62","","29","","2","","","","98.79","","","","","","NA"
"2010-04-21 01:00","2010","04","21","01:00","5.8","","-0.5","","64","","26","","2","","","","98.72","","","","","","NA"
"2010-04-21 02:00","2010","04","21","02:00","4.3","","0.9","","79","","10","","4","","","","98.66","","","","","","NA"
"2010-04-21 03:00","2010","04","21","03:00","4.6","","1.0","","77","","5","","7","","","","98.69","","","","","","NA"
"2010-04-21 04:00","2010","04","21","04:00","5.0","","0.3","","72","","7","","11","","","","98.67","","","","","","NA"
"2010-04-21 05:00","2010","04","21","05:00","4.3","","0.2","","75","","4","","6","","","","98.68","","","","","","NA"
"2010-04-21 06:00","2010","04","21","06:00","4.2","","-0.1","","74","","2","","9","","","","98.69","","","","","","NA"
"2010-04-21 07:00","2010","04","21","07:00","4.0","","-0.7","","71","","36","","15","","","","98.79","","","","","","NA"
"2010-04-21 08:00","2010","04","21","08:00","3.6","","0.3","","79","","3","","11","","","","98.74","","","","","","NA"
"2010-04-21 09:00","2010","04","21","09:00","3.6","","-0.6","","74","","3","","13","","","","98.77","","","","","","NA"
"2010-04-21 10:00","2010","04","21","10:00","4.1","","-1.6","","66","","2","","19","","","","98.79","","","","","","NA"
"2010-04-21 11:00","2010","04","21","11:00","5.0","","-2.1","","60","","1","","15","","","","98.80","","","","","","NA"
"2010-04-21 12:00","2010","04","21","12:00","4.9","","-2.6","","58","","1","","19","","","","98.80","","","","","","NA"
"2010-04-21 13:00","2010","04","21","13:00","4.9","","-3.0","","57","","2","","17","","","","98.80","","","","","","NA"
"2010-04-21 14:00","2010","04","21","14:00","4.7","","-3.4","","56","","2","","17","","","","98.82","","","","","","NA"
"2010-04-21 15:00","2010","04","21","15:00","4.6","","-3.7","","55","","3","","15","","","","98.82","","","","","","NA"
"2010-04-21 16:00","2010","04","21","16:00","4.8","","-4.1","","52","","2","","15","","","","98.82","","","","","","NA"
"2010-04-21 17:00","2010","04","21","17:00","4.7","","-4.5","","51","","2","","17","","","","98.84","","","","","","NA"
"2010-04-21 18:00","2010","04","21","18:00","4.3","","-4.6","","52","","2","","15","","","","98.85","","","","","","NA"
"2010-04-21 19:00","2010","04","21","19:00","3.4","","-4.9","","54","","2","","19","","","","98.88","","","","","","NA"
"2010-04-21 20:00","2010","04","21","20:00","2.1","","-5.4","","58","","3","","11","","","","98.94","","","","","","NA"
"2010-04-21 21:00","2010","04","21","21:00","1.2","","-6.1","","58","","3","","11","","","","98.98","","","","","","NA"
"2010-04-21 22:00","2010","04","21","22:00","0.3","","-5.9","","63","","3","","7","","","","99.00","","","","","","NA"
"2010-04-21 23:00","2010","04","21","23:00","-0.2","","-6.7","","62","","3","","7","","","","99.01","","","","-3","","NA"
"2010-04-22 00:00","2010","04","22","00:00","-0.6","","-6.6","","64","","36","","7","","","","98.99","","","","-3","","NA"
"2010-04-22 01:00","2010","04","22","01:00","-1.0","","-6.6","","66","","34","","6","","","","98.97","","","","-3","","NA"
"2010-04-22 02:00","2010","04","22","02:00","-1.0","","-6.5","","66","","35","","9","","","","98.95","","","","-4","","NA"
"2010-04-22 03:00","2010","04","22","03:00","-1.2","","-6.4","","68","","35","","7","","","","98.97","","","","-4","","NA"
"2010-04-22 04:00","2010","04","22","04:00","-1.2","","-6.1","","69","","36","","9","","","","99.00","","","","-4","","NA"
"2010-04-22 05:00","2010","04","22","05:00","-1.7","","-6.2","","71","","1","","9","","","","99.01","","","","-5","","NA"
"2010-04-22 06:00","2010","04","22","06:00","-1.7","","-6.4","","70","","36","","9","","","","99.09","","","","-5","","NA"
"2010-04-22 07:00","2010","04","22","07:00","-1.0","","-6.4","","67","","36","","9","","","","99.11","","","","-4","","NA"
"2010-04-22 08:00","2010","04","22","08:00","0.3","","-7.7","","55","","3","","9","","","","99.10","","","","","","NA"
"2010-04-22 09:00","2010","04","22","09:00","1.2","","-7.9","","51","","5","","13","","","","99.09","","","","","","NA"
"2010-04-22 10:00","2010","04","22","10:00","2.2","","-8.9","","44","","1","","7","","","","99.09","","","","","","NA"
"2010-04-22 11:00","2010","04","22","11:00","2.0","","-7.0","","51","","21","","13","","","","99.08","","","","","","NA"
"2010-04-22 12:00","2010","04","22","12:00","2.0","","-6.2","","55","","21","","22","","","","99.02","","","","","","NA"
"2010-04-22 13:00","2010","04","22","13:00","2.7","","-5.3","","56","","22","","22","","","","98.99","","","","","","NA"
"2010-04-22 14:00","2010","04","22","14:00","4.0","","-5.1","","51","","22","","24","","","","98.94","","","","","","NA"
"2010-04-22 15:00","2010","04","22","15:00","4.5","","-4.0","","54","","22","","24","","","","98.91","","","","","","NA"
"2010-04-22 16:00","2010","04","22","16:00","4.0","","-2.8","","61","","20","","20","","","","98.92","","","","","","NA"
"2010-04-22 17:00","2010","04","22","17:00","4.5","","-0.6","","69","","22","","19","","","","98.95","","","","","","NA"
"2010-04-22 18:00","2010","04","22","18:00","5.4","","-1.3","","62","","22","","24","","","","98.95","","","","","","NA"
"2010-04-22 19:00","2010","04","22","19:00","5.8","","-3.3","","52","","25","","17","","","","98.98","","","","","","NA"
"2010-04-22 20:00","2010","04","22","20:00","4.8","","-2.1","","61","","28","","9","","","","99.01","","","","","","NA"
"2010-04-22 21:00","2010","04","22","21:00","4.4","","-2.5","","61","","29","","13","","","","99.04","","","","","","NA"
"2010-04-22 22:00","2010","04","22","22:00","3.9","","-1.5","","68","","30","","11","","","","99.04","","","","","","NA"
"2010-04-22 23:00","2010","04","22","23:00","3.5","","-1.5","","70","","30","","7","","","","99.04","","","","","","NA"
"2010-04-23 00:00","2010","04","23","00:00","3.2","","-1.9","","69","","28","","4","","","","99.07","","","","","","NA"
"2010-04-23 01:00","2010","04","23","01:00","2.5","","-1.7","","74","","32","","6","","","","99.06","","","","","","NA"
"2010-04-23 02:00","2010","04","23","02:00","2.2","","-0.6","","82","","","","0","","","","99.08","","","","","","NA"
"2010-04-23 03:00","2010","04","23","03:00","1.7","","-0.6","","85","","8","","7","","","","99.12","","","","","","NA"
"2010-04-23 04:00","2010","04","23","04:00","1.7","","-1.7","","78","","5","","4","","","","99.19","","","","","","NA"
"2010-04-23 05:00","2010","04","23","05:00","2.5","","-2.0","","72","","1","","4","","","","99.23","","","","","","NA"
"2010-04-23 06:00","2010","04","23","06:00","2.2","","-0.6","","82","","29","","6","","","","99.29","","","","","","NA"
"2010-04-23 07:00","2010","04","23","07:00","3.2","","0.2","","81","","9","","4","","","","99.33","","","","","","NA"
"2010-04-23 08:00","2010","04","23","08:00","3.4","","0.5","","81","","14","","4","","","","99.35","","","","","","NA"
"2010-04-23 09:00","2010","04","23","09:00","3.6","","0.4","","80","","15","","6","","","","99.35","","","","","","NA"
"2010-04-23 10:00","2010","04","23","10:00","4.3","","0.4","","76","","18","","7","","","","99.37","","","","","","NA"
"2010-04-23 11:00","2010","04","23","11:00","4.8","","-1.0","","66","","17","","13","","","","99.40","","","","","","NA"
"2010-04-23 12:00","2010","04","23","12:00","4.6","","-1.2","","66","","16","","11","","","","99.42","","","","","","NA"
"2010-04-23 13:00","2010","04","23","13:00","4.7","","-0.1","","71","","13","","7","","","","99.40","","","","","","NA"
"2010-04-23 14:00","2010","04","23","14:00","4.9","","0.4","","73","","11","","7","","","","99.36","","","","","","NA"
"2010-04-23 15:00","2010","04","23","15:00","5.2","","-0.3","","68","","11","","7","","","","99.32","","","","","","NA"
"2010-04-23 16:00","2010","04","23","16:00","5.4","","-2.5","","57","","16","","11","","","","99.31","","","","","","NA"
"2010-04-23 17:00","2010","04","23","17:00","5.9","","-0.5","","63","","17","","7","","","","99.34","","","","","","NA"
"2010-04-23 18:00","2010","04","23","18:00","5.5","","0.3","","69","","22","","15","","","","99.33","","","","","","NA"
"2010-04-23 19:00","2010","04","23","19:00","4.9","","0.3","","72","","22","","9","","","","99.37","","","","","","NA"
"2010-04-23 20:00","2010","04","23","20:00","4.8","","0.1","","72","","15","","4","","","","99.38","","","","","","NA"
"2010-04-23 21:00","2010","04","23","21:00","4.4","","-0.1","","73","","19","","6","","","","99.39","","","","","","NA"
"2010-04-23 22:00","2010","04","23","22:00","4.2","","0.3","","76","","11","","4","","","","99.39","","","","","","NA"
"2010-04-23 23:00","2010","04","23","23:00","3.9","","0.1","","76","","7","","7","","","","99.40","","","","","","NA"
"2010-04-24 00:00","2010","04","24","00:00","4.4","","-1.5","","65","","7","","7","","","","99.45","","","","","","NA"
"2010-04-24 01:00","2010","04","24","01:00","4.5","","-2.2","","62","","11","","4","","","","99.46","","","","","","NA"
"2010-04-24 02:00","2010","04","24","02:00","4.9","","-2.4","","59","","8","","7","","","","99.45","","","","","","NA"
"2010-04-24 03:00","2010","04","24","03:00","4.7","","-3.1","","57","","5","","6","","","","99.51","","","","","","NA"
"2010-04-24 04:00","2010","04","24","04:00","5.0","","-3.5","","54","","7","","6","","","","99.47","","","","","","NA"
"2010-04-24 05:00","2010","04","24","05:00","5.0","","-3.5","","54","","8","","4","","","","99.46","","","","","","NA"
"2010-04-24 06:00","2010","04","24","06:00","3.9","","-1.6","","67","","8","","6","","","","99.48","","","","","","NA"
"2010-04-24 07:00","2010","04","24","07:00","5.0","","-1.0","","65","","8","","9","","","","99.48","","","","","","NA"
"2010-04-24 08:00","2010","04","24","08:00","6.1","","0.0","","65","","8","","7","","","","99.46","","","","","","NA"
"2010-04-24 09:00","2010","04","24","09:00","6.0","","0.5","","68","","10","","11","","","","99.45","","","","","","NA"
"2010-04-24 10:00","2010","04","24","10:00","5.6","","0.7","","71","","14","","13","","","","99.46","","","","","","NA"
"2010-04-24 11:00","2010","04","24","11:00","6.3","","1.9","","73","","10","","6","","","","99.39","","","","","","NA"
"2010-04-24 12:00","2010","04","24","12:00","5.7","","1.7","","75","","12","","6","","","","99.32","","","","","","NA"
"2010-04-24 13:00","2010","04","24","13:00","6.5","","1.5","","70","","12","","4","","","","99.27","","","","","","NA"
"2010-04-24 14:00","2010","04","24","14:00","6.6","","1.4","","69","","11","","6","","","","99.12","","","","","","NA"
"2010-04-24 15:00","2010","04","24","15:00","8.0","","0.3","","58","","19","","2","","","","99.07","","","","","","NA"
"2010-04-24 16:00","2010","04","24","16:00","7.2","","1.9","","69","","14","","4","","","","99.04","","","","","","NA"
"2010-04-24 17:00","2010","04","24","17:00","7.7","","0.7","","61","","17","","6","","","","99.00","","","","","","NA"
"2010-04-24 18:00","2010","04","24","18:00","10.8","","-7.5","","27","","7","","4","","","","98.96","","","","","","NA"
"2010-04-24 19:00","2010","04","24","19:00","10.0","","-5.9","","32","","10","","6","","","","98.92","","","","","","NA"
"2010-04-24 20:00","2010","04","24","20:00","11.0","","-6.0","","30","","10","","6","","","","98.84","","","","","","NA"
"2010-04-24 21:00","2010","04","24","21:00","11.5","","-6.1","","29","","3","","6","","","","98.76","","","","","","NA"
"2010-04-24 22:00","2010","04","24","22:00","12.5","","-10.0","","20","","4","","9","","","","98.66","","","","","","NA"
"2010-04-24 23:00","2010","04","24","23:00","12.4","","-10.1","","20","","5","","13","","","","98.65","","","","","","NA"
"2010-04-25 00:00","2010","04","25","00:00","11.8","","-0.8","","42","","7","","26","","","","98.60","","","","","","NA"
"2010-04-25 01:00","2010","04","25","01:00","10.8","","-1.6","","42","","7","","26","","","","98.61","","","","","","NA"
"2010-04-25 02:00","2010","04","25","02:00","9.6","","-2.8","","42","","6","","22","","","","98.53","","","","","","NA"
"2010-04-25 03:00","2010","04","25","03:00","8.6","","-1.8","","48","","7","","24","","","","98.49","","","","","","NA"
"2010-04-25 04:00","2010","04","25","04:00","8.0","","-1.1","","53","","7","","26","","","","98.42","","","","","","NA"
"2010-04-25 05:00","2010","04","25","05:00","7.4","","-0.7","","56","","7","","24","","","","98.39","","","","","","NA"
"2010-04-25 06:00","2010","04","25","06:00","7.1","","-0.5","","58","","7","","28","","","","98.43","","","","","","NA"
"2010-04-25 07:00","2010","04","25","07:00","7.4","","-0.6","","57","","7","","32","","","","98.44","","","","","","NA"
"2010-04-25 08:00","2010","04","25","08:00","8.1","","-0.8","","53","","7","","35","","","","98.40","","","","","","NA"
"2010-04-25 09:00","2010","04","25","09:00","8.6","","-0.5","","53","","7","","37","","","","98.37","","","","","","NA"
"2010-04-25 10:00","2010","04","25","10:00","10.2","","-1.7","","43","","8","","39","","","","98.35","","","","","","NA"
"2010-04-25 11:00","2010","04","25","11:00","11.0","","-2.3","","39","","7","","32","","","","98.31","","","","","","NA"
"2010-04-25 12:00","2010","04","25","12:00","13.3","","-4.5","","29","","7","","32","","","","98.21","","","","","","NA"
"2010-04-25 13:00","2010","04","25","13:00","13.1","","-5.3","","27","","7","","32","","","","98.13","","","","","","NA"
"2010-04-25 14:00","2010","04","25","14:00","14.5","","-6.6","","23","","7","","30","","","","98.08","","","","","","NA"
"2010-04-25 15:00","2010","04","25","15:00","14.1","","-5.9","","24","","7","","28","","","","98.01","","","","","","NA"
"2010-04-25 16:00","2010","04","25","16:00","14.8","","-6.2","","23","","7","","35","","","","97.96","","","","","","NA"
"2010-04-25 17:00","2010","04","25","17:00","15.4","","-7.0","","21","","7","","22","","","","97.96","","","","","","NA"
"2010-04-25 18:00","2010","04","25","18:00","14.1","","-4.0","","28","","7","","19","","","","97.95","","","","","","NA"
"2010-04-25 19:00","2010","04","25","19:00","15.4","","-6.4","","22","","5","","13","","","","97.95","","","","","","NA"
"2010-04-25 20:00","2010","04","25","20:00","14.1","","-5.9","","24","","5","","11","","","","97.99","","","","","","NA"
"2010-04-25 21:00","2010","04","25","21:00","13.8","","-5.5","","26","","4","","13","","","","98.00","","","","","","NA"
"2010-04-25 22:00","2010","04","25","22:00","13.8","","-5.7","","25","","5","","15","","","","97.98","","","","","","NA"
"2010-04-25 23:00","2010","04","25","23:00","13.0","","-5.3","","28","","4","","13","","","","97.94","","","","","","NA"
"2010-04-26 00:00","2010","04","26","00:00","12.3","","-4.6","","30","","3","","17","","","","97.93","","","","","","NA"
"2010-04-26 01:00","2010","04","26","01:00","10.9","","-2.8","","38","","4","","17","","","","97.93","","","","","","NA"
"2010-04-26 02:00","2010","04","26","02:00","10.0","","-2.1","","43","","3","","17","","","","97.89","","","","","","NA"
"2010-04-26 03:00","2010","04","26","03:00","8.8","","-1.8","","47","","3","","15","","","","97.90","","","","","","NA"
"2010-04-26 04:00","2010","04","26","04:00","7.7","","-2.4","","49","","3","","15","","","","97.93","","","","","","NA"
"2010-04-26 05:00","2010","04","26","05:00","6.5","","-3.1","","50","","2","","20","","","","97.92","","","","","","NA"
"2010-04-26 06:00","2010","04","26","06:00","5.7","","-4.5","","48","","2","","19","","","","97.93","","","","","","NA"
"2010-04-26 07:00","2010","04","26","07:00","6.0","","-5.8","","42","","2","","19","","","","97.95","","","","","","NA"
"2010-04-26 08:00","2010","04","26","08:00","6.8","","-5.4","","41","","1","","22","","","","97.92","","","","","","NA"
"2010-04-26 09:00","2010","04","26","09:00","7.9","","-4.8","","40","","1","","20","","","","97.90","","","","","","NA"
"2010-04-26 10:00","2010","04","26","10:00","10.0","","-4.6","","35","","3","","19","","","","97.90","","","","","","NA"
"2010-04-26 11:00","2010","04","26","11:00","11.7","","-5.3","","30","","2","","20","","","","97.84","","","","","","NA"
"2010-04-26 12:00","2010","04","26","12:00","13.1","","-7.1","","24","","1","","17","","","","97.78","","","","","","NA"
"2010-04-26 13:00","2010","04","26","13:00","13.5","","-8.4","","21","","2","","20","","","","97.71","","","","","","NA"
"2010-04-26 14:00","2010","04","26","14:00","14.1","","-9.2","","19","","1","","28","","","","97.68","","","","","","NA"
"2010-04-26 15:00","2010","04","26","15:00","13.8","","-12.7","","15","","36","","30","","","","97.66","","","","","","NA"
"2010-04-26 16:00","2010","04","26","16:00","13.7","","-10.1","","18","","36","","26","","","","97.67","","","","","","NA"
"2010-04-26 17:00","2010","04","26","17:00","12.7","","-10.2","","19","","2","","24","","","","97.74","","","","","","NA"
"2010-04-26 18:00","2010","04","26","18:00","11.1","","-14.2","","15","","1","","20","","","","97.88","","","","","","NA"
"2010-04-26 19:00","2010","04","26","19:00","8.7","","-10.8","","24","","2","","26","","","","98.03","","","","","","NA"
"2010-04-26 20:00","2010","04","26","20:00","5.5","","-10.2","","31","","2","","28","","","","98.26","","","","","","NA"
"2010-04-26 21:00","2010","04","26","21:00","4.4","","-11.3","","31","","3","","20","","","","98.33","","","","","","NA"
"2010-04-26 22:00","2010","04","26","22:00","4.0","","-10.5","","34","","2","","17","","","","98.33","","","","","","NA"
"2010-04-26 23:00","2010","04","26","23:00","3.9","","-10.0","","35","","2","","17","","","","98.32","","","","","","NA"
"2010-04-27 00:00","2010","04","27","00:00","3.6","","-9.9","","37","","1","","19","","","","98.36","","","","","","NA"
"2010-04-27 01:00","2010","04","27","01:00","3.0","","-8.7","","42","","36","","17","","","","98.39","","","","","","NA"
"2010-04-27 02:00","2010","04","27","02:00","2.4","","-8.3","","45","","36","","17","","","","98.41","","","","","","NA"
"2010-04-27 03:00","2010","04","27","03:00","1.8","","-8.2","","47","","2","","19","","","","98.40","","","","","","NA"
"2010-04-27 04:00","2010","04","27","04:00","1.2","","-7.8","","51","","1","","15","","","","98.45","","","","","","NA"
"2010-04-27 05:00","2010","04","27","05:00","0.6","","-7.7","","54","","34","","13","","","","98.49","","","","","","NA"
"2010-04-27 06:00","2010","04","27","06:00","0.6","","-7.4","","55","","35","","13","","","","98.52","","","","","","NA"
"2010-04-27 07:00","2010","04","27","07:00","1.2","","-7.3","","53","","35","","17","","","","98.57","","","","","","NA"
"2010-04-27 08:00","2010","04","27","08:00","2.5","","-7.0","","49","","36","","15","","","","98.60","","","","","","NA"
"2010-04-27 09:00","2010","04","27","09:00","2.9","","-7.0","","48","","34","","17","","","","98.60","","","","","","NA"
"2010-04-27 10:00","2010","04","27","10:00","3.9","","-7.5","","43","","1","","20","","","","98.63","","","","","","NA"
"2010-04-27 11:00","2010","04","27","11:00","4.7","","-7.8","","40","","1","","24","","","","98.66","","","","","","NA"
"2010-04-27 12:00","2010","04","27","12:00","5.2","","-7.9","","38","","1","","19","","","","98.62","","","","","","NA"
"2010-04-27 13:00","2010","04","27","13:00","5.9","","-7.9","","36","","35","","19","","","","98.59","","","","","","NA"
"2010-04-27 14:00","2010","04","27","14:00","6.8","","-7.1","","36","","1","","15","","","","98.57","","","","","","NA"
"2010-04-27 15:00","2010","04","27","15:00","6.9","","-6.9","","37","","34","","20","","","","98.54","","","","","","NA"
"2010-04-27 16:00","2010","04","27","16:00","7.3","","-6.5","","37","","2","","19","","","","98.53","","","","","","NA"
"2010-04-27 17:00","2010","04","27","17:00","7.5","","-6.1","","37","","2","","17","","","","98.57","","","","","","NA"
"2010-04-27 18:00","2010","04","27","18:00","7.3","","-5.9","","39","","36","","9","","","","98.59","","","","","","NA"
"2010-04-27 19:00","2010","04","27","19:00","7.4","","-6.6","","36","","36","","11","","","","98.58","","","","","","NA"
"2010-04-27 20:00","2010","04","27","20:00","6.8","","-5.6","","41","","31","","7","","","","98.60","","","","","","NA"
"2010-04-27 21:00","2010","04","27","21:00","6.5","","-4.4","","46","","32","","9","","","","98.62","","","","","","NA"
"2010-04-27 22:00","2010","04","27","22:00","7.0","","-4.4","","44","","32","","11","","","","98.61","","","","","","NA"
"2010-04-27 23:00","2010","04","27","23:00","6.9","","-4.5","","44","","31","","15","","","","98.60","","","","","","NA"
"2010-04-28 00:00","2010","04","28","00:00","6.4","","-5.0","","44","","33","","11","","","","98.61","","","","","","NA"
"2010-04-28 01:00","2010","04","28","01:00","5.4","","-6.4","","42","","34","","11","","","","98.63","","","","","","NA"
"2010-04-28 02:00","2010","04","28","02:00","5.0","","-8.2","","38","","36","","9","","","","98.63","","","","","","NA"
"2010-04-28 03:00","2010","04","28","03:00","4.1","","-8.4","","40","","35","","7","","","","98.65","","","","","","NA"
"2010-04-28 04:00","2010","04","28","04:00","3.4","","-8.5","","41","","33","","11","","","","98.68","","","","","","NA"
"2010-04-28 05:00","2010","04","28","05:00","2.7","","-9.6","","40","","34","","11","","","","98.70","","","","","","NA"
"2010-04-28 06:00","2010","04","28","06:00","2.9","","-9.1","","41","","33","","11","","","","98.74","","","","","","NA"
"2010-04-28 07:00","2010","04","28","07:00","3.9","","-8.9","","39","","33","","15","","","","98.81","","","","","","NA"
"2010-04-28 08:00","2010","04","28","08:00","4.8","","-9.0","","36","","33","","13","","","","98.85","","","","","","NA"
"2010-04-28 09:00","2010","04","28","09:00","6.3","","-9.3","","32","","32","","13","","","","98.85","","","","","","NA"
"2010-04-28 10:00","2010","04","28","10:00","7.5","","-10.0","","28","","34","","22","","","","98.83","","","","","","NA"
"2010-04-28 11:00","2010","04","28","11:00","8.6","","-10.1","","25","","36","","19","","","","98.78","","","","","","NA"
"2010-04-28 12:00","2010","04","28","12:00","9.9","","-10.8","","22","","32","","19","","","","98.73","","","","","","NA"
"2010-04-28 13:00","2010","04","28","13:00","10.9","","-11.3","","20","","31","","20","","","","98.68","","","","","","NA"
"2010-04-28 14:00","2010","04","28","14:00","10.3","","-7.2","","28","","27","","28","","","","98.63","","","","","","NA"
"2010-04-28 15:00","2010","04","28","15:00","10.6","","-8.4","","25","","27","","30","","","","98.63","","","","","","NA"
"2010-04-28 16:00","2010","04","28","16:00","11.0","","-7.8","","26","","28","","30","","","","98.59","","","","","","NA"
"2010-04-28 17:00","2010","04","28","17:00","11.3","","-8.2","","25","","28","","35","","","","98.59","","","","","","NA"
"2010-04-28 18:00","2010","04","28","18:00","10.9","","-8.0","","26","","28","","35","","","","98.58","","","","","","NA"
"2010-04-28 19:00","2010","04","28","19:00","10.1","","-6.7","","30","","28","","32","","","","98.60","","","","","","NA"
"2010-04-28 20:00","2010","04","28","20:00","9.6","","-6.9","","31","","28","","24","","","","98.63","","","","","","NA"
"2010-04-28 21:00","2010","04","28","21:00","8.7","","-4.0","","40","","29","","19","","","","98.68","","","","","","NA"
"2010-04-28 22:00","2010","04","28","22:00","8.1","","-3.2","","45","","30","","13","","","","98.71","","","","","","NA"
"2010-04-28 23:00","2010","04","28","23:00","7.6","","-1.7","","52","","29","","15","","","","98.71","","","","","","NA"
"2010-04-29 00:00","2010","04","29","00:00","7.4","","-2.0","","51","","29","","15","","","","98.73","","","","","","NA"
"2010-04-29 01:00","2010","04","29","01:00","7.1","","-1.7","","53","","29","","19","","","","98.75","","","","","","NA"
"2010-04-29 02:00","2010","04","29","02:00","6.1","","-0.9","","61","","28","","19","","","","98.75","","","","","","NA"
"2010-04-29 03:00","2010","04","29","03:00","5.6","","-0.7","","64","","29","","17","","","","98.78","","","","","","NA"
"2010-04-29 04:00","2010","04","29","04:00","5.4","","-0.4","","66","","29","","20","","","","98.83","","","","","","NA"
"2010-04-29 05:00","2010","04","29","05:00","5.4","","-1.8","","60","","30","","19","","","","98.86","","","","","","NA"
"2010-04-29 06:00","2010","04","29","06:00","5.4","","-1.0","","63","","30","","13","","","","98.90","","","","","","NA"
"2010-04-29 07:00","2010","04","29","07:00","6.1","","-1.8","","57","","30","","22","","","","98.94","","","","","","NA"
"2010-04-29 08:00","2010","04","29","08:00","7.6","","-3.0","","47","","30","","17","","","","98.99","","","","","","NA"
"2010-04-29 09:00","2010","04","29","09:00","9.6","","-4.8","","36","","31","","6","","","","98.93","","","","","","NA"
"2010-04-29 10:00","2010","04","29","10:00","7.7","","-2.5","","48","","19","","19","","","","98.95","","","","","","NA"
"2010-04-29 11:00","2010","04","29","11:00","7.7","","-1.1","","54","","20","","22","","","","98.93","","","","","","NA"
"2010-04-29 12:00","2010","04","29","12:00","7.9","","-3.4","","45","","17","","19","","","","98.91","","","","","","NA"
"2010-04-29 13:00","2010","04","29","13:00","7.2","","-0.7","","57","","16","","11","","","","98.87","","","","","","NA"
"2010-04-29 14:00","2010","04","29","14:00","6.3","","-0.2","","63","","19","","24","","","","98.86","","","","","","NA"
"2010-04-29 15:00","2010","04","29","15:00","7.2","","-0.2","","59","","19","","24","","","","98.81","","","","","","NA"
"2010-04-29 16:00","2010","04","29","16:00","7.4","","-0.7","","56","","19","","26","","","","98.74","","","","","","NA"
"2010-04-29 17:00","2010","04","29","17:00","7.4","","-0.4","","58","","20","","17","","","","98.71","","","","","","NA"
"2010-04-29 18:00","2010","04","29","18:00","8.6","","-1.2","","50","","22","","13","","","","98.72","","","","","","NA"
"2010-04-29 19:00","2010","04","29","19:00","9.3","","-3.5","","40","","23","","7","","","","98.69","","","","","","NA"
"2010-04-29 20:00","2010","04","29","20:00","6.5","","0.7","","66","","19","","6","","","","98.65","","","","","","NA"
"2010-04-29 21:00","2010","04","29","21:00","7.2","","0.4","","62","","16","","4","","","","98.69","","","","","","NA"
"2010-04-29 22:00","2010","04","29","22:00","8.7","","-3.9","","41","","27","","6","","","","98.74","","","","","","NA"
"2010-04-29 23:00","2010","04","29","23:00","8.8","","-4.0","","40","","30","","7","","","","98.75","","","","","","NA"
"2010-04-30 00:00","2010","04","30","00:00","8.3","","-1.7","","49","","","","0","","","","98.75","","","","","","NA"
"2010-04-30 01:00","2010","04","30","01:00","6.9","","2.1","","71","","8","","15","","","","98.63","","","","","","NA"
"2010-04-30 02:00","2010","04","30","02:00","6.6","","1.6","","70","","11","","13","","","","98.58","","","","","","NA"
"2010-04-30 03:00","2010","04","30","03:00","6.3","","2.0","","74","","9","","15","","","","98.58","","","","","","NA"
"2010-04-30 04:00","2010","04","30","04:00","7.5","","0.0","","59","","7","","19","","","","98.55","","","","","","NA"
"2010-04-30 05:00","2010","04","30","05:00","7.9","","-0.9","","54","","7","","17","","","","98.52","","","","","","NA"
"2010-04-30 06:00","2010","04","30","06:00","8.0","","-0.1","","57","","9","","19","","","","98.53","","","","","","NA"
"2010-04-30 07:00","2010","04","30","07:00","9.0","","-1.7","","47","","9","","17","","","","98.56","","","","","","NA"
"2010-04-30 08:00","2010","04","30","08:00","9.3","","-1.7","","46","","8","","19","","","","98.53","","","","","","NA"
"2010-04-30 09:00","2010","04","30","09:00","8.2","","1.0","","60","","8","","20","","","","98.43","","","","","","NA"
"2010-04-30 10:00","2010","04","30","10:00","8.1","","1.3","","62","","9","","20","","","","98.46","","","","","","NA"
"2010-04-30 11:00","2010","04","30","11:00","7.4","","1.8","","68","","10","","15","","","","98.45","","","","","","NA"
"2010-04-30 12:00","2010","04","30","12:00","7.9","","2.3","","68","","8","","7","","","","98.44","","","","","","NA"
"2010-04-30 13:00","2010","04","30","13:00","7.6","","1.6","","66","","13","","22","","","","98.38","","","","","","NA"
"2010-04-30 14:00","2010","04","30","14:00","9.6","","1.1","","55","","12","","20","","","","98.39","","","","","","NA"
"2010-04-30 15:00","2010","04","30","15:00","8.9","","2.1","","62","","8","","19","","","","98.23","","","","","","NA"
"2010-04-30 16:00","2010","04","30","16:00","10.1","","2.2","","58","","9","","9","","","","98.25","","","","","","NA"
"2010-04-30 17:00","2010","04","30","17:00","10.5","","2.4","","57","","11","","6","","","","98.23","","","","","","NA"
"2010-04-30 18:00","2010","04","30","18:00","12.1","","3.3","","55","","10","","6","","","","98.24","","","","","","NA"
"2010-04-30 19:00","2010","04","30","19:00","14.2","","4.0","","50","","7","","11","","","","98.22","","","","","","NA"
"2010-04-30 20:00","2010","04","30","20:00","14.6","","3.8","","48","","7","","11","","","","98.23","","","","","","NA"
"2010-04-30 21:00","2010","04","30","21:00","15.7","","4.1","","46","","8","","19","","","","98.23","","","","","","NA"
"2010-04-30 22:00","2010","04","30","22:00","13.9","","3.1","","48","","7","","15","","","","98.18","","","","","","NA"
"2010-04-30 23:00","2010","04","30","23:00","15.2","","2.1","","41","","7","","19","","","","98.15","","","","","","NA"
