"Station Name","KILLARNEY (AUT)"
"Province","ONTARIO"
"Latitude","45.97"
"Longitude","-81.48"
"Elevation","196.30"
"Climate Identifier","605DJ25"
"WMO Identifier","71460"
"TC Identifier","WBE"
"All times are specified in Local Standard Time (LST). Add 1 hour to adjust for Daylight Saving Time where and when it is observed."

"Legend"
"E","Estimated"
"M","Missing"
"NA","Not Available"

"Date/Time","Year","Month","Day","Time","Temp (°C)","Temp Flag","Dew Point Temp (°C)","Dew Point Temp Flag","Rel Hum (%)","Rel Hum Flag","Wind Dir (10s deg)","Wind Dir Flag","Wind Spd (km/h)","Wind Spd Flag","Visibility (km)","Visibility Flag","Stn Press (kPa)","Stn Press Flag","Hmdx","Hmdx Flag","Wind Chill","Wind Chill Flag","Weather"
"2005-11-01 00:00","2005","11","01","00:00","9.7","","8.3","","91","","","","0","","","","98.90","","","","","","NA"
"2005-11-01 01:00","2005","11","01","01:00","8.8","","7.8","","93","","8","","6","","","","98.79","","","","","","NA"
"2005-11-01 02:00","2005","11","01","02:00","9.2","","8.3","","94","","7","","6","","","","98.66","","","","","","NA"
"2005-11-01 03:00","2005","11","01","03:00","9.8","","9.0","","95","","15","","9","","","","98.54","","","","","","NA"
"2005-11-01 04:00","2005","11","01","04:00","8.5","","7.5","","93","","1","","11","","","","98.44","","","","","","NA"
"2005-11-01 05:00","2005","11","01","05:00","8.2","","7.1","","93","","30","","9","","","","98.41","","","","","","NA"
"2005-11-01 06:00","2005","11","01","06:00","8.4","","7.0","","91","","27","","22","","","","98.38","","","","","","NA"
"2005-11-01 07:00","2005","11","01","07:00","7.3","","5.6","","89","","30","","17","","","","98.42","","","","","","NA"
"2005-11-01 08:00","2005","11","01","08:00","7.5","","5.8","","89","","27","","9","","","","98.44","","","","","","NA"
"2005-11-01 09:00","2005","11","01","09:00","7.5","","5.8","","89","","25","","19","","","","98.47","","","","","","NA"
"2005-11-01 10:00","2005","11","01","10:00","8.9","","5.1","","77","","28","","32","","","","98.42","","","","","","NA"
"2005-11-01 11:00","2005","11","01","11:00","8.6","","2.8","","67","","28","","41","","","","98.43","","","","","","NA"
"2005-11-01 12:00","2005","11","01","12:00","8.7","","3.2","","68","","28","","43","","","","98.40","","","","","","NA"
"2005-11-01 13:00","2005","11","01","13:00","8.4","","3.5","","71","","27","","37","","","","98.46","","","","","","NA"
"2005-11-01 14:00","2005","11","01","14:00","8.7","","3.7","","71","","28","","32","","","","98.47","","","","","","NA"
"2005-11-01 15:00","2005","11","01","15:00","8.9","","3.8","","70","","27","","32","","","","98.53","","","","","","NA"
"2005-11-01 16:00","2005","11","01","16:00","8.7","","3.4","","69","","28","","39","","","","98.58","","","","","","NA"
"2005-11-01 17:00","2005","11","01","17:00","8.2","","3.4","","72","","28","","37","","","","98.63","","","","","","NA"
"2005-11-01 18:00","2005","11","01","18:00","8.1","","4.1","","76","","28","","26","","","","98.71","","","","","","NA"
"2005-11-01 19:00","2005","11","01","19:00","6.0","","3.0","","81","","33","","13","","","","98.80","","","","","","NA"
"2005-11-01 20:00","2005","11","01","20:00","5.6","","1.8","","77","","33","","7","","","","98.91","","","","","","NA"
"2005-11-01 21:00","2005","11","01","21:00","4.7","","0.6","","75","","35","","9","","","","99.02","","","","","","NA"
"2005-11-01 22:00","2005","11","01","22:00","4.3","","0.5","","76","","34","","7","","","","99.09","","","","","","NA"
"2005-11-01 23:00","2005","11","01","23:00","3.9","","0.5","","78","","32","","7","","","","99.14","","","","","","NA"
"2005-11-02 00:00","2005","11","02","00:00","3.9","","0.0","","76","","31","","9","","","","99.18","","","","","","NA"
"2005-11-02 01:00","2005","11","02","01:00","3.5","","0.6","","81","","28","","7","","","","99.24","","","","","","NA"
"2005-11-02 02:00","2005","11","02","02:00","2.6","","-0.2","","82","","32","","6","","","","99.28","","","","","","NA"
"2005-11-02 03:00","2005","11","02","03:00","2.3","","-0.6","","81","","33","","7","","","","99.31","","","","","","NA"
"2005-11-02 04:00","2005","11","02","04:00","1.8","","-0.8","","83","","35","","6","","","","99.35","","","","","","NA"
"2005-11-02 05:00","2005","11","02","05:00","1.5","","-0.9","","84","","33","","7","","","","99.39","","","","","","NA"
"2005-11-02 06:00","2005","11","02","06:00","1.9","","-1.1","","80","","7","","4","","","","99.41","","","","","","NA"
"2005-11-02 07:00","2005","11","02","07:00","2.0","","-1.2","","79","","","","0","","","","99.45","","","","","","NA"
"2005-11-02 08:00","2005","11","02","08:00","3.5","","-1.4","","70","","31","","4","","","","99.50","","","","","","NA"
"2005-11-02 09:00","2005","11","02","09:00","6.1","","-0.6","","62","","","","0","","","","99.56","","","","","","NA"
"2005-11-02 10:00","2005","11","02","10:00","5.5","","0.4","","70","","22","","9","","","","99.61","","","","","","NA"
"2005-11-02 11:00","2005","11","02","11:00","6.2","","1.1","","70","","21","","11","","","","99.64","","","","","","NA"
"2005-11-02 12:00","2005","11","02","12:00","7.1","","1.4","","67","","20","","9","","","","99.61","","","","","","NA"
"2005-11-02 13:00","2005","11","02","13:00","7.4","","1.8","","68","","16","","9","","","","99.54","","","","","","NA"
"2005-11-02 14:00","2005","11","02","14:00","8.6","","2.7","","66","","18","","13","","","","99.53","","","","","","NA"
"2005-11-02 15:00","2005","11","02","15:00","8.5","","3.6","","71","","17","","17","","","","99.49","","","","","","NA"
"2005-11-02 16:00","2005","11","02","16:00","8.6","","2.9","","67","","18","","15","","","","99.40","","","","","","NA"
"2005-11-02 17:00","2005","11","02","17:00","8.8","","2.6","","65","","21","","24","","","","99.35","","","","","","NA"
"2005-11-02 18:00","2005","11","02","18:00","8.4","","3.0","","69","","22","","28","","","","99.34","","","","","","NA"
"2005-11-02 19:00","2005","11","02","19:00","8.3","","4.0","","74","","20","","26","","","","99.29","","","","","","NA"
"2005-11-02 20:00","2005","11","02","20:00","8.7","","4.7","","76","","20","","28","","","","99.24","","","","","","NA"
"2005-11-02 21:00","2005","11","02","21:00","9.0","","5.3","","78","","18","","33","","","","99.07","","","","","","NA"
"2005-11-02 22:00","2005","11","02","22:00","9.1","","5.9","","80","","18","","37","","","","98.93","","","","","","NA"
"2005-11-02 23:00","2005","11","02","23:00","9.5","","5.5","","76","","18","","32","","","","98.90","","","","","","NA"
"2005-11-03 00:00","2005","11","03","00:00","9.1","","6.6","","84","","17","","30","","","","98.68","","","","","","NA"
"2005-11-03 01:00","2005","11","03","01:00","10.0","","8.0","","87","","18","","24","","","","98.43","","","","","","NA"
"2005-11-03 02:00","2005","11","03","02:00","10.1","","7.0","","81","","20","","28","","","","98.28","","","","","","NA"
"2005-11-03 03:00","2005","11","03","03:00","10.7","","5.9","","72","","22","","19","","","","98.10","","","","","","NA"
"2005-11-03 04:00","2005","11","03","04:00","10.9","","4.9","","66","","25","","7","","","","97.96","","","","","","NA"
"2005-11-03 05:00","2005","11","03","05:00","11.2","","4.9","","65","","25","","28","","","","97.92","","","","","","NA"
"2005-11-03 06:00","2005","11","03","06:00","11.1","","5.4","","68","","26","","24","","","","97.94","","","","","","NA"
"2005-11-03 07:00","2005","11","03","07:00","11.0","","5.8","","70","","26","","22","","","","98.02","","","","","","NA"
"2005-11-03 08:00","2005","11","03","08:00","11.3","","5.5","","67","","26","","24","","","","98.10","","","","","","NA"
"2005-11-03 09:00","2005","11","03","09:00","12.0","","4.3","","59","","28","","39","","","","98.20","","","","","","NA"
"2005-11-03 10:00","2005","11","03","10:00","11.6","","3.7","","58","","28","","39","","","","98.28","","","","","","NA"
"2005-11-03 11:00","2005","11","03","11:00","11.4","","4.2","","61","","28","","32","","","","98.40","","","","","","NA"
"2005-11-03 12:00","2005","11","03","12:00","11.8","","4.1","","59","","28","","24","","","","98.51","","","","","","NA"
"2005-11-03 13:00","2005","11","03","13:00","12.3","","3.9","","56","","28","","28","","","","98.56","","","","","","NA"
"2005-11-03 14:00","2005","11","03","14:00","12.1","","4.4","","59","","27","","30","","","","98.66","","","","","","NA"
"2005-11-03 15:00","2005","11","03","15:00","11.6","","5.1","","64","","27","","24","","","","98.76","","","","","","NA"
"2005-11-03 16:00","2005","11","03","16:00","11.2","","5.2","","67","","28","","24","","","","98.85","","","","","","NA"
"2005-11-03 17:00","2005","11","03","17:00","10.6","","5.5","","71","","30","","9","","","","98.92","","","","","","NA"
"2005-11-03 18:00","2005","11","03","18:00","8.1","","1.6","","64","","2","","17","","","","99.08","","","","","","NA"
"2005-11-03 19:00","2005","11","03","19:00","6.4","","-0.1","","63","","4","","15","","","","99.17","","","","","","NA"
"2005-11-03 20:00","2005","11","03","20:00","5.2","","-0.3","","68","","5","","13","","","","99.22","","","","","","NA"
"2005-11-03 21:00","2005","11","03","21:00","5.0","","-0.5","","68","","7","","15","","","","99.29","","","","","","NA"
"2005-11-03 22:00","2005","11","03","22:00","4.3","","-1.0","","68","","7","","26","","","","99.23","","","","","","NA"
"2005-11-03 23:00","2005","11","03","23:00","4.1","","-0.9","","70","","6","","20","","","","99.22","","","","","","NA"
"2005-11-04 00:00","2005","11","04","00:00","3.6","","-1.1","","71","","7","","28","","","","99.14","","","","","","NA"
"2005-11-04 01:00","2005","11","04","01:00","3.6","","-0.4","","75","","7","","35","","","","99.10","","","","","","NA"
"2005-11-04 02:00","2005","11","04","02:00","3.9","","0.3","","77","","8","","37","","","","99.01","","","","","","NA"
"2005-11-04 03:00","2005","11","04","03:00","3.8","","0.6","","80","","8","","35","","","","98.87","","","","","","NA"
"2005-11-04 04:00","2005","11","04","04:00","3.7","","0.2","","78","","8","","35","","","","98.77","","","","","","NA"
"2005-11-04 05:00","2005","11","04","05:00","3.7","","0.3","","78","","8","","41","","","","98.62","","","","","","NA"
"2005-11-04 06:00","2005","11","04","06:00","4.2","","0.8","","79","","7","","35","","","","98.49","","","","","","NA"
"2005-11-04 07:00","2005","11","04","07:00","4.2","","0.8","","79","","8","","39","","","","98.45","","","","","","NA"
"2005-11-04 08:00","2005","11","04","08:00","4.2","","0.7","","78","","7","","28","","","","98.48","","","","","","NA"
"2005-11-04 09:00","2005","11","04","09:00","4.3","","0.6","","77","","7","","26","","","","98.44","","","","","","NA"
"2005-11-04 10:00","2005","11","04","10:00","4.5","","0.9","","77","","7","","30","","","","98.25","","","","","","NA"
"2005-11-04 11:00","2005","11","04","11:00","5.3","","2.0","","79","","8","","33","","","","98.19","","","","","","NA"
"2005-11-04 12:00","2005","11","04","12:00","5.5","","1.3","","74","","7","","20","","","","98.17","","","","","","NA"
"2005-11-04 13:00","2005","11","04","13:00","6.3","","2.3","","76","","7","","26","","","","98.05","","","","","","NA"
"2005-11-04 14:00","2005","11","04","14:00","7.3","","3.1","","75","","6","","15","","","","97.98","","","","","","NA"
"2005-11-04 15:00","2005","11","04","15:00","9.8","","7.1","","83","","10","","15","","","","98.02","","","","","","NA"
"2005-11-04 16:00","2005","11","04","16:00","11.8","","7.4","","74","","30","","6","","","","98.09","","","","","","NA"
"2005-11-04 17:00","2005","11","04","17:00","8.3","","3.9","","74","","33","","13","","","","98.24","","","","","","NA"
"2005-11-04 18:00","2005","11","04","18:00","6.6","","3.0","","78","","36","","7","","","","98.33","","","","","","NA"
"2005-11-04 19:00","2005","11","04","19:00","6.3","","3.0","","79","","34","","9","","","","98.45","","","","","","NA"
"2005-11-04 20:00","2005","11","04","20:00","4.8","","1.9","","81","","34","","11","","","","98.54","","","","","","NA"
"2005-11-04 21:00","2005","11","04","21:00","4.2","","1.8","","84","","32","","4","","","","98.61","","","","","","NA"
"2005-11-04 22:00","2005","11","04","22:00","4.1","","1.9","","86","","1","","9","","","","98.65","","","","","","NA"
"2005-11-04 23:00","2005","11","04","23:00","3.5","","1.5","","87","","36","","9","","","","98.70","","","","","","NA"
"2005-11-05 00:00","2005","11","05","00:00","3.7","","1.6","","86","","35","","6","","","","98.78","","","","","","NA"
"2005-11-05 01:00","2005","11","05","01:00","3.9","","1.7","","86","","2","","4","","","","98.84","","","","","","NA"
"2005-11-05 02:00","2005","11","05","02:00","3.7","","1.5","","86","","2","","6","","","","98.94","","","","","","NA"
"2005-11-05 03:00","2005","11","05","03:00","3.7","","1.2","","84","","2","","6","","","","99.00","","","","","","NA"
"2005-11-05 04:00","2005","11","05","04:00","3.3","","0.8","","84","","3","","6","","","","99.03","","","","","","NA"
"2005-11-05 05:00","2005","11","05","05:00","3.2","","0.2","","81","","4","","6","","","","99.08","","","","","","NA"
"2005-11-05 06:00","2005","11","05","06:00","3.2","","0.4","","82","","3","","6","","","","99.12","","","","","","NA"
"2005-11-05 07:00","2005","11","05","07:00","3.0","","0.3","","82","","6","","7","","","","99.16","","","","","","NA"
"2005-11-05 08:00","2005","11","05","08:00","3.0","","0.3","","82","","3","","6","","","","99.25","","","","","","NA"
"2005-11-05 09:00","2005","11","05","09:00","2.9","","-0.8","","77","","2","","6","","","","99.35","","","","","","NA"
"2005-11-05 10:00","2005","11","05","10:00","3.1","","-0.5","","77","","6","","9","","","","99.30","","","","","","NA"
"2005-11-05 11:00","2005","11","05","11:00","3.6","","-0.5","","75","","3","","9","","","","99.29","","","","","","NA"
"2005-11-05 12:00","2005","11","05","12:00","4.0","","-0.8","","71","","7","","6","","","","99.35","","","","","","NA"
"2005-11-05 13:00","2005","11","05","13:00","4.3","","-1.3","","67","","36","","9","","","","99.35","","","","","","NA"
"2005-11-05 14:00","2005","11","05","14:00","4.3","","-1.1","","68","","3","","9","","","","99.34","","","","","","NA"
"2005-11-05 15:00","2005","11","05","15:00","4.6","","-1.0","","67","","3","","9","","","","99.40","","","","","","NA"
"2005-11-05 16:00","2005","11","05","16:00","4.2","","-1.0","","69","","3","","9","","","","99.42","","","","","","NA"
"2005-11-05 17:00","2005","11","05","17:00","3.8","","-1.0","","71","","3","","9","","","","99.45","","","","","","NA"
"2005-11-05 18:00","2005","11","05","18:00","3.4","","-1.0","","73","","6","","9","","","","99.47","","","","","","NA"
"2005-11-05 19:00","2005","11","05","19:00","3.1","","-1.2","","73","","4","","9","","","","99.54","","","","","","NA"
"2005-11-05 20:00","2005","11","05","20:00","2.7","","-1.4","","74","","6","","11","","","","99.49","","","","","","NA"
"2005-11-05 21:00","2005","11","05","21:00","2.6","","-1.4","","75","","5","","13","","","","99.43","","","","","","NA"
"2005-11-05 22:00","2005","11","05","22:00","2.5","","-1.1","","77","","7","","19","","","","99.32","","","","","","NA"
"2005-11-05 23:00","2005","11","05","23:00","2.4","","-0.8","","79","","7","","13","","","","99.31","","","","","","NA"
"2005-11-06 00:00","2005","11","06","00:00","2.0","","-1.1","","80","","6","","17","","","","99.16","","","","","","NA"
"2005-11-06 01:00","2005","11","06","01:00","2.3","","-0.5","","82","","7","","20","","","","99.11","","","","","","NA"
"2005-11-06 02:00","2005","11","06","02:00","1.9","","-0.4","","85","","7","","24","","","","98.92","","","","","","NA"
"2005-11-06 03:00","2005","11","06","03:00","1.6","","0.3","","91","","6","","20","","","","98.78","","","","","","NA"
"2005-11-06 04:00","2005","11","06","04:00","2.2","","0.9","","91","","6","","24","","","","98.57","","","","","","NA"
"2005-11-06 05:00","2005","11","06","05:00","2.1","","1.0","","92","","6","","26","","","","98.37","","","","","","NA"
"2005-11-06 06:00","2005","11","06","06:00","2.5","","1.2","","91","","7","","28","","","","98.16","","","","","","NA"
"2005-11-06 07:00","2005","11","06","07:00","3.4","","2.2","","92","","7","","43","","","","97.93","","","","","","NA"
"2005-11-06 08:00","2005","11","06","08:00","4.4","","3.3","","93","","8","","50","","","","97.66","","","","","","NA"
"2005-11-06 09:00","2005","11","06","09:00","5.4","","4.3","","93","","8","","43","","","","97.50","","","","","","NA"
"2005-11-06 10:00","2005","11","06","10:00","7.0","","6.0","","93","","8","","39","","","","97.30","","","","","","NA"
"2005-11-06 11:00","2005","11","06","11:00","10.7","","9.7","","94","","13","","43","","","","97.15","","","","","","NA"
"2005-11-06 12:00","2005","11","06","12:00","11.2","","9.5","","89","","16","","32","","","","97.04","","","","","","NA"
"2005-11-06 13:00","2005","11","06","13:00","11.3","","9.4","","88","","18","","30","","","","96.84","","","","","","NA"
"2005-11-06 14:00","2005","11","06","14:00","11.4","","9.8","","90","","17","","39","","","","96.67","","","","","","NA"
"2005-11-06 15:00","2005","11","06","15:00","10.6","","9.1","","90","","19","","43","","","","96.57","","","","","","NA"
"2005-11-06 16:00","2005","11","06","16:00","6.3","","4.3","","87","","24","","41","","","","96.69","","","","","","NA"
"2005-11-06 17:00","2005","11","06","17:00","4.5","","2.9","","89","","26","","41","","","","96.86","","","","","","NA"
"2005-11-06 18:00","2005","11","06","18:00","2.4","","0.2","","85","","27","","52","","","","97.11","","","","","","NA"
"2005-11-06 19:00","2005","11","06","19:00","2.1","","-0.9","","80","","28","","52","","","","97.45","","","","","","NA"
"2005-11-06 20:00","2005","11","06","20:00","2.0","","-2.7","","71","","29","","50","","","","97.74","","","","","","NA"
"2005-11-06 21:00","2005","11","06","21:00","2.1","","-2.4","","72","","29","","43","","","","98.05","","","","","","NA"
"2005-11-06 22:00","2005","11","06","22:00","2.5","","-2.5","","70","","29","","48","","","","98.26","","","","","","NA"
"2005-11-06 23:00","2005","11","06","23:00","3.1","","-1.9","","70","","29","","44","","","","98.41","","","","","","NA"
"2005-11-07 00:00","2005","11","07","00:00","3.1","","-1.9","","70","","28","","41","","","","98.57","","","","","","NA"
"2005-11-07 01:00","2005","11","07","01:00","3.1","","-2.6","","66","","29","","41","","","","98.70","","","","","","NA"
"2005-11-07 02:00","2005","11","07","02:00","2.5","","-2.3","","71","","30","","32","","","","98.83","","","","","","NA"
"2005-11-07 03:00","2005","11","07","03:00","2.6","","-1.7","","73","","30","","28","","","","98.98","","","","","","NA"
"2005-11-07 04:00","2005","11","07","04:00","3.0","","-1.0","","75","","30","","28","","","","99.05","","","","","","NA"
"2005-11-07 05:00","2005","11","07","05:00","3.2","","-0.8","","75","","30","","24","","","","99.14","","","","","","NA"
"2005-11-07 06:00","2005","11","07","06:00","3.3","","-0.7","","75","","30","","22","","","","99.21","","","","","","NA"
"2005-11-07 07:00","2005","11","07","07:00","3.0","","-0.8","","76","","30","","22","","","","99.29","","","","","","NA"
"2005-11-07 08:00","2005","11","07","08:00","3.2","","-0.4","","77","","30","","19","","","","99.38","","","","","","NA"
"2005-11-07 09:00","2005","11","07","09:00","4.4","","0.6","","76","","30","","20","","","","99.41","","","","","","NA"
"2005-11-07 10:00","2005","11","07","10:00","5.7","","1.0","","72","","29","","24","","","","99.40","","","","","","NA"
"2005-11-07 11:00","2005","11","07","11:00","6.5","","1.4","","70","","28","","26","","","","99.46","","","","","","NA"
"2005-11-07 12:00","2005","11","07","12:00","7.0","","2.3","","72","","28","","26","","","","99.45","","","","","","NA"
"2005-11-07 13:00","2005","11","07","13:00","7.0","","1.6","","68","","26","","26","","","","99.42","","","","","","NA"
"2005-11-07 14:00","2005","11","07","14:00","6.7","","3.1","","78","","25","","20","","","","99.41","","","","","","NA"
"2005-11-07 15:00","2005","11","07","15:00","6.7","","3.1","","78","","25","","13","","","","99.34","","","","","","NA"
"2005-11-07 16:00","2005","11","07","16:00","6.5","","3.1","","79","","25","","19","","","","99.38","","","","","","NA"
"2005-11-07 17:00","2005","11","07","17:00","5.8","","3.0","","82","","26","","17","","","","99.35","","","","","","NA"
"2005-11-07 18:00","2005","11","07","18:00","5.5","","3.4","","86","","26","","9","","","","99.37","","","","","","NA"
"2005-11-07 19:00","2005","11","07","19:00","5.1","","3.5","","89","","32","","4","","","","99.33","","","","","","NA"
"2005-11-07 20:00","2005","11","07","20:00","5.3","","3.8","","90","","30","","4","","","","99.32","","","","","","NA"
"2005-11-07 21:00","2005","11","07","21:00","5.4","","3.9","","90","","26","","9","","","","99.31","","","","","","NA"
"2005-11-07 22:00","2005","11","07","22:00","5.0","","3.8","","92","","35","","6","","","","99.35","","","","","","NA"
"2005-11-07 23:00","2005","11","07","23:00","5.0","","3.8","","92","","","","0","","","","99.35","","","","","","NA"
"2005-11-08 00:00","2005","11","08","00:00","5.1","","3.5","","89","","27","","2","","","","99.39","","","","","","NA"
"2005-11-08 01:00","2005","11","08","01:00","4.4","","3.1","","91","","29","","4","","","","99.41","","","","","","NA"
"2005-11-08 02:00","2005","11","08","02:00","3.4","","2.5","","94","","29","","6","","","","99.45","","","","","","NA"
"2005-11-08 03:00","2005","11","08","03:00","4.1","","2.7","","91","","31","","13","","","","99.48","","","","","","NA"
"2005-11-08 04:00","2005","11","08","04:00","3.6","","2.0","","89","","32","","9","","","","99.53","","","","","","NA"
"2005-11-08 05:00","2005","11","08","05:00","2.9","","1.5","","90","","32","","6","","","","99.62","","","","","","NA"
"2005-11-08 06:00","2005","11","08","06:00","3.3","","1.0","","85","","5","","2","","","","99.64","","","","","","NA"
"2005-11-08 07:00","2005","11","08","07:00","3.4","","0.8","","83","","34","","4","","","","99.68","","","","","","NA"
"2005-11-08 08:00","2005","11","08","08:00","3.5","","1.2","","85","","25","","2","","","","99.75","","","","","","NA"
"2005-11-08 09:00","2005","11","08","09:00","3.5","","1.2","","85","","3","","4","","","","99.81","","","","","","NA"
"2005-11-08 10:00","2005","11","08","10:00","4.2","","1.3","","81","","5","","4","","","","99.86","","","","","","NA"
"2005-11-08 11:00","2005","11","08","11:00","4.7","","2.1","","83","","3","","6","","","","99.91","","","","","","NA"
"2005-11-08 12:00","2005","11","08","12:00","4.7","","1.7","","81","","14","","7","","","","99.90","","","","","","NA"
"2005-11-08 13:00","2005","11","08","13:00","4.8","","1.8","","81","","11","","6","","","","99.90","","","","","","NA"
"2005-11-08 14:00","2005","11","08","14:00","4.9","","0.3","","72","","4","","6","","","","99.92","","","","","","NA"
"2005-11-08 15:00","2005","11","08","15:00","5.4","","0.5","","71","","2","","4","","","","99.92","","","","","","NA"
"2005-11-08 16:00","2005","11","08","16:00","5.7","","0.3","","68","","","","0","","","","99.96","","","","","","NA"
"2005-11-08 17:00","2005","11","08","17:00","5.1","","1.1","","75","","33","","2","","","","99.99","","","","","","NA"
"2005-11-08 18:00","2005","11","08","18:00","5.1","","0.4","","72","","5","","4","","","","99.99","","","","","","NA"
"2005-11-08 19:00","2005","11","08","19:00","5.1","","0.2","","71","","7","","7","","","","99.98","","","","","","NA"
"2005-11-08 20:00","2005","11","08","20:00","4.7","","0.0","","72","","7","","13","","","","99.95","","","","","","NA"
"2005-11-08 21:00","2005","11","08","21:00","3.3","","-2.2","","67","","7","","17","","","","99.94","","","","","","NA"
"2005-11-08 22:00","2005","11","08","22:00","2.1","","-2.9","","69","","7","","19","","","","99.89","","","","","","NA"
"2005-11-08 23:00","2005","11","08","23:00","2.0","","-1.9","","75","","8","","28","","","","99.80","","","","","","NA"
"2005-11-09 00:00","2005","11","09","00:00","1.6","","-2.1","","76","","9","","30","","","","99.74","","","","","","NA"
"2005-11-09 01:00","2005","11","09","01:00","1.3","","-2.1","","78","","8","","32","","","","99.56","","","","","","NA"
"2005-11-09 02:00","2005","11","09","02:00","1.7","","-1.3","","80","","9","","39","","","","99.34","","","","","","NA"
"2005-11-09 03:00","2005","11","09","03:00","2.0","","-1.0","","80","","10","","35","","","","99.27","","","","","","NA"
"2005-11-09 04:00","2005","11","09","04:00","4.0","","1.2","","82","","10","","39","","","","99.09","","","","","","NA"
"2005-11-09 05:00","2005","11","09","05:00","5.3","","2.6","","83","","12","","48","","","","98.83","","","","","","NA"
"2005-11-09 06:00","2005","11","09","06:00","5.2","","2.3","","82","","13","","57","","","","98.62","","","","","","NA"
"2005-11-09 07:00","2005","11","09","07:00","5.1","","3.1","","87","","12","","57","","","","98.46","","","","","","NA"
"2005-11-09 08:00","2005","11","09","08:00","4.0","","2.7","","91","","13","","59","","","","98.24","","","","","","NA"
"2005-11-09 09:00","2005","11","09","09:00","4.0","","3.0","","93","","13","","63","","","","97.97","","","","","","NA"
"2005-11-09 10:00","2005","11","09","10:00","5.1","","3.8","","91","","12","","57","","","","97.73","","","","","","NA"
"2005-11-09 11:00","2005","11","09","11:00","6.1","","5.2","","94","","13","","59","","","","97.46","","","","","","NA"
"2005-11-09 12:00","2005","11","09","12:00","7.4","","6.6","","95","","15","","56","","","","97.16","","","","","","NA"
"2005-11-09 13:00","2005","11","09","13:00","8.0","","7.2","","95","","16","","54","","","","96.96","","","","","","NA"
"2005-11-09 14:00","2005","11","09","14:00","9.7","","7.5","","86","","27","","26","","","","97.02","","","","","","NA"
"2005-11-09 15:00","2005","11","09","15:00","8.6","","3.6","","71","","28","","57","","","","97.03","","","","","","NA"
"2005-11-09 16:00","2005","11","09","16:00","8.0","","1.4","","63","","28","","43","","","","97.18","","","","","","NA"
"2005-11-09 17:00","2005","11","09","17:00","7.5","","1.4","","65","","26","","32","","","","97.25","","","","","","NA"
"2005-11-09 18:00","2005","11","09","18:00","7.2","","0.7","","63","","26","","35","","","","97.28","","","","","","NA"
"2005-11-09 19:00","2005","11","09","19:00","6.4","","0.4","","65","","28","","35","","","","97.36","","","","","","NA"
"2005-11-09 20:00","2005","11","09","20:00","6.4","","-1.1","","59","","28","","39","","","","97.33","","","","","","NA"
"2005-11-09 21:00","2005","11","09","21:00","4.5","","1.0","","78","","28","","35","","","","97.39","","","","","","NA"
"2005-11-09 22:00","2005","11","09","22:00","3.5","","0.5","","81","","28","","44","","","","97.39","","","","","","NA"
"2005-11-09 23:00","2005","11","09","23:00","3.4","","0.8","","83","","26","","44","","","","97.38","","","","","","NA"
"2005-11-10 00:00","2005","11","10","00:00","3.5","","-1.8","","68","","29","","44","","","","97.44","","","","","","NA"
"2005-11-10 01:00","2005","11","10","01:00","1.4","","-3.1","","72","","31","","33","","","","97.65","","","","","","NA"
"2005-11-10 02:00","2005","11","10","02:00","0.8","","-6.0","","60","","31","","32","","","","97.83","","","","","","NA"
"2005-11-10 03:00","2005","11","10","03:00","0.6","","-6.9","","57","","31","","32","","","","98.03","","","","","","NA"
"2005-11-10 04:00","2005","11","10","04:00","0.7","","-6.9","","57","","31","","33","","","","98.19","","","","","","NA"
"2005-11-10 05:00","2005","11","10","05:00","0.7","","-6.0","","61","","31","","33","","","","98.38","","","","","","NA"
"2005-11-10 06:00","2005","11","10","06:00","0.7","","-6.5","","59","","31","","30","","","","98.53","","","","","","NA"
"2005-11-10 07:00","2005","11","10","07:00","0.6","","-7.2","","56","","31","","30","","","","98.67","","","","","","NA"
"2005-11-10 08:00","2005","11","10","08:00","0.6","","-7.4","","55","","31","","22","","","","98.79","","","","","","NA"
"2005-11-10 09:00","2005","11","10","09:00","0.6","","-7.9","","53","","31","","24","","","","98.86","","","","","","NA"
"2005-11-10 10:00","2005","11","10","10:00","0.7","","-8.4","","51","","30","","30","","","","98.89","","","","","","NA"
"2005-11-10 11:00","2005","11","10","11:00","0.9","","-7.9","","52","","31","","22","","","","99.02","","","","","","NA"
"2005-11-10 12:00","2005","11","10","12:00","0.9","","-7.6","","53","","31","","22","","","","98.99","","","","","","NA"
"2005-11-10 13:00","2005","11","10","13:00","1.2","","-8.6","","48","","30","","26","","","","99.05","","","","","","NA"
"2005-11-10 14:00","2005","11","10","14:00","1.6","","-9.4","","44","","31","","24","","","","99.06","","","","","","NA"
"2005-11-10 15:00","2005","11","10","15:00","1.4","","-9.2","","45","","31","","24","","","","99.09","","","","","","NA"
"2005-11-10 16:00","2005","11","10","16:00","1.1","","-9.4","","45","","31","","24","","","","99.15","","","","","","NA"
"2005-11-10 17:00","2005","11","10","17:00","0.9","","-8.5","","49","","31","","17","","","","99.22","","","","","","NA"
"2005-11-10 18:00","2005","11","10","18:00","0.7","","-8.6","","50","","31","","13","","","","99.27","","","","","","NA"
"2005-11-10 19:00","2005","11","10","19:00","0.4","","-8.4","","52","","32","","7","","","","99.32","","","","","","NA"
"2005-11-10 20:00","2005","11","10","20:00","0.0","","-8.6","","52","","33","","7","","","","99.36","","","","-2","","NA"
"2005-11-10 21:00","2005","11","10","21:00","0.2","","-8.4","","52","","34","","6","","","","99.39","","","","","","NA"
"2005-11-10 22:00","2005","11","10","22:00","0.3","","-8.2","","53","","34","","7","","","","99.37","","","","","","NA"
"2005-11-10 23:00","2005","11","10","23:00","0.5","","-8.1","","52","","33","","11","","","","99.37","","","","","","NA"
"2005-11-11 00:00","2005","11","11","00:00","0.4","","-7.5","","55","","34","","6","","","","99.35","","","","","","NA"
"2005-11-11 01:00","2005","11","11","01:00","0.2","","-7.0","","58","","33","","6","","","","99.36","","","","","","NA"
"2005-11-11 02:00","2005","11","11","02:00","0.1","","-6.9","","59","","1","","6","","","","99.37","","","","","","NA"
"2005-11-11 03:00","2005","11","11","03:00","0.1","","-6.5","","61","","2","","4","","","","99.40","","","","","","NA"
"2005-11-11 04:00","2005","11","11","04:00","0.4","","-6.0","","62","","6","","2","","","","99.38","","","","","","NA"
"2005-11-11 05:00","2005","11","11","05:00","0.3","","-6.0","","63","","7","","2","","","","99.41","","","","","","NA"
"2005-11-11 06:00","2005","11","11","06:00","0.1","","-5.8","","64","","4","","7","","","","99.44","","","","","","NA"
"2005-11-11 07:00","2005","11","11","07:00","0.1","","-5.4","","66","","5","","6","","","","99.48","","","","","","NA"
"2005-11-11 08:00","2005","11","11","08:00","0.7","","-5.8","","62","","2","","6","","","","99.57","","","","","","NA"
"2005-11-11 09:00","2005","11","11","09:00","1.6","","-6.5","","55","","1","","4","","","","99.61","","","","","","NA"
"2005-11-11 10:00","2005","11","11","10:00","2.3","","-5.2","","58","","28","","6","","","","99.60","","","","","","NA"
"2005-11-11 11:00","2005","11","11","11:00","2.4","","-4.4","","61","","17","","7","","","","99.60","","","","","","NA"
"2005-11-11 12:00","2005","11","11","12:00","2.6","","-3.6","","64","","20","","9","","","","99.54","","","","","","NA"
"2005-11-11 13:00","2005","11","11","13:00","3.4","","-3.3","","61","","24","","7","","","","99.53","","","","","","NA"
"2005-11-11 14:00","2005","11","11","14:00","3.4","","-2.5","","65","","17","","11","","","","99.47","","","","","","NA"
"2005-11-11 15:00","2005","11","11","15:00","3.9","","-2.3","","64","","11","","11","","","","99.42","","","","","","NA"
"2005-11-11 16:00","2005","11","11","16:00","4.2","","-1.7","","65","","11","","11","","","","99.43","","","","","","NA"
"2005-11-11 17:00","2005","11","11","17:00","4.5","","-0.3","","71","","9","","15","","","","99.40","","","","","","NA"
"2005-11-11 18:00","2005","11","11","18:00","3.2","","-0.8","","75","","6","","13","","","","99.39","","","","","","NA"
"2005-11-11 19:00","2005","11","11","19:00","6.1","","2.0","","75","","19","","19","","","","99.40","","","","","","NA"
"2005-11-11 20:00","2005","11","11","20:00","6.5","","2.5","","76","","18","","22","","","","99.38","","","","","","NA"
"2005-11-11 21:00","2005","11","11","21:00","6.4","","3.4","","81","","15","","24","","","","99.32","","","","","","NA"
"2005-11-11 22:00","2005","11","11","22:00","7.3","","4.5","","82","","15","","19","","","","99.31","","","","","","NA"
"2005-11-11 23:00","2005","11","11","23:00","7.4","","5.2","","86","","15","","17","","","","99.26","","","","","","NA"
"2005-11-12 00:00","2005","11","12","00:00","7.4","","5.7","","89","","15","","9","","","","99.27","","","","","","NA"
"2005-11-12 01:00","2005","11","12","01:00","7.5","","6.1","","91","","14","","7","","","","99.23","","","","","","NA"
"2005-11-12 02:00","2005","11","12","02:00","7.3","","4.8","","84","","26","","2","","","","99.22","","","","","","NA"
"2005-11-12 03:00","2005","11","12","03:00","7.9","","5.7","","86","","20","","15","","","","99.19","","","","","","NA"
"2005-11-12 04:00","2005","11","12","04:00","8.1","","5.8","","85","","20","","20","","","","99.13","","","","","","NA"
"2005-11-12 05:00","2005","11","12","05:00","8.2","","5.2","","81","","20","","26","","","","99.12","","","","","","NA"
"2005-11-12 06:00","2005","11","12","06:00","8.3","","4.9","","79","","20","","28","","","","99.11","","","","","","NA"
"2005-11-12 07:00","2005","11","12","07:00","8.2","","5.2","","81","","19","","22","","","","99.13","","","","","","NA"
"2005-11-12 08:00","2005","11","12","08:00","8.5","","4.4","","75","","19","","26","","","","99.12","","","","","","NA"
"2005-11-12 09:00","2005","11","12","09:00","8.5","","4.5","","76","","20","","22","","","","99.13","","","","","","NA"
"2005-11-12 10:00","2005","11","12","10:00","8.7","","4.6","","75","","20","","22","","","","99.13","","","","","","NA"
"2005-11-12 11:00","2005","11","12","11:00","8.7","","4.4","","74","","19","","26","","","","99.14","","","","","","NA"
"2005-11-12 12:00","2005","11","12","12:00","8.9","","4.0","","71","","18","","30","","","","99.07","","","","","","NA"
"2005-11-12 13:00","2005","11","12","13:00","8.9","","4.8","","75","","18","","28","","","","99.06","","","","","","NA"
"2005-11-12 14:00","2005","11","12","14:00","8.8","","4.8","","76","","17","","24","","","","99.04","","","","","","NA"
"2005-11-12 15:00","2005","11","12","15:00","9.0","","5.2","","77","","16","","28","","","","99.02","","","","","","NA"
"2005-11-12 16:00","2005","11","12","16:00","8.5","","6.2","","85","","12","","19","","","","98.99","","","","","","NA"
"2005-11-12 17:00","2005","11","12","17:00","8.6","","5.9","","83","","10","","19","","","","99.00","","","","","","NA"
"2005-11-12 18:00","2005","11","12","18:00","8.3","","6.4","","88","","10","","17","","","","98.98","","","","","","NA"
"2005-11-12 19:00","2005","11","12","19:00","9.3","","5.5","","77","","13","","17","","","","98.93","","","","","","NA"
"2005-11-12 20:00","2005","11","12","20:00","10.0","","5.2","","72","","14","","19","","","","98.88","","","","","","NA"
"2005-11-12 21:00","2005","11","12","21:00","9.0","","6.4","","84","","10","","11","","","","98.86","","","","","","NA"
"2005-11-12 22:00","2005","11","12","22:00","9.4","","5.5","","77","","11","","9","","","","98.80","","","","","","NA"
"2005-11-12 23:00","2005","11","12","23:00","10.6","","4.4","","65","","17","","13","","","","98.73","","","","","","NA"
"2005-11-13 00:00","2005","11","13","00:00","11.0","","4.8","","66","","18","","20","","","","98.71","","","","","","NA"
"2005-11-13 01:00","2005","11","13","01:00","11.0","","4.7","","65","","20","","35","","","","98.63","","","","","","NA"
"2005-11-13 02:00","2005","11","13","02:00","10.8","","4.7","","66","","21","","37","","","","98.52","","","","","","NA"
"2005-11-13 03:00","2005","11","13","03:00","10.0","","5.3","","73","","21","","20","","","","98.44","","","","","","NA"
"2005-11-13 04:00","2005","11","13","04:00","10.6","","4.7","","67","","19","","33","","","","98.40","","","","","","NA"
"2005-11-13 05:00","2005","11","13","05:00","9.7","","5.8","","77","","18","","28","","","","98.27","","","","","","NA"
"2005-11-13 06:00","2005","11","13","06:00","9.4","","6.1","","80","","18","","30","","","","98.15","","","","","","NA"
"2005-11-13 07:00","2005","11","13","07:00","9.4","","6.5","","82","","19","","33","","","","98.15","","","","","","NA"
"2005-11-13 08:00","2005","11","13","08:00","9.5","","6.9","","84","","18","","39","","","","98.07","","","","","","NA"
"2005-11-13 09:00","2005","11","13","09:00","9.9","","7.1","","83","","19","","41","","","","98.04","","","","","","NA"
"2005-11-13 10:00","2005","11","13","10:00","10.1","","7.2","","82","","17","","43","","","","97.98","","","","","","NA"
"2005-11-13 11:00","2005","11","13","11:00","10.5","","7.2","","80","","16","","39","","","","97.89","","","","","","NA"
"2005-11-13 12:00","2005","11","13","12:00","12.5","","7.4","","71","","20","","39","","","","97.83","","","","","","NA"
"2005-11-13 13:00","2005","11","13","13:00","11.5","","5.7","","68","","22","","50","","","","97.80","","","","","","NA"
"2005-11-13 14:00","2005","11","13","14:00","11.4","","5.2","","66","","23","","57","","","","97.79","","","","","","NA"
"2005-11-13 15:00","2005","11","13","15:00","11.3","","5.1","","66","","22","","54","","","","97.84","","","","","","NA"
"2005-11-13 16:00","2005","11","13","16:00","10.5","","5.3","","70","","23","","48","","","","97.88","","","","","","NA"
"2005-11-13 17:00","2005","11","13","17:00","9.6","","5.6","","76","","23","","32","","","","97.91","","","","","","NA"
"2005-11-13 18:00","2005","11","13","18:00","9.7","","1.0","","55","","24","","54","","","","97.96","","","","","","NA"
"2005-11-13 19:00","2005","11","13","19:00","8.1","","0.7","","60","","24","","44","","","","98.07","","","","","","NA"
"2005-11-13 20:00","2005","11","13","20:00","7.8","","0.5","","60","","23","","54","","","","98.12","","","","","","NA"
"2005-11-13 21:00","2005","11","13","21:00","6.9","","1.3","","67","","23","","56","","","","98.13","","","","","","NA"
"2005-11-13 22:00","2005","11","13","22:00","3.7","","-0.2","","76","","25","","46","","","","98.21","","","","","","NA"
"2005-11-13 23:00","2005","11","13","23:00","4.7","","0.0","","72","","25","","46","","","","98.28","","","","","","NA"
"2005-11-14 00:00","2005","11","14","00:00","4.2","","-1.4","","67","","25","","46","","","","98.38","","","","","","NA"
"2005-11-14 01:00","2005","11","14","01:00","3.9","","0.2","","77","","27","","52","","","","98.49","","","","","","NA"
"2005-11-14 02:00","2005","11","14","02:00","3.4","","-1.8","","69","","29","","41","","","","98.83","","","","","","NA"
"2005-11-14 03:00","2005","11","14","03:00","2.4","","-3.0","","67","","30","","41","","","","99.17","","","","","","NA"
"2005-11-14 04:00","2005","11","14","04:00","1.6","","-4.5","","64","","31","","30","","","","99.44","","","","","","NA"
"2005-11-14 05:00","2005","11","14","05:00","1.5","","-4.6","","64","","30","","30","","","","99.72","","","","","","NA"
"2005-11-14 06:00","2005","11","14","06:00","1.3","","-4.2","","67","","31","","19","","","","99.86","","","","","","NA"
"2005-11-14 07:00","2005","11","14","07:00","1.4","","-4.3","","66","","30","","20","","","","100.01","","","","","","NA"
"2005-11-14 08:00","2005","11","14","08:00","1.7","","-4.6","","63","","31","","20","","","","100.09","","","","","","NA"
"2005-11-14 09:00","2005","11","14","09:00","1.8","","-4.8","","62","","31","","19","","","","100.25","","","","","","NA"
"2005-11-14 10:00","2005","11","14","10:00","2.2","","-4.4","","62","","30","","17","","","","100.37","","","","","","NA"
"2005-11-14 11:00","2005","11","14","11:00","2.5","","-5.5","","56","","30","","20","","","","100.42","","","","","","NA"
"2005-11-14 12:00","2005","11","14","12:00","2.7","","-4.4","","59","","28","","20","","","","100.43","","","","","","NA"
"2005-11-14 13:00","2005","11","14","13:00","3.5","","-4.9","","54","","28","","15","","","","100.39","","","","","","NA"
"2005-11-14 14:00","2005","11","14","14:00","3.5","","-4.5","","56","","28","","19","","","","100.45","","","","","","NA"
"2005-11-14 15:00","2005","11","14","15:00","3.9","","-4.1","","56","","27","","17","","","","100.47","","","","","","NA"
"2005-11-14 16:00","2005","11","14","16:00","4.2","","-3.6","","57","","25","","9","","","","100.49","","","","","","NA"
"2005-11-14 17:00","2005","11","14","17:00","3.5","","-3.8","","59","","26","","6","","","","100.49","","","","","","NA"
"2005-11-14 18:00","2005","11","14","18:00","3.1","","-4.1","","59","","29","","4","","","","100.49","","","","","","NA"
"2005-11-14 19:00","2005","11","14","19:00","2.7","","-4.3","","60","","3","","6","","","","100.46","","","","","","NA"
"2005-11-14 20:00","2005","11","14","20:00","1.4","","-4.6","","64","","4","","7","","","","100.51","","","","","","NA"
"2005-11-14 21:00","2005","11","14","21:00","1.6","","-5.1","","61","","6","","9","","","","100.48","","","","","","NA"
"2005-11-14 22:00","2005","11","14","22:00","1.5","","-5.1","","61","","6","","13","","","","100.48","","","","","","NA"
"2005-11-14 23:00","2005","11","14","23:00","1.2","","-4.8","","64","","6","","13","","","","100.43","","","","","","NA"
"2005-11-15 00:00","2005","11","15","00:00","0.9","","-4.1","","69","","7","","15","","","","100.43","","","","","","NA"
"2005-11-15 01:00","2005","11","15","01:00","1.0","","-3.6","","71","","7","","17","","","","100.44","","","","","","NA"
"2005-11-15 02:00","2005","11","15","02:00","0.9","","-3.7","","71","","7","","19","","","","100.42","","","","","","NA"
"2005-11-15 03:00","2005","11","15","03:00","-0.5","","-1.5","","93","","7","","22","","","","100.29","","","","-6","","NA"
"2005-11-15 04:00","2005","11","15","04:00","-0.1","","-0.9","","94","","7","","19","","","","100.23","","","","-5","","NA"
"2005-11-15 05:00","2005","11","15","05:00","0.2","","-1.1","","91","","7","","20","","","","100.14","","","","","","NA"
"2005-11-15 06:00","2005","11","15","06:00","0.5","","-0.8","","91","","7","","20","","","","100.12","","","","","","NA"
"2005-11-15 07:00","2005","11","15","07:00","0.4","","-0.7","","92","","6","","20","","","","100.02","","","","","","NA"
"2005-11-15 08:00","2005","11","15","08:00","0.9","","-0.2","","92","","7","","22","","","","100.05","","","","","","NA"
"2005-11-15 09:00","2005","11","15","09:00","1.0","","-0.3","","91","","7","","22","","","","100.00","","","","","","NA"
"2005-11-15 10:00","2005","11","15","10:00","1.4","","-0.5","","87","","6","","20","","","","99.93","","","","","","NA"
"2005-11-15 11:00","2005","11","15","11:00","1.6","","-0.6","","85","","7","","26","","","","99.88","","","","","","NA"
"2005-11-15 12:00","2005","11","15","12:00","1.6","","-1.1","","82","","8","","39","","","","99.70","","","","","","NA"
"2005-11-15 13:00","2005","11","15","13:00","1.2","","-1.0","","85","","7","","26","","","","99.62","","","","","","NA"
"2005-11-15 14:00","2005","11","15","14:00","1.2","","-0.7","","87","","7","","28","","","","99.53","","","","","","NA"
"2005-11-15 15:00","2005","11","15","15:00","1.4","","-0.7","","86","","7","","32","","","","99.40","","","","","","NA"
"2005-11-15 16:00","2005","11","15","16:00","1.4","","-0.6","","87","","7","","30","","","","99.32","","","","","","NA"
"2005-11-15 17:00","2005","11","15","17:00","1.3","","-0.5","","88","","7","","33","","","","99.16","","","","","","NA"
"2005-11-15 18:00","2005","11","15","18:00","1.8","","-0.1","","87","","7","","39","","","","99.07","","","","","","NA"
"2005-11-15 19:00","2005","11","15","19:00","1.6","","0.2","","90","","8","","33","","","","98.96","","","","","","NA"
"2005-11-15 20:00","2005","11","15","20:00","1.3","","-0.1","","90","","7","","33","","","","98.78","","","","","","NA"
"2005-11-15 21:00","2005","11","15","21:00","1.3","","0.0","","91","","7","","39","","","","98.51","","","","","","NA"
"2005-11-15 22:00","2005","11","15","22:00","1.7","","0.5","","92","","8","","39","","","","98.34","","","","","","NA"
"2005-11-15 23:00","2005","11","15","23:00","1.8","","0.8","","93","","8","","39","","","","98.07","","","","","","NA"
"2005-11-16 00:00","2005","11","16","00:00","2.6","","1.5","","92","","9","","48","","","","97.75","","","","","","NA"
"2005-11-16 01:00","2005","11","16","01:00","3.1","","2.0","","92","","9","","48","","","","97.40","","","","","","NA"
"2005-11-16 02:00","2005","11","16","02:00","5.2","","4.3","","94","","10","","44","","","","97.13","","","","","","NA"
"2005-11-16 03:00","2005","11","16","03:00","8.4","","7.6","","95","","14","","59","","","","96.84","","","","","","NA"
"2005-11-16 04:00","2005","11","16","04:00","10.4","","9.5","","94","","17","","54","","","","96.88","","","","","","NA"
"2005-11-16 05:00","2005","11","16","05:00","9.2","","4.8","","74","","22","","54","","","","96.93","","","","","","NA"
"2005-11-16 06:00","2005","11","16","06:00","8.3","","3.3","","71","","21","","56","","","","97.01","","","","","","NA"
"2005-11-16 07:00","2005","11","16","07:00","7.4","","2.6","","72","","22","","70","","","","97.05","","","","","","NA"
"2005-11-16 08:00","2005","11","16","08:00","4.9","","1.9","","81","","24","","57","","","","97.21","","","","","","NA"
"2005-11-16 09:00","2005","11","16","09:00","6.1","","0.0","","65","","23","","59","","","","97.32","","","","","","NA"
"2005-11-16 10:00","2005","11","16","10:00","5.6","","-0.2","","66","","24","","54","","","","97.44","","","","","","NA"
"2005-11-16 11:00","2005","11","16","11:00","5.1","","-0.1","","69","","24","","48","","","","97.64","","","","","","NA"
"2005-11-16 12:00","2005","11","16","12:00","5.7","","-1.0","","62","","24","","46","","","","97.69","","","","","","NA"
"2005-11-16 13:00","2005","11","16","13:00","4.9","","-0.3","","69","","25","","43","","","","97.74","","","","","","NA"
"2005-11-16 14:00","2005","11","16","14:00","4.8","","1.0","","76","","25","","41","","","","97.84","","","","","","NA"
"2005-11-16 15:00","2005","11","16","15:00","3.3","","0.4","","81","","26","","43","","","","97.96","","","","","","NA"
"2005-11-16 16:00","2005","11","16","16:00","3.7","","0.0","","77","","25","","37","","","","98.11","","","","","","NA"
"2005-11-16 17:00","2005","11","16","17:00","3.7","","-1.4","","69","","27","","28","","","","98.27","","","","","","NA"
"2005-11-16 18:00","2005","11","16","18:00","3.2","","-2.1","","68","","28","","35","","","","98.37","","","","","","NA"
"2005-11-16 19:00","2005","11","16","19:00","2.0","","-4.0","","64","","28","","30","","","","98.49","","","","","","NA"
"2005-11-16 20:00","2005","11","16","20:00","0.9","","-4.8","","66","","31","","19","","","","98.60","","","","","","NA"
"2005-11-16 21:00","2005","11","16","21:00","0.7","","-5.6","","63","","31","","20","","","","98.65","","","","","","NA"
"2005-11-16 22:00","2005","11","16","22:00","0.4","","-5.9","","63","","31","","19","","","","98.69","","","","","","NA"
"2005-11-16 23:00","2005","11","16","23:00","0.2","","-5.9","","64","","31","","17","","","","98.76","","","","","","NA"
"2005-11-17 00:00","2005","11","17","00:00","-0.2","","-6.2","","64","","31","","11","","","","98.82","","","","-4","","NA"
"2005-11-17 01:00","2005","11","17","01:00","-0.1","","-6.3","","63","","31","","9","","","","98.90","","","","-3","","NA"
"2005-11-17 02:00","2005","11","17","02:00","-0.2","","-6.3","","63","","33","","7","","","","98.96","","","","-3","","NA"
"2005-11-17 03:00","2005","11","17","03:00","-1.1","","-6.5","","67","","36","","11","","","","99.04","","","","-5","","NA"
"2005-11-17 04:00","2005","11","17","04:00","-1.4","","-7.2","","65","","36","","9","","","","99.07","","","","-5","","NA"
"2005-11-17 05:00","2005","11","17","05:00","-1.8","","-7.2","","67","","1","","11","","","","99.15","","","","-6","","NA"
"2005-11-17 06:00","2005","11","17","06:00","-2.1","","-7.5","","66","","34","","11","","","","99.24","","","","-6","","NA"
"2005-11-17 07:00","2005","11","17","07:00","-2.5","","-7.8","","67","","34","","9","","","","99.36","","","","-6","","NA"
"2005-11-17 08:00","2005","11","17","08:00","-2.9","","-7.7","","69","","34","","7","","","","99.42","","","","-6","","NA"
"2005-11-17 09:00","2005","11","17","09:00","-3.1","","-7.7","","70","","33","","11","","","","99.53","","","","-7","","NA"
"2005-11-17 10:00","2005","11","17","10:00","-3.3","","-6.3","","80","","32","","11","","","","99.59","","","","-8","","NA"
"2005-11-17 11:00","2005","11","17","11:00","-2.6","","-7.7","","68","","30","","11","","","","99.65","","","","-7","","NA"
"2005-11-17 12:00","2005","11","17","12:00","-2.1","","-8.1","","63","","32","","11","","","","99.66","","","","-6","","NA"
"2005-11-17 13:00","2005","11","17","13:00","-3.6","","-7.0","","77","","31","","22","","","","99.67","","","","-10","","NA"
"2005-11-17 14:00","2005","11","17","14:00","-3.3","","-8.8","","66","","32","","22","","","","99.75","","","","-10","","NA"
"2005-11-17 15:00","2005","11","17","15:00","-4.0","","-14.6","","43","","31","","26","","","","99.88","","","","-11","","NA"
"2005-11-17 16:00","2005","11","17","16:00","-4.8","","-14.4","","47","","33","","17","","","","99.95","","","","-11","","NA"
"2005-11-17 17:00","2005","11","17","17:00","-5.5","","-13.8","","52","","34","","17","","","","100.04","","","","-12","","NA"
"2005-11-17 18:00","2005","11","17","18:00","-6.0","","-13.5","","55","","34","","15","","","","100.12","","","","-12","","NA"
"2005-11-17 19:00","2005","11","17","19:00","-6.3","","-14.8","","51","","33","","17","","","","100.18","","","","-13","","NA"
"2005-11-17 20:00","2005","11","17","20:00","-6.7","","-15.8","","48","","32","","17","","","","100.26","","","","-13","","NA"
"2005-11-17 21:00","2005","11","17","21:00","-7.4","","-16.7","","47","","32","","15","","","","100.31","","","","-14","","NA"
"2005-11-17 22:00","2005","11","17","22:00","-8.1","","-16.7","","50","","33","","11","","","","100.32","","","","-13","","NA"
"2005-11-17 23:00","2005","11","17","23:00","-8.3","","-15.9","","54","","33","","15","","","","100.33","","","","-15","","NA"
"2005-11-18 00:00","2005","11","18","00:00","-8.6","","-16.1","","55","","32","","7","","","","100.34","","","","-12","","NA"
"2005-11-18 01:00","2005","11","18","01:00","-8.5","","-15.6","","56","","33","","4","","","","100.33","","","","-11","","NA"
"2005-11-18 02:00","2005","11","18","02:00","-9.1","","-15.6","","59","","3","","6","","","","100.26","","","","-12","","NA"
"2005-11-18 03:00","2005","11","18","03:00","-8.8","","-15.3","","59","","2","","7","","","","100.21","","","","-13","","NA"
"2005-11-18 04:00","2005","11","18","04:00","-8.2","","-14.5","","60","","3","","6","","","","100.16","","","","-11","","NA"
"2005-11-18 05:00","2005","11","18","05:00","-7.1","","-11.5","","71","","9","","11","","","","100.13","","","","-12","","NA"
"2005-11-18 06:00","2005","11","18","06:00","-7.0","","-11.2","","72","","8","","15","","","","100.09","","","","-13","","NA"
"2005-11-18 07:00","2005","11","18","07:00","-7.3","","-9.7","","83","","8","","17","","","","100.01","","","","-14","","NA"
"2005-11-18 08:00","2005","11","18","08:00","-7.5","","-9.5","","86","","6","","15","","","","99.96","","","","-14","","NA"
"2005-11-18 09:00","2005","11","18","09:00","-7.4","","-8.9","","89","","5","","11","","","","99.92","","","","-12","","NA"
"2005-11-18 10:00","2005","11","18","10:00","-6.1","","-7.4","","90","","6","","11","","","","99.88","","","","-11","","NA"
"2005-11-18 11:00","2005","11","18","11:00","-5.4","","-6.6","","91","","5","","9","","","","99.83","","","","-9","","NA"
"2005-11-18 12:00","2005","11","18","12:00","-2.8","","-4.5","","88","","23","","19","","","","99.69","","","","-9","","NA"
"2005-11-18 13:00","2005","11","18","13:00","-1.5","","-4.8","","78","","24","","20","","","","99.59","","","","-7","","NA"
"2005-11-18 14:00","2005","11","18","14:00","-1.2","","-5.1","","75","","25","","20","","","","99.49","","","","-7","","NA"
"2005-11-18 15:00","2005","11","18","15:00","-1.3","","-4.1","","81","","24","","19","","","","99.42","","","","-7","","NA"
"2005-11-18 16:00","2005","11","18","16:00","-1.1","","-3.8","","82","","24","","17","","","","99.39","","","","-6","","NA"
"2005-11-18 17:00","2005","11","18","17:00","-0.8","","-2.7","","87","","25","","17","","","","99.34","","","","-6","","NA"
"2005-11-18 18:00","2005","11","18","18:00","-0.7","","-3.7","","80","","25","","19","","","","99.36","","","","-6","","NA"
"2005-11-18 19:00","2005","11","18","19:00","-0.1","","-3.8","","76","","26","","17","","","","99.38","","","","-5","","NA"
"2005-11-18 20:00","2005","11","18","20:00","0.3","","-4.0","","73","","23","","24","","","","99.37","","","","","","NA"
"2005-11-18 21:00","2005","11","18","21:00","0.6","","-3.4","","75","","23","","26","","","","99.35","","","","","","NA"
"2005-11-18 22:00","2005","11","18","22:00","0.6","","-3.3","","75","","24","","22","","","","99.35","","","","","","NA"
"2005-11-18 23:00","2005","11","18","23:00","0.7","","-3.8","","72","","25","","24","","","","99.34","","","","","","NA"
"2005-11-19 00:00","2005","11","19","00:00","0.6","","-3.5","","74","","24","","19","","","","99.31","","","","","","NA"
"2005-11-19 01:00","2005","11","19","01:00","0.8","","-3.3","","74","","24","","19","","","","99.29","","","","","","NA"
"2005-11-19 02:00","2005","11","19","02:00","0.5","","-2.9","","78","","24","","22","","","","99.29","","","","","","NA"
"2005-11-19 03:00","2005","11","19","03:00","1.4","","-2.8","","74","","24","","22","","","","99.28","","","","","","NA"
"2005-11-19 04:00","2005","11","19","04:00","1.8","","-2.2","","75","","24","","24","","","","99.27","","","","","","NA"
"2005-11-19 05:00","2005","11","19","05:00","2.2","","-1.0","","79","","23","","26","","","","99.24","","","","","","NA"
"2005-11-19 06:00","2005","11","19","06:00","3.1","","0.4","","82","","23","","24","","","","99.20","","","","","","NA"
"2005-11-19 07:00","2005","11","19","07:00","3.6","","1.7","","87","","24","","28","","","","99.19","","","","","","NA"
"2005-11-19 08:00","2005","11","19","08:00","3.9","","1.8","","86","","23","","35","","","","99.18","","","","","","NA"
"2005-11-19 09:00","2005","11","19","09:00","4.7","","2.0","","83","","21","","37","","","","99.13","","","","","","NA"
"2005-11-19 10:00","2005","11","19","10:00","5.0","","2.1","","81","","21","","43","","","","99.11","","","","","","NA"
"2005-11-19 11:00","2005","11","19","11:00","5.4","","2.2","","80","","21","","37","","","","99.06","","","","","","NA"
"2005-11-19 12:00","2005","11","19","12:00","5.9","","2.2","","77","","22","","39","","","","99.01","","","","","","NA"
"2005-11-19 13:00","2005","11","19","13:00","6.3","","2.0","","74","","22","","33","","","","98.97","","","","","","NA"
"2005-11-19 14:00","2005","11","19","14:00","7.1","","1.0","","65","","24","","28","","","","98.97","","","","","","NA"
"2005-11-19 15:00","2005","11","19","15:00","7.0","","1.4","","67","","23","","33","","","","98.96","","","","","","NA"
"2005-11-19 16:00","2005","11","19","16:00","6.9","","1.9","","70","","23","","39","","","","98.99","","","","","","NA"
"2005-11-19 17:00","2005","11","19","17:00","7.0","","2.2","","71","","22","","26","","","","99.02","","","","","","NA"
"2005-11-19 18:00","2005","11","19","18:00","7.1","","2.2","","71","","22","","24","","","","99.04","","","","","","NA"
"2005-11-19 19:00","2005","11","19","19:00","6.9","","3.2","","77","","23","","19","","","","99.07","","","","","","NA"
"2005-11-19 20:00","2005","11","19","20:00","6.8","","3.3","","78","","24","","7","","","","99.08","","","","","","NA"
"2005-11-19 21:00","2005","11","19","21:00","6.8","","3.2","","78","","26","","11","","","","99.10","","","","","","NA"
"2005-11-19 22:00","2005","11","19","22:00","5.5","","3.2","","85","","32","","9","","","","99.11","","","","","","NA"
"2005-11-19 23:00","2005","11","19","23:00","5.3","","2.9","","84","","26","","6","","","","99.09","","","","","","NA"
"2005-11-20 00:00","2005","11","20","00:00","5.8","","3.0","","82","","28","","17","","","","99.17","","","","","","NA"
"2005-11-20 01:00","2005","11","20","01:00","5.6","","3.0","","83","","28","","19","","","","99.23","","","","","","NA"
"2005-11-20 02:00","2005","11","20","02:00","5.5","","2.8","","83","","28","","13","","","","99.26","","","","","","NA"
"2005-11-20 03:00","2005","11","20","03:00","5.3","","2.9","","84","","28","","6","","","","99.27","","","","","","NA"
"2005-11-20 04:00","2005","11","20","04:00","4.9","","2.5","","84","","33","","7","","","","99.29","","","","","","NA"
"2005-11-20 05:00","2005","11","20","05:00","4.5","","2.1","","84","","30","","6","","","","99.27","","","","","","NA"
"2005-11-20 06:00","2005","11","20","06:00","4.4","","2.2","","86","","31","","6","","","","99.30","","","","","","NA"
"2005-11-20 07:00","2005","11","20","07:00","4.4","","2.4","","87","","31","","6","","","","99.33","","","","","","NA"
"2005-11-20 08:00","2005","11","20","08:00","4.2","","2.3","","87","","33","","4","","","","99.35","","","","","","NA"
"2005-11-20 09:00","2005","11","20","09:00","4.3","","2.8","","90","","25","","7","","","","99.35","","","","","","NA"
"2005-11-20 10:00","2005","11","20","10:00","5.0","","3.0","","87","","26","","17","","","","99.31","","","","","","NA"
"2005-11-20 11:00","2005","11","20","11:00","5.6","","1.5","","75","","26","","24","","","","99.31","","","","","","NA"
"2005-11-20 12:00","2005","11","20","12:00","4.8","","0.5","","74","","26","","26","","","","99.28","","","","","","NA"
"2005-11-20 13:00","2005","11","20","13:00","4.9","","1.0","","76","","27","","20","","","","99.23","","","","","","NA"
"2005-11-20 14:00","2005","11","20","14:00","4.7","","0.5","","74","","28","","32","","","","99.17","","","","","","NA"
"2005-11-20 15:00","2005","11","20","15:00","4.8","","0.3","","73","","27","","24","","","","99.12","","","","","","NA"
"2005-11-20 16:00","2005","11","20","16:00","4.7","","-0.2","","71","","27","","30","","","","99.09","","","","","","NA"
"2005-11-20 17:00","2005","11","20","17:00","4.9","","-0.2","","70","","26","","28","","","","99.09","","","","","","NA"
"2005-11-20 18:00","2005","11","20","18:00","4.8","","0.1","","72","","27","","26","","","","99.07","","","","","","NA"
"2005-11-20 19:00","2005","11","20","19:00","4.9","","0.6","","74","","26","","15","","","","99.02","","","","","","NA"
"2005-11-20 20:00","2005","11","20","20:00","4.8","","1.3","","78","","26","","20","","","","98.97","","","","","","NA"
"2005-11-20 21:00","2005","11","20","21:00","4.9","","1.7","","80","","25","","19","","","","98.91","","","","","","NA"
"2005-11-20 22:00","2005","11","20","22:00","5.0","","0.7","","74","","26","","22","","","","98.83","","","","","","NA"
"2005-11-20 23:00","2005","11","20","23:00","4.5","","0.7","","76","","27","","28","","","","98.78","","","","","","NA"
"2005-11-21 00:00","2005","11","21","00:00","4.8","","0.3","","73","","26","","28","","","","98.69","","","","","","NA"
"2005-11-21 01:00","2005","11","21","01:00","4.6","","-0.4","","70","","26","","26","","","","98.66","","","","","","NA"
"2005-11-21 02:00","2005","11","21","02:00","4.4","","-0.4","","71","","26","","33","","","","98.58","","","","","","NA"
"2005-11-21 03:00","2005","11","21","03:00","4.4","","-0.5","","70","","26","","32","","","","98.55","","","","","","NA"
"2005-11-21 04:00","2005","11","21","04:00","4.4","","-0.5","","70","","26","","32","","","","98.46","","","","","","NA"
"2005-11-21 05:00","2005","11","21","05:00","4.3","","-0.2","","73","","25","","32","","","","98.41","","","","","","NA"
"2005-11-21 06:00","2005","11","21","06:00","4.1","","0.2","","76","","26","","26","","","","98.34","","","","","","NA"
"2005-11-21 07:00","2005","11","21","07:00","4.0","","0.6","","78","","26","","24","","","","98.32","","","","","","NA"
"2005-11-21 08:00","2005","11","21","08:00","3.6","","1.3","","85","","26","","24","","","","98.30","","","","","","NA"
"2005-11-21 09:00","2005","11","21","09:00","3.6","","1.5","","86","","25","","22","","","","98.29","","","","","","NA"
"2005-11-21 10:00","2005","11","21","10:00","3.4","","1.8","","89","","25","","24","","","","98.23","","","","","","NA"
"2005-11-21 11:00","2005","11","21","11:00","3.3","","1.8","","90","","27","","24","","","","98.22","","","","","","NA"
"2005-11-21 12:00","2005","11","21","12:00","2.9","","1.7","","92","","29","","13","","","","98.21","","","","","","NA"
"2005-11-21 13:00","2005","11","21","13:00","3.6","","2.0","","89","","27","","19","","","","98.17","","","","","","NA"
"2005-11-21 14:00","2005","11","21","14:00","3.7","","1.7","","87","","25","","13","","","","98.10","","","","","","NA"
"2005-11-21 15:00","2005","11","21","15:00","4.0","","2.1","","87","","26","","13","","","","98.04","","","","","","NA"
"2005-11-21 16:00","2005","11","21","16:00","4.2","","2.7","","90","","30","","11","","","","98.04","","","","","","NA"
"2005-11-21 17:00","2005","11","21","17:00","3.9","","2.4","","90","","33","","9","","","","98.07","","","","","","NA"
"2005-11-21 18:00","2005","11","21","18:00","3.5","","1.7","","88","","35","","7","","","","98.11","","","","","","NA"
"2005-11-21 19:00","2005","11","21","19:00","3.0","","0.9","","86","","34","","13","","","","98.17","","","","","","NA"
"2005-11-21 20:00","2005","11","21","20:00","1.3","","-0.9","","85","","36","","20","","","","98.26","","","","","","NA"
"2005-11-21 21:00","2005","11","21","21:00","0.4","","-1.4","","88","","1","","13","","","","98.29","","","","","","NA"
"2005-11-21 22:00","2005","11","21","22:00","0.4","","-2.1","","83","","2","","15","","","","98.29","","","","","","NA"
"2005-11-21 23:00","2005","11","21","23:00","0.2","","-2.7","","81","","1","","9","","","","98.29","","","","","","NA"
"2005-11-22 00:00","2005","11","22","00:00","-0.8","","-4.8","","74","","1","","15","","","","98.32","","","","-5","","NA"
"2005-11-22 01:00","2005","11","22","01:00","-1.8","","-5.8","","74","","1","","11","","","","98.34","","","","-6","","NA"
"2005-11-22 02:00","2005","11","22","02:00","-3.2","","-7.1","","74","","2","","17","","","","98.37","","","","-9","","NA"
"2005-11-22 03:00","2005","11","22","03:00","-5.4","","-10.6","","67","","3","","13","","","","98.45","","","","-11","","NA"
"2005-11-22 04:00","2005","11","22","04:00","-6.4","","-10.7","","71","","1","","19","","","","98.43","","","","-13","","NA"
"2005-11-22 05:00","2005","11","22","05:00","-6.8","","-12.4","","64","","2","","19","","","","98.47","","","","-14","","NA"
"2005-11-22 06:00","2005","11","22","06:00","-7.5","","-12.8","","66","","2","","15","","","","98.49","","","","-14","","NA"
"2005-11-22 07:00","2005","11","22","07:00","-7.8","","-13.1","","66","","2","","17","","","","98.52","","","","-14","","NA"
"2005-11-22 08:00","2005","11","22","08:00","-7.9","","-13.8","","63","","1","","15","","","","98.61","","","","-14","","NA"
"2005-11-22 09:00","2005","11","22","09:00","-7.8","","-15.0","","56","","1","","22","","","","98.60","","","","-15","","NA"
"2005-11-22 10:00","2005","11","22","10:00","-7.5","","-15.0","","55","","36","","19","","","","98.58","","","","-15","","NA"
"2005-11-22 11:00","2005","11","22","11:00","-6.6","","-15.3","","50","","1","","19","","","","98.56","","","","-13","","NA"
"2005-11-22 12:00","2005","11","22","12:00","-6.8","","-16.4","","46","","1","","24","","","","98.50","","","","-14","","NA"
"2005-11-22 13:00","2005","11","22","13:00","-6.8","","-16.6","","46","","1","","22","","","","98.42","","","","-14","","NA"
"2005-11-22 14:00","2005","11","22","14:00","-6.5","","-16.5","","45","","1","","22","","","","98.37","","","","-14","","NA"
"2005-11-22 15:00","2005","11","22","15:00","-6.4","","-15.2","","50","","1","","19","","","","98.38","","","","-13","","NA"
"2005-11-22 16:00","2005","11","22","16:00","-6.7","","-15.8","","48","","36","","15","","","","98.40","","","","-13","","NA"
"2005-11-22 17:00","2005","11","22","17:00","-7.6","","-15.7","","52","","35","","19","","","","98.40","","","","-15","","NA"
"2005-11-22 18:00","2005","11","22","18:00","-8.8","","-16.2","","55","","34","","20","","","","98.42","","","","-16","","NA"
"2005-11-22 19:00","2005","11","22","19:00","-9.4","","-16.2","","58","","34","","22","","","","98.42","","","","-17","","NA"
"2005-11-22 20:00","2005","11","22","20:00","-9.7","","-16.9","","56","","34","","22","","","","98.40","","","","-18","","NA"
"2005-11-22 21:00","2005","11","22","21:00","-9.9","","-16.7","","58","","35","","22","","","","98.39","","","","-18","","NA"
"2005-11-22 22:00","2005","11","22","22:00","-10.4","","-16.9","","59","","35","","20","","","","98.35","","","","-18","","NA"
"2005-11-22 23:00","2005","11","22","23:00","-10.9","","-17.7","","57","","34","","22","","","","98.33","","","","-19","","NA"
"2005-11-23 00:00","2005","11","23","00:00","-11.2","","-17.4","","60","","33","","11","","","","98.38","","","","-17","","NA"
"2005-11-23 01:00","2005","11","23","01:00","-11.4","","-17.6","","60","","30","","6","","","","98.35","","","","-15","","NA"
"2005-11-23 02:00","2005","11","23","02:00","-11.8","","-18.2","","59","","35","","20","","","","98.25","","","","-20","","NA"
"2005-11-23 03:00","2005","11","23","03:00","-12.2","","-18.2","","61","","33","","6","","","","98.21","","","","-16","","NA"
"2005-11-23 04:00","2005","11","23","04:00","-12.5","","-18.8","","59","","5","","2","","","","98.13","","","","-14","","NA"
"2005-11-23 05:00","2005","11","23","05:00","-12.6","","-18.3","","62","","2","","6","","","","98.07","","","","-17","","NA"
"2005-11-23 06:00","2005","11","23","06:00","-13.0","","-18.0","","66","","4","","9","","","","98.02","","","","-18","","NA"
"2005-11-23 07:00","2005","11","23","07:00","-12.9","","-16.7","","73","","5","","11","","","","98.00","","","","-19","","NA"
"2005-11-23 08:00","2005","11","23","08:00","-12.4","","-16.5","","71","","5","","9","","","","97.96","","","","-18","","NA"
"2005-11-23 09:00","2005","11","23","09:00","-11.6","","-17.5","","62","","5","","11","","","","97.90","","","","-18","","NA"
"2005-11-23 10:00","2005","11","23","10:00","-9.8","","-13.6","","74","","7","","15","","","","97.82","","","","-16","","NA"
"2005-11-23 11:00","2005","11","23","11:00","-7.4","","-10.4","","79","","8","","19","","","","97.72","","","","-14","","NA"
"2005-11-23 12:00","2005","11","23","12:00","-6.0","","-7.5","","89","","8","","22","","","","97.57","","","","-13","","NA"
"2005-11-23 13:00","2005","11","23","13:00","-3.8","","-7.2","","77","","15","","22","","","","97.43","","","","-10","","NA"
"2005-11-23 14:00","2005","11","23","14:00","-5.0","","-6.2","","91","","9","","22","","","","97.29","","","","-12","","NA"
"2005-11-23 15:00","2005","11","23","15:00","-1.9","","-5.4","","77","","15","","26","","","","97.14","","","","-8","","NA"
"2005-11-23 16:00","2005","11","23","16:00","-1.3","","-6.5","","68","","16","","32","","","","97.01","","","","-8","","NA"
"2005-11-23 17:00","2005","11","23","17:00","-1.0","","-5.9","","69","","15","","35","","","","96.91","","","","-8","","NA"
"2005-11-23 18:00","2005","11","23","18:00","-0.9","","-3.3","","84","","15","","39","","","","96.79","","","","-9","","NA"
"2005-11-23 19:00","2005","11","23","19:00","-0.3","","-2.5","","85","","16","","50","","","","96.65","","","","-9","","NA"
"2005-11-23 20:00","2005","11","23","20:00","-0.8","","-2.3","","90","","16","","54","","","","96.56","","","","-10","","NA"
"2005-11-23 21:00","2005","11","23","21:00","-0.7","","-2.0","","91","","15","","54","","","","96.38","","","","-9","","NA"
"2005-11-23 22:00","2005","11","23","22:00","-0.2","","-1.6","","90","","16","","59","","","","96.20","","","","-9","","NA"
"2005-11-23 23:00","2005","11","23","23:00","0.0","","-1.2","","92","","16","","59","","","","96.01","","","","-9","","NA"
"2005-11-24 00:00","2005","11","24","00:00","0.4","","-0.5","","94","","16","","59","","","","95.79","","","","","","NA"
"2005-11-24 01:00","2005","11","24","01:00","0.0","","-0.7","","95","","18","","59","","","","95.74","","","","-9","","NA"
"2005-11-24 02:00","2005","11","24","02:00","-3.7","","-4.3","","96","","30","","43","","","","95.82","","","","-13","","NA"
"2005-11-24 03:00","2005","11","24","03:00","-8.1","","-9.6","","89","","31","","32","","","","96.02","","","","-17","","NA"
"2005-11-24 04:00","2005","11","24","04:00","-11.1","","-14.0","","79","","31","","30","","","","96.20","","","","-21","","NA"
"2005-11-24 05:00","2005","11","24","05:00","-11.9","","-14.7","","80","","31","","22","","","","96.24","","","","-21","","NA"
"2005-11-24 06:00","2005","11","24","06:00","-13.8","","-17.9","","71","","32","","28","","","","96.39","","","","-24","","NA"
"2005-11-24 07:00","2005","11","24","07:00","-14.7","","-18.7","","72","","31","","22","","","","96.51","","","","-24","","NA"
"2005-11-24 08:00","2005","11","24","08:00","-16.1","","-20.0","","72","","31","","28","","","","96.63","","","","-27","","NA"
"2005-11-24 09:00","2005","11","24","09:00","-16.8","","-20.6","","72","","31","","22","","","","96.75","","","","-27","","NA"
"2005-11-24 10:00","2005","11","24","10:00","-16.9","","-22.0","","65","","31","","24","","","","96.84","","","","-27","","NA"
"2005-11-24 11:00","2005","11","24","11:00","-17.0","","-22.2","","64","","32","","20","","","","96.91","","","","-27","","NA"
"2005-11-24 12:00","2005","11","24","12:00","-16.5","","-20.8","","69","","31","","17","","","","96.94","","","","-25","","NA"
"2005-11-24 13:00","2005","11","24","13:00","-16.2","","-21.1","","66","","30","","17","","","","97.01","","","","-25","","NA"
"2005-11-24 14:00","2005","11","24","14:00","-15.9","","-21.6","","62","","33","","15","","","","97.10","","","","-24","","NA"
"2005-11-24 15:00","2005","11","24","15:00","-15.6","","-21.0","","63","","33","","11","","","","97.23","","","","-22","","NA"
"2005-11-24 16:00","2005","11","24","16:00","-15.8","","-21.5","","62","","34","","15","","","","97.34","","","","-24","","NA"
"2005-11-24 17:00","2005","11","24","17:00","-15.3","","-20.9","","62","","34","","19","","","","97.45","","","","-24","","NA"
"2005-11-24 18:00","2005","11","24","18:00","-15.2","","-20.0","","67","","34","","13","","","","97.60","","","","-23","","NA"
"2005-11-24 19:00","2005","11","24","19:00","-14.8","","-19.3","","69","","32","","17","","","","97.66","","","","-23","","NA"
"2005-11-24 20:00","2005","11","24","20:00","-14.3","","-17.0","","80","","32","","15","","","","97.72","","","","-22","","NA"
"2005-11-24 21:00","2005","11","24","21:00","-14.0","","-16.9","","79","","31","","19","","","","97.81","","","","-23","","NA"
"2005-11-24 22:00","2005","11","24","22:00","-13.0","","-15.6","","81","","31","","17","","","","97.90","","","","-21","","NA"
"2005-11-24 23:00","2005","11","24","23:00","-12.0","","-15.1","","78","","33","","24","","","","97.92","","","","-21","","NA"
"2005-11-25 00:00","2005","11","25","00:00","-11.2","","-14.6","","76","","34","","22","","","","98.00","","","","-20","","NA"
"2005-11-25 01:00","2005","11","25","01:00","-10.9","","-14.6","","74","","32","","20","","","","98.10","","","","-19","","NA"
"2005-11-25 02:00","2005","11","25","02:00","-10.9","","-14.5","","75","","31","","20","","","","98.24","","","","-19","","NA"
"2005-11-25 03:00","2005","11","25","03:00","-11.3","","-15.1","","73","","33","","28","","","","98.35","","","","-21","","NA"
"2005-11-25 04:00","2005","11","25","04:00","-11.6","","-15.2","","75","","31","","17","","","","98.50","","","","-19","","NA"
"2005-11-25 05:00","2005","11","25","05:00","-11.2","","-14.9","","74","","29","","20","","","","98.62","","","","-19","","NA"
"2005-11-25 06:00","2005","11","25","06:00","-11.0","","-14.8","","73","","30","","26","","","","98.66","","","","-20","","NA"
"2005-11-25 07:00","2005","11","25","07:00","-10.4","","-13.8","","76","","30","","19","","","","98.79","","","","-18","","NA"
"2005-11-25 08:00","2005","11","25","08:00","-9.9","","-13.8","","73","","31","","17","","","","98.90","","","","-17","","NA"
"2005-11-25 09:00","2005","11","25","09:00","-8.8","","-13.7","","68","","31","","20","","","","98.99","","","","-16","","NA"
"2005-11-25 10:00","2005","11","25","10:00","-8.4","","-14.0","","64","","31","","19","","","","99.08","","","","-16","","NA"
"2005-11-25 11:00","2005","11","25","11:00","-7.7","","-13.6","","63","","32","","17","","","","99.16","","","","-14","","NA"
"2005-11-25 12:00","2005","11","25","12:00","-7.4","","-13.7","","61","","31","","11","","","","99.19","","","","-12","","NA"
"2005-11-25 13:00","2005","11","25","13:00","-7.6","","-13.5","","63","","30","","13","","","","99.27","","","","-13","","NA"
"2005-11-25 14:00","2005","11","25","14:00","-6.9","","-11.8","","68","","30","","13","","","","99.33","","","","-12","","NA"
"2005-11-25 15:00","2005","11","25","15:00","-6.7","","-12.4","","64","","31","","15","","","","99.38","","","","-13","","NA"
"2005-11-25 16:00","2005","11","25","16:00","-6.4","","-12.6","","61","","33","","13","","","","99.42","","","","-12","","NA"
"2005-11-25 17:00","2005","11","25","17:00","-7.4","","-12.7","","66","","33","","7","","","","99.52","","","","-11","","NA"
"2005-11-25 18:00","2005","11","25","18:00","-7.9","","-13.1","","66","","36","","6","","","","99.59","","","","-11","","NA"
"2005-11-25 19:00","2005","11","25","19:00","-7.7","","-13.3","","64","","1","","6","","","","99.64","","","","-11","","NA"
"2005-11-25 20:00","2005","11","25","20:00"
"2005-11-25 21:00","2005","11","25","21:00"
"2005-11-25 22:00","2005","11","25","22:00"
"2005-11-25 23:00","2005","11","25","23:00"
"2005-11-26 00:00","2005","11","26","00:00"
"2005-11-26 01:00","2005","11","26","01:00"
"2005-11-26 02:00","2005","11","26","02:00"
"2005-11-26 03:00","2005","11","26","03:00"
"2005-11-26 04:00","2005","11","26","04:00"
"2005-11-26 05:00","2005","11","26","05:00"
"2005-11-26 06:00","2005","11","26","06:00"
"2005-11-26 07:00","2005","11","26","07:00"
"2005-11-26 08:00","2005","11","26","08:00"
"2005-11-26 09:00","2005","11","26","09:00"
"2005-11-26 10:00","2005","11","26","10:00"
"2005-11-26 11:00","2005","11","26","11:00"
"2005-11-26 12:00","2005","11","26","12:00"
"2005-11-26 13:00","2005","11","26","13:00"
"2005-11-26 14:00","2005","11","26","14:00"
"2005-11-26 15:00","2005","11","26","15:00"
"2005-11-26 16:00","2005","11","26","16:00"
"2005-11-26 17:00","2005","11","26","17:00"
"2005-11-26 18:00","2005","11","26","18:00"
"2005-11-26 19:00","2005","11","26","19:00"
"2005-11-26 20:00","2005","11","26","20:00"
"2005-11-26 21:00","2005","11","26","21:00"
"2005-11-26 22:00","2005","11","26","22:00"
"2005-11-26 23:00","2005","11","26","23:00"
"2005-11-27 00:00","2005","11","27","00:00"
"2005-11-27 01:00","2005","11","27","01:00"
"2005-11-27 02:00","2005","11","27","02:00","-4.2","","-5.9","","88","","6","","11","","","","99.82","","","","-9","","NA"
"2005-11-27 03:00","2005","11","27","03:00","-4.2","","-5.9","","88","","4","","9","","","","99.84","","","","-8","","NA"
"2005-11-27 04:00","2005","11","27","04:00","0.7","","-3.9","","71","","17","","26","","","","99.78","","","","","","NA"
"2005-11-27 05:00","2005","11","27","05:00","1.0","","-3.9","","70","","15","","22","","","","99.73","","","","","","NA"
"2005-11-27 06:00","2005","11","27","06:00","1.2","","-4.1","","68","","15","","26","","","","99.70","","","","","","NA"
"2005-11-27 07:00","2005","11","27","07:00","-1.4","","-2.8","","90","","9","","37","","","","99.72","","","","-9","","NA"
"2005-11-27 08:00","2005","11","27","08:00","-1.2","","-2.3","","92","","8","","30","","","","99.78","","","","-8","","NA"
"2005-11-27 09:00","2005","11","27","09:00","2.1","","0.2","","87","","12","","39","","","","99.75","","","","","","NA"
"2005-11-27 10:00","2005","11","27","10:00","-1.7","","-2.6","","94","","8","","28","","","","99.75","","","","-8","","NA"
"2005-11-27 11:00","2005","11","27","11:00","-1.2","","-2.2","","93","","8","","32","","","","99.73","","","","-8","","NA"
"2005-11-27 12:00","2005","11","27","12:00","2.8","","0.0","","82","","13","","37","","","","99.63","","","","","","NA"
"2005-11-27 13:00","2005","11","27","13:00","2.6","","0.4","","85","","12","","37","","","","99.56","","","","","","NA"
"2005-11-27 14:00","2005","11","27","14:00","2.6","","0.3","","85","","12","","39","","","","99.52","","","","","","NA"
"2005-11-27 15:00","2005","11","27","15:00","2.5","","0.3","","85","","12","","39","","","","99.50","","","","","","NA"
"2005-11-27 16:00","2005","11","27","16:00","2.4","","0.7","","89","","11","","39","","","","99.42","","","","","","NA"
"2005-11-27 17:00","2005","11","27","17:00","2.5","","0.9","","89","","12","","41","","","","99.47","","","","","","NA"
"2005-11-27 18:00","2005","11","27","18:00","2.9","","1.2","","89","","11","","37","","","","99.42","","","","","","NA"
"2005-11-27 19:00","2005","11","27","19:00","3.0","","1.5","","90","","12","","32","","","","99.47","","","","","","NA"
"2005-11-27 20:00","2005","11","27","20:00","3.0","","2.0","","93","","11","","26","","","","99.45","","","","","","NA"
"2005-11-27 21:00","2005","11","27","21:00","3.2","","2.3","","94","","12","","30","","","","99.38","","","","","","NA"
"2005-11-27 22:00","2005","11","27","22:00","3.7","","2.6","","93","","11","","28","","","","99.36","","","","","","NA"
"2005-11-27 23:00","2005","11","27","23:00","3.9","","2.8","","93","","11","","32","","","","99.37","","","","","","NA"
"2005-11-28 00:00","2005","11","28","00:00","2.9","","2.0","","94","","9","","22","","","","99.34","","","","","","NA"
"2005-11-28 01:00","2005","11","28","01:00","2.7","","1.9","","94","","8","","22","","","","99.29","","","","","","NA"
"2005-11-28 02:00","2005","11","28","02:00","2.7","","1.9","","94","","8","","26","","","","99.24","","","","","","NA"
"2005-11-28 03:00","2005","11","28","03:00","2.1","","1.4","","95","","8","","24","","","","99.20","","","","","","NA"
"2005-11-28 04:00","2005","11","28","04:00","2.3","","1.5","","94","","9","","26","","","","99.15","","","","","","NA"
"2005-11-28 05:00","2005","11","28","05:00","2.6","","1.9","","95","","8","","24","","","","99.14","","","","","","NA"
"2005-11-28 06:00","2005","11","28","06:00","3.1","","2.4","","95","","8","","26","","","","99.03","","","","","","NA"
"2005-11-28 07:00","2005","11","28","07:00","3.2","","2.4","","94","","8","","22","","","","99.06","","","","","","NA"
"2005-11-28 08:00","2005","11","28","08:00","3.7","","2.6","","93","","9","","26","","","","99.00","","","","","","NA"
"2005-11-28 09:00","2005","11","28","09:00","4.4","","3.5","","94","","8","","26","","","","98.99","","","","","","NA"
"2005-11-28 10:00","2005","11","28","10:00","4.6","","3.6","","93","","7","","20","","","","98.95","","","","","","NA"
"2005-11-28 11:00","2005","11","28","11:00","5.0","","4.2","","95","","9","","32","","","","98.83","","","","","","NA"
"2005-11-28 12:00","2005","11","28","12:00","4.7","","3.9","","95","","7","","19","","","","98.79","","","","","","NA"
"2005-11-28 13:00","2005","11","28","13:00","4.7","","3.6","","93","","9","","28","","","","98.63","","","","","","NA"
"2005-11-28 14:00","2005","11","28","14:00","5.0","","4.0","","93","","9","","32","","","","98.47","","","","","","NA"
"2005-11-28 15:00","2005","11","28","15:00","6.2","","5.0","","92","","10","","35","","","","98.37","","","","","","NA"
"2005-11-28 16:00","2005","11","28","16:00","6.2","","4.9","","91","","8","","22","","","","98.33","","","","","","NA"
"2005-11-28 17:00","2005","11","28","17:00","6.5","","5.5","","93","","5","","7","","","","98.34","","","","","","NA"
"2005-11-28 18:00","2005","11","28","18:00","7.1","","6.0","","93","","11","","15","","","","98.26","","","","","","NA"
"2005-11-28 19:00","2005","11","28","19:00","7.4","","6.1","","91","","13","","28","","","","98.18","","","","","","NA"
"2005-11-28 20:00","2005","11","28","20:00","7.7","","6.6","","93","","13","","41","","","","98.03","","","","","","NA"
"2005-11-28 21:00","2005","11","28","21:00","7.9","","6.9","","93","","12","","43","","","","97.91","","","","","","NA"
"2005-11-28 22:00","2005","11","28","22:00","8.1","","7.3","","95","","11","","35","","","","97.88","","","","","","NA"
"2005-11-28 23:00","2005","11","28","23:00","8.5","","7.8","","95","","13","","41","","","","97.76","","","","","","NA"
"2005-11-29 00:00","2005","11","29","00:00","9.2","","8.5","","95","","13","","46","","","","97.61","","","","","","NA"
"2005-11-29 01:00","2005","11","29","01:00","8.7","","8.0","","95","","14","","48","","","","97.57","","","","","","NA"
"2005-11-29 02:00","2005","11","29","02:00","8.3","","7.7","","96","","15","","43","","","","97.58","","","","","","NA"
"2005-11-29 03:00","2005","11","29","03:00","7.9","","7.3","","96","","18","","22","","","","97.69","","","","","","NA"
"2005-11-29 04:00","2005","11","29","04:00","7.5","","6.8","","95","","17","","30","","","","97.60","","","","","","NA"
"2005-11-29 05:00","2005","11","29","05:00","7.6","","6.9","","95","","20","","35","","","","97.66","","","","","","NA"
"2005-11-29 06:00","2005","11","29","06:00","6.7","","5.8","","94","","19","","30","","","","97.68","","","","","","NA"
"2005-11-29 07:00","2005","11","29","07:00","6.5","","5.7","","95","","20","","28","","","","97.76","","","","","","NA"
"2005-11-29 08:00","2005","11","29","08:00","6.3","","5.6","","95","","19","","24","","","","97.79","","","","","","NA"
"2005-11-29 09:00","2005","11","29","09:00","6.4","","5.7","","95","","19","","24","","","","97.82","","","","","","NA"
"2005-11-29 10:00","2005","11","29","10:00","6.3","","5.6","","95","","20","","22","","","","97.85","","","","","","NA"
"2005-11-29 11:00","2005","11","29","11:00","6.0","","5.2","","95","","19","","26","","","","97.87","","","","","","NA"
"2005-11-29 12:00","2005","11","29","12:00","6.1","","3.1","","81","","21","","30","","","","97.87","","","","","","NA"
"2005-11-29 13:00","2005","11","29","13:00","5.8","","2.2","","78","","19","","22","","","","97.82","","","","","","NA"
"2005-11-29 14:00","2005","11","29","14:00","5.8","","2.6","","80","","20","","30","","","","97.85","","","","","","NA"
"2005-11-29 15:00","2005","11","29","15:00","5.1","","0.1","","70","","21","","32","","","","97.89","","","","","","NA"
"2005-11-29 16:00","2005","11","29","16:00","4.9","","-1.2","","65","","23","","33","","","","97.94","","","","","","NA"
"2005-11-29 17:00","2005","11","29","17:00","3.9","","0.2","","77","","23","","24","","","","98.05","","","","","","NA"
"2005-11-29 18:00","2005","11","29","18:00","3.9","","-0.1","","75","","24","","19","","","","98.12","","","","","","NA"
"2005-11-29 19:00","2005","11","29","19:00","4.1","","-1.2","","68","","23","","24","","","","98.16","","","","","","NA"
"2005-11-29 20:00","2005","11","29","20:00","3.9","","-1.2","","69","","23","","22","","","","98.20","","","","","","NA"
"2005-11-29 21:00","2005","11","29","21:00","3.6","","-1.4","","70","","25","","20","","","","98.21","","","","","","NA"
"2005-11-29 22:00","2005","11","29","22:00","3.5","","-1.4","","70","","24","","20","","","","98.31","","","","","","NA"
"2005-11-29 23:00","2005","11","29","23:00","3.2","","-1.2","","73","","24","","24","","","","98.41","","","","","","NA"
"2005-11-30 00:00","2005","11","30","00:00","3.1","","-1.6","","71","","23","","32","","","","98.48","","","","","","NA"
"2005-11-30 01:00","2005","11","30","01:00","2.6","","-0.6","","79","","23","","30","","","","98.53","","","","","","NA"
"2005-11-30 02:00","2005","11","30","02:00","1.5","","-0.5","","87","","26","","20","","","","98.57","","","","","","NA"
"2005-11-30 03:00","2005","11","30","03:00","1.8","","-0.6","","84","","26","","17","","","","98.59","","","","","","NA"
"2005-11-30 04:00","2005","11","30","04:00","2.0","","-0.5","","83","","24","","15","","","","98.64","","","","","","NA"
"2005-11-30 05:00","2005","11","30","05:00","2.1","","-1.4","","78","","26","","17","","","","98.68","","","","","","NA"
"2005-11-30 06:00","2005","11","30","06:00","2.0","","-0.7","","82","","24","","11","","","","98.74","","","","","","NA"
"2005-11-30 07:00","2005","11","30","07:00","2.0","","-0.7","","82","","24","","15","","","","98.82","","","","","","NA"
"2005-11-30 08:00","2005","11","30","08:00","1.7","","-0.1","","88","","23","","20","","","","98.88","","","","","","NA"
"2005-11-30 09:00","2005","11","30","09:00","1.7","","-0.1","","88","","24","","17","","","","98.91","","","","","","NA"
"2005-11-30 10:00","2005","11","30","10:00","1.6","","-0.3","","87","","24","","19","","","","98.93","","","","","","NA"
"2005-11-30 11:00","2005","11","30","11:00","1.8","","-0.1","","87","","23","","20","","","","98.96","","","","","","NA"
"2005-11-30 12:00","2005","11","30","12:00","1.8","","-0.1","","87","","26","","15","","","","98.94","","","","","","NA"
"2005-11-30 13:00","2005","11","30","13:00","1.5","","0.0","","90","","26","","17","","","","98.92","","","","","","NA"
"2005-11-30 14:00","2005","11","30","14:00","1.9","","0.3","","89","","25","","15","","","","98.93","","","","","","NA"
"2005-11-30 15:00","2005","11","30","15:00","1.4","","-0.3","","88","","29","","17","","","","99.00","","","","","","NA"
"2005-11-30 16:00","2005","11","30","16:00","1.4","","-1.1","","83","","29","","19","","","","99.10","","","","","","NA"
"2005-11-30 17:00","2005","11","30","17:00","0.9","","-1.9","","82","","28","","22","","","","99.18","","","","","","NA"
"2005-11-30 18:00","2005","11","30","18:00","0.7","","-2.0","","82","","29","","19","","","","99.25","","","","","","NA"
"2005-11-30 19:00","2005","11","30","19:00","0.1","","-3.3","","78","","29","","19","","","","99.32","","","","","","NA"
"2005-11-30 20:00","2005","11","30","20:00","-0.4","","-5.6","","68","","29","","30","","","","99.38","","","","-7","","NA"
"2005-11-30 21:00","2005","11","30","21:00","-0.8","","-6.4","","66","","30","","19","","","","99.44","","","","-6","","NA"
"2005-11-30 22:00","2005","11","30","22:00","-1.2","","-6.0","","70","","29","","24","","","","99.47","","","","-7","","NA"
"2005-11-30 23:00","2005","11","30","23:00","-1.5","","-7.4","","64","","30","","20","","","","99.51","","","","-7","","NA"
