"Station Name","KILLARNEY (AUT)"
"Province","ONTARIO"
"Latitude","45.97"
"Longitude","-81.48"
"Elevation","196.30"
"Climate Identifier","605DJ25"
"WMO Identifier","71460"
"TC Identifier","WBE"
"All times are specified in Local Standard Time (LST). Add 1 hour to adjust for Daylight Saving Time where and when it is observed."

"Legend"
"E","Estimated"
"M","Missing"
"NA","Not Available"

"Date/Time","Year","Month","Day","Time","Temp (°C)","Temp Flag","Dew Point Temp (°C)","Dew Point Temp Flag","Rel Hum (%)","Rel Hum Flag","Wind Dir (10s deg)","Wind Dir Flag","Wind Spd (km/h)","Wind Spd Flag","Visibility (km)","Visibility Flag","Stn Press (kPa)","Stn Press Flag","Hmdx","Hmdx Flag","Wind Chill","Wind Chill Flag","Weather"
"2010-01-01 00:00","2010","01","01","00:00","-2.6","","-6.6","","74","","30","","9","","","","98.84","","","","-6","","NA"
"2010-01-01 01:00","2010","01","01","01:00","-2.8","","-5.4","","82","","30","","15","","","","98.83","","","","-8","","NA"
"2010-01-01 02:00","2010","01","01","02:00","-2.9","","-5.3","","83","","29","","9","","","","98.90","","","","-6","","NA"
"2010-01-01 03:00","2010","01","01","03:00","-3.0","","-5.2","","85","","29","","7","","","","98.94","","","","-6","","NA"
"2010-01-01 04:00","2010","01","01","04:00","-4.0","","-6.4","","83","","35","","17","","","","98.96","","","","-10","","NA"
"2010-01-01 05:00","2010","01","01","05:00","-7.7","","-10.9","","78","","36","","19","","","","98.99","","","","-15","","NA"
"2010-01-01 06:00","2010","01","01","06:00","-9.4","","-12.8","","76","","1","","20","","","","99.09","","","","-17","","NA"
"2010-01-01 07:00","2010","01","01","07:00","-10.8","","-14.7","","73","","1","","15","","","","99.18","","","","-18","","NA"
"2010-01-01 08:00","2010","01","01","08:00","-11.5","","-15.6","","72","","2","","7","","","","99.27","","","","-16","","NA"
"2010-01-01 09:00","2010","01","01","09:00","-12.3","","-16.7","","70","","1","","17","","","","99.31","","","","-20","","NA"
"2010-01-01 10:00","2010","01","01","10:00","-12.6","","-16.8","","71","","35","","19","","","","99.35","","","","-21","","NA"
"2010-01-01 11:00","2010","01","01","11:00","-12.7","","-16.8","","71","","35","","13","","","","99.38","","","","-20","","NA"
"2010-01-01 12:00","2010","01","01","12:00","-12.7","","-17.5","","67","","1","","15","","","","99.36","","","","-20","","NA"
"2010-01-01 13:00","2010","01","01","13:00","-12.3","","-17.4","","66","","34","","17","","","","99.35","","","","-20","","NA"
"2010-01-01 14:00","2010","01","01","14:00","-12.2","","-17.5","","65","","1","","19","","","","99.38","","","","-20","","NA"
"2010-01-01 15:00","2010","01","01","15:00","-12.5","","-17.2","","68","","34","","13","","","","99.46","","","","-19","","NA"
"2010-01-01 16:00","2010","01","01","16:00","-13.3","","-16.8","","75","","32","","13","","","","99.52","","","","-20","","NA"
"2010-01-01 17:00","2010","01","01","17:00","-14.5","","-18.6","","71","","33","","17","","","","99.56","","","","-23","","NA"
"2010-01-01 18:00","2010","01","01","18:00","-15.4","","-20.7","","64","","34","","20","","","","99.59","","","","-25","","NA"
"2010-01-01 19:00","2010","01","01","19:00","-16.0","","-21.3","","64","","34","","13","","","","99.64","","","","-24","","NA"
"2010-01-01 20:00","2010","01","01","20:00","-16.6","","-21.4","","66","","33","","11","","","","99.67","","","","-24","","NA"
"2010-01-01 21:00","2010","01","01","21:00","-17.8","","-22.4","","67","","33","","19","","","","99.68","","","","-27","","NA"
"2010-01-01 22:00","2010","01","01","22:00","-18.7","","-23.6","","65","","33","","13","","","","99.67","","","","-27","","NA"
"2010-01-01 23:00","2010","01","01","23:00","-19.3","","-24.4","","64","","35","","11","","","","99.72","","","","-27","","NA"
"2010-01-02 00:00","2010","01","02","00:00","-19.6","","-24.5","","65","","36","","9","","","","99.73","","","","-26","","NA"
"2010-01-02 01:00","2010","01","02","01:00","-20.1","","-24.6","","67","","34","","9","","","","99.69","","","","-27","","NA"
"2010-01-02 02:00","2010","01","02","02:00","-20.5","","-25.1","","67","","32","","9","","","","99.71","","","","-27","","NA"
"2010-01-02 03:00","2010","01","02","03:00","-20.7","","-25.5","","65","","34","","11","","","","99.77","","","","-28","","NA"
"2010-01-02 04:00","2010","01","02","04:00","-21.0","","-26.1","","64","","1","","11","","","","99.78","","","","-29","","NA"
"2010-01-02 05:00","2010","01","02","05:00","-21.2","","-26.0","","65","","34","","11","","","","99.79","","","","-29","","NA"
"2010-01-02 06:00","2010","01","02","06:00","-21.4","","-26.5","","63","","35","","11","","","","99.82","","","","-29","","NA"
"2010-01-02 07:00","2010","01","02","07:00","-21.4","","-26.1","","66","","35","","7","","","","99.88","","","","-27","","NA"
"2010-01-02 08:00","2010","01","02","08:00","-21.9","","-26.9","","64","","34","","13","","","","99.90","","","","-31","","NA"
"2010-01-02 09:00","2010","01","02","09:00","-21.9","","-27.3","","62","","33","","13","","","","99.88","","","","-31","","NA"
"2010-01-02 10:00","2010","01","02","10:00","-21.7","","-27.7","","58","","33","","17","","","","99.92","","","","-32","","NA"
"2010-01-02 11:00","2010","01","02","11:00","-21.2","","-27.4","","57","","33","","17","","","","99.94","","","","-31","","NA"
"2010-01-02 12:00","2010","01","02","12:00","-19.7","","-26.1","","57","","32","","13","","","","99.86","","","","-28","","NA"
"2010-01-02 13:00","2010","01","02","13:00","-19.0","","-25.8","","55","","35","","19","","","","99.80","","","","-29","","NA"
"2010-01-02 14:00","2010","01","02","14:00","-18.4","","-25.4","","54","","35","","20","","","","99.77","","","","-28","","NA"
"2010-01-02 15:00","2010","01","02","15:00","-18.3","","-24.7","","57","","36","","22","","","","99.80","","","","-29","","NA"
"2010-01-02 16:00","2010","01","02","16:00","-17.6","","-23.7","","59","","34","","15","","","","99.83","","","","-26","","NA"
"2010-01-02 17:00","2010","01","02","17:00","-18.1","","-23.7","","61","","33","","15","","","","99.86","","","","-27","","NA"
"2010-01-02 18:00","2010","01","02","18:00","-18.6","","-24.0","","62","","33","","17","","","","99.92","","","","-28","","NA"
"2010-01-02 19:00","2010","01","02","19:00","-19.2","","-24.4","","63","","34","","13","","","","99.95","","","","-27","","NA"
"2010-01-02 20:00","2010","01","02","20:00","-19.6","","-24.6","","64","","33","","13","","","","99.99","","","","-28","","NA"
"2010-01-02 21:00","2010","01","02","21:00","-19.8","","-25.0","","63","","34","","9","","","","99.99","","","","-27","","NA"
"2010-01-02 22:00","2010","01","02","22:00","-19.6","","-24.8","","63","","33","","15","","","","99.96","","","","-29","","NA"
"2010-01-02 23:00","2010","01","02","23:00","-19.7","","-24.4","","66","","32","","13","","","","99.93","","","","-28","","NA"
"2010-01-03 00:00","2010","01","03","00:00","-19.9","","-24.5","","67","","29","","9","","","","99.94","","","","-27","","NA"
"2010-01-03 01:00","2010","01","03","01:00","-19.9","","-24.3","","68","","26","","7","","","","99.88","","","","-26","","NA"
"2010-01-03 02:00","2010","01","03","02:00","-20.2","","-25.2","","64","","34","","28","","","","99.82","","","","-32","","NA"
"2010-01-03 03:00","2010","01","03","03:00","-20.3","","-25.1","","65","","34","","28","","","","99.79","","","","-33","","NA"
"2010-01-03 04:00","2010","01","03","04:00","-20.4","","-25.0","","67","","34","","20","","","","99.83","","","","-31","","NA"
"2010-01-03 05:00","2010","01","03","05:00","-20.3","","-25.0","","66","","33","","28","","","","99.72","","","","-33","","NA"
"2010-01-03 06:00","2010","01","03","06:00","-20.2","","-25.0","","65","","33","","32","","","","99.64","","","","-33","","NA"
"2010-01-03 07:00","2010","01","03","07:00","-19.8","","-24.4","","67","","33","","26","","","","99.66","","","","-32","","NA"
"2010-01-03 08:00","2010","01","03","08:00","-18.8","","-23.1","","69","","33","","28","","","","99.65","","","","-31","","NA"
"2010-01-03 09:00","2010","01","03","09:00","-17.1","","-21.0","","72","","32","","28","","","","99.63","","","","-28","","NA"
"2010-01-03 10:00","2010","01","03","10:00","-16.1","","-20.1","","71","","32","","24","","","","99.58","","","","-26","","NA"
"2010-01-03 11:00","2010","01","03","11:00","-15.2","","-19.1","","72","","33","","24","","","","99.52","","","","-25","","NA"
"2010-01-03 12:00","2010","01","03","12:00","-14.5","","-18.5","","72","","33","","19","","","","99.47","","","","-23","","NA"
"2010-01-03 13:00","2010","01","03","13:00","-13.6","","-17.6","","72","","34","","22","","","","99.39","","","","-23","","NA"
"2010-01-03 14:00","2010","01","03","14:00","-13.1","","-16.9","","73","","34","","17","","","","99.39","","","","-21","","NA"
"2010-01-03 15:00","2010","01","03","15:00","-13.1","","-16.7","","74","","34","","19","","","","99.39","","","","-22","","NA"
"2010-01-03 16:00","2010","01","03","16:00","-12.8","","-16.7","","73","","35","","17","","","","99.43","","","","-21","","NA"
"2010-01-03 17:00","2010","01","03","17:00","-13.0","","-17.1","","71","","34","","13","","","","99.46","","","","-20","","NA"
"2010-01-03 18:00","2010","01","03","18:00","-13.2","","-17.7","","69","","36","","11","","","","99.48","","","","-19","","NA"
"2010-01-03 19:00","2010","01","03","19:00","-13.4","","-18.0","","68","","32","","6","","","","99.54","","","","-17","","NA"
"2010-01-03 20:00","2010","01","03","20:00","-13.9","","-19.0","","65","","36","","15","","","","99.54","","","","-22","","NA"
"2010-01-03 21:00","2010","01","03","21:00","-13.9","","-18.9","","66","","2","","13","","","","99.55","","","","-21","","NA"
"2010-01-03 22:00","2010","01","03","22:00","-14.1","","-18.7","","68","","36","","17","","","","99.52","","","","-22","","NA"
"2010-01-03 23:00","2010","01","03","23:00","-14.2","","-18.6","","69","","1","","15","","","","99.52","","","","-22","","NA"
"2010-01-04 00:00","2010","01","04","00:00","-14.1","","-18.2","","71","","3","","9","","","","99.48","","","","-20","","NA"
"2010-01-04 01:00","2010","01","04","01:00","-13.9","","-18.1","","70","","36","","19","","","","99.44","","","","-23","","NA"
"2010-01-04 02:00","2010","01","04","02:00","-14.1","","-17.9","","73","","2","","7","","","","99.41","","","","-19","","NA"
"2010-01-04 03:00","2010","01","04","03:00","-14.4","","-18.0","","74","","36","","19","","","","99.42","","","","-23","","NA"
"2010-01-04 04:00","2010","01","04","04:00","-14.5","","-18.3","","73","","35","","15","","","","99.41","","","","-22","","NA"
"2010-01-04 05:00","2010","01","04","05:00","-14.4","","-18.3","","72","","35","","13","","","","99.42","","","","-22","","NA"
"2010-01-04 06:00","2010","01","04","06:00","-14.6","","-18.6","","72","","35","","15","","","","99.44","","","","-22","","NA"
"2010-01-04 07:00","2010","01","04","07:00","-14.9","","-18.8","","72","","34","","11","","","","99.42","","","","-21","","NA"
"2010-01-04 08:00","2010","01","04","08:00","-14.8","","-19.0","","70","","34","","17","","","","99.40","","","","-23","","NA"
"2010-01-04 09:00","2010","01","04","09:00","-14.4","","-18.8","","69","","33","","17","","","","99.40","","","","-23","","NA"
"2010-01-04 10:00","2010","01","04","10:00","-12.9","","-18.0","","66","","32","","7","","","","99.39","","","","-17","","NA"
"2010-01-04 11:00","2010","01","04","11:00","-12.3","","-18.0","","62","","35","","15","","","","99.36","","","","-20","","NA"
"2010-01-04 12:00","2010","01","04","12:00","-11.2","","-17.3","","61","","35","","13","","","","99.30","","","","-18","","NA"
"2010-01-04 13:00","2010","01","04","13:00","-10.7","","-16.8","","61","","33","","13","","","","99.25","","","","-17","","NA"
"2010-01-04 14:00","2010","01","04","14:00","-10.9","","-15.9","","67","","34","","19","","","","99.23","","","","-19","","NA"
"2010-01-04 15:00","2010","01","04","15:00","-10.6","","-15.3","","68","","34","","13","","","","99.22","","","","-17","","NA"
"2010-01-04 16:00","2010","01","04","16:00","-10.5","","-14.9","","70","","32","","13","","","","99.22","","","","-17","","NA"
"2010-01-04 17:00","2010","01","04","17:00","-10.7","","-14.6","","73","","34","","13","","","","99.23","","","","-17","","NA"
"2010-01-04 18:00","2010","01","04","18:00","-10.8","","-14.2","","76","","34","","15","","","","99.24","","","","-18","","NA"
"2010-01-04 19:00","2010","01","04","19:00","-11.0","","-14.3","","77","","35","","13","","","","99.28","","","","-17","","NA"
"2010-01-04 20:00","2010","01","04","20:00","-11.1","","-14.9","","73","","35","","6","","","","99.32","","","","-15","","NA"
"2010-01-04 21:00","2010","01","04","21:00","-11.3","","-15.5","","71","","2","","7","","","","99.31","","","","-16","","NA"
"2010-01-04 22:00","2010","01","04","22:00","-11.6","","-16.0","","70","","1","","15","","","","99.27","","","","-19","","NA"
"2010-01-04 23:00","2010","01","04","23:00","-11.9","","-15.7","","73","","32","","7","","","","99.25","","","","-16","","NA"
"2010-01-05 00:00","2010","01","05","00:00","-11.9","","-15.9","","72","","34","","9","","","","99.23","","","","-17","","NA"
"2010-01-05 01:00","2010","01","05","01:00","-11.9","","-15.6","","74","","35","","15","","","","99.21","","","","-19","","NA"
"2010-01-05 02:00","2010","01","05","02:00","-11.9","","-15.1","","77","","34","","11","","","","99.24","","","","-18","","NA"
"2010-01-05 03:00","2010","01","05","03:00","-11.8","","-14.9","","78","","34","","13","","","","99.24","","","","-18","","NA"
"2010-01-05 04:00","2010","01","05","04:00","-11.6","","-14.9","","76","","34","","13","","","","99.20","","","","-18","","NA"
"2010-01-05 05:00","2010","01","05","05:00","-11.4","","-15.0","","75","","32","","9","","","","99.19","","","","-17","","NA"
"2010-01-05 06:00","2010","01","05","06:00","-11.3","","-15.0","","74","","32","","11","","","","99.17","","","","-17","","NA"
"2010-01-05 07:00","2010","01","05","07:00","-11.3","","-14.8","","75","","32","","9","","","","99.19","","","","-16","","NA"
"2010-01-05 08:00","2010","01","05","08:00","-11.2","","-15.1","","73","","34","","17","","","","99.21","","","","-19","","NA"
"2010-01-05 09:00","2010","01","05","09:00","-11.1","","-15.1","","72","","34","","11","","","","99.23","","","","-17","","NA"
"2010-01-05 10:00","2010","01","05","10:00","-10.7","","-14.6","","73","","32","","9","","","","99.22","","","","-16","","NA"
"2010-01-05 11:00","2010","01","05","11:00","-10.3","","-14.0","","74","","32","","13","","","","99.21","","","","-17","","NA"
"2010-01-05 12:00","2010","01","05","12:00","-9.7","","-13.2","","76","","31","","13","","","","99.15","","","","-16","","NA"
"2010-01-05 13:00","2010","01","05","13:00","-9.0","","-12.3","","77","","31","","13","","","","99.08","","","","-15","","NA"
"2010-01-05 14:00","2010","01","05","14:00","-8.1","","-12.5","","71","","33","","13","","","","99.05","","","","-14","","NA"
"2010-01-05 15:00","2010","01","05","15:00","-7.8","","-12.0","","72","","34","","11","","","","99.05","","","","-13","","NA"
"2010-01-05 16:00","2010","01","05","16:00","-7.1","","-12.3","","66","","34","","17","","","","99.05","","","","-14","","NA"
"2010-01-05 17:00","2010","01","05","17:00","-7.4","","-11.8","","71","","34","","13","","","","99.06","","","","-13","","NA"
"2010-01-05 18:00","2010","01","05","18:00","-7.7","","-12.2","","70","","34","","17","","","","99.09","","","","-14","","NA"
"2010-01-05 19:00","2010","01","05","19:00","-8.2","","-12.5","","71","","34","","20","","","","99.10","","","","-16","","NA"
"2010-01-05 20:00","2010","01","05","20:00","-8.8","","-12.9","","72","","34","","9","","","","99.18","","","","-13","","NA"
"2010-01-05 21:00","2010","01","05","21:00","-9.3","","-13.4","","72","","34","","11","","","","99.17","","","","-15","","NA"
"2010-01-05 22:00","2010","01","05","22:00","-9.4","","-13.5","","72","","35","","9","","","","99.17","","","","-14","","NA"
"2010-01-05 23:00","2010","01","05","23:00","-10.2","","-14.3","","72","","36","","15","","","","99.14","","","","-17","","NA"
"2010-01-06 00:00","2010","01","06","00:00","-11.1","","-14.8","","74","","34","","13","","","","99.13","","","","-18","","NA"
"2010-01-06 01:00","2010","01","06","01:00","-11.5","","-14.8","","76","","35","","7","","","","99.13","","","","-16","","NA"
"2010-01-06 02:00","2010","01","06","02:00","-11.5","","-14.7","","77","","29","","6","","","","99.16","","","","-15","","NA"
"2010-01-06 03:00","2010","01","06","03:00","-11.6","","-14.5","","79","","29","","7","","","","99.22","","","","-16","","NA"
"2010-01-06 04:00","2010","01","06","04:00","-12.0","","-15.0","","78","","35","","11","","","","99.24","","","","-18","","NA"
"2010-01-06 05:00","2010","01","06","05:00","-11.9","","-14.4","","82","","29","","9","","","","99.24","","","","-17","","NA"
"2010-01-06 06:00","2010","01","06","06:00","-12.2","","-14.9","","80","","31","","13","","","","99.26","","","","-19","","NA"
"2010-01-06 07:00","2010","01","06","07:00","-12.3","","-15.1","","80","","32","","19","","","","99.32","","","","-21","","NA"
"2010-01-06 08:00","2010","01","06","08:00","-12.5","","-15.7","","77","","33","","9","","","","99.35","","","","-18","","NA"
"2010-01-06 09:00","2010","01","06","09:00","-12.0","","-15.9","","73","","34","","15","","","","99.36","","","","-19","","NA"
"2010-01-06 10:00","2010","01","06","10:00","-11.3","","-15.6","","70","","33","","19","","","","99.35","","","","-19","","NA"
"2010-01-06 11:00","2010","01","06","11:00","-9.4","","-14.8","","65","","33","","7","","","","99.38","","","","-13","","NA"
"2010-01-06 12:00","2010","01","06","12:00","-8.2","","-13.9","","63","","33","","13","","","","99.31","","","","-14","","NA"
"2010-01-06 13:00","2010","01","06","13:00","-7.6","","-13.2","","64","","34","","11","","","","99.25","","","","-13","","NA"
"2010-01-06 14:00","2010","01","06","14:00","-6.7","","-12.9","","61","","32","","9","","","","99.22","","","","-11","","NA"
"2010-01-06 15:00","2010","01","06","15:00","-5.2","","-11.4","","62","","31","","13","","","","99.23","","","","-10","","NA"
"2010-01-06 16:00","2010","01","06","16:00","-5.8","","-11.0","","67","","31","","7","","","","99.29","","","","-9","","NA"
"2010-01-06 17:00","2010","01","06","17:00","-5.8","","-10.6","","69","","33","","13","","","","99.29","","","","-11","","NA"
"2010-01-06 18:00","2010","01","06","18:00","-5.8","","-10.2","","71","","34","","22","","","","99.29","","","","-13","","NA"
"2010-01-06 19:00","2010","01","06","19:00","-5.9","","-10.0","","73","","36","","19","","","","99.32","","","","-13","","NA"
"2010-01-06 20:00","2010","01","06","20:00","-6.4","","-10.0","","76","","2","","9","","","","99.35","","","","-11","","NA"
"2010-01-06 21:00","2010","01","06","21:00","-6.6","","-10.1","","76","","35","","13","","","","99.36","","","","-12","","NA"
"2010-01-06 22:00","2010","01","06","22:00","-6.6","","-10.2","","76","","1","","7","","","","99.36","","","","-10","","NA"
"2010-01-06 23:00","2010","01","06","23:00","-7.0","","-10.8","","74","","35","","9","","","","99.39","","","","-11","","NA"
"2010-01-07 00:00","2010","01","07","00:00","-7.8","","-11.3","","76","","36","","9","","","","99.41","","","","-12","","NA"
"2010-01-07 01:00","2010","01","07","01:00","-8.7","","-11.7","","79","","2","","7","","","","99.46","","","","-13","","NA"
"2010-01-07 02:00","2010","01","07","02:00","-9.2","","-11.8","","81","","1","","6","","","","99.49","","","","-13","","NA"
"2010-01-07 03:00","2010","01","07","03:00","-9.2","","-11.7","","82","","33","","7","","","","99.51","","","","-13","","NA"
"2010-01-07 04:00","2010","01","07","04:00","-10.0","","-12.7","","81","","35","","6","","","","99.50","","","","-14","","NA"
"2010-01-07 05:00","2010","01","07","05:00","-10.6","","-13.3","","80","","36","","6","","","","99.47","","","","-14","","NA"
"2010-01-07 06:00","2010","01","07","06:00","-10.5","","-13.4","","79","","31","","11","","","","99.51","","","","-16","","NA"
"2010-01-07 07:00","2010","01","07","07:00","-11.0","","-13.8","","80","","29","","7","","","","99.54","","","","-15","","NA"
"2010-01-07 08:00","2010","01","07","08:00","-11.7","","-14.4","","80","","29","","4","","","","99.54","","","","-14","","NA"
"2010-01-07 09:00","2010","01","07","09:00","-10.8","","-14.8","","72","","36","","6","","","","99.55","","","","-14","","NA"
"2010-01-07 10:00","2010","01","07","10:00","-9.5","","-14.5","","67","","2","","11","","","","99.55","","","","-15","","NA"
"2010-01-07 11:00","2010","01","07","11:00","-8.6","","-14.4","","63","","1","","9","","","","99.56","","","","-13","","NA"
"2010-01-07 12:00","2010","01","07","12:00","-7.8","","-14.1","","61","","4","","9","","","","99.47","","","","-12","","NA"
"2010-01-07 13:00","2010","01","07","13:00","-6.4","","-13.6","","57","","3","","9","","","","99.36","","","","-11","","NA"
"2010-01-07 14:00","2010","01","07","14:00","-5.6","","-13.3","","55","","2","","11","","","","99.30","","","","-10","","NA"
"2010-01-07 15:00","2010","01","07","15:00","-5.4","","-13.5","","53","","4","","11","","","","99.30","","","","-10","","NA"
"2010-01-07 16:00","2010","01","07","16:00","-6.2","","-13.5","","56","","2","","11","","","","99.33","","","","-11","","NA"
"2010-01-07 17:00","2010","01","07","17:00","-7.6","","-13.5","","63","","3","","11","","","","99.37","","","","-13","","NA"
"2010-01-07 18:00","2010","01","07","18:00","-8.8","","-13.8","","67","","2","","13","","","","99.37","","","","-15","","NA"
"2010-01-07 19:00","2010","01","07","19:00","-9.7","","-14.3","","69","","3","","11","","","","99.37","","","","-15","","NA"
"2010-01-07 20:00","2010","01","07","20:00","-10.9","","-15.2","","71","","3","","17","","","","99.32","","","","-18","","NA"
"2010-01-07 21:00","2010","01","07","21:00","-11.4","","-15.5","","72","","2","","13","","","","99.30","","","","-18","","NA"
"2010-01-07 22:00","2010","01","07","22:00","-11.6","","-15.9","","70","","2","","15","","","","99.32","","","","-19","","NA"
"2010-01-07 23:00","2010","01","07","23:00","-11.4","","-15.9","","69","","1","","13","","","","99.32","","","","-18","","NA"
"2010-01-08 00:00","2010","01","08","00:00","-11.3","","-16.0","","68","","1","","9","","","","99.32","","","","-16","","NA"
"2010-01-08 01:00","2010","01","08","01:00","-11.2","","-15.7","","69","","2","","15","","","","99.29","","","","-18","","NA"
"2010-01-08 02:00","2010","01","08","02:00","-11.2","","-15.7","","69","","3","","15","","","","99.27","","","","-18","","NA"
"2010-01-08 03:00","2010","01","08","03:00","-11.6","","-16.3","","68","","2","","11","","","","99.31","","","","-18","","NA"
"2010-01-08 04:00","2010","01","08","04:00","-12.1","","-16.7","","69","","1","","9","","","","99.31","","","","-17","","NA"
"2010-01-08 05:00","2010","01","08","05:00","-12.5","","-17.4","","67","","4","","7","","","","99.32","","","","-17","","NA"
"2010-01-08 06:00","2010","01","08","06:00","-12.7","","-18.3","","63","","36","","7","","","","99.37","","","","-17","","NA"
"2010-01-08 07:00","2010","01","08","07:00","-13.1","","-19.1","","61","","34","","4","","","","99.44","","","","-16","","NA"
"2010-01-08 08:00","2010","01","08","08:00","-13.6","","-20.2","","57","","2","","9","","","","99.49","","","","-19","","NA"
"2010-01-08 09:00","2010","01","08","09:00","-14.0","","-20.8","","56","","2","","15","","","","99.54","","","","-22","","NA"
"2010-01-08 10:00","2010","01","08","10:00","-13.9","","-20.8","","56","","2","","13","","","","99.60","","","","-21","","NA"
"2010-01-08 11:00","2010","01","08","11:00","-13.2","","-20.6","","54","","1","","9","","","","99.64","","","","-19","","NA"
"2010-01-08 12:00","2010","01","08","12:00","-12.2","","-19.4","","55","","36","","19","","","","99.61","","","","-20","","NA"
"2010-01-08 13:00","2010","01","08","13:00","-12.1","","-18.4","","59","","1","","17","","","","99.63","","","","-20","","NA"
"2010-01-08 14:00","2010","01","08","14:00","-11.7","","-17.4","","63","","34","","11","","","","99.63","","","","-18","","NA"
"2010-01-08 15:00","2010","01","08","15:00","-11.1","","-16.3","","65","","33","","9","","","","99.68","","","","-16","","NA"
"2010-01-08 16:00","2010","01","08","16:00","-11.1","","-17.2","","61","","34","","17","","","","99.73","","","","-19","","NA"
"2010-01-08 17:00","2010","01","08","17:00","-11.6","","-18.8","","55","","35","","19","","","","99.82","","","","-20","","NA"
"2010-01-08 18:00","2010","01","08","18:00","-12.0","","-19.9","","52","","36","","11","","","","99.91","","","","-18","","NA"
"2010-01-08 19:00","2010","01","08","19:00","-12.5","","-20.9","","49","","1","","13","","","","99.97","","","","-19","","NA"
"2010-01-08 20:00","2010","01","08","20:00","-13.2","","-21.2","","51","","1","","13","","","","100.03","","","","-20","","NA"
"2010-01-08 21:00","2010","01","08","21:00","-13.3","","-21.4","","51","","1","","9","","","","100.09","","","","-19","","NA"
"2010-01-08 22:00","2010","01","08","22:00","-13.5","","-21.3","","52","","1","","11","","","","100.14","","","","-20","","NA"
"2010-01-08 23:00","2010","01","08","23:00","-13.9","","-21.4","","53","","36","","17","","","","100.20","","","","-22","","NA"
"2010-01-09 00:00","2010","01","09","00:00","-14.2","","-21.6","","53","","33","","6","","","","100.27","","","","-18","","NA"
"2010-01-09 01:00","2010","01","09","01:00","-15.3","","-22.7","","53","","33","","4","","","","100.30","","","","-18","","NA"
"2010-01-09 02:00","2010","01","09","02:00","-16.6","","-24.2","","52","","34","","4","","","","100.36","","","","-20","","NA"
"2010-01-09 03:00","2010","01","09","03:00","-17.2","","-24.6","","53","","35","","19","","","","100.38","","","","-27","","NA"
"2010-01-09 04:00","2010","01","09","04:00","-17.8","","-25.2","","52","","1","","11","","","","100.42","","","","-25","","NA"
"2010-01-09 05:00","2010","01","09","05:00","-18.0","","-24.7","","56","","2","","7","","","","100.47","","","","-23","","NA"
"2010-01-09 06:00","2010","01","09","06:00","-18.3","","-25.6","","53","","1","","15","","","","100.50","","","","-27","","NA"
"2010-01-09 07:00","2010","01","09","07:00","-18.9","","-26.3","","52","","2","","11","","","","100.57","","","","-26","","NA"
"2010-01-09 08:00","2010","01","09","08:00","-19.0","","-27.4","","47","","35","","9","","","","100.63","","","","-26","","NA"
"2010-01-09 09:00","2010","01","09","09:00","-17.6","","-26.8","","45","","29","","7","","","","100.68","","","","-23","","NA"
"2010-01-09 10:00","2010","01","09","10:00","-16.6","","-29.3","","32","","36","","11","","","","100.71","","","","-24","","NA"
"2010-01-09 11:00","2010","01","09","11:00","-15.2","","-24.2","","46","","28","","11","","","","100.75","","","","-22","","NA"
"2010-01-09 12:00","2010","01","09","12:00","-12.7","","-30.4","","21","","2","","9","","","","100.68","","","","-18","","NA"
"2010-01-09 13:00","2010","01","09","13:00","-12.1","","-25.5","","32","","26","","15","","","","100.62","","","","-19","","NA"
"2010-01-09 14:00","2010","01","09","14:00","-11.4","","-25.8","","29","","30","","13","","","","100.57","","","","-18","","NA"
"2010-01-09 15:00","2010","01","09","15:00","-10.9","","-25.1","","30","","28","","11","","","","100.55","","","","-17","","NA"
"2010-01-09 16:00","2010","01","09","16:00","-10.6","","-24.6","","31","","29","","11","","","","100.56","","","","-16","","NA"
"2010-01-09 17:00","2010","01","09","17:00","-11.3","","-20.4","","47","","28","","9","","","","100.52","","","","-16","","NA"
"2010-01-09 18:00","2010","01","09","18:00","-11.8","","-19.1","","55","","28","","9","","","","100.53","","","","-17","","NA"
"2010-01-09 19:00","2010","01","09","19:00","-11.6","","-18.2","","58","","31","","17","","","","100.51","","","","-19","","NA"
"2010-01-09 20:00","2010","01","09","20:00","-11.2","","-16.9","","63","","29","","9","","","","100.50","","","","-16","","NA"
"2010-01-09 21:00","2010","01","09","21:00","-11.3","","-17.8","","59","","29","","9","","","","100.46","","","","-16","","NA"
"2010-01-09 22:00","2010","01","09","22:00","-11.5","","-17.2","","63","","29","","6","","","","100.42","","","","-15","","NA"
"2010-01-09 23:00","2010","01","09","23:00","-11.4","","-16.2","","68","","29","","6","","","","100.36","","","","-15","","NA"
"2010-01-10 00:00","2010","01","10","00:00","-10.2","","-14.3","","72","","28","","11","","","","100.30","","","","-16","","NA"
"2010-01-10 01:00","2010","01","10","01:00","-8.7","","-14.3","","64","","29","","11","","","","100.20","","","","-14","","NA"
"2010-01-10 02:00","2010","01","10","02:00","-8.2","","-13.3","","67","","28","","9","","","","100.13","","","","-13","","NA"
"2010-01-10 03:00","2010","01","10","03:00","-6.7","","-11.6","","68","","26","","20","","","","100.06","","","","-14","","NA"
"2010-01-10 04:00","2010","01","10","04:00","-6.5","","-10.8","","71","","27","","19","","","","99.94","","","","-13","","NA"
"2010-01-10 05:00","2010","01","10","05:00","-6.3","","-10.1","","74","","26","","17","","","","99.88","","","","-13","","NA"
"2010-01-10 06:00","2010","01","10","06:00","-6.0","","-9.3","","77","","26","","19","","","","99.85","","","","-13","","NA"
"2010-01-10 07:00","2010","01","10","07:00","-5.9","","-8.9","","79","","25","","15","","","","99.80","","","","-12","","NA"
"2010-01-10 08:00","2010","01","10","08:00","-5.9","","-8.7","","81","","25","","15","","","","99.76","","","","-12","","NA"
"2010-01-10 09:00","2010","01","10","09:00","-4.9","","-7.9","","79","","26","","19","","","","99.70","","","","-11","","NA"
"2010-01-10 10:00","2010","01","10","10:00","-3.8","","-7.4","","76","","26","","19","","","","99.68","","","","-10","","NA"
"2010-01-10 11:00","2010","01","10","11:00","-2.5","","-6.9","","72","","26","","28","","","","99.63","","","","-10","","NA"
"2010-01-10 12:00","2010","01","10","12:00","-1.6","","-6.8","","68","","25","","28","","","","99.53","","","","-8","","NA"
"2010-01-10 13:00","2010","01","10","13:00","-1.2","","-7.2","","64","","26","","26","","","","99.41","","","","-8","","NA"
"2010-01-10 14:00","2010","01","10","14:00","-1.1","","-7.4","","62","","26","","30","","","","99.34","","","","-8","","NA"
"2010-01-10 15:00","2010","01","10","15:00","-0.8","","-8.5","","56","","26","","30","","","","99.29","","","","-8","","NA"
"2010-01-10 16:00","2010","01","10","16:00","-0.9","","-8.3","","57","","26","","28","","","","99.28","","","","-7","","NA"
"2010-01-10 17:00","2010","01","10","17:00","-1.6","","-9.0","","57","","25","","28","","","","99.24","","","","-8","","NA"
"2010-01-10 18:00","2010","01","10","18:00","-1.9","","-9.0","","58","","25","","15","","","","99.23","","","","-7","","NA"
"2010-01-10 19:00","2010","01","10","19:00","-1.8","","-9.9","","54","","25","","15","","","","99.22","","","","-7","","NA"
"2010-01-10 20:00","2010","01","10","20:00","-1.7","","-9.1","","57","","25","","15","","","","99.18","","","","-7","","NA"
"2010-01-10 21:00","2010","01","10","21:00","-1.2","","-9.3","","54","","25","","17","","","","99.14","","","","-6","","NA"
"2010-01-10 22:00","2010","01","10","22:00","-1.2","","-8.9","","56","","25","","15","","","","99.13","","","","-6","","NA"
"2010-01-10 23:00","2010","01","10","23:00","-1.1","","-8.1","","59","","26","","13","","","","99.12","","","","-5","","NA"
"2010-01-11 00:00","2010","01","11","00:00","-1.9","","-6.8","","69","","25","","20","","","","99.11","","","","-8","","NA"
"2010-01-11 01:00","2010","01","11","01:00","-1.4","","-8.3","","59","","27","","17","","","","99.08","","","","-7","","NA"
"2010-01-11 02:00","2010","01","11","02:00","-2.1","","-6.9","","70","","28","","9","","","","99.06","","","","-6","","NA"
"2010-01-11 03:00","2010","01","11","03:00","-1.6","","-7.5","","64","","25","","9","","","","99.06","","","","-5","","NA"
"2010-01-11 04:00","2010","01","11","04:00","-3.1","","-5.3","","85","","30","","9","","","","99.09","","","","-7","","NA"
"2010-01-11 05:00","2010","01","11","05:00","-3.3","","-5.0","","88","","27","","7","","","","99.09","","","","-6","","NA"
"2010-01-11 06:00","2010","01","11","06:00","-3.6","","-5.1","","89","","33","","4","","","","99.09","","","","-5","","NA"
"2010-01-11 07:00","2010","01","11","07:00","-3.5","","-5.0","","89","","2","","4","","","","99.12","","","","-5","","NA"
"2010-01-11 08:00","2010","01","11","08:00","-3.6","","-5.3","","88","","2","","6","","","","99.17","","","","-6","","NA"
"2010-01-11 09:00","2010","01","11","09:00","-3.7","","-5.2","","89","","5","","4","","","","99.22","","","","-5","","NA"
"2010-01-11 10:00","2010","01","11","10:00","-3.6","","-4.9","","91","","4","","9","","","","99.28","","","","-7","","NA"
"2010-01-11 11:00","2010","01","11","11:00","-4.8","","-7.1","","84","","2","","15","","","","99.40","","","","-10","","NA"
"2010-01-11 12:00","2010","01","11","12:00","-6.3","","-9.6","","77","","2","","20","","","","99.42","","","","-13","","NA"
"2010-01-11 13:00","2010","01","11","13:00","-6.5","","-10.9","","71","","3","","19","","","","99.43","","","","-13","","NA"
"2010-01-11 14:00","2010","01","11","14:00","-6.1","","-11.4","","66","","3","","17","","","","99.48","","","","-12","","NA"
"2010-01-11 15:00","2010","01","11","15:00","-5.9","","-12.7","","59","","4","","17","","","","99.53","","","","-12","","NA"
"2010-01-11 16:00","2010","01","11","16:00","-7.0","","-13.5","","60","","3","","17","","","","99.66","","","","-13","","NA"
"2010-01-11 17:00","2010","01","11","17:00","-7.1","","-13.1","","62","","2","","15","","","","99.81","","","","-13","","NA"
"2010-01-11 18:00","2010","01","11","18:00","-7.3","","-13.3","","62","","2","","11","","","","99.92","","","","-12","","NA"
"2010-01-11 19:00","2010","01","11","19:00","-7.6","","-13.4","","63","","2","","13","","","","100.07","","","","-13","","NA"
"2010-01-11 20:00","2010","01","11","20:00","-7.9","","-14.0","","62","","2","","9","","","","100.14","","","","-12","","NA"
"2010-01-11 21:00","2010","01","11","21:00","-8.3","","-14.4","","61","","1","","19","","","","100.17","","","","-16","","NA"
"2010-01-11 22:00","2010","01","11","22:00","-8.5","","-14.4","","62","","1","","11","","","","100.17","","","","-14","","NA"
"2010-01-11 23:00","2010","01","11","23:00","-9.0","","-14.6","","64","","2","","9","","","","100.20","","","","-14","","NA"
"2010-01-12 00:00","2010","01","12","00:00","-9.7","","-15.0","","65","","1","","15","","","","100.25","","","","-16","","NA"
"2010-01-12 01:00","2010","01","12","01:00","-11.3","","-16.3","","66","","1","","15","","","","100.27","","","","-18","","NA"
"2010-01-12 02:00","2010","01","12","02:00","-12.1","","-16.7","","69","","1","","17","","","","100.33","","","","-20","","NA"
"2010-01-12 03:00","2010","01","12","03:00","-13.2","","-18.1","","67","","1","","22","","","","100.36","","","","-22","","NA"
"2010-01-12 04:00","2010","01","12","04:00","-14.1","","-19.0","","66","","1","","26","","","","100.43","","","","-24","","NA"
"2010-01-12 05:00","2010","01","12","05:00","-15.0","","-19.9","","66","","2","","13","","","","100.41","","","","-22","","NA"
"2010-01-12 06:00","2010","01","12","06:00","-15.6","","-20.2","","68","","35","","9","","","","100.51","","","","-22","","NA"
"2010-01-12 07:00","2010","01","12","07:00","-16.1","","-20.4","","69","","36","","4","","","","100.49","","","","-19","","NA"
"2010-01-12 08:00","2010","01","12","08:00","-16.8","","-21.0","","70","","1","","19","","","","100.51","","","","-26","","NA"
"2010-01-12 09:00","2010","01","12","09:00","-16.5","","-21.3","","66","","2","","11","","","","100.51","","","","-23","","NA"
"2010-01-12 10:00","2010","01","12","10:00","-15.5","","-21.3","","61","","2","","11","","","","100.52","","","","-22","","NA"
"2010-01-12 11:00","2010","01","12","11:00","-13.4","","-20.6","","55","","3","","9","","","","100.48","","","","-19","","NA"
"2010-01-12 12:00","2010","01","12","12:00","-11.1","","-19.0","","52","","16","","4","","","","100.38","","","","-14","","NA"
"2010-01-12 13:00","2010","01","12","13:00","-11.1","","-18.8","","53","","30","","9","","","","100.35","","","","-16","","NA"
"2010-01-12 14:00","2010","01","12","14:00","-11.2","","-18.4","","55","","27","","15","","","","100.27","","","","-18","","NA"
"2010-01-12 15:00","2010","01","12","15:00","-11.3","","-17.9","","58","","30","","9","","","","100.17","","","","-16","","NA"
"2010-01-12 16:00","2010","01","12","16:00","-10.6","","-16.4","","62","","29","","11","","","","100.08","","","","-16","","NA"
"2010-01-12 17:00","2010","01","12","17:00","-11.4","","-17.1","","63","","33","","6","","","","100.09","","","","-15","","NA"
"2010-01-12 18:00","2010","01","12","18:00","-11.3","","-16.3","","66","","30","","6","","","","100.12","","","","-15","","NA"
"2010-01-12 19:00","2010","01","12","19:00","-10.6","","-15.6","","67","","25","","9","","","","100.08","","","","-16","","NA"
"2010-01-12 20:00","2010","01","12","20:00","-10.7","","-16.2","","64","","36","","4","","","","100.02","","","","-13","","NA"
"2010-01-12 21:00","2010","01","12","21:00","-10.6","","-15.9","","65","","3","","9","","","","100.04","","","","-16","","NA"
"2010-01-12 22:00","2010","01","12","22:00","-7.7","","-10.8","","78","","16","","6","","","","99.85","","","","-11","","NA"
"2010-01-12 23:00","2010","01","12","23:00","-5.5","","-8.0","","83","","19","","11","","","","99.70","","","","-10","","NA"
"2010-01-13 00:00","2010","01","13","00:00","-3.4","","-5.9","","83","","21","","28","","","","99.60","","","","-11","","NA"
"2010-01-13 01:00","2010","01","13","01:00","-3.1","","-5.8","","82","","23","","28","","","","99.50","","","","-10","","NA"
"2010-01-13 02:00","2010","01","13","02:00","-2.9","","-5.4","","83","","25","","17","","","","99.44","","","","-8","","NA"
"2010-01-13 03:00","2010","01","13","03:00","-2.3","","-5.0","","82","","24","","19","","","","99.37","","","","-8","","NA"
"2010-01-13 04:00","2010","01","13","04:00","-1.8","","-4.6","","81","","24","","17","","","","99.30","","","","-7","","NA"
"2010-01-13 05:00","2010","01","13","05:00","-1.4","","-4.3","","81","","24","","17","","","","99.22","","","","-7","","NA"
"2010-01-13 06:00","2010","01","13","06:00","-1.0","","-4.0","","80","","24","","17","","","","99.21","","","","-6","","NA"
"2010-01-13 07:00","2010","01","13","07:00","-0.7","","-4.1","","78","","24","","15","","","","99.23","","","","-5","","NA"
"2010-01-13 08:00","2010","01","13","08:00","-0.5","","-4.1","","77","","25","","13","","","","99.24","","","","-5","","NA"
"2010-01-13 09:00","2010","01","13","09:00","-0.1","","-4.3","","73","","25","","19","","","","99.25","","","","-5","","NA"
"2010-01-13 10:00","2010","01","13","10:00","-0.1","","-4.2","","74","","25","","17","","","","99.28","","","","-5","","NA"
"2010-01-13 11:00","2010","01","13","11:00","-0.1","","-3.9","","76","","25","","17","","","","99.26","","","","-5","","NA"
"2010-01-13 12:00","2010","01","13","12:00","0.1","","-3.4","","77","","26","","17","","","","99.19","","","","","","NA"
"2010-01-13 13:00","2010","01","13","13:00","0.0","","-3.2","","79","","27","","15","","","","99.13","","","","-4","","NA"
"2010-01-13 14:00","2010","01","13","14:00","-0.1","","-3.0","","81","","28","","15","","","","99.10","","","","-5","","NA"
"2010-01-13 15:00","2010","01","13","15:00","-0.1","","-2.9","","81","","28","","15","","","","99.12","","","","-5","","NA"
"2010-01-13 16:00","2010","01","13","16:00","-0.5","","-2.3","","88","","28","","11","","","","99.16","","","","-4","","NA"
"2010-01-13 17:00","2010","01","13","17:00","-0.7","","-2.2","","90","","27","","9","","","","99.20","","","","-4","","NA"
"2010-01-13 18:00","2010","01","13","18:00","-0.8","","-1.8","","93","","28","","4","","","","99.24","","","","-2","","NA"
"2010-01-13 19:00","2010","01","13","19:00","-1.0","","-1.7","","95","","32","","2","","","","99.25","","","","-2","","NA"
"2010-01-13 20:00","2010","01","13","20:00","-1.0","","-1.7","","95","","29","","2","","","","99.26","","","","-2","","NA"
"2010-01-13 21:00","2010","01","13","21:00","-0.8","","-1.4","","96","","26","","4","","","","99.26","","","","-2","","NA"
"2010-01-13 22:00","2010","01","13","22:00","-0.5","","-1.2","","95","","21","","7","","","","99.25","","","","-3","","NA"
"2010-01-13 23:00","2010","01","13","23:00","0.1","","-2.4","","83","","22","","17","","","","99.25","","","","","","NA"
"2010-01-14 00:00","2010","01","14","00:00","0.3","","-3.0","","78","","21","","19","","","","99.25","","","","","","NA"
"2010-01-14 01:00","2010","01","14","01:00","0.3","","-3.0","","78","","22","","24","","","","99.23","","","","","","NA"
"2010-01-14 02:00","2010","01","14","02:00","0.3","","-3.1","","78","","20","","28","","","","99.22","","","","","","NA"
"2010-01-14 03:00","2010","01","14","03:00","0.4","","-2.8","","79","","18","","26","","","","99.21","","","","","","NA"
"2010-01-14 04:00","2010","01","14","04:00","0.6","","-2.0","","83","","19","","24","","","","99.16","","","","","","NA"
"2010-01-14 05:00","2010","01","14","05:00","0.1","","-1.6","","88","","16","","32","","","","99.07","","","","","","NA"
"2010-01-14 06:00","2010","01","14","06:00","0.5","","-2.5","","80","","19","","30","","","","99.05","","","","","","NA"
"2010-01-14 07:00","2010","01","14","07:00","0.4","","-2.0","","84","","19","","28","","","","99.05","","","","","","NA"
"2010-01-14 08:00","2010","01","14","08:00","0.4","","-1.8","","85","","21","","24","","","","99.02","","","","","","NA"
"2010-01-14 09:00","2010","01","14","09:00","0.7","","-2.0","","82","","21","","28","","","","99.01","","","","","","NA"
"2010-01-14 10:00","2010","01","14","10:00","0.9","","-2.1","","80","","21","","26","","","","98.98","","","","","","NA"
"2010-01-14 11:00","2010","01","14","11:00","1.0","","-1.8","","82","","21","","24","","","","98.94","","","","","","NA"
"2010-01-14 12:00","2010","01","14","12:00","0.7","","-1.7","","84","","22","","28","","","","98.88","","","","","","NA"
"2010-01-14 13:00","2010","01","14","13:00","0.6","","-1.5","","86","","22","","28","","","","98.80","","","","","","NA"
"2010-01-14 14:00","2010","01","14","14:00","0.5","","-1.2","","88","","22","","28","","","","98.76","","","","","","NA"
"2010-01-14 15:00","2010","01","14","15:00","0.9","","-1.3","","85","","21","","24","","","","98.73","","","","","","NA"
"2010-01-14 16:00","2010","01","14","16:00","0.8","","-1.2","","86","","22","","22","","","","98.76","","","","","","NA"
"2010-01-14 17:00","2010","01","14","17:00","0.8","","-1.0","","88","","22","","26","","","","98.77","","","","","","NA"
"2010-01-14 18:00","2010","01","14","18:00","1.0","","-0.8","","88","","22","","26","","","","98.78","","","","","","NA"
"2010-01-14 19:00","2010","01","14","19:00","1.1","","-0.9","","86","","22","","20","","","","98.81","","","","","","NA"
"2010-01-14 20:00","2010","01","14","20:00","1.4","","-0.1","","90","","24","","17","","","","98.78","","","","","","NA"
"2010-01-14 21:00","2010","01","14","21:00","0.4","","-0.5","","94","","28","","19","","","","98.85","","","","","","NA"
"2010-01-14 22:00","2010","01","14","22:00","-0.4","","-2.5","","86","","28","","33","","","","98.89","","","","-7","","NA"
"2010-01-14 23:00","2010","01","14","23:00","-0.2","","-2.2","","86","","29","","24","","","","98.93","","","","-6","","NA"
"2010-01-15 00:00","2010","01","15","00:00","-0.4","","-2.4","","86","","28","","22","","","","99.01","","","","-6","","NA"
"2010-01-15 01:00","2010","01","15","01:00","-0.6","","-2.3","","88","","28","","20","","","","99.06","","","","-6","","NA"
"2010-01-15 02:00","2010","01","15","02:00","-1.0","","-2.0","","93","","27","","26","","","","99.10","","","","-7","","NA"
"2010-01-15 03:00","2010","01","15","03:00","-1.0","","-2.0","","93","","28","","19","","","","99.19","","","","-6","","NA"
"2010-01-15 04:00","2010","01","15","04:00","-0.9","","-2.4","","90","","29","","13","","","","99.26","","","","-5","","NA"
"2010-01-15 05:00","2010","01","15","05:00","-0.8","","-2.5","","88","","29","","11","","","","99.33","","","","-5","","NA"
"2010-01-15 06:00","2010","01","15","06:00","-0.7","","-2.5","","88","","30","","7","","","","99.41","","","","-3","","NA"
"2010-01-15 07:00","2010","01","15","07:00","-0.5","","-2.4","","87","","30","","9","","","","99.52","","","","-4","","NA"
"2010-01-15 08:00","2010","01","15","08:00","-0.6","","-2.2","","89","","29","","7","","","","99.57","","","","-3","","NA"
"2010-01-15 09:00","2010","01","15","09:00","-0.4","","-2.2","","88","","28","","6","","","","99.64","","","","-2","","NA"
"2010-01-15 10:00","2010","01","15","10:00","0.0","","-2.7","","82","","28","","13","","","","99.75","","","","-4","","NA"
"2010-01-15 11:00","2010","01","15","11:00","-0.1","","-2.6","","83","","28","","9","","","","99.78","","","","-3","","NA"
"2010-01-15 12:00","2010","01","15","12:00","0.2","","-3.4","","77","","28","","13","","","","99.77","","","","","","NA"
"2010-01-15 13:00","2010","01","15","13:00","0.1","","-3.6","","76","","29","","13","","","","99.74","","","","","","NA"
"2010-01-15 14:00","2010","01","15","14:00","-0.2","","-3.6","","78","","27","","24","","","","99.77","","","","-6","","NA"
"2010-01-15 15:00","2010","01","15","15:00","-0.3","","-3.8","","77","","29","","19","","","","99.69","","","","-5","","NA"
"2010-01-15 16:00","2010","01","15","16:00","-0.6","","-3.5","","81","","28","","22","","","","99.73","","","","-6","","NA"
"2010-01-15 17:00","2010","01","15","17:00","-0.6","","-3.2","","83","","27","","20","","","","99.74","","","","-6","","NA"
"2010-01-15 18:00","2010","01","15","18:00","-0.8","","-3.1","","84","","28","","19","","","","99.75","","","","-6","","NA"
"2010-01-15 19:00","2010","01","15","19:00","-0.6","","-3.1","","83","","26","","19","","","","99.73","","","","-6","","NA"
"2010-01-15 20:00","2010","01","15","20:00","-0.9","","-3.4","","83","","27","","32","","","","99.74","","","","-8","","NA"
"2010-01-15 21:00","2010","01","15","21:00","-0.7","","-3.0","","84","","27","","19","","","","99.65","","","","-6","","NA"
"2010-01-15 22:00","2010","01","15","22:00","0.1","","-2.8","","81","","26","","17","","","","99.58","","","","","","NA"
"2010-01-15 23:00","2010","01","15","23:00","0.5","","-2.7","","79","","26","","15","","","","99.51","","","","","","NA"
"2010-01-16 00:00","2010","01","16","00:00","0.7","","-2.8","","77","","26","","19","","","","99.50","","","","","","NA"
"2010-01-16 01:00","2010","01","16","01:00","0.6","","-2.9","","77","","26","","24","","","","99.48","","","","","","NA"
"2010-01-16 02:00","2010","01","16","02:00","0.7","","-2.7","","78","","25","","22","","","","99.48","","","","","","NA"
"2010-01-16 03:00","2010","01","16","03:00","0.6","","-3.0","","77","","25","","26","","","","99.44","","","","","","NA"
"2010-01-16 04:00","2010","01","16","04:00","0.4","","-3.0","","78","","25","","26","","","","99.45","","","","","","NA"
"2010-01-16 05:00","2010","01","16","05:00","0.1","","-3.0","","80","","27","","20","","","","99.44","","","","","","NA"
"2010-01-16 06:00","2010","01","16","06:00","0.0","","-3.2","","79","","25","","19","","","","99.43","","","","-5","","NA"
"2010-01-16 07:00","2010","01","16","07:00","0.0","","-2.9","","81","","26","","19","","","","99.42","","","","-5","","NA"
"2010-01-16 08:00","2010","01","16","08:00","0.0","","-2.8","","81","","27","","20","","","","99.49","","","","-5","","NA"
"2010-01-16 09:00","2010","01","16","09:00","0.0","","-2.7","","82","","28","","17","","","","99.54","","","","-5","","NA"
"2010-01-16 10:00","2010","01","16","10:00","0.1","","-2.5","","83","","27","","11","","","","99.59","","","","","","NA"
"2010-01-16 11:00","2010","01","16","11:00","0.3","","-2.4","","82","","26","","13","","","","99.61","","","","","","NA"
"2010-01-16 12:00","2010","01","16","12:00","0.4","","-2.3","","82","","27","","13","","","","99.56","","","","","","NA"
"2010-01-16 13:00","2010","01","16","13:00","0.4","","-2.4","","81","","26","","15","","","","99.48","","","","","","NA"
"2010-01-16 14:00","2010","01","16","14:00","0.5","","-2.4","","81","","28","","9","","","","99.46","","","","","","NA"
"2010-01-16 15:00","2010","01","16","15:00","0.6","","-2.2","","81","","25","","11","","","","99.47","","","","","","NA"
"2010-01-16 16:00","2010","01","16","16:00","0.4","","-2.3","","82","","22","","17","","","","99.47","","","","","","NA"
"2010-01-16 17:00","2010","01","16","17:00","0.4","","-2.3","","82","","23","","17","","","","99.47","","","","","","NA"
"2010-01-16 18:00","2010","01","16","18:00","0.1","","-2.6","","82","","22","","20","","","","99.47","","","","","","NA"
"2010-01-16 19:00","2010","01","16","19:00","0.2","","-2.5","","82","","22","","20","","","","99.40","","","","","","NA"
"2010-01-16 20:00","2010","01","16","20:00","0.6","","-2.2","","81","","21","","19","","","","99.40","","","","","","NA"
"2010-01-16 21:00","2010","01","16","21:00","0.7","","-1.7","","84","","22","","19","","","","99.36","","","","","","NA"
"2010-01-16 22:00","2010","01","16","22:00","0.7","","-1.5","","85","","19","","22","","","","99.31","","","","","","NA"
"2010-01-16 23:00","2010","01","16","23:00","0.3","","-1.5","","88","","20","","26","","","","99.28","","","","","","NA"
"2010-01-17 00:00","2010","01","17","00:00","0.2","","-1.7","","87","","22","","20","","","","99.26","","","","","","NA"
"2010-01-17 01:00","2010","01","17","01:00","0.7","","-1.2","","87","","20","","20","","","","99.19","","","","","","NA"
"2010-01-17 02:00","2010","01","17","02:00","0.5","","-1.8","","85","","20","","26","","","","99.13","","","","","","NA"
"2010-01-17 03:00","2010","01","17","03:00","0.6","","-1.6","","85","","20","","28","","","","99.10","","","","","","NA"
"2010-01-17 04:00","2010","01","17","04:00","0.9","","-1.7","","83","","18","","33","","","","99.08","","","","","","NA"
"2010-01-17 05:00","2010","01","17","05:00","0.7","","-1.7","","84","","19","","26","","","","98.96","","","","","","NA"
"2010-01-17 06:00","2010","01","17","06:00","0.6","","-1.7","","85","","19","","28","","","","98.94","","","","","","NA"
"2010-01-17 07:00","2010","01","17","07:00","0.8","","-1.6","","84","","19","","30","","","","98.92","","","","","","NA"
"2010-01-17 08:00","2010","01","17","08:00","0.8","","-1.5","","85","","19","","28","","","","98.86","","","","","","NA"
"2010-01-17 09:00","2010","01","17","09:00","0.5","","-1.6","","86","","20","","22","","","","98.82","","","","","","NA"
"2010-01-17 10:00","2010","01","17","10:00","0.5","","-1.5","","86","","18","","26","","","","98.80","","","","","","NA"
"2010-01-17 11:00","2010","01","17","11:00","0.6","","-1.5","","86","","19","","22","","","","98.77","","","","","","NA"
"2010-01-17 12:00","2010","01","17","12:00","0.3","","-1.8","","86","","19","","26","","","","98.66","","","","","","NA"
"2010-01-17 13:00","2010","01","17","13:00","0.3","","-1.6","","87","","18","","24","","","","98.56","","","","","","NA"
"2010-01-17 14:00","2010","01","17","14:00","0.4","","-1.6","","86","","18","","22","","","","98.52","","","","","","NA"
"2010-01-17 15:00","2010","01","17","15:00","-0.7","","-1.7","","93","","15","","28","","","","98.49","","","","-7","","NA"
"2010-01-17 16:00","2010","01","17","16:00","-0.7","","-1.8","","92","","15","","28","","","","98.53","","","","-7","","NA"
"2010-01-17 17:00","2010","01","17","17:00","-0.9","","-2.3","","90","","15","","24","","","","98.52","","","","-7","","NA"
"2010-01-17 18:00","2010","01","17","18:00","-0.8","","-2.0","","92","","14","","24","","","","98.46","","","","-7","","NA"
"2010-01-17 19:00","2010","01","17","19:00","-0.3","","-1.9","","89","","29","","7","","","","98.48","","","","-3","","NA"
"2010-01-17 20:00","2010","01","17","20:00","-0.6","","-2.3","","88","","26","","11","","","","98.48","","","","-4","","NA"
"2010-01-17 21:00","2010","01","17","21:00","-0.9","","-2.5","","89","","28","","13","","","","98.53","","","","-5","","NA"
"2010-01-17 22:00","2010","01","17","22:00","-1.1","","-2.5","","90","","26","","11","","","","98.52","","","","-5","","NA"
"2010-01-17 23:00","2010","01","17","23:00","-1.0","","-2.4","","90","","27","","7","","","","98.51","","","","-4","","NA"
"2010-01-18 00:00","2010","01","18","00:00","-0.8","","-2.0","","92","","28","","6","","","","98.49","","","","-3","","NA"
"2010-01-18 01:00","2010","01","18","01:00","-0.6","","-2.5","","87","","29","","13","","","","98.47","","","","-5","","NA"
"2010-01-18 02:00","2010","01","18","02:00","-0.7","","-2.2","","90","","29","","9","","","","98.47","","","","-4","","NA"
"2010-01-18 03:00","2010","01","18","03:00","-0.8","","-2.0","","92","","29","","7","","","","98.50","","","","-3","","NA"
"2010-01-18 04:00","2010","01","18","04:00","-0.5","","-2.2","","88","","29","","9","","","","98.50","","","","-4","","NA"
"2010-01-18 05:00","2010","01","18","05:00","-0.3","","-2.2","","87","","27","","9","","","","98.50","","","","-3","","NA"
"2010-01-18 06:00","2010","01","18","06:00","-0.6","","-2.1","","90","","25","","7","","","","98.52","","","","-3","","NA"
"2010-01-18 07:00","2010","01","18","07:00","-0.7","","-2.1","","90","","30","","7","","","","98.56","","","","-3","","NA"
"2010-01-18 08:00","2010","01","18","08:00","-0.6","","-2.2","","89","","27","","7","","","","98.60","","","","-3","","NA"
"2010-01-18 09:00","2010","01","18","09:00","-0.2","","-2.3","","86","","26","","9","","","","98.63","","","","-3","","NA"
"2010-01-18 10:00","2010","01","18","10:00","-0.1","","-1.4","","91","","26","","11","","","","98.66","","","","-4","","NA"
"2010-01-18 11:00","2010","01","18","11:00","0.7","","-1.1","","88","","25","","15","","","","98.66","","","","","","NA"
"2010-01-18 12:00","2010","01","18","12:00","1.1","","-1.0","","86","","25","","17","","","","98.60","","","","","","NA"
"2010-01-18 13:00","2010","01","18","13:00","1.5","","-1.6","","80","","27","","19","","","","98.58","","","","","","NA"
"2010-01-18 14:00","2010","01","18","14:00","1.4","","-1.9","","79","","28","","15","","","","98.54","","","","","","NA"
"2010-01-18 15:00","2010","01","18","15:00","1.3","","-2.1","","78","","28","","22","","","","98.53","","","","","","NA"
"2010-01-18 16:00","2010","01","18","16:00","1.1","","-2.0","","80","","28","","19","","","","98.56","","","","","","NA"
"2010-01-18 17:00","2010","01","18","17:00","0.8","","-1.8","","83","","28","","19","","","","98.60","","","","","","NA"
"2010-01-18 18:00","2010","01","18","18:00","0.9","","-2.0","","81","","28","","19","","","","98.67","","","","","","NA"
"2010-01-18 19:00","2010","01","18","19:00","0.6","","-2.9","","77","","27","","26","","","","98.70","","","","","","NA"
"2010-01-18 20:00","2010","01","18","20:00","0.3","","-3.3","","77","","28","","22","","","","98.73","","","","","","NA"
"2010-01-18 21:00","2010","01","18","21:00","0.0","","-3.7","","76","","28","","22","","","","98.75","","","","-6","","NA"
"2010-01-18 22:00","2010","01","18","22:00","-0.4","","-4.0","","77","","28","","19","","","","98.77","","","","-6","","NA"
"2010-01-18 23:00","2010","01","18","23:00","-0.6","","-3.9","","78","","28","","15","","","","98.77","","","","-5","","NA"
"2010-01-19 00:00","2010","01","19","00:00","-0.7","","-3.9","","79","","28","","17","","","","98.75","","","","-6","","NA"
"2010-01-19 01:00","2010","01","19","01:00","-1.1","","-3.8","","82","","28","","15","","","","98.74","","","","-6","","NA"
"2010-01-19 02:00","2010","01","19","02:00","-1.1","","-4.2","","79","","28","","15","","","","98.73","","","","-6","","NA"
"2010-01-19 03:00","2010","01","19","03:00","-1.4","","-5.2","","75","","29","","13","","","","98.74","","","","-6","","NA"
"2010-01-19 04:00","2010","01","19","04:00","-1.5","","-5.1","","76","","28","","13","","","","98.75","","","","-6","","NA"
"2010-01-19 05:00","2010","01","19","05:00","-1.8","","-6.1","","72","","28","","15","","","","98.75","","","","-7","","NA"
"2010-01-19 06:00","2010","01","19","06:00","-2.0","","-6.3","","72","","28","","17","","","","98.77","","","","-7","","NA"
"2010-01-19 07:00","2010","01","19","07:00","-2.5","","-8.9","","61","","31","","7","","","","98.80","","","","-5","","NA"
"2010-01-19 08:00","2010","01","19","08:00","-3.0","","-10.1","","58","","29","","11","","","","98.83","","","","-7","","NA"
"2010-01-19 09:00","2010","01","19","09:00","-3.3","","-10.4","","58","","31","","9","","","","98.84","","","","-7","","NA"
"2010-01-19 10:00","2010","01","19","10:00","-3.3","","-9.7","","61","","32","","9","","","","98.87","","","","-7","","NA"
"2010-01-19 11:00","2010","01","19","11:00","-3.2","","-9.4","","62","","32","","11","","","","98.90","","","","-7","","NA"
"2010-01-19 12:00","2010","01","19","12:00","-3.5","","-9.3","","64","","32","","11","","","","98.90","","","","-8","","NA"
"2010-01-19 13:00","2010","01","19","13:00","-3.7","","-9.2","","66","","33","","13","","","","98.88","","","","-9","","NA"
"2010-01-19 14:00","2010","01","19","14:00","-4.2","","-8.9","","70","","2","","11","","","","98.88","","","","-9","","NA"
"2010-01-19 15:00","2010","01","19","15:00","-4.3","","-9.7","","66","","1","","11","","","","98.89","","","","-9","","NA"
"2010-01-19 16:00","2010","01","19","16:00","-4.7","","-10.5","","64","","2","","11","","","","98.96","","","","-9","","NA"
"2010-01-19 17:00","2010","01","19","17:00","-4.9","","-11.2","","61","","1","","9","","","","99.04","","","","-9","","NA"
"2010-01-19 18:00","2010","01","19","18:00","-5.4","","-11.1","","64","","1","","13","","","","99.09","","","","-11","","NA"
"2010-01-19 19:00","2010","01","19","19:00","-6.1","","-11.9","","63","","36","","11","","","","99.16","","","","-11","","NA"
"2010-01-19 20:00","2010","01","19","20:00","-6.9","","-11.5","","70","","2","","9","","","","99.23","","","","-11","","NA"
"2010-01-19 21:00","2010","01","19","21:00","-7.8","","-11.3","","76","","36","","9","","","","99.26","","","","-12","","NA"
"2010-01-19 22:00","2010","01","19","22:00","-8.5","","-12.3","","74","","1","","9","","","","99.32","","","","-13","","NA"
"2010-01-19 23:00","2010","01","19","23:00","-9.7","","-14.1","","70","","2","","11","","","","99.38","","","","-15","","NA"
"2010-01-20 00:00","2010","01","20","00:00","-10.6","","-14.8","","71","","2","","9","","","","99.42","","","","-16","","NA"
"2010-01-20 01:00","2010","01","20","01:00","-11.4","","-15.2","","73","","1","","13","","","","99.48","","","","-18","","NA"
"2010-01-20 02:00","2010","01","20","02:00","-11.8","","-15.8","","72","","3","","11","","","","99.52","","","","-18","","NA"
"2010-01-20 03:00","2010","01","20","03:00","-12.1","","-16.0","","73","","3","","9","","","","99.58","","","","-17","","NA"
"2010-01-20 04:00","2010","01","20","04:00","-12.2","","-16.0","","73","","1","","22","","","","99.56","","","","-21","","NA"
"2010-01-20 05:00","2010","01","20","05:00","-12.6","","-15.9","","76","","35","","9","","","","99.64","","","","-18","","NA"
"2010-01-20 06:00","2010","01","20","06:00","-12.7","","-15.9","","77","","35","","17","","","","99.65","","","","-21","","NA"
"2010-01-20 07:00","2010","01","20","07:00","-12.8","","-15.9","","78","","34","","6","","","","99.70","","","","-17","","NA"
"2010-01-20 08:00","2010","01","20","08:00","-13.2","","-16.1","","79","","33","","9","","","","99.72","","","","-19","","NA"
"2010-01-20 09:00","2010","01","20","09:00","-11.6","","-15.4","","73","","35","","7","","","","99.75","","","","-16","","NA"
"2010-01-20 10:00","2010","01","20","10:00","-9.3","","-14.8","","64","","36","","13","","","","99.76","","","","-15","","NA"
"2010-01-20 11:00","2010","01","20","11:00","-7.8","","-14.5","","59","","4","","7","","","","99.77","","","","-11","","NA"
"2010-01-20 12:00","2010","01","20","12:00","-6.7","","-13.3","","59","","10","","7","","","","99.72","","","","-10","","NA"
"2010-01-20 13:00","2010","01","20","13:00","-5.7","","-12.1","","61","","12","","11","","","","99.69","","","","-10","","NA"
"2010-01-20 14:00","2010","01","20","14:00","-5.1","","-11.5","","61","","20","","9","","","","99.65","","","","-9","","NA"
"2010-01-20 15:00","2010","01","20","15:00","-4.2","","-9.9","","64","","22","","13","","","","99.68","","","","-9","","NA"
"2010-01-20 16:00","2010","01","20","16:00","-3.3","","-12.8","","48","","3","","7","","","","99.73","","","","-6","","NA"
"2010-01-20 17:00","2010","01","20","17:00","-3.8","","-12.3","","52","","34","","6","","","","99.80","","","","-6","","NA"
"2010-01-20 18:00","2010","01","20","18:00","-6.5","","-10.6","","73","","30","","15","","","","99.86","","","","-12","","NA"
"2010-01-20 19:00","2010","01","20","19:00","-7.4","","-11.1","","75","","32","","11","","","","99.93","","","","-12","","NA"
"2010-01-20 20:00","2010","01","20","20:00","-7.6","","-11.3","","75","","32","","9","","","","100.01","","","","-12","","NA"
"2010-01-20 21:00","2010","01","20","21:00","-8.1","","-11.1","","79","","32","","9","","","","100.03","","","","-13","","NA"
"2010-01-20 22:00","2010","01","20","22:00","-7.4","","-11.4","","73","","1","","11","","","","99.99","","","","-12","","NA"
"2010-01-20 23:00","2010","01","20","23:00","-6.4","","-11.6","","67","","5","","7","","","","100.00","","","","-10","","NA"
"2010-01-21 00:00","2010","01","21","00:00","-6.9","","-11.5","","70","","6","","11","","","","99.95","","","","-12","","NA"
"2010-01-21 01:00","2010","01","21","01:00","-7.8","","-11.0","","78","","7","","17","","","","99.90","","","","-14","","NA"
"2010-01-21 02:00","2010","01","21","02:00","-7.9","","-9.9","","86","","8","","20","","","","99.91","","","","-15","","NA"
"2010-01-21 03:00","2010","01","21","03:00","-8.5","","-10.2","","87","","7","","11","","","","99.98","","","","-14","","NA"
"2010-01-21 04:00","2010","01","21","04:00","-8.8","","-10.2","","90","","9","","13","","","","100.02","","","","-15","","NA"
"2010-01-21 05:00","2010","01","21","05:00","-10.0","","-11.5","","89","","5","","9","","","","99.99","","","","-15","","NA"
"2010-01-21 06:00","2010","01","21","06:00","-10.1","","-11.5","","89","","6","","9","","","","99.98","","","","-15","","NA"
"2010-01-21 07:00","2010","01","21","07:00","-11.1","","-12.5","","89","","4","","11","","","","99.98","","","","-17","","NA"
"2010-01-21 08:00","2010","01","21","08:00","-9.8","","-11.2","","89","","4","","7","","","","100.09","","","","-14","","NA"
"2010-01-21 09:00","2010","01","21","09:00","-8.1","","-9.7","","88","","4","","7","","","","100.13","","","","-12","","NA"
"2010-01-21 10:00","2010","01","21","10:00","-5.7","","-8.4","","81","","8","","6","","","","100.12","","","","-9","","NA"
"2010-01-21 11:00","2010","01","21","11:00","-4.4","","-6.8","","83","","7","","15","","","","100.06","","","","-10","","NA"
"2010-01-21 12:00","2010","01","21","12:00","-3.4","","-7.0","","76","","10","","13","","","","99.96","","","","-8","","NA"
"2010-01-21 13:00","2010","01","21","13:00","-3.3","","-7.0","","76","","14","","13","","","","99.92","","","","-8","","NA"
"2010-01-21 14:00","2010","01","21","14:00","-2.8","","-7.3","","71","","11","","7","","","","99.81","","","","-6","","NA"
"2010-01-21 15:00","2010","01","21","15:00","-1.9","","-7.0","","68","","14","","7","","","","99.74","","","","-5","","NA"
"2010-01-21 16:00","2010","01","21","16:00","-1.9","","-5.9","","74","","12","","13","","","","99.72","","","","-6","","NA"
"2010-01-21 17:00","2010","01","21","17:00","-0.8","","-8.8","","55","","8","","17","","","","99.69","","","","-6","","NA"
"2010-01-21 18:00","2010","01","21","18:00","-2.1","","-9.4","","57","","6","","7","","","","99.72","","","","-5","","NA"
"2010-01-21 19:00","2010","01","21","19:00","-2.8","","-9.6","","59","","6","","11","","","","99.73","","","","-7","","NA"
"2010-01-21 20:00","2010","01","21","20:00","-3.7","","-9.4","","65","","7","","11","","","","99.71","","","","-8","","NA"
"2010-01-21 21:00","2010","01","21","21:00","-4.4","","-9.5","","68","","6","","11","","","","99.71","","","","-9","","NA"
"2010-01-21 22:00","2010","01","21","22:00","-4.0","","-9.5","","66","","6","","15","","","","99.69","","","","-9","","NA"
"2010-01-21 23:00","2010","01","21","23:00","-4.2","","-9.8","","65","","6","","17","","","","99.71","","","","-10","","NA"
"2010-01-22 00:00","2010","01","22","00:00","-4.5","","-9.6","","67","","6","","15","","","","99.69","","","","-10","","NA"
"2010-01-22 01:00","2010","01","22","01:00","-4.7","","-9.5","","69","","6","","17","","","","99.60","","","","-11","","NA"
"2010-01-22 02:00","2010","01","22","02:00","-5.1","","-9.1","","73","","7","","19","","","","99.59","","","","-12","","NA"
"2010-01-22 03:00","2010","01","22","03:00","-5.6","","-9.7","","73","","6","","15","","","","99.55","","","","-11","","NA"
"2010-01-22 04:00","2010","01","22","04:00","-5.1","","-9.2","","73","","6","","17","","","","99.50","","","","-11","","NA"
"2010-01-22 05:00","2010","01","22","05:00","-5.2","","-9.2","","73","","7","","19","","","","99.50","","","","-12","","NA"
"2010-01-22 06:00","2010","01","22","06:00","-5.3","","-9.3","","73","","6","","19","","","","99.54","","","","-12","","NA"
"2010-01-22 07:00","2010","01","22","07:00","-4.8","","-9.1","","72","","7","","19","","","","99.60","","","","-11","","NA"
"2010-01-22 08:00","2010","01","22","08:00","-4.6","","-8.5","","74","","7","","19","","","","99.63","","","","-11","","NA"
"2010-01-22 09:00","2010","01","22","09:00","-3.7","","-8.4","","70","","7","","22","","","","99.66","","","","-10","","NA"
"2010-01-22 10:00","2010","01","22","10:00","-2.6","","-7.9","","67","","8","","26","","","","99.71","","","","-9","","NA"
"2010-01-22 11:00","2010","01","22","11:00","-2.2","","-8.4","","62","","7","","28","","","","99.73","","","","-9","","NA"
"2010-01-22 12:00","2010","01","22","12:00","-1.1","","-9.0","","55","","7","","17","","","","99.67","","","","-6","","NA"
"2010-01-22 13:00","2010","01","22","13:00","-1.0","","-8.8","","55","","7","","20","","","","99.60","","","","-7","","NA"
"2010-01-22 14:00","2010","01","22","14:00","0.1","","-9.3","","49","","8","","15","","","","99.59","","","","","","NA"
"2010-01-22 15:00","2010","01","22","15:00","0.8","","-8.9","","48","","7","","13","","","","99.67","","","","","","NA"
"2010-01-22 16:00","2010","01","22","16:00","0.4","","-7.2","","57","","3","","11","","","","99.75","","","","","","NA"
"2010-01-22 17:00","2010","01","22","17:00","-0.9","","-6.0","","68","","3","","9","","","","99.85","","","","-4","","NA"
"2010-01-22 18:00","2010","01","22","18:00","-2.4","","-6.6","","73","","3","","6","","","","99.86","","","","-5","","NA"
"2010-01-22 19:00","2010","01","22","19:00","-2.9","","-7.0","","73","","7","","15","","","","99.88","","","","-8","","NA"
"2010-01-22 20:00","2010","01","22","20:00","-2.8","","-7.3","","71","","7","","20","","","","99.90","","","","-9","","NA"
"2010-01-22 21:00","2010","01","22","21:00","-3.3","","-7.6","","72","","6","","19","","","","99.96","","","","-9","","NA"
"2010-01-22 22:00","2010","01","22","22:00","-3.9","","-7.7","","75","","7","","19","","","","99.98","","","","-10","","NA"
"2010-01-22 23:00","2010","01","22","23:00","-4.5","","-7.6","","79","","7","","24","","","","100.03","","","","-12","","NA"
"2010-01-23 00:00","2010","01","23","00:00","-5.5","","-8.1","","82","","7","","22","","","","100.08","","","","-13","","NA"
"2010-01-23 01:00","2010","01","23","01:00","-6.0","","-8.3","","84","","6","","20","","","","100.08","","","","-13","","NA"
"2010-01-23 02:00","2010","01","23","02:00","-6.8","","-8.4","","88","","7","","24","","","","100.05","","","","-14","","NA"
"2010-01-23 03:00","2010","01","23","03:00","-6.7","","-8.2","","89","","7","","22","","","","100.07","","","","-14","","NA"
"2010-01-23 04:00","2010","01","23","04:00","-6.8","","-8.5","","88","","7","","20","","","","100.08","","","","-14","","NA"
"2010-01-23 05:00","2010","01","23","05:00","-6.9","","-8.7","","87","","7","","24","","","","100.04","","","","-15","","NA"
"2010-01-23 06:00","2010","01","23","06:00","-7.5","","-9.4","","86","","6","","17","","","","100.08","","","","-14","","NA"
"2010-01-23 07:00","2010","01","23","07:00","-7.8","","-9.9","","85","","7","","20","","","","100.09","","","","-15","","NA"
"2010-01-23 08:00","2010","01","23","08:00","-7.9","","-9.7","","87","","8","","24","","","","100.11","","","","-16","","NA"
"2010-01-23 09:00","2010","01","23","09:00","-7.6","","-9.4","","87","","8","","24","","","","100.10","","","","-16","","NA"
"2010-01-23 10:00","2010","01","23","10:00","-7.3","","-9.1","","87","","9","","24","","","","100.03","","","","-15","","NA"
"2010-01-23 11:00","2010","01","23","11:00","-6.4","","-8.3","","86","","9","","22","","","","99.99","","","","-14","","NA"
"2010-01-23 12:00","2010","01","23","12:00","-5.2","","-7.2","","86","","9","","28","","","","99.88","","","","-13","","NA"
"2010-01-23 13:00","2010","01","23","13:00","-3.5","","-5.6","","85","","10","","28","","","","99.79","","","","-11","","NA"
"2010-01-23 14:00","2010","01","23","14:00","-2.9","","-6.4","","77","","11","","26","","","","99.68","","","","-10","","NA"
"2010-01-23 15:00","2010","01","23","15:00","-2.6","","-8.0","","66","","12","","22","","","","99.70","","","","-9","","NA"
"2010-01-23 16:00","2010","01","23","16:00","-2.4","","-8.4","","63","","9","","17","","","","99.62","","","","-8","","NA"
"2010-01-23 17:00","2010","01","23","17:00","-1.8","","-7.5","","65","","10","","13","","","","99.57","","","","-6","","NA"
"2010-01-23 18:00","2010","01","23","18:00","-1.2","","-6.6","","67","","10","","20","","","","99.53","","","","-7","","NA"
"2010-01-23 19:00","2010","01","23","19:00","-1.6","","-7.6","","64","","10","","22","","","","99.44","","","","-8","","NA"
"2010-01-23 20:00","2010","01","23","20:00","-1.6","","-8.3","","60","","7","","20","","","","99.35","","","","-7","","NA"
"2010-01-23 21:00","2010","01","23","21:00","-1.4","","-8.2","","60","","8","","17","","","","99.33","","","","-7","","NA"
"2010-01-23 22:00","2010","01","23","22:00","-0.3","","-5.6","","67","","13","","35","","","","99.27","","","","-7","","NA"
"2010-01-23 23:00","2010","01","23","23:00","-0.3","","-4.7","","72","","13","","33","","","","99.21","","","","-7","","NA"
"2010-01-24 00:00","2010","01","24","00:00","-0.2","","-3.9","","76","","13","","28","","","","99.19","","","","-7","","NA"
"2010-01-24 01:00","2010","01","24","01:00","-0.3","","-3.4","","80","","11","","28","","","","99.09","","","","-7","","NA"
"2010-01-24 02:00","2010","01","24","02:00","-0.3","","-3.1","","81","","11","","28","","","","99.07","","","","-7","","NA"
"2010-01-24 03:00","2010","01","24","03:00","-0.6","","-3.7","","80","","10","","32","","","","98.97","","","","-7","","NA"
"2010-01-24 04:00","2010","01","24","04:00","-0.8","","-5.2","","72","","11","","35","","","","98.84","","","","-8","","NA"
"2010-01-24 05:00","2010","01","24","05:00","-1.0","","-5.8","","70","","9","","28","","","","98.68","","","","-8","","NA"
"2010-01-24 06:00","2010","01","24","06:00","-0.6","","-5.0","","72","","10","","26","","","","98.69","","","","-7","","NA"
"2010-01-24 07:00","2010","01","24","07:00","-0.6","","-4.7","","74","","10","","32","","","","98.52","","","","-7","","NA"
"2010-01-24 08:00","2010","01","24","08:00","-0.9","","-5.3","","72","","9","","37","","","","98.35","","","","-8","","NA"
"2010-01-24 09:00","2010","01","24","09:00","-0.4","","-4.5","","74","","12","","33","","","","98.48","","","","-7","","NA"
"2010-01-24 10:00","2010","01","24","10:00","-0.2","","-3.7","","77","","11","","37","","","","98.33","","","","-7","","NA"
"2010-01-24 11:00","2010","01","24","11:00","0.2","","-3.2","","78","","12","","33","","","","98.32","","","","","","NA"
"2010-01-24 12:00","2010","01","24","12:00","0.4","","-2.9","","78","","11","","37","","","","98.10","","","","","","NA"
"2010-01-24 13:00","2010","01","24","13:00","0.9","","-3.2","","74","","11","","35","","","","97.95","","","","","","NA"
"2010-01-24 14:00","2010","01","24","14:00","1.0","","-2.1","","80","","12","","43","","","","97.82","","","","","","NA"
"2010-01-24 15:00","2010","01","24","15:00","0.5","","-1.1","","89","","11","","43","","","","97.56","","","","","","NA"
"2010-01-24 16:00","2010","01","24","16:00","0.9","","-0.4","","91","","12","","44","","","","97.69","","","","","","NA"
"2010-01-24 17:00","2010","01","24","17:00","1.0","","0.2","","94","","12","","48","","","","97.53","","","","","","NA"
"2010-01-24 18:00","2010","01","24","18:00","1.0","","0.3","","95","","13","","46","","","","97.46","","","","","","NA"
"2010-01-24 19:00","2010","01","24","19:00","1.1","","0.5","","96","","13","","48","","","","97.40","","","","","","NA"
"2010-01-24 20:00","2010","01","24","20:00","1.2","","0.7","","96","","13","","48","","","","97.37","","","","","","NA"
"2010-01-24 21:00","2010","01","24","21:00","1.5","","1.1","","97","","14","","41","","","","97.31","","","","","","NA"
"2010-01-24 22:00","2010","01","24","22:00","1.4","","0.9","","96","","13","","39","","","","97.20","","","","","","NA"
"2010-01-24 23:00","2010","01","24","23:00","1.6","","1.2","","97","","14","","39","","","","97.09","","","","","","NA"
"2010-01-25 00:00","2010","01","25","00:00","1.7","","1.3","","97","","14","","39","","","","97.00","","","","","","NA"
"2010-01-25 01:00","2010","01","25","01:00","1.9","","1.5","","97","","14","","32","","","","96.90","","","","","","NA"
"2010-01-25 02:00","2010","01","25","02:00","1.9","","1.5","","97","","13","","19","","","","96.86","","","","","","NA"
"2010-01-25 03:00","2010","01","25","03:00","1.7","","1.4","","98","","6","","7","","","","96.80","","","","","","NA"
"2010-01-25 04:00","2010","01","25","04:00","1.6","","1.3","","98","","10","","17","","","","96.72","","","","","","NA"
"2010-01-25 05:00","2010","01","25","05:00","1.7","","1.4","","98","","6","","9","","","","96.61","","","","","","NA"
"2010-01-25 06:00","2010","01","25","06:00","1.7","","1.4","","98","","7","","11","","","","96.52","","","","","","NA"
"2010-01-25 07:00","2010","01","25","07:00","1.7","","1.4","","98","","7","","9","","","","96.45","","","","","","NA"
"2010-01-25 08:00","2010","01","25","08:00","1.6","","1.3","","98","","7","","11","","","","96.36","","","","","","NA"
"2010-01-25 09:00","2010","01","25","09:00","1.7","","1.4","","98","","6","","6","","","","96.29","","","","","","NA"
"2010-01-25 10:00","2010","01","25","10:00","1.9","","1.6","","98","","2","","4","","","","96.22","","","","","","NA"
"2010-01-25 11:00","2010","01","25","11:00","2.2","","1.8","","97","","28","","4","","","","96.21","","","","","","NA"
"2010-01-25 12:00","2010","01","25","12:00","1.5","","1.2","","98","","28","","22","","","","96.15","","","","","","NA"
"2010-01-25 13:00","2010","01","25","13:00","1.4","","1.1","","98","","28","","26","","","","96.15","","","","","","NA"
"2010-01-25 14:00","2010","01","25","14:00","1.5","","1.2","","98","","28","","24","","","","96.17","","","","","","NA"
"2010-01-25 15:00","2010","01","25","15:00","1.6","","1.3","","98","","28","","28","","","","96.24","","","","","","NA"
"2010-01-25 16:00","2010","01","25","16:00","1.5","","0.8","","95","","28","","26","","","","96.34","","","","","","NA"
"2010-01-25 17:00","2010","01","25","17:00","1.6","","-0.1","","88","","26","","17","","","","96.46","","","","","","NA"
"2010-01-25 18:00","2010","01","25","18:00","1.3","","-0.8","","86","","25","","19","","","","96.55","","","","","","NA"
"2010-01-25 19:00","2010","01","25","19:00","1.1","","-0.7","","88","","26","","17","","","","96.63","","","","","","NA"
"2010-01-25 20:00","2010","01","25","20:00","1.0","","-1.1","","86","","24","","17","","","","96.68","","","","","","NA"
"2010-01-25 21:00","2010","01","25","21:00","1.0","","-1.2","","85","","24","","22","","","","96.73","","","","","","NA"
"2010-01-25 22:00","2010","01","25","22:00","1.1","","-1.7","","82","","24","","22","","","","96.76","","","","","","NA"
"2010-01-25 23:00","2010","01","25","23:00","0.6","","-1.4","","86","","25","","19","","","","96.78","","","","","","NA"
"2010-01-26 00:00","2010","01","26","00:00","0.4","","-1.0","","90","","25","","13","","","","96.79","","","","","","NA"
"2010-01-26 01:00","2010","01","26","01:00","0.6","","-1.5","","86","","26","","15","","","","96.81","","","","","","NA"
"2010-01-26 02:00","2010","01","26","02:00","0.6","","-1.7","","85","","28","","15","","","","96.85","","","","","","NA"
"2010-01-26 03:00","2010","01","26","03:00","0.2","","-1.5","","88","","25","","11","","","","96.87","","","","","","NA"
"2010-01-26 04:00","2010","01","26","04:00","0.4","","-1.5","","87","","25","","11","","","","96.91","","","","","","NA"
"2010-01-26 05:00","2010","01","26","05:00","0.2","","-1.3","","90","","26","","13","","","","96.96","","","","","","NA"
"2010-01-26 06:00","2010","01","26","06:00","0.0","","-0.7","","95","","27","","11","","","","97.00","","","","-4","","NA"
"2010-01-26 07:00","2010","01","26","07:00","0.2","","-0.4","","96","","25","","13","","","","97.07","","","","","","NA"
"2010-01-26 08:00","2010","01","26","08:00","0.2","","-0.5","","95","","26","","13","","","","97.14","","","","","","NA"
"2010-01-26 09:00","2010","01","26","09:00","0.3","","-0.6","","94","","25","","9","","","","97.19","","","","","","NA"
"2010-01-26 10:00","2010","01","26","10:00","0.6","","-0.5","","92","","24","","11","","","","97.26","","","","","","NA"
"2010-01-26 11:00","2010","01","26","11:00","0.8","","-0.3","","92","","25","","11","","","","97.34","","","","","","NA"
"2010-01-26 12:00","2010","01","26","12:00","0.2","","-0.7","","94","","28","","20","","","","97.37","","","","","","NA"
"2010-01-26 13:00","2010","01","26","13:00","0.1","","-0.5","","96","","26","","20","","","","97.38","","","","","","NA"
"2010-01-26 14:00","2010","01","26","14:00","-1.4","","-2.0","","96","","34","","11","","","","97.43","","","","-5","","NA"
"2010-01-26 15:00","2010","01","26","15:00","-2.0","","-2.9","","94","","1","","9","","","","97.57","","","","-5","","NA"
"2010-01-26 16:00","2010","01","26","16:00","-3.5","","-5.0","","89","","33","","13","","","","97.77","","","","-8","","NA"
"2010-01-26 17:00","2010","01","26","17:00","-4.3","","-6.1","","87","","33","","11","","","","97.93","","","","-9","","NA"
"2010-01-26 18:00","2010","01","26","18:00","-5.0","","-7.8","","81","","33","","15","","","","98.06","","","","-11","","NA"
"2010-01-26 19:00","2010","01","26","19:00","-5.9","","-9.6","","75","","33","","15","","","","98.19","","","","-12","","NA"
"2010-01-26 20:00","2010","01","26","20:00","-6.4","","-10.0","","76","","33","","15","","","","98.29","","","","-12","","NA"
"2010-01-26 21:00","2010","01","26","21:00","-6.8","","-11.0","","72","","30","","22","","","","98.38","","","","-14","","NA"
"2010-01-26 22:00","2010","01","26","22:00","-7.7","","-12.0","","71","","30","","19","","","","98.45","","","","-15","","NA"
"2010-01-26 23:00","2010","01","26","23:00","-8.5","","-13.2","","69","","33","","11","","","","98.51","","","","-14","","NA"
"2010-01-27 00:00","2010","01","27","00:00","-8.8","","-12.9","","72","","30","","11","","","","98.58","","","","-14","","NA"
"2010-01-27 01:00","2010","01","27","01:00","-8.8","","-12.6","","74","","33","","2","","","","98.62","","","","-10","","NA"
"2010-01-27 02:00","2010","01","27","02:00","-8.3","","-11.3","","79","","30","","6","","","","98.63","","","","-12","","NA"
"2010-01-27 03:00","2010","01","27","03:00","-9.4","","-11.8","","83","","4","","7","","","","98.61","","","","-13","","NA"
"2010-01-27 04:00","2010","01","27","04:00","-8.5","","-12.0","","76","","1","","4","","","","98.60","","","","-11","","NA"
"2010-01-27 05:00","2010","01","27","05:00","-9.0","","-12.1","","78","","4","","6","","","","98.57","","","","-12","","NA"
"2010-01-27 06:00","2010","01","27","06:00","-7.0","","-11.0","","73","","27","","4","","","","98.59","","","","-9","","NA"
"2010-01-27 07:00","2010","01","27","07:00","-8.1","","-10.0","","86","","33","","6","","","","98.56","","","","-11","","NA"
"2010-01-27 08:00","2010","01","27","08:00","-6.4","","-7.5","","92","","21","","6","","","","98.56","","","","-9","","NA"
"2010-01-27 09:00","2010","01","27","09:00","-5.2","","-7.3","","85","","25","","24","","","","98.54","","","","-12","","NA"
"2010-01-27 10:00","2010","01","27","10:00","-5.0","","-7.5","","83","","24","","26","","","","98.56","","","","-12","","NA"
"2010-01-27 11:00","2010","01","27","11:00","-6.6","","-8.7","","85","","28","","28","","","","98.63","","","","-15","","NA"
"2010-01-27 12:00","2010","01","27","12:00","-6.1","","-8.6","","82","","28","","19","","","","98.64","","","","-13","","NA"
"2010-01-27 13:00","2010","01","27","13:00","-5.1","","-10.0","","68","","25","","26","","","","98.59","","","","-13","","NA"
"2010-01-27 14:00","2010","01","27","14:00","-7.2","","-9.3","","85","","28","","22","","","","98.61","","","","-15","","NA"
"2010-01-27 15:00","2010","01","27","15:00","-7.5","","-9.3","","87","","28","","24","","","","98.66","","","","-15","","NA"
"2010-01-27 16:00","2010","01","27","16:00","-6.6","","-8.1","","89","","26","","22","","","","98.67","","","","-14","","NA"
"2010-01-27 17:00","2010","01","27","17:00","-7.9","","-9.9","","86","","28","","32","","","","98.74","","","","-17","","NA"
"2010-01-27 18:00","2010","01","27","18:00","-8.3","","-11.6","","77","","28","","26","","","","98.81","","","","-17","","NA"
"2010-01-27 19:00","2010","01","27","19:00","-8.6","","-11.9","","77","","27","","28","","","","98.81","","","","-17","","NA"
"2010-01-27 20:00","2010","01","27","20:00","-9.7","","-12.2","","82","","30","","13","","","","98.82","","","","-16","","NA"
"2010-01-27 21:00","2010","01","27","21:00","-9.3","","-11.9","","81","","29","","11","","","","98.79","","","","-15","","NA"
"2010-01-27 22:00","2010","01","27","22:00","-8.9","","-10.9","","85","","27","","13","","","","98.81","","","","-15","","NA"
"2010-01-27 23:00","2010","01","27","23:00","-9.1","","-11.1","","85","","26","","13","","","","98.77","","","","-15","","NA"
"2010-01-28 00:00","2010","01","28","00:00","-9.6","","-11.4","","87","","29","","11","","","","98.74","","","","-15","","NA"
"2010-01-28 01:00","2010","01","28","01:00","-10.3","","-12.3","","85","","30","","9","","","","98.74","","","","-15","","NA"
"2010-01-28 02:00","2010","01","28","02:00","-10.7","","-13.6","","79","","31","","7","","","","98.67","","","","-15","","NA"
"2010-01-28 03:00","2010","01","28","03:00","-10.8","","-13.3","","82","","30","","7","","","","98.63","","","","-15","","NA"
"2010-01-28 04:00","2010","01","28","04:00","-11.2","","-14.1","","79","","31","","15","","","","98.61","","","","-18","","NA"
"2010-01-28 05:00","2010","01","28","05:00","-11.4","","-15.2","","73","","30","","11","","","","98.59","","","","-17","","NA"
"2010-01-28 06:00","2010","01","28","06:00","-11.9","","-14.6","","80","","31","","6","","","","98.56","","","","-16","","NA"
"2010-01-28 07:00","2010","01","28","07:00","-12.1","","-14.6","","82","","30","","20","","","","98.62","","","","-21","","NA"
"2010-01-28 08:00","2010","01","28","08:00","-12.9","","-16.5","","74","","33","","19","","","","98.77","","","","-21","","NA"
"2010-01-28 09:00","2010","01","28","09:00","-12.7","","-18.6","","61","","31","","22","","","","98.94","","","","-22","","NA"
"2010-01-28 10:00","2010","01","28","10:00","-12.8","","-22.8","","43","","32","","20","","","","99.10","","","","-21","","NA"
"2010-01-28 11:00","2010","01","28","11:00","-13.3","","-25.4","","35","","32","","28","","","","99.25","","","","-24","","NA"
"2010-01-28 12:00","2010","01","28","12:00","-13.8","","-25.6","","36","","30","","30","","","","99.31","","","","-24","","NA"
"2010-01-28 13:00","2010","01","28","13:00","-14.7","","-24.3","","44","","30","","28","","","","99.43","","","","-25","","NA"
"2010-01-28 14:00","2010","01","28","14:00","-15.3","","-25.8","","40","","32","","22","","","","99.53","","","","-25","","NA"
"2010-01-28 15:00","2010","01","28","15:00","-15.3","","-26.5","","38","","30","","28","","","","99.66","","","","-26","","NA"
"2010-01-28 16:00","2010","01","28","16:00","-15.6","","-26.9","","37","","32","","20","","","","99.81","","","","-25","","NA"
"2010-01-28 17:00","2010","01","28","17:00","-15.5","","-25.4","","42","","32","","17","","","","99.96","","","","-24","","NA"
"2010-01-28 18:00","2010","01","28","18:00","-16.3","","-26.4","","41","","32","","15","","","","100.06","","","","-25","","NA"
"2010-01-28 19:00","2010","01","28","19:00","-16.8","","-25.6","","46","","33","","9","","","","100.16","","","","-23","","NA"
"2010-01-28 20:00","2010","01","28","20:00","-17.5","","-25.7","","49","","35","","7","","","","100.21","","","","-23","","NA"
"2010-01-28 21:00","2010","01","28","21:00","-17.7","","-24.2","","57","","30","","4","","","","100.25","","","","-21","","NA"
"2010-01-28 22:00","2010","01","28","22:00","-17.6","","-25.5","","50","","32","","4","","","","100.31","","","","-21","","NA"
"2010-01-28 23:00","2010","01","28","23:00","-18.8","","-25.1","","58","","34","","6","","","","100.36","","","","-24","","NA"
"2010-01-29 00:00","2010","01","29","00:00","-18.9","","-25.4","","56","","35","","7","","","","100.39","","","","-24","","NA"
"2010-01-29 01:00","2010","01","29","01:00","-19.6","","-25.8","","58","","1","","7","","","","100.40","","","","-25","","NA"
"2010-01-29 02:00","2010","01","29","02:00","-20.1","","-25.5","","62","","36","","9","","","","100.42","","","","-27","","NA"
"2010-01-29 03:00","2010","01","29","03:00","-21.1","","-26.1","","64","","36","","13","","","","100.46","","","","-30","","NA"
"2010-01-29 04:00","2010","01","29","04:00","-22.1","","-26.9","","65","","2","","13","","","","100.51","","","","-31","","NA"
"2010-01-29 05:00","2010","01","29","05:00","-22.7","","-27.5","","65","","1","","4","","","","100.53","","","","-26","","NA"
"2010-01-29 06:00","2010","01","29","06:00","-23.2","","-28.5","","62","","1","","11","","","","100.55","","","","-31","","NA"
"2010-01-29 07:00","2010","01","29","07:00","-23.5","","-28.4","","64","","34","","9","","","","100.63","","","","-31","","NA"
"2010-01-29 08:00","2010","01","29","08:00","-23.6","","-28.2","","66","","33","","7","","","","100.75","","","","-30","","NA"
"2010-01-29 09:00","2010","01","29","09:00","-22.5","","-27.7","","63","","33","","7","","","","100.81","","","","-29","","NA"
"2010-01-29 10:00","2010","01","29","10:00","-21.9","","-28.0","","58","","33","","13","","","","100.80","","","","-31","","NA"
"2010-01-29 11:00","2010","01","29","11:00","-21.1","","-28.4","","52","","32","","11","","","","100.79","","","","-29","","NA"
"2010-01-29 12:00","2010","01","29","12:00","-20.1","","-27.9","","50","","32","","13","","","","100.72","","","","-29","","NA"
"2010-01-29 13:00","2010","01","29","13:00","-18.9","","-27.8","","45","","34","","9","","","","100.67","","","","-25","","NA"
"2010-01-29 14:00","2010","01","29","14:00","-18.3","","-27.1","","46","","29","","9","","","","100.63","","","","-25","","NA"
"2010-01-29 15:00","2010","01","29","15:00","-17.7","","-25.2","","52","","27","","15","","","","100.66","","","","-26","","NA"
"2010-01-29 16:00","2010","01","29","16:00","-17.4","","-25.9","","48","","29","","11","","","","100.69","","","","-25","","NA"
"2010-01-29 17:00","2010","01","29","17:00","-17.3","","-23.9","","56","","26","","13","","","","100.70","","","","-25","","NA"
"2010-01-29 18:00","2010","01","29","18:00","-17.8","","-23.7","","60","","28","","9","","","","100.74","","","","-24","","NA"
"2010-01-29 19:00","2010","01","29","19:00","-18.1","","-24.5","","57","","32","","7","","","","100.72","","","","-23","","NA"
"2010-01-29 20:00","2010","01","29","20:00","-18.7","","-24.2","","62","","32","","4","","","","100.71","","","","-22","","NA"
"2010-01-29 21:00","2010","01","29","21:00","-18.4","","-23.7","","63","","33","","6","","","","100.68","","","","-23","","NA"
"2010-01-29 22:00","2010","01","29","22:00","-17.7","","-23.8","","59","","3","","7","","","","100.68","","","","-23","","NA"
"2010-01-29 23:00","2010","01","29","23:00","-18.6","","-24.2","","61","","5","","11","","","","100.56","","","","-26","","NA"
"2010-01-30 00:00","2010","01","30","00:00","-17.5","","-21.7","","70","","6","","9","","","","100.54","","","","-24","","NA"
"2010-01-30 01:00","2010","01","30","01:00","-18.7","","-24.7","","59","","5","","11","","","","100.52","","","","-26","","NA"
"2010-01-30 02:00","2010","01","30","02:00","-18.7","","-23.9","","64","","5","","9","","","","100.53","","","","-25","","NA"
"2010-01-30 03:00","2010","01","30","03:00","-18.3","","-24.6","","58","","4","","11","","","","100.50","","","","-26","","NA"
"2010-01-30 04:00","2010","01","30","04:00","-17.0","","-21.7","","67","","6","","9","","","","100.42","","","","-23","","NA"
"2010-01-30 05:00","2010","01","30","05:00","-16.8","","-20.8","","71","","6","","11","","","","100.34","","","","-24","","NA"
"2010-01-30 06:00","2010","01","30","06:00","-16.7","","-19.8","","77","","4","","9","","","","100.29","","","","-23","","NA"
"2010-01-30 07:00","2010","01","30","07:00","-13.3","","-15.2","","86","","10","","11","","","","100.21","","","","-20","","NA"
"2010-01-30 08:00","2010","01","30","08:00","-10.1","","-13.4","","77","","18","","26","","","","100.17","","","","-19","","NA"
"2010-01-30 09:00","2010","01","30","09:00","-9.3","","-14.3","","67","","22","","20","","","","100.11","","","","-17","","NA"
"2010-01-30 10:00","2010","01","30","10:00","-8.9","","-14.2","","65","","23","","15","","","","100.09","","","","-15","","NA"
"2010-01-30 11:00","2010","01","30","11:00","-8.7","","-14.9","","61","","28","","9","","","","100.04","","","","-13","","NA"
"2010-01-30 12:00","2010","01","30","12:00","-8.1","","-12.4","","71","","21","","17","","","","99.94","","","","-15","","NA"
"2010-01-30 13:00","2010","01","30","13:00","-7.0","","-11.1","","73","","23","","20","","","","99.81","","","","-14","","NA"
"2010-01-30 14:00","2010","01","30","14:00","-6.7","","-11.0","","71","","26","","19","","","","99.70","","","","-14","","NA"
"2010-01-30 15:00","2010","01","30","15:00","-6.8","","-11.3","","70","","28","","13","","","","99.66","","","","-12","","NA"
"2010-01-30 16:00","2010","01","30","16:00","-6.8","","-11.0","","72","","26","","22","","","","99.62","","","","-14","","NA"
"2010-01-30 17:00","2010","01","30","17:00","-6.9","","-10.6","","75","","25","","19","","","","99.60","","","","-14","","NA"
"2010-01-30 18:00","2010","01","30","18:00","-6.9","","-9.9","","79","","26","","19","","","","99.58","","","","-14","","NA"
"2010-01-30 19:00","2010","01","30","19:00","-7.0","","-9.3","","84","","27","","15","","","","99.54","","","","-13","","NA"
"2010-01-30 20:00","2010","01","30","20:00","-7.0","","-9.4","","83","","27","","17","","","","99.50","","","","-13","","NA"
"2010-01-30 21:00","2010","01","30","21:00","-7.8","","-10.3","","82","","29","","9","","","","99.44","","","","-12","","NA"
"2010-01-30 22:00","2010","01","30","22:00","-8.4","","-10.7","","83","","29","","9","","","","99.40","","","","-13","","NA"
"2010-01-30 23:00","2010","01","30","23:00","-8.4","","-11.1","","81","","30","","11","","","","99.36","","","","-14","","NA"
"2010-01-31 00:00","2010","01","31","00:00","-8.2","","-11.1","","80","","29","","11","","","","99.30","","","","-13","","NA"
"2010-01-31 01:00","2010","01","31","01:00","-8.3","","-11.2","","80","","30","","13","","","","99.26","","","","-14","","NA"
"2010-01-31 02:00","2010","01","31","02:00","-7.8","","-11.2","","77","","29","","13","","","","99.21","","","","-14","","NA"
"2010-01-31 03:00","2010","01","31","03:00","-7.8","","-10.9","","78","","31","","17","","","","99.16","","","","-14","","NA"
"2010-01-31 04:00","2010","01","31","04:00","-7.7","","-11.2","","76","","30","","19","","","","99.13","","","","-15","","NA"
"2010-01-31 05:00","2010","01","31","05:00","-7.8","","-11.5","","75","","30","","13","","","","99.14","","","","-14","","NA"
"2010-01-31 06:00","2010","01","31","06:00","-7.9","","-11.5","","75","","30","","9","","","","99.14","","","","-12","","NA"
"2010-01-31 07:00","2010","01","31","07:00","-8.4","","-11.7","","77","","29","","7","","","","99.14","","","","-12","","NA"
"2010-01-31 08:00","2010","01","31","08:00","-8.5","","-11.4","","80","","27","","7","","","","99.13","","","","-12","","NA"
"2010-01-31 09:00","2010","01","31","09:00","-8.2","","-11.4","","78","","30","","7","","","","99.09","","","","-12","","NA"
"2010-01-31 10:00","2010","01","31","10:00","-7.0","","-11.4","","71","","29","","9","","","","99.07","","","","-11","","NA"
"2010-01-31 11:00","2010","01","31","11:00","-6.1","","-12.6","","60","","28","","19","","","","99.02","","","","-13","","NA"
"2010-01-31 12:00","2010","01","31","12:00","-5.8","","-12.6","","59","","28","","30","","","","98.96","","","","-14","","NA"
"2010-01-31 13:00","2010","01","31","13:00","-5.9","","-10.5","","70","","27","","30","","","","98.90","","","","-14","","NA"
"2010-01-31 14:00","2010","01","31","14:00","-5.7","","-8.5","","81","","28","","24","","","","98.85","","","","-13","","NA"
"2010-01-31 15:00","2010","01","31","15:00","-5.2","","-9.4","","72","","28","","19","","","","98.85","","","","-12","","NA"
"2010-01-31 16:00","2010","01","31","16:00","-5.4","","-9.9","","71","","29","","22","","","","98.88","","","","-12","","NA"
"2010-01-31 17:00","2010","01","31","17:00","-5.6","","-11.5","","63","","29","","19","","","","98.91","","","","-12","","NA"
"2010-01-31 18:00","2010","01","31","18:00","-6.1","","-13.8","","54","","29","","24","","","","99.01","","","","-14","","NA"
"2010-01-31 19:00","2010","01","31","19:00","-7.8","","-12.4","","69","","34","","15","","","","99.17","","","","-14","","NA"
"2010-01-31 20:00","2010","01","31","20:00","-9.7","","-15.7","","62","","34","","15","","","","99.30","","","","-16","","NA"
"2010-01-31 21:00","2010","01","31","21:00","-11.3","","-17.8","","59","","32","","22","","","","99.43","","","","-20","","NA"
"2010-01-31 22:00","2010","01","31","22:00","-12.6","","-19.0","","59","","32","","20","","","","99.55","","","","-21","","NA"
"2010-01-31 23:00","2010","01","31","23:00","-13.6","","-19.4","","62","","33","","15","","","","99.67","","","","-21","","NA"
