"Station Name","KILLARNEY (AUT)"
"Province","ONTARIO"
"Latitude","45.97"
"Longitude","-81.48"
"Elevation","196.30"
"Climate Identifier","605DJ25"
"WMO Identifier","71460"
"TC Identifier","WBE"
"All times are specified in Local Standard Time (LST). Add 1 hour to adjust for Daylight Saving Time where and when it is observed."

"Legend"
"E","Estimated"
"M","Missing"
"NA","Not Available"

"Date/Time","Year","Month","Day","Time","Temp (°C)","Temp Flag","Dew Point Temp (°C)","Dew Point Temp Flag","Rel Hum (%)","Rel Hum Flag","Wind Dir (10s deg)","Wind Dir Flag","Wind Spd (km/h)","Wind Spd Flag","Visibility (km)","Visibility Flag","Stn Press (kPa)","Stn Press Flag","Hmdx","Hmdx Flag","Wind Chill","Wind Chill Flag","Weather"
"2015-09-01 00:00","2015","09","01","00:00","17.8","","16.8","","94","","29","","7","","","","99.38","","","","","","NA"
"2015-09-01 01:00","2015","09","01","01:00","17.8","","16.8","","94","","27","","7","","","","99.40","","","","","","NA"
"2015-09-01 02:00","2015","09","01","02:00","17.7","","16.8","","94","","24","","6","","","","99.36","","","","","","NA"
"2015-09-01 03:00","2015","09","01","03:00","17.9","","16.9","","94","","22","","9","","","","99.36","","","","","","NA"
"2015-09-01 04:00","2015","09","01","04:00","17.9","","17.0","","94","","24","","6","","","","99.36","","","","","","NA"
"2015-09-01 05:00","2015","09","01","05:00","17.8","","16.9","","94","","19","","10","","","","99.38","","","","","","NA"
"2015-09-01 06:00","2015","09","01","06:00","18.0","","17.1","","95","","19","","5","","","","99.42","","","","","","NA"
"2015-09-01 07:00","2015","09","01","07:00","18.1","","17.2","","95","","15","","3","","","","99.41","","","","","","NA"
"2015-09-01 08:00","2015","09","01","08:00","18.1","","17.2","","95","","25","","6","","","","99.43","","","","","","NA"
"2015-09-01 09:00","2015","09","01","09:00","18.2","","17.3","","95","","22","","9","","","","99.41","","","","","","NA"
"2015-09-01 10:00","2015","09","01","10:00","18.3","","17.4","","94","","22","","9","","","","99.43","","","","","","NA"
"2015-09-01 11:00","2015","09","01","11:00","19.4","","18.5","","94","","24","","7","","","","99.42","","","","","","NA"
"2015-09-01 12:00","2015","09","01","12:00","20.3","","17.9","","86","","28","","8","","","","99.40","","26","","","","NA"
"2015-09-01 13:00","2015","09","01","13:00","20.3","","18.2","","88","","19","","6","","","","99.40","","26","","","","NA"
"2015-09-01 14:00","2015","09","01","14:00","19.8","","18.1","","90","","16","","10","","","","99.39","","","","","","NA"
"2015-09-01 15:00","2015","09","01","15:00","19.9","","18.3","","91","","13","","7","","","","99.38","","","","","","NA"
"2015-09-01 16:00","2015","09","01","16:00","20.2","","18.6","","91","","12","","6","","","","99.34","","27","","","","NA"
"2015-09-01 17:00","2015","09","01","17:00","20.2","","18.3","","89","","18","","8","","","","99.33","","26","","","","NA"
"2015-09-01 18:00","2015","09","01","18:00","20.5","","18.5","","88","","19","","10","","","","99.33","","27","","","","NA"
"2015-09-01 19:00","2015","09","01","19:00","20.0","","18.4","","91","","22","","9","","","","99.32","","26","","","","NA"
"2015-09-01 20:00","2015","09","01","20:00","20.1","","18.5","","91","","21","","4","","","","99.36","","26","","","","NA"
"2015-09-01 21:00","2015","09","01","21:00","19.6","","18.3","","92","","14","","3","","","","99.36","","","","","","NA"
"2015-09-01 22:00","2015","09","01","22:00","19.5","","18.3","","93","","17","","2","","","","99.37","","","","","","NA"
"2015-09-01 23:00","2015","09","01","23:00","19.4","","18.3","","93","","11","","4","","","","99.38","","","","","","NA"
"2015-09-02 00:00","2015","09","02","00:00","19.3","","18.2","","94","","9","","7","","","","99.36","","","","","","NA"
"2015-09-02 01:00","2015","09","02","01:00","18.9","","17.9","","94","","8","","7","","","","99.30","","","","","","NA"
"2015-09-02 02:00","2015","09","02","02:00","19.0","","18.0","","94","","9","","8","","","","99.26","","","","","","NA"
"2015-09-02 03:00","2015","09","02","03:00","18.7","","17.7","","94","","4","","7","","","","99.25","","","","","","NA"
"2015-09-02 04:00","2015","09","02","04:00","18.8","","17.9","","94","","6","","7","","","","99.21","","","","","","NA"
"2015-09-02 05:00","2015","09","02","05:00","18.6","","17.7","","95","","2","","5","","","","99.20","","","","","","NA"
"2015-09-02 06:00","2015","09","02","06:00","18.5","","17.6","","95","","5","","3","","","","99.21","","","","","","NA"
"2015-09-02 07:00","2015","09","02","07:00","18.5","","17.6","","95","","35","","2","","","","99.25","","","","","","NA"
"2015-09-02 08:00","2015","09","02","08:00","19.3","","18.4","","95","","8","","3","","","","99.25","","","","","","NA"
"2015-09-02 09:00","2015","09","02","09:00","19.4","","18.5","","94","","10","","3","","","","99.26","","","","","","NA"
"2015-09-02 10:00","2015","09","02","10:00","20.2","","18.5","","90","","14","","5","","","","99.26","","27","","","","NA"
"2015-09-02 11:00","2015","09","02","11:00","20.4","","18.6","","89","","15","","7","","","","99.21","","27","","","","NA"
"2015-09-02 12:00","2015","09","02","12:00","20.7","","18.9","","89","","15","","5","","","","99.19","","27","","","","NA"
"2015-09-02 13:00","2015","09","02","13:00","21.4","","18.8","","85","","16","","6","","","","99.16","","28","","","","NA"
"2015-09-02 14:00","2015","09","02","14:00","22.1","","19.5","","85","","17","","5","","","","99.17","","29","","","","NA"
"2015-09-02 15:00","2015","09","02","15:00","22.6","","20.3","","87","","19","","5","","","","99.11","","30","","","","NA"
"2015-09-02 16:00","2015","09","02","16:00","22.5","","19.6","","84","","22","","4","","","","99.05","","30","","","","NA"
"2015-09-02 17:00","2015","09","02","17:00","21.9","","19.4","","86","","17","","7","","","","99.01","","29","","","","NA"
"2015-09-02 18:00","2015","09","02","18:00","23.7","","20.5","","82","","27","","5","","","","99.03","","32","","","","NA"
"2015-09-02 19:00","2015","09","02","19:00","24.2","","20.5","","80","","31","","10","","","","99.05","","32","","","","NA"
"2015-09-02 20:00","2015","09","02","20:00","23.5","","20.2","","82","","33","","10","","","","99.09","","31","","","","NA"
"2015-09-02 21:00","2015","09","02","21:00","22.5","","19.9","","85","","30","","12","","","","99.12","","30","","","","NA"
"2015-09-02 22:00","2015","09","02","22:00","22.0","","19.9","","88","","31","","12","","","","99.15","","29","","","","NA"
"2015-09-02 23:00","2015","09","02","23:00","21.6","","19.7","","89","","32","","9","","","","99.14","","29","","","","NA"
"2015-09-03 00:00","2015","09","03","00:00","22.1","","18.3","","79","","36","","7","","","","99.12","","28","","","","NA"
"2015-09-03 01:00","2015","09","03","01:00","22.8","","15.6","","64","","2","","6","","","","99.12","","27","","","","NA"
"2015-09-03 02:00","2015","09","03","02:00","22.8","","15.5","","63","","2","","8","","","","99.11","","27","","","","NA"
"2015-09-03 03:00","2015","09","03","03:00","21.2","","16.6","","75","","8","","2","","","","99.15","","26","","","","NA"
"2015-09-03 04:00","2015","09","03","04:00","21.6","","15.0","","66","","4","","5","","","","99.16","","26","","","","NA"
"2015-09-03 05:00","2015","09","03","05:00","20.9","","16.0","","74","","1","","2","","","","99.18","","26","","","","NA"
"2015-09-03 06:00","2015","09","03","06:00","21.5","","14.3","","64","","6","","9","","","","99.19","","25","","","","NA"
"2015-09-03 07:00","2015","09","03","07:00","21.3","","15.2","","68","","6","","13","","","","99.25","","25","","","","NA"
"2015-09-03 08:00","2015","09","03","08:00","20.9","","15.7","","72","","6","","14","","","","99.23","","25","","","","NA"
"2015-09-03 09:00","2015","09","03","09:00","21.1","","15.9","","72","","7","","9","","","","99.28","","26","","","","NA"
"2015-09-03 10:00","2015","09","03","10:00","22.0","","16.2","","70","","7","","14","","","","99.25","","27","","","","NA"
"2015-09-03 11:00","2015","09","03","11:00","23.1","","17.9","","73","","8","","8","","","","99.27","","29","","","","NA"
"2015-09-03 12:00","2015","09","03","12:00","24.7","","17.0","","62","","8","","18","","","","99.24","","30","","","","NA"
"2015-09-03 13:00","2015","09","03","13:00","25.2","","17.0","","61","","8","","16","","","","99.24","","30","","","","NA"
"2015-09-03 14:00","2015","09","03","14:00","24.8","","17.3","","63","","9","","17","","","","99.21","","30","","","","NA"
"2015-09-03 15:00","2015","09","03","15:00","23.9","","17.7","","68","","20","","6","","","","99.21","","30","","","","NA"
"2015-09-03 16:00","2015","09","03","16:00","26.8","","14.9","","48","","5","","7","","","","99.19","","31","","","","NA"
"2015-09-03 17:00","2015","09","03","17:00","24.4","","16.7","","62","","11","","4","","","","99.16","","29","","","","NA"
"2015-09-03 18:00","2015","09","03","18:00","24.8","","17.3","","63","","4","","5","","","","99.16","","30","","","","NA"
"2015-09-03 19:00","2015","09","03","19:00","24.2","","15.4","","58","","4","","10","","","","99.23","","28","","","","NA"
"2015-09-03 20:00","2015","09","03","20:00","23.5","","13.5","","53","","5","","11","","","","99.25","","27","","","","NA"
"2015-09-03 21:00","2015","09","03","21:00","23.4","","12.3","","50","","5","","14","","","","99.29","","26","","","","NA"
"2015-09-03 22:00","2015","09","03","22:00","23.1","","11.1","","47","","6","","15","","","","99.29","","25","","","","NA"
"2015-09-03 23:00","2015","09","03","23:00","22.4","","10.7","","47","","6","","19","","","","99.32","","","","","","NA"
"2015-09-04 00:00","2015","09","04","00:00","21.9","","11.0","","50","","7","","23","","","","99.34","","","","","","NA"
"2015-09-04 01:00","2015","09","04","01:00","21.1","","12.1","","57","","7","","21","","","","99.40","","","","","","NA"
"2015-09-04 02:00","2015","09","04","02:00","21.0","","12.4","","58","","7","","24","","","","99.43","","","","","","NA"
"2015-09-04 03:00","2015","09","04","03:00","20.6","","12.4","","59","","7","","23","","","","99.46","","","","","","NA"
"2015-09-04 04:00","2015","09","04","04:00","19.7","","12.6","","63","","7","","19","","","","99.46","","","","","","NA"
"2015-09-04 05:00","2015","09","04","05:00","19.6","","13.2","","66","","7","","21","","","","99.49","","","","","","NA"
"2015-09-04 06:00","2015","09","04","06:00","19.1","","13.3","","69","","7","","16","","","","99.57","","","","","","NA"
"2015-09-04 07:00","2015","09","04","07:00","19.3","","13.7","","70","","7","","18","","","","99.64","","","","","","NA"
"2015-09-04 08:00","2015","09","04","08:00","19.8","","14.2","","71","","7","","18","","","","99.69","","","","","","NA"
"2015-09-04 09:00","2015","09","04","09:00","21.0","","15.4","","71","","8","","19","","","","99.74","","25","","","","NA"
"2015-09-04 10:00","2015","09","04","10:00","21.3","","15.4","","69","","9","","20","","","","99.76","","26","","","","NA"
"2015-09-04 11:00","2015","09","04","11:00","22.2","","16.0","","68","","9","","15","","","","99.78","","27","","","","NA"
"2015-09-04 12:00","2015","09","04","12:00","21.7","","15.8","","69","","10","","15","","","","99.76","","26","","","","NA"
"2015-09-04 13:00","2015","09","04","13:00","22.6","","16.1","","67","","9","","16","","","","99.76","","27","","","","NA"
"2015-09-04 14:00","2015","09","04","14:00","22.5","","16.3","","68","","9","","14","","","","99.76","","27","","","","NA"
"2015-09-04 15:00","2015","09","04","15:00","24.7","","14.1","","52","","8","","5","","","","99.75","","28","","","","NA"
"2015-09-04 16:00","2015","09","04","16:00","24.9","","13.6","","50","","9","","5","","","","99.73","","28","","","","NA"
"2015-09-04 17:00","2015","09","04","17:00","24.8","","13.7","","50","","10","","3","","","","99.71","","28","","","","NA"
"2015-09-04 18:00","2015","09","04","18:00","24.3","","14.8","","56","","9","","4","","","","99.69","","28","","","","NA"
"2015-09-04 19:00","2015","09","04","19:00","23.7","","15.5","","60","","8","","7","","","","99.71","","28","","","","NA"
"2015-09-04 20:00","2015","09","04","20:00","23.0","","15.9","","64","","6","","6","","","","99.78","","28","","","","NA"
"2015-09-04 21:00","2015","09","04","21:00","22.9","","10.1","","44","","7","","10","","","","99.78","","","","","","NA"
"2015-09-04 22:00","2015","09","04","22:00","21.6","","11.4","","52","","6","","11","","","","99.76","","","","","","NA"
"2015-09-04 23:00","2015","09","04","23:00","20.9","","14.9","","68","","7","","16","","","","99.78","","25","","","","NA"
"2015-09-05 00:00","2015","09","05","00:00","21.4","","14.6","","65","","7","","18","","","","99.80","","25","","","","NA"
"2015-09-05 01:00","2015","09","05","01:00","20.6","","15.2","","71","","8","","17","","","","99.79","","25","","","","NA"
"2015-09-05 02:00","2015","09","05","02:00","20.2","","14.7","","71","","9","","15","","","","99.79","","","","","","NA"
"2015-09-05 03:00","2015","09","05","03:00","19.4","","12.3","","64","","6","","14","","","","99.80","","","","","","NA"
"2015-09-05 04:00","2015","09","05","04:00","18.7","","11.7","","63","","6","","14","","","","99.82","","","","","","NA"
"2015-09-05 05:00","2015","09","05","05:00","18.4","","11.5","","64","","7","","15","","","","99.84","","","","","","NA"
"2015-09-05 06:00","2015","09","05","06:00","18.1","","11.9","","67","","7","","16","","","","99.84","","","","","","NA"
"2015-09-05 07:00","2015","09","05","07:00","17.7","","11.7","","68","","6","","14","","","","99.83","","","","","","NA"
"2015-09-05 08:00","2015","09","05","08:00","18.5","","12.7","","69","","7","","16","","","","99.82","","","","","","NA"
"2015-09-05 09:00","2015","09","05","09:00","19.0","","13.6","","71","","9","","16","","","","99.84","","","","","","NA"
"2015-09-05 10:00","2015","09","05","10:00","19.3","","14.5","","74","","10","","19","","","","99.81","","","","","","NA"
"2015-09-05 11:00","2015","09","05","11:00","19.6","","15.2","","76","","10","","14","","","","99.83","","","","","","NA"
"2015-09-05 12:00","2015","09","05","12:00","20.2","","16.3","","78","","9","","13","","","","99.76","","25","","","","NA"
"2015-09-05 13:00","2015","09","05","13:00","20.1","","16.4","","79","","10","","16","","","","99.73","","25","","","","NA"
"2015-09-05 14:00","2015","09","05","14:00","20.2","","16.9","","81","","12","","15","","","","99.72","","25","","","","NA"
"2015-09-05 15:00","2015","09","05","15:00","20.5","","17.3","","82","","8","","10","","","","99.69","","26","","","","NA"
"2015-09-05 16:00","2015","09","05","16:00","20.3","","17.9","","86","","13","","8","","","","99.65","","26","","","","NA"
"2015-09-05 17:00","2015","09","05","17:00","20.7","","18.4","","87","","19","","2","","","","99.63","","27","","","","NA"
"2015-09-05 18:00","2015","09","05","18:00","20.7","","17.9","","84","","17","","4","","","","99.63","","27","","","","NA"
"2015-09-05 19:00","2015","09","05","19:00","20.4","","18.4","","89","","21","","5","","","","99.59","","27","","","","NA"
"2015-09-05 20:00","2015","09","05","20:00","20.4","","18.5","","89","","16","","6","","","","99.62","","27","","","","NA"
"2015-09-05 21:00","2015","09","05","21:00","20.5","","18.7","","90","","19","","5","","","","99.64","","27","","","","NA"
"2015-09-05 22:00","2015","09","05","22:00","20.3","","18.6","","90","","26","","11","","","","99.61","","27","","","","NA"
"2015-09-05 23:00","2015","09","05","23:00","20.3","","18.4","","89","","30","","5","","","","99.57","","27","","","","NA"
"2015-09-06 00:00","2015","09","06","00:00","19.8","","18.4","","91","","30","","2","","","","99.56","","","","","","NA"
"2015-09-06 01:00","2015","09","06","01:00","19.7","","18.4","","93","","29","","1","","","","99.55","","","","","","NA"
"2015-09-06 02:00","2015","09","06","02:00","19.9","","18.6","","92","","27","","2","","","","99.54","","","","","","NA"
"2015-09-06 03:00","2015","09","06","03:00","19.9","","18.7","","93","","19","","7","","","","99.53","","","","","","NA"
"2015-09-06 04:00","2015","09","06","04:00","19.6","","18.6","","94","","17","","12","","","","99.49","","","","","","NA"
"2015-09-06 05:00","2015","09","06","05:00","19.7","","18.7","","94","","20","","8","","","","99.49","","","","","","NA"
"2015-09-06 06:00","2015","09","06","06:00","19.5","","18.6","","94","","19","","9","","","","99.51","","","","","","NA"
"2015-09-06 07:00","2015","09","06","07:00","19.5","","18.6","","94","","20","","7","","","","99.55","","","","","","NA"
"2015-09-06 08:00","2015","09","06","08:00","19.6","","18.7","","94","","19","","3","","","","99.55","","","","","","NA"
"2015-09-06 09:00","2015","09","06","09:00","19.6","","18.6","","94","","18","","6","","","","99.57","","","","","","NA"
"2015-09-06 10:00","2015","09","06","10:00","19.6","","18.7","","94","","13","","5","","","","99.56","","","","","","NA"
"2015-09-06 11:00","2015","09","06","11:00","19.7","","18.8","","94","","12","","9","","","","99.51","","","","","","NA"
"2015-09-06 12:00","2015","09","06","12:00","19.9","","18.9","","94","","12","","10","","","","99.50","","","","","","NA"
"2015-09-06 13:00","2015","09","06","13:00","21.0","","19.9","","94","","8","","12","","","","99.48","","28","","","","NA"
"2015-09-06 14:00","2015","09","06","14:00","21.9","","19.9","","89","","9","","11","","","","99.42","","29","","","","NA"
"2015-09-06 15:00","2015","09","06","15:00","21.6","","19.1","","86","","19","","21","","","","99.35","","28","","","","NA"
"2015-09-06 16:00","2015","09","06","16:00","21.7","","19.3","","87","","18","","24","","","","99.30","","29","","","","NA"
"2015-09-06 17:00","2015","09","06","17:00","21.7","","19.2","","86","","19","","23","","","","99.25","","29","","","","NA"
"2015-09-06 18:00","2015","09","06","18:00","21.6","","19.4","","87","","22","","9","","","","99.26","","29","","","","NA"
"2015-09-06 19:00","2015","09","06","19:00","21.3","","19.2","","88","","23","","7","","","","99.19","","28","","","","NA"
"2015-09-06 20:00","2015","09","06","20:00","21.6","","19.0","","85","","18","","4","","","","99.19","","28","","","","NA"
"2015-09-06 21:00","2015","09","06","21:00","22.6","","18.9","","80","","25","","11","","","","99.17","","29","","","","NA"
"2015-09-06 22:00","2015","09","06","22:00","22.7","","19.1","","80","","24","","11","","","","99.14","","30","","","","NA"
"2015-09-06 23:00","2015","09","06","23:00","22.7","","19.2","","81","","25","","5","","","","99.09","","30","","","","NA"
"2015-09-07 00:00","2015","09","07","00:00","23.4","","19.5","","79","","23","","10","","","","99.01","","31","","","","NA"
"2015-09-07 01:00","2015","09","07","01:00","23.2","","19.6","","80","","24","","16","","","","99.03","","30","","","","NA"
"2015-09-07 02:00","2015","09","07","02:00","23.0","","19.6","","82","","24","","12","","","","98.96","","30","","","","NA"
"2015-09-07 03:00","2015","09","07","03:00","23.7","","19.5","","77","","24","","5","","","","98.95","","31","","","","NA"
"2015-09-07 04:00","2015","09","07","04:00","23.9","","19.4","","76","","25","","17","","","","98.96","","31","","","","NA"
"2015-09-07 05:00","2015","09","07","05:00","23.3","","19.6","","80","","27","","14","","","","98.93","","31","","","","NA"
"2015-09-07 06:00","2015","09","07","06:00","22.9","","19.6","","82","","27","","16","","","","98.98","","30","","","","NA"
"2015-09-07 07:00","2015","09","07","07:00","23.0","","19.6","","81","","28","","15","","","","98.96","","30","","","","NA"
"2015-09-07 08:00","2015","09","07","08:00","22.9","","19.5","","81","","24","","13","","","","98.99","","30","","","","NA"
"2015-09-07 09:00","2015","09","07","09:00","22.3","","19.3","","83","","22","","10","","","","98.98","","29","","","","NA"
"2015-09-07 10:00","2015","09","07","10:00","21.4","","19.5","","89","","21","","8","","","","98.99","","29","","","","NA"
"2015-09-07 11:00","2015","09","07","11:00","22.8","","19.8","","83","","23","","18","","","","98.95","","30","","","","NA"
"2015-09-07 12:00","2015","09","07","12:00","22.1","","19.6","","86","","21","","11","","","","98.91","","29","","","","NA"
"2015-09-07 13:00","2015","09","07","13:00","24.8","","19.5","","72","","26","","16","","","","98.97","","32","","","","NA"
"2015-09-07 14:00","2015","09","07","14:00","24.0","","19.6","","77","","30","","20","","","","98.97","","31","","","","NA"
"2015-09-07 15:00","2015","09","07","15:00","24.3","","19.7","","76","","28","","21","","","","98.98","","32","","","","NA"
"2015-09-07 16:00","2015","09","07","16:00","24.2","","19.8","","77","","28","","18","","","","98.97","","32","","","","NA"
"2015-09-07 17:00","2015","09","07","17:00","24.3","","19.5","","75","","26","","17","","","","98.98","","31","","","","NA"
"2015-09-07 18:00","2015","09","07","18:00","24.1","","19.5","","75","","28","","11","","","","99.01","","31","","","","NA"
"2015-09-07 19:00","2015","09","07","19:00","22.8","","19.4","","81","","29","","8","","","","99.04","","30","","","","NA"
"2015-09-07 20:00","2015","09","07","20:00","22.0","","19.3","","85","","29","","10","","","","99.10","","29","","","","NA"
"2015-09-07 21:00","2015","09","07","21:00","22.0","","19.4","","85","","30","","13","","","","99.13","","29","","","","NA"
"2015-09-07 22:00","2015","09","07","22:00","22.0","","19.0","","84","","31","","12","","","","99.14","","29","","","","NA"
"2015-09-07 23:00","2015","09","07","23:00","21.4","","19.2","","88","","31","","12","","","","99.13","","28","","","","NA"
"2015-09-08 00:00","2015","09","08","00:00","21.1","","19.4","","90","","30","","11","","","","99.16","","28","","","","NA"
"2015-09-08 01:00","2015","09","08","01:00","21.1","","19.5","","91","","31","","11","","","","99.13","","28","","","","NA"
"2015-09-08 02:00","2015","09","08","02:00","21.3","","19.2","","88","","30","","7","","","","99.15","","28","","","","NA"
"2015-09-08 03:00","2015","09","08","03:00","21.0","","19.2","","90","","32","","3","","","","99.15","","28","","","","NA"
"2015-09-08 04:00","2015","09","08","04:00","20.5","","19.2","","92","","20","","7","","","","99.15","","27","","","","NA"
"2015-09-08 05:00","2015","09","08","05:00","19.5","","18.4","","93","","28","","2","","","","99.15","","","","","","NA"
"2015-09-08 06:00","2015","09","08","06:00","19.8","","18.8","","94","","35","","2","","","","99.10","","","","","","NA"
"2015-09-08 07:00","2015","09","08","07:00","20.0","","19.0","","94","","6","","6","","","","99.10","","27","","","","NA"
"2015-09-08 08:00","2015","09","08","08:00","20.5","","19.5","","94","","0","","1","","","","99.12","","28","","","","NA"
"2015-09-08 09:00","2015","09","08","09:00","20.4","","19.4","","94","","10","","11","","","","99.11","","27","","","","NA"
"2015-09-08 10:00","2015","09","08","10:00","20.5","","19.5","","94","","11","","13","","","","99.09","","28","","","","NA"
"2015-09-08 11:00","2015","09","08","11:00","20.4","","19.3","","93","","13","","18","","","","99.02","","27","","","","NA"
"2015-09-08 12:00","2015","09","08","12:00","20.4","","19.3","","93","","12","","13","","","","98.96","","27","","","","NA"
"2015-09-08 13:00","2015","09","08","13:00","20.5","","19.1","","92","","11","","17","","","","98.82","","27","","","","NA"
"2015-09-08 14:00","2015","09","08","14:00","20.5","","19.4","","94","","13","","16","","","","98.81","","28","","","","NA"
"2015-09-08 15:00","2015","09","08","15:00","19.9","","18.5","","92","","14","","29","","","","98.65","","","","","","NA"
"2015-09-08 16:00","2015","09","08","16:00","19.9","","18.9","","94","","13","","15","","","","98.54","","","","","","NA"
"2015-09-08 17:00","2015","09","08","17:00","20.4","","19.2","","93","","14","","33","","","","98.46","","27","","","","NA"
"2015-09-08 18:00","2015","09","08","18:00","20.6","","18.8","","90","","15","","25","","","","98.44","","27","","","","NA"
"2015-09-08 19:00","2015","09","08","19:00","20.5","","19.0","","91","","17","","23","","","","98.36","","27","","","","NA"
"2015-09-08 20:00","2015","09","08","20:00","20.7","","19.5","","93","","17","","23","","","","98.30","","28","","","","NA"
"2015-09-08 21:00","2015","09","08","21:00","20.8","","19.3","","91","","19","","18","","","","98.22","","28","","","","NA"
"2015-09-08 22:00","2015","09","08","22:00","21.2","","18.8","","86","","22","","36","","","","98.12","","28","","","","NA"
"2015-09-08 23:00","2015","09","08","23:00","21.1","","18.9","","87","","26","","26","","","","98.14","","28","","","","NA"
"2015-09-09 00:00","2015","09","09","00:00","20.8","","18.5","","87","","29","","21","","","","98.25","","27","","","","NA"
"2015-09-09 01:00","2015","09","09","01:00","19.9","","17.1","","84","","30","","19","","","","98.35","","","","","","NA"
"2015-09-09 02:00","2015","09","09","02:00","19.5","","17.2","","87","","29","","22","","","","98.37","","","","","","NA"
"2015-09-09 03:00","2015","09","09","03:00","19.2","","17.0","","87","","29","","25","","","","98.44","","","","","","NA"
"2015-09-09 04:00","2015","09","09","04:00","18.7","","15.9","","84","","30","","13","","","","98.50","","","","","","NA"
"2015-09-09 05:00","2015","09","09","05:00","18.3","","15.7","","85","","30","","13","","","","98.58","","","","","","NA"
"2015-09-09 06:00","2015","09","09","06:00","18.0","","15.3","","84","","30","","11","","","","98.66","","","","","","NA"
"2015-09-09 07:00","2015","09","09","07:00","18.2","","15.0","","82","","30","","15","","","","98.72","","","","","","NA"
"2015-09-09 08:00","2015","09","09","08:00","18.8","","15.7","","83","","29","","20","","","","98.77","","","","","","NA"
"2015-09-09 09:00","2015","09","09","09:00","19.1","","14.6","","75","","29","","24","","","","98.83","","","","","","NA"
"2015-09-09 10:00","2015","09","09","10:00","19.4","","11.7","","61","","29","","23","","","","98.85","","","","","","NA"
"2015-09-09 11:00","2015","09","09","11:00","19.4","","8.4","","49","","29","","29","","","","98.88","","","","","","NA"
"2015-09-09 12:00","2015","09","09","12:00","18.9","","11.0","","60","","28","","29","","","","98.91","","","","","","NA"
"2015-09-09 13:00","2015","09","09","13:00","18.8","","10.9","","60","","29","","28","","","","98.91","","","","","","NA"
"2015-09-09 14:00","2015","09","09","14:00","19.8","","10.2","","54","","28","","31","","","","98.91","","","","","","NA"
"2015-09-09 15:00","2015","09","09","15:00","19.7","","10.9","","57","","28","","31","","","","98.89","","","","","","NA"
"2015-09-09 16:00","2015","09","09","16:00","20.1","","9.7","","51","","28","","31","","","","98.90","","","","","","NA"
"2015-09-09 17:00","2015","09","09","17:00","20.3","","8.5","","47","","28","","29","","","","98.89","","","","","","NA"
"2015-09-09 18:00","2015","09","09","18:00","20.3","","8.8","","47","","28","","29","","","","98.93","","","","","","NA"
"2015-09-09 19:00","2015","09","09","19:00","19.4","","9.7","","54","","27","","17","","","","98.97","","","","","","NA"
"2015-09-09 20:00","2015","09","09","20:00","18.5","","10.7","","60","","26","","12","","","","99.03","","","","","","NA"
"2015-09-09 21:00","2015","09","09","21:00","17.8","","12.2","","69","","26","","10","","","","99.03","","","","","","NA"
"2015-09-09 22:00","2015","09","09","22:00","17.2","","12.1","","72","","27","","9","","","","99.05","","","","","","NA"
"2015-09-09 23:00","2015","09","09","23:00","17.0","","12.0","","73","","29","","7","","","","99.07","","","","","","NA"
"2015-09-10 00:00","2015","09","10","00:00","17.1","","13.0","","77","","27","","6","","","","99.07","","","","","","NA"
"2015-09-10 01:00","2015","09","10","01:00","17.2","","12.1","","72","","30","","3","","","","99.05","","","","","","NA"
"2015-09-10 02:00","2015","09","10","02:00","17.4","","12.2","","72","","28","","7","","","","99.06","","","","","","NA"
"2015-09-10 03:00","2015","09","10","03:00","17.9","","13.8","","77","","26","","12","","","","99.03","","","","","","NA"
"2015-09-10 04:00","2015","09","10","04:00","18.5","","12.5","","68","","26","","11","","","","99.00","","","","","","NA"
"2015-09-10 05:00","2015","09","10","05:00","18.5","","12.7","","69","","26","","14","","","","99.00","","","","","","NA"
"2015-09-10 06:00","2015","09","10","06:00","17.9","","12.7","","71","","28","","8","","","","98.98","","","","","","NA"
"2015-09-10 07:00","2015","09","10","07:00","18.0","","13.4","","75","","28","","6","","","","98.99","","","","","","NA"
"2015-09-10 08:00","2015","09","10","08:00","18.2","","13.9","","76","","25","","10","","","","99.04","","","","","","NA"
"2015-09-10 09:00","2015","09","10","09:00","18.6","","13.8","","74","","26","","12","","","","99.05","","","","","","NA"
"2015-09-10 10:00","2015","09","10","10:00","19.3","","13.6","","69","","28","","14","","","","99.04","","","","","","NA"
"2015-09-10 11:00","2015","09","10","11:00","19.5","","13.6","","69","","29","","12","","","","99.06","","","","","","NA"
"2015-09-10 12:00","2015","09","10","12:00","19.3","","13.4","","68","","30","","9","","","","99.03","","","","","","NA"
"2015-09-10 13:00","2015","09","10","13:00","18.2","","14.4","","79","","31","","6","","","","99.02","","","","","","NA"
"2015-09-10 14:00","2015","09","10","14:00","18.8","","13.9","","74","","8","","6","","","","98.95","","","","","","NA"
"2015-09-10 15:00","2015","09","10","15:00","19.0","","12.7","","67","","14","","5","","","","98.92","","","","","","NA"
"2015-09-10 16:00","2015","09","10","16:00","18.9","","13.3","","70","","13","","8","","","","98.87","","","","","","NA"
"2015-09-10 17:00","2015","09","10","17:00","19.3","","12.9","","67","","19","","13","","","","98.85","","","","","","NA"
"2015-09-10 18:00","2015","09","10","18:00","19.0","","12.1","","64","","23","","25","","","","98.85","","","","","","NA"
"2015-09-10 19:00","2015","09","10","19:00","18.4","","11.9","","66","","25","","11","","","","98.84","","","","","","NA"
"2015-09-10 20:00","2015","09","10","20:00","18.1","","10.9","","63","","24","","17","","","","98.87","","","","","","NA"
"2015-09-10 21:00","2015","09","10","21:00","17.4","","12.1","","71","","29","","8","","","","98.88","","","","","","NA"
"2015-09-10 22:00","2015","09","10","22:00","16.8","","12.3","","75","","29","","8","","","","98.87","","","","","","NA"
"2015-09-10 23:00","2015","09","10","23:00","16.6","","12.5","","76","","31","","9","","","","98.89","","","","","","NA"
"2015-09-11 00:00","2015","09","11","00:00","16.2","","11.8","","75","","32","","8","","","","98.87","","","","","","NA"
"2015-09-11 01:00","2015","09","11","01:00","15.2","","11.0","","76","","32","","9","","","","98.87","","","","","","NA"
"2015-09-11 02:00","2015","09","11","02:00","14.1","","9.9","","76","","32","","14","","","","98.86","","","","","","NA"
"2015-09-11 03:00","2015","09","11","03:00","13.2","","9.6","","79","","31","","13","","","","98.92","","","","","","NA"
"2015-09-11 04:00","2015","09","11","04:00","12.5","","8.9","","79","","31","","16","","","","98.89","","","","","","NA"
"2015-09-11 05:00","2015","09","11","05:00","11.9","","8.4","","80","","32","","20","","","","98.91","","","","","","NA"
"2015-09-11 06:00","2015","09","11","06:00","11.0","","8.2","","83","","33","","18","","","","98.96","","","","","","NA"
"2015-09-11 07:00","2015","09","11","07:00","11.6","","8.6","","82","","33","","11","","","","99.03","","","","","","NA"
"2015-09-11 08:00","2015","09","11","08:00","12.5","","8.5","","77","","35","","17","","","","99.03","","","","","","NA"
"2015-09-11 09:00","2015","09","11","09:00","13.4","","8.7","","73","","34","","12","","","","99.05","","","","","","NA"
"2015-09-11 10:00","2015","09","11","10:00","14.4","","8.4","","67","","34","","10","","","","99.06","","","","","","NA"
"2015-09-11 11:00","2015","09","11","11:00","15.1","","7.8","","62","","35","","10","","","","99.09","","","","","","NA"
"2015-09-11 12:00","2015","09","11","12:00","16.0","","7.3","","57","","31","","9","","","","99.06","","","","","","NA"
"2015-09-11 13:00","2015","09","11","13:00","16.4","","6.9","","54","","28","","13","","","","99.05","","","","","","NA"
"2015-09-11 14:00","2015","09","11","14:00","17.5","","6.4","","48","","33","","8","","","","99.04","","","","","","NA"
"2015-09-11 15:00","2015","09","11","15:00","17.1","","6.1","","48","","28","","17","","","","99.01","","","","","","NA"
"2015-09-11 16:00","2015","09","11","16:00","17.4","","7.0","","50","","29","","18","","","","99.00","","","","","","NA"
"2015-09-11 17:00","2015","09","11","17:00","17.0","","6.8","","51","","36","","11","","","","99.01","","","","","","NA"
"2015-09-11 18:00","2015","09","11","18:00","16.1","","7.0","","55","","35","","9","","","","99.05","","","","","","NA"
"2015-09-11 19:00","2015","09","11","19:00","15.0","","7.2","","59","","2","","9","","","","99.12","","","","","","NA"
"2015-09-11 20:00","2015","09","11","20:00","13.9","","6.0","","59","","1","","13","","","","99.17","","","","","","NA"
"2015-09-11 21:00","2015","09","11","21:00","12.8","","5.3","","60","","3","","8","","","","99.21","","","","","","NA"
"2015-09-11 22:00","2015","09","11","22:00","12.1","","4.6","","60","","1","","12","","","","99.24","","","","","","NA"
"2015-09-11 23:00","2015","09","11","23:00"
"2015-09-12 00:00","2015","09","12","00:00","11.3","","3.8","","60","","3","","10","","","","99.25","","","","","","NA"
"2015-09-12 01:00","2015","09","12","01:00","10.4","","3.6","","63","","1","","6","","","","99.26","","","","","","NA"
"2015-09-12 02:00","2015","09","12","02:00","9.5","","3.8","","67","","36","","4","","","","99.27","","","","","","NA"
"2015-09-12 03:00","2015","09","12","03:00","9.6","","4.0","","68","","4","","7","","","","99.28","","","","","","NA"
"2015-09-12 04:00","2015","09","12","04:00","8.5","","4.7","","77","","36","","5","","","","99.30","","","","","","NA"
"2015-09-12 05:00","2015","09","12","05:00","8.3","","4.6","","78","","1","","8","","","","99.36","","","","","","NA"
"2015-09-12 06:00","2015","09","12","06:00","8.1","","4.3","","77","","2","","9","","","","99.35","","","","","","NA"
"2015-09-12 07:00","2015","09","12","07:00","9.0","","4.0","","71","","2","","9","","","","99.37","","","","","","NA"
"2015-09-12 08:00","2015","09","12","08:00","10.5","","4.4","","66","","2","","9","","","","99.38","","","","","","NA"
"2015-09-12 09:00","2015","09","12","09:00","11.7","","3.8","","59","","2","","12","","","","99.35","","","","","","NA"
"2015-09-12 10:00","2015","09","12","10:00","12.9","","1.7","","47","","36","","16","","","","99.33","","","","","","NA"
"2015-09-12 11:00","2015","09","12","11:00","13.5","","2.4","","47","","2","","15","","","","99.30","","","","","","NA"
"2015-09-12 12:00","2015","09","12","12:00","13.5","","2.2","","46","","2","","15","","","","99.27","","","","","","NA"
"2015-09-12 13:00","2015","09","12","13:00","13.2","","2.6","","49","","34","","16","","","","99.27","","","","","","NA"
"2015-09-12 14:00","2015","09","12","14:00","13.0","","3.6","","53","","2","","14","","","","99.20","","","","","","NA"
"2015-09-12 15:00","2015","09","12","15:00","13.0","","3.7","","53","","1","","12","","","","99.17","","","","","","NA"
"2015-09-12 16:00","2015","09","12","16:00","12.1","","3.5","","56","","3","","15","","","","99.18","","","","","","NA"
"2015-09-12 17:00","2015","09","12","17:00","11.1","","3.4","","59","","1","","16","","","","99.17","","","","","","NA"
"2015-09-12 18:00","2015","09","12","18:00","10.9","","3.6","","61","","2","","10","","","","99.15","","","","","","NA"
"2015-09-12 19:00","2015","09","12","19:00","10.7","","4.0","","63","","2","","9","","","","99.14","","","","","","NA"
"2015-09-12 20:00","2015","09","12","20:00","10.1","","4.4","","68","","1","","6","","","","99.15","","","","","","NA"
"2015-09-12 21:00","2015","09","12","21:00","9.7","","4.6","","71","","35","","9","","","","99.13","","","","","","NA"
"2015-09-12 22:00","2015","09","12","22:00","9.8","","4.7","","71","","35","","12","","","","99.11","","","","","","NA"
"2015-09-12 23:00","2015","09","12","23:00","10.0","","4.9","","71","","35","","10","","","","99.06","","","","","","NA"
"2015-09-13 00:00","2015","09","13","00:00","9.7","","5.3","","74","","36","","10","","","","99.05","","","","","","NA"
"2015-09-13 01:00","2015","09","13","01:00","10.1","","5.7","","74","","36","","12","","","","98.99","","","","","","NA"
"2015-09-13 02:00","2015","09","13","02:00","10.5","","6.1","","74","","36","","12","","","","98.98","","","","","","NA"
"2015-09-13 03:00","2015","09","13","03:00","10.5","","6.5","","76","","36","","11","","","","98.95","","","","","","NA"
"2015-09-13 04:00","2015","09","13","04:00","10.4","","6.7","","78","","35","","12","","","","98.95","","","","","","NA"
"2015-09-13 05:00","2015","09","13","05:00","10.3","","6.8","","79","","36","","10","","","","98.94","","","","","","NA"
"2015-09-13 06:00","2015","09","13","06:00","9.6","","6.6","","82","","34","","11","","","","98.95","","","","","","NA"
"2015-09-13 07:00","2015","09","13","07:00","10.0","","6.7","","80","","35","","10","","","","98.99","","","","","","NA"
"2015-09-13 08:00","2015","09","13","08:00","11.2","","6.6","","74","","36","","10","","","","98.97","","","","","","NA"
"2015-09-13 09:00","2015","09","13","09:00","12.4","","6.2","","66","","36","","14","","","","98.94","","","","","","NA"
"2015-09-13 10:00","2015","09","13","10:00","13.5","","5.8","","60","","2","","14","","","","98.91","","","","","","NA"
"2015-09-13 11:00","2015","09","13","11:00","14.8","","4.5","","50","","36","","12","","","","98.89","","","","","","NA"
"2015-09-13 12:00","2015","09","13","12:00","15.4","","4.3","","47","","34","","16","","","","98.85","","","","","","NA"
"2015-09-13 13:00","2015","09","13","13:00","15.7","","4.7","","48","","34","","12","","","","98.85","","","","","","NA"
"2015-09-13 14:00","2015","09","13","14:00","16.0","","4.3","","46","","34","","16","","","","98.80","","","","","","NA"
"2015-09-13 15:00","2015","09","13","15:00","16.6","","4.7","","45","","32","","14","","","","98.76","","","","","","NA"
"2015-09-13 16:00","2015","09","13","16:00","17.0","","5.0","","45","","34","","15","","","","98.77","","","","","","NA"
"2015-09-13 17:00","2015","09","13","17:00","17.3","","4.8","","44","","31","","13","","","","98.79","","","","","","NA"
"2015-09-13 18:00","2015","09","13","18:00","16.0","","8.5","","61","","28","","20","","","","98.81","","","","","","NA"
"2015-09-13 19:00","2015","09","13","19:00","15.3","","8.6","","64","","30","","10","","","","98.84","","","","","","NA"
"2015-09-13 20:00","2015","09","13","20:00","15.4","","9.5","","68","","27","","11","","","","98.88","","","","","","NA"
"2015-09-13 21:00","2015","09","13","21:00","14.8","","9.3","","70","","26","","12","","","","98.91","","","","","","NA"
"2015-09-13 22:00","2015","09","13","22:00","14.4","","9.7","","74","","29","","6","","","","98.92","","","","","","NA"
"2015-09-13 23:00","2015","09","13","23:00","14.2","","10.5","","78","","31","","9","","","","98.95","","","","","","NA"
"2015-09-14 00:00","2015","09","14","00:00","14.7","","10.4","","76","","31","","12","","","","98.95","","","","","","NA"
"2015-09-14 01:00","2015","09","14","01:00","14.7","","10.3","","75","","31","","12","","","","98.99","","","","","","NA"
"2015-09-14 02:00","2015","09","14","02:00","14.9","","11.6","","81","","30","","13","","","","98.99","","","","","","NA"
"2015-09-14 03:00","2015","09","14","03:00","14.8","","11.5","","81","","28","","8","","","","99.03","","","","","","NA"
"2015-09-14 04:00","2015","09","14","04:00","15.1","","10.5","","74","","25","","12","","","","99.07","","","","","","NA"
"2015-09-14 05:00","2015","09","14","05:00","15.3","","10.6","","73","","28","","15","","","","99.08","","","","","","NA"
"2015-09-14 06:00","2015","09","14","06:00","15.2","","10.5","","73","","29","","17","","","","99.13","","","","","","NA"
"2015-09-14 07:00","2015","09","14","07:00","15.7","","10.8","","73","","28","","20","","","","99.19","","","","","","NA"
"2015-09-14 08:00","2015","09","14","08:00","16.4","","11.9","","75","","26","","19","","","","99.23","","","","","","NA"
"2015-09-14 09:00","2015","09","14","09:00","17.1","","12.1","","72","","27","","19","","","","99.28","","","","","","NA"
"2015-09-14 10:00","2015","09","14","10:00","18.1","","12.6","","70","","27","","16","","","","99.35","","","","","","NA"
"2015-09-14 11:00","2015","09","14","11:00","18.4","","12.9","","70","","22","","19","","","","99.38","","","","","","NA"
"2015-09-14 12:00","2015","09","14","12:00","19.1","","12.9","","67","","21","","11","","","","99.37","","","","","","NA"
"2015-09-14 13:00","2015","09","14","13:00","20.2","","10.6","","54","","23","","25","","","","99.37","","","","","","NA"
"2015-09-14 14:00","2015","09","14","14:00","20.2","","10.0","","52","","23","","30","","","","99.36","","","","","","NA"
"2015-09-14 15:00","2015","09","14","15:00","20.7","","9.4","","48","","24","","24","","","","99.38","","","","","","NA"
"2015-09-14 16:00","2015","09","14","16:00","20.7","","9.0","","47","","23","","26","","","","99.36","","","","","","NA"
"2015-09-14 17:00","2015","09","14","17:00","19.7","","12.5","","63","","23","","24","","","","99.38","","","","","","NA"
"2015-09-14 18:00","2015","09","14","18:00","19.5","","11.1","","59","","23","","29","","","","99.40","","","","","","NA"
"2015-09-14 19:00","2015","09","14","19:00","18.7","","13.0","","69","","24","","12","","","","99.43","","","","","","NA"
"2015-09-14 20:00","2015","09","14","20:00","18.2","","13.3","","73","","25","","6","","","","99.48","","","","","","NA"
"2015-09-14 21:00","2015","09","14","21:00","18.2","","13.6","","75","","23","","7","","","","99.54","","","","","","NA"
"2015-09-14 22:00","2015","09","14","22:00","17.5","","13.4","","77","","26","","6","","","","99.59","","","","","","NA"
"2015-09-14 23:00","2015","09","14","23:00","17.5","","13.8","","79","","24","","6","","","","99.60","","","","","","NA"
"2015-09-15 00:00","2015","09","15","00:00","17.8","","14.0","","79","","24","","8","","","","99.61","","","","","","NA"
"2015-09-15 01:00","2015","09","15","01:00","17.2","","13.0","","76","","27","","2","","","","99.64","","","","","","NA"
"2015-09-15 02:00","2015","09","15","02:00","17.1","","13.5","","79","","0","","1","","","","99.67","","","","","","NA"
"2015-09-15 03:00","2015","09","15","03:00","17.7","","13.6","","77","","30","","7","","","","99.67","","","","","","NA"
"2015-09-15 04:00","2015","09","15","04:00","18.4","","13.4","","73","","25","","4","","","","99.70","","","","","","NA"
"2015-09-15 05:00","2015","09","15","05:00","17.4","","13.2","","76","","0","","1","","","","99.76","","","","","","NA"
"2015-09-15 06:00","2015","09","15","06:00","17.2","","13.6","","79","","13","","1","","","","99.80","","","","","","NA"
"2015-09-15 07:00","2015","09","15","07:00","18.0","","14.0","","77","","9","","3","","","","99.87","","","","","","NA"
"2015-09-15 08:00","2015","09","15","08:00","18.3","","14.4","","78","","9","","4","","","","99.92","","","","","","NA"
"2015-09-15 09:00","2015","09","15","09:00","19.1","","14.8","","76","","20","","8","","","","99.96","","","","","","NA"
"2015-09-15 10:00","2015","09","15","10:00","19.3","","14.7","","75","","18","","7","","","","100.00","","","","","","NA"
"2015-09-15 11:00","2015","09","15","11:00","19.9","","16.4","","80","","19","","7","","","","100.00","","","","","","NA"
"2015-09-15 12:00","2015","09","15","12:00","19.6","","15.7","","78","","18","","15","","","","99.99","","","","","","NA"
"2015-09-15 13:00","2015","09","15","13:00","19.3","","15.5","","79","","17","","19","","","","99.99","","","","","","NA"
"2015-09-15 14:00","2015","09","15","14:00","19.0","","15.8","","81","","18","","26","","","","99.98","","","","","","NA"
"2015-09-15 15:00","2015","09","15","15:00","19.0","","15.5","","81","","17","","26","","","","99.99","","","","","","NA"
"2015-09-15 16:00","2015","09","15","16:00","19.1","","15.7","","81","","18","","27","","","","99.99","","","","","","NA"
"2015-09-15 17:00","2015","09","15","17:00","19.2","","15.7","","80","","18","","25","","","","100.00","","","","","","NA"
"2015-09-15 18:00","2015","09","15","18:00","19.2","","15.8","","81","","18","","20","","","","100.01","","","","","","NA"
"2015-09-15 19:00","2015","09","15","19:00","19.2","","16.0","","82","","17","","14","","","","100.04","","","","","","NA"
"2015-09-15 20:00","2015","09","15","20:00","19.3","","15.8","","80","","16","","10","","","","100.06","","","","","","NA"
"2015-09-15 21:00","2015","09","15","21:00","18.7","","16.5","","87","","9","","8","","","","100.07","","","","","","NA"
"2015-09-15 22:00","2015","09","15","22:00","18.4","","16.1","","86","","7","","7","","","","100.09","","","","","","NA"
"2015-09-15 23:00","2015","09","15","23:00","18.1","","15.9","","87","","7","","7","","","","100.07","","","","","","NA"
"2015-09-16 00:00","2015","09","16","00:00","18.5","","16.3","","87","","8","","6","","","","100.08","","","","","","NA"
"2015-09-16 01:00","2015","09","16","01:00","18.5","","16.5","","89","","7","","5","","","","100.08","","","","","","NA"
"2015-09-16 02:00","2015","09","16","02:00","18.1","","16.4","","90","","7","","4","","","","100.07","","","","","","NA"
"2015-09-16 03:00","2015","09","16","03:00","17.8","","15.9","","89","","10","","5","","","","100.08","","","","","","NA"
"2015-09-16 04:00","2015","09","16","04:00","18.3","","15.6","","85","","19","","3","","","","100.08","","","","","","NA"
"2015-09-16 05:00","2015","09","16","05:00","17.3","","15.6","","90","","10","","4","","","","100.10","","","","","","NA"
"2015-09-16 06:00","2015","09","16","06:00","18.0","","15.9","","88","","18","","2","","","","100.10","","","","","","NA"
"2015-09-16 07:00","2015","09","16","07:00","18.9","","16.4","","86","","20","","4","","","","100.12","","","","","","NA"
"2015-09-16 08:00","2015","09","16","08:00","19.3","","15.7","","80","","21","","13","","","","100.13","","","","","","NA"
"2015-09-16 09:00","2015","09","16","09:00","19.3","","15.9","","81","","22","","18","","","","100.13","","","","","","NA"
"2015-09-16 10:00","2015","09","16","10:00","19.6","","16.4","","82","","21","","8","","","","100.15","","","","","","NA"
"2015-09-16 11:00","2015","09","16","11:00","19.6","","15.7","","78","","19","","21","","","","100.12","","","","","","NA"
"2015-09-16 12:00","2015","09","16","12:00","19.8","","15.5","","76","","19","","24","","","","100.08","","","","","","NA"
"2015-09-16 13:00","2015","09","16","13:00","19.3","","15.9","","81","","17","","26","","","","100.02","","","","","","NA"
"2015-09-16 14:00","2015","09","16","14:00","19.6","","15.3","","76","","19","","30","","","","99.96","","","","","","NA"
"2015-09-16 15:00","2015","09","16","15:00","19.8","","15.3","","75","","18","","28","","","","99.92","","","","","","NA"
"2015-09-16 16:00","2015","09","16","16:00","19.8","","14.8","","73","","18","","28","","","","99.84","","","","","","NA"
"2015-09-16 17:00","2015","09","16","17:00","19.7","","15.0","","74","","18","","28","","","","99.81","","","","","","NA"
"2015-09-16 18:00","2015","09","16","18:00","19.9","","14.9","","73","","19","","26","","","","99.77","","","","","","NA"
"2015-09-16 19:00","2015","09","16","19:00","19.6","","15.2","","76","","21","","7","","","","99.77","","","","","","NA"
"2015-09-16 20:00","2015","09","16","20:00","19.1","","15.5","","80","","10","","2","","","","99.77","","","","","","NA"
"2015-09-16 21:00","2015","09","16","21:00","19.1","","15.7","","81","","16","","4","","","","99.74","","","","","","NA"
"2015-09-16 22:00","2015","09","16","22:00","19.8","","14.3","","71","","23","","3","","","","99.72","","","","","","NA"
"2015-09-16 23:00","2015","09","16","23:00","20.4","","14.4","","69","","20","","9","","","","99.69","","","","","","NA"
"2015-09-17 00:00","2015","09","17","00:00","19.9","","15.6","","76","","23","","13","","","","99.67","","","","","","NA"
"2015-09-17 01:00","2015","09","17","01:00","20.3","","14.5","","70","","28","","3","","","","99.66","","","","","","NA"
"2015-09-17 02:00","2015","09","17","02:00","19.9","","14.7","","72","","23","","4","","","","99.61","","","","","","NA"
"2015-09-17 03:00","2015","09","17","03:00","19.7","","14.9","","74","","24","","8","","","","99.60","","","","","","NA"
"2015-09-17 04:00","2015","09","17","04:00","19.9","","14.2","","70","","29","","5","","","","99.56","","","","","","NA"
"2015-09-17 05:00","2015","09","17","05:00","19.4","","14.7","","75","","32","","5","","","","99.55","","","","","","NA"
"2015-09-17 06:00","2015","09","17","06:00","19.6","","15.0","","75","","23","","11","","","","99.53","","","","","","NA"
"2015-09-17 07:00","2015","09","17","07:00","19.4","","15.3","","78","","21","","10","","","","99.53","","","","","","NA"
"2015-09-17 08:00","2015","09","17","08:00","19.2","","15.4","","79","","24","","9","","","","99.53","","","","","","NA"
"2015-09-17 09:00","2015","09","17","09:00","19.3","","15.5","","79","","18","","10","","","","99.47","","","","","","NA"
"2015-09-17 10:00","2015","09","17","10:00","19.5","","15.7","","79","","15","","7","","","","99.44","","","","","","NA"
"2015-09-17 11:00","2015","09","17","11:00","19.3","","15.8","","80","","19","","24","","","","99.42","","","","","","NA"
"2015-09-17 12:00","2015","09","17","12:00","19.5","","15.8","","80","","19","","27","","","","99.36","","","","","","NA"
"2015-09-17 13:00","2015","09","17","13:00","19.5","","16.1","","81","","20","","22","","","","99.38","","","","","","NA"
"2015-09-17 14:00","2015","09","17","14:00","21.0","","15.8","","72","","20","","18","","","","99.36","","25","","","","NA"
"2015-09-17 15:00","2015","09","17","15:00","20.3","","15.6","","75","","19","","20","","","","99.31","","25","","","","NA"
"2015-09-17 16:00","2015","09","17","16:00","20.2","","15.6","","75","","19","","19","","","","99.27","","25","","","","NA"
"2015-09-17 17:00","2015","09","17","17:00","20.5","","15.4","","73","","20","","18","","","","99.19","","25","","","","NA"
"2015-09-17 18:00","2015","09","17","18:00","19.8","","15.7","","78","","18","","29","","","","99.14","","","","","","NA"
"2015-09-17 19:00","2015","09","17","19:00","19.6","","16.2","","81","","18","","13","","","","99.09","","","","","","NA"
"2015-09-17 20:00","2015","09","17","20:00","19.5","","16.1","","80","","15","","14","","","","99.05","","","","","","NA"
"2015-09-17 21:00","2015","09","17","21:00","19.6","","15.8","","79","","19","","12","","","","99.07","","","","","","NA"
"2015-09-17 22:00","2015","09","17","22:00","19.4","","15.8","","80","","20","","15","","","","99.02","","","","","","NA"
"2015-09-17 23:00","2015","09","17","23:00","19.0","","15.9","","82","","21","","8","","","","98.98","","","","","","NA"
"2015-09-18 00:00","2015","09","18","00:00","19.1","","16.2","","83","","21","","7","","","","98.93","","","","","","NA"
"2015-09-18 01:00","2015","09","18","01:00","19.3","","15.8","","80","","16","","9","","","","98.90","","","","","","NA"
"2015-09-18 02:00","2015","09","18","02:00","19.2","","15.7","","80","","17","","11","","","","98.84","","","","","","NA"
"2015-09-18 03:00","2015","09","18","03:00","19.0","","16.2","","84","","14","","8","","","","98.81","","","","","","NA"
"2015-09-18 04:00","2015","09","18","04:00","19.3","","16.1","","82","","21","","18","","","","98.74","","","","","","NA"
"2015-09-18 05:00","2015","09","18","05:00","19.1","","16.2","","83","","20","","30","","","","98.69","","","","","","NA"
"2015-09-18 06:00","2015","09","18","06:00","19.3","","16.0","","82","","0","","1","","","","98.67","","","","","","NA"
"2015-09-18 07:00","2015","09","18","07:00","19.4","","15.9","","80","","16","","2","","","","98.68","","","","","","NA"
"2015-09-18 08:00","2015","09","18","08:00","19.9","","15.9","","78","","23","","18","","","","98.68","","","","","","NA"
"2015-09-18 09:00","2015","09","18","09:00","20.0","","16.2","","79","","23","","13","","","","98.69","","25","","","","NA"
"2015-09-18 10:00","2015","09","18","10:00","18.8","","17.3","","91","","21","","22","","","","98.66","","","","","","NA"
"2015-09-18 11:00","2015","09","18","11:00","18.6","","17.1","","91","","21","","24","","","","98.71","","","","","","NA"
"2015-09-18 12:00","2015","09","18","12:00","19.1","","17.3","","90","","22","","19","","","","98.73","","","","","","NA"
"2015-09-18 13:00","2015","09","18","13:00","19.1","","17.2","","89","","21","","21","","","","98.72","","","","","","NA"
"2015-09-18 14:00","2015","09","18","14:00","19.1","","17.3","","89","","20","","22","","","","98.71","","","","","","NA"
"2015-09-18 15:00","2015","09","18","15:00","19.1","","17.4","","90","","22","","17","","","","98.71","","","","","","NA"
"2015-09-18 16:00","2015","09","18","16:00","18.7","","17.3","","92","","19","","19","","","","98.72","","","","","","NA"
"2015-09-18 17:00","2015","09","18","17:00","18.8","","17.4","","92","","20","","21","","","","98.73","","","","","","NA"
"2015-09-18 18:00","2015","09","18","18:00","18.5","","17.2","","92","","22","","24","","","","98.77","","","","","","NA"
"2015-09-18 19:00","2015","09","18","19:00","18.4","","17.4","","94","","21","","15","","","","98.72","","","","","","NA"
"2015-09-18 20:00","2015","09","18","20:00","18.5","","17.5","","93","","24","","11","","","","98.77","","","","","","NA"
"2015-09-18 21:00","2015","09","18","21:00","18.5","","14.7","","79","","31","","6","","","","98.76","","","","","","NA"
"2015-09-18 22:00","2015","09","18","22:00","17.8","","14.3","","80","","29","","3","","","","98.74","","","","","","NA"
"2015-09-18 23:00","2015","09","18","23:00","17.2","","13.9","","81","","29","","5","","","","98.72","","","","","","NA"
"2015-09-19 00:00","2015","09","19","00:00","17.0","","13.6","","80","","33","","4","","","","98.63","","","","","","NA"
"2015-09-19 01:00","2015","09","19","01:00","16.4","","14.2","","87","","7","","5","","","","98.55","","","","","","NA"
"2015-09-19 02:00","2015","09","19","02:00","16.7","","13.8","","83","","3","","5","","","","98.51","","","","","","NA"
"2015-09-19 03:00","2015","09","19","03:00","16.8","","15.3","","91","","6","","9","","","","98.35","","","","","","NA"
"2015-09-19 04:00","2015","09","19","04:00","17.7","","16.6","","93","","8","","20","","","","98.22","","","","","","NA"
"2015-09-19 05:00","2015","09","19","05:00","18.0","","16.9","","93","","9","","20","","","","98.11","","","","","","NA"
"2015-09-19 06:00","2015","09","19","06:00","18.5","","17.4","","93","","12","","30","","","","97.97","","","","","","NA"
"2015-09-19 07:00","2015","09","19","07:00","18.8","","17.4","","92","","15","","35","","","","97.91","","","","","","NA"
"2015-09-19 08:00","2015","09","19","08:00","18.3","","17.2","","93","","14","","33","","","","97.76","","","","","","NA"
"2015-09-19 09:00","2015","09","19","09:00","18.6","","17.4","","93","","22","","26","","","","97.67","","","","","","NA"
"2015-09-19 10:00","2015","09","19","10:00","17.3","","15.6","","90","","28","","22","","","","97.64","","","","","","NA"
"2015-09-19 11:00","2015","09","19","11:00","12.6","","10.7","","88","","34","","29","","","","97.81","","","","","","NA"
"2015-09-19 12:00","2015","09","19","12:00","13.5","","9.5","","77","","1","","36","","","","97.84","","","","","","NA"
"2015-09-19 13:00","2015","09","19","13:00","14.6","","9.9","","73","","31","","26","","","","98.24","","","","","","NA"
"2015-09-19 14:00","2015","09","19","14:00","14.7","","9.1","","69","","32","","26","","","","98.38","","","","","","NA"
"2015-09-19 15:00","2015","09","19","15:00","14.9","","9.1","","68","","33","","22","","","","98.49","","","","","","NA"
"2015-09-19 16:00","2015","09","19","16:00","14.8","","8.3","","65","","33","","20","","","","98.61","","","","","","NA"
"2015-09-19 17:00","2015","09","19","17:00","14.5","","7.5","","63","","34","","17","","","","98.76","","","","","","NA"
"2015-09-19 18:00","2015","09","19","18:00","14.2","","7.7","","65","","34","","12","","","","98.89","","","","","","NA"
"2015-09-19 19:00","2015","09","19","19:00","13.3","","7.8","","69","","33","","9","","","","98.98","","","","","","NA"
"2015-09-19 20:00","2015","09","19","20:00","12.7","","7.4","","70","","36","","9","","","","99.14","","","","","","NA"
"2015-09-19 21:00","2015","09","19","21:00","11.9","","7.6","","75","","36","","6","","","","99.26","","","","","","NA"
"2015-09-19 22:00","2015","09","19","22:00","11.6","","7.2","","74","","1","","5","","","","99.31","","","","","","NA"
"2015-09-19 23:00","2015","09","19","23:00","11.2","","6.8","","74","","36","","7","","","","99.38","","","","","","NA"
"2015-09-20 00:00","2015","09","20","00:00","11.0","","8.8","","87","","25","","3","","","","99.46","","","","","","NA"
"2015-09-20 01:00","2015","09","20","01:00","10.9","","7.8","","81","","34","","7","","","","99.52","","","","","","NA"
"2015-09-20 02:00","2015","09","20","02:00","11.3","","7.4","","77","","0","","1","","","","99.55","","","","","","NA"
"2015-09-20 03:00","2015","09","20","03:00","11.6","","6.7","","72","","33","","3","","","","99.61","","","","","","NA"
"2015-09-20 04:00","2015","09","20","04:00","11.4","","7.2","","76","","31","","6","","","","99.65","","","","","","NA"
"2015-09-20 05:00","2015","09","20","05:00","11.4","","8.5","","82","","28","","5","","","","99.69","","","","","","NA"
"2015-09-20 06:00","2015","09","20","06:00","13.4","","9.1","","76","","22","","18","","","","99.70","","","","","","NA"
"2015-09-20 07:00","2015","09","20","07:00","13.5","","9.4","","76","","25","","14","","","","99.75","","","","","","NA"
"2015-09-20 08:00","2015","09","20","08:00","13.8","","9.4","","75","","23","","19","","","","99.78","","","","","","NA"
"2015-09-20 09:00","2015","09","20","09:00","14.6","","10.7","","77","","23","","24","","","","99.80","","","","","","NA"
"2015-09-20 10:00","2015","09","20","10:00","15.9","","10.3","","70","","23","","22","","","","99.83","","","","","","NA"
"2015-09-20 11:00","2015","09","20","11:00","16.6","","9.5","","63","","25","","23","","","","99.83","","","","","","NA"
"2015-09-20 12:00","2015","09","20","12:00","17.3","","9.1","","59","","25","","23","","","","99.82","","","","","","NA"
"2015-09-20 13:00","2015","09","20","13:00","17.7","","9.4","","58","","23","","28","","","","99.80","","","","","","NA"
"2015-09-20 14:00","2015","09","20","14:00","18.1","","8.8","","54","","25","","20","","","","99.77","","","","","","NA"
"2015-09-20 15:00","2015","09","20","15:00","18.7","","9.4","","55","","24","","18","","","","99.75","","","","","","NA"
"2015-09-20 16:00","2015","09","20","16:00","18.8","","9.8","","56","","23","","21","","","","99.74","","","","","","NA"
"2015-09-20 17:00","2015","09","20","17:00","18.7","","11.0","","61","","24","","17","","","","99.75","","","","","","NA"
"2015-09-20 18:00","2015","09","20","18:00","18.1","","11.4","","65","","24","","14","","","","99.73","","","","","","NA"
"2015-09-20 19:00","2015","09","20","19:00","17.0","","11.3","","69","","25","","13","","","","99.75","","","","","","NA"
"2015-09-20 20:00","2015","09","20","20:00","16.8","","11.3","","70","","25","","12","","","","99.81","","","","","","NA"
"2015-09-20 21:00","2015","09","20","21:00","15.8","","12.0","","78","","27","","7","","","","99.85","","","","","","NA"
"2015-09-20 22:00","2015","09","20","22:00","15.1","","11.7","","80","","28","","8","","","","99.85","","","","","","NA"
"2015-09-20 23:00","2015","09","20","23:00","15.2","","12.2","","82","","27","","7","","","","99.85","","","","","","NA"
"2015-09-21 00:00","2015","09","21","00:00","15.4","","12.8","","85","","29","","5","","","","99.88","","","","","","NA"
"2015-09-21 01:00","2015","09","21","01:00","14.7","","12.8","","88","","26","","2","","","","99.89","","","","","","NA"
"2015-09-21 02:00","2015","09","21","02:00","14.3","","12.5","","89","","0","","1","","","","99.89","","","","","","NA"
"2015-09-21 03:00","2015","09","21","03:00","14.6","","13.0","","90","","26","","2","","","","99.90","","","","","","NA"
"2015-09-21 04:00","2015","09","21","04:00","14.0","","12.7","","92","","5","","3","","","","99.90","","","","","","NA"
"2015-09-21 05:00","2015","09","21","05:00","13.4","","12.2","","92","","4","","5","","","","99.94","","","","","","NA"
"2015-09-21 06:00","2015","09","21","06:00","13.5","","12.1","","91","","7","","6","","","","99.99","","","","","","NA"
"2015-09-21 07:00","2015","09","21","07:00","14.6","","13.4","","93","","6","","6","","","","100.02","","","","","","NA"
"2015-09-21 08:00","2015","09","21","08:00","16.0","","14.0","","88","","7","","5","","","","100.05","","","","","","NA"
"2015-09-21 09:00","2015","09","21","09:00","16.9","","14.5","","86","","8","","7","","","","100.06","","","","","","NA"
"2015-09-21 10:00","2015","09","21","10:00","17.2","","13.8","","81","","9","","7","","","","100.07","","","","","","NA"
"2015-09-21 11:00","2015","09","21","11:00","17.3","","14.2","","82","","15","","14","","","","100.08","","","","","","NA"
"2015-09-21 12:00","2015","09","21","12:00","17.1","","14.5","","84","","16","","19","","","","100.07","","","","","","NA"
"2015-09-21 13:00","2015","09","21","13:00","17.4","","12.8","","75","","16","","21","","","","100.04","","","","","","NA"
"2015-09-21 14:00","2015","09","21","14:00","17.6","","11.3","","66","","16","","20","","","","100.01","","","","","","NA"
"2015-09-21 15:00","2015","09","21","15:00","17.6","","11.9","","69","","16","","17","","","","99.97","","","","","","NA"
"2015-09-21 16:00","2015","09","21","16:00","17.7","","12.3","","71","","16","","20","","","","99.95","","","","","","NA"
"2015-09-21 17:00","2015","09","21","17:00","17.5","","12.9","","74","","16","","18","","","","99.94","","","","","","NA"
"2015-09-21 18:00","2015","09","21","18:00","18.0","","10.8","","63","","17","","15","","","","99.91","","","","","","NA"
"2015-09-21 19:00","2015","09","21","19:00","17.2","","13.6","","80","","17","","12","","","","99.91","","","","","","NA"
"2015-09-21 20:00","2015","09","21","20:00","17.2","","11.2","","68","","16","","19","","","","99.92","","","","","","NA"
"2015-09-21 21:00","2015","09","21","21:00","17.2","","12.4","","74","","16","","15","","","","99.92","","","","","","NA"
"2015-09-21 22:00","2015","09","21","22:00","17.3","","12.9","","75","","16","","15","","","","99.91","","","","","","NA"
"2015-09-21 23:00","2015","09","21","23:00","17.4","","13.1","","76","","16","","14","","","","99.88","","","","","","NA"
"2015-09-22 00:00","2015","09","22","00:00","17.8","","13.1","","74","","17","","24","","","","99.86","","","","","","NA"
"2015-09-22 01:00","2015","09","22","01:00","17.6","","11.3","","67","","17","","31","","","","99.83","","","","","","NA"
"2015-09-22 02:00","2015","09","22","02:00","17.1","","12.7","","75","","19","","24","","","","99.85","","","","","","NA"
"2015-09-22 03:00","2015","09","22","03:00","17.1","","11.1","","68","","20","","26","","","","99.84","","","","","","NA"
"2015-09-22 04:00","2015","09","22","04:00","16.9","","10.9","","68","","20","","30","","","","99.87","","","","","","NA"
"2015-09-22 05:00","2015","09","22","05:00","16.5","","11.5","","72","","21","","27","","","","99.90","","","","","","NA"
"2015-09-22 06:00","2015","09","22","06:00","16.4","","10.6","","68","","22","","25","","","","99.97","","","","","","NA"
"2015-09-22 07:00","2015","09","22","07:00","16.4","","10.6","","69","","22","","22","","","","100.03","","","","","","NA"
"2015-09-22 08:00","2015","09","22","08:00","16.7","","11.5","","71","","21","","15","","","","100.06","","","","","","NA"
"2015-09-22 09:00","2015","09","22","09:00","16.9","","12.2","","74","","21","","14","","","","100.05","","","","","","NA"
"2015-09-22 10:00","2015","09","22","10:00","17.4","","13.1","","76","","19","","17","","","","100.07","","","","","","NA"
"2015-09-22 11:00","2015","09","22","11:00","17.3","","13.9","","80","","18","","21","","","","100.04","","","","","","NA"
"2015-09-22 12:00","2015","09","22","12:00","17.6","","14.0","","80","","19","","24","","","","99.99","","","","","","NA"
"2015-09-22 13:00","2015","09","22","13:00","17.6","","14.6","","83","","18","","28","","","","99.96","","","","","","NA"
"2015-09-22 14:00","2015","09","22","14:00","17.9","","13.4","","75","","19","","28","","","","99.94","","","","","","NA"
"2015-09-22 15:00","2015","09","22","15:00","18.0","","13.7","","76","","19","","29","","","","99.91","","","","","","NA"
"2015-09-22 16:00","2015","09","22","16:00","18.8","","12.6","","67","","20","","22","","","","99.95","","","","","","NA"
"2015-09-22 17:00","2015","09","22","17:00","19.2","","12.0","","63","","22","","22","","","","99.95","","","","","","NA"
"2015-09-22 18:00","2015","09","22","18:00","18.8","","11.3","","62","","22","","22","","","","99.96","","","","","","NA"
"2015-09-22 19:00","2015","09","22","19:00","18.0","","13.5","","75","","21","","8","","","","99.98","","","","","","NA"
"2015-09-22 20:00","2015","09","22","20:00","17.3","","12.3","","72","","24","","9","","","","100.01","","","","","","NA"
"2015-09-22 21:00","2015","09","22","21:00","16.7","","12.1","","74","","26","","7","","","","100.05","","","","","","NA"
"2015-09-22 22:00","2015","09","22","22:00","16.5","","12.7","","78","","25","","6","","","","100.05","","","","","","NA"
"2015-09-22 23:00","2015","09","22","23:00","16.5","","12.6","","78","","30","","4","","","","100.06","","","","","","NA"
"2015-09-23 00:00","2015","09","23","00:00","15.8","","12.7","","82","","28","","3","","","","100.07","","","","","","NA"
"2015-09-23 01:00","2015","09","23","01:00","16.8","","12.8","","77","","26","","5","","","","100.09","","","","","","NA"
"2015-09-23 02:00","2015","09","23","02:00","16.9","","12.6","","76","","28","","6","","","","100.06","","","","","","NA"
"2015-09-23 03:00","2015","09","23","03:00","17.2","","13.0","","76","","29","","5","","","","100.05","","","","","","NA"
"2015-09-23 04:00","2015","09","23","04:00","17.2","","13.7","","80","","24","","3","","","","100.05","","","","","","NA"
"2015-09-23 05:00","2015","09","23","05:00","16.9","","14.5","","85","","26","","1","","","","100.10","","","","","","NA"
"2015-09-23 06:00","2015","09","23","06:00","16.8","","14.2","","85","","35","","3","","","","100.15","","","","","","NA"
"2015-09-23 07:00","2015","09","23","07:00","16.9","","14.6","","87","","35","","3","","","","100.22","","","","","","NA"
"2015-09-23 08:00","2015","09","23","08:00","17.4","","14.0","","81","","36","","6","","","","100.31","","","","","","NA"
"2015-09-23 09:00","2015","09","23","09:00","18.2","","13.1","","72","","7","","5","","","","100.33","","","","","","NA"
"2015-09-23 10:00","2015","09","23","10:00","18.5","","13.4","","72","","13","","10","","","","100.34","","","","","","NA"
"2015-09-23 11:00","2015","09","23","11:00","18.8","","14.6","","77","","18","","10","","","","100.32","","","","","","NA"
"2015-09-23 12:00","2015","09","23","12:00","18.5","","14.1","","76","","21","","14","","","","100.34","","","","","","NA"
"2015-09-23 13:00","2015","09","23","13:00","18.7","","14.2","","75","","20","","15","","","","100.32","","","","","","NA"
"2015-09-23 14:00","2015","09","23","14:00","19.2","","14.5","","74","","21","","18","","","","100.27","","","","","","NA"
"2015-09-23 15:00","2015","09","23","15:00","20.4","","13.5","","65","","23","","13","","","","100.23","","","","","","NA"
"2015-09-23 16:00","2015","09","23","16:00","22.2","","9.0","","43","","29","","12","","","","100.24","","","","","","NA"
"2015-09-23 17:00","2015","09","23","17:00","22.6","","9.5","","43","","30","","8","","","","100.27","","","","","","NA"
"2015-09-23 18:00","2015","09","23","18:00","21.3","","11.7","","55","","12","","2","","","","100.26","","","","","","NA"
"2015-09-23 19:00","2015","09","23","19:00","18.2","","11.8","","66","","33","","6","","","","100.30","","","","","","NA"
"2015-09-23 20:00","2015","09","23","20:00","18.4","","9.5","","56","","4","","9","","","","100.34","","","","","","NA"
"2015-09-23 21:00","2015","09","23","21:00","17.2","","7.4","","53","","2","","12","","","","100.37","","","","","","NA"
"2015-09-23 22:00","2015","09","23","22:00","16.7","","6.9","","52","","3","","11","","","","100.40","","","","","","NA"
"2015-09-23 23:00","2015","09","23","23:00","16.4","","6.6","","52","","5","","13","","","","100.42","","","","","","NA"
"2015-09-24 00:00","2015","09","24","00:00","16.2","","5.8","","50","","6","","14","","","","100.46","","","","","","NA"
"2015-09-24 01:00","2015","09","24","01:00","15.4","","6.3","","55","","6","","18","","","","100.48","","","","","","NA"
"2015-09-24 02:00","2015","09","24","02:00","14.5","","5.7","","56","","6","","17","","","","100.51","","","","","","NA"
"2015-09-24 03:00","2015","09","24","03:00","14.0","","5.2","","55","","6","","18","","","","100.52","","","","","","NA"
"2015-09-24 04:00","2015","09","24","04:00","13.9","","4.9","","55","","6","","16","","","","100.58","","","","","","NA"
"2015-09-24 05:00","2015","09","24","05:00","13.4","","5.2","","58","","6","","19","","","","100.60","","","","","","NA"
"2015-09-24 06:00","2015","09","24","06:00","13.0","","5.1","","59","","6","","15","","","","100.68","","","","","","NA"
"2015-09-24 07:00","2015","09","24","07:00","13.9","","5.3","","56","","6","","18","","","","100.73","","","","","","NA"
"2015-09-24 08:00","2015","09","24","08:00","13.9","","6.2","","60","","7","","19","","","","100.73","","","","","","NA"
"2015-09-24 09:00","2015","09","24","09:00","15.1","","6.5","","57","","7","","21","","","","100.76","","","","","","NA"
"2015-09-24 10:00","2015","09","24","10:00","16.3","","6.7","","53","","7","","18","","","","100.74","","","","","","NA"
"2015-09-24 11:00","2015","09","24","11:00","17.9","","7.2","","49","","7","","17","","","","100.73","","","","","","NA"
"2015-09-24 12:00","2015","09","24","12:00","19.1","","8.0","","49","","8","","17","","","","100.71","","","","","","NA"
"2015-09-24 13:00","2015","09","24","13:00","19.8","","7.4","","45","","7","","17","","","","100.66","","","","","","NA"
"2015-09-24 14:00","2015","09","24","14:00","19.7","","8.6","","49","","8","","18","","","","100.63","","","","","","NA"
"2015-09-24 15:00","2015","09","24","15:00","20.2","","8.0","","45","","8","","18","","","","100.60","","","","","","NA"
"2015-09-24 16:00","2015","09","24","16:00","20.4","","8.2","","46","","8","","14","","","","100.57","","","","","","NA"
"2015-09-24 17:00","2015","09","24","17:00","20.2","","8.2","","46","","7","","10","","","","100.55","","","","","","NA"
"2015-09-24 18:00","2015","09","24","18:00","19.0","","8.2","","49","","6","","11","","","","100.57","","","","","","NA"
"2015-09-24 19:00","2015","09","24","19:00","17.9","","8.4","","54","","6","","8","","","","100.59","","","","","","NA"
"2015-09-24 20:00","2015","09","24","20:00","17.3","","6.9","","51","","6","","18","","","","100.60","","","","","","NA"
"2015-09-24 21:00","2015","09","24","21:00","16.3","","5.8","","50","","6","","19","","","","100.61","","","","","","NA"
"2015-09-24 22:00","2015","09","24","22:00","15.3","","6.1","","54","","5","","16","","","","100.60","","","","","","NA"
"2015-09-24 23:00","2015","09","24","23:00","14.8","","6.5","","57","","6","","20","","","","100.60","","","","","","NA"
"2015-09-25 00:00","2015","09","25","00:00","14.4","","6.8","","60","","6","","18","","","","100.57","","","","","","NA"
"2015-09-25 01:00","2015","09","25","01:00","14.1","","6.8","","61","","6","","17","","","","100.54","","","","","","NA"
"2015-09-25 02:00","2015","09","25","02:00","13.9","","7.0","","63","","6","","13","","","","100.55","","","","","","NA"
"2015-09-25 03:00","2015","09","25","03:00","14.0","","7.3","","64","","6","","14","","","","100.53","","","","","","NA"
"2015-09-25 04:00","2015","09","25","04:00","14.0","","7.6","","65","","6","","14","","","","100.54","","","","","","NA"
"2015-09-25 05:00","2015","09","25","05:00","14.0","","7.6","","66","","6","","16","","","","100.55","","","","","","NA"
"2015-09-25 06:00","2015","09","25","06:00","14.2","","8.5","","69","","7","","21","","","","100.58","","","","","","NA"
"2015-09-25 07:00","2015","09","25","07:00","14.0","","8.1","","68","","7","","20","","","","100.64","","","","","","NA"
"2015-09-25 08:00","2015","09","25","08:00","13.9","","7.8","","67","","6","","15","","","","100.67","","","","","","NA"
"2015-09-25 09:00","2015","09","25","09:00","14.4","","8.4","","67","","7","","19","","","","100.71","","","","","","NA"
"2015-09-25 10:00","2015","09","25","10:00","14.9","","8.6","","66","","7","","19","","","","100.70","","","","","","NA"
"2015-09-25 11:00","2015","09","25","11:00","15.5","","8.7","","64","","9","","15","","","","100.68","","","","","","NA"
"2015-09-25 12:00","2015","09","25","12:00","15.9","","8.5","","61","","11","","17","","","","100.69","","","","","","NA"
"2015-09-25 13:00","2015","09","25","13:00","16.1","","9.0","","63","","13","","17","","","","100.67","","","","","","NA"
"2015-09-25 14:00","2015","09","25","14:00","16.4","","9.5","","64","","12","","12","","","","100.62","","","","","","NA"
"2015-09-25 15:00","2015","09","25","15:00","16.9","","8.6","","58","","12","","12","","","","100.60","","","","","","NA"
"2015-09-25 16:00","2015","09","25","16:00","17.6","","8.9","","57","","6","","12","","","","100.60","","","","","","NA"
"2015-09-25 17:00","2015","09","25","17:00","17.5","","9.9","","61","","6","","9","","","","100.61","","","","","","NA"
"2015-09-25 18:00","2015","09","25","18:00","16.7","","10.1","","65","","6","","11","","","","100.63","","","","","","NA"
"2015-09-25 19:00","2015","09","25","19:00","16.1","","9.8","","66","","7","","16","","","","100.64","","","","","","NA"
"2015-09-25 20:00","2015","09","25","20:00","15.1","","9.3","","68","","7","","13","","","","100.67","","","","","","NA"
"2015-09-25 21:00","2015","09","25","21:00","14.7","","8.7","","67","","7","","17","","","","100.71","","","","","","NA"
"2015-09-25 22:00","2015","09","25","22:00","13.9","","8.2","","68","","6","","17","","","","100.75","","","","","","NA"
"2015-09-25 23:00","2015","09","25","23:00","13.4","","8.1","","70","","7","","19","","","","100.74","","","","","","NA"
"2015-09-26 00:00","2015","09","26","00:00","13.0","","8.0","","72","","7","","15","","","","100.71","","","","","","NA"
"2015-09-26 01:00","2015","09","26","01:00","12.3","","7.7","","73","","7","","15","","","","100.74","","","","","","NA"
"2015-09-26 02:00","2015","09","26","02:00","12.2","","8.6","","79","","7","","18","","","","100.74","","","","","","NA"
"2015-09-26 03:00","2015","09","26","03:00","11.3","","8.0","","80","","7","","14","","","","100.74","","","","","","NA"
"2015-09-26 04:00","2015","09","26","04:00","11.0","","7.5","","79","","6","","14","","","","100.75","","","","","","NA"
"2015-09-26 05:00","2015","09","26","05:00","11.2","","7.8","","79","","6","","13","","","","100.78","","","","","","NA"
"2015-09-26 06:00","2015","09","26","06:00","11.4","","7.6","","78","","7","","15","","","","100.81","","","","","","NA"
"2015-09-26 07:00","2015","09","26","07:00","12.0","","8.1","","77","","7","","18","","","","100.86","","","","","","NA"
"2015-09-26 08:00","2015","09","26","08:00","12.0","","8.2","","78","","8","","20","","","","100.86","","","","","","NA"
"2015-09-26 09:00","2015","09","26","09:00","12.9","","9.0","","77","","8","","17","","","","100.86","","","","","","NA"
"2015-09-26 10:00","2015","09","26","10:00","15.0","","10.6","","75","","11","","25","","","","100.86","","","","","","NA"
"2015-09-26 11:00","2015","09","26","11:00","15.7","","10.9","","73","","12","","24","","","","100.83","","","","","","NA"
"2015-09-26 12:00","2015","09","26","12:00","15.8","","10.2","","69","","13","","20","","","","100.81","","","","","","NA"
"2015-09-26 13:00","2015","09","26","13:00","15.9","","10.7","","71","","13","","20","","","","100.76","","","","","","NA"
"2015-09-26 14:00","2015","09","26","14:00","16.1","","10.2","","68","","13","","18","","","","100.66","","","","","","NA"
"2015-09-26 15:00","2015","09","26","15:00","16.6","","9.5","","63","","14","","21","","","","100.59","","","","","","NA"
"2015-09-26 16:00","2015","09","26","16:00","17.0","","10.3","","65","","14","","17","","","","100.52","","","","","","NA"
"2015-09-26 17:00","2015","09","26","17:00","17.3","","10.2","","63","","14","","16","","","","100.48","","","","","","NA"
"2015-09-26 18:00","2015","09","26","18:00","17.3","","11.4","","68","","14","","14","","","","100.43","","","","","","NA"
"2015-09-26 19:00","2015","09","26","19:00","17.5","","12.3","","72","","13","","12","","","","100.39","","","","","","NA"
"2015-09-26 20:00","2015","09","26","20:00","17.6","","13.2","","75","","11","","9","","","","100.39","","","","","","NA"
"2015-09-26 21:00","2015","09","26","21:00","16.6","","12.4","","76","","8","","10","","","","100.36","","","","","","NA"
"2015-09-26 22:00","2015","09","26","22:00","18.3","","13.6","","74","","14","","12","","","","100.32","","","","","","NA"
"2015-09-26 23:00","2015","09","26","23:00","18.4","","13.9","","75","","15","","22","","","","100.30","","","","","","NA"
"2015-09-27 00:00","2015","09","27","00:00","18.2","","14.4","","79","","18","","20","","","","100.28","","","","","","NA"
"2015-09-27 01:00","2015","09","27","01:00","17.8","","14.1","","79","","18","","21","","","","100.24","","","","","","NA"
"2015-09-27 02:00","2015","09","27","02:00","17.5","","13.3","","77","","17","","22","","","","100.20","","","","","","NA"
"2015-09-27 03:00","2015","09","27","03:00","17.4","","13.9","","80","","17","","18","","","","100.16","","","","","","NA"
"2015-09-27 04:00","2015","09","27","04:00","17.3","","13.5","","79","","19","","15","","","","100.15","","","","","","NA"
"2015-09-27 05:00","2015","09","27","05:00","17.1","","13.7","","81","","19","","15","","","","100.12","","","","","","NA"
"2015-09-27 06:00","2015","09","27","06:00","17.0","","14.3","","84","","18","","15","","","","100.10","","","","","","NA"
"2015-09-27 07:00","2015","09","27","07:00","17.1","","14.6","","85","","18","","16","","","","100.11","","","","","","NA"
"2015-09-27 08:00","2015","09","27","08:00","17.5","","14.8","","84","","18","","15","","","","100.10","","","","","","NA"
"2015-09-27 09:00","2015","09","27","09:00","17.6","","14.8","","84","","19","","18","","","","100.06","","","","","","NA"
"2015-09-27 10:00","2015","09","27","10:00","17.8","","14.8","","83","","20","","24","","","","100.03","","","","","","NA"
"2015-09-27 11:00","2015","09","27","11:00","17.8","","14.9","","83","","20","","32","","","","99.98","","","","","","NA"
"2015-09-27 12:00","2015","09","27","12:00","17.7","","14.8","","83","","20","","35","","","","99.93","","","","","","NA"
"2015-09-27 13:00","2015","09","27","13:00","17.7","","14.9","","84","","20","","27","","","","99.85","","","","","","NA"
"2015-09-27 14:00","2015","09","27","14:00","17.7","","14.8","","83","","19","","34","","","","99.78","","","","","","NA"
"2015-09-27 15:00","2015","09","27","15:00","17.8","","14.5","","81","","18","","37","","","","99.72","","","","","","NA"
"2015-09-27 16:00","2015","09","27","16:00","18.0","","14.5","","80","","19","","23","","","","99.66","","","","","","NA"
"2015-09-27 17:00","2015","09","27","17:00","18.0","","14.7","","81","","19","","26","","","","99.61","","","","","","NA"
"2015-09-27 18:00","2015","09","27","18:00","17.9","","15.1","","84","","17","","21","","","","99.60","","","","","","NA"
"2015-09-27 19:00","2015","09","27","19:00","17.9","","15.2","","84","","19","","21","","","","99.58","","","","","","NA"
"2015-09-27 20:00","2015","09","27","20:00","17.9","","15.5","","86","","22","","11","","","","99.56","","","","","","NA"
"2015-09-27 21:00","2015","09","27","21:00","18.0","","15.5","","85","","24","","3","","","","99.53","","","","","","NA"
"2015-09-27 22:00","2015","09","27","22:00","18.4","","15.6","","84","","19","","17","","","","99.49","","","","","","NA"
"2015-09-27 23:00","2015","09","27","23:00","18.9","","15.2","","79","","19","","21","","","","99.45","","","","","","NA"
"2015-09-28 00:00","2015","09","28","00:00","18.9","","15.2","","79","","20","","23","","","","99.41","","","","","","NA"
"2015-09-28 01:00","2015","09","28","01:00","18.5","","15.8","","84","","23","","9","","","","99.37","","","","","","NA"
"2015-09-28 02:00","2015","09","28","02:00","19.4","","15.4","","78","","24","","21","","","","99.35","","","","","","NA"
"2015-09-28 03:00","2015","09","28","03:00","19.2","","15.6","","79","","24","","17","","","","99.31","","","","","","NA"
"2015-09-28 04:00","2015","09","28","04:00","18.7","","15.6","","82","","24","","14","","","","99.28","","","","","","NA"
"2015-09-28 05:00","2015","09","28","05:00","18.7","","15.7","","83","","24","","13","","","","99.26","","","","","","NA"
"2015-09-28 06:00","2015","09","28","06:00","18.4","","16.1","","86","","24","","13","","","","99.25","","","","","","NA"
"2015-09-28 07:00","2015","09","28","07:00","18.4","","16.1","","87","","24","","10","","","","99.26","","","","","","NA"
"2015-09-28 08:00","2015","09","28","08:00","18.4","","16.1","","86","","24","","6","","","","99.26","","","","","","NA"
"2015-09-28 09:00","2015","09","28","09:00","18.7","","16.1","","85","","24","","12","","","","99.28","","","","","","NA"
"2015-09-28 10:00","2015","09","28","10:00","18.5","","16.3","","87","","23","","5","","","","99.28","","","","","","NA"
"2015-09-28 11:00","2015","09","28","11:00","18.5","","16.3","","87","","23","","11","","","","99.26","","","","","","NA"
"2015-09-28 12:00","2015","09","28","12:00","18.4","","16.3","","88","","21","","13","","","","99.23","","","","","","NA"
"2015-09-28 13:00","2015","09","28","13:00","19.2","","16.5","","84","","20","","12","","","","99.17","","","","","","NA"
"2015-09-28 14:00","2015","09","28","14:00","18.7","","16.7","","88","","19","","26","","","","99.07","","","","","","NA"
"2015-09-28 15:00","2015","09","28","15:00","18.8","","16.6","","87","","19","","26","","","","99.00","","","","","","NA"
"2015-09-28 16:00","2015","09","28","16:00","19.1","","16.5","","85","","20","","24","","","","98.95","","","","","","NA"
"2015-09-28 17:00","2015","09","28","17:00","19.5","","16.7","","84","","20","","16","","","","98.96","","","","","","NA"
"2015-09-28 18:00","2015","09","28","18:00","19.5","","16.4","","83","","23","","23","","","","98.93","","","","","","NA"
"2015-09-28 19:00","2015","09","28","19:00","18.4","","16.8","","90","","22","","17","","","","98.94","","","","","","NA"
"2015-09-28 20:00","2015","09","28","20:00","19.1","","17.1","","88","","22","","17","","","","98.94","","","","","","NA"
"2015-09-28 21:00","2015","09","28","21:00","19.1","","17.4","","90","","27","","13","","","","98.96","","","","","","NA"
"2015-09-28 22:00","2015","09","28","22:00","18.9","","17.3","","91","","23","","9","","","","98.95","","","","","","NA"
"2015-09-28 23:00","2015","09","28","23:00","18.6","","17.0","","90","","29","","8","","","","98.97","","","","","","NA"
"2015-09-29 00:00","2015","09","29","00:00","18.5","","16.4","","88","","32","","10","","","","99.00","","","","","","NA"
"2015-09-29 01:00","2015","09","29","01:00","17.5","","14.0","","80","","34","","14","","","","99.02","","","","","","NA"
"2015-09-29 02:00","2015","09","29","02:00","16.6","","14.7","","89","","32","","13","","","","99.08","","","","","","NA"
"2015-09-29 03:00","2015","09","29","03:00","16.3","","14.8","","91","","30","","5","","","","99.06","","","","","","NA"
"2015-09-29 04:00","2015","09","29","04:00","15.8","","12.9","","83","","36","","8","","","","99.04","","","","","","NA"
"2015-09-29 05:00","2015","09","29","05:00","15.5","","12.8","","84","","35","","7","","","","99.08","","","","","","NA"
"2015-09-29 06:00","2015","09","29","06:00","15.2","","13.0","","87","","31","","7","","","","99.15","","","","","","NA"
"2015-09-29 07:00","2015","09","29","07:00","15.2","","11.5","","79","","35","","7","","","","99.18","","","","","","NA"
"2015-09-29 08:00","2015","09","29","08:00","15.9","","12.2","","79","","31","","8","","","","99.23","","","","","","NA"
"2015-09-29 09:00","2015","09","29","09:00","16.0","","13.6","","86","","30","","8","","","","99.30","","","","","","NA"
"2015-09-29 10:00","2015","09","29","10:00","15.7","","10.7","","72","","33","","10","","","","99.33","","","","","","NA"
"2015-09-29 11:00","2015","09","29","11:00","15.2","","9.9","","71","","34","","11","","","","99.37","","","","","","NA"
"2015-09-29 12:00","2015","09","29","12:00","14.5","","9.7","","73","","34","","10","","","","99.41","","","","","","NA"
"2015-09-29 13:00","2015","09","29","13:00","14.4","","9.4","","72","","35","","12","","","","99.39","","","","","","NA"
"2015-09-29 14:00","2015","09","29","14:00","14.5","","9.0","","70","","36","","11","","","","99.44","","","","","","NA"
"2015-09-29 15:00","2015","09","29","15:00","14.1","","8.0","","67","","2","","13","","","","99.43","","","","","","NA"
"2015-09-29 16:00","2015","09","29","16:00","14.4","","5.8","","56","","1","","16","","","","99.46","","","","","","NA"
"2015-09-29 17:00","2015","09","29","17:00","13.4","","5.8","","60","","1","","15","","","","99.53","","","","","","NA"
"2015-09-29 18:00","2015","09","29","18:00","12.5","","5.1","","61","","1","","11","","","","99.63","","","","","","NA"
"2015-09-29 19:00","2015","09","29","19:00","11.5","","4.6","","63","","2","","9","","","","99.68","","","","","","NA"
"2015-09-29 20:00","2015","09","29","20:00","10.2","","5.0","","70","","2","","8","","","","99.75","","","","","","NA"
"2015-09-29 21:00","2015","09","29","21:00","10.1","","4.6","","69","","2","","9","","","","99.82","","","","","","NA"
"2015-09-29 22:00","2015","09","29","22:00","9.6","","3.5","","66","","1","","7","","","","99.87","","","","","","NA"
"2015-09-29 23:00","2015","09","29","23:00","9.4","","3.0","","64","","1","","11","","","","99.92","","","","","","NA"
"2015-09-30 00:00","2015","09","30","00:00","8.8","","2.8","","66","","2","","12","","","","99.95","","","","","","NA"
"2015-09-30 01:00","2015","09","30","01:00","8.6","","1.9","","63","","2","","11","","","","99.98","","","","","","NA"
"2015-09-30 02:00","2015","09","30","02:00","8.1","","1.4","","63","","2","","12","","","","99.97","","","","","","NA"
"2015-09-30 03:00","2015","09","30","03:00","7.7","","1.1","","63","","1","","15","","","","99.98","","","","","","NA"
"2015-09-30 04:00","2015","09","30","04:00","7.3","","0.7","","63","","1","","13","","","","100.02","","","","","","NA"
"2015-09-30 05:00","2015","09","30","05:00","7.1","","0.4","","63","","1","","14","","","","100.05","","","","","","NA"
"2015-09-30 06:00","2015","09","30","06:00","6.8","","0.1","","63","","1","","11","","","","100.09","","","","","","NA"
"2015-09-30 07:00","2015","09","30","07:00","7.8","","-0.7","","55","","3","","11","","","","100.15","","","","","","NA"
"2015-09-30 08:00","2015","09","30","08:00","9.2","","-2.3","","44","","4","","14","","","","100.19","","","","","","NA"
"2015-09-30 09:00","2015","09","30","09:00","10.0","","-1.7","","44","","5","","19","","","","100.25","","","","","","NA"
"2015-09-30 10:00","2015","09","30","10:00"
"2015-09-30 11:00","2015","09","30","11:00"
"2015-09-30 12:00","2015","09","30","12:00","12.0","","-2.6","","36","","5","","14","","","","100.27","","","","","","NA"
"2015-09-30 13:00","2015","09","30","13:00","12.2","","-2.5","","36","","4","","18","","","","100.28","","","","","","NA"
"2015-09-30 14:00","2015","09","30","14:00","12.8","","-1.2","","38","","2","","15","","","","100.27","","","","","","NA"
"2015-09-30 15:00","2015","09","30","15:00","12.4","","-2.7","","35","","3","","20","","","","100.27","","","","","","NA"
"2015-09-30 16:00","2015","09","30","16:00","12.7","","-1.9","","36","","2","","18","","","","100.27","","","","","","NA"
"2015-09-30 17:00","2015","09","30","17:00","12.4","","-1.9","","37","","5","","14","","","","100.29","","","","","","NA"
"2015-09-30 18:00","2015","09","30","18:00","11.4","","-1.2","","42","","5","","12","","","","100.35","","","","","","NA"
"2015-09-30 19:00","2015","09","30","19:00","9.9","","-0.6","","48","","4","","11","","","","100.40","","","","","","NA"
"2015-09-30 20:00","2015","09","30","20:00","9.7","","-1.3","","46","","5","","13","","","","100.46","","","","","","NA"
"2015-09-30 21:00","2015","09","30","21:00","9.3","","-1.5","","47","","5","","12","","","","100.51","","","","","","NA"
"2015-09-30 22:00","2015","09","30","22:00","8.9","","-1.9","","46","","5","","13","","","","100.54","","","","","","NA"
"2015-09-30 23:00","2015","09","30","23:00","8.8","","-1.8","","47","","5","","14","","","","100.57","","","","","","NA"
