"Station Name","KILLARNEY (AUT)"
"Province","ONTARIO"
"Latitude","45.97"
"Longitude","-81.48"
"Elevation","196.30"
"Climate Identifier","605DJ25"
"WMO Identifier","71460"
"TC Identifier","WBE"
"All times are specified in Local Standard Time (LST). Add 1 hour to adjust for Daylight Saving Time where and when it is observed."

"Legend"
"E","Estimated"
"M","Missing"
"NA","Not Available"

"Date/Time","Year","Month","Day","Time","Temp (°C)","Temp Flag","Dew Point Temp (°C)","Dew Point Temp Flag","Rel Hum (%)","Rel Hum Flag","Wind Dir (10s deg)","Wind Dir Flag","Wind Spd (km/h)","Wind Spd Flag","Visibility (km)","Visibility Flag","Stn Press (kPa)","Stn Press Flag","Hmdx","Hmdx Flag","Wind Chill","Wind Chill Flag","Weather"
"2003-04-01 00:00","2003","04","01","00:00","-7.7","","-13.8","","62","","10","","6","","15.0","","99.13","","","","-11","","NA"
"2003-04-01 01:00","2003","04","01","01:00","-5.0","","-10.8","","64","","18","","17","","15.0","","99.00","","","","-11","","NA"
"2003-04-01 02:00","2003","04","01","02:00","-5.0","","-10.6","","65","","14","","28","","15.0","","98.84","","","","-13","","NA"
"2003-04-01 03:00","2003","04","01","03:00","-4.6","","-10.1","","65","","14","","26","","15.0","","98.77","","","","-12","","NA"
"2003-04-01 04:00","2003","04","01","04:00","-4.5","","-7.4","","80","","14","","33","","1.9","","98.59","","","","-13","","NA"
"2003-04-01 05:00","2003","04","01","05:00","-5.2","","-6.5","","91","","14","","39","","0.2","","98.45","","","","-14","","NA"
"2003-04-01 06:00","2003","04","01","06:00","-5.0","","-5.9","","93","","14","","37","","0.5","","98.37","","","","-14","","NA"
"2003-04-01 07:00","2003","04","01","07:00","-4.3","","-5.2","","93","","14","","35","","8.0","","98.37","","","","-13","","NA"
"2003-04-01 08:00","2003","04","01","08:00","-3.7","","-4.6","","93","","14","","35","","15.0","","98.30","","","","-12","","NA"
"2003-04-01 09:00","2003","04","01","09:00","-2.8","","-3.7","","94","","14","","32","","15.0","","98.23","","","","-10","","NA"
"2003-04-01 10:00","2003","04","01","10:00","-2.3","","-3.2","","94","","14","","28","","15.0","","98.21","","","","-9","","NA"
"2003-04-01 11:00","2003","04","01","11:00","-1.8","","-2.7","","94","","11","","22","","11.3","","98.27","","","","-8","","NA"
"2003-04-01 12:00","2003","04","01","12:00","-1.4","","-2.3","","94","","12","","22","","9.7","","98.21","","","","-7","","NA"
"2003-04-01 13:00","2003","04","01","13:00","-1.4","","-2.3","","94","","9","","17","","3.2","","98.27","","","","-7","","NA"
"2003-04-01 14:00","2003","04","01","14:00","-1.2","","-2.1","","94","","9","","17","","4.0","","98.28","","","","-6","","NA"
"2003-04-01 15:00","2003","04","01","15:00","-1.1","","-2.0","","94","","9","","15","","2.9","","98.37","","","","-6","","NA"
"2003-04-01 16:00","2003","04","01","16:00","-1.1","","-2.0","","94","","9","","13","","0.5","","98.43","","","","-5","","NA"
"2003-04-01 17:00","2003","04","01","17:00","-1.1","","-1.9","","94","","9","","11","","0.0","","98.54","","","","-5","","NA"
"2003-04-01 18:00","2003","04","01","18:00","-0.9","","-1.7","","94","","13","","9","","0.0","","98.64","","","","-4","","NA"
"2003-04-01 19:00","2003","04","01","19:00","-0.9","","-1.7","","94","","9","","11","","0.0","","98.72","","","","-5","","NA"
"2003-04-01 20:00","2003","04","01","20:00","-1.0","","-1.8","","94","","14","","7","","0.3","","98.86","","","","-4","","NA"
"2003-04-01 21:00","2003","04","01","21:00","-0.9","","-1.7","","94","","9","","4","","0.3","","98.93","","","","-2","","NA"
"2003-04-01 22:00","2003","04","01","22:00","-0.8","","-1.6","","94","","10","","2","","1.9","","98.93","","","","-1","","NA"
"2003-04-01 23:00","2003","04","01","23:00","-0.8","","-1.6","","94","","5","","4","","1.4","","99.00","","","","-2","","NA"
"2003-04-02 00:00","2003","04","02","00:00","-0.7","","-1.5","","94","","5","","4","","2.3","","99.06","","","","-2","","NA"
"2003-04-02 01:00","2003","04","02","01:00","-0.7","","-1.5","","94","","7","","4","","5.6","","99.08","","","","-2","","NA"
"2003-04-02 02:00","2003","04","02","02:00","-0.7","","-1.5","","94","","6","","2","","7.2","","99.11","","","","-1","","NA"
"2003-04-02 03:00","2003","04","02","03:00","-0.7","","-1.5","","94","","2","","6","","9.7","","99.18","","","","-3","","NA"
"2003-04-02 04:00","2003","04","02","04:00","-0.6","","-1.4","","94","","8","","2","","7.2","","99.27","","","","-1","","NA"
"2003-04-02 05:00","2003","04","02","05:00","-0.4","","-1.2","","94","","5","","6","","1.9","","99.33","","","","-2","","NA"
"2003-04-02 06:00","2003","04","02","06:00","-0.7","","-2.2","","90","","6","","9","","15.0","","99.38","","","","-4","","NA"
"2003-04-02 07:00","2003","04","02","07:00","-0.9","","-2.4","","90","","6","","15","","2.3","","99.40","","","","-6","","NA"
"2003-04-02 08:00","2003","04","02","08:00","-1.1","","-3.7","","82","","5","","13","","1.4","","99.45","","","","-5","","NA"
"2003-04-02 09:00","2003","04","02","09:00","-1.6","","-3.7","","86","","5","","11","","0.3","","99.54","","","","-5","","NA"
"2003-04-02 10:00","2003","04","02","10:00","-1.8","","-4.6","","81","","6","","17","","1.0","","99.65","","","","-7","","NA"
"2003-04-02 11:00","2003","04","02","11:00","-2.5","","-5.7","","79","","7","","22","","1.4","","99.67","","","","-9","","NA"
"2003-04-02 12:00","2003","04","02","12:00","-2.6","","-7.0","","72","","6","","20","","1.0","","99.71","","","","-9","","NA"
"2003-04-02 13:00","2003","04","02","13:00","-2.4","","-7.4","","68","","6","","20","","2.9","","99.71","","","","-8","","NA"
"2003-04-02 14:00","2003","04","02","14:00","-1.5","","-6.7","","68","","6","","15","","11.3","","99.71","","","","-6","","NA"
"2003-04-02 15:00","2003","04","02","15:00","-1.5","","-7.9","","62","","5","","15","","15.0","","99.69","","","","-6","","NA"
"2003-04-02 16:00","2003","04","02","16:00","-1.8","","-10.9","","50","","4","","19","","15.0","","99.74","","","","-7","","NA"
"2003-04-02 17:00","2003","04","02","17:00","-1.9","","-12.6","","44","","5","","13","","15.0","","99.72","","","","-6","","NA"
"2003-04-02 18:00","2003","04","02","18:00","-1.8","","-12.5","","44","","4","","15","","15.0","","99.78","","","","-7","","NA"
"2003-04-02 19:00","2003","04","02","19:00","-1.9","","-12.6","","44","","6","","11","","15.0","","99.74","","","","-6","","NA"
"2003-04-02 20:00","2003","04","02","20:00","-2.0","","-13.6","","41","","5","","9","","15.0","","99.83","","","","-5","","NA"
"2003-04-02 21:00","2003","04","02","21:00","-2.2","","-14.4","","39","","6","","9","","15.0","","99.87","","","","-6","","NA"
"2003-04-02 22:00","2003","04","02","22:00","-2.7","","-15.8","","36","","6","","17","","15.0","","99.89","","","","-8","","NA"
"2003-04-02 23:00","2003","04","02","23:00","-3.5","","-17.6","","33","","7","","17","","15.0","","99.89","","","","-9","","NA"
"2003-04-03 00:00","2003","04","03","00:00","-3.9","","-19.0","","30","","6","","15","","15.0","","99.94","","","","-9","","NA"
"2003-04-03 01:00","2003","04","03","01:00","-4.1","","-19.2","","30","","6","","19","","15.0","","99.90","","","","-10","","NA"
"2003-04-03 02:00","2003","04","03","02:00","-4.2","","-19.3","","30","","5","","13","","15.0","","99.92","","","","-9","","NA"
"2003-04-03 03:00","2003","04","03","03:00","-4.8","","-19.8","","30","","6","","20","","15.0","","99.92","","","","-11","","NA"
"2003-04-03 04:00","2003","04","03","04:00","-5.2","","-19.8","","31","","6","","17","","15.0","","99.94","","","","-11","","NA"
"2003-04-03 05:00","2003","04","03","05:00","-5.3","","-20.3","","30","","6","","19","","15.0","","99.94","","","","-12","","NA"
"2003-04-03 06:00","2003","04","03","06:00","-5.7","","-19.9","","32","","6","","17","","15.0","","99.96","","","","-12","","NA"
"2003-04-03 07:00","2003","04","03","07:00","-5.6","","-20.5","","30","","5","","17","","15.0","","100.07","","","","-12","","NA"
"2003-04-03 08:00","2003","04","03","08:00","-5.6","","-20.5","","30","","6","","22","","15.0","","100.05","","","","-13","","NA"
"2003-04-03 09:00","2003","04","03","09:00","-5.4","","-20.3","","30","","7","","20","","15.0","","100.10","","","","-12","","NA"
"2003-04-03 10:00","2003","04","03","10:00","-4.8","","-19.8","","30","","5","","17","","15.0","","100.14","","","","-11","","NA"
"2003-04-03 11:00","2003","04","03","11:00","-4.7","","-20.1","","29","","6","","17","","15.0","","100.14","","","","-11","","NA"
"2003-04-03 12:00","2003","04","03","12:00","-4.2","","-20.5","","27","","6","","19","","15.0","","100.10","","","","-10","","NA"
"2003-04-03 13:00","2003","04","03","13:00","-3.4","","-20.7","","25","","4","","19","","15.0","","100.03","","","","-9","","NA"
"2003-04-03 14:00","2003","04","03","14:00","-2.9","","-20.8","","24","","4","","17","","15.0","","99.99","","","","-8","","NA"
"2003-04-03 15:00","2003","04","03","15:00","-2.5","","-21.4","","22","","6","","24","","15.0","","99.85","","","","-9","","NA"
"2003-04-03 16:00","2003","04","03","16:00","-2.5","","-21.4","","22","","6","","19","","15.0","","99.87","","","","-8","","NA"
"2003-04-03 17:00","2003","04","03","17:00","-2.4","","-21.3","","22","","7","","13","","15.0","","99.94","","","","-7","","NA"
"2003-04-03 18:00","2003","04","03","18:00","-2.6","","-22.6","","20","","5","","17","","15.0","","99.83","","","","-8","","NA"
"2003-04-03 19:00","2003","04","03","19:00","-2.9","","-22.3","","21","","6","","19","","15.0","","99.92","","","","-9","","NA"
"2003-04-03 20:00","2003","04","03","20:00","-3.0","","-22.4","","21","","6","","17","","15.0","","99.85","","","","-9","","NA"
"2003-04-03 21:00","2003","04","03","21:00","-3.5","","-22.3","","22","","7","","24","","15.0","","99.81","","","","-10","","NA"
"2003-04-03 22:00","2003","04","03","22:00","-3.8","","-23.0","","21","","6","","20","","15.0","","99.87","","","","-10","","NA"
"2003-04-03 23:00","2003","04","03","23:00","-4.3","","-22.9","","22","","6","","19","","15.0","","99.89","","","","-10","","NA"
"2003-04-04 00:00","2003","04","04","00:00","-7.5","","-11.4","","74","","5","","19","","0.0","","99.96","","","","-15","","NA"
"2003-04-04 01:00","2003","04","04","01:00","-8.0","","-10.9","","80","","5","","17","","5.6","","99.96","","","","-15","","NA"
"2003-04-04 02:00","2003","04","04","02:00","-7.6","","-15.8","","52","","6","","20","","15.0","","99.76","","","","-15","","NA"
"2003-04-04 03:00","2003","04","04","03:00","-7.4","","-20.7","","34","","6","","24","","15.0","","99.67","","","","-15","","NA"
"2003-04-04 04:00","2003","04","04","04:00","-7.7","","-21.3","","33","","6","","22","","15.0","","99.74","","","","-15","","NA"
"2003-04-04 05:00","2003","04","04","05:00","-8.3","","-21.5","","34","","5","","20","","15.0","","99.76","","","","-16","","NA"
"2003-04-04 06:00","2003","04","04","06:00","-8.7","","-22.2","","33","","6","","28","","15.0","","99.80","","","","-18","","NA"
"2003-04-04 07:00","2003","04","04","07:00","-9.0","","-23.1","","31","","5","","22","","15.0","","99.89","","","","-17","","NA"
"2003-04-04 08:00","2003","04","04","08:00","-9.3","","-23.1","","32","","5","","26","","15.0","","99.83","","","","-18","","NA"
"2003-04-04 09:00","2003","04","04","09:00","-9.1","","-22.9","","32","","6","","24","","15.0","","99.83","","","","-17","","NA"
"2003-04-04 10:00","2003","04","04","10:00","-8.6","","-22.8","","31","","6","","24","","15.0","","99.90","","","","-17","","NA"
"2003-04-04 11:00","2003","04","04","11:00","-8.3","","-22.9","","30","","6","","28","","15.0","","99.87","","","","-17","","NA"
"2003-04-04 12:00","2003","04","04","12:00","-7.4","","-22.9","","28","","6","","32","","15.0","","99.78","","","","-16","","NA"
"2003-04-04 13:00","2003","04","04","13:00","-6.9","","-22.9","","27","","6","","30","","15.0","","99.71","","","","-15","","NA"
"2003-04-04 14:00","2003","04","04","14:00","-6.0","","-22.5","","26","","7","","35","","15.0","","99.63","","","","-15","","NA"
"2003-04-04 15:00","2003","04","04","15:00","-5.6","","-22.6","","25","","7","","32","","15.0","","99.62","","","","-14","","NA"
"2003-04-04 16:00","2003","04","04","16:00","-4.7","","-22.3","","24","","6","","24","","15.0","","99.49","","","","-12","","NA"
"2003-04-04 17:00","2003","04","04","17:00","-4.5","","-22.1","","24","","5","","20","","15.0","","99.49","","","","-11","","NA"
"2003-04-04 18:00","2003","04","04","18:00","-4.6","","-22.2","","24","","5","","22","","15.0","","99.51","","","","-11","","NA"
"2003-04-04 19:00","2003","04","04","19:00","-4.7","","-21.4","","26","","6","","20","","15.0","","99.42","","","","-11","","NA"
"2003-04-04 20:00","2003","04","04","20:00","-4.8","","-21.5","","26","","6","","19","","15.0","","99.47","","","","-11","","NA"
"2003-04-04 21:00","2003","04","04","21:00","-6.4","","-18.8","","37","","8","","35","","4.8","","99.36","","","","-15","","NA"
"2003-04-04 22:00","2003","04","04","22:00","-7.1","","-11.4","","71","","7","","32","","0.3","","99.31","","","","-16","","NA"
"2003-04-04 23:00","2003","04","04","23:00","-6.8","","-12.0","","66","","8","","37","","1.9","","99.20","","","","-16","","NA"
"2003-04-05 00:00","2003","04","05","00:00","-7.2","","-11.8","","70","","6","","26","","0.8","","99.06","","","","-15","","NA"
"2003-04-05 01:00","2003","04","05","01:00","-7.8","","-10.3","","82","","6","","19","","0.2","","98.97","","","","-15","","NA"
"2003-04-05 02:00","2003","04","05","02:00","-8.0","","-10.3","","83","","6","","24","","0.5","","98.79","","","","-16","","NA"
"2003-04-05 03:00","2003","04","05","03:00","-8.2","","-10.2","","85","","6","","28","","0.0","","98.63","","","","-17","","NA"
"2003-04-05 04:00","2003","04","05","04:00","-8.3","","-10.5","","84","","5","","22","","0.3","","98.59","","","","-16","","NA"
"2003-04-05 05:00","2003","04","05","05:00","-8.5","","-10.7","","84","","5","","24","","0.0","","98.52","","","","-17","","NA"
"2003-04-05 06:00","2003","04","05","06:00","-8.5","","-11.0","","82","","5","","28","","0.3","","98.52","","","","-17","","NA"
"2003-04-05 07:00","2003","04","05","07:00","-8.3","","-11.1","","80","","5","","30","","0.2","","98.46","","","","-17","","NA"
"2003-04-05 08:00","2003","04","05","08:00","-8.4","","-11.2","","80","","5","","24","","0.2","","98.48","","","","-17","","NA"
"2003-04-05 09:00","2003","04","05","09:00","-8.3","","-10.5","","84","","4","","19","","0.0","","98.43","","","","-16","","NA"
"2003-04-05 10:00","2003","04","05","10:00","-7.4","","-11.3","","74","","3","","19","","9.7","","98.45","","","","-14","","NA"
"2003-04-05 11:00","2003","04","05","11:00","-7.9","","-11.1","","78","","1","","17","","0.3","","98.55","","","","-15","","NA"
"2003-04-05 12:00","2003","04","05","12:00","-7.6","","-11.9","","71","","1","","20","","2.6","","98.54","","","","-15","","NA"
"2003-04-05 13:00","2003","04","05","13:00","-6.7","","-11.9","","66","","36","","20","","4.8","","98.66","","","","-14","","NA"
"2003-04-05 14:00","2003","04","05","14:00","-6.6","","-12.0","","65","","1","","20","","2.6","","98.77","","","","-14","","NA"
"2003-04-05 15:00","2003","04","05","15:00","-6.4","","-11.2","","69","","36","","19","","2.6","","98.90","","","","-13","","NA"
"2003-04-05 16:00","2003","04","05","16:00","-6.1","","-11.3","","67","","36","","15","","4.8","","99.00","","","","-12","","NA"
"2003-04-05 17:00","2003","04","05","17:00","-5.6","","-12.6","","58","","36","","20","","15.0","","99.17","","","","-12","","NA"
"2003-04-05 18:00","2003","04","05","18:00","-6.0","","-13.2","","57","","36","","17","","15.0","","99.36","","","","-12","","NA"
"2003-04-05 19:00","2003","04","05","19:00","-6.7","","-12.9","","61","","36","","19","","15.0","","99.56","","","","-14","","NA"
"2003-04-05 20:00","2003","04","05","20:00","-7.3","","-12.8","","65","","34","","19","","15.0","","99.76","","","","-14","","NA"
"2003-04-05 21:00","2003","04","05","21:00","-8.0","","-14.5","","59","","36","","15","","15.0","","99.87","","","","-14","","NA"
"2003-04-05 22:00","2003","04","05","22:00","-8.9","","-14.4","","64","","34","","11","","15.0","","99.96","","","","-14","","NA"
"2003-04-05 23:00","2003","04","05","23:00","-9.3","","-14.6","","65","","35","","11","","15.0","","100.07","","","","-15","","NA"
"2003-04-06 00:00","2003","04","06","00:00","-10.0","","-15.2","","66","","32","","9","","15.0","","100.21","","","","-15","","NA"
"2003-04-06 01:00","2003","04","06","01:00","-10.7","","-15.4","","68","","32","","13","","15.0","","100.32","","","","-17","","NA"
"2003-04-06 02:00","2003","04","06","02:00","-11.4","","-16.2","","68","","32","","15","","15.0","","100.39","","","","-18","","NA"
"2003-04-06 03:00","2003","04","06","03:00","-12.2","","-17.2","","66","","33","","6","","15.0","","100.48","","","","-16","","NA"
"2003-04-06 04:00","2003","04","06","04:00","-12.2","","-17.7","","64","","35","","7","","15.0","","100.53","","","","-17","","NA"
"2003-04-06 05:00","2003","04","06","05:00","-12.9","","-17.7","","67","","29","","4","","15.0","","100.64","","","","-16","","NA"
"2003-04-06 06:00","2003","04","06","06:00","-13.2","","-18.3","","65","","35","","4","","15.0","","100.75","","","","-16","","NA"
"2003-04-06 07:00","2003","04","06","07:00","-12.8","","-19.2","","59","","1","","4","","15.0","","100.84","","","","-15","","NA"
"2003-04-06 08:00","2003","04","06","08:00","-11.3","","-19.1","","52","","1","","9","","15.0","","100.91","","","","-16","","NA"
"2003-04-06 09:00","2003","04","06","09:00","-11.7","","-20.8","","47","","21","","9","","15.0","","101.00","","","","-17","","NA"
"2003-04-06 10:00","2003","04","06","10:00","-11.7","","-19.0","","55","","23","","13","","15.0","","101.04","","","","-18","","NA"
"2003-04-06 11:00","2003","04","06","11:00","-9.9","","-17.3","","55","","23","","17","","15.0","","101.00","","","","-17","","NA"
"2003-04-06 12:00","2003","04","06","12:00","-8.8","","-16.1","","55","","23","","19","","15.0","","101.06","","","","-16","","NA"
"2003-04-06 13:00","2003","04","06","13:00","-7.3","","-16.5","","48","","20","","13","","15.0","","101.09","","","","-13","","NA"
"2003-04-06 14:00","2003","04","06","14:00","-6.7","","-15.2","","51","","19","","20","","15.0","","101.06","","","","-14","","NA"
"2003-04-06 15:00","2003","04","06","15:00","-5.9","","-15.0","","49","","19","","17","","15.0","","101.04","","","","-12","","NA"
"2003-04-06 16:00","2003","04","06","16:00","-5.7","","-12.9","","57","","21","","17","","15.0","","101.04","","","","-12","","NA"
"2003-04-06 17:00","2003","04","06","17:00","-6.2","","-12.8","","59","","18","","19","","15.0","","101.04","","","","-13","","NA"
"2003-04-06 18:00","2003","04","06","18:00","-6.9","","-13.4","","60","","20","","11","","15.0","","101.06","","","","-12","","NA"
"2003-04-06 19:00","2003","04","06","19:00","-7.3","","-11.7","","71","","20","","4","","15.0","","101.09","","","","-9","","NA"
"2003-04-06 20:00","2003","04","06","20:00","-8.0","","-11.4","","76","","18","","4","","15.0","","101.18","","","","-10","","NA"
"2003-04-06 21:00","2003","04","06","21:00","-7.1","","-10.4","","77","","34","","4","","15.0","","101.24","","","","-9","","NA"
"2003-04-06 22:00","2003","04","06","22:00","-7.7","","-11.6","","74","","36","","6","","15.0","","101.22","","","","-11","","NA"
"2003-04-06 23:00","2003","04","06","23:00","-9.0","","-12.9","","73","","","","0","","15.0","","101.27","","","","","","NA"
"2003-04-07 00:00","2003","04","07","00:00","-7.4","","-13.9","","60","","35","","7","","15.0","","101.31","","","","-11","","NA"
"2003-04-07 01:00","2003","04","07","01:00","-6.6","","-16.7","","44","","2","","6","","15.0","","101.33","","","","-10","","NA"
"2003-04-07 02:00","2003","04","07","02:00","-5.9","","-16.6","","43","","3","","9","","15.0","","101.33","","","","-10","","NA"
"2003-04-07 03:00","2003","04","07","03:00","-9.8","","-18.8","","48","","6","","4","","15.0","","101.33","","","","-12","","NA"
"2003-04-07 04:00","2003","04","07","04:00","-8.3","","-16.3","","52","","6","","17","","15.0","","101.27","","","","-15","","NA"
"2003-04-07 05:00","2003","04","07","05:00","-8.9","","-17.5","","50","","6","","19","","15.0","","101.25","","","","-16","","NA"
"2003-04-07 06:00","2003","04","07","06:00","-9.2","","-18.5","","47","","7","","24","","15.0","","101.22","","","","-18","","NA"
"2003-04-07 07:00","2003","04","07","07:00","-10.6","","-18.6","","52","","9","","24","","15.0","","101.31","","","","-19","","NA"
"2003-04-07 08:00","2003","04","07","08:00","-8.5","","-18.4","","45","","8","","26","","15.0","","101.36","","","","-17","","NA"
"2003-04-07 09:00","2003","04","07","09:00","-6.7","","-17.6","","42","","8","","26","","15.0","","101.40","","","","-15","","NA"
"2003-04-07 10:00","2003","04","07","10:00","-5.9","","-17.7","","39","","9","","32","","15.0","","101.34","","","","-14","","NA"
"2003-04-07 11:00","2003","04","07","11:00","-4.8","","-19.4","","31","","8","","32","","15.0","","101.31","","","","-13","","NA"
"2003-04-07 12:00","2003","04","07","12:00","-4.2","","-20.5","","27","","7","","30","","15.0","","101.22","","","","-12","","NA"
"2003-04-07 13:00","2003","04","07","13:00","-3.2","","-21.0","","24","","7","","30","","15.0","","101.16","","","","-11","","NA"
"2003-04-07 14:00","2003","04","07","14:00","-2.6","","-20.0","","25","","8","","35","","15.0","","101.04","","","","-10","","NA"
"2003-04-07 15:00","2003","04","07","15:00","-1.1","","-19.7","","23","","6","","30","","15.0","","100.95","","","","-8","","NA"
"2003-04-07 16:00","2003","04","07","16:00","-0.9","","-19.5","","23","","7","","26","","15.0","","100.95","","","","-7","","NA"
"2003-04-07 17:00","2003","04","07","17:00","-1.0","","-19.1","","24","","7","","24","","15.0","","100.93","","","","-7","","NA"
"2003-04-07 18:00","2003","04","07","18:00","-1.4","","-19.5","","24","","6","","24","","15.0","","100.93","","","","-8","","NA"
"2003-04-07 19:00","2003","04","07","19:00","-1.6","","-19.2","","25","","6","","22","","15.0","","100.95","","","","-8","","NA"
"2003-04-07 20:00","2003","04","07","20:00","-2.0","","-19.5","","25","","7","","22","","15.0","","100.98","","","","-8","","NA"
"2003-04-07 21:00","2003","04","07","21:00","-2.3","","-18.9","","27","","6","","20","","15.0","","100.97","","","","-8","","NA"
"2003-04-07 22:00","2003","04","07","22:00","-2.4","","-19.0","","27","","6","","20","","15.0","","100.91","","","","-8","","NA"
"2003-04-07 23:00","2003","04","07","23:00","-2.9","","-19.0","","28","","6","","19","","15.0","","100.89","","","","-9","","NA"
"2003-04-08 00:00","2003","04","08","00:00","-3.2","","-19.2","","28","","5","","15","","15.0","","100.84","","","","-8","","NA"
"2003-04-08 01:00","2003","04","08","01:00","-3.5","","-19.1","","29","","6","","19","","15.0","","100.86","","","","-9","","NA"
"2003-04-08 02:00","2003","04","08","02:00","-4.0","","-19.5","","29","","6","","19","","15.0","","100.80","","","","-10","","NA"
"2003-04-08 03:00","2003","04","08","03:00","-4.7","","-19.7","","30","","6","","17","","15.0","","100.77","","","","-11","","NA"
"2003-04-08 04:00","2003","04","08","04:00","-4.6","","-19.6","","30","","6","","20","","15.0","","100.73","","","","-11","","NA"
"2003-04-08 05:00","2003","04","08","05:00","-4.8","","-19.8","","30","","6","","17","","15.0","","100.73","","","","-11","","NA"
"2003-04-08 06:00","2003","04","08","06:00","-5.2","","-20.2","","30","","6","","15","","15.0","","100.77","","","","-11","","NA"
"2003-04-08 07:00","2003","04","08","07:00","-5.2","","-20.2","","30","","6","","17","","15.0","","100.79","","","","-11","","NA"
"2003-04-08 08:00","2003","04","08","08:00","-3.5","","-19.1","","29","","6","","15","","15.0","","100.77","","","","-9","","NA"
"2003-04-08 09:00","2003","04","08","09:00","-3.3","","-18.5","","30","","8","","24","","15.0","","100.73","","","","-10","","NA"
"2003-04-08 10:00","2003","04","08","10:00","-1.9","","-16.1","","33","","9","","20","","15.0","","100.73","","","","-8","","NA"
"2003-04-08 11:00","2003","04","08","11:00","-0.2","","-15.0","","32","","12","","13","","15.0","","100.71","","","","-4","","NA"
"2003-04-08 12:00","2003","04","08","12:00","-0.8","","-14.8","","34","","20","","7","","15.0","","100.66","","","","-3","","NA"
"2003-04-08 13:00","2003","04","08","13:00","-0.9","","-13.5","","38","","23","","11","","15.0","","100.59","","","","-5","","NA"
"2003-04-08 14:00","2003","04","08","14:00","-1.0","","-11.5","","45","","22","","17","","15.0","","100.53","","","","-6","","NA"
"2003-04-08 15:00","2003","04","08","15:00","-0.1","","-12.5","","39","","23","","19","","15.0","","100.46","","","","-5","","NA"
"2003-04-08 16:00","2003","04","08","16:00","1.0","","-12.8","","35","","22","","17","","15.0","","100.43","","","","","","NA"
"2003-04-08 17:00","2003","04","08","17:00","4.7","","-14.8","","23","","35","","7","","15.0","","100.39","","","","","","NA"
"2003-04-08 18:00","2003","04","08","18:00"
"2003-04-08 19:00","2003","04","08","19:00","3.0","","-19.1","","18","","36","","7","","15.0","","100.43","","","","","","NA"
"2003-04-08 20:00","2003","04","08","20:00","3.0","","-19.1","","18","","36","","7","","15.0","","100.43","","","","","","NA"
"2003-04-08 21:00","2003","04","08","21:00","1.9","","-20.7","","17","","5","","7","","15.0","","100.46","","","","","","NA"
"2003-04-08 22:00","2003","04","08","22:00","-1.6","","-18.3","","27","","32","","9","","15.0","","100.44","","","","-5","","NA"
"2003-04-08 23:00","2003","04","08","23:00","-1.5","","-17.3","","29","","32","","13","","15.0","","100.41","","","","-6","","NA"
"2003-04-09 00:00","2003","04","09","00:00","-1.6","","-17.4","","29","","32","","13","","15.0","","100.39","","","","-6","","NA"
"2003-04-09 01:00","2003","04","09","01:00","-2.5","","-17.8","","30","","32","","11","","15.0","","100.37","","","","-7","","NA"
"2003-04-09 02:00","2003","04","09","02:00","-3.1","","-17.6","","32","","32","","11","","15.0","","100.37","","","","-7","","NA"
"2003-04-09 03:00","2003","04","09","03:00","-3.1","","-17.6","","32","","32","","11","","15.0","","100.37","","","","-7","","NA"
"2003-04-09 04:00","2003","04","09","04:00","-7.4","","-16.6","","48","","14","","2","","15.0","","100.39","","","","-8","","NA"
"2003-04-09 05:00","2003","04","09","05:00","-7.1","","-16.1","","49","","33","","4","","15.0","","100.37","","","","-9","","NA"
"2003-04-09 06:00","2003","04","09","06:00","-6.2","","-15.3","","48","","31","","6","","15.0","","100.37","","","","-9","","NA"
"2003-04-09 07:00","2003","04","09","07:00","-5.5","","-15.6","","45","","32","","4","","15.0","","100.37","","","","-7","","NA"
"2003-04-09 08:00","2003","04","09","08:00","-3.1","","-15.5","","38","","31","","7","","15.0","","100.35","","","","-6","","NA"
"2003-04-09 09:00","2003","04","09","09:00","-2.5","","-16.7","","33","","23","","4","","15.0","","100.35","","","","-4","","NA"
"2003-04-09 10:00","2003","04","09","10:00","-1.3","","-15.6","","33","","23","","9","","15.0","","100.34","","","","-5","","NA"
"2003-04-09 11:00","2003","04","09","11:00","-0.9","","-11.4","","45","","22","","13","","15.0","","100.32","","","","-5","","NA"
"2003-04-09 12:00","2003","04","09","12:00","-0.2","","-10.0","","48","","19","","19","","15.0","","100.28","","","","-5","","NA"
"2003-04-09 13:00","2003","04","09","13:00","0.7","","-12.1","","38","","18","","15","","15.0","","100.25","","","","","","NA"
"2003-04-09 14:00","2003","04","09","14:00","0.1","","-8.9","","51","","20","","11","","15.0","","100.17","","","","","","NA"
"2003-04-09 15:00","2003","04","09","15:00","1.5","","-6.4","","56","","19","","4","","15.0","","100.12","","","","","","NA"
"2003-04-09 16:00","2003","04","09","16:00","1.5","","-6.6","","55","","21","","6","","15.0","","100.05","","","","","","NA"
"2003-04-09 17:00","2003","04","09","17:00","2.7","","-6.5","","51","","17","","2","","15.0","","100.01","","","","","","NA"
"2003-04-09 18:00","2003","04","09","18:00","4.9","","-12.2","","28","","26","","17","","15.0","","100.03","","","","","","NA"
"2003-04-09 19:00","2003","04","09","19:00","3.2","","-15.5","","24","","27","","17","","15.0","","99.98","","","","","","NA"
"2003-04-09 20:00","2003","04","09","20:00","-0.1","","-14.9","","32","","29","","2","","15.0","","100.01","","","","-1","","NA"
"2003-04-09 21:00","2003","04","09","21:00","0.5","","-14.0","","33","","27","","9","","15.0","","100.01","","","","","","NA"
"2003-04-09 22:00","2003","04","09","22:00","-0.2","","-14.3","","34","","29","","9","","15.0","","100.01","","","","-3","","NA"
"2003-04-09 23:00","2003","04","09","23:00","-0.9","","-14.9","","34","","29","","13","","15.0","","100.01","","","","-5","","NA"
"2003-04-10 00:00","2003","04","10","00:00","-0.9","","-14.2","","36","","29","","11","","15.0","","100.01","","","","-5","","NA"
"2003-04-10 01:00","2003","04","10","01:00","-1.5","","-13.7","","39","","31","","7","","15.0","","99.99","","","","-4","","NA"
"2003-04-10 02:00","2003","04","10","02:00","-1.8","","-12.8","","43","","32","","6","","15.0","","99.98","","","","-4","","NA"
"2003-04-10 03:00","2003","04","10","03:00","-2.5","","-12.4","","46","","","","0","","15.0","","99.98","","","","","","NA"
"2003-04-10 04:00","2003","04","10","04:00","-3.4","","-10.3","","59","","23","","2","","15.0","","99.96","","","","-4","","NA"
"2003-04-10 05:00","2003","04","10","05:00","-2.4","","-9.6","","58","","32","","4","","15.0","","99.96","","","","-4","","NA"
"2003-04-10 06:00","2003","04","10","06:00","-1.8","","-8.8","","59","","26","","2","","15.0","","99.98","","","","-3","","NA"
"2003-04-10 07:00","2003","04","10","07:00","-1.4","","-12.2","","44","","","","0","","15.0","","100.01","","","","","","NA"
"2003-04-10 08:00","2003","04","10","08:00","0.4","","-12.7","","37","","","","0","","15.0","","99.96","","","","","","NA"
"2003-04-10 09:00","2003","04","10","09:00","0.1","","-8.9","","51","","18","","7","","15.0","","99.90","","","","","","NA"
"2003-04-10 10:00","2003","04","10","10:00","0.1","","-5.0","","69","","14","","11","","15.0","","99.92","","","","","","NA"
"2003-04-10 11:00","2003","04","10","11:00","0.7","","-3.0","","76","","9","","11","","15.0","","99.92","","","","","","NA"
"2003-04-10 12:00","2003","04","10","12:00","1.0","","-1.8","","82","","9","","13","","15.0","","99.87","","","","","","NA"
"2003-04-10 13:00","2003","04","10","13:00","3.0","","-2.6","","67","","9","","9","","15.0","","99.85","","","","","","NA"
"2003-04-10 14:00","2003","04","10","14:00","3.2","","-3.0","","64","","11","","6","","15.0","","99.80","","","","","","NA"
"2003-04-10 15:00","2003","04","10","15:00","3.6","","-3.1","","62","","10","","6","","15.0","","99.74","","","","","","NA"
"2003-04-10 16:00","2003","04","10","16:00","2.2","","-3.4","","66","","9","","11","","15.0","","99.69","","","","","","NA"
"2003-04-10 17:00","2003","04","10","17:00","3.3","","-3.4","","61","","9","","9","","15.0","","99.60","","","","","","NA"
"2003-04-10 18:00","2003","04","10","18:00","3.2","","-3.5","","61","","13","","9","","15.0","","99.54","","","","","","NA"
"2003-04-10 19:00","2003","04","10","19:00","1.3","","-3.7","","69","","9","","11","","15.0","","99.45","","","","","","NA"
"2003-04-10 20:00","2003","04","10","20:00","0.7","","-4.0","","71","","7","","11","","15.0","","99.44","","","","","","NA"
"2003-04-10 21:00","2003","04","10","21:00","0.9","","-4.4","","68","","8","","11","","15.0","","99.42","","","","","","NA"
"2003-04-10 22:00","2003","04","10","22:00","0.8","","-4.7","","67","","5","","9","","15.0","","99.35","","","","","","NA"
"2003-04-10 23:00","2003","04","10","23:00","0.3","","-5.0","","68","","7","","9","","15.0","","99.31","","","","","","NA"
"2003-04-11 00:00","2003","04","11","00:00","-0.1","","-5.6","","66","","7","","9","","15.0","","99.29","","","","-3","","NA"
"2003-04-11 01:00","2003","04","11","01:00","-0.5","","-5.6","","68","","5","","9","","15.0","","99.26","","","","-4","","NA"
"2003-04-11 02:00","2003","04","11","02:00","0.1","","-5.6","","65","","6","","4","","15.0","","99.24","","","","","","NA"
"2003-04-11 03:00","2003","04","11","03:00","-0.8","","-5.1","","73","","7","","11","","15.0","","99.22","","","","-5","","NA"
"2003-04-11 04:00","2003","04","11","04:00","0.4","","-5.9","","63","","6","","9","","15.0","","99.15","","","","","","NA"
"2003-04-11 05:00","2003","04","11","05:00","-1.0","","-5.3","","73","","7","","11","","15.0","","99.09","","","","-5","","NA"
"2003-04-11 06:00","2003","04","11","06:00","-0.7","","-4.5","","75","","7","","9","","15.0","","99.06","","","","-4","","NA"
"2003-04-11 07:00","2003","04","11","07:00","0.3","","-4.8","","69","","7","","9","","15.0","","99.06","","","","","","NA"
"2003-04-11 08:00","2003","04","11","08:00","0.3","","-5.4","","66","","9","","13","","15.0","","99.08","","","","","","NA"
"2003-04-11 09:00","2003","04","11","09:00","0.3","","-3.3","","77","","9","","13","","15.0","","99.04","","","","","","NA"
"2003-04-11 10:00","2003","04","11","10:00","1.8","","-2.6","","73","","8","","13","","15.0","","99.02","","","","","","NA"
"2003-04-11 11:00","2003","04","11","11:00","2.3","","-2.3","","72","","9","","17","","15.0","","99.00","","","","","","NA"
"2003-04-11 12:00","2003","04","11","12:00","2.7","","-2.1","","71","","9","","9","","15.0","","98.91","","","","","","NA"
"2003-04-11 13:00","2003","04","11","13:00","1.9","","-1.6","","78","","9","","15","","15.0","","98.91","","","","","","NA"
"2003-04-11 14:00","2003","04","11","14:00","2.1","","-1.8","","75","","9","","13","","15.0","","98.88","","","","","","NA"
"2003-04-11 15:00","2003","04","11","15:00","1.9","","-1.6","","78","","9","","15","","15.0","","98.84","","","","","","NA"
"2003-04-11 16:00","2003","04","11","16:00","3.2","","-2.0","","69","","10","","9","","15.0","","98.79","","","","","","NA"
"2003-04-11 17:00","2003","04","11","17:00","3.1","","-1.2","","73","","10","","9","","15.0","","98.75","","","","","","NA"
"2003-04-11 18:00","2003","04","11","18:00","3.3","","-1.5","","71","","14","","6","","15.0","","98.73","","","","","","NA"
"2003-04-11 19:00","2003","04","11","19:00","0.4","","-1.8","","85","","23","","4","","15.0","","98.75","","","","","","NA"
"2003-04-11 20:00","2003","04","11","20:00","0.2","","-0.9","","92","","11","","4","","15.0","","98.77","","","","","","NA"
"2003-04-11 21:00","2003","04","11","21:00","0.3","","-0.8","","92","","12","","2","","15.0","","98.75","","","","","","NA"
"2003-04-11 22:00","2003","04","11","22:00","3.5","","-3.2","","61","","30","","7","","15.0","","98.75","","","","","","NA"
"2003-04-11 23:00","2003","04","11","23:00","7.7","","-6.5","","36","","3","","22","","15.0","","98.81","","","","","","NA"
"2003-04-12 00:00","2003","04","12","00:00","6.8","","-5.9","","40","","3","","20","","15.0","","98.88","","","","","","NA"
"2003-04-12 01:00","2003","04","12","01:00","5.2","","-5.8","","45","","2","","19","","15.0","","98.95","","","","","","NA"
"2003-04-12 02:00","2003","04","12","02:00","4.0","","-5.1","","51","","2","","15","","15.0","","98.99","","","","","","NA"
"2003-04-12 03:00","2003","04","12","03:00","3.0","","-4.1","","60","","3","","15","","15.0","","99.00","","","","","","NA"
"2003-04-12 04:00","2003","04","12","04:00","2.5","","-3.3","","66","","2","","20","","15.0","","99.06","","","","","","NA"
"2003-04-12 05:00","2003","04","12","05:00","2.2","","-3.0","","68","","2","","15","","15.0","","99.15","","","","","","NA"
"2003-04-12 06:00","2003","04","12","06:00","2.5","","-2.5","","70","","2","","15","","15.0","","99.20","","","","","","NA"
"2003-04-12 07:00","2003","04","12","07:00","2.9","","-2.9","","66","","2","","19","","15.0","","99.26","","","","","","NA"
"2003-04-12 08:00","2003","04","12","08:00","2.8","","-3.4","","64","","1","","17","","15.0","","99.33","","","","","","NA"
"2003-04-12 09:00","2003","04","12","09:00","2.6","","-4.2","","61","","4","","19","","15.0","","99.42","","","","","","NA"
"2003-04-12 10:00","2003","04","12","10:00","2.7","","-5.1","","56","","1","","22","","15.0","","99.49","","","","","","NA"
"2003-04-12 11:00","2003","04","12","11:00","3.7","","-5.8","","50","","4","","15","","15.0","","99.51","","","","","","NA"
"2003-04-12 12:00","2003","04","12","12:00","3.9","","-6.8","","46","","2","","19","","15.0","","99.56","","","","","","NA"
"2003-04-12 13:00","2003","04","12","13:00","5.1","","-8.1","","38","","2","","13","","15.0","","99.54","","","","","","NA"
"2003-04-12 14:00","2003","04","12","14:00","5.2","","-9.8","","33","","36","","22","","15.0","","99.56","","","","","","NA"
"2003-04-12 15:00","2003","04","12","15:00","6.6","","-10.7","","28","","2","","19","","15.0","","99.54","","","","","","NA"
"2003-04-12 16:00","2003","04","12","16:00","7.2","","-12.6","","23","","1","","19","","15.0","","99.54","","","","","","NA"
"2003-04-12 17:00","2003","04","12","17:00","7.7","","-13.3","","21","","36","","20","","15.0","","99.56","","","","","","NA"
"2003-04-12 18:00","2003","04","12","18:00","6.7","","-14.8","","20","","36","","17","","15.0","","99.63","","","","","","NA"
"2003-04-12 19:00","2003","04","12","19:00","5.1","","-14.4","","23","","1","","11","","15.0","","99.72","","","","","","NA"
"2003-04-12 20:00","2003","04","12","20:00","3.6","","-15.2","","24","","36","","7","","15.0","","99.81","","","","","","NA"
"2003-04-12 21:00","2003","04","12","21:00","2.9","","-14.8","","26","","4","","4","","15.0","","99.90","","","","","","NA"
"2003-04-12 22:00","2003","04","12","22:00","1.9","","-15.2","","27","","36","","15","","15.0","","99.92","","","","","","NA"
"2003-04-12 23:00","2003","04","12","23:00","0.8","","-15.3","","29","","36","","11","","15.0","","99.98","","","","","","NA"
"2003-04-13 00:00","2003","04","13","00:00","0.2","","-15.8","","29","","5","","7","","15.0","","100.01","","","","","","NA"
"2003-04-13 01:00","2003","04","13","01:00","-0.2","","-15.8","","30","","5","","7","","15.0","","100.03","","","","-3","","NA"
"2003-04-13 02:00","2003","04","13","02:00","-1.2","","-15.9","","32","","33","","4","","15.0","","100.07","","","","-3","","NA"
"2003-04-13 03:00","2003","04","13","03:00","-1.5","","-16.1","","32","","5","","6","","15.0","","100.08","","","","-4","","NA"
"2003-04-13 04:00","2003","04","13","04:00","-2.0","","-16.2","","33","","","M","6","","15.0","","100.14","","","","-4","","NA"
"2003-04-13 05:00","2003","04","13","05:00","-2.8","","-16.2","","35","","36","","4","","15.0","","100.23","","","","-4","","NA"
"2003-04-13 06:00","2003","04","13","06:00","-2.7","","-16.1","","35","","35","","6","","15.0","","100.28","","","","-5","","NA"
"2003-04-13 07:00","2003","04","13","07:00","-2.1","","-15.6","","35","","3","","6","","15.0","","100.32","","","","-4","","NA"
"2003-04-13 08:00","2003","04","13","08:00","-1.8","","-15.3","","35","","8","","9","","15.0","","100.34","","","","-5","","NA"
"2003-04-13 09:00","2003","04","13","09:00","-1.9","","-15.1","","36","","18","","7","","15.0","","100.35","","","","-5","","NA"
"2003-04-13 10:00","2003","04","13","10:00","-1.7","","-13.9","","39","","20","","13","","15.0","","100.37","","","","-6","","NA"
"2003-04-13 11:00","2003","04","13","11:00","-1.1","","-11.3","","46","","22","","17","","15.0","","100.35","","","","-6","","NA"
"2003-04-13 12:00","2003","04","13","12:00","0.1","","-10.5","","45","","23","","17","","15.0","","100.34","","","","","","NA"
"2003-04-13 13:00","2003","04","13","13:00","0.9","","-10.1","","44","","23","","19","","15.0","","100.28","","","","","","NA"
"2003-04-13 14:00","2003","04","13","14:00","-0.3","","-6.8","","61","","23","","20","","15.0","","100.28","","","","-6","","NA"
"2003-04-13 15:00","2003","04","13","15:00","-0.5","","-6.0","","66","","22","","19","","15.0","","100.26","","","","-6","","NA"
"2003-04-13 16:00","2003","04","13","16:00","-0.1","","-5.2","","68","","19","","19","","15.0","","100.25","","","","-5","","NA"
"2003-04-13 17:00","2003","04","13","17:00","-0.2","","-5.3","","68","","22","","13","","15.0","","100.23","","","","-4","","NA"
"2003-04-13 18:00","2003","04","13","18:00","0.3","","-4.6","","70","","25","","4","","15.0","","100.23","","","","","","NA"
"2003-04-13 19:00","2003","04","13","19:00","0.1","","-4.1","","73","","6","","2","","15.0","","100.21","","","","","","NA"
"2003-04-13 20:00","2003","04","13","20:00","0.2","","-4.3","","72","","5","","4","","15.0","","100.21","","","","","","NA"
"2003-04-13 21:00","2003","04","13","21:00","0.9","","-4.8","","66","","","","0","","15.0","","100.25","","","","","","NA"
"2003-04-13 22:00","2003","04","13","22:00","0.6","","-4.7","","68","","14","","7","","15.0","","100.17","","","","","","NA"
"2003-04-13 23:00","2003","04","13","23:00","0.4","","-1.6","","86","","14","","2","","15.0","","100.16","","","","","","NA"
"2003-04-14 00:00","2003","04","14","00:00","0.4","","-5.1","","67","","17","","7","","15.0","","100.05","","","","","","NA"
"2003-04-14 01:00","2003","04","14","01:00","0.4","","-5.3","","66","","14","","15","","15.0","","99.98","","","","","","NA"
"2003-04-14 02:00","2003","04","14","02:00","0.1","","-4.1","","73","","15","","11","","15.0","","99.99","","","","","","NA"
"2003-04-14 03:00","2003","04","14","03:00","-0.2","","-4.5","","73","","12","","7","","15.0","","99.92","","","","-3","","NA"
"2003-04-14 04:00","2003","04","14","04:00","-0.5","","-3.6","","80","","9","","13","","15.0","","99.83","","","","-5","","NA"
"2003-04-14 05:00","2003","04","14","05:00","0.2","","-3.1","","78","","9","","17","","15.0","","99.76","","","","","","NA"
"2003-04-14 06:00","2003","04","14","06:00","1.3","","-3.1","","72","","12","","13","","15.0","","99.74","","","","","","NA"
"2003-04-14 07:00","2003","04","14","07:00","2.0","","-2.2","","74","","16","","15","","15.0","","99.71","","","","","","NA"
"2003-04-14 08:00","2003","04","14","08:00","1.8","","-2.4","","74","","22","","9","","15.0","","99.62","","","","","","NA"
"2003-04-14 09:00","2003","04","14","09:00","2.5","","-1.9","","73","","21","","17","","15.0","","99.54","","","","","","NA"
"2003-04-14 10:00","2003","04","14","10:00","2.7","","-2.9","","67","","20","","9","","15.0","","99.49","","","","","","NA"
"2003-04-14 11:00","2003","04","14","11:00","3.2","","-3.5","","61","","18","","22","","15.0","","99.40","","","","","","NA"
"2003-04-14 12:00","2003","04","14","12:00","2.9","","-3.7","","62","","18","","19","","15.0","","99.27","","","","","","NA"
"2003-04-14 13:00","2003","04","14","13:00","3.3","","-3.2","","62","","17","","13","","15.0","","99.17","","","","","","NA"
"2003-04-14 14:00","2003","04","14","14:00","7.6","","-2.8","","48","","20","","15","","15.0","","99.06","","","","","","NA"
"2003-04-14 15:00","2003","04","14","15:00","7.9","","-0.9","","54","","14","","6","","15.0","","98.93","","","","","","NA"
"2003-04-14 16:00","2003","04","14","16:00","10.3","","-0.9","","46","","23","","32","","15.0","","98.82","","","","","","NA"
"2003-04-14 17:00","2003","04","14","17:00","10.1","","-0.8","","47","","23","","15","","15.0","","98.82","","","","","","NA"
"2003-04-14 18:00","2003","04","14","18:00","6.2","","-2.3","","54","","19","","9","","15.0","","98.72","","","","","","NA"
"2003-04-14 19:00","2003","04","14","19:00","7.4","","0.6","","62","","28","","9","","15.0","","98.75","","","","","","NA"
"2003-04-14 20:00","2003","04","14","20:00","8.2","","3.3","","71","","18","","9","","15.0","","98.82","","","","","","NA"
"2003-04-14 21:00","2003","04","14","21:00","6.2","","3.5","","83","","6","","6","","12.9","","98.81","","","","","","NA"
"2003-04-14 22:00","2003","04","14","22:00","8.4","","2.4","","66","","10","","6","","15.0","","98.81","","","","","","NA"
"2003-04-14 23:00","2003","04","14","23:00","7.2","","2.7","","73","","12","","7","","15.0","","98.72","","","","","","NA"
"2003-04-15 00:00","2003","04","15","00:00","5.0","","2.5","","84","","8","","15","","12.9","","98.64","","","","","","NA"
"2003-04-15 01:00","2003","04","15","01:00","5.2","","1.9","","79","","8","","11","","15.0","","98.61","","","","","","NA"
"2003-04-15 02:00","2003","04","15","02:00","5.4","","3.6","","88","","7","","6","","15.0","","98.59","","","","","","NA"
"2003-04-15 03:00","2003","04","15","03:00","6.0","","4.7","","91","","36","","6","","12.9","","98.64","","","","","","NA"
"2003-04-15 04:00","2003","04","15","04:00","4.4","","2.9","","90","","12","","11","","9.7","","98.54","","","","","","NA"
"2003-04-15 05:00","2003","04","15","05:00","2.9","","2.3","","96","","15","","20","","5.6","","98.48","","","","","","NA"
"2003-04-15 06:00","2003","04","15","06:00","5.8","","3.3","","84","","10","","6","","15.0","","98.46","","","","","","NA"
"2003-04-15 07:00","2003","04","15","07:00","4.3","","2.5","","88","","9","","6","","11.3","","98.41","","","","","","NA"
"2003-04-15 08:00","2003","04","15","08:00","3.3","","1.8","","90","","9","","15","","9.7","","98.45","","","","","","NA"
"2003-04-15 09:00","2003","04","15","09:00","4.4","","2.6","","88","","9","","15","","11.3","","98.46","","","","","","NA"
"2003-04-15 10:00","2003","04","15","10:00","5.3","","2.8","","84","","13","","9","","9.7","","98.37","","","","","","NA"
"2003-04-15 11:00","2003","04","15","11:00","6.1","","-0.3","","63","","13","","2","","12.9","","98.36","","","","","","NA"
"2003-04-15 12:00","2003","04","15","12:00","6.5","","1.6","","71","","9","","7","","12.9","","98.34","","","","","","NA"
"2003-04-15 13:00","2003","04","15","13:00","6.5","","0.8","","67","","13","","6","","12.9","","98.34","","","","","","NA"
"2003-04-15 14:00","2003","04","15","14:00","5.1","","0.5","","72","","11","","7","","15.0","","98.34","","","","","","NA"
"2003-04-15 15:00","2003","04","15","15:00","12.3","","5.2","","62","","6","","13","","15.0","","98.37","","","","","","NA"
"2003-04-15 16:00","2003","04","15","16:00","9.1","","3.3","","67","","2","","20","","15.0","","98.50","","","","","","NA"
"2003-04-15 17:00","2003","04","15","17:00","7.1","","1.6","","68","","3","","24","","15.0","","98.54","","","","","","NA"
"2003-04-15 18:00","2003","04","15","18:00","5.5","","1.4","","75","","3","","15","","15.0","","98.64","","","","","","NA"
"2003-04-15 19:00","2003","04","15","19:00","4.5","","0.5","","75","","3","","15","","15.0","","98.73","","","","","","NA"
"2003-04-15 20:00","2003","04","15","20:00","3.5","","-0.2","","77","","2","","17","","15.0","","98.84","","","","","","NA"
"2003-04-15 21:00","2003","04","15","21:00","3.1","","-1.0","","74","","2","","11","","15.0","","98.93","","","","","","NA"
"2003-04-15 22:00","2003","04","15","22:00","3.1","","-1.0","","74","","4","","19","","15.0","","98.93","","","","","","NA"
"2003-04-15 23:00","2003","04","15","23:00","3.2","","-5.5","","53","","5","","15","","15.0","","98.95","","","","","","NA"
"2003-04-16 00:00","2003","04","16","00:00","3.2","","-6.0","","51","","5","","13","","15.0","","99.11","","","","","","NA"
"2003-04-16 01:00","2003","04","16","01:00","2.4","","-5.8","","55","","3","","15","","15.0","","99.06","","","","","","NA"
"2003-04-16 02:00","2003","04","16","02:00","1.2","","-6.5","","56","","2","","20","","15.0","","99.13","","","","","","NA"
"2003-04-16 03:00","2003","04","16","03:00","0.3","","-6.9","","58","","3","","22","","15.0","","99.20","","","","","","NA"
"2003-04-16 04:00","2003","04","16","04:00","-0.4","","-7.3","","60","","3","","20","","15.0","","99.29","","","","-6","","NA"
"2003-04-16 05:00","2003","04","16","05:00","-1.4","","-6.1","","70","","2","","11","","15.0","","99.42","","","","-5","","NA"
"2003-04-16 06:00","2003","04","16","06:00","-2.1","","-7.5","","66","","3","","19","","15.0","","99.51","","","","-8","","NA"
"2003-04-16 07:00","2003","04","16","07:00","-2.6","","-10.3","","55","","4","","22","","15.0","","99.62","","","","-9","","NA"
"2003-04-16 08:00","2003","04","16","08:00","-2.9","","-10.3","","57","","4","","19","","15.0","","99.72","","","","-9","","NA"
"2003-04-16 09:00","2003","04","16","09:00","-2.7","","-11.5","","51","","4","","15","","15.0","","99.85","","","","-8","","NA"
"2003-04-16 10:00","2003","04","16","10:00","-2.2","","-12.6","","45","","4","","24","","15.0","","99.92","","","","-9","","NA"
"2003-04-16 11:00","2003","04","16","11:00"
"2003-04-16 12:00","2003","04","16","12:00","-0.6","","-14.3","","35","","4","","20","","15.0","","100.05","","","","-6","","NA"
"2003-04-16 13:00","2003","04","16","13:00","0.1","","-15.1","","31","","3","","20","","15.0","","100.08","","","","","","NA"
"2003-04-16 14:00","2003","04","16","14:00","-0.4","","-16.4","","29","","6","","24","","15.0","","100.17","","","","-6","","NA"
"2003-04-16 15:00","2003","04","16","15:00","0.8","","-17.1","","25","","5","","22","","15.0","","100.21","","","","","","NA"
"2003-04-16 16:00","2003","04","16","16:00","1.0","","-16.9","","25","","6","","20","","15.0","","100.19","","","","","","NA"
"2003-04-16 17:00","2003","04","16","17:00","1.0","","-17.9","","23","","4","","17","","15.0","","100.19","","","","","","NA"
"2003-04-16 18:00","2003","04","16","18:00","0.2","","-17.6","","25","","7","","26","","15.0","","100.30","","","","","","NA"
"2003-04-16 19:00","2003","04","16","19:00","-0.6","","-18.3","","25","","6","","17","","15.0","","100.35","","","","-6","","NA"
"2003-04-16 20:00","2003","04","16","20:00","-1.5","","-19.1","","25","","6","","17","","15.0","","100.41","","","","-7","","NA"
"2003-04-16 21:00","2003","04","16","21:00","-1.9","","-18.5","","27","","6","","19","","15.0","","100.48","","","","-7","","NA"
"2003-04-16 22:00","2003","04","16","22:00","-2.5","","-18.2","","29","","6","","19","","15.0","","100.48","","","","-8","","NA"
"2003-04-16 23:00","2003","04","16","23:00","-3.3","","-18.9","","29","","6","","20","","15.0","","100.57","","","","-9","","NA"
"2003-04-17 00:00","2003","04","17","00:00","-4.3","","-19.8","","29","","6","","24","","15.0","","100.59","","","","-11","","NA"
"2003-04-17 01:00","2003","04","17","01:00","-5.0","","-20.0","","30","","6","","24","","15.0","","100.59","","","","-12","","NA"
"2003-04-17 02:00","2003","04","17","02:00","-5.6","","-19.8","","32","","7","","26","","15.0","","100.55","","","","-13","","NA"
"2003-04-17 03:00","2003","04","17","03:00","-6.2","","-19.3","","35","","7","","28","","15.0","","100.57","","","","-14","","NA"
"2003-04-17 04:00","2003","04","17","04:00","-6.7","","-19.4","","36","","7","","26","","15.0","","100.59","","","","-15","","NA"
"2003-04-17 05:00","2003","04","17","05:00","-7.2","","-19.2","","38","","6","","30","","15.0","","100.57","","","","-16","","NA"
"2003-04-17 06:00","2003","04","17","06:00","-7.2","","-18.6","","40","","7","","33","","15.0","","100.61","","","","-16","","NA"
"2003-04-17 07:00","2003","04","17","07:00","-7.3","","-19.3","","38","","7","","32","","15.0","","100.57","","","","-16","","NA"
"2003-04-17 08:00","2003","04","17","08:00","-6.1","","-18.8","","36","","7","","33","","15.0","","100.53","","","","-15","","NA"
"2003-04-17 09:00","2003","04","17","09:00","-4.6","","-18.5","","33","","7","","32","","15.0","","100.50","","","","-13","","NA"
"2003-04-17 10:00","2003","04","17","10:00","-2.9","","-18.1","","30","","7","","32","","15.0","","100.44","","","","-10","","NA"
"2003-04-17 11:00","2003","04","17","11:00","-1.8","","-16.8","","31","","8","","32","","15.0","","100.44","","","","-9","","NA"
"2003-04-17 12:00","2003","04","17","12:00","-1.2","","-16.3","","31","","9","","33","","15.0","","100.39","","","","-8","","NA"
"2003-04-17 13:00","2003","04","17","13:00","-0.3","","-15.9","","30","","9","","30","","15.0","","100.32","","","","-7","","NA"
"2003-04-17 14:00","2003","04","17","14:00","0.9","","-14.8","","30","","9","","30","","15.0","","100.23","","","","","","NA"
"2003-04-17 15:00","2003","04","17","15:00","1.7","","-14.1","","30","","9","","28","","15.0","","100.12","","","","","","NA"
"2003-04-17 16:00","2003","04","17","16:00","2.9","","-13.5","","29","","8","","26","","15.0","","100.03","","","","","","NA"
"2003-04-17 17:00","2003","04","17","17:00","2.8","","-12.4","","32","","9","","24","","15.0","","99.99","","","","","","NA"
"2003-04-17 18:00","2003","04","17","18:00","2.6","","-11.8","","34","","9","","26","","15.0","","99.89","","","","","","NA"
"2003-04-17 19:00","2003","04","17","19:00","2.5","","-11.1","","36","","9","","24","","15.0","","99.81","","","","","","NA"
"2003-04-17 20:00","2003","04","17","20:00","2.3","","-11.3","","36","","9","","15","","15.0","","99.85","","","","","","NA"
"2003-04-17 21:00","2003","04","17","21:00","2.5","","-12.6","","32","","8","","13","","15.0","","99.85","","","","","","NA"
"2003-04-17 22:00","2003","04","17","22:00","2.4","","-12.3","","33","","9","","15","","15.0","","99.83","","","","","","NA"
"2003-04-17 23:00","2003","04","17","23:00","2.3","","-8.8","","44","","9","","24","","15.0","","99.78","","","","","","NA"
"2003-04-18 00:00","2003","04","18","00:00","2.3","","-7.9","","47","","9","","28","","15.0","","99.74","","","","","","NA"
"2003-04-18 01:00","2003","04","18","01:00","1.7","","-6.2","","56","","9","","20","","15.0","","99.72","","","","","","NA"
"2003-04-18 02:00","2003","04","18","02:00","1.6","","-7.0","","53","","9","","20","","15.0","","99.67","","","","","","NA"
"2003-04-18 03:00","2003","04","18","03:00","2.0","","-6.9","","52","","9","","24","","15.0","","99.65","","","","","","NA"
"2003-04-18 04:00","2003","04","18","04:00","1.6","","-4.6","","63","","9","","22","","15.0","","99.65","","","","","","NA"
"2003-04-18 05:00","2003","04","18","05:00","1.6","","-4.2","","65","","9","","19","","15.0","","99.67","","","","","","NA"
"2003-04-18 06:00","2003","04","18","06:00","1.5","","-3.7","","68","","9","","19","","15.0","","99.72","","","","","","NA"
"2003-04-18 07:00","2003","04","18","07:00","1.4","","-2.6","","75","","9","","11","","15.0","","99.80","","","","","","NA"
"2003-04-18 08:00","2003","04","18","08:00","0.9","","-1.7","","83","","10","","9","","15.0","","99.87","","","","","","NA"
"2003-04-18 09:00","2003","04","18","09:00","0.5","","-0.6","","92","","9","","9","","15.0","","99.90","","","","","","NA"
"2003-04-18 10:00","2003","04","18","10:00","0.6","","0.0","","96","","8","","13","","15.0","","99.92","","","","","","NA"
"2003-04-18 11:00","2003","04","18","11:00","0.6","","0.0","","96","","9","","13","","15.0","","99.96","","","","","","NA"
"2003-04-18 12:00","2003","04","18","12:00","0.8","","0.2","","96","","9","","13","","12.9","","99.98","","","","","","NA"
"2003-04-18 13:00","2003","04","18","13:00","1.3","","0.7","","96","","9","","13","","11.3","","99.98","","","","","","NA"
"2003-04-18 14:00","2003","04","18","14:00"
"2003-04-18 15:00","2003","04","18","15:00","2.2","","1.6","","96","","9","","15","","11.3","","99.94","","","","","","NA"
"2003-04-18 16:00","2003","04","18","16:00","2.6","","2.0","","96","","9","","11","","11.3","","100.08","","","","","","NA"
"2003-04-18 17:00","2003","04","18","17:00","3.2","","2.6","","96","","8","","9","","9.7","","100.10","","","","","","NA"
"2003-04-18 18:00","2003","04","18","18:00","3.6","","3.2","","97","","9","","17","","4.0","","100.05","","","","","","NA"
"2003-04-18 19:00","2003","04","18","19:00","4.3","","3.9","","97","","7","","11","","8.0","","100.10","","","","","","NA"
"2003-04-18 20:00","2003","04","18","20:00","3.3","","2.9","","97","","7","","17","","4.8","","100.08","","","","","","NA"
"2003-04-18 21:00","2003","04","18","21:00","3.3","","2.9","","97","","7","","17","","4.8","","100.08","","","","","","NA"
"2003-04-18 22:00","2003","04","18","22:00","4.1","","3.7","","97","","7","","13","","7.2","","100.17","","","","","","NA"
"2003-04-18 23:00","2003","04","18","23:00","4.3","","3.9","","97","","7","","17","","4.0","","100.12","","","","","","NA"
"2003-04-19 00:00","2003","04","19","00:00","4.5","","4.1","","97","","6","","11","","3.2","","100.16","","","","","","NA"
"2003-04-19 01:00","2003","04","19","01:00"
"2003-04-19 02:00","2003","04","19","02:00","4.2","","3.8","","97","","8","","17","","1.1","","100.10","","","","","","NA"
"2003-04-19 03:00","2003","04","19","03:00","5.0","","4.6","","97","","6","","13","","9.7","","100.12","","","","","","NA"
"2003-04-19 04:00","2003","04","19","04:00","4.7","","4.3","","97","","7","","17","","8.0","","100.14","","","","","","NA"
"2003-04-19 05:00","2003","04","19","05:00","4.6","","4.2","","97","","7","","17","","0.3","","100.14","","","","","","NA"
"2003-04-19 06:00","2003","04","19","06:00"
"2003-04-19 07:00","2003","04","19","07:00","4.9","","4.5","","97","","8","","17","","0.2","","100.19","","","","","","NA"
"2003-04-19 08:00","2003","04","19","08:00","5.1","","4.7","","97","","9","","19","","0.0","","100.17","","","","","","NA"
"2003-04-19 09:00","2003","04","19","09:00","3.8","","3.4","","97","","9","","17","","0.0","","100.17","","","","","","NA"
"2003-04-19 10:00","2003","04","19","10:00","3.2","","2.8","","97","","9","","17","","0.0","","100.23","","","","","","NA"
"2003-04-19 11:00","2003","04","19","11:00"
"2003-04-19 12:00","2003","04","19","12:00"
"2003-04-19 13:00","2003","04","19","13:00"
"2003-04-19 14:00","2003","04","19","14:00"
"2003-04-19 15:00","2003","04","19","15:00"
"2003-04-19 16:00","2003","04","19","16:00","5.7","","3.9","","88","","9","","15","","15.0","","99.98","","","","","","NA"
"2003-04-19 17:00","2003","04","19","17:00","6.7","","4.4","","85","","9","","7","","15.0","","99.96","","","","","","NA"
"2003-04-19 18:00","2003","04","19","18:00","10.0","","7.9","","87","","6","","11","","15.0","","99.92","","","","","","NA"
"2003-04-19 19:00","2003","04","19","19:00","9.1","","7.9","","92","","6","","13","","11.3","","99.87","","","","","","NA"
"2003-04-19 20:00","2003","04","19","20:00","8.5","","7.4","","93","","6","","19","","5.6","","99.85","","","","","","NA"
"2003-04-19 21:00","2003","04","19","21:00","8.8","","7.7","","93","","7","","26","","15.0","","99.76","","","","","","NA"
"2003-04-19 22:00","2003","04","19","22:00","9.8","","7.8","","87","","7","","20","","15.0","","99.72","","","","","","NA"
"2003-04-19 23:00","2003","04","19","23:00","10.2","","7.5","","83","","7","","22","","15.0","","99.67","","","","","","NA"
"2003-04-20 00:00","2003","04","20","00:00","7.9","","4.3","","78","","9","","17","","15.0","","99.76","","","","","","NA"
"2003-04-20 01:00","2003","04","20","01:00","6.5","","4.5","","87","","8","","15","","15.0","","99.72","","","","","","NA"
"2003-04-20 02:00","2003","04","20","02:00","6.5","","4.8","","89","","9","","20","","15.0","","99.63","","","","","","NA"
"2003-04-20 03:00","2003","04","20","03:00","7.1","","5.4","","89","","9","","17","","15.0","","99.54","","","","","","NA"
"2003-04-20 04:00","2003","04","20","04:00","6.8","","5.4","","91","","9","","11","","9.7","","99.47","","","","","","NA"
"2003-04-20 05:00","2003","04","20","05:00","7.3","","6.4","","94","","9","","22","","11.3","","99.40","","","","","","NA"
"2003-04-20 06:00","2003","04","20","06:00","6.2","","5.2","","93","","9","","24","","11.3","","99.31","","","","","","NA"
"2003-04-20 07:00","2003","04","20","07:00","5.5","","4.0","","90","","9","","22","","15.0","","99.29","","","","","","NA"
"2003-04-20 08:00","2003","04","20","08:00"
"2003-04-20 09:00","2003","04","20","09:00","6.2","","4.2","","87","","9","","26","","15.0","","99.13","","","","","","NA"
"2003-04-20 10:00","2003","04","20","10:00","5.9","","3.9","","87","","9","","22","","15.0","","99.06","","","","","","NA"
"2003-04-20 11:00","2003","04","20","11:00"
"2003-04-20 12:00","2003","04","20","12:00"
"2003-04-20 13:00","2003","04","20","13:00","6.9","","4.1","","82","","8","","9","","15.0","","98.90","","","","","","NA"
"2003-04-20 14:00","2003","04","20","14:00","7.9","","5.7","","86","","6","","6","","12.9","","98.86","","","","","","NA"
"2003-04-20 15:00","2003","04","20","15:00","8.3","","6.4","","88","","8","","9","","9.7","","98.77","","","","","","NA"
"2003-04-20 16:00","2003","04","20","16:00","8.7","","8.0","","95","","7","","13","","6.4","","98.68","","","","","","NA"
"2003-04-20 17:00","2003","04","20","17:00","10.0","","9.2","","95","","9","","9","","2.3","","98.59","","","","","","NA"
"2003-04-20 18:00","2003","04","20","18:00","10.6","","9.8","","95","","20","","9","","2.3","","98.54","","","","","","NA"
"2003-04-20 19:00","2003","04","20","19:00","8.5","","7.9","","96","","9","","26","","","M","98.41","","","","","","NA"
"2003-04-20 20:00","2003","04","20","20:00","7.9","","7.3","","96","","10","","15","","0.3","","98.39","","","","","","NA"
"2003-04-20 21:00","2003","04","20","21:00","6.2","","5.6","","96","","9","","13","","","M","98.36","","","","","","NA"
"2003-04-20 22:00","2003","04","20","22:00","6.8","","6.2","","96","","26","","7","","0.0","","98.32","","","","","","NA"
"2003-04-20 23:00","2003","04","20","23:00","6.5","","5.9","","96","","11","","11","","0.0","","98.32","","","","","","NA"
"2003-04-21 00:00","2003","04","21","00:00","5.5","","4.9","","96","","9","","6","","0.0","","98.30","","","","","","NA"
"2003-04-21 01:00","2003","04","21","01:00","5.8","","5.2","","96","","4","","2","","0.0","","98.25","","","","","","NA"
"2003-04-21 02:00","2003","04","21","02:00"
"2003-04-21 03:00","2003","04","21","03:00","3.4","","2.8","","96","","9","","19","","0.0","","98.21","","","","","","NA"
"2003-04-21 04:00","2003","04","21","04:00","2.8","","2.2","","96","","7","","7","","0.0","","98.19","","","","","","NA"
"2003-04-21 05:00","2003","04","21","05:00","2.6","","2.0","","96","","6","","9","","0.0","","98.14","","","","","","NA"
"2003-04-21 06:00","2003","04","21","06:00"
"2003-04-21 07:00","2003","04","21","07:00"
"2003-04-21 08:00","2003","04","21","08:00","3.0","","2.4","","96","","9","","7","","1.3","","98.19","","","","","","NA"
"2003-04-21 09:00","2003","04","21","09:00"
"2003-04-21 10:00","2003","04","21","10:00"
"2003-04-21 11:00","2003","04","21","11:00","2.5","","1.9","","96","","14","","15","","9.7","","98.19","","","","","","NA"
"2003-04-21 12:00","2003","04","21","12:00","3.1","","2.5","","96","","9","","17","","12.9","","98.19","","","","","","NA"
"2003-04-21 13:00","2003","04","21","13:00","4.1","","2.5","","89","","9","","15","","12.9","","98.16","","","","","","NA"
"2003-04-21 14:00","2003","04","21","14:00","4.0","","2.4","","89","","9","","11","","12.9","","98.14","","","","","","NA"
"2003-04-21 15:00","2003","04","21","15:00","4.6","","2.0","","83","","13","","4","","15.0","","98.12","","","","","","NA"
"2003-04-21 16:00","2003","04","21","16:00","6.2","","2.3","","76","","15","","6","","15.0","","98.10","","","","","","NA"
"2003-04-21 17:00","2003","04","21","17:00","4.3","","1.3","","81","","13","","4","","15.0","","98.12","","","","","","NA"
"2003-04-21 18:00","2003","04","21","18:00","3.5","","1.1","","84","","9","","6","","15.0","","98.12","","","","","","NA"
"2003-04-21 19:00","2003","04","21","19:00","3.1","","1.6","","90","","8","","6","","15.0","","98.12","","","","","","NA"
"2003-04-21 20:00","2003","04","21","20:00","3.2","","2.0","","92","","8","","6","","15.0","","98.14","","","","","","NA"
"2003-04-21 21:00","2003","04","21","21:00","2.3","","1.3","","93","","9","","13","","7.2","","98.18","","","","","","NA"
"2003-04-21 22:00","2003","04","21","22:00","2.5","","1.6","","94","","9","","9","","6.4","","98.16","","","","","","NA"
"2003-04-21 23:00","2003","04","21","23:00","4.7","","3.8","","94","","2","","9","","6.4","","98.19","","","","","","NA"
"2003-04-22 00:00","2003","04","22","00:00","3.8","","1.8","","87","","2","","17","","15.0","","98.23","","","","","","NA"
"2003-04-22 01:00","2003","04","22","01:00"
"2003-04-22 02:00","2003","04","22","02:00","1.8","","0.5","","91","","4","","13","","15.0","","98.28","","","","","","NA"
"2003-04-22 03:00","2003","04","22","03:00","1.4","","0.1","","91","","1","","15","","15.0","","98.28","","","","","","NA"
"2003-04-22 04:00","2003","04","22","04:00","0.7","","-1.6","","85","","1","","17","","15.0","","98.34","","","","","","NA"
"2003-04-22 05:00","2003","04","22","05:00","0.4","","-2.6","","80","","1","","19","","15.0","","98.39","","","","","","NA"
"2003-04-22 06:00","2003","04","22","06:00","-0.1","","-3.1","","80","","1","","15","","11.3","","98.50","","","","-5","","NA"
"2003-04-22 07:00","2003","04","22","07:00","-0.2","","-4.2","","74","","1","","17","","15.0","","98.57","","","","-5","","NA"
"2003-04-22 08:00","2003","04","22","08:00","0.1","","-5.6","","65","","1","","15","","15.0","","98.64","","","","","","NA"
"2003-04-22 09:00","2003","04","22","09:00","0.2","","-6.1","","63","","1","","15","","15.0","","98.68","","","","","","NA"
"2003-04-22 10:00","2003","04","22","10:00","0.7","","-6.5","","59","","1","","19","","15.0","","98.73","","","","","","NA"
"2003-04-22 11:00","2003","04","22","11:00"
"2003-04-22 12:00","2003","04","22","12:00"
"2003-04-22 13:00","2003","04","22","13:00","2.1","","-3.7","","65","","35","","20","","7.2","","98.82","","","","","","NA"
"2003-04-22 14:00","2003","04","22","14:00","2.4","","-4.7","","59","","35","","19","","15.0","","98.84","","","","","","NA"
"2003-04-22 15:00","2003","04","22","15:00","4.4","","-6.0","","47","","36","","17","","15.0","","98.82","","","","","","NA"
"2003-04-22 16:00","2003","04","22","16:00","4.0","","-7.2","","44","","33","","20","","15.0","","98.90","","","","","","NA"
"2003-04-22 17:00","2003","04","22","17:00","2.9","","-7.4","","47","","35","","22","","15.0","","98.97","","","","","","NA"
"2003-04-22 18:00","2003","04","22","18:00","1.6","","-7.5","","51","","35","","24","","15.0","","99.04","","","","","","NA"
"2003-04-22 19:00","2003","04","22","19:00","0.2","","-8.3","","53","","35","","20","","15.0","","99.11","","","","","","NA"
"2003-04-22 20:00","2003","04","22","20:00","-0.5","","-9.2","","52","","35","","24","","15.0","","99.18","","","","-6","","NA"
"2003-04-22 21:00","2003","04","22","21:00","-1.5","","-10.4","","51","","35","","22","","15.0","","99.27","","","","-7","","NA"
"2003-04-22 22:00","2003","04","22","22:00","-1.7","","-10.6","","51","","35","","15","","15.0","","99.29","","","","-7","","NA"
"2003-04-22 23:00","2003","04","22","23:00","-1.8","","-10.9","","50","","35","","22","","15.0","","99.31","","","","-8","","NA"
"2003-04-23 00:00","2003","04","23","00:00","-2.0","","-11.1","","50","","36","","13","","15.0","","99.31","","","","-6","","NA"
"2003-04-23 01:00","2003","04","23","01:00","-2.2","","-10.8","","52","","","M","11","","15.0","","99.31","","","","-6","","NA"
"2003-04-23 02:00","2003","04","23","02:00","-2.5","","-11.1","","52","","36","","15","","15.0","","99.33","","","","-7","","NA"
"2003-04-23 03:00","2003","04","23","03:00","-2.9","","-11.2","","53","","36","","17","","15.0","","99.36","","","","-8","","NA"
"2003-04-23 04:00","2003","04","23","04:00","-3.6","","-11.9","","53","","35","","11","","15.0","","99.38","","","","-8","","NA"
"2003-04-23 05:00","2003","04","23","05:00","-4.1","","-12.1","","54","","35","","19","","15.0","","99.45","","","","-10","","NA"
"2003-04-23 06:00","2003","04","23","06:00","-3.7","","-11.7","","54","","34","","17","","15.0","","99.54","","","","-9","","NA"
"2003-04-23 07:00","2003","04","23","07:00","-3.5","","-11.8","","53","","33","","15","","15.0","","99.58","","","","-9","","NA"
"2003-04-23 08:00","2003","04","23","08:00"
"2003-04-23 09:00","2003","04","23","09:00","-1.5","","-12.3","","44","","33","","19","","15.0","","99.63","","","","-7","","NA"
"2003-04-23 10:00","2003","04","23","10:00","0.7","","-13.1","","35","","33","","15","","15.0","","99.62","","","","","","NA"
"2003-04-23 11:00","2003","04","23","11:00","3.6","","-14.2","","26","","34","","17","","15.0","","99.58","","","","","","NA"
"2003-04-23 12:00","2003","04","23","12:00","4.8","","-17.0","","19","","34","","19","","15.0","","99.54","","","","","","NA"
"2003-04-23 13:00","2003","04","23","13:00","7.0","","-18.0","","15","","33","","15","","15.0","","99.53","","","","","","NA"
"2003-04-23 14:00","2003","04","23","14:00","8.0","","-19.8","","12","","34","","20","","15.0","","99.49","","","","","","NA"
"2003-04-23 15:00","2003","04","23","15:00","7.0","","-13.9","","21","","27","","22","","15.0","","99.45","","","","","","NA"
"2003-04-23 16:00","2003","04","23","16:00","7.9","","-12.6","","22","","27","","17","","15.0","","99.47","","","","","","NA"
"2003-04-23 17:00","2003","04","23","17:00","7.5","","-11.9","","24","","27","","20","","15.0","","99.49","","","","","","NA"
"2003-04-23 18:00","2003","04","23","18:00","7.7","","-11.2","","25","","27","","15","","15.0","","99.51","","","","","","NA"
"2003-04-23 19:00","2003","04","23","19:00","6.5","","-11.2","","27","","29","","9","","15.0","","99.56","","","","","","NA"
"2003-04-23 20:00","2003","04","23","20:00","4.3","","-10.3","","34","","30","","9","","15.0","","99.65","","","","","","NA"
"2003-04-23 21:00","2003","04","23","21:00","5.4","","-12.2","","27","","35","","7","","15.0","","99.69","","","","","","NA"
"2003-04-23 22:00","2003","04","23","22:00","5.3","","-14.8","","22","","36","","7","","15.0","","99.72","","","","","","NA"
"2003-04-23 23:00","2003","04","23","23:00","4.4","","-14.5","","24","","3","","9","","15.0","","99.74","","","","","","NA"
"2003-04-24 00:00","2003","04","24","00:00","3.2","","-13.2","","29","","4","","4","","15.0","","99.72","","","","","","NA"
"2003-04-24 01:00","2003","04","24","01:00","1.5","","-7.9","","50","","9","","11","","15.0","","99.69","","","","","","NA"
"2003-04-24 02:00","2003","04","24","02:00","0.7","","-8.4","","51","","8","","4","","15.0","","99.67","","","","","","NA"
"2003-04-24 03:00","2003","04","24","03:00","0.0","","-4.7","","71","","12","","4","","15.0","","99.72","","","","-1","","NA"
"2003-04-24 04:00","2003","04","24","04:00","-1.2","","-6.4","","68","","5","","4","","15.0","","99.71","","","","-3","","NA"
"2003-04-24 05:00","2003","04","24","05:00","-0.8","","-4.6","","75","","","","0","","15.0","","99.72","","","","","","NA"
"2003-04-24 06:00","2003","04","24","06:00","0.0","","-6.1","","63","","1","","4","","15.0","","99.74","","","","-1","","NA"
"2003-04-24 07:00","2003","04","24","07:00","0.7","","-8.6","","50","","10","","2","","15.0","","99.76","","","","","","NA"
"2003-04-24 08:00","2003","04","24","08:00","1.1","","-9.3","","46","","15","","2","","15.0","","99.81","","","","","","NA"
"2003-04-24 09:00","2003","04","24","09:00","0.2","","-6.1","","63","","18","","7","","15.0","","99.78","","","","","","NA"
"2003-04-24 10:00","2003","04","24","10:00","0.5","","-4.8","","68","","18","","15","","15.0","","99.76","","","","","","NA"
"2003-04-24 11:00","2003","04","24","11:00","0.7","","-5.6","","63","","18","","15","","15.0","","99.69","","","","","","NA"
"2003-04-24 12:00","2003","04","24","12:00","0.8","","-4.5","","68","","18","","19","","15.0","","99.63","","","","","","NA"
"2003-04-24 13:00","2003","04","24","13:00","1.1","","-4.2","","68","","19","","15","","15.0","","99.56","","","","","","NA"
"2003-04-24 14:00","2003","04","24","14:00","1.2","","-4.3","","67","","19","","19","","15.0","","99.51","","","","","","NA"
"2003-04-24 15:00","2003","04","24","15:00","2.5","","-6.4","","52","","19","","6","","15.0","","99.44","","","","","","NA"
"2003-04-24 16:00","2003","04","24","16:00","3.0","","-6.5","","50","","19","","4","","15.0","","99.38","","","","","","NA"
"2003-04-24 17:00","2003","04","24","17:00","4.6","","-5.3","","49","","14","","4","","15.0","","99.33","","","","","","NA"
"2003-04-24 18:00","2003","04","24","18:00","4.4","","-6.0","","47","","12","","6","","15.0","","99.26","","","","","","NA"
"2003-04-24 19:00","2003","04","24","19:00","3.5","","-6.0","","50","","5","","6","","15.0","","99.27","","","","","","NA"
"2003-04-24 20:00","2003","04","24","20:00","4.9","","-8.0","","39","","5","","7","","15.0","","99.27","","","","","","NA"
"2003-04-24 21:00","2003","04","24","21:00","4.7","","-3.7","","54","","5","","11","","15.0","","99.27","","","","","","NA"
"2003-04-24 22:00","2003","04","24","22:00","5.0","","-1.5","","63","","5","","6","","15.0","","99.27","","","","","","NA"
"2003-04-24 23:00","2003","04","24","23:00","4.9","","-1.2","","65","","35","","4","","15.0","","99.27","","","","","","NA"
"2003-04-25 00:00","2003","04","25","00:00","4.6","","-1.7","","64","","1","","6","","15.0","","99.26","","","","","","NA"
"2003-04-25 01:00","2003","04","25","01:00","4.3","","-1.8","","64","","4","","9","","15.0","","99.22","","","","","","NA"
"2003-04-25 02:00","2003","04","25","02:00","3.8","","-3.3","","60","","4","","13","","15.0","","99.18","","","","","","NA"
"2003-04-25 03:00","2003","04","25","03:00","3.2","","-5.3","","54","","5","","11","","15.0","","99.17","","","","","","NA"
"2003-04-25 04:00","2003","04","25","04:00","2.3","","-6.4","","53","","7","","15","","15.0","","99.15","","","","","","NA"
"2003-04-25 05:00","2003","04","25","05:00","1.8","","-6.1","","56","","7","","15","","15.0","","99.18","","","","","","NA"
"2003-04-25 06:00","2003","04","25","06:00","1.1","","-7.3","","53","","7","","19","","15.0","","99.27","","","","","","NA"
"2003-04-25 07:00","2003","04","25","07:00","1.0","","-6.9","","56","","8","","20","","15.0","","99.29","","","","","","NA"
"2003-04-25 08:00","2003","04","25","08:00","1.8","","-7.6","","50","","7","","19","","15.0","","99.31","","","","","","NA"
"2003-04-25 09:00","2003","04","25","09:00","3.2","","-8.3","","43","","7","","15","","15.0","","99.29","","","","","","NA"
"2003-04-25 10:00","2003","04","25","10:00","5.0","","-8.9","","36","","7","","11","","15.0","","99.29","","","","","","NA"
"2003-04-25 11:00","2003","04","25","11:00","1.9","","-7.5","","50","","15","","13","","15.0","","99.22","","","","","","NA"
"2003-04-25 12:00","2003","04","25","12:00","2.3","","-7.7","","48","","18","","19","","15.0","","99.17","","","","","","NA"
"2003-04-25 13:00","2003","04","25","13:00","1.4","","-4.5","","65","","22","","11","","15.0","","99.09","","","","","","NA"
"2003-04-25 14:00","2003","04","25","14:00","1.8","","-5.4","","59","","21","","13","","15.0","","99.04","","","","","","NA"
"2003-04-25 15:00","2003","04","25","15:00","2.2","","-5.5","","57","","18","","13","","15.0","","98.99","","","","","","NA"
"2003-04-25 16:00","2003","04","25","16:00","2.7","","-4.8","","58","","22","","9","","15.0","","98.93","","","","","","NA"
"2003-04-25 17:00","2003","04","25","17:00","2.8","","-5.2","","56","","21","","9","","15.0","","98.91","","","","","","NA"
"2003-04-25 18:00","2003","04","25","18:00","4.1","","-6.6","","46","","22","","11","","15.0","","98.91","","","","","","NA"
"2003-04-25 19:00","2003","04","25","19:00","5.6","","-7.7","","38","","27","","6","","15.0","","98.93","","","","","","NA"
"2003-04-25 20:00","2003","04","25","20:00","4.2","","-6.8","","45","","31","","13","","15.0","","98.95","","","","","","NA"
"2003-04-25 21:00","2003","04","25","21:00","3.9","","-6.2","","48","","32","","13","","15.0","","98.93","","","","","","NA"
"2003-04-25 22:00","2003","04","25","22:00","3.2","","-6.6","","49","","33","","17","","15.0","","98.90","","","","","","NA"
"2003-04-25 23:00","2003","04","25","23:00","3.6","","-5.9","","50","","36","","11","","15.0","","98.91","","","","","","NA"
"2003-04-26 00:00","2003","04","26","00:00","3.5","","-4.8","","55","","4","","7","","15.0","","98.91","","","","","","NA"
"2003-04-26 01:00","2003","04","26","01:00","2.5","","-6.4","","52","","6","","13","","15.0","","98.88","","","","","","NA"
"2003-04-26 02:00","2003","04","26","02:00","2.3","","-6.6","","52","","6","","15","","15.0","","98.86","","","","","","NA"
"2003-04-26 03:00","2003","04","26","03:00","1.7","","-6.7","","54","","6","","13","","15.0","","98.84","","","","","","NA"
"2003-04-26 04:00","2003","04","26","04:00","1.2","","-6.9","","55","","8","","6","","15.0","","98.86","","","","","","NA"
"2003-04-26 05:00","2003","04","26","05:00","1.1","","-7.3","","53","","6","","7","","15.0","","98.86","","","","","","NA"
"2003-04-26 06:00","2003","04","26","06:00","1.5","","-6.6","","55","","7","","11","","15.0","","98.90","","","","","","NA"
"2003-04-26 07:00","2003","04","26","07:00","1.9","","-7.0","","52","","7","","7","","15.0","","98.91","","","","","","NA"
"2003-04-26 08:00","2003","04","26","08:00","2.4","","-7.6","","48","","27","","11","","15.0","","98.95","","","","","","NA"
"2003-04-26 09:00","2003","04","26","09:00","3.5","","-6.8","","47","","32","","15","","15.0","","98.97","","","","","","NA"
"2003-04-26 10:00","2003","04","26","10:00","4.9","","-6.7","","43","","28","","11","","15.0","","98.95","","","","","","NA"
"2003-04-26 11:00","2003","04","26","11:00","5.6","","-6.7","","41","","27","","17","","15.0","","98.95","","","","","","NA"
"2003-04-26 12:00","2003","04","26","12:00","6.8","","-6.6","","38","","27","","17","","15.0","","98.93","","","","","","NA"
"2003-04-26 13:00","2003","04","26","13:00","6.3","","-6.4","","40","","23","","19","","15.0","","98.90","","","","","","NA"
"2003-04-26 14:00","2003","04","26","14:00","5.7","","-5.7","","44","","24","","19","","15.0","","98.90","","","","","","NA"
"2003-04-26 15:00","2003","04","26","15:00","7.7","","-7.3","","34","","28","","22","","15.0","","98.90","","","","","","NA"
"2003-04-26 16:00","2003","04","26","16:00","8.0","","-11.4","","24","","28","","20","","15.0","","98.91","","","","","","NA"
"2003-04-26 17:00","2003","04","26","17:00","7.9","","-8.7","","30","","28","","22","","15.0","","98.95","","","","","","NA"
"2003-04-26 18:00","2003","04","26","18:00","7.5","","-7.8","","33","","27","","26","","15.0","","98.99","","","","","","NA"
"2003-04-26 19:00","2003","04","26","19:00","6.4","","-8.8","","33","","28","","20","","15.0","","98.99","","","","","","NA"
"2003-04-26 20:00","2003","04","26","20:00","5.1","","-8.1","","38","","28","","19","","15.0","","99.00","","","","","","NA"
"2003-04-26 21:00","2003","04","26","21:00","4.4","","-8.1","","40","","25","","9","","15.0","","99.02","","","","","","NA"
"2003-04-26 22:00","2003","04","26","22:00","3.5","","-7.1","","46","","30","","9","","15.0","","99.06","","","","","","NA"
"2003-04-26 23:00","2003","04","26","23:00","3.6","","-7.0","","46","","31","","20","","15.0","","99.06","","","","","","NA"
"2003-04-27 00:00","2003","04","27","00:00","3.8","","-7.1","","45","","30","","24","","15.0","","99.09","","","","","","NA"
"2003-04-27 01:00","2003","04","27","01:00","3.5","","-6.8","","47","","31","","13","","15.0","","99.09","","","","","","NA"
"2003-04-27 02:00","2003","04","27","02:00","4.0","","-6.9","","45","","31","","15","","15.0","","99.08","","","","","","NA"
"2003-04-27 03:00","2003","04","27","03:00","2.9","","-6.6","","50","","30","","7","","15.0","","99.11","","","","","","NA"
"2003-04-27 04:00","2003","04","27","04:00","1.2","","-4.7","","65","","28","","6","","15.0","","99.11","","","","","","NA"
"2003-04-27 05:00","2003","04","27","05:00","1.0","","-3.4","","72","","27","","6","","15.0","","99.15","","","","","","NA"
"2003-04-27 06:00","2003","04","27","06:00","1.6","","-4.4","","64","","28","","2","","15.0","","99.18","","","","","","NA"
"2003-04-27 07:00","2003","04","27","07:00","2.8","","-6.4","","51","","19","","6","","15.0","","99.20","","","","","","NA"
"2003-04-27 08:00","2003","04","27","08:00","2.5","","-4.3","","61","","10","","7","","15.0","","99.22","","","","","","NA"
"2003-04-27 09:00","2003","04","27","09:00","2.6","","-2.6","","69","","10","","7","","15.0","","99.26","","","","","","NA"
"2003-04-27 10:00","2003","04","27","10:00","2.7","","-1.4","","74","","9","","11","","15.0","","99.17","","","","","","NA"
"2003-04-27 11:00","2003","04","27","11:00","3.7","","-3.4","","60","","19","","9","","15.0","","99.17","","","","","","NA"
"2003-04-27 12:00","2003","04","27","12:00","2.8","","-2.2","","70","","20","","9","","15.0","","99.09","","","","","","NA"
"2003-04-27 13:00","2003","04","27","13:00","3.2","","-1.4","","72","","11","","7","","15.0","","99.06","","","","","","NA"
"2003-04-27 14:00","2003","04","27","14:00","3.0","","-0.5","","78","","17","","4","","15.0","","99.08","","","","","","NA"
"2003-04-27 15:00","2003","04","27","15:00","4.1","","0.1","","75","","10","","6","","15.0","","99.06","","","","","","NA"
"2003-04-27 16:00","2003","04","27","16:00","4.5","","1.5","","81","","9","","9","","15.0","","98.95","","","","","","NA"
"2003-04-27 17:00","2003","04","27","17:00","3.6","","2.1","","90","","8","","9","","15.0","","98.91","","","","","","NA"
"2003-04-27 18:00","2003","04","27","18:00","4.9","","2.3","","83","","7","","9","","15.0","","98.86","","","","","","NA"
"2003-04-27 19:00","2003","04","27","19:00","4.5","","0.5","","75","","9","","15","","15.0","","98.79","","","","","","NA"
"2003-04-27 20:00","2003","04","27","20:00","3.4","","1.1","","85","","9","","20","","15.0","","98.72","","","","","","NA"
"2003-04-27 21:00","2003","04","27","21:00","4.6","","1.1","","78","","8","","13","","15.0","","98.72","","","","","","NA"
"2003-04-27 22:00","2003","04","27","22:00","5.4","","-1.2","","62","","7","","13","","15.0","","98.63","","","","","","NA"
"2003-04-27 23:00","2003","04","27","23:00","5.7","","-1.8","","58","","7","","9","","15.0","","98.55","","","","","","NA"
"2003-04-28 00:00","2003","04","28","00:00","5.3","","-0.8","","65","","8","","11","","15.0","","98.50","","","","","","NA"
"2003-04-28 01:00","2003","04","28","01:00","5.2","","-0.1","","69","","9","","13","","15.0","","98.43","","","","","","NA"
"2003-04-28 02:00","2003","04","28","02:00","4.5","","1.4","","80","","7","","15","","15.0","","98.37","","","","","","NA"
"2003-04-28 03:00","2003","04","28","03:00","4.7","","1.2","","78","","6","","9","","15.0","","98.36","","","","","","NA"
"2003-04-28 04:00","2003","04","28","04:00","4.5","","1.0","","78","","28","","2","","15.0","","98.34","","","","","","NA"
"2003-04-28 05:00","2003","04","28","05:00","4.9","","0.7","","74","","17","","2","","15.0","","98.30","","","","","","NA"
"2003-04-28 06:00","2003","04","28","06:00","5.1","","1.0","","75","","35","","2","","15.0","","98.30","","","","","","NA"
"2003-04-28 07:00","2003","04","28","07:00","6.1","","-2.6","","54","","27","","4","","15.0","","98.32","","","","","","NA"
"2003-04-28 08:00","2003","04","28","08:00","6.6","","-4.3","","46","","21","","6","","15.0","","98.34","","","","","","NA"
"2003-04-28 09:00","2003","04","28","09:00","11.6","","0.1","","45","","28","","20","","15.0","","98.34","","","","","","NA"
"2003-04-28 10:00","2003","04","28","10:00","12.5","","1.5","","47","","28","","24","","15.0","","98.36","","","","","","NA"
"2003-04-28 11:00","2003","04","28","11:00","13.5","","-0.6","","38","","28","","39","","15.0","","98.36","","","","","","NA"
"2003-04-28 12:00","2003","04","28","12:00","12.4","","-0.2","","42","","27","","43","","15.0","","98.37","","","","","","NA"
"2003-04-28 13:00","2003","04","28","13:00","12.2","","0.6","","45","","28","","41","","15.0","","98.39","","","","","","NA"
"2003-04-28 14:00","2003","04","28","14:00","12.3","","-0.3","","42","","27","","39","","15.0","","98.41","","","","","","NA"
"2003-04-28 15:00","2003","04","28","15:00","11.7","","-0.9","","42","","27","","41","","15.0","","98.43","","","","","","NA"
"2003-04-28 16:00","2003","04","28","16:00","11.7","","-0.5","","43","","27","","39","","15.0","","98.48","","","","","","NA"
"2003-04-28 17:00","2003","04","28","17:00","11.8","","-0.8","","42","","28","","35","","15.0","","98.52","","","","","","NA"
"2003-04-28 18:00","2003","04","28","18:00","10.6","","-1.2","","44","","29","","28","","15.0","","98.59","","","","","","NA"
"2003-04-28 19:00","2003","04","28","19:00","7.5","","-1.5","","53","","28","","26","","15.0","","98.68","","","","","","NA"
"2003-04-28 20:00","2003","04","28","20:00","7.3","","-0.5","","58","","31","","20","","15.0","","98.79","","","","","","NA"
"2003-04-28 21:00","2003","04","28","21:00","7.1","","-0.7","","58","","31","","15","","15.0","","98.90","","","","","","NA"
"2003-04-28 22:00","2003","04","28","22:00","7.3","","-1.0","","56","","33","","19","","15.0","","98.97","","","","","","NA"
"2003-04-28 23:00","2003","04","28","23:00","6.4","","-1.3","","58","","34","","13","","15.0","","99.06","","","","","","NA"
"2003-04-29 00:00","2003","04","29","00:00","5.6","","-1.4","","61","","32","","17","","15.0","","99.08","","","","","","NA"
"2003-04-29 01:00","2003","04","29","01:00","4.9","","-0.8","","67","","32","","15","","15.0","","99.13","","","","","","NA"
"2003-04-29 02:00","2003","04","29","02:00","4.0","","0.5","","78","","31","","13","","15.0","","99.15","","","","","","NA"
"2003-04-29 03:00","2003","04","29","03:00","3.0","","0.9","","86","","31","","11","","15.0","","99.17","","","","","","NA"
"2003-04-29 04:00","2003","04","29","04:00","2.9","","1.1","","88","","32","","15","","15.0","","99.22","","","","","","NA"
"2003-04-29 05:00","2003","04","29","05:00","2.5","","1.0","","90","","31","","13","","15.0","","99.26","","","","","","NA"
"2003-04-29 06:00","2003","04","29","06:00","2.6","","0.7","","87","","32","","9","","15.0","","99.31","","","","","","NA"
"2003-04-29 07:00","2003","04","29","07:00","2.7","","0.4","","85","","29","","19","","15.0","","99.42","","","","","","NA"
"2003-04-29 08:00","2003","04","29","08:00","3.2","","0.4","","82","","29","","17","","15.0","","99.47","","","","","","NA"
"2003-04-29 09:00","2003","04","29","09:00","5.0","","-1.8","","61","","33","","9","","15.0","","99.47","","","","","","NA"
"2003-04-29 10:00","2003","04","29","10:00","5.3","","-2.6","","57","","28","","15","","15.0","","99.49","","","","","","NA"
"2003-04-29 11:00","2003","04","29","11:00","5.3","","-3.3","","54","","23","","13","","15.0","","99.44","","","","","","NA"
"2003-04-29 12:00","2003","04","29","12:00","4.8","","-3.3","","56","","23","","30","","15.0","","99.44","","","","","","NA"
"2003-04-29 13:00","2003","04","29","13:00","4.7","","-4.1","","53","","22","","28","","15.0","","99.47","","","","","","NA"
"2003-04-29 14:00","2003","04","29","14:00","3.7","","-1.7","","68","","23","","22","","15.0","","99.44","","","","","","NA"
"2003-04-29 15:00","2003","04","29","15:00","5.0","","-1.5","","63","","23","","24","","15.0","","99.42","","","","","","NA"
"2003-04-29 16:00","2003","04","29","16:00","9.1","","-7.2","","31","","27","","22","","15.0","","99.38","","","","","","NA"
"2003-04-29 17:00","2003","04","29","17:00","9.6","","-7.2","","30","","27","","24","","15.0","","99.38","","","","","","NA"
"2003-04-29 18:00","2003","04","29","18:00","9.2","","-7.6","","30","","27","","26","","15.0","","99.36","","","","","","NA"
"2003-04-29 19:00","2003","04","29","19:00","8.3","","-7.1","","33","","27","","15","","15.0","","99.38","","","","","","NA"
"2003-04-29 20:00","2003","04","29","20:00","7.1","","-5.3","","41","","27","","15","","15.0","","99.42","","","","","","NA"
"2003-04-29 21:00","2003","04","29","21:00","6.1","","-5.0","","45","","29","","9","","15.0","","99.47","","","","","","NA"
"2003-04-29 22:00","2003","04","29","22:00","5.8","","-4.2","","49","","27","","15","","15.0","","99.47","","","","","","NA"
"2003-04-29 23:00","2003","04","29","23:00","4.0","","-3.1","","60","","30","","11","","15.0","","99.49","","","","","","NA"
"2003-04-30 00:00","2003","04","30","00:00","3.3","","-2.5","","66","","29","","11","","15.0","","99.51","","","","","","NA"
"2003-04-30 01:00","2003","04","30","01:00","3.6","","-2.0","","67","","29","","15","","15.0","","99.51","","","","","","NA"
"2003-04-30 02:00","2003","04","30","02:00","3.8","","-2.5","","63","","30","","13","","15.0","","99.51","","","","","","NA"
"2003-04-30 03:00","2003","04","30","03:00","3.1","","-2.9","","65","","32","","13","","15.0","","99.53","","","","","","NA"
"2003-04-30 04:00","2003","04","30","04:00","2.6","","-3.2","","66","","30","","4","","15.0","","99.53","","","","","","NA"
"2003-04-30 05:00","2003","04","30","05:00","2.7","","-2.7","","68","","1","","4","","15.0","","99.60","","","","","","NA"
"2003-04-30 06:00","2003","04","30","06:00","2.2","","-2.0","","74","","8","","9","","15.0","","99.69","","","","","","NA"
"2003-04-30 07:00","2003","04","30","07:00","1.8","","-4.0","","65","","9","","15","","15.0","","99.71","","","","","","NA"
"2003-04-30 08:00","2003","04","30","08:00","2.4","","-4.4","","61","","9","","11","","15.0","","99.72","","","","","","NA"
"2003-04-30 09:00","2003","04","30","09:00","2.4","","-3.4","","65","","14","","9","","15.0","","99.72","","","","","","NA"
"2003-04-30 10:00","2003","04","30","10:00","2.0","","-2.4","","73","","17","","7","","15.0","","99.74","","","","","","NA"
"2003-04-30 11:00","2003","04","30","11:00","2.5","","-1.2","","77","","14","","13","","15.0","","99.74","","","","","","NA"
"2003-04-30 12:00","2003","04","30","12:00","3.2","","-0.7","","76","","14","","11","","15.0","","99.65","","","","","","NA"
"2003-04-30 13:00","2003","04","30","13:00","3.8","","0.9","","81","","9","","7","","15.0","","99.65","","","","","","NA"
"2003-04-30 14:00","2003","04","30","14:00","3.5","","-0.6","","74","","9","","11","","15.0","","99.56","","","","","","NA"
"2003-04-30 15:00","2003","04","30","15:00","3.9","","-1.2","","69","","9","","9","","15.0","","99.45","","","","","","NA"
"2003-04-30 16:00","2003","04","30","16:00","4.3","","-2.4","","62","","9","","9","","15.0","","99.38","","","","","","NA"
"2003-04-30 17:00","2003","04","30","17:00","5.7","","-6.6","","41","","9","","7","","15.0","","99.27","","","","","","NA"
"2003-04-30 18:00","2003","04","30","18:00"
"2003-04-30 19:00","2003","04","30","19:00","7.7","","-4.5","","42","","9","","7","","15.0","","99.15","","","","","","NA"
"2003-04-30 20:00","2003","04","30","20:00"
"2003-04-30 21:00","2003","04","30","21:00"
"2003-04-30 22:00","2003","04","30","22:00","4.3","","2.3","","87","","5","","6","","15.0","","99.13","","","","","","NA"
"2003-04-30 23:00","2003","04","30","23:00","4.2","","3.2","","93","","8","","7","","15.0","","99.00","","","","","","NA"
