"Station Name","KILLARNEY (AUT)"
"Province","ONTARIO"
"Latitude","45.97"
"Longitude","-81.48"
"Elevation","196.30"
"Climate Identifier","605DJ25"
"WMO Identifier","71460"
"TC Identifier","WBE"
"All times are specified in Local Standard Time (LST). Add 1 hour to adjust for Daylight Saving Time where and when it is observed."

"Legend"
"E","Estimated"
"M","Missing"
"NA","Not Available"

"Date/Time","Year","Month","Day","Time","Temp (°C)","Temp Flag","Dew Point Temp (°C)","Dew Point Temp Flag","Rel Hum (%)","Rel Hum Flag","Wind Dir (10s deg)","Wind Dir Flag","Wind Spd (km/h)","Wind Spd Flag","Visibility (km)","Visibility Flag","Stn Press (kPa)","Stn Press Flag","Hmdx","Hmdx Flag","Wind Chill","Wind Chill Flag","Weather"
"2015-08-01 00:00","2015","08","01","00:00","18.2","","12.0","","67","","30","","17","","","","98.54","","","","","","NA"
"2015-08-01 01:00","2015","08","01","01:00","17.5","","11.4","","68","","31","","17","","","","98.54","","","","","","NA"
"2015-08-01 02:00","2015","08","01","02:00","16.8","","12.8","","77","","28","","17","","","","98.54","","","","","","NA"
"2015-08-01 03:00","2015","08","01","03:00","16.5","","13.1","","81","","29","","17","","","","98.54","","","","","","NA"
"2015-08-01 04:00","2015","08","01","04:00","16.4","","12.8","","79","","29","","18","","","","98.56","","","","","","NA"
"2015-08-01 05:00","2015","08","01","05:00","16.2","","12.7","","80","","29","","16","","","","98.59","","","","","","NA"
"2015-08-01 06:00","2015","08","01","06:00","16.6","","12.5","","77","","29","","19","","","","98.61","","","","","","NA"
"2015-08-01 07:00","2015","08","01","07:00","17.0","","13.1","","78","","30","","17","","","","98.63","","","","","","NA"
"2015-08-01 08:00","2015","08","01","08:00","17.5","","13.0","","75","","28","","20","","","","98.63","","","","","","NA"
"2015-08-01 09:00","2015","08","01","09:00","18.2","","12.7","","70","","28","","21","","","","98.65","","","","","","NA"
"2015-08-01 10:00","2015","08","01","10:00","19.1","","11.9","","63","","27","","18","","","","98.64","","","","","","NA"
"2015-08-01 11:00","2015","08","01","11:00","19.2","","12.3","","65","","27","","20","","","","98.67","","","","","","NA"
"2015-08-01 12:00","2015","08","01","12:00","19.6","","11.9","","61","","28","","23","","","","98.66","","","","","","NA"
"2015-08-01 13:00","2015","08","01","13:00","21.6","","9.5","","46","","27","","22","","","","98.60","","","","","","NA"
"2015-08-01 14:00","2015","08","01","14:00","22.2","","9.3","","44","","28","","25","","","","98.58","","","","","","NA"
"2015-08-01 15:00","2015","08","01","15:00","23.1","","8.6","","40","","29","","25","","","","98.53","","","","","","NA"
"2015-08-01 16:00","2015","08","01","16:00","22.7","","11.2","","48","","28","","25","","","","98.55","","25","","","","NA"
"2015-08-01 17:00","2015","08","01","17:00","22.8","","11.3","","48","","28","","26","","","","98.51","","25","","","","NA"
"2015-08-01 18:00","2015","08","01","18:00","22.2","","10.7","","48","","27","","20","","","","98.46","","","","","","NA"
"2015-08-01 19:00","2015","08","01","19:00","21.0","","12.7","","59","","25","","16","","","","98.49","","","","","","NA"
"2015-08-01 20:00","2015","08","01","20:00","19.5","","13.1","","67","","27","","19","","","","98.53","","","","","","NA"
"2015-08-01 21:00","2015","08","01","21:00","18.5","","13.7","","74","","26","","18","","","","98.59","","","","","","NA"
"2015-08-01 22:00","2015","08","01","22:00","17.8","","13.8","","78","","27","","14","","","","98.60","","","","","","NA"
"2015-08-01 23:00","2015","08","01","23:00","17.5","","13.5","","78","","27","","13","","","","98.60","","","","","","NA"
"2015-08-02 00:00","2015","08","02","00:00","17.0","","13.5","","80","","27","","13","","","","98.60","","","","","","NA"
"2015-08-02 01:00","2015","08","02","01:00","16.3","","13.4","","83","","29","","9","","","","98.58","","","","","","NA"
"2015-08-02 02:00","2015","08","02","02:00","16.3","","13.4","","83","","29","","8","","","","98.53","","","","","","NA"
"2015-08-02 03:00","2015","08","02","03:00","16.1","","13.0","","82","","27","","7","","","","98.49","","","","","","NA"
"2015-08-02 04:00","2015","08","02","04:00","16.3","","12.5","","79","","21","","5","","","","98.43","","","","","","NA"
"2015-08-02 05:00","2015","08","02","05:00","15.7","","13.3","","86","","19","","2","","","","98.41","","","","","","NA"
"2015-08-02 06:00","2015","08","02","06:00","15.6","","13.8","","89","","6","","2","","","","98.42","","","","","","NA"
"2015-08-02 07:00","2015","08","02","07:00","16.9","","13.1","","79","","7","","4","","","","98.41","","","","","","NA"
"2015-08-02 08:00","2015","08","02","08:00","18.7","","12.7","","68","","24","","18","","","","98.31","","","","","","NA"
"2015-08-02 09:00","2015","08","02","09:00","18.7","","13.1","","70","","20","","14","","","","98.29","","","","","","NA"
"2015-08-02 10:00","2015","08","02","10:00","16.1","","12.3","","78","","19","","10","","","","98.30","","","","","","NA"
"2015-08-02 11:00","2015","08","02","11:00","20.4","","13.5","","64","","24","","28","","","","98.32","","","","","","NA"
"2015-08-02 12:00","2015","08","02","12:00","17.7","","15.7","","88","","27","","12","","","","98.26","","","","","","NA"
"2015-08-02 13:00","2015","08","02","13:00","16.0","","14.8","","93","","24","","28","","","","98.07","","","","","","NA"
"2015-08-02 14:00","2015","08","02","14:00","16.6","","14.5","","87","","23","","16","","","","98.08","","","","","","NA"
"2015-08-02 15:00","2015","08","02","15:00","14.4","","13.1","","92","","24","","10","","","","98.01","","","","","","NA"
"2015-08-02 16:00","2015","08","02","16:00","15.1","","13.6","","91","","21","","15","","","","98.13","","","","","","NA"
"2015-08-02 17:00","2015","08","02","17:00","14.6","","13.3","","92","","16","","11","","","","97.99","","","","","","NA"
"2015-08-02 18:00","2015","08","02","18:00","14.9","","13.8","","93","","22","","6","","","","97.88","","","","","","NA"
"2015-08-02 19:00","2015","08","02","19:00","16.2","","14.6","","90","","24","","17","","","","98.00","","","","","","NA"
"2015-08-02 20:00","2015","08","02","20:00","15.2","","14.1","","93","","4","","12","","","","97.79","","","","","","NA"
"2015-08-02 21:00","2015","08","02","21:00","16.4","","15.3","","93","","26","","5","","","","97.87","","","","","","NA"
"2015-08-02 22:00","2015","08","02","22:00"
"2015-08-02 23:00","2015","08","02","23:00"
"2015-08-03 00:00","2015","08","03","00:00"
"2015-08-03 01:00","2015","08","03","01:00","15.8","","14.8","","94","","29","","2","","","","97.81","","","","","","NA"
"2015-08-03 02:00","2015","08","03","02:00","14.5","","13.6","","94","","20","","2","","","","97.80","","","","","","NA"
"2015-08-03 03:00","2015","08","03","03:00","16.5","","15.6","","94","","25","","12","","","","97.84","","","","","","NA"
"2015-08-03 04:00","2015","08","03","04:00","16.8","","15.8","","94","","26","","11","","","","97.87","","","","","","NA"
"2015-08-03 05:00","2015","08","03","05:00","16.8","","15.4","","91","","27","","15","","","","97.93","","","","","","NA"
"2015-08-03 06:00","2015","08","03","06:00","16.8","","15.1","","90","","30","","13","","","","98.00","","","","","","NA"
"2015-08-03 07:00","2015","08","03","07:00","17.1","","14.4","","84","","30","","15","","","","98.06","","","","","","NA"
"2015-08-03 08:00","2015","08","03","08:00","17.7","","14.5","","82","","28","","18","","","","98.09","","","","","","NA"
"2015-08-03 09:00","2015","08","03","09:00","17.6","","13.9","","79","","28","","28","","","","98.12","","","","","","NA"
"2015-08-03 10:00","2015","08","03","10:00","18.0","","13.9","","77","","28","","27","","","","98.15","","","","","","NA"
"2015-08-03 11:00","2015","08","03","11:00","18.2","","12.9","","71","","28","","29","","","","98.20","","","","","","NA"
"2015-08-03 12:00","2015","08","03","12:00","19.6","","11.2","","58","","28","","29","","","","98.21","","","","","","NA"
"2015-08-03 13:00","2015","08","03","13:00","20.9","","9.8","","49","","29","","25","","","","98.22","","","","","","NA"
"2015-08-03 14:00","2015","08","03","14:00","21.1","","9.1","","46","","29","","31","","","","98.22","","","","","","NA"
"2015-08-03 15:00","2015","08","03","15:00","21.0","","10.5","","51","","28","","28","","","","98.25","","","","","","NA"
"2015-08-03 16:00","2015","08","03","16:00","19.8","","11.3","","58","","29","","32","","","","98.28","","","","","","NA"
"2015-08-03 17:00","2015","08","03","17:00","19.5","","10.2","","55","","28","","33","","","","98.28","","","","","","NA"
"2015-08-03 18:00","2015","08","03","18:00","19.0","","10.7","","58","","28","","31","","","","98.30","","","","","","NA"
"2015-08-03 19:00","2015","08","03","19:00","18.3","","11.0","","62","","28","","30","","","","98.33","","","","","","NA"
"2015-08-03 20:00","2015","08","03","20:00","17.7","","11.6","","68","","28","","31","","","","98.37","","","","","","NA"
"2015-08-03 21:00","2015","08","03","21:00","17.2","","11.6","","70","","27","","25","","","","98.45","","","","","","NA"
"2015-08-03 22:00","2015","08","03","22:00","16.7","","11.6","","72","","27","","21","","","","98.48","","","","","","NA"
"2015-08-03 23:00","2015","08","03","23:00","15.6","","11.4","","76","","27","","16","","","","98.47","","","","","","NA"
"2015-08-04 00:00","2015","08","04","00:00","15.9","","10.5","","70","","29","","14","","","","98.51","","","","","","NA"
"2015-08-04 01:00","2015","08","04","01:00","15.8","","9.4","","66","","29","","17","","","","98.53","","","","","","NA"
"2015-08-04 02:00","2015","08","04","02:00","15.3","","9.6","","69","","31","","14","","","","98.53","","","","","","NA"
"2015-08-04 03:00","2015","08","04","03:00","14.8","","10.5","","76","","28","","14","","","","98.57","","","","","","NA"
"2015-08-04 04:00","2015","08","04","04:00","14.7","","11.0","","79","","27","","12","","","","98.59","","","","","","NA"
"2015-08-04 05:00","2015","08","04","05:00","14.8","","11.1","","79","","26","","14","","","","98.63","","","","","","NA"
"2015-08-04 06:00","2015","08","04","06:00","14.8","","11.4","","80","","26","","15","","","","98.70","","","","","","NA"
"2015-08-04 07:00","2015","08","04","07:00","14.9","","12.0","","83","","26","","14","","","","98.71","","","","","","NA"
"2015-08-04 08:00","2015","08","04","08:00","14.6","","12.2","","86","","28","","14","","","","98.73","","","","","","NA"
"2015-08-04 09:00","2015","08","04","09:00","14.9","","12.2","","84","","22","","13","","","","98.75","","","","","","NA"
"2015-08-04 10:00","2015","08","04","10:00","15.9","","12.2","","78","","24","","12","","","","98.76","","","","","","NA"
"2015-08-04 11:00","2015","08","04","11:00","16.4","","12.2","","76","","24","","20","","","","98.77","","","","","","NA"
"2015-08-04 12:00","2015","08","04","12:00","15.5","","12.0","","80","","23","","22","","","","98.77","","","","","","NA"
"2015-08-04 13:00","2015","08","04","13:00","16.5","","13.0","","80","","21","","22","","","","98.76","","","","","","NA"
"2015-08-04 14:00","2015","08","04","14:00","15.8","","12.2","","79","","23","","22","","","","98.74","","","","","","NA"
"2015-08-04 15:00","2015","08","04","15:00","19.3","","9.7","","54","","28","","25","","","","98.75","","","","","","NA"
"2015-08-04 16:00","2015","08","04","16:00","19.3","","9.4","","53","","28","","29","","","","98.74","","","","","","NA"
"2015-08-04 17:00","2015","08","04","17:00","19.0","","9.9","","56","","28","","30","","","","98.75","","","","","","NA"
"2015-08-04 18:00","2015","08","04","18:00","18.6","","10.7","","60","","28","","29","","","","98.74","","","","","","NA"
"2015-08-04 19:00","2015","08","04","19:00","18.1","","10.3","","60","","29","","29","","","","98.78","","","","","","NA"
"2015-08-04 20:00","2015","08","04","20:00","17.6","","10.8","","65","","29","","17","","","","98.86","","","","","","NA"
"2015-08-04 21:00","2015","08","04","21:00","17.2","","11.4","","69","","30","","16","","","","98.92","","","","","","NA"
"2015-08-04 22:00","2015","08","04","22:00","16.6","","12.0","","74","","28","","10","","","","98.96","","","","","","NA"
"2015-08-04 23:00","2015","08","04","23:00","16.9","","11.3","","70","","34","","9","","","","98.99","","","","","","NA"
"2015-08-05 00:00","2015","08","05","00:00","16.1","","10.5","","69","","32","","8","","","","99.03","","","","","","NA"
"2015-08-05 01:00","2015","08","05","01:00","15.7","","10.4","","71","","32","","7","","","","99.04","","","","","","NA"
"2015-08-05 02:00","2015","08","05","02:00","15.6","","10.4","","72","","32","","13","","","","99.05","","","","","","NA"
"2015-08-05 03:00","2015","08","05","03:00","15.5","","10.4","","72","","32","","9","","","","99.07","","","","","","NA"
"2015-08-05 04:00","2015","08","05","04:00","15.2","","10.7","","74","","32","","15","","","","99.10","","","","","","NA"
"2015-08-05 05:00","2015","08","05","05:00","14.6","","10.7","","77","","32","","10","","","","99.12","","","","","","NA"
"2015-08-05 06:00","2015","08","05","06:00","15.0","","10.9","","76","","33","","13","","","","99.14","","","","","","NA"
"2015-08-05 07:00","2015","08","05","07:00","15.5","","10.8","","74","","33","","13","","","","99.16","","","","","","NA"
"2015-08-05 08:00","2015","08","05","08:00","16.2","","10.3","","68","","33","","13","","","","99.22","","","","","","NA"
"2015-08-05 09:00","2015","08","05","09:00","16.4","","9.6","","64","","36","","13","","","","99.23","","","","","","NA"
"2015-08-05 10:00","2015","08","05","10:00","17.1","","8.8","","58","","34","","14","","","","99.25","","","","","","NA"
"2015-08-05 11:00","2015","08","05","11:00","17.4","","8.2","","55","","32","","14","","","","99.29","","","","","","NA"
"2015-08-05 12:00","2015","08","05","12:00","15.9","","9.5","","66","","23","","19","","","","99.28","","","","","","NA"
"2015-08-05 13:00","2015","08","05","13:00","18.5","","8.5","","52","","26","","14","","","","99.28","","","","","","NA"
"2015-08-05 14:00","2015","08","05","14:00","19.5","","7.3","","45","","29","","18","","","","99.29","","","","","","NA"
"2015-08-05 15:00","2015","08","05","15:00","19.5","","9.5","","52","","27","","23","","","","99.27","","","","","","NA"
"2015-08-05 16:00","2015","08","05","16:00","19.7","","9.9","","53","","29","","20","","","","99.29","","","","","","NA"
"2015-08-05 17:00","2015","08","05","17:00","20.1","","9.5","","50","","28","","26","","","","99.27","","","","","","NA"
"2015-08-05 18:00","2015","08","05","18:00","20.1","","9.2","","49","","28","","26","","","","99.26","","","","","","NA"
"2015-08-05 19:00","2015","08","05","19:00","19.4","","10.9","","58","","28","","21","","","","99.25","","","","","","NA"
"2015-08-05 20:00","2015","08","05","20:00","18.3","","11.9","","66","","29","","10","","","","99.28","","","","","","NA"
"2015-08-05 21:00","2015","08","05","21:00","18.6","","10.6","","60","","32","","11","","","","99.31","","","","","","NA"
"2015-08-05 22:00","2015","08","05","22:00","18.2","","10.0","","59","","34","","7","","","","99.34","","","","","","NA"
"2015-08-05 23:00","2015","08","05","23:00","17.6","","10.3","","62","","35","","7","","","","99.37","","","","","","NA"
"2015-08-06 00:00","2015","08","06","00:00","16.5","","10.6","","68","","34","","8","","","","99.39","","","","","","NA"
"2015-08-06 01:00","2015","08","06","01:00","15.5","","10.5","","72","","24","","5","","","","99.42","","","","","","NA"
"2015-08-06 02:00","2015","08","06","02:00","15.6","","10.5","","72","","33","","7","","","","99.42","","","","","","NA"
"2015-08-06 03:00","2015","08","06","03:00","14.8","","10.6","","76","","34","","9","","","","99.41","","","","","","NA"
"2015-08-06 04:00","2015","08","06","04:00","14.5","","11.0","","80","","34","","9","","","","99.39","","","","","","NA"
"2015-08-06 05:00","2015","08","06","05:00","14.1","","11.1","","82","","33","","11","","","","99.40","","","","","","NA"
"2015-08-06 06:00","2015","08","06","06:00","14.4","","11.2","","81","","29","","10","","","","99.46","","","","","","NA"
"2015-08-06 07:00","2015","08","06","07:00","15.8","","10.8","","72","","32","","9","","","","99.48","","","","","","NA"
"2015-08-06 08:00","2015","08","06","08:00","17.0","","10.7","","66","","30","","10","","","","99.54","","","","","","NA"
"2015-08-06 09:00","2015","08","06","09:00","18.2","","10.6","","61","","30","","12","","","","99.55","","","","","","NA"
"2015-08-06 10:00","2015","08","06","10:00","19.0","","10.4","","58","","28","","11","","","","99.50","","","","","","NA"
"2015-08-06 11:00","2015","08","06","11:00","19.4","","9.8","","54","","25","","15","","","","99.41","","","","","","NA"
"2015-08-06 12:00","2015","08","06","12:00","18.3","","10.1","","59","","23","","24","","","","99.39","","","","","","NA"
"2015-08-06 13:00","2015","08","06","13:00","19.8","","9.8","","52","","25","","17","","","","99.38","","","","","","NA"
"2015-08-06 14:00","2015","08","06","14:00","16.3","","10.1","","66","","23","","17","","","","99.35","","","","","","NA"
"2015-08-06 15:00","2015","08","06","15:00","15.6","","11.8","","79","","21","","17","","","","99.34","","","","","","NA"
"2015-08-06 16:00","2015","08","06","16:00","16.0","","12.4","","79","","20","","15","","","","99.30","","","","","","NA"
"2015-08-06 17:00","2015","08","06","17:00","16.4","","12.1","","76","","20","","18","","","","99.27","","","","","","NA"
"2015-08-06 18:00","2015","08","06","18:00","18.7","","11.5","","63","","25","","9","","","","99.27","","","","","","NA"
"2015-08-06 19:00","2015","08","06","19:00","19.1","","11.5","","61","","24","","9","","","","99.24","","","","","","NA"
"2015-08-06 20:00","2015","08","06","20:00","18.8","","11.8","","64","","28","","11","","","","99.23","","","","","","NA"
"2015-08-06 21:00","2015","08","06","21:00","18.6","","12.6","","68","","31","","8","","","","99.27","","","","","","NA"
"2015-08-06 22:00","2015","08","06","22:00","18.4","","12.1","","66","","30","","11","","","","99.29","","","","","","NA"
"2015-08-06 23:00","2015","08","06","23:00","17.5","","11.9","","70","","30","","9","","","","99.27","","","","","","NA"
"2015-08-07 00:00","2015","08","07","00:00","17.7","","11.0","","65","","31","","9","","","","99.29","","","","","","NA"
"2015-08-07 01:00","2015","08","07","01:00","16.0","","10.9","","72","","0","","1","","","","99.26","","","","","","NA"
"2015-08-07 02:00","2015","08","07","02:00","16.8","","11.1","","69","","31","","6","","","","99.28","","","","","","NA"
"2015-08-07 03:00","2015","08","07","03:00","16.9","","11.0","","68","","34","","5","","","","99.28","","","","","","NA"
"2015-08-07 04:00","2015","08","07","04:00","16.9","","11.5","","71","","33","","5","","","","99.29","","","","","","NA"
"2015-08-07 05:00","2015","08","07","05:00","16.8","","10.8","","68","","0","","1","","","","99.29","","","","","","NA"
"2015-08-07 06:00","2015","08","07","06:00","17.0","","11.0","","68","","7","","4","","","","99.32","","","","","","NA"
"2015-08-07 07:00","2015","08","07","07:00","16.8","","11.1","","69","","24","","5","","","","99.36","","","","","","NA"
"2015-08-07 08:00","2015","08","07","08:00","16.7","","11.6","","72","","10","","3","","","","99.36","","","","","","NA"
"2015-08-07 09:00","2015","08","07","09:00","17.3","","11.7","","70","","8","","6","","","","99.34","","","","","","NA"
"2015-08-07 10:00","2015","08","07","10:00","17.1","","12.4","","74","","14","","5","","","","99.33","","","","","","NA"
"2015-08-07 11:00","2015","08","07","11:00","18.0","","13.4","","74","","18","","6","","","","99.37","","","","","","NA"
"2015-08-07 12:00","2015","08","07","12:00","17.0","","13.1","","78","","20","","11","","","","99.36","","","","","","NA"
"2015-08-07 13:00","2015","08","07","13:00","17.8","","13.1","","74","","18","","8","","","","99.37","","","","","","NA"
"2015-08-07 14:00","2015","08","07","14:00","17.5","","14.3","","82","","20","","9","","","","99.34","","","","","","NA"
"2015-08-07 15:00","2015","08","07","15:00","18.6","","15.3","","81","","19","","7","","","","99.32","","","","","","NA"
"2015-08-07 16:00","2015","08","07","16:00","18.8","","14.8","","78","","19","","4","","","","99.31","","","","","","NA"
"2015-08-07 17:00","2015","08","07","17:00","18.2","","14.6","","79","","20","","6","","","","99.30","","","","","","NA"
"2015-08-07 18:00","2015","08","07","18:00","18.8","","13.8","","73","","19","","3","","","","99.27","","","","","","NA"
"2015-08-07 19:00","2015","08","07","19:00","18.9","","11.9","","64","","18","","3","","","","99.26","","","","","","NA"
"2015-08-07 20:00","2015","08","07","20:00","18.9","","12.9","","68","","5","","4","","","","99.27","","","","","","NA"
"2015-08-07 21:00","2015","08","07","21:00","18.1","","13.3","","74","","17","","4","","","","99.32","","","","","","NA"
"2015-08-07 22:00","2015","08","07","22:00","17.9","","12.3","","70","","7","","4","","","","99.32","","","","","","NA"
"2015-08-07 23:00","2015","08","07","23:00","18.0","","12.3","","69","","7","","6","","","","99.30","","","","","","NA"
"2015-08-08 00:00","2015","08","08","00:00","17.5","","10.3","","63","","1","","2","","","","99.32","","","","","","NA"
"2015-08-08 01:00","2015","08","08","01:00","16.9","","10.8","","68","","8","","2","","","","99.35","","","","","","NA"
"2015-08-08 02:00","2015","08","08","02:00","18.0","","11.4","","65","","6","","3","","","","99.35","","","","","","NA"
"2015-08-08 03:00","2015","08","08","03:00","17.8","","11.6","","67","","7","","4","","","","99.34","","","","","","NA"
"2015-08-08 04:00","2015","08","08","04:00","18.4","","11.8","","65","","6","","8","","","","99.34","","","","","","NA"
"2015-08-08 05:00","2015","08","08","05:00","18.2","","11.8","","66","","6","","9","","","","99.37","","","","","","NA"
"2015-08-08 06:00","2015","08","08","06:00","18.2","","11.9","","67","","5","","8","","","","99.44","","","","","","NA"
"2015-08-08 07:00","2015","08","08","07:00","18.1","","12.8","","71","","7","","9","","","","99.49","","","","","","NA"
"2015-08-08 08:00","2015","08","08","08:00","17.9","","13.3","","75","","8","","12","","","","99.53","","","","","","NA"
"2015-08-08 09:00","2015","08","08","09:00","18.6","","13.5","","73","","8","","6","","","","99.57","","","","","","NA"
"2015-08-08 10:00","2015","08","08","10:00","18.4","","13.3","","72","","11","","4","","","","99.60","","","","","","NA"
"2015-08-08 11:00","2015","08","08","11:00","17.9","","14.1","","79","","11","","7","","","","99.59","","","","","","NA"
"2015-08-08 12:00","2015","08","08","12:00","17.4","","14.3","","82","","14","","12","","","","99.56","","","","","","NA"
"2015-08-08 13:00","2015","08","08","13:00","17.4","","14.6","","83","","16","","12","","","","99.56","","","","","","NA"
"2015-08-08 14:00","2015","08","08","14:00","17.7","","15.3","","86","","16","","10","","","","99.57","","","","","","NA"
"2015-08-08 15:00","2015","08","08","15:00","18.7","","14.6","","77","","17","","6","","","","99.56","","","","","","NA"
"2015-08-08 16:00","2015","08","08","16:00","18.7","","14.6","","77","","18","","6","","","","99.57","","","","","","NA"
"2015-08-08 17:00","2015","08","08","17:00","18.7","","15.2","","80","","21","","3","","","","99.58","","","","","","NA"
"2015-08-08 18:00","2015","08","08","18:00","18.6","","14.0","","74","","11","","2","","","","99.55","","","","","","NA"
"2015-08-08 19:00","2015","08","08","19:00","19.1","","13.9","","72","","0","","1","","","","99.53","","","","","","NA"
"2015-08-08 20:00","2015","08","08","20:00","18.5","","13.7","","74","","7","","4","","","","99.52","","","","","","NA"
"2015-08-08 21:00","2015","08","08","21:00","17.9","","12.9","","73","","0","","1","","","","99.57","","","","","","NA"
"2015-08-08 22:00","2015","08","08","22:00","18.0","","11.7","","67","","5","","2","","","","99.56","","","","","","NA"
"2015-08-08 23:00","2015","08","08","23:00","17.5","","11.1","","66","","6","","3","","","","99.57","","","","","","NA"
"2015-08-09 00:00","2015","08","09","00:00","16.7","","10.8","","68","","7","","2","","","","99.54","","","","","","NA"
"2015-08-09 01:00","2015","08","09","01:00","16.7","","10.4","","66","","5","","3","","","","99.56","","","","","","NA"
"2015-08-09 02:00","2015","08","09","02:00","15.9","","10.3","","70","","7","","3","","","","99.57","","","","","","NA"
"2015-08-09 03:00","2015","08","09","03:00","16.5","","10.0","","65","","5","","5","","","","99.58","","","","","","NA"
"2015-08-09 04:00","2015","08","09","04:00","17.5","","10.2","","62","","7","","7","","","","99.59","","","","","","NA"
"2015-08-09 05:00","2015","08","09","05:00","17.1","","10.8","","67","","6","","7","","","","99.58","","","","","","NA"
"2015-08-09 06:00","2015","08","09","06:00","17.9","","11.7","","67","","6","","9","","","","99.58","","","","","","NA"
"2015-08-09 07:00","2015","08","09","07:00","18.6","","13.4","","72","","8","","9","","","","99.60","","","","","","NA"
"2015-08-09 08:00","2015","08","09","08:00","18.8","","13.9","","73","","8","","10","","","","99.58","","","","","","NA"
"2015-08-09 09:00","2015","08","09","09:00","17.1","","14.5","","85","","10","","13","","","","99.59","","","","","","NA"
"2015-08-09 10:00","2015","08","09","10:00","17.2","","15.5","","89","","11","","10","","","","99.58","","","","","","NA"
"2015-08-09 11:00","2015","08","09","11:00","17.8","","16.0","","90","","13","","8","","","","99.54","","","","","","NA"
"2015-08-09 12:00","2015","08","09","12:00","18.1","","15.7","","85","","12","","10","","","","99.50","","","","","","NA"
"2015-08-09 13:00","2015","08","09","13:00","19.7","","16.2","","80","","10","","5","","","","99.49","","","","","","NA"
"2015-08-09 14:00","2015","08","09","14:00","18.4","","15.3","","82","","15","","16","","","","99.47","","","","","","NA"
"2015-08-09 15:00","2015","08","09","15:00","18.6","","14.8","","78","","16","","15","","","","99.42","","","","","","NA"
"2015-08-09 16:00","2015","08","09","16:00","18.6","","15.6","","83","","15","","11","","","","99.39","","","","","","NA"
"2015-08-09 17:00","2015","08","09","17:00","19.4","","14.8","","75","","19","","7","","","","99.34","","","","","","NA"
"2015-08-09 18:00","2015","08","09","18:00","20.8","","14.7","","68","","22","","4","","","","99.32","","25","","","","NA"
"2015-08-09 19:00","2015","08","09","19:00","19.6","","13.3","","67","","9","","4","","","","99.30","","","","","","NA"
"2015-08-09 20:00","2015","08","09","20:00","19.7","","12.6","","64","","36","","3","","","","99.27","","","","","","NA"
"2015-08-09 21:00","2015","08","09","21:00","18.8","","12.5","","67","","8","","3","","","","99.27","","","","","","NA"
"2015-08-09 22:00","2015","08","09","22:00","18.7","","12.2","","66","","8","","6","","","","99.23","","","","","","NA"
"2015-08-09 23:00","2015","08","09","23:00","17.6","","12.3","","71","","7","","4","","","","99.22","","","","","","NA"
"2015-08-10 00:00","2015","08","10","00:00","18.4","","12.4","","68","","7","","7","","","","99.20","","","","","","NA"
"2015-08-10 01:00","2015","08","10","01:00","17.7","","13.0","","74","","3","","7","","","","99.15","","","","","","NA"
"2015-08-10 02:00","2015","08","10","02:00","18.8","","13.1","","69","","6","","7","","","","99.09","","","","","","NA"
"2015-08-10 03:00","2015","08","10","03:00","18.8","","13.0","","69","","7","","9","","","","99.06","","","","","","NA"
"2015-08-10 04:00","2015","08","10","04:00","18.7","","14.0","","74","","7","","8","","","","99.01","","","","","","NA"
"2015-08-10 05:00","2015","08","10","05:00","18.5","","15.0","","80","","8","","6","","","","99.01","","","","","","NA"
"2015-08-10 06:00","2015","08","10","06:00","18.5","","15.2","","81","","6","","7","","","","99.02","","","","","","NA"
"2015-08-10 07:00","2015","08","10","07:00","17.5","","15.5","","89","","6","","8","","","","99.09","","","","","","NA"
"2015-08-10 08:00","2015","08","10","08:00","16.7","","15.5","","93","","8","","18","","","","99.06","","","","","","NA"
"2015-08-10 09:00","2015","08","10","09:00","16.6","","15.5","","93","","8","","9","","","","99.05","","","","","","NA"
"2015-08-10 10:00","2015","08","10","10:00","16.5","","15.3","","93","","9","","10","","","","99.03","","","","","","NA"
"2015-08-10 11:00","2015","08","10","11:00","16.8","","15.8","","94","","12","","10","","","","99.03","","","","","","NA"
"2015-08-10 12:00","2015","08","10","12:00","16.8","","15.8","","94","","14","","15","","","","99.01","","","","","","NA"
"2015-08-10 13:00","2015","08","10","13:00","16.6","","15.1","","91","","15","","16","","","","98.96","","","","","","NA"
"2015-08-10 14:00","2015","08","10","14:00","16.9","","14.5","","86","","15","","8","","","","98.89","","","","","","NA"
"2015-08-10 15:00","2015","08","10","15:00","17.8","","14.9","","83","","24","","3","","","","98.85","","","","","","NA"
"2015-08-10 16:00","2015","08","10","16:00","19.0","","15.0","","78","","24","","3","","","","98.83","","","","","","NA"
"2015-08-10 17:00","2015","08","10","17:00","18.0","","15.1","","83","","23","","8","","","","98.81","","","","","","NA"
"2015-08-10 18:00","2015","08","10","18:00","18.2","","15.1","","82","","23","","2","","","","98.78","","","","","","NA"
"2015-08-10 19:00","2015","08","10","19:00","18.0","","15.3","","84","","0","","1","","","","98.77","","","","","","NA"
"2015-08-10 20:00","2015","08","10","20:00","17.7","","15.4","","86","","0","","1","","","","98.74","","","","","","NA"
"2015-08-10 21:00","2015","08","10","21:00","17.3","","15.2","","87","","0","","1","","","","98.75","","","","","","NA"
"2015-08-10 22:00","2015","08","10","22:00","16.8","","15.4","","91","","30","","5","","","","98.76","","","","","","NA"
"2015-08-10 23:00","2015","08","10","23:00","17.5","","16.0","","91","","31","","4","","","","98.75","","","","","","NA"
"2015-08-11 00:00","2015","08","11","00:00","17.2","","15.8","","92","","30","","6","","","","98.72","","","","","","NA"
"2015-08-11 01:00","2015","08","11","01:00","17.3","","15.9","","92","","31","","7","","","","98.66","","","","","","NA"
"2015-08-11 02:00","2015","08","11","02:00","17.1","","16.0","","93","","26","","3","","","","98.66","","","","","","NA"
"2015-08-11 03:00","2015","08","11","03:00","16.8","","15.8","","93","","26","","7","","","","98.63","","","","","","NA"
"2015-08-11 04:00","2015","08","11","04:00","17.5","","16.1","","91","","30","","8","","","","98.62","","","","","","NA"
"2015-08-11 05:00","2015","08","11","05:00","17.3","","15.6","","90","","32","","17","","","","98.65","","","","","","NA"
"2015-08-11 06:00","2015","08","11","06:00","17.0","","15.1","","88","","33","","11","","","","98.72","","","","","","NA"
"2015-08-11 07:00","2015","08","11","07:00","18.0","","14.8","","81","","34","","13","","","","98.78","","","","","","NA"
"2015-08-11 08:00","2015","08","11","08:00","18.6","","14.9","","79","","35","","15","","","","98.80","","","","","","NA"
"2015-08-11 09:00","2015","08","11","09:00","19.0","","14.9","","77","","33","","19","","","","98.83","","","","","","NA"
"2015-08-11 10:00","2015","08","11","10:00","19.4","","14.6","","74","","34","","19","","","","98.87","","","","","","NA"
"2015-08-11 11:00","2015","08","11","11:00","20.0","","14.4","","71","","1","","15","","","","98.95","","","","","","NA"
"2015-08-11 12:00","2015","08","11","12:00","21.5","","14.3","","64","","36","","15","","","","98.96","","25","","","","NA"
"2015-08-11 13:00","2015","08","11","13:00","20.8","","13.6","","63","","34","","15","","","","98.97","","","","","","NA"
"2015-08-11 14:00","2015","08","11","14:00","21.4","","12.1","","55","","34","","13","","","","98.94","","","","","","NA"
"2015-08-11 15:00","2015","08","11","15:00","22.3","","11.7","","51","","31","","15","","","","98.90","","","","","","NA"
"2015-08-11 16:00","2015","08","11","16:00","22.1","","13.0","","57","","29","","22","","","","98.89","","25","","","","NA"
"2015-08-11 17:00","2015","08","11","17:00","20.1","","15.0","","73","","34","","12","","","","98.95","","","","","","NA"
"2015-08-11 18:00","2015","08","11","18:00","19.8","","15.2","","75","","1","","8","","","","98.99","","","","","","NA"
"2015-08-11 19:00","2015","08","11","19:00","19.4","","14.5","","73","","33","","10","","","","99.03","","","","","","NA"
"2015-08-11 20:00","2015","08","11","20:00","17.7","","14.3","","81","","34","","11","","","","99.11","","","","","","NA"
"2015-08-11 21:00","2015","08","11","21:00","17.2","","12.8","","75","","35","","18","","","","99.19","","","","","","NA"
"2015-08-11 22:00","2015","08","11","22:00","16.5","","12.4","","77","","34","","11","","","","99.22","","","","","","NA"
"2015-08-11 23:00","2015","08","11","23:00","16.0","","12.5","","80","","35","","13","","","","99.23","","","","","","NA"
"2015-08-12 00:00","2015","08","12","00:00","15.6","","12.3","","81","","36","","6","","","","99.24","","","","","","NA"
"2015-08-12 01:00","2015","08","12","01:00","15.6","","11.9","","79","","34","","5","","","","99.28","","","","","","NA"
"2015-08-12 02:00","2015","08","12","02:00","15.7","","11.8","","78","","28","","5","","","","99.30","","","","","","NA"
"2015-08-12 03:00","2015","08","12","03:00","15.2","","10.6","","74","","34","","10","","","","99.33","","","","","","NA"
"2015-08-12 04:00","2015","08","12","04:00","14.7","","7.2","","60","","1","","13","","","","99.35","","","","","","NA"
"2015-08-12 05:00","2015","08","12","05:00","13.6","","7.8","","68","","34","","9","","","","99.43","","","","","","NA"
"2015-08-12 06:00","2015","08","12","06:00","13.6","","8.7","","72","","33","","8","","","","99.47","","","","","","NA"
"2015-08-12 07:00","2015","08","12","07:00","14.0","","9.4","","74","","33","","10","","","","99.51","","","","","","NA"
"2015-08-12 08:00","2015","08","12","08:00","15.0","","8.8","","66","","34","","12","","","","99.53","","","","","","NA"
"2015-08-12 09:00","2015","08","12","09:00","16.7","","9.4","","62","","33","","13","","","","99.53","","","","","","NA"
"2015-08-12 10:00","2015","08","12","10:00","18.3","","8.7","","54","","35","","14","","","","99.52","","","","","","NA"
"2015-08-12 11:00","2015","08","12","11:00","18.7","","8.1","","50","","34","","15","","","","99.48","","","","","","NA"
"2015-08-12 12:00","2015","08","12","12:00","20.3","","7.5","","44","","34","","9","","","","99.41","","","","","","NA"
"2015-08-12 13:00","2015","08","12","13:00","21.1","","5.0","","35","","34","","12","","","","99.36","","","","","","NA"
"2015-08-12 14:00","2015","08","12","14:00","22.1","","3.7","","30","","31","","16","","","","99.29","","","","","","NA"
"2015-08-12 15:00","2015","08","12","15:00","22.5","","2.6","","27","","30","","14","","","","99.26","","","","","","NA"
"2015-08-12 16:00","2015","08","12","16:00","21.7","","7.8","","41","","28","","29","","","","99.23","","","","","","NA"
"2015-08-12 17:00","2015","08","12","17:00","21.7","","9.5","","46","","28","","25","","","","99.23","","","","","","NA"
"2015-08-12 18:00","2015","08","12","18:00","21.7","","9.4","","45","","28","","27","","","","99.23","","","","","","NA"
"2015-08-12 19:00","2015","08","12","19:00","21.3","","10.5","","50","","28","","21","","","","99.21","","","","","","NA"
"2015-08-12 20:00","2015","08","12","20:00","19.8","","11.8","","60","","29","","9","","","","99.20","","","","","","NA"
"2015-08-12 21:00","2015","08","12","21:00","18.6","","11.6","","64","","28","","8","","","","99.21","","","","","","NA"
"2015-08-12 22:00","2015","08","12","22:00","17.6","","12.3","","71","","30","","4","","","","99.24","","","","","","NA"
"2015-08-12 23:00","2015","08","12","23:00","17.0","","12.4","","74","","30","","11","","","","99.25","","","","","","NA"
"2015-08-13 00:00","2015","08","13","00:00","17.1","","13.0","","77","","29","","11","","","","99.24","","","","","","NA"
"2015-08-13 01:00","2015","08","13","01:00","16.3","","13.3","","83","","15","","2","","","","99.24","","","","","","NA"
"2015-08-13 02:00","2015","08","13","02:00","16.1","","13.5","","84","","28","","8","","","","99.20","","","","","","NA"
"2015-08-13 03:00","2015","08","13","03:00","16.2","","13.4","","83","","27","","7","","","","99.17","","","","","","NA"
"2015-08-13 04:00","2015","08","13","04:00","15.9","","13.4","","85","","30","","3","","","","99.16","","","","","","NA"
"2015-08-13 05:00","2015","08","13","05:00","15.9","","13.5","","86","","27","","4","","","","99.17","","","","","","NA"
"2015-08-13 06:00","2015","08","13","06:00","16.5","","13.6","","83","","0","","1","","","","99.19","","","","","","NA"
"2015-08-13 07:00","2015","08","13","07:00","16.9","","14.2","","84","","0","","1","","","","99.24","","","","","","NA"
"2015-08-13 08:00","2015","08","13","08:00","16.9","","14.5","","86","","9","","7","","","","99.22","","","","","","NA"
"2015-08-13 09:00","2015","08","13","09:00","18.4","","14.4","","77","","9","","6","","","","99.21","","","","","","NA"
"2015-08-13 10:00","2015","08","13","10:00","18.4","","15.7","","84","","13","","7","","","","99.20","","","","","","NA"
"2015-08-13 11:00","2015","08","13","11:00","18.8","","15.7","","82","","12","","6","","","","99.16","","","","","","NA"
"2015-08-13 12:00","2015","08","13","12:00","18.6","","16.1","","86","","18","","23","","","","99.12","","","","","","NA"
"2015-08-13 13:00","2015","08","13","13:00","18.5","","16.0","","85","","17","","21","","","","99.09","","","","","","NA"
"2015-08-13 14:00","2015","08","13","14:00","18.8","","16.3","","85","","18","","29","","","","99.06","","","","","","NA"
"2015-08-13 15:00","2015","08","13","15:00","19.0","","16.5","","85","","19","","28","","","","99.05","","","","","","NA"
"2015-08-13 16:00","2015","08","13","16:00","18.8","","16.4","","86","","19","","28","","","","99.01","","","","","","NA"
"2015-08-13 17:00","2015","08","13","17:00","18.5","","16.6","","89","","17","","26","","","","98.94","","","","","","NA"
"2015-08-13 18:00","2015","08","13","18:00","18.8","","16.8","","89","","19","","25","","","","98.92","","","","","","NA"
"2015-08-13 19:00","2015","08","13","19:00","18.9","","17.1","","89","","22","","7","","","","98.91","","","","","","NA"
"2015-08-13 20:00","2015","08","13","20:00","18.9","","17.1","","89","","23","","4","","","","98.95","","","","","","NA"
"2015-08-13 21:00","2015","08","13","21:00","19.0","","17.1","","89","","9","","5","","","","98.98","","","","","","NA"
"2015-08-13 22:00","2015","08","13","22:00","20.1","","17.5","","85","","31","","8","","","","99.02","","26","","","","NA"
"2015-08-13 23:00","2015","08","13","23:00","19.5","","17.3","","87","","26","","3","","","","98.96","","","","","","NA"
"2015-08-14 00:00","2015","08","14","00:00","19.2","","17.5","","90","","32","","6","","","","98.97","","","","","","NA"
"2015-08-14 01:00","2015","08","14","01:00","18.6","","17.1","","91","","28","","2","","","","98.99","","","","","","NA"
"2015-08-14 02:00","2015","08","14","02:00","18.8","","17.2","","90","","24","","5","","","","98.98","","","","","","NA"
"2015-08-14 03:00","2015","08","14","03:00","19.2","","17.7","","91","","24","","7","","","","98.99","","","","","","NA"
"2015-08-14 04:00","2015","08","14","04:00","18.8","","17.2","","91","","31","","7","","","","99.00","","","","","","NA"
"2015-08-14 05:00","2015","08","14","05:00","18.9","","17.4","","91","","28","","5","","","","99.02","","","","","","NA"
"2015-08-14 06:00","2015","08","14","06:00","18.8","","17.2","","90","","28","","5","","","","99.07","","","","","","NA"
"2015-08-14 07:00","2015","08","14","07:00","19.6","","17.7","","89","","29","","6","","","","99.14","","","","","","NA"
"2015-08-14 08:00","2015","08","14","08:00","19.3","","17.6","","90","","22","","13","","","","99.19","","","","","","NA"
"2015-08-14 09:00","2015","08","14","09:00","22.2","","18.7","","81","","29","","9","","","","99.20","","29","","","","NA"
"2015-08-14 10:00","2015","08","14","10:00","22.9","","18.9","","78","","28","","10","","","","99.23","","30","","","","NA"
"2015-08-14 11:00","2015","08","14","11:00","21.6","","18.8","","84","","22","","13","","","","99.25","","28","","","","NA"
"2015-08-14 12:00","2015","08","14","12:00","21.5","","18.4","","83","","23","","21","","","","99.24","","28","","","","NA"
"2015-08-14 13:00","2015","08","14","13:00","21.9","","18.1","","79","","23","","20","","","","99.24","","28","","","","NA"
"2015-08-14 14:00","2015","08","14","14:00","22.2","","18.2","","78","","28","","28","","","","99.24","","28","","","","NA"
"2015-08-14 15:00","2015","08","14","15:00","23.0","","18.2","","74","","28","","19","","","","99.25","","29","","","","NA"
"2015-08-14 16:00","2015","08","14","16:00","21.8","","16.0","","70","","11","","7","","","","99.31","","26","","","","NA"
"2015-08-14 17:00","2015","08","14","17:00","20.3","","16.5","","79","","13","","8","","","","99.30","","25","","","","NA"
"2015-08-14 18:00","2015","08","14","18:00","20.5","","16.8","","79","","21","","2","","","","99.36","","26","","","","NA"
"2015-08-14 19:00","2015","08","14","19:00","19.8","","16.7","","83","","10","","12","","","","99.35","","","","","","NA"
"2015-08-14 20:00","2015","08","14","20:00","20.6","","16.2","","76","","14","","6","","","","99.44","","25","","","","NA"
"2015-08-14 21:00","2015","08","14","21:00","20.6","","16.9","","79","","7","","6","","","","99.51","","26","","","","NA"
"2015-08-14 22:00","2015","08","14","22:00","20.3","","16.9","","81","","3","","6","","","","99.51","","26","","","","NA"
"2015-08-14 23:00","2015","08","14","23:00","19.4","","17.3","","88","","29","","5","","","","99.51","","","","","","NA"
"2015-08-15 00:00","2015","08","15","00:00","19.6","","17.5","","88","","26","","5","","","","99.48","","","","","","NA"
"2015-08-15 01:00","2015","08","15","01:00","18.8","","16.9","","89","","27","","3","","","","99.48","","","","","","NA"
"2015-08-15 02:00","2015","08","15","02:00","18.2","","16.8","","92","","0","","1","","","","99.47","","","","","","NA"
"2015-08-15 03:00","2015","08","15","03:00","18.0","","16.8","","93","","4","","7","","","","99.50","","","","","","NA"
"2015-08-15 04:00","2015","08","15","04:00","18.2","","16.7","","91","","9","","3","","","","99.54","","","","","","NA"
"2015-08-15 05:00","2015","08","15","05:00","17.9","","16.7","","93","","8","","4","","","","99.61","","","","","","NA"
"2015-08-15 06:00","2015","08","15","06:00","17.7","","16.6","","94","","5","","7","","","","99.63","","","","","","NA"
"2015-08-15 07:00","2015","08","15","07:00","17.7","","16.6","","94","","10","","6","","","","99.68","","","","","","NA"
"2015-08-15 08:00","2015","08","15","08:00","18.2","","17.1","","94","","12","","6","","","","99.71","","","","","","NA"
"2015-08-15 09:00","2015","08","15","09:00","18.7","","16.9","","89","","14","","3","","","","99.74","","","","","","NA"
"2015-08-15 10:00","2015","08","15","10:00","18.4","","17.0","","91","","17","","5","","","","99.76","","","","","","NA"
"2015-08-15 11:00","2015","08","15","11:00","18.5","","17.3","","93","","12","","6","","","","99.76","","","","","","NA"
"2015-08-15 12:00","2015","08","15","12:00","18.7","","17.5","","93","","13","","5","","","","99.78","","","","","","NA"
"2015-08-15 13:00","2015","08","15","13:00","19.0","","17.7","","92","","14","","7","","","","99.75","","","","","","NA"
"2015-08-15 14:00","2015","08","15","14:00","20.1","","18.3","","90","","15","","6","","","","99.71","","26","","","","NA"
"2015-08-15 15:00","2015","08","15","15:00","20.0","","18.1","","89","","13","","7","","","","99.67","","26","","","","NA"
"2015-08-15 16:00","2015","08","15","16:00","20.2","","18.4","","90","","13","","7","","","","99.64","","27","","","","NA"
"2015-08-15 17:00","2015","08","15","17:00","20.4","","18.2","","87","","10","","8","","","","99.65","","27","","","","NA"
"2015-08-15 18:00","2015","08","15","18:00","20.8","","17.9","","84","","9","","4","","","","99.62","","27","","","","NA"
"2015-08-15 19:00","2015","08","15","19:00","20.6","","18.4","","87","","8","","7","","","","99.58","","27","","","","NA"
"2015-08-15 20:00","2015","08","15","20:00","20.4","","18.6","","90","","7","","4","","","","99.60","","27","","","","NA"
"2015-08-15 21:00","2015","08","15","21:00","20.6","","18.5","","88","","0","","1","","","","99.65","","27","","","","NA"
"2015-08-15 22:00","2015","08","15","22:00","20.2","","18.4","","89","","0","","1","","","","99.64","","27","","","","NA"
"2015-08-15 23:00","2015","08","15","23:00","20.0","","18.1","","89","","31","","6","","","","99.67","","26","","","","NA"
"2015-08-16 00:00","2015","08","16","00:00","19.4","","17.8","","90","","26","","5","","","","99.65","","","","","","NA"
"2015-08-16 01:00","2015","08","16","01:00","19.3","","17.8","","91","","27","","5","","","","99.64","","","","","","NA"
"2015-08-16 02:00","2015","08","16","02:00","19.0","","17.7","","92","","15","","2","","","","99.56","","","","","","NA"
"2015-08-16 03:00","2015","08","16","03:00","18.6","","17.3","","92","","10","","3","","","","99.55","","","","","","NA"
"2015-08-16 04:00","2015","08","16","04:00","18.8","","17.5","","93","","9","","4","","","","99.51","","","","","","NA"
"2015-08-16 05:00","2015","08","16","05:00","18.7","","17.6","","93","","17","","7","","","","99.48","","","","","","NA"
"2015-08-16 06:00","2015","08","16","06:00","18.4","","17.4","","94","","10","","5","","","","99.52","","","","","","NA"
"2015-08-16 07:00","2015","08","16","07:00","18.7","","17.7","","94","","12","","7","","","","99.53","","","","","","NA"
"2015-08-16 08:00","2015","08","16","08:00","19.9","","18.8","","94","","8","","7","","","","99.58","","","","","","NA"
"2015-08-16 09:00","2015","08","16","09:00","20.3","","18.0","","87","","9","","9","","","","99.58","","26","","","","NA"
"2015-08-16 10:00","2015","08","16","10:00","20.4","","18.4","","88","","12","","9","","","","99.54","","27","","","","NA"
"2015-08-16 11:00","2015","08","16","11:00","21.1","","18.6","","86","","14","","8","","","","99.43","","28","","","","NA"
"2015-08-16 12:00","2015","08","16","12:00","21.0","","18.7","","86","","18","","28","","","","99.35","","28","","","","NA"
"2015-08-16 13:00","2015","08","16","13:00","20.9","","18.7","","87","","18","","28","","","","99.31","","27","","","","NA"
"2015-08-16 14:00","2015","08","16","14:00","20.9","","18.9","","88","","20","","29","","","","99.28","","28","","","","NA"
"2015-08-16 15:00","2015","08","16","15:00","20.9","","19.0","","89","","20","","20","","","","99.27","","28","","","","NA"
"2015-08-16 16:00","2015","08","16","16:00","23.6","","19.2","","76","","22","","30","","","","99.21","","31","","","","NA"
"2015-08-16 17:00","2015","08","16","17:00","21.2","","18.9","","86","","22","","13","","","","99.19","","28","","","","NA"
"2015-08-16 18:00","2015","08","16","18:00","21.3","","18.8","","86","","23","","14","","","","99.17","","28","","","","NA"
"2015-08-16 19:00","2015","08","16","19:00","21.4","","18.3","","83","","17","","7","","","","99.15","","28","","","","NA"
"2015-08-16 20:00","2015","08","16","20:00","22.2","","19.5","","85","","21","","10","","","","99.13","","29","","","","NA"
"2015-08-16 21:00","2015","08","16","21:00","21.7","","19.0","","85","","22","","12","","","","99.16","","28","","","","NA"
"2015-08-16 22:00","2015","08","16","22:00","22.1","","19.3","","85","","22","","8","","","","99.14","","29","","","","NA"
"2015-08-16 23:00","2015","08","16","23:00","21.5","","19.4","","88","","31","","6","","","","99.14","","29","","","","NA"
"2015-08-17 00:00","2015","08","17","00:00","21.0","","19.0","","89","","31","","3","","","","99.15","","28","","","","NA"
"2015-08-17 01:00","2015","08","17","01:00","20.9","","18.9","","89","","17","","2","","","","99.14","","28","","","","NA"
"2015-08-17 02:00","2015","08","17","02:00","21.9","","18.8","","83","","21","","5","","","","99.12","","29","","","","NA"
"2015-08-17 03:00","2015","08","17","03:00","21.5","","18.3","","82","","29","","4","","","","99.09","","28","","","","NA"
"2015-08-17 04:00","2015","08","17","04:00","21.9","","18.6","","81","","27","","8","","","","99.07","","28","","","","NA"
"2015-08-17 05:00","2015","08","17","05:00","21.1","","18.3","","84","","27","","5","","","","99.09","","27","","","","NA"
"2015-08-17 06:00","2015","08","17","06:00","21.1","","18.5","","85","","27","","4","","","","99.14","","27","","","","NA"
"2015-08-17 07:00","2015","08","17","07:00","20.8","","18.5","","86","","23","","15","","","","99.15","","27","","","","NA"
"2015-08-17 08:00","2015","08","17","08:00","20.6","","18.5","","87","","23","","10","","","","99.16","","27","","","","NA"
"2015-08-17 09:00","2015","08","17","09:00","22.9","","19.2","","80","","28","","13","","","","99.17","","30","","","","NA"
"2015-08-17 10:00","2015","08","17","10:00","23.0","","19.5","","81","","21","","10","","","","99.16","","30","","","","NA"
"2015-08-17 11:00","2015","08","17","11:00","22.2","","19.2","","83","","19","","18","","","","99.17","","29","","","","NA"
"2015-08-17 12:00","2015","08","17","12:00","21.2","","19.0","","88","","18","","20","","","","99.18","","28","","","","NA"
"2015-08-17 13:00","2015","08","17","13:00","21.0","","18.9","","88","","18","","18","","","","99.17","","28","","","","NA"
"2015-08-17 14:00","2015","08","17","14:00","21.6","","18.8","","84","","9","","6","","","","99.16","","28","","","","NA"
"2015-08-17 15:00","2015","08","17","15:00","23.0","","19.8","","82","","9","","5","","","","99.13","","30","","","","NA"
"2015-08-17 16:00","2015","08","17","16:00","26.9","","20.0","","66","","26","","17","","","","99.08","","34","","","","NA"
"2015-08-17 17:00","2015","08","17","17:00","27.0","","19.6","","64","","27","","17","","","","99.09","","34","","","","NA"
"2015-08-17 18:00","2015","08","17","18:00","26.2","","19.3","","66","","27","","17","","","","99.14","","33","","","","NA"
"2015-08-17 19:00","2015","08","17","19:00","24.0","","17.9","","69","","27","","17","","","","99.11","","30","","","","NA"
"2015-08-17 20:00","2015","08","17","20:00","22.6","","18.1","","76","","28","","7","","","","99.09","","29","","","","NA"
"2015-08-17 21:00","2015","08","17","21:00","21.9","","17.3","","75","","30","","5","","","","99.17","","27","","","","NA"
"2015-08-17 22:00","2015","08","17","22:00","21.5","","16.8","","75","","26","","7","","","","99.24","","27","","","","NA"
"2015-08-17 23:00","2015","08","17","23:00","20.7","","17.3","","81","","4","","5","","","","99.16","","26","","","","NA"
"2015-08-18 00:00","2015","08","18","00:00","20.8","","18.0","","84","","22","","11","","","","99.24","","27","","","","NA"
"2015-08-18 01:00","2015","08","18","01:00","20.3","","18.8","","91","","34","","7","","","","99.17","","27","","","","NA"
"2015-08-18 02:00","2015","08","18","02:00","20.4","","18.6","","90","","27","","7","","","","99.12","","27","","","","NA"
"2015-08-18 03:00","2015","08","18","03:00","20.3","","18.7","","91","","36","","2","","","","99.08","","27","","","","NA"
"2015-08-18 04:00","2015","08","18","04:00","20.3","","19.0","","93","","11","","6","","","","99.05","","27","","","","NA"
"2015-08-18 05:00","2015","08","18","05:00","20.2","","19.1","","93","","18","","5","","","","99.09","","27","","","","NA"
"2015-08-18 06:00","2015","08","18","06:00","20.0","","18.9","","93","","19","","4","","","","99.16","","27","","","","NA"
"2015-08-18 07:00","2015","08","18","07:00","20.0","","18.5","","91","","19","","6","","","","99.17","","26","","","","NA"
"2015-08-18 08:00","2015","08","18","08:00","20.3","","18.1","","87","","16","","2","","","","99.17","","26","","","","NA"
"2015-08-18 09:00","2015","08","18","09:00","21.3","","18.5","","84","","8","","4","","","","99.10","","28","","","","NA"
"2015-08-18 10:00","2015","08","18","10:00","21.3","","17.8","","80","","8","","5","","","","99.10","","27","","","","NA"
"2015-08-18 11:00","2015","08","18","11:00","21.2","","18.6","","85","","9","","7","","","","99.10","","28","","","","NA"
"2015-08-18 12:00","2015","08","18","12:00","21.2","","18.2","","83","","10","","11","","","","99.06","","27","","","","NA"
"2015-08-18 13:00","2015","08","18","13:00","21.0","","18.5","","86","","11","","13","","","","99.02","","27","","","","NA"
"2015-08-18 14:00","2015","08","18","14:00","21.2","","18.3","","83","","13","","11","","","","99.00","","27","","","","NA"
"2015-08-18 15:00","2015","08","18","15:00","21.1","","18.8","","87","","13","","13","","","","98.98","","28","","","","NA"
"2015-08-18 16:00","2015","08","18","16:00","21.3","","18.8","","86","","11","","12","","","","98.95","","28","","","","NA"
"2015-08-18 17:00","2015","08","18","17:00","21.3","","19.0","","87","","16","","8","","","","98.91","","28","","","","NA"
"2015-08-18 18:00","2015","08","18","18:00","21.3","","19.0","","87","","12","","6","","","","98.88","","28","","","","NA"
"2015-08-18 19:00","2015","08","18","19:00","21.1","","19.2","","89","","12","","8","","","","98.88","","28","","","","NA"
"2015-08-18 20:00","2015","08","18","20:00","21.1","","19.3","","90","","9","","8","","","","98.84","","28","","","","NA"
"2015-08-18 21:00","2015","08","18","21:00","21.3","","19.2","","88","","9","","8","","","","98.93","","28","","","","NA"
"2015-08-18 22:00","2015","08","18","22:00","21.2","","19.4","","89","","11","","10","","","","98.93","","28","","","","NA"
"2015-08-18 23:00","2015","08","18","23:00","21.3","","19.3","","89","","10","","8","","","","98.92","","28","","","","NA"
"2015-08-19 00:00","2015","08","19","00:00","20.9","","18.9","","89","","18","","3","","","","98.88","","28","","","","NA"
"2015-08-19 01:00","2015","08","19","01:00","21.2","","19.1","","88","","11","","8","","","","98.85","","28","","","","NA"
"2015-08-19 02:00","2015","08","19","02:00","20.9","","18.9","","89","","8","","15","","","","98.77","","28","","","","NA"
"2015-08-19 03:00","2015","08","19","03:00","21.0","","19.4","","90","","9","","13","","","","98.75","","28","","","","NA"
"2015-08-19 04:00","2015","08","19","04:00","20.8","","19.5","","93","","11","","18","","","","98.71","","28","","","","NA"
"2015-08-19 05:00","2015","08","19","05:00","20.8","","19.3","","91","","13","","22","","","","98.69","","28","","","","NA"
"2015-08-19 06:00","2015","08","19","06:00","20.9","","19.3","","91","","12","","20","","","","98.69","","28","","","","NA"
"2015-08-19 07:00","2015","08","19","07:00","20.8","","19.3","","91","","14","","33","","","","98.67","","28","","","","NA"
"2015-08-19 08:00","2015","08","19","08:00","20.9","","19.1","","90","","13","","30","","","","98.67","","28","","","","NA"
"2015-08-19 09:00","2015","08","19","09:00","20.9","","19.1","","89","","14","","30","","","","98.65","","28","","","","NA"
"2015-08-19 10:00","2015","08","19","10:00","20.9","","19.0","","89","","14","","28","","","","98.65","","28","","","","NA"
"2015-08-19 11:00","2015","08","19","11:00","20.9","","19.0","","89","","15","","28","","","","98.66","","28","","","","NA"
"2015-08-19 12:00","2015","08","19","12:00","20.8","","19.1","","90","","14","","31","","","","98.60","","28","","","","NA"
"2015-08-19 13:00","2015","08","19","13:00","21.0","","19.3","","90","","14","","24","","","","98.60","","28","","","","NA"
"2015-08-19 14:00","2015","08","19","14:00","21.2","","19.4","","89","","13","","28","","","","98.55","","28","","","","NA"
"2015-08-19 15:00","2015","08","19","15:00","21.5","","19.5","","88","","12","","22","","","","98.48","","29","","","","NA"
"2015-08-19 16:00","2015","08","19","16:00","21.6","","19.5","","88","","13","","25","","","","98.44","","29","","","","NA"
"2015-08-19 17:00","2015","08","19","17:00","21.7","","19.4","","87","","14","","17","","","","98.43","","29","","","","NA"
"2015-08-19 18:00","2015","08","19","18:00","21.8","","19.3","","86","","15","","21","","","","98.42","","29","","","","NA"
"2015-08-19 19:00","2015","08","19","19:00","21.4","","19.3","","88","","16","","10","","","","98.40","","28","","","","NA"
"2015-08-19 20:00","2015","08","19","20:00","21.5","","19.4","","88","","17","","22","","","","98.40","","29","","","","NA"
"2015-08-19 21:00","2015","08","19","21:00","21.5","","18.9","","86","","18","","16","","","","98.39","","28","","","","NA"
"2015-08-19 22:00","2015","08","19","22:00","21.1","","19.2","","89","","11","","11","","","","98.31","","28","","","","NA"
"2015-08-19 23:00","2015","08","19","23:00","21.2","","19.3","","89","","10","","7","","","","98.30","","28","","","","NA"
"2015-08-20 00:00","2015","08","20","00:00","21.9","","19.3","","85","","17","","22","","","","98.28","","29","","","","NA"
"2015-08-20 01:00","2015","08","20","01:00","21.4","","19.4","","88","","20","","15","","","","98.26","","28","","","","NA"
"2015-08-20 02:00","2015","08","20","02:00","21.3","","19.1","","87","","19","","14","","","","98.20","","28","","","","NA"
"2015-08-20 03:00","2015","08","20","03:00","21.1","","19.1","","89","","23","","3","","","","98.10","","28","","","","NA"
"2015-08-20 04:00","2015","08","20","04:00","20.5","","19.1","","92","","34","","5","","","","98.01","","27","","","","NA"
"2015-08-20 05:00","2015","08","20","05:00","18.7","","17.3","","91","","35","","12","","","","97.97","","","","","","NA"
"2015-08-20 06:00","2015","08","20","06:00","17.8","","16.6","","93","","34","","12","","","","97.96","","","","","","NA"
"2015-08-20 07:00","2015","08","20","07:00","17.4","","16.0","","91","","33","","13","","","","98.03","","","","","","NA"
"2015-08-20 08:00","2015","08","20","08:00","17.9","","16.2","","89","","30","","12","","","","98.09","","","","","","NA"
"2015-08-20 09:00","2015","08","20","09:00","17.6","","14.7","","83","","27","","13","","","","98.15","","","","","","NA"
"2015-08-20 10:00","2015","08","20","10:00","18.2","","15.4","","84","","24","","13","","","","98.17","","","","","","NA"
"2015-08-20 11:00","2015","08","20","11:00","19.2","","14.6","","75","","22","","28","","","","98.20","","","","","","NA"
"2015-08-20 12:00","2015","08","20","12:00","20.1","","14.9","","72","","23","","31","","","","98.22","","","","","","NA"
"2015-08-20 13:00","2015","08","20","13:00","20.3","","14.0","","67","","22","","39","","","","98.24","","","","","","NA"
"2015-08-20 14:00","2015","08","20","14:00","20.4","","14.7","","69","","23","","36","","","","98.28","","","","","","NA"
"2015-08-20 15:00","2015","08","20","15:00","20.7","","14.9","","70","","23","","32","","","","98.28","","25","","","","NA"
"2015-08-20 16:00","2015","08","20","16:00","20.4","","14.9","","71","","22","","36","","","","98.28","","","","","","NA"
"2015-08-20 17:00","2015","08","20","17:00","20.2","","15.1","","73","","22","","44","","","","98.32","","","","","","NA"
"2015-08-20 18:00","2015","08","20","18:00","19.2","","15.1","","77","","27","","18","","","","98.42","","","","","","NA"
"2015-08-20 19:00","2015","08","20","19:00","18.9","","14.2","","74","","24","","18","","","","98.47","","","","","","NA"
"2015-08-20 20:00","2015","08","20","20:00","18.7","","13.8","","73","","23","","21","","","","98.53","","","","","","NA"
"2015-08-20 21:00","2015","08","20","21:00","16.5","","13.2","","81","","28","","30","","","","98.62","","","","","","NA"
"2015-08-20 22:00","2015","08","20","22:00","17.4","","14.3","","82","","25","","17","","","","98.64","","","","","","NA"
"2015-08-20 23:00","2015","08","20","23:00","16.7","","14.2","","85","","25","","21","","","","98.69","","","","","","NA"
"2015-08-21 00:00","2015","08","21","00:00","16.8","","13.9","","83","","27","","21","","","","98.71","","","","","","NA"
"2015-08-21 01:00","2015","08","21","01:00","16.2","","12.1","","77","","30","","16","","","","98.76","","","","","","NA"
"2015-08-21 02:00","2015","08","21","02:00","16.2","","11.9","","76","","29","","14","","","","98.81","","","","","","NA"
"2015-08-21 03:00","2015","08","21","03:00","16.0","","12.7","","81","","29","","12","","","","98.88","","","","","","NA"
"2015-08-21 04:00","2015","08","21","04:00","15.8","","12.5","","81","","28","","25","","","","98.94","","","","","","NA"
"2015-08-21 05:00","2015","08","21","05:00","15.2","","12.3","","83","","30","","15","","","","99.01","","","","","","NA"
"2015-08-21 06:00","2015","08","21","06:00","15.3","","12.1","","81","","31","","8","","","","99.10","","","","","","NA"
"2015-08-21 07:00","2015","08","21","07:00","15.8","","12.2","","79","","32","","7","","","","99.16","","","","","","NA"
"2015-08-21 08:00","2015","08","21","08:00","15.7","","12.5","","81","","30","","14","","","","99.24","","","","","","NA"
"2015-08-21 09:00","2015","08","21","09:00","16.2","","11.7","","75","","29","","18","","","","99.28","","","","","","NA"
"2015-08-21 10:00","2015","08","21","10:00","16.7","","11.0","","69","","28","","22","","","","99.33","","","","","","NA"
"2015-08-21 11:00","2015","08","21","11:00","17.5","","11.0","","66","","28","","24","","","","99.36","","","","","","NA"
"2015-08-21 12:00","2015","08","21","12:00","18.2","","10.3","","60","","28","","20","","","","99.39","","","","","","NA"
"2015-08-21 13:00","2015","08","21","13:00","18.5","","10.0","","58","","28","","20","","","","99.43","","","","","","NA"
"2015-08-21 14:00","2015","08","21","14:00","19.0","","10.3","","57","","28","","23","","","","99.46","","","","","","NA"
"2015-08-21 15:00","2015","08","21","15:00","19.2","","10.1","","56","","27","","23","","","","99.49","","","","","","NA"
"2015-08-21 16:00","2015","08","21","16:00","19.5","","10.4","","56","","26","","18","","","","99.51","","","","","","NA"
"2015-08-21 17:00","2015","08","21","17:00","19.8","","8.9","","49","","25","","16","","","","99.53","","","","","","NA"
"2015-08-21 18:00","2015","08","21","18:00","20.1","","10.0","","52","","26","","12","","","","99.54","","","","","","NA"
"2015-08-21 19:00","2015","08","21","19:00","19.5","","10.0","","54","","26","","9","","","","99.55","","","","","","NA"
"2015-08-21 20:00","2015","08","21","20:00","18.6","","12.4","","67","","26","","9","","","","99.58","","","","","","NA"
"2015-08-21 21:00","2015","08","21","21:00","17.5","","12.7","","74","","25","","15","","","","99.63","","","","","","NA"
"2015-08-21 22:00","2015","08","21","22:00","17.0","","12.8","","77","","29","","8","","","","99.65","","","","","","NA"
"2015-08-21 23:00","2015","08","21","23:00","16.5","","13.4","","82","","29","","8","","","","99.66","","","","","","NA"
"2015-08-22 00:00","2015","08","22","00:00","15.9","","13.2","","84","","28","","4","","","","99.67","","","","","","NA"
"2015-08-22 01:00","2015","08","22","01:00","16.0","","13.2","","84","","0","","1","","","","99.70","","","","","","NA"
"2015-08-22 02:00","2015","08","22","02:00","16.4","","13.4","","83","","16","","1","","","","99.71","","","","","","NA"
"2015-08-22 03:00","2015","08","22","03:00","16.5","","12.9","","80","","8","","1","","","","99.74","","","","","","NA"
"2015-08-22 04:00","2015","08","22","04:00","16.7","","13.1","","79","","7","","5","","","","99.75","","","","","","NA"
"2015-08-22 05:00","2015","08","22","05:00","17.3","","14.0","","81","","7","","4","","","","99.76","","","","","","NA"
"2015-08-22 06:00","2015","08","22","06:00","16.8","","14.7","","88","","8","","7","","","","99.77","","","","","","NA"
"2015-08-22 07:00","2015","08","22","07:00","19.3","","15.2","","77","","16","","16","","","","99.80","","","","","","NA"
"2015-08-22 08:00","2015","08","22","08:00","19.3","","15.8","","80","","17","","19","","","","99.84","","","","","","NA"
"2015-08-22 09:00","2015","08","22","09:00","19.1","","16.2","","83","","15","","19","","","","99.83","","","","","","NA"
"2015-08-22 10:00","2015","08","22","10:00","19.4","","16.9","","86","","14","","18","","","","99.83","","","","","","NA"
"2015-08-22 11:00","2015","08","22","11:00","19.4","","16.9","","86","","14","","22","","","","99.84","","","","","","NA"
"2015-08-22 12:00","2015","08","22","12:00","19.4","","16.5","","83","","15","","22","","","","99.82","","","","","","NA"
"2015-08-22 13:00","2015","08","22","13:00","19.7","","16.6","","82","","14","","24","","","","99.79","","","","","","NA"
"2015-08-22 14:00","2015","08","22","14:00","19.8","","16.9","","83","","14","","27","","","","99.77","","","","","","NA"
"2015-08-22 15:00","2015","08","22","15:00","20.0","","16.6","","81","","14","","28","","","","99.74","","25","","","","NA"
"2015-08-22 16:00","2015","08","22","16:00","20.0","","17.0","","83","","14","","20","","","","99.72","","25","","","","NA"
"2015-08-22 17:00","2015","08","22","17:00","19.9","","16.8","","82","","13","","22","","","","99.69","","","","","","NA"
"2015-08-22 18:00","2015","08","22","18:00","19.9","","16.9","","83","","13","","19","","","","99.64","","","","","","NA"
"2015-08-22 19:00","2015","08","22","19:00","19.8","","17.3","","85","","14","","16","","","","99.63","","","","","","NA"
"2015-08-22 20:00","2015","08","22","20:00","19.8","","17.5","","87","","14","","15","","","","99.62","","","","","","NA"
"2015-08-22 21:00","2015","08","22","21:00","19.7","","17.5","","87","","15","","12","","","","99.62","","","","","","NA"
"2015-08-22 22:00","2015","08","22","22:00","19.7","","17.2","","86","","15","","11","","","","99.57","","","","","","NA"
"2015-08-22 23:00","2015","08","22","23:00","19.7","","17.5","","87","","14","","12","","","","99.53","","","","","","NA"
"2015-08-23 00:00","2015","08","23","00:00","19.9","","17.0","","84","","16","","17","","","","99.46","","","","","","NA"
"2015-08-23 01:00","2015","08","23","01:00","20.5","","16.0","","75","","20","","9","","","","99.49","","25","","","","NA"
"2015-08-23 02:00","2015","08","23","02:00","19.8","","16.0","","79","","15","","5","","","","99.49","","","","","","NA"
"2015-08-23 03:00","2015","08","23","03:00","19.5","","14.7","","74","","25","","2","","","","99.52","","","","","","NA"
"2015-08-23 04:00","2015","08","23","04:00","18.4","","14.8","","80","","3","","6","","","","99.49","","","","","","NA"
"2015-08-23 05:00","2015","08","23","05:00","19.0","","15.8","","82","","7","","10","","","","99.39","","","","","","NA"
"2015-08-23 06:00","2015","08","23","06:00","19.8","","15.2","","75","","13","","17","","","","99.34","","","","","","NA"
"2015-08-23 07:00","2015","08","23","07:00","19.8","","16.1","","79","","12","","16","","","","99.33","","","","","","NA"
"2015-08-23 08:00","2015","08","23","08:00","19.6","","16.3","","81","","13","","24","","","","99.24","","","","","","NA"
"2015-08-23 09:00","2015","08","23","09:00","19.7","","16.8","","83","","15","","28","","","","99.23","","","","","","NA"
"2015-08-23 10:00","2015","08","23","10:00","19.4","","16.4","","83","","16","","31","","","","99.25","","","","","","NA"
"2015-08-23 11:00","2015","08","23","11:00","19.4","","16.5","","83","","15","","35","","","","99.20","","","","","","NA"
"2015-08-23 12:00","2015","08","23","12:00","19.6","","15.7","","78","","15","","34","","","","99.15","","","","","","NA"
"2015-08-23 13:00","2015","08","23","13:00","20.1","","15.9","","77","","15","","32","","","","99.09","","25","","","","NA"
"2015-08-23 14:00","2015","08","23","14:00","20.0","","13.8","","67","","15","","33","","","","99.02","","","","","","NA"
"2015-08-23 15:00","2015","08","23","15:00","20.0","","14.8","","72","","15","","32","","","","98.94","","","","","","NA"
"2015-08-23 16:00","2015","08","23","16:00","20.0","","15.2","","74","","14","","34","","","","98.85","","","","","","NA"
"2015-08-23 17:00","2015","08","23","17:00","20.4","","14.9","","71","","14","","33","","","","98.77","","","","","","NA"
"2015-08-23 18:00","2015","08","23","18:00","20.5","","15.7","","74","","15","","26","","","","98.75","","25","","","","NA"
"2015-08-23 19:00","2015","08","23","19:00","20.1","","15.7","","76","","16","","29","","","","98.71","","25","","","","NA"
"2015-08-23 20:00","2015","08","23","20:00","19.4","","15.2","","77","","15","","20","","","","98.59","","","","","","NA"
"2015-08-23 21:00","2015","08","23","21:00","20.2","","15.5","","75","","14","","27","","","","98.49","","","","","","NA"
"2015-08-23 22:00","2015","08","23","22:00","20.4","","15.8","","75","","15","","25","","","","98.41","","25","","","","NA"
"2015-08-23 23:00","2015","08","23","23:00","20.6","","16.0","","75","","18","","29","","","","98.38","","25","","","","NA"
"2015-08-24 00:00","2015","08","24","00:00","19.0","","14.6","","76","","25","","24","","","","98.37","","","","","","NA"
"2015-08-24 01:00","2015","08","24","01:00","18.0","","14.5","","80","","27","","12","","","","98.35","","","","","","NA"
"2015-08-24 02:00","2015","08","24","02:00","17.7","","13.6","","77","","26","","17","","","","98.31","","","","","","NA"
"2015-08-24 03:00","2015","08","24","03:00","17.5","","13.8","","79","","25","","19","","","","98.32","","","","","","NA"
"2015-08-24 04:00","2015","08","24","04:00","17.1","","13.7","","81","","25","","17","","","","98.27","","","","","","NA"
"2015-08-24 05:00","2015","08","24","05:00","17.1","","13.7","","80","","24","","20","","","","98.28","","","","","","NA"
"2015-08-24 06:00","2015","08","24","06:00","16.8","","13.2","","79","","24","","24","","","","98.29","","","","","","NA"
"2015-08-24 07:00","2015","08","24","07:00","16.4","","12.7","","79","","25","","22","","","","98.34","","","","","","NA"
"2015-08-24 08:00","2015","08","24","08:00","17.1","","12.5","","74","","24","","27","","","","98.31","","","","","","NA"
"2015-08-24 09:00","2015","08","24","09:00","17.5","","12.8","","74","","26","","22","","","","98.32","","","","","","NA"
"2015-08-24 10:00","2015","08","24","10:00","18.1","","12.7","","71","","23","","24","","","","98.33","","","","","","NA"
"2015-08-24 11:00","2015","08","24","11:00","18.8","","12.1","","65","","22","","33","","","","98.32","","","","","","NA"
"2015-08-24 12:00","2015","08","24","12:00","18.7","","11.8","","64","","21","","31","","","","98.32","","","","","","NA"
"2015-08-24 13:00","2015","08","24","13:00","18.6","","11.4","","63","","22","","35","","","","98.32","","","","","","NA"
"2015-08-24 14:00","2015","08","24","14:00","18.8","","11.1","","61","","21","","36","","","","98.32","","","","","","NA"
"2015-08-24 15:00","2015","08","24","15:00","16.7","","11.0","","69","","29","","27","","","","98.38","","","","","","NA"
"2015-08-24 16:00","2015","08","24","16:00","17.2","","10.7","","66","","29","","17","","","","98.39","","","","","","NA"
"2015-08-24 17:00","2015","08","24","17:00","16.7","","10.7","","67","","28","","25","","","","98.42","","","","","","NA"
"2015-08-24 18:00","2015","08","24","18:00","15.7","","10.0","","69","","25","","16","","","","98.44","","","","","","NA"
"2015-08-24 19:00","2015","08","24","19:00","15.8","","10.2","","70","","26","","18","","","","98.43","","","","","","NA"
"2015-08-24 20:00","2015","08","24","20:00","14.6","","10.4","","76","","25","","14","","","","98.47","","","","","","NA"
"2015-08-24 21:00","2015","08","24","21:00","14.3","","11.1","","81","","25","","18","","","","98.50","","","","","","NA"
"2015-08-24 22:00","2015","08","24","22:00","13.8","","11.4","","86","","25","","20","","","","98.49","","","","","","NA"
"2015-08-24 23:00","2015","08","24","23:00","13.6","","11.2","","86","","25","","16","","","","98.49","","","","","","NA"
"2015-08-25 00:00","2015","08","25","00:00","13.8","","10.2","","79","","25","","20","","","","98.47","","","","","","NA"
"2015-08-25 01:00","2015","08","25","01:00","13.9","","10.5","","80","","24","","22","","","","98.44","","","","","","NA"
"2015-08-25 02:00","2015","08","25","02:00","13.7","","9.9","","78","","25","","20","","","","98.42","","","","","","NA"
"2015-08-25 03:00","2015","08","25","03:00","13.6","","10.1","","80","","26","","17","","","","98.42","","","","","","NA"
"2015-08-25 04:00","2015","08","25","04:00","13.8","","10.7","","81","","26","","17","","","","98.41","","","","","","NA"
"2015-08-25 05:00","2015","08","25","05:00","14.1","","10.7","","80","","26","","22","","","","98.42","","","","","","NA"
"2015-08-25 06:00","2015","08","25","06:00","14.0","","10.8","","81","","27","","23","","","","98.47","","","","","","NA"
"2015-08-25 07:00","2015","08","25","07:00","13.9","","11.6","","86","","27","","23","","","","98.51","","","","","","NA"
"2015-08-25 08:00","2015","08","25","08:00","14.1","","11.1","","82","","27","","25","","","","98.55","","","","","","NA"
"2015-08-25 09:00","2015","08","25","09:00","14.4","","11.2","","81","","27","","19","","","","98.57","","","","","","NA"
"2015-08-25 10:00","2015","08","25","10:00","14.7","","10.2","","75","","26","","22","","","","98.64","","","","","","NA"
"2015-08-25 11:00","2015","08","25","11:00","14.7","","9.9","","73","","26","","26","","","","98.68","","","","","","NA"
"2015-08-25 12:00","2015","08","25","12:00","15.4","","9.7","","69","","28","","26","","","","98.68","","","","","","NA"
"2015-08-25 13:00","2015","08","25","13:00","14.8","","10.9","","78","","28","","18","","","","98.73","","","","","","NA"
"2015-08-25 14:00","2015","08","25","14:00","15.2","","10.3","","72","","26","","23","","","","98.74","","","","","","NA"
"2015-08-25 15:00","2015","08","25","15:00","15.3","","10.4","","72","","28","","21","","","","98.75","","","","","","NA"
"2015-08-25 16:00","2015","08","25","16:00","15.4","","10.7","","74","","27","","21","","","","98.76","","","","","","NA"
"2015-08-25 17:00","2015","08","25","17:00","15.2","","11.1","","76","","28","","23","","","","98.81","","","","","","NA"
"2015-08-25 18:00","2015","08","25","18:00","15.4","","10.5","","73","","27","","23","","","","98.82","","","","","","NA"
"2015-08-25 19:00","2015","08","25","19:00","14.3","","11.8","","85","","28","","22","","","","98.86","","","","","","NA"
"2015-08-25 20:00","2015","08","25","20:00","14.7","","10.8","","78","","26","","26","","","","98.89","","","","","","NA"
"2015-08-25 21:00","2015","08","25","21:00","14.7","","10.8","","78","","26","","22","","","","98.92","","","","","","NA"
"2015-08-25 22:00","2015","08","25","22:00","15.0","","10.6","","75","","29","","23","","","","98.91","","","","","","NA"
"2015-08-25 23:00","2015","08","25","23:00","15.0","","10.7","","76","","28","","24","","","","98.94","","","","","","NA"
"2015-08-26 00:00","2015","08","26","00:00","14.6","","11.0","","79","","29","","17","","","","98.93","","","","","","NA"
"2015-08-26 01:00","2015","08","26","01:00","14.4","","10.7","","79","","29","","20","","","","98.92","","","","","","NA"
"2015-08-26 02:00","2015","08","26","02:00","14.2","","10.5","","78","","31","","13","","","","98.91","","","","","","NA"
"2015-08-26 03:00","2015","08","26","03:00","13.8","","10.4","","80","","31","","11","","","","98.93","","","","","","NA"
"2015-08-26 04:00","2015","08","26","04:00","13.6","","10.2","","80","","31","","13","","","","98.96","","","","","","NA"
"2015-08-26 05:00","2015","08","26","05:00","13.5","","10.1","","80","","31","","11","","","","98.99","","","","","","NA"
"2015-08-26 06:00","2015","08","26","06:00","13.6","","10.1","","79","","31","","12","","","","99.05","","","","","","NA"
"2015-08-26 07:00","2015","08","26","07:00","13.5","","9.8","","78","","32","","13","","","","99.10","","","","","","NA"
"2015-08-26 08:00","2015","08","26","08:00","13.7","","9.7","","77","","31","","14","","","","99.16","","","","","","NA"
"2015-08-26 09:00","2015","08","26","09:00","14.6","","9.6","","72","","33","","14","","","","99.19","","","","","","NA"
"2015-08-26 10:00","2015","08","26","10:00","15.0","","9.4","","69","","35","","13","","","","99.23","","","","","","NA"
"2015-08-26 11:00","2015","08","26","11:00","15.2","","7.9","","62","","31","","16","","","","99.27","","","","","","NA"
"2015-08-26 12:00","2015","08","26","12:00","15.6","","8.7","","63","","30","","19","","","","99.28","","","","","","NA"
"2015-08-26 13:00","2015","08","26","13:00","15.6","","8.9","","64","","32","","13","","","","99.29","","","","","","NA"
"2015-08-26 14:00","2015","08","26","14:00","15.7","","9.3","","66","","29","","15","","","","99.29","","","","","","NA"
"2015-08-26 15:00","2015","08","26","15:00","16.3","","9.3","","63","","32","","14","","","","99.27","","","","","","NA"
"2015-08-26 16:00","2015","08","26","16:00","16.5","","9.9","","65","","29","","16","","","","99.27","","","","","","NA"
"2015-08-26 17:00","2015","08","26","17:00","15.8","","10.4","","70","","31","","16","","","","99.30","","","","","","NA"
"2015-08-26 18:00","2015","08","26","18:00","15.0","","10.7","","76","","32","","7","","","","99.35","","","","","","NA"
"2015-08-26 19:00","2015","08","26","19:00","13.8","","10.1","","78","","34","","15","","","","99.40","","","","","","NA"
"2015-08-26 20:00","2015","08","26","20:00","13.6","","9.5","","76","","33","","7","","","","99.47","","","","","","NA"
"2015-08-26 21:00","2015","08","26","21:00","13.1","","9.5","","79","","34","","8","","","","99.52","","","","","","NA"
"2015-08-26 22:00","2015","08","26","22:00","12.7","","9.4","","81","","33","","9","","","","99.55","","","","","","NA"
"2015-08-26 23:00","2015","08","26","23:00","12.4","","10.0","","85","","32","","7","","","","99.57","","","","","","NA"
"2015-08-27 00:00","2015","08","27","00:00","12.1","","9.7","","85","","33","","11","","","","99.58","","","","","","NA"
"2015-08-27 01:00","2015","08","27","01:00","12.1","","9.5","","84","","32","","10","","","","99.61","","","","","","NA"
"2015-08-27 02:00","2015","08","27","02:00","12.5","","9.3","","81","","33","","10","","","","99.60","","","","","","NA"
"2015-08-27 03:00","2015","08","27","03:00","12.5","","9.5","","82","","35","","9","","","","99.61","","","","","","NA"
"2015-08-27 04:00","2015","08","27","04:00","11.9","","9.2","","84","","35","","9","","","","99.62","","","","","","NA"
"2015-08-27 05:00","2015","08","27","05:00","11.5","","9.3","","86","","35","","10","","","","99.68","","","","","","NA"
"2015-08-27 06:00","2015","08","27","06:00","11.4","","8.8","","84","","35","","11","","","","99.76","","","","","","NA"
"2015-08-27 07:00","2015","08","27","07:00","12.2","","9.2","","82","","36","","9","","","","99.82","","","","","","NA"
"2015-08-27 08:00","2015","08","27","08:00","13.5","","8.9","","74","","34","","9","","","","99.81","","","","","","NA"
"2015-08-27 09:00","2015","08","27","09:00","14.3","","8.9","","70","","32","","8","","","","99.81","","","","","","NA"
"2015-08-27 10:00","2015","08","27","10:00","14.8","","9.1","","69","","27","","12","","","","99.85","","","","","","NA"
"2015-08-27 11:00","2015","08","27","11:00","15.2","","8.9","","66","","27","","15","","","","99.85","","","","","","NA"
"2015-08-27 12:00","2015","08","27","12:00","15.7","","8.9","","64","","28","","12","","","","99.82","","","","","","NA"
"2015-08-27 13:00","2015","08","27","13:00","16.2","","9.6","","65","","24","","11","","","","99.79","","","","","","NA"
"2015-08-27 14:00","2015","08","27","14:00","16.4","","9.4","","63","","29","","12","","","","99.79","","","","","","NA"
"2015-08-27 15:00","2015","08","27","15:00","16.6","","9.6","","63","","23","","5","","","","99.76","","","","","","NA"
"2015-08-27 16:00","2015","08","27","16:00","16.5","","9.7","","64","","22","","13","","","","99.74","","","","","","NA"
"2015-08-27 17:00","2015","08","27","17:00","16.8","","10.2","","65","","20","","8","","","","99.75","","","","","","NA"
"2015-08-27 18:00","2015","08","27","18:00","16.6","","10.1","","66","","19","","13","","","","99.73","","","","","","NA"
"2015-08-27 19:00","2015","08","27","19:00","16.7","","10.6","","67","","20","","11","","","","99.73","","","","","","NA"
"2015-08-27 20:00","2015","08","27","20:00","16.1","","11.0","","72","","23","","23","","","","99.76","","","","","","NA"
"2015-08-27 21:00","2015","08","27","21:00","15.7","","10.8","","73","","25","","16","","","","99.80","","","","","","NA"
"2015-08-27 22:00","2015","08","27","22:00","15.8","","10.9","","73","","24","","15","","","","99.78","","","","","","NA"
"2015-08-27 23:00","2015","08","27","23:00","15.4","","10.3","","72","","26","","12","","","","99.79","","","","","","NA"
"2015-08-28 00:00","2015","08","28","00:00","15.1","","10.6","","74","","25","","10","","","","99.76","","","","","","NA"
"2015-08-28 01:00","2015","08","28","01:00","14.6","","10.9","","78","","26","","11","","","","99.75","","","","","","NA"
"2015-08-28 02:00","2015","08","28","02:00","14.7","","10.7","","77","","25","","13","","","","99.70","","","","","","NA"
"2015-08-28 03:00","2015","08","28","03:00","14.8","","11.8","","82","","25","","12","","","","99.70","","","","","","NA"
"2015-08-28 04:00","2015","08","28","04:00","15.4","","12.4","","82","","25","","13","","","","99.71","","","","","","NA"
"2015-08-28 05:00","2015","08","28","05:00","15.2","","12.6","","84","","28","","6","","","","99.74","","","","","","NA"
"2015-08-28 06:00","2015","08","28","06:00","14.9","","12.8","","87","","30","","8","","","","99.77","","","","","","NA"
"2015-08-28 07:00","2015","08","28","07:00","15.9","","13.7","","87","","29","","5","","","","99.80","","","","","","NA"
"2015-08-28 08:00","2015","08","28","08:00","16.8","","14.1","","84","","26","","8","","","","99.78","","","","","","NA"
"2015-08-28 09:00","2015","08","28","09:00","17.6","","13.9","","79","","26","","8","","","","99.80","","","","","","NA"
"2015-08-28 10:00","2015","08","28","10:00","17.7","","14.2","","80","","22","","12","","","","99.82","","","","","","NA"
"2015-08-28 11:00","2015","08","28","11:00","18.3","","14.5","","79","","19","","14","","","","99.82","","","","","","NA"
"2015-08-28 12:00","2015","08","28","12:00","18.3","","14.1","","77","","16","","14","","","","99.80","","","","","","NA"
"2015-08-28 13:00","2015","08","28","13:00","18.7","","15.0","","79","","17","","20","","","","99.74","","","","","","NA"
"2015-08-28 14:00","2015","08","28","14:00","19.7","","15.3","","76","","16","","15","","","","99.69","","","","","","NA"
"2015-08-28 15:00","2015","08","28","15:00","21.1","","11.3","","54","","23","","26","","","","99.65","","","","","","NA"
"2015-08-28 16:00","2015","08","28","16:00","20.5","","13.2","","63","","23","","28","","","","99.64","","","","","","NA"
"2015-08-28 17:00","2015","08","28","17:00","19.8","","14.2","","70","","22","","25","","","","99.65","","","","","","NA"
"2015-08-28 18:00","2015","08","28","18:00","19.3","","14.1","","72","","22","","29","","","","99.63","","","","","","NA"
"2015-08-28 19:00","2015","08","28","19:00","18.9","","13.8","","72","","25","","18","","","","99.67","","","","","","NA"
"2015-08-28 20:00","2015","08","28","20:00","18.5","","14.2","","76","","22","","19","","","","99.69","","","","","","NA"
"2015-08-28 21:00","2015","08","28","21:00","18.1","","14.6","","80","","22","","19","","","","99.68","","","","","","NA"
"2015-08-28 22:00","2015","08","28","22:00","18.2","","13.9","","76","","22","","19","","","","99.65","","","","","","NA"
"2015-08-28 23:00","2015","08","28","23:00","18.1","","14.2","","78","","24","","19","","","","99.62","","","","","","NA"
"2015-08-29 00:00","2015","08","29","00:00","18.3","","14.8","","80","","23","","18","","","","99.61","","","","","","NA"
"2015-08-29 01:00","2015","08","29","01:00","18.5","","14.6","","78","","23","","29","","","","99.57","","","","","","NA"
"2015-08-29 02:00","2015","08","29","02:00","18.4","","14.7","","79","","23","","27","","","","99.53","","","","","","NA"
"2015-08-29 03:00","2015","08","29","03:00","18.5","","15.0","","80","","24","","14","","","","99.52","","","","","","NA"
"2015-08-29 04:00","2015","08","29","04:00","18.3","","15.4","","83","","27","","8","","","","99.51","","","","","","NA"
"2015-08-29 05:00","2015","08","29","05:00","18.3","","15.4","","83","","26","","13","","","","99.51","","","","","","NA"
"2015-08-29 06:00","2015","08","29","06:00","17.7","","15.9","","89","","27","","15","","","","99.54","","","","","","NA"
"2015-08-29 07:00","2015","08","29","07:00","17.9","","15.9","","88","","27","","21","","","","99.57","","","","","","NA"
"2015-08-29 08:00","2015","08","29","08:00","17.7","","15.9","","90","","26","","19","","","","99.57","","","","","","NA"
"2015-08-29 09:00","2015","08","29","09:00","17.3","","15.6","","90","","28","","21","","","","99.60","","","","","","NA"
"2015-08-29 10:00","2015","08","29","10:00","17.7","","15.6","","88","","28","","22","","","","99.59","","","","","","NA"
"2015-08-29 11:00","2015","08","29","11:00","17.5","","15.3","","87","","29","","20","","","","99.61","","","","","","NA"
"2015-08-29 12:00","2015","08","29","12:00","17.6","","15.7","","89","","29","","17","","","","99.61","","","","","","NA"
"2015-08-29 13:00","2015","08","29","13:00","17.8","","15.5","","86","","27","","19","","","","99.59","","","","","","NA"
"2015-08-29 14:00","2015","08","29","14:00","18.2","","15.6","","85","","29","","16","","","","99.57","","","","","","NA"
"2015-08-29 15:00","2015","08","29","15:00","17.2","","15.4","","89","","29","","14","","","","99.56","","","","","","NA"
"2015-08-29 16:00","2015","08","29","16:00","17.5","","15.8","","90","","27","","9","","","","99.54","","","","","","NA"
"2015-08-29 17:00","2015","08","29","17:00","18.1","","15.8","","86","","26","","9","","","","99.52","","","","","","NA"
"2015-08-29 18:00","2015","08","29","18:00","18.2","","15.6","","85","","27","","11","","","","99.50","","","","","","NA"
"2015-08-29 19:00","2015","08","29","19:00","18.4","","14.0","","75","","24","","16","","","","99.50","","","","","","NA"
"2015-08-29 20:00","2015","08","29","20:00","17.8","","14.4","","81","","26","","11","","","","99.53","","","","","","NA"
"2015-08-29 21:00","2015","08","29","21:00","17.4","","14.5","","83","","28","","10","","","","99.57","","","","","","NA"
"2015-08-29 22:00","2015","08","29","22:00","17.4","","14.2","","82","","25","","9","","","","99.55","","","","","","NA"
"2015-08-29 23:00","2015","08","29","23:00","17.0","","14.3","","84","","29","","6","","","","99.53","","","","","","NA"
"2015-08-30 00:00","2015","08","30","00:00","17.0","","14.2","","84","","25","","5","","","","99.51","","","","","","NA"
"2015-08-30 01:00","2015","08","30","01:00","16.7","","14.6","","88","","27","","8","","","","99.48","","","","","","NA"
"2015-08-30 02:00","2015","08","30","02:00","16.6","","14.8","","89","","26","","7","","","","99.43","","","","","","NA"
"2015-08-30 03:00","2015","08","30","03:00","17.0","","15.2","","89","","27","","8","","","","99.44","","","","","","NA"
"2015-08-30 04:00","2015","08","30","04:00","16.9","","15.0","","89","","29","","5","","","","99.47","","","","","","NA"
"2015-08-30 05:00","2015","08","30","05:00","17.0","","15.2","","89","","24","","8","","","","99.48","","","","","","NA"
"2015-08-30 06:00","2015","08","30","06:00","17.1","","15.2","","88","","28","","6","","","","99.51","","","","","","NA"
"2015-08-30 07:00","2015","08","30","07:00","17.1","","15.3","","89","","27","","7","","","","99.55","","","","","","NA"
"2015-08-30 08:00","2015","08","30","08:00","17.1","","15.1","","88","","25","","5","","","","99.57","","","","","","NA"
"2015-08-30 09:00","2015","08","30","09:00","17.3","","15.4","","89","","20","","8","","","","99.57","","","","","","NA"
"2015-08-30 10:00","2015","08","30","10:00","17.1","","15.4","","90","","20","","8","","","","99.55","","","","","","NA"
"2015-08-30 11:00","2015","08","30","11:00","17.0","","15.4","","91","","20","","9","","","","99.56","","","","","","NA"
"2015-08-30 12:00","2015","08","30","12:00","17.6","","15.0","","85","","17","","9","","","","99.51","","","","","","NA"
"2015-08-30 13:00","2015","08","30","13:00","17.7","","15.6","","87","","16","","11","","","","99.47","","","","","","NA"
"2015-08-30 14:00","2015","08","30","14:00","18.6","","16.0","","85","","14","","7","","","","99.42","","","","","","NA"
"2015-08-30 15:00","2015","08","30","15:00","19.4","","16.1","","81","","13","","9","","","","99.33","","","","","","NA"
"2015-08-30 16:00","2015","08","30","16:00","20.4","","16.5","","78","","20","","13","","","","99.28","","25","","","","NA"
"2015-08-30 17:00","2015","08","30","17:00","19.9","","16.7","","81","","19","","19","","","","99.25","","","","","","NA"
"2015-08-30 18:00","2015","08","30","18:00","20.3","","16.6","","80","","23","","18","","","","99.21","","25","","","","NA"
"2015-08-30 19:00","2015","08","30","19:00","19.8","","16.9","","83","","23","","16","","","","99.17","","","","","","NA"
"2015-08-30 20:00","2015","08","30","20:00","19.3","","16.2","","82","","24","","14","","","","99.19","","","","","","NA"
"2015-08-30 21:00","2015","08","30","21:00","18.6","","16.5","","88","","25","","12","","","","99.21","","","","","","NA"
"2015-08-30 22:00","2015","08","30","22:00","18.0","","15.9","","87","","29","","4","","","","99.20","","","","","","NA"
"2015-08-30 23:00","2015","08","30","23:00","18.3","","16.3","","88","","32","","7","","","","99.20","","","","","","NA"
"2015-08-31 00:00","2015","08","31","00:00","18.0","","16.4","","90","","28","","7","","","","99.20","","","","","","NA"
"2015-08-31 01:00","2015","08","31","01:00","18.5","","17.0","","91","","28","","10","","","","99.17","","","","","","NA"
"2015-08-31 02:00","2015","08","31","02:00","18.1","","16.9","","92","","28","","7","","","","99.17","","","","","","NA"
"2015-08-31 03:00","2015","08","31","03:00","18.0","","16.9","","93","","28","","9","","","","99.16","","","","","","NA"
"2015-08-31 04:00","2015","08","31","04:00","17.9","","16.6","","92","","26","","9","","","","99.15","","","","","","NA"
"2015-08-31 05:00","2015","08","31","05:00","18.4","","16.8","","90","","29","","11","","","","99.17","","","","","","NA"
"2015-08-31 06:00","2015","08","31","06:00","18.6","","16.7","","89","","29","","12","","","","99.21","","","","","","NA"
"2015-08-31 07:00","2015","08","31","07:00","18.5","","16.5","","88","","32","","7","","","","99.27","","","","","","NA"
"2015-08-31 08:00","2015","08","31","08:00","18.6","","16.2","","86","","32","","11","","","","99.28","","","","","","NA"
"2015-08-31 09:00","2015","08","31","09:00","18.9","","16.2","","84","","34","","8","","","","99.31","","","","","","NA"
"2015-08-31 10:00","2015","08","31","10:00","19.2","","16.2","","83","","29","","9","","","","99.36","","","","","","NA"
"2015-08-31 11:00","2015","08","31","11:00","19.5","","16.2","","82","","29","","6","","","","99.40","","","","","","NA"
"2015-08-31 12:00","2015","08","31","12:00","19.4","","16.4","","83","","23","","10","","","","99.41","","","","","","NA"
"2015-08-31 13:00","2015","08","31","13:00","19.2","","16.6","","85","","22","","14","","","","99.39","","","","","","NA"
"2015-08-31 14:00","2015","08","31","14:00","20.0","","16.5","","81","","26","","5","","","","99.39","","25","","","","NA"
"2015-08-31 15:00","2015","08","31","15:00","20.1","","16.8","","82","","26","","6","","","","99.38","","25","","","","NA"
"2015-08-31 16:00","2015","08","31","16:00","19.1","","17.1","","88","","18","","13","","","","99.39","","","","","","NA"
"2015-08-31 17:00","2015","08","31","17:00","19.1","","17.3","","90","","18","","14","","","","99.37","","","","","","NA"
"2015-08-31 18:00","2015","08","31","18:00","19.1","","17.4","","90","","16","","8","","","","99.41","","","","","","NA"
"2015-08-31 19:00","2015","08","31","19:00","19.0","","17.4","","91","","16","","9","","","","99.34","","","","","","NA"
"2015-08-31 20:00","2015","08","31","20:00","19.1","","17.6","","91","","35","","2","","","","99.39","","","","","","NA"
"2015-08-31 21:00","2015","08","31","21:00","19.0","","17.5","","91","","27","","9","","","","99.39","","","","","","NA"
"2015-08-31 22:00","2015","08","31","22:00","18.3","","16.8","","91","","25","","10","","","","99.39","","","","","","NA"
"2015-08-31 23:00","2015","08","31","23:00","18.1","","16.9","","93","","23","","18","","","","99.38","","","","","","NA"
