"Station Name","KILLARNEY (AUT)"
"Province","ONTARIO"
"Latitude","45.97"
"Longitude","-81.48"
"Elevation","196.30"
"Climate Identifier","605DJ25"
"WMO Identifier","71460"
"TC Identifier","WBE"
"All times are specified in Local Standard Time (LST). Add 1 hour to adjust for Daylight Saving Time where and when it is observed."

"Legend"
"E","Estimated"
"M","Missing"
"NA","Not Available"

"Date/Time","Year","Month","Day","Time","Temp (°C)","Temp Flag","Dew Point Temp (°C)","Dew Point Temp Flag","Rel Hum (%)","Rel Hum Flag","Wind Dir (10s deg)","Wind Dir Flag","Wind Spd (km/h)","Wind Spd Flag","Visibility (km)","Visibility Flag","Stn Press (kPa)","Stn Press Flag","Hmdx","Hmdx Flag","Wind Chill","Wind Chill Flag","Weather"
"2008-03-01 00:00","2008","03","01","00:00","-7.3","","-9.4","","85","","7","","22","","","","98.45","","","","-15","","NA"
"2008-03-01 01:00","2008","03","01","01:00","-7.6","","-9.4","","87","","6","","17","","","","98.41","","","","-14","","NA"
"2008-03-01 02:00","2008","03","01","02:00","-7.6","","-9.2","","88","","4","","13","","","","98.44","","","","-13","","NA"
"2008-03-01 03:00","2008","03","01","03:00","-8.2","","-9.9","","88","","2","","13","","","","98.45","","","","-14","","NA"
"2008-03-01 04:00","2008","03","01","04:00","-8.7","","-10.7","","85","","1","","9","","","","98.56","","","","-13","","NA"
"2008-03-01 05:00","2008","03","01","05:00","-9.1","","-11.6","","82","","35","","15","","","","98.69","","","","-16","","NA"
"2008-03-01 06:00","2008","03","01","06:00","-9.7","","-12.3","","81","","36","","9","","","","98.80","","","","-15","","NA"
"2008-03-01 07:00","2008","03","01","07:00","-10.3","","-12.9","","81","","33","","11","","","","98.91","","","","-16","","NA"
"2008-03-01 08:00","2008","03","01","08:00","-10.2","","-13.3","","78","","32","","11","","","","99.04","","","","-16","","NA"
"2008-03-01 09:00","2008","03","01","09:00","-9.1","","-12.9","","74","","32","","17","","","","99.16","","","","-16","","NA"
"2008-03-01 10:00","2008","03","01","10:00","-7.7","","-12.8","","67","","32","","13","","","","99.22","","","","-13","","NA"
"2008-03-01 11:00","2008","03","01","11:00","-6.0","","-11.9","","63","","34","","19","","","","99.24","","","","-13","","NA"
"2008-03-01 12:00","2008","03","01","12:00","-4.7","","-11.5","","59","","34","","17","","","","99.32","","","","-11","","NA"
"2008-03-01 13:00","2008","03","01","13:00","-3.5","","-11.0","","56","","32","","17","","","","99.34","","","","-9","","NA"
"2008-03-01 14:00","2008","03","01","14:00","-3.8","","-10.0","","62","","27","","20","","","","99.35","","","","-10","","NA"
"2008-03-01 15:00","2008","03","01","15:00","-2.5","","-9.2","","60","","27","","20","","","","99.38","","","","-8","","NA"
"2008-03-01 16:00","2008","03","01","16:00","-2.4","","-8.9","","61","","28","","22","","","","99.49","","","","-9","","NA"
"2008-03-01 17:00","2008","03","01","17:00","-1.9","","-10.8","","51","","32","","19","","","","99.58","","","","-7","","NA"
"2008-03-01 18:00","2008","03","01","18:00","-4.3","","-9.2","","69","","28","","9","","","","99.69","","","","-8","","NA"
"2008-03-01 19:00","2008","03","01","19:00","-4.3","","-8.3","","74","","28","","2","","","","99.81","","","","-5","","NA"
"2008-03-01 20:00","2008","03","01","20:00","-4.2","","-9.1","","69","","28","","4","","","","99.84","","","","-6","","NA"
"2008-03-01 21:00","2008","03","01","21:00","-4.4","","-9.2","","69","","31","","4","","","","99.89","","","","-6","","NA"
"2008-03-01 22:00","2008","03","01","22:00","-7.6","","-10.4","","80","","17","","2","","","","99.93","","","","-9","","NA"
"2008-03-01 23:00","2008","03","01","23:00","-7.2","","-10.8","","75","","30","","4","","","","99.99","","","","-9","","NA"
"2008-03-02 00:00","2008","03","02","00:00","-8.1","","-10.7","","82","","","","0","","","","100.01","","","","","","NA"
"2008-03-02 01:00","2008","03","02","01:00","-8.2","","-10.3","","85","","30","","2","","","","100.07","","","","-9","","NA"
"2008-03-02 02:00","2008","03","02","02:00","-8.6","","-10.1","","89","","31","","4","","","","100.10","","","","-11","","NA"
"2008-03-02 03:00","2008","03","02","03:00","-9.3","","-10.5","","91","","7","","2","","","","100.11","","","","-10","","NA"
"2008-03-02 04:00","2008","03","02","04:00","-9.8","","-11.0","","91","","","","0","","","","100.15","","","","","","NA"
"2008-03-02 05:00","2008","03","02","05:00","-11.4","","-12.9","","89","","8","","6","","","","100.13","","","","-15","","NA"
"2008-03-02 06:00","2008","03","02","06:00","-9.7","","-11.1","","89","","5","","4","","","","100.13","","","","-12","","NA"
"2008-03-02 07:00","2008","03","02","07:00","-8.2","","-10.0","","87","","6","","13","","","","100.14","","","","-14","","NA"
"2008-03-02 08:00","2008","03","02","08:00","-7.3","","-10.0","","81","","7","","19","","","","100.14","","","","-14","","NA"
"2008-03-02 09:00","2008","03","02","09:00","-8.1","","-11.0","","80","","7","","19","","","","100.13","","","","-15","","NA"
"2008-03-02 10:00","2008","03","02","10:00","-8.3","","-11.1","","80","","13","","13","","","","100.21","","","","-14","","NA"
"2008-03-02 11:00","2008","03","02","11:00","-7.1","","-9.8","","81","","8","","17","","","","100.16","","","","-14","","NA"
"2008-03-02 12:00","2008","03","02","12:00","-4.0","","-7.4","","77","","11","","22","","","","100.07","","","","-11","","NA"
"2008-03-02 13:00","2008","03","02","13:00","-3.8","","-7.0","","78","","14","","32","","","","99.99","","","","-12","","NA"
"2008-03-02 14:00","2008","03","02","14:00","-3.6","","-6.5","","80","","14","","32","","","","99.88","","","","-11","","NA"
"2008-03-02 15:00","2008","03","02","15:00","-3.3","","-6.3","","80","","13","","35","","","","99.73","","","","-11","","NA"
"2008-03-02 16:00","2008","03","02","16:00","-3.1","","-6.2","","79","","13","","35","","","","99.68","","","","-11","","NA"
"2008-03-02 17:00","2008","03","02","17:00","-3.0","","-6.2","","79","","13","","30","","","","99.60","","","","-10","","NA"
"2008-03-02 18:00","2008","03","02","18:00","-2.6","","-6.0","","77","","12","","32","","","","99.51","","","","-10","","NA"
"2008-03-02 19:00","2008","03","02","19:00","-2.2","","-5.6","","77","","12","","32","","","","99.44","","","","-10","","NA"
"2008-03-02 20:00","2008","03","02","20:00","-2.0","","-5.3","","78","","12","","37","","","","99.33","","","","-10","","NA"
"2008-03-02 21:00","2008","03","02","21:00","-1.6","","-4.8","","79","","13","","43","","","","99.20","","","","-10","","NA"
"2008-03-02 22:00","2008","03","02","22:00","-1.8","","-4.7","","81","","13","","48","","","","99.07","","","","-10","","NA"
"2008-03-02 23:00","2008","03","02","23:00","-1.6","","-5.0","","78","","14","","43","","","","98.98","","","","-10","","NA"
"2008-03-03 00:00","2008","03","03","00:00","-1.3","","-2.7","","90","","13","","30","","","","98.85","","","","-8","","NA"
"2008-03-03 01:00","2008","03","03","01:00","-1.1","","-2.3","","92","","13","","17","","","","98.71","","","","-6","","NA"
"2008-03-03 02:00","2008","03","03","02:00","-0.9","","-1.8","","94","","13","","17","","","","98.55","","","","-6","","NA"
"2008-03-03 03:00","2008","03","03","03:00","-0.6","","-1.5","","94","","12","","13","","","","98.50","","","","-5","","NA"
"2008-03-03 04:00","2008","03","03","04:00","-0.3","","-1.0","","95","","11","","13","","","","98.29","","","","-4","","NA"
"2008-03-03 05:00","2008","03","03","05:00","-0.1","","-0.6","","96","","10","","11","","","","98.15","","","","-4","","NA"
"2008-03-03 06:00","2008","03","03","06:00","0.1","","-0.4","","96","","9","","22","","","","98.07","","","","","","NA"
"2008-03-03 07:00","2008","03","03","07:00","0.5","","-0.1","","96","","9","","24","","","","97.93","","","","","","NA"
"2008-03-03 08:00","2008","03","03","08:00","1.7","","0.9","","94","","13","","13","","","","97.94","","","","","","NA"
"2008-03-03 09:00","2008","03","03","09:00","2.6","","1.6","","93","","21","","19","","","","97.84","","","","","","NA"
"2008-03-03 10:00","2008","03","03","10:00","2.8","","1.9","","94","","23","","22","","","","97.76","","","","","","NA"
"2008-03-03 11:00","2008","03","03","11:00","4.0","","3.3","","95","","23","","19","","","","97.71","","","","","","NA"
"2008-03-03 12:00","2008","03","03","12:00","2.0","","1.1","","94","","28","","19","","","","97.71","","","","","","NA"
"2008-03-03 13:00","2008","03","03","13:00","0.3","","-0.5","","94","","28","","37","","","","97.82","","","","","","NA"
"2008-03-03 14:00","2008","03","03","14:00","0.0","","-0.7","","95","","28","","28","","","","97.83","","","","-6","","NA"
"2008-03-03 15:00","2008","03","03","15:00","-0.2","","-0.7","","96","","27","","20","","","","97.87","","","","-5","","NA"
"2008-03-03 16:00","2008","03","03","16:00","-0.6","","-1.5","","94","","28","","37","","","","98.04","","","","-8","","NA"
"2008-03-03 17:00","2008","03","03","17:00","-1.4","","-3.1","","88","","27","","35","","","","98.08","","","","-9","","NA"
"2008-03-03 18:00","2008","03","03","18:00","-2.8","","-5.0","","85","","27","","35","","","","98.18","","","","-11","","NA"
"2008-03-03 19:00","2008","03","03","19:00","-3.3","","-6.6","","78","","28","","37","","","","98.33","","","","-12","","NA"
"2008-03-03 20:00","2008","03","03","20:00","-3.8","","-7.1","","78","","28","","32","","","","98.36","","","","-12","","NA"
"2008-03-03 21:00","2008","03","03","21:00","-4.9","","-8.3","","77","","28","","37","","","","98.49","","","","-14","","NA"
"2008-03-03 22:00","2008","03","03","22:00","-5.3","","-8.8","","76","","29","","32","","","","98.66","","","","-14","","NA"
"2008-03-03 23:00","2008","03","03","23:00","-5.8","","-10.6","","69","","29","","24","","","","98.74","","","","-13","","NA"
"2008-03-04 00:00","2008","03","04","00:00","-6.3","","-11.2","","68","","30","","26","","","","98.80","","","","-14","","NA"
"2008-03-04 01:00","2008","03","04","01:00","-6.5","","-12.2","","64","","30","","20","","","","98.91","","","","-13","","NA"
"2008-03-04 02:00","2008","03","04","02:00","-7.2","","-11.7","","70","","29","","20","","","","99.00","","","","-14","","NA"
"2008-03-04 03:00","2008","03","04","03:00","-7.9","","-11.3","","77","","28","","20","","","","99.09","","","","-15","","NA"
"2008-03-04 04:00","2008","03","04","04:00","-8.3","","-11.8","","76","","31","","15","","","","99.24","","","","-15","","NA"
"2008-03-04 05:00","2008","03","04","05:00","-9.1","","-13.0","","73","","2","","9","","","","99.41","","","","-14","","NA"
"2008-03-04 06:00","2008","03","04","06:00","-10.7","","-16.1","","64","","36","","6","","","","99.57","","","","-14","","NA"
"2008-03-04 07:00","2008","03","04","07:00","-11.8","","-16.9","","66","","35","","9","","","","99.68","","","","-17","","NA"
"2008-03-04 08:00","2008","03","04","08:00","-11.8","","-19.0","","55","","36","","11","","","","99.74","","","","-18","","NA"
"2008-03-04 09:00","2008","03","04","09:00","-11.4","","-17.9","","59","","2","","11","","","","99.87","","","","-17","","NA"
"2008-03-04 10:00","2008","03","04","10:00","-11.1","","-22.3","","39","","5","","11","","","","99.89","","","","-17","","NA"
"2008-03-04 11:00","2008","03","04","11:00","-10.9","","-20.6","","45","","9","","15","","","","99.90","","","","-18","","NA"
"2008-03-04 12:00","2008","03","04","12:00","-9.7","","-20.7","","40","","7","","9","","","","99.85","","","","-15","","NA"
"2008-03-04 13:00","2008","03","04","13:00","-9.5","","-21.4","","37","","9","","19","","","","99.78","","","","-17","","NA"
"2008-03-04 14:00","2008","03","04","14:00","-7.7","","-21.4","","32","","8","","13","","","","99.69","","","","-13","","NA"
"2008-03-04 15:00","2008","03","04","15:00","-7.2","","-21.9","","30","","7","","19","","","","99.62","","","","-14","","NA"
"2008-03-04 16:00","2008","03","04","16:00","-6.5","","-22.4","","27","","6","","11","","","","99.62","","","","-11","","NA"
"2008-03-04 17:00","2008","03","04","17:00","-6.0","","-20.3","","31","","5","","9","","","","99.58","","","","-10","","NA"
"2008-03-04 18:00","2008","03","04","18:00","-7.0","","-18.9","","38","","4","","9","","","","99.51","","","","-11","","NA"
"2008-03-04 19:00","2008","03","04","19:00","-7.7","","-18.4","","42","","3","","7","","","","99.47","","","","-11","","NA"
"2008-03-04 20:00","2008","03","04","20:00","-7.8","","-18.4","","42","","6","","13","","","","99.41","","","","-14","","NA"
"2008-03-04 21:00","2008","03","04","21:00","-8.4","","-17.5","","48","","7","","19","","","","99.36","","","","-16","","NA"
"2008-03-04 22:00","2008","03","04","22:00","-9.2","","-18.6","","46","","6","","20","","","","99.23","","","","-17","","NA"
"2008-03-04 23:00","2008","03","04","23:00","-9.7","","-18.5","","49","","6","","20","","","","99.17","","","","-17","","NA"
"2008-03-05 00:00","2008","03","05","00:00","-9.8","","-17.9","","52","","6","","19","","","","99.02","","","","-17","","NA"
"2008-03-05 01:00","2008","03","05","01:00","-10.0","","-17.6","","54","","6","","15","","","","98.94","","","","-17","","NA"
"2008-03-05 02:00","2008","03","05","02:00","-9.8","","-18.0","","51","","6","","19","","","","98.85","","","","-17","","NA"
"2008-03-05 03:00","2008","03","05","03:00","-9.9","","-18.2","","51","","1","","9","","","","98.68","","","","-15","","NA"
"2008-03-05 04:00","2008","03","05","04:00","-10.4","","-18.3","","52","","2","","9","","","","98.61","","","","-15","","NA"
"2008-03-05 05:00","2008","03","05","05:00","-10.5","","-17.9","","55","","1","","11","","","","98.58","","","","-16","","NA"
"2008-03-05 06:00","2008","03","05","06:00","-10.4","","-17.6","","55","","2","","13","","","","98.51","","","","-17","","NA"
"2008-03-05 07:00","2008","03","05","07:00","-10.2","","-17.5","","55","","36","","7","","","","98.53","","","","-14","","NA"
"2008-03-05 08:00","2008","03","05","08:00","-10.0","","-17.9","","52","","1","","6","","","","98.51","","","","-14","","NA"
"2008-03-05 09:00","2008","03","05","09:00","-9.5","","-18.7","","47","","35","","11","","","","98.53","","","","-15","","NA"
"2008-03-05 10:00","2008","03","05","10:00","-8.5","","-19.4","","41","","1","","11","","","","98.52","","","","-14","","NA"
"2008-03-05 11:00","2008","03","05","11:00","-6.9","","-18.7","","38","","33","","15","","","","98.51","","","","-13","","NA"
"2008-03-05 12:00","2008","03","05","12:00","-5.3","","-19.6","","32","","33","","11","","","","98.50","","","","-10","","NA"
"2008-03-05 13:00","2008","03","05","13:00","-3.3","","-20.2","","26","","31","","9","","","","98.51","","","","-7","","NA"
"2008-03-05 14:00","2008","03","05","14:00","-2.5","","-19.0","","27","","29","","13","","","","98.53","","","","-7","","NA"
"2008-03-05 15:00","2008","03","05","15:00","-0.9","","-20.3","","21","","33","","13","","","","98.53","","","","-5","","NA"
"2008-03-05 16:00","2008","03","05","16:00","-0.8","","-17.7","","26","","27","","20","","","","98.58","","","","-6","","NA"
"2008-03-05 17:00","2008","03","05","17:00","-2.1","","-12.7","","44","","27","","19","","","","98.65","","","","-8","","NA"
"2008-03-05 18:00","2008","03","05","18:00","-3.1","","-13.7","","44","","29","","17","","","","98.70","","","","-9","","NA"
"2008-03-05 19:00","2008","03","05","19:00","-3.6","","-14.1","","44","","29","","13","","","","98.80","","","","-8","","NA"
"2008-03-05 20:00","2008","03","05","20:00","-4.1","","-12.8","","51","","29","","11","","","","98.85","","","","-9","","NA"
"2008-03-05 21:00","2008","03","05","21:00","-4.4","","-14.8","","44","","28","","7","","","","98.92","","","","-8","","NA"
"2008-03-05 22:00","2008","03","05","22:00","-4.4","","-13.7","","48","","32","","2","","","","98.94","","","","-5","","NA"
"2008-03-05 23:00","2008","03","05","23:00","-4.5","","-12.5","","54","","26","","9","","","","98.99","","","","-8","","NA"
"2008-03-06 00:00","2008","03","06","00:00","-5.0","","-9.4","","71","","26","","13","","","","99.00","","","","-10","","NA"
"2008-03-06 01:00","2008","03","06","01:00","-5.2","","-8.6","","77","","28","","9","","","","98.98","","","","-9","","NA"
"2008-03-06 02:00","2008","03","06","02:00","-5.6","","-8.1","","83","","26","","6","","","","98.99","","","","-8","","NA"
"2008-03-06 03:00","2008","03","06","03:00","-5.9","","-7.9","","86","","28","","2","","","","98.96","","","","-7","","NA"
"2008-03-06 04:00","2008","03","06","04:00","-5.6","","-7.4","","87","","12","","2","","","","98.94","","","","-7","","NA"
"2008-03-06 05:00","2008","03","06","05:00","-5.5","","-6.9","","90","","6","","6","","","","98.95","","","","-8","","NA"
"2008-03-06 06:00","2008","03","06","06:00","-5.5","","-6.8","","91","","8","","6","","","","98.96","","","","-8","","NA"
"2008-03-06 07:00","2008","03","06","07:00","-4.8","","-5.7","","93","","12","","6","","","","98.95","","","","-8","","NA"
"2008-03-06 08:00","2008","03","06","08:00","-4.5","","-5.4","","93","","22","","9","","","","98.98","","","","-8","","NA"
"2008-03-06 09:00","2008","03","06","09:00","-3.5","","-4.5","","93","","23","","9","","","","98.99","","","","-7","","NA"
"2008-03-06 10:00","2008","03","06","10:00","-2.6","","-3.3","","95","","18","","20","","","","99.01","","","","-9","","NA"
"2008-03-06 11:00","2008","03","06","11:00","-1.2","","-2.6","","90","","23","","20","","","","99.02","","","","-7","","NA"
"2008-03-06 12:00","2008","03","06","12:00","-1.5","","-4.4","","81","","26","","32","","","","99.08","","","","-9","","NA"
"2008-03-06 13:00","2008","03","06","13:00","-2.1","","-6.7","","71","","28","","28","","","","99.13","","","","-9","","NA"
"2008-03-06 14:00","2008","03","06","14:00","-1.1","","-7.8","","60","","28","","24","","","","99.15","","","","-7","","NA"
"2008-03-06 15:00","2008","03","06","15:00","-1.7","","-10.5","","51","","28","","32","","","","99.21","","","","-9","","NA"
"2008-03-06 16:00","2008","03","06","16:00","-1.8","","-10.6","","51","","28","","32","","","","99.25","","","","-9","","NA"
"2008-03-06 17:00","2008","03","06","17:00","-2.6","","-10.5","","55","","28","","28","","","","99.36","","","","-10","","NA"
"2008-03-06 18:00","2008","03","06","18:00","-3.3","","-10.0","","60","","29","","19","","","","99.45","","","","-9","","NA"
"2008-03-06 19:00","2008","03","06","19:00","-3.9","","-10.7","","59","","28","","17","","","","99.54","","","","-10","","NA"
"2008-03-06 20:00","2008","03","06","20:00","-4.5","","-11.0","","60","","29","","15","","","","99.60","","","","-10","","NA"
"2008-03-06 21:00","2008","03","06","21:00","-5.6","","-11.7","","62","","29","","11","","","","99.67","","","","-10","","NA"
"2008-03-06 22:00","2008","03","06","22:00","-5.5","","-13.9","","52","","28","","22","","","","99.71","","","","-13","","NA"
"2008-03-06 23:00","2008","03","06","23:00","-6.3","","-13.1","","59","","28","","17","","","","99.72","","","","-13","","NA"
"2008-03-07 00:00","2008","03","07","00:00","-7.5","","-11.2","","75","","29","","9","","","","99.79","","","","-12","","NA"
"2008-03-07 01:00","2008","03","07","01:00","-8.1","","-10.6","","82","","28","","13","","","","99.86","","","","-14","","NA"
"2008-03-07 02:00","2008","03","07","02:00","-8.2","","-11.1","","80","","29","","9","","","","99.93","","","","-13","","NA"
"2008-03-07 03:00","2008","03","07","03:00","-8.2","","-12.9","","69","","31","","9","","","","99.95","","","","-13","","NA"
"2008-03-07 04:00","2008","03","07","04:00","-8.6","","-14.0","","65","","32","","4","","","","100.00","","","","-11","","NA"
"2008-03-07 05:00","2008","03","07","05:00","-8.9","","-14.1","","66","","31","","6","","","","100.05","","","","-12","","NA"
"2008-03-07 06:00","2008","03","07","06:00","-9.9","","-14.3","","70","","32","","6","","","","100.05","","","","-13","","NA"
"2008-03-07 07:00","2008","03","07","07:00","-9.9","","-14.5","","69","","32","","4","","","","100.12","","","","-12","","NA"
"2008-03-07 08:00","2008","03","07","08:00","-9.6","","-13.7","","72","","22","","2","","","","100.25","","","","-11","","NA"
"2008-03-07 09:00","2008","03","07","09:00","-8.6","","-13.5","","68","","30","","7","","","","100.27","","","","-12","","NA"
"2008-03-07 10:00","2008","03","07","10:00","-7.4","","-14.8","","55","","27","","9","","","","100.28","","","","-12","","NA"
"2008-03-07 11:00","2008","03","07","11:00","-6.9","","-16.5","","46","","28","","11","","","","100.28","","","","-12","","NA"
"2008-03-07 12:00","2008","03","07","12:00","-6.7","","-18.9","","37","","28","","19","","","","100.20","","","","-14","","NA"
"2008-03-07 13:00","2008","03","07","13:00","-7.0","","-20.5","","33","","27","","19","","","","100.13","","","","-14","","NA"
"2008-03-07 14:00","2008","03","07","14:00","-6.9","","-20.3","","34","","27","","17","","","","100.08","","","","-13","","NA"
"2008-03-07 15:00","2008","03","07","15:00","-6.5","","-21.5","","29","","27","","13","","","","100.05","","","","-12","","NA"
"2008-03-07 16:00","2008","03","07","16:00","-6.6","","-17.6","","41","","28","","19","","","","99.99","","","","-13","","NA"
"2008-03-07 17:00","2008","03","07","17:00","-6.5","","-16.0","","47","","28","","19","","","","99.92","","","","-13","","NA"
"2008-03-07 18:00","2008","03","07","18:00","-7.6","","-17.5","","45","","30","","15","","","","99.93","","","","-14","","NA"
"2008-03-07 19:00","2008","03","07","19:00","-8.8","","-15.7","","57","","29","","15","","","","99.95","","","","-15","","NA"
"2008-03-07 20:00","2008","03","07","20:00","-9.3","","-16.1","","58","","31","","13","","","","99.87","","","","-15","","NA"
"2008-03-07 21:00","2008","03","07","21:00","-9.8","","-16.0","","61","","33","","7","","","","99.78","","","","-14","","NA"
"2008-03-07 22:00","2008","03","07","22:00","-8.8","","-18.8","","44","","2","","13","","","","99.74","","","","-15","","NA"
"2008-03-07 23:00","2008","03","07","23:00","-9.4","","-19.1","","45","","3","","15","","","","99.74","","","","-16","","NA"
"2008-03-08 00:00","2008","03","08","00:00","-10.0","","-18.8","","49","","4","","13","","","","99.76","","","","-16","","NA"
"2008-03-08 01:00","2008","03","08","01:00","-10.9","","-18.4","","54","","4","","11","","","","99.75","","","","-17","","NA"
"2008-03-08 02:00","2008","03","08","02:00","-11.9","","-18.3","","59","","4","","11","","","","99.73","","","","-18","","NA"
"2008-03-08 03:00","2008","03","08","03:00","-12.7","","-19.2","","58","","4","","13","","","","99.67","","","","-20","","NA"
"2008-03-08 04:00","2008","03","08","04:00","-13.1","","-19.8","","57","","5","","11","","","","99.62","","","","-19","","NA"
"2008-03-08 05:00","2008","03","08","05:00","-13.4","","-20.2","","57","","4","","15","","","","99.56","","","","-21","","NA"
"2008-03-08 06:00","2008","03","08","06:00","-13.9","","-21.4","","53","","1","","13","","","","99.53","","","","-21","","NA"
"2008-03-08 07:00","2008","03","08","07:00","-14.9","","-19.3","","69","","3","","15","","","","99.51","","","","-23","","NA"
"2008-03-08 08:00","2008","03","08","08:00","-13.9","","-18.8","","66","","3","","17","","","","99.47","","","","-22","","NA"
"2008-03-08 09:00","2008","03","08","09:00","-11.9","","-18.2","","59","","4","","15","","","","99.38","","","","-19","","NA"
"2008-03-08 10:00","2008","03","08","10:00","-11.2","","-17.7","","59","","5","","15","","","","99.40","","","","-18","","NA"
"2008-03-08 11:00","2008","03","08","11:00","-10.7","","-18.6","","52","","5","","19","","","","99.35","","","","-19","","NA"
"2008-03-08 12:00","2008","03","08","12:00","-9.5","","-19.0","","46","","4","","19","","","","99.20","","","","-17","","NA"
"2008-03-08 13:00","2008","03","08","13:00","-9.3","","-20.1","","41","","3","","22","","","","99.04","","","","-17","","NA"
"2008-03-08 14:00","2008","03","08","14:00","-8.8","","-20.9","","37","","2","","24","","","","98.85","","","","-17","","NA"
"2008-03-08 15:00","2008","03","08","15:00","-8.3","","-22.2","","32","","2","","24","","","","98.81","","","","-16","","NA"
"2008-03-08 16:00","2008","03","08","16:00","-8.0","","-23.6","","27","","2","","20","","","","98.74","","","","-15","","NA"
"2008-03-08 17:00","2008","03","08","17:00","-7.7","","-23.2","","28","","2","","22","","","","98.69","","","","-15","","NA"
"2008-03-08 18:00","2008","03","08","18:00","-7.9","","-23.2","","28","","2","","19","","","","98.73","","","","-15","","NA"
"2008-03-08 19:00","2008","03","08","19:00","-8.3","","-22.5","","31","","1","","19","","","","98.76","","","","-16","","NA"
"2008-03-08 20:00","2008","03","08","20:00","-9.1","","-21.7","","35","","2","","20","","","","98.82","","","","-17","","NA"
"2008-03-08 21:00","2008","03","08","21:00","-10.1","","-20.3","","43","","1","","20","","","","98.87","","","","-18","","NA"
"2008-03-08 22:00","2008","03","08","22:00","-11.0","","-20.5","","45","","36","","22","","","","98.81","","","","-20","","NA"
"2008-03-08 23:00","2008","03","08","23:00","-11.7","","-20.0","","50","","35","","13","","","","98.80","","","","-18","","NA"
"2008-03-09 00:00","2008","03","09","00:00","-12.6","","-20.6","","51","","1","","15","","","","98.87","","","","-20","","NA"
"2008-03-09 01:00","2008","03","09","01:00","-13.2","","-21.0","","52","","36","","17","","","","98.95","","","","-21","","NA"
"2008-03-09 02:00","2008","03","09","02:00","-13.8","","-21.4","","53","","35","","17","","","","99.04","","","","-22","","NA"
"2008-03-09 03:00","2008","03","09","03:00","-14.4","","-22.0","","52","","33","","13","","","","99.13","","","","-22","","NA"
"2008-03-09 04:00","2008","03","09","04:00","-14.9","","-22.6","","52","","33","","11","","","","99.24","","","","-21","","NA"
"2008-03-09 05:00","2008","03","09","05:00","-15.0","","-23.3","","49","","32","","13","","","","99.33","","","","-22","","NA"
"2008-03-09 06:00","2008","03","09","06:00","-15.3","","-24.2","","46","","33","","11","","","","99.44","","","","-22","","NA"
"2008-03-09 07:00","2008","03","09","07:00","-15.6","","-24.9","","45","","35","","9","","","","99.54","","","","-22","","NA"
"2008-03-09 08:00","2008","03","09","08:00","-15.2","","-25.5","","41","","35","","13","","","","99.63","","","","-23","","NA"
"2008-03-09 09:00","2008","03","09","09:00","-14.1","","-26.0","","36","","30","","9","","","","99.75","","","","-20","","NA"
"2008-03-09 10:00","2008","03","09","10:00","-11.8","","-28.5","","24","","1","","7","","","","99.84","","","","-16","","NA"
"2008-03-09 11:00","2008","03","09","11:00","-10.5","","-28.3","","22","","31","","11","","","","99.92","","","","-16","","NA"
"2008-03-09 12:00","2008","03","09","12:00","-9.0","","-28.9","","18","","32","","15","","","","99.97","","","","-16","","NA"
"2008-03-09 13:00","2008","03","09","13:00","-7.9","","-30.1","","15","","31","","17","","","","99.99","","","","-15","","NA"
"2008-03-09 14:00","2008","03","09","14:00","-7.6","","-23.6","","26","","28","","19","","","","99.98","","","","-15","","NA"
"2008-03-09 15:00","2008","03","09","15:00","-6.9","","-22.4","","28","","28","","20","","","","100.01","","","","-14","","NA"
"2008-03-09 16:00","2008","03","09","16:00","-7.4","","-20.0","","36","","27","","26","","","","100.06","","","","-16","","NA"
"2008-03-09 17:00","2008","03","09","17:00","-7.1","","-21.8","","30","","29","","19","","","","100.11","","","","-14","","NA"
"2008-03-09 18:00","2008","03","09","18:00","-7.9","","-22.9","","29","","29","","20","","","","100.17","","","","-15","","NA"
"2008-03-09 19:00","2008","03","09","19:00","-8.6","","-22.7","","31","","31","","13","","","","100.22","","","","-15","","NA"
"2008-03-09 20:00","2008","03","09","20:00","-9.7","","-22.4","","35","","32","","13","","","","100.31","","","","-16","","NA"
"2008-03-09 21:00","2008","03","09","21:00","-9.8","","-24.6","","29","","31","","13","","","","100.36","","","","-16","","NA"
"2008-03-09 22:00","2008","03","09","22:00","-9.5","","-25.0","","27","","35","","11","","","","100.37","","","","-15","","NA"
"2008-03-09 23:00","2008","03","09","23:00","-10.8","","-24.1","","33","","31","","2","","","","100.38","","","","-12","","NA"
"2008-03-10 00:00","2008","03","10","00:00","-12.0","","-20.7","","48","","28","","7","","","","100.41","","","","-16","","NA"
"2008-03-10 01:00","2008","03","10","01:00","-12.9","","-20.3","","54","","33","","6","","","","100.42","","","","-17","","NA"
"2008-03-10 02:00","2008","03","10","02:00","-12.3","","-19.4","","55","","","","0","","","","100.45","","","","","","NA"
"2008-03-10 03:00","2008","03","10","03:00","-13.1","","-20.7","","53","","36","","4","","","","100.41","","","","-16","","NA"
"2008-03-10 04:00","2008","03","10","04:00","-12.5","","-22.8","","42","","8","","4","","","","100.37","","","","-15","","NA"
"2008-03-10 05:00","2008","03","10","05:00","-13.7","","-18.8","","65","","","","0","","","","100.39","","","","","","NA"
"2008-03-10 06:00","2008","03","10","06:00","-13.8","","-22.3","","49","","8","","6","","","","100.39","","","","-18","","NA"
"2008-03-10 07:00","2008","03","10","07:00","-14.3","","-21.3","","55","","6","","2","","","","100.40","","","","-16","","NA"
"2008-03-10 08:00","2008","03","10","08:00","-11.1","","-22.6","","38","","","","0","","","","100.39","","","","","","NA"
"2008-03-10 09:00","2008","03","10","09:00","-10.9","","-23.5","","35","","22","","2","","","","100.39","","","","-12","","NA"
"2008-03-10 10:00","2008","03","10","10:00","-10.6","","-18.2","","54","","19","","7","","","","100.35","","","","-15","","NA"
"2008-03-10 11:00","2008","03","10","11:00","-9.0","","-19.1","","44","","30","","19","","","","100.36","","","","-16","","NA"
"2008-03-10 12:00","2008","03","10","12:00","-7.0","","-21.3","","31","","28","","20","","","","100.31","","","","-14","","NA"
"2008-03-10 13:00","2008","03","10","13:00","-6.1","","-17.9","","39","","27","","19","","","","100.25","","","","-13","","NA"
"2008-03-10 14:00","2008","03","10","14:00","-5.2","","-18.5","","34","","26","","17","","","","100.16","","","","-11","","NA"
"2008-03-10 15:00","2008","03","10","15:00","-4.6","","-16.0","","41","","29","","22","","","","100.10","","","","-11","","NA"
"2008-03-10 16:00","2008","03","10","16:00","-3.7","","-14.5","","43","","28","","15","","","","100.01","","","","-9","","NA"
"2008-03-10 17:00","2008","03","10","17:00","-3.4","","-14.0","","44","","28","","20","","","","99.97","","","","-10","","NA"
"2008-03-10 18:00","2008","03","10","18:00","-3.7","","-14.9","","41","","27","","17","","","","99.93","","","","-9","","NA"
"2008-03-10 19:00","2008","03","10","19:00","-4.9","","-13.3","","52","","27","","7","","","","99.89","","","","-8","","NA"
"2008-03-10 20:00","2008","03","10","20:00","-5.6","","-11.7","","62","","28","","9","","","","99.88","","","","-10","","NA"
"2008-03-10 21:00","2008","03","10","21:00","-5.8","","-11.1","","66","","26","","9","","","","99.88","","","","-10","","NA"
"2008-03-10 22:00","2008","03","10","22:00","-5.5","","-10.5","","68","","26","","13","","","","99.83","","","","-11","","NA"
"2008-03-10 23:00","2008","03","10","23:00","-6.4","","-11.1","","69","","24","","6","","","","99.77","","","","-9","","NA"
"2008-03-11 00:00","2008","03","11","00:00","-6.4","","-10.9","","70","","25","","6","","","","99.73","","","","-9","","NA"
"2008-03-11 01:00","2008","03","11","01:00","-6.7","","-10.3","","76","","29","","7","","","","99.70","","","","-10","","NA"
"2008-03-11 02:00","2008","03","11","02:00","-6.9","","-10.6","","75","","28","","6","","","","99.68","","","","-10","","NA"
"2008-03-11 03:00","2008","03","11","03:00","-7.0","","-10.6","","75","","24","","6","","","","99.58","","","","-10","","NA"
"2008-03-11 04:00","2008","03","11","04:00","-8.0","","-10.7","","81","","","","0","","","","99.47","","","","","","NA"
"2008-03-11 05:00","2008","03","11","05:00","-6.6","","-10.6","","73","","25","","7","","","","99.41","","","","-10","","NA"
"2008-03-11 06:00","2008","03","11","06:00","-6.6","","-10.1","","76","","27","","4","","","","99.34","","","","-9","","NA"
"2008-03-11 07:00","2008","03","11","07:00","-6.5","","-9.0","","82","","23","","4","","","","99.24","","","","-8","","NA"
"2008-03-11 08:00","2008","03","11","08:00","-4.8","","-7.3","","83","","23","","20","","","","99.15","","","","-11","","NA"
"2008-03-11 09:00","2008","03","11","09:00","-3.8","","-6.1","","84","","22","","20","","","","99.07","","","","-10","","NA"
"2008-03-11 10:00","2008","03","11","10:00","-2.6","","-5.1","","83","","21","","20","","","","98.94","","","","-9","","NA"
"2008-03-11 11:00","2008","03","11","11:00","-1.4","","-5.1","","76","","22","","30","","","","98.84","","","","-8","","NA"
"2008-03-11 12:00","2008","03","11","12:00","-1.3","","-5.6","","73","","21","","37","","","","98.67","","","","-9","","NA"
"2008-03-11 13:00","2008","03","11","13:00","-1.1","","-4.8","","76","","23","","35","","","","98.56","","","","-8","","NA"
"2008-03-11 14:00","2008","03","11","14:00","-0.9","","-4.5","","77","","22","","28","","","","98.39","","","","-7","","NA"
"2008-03-11 15:00","2008","03","11","15:00","-0.5","","-4.2","","76","","22","","33","","","","98.30","","","","-7","","NA"
"2008-03-11 16:00","2008","03","11","16:00","-1.7","","-2.5","","94","","23","","43","","","","98.21","","","","-10","","NA"
"2008-03-11 17:00","2008","03","11","17:00","-1.4","","-2.0","","96","","22","","32","","","","98.16","","","","-9","","NA"
"2008-03-11 18:00","2008","03","11","18:00","-0.8","","-1.9","","92","","24","","24","","","","98.13","","","","-7","","NA"
"2008-03-11 19:00","2008","03","11","19:00","-0.7","","-1.7","","93","","23","","17","","","","98.07","","","","-6","","NA"
"2008-03-11 20:00","2008","03","11","20:00","-0.4","","-1.8","","90","","26","","17","","","","98.06","","","","-5","","NA"
"2008-03-11 21:00","2008","03","11","21:00","-1.1","","-2.1","","93","","28","","19","","","","98.05","","","","-6","","NA"
"2008-03-11 22:00","2008","03","11","22:00","-1.4","","-2.4","","93","","30","","11","","","","98.05","","","","-5","","NA"
"2008-03-11 23:00","2008","03","11","23:00","-1.7","","-2.6","","94","","31","","11","","","","98.06","","","","-6","","NA"
"2008-03-12 00:00","2008","03","12","00:00","-1.8","","-3.4","","89","","33","","11","","","","98.09","","","","-6","","NA"
"2008-03-12 01:00","2008","03","12","01:00","-2.2","","-4.6","","84","","35","","9","","","","98.17","","","","-6","","NA"
"2008-03-12 02:00","2008","03","12","02:00","-2.3","","-5.7","","77","","36","","17","","","","98.23","","","","-8","","NA"
"2008-03-12 03:00","2008","03","12","03:00","-5.1","","-9.0","","74","","36","","28","","","","98.35","","","","-13","","NA"
"2008-03-12 04:00","2008","03","12","04:00","-6.5","","-10.7","","72","","35","","26","","","","98.45","","","","-14","","NA"
"2008-03-12 05:00","2008","03","12","05:00","-8.3","","-12.5","","72","","36","","22","","","","98.61","","","","-16","","NA"
"2008-03-12 06:00","2008","03","12","06:00","-10.0","","-14.2","","71","","36","","26","","","","98.70","","","","-19","","NA"
"2008-03-12 07:00","2008","03","12","07:00","-11.8","","-17.3","","64","","36","","22","","","","98.90","","","","-21","","NA"
"2008-03-12 08:00","2008","03","12","08:00","-11.6","","-19.1","","54","","36","","17","","","","99.00","","","","-19","","NA"
"2008-03-12 09:00","2008","03","12","09:00","-10.1","","-20.3","","43","","36","","9","","","","99.13","","","","-15","","NA"
"2008-03-12 10:00","2008","03","12","10:00","-8.4","","-21.8","","33","","3","","7","","","","99.17","","","","-12","","NA"
"2008-03-12 11:00","2008","03","12","11:00","-6.9","","-21.8","","29","","35","","7","","","","99.20","","","","-10","","NA"
"2008-03-12 12:00","2008","03","12","12:00","-6.4","","-24.3","","23","","1","","11","","","","99.24","","","","-11","","NA"
"2008-03-12 13:00","2008","03","12","13:00","-4.9","","-20.6","","28","","29","","6","","","","99.24","","","","-8","","NA"
"2008-03-12 14:00","2008","03","12","14:00","-6.1","","-20.4","","31","","19","","13","","","","99.22","","","","-11","","NA"
"2008-03-12 15:00","2008","03","12","15:00","-5.8","","-17.0","","41","","20","","19","","","","99.28","","","","-12","","NA"
"2008-03-12 16:00","2008","03","12","16:00","-5.0","","-17.2","","38","","21","","19","","","","99.26","","","","-11","","NA"
"2008-03-12 17:00","2008","03","12","17:00","-4.6","","-19.1","","31","","23","","17","","","","99.26","","","","-10","","NA"
"2008-03-12 18:00","2008","03","12","18:00","-4.7","","-16.5","","39","","24","","9","","","","99.27","","","","-9","","NA"
"2008-03-12 19:00","2008","03","12","19:00","-5.0","","-17.8","","36","","24","","2","","","","99.30","","","","-6","","NA"
"2008-03-12 20:00","2008","03","12","20:00","-5.3","","-11.9","","60","","21","","4","","","","99.28","","","","-7","","NA"
"2008-03-12 21:00","2008","03","12","21:00","-5.8","","-13.1","","56","","28","","4","","","","99.32","","","","-8","","NA"
"2008-03-12 22:00","2008","03","12","22:00","-6.3","","-12.5","","61","","9","","2","","","","99.31","","","","-7","","NA"
"2008-03-12 23:00","2008","03","12","23:00","-6.6","","-11.8","","66","","8","","6","","","","99.25","","","","-10","","NA"
"2008-03-13 00:00","2008","03","13","00:00","-6.8","","-15.2","","51","","6","","7","","","","99.27","","","","-10","","NA"
"2008-03-13 01:00","2008","03","13","01:00","-8.0","","-16.7","","50","","7","","19","","","","99.19","","","","-15","","NA"
"2008-03-13 02:00","2008","03","13","02:00","-7.7","","-16.4","","50","","9","","22","","","","99.16","","","","-15","","NA"
"2008-03-13 03:00","2008","03","13","03:00","-8.3","","-16.6","","51","","9","","22","","","","99.12","","","","-16","","NA"
"2008-03-13 04:00","2008","03","13","04:00","-8.8","","-15.1","","60","","8","","24","","","","99.01","","","","-17","","NA"
"2008-03-13 05:00","2008","03","13","05:00","-9.0","","-15.2","","61","","8","","24","","","","98.93","","","","-17","","NA"
"2008-03-13 06:00","2008","03","13","06:00","-9.0","","-15.0","","62","","8","","28","","","","98.77","","","","-18","","NA"
"2008-03-13 07:00","2008","03","13","07:00","-9.0","","-16.0","","57","","8","","30","","","","98.68","","","","-18","","NA"
"2008-03-13 08:00","2008","03","13","08:00","-8.5","","-14.9","","60","","9","","33","","","","98.60","","","","-18","","NA"
"2008-03-13 09:00","2008","03","13","09:00","-8.1","","-13.7","","64","","9","","30","","","","98.59","","","","-17","","NA"
"2008-03-13 10:00","2008","03","13","10:00","-7.4","","-13.2","","63","","9","","32","","","","98.54","","","","-16","","NA"
"2008-03-13 11:00","2008","03","13","11:00","-7.1","","-8.7","","88","","10","","44","","","","98.37","","","","-17","","NA"
"2008-03-13 12:00","2008","03","13","12:00","-6.9","","-8.6","","88","","9","","41","","","","98.26","","","","-17","","NA"
"2008-03-13 13:00","2008","03","13","13:00","-6.3","","-8.1","","87","","9","","33","","","","98.18","","","","-15","","NA"
"2008-03-13 14:00","2008","03","13","14:00","-5.9","","-8.5","","82","","10","","26","","","","98.17","","","","-14","","NA"
"2008-03-13 15:00","2008","03","13","15:00","-5.8","","-8.0","","84","","10","","30","","","","98.16","","","","-14","","NA"
"2008-03-13 16:00","2008","03","13","16:00","-5.6","","-7.3","","88","","11","","24","","","","98.20","","","","-13","","NA"
"2008-03-13 17:00","2008","03","13","17:00","-5.5","","-7.3","","87","","10","","22","","","","98.21","","","","-13","","NA"
"2008-03-13 18:00","2008","03","13","18:00","-5.4","","-7.4","","86","","10","","17","","","","98.27","","","","-11","","NA"
"2008-03-13 19:00","2008","03","13","19:00","-5.4","","-7.2","","87","","9","","15","","","","98.32","","","","-11","","NA"
"2008-03-13 20:00","2008","03","13","20:00","-5.3","","-7.2","","86","","8","","11","","","","98.36","","","","-10","","NA"
"2008-03-13 21:00","2008","03","13","21:00","-5.3","","-7.0","","88","","8","","11","","","","98.38","","","","-10","","NA"
"2008-03-13 22:00","2008","03","13","22:00","-5.3","","-7.1","","87","","8","","9","","","","98.40","","","","-9","","NA"
"2008-03-13 23:00","2008","03","13","23:00","-5.6","","-7.4","","87","","7","","7","","","","98.41","","","","-9","","NA"
"2008-03-14 00:00","2008","03","14","00:00","-5.7","","-7.4","","88","","7","","9","","","","98.37","","","","-10","","NA"
"2008-03-14 01:00","2008","03","14","01:00","-5.8","","-7.1","","91","","7","","15","","","","98.34","","","","-12","","NA"
"2008-03-14 02:00","2008","03","14","02:00","-5.7","","-6.9","","91","","8","","11","","","","98.33","","","","-10","","NA"
"2008-03-14 03:00","2008","03","14","03:00","-5.7","","-6.9","","91","","7","","11","","","","98.24","","","","-10","","NA"
"2008-03-14 04:00","2008","03","14","04:00","-5.5","","-6.7","","91","","7","","9","","","","98.24","","","","-10","","NA"
"2008-03-14 05:00","2008","03","14","05:00","-5.1","","-5.8","","95","","8","","13","","","","98.23","","","","-10","","NA"
"2008-03-14 06:00","2008","03","14","06:00","-4.7","","-5.4","","95","","8","","11","","","","98.20","","","","-9","","NA"
"2008-03-14 07:00","2008","03","14","07:00","-4.2","","-4.8","","96","","7","","11","","","","98.19","","","","-9","","NA"
"2008-03-14 08:00","2008","03","14","08:00","-3.1","","-3.6","","96","","7","","15","","","","98.17","","","","-8","","NA"
"2008-03-14 09:00","2008","03","14","09:00","-2.2","","-2.6","","97","","8","","17","","","","98.19","","","","-8","","NA"
"2008-03-14 10:00","2008","03","14","10:00","-1.2","","-1.7","","96","","10","","20","","","","98.17","","","","-7","","NA"
"2008-03-14 11:00","2008","03","14","11:00","-0.4","","-1.2","","94","","10","","19","","","","98.15","","","","-6","","NA"
"2008-03-14 12:00","2008","03","14","12:00","0.7","","-0.9","","89","","8","","13","","","","98.11","","","","","","NA"
"2008-03-14 13:00","2008","03","14","13:00","0.6","","-0.9","","90","","9","","17","","","","98.04","","","","","","NA"
"2008-03-14 14:00","2008","03","14","14:00","0.5","","-0.5","","93","","9","","11","","","","98.02","","","","","","NA"
"2008-03-14 15:00","2008","03","14","15:00","0.3","","-0.6","","94","","9","","19","","","","97.95","","","","","","NA"
"2008-03-14 16:00","2008","03","14","16:00","0.4","","-0.3","","95","","10","","15","","","","97.93","","","","","","NA"
"2008-03-14 17:00","2008","03","14","17:00","0.4","","-0.2","","96","","11","","11","","","","97.95","","","","","","NA"
"2008-03-14 18:00","2008","03","14","18:00","0.5","","-0.3","","94","","8","","9","","","","97.96","","","","","","NA"
"2008-03-14 19:00","2008","03","14","19:00","0.5","","-0.2","","95","","6","","7","","","","98.02","","","","","","NA"
"2008-03-14 20:00","2008","03","14","20:00","0.1","","-0.4","","96","","7","","6","","","","98.05","","","","","","NA"
"2008-03-14 21:00","2008","03","14","21:00","0.0","","-0.4","","97","","8","","2","","","","98.07","","","","-1","","NA"
"2008-03-14 22:00","2008","03","14","22:00","-0.2","","-0.5","","98","","17","","2","","","","98.11","","","","-1","","NA"
"2008-03-14 23:00","2008","03","14","23:00","-0.1","","-0.4","","98","","30","","11","","","","98.11","","","","-4","","NA"
"2008-03-15 00:00","2008","03","15","00:00","-0.6","","-0.9","","98","","29","","6","","","","98.15","","","","-3","","NA"
"2008-03-15 01:00","2008","03","15","01:00","-1.0","","-1.5","","96","","29","","15","","","","98.15","","","","-6","","NA"
"2008-03-15 02:00","2008","03","15","02:00","-1.3","","-2.0","","95","","29","","15","","","","98.19","","","","-6","","NA"
"2008-03-15 03:00","2008","03","15","03:00","-1.7","","-2.4","","95","","29","","13","","","","98.23","","","","-6","","NA"
"2008-03-15 04:00","2008","03","15","04:00","-1.5","","-2.5","","93","","29","","17","","","","98.25","","","","-7","","NA"
"2008-03-15 05:00","2008","03","15","05:00","-1.6","","-2.6","","93","","28","","9","","","","98.30","","","","-5","","NA"
"2008-03-15 06:00","2008","03","15","06:00","-1.5","","-2.5","","93","","28","","9","","","","98.34","","","","-5","","NA"
"2008-03-15 07:00","2008","03","15","07:00","-1.4","","-3.2","","88","","29","","9","","","","98.42","","","","-5","","NA"
"2008-03-15 08:00","2008","03","15","08:00","-1.5","","-3.0","","89","","29","","17","","","","98.47","","","","-7","","NA"
"2008-03-15 09:00","2008","03","15","09:00","-1.1","","-4.5","","78","","29","","20","","","","98.51","","","","-7","","NA"
"2008-03-15 10:00","2008","03","15","10:00","-0.4","","-5.3","","69","","30","","13","","","","98.57","","","","-5","","NA"
"2008-03-15 11:00","2008","03","15","11:00","-0.8","","-5.7","","69","","27","","20","","","","98.65","","","","-6","","NA"
"2008-03-15 12:00","2008","03","15","12:00","1.1","","-5.2","","63","","29","","19","","","","98.67","","","","","","NA"
"2008-03-15 13:00","2008","03","15","13:00","2.1","","-5.1","","59","","30","","11","","","","98.71","","","","","","NA"
"2008-03-15 14:00","2008","03","15","14:00","2.0","","-5.3","","58","","30","","15","","","","98.68","","","","","","NA"
"2008-03-15 15:00","2008","03","15","15:00","2.0","","-5.1","","59","","33","","13","","","","98.68","","","","","","NA"
"2008-03-15 16:00","2008","03","15","16:00","2.0","","-5.0","","60","","33","","11","","","","98.69","","","","","","NA"
"2008-03-15 17:00","2008","03","15","17:00","2.0","","-6.1","","55","","33","","13","","","","98.72","","","","","","NA"
"2008-03-15 18:00","2008","03","15","18:00","1.6","","-7.5","","51","","34","","9","","","","98.83","","","","","","NA"
"2008-03-15 19:00","2008","03","15","19:00","1.0","","-6.9","","56","","31","","9","","","","98.96","","","","","","NA"
"2008-03-15 20:00","2008","03","15","20:00","0.7","","-7.2","","55","","35","","11","","","","99.06","","","","","","NA"
"2008-03-15 21:00","2008","03","15","21:00","0.1","","-8.6","","52","","1","","13","","","","99.15","","","","","","NA"
"2008-03-15 22:00","2008","03","15","22:00","-0.5","","-9.3","","51","","2","","13","","","","99.22","","","","-5","","NA"
"2008-03-15 23:00","2008","03","15","23:00","-1.2","","-10.2","","50","","2","","13","","","","99.26","","","","-5","","NA"
"2008-03-16 00:00","2008","03","16","00:00","-1.5","","-10.4","","51","","2","","15","","","","99.33","","","","-6","","NA"
"2008-03-16 01:00","2008","03","16","01:00","-3.3","","-10.4","","58","","1","","17","","","","99.43","","","","-9","","NA"
"2008-03-16 02:00","2008","03","16","02:00","-4.8","","-10.9","","62","","1","","17","","","","99.56","","","","-11","","NA"
"2008-03-16 03:00","2008","03","16","03:00","-6.2","","-11.9","","64","","1","","15","","","","99.66","","","","-12","","NA"
"2008-03-16 04:00","2008","03","16","04:00","-7.4","","-13.0","","64","","1","","11","","","","99.73","","","","-12","","NA"
"2008-03-16 05:00","2008","03","16","05:00","-8.1","","-13.6","","65","","1","","11","","","","99.86","","","","-13","","NA"
"2008-03-16 06:00","2008","03","16","06:00","-8.8","","-13.7","","68","","3","","6","","","","99.94","","","","-12","","NA"
"2008-03-16 07:00","2008","03","16","07:00","-8.4","","-13.3","","68","","5","","4","","","","100.03","","","","-11","","NA"
"2008-03-16 08:00","2008","03","16","08:00","-7.8","","-14.2","","60","","5","","15","","","","100.15","","","","-14","","NA"
"2008-03-16 09:00","2008","03","16","09:00","-7.2","","-14.6","","55","","2","","17","","","","100.24","","","","-14","","NA"
"2008-03-16 10:00","2008","03","16","10:00","-5.7","","-15.4","","46","","2","","9","","","","100.34","","","","-10","","NA"
"2008-03-16 11:00","2008","03","16","11:00","-5.4","","-15.8","","44","","4","","13","","","","100.43","","","","-11","","NA"
"2008-03-16 12:00","2008","03","16","12:00","-4.0","","-15.4","","41","","3","","13","","","","100.48","","","","-9","","NA"
"2008-03-16 13:00","2008","03","16","13:00","-2.8","","-15.0","","38","","1","","15","","","","100.51","","","","-8","","NA"
"2008-03-16 14:00","2008","03","16","14:00","-2.3","","-15.8","","35","","3","","11","","","","100.55","","","","-6","","NA"
"2008-03-16 15:00","2008","03","16","15:00","-1.6","","-15.5","","34","","1","","17","","","","100.61","","","","-7","","NA"
"2008-03-16 16:00","2008","03","16","16:00","-0.8","","-15.7","","31","","36","","15","","","","100.66","","","","-5","","NA"
"2008-03-16 17:00","2008","03","16","17:00","0.0","","-16.3","","28","","33","","9","","","","100.72","","","","-3","","NA"
"2008-03-16 18:00","2008","03","16","18:00","-0.6","","-16.6","","29","","36","","9","","","","100.78","","","","-4","","NA"
"2008-03-16 19:00","2008","03","16","19:00","-2.0","","-17.2","","30","","2","","6","","","","100.86","","","","-4","","NA"
"2008-03-16 20:00","2008","03","16","20:00","-2.5","","-17.6","","30","","1","","6","","","","100.93","","","","-5","","NA"
"2008-03-16 21:00","2008","03","16","21:00","-3.0","","-17.7","","31","","1","","6","","","","101.02","","","","-5","","NA"
"2008-03-16 22:00","2008","03","16","22:00","-3.8","","-17.8","","33","","36","","7","","","","101.10","","","","-7","","NA"
"2008-03-16 23:00","2008","03","16","23:00","-4.4","","-17.5","","35","","4","","9","","","","101.15","","","","-8","","NA"
"2008-03-17 00:00","2008","03","17","00:00","-5.6","","-16.7","","41","","6","","6","","","","101.20","","","","-8","","NA"
"2008-03-17 01:00","2008","03","17","01:00","-6.0","","-16.8","","42","","6","","9","","","","101.25","","","","-10","","NA"
"2008-03-17 02:00","2008","03","17","02:00","-6.4","","-17.0","","43","","6","","11","","","","101.32","","","","-11","","NA"
"2008-03-17 03:00","2008","03","17","03:00","-6.6","","-17.3","","42","","7","","13","","","","101.33","","","","-12","","NA"
"2008-03-17 04:00","2008","03","17","04:00","-7.0","","-17.5","","43","","7","","11","","","","101.35","","","","-12","","NA"
"2008-03-17 05:00","2008","03","17","05:00","-7.7","","-17.5","","45","","7","","7","","","","101.40","","","","-11","","NA"
"2008-03-17 06:00","2008","03","17","06:00","-8.2","","-17.7","","46","","6","","9","","","","101.50","","","","-13","","NA"
"2008-03-17 07:00","2008","03","17","07:00","-8.0","","-17.3","","47","","6","","13","","","","101.54","","","","-14","","NA"
"2008-03-17 08:00","2008","03","17","08:00","-7.6","","-16.7","","48","","7","","19","","","","101.50","","","","-15","","NA"
"2008-03-17 09:00","2008","03","17","09:00","-7.2","","-13.7","","60","","8","","17","","","","101.43","","","","-14","","NA"
"2008-03-17 10:00","2008","03","17","10:00","-7.0","","-11.8","","69","","10","","24","","","","101.42","","","","-15","","NA"
"2008-03-17 11:00","2008","03","17","11:00","-5.7","","-9.9","","72","","9","","15","","","","101.44","","","","-11","","NA"
"2008-03-17 12:00","2008","03","17","12:00","-4.1","","-12.3","","53","","14","","19","","","","101.31","","","","-10","","NA"
"2008-03-17 13:00","2008","03","17","13:00","-3.7","","-11.1","","56","","14","","15","","","","101.25","","","","-9","","NA"
"2008-03-17 14:00","2008","03","17","14:00","-3.6","","-11.2","","56","","14","","13","","","","101.15","","","","-8","","NA"
"2008-03-17 15:00","2008","03","17","15:00","-3.2","","-10.3","","58","","15","","13","","","","101.14","","","","-8","","NA"
"2008-03-17 16:00","2008","03","17","16:00","-3.1","","-10.3","","57","","14","","13","","","","101.12","","","","-8","","NA"
"2008-03-17 17:00","2008","03","17","17:00","-3.1","","-10.4","","57","","12","","15","","","","101.01","","","","-8","","NA"
"2008-03-17 18:00","2008","03","17","18:00","-3.1","","-8.8","","65","","12","","13","","","","100.94","","","","-8","","NA"
"2008-03-17 19:00","2008","03","17","19:00","-3.1","","-8.1","","68","","13","","13","","","","100.83","","","","-8","","NA"
"2008-03-17 20:00","2008","03","17","20:00","-3.2","","-7.4","","73","","14","","13","","","","100.76","","","","-8","","NA"
"2008-03-17 21:00","2008","03","17","21:00","-2.5","","-6.4","","75","","13","","19","","","","100.64","","","","-8","","NA"
"2008-03-17 22:00","2008","03","17","22:00","-1.7","","-7.6","","64","","14","","20","","","","100.63","","","","-7","","NA"
"2008-03-17 23:00","2008","03","17","23:00","-1.6","","-7.2","","66","","15","","26","","","","100.57","","","","-8","","NA"
"2008-03-18 00:00","2008","03","18","00:00","-1.7","","-7.3","","66","","14","","28","","","","100.45","","","","-8","","NA"
"2008-03-18 01:00","2008","03","18","01:00","-2.0","","-7.9","","64","","13","","33","","","","100.36","","","","-9","","NA"
"2008-03-18 02:00","2008","03","18","02:00","-2.1","","-7.5","","66","","13","","32","","","","100.32","","","","-9","","NA"
"2008-03-18 03:00","2008","03","18","03:00","-2.4","","-7.8","","66","","12","","19","","","","100.24","","","","-8","","NA"
"2008-03-18 04:00","2008","03","18","04:00","-2.2","","-7.4","","67","","13","","24","","","","100.17","","","","-9","","NA"
"2008-03-18 05:00","2008","03","18","05:00","-2.2","","-7.0","","70","","13","","22","","","","100.11","","","","-8","","NA"
"2008-03-18 06:00","2008","03","18","06:00","-2.2","","-7.5","","67","","12","","26","","","","100.02","","","","-9","","NA"
"2008-03-18 07:00","2008","03","18","07:00","-2.0","","-6.7","","70","","12","","28","","","","99.89","","","","-9","","NA"
"2008-03-18 08:00","2008","03","18","08:00","-1.6","","-6.1","","71","","12","","26","","","","99.76","","","","-8","","NA"
"2008-03-18 09:00","2008","03","18","09:00","-1.3","","-5.4","","74","","11","","39","","","","99.54","","","","-9","","NA"
"2008-03-18 10:00","2008","03","18","10:00","-1.5","","-5.3","","75","","11","","32","","","","99.50","","","","-9","","NA"
"2008-03-18 11:00","2008","03","18","11:00","-1.0","","-5.5","","71","","12","","30","","","","99.45","","","","-8","","NA"
"2008-03-18 12:00","2008","03","18","12:00","-1.2","","-3.8","","82","","12","","35","","","","99.35","","","","-9","","NA"
"2008-03-18 13:00","2008","03","18","13:00","-0.9","","-2.7","","88","","11","","33","","","","99.20","","","","-8","","NA"
"2008-03-18 14:00","2008","03","18","14:00","-0.9","","-2.1","","92","","11","","39","","","","99.08","","","","-9","","NA"
"2008-03-18 15:00","2008","03","18","15:00","-0.6","","-1.2","","96","","11","","39","","","","98.87","","","","-8","","NA"
"2008-03-18 16:00","2008","03","18","16:00","-0.4","","-0.9","","96","","12","","32","","","","98.71","","","","-7","","NA"
"2008-03-18 17:00","2008","03","18","17:00","-0.1","","-0.5","","97","","12","","44","","","","98.74","","","","-8","","NA"
"2008-03-18 18:00","2008","03","18","18:00","0.0","","-0.4","","97","","13","","48","","","","98.61","","","","-8","","NA"
"2008-03-18 19:00","2008","03","18","19:00","0.1","","-0.3","","97","","13","","44","","","","98.56","","","","","","NA"
"2008-03-18 20:00","2008","03","18","20:00","0.1","","-0.3","","97","","13","","39","","","","98.51","","","","","","NA"
"2008-03-18 21:00","2008","03","18","21:00","0.1","","-0.3","","97","","13","","35","","","","98.42","","","","","","NA"
"2008-03-18 22:00","2008","03","18","22:00","0.3","","0.0","","98","","14","","32","","","","98.39","","","","","","NA"
"2008-03-18 23:00","2008","03","18","23:00","0.3","","0.0","","98","","15","","20","","","","98.38","","","","","","NA"
"2008-03-19 00:00","2008","03","19","00:00","0.3","","-0.1","","97","","19","","9","","","","98.32","","","","","","NA"
"2008-03-19 01:00","2008","03","19","01:00","0.1","","-0.2","","98","","25","","4","","","","98.26","","","","","","NA"
"2008-03-19 02:00","2008","03","19","02:00","0.2","","-0.1","","98","","30","","4","","","","98.24","","","","","","NA"
"2008-03-19 03:00","2008","03","19","03:00","0.2","","-0.1","","98","","29","","7","","","","98.18","","","","","","NA"
"2008-03-19 04:00","2008","03","19","04:00","0.2","","-0.1","","98","","30","","9","","","","98.12","","","","","","NA"
"2008-03-19 05:00","2008","03","19","05:00","0.1","","-0.1","","99","","29","","11","","","","98.21","","","","","","NA"
"2008-03-19 06:00","2008","03","19","06:00","0.3","","0.1","","99","","30","","13","","","","98.26","","","","","","NA"
"2008-03-19 07:00","2008","03","19","07:00","0.2","","0.0","","99","","30","","13","","","","98.25","","","","","","NA"
"2008-03-19 08:00","2008","03","19","08:00","0.5","","0.2","","98","","30","","15","","","","98.26","","","","","","NA"
"2008-03-19 09:00","2008","03","19","09:00","1.0","","0.2","","94","","30","","9","","","","98.26","","","","","","NA"
"2008-03-19 10:00","2008","03","19","10:00","1.5","","-0.4","","87","","31","","13","","","","98.27","","","","","","NA"
"2008-03-19 11:00","2008","03","19","11:00","1.7","","-1.0","","82","","32","","17","","","","98.30","","","","","","NA"
"2008-03-19 12:00","2008","03","19","12:00","2.3","","-1.8","","74","","33","","22","","","","98.24","","","","","","NA"
"2008-03-19 13:00","2008","03","19","13:00","4.1","","-1.9","","65","","33","","13","","","","98.22","","","","","","NA"
"2008-03-19 14:00","2008","03","19","14:00","4.5","","-2.9","","59","","33","","20","","","","98.15","","","","","","NA"
"2008-03-19 15:00","2008","03","19","15:00","3.1","","-1.6","","71","","28","","20","","","","98.10","","","","","","NA"
"2008-03-19 16:00","2008","03","19","16:00","2.3","","-1.6","","75","","28","","17","","","","98.12","","","","","","NA"
"2008-03-19 17:00","2008","03","19","17:00","1.9","","-1.6","","78","","30","","9","","","","98.07","","","","","","NA"
"2008-03-19 18:00","2008","03","19","18:00","2.1","","-1.6","","76","","29","","9","","","","98.14","","","","","","NA"
"2008-03-19 19:00","2008","03","19","19:00","2.9","","-2.6","","67","","32","","6","","","","98.23","","","","","","NA"
"2008-03-19 20:00","2008","03","19","20:00","0.4","","-2.8","","79","","28","","19","","","","98.25","","","","","","NA"
"2008-03-19 21:00","2008","03","19","21:00","0.3","","-3.2","","77","","29","","19","","","","98.25","","","","","","NA"
"2008-03-19 22:00","2008","03","19","22:00","0.9","","-3.6","","72","","29","","9","","","","98.26","","","","","","NA"
"2008-03-19 23:00","2008","03","19","23:00","0.7","","-5.3","","64","","29","","20","","","","98.29","","","","","","NA"
"2008-03-20 00:00","2008","03","20","00:00","-0.4","","-5.1","","71","","30","","22","","","","98.30","","","","-6","","NA"
"2008-03-20 01:00","2008","03","20","01:00","-0.3","","-5.2","","69","","30","","20","","","","98.32","","","","-6","","NA"
"2008-03-20 02:00","2008","03","20","02:00","-0.4","","-5.2","","70","","30","","19","","","","98.37","","","","-6","","NA"
"2008-03-20 03:00","2008","03","20","03:00","-0.7","","-6.1","","67","","32","","15","","","","98.41","","","","-5","","NA"
"2008-03-20 04:00","2008","03","20","04:00","-1.0","","-6.8","","65","","33","","11","","","","98.51","","","","-5","","NA"
"2008-03-20 05:00","2008","03","20","05:00","-1.9","","-8.6","","60","","32","","11","","","","98.57","","","","-6","","NA"
"2008-03-20 06:00","2008","03","20","06:00","-2.6","","-8.8","","62","","33","","17","","","","98.68","","","","-8","","NA"
"2008-03-20 07:00","2008","03","20","07:00","-4.1","","-9.1","","68","","33","","20","","","","98.79","","","","-10","","NA"
"2008-03-20 08:00","2008","03","20","08:00","-3.7","","-11.0","","57","","34","","19","","","","98.87","","","","-10","","NA"
"2008-03-20 09:00","2008","03","20","09:00","-4.3","","-12.4","","53","","33","","26","","","","98.93","","","","-12","","NA"
"2008-03-20 10:00","2008","03","20","10:00","-4.5","","-13.5","","49","","31","","24","","","","98.99","","","","-12","","NA"
"2008-03-20 11:00","2008","03","20","11:00","-3.8","","-13.7","","46","","31","","20","","","","99.06","","","","-10","","NA"
"2008-03-20 12:00","2008","03","20","12:00","-3.0","","-12.7","","47","","32","","22","","","","99.10","","","","-9","","NA"
"2008-03-20 13:00","2008","03","20","13:00","-2.5","","-13.1","","44","","33","","20","","","","99.15","","","","-8","","NA"
"2008-03-20 14:00","2008","03","20","14:00","-1.7","","-12.9","","42","","33","","15","","","","99.15","","","","-7","","NA"
"2008-03-20 15:00","2008","03","20","15:00","-0.8","","-13.5","","38","","32","","22","","","","99.19","","","","-7","","NA"
"2008-03-20 16:00","2008","03","20","16:00","-0.5","","-13.3","","37","","31","","24","","","","99.25","","","","-6","","NA"
"2008-03-20 17:00","2008","03","20","17:00","-0.4","","-13.8","","36","","34","","20","","","","99.37","","","","-6","","NA"
"2008-03-20 18:00","2008","03","20","18:00","-1.4","","-14.0","","38","","32","","26","","","","99.47","","","","-8","","NA"
"2008-03-20 19:00","2008","03","20","19:00","-2.5","","-13.7","","42","","34","","19","","","","99.61","","","","-8","","NA"
"2008-03-20 20:00","2008","03","20","20:00","-2.9","","-13.7","","43","","33","","22","","","","99.70","","","","-9","","NA"
"2008-03-20 21:00","2008","03","20","21:00","-3.7","","-13.3","","47","","33","","15","","","","99.80","","","","-9","","NA"
"2008-03-20 22:00","2008","03","20","22:00","-4.5","","-13.8","","48","","33","","11","","","","99.89","","","","-9","","NA"
"2008-03-20 23:00","2008","03","20","23:00","-5.2","","-13.9","","50","","33","","13","","","","99.98","","","","-10","","NA"
"2008-03-21 00:00","2008","03","21","00:00","-5.9","","-13.9","","53","","33","","20","","","","100.06","","","","-13","","NA"
"2008-03-21 01:00","2008","03","21","01:00","-6.8","","-14.3","","55","","32","","17","","","","100.15","","","","-13","","NA"
"2008-03-21 02:00","2008","03","21","02:00","-8.2","","-17.6","","47","","32","","19","","","","100.22","","","","-15","","NA"
"2008-03-21 03:00","2008","03","21","03:00","-9.5","","-18.9","","46","","33","","13","","","","100.29","","","","-16","","NA"
"2008-03-21 04:00","2008","03","21","04:00","-10.4","","-19.2","","48","","34","","11","","","","100.31","","","","-16","","NA"
"2008-03-21 05:00","2008","03","21","05:00","-11.2","","-20.2","","47","","35","","11","","","","100.30","","","","-17","","NA"
"2008-03-21 06:00","2008","03","21","06:00","-11.8","","-23.3","","38","","33","","19","","","","100.34","","","","-20","","NA"
"2008-03-21 07:00","2008","03","21","07:00","-12.2","","-23.9","","37","","33","","11","","","","100.38","","","","-18","","NA"
"2008-03-21 08:00","2008","03","21","08:00","-11.8","","-25.3","","32","","34","","15","","","","100.38","","","","-19","","NA"
"2008-03-21 09:00","2008","03","21","09:00","-10.8","","-25.7","","28","","31","","15","","","","100.46","","","","-18","","NA"
"2008-03-21 10:00","2008","03","21","10:00","-9.6","","-27.3","","22","","32","","15","","","","100.37","","","","-16","","NA"
"2008-03-21 11:00","2008","03","21","11:00","-7.8","","-26.4","","21","","33","","11","","","","100.32","","","","-13","","NA"
"2008-03-21 12:00","2008","03","21","12:00","-6.0","","-26.3","","18","","30","","13","","","","100.26","","","","-11","","NA"
"2008-03-21 13:00","2008","03","21","13:00","-4.4","","-24.4","","19","","30","","15","","","","100.20","","","","-10","","NA"
"2008-03-21 14:00","2008","03","21","14:00","-4.3","","-20.5","","27","","27","","19","","","","100.13","","","","-10","","NA"
"2008-03-21 15:00","2008","03","21","15:00","-3.7","","-20.9","","25","","27","","19","","","","100.03","","","","-10","","NA"
"2008-03-21 16:00","2008","03","21","16:00","-2.7","","-21.1","","23","","28","","20","","","","99.96","","","","-9","","NA"
"2008-03-21 17:00","2008","03","21","17:00","-2.4","","-20.5","","23","","27","","19","","","","99.89","","","","-8","","NA"
"2008-03-21 18:00","2008","03","21","18:00","-3.0","","-17.8","","31","","28","","17","","","","99.90","","","","-9","","NA"
"2008-03-21 19:00","2008","03","21","19:00","-4.3","","-13.9","","47","","30","","11","","","","99.88","","","","-9","","NA"
"2008-03-21 20:00","2008","03","21","20:00","-5.2","","-15.7","","43","","33","","13","","","","99.91","","","","-10","","NA"
"2008-03-21 21:00","2008","03","21","21:00","-5.2","","-17.8","","36","","34","","13","","","","99.92","","","","-10","","NA"
"2008-03-21 22:00","2008","03","21","22:00","-4.7","","-21.1","","26","","35","","9","","","","99.93","","","","-9","","NA"
"2008-03-21 23:00","2008","03","21","23:00","-5.0","","-25.0","","19","","36","","11","","","","99.93","","","","-10","","NA"
"2008-03-22 00:00","2008","03","22","00:00","-5.5","","-26.0","","18","","36","","13","","","","99.92","","","","-11","","NA"
"2008-03-22 01:00","2008","03","22","01:00","-6.3","","-25.7","","20","","36","","11","","","","99.93","","","","-11","","NA"
"2008-03-22 02:00","2008","03","22","02:00","-7.3","","-25.8","","21","","1","","15","","","","99.91","","","","-13","","NA"
"2008-03-22 03:00","2008","03","22","03:00","-8.0","","-26.2","","22","","36","","15","","","","99.85","","","","-14","","NA"
"2008-03-22 04:00","2008","03","22","04:00","-8.8","","-26.5","","22","","35","","13","","","","99.81","","","","-15","","NA"
"2008-03-22 05:00","2008","03","22","05:00","-9.7","","-25.4","","27","","34","","6","","","","99.83","","","","-13","","NA"
"2008-03-22 06:00","2008","03","22","06:00","-10.2","","-25.6","","27","","34","","13","","","","99.85","","","","-16","","NA"
"2008-03-22 07:00","2008","03","22","07:00","-10.4","","-25.4","","28","","34","","11","","","","99.89","","","","-16","","NA"
"2008-03-22 08:00","2008","03","22","08:00","-9.3","","-25.7","","25","","34","","6","","","","99.95","","","","-13","","NA"
"2008-03-22 09:00","2008","03","22","09:00","-8.5","","-26.1","","23","","31","","13","","","","99.95","","","","-14","","NA"
"2008-03-22 10:00","2008","03","22","10:00","-7.5","","-27.2","","19","","32","","19","","","","99.93","","","","-15","","NA"
"2008-03-22 11:00","2008","03","22","11:00","-5.4","","-27.2","","16","","32","","15","","","","99.91","","","","-11","","NA"
"2008-03-22 12:00","2008","03","22","12:00","-3.8","","-23.9","","19","","27","","17","","","","99.86","","","","-10","","NA"
"2008-03-22 13:00","2008","03","22","13:00","-3.4","","-19.6","","27","","27","","19","","","","99.82","","","","-9","","NA"
"2008-03-22 14:00","2008","03","22","14:00","-3.6","","-18.2","","31","","28","","28","","","","99.78","","","","-11","","NA"
"2008-03-22 15:00","2008","03","22","15:00","-2.5","","-15.1","","37","","27","","24","","","","99.74","","","","-9","","NA"
"2008-03-22 16:00","2008","03","22","16:00","-1.6","","-12.1","","45","","27","","24","","","","99.70","","","","-8","","NA"
"2008-03-22 17:00","2008","03","22","17:00","-1.2","","-11.3","","46","","27","","22","","","","99.72","","","","-7","","NA"
"2008-03-22 18:00","2008","03","22","18:00","-0.1","","-15.8","","30","","32","","9","","","","99.75","","","","-3","","NA"
"2008-03-22 19:00","2008","03","22","19:00","-1.0","","-18.3","","26","","35","","13","","","","99.80","","","","-5","","NA"
"2008-03-22 20:00","2008","03","22","20:00","-1.7","","-18.7","","26","","35","","9","","","","99.86","","","","-5","","NA"
"2008-03-22 21:00","2008","03","22","21:00","-2.3","","-18.6","","27","","1","","6","","","","99.93","","","","-5","","NA"
"2008-03-22 22:00","2008","03","22","22:00","-3.1","","-19.7","","26","","34","","13","","","","100.00","","","","-8","","NA"
"2008-03-22 23:00","2008","03","22","23:00","-4.2","","-20.9","","26","","1","","17","","","","100.03","","","","-10","","NA"
"2008-03-23 00:00","2008","03","23","00:00","-5.1","","-21.6","","26","","36","","13","","","","100.06","","","","-10","","NA"
"2008-03-23 01:00","2008","03","23","01:00","-6.2","","-22.0","","27","","3","","6","","","","100.11","","","","-9","","NA"
"2008-03-23 02:00","2008","03","23","02:00","-7.3","","-23.2","","27","","2","","15","","","","100.11","","","","-13","","NA"
"2008-03-23 03:00","2008","03","23","03:00","-8.4","","-23.1","","29","","1","","11","","","","100.09","","","","-14","","NA"
"2008-03-23 04:00","2008","03","23","04:00","-9.5","","-23.3","","32","","1","","13","","","","100.11","","","","-16","","NA"
"2008-03-23 05:00","2008","03","23","05:00","-10.6","","-22.9","","36","","1","","7","","","","100.16","","","","-15","","NA"
"2008-03-23 06:00","2008","03","23","06:00","-11.8","","-23.2","","38","","1","","6","","","","100.21","","","","-16","","NA"
"2008-03-23 07:00","2008","03","23","07:00","-11.7","","-24.5","","34","","2","","4","","","","100.28","","","","-14","","NA"
"2008-03-23 08:00","2008","03","23","08:00","-12.0","","-24.7","","34","","2","","15","","","","100.29","","","","-19","","NA"
"2008-03-23 09:00","2008","03","23","09:00","-11.9","","-25.8","","31","","36","","15","","","","100.34","","","","-19","","NA"
"2008-03-23 10:00","2008","03","23","10:00","-10.9","","-25.5","","29","","35","","7","","","","100.33","","","","-15","","NA"
"2008-03-23 11:00","2008","03","23","11:00","-9.8","","-23.7","","31","","31","","7","","","","100.31","","","","-14","","NA"
"2008-03-23 12:00","2008","03","23","12:00","-10.3","","-22.5","","36","","18","","15","","","","100.29","","","","-17","","NA"
"2008-03-23 13:00","2008","03","23","13:00","-9.3","","-19.5","","43","","20","","20","","","","100.25","","","","-17","","NA"
"2008-03-23 14:00","2008","03","23","14:00","-8.3","","-18.3","","44","","22","","20","","","","100.17","","","","-16","","NA"
"2008-03-23 15:00","2008","03","23","15:00","-7.5","","-19.8","","37","","26","","17","","","","100.13","","","","-14","","NA"
"2008-03-23 16:00","2008","03","23","16:00","-6.7","","-16.5","","46","","25","","15","","","","100.10","","","","-13","","NA"
"2008-03-23 17:00","2008","03","23","17:00","-6.6","","-17.1","","43","","25","","19","","","","100.06","","","","-13","","NA"
"2008-03-23 18:00","2008","03","23","18:00","-6.7","","-17.3","","43","","29","","13","","","","100.04","","","","-12","","NA"
"2008-03-23 19:00","2008","03","23","19:00","-7.5","","-16.2","","50","","29","","9","","","","100.03","","","","-12","","NA"
"2008-03-23 20:00","2008","03","23","20:00","-8.8","","-15.4","","59","","32","","9","","","","100.05","","","","-13","","NA"
"2008-03-23 21:00","2008","03","23","21:00","-9.1","","-15.1","","62","","29","","6","","","","100.07","","","","-12","","NA"
"2008-03-23 22:00","2008","03","23","22:00","-9.5","","-14.7","","66","","31","","9","","","","100.07","","","","-14","","NA"
"2008-03-23 23:00","2008","03","23","23:00","-10.1","","-14.5","","70","","30","","17","","","","100.07","","","","-17","","NA"
"2008-03-24 00:00","2008","03","24","00:00","-10.9","","-14.8","","73","","28","","6","","","","100.08","","","","-15","","NA"
"2008-03-24 01:00","2008","03","24","01:00","-11.1","","-17.6","","59","","","","0","","","","100.11","","","","","","NA"
"2008-03-24 02:00","2008","03","24","02:00","-11.6","","-19.0","","54","","","","0","","","","100.13","","","","","","NA"
"2008-03-24 03:00","2008","03","24","03:00","-11.6","","-25.2","","31","","28","","4","","","","100.14","","","","-14","","NA"
"2008-03-24 04:00","2008","03","24","04:00","-12.8","","-23.5","","40","","32","","11","","","","100.18","","","","-19","","NA"
"2008-03-24 05:00","2008","03","24","05:00","-13.7","","-24.5","","40","","32","","13","","","","100.22","","","","-21","","NA"
"2008-03-24 06:00","2008","03","24","06:00","-13.7","","-25.8","","35","","31","","9","","","","100.25","","","","-19","","NA"
"2008-03-24 07:00","2008","03","24","07:00","-13.8","","-21.4","","53","","30","","9","","","","100.29","","","","-19","","NA"
"2008-03-24 08:00","2008","03","24","08:00","-12.2","","-23.9","","37","","27","","7","","","","100.30","","","","-17","","NA"
"2008-03-24 09:00","2008","03","24","09:00","-10.8","","-22.4","","38","","30","","11","","","","100.33","","","","-17","","NA"
"2008-03-24 10:00","2008","03","24","10:00","-9.2","","-21.7","","35","","27","","13","","","","100.37","","","","-15","","NA"
"2008-03-24 11:00","2008","03","24","11:00","-8.4","","-20.6","","37","","28","","22","","","","100.38","","","","-16","","NA"
"2008-03-24 12:00","2008","03","24","12:00","-7.1","","-19.4","","37","","28","","19","","","","100.36","","","","-14","","NA"
"2008-03-24 13:00","2008","03","24","13:00","-5.9","","-17.2","","40","","23","","24","","","","100.30","","","","-13","","NA"
"2008-03-24 14:00","2008","03","24","14:00","-4.6","","-15.8","","41","","25","","22","","","","100.25","","","","-11","","NA"
"2008-03-24 15:00","2008","03","24","15:00","-4.1","","-14.4","","45","","24","","26","","","","100.19","","","","-11","","NA"
"2008-03-24 16:00","2008","03","24","16:00","-4.0","","-12.8","","50","","24","","26","","","","100.13","","","","-11","","NA"
"2008-03-24 17:00","2008","03","24","17:00","-3.7","","-12.1","","52","","23","","24","","","","100.11","","","","-11","","NA"
"2008-03-24 18:00","2008","03","24","18:00","-3.8","","-13.4","","47","","23","","24","","","","100.10","","","","-11","","NA"
"2008-03-24 19:00","2008","03","24","19:00","-4.6","","-11.4","","59","","22","","28","","","","100.06","","","","-12","","NA"
"2008-03-24 20:00","2008","03","24","20:00","-4.7","","-11.4","","59","","21","","17","","","","100.01","","","","-11","","NA"
"2008-03-24 21:00","2008","03","24","21:00","-4.6","","-10.9","","61","","22","","19","","","","99.96","","","","-11","","NA"
"2008-03-24 22:00","2008","03","24","22:00","-4.6","","-9.4","","69","","22","","19","","","","99.90","","","","-11","","NA"
"2008-03-24 23:00","2008","03","24","23:00","-4.3","","-8.6","","72","","22","","19","","","","99.84","","","","-10","","NA"
"2008-03-25 00:00","2008","03","25","00:00","-3.6","","-7.8","","73","","21","","24","","","","99.75","","","","-10","","NA"
"2008-03-25 01:00","2008","03","25","01:00","-3.3","","-7.1","","75","","21","","24","","","","99.71","","","","-10","","NA"
"2008-03-25 02:00","2008","03","25","02:00","-3.0","","-6.9","","74","","21","","24","","","","99.63","","","","-10","","NA"
"2008-03-25 03:00","2008","03","25","03:00","-3.4","","-7.1","","76","","21","","6","","","","99.49","","","","-6","","NA"
"2008-03-25 04:00","2008","03","25","04:00","-3.3","","-7.6","","72","","22","","7","","","","99.44","","","","-6","","NA"
"2008-03-25 05:00","2008","03","25","05:00","-1.8","","-6.5","","70","","20","","26","","","","99.31","","","","-8","","NA"
"2008-03-25 06:00","2008","03","25","06:00","-1.0","","-5.1","","74","","18","","44","","","","99.11","","","","-9","","NA"
"2008-03-25 07:00","2008","03","25","07:00","-1.1","","-4.0","","81","","18","","44","","","","99.00","","","","-9","","NA"
"2008-03-25 08:00","2008","03","25","08:00","-1.3","","-2.2","","94","","18","","44","","","","98.85","","","","-9","","NA"
"2008-03-25 09:00","2008","03","25","09:00","-1.3","","-1.9","","96","","18","","46","","","","98.66","","","","-10","","NA"
"2008-03-25 10:00","2008","03","25","10:00","-1.1","","-1.7","","96","","17","","44","","","","98.49","","","","-9","","NA"
"2008-03-25 11:00","2008","03","25","11:00","-0.8","","-1.3","","96","","18","","48","","","","98.31","","","","-9","","NA"
"2008-03-25 12:00","2008","03","25","12:00","-0.7","","-1.1","","97","","19","","52","","","","98.19","","","","-9","","NA"
"2008-03-25 13:00","2008","03","25","13:00","-0.5","","-0.9","","97","","19","","52","","","","98.03","","","","-9","","NA"
"2008-03-25 14:00","2008","03","25","14:00","-0.4","","-0.7","","98","","20","","44","","","","97.89","","","","-8","","NA"
"2008-03-25 15:00","2008","03","25","15:00","0.0","","-0.3","","98","","22","","39","","","","97.78","","","","-7","","NA"
"2008-03-25 16:00","2008","03","25","16:00","0.0","","-0.3","","98","","22","","32","","","","97.78","","","","-7","","NA"
"2008-03-25 17:00","2008","03","25","17:00","0.1","","-0.2","","98","","22","","28","","","","97.78","","","","","","NA"
"2008-03-25 18:00","2008","03","25","18:00","0.7","","0.4","","98","","24","","20","","","","97.81","","","","","","NA"
"2008-03-25 19:00","2008","03","25","19:00","0.8","","0.3","","96","","24","","20","","","","97.88","","","","","","NA"
"2008-03-25 20:00","2008","03","25","20:00","0.9","","0.1","","94","","24","","17","","","","97.94","","","","","","NA"
"2008-03-25 21:00","2008","03","25","21:00","0.8","","0.2","","96","","25","","15","","","","98.00","","","","","","NA"
"2008-03-25 22:00","2008","03","25","22:00","1.1","","-0.3","","90","","28","","37","","","","98.05","","","","","","NA"
"2008-03-25 23:00","2008","03","25","23:00","0.7","","-0.9","","89","","28","","32","","","","98.14","","","","","","NA"
"2008-03-26 00:00","2008","03","26","00:00","0.6","","-1.4","","86","","28","","32","","","","98.24","","","","","","NA"
"2008-03-26 01:00","2008","03","26","01:00","-0.3","","-2.4","","86","","27","","37","","","","98.30","","","","-8","","NA"
"2008-03-26 02:00","2008","03","26","02:00","-0.9","","-3.5","","82","","27","","39","","","","98.43","","","","-9","","NA"
"2008-03-26 03:00","2008","03","26","03:00","-1.8","","-5.0","","79","","28","","39","","","","98.51","","","","-10","","NA"
"2008-03-26 04:00","2008","03","26","04:00","-3.0","","-5.8","","81","","28","","32","","","","98.62","","","","-11","","NA"
"2008-03-26 05:00","2008","03","26","05:00","-3.1","","-6.0","","80","","29","","22","","","","98.80","","","","-9","","NA"
"2008-03-26 06:00","2008","03","26","06:00","-3.2","","-8.3","","68","","35","","15","","","","98.96","","","","-8","","NA"
"2008-03-26 07:00","2008","03","26","07:00","-4.9","","-10.7","","64","","33","","11","","","","99.11","","","","-9","","NA"
"2008-03-26 08:00","2008","03","26","08:00","-4.8","","-11.5","","59","","32","","9","","","","99.22","","","","-9","","NA"
"2008-03-26 09:00","2008","03","26","09:00","-4.2","","-12.9","","51","","32","","13","","","","99.27","","","","-9","","NA"
"2008-03-26 10:00","2008","03","26","10:00","-3.6","","-13.7","","45","","28","","17","","","","99.32","","","","-9","","NA"
"2008-03-26 11:00","2008","03","26","11:00","-3.7","","-10.2","","61","","22","","19","","","","99.33","","","","-10","","NA"
"2008-03-26 12:00","2008","03","26","12:00","-3.0","","-12.5","","48","","22","","20","","","","99.31","","","","-9","","NA"
"2008-03-26 13:00","2008","03","26","13:00","-1.5","","-12.7","","42","","23","","19","","","","99.31","","","","-7","","NA"
"2008-03-26 14:00","2008","03","26","14:00","-1.8","","-10.6","","51","","18","","13","","","","99.29","","","","-6","","NA"
"2008-03-26 15:00","2008","03","26","15:00","-0.4","","-9.5","","50","","25","","30","","","","99.22","","","","-7","","NA"
"2008-03-26 16:00","2008","03","26","16:00","-0.6","","-7.3","","60","","21","","26","","","","99.16","","","","-7","","NA"
"2008-03-26 17:00","2008","03","26","17:00","-0.1","","-3.9","","76","","19","","22","","","","99.11","","","","-6","","NA"
"2008-03-26 18:00","2008","03","26","18:00","-0.3","","-3.2","","81","","19","","24","","","","99.06","","","","-6","","NA"
"2008-03-26 19:00","2008","03","26","19:00","-0.2","","-2.8","","83","","21","","20","","","","99.00","","","","-5","","NA"
"2008-03-26 20:00","2008","03","26","20:00","0.2","","-2.7","","81","","24","","20","","","","99.01","","","","","","NA"
"2008-03-26 21:00","2008","03","26","21:00","0.7","","-3.0","","76","","24","","11","","","","99.02","","","","","","NA"
"2008-03-26 22:00","2008","03","26","22:00","0.9","","-3.1","","75","","27","","28","","","","99.02","","","","","","NA"
"2008-03-26 23:00","2008","03","26","23:00","0.1","","-3.8","","75","","28","","24","","","","99.05","","","","","","NA"
"2008-03-27 00:00","2008","03","27","00:00","-1.0","","-4.0","","80","","27","","24","","","","99.04","","","","-7","","NA"
"2008-03-27 01:00","2008","03","27","01:00","-2.1","","-5.4","","78","","27","","32","","","","99.09","","","","-9","","NA"
"2008-03-27 02:00","2008","03","27","02:00","-2.9","","-6.5","","76","","28","","20","","","","99.10","","","","-9","","NA"
"2008-03-27 03:00","2008","03","27","03:00","-3.6","","-9.0","","66","","30","","19","","","","99.14","","","","-10","","NA"
"2008-03-27 04:00","2008","03","27","04:00","-4.6","","-9.5","","69","","29","","11","","","","99.25","","","","-9","","NA"
"2008-03-27 05:00","2008","03","27","05:00","-5.5","","-9.6","","73","","29","","9","","","","99.32","","","","-10","","NA"
"2008-03-27 06:00","2008","03","27","06:00","-6.3","","-9.7","","77","","32","","11","","","","99.40","","","","-11","","NA"
"2008-03-27 07:00","2008","03","27","07:00","-5.7","","-9.3","","76","","35","","7","","","","99.42","","","","-9","","NA"
"2008-03-27 08:00","2008","03","27","08:00","-5.0","","-10.7","","64","","2","","11","","","","99.43","","","","-10","","NA"
"2008-03-27 09:00","2008","03","27","09:00","-3.2","","-12.5","","49","","3","","6","","","","99.52","","","","-6","","NA"
"2008-03-27 10:00","2008","03","27","10:00","-2.6","","-16.2","","34","","2","","9","","","","99.52","","","","-6","","NA"
"2008-03-27 11:00","2008","03","27","11:00","-2.3","","-13.2","","43","","20","","7","","","","99.50","","","","-5","","NA"
"2008-03-27 12:00","2008","03","27","12:00","-2.6","","-11.7","","50","","20","","17","","","","99.52","","","","-8","","NA"
"2008-03-27 13:00","2008","03","27","13:00","-2.8","","-11.9","","49","","19","","17","","","","99.45","","","","-8","","NA"
"2008-03-27 14:00","2008","03","27","14:00","-1.9","","-13.1","","42","","21","","19","","","","99.43","","","","-7","","NA"
"2008-03-27 15:00","2008","03","27","15:00","-1.4","","-12.6","","42","","22","","19","","","","99.40","","","","-7","","NA"
"2008-03-27 16:00","2008","03","27","16:00","-1.3","","-13.6","","39","","22","","20","","","","99.38","","","","-7","","NA"
"2008-03-27 17:00","2008","03","27","17:00","-1.6","","-9.1","","57","","21","","17","","","","99.35","","","","-7","","NA"
"2008-03-27 18:00","2008","03","27","18:00","-1.7","","-9.6","","55","","23","","9","","","","99.33","","","","-5","","NA"
"2008-03-27 19:00","2008","03","27","19:00","-2.3","","-12.8","","44","","28","","7","","","","99.34","","","","-5","","NA"
"2008-03-27 20:00","2008","03","27","20:00","-2.9","","-12.6","","47","","28","","7","","","","99.38","","","","-6","","NA"
"2008-03-27 21:00","2008","03","27","21:00","-3.6","","-12.0","","52","","30","","7","","","","99.38","","","","-7","","NA"
"2008-03-27 22:00","2008","03","27","22:00","-4.5","","-12.1","","55","","31","","6","","","","99.40","","","","-7","","NA"
"2008-03-27 23:00","2008","03","27","23:00","-4.1","","-12.6","","52","","31","","9","","","","99.37","","","","-8","","NA"
"2008-03-28 00:00","2008","03","28","00:00","-3.2","","-12.8","","47","","2","","4","","","","99.39","","","","-5","","NA"
"2008-03-28 01:00","2008","03","28","01:00","-3.7","","-12.6","","50","","3","","9","","","","99.43","","","","-7","","NA"
"2008-03-28 02:00","2008","03","28","02:00","-4.2","","-12.8","","51","","5","","11","","","","99.40","","","","-9","","NA"
"2008-03-28 03:00","2008","03","28","03:00","-4.6","","-12.8","","53","","6","","13","","","","99.39","","","","-10","","NA"
"2008-03-28 04:00","2008","03","28","04:00","-5.4","","-12.5","","57","","9","","4","","","","99.42","","","","-7","","NA"
"2008-03-28 05:00","2008","03","28","05:00","-5.5","","-14.0","","51","","6","","7","","","","99.47","","","","-9","","NA"
"2008-03-28 06:00","2008","03","28","06:00","-6.2","","-13.0","","59","","","","0","","","","99.58","","","","","","NA"
"2008-03-28 07:00","2008","03","28","07:00","-5.4","","-13.5","","53","","33","","6","","","","99.63","","","","-8","","NA"
"2008-03-28 08:00","2008","03","28","08:00","-4.7","","-13.2","","51","","1","","7","","","","99.71","","","","-8","","NA"
"2008-03-28 09:00","2008","03","28","09:00","-3.8","","-12.5","","51","","21","","2","","","","99.76","","","","-5","","NA"
"2008-03-28 10:00","2008","03","28","10:00","-3.0","","-14.5","","41","","3","","15","","","","99.77","","","","-8","","NA"
"2008-03-28 11:00","2008","03","28","11:00","-1.8","","-14.1","","38","","35","","6","","","","99.78","","","","-4","","NA"
"2008-03-28 12:00","2008","03","28","12:00","-2.0","","-16.3","","33","","34","","19","","","","99.78","","","","-8","","NA"
"2008-03-28 13:00","2008","03","28","13:00","-0.7","","-16.1","","30","","34","","13","","","","99.79","","","","-5","","NA"
"2008-03-28 14:00","2008","03","28","14:00","-0.6","","-17.0","","28","","29","","20","","","","99.77","","","","-6","","NA"
"2008-03-28 15:00","2008","03","28","15:00","-0.2","","-14.6","","33","","27","","20","","","","99.76","","","","-5","","NA"
"2008-03-28 16:00","2008","03","28","16:00","-0.6","","-13.1","","38","","28","","26","","","","99.80","","","","-7","","NA"
"2008-03-28 17:00","2008","03","28","17:00","-1.1","","-12.1","","43","","27","","28","","","","99.86","","","","-8","","NA"
"2008-03-28 18:00","2008","03","28","18:00","-1.3","","-11.5","","46","","28","","19","","","","99.95","","","","-7","","NA"
"2008-03-28 19:00","2008","03","28","19:00","-1.7","","-11.2","","48","","29","","17","","","","100.03","","","","-7","","NA"
"2008-03-28 20:00","2008","03","28","20:00","-2.0","","-13.1","","42","","34","","7","","","","100.12","","","","-5","","NA"
"2008-03-28 21:00","2008","03","28","21:00","-2.6","","-15.1","","38","","2","","7","","","","100.23","","","","-5","","NA"
"2008-03-28 22:00","2008","03","28","22:00","-3.5","","-15.4","","39","","1","","7","","","","100.29","","","","-6","","NA"
"2008-03-28 23:00","2008","03","28","23:00","-4.0","","-15.7","","40","","33","","6","","","","100.37","","","","-7","","NA"
"2008-03-29 00:00","2008","03","29","00:00","-4.8","","-15.5","","43","","33","","6","","","","100.45","","","","-8","","NA"
"2008-03-29 01:00","2008","03","29","01:00","-5.8","","-14.9","","49","","5","","9","","","","100.54","","","","-10","","NA"
"2008-03-29 02:00","2008","03","29","02:00","-7.2","","-15.3","","52","","6","","11","","","","100.63","","","","-12","","NA"
"2008-03-29 03:00","2008","03","29","03:00","-7.8","","-15.5","","54","","6","","9","","","","100.69","","","","-12","","NA"
"2008-03-29 04:00","2008","03","29","04:00","-8.4","","-15.9","","55","","4","","6","","","","100.74","","","","-12","","NA"
"2008-03-29 05:00","2008","03","29","05:00","-8.7","","-15.6","","57","","11","","2","","","","100.81","","","","-10","","NA"
"2008-03-29 06:00","2008","03","29","06:00","-8.9","","-15.9","","57","","4","","6","","","","100.86","","","","-12","","NA"
"2008-03-29 07:00","2008","03","29","07:00","-7.9","","-15.6","","54","","6","","4","","","","100.93","","","","-10","","NA"
"2008-03-29 08:00","2008","03","29","08:00","-8.3","","-14.8","","59","","9","","6","","","","101.02","","","","-12","","NA"
"2008-03-29 09:00","2008","03","29","09:00","-7.3","","-14.6","","56","","12","","6","","","","101.07","","","","-10","","NA"
"2008-03-29 10:00","2008","03","29","10:00","-5.8","","-15.5","","46","","16","","6","","","","101.11","","","","-9","","NA"
"2008-03-29 11:00","2008","03","29","11:00","-4.9","","-14.8","","46","","20","","13","","","","101.18","","","","-10","","NA"
"2008-03-29 12:00","2008","03","29","12:00","-4.6","","-13.7","","49","","20","","15","","","","101.17","","","","-10","","NA"
"2008-03-29 13:00","2008","03","29","13:00","-4.0","","-12.3","","52","","21","","19","","","","101.14","","","","-10","","NA"
"2008-03-29 14:00","2008","03","29","14:00","-3.4","","-10.9","","56","","20","","19","","","","101.10","","","","-9","","NA"
"2008-03-29 15:00","2008","03","29","15:00","-3.3","","-10.8","","56","","20","","19","","","","101.11","","","","-9","","NA"
"2008-03-29 16:00","2008","03","29","16:00","-3.0","","-9.0","","63","","19","","22","","","","101.10","","","","-9","","NA"
"2008-03-29 17:00","2008","03","29","17:00","-2.7","","-8.2","","66","","20","","20","","","","101.13","","","","-9","","NA"
"2008-03-29 18:00","2008","03","29","18:00","-2.6","","-7.9","","67","","21","","19","","","","101.13","","","","-8","","NA"
"2008-03-29 19:00","2008","03","29","19:00","-2.8","","-6.7","","74","","21","","9","","","","101.13","","","","-6","","NA"
"2008-03-29 20:00","2008","03","29","20:00","-3.2","","-6.5","","78","","26","","2","","","","101.16","","","","-4","","NA"
"2008-03-29 21:00","2008","03","29","21:00","-3.6","","-7.0","","77","","","","0","","","","101.17","","","","","","NA"
"2008-03-29 22:00","2008","03","29","22:00","-3.5","","-7.1","","76","","10","","4","","","","101.16","","","","-5","","NA"
"2008-03-29 23:00","2008","03","29","23:00","-4.2","","-7.6","","77","","6","","4","","","","101.13","","","","-6","","NA"
"2008-03-30 00:00","2008","03","30","00:00","-4.9","","-8.2","","78","","7","","9","","","","101.11","","","","-9","","NA"
"2008-03-30 01:00","2008","03","30","01:00","-5.7","","-9.1","","77","","8","","15","","","","101.13","","","","-11","","NA"
"2008-03-30 02:00","2008","03","30","02:00","-6.5","","-9.7","","78","","7","","15","","","","101.15","","","","-12","","NA"
"2008-03-30 03:00","2008","03","30","03:00","-6.1","","-10.9","","69","","7","","17","","","","101.15","","","","-12","","NA"
"2008-03-30 04:00","2008","03","30","04:00","-6.5","","-10.9","","71","","7","","17","","","","101.16","","","","-13","","NA"
"2008-03-30 05:00","2008","03","30","05:00","-7.0","","-11.5","","70","","7","","17","","","","101.15","","","","-13","","NA"
"2008-03-30 06:00","2008","03","30","06:00","-7.5","","-12.5","","67","","7","","19","","","","101.17","","","","-15","","NA"
"2008-03-30 07:00","2008","03","30","07:00","-7.4","","-11.3","","74","","7","","24","","","","101.16","","","","-15","","NA"
"2008-03-30 08:00","2008","03","30","08:00","-6.2","","-9.8","","76","","8","","22","","","","101.16","","","","-13","","NA"
"2008-03-30 09:00","2008","03","30","09:00","-2.9","","-7.5","","71","","12","","32","","","","101.10","","","","-10","","NA"
"2008-03-30 10:00","2008","03","30","10:00","-2.4","","-7.6","","67","","12","","33","","","","101.07","","","","-10","","NA"
"2008-03-30 11:00","2008","03","30","11:00","-2.1","","-7.3","","68","","12","","33","","","","101.04","","","","-10","","NA"
"2008-03-30 12:00","2008","03","30","12:00","-1.1","","-8.1","","59","","13","","44","","","","100.89","","","","-9","","NA"
"2008-03-30 13:00","2008","03","30","13:00","-0.4","","-8.3","","55","","13","","43","","","","100.84","","","","-8","","NA"
"2008-03-30 14:00","2008","03","30","14:00","0.0","","-8.0","","55","","14","","35","","","","100.82","","","","-7","","NA"
"2008-03-30 15:00","2008","03","30","15:00","0.1","","-6.6","","61","","12","","39","","","","100.62","","","","","","NA"
"2008-03-30 16:00","2008","03","30","16:00","0.5","","-6.5","","59","","13","","35","","","","100.50","","","","","","NA"
"2008-03-30 17:00","2008","03","30","17:00","1.1","","-7.5","","53","","14","","33","","","","100.39","","","","","","NA"
"2008-03-30 18:00","2008","03","30","18:00","1.2","","-6.8","","55","","14","","35","","","","100.35","","","","","","NA"
"2008-03-30 19:00","2008","03","30","19:00","1.0","","-6.3","","58","","14","","37","","","","100.26","","","","","","NA"
"2008-03-30 20:00","2008","03","30","20:00","0.9","","-5.4","","63","","14","","33","","","","100.26","","","","","","NA"
"2008-03-30 21:00","2008","03","30","21:00","0.9","","-5.4","","63","","14","","35","","","","100.22","","","","","","NA"
"2008-03-30 22:00","2008","03","30","22:00","0.7","","-5.4","","64","","14","","35","","","","100.24","","","","","","NA"
"2008-03-30 23:00","2008","03","30","23:00","0.0","","-3.8","","76","","14","","30","","","","100.16","","","","-6","","NA"
"2008-03-31 00:00","2008","03","31","00:00","0.1","","-3.9","","74","","13","","22","","","","100.06","","","","","","NA"
"2008-03-31 01:00","2008","03","31","01:00","0.1","","-3.1","","79","","13","","19","","","","99.99","","","","","","NA"
"2008-03-31 02:00","2008","03","31","02:00","-0.3","","-2.0","","88","","14","","20","","","","99.93","","","","-6","","NA"
"2008-03-31 03:00","2008","03","31","03:00","-0.6","","-1.4","","94","","14","","30","","","","99.77","","","","-7","","NA"
"2008-03-31 04:00","2008","03","31","04:00","-0.4","","-1.0","","96","","21","","4","","","","99.85","","","","-2","","NA"
"2008-03-31 05:00","2008","03","31","05:00","-0.4","","-1.1","","95","","8","","7","","","","99.83","","","","-3","","NA"
"2008-03-31 06:00","2008","03","31","06:00","-0.5","","-1.0","","96","","6","","9","","","","99.76","","","","-4","","NA"
"2008-03-31 07:00","2008","03","31","07:00","-0.3","","-0.7","","97","","6","","9","","","","99.75","","","","-3","","NA"
"2008-03-31 08:00","2008","03","31","08:00","0.0","","-0.3","","98","","6","","6","","","","99.76","","","","-2","","NA"
"2008-03-31 09:00","2008","03","31","09:00","0.3","","-0.1","","97","","6","","6","","","","99.76","","","","","","NA"
"2008-03-31 10:00","2008","03","31","10:00","0.4","","0.1","","98","","7","","9","","","","99.75","","","","","","NA"
"2008-03-31 11:00","2008","03","31","11:00","1.0","","0.7","","98","","7","","11","","","","99.68","","","","","","NA"
"2008-03-31 12:00","2008","03","31","12:00","0.9","","0.4","","96","","7","","17","","","","99.60","","","","","","NA"
"2008-03-31 13:00","2008","03","31","13:00","1.5","","0.6","","94","","7","","11","","","","99.58","","","","","","NA"
"2008-03-31 14:00","2008","03","31","14:00","1.6","","0.9","","95","","5","","9","","","","99.54","","","","","","NA"
"2008-03-31 15:00","2008","03","31","15:00","1.9","","1.0","","94","","6","","19","","","","99.37","","","","","","NA"
"2008-03-31 16:00","2008","03","31","16:00","2.0","","0.9","","92","","6","","15","","","","99.33","","","","","","NA"
"2008-03-31 17:00","2008","03","31","17:00","1.9","","0.8","","92","","7","","20","","","","99.19","","","","","","NA"
"2008-03-31 18:00","2008","03","31","18:00","1.5","","0.6","","94","","8","","26","","","","99.06","","","","","","NA"
"2008-03-31 19:00","2008","03","31","19:00","1.3","","0.7","","96","","7","","22","","","","99.01","","","","","","NA"
"2008-03-31 20:00","2008","03","31","20:00","1.4","","0.9","","96","","8","","35","","","","98.72","","","","","","NA"
"2008-03-31 21:00","2008","03","31","21:00","1.5","","0.9","","96","","8","","33","","","","98.65","","","","","","NA"
"2008-03-31 22:00","2008","03","31","22:00","1.9","","1.3","","96","","7","","24","","","","98.52","","","","","","NA"
"2008-03-31 23:00","2008","03","31","23:00","1.9","","1.2","","95","","6","","20","","","","98.30","","","","","","NA"
