"Station Name","KILLARNEY (AUT)"
"Province","ONTARIO"
"Latitude","45.97"
"Longitude","-81.48"
"Elevation","196.30"
"Climate Identifier","605DJ25"
"WMO Identifier","71460"
"TC Identifier","WBE"
"All times are specified in Local Standard Time (LST). Add 1 hour to adjust for Daylight Saving Time where and when it is observed."

"Legend"
"E","Estimated"
"M","Missing"
"NA","Not Available"

"Date/Time","Year","Month","Day","Time","Temp (°C)","Temp Flag","Dew Point Temp (°C)","Dew Point Temp Flag","Rel Hum (%)","Rel Hum Flag","Wind Dir (10s deg)","Wind Dir Flag","Wind Spd (km/h)","Wind Spd Flag","Visibility (km)","Visibility Flag","Stn Press (kPa)","Stn Press Flag","Hmdx","Hmdx Flag","Wind Chill","Wind Chill Flag","Weather"
"2013-11-01 00:00","2013","11","01","00:00","10.1","","9.3","","95","","15","","19","","","","96.08","","","","","","NA"
"2013-11-01 01:00","2013","11","01","01:00","9.9","","9.1","","95","","15","","17","","","","95.92","","","","","","NA"
"2013-11-01 02:00","2013","11","01","02:00","9.8","","9.0","","95","","11","","11","","","","95.75","","","","","","NA"
"2013-11-01 03:00","2013","11","01","03:00","10.1","","9.3","","95","","17","","22","","","","95.54","","","","","","NA"
"2013-11-01 04:00","2013","11","01","04:00","10.4","","9.6","","95","","19","","26","","","","95.36","","","","","","NA"
"2013-11-01 05:00","2013","11","01","05:00","10.5","","9.7","","95","","19","","30","","","","95.17","","","","","","NA"
"2013-11-01 06:00","2013","11","01","06:00","11.6","","10.8","","95","","25","","43","","","","95.26","","","","","","NA"
"2013-11-01 07:00","2013","11","01","07:00","10.6","","9.6","","94","","25","","43","","","","95.38","","","","","","NA"
"2013-11-01 08:00","2013","11","01","08:00","9.9","","8.7","","92","","26","","33","","","","95.55","","","","","","NA"
"2013-11-01 09:00","2013","11","01","09:00","9.3","","7.4","","88","","30","","28","","","","95.83","","","","","","NA"
"2013-11-01 10:00","2013","11","01","10:00","7.8","","5.6","","86","","31","","26","","","","96.19","","","","","","NA"
"2013-11-01 11:00","2013","11","01","11:00","7.8","","5.2","","84","","30","","28","","","","96.56","","","","","","NA"
"2013-11-01 12:00","2013","11","01","12:00","8.1","","4.6","","79","","30","","24","","","","96.84","","","","","","NA"
"2013-11-01 13:00","2013","11","01","13:00","7.5","","3.2","","74","","31","","26","","","","97.03","","","","","","NA"
"2013-11-01 14:00","2013","11","01","14:00","7.1","","2.8","","74","","30","","17","","","","97.25","","","","","","NA"
"2013-11-01 15:00","2013","11","01","15:00","6.8","","2.7","","75","","31","","17","","","","97.41","","","","","","NA"
"2013-11-01 16:00","2013","11","01","16:00","6.4","","2.1","","74","","33","","15","","","","97.54","","","","","","NA"
"2013-11-01 17:00","2013","11","01","17:00","6.0","","2.1","","76","","34","","11","","","","97.66","","","","","","NA"
"2013-11-01 18:00","2013","11","01","18:00","5.7","","2.2","","78","","35","","7","","","","97.79","","","","","","NA"
"2013-11-01 19:00","2013","11","01","19:00","5.5","","2.4","","80","","1","","6","","","","97.86","","","","","","NA"
"2013-11-01 20:00","2013","11","01","20:00","5.3","","2.2","","80","","1","","2","","","","97.93","","","","","","NA"
"2013-11-01 21:00","2013","11","01","21:00","5.0","","2.0","","81","","3","","6","","","","97.99","","","","","","NA"
"2013-11-01 22:00","2013","11","01","22:00","4.7","","1.8","","81","","3","","4","","","","98.05","","","","","","NA"
"2013-11-01 23:00","2013","11","01","23:00","4.3","","1.4","","81","","3","","9","","","","98.10","","","","","","NA"
"2013-11-02 00:00","2013","11","02","00:00","3.0","","0.8","","85","","2","","11","","","","98.12","","","","","","NA"
"2013-11-02 01:00","2013","11","02","01:00","2.2","","0.4","","88","","4","","9","","","","98.20","","","","","","NA"
"2013-11-02 02:00","2013","11","02","02:00","1.3","","0.2","","92","","3","","6","","","","98.25","","","","","","NA"
"2013-11-02 03:00","2013","11","02","03:00","1.3","","0.1","","92","","4","","9","","","","98.27","","","","","","NA"
"2013-11-02 04:00","2013","11","02","04:00","1.1","","-0.4","","90","","4","","7","","","","98.30","","","","","","NA"
"2013-11-02 05:00","2013","11","02","05:00","1.3","","0.0","","91","","2","","7","","","","98.38","","","","","","NA"
"2013-11-02 06:00","2013","11","02","06:00","1.0","","-1.0","","86","","3","","11","","","","98.47","","","","","","NA"
"2013-11-02 07:00","2013","11","02","07:00","0.8","","-1.9","","82","","2","","15","","","","98.56","","","","","","NA"
"2013-11-02 08:00","2013","11","02","08:00","0.7","","-2.0","","82","","2","","13","","","","98.68","","","","","","NA"
"2013-11-02 09:00","2013","11","02","09:00","0.6","","-3.4","","75","","2","","13","","","","98.76","","","","","","NA"
"2013-11-02 10:00","2013","11","02","10:00","0.8","","-5.0","","65","","3","","13","","","","98.80","","","","","","NA"
"2013-11-02 11:00","2013","11","02","11:00","1.3","","-3.5","","70","","36","","13","","","","98.86","","","","","","NA"
"2013-11-02 12:00","2013","11","02","12:00","2.8","","-5.7","","54","","1","","22","","","","98.90","","","","","","NA"
"2013-11-02 13:00","2013","11","02","13:00","4.0","","-5.8","","49","","3","","9","","","","98.90","","","","","","NA"
"2013-11-02 14:00","2013","11","02","14:00","4.1","","-5.9","","48","","2","","15","","","","98.95","","","","","","NA"
"2013-11-02 15:00","2013","11","02","15:00","3.5","","-6.2","","49","","2","","17","","","","99.03","","","","","","NA"
"2013-11-02 16:00","2013","11","02","16:00","2.2","","-6.3","","53","","1","","17","","","","99.15","","","","","","NA"
"2013-11-02 17:00","2013","11","02","17:00","1.1","","-7.2","","54","","36","","15","","","","99.29","","","","","","NA"
"2013-11-02 18:00","2013","11","02","18:00","0.4","","-8.1","","53","","35","","15","","","","99.43","","","","","","NA"
"2013-11-02 19:00","2013","11","02","19:00","-0.3","","-8.4","","54","","36","","9","","","","99.52","","","","-3","","NA"
"2013-11-02 20:00","2013","11","02","20:00","-0.6","","-10.0","","49","","2","","13","","","","99.59","","","","-5","","NA"
"2013-11-02 21:00","2013","11","02","21:00","-1.2","","-9.8","","52","","3","","9","","","","99.69","","","","-4","","NA"
"2013-11-02 22:00","2013","11","02","22:00","-1.7","","-9.6","","55","","2","","6","","","","99.77","","","","-4","","NA"
"2013-11-02 23:00","2013","11","02","23:00","-2.2","","-9.4","","58","","1","","6","","","","99.81","","","","-5","","NA"
"2013-11-03 00:00","2013","11","03","00:00","-2.6","","-9.0","","61","","1","","7","","","","99.83","","","","-5","","NA"
"2013-11-03 01:00","2013","11","03","01:00","-2.7","","-8.9","","62","","35","","7","","","","99.94","","","","-6","","NA"
"2013-11-03 02:00","2013","11","03","02:00","-3.0","","-8.2","","67","","36","","7","","","","100.02","","","","-6","","NA"
"2013-11-03 03:00","2013","11","03","03:00","-3.0","","-8.2","","67","","35","","7","","","","100.09","","","","-6","","NA"
"2013-11-03 04:00","2013","11","03","04:00","-3.4","","-8.0","","70","","36","","9","","","","100.15","","","","-7","","NA"
"2013-11-03 05:00","2013","11","03","05:00","-3.6","","-7.9","","72","","1","","9","","","","100.25","","","","-7","","NA"
"2013-11-03 06:00","2013","11","03","06:00","-3.3","","-8.3","","68","","3","","9","","","","100.32","","","","-7","","NA"
"2013-11-03 07:00","2013","11","03","07:00","-3.1","","-8.6","","66","","3","","9","","","","100.40","","","","-7","","NA"
"2013-11-03 08:00","2013","11","03","08:00","-2.0","","-8.5","","61","","3","","7","","","","100.52","","","","-5","","NA"
"2013-11-03 09:00","2013","11","03","09:00","0.0","","-8.5","","53","","6","","9","","","","100.59","","","","-3","","NA"
"2013-11-03 10:00","2013","11","03","10:00","-0.1","","-10.0","","47","","8","","9","","","","100.64","","","","-3","","NA"
"2013-11-03 11:00","2013","11","03","11:00","0.1","","-10.0","","47","","11","","9","","","","100.70","","","","","","NA"
"2013-11-03 12:00","2013","11","03","12:00","0.4","","-9.0","","49","","13","","9","","","","100.70","","","","","","NA"
"2013-11-03 13:00","2013","11","03","13:00","0.8","","-9.5","","46","","18","","9","","","","100.66","","","","","","NA"
"2013-11-03 14:00","2013","11","03","14:00","1.0","","-9.7","","45","","18","","13","","","","100.69","","","","","","NA"
"2013-11-03 15:00","2013","11","03","15:00","1.9","","-8.4","","46","","19","","9","","","","100.74","","","","","","NA"
"2013-11-03 16:00","2013","11","03","16:00","1.8","","-9.5","","43","","16","","6","","","","100.76","","","","","","NA"
"2013-11-03 17:00","2013","11","03","17:00","1.5","","-9.0","","46","","13","","7","","","","100.76","","","","","","NA"
"2013-11-03 18:00","2013","11","03","18:00","1.6","","-8.6","","47","","14","","7","","","","100.80","","","","","","NA"
"2013-11-03 19:00","2013","11","03","19:00","2.0","","-8.5","","46","","14","","15","","","","100.82","","","","","","NA"
"2013-11-03 20:00","2013","11","03","20:00","0.7","","-6.9","","57","","10","","6","","","","100.87","","","","","","NA"
"2013-11-03 21:00","2013","11","03","21:00","0.8","","-6.6","","58","","7","","7","","","","100.92","","","","","","NA"
"2013-11-03 22:00","2013","11","03","22:00","1.4","","-6.3","","56","","12","","6","","","","100.92","","","","","","NA"
"2013-11-03 23:00","2013","11","03","23:00","0.3","","-5.8","","64","","7","","7","","","","100.95","","","","","","NA"
"2013-11-04 00:00","2013","11","04","00:00","-0.1","","-5.2","","68","","7","","6","","","","100.99","","","","-2","","NA"
"2013-11-04 01:00","2013","11","04","01:00","-0.4","","-5.7","","67","","6","","6","","","","101.00","","","","-2","","NA"
"2013-11-04 02:00","2013","11","04","02:00","4.0","","-4.5","","54","","15","","26","","","","101.01","","","","","","NA"
"2013-11-04 03:00","2013","11","04","03:00","4.2","","-4.1","","55","","16","","26","","","","101.02","","","","","","NA"
"2013-11-04 04:00","2013","11","04","04:00","4.0","","-3.6","","58","","18","","24","","","","101.04","","","","","","NA"
"2013-11-04 05:00","2013","11","04","05:00","4.0","","-3.8","","57","","17","","24","","","","101.01","","","","","","NA"
"2013-11-04 06:00","2013","11","04","06:00","4.3","","-3.4","","57","","17","","28","","","","101.03","","","","","","NA"
"2013-11-04 07:00","2013","11","04","07:00","4.3","","-4.1","","54","","17","","30","","","","101.06","","","","","","NA"
"2013-11-04 08:00","2013","11","04","08:00","4.2","","-4.2","","54","","18","","30","","","","101.12","","","","","","NA"
"2013-11-04 09:00","2013","11","04","09:00","4.3","","-4.8","","52","","16","","35","","","","101.08","","","","","","NA"
"2013-11-04 10:00","2013","11","04","10:00","4.4","","-4.4","","53","","16","","37","","","","101.07","","","","","","NA"
"2013-11-04 11:00","2013","11","04","11:00","4.5","","-4.3","","53","","15","","39","","","","101.06","","","","","","NA"
"2013-11-04 12:00","2013","11","04","12:00","4.9","","-2.9","","57","","16","","37","","","","100.98","","","","","","NA"
"2013-11-04 13:00","2013","11","04","13:00","4.9","","-1.8","","62","","15","","39","","","","100.90","","","","","","NA"
"2013-11-04 14:00","2013","11","04","14:00","4.9","","-1.4","","64","","15","","43","","","","100.84","","","","","","NA"
"2013-11-04 15:00","2013","11","04","15:00","5.1","","-1.5","","62","","15","","44","","","","100.72","","","","","","NA"
"2013-11-04 16:00","2013","11","04","16:00","5.5","","-1.0","","63","","15","","46","","","","100.69","","","","","","NA"
"2013-11-04 17:00","2013","11","04","17:00","5.7","","-0.5","","64","","15","","44","","","","100.64","","","","","","NA"
"2013-11-04 18:00","2013","11","04","18:00","5.9","","-1.3","","60","","15","","46","","","","100.58","","","","","","NA"
"2013-11-04 19:00","2013","11","04","19:00","5.6","","-0.5","","65","","15","","48","","","","100.57","","","","","","NA"
"2013-11-04 20:00","2013","11","04","20:00","5.5","","-0.4","","66","","15","","48","","","","100.49","","","","","","NA"
"2013-11-04 21:00","2013","11","04","21:00","5.2","","-0.5","","67","","15","","50","","","","100.41","","","","","","NA"
"2013-11-04 22:00","2013","11","04","22:00","5.3","","-1.4","","62","","16","","44","","","","100.40","","","","","","NA"
"2013-11-04 23:00","2013","11","04","23:00","5.5","","-0.9","","63","","16","","46","","","","100.34","","","","","","NA"
"2013-11-05 00:00","2013","11","05","00:00","5.8","","-1.0","","62","","17","","39","","","","100.35","","","","","","NA"
"2013-11-05 01:00","2013","11","05","01:00","5.8","","-1.8","","58","","17","","35","","","","100.31","","","","","","NA"
"2013-11-05 02:00","2013","11","05","02:00","5.8","","-1.3","","60","","16","","39","","","","100.21","","","","","","NA"
"2013-11-05 03:00","2013","11","05","03:00","6.1","","-0.3","","63","","17","","37","","","","100.18","","","","","","NA"
"2013-11-05 04:00","2013","11","05","04:00","6.4","","0.9","","68","","16","","30","","","","100.15","","","","","","NA"
"2013-11-05 05:00","2013","11","05","05:00","7.2","","3.3","","76","","17","","22","","","","100.12","","","","","","NA"
"2013-11-05 06:00","2013","11","05","06:00","7.6","","4.7","","82","","20","","11","","","","100.10","","","","","","NA"
"2013-11-05 07:00","2013","11","05","07:00","7.6","","5.3","","85","","25","","6","","","","100.10","","","","","","NA"
"2013-11-05 08:00","2013","11","05","08:00","7.8","","5.9","","88","","24","","7","","","","100.13","","","","","","NA"
"2013-11-05 09:00","2013","11","05","09:00","7.9","","6.0","","88","","24","","9","","","","100.18","","","","","","NA"
"2013-11-05 10:00","2013","11","05","10:00","7.9","","6.1","","88","","23","","7","","","","100.19","","","","","","NA"
"2013-11-05 11:00","2013","11","05","11:00","8.0","","6.4","","90","","22","","7","","","","100.17","","","","","","NA"
"2013-11-05 12:00","2013","11","05","12:00","8.4","","6.5","","88","","20","","11","","","","100.18","","","","","","NA"
"2013-11-05 13:00","2013","11","05","13:00","8.6","","6.2","","85","","22","","9","","","","100.14","","","","","","NA"
"2013-11-05 14:00","2013","11","05","14:00","8.8","","6.0","","83","","22","","7","","","","100.13","","","","","","NA"
"2013-11-05 15:00","2013","11","05","15:00","8.8","","6.2","","84","","18","","11","","","","100.09","","","","","","NA"
"2013-11-05 16:00","2013","11","05","16:00","8.8","","6.5","","85","","20","","13","","","","100.08","","","","","","NA"
"2013-11-05 17:00","2013","11","05","17:00","8.6","","6.6","","87","","22","","9","","","","100.10","","","","","","NA"
"2013-11-05 18:00","2013","11","05","18:00","8.7","","6.9","","88","","20","","9","","","","100.09","","","","","","NA"
"2013-11-05 19:00","2013","11","05","19:00","8.4","","6.3","","87","","28","","7","","","","100.11","","","","","","NA"
"2013-11-05 20:00","2013","11","05","20:00","7.5","","5.8","","89","","10","","6","","","","100.03","","","","","","NA"
"2013-11-05 21:00","2013","11","05","21:00","8.0","","6.6","","91","","12","","7","","","","99.96","","","","","","NA"
"2013-11-05 22:00","2013","11","05","22:00","8.5","","7.1","","91","","17","","2","","","","99.92","","","","","","NA"
"2013-11-05 23:00","2013","11","05","23:00","8.8","","7.6","","92","","16","","11","","","","99.84","","","","","","NA"
"2013-11-06 00:00","2013","11","06","00:00","8.6","","7.2","","91","","17","","7","","","","99.74","","","","","","NA"
"2013-11-06 01:00","2013","11","06","01:00","9.0","","7.4","","90","","12","","9","","","","99.66","","","","","","NA"
"2013-11-06 02:00","2013","11","06","02:00","9.2","","7.6","","90","","14","","15","","","","99.57","","","","","","NA"
"2013-11-06 03:00","2013","11","06","03:00","8.9","","7.5","","91","","10","","7","","","","99.45","","","","","","NA"
"2013-11-06 04:00","2013","11","06","04:00","9.5","","7.4","","87","","18","","17","","","","99.35","","","","","","NA"
"2013-11-06 05:00","2013","11","06","05:00","9.6","","6.9","","83","","18","","24","","","","99.24","","","","","","NA"
"2013-11-06 06:00","2013","11","06","06:00","9.8","","6.6","","80","","18","","28","","","","99.09","","","","","","NA"
"2013-11-06 07:00","2013","11","06","07:00","9.7","","6.5","","80","","18","","28","","","","98.98","","","","","","NA"
"2013-11-06 08:00","2013","11","06","08:00","8.9","","7.5","","91","","19","","32","","","","98.86","","","","","","NA"
"2013-11-06 09:00","2013","11","06","09:00","8.6","","7.5","","93","","19","","28","","","","98.78","","","","","","NA"
"2013-11-06 10:00","2013","11","06","10:00","8.8","","7.6","","92","","19","","37","","","","98.63","","","","","","NA"
"2013-11-06 11:00","2013","11","06","11:00","9.0","","7.7","","92","","19","","33","","","","98.51","","","","","","NA"
"2013-11-06 12:00","2013","11","06","12:00","9.0","","7.8","","92","","20","","33","","","","98.40","","","","","","NA"
"2013-11-06 13:00","2013","11","06","13:00","9.1","","7.9","","92","","23","","22","","","","98.24","","","","","","NA"
"2013-11-06 14:00","2013","11","06","14:00","9.3","","8.2","","93","","23","","22","","","","98.11","","","","","","NA"
"2013-11-06 15:00","2013","11","06","15:00","9.9","","8.6","","92","","22","","30","","","","98.01","","","","","","NA"
"2013-11-06 16:00","2013","11","06","16:00","10.1","","8.9","","92","","22","","28","","","","97.95","","","","","","NA"
"2013-11-06 17:00","2013","11","06","17:00","10.6","","9.1","","90","","22","","35","","","","97.89","","","","","","NA"
"2013-11-06 18:00","2013","11","06","18:00","11.4","","9.9","","90","","23","","48","","","","97.88","","","","","","NA"
"2013-11-06 19:00","2013","11","06","19:00","9.1","","7.7","","91","","28","","20","","","","97.95","","","","","","NA"
"2013-11-06 20:00","2013","11","06","20:00","7.5","","6.1","","91","","26","","22","","","","98.04","","","","","","NA"
"2013-11-06 21:00","2013","11","06","21:00","5.0","","2.4","","83","","31","","32","","","","98.18","","","","","","NA"
"2013-11-06 22:00","2013","11","06","22:00","4.0","","0.7","","79","","32","","22","","","","98.45","","","","","","NA"
"2013-11-06 23:00","2013","11","06","23:00","3.4","","0.2","","80","","31","","15","","","","98.55","","","","","","NA"
"2013-11-07 00:00","2013","11","07","00:00","3.2","","-0.6","","76","","31","","24","","","","98.63","","","","","","NA"
"2013-11-07 01:00","2013","11","07","01:00","3.0","","-0.4","","78","","32","","20","","","","98.74","","","","","","NA"
"2013-11-07 02:00","2013","11","07","02:00","2.4","","-1.0","","78","","32","","22","","","","98.80","","","","","","NA"
"2013-11-07 03:00","2013","11","07","03:00","1.8","","-2.5","","73","","31","","24","","","","98.86","","","","","","NA"
"2013-11-07 04:00","2013","11","07","04:00","1.6","","-2.4","","75","","32","","19","","","","98.93","","","","","","NA"
"2013-11-07 05:00","2013","11","07","05:00","1.5","","-3.0","","72","","34","","15","","","","98.95","","","","","","NA"
"2013-11-07 06:00","2013","11","07","06:00","1.7","","-3.6","","68","","32","","11","","","","98.99","","","","","","NA"
"2013-11-07 07:00","2013","11","07","07:00","2.0","","-3.6","","66","","30","","9","","","","99.03","","","","","","NA"
"2013-11-07 08:00","2013","11","07","08:00","2.6","","-4.2","","61","","30","","13","","","","99.06","","","","","","NA"
"2013-11-07 09:00","2013","11","07","09:00","3.3","","-3.7","","60","","29","","17","","","","99.08","","","","","","NA"
"2013-11-07 10:00","2013","11","07","10:00","3.8","","-3.0","","61","","29","","13","","","","99.07","","","","","","NA"
"2013-11-07 11:00","2013","11","07","11:00","4.0","","-3.1","","60","","30","","19","","","","99.08","","","","","","NA"
"2013-11-07 12:00","2013","11","07","12:00","4.4","","-3.7","","56","","29","","20","","","","99.04","","","","","","NA"
"2013-11-07 13:00","2013","11","07","13:00","4.2","","-2.9","","60","","29","","22","","","","99.01","","","","","","NA"
"2013-11-07 14:00","2013","11","07","14:00","4.3","","-2.6","","61","","28","","22","","","","98.99","","","","","","NA"
"2013-11-07 15:00","2013","11","07","15:00","4.5","","-1.6","","65","","28","","15","","","","98.96","","","","","","NA"
"2013-11-07 16:00","2013","11","07","16:00","4.5","","-2.1","","62","","28","","20","","","","98.96","","","","","","NA"
"2013-11-07 17:00","2013","11","07","17:00","3.3","","-0.5","","76","","29","","26","","","","98.97","","","","","","NA"
"2013-11-07 18:00","2013","11","07","18:00","2.3","","-2.1","","73","","32","","13","","","","99.03","","","","","","NA"
"2013-11-07 19:00","2013","11","07","19:00","2.6","","-1.6","","74","","32","","13","","","","99.04","","","","","","NA"
"2013-11-07 20:00","2013","11","07","20:00","2.5","","-3.4","","65","","32","","13","","","","99.07","","","","","","NA"
"2013-11-07 21:00","2013","11","07","21:00","2.4","","-4.2","","62","","33","","11","","","","99.06","","","","","","NA"
"2013-11-07 22:00","2013","11","07","22:00","2.1","","-3.8","","65","","32","","11","","","","99.09","","","","","","NA"
"2013-11-07 23:00","2013","11","07","23:00","1.2","","-5.1","","63","","33","","13","","","","99.12","","","","","","NA"
"2013-11-08 00:00","2013","11","08","00:00","1.2","","-5.8","","60","","32","","20","","","","99.13","","","","","","NA"
"2013-11-08 01:00","2013","11","08","01:00","0.9","","-7.3","","54","","31","","19","","","","99.17","","","","","","NA"
"2013-11-08 02:00","2013","11","08","02:00","0.4","","-7.3","","56","","31","","17","","","","99.20","","","","","","NA"
"2013-11-08 03:00","2013","11","08","03:00","0.5","","-7.0","","57","","33","","13","","","","99.24","","","","","","NA"
"2013-11-08 04:00","2013","11","08","04:00","0.5","","-6.9","","58","","32","","22","","","","99.26","","","","","","NA"
"2013-11-08 05:00","2013","11","08","05:00","0.6","","-8.1","","52","","31","","19","","","","99.31","","","","","","NA"
"2013-11-08 06:00","2013","11","08","06:00","0.6","","-7.7","","54","","31","","19","","","","99.36","","","","","","NA"
"2013-11-08 07:00","2013","11","08","07:00","0.5","","-7.9","","53","","32","","20","","","","99.41","","","","","","NA"
"2013-11-08 08:00","2013","11","08","08:00","0.5","","-7.4","","55","","31","","22","","","","99.49","","","","","","NA"
"2013-11-08 09:00","2013","11","08","09:00","0.9","","-7.2","","55","","31","","24","","","","99.54","","","","","","NA"
"2013-11-08 10:00","2013","11","08","10:00","1.3","","-6.9","","54","","30","","22","","","","99.59","","","","","","NA"
"2013-11-08 11:00","2013","11","08","11:00","2.0","","-7.5","","49","","31","","22","","","","99.62","","","","","","NA"
"2013-11-08 12:00","2013","11","08","12:00","3.2","","-8.6","","42","","32","","22","","","","99.62","","","","","","NA"
"2013-11-08 13:00","2013","11","08","13:00","4.3","","-9.1","","37","","30","","17","","","","99.58","","","","","","NA"
"2013-11-08 14:00","2013","11","08","14:00","4.7","","-9.3","","35","","29","","26","","","","99.57","","","","","","NA"
"2013-11-08 15:00","2013","11","08","15:00","5.2","","-8.8","","36","","28","","28","","","","99.60","","","","","","NA"
"2013-11-08 16:00","2013","11","08","16:00","3.9","","-5.7","","50","","27","","32","","","","99.65","","","","","","NA"
"2013-11-08 17:00","2013","11","08","17:00","3.9","","-4.9","","53","","28","","20","","","","99.69","","","","","","NA"
"2013-11-08 18:00","2013","11","08","18:00","3.9","","-5.9","","49","","30","","13","","","","99.74","","","","","","NA"
"2013-11-08 19:00","2013","11","08","19:00","3.9","","-5.6","","50","","28","","17","","","","99.78","","","","","","NA"
"2013-11-08 20:00","2013","11","08","20:00","3.5","","-5.3","","52","","33","","6","","","","99.78","","","","","","NA"
"2013-11-08 21:00","2013","11","08","21:00","2.8","","-5.7","","54","","3","","6","","","","99.77","","","","","","NA"
"2013-11-08 22:00","2013","11","08","22:00","2.9","","-6.9","","48","","36","","6","","","","99.77","","","","","","NA"
"2013-11-08 23:00","2013","11","08","23:00","3.2","","-1.9","","69","","26","","11","","","","99.77","","","","","","NA"
"2013-11-09 00:00","2013","11","09","00:00","3.4","","-2.5","","65","","27","","9","","","","99.74","","","","","","NA"
"2013-11-09 01:00","2013","11","09","01:00","3.4","","-3.3","","61","","28","","4","","","","99.71","","","","","","NA"
"2013-11-09 02:00","2013","11","09","02:00","1.9","","-4.1","","64","","6","","7","","","","99.64","","","","","","NA"
"2013-11-09 03:00","2013","11","09","03:00","1.9","","-3.9","","65","","6","","9","","","","99.59","","","","","","NA"
"2013-11-09 04:00","2013","11","09","04:00","1.6","","-3.8","","67","","6","","9","","","","99.50","","","","","","NA"
"2013-11-09 05:00","2013","11","09","05:00","2.8","","-1.6","","73","","9","","9","","","","99.41","","","","","","NA"
"2013-11-09 06:00","2013","11","09","06:00","5.4","","-0.1","","68","","15","","35","","","","99.30","","","","","","NA"
"2013-11-09 07:00","2013","11","09","07:00","3.5","","1.1","","84","","19","","37","","","","99.21","","","","","","NA"
"2013-11-09 08:00","2013","11","09","08:00","3.7","","1.3","","84","","15","","33","","","","99.09","","","","","","NA"
"2013-11-09 09:00","2013","11","09","09:00","3.8","","1.3","","84","","15","","39","","","","98.99","","","","","","NA"
"2013-11-09 10:00","2013","11","09","10:00","4.8","","1.3","","78","","15","","46","","","","98.86","","","","","","NA"
"2013-11-09 11:00","2013","11","09","11:00","5.6","","1.4","","74","","15","","50","","","","98.68","","","","","","NA"
"2013-11-09 12:00","2013","11","09","12:00","5.5","","2.5","","81","","16","","46","","","","98.54","","","","","","NA"
"2013-11-09 13:00","2013","11","09","13:00","5.6","","3.2","","85","","16","","43","","","","98.36","","","","","","NA"
"2013-11-09 14:00","2013","11","09","14:00","6.4","","3.8","","83","","17","","37","","","","98.27","","","","","","NA"
"2013-11-09 15:00","2013","11","09","15:00","7.0","","4.3","","83","","17","","37","","","","98.21","","","","","","NA"
"2013-11-09 16:00","2013","11","09","16:00","7.3","","4.2","","81","","18","","37","","","","98.14","","","","","","NA"
"2013-11-09 17:00","2013","11","09","17:00","7.3","","5.5","","88","","19","","30","","","","98.11","","","","","","NA"
"2013-11-09 18:00","2013","11","09","18:00","7.3","","5.6","","89","","20","","24","","","","98.10","","","","","","NA"
"2013-11-09 19:00","2013","11","09","19:00","7.4","","5.7","","89","","21","","26","","","","98.04","","","","","","NA"
"2013-11-09 20:00","2013","11","09","20:00","7.1","","5.1","","87","","26","","26","","","","98.01","","","","","","NA"
"2013-11-09 21:00","2013","11","09","21:00","6.6","","4.2","","85","","27","","24","","","","98.02","","","","","","NA"
"2013-11-09 22:00","2013","11","09","22:00","5.6","","3.1","","84","","27","","28","","","","98.04","","","","","","NA"
"2013-11-09 23:00","2013","11","09","23:00","5.1","","3.1","","87","","27","","24","","","","98.05","","","","","","NA"
"2013-11-10 00:00","2013","11","10","00:00","5.0","","2.7","","85","","27","","32","","","","98.06","","","","","","NA"
"2013-11-10 01:00","2013","11","10","01:00","4.7","","2.5","","86","","27","","30","","","","98.07","","","","","","NA"
"2013-11-10 02:00","2013","11","10","02:00","4.8","","2.1","","83","","27","","26","","","","98.06","","","","","","NA"
"2013-11-10 03:00","2013","11","10","03:00","5.0","","2.5","","84","","26","","26","","","","98.02","","","","","","NA"
"2013-11-10 04:00","2013","11","10","04:00","4.6","","2.7","","87","","27","","26","","","","97.98","","","","","","NA"
"2013-11-10 05:00","2013","11","10","05:00","5.3","","2.4","","82","","29","","32","","","","98.01","","","","","","NA"
"2013-11-10 06:00","2013","11","10","06:00","4.9","","1.5","","79","","30","","26","","","","98.09","","","","","","NA"
"2013-11-10 07:00","2013","11","10","07:00","3.8","","0.8","","81","","30","","32","","","","98.16","","","","","","NA"
"2013-11-10 08:00","2013","11","10","08:00","3.0","","-0.4","","78","","31","","26","","","","98.30","","","","","","NA"
"2013-11-10 09:00","2013","11","10","09:00","2.3","","-0.4","","82","","32","","26","","","","98.42","","","","","","NA"
"2013-11-10 10:00","2013","11","10","10:00","2.1","","-1.8","","75","","31","","26","","","","98.55","","","","","","NA"
"2013-11-10 11:00","2013","11","10","11:00","2.3","","-2.8","","69","","32","","26","","","","98.71","","","","","","NA"
"2013-11-10 12:00","2013","11","10","12:00","2.2","","-2.9","","69","","31","","26","","","","98.85","","","","","","NA"
"2013-11-10 13:00","2013","11","10","13:00","2.4","","-2.8","","68","","31","","30","","","","98.93","","","","","","NA"
"2013-11-10 14:00","2013","11","10","14:00","2.8","","-2.8","","67","","32","","28","","","","99.05","","","","","","NA"
"2013-11-10 15:00","2013","11","10","15:00","2.6","","-3.3","","65","","32","","24","","","","99.21","","","","","","NA"
"2013-11-10 16:00","2013","11","10","16:00","2.2","","-4.8","","60","","32","","30","","","","99.35","","","","","","NA"
"2013-11-10 17:00","2013","11","10","17:00","2.1","","-4.2","","63","","32","","19","","","","99.45","","","","","","NA"
"2013-11-10 18:00","2013","11","10","18:00","2.0","","-4.8","","61","","32","","19","","","","99.52","","","","","","NA"
"2013-11-10 19:00","2013","11","10","19:00","1.6","","-5.5","","59","","33","","20","","","","99.60","","","","","","NA"
"2013-11-10 20:00","2013","11","10","20:00","1.5","","-4.9","","62","","32","","11","","","","99.64","","","","","","NA"
"2013-11-10 21:00","2013","11","10","21:00","1.4","","-4.6","","64","","32","","7","","","","99.65","","","","","","NA"
"2013-11-10 22:00","2013","11","10","22:00","2.1","","-4.4","","62","","29","","9","","","","99.62","","","","","","NA"
"2013-11-10 23:00","2013","11","10","23:00","2.6","","-3.7","","63","","30","","9","","","","99.58","","","","","","NA"
"2013-11-11 00:00","2013","11","11","00:00","3.3","","-2.9","","64","","26","","11","","","","99.49","","","","","","NA"
"2013-11-11 01:00","2013","11","11","01:00","3.7","","-2.1","","66","","23","","20","","","","99.42","","","","","","NA"
"2013-11-11 02:00","2013","11","11","02:00","4.0","","-1.2","","69","","22","","30","","","","99.33","","","","","","NA"
"2013-11-11 03:00","2013","11","11","03:00","5.1","","0.1","","70","","22","","43","","","","99.15","","","","","","NA"
"2013-11-11 04:00","2013","11","11","04:00","5.4","","0.7","","72","","23","","44","","","","99.00","","","","","","NA"
"2013-11-11 05:00","2013","11","11","05:00","5.5","","1.4","","75","","23","","39","","","","98.91","","","","","","NA"
"2013-11-11 06:00","2013","11","11","06:00","4.3","","1.7","","83","","26","","26","","","","98.85","","","","","","NA"
"2013-11-11 07:00","2013","11","11","07:00","3.9","","1.3","","83","","25","","30","","","","98.78","","","","","","NA"
"2013-11-11 08:00","2013","11","11","08:00","3.2","","1.4","","88","","27","","22","","","","98.77","","","","","","NA"
"2013-11-11 09:00","2013","11","11","09:00","3.4","","1.0","","84","","29","","28","","","","98.72","","","","","","NA"
"2013-11-11 10:00","2013","11","11","10:00","1.1","","-1.3","","84","","31","","32","","","","98.81","","","","","","NA"
"2013-11-11 11:00","2013","11","11","11:00","0.3","","-5.6","","65","","31","","30","","","","98.89","","","","","","NA"
"2013-11-11 12:00","2013","11","11","12:00","0.1","","-4.5","","71","","32","","20","","","","98.92","","","","","","NA"
"2013-11-11 13:00","2013","11","11","13:00","-1.3","","-8.4","","58","","33","","24","","","","98.97","","","","-7","","NA"
"2013-11-11 14:00","2013","11","11","14:00","-0.5","","-10.8","","46","","33","","22","","","","99.08","","","","-6","","NA"
"2013-11-11 15:00","2013","11","11","15:00","-1.7","","-11.3","","48","","33","","26","","","","99.21","","","","-8","","NA"
"2013-11-11 16:00","2013","11","11","16:00","-2.5","","-11.7","","49","","34","","20","","","","99.32","","","","-8","","NA"
"2013-11-11 17:00","2013","11","11","17:00","-3.0","","-11.8","","51","","33","","20","","","","99.42","","","","-9","","NA"
"2013-11-11 18:00","2013","11","11","18:00","-3.4","","-11.6","","53","","33","","17","","","","99.52","","","","-9","","NA"
"2013-11-11 19:00","2013","11","11","19:00","-3.7","","-10.5","","59","","32","","13","","","","99.61","","","","-9","","NA"
"2013-11-11 20:00","2013","11","11","20:00","-4.4","","-11.3","","59","","33","","22","","","","99.70","","","","-11","","NA"
"2013-11-11 21:00","2013","11","11","21:00","-5.1","","-11.0","","63","","32","","20","","","","99.77","","","","-12","","NA"
"2013-11-11 22:00","2013","11","11","22:00","-5.2","","-11.7","","60","","34","","20","","","","99.86","","","","-12","","NA"
"2013-11-11 23:00","2013","11","11","23:00","-5.0","","-11.7","","59","","34","","17","","","","99.94","","","","-11","","NA"
"2013-11-12 00:00","2013","11","12","00:00","-5.4","","-11.5","","62","","33","","15","","","","100.02","","","","-11","","NA"
"2013-11-12 01:00","2013","11","12","01:00","-5.6","","-11.5","","63","","32","","24","","","","100.06","","","","-13","","NA"
"2013-11-12 02:00","2013","11","12","02:00","-6.2","","-11.6","","66","","33","","24","","","","100.12","","","","-14","","NA"
"2013-11-12 03:00","2013","11","12","03:00","-6.5","","-11.7","","67","","32","","22","","","","100.20","","","","-14","","NA"
"2013-11-12 04:00","2013","11","12","04:00","-6.6","","-12.1","","65","","32","","20","","","","100.28","","","","-14","","NA"
"2013-11-12 05:00","2013","11","12","05:00","-6.4","","-11.7","","66","","32","","13","","","","100.37","","","","-12","","NA"
"2013-11-12 06:00","2013","11","12","06:00","-6.1","","-11.8","","64","","34","","17","","","","100.41","","","","-12","","NA"
"2013-11-12 07:00","2013","11","12","07:00","-6.4","","-13.6","","57","","35","","17","","","","100.48","","","","-13","","NA"
"2013-11-12 08:00","2013","11","12","08:00","-6.5","","-13.2","","59","","32","","17","","","","100.56","","","","-13","","NA"
"2013-11-12 09:00","2013","11","12","09:00","-6.4","","-14.6","","52","","34","","19","","","","100.60","","","","-13","","NA"
"2013-11-12 10:00","2013","11","12","10:00","-5.7","","-13.9","","52","","35","","17","","","","100.62","","","","-12","","NA"
"2013-11-12 11:00","2013","11","12","11:00","-5.5","","-14.2","","50","","33","","17","","","","100.63","","","","-12","","NA"
"2013-11-12 12:00","2013","11","12","12:00","-5.4","","-14.3","","50","","30","","22","","","","100.60","","","","-12","","NA"
"2013-11-12 13:00","2013","11","12","13:00","-4.6","","-15.3","","43","","33","","19","","","","100.57","","","","-11","","NA"
"2013-11-12 14:00","2013","11","12","14:00","-3.5","","-14.0","","44","","30","","17","","","","100.54","","","","-9","","NA"
"2013-11-12 15:00","2013","11","12","15:00","-3.9","","-15.2","","41","","32","","19","","","","100.53","","","","-10","","NA"
"2013-11-12 16:00","2013","11","12","16:00","-4.0","","-16.0","","39","","31","","20","","","","100.52","","","","-10","","NA"
"2013-11-12 17:00","2013","11","12","17:00","-4.5","","-15.3","","43","","32","","11","","","","100.55","","","","-9","","NA"
"2013-11-12 18:00","2013","11","12","18:00","-4.7","","-14.2","","47","","32","","7","","","","100.57","","","","-8","","NA"
"2013-11-12 19:00","2013","11","12","19:00","-4.3","","-15.6","","41","","32","","9","","","","100.58","","","","-8","","NA"
"2013-11-12 20:00","2013","11","12","20:00","-4.4","","-15.8","","41","","32","","11","","","","100.57","","","","-9","","NA"
"2013-11-12 21:00","2013","11","12","21:00","-4.3","","-15.6","","41","","32","","11","","","","100.55","","","","-9","","NA"
"2013-11-12 22:00","2013","11","12","22:00","-3.5","","-11.2","","55","","32","","15","","","","100.55","","","","-9","","NA"
"2013-11-12 23:00","2013","11","12","23:00"
"2013-11-13 00:00","2013","11","13","00:00","-2.7","","-8.4","","65","","33","","9","","","","100.48","","","","-6","","NA"
"2013-11-13 01:00","2013","11","13","01:00","-2.8","","-7.5","","70","","35","","6","","","","100.43","","","","-5","","NA"
"2013-11-13 02:00","2013","11","13","02:00","-0.6","","-5.1","","72","","27","","20","","","","100.36","","","","-6","","NA"
"2013-11-13 03:00","2013","11","13","03:00","0.0","","-5.0","","69","","27","","19","","","","100.30","","","","-5","","NA"
"2013-11-13 04:00","2013","11","13","04:00","0.2","","-5.1","","67","","26","","22","","","","100.22","","","","","","NA"
"2013-11-13 05:00","2013","11","13","05:00","0.5","","-6.0","","62","","26","","24","","","","100.19","","","","","","NA"
"2013-11-13 06:00","2013","11","13","06:00","0.6","","-6.6","","58","","25","","26","","","","100.15","","","","","","NA"
"2013-11-13 07:00","2013","11","13","07:00","0.4","","-7.0","","58","","25","","24","","","","100.12","","","","","","NA"
"2013-11-13 08:00","2013","11","13","08:00","0.3","","-6.5","","60","","27","","28","","","","100.07","","","","","","NA"
"2013-11-13 09:00","2013","11","13","09:00","0.6","","-5.8","","62","","25","","30","","","","100.00","","","","","","NA"
"2013-11-13 10:00","2013","11","13","10:00","1.0","","-5.2","","63","","25","","32","","","","99.96","","","","","","NA"
"2013-11-13 11:00","2013","11","13","11:00","1.4","","-4.7","","64","","25","","33","","","","99.86","","","","","","NA"
"2013-11-13 12:00","2013","11","13","12:00","1.6","","-4.1","","66","","25","","28","","","","99.71","","","","","","NA"
"2013-11-13 13:00","2013","11","13","13:00","1.9","","-3.5","","67","","25","","30","","","","99.59","","","","","","NA"
"2013-11-13 14:00","2013","11","13","14:00","1.7","","-3.3","","69","","24","","30","","","","99.46","","","","","","NA"
"2013-11-13 15:00","2013","11","13","15:00","2.5","","-4.2","","61","","25","","28","","","","99.38","","","","","","NA"
"2013-11-13 16:00","2013","11","13","16:00","3.6","","-4.5","","55","","23","","39","","","","99.20","","","","","","NA"
"2013-11-13 17:00","2013","11","13","17:00","4.6","","-3.0","","58","","23","","39","","","","99.03","","","","","","NA"
"2013-11-13 18:00","2013","11","13","18:00","5.4","","-4.0","","51","","24","","35","","","","98.92","","","","","","NA"
"2013-11-13 19:00","2013","11","13","19:00","5.8","","-4.6","","47","","24","","43","","","","98.82","","","","","","NA"
"2013-11-13 20:00","2013","11","13","20:00","5.6","","-5.0","","46","","24","","41","","","","98.75","","","","","","NA"
"2013-11-13 21:00","2013","11","13","21:00","5.4","","-3.9","","51","","25","","35","","","","98.72","","","","","","NA"
"2013-11-13 22:00","2013","11","13","22:00","5.3","","-4.2","","50","","25","","37","","","","98.73","","","","","","NA"
"2013-11-13 23:00","2013","11","13","23:00","5.0","","-3.5","","54","","25","","35","","","","98.68","","","","","","NA"
"2013-11-14 00:00","2013","11","14","00:00","4.9","","-2.5","","59","","25","","32","","","","98.69","","","","","","NA"
"2013-11-14 01:00","2013","11","14","01:00","5.1","","-1.6","","62","","25","","30","","","","98.66","","","","","","NA"
"2013-11-14 02:00","2013","11","14","02:00","5.3","","-0.8","","65","","25","","32","","","","98.66","","","","","","NA"
"2013-11-14 03:00","2013","11","14","03:00","5.3","","-0.6","","66","","26","","28","","","","98.67","","","","","","NA"
"2013-11-14 04:00","2013","11","14","04:00","5.2","","-0.5","","67","","26","","32","","","","98.66","","","","","","NA"
"2013-11-14 05:00","2013","11","14","05:00","5.1","","-0.7","","66","","26","","28","","","","98.70","","","","","","NA"
"2013-11-14 06:00","2013","11","14","06:00","4.9","","-0.6","","68","","26","","22","","","","98.72","","","","","","NA"
"2013-11-14 07:00","2013","11","14","07:00","4.9","","-1.1","","65","","25","","32","","","","98.74","","","","","","NA"
"2013-11-14 08:00","2013","11","14","08:00","4.9","","-1.2","","65","","24","","28","","","","98.81","","","","","","NA"
"2013-11-14 09:00","2013","11","14","09:00","5.1","","-1.4","","63","","24","","28","","","","98.79","","","","","","NA"
"2013-11-14 10:00","2013","11","14","10:00","5.6","","-1.1","","62","","24","","32","","","","98.79","","","","","","NA"
"2013-11-14 11:00","2013","11","14","11:00","6.1","","-0.9","","61","","25","","26","","","","98.81","","","","","","NA"
"2013-11-14 12:00","2013","11","14","12:00","6.0","","-1.1","","60","","24","","30","","","","98.72","","","","","","NA"
"2013-11-14 13:00","2013","11","14","13:00","6.0","","-1.1","","60","","25","","22","","","","98.70","","","","","","NA"
"2013-11-14 14:00","2013","11","14","14:00","5.7","","-0.2","","66","","23","","33","","","","98.69","","","","","","NA"
"2013-11-14 15:00","2013","11","14","15:00","5.7","","-0.4","","65","","24","","22","","","","98.74","","","","","","NA"
"2013-11-14 16:00","2013","11","14","16:00","5.8","","-0.7","","63","","24","","19","","","","98.73","","","","","","NA"
"2013-11-14 17:00","2013","11","14","17:00","5.6","","1.4","","74","","23","","24","","","","98.71","","","","","","NA"
"2013-11-14 18:00","2013","11","14","18:00","5.8","","1.9","","76","","22","","26","","","","98.73","","","","","","NA"
"2013-11-14 19:00","2013","11","14","19:00","5.9","","2.1","","77","","22","","22","","","","98.73","","","","","","NA"
"2013-11-14 20:00","2013","11","14","20:00","6.1","","3.0","","80","","23","","19","","","","98.72","","","","","","NA"
"2013-11-14 21:00","2013","11","14","21:00","6.4","","2.3","","75","","26","","17","","","","98.71","","","","","","NA"
"2013-11-14 22:00","2013","11","14","22:00","6.4","","2.6","","77","","24","","13","","","","98.65","","","","","","NA"
"2013-11-14 23:00","2013","11","14","23:00","6.4","","2.7","","77","","25","","13","","","","98.69","","","","","","NA"
"2013-11-15 00:00","2013","11","15","00:00","6.2","","1.4","","71","","27","","24","","","","98.72","","","","","","NA"
"2013-11-15 01:00","2013","11","15","01:00","5.1","","2.0","","80","","26","","22","","","","98.75","","","","","","NA"
"2013-11-15 02:00","2013","11","15","02:00","5.0","","1.9","","80","","26","","17","","","","98.79","","","","","","NA"
"2013-11-15 03:00","2013","11","15","03:00","5.3","","2.2","","80","","25","","15","","","","98.81","","","","","","NA"
"2013-11-15 04:00","2013","11","15","04:00","5.4","","2.0","","79","","25","","15","","","","98.82","","","","","","NA"
"2013-11-15 05:00","2013","11","15","05:00","5.5","","2.8","","83","","23","","19","","","","98.82","","","","","","NA"
"2013-11-15 06:00","2013","11","15","06:00","5.7","","2.8","","82","","22","","22","","","","98.81","","","","","","NA"
"2013-11-15 07:00","2013","11","15","07:00","5.8","","2.6","","80","","22","","26","","","","98.86","","","","","","NA"
"2013-11-15 08:00","2013","11","15","08:00","5.9","","2.6","","79","","23","","22","","","","98.91","","","","","","NA"
"2013-11-15 09:00","2013","11","15","09:00","6.0","","2.9","","80","","24","","19","","","","98.95","","","","","","NA"
"2013-11-15 10:00","2013","11","15","10:00","6.2","","3.1","","81","","22","","15","","","","98.96","","","","","","NA"
"2013-11-15 11:00","2013","11","15","11:00","7.0","","2.0","","70","","25","","19","","","","98.98","","","","","","NA"
"2013-11-15 12:00","2013","11","15","12:00","7.3","","2.5","","72","","23","","20","","","","98.96","","","","","","NA"
"2013-11-15 13:00","2013","11","15","13:00","7.3","","2.7","","73","","23","","17","","","","98.92","","","","","","NA"
"2013-11-15 14:00","2013","11","15","14:00","7.5","","3.0","","73","","21","","13","","","","98.91","","","","","","NA"
"2013-11-15 15:00","2013","11","15","15:00","7.6","","3.7","","76","","22","","9","","","","98.93","","","","","","NA"
"2013-11-15 16:00","2013","11","15","16:00","6.9","","4.2","","83","","19","","19","","","","98.95","","","","","","NA"
"2013-11-15 17:00","2013","11","15","17:00","6.9","","3.5","","79","","22","","20","","","","99.00","","","","","","NA"
"2013-11-15 18:00","2013","11","15","18:00","6.3","","3.2","","81","","22","","22","","","","99.06","","","","","","NA"
"2013-11-15 19:00","2013","11","15","19:00","5.9","","3.4","","84","","25","","6","","","","99.10","","","","","","NA"
"2013-11-15 20:00","2013","11","15","20:00","5.4","","3.3","","86","","","","0","","","","99.13","","","","","","NA"
"2013-11-15 21:00","2013","11","15","21:00","5.7","","3.0","","83","","22","","2","","","","99.15","","","","","","NA"
"2013-11-15 22:00","2013","11","15","22:00","5.9","","3.0","","82","","8","","2","","","","99.16","","","","","","NA"
"2013-11-15 23:00","2013","11","15","23:00","5.8","","3.2","","83","","10","","7","","","","99.19","","","","","","NA"
"2013-11-16 00:00","2013","11","16","00:00","5.4","","2.9","","84","","10","","6","","","","99.23","","","","","","NA"
"2013-11-16 01:00","2013","11","16","01:00","5.1","","3.0","","86","","","","0","","","","99.23","","","","","","NA"
"2013-11-16 02:00","2013","11","16","02:00","5.0","","3.1","","87","","10","","4","","","","99.26","","","","","","NA"
"2013-11-16 03:00","2013","11","16","03:00","5.3","","3.2","","86","","15","","4","","","","99.30","","","","","","NA"
"2013-11-16 04:00","2013","11","16","04:00","5.1","","3.1","","87","","21","","7","","","","99.33","","","","","","NA"
"2013-11-16 05:00","2013","11","16","05:00","5.8","","3.4","","85","","22","","7","","","","99.34","","","","","","NA"
"2013-11-16 06:00","2013","11","16","06:00","6.1","","3.4","","83","","19","","7","","","","99.35","","","","","","NA"
"2013-11-16 07:00","2013","11","16","07:00","6.6","","4.1","","84","","15","","13","","","","99.38","","","","","","NA"
"2013-11-16 08:00","2013","11","16","08:00","6.8","","4.2","","83","","19","","17","","","","99.51","","","","","","NA"
"2013-11-16 09:00","2013","11","16","09:00","6.8","","3.9","","82","","16","","11","","","","99.48","","","","","","NA"
"2013-11-16 10:00","2013","11","16","10:00","6.9","","4.2","","83","","15","","11","","","","99.45","","","","","","NA"
"2013-11-16 11:00","2013","11","16","11:00","6.9","","4.3","","83","","15","","20","","","","99.45","","","","","","NA"
"2013-11-16 12:00","2013","11","16","12:00","6.8","","4.9","","88","","14","","22","","","","99.36","","","","","","NA"
"2013-11-16 13:00","2013","11","16","13:00","6.8","","4.8","","87","","11","","20","","","","99.28","","","","","","NA"
"2013-11-16 14:00","2013","11","16","14:00","6.8","","4.2","","83","","14","","22","","","","99.27","","","","","","NA"
"2013-11-16 15:00","2013","11","16","15:00","7.1","","4.3","","82","","12","","20","","","","99.18","","","","","","NA"
"2013-11-16 16:00","2013","11","16","16:00","7.4","","4.9","","84","","11","","15","","","","99.11","","","","","","NA"
"2013-11-16 17:00","2013","11","16","17:00","7.8","","5.3","","84","","13","","22","","","","99.03","","","","","","NA"
"2013-11-16 18:00","2013","11","16","18:00","8.3","","5.6","","83","","14","","22","","","","98.99","","","","","","NA"
"2013-11-16 19:00","2013","11","16","19:00","8.6","","5.8","","83","","13","","32","","","","98.91","","","","","","NA"
"2013-11-16 20:00","2013","11","16","20:00","8.3","","5.8","","84","","13","","35","","","","98.88","","","","","","NA"
"2013-11-16 21:00","2013","11","16","21:00","8.3","","5.8","","84","","14","","32","","","","98.81","","","","","","NA"
"2013-11-16 22:00","2013","11","16","22:00","8.0","","5.9","","87","","14","","30","","","","98.70","","","","","","NA"
"2013-11-16 23:00","2013","11","16","23:00","8.4","","5.7","","83","","14","","44","","","","98.57","","","","","","NA"
"2013-11-17 00:00","2013","11","17","00:00","8.3","","5.4","","82","","14","","41","","","","98.52","","","","","","NA"
"2013-11-17 01:00","2013","11","17","01:00","8.3","","5.8","","84","","15","","35","","","","98.52","","","","","","NA"
"2013-11-17 02:00","2013","11","17","02:00","8.3","","6.3","","87","","15","","35","","","","98.38","","","","","","NA"
"2013-11-17 03:00","2013","11","17","03:00","8.1","","6.6","","90","","15","","30","","","","98.30","","","","","","NA"
"2013-11-17 04:00","2013","11","17","04:00","8.2","","7.1","","93","","14","","28","","","","98.14","","","","","","NA"
"2013-11-17 05:00","2013","11","17","05:00","8.9","","7.9","","93","","19","","24","","","","98.13","","","","","","NA"
"2013-11-17 06:00","2013","11","17","06:00","8.8","","7.8","","93","","19","","15","","","","98.09","","","","","","NA"
"2013-11-17 07:00","2013","11","17","07:00","8.8","","7.7","","93","","18","","15","","","","98.06","","","","","","NA"
"2013-11-17 08:00","2013","11","17","08:00","9.4","","8.1","","92","","18","","32","","","","98.00","","","","","","NA"
"2013-11-17 09:00","2013","11","17","09:00","8.8","","7.7","","93","","17","","17","","","","97.98","","","","","","NA"
"2013-11-17 10:00","2013","11","17","10:00","8.7","","7.7","","93","","15","","15","","","","97.98","","","","","","NA"
"2013-11-17 11:00","2013","11","17","11:00","8.9","","7.9","","93","","22","","7","","","","97.94","","","","","","NA"
"2013-11-17 12:00","2013","11","17","12:00","9.0","","8.0","","93","","16","","19","","","","97.80","","","","","","NA"
"2013-11-17 13:00","2013","11","17","13:00","9.1","","8.1","","93","","16","","28","","","","97.63","","","","","","NA"
"2013-11-17 14:00","2013","11","17","14:00","9.0","","7.8","","92","","15","","22","","","","97.49","","","","","","NA"
"2013-11-17 15:00","2013","11","17","15:00","9.2","","8.2","","93","","14","","32","","","","97.32","","","","","","NA"
"2013-11-17 16:00","2013","11","17","16:00","9.5","","8.2","","92","","13","","43","","","","97.15","","","","","","NA"
"2013-11-17 17:00","2013","11","17","17:00","9.6","","8.2","","91","","14","","39","","","","97.03","","","","","","NA"
"2013-11-17 18:00","2013","11","17","18:00","9.8","","8.3","","90","","14","","43","","","","96.82","","","","","","NA"
"2013-11-17 19:00","2013","11","17","19:00","9.9","","8.6","","92","","14","","52","","","","96.49","","","","","","NA"
"2013-11-17 20:00","2013","11","17","20:00","10.1","","9.0","","93","","14","","52","","","","96.29","","","","","","NA"
"2013-11-17 21:00","2013","11","17","21:00","9.1","","8.0","","93","","16","","28","","","","96.20","","","","","","NA"
"2013-11-17 22:00","2013","11","17","22:00","9.7","","8.5","","92","","16","","28","","","","96.02","","","","","","NA"
"2013-11-17 23:00","2013","11","17","23:00","8.5","","7.4","","93","","16","","24","","","","95.90","","","","","","NA"
"2013-11-18 00:00","2013","11","18","00:00","8.8","","7.5","","92","","18","","32","","","","95.76","","","","","","NA"
"2013-11-18 01:00","2013","11","18","01:00","8.9","","6.5","","85","","26","","37","","","","95.73","","","","","","NA"
"2013-11-18 02:00","2013","11","18","02:00","7.8","","5.2","","84","","28","","63","","","","95.79","","","","","","NA"
"2013-11-18 03:00","2013","11","18","03:00","7.7","","4.4","","80","","27","","52","","","","96.06","","","","","","NA"
"2013-11-18 04:00","2013","11","18","04:00","6.9","","3.2","","77","","27","","61","","","","96.25","","","","","","NA"
"2013-11-18 05:00","2013","11","18","05:00","5.4","","2.8","","83","","27","","52","","","","96.45","","","","","","NA"
"2013-11-18 06:00","2013","11","18","06:00","5.1","","-0.3","","68","","27","","59","","","","96.60","","","","","","NA"
"2013-11-18 07:00","2013","11","18","07:00","4.7","","-0.2","","71","","27","","50","","","","96.72","","","","","","NA"
"2013-11-18 08:00","2013","11","18","08:00","4.3","","-1.5","","66","","26","","48","","","","96.84","","","","","","NA"
"2013-11-18 09:00","2013","11","18","09:00","4.3","","-1.7","","65","","27","","54","","","","96.91","","","","","","NA"
"2013-11-18 10:00","2013","11","18","10:00","4.0","","-2.5","","63","","27","","54","","","","96.98","","","","","","NA"
"2013-11-18 11:00","2013","11","18","11:00","3.7","","-3.1","","61","","27","","59","","","","97.03","","","","","","NA"
"2013-11-18 12:00","2013","11","18","12:00","2.6","","-1.2","","76","","28","","59","","","","97.16","","","","","","NA"
"2013-11-18 13:00","2013","11","18","13:00","2.7","","-3.4","","64","","28","","57","","","","97.25","","","","","","NA"
"2013-11-18 14:00","2013","11","18","14:00","2.5","","-5.1","","57","","28","","59","","","","97.40","","","","","","NA"
"2013-11-18 15:00","2013","11","18","15:00","1.2","","-3.9","","69","","30","","41","","","","97.63","","","","","","NA"
"2013-11-18 16:00","2013","11","18","16:00","0.6","","-7.7","","54","","30","","43","","","","97.77","","","","","","NA"
"2013-11-18 17:00","2013","11","18","17:00","0.0","","-7.7","","56","","31","","28","","","","97.99","","","","-6","","NA"
"2013-11-18 18:00","2013","11","18","18:00","-0.3","","-6.9","","61","","31","","26","","","","98.19","","","","-6","","NA"
"2013-11-18 19:00","2013","11","18","19:00","-0.7","","-8.3","","56","","31","","32","","","","98.34","","","","-8","","NA"
"2013-11-18 20:00","2013","11","18","20:00","-0.9","","-8.0","","59","","32","","24","","","","98.52","","","","-7","","NA"
"2013-11-18 21:00","2013","11","18","21:00","-0.9","","-8.9","","55","","32","","30","","","","98.66","","","","-8","","NA"
"2013-11-18 22:00","2013","11","18","22:00","-1.2","","-8.9","","56","","31","","28","","","","98.79","","","","-8","","NA"
"2013-11-18 23:00","2013","11","18","23:00","-1.7","","-9.6","","55","","31","","32","","","","98.96","","","","-9","","NA"
"2013-11-19 00:00","2013","11","19","00:00","-2.0","","-9.6","","56","","31","","28","","","","99.07","","","","-9","","NA"
"2013-11-19 01:00","2013","11","19","01:00","-2.1","","-9.2","","58","","32","","19","","","","99.19","","","","-8","","NA"
"2013-11-19 02:00","2013","11","19","02:00","-2.8","","-10.1","","57","","31","","28","","","","99.31","","","","-10","","NA"
"2013-11-19 03:00","2013","11","19","03:00","-3.0","","-9.8","","59","","32","","20","","","","99.42","","","","-9","","NA"
"2013-11-19 04:00","2013","11","19","04:00","-3.7","","-10.9","","57","","34","","22","","","","99.55","","","","-10","","NA"
"2013-11-19 05:00","2013","11","19","05:00","-4.0","","-10.5","","61","","33","","19","","","","99.65","","","","-10","","NA"
"2013-11-19 06:00","2013","11","19","06:00","-4.7","","-11.5","","59","","36","","17","","","","99.75","","","","-11","","NA"
"2013-11-19 07:00","2013","11","19","07:00","-5.2","","-11.9","","59","","34","","15","","","","99.94","","","","-11","","NA"
"2013-11-19 08:00","2013","11","19","08:00","-4.9","","-11.4","","60","","35","","15","","","","100.06","","","","-10","","NA"
"2013-11-19 09:00","2013","11","19","09:00","-5.0","","-12.2","","57","","36","","17","","","","100.15","","","","-11","","NA"
"2013-11-19 10:00","2013","11","19","10:00","-4.4","","-12.3","","54","","35","","15","","","","100.22","","","","-10","","NA"
"2013-11-19 11:00","2013","11","19","11:00","-4.1","","-12.1","","54","","34","","15","","","","100.29","","","","-9","","NA"
"2013-11-19 12:00","2013","11","19","12:00","-2.6","","-11.4","","51","","36","","11","","","","100.31","","","","-7","","NA"
"2013-11-19 13:00","2013","11","19","13:00","-2.0","","-11.3","","49","","34","","9","","","","100.32","","","","-5","","NA"
"2013-11-19 14:00","2013","11","19","14:00","-1.8","","-11.9","","46","","33","","9","","","","100.31","","","","-5","","NA"
"2013-11-19 15:00","2013","11","19","15:00","-0.9","","-10.4","","48","","31","","9","","","","100.37","","","","-4","","NA"
"2013-11-19 16:00","2013","11","19","16:00","-0.8","","-11.6","","44","","34","","7","","","","100.44","","","","-3","","NA"
"2013-11-19 17:00","2013","11","19","17:00","-1.9","","-11.7","","47","","2","","4","","","","100.49","","","","-3","","NA"
"2013-11-19 18:00","2013","11","19","18:00","-2.3","","-12.0","","47","","4","","7","","","","100.54","","","","-5","","NA"
"2013-11-19 19:00","2013","11","19","19:00","-2.8","","-11.2","","52","","3","","7","","","","100.61","","","","-6","","NA"
"2013-11-19 20:00","2013","11","19","20:00","-3.2","","-11.1","","54","","5","","9","","","","100.66","","","","-7","","NA"
"2013-11-19 21:00","2013","11","19","21:00","-3.2","","-9.7","","61","","6","","11","","","","100.64","","","","-7","","NA"
"2013-11-19 22:00","2013","11","19","22:00","-3.6","","-9.4","","64","","6","","13","","","","100.65","","","","-8","","NA"
"2013-11-19 23:00","2013","11","19","23:00","-3.5","","-8.5","","68","","6","","13","","","","100.65","","","","-8","","NA"
"2013-11-20 00:00","2013","11","20","00:00","-2.6","","-7.3","","70","","8","","19","","","","100.70","","","","-8","","NA"
"2013-11-20 01:00","2013","11","20","01:00","-3.4","","-6.9","","77","","6","","13","","","","100.72","","","","-8","","NA"
"2013-11-20 02:00","2013","11","20","02:00","-4.2","","-8.0","","75","","5","","13","","","","100.75","","","","-9","","NA"
"2013-11-20 03:00","2013","11","20","03:00","0.5","","-4.6","","69","","14","","20","","","","100.77","","","","","","NA"
"2013-11-20 04:00","2013","11","20","04:00","1.3","","-4.0","","68","","15","","26","","","","100.78","","","","","","NA"
"2013-11-20 05:00","2013","11","20","05:00","1.6","","-3.9","","67","","16","","24","","","","100.79","","","","","","NA"
"2013-11-20 06:00","2013","11","20","06:00","1.7","","-3.1","","70","","18","","30","","","","100.77","","","","","","NA"
"2013-11-20 07:00","2013","11","20","07:00","1.4","","-3.4","","70","","17","","26","","","","100.84","","","","","","NA"
"2013-11-20 08:00","2013","11","20","08:00","1.3","","-2.9","","74","","17","","28","","","","100.84","","","","","","NA"
"2013-11-20 09:00","2013","11","20","09:00","1.1","","-3.3","","72","","17","","28","","","","100.88","","","","","","NA"
"2013-11-20 10:00","2013","11","20","10:00","1.2","","-4.1","","68","","17","","30","","","","100.88","","","","","","NA"
"2013-11-20 11:00","2013","11","20","11:00","1.6","","-3.4","","69","","17","","26","","","","100.83","","","","","","NA"
"2013-11-20 12:00","2013","11","20","12:00","1.4","","-3.9","","68","","16","","28","","","","100.75","","","","","","NA"
"2013-11-20 13:00","2013","11","20","13:00","2.4","","-3.7","","64","","16","","30","","","","100.66","","","","","","NA"
"2013-11-20 14:00","2013","11","20","14:00","2.9","","-3.1","","65","","16","","28","","","","100.64","","","","","","NA"
"2013-11-20 15:00","2013","11","20","15:00","3.4","","-0.9","","73","","16","","28","","","","100.60","","","","","","NA"
"2013-11-20 16:00","2013","11","20","16:00","4.2","","0.3","","76","","15","","33","","","","100.56","","","","","","NA"
"2013-11-20 17:00","2013","11","20","17:00","4.5","","-0.5","","70","","15","","35","","","","100.54","","","","","","NA"
"2013-11-20 18:00","2013","11","20","18:00","4.9","","-0.3","","69","","15","","35","","","","100.51","","","","","","NA"
"2013-11-20 19:00","2013","11","20","19:00","5.2","","-1.1","","64","","15","","35","","","","100.48","","","","","","NA"
"2013-11-20 20:00","2013","11","20","20:00","5.2","","-1.7","","61","","15","","39","","","","100.47","","","","","","NA"
"2013-11-20 21:00","2013","11","20","21:00","4.8","","-1.7","","63","","14","","39","","","","100.43","","","","","","NA"
"2013-11-20 22:00","2013","11","20","22:00","4.6","","-0.6","","69","","14","","43","","","","100.41","","","","","","NA"
"2013-11-20 23:00","2013","11","20","23:00","4.2","","0.3","","76","","15","","39","","","","100.42","","","","","","NA"
"2013-11-21 00:00","2013","11","21","00:00","4.3","","1.1","","80","","15","","43","","","","100.39","","","","","","NA"
"2013-11-21 01:00","2013","11","21","01:00","4.1","","0.0","","75","","15","","48","","","","100.33","","","","","","NA"
"2013-11-21 02:00","2013","11","21","02:00","4.3","","0.5","","76","","15","","44","","","","100.32","","","","","","NA"
"2013-11-21 03:00","2013","11","21","03:00","4.6","","0.0","","72","","16","","37","","","","100.31","","","","","","NA"
"2013-11-21 04:00","2013","11","21","04:00","4.7","","-0.4","","69","","15","","37","","","","100.24","","","","","","NA"
"2013-11-21 05:00","2013","11","21","05:00","5.0","","-0.2","","69","","15","","33","","","","100.19","","","","","","NA"
"2013-11-21 06:00","2013","11","21","06:00","5.4","","-1.4","","62","","16","","30","","","","100.13","","","","","","NA"
"2013-11-21 07:00","2013","11","21","07:00","5.2","","-1.3","","63","","17","","32","","","","100.14","","","","","","NA"
"2013-11-21 08:00","2013","11","21","08:00","4.9","","1.4","","78","","17","","30","","","","100.10","","","","","","NA"
"2013-11-21 09:00","2013","11","21","09:00","5.0","","2.4","","83","","17","","24","","","","100.07","","","","","","NA"
"2013-11-21 10:00","2013","11","21","10:00","5.1","","3.2","","88","","18","","32","","","","100.07","","","","","","NA"
"2013-11-21 11:00","2013","11","21","11:00","5.0","","3.6","","91","","21","","22","","","","100.07","","","","","","NA"
"2013-11-21 12:00","2013","11","21","12:00","5.4","","3.6","","88","","22","","24","","","","100.03","","","","","","NA"
"2013-11-21 13:00","2013","11","21","13:00","5.9","","3.7","","86","","21","","17","","","","100.00","","","","","","NA"
"2013-11-21 14:00","2013","11","21","14:00","5.8","","3.6","","86","","18","","19","","","","99.96","","","","","","NA"
"2013-11-21 15:00","2013","11","21","15:00","5.7","","3.3","","85","","18","","17","","","","99.93","","","","","","NA"
"2013-11-21 16:00","2013","11","21","16:00","5.7","","2.9","","82","","15","","20","","","","99.92","","","","","","NA"
"2013-11-21 17:00","2013","11","21","17:00","6.1","","3.2","","82","","14","","17","","","","99.93","","","","","","NA"
"2013-11-21 18:00","2013","11","21","18:00","6.3","","3.6","","83","","16","","19","","","","99.92","","","","","","NA"
"2013-11-21 19:00","2013","11","21","19:00","6.3","","3.9","","85","","18","","11","","","","99.88","","","","","","NA"
"2013-11-21 20:00","2013","11","21","20:00","6.1","","3.7","","85","","22","","6","","","","99.86","","","","","","NA"
"2013-11-21 21:00","2013","11","21","21:00","6.0","","3.6","","85","","22","","6","","","","99.87","","","","","","NA"
"2013-11-21 22:00","2013","11","21","22:00","6.0","","3.4","","83","","19","","4","","","","99.82","","","","","","NA"
"2013-11-21 23:00","2013","11","21","23:00","5.5","","3.5","","87","","3","","4","","","","99.81","","","","","","NA"
"2013-11-22 00:00","2013","11","22","00:00","5.2","","3.9","","91","","3","","4","","","","99.75","","","","","","NA"
"2013-11-22 01:00","2013","11","22","01:00","4.8","","3.7","","93","","","","0","","","","99.71","","","","","","NA"
"2013-11-22 02:00","2013","11","22","02:00","4.6","","3.6","","93","","33","","2","","","","99.69","","","","","","NA"
"2013-11-22 03:00","2013","11","22","03:00","4.5","","3.6","","94","","32","","4","","","","99.65","","","","","","NA"
"2013-11-22 04:00","2013","11","22","04:00","4.4","","3.5","","94","","31","","4","","","","99.62","","","","","","NA"
"2013-11-22 05:00","2013","11","22","05:00","4.3","","3.4","","94","","30","","7","","","","99.58","","","","","","NA"
"2013-11-22 06:00","2013","11","22","06:00","4.2","","3.1","","93","","32","","6","","","","99.56","","","","","","NA"
"2013-11-22 07:00","2013","11","22","07:00","4.1","","2.7","","91","","32","","7","","","","99.58","","","","","","NA"
"2013-11-22 08:00","2013","11","22","08:00","3.8","","2.6","","92","","31","","7","","","","99.54","","","","","","NA"
"2013-11-22 09:00","2013","11","22","09:00","3.5","","2.2","","91","","35","","6","","","","99.54","","","","","","NA"
"2013-11-22 10:00","2013","11","22","10:00","3.0","","1.8","","92","","34","","6","","","","99.57","","","","","","NA"
"2013-11-22 11:00","2013","11","22","11:00","1.1","","-0.2","","91","","34","","15","","","","99.55","","","","","","NA"
"2013-11-22 12:00","2013","11","22","12:00","-0.6","","-2.1","","90","","35","","17","","","","99.56","","","","-6","","NA"
"2013-11-22 13:00","2013","11","22","13:00","-2.6","","-4.3","","88","","34","","24","","","","99.56","","","","-9","","NA"
"2013-11-22 14:00","2013","11","22","14:00","-3.4","","-5.0","","89","","34","","20","","","","99.67","","","","-10","","NA"
"2013-11-22 15:00","2013","11","22","15:00","-4.8","","-6.6","","87","","33","","17","","","","99.82","","","","-11","","NA"
"2013-11-22 16:00","2013","11","22","16:00","-5.1","","-8.0","","80","","35","","15","","","","99.86","","","","-11","","NA"
"2013-11-22 17:00","2013","11","22","17:00","-5.1","","-8.2","","79","","33","","13","","","","99.99","","","","-10","","NA"
"2013-11-22 18:00","2013","11","22","18:00","-4.9","","-8.1","","78","","33","","13","","","","100.08","","","","-10","","NA"
"2013-11-22 19:00","2013","11","22","19:00","-4.7","","-7.8","","79","","31","","9","","","","100.14","","","","-9","","NA"
"2013-11-22 20:00","2013","11","22","20:00","-5.3","","-8.2","","80","","33","","15","","","","100.06","","","","-11","","NA"
"2013-11-22 21:00","2013","11","22","21:00","-5.3","","-7.9","","82","","32","","17","","","","100.10","","","","-11","","NA"
"2013-11-22 22:00","2013","11","22","22:00","-5.7","","-8.4","","81","","32","","17","","","","100.09","","","","-12","","NA"
"2013-11-22 23:00","2013","11","22","23:00","-5.7","","-8.3","","82","","32","","13","","","","100.04","","","","-11","","NA"
"2013-11-23 00:00","2013","11","23","00:00","-5.5","","-8.0","","83","","32","","9","","","","100.02","","","","-10","","NA"
"2013-11-23 01:00","2013","11","23","01:00","-5.0","","-7.6","","82","","36","","6","","","","99.90","","","","-8","","NA"
"2013-11-23 02:00","2013","11","23","02:00","-4.7","","-7.4","","81","","7","","6","","","","99.76","","","","-7","","NA"
"2013-11-23 03:00","2013","11","23","03:00","-4.3","","-6.0","","88","","7","","7","","","","99.65","","","","-7","","NA"
"2013-11-23 04:00","2013","11","23","04:00","-4.6","","-5.7","","92","","2","","9","","","","99.51","","","","-8","","NA"
"2013-11-23 05:00","2013","11","23","05:00","-4.3","","-5.1","","94","","35","","6","","","","99.43","","","","-7","","NA"
"2013-11-23 06:00","2013","11","23","06:00","-4.8","","-5.8","","93","","32","","11","","","","99.51","","","","-9","","NA"
"2013-11-23 07:00","2013","11","23","07:00","-5.3","","-7.2","","86","","32","","20","","","","99.54","","","","-12","","NA"
"2013-11-23 08:00","2013","11","23","08:00","-6.8","","-11.0","","72","","32","","22","","","","99.62","","","","-14","","NA"
"2013-11-23 09:00","2013","11","23","09:00","-7.3","","-11.2","","74","","32","","24","","","","99.63","","","","-15","","NA"
"2013-11-23 10:00","2013","11","23","10:00","-9.1","","-14.3","","66","","33","","30","","","","99.72","","","","-18","","NA"
"2013-11-23 11:00","2013","11","23","11:00","-9.6","","-14.4","","68","","33","","26","","","","99.78","","","","-18","","NA"
"2013-11-23 12:00","2013","11","23","12:00","-9.6","","-15.8","","61","","34","","24","","","","99.82","","","","-18","","NA"
"2013-11-23 13:00","2013","11","23","13:00","-9.6","","-16.2","","59","","33","","26","","","","99.87","","","","-18","","NA"
"2013-11-23 14:00","2013","11","23","14:00","-9.7","","-16.4","","58","","33","","28","","","","99.90","","","","-19","","NA"
"2013-11-23 15:00","2013","11","23","15:00","-9.3","","-16.3","","57","","34","","22","","","","99.96","","","","-17","","NA"
"2013-11-23 16:00","2013","11","23","16:00","-10.0","","-15.9","","62","","33","","19","","","","100.01","","","","-18","","NA"
"2013-11-23 17:00","2013","11","23","17:00","-10.7","","-16.7","","61","","33","","30","","","","100.11","","","","-20","","NA"
"2013-11-23 18:00","2013","11","23","18:00","-11.3","","-17.3","","61","","34","","26","","","","100.21","","","","-21","","NA"
"2013-11-23 19:00","2013","11","23","19:00","-11.8","","-17.5","","63","","34","","28","","","","100.26","","","","-22","","NA"
"2013-11-23 20:00","2013","11","23","20:00","-11.8","","-17.5","","63","","34","","24","","","","100.29","","","","-21","","NA"
"2013-11-23 21:00","2013","11","23","21:00","-12.1","","-18.2","","60","","34","","22","","","","100.32","","","","-21","","NA"
"2013-11-23 22:00","2013","11","23","22:00","-11.9","","-18.1","","60","","33","","20","","","","100.35","","","","-20","","NA"
"2013-11-23 23:00","2013","11","23","23:00","-12.6","","-18.8","","60","","34","","19","","","","100.43","","","","-21","","NA"
"2013-11-24 00:00","2013","11","24","00:00","-13.1","","-18.6","","63","","34","","22","","","","100.45","","","","-22","","NA"
"2013-11-24 01:00","2013","11","24","01:00","-13.5","","-18.4","","67","","34","","22","","","","100.46","","","","-23","","NA"
"2013-11-24 02:00","2013","11","24","02:00","-13.7","","-18.3","","68","","34","","22","","","","100.52","","","","-23","","NA"
"2013-11-24 03:00","2013","11","24","03:00","-13.9","","-18.0","","71","","34","","22","","","","100.55","","","","-23","","NA"
"2013-11-24 04:00","2013","11","24","04:00","-13.8","","-17.6","","73","","33","","20","","","","100.56","","","","-23","","NA"
"2013-11-24 05:00","2013","11","24","05:00","-13.7","","-17.9","","71","","33","","20","","","","100.57","","","","-23","","NA"
"2013-11-24 06:00","2013","11","24","06:00","-13.9","","-18.1","","70","","33","","20","","","","100.65","","","","-23","","NA"
"2013-11-24 07:00","2013","11","24","07:00","-14.1","","-18.7","","68","","34","","13","","","","100.75","","","","-21","","NA"
"2013-11-24 08:00","2013","11","24","08:00","-14.2","","-18.9","","67","","32","","17","","","","100.80","","","","-22","","NA"
"2013-11-24 09:00","2013","11","24","09:00","-13.6","","-19.1","","63","","34","","13","","","","100.83","","","","-21","","NA"
"2013-11-24 10:00","2013","11","24","10:00","-12.8","","-18.8","","61","","31","","17","","","","100.81","","","","-21","","NA"
"2013-11-24 11:00","2013","11","24","11:00","-11.7","","-19.0","","55","","31","","13","","","","100.81","","","","-18","","NA"
"2013-11-24 12:00","2013","11","24","12:00","-11.0","","-19.1","","51","","31","","15","","","","100.74","","","","-18","","NA"
"2013-11-24 13:00","2013","11","24","13:00","-10.5","","-18.9","","50","","32","","19","","","","100.65","","","","-18","","NA"
"2013-11-24 14:00","2013","11","24","14:00","-10.1","","-19.8","","45","","31","","15","","","","100.63","","","","-17","","NA"
"2013-11-24 15:00","2013","11","24","15:00","-10.1","","-21.7","","38","","31","","22","","","","100.63","","","","-18","","NA"
"2013-11-24 16:00","2013","11","24","16:00","-9.9","","-20.7","","41","","31","","15","","","","100.64","","","","-17","","NA"
"2013-11-24 17:00","2013","11","24","17:00","-10.6","","-20.0","","46","","33","","9","","","","100.65","","","","-16","","NA"
"2013-11-24 18:00","2013","11","24","18:00","-10.8","","-19.7","","48","","33","","11","","","","100.64","","","","-17","","NA"
"2013-11-24 19:00","2013","11","24","19:00","-11.1","","-19.2","","51","","36","","6","","","","100.56","","","","-15","","NA"
"2013-11-24 20:00","2013","11","24","20:00","-11.5","","-18.7","","55","","6","","7","","","","100.46","","","","-16","","NA"
"2013-11-24 21:00","2013","11","24","21:00","-10.2","","-17.1","","57","","7","","11","","","","100.34","","","","-16","","NA"
"2013-11-24 22:00","2013","11","24","22:00","-9.8","","-16.5","","58","","8","","13","","","","100.23","","","","-16","","NA"
"2013-11-24 23:00","2013","11","24","23:00","-10.0","","-15.3","","65","","6","","11","","","","100.17","","","","-16","","NA"
"2013-11-25 00:00","2013","11","25","00:00","-5.5","","-7.6","","85","","18","","24","","","","100.06","","","","-13","","NA"
"2013-11-25 01:00","2013","11","25","01:00","-4.2","","-7.0","","81","","23","","33","","","","99.94","","","","-12","","NA"
"2013-11-25 02:00","2013","11","25","02:00","-3.7","","-6.7","","80","","22","","33","","","","99.79","","","","-12","","NA"
"2013-11-25 03:00","2013","11","25","03:00","-2.6","","-7.8","","67","","20","","28","","","","99.64","","","","-10","","NA"
"2013-11-25 04:00","2013","11","25","04:00","-1.3","","-6.0","","70","","24","","43","","","","99.44","","","","-9","","NA"
"2013-11-25 05:00","2013","11","25","05:00","-1.0","","-5.9","","69","","23","","54","","","","99.31","","","","-10","","NA"
"2013-11-25 06:00","2013","11","25","06:00","-0.5","","-5.1","","71","","23","","52","","","","99.21","","","","-9","","NA"
"2013-11-25 07:00","2013","11","25","07:00","-0.1","","-4.6","","72","","23","","48","","","","99.15","","","","-8","","NA"
"2013-11-25 08:00","2013","11","25","08:00","0.0","","-5.4","","67","","23","","56","","","","99.04","","","","-9","","NA"
"2013-11-25 09:00","2013","11","25","09:00","-0.3","","-3.7","","78","","23","","56","","","","98.99","","","","-9","","NA"
"2013-11-25 10:00","2013","11","25","10:00","-0.3","","-1.9","","89","","23","","48","","","","98.95","","","","-8","","NA"
"2013-11-25 11:00","2013","11","25","11:00","-1.3","","-3.6","","84","","23","","50","","","","98.88","","","","-10","","NA"
"2013-11-25 12:00","2013","11","25","12:00","-1.4","","-2.9","","89","","24","","43","","","","98.81","","","","-10","","NA"
"2013-11-25 13:00","2013","11","25","13:00","-0.9","","-3.1","","85","","24","","46","","","","98.74","","","","-9","","NA"
"2013-11-25 14:00","2013","11","25","14:00","-0.1","","-3.8","","76","","23","","57","","","","98.64","","","","-9","","NA"
"2013-11-25 15:00","2013","11","25","15:00","-0.1","","-3.5","","78","","23","","43","","","","98.62","","","","-8","","NA"
"2013-11-25 16:00","2013","11","25","16:00","0.4","","-3.5","","75","","23","","39","","","","98.64","","","","","","NA"
"2013-11-25 17:00","2013","11","25","17:00","1.0","","-3.2","","73","","25","","32","","","","98.68","","","","","","NA"
"2013-11-25 18:00","2013","11","25","18:00","0.7","","-2.5","","79","","25","","30","","","","98.68","","","","","","NA"
"2013-11-25 19:00","2013","11","25","19:00","1.2","","-1.9","","80","","25","","33","","","","98.71","","","","","","NA"
"2013-11-25 20:00","2013","11","25","20:00","1.2","","-1.8","","80","","24","","32","","","","98.74","","","","","","NA"
"2013-11-25 21:00","2013","11","25","21:00","1.5","","-1.4","","81","","24","","33","","","","98.75","","","","","","NA"
"2013-11-25 22:00","2013","11","25","22:00","1.6","","-1.1","","82","","24","","30","","","","98.76","","","","","","NA"
"2013-11-25 23:00","2013","11","25","23:00","1.9","","-1.1","","80","","25","","28","","","","98.76","","","","","","NA"
"2013-11-26 00:00","2013","11","26","00:00","2.1","","-0.9","","80","","25","","33","","","","98.77","","","","","","NA"
"2013-11-26 01:00","2013","11","26","01:00","1.8","","-0.7","","83","","24","","28","","","","98.76","","","","","","NA"
"2013-11-26 02:00","2013","11","26","02:00","2.3","","-0.9","","79","","24","","33","","","","98.81","","","","","","NA"
"2013-11-26 03:00","2013","11","26","03:00","1.8","","-0.4","","85","","25","","24","","","","98.89","","","","","","NA"
"2013-11-26 04:00","2013","11","26","04:00","1.8","","-0.1","","87","","25","","20","","","","98.90","","","","","","NA"
"2013-11-26 05:00","2013","11","26","05:00","1.9","","-0.3","","85","","25","","19","","","","98.92","","","","","","NA"
"2013-11-26 06:00","2013","11","26","06:00","2.2","","-0.1","","85","","24","","24","","","","98.92","","","","","","NA"
"2013-11-26 07:00","2013","11","26","07:00","2.3","","-0.4","","82","","24","","20","","","","98.97","","","","","","NA"
"2013-11-26 08:00","2013","11","26","08:00","2.3","","-0.6","","81","","24","","19","","","","98.99","","","","","","NA"
"2013-11-26 09:00","2013","11","26","09:00","2.5","","-0.2","","82","","23","","19","","","","98.98","","","","","","NA"
"2013-11-26 10:00","2013","11","26","10:00","2.4","","-0.2","","83","","23","","22","","","","99.01","","","","","","NA"
"2013-11-26 11:00","2013","11","26","11:00","1.5","","0.3","","92","","24","","19","","","","99.00","","","","","","NA"
"2013-11-26 12:00","2013","11","26","12:00","1.8","","0.4","","90","","25","","11","","","","98.96","","","","","","NA"
"2013-11-26 13:00","2013","11","26","13:00","1.5","","0.1","","90","","26","","19","","","","98.95","","","","","","NA"
"2013-11-26 14:00","2013","11","26","14:00","1.5","","0.0","","90","","28","","6","","","","98.94","","","","","","NA"
"2013-11-26 15:00","2013","11","26","15:00","2.1","","-0.3","","84","","21","","20","","","","98.88","","","","","","NA"
"2013-11-26 16:00","2013","11","26","16:00","2.4","","-0.8","","79","","23","","19","","","","98.87","","","","","","NA"
"2013-11-26 17:00","2013","11","26","17:00","1.1","","-0.7","","88","","29","","13","","","","98.85","","","","","","NA"
"2013-11-26 18:00","2013","11","26","18:00","0.8","","-0.7","","90","","34","","2","","","","98.90","","","","","","NA"
"2013-11-26 19:00","2013","11","26","19:00","0.9","","-0.9","","88","","4","","4","","","","98.84","","","","","","NA"
"2013-11-26 20:00","2013","11","26","20:00","0.3","","-0.7","","93","","3","","4","","","","98.83","","","","","","NA"
"2013-11-26 21:00","2013","11","26","21:00","-1.1","","-3.1","","86","","36","","13","","","","98.82","","","","-5","","NA"
"2013-11-26 22:00","2013","11","26","22:00","-2.9","","-4.9","","86","","35","","19","","","","98.82","","","","-9","","NA"
"2013-11-26 23:00","2013","11","26","23:00","-3.8","","-6.7","","80","","34","","24","","","","98.87","","","","-11","","NA"
"2013-11-27 00:00","2013","11","27","00:00","-4.1","","-6.8","","81","","34","","17","","","","98.89","","","","-10","","NA"
"2013-11-27 01:00","2013","11","27","01:00","-4.5","","-7.3","","81","","33","","17","","","","98.88","","","","-10","","NA"
"2013-11-27 02:00","2013","11","27","02:00","-4.7","","-8.1","","77","","34","","20","","","","98.86","","","","-11","","NA"
"2013-11-27 03:00","2013","11","27","03:00","-5.2","","-9.0","","75","","36","","17","","","","98.83","","","","-11","","NA"
"2013-11-27 04:00","2013","11","27","04:00","-5.3","","-9.4","","73","","36","","13","","","","98.77","","","","-10","","NA"
"2013-11-27 05:00","2013","11","27","05:00","-5.8","","-9.9","","73","","34","","15","","","","98.80","","","","-12","","NA"
"2013-11-27 06:00","2013","11","27","06:00","-6.7","","-10.1","","77","","36","","17","","","","98.80","","","","-13","","NA"
"2013-11-27 07:00","2013","11","27","07:00","-8.5","","-12.1","","75","","35","","15","","","","98.83","","","","-15","","NA"
"2013-11-27 08:00","2013","11","27","08:00","-9.3","","-12.8","","76","","32","","13","","","","98.89","","","","-15","","NA"
"2013-11-27 09:00","2013","11","27","09:00","-9.1","","-13.1","","73","","35","","7","","","","98.89","","","","-13","","NA"
"2013-11-27 10:00","2013","11","27","10:00","-8.6","","-13.1","","70","","36","","20","","","","98.89","","","","-16","","NA"
"2013-11-27 11:00","2013","11","27","11:00","-8.1","","-12.7","","69","","36","","20","","","","98.87","","","","-15","","NA"
"2013-11-27 12:00","2013","11","27","12:00","-7.8","","-13.0","","66","","35","","30","","","","98.82","","","","-17","","NA"
"2013-11-27 13:00","2013","11","27","13:00","-7.2","","-12.3","","67","","36","","20","","","","98.81","","","","-14","","NA"
"2013-11-27 14:00","2013","11","27","14:00","-7.1","","-13.0","","63","","36","","19","","","","98.84","","","","-14","","NA"
"2013-11-27 15:00","2013","11","27","15:00","-6.5","","-13.1","","59","","34","","20","","","","98.87","","","","-13","","NA"
"2013-11-27 16:00","2013","11","27","16:00","-6.8","","-12.7","","63","","35","","17","","","","98.92","","","","-13","","NA"
"2013-11-27 17:00","2013","11","27","17:00","-7.0","","-13.3","","61","","35","","13","","","","99.05","","","","-13","","NA"
"2013-11-27 18:00","2013","11","27","18:00","-7.2","","-13.7","","60","","36","","19","","","","99.16","","","","-14","","NA"
"2013-11-27 19:00","2013","11","27","19:00","-7.6","","-12.9","","66","","34","","15","","","","99.21","","","","-14","","NA"
"2013-11-27 20:00","2013","11","27","20:00","-7.8","","-12.9","","67","","33","","15","","","","99.27","","","","-14","","NA"
"2013-11-27 21:00","2013","11","27","21:00","-7.8","","-12.7","","68","","33","","17","","","","99.32","","","","-14","","NA"
"2013-11-27 22:00","2013","11","27","22:00","-7.7","","-13.4","","64","","35","","15","","","","99.34","","","","-14","","NA"
"2013-11-27 23:00","2013","11","27","23:00","-7.9","","-13.5","","64","","34","","15","","","","99.40","","","","-14","","NA"
"2013-11-28 00:00","2013","11","28","00:00","-8.5","","-13.6","","67","","33","","19","","","","99.47","","","","-16","","NA"
"2013-11-28 01:00","2013","11","28","01:00","-8.6","","-14.1","","64","","33","","19","","","","99.53","","","","-16","","NA"
"2013-11-28 02:00","2013","11","28","02:00","-8.9","","-14.6","","63","","34","","17","","","","99.60","","","","-16","","NA"
"2013-11-28 03:00","2013","11","28","03:00","-9.3","","-14.5","","66","","33","","15","","","","99.69","","","","-16","","NA"
"2013-11-28 04:00","2013","11","28","04:00","-10.1","","-15.5","","65","","33","","17","","","","99.75","","","","-17","","NA"
"2013-11-28 05:00","2013","11","28","05:00","-10.8","","-16.2","","64","","33","","19","","","","99.85","","","","-19","","NA"
"2013-11-28 06:00","2013","11","28","06:00","-11.3","","-15.6","","70","","33","","13","","","","99.94","","","","-18","","NA"
"2013-11-28 07:00","2013","11","28","07:00","-11.7","","-16.0","","70","","34","","13","","","","100.01","","","","-18","","NA"
"2013-11-28 08:00","2013","11","28","08:00","-11.6","","-15.8","","71","","34","","15","","","","100.10","","","","-19","","NA"
"2013-11-28 09:00","2013","11","28","09:00","-11.5","","-16.4","","67","","33","","15","","","","100.17","","","","-19","","NA"
"2013-11-28 10:00","2013","11","28","10:00","-10.6","","-16.2","","63","","33","","15","","","","100.21","","","","-17","","NA"
"2013-11-28 11:00","2013","11","28","11:00","-9.9","","-16.2","","60","","32","","13","","","","100.22","","","","-16","","NA"
"2013-11-28 12:00","2013","11","28","12:00","-8.9","","-16.9","","52","","33","","9","","","","100.21","","","","-14","","NA"
"2013-11-28 13:00","2013","11","28","13:00","-8.2","","-17.2","","48","","33","","7","","","","100.22","","","","-12","","NA"
"2013-11-28 14:00","2013","11","28","14:00","-8.2","","-17.7","","46","","36","","7","","","","100.20","","","","-12","","NA"
"2013-11-28 15:00","2013","11","28","15:00","-8.1","","-17.2","","48","","34","","9","","","","100.23","","","","-13","","NA"
"2013-11-28 16:00","2013","11","28","16:00","-8.3","","-16.1","","53","","36","","6","","","","100.32","","","","-12","","NA"
"2013-11-28 17:00","2013","11","28","17:00","-8.7","","-15.6","","57","","1","","4","","","","100.39","","","","-11","","NA"
"2013-11-28 18:00","2013","11","28","18:00","-8.6","","-15.8","","56","","36","","6","","","","100.49","","","","-12","","NA"
"2013-11-28 19:00","2013","11","28","19:00","-8.4","","-15.4","","57","","36","","4","","","","100.56","","","","-11","","NA"
"2013-11-28 20:00","2013","11","28","20:00","-9.1","","-15.5","","60","","35","","7","","","","100.63","","","","-13","","NA"
"2013-11-28 21:00","2013","11","28","21:00","-9.7","","-15.3","","64","","3","","9","","","","100.67","","","","-15","","NA"
"2013-11-28 22:00","2013","11","28","22:00","-10.0","","-14.7","","68","","4","","9","","","","100.71","","","","-15","","NA"
"2013-11-28 23:00","2013","11","28","23:00","-10.6","","-15.5","","67","","4","","11","","","","100.74","","","","-16","","NA"
"2013-11-29 00:00","2013","11","29","00:00","-10.4","","-16.1","","63","","3","","7","","","","100.83","","","","-14","","NA"
"2013-11-29 01:00","2013","11","29","01:00","-10.5","","-16.0","","64","","4","","9","","","","100.86","","","","-15","","NA"
"2013-11-29 02:00","2013","11","29","02:00","-10.7","","-15.9","","66","","3","","7","","","","100.89","","","","-15","","NA"
"2013-11-29 03:00","2013","11","29","03:00","-11.0","","-15.9","","67","","3","","9","","","","100.95","","","","-16","","NA"
"2013-11-29 04:00","2013","11","29","04:00","-11.2","","-16.7","","64","","4","","9","","","","101.00","","","","-16","","NA"
"2013-11-29 05:00","2013","11","29","05:00","-10.9","","-17.4","","59","","3","","6","","","","101.08","","","","-15","","NA"
"2013-11-29 06:00","2013","11","29","06:00","-10.3","","-17.7","","55","","4","","9","","","","101.15","","","","-15","","NA"
"2013-11-29 07:00","2013","11","29","07:00","-10.3","","-17.9","","54","","3","","7","","","","101.24","","","","-14","","NA"
"2013-11-29 08:00","2013","11","29","08:00","-10.3","","-17.9","","54","","4","","9","","","","101.29","","","","-15","","NA"
"2013-11-29 09:00","2013","11","29","09:00","-9.0","","-17.1","","52","","6","","9","","","","101.36","","","","-14","","NA"
"2013-11-29 10:00","2013","11","29","10:00","-7.2","","-17.2","","45","","4","","4","","","","101.44","","","","-9","","NA"
"2013-11-29 11:00","2013","11","29","11:00","-7.0","","-15.2","","52","","13","","6","","","","101.45","","","","-10","","NA"
"2013-11-29 12:00","2013","11","29","12:00","-6.6","","-13.8","","57","","17","","7","","","","101.46","","","","-10","","NA"
"2013-11-29 13:00","2013","11","29","13:00","-6.0","","-13.0","","58","","18","","9","","","","101.45","","","","-10","","NA"
"2013-11-29 14:00","2013","11","29","14:00","-5.6","","-12.1","","60","","16","","9","","","","101.42","","","","-10","","NA"
"2013-11-29 15:00","2013","11","29","15:00","-5.0","","-11.7","","59","","15","","7","","","","101.40","","","","-8","","NA"
"2013-11-29 16:00","2013","11","29","16:00","-4.9","","-10.7","","64","","17","","6","","","","101.40","","","","-8","","NA"
"2013-11-29 17:00","2013","11","29","17:00","-4.8","","-10.2","","66","","12","","13","","","","101.39","","","","-10","","NA"
"2013-11-29 18:00","2013","11","29","18:00","-4.4","","-8.7","","72","","12","","17","","","","101.39","","","","-10","","NA"
"2013-11-29 19:00","2013","11","29","19:00","-5.6","","-9.3","","75","","7","","19","","","","101.40","","","","-12","","NA"
"2013-11-29 20:00","2013","11","29","20:00","-5.4","","-8.7","","78","","7","","22","","","","101.36","","","","-12","","NA"
"2013-11-29 21:00","2013","11","29","21:00","-5.7","","-8.4","","81","","7","","24","","","","101.30","","","","-13","","NA"
"2013-11-29 22:00","2013","11","29","22:00","-6.1","","-7.7","","88","","6","","17","","","","101.23","","","","-12","","NA"
"2013-11-29 23:00","2013","11","29","23:00","-0.4","","-6.6","","63","","14","","26","","","","101.20","","","","-7","","NA"
"2013-11-30 00:00","2013","11","30","00:00","-0.4","","-7.8","","57","","16","","44","","","","101.08","","","","-8","","NA"
"2013-11-30 01:00","2013","11","30","01:00","-0.1","","-4.8","","71","","18","","44","","","","101.04","","","","-8","","NA"
"2013-11-30 02:00","2013","11","30","02:00","0.2","","-4.0","","73","","18","","44","","","","100.97","","","","","","NA"
"2013-11-30 03:00","2013","11","30","03:00","0.2","","-3.8","","74","","18","","48","","","","100.89","","","","","","NA"
"2013-11-30 04:00","2013","11","30","04:00","-0.3","","-3.4","","80","","18","","46","","","","100.81","","","","-8","","NA"
"2013-11-30 05:00","2013","11","30","05:00","0.1","","-4.8","","70","","19","","50","","","","100.75","","","","","","NA"
"2013-11-30 06:00","2013","11","30","06:00","0.3","","-4.8","","69","","18","","52","","","","100.62","","","","","","NA"
"2013-11-30 07:00","2013","11","30","07:00","0.2","","-4.8","","69","","18","","56","","","","100.56","","","","","","NA"
"2013-11-30 08:00","2013","11","30","08:00","0.3","","-4.2","","72","","18","","57","","","","100.44","","","","","","NA"
"2013-11-30 09:00","2013","11","30","09:00","0.4","","-3.8","","73","","17","","57","","","","100.33","","","","","","NA"
"2013-11-30 10:00","2013","11","30","10:00","0.5","","-3.7","","73","","17","","56","","","","100.18","","","","","","NA"
"2013-11-30 11:00","2013","11","30","11:00","0.6","","-2.6","","79","","17","","54","","","","100.06","","","","","","NA"
"2013-11-30 12:00","2013","11","30","12:00","0.9","","-2.0","","81","","18","","46","","","","99.89","","","","","","NA"
"2013-11-30 13:00","2013","11","30","13:00","1.6","","-0.8","","84","","17","","41","","","","99.77","","","","","","NA"
"2013-11-30 14:00","2013","11","30","14:00","2.1","","-1.7","","76","","22","","33","","","","99.66","","","","","","NA"
"2013-11-30 15:00","2013","11","30","15:00","1.7","","-0.4","","86","","22","","28","","","","99.58","","","","","","NA"
"2013-11-30 16:00","2013","11","30","16:00","1.5","","-0.1","","89","","21","","26","","","","99.52","","","","","","NA"
"2013-11-30 17:00","2013","11","30","17:00","1.6","","0.4","","92","","22","","30","","","","99.47","","","","","","NA"
"2013-11-30 18:00","2013","11","30","18:00","1.8","","0.4","","90","","23","","30","","","","99.43","","","","","","NA"
"2013-11-30 19:00","2013","11","30","19:00","1.3","","0.3","","93","","24","","17","","","","99.43","","","","","","NA"
"2013-11-30 20:00","2013","11","30","20:00","1.5","","0.5","","93","","26","","11","","","","99.44","","","","","","NA"
"2013-11-30 21:00","2013","11","30","21:00","1.7","","0.7","","93","","27","","11","","","","99.42","","","","","","NA"
"2013-11-30 22:00","2013","11","30","22:00","1.7","","0.8","","94","","29","","9","","","","99.41","","","","","","NA"
"2013-11-30 23:00","2013","11","30","23:00","1.3","","0.4","","94","","31","","6","","","","99.42","","","","","","NA"
