"Station Name","KILLARNEY (AUT)"
"Province","ONTARIO"
"Latitude","45.97"
"Longitude","-81.48"
"Elevation","196.30"
"Climate Identifier","605DJ25"
"WMO Identifier","71460"
"TC Identifier","WBE"
"All times are specified in Local Standard Time (LST). Add 1 hour to adjust for Daylight Saving Time where and when it is observed."

"Legend"
"E","Estimated"
"M","Missing"
"NA","Not Available"

"Date/Time","Year","Month","Day","Time","Temp (°C)","Temp Flag","Dew Point Temp (°C)","Dew Point Temp Flag","Rel Hum (%)","Rel Hum Flag","Wind Dir (10s deg)","Wind Dir Flag","Wind Spd (km/h)","Wind Spd Flag","Visibility (km)","Visibility Flag","Stn Press (kPa)","Stn Press Flag","Hmdx","Hmdx Flag","Wind Chill","Wind Chill Flag","Weather"
"2008-10-01 00:00","2008","10","01","00:00","8.4","","6.6","","88","","1","","11","","","","98.41","","","","","","NA"
"2008-10-01 01:00","2008","10","01","01:00","8.0","","6.2","","88","","2","","7","","","","98.39","","","","","","NA"
"2008-10-01 02:00","2008","10","01","02:00","7.7","","5.1","","84","","2","","11","","","","98.39","","","","","","NA"
"2008-10-01 03:00","2008","10","01","03:00","7.6","","4.7","","82","","2","","13","","","","98.39","","","","","","NA"
"2008-10-01 04:00","2008","10","01","04:00","7.6","","4.3","","80","","1","","9","","","","98.40","","","","","","NA"
"2008-10-01 05:00","2008","10","01","05:00","7.5","","3.9","","78","","36","","11","","","","98.45","","","","","","NA"
"2008-10-01 06:00","2008","10","01","06:00","7.1","","3.6","","78","","1","","9","","","","98.48","","","","","","NA"
"2008-10-01 07:00","2008","10","01","07:00","7.0","","2.9","","75","","35","","13","","","","98.49","","","","","","NA"
"2008-10-01 08:00","2008","10","01","08:00","7.0","","2.3","","72","","36","","13","","","","98.52","","","","","","NA"
"2008-10-01 09:00","2008","10","01","09:00","7.0","","1.9","","70","","36","","19","","","","98.54","","","","","","NA"
"2008-10-01 10:00","2008","10","01","10:00","7.7","","2.6","","70","","36","","17","","","","98.54","","","","","","NA"
"2008-10-01 11:00","2008","10","01","11:00","7.6","","2.4","","70","","36","","17","","","","98.54","","","","","","NA"
"2008-10-01 12:00","2008","10","01","12:00","7.9","","2.2","","67","","1","","17","","","","98.54","","","","","","NA"
"2008-10-01 13:00","2008","10","01","13:00","8.1","","2.4","","67","","35","","11","","","","98.53","","","","","","NA"
"2008-10-01 14:00","2008","10","01","14:00","7.7","","2.0","","67","","34","","19","","","","98.52","","","","","","NA"
"2008-10-01 15:00","2008","10","01","15:00","7.9","","2.6","","69","","35","","15","","","","98.54","","","","","","NA"
"2008-10-01 16:00","2008","10","01","16:00","7.9","","2.1","","67","","34","","13","","","","98.54","","","","","","NA"
"2008-10-01 17:00","2008","10","01","17:00","7.5","","2.2","","69","","35","","11","","","","98.56","","","","","","NA"
"2008-10-01 18:00","2008","10","01","18:00","7.2","","2.1","","70","","35","","9","","","","98.57","","","","","","NA"
"2008-10-01 19:00","2008","10","01","19:00","6.4","","2.6","","77","","34","","15","","","","98.59","","","","","","NA"
"2008-10-01 20:00","2008","10","01","20:00","6.5","","2.5","","76","","34","","15","","","","98.58","","","","","","NA"
"2008-10-01 21:00","2008","10","01","21:00","6.5","","2.2","","74","","34","","9","","","","98.56","","","","","","NA"
"2008-10-01 22:00","2008","10","01","22:00","6.2","","0.9","","69","","34","","15","","","","98.51","","","","","","NA"
"2008-10-01 23:00","2008","10","01","23:00","5.9","","0.3","","67","","32","","15","","","","98.50","","","","","","NA"
"2008-10-02 00:00","2008","10","02","00:00","5.4","","-0.3","","67","","34","","11","","","","98.46","","","","","","NA"
"2008-10-02 01:00","2008","10","02","01:00","5.2","","-0.2","","68","","32","","9","","","","98.43","","","","","","NA"
"2008-10-02 02:00","2008","10","02","02:00","5.0","","-0.3","","69","","31","","13","","","","98.38","","","","","","NA"
"2008-10-02 03:00","2008","10","02","03:00","4.9","","-0.3","","69","","31","","11","","","","98.33","","","","","","NA"
"2008-10-02 04:00","2008","10","02","04:00","5.1","","0.3","","71","","31","","13","","","","98.29","","","","","","NA"
"2008-10-02 05:00","2008","10","02","05:00","4.9","","0.0","","71","","32","","15","","","","98.27","","","","","","NA"
"2008-10-02 06:00","2008","10","02","06:00","4.9","","0.7","","74","","33","","13","","","","98.25","","","","","","NA"
"2008-10-02 07:00","2008","10","02","07:00","5.3","","0.2","","70","","31","","15","","","","98.24","","","","","","NA"
"2008-10-02 08:00","2008","10","02","08:00","5.4","","-0.1","","68","","31","","19","","","","98.22","","","","","","NA"
"2008-10-02 09:00","2008","10","02","09:00","7.2","","0.8","","64","","28","","19","","","","98.17","","","","","","NA"
"2008-10-02 10:00","2008","10","02","10:00","7.8","","0.5","","60","","28","","20","","","","98.10","","","","","","NA"
"2008-10-02 11:00","2008","10","02","11:00","8.2","","0.1","","57","","30","","17","","","","98.06","","","","","","NA"
"2008-10-02 12:00","2008","10","02","12:00","8.6","","0.4","","56","","32","","22","","","","98.05","","","","","","NA"
"2008-10-02 13:00","2008","10","02","13:00","8.6","","-3.9","","41","","31","","28","","","","98.00","","","","","","NA"
"2008-10-02 14:00","2008","10","02","14:00","9.5","","-3.6","","39","","32","","19","","","","97.99","","","","","","NA"
"2008-10-02 15:00","2008","10","02","15:00","9.4","","-4.4","","37","","29","","22","","","","97.98","","","","","","NA"
"2008-10-02 16:00","2008","10","02","16:00","8.2","","-1.8","","49","","32","","20","","","","98.03","","","","","","NA"
"2008-10-02 17:00","2008","10","02","17:00","7.9","","-3.5","","44","","33","","19","","","","98.10","","","","","","NA"
"2008-10-02 18:00","2008","10","02","18:00","6.8","","-2.1","","53","","34","","11","","","","98.14","","","","","","NA"
"2008-10-02 19:00","2008","10","02","19:00","6.0","","-1.4","","59","","35","","11","","","","98.20","","","","","","NA"
"2008-10-02 20:00","2008","10","02","20:00","5.5","","-1.1","","62","","33","","11","","","","98.23","","","","","","NA"
"2008-10-02 21:00","2008","10","02","21:00","4.9","","-1.2","","65","","34","","19","","","","98.23","","","","","","NA"
"2008-10-02 22:00","2008","10","02","22:00","4.2","","-1.1","","68","","33","","13","","","","98.25","","","","","","NA"
"2008-10-02 23:00","2008","10","02","23:00","3.7","","-0.8","","72","","33","","15","","","","98.30","","","","","","NA"
"2008-10-03 00:00","2008","10","03","00:00","3.2","","-0.6","","76","","33","","11","","","","98.36","","","","","","NA"
"2008-10-03 01:00","2008","10","03","01:00","2.8","","-1.0","","76","","32","","11","","","","98.41","","","","","","NA"
"2008-10-03 02:00","2008","10","03","02:00","2.7","","-1.5","","74","","32","","15","","","","98.46","","","","","","NA"
"2008-10-03 03:00","2008","10","03","03:00","2.6","","-1.0","","77","","30","","15","","","","98.48","","","","","","NA"
"2008-10-03 04:00","2008","10","03","04:00","2.3","","-1.6","","75","","31","","20","","","","98.51","","","","","","NA"
"2008-10-03 05:00","2008","10","03","05:00","3.0","","-1.4","","73","","30","","19","","","","98.55","","","","","","NA"
"2008-10-03 06:00","2008","10","03","06:00","3.3","","-1.4","","71","","30","","24","","","","98.62","","","","","","NA"
"2008-10-03 07:00","2008","10","03","07:00","3.2","","-1.2","","73","","31","","19","","","","98.68","","","","","","NA"
"2008-10-03 08:00","2008","10","03","08:00","4.0","","-1.2","","69","","31","","22","","","","98.75","","","","","","NA"
"2008-10-03 09:00","2008","10","03","09:00","4.9","","-0.9","","66","","31","","26","","","","98.79","","","","","","NA"
"2008-10-03 10:00","2008","10","03","10:00","5.5","","-1.2","","62","","31","","20","","","","98.85","","","","","","NA"
"2008-10-03 11:00","2008","10","03","11:00","6.6","","-0.2","","62","","30","","20","","","","98.90","","","","","","NA"
"2008-10-03 12:00","2008","10","03","12:00","8.2","","-0.3","","55","","30","","22","","","","98.97","","","","","","NA"
"2008-10-03 13:00","2008","10","03","13:00","8.9","","-0.6","","51","","30","","22","","","","99.03","","","","","","NA"
"2008-10-03 14:00","2008","10","03","14:00","9.2","","0.5","","54","","28","","26","","","","99.06","","","","","","NA"
"2008-10-03 15:00","2008","10","03","15:00","9.8","","0.6","","53","","28","","32","","","","99.09","","","","","","NA"
"2008-10-03 16:00","2008","10","03","16:00","10.6","","1.5","","53","","28","","28","","","","99.11","","","","","","NA"
"2008-10-03 17:00","2008","10","03","17:00","10.6","","1.1","","52","","28","","22","","","","99.17","","","","","","NA"
"2008-10-03 18:00","2008","10","03","18:00","10.6","","2.3","","56","","28","","26","","","","99.22","","","","","","NA"
"2008-10-03 19:00","2008","10","03","19:00","10.2","","3.0","","61","","28","","26","","","","99.27","","","","","","NA"
"2008-10-03 20:00","2008","10","03","20:00","9.4","","1.9","","59","","30","","19","","","","99.36","","","","","","NA"
"2008-10-03 21:00","2008","10","03","21:00","8.3","","1.5","","62","","31","","15","","","","99.46","","","","","","NA"
"2008-10-03 22:00","2008","10","03","22:00","7.6","","0.6","","61","","31","","19","","","","99.52","","","","","","NA"
"2008-10-03 23:00","2008","10","03","23:00","6.8","","0.8","","66","","31","","13","","","","99.58","","","","","","NA"
"2008-10-04 00:00","2008","10","04","00:00","6.1","","0.5","","67","","31","","11","","","","99.61","","","","","","NA"
"2008-10-04 01:00","2008","10","04","01:00","6.2","","0.7","","68","","32","","13","","","","99.67","","","","","","NA"
"2008-10-04 02:00","2008","10","04","02:00","6.0","","0.7","","69","","32","","11","","","","99.71","","","","","","NA"
"2008-10-04 03:00","2008","10","04","03:00","5.7","","0.0","","67","","32","","7","","","","99.74","","","","","","NA"
"2008-10-04 04:00","2008","10","04","04:00","5.0","","-0.2","","69","","33","","9","","","","99.77","","","","","","NA"
"2008-10-04 05:00","2008","10","04","05:00","4.9","","0.1","","71","","33","","7","","","","99.82","","","","","","NA"
"2008-10-04 06:00","2008","10","04","06:00","5.0","","0.0","","70","","32","","9","","","","99.90","","","","","","NA"
"2008-10-04 07:00","2008","10","04","07:00","4.5","","0.3","","74","","33","","6","","","","99.95","","","","","","NA"
"2008-10-04 08:00","2008","10","04","08:00","5.1","","-0.2","","69","","33","","7","","","","100.01","","","","","","NA"
"2008-10-04 09:00","2008","10","04","09:00","6.0","","-0.6","","63","","36","","11","","","","100.03","","","","","","NA"
"2008-10-04 10:00","2008","10","04","10:00","6.8","","-1.1","","57","","34","","13","","","","100.05","","","","","","NA"
"2008-10-04 11:00","2008","10","04","11:00","7.1","","-1.2","","55","","28","","19","","","","100.04","","","","","","NA"
"2008-10-04 12:00","2008","10","04","12:00","7.5","","-1.1","","54","","32","","13","","","","100.04","","","","","","NA"
"2008-10-04 13:00","2008","10","04","13:00","8.0","","-1.1","","53","","28","","9","","","","100.00","","","","","","NA"
"2008-10-04 14:00","2008","10","04","14:00","8.5","","-1.5","","49","","29","","9","","","","99.98","","","","","","NA"
"2008-10-04 15:00","2008","10","04","15:00","8.4","","-0.9","","52","","27","","15","","","","99.98","","","","","","NA"
"2008-10-04 16:00","2008","10","04","16:00","8.7","","-1.2","","50","","32","","7","","","","99.99","","","","","","NA"
"2008-10-04 17:00","2008","10","04","17:00","8.3","","-0.3","","55","","32","","9","","","","100.02","","","","","","NA"
"2008-10-04 18:00","2008","10","04","18:00","7.7","","1.1","","63","","34","","7","","","","100.04","","","","","","NA"
"2008-10-04 19:00","2008","10","04","19:00","7.5","","1.8","","67","","31","","7","","","","100.06","","","","","","NA"
"2008-10-04 20:00","2008","10","04","20:00","7.5","","1.7","","67","","34","","7","","","","100.08","","","","","","NA"
"2008-10-04 21:00","2008","10","04","21:00","7.7","","2.3","","69","","33","","7","","","","100.10","","","","","","NA"
"2008-10-04 22:00","2008","10","04","22:00","7.1","","2.7","","74","","35","","6","","","","100.10","","","","","","NA"
"2008-10-04 23:00","2008","10","04","23:00"
"2008-10-05 00:00","2008","10","05","00:00"
"2008-10-05 01:00","2008","10","05","01:00","6.9","","0.0","","61","","35","","6","","","","100.12","","","","","","NA"
"2008-10-05 02:00","2008","10","05","02:00","6.7","","0.0","","62","","2","","2","","","","100.14","","","","","","NA"
"2008-10-05 03:00","2008","10","05","03:00","6.2","","0.0","","64","","3","","4","","","","100.14","","","","","","NA"
"2008-10-05 04:00","2008","10","05","04:00","6.6","","-0.2","","62","","2","","7","","","","100.16","","","","","","NA"
"2008-10-05 05:00","2008","10","05","05:00","6.7","","0.1","","63","","1","","4","","","","100.22","","","","","","NA"
"2008-10-05 06:00","2008","10","05","06:00","6.6","","0.6","","65","","1","","7","","","","100.25","","","","","","NA"
"2008-10-05 07:00","2008","10","05","07:00","6.2","","0.7","","68","","1","","7","","","","100.29","","","","","","NA"
"2008-10-05 08:00","2008","10","05","08:00","7.4","","1.2","","65","","36","","7","","","","100.32","","","","","","NA"
"2008-10-05 09:00","2008","10","05","09:00","9.0","","0.4","","55","","34","","4","","","","100.35","","","","","","NA"
"2008-10-05 10:00","2008","10","05","10:00","9.7","","-1.8","","45","","29","","6","","","","100.35","","","","","","NA"
"2008-10-05 11:00","2008","10","05","11:00","9.7","","-1.8","","45","","31","","9","","","","100.35","","","","","","NA"
"2008-10-05 12:00","2008","10","05","12:00","10.3","","-2.3","","41","","29","","11","","","","100.33","","","","","","NA"
"2008-10-05 13:00","2008","10","05","13:00","11.1","","-0.9","","43","","30","","11","","","","100.29","","","","","","NA"
"2008-10-05 14:00","2008","10","05","14:00","11.5","","-1.2","","41","","31","","6","","","","100.25","","","","","","NA"
"2008-10-05 15:00","2008","10","05","15:00","10.7","","-1.2","","44","","28","","13","","","","100.25","","","","","","NA"
"2008-10-05 16:00","2008","10","05","16:00","10.1","","-0.2","","49","","3","","4","","","","100.27","","","","","","NA"
"2008-10-05 17:00","2008","10","05","17:00","9.1","","-0.2","","52","","3","","11","","","","100.33","","","","","","NA"
"2008-10-05 18:00","2008","10","05","18:00","8.1","","-0.5","","55","","2","","9","","","","100.39","","","","","","NA"
"2008-10-05 19:00","2008","10","05","19:00","7.0","","-0.3","","60","","3","","7","","","","100.43","","","","","","NA"
"2008-10-05 20:00","2008","10","05","20:00","6.4","","-0.8","","60","","2","","7","","","","100.48","","","","","","NA"
"2008-10-05 21:00","2008","10","05","21:00","6.1","","-1.7","","57","","3","","7","","","","100.54","","","","","","NA"
"2008-10-05 22:00","2008","10","05","22:00","5.4","","-1.1","","63","","5","","9","","","","100.60","","","","","","NA"
"2008-10-05 23:00","2008","10","05","23:00","4.7","","-1.0","","67","","4","","9","","","","100.65","","","","","","NA"
"2008-10-06 00:00","2008","10","06","00:00","4.3","","-0.7","","70","","5","","9","","","","100.70","","","","","","NA"
"2008-10-06 01:00","2008","10","06","01:00","3.7","","-0.7","","73","","5","","7","","","","100.72","","","","","","NA"
"2008-10-06 02:00","2008","10","06","02:00","2.7","","-0.9","","77","","3","","11","","","","100.73","","","","","","NA"
"2008-10-06 03:00","2008","10","06","03:00","2.4","","-1.0","","78","","3","","9","","","","100.77","","","","","","NA"
"2008-10-06 04:00","2008","10","06","04:00","1.9","","-1.0","","81","","2","","6","","","","100.80","","","","","","NA"
"2008-10-06 05:00","2008","10","06","05:00","2.1","","-0.8","","81","","1","","7","","","","100.84","","","","","","NA"
"2008-10-06 06:00","2008","10","06","06:00","1.4","","-1.1","","83","","1","","7","","","","100.87","","","","","","NA"
"2008-10-06 07:00","2008","10","06","07:00","2.1","","-0.4","","83","","3","","7","","","","100.94","","","","","","NA"
"2008-10-06 08:00","2008","10","06","08:00","3.9","","0.3","","77","","36","","4","","","","101.02","","","","","","NA"
"2008-10-06 09:00","2008","10","06","09:00","5.2","","1.1","","75","","7","","17","","","","101.02","","","","","","NA"
"2008-10-06 10:00","2008","10","06","10:00","5.4","","0.6","","71","","9","","20","","","","101.06","","","","","","NA"
"2008-10-06 11:00","2008","10","06","11:00","6.0","","0.1","","66","","9","","17","","","","101.07","","","","","","NA"
"2008-10-06 12:00","2008","10","06","12:00","7.2","","0.7","","63","","11","","15","","","","101.06","","","","","","NA"
"2008-10-06 13:00","2008","10","06","13:00","7.8","","-0.1","","57","","13","","13","","","","101.02","","","","","","NA"
"2008-10-06 14:00","2008","10","06","14:00","8.5","","-0.4","","53","","16","","11","","","","100.98","","","","","","NA"
"2008-10-06 15:00","2008","10","06","15:00","8.6","","0.3","","56","","17","","13","","","","100.98","","","","","","NA"
"2008-10-06 16:00","2008","10","06","16:00","9.3","","-0.5","","50","","15","","7","","","","100.94","","","","","","NA"
"2008-10-06 17:00","2008","10","06","17:00","9.8","","-1.3","","46","","15","","7","","","","100.90","","","","","","NA"
"2008-10-06 18:00","2008","10","06","18:00","9.7","","-1.5","","46","","14","","6","","","","100.88","","","","","","NA"
"2008-10-06 19:00","2008","10","06","19:00","8.6","","-1.1","","50","","1","","6","","","","100.89","","","","","","NA"
"2008-10-06 20:00","2008","10","06","20:00","8.0","","-1.6","","51","","4","","9","","","","100.86","","","","","","NA"
"2008-10-06 21:00","2008","10","06","21:00","7.9","","-1.3","","52","","1","","6","","","","100.85","","","","","","NA"
"2008-10-06 22:00","2008","10","06","22:00","7.7","","-2.1","","50","","5","","7","","","","100.84","","","","","","NA"
"2008-10-06 23:00","2008","10","06","23:00","7.3","","-2.0","","52","","6","","9","","","","100.83","","","","","","NA"
"2008-10-07 00:00","2008","10","07","00:00","7.0","","-0.8","","58","","7","","11","","","","100.83","","","","","","NA"
"2008-10-07 01:00","2008","10","07","01:00","6.3","","-0.6","","61","","6","","11","","","","100.82","","","","","","NA"
"2008-10-07 02:00","2008","10","07","02:00","5.4","","-0.5","","66","","6","","9","","","","100.83","","","","","","NA"
"2008-10-07 03:00","2008","10","07","03:00","5.4","","0.7","","72","","6","","13","","","","100.80","","","","","","NA"
"2008-10-07 04:00","2008","10","07","04:00","4.2","","0.4","","76","","4","","11","","","","100.83","","","","","","NA"
"2008-10-07 05:00","2008","10","07","05:00","4.7","","0.9","","76","","5","","13","","","","100.81","","","","","","NA"
"2008-10-07 06:00","2008","10","07","06:00","4.9","","1.5","","79","","6","","11","","","","100.79","","","","","","NA"
"2008-10-07 07:00","2008","10","07","07:00","5.0","","1.8","","80","","5","","9","","","","100.77","","","","","","NA"
"2008-10-07 08:00","2008","10","07","08:00","6.0","","3.1","","82","","8","","19","","","","100.71","","","","","","NA"
"2008-10-07 09:00","2008","10","07","09:00","8.4","","5.2","","80","","8","","15","","","","100.71","","","","","","NA"
"2008-10-07 10:00","2008","10","07","10:00","11.3","","2.5","","55","","17","","19","","","","100.68","","","","","","NA"
"2008-10-07 11:00","2008","10","07","11:00","11.5","","2.8","","55","","16","","19","","","","100.64","","","","","","NA"
"2008-10-07 12:00","2008","10","07","12:00","11.3","","2.3","","54","","17","","19","","","","100.58","","","","","","NA"
"2008-10-07 13:00","2008","10","07","13:00","11.3","","2.5","","55","","16","","19","","","","100.48","","","","","","NA"
"2008-10-07 14:00","2008","10","07","14:00","11.4","","3.5","","58","","15","","17","","","","100.36","","","","","","NA"
"2008-10-07 15:00","2008","10","07","15:00","11.2","","4.6","","64","","16","","17","","","","100.29","","","","","","NA"
"2008-10-07 16:00","2008","10","07","16:00","11.2","","4.4","","63","","13","","19","","","","100.23","","","","","","NA"
"2008-10-07 17:00","2008","10","07","17:00","11.1","","3.6","","60","","13","","17","","","","100.13","","","","","","NA"
"2008-10-07 18:00","2008","10","07","18:00","11.3","","4.0","","61","","12","","15","","","","100.04","","","","","","NA"
"2008-10-07 19:00","2008","10","07","19:00","11.9","","3.5","","56","","13","","19","","","","100.01","","","","","","NA"
"2008-10-07 20:00","2008","10","07","20:00","10.2","","3.7","","64","","6","","9","","","","99.94","","","","","","NA"
"2008-10-07 21:00","2008","10","07","21:00","10.1","","4.8","","70","","8","","15","","","","99.86","","","","","","NA"
"2008-10-07 22:00","2008","10","07","22:00","9.9","","6.0","","77","","8","","19","","","","99.79","","","","","","NA"
"2008-10-07 23:00","2008","10","07","23:00","9.4","","5.4","","76","","8","","22","","","","99.71","","","","","","NA"
"2008-10-08 00:00","2008","10","08","00:00","10.0","","6.6","","79","","9","","15","","","","99.64","","","","","","NA"
"2008-10-08 01:00","2008","10","08","01:00","12.8","","5.3","","60","","15","","32","","","","99.52","","","","","","NA"
"2008-10-08 02:00","2008","10","08","02:00","12.6","","4.0","","56","","14","","32","","","","99.44","","","","","","NA"
"2008-10-08 03:00","2008","10","08","03:00","12.5","","6.6","","67","","14","","32","","","","99.35","","","","","","NA"
"2008-10-08 04:00","2008","10","08","04:00","12.4","","7.8","","73","","14","","32","","","","99.30","","","","","","NA"
"2008-10-08 05:00","2008","10","08","05:00","12.5","","8.5","","77","","14","","33","","","","99.20","","","","","","NA"
"2008-10-08 06:00","2008","10","08","06:00","12.3","","8.2","","76","","13","","39","","","","99.10","","","","","","NA"
"2008-10-08 07:00","2008","10","08","07:00","12.1","","9.1","","82","","13","","39","","","","99.04","","","","","","NA"
"2008-10-08 08:00","2008","10","08","08:00","11.9","","9.0","","82","","12","","37","","","","98.97","","","","","","NA"
"2008-10-08 09:00","2008","10","08","09:00","11.7","","9.5","","86","","12","","39","","","","98.83","","","","","","NA"
"2008-10-08 10:00","2008","10","08","10:00","11.7","","8.8","","82","","12","","41","","","","98.77","","","","","","NA"
"2008-10-08 11:00","2008","10","08","11:00","11.5","","10.2","","92","","13","","44","","","","98.64","","","","","","NA"
"2008-10-08 12:00","2008","10","08","12:00","11.4","","10.5","","94","","13","","39","","","","98.56","","","","","","NA"
"2008-10-08 13:00","2008","10","08","13:00","11.8","","10.9","","94","","13","","41","","","","98.41","","","","","","NA"
"2008-10-08 14:00","2008","10","08","14:00","12.3","","11.7","","96","","13","","35","","","","98.26","","","","","","NA"
"2008-10-08 15:00","2008","10","08","15:00","12.6","","12.0","","96","","14","","39","","","","98.16","","","","","","NA"
"2008-10-08 16:00","2008","10","08","16:00","13.1","","12.5","","96","","14","","32","","","","98.06","","","","","","NA"
"2008-10-08 17:00","2008","10","08","17:00","13.5","","13.0","","97","","18","","19","","","","98.02","","","","","","NA"
"2008-10-08 18:00","2008","10","08","18:00","13.4","","12.9","","97","","20","","17","","","","97.99","","","","","","NA"
"2008-10-08 19:00","2008","10","08","19:00","13.9","","13.4","","97","","27","","17","","","","97.97","","","","","","NA"
"2008-10-08 20:00","2008","10","08","20:00","13.9","","13.3","","96","","26","","17","","","","97.99","","","","","","NA"
"2008-10-08 21:00","2008","10","08","21:00","13.6","","12.7","","94","","27","","30","","","","98.02","","","","","","NA"
"2008-10-08 22:00","2008","10","08","22:00","12.6","","10.9","","89","","28","","35","","","","98.10","","","","","","NA"
"2008-10-08 23:00","2008","10","08","23:00","12.5","","10.5","","88","","28","","24","","","","98.19","","","","","","NA"
"2008-10-09 00:00","2008","10","09","00:00","12.5","","10.0","","85","","28","","32","","","","98.23","","","","","","NA"
"2008-10-09 01:00","2008","10","09","01:00","12.1","","8.9","","81","","28","","24","","","","98.31","","","","","","NA"
"2008-10-09 02:00","2008","10","09","02:00","11.8","","8.0","","78","","28","","24","","","","98.34","","","","","","NA"
"2008-10-09 03:00","2008","10","09","03:00","11.4","","8.4","","82","","25","","15","","","","98.38","","","","","","NA"
"2008-10-09 04:00","2008","10","09","04:00","11.2","","9.5","","89","","24","","13","","","","98.39","","","","","","NA"
"2008-10-09 05:00","2008","10","09","05:00","11.5","","9.5","","88","","22","","22","","","","98.36","","","","","","NA"
"2008-10-09 06:00","2008","10","09","06:00","11.5","","9.7","","89","","23","","11","","","","98.36","","","","","","NA"
"2008-10-09 07:00","2008","10","09","07:00","11.6","","9.2","","85","","26","","20","","","","98.40","","","","","","NA"
"2008-10-09 08:00","2008","10","09","08:00","12.4","","9.3","","81","","26","","24","","","","98.43","","","","","","NA"
"2008-10-09 09:00","2008","10","09","09:00","13.1","","9.1","","77","","27","","28","","","","98.46","","","","","","NA"
"2008-10-09 10:00","2008","10","09","10:00","14.0","","7.9","","67","","27","","30","","","","98.49","","","","","","NA"
"2008-10-09 11:00","2008","10","09","11:00","14.5","","8.8","","69","","26","","24","","","","98.50","","","","","","NA"
"2008-10-09 12:00","2008","10","09","12:00","14.7","","7.7","","63","","27","","30","","","","98.50","","","","","","NA"
"2008-10-09 13:00","2008","10","09","13:00","14.8","","5.9","","55","","28","","30","","","","98.52","","","","","","NA"
"2008-10-09 14:00","2008","10","09","14:00","14.5","","0.3","","38","","28","","41","","","","98.56","","","","","","NA"
"2008-10-09 15:00","2008","10","09","15:00","14.8","","0.5","","38","","27","","39","","","","98.60","","","","","","NA"
"2008-10-09 16:00","2008","10","09","16:00","14.2","","1.3","","41","","28","","37","","","","98.64","","","","","","NA"
"2008-10-09 17:00","2008","10","09","17:00","13.9","","2.6","","46","","28","","32","","","","98.75","","","","","","NA"
"2008-10-09 18:00","2008","10","09","18:00","12.9","","3.9","","54","","27","","24","","","","98.85","","","","","","NA"
"2008-10-09 19:00","2008","10","09","19:00","12.7","","3.8","","55","","27","","28","","","","98.93","","","","","","NA"
"2008-10-09 20:00","2008","10","09","20:00","12.5","","3.2","","53","","26","","22","","","","99.02","","","","","","NA"
"2008-10-09 21:00","2008","10","09","21:00","12.2","","4.4","","59","","28","","20","","","","99.10","","","","","","NA"
"2008-10-09 22:00","2008","10","09","22:00","11.5","","3.1","","56","","29","","17","","","","99.17","","","","","","NA"
"2008-10-09 23:00","2008","10","09","23:00","11.2","","3.9","","61","","28","","19","","","","99.26","","","","","","NA"
"2008-10-10 00:00","2008","10","10","00:00","11.0","","4.0","","62","","27","","17","","","","99.32","","","","","","NA"
"2008-10-10 01:00","2008","10","10","01:00","10.6","","5.0","","68","","26","","11","","","","99.36","","","","","","NA"
"2008-10-10 02:00","2008","10","10","02:00","10.1","","5.5","","73","","24","","11","","","","99.45","","","","","","NA"
"2008-10-10 03:00","2008","10","10","03:00","10.0","","5.8","","75","","25","","15","","","","99.52","","","","","","NA"
"2008-10-10 04:00","2008","10","10","04:00","10.3","","5.6","","73","","26","","15","","","","99.59","","","","","","NA"
"2008-10-10 05:00","2008","10","10","05:00","9.8","","5.9","","77","","25","","11","","","","99.69","","","","","","NA"
"2008-10-10 06:00","2008","10","10","06:00","9.4","","6.4","","82","","26","","11","","","","99.82","","","","","","NA"
"2008-10-10 07:00","2008","10","10","07:00","9.8","","6.5","","80","","27","","13","","","","99.90","","","","","","NA"
"2008-10-10 08:00","2008","10","10","08:00","10.7","","6.9","","77","","27","","15","","","","99.93","","","","","","NA"
"2008-10-10 09:00","2008","10","10","09:00","11.2","","6.9","","75","","28","","17","","","","100.01","","","","","","NA"
"2008-10-10 10:00","2008","10","10","10:00","11.4","","6.9","","74","","28","","17","","","","100.04","","","","","","NA"
"2008-10-10 11:00","2008","10","10","11:00","12.2","","6.7","","69","","28","","20","","","","100.08","","","","","","NA"
"2008-10-10 12:00","2008","10","10","12:00","12.6","","6.0","","64","","28","","22","","","","100.09","","","","","","NA"
"2008-10-10 13:00","2008","10","10","13:00","13.1","","3.5","","52","","27","","22","","","","100.10","","","","","","NA"
"2008-10-10 14:00","2008","10","10","14:00","13.7","","3.8","","51","","28","","24","","","","100.10","","","","","","NA"
"2008-10-10 15:00","2008","10","10","15:00","14.0","","2.0","","44","","27","","28","","","","100.13","","","","","","NA"
"2008-10-10 16:00","2008","10","10","16:00","14.2","","3.0","","47","","29","","20","","","","100.16","","","","","","NA"
"2008-10-10 17:00","2008","10","10","17:00","13.8","","4.2","","52","","28","","19","","","","100.20","","","","","","NA"
"2008-10-10 18:00","2008","10","10","18:00","12.3","","5.7","","64","","27","","11","","","","100.24","","","","","","NA"
"2008-10-10 19:00","2008","10","10","19:00","11.5","","6.3","","70","","25","","6","","","","100.26","","","","","","NA"
"2008-10-10 20:00","2008","10","10","20:00","10.8","","6.8","","76","","21","","4","","","","100.32","","","","","","NA"
"2008-10-10 21:00","2008","10","10","21:00","10.8","","6.7","","76","","26","","4","","","","100.38","","","","","","NA"
"2008-10-10 22:00","2008","10","10","22:00","10.9","","7.0","","77","","30","","4","","","","100.44","","","","","","NA"
"2008-10-10 23:00","2008","10","10","23:00","10.5","","7.3","","81","","26","","7","","","","100.49","","","","","","NA"
"2008-10-11 00:00","2008","10","11","00:00","9.4","","7.6","","89","","29","","7","","","","100.52","","","","","","NA"
"2008-10-11 01:00","2008","10","11","01:00","8.5","","7.2","","92","","28","","6","","","","100.55","","","","","","NA"
"2008-10-11 02:00","2008","10","11","02:00","9.9","","7.4","","84","","33","","7","","","","100.60","","","","","","NA"
"2008-10-11 03:00","2008","10","11","03:00","9.8","","6.2","","78","","29","","2","","","","100.62","","","","","","NA"
"2008-10-11 04:00","2008","10","11","04:00","9.3","","5.9","","79","","28","","6","","","","100.68","","","","","","NA"
"2008-10-11 05:00","2008","10","11","05:00","8.8","","7.2","","90","","35","","2","","","","100.72","","","","","","NA"
"2008-10-11 06:00","2008","10","11","06:00","8.5","","5.8","","83","","4","","2","","","","100.76","","","","","","NA"
"2008-10-11 07:00","2008","10","11","07:00","9.2","","5.1","","75","","5","","4","","","","100.81","","","","","","NA"
"2008-10-11 08:00","2008","10","11","08:00","9.4","","3.9","","68","","8","","4","","","","100.85","","","","","","NA"
"2008-10-11 09:00","2008","10","11","09:00","10.8","","5.3","","69","","9","","11","","","","100.91","","","","","","NA"
"2008-10-11 10:00","2008","10","11","10:00","11.3","","5.6","","68","","9","","13","","","","100.89","","","","","","NA"
"2008-10-11 11:00","2008","10","11","11:00","11.2","","7.4","","77","","11","","13","","","","100.89","","","","","","NA"
"2008-10-11 12:00","2008","10","11","12:00","11.7","","8.4","","80","","11","","9","","","","100.88","","","","","","NA"
"2008-10-11 13:00","2008","10","11","13:00","12.0","","9.0","","82","","11","","9","","","","100.84","","","","","","NA"
"2008-10-11 14:00","2008","10","11","14:00","12.7","","10.0","","84","","9","","9","","","","100.80","","","","","","NA"
"2008-10-11 15:00","2008","10","11","15:00","12.5","","10.6","","88","","12","","13","","","","100.76","","","","","","NA"
"2008-10-11 16:00","2008","10","11","16:00","13.0","","10.6","","85","","11","","9","","","","100.74","","","","","","NA"
"2008-10-11 17:00","2008","10","11","17:00","12.9","","10.4","","85","","9","","9","","","","100.71","","","","","","NA"
"2008-10-11 18:00","2008","10","11","18:00","12.7","","10.7","","88","","9","","9","","","","100.68","","","","","","NA"
"2008-10-11 19:00","2008","10","11","19:00","12.5","","7.7","","73","","7","","7","","","","100.69","","","","","","NA"
"2008-10-11 20:00","2008","10","11","20:00","13.0","","7.2","","68","","7","","11","","","","100.66","","","","","","NA"
"2008-10-11 21:00","2008","10","11","21:00","12.3","","6.7","","69","","7","","11","","","","100.65","","","","","","NA"
"2008-10-11 22:00","2008","10","11","22:00","12.3","","6.9","","70","","5","","11","","","","100.70","","","","","","NA"
"2008-10-11 23:00","2008","10","11","23:00","12.7","","7.5","","71","","6","","11","","","","100.66","","","","","","NA"
"2008-10-12 00:00","2008","10","12","00:00","12.9","","8.2","","73","","6","","11","","","","100.62","","","","","","NA"
"2008-10-12 01:00","2008","10","12","01:00","12.5","","8.9","","79","","5","","7","","","","100.62","","","","","","NA"
"2008-10-12 02:00","2008","10","12","02:00","12.1","","8.9","","81","","4","","7","","","","100.67","","","","","","NA"
"2008-10-12 03:00","2008","10","12","03:00","11.9","","9.3","","84","","6","","7","","","","100.67","","","","","","NA"
"2008-10-12 04:00","2008","10","12","04:00","11.9","","9.7","","86","","7","","13","","","","100.69","","","","","","NA"
"2008-10-12 05:00","2008","10","12","05:00","11.9","","10.7","","92","","7","","11","","","","100.72","","","","","","NA"
"2008-10-12 06:00","2008","10","12","06:00","11.8","","10.8","","94","","7","","11","","","","100.74","","","","","","NA"
"2008-10-12 07:00","2008","10","12","07:00","11.6","","10.7","","94","","7","","11","","","","100.75","","","","","","NA"
"2008-10-12 08:00","2008","10","12","08:00","12.3","","10.9","","91","","7","","13","","","","100.77","","","","","","NA"
"2008-10-12 09:00","2008","10","12","09:00","12.8","","11.2","","90","","8","","15","","","","100.77","","","","","","NA"
"2008-10-12 10:00","2008","10","12","10:00","13.4","","11.6","","89","","9","","15","","","","100.75","","","","","","NA"
"2008-10-12 11:00","2008","10","12","11:00","13.8","","11.5","","86","","9","","11","","","","100.75","","","","","","NA"
"2008-10-12 12:00","2008","10","12","12:00","13.6","","11.6","","88","","10","","15","","","","100.68","","","","","","NA"
"2008-10-12 13:00","2008","10","12","13:00","14.1","","11.9","","87","","8","","13","","","","100.63","","","","","","NA"
"2008-10-12 14:00","2008","10","12","14:00","14.3","","12.0","","86","","9","","11","","","","100.60","","","","","","NA"
"2008-10-12 15:00","2008","10","12","15:00","14.2","","11.7","","85","","9","","11","","","","100.60","","","","","","NA"
"2008-10-12 16:00","2008","10","12","16:00","14.0","","11.9","","87","","9","","9","","","","100.59","","","","","","NA"
"2008-10-12 17:00","2008","10","12","17:00","13.9","","12.3","","90","","8","","9","","","","100.55","","","","","","NA"
"2008-10-12 18:00","2008","10","12","18:00","13.9","","12.3","","90","","8","","13","","","","100.59","","","","","","NA"
"2008-10-12 19:00","2008","10","12","19:00","14.0","","11.9","","87","","7","","13","","","","100.56","","","","","","NA"
"2008-10-12 20:00","2008","10","12","20:00","13.9","","11.6","","86","","7","","9","","","","100.54","","","","","","NA"
"2008-10-12 21:00","2008","10","12","21:00","13.9","","11.9","","88","","4","","4","","","","100.56","","","","","","NA"
"2008-10-12 22:00","2008","10","12","22:00","13.7","","11.4","","86","","4","","6","","","","100.49","","","","","","NA"
"2008-10-12 23:00","2008","10","12","23:00","14.1","","11.3","","83","","2","","7","","","","100.48","","","","","","NA"
"2008-10-13 00:00","2008","10","13","00:00","14.6","","11.3","","81","","1","","4","","","","100.44","","","","","","NA"
"2008-10-13 01:00","2008","10","13","01:00","13.8","","11.1","","84","","7","","4","","","","100.42","","","","","","NA"
"2008-10-13 02:00","2008","10","13","02:00","14.5","","10.6","","77","","8","","4","","","","100.41","","","","","","NA"
"2008-10-13 03:00","2008","10","13","03:00","13.7","","10.4","","80","","5","","2","","","","100.40","","","","","","NA"
"2008-10-13 04:00","2008","10","13","04:00","13.6","","10.2","","80","","8","","4","","","","100.40","","","","","","NA"
"2008-10-13 05:00","2008","10","13","05:00","12.8","","11.1","","89","","8","","2","","","","100.38","","","","","","NA"
"2008-10-13 06:00","2008","10","13","06:00","13.0","","11.5","","91","","7","","6","","","","100.35","","","","","","NA"
"2008-10-13 07:00","2008","10","13","07:00","13.3","","11.9","","91","","4","","7","","","","100.34","","","","","","NA"
"2008-10-13 08:00","2008","10","13","08:00","13.6","","12.2","","91","","6","","7","","","","100.31","","","","","","NA"
"2008-10-13 09:00","2008","10","13","09:00","14.1","","12.2","","88","","8","","9","","","","100.30","","","","","","NA"
"2008-10-13 10:00","2008","10","13","10:00","14.9","","12.8","","87","","9","","7","","","","100.29","","","","","","NA"
"2008-10-13 11:00","2008","10","13","11:00","14.5","","12.3","","87","","8","","11","","","","100.22","","","","","","NA"
"2008-10-13 12:00","2008","10","13","12:00","14.7","","12.2","","85","","8","","13","","","","100.17","","","","","","NA"
"2008-10-13 13:00","2008","10","13","13:00","15.4","","12.2","","81","","8","","13","","","","100.08","","","","","","NA"
"2008-10-13 14:00","2008","10","13","14:00","16.0","","11.4","","74","","15","","4","","","","100.02","","","","","","NA"
"2008-10-13 15:00","2008","10","13","15:00","16.2","","11.4","","73","","12","","4","","","","99.95","","","","","","NA"
"2008-10-13 16:00","2008","10","13","16:00","15.2","","11.3","","78","","13","","6","","","","99.90","","","","","","NA"
"2008-10-13 17:00","2008","10","13","17:00","15.0","","11.3","","79","","10","","6","","","","99.91","","","","","","NA"
"2008-10-13 18:00","2008","10","13","18:00","14.7","","11.5","","81","","8","","9","","","","99.84","","","","","","NA"
"2008-10-13 19:00","2008","10","13","19:00","15.1","","11.3","","78","","10","","6","","","","99.82","","","","","","NA"
"2008-10-13 20:00","2008","10","13","20:00","14.4","","11.2","","81","","9","","9","","","","99.76","","","","","","NA"
"2008-10-13 21:00","2008","10","13","21:00","15.0","","11.3","","79","","5","","7","","","","99.69","","","","","","NA"
"2008-10-13 22:00","2008","10","13","22:00","16.2","","11.8","","75","","22","","6","","","","99.63","","","","","","NA"
"2008-10-13 23:00","2008","10","13","23:00","15.9","","11.9","","77","","9","","7","","","","99.53","","","","","","NA"
"2008-10-14 00:00","2008","10","14","00:00","16.7","","12.6","","77","","22","","6","","","","99.44","","","","","","NA"
"2008-10-14 01:00","2008","10","14","01:00","16.7","","13.0","","79","","19","","7","","","","99.35","","","","","","NA"
"2008-10-14 02:00","2008","10","14","02:00","16.0","","12.9","","82","","21","","9","","","","99.23","","","","","","NA"
"2008-10-14 03:00","2008","10","14","03:00","16.7","","12.0","","74","","23","","24","","","","99.09","","","","","","NA"
"2008-10-14 04:00","2008","10","14","04:00","16.6","","12.4","","76","","22","","33","","","","98.97","","","","","","NA"
"2008-10-14 05:00","2008","10","14","05:00","16.7","","12.6","","77","","23","","30","","","","98.86","","","","","","NA"
"2008-10-14 06:00","2008","10","14","06:00","16.8","","12.9","","78","","22","","44","","","","98.71","","","","","","NA"
"2008-10-14 07:00","2008","10","14","07:00","11.8","","9.5","","86","","29","","37","","","","99.06","","","","","","NA"
"2008-10-14 08:00","2008","10","14","08:00","11.2","","6.2","","71","","29","","37","","","","99.18","","","","","","NA"
"2008-10-14 09:00","2008","10","14","09:00","11.1","","3.4","","59","","29","","43","","","","99.30","","","","","","NA"
"2008-10-14 10:00","2008","10","14","10:00","11.7","","1.5","","50","","29","","28","","","","99.43","","","","","","NA"
"2008-10-14 11:00","2008","10","14","11:00","11.1","","1.4","","51","","29","","35","","","","99.51","","","","","","NA"
"2008-10-14 12:00","2008","10","14","12:00","10.9","","2.5","","56","","28","","35","","","","99.59","","","","","","NA"
"2008-10-14 13:00","2008","10","14","13:00","12.5","","1.5","","47","","29","","26","","","","99.60","","","","","","NA"
"2008-10-14 14:00","2008","10","14","14:00","12.4","","2.4","","50","","27","","28","","","","99.60","","","","","","NA"
"2008-10-14 15:00","2008","10","14","15:00","13.0","","1.9","","47","","28","","24","","","","99.64","","","","","","NA"
"2008-10-14 16:00","2008","10","14","16:00","12.3","","3.4","","55","","27","","28","","","","99.67","","","","","","NA"
"2008-10-14 17:00","2008","10","14","17:00","12.0","","3.3","","55","","27","","26","","","","99.78","","","","","","NA"
"2008-10-14 18:00","2008","10","14","18:00","11.4","","3.9","","60","","28","","19","","","","99.77","","","","","","NA"
"2008-10-14 19:00","2008","10","14","19:00","11.1","","4.5","","64","","28","","19","","","","99.79","","","","","","NA"
"2008-10-14 20:00","2008","10","14","20:00","11.0","","4.9","","66","","28","","17","","","","99.81","","","","","","NA"
"2008-10-14 21:00","2008","10","14","21:00","11.0","","4.8","","66","","29","","15","","","","99.84","","","","","","NA"
"2008-10-14 22:00","2008","10","14","22:00","10.3","","5.7","","73","","25","","11","","","","99.85","","","","","","NA"
"2008-10-14 23:00","2008","10","14","23:00","9.6","","4.0","","68","","33","","9","","","","99.81","","","","","","NA"
"2008-10-15 00:00","2008","10","15","00:00","9.4","","4.3","","70","","30","","7","","","","99.78","","","","","","NA"
"2008-10-15 01:00","2008","10","15","01:00","9.4","","3.7","","68","","31","","7","","","","99.75","","","","","","NA"
"2008-10-15 02:00","2008","10","15","02:00","9.5","","3.6","","67","","28","","11","","","","99.77","","","","","","NA"
"2008-10-15 03:00","2008","10","15","03:00","9.1","","4.2","","71","","30","","6","","","","99.72","","","","","","NA"
"2008-10-15 04:00","2008","10","15","04:00","9.3","","4.0","","69","","31","","4","","","","99.66","","","","","","NA"
"2008-10-15 05:00","2008","10","15","05:00","9.6","","4.7","","71","","30","","6","","","","99.64","","","","","","NA"
"2008-10-15 06:00","2008","10","15","06:00","9.6","","5.5","","76","","27","","9","","","","99.68","","","","","","NA"
"2008-10-15 07:00","2008","10","15","07:00","10.4","","4.3","","66","","24","","7","","","","99.66","","","","","","NA"
"2008-10-15 08:00","2008","10","15","08:00","10.7","","5.2","","69","","21","","19","","","","99.64","","","","","","NA"
"2008-10-15 09:00","2008","10","15","09:00","11.2","","6.4","","72","","18","","19","","","","99.55","","","","","","NA"
"2008-10-15 10:00","2008","10","15","10:00","11.6","","7.7","","77","","19","","19","","","","99.46","","","","","","NA"
"2008-10-15 11:00","2008","10","15","11:00","11.6","","6.6","","71","","20","","17","","","","99.40","","","","","","NA"
"2008-10-15 12:00","2008","10","15","12:00","11.8","","7.1","","73","","22","","9","","","","99.31","","","","","","NA"
"2008-10-15 13:00","2008","10","15","13:00","12.2","","6.5","","68","","25","","17","","","","99.29","","","","","","NA"
"2008-10-15 14:00","2008","10","15","14:00","10.9","","7.9","","82","","25","","17","","","","99.27","","","","","","NA"
"2008-10-15 15:00","2008","10","15","15:00","10.9","","7.9","","82","","24","","20","","","","99.19","","","","","","NA"
"2008-10-15 16:00","2008","10","15","16:00","10.4","","8.1","","86","","26","","15","","","","99.18","","","","","","NA"
"2008-10-15 17:00","2008","10","15","17:00","9.9","","7.7","","86","","27","","13","","","","99.13","","","","","","NA"
"2008-10-15 18:00","2008","10","15","18:00","10.0","","9.1","","94","","24","","13","","","","99.09","","","","","","NA"
"2008-10-15 19:00","2008","10","15","19:00","9.9","","8.7","","92","","24","","19","","","","99.05","","","","","","NA"
"2008-10-15 20:00","2008","10","15","20:00","9.7","","8.7","","93","","24","","19","","","","99.04","","","","","","NA"
"2008-10-15 21:00","2008","10","15","21:00","10.1","","9.3","","95","","25","","17","","","","99.02","","","","","","NA"
"2008-10-15 22:00","2008","10","15","22:00","10.3","","9.3","","94","","27","","15","","","","99.03","","","","","","NA"
"2008-10-15 23:00","2008","10","15","23:00","10.3","","8.9","","91","","28","","19","","","","98.99","","","","","","NA"
"2008-10-16 00:00","2008","10","16","00:00","10.3","","7.4","","82","","30","","19","","","","99.00","","","","","","NA"
"2008-10-16 01:00","2008","10","16","01:00","9.9","","6.8","","81","","30","","15","","","","99.03","","","","","","NA"
"2008-10-16 02:00","2008","10","16","02:00","9.3","","5.2","","76","","29","","17","","","","99.04","","","","","","NA"
"2008-10-16 03:00","2008","10","16","03:00","9.2","","5.4","","77","","29","","19","","","","99.02","","","","","","NA"
"2008-10-16 04:00","2008","10","16","04:00","9.2","","4.8","","74","","29","","20","","","","99.06","","","","","","NA"
"2008-10-16 05:00","2008","10","16","05:00","9.3","","3.4","","67","","30","","24","","","","99.11","","","","","","NA"
"2008-10-16 06:00","2008","10","16","06:00","8.9","","2.8","","66","","30","","19","","","","99.19","","","","","","NA"
"2008-10-16 07:00","2008","10","16","07:00","8.9","","1.8","","61","","30","","24","","","","99.30","","","","","","NA"
"2008-10-16 08:00","2008","10","16","08:00","9.0","","1.6","","60","","30","","26","","","","99.41","","","","","","NA"
"2008-10-16 09:00","2008","10","16","09:00","8.6","","0.7","","58","","30","","24","","","","99.48","","","","","","NA"
"2008-10-16 10:00","2008","10","16","10:00","8.4","","0.6","","58","","32","","19","","","","99.54","","","","","","NA"
"2008-10-16 11:00","2008","10","16","11:00","9.2","","0.3","","54","","34","","15","","","","99.60","","","","","","NA"
"2008-10-16 12:00","2008","10","16","12:00","9.3","","-0.3","","51","","32","","24","","","","99.67","","","","","","NA"
"2008-10-16 13:00","2008","10","16","13:00","10.3","","-0.1","","48","","35","","13","","","","99.71","","","","","","NA"
"2008-10-16 14:00","2008","10","16","14:00","10.3","","0.0","","49","","31","","13","","","","99.76","","","","","","NA"
"2008-10-16 15:00","2008","10","16","15:00","10.9","","-0.5","","45","","33","","15","","","","99.82","","","","","","NA"
"2008-10-16 16:00","2008","10","16","16:00","11.1","","-1.1","","43","","33","","13","","","","99.84","","","","","","NA"
"2008-10-16 17:00","2008","10","16","17:00","10.4","","-1.4","","44","","35","","11","","","","99.89","","","","","","NA"
"2008-10-16 18:00","2008","10","16","18:00","8.9","","-1.1","","49","","36","","7","","","","99.94","","","","","","NA"
"2008-10-16 19:00","2008","10","16","19:00","8.2","","-0.8","","53","","1","","7","","","","100.03","","","","","","NA"
"2008-10-16 20:00","2008","10","16","20:00","7.5","","-1.5","","53","","1","","9","","","","100.06","","","","","","NA"
"2008-10-16 21:00","2008","10","16","21:00","6.7","","-1.4","","56","","1","","9","","","","100.12","","","","","","NA"
"2008-10-16 22:00","2008","10","16","22:00","6.1","","-1.3","","59","","2","","7","","","","100.14","","","","","","NA"
"2008-10-16 23:00","2008","10","16","23:00","5.7","","-1.3","","61","","2","","6","","","","100.17","","","","","","NA"
"2008-10-17 00:00","2008","10","17","00:00","5.5","","-1.4","","61","","2","","6","","","","100.18","","","","","","NA"
"2008-10-17 01:00","2008","10","17","01:00","5.3","","-1.7","","61","","2","","2","","","","100.22","","","","","","NA"
"2008-10-17 02:00","2008","10","17","02:00","5.4","","-2.6","","56","","4","","6","","","","100.23","","","","","","NA"
"2008-10-17 03:00","2008","10","17","03:00","4.9","","-2.7","","58","","4","","6","","","","100.24","","","","","","NA"
"2008-10-17 04:00","2008","10","17","04:00","4.9","","-0.8","","67","","6","","6","","","","100.26","","","","","","NA"
"2008-10-17 05:00","2008","10","17","05:00","4.3","","-2.3","","62","","5","","6","","","","100.26","","","","","","NA"
"2008-10-17 06:00","2008","10","17","06:00","3.4","","-1.3","","71","","33","","6","","","","100.30","","","","","","NA"
"2008-10-17 07:00","2008","10","17","07:00","3.9","","-2.7","","62","","34","","6","","","","100.31","","","","","","NA"
"2008-10-17 08:00","2008","10","17","08:00","5.8","","-2.0","","57","","35","","4","","","","100.34","","","","","","NA"
"2008-10-17 09:00","2008","10","17","09:00","7.3","","-2.0","","52","","26","","4","","","","100.36","","","","","","NA"
"2008-10-17 10:00","2008","10","17","10:00","7.6","","-0.7","","56","","18","","7","","","","100.38","","","","","","NA"
"2008-10-17 11:00","2008","10","17","11:00","7.8","","0.0","","58","","20","","13","","","","100.36","","","","","","NA"
"2008-10-17 12:00","2008","10","17","12:00","8.4","","0.5","","57","","18","","13","","","","100.32","","","","","","NA"
"2008-10-17 13:00","2008","10","17","13:00","8.5","","-1.5","","49","","24","","9","","","","100.26","","","","","","NA"
"2008-10-17 14:00","2008","10","17","14:00","9.4","","-3.5","","40","","28","","13","","","","100.19","","","","","","NA"
"2008-10-17 15:00","2008","10","17","15:00","9.5","","-1.6","","46","","26","","15","","","","100.17","","","","","","NA"
"2008-10-17 16:00","2008","10","17","16:00","9.9","","-3.4","","39","","27","","11","","","","100.15","","","","","","NA"
"2008-10-17 17:00","2008","10","17","17:00","9.2","","-2.7","","43","","26","","11","","","","100.14","","","","","","NA"
"2008-10-17 18:00","2008","10","17","18:00","8.2","","-1.7","","50","","30","","7","","","","100.18","","","","","","NA"
"2008-10-17 19:00","2008","10","17","19:00","8.1","","-2.1","","49","","31","","11","","","","100.20","","","","","","NA"
"2008-10-17 20:00","2008","10","17","20:00","7.5","","-0.2","","58","","32","","9","","","","100.21","","","","","","NA"
"2008-10-17 21:00","2008","10","17","21:00","7.2","","0.3","","61","","33","","7","","","","100.23","","","","","","NA"
"2008-10-17 22:00","2008","10","17","22:00","7.0","","0.7","","64","","34","","9","","","","100.24","","","","","","NA"
"2008-10-17 23:00","2008","10","17","23:00","6.4","","-0.3","","62","","33","","7","","","","100.26","","","","","","NA"
"2008-10-18 00:00","2008","10","18","00:00","5.9","","-2.1","","56","","2","","9","","","","100.27","","","","","","NA"
"2008-10-18 01:00","2008","10","18","01:00","6.0","","-3.5","","50","","3","","13","","","","100.29","","","","","","NA"
"2008-10-18 02:00","2008","10","18","02:00","5.9","","-4.3","","48","","4","","11","","","","100.32","","","","","","NA"
"2008-10-18 03:00","2008","10","18","03:00","5.7","","-4.2","","49","","5","","11","","","","100.33","","","","","","NA"
"2008-10-18 04:00","2008","10","18","04:00","4.7","","-3.0","","57","","6","","13","","","","100.37","","","","","","NA"
"2008-10-18 05:00","2008","10","18","05:00","4.3","","-3.4","","57","","6","","13","","","","100.41","","","","","","NA"
"2008-10-18 06:00","2008","10","18","06:00","4.0","","-3.2","","59","","5","","11","","","","100.46","","","","","","NA"
"2008-10-18 07:00","2008","10","18","07:00","4.0","","-3.6","","58","","5","","9","","","","100.50","","","","","","NA"
"2008-10-18 08:00","2008","10","18","08:00","5.5","","-1.4","","61","","6","","9","","","","100.55","","","","","","NA"
"2008-10-18 09:00","2008","10","18","09:00","5.8","","-1.5","","59","","9","","11","","","","100.59","","","","","","NA"
"2008-10-18 10:00","2008","10","18","10:00","6.6","","0.6","","65","","10","","7","","","","100.60","","","","","","NA"
"2008-10-18 11:00","2008","10","18","11:00","7.5","","1.4","","65","","12","","7","","","","100.62","","","","","","NA"
"2008-10-18 12:00","2008","10","18","12:00","8.2","","-1.8","","49","","16","","9","","","","100.62","","","","","","NA"
"2008-10-18 13:00","2008","10","18","13:00","8.4","","-2.6","","46","","16","","11","","","","100.58","","","","","","NA"
"2008-10-18 14:00","2008","10","18","14:00","8.5","","-2.4","","46","","16","","11","","","","100.55","","","","","","NA"
"2008-10-18 15:00","2008","10","18","15:00","8.7","","-1.2","","50","","15","","11","","","","100.51","","","","","","NA"
"2008-10-18 16:00","2008","10","18","16:00","8.9","","-1.7","","47","","16","","13","","","","100.49","","","","","","NA"
"2008-10-18 17:00","2008","10","18","17:00","9.0","","-1.4","","48","","18","","15","","","","100.49","","","","","","NA"
"2008-10-18 18:00","2008","10","18","18:00","9.0","","0.0","","53","","18","","19","","","","100.48","","","","","","NA"
"2008-10-18 19:00","2008","10","18","19:00","9.1","","0.9","","56","","20","","22","","","","100.49","","","","","","NA"
"2008-10-18 20:00","2008","10","18","20:00","8.9","","0.2","","54","","21","","24","","","","100.47","","","","","","NA"
"2008-10-18 21:00","2008","10","18","21:00","8.9","","-0.2","","53","","20","","19","","","","100.48","","","","","","NA"
"2008-10-18 22:00","2008","10","18","22:00","9.0","","-0.2","","52","","20","","22","","","","100.47","","","","","","NA"
"2008-10-18 23:00","2008","10","18","23:00","8.9","","-0.3","","52","","22","","24","","","","100.46","","","","","","NA"
"2008-10-19 00:00","2008","10","19","00:00","9.2","","0.0","","53","","20","","26","","","","100.41","","","","","","NA"
"2008-10-19 01:00","2008","10","19","01:00","9.4","","2.3","","61","","21","","28","","","","100.40","","","","","","NA"
"2008-10-19 02:00","2008","10","19","02:00","9.6","","1.9","","59","","21","","32","","","","100.40","","","","","","NA"
"2008-10-19 03:00","2008","10","19","03:00","9.7","","1.5","","57","","21","","35","","","","100.40","","","","","","NA"
"2008-10-19 04:00","2008","10","19","04:00","9.9","","3.1","","63","","21","","33","","","","100.40","","","","","","NA"
"2008-10-19 05:00","2008","10","19","05:00","9.9","","2.7","","61","","21","","33","","","","100.40","","","","","","NA"
"2008-10-19 06:00","2008","10","19","06:00","10.1","","3.8","","65","","21","","32","","","","100.39","","","","","","NA"
"2008-10-19 07:00","2008","10","19","07:00","10.2","","3.8","","64","","21","","33","","","","100.37","","","","","","NA"
"2008-10-19 08:00","2008","10","19","08:00","10.2","","2.6","","59","","21","","33","","","","100.37","","","","","","NA"
"2008-10-19 09:00","2008","10","19","09:00","10.2","","3.9","","65","","22","","30","","","","100.36","","","","","","NA"
"2008-10-19 10:00","2008","10","19","10:00","10.9","","3.6","","61","","23","","43","","","","100.32","","","","","","NA"
"2008-10-19 11:00","2008","10","19","11:00","10.9","","4.1","","63","","22","","41","","","","100.32","","","","","","NA"
"2008-10-19 12:00","2008","10","19","12:00","11.0","","3.3","","59","","22","","41","","","","100.22","","","","","","NA"
"2008-10-19 13:00","2008","10","19","13:00","11.1","","5.2","","67","","21","","32","","","","100.18","","","","","","NA"
"2008-10-19 14:00","2008","10","19","14:00","10.8","","3.3","","60","","20","","37","","","","100.14","","","","","","NA"
"2008-10-19 15:00","2008","10","19","15:00","10.9","","3.4","","60","","19","","39","","","","100.12","","","","","","NA"
"2008-10-19 16:00","2008","10","19","16:00","10.6","","3.3","","61","","20","","37","","","","100.03","","","","","","NA"
"2008-10-19 17:00","2008","10","19","17:00","10.7","","5.3","","69","","20","","41","","","","99.99","","","","","","NA"
"2008-10-19 18:00","2008","10","19","18:00","10.8","","5.6","","70","","20","","39","","","","100.01","","","","","","NA"
"2008-10-19 19:00","2008","10","19","19:00","10.8","","6.2","","73","","20","","35","","","","99.95","","","","","","NA"
"2008-10-19 20:00","2008","10","19","20:00","10.6","","6.2","","74","","21","","35","","","","99.96","","","","","","NA"
"2008-10-19 21:00","2008","10","19","21:00","10.2","","6.8","","79","","21","","28","","","","99.94","","","","","","NA"
"2008-10-19 22:00","2008","10","19","22:00","10.4","","6.7","","78","","22","","30","","","","99.90","","","","","","NA"
"2008-10-19 23:00","2008","10","19","23:00","10.2","","7.0","","81","","23","","30","","","","99.87","","","","","","NA"
"2008-10-20 00:00","2008","10","20","00:00","10.0","","6.1","","77","","21","","32","","","","99.83","","","","","","NA"
"2008-10-20 01:00","2008","10","20","01:00","10.3","","6.3","","76","","22","","26","","","","99.78","","","","","","NA"
"2008-10-20 02:00","2008","10","20","02:00","10.4","","6.4","","76","","21","","24","","","","99.72","","","","","","NA"
"2008-10-20 03:00","2008","10","20","03:00","10.4","","6.7","","78","","22","","24","","","","99.67","","","","","","NA"
"2008-10-20 04:00","2008","10","20","04:00","10.4","","6.7","","78","","25","","11","","","","99.65","","","","","","NA"
"2008-10-20 05:00","2008","10","20","05:00","10.7","","7.1","","78","","24","","22","","","","99.61","","","","","","NA"
"2008-10-20 06:00","2008","10","20","06:00","11.0","","6.3","","73","","24","","20","","","","99.57","","","","","","NA"
"2008-10-20 07:00","2008","10","20","07:00","10.8","","6.7","","76","","23","","22","","","","99.51","","","","","","NA"
"2008-10-20 08:00","2008","10","20","08:00","10.7","","6.6","","76","","24","","17","","","","99.53","","","","","","NA"
"2008-10-20 09:00","2008","10","20","09:00","10.7","","6.7","","76","","24","","17","","","","99.51","","","","","","NA"
"2008-10-20 10:00","2008","10","20","10:00","10.0","","8.1","","88","","28","","13","","","","99.49","","","","","","NA"
"2008-10-20 11:00","2008","10","20","11:00","10.3","","8.5","","89","","26","","7","","","","99.45","","","","","","NA"
"2008-10-20 12:00","2008","10","20","12:00","10.3","","8.6","","89","","26","","7","","","","99.39","","","","","","NA"
"2008-10-20 13:00","2008","10","20","13:00","10.3","","8.9","","91","","27","","13","","","","99.33","","","","","","NA"
"2008-10-20 14:00","2008","10","20","14:00","10.3","","9.2","","93","","26","","11","","","","99.30","","","","","","NA"
"2008-10-20 15:00","2008","10","20","15:00","10.5","","9.6","","94","","28","","11","","","","99.28","","","","","","NA"
"2008-10-20 16:00","2008","10","20","16:00","10.5","","9.6","","94","","29","","11","","","","99.25","","","","","","NA"
"2008-10-20 17:00","2008","10","20","17:00","10.4","","9.3","","93","","31","","7","","","","99.25","","","","","","NA"
"2008-10-20 18:00","2008","10","20","18:00","8.4","","6.8","","90","","1","","17","","","","99.30","","","","","","NA"
"2008-10-20 19:00","2008","10","20","19:00","7.2","","5.7","","90","","1","","22","","","","99.31","","","","","","NA"
"2008-10-20 20:00","2008","10","20","20:00","6.3","","4.2","","86","","36","","19","","","","99.40","","","","","","NA"
"2008-10-20 21:00","2008","10","20","21:00","4.9","","2.8","","86","","1","","22","","","","99.44","","","","","","NA"
"2008-10-20 22:00","2008","10","20","22:00","3.2","","1.0","","85","","2","","20","","","","99.50","","","","","","NA"
"2008-10-20 23:00","2008","10","20","23:00","2.2","","0.6","","89","","2","","13","","","","99.50","","","","","","NA"
"2008-10-21 00:00","2008","10","21","00:00","2.2","","0.0","","85","","1","","28","","","","99.48","","","","","","NA"
"2008-10-21 01:00","2008","10","21","01:00","1.7","","-0.2","","87","","1","","20","","","","99.54","","","","","","NA"
"2008-10-21 02:00","2008","10","21","02:00","0.9","","-0.5","","90","","35","","15","","","","99.63","","","","","","NA"
"2008-10-21 03:00","2008","10","21","03:00","0.6","","-0.8","","90","","36","","24","","","","99.67","","","","","","NA"
"2008-10-21 04:00","2008","10","21","04:00","0.9","","-1.1","","86","","35","","13","","","","99.74","","","","","","NA"
"2008-10-21 05:00","2008","10","21","05:00","0.9","","-2.3","","79","","35","","20","","","","99.81","","","","","","NA"
"2008-10-21 06:00","2008","10","21","06:00","0.9","","-3.7","","71","","35","","20","","","","99.90","","","","","","NA"
"2008-10-21 07:00","2008","10","21","07:00","0.1","","-6.1","","63","","1","","24","","","","100.00","","","","","","NA"
"2008-10-21 08:00","2008","10","21","08:00","-0.1","","-6.1","","64","","1","","19","","","","100.06","","","","-5","","NA"
"2008-10-21 09:00","2008","10","21","09:00","0.3","","-6.1","","62","","2","","19","","","","100.06","","","","","","NA"
"2008-10-21 10:00","2008","10","21","10:00","2.0","","-6.1","","55","","36","","19","","","","100.12","","","","","","NA"
"2008-10-21 11:00","2008","10","21","11:00","3.1","","-6.5","","49","","1","","20","","","","100.13","","","","","","NA"
"2008-10-21 12:00","2008","10","21","12:00","4.3","","-6.6","","45","","1","","17","","","","100.15","","","","","","NA"
"2008-10-21 13:00","2008","10","21","13:00","4.5","","-6.3","","45","","35","","19","","","","100.13","","","","","","NA"
"2008-10-21 14:00","2008","10","21","14:00","5.2","","-7.0","","41","","36","","17","","","","100.16","","","","","","NA"
"2008-10-21 15:00","2008","10","21","15:00","4.8","","-7.5","","40","","34","","20","","","","100.23","","","","","","NA"
"2008-10-21 16:00","2008","10","21","16:00","5.0","","-9.0","","36","","36","","22","","","","100.27","","","","","","NA"
"2008-10-21 17:00","2008","10","21","17:00","4.6","","-9.4","","35","","1","","19","","","","100.36","","","","","","NA"
"2008-10-21 18:00","2008","10","21","18:00","3.6","","-8.7","","40","","35","","13","","","","100.44","","","","","","NA"
"2008-10-21 19:00","2008","10","21","19:00","3.1","","-8.9","","41","","36","","13","","","","100.53","","","","","","NA"
"2008-10-21 20:00","2008","10","21","20:00","2.5","","-9.8","","40","","1","","19","","","","100.57","","","","","","NA"
"2008-10-21 21:00","2008","10","21","21:00","1.8","","-9.9","","41","","1","","15","","","","100.66","","","","","","NA"
"2008-10-21 22:00","2008","10","21","22:00","1.3","","-10.0","","43","","3","","11","","","","100.69","","","","","","NA"
"2008-10-21 23:00","2008","10","21","23:00","0.9","","-9.8","","45","","3","","13","","","","100.70","","","","","","NA"
"2008-10-22 00:00","2008","10","22","00:00","0.2","","-9.4","","48","","3","","9","","","","100.75","","","","","","NA"
"2008-10-22 01:00","2008","10","22","01:00","-0.2","","-9.1","","51","","1","","7","","","","100.81","","","","-3","","NA"
"2008-10-22 02:00","2008","10","22","02:00","-0.7","","-9.2","","53","","2","","15","","","","100.86","","","","-5","","NA"
"2008-10-22 03:00","2008","10","22","03:00","-1.2","","-9.1","","55","","36","","11","","","","100.91","","","","-5","","NA"
"2008-10-22 04:00","2008","10","22","04:00","-1.5","","-8.9","","57","","34","","7","","","","100.97","","","","-4","","NA"
"2008-10-22 05:00","2008","10","22","05:00","-1.9","","-9.0","","58","","32","","6","","","","101.03","","","","-4","","NA"
"2008-10-22 06:00","2008","10","22","06:00","-2.1","","-9.3","","58","","1","","7","","","","101.05","","","","-5","","NA"
"2008-10-22 07:00","2008","10","22","07:00","-2.3","","-9.2","","59","","34","","6","","","","101.13","","","","-5","","NA"
"2008-10-22 08:00","2008","10","22","08:00","-1.5","","-8.8","","57","","1","","6","","","","101.18","","","","-4","","NA"
"2008-10-22 09:00","2008","10","22","09:00","-0.4","","-8.8","","53","","2","","7","","","","101.22","","","","-3","","NA"
"2008-10-22 10:00","2008","10","22","10:00","1.5","","-9.3","","44","","3","","9","","","","101.20","","","","","","NA"
"2008-10-22 11:00","2008","10","22","11:00","2.5","","-11.3","","35","","7","","11","","","","101.26","","","","","","NA"
"2008-10-22 12:00","2008","10","22","12:00","3.8","","-11.1","","33","","8","","11","","","","101.25","","","","","","NA"
"2008-10-22 13:00","2008","10","22","13:00","5.1","","-12.4","","27","","9","","17","","","","101.21","","","","","","NA"
"2008-10-22 14:00","2008","10","22","14:00","6.0","","-13.6","","23","","8","","13","","","","101.19","","","","","","NA"
"2008-10-22 15:00","2008","10","22","15:00","7.0","","-15.7","","18","","6","","9","","","","101.19","","","","","","NA"
"2008-10-22 16:00","2008","10","22","16:00","7.1","","-14.2","","20","","6","","9","","","","101.18","","","","","","NA"
"2008-10-22 17:00","2008","10","22","17:00","6.2","","-11.4","","27","","8","","19","","","","101.19","","","","","","NA"
"2008-10-22 18:00","2008","10","22","18:00","4.4","","-12.1","","29","","6","","9","","","","101.26","","","","","","NA"
"2008-10-22 19:00","2008","10","22","19:00","3.7","","-7.7","","43","","7","","11","","","","101.31","","","","","","NA"
"2008-10-22 20:00","2008","10","22","20:00","3.0","","-5.0","","56","","8","","19","","","","101.32","","","","","","NA"
"2008-10-22 21:00","2008","10","22","21:00","2.2","","-4.0","","64","","7","","17","","","","101.34","","","","","","NA"
"2008-10-22 22:00","2008","10","22","22:00","1.5","","-3.9","","67","","8","","20","","","","101.37","","","","","","NA"
"2008-10-22 23:00","2008","10","22","23:00","0.5","","-3.6","","74","","5","","11","","","","101.36","","","","","","NA"
"2008-10-23 00:00","2008","10","23","00:00","0.6","","-3.0","","77","","6","","11","","","","101.36","","","","","","NA"
"2008-10-23 01:00","2008","10","23","01:00","0.7","","-2.3","","80","","5","","9","","","","101.39","","","","","","NA"
"2008-10-23 02:00","2008","10","23","02:00","2.2","","-0.7","","81","","9","","7","","","","101.40","","","","","","NA"
"2008-10-23 03:00","2008","10","23","03:00","5.8","","-0.3","","65","","14","","30","","","","101.33","","","","","","NA"
"2008-10-23 04:00","2008","10","23","04:00","5.7","","-0.3","","65","","15","","26","","","","101.32","","","","","","NA"
"2008-10-23 05:00","2008","10","23","05:00","6.2","","0.8","","68","","14","","19","","","","101.36","","","","","","NA"
"2008-10-23 06:00","2008","10","23","06:00","6.1","","1.9","","74","","18","","22","","","","101.36","","","","","","NA"
"2008-10-23 07:00","2008","10","23","07:00","5.7","","1.0","","72","","17","","22","","","","101.37","","","","","","NA"
"2008-10-23 08:00","2008","10","23","08:00","5.4","","0.3","","70","","18","","17","","","","101.46","","","","","","NA"
"2008-10-23 09:00","2008","10","23","09:00","5.4","","0.2","","69","","15","","11","","","","101.45","","","","","","NA"
"2008-10-23 10:00","2008","10","23","10:00","5.6","","0.2","","68","","14","","20","","","","101.43","","","","","","NA"
"2008-10-23 11:00","2008","10","23","11:00","5.7","","0.7","","70","","16","","19","","","","101.44","","","","","","NA"
"2008-10-23 12:00","2008","10","23","12:00","6.0","","1.4","","72","","16","","17","","","","101.38","","","","","","NA"
"2008-10-23 13:00","2008","10","23","13:00","6.0","","1.4","","72","","17","","15","","","","101.27","","","","","","NA"
"2008-10-23 14:00","2008","10","23","14:00","6.1","","0.7","","68","","15","","17","","","","101.21","","","","","","NA"
"2008-10-23 15:00","2008","10","23","15:00","6.5","","1.1","","68","","16","","13","","","","101.16","","","","","","NA"
"2008-10-23 16:00","2008","10","23","16:00","6.4","","0.6","","66","","13","","22","","","","101.06","","","","","","NA"
"2008-10-23 17:00","2008","10","23","17:00","6.6","","1.7","","71","","13","","20","","","","100.99","","","","","","NA"
"2008-10-23 18:00","2008","10","23","18:00","6.9","","2.4","","73","","14","","26","","","","100.93","","","","","","NA"
"2008-10-23 19:00","2008","10","23","19:00","7.7","","3.1","","73","","14","","30","","","","100.83","","","","","","NA"
"2008-10-23 20:00","2008","10","23","20:00","8.1","","3.6","","73","","15","","28","","","","100.79","","","","","","NA"
"2008-10-23 21:00","2008","10","23","21:00","8.2","","4.3","","76","","14","","32","","","","100.76","","","","","","NA"
"2008-10-23 22:00","2008","10","23","22:00","8.4","","4.8","","78","","14","","32","","","","100.72","","","","","","NA"
"2008-10-23 23:00","2008","10","23","23:00","8.4","","5.2","","80","","14","","28","","","","100.67","","","","","","NA"
"2008-10-24 00:00","2008","10","24","00:00","8.4","","5.2","","80","","15","","28","","","","100.60","","","","","","NA"
"2008-10-24 01:00","2008","10","24","01:00","8.2","","2.4","","67","","19","","26","","","","100.57","","","","","","NA"
"2008-10-24 02:00","2008","10","24","02:00","8.0","","2.9","","70","","19","","26","","","","100.51","","","","","","NA"
"2008-10-24 03:00","2008","10","24","03:00","7.6","","3.1","","73","","18","","20","","","","100.45","","","","","","NA"
"2008-10-24 04:00","2008","10","24","04:00","7.5","","3.5","","76","","18","","19","","","","100.39","","","","","","NA"
"2008-10-24 05:00","2008","10","24","05:00","8.0","","3.3","","72","","18","","22","","","","100.33","","","","","","NA"
"2008-10-24 06:00","2008","10","24","06:00","5.2","","2.3","","82","","6","","11","","","","100.23","","","","","","NA"
"2008-10-24 07:00","2008","10","24","07:00","4.8","","3.3","","90","","6","","13","","","","100.20","","","","","","NA"
"2008-10-24 08:00","2008","10","24","08:00","6.2","","4.3","","88","","8","","13","","","","100.22","","","","","","NA"
"2008-10-24 09:00","2008","10","24","09:00","8.4","","5.7","","83","","13","","32","","","","100.13","","","","","","NA"
"2008-10-24 10:00","2008","10","24","10:00","8.3","","5.6","","83","","13","","28","","","","100.04","","","","","","NA"
"2008-10-24 11:00","2008","10","24","11:00","8.0","","4.0","","76","","14","","32","","","","99.99","","","","","","NA"
"2008-10-24 12:00","2008","10","24","12:00","8.1","","4.6","","79","","13","","32","","","","99.83","","","","","","NA"
"2008-10-24 13:00","2008","10","24","13:00","8.3","","4.5","","77","","14","","33","","","","99.73","","","","","","NA"
"2008-10-24 14:00","2008","10","24","14:00","8.4","","4.4","","76","","13","","33","","","","99.65","","","","","","NA"
"2008-10-24 15:00","2008","10","24","15:00","8.6","","5.1","","79","","13","","32","","","","99.57","","","","","","NA"
"2008-10-24 16:00","2008","10","24","16:00","8.8","","5.0","","77","","13","","33","","","","99.46","","","","","","NA"
"2008-10-24 17:00","2008","10","24","17:00","9.0","","5.3","","78","","14","","43","","","","99.46","","","","","","NA"
"2008-10-24 18:00","2008","10","24","18:00","9.1","","4.9","","75","","15","","41","","","","99.46","","","","","","NA"
"2008-10-24 19:00","2008","10","24","19:00","9.1","","5.2","","77","","14","","41","","","","99.35","","","","","","NA"
"2008-10-24 20:00","2008","10","24","20:00","9.2","","5.8","","79","","15","","39","","","","99.31","","","","","","NA"
"2008-10-24 21:00","2008","10","24","21:00","9.1","","6.2","","82","","15","","30","","","","99.18","","","","","","NA"
"2008-10-24 22:00","2008","10","24","22:00","9.2","","6.6","","84","","15","","33","","","","99.15","","","","","","NA"
"2008-10-24 23:00","2008","10","24","23:00","9.1","","6.6","","84","","16","","32","","","","99.07","","","","","","NA"
"2008-10-25 00:00","2008","10","25","00:00","8.9","","6.8","","87","","16","","32","","","","98.99","","","","","","NA"
"2008-10-25 01:00","2008","10","25","01:00","9.2","","8.0","","92","","19","","26","","","","98.94","","","","","","NA"
"2008-10-25 02:00","2008","10","25","02:00","9.4","","8.3","","93","","18","","20","","","","98.84","","","","","","NA"
"2008-10-25 03:00","2008","10","25","03:00","9.3","","8.1","","92","","16","","32","","","","98.76","","","","","","NA"
"2008-10-25 04:00","2008","10","25","04:00","9.3","","8.2","","93","","17","","26","","","","98.71","","","","","","NA"
"2008-10-25 05:00","2008","10","25","05:00","9.3","","8.4","","94","","18","","22","","","","98.66","","","","","","NA"
"2008-10-25 06:00","2008","10","25","06:00","9.4","","8.4","","93","","16","","26","","","","98.57","","","","","","NA"
"2008-10-25 07:00","2008","10","25","07:00","9.5","","8.4","","93","","17","","20","","","","98.54","","","","","","NA"
"2008-10-25 08:00","2008","10","25","08:00","9.4","","7.8","","90","","17","","17","","","","98.49","","","","","","NA"
"2008-10-25 09:00","2008","10","25","09:00","9.4","","7.8","","90","","18","","17","","","","98.45","","","","","","NA"
"2008-10-25 10:00","2008","10","25","10:00","9.5","","7.7","","89","","18","","20","","","","98.35","","","","","","NA"
"2008-10-25 11:00","2008","10","25","11:00","9.6","","7.6","","87","","18","","22","","","","98.27","","","","","","NA"
"2008-10-25 12:00","2008","10","25","12:00","9.6","","7.3","","86","","18","","22","","","","98.18","","","","","","NA"
"2008-10-25 13:00","2008","10","25","13:00","9.4","","6.8","","84","","20","","22","","","","98.08","","","","","","NA"
"2008-10-25 14:00","2008","10","25","14:00","9.3","","5.9","","79","","23","","17","","","","98.03","","","","","","NA"
"2008-10-25 15:00","2008","10","25","15:00","9.3","","5.2","","76","","22","","28","","","","97.97","","","","","","NA"
"2008-10-25 16:00","2008","10","25","16:00","8.7","","3.9","","72","","22","","37","","","","97.91","","","","","","NA"
"2008-10-25 17:00","2008","10","25","17:00","8.4","","4.0","","74","","23","","33","","","","97.90","","","","","","NA"
"2008-10-25 18:00","2008","10","25","18:00","8.8","","4.9","","76","","22","","30","","","","97.91","","","","","","NA"
"2008-10-25 19:00","2008","10","25","19:00","8.5","","5.0","","79","","23","","28","","","","97.92","","","","","","NA"
"2008-10-25 20:00","2008","10","25","20:00","8.6","","5.5","","81","","24","","26","","","","97.90","","","","","","NA"
"2008-10-25 21:00","2008","10","25","21:00","9.2","","5.6","","78","","23","","33","","","","97.88","","","","","","NA"
"2008-10-25 22:00","2008","10","25","22:00","9.4","","4.8","","73","","24","","39","","","","97.85","","","","","","NA"
"2008-10-25 23:00","2008","10","25","23:00","9.4","","5.0","","74","","24","","37","","","","97.81","","","","","","NA"
"2008-10-26 00:00","2008","10","26","00:00","9.4","","5.1","","74","","23","","43","","","","97.72","","","","","","NA"
"2008-10-26 01:00","2008","10","26","01:00","9.3","","5.3","","76","","23","","43","","","","97.68","","","","","","NA"
"2008-10-26 02:00","2008","10","26","02:00","9.2","","5.2","","76","","22","","37","","","","97.65","","","","","","NA"
"2008-10-26 03:00","2008","10","26","03:00","9.0","","5.4","","78","","23","","37","","","","97.61","","","","","","NA"
"2008-10-26 04:00","2008","10","26","04:00","8.7","","6.2","","84","","21","","35","","","","97.58","","","","","","NA"
"2008-10-26 05:00","2008","10","26","05:00","8.9","","6.7","","86","","20","","30","","","","97.54","","","","","","NA"
"2008-10-26 06:00","2008","10","26","06:00","8.7","","7.3","","91","","21","","28","","","","97.51","","","","","","NA"
"2008-10-26 07:00","2008","10","26","07:00","8.7","","6.8","","88","","22","","33","","","","97.48","","","","","","NA"
"2008-10-26 08:00","2008","10","26","08:00","9.0","","7.2","","88","","20","","30","","","","97.46","","","","","","NA"
"2008-10-26 09:00","2008","10","26","09:00","9.2","","7.1","","87","","22","","35","","","","97.40","","","","","","NA"
"2008-10-26 10:00","2008","10","26","10:00","9.2","","6.9","","86","","22","","37","","","","97.40","","","","","","NA"
"2008-10-26 11:00","2008","10","26","11:00","9.3","","6.8","","84","","22","","37","","","","97.37","","","","","","NA"
"2008-10-26 12:00","2008","10","26","12:00","9.8","","5.8","","76","","24","","28","","","","97.34","","","","","","NA"
"2008-10-26 13:00","2008","10","26","13:00","9.3","","4.1","","70","","26","","26","","","","97.35","","","","","","NA"
"2008-10-26 14:00","2008","10","26","14:00","9.9","","5.0","","72","","26","","19","","","","97.31","","","","","","NA"
"2008-10-26 15:00","2008","10","26","15:00","5.5","","2.9","","83","","30","","19","","","","97.40","","","","","","NA"
"2008-10-26 16:00","2008","10","26","16:00","6.0","","3.0","","81","","29","","13","","","","97.42","","","","","","NA"
"2008-10-26 17:00","2008","10","26","17:00","6.8","","3.6","","80","","26","","19","","","","97.51","","","","","","NA"
"2008-10-26 18:00","2008","10","26","18:00","7.5","","3.8","","77","","25","","22","","","","97.57","","","","","","NA"
"2008-10-26 19:00","2008","10","26","19:00","5.9","","3.0","","82","","27","","24","","","","97.65","","","","","","NA"
"2008-10-26 20:00","2008","10","26","20:00","6.2","","2.7","","78","","25","","19","","","","97.68","","","","","","NA"
"2008-10-26 21:00","2008","10","26","21:00","5.9","","3.4","","84","","26","","26","","","","97.71","","","","","","NA"
"2008-10-26 22:00","2008","10","26","22:00","5.9","","4.0","","88","","25","","20","","","","97.74","","","","","","NA"
"2008-10-26 23:00","2008","10","26","23:00","6.6","","3.8","","82","","29","","17","","","","97.79","","","","","","NA"
"2008-10-27 00:00","2008","10","27","00:00","6.5","","3.6","","82","","29","","15","","","","97.85","","","","","","NA"
"2008-10-27 01:00","2008","10","27","01:00","6.4","","2.7","","77","","30","","20","","","","97.90","","","","","","NA"
"2008-10-27 02:00","2008","10","27","02:00","5.4","","2.1","","79","","31","","17","","","","97.97","","","","","","NA"
"2008-10-27 03:00","2008","10","27","03:00","4.9","","1.7","","80","","31","","11","","","","98.05","","","","","","NA"
"2008-10-27 04:00","2008","10","27","04:00","4.9","","1.9","","81","","30","","9","","","","98.12","","","","","","NA"
"2008-10-27 05:00","2008","10","27","05:00","4.5","","1.8","","83","","32","","13","","","","98.22","","","","","","NA"
"2008-10-27 06:00","2008","10","27","06:00","4.0","","1.1","","81","","30","","13","","","","98.33","","","","","","NA"
"2008-10-27 07:00","2008","10","27","07:00","4.1","","1.0","","80","","31","","11","","","","98.43","","","","","","NA"
"2008-10-27 08:00","2008","10","27","08:00","4.4","","1.0","","79","","31","","11","","","","98.56","","","","","","NA"
"2008-10-27 09:00","2008","10","27","09:00","5.9","","1.1","","71","","32","","17","","","","98.67","","","","","","NA"
"2008-10-27 10:00","2008","10","27","10:00","5.5","","0.8","","72","","31","","17","","","","98.75","","","","","","NA"
"2008-10-27 11:00","2008","10","27","11:00","6.1","","1.1","","70","","32","","17","","","","98.86","","","","","","NA"
"2008-10-27 12:00","2008","10","27","12:00","6.1","","1.0","","70","","34","","13","","","","98.94","","","","","","NA"
"2008-10-27 13:00","2008","10","27","13:00","5.7","","1.9","","77","","30","","19","","","","99.01","","","","","","NA"
"2008-10-27 14:00","2008","10","27","14:00","6.0","","1.9","","75","","35","","13","","","","99.10","","","","","","NA"
"2008-10-27 15:00","2008","10","27","15:00","5.9","","1.3","","72","","36","","11","","","","99.19","","","","","","NA"
"2008-10-27 16:00","2008","10","27","16:00","6.7","","0.4","","64","","33","","13","","","","99.29","","","","","","NA"
"2008-10-27 17:00","2008","10","27","17:00","5.9","","-0.6","","63","","36","","9","","","","99.37","","","","","","NA"
"2008-10-27 18:00","2008","10","27","18:00","4.8","","-0.3","","70","","1","","9","","","","99.51","","","","","","NA"
"2008-10-27 19:00","2008","10","27","19:00","3.6","","-1.1","","71","","35","","11","","","","99.61","","","","","","NA"
"2008-10-27 20:00","2008","10","27","20:00","2.8","","-1.8","","72","","36","","13","","","","99.71","","","","","","NA"
"2008-10-27 21:00","2008","10","27","21:00","2.0","","-2.5","","72","","2","","7","","","","99.75","","","","","","NA"
"2008-10-27 22:00","2008","10","27","22:00","1.6","","-3.3","","70","","1","","17","","","","99.78","","","","","","NA"
"2008-10-27 23:00","2008","10","27","23:00","1.3","","-3.5","","70","","36","","9","","","","99.82","","","","","","NA"
"2008-10-28 00:00","2008","10","28","00:00","1.3","","-4.4","","66","","2","","7","","","","99.86","","","","","","NA"
"2008-10-28 01:00","2008","10","28","01:00","1.1","","-4.5","","66","","2","","7","","","","99.88","","","","","","NA"
"2008-10-28 02:00","2008","10","28","02:00","0.1","","-5.4","","66","","3","","7","","","","99.91","","","","","","NA"
"2008-10-28 03:00","2008","10","28","03:00","-0.1","","-4.4","","73","","36","","9","","","","99.88","","","","-3","","NA"
"2008-10-28 04:00","2008","10","28","04:00","-0.3","","-5.1","","70","","35","","13","","","","99.87","","","","-4","","NA"
"2008-10-28 05:00","2008","10","28","05:00","-0.4","","-5.3","","69","","35","","9","","","","99.85","","","","-4","","NA"
"2008-10-28 06:00","2008","10","28","06:00","-0.6","","-5.5","","69","","35","","17","","","","99.81","","","","-6","","NA"
"2008-10-28 07:00","2008","10","28","07:00","-0.8","","-5.8","","69","","35","","17","","","","99.85","","","","-6","","NA"
"2008-10-28 08:00","2008","10","28","08:00","-0.7","","-5.8","","68","","35","","17","","","","99.89","","","","-6","","NA"
"2008-10-28 09:00","2008","10","28","09:00","-0.2","","-5.6","","67","","34","","17","","","","99.80","","","","-5","","NA"
"2008-10-28 10:00","2008","10","28","10:00","0.4","","-6.4","","60","","34","","20","","","","99.74","","","","","","NA"
"2008-10-28 11:00","2008","10","28","11:00","0.8","","-5.8","","61","","34","","15","","","","99.70","","","","","","NA"
"2008-10-28 12:00","2008","10","28","12:00","1.3","","-6.1","","58","","36","","20","","","","99.54","","","","","","NA"
"2008-10-28 13:00","2008","10","28","13:00","1.4","","-5.9","","58","","34","","20","","","","99.43","","","","","","NA"
"2008-10-28 14:00","2008","10","28","14:00","1.9","","-5.7","","57","","35","","19","","","","99.30","","","","","","NA"
"2008-10-28 15:00","2008","10","28","15:00","1.9","","-5.5","","58","","35","","17","","","","99.22","","","","","","NA"
"2008-10-28 16:00","2008","10","28","16:00","1.7","","-5.6","","58","","34","","15","","","","99.17","","","","","","NA"
"2008-10-28 17:00","2008","10","28","17:00","1.5","","-6.2","","57","","36","","15","","","","99.13","","","","","","NA"
"2008-10-28 18:00","2008","10","28","18:00","1.6","","-6.4","","55","","35","","15","","","","99.07","","","","","","NA"
"2008-10-28 19:00","2008","10","28","19:00","1.3","","-6.2","","57","","36","","17","","","","99.03","","","","","","NA"
"2008-10-28 20:00","2008","10","28","20:00","0.9","","-5.8","","61","","34","","22","","","","98.91","","","","","","NA"
"2008-10-28 21:00","2008","10","28","21:00","0.4","","-8.2","","52","","33","","24","","","","98.85","","","","","","NA"
"2008-10-28 22:00","2008","10","28","22:00","-0.1","","-7.9","","56","","35","","20","","","","98.79","","","","-5","","NA"
"2008-10-28 23:00","2008","10","28","23:00","-0.5","","-8.0","","57","","34","","20","","","","98.75","","","","-6","","NA"
"2008-10-29 00:00","2008","10","29","00:00","-0.9","","-8.2","","58","","33","","30","","","","98.70","","","","-8","","NA"
"2008-10-29 01:00","2008","10","29","01:00","-1.2","","-9.4","","54","","33","","28","","","","98.64","","","","-8","","NA"
"2008-10-29 02:00","2008","10","29","02:00","-1.7","","-8.9","","58","","32","","22","","","","98.57","","","","-8","","NA"
"2008-10-29 03:00","2008","10","29","03:00","-2.1","","-9.7","","56","","33","","32","","","","98.55","","","","-9","","NA"
"2008-10-29 04:00","2008","10","29","04:00","-2.3","","-9.9","","56","","33","","26","","","","98.60","","","","-9","","NA"
"2008-10-29 05:00","2008","10","29","05:00","-2.2","","-10.3","","54","","34","","24","","","","98.67","","","","-9","","NA"
"2008-10-29 06:00","2008","10","29","06:00","-2.5","","-10.2","","55","","35","","22","","","","98.72","","","","-9","","NA"
"2008-10-29 07:00","2008","10","29","07:00","-2.5","","-10.2","","55","","33","","22","","","","98.76","","","","-9","","NA"
"2008-10-29 08:00","2008","10","29","08:00","-2.3","","-10.2","","55","","33","","28","","","","98.81","","","","-9","","NA"
"2008-10-29 09:00","2008","10","29","09:00","-1.5","","-10.3","","51","","33","","26","","","","98.88","","","","-8","","NA"
"2008-10-29 10:00","2008","10","29","10:00","-0.7","","-10.2","","49","","32","","24","","","","98.94","","","","-7","","NA"
"2008-10-29 11:00","2008","10","29","11:00","-0.6","","-12.1","","41","","36","","24","","","","98.99","","","","-7","","NA"
"2008-10-29 12:00","2008","10","29","12:00","0.3","","-10.7","","43","","32","","22","","","","99.00","","","","","","NA"
"2008-10-29 13:00","2008","10","29","13:00","1.0","","-11.7","","38","","33","","19","","","","99.02","","","","","","NA"
"2008-10-29 14:00","2008","10","29","14:00","1.2","","-11.8","","37","","31","","24","","","","99.04","","","","","","NA"
"2008-10-29 15:00","2008","10","29","15:00","1.6","","-11.6","","37","","31","","24","","","","99.09","","","","","","NA"
"2008-10-29 16:00","2008","10","29","16:00","1.9","","-12.1","","35","","32","","20","","","","99.20","","","","","","NA"
"2008-10-29 17:00","2008","10","29","17:00","1.4","","-11.4","","38","","31","","19","","","","99.29","","","","","","NA"
"2008-10-29 18:00","2008","10","29","18:00","0.9","","-11.0","","41","","31","","17","","","","99.41","","","","","","NA"
"2008-10-29 19:00","2008","10","29","19:00","0.8","","-10.6","","42","","30","","17","","","","99.48","","","","","","NA"
"2008-10-29 20:00","2008","10","29","20:00","0.6","","-10.3","","44","","30","","17","","","","99.58","","","","","","NA"
"2008-10-29 21:00","2008","10","29","21:00","0.1","","-10.2","","46","","31","","17","","","","99.68","","","","","","NA"
"2008-10-29 22:00","2008","10","29","22:00","-0.2","","-10.1","","47","","32","","15","","","","99.73","","","","-5","","NA"
"2008-10-29 23:00","2008","10","29","23:00","-0.5","","-9.9","","49","","31","","9","","","","99.79","","","","-4","","NA"
"2008-10-30 00:00","2008","10","30","00:00","-0.7","","-10.2","","49","","32","","15","","","","99.86","","","","-5","","NA"
"2008-10-30 01:00","2008","10","30","01:00","-0.9","","-10.1","","50","","32","","13","","","","99.92","","","","-5","","NA"
"2008-10-30 02:00","2008","10","30","02:00","-1.1","","-10.0","","51","","33","","11","","","","99.96","","","","-5","","NA"
"2008-10-30 03:00","2008","10","30","03:00","-0.9","","-9.1","","54","","29","","9","","","","100.02","","","","-4","","NA"
"2008-10-30 04:00","2008","10","30","04:00","-0.9","","-9.5","","52","","31","","6","","","","100.08","","","","-3","","NA"
"2008-10-30 05:00","2008","10","30","05:00","-0.9","","-8.9","","55","","29","","4","","","","100.14","","","","-2","","NA"
"2008-10-30 06:00","2008","10","30","06:00","-0.9","","-8.5","","56","","30","","4","","","","100.17","","","","-2","","NA"
"2008-10-30 07:00","2008","10","30","07:00","0.1","","-7.9","","55","","27","","9","","","","100.21","","","","","","NA"
"2008-10-30 08:00","2008","10","30","08:00","1.9","","-6.4","","54","","22","","19","","","","100.24","","","","","","NA"
"2008-10-30 09:00","2008","10","30","09:00","2.5","","-5.8","","54","","23","","20","","","","100.26","","","","","","NA"
"2008-10-30 10:00","2008","10","30","10:00","4.2","","-1.7","","65","","21","","20","","","","100.30","","","","","","NA"
"2008-10-30 11:00","2008","10","30","11:00","5.7","","-1.8","","58","","23","","26","","","","100.26","","","","","","NA"
"2008-10-30 12:00","2008","10","30","12:00","6.8","","0.0","","62","","22","","28","","","","100.22","","","","","","NA"
"2008-10-30 13:00","2008","10","30","13:00","7.2","","1.4","","67","","22","","33","","","","100.16","","","","","","NA"
"2008-10-30 14:00","2008","10","30","14:00","8.3","","1.7","","63","","21","","33","","","","100.06","","","","","","NA"
"2008-10-30 15:00","2008","10","30","15:00","7.8","","2.4","","69","","22","","43","","","","100.03","","","","","","NA"
"2008-10-30 16:00","2008","10","30","16:00","8.0","","1.9","","65","","23","","44","","","","99.98","","","","","","NA"
"2008-10-30 17:00","2008","10","30","17:00","8.1","","1.3","","62","","22","","37","","","","99.95","","","","","","NA"
"2008-10-30 18:00","2008","10","30","18:00","8.1","","0.8","","60","","22","","35","","","","99.96","","","","","","NA"
"2008-10-30 19:00","2008","10","30","19:00","8.4","","1.3","","61","","21","","35","","","","99.93","","","","","","NA"
"2008-10-30 20:00","2008","10","30","20:00","8.9","","1.8","","61","","22","","37","","","","99.87","","","","","","NA"
"2008-10-30 21:00","2008","10","30","21:00","9.2","","1.9","","60","","22","","41","","","","99.84","","","","","","NA"
"2008-10-30 22:00","2008","10","30","22:00","9.1","","2.8","","65","","23","","28","","","","99.84","","","","","","NA"
"2008-10-30 23:00","2008","10","30","23:00","9.6","","0.0","","51","","24","","30","","","","99.84","","","","","","NA"
"2008-10-31 00:00","2008","10","31","00:00","9.2","","0.7","","55","","24","","26","","","","99.83","","","","","","NA"
"2008-10-31 01:00","2008","10","31","01:00","8.9","","0.7","","56","","24","","22","","","","99.79","","","","","","NA"
"2008-10-31 02:00","2008","10","31","02:00","8.5","","1.9","","63","","24","","15","","","","99.76","","","","","","NA"
"2008-10-31 03:00","2008","10","31","03:00","8.3","","2.9","","69","","24","","15","","","","99.73","","","","","","NA"
"2008-10-31 04:00","2008","10","31","04:00","8.5","","2.5","","66","","24","","17","","","","99.72","","","","","","NA"
"2008-10-31 05:00","2008","10","31","05:00","8.4","","2.1","","64","","25","","9","","","","99.71","","","","","","NA"
"2008-10-31 06:00","2008","10","31","06:00","8.7","","2.8","","66","","25","","15","","","","99.68","","","","","","NA"
"2008-10-31 07:00","2008","10","31","07:00","8.9","","3.5","","69","","25","","17","","","","99.67","","","","","","NA"
"2008-10-31 08:00","2008","10","31","08:00","9.1","","4.1","","71","","24","","15","","","","99.70","","","","","","NA"
"2008-10-31 09:00","2008","10","31","09:00","10.2","","4.5","","68","","26","","15","","","","99.73","","","","","","NA"
"2008-10-31 10:00","2008","10","31","10:00","11.8","","4.5","","61","","27","","17","","","","99.74","","","","","","NA"
"2008-10-31 11:00","2008","10","31","11:00","12.3","","4.7","","60","","27","","22","","","","99.74","","","","","","NA"
"2008-10-31 12:00","2008","10","31","12:00","12.4","","5.7","","64","","27","","20","","","","99.75","","","","","","NA"
"2008-10-31 13:00","2008","10","31","13:00","12.4","","5.6","","63","","27","","20","","","","99.74","","","","","","NA"
"2008-10-31 14:00","2008","10","31","14:00","12.6","","5.4","","61","","27","","20","","","","99.75","","","","","","NA"
"2008-10-31 15:00","2008","10","31","15:00","13.0","","5.4","","60","","28","","20","","","","99.78","","","","","","NA"
"2008-10-31 16:00","2008","10","31","16:00","12.6","","5.1","","60","","28","","13","","","","99.85","","","","","","NA"
"2008-10-31 17:00","2008","10","31","17:00","12.4","","5.6","","63","","32","","7","","","","99.93","","","","","","NA"
"2008-10-31 18:00","2008","10","31","18:00","11.0","","4.1","","62","","1","","7","","","","100.04","","","","","","NA"
"2008-10-31 19:00","2008","10","31","19:00","10.2","","-1.3","","45","","1","","13","","","","100.15","","","","","","NA"
"2008-10-31 20:00","2008","10","31","20:00","8.6","","-3.9","","41","","1","","15","","","","100.23","","","","","","NA"
"2008-10-31 21:00","2008","10","31","21:00","7.1","","-5.0","","42","","2","","20","","","","100.29","","","","","","NA"
"2008-10-31 22:00","2008","10","31","22:00","5.8","","-6.4","","41","","3","","15","","","","100.40","","","","","","NA"
"2008-10-31 23:00","2008","10","31","23:00","4.7","","-7.4","","41","","4","","15","","","","100.45","","","","","","NA"
