"Station Name","KILLARNEY (AUT)"
"Province","ONTARIO"
"Latitude","45.97"
"Longitude","-81.48"
"Elevation","196.30"
"Climate Identifier","605DJ25"
"WMO Identifier","71460"
"TC Identifier","WBE"
"All times are specified in Local Standard Time (LST). Add 1 hour to adjust for Daylight Saving Time where and when it is observed."

"Legend"
"E","Estimated"
"M","Missing"
"NA","Not Available"

"Date/Time","Year","Month","Day","Time","Temp (°C)","Temp Flag","Dew Point Temp (°C)","Dew Point Temp Flag","Rel Hum (%)","Rel Hum Flag","Wind Dir (10s deg)","Wind Dir Flag","Wind Spd (km/h)","Wind Spd Flag","Visibility (km)","Visibility Flag","Stn Press (kPa)","Stn Press Flag","Hmdx","Hmdx Flag","Wind Chill","Wind Chill Flag","Weather"
"2008-02-01 00:00","2008","02","01","00:00","-8.3","","-11.9","","75","","6","","7","","","","100.77","","","","-12","","NA"
"2008-02-01 01:00","2008","02","01","01:00","-8.9","","-12.4","","76","","6","","9","","","","100.71","","","","-14","","NA"
"2008-02-01 02:00","2008","02","01","02:00","-8.4","","-11.9","","76","","7","","19","","","","100.60","","","","-16","","NA"
"2008-02-01 03:00","2008","02","01","03:00","-7.7","","-9.8","","85","","8","","28","","","","100.54","","","","-16","","NA"
"2008-02-01 04:00","2008","02","01","04:00","-7.4","","-8.6","","91","","8","","26","","","","100.42","","","","-16","","NA"
"2008-02-01 05:00","2008","02","01","05:00","-7.5","","-8.7","","91","","7","","26","","","","100.27","","","","-16","","NA"
"2008-02-01 06:00","2008","02","01","06:00","-7.6","","-9.1","","89","","7","","22","","","","100.14","","","","-15","","NA"
"2008-02-01 07:00","2008","02","01","07:00","-7.5","","-9.1","","88","","6","","20","","","","100.02","","","","-15","","NA"
"2008-02-01 08:00","2008","02","01","08:00","-7.1","","-8.7","","88","","7","","26","","","","99.94","","","","-15","","NA"
"2008-02-01 09:00","2008","02","01","09:00","-6.9","","-8.9","","86","","7","","26","","","","99.81","","","","-15","","NA"
"2008-02-01 10:00","2008","02","01","10:00","-6.7","","-8.4","","88","","7","","24","","","","99.75","","","","-14","","NA"
"2008-02-01 11:00","2008","02","01","11:00","-5.9","","-8.0","","85","","7","","28","","","","99.59","","","","-14","","NA"
"2008-02-01 12:00","2008","02","01","12:00","-5.6","","-7.5","","86","","7","","30","","","","99.41","","","","-14","","NA"
"2008-02-01 13:00","2008","02","01","13:00","-4.7","","-7.4","","81","","8","","35","","","","99.25","","","","-13","","NA"
"2008-02-01 14:00","2008","02","01","14:00","-5.2","","-8.5","","78","","7","","28","","","","99.09","","","","-13","","NA"
"2008-02-01 15:00","2008","02","01","15:00","-5.4","","-8.5","","79","","5","","19","","","","99.06","","","","-12","","NA"
"2008-02-01 16:00","2008","02","01","16:00","-5.8","","-8.2","","83","","6","","19","","","","99.08","","","","-12","","NA"
"2008-02-01 17:00","2008","02","01","17:00","-6.2","","-9.4","","78","","5","","15","","","","99.02","","","","-12","","NA"
"2008-02-01 18:00","2008","02","01","18:00","-6.2","","-9.4","","78","","5","","20","","","","98.90","","","","-13","","NA"
"2008-02-01 19:00","2008","02","01","19:00","-6.1","","-8.8","","81","","6","","20","","","","98.94","","","","-13","","NA"
"2008-02-01 20:00","2008","02","01","20:00","-6.1","","-8.6","","82","","6","","17","","","","98.99","","","","-12","","NA"
"2008-02-01 21:00","2008","02","01","21:00","-6.3","","-8.9","","82","","1","","9","","","","99.02","","","","-11","","NA"
"2008-02-01 22:00","2008","02","01","22:00","-6.4","","-8.8","","83","","36","","9","","","","98.99","","","","-11","","NA"
"2008-02-01 23:00","2008","02","01","23:00","-6.4","","-8.9","","82","","36","","9","","","","98.95","","","","-11","","NA"
"2008-02-02 00:00","2008","02","02","00:00","-7.1","","-9.7","","82","","1","","11","","","","98.96","","","","-12","","NA"
"2008-02-02 01:00","2008","02","02","01:00","-7.6","","-10.1","","82","","33","","9","","","","99.08","","","","-12","","NA"
"2008-02-02 02:00","2008","02","02","02:00","-8.5","","-10.3","","87","","31","","7","","","","99.14","","","","-12","","NA"
"2008-02-02 03:00","2008","02","02","03:00","-8.4","","-10.7","","83","","32","","11","","","","99.21","","","","-14","","NA"
"2008-02-02 04:00","2008","02","02","04:00","-7.8","","-10.4","","82","","30","","11","","","","99.27","","","","-13","","NA"
"2008-02-02 05:00","2008","02","02","05:00","-8.2","","-10.4","","84","","29","","11","","","","99.35","","","","-13","","NA"
"2008-02-02 06:00","2008","02","02","06:00","-9.3","","-10.9","","88","","28","","9","","","","99.40","","","","-14","","NA"
"2008-02-02 07:00","2008","02","02","07:00","-9.6","","-11.3","","87","","29","","15","","","","99.48","","","","-16","","NA"
"2008-02-02 08:00","2008","02","02","08:00","-8.8","","-10.6","","87","","30","","6","","","","99.47","","","","-12","","NA"
"2008-02-02 09:00","2008","02","02","09:00","-7.1","","-9.4","","84","","28","","9","","","","99.54","","","","-11","","NA"
"2008-02-02 10:00","2008","02","02","10:00","-6.8","","-9.1","","84","","29","","11","","","","99.57","","","","-12","","NA"
"2008-02-02 11:00","2008","02","02","11:00","-6.0","","-8.9","","80","","29","","9","","","","99.58","","","","-10","","NA"
"2008-02-02 12:00","2008","02","02","12:00","-5.5","","-8.8","","78","","27","","6","","","","99.55","","","","-8","","NA"
"2008-02-02 13:00","2008","02","02","13:00","-4.9","","-8.5","","76","","10","","4","","","","99.48","","","","-7","","NA"
"2008-02-02 14:00","2008","02","02","14:00","-4.7","","-7.6","","80","","20","","11","","","","99.44","","","","-9","","NA"
"2008-02-02 15:00","2008","02","02","15:00","-4.5","","-7.5","","80","","22","","6","","","","99.41","","","","-7","","NA"
"2008-02-02 16:00","2008","02","02","16:00","-4.2","","-7.1","","80","","18","","6","","","","99.43","","","","-7","","NA"
"2008-02-02 17:00","2008","02","02","17:00","-4.2","","-6.8","","82","","17","","6","","","","99.45","","","","-7","","NA"
"2008-02-02 18:00","2008","02","02","18:00","-4.2","","-5.6","","90","","13","","7","","","","99.42","","","","-7","","NA"
"2008-02-02 19:00","2008","02","02","19:00","-3.9","","-4.5","","96","","12","","9","","","","99.45","","","","-8","","NA"
"2008-02-02 20:00","2008","02","02","20:00","-4.4","","-5.0","","96","","7","","7","","","","99.46","","","","-8","","NA"
"2008-02-02 21:00","2008","02","02","21:00","-4.5","","-5.0","","96","","7","","7","","","","99.44","","","","-8","","NA"
"2008-02-02 22:00","2008","02","02","22:00","-4.6","","-5.1","","96","","7","","7","","","","99.44","","","","-8","","NA"
"2008-02-02 23:00","2008","02","02","23:00","-4.7","","-5.2","","96","","5","","6","","","","99.44","","","","-7","","NA"
"2008-02-03 00:00","2008","02","03","00:00","-4.7","","-5.2","","96","","5","","6","","","","99.44","","","","-7","","NA"
"2008-02-03 01:00","2008","02","03","01:00","-4.6","","-5.1","","96","","6","","6","","","","99.42","","","","-7","","NA"
"2008-02-03 02:00","2008","02","03","02:00","-4.5","","-5.0","","96","","7","","6","","","","99.46","","","","-7","","NA"
"2008-02-03 03:00","2008","02","03","03:00","-4.8","","-5.3","","96","","6","","4","","","","99.48","","","","-7","","NA"
"2008-02-03 04:00","2008","02","03","04:00","-4.8","","-5.3","","96","","5","","2","","","","99.48","","","","-6","","NA"
"2008-02-03 05:00","2008","02","03","05:00","-4.8","","-5.3","","96","","8","","6","","","","99.50","","","","-8","","NA"
"2008-02-03 06:00","2008","02","03","06:00","-5.0","","-5.5","","96","","5","","4","","","","99.53","","","","-7","","NA"
"2008-02-03 07:00","2008","02","03","07:00","-4.4","","-4.9","","96","","11","","2","","","","99.57","","","","-5","","NA"
"2008-02-03 08:00","2008","02","03","08:00","-4.3","","-4.7","","97","","","","0","","","","99.65","","","","","","NA"
"2008-02-03 09:00","2008","02","03","09:00","-3.7","","-4.1","","97","","31","","4","","","","99.70","","","","-5","","NA"
"2008-02-03 10:00","2008","02","03","10:00","-2.6","","-3.1","","96","","30","","4","","","","99.73","","","","-4","","NA"
"2008-02-03 11:00","2008","02","03","11:00","-1.8","","-2.3","","96","","21","","6","","","","99.76","","","","-4","","NA"
"2008-02-03 12:00","2008","02","03","12:00","-1.6","","-2.1","","96","","22","","11","","","","99.79","","","","-5","","NA"
"2008-02-03 13:00","2008","02","03","13:00","-0.8","","-1.3","","96","","27","","9","","","","99.76","","","","-4","","NA"
"2008-02-03 14:00","2008","02","03","14:00","-0.4","","-2.1","","88","","29","","15","","","","99.76","","","","-5","","NA"
"2008-02-03 15:00","2008","02","03","15:00","-0.8","","-4.1","","78","","27","","19","","","","99.80","","","","-6","","NA"
"2008-02-03 16:00","2008","02","03","16:00","-0.3","","-5.1","","70","","28","","19","","","","99.83","","","","-5","","NA"
"2008-02-03 17:00","2008","02","03","17:00","-0.9","","-5.0","","74","","27","","17","","","","99.85","","","","-6","","NA"
"2008-02-03 18:00","2008","02","03","18:00","-2.1","","-4.9","","81","","30","","9","","","","99.91","","","","-6","","NA"
"2008-02-03 19:00","2008","02","03","19:00","-3.2","","-5.9","","82","","32","","9","","","","99.98","","","","-7","","NA"
"2008-02-03 20:00","2008","02","03","20:00","-3.7","","-5.9","","85","","30","","7","","","","100.04","","","","-7","","NA"
"2008-02-03 21:00","2008","02","03","21:00","-4.2","","-6.2","","86","","32","","4","","","","100.00","","","","-6","","NA"
"2008-02-03 22:00","2008","02","03","22:00","-4.1","","-6.2","","85","","35","","6","","","","100.00","","","","-7","","NA"
"2008-02-03 23:00","2008","02","03","23:00","-3.6","","-5.8","","85","","27","","6","","","","100.04","","","","-6","","NA"
"2008-02-04 00:00","2008","02","04","00:00","-4.5","","-5.8","","91","","31","","6","","","","100.11","","","","-7","","NA"
"2008-02-04 01:00","2008","02","04","01:00","-4.8","","-5.5","","95","","36","","2","","","","100.05","","","","-6","","NA"
"2008-02-04 02:00","2008","02","04","02:00","-6.0","","-6.5","","96","","8","","6","","","","100.04","","","","-9","","NA"
"2008-02-04 03:00","2008","02","04","03:00","-5.0","","-6.0","","93","","10","","4","","","","100.06","","","","-7","","NA"
"2008-02-04 04:00","2008","02","04","04:00","-5.6","","-6.5","","93","","7","","6","","","","100.07","","","","-8","","NA"
"2008-02-04 05:00","2008","02","04","05:00","-4.5","","-5.2","","95","","6","","11","","","","100.05","","","","-9","","NA"
"2008-02-04 06:00","2008","02","04","06:00","-4.3","","-5.0","","95","","5","","11","","","","100.06","","","","-9","","NA"
"2008-02-04 07:00","2008","02","04","07:00","-3.5","","-4.5","","93","","5","","13","","","","100.02","","","","-8","","NA"
"2008-02-04 08:00","2008","02","04","08:00","-3.3","","-4.7","","90","","6","","7","","","","100.09","","","","-6","","NA"
"2008-02-04 09:00","2008","02","04","09:00","-2.8","","-5.8","","80","","6","","13","","","","100.02","","","","-7","","NA"
"2008-02-04 10:00","2008","02","04","10:00","-2.8","","-5.5","","82","","8","","22","","","","100.02","","","","-9","","NA"
"2008-02-04 11:00","2008","02","04","11:00","-1.7","","-4.7","","80","","8","","19","","","","99.98","","","","-7","","NA"
"2008-02-04 12:00","2008","02","04","12:00","-1.4","","-3.8","","84","","10","","26","","","","99.84","","","","-8","","NA"
"2008-02-04 13:00","2008","02","04","13:00","0.0","","-4.3","","73","","10","","32","","","","99.71","","","","-7","","NA"
"2008-02-04 14:00","2008","02","04","14:00","-0.1","","-4.1","","74","","11","","20","","","","99.73","","","","-5","","NA"
"2008-02-04 15:00","2008","02","04","15:00","-0.6","","-3.6","","80","","8","","19","","","","99.64","","","","-6","","NA"
"2008-02-04 16:00","2008","02","04","16:00","-0.4","","-4.3","","75","","10","","22","","","","99.60","","","","-6","","NA"
"2008-02-04 17:00","2008","02","04","17:00","-0.2","","-4.1","","75","","9","","19","","","","99.52","","","","-5","","NA"
"2008-02-04 18:00","2008","02","04","18:00","0.0","","-3.8","","76","","9","","20","","","","99.33","","","","-5","","NA"
"2008-02-04 19:00","2008","02","04","19:00","0.3","","-3.1","","78","","9","","39","","","","99.15","","","","","","NA"
"2008-02-04 20:00","2008","02","04","20:00","0.2","","-2.7","","81","","9","","33","","","","99.13","","","","","","NA"
"2008-02-04 21:00","2008","02","04","21:00","-0.5","","-1.6","","92","","9","","30","","","","99.04","","","","-7","","NA"
"2008-02-04 22:00","2008","02","04","22:00","-0.9","","-1.3","","97","","9","","26","","","","98.86","","","","-7","","NA"
"2008-02-04 23:00","2008","02","04","23:00","-0.9","","-1.2","","98","","8","","22","","","","98.78","","","","-7","","NA"
"2008-02-05 00:00","2008","02","05","00:00","-0.9","","-1.2","","98","","9","","26","","","","98.66","","","","-7","","NA"
"2008-02-05 01:00","2008","02","05","01:00","-0.6","","-0.9","","98","","9","","26","","","","98.54","","","","-7","","NA"
"2008-02-05 02:00","2008","02","05","02:00","-0.5","","-0.7","","99","","8","","22","","","","98.47","","","","-6","","NA"
"2008-02-05 03:00","2008","02","05","03:00","-0.7","","-0.9","","99","","7","","13","","","","98.41","","","","-5","","NA"
"2008-02-05 04:00","2008","02","05","04:00","-0.6","","-0.8","","99","","7","","9","","","","98.34","","","","-4","","NA"
"2008-02-05 05:00","2008","02","05","05:00","-0.7","","-0.9","","99","","5","","7","","","","98.32","","","","-3","","NA"
"2008-02-05 06:00","2008","02","05","06:00","-0.7","","-0.9","","99","","5","","6","","","","98.29","","","","-3","","NA"
"2008-02-05 07:00","2008","02","05","07:00","-0.8","","-1.0","","99","","35","","7","","","","98.31","","","","-3","","NA"
"2008-02-05 08:00","2008","02","05","08:00","-0.9","","-1.1","","99","","36","","9","","","","98.46","","","","-4","","NA"
"2008-02-05 09:00","2008","02","05","09:00","-0.9","","-1.1","","99","","36","","6","","","","98.61","","","","-3","","NA"
"2008-02-05 10:00","2008","02","05","10:00","-0.8","","-1.0","","99","","34","","7","","","","98.63","","","","-3","","NA"
"2008-02-05 11:00","2008","02","05","11:00","-0.1","","-0.4","","98","","36","","7","","","","98.65","","","","-3","","NA"
"2008-02-05 12:00","2008","02","05","12:00","-0.2","","-1.7","","90","","1","","13","","","","98.69","","","","-4","","NA"
"2008-02-05 13:00","2008","02","05","13:00","0.0","","-1.8","","88","","34","","9","","","","98.78","","","","-3","","NA"
"2008-02-05 14:00","2008","02","05","14:00","-0.1","","-2.0","","87","","33","","11","","","","98.83","","","","-4","","NA"
"2008-02-05 15:00","2008","02","05","15:00","-0.4","","-2.4","","86","","33","","9","","","","98.87","","","","-4","","NA"
"2008-02-05 16:00","2008","02","05","16:00","-0.3","","-2.6","","84","","33","","9","","","","98.95","","","","-3","","NA"
"2008-02-05 17:00","2008","02","05","17:00","-0.4","","-2.8","","84","","33","","6","","","","99.03","","","","-2","","NA"
"2008-02-05 18:00","2008","02","05","18:00","-0.9","","-3.6","","82","","34","","7","","","","99.09","","","","-3","","NA"
"2008-02-05 19:00","2008","02","05","19:00","-1.0","","-3.8","","81","","1","","9","","","","99.19","","","","-4","","NA"
"2008-02-05 20:00","2008","02","05","20:00","-1.4","","-3.7","","84","","2","","6","","","","99.17","","","","-4","","NA"
"2008-02-05 21:00","2008","02","05","21:00","-1.7","","-3.9","","85","","2","","9","","","","99.13","","","","-5","","NA"
"2008-02-05 22:00","2008","02","05","22:00","-2.1","","-5.2","","79","","4","","9","","","","99.11","","","","-6","","NA"
"2008-02-05 23:00","2008","02","05","23:00","-2.6","","-5.6","","80","","3","","9","","","","99.08","","","","-6","","NA"
"2008-02-06 00:00","2008","02","06","00:00","-2.8","","-5.4","","82","","3","","11","","","","99.06","","","","-7","","NA"
"2008-02-06 01:00","2008","02","06","01:00","-3.5","","-6.5","","80","","2","","11","","","","99.05","","","","-8","","NA"
"2008-02-06 02:00","2008","02","06","02:00","-4.6","","-7.2","","82","","3","","19","","","","98.89","","","","-11","","NA"
"2008-02-06 03:00","2008","02","06","03:00","-5.1","","-7.8","","81","","3","","11","","","","98.86","","","","-10","","NA"
"2008-02-06 04:00","2008","02","06","04:00","-7.0","","-10.0","","79","","2","","19","","","","98.85","","","","-14","","NA"
"2008-02-06 05:00","2008","02","06","05:00","-9.0","","-12.2","","78","","2","","13","","","","98.88","","","","-15","","NA"
"2008-02-06 06:00","2008","02","06","06:00","-10.4","","-13.7","","77","","2","","15","","","","98.93","","","","-17","","NA"
"2008-02-06 07:00","2008","02","06","07:00","-11.2","","-14.5","","77","","2","","15","","","","98.95","","","","-18","","NA"
"2008-02-06 08:00","2008","02","06","08:00","-11.9","","-15.6","","74","","4","","19","","","","98.85","","","","-20","","NA"
"2008-02-06 09:00","2008","02","06","09:00","-12.0","","-15.9","","73","","3","","13","","","","98.93","","","","-19","","NA"
"2008-02-06 10:00","2008","02","06","10:00","-11.9","","-16.3","","70","","3","","11","","","","99.06","","","","-18","","NA"
"2008-02-06 11:00","2008","02","06","11:00","-11.4","","-16.6","","65","","3","","17","","","","99.06","","","","-19","","NA"
"2008-02-06 12:00","2008","02","06","12:00","-10.7","","-16.5","","62","","5","","15","","","","98.95","","","","-18","","NA"
"2008-02-06 13:00","2008","02","06","13:00","-9.4","","-16.5","","56","","4","","19","","","","98.84","","","","-17","","NA"
"2008-02-06 14:00","2008","02","06","14:00","-9.1","","-16.3","","56","","5","","20","","","","98.74","","","","-17","","NA"
"2008-02-06 15:00","2008","02","06","15:00","-10.0","","-17.4","","55","","5","","20","","","","98.61","","","","-18","","NA"
"2008-02-06 16:00","2008","02","06","16:00","-10.4","","-17.4","","56","","4","","17","","","","98.60","","","","-18","","NA"
"2008-02-06 17:00","2008","02","06","17:00","-10.9","","-17.9","","56","","3","","24","","","","98.56","","","","-20","","NA"
"2008-02-06 18:00","2008","02","06","18:00","-11.4","","-18.2","","57","","4","","20","","","","98.55","","","","-20","","NA"
"2008-02-06 19:00","2008","02","06","19:00","-11.7","","-18.7","","56","","6","","19","","","","98.59","","","","-20","","NA"
"2008-02-06 20:00","2008","02","06","20:00","-12.3","","-19.1","","57","","5","","22","","","","98.58","","","","-21","","NA"
"2008-02-06 21:00","2008","02","06","21:00","-12.1","","-19.4","","55","","5","","15","","","","98.60","","","","-19","","NA"
"2008-02-06 22:00","2008","02","06","22:00","-12.8","","-19.8","","56","","3","","11","","","","98.69","","","","-19","","NA"
"2008-02-06 23:00","2008","02","06","23:00","-13.6","","-19.9","","59","","2","","11","","","","98.81","","","","-20","","NA"
"2008-02-07 00:00","2008","02","07","00:00","-14.0","","-20.2","","59","","2","","11","","","","98.81","","","","-20","","NA"
"2008-02-07 01:00","2008","02","07","01:00","-14.7","","-20.6","","61","","3","","15","","","","98.77","","","","-23","","NA"
"2008-02-07 02:00","2008","02","07","02:00","-15.1","","-21.0","","61","","3","","11","","","","98.77","","","","-22","","NA"
"2008-02-07 03:00","2008","02","07","03:00","-15.1","","-21.6","","58","","4","","13","","","","98.68","","","","-22","","NA"
"2008-02-07 04:00","2008","02","07","04:00","-15.5","","-22.3","","56","","2","","7","","","","98.65","","","","-20","","NA"
"2008-02-07 05:00","2008","02","07","05:00","-16.2","","-22.9","","56","","1","","13","","","","98.65","","","","-24","","NA"
"2008-02-07 06:00","2008","02","07","06:00","-17.1","","-23.4","","58","","2","","9","","","","98.80","","","","-23","","NA"
"2008-02-07 07:00","2008","02","07","07:00","-17.8","","-23.1","","63","","1","","9","","","","98.91","","","","-24","","NA"
"2008-02-07 08:00","2008","02","07","08:00","-17.1","","-22.8","","61","","29","","2","","","","98.93","","","","-19","","NA"
"2008-02-07 09:00","2008","02","07","09:00","-16.0","","-24.0","","50","","1","","4","","","","98.98","","","","-19","","NA"
"2008-02-07 10:00","2008","02","07","10:00","-15.3","","-22.6","","54","","29","","9","","","","99.00","","","","-21","","NA"
"2008-02-07 11:00","2008","02","07","11:00","-13.8","","-22.4","","48","","27","","7","","","","99.02","","","","-18","","NA"
"2008-02-07 12:00","2008","02","07","12:00","-11.6","","-19.2","","53","","18","","7","","","","99.04","","","","-16","","NA"
"2008-02-07 13:00","2008","02","07","13:00","-10.9","","-18.4","","54","","19","","11","","","","98.97","","","","-17","","NA"
"2008-02-07 14:00","2008","02","07","14:00","-11.3","","-17.9","","58","","22","","19","","","","98.92","","","","-19","","NA"
"2008-02-07 15:00","2008","02","07","15:00","-10.0","","-19.7","","45","","28","","13","","","","98.90","","","","-16","","NA"
"2008-02-07 16:00","2008","02","07","16:00","-8.8","","-19.5","","42","","29","","7","","","","98.86","","","","-13","","NA"
"2008-02-07 17:00","2008","02","07","17:00","-9.3","","-18.6","","47","","25","","9","","","","98.89","","","","-14","","NA"
"2008-02-07 18:00","2008","02","07","18:00","-10.7","","-18.7","","52","","31","","9","","","","98.91","","","","-16","","NA"
"2008-02-07 19:00","2008","02","07","19:00","-11.4","","-19.9","","49","","33","","7","","","","98.92","","","","-16","","NA"
"2008-02-07 20:00","2008","02","07","20:00","-10.9","","-18.6","","53","","33","","7","","","","98.89","","","","-15","","NA"
"2008-02-07 21:00","2008","02","07","21:00","-10.4","","-16.8","","59","","33","","7","","","","98.89","","","","-14","","NA"
"2008-02-07 22:00","2008","02","07","22:00","-9.8","","-13.7","","73","","34","","6","","","","98.90","","","","-13","","NA"
"2008-02-07 23:00","2008","02","07","23:00","-8.9","","-11.4","","82","","34","","6","","","","98.86","","","","-12","","NA"
"2008-02-08 00:00","2008","02","08","00:00","-8.7","","-10.5","","87","","3","","4","","","","98.85","","","","-11","","NA"
"2008-02-08 01:00","2008","02","08","01:00","-8.8","","-10.5","","87","","5","","4","","","","98.81","","","","-11","","NA"
"2008-02-08 02:00","2008","02","08","02:00","-9.5","","-10.8","","90","","5","","7","","","","98.81","","","","-13","","NA"
"2008-02-08 03:00","2008","02","08","03:00","-8.1","","-9.5","","90","","6","","11","","","","98.80","","","","-13","","NA"
"2008-02-08 04:00","2008","02","08","04:00","-8.1","","-9.6","","89","","6","","9","","","","98.79","","","","-13","","NA"
"2008-02-08 05:00","2008","02","08","05:00","-7.9","","-9.4","","89","","6","","7","","","","98.80","","","","-12","","NA"
"2008-02-08 06:00","2008","02","08","06:00","-7.6","","-9.1","","89","","7","","11","","","","98.82","","","","-13","","NA"
"2008-02-08 07:00","2008","02","08","07:00","-8.0","","-9.8","","87","","4","","7","","","","98.83","","","","-12","","NA"
"2008-02-08 08:00","2008","02","08","08:00","-7.1","","-8.9","","87","","7","","9","","","","98.83","","","","-11","","NA"
"2008-02-08 09:00","2008","02","08","09:00","-6.3","","-8.6","","84","","5","","6","","","","98.83","","","","-9","","NA"
"2008-02-08 10:00","2008","02","08","10:00","-5.0","","-8.0","","79","","25","","2","","","","98.87","","","","-6","","NA"
"2008-02-08 11:00","2008","02","08","11:00","-4.3","","-7.7","","77","","11","","6","","","","98.86","","","","-7","","NA"
"2008-02-08 12:00","2008","02","08","12:00","-3.7","","-7.7","","74","","11","","7","","","","98.85","","","","-7","","NA"
"2008-02-08 13:00","2008","02","08","13:00","-3.1","","-7.0","","74","","13","","9","","","","98.79","","","","-7","","NA"
"2008-02-08 14:00","2008","02","08","14:00","-2.7","","-6.7","","74","","13","","7","","","","98.77","","","","-6","","NA"
"2008-02-08 15:00","2008","02","08","15:00","-3.0","","-5.7","","82","","15","","15","","","","98.77","","","","-8","","NA"
"2008-02-08 16:00","2008","02","08","16:00","-3.0","","-5.8","","81","","13","","9","","","","98.80","","","","-7","","NA"
"2008-02-08 17:00","2008","02","08","17:00","-3.0","","-5.8","","81","","11","","13","","","","98.81","","","","-8","","NA"
"2008-02-08 18:00","2008","02","08","18:00","-2.8","","-5.5","","82","","11","","11","","","","98.85","","","","-7","","NA"
"2008-02-08 19:00","2008","02","08","19:00","-2.8","","-4.9","","85","","13","","11","","","","98.89","","","","-7","","NA"
"2008-02-08 20:00","2008","02","08","20:00","-2.9","","-4.6","","88","","12","","11","","","","98.89","","","","-7","","NA"
"2008-02-08 21:00","2008","02","08","21:00","-3.1","","-4.2","","92","","8","","9","","","","98.90","","","","-7","","NA"
"2008-02-08 22:00","2008","02","08","22:00","-3.3","","-4.2","","93","","7","","9","","","","98.90","","","","-7","","NA"
"2008-02-08 23:00","2008","02","08","23:00","-3.5","","-4.1","","96","","6","","6","","","","98.87","","","","-6","","NA"
"2008-02-09 00:00","2008","02","09","00:00","-3.6","","-4.3","","95","","4","","7","","","","98.85","","","","-7","","NA"
"2008-02-09 01:00","2008","02","09","01:00","-3.6","","-4.2","","96","","6","","6","","","","98.83","","","","-6","","NA"
"2008-02-09 02:00","2008","02","09","02:00","-3.5","","-4.1","","96","","7","","6","","","","98.79","","","","-6","","NA"
"2008-02-09 03:00","2008","02","09","03:00","-3.3","","-3.8","","96","","6","","7","","","","98.79","","","","-6","","NA"
"2008-02-09 04:00","2008","02","09","04:00","-3.4","","-3.9","","96","","6","","9","","","","98.69","","","","-7","","NA"
"2008-02-09 05:00","2008","02","09","05:00","-3.4","","-3.8","","97","","7","","11","","","","98.63","","","","-8","","NA"
"2008-02-09 06:00","2008","02","09","06:00","-3.4","","-3.7","","98","","7","","11","","","","98.57","","","","-8","","NA"
"2008-02-09 07:00","2008","02","09","07:00","-3.1","","-3.4","","98","","7","","13","","","","98.51","","","","-8","","NA"
"2008-02-09 08:00","2008","02","09","08:00","-2.9","","-3.3","","97","","8","","19","","","","98.45","","","","-9","","NA"
"2008-02-09 09:00","2008","02","09","09:00","-2.2","","-2.6","","97","","11","","37","","","","98.34","","","","-10","","NA"
"2008-02-09 10:00","2008","02","09","10:00","-1.8","","-2.1","","98","","12","","35","","","","98.23","","","","-9","","NA"
"2008-02-09 11:00","2008","02","09","11:00","-2.0","","-2.4","","97","","11","","41","","","","98.12","","","","-10","","NA"
"2008-02-09 12:00","2008","02","09","12:00","-1.7","","-2.1","","97","","11","","39","","","","97.99","","","","-10","","NA"
"2008-02-09 13:00","2008","02","09","13:00","-1.3","","-1.6","","98","","12","","39","","","","97.83","","","","-9","","NA"
"2008-02-09 14:00","2008","02","09","14:00","-0.6","","-1.0","","97","","13","","39","","","","97.68","","","","-8","","NA"
"2008-02-09 15:00","2008","02","09","15:00","-0.1","","-0.4","","98","","14","","35","","","","97.62","","","","-7","","NA"
"2008-02-09 16:00","2008","02","09","16:00","0.1","","-0.2","","98","","17","","26","","","","97.58","","","","","","NA"
"2008-02-09 17:00","2008","02","09","17:00","0.2","","-0.1","","98","","18","","22","","","","97.57","","","","","","NA"
"2008-02-09 18:00","2008","02","09","18:00","-0.2","","-0.4","","99","","20","","19","","","","97.56","","","","-5","","NA"
"2008-02-09 19:00","2008","02","09","19:00","0.1","","-0.2","","98","","21","","22","","","","97.52","","","","","","NA"
"2008-02-09 20:00","2008","02","09","20:00","-0.4","","-0.7","","98","","25","","17","","","","97.53","","","","-5","","NA"
"2008-02-09 21:00","2008","02","09","21:00","-0.8","","-1.0","","99","","25","","19","","","","97.50","","","","-6","","NA"
"2008-02-09 22:00","2008","02","09","22:00","-1.3","","-1.5","","99","","25","","24","","","","97.45","","","","-7","","NA"
"2008-02-09 23:00","2008","02","09","23:00","-1.7","","-1.9","","99","","25","","20","","","","97.43","","","","-7","","NA"
"2008-02-10 00:00","2008","02","10","00:00","-1.8","","-2.1","","98","","26","","24","","","","97.39","","","","-8","","NA"
"2008-02-10 01:00","2008","02","10","01:00","-2.1","","-2.6","","96","","25","","20","","","","97.33","","","","-8","","NA"
"2008-02-10 02:00","2008","02","10","02:00","-3.1","","-3.5","","97","","27","","26","","","","97.25","","","","-10","","NA"
"2008-02-10 03:00","2008","02","10","03:00","-5.3","","-6.0","","95","","27","","35","","","","97.24","","","","-14","","NA"
"2008-02-10 04:00","2008","02","10","04:00","-7.2","","-8.5","","90","","28","","33","","","","97.20","","","","-16","","NA"
"2008-02-10 05:00","2008","02","10","05:00","-9.5","","-10.8","","90","","28","","56","","","","97.29","","","","-22","","NA"
"2008-02-10 06:00","2008","02","10","06:00","-12.5","","-14.2","","87","","28","","61","","","","97.40","","","","-26","","NA"
"2008-02-10 07:00","2008","02","10","07:00","-14.0","","-16.1","","84","","28","","54","","","","97.52","","","","-28","","NA"
"2008-02-10 08:00","2008","02","10","08:00","-15.1","","-17.1","","85","","28","","46","","","","97.63","","","","-28","","NA"
"2008-02-10 09:00","2008","02","10","09:00","-15.5","","-17.9","","82","","28","","48","","","","97.75","","","","-29","","NA"
"2008-02-10 10:00","2008","02","10","10:00","-15.6","","-18.3","","80","","28","","46","","","","97.82","","","","-29","","NA"
"2008-02-10 11:00","2008","02","10","11:00","-15.5","","-18.1","","80","","28","","44","","","","97.89","","","","-29","","NA"
"2008-02-10 12:00","2008","02","10","12:00","-15.4","","-18.5","","77","","27","","50","","","","97.97","","","","-29","","NA"
"2008-02-10 13:00","2008","02","10","13:00","-14.9","","-18.7","","73","","28","","52","","","","98.02","","","","-29","","NA"
"2008-02-10 14:00","2008","02","10","14:00","-14.5","","-18.4","","72","","27","","52","","","","98.04","","","","-28","","NA"
"2008-02-10 15:00","2008","02","10","15:00","-14.0","","-17.9","","72","","27","","44","","","","98.18","","","","-27","","NA"
"2008-02-10 16:00","2008","02","10","16:00","-13.9","","-16.6","","80","","27","","44","","","","98.27","","","","-26","","NA"
"2008-02-10 17:00","2008","02","10","17:00","-14.2","","-21.9","","52","","29","","35","","","","98.49","","","","-26","","NA"
"2008-02-10 18:00","2008","02","10","18:00","-15.2","","-22.1","","56","","30","","28","","","","98.68","","","","-26","","NA"
"2008-02-10 19:00","2008","02","10","19:00","-15.7","","-21.6","","60","","31","","22","","","","98.84","","","","-25","","NA"
"2008-02-10 20:00","2008","02","10","20:00","-16.7","","-22.7","","60","","31","","20","","","","99.00","","","","-26","","NA"
"2008-02-10 21:00","2008","02","10","21:00","-17.7","","-23.8","","59","","31","","19","","","","99.08","","","","-27","","NA"
"2008-02-10 22:00","2008","02","10","22:00","-18.7","","-24.3","","61","","30","","15","","","","99.24","","","","-27","","NA"
"2008-02-10 23:00","2008","02","10","23:00","-19.8","","-25.7","","59","","30","","13","","","","99.35","","","","-28","","NA"
"2008-02-11 00:00","2008","02","11","00:00","-20.4","","-25.9","","61","","30","","11","","","","99.43","","","","-28","","NA"
"2008-02-11 01:00","2008","02","11","01:00","-20.4","","-25.7","","63","","29","","13","","","","99.51","","","","-29","","NA"
"2008-02-11 02:00","2008","02","11","02:00","-21.0","","-25.8","","65","","29","","11","","","","99.57","","","","-29","","NA"
"2008-02-11 03:00","2008","02","11","03:00","-21.3","","-26.2","","65","","30","","15","","","","99.63","","","","-31","","NA"
"2008-02-11 04:00","2008","02","11","04:00","-21.7","","-26.5","","65","","29","","11","","","","99.69","","","","-30","","NA"
"2008-02-11 05:00","2008","02","11","05:00","-21.6","","-25.9","","68","","28","","17","","","","99.76","","","","-32","","NA"
"2008-02-11 06:00","2008","02","11","06:00","-22.1","","-26.2","","69","","29","","17","","","","99.87","","","","-32","","NA"
"2008-02-11 07:00","2008","02","11","07:00","-22.8","","-27.2","","67","","30","","17","","","","99.96","","","","-33","","NA"
"2008-02-11 08:00","2008","02","11","08:00","-23.0","","-27.3","","68","","30","","15","","","","100.07","","","","-33","","NA"
"2008-02-11 09:00","2008","02","11","09:00","-22.5","","-27.9","","61","","30","","19","","","","100.15","","","","-33","","NA"
"2008-02-11 10:00","2008","02","11","10:00","-22.1","","-28.3","","57","","32","","17","","","","100.19","","","","-32","","NA"
"2008-02-11 11:00","2008","02","11","11:00","-21.4","","-27.6","","57","","31","","15","","","","100.21","","","","-31","","NA"
"2008-02-11 12:00","2008","02","11","12:00","-20.2","","-26.1","","59","","29","","17","","","","100.22","","","","-30","","NA"
"2008-02-11 13:00","2008","02","11","13:00","-19.5","","-26.8","","52","","30","","13","","","","100.20","","","","-28","","NA"
"2008-02-11 14:00","2008","02","11","14:00","-18.5","","-25.9","","52","","31","","15","","","","100.16","","","","-27","","NA"
"2008-02-11 15:00","2008","02","11","15:00","-17.2","","-23.7","","57","","27","","13","","","","100.21","","","","-25","","NA"
"2008-02-11 16:00","2008","02","11","16:00","-17.6","","-23.7","","59","","28","","15","","","","100.29","","","","-26","","NA"
"2008-02-11 17:00","2008","02","11","17:00","-17.8","","-24.2","","57","","29","","17","","","","100.34","","","","-27","","NA"
"2008-02-11 18:00","2008","02","11","18:00","-18.6","","-24.3","","61","","29","","9","","","","100.44","","","","-25","","NA"
"2008-02-11 19:00","2008","02","11","19:00","-19.7","","-25.1","","62","","31","","9","","","","100.47","","","","-26","","NA"
"2008-02-11 20:00","2008","02","11","20:00","-19.6","","-24.8","","63","","32","","13","","","","100.49","","","","-28","","NA"
"2008-02-11 21:00","2008","02","11","21:00","-20.1","","-24.6","","67","","32","","11","","","","100.51","","","","-28","","NA"
"2008-02-11 22:00","2008","02","11","22:00","-19.8","","-24.3","","67","","34","","11","","","","100.52","","","","-27","","NA"
"2008-02-11 23:00","2008","02","11","23:00","-19.2","","-24.3","","64","","1","","7","","","","100.57","","","","-25","","NA"
"2008-02-12 00:00","2008","02","12","00:00","-19.5","","-25.0","","62","","3","","9","","","","100.59","","","","-26","","NA"
"2008-02-12 01:00","2008","02","12","01:00","-19.5","","-25.1","","61","","5","","13","","","","100.56","","","","-28","","NA"
"2008-02-12 02:00","2008","02","12","02:00","-19.8","","-24.9","","64","","5","","9","","","","100.57","","","","-27","","NA"
"2008-02-12 03:00","2008","02","12","03:00","-20.4","","-25.4","","64","","5","","9","","","","100.59","","","","-27","","NA"
"2008-02-12 04:00","2008","02","12","04:00","-20.0","","-25.1","","64","","6","","13","","","","100.58","","","","-28","","NA"
"2008-02-12 05:00","2008","02","12","05:00","-20.5","","-25.4","","65","","6","","15","","","","100.58","","","","-30","","NA"
"2008-02-12 06:00","2008","02","12","06:00","-20.8","","-25.5","","66","","6","","17","","","","100.58","","","","-31","","NA"
"2008-02-12 07:00","2008","02","12","07:00","-21.0","","-25.4","","68","","6","","19","","","","100.53","","","","-31","","NA"
"2008-02-12 08:00","2008","02","12","08:00","-21.1","","-25.5","","68","","7","","19","","","","100.54","","","","-32","","NA"
"2008-02-12 09:00","2008","02","12","09:00","-20.2","","-25.2","","64","","7","","20","","","","100.50","","","","-31","","NA"
"2008-02-12 10:00","2008","02","12","10:00","-19.0","","-24.1","","64","","7","","20","","","","100.46","","","","-29","","NA"
"2008-02-12 11:00","2008","02","12","11:00","-17.2","","-23.0","","61","","7","","20","","","","100.34","","","","-27","","NA"
"2008-02-12 12:00","2008","02","12","12:00","-16.0","","-22.5","","57","","10","","20","","","","100.28","","","","-25","","NA"
"2008-02-12 13:00","2008","02","12","13:00","-15.4","","-22.2","","56","","11","","20","","","","100.17","","","","-25","","NA"
"2008-02-12 14:00","2008","02","12","14:00","-14.2","","-20.2","","60","","9","","13","","","","100.02","","","","-21","","NA"
"2008-02-12 15:00","2008","02","12","15:00","-13.4","","-21.7","","50","","10","","19","","","","99.88","","","","-22","","NA"
"2008-02-12 16:00","2008","02","12","16:00","-13.3","","-20.7","","54","","9","","22","","","","99.79","","","","-22","","NA"
"2008-02-12 17:00","2008","02","12","17:00","-13.4","","-19.0","","63","","7","","17","","","","99.67","","","","-21","","NA"
"2008-02-12 18:00","2008","02","12","18:00","-14.0","","-19.4","","64","","6","","17","","","","99.57","","","","-22","","NA"
"2008-02-12 19:00","2008","02","12","19:00","-14.5","","-19.4","","66","","6","","17","","","","99.46","","","","-23","","NA"
"2008-02-12 20:00","2008","02","12","20:00","-14.1","","-19.8","","62","","6","","17","","","","99.31","","","","-22","","NA"
"2008-02-12 21:00","2008","02","12","21:00","-13.7","","-18.1","","69","","6","","19","","","","99.16","","","","-22","","NA"
"2008-02-12 22:00","2008","02","12","22:00","-13.6","","-16.6","","78","","6","","19","","","","99.02","","","","-22","","NA"
"2008-02-12 23:00","2008","02","12","23:00","-13.3","","-15.7","","82","","5","","15","","","","98.87","","","","-21","","NA"
"2008-02-13 00:00","2008","02","13","00:00","-12.8","","-14.9","","84","","5","","13","","","","98.74","","","","-20","","NA"
"2008-02-13 01:00","2008","02","13","01:00","-13.2","","-15.1","","86","","1","","6","","","","98.71","","","","-17","","NA"
"2008-02-13 02:00","2008","02","13","02:00","-13.4","","-15.2","","86","","4","","6","","","","98.58","","","","-17","","NA"
"2008-02-13 03:00","2008","02","13","03:00","-13.4","","-15.2","","86","","2","","7","","","","98.50","","","","-18","","NA"
"2008-02-13 04:00","2008","02","13","04:00","-13.6","","-15.4","","86","","1","","7","","","","98.45","","","","-18","","NA"
"2008-02-13 05:00","2008","02","13","05:00","-13.8","","-15.6","","86","","30","","6","","","","98.48","","","","-18","","NA"
"2008-02-13 06:00","2008","02","13","06:00","-14.8","","-16.7","","85","","31","","13","","","","98.49","","","","-22","","NA"
"2008-02-13 07:00","2008","02","13","07:00","-15.1","","-17.1","","85","","30","","13","","","","98.55","","","","-22","","NA"
"2008-02-13 08:00","2008","02","13","08:00","-15.3","","-17.3","","85","","31","","9","","","","98.58","","","","-21","","NA"
"2008-02-13 09:00","2008","02","13","09:00","-14.6","","-16.8","","83","","27","","11","","","","98.62","","","","-21","","NA"
"2008-02-13 10:00","2008","02","13","10:00","-13.3","","-15.9","","81","","30","","13","","","","98.62","","","","-20","","NA"
"2008-02-13 11:00","2008","02","13","11:00","-12.1","","-15.3","","77","","28","","15","","","","98.67","","","","-19","","NA"
"2008-02-13 12:00","2008","02","13","12:00","-10.2","","-14.3","","72","","28","","19","","","","98.64","","","","-18","","NA"
"2008-02-13 13:00","2008","02","13","13:00","-9.0","","-13.2","","72","","28","","24","","","","98.56","","","","-17","","NA"
"2008-02-13 14:00","2008","02","13","14:00","-8.3","","-13.4","","67","","28","","22","","","","98.52","","","","-16","","NA"
"2008-02-13 15:00","2008","02","13","15:00","-7.4","","-13.1","","64","","28","","19","","","","98.52","","","","-14","","NA"
"2008-02-13 16:00","2008","02","13","16:00","-7.0","","-12.3","","66","","29","","11","","","","98.56","","","","-12","","NA"
"2008-02-13 17:00","2008","02","13","17:00","-6.9","","-11.6","","69","","28","","13","","","","98.60","","","","-12","","NA"
"2008-02-13 18:00","2008","02","13","18:00","-7.8","","-11.2","","77","","28","","13","","","","98.68","","","","-14","","NA"
"2008-02-13 19:00","2008","02","13","19:00","-8.4","","-11.0","","81","","27","","13","","","","98.75","","","","-14","","NA"
"2008-02-13 20:00","2008","02","13","20:00","-9.2","","-11.5","","83","","29","","11","","","","98.80","","","","-15","","NA"
"2008-02-13 21:00","2008","02","13","21:00","-10.2","","-12.1","","86","","31","","4","","","","98.82","","","","-13","","NA"
"2008-02-13 22:00","2008","02","13","22:00","-10.7","","-12.2","","89","","28","","7","","","","98.84","","","","-15","","NA"
"2008-02-13 23:00","2008","02","13","23:00","-10.2","","-11.8","","88","","29","","13","","","","98.89","","","","-16","","NA"
"2008-02-14 00:00","2008","02","14","00:00","-10.4","","-12.2","","87","","29","","11","","","","98.97","","","","-16","","NA"
"2008-02-14 01:00","2008","02","14","01:00","-10.9","","-13.1","","84","","30","","7","","","","98.99","","","","-15","","NA"
"2008-02-14 02:00","2008","02","14","02:00","-11.0","","-13.8","","80","","32","","6","","","","99.05","","","","-15","","NA"
"2008-02-14 03:00","2008","02","14","03:00","-11.4","","-14.0","","81","","22","","9","","","","99.09","","","","-17","","NA"
"2008-02-14 04:00","2008","02","14","04:00","-12.4","","-15.0","","81","","30","","7","","","","99.14","","","","-17","","NA"
"2008-02-14 05:00","2008","02","14","05:00","-12.8","","-15.1","","83","","29","","6","","","","99.15","","","","-17","","NA"
"2008-02-14 06:00","2008","02","14","06:00","-12.6","","-14.7","","84","","31","","2","","","","99.13","","","","-14","","NA"
"2008-02-14 07:00","2008","02","14","07:00","-10.2","","-12.4","","84","","18","","7","","","","99.18","","","","-14","","NA"
"2008-02-14 08:00","2008","02","14","08:00","-11.7","","-13.5","","86","","3","","7","","","","99.21","","","","-16","","NA"
"2008-02-14 09:00","2008","02","14","09:00","-10.7","","-12.3","","88","","8","","15","","","","99.17","","","","-18","","NA"
"2008-02-14 10:00","2008","02","14","10:00","-10.4","","-12.0","","88","","8","","19","","","","99.07","","","","-18","","NA"
"2008-02-14 11:00","2008","02","14","11:00","-9.8","","-11.5","","87","","10","","24","","","","99.00","","","","-18","","NA"
"2008-02-14 12:00","2008","02","14","12:00","-9.1","","-10.6","","89","","9","","24","","","","98.87","","","","-17","","NA"
"2008-02-14 13:00","2008","02","14","13:00","-7.6","","-8.9","","90","","7","","24","","","","98.74","","","","-16","","NA"
"2008-02-14 14:00","2008","02","14","14:00","-4.4","","-5.1","","95","","","","0","","","","98.69","","","","","","NA"
"2008-02-14 15:00","2008","02","14","15:00","-4.7","","-5.4","","95","","10","","4","","","","98.62","","","","-6","","NA"
"2008-02-14 16:00","2008","02","14","16:00","-3.6","","-4.2","","96","","26","","15","","","","98.62","","","","-9","","NA"
"2008-02-14 17:00","2008","02","14","17:00","-3.3","","-4.0","","95","","25","","15","","","","98.65","","","","-8","","NA"
"2008-02-14 18:00","2008","02","14","18:00","-3.6","","-4.3","","95","","26","","9","","","","98.65","","","","-7","","NA"
"2008-02-14 19:00","2008","02","14","19:00","-4.3","","-5.1","","94","","28","","9","","","","98.69","","","","-8","","NA"
"2008-02-14 20:00","2008","02","14","20:00","-4.8","","-5.8","","93","","33","","7","","","","98.67","","","","-8","","NA"
"2008-02-14 21:00","2008","02","14","21:00","-6.6","","-7.9","","90","","35","","11","","","","98.69","","","","-12","","NA"
"2008-02-14 22:00","2008","02","14","22:00","-8.4","","-10.6","","84","","1","","15","","","","98.73","","","","-15","","NA"
"2008-02-14 23:00","2008","02","14","23:00","-9.0","","-11.5","","82","","36","","7","","","","98.78","","","","-13","","NA"
"2008-02-15 00:00","2008","02","15","00:00","-9.5","","-12.3","","80","","32","","7","","","","98.83","","","","-13","","NA"
"2008-02-15 01:00","2008","02","15","01:00","-9.6","","-12.3","","81","","30","","11","","","","98.91","","","","-15","","NA"
"2008-02-15 02:00","2008","02","15","02:00","-10.6","","-13.3","","80","","29","","9","","","","98.97","","","","-16","","NA"
"2008-02-15 03:00","2008","02","15","03:00","-11.7","","-15.1","","76","","30","","15","","","","99.04","","","","-19","","NA"
"2008-02-15 04:00","2008","02","15","04:00","-12.5","","-15.7","","77","","31","","15","","","","99.13","","","","-20","","NA"
"2008-02-15 05:00","2008","02","15","05:00","-13.2","","-16.6","","76","","32","","17","","","","99.29","","","","-21","","NA"
"2008-02-15 06:00","2008","02","15","06:00","-14.8","","-19.0","","70","","31","","11","","","","99.42","","","","-21","","NA"
"2008-02-15 07:00","2008","02","15","07:00","-16.0","","-20.3","","69","","30","","13","","","","99.52","","","","-24","","NA"
"2008-02-15 08:00","2008","02","15","08:00","-16.9","","-21.2","","69","","28","","11","","","","99.66","","","","-24","","NA"
"2008-02-15 09:00","2008","02","15","09:00","-16.6","","-22.6","","60","","29","","15","","","","99.76","","","","-25","","NA"
"2008-02-15 10:00","2008","02","15","10:00","-16.1","","-23.3","","54","","29","","17","","","","99.82","","","","-25","","NA"
"2008-02-15 11:00","2008","02","15","11:00","-15.3","","-22.6","","54","","28","","19","","","","99.84","","","","-24","","NA"
"2008-02-15 12:00","2008","02","15","12:00","-14.9","","-21.9","","55","","27","","22","","","","99.88","","","","-24","","NA"
"2008-02-15 13:00","2008","02","15","13:00","-14.3","","-21.1","","56","","27","","20","","","","99.81","","","","-23","","NA"
"2008-02-15 14:00","2008","02","15","14:00","-13.0","","-19.7","","57","","27","","22","","","","99.82","","","","-22","","NA"
"2008-02-15 15:00","2008","02","15","15:00","-12.8","","-18.5","","62","","28","","32","","","","99.87","","","","-23","","NA"
"2008-02-15 16:00","2008","02","15","16:00","-12.1","","-17.3","","65","","27","","33","","","","99.87","","","","-23","","NA"
"2008-02-15 17:00","2008","02","15","17:00","-11.7","","-17.2","","64","","27","","22","","","","99.87","","","","-20","","NA"
"2008-02-15 18:00","2008","02","15","18:00","-12.5","","-16.7","","71","","27","","17","","","","99.89","","","","-20","","NA"
"2008-02-15 19:00","2008","02","15","19:00","-12.5","","-15.7","","77","","27","","20","","","","99.93","","","","-21","","NA"
"2008-02-15 20:00","2008","02","15","20:00","-13.1","","-15.3","","84","","27","","15","","","","99.99","","","","-21","","NA"
"2008-02-15 21:00","2008","02","15","21:00","-13.0","","-15.3","","83","","28","","19","","","","100.02","","","","-21","","NA"
"2008-02-15 22:00","2008","02","15","22:00","-13.1","","-15.7","","81","","28","","19","","","","100.03","","","","-22","","NA"
"2008-02-15 23:00","2008","02","15","23:00","-13.6","","-16.2","","81","","28","","15","","","","100.06","","","","-21","","NA"
"2008-02-16 00:00","2008","02","16","00:00","-14.1","","-16.9","","79","","29","","15","","","","100.06","","","","-22","","NA"
"2008-02-16 01:00","2008","02","16","01:00","-14.6","","-17.5","","79","","30","","17","","","","100.08","","","","-23","","NA"
"2008-02-16 02:00","2008","02","16","02:00","-14.0","","-17.0","","78","","29","","13","","","","100.08","","","","-21","","NA"
"2008-02-16 03:00","2008","02","16","03:00","-14.0","","-17.0","","78","","29","","17","","","","100.09","","","","-22","","NA"
"2008-02-16 04:00","2008","02","16","04:00","-13.7","","-17.0","","76","","30","","13","","","","100.09","","","","-21","","NA"
"2008-02-16 05:00","2008","02","16","05:00","-13.7","","-16.9","","77","","28","","11","","","","100.09","","","","-20","","NA"
"2008-02-16 06:00","2008","02","16","06:00","-13.6","","-16.9","","76","","31","","13","","","","100.09","","","","-21","","NA"
"2008-02-16 07:00","2008","02","16","07:00","-12.9","","-16.8","","73","","33","","13","","","","100.07","","","","-20","","NA"
"2008-02-16 08:00","2008","02","16","08:00","-11.7","","-16.9","","65","","27","","11","","","","100.10","","","","-18","","NA"
"2008-02-16 09:00","2008","02","16","09:00","-12.0","","-16.4","","70","","27","","9","","","","100.10","","","","-17","","NA"
"2008-02-16 10:00","2008","02","16","10:00","-11.2","","-16.6","","64","","24","","4","","","","100.10","","","","-14","","NA"
"2008-02-16 11:00","2008","02","16","11:00","-10.4","","-16.1","","63","","16","","6","","","","100.07","","","","-14","","NA"
"2008-02-16 12:00","2008","02","16","12:00","-9.6","","-14.6","","67","","13","","9","","","","100.02","","","","-14","","NA"
"2008-02-16 13:00","2008","02","16","13:00","-9.0","","-13.3","","71","","13","","9","","","","99.92","","","","-14","","NA"
"2008-02-16 14:00","2008","02","16","14:00","-8.3","","-10.9","","81","","15","","15","","","","99.83","","","","-15","","NA"
"2008-02-16 15:00","2008","02","16","15:00","-7.4","","-11.5","","72","","18","","19","","","","99.77","","","","-14","","NA"
"2008-02-16 16:00","2008","02","16","16:00","-7.6","","-11.5","","74","","21","","20","","","","99.73","","","","-15","","NA"
"2008-02-16 17:00","2008","02","16","17:00","-7.5","","-10.0","","82","","21","","9","","","","99.68","","","","-12","","NA"
"2008-02-16 18:00","2008","02","16","18:00","-7.1","","-8.9","","87","","16","","7","","","","99.63","","","","-11","","NA"
"2008-02-16 19:00","2008","02","16","19:00","-5.5","","-8.3","","81","","21","","24","","","","99.61","","","","-13","","NA"
"2008-02-16 20:00","2008","02","16","20:00","-5.0","","-7.9","","80","","20","","26","","","","99.49","","","","-12","","NA"
"2008-02-16 21:00","2008","02","16","21:00","-4.4","","-7.4","","80","","21","","26","","","","99.39","","","","-12","","NA"
"2008-02-16 22:00","2008","02","16","22:00","-4.1","","-7.2","","79","","21","","24","","","","99.30","","","","-11","","NA"
"2008-02-16 23:00","2008","02","16","23:00","-3.6","","-6.7","","79","","19","","24","","","","99.18","","","","-10","","NA"
"2008-02-17 00:00","2008","02","17","00:00","-3.8","","-6.6","","81","","21","","22","","","","99.12","","","","-10","","NA"
"2008-02-17 01:00","2008","02","17","01:00","-3.6","","-6.3","","82","","21","","19","","","","99.03","","","","-10","","NA"
"2008-02-17 02:00","2008","02","17","02:00","-3.6","","-6.7","","79","","21","","24","","","","98.93","","","","-10","","NA"
"2008-02-17 03:00","2008","02","17","03:00","-4.5","","-7.1","","82","","23","","7","","","","98.87","","","","-8","","NA"
"2008-02-17 04:00","2008","02","17","04:00","-4.6","","-7.3","","81","","22","","2","","","","98.78","","","","-5","","NA"
"2008-02-17 05:00","2008","02","17","05:00","-5.6","","-8.0","","83","","19","","4","","","","98.72","","","","-7","","NA"
"2008-02-17 06:00","2008","02","17","06:00","-5.5","","-7.4","","86","","12","","2","","","","98.63","","","","-6","","NA"
"2008-02-17 07:00","2008","02","17","07:00","-5.5","","-7.5","","86","","11","","6","","","","98.48","","","","-8","","NA"
"2008-02-17 08:00","2008","02","17","08:00","-4.1","","-5.5","","90","","11","","9","","","","98.42","","","","-8","","NA"
"2008-02-17 09:00","2008","02","17","09:00","-2.4","","-4.4","","86","","13","","20","","","","98.35","","","","-8","","NA"
"2008-02-17 10:00","2008","02","17","10:00","-2.6","","-3.8","","91","","13","","33","","","","98.20","","","","-10","","NA"
"2008-02-17 11:00","2008","02","17","11:00","-2.8","","-4.0","","91","","11","","30","","","","98.05","","","","-10","","NA"
"2008-02-17 12:00","2008","02","17","12:00","-2.4","","-3.6","","91","","12","","28","","","","97.88","","","","-9","","NA"
"2008-02-17 13:00","2008","02","17","13:00","-1.9","","-2.9","","93","","12","","24","","","","97.62","","","","-8","","NA"
"2008-02-17 14:00","2008","02","17","14:00","-1.1","","-1.8","","95","","11","","6","","","","97.37","","","","-3","","NA"
"2008-02-17 15:00","2008","02","17","15:00","-0.6","","-1.2","","96","","10","","4","","","","97.12","","","","-2","","NA"
"2008-02-17 16:00","2008","02","17","16:00","0.1","","-0.4","","96","","10","","4","","","","96.90","","","","","","NA"
"2008-02-17 17:00","2008","02","17","17:00","0.6","","0.2","","97","","12","","2","","","","96.72","","","","","","NA"
"2008-02-17 18:00","2008","02","17","18:00","0.7","","0.3","","97","","9","","20","","","","96.61","","","","","","NA"
"2008-02-17 19:00","2008","02","17","19:00","2.2","","1.8","","97","","21","","4","","","","96.52","","","","","","NA"
"2008-02-17 20:00","2008","02","17","20:00","3.0","","2.6","","97","","20","","24","","","","96.43","","","","","","NA"
"2008-02-17 21:00","2008","02","17","21:00","3.2","","2.2","","93","","19","","37","","","","96.37","","","","","","NA"
"2008-02-17 22:00","2008","02","17","22:00","2.8","","2.1","","95","","20","","32","","","","96.35","","","","","","NA"
"2008-02-17 23:00","2008","02","17","23:00","3.0","","2.3","","95","","21","","22","","","","96.28","","","","","","NA"
"2008-02-18 00:00","2008","02","18","00:00","2.3","","1.6","","95","","19","","35","","","","96.26","","","","","","NA"
"2008-02-18 01:00","2008","02","18","01:00","1.7","","1.2","","96","","18","","15","","","","96.21","","","","","","NA"
"2008-02-18 02:00","2008","02","18","02:00","2.2","","1.7","","96","","17","","26","","","","96.08","","","","","","NA"
"2008-02-18 03:00","2008","02","18","03:00","2.1","","1.7","","97","","19","","28","","","","96.02","","","","","","NA"
"2008-02-18 04:00","2008","02","18","04:00","2.4","","1.8","","96","","21","","35","","","","96.01","","","","","","NA"
"2008-02-18 05:00","2008","02","18","05:00","1.8","","0.9","","94","","23","","30","","","","96.04","","","","","","NA"
"2008-02-18 06:00","2008","02","18","06:00","-0.1","","-0.9","","94","","23","","37","","","","96.15","","","","-7","","NA"
"2008-02-18 07:00","2008","02","18","07:00","-0.4","","-1.2","","94","","27","","20","","","","96.29","","","","-6","","NA"
"2008-02-18 08:00","2008","02","18","08:00","-4.2","","-6.9","","81","","29","","26","","","","96.69","","","","-11","","NA"
"2008-02-18 09:00","2008","02","18","09:00","-6.6","","-10.1","","76","","30","","26","","","","96.90","","","","-15","","NA"
"2008-02-18 10:00","2008","02","18","10:00","-6.5","","-10.3","","74","","29","","22","","","","97.01","","","","-14","","NA"
"2008-02-18 11:00","2008","02","18","11:00","-6.6","","-10.6","","73","","28","","22","","","","97.17","","","","-14","","NA"
"2008-02-18 12:00","2008","02","18","12:00","-7.0","","-12.0","","67","","27","","28","","","","97.28","","","","-15","","NA"
"2008-02-18 13:00","2008","02","18","13:00","-6.4","","-11.4","","68","","28","","28","","","","97.36","","","","-15","","NA"
"2008-02-18 14:00","2008","02","18","14:00","-6.1","","-10.8","","69","","28","","32","","","","97.41","","","","-15","","NA"
"2008-02-18 15:00","2008","02","18","15:00","-5.6","","-9.9","","72","","28","","32","","","","97.46","","","","-14","","NA"
"2008-02-18 16:00","2008","02","18","16:00","-6.0","","-10.1","","73","","28","","28","","","","97.56","","","","-14","","NA"
"2008-02-18 17:00","2008","02","18","17:00","-5.8","","-11.0","","67","","28","","33","","","","97.54","","","","-14","","NA"
"2008-02-18 18:00","2008","02","18","18:00","-6.7","","-12.1","","65","","28","","28","","","","97.63","","","","-15","","NA"
"2008-02-18 19:00","2008","02","18","19:00","-6.8","","-11.7","","68","","27","","28","","","","97.74","","","","-15","","NA"
"2008-02-18 20:00","2008","02","18","20:00","-7.3","","-12.0","","69","","28","","22","","","","97.77","","","","-15","","NA"
"2008-02-18 21:00","2008","02","18","21:00","-7.6","","-12.5","","68","","28","","26","","","","97.73","","","","-16","","NA"
"2008-02-18 22:00","2008","02","18","22:00","-8.1","","-12.4","","71","","29","","19","","","","97.73","","","","-15","","NA"
"2008-02-18 23:00","2008","02","18","23:00","-8.6","","-12.6","","73","","30","","17","","","","97.73","","","","-15","","NA"
"2008-02-19 00:00","2008","02","19","00:00","-9.1","","-12.3","","78","","30","","6","","","","97.74","","","","-12","","NA"
"2008-02-19 01:00","2008","02","19","01:00","-9.3","","-12.4","","78","","30","","11","","","","97.76","","","","-15","","NA"
"2008-02-19 02:00","2008","02","19","02:00","-9.6","","-12.3","","81","","30","","9","","","","97.81","","","","-14","","NA"
"2008-02-19 03:00","2008","02","19","03:00","-11.2","","-14.8","","75","","34","","9","","","","97.87","","","","-16","","NA"
"2008-02-19 04:00","2008","02","19","04:00","-13.2","","-17.2","","72","","36","","13","","","","97.93","","","","-20","","NA"
"2008-02-19 05:00","2008","02","19","05:00","-14.4","","-18.6","","70","","34","","9","","","","98.00","","","","-20","","NA"
"2008-02-19 06:00","2008","02","19","06:00","-14.8","","-19.0","","70","","32","","9","","","","98.10","","","","-21","","NA"
"2008-02-19 07:00","2008","02","19","07:00","-15.8","","-20.3","","68","","34","","9","","","","98.19","","","","-22","","NA"
"2008-02-19 08:00","2008","02","19","08:00","-16.8","","-21.6","","66","","34","","9","","","","98.30","","","","-23","","NA"
"2008-02-19 09:00","2008","02","19","09:00","-16.1","","-22.2","","59","","36","","11","","","","98.36","","","","-23","","NA"
"2008-02-19 10:00","2008","02","19","10:00","-15.4","","-22.0","","57","","30","","15","","","","98.39","","","","-23","","NA"
"2008-02-19 11:00","2008","02","19","11:00","-14.4","","-22.2","","52","","31","","15","","","","98.42","","","","-22","","NA"
"2008-02-19 12:00","2008","02","19","12:00","-13.4","","-20.7","","54","","28","","19","","","","98.46","","","","-22","","NA"
"2008-02-19 13:00","2008","02","19","13:00","-13.1","","-20.0","","56","","28","","24","","","","98.46","","","","-23","","NA"
"2008-02-19 14:00","2008","02","19","14:00","-12.6","","-19.5","","56","","27","","24","","","","98.50","","","","-22","","NA"
"2008-02-19 15:00","2008","02","19","15:00","-11.5","","-18.1","","58","","27","","24","","","","98.55","","","","-21","","NA"
"2008-02-19 16:00","2008","02","19","16:00","-10.6","","-18.7","","51","","28","","20","","","","98.61","","","","-19","","NA"
"2008-02-19 17:00","2008","02","19","17:00","-10.6","","-18.1","","54","","27","","24","","","","98.66","","","","-19","","NA"
"2008-02-19 18:00","2008","02","19","18:00","-10.9","","-17.1","","60","","27","","20","","","","98.73","","","","-19","","NA"
"2008-02-19 19:00","2008","02","19","19:00","-11.2","","-16.0","","68","","29","","13","","","","98.79","","","","-18","","NA"
"2008-02-19 20:00","2008","02","19","20:00","-11.8","","-16.1","","70","","29","","7","","","","98.82","","","","-16","","NA"
"2008-02-19 21:00","2008","02","19","21:00","-12.4","","-16.7","","70","","33","","7","","","","98.83","","","","-17","","NA"
"2008-02-19 22:00","2008","02","19","22:00","-12.8","","-16.4","","74","","28","","6","","","","98.83","","","","-17","","NA"
"2008-02-19 23:00","2008","02","19","23:00","-13.0","","-16.5","","75","","31","","7","","","","98.85","","","","-18","","NA"
"2008-02-20 00:00","2008","02","20","00:00","-14.0","","-16.7","","80","","34","","7","","","","98.90","","","","-19","","NA"
"2008-02-20 01:00","2008","02","20","01:00","-13.9","","-18.1","","70","","1","","15","","","","98.94","","","","-22","","NA"
"2008-02-20 02:00","2008","02","20","02:00","-14.8","","-19.5","","67","","1","","9","","","","99.04","","","","-21","","NA"
"2008-02-20 03:00","2008","02","20","03:00","-15.7","","-20.3","","68","","35","","4","","","","99.11","","","","-19","","NA"
"2008-02-20 04:00","2008","02","20","04:00","-16.3","","-20.3","","71","","33","","2","","","","99.19","","","","-18","","NA"
"2008-02-20 05:00","2008","02","20","05:00","-16.8","","-20.7","","72","","30","","7","","","","99.26","","","","-22","","NA"
"2008-02-20 06:00","2008","02","20","06:00","-18.0","","-21.7","","73","","33","","9","","","","99.33","","","","-24","","NA"
"2008-02-20 07:00","2008","02","20","07:00","-18.7","","-22.7","","71","","35","","11","","","","99.38","","","","-26","","NA"
"2008-02-20 08:00","2008","02","20","08:00","-18.4","","-23.5","","64","","1","","11","","","","99.47","","","","-26","","NA"
"2008-02-20 09:00","2008","02","20","09:00","-17.9","","-23.7","","60","","1","","13","","","","99.57","","","","-26","","NA"
"2008-02-20 10:00","2008","02","20","10:00","-17.2","","-23.8","","56","","34","","11","","","","99.62","","","","-24","","NA"
"2008-02-20 11:00","2008","02","20","11:00","-16.3","","-23.5","","54","","33","","11","","","","99.68","","","","-23","","NA"
"2008-02-20 12:00","2008","02","20","12:00","-15.2","","-23.3","","50","","30","","13","","","","99.71","","","","-23","","NA"
"2008-02-20 13:00","2008","02","20","13:00","-14.1","","-22.7","","48","","30","","15","","","","99.71","","","","-22","","NA"
"2008-02-20 14:00","2008","02","20","14:00","-13.5","","-21.9","","49","","27","","19","","","","99.72","","","","-22","","NA"
"2008-02-20 15:00","2008","02","20","15:00","-12.9","","-21.3","","49","","28","","22","","","","99.73","","","","-22","","NA"
"2008-02-20 16:00","2008","02","20","16:00","-12.7","","-19.6","","56","","28","","24","","","","99.77","","","","-22","","NA"
"2008-02-20 17:00","2008","02","20","17:00","-12.7","","-19.4","","57","","27","","28","","","","99.81","","","","-23","","NA"
"2008-02-20 18:00","2008","02","20","18:00","-13.2","","-19.4","","60","","28","","24","","","","99.87","","","","-23","","NA"
"2008-02-20 19:00","2008","02","20","19:00","-13.2","","-19.5","","59","","28","","24","","","","99.95","","","","-23","","NA"
"2008-02-20 20:00","2008","02","20","20:00","-13.2","","-19.1","","61","","27","","17","","","","100.00","","","","-21","","NA"
"2008-02-20 21:00","2008","02","20","21:00","-13.5","","-19.0","","63","","28","","15","","","","100.05","","","","-21","","NA"
"2008-02-20 22:00","2008","02","20","22:00","-13.5","","-20.1","","58","","30","","20","","","","100.12","","","","-22","","NA"
"2008-02-20 23:00","2008","02","20","23:00","-14.0","","-20.0","","60","","30","","13","","","","100.14","","","","-21","","NA"
"2008-02-21 00:00","2008","02","21","00:00","-14.2","","-19.5","","64","","30","","11","","","","100.17","","","","-21","","NA"
"2008-02-21 01:00","2008","02","21","01:00","-14.8","","-18.8","","72","","29","","7","","","","100.19","","","","-20","","NA"
"2008-02-21 02:00","2008","02","21","02:00","-15.4","","-18.1","","80","","30","","7","","","","100.23","","","","-20","","NA"
"2008-02-21 03:00","2008","02","21","03:00","-15.1","","-17.2","","84","","30","","4","","","","100.23","","","","-18","","NA"
"2008-02-21 04:00","2008","02","21","04:00","-14.9","","-17.1","","83","","31","","7","","","","100.26","","","","-20","","NA"
"2008-02-21 05:00","2008","02","21","05:00","-14.1","","-16.1","","85","","27","","4","","","","100.23","","","","-17","","NA"
"2008-02-21 06:00","2008","02","21","06:00","-13.7","","-15.8","","84","","33","","7","","","","100.23","","","","-18","","NA"
"2008-02-21 07:00","2008","02","21","07:00","-12.7","","-14.7","","85","","28","","7","","","","100.23","","","","-17","","NA"
"2008-02-21 08:00","2008","02","21","08:00","-12.2","","-14.5","","83","","27","","6","","","","100.26","","","","-16","","NA"
"2008-02-21 09:00","2008","02","21","09:00","-10.6","","-14.0","","76","","27","","7","","","","100.27","","","","-15","","NA"
"2008-02-21 10:00","2008","02","21","10:00","-9.4","","-13.2","","74","","29","","19","","","","100.26","","","","-17","","NA"
"2008-02-21 11:00","2008","02","21","11:00","-8.6","","-13.0","","70","","28","","19","","","","100.24","","","","-16","","NA"
"2008-02-21 12:00","2008","02","21","12:00","-8.2","","-12.8","","69","","29","","13","","","","100.22","","","","-14","","NA"
"2008-02-21 13:00","2008","02","21","13:00","-7.3","","-11.6","","71","","27","","13","","","","100.11","","","","-13","","NA"
"2008-02-21 14:00","2008","02","21","14:00","-7.2","","-14.6","","55","","25","","20","","","","100.03","","","","-14","","NA"
"2008-02-21 15:00","2008","02","21","15:00","-6.6","","-15.0","","51","","24","","22","","","","100.02","","","","-14","","NA"
"2008-02-21 16:00","2008","02","21","16:00","-6.7","","-15.0","","52","","24","","26","","","","99.99","","","","-15","","NA"
"2008-02-21 17:00","2008","02","21","17:00","-7.4","","-14.5","","57","","25","","19","","","","99.96","","","","-14","","NA"
"2008-02-21 18:00","2008","02","21","18:00","-7.5","","-14.4","","58","","25","","17","","","","99.95","","","","-14","","NA"
"2008-02-21 19:00","2008","02","21","19:00","-7.4","","-13.4","","62","","23","","11","","","","99.86","","","","-12","","NA"
"2008-02-21 20:00","2008","02","21","20:00","-7.5","","-12.8","","66","","25","","7","","","","99.79","","","","-11","","NA"
"2008-02-21 21:00","2008","02","21","21:00","-6.6","","-12.5","","63","","22","","28","","","","99.75","","","","-15","","NA"
"2008-02-21 22:00","2008","02","21","22:00","-6.4","","-12.7","","61","","21","","30","","","","99.73","","","","-15","","NA"
"2008-02-21 23:00","2008","02","21","23:00","-6.1","","-12.5","","60","","22","","22","","","","99.68","","","","-13","","NA"
"2008-02-22 00:00","2008","02","22","00:00","-5.9","","-11.8","","63","","23","","24","","","","99.61","","","","-13","","NA"
"2008-02-22 01:00","2008","02","22","01:00","-6.3","","-9.6","","77","","17","","26","","","","99.55","","","","-14","","NA"
"2008-02-22 02:00","2008","02","22","02:00","-6.0","","-9.7","","75","","19","","22","","","","99.51","","","","-13","","NA"
"2008-02-22 03:00","2008","02","22","03:00","-5.7","","-10.8","","67","","21","","13","","","","99.45","","","","-11","","NA"
"2008-02-22 04:00","2008","02","22","04:00","-6.0","","-10.0","","73","","22","","19","","","","99.37","","","","-13","","NA"
"2008-02-22 05:00","2008","02","22","05:00","-5.9","","-9.6","","75","","22","","17","","","","99.34","","","","-12","","NA"
"2008-02-22 06:00","2008","02","22","06:00","-6.0","","-10.3","","72","","25","","7","","","","99.34","","","","-9","","NA"
"2008-02-22 07:00","2008","02","22","07:00","-6.8","","-9.7","","80","","33","","6","","","","99.34","","","","-10","","NA"
"2008-02-22 08:00","2008","02","22","08:00","-7.1","","-9.7","","82","","7","","11","","","","99.34","","","","-12","","NA"
"2008-02-22 09:00","2008","02","22","09:00","-6.6","","-8.3","","88","","9","","15","","","","99.35","","","","-13","","NA"
"2008-02-22 10:00","2008","02","22","10:00","-6.7","","-9.2","","82","","10","","20","","","","99.38","","","","-14","","NA"
"2008-02-22 11:00","2008","02","22","11:00","-6.8","","-9.7","","80","","8","","19","","","","99.38","","","","-14","","NA"
"2008-02-22 12:00","2008","02","22","12:00","-6.5","","-9.5","","79","","9","","15","","","","99.36","","","","-12","","NA"
"2008-02-22 13:00","2008","02","22","13:00","-6.2","","-8.9","","81","","11","","19","","","","99.28","","","","-13","","NA"
"2008-02-22 14:00","2008","02","22","14:00","-5.9","","-8.9","","79","","13","","20","","","","99.24","","","","-13","","NA"
"2008-02-22 15:00","2008","02","22","15:00","-5.6","","-8.6","","79","","13","","17","","","","99.21","","","","-12","","NA"
"2008-02-22 16:00","2008","02","22","16:00","-5.5","","-8.4","","80","","14","","13","","","","99.20","","","","-11","","NA"
"2008-02-22 17:00","2008","02","22","17:00","-5.0","","-8.8","","75","","14","","11","","","","99.17","","","","-10","","NA"
"2008-02-22 18:00","2008","02","22","18:00","-5.2","","-10.0","","69","","15","","6","","","","99.20","","","","-8","","NA"
"2008-02-22 19:00","2008","02","22","19:00","-5.6","","-9.6","","73","","17","","4","","","","99.23","","","","-7","","NA"
"2008-02-22 20:00","2008","02","22","20:00","-6.6","","-8.4","","87","","6","","6","","","","99.21","","","","-10","","NA"
"2008-02-22 21:00","2008","02","22","21:00","-7.7","","-9.2","","89","","32","","2","","","","99.20","","","","-9","","NA"
"2008-02-22 22:00","2008","02","22","22:00","-6.7","","-9.3","","82","","30","","4","","","","99.20","","","","-9","","NA"
"2008-02-22 23:00","2008","02","22","23:00","-7.6","","-10.1","","82","","30","","6","","","","99.20","","","","-11","","NA"
"2008-02-23 00:00","2008","02","23","00:00","-8.5","","-10.4","","86","","31","","2","","","","99.18","","","","-10","","NA"
"2008-02-23 01:00","2008","02","23","01:00","-8.7","","-10.8","","85","","28","","6","","","","99.18","","","","-12","","NA"
"2008-02-23 02:00","2008","02","23","02:00","-9.3","","-10.8","","89","","30","","6","","","","99.19","","","","-13","","NA"
"2008-02-23 03:00","2008","02","23","03:00","-9.5","","-11.4","","86","","30","","6","","","","99.19","","","","-13","","NA"
"2008-02-23 04:00","2008","02","23","04:00","-10.6","","-12.0","","89","","32","","4","","","","99.18","","","","-13","","NA"
"2008-02-23 05:00","2008","02","23","05:00","-9.9","","-11.9","","85","","29","","6","","","","99.21","","","","-13","","NA"
"2008-02-23 06:00","2008","02","23","06:00","-9.3","","-11.8","","82","","31","","9","","","","99.22","","","","-14","","NA"
"2008-02-23 07:00","2008","02","23","07:00","-9.5","","-11.8","","83","","30","","6","","","","99.23","","","","-13","","NA"
"2008-02-23 08:00","2008","02","23","08:00","-9.7","","-11.9","","84","","29","","7","","","","99.30","","","","-14","","NA"
"2008-02-23 09:00","2008","02","23","09:00","-7.7","","-11.2","","76","","29","","7","","","","99.35","","","","-11","","NA"
"2008-02-23 10:00","2008","02","23","10:00","-5.8","","-11.6","","64","","28","","7","","","","99.37","","","","-9","","NA"
"2008-02-23 11:00","2008","02","23","11:00","-4.5","","-11.7","","57","","29","","13","","","","99.38","","","","-10","","NA"
"2008-02-23 12:00","2008","02","23","12:00","-4.2","","-12.0","","55","","30","","17","","","","99.36","","","","-10","","NA"
"2008-02-23 13:00","2008","02","23","13:00","-3.5","","-11.5","","54","","28","","19","","","","99.32","","","","-9","","NA"
"2008-02-23 14:00","2008","02","23","14:00","-3.6","","-12.4","","50","","27","","26","","","","99.27","","","","-11","","NA"
"2008-02-23 15:00","2008","02","23","15:00","-3.0","","-11.6","","51","","26","","20","","","","99.29","","","","-9","","NA"
"2008-02-23 16:00","2008","02","23","16:00","-2.8","","-13.4","","44","","27","","20","","","","99.30","","","","-9","","NA"
"2008-02-23 17:00","2008","02","23","17:00","-2.5","","-12.2","","47","","28","","19","","","","99.33","","","","-8","","NA"
"2008-02-23 18:00","2008","02","23","18:00","-3.6","","-11.7","","53","","28","","17","","","","99.37","","","","-9","","NA"
"2008-02-23 19:00","2008","02","23","19:00","-4.3","","-10.2","","63","","29","","15","","","","99.42","","","","-10","","NA"
"2008-02-23 20:00","2008","02","23","20:00","-5.0","","-10.2","","67","","27","","9","","","","99.43","","","","-9","","NA"
"2008-02-23 21:00","2008","02","23","21:00","-5.9","","-9.7","","74","","27","","9","","","","99.46","","","","-10","","NA"
"2008-02-23 22:00","2008","02","23","22:00","-6.3","","-9.5","","78","","29","","7","","","","99.48","","","","-10","","NA"
"2008-02-23 23:00","2008","02","23","23:00","-6.4","","-9.7","","77","","29","","9","","","","99.48","","","","-11","","NA"
"2008-02-24 00:00","2008","02","24","00:00","-6.8","","-10.2","","77","","29","","11","","","","99.47","","","","-12","","NA"
"2008-02-24 01:00","2008","02","24","01:00","-7.0","","-10.7","","75","","29","","9","","","","99.45","","","","-11","","NA"
"2008-02-24 02:00","2008","02","24","02:00","-7.5","","-11.2","","75","","28","","7","","","","99.44","","","","-11","","NA"
"2008-02-24 03:00","2008","02","24","03:00","-7.8","","-11.4","","75","","28","","7","","","","99.42","","","","-11","","NA"
"2008-02-24 04:00","2008","02","24","04:00","-7.9","","-10.5","","82","","27","","6","","","","99.37","","","","-11","","NA"
"2008-02-24 05:00","2008","02","24","05:00","-7.5","","-9.9","","83","","27","","4","","","","99.36","","","","-10","","NA"
"2008-02-24 06:00","2008","02","24","06:00","-6.5","","-9.0","","82","","23","","4","","","","99.32","","","","-8","","NA"
"2008-02-24 07:00","2008","02","24","07:00","-6.0","","-8.0","","86","","26","","6","","","","99.30","","","","-9","","NA"
"2008-02-24 08:00","2008","02","24","08:00","-5.5","","-7.8","","84","","27","","6","","","","99.28","","","","-8","","NA"
"2008-02-24 09:00","2008","02","24","09:00","-4.1","","-7.3","","78","","27","","7","","","","99.29","","","","-7","","NA"
"2008-02-24 10:00","2008","02","24","10:00","-2.9","","-6.5","","76","","26","","15","","","","99.25","","","","-8","","NA"
"2008-02-24 11:00","2008","02","24","11:00","-1.8","","-6.2","","72","","25","","19","","","","99.21","","","","-7","","NA"
"2008-02-24 12:00","2008","02","24","12:00","-0.7","","-6.5","","65","","26","","20","","","","99.15","","","","-6","","NA"
"2008-02-24 13:00","2008","02","24","13:00","-0.3","","-7.0","","61","","23","","24","","","","99.08","","","","-6","","NA"
"2008-02-24 14:00","2008","02","24","14:00","-0.1","","-6.8","","61","","23","","24","","","","98.99","","","","-6","","NA"
"2008-02-24 15:00","2008","02","24","15:00","0.2","","-6.5","","61","","23","","22","","","","98.91","","","","","","NA"
"2008-02-24 16:00","2008","02","24","16:00","0.7","","-6.9","","57","","26","","22","","","","98.89","","","","","","NA"
"2008-02-24 17:00","2008","02","24","17:00","-0.2","","-6.0","","65","","25","","28","","","","98.89","","","","-7","","NA"
"2008-02-24 18:00","2008","02","24","18:00","-1.1","","-5.9","","70","","24","","17","","","","98.89","","","","-6","","NA"
"2008-02-24 19:00","2008","02","24","19:00","-1.6","","-5.5","","75","","25","","15","","","","98.90","","","","-6","","NA"
"2008-02-24 20:00","2008","02","24","20:00","-2.0","","-5.3","","78","","25","","9","","","","98.87","","","","-5","","NA"
"2008-02-24 21:00","2008","02","24","21:00","-2.4","","-4.9","","83","","24","","6","","","","98.87","","","","-5","","NA"
"2008-02-24 22:00","2008","02","24","22:00","-2.9","","-4.7","","87","","27","","4","","","","98.83","","","","-4","","NA"
"2008-02-24 23:00","2008","02","24","23:00","-3.6","","-4.6","","93","","28","","4","","","","98.76","","","","-5","","NA"
"2008-02-25 00:00","2008","02","25","00:00","-3.8","","-4.7","","93","","29","","6","","","","98.75","","","","-6","","NA"
"2008-02-25 01:00","2008","02","25","01:00","-4.5","","-5.3","","94","","30","","9","","","","98.77","","","","-8","","NA"
"2008-02-25 02:00","2008","02","25","02:00","-3.4","","-4.9","","89","","30","","11","","","","98.76","","","","-8","","NA"
"2008-02-25 03:00","2008","02","25","03:00","-2.9","","-4.6","","88","","28","","17","","","","98.74","","","","-8","","NA"
"2008-02-25 04:00","2008","02","25","04:00","-2.9","","-4.6","","88","","28","","11","","","","98.70","","","","-7","","NA"
"2008-02-25 05:00","2008","02","25","05:00","-2.8","","-4.5","","88","","28","","9","","","","98.69","","","","-6","","NA"
"2008-02-25 06:00","2008","02","25","06:00","-2.5","","-4.4","","87","","29","","6","","","","98.69","","","","-5","","NA"
"2008-02-25 07:00","2008","02","25","07:00","-2.3","","-4.3","","86","","28","","6","","","","98.69","","","","-5","","NA"
"2008-02-25 08:00","2008","02","25","08:00","-2.0","","-4.1","","86","","28","","6","","","","98.71","","","","-4","","NA"
"2008-02-25 09:00","2008","02","25","09:00","-1.5","","-4.1","","82","","25","","6","","","","98.69","","","","-4","","NA"
"2008-02-25 10:00","2008","02","25","10:00","-1.3","","-4.3","","80","","27","","9","","","","98.69","","","","-5","","NA"
"2008-02-25 11:00","2008","02","25","11:00","-1.3","","-4.2","","81","","25","","11","","","","98.71","","","","-5","","NA"
"2008-02-25 12:00","2008","02","25","12:00","-0.7","","-4.2","","77","","28","","11","","","","98.71","","","","-4","","NA"
"2008-02-25 13:00","2008","02","25","13:00","-0.8","","-3.6","","81","","19","","11","","","","98.68","","","","-5","","NA"
"2008-02-25 14:00","2008","02","25","14:00","-0.9","","-3.4","","83","","15","","6","","","","98.62","","","","-3","","NA"
"2008-02-25 15:00","2008","02","25","15:00","-0.9","","-3.3","","84","","11","","4","","","","98.63","","","","-2","","NA"
"2008-02-25 16:00","2008","02","25","16:00","-1.0","","-3.0","","86","","10","","7","","","","98.58","","","","-4","","NA"
"2008-02-25 17:00","2008","02","25","17:00","-1.0","","-2.5","","90","","11","","7","","","","98.58","","","","-4","","NA"
"2008-02-25 18:00","2008","02","25","18:00","-0.9","","-2.0","","92","","12","","6","","","","98.57","","","","-3","","NA"
"2008-02-25 19:00","2008","02","25","19:00","-0.9","","-1.9","","93","","11","","2","","","","98.64","","","","-2","","NA"
"2008-02-25 20:00","2008","02","25","20:00","-1.0","","-1.9","","94","","6","","2","","","","98.63","","","","-2","","NA"
"2008-02-25 21:00","2008","02","25","21:00","-1.0","","-1.9","","94","","35","","4","","","","98.61","","","","-2","","NA"
"2008-02-25 22:00","2008","02","25","22:00","-1.0","","-2.5","","90","","2","","4","","","","98.60","","","","-2","","NA"
"2008-02-25 23:00","2008","02","25","23:00","-0.9","","-2.7","","88","","2","","4","","","","98.59","","","","-2","","NA"
"2008-02-26 00:00","2008","02","26","00:00","-1.2","","-2.6","","90","","36","","6","","","","98.59","","","","-3","","NA"
"2008-02-26 01:00","2008","02","26","01:00","-1.3","","-2.4","","92","","3","","6","","","","98.56","","","","-4","","NA"
"2008-02-26 02:00","2008","02","26","02:00","-1.5","","-2.6","","92","","3","","6","","","","98.56","","","","-4","","NA"
"2008-02-26 03:00","2008","02","26","03:00","-2.5","","-4.5","","86","","4","","9","","","","98.56","","","","-6","","NA"
"2008-02-26 04:00","2008","02","26","04:00","-3.3","","-5.9","","82","","5","","15","","","","98.53","","","","-8","","NA"
"2008-02-26 05:00","2008","02","26","05:00","-4.1","","-7.3","","78","","4","","19","","","","98.49","","","","-10","","NA"
"2008-02-26 06:00","2008","02","26","06:00","-5.6","","-9.5","","74","","4","","17","","","","98.57","","","","-12","","NA"
"2008-02-26 07:00","2008","02","26","07:00","-7.2","","-11.3","","72","","4","","19","","","","98.58","","","","-14","","NA"
"2008-02-26 08:00","2008","02","26","08:00","-8.5","","-13.2","","69","","3","","15","","","","98.61","","","","-15","","NA"
"2008-02-26 09:00","2008","02","26","09:00","-8.9","","-16.0","","56","","2","","17","","","","98.63","","","","-16","","NA"
"2008-02-26 10:00","2008","02","26","10:00","-8.4","","-17.0","","50","","3","","19","","","","98.60","","","","-16","","NA"
"2008-02-26 11:00","2008","02","26","11:00","-8.1","","-18.4","","43","","2","","22","","","","98.56","","","","-16","","NA"
"2008-02-26 12:00","2008","02","26","12:00","-7.7","","-18.8","","41","","2","","24","","","","98.54","","","","-16","","NA"
"2008-02-26 13:00","2008","02","26","13:00","-6.0","","-18.7","","36","","2","","24","","","","98.48","","","","-13","","NA"
"2008-02-26 14:00","2008","02","26","14:00","-5.6","","-20.7","","29","","3","","19","","","","98.44","","","","-12","","NA"
"2008-02-26 15:00","2008","02","26","15:00","-5.3","","-19.7","","31","","3","","20","","","","98.41","","","","-12","","NA"
"2008-02-26 16:00","2008","02","26","16:00","-5.3","","-19.5","","32","","3","","17","","","","98.39","","","","-11","","NA"
"2008-02-26 17:00","2008","02","26","17:00","-6.1","","-18.8","","36","","3","","17","","","","98.42","","","","-12","","NA"
"2008-02-26 18:00","2008","02","26","18:00","-7.5","","-19.1","","39","","1","","17","","","","98.50","","","","-14","","NA"
"2008-02-26 19:00","2008","02","26","19:00","-8.9","","-20.1","","40","","1","","15","","","","98.62","","","","-15","","NA"
"2008-02-26 20:00","2008","02","26","20:00","-10.1","","-21.3","","39","","2","","15","","","","98.68","","","","-17","","NA"
"2008-02-26 21:00","2008","02","26","21:00","-11.2","","-21.9","","41","","3","","13","","","","98.72","","","","-18","","NA"
"2008-02-26 22:00","2008","02","26","22:00","-12.8","","-22.7","","43","","2","","13","","","","98.76","","","","-20","","NA"
"2008-02-26 23:00","2008","02","26","23:00","-14.2","","-23.6","","45","","2","","19","","","","98.79","","","","-23","","NA"
"2008-02-27 00:00","2008","02","27","00:00","-15.0","","-23.9","","47","","2","","9","","","","98.81","","","","-21","","NA"
"2008-02-27 01:00","2008","02","27","01:00","-15.7","","-24.2","","48","","2","","13","","","","98.80","","","","-23","","NA"
"2008-02-27 02:00","2008","02","27","02:00","-16.4","","-24.3","","50","","2","","13","","","","98.84","","","","-24","","NA"
"2008-02-27 03:00","2008","02","27","03:00","-17.2","","-24.8","","52","","1","","11","","","","98.84","","","","-24","","NA"
"2008-02-27 04:00","2008","02","27","04:00","-17.9","","-25.5","","51","","2","","17","","","","98.85","","","","-27","","NA"
"2008-02-27 05:00","2008","02","27","05:00","-18.6","","-26.1","","52","","2","","13","","","","98.87","","","","-27","","NA"
"2008-02-27 06:00","2008","02","27","06:00","-19.2","","-26.2","","54","","2","","15","","","","98.92","","","","-28","","NA"
"2008-02-27 07:00","2008","02","27","07:00","-19.8","","-26.4","","56","","1","","17","","","","98.96","","","","-29","","NA"
"2008-02-27 08:00","2008","02","27","08:00","-19.5","","-26.3","","55","","3","","7","","","","99.03","","","","-25","","NA"
"2008-02-27 09:00","2008","02","27","09:00","-19.4","","-26.7","","52","","1","","15","","","","99.05","","","","-28","","NA"
"2008-02-27 10:00","2008","02","27","10:00","-18.5","","-27.5","","45","","1","","17","","","","99.04","","","","-28","","NA"
"2008-02-27 11:00","2008","02","27","11:00","-17.9","","-27.8","","42","","35","","17","","","","99.06","","","","-27","","NA"
"2008-02-27 12:00","2008","02","27","12:00","-16.5","","-26.6","","41","","32","","20","","","","99.01","","","","-26","","NA"
"2008-02-27 13:00","2008","02","27","13:00","-15.7","","-26.4","","39","","32","","19","","","","98.93","","","","-25","","NA"
"2008-02-27 14:00","2008","02","27","14:00","-14.9","","-26.2","","38","","34","","17","","","","98.91","","","","-23","","NA"
"2008-02-27 15:00","2008","02","27","15:00","-13.6","","-26.0","","34","","35","","13","","","","98.91","","","","-21","","NA"
"2008-02-27 16:00","2008","02","27","16:00","-12.8","","-25.8","","33","","32","","15","","","","98.94","","","","-20","","NA"
"2008-02-27 17:00","2008","02","27","17:00","-12.5","","-25.9","","32","","33","","13","","","","98.99","","","","-19","","NA"
"2008-02-27 18:00","2008","02","27","18:00","-13.4","","-25.8","","34","","35","","9","","","","99.07","","","","-19","","NA"
"2008-02-27 19:00","2008","02","27","19:00","-14.5","","-25.3","","39","","1","","7","","","","99.18","","","","-19","","NA"
"2008-02-27 20:00","2008","02","27","20:00","-15.5","","-25.3","","43","","2","","7","","","","99.24","","","","-20","","NA"
"2008-02-27 21:00","2008","02","27","21:00","-16.3","","-25.6","","45","","2","","9","","","","99.29","","","","-22","","NA"
"2008-02-27 22:00","2008","02","27","22:00","-17.1","","-25.8","","47","","2","","7","","","","99.34","","","","-22","","NA"
"2008-02-27 23:00","2008","02","27","23:00","-17.8","","-25.7","","50","","2","","6","","","","99.38","","","","-22","","NA"
"2008-02-28 00:00","2008","02","28","00:00","-18.2","","-25.7","","52","","2","","7","","","","99.41","","","","-24","","NA"
"2008-02-28 01:00","2008","02","28","01:00","-18.9","","-25.7","","55","","36","","6","","","","99.45","","","","-24","","NA"
"2008-02-28 02:00","2008","02","28","02:00","-19.6","","-25.9","","57","","34","","6","","","","99.49","","","","-25","","NA"
"2008-02-28 03:00","2008","02","28","03:00","-20.2","","-25.7","","61","","35","","7","","","","99.52","","","","-26","","NA"
"2008-02-28 04:00","2008","02","28","04:00","-20.7","","-25.9","","63","","36","","7","","","","99.56","","","","-26","","NA"
"2008-02-28 05:00","2008","02","28","05:00","-21.1","","-26.2","","63","","36","","11","","","","99.64","","","","-29","","NA"
"2008-02-28 06:00","2008","02","28","06:00","-21.6","","-26.6","","64","","2","","11","","","","99.67","","","","-30","","NA"
"2008-02-28 07:00","2008","02","28","07:00","-21.9","","-27.0","","63","","2","","9","","","","99.75","","","","-29","","NA"
"2008-02-28 08:00","2008","02","28","08:00","-20.5","","-26.8","","57","","2","","7","","","","99.85","","","","-26","","NA"
"2008-02-28 09:00","2008","02","28","09:00","-18.0","","-27.1","","45","","7","","4","","","","99.94","","","","-21","","NA"
"2008-02-28 10:00","2008","02","28","10:00","-18.0","","-26.4","","48","","10","","13","","","","99.98","","","","-26","","NA"
"2008-02-28 11:00","2008","02","28","11:00","-17.1","","-27.2","","41","","13","","6","","","","99.99","","","","-22","","NA"
"2008-02-28 12:00","2008","02","28","12:00","-16.6","","-24.8","","49","","20","","9","","","","100.02","","","","-23","","NA"
"2008-02-28 13:00","2008","02","28","13:00","-16.2","","-23.8","","52","","18","","15","","","","100.02","","","","-24","","NA"
"2008-02-28 14:00","2008","02","28","14:00","-14.6","","-25.9","","38","","28","","9","","","","100.00","","","","-20","","NA"
"2008-02-28 15:00","2008","02","28","15:00","-13.9","","-25.6","","37","","25","","13","","","","100.02","","","","-21","","NA"
"2008-02-28 16:00","2008","02","28","16:00","-13.6","","-26.1","","34","","25","","11","","","","100.08","","","","-20","","NA"
"2008-02-28 17:00","2008","02","28","17:00","-13.5","","-26.6","","32","","29","","11","","","","100.08","","","","-20","","NA"
"2008-02-28 18:00","2008","02","28","18:00","-14.0","","-21.3","","54","","20","","13","","","","100.13","","","","-21","","NA"
"2008-02-28 19:00","2008","02","28","19:00","-13.8","","-19.0","","65","","16","","13","","","","100.18","","","","-21","","NA"
"2008-02-28 20:00","2008","02","28","20:00","-13.3","","-18.4","","65","","19","","11","","","","100.20","","","","-20","","NA"
"2008-02-28 21:00","2008","02","28","21:00","-14.2","","-19.0","","67","","27","","4","","","","100.24","","","","-17","","NA"
"2008-02-28 22:00","2008","02","28","22:00","-13.9","","-18.4","","69","","32","","2","","","","100.24","","","","-15","","NA"
"2008-02-28 23:00","2008","02","28","23:00","-15.7","","-19.0","","76","","7","","6","","","","100.24","","","","-20","","NA"
"2008-02-29 00:00","2008","02","29","00:00","-16.5","","-19.5","","78","","9","","4","","","","100.27","","","","-20","","NA"
"2008-02-29 01:00","2008","02","29","01:00","-16.0","","-19.0","","78","","6","","6","","","","100.28","","","","-20","","NA"
"2008-02-29 02:00","2008","02","29","02:00","-15.2","","-17.9","","80","","6","","11","","","","100.23","","","","-22","","NA"
"2008-02-29 03:00","2008","02","29","03:00","-15.2","","-17.8","","80","","5","","9","","","","100.21","","","","-21","","NA"
"2008-02-29 04:00","2008","02","29","04:00","-15.1","","-17.6","","81","","7","","13","","","","100.18","","","","-22","","NA"
"2008-02-29 05:00","2008","02","29","05:00","-15.8","","-18.2","","82","","7","","19","","","","100.15","","","","-25","","NA"
"2008-02-29 06:00","2008","02","29","06:00","-15.0","","-16.9","","85","","8","","22","","","","100.12","","","","-25","","NA"
"2008-02-29 07:00","2008","02","29","07:00","-14.6","","-16.5","","85","","8","","28","","","","100.04","","","","-25","","NA"
"2008-02-29 08:00","2008","02","29","08:00","-13.6","","-15.5","","86","","9","","19","","","","99.99","","","","-22","","NA"
"2008-02-29 09:00","2008","02","29","09:00","-10.2","","-12.3","","85","","13","","48","","","","99.84","","","","-22","","NA"
"2008-02-29 10:00","2008","02","29","10:00","-10.5","","-13.9","","76","","13","","52","","","","99.79","","","","-23","","NA"
"2008-02-29 11:00","2008","02","29","11:00","-9.8","","-12.3","","82","","13","","50","","","","99.70","","","","-21","","NA"
"2008-02-29 12:00","2008","02","29","12:00","-8.5","","-10.5","","85","","13","","50","","","","99.56","","","","-20","","NA"
"2008-02-29 13:00","2008","02","29","13:00","-8.1","","-9.7","","88","","13","","50","","","","99.39","","","","-19","","NA"
"2008-02-29 14:00","2008","02","29","14:00","-7.7","","-9.3","","88","","13","","54","","","","99.21","","","","-19","","NA"
"2008-02-29 15:00","2008","02","29","15:00","-7.5","","-9.0","","89","","12","","50","","","","99.03","","","","-18","","NA"
"2008-02-29 16:00","2008","02","29","16:00","-7.5","","-9.0","","89","","10","","48","","","","98.85","","","","-18","","NA"
"2008-02-29 17:00","2008","02","29","17:00","-7.1","","-8.5","","90","","11","","46","","","","98.88","","","","-17","","NA"
"2008-02-29 18:00","2008","02","29","18:00","-6.7","","-8.1","","90","","11","","46","","","","98.80","","","","-17","","NA"
"2008-02-29 19:00","2008","02","29","19:00","-6.6","","-7.9","","90","","11","","44","","","","98.75","","","","-17","","NA"
"2008-02-29 20:00","2008","02","29","20:00","-7.3","","-8.6","","90","","9","","35","","","","98.68","","","","-17","","NA"
"2008-02-29 21:00","2008","02","29","21:00","-7.3","","-8.7","","90","","9","","32","","","","98.62","","","","-16","","NA"
"2008-02-29 22:00","2008","02","29","22:00","-7.4","","-9.1","","88","","7","","26","","","","98.57","","","","-16","","NA"
"2008-02-29 23:00","2008","02","29","23:00","-7.4","","-9.3","","86","","7","","24","","","","98.50","","","","-15","","NA"
