"Station Name","KILLARNEY (AUT)"
"Province","ONTARIO"
"Latitude","45.97"
"Longitude","-81.48"
"Elevation","196.30"
"Climate Identifier","605DJ25"
"WMO Identifier","71460"
"TC Identifier","WBE"
"All times are specified in Local Standard Time (LST). Add 1 hour to adjust for Daylight Saving Time where and when it is observed."

"Legend"
"E","Estimated"
"M","Missing"
"NA","Not Available"

"Date/Time","Year","Month","Day","Time","Temp (°C)","Temp Flag","Dew Point Temp (°C)","Dew Point Temp Flag","Rel Hum (%)","Rel Hum Flag","Wind Dir (10s deg)","Wind Dir Flag","Wind Spd (km/h)","Wind Spd Flag","Visibility (km)","Visibility Flag","Stn Press (kPa)","Stn Press Flag","Hmdx","Hmdx Flag","Wind Chill","Wind Chill Flag","Weather"
"2017-02-01 00:00","2017","02","01","00:00","-5.4","","-7.1","","88","","8","","20","","","","98.30","","","","-12","","NA"
"2017-02-01 01:00","2017","02","01","01:00","-5.2","","-6.8","","89","","8","","17","","","","98.30","","","","-11","","NA"
"2017-02-01 02:00","2017","02","01","02:00","-5.5","","-7.0","","89","","8","","15","","","","98.30","","","","-11","","NA"
"2017-02-01 03:00","2017","02","01","03:00","-5.8","","-7.1","","90","","6","","8","","","","98.32","","","","-10","","NA"
"2017-02-01 04:00","2017","02","01","04:00","-5.8","","-7.1","","91","","6","","8","","","","98.33","","","","-10","","NA"
"2017-02-01 05:00","2017","02","01","05:00","-6.0","","-7.3","","91","","4","","7","","","","98.36","","","","-9","","NA"
"2017-02-01 06:00","2017","02","01","06:00","-5.9","","-7.1","","91","","35","","5","","","","98.38","","","","-8","","NA"
"2017-02-01 07:00","2017","02","01","07:00","-5.5","","-6.7","","92","","31","","2","","","","98.43","","","","-6","","NA"
"2017-02-01 08:00","2017","02","01","08:00","-4.7","","-6.0","","90","","29","","19","","","","98.49","","","","-11","","NA"
"2017-02-01 09:00","2017","02","01","09:00","-4.2","","-6.4","","84","","29","","14","","","","98.55","","","","-9","","NA"
"2017-02-01 10:00","2017","02","01","10:00","-3.4","","-7.4","","74","","28","","23","","","","98.64","","","","-10","","NA"
"2017-02-01 11:00","2017","02","01","11:00","-3.2","","-9.2","","63","","29","","24","","","","98.68","","","","-10","","NA"
"2017-02-01 12:00","2017","02","01","12:00","-2.7","","-9.4","","60","","28","","17","","","","98.70","","","","-8","","NA"
"2017-02-01 13:00","2017","02","01","13:00","-2.5","","-9.7","","58","","28","","26","","","","98.70","","","","-9","","NA"
"2017-02-01 14:00","2017","02","01","14:00","-2.6","","-10.3","","56","","29","","24","","","","98.74","","","","-9","","NA"
"2017-02-01 15:00","2017","02","01","15:00","-3.1","","-9.4","","62","","29","","25","","","","98.79","","","","-10","","NA"
"2017-02-01 16:00","2017","02","01","16:00","-4.3","","-8.5","","72","","27","","39","","","","98.87","","","","-13","","NA"
"2017-02-01 17:00","2017","02","01","17:00","-4.6","","-9.0","","71","","30","","26","","","","98.98","","","","-12","","NA"
"2017-02-01 18:00","2017","02","01","18:00","-5.4","","-11.0","","65","","31","","15","","","","99.11","","","","-11","","NA"
"2017-02-01 19:00","2017","02","01","19:00","-6.0","","-12.9","","58","","32","","12","","","","99.18","","","","-11","","NA"
"2017-02-01 20:00","2017","02","01","20:00","-6.4","","-14.3","","54","","31","","15","","","","99.24","","","","-12","","NA"
"2017-02-01 21:00","2017","02","01","21:00","-7.6","","-14.5","","58","","29","","20","","","","99.30","","","","-15","","NA"
"2017-02-01 22:00","2017","02","01","22:00","-9.1","","-15.9","","57","","31","","11","","","","99.34","","","","-15","","NA"
"2017-02-01 23:00","2017","02","01","23:00","-9.9","","-16.1","","60","","31","","13","","","","99.35","","","","-16","","NA"
"2017-02-02 00:00","2017","02","02","00:00","-10.4","","-16.3","","62","","31","","7","","","","99.37","","","","-14","","NA"
"2017-02-02 01:00","2017","02","02","01:00","-10.6","","-16.1","","64","","29","","8","","","","99.36","","","","-15","","NA"
"2017-02-02 02:00","2017","02","02","02:00","-11.2","","-14.8","","75","","31","","7","","","","99.31","","","","-15","","NA"
"2017-02-02 03:00","2017","02","02","03:00","-9.6","","-13.4","","74","","27","","6","","","","99.27","","","","-13","","NA"
"2017-02-02 04:00","2017","02","02","04:00","-9.7","","-13.9","","71","","28","","11","","","","99.19","","","","-15","","NA"
"2017-02-02 05:00","2017","02","02","05:00","-8.6","","-14.2","","64","","28","","15","","","","99.16","","","","-15","","NA"
"2017-02-02 06:00","2017","02","02","06:00","-7.8","","-13.0","","66","","28","","23","","","","99.13","","","","-16","","NA"
"2017-02-02 07:00","2017","02","02","07:00","-7.5","","-11.8","","72","","28","","27","","","","99.16","","","","-16","","NA"
"2017-02-02 08:00","2017","02","02","08:00","-7.9","","-11.8","","74","","30","","25","","","","99.21","","","","-16","","NA"
"2017-02-02 09:00","2017","02","02","09:00","-8.3","","-14.4","","62","","30","","33","","","","99.26","","","","-18","","NA"
"2017-02-02 10:00","2017","02","02","10:00","-8.6","","-13.9","","65","","28","","24","","","","99.35","","","","-17","","NA"
"2017-02-02 11:00","2017","02","02","11:00","-8.8","","-14.6","","63","","28","","25","","","","99.39","","","","-17","","NA"
"2017-02-02 12:00","2017","02","02","12:00","-8.4","","-15.1","","58","","29","","25","","","","99.41","","","","-17","","NA"
"2017-02-02 13:00","2017","02","02","13:00","-8.1","","-15.6","","55","","28","","32","","","","99.40","","","","-17","","NA"
"2017-02-02 14:00","2017","02","02","14:00","-7.9","","-15.8","","53","","28","","36","","","","99.40","","","","-18","","NA"
"2017-02-02 15:00","2017","02","02","15:00","-7.7","","-15.8","","52","","28","","30","","","","99.42","","","","-17","","NA"
"2017-02-02 16:00","2017","02","02","16:00","-8.2","","-12.3","","72","","28","","24","","","","99.47","","","","-16","","NA"
"2017-02-02 17:00","2017","02","02","17:00","-7.7","","-13.4","","63","","28","","29","","","","99.49","","","","-16","","NA"
"2017-02-02 18:00","2017","02","02","18:00","-7.2","","-13.8","","59","","27","","25","","","","99.52","","","","-15","","NA"
"2017-02-02 19:00","2017","02","02","19:00","-7.3","","-13.3","","62","","27","","29","","","","99.53","","","","-16","","NA"
"2017-02-02 20:00","2017","02","02","20:00","-7.2","","-13.4","","61","","28","","32","","","","99.53","","","","-16","","NA"
"2017-02-02 21:00","2017","02","02","21:00","-7.8","","-13.2","","65","","28","","38","","","","99.56","","","","-18","","NA"
"2017-02-02 22:00","2017","02","02","22:00","-8.0","","-13.5","","64","","27","","28","","","","99.58","","","","-17","","NA"
"2017-02-02 23:00","2017","02","02","23:00","-8.0","","-13.9","","63","","28","","27","","","","99.56","","","","-16","","NA"
"2017-02-03 00:00","2017","02","03","00:00","-8.3","","-14.7","","60","","28","","26","","","","99.57","","","","-17","","NA"
"2017-02-03 01:00","2017","02","03","01:00","-8.8","","-15.6","","58","","28","","26","","","","99.56","","","","-17","","NA"
"2017-02-03 02:00","2017","02","03","02:00","-9.5","","-15.8","","60","","29","","17","","","","99.58","","","","-17","","NA"
"2017-02-03 03:00","2017","02","03","03:00","-9.9","","-15.9","","61","","30","","14","","","","99.60","","","","-16","","NA"
"2017-02-03 04:00","2017","02","03","04:00","-9.8","","-15.5","","63","","30","","17","","","","99.57","","","","-17","","NA"
"2017-02-03 05:00","2017","02","03","05:00","-10.2","","-16.0","","63","","30","","21","","","","99.56","","","","-18","","NA"
"2017-02-03 06:00","2017","02","03","06:00","-11.3","","-16.9","","63","","31","","15","","","","99.59","","","","-18","","NA"
"2017-02-03 07:00","2017","02","03","07:00","-11.8","","-16.7","","67","","32","","11","","","","99.61","","","","-18","","NA"
"2017-02-03 08:00","2017","02","03","08:00","-11.8","","-16.1","","70","","30","","11","","","","99.67","","","","-18","","NA"
"2017-02-03 09:00","2017","02","03","09:00","-10.7","","-14.9","","71","","29","","14","","","","99.69","","","","-17","","NA"
"2017-02-03 10:00","2017","02","03","10:00","-10.7","","-13.6","","79","","30","","19","","","","99.70","","","","-19","","NA"
"2017-02-03 11:00","2017","02","03","11:00","-9.8","","-13.2","","76","","29","","19","","","","99.70","","","","-17","","NA"
"2017-02-03 12:00","2017","02","03","12:00","-8.7","","-12.8","","73","","28","","21","","","","99.65","","","","-16","","NA"
"2017-02-03 13:00","2017","02","03","13:00","-8.0","","-11.0","","79","","28","","30","","","","99.60","","","","-17","","NA"
"2017-02-03 14:00","2017","02","03","14:00","-7.5","","-13.3","","63","","29","","30","","","","99.57","","","","-16","","NA"
"2017-02-03 15:00","2017","02","03","15:00","-7.0","","-14.6","","55","","28","","34","","","","99.59","","","","-16","","NA"
"2017-02-03 16:00","2017","02","03","16:00","-6.8","","-13.5","","59","","28","","35","","","","99.62","","","","-16","","NA"
"2017-02-03 17:00","2017","02","03","17:00","-6.8","","-12.3","","65","","28","","30","","","","99.66","","","","-15","","NA"
"2017-02-03 18:00","2017","02","03","18:00","-6.7","","-11.9","","67","","28","","29","","","","99.69","","","","-15","","NA"
"2017-02-03 19:00","2017","02","03","19:00","-7.0","","-11.1","","73","","29","","27","","","","99.76","","","","-15","","NA"
"2017-02-03 20:00","2017","02","03","20:00","-6.8","","-12.5","","64","","29","","28","","","","99.81","","","","-15","","NA"
"2017-02-03 21:00","2017","02","03","21:00","-7.0","","-11.3","","71","","29","","24","","","","99.83","","","","-15","","NA"
"2017-02-03 22:00","2017","02","03","22:00","-7.1","","-10.8","","75","","27","","22","","","","99.85","","","","-15","","NA"
"2017-02-03 23:00","2017","02","03","23:00","-6.2","","-10.4","","72","","28","","34","","","","99.84","","","","-15","","NA"
"2017-02-04 00:00","2017","02","04","00:00","-6.7","","-12.4","","64","","27","","24","","","","99.87","","","","-14","","NA"
"2017-02-04 01:00","2017","02","04","01:00","-6.5","","-12.8","","61","","26","","23","","","","99.88","","","","-14","","NA"
"2017-02-04 02:00","2017","02","04","02:00","-6.7","","-14.1","","55","","26","","25","","","","99.87","","","","-15","","NA"
"2017-02-04 03:00","2017","02","04","03:00","-6.7","","-15.3","","50","","26","","24","","","","99.85","","","","-14","","NA"
"2017-02-04 04:00","2017","02","04","04:00","-7.3","","-15.5","","52","","27","","21","","","","99.83","","","","-15","","NA"
"2017-02-04 05:00","2017","02","04","05:00","-6.8","","-14.0","","57","","26","","15","","","","99.85","","","","-13","","NA"
"2017-02-04 06:00","2017","02","04","06:00","-6.4","","-12.6","","61","","28","","21","","","","99.84","","","","-13","","NA"
"2017-02-04 07:00","2017","02","04","07:00","-5.8","","-11.4","","65","","28","","21","","","","99.84","","","","-13","","NA"
"2017-02-04 08:00","2017","02","04","08:00","-5.6","","-10.6","","68","","27","","21","","","","99.86","","","","-12","","NA"
"2017-02-04 09:00","2017","02","04","09:00","-5.4","","-10.7","","66","","26","","19","","","","99.83","","","","-12","","NA"
"2017-02-04 10:00","2017","02","04","10:00","-4.9","","-10.2","","66","","27","","22","","","","99.86","","","","-12","","NA"
"2017-02-04 11:00","2017","02","04","11:00","-4.5","","-11.0","","60","","28","","21","","","","99.86","","","","-11","","NA"
"2017-02-04 12:00","2017","02","04","12:00","-3.8","","-8.7","","69","","28","","20","","","","99.79","","","","-10","","NA"
"2017-02-04 13:00","2017","02","04","13:00","-4.2","","-7.3","","79","","26","","26","","","","99.72","","","","-11","","NA"
"2017-02-04 14:00","2017","02","04","14:00","-3.1","","-8.6","","66","","27","","27","","","","99.63","","","","-10","","NA"
"2017-02-04 15:00","2017","02","04","15:00","-3.6","","-9.3","","64","","25","","23","","","","99.55","","","","-10","","NA"
"2017-02-04 16:00","2017","02","04","16:00","-3.9","","-10.0","","63","","27","","24","","","","99.49","","","","-11","","NA"
"2017-02-04 17:00","2017","02","04","17:00","-3.8","","-9.3","","66","","26","","22","","","","99.45","","","","-10","","NA"
"2017-02-04 18:00","2017","02","04","18:00","-3.3","","-8.7","","66","","24","","21","","","","99.43","","","","-10","","NA"
"2017-02-04 19:00","2017","02","04","19:00","-4.1","","-7.9","","75","","24","","19","","","","99.41","","","","-10","","NA"
"2017-02-04 20:00","2017","02","04","20:00","-3.7","","-5.8","","85","","21","","31","","","","99.27","","","","-11","","NA"
"2017-02-04 21:00","2017","02","04","21:00","-3.8","","-5.6","","88","","23","","27","","","","99.17","","","","-11","","NA"
"2017-02-04 22:00","2017","02","04","22:00","-3.5","","-5.2","","88","","23","","20","","","","99.03","","","","-10","","NA"
"2017-02-04 23:00","2017","02","04","23:00","-2.7","","-5.2","","83","","22","","44","","","","98.92","","","","-11","","NA"
"2017-02-05 00:00","2017","02","05","00:00","-2.9","","-5.4","","83","","24","","31","","","","98.83","","","","-10","","NA"
"2017-02-05 01:00","2017","02","05","01:00","-2.3","","-4.3","","86","","22","","42","","","","98.64","","","","-11","","NA"
"2017-02-05 02:00","2017","02","05","02:00","-2.0","","-4.2","","85","","23","","42","","","","98.51","","","","-10","","NA"
"2017-02-05 03:00","2017","02","05","03:00","-2.2","","-4.6","","84","","23","","47","","","","98.41","","","","-11","","NA"
"2017-02-05 04:00","2017","02","05","04:00","-2.1","","-4.4","","84","","23","","40","","","","98.30","","","","-10","","NA"
"2017-02-05 05:00","2017","02","05","05:00","-2.5","","-4.1","","89","","24","","30","","","","98.26","","","","-10","","NA"
"2017-02-05 06:00","2017","02","05","06:00","-2.3","","-3.5","","92","","24","","22","","","","98.21","","","","-8","","NA"
"2017-02-05 07:00","2017","02","05","07:00","-1.8","","-4.0","","85","","25","","19","","","","98.15","","","","-7","","NA"
"2017-02-05 08:00","2017","02","05","08:00","-1.8","","-4.1","","84","","26","","21","","","","98.16","","","","-8","","NA"
"2017-02-05 09:00","2017","02","05","09:00","-2.8","","-4.8","","86","","28","","22","","","","98.18","","","","-9","","NA"
"2017-02-05 10:00","2017","02","05","10:00","-2.5","","-4.8","","84","","27","","22","","","","98.18","","","","-9","","NA"
"2017-02-05 11:00","2017","02","05","11:00","-2.4","","-4.7","","84","","28","","33","","","","98.19","","","","-10","","NA"
"2017-02-05 12:00","2017","02","05","12:00","-2.1","","-4.9","","81","","28","","35","","","","98.20","","","","-10","","NA"
"2017-02-05 13:00","2017","02","05","13:00","-1.8","","-4.5","","82","","28","","34","","","","98.23","","","","-9","","NA"
"2017-02-05 14:00","2017","02","05","14:00","-1.5","","-5.8","","72","","28","","35","","","","98.26","","","","-9","","NA"
"2017-02-05 15:00","2017","02","05","15:00","-2.0","","-9.6","","56","","31","","27","","","","98.41","","","","-9","","NA"
"2017-02-05 16:00","2017","02","05","16:00","-3.0","","-11.2","","53","","33","","25","","","","98.58","","","","-10","","NA"
"2017-02-05 17:00","2017","02","05","17:00","-5.0","","-13.3","","52","","34","","18","","","","98.81","","","","-11","","NA"
"2017-02-05 18:00","2017","02","05","18:00","-6.2","","-14.2","","53","","34","","11","","","","98.99","","","","-11","","NA"
"2017-02-05 19:00","2017","02","05","19:00","-7.0","","-14.8","","54","","34","","15","","","","99.17","","","","-13","","NA"
"2017-02-05 20:00","2017","02","05","20:00","-8.1","","-15.4","","56","","36","","9","","","","99.30","","","","-13","","NA"
"2017-02-05 21:00","2017","02","05","21:00","-9.2","","-15.7","","59","","35","","8","","","","99.34","","","","-14","","NA"
"2017-02-05 22:00","2017","02","05","22:00","-9.9","","-13.7","","74","","32","","3","","","","99.41","","","","-12","","NA"
"2017-02-05 23:00","2017","02","05","23:00","-9.9","","-14.9","","67","","27","","7","","","","99.49","","","","-14","","NA"
"2017-02-06 00:00","2017","02","06","00:00","-10.1","","-16.1","","62","","33","","6","","","","99.52","","","","-14","","NA"
"2017-02-06 01:00","2017","02","06","01:00","-10.2","","-16.1","","62","","1","","4","","","","99.51","","","","-13","","NA"
"2017-02-06 02:00","2017","02","06","02:00","-10.1","","-16.3","","61","","5","","7","","","","99.49","","","","-14","","NA"
"2017-02-06 03:00","2017","02","06","03:00","-10.6","","-15.8","","65","","3","","9","","","","99.48","","","","-16","","NA"
"2017-02-06 04:00","2017","02","06","04:00","-10.3","","-16.1","","63","","4","","8","","","","99.53","","","","-15","","NA"
"2017-02-06 05:00","2017","02","06","05:00","-10.2","","-12.9","","80","","7","","10","","","","99.54","","","","-15","","NA"
"2017-02-06 06:00","2017","02","06","06:00","-11.4","","-13.4","","86","","5","","8","","","","99.50","","","","-16","","NA"
"2017-02-06 07:00","2017","02","06","07:00","-11.3","","-13.1","","86","","6","","10","","","","99.48","","","","-17","","NA"
"2017-02-06 08:00","2017","02","06","08:00","-11.0","","-13.0","","86","","6","","9","","","","99.44","","","","-16","","NA"
"2017-02-06 09:00","2017","02","06","09:00","-10.6","","-12.5","","86","","3","","6","","","","99.46","","","","-14","","NA"
"2017-02-06 10:00","2017","02","06","10:00","-9.3","","-10.9","","88","","5","","3","","","","99.42","","","","-11","","NA"
"2017-02-06 11:00","2017","02","06","11:00","-8.1","","-9.5","","89","","10","","11","","","","99.40","","","","-13","","NA"
"2017-02-06 12:00","2017","02","06","12:00","-7.5","","-8.8","","90","","8","","5","","","","99.41","","","","-10","","NA"
"2017-02-06 13:00","2017","02","06","13:00","-6.3","","-7.6","","90","","8","","4","","","","99.33","","","","-8","","NA"
"2017-02-06 14:00","2017","02","06","14:00","-5.6","","-6.7","","91","","29","","8","","","","99.23","","","","-9","","NA"
"2017-02-06 15:00","2017","02","06","15:00","-5.0","","-6.1","","92","","35","","2","","","","99.19","","","","-6","","NA"
"2017-02-06 16:00","2017","02","06","16:00","-5.3","","-6.4","","92","","35","","5","","","","99.21","","","","-8","","NA"
"2017-02-06 17:00","2017","02","06","17:00","-5.2","","-6.3","","92","","28","","5","","","","99.20","","","","-7","","NA"
"2017-02-06 18:00","2017","02","06","18:00","-5.6","","-6.7","","92","","34","","3","","","","99.23","","","","-7","","NA"
"2017-02-06 19:00","2017","02","06","19:00","-6.4","","-7.6","","92","","6","","7","","","","99.22","","","","-10","","NA"
"2017-02-06 20:00","2017","02","06","20:00","-6.5","","-7.7","","91","","7","","9","","","","99.28","","","","-11","","NA"
"2017-02-06 21:00","2017","02","06","21:00","-6.7","","-8.0","","91","","7","","9","","","","99.27","","","","-11","","NA"
"2017-02-06 22:00","2017","02","06","22:00","-7.2","","-8.6","","90","","7","","14","","","","99.29","","","","-13","","NA"
"2017-02-06 23:00","2017","02","06","23:00","-7.5","","-9.2","","88","","7","","19","","","","99.27","","","","-15","","NA"
"2017-02-07 00:00","2017","02","07","00:00","-7.9","","-9.9","","85","","6","","12","","","","99.24","","","","-13","","NA"
"2017-02-07 01:00","2017","02","07","01:00","-7.8","","-10.7","","79","","6","","20","","","","99.20","","","","-15","","NA"
"2017-02-07 02:00","2017","02","07","02:00","-7.9","","-11.3","","77","","6","","22","","","","99.10","","","","-16","","NA"
"2017-02-07 03:00","2017","02","07","03:00","-8.1","","-11.4","","77","","7","","21","","","","99.10","","","","-16","","NA"
"2017-02-07 04:00","2017","02","07","04:00","-8.7","","-11.5","","80","","7","","21","","","","99.06","","","","-16","","NA"
"2017-02-07 05:00","2017","02","07","05:00","-9.2","","-12.2","","78","","7","","25","","","","99.03","","","","-18","","NA"
"2017-02-07 06:00","2017","02","07","06:00","-10.0","","-13.4","","76","","6","","23","","","","98.98","","","","-18","","NA"
"2017-02-07 07:00","2017","02","07","07:00","-10.1","","-13.3","","77","","6","","26","","","","98.91","","","","-19","","NA"
"2017-02-07 08:00","2017","02","07","08:00","-10.0","","-12.8","","80","","7","","27","","","","98.77","","","","-19","","NA"
"2017-02-07 09:00","2017","02","07","09:00","-9.6","","-11.9","","83","","7","","27","","","","98.75","","","","-19","","NA"
"2017-02-07 10:00","2017","02","07","10:00","-9.3","","-11.8","","82","","6","","24","","","","98.64","","","","-18","","NA"
"2017-02-07 11:00","2017","02","07","11:00","-8.5","","-11.0","","82","","7","","25","","","","98.47","","","","-17","","NA"
"2017-02-07 12:00","2017","02","07","12:00","-7.3","","-9.7","","83","","7","","23","","","","98.32","","","","-15","","NA"
"2017-02-07 13:00","2017","02","07","13:00","-6.9","","-9.3","","83","","7","","27","","","","98.05","","","","-15","","NA"
"2017-02-07 14:00","2017","02","07","14:00","-6.0","","-8.2","","85","","7","","24","","","","97.89","","","","-13","","NA"
"2017-02-07 15:00","2017","02","07","15:00","-5.9","","-8.3","","83","","7","","22","","","","97.66","","","","-13","","NA"
"2017-02-07 16:00","2017","02","07","16:00","-5.8","","-7.5","","88","","7","","21","","","","97.52","","","","-13","","NA"
"2017-02-07 17:00","2017","02","07","17:00","-5.9","","-7.8","","87","","7","","18","","","","97.36","","","","-12","","NA"
"2017-02-07 18:00","2017","02","07","18:00","-6.3","","-8.1","","86","","7","","21","","","","97.17","","","","-13","","NA"
"2017-02-07 19:00","2017","02","07","19:00","-6.1","","-8.1","","86","","6","","24","","","","97.03","","","","-14","","NA"
"2017-02-07 20:00","2017","02","07","20:00","-6.1","","-8.0","","86","","6","","19","","","","96.91","","","","-13","","NA"
"2017-02-07 21:00","2017","02","07","21:00","-6.1","","-7.9","","87","","5","","12","","","","96.81","","","","-11","","NA"
"2017-02-07 22:00","2017","02","07","22:00","-5.7","","-6.9","","91","","4","","8","","","","96.78","","","","-9","","NA"
"2017-02-07 23:00","2017","02","07","23:00","-6.4","","-7.7","","91","","34","","10","","","","96.80","","","","-11","","NA"
"2017-02-08 00:00","2017","02","08","00:00","-7.0","","-8.5","","89","","33","","13","","","","96.85","","","","-13","","NA"
"2017-02-08 01:00","2017","02","08","01:00","-7.2","","-8.9","","88","","31","","15","","","","96.94","","","","-13","","NA"
"2017-02-08 02:00","2017","02","08","02:00","-7.7","","-10.1","","83","","30","","20","","","","97.12","","","","-15","","NA"
"2017-02-08 03:00","2017","02","08","03:00","-7.7","","-10.3","","82","","29","","34","","","","97.33","","","","-17","","NA"
"2017-02-08 04:00","2017","02","08","04:00","-9.4","","-13.3","","73","","30","","28","","","","97.60","","","","-18","","NA"
"2017-02-08 05:00","2017","02","08","05:00","-10.1","","-14.4","","70","","30","","27","","","","97.95","","","","-19","","NA"
"2017-02-08 06:00","2017","02","08","06:00","-11.0","","-14.9","","73","","30","","25","","","","98.12","","","","-20","","NA"
"2017-02-08 07:00","2017","02","08","07:00","-12.1","","-16.4","","70","","30","","19","","","","98.30","","","","-20","","NA"
"2017-02-08 08:00","2017","02","08","08:00","-12.9","","-17.3","","70","","30","","22","","","","98.47","","","","-22","","NA"
"2017-02-08 09:00","2017","02","08","09:00","-12.9","","-18.0","","66","","31","","16","","","","98.58","","","","-21","","NA"
"2017-02-08 10:00","2017","02","08","10:00","-12.6","","-18.1","","63","","31","","17","","","","98.73","","","","-20","","NA"
"2017-02-08 11:00","2017","02","08","11:00","-11.9","","-18.2","","59","","33","","18","","","","98.80","","","","-20","","NA"
"2017-02-08 12:00","2017","02","08","12:00","-11.1","","-18.4","","55","","30","","24","","","","98.90","","","","-20","","NA"
"2017-02-08 13:00","2017","02","08","13:00","-11.0","","-19.6","","49","","31","","26","","","","99.01","","","","-20","","NA"
"2017-02-08 14:00","2017","02","08","14:00","-10.7","","-18.9","","51","","29","","22","","","","99.03","","","","-19","","NA"
"2017-02-08 15:00","2017","02","08","15:00","-10.1","","-18.8","","49","","30","","17","","","","99.01","","","","-17","","NA"
"2017-02-08 16:00","2017","02","08","16:00","-10.0","","-18.8","","49","","30","","20","","","","99.03","","","","-18","","NA"
"2017-02-08 17:00","2017","02","08","17:00","-10.5","","-19.6","","47","","32","","18","","","","99.07","","","","-18","","NA"
"2017-02-08 18:00","2017","02","08","18:00","-11.6","","-19.7","","51","","32","","7","","","","99.15","","","","-16","","NA"
"2017-02-08 19:00","2017","02","08","19:00","-12.2","","-20.0","","52","","32","","9","","","","99.21","","","","-17","","NA"
"2017-02-08 20:00","2017","02","08","20:00","-13.2","","-19.9","","57","","34","","6","","","","99.25","","","","-17","","NA"
"2017-02-08 21:00","2017","02","08","21:00","-14.6","","-18.5","","72","","31","","4","","","","99.24","","","","-17","","NA"
"2017-02-08 22:00","2017","02","08","22:00","-13.9","","-19.7","","61","","32","","4","","","","99.22","","","","-17","","NA"
"2017-02-08 23:00","2017","02","08","23:00","-13.3","","-19.9","","57","","1","","3","","","","99.19","","","","-15","","NA"
"2017-02-09 00:00","2017","02","09","00:00","-14.1","","-19.1","","66","","34","","2","","","","99.20","","","","-15","","NA"
"2017-02-09 01:00","2017","02","09","01:00","-14.9","","-19.1","","70","","36","","8","","","","99.20","","","","-20","","NA"
"2017-02-09 02:00","2017","02","09","02:00","-15.6","","-18.8","","76","","32","","10","","","","99.18","","","","-22","","NA"
"2017-02-09 03:00","2017","02","09","03:00","-16.1","","-20.1","","71","","33","","11","","","","99.18","","","","-23","","NA"
"2017-02-09 04:00","2017","02","09","04:00","-16.0","","-19.9","","72","","33","","10","","","","99.17","","","","-22","","NA"
"2017-02-09 05:00","2017","02","09","05:00","-15.8","","-19.8","","71","","33","","8","","","","99.18","","","","-21","","NA"
"2017-02-09 06:00","2017","02","09","06:00","-15.8","","-20.0","","70","","6","","4","","","","99.20","","","","-19","","NA"
"2017-02-09 07:00","2017","02","09","07:00","-14.9","","-19.7","","67","","7","","6","","","","99.17","","","","-19","","NA"
"2017-02-09 08:00","2017","02","09","08:00","-14.2","","-19.4","","64","","6","","9","","","","99.22","","","","-20","","NA"
"2017-02-09 09:00","2017","02","09","09:00","-13.2","","-19.1","","61","","5","","6","","","","99.22","","","","-17","","NA"
"2017-02-09 10:00","2017","02","09","10:00","-11.1","","-14.9","","74","","9","","9","","","","99.21","","","","-16","","NA"
"2017-02-09 11:00","2017","02","09","11:00","-9.5","","-15.6","","61","","29","","11","","","","99.21","","","","-15","","NA"
"2017-02-09 12:00","2017","02","09","12:00","-10.4","","-16.6","","60","","28","","20","","","","99.21","","","","-18","","NA"
"2017-02-09 13:00","2017","02","09","13:00","-9.4","","-14.5","","66","","28","","22","","","","99.18","","","","-17","","NA"
"2017-02-09 14:00","2017","02","09","14:00","-8.7","","-13.6","","67","","28","","25","","","","99.15","","","","-17","","NA"
"2017-02-09 15:00","2017","02","09","15:00","-8.3","","-13.2","","67","","27","","30","","","","99.15","","","","-17","","NA"
"2017-02-09 16:00","2017","02","09","16:00","-7.6","","-13.1","","65","","28","","30","","","","99.20","","","","-16","","NA"
"2017-02-09 17:00","2017","02","09","17:00","-8.3","","-13.2","","67","","28","","28","","","","99.24","","","","-17","","NA"
"2017-02-09 18:00","2017","02","09","18:00","-8.7","","-13.0","","71","","29","","25","","","","99.31","","","","-17","","NA"
"2017-02-09 19:00","2017","02","09","19:00","-9.2","","-14.5","","65","","30","","22","","","","99.40","","","","-17","","NA"
"2017-02-09 20:00","2017","02","09","20:00","-9.6","","-16.6","","57","","30","","18","","","","99.48","","","","-17","","NA"
"2017-02-09 21:00","2017","02","09","21:00","-10.2","","-14.0","","74","","29","","17","","","","99.50","","","","-17","","NA"
"2017-02-09 22:00","2017","02","09","22:00","-9.6","","-13.6","","73","","30","","19","","","","99.55","","","","-17","","NA"
"2017-02-09 23:00","2017","02","09","23:00","-10.9","","-13.9","","78","","34","","9","","","","99.59","","","","-16","","NA"
"2017-02-10 00:00","2017","02","10","00:00","-11.2","","-16.1","","67","","34","","11","","","","99.60","","","","-17","","NA"
"2017-02-10 01:00","2017","02","10","01:00","-11.7","","-16.4","","68","","34","","6","","","","99.70","","","","-15","","NA"
"2017-02-10 02:00","2017","02","10","02:00","-12.0","","-17.9","","61","","35","","13","","","","99.78","","","","-19","","NA"
"2017-02-10 03:00","2017","02","10","03:00","-12.4","","-18.8","","58","","35","","5","","","","99.85","","","","-16","","NA"
"2017-02-10 04:00","2017","02","10","04:00","-12.5","","-19.7","","55","","35","","5","","","","99.87","","","","-16","","NA"
"2017-02-10 05:00","2017","02","10","05:00","-12.8","","-20.7","","51","","36","","9","","","","99.90","","","","-18","","NA"
"2017-02-10 06:00","2017","02","10","06:00","-12.9","","-20.4","","53","","3","","4","","","","99.93","","","","-16","","NA"
"2017-02-10 07:00","2017","02","10","07:00","-12.9","","-20.2","","54","","5","","7","","","","99.91","","","","-17","","NA"
"2017-02-10 08:00","2017","02","10","08:00","-12.0","","-16.9","","67","","8","","18","","","","99.89","","","","-20","","NA"
"2017-02-10 09:00","2017","02","10","09:00","-12.2","","-16.6","","70","","9","","22","","","","99.83","","","","-21","","NA"
"2017-02-10 10:00","2017","02","10","10:00","-11.8","","-15.3","","75","","9","","28","","","","99.77","","","","-22","","NA"
"2017-02-10 11:00","2017","02","10","11:00","-10.2","","-12.7","","82","","10","","36","","","","99.61","","","","-21","","NA"
"2017-02-10 12:00","2017","02","10","12:00","-9.2","","-11.1","","86","","11","","39","","","","99.47","","","","-20","","NA"
"2017-02-10 13:00","2017","02","10","13:00","-7.9","","-9.8","","86","","13","","46","","","","99.26","","","","-19","","NA"
"2017-02-10 14:00","2017","02","10","14:00","-6.7","","-8.3","","88","","12","","52","","","","98.99","","","","-17","","NA"
"2017-02-10 15:00","2017","02","10","15:00","-4.6","","-5.7","","92","","13","","44","","","","98.83","","","","-14","","NA"
"2017-02-10 16:00","2017","02","10","16:00","-4.3","","-6.6","","84","","17","","50","","","","98.65","","","","-14","","NA"
"2017-02-10 17:00","2017","02","10","17:00","-3.7","","-5.8","","85","","16","","50","","","","98.45","","","","-13","","NA"
"2017-02-10 18:00","2017","02","10","18:00","-3.0","","-5.1","","86","","16","","47","","","","98.41","","","","-12","","NA"
"2017-02-10 19:00","2017","02","10","19:00","-3.3","","-5.0","","88","","17","","50","","","","98.31","","","","-13","","NA"
"2017-02-10 20:00","2017","02","10","20:00","-2.2","","-3.9","","88","","21","","32","","","","98.33","","","","-10","","NA"
"2017-02-10 21:00","2017","02","10","21:00","-1.4","","-4.4","","80","","21","","33","","","","98.27","","","","-9","","NA"
"2017-02-10 22:00","2017","02","10","22:00","-0.5","","-4.6","","74","","21","","34","","","","98.19","","","","-8","","NA"
"2017-02-10 23:00","2017","02","10","23:00","-0.1","","-4.7","","71","","20","","35","","","","98.12","","","","-7","","NA"
"2017-02-11 00:00","2017","02","11","00:00","0.1","","-4.3","","72","","21","","28","","","","98.08","","","","","","NA"
"2017-02-11 01:00","2017","02","11","01:00","-0.3","","-3.2","","81","","22","","23","","","","98.06","","","","-6","","NA"
"2017-02-11 02:00","2017","02","11","02:00","-0.7","","-3.2","","83","","27","","9","","","","98.07","","","","-4","","NA"
"2017-02-11 03:00","2017","02","11","03:00","-0.8","","-3.3","","84","","28","","10","","","","98.17","","","","-4","","NA"
"2017-02-11 04:00","2017","02","11","04:00","-1.1","","-4.0","","80","","29","","14","","","","98.23","","","","-6","","NA"
"2017-02-11 05:00","2017","02","11","05:00","-1.4","","-4.3","","81","","29","","10","","","","98.34","","","","-5","","NA"
"2017-02-11 06:00","2017","02","11","06:00","-1.7","","-4.3","","82","","29","","9","","","","98.42","","","","-5","","NA"
"2017-02-11 07:00","2017","02","11","07:00","-1.9","","-4.5","","83","","30","","10","","","","98.52","","","","-6","","NA"
"2017-02-11 08:00","2017","02","11","08:00","-1.9","","-4.8","","81","","31","","11","","","","98.66","","","","-6","","NA"
"2017-02-11 09:00","2017","02","11","09:00","-1.9","","-5.1","","79","","33","","10","","","","98.71","","","","-6","","NA"
"2017-02-11 10:00","2017","02","11","10:00","-1.8","","-5.8","","74","","36","","4","","","","98.83","","","","-3","","NA"
"2017-02-11 11:00","2017","02","11","11:00","-1.5","","-6.0","","71","","20","","2","","","","98.96","","","","-2","","NA"
"2017-02-11 12:00","2017","02","11","12:00","-0.8","","-6.2","","67","","27","","4","","","","99.06","","","","-2","","NA"
"2017-02-11 13:00","2017","02","11","13:00","-0.3","","-5.9","","66","","21","","5","","","","99.11","","","","-2","","NA"
"2017-02-11 14:00","2017","02","11","14:00","-0.7","","-6.6","","64","","11","","9","","","","99.16","","","","-4","","NA"
"2017-02-11 15:00","2017","02","11","15:00","-0.2","","-5.7","","67","","17","","11","","","","99.20","","","","-4","","NA"
"2017-02-11 16:00","2017","02","11","16:00","-0.3","","-5.7","","67","","17","","7","","","","99.25","","","","-3","","NA"
"2017-02-11 17:00","2017","02","11","17:00","-0.7","","-5.2","","71","","18","","7","","","","99.33","","","","-3","","NA"
"2017-02-11 18:00","2017","02","11","18:00","-1.8","","-7.0","","68","","6","","7","","","","99.46","","","","-4","","NA"
"2017-02-11 19:00","2017","02","11","19:00","-3.1","","-6.9","","75","","7","","19","","","","99.49","","","","-9","","NA"
"2017-02-11 20:00","2017","02","11","20:00","-4.0","","-7.4","","77","","7","","19","","","","99.57","","","","-10","","NA"
"2017-02-11 21:00","2017","02","11","21:00","-3.9","","-6.7","","81","","8","","18","","","","99.59","","","","-10","","NA"
"2017-02-11 22:00","2017","02","11","22:00","-3.9","","-6.9","","80","","8","","20","","","","99.58","","","","-10","","NA"
"2017-02-11 23:00","2017","02","11","23:00","-4.3","","-7.1","","81","","8","","18","","","","99.55","","","","-10","","NA"
"2017-02-12 00:00","2017","02","12","00:00","-5.2","","-8.0","","81","","7","","12","","","","99.56","","","","-10","","NA"
"2017-02-12 01:00","2017","02","12","01:00","-5.6","","-8.2","","82","","6","","10","","","","99.51","","","","-10","","NA"
"2017-02-12 02:00","2017","02","12","02:00","-5.8","","-8.3","","82","","6","","10","","","","99.42","","","","-10","","NA"
"2017-02-12 03:00","2017","02","12","03:00","-5.5","","-7.9","","83","","7","","16","","","","99.32","","","","-11","","NA"
"2017-02-12 04:00","2017","02","12","04:00","-5.8","","-8.1","","84","","7","","12","","","","99.29","","","","-11","","NA"
"2017-02-12 05:00","2017","02","12","05:00","-6.0","","-8.3","","84","","6","","9","","","","99.24","","","","-10","","NA"
"2017-02-12 06:00","2017","02","12","06:00","-6.2","","-8.5","","84","","6","","11","","","","99.12","","","","-11","","NA"
"2017-02-12 07:00","2017","02","12","07:00","-6.2","","-8.2","","86","","8","","18","","","","99.01","","","","-13","","NA"
"2017-02-12 08:00","2017","02","12","08:00","-6.1","","-8.0","","86","","7","","16","","","","98.92","","","","-12","","NA"
"2017-02-12 09:00","2017","02","12","09:00","-5.9","","-7.7","","87","","8","","19","","","","98.81","","","","-13","","NA"
"2017-02-12 10:00","2017","02","12","10:00","-5.5","","-7.1","","88","","9","","16","","","","98.72","","","","-11","","NA"
"2017-02-12 11:00","2017","02","12","11:00","-5.0","","-6.6","","88","","8","","15","","","","98.64","","","","-11","","NA"
"2017-02-12 12:00","2017","02","12","12:00","-4.2","","-5.6","","89","","8","","17","","","","98.50","","","","-10","","NA"
"2017-02-12 13:00","2017","02","12","13:00","-2.7","","-3.8","","93","","8","","21","","","","98.34","","","","-9","","NA"
"2017-02-12 14:00","2017","02","12","14:00","-2.0","","-3.0","","93","","8","","23","","","","98.16","","","","-8","","NA"
"2017-02-12 15:00","2017","02","12","15:00","-1.9","","-2.9","","93","","5","","7","","","","98.08","","","","-5","","NA"
"2017-02-12 16:00","2017","02","12","16:00","-1.7","","-2.7","","93","","31","","10","","","","98.12","","","","-5","","NA"
"2017-02-12 17:00","2017","02","12","17:00","-2.6","","-3.6","","93","","31","","11","","","","98.19","","","","-7","","NA"
"2017-02-12 18:00","2017","02","12","18:00","-3.1","","-4.1","","93","","31","","13","","","","98.29","","","","-8","","NA"
"2017-02-12 19:00","2017","02","12","19:00","-2.8","","-3.8","","93","","31","","18","","","","98.37","","","","-8","","NA"
"2017-02-12 20:00","2017","02","12","20:00","-1.9","","-3.0","","92","","30","","24","","","","98.43","","","","-8","","NA"
"2017-02-12 21:00","2017","02","12","21:00","-2.3","","-3.9","","89","","30","","25","","","","98.56","","","","-9","","NA"
"2017-02-12 22:00","2017","02","12","22:00","-2.4","","-4.0","","89","","30","","17","","","","98.67","","","","-8","","NA"
"2017-02-12 23:00","2017","02","12","23:00","-2.5","","-5.2","","81","","32","","17","","","","98.81","","","","-8","","NA"
"2017-02-13 00:00","2017","02","13","00:00","-3.5","","-7.3","","75","","31","","26","","","","98.94","","","","-11","","NA"
"2017-02-13 01:00","2017","02","13","01:00","-3.9","","-8.4","","71","","32","","21","","","","99.09","","","","-10","","NA"
"2017-02-13 02:00","2017","02","13","02:00","-4.3","","-9.3","","68","","32","","22","","","","99.18","","","","-11","","NA"
"2017-02-13 03:00","2017","02","13","03:00","-5.2","","-10.3","","68","","33","","19","","","","99.28","","","","-12","","NA"
"2017-02-13 04:00","2017","02","13","04:00","-5.8","","-10.2","","71","","31","","20","","","","99.38","","","","-13","","NA"
"2017-02-13 05:00","2017","02","13","05:00","-6.7","","-11.8","","67","","31","","20","","","","99.47","","","","-14","","NA"
"2017-02-13 06:00","2017","02","13","06:00","-6.8","","-11.5","","69","","33","","20","","","","99.55","","","","-14","","NA"
"2017-02-13 07:00","2017","02","13","07:00","-7.0","","-12.1","","67","","33","","17","","","","99.62","","","","-13","","NA"
"2017-02-13 08:00","2017","02","13","08:00","-7.1","","-11.7","","70","","31","","10","","","","99.69","","","","-12","","NA"
"2017-02-13 09:00","2017","02","13","09:00","-6.9","","-11.1","","72","","33","","12","","","","99.74","","","","-12","","NA"
"2017-02-13 10:00","2017","02","13","10:00","-6.5","","-11.5","","68","","34","","14","","","","99.77","","","","-12","","NA"
"2017-02-13 11:00","2017","02","13","11:00","-6.2","","-11.9","","64","","33","","14","","","","99.77","","","","-12","","NA"
"2017-02-13 12:00","2017","02","13","12:00","-5.4","","-11.1","","64","","32","","13","","","","99.73","","","","-11","","NA"
"2017-02-13 13:00","2017","02","13","13:00","-5.2","","-10.7","","65","","28","","17","","","","99.71","","","","-11","","NA"
"2017-02-13 14:00","2017","02","13","14:00","-4.5","","-10.3","","64","","25","","8","","","","99.63","","","","-8","","NA"
"2017-02-13 15:00","2017","02","13","15:00","-4.4","","-10.6","","62","","28","","15","","","","99.62","","","","-10","","NA"
"2017-02-13 16:00","2017","02","13","16:00","-4.1","","-10.6","","60","","28","","15","","","","99.56","","","","-9","","NA"
"2017-02-13 17:00","2017","02","13","17:00","-4.0","","-11.1","","58","","25","","7","","","","99.48","","","","-7","","NA"
"2017-02-13 18:00","2017","02","13","18:00","-4.6","","-11.2","","60","","29","","3","","","","99.39","","","","-6","","NA"
"2017-02-13 19:00","2017","02","13","19:00","-4.9","","-10.5","","65","","28","","1","","","","99.33","","","","-5","","NA"
"2017-02-13 20:00","2017","02","13","20:00","-3.8","","-8.6","","69","","23","","8","","","","99.29","","","","-7","","NA"
"2017-02-13 21:00","2017","02","13","21:00","-1.9","","-5.5","","76","","19","","13","","","","99.19","","","","-6","","NA"
"2017-02-13 22:00","2017","02","13","22:00","-0.6","","-2.9","","85","","15","","14","","","","99.03","","","","-5","","NA"
"2017-02-13 23:00","2017","02","13","23:00","0.6","","-2.0","","83","","16","","15","","","","98.91","","","","","","NA"
"2017-02-14 00:00","2017","02","14","00:00","0.7","","-1.9","","83","","21","","18","","","","98.78","","","","","","NA"
"2017-02-14 01:00","2017","02","14","01:00","0.0","","-2.5","","83","","24","","14","","","","98.64","","","","-4","","NA"
"2017-02-14 02:00","2017","02","14","02:00","1.1","","-2.2","","79","","20","","23","","","","98.49","","","","","","NA"
"2017-02-14 03:00","2017","02","14","03:00","1.1","","-2.5","","77","","20","","28","","","","98.31","","","","","","NA"
"2017-02-14 04:00","2017","02","14","04:00","1.0","","-2.3","","78","","23","","20","","","","98.22","","","","","","NA"
"2017-02-14 05:00","2017","02","14","05:00","0.2","","-2.4","","83","","23","","20","","","","98.14","","","","","","NA"
"2017-02-14 06:00","2017","02","14","06:00","-0.3","","-1.3","","93","","24","","18","","","","98.07","","","","-5","","NA"
"2017-02-14 07:00","2017","02","14","07:00","-0.2","","-1.0","","94","","23","","13","","","","98.01","","","","-4","","NA"
"2017-02-14 08:00","2017","02","14","08:00","0.0","","-1.3","","91","","23","","9","","","","97.92","","","","-3","","NA"
"2017-02-14 09:00","2017","02","14","09:00","0.4","","-1.6","","87","","23","","16","","","","97.87","","","","","","NA"
"2017-02-14 10:00","2017","02","14","10:00","0.6","","-1.6","","85","","24","","13","","","","97.80","","","","","","NA"
"2017-02-14 11:00","2017","02","14","11:00","1.1","","-1.5","","83","","25","","12","","","","97.71","","","","","","NA"
"2017-02-14 12:00","2017","02","14","12:00","1.1","","-0.7","","88","","26","","13","","","","97.66","","","","","","NA"
"2017-02-14 13:00","2017","02","14","13:00","1.0","","-0.2","","91","","25","","17","","","","97.62","","","","","","NA"
"2017-02-14 14:00","2017","02","14","14:00","1.6","","-0.1","","89","","26","","20","","","","97.55","","","","","","NA"
"2017-02-14 15:00","2017","02","14","15:00","1.5","","-0.9","","84","","26","","19","","","","97.54","","","","","","NA"
"2017-02-14 16:00","2017","02","14","16:00","1.8","","-1.3","","80","","26","","18","","","","97.52","","","","","","NA"
"2017-02-14 17:00","2017","02","14","17:00","1.7","","-1.5","","79","","27","","21","","","","97.52","","","","","","NA"
"2017-02-14 18:00","2017","02","14","18:00","1.4","","-1.5","","81","","28","","25","","","","97.56","","","","","","NA"
"2017-02-14 19:00","2017","02","14","19:00","1.3","","-1.6","","81","","28","","23","","","","97.56","","","","","","NA"
"2017-02-14 20:00","2017","02","14","20:00","1.0","","-1.8","","82","","28","","25","","","","97.55","","","","","","NA"
"2017-02-14 21:00","2017","02","14","21:00","-0.3","","-2.8","","83","","28","","31","","","","97.54","","","","-7","","NA"
"2017-02-14 22:00","2017","02","14","22:00","-1.0","","-3.2","","85","","28","","22","","","","97.53","","","","-7","","NA"
"2017-02-14 23:00","2017","02","14","23:00","-1.3","","-3.4","","85","","28","","20","","","","97.48","","","","-7","","NA"
"2017-02-15 00:00","2017","02","15","00:00","-1.4","","-3.5","","86","","29","","20","","","","97.47","","","","-7","","NA"
"2017-02-15 01:00","2017","02","15","01:00","-1.5","","-3.1","","89","","29","","19","","","","97.47","","","","-7","","NA"
"2017-02-15 02:00","2017","02","15","02:00","-1.5","","-2.8","","91","","31","","12","","","","97.49","","","","-6","","NA"
"2017-02-15 03:00","2017","02","15","03:00","-1.1","","-2.6","","90","","33","","8","","","","97.55","","","","-4","","NA"
"2017-02-15 04:00","2017","02","15","04:00","-1.2","","-3.5","","84","","36","","13","","","","97.59","","","","-5","","NA"
"2017-02-15 05:00","2017","02","15","05:00","-2.5","","-4.9","","83","","34","","20","","","","97.66","","","","-8","","NA"
"2017-02-15 06:00","2017","02","15","06:00","-4.6","","-7.8","","78","","34","","15","","","","97.76","","","","-10","","NA"
"2017-02-15 07:00","2017","02","15","07:00","-6.0","","-8.8","","81","","34","","18","","","","97.84","","","","-12","","NA"
"2017-02-15 08:00","2017","02","15","08:00","-8.1","","-11.4","","77","","35","","21","","","","97.93","","","","-16","","NA"
"2017-02-15 09:00","2017","02","15","09:00","-8.5","","-12.7","","72","","34","","11","","","","98.01","","","","-14","","NA"
"2017-02-15 10:00","2017","02","15","10:00","-8.6","","-12.9","","71","","32","","10","","","","98.05","","","","-14","","NA"
"2017-02-15 11:00","2017","02","15","11:00","-7.0","","-12.9","","63","","34","","20","","","","98.06","","","","-14","","NA"
"2017-02-15 12:00","2017","02","15","12:00","-6.3","","-13.1","","58","","35","","21","","","","98.06","","","","-13","","NA"
"2017-02-15 13:00","2017","02","15","13:00","-5.3","","-13.0","","55","","35","","17","","","","98.04","","","","-11","","NA"
"2017-02-15 14:00","2017","02","15","14:00","-4.7","","-12.6","","54","","34","","19","","","","98.03","","","","-11","","NA"
"2017-02-15 15:00","2017","02","15","15:00","-3.8","","-12.3","","52","","32","","13","","","","98.07","","","","-9","","NA"
"2017-02-15 16:00","2017","02","15","16:00","-6.0","","-12.9","","58","","32","","19","","","","98.15","","","","-13","","NA"
"2017-02-15 17:00","2017","02","15","17:00","-6.5","","-13.2","","59","","33","","11","","","","98.25","","","","-11","","NA"
"2017-02-15 18:00","2017","02","15","18:00","-7.6","","-13.6","","62","","33","","14","","","","98.33","","","","-14","","NA"
"2017-02-15 19:00","2017","02","15","19:00","-8.6","","-13.8","","66","","33","","12","","","","98.40","","","","-14","","NA"
"2017-02-15 20:00","2017","02","15","20:00","-9.2","","-14.4","","66","","33","","8","","","","98.46","","","","-14","","NA"
"2017-02-15 21:00","2017","02","15","21:00","-9.7","","-14.6","","67","","34","","16","","","","98.50","","","","-17","","NA"
"2017-02-15 22:00","2017","02","15","22:00","-10.1","","-15.1","","67","","35","","16","","","","98.55","","","","-17","","NA"
"2017-02-15 23:00","2017","02","15","23:00","-10.8","","-16.2","","64","","36","","14","","","","98.57","","","","-17","","NA"
"2017-02-16 00:00","2017","02","16","00:00","-11.4","","-16.6","","66","","36","","11","","","","98.58","","","","-17","","NA"
"2017-02-16 01:00","2017","02","16","01:00","-11.6","","-16.4","","68","","34","","8","","","","98.63","","","","-16","","NA"
"2017-02-16 02:00","2017","02","16","02:00","-11.9","","-16.8","","67","","35","","12","","","","98.66","","","","-18","","NA"
"2017-02-16 03:00","2017","02","16","03:00","-12.5","","-16.8","","70","","33","","7","","","","98.69","","","","-17","","NA"
"2017-02-16 04:00","2017","02","16","04:00","-13.1","","-17.3","","71","","33","","8","","","","98.69","","","","-18","","NA"
"2017-02-16 05:00","2017","02","16","05:00","-13.6","","-17.7","","71","","32","","7","","","","98.75","","","","-18","","NA"
"2017-02-16 06:00","2017","02","16","06:00","-14.2","","-18.2","","72","","36","","6","","","","98.81","","","","-18","","NA"
"2017-02-16 07:00","2017","02","16","07:00","-14.3","","-18.3","","72","","35","","12","","","","98.87","","","","-21","","NA"
"2017-02-16 08:00","2017","02","16","08:00","-13.8","","-17.5","","74","","31","","11","","","","98.94","","","","-20","","NA"
"2017-02-16 09:00","2017","02","16","09:00","-13.0","","-17.9","","67","","36","","12","","","","98.98","","","","-20","","NA"
"2017-02-16 10:00","2017","02","16","10:00","-12.1","","-17.4","","65","","36","","13","","","","98.96","","","","-19","","NA"
"2017-02-16 11:00","2017","02","16","11:00","-10.3","","-17.1","","58","","1","","12","","","","98.98","","","","-16","","NA"
"2017-02-16 12:00","2017","02","16","12:00","-7.3","","-15.3","","53","","35","","5","","","","98.95","","","","-10","","NA"
"2017-02-16 13:00","2017","02","16","13:00","-5.8","","-14.4","","51","","1","","6","","","","98.94","","","","-9","","NA"
"2017-02-16 14:00","2017","02","16","14:00","-6.1","","-14.5","","51","","29","","13","","","","98.91","","","","-11","","NA"
"2017-02-16 15:00","2017","02","16","15:00","-6.2","","-14.1","","53","","28","","16","","","","98.92","","","","-12","","NA"
"2017-02-16 16:00","2017","02","16","16:00","-6.9","","-14.1","","56","","27","","23","","","","98.92","","","","-14","","NA"
"2017-02-16 17:00","2017","02","16","17:00","-6.7","","-14.0","","56","","29","","17","","","","98.90","","","","-13","","NA"
"2017-02-16 18:00","2017","02","16","18:00","-7.7","","-14.0","","60","","29","","14","","","","98.93","","","","-14","","NA"
"2017-02-16 19:00","2017","02","16","19:00","-8.8","","-14.7","","62","","31","","13","","","","99.00","","","","-15","","NA"
"2017-02-16 20:00","2017","02","16","20:00","-9.4","","-15.1","","63","","30","","11","","","","99.00","","","","-15","","NA"
"2017-02-16 21:00","2017","02","16","21:00","-9.9","","-15.4","","64","","32","","12","","","","98.99","","","","-16","","NA"
"2017-02-16 22:00","2017","02","16","22:00","-10.6","","-15.5","","67","","31","","11","","","","99.03","","","","-16","","NA"
"2017-02-16 23:00","2017","02","16","23:00","-9.8","","-14.6","","68","","32","","10","","","","99.03","","","","-15","","NA"
"2017-02-17 00:00","2017","02","17","00:00","-11.0","","-13.4","","82","","26","","4","","","","99.01","","","","-13","","NA"
"2017-02-17 01:00","2017","02","17","01:00","-10.6","","-13.5","","79","","28","","5","","","","99.00","","","","-14","","NA"
"2017-02-17 02:00","2017","02","17","02:00","-11.0","","-13.8","","80","","30","","8","","","","99.01","","","","-16","","NA"
"2017-02-17 03:00","2017","02","17","03:00","-10.7","","-14.7","","72","","33","","3","","","","98.95","","","","-13","","NA"
"2017-02-17 04:00","2017","02","17","04:00","-9.4","","-14.6","","66","","36","","2","","","","98.92","","","","-11","","NA"
"2017-02-17 05:00","2017","02","17","05:00","-9.0","","-14.4","","65","","3","","3","","","","98.92","","","","-11","","NA"
"2017-02-17 06:00","2017","02","17","06:00","-8.8","","-13.9","","66","","3","","4","","","","98.90","","","","-11","","NA"
"2017-02-17 07:00","2017","02","17","07:00","-7.5","","-11.1","","75","","7","","10","","","","98.86","","","","-12","","NA"
"2017-02-17 08:00","2017","02","17","08:00","-7.3","","-10.4","","79","","8","","14","","","","98.85","","","","-13","","NA"
"2017-02-17 09:00","2017","02","17","09:00","-6.8","","-10.0","","78","","7","","13","","","","98.85","","","","-12","","NA"
"2017-02-17 10:00","2017","02","17","10:00","-5.1","","-7.8","","81","","8","","15","","","","98.83","","","","-11","","NA"
"2017-02-17 11:00","2017","02","17","11:00","-1.6","","-5.0","","77","","19","","24","","","","98.81","","","","-8","","NA"
"2017-02-17 12:00","2017","02","17","12:00","-1.3","","-4.5","","79","","19","","30","","","","98.76","","","","-8","","NA"
"2017-02-17 13:00","2017","02","17","13:00","-1.5","","-5.4","","75","","18","","27","","","","98.67","","","","-8","","NA"
"2017-02-17 14:00","2017","02","17","14:00","-1.4","","-5.5","","73","","17","","23","","","","98.65","","","","-7","","NA"
"2017-02-17 15:00","2017","02","17","15:00","-1.5","","-5.9","","72","","15","","19","","","","98.64","","","","-7","","NA"
"2017-02-17 16:00","2017","02","17","16:00","-1.2","","-5.9","","71","","15","","23","","","","98.58","","","","-7","","NA"
"2017-02-17 17:00","2017","02","17","17:00","-1.0","","-5.7","","70","","14","","27","","","","98.50","","","","-7","","NA"
"2017-02-17 18:00","2017","02","17","18:00","-0.5","","-4.7","","73","","15","","28","","","","98.46","","","","-7","","NA"
"2017-02-17 19:00","2017","02","17","19:00","-0.5","","-4.4","","75","","15","","31","","","","98.37","","","","-7","","NA"
"2017-02-17 20:00","2017","02","17","20:00","-0.1","","-3.3","","79","","15","","30","","","","98.34","","","","-7","","NA"
"2017-02-17 21:00","2017","02","17","21:00","0.4","","-2.3","","82","","16","","23","","","","98.30","","","","","","NA"
"2017-02-17 22:00","2017","02","17","22:00","0.8","","-2.2","","80","","16","","17","","","","98.23","","","","","","NA"
"2017-02-17 23:00","2017","02","17","23:00","1.0","","-3.3","","73","","19","","24","","","","98.18","","","","","","NA"
"2017-02-18 00:00","2017","02","18","00:00","0.9","","-2.1","","80","","18","","15","","","","98.08","","","","","","NA"
"2017-02-18 01:00","2017","02","18","01:00","0.9","","-1.7","","83","","15","","13","","","","97.97","","","","","","NA"
"2017-02-18 02:00","2017","02","18","02:00","0.8","","-1.2","","86","","12","","12","","","","97.89","","","","","","NA"
"2017-02-18 03:00","2017","02","18","03:00","0.6","","-1.0","","89","","10","","11","","","","97.81","","","","","","NA"
"2017-02-18 04:00","2017","02","18","04:00","0.0","","-1.2","","92","","8","","8","","","","97.71","","","","-3","","NA"
"2017-02-18 05:00","2017","02","18","05:00","-0.4","","-1.5","","93","","8","","11","","","","97.56","","","","-4","","NA"
"2017-02-18 06:00","2017","02","18","06:00","0.0","","-1.0","","93","","8","","9","","","","97.56","","","","-3","","NA"
"2017-02-18 07:00","2017","02","18","07:00","-0.6","","-1.7","","92","","7","","11","","","","97.39","","","","-4","","NA"
"2017-02-18 08:00","2017","02","18","08:00","0.9","","0.0","","94","","30","","5","","","","97.45","","","","","","NA"
"2017-02-18 09:00","2017","02","18","09:00","2.1","","0.0","","86","","27","","11","","","","97.44","","","","","","NA"
"2017-02-18 10:00","2017","02","18","10:00","4.3","","0.8","","78","","28","","15","","","","97.46","","","","","","NA"
"2017-02-18 11:00","2017","02","18","11:00","4.8","","0.6","","75","","27","","21","","","","97.47","","","","","","NA"
"2017-02-18 12:00","2017","02","18","12:00","5.4","","0.4","","70","","28","","29","","","","97.48","","","","","","NA"
"2017-02-18 13:00","2017","02","18","13:00","5.5","","0.4","","70","","29","","38","","","","97.44","","","","","","NA"
"2017-02-18 14:00","2017","02","18","14:00","6.7","","0.2","","63","","29","","35","","","","97.50","","","","","","NA"
"2017-02-18 15:00","2017","02","18","15:00","8.0","","0.5","","59","","28","","35","","","","97.58","","","","","","NA"
"2017-02-18 16:00","2017","02","18","16:00","8.0","","0.6","","60","","28","","23","","","","97.63","","","","","","NA"
"2017-02-18 17:00","2017","02","18","17:00","7.5","","0.6","","61","","29","","27","","","","97.68","","","","","","NA"
"2017-02-18 18:00","2017","02","18","18:00","6.9","","0.7","","65","","28","","32","","","","97.74","","","","","","NA"
"2017-02-18 19:00","2017","02","18","19:00","6.1","","0.7","","69","","28","","26","","","","97.88","","","","","","NA"
"2017-02-18 20:00","2017","02","18","20:00","5.3","","0.7","","72","","27","","24","","","","97.94","","","","","","NA"
"2017-02-18 21:00","2017","02","18","21:00","5.3","","-0.1","","68","","28","","20","","","","98.02","","","","","","NA"
"2017-02-18 22:00","2017","02","18","22:00","4.6","","-0.4","","70","","28","","26","","","","98.11","","","","","","NA"
"2017-02-18 23:00","2017","02","18","23:00","3.7","","-0.6","","73","","30","","20","","","","98.17","","","","","","NA"
"2017-02-19 00:00","2017","02","19","00:00","3.0","","-0.7","","77","","29","","14","","","","98.22","","","","","","NA"
"2017-02-19 01:00","2017","02","19","01:00","2.8","","-0.8","","77","","29","","15","","","","98.24","","","","","","NA"
"2017-02-19 02:00","2017","02","19","02:00","1.4","","-1.3","","82","","27","","9","","","","98.34","","","","","","NA"
"2017-02-19 03:00","2017","02","19","03:00","1.4","","-1.3","","83","","28","","11","","","","98.38","","","","","","NA"
"2017-02-19 04:00","2017","02","19","04:00","1.0","","-1.3","","84","","31","","7","","","","98.40","","","","","","NA"
"2017-02-19 05:00","2017","02","19","05:00","2.3","","-0.8","","80","","30","","12","","","","98.50","","","","","","NA"
"2017-02-19 06:00","2017","02","19","06:00","1.9","","-1.0","","81","","31","","11","","","","98.56","","","","","","NA"
"2017-02-19 07:00","2017","02","19","07:00","0.8","","-1.4","","85","","29","","14","","","","98.64","","","","","","NA"
"2017-02-19 08:00","2017","02","19","08:00","0.9","","-1.4","","85","","29","","15","","","","98.76","","","","","","NA"
"2017-02-19 09:00","2017","02","19","09:00","1.5","","-1.4","","81","","29","","11","","","","98.87","","","","","","NA"
"2017-02-19 10:00","2017","02","19","10:00","3.7","","-0.8","","72","","29","","14","","","","98.96","","","","","","NA"
"2017-02-19 11:00","2017","02","19","11:00","5.4","","-1.3","","62","","31","","16","","","","99.02","","","","","","NA"
"2017-02-19 12:00","2017","02","19","12:00","6.4","","-1.8","","56","","32","","14","","","","99.06","","","","","","NA"
"2017-02-19 13:00","2017","02","19","13:00","6.8","","-1.7","","55","","28","","20","","","","99.09","","","","","","NA"
"2017-02-19 14:00","2017","02","19","14:00","6.5","","-1.7","","56","","28","","23","","","","99.13","","","","","","NA"
"2017-02-19 15:00","2017","02","19","15:00","6.3","","-2.0","","55","","28","","24","","","","99.22","","","","","","NA"
"2017-02-19 16:00","2017","02","19","16:00","5.7","","-1.7","","59","","28","","23","","","","99.34","","","","","","NA"
"2017-02-19 17:00","2017","02","19","17:00","6.3","","-1.6","","57","","30","","16","","","","99.45","","","","","","NA"
"2017-02-19 18:00","2017","02","19","18:00","4.8","","-1.6","","63","","30","","10","","","","99.54","","","","","","NA"
"2017-02-19 19:00","2017","02","19","19:00","4.4","","-1.6","","65","","33","","9","","","","99.66","","","","","","NA"
"2017-02-19 20:00","2017","02","19","20:00","4.6","","-2.5","","60","","3","","8","","","","99.71","","","","","","NA"
"2017-02-19 21:00","2017","02","19","21:00","3.1","","-2.9","","65","","2","","7","","","","99.86","","","","","","NA"
"2017-02-19 22:00","2017","02","19","22:00","2.6","","-3.2","","65","","4","","8","","","","99.89","","","","","","NA"
"2017-02-19 23:00","2017","02","19","23:00","1.9","","-3.4","","68","","11","","2","","","","99.97","","","","","","NA"
"2017-02-20 00:00","2017","02","20","00:00","1.4","","-4.5","","65","","4","","10","","","","99.99","","","","","","NA"
"2017-02-20 01:00","2017","02","20","01:00","0.5","","-4.3","","71","","5","","6","","","","100.10","","","","","","NA"
"2017-02-20 02:00","2017","02","20","02:00","-0.6","","-4.4","","75","","8","","3","","","","100.18","","","","-2","","NA"
"2017-02-20 03:00","2017","02","20","03:00","-1.4","","-5.0","","76","","0","","1","","","","100.26","","","","-2","","NA"
"2017-02-20 04:00","2017","02","20","04:00","-1.5","","-6.2","","70","","0","","1","","","","100.33","","","","-2","","NA"
"2017-02-20 05:00","2017","02","20","05:00","-1.4","","-5.5","","74","","8","","6","","","","100.38","","","","-4","","NA"
"2017-02-20 06:00","2017","02","20","06:00","-1.7","","-5.5","","75","","7","","7","","","","100.47","","","","-4","","NA"
"2017-02-20 07:00","2017","02","20","07:00","-2.4","","-6.6","","73","","7","","10","","","","100.56","","","","-6","","NA"
"2017-02-20 08:00","2017","02","20","08:00","-2.9","","-7.5","","70","","8","","20","","","","100.63","","","","-9","","NA"
"2017-02-20 09:00","2017","02","20","09:00","-3.0","","-8.1","","68","","8","","19","","","","100.66","","","","-9","","NA"
"2017-02-20 10:00","2017","02","20","10:00","-2.6","","-9.5","","59","","10","","10","","","","100.76","","","","-6","","NA"
"2017-02-20 11:00","2017","02","20","11:00","-2.4","","-9.0","","61","","12","","17","","","","100.69","","","","-8","","NA"
"2017-02-20 12:00","2017","02","20","12:00","-2.0","","-8.7","","60","","14","","16","","","","100.65","","","","-7","","NA"
"2017-02-20 13:00","2017","02","20","13:00","-1.5","","-7.7","","63","","16","","10","","","","100.64","","","","-5","","NA"
"2017-02-20 14:00","2017","02","20","14:00","-1.0","","-7.8","","60","","14","","11","","","","100.54","","","","-5","","NA"
"2017-02-20 15:00","2017","02","20","15:00","-0.2","","-8.6","","53","","17","","8","","","","100.53","","","","-3","","NA"
"2017-02-20 16:00","2017","02","20","16:00","0.3","","-8.2","","53","","14","","8","","","","100.45","","","","","","NA"
"2017-02-20 17:00","2017","02","20","17:00","0.2","","-7.3","","57","","10","","7","","","","100.41","","","","","","NA"
"2017-02-20 18:00","2017","02","20","18:00","0.1","","-5.0","","69","","9","","10","","","","100.37","","","","","","NA"
"2017-02-20 19:00","2017","02","20","19:00","0.7","","-6.9","","57","","15","","11","","","","100.40","","","","","","NA"
"2017-02-20 20:00","2017","02","20","20:00","0.4","","-4.5","","69","","10","","16","","","","100.23","","","","","","NA"
"2017-02-20 21:00","2017","02","20","21:00","0.4","","-5.3","","66","","10","","15","","","","100.21","","","","","","NA"
"2017-02-20 22:00","2017","02","20","22:00","0.6","","-3.9","","72","","11","","19","","","","100.07","","","","","","NA"
"2017-02-20 23:00","2017","02","20","23:00","1.4","","-3.7","","69","","13","","19","","","","100.03","","","","","","NA"
"2017-02-21 00:00","2017","02","21","00:00","1.7","","-2.7","","73","","14","","35","","","","99.90","","","","","","NA"
"2017-02-21 01:00","2017","02","21","01:00","1.4","","-3.3","","71","","13","","37","","","","99.79","","","","","","NA"
"2017-02-21 02:00","2017","02","21","02:00","1.5","","-4.3","","66","","14","","28","","","","99.80","","","","","","NA"
"2017-02-21 03:00","2017","02","21","03:00","1.0","","-4.3","","68","","13","","30","","","","99.65","","","","","","NA"
"2017-02-21 04:00","2017","02","21","04:00","1.0","","-3.9","","69","","13","","30","","","","99.54","","","","","","NA"
"2017-02-21 05:00","2017","02","21","05:00","0.8","","-3.6","","72","","14","","36","","","","99.48","","","","","","NA"
"2017-02-21 06:00","2017","02","21","06:00","0.4","","-3.3","","76","","12","","32","","","","99.31","","","","","","NA"
"2017-02-21 07:00","2017","02","21","07:00","0.4","","-3.0","","78","","12","","33","","","","99.21","","","","","","NA"
"2017-02-21 08:00","2017","02","21","08:00","0.5","","-2.6","","80","","11","","27","","","","99.16","","","","","","NA"
"2017-02-21 09:00","2017","02","21","09:00","0.7","","-1.6","","85","","11","","19","","","","99.14","","","","","","NA"
"2017-02-21 10:00","2017","02","21","10:00","0.8","","-0.9","","88","","11","","23","","","","99.01","","","","","","NA"
"2017-02-21 11:00","2017","02","21","11:00","0.9","","-0.4","","91","","8","","12","","","","98.97","","","","","","NA"
"2017-02-21 12:00","2017","02","21","12:00","1.2","","0.1","","93","","7","","10","","","","98.86","","","","","","NA"
"2017-02-21 13:00","2017","02","21","13:00","1.8","","0.9","","94","","5","","4","","","","98.82","","","","","","NA"
"2017-02-21 14:00","2017","02","21","14:00","2.2","","1.3","","94","","6","","7","","","","98.78","","","","","","NA"
"2017-02-21 15:00","2017","02","21","15:00","2.0","","1.1","","94","","10","","7","","","","98.79","","","","","","NA"
"2017-02-21 16:00","2017","02","21","16:00","2.1","","1.3","","94","","13","","1","","","","98.86","","","","","","NA"
"2017-02-21 17:00","2017","02","21","17:00","2.8","","1.9","","94","","7","","5","","","","98.87","","","","","","NA"
"2017-02-21 18:00","2017","02","21","18:00","2.9","","2.0","","94","","5","","4","","","","98.91","","","","","","NA"
"2017-02-21 19:00","2017","02","21","19:00","2.3","","1.5","","94","","24","","4","","","","98.95","","","","","","NA"
"2017-02-21 20:00","2017","02","21","20:00","2.9","","2.1","","94","","31","","2","","","","98.99","","","","","","NA"
"2017-02-21 21:00","2017","02","21","21:00","2.7","","1.9","","95","","23","","16","","","","99.04","","","","","","NA"
"2017-02-21 22:00","2017","02","21","22:00","1.8","","1.1","","95","","23","","11","","","","99.02","","","","","","NA"
"2017-02-21 23:00","2017","02","21","23:00","1.9","","1.2","","95","","4","","4","","","","98.97","","","","","","NA"
"2017-02-22 00:00","2017","02","22","00:00","2.1","","1.4","","95","","1","","2","","","","98.98","","","","","","NA"
"2017-02-22 01:00","2017","02","22","01:00","2.1","","1.4","","95","","7","","7","","","","98.93","","","","","","NA"
"2017-02-22 02:00","2017","02","22","02:00","1.6","","0.9","","95","","6","","9","","","","98.93","","","","","","NA"
"2017-02-22 03:00","2017","02","22","03:00","1.4","","0.7","","95","","8","","10","","","","98.88","","","","","","NA"
"2017-02-22 04:00","2017","02","22","04:00","1.8","","1.2","","95","","8","","16","","","","98.79","","","","","","NA"
"2017-02-22 05:00","2017","02","22","05:00","2.2","","1.5","","95","","2","","7","","","","98.80","","","","","","NA"
"2017-02-22 06:00","2017","02","22","06:00","2.2","","1.5","","95","","7","","12","","","","98.79","","","","","","NA"
"2017-02-22 07:00","2017","02","22","07:00","2.2","","1.5","","95","","9","","17","","","","98.77","","","","","","NA"
"2017-02-22 08:00","2017","02","22","08:00","2.2","","1.6","","96","","7","","12","","","","98.78","","","","","","NA"
"2017-02-22 09:00","2017","02","22","09:00","1.9","","1.2","","96","","8","","15","","","","98.72","","","","","","NA"
"2017-02-22 10:00","2017","02","22","10:00","1.5","","0.8","","96","","9","","18","","","","98.65","","","","","","NA"
"2017-02-22 11:00","2017","02","22","11:00","1.6","","1.0","","96","","10","","19","","","","98.64","","","","","","NA"
"2017-02-22 12:00","2017","02","22","12:00","1.7","","1.1","","96","","11","","23","","","","98.53","","","","","","NA"
"2017-02-22 13:00","2017","02","22","13:00","1.2","","0.6","","96","","10","","19","","","","98.47","","","","","","NA"
"2017-02-22 14:00","2017","02","22","14:00","1.2","","0.6","","96","","8","","16","","","","98.41","","","","","","NA"
"2017-02-22 15:00","2017","02","22","15:00","1.5","","0.9","","96","","8","","12","","","","98.33","","","","","","NA"
"2017-02-22 16:00","2017","02","22","16:00","1.6","","1.0","","96","","6","","5","","","","98.29","","","","","","NA"
"2017-02-22 17:00","2017","02","22","17:00","1.5","","0.9","","96","","10","","11","","","","98.19","","","","","","NA"
"2017-02-22 18:00","2017","02","22","18:00","2.3","","1.6","","96","","11","","13","","","","98.20","","","","","","NA"
"2017-02-22 19:00","2017","02","22","19:00","2.8","","2.2","","96","","8","","15","","","","98.15","","","","","","NA"
"2017-02-22 20:00","2017","02","22","20:00","2.9","","2.3","","96","","9","","16","","","","98.14","","","","","","NA"
"2017-02-22 21:00","2017","02","22","21:00","3.0","","2.3","","96","","9","","10","","","","98.14","","","","","","NA"
"2017-02-22 22:00","2017","02","22","22:00","2.8","","2.1","","96","","8","","14","","","","98.07","","","","","","NA"
"2017-02-22 23:00","2017","02","22","23:00","3.1","","2.4","","96","","6","","12","","","","98.00","","","","","","NA"
"2017-02-23 00:00","2017","02","23","00:00","3.8","","3.1","","95","","7","","12","","","","97.92","","","","","","NA"
"2017-02-23 01:00","2017","02","23","01:00","4.7","","4.0","","95","","34","","5","","","","97.93","","","","","","NA"
"2017-02-23 02:00","2017","02","23","02:00","4.1","","3.3","","95","","6","","4","","","","97.86","","","","","","NA"
"2017-02-23 03:00","2017","02","23","03:00","2.2","","1.6","","96","","10","","12","","","","97.77","","","","","","NA"
"2017-02-23 04:00","2017","02","23","04:00","3.5","","2.9","","96","","35","","9","","","","97.80","","","","","","NA"
"2017-02-23 05:00","2017","02","23","05:00","4.9","","4.1","","95","","24","","9","","","","97.69","","","","","","NA"
"2017-02-23 06:00","2017","02","23","06:00","4.2","","3.6","","95","","2","","7","","","","97.66","","","","","","NA"
"2017-02-23 07:00","2017","02","23","07:00","3.4","","2.8","","96","","7","","6","","","","97.63","","","","","","NA"
"2017-02-23 08:00","2017","02","23","08:00","3.5","","2.8","","96","","10","","8","","","","97.59","","","","","","NA"
"2017-02-23 09:00","2017","02","23","09:00","3.5","","2.9","","96","","31","","13","","","","97.75","","","","","","NA"
"2017-02-23 10:00","2017","02","23","10:00","6.1","","5.3","","95","","13","","3","","","","97.78","","","","","","NA"
"2017-02-23 11:00","2017","02","23","11:00","5.1","","4.4","","95","","34","","16","","","","97.96","","","","","","NA"
"2017-02-23 12:00","2017","02","23","12:00","4.5","","3.8","","95","","35","","18","","","","98.10","","","","","","NA"
"2017-02-23 13:00","2017","02","23","13:00","5.0","","1.5","","78","","33","","14","","","","98.24","","","","","","NA"
"2017-02-23 14:00","2017","02","23","14:00","6.0","","0.9","","70","","33","","19","","","","98.34","","","","","","NA"
"2017-02-23 15:00","2017","02","23","15:00","5.9","","0.6","","69","","34","","13","","","","98.46","","","","","","NA"
"2017-02-23 16:00","2017","02","23","16:00","5.9","","0.4","","68","","33","","9","","","","98.59","","","","","","NA"
"2017-02-23 17:00","2017","02","23","17:00","5.8","","0.0","","66","","33","","9","","","","98.68","","","","","","NA"
"2017-02-23 18:00","2017","02","23","18:00","5.4","","-0.4","","66","","32","","6","","","","98.82","","","","","","NA"
"2017-02-23 19:00","2017","02","23","19:00","2.9","","-0.2","","80","","30","","9","","","","98.89","","","","","","NA"
"2017-02-23 20:00","2017","02","23","20:00","2.3","","-0.4","","83","","35","","7","","","","98.90","","","","","","NA"
"2017-02-23 21:00","2017","02","23","21:00","2.7","","-0.8","","78","","3","","8","","","","98.94","","","","","","NA"
"2017-02-23 22:00","2017","02","23","22:00","2.3","","-1.0","","79","","1","","3","","","","99.02","","","","","","NA"
"2017-02-23 23:00","2017","02","23","23:00","2.0","","-1.0","","81","","4","","8","","","","99.03","","","","","","NA"
"2017-02-24 00:00","2017","02","24","00:00","1.9","","-1.1","","81","","5","","9","","","","99.08","","","","","","NA"
"2017-02-24 01:00","2017","02","24","01:00","1.6","","-1.2","","82","","5","","10","","","","99.10","","","","","","NA"
"2017-02-24 02:00","2017","02","24","02:00","1.3","","-1.2","","83","","6","","16","","","","99.02","","","","","","NA"
"2017-02-24 03:00","2017","02","24","03:00","1.0","","-1.3","","85","","6","","14","","","","98.99","","","","","","NA"
"2017-02-24 04:00","2017","02","24","04:00","0.7","","-1.8","","84","","6","","12","","","","98.95","","","","","","NA"
"2017-02-24 05:00","2017","02","24","05:00","0.5","","-2.5","","81","","6","","17","","","","98.95","","","","","","NA"
"2017-02-24 06:00","2017","02","24","06:00","0.3","","-3.0","","78","","7","","21","","","","98.97","","","","","","NA"
"2017-02-24 07:00","2017","02","24","07:00","-0.1","","-3.6","","77","","7","","18","","","","98.98","","","","-5","","NA"
"2017-02-24 08:00","2017","02","24","08:00","-1.2","","-2.7","","90","","7","","20","","","","98.94","","","","-7","","NA"
"2017-02-24 09:00","2017","02","24","09:00","-0.9","","-2.5","","89","","6","","21","","","","98.85","","","","-7","","NA"
"2017-02-24 10:00","2017","02","24","10:00","-0.7","","-2.1","","90","","6","","20","","","","98.79","","","","-6","","NA"
"2017-02-24 11:00","2017","02","24","11:00","-0.6","","-2.5","","87","","7","","29","","","","98.69","","","","-7","","NA"
"2017-02-24 12:00","2017","02","24","12:00","-0.7","","-2.9","","85","","6","","20","","","","98.70","","","","-6","","NA"
"2017-02-24 13:00","2017","02","24","13:00","-1.3","","-2.7","","90","","6","","17","","","","98.54","","","","-6","","NA"
"2017-02-24 14:00","2017","02","24","14:00","-1.6","","-2.5","","94","","4","","14","","","","98.56","","","","-6","","NA"
"2017-02-24 15:00","2017","02","24","15:00","-0.7","","-2.4","","88","","6","","28","","","","98.41","","","","-7","","NA"
"2017-02-24 16:00","2017","02","24","16:00","-0.6","","-3.1","","83","","7","","30","","","","98.39","","","","-7","","NA"
"2017-02-24 17:00","2017","02","24","17:00","-1.0","","-3.6","","83","","6","","19","","","","98.39","","","","-6","","NA"
"2017-02-24 18:00","2017","02","24","18:00","-1.4","","-3.1","","88","","7","","34","","","","98.04","","","","-9","","NA"
"2017-02-24 19:00","2017","02","24","19:00","-0.9","","-2.5","","90","","6","","19","","","","98.26","","","","-6","","NA"
"2017-02-24 20:00","2017","02","24","20:00","-0.7","","-2.1","","90","","8","","15","","","","97.91","","","","-5","","NA"
"2017-02-24 21:00","2017","02","24","21:00","-0.2","","-1.4","","92","","8","","4","","","","98.00","","","","-1","","NA"
"2017-02-24 22:00","2017","02","24","22:00","0.0","","-1.1","","92","","6","","2","","","","97.80","","","","-1","","NA"
"2017-02-24 23:00","2017","02","24","23:00","0.1","","-0.9","","92","","7","","3","","","","97.62","","","","","","NA"
"2017-02-25 00:00","2017","02","25","00:00","0.3","","-0.8","","93","","7","","3","","","","97.56","","","","","","NA"
"2017-02-25 01:00","2017","02","25","01:00","0.5","","-0.4","","93","","7","","3","","","","97.46","","","","","","NA"
"2017-02-25 02:00","2017","02","25","02:00","0.8","","0.0","","94","","7","","21","","","","97.39","","","","","","NA"
"2017-02-25 03:00","2017","02","25","03:00","1.1","","0.3","","94","","8","","25","","","","97.22","","","","","","NA"
"2017-02-25 04:00","2017","02","25","04:00","1.6","","0.8","","95","","10","","25","","","","97.15","","","","","","NA"
"2017-02-25 05:00","2017","02","25","05:00","2.2","","1.5","","95","","12","","17","","","","97.09","","","","","","NA"
"2017-02-25 06:00","2017","02","25","06:00","2.4","","1.7","","95","","21","","17","","","","97.09","","","","","","NA"
"2017-02-25 07:00","2017","02","25","07:00","2.1","","1.4","","95","","23","","24","","","","97.10","","","","","","NA"
"2017-02-25 08:00","2017","02","25","08:00","1.5","","0.8","","95","","23","","22","","","","97.15","","","","","","NA"
"2017-02-25 09:00","2017","02","25","09:00","1.7","","0.7","","93","","25","","18","","","","97.18","","","","","","NA"
"2017-02-25 10:00","2017","02","25","10:00","1.2","","-0.2","","90","","22","","17","","","","97.17","","","","","","NA"
"2017-02-25 11:00","2017","02","25","11:00","1.4","","-0.6","","86","","25","","23","","","","97.21","","","","","","NA"
"2017-02-25 12:00","2017","02","25","12:00","-0.2","","-2.3","","86","","26","","26","","","","97.25","","","","-6","","NA"
"2017-02-25 13:00","2017","02","25","13:00","-1.1","","-4.4","","78","","26","","32","","","","97.29","","","","-8","","NA"
"2017-02-25 14:00","2017","02","25","14:00","-1.4","","-6.5","","68","","27","","36","","","","97.37","","","","-9","","NA"
"2017-02-25 15:00","2017","02","25","15:00","-3.7","","-5.9","","85","","28","","35","","","","97.51","","","","-12","","NA"
"2017-02-25 16:00","2017","02","25","16:00","-4.3","","-7.3","","80","","28","","35","","","","97.61","","","","-13","","NA"
"2017-02-25 17:00","2017","02","25","17:00","-4.8","","-7.4","","82","","28","","40","","","","97.69","","","","-14","","NA"
"2017-02-25 18:00","2017","02","25","18:00","-5.2","","-9.7","","70","","28","","55","","","","97.77","","","","-16","","NA"
"2017-02-25 19:00","2017","02","25","19:00","-5.1","","-9.0","","74","","28","","44","","","","97.87","","","","-15","","NA"
"2017-02-25 20:00","2017","02","25","20:00","-5.6","","-10.2","","70","","28","","42","","","","98.02","","","","-15","","NA"
"2017-02-25 21:00","2017","02","25","21:00","-6.4","","-12.0","","64","","30","","31","","","","98.20","","","","-15","","NA"
"2017-02-25 22:00","2017","02","25","22:00","-7.1","","-12.8","","64","","30","","24","","","","98.43","","","","-15","","NA"
"2017-02-25 23:00","2017","02","25","23:00","-7.2","","-12.2","","67","","30","","17","","","","98.54","","","","-14","","NA"
"2017-02-26 00:00","2017","02","26","00:00","-6.9","","-11.9","","68","","31","","14","","","","98.63","","","","-13","","NA"
"2017-02-26 01:00","2017","02","26","01:00","-7.0","","-11.0","","73","","32","","6","","","","98.69","","","","-10","","NA"
"2017-02-26 02:00","2017","02","26","02:00","-6.7","","-10.5","","74","","33","","5","","","","98.74","","","","-9","","NA"
"2017-02-26 03:00","2017","02","26","03:00","-6.3","","-10.1","","75","","33","","9","","","","98.76","","","","-11","","NA"
"2017-02-26 04:00","2017","02","26","04:00","-6.3","","-9.2","","80","","31","","10","","","","98.78","","","","-11","","NA"
"2017-02-26 05:00","2017","02","26","05:00","-6.2","","-8.9","","81","","31","","7","","","","98.84","","","","-10","","NA"
"2017-02-26 06:00","2017","02","26","06:00","-5.9","","-8.6","","81","","25","","8","","","","98.87","","","","-10","","NA"
"2017-02-26 07:00","2017","02","26","07:00","-6.4","","-8.5","","85","","31","","8","","","","98.94","","","","-10","","NA"
"2017-02-26 08:00","2017","02","26","08:00","-5.4","","-7.3","","86","","27","","6","","","","99.00","","","","-8","","NA"
"2017-02-26 09:00","2017","02","26","09:00","-4.5","","-8.0","","77","","25","","14","","","","99.04","","","","-10","","NA"
"2017-02-26 10:00","2017","02","26","10:00","-2.9","","-7.4","","71","","25","","13","","","","99.02","","","","-8","","NA"
"2017-02-26 11:00","2017","02","26","11:00","-1.6","","-7.6","","64","","24","","26","","","","99.01","","","","-8","","NA"
"2017-02-26 12:00","2017","02","26","12:00","-0.8","","-9.0","","54","","23","","34","","","","98.96","","","","-8","","NA"
"2017-02-26 13:00","2017","02","26","13:00","-0.3","","-8.9","","52","","24","","35","","","","98.89","","","","-7","","NA"
"2017-02-26 14:00","2017","02","26","14:00","-1.1","","-7.4","","62","","23","","46","","","","98.82","","","","-9","","NA"
"2017-02-26 15:00","2017","02","26","15:00","-1.6","","-4.9","","78","","21","","31","","","","98.81","","","","-9","","NA"
"2017-02-26 16:00","2017","02","26","16:00","-0.8","","-4.5","","76","","22","","43","","","","98.72","","","","-9","","NA"
"2017-02-26 17:00","2017","02","26","17:00","-0.4","","-4.2","","76","","21","","36","","","","98.70","","","","-8","","NA"
"2017-02-26 18:00","2017","02","26","18:00","0.1","","-3.5","","77","","22","","49","","","","98.62","","","","","","NA"
"2017-02-26 19:00","2017","02","26","19:00","0.9","","-3.6","","72","","23","","41","","","","98.59","","","","","","NA"
"2017-02-26 20:00","2017","02","26","20:00","1.5","","-4.4","","65","","24","","31","","","","98.61","","","","","","NA"
"2017-02-26 21:00","2017","02","26","21:00","1.6","","-3.8","","67","","25","","30","","","","98.64","","","","","","NA"
"2017-02-26 22:00","2017","02","26","22:00","1.8","","-4.0","","66","","25","","30","","","","98.68","","","","","","NA"
"2017-02-26 23:00","2017","02","26","23:00","1.6","","-3.8","","67","","26","","28","","","","98.70","","","","","","NA"
"2017-02-27 00:00","2017","02","27","00:00","0.0","","-2.9","","81","","27","","35","","","","98.77","","","","-7","","NA"
"2017-02-27 01:00","2017","02","27","01:00","-1.3","","-5.6","","73","","27","","32","","","","98.88","","","","-8","","NA"
"2017-02-27 02:00","2017","02","27","02:00","-2.4","","-6.9","","71","","28","","35","","","","99.01","","","","-10","","NA"
"2017-02-27 03:00","2017","02","27","03:00","-3.7","","-8.6","","69","","28","","38","","","","99.14","","","","-12","","NA"
"2017-02-27 04:00","2017","02","27","04:00","-4.4","","-8.4","","74","","29","","29","","","","99.26","","","","-12","","NA"
"2017-02-27 05:00","2017","02","27","05:00","-4.8","","-8.5","","75","","28","","25","","","","99.43","","","","-12","","NA"
"2017-02-27 06:00","2017","02","27","06:00","-5.0","","-8.7","","75","","28","","14","","","","99.56","","","","-10","","NA"
"2017-02-27 07:00","2017","02","27","07:00","-5.3","","-8.7","","77","","28","","12","","","","99.65","","","","-10","","NA"
"2017-02-27 08:00","2017","02","27","08:00","-5.2","","-9.0","","74","","28","","17","","","","99.81","","","","-11","","NA"
"2017-02-27 09:00","2017","02","27","09:00","-4.6","","-9.2","","70","","28","","18","","","","99.90","","","","-11","","NA"
"2017-02-27 10:00","2017","02","27","10:00","-4.0","","-9.1","","68","","29","","16","","","","99.99","","","","-10","","NA"
"2017-02-27 11:00","2017","02","27","11:00","-3.5","","-10.0","","61","","30","","19","","","","100.06","","","","-9","","NA"
"2017-02-27 12:00","2017","02","27","12:00","-3.0","","-10.8","","55","","29","","20","","","","100.09","","","","-9","","NA"
"2017-02-27 13:00","2017","02","27","13:00","-2.3","","-10.1","","55","","30","","13","","","","100.10","","","","-7","","NA"
"2017-02-27 14:00","2017","02","27","14:00","-1.7","","-9.7","","54","","31","","15","","","","100.07","","","","-7","","NA"
"2017-02-27 15:00","2017","02","27","15:00","-0.9","","-10.0","","50","","31","","13","","","","100.03","","","","-5","","NA"
"2017-02-27 16:00","2017","02","27","16:00","-1.4","","-7.9","","61","","16","","18","","","","100.04","","","","-7","","NA"
"2017-02-27 17:00","2017","02","27","17:00","-1.4","","-7.9","","61","","15","","17","","","","100.06","","","","-7","","NA"
"2017-02-27 18:00","2017","02","27","18:00","-1.5","","-6.0","","72","","13","","15","","","","100.06","","","","-6","","NA"
"2017-02-27 19:00","2017","02","27","19:00","-0.9","","-5.0","","74","","12","","15","","","","100.06","","","","-6","","NA"
"2017-02-27 20:00","2017","02","27","20:00","-0.1","","-6.0","","64","","19","","21","","","","100.08","","","","-6","","NA"
"2017-02-27 21:00","2017","02","27","21:00","-0.1","","-4.4","","73","","16","","23","","","","100.10","","","","-6","","NA"
"2017-02-27 22:00","2017","02","27","22:00","0.0","","-3.4","","78","","13","","18","","","","100.05","","","","-5","","NA"
"2017-02-27 23:00","2017","02","27","23:00","0.0","","-2.7","","82","","12","","17","","","","100.04","","","","-5","","NA"
"2017-02-28 00:00","2017","02","28","00:00","0.0","","-2.3","","85","","11","","17","","","","100.03","","","","-5","","NA"
"2017-02-28 01:00","2017","02","28","01:00","0.2","","-1.8","","86","","10","","19","","","","100.02","","","","","","NA"
"2017-02-28 02:00","2017","02","28","02:00","-1.0","","-2.6","","89","","8","","14","","","","99.98","","","","-5","","NA"
"2017-02-28 03:00","2017","02","28","03:00","-0.7","","-2.7","","86","","7","","10","","","","99.97","","","","-4","","NA"
"2017-02-28 04:00","2017","02","28","04:00","-0.3","","-2.3","","87","","7","","12","","","","99.89","","","","-4","","NA"
"2017-02-28 05:00","2017","02","28","05:00","-0.5","","-2.5","","87","","7","","13","","","","99.83","","","","-5","","NA"
"2017-02-28 06:00","2017","02","28","06:00","-0.5","","-2.2","","88","","7","","16","","","","99.77","","","","-5","","NA"
"2017-02-28 07:00","2017","02","28","07:00","0.8","","-0.4","","92","","9","","23","","","","99.70","","","","","","NA"
"2017-02-28 08:00","2017","02","28","08:00","0.0","","-1.2","","91","","7","","18","","","","99.66","","","","-5","","NA"
"2017-02-28 09:00","2017","02","28","09:00","0.8","","-0.3","","93","","8","","15","","","","99.67","","","","","","NA"
"2017-02-28 10:00","2017","02","28","10:00","1.7","","0.6","","92","","11","","8","","","","99.66","","","","","","NA"
"2017-02-28 11:00","2017","02","28","11:00","1.6","","0.5","","92","","11","","19","","","","99.53","","","","","","NA"
"2017-02-28 12:00","2017","02","28","12:00","0.9","","-0.5","","90","","7","","16","","","","99.40","","","","","","NA"
"2017-02-28 13:00","2017","02","28","13:00","0.7","","-0.7","","90","","9","","22","","","","99.21","","","","","","NA"
"2017-02-28 14:00","2017","02","28","14:00","1.1","","-0.5","","90","","10","","26","","","","99.04","","","","","","NA"
"2017-02-28 15:00","2017","02","28","15:00","1.4","","0.1","","91","","11","","25","","","","98.90","","","","","","NA"
"2017-02-28 16:00","2017","02","28","16:00","1.5","","0.3","","92","","9","","19","","","","98.80","","","","","","NA"
"2017-02-28 17:00","2017","02","28","17:00","1.3","","0.2","","92","","9","","17","","","","98.70","","","","","","NA"
"2017-02-28 18:00","2017","02","28","18:00","1.7","","0.5","","91","","7","","19","","","","98.62","","","","","","NA"
"2017-02-28 19:00","2017","02","28","19:00","2.0","","0.9","","93","","6","","11","","","","98.57","","","","","","NA"
"2017-02-28 20:00","2017","02","28","20:00","2.0","","1.0","","94","","7","","14","","","","98.50","","","","","","NA"
"2017-02-28 21:00","2017","02","28","21:00","2.0","","1.2","","94","","7","","11","","","","98.40","","","","","","NA"
"2017-02-28 22:00","2017","02","28","22:00","2.2","","1.4","","95","","7","","8","","","","98.38","","","","","","NA"
"2017-02-28 23:00","2017","02","28","23:00","2.2","","1.4","","95","","7","","13","","","","98.25","","","","","","NA"
