"Station Name","KILLARNEY (AUT)"
"Province","ONTARIO"
"Latitude","45.97"
"Longitude","-81.48"
"Elevation","196.30"
"Climate Identifier","605DJ25"
"WMO Identifier","71460"
"TC Identifier","WBE"
"All times are specified in Local Standard Time (LST). Add 1 hour to adjust for Daylight Saving Time where and when it is observed."

"Legend"
"E","Estimated"
"M","Missing"
"NA","Not Available"

"Date/Time","Year","Month","Day","Time","Temp (°C)","Temp Flag","Dew Point Temp (°C)","Dew Point Temp Flag","Rel Hum (%)","Rel Hum Flag","Wind Dir (10s deg)","Wind Dir Flag","Wind Spd (km/h)","Wind Spd Flag","Visibility (km)","Visibility Flag","Stn Press (kPa)","Stn Press Flag","Hmdx","Hmdx Flag","Wind Chill","Wind Chill Flag","Weather"
"2006-12-01 00:00","2006","12","01","00:00","-4.1","","-9.7","","65","","2","","19","","","","99.53","","","","-10","","NA"
"2006-12-01 01:00","2006","12","01","01:00","-5.2","","-10.5","","66","","2","","22","","","","99.50","","","","-12","","NA"
"2006-12-01 02:00","2006","12","01","02:00","-6.0","","-10.8","","69","","3","","20","","","","99.54","","","","-13","","NA"
"2006-12-01 03:00","2006","12","01","03:00","-6.6","","-11.2","","70","","4","","22","","","","99.56","","","","-14","","NA"
"2006-12-01 04:00","2006","12","01","04:00","-6.7","","-11.2","","70","","5","","17","","","","99.49","","","","-13","","NA"
"2006-12-01 05:00","2006","12","01","05:00","-6.9","","-11.0","","73","","5","","17","","","","99.35","","","","-13","","NA"
"2006-12-01 06:00","2006","12","01","06:00","-6.4","","-10.7","","71","","6","","24","","","","99.30","","","","-14","","NA"
"2006-12-01 07:00","2006","12","01","07:00","-6.5","","-10.8","","71","","6","","22","","","","99.01","","","","-14","","NA"
"2006-12-01 08:00","2006","12","01","08:00","-6.3","","-10.6","","72","","6","","24","","","","98.90","","","","-14","","NA"
"2006-12-01 09:00","2006","12","01","09:00","-6.0","","-10.5","","70","","6","","28","","","","98.76","","","","-14","","NA"
"2006-12-01 10:00","2006","12","01","10:00","-5.5","","-10.4","","68","","6","","26","","","","98.59","","","","-13","","NA"
"2006-12-01 11:00","2006","12","01","11:00","-4.9","","-10.4","","65","","7","","35","","","","98.31","","","","-13","","NA"
"2006-12-01 12:00","2006","12","01","12:00","-5.9","","-7.7","","87","","6","","28","","","","98.23","","","","-14","","NA"
"2006-12-01 13:00","2006","12","01","13:00","-5.8","","-6.9","","92","","5","","28","","","","97.71","","","","-14","","NA"
"2006-12-01 14:00","2006","12","01","14:00","-5.7","","-6.7","","93","","6","","32","","","","97.43","","","","-14","","NA"
"2006-12-01 15:00","2006","12","01","15:00","-5.1","","-6.8","","88","","6","","33","","","","97.38","","","","-13","","NA"
"2006-12-01 16:00","2006","12","01","16:00","-5.0","","-6.4","","90","","5","","26","","","","97.42","","","","-12","","NA"
"2006-12-01 17:00","2006","12","01","17:00","-5.0","","-6.3","","91","","6","","20","","","","97.52","","","","-12","","NA"
"2006-12-01 18:00","2006","12","01","18:00","-4.8","","-6.2","","90","","4","","20","","","","97.55","","","","-11","","NA"
"2006-12-01 19:00","2006","12","01","19:00","-4.5","","-6.3","","87","","2","","19","","","","97.63","","","","-11","","NA"
"2006-12-01 20:00","2006","12","01","20:00","-4.6","","-6.5","","87","","2","","22","","","","97.65","","","","-11","","NA"
"2006-12-01 21:00","2006","12","01","21:00","-4.6","","-7.6","","80","","36","","13","","","","97.91","","","","-10","","NA"
"2006-12-01 22:00","2006","12","01","22:00","-5.0","","-7.4","","83","","34","","13","","","","98.13","","","","-10","","NA"
"2006-12-01 23:00","2006","12","01","23:00","-4.7","","-7.1","","83","","32","","15","","","","98.30","","","","-10","","NA"
"2006-12-02 00:00","2006","12","02","00:00","-4.7","","-6.7","","86","","31","","15","","","","98.46","","","","-10","","NA"
"2006-12-02 01:00","2006","12","02","01:00","-4.9","","-7.4","","83","","30","","17","","","","98.58","","","","-11","","NA"
"2006-12-02 02:00","2006","12","02","02:00","-5.3","","-8.4","","79","","30","","17","","","","98.69","","","","-11","","NA"
"2006-12-02 03:00","2006","12","02","03:00","-5.6","","-8.7","","79","","30","","15","","","","98.86","","","","-11","","NA"
"2006-12-02 04:00","2006","12","02","04:00","-5.9","","-8.7","","81","","30","","19","","","","98.96","","","","-13","","NA"
"2006-12-02 05:00","2006","12","02","05:00","-6.1","","-8.9","","81","","31","","17","","","","99.05","","","","-12","","NA"
"2006-12-02 06:00","2006","12","02","06:00","-6.4","","-9.1","","81","","31","","15","","","","99.16","","","","-12","","NA"
"2006-12-02 07:00","2006","12","02","07:00","-6.6","","-9.6","","79","","31","","17","","","","99.29","","","","-13","","NA"
"2006-12-02 08:00","2006","12","02","08:00","-6.8","","-9.9","","79","","30","","17","","","","99.42","","","","-13","","NA"
"2006-12-02 09:00","2006","12","02","09:00","-6.2","","-10.0","","74","","30","","17","","","","99.54","","","","-12","","NA"
"2006-12-02 10:00","2006","12","02","10:00","-5.5","","-10.1","","70","","31","","17","","","","99.63","","","","-12","","NA"
"2006-12-02 11:00","2006","12","02","11:00","-5.0","","-10.5","","65","","30","","17","","","","99.74","","","","-11","","NA"
"2006-12-02 12:00","2006","12","02","12:00","-4.6","","-10.8","","62","","28","","28","","","","99.76","","","","-12","","NA"
"2006-12-02 13:00","2006","12","02","13:00","-3.8","","-10.8","","58","","30","","19","","","","99.79","","","","-10","","NA"
"2006-12-02 14:00","2006","12","02","14:00","-3.3","","-10.7","","57","","29","","19","","","","99.84","","","","-9","","NA"
"2006-12-02 15:00","2006","12","02","15:00","-3.0","","-9.6","","60","","29","","17","","","","99.86","","","","-9","","NA"
"2006-12-02 16:00","2006","12","02","16:00","-2.9","","-9.2","","62","","30","","11","","","","99.95","","","","-7","","NA"
"2006-12-02 17:00","2006","12","02","17:00","-4.1","","-9.5","","66","","1","","7","","","","100.00","","","","-7","","NA"
"2006-12-02 18:00","2006","12","02","18:00","-4.7","","-9.8","","67","","5","","7","","","","100.06","","","","-8","","NA"
"2006-12-02 19:00","2006","12","02","19:00","-4.6","","-8.7","","73","","6","","9","","","","100.07","","","","-8","","NA"
"2006-12-02 20:00","2006","12","02","20:00","-4.8","","-8.7","","74","","6","","11","","","","100.03","","","","-9","","NA"
"2006-12-02 21:00","2006","12","02","21:00","-4.8","","-6.7","","87","","7","","20","","","","99.99","","","","-11","","NA"
"2006-12-02 22:00","2006","12","02","22:00","-4.8","","-7.0","","85","","9","","28","","","","99.97","","","","-12","","NA"
"2006-12-02 23:00","2006","12","02","23:00","-5.0","","-6.9","","86","","8","","26","","","","99.89","","","","-12","","NA"
"2006-12-03 00:00","2006","12","03","00:00","-5.5","","-7.1","","88","","8","","35","","","","99.86","","","","-14","","NA"
"2006-12-03 01:00","2006","12","03","01:00","-5.4","","-6.7","","91","","8","","26","","","","99.88","","","","-13","","NA"
"2006-12-03 02:00","2006","12","03","02:00","-6.0","","-7.5","","89","","6","","15","","","","99.83","","","","-12","","NA"
"2006-12-03 03:00","2006","12","03","03:00","-5.8","","-7.4","","88","","7","","13","","","","99.85","","","","-11","","NA"
"2006-12-03 04:00","2006","12","03","04:00","-5.9","","-7.2","","91","","4","","7","","","","99.83","","","","-9","","NA"
"2006-12-03 05:00","2006","12","03","05:00","-5.7","","-7.0","","91","","5","","6","","","","99.82","","","","-9","","NA"
"2006-12-03 06:00","2006","12","03","06:00","-4.6","","-5.7","","92","","7","","9","","","","99.77","","","","-8","","NA"
"2006-12-03 07:00","2006","12","03","07:00","-5.5","","-6.7","","91","","36","","11","","","","99.82","","","","-10","","NA"
"2006-12-03 08:00","2006","12","03","08:00","-4.1","","-5.7","","89","","30","","11","","","","99.85","","","","-9","","NA"
"2006-12-03 09:00","2006","12","03","09:00","-4.4","","-5.8","","90","","30","","9","","","","99.85","","","","-8","","NA"
"2006-12-03 10:00","2006","12","03","10:00","-4.8","","-5.7","","93","","31","","11","","","","99.88","","","","-9","","NA"
"2006-12-03 11:00","2006","12","03","11:00","-4.5","","-5.7","","91","","31","","9","","","","99.88","","","","-8","","NA"
"2006-12-03 12:00","2006","12","03","12:00","-4.2","","-5.2","","93","","31","","6","","","","99.81","","","","-7","","NA"
"2006-12-03 13:00","2006","12","03","13:00","-3.2","","-6.1","","80","","26","","19","","","","99.73","","","","-9","","NA"
"2006-12-03 14:00","2006","12","03","14:00","-3.9","","-5.6","","88","","32","","11","","","","99.72","","","","-8","","NA"
"2006-12-03 15:00","2006","12","03","15:00","-4.1","","-5.2","","92","","32","","11","","","","99.69","","","","-9","","NA"
"2006-12-03 16:00","2006","12","03","16:00","-4.6","","-5.5","","93","","31","","6","","","","99.69","","","","-7","","NA"
"2006-12-03 17:00","2006","12","03","17:00","-4.6","","-5.5","","93","","31","","9","","","","99.70","","","","-8","","NA"
"2006-12-03 18:00","2006","12","03","18:00","-4.9","","-5.8","","93","","33","","7","","","","99.71","","","","-8","","NA"
"2006-12-03 19:00","2006","12","03","19:00","-5.5","","-7.2","","88","","34","","9","","","","99.68","","","","-10","","NA"
"2006-12-03 20:00","2006","12","03","20:00","-5.6","","-7.4","","87","","35","","6","","","","99.68","","","","-8","","NA"
"2006-12-03 21:00","2006","12","03","21:00","-6.0","","-8.1","","85","","2","","7","","","","99.64","","","","-9","","NA"
"2006-12-03 22:00","2006","12","03","22:00","-6.7","","-9.1","","83","","1","","9","","","","99.66","","","","-11","","NA"
"2006-12-03 23:00","2006","12","03","23:00","-7.6","","-10.4","","80","","35","","19","","","","99.68","","","","-15","","NA"
"2006-12-04 00:00","2006","12","04","00:00","-8.1","","-10.6","","82","","34","","15","","","","99.74","","","","-14","","NA"
"2006-12-04 01:00","2006","12","04","01:00","-8.9","","-11.0","","85","","33","","11","","","","99.81","","","","-14","","NA"
"2006-12-04 02:00","2006","12","04","02:00","-9.8","","-12.5","","81","","34","","13","","","","99.84","","","","-16","","NA"
"2006-12-04 03:00","2006","12","04","03:00","-10.5","","-13.1","","81","","34","","13","","","","99.89","","","","-17","","NA"
"2006-12-04 04:00","2006","12","04","04:00","-10.4","","-13.1","","81","","33","","15","","","","99.93","","","","-17","","NA"
"2006-12-04 05:00","2006","12","04","05:00","-11.0","","-13.5","","82","","34","","11","","","","99.89","","","","-17","","NA"
"2006-12-04 06:00","2006","12","04","06:00","-11.4","","-14.1","","80","","34","","9","","","","99.93","","","","-17","","NA"
"2006-12-04 07:00","2006","12","04","07:00","-12.0","","-14.3","","83","","35","","13","","","","99.95","","","","-19","","NA"
"2006-12-04 08:00","2006","12","04","08:00","-11.6","","-13.8","","84","","4","","2","","","","99.94","","","","-13","","NA"
"2006-12-04 09:00","2006","12","04","09:00","-10.5","","-14.1","","75","","1","","4","","","","99.92","","","","-13","","NA"
"2006-12-04 10:00","2006","12","04","10:00","-8.5","","-12.8","","71","","5","","4","","","","99.90","","","","-11","","NA"
"2006-12-04 11:00","2006","12","04","11:00","-8.1","","-11.3","","78","","12","","6","","","","99.84","","","","-11","","NA"
"2006-12-04 12:00","2006","12","04","12:00","-7.9","","-11.3","","77","","9","","7","","","","99.73","","","","-12","","NA"
"2006-12-04 13:00","2006","12","04","13:00","-7.7","","-11.5","","74","","9","","13","","","","99.63","","","","-13","","NA"
"2006-12-04 14:00","2006","12","04","14:00","-7.3","","-11.0","","75","","10","","13","","","","99.55","","","","-13","","NA"
"2006-12-04 15:00","2006","12","04","15:00","-7.5","","-10.5","","79","","8","","17","","","","99.47","","","","-14","","NA"
"2006-12-04 16:00","2006","12","04","16:00","-7.6","","-10.2","","82","","6","","17","","","","99.40","","","","-14","","NA"
"2006-12-04 17:00","2006","12","04","17:00","-7.7","","-10.2","","82","","6","","17","","","","99.39","","","","-14","","NA"
"2006-12-04 18:00","2006","12","04","18:00","-7.6","","-9.1","","89","","8","","24","","","","99.37","","","","-16","","NA"
"2006-12-04 19:00","2006","12","04","19:00","-7.9","","-9.4","","89","","8","","30","","","","99.33","","","","-17","","NA"
"2006-12-04 20:00","2006","12","04","20:00","-7.9","","-9.4","","89","","7","","20","","","","99.31","","","","-15","","NA"
"2006-12-04 21:00","2006","12","04","21:00","-8.0","","-9.5","","89","","6","","17","","","","99.30","","","","-15","","NA"
"2006-12-04 22:00","2006","12","04","22:00","-8.2","","-9.9","","88","","6","","15","","","","99.26","","","","-15","","NA"
"2006-12-04 23:00","2006","12","04","23:00","-8.5","","-10.4","","86","","6","","11","","","","99.28","","","","-14","","NA"
"2006-12-05 00:00","2006","12","05","00:00","-8.9","","-10.9","","85","","5","","11","","","","99.31","","","","-14","","NA"
"2006-12-05 01:00","2006","12","05","01:00","-8.3","","-10.9","","81","","5","","9","","","","99.33","","","","-13","","NA"
"2006-12-05 02:00","2006","12","05","02:00","-8.5","","-11.1","","81","","5","","9","","","","99.35","","","","-13","","NA"
"2006-12-05 03:00","2006","12","05","03:00","-8.6","","-11.0","","83","","31","","6","","","","99.44","","","","-12","","NA"
"2006-12-05 04:00","2006","12","05","04:00","-8.3","","-11.9","","75","","1","","6","","","","99.45","","","","-12","","NA"
"2006-12-05 05:00","2006","12","05","05:00","-8.5","","-11.8","","77","","5","","4","","","","99.50","","","","-11","","NA"
"2006-12-05 06:00","2006","12","05","06:00","-9.5","","-11.9","","83","","32","","7","","","","99.58","","","","-13","","NA"
"2006-12-05 07:00","2006","12","05","07:00","-9.4","","-11.3","","86","","32","","9","","","","99.64","","","","-14","","NA"
"2006-12-05 08:00","2006","12","05","08:00","-9.5","","-11.4","","86","","32","","7","","","","99.70","","","","-13","","NA"
"2006-12-05 09:00","2006","12","05","09:00","-7.5","","-9.9","","83","","31","","6","","","","99.76","","","","-11","","NA"
"2006-12-05 10:00","2006","12","05","10:00","-5.6","","-8.4","","81","","29","","6","","","","99.79","","","","-8","","NA"
"2006-12-05 11:00","2006","12","05","11:00","-5.3","","-8.6","","78","","30","","9","","","","99.80","","","","-9","","NA"
"2006-12-05 12:00","2006","12","05","12:00","-5.0","","-8.3","","78","","30","","9","","","","99.78","","","","-9","","NA"
"2006-12-05 13:00","2006","12","05","13:00","-4.2","","-9.2","","68","","26","","7","","","","99.77","","","","-7","","NA"
"2006-12-05 14:00","2006","12","05","14:00","-3.6","","-10.0","","61","","24","","9","","","","99.74","","","","-7","","NA"
"2006-12-05 15:00","2006","12","05","15:00","-2.7","","-8.9","","62","","21","","9","","","","99.69","","","","-6","","NA"
"2006-12-05 16:00","2006","12","05","16:00","-2.9","","-9.8","","59","","25","","9","","","","99.64","","","","-6","","NA"
"2006-12-05 17:00","2006","12","05","17:00","-2.3","","-7.6","","67","","22","","20","","","","99.62","","","","-8","","NA"
"2006-12-05 18:00","2006","12","05","18:00","-1.8","","-6.9","","68","","21","","26","","","","99.58","","","","-8","","NA"
"2006-12-05 19:00","2006","12","05","19:00","-1.2","","-7.6","","62","","22","","28","","","","99.51","","","","-8","","NA"
"2006-12-05 20:00","2006","12","05","20:00","-0.8","","-6.3","","66","","22","","28","","","","99.41","","","","-7","","NA"
"2006-12-05 21:00","2006","12","05","21:00","-0.7","","-5.9","","68","","21","","44","","","","99.32","","","","-9","","NA"
"2006-12-05 22:00","2006","12","05","22:00","-0.7","","-4.9","","73","","21","","46","","","","99.25","","","","-9","","NA"
"2006-12-05 23:00","2006","12","05","23:00","-1.1","","-3.8","","82","","20","","44","","","","99.14","","","","-9","","NA"
"2006-12-06 00:00","2006","12","06","00:00","-1.2","","-3.0","","88","","20","","43","","","","99.00","","","","-9","","NA"
"2006-12-06 01:00","2006","12","06","01:00","-0.5","","-1.5","","93","","21","","44","","","","98.83","","","","-8","","NA"
"2006-12-06 02:00","2006","12","06","02:00","-0.5","","-1.3","","94","","21","","41","","","","98.65","","","","-8","","NA"
"2006-12-06 03:00","2006","12","06","03:00","-0.1","","-1.0","","94","","21","","46","","","","98.49","","","","-8","","NA"
"2006-12-06 04:00","2006","12","06","04:00","-0.5","","-1.8","","91","","21","","52","","","","98.37","","","","-9","","NA"
"2006-12-06 05:00","2006","12","06","05:00","-0.3","","-0.8","","96","","21","","43","","","","98.22","","","","-8","","NA"
"2006-12-06 06:00","2006","12","06","06:00","0.7","","-0.2","","94","","23","","39","","","","98.19","","","","","","NA"
"2006-12-06 07:00","2006","12","06","07:00","0.8","","-1.5","","85","","23","","41","","","","98.11","","","","","","NA"
"2006-12-06 08:00","2006","12","06","08:00","0.6","","-1.2","","88","","23","","35","","","","98.10","","","","","","NA"
"2006-12-06 09:00","2006","12","06","09:00","0.7","","-1.1","","88","","24","","24","","","","98.09","","","","","","NA"
"2006-12-06 10:00","2006","12","06","10:00","0.9","","-1.0","","87","","25","","22","","","","98.09","","","","","","NA"
"2006-12-06 11:00","2006","12","06","11:00","0.9","","-0.9","","88","","25","","19","","","","98.10","","","","","","NA"
"2006-12-06 12:00","2006","12","06","12:00","-0.1","","-1.6","","90","","29","","24","","","","98.09","","","","-6","","NA"
"2006-12-06 13:00","2006","12","06","13:00","-0.2","","-3.3","","80","","28","","28","","","","98.08","","","","-7","","NA"
"2006-12-06 14:00","2006","12","06","14:00","-0.6","","-3.1","","83","","29","","19","","","","98.11","","","","-6","","NA"
"2006-12-06 15:00","2006","12","06","15:00","-0.6","","-3.2","","83","","26","","22","","","","98.15","","","","-6","","NA"
"2006-12-06 16:00","2006","12","06","16:00","-0.8","","-3.5","","82","","28","","24","","","","98.24","","","","-7","","NA"
"2006-12-06 17:00","2006","12","06","17:00","-1.2","","-6.6","","67","","29","","26","","","","98.33","","","","-8","","NA"
"2006-12-06 18:00","2006","12","06","18:00","-1.6","","-5.9","","72","","29","","20","","","","98.45","","","","-7","","NA"
"2006-12-06 19:00","2006","12","06","19:00","-2.2","","-8.6","","61","","30","","24","","","","98.53","","","","-9","","NA"
"2006-12-06 20:00","2006","12","06","20:00","-2.9","","-8.4","","66","","30","","22","","","","98.59","","","","-9","","NA"
"2006-12-06 21:00","2006","12","06","21:00","-4.4","","-7.2","","81","","32","","17","","","","98.68","","","","-10","","NA"
"2006-12-06 22:00","2006","12","06","22:00","-5.0","","-8.2","","78","","33","","17","","","","98.74","","","","-11","","NA"
"2006-12-06 23:00","2006","12","06","23:00","-7.6","","-10.8","","78","","36","","15","","","","98.89","","","","-14","","NA"
"2006-12-07 00:00","2006","12","07","00:00","-9.3","","-13.0","","74","","36","","19","","","","99.01","","","","-17","","NA"
"2006-12-07 01:00","2006","12","07","01:00","-10.1","","-13.7","","75","","36","","13","","","","99.11","","","","-16","","NA"
"2006-12-07 02:00","2006","12","07","02:00","-12.3","","-17.9","","63","","35","","19","","","","99.22","","","","-21","","NA"
"2006-12-07 03:00","2006","12","07","03:00","-13.6","","-19.2","","63","","35","","13","","","","99.31","","","","-21","","NA"
"2006-12-07 04:00","2006","12","07","04:00","-14.1","","-19.0","","66","","34","","17","","","","99.38","","","","-22","","NA"
"2006-12-07 05:00","2006","12","07","05:00","-14.7","","-19.0","","70","","34","","13","","","","99.47","","","","-22","","NA"
"2006-12-07 06:00","2006","12","07","06:00","-15.5","","-19.3","","73","","35","","13","","","","99.52","","","","-23","","NA"
"2006-12-07 07:00","2006","12","07","07:00","-15.9","","-19.2","","76","","34","","6","","","","99.63","","","","-20","","NA"
"2006-12-07 08:00","2006","12","07","08:00","-16.5","","-20.5","","71","","35","","9","","","","99.70","","","","-23","","NA"
"2006-12-07 09:00","2006","12","07","09:00","-15.8","","-20.4","","68","","33","","13","","","","99.74","","","","-23","","NA"
"2006-12-07 10:00","2006","12","07","10:00","-14.8","","-19.4","","68","","31","","13","","","","99.78","","","","-22","","NA"
"2006-12-07 11:00","2006","12","07","11:00","-14.9","","-20.6","","62","","34","","17","","","","99.84","","","","-23","","NA"
"2006-12-07 12:00","2006","12","07","12:00","-14.4","","-20.6","","59","","33","","13","","","","99.80","","","","-22","","NA"
"2006-12-07 13:00","2006","12","07","13:00","-13.9","","-19.9","","60","","33","","15","","","","99.79","","","","-22","","NA"
"2006-12-07 14:00","2006","12","07","14:00","-12.4","","-19.4","","56","","33","","17","","","","99.82","","","","-20","","NA"
"2006-12-07 15:00","2006","12","07","15:00","-12.3","","-16.8","","69","","32","","19","","","","99.89","","","","-21","","NA"
"2006-12-07 16:00","2006","12","07","16:00","-11.6","","-14.9","","76","","32","","17","","","","99.96","","","","-19","","NA"
"2006-12-07 17:00","2006","12","07","17:00","-10.5","","-15.1","","69","","31","","19","","","","100.02","","","","-18","","NA"
"2006-12-07 18:00","2006","12","07","18:00","-10.4","","-15.8","","65","","31","","22","","","","100.09","","","","-19","","NA"
"2006-12-07 19:00","2006","12","07","19:00","-10.8","","-15.9","","66","","32","","22","","","","100.13","","","","-19","","NA"
"2006-12-07 20:00","2006","12","07","20:00","-11.3","","-15.7","","70","","32","","19","","","","100.16","","","","-19","","NA"
"2006-12-07 21:00","2006","12","07","21:00","-11.5","","-15.8","","70","","32","","20","","","","100.17","","","","-20","","NA"
"2006-12-07 22:00","2006","12","07","22:00","-12.0","","-16.1","","71","","32","","15","","","","100.21","","","","-19","","NA"
"2006-12-07 23:00","2006","12","07","23:00","-12.3","","-16.3","","72","","29","","9","","","","100.21","","","","-18","","NA"
"2006-12-08 00:00","2006","12","08","00:00","-13.0","","-16.7","","74","","32","","7","","","","100.21","","","","-18","","NA"
"2006-12-08 01:00","2006","12","08","01:00","-13.5","","-16.4","","79","","30","","11","","","","100.18","","","","-20","","NA"
"2006-12-08 02:00","2006","12","08","02:00","-13.7","","-16.7","","78","","31","","17","","","","100.20","","","","-22","","NA"
"2006-12-08 03:00","2006","12","08","03:00","-14.1","","-17.3","","77","","32","","9","","","","100.26","","","","-20","","NA"
"2006-12-08 04:00","2006","12","08","04:00","-14.0","","-17.0","","78","","31","","15","","","","100.19","","","","-22","","NA"
"2006-12-08 05:00","2006","12","08","05:00","-13.8","","-16.3","","81","","30","","17","","","","100.17","","","","-22","","NA"
"2006-12-08 06:00","2006","12","08","06:00","-14.2","","-17.6","","75","","33","","17","","","","100.15","","","","-22","","NA"
"2006-12-08 07:00","2006","12","08","07:00","-14.1","","-17.2","","77","","31","","9","","","","100.19","","","","-20","","NA"
"2006-12-08 08:00","2006","12","08","08:00","-13.6","","-15.7","","84","","31","","13","","","","100.21","","","","-21","","NA"
"2006-12-08 09:00","2006","12","08","09:00","-11.3","","-14.9","","75","","33","","6","","","","100.17","","","","-15","","NA"
"2006-12-08 10:00","2006","12","08","10:00","-7.4","","-11.9","","70","","","","0","","","","100.11","","","","","","NA"
"2006-12-08 11:00","2006","12","08","11:00","-6.2","","-10.1","","74","","29","","2","","","","100.02","","","","-7","","NA"
"2006-12-08 12:00","2006","12","08","12:00","-4.9","","-8.6","","75","","25","","15","","","","99.88","","","","-10","","NA"
"2006-12-08 13:00","2006","12","08","13:00","-3.2","","-7.6","","72","","25","","20","","","","99.79","","","","-9","","NA"
"2006-12-08 14:00","2006","12","08","14:00","-2.7","","-8.1","","66","","25","","32","","","","99.69","","","","-10","","NA"
"2006-12-08 15:00","2006","12","08","15:00","-3.1","","-8.8","","65","","25","","33","","","","99.58","","","","-11","","NA"
"2006-12-08 16:00","2006","12","08","16:00","-2.9","","-9.3","","61","","24","","32","","","","99.48","","","","-10","","NA"
"2006-12-08 17:00","2006","12","08","17:00","-2.4","","-8.8","","61","","24","","35","","","","99.40","","","","-10","","NA"
"2006-12-08 18:00","2006","12","08","18:00","-1.8","","-8.7","","59","","25","","33","","","","99.36","","","","-9","","NA"
"2006-12-08 19:00","2006","12","08","19:00","-1.3","","-7.8","","61","","25","","33","","","","99.26","","","","-8","","NA"
"2006-12-08 20:00","2006","12","08","20:00","-1.0","","-7.3","","62","","25","","39","","","","99.20","","","","-9","","NA"
"2006-12-08 21:00","2006","12","08","21:00","-0.9","","-6.0","","68","","25","","33","","","","99.16","","","","-8","","NA"
"2006-12-08 22:00","2006","12","08","22:00","-0.5","","-4.7","","73","","26","","35","","","","99.17","","","","-8","","NA"
"2006-12-08 23:00","2006","12","08","23:00","-0.1","","-3.6","","77","","26","","37","","","","99.15","","","","-7","","NA"
"2006-12-09 00:00","2006","12","09","00:00","0.2","","-2.9","","80","","26","","37","","","","99.19","","","","","","NA"
"2006-12-09 01:00","2006","12","09","01:00","0.4","","-2.8","","79","","26","","30","","","","99.24","","","","","","NA"
"2006-12-09 02:00","2006","12","09","02:00","0.7","","-2.8","","77","","27","","26","","","","99.23","","","","","","NA"
"2006-12-09 03:00","2006","12","09","03:00","0.7","","-3.3","","75","","26","","30","","","","99.27","","","","","","NA"
"2006-12-09 04:00","2006","12","09","04:00","0.8","","-3.4","","73","","27","","33","","","","99.24","","","","","","NA"
"2006-12-09 05:00","2006","12","09","05:00","0.7","","-2.8","","77","","26","","26","","","","99.25","","","","","","NA"
"2006-12-09 06:00","2006","12","09","06:00","0.6","","-2.5","","80","","25","","24","","","","99.27","","","","","","NA"
"2006-12-09 07:00","2006","12","09","07:00","0.5","","-2.9","","78","","24","","26","","","","99.26","","","","","","NA"
"2006-12-09 08:00","2006","12","09","08:00","0.2","","-3.4","","77","","24","","35","","","","99.25","","","","","","NA"
"2006-12-09 09:00","2006","12","09","09:00","0.0","","-3.6","","77","","23","","28","","","","99.30","","","","-6","","NA"
"2006-12-09 10:00","2006","12","09","10:00","0.1","","-3.6","","76","","23","","32","","","","99.28","","","","","","NA"
"2006-12-09 11:00","2006","12","09","11:00","0.1","","-3.5","","77","","23","","32","","","","99.27","","","","","","NA"
"2006-12-09 12:00","2006","12","09","12:00","0.6","","-3.3","","75","","24","","28","","","","99.18","","","","","","NA"
"2006-12-09 13:00","2006","12","09","13:00","1.2","","-3.4","","71","","23","","30","","","","99.08","","","","","","NA"
"2006-12-09 14:00","2006","12","09","14:00","1.4","","-3.0","","72","","23","","44","","","","99.01","","","","","","NA"
"2006-12-09 15:00","2006","12","09","15:00","1.2","","-2.5","","76","","23","","35","","","","98.98","","","","","","NA"
"2006-12-09 16:00","2006","12","09","16:00","1.3","","-2.4","","76","","23","","39","","","","98.93","","","","","","NA"
"2006-12-09 17:00","2006","12","09","17:00","1.5","","-2.1","","77","","22","","41","","","","98.89","","","","","","NA"
"2006-12-09 18:00","2006","12","09","18:00","1.9","","-1.5","","78","","22","","35","","","","98.89","","","","","","NA"
"2006-12-09 19:00","2006","12","09","19:00","2.3","","-0.9","","79","","23","","37","","","","98.90","","","","","","NA"
"2006-12-09 20:00","2006","12","09","20:00","2.5","","-0.9","","78","","22","","41","","","","98.88","","","","","","NA"
"2006-12-09 21:00","2006","12","09","21:00","2.6","","-1.3","","75","","23","","39","","","","98.85","","","","","","NA"
"2006-12-09 22:00","2006","12","09","22:00","2.3","","-1.2","","78","","23","","33","","","","98.84","","","","","","NA"
"2006-12-09 23:00","2006","12","09","23:00","2.1","","-1.1","","79","","23","","26","","","","98.87","","","","","","NA"
"2006-12-10 00:00","2006","12","10","00:00","2.2","","-1.0","","79","","24","","22","","","","98.88","","","","","","NA"
"2006-12-10 01:00","2006","12","10","01:00","2.3","","-1.3","","77","","25","","17","","","","98.92","","","","","","NA"
"2006-12-10 02:00","2006","12","10","02:00","2.2","","-1.1","","79","","25","","15","","","","98.95","","","","","","NA"
"2006-12-10 03:00","2006","12","10","03:00","2.4","","-0.8","","79","","24","","19","","","","98.99","","","","","","NA"
"2006-12-10 04:00","2006","12","10","04:00","2.3","","-1.1","","78","","25","","19","","","","99.00","","","","","","NA"
"2006-12-10 05:00","2006","12","10","05:00","2.1","","-1.1","","79","","24","","13","","","","99.07","","","","","","NA"
"2006-12-10 06:00","2006","12","10","06:00","2.2","","-0.9","","80","","25","","13","","","","99.15","","","","","","NA"
"2006-12-10 07:00","2006","12","10","07:00","2.4","","-0.6","","81","","23","","15","","","","99.22","","","","","","NA"
"2006-12-10 08:00","2006","12","10","08:00","2.1","","-0.6","","82","","24","","13","","","","99.27","","","","","","NA"
"2006-12-10 09:00","2006","12","10","09:00","2.4","","-0.7","","80","","24","","17","","","","99.33","","","","","","NA"
"2006-12-10 10:00","2006","12","10","10:00","2.7","","-0.9","","77","","24","","11","","","","99.38","","","","","","NA"
"2006-12-10 11:00","2006","12","10","11:00","2.9","","-0.7","","77","","24","","15","","","","99.43","","","","","","NA"
"2006-12-10 12:00","2006","12","10","12:00","3.0","","-1.0","","75","","26","","13","","","","99.43","","","","","","NA"
"2006-12-10 13:00","2006","12","10","13:00","3.3","","-1.3","","72","","27","","19","","","","99.42","","","","","","NA"
"2006-12-10 14:00","2006","12","10","14:00","3.3","","-1.3","","72","","27","","13","","","","99.48","","","","","","NA"
"2006-12-10 15:00","2006","12","10","15:00","3.3","","-1.2","","72","","25","","15","","","","99.49","","","","","","NA"
"2006-12-10 16:00","2006","12","10","16:00","3.0","","-0.5","","78","","23","","11","","","","99.55","","","","","","NA"
"2006-12-10 17:00","2006","12","10","17:00","3.1","","0.0","","80","","23","","11","","","","99.62","","","","","","NA"
"2006-12-10 18:00","2006","12","10","18:00","2.9","","0.5","","84","","24","","6","","","","99.65","","","","","","NA"
"2006-12-10 19:00","2006","12","10","19:00","3.0","","0.1","","81","","22","","4","","","","99.69","","","","","","NA"
"2006-12-10 20:00","2006","12","10","20:00","2.9","","0.3","","83","","4","","4","","","","99.72","","","","","","NA"
"2006-12-10 21:00","2006","12","10","21:00","2.6","","0.6","","87","","8","","4","","","","99.75","","","","","","NA"
"2006-12-10 22:00","2006","12","10","22:00","1.9","","1.0","","94","","4","","9","","","","99.77","","","","","","NA"
"2006-12-10 23:00","2006","12","10","23:00","1.9","","1.2","","95","","6","","6","","","","99.80","","","","","","NA"
"2006-12-11 00:00","2006","12","11","00:00","1.5","","0.9","","96","","7","","11","","","","99.84","","","","","","NA"
"2006-12-11 01:00","2006","12","11","01:00","1.4","","0.9","","96","","8","","7","","","","99.87","","","","","","NA"
"2006-12-11 02:00","2006","12","11","02:00","1.2","","0.8","","97","","5","","6","","","","99.93","","","","","","NA"
"2006-12-11 03:00","2006","12","11","03:00","1.3","","0.9","","97","","7","","9","","","","100.01","","","","","","NA"
"2006-12-11 04:00","2006","12","11","04:00","1.4","","1.0","","97","","5","","11","","","","100.03","","","","","","NA"
"2006-12-11 05:00","2006","12","11","05:00","1.2","","0.5","","95","","7","","15","","","","100.11","","","","","","NA"
"2006-12-11 06:00","2006","12","11","06:00","1.0","","0.4","","96","","6","","9","","","","100.19","","","","","","NA"
"2006-12-11 07:00","2006","12","11","07:00","1.2","","0.4","","94","","7","","11","","","","100.28","","","","","","NA"
"2006-12-11 08:00","2006","12","11","08:00","1.3","","0.5","","94","","7","","13","","","","100.37","","","","","","NA"
"2006-12-11 09:00","2006","12","11","09:00","1.4","","0.4","","93","","7","","15","","","","100.44","","","","","","NA"
"2006-12-11 10:00","2006","12","11","10:00","1.4","","0.4","","93","","7","","17","","","","100.52","","","","","","NA"
"2006-12-11 11:00","2006","12","11","11:00","1.6","","0.5","","92","","7","","17","","","","100.57","","","","","","NA"
"2006-12-11 12:00","2006","12","11","12:00","1.8","","0.6","","92","","7","","17","","","","100.58","","","","","","NA"
"2006-12-11 13:00","2006","12","11","13:00","2.1","","0.6","","90","","7","","20","","","","100.54","","","","","","NA"
"2006-12-11 14:00","2006","12","11","14:00","2.3","","0.6","","89","","8","","20","","","","100.56","","","","","","NA"
"2006-12-11 15:00","2006","12","11","15:00","2.3","","0.5","","88","","8","","22","","","","100.60","","","","","","NA"
"2006-12-11 16:00","2006","12","11","16:00","2.1","","0.6","","90","","8","","20","","","","100.66","","","","","","NA"
"2006-12-11 17:00","2006","12","11","17:00","1.9","","0.6","","91","","8","","20","","","","100.71","","","","","","NA"
"2006-12-11 18:00","2006","12","11","18:00","1.8","","0.7","","92","","8","","20","","","","100.75","","","","","","NA"
"2006-12-11 19:00","2006","12","11","19:00","1.8","","1.1","","95","","8","","20","","","","100.77","","","","","","NA"
"2006-12-11 20:00","2006","12","11","20:00","1.8","","1.1","","95","","8","","20","","","","100.77","","","","","","NA"
"2006-12-11 21:00","2006","12","11","21:00","2.1","","1.5","","96","","9","","24","","","","100.74","","","","","","NA"
"2006-12-11 22:00","2006","12","11","22:00","2.3","","1.6","","95","","10","","26","","","","100.75","","","","","","NA"
"2006-12-11 23:00","2006","12","11","23:00","2.3","","1.6","","95","","9","","24","","","","100.76","","","","","","NA"
"2006-12-12 00:00","2006","12","12","00:00","2.3","","1.5","","94","","8","","22","","","","100.74","","","","","","NA"
"2006-12-12 01:00","2006","12","12","01:00","2.1","","1.3","","94","","9","","22","","","","100.67","","","","","","NA"
"2006-12-12 02:00","2006","12","12","02:00","2.2","","1.5","","95","","9","","26","","","","100.66","","","","","","NA"
"2006-12-12 03:00","2006","12","12","03:00","2.3","","1.7","","96","","10","","32","","","","100.61","","","","","","NA"
"2006-12-12 04:00","2006","12","12","04:00","3.6","","3.1","","97","","12","","22","","","","100.55","","","","","","NA"
"2006-12-12 05:00","2006","12","12","05:00","3.7","","3.2","","97","","13","","19","","","","100.58","","","","","","NA"
"2006-12-12 06:00","2006","12","12","06:00","3.7","","3.3","","97","","12","","20","","","","100.55","","","","","","NA"
"2006-12-12 07:00","2006","12","12","07:00","3.8","","3.4","","97","","12","","24","","","","100.47","","","","","","NA"
"2006-12-12 08:00","2006","12","12","08:00","3.7","","3.3","","97","","13","","33","","","","100.35","","","","","","NA"
"2006-12-12 09:00","2006","12","12","09:00","3.7","","3.1","","96","","13","","35","","","","100.35","","","","","","NA"
"2006-12-12 10:00","2006","12","12","10:00","3.7","","3.0","","95","","12","","28","","","","100.34","","","","","","NA"
"2006-12-12 11:00","2006","12","12","11:00","3.9","","3.2","","95","","13","","33","","","","100.26","","","","","","NA"
"2006-12-12 12:00","2006","12","12","12:00","4.2","","3.3","","94","","14","","32","","","","100.11","","","","","","NA"
"2006-12-12 13:00","2006","12","12","13:00","4.2","","3.2","","93","","13","","33","","","","99.97","","","","","","NA"
"2006-12-12 14:00","2006","12","12","14:00","4.2","","3.1","","93","","13","","32","","","","99.86","","","","","","NA"
"2006-12-12 15:00","2006","12","12","15:00","4.1","","3.3","","95","","13","","33","","","","99.75","","","","","","NA"
"2006-12-12 16:00","2006","12","12","16:00","3.8","","3.0","","95","","11","","32","","","","99.65","","","","","","NA"
"2006-12-12 17:00","2006","12","12","17:00","4.0","","3.0","","93","","11","","24","","","","99.59","","","","","","NA"
"2006-12-12 18:00","2006","12","12","18:00","4.1","","2.7","","91","","12","","39","","","","99.44","","","","","","NA"
"2006-12-12 19:00","2006","12","12","19:00","4.6","","3.1","","90","","13","","37","","","","99.35","","","","","","NA"
"2006-12-12 20:00","2006","12","12","20:00","4.5","","3.4","","93","","13","","43","","","","99.21","","","","","","NA"
"2006-12-12 21:00","2006","12","12","21:00","4.7","","3.8","","94","","13","","37","","","","99.13","","","","","","NA"
"2006-12-12 22:00","2006","12","12","22:00","4.8","","3.9","","94","","14","","32","","","","99.08","","","","","","NA"
"2006-12-12 23:00","2006","12","12","23:00","5.0","","4.0","","93","","14","","37","","","","98.90","","","","","","NA"
"2006-12-13 00:00","2006","12","13","00:00","5.1","","4.4","","95","","17","","37","","","","98.78","","","","","","NA"
"2006-12-13 01:00","2006","12","13","01:00","5.0","","4.4","","96","","19","","30","","","","98.69","","","","","","NA"
"2006-12-13 02:00","2006","12","13","02:00","5.2","","4.6","","96","","19","","37","","","","98.61","","","","","","NA"
"2006-12-13 03:00","2006","12","13","03:00","5.1","","4.5","","96","","20","","37","","","","98.64","","","","","","NA"
"2006-12-13 04:00","2006","12","13","04:00","5.3","","4.7","","96","","20","","28","","","","98.60","","","","","","NA"
"2006-12-13 05:00","2006","12","13","05:00","5.0","","4.5","","97","","20","","24","","","","98.55","","","","","","NA"
"2006-12-13 06:00","2006","12","13","06:00","5.1","","4.6","","97","","18","","24","","","","98.48","","","","","","NA"
"2006-12-13 07:00","2006","12","13","07:00","5.1","","4.6","","97","","19","","30","","","","98.44","","","","","","NA"
"2006-12-13 08:00","2006","12","13","08:00","5.1","","4.7","","97","","24","","15","","","","98.41","","","","","","NA"
"2006-12-13 09:00","2006","12","13","09:00","5.2","","4.8","","97","","23","","22","","","","98.43","","","","","","NA"
"2006-12-13 10:00","2006","12","13","10:00","5.9","","5.5","","97","","24","","19","","","","98.46","","","","","","NA"
"2006-12-13 11:00","2006","12","13","11:00","5.2","","4.6","","96","","23","","20","","","","98.48","","","","","","NA"
"2006-12-13 12:00","2006","12","13","12:00","6.0","","4.8","","92","","24","","24","","","","98.43","","","","","","NA"
"2006-12-13 13:00","2006","12","13","13:00","5.5","","3.2","","85","","25","","26","","","","98.42","","","","","","NA"
"2006-12-13 14:00","2006","12","13","14:00","5.1","","2.7","","84","","25","","24","","","","98.43","","","","","","NA"
"2006-12-13 15:00","2006","12","13","15:00","4.8","","2.5","","85","","25","","22","","","","98.46","","","","","","NA"
"2006-12-13 16:00","2006","12","13","16:00","3.9","","2.6","","91","","26","","22","","","","98.51","","","","","","NA"
"2006-12-13 17:00","2006","12","13","17:00","3.8","","1.9","","87","","27","","26","","","","98.55","","","","","","NA"
"2006-12-13 18:00","2006","12","13","18:00","3.6","","1.6","","87","","26","","19","","","","98.60","","","","","","NA"
"2006-12-13 19:00","2006","12","13","19:00","3.6","","1.9","","89","","24","","17","","","","98.61","","","","","","NA"
"2006-12-13 20:00","2006","12","13","20:00","3.3","","1.5","","88","","23","","26","","","","98.56","","","","","","NA"
"2006-12-13 21:00","2006","12","13","21:00","3.3","","0.6","","82","","23","","28","","","","98.54","","","","","","NA"
"2006-12-13 22:00","2006","12","13","22:00","2.8","","0.6","","85","","22","","32","","","","98.55","","","","","","NA"
"2006-12-13 23:00","2006","12","13","23:00","2.6","","-0.2","","82","","24","","20","","","","98.53","","","","","","NA"
"2006-12-14 00:00","2006","12","14","00:00","2.6","","-0.8","","78","","24","","22","","","","98.53","","","","","","NA"
"2006-12-14 01:00","2006","12","14","01:00","2.5","","-0.3","","82","","26","","13","","","","98.51","","","","","","NA"
"2006-12-14 02:00","2006","12","14","02:00","2.5","","-0.7","","79","","26","","15","","","","98.45","","","","","","NA"
"2006-12-14 03:00","2006","12","14","03:00","2.6","","-0.3","","81","","24","","17","","","","98.44","","","","","","NA"
"2006-12-14 04:00","2006","12","14","04:00","2.6","","0.4","","85","","23","","20","","","","98.41","","","","","","NA"
"2006-12-14 05:00","2006","12","14","05:00","2.7","","-0.2","","81","","25","","13","","","","98.37","","","","","","NA"
"2006-12-14 06:00","2006","12","14","06:00","2.8","","-0.1","","81","","24","","17","","","","98.41","","","","","","NA"
"2006-12-14 07:00","2006","12","14","07:00","2.5","","0.5","","87","","23","","13","","","","98.39","","","","","","NA"
"2006-12-14 08:00","2006","12","14","08:00","2.6","","1.2","","90","","22","","9","","","","98.35","","","","","","NA"
"2006-12-14 09:00","2006","12","14","09:00","2.9","","1.4","","90","","20","","7","","","","98.31","","","","","","NA"
"2006-12-14 10:00","2006","12","14","10:00","3.2","","1.8","","91","","17","","6","","","","98.25","","","","","","NA"
"2006-12-14 11:00","2006","12","14","11:00","4.2","","3.0","","92","","17","","11","","","","98.21","","","","","","NA"
"2006-12-14 12:00","2006","12","14","12:00","4.4","","3.1","","91","","19","","26","","","","98.13","","","","","","NA"
"2006-12-14 13:00","2006","12","14","13:00","4.5","","3.1","","91","","20","","26","","","","98.04","","","","","","NA"
"2006-12-14 14:00","2006","12","14","14:00","4.5","","3.4","","93","","21","","22","","","","97.87","","","","","","NA"
"2006-12-14 15:00","2006","12","14","15:00","4.5","","3.3","","92","","18","","26","","","","97.79","","","","","","NA"
"2006-12-14 16:00","2006","12","14","16:00","4.5","","3.5","","93","","19","","24","","","","97.74","","","","","","NA"
"2006-12-14 17:00","2006","12","14","17:00","4.4","","3.5","","94","","16","","22","","","","97.64","","","","","","NA"
"2006-12-14 18:00","2006","12","14","18:00","4.5","","3.8","","95","","14","","20","","","","97.55","","","","","","NA"
"2006-12-14 19:00","2006","12","14","19:00","5.0","","3.8","","92","","19","","22","","","","97.55","","","","","","NA"
"2006-12-14 20:00","2006","12","14","20:00","5.6","","3.6","","87","","19","","32","","","","97.44","","","","","","NA"
"2006-12-14 21:00","2006","12","14","21:00","5.0","","3.6","","91","","21","","19","","","","97.37","","","","","","NA"
"2006-12-14 22:00","2006","12","14","22:00","6.0","","3.9","","86","","25","","26","","","","97.34","","","","","","NA"
"2006-12-14 23:00","2006","12","14","23:00","5.8","","3.4","","85","","24","","26","","","","97.31","","","","","","NA"
"2006-12-15 00:00","2006","12","15","00:00","5.4","","3.1","","85","","24","","20","","","","97.32","","","","","","NA"
"2006-12-15 01:00","2006","12","15","01:00","5.1","","2.7","","84","","24","","20","","","","97.29","","","","","","NA"
"2006-12-15 02:00","2006","12","15","02:00","4.2","","2.7","","90","","23","","9","","","","97.33","","","","","","NA"
"2006-12-15 03:00","2006","12","15","03:00","4.1","","3.1","","93","","27","","4","","","","97.35","","","","","","NA"
"2006-12-15 04:00","2006","12","15","04:00","4.9","","3.5","","91","","23","","17","","","","97.31","","","","","","NA"
"2006-12-15 05:00","2006","12","15","05:00","4.2","","3.1","","93","","19","","4","","","","97.29","","","","","","NA"
"2006-12-15 06:00","2006","12","15","06:00","4.4","","3.4","","93","","24","","4","","","","97.28","","","","","","NA"
"2006-12-15 07:00","2006","12","15","07:00","4.2","","3.2","","93","","21","","2","","","","97.28","","","","","","NA"
"2006-12-15 08:00","2006","12","15","08:00","4.2","","3.5","","95","","25","","7","","","","97.32","","","","","","NA"
"2006-12-15 09:00","2006","12","15","09:00","4.2","","3.2","","93","","23","","6","","","","97.35","","","","","","NA"
"2006-12-15 10:00","2006","12","15","10:00","4.3","","3.1","","92","","25","","13","","","","97.39","","","","","","NA"
"2006-12-15 11:00","2006","12","15","11:00","4.3","","3.1","","92","","25","","13","","","","97.41","","","","","","NA"
"2006-12-15 12:00","2006","12","15","12:00","4.2","","3.1","","93","","25","","9","","","","97.41","","","","","","NA"
"2006-12-15 13:00","2006","12","15","13:00","4.1","","2.6","","90","","29","","13","","","","97.44","","","","","","NA"
"2006-12-15 14:00","2006","12","15","14:00","4.0","","2.7","","91","","29","","13","","","","97.52","","","","","","NA"
"2006-12-15 15:00","2006","12","15","15:00","3.7","","1.3","","84","","35","","19","","","","97.66","","","","","","NA"
"2006-12-15 16:00","2006","12","15","16:00","3.0","","0.4","","83","","33","","13","","","","97.88","","","","","","NA"
"2006-12-15 17:00","2006","12","15","17:00","2.8","","-0.8","","77","","32","","19","","","","98.04","","","","","","NA"
"2006-12-15 18:00","2006","12","15","18:00","2.1","","-1.8","","75","","33","","20","","","","98.25","","","","","","NA"
"2006-12-15 19:00","2006","12","15","19:00","1.6","","-2.0","","77","","32","","24","","","","98.45","","","","","","NA"
"2006-12-15 20:00","2006","12","15","20:00","1.7","","-2.4","","74","","32","","19","","","","98.64","","","","","","NA"
"2006-12-15 21:00","2006","12","15","21:00","1.5","","-2.9","","72","","32","","17","","","","98.73","","","","","","NA"
"2006-12-15 22:00","2006","12","15","22:00","1.2","","-2.8","","75","","33","","11","","","","98.78","","","","","","NA"
"2006-12-15 23:00","2006","12","15","23:00","1.1","","-2.8","","75","","30","","13","","","","98.89","","","","","","NA"
"2006-12-16 00:00","2006","12","16","00:00","0.8","","-2.7","","77","","30","","9","","","","98.94","","","","","","NA"
"2006-12-16 01:00","2006","12","16","01:00","0.7","","-2.8","","77","","29","","7","","","","98.98","","","","","","NA"
"2006-12-16 02:00","2006","12","16","02:00","0.2","","-2.5","","82","","28","","11","","","","99.11","","","","","","NA"
"2006-12-16 03:00","2006","12","16","03:00","0.6","","-1.8","","84","","28","","6","","","","99.23","","","","","","NA"
"2006-12-16 04:00","2006","12","16","04:00","1.3","","-2.4","","76","","27","","4","","","","99.24","","","","","","NA"
"2006-12-16 05:00","2006","12","16","05:00","1.2","","-2.3","","77","","29","","4","","","","99.26","","","","","","NA"
"2006-12-16 06:00","2006","12","16","06:00","1.3","","-2.1","","78","","27","","6","","","","99.32","","","","","","NA"
"2006-12-16 07:00","2006","12","16","07:00","0.6","","-1.7","","85","","26","","6","","","","99.40","","","","","","NA"
"2006-12-16 08:00","2006","12","16","08:00","0.2","","-1.7","","87","","27","","6","","","","99.44","","","","","","NA"
"2006-12-16 09:00","2006","12","16","09:00","1.4","","-1.1","","83","","25","","2","","","","99.43","","","","","","NA"
"2006-12-16 10:00","2006","12","16","10:00","0.9","","-0.7","","89","","7","","2","","","","99.48","","","","","","NA"
"2006-12-16 11:00","2006","12","16","11:00","1.5","","-0.1","","89","","7","","4","","","","99.46","","","","","","NA"
"2006-12-16 12:00","2006","12","16","12:00","3.2","","0.3","","81","","18","","19","","","","99.39","","","","","","NA"
"2006-12-16 13:00","2006","12","16","13:00","3.6","","-0.5","","75","","19","","24","","","","99.26","","","","","","NA"
"2006-12-16 14:00","2006","12","16","14:00","3.8","","-1.4","","69","","19","","32","","","","99.24","","","","","","NA"
"2006-12-16 15:00","2006","12","16","15:00","3.8","","-1.6","","68","","19","","35","","","","99.20","","","","","","NA"
"2006-12-16 16:00","2006","12","16","16:00","3.9","","-0.7","","72","","19","","37","","","","99.15","","","","","","NA"
"2006-12-16 17:00","2006","12","16","17:00","3.8","","-0.9","","71","","17","","30","","","","99.06","","","","","","NA"
"2006-12-16 18:00","2006","12","16","18:00","4.0","","-0.4","","73","","16","","30","","","","99.05","","","","","","NA"
"2006-12-16 19:00","2006","12","16","19:00","4.1","","-1.1","","69","","16","","41","","","","98.91","","","","","","NA"
"2006-12-16 20:00","2006","12","16","20:00","4.0","","-0.2","","74","","16","","39","","","","98.77","","","","","","NA"
"2006-12-16 21:00","2006","12","16","21:00","3.9","","0.4","","78","","17","","28","","","","98.76","","","","","","NA"
"2006-12-16 22:00","2006","12","16","22:00","4.3","","1.5","","82","","20","","22","","","","98.70","","","","","","NA"
"2006-12-16 23:00","2006","12","16","23:00","4.6","","1.7","","81","","26","","7","","","","98.66","","","","","","NA"
"2006-12-17 00:00","2006","12","17","00:00","5.1","","1.9","","80","","22","","30","","","","98.55","","","","","","NA"
"2006-12-17 01:00","2006","12","17","01:00","4.6","","2.0","","83","","23","","20","","","","98.49","","","","","","NA"
"2006-12-17 02:00","2006","12","17","02:00","5.8","","2.5","","79","","24","","26","","","","98.43","","","","","","NA"
"2006-12-17 03:00","2006","12","17","03:00","5.9","","3.0","","82","","24","","22","","","","98.48","","","","","","NA"
"2006-12-17 04:00","2006","12","17","04:00","5.5","","3.6","","88","","24","","19","","","","98.45","","","","","","NA"
"2006-12-17 05:00","2006","12","17","05:00","5.7","","2.8","","82","","26","","26","","","","98.53","","","","","","NA"
"2006-12-17 06:00","2006","12","17","06:00","4.8","","1.6","","80","","27","","20","","","","98.62","","","","","","NA"
"2006-12-17 07:00","2006","12","17","07:00","4.4","","0.8","","77","","27","","26","","","","98.69","","","","","","NA"
"2006-12-17 08:00","2006","12","17","08:00","3.9","","0.3","","77","","27","","26","","","","98.77","","","","","","NA"
"2006-12-17 09:00","2006","12","17","09:00","3.6","","0.4","","80","","27","","22","","","","98.87","","","","","","NA"
"2006-12-17 10:00","2006","12","17","10:00","3.7","","0.1","","77","","26","","15","","","","98.97","","","","","","NA"
"2006-12-17 11:00","2006","12","17","11:00","4.0","","-0.1","","75","","27","","15","","","","99.03","","","","","","NA"
"2006-12-17 12:00","2006","12","17","12:00","4.5","","-1.8","","64","","28","","24","","","","98.99","","","","","","NA"
"2006-12-17 13:00","2006","12","17","13:00","5.0","","-2.6","","58","","27","","13","","","","98.94","","","","","","NA"
"2006-12-17 14:00","2006","12","17","14:00","5.5","","-3.9","","51","","26","","20","","","","98.95","","","","","","NA"
"2006-12-17 15:00","2006","12","17","15:00","5.1","","-2.8","","57","","26","","20","","","","99.03","","","","","","NA"
"2006-12-17 16:00","2006","12","17","16:00","4.3","","-1.8","","64","","28","","20","","","","99.09","","","","","","NA"
"2006-12-17 17:00","2006","12","17","17:00","3.7","","-2.5","","64","","28","","30","","","","99.16","","","","","","NA"
"2006-12-17 18:00","2006","12","17","18:00","3.4","","-3.8","","59","","28","","24","","","","99.20","","","","","","NA"
"2006-12-17 19:00","2006","12","17","19:00","3.1","","-3.1","","64","","28","","24","","","","99.25","","","","","","NA"
"2006-12-17 20:00","2006","12","17","20:00","3.0","","-2.9","","65","","28","","20","","","","99.31","","","","","","NA"
"2006-12-17 21:00","2006","12","17","21:00","2.8","","-3.4","","64","","28","","19","","","","99.34","","","","","","NA"
"2006-12-17 22:00","2006","12","17","22:00","2.5","","-3.9","","63","","29","","13","","","","99.32","","","","","","NA"
"2006-12-17 23:00","2006","12","17","23:00","2.5","","-2.7","","69","","28","","19","","","","99.35","","","","","","NA"
"2006-12-18 00:00","2006","12","18","00:00","2.1","","-2.3","","73","","25","","13","","","","99.37","","","","","","NA"
"2006-12-18 01:00","2006","12","18","01:00","2.2","","-2.9","","69","","29","","19","","","","99.38","","","","","","NA"
"2006-12-18 02:00","2006","12","18","02:00","1.8","","-4.6","","62","","30","","15","","","","99.38","","","","","","NA"
"2006-12-18 03:00","2006","12","18","03:00","1.6","","-4.4","","64","","30","","15","","","","99.43","","","","","","NA"
"2006-12-18 04:00","2006","12","18","04:00","1.5","","-4.7","","63","","30","","15","","","","99.46","","","","","","NA"
"2006-12-18 05:00","2006","12","18","05:00","1.3","","-5.1","","62","","30","","9","","","","99.49","","","","","","NA"
"2006-12-18 06:00","2006","12","18","06:00","1.2","","-3.7","","70","","27","","11","","","","99.52","","","","","","NA"
"2006-12-18 07:00","2006","12","18","07:00","1.5","","-3.1","","71","","27","","19","","","","99.58","","","","","","NA"
"2006-12-18 08:00","2006","12","18","08:00","1.3","","-3.9","","68","","29","","20","","","","99.63","","","","","","NA"
"2006-12-18 09:00","2006","12","18","09:00","1.1","","-5.0","","64","","30","","17","","","","99.71","","","","","","NA"
"2006-12-18 10:00","2006","12","18","10:00","1.0","","-5.8","","60","","29","","22","","","","99.77","","","","","","NA"
"2006-12-18 11:00","2006","12","18","11:00","1.3","","-6.4","","56","","30","","30","","","","99.84","","","","","","NA"
"2006-12-18 12:00","2006","12","18","12:00","1.9","","-5.8","","57","","29","","26","","","","99.86","","","","","","NA"
"2006-12-18 13:00","2006","12","18","13:00","2.4","","-6.4","","52","","30","","24","","","","99.84","","","","","","NA"
"2006-12-18 14:00","2006","12","18","14:00","1.3","","-4.5","","65","","28","","26","","","","99.91","","","","","","NA"
"2006-12-18 15:00","2006","12","18","15:00","1.3","","-6.8","","55","","30","","24","","","","99.98","","","","","","NA"
"2006-12-18 16:00","2006","12","18","16:00","0.9","","-4.2","","69","","28","","26","","","","100.03","","","","","","NA"
"2006-12-18 17:00","2006","12","18","17:00","0.9","","-5.0","","65","","29","","24","","","","100.11","","","","","","NA"
"2006-12-18 18:00","2006","12","18","18:00","0.8","","-7.1","","55","","28","","26","","","","100.18","","","","","","NA"
"2006-12-18 19:00","2006","12","18","19:00","0.6","","-4.7","","68","","29","","20","","","","100.23","","","","","","NA"
"2006-12-18 20:00","2006","12","18","20:00","0.4","","-6.2","","61","","29","","20","","","","100.22","","","","","","NA"
"2006-12-18 21:00","2006","12","18","21:00","0.1","","-6.7","","60","","29","","20","","","","100.19","","","","","","NA"
"2006-12-18 22:00","2006","12","18","22:00","-0.2","","-7.1","","60","","29","","17","","","","100.20","","","","-5","","NA"
"2006-12-18 23:00","2006","12","18","23:00","0.0","","-6.2","","63","","27","","28","","","","100.16","","","","-6","","NA"
"2006-12-19 00:00","2006","12","19","00:00","-0.4","","-7.1","","61","","30","","17","","","","100.15","","","","-5","","NA"
"2006-12-19 01:00","2006","12","19","01:00","-0.2","","-6.1","","64","","29","","11","","","","100.11","","","","-4","","NA"
"2006-12-19 02:00","2006","12","19","02:00","-0.5","","-4.7","","73","","27","","28","","","","100.09","","","","-7","","NA"
"2006-12-19 03:00","2006","12","19","03:00","-0.3","","-6.1","","65","","28","","30","","","","100.09","","","","-7","","NA"
"2006-12-19 04:00","2006","12","19","04:00","-0.7","","-6.5","","65","","31","","15","","","","100.09","","","","-5","","NA"
"2006-12-19 05:00","2006","12","19","05:00","-0.6","","-7.8","","58","","29","","26","","","","100.07","","","","-7","","NA"
"2006-12-19 06:00","2006","12","19","06:00","-1.0","","-7.3","","62","","29","","11","","","","100.07","","","","-5","","NA"
"2006-12-19 07:00","2006","12","19","07:00","-1.9","","-8.2","","62","","32","","9","","","","100.09","","","","-5","","NA"
"2006-12-19 08:00","2006","12","19","08:00","-1.5","","-8.3","","60","","30","","13","","","","100.11","","","","-6","","NA"
"2006-12-19 09:00","2006","12","19","09:00","-1.1","","-7.8","","60","","31","","9","","","","100.16","","","","-4","","NA"
"2006-12-19 10:00","2006","12","19","10:00","-0.4","","-7.5","","59","","30","","17","","","","100.20","","","","-5","","NA"
"2006-12-19 11:00","2006","12","19","11:00","0.2","","-6.6","","60","","29","","22","","","","100.21","","","","","","NA"
"2006-12-19 12:00","2006","12","19","12:00","0.4","","-6.3","","61","","29","","24","","","","100.15","","","","","","NA"
"2006-12-19 13:00","2006","12","19","13:00","0.5","","-5.8","","63","","29","","20","","","","100.08","","","","","","NA"
"2006-12-19 14:00","2006","12","19","14:00","0.7","","-5.0","","66","","27","","22","","","","100.07","","","","","","NA"
"2006-12-19 15:00","2006","12","19","15:00","0.7","","-5.1","","65","","27","","22","","","","100.07","","","","","","NA"
"2006-12-19 16:00","2006","12","19","16:00","1.0","","-5.2","","63","","27","","24","","","","100.09","","","","","","NA"
"2006-12-19 17:00","2006","12","19","17:00","0.7","","-4.6","","68","","27","","15","","","","100.13","","","","","","NA"
"2006-12-19 18:00","2006","12","19","18:00","0.4","","-4.7","","69","","26","","13","","","","100.14","","","","","","NA"
"2006-12-19 19:00","2006","12","19","19:00","0.4","","-4.1","","72","","26","","11","","","","100.15","","","","","","NA"
"2006-12-19 20:00","2006","12","19","20:00","1.0","","-3.8","","70","","23","","17","","","","100.06","","","","","","NA"
"2006-12-19 21:00","2006","12","19","21:00","1.2","","-3.3","","72","","24","","15","","","","100.02","","","","","","NA"
"2006-12-19 22:00","2006","12","19","22:00","0.9","","-3.6","","72","","25","","15","","","","99.97","","","","","","NA"
"2006-12-19 23:00","2006","12","19","23:00","1.2","","-4.2","","67","","26","","15","","","","99.93","","","","","","NA"
"2006-12-20 00:00","2006","12","20","00:00","1.4","","-3.7","","69","","26","","17","","","","99.88","","","","","","NA"
"2006-12-20 01:00","2006","12","20","01:00","1.7","","-3.4","","69","","25","","13","","","","99.81","","","","","","NA"
"2006-12-20 02:00","2006","12","20","02:00","1.5","","-3.3","","70","","25","","13","","","","99.74","","","","","","NA"
"2006-12-20 03:00","2006","12","20","03:00","1.8","","-3.1","","70","","24","","20","","","","99.74","","","","","","NA"
"2006-12-20 04:00","2006","12","20","04:00","2.1","","-1.8","","75","","23","","26","","","","99.67","","","","","","NA"
"2006-12-20 05:00","2006","12","20","05:00","2.0","","-2.5","","72","","25","","17","","","","99.62","","","","","","NA"
"2006-12-20 06:00","2006","12","20","06:00","2.1","","-2.5","","72","","24","","17","","","","99.63","","","","","","NA"
"2006-12-20 07:00","2006","12","20","07:00","2.3","","-2.8","","69","","24","","22","","","","99.56","","","","","","NA"
"2006-12-20 08:00","2006","12","20","08:00","2.1","","-2.7","","70","","24","","17","","","","99.56","","","","","","NA"
"2006-12-20 09:00","2006","12","20","09:00","2.4","","-2.6","","70","","25","","20","","","","99.50","","","","","","NA"
"2006-12-20 10:00","2006","12","20","10:00","3.0","","-3.3","","63","","24","","22","","","","99.44","","","","","","NA"
"2006-12-20 11:00","2006","12","20","11:00","4.0","","-3.6","","58","","25","","30","","","","99.41","","","","","","NA"
"2006-12-20 12:00","2006","12","20","12:00","4.9","","-4.4","","51","","25","","32","","","","99.38","","","","","","NA"
"2006-12-20 13:00","2006","12","20","13:00","5.2","","-4.5","","50","","26","","30","","","","99.31","","","","","","NA"
"2006-12-20 14:00","2006","12","20","14:00","5.4","","-5.2","","46","","27","","28","","","","99.25","","","","","","NA"
"2006-12-20 15:00","2006","12","20","15:00","5.2","","-4.6","","49","","27","","30","","","","99.27","","","","","","NA"
"2006-12-20 16:00","2006","12","20","16:00","5.0","","-3.4","","55","","27","","24","","","","99.31","","","","","","NA"
"2006-12-20 17:00","2006","12","20","17:00","4.2","","-3.2","","59","","26","","20","","","","99.36","","","","","","NA"
"2006-12-20 18:00","2006","12","20","18:00","3.4","","-3.0","","63","","27","","22","","","","99.44","","","","","","NA"
"2006-12-20 19:00","2006","12","20","19:00","3.0","","-3.1","","64","","26","","17","","","","99.52","","","","","","NA"
"2006-12-20 20:00","2006","12","20","20:00","2.5","","-3.2","","66","","25","","19","","","","99.56","","","","","","NA"
"2006-12-20 21:00","2006","12","20","21:00","1.9","","-2.8","","71","","25","","19","","","","99.59","","","","","","NA"
"2006-12-20 22:00","2006","12","20","22:00","1.7","","-2.5","","74","","24","","19","","","","99.58","","","","","","NA"
"2006-12-20 23:00","2006","12","20","23:00","1.5","","-2.4","","75","","26","","15","","","","99.63","","","","","","NA"
"2006-12-21 00:00","2006","12","21","00:00","1.5","","-2.7","","74","","24","","17","","","","99.64","","","","","","NA"
"2006-12-21 01:00","2006","12","21","01:00","1.7","","-2.1","","76","","26","","17","","","","99.64","","","","","","NA"
"2006-12-21 02:00","2006","12","21","02:00","1.7","","-2.6","","73","","26","","13","","","","99.68","","","","","","NA"
"2006-12-21 03:00","2006","12","21","03:00","1.9","","-2.4","","73","","28","","17","","","","99.79","","","","","","NA"
"2006-12-21 04:00","2006","12","21","04:00","1.7","","-2.0","","76","","29","","19","","","","99.80","","","","","","NA"
"2006-12-21 05:00","2006","12","21","05:00","1.4","","-1.9","","79","","29","","13","","","","99.84","","","","","","NA"
"2006-12-21 06:00","2006","12","21","06:00","1.3","","-2.3","","77","","29","","15","","","","99.92","","","","","","NA"
"2006-12-21 07:00","2006","12","21","07:00","0.7","","-3.4","","74","","30","","13","","","","100.05","","","","","","NA"
"2006-12-21 08:00","2006","12","21","08:00","-0.2","","-4.4","","73","","33","","9","","","","100.16","","","","-3","","NA"
"2006-12-21 09:00","2006","12","21","09:00","0.6","","-4.5","","69","","27","","4","","","","100.28","","","","","","NA"
"2006-12-21 10:00","2006","12","21","10:00","1.6","","-5.9","","57","","30","","4","","","","100.35","","","","","","NA"
"2006-12-21 11:00","2006","12","21","11:00","1.3","","-8.2","","49","","36","","9","","","","100.37","","","","","","NA"
"2006-12-21 12:00","2006","12","21","12:00","2.1","","-8.1","","47","","2","","7","","","","100.29","","","","","","NA"
"2006-12-21 13:00","2006","12","21","13:00","1.8","","-7.9","","49","","13","","7","","","","100.28","","","","","","NA"
"2006-12-21 14:00","2006","12","21","14:00","1.5","","-6.8","","54","","18","","9","","","","100.28","","","","","","NA"
"2006-12-21 15:00","2006","12","21","15:00","1.8","","-7.1","","52","","22","","9","","","","100.31","","","","","","NA"
"2006-12-21 16:00","2006","12","21","16:00","1.6","","-7.1","","52","","26","","6","","","","100.37","","","","","","NA"
"2006-12-21 17:00","2006","12","21","17:00","0.9","","-7.3","","54","","2","","7","","","","100.38","","","","","","NA"
"2006-12-21 18:00","2006","12","21","18:00","0.6","","-7.7","","54","","6","","6","","","","100.40","","","","","","NA"
"2006-12-21 19:00","2006","12","21","19:00","0.1","","-7.7","","56","","6","","9","","","","100.41","","","","","","NA"
"2006-12-21 20:00","2006","12","21","20:00","-0.6","","-6.2","","66","","7","","9","","","","100.41","","","","-4","","NA"
"2006-12-21 21:00","2006","12","21","21:00","-0.2","","-5.7","","66","","7","","7","","","","100.43","","","","-3","","NA"
"2006-12-21 22:00","2006","12","21","22:00","-0.2","","-6.8","","61","","7","","9","","","","100.42","","","","-3","","NA"
"2006-12-21 23:00","2006","12","21","23:00","0.0","","-6.5","","62","","8","","19","","","","100.38","","","","-5","","NA"
"2006-12-22 00:00","2006","12","22","00:00","0.2","","-6.9","","59","","9","","22","","","","100.29","","","","","","NA"
"2006-12-22 01:00","2006","12","22","01:00","0.4","","-5.5","","65","","9","","22","","","","100.24","","","","","","NA"
"2006-12-22 02:00","2006","12","22","02:00","0.4","","-5.2","","66","","8","","22","","","","100.19","","","","","","NA"
"2006-12-22 03:00","2006","12","22","03:00","0.3","","-5.3","","66","","9","","28","","","","100.10","","","","","","NA"
"2006-12-22 04:00","2006","12","22","04:00","0.6","","-4.0","","71","","9","","26","","","","100.07","","","","","","NA"
"2006-12-22 05:00","2006","12","22","05:00","2.3","","-2.5","","71","","12","","32","","","","99.99","","","","","","NA"
"2006-12-22 06:00","2006","12","22","06:00","2.7","","-2.4","","69","","13","","37","","","","99.93","","","","","","NA"
"2006-12-22 07:00","2006","12","22","07:00","1.2","","-2.9","","74","","11","","32","","","","99.93","","","","","","NA"
"2006-12-22 08:00","2006","12","22","08:00","0.7","","-4.2","","70","","9","","32","","","","99.79","","","","","","NA"
"2006-12-22 09:00","2006","12","22","09:00","0.9","","-4.4","","68","","10","","33","","","","99.79","","","","","","NA"
"2006-12-22 10:00","2006","12","22","10:00","1.1","","-3.8","","70","","10","","33","","","","99.72","","","","","","NA"
"2006-12-22 11:00","2006","12","22","11:00","1.7","","-3.3","","69","","10","","33","","","","99.63","","","","","","NA"
"2006-12-22 12:00","2006","12","22","12:00","1.3","","-3.3","","71","","10","","32","","","","99.47","","","","","","NA"
"2006-12-22 13:00","2006","12","22","13:00","1.2","","-3.2","","72","","8","","24","","","","99.28","","","","","","NA"
"2006-12-22 14:00","2006","12","22","14:00","1.7","","-4.8","","62","","10","","32","","","","99.19","","","","","","NA"
"2006-12-22 15:00","2006","12","22","15:00","1.0","","-2.2","","79","","10","","43","","","","99.09","","","","","","NA"
"2006-12-22 16:00","2006","12","22","16:00","0.3","","-1.2","","90","","8","","32","","","","98.99","","","","","","NA"
"2006-12-22 17:00","2006","12","22","17:00","0.7","","-0.4","","92","","8","","37","","","","98.85","","","","","","NA"
"2006-12-22 18:00","2006","12","22","18:00","0.9","","-0.1","","93","","9","","37","","","","98.73","","","","","","NA"
"2006-12-22 19:00","2006","12","22","19:00","1.1","","0.3","","94","","9","","35","","","","98.65","","","","","","NA"
"2006-12-22 20:00","2006","12","22","20:00","1.4","","0.7","","95","","9","","30","","","","98.56","","","","","","NA"
"2006-12-22 21:00","2006","12","22","21:00","1.8","","1.3","","96","","9","","28","","","","98.43","","","","","","NA"
"2006-12-22 22:00","2006","12","22","22:00","2.3","","1.8","","96","","9","","30","","","","98.29","","","","","","NA"
"2006-12-22 23:00","2006","12","22","23:00","2.8","","2.3","","97","","11","","33","","","","98.20","","","","","","NA"
"2006-12-23 00:00","2006","12","23","00:00","3.8","","3.3","","97","","12","","32","","","","98.09","","","","","","NA"
"2006-12-23 01:00","2006","12","23","01:00","4.9","","4.4","","97","","15","","32","","","","98.01","","","","","","NA"
"2006-12-23 02:00","2006","12","23","02:00","5.6","","5.1","","97","","17","","24","","","","97.97","","","","","","NA"
"2006-12-23 03:00","2006","12","23","03:00","5.7","","3.6","","86","","21","","28","","","","98.02","","","","","","NA"
"2006-12-23 04:00","2006","12","23","04:00","5.5","","3.6","","88","","18","","28","","","","98.00","","","","","","NA"
"2006-12-23 05:00","2006","12","23","05:00","5.2","","3.2","","87","","18","","24","","","","97.92","","","","","","NA"
"2006-12-23 06:00","2006","12","23","06:00","5.1","","2.9","","86","","19","","30","","","","97.87","","","","","","NA"
"2006-12-23 07:00","2006","12","23","07:00","5.1","","2.6","","84","","20","","33","","","","97.80","","","","","","NA"
"2006-12-23 08:00","2006","12","23","08:00","4.5","","2.3","","86","","22","","41","","","","97.71","","","","","","NA"
"2006-12-23 09:00","2006","12","23","09:00","2.6","","1.4","","92","","23","","33","","","","97.72","","","","","","NA"
"2006-12-23 10:00","2006","12","23","10:00","3.2","","1.1","","86","","23","","37","","","","97.68","","","","","","NA"
"2006-12-23 11:00","2006","12","23","11:00","2.9","","1.1","","88","","22","","35","","","","97.62","","","","","","NA"
"2006-12-23 12:00","2006","12","23","12:00","2.9","","1.2","","89","","23","","35","","","","97.55","","","","","","NA"
"2006-12-23 13:00","2006","12","23","13:00","2.7","","1.4","","91","","24","","30","","","","97.49","","","","","","NA"
"2006-12-23 14:00","2006","12","23","14:00","2.4","","1.2","","92","","26","","33","","","","97.53","","","","","","NA"
"2006-12-23 15:00","2006","12","23","15:00","2.6","","0.8","","88","","27","","32","","","","97.64","","","","","","NA"
"2006-12-23 16:00","2006","12","23","16:00","2.6","","1.1","","90","","28","","30","","","","97.71","","","","","","NA"
"2006-12-23 17:00","2006","12","23","17:00","2.8","","0.8","","87","","27","","28","","","","97.86","","","","","","NA"
"2006-12-23 18:00","2006","12","23","18:00","2.3","","0.5","","88","","26","","26","","","","97.93","","","","","","NA"
"2006-12-23 19:00","2006","12","23","19:00","2.1","","0.3","","88","","26","","24","","","","97.99","","","","","","NA"
"2006-12-23 20:00","2006","12","23","20:00","2.4","","0.8","","89","","27","","28","","","","98.04","","","","","","NA"
"2006-12-23 21:00","2006","12","23","21:00","2.4","","0.6","","88","","28","","32","","","","98.09","","","","","","NA"
"2006-12-23 22:00","2006","12","23","22:00","2.3","","-0.4","","82","","30","","30","","","","98.16","","","","","","NA"
"2006-12-23 23:00","2006","12","23","23:00","1.4","","-3.2","","71","","31","","24","","","","98.31","","","","","","NA"
"2006-12-24 00:00","2006","12","24","00:00","1.5","","-2.4","","75","","29","","26","","","","98.38","","","","","","NA"
"2006-12-24 01:00","2006","12","24","01:00","1.5","","-2.0","","78","","29","","30","","","","98.42","","","","","","NA"
"2006-12-24 02:00","2006","12","24","02:00","1.4","","-2.0","","78","","29","","24","","","","98.58","","","","","","NA"
"2006-12-24 03:00","2006","12","24","03:00","1.5","","-1.4","","81","","29","","22","","","","98.72","","","","","","NA"
"2006-12-24 04:00","2006","12","24","04:00","1.3","","-1.9","","79","","30","","24","","","","98.82","","","","","","NA"
"2006-12-24 05:00","2006","12","24","05:00","0.9","","-2.7","","77","","30","","19","","","","98.88","","","","","","NA"
"2006-12-24 06:00","2006","12","24","06:00","0.6","","-1.9","","83","","29","","11","","","","98.96","","","","","","NA"
"2006-12-24 07:00","2006","12","24","07:00","1.5","","-1.5","","80","","29","","28","","","","98.97","","","","","","NA"
"2006-12-24 08:00","2006","12","24","08:00","1.6","","-1.8","","78","","29","","30","","","","99.05","","","","","","NA"
"2006-12-24 09:00","2006","12","24","09:00","1.1","","-2.0","","80","","26","","20","","","","99.12","","","","","","NA"
"2006-12-24 10:00","2006","12","24","10:00","1.7","","-1.3","","80","","27","","22","","","","99.19","","","","","","NA"
"2006-12-24 11:00","2006","12","24","11:00","2.3","","-1.2","","78","","28","","22","","","","99.28","","","","","","NA"
"2006-12-24 12:00","2006","12","24","12:00","3.0","","-1.4","","73","","28","","32","","","","99.28","","","","","","NA"
"2006-12-24 13:00","2006","12","24","13:00","3.4","","-2.4","","66","","28","","33","","","","99.26","","","","","","NA"
"2006-12-24 14:00","2006","12","24","14:00","3.1","","-3.7","","61","","28","","28","","","","99.34","","","","","","NA"
"2006-12-24 15:00","2006","12","24","15:00","2.9","","-2.7","","67","","27","","24","","","","99.40","","","","","","NA"
"2006-12-24 16:00","2006","12","24","16:00","2.3","","-2.0","","73","","27","","30","","","","99.46","","","","","","NA"
"2006-12-24 17:00","2006","12","24","17:00","1.7","","-2.4","","74","","29","","17","","","","99.48","","","","","","NA"
"2006-12-24 18:00","2006","12","24","18:00","1.1","","-2.1","","79","","25","","6","","","","99.44","","","","","","NA"
"2006-12-24 19:00","2006","12","24","19:00","0.9","","-2.3","","79","","25","","13","","","","99.51","","","","","","NA"
"2006-12-24 20:00","2006","12","24","20:00","0.9","","-3.2","","74","","25","","13","","","","99.53","","","","","","NA"
"2006-12-24 21:00","2006","12","24","21:00","0.5","","-3.3","","76","","29","","11","","","","99.54","","","","","","NA"
"2006-12-24 22:00","2006","12","24","22:00","0.7","","-1.7","","84","","28","","7","","","","99.57","","","","","","NA"
"2006-12-24 23:00","2006","12","24","23:00","-0.3","","-2.4","","86","","","","0","","","","99.54","","","","","","NA"
"2006-12-25 00:00","2006","12","25","00:00","1.1","","-1.0","","86","","","","0","","","","99.47","","","","","","NA"
"2006-12-25 01:00","2006","12","25","01:00","1.9","","-0.9","","82","","15","","2","","","","99.44","","","","","","NA"
"2006-12-25 02:00","2006","12","25","02:00","2.4","","-2.0","","73","","29","","4","","","","99.40","","","","","","NA"
"2006-12-25 03:00","2006","12","25","03:00","2.2","","-2.6","","71","","28","","4","","","","99.39","","","","","","NA"
"2006-12-25 04:00","2006","12","25","04:00","2.2","","-2.0","","74","","27","","11","","","","99.36","","","","","","NA"
"2006-12-25 05:00","2006","12","25","05:00","0.5","","-2.3","","81","","8","","7","","","","99.28","","","","","","NA"
"2006-12-25 06:00","2006","12","25","06:00","2.0","","-0.9","","81","","13","","4","","","","99.24","","","","","","NA"
"2006-12-25 07:00","2006","12","25","07:00","1.9","","-0.4","","85","","16","","2","","","","99.20","","","","","","NA"
"2006-12-25 08:00","2006","12","25","08:00","3.5","","0.3","","80","","21","","26","","","","99.16","","","","","","NA"
"2006-12-25 09:00","2006","12","25","09:00","2.7","","-0.1","","82","","24","","13","","","","99.17","","","","","","NA"
"2006-12-25 10:00","2006","12","25","10:00","3.1","","-0.3","","78","","24","","15","","","","99.17","","","","","","NA"
"2006-12-25 11:00","2006","12","25","11:00","3.2","","0.1","","80","","21","","19","","","","99.10","","","","","","NA"
"2006-12-25 12:00","2006","12","25","12:00","3.3","","0.0","","79","","23","","15","","","","99.03","","","","","","NA"
"2006-12-25 13:00","2006","12","25","13:00","3.2","","-0.6","","76","","22","","15","","","","98.91","","","","","","NA"
"2006-12-25 14:00","2006","12","25","14:00","3.5","","-0.5","","75","","26","","11","","","","98.87","","","","","","NA"
"2006-12-25 15:00","2006","12","25","15:00","3.8","","-0.5","","73","","27","","7","","","","98.83","","","","","","NA"
"2006-12-25 16:00","2006","12","25","16:00","3.3","","-0.6","","76","","31","","4","","","","98.81","","","","","","NA"
"2006-12-25 17:00","2006","12","25","17:00","2.7","","-0.6","","79","","1","","6","","","","98.80","","","","","","NA"
"2006-12-25 18:00","2006","12","25","18:00","2.1","","-0.8","","81","","2","","7","","","","98.75","","","","","","NA"
"2006-12-25 19:00","2006","12","25","19:00","2.0","","-1.3","","79","","5","","7","","","","98.72","","","","","","NA"
"2006-12-25 20:00","2006","12","25","20:00","1.7","","-1.1","","82","","5","","6","","","","98.67","","","","","","NA"
"2006-12-25 21:00","2006","12","25","21:00","1.4","","-1.3","","82","","2","","6","","","","98.60","","","","","","NA"
"2006-12-25 22:00","2006","12","25","22:00","1.7","","-1.4","","80","","2","","9","","","","98.52","","","","","","NA"
"2006-12-25 23:00","2006","12","25","23:00","1.5","","-1.3","","82","","3","","9","","","","98.45","","","","","","NA"
"2006-12-26 00:00","2006","12","26","00:00","1.2","","-1.0","","85","","2","","13","","","","98.37","","","","","","NA"
"2006-12-26 01:00","2006","12","26","01:00","1.2","","-1.3","","83","","2","","7","","","","98.33","","","","","","NA"
"2006-12-26 02:00","2006","12","26","02:00","1.1","","-1.7","","82","","2","","17","","","","98.27","","","","","","NA"
"2006-12-26 03:00","2006","12","26","03:00","0.9","","-2.3","","79","","3","","19","","","","98.22","","","","","","NA"
"2006-12-26 04:00","2006","12","26","04:00","0.5","","-2.5","","80","","2","","19","","","","98.21","","","","","","NA"
"2006-12-26 05:00","2006","12","26","05:00","-0.1","","-3.6","","77","","2","","19","","","","98.24","","","","-5","","NA"
"2006-12-26 06:00","2006","12","26","06:00","-1.2","","-4.4","","79","","2","","17","","","","98.25","","","","-6","","NA"
"2006-12-26 07:00","2006","12","26","07:00","-2.0","","-5.7","","76","","1","","24","","","","98.22","","","","-8","","NA"
"2006-12-26 08:00","2006","12","26","08:00","-2.9","","-7.2","","72","","1","","24","","","","98.23","","","","-10","","NA"
"2006-12-26 09:00","2006","12","26","09:00","-4.0","","-8.6","","70","","36","","22","","","","98.29","","","","-11","","NA"
"2006-12-26 10:00","2006","12","26","10:00","-4.5","","-9.4","","69","","1","","19","","","","98.35","","","","-11","","NA"
"2006-12-26 11:00","2006","12","26","11:00","-5.3","","-10.9","","65","","1","","17","","","","98.35","","","","-11","","NA"
"2006-12-26 12:00","2006","12","26","12:00","-5.5","","-12.1","","60","","1","","22","","","","98.31","","","","-13","","NA"
"2006-12-26 13:00","2006","12","26","13:00","-5.6","","-12.7","","57","","36","","22","","","","98.30","","","","-13","","NA"
"2006-12-26 14:00","2006","12","26","14:00","-3.8","","-13.2","","48","","33","","7","","","","98.35","","","","-7","","NA"
"2006-12-26 15:00","2006","12","26","15:00","-3.1","","-12.7","","47","","33","","11","","","","98.40","","","","-7","","NA"
"2006-12-26 16:00","2006","12","26","16:00","-4.1","","-13.3","","49","","2","","11","","","","98.50","","","","-9","","NA"
"2006-12-26 17:00","2006","12","26","17:00","-5.3","","-13.2","","54","","36","","11","","","","98.59","","","","-10","","NA"
"2006-12-26 18:00","2006","12","26","18:00","-6.1","","-13.3","","57","","1","","9","","","","98.65","","","","-10","","NA"
"2006-12-26 19:00","2006","12","26","19:00","-6.9","","-13.1","","61","","36","","7","","","","98.68","","","","-10","","NA"
"2006-12-26 20:00","2006","12","26","20:00","-7.6","","-13.3","","64","","3","","9","","","","98.71","","","","-12","","NA"
"2006-12-26 21:00","2006","12","26","21:00","-8.3","","-14.4","","61","","3","","9","","","","98.70","","","","-13","","NA"
"2006-12-26 22:00","2006","12","26","22:00","-8.8","","-13.8","","67","","2","","6","","","","98.72","","","","-12","","NA"
"2006-12-26 23:00","2006","12","26","23:00","-9.0","","-13.5","","70","","1","","7","","","","98.74","","","","-13","","NA"
"2006-12-27 00:00","2006","12","27","00:00","-8.7","","-13.2","","70","","2","","4","","","","98.76","","","","-11","","NA"
"2006-12-27 01:00","2006","12","27","01:00","-8.5","","-12.9","","70","","4","","7","","","","98.74","","","","-12","","NA"
"2006-12-27 02:00","2006","12","27","02:00","-8.3","","-12.8","","70","","2","","6","","","","98.71","","","","-12","","NA"
"2006-12-27 03:00","2006","12","27","03:00","-8.2","","-12.8","","69","","1","","4","","","","98.73","","","","-10","","NA"
"2006-12-27 04:00","2006","12","27","04:00","-8.0","","-12.5","","70","","5","","4","","","","98.68","","","","-10","","NA"
"2006-12-27 05:00","2006","12","27","05:00","-7.9","","-11.2","","77","","34","","6","","","","98.70","","","","-11","","NA"
"2006-12-27 06:00","2006","12","27","06:00","-7.9","","-10.4","","82","","3","","4","","","","98.71","","","","-10","","NA"
"2006-12-27 07:00","2006","12","27","07:00","-7.9","","-10.7","","80","","1","","6","","","","98.77","","","","-11","","NA"
"2006-12-27 08:00","2006","12","27","08:00","-8.0","","-10.2","","84","","4","","6","","","","98.82","","","","-11","","NA"
"2006-12-27 09:00","2006","12","27","09:00","-7.9","","-9.6","","88","","5","","6","","","","98.86","","","","-11","","NA"
"2006-12-27 10:00","2006","12","27","10:00","-7.3","","-9.1","","87","","6","","6","","","","98.90","","","","-10","","NA"
"2006-12-27 11:00","2006","12","27","11:00","-6.4","","-9.3","","80","","13","","6","","","","98.94","","","","-9","","NA"
"2006-12-27 12:00","2006","12","27","12:00","-6.1","","-8.8","","81","","13","","7","","","","98.88","","","","-9","","NA"
"2006-12-27 13:00","2006","12","27","13:00","-5.6","","-7.8","","84","","13","","7","","","","98.85","","","","-9","","NA"
"2006-12-27 14:00","2006","12","27","14:00","-4.8","","-6.8","","86","","9","","6","","","","98.86","","","","-8","","NA"
"2006-12-27 15:00","2006","12","27","15:00","-3.6","","-6.1","","83","","10","","6","","","","98.86","","","","-6","","NA"
"2006-12-27 16:00","2006","12","27","16:00","-3.0","","-4.8","","87","","9","","6","","","","98.92","","","","-5","","NA"
"2006-12-27 17:00","2006","12","27","17:00","-1.1","","-5.0","","75","","21","","22","","","","98.94","","","","-7","","NA"
"2006-12-27 18:00","2006","12","27","18:00","-0.1","","-4.1","","74","","21","","26","","","","98.95","","","","-6","","NA"
"2006-12-27 19:00","2006","12","27","19:00","0.6","","-2.8","","78","","19","","32","","","","98.90","","","","","","NA"
"2006-12-27 20:00","2006","12","27","20:00","2.0","","-1.2","","79","","19","","41","","","","98.82","","","","","","NA"
"2006-12-27 21:00","2006","12","27","21:00","1.8","","-2.4","","74","","27","","32","","","","98.90","","","","","","NA"
"2006-12-27 22:00","2006","12","27","22:00","1.3","","-5.0","","63","","29","","35","","","","99.00","","","","","","NA"
"2006-12-27 23:00","2006","12","27","23:00","0.9","","-5.5","","62","","28","","30","","","","99.14","","","","","","NA"
"2006-12-28 00:00","2006","12","28","00:00","0.1","","-7.6","","56","","30","","20","","","","99.27","","","","","","NA"
"2006-12-28 01:00","2006","12","28","01:00","-1.7","","-8.3","","61","","33","","17","","","","99.43","","","","-7","","NA"
"2006-12-28 02:00","2006","12","28","02:00","-3.2","","-9.4","","62","","34","","13","","","","99.58","","","","-8","","NA"
"2006-12-28 03:00","2006","12","28","03:00","-4.0","","-9.7","","64","","35","","11","","","","99.68","","","","-8","","NA"
"2006-12-28 04:00","2006","12","28","04:00","-4.9","","-9.8","","68","","36","","9","","","","99.82","","","","-9","","NA"
"2006-12-28 05:00","2006","12","28","05:00","-6.1","","-10.2","","73","","2","","9","","","","99.91","","","","-10","","NA"
"2006-12-28 06:00","2006","12","28","06:00","-7.6","","-11.9","","71","","1","","17","","","","100.01","","","","-14","","NA"
"2006-12-28 07:00","2006","12","28","07:00","-8.3","","-12.0","","75","","6","","9","","","","100.14","","","","-13","","NA"
"2006-12-28 08:00","2006","12","28","08:00","-9.3","","-13.0","","74","","3","","6","","","","100.25","","","","-13","","NA"
"2006-12-28 09:00","2006","12","28","09:00","-9.3","","-12.8","","76","","36","","6","","","","100.39","","","","-13","","NA"
"2006-12-28 10:00","2006","12","28","10:00","-8.2","","-12.2","","73","","6","","6","","","","100.46","","","","-11","","NA"
"2006-12-28 11:00","2006","12","28","11:00","-7.7","","-11.9","","72","","6","","9","","","","100.52","","","","-12","","NA"
"2006-12-28 12:00","2006","12","28","12:00","-6.7","","-12.1","","65","","9","","15","","","","100.52","","","","-13","","NA"
"2006-12-28 13:00","2006","12","28","13:00","-5.6","","-11.9","","61","","10","","11","","","","100.52","","","","-10","","NA"
"2006-12-28 14:00","2006","12","28","14:00","-4.3","","-12.0","","55","","8","","7","","","","100.54","","","","-7","","NA"
"2006-12-28 15:00","2006","12","28","15:00","-3.6","","-12.2","","51","","7","","7","","","","100.59","","","","-7","","NA"
"2006-12-28 16:00","2006","12","28","16:00","-4.0","","-12.5","","52","","2","","7","","","","100.66","","","","-7","","NA"
"2006-12-28 17:00","2006","12","28","17:00","-5.7","","-12.6","","58","","2","","9","","","","100.76","","","","-10","","NA"
"2006-12-28 18:00","2006","12","28","18:00","-6.7","","-12.8","","62","","3","","7","","","","100.87","","","","-10","","NA"
"2006-12-28 19:00","2006","12","28","19:00","-7.5","","-12.8","","66","","3","","6","","","","100.94","","","","-11","","NA"
"2006-12-28 20:00","2006","12","28","20:00","-7.6","","-12.8","","66","","5","","13","","","","101.04","","","","-13","","NA"
"2006-12-28 21:00","2006","12","28","21:00","-8.2","","-13.3","","67","","6","","13","","","","101.12","","","","-14","","NA"
"2006-12-28 22:00","2006","12","28","22:00","-9.0","","-14.1","","66","","7","","19","","","","101.16","","","","-16","","NA"
"2006-12-28 23:00","2006","12","28","23:00","-9.4","","-14.6","","66","","6","","15","","","","101.24","","","","-16","","NA"
"2006-12-29 00:00","2006","12","29","00:00","-9.9","","-17.0","","56","","5","","11","","","","101.30","","","","-15","","NA"
"2006-12-29 01:00","2006","12","29","01:00","-10.5","","-17.6","","56","","5","","9","","","","101.33","","","","-15","","NA"
"2006-12-29 02:00","2006","12","29","02:00","-11.0","","-16.6","","63","","6","","15","","","","101.36","","","","-18","","NA"
"2006-12-29 03:00","2006","12","29","03:00","-11.2","","-16.5","","65","","6","","15","","","","101.42","","","","-18","","NA"
"2006-12-29 04:00","2006","12","29","04:00","-11.2","","-16.1","","67","","7","","22","","","","101.42","","","","-20","","NA"
"2006-12-29 05:00","2006","12","29","05:00","-11.4","","-15.7","","70","","7","","15","","","","101.46","","","","-18","","NA"
"2006-12-29 06:00","2006","12","29","06:00","-11.7","","-16.6","","67","","6","","17","","","","101.52","","","","-19","","NA"
"2006-12-29 07:00","2006","12","29","07:00","-11.9","","-17.0","","66","","6","","20","","","","101.55","","","","-20","","NA"
"2006-12-29 08:00","2006","12","29","08:00","-11.3","","-16.3","","66","","7","","19","","","","101.57","","","","-19","","NA"
"2006-12-29 09:00","2006","12","29","09:00","-11.0","","-17.0","","61","","7","","20","","","","101.59","","","","-19","","NA"
"2006-12-29 10:00","2006","12","29","10:00","-9.7","","-14.5","","68","","8","","26","","","","101.67","","","","-19","","NA"
"2006-12-29 11:00","2006","12","29","11:00","-8.9","","-14.8","","62","","9","","20","","","","101.62","","","","-16","","NA"
"2006-12-29 12:00","2006","12","29","12:00","-7.6","","-12.9","","66","","10","","19","","","","101.55","","","","-15","","NA"
"2006-12-29 13:00","2006","12","29","13:00","-6.4","","-12.2","","63","","10","","15","","","","101.53","","","","-12","","NA"
"2006-12-29 14:00","2006","12","29","14:00","-5.6","","-11.8","","62","","10","","17","","","","101.42","","","","-12","","NA"
"2006-12-29 15:00","2006","12","29","15:00","-4.8","","-10.7","","63","","10","","17","","","","101.43","","","","-11","","NA"
"2006-12-29 16:00","2006","12","29","16:00","-4.3","","-11.6","","57","","9","","17","","","","101.41","","","","-10","","NA"
"2006-12-29 17:00","2006","12","29","17:00","-4.1","","-12.4","","52","","8","","13","","","","101.42","","","","-9","","NA"
"2006-12-29 18:00","2006","12","29","18:00","-4.5","","-12.5","","54","","7","","15","","","","101.35","","","","-10","","NA"
"2006-12-29 19:00","2006","12","29","19:00","-4.8","","-12.8","","53","","6","","11","","","","101.34","","","","-9","","NA"
"2006-12-29 20:00","2006","12","29","20:00","-4.4","","-11.1","","59","","8","","17","","","","101.26","","","","-10","","NA"
"2006-12-29 21:00","2006","12","29","21:00","-5.0","","-8.3","","78","","8","","17","","","","101.20","","","","-11","","NA"
"2006-12-29 22:00","2006","12","29","22:00","-5.1","","-9.6","","71","","8","","19","","","","101.09","","","","-12","","NA"
"2006-12-29 23:00","2006","12","29","23:00","-5.2","","-8.3","","79","","8","","15","","","","101.08","","","","-11","","NA"
"2006-12-30 00:00","2006","12","30","00:00","-5.8","","-7.9","","85","","5","","7","","","","101.00","","","","-9","","NA"
"2006-12-30 01:00","2006","12","30","01:00","-5.5","","-6.8","","91","","6","","9","","","","100.91","","","","-10","","NA"
"2006-12-30 02:00","2006","12","30","02:00","-4.9","","-6.0","","92","","7","","13","","","","100.88","","","","-10","","NA"
"2006-12-30 03:00","2006","12","30","03:00","-5.1","","-6.1","","93","","6","","11","","","","100.86","","","","-10","","NA"
"2006-12-30 04:00","2006","12","30","04:00","-4.9","","-5.7","","94","","6","","9","","","","100.80","","","","-9","","NA"
"2006-12-30 05:00","2006","12","30","05:00","-4.5","","-5.2","","95","","6","","7","","","","100.75","","","","-8","","NA"
"2006-12-30 06:00","2006","12","30","06:00","-4.3","","-5.0","","95","","7","","6","","","","100.75","","","","-7","","NA"
"2006-12-30 07:00","2006","12","30","07:00","-4.5","","-5.1","","96","","9","","11","","","","100.72","","","","-9","","NA"
"2006-12-30 08:00","2006","12","30","08:00","-4.7","","-5.4","","95","","9","","11","","","","100.76","","","","-9","","NA"
"2006-12-30 09:00","2006","12","30","09:00","-5.6","","-6.4","","94","","4","","6","","","","100.88","","","","-8","","NA"
"2006-12-30 10:00","2006","12","30","10:00","-5.0","","-5.9","","93","","3","","6","","","","100.89","","","","-8","","NA"
"2006-12-30 11:00","2006","12","30","11:00","-3.7","","-4.5","","94","","33","","4","","","","100.90","","","","-5","","NA"
"2006-12-30 12:00","2006","12","30","12:00","-2.7","","-3.5","","94","","30","","7","","","","100.85","","","","-6","","NA"
"2006-12-30 13:00","2006","12","30","13:00","-1.9","","-2.8","","94","","28","","9","","","","100.78","","","","-5","","NA"
"2006-12-30 14:00","2006","12","30","14:00","-1.5","","-2.6","","92","","30","","13","","","","100.72","","","","-6","","NA"
"2006-12-30 15:00","2006","12","30","15:00","-0.9","","-2.3","","90","","28","","11","","","","100.73","","","","-5","","NA"
"2006-12-30 16:00","2006","12","30","16:00","-0.9","","-2.6","","88","","30","","11","","","","100.77","","","","-5","","NA"
"2006-12-30 17:00","2006","12","30","17:00","-1.1","","-2.1","","93","","29","","13","","","","100.81","","","","-5","","NA"
"2006-12-30 18:00","2006","12","30","18:00","-0.7","","-2.0","","91","","28","","13","","","","100.87","","","","-5","","NA"
"2006-12-30 19:00","2006","12","30","19:00","-0.3","","-2.1","","88","","29","","9","","","","100.87","","","","-3","","NA"
"2006-12-30 20:00","2006","12","30","20:00","-0.6","","-2.1","","90","","30","","4","","","","100.83","","","","-2","","NA"
"2006-12-30 21:00","2006","12","30","21:00","-1.1","","-2.2","","92","","28","","7","","","","100.83","","","","-4","","NA"
"2006-12-30 22:00","2006","12","30","22:00","-1.3","","-2.3","","93","","29","","11","","","","100.83","","","","-5","","NA"
"2006-12-30 23:00","2006","12","30","23:00","-1.2","","-2.3","","92","","30","","9","","","","100.80","","","","-4","","NA"
"2006-12-31 00:00","2006","12","31","00:00","-1.6","","-2.4","","94","","29","","7","","","","100.82","","","","-4","","NA"
"2006-12-31 01:00","2006","12","31","01:00","-1.6","","-2.4","","94","","35","","6","","","","100.80","","","","-4","","NA"
"2006-12-31 02:00","2006","12","31","02:00","-1.6","","-2.4","","94","","31","","2","","","","100.78","","","","-2","","NA"
"2006-12-31 03:00","2006","12","31","03:00","-2.5","","-3.1","","96","","7","","11","","","","100.66","","","","-7","","NA"
"2006-12-31 04:00","2006","12","31","04:00","-2.9","","-3.4","","96","","7","","6","","","","100.60","","","","-5","","NA"
"2006-12-31 05:00","2006","12","31","05:00","-3.1","","-3.5","","97","","9","","9","","","","100.57","","","","-7","","NA"
"2006-12-31 06:00","2006","12","31","06:00","-3.7","","-4.0","","98","","6","","6","","","","100.51","","","","-6","","NA"
"2006-12-31 07:00","2006","12","31","07:00","-3.3","","-3.6","","98","","7","","9","","","","100.46","","","","-7","","NA"
"2006-12-31 08:00","2006","12","31","08:00","-2.6","","-3.0","","97","","9","","17","","","","100.40","","","","-8","","NA"
"2006-12-31 09:00","2006","12","31","09:00","-2.3","","-2.8","","96","","8","","24","","","","100.35","","","","-9","","NA"
"2006-12-31 10:00","2006","12","31","10:00","-1.4","","-2.3","","94","","10","","24","","","","100.40","","","","-8","","NA"
"2006-12-31 11:00","2006","12","31","11:00","-0.8","","-1.6","","94","","9","","30","","","","100.16","","","","-8","","NA"
"2006-12-31 12:00","2006","12","31","12:00","1.8","","0.3","","90","","11","","30","","","","100.02","","","","","","NA"
"2006-12-31 13:00","2006","12","31","13:00","1.2","","-2.2","","78","","12","","41","","","","99.80","","","","","","NA"
"2006-12-31 14:00","2006","12","31","14:00","1.0","","-1.8","","82","","13","","50","","","","99.65","","","","","","NA"
"2006-12-31 15:00","2006","12","31","15:00","1.0","","-1.8","","82","","12","","46","","","","99.46","","","","","","NA"
"2006-12-31 16:00","2006","12","31","16:00","0.8","","-2.4","","79","","11","","46","","","","99.24","","","","","","NA"
"2006-12-31 17:00","2006","12","31","17:00","0.6","","-3.0","","77","","11","","43","","","","99.12","","","","","","NA"
"2006-12-31 18:00","2006","12","31","18:00","0.9","","-2.7","","77","","11","","48","","","","98.91","","","","","","NA"
"2006-12-31 19:00","2006","12","31","19:00","1.2","","-1.9","","80","","11","","44","","","","98.74","","","","","","NA"
"2006-12-31 20:00","2006","12","31","20:00","0.6","","-0.5","","92","","12","","48","","","","98.62","","","","","","NA"
"2006-12-31 21:00","2006","12","31","21:00","1.3","","0.2","","92","","13","","46","","","","98.47","","","","","","NA"
"2006-12-31 22:00","2006","12","31","22:00","1.2","","0.4","","94","","12","","44","","","","98.26","","","","","","NA"
"2006-12-31 23:00","2006","12","31","23:00","1.5","","0.8","","95","","12","","39","","","","98.12","","","","","","NA"
