"Station Name","KILLARNEY (AUT)"
"Province","ONTARIO"
"Latitude","45.97"
"Longitude","-81.48"
"Elevation","196.30"
"Climate Identifier","605DJ25"
"WMO Identifier","71460"
"TC Identifier","WBE"
"All times are specified in Local Standard Time (LST). Add 1 hour to adjust for Daylight Saving Time where and when it is observed."

"Legend"
"E","Estimated"
"M","Missing"
"NA","Not Available"

"Date/Time","Year","Month","Day","Time","Temp (°C)","Temp Flag","Dew Point Temp (°C)","Dew Point Temp Flag","Rel Hum (%)","Rel Hum Flag","Wind Dir (10s deg)","Wind Dir Flag","Wind Spd (km/h)","Wind Spd Flag","Visibility (km)","Visibility Flag","Stn Press (kPa)","Stn Press Flag","Hmdx","Hmdx Flag","Wind Chill","Wind Chill Flag","Weather"
"2014-12-01 00:00","2014","12","01","00:00","-2.8","","-5.3","","83","","2","","7","","","","99.36","","","","-6","","NA"
"2014-12-01 01:00","2014","12","01","01:00","-3.2","","-6.6","","77","","1","","11","","","","99.44","","","","-7","","NA"
"2014-12-01 02:00","2014","12","01","02:00","-3.4","","-7.2","","75","","35","","11","","","","99.52","","","","-8","","NA"
"2014-12-01 03:00","2014","12","01","03:00","-3.2","","-8.5","","66","","33","","14","","","","99.63","","","","-8","","NA"
"2014-12-01 04:00","2014","12","01","04:00","-3.8","","-9.6","","64","","33","","13","","","","99.70","","","","-9","","NA"
"2014-12-01 05:00","2014","12","01","05:00","-4.6","","-10.3","","64","","33","","14","","","","99.79","","","","-10","","NA"
"2014-12-01 06:00","2014","12","01","06:00","-4.4","","-10.1","","64","","30","","7","","","","99.82","","","","-8","","NA"
"2014-12-01 07:00","2014","12","01","07:00","-3.3","","-9.0","","65","","26","","26","","","","99.87","","","","-10","","NA"
"2014-12-01 08:00","2014","12","01","08:00","-3.9","","-11.5","","56","","27","","33","","","","99.92","","","","-12","","NA"
"2014-12-01 09:00","2014","12","01","09:00","-3.9","","-12.3","","52","","28","","38","","","","100.00","","","","-12","","NA"
"2014-12-01 10:00","2014","12","01","10:00","-4.3","","-11.9","","55","","27","","46","","","","100.08","","","","-14","","NA"
"2014-12-01 11:00","2014","12","01","11:00","-4.7","","-10.3","","65","","29","","47","","","","100.15","","","","-14","","NA"
"2014-12-01 12:00","2014","12","01","12:00","-5.2","","-13.6","","52","","30","","40","","","","100.25","","","","-14","","NA"
"2014-12-01 13:00","2014","12","01","13:00","-6.8","","-10.9","","73","","31","","28","","","","100.43","","","","-15","","NA"
"2014-12-01 14:00","2014","12","01","14:00","-7.1","","-13.7","","60","","31","","27","","","","100.58","","","","-15","","NA"
"2014-12-01 15:00","2014","12","01","15:00","-7.8","","-17.1","","47","","30","","31","","","","100.72","","","","-17","","NA"
"2014-12-01 16:00","2014","12","01","16:00","-8.7","","-19.2","","42","","31","","31","","","","100.93","","","","-18","","NA"
"2014-12-01 17:00","2014","12","01","17:00","-9.9","","-20.2","","43","","31","","22","","","","101.10","","","","-18","","NA"
"2014-12-01 18:00","2014","12","01","18:00","-10.5","","-19.8","","46","","32","","17","","","","101.26","","","","-18","","NA"
"2014-12-01 19:00","2014","12","01","19:00","-11.0","","-20.2","","46","","33","","13","","","","101.38","","","","-17","","NA"
"2014-12-01 20:00","2014","12","01","20:00","-11.3","","-19.8","","49","","33","","14","","","","101.45","","","","-18","","NA"
"2014-12-01 21:00","2014","12","01","21:00","-11.8","","-18.9","","55","","36","","6","","","","101.50","","","","-16","","NA"
"2014-12-01 22:00","2014","12","01","22:00","-12.2","","-18.6","","59","","1","","5","","","","101.56","","","","-15","","NA"
"2014-12-01 23:00","2014","12","01","23:00","-13.1","","-18.1","","66","","4","","8","","","","101.53","","","","-18","","NA"
"2014-12-02 00:00","2014","12","02","00:00","-12.7","","-18.7","","61","","5","","6","","","","101.52","","","","-17","","NA"
"2014-12-02 01:00","2014","12","02","01:00","-13.0","","-17.9","","67","","4","","8","","","","101.48","","","","-18","","NA"
"2014-12-02 02:00","2014","12","02","02:00","-13.4","","-18.4","","66","","4","","8","","","","101.50","","","","-18","","NA"
"2014-12-02 03:00","2014","12","02","03:00","-12.4","","-18.7","","59","","6","","12","","","","101.49","","","","-19","","NA"
"2014-12-02 04:00","2014","12","02","04:00","-13.7","","-19.2","","63","","5","","12","","","","101.42","","","","-20","","NA"
"2014-12-02 05:00","2014","12","02","05:00","-13.8","","-20.1","","59","","5","","12","","","","101.41","","","","-21","","NA"
"2014-12-02 06:00","2014","12","02","06:00","-12.8","","-16.9","","71","","5","","14","","","","101.33","","","","-20","","NA"
"2014-12-02 07:00","2014","12","02","07:00","-11.4","","-13.7","","83","","7","","21","","","","101.24","","","","-20","","NA"
"2014-12-02 08:00","2014","12","02","08:00","-10.2","","-11.9","","88","","9","","25","","","","101.15","","","","-19","","NA"
"2014-12-02 09:00","2014","12","02","09:00","-10.8","","-12.7","","86","","6","","15","","","","101.05","","","","-18","","NA"
"2014-12-02 10:00","2014","12","02","10:00","-8.9","","-10.2","","91","","8","","25","","","","100.90","","","","-17","","NA"
"2014-12-02 11:00","2014","12","02","11:00","-4.7","","-9.2","","71","","14","","37","","","","100.77","","","","-13","","NA"
"2014-12-02 12:00","2014","12","02","12:00","-3.9","","-8.7","","69","","16","","37","","","","100.64","","","","-12","","NA"
"2014-12-02 13:00","2014","12","02","13:00","-3.0","","-6.8","","75","","16","","42","","","","100.42","","","","-12","","NA"
"2014-12-02 14:00","2014","12","02","14:00","-2.0","","-5.3","","78","","14","","41","","","","100.23","","","","-10","","NA"
"2014-12-02 15:00","2014","12","02","15:00","-1.5","","-4.5","","80","","14","","44","","","","100.02","","","","-10","","NA"
"2014-12-02 16:00","2014","12","02","16:00","-2.0","","-5.4","","77","","14","","43","","","","99.88","","","","-10","","NA"
"2014-12-02 17:00","2014","12","02","17:00","-2.6","","-5.4","","81","","14","","47","","","","99.88","","","","-11","","NA"
"2014-12-02 18:00","2014","12","02","18:00","-2.2","","-4.8","","83","","14","","46","","","","99.73","","","","-11","","NA"
"2014-12-02 19:00","2014","12","02","19:00","-0.7","","-4.7","","74","","16","","41","","","","99.56","","","","-8","","NA"
"2014-12-02 20:00","2014","12","02","20:00","-0.9","","-4.8","","75","","16","","40","","","","99.46","","","","-9","","NA"
"2014-12-02 21:00","2014","12","02","21:00","-0.5","","-4.1","","77","","18","","38","","","","99.37","","","","-8","","NA"
"2014-12-02 22:00","2014","12","02","22:00","-0.3","","-3.6","","78","","18","","39","","","","99.30","","","","-8","","NA"
"2014-12-02 23:00","2014","12","02","23:00","0.2","","-2.5","","82","","19","","36","","","","99.15","","","","","","NA"
"2014-12-03 00:00","2014","12","03","00:00","0.8","","-2.6","","78","","21","","26","","","","99.01","","","","","","NA"
"2014-12-03 01:00","2014","12","03","01:00","0.5","","-3.4","","75","","23","","34","","","","98.89","","","","","","NA"
"2014-12-03 02:00","2014","12","03","02:00","-0.2","","-1.7","","90","","22","","31","","","","98.80","","","","-7","","NA"
"2014-12-03 03:00","2014","12","03","03:00","-0.4","","-1.5","","92","","24","","20","","","","98.74","","","","-6","","NA"
"2014-12-03 04:00","2014","12","03","04:00","0.1","","-1.6","","88","","24","","21","","","","98.67","","","","","","NA"
"2014-12-03 05:00","2014","12","03","05:00","0.2","","-1.9","","86","","27","","25","","","","98.66","","","","","","NA"
"2014-12-03 06:00","2014","12","03","06:00","0.3","","-3.0","","79","","25","","24","","","","98.65","","","","","","NA"
"2014-12-03 07:00","2014","12","03","07:00","0.1","","-3.1","","79","","26","","25","","","","98.64","","","","","","NA"
"2014-12-03 08:00","2014","12","03","08:00","-0.6","","-3.4","","81","","26","","25","","","","98.65","","","","-7","","NA"
"2014-12-03 09:00","2014","12","03","09:00","-0.5","","-3.2","","82","","26","","19","","","","98.65","","","","-6","","NA"
"2014-12-03 10:00","2014","12","03","10:00","-0.8","","-3.7","","81","","28","","25","","","","98.65","","","","-7","","NA"
"2014-12-03 11:00","2014","12","03","11:00","-1.1","","-3.7","","82","","26","","20","","","","98.66","","","","-7","","NA"
"2014-12-03 12:00","2014","12","03","12:00","-1.8","","-4.1","","84","","29","","30","","","","98.66","","","","-9","","NA"
"2014-12-03 13:00","2014","12","03","13:00","-1.9","","-6.9","","69","","28","","37","","","","98.68","","","","-10","","NA"
"2014-12-03 14:00","2014","12","03","14:00","-1.5","","-6.7","","68","","28","","33","","","","98.74","","","","-9","","NA"
"2014-12-03 15:00","2014","12","03","15:00","-1.5","","-6.3","","70","","27","","30","","","","98.77","","","","-8","","NA"
"2014-12-03 16:00","2014","12","03","16:00","-1.4","","-6.3","","69","","27","","27","","","","98.88","","","","-8","","NA"
"2014-12-03 17:00","2014","12","03","17:00","-1.1","","-7.2","","63","","28","","36","","","","98.95","","","","-9","","NA"
"2014-12-03 18:00","2014","12","03","18:00","-1.4","","-6.6","","67","","27","","30","","","","99.05","","","","-8","","NA"
"2014-12-03 19:00","2014","12","03","19:00","-1.6","","-7.1","","66","","28","","34","","","","99.13","","","","-9","","NA"
"2014-12-03 20:00","2014","12","03","20:00","-1.9","","-7.5","","65","","27","","39","","","","99.19","","","","-10","","NA"
"2014-12-03 21:00","2014","12","03","21:00","-2.9","","-9.7","","60","","30","","44","","","","99.33","","","","-12","","NA"
"2014-12-03 22:00","2014","12","03","22:00","-3.9","","-11.2","","57","","30","","31","","","","99.49","","","","-12","","NA"
"2014-12-03 23:00","2014","12","03","23:00","-4.6","","-12.4","","54","","30","","33","","","","99.56","","","","-13","","NA"
"2014-12-04 00:00","2014","12","04","00:00","-5.1","","-11.6","","60","","31","","27","","","","99.69","","","","-13","","NA"
"2014-12-04 01:00","2014","12","04","01:00","-7.4","","-12.9","","65","","35","","14","","","","99.81","","","","-13","","NA"
"2014-12-04 02:00","2014","12","04","02:00","-7.9","","-14.9","","57","","36","","10","","","","99.95","","","","-13","","NA"
"2014-12-04 03:00","2014","12","04","03:00","-9.3","","-19.7","","43","","33","","14","","","","100.10","","","","-16","","NA"
"2014-12-04 04:00","2014","12","04","04:00","-9.8","","-18.5","","49","","35","","5","","","","100.19","","","","-13","","NA"
"2014-12-04 05:00","2014","12","04","05:00","-10.6","","-19.2","","49","","34","","8","","","","100.28","","","","-15","","NA"
"2014-12-04 06:00","2014","12","04","06:00","-11.1","","-18.8","","53","","35","","7","","","","100.39","","","","-15","","NA"
"2014-12-04 07:00","2014","12","04","07:00","-11.5","","-18.2","","58","","33","","5","","","","100.50","","","","-15","","NA"
"2014-12-04 08:00","2014","12","04","08:00","-12.0","","-18.2","","60","","5","","3","","","","100.59","","","","-14","","NA"
"2014-12-04 09:00","2014","12","04","09:00","-11.3","","-18.4","","56","","8","","9","","","","100.65","","","","-16","","NA"
"2014-12-04 10:00","2014","12","04","10:00","-9.7","","-18.0","","51","","8","","4","","","","100.73","","","","-12","","NA"
"2014-12-04 11:00","2014","12","04","11:00","-9.2","","-15.7","","59","","12","","7","","","","100.81","","","","-13","","NA"
"2014-12-04 12:00","2014","12","04","12:00"
"2014-12-04 13:00","2014","12","04","13:00"
"2014-12-04 14:00","2014","12","04","14:00","-7.8","","-13.6","","63","","21","","11","","","","100.76","","","","-13","","NA"
"2014-12-04 15:00","2014","12","04","15:00","-7.4","","-12.8","","65","","13","","6","","","","100.71","","","","-11","","NA"
"2014-12-04 16:00","2014","12","04","16:00","-7.0","","-11.8","","69","","15","","9","","","","100.72","","","","-11","","NA"
"2014-12-04 17:00","2014","12","04","17:00","-6.6","","-10.6","","73","","12","","13","","","","100.71","","","","-12","","NA"
"2014-12-04 18:00","2014","12","04","18:00","-5.6","","-9.9","","72","","15","","9","","","","100.73","","","","-10","","NA"
"2014-12-04 19:00","2014","12","04","19:00","-4.7","","-9.9","","67","","21","","12","","","","100.71","","","","-9","","NA"
"2014-12-04 20:00","2014","12","04","20:00","-3.9","","-9.3","","66","","20","","17","","","","100.67","","","","-10","","NA"
"2014-12-04 21:00","2014","12","04","21:00","-3.3","","-7.1","","75","","18","","18","","","","100.71","","","","-9","","NA"
"2014-12-04 22:00","2014","12","04","22:00","-3.6","","-7.5","","75","","23","","13","","","","100.67","","","","-8","","NA"
"2014-12-04 23:00","2014","12","04","23:00","-2.0","","-8.1","","63","","18","","19","","","","100.61","","","","-8","","NA"
"2014-12-05 00:00","2014","12","05","00:00","-1.7","","-7.4","","65","","18","","28","","","","100.61","","","","-8","","NA"
"2014-12-05 01:00","2014","12","05","01:00","-1.7","","-7.9","","62","","17","","27","","","","100.56","","","","-8","","NA"
"2014-12-05 02:00","2014","12","05","02:00","-1.0","","-5.6","","71","","18","","25","","","","100.56","","","","-7","","NA"
"2014-12-05 03:00","2014","12","05","03:00","-0.8","","-5.5","","71","","18","","29","","","","100.52","","","","-7","","NA"
"2014-12-05 04:00","2014","12","05","04:00","-0.5","","-5.1","","71","","18","","29","","","","100.47","","","","-7","","NA"
"2014-12-05 05:00","2014","12","05","05:00","-0.4","","-4.8","","72","","18","","30","","","","100.47","","","","-7","","NA"
"2014-12-05 06:00","2014","12","05","06:00","-0.1","","-4.4","","73","","19","","29","","","","100.46","","","","-6","","NA"
"2014-12-05 07:00","2014","12","05","07:00","0.2","","-3.8","","75","","18","","30","","","","100.42","","","","","","NA"
"2014-12-05 08:00","2014","12","05","08:00","0.2","","-3.8","","74","","18","","29","","","","100.38","","","","","","NA"
"2014-12-05 09:00","2014","12","05","09:00","0.5","","-3.6","","74","","16","","27","","","","100.37","","","","","","NA"
"2014-12-05 10:00","2014","12","05","10:00","0.4","","-4.0","","72","","17","","27","","","","100.37","","","","","","NA"
"2014-12-05 11:00","2014","12","05","11:00","0.7","","-3.9","","71","","17","","24","","","","100.32","","","","","","NA"
"2014-12-05 12:00","2014","12","05","12:00","0.7","","-4.4","","69","","16","","22","","","","100.20","","","","","","NA"
"2014-12-05 13:00","2014","12","05","13:00","1.1","","-2.7","","76","","18","","17","","","","100.13","","","","","","NA"
"2014-12-05 14:00","2014","12","05","14:00","1.4","","-1.8","","79","","17","","19","","","","100.07","","","","","","NA"
"2014-12-05 15:00","2014","12","05","15:00","1.9","","-1.0","","81","","18","","22","","","","99.99","","","","","","NA"
"2014-12-05 16:00","2014","12","05","16:00","2.2","","-0.8","","81","","18","","20","","","","99.97","","","","","","NA"
"2014-12-05 17:00","2014","12","05","17:00","2.2","","-0.6","","82","","17","","20","","","","99.95","","","","","","NA"
"2014-12-05 18:00","2014","12","05","18:00","2.4","","-1.1","","77","","19","","20","","","","100.00","","","","","","NA"
"2014-12-05 19:00","2014","12","05","19:00","2.5","","-0.9","","78","","19","","18","","","","100.01","","","","","","NA"
"2014-12-05 20:00","2014","12","05","20:00","2.5","","-0.9","","78","","19","","19","","","","100.00","","","","","","NA"
"2014-12-05 21:00","2014","12","05","21:00","2.6","","-0.3","","81","","21","","15","","","","99.99","","","","","","NA"
"2014-12-05 22:00","2014","12","05","22:00","2.5","","0.0","","84","","21","","14","","","","99.96","","","","","","NA"
"2014-12-05 23:00","2014","12","05","23:00","2.4","","0.1","","84","","23","","12","","","","99.98","","","","","","NA"
"2014-12-06 00:00","2014","12","06","00:00","1.9","","-0.4","","85","","28","","7","","","","100.02","","","","","","NA"
"2014-12-06 01:00","2014","12","06","01:00","1.4","","-0.8","","85","","29","","4","","","","99.99","","","","","","NA"
"2014-12-06 02:00","2014","12","06","02:00","1.6","","-1.2","","82","","31","","10","","","","100.00","","","","","","NA"
"2014-12-06 03:00","2014","12","06","03:00","1.3","","-1.5","","81","","33","","8","","","","100.06","","","","","","NA"
"2014-12-06 04:00","2014","12","06","04:00","1.3","","-1.6","","81","","33","","10","","","","100.07","","","","","","NA"
"2014-12-06 05:00","2014","12","06","05:00","1.1","","-1.8","","81","","32","","10","","","","100.10","","","","","","NA"
"2014-12-06 06:00","2014","12","06","06:00","1.0","","-2.1","","80","","31","","5","","","","100.16","","","","","","NA"
"2014-12-06 07:00","2014","12","06","07:00","0.7","","-2.2","","81","","31","","8","","","","100.24","","","","","","NA"
"2014-12-06 08:00","2014","12","06","08:00","0.7","","-2.3","","81","","30","","6","","","","100.31","","","","","","NA"
"2014-12-06 09:00","2014","12","06","09:00","1.1","","-2.7","","76","","32","","10","","","","100.39","","","","","","NA"
"2014-12-06 10:00","2014","12","06","10:00","1.7","","-3.1","","71","","34","","11","","","","100.49","","","","","","NA"
"2014-12-06 11:00","2014","12","06","11:00","1.4","","-5.6","","59","","35","","17","","","","100.54","","","","","","NA"
"2014-12-06 12:00","2014","12","06","12:00","1.4","","-7.3","","52","","1","","15","","","","100.55","","","","","","NA"
"2014-12-06 13:00","2014","12","06","13:00","1.6","","-9.0","","45","","36","","16","","","","100.58","","","","","","NA"
"2014-12-06 14:00","2014","12","06","14:00","1.5","","-10.0","","42","","34","","15","","","","100.62","","","","","","NA"
"2014-12-06 15:00","2014","12","06","15:00","1.4","","-11.4","","38","","32","","19","","","","100.70","","","","","","NA"
"2014-12-06 16:00","2014","12","06","16:00","1.2","","-11.8","","37","","33","","11","","","","100.78","","","","","","NA"
"2014-12-06 17:00","2014","12","06","17:00","-0.1","","-11.9","","41","","32","","9","","","","100.89","","","","-3","","NA"
"2014-12-06 18:00","2014","12","06","18:00","-0.7","","-13.0","","39","","34","","13","","","","101.03","","","","-5","","NA"
"2014-12-06 19:00","2014","12","06","19:00","-1.5","","-12.8","","42","","34","","11","","","","101.14","","","","-5","","NA"
"2014-12-06 20:00","2014","12","06","20:00","-2.3","","-12.7","","45","","36","","12","","","","101.19","","","","-7","","NA"
"2014-12-06 21:00","2014","12","06","21:00","-3.3","","-13.8","","44","","35","","12","","","","101.28","","","","-8","","NA"
"2014-12-06 22:00","2014","12","06","22:00","-4.3","","-13.4","","49","","35","","10","","","","101.31","","","","-8","","NA"
"2014-12-06 23:00","2014","12","06","23:00","-5.1","","-13.1","","53","","36","","12","","","","101.39","","","","-10","","NA"
"2014-12-07 00:00","2014","12","07","00:00","-5.8","","-13.8","","53","","34","","14","","","","101.46","","","","-11","","NA"
"2014-12-07 01:00","2014","12","07","01:00","-6.3","","-14.1","","54","","3","","4","","","","101.52","","","","-8","","NA"
"2014-12-07 02:00","2014","12","07","02:00","-6.6","","-15.1","","51","","1","","8","","","","101.57","","","","-10","","NA"
"2014-12-07 03:00","2014","12","07","03:00","-7.3","","-15.4","","52","","2","","6","","","","101.63","","","","-10","","NA"
"2014-12-07 04:00","2014","12","07","04:00","-8.1","","-15.4","","56","","36","","2","","","","101.71","","","","-9","","NA"
"2014-12-07 05:00","2014","12","07","05:00","-8.8","","-16.6","","53","","1","","6","","","","101.75","","","","-12","","NA"
"2014-12-07 06:00","2014","12","07","06:00","-8.9","","-16.6","","54","","4","","7","","","","101.83","","","","-13","","NA"
"2014-12-07 07:00","2014","12","07","07:00","-8.6","","-16.0","","55","","7","","10","","","","101.80","","","","-14","","NA"
"2014-12-07 08:00","2014","12","07","08:00","-9.1","","-16.4","","55","","6","","10","","","","101.86","","","","-14","","NA"
"2014-12-07 09:00","2014","12","07","09:00","-8.5","","-14.5","","62","","8","","18","","","","101.91","","","","-16","","NA"
"2014-12-07 10:00","2014","12","07","10:00","-8.1","","-14.5","","60","","8","","22","","","","101.90","","","","-16","","NA"
"2014-12-07 11:00","2014","12","07","11:00","-7.8","","-16.0","","52","","8","","15","","","","101.87","","","","-14","","NA"
"2014-12-07 12:00","2014","12","07","12:00","-7.1","","-15.0","","53","","10","","13","","","","101.80","","","","-13","","NA"
"2014-12-07 13:00","2014","12","07","13:00","-7.0","","-14.4","","55","","11","","12","","","","101.74","","","","-12","","NA"
"2014-12-07 14:00","2014","12","07","14:00","-6.4","","-12.4","","62","","12","","15","","","","101.68","","","","-12","","NA"
"2014-12-07 15:00","2014","12","07","15:00","-6.2","","-10.9","","69","","11","","13","","","","101.61","","","","-12","","NA"
"2014-12-07 16:00","2014","12","07","16:00","-5.6","","-10.0","","71","","11","","17","","","","101.56","","","","-12","","NA"
"2014-12-07 17:00","2014","12","07","17:00","-5.2","","-9.9","","70","","12","","18","","","","101.52","","","","-11","","NA"
"2014-12-07 18:00","2014","12","07","18:00","-4.4","","-9.0","","70","","13","","21","","","","101.46","","","","-11","","NA"
"2014-12-07 19:00","2014","12","07","19:00","-5.1","","-10.0","","69","","8","","21","","","","101.39","","","","-12","","NA"
"2014-12-07 20:00","2014","12","07","20:00","-4.8","","-9.2","","72","","8","","22","","","","101.31","","","","-12","","NA"
"2014-12-07 21:00","2014","12","07","21:00","-2.5","","-7.1","","71","","11","","29","","","","101.19","","","","-10","","NA"
"2014-12-07 22:00","2014","12","07","22:00","-1.6","","-6.5","","70","","14","","36","","","","101.07","","","","-9","","NA"
"2014-12-07 23:00","2014","12","07","23:00","-0.7","","-5.4","","71","","15","","35","","","","100.98","","","","-8","","NA"
"2014-12-08 00:00","2014","12","08","00:00","0.0","","-4.8","","70","","16","","39","","","","100.92","","","","-7","","NA"
"2014-12-08 01:00","2014","12","08","01:00","0.3","","-4.2","","72","","15","","37","","","","100.82","","","","","","NA"
"2014-12-08 02:00","2014","12","08","02:00","0.4","","-3.7","","74","","15","","41","","","","100.73","","","","","","NA"
"2014-12-08 03:00","2014","12","08","03:00","0.6","","-3.3","","75","","15","","42","","","","100.66","","","","","","NA"
"2014-12-08 04:00","2014","12","08","04:00","0.5","","-3.2","","76","","15","","43","","","","100.56","","","","","","NA"
"2014-12-08 05:00","2014","12","08","05:00","0.6","","-2.6","","79","","14","","46","","","","100.46","","","","","","NA"
"2014-12-08 06:00","2014","12","08","06:00","0.9","","-2.2","","80","","14","","43","","","","100.39","","","","","","NA"
"2014-12-08 07:00","2014","12","08","07:00","1.1","","-2.0","","80","","14","","42","","","","100.31","","","","","","NA"
"2014-12-08 08:00","2014","12","08","08:00","1.2","","-1.5","","82","","15","","44","","","","100.24","","","","","","NA"
"2014-12-08 09:00","2014","12","08","09:00","1.1","","-1.9","","80","","15","","43","","","","100.18","","","","","","NA"
"2014-12-08 10:00","2014","12","08","10:00","1.3","","-2.0","","78","","15","","41","","","","100.11","","","","","","NA"
"2014-12-08 11:00","2014","12","08","11:00","1.8","","-1.9","","76","","15","","40","","","","100.02","","","","","","NA"
"2014-12-08 12:00","2014","12","08","12:00","1.7","","-1.9","","77","","15","","42","","","","99.88","","","","","","NA"
"2014-12-08 13:00","2014","12","08","13:00","1.9","","-1.5","","78","","14","","38","","","","99.75","","","","","","NA"
"2014-12-08 14:00","2014","12","08","14:00","2.4","","-1.3","","77","","15","","33","","","","99.65","","","","","","NA"
"2014-12-08 15:00","2014","12","08","15:00","2.8","","-1.2","","75","","15","","36","","","","99.59","","","","","","NA"
"2014-12-08 16:00","2014","12","08","16:00","2.9","","-0.4","","79","","15","","29","","","","99.59","","","","","","NA"
"2014-12-08 17:00","2014","12","08","17:00","3.2","","-0.3","","77","","15","","29","","","","99.58","","","","","","NA"
"2014-12-08 18:00","2014","12","08","18:00","3.3","","-0.2","","78","","15","","28","","","","99.60","","","","","","NA"
"2014-12-08 19:00","2014","12","08","19:00","3.2","","-0.5","","76","","14","","34","","","","99.54","","","","","","NA"
"2014-12-08 20:00","2014","12","08","20:00","3.0","","-0.5","","77","","15","","26","","","","99.55","","","","","","NA"
"2014-12-08 21:00","2014","12","08","21:00","3.0","","-0.5","","78","","15","","21","","","","99.54","","","","","","NA"
"2014-12-08 22:00","2014","12","08","22:00","3.3","","-2.5","","66","","16","","24","","","","99.52","","","","","","NA"
"2014-12-08 23:00","2014","12","08","23:00","3.2","","-2.8","","65","","18","","24","","","","99.50","","","","","","NA"
"2014-12-09 00:00","2014","12","09","00:00","3.1","","-2.6","","66","","18","","22","","","","99.47","","","","","","NA"
"2014-12-09 01:00","2014","12","09","01:00","3.0","","-2.9","","65","","17","","25","","","","99.45","","","","","","NA"
"2014-12-09 02:00","2014","12","09","02:00","2.9","","-2.0","","70","","17","","25","","","","99.44","","","","","","NA"
"2014-12-09 03:00","2014","12","09","03:00","2.9","","-1.5","","73","","16","","21","","","","99.46","","","","","","NA"
"2014-12-09 04:00","2014","12","09","04:00","2.9","","-0.1","","81","","16","","17","","","","99.46","","","","","","NA"
"2014-12-09 05:00","2014","12","09","05:00","2.9","","0.0","","81","","19","","12","","","","99.47","","","","","","NA"
"2014-12-09 06:00","2014","12","09","06:00","1.2","","-0.7","","87","","4","","4","","","","99.52","","","","","","NA"
"2014-12-09 07:00","2014","12","09","07:00","0.5","","-0.5","","93","","3","","5","","","","99.55","","","","","","NA"
"2014-12-09 08:00","2014","12","09","08:00","0.5","","-0.4","","94","","5","","6","","","","99.61","","","","","","NA"
"2014-12-09 09:00","2014","12","09","09:00","0.2","","-0.7","","94","","1","","6","","","","99.68","","","","","","NA"
"2014-12-09 10:00","2014","12","09","10:00","-0.6","","-2.0","","91","","2","","13","","","","99.75","","","","-5","","NA"
"2014-12-09 11:00","2014","12","09","11:00","-0.5","","-2.1","","89","","1","","10","","","","99.83","","","","-4","","NA"
"2014-12-09 12:00","2014","12","09","12:00","-0.2","","-2.5","","84","","2","","16","","","","99.84","","","","-5","","NA"
"2014-12-09 13:00","2014","12","09","13:00","0.1","","-3.0","","80","","2","","17","","","","99.86","","","","","","NA"
"2014-12-09 14:00","2014","12","09","14:00","0.0","","-3.8","","76","","1","","21","","","","99.89","","","","-5","","NA"
"2014-12-09 15:00","2014","12","09","15:00","-0.4","","-4.7","","72","","4","","22","","","","99.98","","","","-6","","NA"
"2014-12-09 16:00","2014","12","09","16:00","-0.8","","-5.1","","73","","3","","18","","","","100.06","","","","-6","","NA"
"2014-12-09 17:00","2014","12","09","17:00","-2.3","","-6.1","","75","","2","","22","","","","100.18","","","","-8","","NA"
"2014-12-09 18:00","2014","12","09","18:00","-3.4","","-7.2","","75","","2","","18","","","","100.26","","","","-9","","NA"
"2014-12-09 19:00","2014","12","09","19:00","-4.6","","-8.8","","73","","3","","18","","","","100.33","","","","-11","","NA"
"2014-12-09 20:00","2014","12","09","20:00","-6.0","","-10.4","","71","","3","","21","","","","100.36","","","","-13","","NA"
"2014-12-09 21:00","2014","12","09","21:00","-7.1","","-11.3","","72","","2","","22","","","","100.39","","","","-15","","NA"
"2014-12-09 22:00","2014","12","09","22:00","-7.9","","-12.2","","72","","3","","16","","","","100.41","","","","-14","","NA"
"2014-12-09 23:00","2014","12","09","23:00","-8.8","","-12.9","","72","","4","","16","","","","100.45","","","","-16","","NA"
"2014-12-10 00:00","2014","12","10","00:00","-9.5","","-13.6","","72","","2","","14","","","","100.49","","","","-16","","NA"
"2014-12-10 01:00","2014","12","10","01:00","-10.3","","-14.4","","72","","2","","21","","","","100.47","","","","-18","","NA"
"2014-12-10 02:00","2014","12","10","02:00","-10.7","","-14.8","","71","","4","","10","","","","100.48","","","","-16","","NA"
"2014-12-10 03:00","2014","12","10","03:00","-11.0","","-15.0","","72","","2","","13","","","","100.45","","","","-17","","NA"
"2014-12-10 04:00","2014","12","10","04:00","-11.3","","-15.1","","74","","1","","17","","","","100.39","","","","-19","","NA"
"2014-12-10 05:00","2014","12","10","05:00","-11.6","","-15.2","","75","","1","","19","","","","100.39","","","","-20","","NA"
"2014-12-10 06:00","2014","12","10","06:00","-11.7","","-15.2","","75","","1","","13","","","","100.46","","","","-18","","NA"
"2014-12-10 07:00","2014","12","10","07:00","-11.5","","-15.0","","75","","1","","12","","","","100.50","","","","-18","","NA"
"2014-12-10 08:00","2014","12","10","08:00","-11.6","","-15.2","","74","","1","","14","","","","100.48","","","","-18","","NA"
"2014-12-10 09:00","2014","12","10","09:00","-10.4","","-15.0","","69","","2","","6","","","","100.43","","","","-14","","NA"
"2014-12-10 10:00","2014","12","10","10:00","-8.5","","-14.0","","64","","1","","7","","","","100.39","","","","-12","","NA"
"2014-12-10 11:00","2014","12","10","11:00","-7.1","","-13.7","","59","","1","","13","","","","100.32","","","","-13","","NA"
"2014-12-10 12:00","2014","12","10","12:00","-5.4","","-13.2","","54","","2","","14","","","","100.20","","","","-11","","NA"
"2014-12-10 13:00","2014","12","10","13:00","-4.6","","-12.9","","52","","2","","18","","","","100.11","","","","-11","","NA"
"2014-12-10 14:00","2014","12","10","14:00","-3.1","","-12.2","","50","","1","","20","","","","99.96","","","","-9","","NA"
"2014-12-10 15:00","2014","12","10","15:00","-2.2","","-11.8","","47","","2","","14","","","","99.91","","","","-7","","NA"
"2014-12-10 16:00","2014","12","10","16:00","-2.7","","-11.9","","49","","1","","12","","","","99.93","","","","-7","","NA"
"2014-12-10 17:00","2014","12","10","17:00","-3.5","","-11.8","","53","","36","","17","","","","99.88","","","","-9","","NA"
"2014-12-10 18:00","2014","12","10","18:00","-4.3","","-11.8","","56","","35","","27","","","","99.81","","","","-12","","NA"
"2014-12-10 19:00","2014","12","10","19:00","-4.9","","-11.8","","58","","35","","27","","","","99.75","","","","-12","","NA"
"2014-12-10 20:00","2014","12","10","20:00","-5.5","","-11.8","","61","","36","","20","","","","99.78","","","","-12","","NA"
"2014-12-10 21:00","2014","12","10","21:00","-6.1","","-12.2","","62","","34","","24","","","","99.68","","","","-14","","NA"
"2014-12-10 22:00","2014","12","10","22:00","-7.1","","-12.3","","66","","32","","17","","","","99.59","","","","-14","","NA"
"2014-12-10 23:00","2014","12","10","23:00","-7.7","","-12.4","","69","","32","","16","","","","99.51","","","","-14","","NA"
"2014-12-11 00:00","2014","12","11","00:00","-8.3","","-12.7","","71","","32","","18","","","","99.40","","","","-15","","NA"
"2014-12-11 01:00","2014","12","11","01:00","-8.8","","-13.3","","70","","32","","19","","","","99.31","","","","-16","","NA"
"2014-12-11 02:00","2014","12","11","02:00","-8.6","","-13.2","","70","","32","","14","","","","99.31","","","","-15","","NA"
"2014-12-11 03:00","2014","12","11","03:00","-8.4","","-13.1","","69","","31","","14","","","","99.25","","","","-15","","NA"
"2014-12-11 04:00","2014","12","11","04:00","-7.9","","-12.9","","67","","31","","17","","","","99.22","","","","-15","","NA"
"2014-12-11 05:00","2014","12","11","05:00","-7.5","","-13.1","","64","","31","","17","","","","99.17","","","","-14","","NA"
"2014-12-11 06:00","2014","12","11","06:00","-6.7","","-12.8","","62","","34","","14","","","","99.13","","","","-12","","NA"
"2014-12-11 07:00","2014","12","11","07:00","-6.4","","-12.7","","61","","32","","16","","","","99.11","","","","-13","","NA"
"2014-12-11 08:00","2014","12","11","08:00","-6.0","","-12.8","","59","","33","","19","","","","99.08","","","","-13","","NA"
"2014-12-11 09:00","2014","12","11","09:00","-4.8","","-14.1","","48","","32","","17","","","","99.08","","","","-11","","NA"
"2014-12-11 10:00","2014","12","11","10:00","-4.2","","-17.9","","34","","33","","15","","","","99.08","","","","-10","","NA"
"2014-12-11 11:00","2014","12","11","11:00","-4.1","","-19.3","","30","","33","","14","","","","99.09","","","","-9","","NA"
"2014-12-11 12:00","2014","12","11","12:00","-3.2","","-20.1","","26","","33","","15","","","","99.03","","","","-8","","NA"
"2014-12-11 13:00","2014","12","11","13:00","-1.9","","-20.2","","23","","32","","14","","","","98.92","","","","-7","","NA"
"2014-12-11 14:00","2014","12","11","14:00","-0.5","","-21.6","","19","","32","","17","","","","98.86","","","","-5","","NA"
"2014-12-11 15:00","2014","12","11","15:00","0.1","","-21.4","","18","","31","","14","","","","98.90","","","","","","NA"
"2014-12-11 16:00","2014","12","11","16:00","-0.1","","-21.0","","19","","31","","8","","","","98.97","","","","-3","","NA"
"2014-12-11 17:00","2014","12","11","17:00","-0.5","","-20.1","","21","","30","","19","","","","98.95","","","","-6","","NA"
"2014-12-11 18:00","2014","12","11","18:00","-0.4","","-19.6","","22","","30","","7","","","","99.07","","","","-3","","NA"
"2014-12-11 19:00","2014","12","11","19:00","-1.0","","-18.8","","25","","31","","11","","","","99.13","","","","-5","","NA"
"2014-12-11 20:00","2014","12","11","20:00","-1.3","","-17.5","","28","","30","","11","","","","99.13","","","","-5","","NA"
"2014-12-11 21:00","2014","12","11","21:00","-1.5","","-16.9","","30","","33","","11","","","","99.16","","","","-5","","NA"
"2014-12-11 22:00","2014","12","11","22:00","-2.4","","-15.4","","36","","32","","8","","","","99.19","","","","-6","","NA"
"2014-12-11 23:00","2014","12","11","23:00","-3.4","","-13.9","","44","","33","","11","","","","99.25","","","","-8","","NA"
"2014-12-12 00:00","2014","12","12","00:00","-3.6","","-11.1","","56","","34","","17","","","","99.28","","","","-9","","NA"
"2014-12-12 01:00","2014","12","12","01:00","-3.9","","-10.2","","61","","33","","18","","","","99.31","","","","-10","","NA"
"2014-12-12 02:00","2014","12","12","02:00","-4.2","","-8.6","","72","","34","","17","","","","99.36","","","","-10","","NA"
"2014-12-12 03:00","2014","12","12","03:00","-4.6","","-8.0","","77","","31","","7","","","","99.44","","","","-8","","NA"
"2014-12-12 04:00","2014","12","12","04:00","-4.8","","-8.9","","73","","29","","12","","","","99.47","","","","-10","","NA"
"2014-12-12 05:00","2014","12","12","05:00","-5.6","","-9.1","","76","","33","","17","","","","99.50","","","","-12","","NA"
"2014-12-12 06:00","2014","12","12","06:00","-5.8","","-9.2","","77","","28","","4","","","","99.56","","","","-8","","NA"
"2014-12-12 07:00","2014","12","12","07:00","-5.8","","-8.7","","80","","28","","5","","","","99.61","","","","-8","","NA"
"2014-12-12 08:00","2014","12","12","08:00","-5.3","","-8.6","","78","","25","","9","","","","99.60","","","","-9","","NA"
"2014-12-12 09:00","2014","12","12","09:00","-4.5","","-7.9","","77","","28","","9","","","","99.68","","","","-8","","NA"
"2014-12-12 10:00","2014","12","12","10:00","-3.9","","-8.1","","73","","33","","12","","","","99.73","","","","-9","","NA"
"2014-12-12 11:00","2014","12","12","11:00","-1.8","","-8.7","","59","","36","","7","","","","99.72","","","","-4","","NA"
"2014-12-12 12:00","2014","12","12","12:00","-1.2","","-7.2","","64","","28","","13","","","","99.63","","","","-5","","NA"
"2014-12-12 13:00","2014","12","12","13:00","-1.1","","-3.3","","85","","29","","14","","","","99.61","","","","-6","","NA"
"2014-12-12 14:00","2014","12","12","14:00","-1.2","","-3.6","","83","","29","","14","","","","99.59","","","","-6","","NA"
"2014-12-12 15:00","2014","12","12","15:00","-1.2","","-3.1","","86","","30","","11","","","","99.55","","","","-5","","NA"
"2014-12-12 16:00","2014","12","12","16:00","-1.0","","-2.4","","90","","29","","13","","","","99.56","","","","-5","","NA"
"2014-12-12 17:00","2014","12","12","17:00","-1.2","","-2.6","","90","","31","","13","","","","99.58","","","","-5","","NA"
"2014-12-12 18:00","2014","12","12","18:00","-1.1","","-2.6","","90","","31","","14","","","","99.59","","","","-6","","NA"
"2014-12-12 19:00","2014","12","12","19:00","-0.6","","-2.2","","89","","31","","15","","","","99.53","","","","-5","","NA"
"2014-12-12 20:00","2014","12","12","20:00","0.1","","-1.9","","86","","30","","18","","","","99.58","","","","","","NA"
"2014-12-12 21:00","2014","12","12","21:00","0.2","","-1.8","","86","","31","","14","","","","99.55","","","","","","NA"
"2014-12-12 22:00","2014","12","12","22:00","0.3","","-1.5","","88","","30","","6","","","","99.53","","","","","","NA"
"2014-12-12 23:00","2014","12","12","23:00","0.5","","-0.9","","90","","30","","7","","","","99.54","","","","","","NA"
"2014-12-13 00:00","2014","12","13","00:00","0.4","","-0.8","","91","","31","","6","","","","99.49","","","","","","NA"
"2014-12-13 01:00","2014","12","13","01:00","0.7","","-0.3","","93","","29","","8","","","","99.45","","","","","","NA"
"2014-12-13 02:00","2014","12","13","02:00","0.6","","-0.2","","94","","28","","17","","","","99.44","","","","","","NA"
"2014-12-13 03:00","2014","12","13","03:00","0.2","","-0.6","","94","","29","","24","","","","99.47","","","","","","NA"
"2014-12-13 04:00","2014","12","13","04:00","-0.1","","-0.8","","95","","29","","19","","","","99.38","","","","-5","","NA"
"2014-12-13 05:00","2014","12","13","05:00","0.1","","-0.6","","95","","28","","22","","","","99.31","","","","","","NA"
"2014-12-13 06:00","2014","12","13","06:00","0.4","","-0.2","","96","","29","","22","","","","99.31","","","","","","NA"
"2014-12-13 07:00","2014","12","13","07:00","0.8","","0.2","","96","","28","","20","","","","99.29","","","","","","NA"
"2014-12-13 08:00","2014","12","13","08:00","0.8","","0.1","","95","","28","","22","","","","99.28","","","","","","NA"
"2014-12-13 09:00","2014","12","13","09:00","0.9","","0.1","","94","","28","","21","","","","99.30","","","","","","NA"
"2014-12-13 10:00","2014","12","13","10:00","0.9","","0.2","","95","","28","","22","","","","99.26","","","","","","NA"
"2014-12-13 11:00","2014","12","13","11:00","1.2","","0.5","","95","","27","","22","","","","99.19","","","","","","NA"
"2014-12-13 12:00","2014","12","13","12:00","1.6","","0.8","","95","","27","","20","","","","99.10","","","","","","NA"
"2014-12-13 13:00","2014","12","13","13:00","1.5","","0.7","","95","","26","","18","","","","99.01","","","","","","NA"
"2014-12-13 14:00","2014","12","13","14:00","1.6","","0.8","","94","","27","","18","","","","98.95","","","","","","NA"
"2014-12-13 15:00","2014","12","13","15:00","2.0","","0.7","","91","","27","","18","","","","98.90","","","","","","NA"
"2014-12-13 16:00","2014","12","13","16:00","2.0","","0.7","","91","","27","","21","","","","98.92","","","","","","NA"
"2014-12-13 17:00","2014","12","13","17:00","1.8","","0.7","","93","","27","","19","","","","98.93","","","","","","NA"
"2014-12-13 18:00","2014","12","13","18:00","1.9","","0.6","","91","","28","","18","","","","98.96","","","","","","NA"
"2014-12-13 19:00","2014","12","13","19:00","1.6","","0.4","","92","","28","","22","","","","98.93","","","","","","NA"
"2014-12-13 20:00","2014","12","13","20:00","1.4","","-0.2","","89","","28","","23","","","","98.92","","","","","","NA"
"2014-12-13 21:00","2014","12","13","21:00","1.1","","-0.2","","92","","31","","8","","","","98.91","","","","","","NA"
"2014-12-13 22:00","2014","12","13","22:00","1.0","","-0.3","","91","","29","","9","","","","98.90","","","","","","NA"
"2014-12-13 23:00","2014","12","13","23:00","1.1","","-0.3","","90","","30","","7","","","","98.90","","","","","","NA"
"2014-12-14 00:00","2014","12","14","00:00","1.2","","-0.5","","89","","29","","8","","","","98.89","","","","","","NA"
"2014-12-14 01:00","2014","12","14","01:00","1.3","","-0.7","","87","","30","","9","","","","98.89","","","","","","NA"
"2014-12-14 02:00","2014","12","14","02:00","1.3","","-0.2","","90","","30","","11","","","","98.93","","","","","","NA"
"2014-12-14 03:00","2014","12","14","03:00","1.3","","-0.1","","90","","29","","9","","","","98.97","","","","","","NA"
"2014-12-14 04:00","2014","12","14","04:00","1.3","","-0.2","","90","","30","","8","","","","98.99","","","","","","NA"
"2014-12-14 05:00","2014","12","14","05:00","1.3","","-0.2","","90","","30","","7","","","","99.01","","","","","","NA"
"2014-12-14 06:00","2014","12","14","06:00","1.4","","-0.2","","89","","30","","7","","","","99.06","","","","","","NA"
"2014-12-14 07:00","2014","12","14","07:00","1.3","","-0.3","","89","","35","","4","","","","99.14","","","","","","NA"
"2014-12-14 08:00","2014","12","14","08:00","1.4","","-0.5","","87","","3","","6","","","","99.18","","","","","","NA"
"2014-12-14 09:00","2014","12","14","09:00","1.4","","-0.5","","87","","33","","2","","","","99.21","","","","","","NA"
"2014-12-14 10:00","2014","12","14","10:00","1.4","","-0.5","","88","","25","","2","","","","99.22","","","","","","NA"
"2014-12-14 11:00","2014","12","14","11:00","1.5","","-0.5","","87","","31","","3","","","","99.27","","","","","","NA"
"2014-12-14 12:00","2014","12","14","12:00","1.6","","-0.5","","86","","31","","7","","","","99.26","","","","","","NA"
"2014-12-14 13:00","2014","12","14","13:00","1.6","","-0.3","","87","","35","","7","","","","99.23","","","","","","NA"
"2014-12-14 14:00","2014","12","14","14:00","1.6","","-0.4","","87","","33","","7","","","","99.20","","","","","","NA"
"2014-12-14 15:00","2014","12","14","15:00","1.6","","-0.3","","87","","33","","3","","","","99.23","","","","","","NA"
"2014-12-14 16:00","2014","12","14","16:00","1.4","","-0.6","","87","","34","","8","","","","99.29","","","","","","NA"
"2014-12-14 17:00","2014","12","14","17:00","1.4","","-0.4","","88","","1","","2","","","","99.33","","","","","","NA"
"2014-12-14 18:00","2014","12","14","18:00","1.3","","-0.5","","88","","0","","1","","","","99.38","","","","","","NA"
"2014-12-14 19:00","2014","12","14","19:00","1.1","","-0.5","","89","","5","","5","","","","99.38","","","","","","NA"
"2014-12-14 20:00","2014","12","14","20:00","1.0","","-0.5","","90","","32","","5","","","","99.46","","","","","","NA"
"2014-12-14 21:00","2014","12","14","21:00","0.8","","-0.5","","91","","1","","1","","","","99.45","","","","","","NA"
"2014-12-14 22:00","2014","12","14","22:00","0.8","","-0.6","","90","","14","","1","","","","99.47","","","","","","NA"
"2014-12-14 23:00","2014","12","14","23:00","0.5","","-0.5","","94","","13","","2","","","","99.45","","","","","","NA"
"2014-12-15 00:00","2014","12","15","00:00","0.4","","-0.4","","94","","10","","2","","","","99.45","","","","","","NA"
"2014-12-15 01:00","2014","12","15","01:00","0.4","","-0.3","","95","","","","0","","","","99.42","","","","","","NA"
"2014-12-15 02:00","2014","12","15","02:00","0.4","","-0.3","","95","","0","","1","","","","99.41","","","","","","NA"
"2014-12-15 03:00","2014","12","15","03:00","0.4","","-0.3","","95","","6","","5","","","","99.42","","","","","","NA"
"2014-12-15 04:00","2014","12","15","04:00","0.4","","-0.3","","95","","5","","3","","","","99.42","","","","","","NA"
"2014-12-15 05:00","2014","12","15","05:00","1.2","","0.5","","95","","14","","9","","","","99.40","","","","","","NA"
"2014-12-15 06:00","2014","12","15","06:00","1.0","","0.3","","95","","11","","13","","","","99.36","","","","","","NA"
"2014-12-15 07:00","2014","12","15","07:00","0.8","","0.2","","96","","10","","16","","","","99.37","","","","","","NA"
"2014-12-15 08:00","2014","12","15","08:00","1.0","","0.4","","96","","11","","19","","","","99.35","","","","","","NA"
"2014-12-15 09:00","2014","12","15","09:00","1.5","","0.9","","96","","10","","18","","","","99.33","","","","","","NA"
"2014-12-15 10:00","2014","12","15","10:00","2.0","","1.4","","96","","11","","16","","","","99.32","","","","","","NA"
"2014-12-15 11:00","2014","12","15","11:00","2.2","","1.5","","96","","9","","13","","","","99.28","","","","","","NA"
"2014-12-15 12:00","2014","12","15","12:00","2.2","","1.5","","96","","8","","15","","","","99.20","","","","","","NA"
"2014-12-15 13:00","2014","12","15","13:00","2.5","","1.9","","96","","9","","16","","","","99.13","","","","","","NA"
"2014-12-15 14:00","2014","12","15","14:00","2.4","","1.8","","96","","9","","16","","","","99.08","","","","","","NA"
"2014-12-15 15:00","2014","12","15","15:00","2.3","","1.7","","96","","8","","15","","","","99.07","","","","","","NA"
"2014-12-15 16:00","2014","12","15","16:00","2.4","","1.8","","96","","9","","21","","","","99.04","","","","","","NA"
"2014-12-15 17:00","2014","12","15","17:00","2.5","","1.9","","96","","9","","20","","","","99.04","","","","","","NA"
"2014-12-15 18:00","2014","12","15","18:00","2.5","","1.9","","96","","8","","18","","","","99.02","","","","","","NA"
"2014-12-15 19:00","2014","12","15","19:00","2.7","","2.1","","96","","9","","18","","","","99.02","","","","","","NA"
"2014-12-15 20:00","2014","12","15","20:00","2.8","","2.2","","96","","9","","18","","","","98.99","","","","","","NA"
"2014-12-15 21:00","2014","12","15","21:00","3.5","","2.9","","96","","13","","15","","","","98.96","","","","","","NA"
"2014-12-15 22:00","2014","12","15","22:00","3.4","","2.8","","96","","13","","16","","","","98.93","","","","","","NA"
"2014-12-15 23:00","2014","12","15","23:00","3.3","","2.7","","96","","13","","18","","","","98.90","","","","","","NA"
"2014-12-16 00:00","2014","12","16","00:00","3.7","","3.1","","96","","13","","16","","","","98.88","","","","","","NA"
"2014-12-16 01:00","2014","12","16","01:00","3.5","","2.9","","96","","13","","14","","","","98.86","","","","","","NA"
"2014-12-16 02:00","2014","12","16","02:00","3.0","","2.5","","96","","10","","14","","","","98.83","","","","","","NA"
"2014-12-16 03:00","2014","12","16","03:00","3.7","","3.1","","96","","10","","17","","","","98.80","","","","","","NA"
"2014-12-16 04:00","2014","12","16","04:00","2.9","","2.3","","96","","9","","17","","","","98.77","","","","","","NA"
"2014-12-16 05:00","2014","12","16","05:00","2.6","","2.1","","96","","9","","18","","","","98.74","","","","","","NA"
"2014-12-16 06:00","2014","12","16","06:00","2.5","","2.0","","96","","9","","22","","","","98.72","","","","","","NA"
"2014-12-16 07:00","2014","12","16","07:00","2.4","","1.8","","96","","9","","16","","","","98.70","","","","","","NA"
"2014-12-16 08:00","2014","12","16","08:00","2.2","","1.6","","96","","8","","18","","","","98.66","","","","","","NA"
"2014-12-16 09:00","2014","12","16","09:00","2.2","","1.7","","96","","8","","12","","","","98.69","","","","","","NA"
"2014-12-16 10:00","2014","12","16","10:00","2.3","","1.8","","96","","9","","12","","","","98.67","","","","","","NA"
"2014-12-16 11:00","2014","12","16","11:00","2.7","","2.1","","96","","6","","11","","","","98.58","","","","","","NA"
"2014-12-16 12:00","2014","12","16","12:00","2.5","","1.9","","96","","8","","18","","","","98.53","","","","","","NA"
"2014-12-16 13:00","2014","12","16","13:00","2.4","","1.9","","96","","9","","19","","","","98.49","","","","","","NA"
"2014-12-16 14:00","2014","12","16","14:00","2.5","","1.9","","96","","9","","18","","","","98.44","","","","","","NA"
"2014-12-16 15:00","2014","12","16","15:00","2.3","","1.6","","95","","11","","19","","","","98.46","","","","","","NA"
"2014-12-16 16:00","2014","12","16","16:00","2.3","","1.6","","95","","11","","18","","","","98.48","","","","","","NA"
"2014-12-16 17:00","2014","12","16","17:00","2.2","","1.4","","95","","9","","12","","","","98.49","","","","","","NA"
"2014-12-16 18:00","2014","12","16","18:00","2.3","","1.6","","95","","7","","11","","","","98.52","","","","","","NA"
"2014-12-16 19:00","2014","12","16","19:00","2.3","","1.4","","94","","7","","15","","","","98.52","","","","","","NA"
"2014-12-16 20:00","2014","12","16","20:00","2.1","","1.1","","94","","6","","7","","","","98.54","","","","","","NA"
"2014-12-16 21:00","2014","12","16","21:00","1.6","","0.7","","94","","6","","10","","","","98.53","","","","","","NA"
"2014-12-16 22:00","2014","12","16","22:00","1.3","","0.5","","94","","5","","8","","","","98.53","","","","","","NA"
"2014-12-16 23:00","2014","12","16","23:00","0.9","","0.2","","95","","2","","5","","","","98.53","","","","","","NA"
"2014-12-17 00:00","2014","12","17","00:00","0.8","","0.1","","95","","2","","7","","","","98.52","","","","","","NA"
"2014-12-17 01:00","2014","12","17","01:00","0.9","","0.2","","95","","2","","7","","","","98.50","","","","","","NA"
"2014-12-17 02:00","2014","12","17","02:00","0.9","","0.1","","94","","1","","7","","","","98.50","","","","","","NA"
"2014-12-17 03:00","2014","12","17","03:00","0.9","","0.0","","94","","36","","5","","","","98.54","","","","","","NA"
"2014-12-17 04:00","2014","12","17","04:00","0.8","","0.0","","94","","34","","4","","","","98.55","","","","","","NA"
"2014-12-17 05:00","2014","12","17","05:00","0.7","","-0.1","","95","","31","","6","","","","98.55","","","","","","NA"
"2014-12-17 06:00","2014","12","17","06:00","-0.1","","-0.9","","94","","34","","14","","","","98.56","","","","-4","","NA"
"2014-12-17 07:00","2014","12","17","07:00","-0.9","","-2.4","","89","","34","","15","","","","98.63","","","","-6","","NA"
"2014-12-17 08:00","2014","12","17","08:00","-1.1","","-2.5","","91","","34","","8","","","","98.68","","","","-4","","NA"
"2014-12-17 09:00","2014","12","17","09:00","-1.6","","-3.7","","86","","36","","11","","","","98.72","","","","-5","","NA"
"2014-12-17 10:00","2014","12","17","10:00","-1.8","","-4.0","","85","","36","","13","","","","98.78","","","","-6","","NA"
"2014-12-17 11:00","2014","12","17","11:00","-2.2","","-4.0","","88","","34","","9","","","","98.81","","","","-6","","NA"
"2014-12-17 12:00","2014","12","17","12:00","-2.2","","-4.2","","86","","35","","10","","","","98.81","","","","-6","","NA"
"2014-12-17 13:00","2014","12","17","13:00","-2.4","","-4.6","","85","","33","","10","","","","98.80","","","","-6","","NA"
"2014-12-17 14:00","2014","12","17","14:00","-2.6","","-5.1","","83","","35","","12","","","","98.82","","","","-7","","NA"
"2014-12-17 15:00","2014","12","17","15:00","-2.9","","-5.4","","83","","35","","9","","","","98.88","","","","-6","","NA"
"2014-12-17 16:00","2014","12","17","16:00","-3.2","","-5.7","","83","","35","","8","","","","98.93","","","","-6","","NA"
"2014-12-17 17:00","2014","12","17","17:00","-3.5","","-6.2","","82","","35","","12","","","","99.01","","","","-8","","NA"
"2014-12-17 18:00","2014","12","17","18:00","-4.0","","-6.0","","86","","35","","9","","","","99.05","","","","-8","","NA"
"2014-12-17 19:00","2014","12","17","19:00","-4.0","","-6.7","","81","","36","","6","","","","99.14","","","","-7","","NA"
"2014-12-17 20:00","2014","12","17","20:00","-4.4","","-7.4","","80","","36","","10","","","","99.20","","","","-9","","NA"
"2014-12-17 21:00","2014","12","17","21:00","-4.7","","-7.5","","81","","36","","8","","","","99.26","","","","-8","","NA"
"2014-12-17 22:00","2014","12","17","22:00","-5.0","","-7.6","","82","","36","","9","","","","99.31","","","","-9","","NA"
"2014-12-17 23:00","2014","12","17","23:00","-5.4","","-8.7","","78","","36","","17","","","","99.36","","","","-11","","NA"
"2014-12-18 00:00","2014","12","18","00:00","-5.8","","-9.0","","78","","36","","11","","","","99.42","","","","-11","","NA"
"2014-12-18 01:00","2014","12","18","01:00","-6.5","","-9.8","","78","","36","","15","","","","99.43","","","","-12","","NA"
"2014-12-18 02:00","2014","12","18","02:00","-6.9","","-10.2","","77","","36","","18","","","","99.45","","","","-14","","NA"
"2014-12-18 03:00","2014","12","18","03:00","-7.3","","-10.7","","77","","36","","16","","","","99.54","","","","-14","","NA"
"2014-12-18 04:00","2014","12","18","04:00","-7.8","","-11.0","","78","","34","","7","","","","99.63","","","","-11","","NA"
"2014-12-18 05:00","2014","12","18","05:00","-7.9","","-10.6","","81","","31","","10","","","","99.70","","","","-13","","NA"
"2014-12-18 06:00","2014","12","18","06:00","-8.6","","-11.4","","80","","33","","10","","","","99.74","","","","-14","","NA"
"2014-12-18 07:00","2014","12","18","07:00","-9.4","","-12.2","","80","","33","","9","","","","99.81","","","","-14","","NA"
"2014-12-18 08:00","2014","12","18","08:00","-9.4","","-12.1","","80","","34","","8","","","","99.84","","","","-14","","NA"
"2014-12-18 09:00","2014","12","18","09:00","-8.5","","-11.5","","79","","30","","10","","","","99.85","","","","-13","","NA"
"2014-12-18 10:00","2014","12","18","10:00","-8.5","","-11.4","","80","","34","","8","","","","99.90","","","","-13","","NA"
"2014-12-18 11:00","2014","12","18","11:00"
"2014-12-18 12:00","2014","12","18","12:00","-8.4","","-12.2","","74","","1","","13","","","","99.77","","","","-14","","NA"
"2014-12-18 13:00","2014","12","18","13:00","-7.2","","-12.0","","68","","1","","10","","","","99.79","","","","-12","","NA"
"2014-12-18 14:00","2014","12","18","14:00","-6.7","","-11.6","","68","","36","","9","","","","99.78","","","","-11","","NA"
"2014-12-18 15:00","2014","12","18","15:00","-6.1","","-11.2","","67","","36","","10","","","","99.80","","","","-11","","NA"
"2014-12-18 16:00","2014","12","18","16:00","-5.7","","-11.0","","66","","1","","6","","","","99.83","","","","-9","","NA"
"2014-12-18 17:00","2014","12","18","17:00","-6.9","","-11.1","","72","","34","","5","","","","99.86","","","","-9","","NA"
"2014-12-18 18:00","2014","12","18","18:00","-7.3","","-11.4","","73","","33","","9","","","","99.90","","","","-12","","NA"
"2014-12-18 19:00","2014","12","18","19:00","-7.9","","-13.7","","63","","35","","2","","","","99.92","","","","-9","","NA"
"2014-12-18 20:00","2014","12","18","20:00","-8.1","","-13.2","","67","","34","","15","","","","99.92","","","","-14","","NA"
"2014-12-18 21:00","2014","12","18","21:00","-8.7","","-12.9","","72","","35","","7","","","","99.91","","","","-13","","NA"
"2014-12-18 22:00","2014","12","18","22:00","-9.0","","-12.7","","75","","5","","1","","","","99.91","","","","-10","","NA"
"2014-12-18 23:00","2014","12","18","23:00","-9.2","","-13.0","","74","","30","","5","","","","99.92","","","","-12","","NA"
"2014-12-19 00:00","2014","12","19","00:00","-9.7","","-13.3","","75","","36","","14","","","","99.96","","","","-16","","NA"
"2014-12-19 01:00","2014","12","19","01:00","-10.3","","-13.2","","79","","33","","9","","","","99.93","","","","-15","","NA"
"2014-12-19 02:00","2014","12","19","02:00","-10.9","","-13.6","","80","","34","","6","","","","99.93","","","","-15","","NA"
"2014-12-19 03:00","2014","12","19","03:00","-10.4","","-13.3","","79","","31","","8","","","","100.00","","","","-15","","NA"
"2014-12-19 04:00","2014","12","19","04:00","-10.5","","-13.0","","82","","30","","4","","","","100.00","","","","-13","","NA"
"2014-12-19 05:00","2014","12","19","05:00","-10.0","","-13.1","","78","","35","","8","","","","99.95","","","","-14","","NA"
"2014-12-19 06:00","2014","12","19","06:00","-9.9","","-13.1","","77","","35","","2","","","","100.02","","","","-11","","NA"
"2014-12-19 07:00","2014","12","19","07:00","-10.3","","-13.1","","80","","34","","4","","","","100.06","","","","-13","","NA"
"2014-12-19 08:00","2014","12","19","08:00","-11.2","","-13.7","","82","","34","","7","","","","100.10","","","","-15","","NA"
"2014-12-19 09:00","2014","12","19","09:00","-10.6","","-13.3","","80","","33","","5","","","","100.15","","","","-14","","NA"
"2014-12-19 10:00","2014","12","19","10:00","-9.1","","-13.4","","71","","8","","2","","","","100.20","","","","-10","","NA"
"2014-12-19 11:00","2014","12","19","11:00","-8.3","","-13.1","","68","","31","","3","","","","100.17","","","","-10","","NA"
"2014-12-19 12:00","2014","12","19","12:00","-7.1","","-12.1","","68","","25","","4","","","","100.13","","","","-9","","NA"
"2014-12-19 13:00","2014","12","19","13:00","-6.4","","-11.4","","68","","29","","9","","","","100.13","","","","-11","","NA"
"2014-12-19 14:00","2014","12","19","14:00","-5.9","","-10.9","","67","","29","","11","","","","100.10","","","","-11","","NA"
"2014-12-19 15:00","2014","12","19","15:00","-6.0","","-11.3","","66","","35","","6","","","","100.12","","","","-9","","NA"
"2014-12-19 16:00","2014","12","19","16:00","-5.6","","-10.9","","66","","33","","6","","","","100.16","","","","-8","","NA"
"2014-12-19 17:00","2014","12","19","17:00","-6.7","","-10.9","","72","","34","","7","","","","100.18","","","","-10","","NA"
"2014-12-19 18:00","2014","12","19","18:00","-7.2","","-11.1","","74","","2","","7","","","","100.22","","","","-11","","NA"
"2014-12-19 19:00","2014","12","19","19:00","-7.2","","-11.0","","74","","1","","4","","","","100.24","","","","-9","","NA"
"2014-12-19 20:00","2014","12","19","20:00","-6.9","","-11.2","","71","","31","","5","","","","100.29","","","","-9","","NA"
"2014-12-19 21:00","2014","12","19","21:00","-6.9","","-11.1","","72","","2","","5","","","","100.29","","","","-9","","NA"
"2014-12-19 22:00","2014","12","19","22:00","-7.3","","-11.0","","75","","36","","3","","","","100.30","","","","-9","","NA"
"2014-12-19 23:00","2014","12","19","23:00","-6.5","","-9.9","","77","","6","","5","","","","100.32","","","","-9","","NA"
"2014-12-20 00:00","2014","12","20","00:00","-7.8","","-9.9","","85","","5","","7","","","","100.27","","","","-11","","NA"
"2014-12-20 01:00","2014","12","20","01:00","-7.8","","-9.8","","86","","7","","8","","","","100.25","","","","-12","","NA"
"2014-12-20 02:00","2014","12","20","02:00","-7.9","","-10.3","","83","","6","","9","","","","100.25","","","","-12","","NA"
"2014-12-20 03:00","2014","12","20","03:00","-8.9","","-11.8","","79","","6","","11","","","","100.22","","","","-14","","NA"
"2014-12-20 04:00","2014","12","20","04:00","-9.2","","-12.4","","78","","3","","5","","","","100.22","","","","-12","","NA"
"2014-12-20 05:00","2014","12","20","05:00","-8.6","","-11.2","","81","","31","","4","","","","100.24","","","","-11","","NA"
"2014-12-20 06:00","2014","12","20","06:00","-9.0","","-11.5","","82","","32","","5","","","","100.27","","","","-12","","NA"
"2014-12-20 07:00","2014","12","20","07:00","-7.8","","-10.0","","84","","4","","2","","","","100.33","","","","-9","","NA"
"2014-12-20 08:00","2014","12","20","08:00","-9.9","","-11.6","","87","","6","","7","","","","100.34","","","","-14","","NA"
"2014-12-20 09:00","2014","12","20","09:00","-8.0","","-11.1","","78","","5","","5","","","","100.36","","","","-11","","NA"
"2014-12-20 10:00","2014","12","20","10:00","-6.5","","-10.9","","71","","9","","5","","","","100.35","","","","-9","","NA"
"2014-12-20 11:00","2014","12","20","11:00","-5.7","","-10.0","","72","","11","","4","","","","100.32","","","","-8","","NA"
"2014-12-20 12:00","2014","12","20","12:00","-4.8","","-9.1","","72","","13","","4","","","","100.26","","","","-7","","NA"
"2014-12-20 13:00","2014","12","20","13:00","-4.0","","-8.2","","73","","15","","5","","","","100.19","","","","-6","","NA"
"2014-12-20 14:00","2014","12","20","14:00","-3.4","","-8.6","","67","","18","","5","","","","100.15","","","","-5","","NA"
"2014-12-20 15:00","2014","12","20","15:00","-2.3","","-8.1","","64","","20","","6","","","","100.13","","","","-5","","NA"
"2014-12-20 16:00","2014","12","20","16:00","-2.3","","-8.5","","62","","26","","5","","","","100.15","","","","-4","","NA"
"2014-12-20 17:00","2014","12","20","17:00","-3.1","","-9.0","","64","","33","","5","","","","100.17","","","","-5","","NA"
"2014-12-20 18:00","2014","12","20","18:00","-3.4","","-8.7","","67","","32","","8","","","","100.18","","","","-7","","NA"
"2014-12-20 19:00","2014","12","20","19:00","-3.8","","-8.7","","69","","32","","8","","","","100.23","","","","-7","","NA"
"2014-12-20 20:00","2014","12","20","20:00","-4.1","","-8.6","","71","","34","","8","","","","100.22","","","","-8","","NA"
"2014-12-20 21:00","2014","12","20","21:00","-4.3","","-8.1","","75","","32","","4","","","","100.20","","","","-6","","NA"
"2014-12-20 22:00","2014","12","20","22:00","-4.5","","-8.2","","75","","34","","2","","","","100.18","","","","-5","","NA"
"2014-12-20 23:00","2014","12","20","23:00","-4.0","","-7.7","","75","","6","","4","","","","100.17","","","","-6","","NA"
"2014-12-21 00:00","2014","12","21","00:00","-4.6","","-8.1","","76","","0","","1","","","","100.15","","","","-5","","NA"
"2014-12-21 01:00","2014","12","21","01:00","-4.3","","-8.1","","75","","4","","4","","","","100.14","","","","-6","","NA"
"2014-12-21 02:00","2014","12","21","02:00","-3.8","","-6.3","","83","","10","","4","","","","100.15","","","","-5","","NA"
"2014-12-21 03:00","2014","12","21","03:00","-4.5","","-6.8","","84","","4","","5","","","","100.18","","","","-7","","NA"
"2014-12-21 04:00","2014","12","21","04:00","-4.1","","-6.2","","85","","8","","4","","","","100.16","","","","-6","","NA"
"2014-12-21 05:00","2014","12","21","05:00","-4.1","","-6.2","","85","","34","","3","","","","100.15","","","","-5","","NA"
"2014-12-21 06:00","2014","12","21","06:00","-4.2","","-7.0","","80","","1","","3","","","","100.17","","","","-5","","NA"
"2014-12-21 07:00","2014","12","21","07:00","-4.5","","-6.8","","84","","5","","5","","","","100.21","","","","-7","","NA"
"2014-12-21 08:00","2014","12","21","08:00","-4.5","","-6.8","","84","","4","","4","","","","100.22","","","","-6","","NA"
"2014-12-21 09:00","2014","12","21","09:00","-4.2","","-6.9","","81","","7","","9","","","","100.22","","","","-8","","NA"
"2014-12-21 10:00","2014","12","21","10:00","-4.2","","-7.2","","79","","7","","10","","","","100.23","","","","-8","","NA"
"2014-12-21 11:00","2014","12","21","11:00","-4.2","","-7.1","","80","","8","","10","","","","100.24","","","","-8","","NA"
"2014-12-21 12:00","2014","12","21","12:00","-4.0","","-6.7","","81","","8","","12","","","","100.16","","","","-9","","NA"
"2014-12-21 13:00","2014","12","21","13:00","-3.5","","-6.3","","81","","8","","13","","","","100.10","","","","-8","","NA"
"2014-12-21 14:00","2014","12","21","14:00","-2.9","","-5.5","","82","","8","","14","","","","100.07","","","","-8","","NA"
"2014-12-21 15:00","2014","12","21","15:00","-2.7","","-5.5","","81","","8","","13","","","","100.04","","","","-7","","NA"
"2014-12-21 16:00","2014","12","21","16:00","-2.4","","-5.2","","81","","8","","14","","","","100.05","","","","-7","","NA"
"2014-12-21 17:00","2014","12","21","17:00","-2.5","","-5.3","","82","","7","","13","","","","100.06","","","","-7","","NA"
"2014-12-21 18:00","2014","12","21","18:00","-2.5","","-5.1","","83","","8","","16","","","","100.07","","","","-8","","NA"
"2014-12-21 19:00","2014","12","21","19:00","-2.5","","-4.8","","84","","7","","13","","","","100.08","","","","-7","","NA"
"2014-12-21 20:00","2014","12","21","20:00","-2.3","","-4.4","","85","","8","","18","","","","100.05","","","","-8","","NA"
"2014-12-21 21:00","2014","12","21","21:00","-1.6","","-3.9","","84","","6","","9","","","","100.03","","","","-5","","NA"
"2014-12-21 22:00","2014","12","21","22:00","1.0","","-1.8","","81","","17","","30","","","","99.98","","","","","","NA"
"2014-12-21 23:00","2014","12","21","23:00","0.9","","-2.2","","80","","18","","32","","","","99.98","","","","","","NA"
"2014-12-22 00:00","2014","12","22","00:00","0.8","","-2.9","","76","","17","","32","","","","99.97","","","","","","NA"
"2014-12-22 01:00","2014","12","22","01:00","0.8","","-2.6","","78","","18","","31","","","","99.96","","","","","","NA"
"2014-12-22 02:00","2014","12","22","02:00","0.7","","-3.4","","74","","19","","27","","","","99.94","","","","","","NA"
"2014-12-22 03:00","2014","12","22","03:00","0.9","","-2.9","","76","","18","","25","","","","99.94","","","","","","NA"
"2014-12-22 04:00","2014","12","22","04:00"
"2014-12-22 05:00","2014","12","22","05:00"
"2014-12-22 06:00","2014","12","22","06:00"
"2014-12-22 07:00","2014","12","22","07:00"
"2014-12-22 08:00","2014","12","22","08:00"
"2014-12-22 09:00","2014","12","22","09:00","0.7","","-3.3","","74","","15","","28","","","","99.84","","","","","","NA"
"2014-12-22 10:00","2014","12","22","10:00","0.3","","-3.6","","75","","17","","28","","","","99.84","","","","","","NA"
"2014-12-22 11:00","2014","12","22","11:00","0.3","","-3.6","","75","","17","","22","","","","99.84","","","","","","NA"
"2014-12-22 12:00","2014","12","22","12:00","0.6","","-2.6","","79","","13","","31","","","","99.73","","","","","","NA"
"2014-12-22 13:00","2014","12","22","13:00","0.3","","-3.0","","79","","13","","31","","","","99.62","","","","","","NA"
"2014-12-22 14:00","2014","12","22","14:00","0.1","","-2.7","","82","","12","","28","","","","99.59","","","","","","NA"
"2014-12-22 15:00","2014","12","22","15:00","-0.1","","-3.1","","80","","11","","29","","","","99.57","","","","-6","","NA"
"2014-12-22 16:00","2014","12","22","16:00","-0.3","","-3.1","","81","","11","","30","","","","99.52","","","","-7","","NA"
"2014-12-22 17:00","2014","12","22","17:00","-0.5","","-3.1","","82","","10","","31","","","","99.50","","","","-7","","NA"
"2014-12-22 18:00","2014","12","22","18:00","-0.5","","-3.3","","82","","10","","33","","","","99.49","","","","-7","","NA"
"2014-12-22 19:00","2014","12","22","19:00","-0.8","","-3.5","","82","","10","","27","","","","99.51","","","","-7","","NA"
"2014-12-22 20:00","2014","12","22","20:00","-0.7","","-3.3","","83","","9","","29","","","","99.47","","","","-7","","NA"
"2014-12-22 21:00","2014","12","22","21:00","-0.8","","-3.6","","82","","9","","27","","","","99.43","","","","-7","","NA"
"2014-12-22 22:00","2014","12","22","22:00","-0.7","","-3.4","","82","","10","","35","","","","99.46","","","","-8","","NA"
"2014-12-22 23:00","2014","12","22","23:00","-0.5","","-2.9","","84","","10","","34","","","","99.43","","","","-8","","NA"
"2014-12-23 00:00","2014","12","23","00:00","-0.8","","-3.3","","83","","9","","29","","","","99.40","","","","-7","","NA"
"2014-12-23 01:00","2014","12","23","01:00","-1.3","","-3.4","","85","","8","","26","","","","99.37","","","","-8","","NA"
"2014-12-23 02:00","2014","12","23","02:00","-1.2","","-3.4","","85","","8","","26","","","","99.35","","","","-8","","NA"
"2014-12-23 03:00","2014","12","23","03:00","-1.4","","-3.4","","86","","7","","24","","","","99.33","","","","-8","","NA"
"2014-12-23 04:00","2014","12","23","04:00","-1.6","","-3.5","","87","","7","","20","","","","99.31","","","","-7","","NA"
"2014-12-23 05:00","2014","12","23","05:00","-2.3","","-4.0","","88","","7","","18","","","","99.19","","","","-8","","NA"
"2014-12-23 06:00","2014","12","23","06:00","-2.7","","-4.2","","89","","7","","19","","","","99.19","","","","-8","","NA"
"2014-12-23 07:00","2014","12","23","07:00","-2.8","","-4.3","","89","","7","","19","","","","99.16","","","","-9","","NA"
"2014-12-23 08:00","2014","12","23","08:00","-2.4","","-3.9","","90","","7","","24","","","","99.19","","","","-9","","NA"
"2014-12-23 09:00","2014","12","23","09:00","-2.3","","-3.7","","90","","8","","24","","","","99.21","","","","-9","","NA"
"2014-12-23 10:00","2014","12","23","10:00","-1.9","","-3.5","","89","","8","","26","","","","99.14","","","","-8","","NA"
"2014-12-23 11:00","2014","12","23","11:00","-1.5","","-3.3","","87","","8","","25","","","","99.13","","","","-8","","NA"
"2014-12-23 12:00","2014","12","23","12:00","-1.4","","-2.8","","90","","7","","27","","","","98.96","","","","-8","","NA"
"2014-12-23 13:00","2014","12","23","13:00","-1.1","","-2.4","","91","","8","","29","","","","98.89","","","","-8","","NA"
"2014-12-23 14:00","2014","12","23","14:00","-0.6","","-1.7","","92","","8","","20","","","","98.87","","","","-6","","NA"
"2014-12-23 15:00","2014","12","23","15:00","-0.4","","-1.3","","94","","8","","11","","","","98.83","","","","-4","","NA"
"2014-12-23 16:00","2014","12","23","16:00","-0.2","","-1.0","","94","","8","","10","","","","98.83","","","","-4","","NA"
"2014-12-23 17:00","2014","12","23","17:00","0.1","","-0.7","","94","","7","","8","","","","98.77","","","","","","NA"
"2014-12-23 18:00","2014","12","23","18:00","0.3","","-0.5","","94","","8","","20","","","","98.71","","","","","","NA"
"2014-12-23 19:00","2014","12","23","19:00","0.5","","-0.2","","95","","8","","18","","","","98.81","","","","","","NA"
"2014-12-23 20:00","2014","12","23","20:00","0.9","","0.3","","95","","8","","18","","","","98.77","","","","","","NA"
"2014-12-23 21:00","2014","12","23","21:00","1.6","","0.9","","96","","8","","23","","","","98.68","","","","","","NA"
"2014-12-23 22:00","2014","12","23","22:00","2.1","","1.5","","96","","7","","9","","","","98.71","","","","","","NA"
"2014-12-23 23:00","2014","12","23","23:00","2.3","","1.7","","96","","7","","12","","","","98.69","","","","","","NA"
"2014-12-24 00:00","2014","12","24","00:00","2.6","","2.0","","96","","6","","7","","","","98.72","","","","","","NA"
"2014-12-24 01:00","2014","12","24","01:00","2.5","","1.9","","96","","5","","7","","","","98.65","","","","","","NA"
"2014-12-24 02:00","2014","12","24","02:00","2.5","","1.9","","96","","3","","6","","","","98.68","","","","","","NA"
"2014-12-24 03:00","2014","12","24","03:00","2.4","","1.8","","96","","6","","9","","","","98.58","","","","","","NA"
"2014-12-24 04:00","2014","12","24","04:00","2.5","","1.9","","96","","6","","8","","","","98.53","","","","","","NA"
"2014-12-24 05:00","2014","12","24","05:00","2.3","","1.7","","96","","7","","13","","","","98.40","","","","","","NA"
"2014-12-24 06:00","2014","12","24","06:00","2.3","","1.8","","96","","7","","14","","","","98.32","","","","","","NA"
"2014-12-24 07:00","2014","12","24","07:00","2.5","","1.9","","96","","7","","10","","","","98.32","","","","","","NA"
"2014-12-24 08:00","2014","12","24","08:00","2.7","","2.2","","96","","5","","2","","","","98.38","","","","","","NA"
"2014-12-24 09:00","2014","12","24","09:00","3.1","","2.5","","96","","2","","7","","","","98.24","","","","","","NA"
"2014-12-24 10:00","2014","12","24","10:00","4.0","","3.3","","96","","2","","5","","","","98.14","","","","","","NA"
"2014-12-24 11:00","2014","12","24","11:00","3.8","","3.2","","96","","8","","3","","","","98.01","","","","","","NA"
"2014-12-24 12:00","2014","12","24","12:00","4.7","","4.0","","96","","3","","5","","","","97.92","","","","","","NA"
"2014-12-24 13:00","2014","12","24","13:00","4.9","","4.3","","96","","4","","9","","","","97.67","","","","","","NA"
"2014-12-24 14:00","2014","12","24","14:00","4.2","","3.6","","96","","2","","9","","","","97.47","","","","","","NA"
"2014-12-24 15:00","2014","12","24","15:00","3.2","","2.6","","96","","7","","13","","","","97.28","","","","","","NA"
"2014-12-24 16:00","2014","12","24","16:00","3.0","","2.4","","96","","6","","11","","","","97.23","","","","","","NA"
"2014-12-24 17:00","2014","12","24","17:00","2.6","","1.9","","96","","6","","17","","","","97.06","","","","","","NA"
"2014-12-24 18:00","2014","12","24","18:00","2.6","","1.8","","95","","4","","10","","","","97.00","","","","","","NA"
"2014-12-24 19:00","2014","12","24","19:00","2.2","","1.5","","95","","3","","7","","","","96.88","","","","","","NA"
"2014-12-24 20:00","2014","12","24","20:00","2.1","","1.3","","95","","4","","10","","","","96.66","","","","","","NA"
"2014-12-24 21:00","2014","12","24","21:00","2.2","","1.4","","95","","3","","9","","","","96.46","","","","","","NA"
"2014-12-24 22:00","2014","12","24","22:00","1.9","","1.0","","94","","1","","14","","","","96.30","","","","","","NA"
"2014-12-24 23:00","2014","12","24","23:00","1.7","","0.9","","94","","34","","11","","","","96.26","","","","","","NA"
"2014-12-25 00:00","2014","12","25","00:00","1.8","","0.6","","92","","1","","21","","","","95.83","","","","","","NA"
"2014-12-25 01:00","2014","12","25","01:00","1.5","","0.4","","92","","33","","22","","","","95.87","","","","","","NA"
"2014-12-25 02:00","2014","12","25","02:00","0.2","","-0.4","","95","","29","","27","","","","96.10","","","","","","NA"
"2014-12-25 03:00","2014","12","25","03:00","0.4","","-0.1","","96","","28","","39","","","","96.34","","","","","","NA"
"2014-12-25 04:00","2014","12","25","04:00","0.4","","-0.1","","96","","28","","40","","","","96.61","","","","","","NA"
"2014-12-25 05:00","2014","12","25","05:00","0.9","","0.4","","96","","28","","39","","","","96.83","","","","","","NA"
"2014-12-25 06:00","2014","12","25","06:00","1.3","","0.6","","96","","28","","43","","","","97.04","","","","","","NA"
"2014-12-25 07:00","2014","12","25","07:00","1.6","","-0.2","","88","","28","","42","","","","97.21","","","","","","NA"
"2014-12-25 08:00","2014","12","25","08:00","1.8","","-0.4","","85","","28","","42","","","","97.38","","","","","","NA"
"2014-12-25 09:00","2014","12","25","09:00","1.6","","-0.7","","85","","28","","43","","","","97.55","","","","","","NA"
"2014-12-25 10:00","2014","12","25","10:00","1.8","","-1.7","","78","","28","","46","","","","97.73","","","","","","NA"
"2014-12-25 11:00","2014","12","25","11:00","1.9","","-1.5","","78","","28","","32","","","","97.94","","","","","","NA"
"2014-12-25 12:00","2014","12","25","12:00","1.8","","-0.8","","83","","27","","32","","","","98.02","","","","","","NA"
"2014-12-25 13:00","2014","12","25","13:00","2.2","","-1.3","","78","","26","","30","","","","98.14","","","","","","NA"
"2014-12-25 14:00","2014","12","25","14:00","2.8","","-1.1","","76","","27","","33","","","","98.28","","","","","","NA"
"2014-12-25 15:00","2014","12","25","15:00","2.5","","-1.3","","76","","26","","28","","","","98.42","","","","","","NA"
"2014-12-25 16:00","2014","12","25","16:00","2.5","","-1.5","","75","","26","","28","","","","98.55","","","","","","NA"
"2014-12-25 17:00","2014","12","25","17:00","2.6","","-1.2","","76","","26","","27","","","","98.66","","","","","","NA"
"2014-12-25 18:00","2014","12","25","18:00","2.8","","-0.9","","77","","27","","28","","","","98.76","","","","","","NA"
"2014-12-25 19:00","2014","12","25","19:00","2.6","","-0.5","","80","","26","","24","","","","98.86","","","","","","NA"
"2014-12-25 20:00","2014","12","25","20:00","2.5","","-0.4","","81","","25","","18","","","","98.94","","","","","","NA"
"2014-12-25 21:00","2014","12","25","21:00","2.7","","-0.6","","79","","26","","18","","","","99.02","","","","","","NA"
"2014-12-25 22:00","2014","12","25","22:00","2.6","","-0.4","","80","","25","","21","","","","99.08","","","","","","NA"
"2014-12-25 23:00","2014","12","25","23:00","2.6","","-0.7","","79","","25","","22","","","","99.16","","","","","","NA"
"2014-12-26 00:00","2014","12","26","00:00","2.6","","-1.0","","77","","25","","22","","","","99.18","","","","","","NA"
"2014-12-26 01:00","2014","12","26","01:00","2.5","","-1.1","","77","","25","","18","","","","99.21","","","","","","NA"
"2014-12-26 02:00","2014","12","26","02:00","2.3","","-1.1","","78","","25","","19","","","","99.27","","","","","","NA"
"2014-12-26 03:00","2014","12","26","03:00","2.2","","-0.9","","80","","25","","15","","","","99.31","","","","","","NA"
"2014-12-26 04:00","2014","12","26","04:00","2.2","","-0.6","","82","","25","","11","","","","99.30","","","","","","NA"
"2014-12-26 05:00","2014","12","26","05:00","2.0","","0.0","","87","","23","","13","","","","99.35","","","","","","NA"
"2014-12-26 06:00","2014","12","26","06:00","2.3","","-0.1","","85","","24","","16","","","","99.35","","","","","","NA"
"2014-12-26 07:00","2014","12","26","07:00","2.2","","0.4","","88","","24","","7","","","","99.37","","","","","","NA"
"2014-12-26 08:00","2014","12","26","08:00","2.3","","0.5","","88","","24","","8","","","","99.34","","","","","","NA"
"2014-12-26 09:00","2014","12","26","09:00","2.0","","0.5","","90","","22","","12","","","","99.37","","","","","","NA"
"2014-12-26 10:00","2014","12","26","10:00","2.3","","0.8","","90","","22","","20","","","","99.45","","","","","","NA"
"2014-12-26 11:00","2014","12","26","11:00","2.5","","1.0","","90","","20","","21","","","","99.42","","","","","","NA"
"2014-12-26 12:00","2014","12","26","12:00","2.6","","1.2","","91","","22","","12","","","","99.37","","","","","","NA"
"2014-12-26 13:00","2014","12","26","13:00","2.6","","1.1","","90","","23","","19","","","","99.30","","","","","","NA"
"2014-12-26 14:00","2014","12","26","14:00","2.5","","0.8","","89","","22","","14","","","","99.27","","","","","","NA"
"2014-12-26 15:00","2014","12","26","15:00","2.8","","0.8","","86","","20","","2","","","","99.28","","","","","","NA"
"2014-12-26 16:00","2014","12","26","16:00","3.1","","0.5","","83","","23","","5","","","","99.32","","","","","","NA"
"2014-12-26 17:00","2014","12","26","17:00","2.8","","0.3","","84","","23","","8","","","","99.36","","","","","","NA"
"2014-12-26 18:00","2014","12","26","18:00","2.7","","0.3","","84","","25","","4","","","","99.42","","","","","","NA"
"2014-12-26 19:00","2014","12","26","19:00","2.6","","0.2","","84","","23","","5","","","","99.43","","","","","","NA"
"2014-12-26 20:00","2014","12","26","20:00","2.4","","0.3","","86","","28","","8","","","","99.49","","","","","","NA"
"2014-12-26 21:00","2014","12","26","21:00","2.1","","0.2","","88","","22","","2","","","","99.50","","","","","","NA"
"2014-12-26 22:00","2014","12","26","22:00","2.2","","0.4","","88","","21","","3","","","","99.52","","","","","","NA"
"2014-12-26 23:00","2014","12","26","23:00","2.1","","0.6","","90","","","","0","","","","99.49","","","","","","NA"
"2014-12-27 00:00","2014","12","27","00:00","2.1","","0.6","","90","","0","","1","","","","99.48","","","","","","NA"
"2014-12-27 01:00","2014","12","27","01:00","2.1","","0.7","","90","","","","0","","","","99.48","","","","","","NA"
"2014-12-27 02:00","2014","12","27","02:00","1.2","","0.1","","92","","9","","3","","","","99.49","","","","","","NA"
"2014-12-27 03:00","2014","12","27","03:00","1.7","","0.6","","92","","6","","5","","","","99.49","","","","","","NA"
"2014-12-27 04:00","2014","12","27","04:00","1.6","","0.4","","92","","7","","5","","","","99.46","","","","","","NA"
"2014-12-27 05:00","2014","12","27","05:00","1.2","","0.4","","94","","9","","7","","","","99.40","","","","","","NA"
"2014-12-27 06:00","2014","12","27","06:00","1.8","","1.1","","95","","7","","5","","","","99.40","","","","","","NA"
"2014-12-27 07:00","2014","12","27","07:00","2.0","","1.2","","95","","7","","8","","","","99.37","","","","","","NA"
"2014-12-27 08:00","2014","12","27","08:00","1.7","","1.0","","95","","8","","12","","","","99.29","","","","","","NA"
"2014-12-27 09:00","2014","12","27","09:00","1.9","","1.3","","96","","11","","14","","","","99.25","","","","","","NA"
"2014-12-27 10:00","2014","12","27","10:00","1.9","","1.3","","96","","9","","9","","","","99.29","","","","","","NA"
"2014-12-27 11:00","2014","12","27","11:00","2.5","","1.8","","96","","10","","11","","","","99.17","","","","","","NA"
"2014-12-27 12:00","2014","12","27","12:00","2.2","","1.5","","96","","8","","11","","","","98.92","","","","","","NA"
"2014-12-27 13:00","2014","12","27","13:00","3.1","","2.4","","96","","14","","17","","","","98.61","","","","","","NA"
"2014-12-27 14:00","2014","12","27","14:00","3.2","","2.6","","96","","14","","19","","","","98.46","","","","","","NA"
"2014-12-27 15:00","2014","12","27","15:00","3.8","","3.1","","95","","18","","29","","","","98.36","","","","","","NA"
"2014-12-27 16:00","2014","12","27","16:00","4.9","","4.1","","94","","23","","26","","","","98.31","","","","","","NA"
"2014-12-27 17:00","2014","12","27","17:00","4.7","","3.7","","93","","23","","33","","","","98.24","","","","","","NA"
"2014-12-27 18:00","2014","12","27","18:00","4.7","","3.8","","94","","23","","31","","","","98.20","","","","","","NA"
"2014-12-27 19:00","2014","12","27","19:00","5.9","","4.4","","90","","26","","24","","","","98.24","","","","","","NA"
"2014-12-27 20:00","2014","12","27","20:00","4.7","","2.2","","84","","28","","36","","","","98.25","","","","","","NA"
"2014-12-27 21:00","2014","12","27","21:00","2.1","","0.2","","88","","28","","40","","","","98.29","","","","","","NA"
"2014-12-27 22:00","2014","12","27","22:00","1.8","","0.0","","88","","28","","32","","","","98.38","","","","","","NA"
"2014-12-27 23:00","2014","12","27","23:00","1.6","","-0.6","","86","","28","","32","","","","98.48","","","","","","NA"
"2014-12-28 00:00","2014","12","28","00:00","1.1","","-1.4","","83","","28","","28","","","","98.60","","","","","","NA"
"2014-12-28 01:00","2014","12","28","01:00","0.6","","-2.6","","79","","29","","21","","","","98.67","","","","","","NA"
"2014-12-28 02:00","2014","12","28","02:00","0.2","","-5.2","","67","","30","","24","","","","98.71","","","","","","NA"
"2014-12-28 03:00","2014","12","28","03:00","-0.5","","-5.8","","67","","31","","17","","","","98.81","","","","-5","","NA"
"2014-12-28 04:00","2014","12","28","04:00","-0.6","","-5.5","","70","","30","","23","","","","98.86","","","","-6","","NA"
"2014-12-28 05:00","2014","12","28","05:00","-1.3","","-6.8","","66","","34","","12","","","","98.89","","","","-5","","NA"
"2014-12-28 06:00","2014","12","28","06:00","-1.0","","-6.6","","66","","29","","17","","","","98.92","","","","-6","","NA"
"2014-12-28 07:00","2014","12","28","07:00","-1.0","","-5.7","","70","","29","","17","","","","98.98","","","","-6","","NA"
"2014-12-28 08:00","2014","12","28","08:00","-1.5","","-5.6","","74","","32","","11","","","","99.06","","","","-5","","NA"
"2014-12-28 09:00","2014","12","28","09:00","-1.4","","-6.7","","67","","31","","17","","","","99.12","","","","-7","","NA"
"2014-12-28 10:00","2014","12","28","10:00","-0.7","","-6.4","","65","","28","","15","","","","99.13","","","","-5","","NA"
"2014-12-28 11:00","2014","12","28","11:00","-0.5","","-6.3","","65","","26","","23","","","","99.13","","","","-6","","NA"
"2014-12-28 12:00","2014","12","28","12:00","-0.6","","-8.6","","54","","27","","29","","","","99.09","","","","-7","","NA"
"2014-12-28 13:00","2014","12","28","13:00","-0.5","","-8.2","","56","","27","","25","","","","99.05","","","","-7","","NA"
"2014-12-28 14:00","2014","12","28","14:00","-0.3","","-9.1","","51","","27","","25","","","","99.04","","","","-6","","NA"
"2014-12-28 15:00","2014","12","28","15:00","-0.3","","-7.6","","58","","29","","27","","","","99.03","","","","-7","","NA"
"2014-12-28 16:00","2014","12","28","16:00","-0.8","","-7.0","","62","","28","","32","","","","99.09","","","","-8","","NA"
"2014-12-28 17:00","2014","12","28","17:00","-1.6","","-6.0","","72","","28","","32","","","","99.16","","","","-9","","NA"
"2014-12-28 18:00","2014","12","28","18:00","-2.0","","-7.9","","64","","31","","24","","","","99.26","","","","-8","","NA"
"2014-12-28 19:00","2014","12","28","19:00","-3.1","","-9.7","","60","","34","","14","","","","99.38","","","","-8","","NA"
"2014-12-28 20:00","2014","12","28","20:00","-3.5","","-11.2","","55","","32","","17","","","","99.48","","","","-9","","NA"
"2014-12-28 21:00","2014","12","28","21:00","-4.8","","-11.8","","58","","33","","16","","","","99.53","","","","-11","","NA"
"2014-12-28 22:00","2014","12","28","22:00","-5.5","","-12.2","","60","","33","","18","","","","99.60","","","","-12","","NA"
"2014-12-28 23:00","2014","12","28","23:00","-6.6","","-12.8","","61","","34","","10","","","","99.68","","","","-11","","NA"
"2014-12-29 00:00","2014","12","29","00:00","-7.0","","-13.7","","59","","33","","17","","","","99.75","","","","-13","","NA"
"2014-12-29 01:00","2014","12","29","01:00","-7.6","","-14.1","","60","","32","","16","","","","99.79","","","","-14","","NA"
"2014-12-29 02:00","2014","12","29","02:00","-8.2","","-13.9","","64","","33","","8","","","","99.85","","","","-12","","NA"
"2014-12-29 03:00","2014","12","29","03:00","-8.5","","-14.0","","64","","33","","5","","","","99.92","","","","-11","","NA"
"2014-12-29 04:00","2014","12","29","04:00","-8.6","","-14.1","","64","","33","","6","","","","99.96","","","","-12","","NA"
"2014-12-29 05:00","2014","12","29","05:00","-8.5","","-14.3","","63","","34","","4","","","","99.94","","","","-11","","NA"
"2014-12-29 06:00","2014","12","29","06:00","-8.6","","-13.3","","69","","6","","4","","","","99.95","","","","-11","","NA"
"2014-12-29 07:00","2014","12","29","07:00","-8.5","","-12.9","","70","","36","","6","","","","100.01","","","","-12","","NA"
"2014-12-29 08:00","2014","12","29","08:00","-9.4","","-13.7","","71","","36","","9","","","","100.04","","","","-14","","NA"
"2014-12-29 09:00","2014","12","29","09:00","-9.7","","-14.8","","66","","1","","10","","","","100.10","","","","-15","","NA"
"2014-12-29 10:00","2014","12","29","10:00","-9.2","","-14.5","","65","","35","","7","","","","100.18","","","","-13","","NA"
"2014-12-29 11:00","2014","12","29","11:00","-8.9","","-14.7","","63","","33","","10","","","","100.21","","","","-14","","NA"
"2014-12-29 12:00","2014","12","29","12:00","-8.1","","-14.3","","61","","31","","11","","","","100.17","","","","-13","","NA"
"2014-12-29 13:00","2014","12","29","13:00","-8.2","","-14.8","","59","","33","","14","","","","100.14","","","","-14","","NA"
"2014-12-29 14:00","2014","12","29","14:00","-7.5","","-14.6","","57","","30","","18","","","","100.10","","","","-14","","NA"
"2014-12-29 15:00","2014","12","29","15:00","-7.2","","-15.6","","51","","31","","18","","","","100.12","","","","-14","","NA"
"2014-12-29 16:00","2014","12","29","16:00","-7.8","","-16.5","","50","","33","","15","","","","100.20","","","","-14","","NA"
"2014-12-29 17:00","2014","12","29","17:00","-8.3","","-17.0","","49","","32","","12","","","","100.24","","","","-14","","NA"
"2014-12-29 18:00","2014","12","29","18:00","-8.8","","-17.7","","49","","32","","17","","","","100.32","","","","-16","","NA"
"2014-12-29 19:00","2014","12","29","19:00","-9.4","","-19.0","","46","","32","","15","","","","100.37","","","","-16","","NA"
"2014-12-29 20:00","2014","12","29","20:00","-10.1","","-18.7","","49","","32","","10","","","","100.43","","","","-15","","NA"
"2014-12-29 21:00","2014","12","29","21:00","-10.7","","-19.6","","48","","31","","16","","","","100.46","","","","-18","","NA"
"2014-12-29 22:00","2014","12","29","22:00","-10.8","","-18.7","","53","","32","","16","","","","100.49","","","","-18","","NA"
"2014-12-29 23:00","2014","12","29","23:00","-11.2","","-18.9","","53","","32","","16","","","","100.53","","","","-18","","NA"
"2014-12-30 00:00","2014","12","30","00:00","-11.7","","-18.6","","56","","33","","11","","","","100.55","","","","-18","","NA"
"2014-12-30 01:00","2014","12","30","01:00","-12.1","","-18.4","","59","","34","","11","","","","100.56","","","","-18","","NA"
"2014-12-30 02:00","2014","12","30","02:00","-12.7","","-19.1","","59","","34","","8","","","","100.60","","","","-18","","NA"
"2014-12-30 03:00","2014","12","30","03:00","-13.8","","-19.7","","61","","2","","4","","","","100.66","","","","-17","","NA"
"2014-12-30 04:00","2014","12","30","04:00","-14.1","","-20.3","","59","","2","","7","","","","100.70","","","","-19","","NA"
"2014-12-30 05:00","2014","12","30","05:00","-14.2","","-20.0","","61","","4","","5","","","","100.68","","","","-18","","NA"
"2014-12-30 06:00","2014","12","30","06:00","-14.4","","-20.5","","60","","3","","5","","","","100.61","","","","-18","","NA"
"2014-12-30 07:00","2014","12","30","07:00","-15.0","","-20.9","","61","","2","","6","","","","100.67","","","","-19","","NA"
"2014-12-30 08:00","2014","12","30","08:00","-14.7","","-20.3","","62","","36","","4","","","","100.71","","","","-18","","NA"
"2014-12-30 09:00","2014","12","30","09:00","-14.2","","-19.6","","64","","34","","5","","","","100.76","","","","-18","","NA"
"2014-12-30 10:00","2014","12","30","10:00","-13.7","","-19.2","","63","","1","","4","","","","100.78","","","","-16","","NA"
"2014-12-30 11:00","2014","12","30","11:00","-13.0","","-18.4","","64","","9","","3","","","","100.78","","","","-15","","NA"
"2014-12-30 12:00","2014","12","30","12:00","-12.3","","-19.0","","58","","35","","9","","","","100.69","","","","-18","","NA"
"2014-12-30 13:00","2014","12","30","13:00","-11.2","","-18.6","","54","","35","","10","","","","100.59","","","","-17","","NA"
"2014-12-30 14:00","2014","12","30","14:00","-10.5","","-17.3","","57","","33","","13","","","","100.51","","","","-17","","NA"
"2014-12-30 15:00","2014","12","30","15:00","-9.9","","-16.4","","59","","30","","9","","","","100.50","","","","-15","","NA"
"2014-12-30 16:00","2014","12","30","16:00","-9.9","","-16.1","","60","","27","","9","","","","100.47","","","","-15","","NA"
"2014-12-30 17:00","2014","12","30","17:00","-10.0","","-15.0","","67","","25","","11","","","","100.43","","","","-16","","NA"
"2014-12-30 18:00","2014","12","30","18:00","-9.6","","-14.1","","69","","25","","10","","","","100.38","","","","-15","","NA"
"2014-12-30 19:00","2014","12","30","19:00","-9.2","","-13.3","","72","","26","","10","","","","100.33","","","","-14","","NA"
"2014-12-30 20:00","2014","12","30","20:00","-9.6","","-11.4","","87","","34","","8","","","","100.30","","","","-14","","NA"
"2014-12-30 21:00","2014","12","30","21:00","-10.0","","-14.1","","72","","32","","16","","","","100.28","","","","-17","","NA"
"2014-12-30 22:00","2014","12","30","22:00","-11.8","","-15.4","","75","","34","","9","","","","100.29","","","","-17","","NA"
"2014-12-30 23:00","2014","12","30","23:00","-12.8","","-16.3","","75","","33","","7","","","","100.25","","","","-17","","NA"
"2014-12-31 00:00","2014","12","31","00:00","-13.5","","-17.4","","73","","33","","5","","","","100.22","","","","-17","","NA"
"2014-12-31 01:00","2014","12","31","01:00","-13.3","","-17.4","","71","","33","","7","","","","100.17","","","","-18","","NA"
"2014-12-31 02:00","2014","12","31","02:00","-13.1","","-16.9","","73","","32","","8","","","","100.14","","","","-18","","NA"
"2014-12-31 03:00","2014","12","31","03:00","-12.1","","-15.5","","76","","31","","10","","","","100.12","","","","-18","","NA"
"2014-12-31 04:00","2014","12","31","04:00","-11.9","","-13.7","","86","","30","","10","","","","100.05","","","","-18","","NA"
"2014-12-31 05:00","2014","12","31","05:00","-11.9","","-13.6","","87","","32","","10","","","","99.94","","","","-18","","NA"
"2014-12-31 06:00","2014","12","31","06:00","-11.3","","-12.9","","87","","32","","13","","","","99.89","","","","-18","","NA"
"2014-12-31 07:00","2014","12","31","07:00","-11.5","","-13.1","","88","","31","","6","","","","99.85","","","","-15","","NA"
"2014-12-31 08:00","2014","12","31","08:00","-11.9","","-13.6","","87","","33","","7","","","","99.77","","","","-16","","NA"
"2014-12-31 09:00","2014","12","31","09:00","-9.9","","-13.9","","73","","26","","27","","","","99.73","","","","-19","","NA"
"2014-12-31 10:00","2014","12","31","10:00","-9.5","","-13.2","","75","","27","","31","","","","99.69","","","","-19","","NA"
"2014-12-31 11:00","2014","12","31","11:00","-8.8","","-12.2","","77","","26","","26","","","","99.60","","","","-17","","NA"
"2014-12-31 12:00","2014","12","31","12:00","-8.2","","-12.6","","71","","25","","36","","","","99.42","","","","-18","","NA"
"2014-12-31 13:00","2014","12","31","13:00","-8.3","","-12.6","","71","","25","","40","","","","99.29","","","","-18","","NA"
"2014-12-31 14:00","2014","12","31","14:00","-8.2","","-12.5","","71","","25","","40","","","","99.14","","","","-18","","NA"
"2014-12-31 15:00","2014","12","31","15:00","-8.1","","-12.9","","69","","25","","43","","","","99.04","","","","-19","","NA"
"2014-12-31 16:00","2014","12","31","16:00","-8.0","","-12.3","","71","","24","","39","","","","98.95","","","","-18","","NA"
"2014-12-31 17:00","2014","12","31","17:00","-7.7","","-12.7","","67","","24","","37","","","","98.86","","","","-17","","NA"
"2014-12-31 18:00","2014","12","31","18:00","-7.2","","-12.1","","68","","25","","39","","","","98.77","","","","-17","","NA"
"2014-12-31 19:00","2014","12","31","19:00","-6.6","","-11.2","","70","","24","","53","","","","98.65","","","","-17","","NA"
"2014-12-31 20:00","2014","12","31","20:00","-6.5","","-11.9","","66","","25","","47","","","","98.59","","","","-17","","NA"
"2014-12-31 21:00","2014","12","31","21:00","-6.3","","-11.1","","69","","25","","47","","","","98.51","","","","-16","","NA"
"2014-12-31 22:00","2014","12","31","22:00","-6.2","","-9.9","","75","","25","","42","","","","98.44","","","","-16","","NA"
"2014-12-31 23:00","2014","12","31","23:00","-8.1","","-10.3","","84","","30","","18","","","","98.44","","","","-15","","NA"
