"Station Name","KILLARNEY (AUT)"
"Province","ONTARIO"
"Latitude","45.97"
"Longitude","-81.48"
"Elevation","196.30"
"Climate Identifier","605DJ25"
"WMO Identifier","71460"
"TC Identifier","WBE"
"All times are specified in Local Standard Time (LST). Add 1 hour to adjust for Daylight Saving Time where and when it is observed."

"Legend"
"E","Estimated"
"M","Missing"
"NA","Not Available"

"Date/Time","Year","Month","Day","Time","Temp (°C)","Temp Flag","Dew Point Temp (°C)","Dew Point Temp Flag","Rel Hum (%)","Rel Hum Flag","Wind Dir (10s deg)","Wind Dir Flag","Wind Spd (km/h)","Wind Spd Flag","Visibility (km)","Visibility Flag","Stn Press (kPa)","Stn Press Flag","Hmdx","Hmdx Flag","Wind Chill","Wind Chill Flag","Weather"
"2010-08-01 00:00","2010","08","01","00:00","16.4","","12.0","","75","","3","","2","","","","99.22","","","","","","NA"
"2010-08-01 01:00","2010","08","01","01:00","16.3","","12.0","","76","","1","","2","","","","99.21","","","","","","NA"
"2010-08-01 02:00","2010","08","01","02:00","15.5","","11.6","","78","","4","","4","","","","99.21","","","","","","NA"
"2010-08-01 03:00","2010","08","01","03:00","15.2","","11.5","","79","","8","","4","","","","99.21","","","","","","NA"
"2010-08-01 04:00","2010","08","01","04:00","16.2","","11.4","","73","","5","","4","","","","99.26","","","","","","NA"
"2010-08-01 05:00","2010","08","01","05:00","15.7","","13.3","","86","","8","","9","","","","99.25","","","","","","NA"
"2010-08-01 06:00","2010","08","01","06:00","16.1","","11.6","","75","","7","","7","","","","99.34","","","","","","NA"
"2010-08-01 07:00","2010","08","01","07:00","16.0","","12.8","","81","","8","","11","","","","99.32","","","","","","NA"
"2010-08-01 08:00","2010","08","01","08:00","16.3","","13.7","","85","","8","","13","","","","99.31","","","","","","NA"
"2010-08-01 09:00","2010","08","01","09:00","17.1","","14.9","","87","","7","","11","","","","99.30","","","","","","NA"
"2010-08-01 10:00","2010","08","01","10:00","17.4","","15.0","","86","","8","","6","","","","99.31","","","","","","NA"
"2010-08-01 11:00","2010","08","01","11:00","18.0","","15.0","","83","","8","","9","","","","99.37","","","","","","NA"
"2010-08-01 12:00","2010","08","01","12:00","18.0","","15.4","","85","","9","","9","","","","99.34","","","","","","NA"
"2010-08-01 13:00","2010","08","01","13:00","17.7","","16.5","","93","","8","","15","","","","99.29","","","","","","NA"
"2010-08-01 14:00","2010","08","01","14:00","17.8","","16.9","","94","","15","","11","","","","99.32","","","","","","NA"
"2010-08-01 15:00","2010","08","01","15:00","18.0","","16.7","","92","","17","","4","","","","99.29","","","","","","NA"
"2010-08-01 16:00","2010","08","01","16:00","16.9","","15.9","","94","","13","","9","","","","99.25","","","","","","NA"
"2010-08-01 17:00","2010","08","01","17:00","17.1","","16.4","","96","","8","","9","","","","99.25","","","","","","NA"
"2010-08-01 18:00","2010","08","01","18:00","17.3","","16.6","","96","","8","","11","","","","99.22","","","","","","NA"
"2010-08-01 19:00","2010","08","01","19:00","17.5","","16.6","","94","","8","","11","","","","99.17","","","","","","NA"
"2010-08-01 20:00","2010","08","01","20:00","17.8","","16.9","","94","","8","","9","","","","99.19","","","","","","NA"
"2010-08-01 21:00","2010","08","01","21:00","17.7","","16.9","","95","","1","","2","","","","99.26","","","","","","NA"
"2010-08-01 22:00","2010","08","01","22:00","18.0","","17.2","","95","","33","","6","","","","99.29","","","","","","NA"
"2010-08-01 23:00","2010","08","01","23:00","17.8","","17.0","","95","","28","","2","","","","99.30","","","","","","NA"
"2010-08-02 00:00","2010","08","02","00:00","17.6","","16.9","","96","","29","","6","","","","99.25","","","","","","NA"
"2010-08-02 01:00","2010","08","02","01:00","17.3","","16.6","","96","","31","","4","","","","99.25","","","","","","NA"
"2010-08-02 02:00","2010","08","02","02:00","16.7","","16.1","","96","","8","","4","","","","99.24","","","","","","NA"
"2010-08-02 03:00","2010","08","02","03:00","16.6","","16.0","","96","","12","","6","","","","99.24","","","","","","NA"
"2010-08-02 04:00","2010","08","02","04:00","16.4","","15.8","","96","","12","","7","","","","99.25","","","","","","NA"
"2010-08-02 05:00","2010","08","02","05:00","16.5","","15.9","","96","","7","","4","","","","99.30","","","","","","NA"
"2010-08-02 06:00","2010","08","02","06:00","16.7","","16.1","","96","","9","","7","","","","99.27","","","","","","NA"
"2010-08-02 07:00","2010","08","02","07:00","16.9","","16.3","","96","","8","","7","","","","99.22","","","","","","NA"
"2010-08-02 08:00","2010","08","02","08:00","17.3","","16.7","","96","","8","","7","","","","99.21","","","","","","NA"
"2010-08-02 09:00","2010","08","02","09:00","18.0","","17.4","","96","","15","","2","","","","99.22","","","","","","NA"
"2010-08-02 10:00","2010","08","02","10:00","18.0","","17.5","","97","","8","","7","","","","99.22","","","","","","NA"
"2010-08-02 11:00","2010","08","02","11:00","17.8","","17.2","","96","","9","","9","","","","99.23","","","","","","NA"
"2010-08-02 12:00","2010","08","02","12:00","18.5","","17.9","","96","","17","","4","","","","99.24","","","","","","NA"
"2010-08-02 13:00","2010","08","02","13:00","18.6","","18.0","","96","","12","","4","","","","99.20","","","","","","NA"
"2010-08-02 14:00","2010","08","02","14:00","18.6","","18.0","","96","","9","","7","","","","99.19","","","","","","NA"
"2010-08-02 15:00","2010","08","02","15:00","19.0","","18.4","","96","","15","","2","","","","99.17","","","","","","NA"
"2010-08-02 16:00","2010","08","02","16:00","20.2","","17.5","","84","","28","","15","","","","99.18","","26","","","","NA"
"2010-08-02 17:00","2010","08","02","17:00","18.9","","17.7","","93","","21","","2","","","","99.15","","","","","","NA"
"2010-08-02 18:00","2010","08","02","18:00","18.8","","16.7","","88","","16","","11","","","","99.09","","","","","","NA"
"2010-08-02 19:00","2010","08","02","19:00","18.7","","17.9","","95","","17","","9","","","","99.07","","","","","","NA"
"2010-08-02 20:00","2010","08","02","20:00","18.7","","17.9","","95","","17","","9","","","","99.05","","","","","","NA"
"2010-08-02 21:00","2010","08","02","21:00","18.5","","17.7","","95","","8","","6","","","","99.05","","","","","","NA"
"2010-08-02 22:00","2010","08","02","22:00","19.4","","18.7","","96","","1","","4","","","","99.04","","","","","","NA"
"2010-08-02 23:00","2010","08","02","23:00","19.4","","18.6","","95","","8","","4","","","","99.03","","","","","","NA"
"2010-08-03 00:00","2010","08","03","00:00","18.9","","18.1","","95","","3","","4","","","","99.03","","","","","","NA"
"2010-08-03 01:00","2010","08","03","01:00","19.0","","18.3","","96","","","","0","","","","99.01","","","","","","NA"
"2010-08-03 02:00","2010","08","03","02:00","18.8","","18.1","","96","","7","","6","","","","99.01","","","","","","NA"
"2010-08-03 03:00","2010","08","03","03:00","18.6","","18.0","","96","","7","","6","","","","98.97","","","","","","NA"
"2010-08-03 04:00","2010","08","03","04:00","18.6","","18.0","","96","","14","","4","","","","98.95","","","","","","NA"
"2010-08-03 05:00","2010","08","03","05:00","18.7","","18.1","","96","","6","","2","","","","98.95","","","","","","NA"
"2010-08-03 06:00","2010","08","03","06:00","18.8","","18.2","","96","","9","","4","","","","98.97","","","","","","NA"
"2010-08-03 07:00","2010","08","03","07:00","18.7","","18.1","","96","","13","","4","","","","98.97","","","","","","NA"
"2010-08-03 08:00","2010","08","03","08:00","18.5","","18.0","","97","","9","","2","","","","98.96","","","","","","NA"
"2010-08-03 09:00","2010","08","03","09:00","19.5","","18.9","","96","","4","","2","","","","98.93","","","","","","NA"
"2010-08-03 10:00","2010","08","03","10:00","19.1","","18.5","","96","","14","","2","","","","98.95","","","","","","NA"
"2010-08-03 11:00","2010","08","03","11:00","18.8","","18.2","","96","","11","","4","","","","98.95","","","","","","NA"
"2010-08-03 12:00","2010","08","03","12:00","19.7","","19.1","","96","","10","","2","","","","98.92","","","","","","NA"
"2010-08-03 13:00","2010","08","03","13:00","19.2","","18.6","","96","","15","","4","","","","98.90","","","","","","NA"
"2010-08-03 14:00","2010","08","03","14:00","19.5","","18.7","","95","","16","","4","","","","98.87","","","","","","NA"
"2010-08-03 15:00","2010","08","03","15:00","20.0","","19.1","","95","","19","","9","","","","98.81","","27","","","","NA"
"2010-08-03 16:00","2010","08","03","16:00","20.8","","19.9","","95","","20","","6","","","","98.77","","28","","","","NA"
"2010-08-03 17:00","2010","08","03","17:00","20.9","","19.9","","94","","6","","2","","","","98.78","","28","","","","NA"
"2010-08-03 18:00","2010","08","03","18:00","19.7","","18.6","","93","","10","","7","","","","98.75","","","","","","NA"
"2010-08-03 19:00","2010","08","03","19:00","20.4","","18.9","","91","","12","","2","","","","98.73","","27","","","","NA"
"2010-08-03 20:00","2010","08","03","20:00","20.4","","19.2","","93","","20","","6","","","","98.72","","27","","","","NA"
"2010-08-03 21:00","2010","08","03","21:00","21.0","","19.9","","93","","24","","15","","","","98.74","","28","","","","NA"
"2010-08-03 22:00","2010","08","03","22:00","20.8","","19.9","","95","","29","","7","","","","98.75","","28","","","","NA"
"2010-08-03 23:00","2010","08","03","23:00","20.9","","19.8","","93","","29","","9","","","","98.69","","28","","","","NA"
"2010-08-04 00:00","2010","08","04","00:00","21.2","","20.1","","93","","28","","11","","","","98.72","","29","","","","NA"
"2010-08-04 01:00","2010","08","04","01:00","20.9","","19.8","","93","","28","","6","","","","98.64","","28","","","","NA"
"2010-08-04 02:00","2010","08","04","02:00","21.0","","19.9","","93","","30","","7","","","","98.57","","28","","","","NA"
"2010-08-04 03:00","2010","08","04","03:00","20.2","","19.2","","94","","21","","4","","","","98.53","","27","","","","NA"
"2010-08-04 04:00","2010","08","04","04:00","19.9","","19.1","","95","","25","","11","","","","98.51","","","","","","NA"
"2010-08-04 05:00","2010","08","04","05:00","20.4","","19.6","","95","","28","","9","","","","98.53","","28","","","","NA"
"2010-08-04 06:00","2010","08","04","06:00","20.5","","19.2","","92","","26","","9","","","","98.52","","27","","","","NA"
"2010-08-04 07:00","2010","08","04","07:00","20.9","","19.2","","90","","27","","7","","","","98.53","","28","","","","NA"
"2010-08-04 08:00","2010","08","04","08:00","21.7","","19.5","","87","","29","","15","","","","98.54","","29","","","","NA"
"2010-08-04 09:00","2010","08","04","09:00","22.1","","19.3","","84","","27","","22","","","","98.53","","29","","","","NA"
"2010-08-04 10:00","2010","08","04","10:00","22.4","","19.0","","81","","28","","19","","","","98.59","","29","","","","NA"
"2010-08-04 11:00","2010","08","04","11:00","23.6","","19.1","","76","","26","","15","","","","98.57","","30","","","","NA"
"2010-08-04 12:00","2010","08","04","12:00","22.9","","18.3","","75","","22","","19","","","","98.52","","29","","","","NA"
"2010-08-04 13:00","2010","08","04","13:00","25.6","","17.1","","59","","27","","26","","","","98.49","","31","","","","NA"
"2010-08-04 14:00","2010","08","04","14:00","25.0","","15.9","","57","","28","","32","","","","98.46","","30","","","","NA"
"2010-08-04 15:00","2010","08","04","15:00","24.8","","16.7","","61","","27","","30","","","","98.40","","30","","","","NA"
"2010-08-04 16:00","2010","08","04","16:00","25.7","","16.4","","56","","28","","26","","","","98.33","","31","","","","NA"
"2010-08-04 17:00","2010","08","04","17:00","25.0","","16.0","","57","","28","","30","","","","98.29","","30","","","","NA"
"2010-08-04 18:00","2010","08","04","18:00","24.2","","16.0","","60","","28","","32","","","","98.26","","29","","","","NA"
"2010-08-04 19:00","2010","08","04","19:00","23.3","","16.7","","66","","27","","20","","","","98.28","","28","","","","NA"
"2010-08-04 20:00","2010","08","04","20:00","22.9","","16.3","","66","","27","","17","","","","98.30","","28","","","","NA"
"2010-08-04 21:00","2010","08","04","21:00","22.1","","16.2","","69","","29","","13","","","","98.34","","27","","","","NA"
"2010-08-04 22:00","2010","08","04","22:00","21.5","","16.7","","74","","27","","6","","","","98.36","","27","","","","NA"
"2010-08-04 23:00","2010","08","04","23:00","21.8","","16.6","","72","","29","","13","","","","98.32","","27","","","","NA"
"2010-08-05 00:00","2010","08","05","00:00","21.4","","17.6","","79","","27","","19","","","","98.28","","27","","","","NA"
"2010-08-05 01:00","2010","08","05","01:00","21.0","","17.4","","80","","32","","11","","","","98.23","","27","","","","NA"
"2010-08-05 02:00","2010","08","05","02:00","20.1","","17.9","","87","","29","","13","","","","98.16","","26","","","","NA"
"2010-08-05 03:00","2010","08","05","03:00","20.0","","17.3","","84","","24","","11","","","","98.13","","25","","","","NA"
"2010-08-05 04:00","2010","08","05","04:00","19.2","","17.4","","89","","26","","9","","","","98.10","","","","","","NA"
"2010-08-05 05:00","2010","08","05","05:00","19.3","","17.6","","90","","27","","13","","","","98.10","","","","","","NA"
"2010-08-05 06:00","2010","08","05","06:00","19.0","","17.5","","91","","28","","11","","","","98.08","","","","","","NA"
"2010-08-05 07:00","2010","08","05","07:00","20.2","","17.3","","83","","26","","17","","","","98.07","","26","","","","NA"
"2010-08-05 08:00","2010","08","05","08:00","21.2","","16.8","","76","","27","","28","","","","98.03","","26","","","","NA"
"2010-08-05 09:00","2010","08","05","09:00","21.3","","14.5","","65","","27","","30","","","","98.02","","25","","","","NA"
"2010-08-05 10:00","2010","08","05","10:00","21.8","","14.6","","64","","28","","30","","","","98.02","","26","","","","NA"
"2010-08-05 11:00","2010","08","05","11:00","22.0","","13.0","","57","","28","","35","","","","98.00","","25","","","","NA"
"2010-08-05 12:00","2010","08","05","12:00","21.8","","13.7","","60","","28","","33","","","","98.01","","25","","","","NA"
"2010-08-05 13:00","2010","08","05","13:00","22.1","","14.4","","62","","28","","33","","","","97.96","","26","","","","NA"
"2010-08-05 14:00","2010","08","05","14:00","22.0","","12.5","","55","","28","","44","","","","97.96","","25","","","","NA"
"2010-08-05 15:00","2010","08","05","15:00","20.1","","12.0","","60","","27","","32","","","","97.97","","","","","","NA"
"2010-08-05 16:00","2010","08","05","16:00","21.2","","13.8","","63","","27","","39","","","","97.96","","","","","","NA"
"2010-08-05 17:00","2010","08","05","17:00","21.1","","13.5","","62","","28","","43","","","","97.94","","","","","","NA"
"2010-08-05 18:00","2010","08","05","18:00","20.4","","13.5","","65","","28","","43","","","","97.99","","","","","","NA"
"2010-08-05 19:00","2010","08","05","19:00","20.3","","11.5","","57","","27","","37","","","","98.03","","","","","","NA"
"2010-08-05 20:00","2010","08","05","20:00","19.4","","11.0","","58","","28","","35","","","","98.10","","","","","","NA"
"2010-08-05 21:00","2010","08","05","21:00","19.0","","10.0","","56","","29","","22","","","","98.19","","","","","","NA"
"2010-08-05 22:00","2010","08","05","22:00","18.6","","8.2","","51","","31","","26","","","","98.26","","","","","","NA"
"2010-08-05 23:00","2010","08","05","23:00","17.1","","5.9","","48","","36","","15","","","","98.38","","","","","","NA"
"2010-08-06 00:00","2010","08","06","00:00","16.1","","6.7","","54","","36","","7","","","","98.46","","","","","","NA"
"2010-08-06 01:00","2010","08","06","01:00","15.3","","7.0","","58","","34","","11","","","","98.48","","","","","","NA"
"2010-08-06 02:00","2010","08","06","02:00","14.6","","7.7","","63","","32","","7","","","","98.52","","","","","","NA"
"2010-08-06 03:00","2010","08","06","03:00","14.0","","6.5","","61","","33","","9","","","","98.54","","","","","","NA"
"2010-08-06 04:00","2010","08","06","04:00","13.5","","7.6","","67","","34","","9","","","","98.59","","","","","","NA"
"2010-08-06 05:00","2010","08","06","05:00","12.6","","8.1","","74","","35","","11","","","","98.64","","","","","","NA"
"2010-08-06 06:00","2010","08","06","06:00","12.7","","7.9","","73","","35","","9","","","","98.68","","","","","","NA"
"2010-08-06 07:00","2010","08","06","07:00","13.8","","8.1","","68","","34","","7","","","","98.72","","","","","","NA"
"2010-08-06 08:00","2010","08","06","08:00","14.7","","6.8","","59","","29","","11","","","","98.76","","","","","","NA"
"2010-08-06 09:00","2010","08","06","09:00","15.8","","1.7","","38","","33","","13","","","","98.78","","","","","","NA"
"2010-08-06 10:00","2010","08","06","10:00","16.2","","0.2","","34","","30","","24","","","","98.78","","","","","","NA"
"2010-08-06 11:00","2010","08","06","11:00","16.8","","0.2","","32","","30","","19","","","","98.76","","","","","","NA"
"2010-08-06 12:00","2010","08","06","12:00","17.5","","-1.4","","28","","33","","19","","","","98.77","","","","","","NA"
"2010-08-06 13:00","2010","08","06","13:00","17.5","","-1.0","","28","","29","","24","","","","98.77","","","","","","NA"
"2010-08-06 14:00","2010","08","06","14:00","18.4","","0.3","","30","","28","","24","","","","98.75","","","","","","NA"
"2010-08-06 15:00","2010","08","06","15:00","19.0","","0.9","","30","","28","","24","","","","98.75","","","","","","NA"
"2010-08-06 16:00","2010","08","06","16:00","18.7","","-0.1","","28","","29","","19","","","","98.76","","","","","","NA"
"2010-08-06 17:00","2010","08","06","17:00","18.5","","4.4","","39","","27","","28","","","","98.77","","","","","","NA"
"2010-08-06 18:00","2010","08","06","18:00","18.1","","5.3","","43","","27","","30","","","","98.80","","","","","","NA"
"2010-08-06 19:00","2010","08","06","19:00","17.7","","6.6","","48","","28","","32","","","","98.82","","","","","","NA"
"2010-08-06 20:00","2010","08","06","20:00","17.6","","6.9","","49","","29","","15","","","","98.87","","","","","","NA"
"2010-08-06 21:00","2010","08","06","21:00","16.3","","2.0","","38","","2","","9","","","","98.96","","","","","","NA"
"2010-08-06 22:00","2010","08","06","22:00","15.2","","2.1","","41","","2","","7","","","","99.01","","","","","","NA"
"2010-08-06 23:00","2010","08","06","23:00","15.1","","1.3","","39","","7","","6","","","","99.04","","","","","","NA"
"2010-08-07 00:00","2010","08","07","00:00","14.7","","4.1","","49","","8","","7","","","","99.05","","","","","","NA"
"2010-08-07 01:00","2010","08","07","01:00","14.1","","1.9","","44","","5","","7","","","","99.05","","","","","","NA"
"2010-08-07 02:00","2010","08","07","02:00","14.2","","1.8","","43","","1","","2","","","","99.07","","","","","","NA"
"2010-08-07 03:00","2010","08","07","03:00","13.1","","3.3","","51","","32","","7","","","","99.09","","","","","","NA"
"2010-08-07 04:00","2010","08","07","04:00","13.0","","6.3","","64","","31","","7","","","","99.12","","","","","","NA"
"2010-08-07 05:00","2010","08","07","05:00","12.7","","6.9","","68","","34","","11","","","","99.13","","","","","","NA"
"2010-08-07 06:00","2010","08","07","06:00","13.3","","6.0","","61","","34","","9","","","","99.16","","","","","","NA"
"2010-08-07 07:00","2010","08","07","07:00","14.7","","5.9","","56","","32","","7","","","","99.18","","","","","","NA"
"2010-08-07 08:00","2010","08","07","08:00","16.5","","5.4","","48","","26","","2","","","","99.15","","","","","","NA"
"2010-08-07 09:00","2010","08","07","09:00","16.2","","7.5","","56","","17","","6","","","","99.13","","","","","","NA"
"2010-08-07 10:00","2010","08","07","10:00","16.3","","8.0","","58","","20","","11","","","","99.17","","","","","","NA"
"2010-08-07 11:00","2010","08","07","11:00","17.2","","7.7","","54","","20","","17","","","","99.17","","","","","","NA"
"2010-08-07 12:00","2010","08","07","12:00","16.8","","7.5","","54","","16","","17","","","","99.12","","","","","","NA"
"2010-08-07 13:00","2010","08","07","13:00","17.0","","8.6","","58","","18","","22","","","","99.07","","","","","","NA"
"2010-08-07 14:00","2010","08","07","14:00","17.3","","9.3","","59","","18","","20","","","","99.01","","","","","","NA"
"2010-08-07 15:00","2010","08","07","15:00","17.7","","8.9","","56","","17","","20","","","","98.96","","","","","","NA"
"2010-08-07 16:00","2010","08","07","16:00","18.6","","11.7","","64","","19","","9","","","","98.94","","","","","","NA"
"2010-08-07 17:00","2010","08","07","17:00","18.8","","8.9","","53","","22","","30","","","","98.89","","","","","","NA"
"2010-08-07 18:00","2010","08","07","18:00","18.1","","11.5","","65","","19","","24","","","","98.90","","","","","","NA"
"2010-08-07 19:00","2010","08","07","19:00","18.0","","13.2","","74","","20","","22","","","","98.85","","","","","","NA"
"2010-08-07 20:00","2010","08","07","20:00","18.1","","13.1","","73","","22","","7","","","","98.85","","","","","","NA"
"2010-08-07 21:00","2010","08","07","21:00","17.8","","14.7","","82","","14","","6","","","","98.83","","","","","","NA"
"2010-08-07 22:00","2010","08","07","22:00","17.8","","14.8","","83","","9","","4","","","","98.83","","","","","","NA"
"2010-08-07 23:00","2010","08","07","23:00","17.4","","14.8","","85","","6","","6","","","","98.77","","","","","","NA"
"2010-08-08 00:00","2010","08","08","00:00","17.4","","14.7","","84","","7","","7","","","","98.73","","","","","","NA"
"2010-08-08 01:00","2010","08","08","01:00","17.7","","15.2","","85","","7","","6","","","","98.70","","","","","","NA"
"2010-08-08 02:00","2010","08","08","02:00","17.0","","15.0","","88","","8","","4","","","","98.67","","","","","","NA"
"2010-08-08 03:00","2010","08","08","03:00","16.6","","15.2","","91","","7","","7","","","","98.66","","","","","","NA"
"2010-08-08 04:00","2010","08","08","04:00","16.8","","15.6","","93","","8","","7","","","","98.61","","","","","","NA"
"2010-08-08 05:00","2010","08","08","05:00","17.2","","16.2","","94","","8","","6","","","","98.62","","","","","","NA"
"2010-08-08 06:00","2010","08","08","06:00","17.3","","16.5","","95","","12","","4","","","","98.60","","","","","","NA"
"2010-08-08 07:00","2010","08","08","07:00","17.9","","17.2","","96","","32","","2","","","","98.58","","","","","","NA"
"2010-08-08 08:00","2010","08","08","08:00","17.7","","17.0","","96","","8","","9","","","","98.58","","","","","","NA"
"2010-08-08 09:00","2010","08","08","09:00","18.2","","17.5","","96","","6","","4","","","","98.60","","","","","","NA"
"2010-08-08 10:00","2010","08","08","10:00","18.6","","18.0","","96","","15","","11","","","","98.61","","","","","","NA"
"2010-08-08 11:00","2010","08","08","11:00","18.3","","17.7","","96","","7","","4","","","","98.60","","","","","","NA"
"2010-08-08 12:00","2010","08","08","12:00","17.9","","17.3","","96","","20","","4","","","","98.61","","","","","","NA"
"2010-08-08 13:00","2010","08","08","13:00","19.4","","18.8","","96","","27","","6","","","","98.58","","","","","","NA"
"2010-08-08 14:00","2010","08","08","14:00","21.2","","18.8","","86","","29","","17","","","","98.64","","28","","","","NA"
"2010-08-08 15:00","2010","08","08","15:00","22.0","","18.5","","81","","30","","15","","","","98.66","","28","","","","NA"
"2010-08-08 16:00","2010","08","08","16:00","22.4","","18.1","","77","","30","","13","","","","98.70","","28","","","","NA"
"2010-08-08 17:00","2010","08","08","17:00","22.7","","17.7","","73","","32","","9","","","","98.73","","28","","","","NA"
"2010-08-08 18:00","2010","08","08","18:00","22.2","","17.7","","76","","27","","9","","","","98.77","","28","","","","NA"
"2010-08-08 19:00","2010","08","08","19:00","21.3","","17.9","","81","","23","","13","","","","98.78","","27","","","","NA"
"2010-08-08 20:00","2010","08","08","20:00","20.5","","17.7","","84","","30","","6","","","","98.79","","26","","","","NA"
"2010-08-08 21:00","2010","08","08","21:00","19.5","","17.9","","90","","24","","4","","","","98.86","","","","","","NA"
"2010-08-08 22:00","2010","08","08","22:00","19.2","","17.9","","92","","24","","2","","","","98.89","","","","","","NA"
"2010-08-08 23:00","2010","08","08","23:00","18.8","","17.8","","94","","10","","4","","","","98.91","","","","","","NA"
"2010-08-09 00:00","2010","08","09","00:00","18.6","","17.8","","95","","6","","6","","","","98.93","","","","","","NA"
"2010-08-09 01:00","2010","08","09","01:00","17.9","","17.2","","96","","36","","2","","","","98.93","","","","","","NA"
"2010-08-09 02:00","2010","08","09","02:00","18.3","","17.6","","96","","35","","4","","","","98.93","","","","","","NA"
"2010-08-09 03:00","2010","08","09","03:00","17.2","","16.5","","96","","26","","4","","","","98.99","","","","","","NA"
"2010-08-09 04:00","2010","08","09","04:00","17.7","","17.0","","96","","36","","2","","","","99.01","","","","","","NA"
"2010-08-09 05:00","2010","08","09","05:00","17.1","","16.4","","96","","","","0","","","","99.01","","","","","","NA"
"2010-08-09 06:00","2010","08","09","06:00","17.3","","16.7","","96","","8","","4","","","","99.01","","","","","","NA"
"2010-08-09 07:00","2010","08","09","07:00","17.9","","16.9","","94","","18","","4","","","","99.08","","","","","","NA"
"2010-08-09 08:00","2010","08","09","08:00","18.0","","16.3","","90","","12","","4","","","","99.10","","","","","","NA"
"2010-08-09 09:00","2010","08","09","09:00","19.1","","17.9","","93","","9","","6","","","","99.08","","","","","","NA"
"2010-08-09 10:00","2010","08","09","10:00","19.1","","18.0","","93","","18","","6","","","","99.11","","","","","","NA"
"2010-08-09 11:00","2010","08","09","11:00","19.7","","17.1","","85","","9","","4","","","","99.08","","","","","","NA"
"2010-08-09 12:00","2010","08","09","12:00","19.8","","18.3","","91","","15","","7","","","","99.09","","","","","","NA"
"2010-08-09 13:00","2010","08","09","13:00","19.6","","18.3","","92","","21","","9","","","","99.10","","","","","","NA"
"2010-08-09 14:00","2010","08","09","14:00","21.6","","18.2","","81","","18","","4","","","","99.04","","28","","","","NA"
"2010-08-09 15:00","2010","08","09","15:00","20.8","","18.1","","85","","13","","6","","","","98.97","","27","","","","NA"
"2010-08-09 16:00","2010","08","09","16:00","20.8","","18.5","","87","","21","","9","","","","98.99","","27","","","","NA"
"2010-08-09 17:00","2010","08","09","17:00","21.0","","18.5","","86","","22","","9","","","","99.02","","27","","","","NA"
"2010-08-09 18:00","2010","08","09","18:00","21.7","","19.1","","85","","19","","4","","","","99.02","","29","","","","NA"
"2010-08-09 19:00","2010","08","09","19:00","21.3","","18.9","","86","","27","","2","","","","99.02","","28","","","","NA"
"2010-08-09 20:00","2010","08","09","20:00","20.3","","18.7","","91","","10","","2","","","","99.01","","27","","","","NA"
"2010-08-09 21:00","2010","08","09","21:00","20.2","","18.9","","92","","35","","2","","","","99.06","","27","","","","NA"
"2010-08-09 22:00","2010","08","09","22:00","19.8","","18.5","","92","","","","0","","","","99.06","","","","","","NA"
"2010-08-09 23:00","2010","08","09","23:00","19.7","","18.5","","93","","30","","4","","","","99.08","","","","","","NA"
"2010-08-10 00:00","2010","08","10","00:00","19.7","","18.6","","93","","27","","2","","","","99.08","","","","","","NA"
"2010-08-10 01:00","2010","08","10","01:00","19.2","","18.2","","94","","29","","6","","","","99.07","","","","","","NA"
"2010-08-10 02:00","2010","08","10","02:00","18.7","","17.9","","95","","21","","4","","","","99.09","","","","","","NA"
"2010-08-10 03:00","2010","08","10","03:00","19.0","","18.2","","95","","29","","7","","","","99.11","","","","","","NA"
"2010-08-10 04:00","2010","08","10","04:00","19.0","","18.3","","96","","25","","6","","","","99.10","","","","","","NA"
"2010-08-10 05:00","2010","08","10","05:00","19.3","","18.6","","96","","26","","7","","","","99.11","","","","","","NA"
"2010-08-10 06:00","2010","08","10","06:00","19.1","","18.5","","96","","24","","7","","","","99.13","","","","","","NA"
"2010-08-10 07:00","2010","08","10","07:00","19.3","","18.7","","96","","27","","9","","","","99.14","","","","","","NA"
"2010-08-10 08:00","2010","08","10","08:00","20.2","","19.6","","96","","27","","11","","","","99.19","","27","","","","NA"
"2010-08-10 09:00","2010","08","10","09:00","22.0","","19.7","","87","","27","","11","","","","99.20","","29","","","","NA"
"2010-08-10 10:00","2010","08","10","10:00","21.9","","18.8","","83","","24","","7","","","","99.19","","29","","","","NA"
"2010-08-10 11:00","2010","08","10","11:00","22.0","","19.2","","84","","22","","20","","","","99.16","","29","","","","NA"
"2010-08-10 12:00","2010","08","10","12:00","23.0","","19.2","","79","","22","","22","","","","99.17","","30","","","","NA"
"2010-08-10 13:00","2010","08","10","13:00","20.9","","18.9","","88","","22","","19","","","","99.15","","28","","","","NA"
"2010-08-10 14:00","2010","08","10","14:00","21.6","","19.2","","86","","22","","20","","","","99.15","","29","","","","NA"
"2010-08-10 15:00","2010","08","10","15:00","21.6","","19.0","","85","","21","","15","","","","99.09","","28","","","","NA"
"2010-08-10 16:00","2010","08","10","16:00","22.5","","19.1","","81","","20","","11","","","","99.05","","29","","","","NA"
"2010-08-10 17:00","2010","08","10","17:00","26.6","","18.0","","59","","26","","17","","","","99.04","","33","","","","NA"
"2010-08-10 18:00","2010","08","10","18:00","26.7","","17.9","","59","","27","","17","","","","99.01","","33","","","","NA"
"2010-08-10 19:00","2010","08","10","19:00","25.7","","18.6","","65","","29","","13","","","","99.07","","32","","","","NA"
"2010-08-10 20:00","2010","08","10","20:00","24.8","","18.7","","69","","30","","15","","","","99.11","","31","","","","NA"
"2010-08-10 21:00","2010","08","10","21:00","24.4","","18.7","","71","","30","","11","","","","99.15","","31","","","","NA"
"2010-08-10 22:00","2010","08","10","22:00","23.4","","18.9","","76","","24","","7","","","","99.18","","30","","","","NA"
"2010-08-10 23:00","2010","08","10","23:00","21.8","","18.5","","82","","30","","6","","","","99.19","","28","","","","NA"
"2010-08-11 00:00","2010","08","11","00:00","22.5","","19.0","","81","","33","","11","","","","99.17","","29","","","","NA"
"2010-08-11 01:00","2010","08","11","01:00","23.1","","17.1","","69","","3","","4","","","","99.14","","28","","","","NA"
"2010-08-11 02:00","2010","08","11","02:00","22.4","","16.3","","68","","6","","7","","","","99.11","","27","","","","NA"
"2010-08-11 03:00","2010","08","11","03:00","23.0","","16.1","","65","","6","","7","","","","99.10","","28","","","","NA"
"2010-08-11 04:00","2010","08","11","04:00","21.7","","16.2","","71","","7","","6","","","","99.14","","26","","","","NA"
"2010-08-11 05:00","2010","08","11","05:00","20.9","","16.4","","75","","7","","7","","","","99.17","","26","","","","NA"
"2010-08-11 06:00","2010","08","11","06:00","20.6","","17.0","","80","","7","","9","","","","99.20","","26","","","","NA"
"2010-08-11 07:00","2010","08","11","07:00","20.6","","14.2","","67","","7","","17","","","","99.22","","","","","","NA"
"2010-08-11 08:00","2010","08","11","08:00","20.8","","14.9","","69","","8","","15","","","","99.25","","25","","","","NA"
"2010-08-11 09:00","2010","08","11","09:00","19.9","","16.3","","80","","14","","11","","","","99.25","","","","","","NA"
"2010-08-11 10:00","2010","08","11","10:00","19.8","","17.2","","85","","16","","7","","","","99.21","","","","","","NA"
"2010-08-11 11:00","2010","08","11","11:00","19.5","","17.8","","90","","18","","7","","","","99.21","","","","","","NA"
"2010-08-11 12:00","2010","08","11","12:00","19.7","","18.7","","94","","20","","13","","","","99.19","","","","","","NA"
"2010-08-11 13:00","2010","08","11","13:00","19.1","","18.3","","95","","19","","7","","","","99.17","","","","","","NA"
"2010-08-11 14:00","2010","08","11","14:00","19.3","","18.4","","95","","19","","7","","","","99.14","","","","","","NA"
"2010-08-11 15:00","2010","08","11","15:00","19.5","","18.7","","95","","21","","4","","","","99.08","","","","","","NA"
"2010-08-11 16:00","2010","08","11","16:00","19.5","","18.7","","95","","12","","2","","","","99.01","","","","","","NA"
"2010-08-11 17:00","2010","08","11","17:00","19.8","","18.9","","95","","21","","9","","","","98.99","","","","","","NA"
"2010-08-11 18:00","2010","08","11","18:00","20.6","","19.5","","93","","","","0","","","","98.94","","28","","","","NA"
"2010-08-11 19:00","2010","08","11","19:00","20.2","","19.3","","95","","20","","2","","","","98.95","","27","","","","NA"
"2010-08-11 20:00","2010","08","11","20:00","20.6","","19.5","","93","","4","","4","","","","98.95","","28","","","","NA"
"2010-08-11 21:00","2010","08","11","21:00","21.1","","19.9","","93","","","","0","","","","98.96","","29","","","","NA"
"2010-08-11 22:00","2010","08","11","22:00","20.3","","19.3","","94","","19","","6","","","","98.96","","27","","","","NA"
"2010-08-11 23:00","2010","08","11","23:00","21.6","","19.3","","87","","4","","4","","","","98.96","","29","","","","NA"
"2010-08-12 00:00","2010","08","12","00:00","22.1","","17.3","","74","","2","","6","","","","98.98","","28","","","","NA"
"2010-08-12 01:00","2010","08","12","01:00","22.6","","14.8","","61","","5","","7","","","","98.93","","26","","","","NA"
"2010-08-12 02:00","2010","08","12","02:00","22.7","","13.8","","57","","6","","11","","","","98.89","","26","","","","NA"
"2010-08-12 03:00","2010","08","12","03:00","22.4","","13.2","","56","","6","","11","","","","98.84","","25","","","","NA"
"2010-08-12 04:00","2010","08","12","04:00","22.0","","12.2","","54","","6","","15","","","","98.83","","","","","","NA"
"2010-08-12 05:00","2010","08","12","05:00","21.3","","13.2","","60","","9","","4","","","","98.90","","","","","","NA"
"2010-08-12 06:00","2010","08","12","06:00","20.4","","13.5","","65","","6","","9","","","","98.92","","","","","","NA"
"2010-08-12 07:00","2010","08","12","07:00","20.4","","13.9","","66","","6","","11","","","","98.94","","","","","","NA"
"2010-08-12 08:00","2010","08","12","08:00","20.8","","15.2","","70","","7","","13","","","","98.96","","25","","","","NA"
"2010-08-12 09:00","2010","08","12","09:00","21.0","","16.2","","74","","7","","11","","","","98.97","","26","","","","NA"
"2010-08-12 10:00","2010","08","12","10:00","21.4","","17.8","","80","","9","","9","","","","99.01","","27","","","","NA"
"2010-08-12 11:00","2010","08","12","11:00","21.3","","18.5","","84","","9","","11","","","","99.03","","28","","","","NA"
"2010-08-12 12:00","2010","08","12","12:00","21.0","","18.1","","84","","12","","19","","","","98.99","","27","","","","NA"
"2010-08-12 13:00","2010","08","12","13:00","21.2","","18.2","","83","","13","","13","","","","99.00","","27","","","","NA"
"2010-08-12 14:00","2010","08","12","14:00","21.2","","18.5","","85","","13","","15","","","","98.94","","28","","","","NA"
"2010-08-12 15:00","2010","08","12","15:00","21.4","","18.4","","83","","14","","9","","","","98.97","","28","","","","NA"
"2010-08-12 16:00","2010","08","12","16:00","21.9","","18.0","","79","","12","","6","","","","98.97","","28","","","","NA"
"2010-08-12 17:00","2010","08","12","17:00","22.6","","17.9","","75","","12","","4","","","","98.96","","29","","","","NA"
"2010-08-12 18:00","2010","08","12","18:00","22.2","","18.0","","77","","9","","6","","","","98.93","","28","","","","NA"
"2010-08-12 19:00","2010","08","12","19:00","22.7","","17.3","","72","","8","","7","","","","98.93","","28","","","","NA"
"2010-08-12 20:00","2010","08","12","20:00","22.3","","17.6","","75","","7","","6","","","","98.96","","28","","","","NA"
"2010-08-12 21:00","2010","08","12","21:00","22.2","","17.9","","77","","8","","9","","","","99.00","","28","","","","NA"
"2010-08-12 22:00","2010","08","12","22:00","21.9","","17.8","","78","","9","","7","","","","98.98","","28","","","","NA"
"2010-08-12 23:00","2010","08","12","23:00","21.9","","18.0","","79","","8","","11","","","","99.03","","28","","","","NA"
"2010-08-13 00:00","2010","08","13","00:00","21.9","","18.3","","80","","8","","11","","","","99.06","","28","","","","NA"
"2010-08-13 01:00","2010","08","13","01:00","21.5","","18.9","","85","","13","","7","","","","99.10","","28","","","","NA"
"2010-08-13 02:00","2010","08","13","02:00","20.9","","19.3","","91","","10","","6","","","","99.09","","28","","","","NA"
"2010-08-13 03:00","2010","08","13","03:00","20.9","","18.5","","86","","15","","11","","","","99.08","","27","","","","NA"
"2010-08-13 04:00","2010","08","13","04:00","20.9","","17.7","","82","","11","","11","","","","99.09","","27","","","","NA"
"2010-08-13 05:00","2010","08","13","05:00","20.4","","19.1","","92","","9","","13","","","","99.11","","27","","","","NA"
"2010-08-13 06:00","2010","08","13","06:00","20.8","","18.0","","84","","11","","15","","","","99.18","","27","","","","NA"
"2010-08-13 07:00","2010","08","13","07:00","20.6","","18.2","","86","","12","","17","","","","99.21","","27","","","","NA"
"2010-08-13 08:00","2010","08","13","08:00","20.4","","18.2","","87","","13","","15","","","","99.28","","27","","","","NA"
"2010-08-13 09:00","2010","08","13","09:00","20.4","","17.8","","85","","13","","20","","","","99.27","","26","","","","NA"
"2010-08-13 10:00","2010","08","13","10:00","20.4","","17.8","","85","","12","","19","","","","99.24","","26","","","","NA"
"2010-08-13 11:00","2010","08","13","11:00","20.3","","17.4","","83","","13","","19","","","","99.27","","26","","","","NA"
"2010-08-13 12:00","2010","08","13","12:00","20.3","","18.0","","87","","14","","22","","","","99.24","","26","","","","NA"
"2010-08-13 13:00","2010","08","13","13:00","20.4","","18.4","","88","","13","","19","","","","99.24","","27","","","","NA"
"2010-08-13 14:00","2010","08","13","14:00","20.5","","18.7","","89","","13","","20","","","","99.20","","27","","","","NA"
"2010-08-13 15:00","2010","08","13","15:00","20.7","","18.9","","89","","14","","15","","","","99.17","","27","","","","NA"
"2010-08-13 16:00","2010","08","13","16:00","20.7","","19.0","","90","","12","","15","","","","99.13","","27","","","","NA"
"2010-08-13 17:00","2010","08","13","17:00","20.9","","19.2","","90","","12","","11","","","","99.10","","28","","","","NA"
"2010-08-13 18:00","2010","08","13","18:00","20.9","","19.2","","90","","8","","9","","","","99.01","","28","","","","NA"
"2010-08-13 19:00","2010","08","13","19:00","21.3","","19.1","","87","","7","","9","","","","98.96","","28","","","","NA"
"2010-08-13 20:00","2010","08","13","20:00","21.9","","19.0","","84","","8","","15","","","","98.97","","29","","","","NA"
"2010-08-13 21:00","2010","08","13","21:00","21.8","","19.0","","84","","9","","7","","","","99.00","","29","","","","NA"
"2010-08-13 22:00","2010","08","13","22:00","21.7","","19.0","","85","","12","","9","","","","99.00","","28","","","","NA"
"2010-08-13 23:00","2010","08","13","23:00","21.4","","19.3","","88","","17","","7","","","","98.98","","28","","","","NA"
"2010-08-14 00:00","2010","08","14","00:00","21.5","","19.3","","87","","16","","19","","","","98.97","","29","","","","NA"
"2010-08-14 01:00","2010","08","14","01:00","21.5","","19.2","","87","","16","","28","","","","98.98","","28","","","","NA"
"2010-08-14 02:00","2010","08","14","02:00","21.0","","19.2","","89","","17","","17","","","","99.02","","28","","","","NA"
"2010-08-14 03:00","2010","08","14","03:00","20.9","","19.3","","91","","15","","20","","","","98.96","","28","","","","NA"
"2010-08-14 04:00","2010","08","14","04:00","20.7","","19.3","","92","","14","","20","","","","98.94","","28","","","","NA"
"2010-08-14 05:00","2010","08","14","05:00","20.6","","19.2","","92","","14","","19","","","","98.92","","28","","","","NA"
"2010-08-14 06:00","2010","08","14","06:00","20.5","","19.2","","92","","14","","19","","","","98.91","","27","","","","NA"
"2010-08-14 07:00","2010","08","14","07:00","20.5","","18.7","","89","","14","","22","","","","98.89","","27","","","","NA"
"2010-08-14 08:00","2010","08","14","08:00","20.4","","19.1","","92","","14","","22","","","","98.91","","27","","","","NA"
"2010-08-14 09:00","2010","08","14","09:00","20.4","","19.0","","92","","15","","24","","","","98.85","","27","","","","NA"
"2010-08-14 10:00","2010","08","14","10:00","20.4","","19.1","","92","","15","","24","","","","98.84","","27","","","","NA"
"2010-08-14 11:00","2010","08","14","11:00","20.3","","19.1","","93","","14","","22","","","","98.81","","27","","","","NA"
"2010-08-14 12:00","2010","08","14","12:00","20.3","","19.2","","93","","15","","26","","","","98.81","","27","","","","NA"
"2010-08-14 13:00","2010","08","14","13:00","20.4","","19.3","","93","","15","","22","","","","98.83","","27","","","","NA"
"2010-08-14 14:00","2010","08","14","14:00","20.5","","19.6","","95","","15","","24","","","","98.81","","28","","","","NA"
"2010-08-14 15:00","2010","08","14","15:00","20.6","","19.7","","95","","14","","19","","","","98.77","","28","","","","NA"
"2010-08-14 16:00","2010","08","14","16:00","20.9","","19.8","","93","","15","","17","","","","98.75","","28","","","","NA"
"2010-08-14 17:00","2010","08","14","17:00","21.1","","19.7","","92","","15","","15","","","","98.73","","28","","","","NA"
"2010-08-14 18:00","2010","08","14","18:00","21.0","","19.8","","93","","12","","7","","","","98.70","","28","","","","NA"
"2010-08-14 19:00","2010","08","14","19:00","21.2","","20.3","","95","","9","","2","","","","98.73","","29","","","","NA"
"2010-08-14 20:00","2010","08","14","20:00","21.1","","20.1","","94","","7","","6","","","","98.74","","29","","","","NA"
"2010-08-14 21:00","2010","08","14","21:00","21.1","","20.2","","95","","6","","4","","","","98.78","","29","","","","NA"
"2010-08-14 22:00","2010","08","14","22:00","20.8","","20.0","","95","","14","","2","","","","98.76","","28","","","","NA"
"2010-08-14 23:00","2010","08","14","23:00","20.5","","19.8","","96","","33","","2","","","","98.73","","28","","","","NA"
"2010-08-15 00:00","2010","08","15","00:00","20.6","","19.9","","96","","10","","2","","","","98.70","","28","","","","NA"
"2010-08-15 01:00","2010","08","15","01:00","20.2","","19.6","","96","","29","","2","","","","98.68","","27","","","","NA"
"2010-08-15 02:00","2010","08","15","02:00","19.9","","19.3","","96","","","","0","","","","98.67","","","","","","NA"
"2010-08-15 03:00","2010","08","15","03:00","19.9","","19.3","","96","","11","","7","","","","98.69","","","","","","NA"
"2010-08-15 04:00","2010","08","15","04:00","19.9","","19.3","","96","","10","","9","","","","98.64","","","","","","NA"
"2010-08-15 05:00","2010","08","15","05:00","20.2","","19.6","","96","","10","","11","","","","98.60","","27","","","","NA"
"2010-08-15 06:00","2010","08","15","06:00","20.4","","19.8","","96","","10","","7","","","","98.60","","28","","","","NA"
"2010-08-15 07:00","2010","08","15","07:00","20.7","","20.2","","97","","9","","7","","","","98.60","","28","","","","NA"
"2010-08-15 08:00","2010","08","15","08:00","20.5","","20.0","","97","","12","","6","","","","98.58","","28","","","","NA"
"2010-08-15 09:00","2010","08","15","09:00","20.7","","20.1","","96","","14","","6","","","","98.55","","28","","","","NA"
"2010-08-15 10:00","2010","08","15","10:00","20.7","","20.1","","96","","12","","7","","","","98.50","","28","","","","NA"
"2010-08-15 11:00","2010","08","15","11:00","20.8","","20.2","","96","","11","","7","","","","98.48","","29","","","","NA"
"2010-08-15 12:00","2010","08","15","12:00","20.8","","20.2","","96","","10","","9","","","","98.45","","29","","","","NA"
"2010-08-15 13:00","2010","08","15","13:00","21.4","","20.8","","96","","8","","6","","","","98.42","","30","","","","NA"
"2010-08-15 14:00","2010","08","15","14:00","22.1","","21.5","","96","","18","","7","","","","98.39","","31","","","","NA"
"2010-08-15 15:00","2010","08","15","15:00","23.0","","20.6","","86","","22","","19","","","","98.35","","31","","","","NA"
"2010-08-15 16:00","2010","08","15","16:00","23.9","","20.5","","81","","23","","26","","","","98.31","","32","","","","NA"
"2010-08-15 17:00","2010","08","15","17:00","24.8","","15.7","","57","","28","","28","","","","98.31","","29","","","","NA"
"2010-08-15 18:00","2010","08","15","18:00","23.9","","14.3","","55","","29","","26","","","","98.33","","27","","","","NA"
"2010-08-15 19:00","2010","08","15","19:00","22.6","","14.2","","59","","29","","28","","","","98.36","","26","","","","NA"
"2010-08-15 20:00","2010","08","15","20:00","21.8","","13.8","","60","","28","","28","","","","98.40","","25","","","","NA"
"2010-08-15 21:00","2010","08","15","21:00","21.4","","13.6","","61","","29","","28","","","","98.42","","25","","","","NA"
"2010-08-15 22:00","2010","08","15","22:00","21.0","","14.7","","67","","29","","24","","","","98.45","","25","","","","NA"
"2010-08-15 23:00","2010","08","15","23:00","20.7","","15.4","","72","","28","","20","","","","98.43","","25","","","","NA"
"2010-08-16 00:00","2010","08","16","00:00","20.2","","15.6","","75","","27","","17","","","","98.42","","25","","","","NA"
"2010-08-16 01:00","2010","08","16","01:00","19.7","","15.4","","76","","26","","13","","","","98.43","","","","","","NA"
"2010-08-16 02:00","2010","08","16","02:00","19.7","","15.7","","78","","24","","13","","","","98.41","","","","","","NA"
"2010-08-16 03:00","2010","08","16","03:00","20.0","","13.3","","65","","28","","24","","","","98.38","","","","","","NA"
"2010-08-16 04:00","2010","08","16","04:00","19.1","","13.1","","68","","28","","24","","","","98.43","","","","","","NA"
"2010-08-16 05:00","2010","08","16","05:00","18.9","","13.2","","69","","28","","13","","","","98.47","","","","","","NA"
"2010-08-16 06:00","2010","08","16","06:00","18.4","","13.6","","74","","25","","7","","","","98.47","","","","","","NA"
"2010-08-16 07:00","2010","08","16","07:00","18.8","","13.7","","72","","23","","26","","","","98.49","","","","","","NA"
"2010-08-16 08:00","2010","08","16","08:00","16.8","","13.8","","82","","25","","26","","","","98.54","","","","","","NA"
"2010-08-16 09:00","2010","08","16","09:00","18.3","","14.3","","77","","26","","26","","","","98.55","","","","","","NA"
"2010-08-16 10:00","2010","08","16","10:00","18.8","","12.0","","65","","28","","32","","","","98.58","","","","","","NA"
"2010-08-16 11:00","2010","08","16","11:00","19.2","","11.5","","61","","26","","28","","","","98.60","","","","","","NA"
"2010-08-16 12:00","2010","08","16","12:00","19.3","","10.7","","57","","26","","37","","","","98.59","","","","","","NA"
"2010-08-16 13:00","2010","08","16","13:00","19.7","","9.9","","53","","27","","35","","","","98.61","","","","","","NA"
"2010-08-16 14:00","2010","08","16","14:00","20.0","","10.7","","55","","26","","37","","","","98.64","","","","","","NA"
"2010-08-16 15:00","2010","08","16","15:00","20.2","","10.6","","54","","27","","30","","","","98.66","","","","","","NA"
"2010-08-16 16:00","2010","08","16","16:00","20.4","","9.8","","51","","27","","32","","","","98.69","","","","","","NA"
"2010-08-16 17:00","2010","08","16","17:00","20.6","","10.3","","52","","26","","28","","","","98.70","","","","","","NA"
"2010-08-16 18:00","2010","08","16","18:00","20.0","","10.1","","53","","26","","37","","","","98.74","","","","","","NA"
"2010-08-16 19:00","2010","08","16","19:00","18.5","","10.8","","61","","28","","24","","","","98.79","","","","","","NA"
"2010-08-16 20:00","2010","08","16","20:00","18.7","","10.4","","58","","25","","13","","","","98.80","","","","","","NA"
"2010-08-16 21:00","2010","08","16","21:00","18.5","","10.7","","60","","25","","15","","","","98.87","","","","","","NA"
"2010-08-16 22:00","2010","08","16","22:00","15.9","","11.3","","74","","28","","28","","","","98.92","","","","","","NA"
"2010-08-16 23:00","2010","08","16","23:00","15.3","","13.0","","86","","27","","13","","","","98.91","","","","","","NA"
"2010-08-17 00:00","2010","08","17","00:00","15.1","","12.9","","87","","26","","13","","","","98.92","","","","","","NA"
"2010-08-17 01:00","2010","08","17","01:00","15.3","","13.2","","87","","25","","13","","","","98.92","","","","","","NA"
"2010-08-17 02:00","2010","08","17","02:00","15.3","","13.1","","87","","25","","17","","","","98.90","","","","","","NA"
"2010-08-17 03:00","2010","08","17","03:00","16.0","","13.2","","83","","25","","19","","","","98.87","","","","","","NA"
"2010-08-17 04:00","2010","08","17","04:00","16.8","","9.9","","64","","26","","19","","","","98.90","","","","","","NA"
"2010-08-17 05:00","2010","08","17","05:00","16.9","","9.2","","60","","26","","22","","","","98.91","","","","","","NA"
"2010-08-17 06:00","2010","08","17","06:00","16.9","","10.3","","65","","26","","17","","","","98.94","","","","","","NA"
"2010-08-17 07:00","2010","08","17","07:00","17.8","","11.5","","67","","24","","26","","","","98.95","","","","","","NA"
"2010-08-17 08:00","2010","08","17","08:00","18.3","","10.4","","60","","24","","26","","","","98.97","","","","","","NA"
"2010-08-17 09:00","2010","08","17","09:00","18.6","","10.3","","58","","24","","32","","","","98.94","","","","","","NA"
"2010-08-17 10:00","2010","08","17","10:00","18.4","","8.5","","52","","27","","33","","","","98.97","","","","","","NA"
"2010-08-17 11:00","2010","08","17","11:00","18.7","","6.1","","44","","28","","35","","","","99.00","","","","","","NA"
"2010-08-17 12:00","2010","08","17","12:00","18.5","","5.4","","42","","28","","37","","","","99.03","","","","","","NA"
"2010-08-17 13:00","2010","08","17","13:00","18.2","","7.9","","51","","28","","32","","","","99.06","","","","","","NA"
"2010-08-17 14:00","2010","08","17","14:00","17.4","","7.7","","53","","29","","37","","","","99.17","","","","","","NA"
"2010-08-17 15:00","2010","08","17","15:00","17.8","","10.0","","60","","28","","35","","","","99.18","","","","","","NA"
"2010-08-17 16:00","2010","08","17","16:00","18.0","","9.8","","59","","27","","37","","","","99.21","","","","","","NA"
"2010-08-17 17:00","2010","08","17","17:00","18.1","","9.6","","58","","27","","33","","","","99.24","","","","","","NA"
"2010-08-17 18:00","2010","08","17","18:00","17.4","","8.7","","57","","27","","43","","","","99.26","","","","","","NA"
"2010-08-17 19:00","2010","08","17","19:00","17.2","","8.6","","57","","28","","33","","","","99.31","","","","","","NA"
"2010-08-17 20:00","2010","08","17","20:00","16.7","","9.1","","61","","28","","33","","","","99.35","","","","","","NA"
"2010-08-17 21:00","2010","08","17","21:00","16.3","","8.3","","59","","30","","20","","","","99.39","","","","","","NA"
"2010-08-17 22:00","2010","08","17","22:00","16.2","","5.8","","50","","30","","19","","","","99.45","","","","","","NA"
"2010-08-17 23:00","2010","08","17","23:00","15.4","","6.8","","56","","30","","7","","","","99.47","","","","","","NA"
"2010-08-18 00:00","2010","08","18","00:00","14.9","","6.1","","56","","30","","9","","","","99.50","","","","","","NA"
"2010-08-18 01:00","2010","08","18","01:00","14.4","","4.8","","52","","29","","9","","","","99.52","","","","","","NA"
"2010-08-18 02:00","2010","08","18","02:00","13.8","","5.3","","56","","30","","6","","","","99.53","","","","","","NA"
"2010-08-18 03:00","2010","08","18","03:00","13.9","","5.4","","56","","32","","6","","","","99.52","","","","","","NA"
"2010-08-18 04:00","2010","08","18","04:00","13.6","","5.9","","60","","35","","4","","","","99.51","","","","","","NA"
"2010-08-18 05:00","2010","08","18","05:00","12.6","","5.4","","61","","6","","4","","","","99.51","","","","","","NA"
"2010-08-18 06:00","2010","08","18","06:00","12.9","","6.1","","63","","4","","4","","","","99.55","","","","","","NA"
"2010-08-18 07:00","2010","08","18","07:00","16.8","","7.7","","55","","16","","15","","","","99.52","","","","","","NA"
"2010-08-18 08:00","2010","08","18","08:00","17.2","","12.2","","72","","19","","20","","","","99.47","","","","","","NA"
"2010-08-18 09:00","2010","08","18","09:00","17.7","","14.1","","79","","19","","24","","","","99.41","","","","","","NA"
"2010-08-18 10:00","2010","08","18","10:00","19.3","","11.0","","59","","22","","32","","","","99.39","","","","","","NA"
"2010-08-18 11:00","2010","08","18","11:00","19.4","","10.7","","57","","22","","30","","","","99.35","","","","","","NA"
"2010-08-18 12:00","2010","08","18","12:00","20.1","","9.1","","49","","23","","32","","","","99.28","","","","","","NA"
"2010-08-18 13:00","2010","08","18","13:00","20.0","","12.0","","60","","21","","26","","","","99.25","","","","","","NA"
"2010-08-18 14:00","2010","08","18","14:00","20.3","","13.2","","64","","21","","22","","","","99.22","","","","","","NA"
"2010-08-18 15:00","2010","08","18","15:00","20.0","","13.0","","64","","21","","30","","","","99.18","","","","","","NA"
"2010-08-18 16:00","2010","08","18","16:00","20.3","","13.0","","63","","21","","28","","","","99.13","","","","","","NA"
"2010-08-18 17:00","2010","08","18","17:00","19.6","","13.7","","69","","19","","30","","","","99.10","","","","","","NA"
"2010-08-18 18:00","2010","08","18","18:00","19.5","","14.7","","74","","21","","19","","","","99.09","","","","","","NA"
"2010-08-18 19:00","2010","08","18","19:00","19.5","","14.7","","74","","20","","19","","","","99.06","","","","","","NA"
"2010-08-18 20:00","2010","08","18","20:00","19.3","","15.2","","77","","21","","20","","","","99.05","","","","","","NA"
"2010-08-18 21:00","2010","08","18","21:00","19.4","","14.8","","75","","28","","7","","","","99.10","","","","","","NA"
"2010-08-18 22:00","2010","08","18","22:00","19.2","","14.9","","76","","25","","7","","","","99.04","","","","","","NA"
"2010-08-18 23:00","2010","08","18","23:00","19.3","","15.2","","77","","27","","9","","","","99.01","","","","","","NA"
"2010-08-19 00:00","2010","08","19","00:00","18.7","","15.7","","83","","26","","6","","","","98.95","","","","","","NA"
"2010-08-19 01:00","2010","08","19","01:00","18.0","","16.0","","88","","28","","7","","","","98.93","","","","","","NA"
"2010-08-19 02:00","2010","08","19","02:00","18.4","","16.7","","90","","24","","4","","","","98.88","","","","","","NA"
"2010-08-19 03:00","2010","08","19","03:00","18.2","","17.0","","93","","25","","4","","","","98.80","","","","","","NA"
"2010-08-19 04:00","2010","08","19","04:00","18.2","","17.2","","94","","23","","4","","","","98.76","","","","","","NA"
"2010-08-19 05:00","2010","08","19","05:00","18.8","","17.2","","90","","21","","11","","","","98.72","","","","","","NA"
"2010-08-19 06:00","2010","08","19","06:00","18.8","","17.2","","90","","21","","13","","","","98.70","","","","","","NA"
"2010-08-19 07:00","2010","08","19","07:00","16.5","","15.4","","93","","33","","19","","","","98.80","","","","","","NA"
"2010-08-19 08:00","2010","08","19","08:00","16.1","","14.8","","92","","7","","9","","","","98.66","","","","","","NA"
"2010-08-19 09:00","2010","08","19","09:00","16.3","","15.2","","93","","32","","6","","","","98.76","","","","","","NA"
"2010-08-19 10:00","2010","08","19","10:00","17.2","","14.0","","81","","9","","4","","","","98.71","","","","","","NA"
"2010-08-19 11:00","2010","08","19","11:00","18.2","","15.2","","83","","31","","17","","","","98.81","","","","","","NA"
"2010-08-19 12:00","2010","08","19","12:00","17.8","","11.2","","65","","35","","19","","","","98.84","","","","","","NA"
"2010-08-19 13:00","2010","08","19","13:00","18.9","","9.7","","55","","33","","19","","","","98.85","","","","","","NA"
"2010-08-19 14:00","2010","08","19","14:00","20.3","","8.8","","48","","35","","13","","","","98.90","","","","","","NA"
"2010-08-19 15:00","2010","08","19","15:00","20.4","","6.9","","42","","35","","19","","","","98.92","","","","","","NA"
"2010-08-19 16:00","2010","08","19","16:00","21.0","","6.0","","38","","33","","13","","","","98.93","","","","","","NA"
"2010-08-19 17:00","2010","08","19","17:00","21.0","","4.8","","35","","33","","11","","","","98.97","","","","","","NA"
"2010-08-19 18:00","2010","08","19","18:00","20.8","","5.1","","36","","34","","7","","","","98.99","","","","","","NA"
"2010-08-19 19:00","2010","08","19","19:00","20.0","","6.4","","41","","34","","6","","","","99.03","","","","","","NA"
"2010-08-19 20:00","2010","08","19","20:00","16.7","","9.6","","63","","29","","6","","","","99.10","","","","","","NA"
"2010-08-19 21:00","2010","08","19","21:00","17.8","","11.7","","67","","30","","7","","","","99.16","","","","","","NA"
"2010-08-19 22:00","2010","08","19","22:00","17.4","","11.6","","69","","33","","7","","","","99.19","","","","","","NA"
"2010-08-19 23:00","2010","08","19","23:00","16.7","","12.8","","78","","30","","6","","","","99.23","","","","","","NA"
"2010-08-20 00:00","2010","08","20","00:00","14.9","","11.3","","79","","7","","9","","","","99.25","","","","","","NA"
"2010-08-20 01:00","2010","08","20","01:00","15.2","","10.2","","72","","8","","7","","","","99.26","","","","","","NA"
"2010-08-20 02:00","2010","08","20","02:00","14.7","","9.4","","71","","4","","6","","","","99.28","","","","","","NA"
"2010-08-20 03:00","2010","08","20","03:00","15.2","","10.3","","73","","36","","4","","","","99.34","","","","","","NA"
"2010-08-20 04:00","2010","08","20","04:00","14.8","","10.9","","77","","","","0","","","","99.37","","","","","","NA"
"2010-08-20 05:00","2010","08","20","05:00","15.7","","10.8","","73","","31","","2","","","","99.39","","","","","","NA"
"2010-08-20 06:00","2010","08","20","06:00","13.9","","11.0","","83","","6","","7","","","","99.39","","","","","","NA"
"2010-08-20 07:00","2010","08","20","07:00","16.0","","12.7","","81","","4","","4","","","","99.45","","","","","","NA"
"2010-08-20 08:00","2010","08","20","08:00","18.3","","13.5","","74","","","","0","","","","99.52","","","","","","NA"
"2010-08-20 09:00","2010","08","20","09:00","18.1","","12.5","","70","","18","","6","","","","99.52","","","","","","NA"
"2010-08-20 10:00","2010","08","20","10:00","18.2","","13.1","","72","","14","","6","","","","99.56","","","","","","NA"
"2010-08-20 11:00","2010","08","20","11:00","18.8","","11.5","","63","","16","","6","","","","99.57","","","","","","NA"
"2010-08-20 12:00","2010","08","20","12:00","19.5","","9.4","","52","","20","","19","","","","99.58","","","","","","NA"
"2010-08-20 13:00","2010","08","20","13:00","18.8","","10.6","","59","","13","","22","","","","99.37","","","","","","NA"
"2010-08-20 14:00","2010","08","20","14:00","18.8","","10.9","","60","","17","","24","","","","99.48","","","","","","NA"
"2010-08-20 15:00","2010","08","20","15:00","18.5","","11.3","","63","","15","","24","","","","99.38","","","","","","NA"
"2010-08-20 16:00","2010","08","20","16:00","18.8","","10.5","","59","","15","","20","","","","99.37","","","","","","NA"
"2010-08-20 17:00","2010","08","20","17:00","19.0","","9.5","","54","","14","","22","","","","99.28","","","","","","NA"
"2010-08-20 18:00","2010","08","20","18:00","19.1","","8.2","","49","","12","","22","","","","99.23","","","","","","NA"
"2010-08-20 19:00","2010","08","20","19:00","19.2","","10.1","","56","","13","","28","","","","99.16","","","","","","NA"
"2010-08-20 20:00","2010","08","20","20:00","19.4","","12.3","","63","","13","","32","","","","99.08","","","","","","NA"
"2010-08-20 21:00","2010","08","20","21:00","19.7","","13.8","","69","","12","","24","","","","99.17","","","","","","NA"
"2010-08-20 22:00","2010","08","20","22:00","19.8","","14.4","","71","","11","","32","","","","99.08","","","","","","NA"
"2010-08-20 23:00","2010","08","20","23:00","19.8","","14.0","","69","","12","","37","","","","98.97","","","","","","NA"
"2010-08-21 00:00","2010","08","21","00:00","19.1","","15.8","","81","","13","","13","","","","99.24","","","","","","NA"
"2010-08-21 01:00","2010","08","21","01:00","17.1","","16.1","","94","","11","","32","","","","99.01","","","","","","NA"
"2010-08-21 02:00","2010","08","21","02:00","17.4","","16.4","","94","","13","","28","","","","99.03","","","","","","NA"
"2010-08-21 03:00","2010","08","21","03:00","17.1","","16.1","","94","","14","","33","","","","99.02","","","","","","NA"
"2010-08-21 04:00","2010","08","21","04:00","16.8","","15.1","","90","","13","","41","","","","98.92","","","","","","NA"
"2010-08-21 05:00","2010","08","21","05:00","16.9","","15.3","","90","","13","","44","","","","98.91","","","","","","NA"
"2010-08-21 06:00","2010","08","21","06:00","16.7","","15.4","","92","","13","","41","","","","98.93","","","","","","NA"
"2010-08-21 07:00","2010","08","21","07:00","16.7","","15.5","","93","","13","","35","","","","98.96","","","","","","NA"
"2010-08-21 08:00","2010","08","21","08:00","17.3","","16.3","","94","","13","","32","","","","98.92","","","","","","NA"
"2010-08-21 09:00","2010","08","21","09:00","17.7","","16.4","","92","","14","","37","","","","98.84","","","","","","NA"
"2010-08-21 10:00","2010","08","21","10:00","18.1","","15.6","","85","","14","","41","","","","98.85","","","","","","NA"
"2010-08-21 11:00","2010","08","21","11:00","18.3","","15.1","","82","","12","","35","","","","98.83","","","","","","NA"
"2010-08-21 12:00","2010","08","21","12:00","18.2","","15.4","","84","","13","","30","","","","98.85","","","","","","NA"
"2010-08-21 13:00","2010","08","21","13:00","18.2","","15.4","","84","","13","","24","","","","98.84","","","","","","NA"
"2010-08-21 14:00","2010","08","21","14:00","18.5","","16.3","","87","","13","","26","","","","98.83","","","","","","NA"
"2010-08-21 15:00","2010","08","21","15:00","18.7","","16.4","","86","","11","","19","","","","98.81","","","","","","NA"
"2010-08-21 16:00","2010","08","21","16:00","18.8","","16.7","","88","","10","","20","","","","98.80","","","","","","NA"
"2010-08-21 17:00","2010","08","21","17:00","18.9","","16.5","","86","","10","","22","","","","98.80","","","","","","NA"
"2010-08-21 18:00","2010","08","21","18:00","19.1","","16.7","","86","","9","","17","","","","98.82","","","","","","NA"
"2010-08-21 19:00","2010","08","21","19:00","19.2","","16.5","","84","","7","","7","","","","98.85","","","","","","NA"
"2010-08-21 20:00","2010","08","21","20:00","19.2","","16.5","","84","","7","","7","","","","98.88","","","","","","NA"
"2010-08-21 21:00","2010","08","21","21:00","19.3","","16.8","","85","","8","","11","","","","98.91","","","","","","NA"
"2010-08-21 22:00","2010","08","21","22:00","19.0","","16.4","","85","","9","","13","","","","98.91","","","","","","NA"
"2010-08-21 23:00","2010","08","21","23:00","18.7","","16.3","","86","","5","","4","","","","98.93","","","","","","NA"
"2010-08-22 00:00","2010","08","22","00:00","18.6","","16.2","","86","","5","","6","","","","98.94","","","","","","NA"
"2010-08-22 01:00","2010","08","22","01:00","18.3","","16.4","","89","","36","","2","","","","98.94","","","","","","NA"
"2010-08-22 02:00","2010","08","22","02:00","18.4","","16.7","","90","","3","","2","","","","98.94","","","","","","NA"
"2010-08-22 03:00","2010","08","22","03:00","18.5","","17.0","","91","","9","","6","","","","98.93","","","","","","NA"
"2010-08-22 04:00","2010","08","22","04:00","18.2","","16.6","","90","","3","","4","","","","98.95","","","","","","NA"
"2010-08-22 05:00","2010","08","22","05:00","18.1","","16.3","","89","","35","","2","","","","99.00","","","","","","NA"
"2010-08-22 06:00","2010","08","22","06:00","18.2","","16.5","","90","","1","","4","","","","99.04","","","","","","NA"
"2010-08-22 07:00","2010","08","22","07:00","18.4","","16.7","","90","","","","0","","","","99.09","","","","","","NA"
"2010-08-22 08:00","2010","08","22","08:00","18.6","","16.3","","86","","3","","6","","","","99.13","","","","","","NA"
"2010-08-22 09:00","2010","08","22","09:00","18.7","","16.1","","85","","1","","6","","","","99.19","","","","","","NA"
"2010-08-22 10:00","2010","08","22","10:00","18.7","","15.9","","84","","1","","9","","","","99.24","","","","","","NA"
"2010-08-22 11:00","2010","08","22","11:00","18.8","","15.7","","82","","1","","15","","","","99.28","","","","","","NA"
"2010-08-22 12:00","2010","08","22","12:00","18.6","","15.4","","82","","2","","19","","","","99.31","","","","","","NA"
"2010-08-22 13:00","2010","08","22","13:00","18.8","","15.3","","80","","3","","13","","","","99.33","","","","","","NA"
"2010-08-22 14:00","2010","08","22","14:00","19.3","","15.6","","79","","3","","15","","","","99.36","","","","","","NA"
"2010-08-22 15:00","2010","08","22","15:00","20.0","","15.6","","76","","4","","9","","","","99.42","","","","","","NA"
"2010-08-22 16:00","2010","08","22","16:00","20.6","","15.5","","73","","2","","15","","","","99.43","","25","","","","NA"
"2010-08-22 17:00","2010","08","22","17:00","19.4","","15.0","","76","","2","","17","","","","99.49","","","","","","NA"
"2010-08-22 18:00","2010","08","22","18:00","19.2","","14.7","","75","","3","","15","","","","99.53","","","","","","NA"
"2010-08-22 19:00","2010","08","22","19:00","18.4","","14.6","","79","","4","","15","","","","99.57","","","","","","NA"
"2010-08-22 20:00","2010","08","22","20:00","17.9","","14.2","","79","","5","","11","","","","99.63","","","","","","NA"
"2010-08-22 21:00","2010","08","22","21:00","17.6","","14.1","","80","","4","","9","","","","99.66","","","","","","NA"
"2010-08-22 22:00","2010","08","22","22:00","17.3","","14.2","","82","","4","","7","","","","99.67","","","","","","NA"
"2010-08-22 23:00","2010","08","22","23:00","17.2","","13.7","","80","","5","","11","","","","99.66","","","","","","NA"
"2010-08-23 00:00","2010","08","23","00:00","16.7","","13.4","","81","","1","","9","","","","99.63","","","","","","NA"
"2010-08-23 01:00","2010","08","23","01:00","16.6","","13.9","","84","","1","","11","","","","99.66","","","","","","NA"
"2010-08-23 02:00","2010","08","23","02:00","16.5","","14.0","","85","","2","","11","","","","99.67","","","","","","NA"
"2010-08-23 03:00","2010","08","23","03:00","16.3","","14.0","","86","","1","","9","","","","99.69","","","","","","NA"
"2010-08-23 04:00","2010","08","23","04:00","16.4","","13.9","","85","","4","","7","","","","99.70","","","","","","NA"
"2010-08-23 05:00","2010","08","23","05:00","16.4","","13.9","","85","","4","","6","","","","99.71","","","","","","NA"
"2010-08-23 06:00","2010","08","23","06:00","16.4","","14.0","","86","","5","","7","","","","99.73","","","","","","NA"
"2010-08-23 07:00","2010","08","23","07:00","16.8","","14.1","","84","","4","","4","","","","99.79","","","","","","NA"
"2010-08-23 08:00","2010","08","23","08:00","17.1","","14.2","","83","","7","","13","","","","99.84","","","","","","NA"
"2010-08-23 09:00","2010","08","23","09:00","17.5","","14.3","","81","","6","","9","","","","99.88","","","","","","NA"
"2010-08-23 10:00","2010","08","23","10:00","17.7","","14.4","","81","","5","","7","","","","99.89","","","","","","NA"
"2010-08-23 11:00","2010","08","23","11:00","19.3","","15.1","","77","","7","","9","","","","99.87","","","","","","NA"
"2010-08-23 12:00","2010","08","23","12:00","19.5","","14.6","","73","","9","","15","","","","99.82","","","","","","NA"
"2010-08-23 13:00","2010","08","23","13:00","20.0","","14.7","","72","","12","","15","","","","99.82","","","","","","NA"
"2010-08-23 14:00","2010","08","23","14:00","19.9","","15.5","","76","","14","","11","","","","99.78","","","","","","NA"
"2010-08-23 15:00","2010","08","23","15:00","21.6","","15.8","","70","","24","","6","","","","99.76","","26","","","","NA"
"2010-08-23 16:00","2010","08","23","16:00","20.6","","15.9","","74","","22","","11","","","","99.73","","25","","","","NA"
"2010-08-23 17:00","2010","08","23","17:00","20.8","","16.6","","77","","20","","9","","","","99.73","","26","","","","NA"
"2010-08-23 18:00","2010","08","23","18:00","21.9","","15.1","","65","","20","","4","","","","99.73","","26","","","","NA"
"2010-08-23 19:00","2010","08","23","19:00","21.3","","15.0","","67","","5","","2","","","","99.74","","25","","","","NA"
"2010-08-23 20:00","2010","08","23","20:00","20.8","","15.3","","71","","6","","6","","","","99.76","","25","","","","NA"
"2010-08-23 21:00","2010","08","23","21:00","19.8","","15.1","","74","","6","","7","","","","99.81","","","","","","NA"
"2010-08-23 22:00","2010","08","23","22:00","19.5","","15.1","","76","","6","","7","","","","99.79","","","","","","NA"
"2010-08-23 23:00","2010","08","23","23:00","19.1","","15.7","","81","","8","","11","","","","99.77","","","","","","NA"
"2010-08-24 00:00","2010","08","24","00:00","18.2","","15.2","","83","","6","","7","","","","99.75","","","","","","NA"
"2010-08-24 01:00","2010","08","24","01:00","18.3","","15.5","","84","","7","","7","","","","99.72","","","","","","NA"
"2010-08-24 02:00","2010","08","24","02:00","17.8","","15.3","","85","","6","","6","","","","99.70","","","","","","NA"
"2010-08-24 03:00","2010","08","24","03:00","18.3","","16.4","","89","","8","","9","","","","99.68","","","","","","NA"
"2010-08-24 04:00","2010","08","24","04:00","18.4","","16.6","","89","","5","","2","","","","99.68","","","","","","NA"
"2010-08-24 05:00","2010","08","24","05:00","18.9","","17.2","","90","","23","","4","","","","99.68","","","","","","NA"
"2010-08-24 06:00","2010","08","24","06:00","18.7","","16.4","","86","","20","","2","","","","99.70","","","","","","NA"
"2010-08-24 07:00","2010","08","24","07:00","18.5","","16.4","","88","","23","","4","","","","99.75","","","","","","NA"
"2010-08-24 08:00","2010","08","24","08:00","19.3","","16.3","","83","","20","","9","","","","99.75","","","","","","NA"
"2010-08-24 09:00","2010","08","24","09:00","18.9","","16.4","","85","","17","","9","","","","99.72","","","","","","NA"
"2010-08-24 10:00","2010","08","24","10:00","19.1","","17.0","","88","","14","","15","","","","99.70","","","","","","NA"
"2010-08-24 11:00","2010","08","24","11:00","19.3","","16.7","","85","","15","","20","","","","99.67","","","","","","NA"
"2010-08-24 12:00","2010","08","24","12:00","19.4","","15.9","","80","","15","","19","","","","99.62","","","","","","NA"
"2010-08-24 13:00","2010","08","24","13:00","19.3","","16.2","","82","","15","","20","","","","99.61","","","","","","NA"
"2010-08-24 14:00","2010","08","24","14:00","19.3","","15.0","","76","","16","","19","","","","99.55","","","","","","NA"
"2010-08-24 15:00","2010","08","24","15:00","19.1","","15.6","","80","","15","","17","","","","99.48","","","","","","NA"
"2010-08-24 16:00","2010","08","24","16:00","19.1","","15.6","","80","","16","","17","","","","99.45","","","","","","NA"
"2010-08-24 17:00","2010","08","24","17:00","19.2","","15.6","","80","","16","","17","","","","99.42","","","","","","NA"
"2010-08-24 18:00","2010","08","24","18:00","19.5","","16.4","","82","","17","","11","","","","99.39","","","","","","NA"
"2010-08-24 19:00","2010","08","24","19:00","19.4","","16.6","","84","","18","","19","","","","99.35","","","","","","NA"
"2010-08-24 20:00","2010","08","24","20:00","19.5","","16.6","","83","","19","","13","","","","99.35","","","","","","NA"
"2010-08-24 21:00","2010","08","24","21:00","19.5","","16.4","","82","","17","","9","","","","99.33","","","","","","NA"
"2010-08-24 22:00","2010","08","24","22:00","19.7","","16.3","","81","","14","","11","","","","99.27","","","","","","NA"
"2010-08-24 23:00","2010","08","24","23:00","19.6","","16.6","","83","","14","","19","","","","99.21","","","","","","NA"
"2010-08-25 00:00","2010","08","25","00:00","19.5","","17.1","","86","","15","","15","","","","99.21","","","","","","NA"
"2010-08-25 01:00","2010","08","25","01:00","19.3","","17.1","","87","","22","","19","","","","99.20","","","","","","NA"
"2010-08-25 02:00","2010","08","25","02:00","19.1","","16.1","","83","","21","","19","","","","99.15","","","","","","NA"
"2010-08-25 03:00","2010","08","25","03:00","19.2","","17.1","","88","","22","","15","","","","99.10","","","","","","NA"
"2010-08-25 04:00","2010","08","25","04:00","19.2","","17.3","","89","","21","","13","","","","99.04","","","","","","NA"
"2010-08-25 05:00","2010","08","25","05:00","19.2","","17.7","","91","","20","","19","","","","99.00","","","","","","NA"
"2010-08-25 06:00","2010","08","25","06:00","16.3","","12.7","","79","","33","","20","","","","99.03","","","","","","NA"
"2010-08-25 07:00","2010","08","25","07:00","15.9","","12.1","","78","","33","","17","","","","99.05","","","","","","NA"
"2010-08-25 08:00","2010","08","25","08:00","15.9","","12.1","","78","","34","","7","","","","99.07","","","","","","NA"
"2010-08-25 09:00","2010","08","25","09:00","16.6","","12.7","","78","","31","","7","","","","99.08","","","","","","NA"
"2010-08-25 10:00","2010","08","25","10:00","17.9","","11.8","","67","","29","","19","","","","99.08","","","","","","NA"
"2010-08-25 11:00","2010","08","25","11:00","18.4","","12.3","","68","","28","","24","","","","99.06","","","","","","NA"
"2010-08-25 12:00","2010","08","25","12:00","18.6","","12.9","","69","","28","","30","","","","99.05","","","","","","NA"
"2010-08-25 13:00","2010","08","25","13:00","19.3","","11.3","","60","","28","","26","","","","99.02","","","","","","NA"
"2010-08-25 14:00","2010","08","25","14:00","20.1","","11.5","","58","","28","","28","","","","98.99","","","","","","NA"
"2010-08-25 15:00","2010","08","25","15:00","20.8","","9.0","","47","","28","","30","","","","98.95","","","","","","NA"
"2010-08-25 16:00","2010","08","25","16:00","18.9","","11.6","","63","","29","","30","","","","98.99","","","","","","NA"
"2010-08-25 17:00","2010","08","25","17:00","18.5","","11.8","","65","","28","","28","","","","99.00","","","","","","NA"
"2010-08-25 18:00","2010","08","25","18:00","18.7","","9.8","","56","","28","","33","","","","99.00","","","","","","NA"
"2010-08-25 19:00","2010","08","25","19:00","18.2","","11.1","","63","","28","","30","","","","99.05","","","","","","NA"
"2010-08-25 20:00","2010","08","25","20:00","17.2","","9.6","","61","","29","","22","","","","99.12","","","","","","NA"
"2010-08-25 21:00","2010","08","25","21:00","15.8","","7.7","","59","","30","","26","","","","99.16","","","","","","NA"
"2010-08-25 22:00","2010","08","25","22:00","15.4","","8.5","","63","","31","","20","","","","99.18","","","","","","NA"
"2010-08-25 23:00","2010","08","25","23:00","14.9","","8.8","","67","","32","","20","","","","99.21","","","","","","NA"
"2010-08-26 00:00","2010","08","26","00:00","14.5","","8.8","","69","","31","","15","","","","99.26","","","","","","NA"
"2010-08-26 01:00","2010","08","26","01:00","14.0","","9.4","","74","","30","","13","","","","99.29","","","","","","NA"
"2010-08-26 02:00","2010","08","26","02:00","13.6","","9.0","","74","","32","","15","","","","99.30","","","","","","NA"
"2010-08-26 03:00","2010","08","26","03:00","13.1","","8.8","","75","","33","","17","","","","99.36","","","","","","NA"
"2010-08-26 04:00","2010","08","26","04:00","12.6","","8.3","","75","","34","","13","","","","99.41","","","","","","NA"
"2010-08-26 05:00","2010","08","26","05:00","12.5","","7.9","","74","","34","","15","","","","99.48","","","","","","NA"
"2010-08-26 06:00","2010","08","26","06:00","12.5","","7.5","","72","","33","","17","","","","99.54","","","","","","NA"
"2010-08-26 07:00","2010","08","26","07:00","12.9","","7.7","","71","","33","","17","","","","99.60","","","","","","NA"
"2010-08-26 08:00","2010","08","26","08:00","13.3","","7.1","","66","","36","","22","","","","99.64","","","","","","NA"
"2010-08-26 09:00","2010","08","26","09:00","14.7","","7.3","","61","","35","","19","","","","99.69","","","","","","NA"
"2010-08-26 10:00","2010","08","26","10:00","15.7","","6.6","","55","","34","","17","","","","99.73","","","","","","NA"
"2010-08-26 11:00","2010","08","26","11:00","16.8","","4.9","","45","","34","","17","","","","99.73","","","","","","NA"
"2010-08-26 12:00","2010","08","26","12:00","17.0","","5.9","","48","","31","","19","","","","99.73","","","","","","NA"
"2010-08-26 13:00","2010","08","26","13:00","17.7","","4.6","","42","","30","","17","","","","99.70","","","","","","NA"
"2010-08-26 14:00","2010","08","26","14:00","18.4","","5.6","","43","","29","","20","","","","99.69","","","","","","NA"
"2010-08-26 15:00","2010","08","26","15:00","18.2","","8.2","","52","","28","","28","","","","99.68","","","","","","NA"
"2010-08-26 16:00","2010","08","26","16:00","18.3","","8.7","","53","","27","","26","","","","99.65","","","","","","NA"
"2010-08-26 17:00","2010","08","26","17:00","18.5","","8.2","","51","","28","","22","","","","99.66","","","","","","NA"
"2010-08-26 18:00","2010","08","26","18:00","18.6","","7.8","","49","","27","","19","","","","99.66","","","","","","NA"
"2010-08-26 19:00","2010","08","26","19:00","18.1","","8.7","","54","","27","","19","","","","99.65","","","","","","NA"
"2010-08-26 20:00","2010","08","26","20:00","17.1","","9.5","","61","","25","","9","","","","99.67","","","","","","NA"
"2010-08-26 21:00","2010","08","26","21:00","16.3","","10.6","","69","","26","","9","","","","99.67","","","","","","NA"
"2010-08-26 22:00","2010","08","26","22:00","16.5","","10.7","","69","","26","","13","","","","99.68","","","","","","NA"
"2010-08-26 23:00","2010","08","26","23:00","15.8","","11.3","","75","","28","","9","","","","99.67","","","","","","NA"
"2010-08-27 00:00","2010","08","27","00:00","16.2","","11.3","","73","","28","","11","","","","99.68","","","","","","NA"
"2010-08-27 01:00","2010","08","27","01:00","15.5","","11.7","","78","","28","","9","","","","99.64","","","","","","NA"
"2010-08-27 02:00","2010","08","27","02:00","14.9","","12.1","","83","","30","","7","","","","99.66","","","","","","NA"
"2010-08-27 03:00","2010","08","27","03:00","15.0","","11.5","","80","","28","","7","","","","99.66","","","","","","NA"
"2010-08-27 04:00","2010","08","27","04:00","15.5","","11.2","","76","","27","","15","","","","99.67","","","","","","NA"
"2010-08-27 05:00","2010","08","27","05:00","15.2","","11.9","","81","","28","","11","","","","99.69","","","","","","NA"
"2010-08-27 06:00","2010","08","27","06:00","15.7","","12.6","","82","","27","","13","","","","99.73","","","","","","NA"
"2010-08-27 07:00","2010","08","27","07:00","16.7","","12.9","","78","","27","","15","","","","99.75","","","","","","NA"
"2010-08-27 08:00","2010","08","27","08:00","17.1","","11.4","","69","","26","","20","","","","99.73","","","","","","NA"
"2010-08-27 09:00","2010","08","27","09:00","17.9","","10.3","","61","","26","","24","","","","99.72","","","","","","NA"
"2010-08-27 10:00","2010","08","27","10:00","18.4","","9.5","","56","","24","","19","","","","99.72","","","","","","NA"
"2010-08-27 11:00","2010","08","27","11:00","18.9","","9.5","","54","","22","","19","","","","99.66","","","","","","NA"
"2010-08-27 12:00","2010","08","27","12:00","20.2","","7.6","","44","","24","","20","","","","99.61","","","","","","NA"
"2010-08-27 13:00","2010","08","27","13:00","20.7","","8.8","","46","","25","","24","","","","99.59","","","","","","NA"
"2010-08-27 14:00","2010","08","27","14:00","20.6","","10.6","","53","","24","","26","","","","99.55","","","","","","NA"
"2010-08-27 15:00","2010","08","27","15:00","20.8","","11.1","","54","","23","","26","","","","99.51","","","","","","NA"
"2010-08-27 16:00","2010","08","27","16:00","21.0","","10.4","","51","","23","","28","","","","99.50","","","","","","NA"
"2010-08-27 17:00","2010","08","27","17:00","20.2","","12.5","","61","","22","","24","","","","99.50","","","","","","NA"
"2010-08-27 18:00","2010","08","27","18:00","20.2","","11.9","","59","","22","","26","","","","99.49","","","","","","NA"
"2010-08-27 19:00","2010","08","27","19:00","19.9","","11.5","","58","","23","","19","","","","99.49","","","","","","NA"
"2010-08-27 20:00","2010","08","27","20:00","19.0","","11.5","","62","","24","","13","","","","99.50","","","","","","NA"
"2010-08-27 21:00","2010","08","27","21:00","18.6","","11.2","","62","","24","","13","","","","99.51","","","","","","NA"
"2010-08-27 22:00","2010","08","27","22:00","18.0","","12.0","","68","","26","","7","","","","99.51","","","","","","NA"
"2010-08-27 23:00","2010","08","27","23:00","17.9","","13.1","","73","","24","","7","","","","99.49","","","","","","NA"
"2010-08-28 00:00","2010","08","28","00:00","18.7","","14.6","","77","","24","","17","","","","99.50","","","","","","NA"
"2010-08-28 01:00","2010","08","28","01:00","18.9","","15.4","","80","","24","","9","","","","99.49","","","","","","NA"
"2010-08-28 02:00","2010","08","28","02:00","18.9","","15.4","","80","","26","","11","","","","99.46","","","","","","NA"
"2010-08-28 03:00","2010","08","28","03:00","18.6","","15.5","","82","","26","","7","","","","99.46","","","","","","NA"
"2010-08-28 04:00","2010","08","28","04:00","19.0","","15.6","","81","","27","","6","","","","99.47","","","","","","NA"
"2010-08-28 05:00","2010","08","28","05:00","18.6","","15.0","","80","","26","","9","","","","99.50","","","","","","NA"
"2010-08-28 06:00","2010","08","28","06:00","19.0","","15.1","","78","","25","","17","","","","99.52","","","","","","NA"
"2010-08-28 07:00","2010","08","28","07:00","19.4","","15.0","","76","","25","","15","","","","99.55","","","","","","NA"
"2010-08-28 08:00","2010","08","28","08:00","20.0","","15.5","","75","","24","","17","","","","99.55","","","","","","NA"
"2010-08-28 09:00","2010","08","28","09:00","21.3","","15.4","","69","","24","","20","","","","99.56","","26","","","","NA"
"2010-08-28 10:00","2010","08","28","10:00","22.2","","15.7","","67","","23","","20","","","","99.56","","27","","","","NA"
"2010-08-28 11:00","2010","08","28","11:00","23.6","","15.1","","59","","25","","19","","","","99.55","","28","","","","NA"
"2010-08-28 12:00","2010","08","28","12:00","24.2","","14.6","","55","","23","","22","","","","99.53","","28","","","","NA"
"2010-08-28 13:00","2010","08","28","13:00","25.1","","13.5","","49","","25","","35","","","","99.52","","28","","","","NA"
"2010-08-28 14:00","2010","08","28","14:00","25.7","","14.0","","48","","26","","28","","","","99.52","","29","","","","NA"
"2010-08-28 15:00","2010","08","28","15:00","24.6","","15.3","","56","","23","","30","","","","99.49","","29","","","","NA"
"2010-08-28 16:00","2010","08","28","16:00","22.1","","17.2","","74","","23","","20","","","","99.51","","28","","","","NA"
"2010-08-28 17:00","2010","08","28","17:00","21.7","","17.4","","77","","23","","19","","","","99.51","","27","","","","NA"
"2010-08-28 18:00","2010","08","28","18:00","23.2","","16.9","","68","","24","","19","","","","99.50","","28","","","","NA"
"2010-08-28 19:00","2010","08","28","19:00","22.2","","16.9","","72","","23","","19","","","","99.49","","27","","","","NA"
"2010-08-28 20:00","2010","08","28","20:00","21.3","","17.0","","76","","25","","4","","","","99.54","","27","","","","NA"
"2010-08-28 21:00","2010","08","28","21:00","20.8","","16.9","","78","","19","","4","","","","99.58","","26","","","","NA"
"2010-08-28 22:00","2010","08","28","22:00","19.9","","17.1","","84","","25","","4","","","","99.60","","","","","","NA"
"2010-08-28 23:00","2010","08","28","23:00","19.7","","16.4","","81","","14","","4","","","","99.60","","","","","","NA"
"2010-08-29 00:00","2010","08","29","00:00","19.5","","16.6","","83","","13","","6","","","","99.62","","","","","","NA"
"2010-08-29 01:00","2010","08","29","01:00","19.2","","16.4","","84","","","","0","","","","99.64","","","","","","NA"
"2010-08-29 02:00","2010","08","29","02:00","19.5","","16.0","","80","","3","","2","","","","99.64","","","","","","NA"
"2010-08-29 03:00","2010","08","29","03:00","19.8","","15.4","","76","","30","","4","","","","99.66","","","","","","NA"
"2010-08-29 04:00","2010","08","29","04:00","19.0","","15.2","","79","","24","","2","","","","99.68","","","","","","NA"
"2010-08-29 05:00","2010","08","29","05:00","19.0","","15.9","","82","","8","","2","","","","99.72","","","","","","NA"
"2010-08-29 06:00","2010","08","29","06:00","19.0","","15.4","","80","","31","","4","","","","99.79","","","","","","NA"
"2010-08-29 07:00","2010","08","29","07:00","19.9","","15.3","","75","","27","","9","","","","99.83","","","","","","NA"
"2010-08-29 08:00","2010","08","29","08:00","20.6","","14.8","","69","","26","","11","","","","99.87","","","","","","NA"
"2010-08-29 09:00","2010","08","29","09:00","20.3","","15.7","","75","","21","","11","","","","99.91","","25","","","","NA"
"2010-08-29 10:00","2010","08","29","10:00","20.7","","14.1","","66","","16","","9","","","","99.93","","","","","","NA"
"2010-08-29 11:00","2010","08","29","11:00","20.3","","16.9","","81","","14","","11","","","","99.91","","26","","","","NA"
"2010-08-29 12:00","2010","08","29","12:00","20.7","","16.8","","78","","16","","6","","","","99.91","","26","","","","NA"
"2010-08-29 13:00","2010","08","29","13:00","20.6","","16.7","","78","","16","","7","","","","99.87","","26","","","","NA"
"2010-08-29 14:00","2010","08","29","14:00","20.9","","17.2","","79","","19","","22","","","","99.83","","26","","","","NA"
"2010-08-29 15:00","2010","08","29","15:00","20.9","","17.1","","79","","22","","13","","","","99.80","","26","","","","NA"
"2010-08-29 16:00","2010","08","29","16:00","20.8","","17.0","","79","","19","","28","","","","99.77","","26","","","","NA"
"2010-08-29 17:00","2010","08","29","17:00","21.1","","16.9","","77","","20","","20","","","","99.79","","26","","","","NA"
"2010-08-29 18:00","2010","08","29","18:00","20.8","","16.8","","78","","21","","11","","","","99.77","","26","","","","NA"
"2010-08-29 19:00","2010","08","29","19:00","20.5","","17.2","","81","","17","","4","","","","99.79","","26","","","","NA"
"2010-08-29 20:00","2010","08","29","20:00","20.2","","17.3","","83","","6","","4","","","","99.79","","26","","","","NA"
"2010-08-29 21:00","2010","08","29","21:00","20.3","","15.5","","74","","","","0","","","","99.80","","25","","","","NA"
"2010-08-29 22:00","2010","08","29","22:00","21.2","","14.1","","64","","22","","6","","","","99.82","","25","","","","NA"
"2010-08-29 23:00","2010","08","29","23:00","21.1","","14.5","","66","","7","","6","","","","99.83","","25","","","","NA"
"2010-08-30 00:00","2010","08","30","00:00","21.1","","14.1","","64","","7","","4","","","","99.83","","25","","","","NA"
"2010-08-30 01:00","2010","08","30","01:00","21.2","","14.7","","66","","35","","2","","","","99.83","","25","","","","NA"
"2010-08-30 02:00","2010","08","30","02:00","20.7","","15.0","","70","","","","0","","","","99.84","","25","","","","NA"
"2010-08-30 03:00","2010","08","30","03:00","20.9","","15.5","","71","","7","","2","","","","99.84","","25","","","","NA"
"2010-08-30 04:00","2010","08","30","04:00","20.0","","15.8","","77","","10","","4","","","","99.87","","","","","","NA"
"2010-08-30 05:00","2010","08","30","05:00","20.8","","16.8","","78","","8","","4","","","","99.90","","26","","","","NA"
"2010-08-30 06:00","2010","08","30","06:00","20.6","","16.0","","75","","7","","4","","","","99.95","","25","","","","NA"
"2010-08-30 07:00","2010","08","30","07:00","20.5","","16.2","","76","","7","","4","","","","99.99","","25","","","","NA"
"2010-08-30 08:00","2010","08","30","08:00","21.2","","17.3","","78","","11","","4","","","","99.99","","27","","","","NA"
"2010-08-30 09:00","2010","08","30","09:00","20.9","","18.1","","84","","13","","6","","","","100.00","","27","","","","NA"
"2010-08-30 10:00","2010","08","30","10:00","22.0","","18.4","","80","","14","","4","","","","99.98","","28","","","","NA"
"2010-08-30 11:00","2010","08","30","11:00","22.2","","18.9","","82","","12","","4","","","","99.96","","29","","","","NA"
"2010-08-30 12:00","2010","08","30","12:00","23.9","","18.5","","72","","19","","7","","","","99.93","","30","","","","NA"
"2010-08-30 13:00","2010","08","30","13:00","23.3","","19.8","","81","","18","","6","","","","99.92","","31","","","","NA"
"2010-08-30 14:00","2010","08","30","14:00","22.1","","18.3","","79","","15","","6","","","","99.89","","28","","","","NA"
"2010-08-30 15:00","2010","08","30","15:00","23.1","","18.4","","75","","16","","4","","","","99.85","","29","","","","NA"
"2010-08-30 16:00","2010","08","30","16:00","27.9","","19.2","","59","","27","","6","","","","99.83","","35","","","","NA"
"2010-08-30 17:00","2010","08","30","17:00","28.9","","18.0","","52","","27","","17","","","","99.82","","35","","","","NA"
"2010-08-30 18:00","2010","08","30","18:00","24.2","","19.3","","74","","20","","17","","","","99.80","","31","","","","NA"
"2010-08-30 19:00","2010","08","30","19:00","24.0","","19.4","","75","","22","","11","","","","99.77","","31","","","","NA"
"2010-08-30 20:00","2010","08","30","20:00","23.5","","18.9","","75","","23","","19","","","","99.77","","30","","","","NA"
"2010-08-30 21:00","2010","08","30","21:00","23.0","","18.8","","77","","23","","19","","","","99.75","","30","","","","NA"
"2010-08-30 22:00","2010","08","30","22:00","22.7","","18.4","","77","","27","","11","","","","99.71","","29","","","","NA"
"2010-08-30 23:00","2010","08","30","23:00","21.8","","18.6","","82","","19","","2","","","","99.70","","28","","","","NA"
"2010-08-31 00:00","2010","08","31","00:00","21.3","","19.4","","89","","16","","4","","","","99.68","","28","","","","NA"
"2010-08-31 01:00","2010","08","31","01:00","21.3","","19.0","","87","","8","","4","","","","99.68","","28","","","","NA"
"2010-08-31 02:00","2010","08","31","02:00","20.7","","19.4","","92","","8","","7","","","","99.71","","28","","","","NA"
"2010-08-31 03:00","2010","08","31","03:00","20.5","","19.4","","93","","9","","6","","","","99.72","","28","","","","NA"
"2010-08-31 04:00","2010","08","31","04:00","20.4","","19.1","","92","","9","","6","","","","99.70","","27","","","","NA"
"2010-08-31 05:00","2010","08","31","05:00","20.0","","18.8","","93","","7","","6","","","","99.67","","27","","","","NA"
"2010-08-31 06:00","2010","08","31","06:00","20.1","","19.1","","94","","10","","4","","","","99.68","","27","","","","NA"
"2010-08-31 07:00","2010","08","31","07:00","20.7","","18.7","","88","","9","","4","","","","99.67","","27","","","","NA"
"2010-08-31 08:00","2010","08","31","08:00"
"2010-08-31 09:00","2010","08","31","09:00"
"2010-08-31 10:00","2010","08","31","10:00"
"2010-08-31 11:00","2010","08","31","11:00"
"2010-08-31 12:00","2010","08","31","12:00"
"2010-08-31 13:00","2010","08","31","13:00"
"2010-08-31 14:00","2010","08","31","14:00"
"2010-08-31 15:00","2010","08","31","15:00"
"2010-08-31 16:00","2010","08","31","16:00"
"2010-08-31 17:00","2010","08","31","17:00"
"2010-08-31 18:00","2010","08","31","18:00"
"2010-08-31 19:00","2010","08","31","19:00"
"2010-08-31 20:00","2010","08","31","20:00"
"2010-08-31 21:00","2010","08","31","21:00"
"2010-08-31 22:00","2010","08","31","22:00"
"2010-08-31 23:00","2010","08","31","23:00"
