"Station Name","KILLARNEY (AUT)"
"Province","ONTARIO"
"Latitude","45.97"
"Longitude","-81.48"
"Elevation","196.30"
"Climate Identifier","605DJ25"
"WMO Identifier","71460"
"TC Identifier","WBE"
"All times are specified in Local Standard Time (LST). Add 1 hour to adjust for Daylight Saving Time where and when it is observed."

"Legend"
"E","Estimated"
"M","Missing"
"NA","Not Available"

"Date/Time","Year","Month","Day","Time","Temp (°C)","Temp Flag","Dew Point Temp (°C)","Dew Point Temp Flag","Rel Hum (%)","Rel Hum Flag","Wind Dir (10s deg)","Wind Dir Flag","Wind Spd (km/h)","Wind Spd Flag","Visibility (km)","Visibility Flag","Stn Press (kPa)","Stn Press Flag","Hmdx","Hmdx Flag","Wind Chill","Wind Chill Flag","Weather"
"2006-04-01 00:00","2006","04","01","00:00","6.7","","6.1","","96","","10","","15","","","","97.69","","","","","","NA"
"2006-04-01 01:00","2006","04","01","01:00","4.5","","3.9","","96","","18","","15","","","","97.62","","","","","","NA"
"2006-04-01 02:00","2006","04","01","02:00","3.7","","3.1","","96","","9","","13","","","","97.52","","","","","","NA"
"2006-04-01 03:00","2006","04","01","03:00","4.3","","3.8","","97","","28","","9","","","","97.52","","","","","","NA"
"2006-04-01 04:00","2006","04","01","04:00","4.0","","3.5","","97","","28","","17","","","","97.54","","","","","","NA"
"2006-04-01 05:00","2006","04","01","05:00","3.0","","2.5","","97","","29","","22","","","","97.58","","","","","","NA"
"2006-04-01 06:00","2006","04","01","06:00","3.7","","3.2","","97","","28","","24","","","","97.71","","","","","","NA"
"2006-04-01 07:00","2006","04","01","07:00","3.9","","3.4","","97","","28","","24","","","","97.86","","","","","","NA"
"2006-04-01 08:00","2006","04","01","08:00","4.5","","4.0","","97","","28","","20","","","","98.03","","","","","","NA"
"2006-04-01 09:00","2006","04","01","09:00","6.1","","5.0","","93","","33","","19","","","","98.19","","","","","","NA"
"2006-04-01 10:00","2006","04","01","10:00","4.7","","2.3","","84","","34","","19","","","","98.43","","","","","","NA"
"2006-04-01 11:00","2006","04","01","11:00","5.0","","0.3","","72","","34","","28","","","","98.57","","","","","","NA"
"2006-04-01 12:00","2006","04","01","12:00","5.9","","-0.2","","65","","36","","22","","","","98.73","","","","","","NA"
"2006-04-01 13:00","2006","04","01","13:00","5.9","","-1.4","","59","","2","","30","","","","98.86","","","","","","NA"
"2006-04-01 14:00","2006","04","01","14:00","6.7","","-1.5","","56","","1","","28","","","","98.99","","","","","","NA"
"2006-04-01 15:00","2006","04","01","15:00","6.3","","-1.6","","57","","34","","20","","","","99.16","","","","","","NA"
"2006-04-01 16:00","2006","04","01","16:00","6.2","","-2.3","","54","","36","","20","","","","99.23","","","","","","NA"
"2006-04-01 17:00","2006","04","01","17:00","7.1","","-2.2","","52","","34","","17","","","","99.32","","","","","","NA"
"2006-04-01 18:00","2006","04","01","18:00","7.4","","-3.5","","46","","35","","13","","","","99.39","","","","","","NA"
"2006-04-01 19:00","2006","04","01","19:00","6.4","","-4.4","","46","","32","","7","","","","99.47","","","","","","NA"
"2006-04-01 20:00","2006","04","01","20:00","5.8","","-5.5","","44","","1","","13","","","","99.53","","","","","","NA"
"2006-04-01 21:00","2006","04","01","21:00","4.9","","-6.3","","44","","34","","6","","","","99.67","","","","","","NA"
"2006-04-01 22:00","2006","04","01","22:00","4.4","","-7.6","","41","","1","","7","","","","99.74","","","","","","NA"
"2006-04-01 23:00","2006","04","01","23:00","4.0","","-8.2","","41","","2","","6","","","","99.79","","","","","","NA"
"2006-04-02 00:00","2006","04","02","00:00","3.0","","-8.3","","43","","2","","9","","","","99.85","","","","","","NA"
"2006-04-02 01:00","2006","04","02","01:00","2.2","","-8.8","","44","","1","","6","","","","99.91","","","","","","NA"
"2006-04-02 02:00","2006","04","02","02:00","1.0","","-8.8","","48","","4","","7","","","","99.92","","","","","","NA"
"2006-04-02 03:00","2006","04","02","03:00","0.6","","-8.9","","49","","5","","7","","","","99.88","","","","","","NA"
"2006-04-02 04:00","2006","04","02","04:00","0.4","","-8.8","","50","","3","","6","","","","99.90","","","","","","NA"
"2006-04-02 05:00","2006","04","02","05:00","-0.4","","-8.5","","54","","7","","7","","","","99.97","","","","-3","","NA"
"2006-04-02 06:00","2006","04","02","06:00","-1.0","","-8.2","","58","","6","","6","","","","99.93","","","","-3","","NA"
"2006-04-02 07:00","2006","04","02","07:00","0.0","","-7.5","","57","","8","","15","","","","99.99","","","","-4","","NA"
"2006-04-02 08:00","2006","04","02","08:00","0.4","","-8.5","","51","","7","","17","","","","100.00","","","","","","NA"
"2006-04-02 09:00","2006","04","02","09:00","0.7","","-8.6","","50","","9","","17","","","","99.98","","","","","","NA"
"2006-04-02 10:00","2006","04","02","10:00","0.6","","-6.6","","58","","14","","17","","","","99.92","","","","","","NA"
"2006-04-02 11:00","2006","04","02","11:00","0.6","","-4.9","","67","","16","","15","","","","99.89","","","","","","NA"
"2006-04-02 12:00","2006","04","02","12:00","1.2","","-5.7","","60","","14","","9","","","","99.84","","","","","","NA"
"2006-04-02 13:00","2006","04","02","13:00","1.6","","-5.9","","57","","14","","11","","","","99.75","","","","","","NA"
"2006-04-02 14:00","2006","04","02","14:00","2.1","","-5.3","","58","","17","","6","","","","99.67","","","","","","NA"
"2006-04-02 15:00","2006","04","02","15:00","2.3","","-6.0","","54","","20","","6","","","","99.61","","","","","","NA"
"2006-04-02 16:00","2006","04","02","16:00","2.5","","-4.3","","61","","24","","2","","","","99.53","","","","","","NA"
"2006-04-02 17:00","2006","04","02","17:00","3.1","","-8.3","","43","","7","","7","","","","99.42","","","","","","NA"
"2006-04-02 18:00","2006","04","02","18:00","4.2","","-8.0","","41","","7","","11","","","","99.27","","","","","","NA"
"2006-04-02 19:00","2006","04","02","19:00","3.8","","-4.2","","56","","8","","9","","","","99.21","","","","","","NA"
"2006-04-02 20:00","2006","04","02","20:00","4.4","","-5.3","","49","","7","","24","","","","99.09","","","","","","NA"
"2006-04-02 21:00","2006","04","02","21:00","5.6","","-6.6","","41","","7","","24","","","","98.99","","","","","","NA"
"2006-04-02 22:00","2006","04","02","22:00","5.6","","-4.6","","48","","8","","28","","","","98.92","","","","","","NA"
"2006-04-02 23:00","2006","04","02","23:00","5.5","","-2.7","","55","","10","","33","","","","98.81","","","","","","NA"
"2006-04-03 00:00","2006","04","03","00:00","4.7","","-2.0","","62","","10","","32","","","","98.73","","","","","","NA"
"2006-04-03 01:00","2006","04","03","01:00","4.9","","-2.4","","59","","11","","22","","","","98.73","","","","","","NA"
"2006-04-03 02:00","2006","04","03","02:00","4.5","","-2.1","","62","","10","","22","","","","98.59","","","","","","NA"
"2006-04-03 03:00","2006","04","03","03:00","4.5","","-2.6","","60","","9","","32","","","","98.38","","","","","","NA"
"2006-04-03 04:00","2006","04","03","04:00","4.6","","-2.9","","58","","10","","32","","","","98.21","","","","","","NA"
"2006-04-03 05:00","2006","04","03","05:00","3.7","","-1.8","","67","","10","","35","","","","98.08","","","","","","NA"
"2006-04-03 06:00","2006","04","03","06:00","3.1","","-1.2","","73","","8","","30","","","","97.93","","","","","","NA"
"2006-04-03 07:00","2006","04","03","07:00","2.2","","-0.1","","85","","7","","20","","","","97.87","","","","","","NA"
"2006-04-03 08:00","2006","04","03","08:00","2.4","","-0.4","","82","","7","","28","","","","97.74","","","","","","NA"
"2006-04-03 09:00","2006","04","03","09:00","2.0","","0.2","","88","","8","","28","","","","97.64","","","","","","NA"
"2006-04-03 10:00","2006","04","03","10:00","2.4","","1.1","","91","","9","","32","","","","97.52","","","","","","NA"
"2006-04-03 11:00","2006","04","03","11:00","2.9","","2.0","","94","","9","","35","","","","97.40","","","","","","NA"
"2006-04-03 12:00","2006","04","03","12:00","3.0","","2.3","","95","","10","","30","","","","97.36","","","","","","NA"
"2006-04-03 13:00","2006","04","03","13:00","2.8","","2.2","","96","","9","","24","","","","97.29","","","","","","NA"
"2006-04-03 14:00","2006","04","03","14:00","2.9","","2.3","","96","","9","","11","","","","97.23","","","","","","NA"
"2006-04-03 15:00","2006","04","03","15:00","3.0","","2.4","","96","","8","","6","","","","97.19","","","","","","NA"
"2006-04-03 16:00","2006","04","03","16:00","3.1","","2.6","","97","","32","","19","","","","97.26","","","","","","NA"
"2006-04-03 17:00","2006","04","03","17:00","2.5","","1.9","","96","","33","","17","","","","97.38","","","","","","NA"
"2006-04-03 18:00","2006","04","03","18:00","2.0","","0.8","","92","","32","","20","","","","97.51","","","","","","NA"
"2006-04-03 19:00","2006","04","03","19:00","2.0","","0.0","","87","","31","","28","","","","97.57","","","","","","NA"
"2006-04-03 20:00","2006","04","03","20:00","2.1","","-0.6","","82","","32","","32","","","","97.77","","","","","","NA"
"2006-04-03 21:00","2006","04","03","21:00","0.9","","-2.1","","80","","31","","28","","","","97.95","","","","","","NA"
"2006-04-03 22:00","2006","04","03","22:00","-0.5","","-3.7","","79","","31","","30","","","","98.12","","","","-7","","NA"
"2006-04-03 23:00","2006","04","03","23:00","-0.5","","-5.2","","70","","32","","32","","","","98.21","","","","-7","","NA"
"2006-04-04 00:00","2006","04","04","00:00","-1.5","","-5.8","","72","","32","","30","","","","98.33","","","","-8","","NA"
"2006-04-04 01:00","2006","04","04","01:00","-2.3","","-8.7","","61","","33","","24","","","","98.45","","","","-9","","NA"
"2006-04-04 02:00","2006","04","04","02:00","-2.2","","-8.5","","62","","32","","22","","","","98.50","","","","-8","","NA"
"2006-04-04 03:00","2006","04","04","03:00","-2.7","","-9.0","","62","","32","","19","","","","98.49","","","","-8","","NA"
"2006-04-04 04:00","2006","04","04","04:00","-2.9","","-7.8","","69","","31","","13","","","","98.49","","","","-8","","NA"
"2006-04-04 05:00","2006","04","04","05:00","-3.4","","-9.8","","61","","30","","19","","","","98.48","","","","-9","","NA"
"2006-04-04 06:00","2006","04","04","06:00","-3.7","","-10.2","","61","","30","","15","","","","98.49","","","","-9","","NA"
"2006-04-04 07:00","2006","04","04","07:00","-3.0","","-9.9","","59","","30","","11","","","","98.53","","","","-7","","NA"
"2006-04-04 08:00","2006","04","04","08:00","-3.2","","-12.1","","50","","1","","6","","","","98.48","","","","-6","","NA"
"2006-04-04 09:00","2006","04","04","09:00","-2.9","","-12.5","","48","","7","","13","","","","98.37","","","","-8","","NA"
"2006-04-04 10:00","2006","04","04","10:00","-3.2","","-10.0","","59","","9","","20","","","","98.27","","","","-9","","NA"
"2006-04-04 11:00","2006","04","04","11:00","-3.7","","-5.7","","86","","12","","20","","","","98.27","","","","-10","","NA"
"2006-04-04 12:00","2006","04","04","12:00","-3.3","","-5.2","","87","","10","","19","","","","98.24","","","","-9","","NA"
"2006-04-04 13:00","2006","04","04","13:00","-2.4","","-4.9","","83","","9","","15","","","","98.22","","","","-7","","NA"
"2006-04-04 14:00","2006","04","04","14:00","-1.7","","-5.7","","74","","4","","11","","","","98.19","","","","-6","","NA"
"2006-04-04 15:00","2006","04","04","15:00","-0.9","","-6.9","","64","","1","","9","","","","98.20","","","","-4","","NA"
"2006-04-04 16:00","2006","04","04","16:00","-0.6","","-7.6","","59","","33","","11","","","","98.21","","","","-4","","NA"
"2006-04-04 17:00","2006","04","04","17:00","-1.2","","-5.3","","74","","34","","13","","","","98.26","","","","-5","","NA"
"2006-04-04 18:00","2006","04","04","18:00","-1.7","","-3.8","","86","","34","","17","","","","98.31","","","","-7","","NA"
"2006-04-04 19:00","2006","04","04","19:00","-0.9","","-7.6","","60","","33","","11","","","","98.36","","","","-5","","NA"
"2006-04-04 20:00","2006","04","04","20:00","-1.4","","-8.8","","57","","33","","15","","","","98.41","","","","-6","","NA"
"2006-04-04 21:00","2006","04","04","21:00","-1.9","","-9.2","","57","","33","","15","","","","98.48","","","","-7","","NA"
"2006-04-04 22:00","2006","04","04","22:00","-2.2","","-9.3","","58","","33","","17","","","","98.48","","","","-8","","NA"
"2006-04-04 23:00","2006","04","04","23:00","-2.6","","-8.7","","63","","31","","11","","","","98.47","","","","-7","","NA"
"2006-04-05 00:00","2006","04","05","00:00","-2.5","","-8.3","","64","","29","","15","","","","98.46","","","","-7","","NA"
"2006-04-05 01:00","2006","04","05","01:00","-2.9","","-7.4","","71","","28","","17","","","","98.44","","","","-8","","NA"
"2006-04-05 02:00","2006","04","05","02:00","-2.8","","-6.9","","73","","28","","22","","","","98.40","","","","-9","","NA"
"2006-04-05 03:00","2006","04","05","03:00","-3.2","","-4.5","","91","","29","","19","","","","98.37","","","","-9","","NA"
"2006-04-05 04:00","2006","04","05","04:00","-2.6","","-3.3","","95","","29","","19","","","","98.36","","","","-8","","NA"
"2006-04-05 05:00","2006","04","05","05:00","-2.2","","-2.9","","95","","29","","13","","","","98.36","","","","-7","","NA"
"2006-04-05 06:00","2006","04","05","06:00","-1.9","","-2.6","","95","","30","","17","","","","98.40","","","","-7","","NA"
"2006-04-05 07:00","2006","04","05","07:00","-1.6","","-2.3","","95","","29","","13","","","","98.46","","","","-6","","NA"
"2006-04-05 08:00","2006","04","05","08:00","-1.3","","-2.1","","94","","33","","9","","","","98.51","","","","-5","","NA"
"2006-04-05 09:00","2006","04","05","09:00","-1.4","","-2.5","","92","","34","","11","","","","98.54","","","","-5","","NA"
"2006-04-05 10:00","2006","04","05","10:00","-1.1","","-1.9","","94","","31","","15","","","","98.61","","","","-6","","NA"
"2006-04-05 11:00","2006","04","05","11:00","-0.3","","-0.8","","96","","29","","15","","","","98.64","","","","-5","","NA"
"2006-04-05 12:00","2006","04","05","12:00","-0.2","","-0.7","","96","","30","","13","","","","98.65","","","","-4","","NA"
"2006-04-05 13:00","2006","04","05","13:00","1.1","","-0.1","","92","","31","","13","","","","98.66","","","","","","NA"
"2006-04-05 14:00","2006","04","05","14:00","1.7","","0.5","","92","","31","","7","","","","98.65","","","","","","NA"
"2006-04-05 15:00","2006","04","05","15:00","3.0","","0.2","","82","","33","","13","","","","98.66","","","","","","NA"
"2006-04-05 16:00","2006","04","05","16:00","4.3","","0.0","","74","","34","","13","","","","98.66","","","","","","NA"
"2006-04-05 17:00","2006","04","05","17:00","4.1","","-0.6","","71","","32","","13","","","","98.69","","","","","","NA"
"2006-04-05 18:00","2006","04","05","18:00","3.8","","-0.2","","75","","31","","6","","","","98.72","","","","","","NA"
"2006-04-05 19:00","2006","04","05","19:00","3.6","","-1.1","","71","","31","","6","","","","98.74","","","","","","NA"
"2006-04-05 20:00","2006","04","05","20:00","3.3","","-1.2","","72","","31","","7","","","","98.79","","","","","","NA"
"2006-04-05 21:00","2006","04","05","21:00","3.0","","-1.5","","72","","32","","6","","","","98.81","","","","","","NA"
"2006-04-05 22:00","2006","04","05","22:00","3.0","","-1.4","","73","","33","","7","","","","98.80","","","","","","NA"
"2006-04-05 23:00","2006","04","05","23:00","3.0","","-1.2","","74","","31","","9","","","","98.87","","","","","","NA"
"2006-04-06 00:00","2006","04","06","00:00","2.2","","-1.0","","79","","30","","6","","","","98.85","","","","","","NA"
"2006-04-06 01:00","2006","04","06","01:00","2.1","","-1.0","","80","","30","","6","","","","98.87","","","","","","NA"
"2006-04-06 02:00","2006","04","06","02:00","1.3","","-0.9","","85","","30","","9","","","","98.87","","","","","","NA"
"2006-04-06 03:00","2006","04","06","03:00","0.1","","-1.2","","91","","31","","9","","","","98.88","","","","","","NA"
"2006-04-06 04:00","2006","04","06","04:00","0.3","","-1.1","","90","","30","","13","","","","98.90","","","","","","NA"
"2006-04-06 05:00","2006","04","06","05:00","-0.2","","-1.4","","92","","29","","13","","","","98.94","","","","-4","","NA"
"2006-04-06 06:00","2006","04","06","06:00","-0.6","","-1.6","","93","","31","","13","","","","98.92","","","","-5","","NA"
"2006-04-06 07:00","2006","04","06","07:00","0.6","","-0.9","","90","","22","","4","","","","98.91","","","","","","NA"
"2006-04-06 08:00","2006","04","06","08:00","0.9","","-1.6","","83","","28","","17","","","","98.93","","","","","","NA"
"2006-04-06 09:00","2006","04","06","09:00","2.0","","-1.7","","76","","27","","15","","","","98.91","","","","","","NA"
"2006-04-06 10:00","2006","04","06","10:00","3.2","","-1.8","","70","","23","","11","","","","98.88","","","","","","NA"
"2006-04-06 11:00","2006","04","06","11:00","4.0","","-1.7","","66","","21","","11","","","","98.87","","","","","","NA"
"2006-04-06 12:00","2006","04","06","12:00","2.6","","-2.1","","71","","17","","11","","","","98.83","","","","","","NA"
"2006-04-06 13:00","2006","04","06","13:00","2.5","","-0.2","","82","","10","","7","","","","98.80","","","","","","NA"
"2006-04-06 14:00","2006","04","06","14:00","2.8","","0.3","","84","","9","","11","","","","98.80","","","","","","NA"
"2006-04-06 15:00","2006","04","06","15:00","4.5","","-0.1","","72","","11","","6","","","","98.74","","","","","","NA"
"2006-04-06 16:00","2006","04","06","16:00","5.9","","-2.6","","54","","22","","13","","","","98.64","","","","","","NA"
"2006-04-06 17:00","2006","04","06","17:00","6.1","","-3.4","","51","","21","","11","","","","98.59","","","","","","NA"
"2006-04-06 18:00","2006","04","06","18:00","3.3","","-1.1","","73","","19","","6","","","","98.52","","","","","","NA"
"2006-04-06 19:00","2006","04","06","19:00","3.8","","-0.5","","73","","22","","11","","","","98.51","","","","","","NA"
"2006-04-06 20:00","2006","04","06","20:00","5.5","","-3.2","","53","","24","","15","","","","98.52","","","","","","NA"
"2006-04-06 21:00","2006","04","06","21:00","4.0","","-1.5","","67","","14","","2","","","","98.53","","","","","","NA"
"2006-04-06 22:00","2006","04","06","22:00","4.3","","-1.8","","64","","30","","2","","","","98.41","","","","","","NA"
"2006-04-06 23:00","2006","04","06","23:00","3.0","","-0.4","","78","","8","","7","","","","98.30","","","","","","NA"
"2006-04-07 00:00","2006","04","07","00:00","2.8","","-0.2","","81","","9","","9","","","","98.26","","","","","","NA"
"2006-04-07 01:00","2006","04","07","01:00","2.5","","0.1","","84","","9","","7","","","","98.22","","","","","","NA"
"2006-04-07 02:00","2006","04","07","02:00","2.7","","0.0","","82","","8","","9","","","","98.09","","","","","","NA"
"2006-04-07 03:00","2006","04","07","03:00","2.6","","-0.8","","78","","4","","6","","","","98.11","","","","","","NA"
"2006-04-07 04:00","2006","04","07","04:00","3.0","","-0.6","","77","","5","","4","","","","98.07","","","","","","NA"
"2006-04-07 05:00","2006","04","07","05:00","3.2","","-1.8","","70","","3","","11","","","","98.08","","","","","","NA"
"2006-04-07 06:00","2006","04","07","06:00","2.6","","-1.9","","72","","4","","17","","","","98.09","","","","","","NA"
"2006-04-07 07:00","2006","04","07","07:00","2.1","","-3.5","","66","","4","","17","","","","98.16","","","","","","NA"
"2006-04-07 08:00","2006","04","07","08:00","1.8","","-4.7","","62","","4","","19","","","","98.21","","","","","","NA"
"2006-04-07 09:00","2006","04","07","09:00","2.4","","-6.1","","53","","4","","20","","","","98.23","","","","","","NA"
"2006-04-07 10:00","2006","04","07","10:00","3.1","","-5.9","","52","","5","","15","","","","98.23","","","","","","NA"
"2006-04-07 11:00","2006","04","07","11:00","3.6","","-8.2","","42","","4","","19","","","","98.23","","","","","","NA"
"2006-04-07 12:00","2006","04","07","12:00","3.4","","-8.5","","41","","2","","22","","","","98.27","","","","","","NA"
"2006-04-07 13:00","2006","04","07","13:00","4.0","","-9.3","","37","","4","","15","","","","98.29","","","","","","NA"
"2006-04-07 14:00","2006","04","07","14:00","3.2","","-10.0","","37","","4","","20","","","","98.34","","","","","","NA"
"2006-04-07 15:00","2006","04","07","15:00","4.0","","-10.2","","35","","1","","11","","","","98.46","","","","","","NA"
"2006-04-07 16:00","2006","04","07","16:00","4.3","","-12.2","","29","","36","","15","","","","98.41","","","","","","NA"
"2006-04-07 17:00","2006","04","07","17:00","2.9","","-13.1","","30","","2","","17","","","","98.47","","","","","","NA"
"2006-04-07 18:00","2006","04","07","18:00","1.6","","-13.0","","33","","1","","19","","","","98.64","","","","","","NA"
"2006-04-07 19:00","2006","04","07","19:00","0.4","","-12.9","","36","","1","","17","","","","98.80","","","","","","NA"
"2006-04-07 20:00","2006","04","07","20:00","-0.8","","-12.8","","40","","2","","15","","","","98.91","","","","-5","","NA"
"2006-04-07 21:00","2006","04","07","21:00","-1.5","","-13.4","","40","","1","","15","","","","99.01","","","","-6","","NA"
"2006-04-07 22:00","2006","04","07","22:00","-2.4","","-14.4","","39","","1","","19","","","","99.07","","","","-8","","NA"
"2006-04-07 23:00","2006","04","07","23:00","-3.8","","-14.0","","45","","1","","22","","","","99.19","","","","-10","","NA"
"2006-04-08 00:00","2006","04","08","00:00","-4.9","","-14.3","","48","","2","","19","","","","99.24","","","","-11","","NA"
"2006-04-08 01:00","2006","04","08","01:00","-5.4","","-14.1","","50","","2","","17","","","","99.29","","","","-11","","NA"
"2006-04-08 02:00","2006","04","08","02:00","-5.8","","-13.9","","53","","2","","11","","","","99.33","","","","-11","","NA"
"2006-04-08 03:00","2006","04","08","03:00","-6.2","","-13.6","","56","","36","","6","","","","99.36","","","","-9","","NA"
"2006-04-08 04:00","2006","04","08","04:00","-6.2","","-13.4","","57","","29","","4","","","","99.49","","","","-8","","NA"
"2006-04-08 05:00","2006","04","08","05:00","-6.6","","-12.8","","61","","31","","7","","","","99.50","","","","-10","","NA"
"2006-04-08 06:00","2006","04","08","06:00","-6.5","","-12.9","","60","","27","","6","","","","99.50","","","","-9","","NA"
"2006-04-08 07:00","2006","04","08","07:00","-5.2","","-12.0","","59","","35","","4","","","","99.58","","","","-7","","NA"
"2006-04-08 08:00","2006","04","08","08:00","-4.6","","-12.0","","56","","34","","11","","","","99.66","","","","-9","","NA"
"2006-04-08 09:00","2006","04","08","09:00","-3.4","","-11.2","","55","","36","","15","","","","99.66","","","","-9","","NA"
"2006-04-08 10:00","2006","04","08","10:00","-1.9","","-11.2","","49","","1","","13","","","","99.63","","","","-6","","NA"
"2006-04-08 11:00","2006","04","08","11:00","-0.9","","-10.6","","48","","31","","13","","","","99.62","","","","-5","","NA"
"2006-04-08 12:00","2006","04","08","12:00","0.6","","-9.8","","46","","30","","17","","","","99.59","","","","","","NA"
"2006-04-08 13:00","2006","04","08","13:00","1.9","","-9.6","","42","","35","","11","","","","99.56","","","","","","NA"
"2006-04-08 14:00","2006","04","08","14:00","3.1","","-9.1","","40","","32","","9","","","","99.54","","","","","","NA"
"2006-04-08 15:00","2006","04","08","15:00","2.3","","-6.7","","51","","27","","22","","","","99.53","","","","","","NA"
"2006-04-08 16:00","2006","04","08","16:00","3.0","","-6.4","","50","","27","","22","","","","99.55","","","","","","NA"
"2006-04-08 17:00","2006","04","08","17:00","3.2","","-7.2","","46","","28","","22","","","","99.59","","","","","","NA"
"2006-04-08 18:00","2006","04","08","18:00","3.0","","-6.6","","49","","27","","22","","","","99.64","","","","","","NA"
"2006-04-08 19:00","2006","04","08","19:00","2.1","","-4.7","","61","","28","","17","","","","99.67","","","","","","NA"
"2006-04-08 20:00","2006","04","08","20:00","1.1","","-3.4","","72","","28","","20","","","","99.71","","","","","","NA"
"2006-04-08 21:00","2006","04","08","21:00","0.7","","-3.2","","75","","28","","26","","","","99.77","","","","","","NA"
"2006-04-08 22:00","2006","04","08","22:00","0.3","","-3.3","","77","","28","","20","","","","99.78","","","","","","NA"
"2006-04-08 23:00","2006","04","08","23:00","-0.1","","-3.3","","79","","27","","19","","","","99.79","","","","-5","","NA"
"2006-04-09 00:00","2006","04","09","00:00","-0.5","","-3.3","","81","","30","","22","","","","99.78","","","","-6","","NA"
"2006-04-09 01:00","2006","04","09","01:00","-0.8","","-3.5","","82","","30","","19","","","","99.77","","","","-6","","NA"
"2006-04-09 02:00","2006","04","09","02:00","-1.0","","-3.4","","84","","29","","17","","","","99.79","","","","-6","","NA"
"2006-04-09 03:00","2006","04","09","03:00","-1.3","","-3.6","","84","","30","","24","","","","99.80","","","","-7","","NA"
"2006-04-09 04:00","2006","04","09","04:00","-1.2","","-3.6","","84","","28","","15","","","","99.83","","","","-6","","NA"
"2006-04-09 05:00","2006","04","09","05:00","-1.6","","-3.7","","86","","30","","17","","","","99.85","","","","-7","","NA"
"2006-04-09 06:00","2006","04","09","06:00","-1.9","","-3.8","","87","","30","","19","","","","99.88","","","","-7","","NA"
"2006-04-09 07:00","2006","04","09","07:00","-1.1","","-3.6","","83","","28","","7","","","","99.94","","","","-4","","NA"
"2006-04-09 08:00","2006","04","09","08:00","-0.5","","-4.3","","75","","29","","13","","","","100.00","","","","-5","","NA"
"2006-04-09 09:00","2006","04","09","09:00","0.5","","-3.8","","73","","28","","15","","","","100.04","","","","","","NA"
"2006-04-09 10:00","2006","04","09","10:00","2.1","","-3.8","","65","","29","","11","","","","100.03","","","","","","NA"
"2006-04-09 11:00","2006","04","09","11:00","3.0","","-4.3","","59","","27","","17","","","","100.00","","","","","","NA"
"2006-04-09 12:00","2006","04","09","12:00","2.2","","-2.6","","71","","21","","19","","","","99.97","","","","","","NA"
"2006-04-09 13:00","2006","04","09","13:00","2.0","","-1.8","","76","","19","","15","","","","99.93","","","","","","NA"
"2006-04-09 14:00","2006","04","09","14:00","1.8","","-1.9","","76","","17","","17","","","","99.87","","","","","","NA"
"2006-04-09 15:00","2006","04","09","15:00","2.7","","-1.9","","72","","17","","19","","","","99.81","","","","","","NA"
"2006-04-09 16:00","2006","04","09","16:00","2.6","","-0.9","","78","","18","","17","","","","99.78","","","","","","NA"
"2006-04-09 17:00","2006","04","09","17:00","4.5","","-0.3","","71","","20","","4","","","","99.77","","","","","","NA"
"2006-04-09 18:00","2006","04","09","18:00","3.9","","-1.9","","66","","23","","24","","","","99.78","","","","","","NA"
"2006-04-09 19:00","2006","04","09","19:00","3.2","","-1.7","","70","","24","","19","","","","99.80","","","","","","NA"
"2006-04-09 20:00","2006","04","09","20:00","2.7","","-3.1","","66","","26","","11","","","","99.85","","","","","","NA"
"2006-04-09 21:00","2006","04","09","21:00","1.8","","-1.2","","80","","24","","6","","","","99.86","","","","","","NA"
"2006-04-09 22:00","2006","04","09","22:00","1.6","","-2.2","","76","","29","","7","","","","99.86","","","","","","NA"
"2006-04-09 23:00","2006","04","09","23:00","0.1","","-2.0","","86","","28","","4","","","","99.87","","","","","","NA"
"2006-04-10 00:00","2006","04","10","00:00","-0.2","","-1.9","","88","","35","","2","","","","99.88","","","","-1","","NA"
"2006-04-10 01:00","2006","04","10","01:00","-0.3","","-2.0","","88","","31","","4","","","","99.88","","","","-2","","NA"
"2006-04-10 02:00","2006","04","10","02:00","0.5","","-1.3","","88","","30","","11","","","","99.87","","","","","","NA"
"2006-04-10 03:00","2006","04","10","03:00","0.4","","-1.5","","87","","30","","7","","","","99.87","","","","","","NA"
"2006-04-10 04:00","2006","04","10","04:00","0.1","","-1.4","","90","","26","","6","","","","99.91","","","","","","NA"
"2006-04-10 05:00","2006","04","10","05:00","0.0","","-1.4","","90","","30","","7","","","","99.94","","","","-2","","NA"
"2006-04-10 06:00","2006","04","10","06:00","0.6","","-0.6","","92","","27","","2","","","","99.98","","","","","","NA"
"2006-04-10 07:00","2006","04","10","07:00","2.0","","0.1","","87","","29","","2","","","","100.00","","","","","","NA"
"2006-04-10 08:00","2006","04","10","08:00","1.4","","-0.4","","88","","10","","4","","","","100.06","","","","","","NA"
"2006-04-10 09:00","2006","04","10","09:00","1.9","","-0.5","","84","","13","","6","","","","100.06","","","","","","NA"
"2006-04-10 10:00","2006","04","10","10:00","2.2","","0.0","","85","","11","","7","","","","100.07","","","","","","NA"
"2006-04-10 11:00","2006","04","10","11:00","2.5","","0.6","","87","","12","","6","","","","100.09","","","","","","NA"
"2006-04-10 12:00","2006","04","10","12:00","3.4","","1.3","","86","","9","","9","","","","100.07","","","","","","NA"
"2006-04-10 13:00","2006","04","10","13:00","3.4","","0.9","","84","","8","","13","","","","100.03","","","","","","NA"
"2006-04-10 14:00","2006","04","10","14:00","3.5","","1.0","","84","","8","","13","","","","99.99","","","","","","NA"
"2006-04-10 15:00","2006","04","10","15:00","4.3","","0.5","","76","","9","","11","","","","99.95","","","","","","NA"
"2006-04-10 16:00","2006","04","10","16:00","6.6","","-4.4","","45","","16","","11","","","","99.91","","","","","","NA"
"2006-04-10 17:00","2006","04","10","17:00","5.1","","-2.0","","60","","9","","6","","","","99.92","","","","","","NA"
"2006-04-10 18:00","2006","04","10","18:00","4.1","","-0.4","","72","","9","","7","","","","99.95","","","","","","NA"
"2006-04-10 19:00","2006","04","10","19:00","3.9","","0.3","","77","","8","","7","","","","99.95","","","","","","NA"
"2006-04-10 20:00","2006","04","10","20:00","3.5","","0.5","","81","","8","","11","","","","99.94","","","","","","NA"
"2006-04-10 21:00","2006","04","10","21:00","3.2","","1.5","","89","","10","","9","","","","99.99","","","","","","NA"
"2006-04-10 22:00","2006","04","10","22:00","3.4","","1.1","","85","","8","","7","","","","99.98","","","","","","NA"
"2006-04-10 23:00","2006","04","10","23:00","3.4","","0.5","","81","","10","","4","","","","100.01","","","","","","NA"
"2006-04-11 00:00","2006","04","11","00:00","3.4","","-0.5","","76","","6","","7","","","","100.00","","","","","","NA"
"2006-04-11 01:00","2006","04","11","01:00","3.4","","-1.1","","72","","7","","6","","","","100.00","","","","","","NA"
"2006-04-11 02:00","2006","04","11","02:00","3.2","","-0.1","","79","","8","","11","","","","99.99","","","","","","NA"
"2006-04-11 03:00","2006","04","11","03:00","4.9","","-1.1","","65","","8","","9","","","","99.98","","","","","","NA"
"2006-04-11 04:00","2006","04","11","04:00","5.0","","-1.6","","62","","7","","11","","","","99.98","","","","","","NA"
"2006-04-11 05:00","2006","04","11","05:00","4.4","","-1.1","","67","","8","","15","","","","99.99","","","","","","NA"
"2006-04-11 06:00","2006","04","11","06:00","4.2","","-0.4","","72","","8","","15","","","","100.02","","","","","","NA"
"2006-04-11 07:00","2006","04","11","07:00","4.0","","-0.5","","72","","7","","15","","","","100.09","","","","","","NA"
"2006-04-11 08:00","2006","04","11","08:00","4.2","","-0.1","","74","","8","","17","","","","100.09","","","","","","NA"
"2006-04-11 09:00","2006","04","11","09:00","4.2","","0.6","","77","","8","","17","","","","100.09","","","","","","NA"
"2006-04-11 10:00","2006","04","11","10:00","3.7","","0.8","","81","","9","","17","","","","100.07","","","","","","NA"
"2006-04-11 11:00","2006","04","11","11:00","3.8","","0.4","","78","","9","","15","","","","100.04","","","","","","NA"
"2006-04-11 12:00","2006","04","11","12:00","4.1","","0.4","","77","","9","","17","","","","100.01","","","","","","NA"
"2006-04-11 13:00","2006","04","11","13:00","4.4","","0.5","","76","","8","","15","","","","99.98","","","","","","NA"
"2006-04-11 14:00","2006","04","11","14:00","4.9","","0.4","","73","","8","","11","","","","99.94","","","","","","NA"
"2006-04-11 15:00","2006","04","11","15:00","5.3","","0.2","","70","","9","","11","","","","99.81","","","","","","NA"
"2006-04-11 16:00","2006","04","11","16:00","6.7","","0.0","","62","","9","","6","","","","99.75","","","","","","NA"
"2006-04-11 17:00","2006","04","11","17:00","6.5","","0.1","","64","","9","","9","","","","99.69","","","","","","NA"
"2006-04-11 18:00","2006","04","11","18:00","6.2","","0.3","","66","","9","","11","","","","99.58","","","","","","NA"
"2006-04-11 19:00","2006","04","11","19:00","6.2","","0.6","","67","","10","","6","","","","99.53","","","","","","NA"
"2006-04-11 20:00","2006","04","11","20:00","5.2","","0.8","","73","","17","","6","","","","99.51","","","","","","NA"
"2006-04-11 21:00","2006","04","11","21:00","5.8","","0.9","","71","","9","","7","","","","99.51","","","","","","NA"
"2006-04-11 22:00","2006","04","11","22:00","5.8","","0.9","","71","","7","","9","","","","99.48","","","","","","NA"
"2006-04-11 23:00","2006","04","11","23:00","6.0","","1.2","","71","","7","","15","","","","99.42","","","","","","NA"
"2006-04-12 00:00","2006","04","12","00:00","6.1","","1.0","","70","","9","","22","","","","99.34","","","","","","NA"
"2006-04-12 01:00","2006","04","12","01:00","5.5","","1.2","","74","","8","","19","","","","99.29","","","","","","NA"
"2006-04-12 02:00","2006","04","12","02:00","5.6","","0.8","","71","","7","","17","","","","99.23","","","","","","NA"
"2006-04-12 03:00","2006","04","12","03:00","5.2","","1.0","","74","","8","","17","","","","99.19","","","","","","NA"
"2006-04-12 04:00","2006","04","12","04:00","4.9","","1.2","","77","","8","","19","","","","99.14","","","","","","NA"
"2006-04-12 05:00","2006","04","12","05:00","4.9","","1.6","","79","","7","","19","","","","99.04","","","","","","NA"
"2006-04-12 06:00","2006","04","12","06:00","4.5","","1.6","","81","","9","","19","","","","99.04","","","","","","NA"
"2006-04-12 07:00","2006","04","12","07:00","4.1","","2.1","","87","","9","","20","","","","99.02","","","","","","NA"
"2006-04-12 08:00","2006","04","12","08:00","4.0","","2.9","","93","","8","","22","","","","98.97","","","","","","NA"
"2006-04-12 09:00","2006","04","12","09:00","4.7","","3.9","","95","","7","","15","","","","98.88","","","","","","NA"
"2006-04-12 10:00","2006","04","12","10:00","4.7","","4.0","","95","","9","","17","","","","98.83","","","","","","NA"
"2006-04-12 11:00","2006","04","12","11:00","4.6","","4.0","","96","","10","","13","","","","98.81","","","","","","NA"
"2006-04-12 12:00","2006","04","12","12:00","5.1","","4.5","","96","","10","","15","","","","98.71","","","","","","NA"
"2006-04-12 13:00","2006","04","12","13:00","5.2","","4.6","","96","","8","","7","","","","98.67","","","","","","NA"
"2006-04-12 14:00","2006","04","12","14:00","6.5","","6.0","","97","","14","","15","","","","98.59","","","","","","NA"
"2006-04-12 15:00","2006","04","12","15:00","6.6","","6.1","","97","","15","","20","","","","98.50","","","","","","NA"
"2006-04-12 16:00","2006","04","12","16:00","5.7","","5.0","","95","","12","","7","","","","98.45","","","","","","NA"
"2006-04-12 17:00","2006","04","12","17:00","4.7","","4.0","","95","","18","","6","","","","98.43","","","","","","NA"
"2006-04-12 18:00","2006","04","12","18:00","5.6","","5.0","","96","","3","","6","","","","98.41","","","","","","NA"
"2006-04-12 19:00","2006","04","12","19:00","6.8","","6.3","","97","","29","","7","","","","98.40","","","","","","NA"
"2006-04-12 20:00","2006","04","12","20:00","5.8","","5.2","","96","","29","","26","","","","98.47","","","","","","NA"
"2006-04-12 21:00","2006","04","12","21:00","3.9","","3.4","","97","","29","","32","","","","98.59","","","","","","NA"
"2006-04-12 22:00","2006","04","12","22:00","4.5","","4.0","","97","","29","","20","","","","98.66","","","","","","NA"
"2006-04-12 23:00","2006","04","12","23:00","7.0","","6.5","","97","","30","","20","","","","98.77","","","","","","NA"
"2006-04-13 00:00","2006","04","13","00:00","7.3","","5.3","","87","","29","","20","","","","98.87","","","","","","NA"
"2006-04-13 01:00","2006","04","13","01:00","7.2","","4.4","","82","","31","","20","","","","98.91","","","","","","NA"
"2006-04-13 02:00","2006","04","13","02:00","5.8","","3.8","","87","","27","","9","","","","98.98","","","","","","NA"
"2006-04-13 03:00","2006","04","13","03:00","4.7","","3.2","","90","","29","","17","","","","99.07","","","","","","NA"
"2006-04-13 04:00","2006","04","13","04:00","4.2","","2.8","","91","","27","","20","","","","99.12","","","","","","NA"
"2006-04-13 05:00","2006","04","13","05:00","3.4","","2.8","","96","","29","","15","","","","99.15","","","","","","NA"
"2006-04-13 06:00","2006","04","13","06:00","3.0","","2.4","","96","","31","","11","","","","99.19","","","","","","NA"
"2006-04-13 07:00","2006","04","13","07:00","4.1","","3.4","","95","","23","","2","","","","99.25","","","","","","NA"
"2006-04-13 08:00","2006","04","13","08:00","4.7","","3.5","","92","","2","","2","","","","99.30","","","","","","NA"
"2006-04-13 09:00","2006","04","13","09:00","4.0","","1.9","","86","","14","","4","","","","99.32","","","","","","NA"
"2006-04-13 10:00","2006","04","13","10:00","4.2","","2.0","","86","","15","","4","","","","99.33","","","","","","NA"
"2006-04-13 11:00","2006","04","13","11:00","4.4","","2.5","","87","","12","","6","","","","99.33","","","","","","NA"
"2006-04-13 12:00","2006","04","13","12:00","5.0","","3.0","","87","","10","","6","","","","99.32","","","","","","NA"
"2006-04-13 13:00","2006","04","13","13:00","7.1","","3.8","","80","","15","","6","","","","99.31","","","","","","NA"
"2006-04-13 14:00","2006","04","13","14:00","6.1","","3.0","","80","","17","","6","","","","99.29","","","","","","NA"
"2006-04-13 15:00","2006","04","13","15:00","6.9","","3.3","","78","","18","","4","","","","99.26","","","","","","NA"
"2006-04-13 16:00","2006","04","13","16:00","6.6","","2.7","","76","","16","","4","","","","99.26","","","","","","NA"
"2006-04-13 17:00","2006","04","13","17:00","7.7","","2.8","","71","","22","","2","","","","99.23","","","","","","NA"
"2006-04-13 18:00","2006","04","13","18:00","6.5","","2.9","","78","","21","","2","","","","99.21","","","","","","NA"
"2006-04-13 19:00","2006","04","13","19:00","4.9","","2.9","","87","","17","","6","","","","99.21","","","","","","NA"
"2006-04-13 20:00","2006","04","13","20:00","5.0","","3.5","","90","","8","","11","","","","99.17","","","","","","NA"
"2006-04-13 21:00","2006","04","13","21:00","3.8","","2.7","","93","","9","","7","","","","99.17","","","","","","NA"
"2006-04-13 22:00","2006","04","13","22:00","4.4","","3.4","","93","","7","","7","","","","99.13","","","","","","NA"
"2006-04-13 23:00","2006","04","13","23:00","4.2","","3.1","","93","","9","","6","","","","99.04","","","","","","NA"
"2006-04-14 00:00","2006","04","14","00:00","3.9","","2.9","","93","","9","","2","","","","98.97","","","","","","NA"
"2006-04-14 01:00","2006","04","14","01:00","2.6","","1.9","","95","","11","","4","","","","98.90","","","","","","NA"
"2006-04-14 02:00","2006","04","14","02:00","2.5","","1.9","","96","","10","","7","","","","98.87","","","","","","NA"
"2006-04-14 03:00","2006","04","14","03:00","3.1","","2.6","","97","","8","","9","","","","98.81","","","","","","NA"
"2006-04-14 04:00","2006","04","14","04:00","3.2","","2.7","","97","","7","","13","","","","98.70","","","","","","NA"
"2006-04-14 05:00","2006","04","14","05:00","2.9","","2.4","","97","","8","","7","","","","98.68","","","","","","NA"
"2006-04-14 06:00","2006","04","14","06:00","2.6","","2.2","","97","","9","","20","","","","98.56","","","","","","NA"
"2006-04-14 07:00","2006","04","14","07:00","2.7","","2.3","","97","","7","","9","","","","98.54","","","","","","NA"
"2006-04-14 08:00","2006","04","14","08:00","3.8","","3.3","","97","","8","","15","","","","98.44","","","","","","NA"
"2006-04-14 09:00","2006","04","14","09:00","4.6","","4.1","","97","","11","","17","","","","98.39","","","","","","NA"
"2006-04-14 10:00","2006","04","14","10:00","3.9","","3.5","","97","","11","","15","","","","98.30","","","","","","NA"
"2006-04-14 11:00","2006","04","14","11:00","3.5","","3.0","","97","","9","","7","","","","98.29","","","","","","NA"
"2006-04-14 12:00","2006","04","14","12:00","4.6","","4.0","","96","","8","","9","","","","98.21","","","","","","NA"
"2006-04-14 13:00","2006","04","14","13:00","5.1","","3.8","","91","","8","","17","","","","98.05","","","","","","NA"
"2006-04-14 14:00","2006","04","14","14:00","5.1","","3.9","","92","","9","","15","","","","97.94","","","","","","NA"
"2006-04-14 15:00","2006","04","14","15:00","5.5","","3.9","","89","","10","","7","","","","97.88","","","","","","NA"
"2006-04-14 16:00","2006","04","14","16:00","6.2","","5.0","","92","","","","0","","","","97.79","","","","","","NA"
"2006-04-14 17:00","2006","04","14","17:00","5.3","","4.3","","93","","26","","6","","","","97.72","","","","","","NA"
"2006-04-14 18:00","2006","04","14","18:00","6.4","","5.5","","94","","7","","6","","","","97.63","","","","","","NA"
"2006-04-14 19:00","2006","04","14","19:00","6.7","","5.5","","92","","25","","4","","","","97.70","","","","","","NA"
"2006-04-14 20:00","2006","04","14","20:00","6.1","","5.4","","95","","32","","6","","","","97.65","","","","","","NA"
"2006-04-14 21:00","2006","04","14","21:00","6.8","","6.1","","95","","30","","7","","","","97.65","","","","","","NA"
"2006-04-14 22:00","2006","04","14","22:00","7.5","","6.9","","96","","29","","20","","","","97.60","","","","","","NA"
"2006-04-14 23:00","2006","04","14","23:00","7.4","","5.5","","88","","30","","17","","","","97.55","","","","","","NA"
"2006-04-15 00:00","2006","04","15","00:00","5.8","","4.4","","91","","30","","11","","","","97.59","","","","","","NA"
"2006-04-15 01:00","2006","04","15","01:00","5.5","","3.6","","88","","30","","19","","","","97.66","","","","","","NA"
"2006-04-15 02:00","2006","04","15","02:00","4.6","","3.0","","89","","29","","17","","","","97.67","","","","","","NA"
"2006-04-15 03:00","2006","04","15","03:00","4.7","","3.1","","89","","30","","19","","","","97.73","","","","","","NA"
"2006-04-15 04:00","2006","04","15","04:00","4.3","","3.0","","91","","28","","11","","","","97.79","","","","","","NA"
"2006-04-15 05:00","2006","04","15","05:00","4.7","","3.0","","89","","28","","19","","","","97.82","","","","","","NA"
"2006-04-15 06:00","2006","04","15","06:00","4.7","","2.9","","88","","27","","15","","","","97.90","","","","","","NA"
"2006-04-15 07:00","2006","04","15","07:00","5.4","","3.1","","85","","27","","20","","","","97.93","","","","","","NA"
"2006-04-15 08:00","2006","04","15","08:00","5.6","","2.6","","81","","30","","17","","","","98.01","","","","","","NA"
"2006-04-15 09:00","2006","04","15","09:00","6.8","","1.1","","67","","30","","19","","","","98.07","","","","","","NA"
"2006-04-15 10:00","2006","04","15","10:00","8.0","","0.7","","60","","29","","22","","","","98.13","","","","","","NA"
"2006-04-15 11:00","2006","04","15","11:00","8.8","","0.7","","57","","30","","20","","","","98.17","","","","","","NA"
"2006-04-15 12:00","2006","04","15","12:00","10.4","","1.0","","52","","31","","22","","","","98.22","","","","","","NA"
"2006-04-15 13:00","2006","04","15","13:00","11.2","","1.1","","50","","32","","19","","","","98.26","","","","","","NA"
"2006-04-15 14:00","2006","04","15","14:00","12.1","","0.9","","46","","33","","19","","","","98.32","","","","","","NA"
"2006-04-15 15:00","2006","04","15","15:00","11.3","","1.2","","50","","32","","19","","","","98.38","","","","","","NA"
"2006-04-15 16:00","2006","04","15","16:00","11.1","","0.6","","48","","36","","17","","","","98.44","","","","","","NA"
"2006-04-15 17:00","2006","04","15","17:00","10.7","","0.5","","49","","1","","15","","","","98.54","","","","","","NA"
"2006-04-15 18:00","2006","04","15","18:00","9.9","","0.9","","53","","34","","15","","","","98.62","","","","","","NA"
"2006-04-15 19:00","2006","04","15","19:00","8.4","","0.7","","58","","1","","13","","","","98.68","","","","","","NA"
"2006-04-15 20:00","2006","04","15","20:00","7.4","","0.5","","62","","1","","6","","","","98.76","","","","","","NA"
"2006-04-15 21:00","2006","04","15","21:00","7.0","","0.5","","63","","34","","7","","","","98.89","","","","","","NA"
"2006-04-15 22:00","2006","04","15","22:00","6.2","","0.4","","66","","31","","7","","","","98.97","","","","","","NA"
"2006-04-15 23:00","2006","04","15","23:00","6.2","","0.4","","66","","3","","11","","","","98.97","","","","","","NA"
"2006-04-16 00:00","2006","04","16","00:00","5.8","","0.5","","69","","3","","7","","","","99.01","","","","","","NA"
"2006-04-16 01:00","2006","04","16","01:00","5.3","","0.4","","71","","5","","13","","","","98.99","","","","","","NA"
"2006-04-16 02:00","2006","04","16","02:00","4.5","","0.0","","73","","5","","9","","","","99.02","","","","","","NA"
"2006-04-16 03:00","2006","04","16","03:00","3.9","","-0.5","","73","","3","","7","","","","99.12","","","","","","NA"
"2006-04-16 04:00","2006","04","16","04:00","3.9","","-0.5","","73","","5","","11","","","","99.11","","","","","","NA"
"2006-04-16 05:00","2006","04","16","05:00","4.0","","-1.2","","69","","7","","13","","","","99.10","","","","","","NA"
"2006-04-16 06:00","2006","04","16","06:00","3.5","","-2.1","","67","","4","","7","","","","99.21","","","","","","NA"
"2006-04-16 07:00","2006","04","16","07:00","3.9","","-2.4","","63","","2","","6","","","","99.27","","","","","","NA"
"2006-04-16 08:00","2006","04","16","08:00","4.3","","-2.9","","59","","36","","11","","","","99.32","","","","","","NA"
"2006-04-16 09:00","2006","04","16","09:00","5.4","","-4.0","","51","","36","","15","","","","99.26","","","","","","NA"
"2006-04-16 10:00","2006","04","16","10:00","7.3","","-7.4","","34","","2","","13","","","","99.19","","","","","","NA"
"2006-04-16 11:00","2006","04","16","11:00","8.5","","-10.2","","25","","5","","7","","","","99.22","","","","","","NA"
"2006-04-16 12:00","2006","04","16","12:00","9.6","","-11.4","","21","","6","","15","","","","99.16","","","","","","NA"
"2006-04-16 13:00","2006","04","16","13:00","10.4","","-11.3","","20","","2","","17","","","","99.08","","","","","","NA"
"2006-04-16 14:00","2006","04","16","14:00","12.2","","-10.8","","19","","3","","11","","","","99.06","","","","","","NA"
"2006-04-16 15:00","2006","04","16","15:00","12.5","","-10.3","","19","","3","","15","","","","99.06","","","","","","NA"
"2006-04-16 16:00","2006","04","16","16:00","8.2","","-6.3","","35","","20","","15","","","","99.05","","","","","","NA"
"2006-04-16 17:00","2006","04","16","17:00","6.6","","-3.9","","47","","18","","6","","","","99.05","","","","","","NA"
"2006-04-16 18:00","2006","04","16","18:00","8.8","","-4.7","","38","","17","","6","","","","99.08","","","","","","NA"
"2006-04-16 19:00","2006","04","16","19:00","11.8","","-6.5","","27","","4","","9","","","","99.12","","","","","","NA"
"2006-04-16 20:00","2006","04","16","20:00","10.1","","-6.0","","32","","4","","11","","","","99.19","","","","","","NA"
"2006-04-16 21:00","2006","04","16","21:00","9.2","","-5.9","","34","","6","","15","","","","99.24","","","","","","NA"
"2006-04-16 22:00","2006","04","16","22:00","7.9","","-5.5","","38","","6","","17","","","","99.28","","","","","","NA"
"2006-04-16 23:00","2006","04","16","23:00","7.1","","-5.2","","41","","6","","13","","","","99.32","","","","","","NA"
"2006-04-17 00:00","2006","04","17","00:00","7.0","","-4.8","","43","","6","","13","","","","99.31","","","","","","NA"
"2006-04-17 01:00","2006","04","17","01:00","6.4","","-4.2","","47","","6","","19","","","","99.29","","","","","","NA"
"2006-04-17 02:00","2006","04","17","02:00","5.3","","-3.7","","52","","6","","15","","","","99.29","","","","","","NA"
"2006-04-17 03:00","2006","04","17","03:00","4.6","","-3.3","","56","","6","","11","","","","99.31","","","","","","NA"
"2006-04-17 04:00","2006","04","17","04:00","4.2","","-2.7","","61","","4","","6","","","","99.36","","","","","","NA"
"2006-04-17 05:00","2006","04","17","05:00","3.3","","-2.8","","64","","1","","6","","","","99.41","","","","","","NA"
"2006-04-17 06:00","2006","04","17","06:00","3.4","","-2.7","","64","","2","","9","","","","99.47","","","","","","NA"
"2006-04-17 07:00","2006","04","17","07:00","5.0","","-2.4","","59","","3","","9","","","","99.54","","","","","","NA"
"2006-04-17 08:00","2006","04","17","08:00","6.6","","-1.8","","55","","6","","11","","","","99.56","","","","","","NA"
"2006-04-17 09:00","2006","04","17","09:00","7.8","","-2.0","","50","","7","","15","","","","99.59","","","","","","NA"
"2006-04-17 10:00","2006","04","17","10:00","7.9","","-2.4","","48","","7","","17","","","","99.58","","","","","","NA"
"2006-04-17 11:00","2006","04","17","11:00","9.9","","-3.1","","40","","5","","11","","","","99.58","","","","","","NA"
"2006-04-17 12:00","2006","04","17","12:00","11.0","","-2.1","","40","","5","","13","","","","99.58","","","","","","NA"
"2006-04-17 13:00","2006","04","17","13:00","12.8","","-1.8","","36","","5","","13","","","","99.54","","","","","","NA"
"2006-04-17 14:00","2006","04","17","14:00","13.2","","-2.1","","35","","5","","13","","","","99.49","","","","","","NA"
"2006-04-17 15:00","2006","04","17","15:00","14.1","","-2.4","","32","","2","","11","","","","99.46","","","","","","NA"
"2006-04-17 16:00","2006","04","17","16:00","14.3","","-2.7","","31","","2","","13","","","","99.45","","","","","","NA"
"2006-04-17 17:00","2006","04","17","17:00","14.5","","-3.7","","28","","4","","13","","","","99.46","","","","","","NA"
"2006-04-17 18:00","2006","04","17","18:00","14.7","","-4.1","","27","","4","","11","","","","99.47","","","","","","NA"
"2006-04-17 19:00","2006","04","17","19:00","13.6","","-3.6","","30","","4","","6","","","","99.50","","","","","","NA"
"2006-04-17 20:00","2006","04","17","20:00","12.8","","-4.0","","31","","2","","7","","","","99.55","","","","","","NA"
"2006-04-17 21:00","2006","04","17","21:00","11.8","","-3.0","","35","","4","","11","","","","99.62","","","","","","NA"
"2006-04-17 22:00","2006","04","17","22:00","11.2","","-2.8","","37","","3","","7","","","","99.65","","","","","","NA"
"2006-04-17 23:00","2006","04","17","23:00","11.0","","-2.9","","38","","5","","9","","","","99.65","","","","","","NA"
"2006-04-18 00:00","2006","04","18","00:00","10.5","","-3.0","","39","","5","","7","","","","99.67","","","","","","NA"
"2006-04-18 01:00","2006","04","18","01:00","9.7","","-2.8","","41","","3","","7","","","","99.70","","","","","","NA"
"2006-04-18 02:00","2006","04","18","02:00","9.4","","-2.8","","42","","4","","11","","","","99.71","","","","","","NA"
"2006-04-18 03:00","2006","04","18","03:00","9.3","","-3.2","","41","","5","","13","","","","99.74","","","","","","NA"
"2006-04-18 04:00","2006","04","18","04:00","8.8","","-2.9","","44","","6","","13","","","","99.77","","","","","","NA"
"2006-04-18 05:00","2006","04","18","05:00","8.4","","-2.7","","45","","5","","9","","","","99.79","","","","","","NA"
"2006-04-18 06:00","2006","04","18","06:00","8.3","","-2.3","","47","","6","","9","","","","99.81","","","","","","NA"
"2006-04-18 07:00","2006","04","18","07:00","8.5","","-2.0","","48","","6","","13","","","","99.85","","","","","","NA"
"2006-04-18 08:00","2006","04","18","08:00","9.1","","-1.0","","49","","7","","17","","","","99.88","","","","","","NA"
"2006-04-18 09:00","2006","04","18","09:00","8.6","","-0.4","","53","","9","","13","","","","99.87","","","","","","NA"
"2006-04-18 10:00","2006","04","18","10:00","9.6","","-1.4","","46","","16","","11","","","","99.86","","","","","","NA"
"2006-04-18 11:00","2006","04","18","11:00","8.5","","-0.4","","53","","19","","9","","","","99.84","","","","","","NA"
"2006-04-18 12:00","2006","04","18","12:00","9.4","","-1.8","","45","","21","","17","","","","99.84","","","","","","NA"
"2006-04-18 13:00","2006","04","18","13:00","7.9","","-0.6","","55","","20","","19","","","","99.79","","","","","","NA"
"2006-04-18 14:00","2006","04","18","14:00","7.3","","0.1","","60","","21","","13","","","","99.76","","","","","","NA"
"2006-04-18 15:00","2006","04","18","15:00","8.1","","-0.5","","55","","21","","19","","","","99.71","","","","","","NA"
"2006-04-18 16:00","2006","04","18","16:00","11.8","","-1.9","","38","","21","","19","","","","99.65","","","","","","NA"
"2006-04-18 17:00","2006","04","18","17:00","13.2","","-1.7","","36","","22","","17","","","","99.63","","","","","","NA"
"2006-04-18 18:00","2006","04","18","18:00","16.0","","-0.5","","32","","30","","11","","","","99.58","","","","","","NA"
"2006-04-18 19:00","2006","04","18","19:00","15.0","","0.1","","36","","31","","11","","","","99.54","","","","","","NA"
"2006-04-18 20:00","2006","04","18","20:00","14.1","","-0.2","","37","","31","","13","","","","99.55","","","","","","NA"
"2006-04-18 21:00","2006","04","18","21:00","13.0","","0.8","","43","","32","","7","","","","99.56","","","","","","NA"
"2006-04-18 22:00","2006","04","18","22:00","14.4","","0.1","","38","","35","","7","","","","99.56","","","","","","NA"
"2006-04-18 23:00","2006","04","18","23:00","13.5","","1.1","","43","","8","","6","","","","99.55","","","","","","NA"
"2006-04-19 00:00","2006","04","19","00:00","12.8","","1.0","","44","","4","","4","","","","99.56","","","","","","NA"
"2006-04-19 01:00","2006","04","19","01:00","12.1","","1.2","","47","","2","","6","","","","99.55","","","","","","NA"
"2006-04-19 02:00","2006","04","19","02:00","11.4","","1.1","","49","","6","","6","","","","99.56","","","","","","NA"
"2006-04-19 03:00","2006","04","19","03:00","11.6","","1.1","","48","","5","","6","","","","99.58","","","","","","NA"
"2006-04-19 04:00","2006","04","19","04:00","11.1","","1.1","","50","","7","","9","","","","99.56","","","","","","NA"
"2006-04-19 05:00","2006","04","19","05:00","11.4","","0.6","","47","","5","","9","","","","99.56","","","","","","NA"
"2006-04-19 06:00","2006","04","19","06:00","11.8","","0.2","","45","","6","","11","","","","99.60","","","","","","NA"
"2006-04-19 07:00","2006","04","19","07:00","12.5","","0.4","","43","","7","","13","","","","99.61","","","","","","NA"
"2006-04-19 08:00","2006","04","19","08:00","11.8","","0.9","","47","","8","","11","","","","99.63","","","","","","NA"
"2006-04-19 09:00","2006","04","19","09:00","12.8","","0.6","","43","","10","","4","","","","99.68","","","","","","NA"
"2006-04-19 10:00","2006","04","19","10:00","13.1","","-0.7","","39","","13","","7","","","","99.67","","","","","","NA"
"2006-04-19 11:00","2006","04","19","11:00","12.3","","-0.8","","40","","18","","9","","","","99.67","","","","","","NA"
"2006-04-19 12:00","2006","04","19","12:00","11.5","","-0.8","","42","","19","","17","","","","99.62","","","","","","NA"
"2006-04-19 13:00","2006","04","19","13:00","10.4","","1.3","","53","","21","","13","","","","99.57","","","","","","NA"
"2006-04-19 14:00","2006","04","19","14:00","10.7","","1.7","","54","","21","","15","","","","99.49","","","","","","NA"
"2006-04-19 15:00","2006","04","19","15:00","11.2","","2.0","","53","","20","","6","","","","99.43","","","","","","NA"
"2006-04-19 16:00","2006","04","19","16:00","11.4","","1.9","","52","","20","","4","","","","99.39","","","","","","NA"
"2006-04-19 17:00","2006","04","19","17:00","12.4","","1.3","","47","","22","","4","","","","99.37","","","","","","NA"
"2006-04-19 18:00","2006","04","19","18:00","13.6","","-1.1","","36","","24","","2","","","","99.37","","","","","","NA"
"2006-04-19 19:00","2006","04","19","19:00","14.6","","0.0","","37","","28","","6","","","","99.35","","","","","","NA"
"2006-04-19 20:00","2006","04","19","20:00","14.8","","-1.0","","34","","32","","6","","","","99.40","","","","","","NA"
"2006-04-19 21:00","2006","04","19","21:00","13.2","","1.1","","44","","32","","11","","","","99.44","","","","","","NA"
"2006-04-19 22:00","2006","04","19","22:00","13.5","","0.4","","41","","32","","13","","","","99.42","","","","","","NA"
"2006-04-19 23:00","2006","04","19","23:00","13.1","","0.5","","42","","31","","15","","","","99.41","","","","","","NA"
"2006-04-20 00:00","2006","04","20","00:00","13.1","","0.2","","41","","33","","15","","","","99.41","","","","","","NA"
"2006-04-20 01:00","2006","04","20","01:00","13.6","","0.2","","40","","33","","13","","","","99.40","","","","","","NA"
"2006-04-20 02:00","2006","04","20","02:00","12.3","","0.7","","45","","31","","6","","","","99.38","","","","","","NA"
"2006-04-20 03:00","2006","04","20","03:00","11.3","","0.6","","48","","31","","6","","","","99.43","","","","","","NA"
"2006-04-20 04:00","2006","04","20","04:00","10.5","","1.3","","53","","7","","7","","","","99.46","","","","","","NA"
"2006-04-20 05:00","2006","04","20","05:00","11.1","","-3.4","","36","","7","","11","","","","99.47","","","","","","NA"
"2006-04-20 06:00","2006","04","20","06:00","12.0","","-6.0","","28","","6","","17","","","","99.50","","","","","","NA"
"2006-04-20 07:00","2006","04","20","07:00","12.2","","-6.0","","28","","7","","19","","","","99.52","","","","","","NA"
"2006-04-20 08:00","2006","04","20","08:00","12.8","","-5.1","","28","","7","","19","","","","99.51","","","","","","NA"
"2006-04-20 09:00","2006","04","20","09:00","12.9","","-3.9","","31","","8","","19","","","","99.55","","","","","","NA"
"2006-04-20 10:00","2006","04","20","10:00","13.1","","-3.9","","30","","13","","9","","","","99.63","","","","","","NA"
"2006-04-20 11:00","2006","04","20","11:00","11.3","","-3.0","","37","","17","","9","","","","99.62","","","","","","NA"
"2006-04-20 12:00","2006","04","20","12:00","12.5","","-4.2","","31","","20","","13","","","","99.56","","","","","","NA"
"2006-04-20 13:00","2006","04","20","13:00","11.7","","-2.1","","38","","17","","11","","","","99.49","","","","","","NA"
"2006-04-20 14:00","2006","04","20","14:00","11.8","","-2.6","","36","","21","","13","","","","99.46","","","","","","NA"
"2006-04-20 15:00","2006","04","20","15:00","13.4","","-5.9","","26","","22","","9","","","","99.39","","","","","","NA"
"2006-04-20 16:00","2006","04","20","16:00","15.6","","-9.3","","17","","21","","15","","","","99.35","","","","","","NA"
"2006-04-20 17:00","2006","04","20","17:00","16.7","","-8.1","","17","","21","","6","","","","99.32","","","","","","NA"
"2006-04-20 18:00","2006","04","20","18:00","18.1","","-12.7","","11","","","","0","","","","99.29","","","","","","NA"
"2006-04-20 19:00","2006","04","20","19:00","16.6","","-9.5","","16","","","","0","","","","99.30","","","","","","NA"
"2006-04-20 20:00","2006","04","20","20:00","15.3","","-8.6","","18","","32","","4","","","","99.31","","","","","","NA"
"2006-04-20 21:00","2006","04","20","21:00","15.8","","-7.9","","19","","1","","4","","","","99.30","","","","","","NA"
"2006-04-20 22:00","2006","04","20","22:00","14.5","","-7.4","","21","","5","","4","","","","99.27","","","","","","NA"
"2006-04-20 23:00","2006","04","20","23:00","15.2","","-6.4","","22","","7","","9","","","","99.23","","","","","","NA"
"2006-04-21 00:00","2006","04","21","00:00","13.9","","-4.8","","27","","7","","13","","","","99.24","","","","","","NA"
"2006-04-21 01:00","2006","04","21","01:00","12.0","","-2.6","","36","","7","","11","","","","99.22","","","","","","NA"
"2006-04-21 02:00","2006","04","21","02:00","10.4","","-0.7","","46","","9","","6","","","","99.21","","","","","","NA"
"2006-04-21 03:00","2006","04","21","03:00","8.0","","1.2","","62","","21","","2","","","","99.24","","","","","","NA"
"2006-04-21 04:00","2006","04","21","04:00","8.3","","1.2","","61","","9","","7","","","","99.28","","","","","","NA"
"2006-04-21 05:00","2006","04","21","05:00","9.6","","0.9","","55","","8","","19","","","","99.29","","","","","","NA"
"2006-04-21 06:00","2006","04","21","06:00","8.4","","1.5","","62","","8","","19","","","","99.32","","","","","","NA"
"2006-04-21 07:00","2006","04","21","07:00","8.7","","0.9","","58","","11","","9","","","","99.38","","","","","","NA"
"2006-04-21 08:00","2006","04","21","08:00","9.5","","-0.7","","49","","9","","7","","","","99.39","","","","","","NA"
"2006-04-21 09:00","2006","04","21","09:00","9.8","","-0.2","","50","","9","","13","","","","99.40","","","","","","NA"
"2006-04-21 10:00","2006","04","21","10:00","10.6","","-0.4","","46","","9","","9","","","","99.41","","","","","","NA"
"2006-04-21 11:00","2006","04","21","11:00","11.4","","-0.7","","43","","8","","17","","","","99.38","","","","","","NA"
"2006-04-21 12:00","2006","04","21","12:00","11.9","","-0.2","","43","","9","","11","","","","99.32","","","","","","NA"
"2006-04-21 13:00","2006","04","21","13:00","11.6","","0.0","","45","","11","","6","","","","99.34","","","","","","NA"
"2006-04-21 14:00","2006","04","21","14:00","11.6","","0.4","","46","","9","","9","","","","99.28","","","","","","NA"
"2006-04-21 15:00","2006","04","21","15:00","11.3","","-0.3","","45","","12","","7","","","","99.24","","","","","","NA"
"2006-04-21 16:00","2006","04","21","16:00","10.8","","0.1","","48","","10","","7","","","","99.24","","","","","","NA"
"2006-04-21 17:00","2006","04","21","17:00","12.3","","0.6","","45","","10","","11","","","","99.23","","","","","","NA"
"2006-04-21 18:00","2006","04","21","18:00","11.2","","1.6","","52","","8","","15","","","","99.21","","","","","","NA"
"2006-04-21 19:00","2006","04","21","19:00","10.3","","2.1","","57","","10","","28","","","","99.19","","","","","","NA"
"2006-04-21 20:00","2006","04","21","20:00","9.3","","2.4","","62","","11","","22","","","","99.20","","","","","","NA"
"2006-04-21 21:00","2006","04","21","21:00","9.7","","2.7","","62","","11","","32","","","","99.15","","","","","","NA"
"2006-04-21 22:00","2006","04","21","22:00","9.2","","2.7","","64","","10","","15","","","","99.20","","","","","","NA"
"2006-04-21 23:00","2006","04","21","23:00","11.6","","4.7","","63","","7","","11","","","","99.13","","","","","","NA"
"2006-04-22 00:00","2006","04","22","00:00","9.5","","3.7","","67","","24","","19","","","","99.27","","","","","","NA"
"2006-04-22 01:00","2006","04","22","01:00","8.2","","5.9","","85","","32","","11","","","","99.23","","","","","","NA"
"2006-04-22 02:00","2006","04","22","02:00","8.7","","6.4","","85","","32","","9","","","","99.13","","","","","","NA"
"2006-04-22 03:00","2006","04","22","03:00","9.7","","6.4","","80","","4","","6","","","","99.07","","","","","","NA"
"2006-04-22 04:00","2006","04","22","04:00","11.3","","6.0","","70","","6","","15","","","","99.03","","","","","","NA"
"2006-04-22 05:00","2006","04","22","05:00","9.6","","7.3","","86","","6","","15","","","","99.06","","","","","","NA"
"2006-04-22 06:00","2006","04","22","06:00","9.1","","7.4","","89","","7","","17","","","","99.07","","","","","","NA"
"2006-04-22 07:00","2006","04","22","07:00","9.3","","7.9","","91","","5","","13","","","","98.99","","","","","","NA"
"2006-04-22 08:00","2006","04","22","08:00","9.5","","8.4","","93","","7","","15","","","","99.04","","","","","","NA"
"2006-04-22 09:00","2006","04","22","09:00","8.5","","7.6","","94","","12","","20","","","","99.05","","","","","","NA"
"2006-04-22 10:00","2006","04","22","10:00","6.9","","6.2","","95","","12","","20","","","","99.05","","","","","","NA"
"2006-04-22 11:00","2006","04","22","11:00","6.5","","5.8","","95","","12","","28","","","","99.03","","","","","","NA"
"2006-04-22 12:00","2006","04","22","12:00","6.5","","5.9","","96","","11","","26","","","","99.03","","","","","","NA"
"2006-04-22 13:00","2006","04","22","13:00","6.5","","5.9","","96","","11","","32","","","","99.01","","","","","","NA"
"2006-04-22 14:00","2006","04","22","14:00","6.3","","5.7","","96","","11","","32","","","","99.02","","","","","","NA"
"2006-04-22 15:00","2006","04","22","15:00","6.3","","5.7","","96","","11","","28","","","","99.02","","","","","","NA"
"2006-04-22 16:00","2006","04","22","16:00","5.9","","5.3","","96","","11","","26","","","","99.01","","","","","","NA"
"2006-04-22 17:00","2006","04","22","17:00","5.8","","5.2","","96","","11","","28","","","","99.03","","","","","","NA"
"2006-04-22 18:00","2006","04","22","18:00","5.7","","5.1","","96","","11","","33","","","","99.03","","","","","","NA"
"2006-04-22 19:00","2006","04","22","19:00","5.9","","5.3","","96","","10","","35","","","","99.03","","","","","","NA"
"2006-04-22 20:00","2006","04","22","20:00","6.0","","5.2","","95","","11","","32","","","","99.12","","","","","","NA"
"2006-04-22 21:00","2006","04","22","21:00","5.9","","5.1","","95","","11","","28","","","","99.18","","","","","","NA"
"2006-04-22 22:00","2006","04","22","22:00","6.0","","4.6","","91","","11","","35","","","","99.09","","","","","","NA"
"2006-04-22 23:00","2006","04","22","23:00","6.0","","4.6","","91","","11","","33","","","","99.08","","","","","","NA"
"2006-04-23 00:00","2006","04","23","00:00","6.0","","4.5","","90","","11","","35","","","","99.01","","","","","","NA"
"2006-04-23 01:00","2006","04","23","01:00","6.1","","4.7","","91","","10","","33","","","","98.92","","","","","","NA"
"2006-04-23 02:00","2006","04","23","02:00","5.9","","4.9","","93","","7","","19","","","","98.87","","","","","","NA"
"2006-04-23 03:00","2006","04","23","03:00","5.9","","5.0","","94","","10","","19","","","","98.93","","","","","","NA"
"2006-04-23 04:00","2006","04","23","04:00","5.8","","4.9","","94","","8","","15","","","","98.94","","","","","","NA"
"2006-04-23 05:00","2006","04","23","05:00","5.8","","5.1","","95","","8","","17","","","","98.92","","","","","","NA"
"2006-04-23 06:00","2006","04","23","06:00","5.7","","5.0","","95","","7","","15","","","","98.91","","","","","","NA"
"2006-04-23 07:00","2006","04","23","07:00","5.9","","5.0","","94","","8","","19","","","","98.92","","","","","","NA"
"2006-04-23 08:00","2006","04","23","08:00","6.1","","5.0","","93","","7","","17","","","","98.91","","","","","","NA"
"2006-04-23 09:00","2006","04","23","09:00","6.4","","5.2","","92","","7","","17","","","","98.90","","","","","","NA"
"2006-04-23 10:00","2006","04","23","10:00","6.6","","5.4","","92","","8","","17","","","","98.89","","","","","","NA"
"2006-04-23 11:00","2006","04","23","11:00","6.5","","5.6","","94","","7","","13","","","","98.89","","","","","","NA"
"2006-04-23 12:00","2006","04","23","12:00","7.2","","5.6","","90","","7","","9","","","","98.86","","","","","","NA"
"2006-04-23 13:00","2006","04","23","13:00","7.5","","5.5","","87","","7","","9","","","","98.83","","","","","","NA"
"2006-04-23 14:00","2006","04","23","14:00","8.1","","5.9","","86","","6","","7","","","","98.82","","","","","","NA"
"2006-04-23 15:00","2006","04","23","15:00","7.8","","5.8","","87","","7","","17","","","","98.77","","","","","","NA"
"2006-04-23 16:00","2006","04","23","16:00","7.9","","5.7","","86","","6","","13","","","","98.77","","","","","","NA"
"2006-04-23 17:00","2006","04","23","17:00","7.4","","5.8","","90","","7","","15","","","","98.81","","","","","","NA"
"2006-04-23 18:00","2006","04","23","18:00","7.8","","5.3","","84","","3","","9","","","","98.81","","","","","","NA"
"2006-04-23 19:00","2006","04","23","19:00","7.8","","5.2","","84","","4","","6","","","","98.83","","","","","","NA"
"2006-04-23 20:00","2006","04","23","20:00","7.5","","5.0","","84","","4","","7","","","","98.84","","","","","","NA"
"2006-04-23 21:00","2006","04","23","21:00","7.2","","5.2","","87","","2","","7","","","","98.84","","","","","","NA"
"2006-04-23 22:00","2006","04","23","22:00","6.8","","5.7","","93","","2","","4","","","","98.78","","","","","","NA"
"2006-04-23 23:00","2006","04","23","23:00","6.7","","5.7","","93","","","","0","","","","98.77","","","","","","NA"
"2006-04-24 00:00","2006","04","24","00:00","6.5","","5.6","","94","","35","","4","","","","98.75","","","","","","NA"
"2006-04-24 01:00","2006","04","24","01:00","6.4","","5.7","","95","","31","","7","","","","98.67","","","","","","NA"
"2006-04-24 02:00","2006","04","24","02:00","6.4","","5.6","","95","","30","","6","","","","98.61","","","","","","NA"
"2006-04-24 03:00","2006","04","24","03:00","6.5","","5.6","","94","","32","","4","","","","98.61","","","","","","NA"
"2006-04-24 04:00","2006","04","24","04:00","6.5","","5.7","","95","","6","","2","","","","98.61","","","","","","NA"
"2006-04-24 05:00","2006","04","24","05:00","6.4","","5.7","","95","","26","","6","","","","98.64","","","","","","NA"
"2006-04-24 06:00","2006","04","24","06:00","6.3","","5.6","","95","","28","","9","","","","98.66","","","","","","NA"
"2006-04-24 07:00","2006","04","24","07:00","6.2","","5.5","","95","","28","","6","","","","98.66","","","","","","NA"
"2006-04-24 08:00","2006","04","24","08:00","6.8","","6.1","","95","","24","","4","","","","98.68","","","","","","NA"
"2006-04-24 09:00","2006","04","24","09:00","6.8","","5.7","","93","","28","","13","","","","98.77","","","","","","NA"
"2006-04-24 10:00","2006","04","24","10:00","6.0","","5.0","","93","","29","","15","","","","98.79","","","","","","NA"
"2006-04-24 11:00","2006","04","24","11:00","6.4","","5.6","","95","","29","","13","","","","98.74","","","","","","NA"
"2006-04-24 12:00","2006","04","24","12:00","6.3","","5.4","","94","","29","","19","","","","98.68","","","","","","NA"
"2006-04-24 13:00","2006","04","24","13:00","7.1","","5.5","","90","","28","","24","","","","98.63","","","","","","NA"
"2006-04-24 14:00","2006","04","24","14:00","7.9","","5.5","","85","","29","","17","","","","98.58","","","","","","NA"
"2006-04-24 15:00","2006","04","24","15:00","10.5","","5.6","","72","","29","","17","","","","98.56","","","","","","NA"
"2006-04-24 16:00","2006","04","24","16:00","12.0","","5.2","","63","","27","","19","","","","98.52","","","","","","NA"
"2006-04-24 17:00","2006","04","24","17:00","6.3","","4.7","","89","","20","","11","","","","98.52","","","","","","NA"
"2006-04-24 18:00","2006","04","24","18:00","5.6","","4.3","","91","","18","","9","","","","98.51","","","","","","NA"
"2006-04-24 19:00","2006","04","24","19:00","5.4","","4.3","","93","","11","","9","","","","98.51","","","","","","NA"
"2006-04-24 20:00","2006","04","24","20:00","7.2","","5.1","","86","","27","","4","","","","98.47","","","","","","NA"
"2006-04-24 21:00","2006","04","24","21:00","8.1","","5.3","","82","","25","","19","","","","98.47","","","","","","NA"
"2006-04-24 22:00","2006","04","24","22:00","8.0","","5.4","","84","","25","","13","","","","98.41","","","","","","NA"
"2006-04-24 23:00","2006","04","24","23:00","5.9","","4.5","","91","","28","","26","","","","98.40","","","","","","NA"
"2006-04-25 00:00","2006","04","25","00:00","5.1","","2.6","","84","","35","","20","","","","98.58","","","","","","NA"
"2006-04-25 01:00","2006","04","25","01:00","1.8","","-0.4","","85","","34","","20","","","","98.66","","","","","","NA"
"2006-04-25 02:00","2006","04","25","02:00","0.2","","-1.1","","91","","32","","20","","","","98.81","","","","","","NA"
"2006-04-25 03:00","2006","04","25","03:00","0.0","","-3.1","","80","","33","","13","","","","98.92","","","","-4","","NA"
"2006-04-25 04:00","2006","04","25","04:00","-0.6","","-4.5","","75","","36","","19","","","","99.01","","","","-6","","NA"
"2006-04-25 05:00","2006","04","25","05:00","-0.6","","-6.7","","63","","34","","19","","","","99.10","","","","-6","","NA"
"2006-04-25 06:00","2006","04","25","06:00","-0.5","","-7.4","","60","","35","","17","","","","99.21","","","","-5","","NA"
"2006-04-25 07:00","2006","04","25","07:00","0.2","","-7.5","","56","","34","","19","","","","99.23","","","","","","NA"
"2006-04-25 08:00","2006","04","25","08:00","0.8","","-8.2","","51","","34","","20","","","","99.24","","","","","","NA"
"2006-04-25 09:00","2006","04","25","09:00","1.3","","-8.6","","48","","32","","20","","","","99.24","","","","","","NA"
"2006-04-25 10:00","2006","04","25","10:00","2.7","","-9.4","","40","","32","","20","","","","99.22","","","","","","NA"
"2006-04-25 11:00","2006","04","25","11:00","3.4","","-11.2","","33","","29","","26","","","","99.22","","","","","","NA"
"2006-04-25 12:00","2006","04","25","12:00","5.8","","-12.8","","25","","32","","19","","","","99.17","","","","","","NA"
"2006-04-25 13:00","2006","04","25","13:00","5.2","","-9.4","","34","","28","","24","","","","99.11","","","","","","NA"
"2006-04-25 14:00","2006","04","25","14:00","5.7","","-9.4","","33","","27","","32","","","","99.05","","","","","","NA"
"2006-04-25 15:00","2006","04","25","15:00","6.4","","-8.9","","32","","27","","37","","","","99.03","","","","","","NA"
"2006-04-25 16:00","2006","04","25","16:00","6.3","","-7.7","","36","","28","","33","","","","99.02","","","","","","NA"
"2006-04-25 17:00","2006","04","25","17:00","6.0","","-7.8","","36","","28","","43","","","","99.05","","","","","","NA"
"2006-04-25 18:00","2006","04","25","18:00","5.2","","-5.7","","45","","27","","44","","","","99.04","","","","","","NA"
"2006-04-25 19:00","2006","04","25","19:00","5.0","","-5.3","","47","","27","","37","","","","99.02","","","","","","NA"
"2006-04-25 20:00","2006","04","25","20:00","4.4","","-3.7","","56","","28","","35","","","","99.05","","","","","","NA"
"2006-04-25 21:00","2006","04","25","21:00","4.3","","-3.9","","55","","29","","22","","","","99.08","","","","","","NA"
"2006-04-25 22:00","2006","04","25","22:00","3.7","","-3.7","","58","","29","","19","","","","99.12","","","","","","NA"
"2006-04-25 23:00","2006","04","25","23:00","3.3","","-3.8","","60","","29","","13","","","","99.12","","","","","","NA"
"2006-04-26 00:00","2006","04","26","00:00","2.9","","-4.4","","59","","29","","15","","","","99.09","","","","","","NA"
"2006-04-26 01:00","2006","04","26","01:00","2.6","","-4.2","","61","","27","","15","","","","99.02","","","","","","NA"
"2006-04-26 02:00","2006","04","26","02:00","2.5","","-3.9","","63","","28","","15","","","","98.97","","","","","","NA"
"2006-04-26 03:00","2006","04","26","03:00","2.3","","-4.7","","60","","26","","13","","","","98.85","","","","","","NA"
"2006-04-26 04:00","2006","04","26","04:00","2.6","","-4.4","","60","","26","","22","","","","98.79","","","","","","NA"
"2006-04-26 05:00","2006","04","26","05:00","2.7","","-2.6","","68","","24","","20","","","","98.71","","","","","","NA"
"2006-04-26 06:00","2006","04","26","06:00","3.6","","-4.5","","55","","25","","20","","","","98.64","","","","","","NA"
"2006-04-26 07:00","2006","04","26","07:00","4.8","","-3.9","","53","","26","","28","","","","98.53","","","","","","NA"
"2006-04-26 08:00","2006","04","26","08:00","6.1","","-4.6","","46","","26","","35","","","","98.45","","","","","","NA"
"2006-04-26 09:00","2006","04","26","09:00","7.7","","-4.0","","43","","27","","30","","","","98.37","","","","","","NA"
"2006-04-26 10:00","2006","04","26","10:00","8.7","","-3.1","","43","","29","","39","","","","98.33","","","","","","NA"
"2006-04-26 11:00","2006","04","26","11:00","8.7","","-1.5","","49","","28","","39","","","","98.30","","","","","","NA"
"2006-04-26 12:00","2006","04","26","12:00","8.9","","-0.7","","51","","28","","32","","","","98.29","","","","","","NA"
"2006-04-26 13:00","2006","04","26","13:00","9.7","","-0.4","","49","","29","","19","","","","98.31","","","","","","NA"
"2006-04-26 14:00","2006","04","26","14:00","10.9","","-0.2","","46","","27","","24","","","","98.29","","","","","","NA"
"2006-04-26 15:00","2006","04","26","15:00","10.3","","0.1","","49","","27","","33","","","","98.29","","","","","","NA"
"2006-04-26 16:00","2006","04","26","16:00","10.7","","-0.9","","44","","27","","33","","","","98.28","","","","","","NA"
"2006-04-26 17:00","2006","04","26","17:00","10.5","","-2.3","","41","","28","","24","","","","98.32","","","","","","NA"
"2006-04-26 18:00","2006","04","26","18:00","9.3","","-3.5","","40","","28","","24","","","","98.35","","","","","","NA"
"2006-04-26 19:00","2006","04","26","19:00","7.8","","-1.9","","50","","29","","19","","","","98.40","","","","","","NA"
"2006-04-26 20:00","2006","04","26","20:00","6.5","","-1.3","","57","","35","","7","","","","98.51","","","","","","NA"
"2006-04-26 21:00","2006","04","26","21:00","7.4","","-5.7","","39","","4","","9","","","","98.60","","","","","","NA"
"2006-04-26 22:00","2006","04","26","22:00","6.7","","-8.9","","32","","5","","9","","","","98.69","","","","","","NA"
"2006-04-26 23:00","2006","04","26","23:00","5.8","","-9.5","","32","","3","","11","","","","98.76","","","","","","NA"
"2006-04-27 00:00","2006","04","27","00:00","4.5","","-9.1","","36","","4","","11","","","","98.85","","","","","","NA"
"2006-04-27 01:00","2006","04","27","01:00","3.6","","-9.3","","38","","5","","9","","","","98.91","","","","","","NA"
"2006-04-27 02:00","2006","04","27","02:00","2.4","","-9.2","","42","","3","","6","","","","98.96","","","","","","NA"
"2006-04-27 03:00","2006","04","27","03:00","1.9","","-9.0","","44","","3","","7","","","","99.01","","","","","","NA"
"2006-04-27 04:00","2006","04","27","04:00","1.0","","-8.3","","50","","1","","11","","","","99.10","","","","","","NA"
"2006-04-27 05:00","2006","04","27","05:00","0.2","","-8.5","","52","","2","","9","","","","99.17","","","","","","NA"
"2006-04-27 06:00","2006","04","27","06:00","0.4","","-8.4","","52","","4","","7","","","","99.26","","","","","","NA"
"2006-04-27 07:00","2006","04","27","07:00","2.2","","-9.4","","42","","4","","6","","","","99.34","","","","","","NA"
"2006-04-27 08:00","2006","04","27","08:00","2.1","","-11.5","","36","","9","","15","","","","99.41","","","","","","NA"
"2006-04-27 09:00","2006","04","27","09:00","3.5","","-13.6","","27","","2","","13","","","","99.44","","","","","","NA"
"2006-04-27 10:00","2006","04","27","10:00","4.9","","-13.1","","26","","34","","6","","","","99.48","","","","","","NA"
"2006-04-27 11:00","2006","04","27","11:00","4.5","","-13.4","","26","","26","","11","","","","99.50","","","","","","NA"
"2006-04-27 12:00","2006","04","27","12:00","3.7","","-8.3","","41","","20","","20","","","","99.53","","","","","","NA"
"2006-04-27 13:00","2006","04","27","13:00","3.5","","-7.2","","45","","18","","22","","","","99.52","","","","","","NA"
"2006-04-27 14:00","2006","04","27","14:00","4.2","","-7.9","","41","","18","","22","","","","99.52","","","","","","NA"
"2006-04-27 15:00","2006","04","27","15:00","4.8","","-6.2","","45","","19","","19","","","","99.52","","","","","","NA"
"2006-04-27 16:00","2006","04","27","16:00","4.8","","-5.2","","48","","21","","22","","","","99.54","","","","","","NA"
"2006-04-27 17:00","2006","04","27","17:00","4.3","","-2.9","","59","","20","","28","","","","99.58","","","","","","NA"
"2006-04-27 18:00","2006","04","27","18:00","5.6","","-1.6","","60","","22","","19","","","","99.61","","","","","","NA"
"2006-04-27 19:00","2006","04","27","19:00","6.1","","-3.8","","49","","26","","15","","","","99.68","","","","","","NA"
"2006-04-27 20:00","2006","04","27","20:00","4.8","","-3.3","","56","","26","","11","","","","99.77","","","","","","NA"
"2006-04-27 21:00","2006","04","27","21:00","4.2","","-3.0","","59","","29","","13","","","","99.84","","","","","","NA"
"2006-04-27 22:00","2006","04","27","22:00","3.4","","-1.7","","69","","31","","11","","","","99.89","","","","","","NA"
"2006-04-27 23:00","2006","04","27","23:00","3.4","","-1.4","","71","","30","","11","","","","99.93","","","","","","NA"
"2006-04-28 00:00","2006","04","28","00:00","3.0","","-2.4","","68","","32","","9","","","","100.00","","","","","","NA"
"2006-04-28 01:00","2006","04","28","01:00","3.4","","-3.3","","61","","32","","11","","","","100.04","","","","","","NA"
"2006-04-28 02:00","2006","04","28","02:00","4.0","","-7.6","","42","","1","","9","","","","100.08","","","","","","NA"
"2006-04-28 03:00","2006","04","28","03:00","3.6","","-9.9","","37","","6","","11","","","","100.13","","","","","","NA"
"2006-04-28 04:00","2006","04","28","04:00","3.2","","-9.5","","39","","6","","11","","","","100.22","","","","","","NA"
"2006-04-28 05:00","2006","04","28","05:00","3.2","","-9.7","","38","","7","","13","","","","100.31","","","","","","NA"
"2006-04-28 06:00","2006","04","28","06:00","2.9","","-8.8","","42","","7","","9","","","","100.40","","","","","","NA"
"2006-04-28 07:00","2006","04","28","07:00","3.8","","-6.7","","46","","8","","15","","","","100.50","","","","","","NA"
"2006-04-28 08:00","2006","04","28","08:00","4.3","","-5.7","","48","","9","","9","","","","100.56","","","","","","NA"
"2006-04-28 09:00","2006","04","28","09:00","4.7","","-3.9","","54","","11","","7","","","","100.63","","","","","","NA"
"2006-04-28 10:00","2006","04","28","10:00","4.7","","-3.6","","55","","12","","7","","","","100.67","","","","","","NA"
"2006-04-28 11:00","2006","04","28","11:00","4.8","","-3.0","","57","","14","","6","","","","100.72","","","","","","NA"
"2006-04-28 12:00","2006","04","28","12:00","4.7","","-2.2","","61","","17","","7","","","","100.72","","","","","","NA"
"2006-04-28 13:00","2006","04","28","13:00","4.7","","-3.7","","54","","15","","15","","","","100.68","","","","","","NA"
"2006-04-28 14:00","2006","04","28","14:00","5.1","","-4.7","","49","","17","","19","","","","100.70","","","","","","NA"
"2006-04-28 15:00","2006","04","28","15:00","5.6","","-2.5","","56","","20","","9","","","","100.66","","","","","","NA"
"2006-04-28 16:00","2006","04","28","16:00","5.3","","-2.9","","55","","21","","15","","","","100.62","","","","","","NA"
"2006-04-28 17:00","2006","04","28","17:00","5.5","","-3.3","","53","","20","","7","","","","100.60","","","","","","NA"
"2006-04-28 18:00","2006","04","28","18:00","6.0","","-4.5","","47","","20","","6","","","","100.59","","","","","","NA"
"2006-04-28 19:00","2006","04","28","19:00","7.9","","-11.4","","24","","24","","6","","","","100.61","","","","","","NA"
"2006-04-28 20:00","2006","04","28","20:00","7.1","","-8.7","","31","","27","","6","","","","100.66","","","","","","NA"
"2006-04-28 21:00","2006","04","28","21:00","6.3","","-7.1","","38","","26","","2","","","","100.67","","","","","","NA"
"2006-04-28 22:00","2006","04","28","22:00","5.7","","-8.0","","37","","7","","6","","","","100.65","","","","","","NA"
"2006-04-28 23:00","2006","04","28","23:00","5.1","","-7.7","","39","","8","","2","","","","100.68","","","","","","NA"
"2006-04-29 00:00","2006","04","29","00:00","3.8","","-4.5","","55","","16","","2","","","","100.70","","","","","","NA"
"2006-04-29 01:00","2006","04","29","01:00","3.4","","-0.2","","77","","6","","2","","","","100.74","","","","","","NA"
"2006-04-29 02:00","2006","04","29","02:00","3.0","","-0.4","","78","","10","","4","","","","100.76","","","","","","NA"
"2006-04-29 03:00","2006","04","29","03:00","2.5","","-1.8","","73","","7","","7","","","","100.77","","","","","","NA"
"2006-04-29 04:00","2006","04","29","04:00","2.9","","-1.3","","74","","7","","9","","","","100.76","","","","","","NA"
"2006-04-29 05:00","2006","04","29","05:00","2.5","","-2.2","","71","","6","","7","","","","100.81","","","","","","NA"
"2006-04-29 06:00","2006","04","29","06:00","3.7","","-0.8","","72","","7","","7","","","","100.90","","","","","","NA"
"2006-04-29 07:00","2006","04","29","07:00","4.8","","0.1","","72","","7","","9","","","","100.93","","","","","","NA"
"2006-04-29 08:00","2006","04","29","08:00","5.8","","0.5","","69","","8","","11","","","","100.95","","","","","","NA"
"2006-04-29 09:00","2006","04","29","09:00","5.7","","-1.1","","62","","10","","9","","","","100.97","","","","","","NA"
"2006-04-29 10:00","2006","04","29","10:00","6.5","","0.0","","63","","8","","9","","","","101.04","","","","","","NA"
"2006-04-29 11:00","2006","04","29","11:00","7.4","","0.3","","61","","8","","9","","","","100.99","","","","","","NA"
"2006-04-29 12:00","2006","04","29","12:00","7.8","","-0.9","","54","","9","","7","","","","100.97","","","","","","NA"
"2006-04-29 13:00","2006","04","29","13:00","7.2","","-1.2","","55","","13","","7","","","","100.95","","","","","","NA"
"2006-04-29 14:00","2006","04","29","14:00","7.4","","-3.0","","48","","12","","6","","","","100.94","","","","","","NA"
"2006-04-29 15:00","2006","04","29","15:00","10.1","","-7.4","","28","","17","","4","","","","100.88","","","","","","NA"
"2006-04-29 16:00","2006","04","29","16:00","13.5","","-6.7","","24","","21","","6","","","","100.83","","","","","","NA"
"2006-04-29 17:00","2006","04","29","17:00","10.9","","-8.4","","25","","8","","6","","","","100.79","","","","","","NA"
"2006-04-29 18:00","2006","04","29","18:00","11.8","","-10.7","","20","","8","","7","","","","100.72","","","","","","NA"
"2006-04-29 19:00","2006","04","29","19:00","11.6","","-8.7","","23","","8","","7","","","","100.67","","","","","","NA"
"2006-04-29 20:00","2006","04","29","20:00","10.7","","-6.8","","29","","8","","7","","","","100.65","","","","","","NA"
"2006-04-29 21:00","2006","04","29","21:00","11.0","","-7.5","","27","","5","","7","","","","100.68","","","","","","NA"
"2006-04-29 22:00","2006","04","29","22:00","10.2","","-6.7","","30","","7","","6","","","","100.69","","","","","","NA"
"2006-04-29 23:00","2006","04","29","23:00","10.8","","-7.4","","27","","7","","13","","","","100.65","","","","","","NA"
"2006-04-30 00:00","2006","04","30","00:00","10.5","","-7.2","","28","","7","","11","","","","100.67","","","","","","NA"
"2006-04-30 01:00","2006","04","30","01:00","10.3","","-7.5","","28","","6","","9","","","","100.67","","","","","","NA"
"2006-04-30 02:00","2006","04","30","02:00","9.9","","-7.5","","29","","7","","9","","","","100.68","","","","","","NA"
"2006-04-30 03:00","2006","04","30","03:00","8.2","","-2.0","","49","","8","","13","","","","100.71","","","","","","NA"
"2006-04-30 04:00","2006","04","30","04:00","8.2","","-4.5","","40","","7","","13","","","","100.71","","","","","","NA"
"2006-04-30 05:00","2006","04","30","05:00","7.8","","-4.9","","40","","7","","15","","","","100.70","","","","","","NA"
"2006-04-30 06:00","2006","04","30","06:00","8.8","","-5.3","","36","","7","","19","","","","100.69","","","","","","NA"
"2006-04-30 07:00","2006","04","30","07:00","9.9","","-4.2","","37","","8","","20","","","","100.72","","","","","","NA"
"2006-04-30 08:00","2006","04","30","08:00","10.0","","-2.2","","42","","10","","26","","","","100.72","","","","","","NA"
"2006-04-30 09:00","2006","04","30","09:00","9.5","","-0.4","","50","","9","","26","","","","100.73","","","","","","NA"
"2006-04-30 10:00","2006","04","30","10:00","10.3","","-1.5","","44","","10","","22","","","","100.74","","","","","","NA"
"2006-04-30 11:00","2006","04","30","11:00","10.2","","-2.3","","41","","12","","22","","","","100.75","","","","","","NA"
"2006-04-30 12:00","2006","04","30","12:00","9.7","","-1.6","","45","","12","","19","","","","100.71","","","","","","NA"
"2006-04-30 13:00","2006","04","30","13:00","11.7","","-4.5","","32","","9","","19","","","","100.67","","","","","","NA"
"2006-04-30 14:00","2006","04","30","14:00","11.7","","-4.5","","32","","10","","11","","","","100.63","","","","","","NA"
"2006-04-30 15:00","2006","04","30","15:00","12.7","","-6.0","","27","","8","","13","","","","100.57","","","","","","NA"
"2006-04-30 16:00","2006","04","30","16:00","14.1","","-5.7","","25","","8","","19","","","","100.50","","","","","","NA"
"2006-04-30 17:00","2006","04","30","17:00","14.0","","-4.1","","28","","8","","17","","","","100.42","","","","","","NA"
"2006-04-30 18:00","2006","04","30","18:00","13.9","","-3.5","","30","","8","","20","","","","100.38","","","","","","NA"
"2006-04-30 19:00","2006","04","30","19:00","14.3","","-3.7","","29","","9","","20","","","","100.35","","","","","","NA"
"2006-04-30 20:00","2006","04","30","20:00","13.8","","-3.0","","31","","9","","11","","","","100.37","","","","","","NA"
"2006-04-30 21:00","2006","04","30","21:00","14.3","","-4.3","","27","","8","","19","","","","100.40","","","","","","NA"
"2006-04-30 22:00","2006","04","30","22:00","13.6","","-3.8","","30","","8","","17","","","","100.42","","","","","","NA"
"2006-04-30 23:00","2006","04","30","23:00","12.9","","-2.7","","34","","8","","19","","","","100.45","","","","","","NA"
