"Station Name","KILLARNEY (AUT)"
"Province","ONTARIO"
"Latitude","45.97"
"Longitude","-81.48"
"Elevation","196.30"
"Climate Identifier","605DJ25"
"WMO Identifier","71460"
"TC Identifier","WBE"
"All times are specified in Local Standard Time (LST). Add 1 hour to adjust for Daylight Saving Time where and when it is observed."

"Legend"
"E","Estimated"
"M","Missing"
"NA","Not Available"

"Date/Time","Year","Month","Day","Time","Temp (°C)","Temp Flag","Dew Point Temp (°C)","Dew Point Temp Flag","Rel Hum (%)","Rel Hum Flag","Wind Dir (10s deg)","Wind Dir Flag","Wind Spd (km/h)","Wind Spd Flag","Visibility (km)","Visibility Flag","Stn Press (kPa)","Stn Press Flag","Hmdx","Hmdx Flag","Wind Chill","Wind Chill Flag","Weather"
"2018-01-01 00:00","2018","01","01","00:00","-20.0","","-23.4","","74","","3","","7","","","","100.55","","","","-26","","NA"
"2018-01-01 01:00","2018","01","01","01:00","-18.7","","-22.6","","71","","3","","7","","","","100.51","","","","-24","","NA"
"2018-01-01 02:00","2018","01","01","02:00","-17.9","","-21.2","","75","","4","","7","","","","100.46","","","","-23","","NA"
"2018-01-01 03:00","2018","01","01","03:00","-17.9","","-20.7","","79","","5","","8","","","","100.41","","","","-24","","NA"
"2018-01-01 04:00","2018","01","01","04:00","-18.4","","-21.0","","80","","5","","9","","","","100.37","","","","-25","","NA"
"2018-01-01 05:00","2018","01","01","05:00","-17.6","","-20.3","","79","","4","","8","","","","100.29","","","","-23","","NA"
"2018-01-01 06:00","2018","01","01","06:00","-15.8","","-18.4","","81","","2","","3","","","","100.28","","","","-18","","NA"
"2018-01-01 07:00","2018","01","01","07:00","-16.3","","-19.5","","76","","30","","14","","","","100.29","","","","-24","","NA"
"2018-01-01 08:00","2018","01","01","08:00","-17.7","","-21.1","","74","","32","","14","","","","100.30","","","","-26","","NA"
"2018-01-01 09:00","2018","01","01","09:00","-18.5","","-22.0","","74","","32","","14","","","","100.37","","","","-27","","NA"
"2018-01-01 10:00","2018","01","01","10:00","-18.9","","-23.3","","68","","33","","14","","","","100.43","","","","-27","","NA"
"2018-01-01 11:00","2018","01","01","11:00","-19.3","","-25.6","","57","","34","","18","","","","100.47","","","","-29","","NA"
"2018-01-01 12:00","2018","01","01","12:00","-19.4","","-26.7","","52","","31","","21","","","","100.46","","","","-30","","NA"
"2018-01-01 13:00","2018","01","01","13:00","-19.0","","-27.0","","49","","33","","15","","","","100.44","","","","-28","","NA"
"2018-01-01 14:00","2018","01","01","14:00","-18.8","","-27.3","","47","","32","","19","","","","100.44","","","","-29","","NA"
"2018-01-01 15:00","2018","01","01","15:00","-18.0","","-26.8","","46","","31","","13","","","","100.47","","","","-26","","NA"
"2018-01-01 16:00","2018","01","01","16:00","-17.8","","-26.9","","45","","31","","14","","","","100.52","","","","-26","","NA"
"2018-01-01 17:00","2018","01","01","17:00","-18.3","","-26.4","","49","","31","","11","","","","100.56","","","","-26","","NA"
"2018-01-01 18:00","2018","01","01","18:00","-18.7","","-25.9","","53","","30","","10","","","","100.58","","","","-26","","NA"
"2018-01-01 19:00","2018","01","01","19:00","-18.0","","-24.8","","55","","31","","9","","","","100.55","","","","-24","","NA"
"2018-01-01 20:00","2018","01","01","20:00","-17.5","","-23.6","","59","","29","","9","","","","100.51","","","","-24","","NA"
"2018-01-01 21:00","2018","01","01","21:00","-18.1","","-24.4","","58","","34","","8","","","","100.41","","","","-24","","NA"
"2018-01-01 22:00","2018","01","01","22:00","-17.5","","-22.6","","65","","30","","7","","","","100.36","","","","-23","","NA"
"2018-01-01 23:00","2018","01","01","23:00","-17.5","","-21.6","","70","","30","","7","","","","100.34","","","","-23","","NA"
"2018-01-02 00:00","2018","01","02","00:00","-17.2","","-20.7","","75","","27","","10","","","","100.29","","","","-24","","NA"
"2018-01-02 01:00","2018","01","02","01:00","-16.3","","-19.3","","78","","30","","6","","","","100.19","","","","-21","","NA"
"2018-01-02 02:00","2018","01","02","02:00","-15.8","","-18.1","","82","","29","","7","","","","100.12","","","","-21","","NA"
"2018-01-02 03:00","2018","01","02","03:00","-14.0","","-16.2","","84","","30","","8","","","","100.04","","","","-19","","NA"
"2018-01-02 04:00","2018","01","02","04:00","-11.8","","-13.7","","86","","28","","9","","","","99.91","","","","-17","","NA"
"2018-01-02 05:00","2018","01","02","05:00","-8.0","","-11.0","","79","","28","","27","","","","99.80","","","","-16","","NA"
"2018-01-02 06:00","2018","01","02","06:00","-7.1","","-10.9","","74","","27","","33","","","","99.69","","","","-16","","NA"
"2018-01-02 07:00","2018","01","02","07:00","-6.9","","-10.7","","74","","27","","30","","","","99.61","","","","-15","","NA"
"2018-01-02 08:00","2018","01","02","08:00","-7.0","","-10.9","","74","","27","","36","","","","99.55","","","","-16","","NA"
"2018-01-02 09:00","2018","01","02","09:00","-7.0","","-10.8","","74","","27","","34","","","","99.48","","","","-16","","NA"
"2018-01-02 10:00","2018","01","02","10:00","-6.8","","-10.7","","74","","27","","31","","","","99.44","","","","-15","","NA"
"2018-01-02 11:00","2018","01","02","11:00","-6.6","","-10.6","","73","","27","","32","","","","99.39","","","","-15","","NA"
"2018-01-02 12:00","2018","01","02","12:00","-6.1","","-10.3","","72","","27","","34","","","","99.31","","","","-15","","NA"
"2018-01-02 13:00","2018","01","02","13:00","-6.0","","-11.0","","68","","27","","34","","","","99.24","","","","-15","","NA"
"2018-01-02 14:00","2018","01","02","14:00","-5.7","","-10.7","","68","","27","","35","","","","99.19","","","","-14","","NA"
"2018-01-02 15:00","2018","01","02","15:00","-5.8","","-10.8","","68","","26","","32","","","","99.20","","","","-14","","NA"
"2018-01-02 16:00","2018","01","02","16:00","-5.5","","-10.5","","67","","27","","29","","","","99.23","","","","-14","","NA"
"2018-01-02 17:00","2018","01","02","17:00","-5.7","","-11.9","","61","","28","","32","","","","99.21","","","","-14","","NA"
"2018-01-02 18:00","2018","01","02","18:00","-6.1","","-11.1","","68","","29","","16","","","","99.21","","","","-12","","NA"
"2018-01-02 19:00","2018","01","02","19:00","-6.1","","-10.6","","70","","28","","12","","","","99.20","","","","-11","","NA"
"2018-01-02 20:00","2018","01","02","20:00","-5.9","","-10.9","","67","","28","","14","","","","99.16","","","","-11","","NA"
"2018-01-02 21:00","2018","01","02","21:00","-5.5","","-10.9","","66","","28","","24","","","","99.11","","","","-13","","NA"
"2018-01-02 22:00","2018","01","02","22:00","-5.9","","-10.8","","68","","26","","18","","","","99.06","","","","-12","","NA"
"2018-01-02 23:00","2018","01","02","23:00","-6.0","","-9.8","","75","","26","","17","","","","99.02","","","","-12","","NA"
"2018-01-03 00:00","2018","01","03","00:00","-5.9","","-9.2","","77","","25","","17","","","","98.99","","","","-12","","NA"
"2018-01-03 01:00","2018","01","03","01:00","-5.8","","-8.9","","79","","25","","17","","","","98.95","","","","-12","","NA"
"2018-01-03 02:00","2018","01","03","02:00","-5.5","","-8.4","","80","","25","","18","","","","98.90","","","","-12","","NA"
"2018-01-03 03:00","2018","01","03","03:00","-5.2","","-8.1","","80","","24","","25","","","","98.88","","","","-13","","NA"
"2018-01-03 04:00","2018","01","03","04:00","-5.2","","-8.3","","79","","24","","20","","","","98.82","","","","-12","","NA"
"2018-01-03 05:00","2018","01","03","05:00","-5.1","","-8.1","","79","","24","","20","","","","98.78","","","","-12","","NA"
"2018-01-03 06:00","2018","01","03","06:00","-5.3","","-8.1","","81","","25","","17","","","","98.74","","","","-11","","NA"
"2018-01-03 07:00","2018","01","03","07:00","-5.9","","-7.7","","88","","27","","18","","","","98.75","","","","-12","","NA"
"2018-01-03 08:00","2018","01","03","08:00","-6.1","","-7.4","","91","","26","","12","","","","98.75","","","","-11","","NA"
"2018-01-03 09:00","2018","01","03","09:00","-6.0","","-8.1","","85","","24","","24","","","","98.73","","","","-13","","NA"
"2018-01-03 10:00","2018","01","03","10:00","-6.3","","-9.0","","81","","24","","26","","","","98.71","","","","-14","","NA"
"2018-01-03 11:00","2018","01","03","11:00","-6.2","","-9.1","","80","","25","","19","","","","98.70","","","","-13","","NA"
"2018-01-03 12:00","2018","01","03","12:00","-6.3","","-9.2","","80","","24","","22","","","","98.62","","","","-14","","NA"
"2018-01-03 13:00","2018","01","03","13:00","-6.3","","-8.5","","85","","24","","19","","","","98.55","","","","-13","","NA"
"2018-01-03 14:00","2018","01","03","14:00","-6.8","","-8.9","","85","","30","","11","","","","98.53","","","","-12","","NA"
"2018-01-03 15:00","2018","01","03","15:00","-7.0","","-8.8","","87","","30","","9","","","","98.55","","","","-11","","NA"
"2018-01-03 16:00","2018","01","03","16:00","-6.9","","-8.8","","86","","30","","7","","","","98.58","","","","-10","","NA"
"2018-01-03 17:00","2018","01","03","17:00","-7.3","","-9.0","","88","","31","","11","","","","98.62","","","","-12","","NA"
"2018-01-03 18:00","2018","01","03","18:00","-7.8","","-9.9","","85","","32","","11","","","","98.68","","","","-13","","NA"
"2018-01-03 19:00","2018","01","03","19:00","-8.5","","-10.9","","83","","31","","20","","","","98.75","","","","-16","","NA"
"2018-01-03 20:00","2018","01","03","20:00","-11.9","","-15.8","","73","","35","","20","","","","98.88","","","","-20","","NA"
"2018-01-03 21:00","2018","01","03","21:00","-13.2","","-17.2","","72","","1","","11","","","","99.01","","","","-19","","NA"
"2018-01-03 22:00","2018","01","03","22:00","-14.4","","-18.1","","73","","1","","6","","","","99.12","","","","-19","","NA"
"2018-01-03 23:00","2018","01","03","23:00","-15.6","","-19.8","","70","","35","","13","","","","99.16","","","","-23","","NA"
"2018-01-04 00:00","2018","01","04","00:00","-16.8","","-21.3","","68","","36","","21","","","","99.20","","","","-27","","NA"
"2018-01-04 01:00","2018","01","04","01:00","-18.2","","-22.7","","68","","36","","14","","","","99.27","","","","-27","","NA"
"2018-01-04 02:00","2018","01","04","02:00","-19.1","","-23.9","","66","","35","","17","","","","99.34","","","","-29","","NA"
"2018-01-04 03:00","2018","01","04","03:00","-20.0","","-25.0","","65","","1","","17","","","","99.43","","","","-30","","NA"
"2018-01-04 04:00","2018","01","04","04:00","-20.5","","-25.3","","66","","36","","15","","","","99.50","","","","-30","","NA"
"2018-01-04 05:00","2018","01","04","05:00","-21.5","","-26.3","","65","","36","","12","","","","99.55","","","","-30","","NA"
"2018-01-04 06:00","2018","01","04","06:00","-22.6","","-27.7","","63","","36","","14","","","","99.59","","","","-32","","NA"
"2018-01-04 07:00","2018","01","04","07:00","-23.5","","-28.3","","65","","36","","10","","","","99.64","","","","-31","","NA"
"2018-01-04 08:00","2018","01","04","08:00","-24.1","","-29.1","","63","","36","","13","","","","99.69","","","","-33","","NA"
"2018-01-04 09:00","2018","01","04","09:00","-24.1","","-29.5","","61","","36","","13","","","","99.74","","","","-33","","NA"
"2018-01-04 10:00","2018","01","04","10:00","-23.5","","-29.3","","59","","36","","18","","","","99.73","","","","-34","","NA"
"2018-01-04 11:00","2018","01","04","11:00","-22.3","","-28.7","","56","","36","","20","","","","99.70","","","","-33","","NA"
"2018-01-04 12:00","2018","01","04","12:00","-21.1","","-28.0","","54","","36","","21","","","","99.65","","","","-32","","NA"
"2018-01-04 13:00","2018","01","04","13:00","-20.2","","-27.6","","52","","36","","22","","","","99.63","","","","-31","","NA"
"2018-01-04 14:00","2018","01","04","14:00","-19.6","","-27.6","","49","","35","","23","","","","99.57","","","","-31","","NA"
"2018-01-04 15:00","2018","01","04","15:00","-19.1","","-27.4","","48","","36","","18","","","","99.63","","","","-29","","NA"
"2018-01-04 16:00","2018","01","04","16:00","-19.2","","-27.6","","48","","1","","18","","","","99.66","","","","-29","","NA"
"2018-01-04 17:00","2018","01","04","17:00","-20.0","","-27.2","","53","","35","","10","","","","99.65","","","","-27","","NA"
"2018-01-04 18:00","2018","01","04","18:00","-21.1","","-27.5","","56","","34","","18","","","","99.69","","","","-31","","NA"
"2018-01-04 19:00","2018","01","04","19:00","-22.0","","-28.2","","57","","35","","20","","","","99.72","","","","-33","","NA"
"2018-01-04 20:00","2018","01","04","20:00","-22.7","","-28.8","","58","","35","","19","","","","99.68","","","","-34","","NA"
"2018-01-04 21:00","2018","01","04","21:00","-23.2","","-29.0","","59","","35","","14","","","","99.71","","","","-33","","NA"
"2018-01-04 22:00","2018","01","04","22:00","-23.6","","-29.2","","60","","35","","21","","","","99.69","","","","-35","","NA"
"2018-01-04 23:00","2018","01","04","23:00","-24.1","","-29.4","","62","","34","","19","","","","99.69","","","","-35","","NA"
"2018-01-05 00:00","2018","01","05","00:00","-24.5","","-29.8","","61","","35","","22","","","","99.68","","","","-37","","NA"
"2018-01-05 01:00","2018","01","05","01:00","-24.7","","-30.1","","61","","36","","20","","","","99.68","","","","-36","","NA"
"2018-01-05 02:00","2018","01","05","02:00","-25.1","","-30.3","","62","","34","","16","","","","99.70","","","","-36","","NA"
"2018-01-05 03:00","2018","01","05","03:00","-25.3","","-30.6","","61","","34","","20","","","","99.72","","","","-37","","NA"
"2018-01-05 04:00","2018","01","05","04:00","-25.9","","-31.1","","62","","33","","16","","","","99.75","","","","-37","","NA"
"2018-01-05 05:00","2018","01","05","05:00","-26.2","","-31.5","","61","","33","","15","","","","99.78","","","","-37","","NA"
"2018-01-05 06:00","2018","01","05","06:00","-26.4","","-31.7","","61","","34","","16","","","","99.80","","","","-37","","NA"
"2018-01-05 07:00","2018","01","05","07:00","-26.5","","-31.8","","61","","33","","21","","","","99.81","","","","-39","","NA"
"2018-01-05 08:00","2018","01","05","08:00","-26.7","","-31.6","","63","","32","","17","","","","99.85","","","","-38","","NA"
"2018-01-05 09:00","2018","01","05","09:00","-26.5","","-31.9","","61","","32","","18","","","","99.88","","","","-38","","NA"
"2018-01-05 10:00","2018","01","05","10:00","-25.9","","-31.7","","58","","33","","23","","","","99.89","","","","-39","","NA"
"2018-01-05 11:00","2018","01","05","11:00","-24.4","","-30.8","","55","","33","","21","","","","99.93","","","","-36","","NA"
"2018-01-05 12:00","2018","01","05","12:00","-23.0","","-29.8","","53","","33","","23","","","","99.90","","","","-35","","NA"
"2018-01-05 13:00","2018","01","05","13:00","-21.7","","-29.1","","51","","31","","22","","","","99.87","","","","-33","","NA"
"2018-01-05 14:00","2018","01","05","14:00","-20.3","","-27.5","","52","","32","","19","","","","99.84","","","","-31","","NA"
"2018-01-05 15:00","2018","01","05","15:00","-19.7","","-27.8","","48","","32","","20","","","","99.86","","","","-30","","NA"
"2018-01-05 16:00","2018","01","05","16:00","-19.7","","-27.8","","49","","32","","18","","","","99.89","","","","-30","","NA"
"2018-01-05 17:00","2018","01","05","17:00","-20.8","","-28.5","","50","","33","","19","","","","99.97","","","","-31","","NA"
"2018-01-05 18:00","2018","01","05","18:00","-21.7","","-28.8","","53","","33","","16","","","","100.04","","","","-31","","NA"
"2018-01-05 19:00","2018","01","05","19:00","-22.7","","-29.8","","52","","33","","21","","","","100.11","","","","-34","","NA"
"2018-01-05 20:00","2018","01","05","20:00","-23.4","","-30.0","","54","","32","","18","","","","100.16","","","","-34","","NA"
"2018-01-05 21:00","2018","01","05","21:00","-24.0","","-30.5","","55","","33","","17","","","","100.19","","","","-35","","NA"
"2018-01-05 22:00","2018","01","05","22:00","-24.6","","-30.7","","57","","33","","18","","","","100.21","","","","-36","","NA"
"2018-01-05 23:00","2018","01","05","23:00","-25.0","","-31.0","","57","","32","","17","","","","100.25","","","","-36","","NA"
"2018-01-06 00:00","2018","01","06","00:00","-25.5","","-31.0","","60","","31","","19","","","","100.28","","","","-37","","NA"
"2018-01-06 01:00","2018","01","06","01:00","-25.8","","-31.3","","60","","32","","17","","","","100.32","","","","-37","","NA"
"2018-01-06 02:00","2018","01","06","02:00","-26.3","","-31.7","","60","","32","","21","","","","100.35","","","","-39","","NA"
"2018-01-06 03:00","2018","01","06","03:00","-26.6","","-32.0","","60","","32","","17","","","","100.42","","","","-38","","NA"
"2018-01-06 04:00","2018","01","06","04:00","-27.0","","-32.4","","60","","32","","21","","","","100.47","","","","-40","","NA"
"2018-01-06 05:00","2018","01","06","05:00","-27.1","","-32.5","","60","","31","","20","","","","100.53","","","","-39","","NA"
"2018-01-06 06:00","2018","01","06","06:00","-27.4","","-32.7","","61","","33","","21","","","","100.60","","","","-40","","NA"
"2018-01-06 07:00","2018","01","06","07:00","-27.6","","-32.8","","61","","32","","20","","","","100.67","","","","-40","","NA"
"2018-01-06 08:00","2018","01","06","08:00","-27.8","","-33.0","","61","","32","","21","","","","100.75","","","","-41","","NA"
"2018-01-06 09:00","2018","01","06","09:00","-27.1","","-32.8","","58","","32","","16","","","","100.81","","","","-38","","NA"
"2018-01-06 10:00","2018","01","06","10:00","-25.8","","-31.1","","61","","31","","11","","","","100.87","","","","-35","","NA"
"2018-01-06 11:00","2018","01","06","11:00","-24.2","","-30.2","","58","","32","","11","","","","100.93","","","","-33","","NA"
"2018-01-06 12:00","2018","01","06","12:00","-22.7","","-29.2","","55","","32","","14","","","","100.91","","","","-32","","NA"
"2018-01-06 13:00","2018","01","06","13:00","-21.1","","-29.8","","45","","32","","13","","","","100.90","","","","-30","","NA"
"2018-01-06 14:00","2018","01","06","14:00","-20.9","","-29.7","","45","","31","","15","","","","100.90","","","","-30","","NA"
"2018-01-06 15:00","2018","01","06","15:00","-21.1","","-28.3","","52","","30","","15","","","","100.91","","","","-30","","NA"
"2018-01-06 16:00","2018","01","06","16:00","-21.0","","-27.6","","55","","30","","13","","","","100.97","","","","-30","","NA"
"2018-01-06 17:00","2018","01","06","17:00","-21.9","","-27.6","","60","","30","","11","","","","100.99","","","","-30","","NA"
"2018-01-06 18:00","2018","01","06","18:00","-22.3","","-27.9","","60","","30","","14","","","","100.97","","","","-32","","NA"
"2018-01-06 19:00","2018","01","06","19:00","-22.0","","-27.7","","59","","29","","14","","","","100.97","","","","-31","","NA"
"2018-01-06 20:00","2018","01","06","20:00","-22.0","","-27.6","","61","","29","","12","","","","100.96","","","","-30","","NA"
"2018-01-06 21:00","2018","01","06","21:00","-22.6","","-27.7","","63","","33","","9","","","","100.92","","","","-30","","NA"
"2018-01-06 22:00","2018","01","06","22:00","-22.3","","-26.6","","68","","31","","15","","","","100.89","","","","-32","","NA"
"2018-01-06 23:00","2018","01","06","23:00","-22.2","","-26.5","","68","","32","","10","","","","100.83","","","","-30","","NA"
"2018-01-07 00:00","2018","01","07","00:00","-20.7","","-27.2","","56","","2","","6","","","","100.69","","","","-26","","NA"
"2018-01-07 01:00","2018","01","07","01:00","-19.1","","-22.9","","71","","7","","2","","","","100.64","","","","-21","","NA"
"2018-01-07 02:00","2018","01","07","02:00","-19.8","","-25.6","","60","","3","","7","","","","100.54","","","","-25","","NA"
"2018-01-07 03:00","2018","01","07","03:00","-17.9","","-21.2","","75","","6","","9","","","","100.43","","","","-24","","NA"
"2018-01-07 04:00","2018","01","07","04:00","-14.7","","-17.0","","83","","28","","3","","","","100.30","","","","-17","","NA"
"2018-01-07 05:00","2018","01","07","05:00","-9.7","","-13.4","","74","","22","","34","","","","100.16","","","","-20","","NA"
"2018-01-07 06:00","2018","01","07","06:00","-9.0","","-11.9","","80","","23","","32","","","","100.08","","","","-18","","NA"
"2018-01-07 07:00","2018","01","07","07:00","-7.6","","-11.1","","76","","23","","44","","","","99.96","","","","-18","","NA"
"2018-01-07 08:00","2018","01","07","08:00","-6.8","","-9.7","","80","","22","","45","","","","99.85","","","","-17","","NA"
"2018-01-07 09:00","2018","01","07","09:00","-6.7","","-9.3","","82","","21","","49","","","","99.69","","","","-17","","NA"
"2018-01-07 10:00","2018","01","07","10:00","-6.3","","-8.9","","81","","22","","51","","","","99.59","","","","-17","","NA"
"2018-01-07 11:00","2018","01","07","11:00","-5.1","","-9.2","","73","","22","","56","","","","99.43","","","","-16","","NA"
"2018-01-07 12:00","2018","01","07","12:00","-5.6","","-8.2","","82","","22","","63","","","","99.26","","","","-17","","NA"
"2018-01-07 13:00","2018","01","07","13:00","-5.7","","-8.1","","83","","22","","58","","","","99.10","","","","-17","","NA"
"2018-01-07 14:00","2018","01","07","14:00","-4.9","","-6.7","","87","","23","","55","","","","98.97","","","","-15","","NA"
"2018-01-07 15:00","2018","01","07","15:00","-4.9","","-7.2","","84","","23","","58","","","","98.86","","","","-15","","NA"
"2018-01-07 16:00","2018","01","07","16:00","-4.8","","-7.4","","82","","23","","53","","","","98.85","","","","-15","","NA"
"2018-01-07 17:00","2018","01","07","17:00","-4.1","","-6.9","","81","","22","","46","","","","98.86","","","","-13","","NA"
"2018-01-07 18:00","2018","01","07","18:00","-3.5","","-6.8","","78","","22","","44","","","","98.82","","","","-12","","NA"
"2018-01-07 19:00","2018","01","07","19:00","-3.2","","-7.1","","74","","23","","46","","","","98.81","","","","-12","","NA"
"2018-01-07 20:00","2018","01","07","20:00","-2.8","","-7.2","","71","","23","","41","","","","98.79","","","","-11","","NA"
"2018-01-07 21:00","2018","01","07","21:00","-2.6","","-6.8","","73","","23","","36","","","","98.76","","","","-10","","NA"
"2018-01-07 22:00","2018","01","07","22:00","-2.5","","-5.5","","80","","23","","35","","","","98.73","","","","-10","","NA"
"2018-01-07 23:00","2018","01","07","23:00","-2.3","","-4.7","","83","","23","","35","","","","98.67","","","","-10","","NA"
"2018-01-08 00:00","2018","01","08","00:00","-1.6","","-4.5","","80","","23","","34","","","","98.62","","","","-9","","NA"
"2018-01-08 01:00","2018","01","08","01:00","-1.6","","-3.8","","85","","23","","30","","","","98.56","","","","-9","","NA"
"2018-01-08 02:00","2018","01","08","02:00","-1.3","","-3.6","","84","","24","","27","","","","98.50","","","","-8","","NA"
"2018-01-08 03:00","2018","01","08","03:00","-1.3","","-2.5","","92","","22","","24","","","","98.46","","","","-7","","NA"
"2018-01-08 04:00","2018","01","08","04:00","-1.1","","-2.0","","93","","22","","28","","","","98.38","","","","-8","","NA"
"2018-01-08 05:00","2018","01","08","05:00","-0.9","","-1.8","","93","","21","","25","","","","98.29","","","","-7","","NA"
"2018-01-08 06:00","2018","01","08","06:00","-0.7","","-1.6","","94","","22","","27","","","","98.24","","","","-7","","NA"
"2018-01-08 07:00","2018","01","08","07:00","-0.5","","-1.2","","95","","22","","25","","","","98.17","","","","-7","","NA"
"2018-01-08 08:00","2018","01","08","08:00","-0.6","","-1.2","","95","","24","","19","","","","98.14","","","","-6","","NA"
"2018-01-08 09:00","2018","01","08","09:00","-2.2","","-2.9","","95","","29","","25","","","","98.16","","","","-9","","NA"
"2018-01-08 10:00","2018","01","08","10:00","-3.3","","-5.0","","88","","28","","33","","","","98.21","","","","-11","","NA"
"2018-01-08 11:00","2018","01","08","11:00","-3.6","","-5.5","","86","","29","","27","","","","98.24","","","","-11","","NA"
"2018-01-08 12:00","2018","01","08","12:00","-3.4","","-5.5","","85","","28","","26","","","","98.22","","","","-10","","NA"
"2018-01-08 13:00","2018","01","08","13:00","-2.9","","-4.8","","87","","28","","12","","","","98.25","","","","-7","","NA"
"2018-01-08 14:00","2018","01","08","14:00","-2.0","","-4.1","","85","","27","","23","","","","98.25","","","","-8","","NA"
"2018-01-08 15:00","2018","01","08","15:00","-1.8","","-4.3","","83","","27","","23","","","","98.30","","","","-8","","NA"
"2018-01-08 16:00","2018","01","08","16:00","-1.9","","-4.2","","84","","27","","17","","","","98.37","","","","-7","","NA"
"2018-01-08 17:00","2018","01","08","17:00","-1.6","","-4.0","","84","","27","","17","","","","98.44","","","","-7","","NA"
"2018-01-08 18:00","2018","01","08","18:00","-1.8","","-3.5","","88","","27","","19","","","","98.48","","","","-7","","NA"
"2018-01-08 19:00","2018","01","08","19:00","-1.4","","-3.4","","86","","26","","21","","","","98.53","","","","-7","","NA"
"2018-01-08 20:00","2018","01","08","20:00","-1.2","","-4.4","","79","","28","","32","","","","98.54","","","","-8","","NA"
"2018-01-08 21:00","2018","01","08","21:00","-1.4","","-4.3","","80","","28","","33","","","","98.58","","","","-9","","NA"
"2018-01-08 22:00","2018","01","08","22:00","-1.5","","-4.4","","80","","28","","32","","","","98.68","","","","-9","","NA"
"2018-01-08 23:00","2018","01","08","23:00","-2.1","","-5.2","","79","","28","","29","","","","98.82","","","","-9","","NA"
"2018-01-09 00:00","2018","01","09","00:00","-2.9","","-6.2","","78","","29","","16","","","","98.93","","","","-8","","NA"
"2018-01-09 01:00","2018","01","09","01:00","-3.7","","-6.6","","81","","28","","13","","","","99.02","","","","-9","","NA"
"2018-01-09 02:00","2018","01","09","02:00","-3.7","","-6.4","","82","","28","","18","","","","99.14","","","","-10","","NA"
"2018-01-09 03:00","2018","01","09","03:00","-4.5","","-6.9","","83","","28","","21","","","","99.27","","","","-11","","NA"
"2018-01-09 04:00","2018","01","09","04:00","-5.0","","-7.0","","85","","29","","19","","","","99.36","","","","-11","","NA"
"2018-01-09 05:00","2018","01","09","05:00","-4.6","","-7.5","","80","","29","","16","","","","99.43","","","","-10","","NA"
"2018-01-09 06:00","2018","01","09","06:00","-3.8","","-7.4","","77","","29","","16","","","","99.52","","","","-9","","NA"
"2018-01-09 07:00","2018","01","09","07:00","-3.6","","-7.4","","75","","29","","16","","","","99.65","","","","-9","","NA"
"2018-01-09 08:00","2018","01","09","08:00","-4.0","","-7.3","","78","","31","","13","","","","99.74","","","","-9","","NA"
"2018-01-09 09:00","2018","01","09","09:00","-4.3","","-8.5","","73","","34","","13","","","","99.86","","","","-9","","NA"
"2018-01-09 10:00","2018","01","09","10:00","-4.6","","-9.1","","71","","32","","11","","","","100.00","","","","-9","","NA"
"2018-01-09 11:00","2018","01","09","11:00","-4.5","","-9.7","","67","","32","","11","","","","100.06","","","","-9","","NA"
"2018-01-09 12:00","2018","01","09","12:00","-3.4","","-9.0","","65","","29","","15","","","","100.08","","","","-9","","NA"
"2018-01-09 13:00","2018","01","09","13:00","-3.2","","-9.7","","61","","31","","10","","","","100.10","","","","-7","","NA"
"2018-01-09 14:00","2018","01","09","14:00","-3.6","","-10.1","","61","","29","","12","","","","100.12","","","","-8","","NA"
"2018-01-09 15:00","2018","01","09","15:00","-3.1","","-9.6","","61","","29","","12","","","","100.17","","","","-8","","NA"
"2018-01-09 16:00","2018","01","09","16:00","-3.4","","-9.5","","62","","28","","13","","","","100.25","","","","-8","","NA"
"2018-01-09 17:00","2018","01","09","17:00","-4.6","","-10.2","","65","","29","","7","","","","100.29","","","","-8","","NA"
"2018-01-09 18:00","2018","01","09","18:00","-6.1","","-10.2","","73","","30","","7","","","","100.32","","","","-9","","NA"
"2018-01-09 19:00","2018","01","09","19:00","-6.5","","-10.6","","72","","32","","7","","","","100.37","","","","-10","","NA"
"2018-01-09 20:00","2018","01","09","20:00","-5.8","","-10.1","","71","","28","","7","","","","100.38","","","","-9","","NA"
"2018-01-09 21:00","2018","01","09","21:00","-6.4","","-10.4","","74","","31","","3","","","","100.37","","","","-8","","NA"
"2018-01-09 22:00","2018","01","09","22:00","-5.8","","-9.3","","76","","10","","7","","","","100.31","","","","-9","","NA"
"2018-01-09 23:00","2018","01","09","23:00","-2.9","","-7.9","","69","","17","","15","","","","100.27","","","","-8","","NA"
"2018-01-10 00:00","2018","01","10","00:00","-2.8","","-7.9","","68","","19","","18","","","","100.27","","","","-8","","NA"
"2018-01-10 01:00","2018","01","10","01:00","-5.5","","-8.8","","78","","35","","6","","","","100.26","","","","-8","","NA"
"2018-01-10 02:00","2018","01","10","02:00","-4.2","","-7.7","","77","","27","","3","","","","100.19","","","","-5","","NA"
"2018-01-10 03:00","2018","01","10","03:00","-1.0","","-4.6","","76","","19","","24","","","","100.14","","","","-7","","NA"
"2018-01-10 04:00","2018","01","10","04:00","-0.7","","-4.1","","77","","20","","29","","","","100.07","","","","-7","","NA"
"2018-01-10 05:00","2018","01","10","05:00","-1.1","","-4.2","","79","","17","","36","","","","99.97","","","","-9","","NA"
"2018-01-10 06:00","2018","01","10","06:00","-1.2","","-4.0","","81","","16","","33","","","","99.90","","","","-8","","NA"
"2018-01-10 07:00","2018","01","10","07:00","-1.2","","-3.9","","82","","16","","30","","","","99.83","","","","-8","","NA"
"2018-01-10 08:00","2018","01","10","08:00","-1.7","","-4.2","","83","","17","","29","","","","99.80","","","","-9","","NA"
"2018-01-10 09:00","2018","01","10","09:00","-1.8","","-4.0","","85","","15","","31","","","","99.69","","","","-9","","NA"
"2018-01-10 10:00","2018","01","10","10:00","-1.0","","-3.8","","82","","16","","30","","","","99.70","","","","-8","","NA"
"2018-01-10 11:00","2018","01","10","11:00","-0.4","","-3.2","","82","","16","","31","","","","99.61","","","","-7","","NA"
"2018-01-10 12:00","2018","01","10","12:00","-0.2","","-3.4","","79","","16","","35","","","","99.43","","","","-7","","NA"
"2018-01-10 13:00","2018","01","10","13:00","0.1","","-2.4","","83","","14","","33","","","","99.19","","","","","","NA"
"2018-01-10 14:00","2018","01","10","14:00","-0.2","","-2.1","","87","","13","","40","","","","99.03","","","","-8","","NA"
"2018-01-10 15:00","2018","01","10","15:00","0.1","","-1.5","","89","","13","","35","","","","98.94","","","","","","NA"
"2018-01-10 16:00","2018","01","10","16:00","0.6","","-0.3","","93","","14","","28","","","","98.89","","","","","","NA"
"2018-01-10 17:00","2018","01","10","17:00","1.0","","0.2","","95","","14","","20","","","","98.82","","","","","","NA"
"2018-01-10 18:00","2018","01","10","18:00","1.3","","0.6","","95","","13","","19","","","","98.78","","","","","","NA"
"2018-01-10 19:00","2018","01","10","19:00","1.9","","1.2","","95","","16","","12","","","","98.79","","","","","","NA"
"2018-01-10 20:00","2018","01","10","20:00","2.7","","2.0","","95","","17","","18","","","","98.76","","","","","","NA"
"2018-01-10 21:00","2018","01","10","21:00","2.9","","2.2","","95","","18","","23","","","","98.72","","","","","","NA"
"2018-01-10 22:00","2018","01","10","22:00","2.7","","2.0","","95","","22","","18","","","","98.71","","","","","","NA"
"2018-01-10 23:00","2018","01","10","23:00","3.4","","2.7","","95","","23","","15","","","","98.75","","","","","","NA"
"2018-01-11 00:00","2018","01","11","00:00","3.1","","2.4","","95","","22","","6","","","","98.70","","","","","","NA"
"2018-01-11 01:00","2018","01","11","01:00","3.1","","2.4","","95","","14","","2","","","","98.68","","","","","","NA"
"2018-01-11 02:00","2018","01","11","02:00","2.9","","2.3","","96","","20","","17","","","","98.65","","","","","","NA"
"2018-01-11 03:00","2018","01","11","03:00","3.4","","2.7","","95","","18","","9","","","","98.63","","","","","","NA"
"2018-01-11 04:00","2018","01","11","04:00","3.7","","3.0","","95","","21","","4","","","","98.61","","","","","","NA"
"2018-01-11 05:00","2018","01","11","05:00","3.8","","3.1","","95","","19","","32","","","","98.56","","","","","","NA"
"2018-01-11 06:00","2018","01","11","06:00","3.5","","2.8","","95","","19","","31","","","","98.59","","","","","","NA"
"2018-01-11 07:00","2018","01","11","07:00","3.4","","2.7","","96","","24","","13","","","","98.59","","","","","","NA"
"2018-01-11 08:00","2018","01","11","08:00","4.1","","3.5","","95","","23","","10","","","","98.59","","","","","","NA"
"2018-01-11 09:00","2018","01","11","09:00","5.4","","4.7","","95","","24","","21","","","","98.59","","","","","","NA"
"2018-01-11 10:00","2018","01","11","10:00","3.3","","2.7","","96","","23","","17","","","","98.65","","","","","","NA"
"2018-01-11 11:00","2018","01","11","11:00","4.2","","3.5","","95","","21","","27","","","","98.61","","","","","","NA"
"2018-01-11 12:00","2018","01","11","12:00","3.7","","3.1","","96","","22","","20","","","","98.56","","","","","","NA"
"2018-01-11 13:00","2018","01","11","13:00","3.9","","3.2","","96","","21","","20","","","","98.46","","","","","","NA"
"2018-01-11 14:00","2018","01","11","14:00","4.7","","4.0","","95","","20","","25","","","","98.39","","","","","","NA"
"2018-01-11 15:00","2018","01","11","15:00","3.8","","3.2","","96","","22","","14","","","","98.33","","","","","","NA"
"2018-01-11 16:00","2018","01","11","16:00","5.1","","4.4","","95","","21","","31","","","","98.28","","","","","","NA"
"2018-01-11 17:00","2018","01","11","17:00","5.3","","4.6","","95","","21","","31","","","","98.22","","","","","","NA"
"2018-01-11 18:00","2018","01","11","18:00","5.8","","5.1","","95","","25","","13","","","","98.17","","","","","","NA"
"2018-01-11 19:00","2018","01","11","19:00","5.7","","5.0","","95","","21","","39","","","","98.09","","","","","","NA"
"2018-01-11 20:00","2018","01","11","20:00","4.8","","4.2","","95","","24","","11","","","","98.06","","","","","","NA"
"2018-01-11 21:00","2018","01","11","21:00","4.9","","4.2","","95","","22","","28","","","","98.00","","","","","","NA"
"2018-01-11 22:00","2018","01","11","22:00","6.6","","5.8","","95","","24","","7","","","","97.98","","","","","","NA"
"2018-01-11 23:00","2018","01","11","23:00","7.0","","6.2","","95","","24","","21","","","","97.98","","","","","","NA"
"2018-01-12 00:00","2018","01","12","00:00","6.3","","5.5","","95","","25","","18","","","","97.95","","","","","","NA"
"2018-01-12 01:00","2018","01","12","01:00","4.9","","4.2","","96","","28","","24","","","","97.97","","","","","","NA"
"2018-01-12 02:00","2018","01","12","02:00","1.9","","1.4","","96","","30","","24","","","","97.98","","","","","","NA"
"2018-01-12 03:00","2018","01","12","03:00","0.1","","-0.3","","97","","30","","24","","","","98.08","","","","","","NA"
"2018-01-12 04:00","2018","01","12","04:00","-0.3","","-0.8","","97","","34","","21","","","","98.18","","","","-6","","NA"
"2018-01-12 05:00","2018","01","12","05:00","-4.6","","-4.9","","97","","34","","18","","","","98.42","","","","-11","","NA"
"2018-01-12 06:00","2018","01","12","06:00","-8.0","","-9.9","","86","","35","","15","","","","98.57","","","","-14","","NA"
"2018-01-12 07:00","2018","01","12","07:00","-10.4","","-12.8","","82","","1","","13","","","","98.72","","","","-17","","NA"
"2018-01-12 08:00","2018","01","12","08:00","-12.5","","-15.4","","79","","36","","14","","","","98.85","","","","-20","","NA"
"2018-01-12 09:00","2018","01","12","09:00","-13.5","","-16.3","","80","","35","","10","","","","99.08","","","","-19","","NA"
"2018-01-12 10:00","2018","01","12","10:00","-13.9","","-16.8","","78","","35","","17","","","","99.24","","","","-22","","NA"
"2018-01-12 11:00","2018","01","12","11:00","-14.1","","-17.8","","73","","35","","14","","","","99.37","","","","-22","","NA"
"2018-01-12 12:00","2018","01","12","12:00","-14.2","","-18.2","","72","","36","","15","","","","99.44","","","","-22","","NA"
"2018-01-12 13:00","2018","01","12","13:00","-14.2","","-18.9","","68","","35","","21","","","","99.55","","","","-23","","NA"
"2018-01-12 14:00","2018","01","12","14:00","-14.0","","-18.7","","68","","35","","19","","","","99.53","","","","-23","","NA"
"2018-01-12 15:00","2018","01","12","15:00","-13.7","","-18.7","","66","","36","","13","","","","99.58","","","","-21","","NA"
"2018-01-12 16:00","2018","01","12","16:00","-13.6","","-18.5","","66","","36","","15","","","","99.72","","","","-21","","NA"
"2018-01-12 17:00","2018","01","12","17:00","-14.3","","-18.9","","68","","35","","16","","","","99.84","","","","-22","","NA"
"2018-01-12 18:00","2018","01","12","18:00","-15.0","","-20.2","","65","","36","","16","","","","100.05","","","","-23","","NA"
"2018-01-12 19:00","2018","01","12","19:00","-15.8","","-20.4","","67","","35","","11","","","","100.11","","","","-23","","NA"
"2018-01-12 20:00","2018","01","12","20:00","-16.4","","-21.4","","66","","33","","11","","","","100.13","","","","-23","","NA"
"2018-01-12 21:00","2018","01","12","21:00","-17.0","","-22.0","","65","","35","","10","","","","100.26","","","","-24","","NA"
"2018-01-12 22:00","2018","01","12","22:00","-17.5","","-22.3","","66","","36","","12","","","","100.31","","","","-25","","NA"
"2018-01-12 23:00","2018","01","12","23:00","-18.2","","-23.3","","64","","36","","21","","","","100.25","","","","-28","","NA"
"2018-01-13 00:00","2018","01","13","00:00","-18.7","","-23.3","","67","","36","","18","","","","100.31","","","","-28","","NA"
"2018-01-13 01:00","2018","01","13","01:00","-19.4","","-24.1","","66","","1","","13","","","","100.33","","","","-28","","NA"
"2018-01-13 02:00","2018","01","13","02:00","-19.9","","-24.7","","66","","36","","13","","","","100.30","","","","-28","","NA"
"2018-01-13 03:00","2018","01","13","03:00","-20.2","","-25.1","","65","","36","","8","","","","100.40","","","","-26","","NA"
"2018-01-13 04:00","2018","01","13","04:00","-20.7","","-25.8","","63","","36","","14","","","","100.39","","","","-30","","NA"
"2018-01-13 05:00","2018","01","13","05:00","-21.1","","-26.2","","64","","36","","11","","","","100.36","","","","-29","","NA"
"2018-01-13 06:00","2018","01","13","06:00","-21.7","","-26.9","","62","","1","","16","","","","100.49","","","","-31","","NA"
"2018-01-13 07:00","2018","01","13","07:00","-22.3","","-27.1","","65","","35","","11","","","","100.53","","","","-30","","NA"
"2018-01-13 08:00","2018","01","13","08:00","-22.7","","-27.7","","64","","35","","7","","","","100.59","","","","-29","","NA"
"2018-01-13 09:00","2018","01","13","09:00","-22.4","","-27.5","","63","","1","","11","","","","100.66","","","","-31","","NA"
"2018-01-13 10:00","2018","01","13","10:00","-21.4","","-27.0","","61","","36","","9","","","","100.76","","","","-28","","NA"
"2018-01-13 11:00","2018","01","13","11:00","-19.7","","-26.1","","56","","36","","6","","","","100.81","","","","-25","","NA"
"2018-01-13 12:00","2018","01","13","12:00","-19.5","","-25.6","","58","","33","","10","","","","100.79","","","","-27","","NA"
"2018-01-13 13:00","2018","01","13","13:00","-18.4","","-24.9","","56","","34","","13","","","","100.76","","","","-26","","NA"
"2018-01-13 14:00","2018","01","13","14:00","-17.5","","-24.2","","56","","31","","11","","","","100.77","","","","-25","","NA"
"2018-01-13 15:00","2018","01","13","15:00","-17.1","","-23.7","","57","","29","","13","","","","100.76","","","","-25","","NA"
"2018-01-13 16:00","2018","01","13","16:00","-16.2","","-22.2","","60","","31","","10","","","","100.82","","","","-23","","NA"
"2018-01-13 17:00","2018","01","13","17:00","-17.3","","-22.2","","66","","29","","13","","","","100.90","","","","-25","","NA"
"2018-01-13 18:00","2018","01","13","18:00","-17.6","","-21.4","","72","","29","","10","","","","100.99","","","","-24","","NA"
"2018-01-13 19:00","2018","01","13","19:00","-17.8","","-21.3","","74","","30","","6","","","","101.03","","","","-22","","NA"
"2018-01-13 20:00","2018","01","13","20:00","-17.1","","-20.7","","74","","29","","9","","","","101.04","","","","-23","","NA"
"2018-01-13 21:00","2018","01","13","21:00","-17.5","","-21.3","","72","","29","","6","","","","101.04","","","","-22","","NA"
"2018-01-13 22:00","2018","01","13","22:00","-17.7","","-21.4","","73","","33","","6","","","","101.07","","","","-22","","NA"
"2018-01-13 23:00","2018","01","13","23:00","-17.4","","-21.1","","72","","34","","7","","","","101.07","","","","-23","","NA"
"2018-01-14 00:00","2018","01","14","00:00","-16.1","","-20.5","","69","","3","","6","","","","101.02","","","","-21","","NA"
"2018-01-14 01:00","2018","01","14","01:00","-15.5","","-20.3","","67","","34","","5","","","","101.01","","","","-19","","NA"
"2018-01-14 02:00","2018","01","14","02:00","-14.9","","-19.0","","71","","35","","5","","","","101.06","","","","-18","","NA"
"2018-01-14 03:00","2018","01","14","03:00","-14.4","","-17.9","","75","","34","","8","","","","101.11","","","","-20","","NA"
"2018-01-14 04:00","2018","01","14","04:00","-13.9","","-17.5","","74","","35","","5","","","","101.13","","","","-17","","NA"
"2018-01-14 05:00","2018","01","14","05:00","-13.8","","-16.6","","80","","6","","7","","","","101.12","","","","-18","","NA"
"2018-01-14 06:00","2018","01","14","06:00","-14.4","","-17.4","","78","","4","","7","","","","101.18","","","","-19","","NA"
"2018-01-14 07:00","2018","01","14","07:00","-13.6","","-15.9","","83","","6","","8","","","","101.19","","","","-19","","NA"
"2018-01-14 08:00","2018","01","14","08:00","-14.1","","-16.7","","81","","36","","6","","","","101.21","","","","-18","","NA"
"2018-01-14 09:00","2018","01","14","09:00","-13.0","","-15.9","","79","","5","","7","","","","101.25","","","","-18","","NA"
"2018-01-14 10:00","2018","01","14","10:00","-11.5","","-14.7","","77","","5","","4","","","","101.29","","","","-14","","NA"
"2018-01-14 11:00","2018","01","14","11:00","-9.8","","-12.6","","80","","5","","2","","","","101.30","","","","-11","","NA"
"2018-01-14 12:00","2018","01","14","12:00","-9.1","","-12.1","","78","","15","","5","","","","101.26","","","","-12","","NA"
"2018-01-14 13:00","2018","01","14","13:00","-8.5","","-12.7","","72","","18","","6","","","","101.20","","","","-12","","NA"
"2018-01-14 14:00","2018","01","14","14:00","-8.3","","-12.1","","74","","17","","7","","","","101.15","","","","-12","","NA"
"2018-01-14 15:00","2018","01","14","15:00","-7.8","","-10.4","","82","","14","","14","","","","101.13","","","","-14","","NA"
"2018-01-14 16:00","2018","01","14","16:00","-7.1","","-11.6","","70","","22","","14","","","","101.11","","","","-13","","NA"
"2018-01-14 17:00","2018","01","14","17:00","-6.9","","-13.0","","62","","21","","26","","","","101.10","","","","-15","","NA"
"2018-01-14 18:00","2018","01","14","18:00","-6.8","","-12.9","","62","","23","","27","","","","101.10","","","","-15","","NA"
"2018-01-14 19:00","2018","01","14","19:00","-6.9","","-12.1","","67","","21","","21","","","","101.12","","","","-14","","NA"
"2018-01-14 20:00","2018","01","14","20:00","-5.9","","-12.0","","62","","17","","41","","","","101.08","","","","-15","","NA"
"2018-01-14 21:00","2018","01","14","21:00","-6.7","","-14.1","","56","","17","","41","","","","101.15","","","","-16","","NA"
"2018-01-14 22:00","2018","01","14","22:00","-6.8","","-14.2","","55","","16","","37","","","","101.14","","","","-16","","NA"
"2018-01-14 23:00","2018","01","14","23:00","-6.5","","-13.5","","58","","16","","43","","","","101.14","","","","-16","","NA"
"2018-01-15 00:00","2018","01","15","00:00","-6.9","","-14.1","","56","","17","","48","","","","101.09","","","","-17","","NA"
"2018-01-15 01:00","2018","01","15","01:00","-7.2","","-13.1","","63","","17","","43","","","","101.11","","","","-17","","NA"
"2018-01-15 02:00","2018","01","15","02:00","-7.2","","-13.0","","63","","17","","39","","","","101.14","","","","-17","","NA"
"2018-01-15 03:00","2018","01","15","03:00","-7.4","","-14.1","","59","","18","","40","","","","101.15","","","","-17","","NA"
"2018-01-15 04:00","2018","01","15","04:00","-6.6","","-11.9","","66","","17","","35","","","","101.11","","","","-16","","NA"
"2018-01-15 05:00","2018","01","15","05:00","-6.4","","-13.0","","59","","16","","38","","","","101.04","","","","-16","","NA"
"2018-01-15 06:00","2018","01","15","06:00","-7.2","","-9.0","","87","","12","","48","","","","101.03","","","","-18","","NA"
"2018-01-15 07:00","2018","01","15","07:00","-7.4","","-9.7","","83","","12","","52","","","","101.01","","","","-18","","NA"
"2018-01-15 08:00","2018","01","15","08:00","-7.5","","-10.4","","80","","12","","57","","","","101.00","","","","-19","","NA"
"2018-01-15 09:00","2018","01","15","09:00","-8.9","","-11.8","","79","","11","","55","","","","101.07","","","","-21","","NA"
"2018-01-15 10:00","2018","01","15","10:00","-9.2","","-11.5","","84","","10","","52","","","","101.11","","","","-21","","NA"
"2018-01-15 11:00","2018","01","15","11:00","-9.1","","-12.1","","78","","10","","43","","","","101.12","","","","-20","","NA"
"2018-01-15 12:00","2018","01","15","12:00","-9.0","","-12.8","","74","","10","","44","","","","101.03","","","","-20","","NA"
"2018-01-15 13:00","2018","01","15","13:00","-8.8","","-14.1","","66","","9","","39","","","","100.91","","","","-19","","NA"
"2018-01-15 14:00","2018","01","15","14:00","-8.5","","-14.5","","61","","8","","26","","","","100.83","","","","-17","","NA"
"2018-01-15 15:00","2018","01","15","15:00","-8.7","","-14.4","","64","","7","","18","","","","100.79","","","","-16","","NA"
"2018-01-15 16:00","2018","01","15","16:00","-9.6","","-14.8","","66","","6","","18","","","","100.79","","","","-17","","NA"
"2018-01-15 17:00","2018","01","15","17:00","-10.4","","-15.5","","66","","5","","15","","","","100.79","","","","-17","","NA"
"2018-01-15 18:00","2018","01","15","18:00","-11.2","","-16.3","","66","","6","","21","","","","100.79","","","","-20","","NA"
"2018-01-15 19:00","2018","01","15","19:00","-11.6","","-16.3","","68","","6","","19","","","","100.79","","","","-20","","NA"
"2018-01-15 20:00","2018","01","15","20:00","-11.9","","-15.8","","73","","6","","17","","","","100.81","","","","-20","","NA"
"2018-01-15 21:00","2018","01","15","21:00","-12.2","","-16.0","","73","","6","","18","","","","100.77","","","","-20","","NA"
"2018-01-15 22:00","2018","01","15","22:00","-13.0","","-16.6","","74","","6","","14","","","","100.75","","","","-20","","NA"
"2018-01-15 23:00","2018","01","15","23:00","-13.7","","-17.7","","72","","5","","13","","","","100.75","","","","-21","","NA"
"2018-01-16 00:00","2018","01","16","00:00","-14.1","","-18.0","","72","","4","","12","","","","100.71","","","","-21","","NA"
"2018-01-16 01:00","2018","01","16","01:00","-14.1","","-17.8","","73","","5","","10","","","","100.64","","","","-20","","NA"
"2018-01-16 02:00","2018","01","16","02:00","-14.4","","-17.6","","76","","3","","8","","","","100.62","","","","-20","","NA"
"2018-01-16 03:00","2018","01","16","03:00","-14.6","","-17.7","","77","","2","","6","","","","100.63","","","","-19","","NA"
"2018-01-16 04:00","2018","01","16","04:00","-14.5","","-17.9","","75","","3","","6","","","","100.61","","","","-19","","NA"
"2018-01-16 05:00","2018","01","16","05:00","-14.5","","-17.6","","77","","4","","9","","","","100.62","","","","-20","","NA"
"2018-01-16 06:00","2018","01","16","06:00","-14.6","","-17.8","","77","","5","","12","","","","100.64","","","","-21","","NA"
"2018-01-16 07:00","2018","01","16","07:00","-14.1","","-17.5","","76","","4","","11","","","","100.67","","","","-21","","NA"
"2018-01-16 08:00","2018","01","16","08:00","-14.6","","-17.7","","77","","3","","5","","","","100.67","","","","-18","","NA"
"2018-01-16 09:00","2018","01","16","09:00","-14.2","","-17.7","","75","","7","","6","","","","100.69","","","","-18","","NA"
"2018-01-16 10:00","2018","01","16","10:00","-13.3","","-17.6","","70","","3","","5","","","","100.72","","","","-17","","NA"
"2018-01-16 11:00","2018","01","16","11:00","-11.7","","-16.9","","65","","6","","4","","","","100.72","","","","-14","","NA"
"2018-01-16 12:00","2018","01","16","12:00","-10.9","","-16.9","","61","","5","","8","","","","100.65","","","","-16","","NA"
"2018-01-16 13:00","2018","01","16","13:00","-10.1","","-16.8","","58","","34","","5","","","","100.56","","","","-13","","NA"
"2018-01-16 14:00","2018","01","16","14:00","-9.0","","-15.9","","57","","23","","4","","","","100.54","","","","-11","","NA"
"2018-01-16 15:00","2018","01","16","15:00","-9.2","","-16.2","","57","","32","","9","","","","100.52","","","","-14","","NA"
"2018-01-16 16:00","2018","01","16","16:00","-9.2","","-16.5","","55","","2","","6","","","","100.56","","","","-13","","NA"
"2018-01-16 17:00","2018","01","16","17:00","-9.6","","-16.5","","57","","36","","3","","","","100.59","","","","-11","","NA"
"2018-01-16 18:00","2018","01","16","18:00","-11.6","","-15.7","","72","","30","","12","","","","100.61","","","","-18","","NA"
"2018-01-16 19:00","2018","01","16","19:00","-12.2","","-16.1","","72","","31","","13","","","","100.63","","","","-19","","NA"
"2018-01-16 20:00","2018","01","16","20:00","-12.3","","-16.1","","74","","31","","12","","","","100.65","","","","-19","","NA"
"2018-01-16 21:00","2018","01","16","21:00","-12.4","","-15.7","","76","","30","","11","","","","100.62","","","","-18","","NA"
"2018-01-16 22:00","2018","01","16","22:00","-13.1","","-16.0","","79","","31","","8","","","","100.58","","","","-18","","NA"
"2018-01-16 23:00","2018","01","16","23:00","-13.8","","-16.0","","83","","29","","5","","","","100.53","","","","-17","","NA"
"2018-01-17 00:00","2018","01","17","00:00","-14.1","","-16.2","","84","","29","","5","","","","100.49","","","","-18","","NA"
"2018-01-17 01:00","2018","01","17","01:00","-13.8","","-15.9","","84","","31","","11","","","","100.44","","","","-20","","NA"
"2018-01-17 02:00","2018","01","17","02:00","-13.7","","-15.9","","83","","31","","12","","","","100.43","","","","-20","","NA"
"2018-01-17 03:00","2018","01","17","03:00","-13.5","","-15.9","","82","","30","","10","","","","100.41","","","","-19","","NA"
"2018-01-17 04:00","2018","01","17","04:00","-13.8","","-16.0","","84","","30","","8","","","","100.36","","","","-19","","NA"
"2018-01-17 05:00","2018","01","17","05:00","-13.7","","-16.3","","81","","31","","10","","","","100.31","","","","-20","","NA"
"2018-01-17 06:00","2018","01","17","06:00","-12.7","","-15.7","","78","","27","","6","","","","100.24","","","","-17","","NA"
"2018-01-17 07:00","2018","01","17","07:00","-12.1","","-14.8","","80","","31","","7","","","","100.17","","","","-16","","NA"
"2018-01-17 08:00","2018","01","17","08:00","-10.6","","-13.0","","83","","29","","9","","","","100.10","","","","-16","","NA"
"2018-01-17 09:00","2018","01","17","09:00","-7.1","","-9.2","","85","","24","","21","","","","99.99","","","","-14","","NA"
"2018-01-17 10:00","2018","01","17","10:00","-6.1","","-8.0","","86","","24","","27","","","","99.94","","","","-14","","NA"
"2018-01-17 11:00","2018","01","17","11:00","-5.0","","-7.7","","81","","25","","28","","","","99.84","","","","-13","","NA"
"2018-01-17 12:00","2018","01","17","12:00","-4.8","","-8.2","","77","","25","","30","","","","99.70","","","","-13","","NA"
"2018-01-17 13:00","2018","01","17","13:00","-4.7","","-7.7","","80","","24","","32","","","","99.52","","","","-13","","NA"
"2018-01-17 14:00","2018","01","17","14:00","-4.0","","-7.3","","78","","25","","31","","","","99.40","","","","-12","","NA"
"2018-01-17 15:00","2018","01","17","15:00","-3.9","","-8.7","","69","","24","","32","","","","99.33","","","","-12","","NA"
"2018-01-17 16:00","2018","01","17","16:00","-3.7","","-8.2","","71","","25","","27","","","","99.29","","","","-11","","NA"
"2018-01-17 17:00","2018","01","17","17:00","-3.2","","-8.2","","68","","24","","30","","","","99.18","","","","-11","","NA"
"2018-01-17 18:00","2018","01","17","18:00","-2.9","","-8.7","","64","","25","","30","","","","99.12","","","","-10","","NA"
"2018-01-17 19:00","2018","01","17","19:00","-3.0","","-9.1","","63","","25","","27","","","","99.07","","","","-10","","NA"
"2018-01-17 20:00","2018","01","17","20:00","-3.4","","-9.3","","64","","25","","26","","","","99.02","","","","-10","","NA"
"2018-01-17 21:00","2018","01","17","21:00","-4.0","","-9.4","","66","","26","","16","","","","99.01","","","","-10","","NA"
"2018-01-17 22:00","2018","01","17","22:00","-4.2","","-9.5","","66","","25","","12","","","","98.98","","","","-9","","NA"
"2018-01-17 23:00","2018","01","17","23:00","-5.2","","-9.5","","72","","33","","8","","","","98.98","","","","-9","","NA"
"2018-01-18 00:00","2018","01","18","00:00","-4.9","","-9.3","","71","","27","","11","","","","98.91","","","","-9","","NA"
"2018-01-18 01:00","2018","01","18","01:00","-4.9","","-9.0","","73","","31","","9","","","","98.86","","","","-9","","NA"
"2018-01-18 02:00","2018","01","18","02:00","-4.4","","-8.5","","73","","29","","9","","","","98.83","","","","-8","","NA"
"2018-01-18 03:00","2018","01","18","03:00","-4.0","","-7.6","","76","","30","","9","","","","98.84","","","","-8","","NA"
"2018-01-18 04:00","2018","01","18","04:00","-4.2","","-7.2","","80","","28","","8","","","","98.82","","","","-8","","NA"
"2018-01-18 05:00","2018","01","18","05:00","-4.4","","-7.0","","82","","29","","5","","","","98.80","","","","-7","","NA"
"2018-01-18 06:00","2018","01","18","06:00","-4.7","","-7.0","","84","","29","","7","","","","98.82","","","","-8","","NA"
"2018-01-18 07:00","2018","01","18","07:00","-4.7","","-7.1","","83","","29","","6","","","","98.85","","","","-7","","NA"
"2018-01-18 08:00","2018","01","18","08:00","-4.8","","-7.3","","83","","31","","5","","","","98.86","","","","-7","","NA"
"2018-01-18 09:00","2018","01","18","09:00","-4.6","","-7.2","","82","","28","","4","","","","98.88","","","","-6","","NA"
"2018-01-18 10:00","2018","01","18","10:00","-3.0","","-6.5","","77","","27","","9","","","","98.90","","","","-7","","NA"
"2018-01-18 11:00","2018","01","18","11:00","-1.6","","-6.0","","72","","26","","8","","","","98.92","","","","-5","","NA"
"2018-01-18 12:00","2018","01","18","12:00","-1.0","","-5.7","","70","","26","","13","","","","98.88","","","","-5","","NA"
"2018-01-18 13:00","2018","01","18","13:00","-1.0","","-5.7","","70","","25","","20","","","","98.85","","","","-7","","NA"
"2018-01-18 14:00","2018","01","18","14:00","-1.0","","-5.6","","71","","24","","18","","","","98.78","","","","-6","","NA"
"2018-01-18 15:00","2018","01","18","15:00","-1.4","","-5.6","","73","","22","","23","","","","98.74","","","","-7","","NA"
"2018-01-18 16:00","2018","01","18","16:00","-1.3","","-5.6","","73","","24","","19","","","","98.75","","","","-7","","NA"
"2018-01-18 17:00","2018","01","18","17:00","-1.4","","-4.9","","77","","23","","18","","","","98.73","","","","-7","","NA"
"2018-01-18 18:00","2018","01","18","18:00","-1.5","","-4.2","","82","","21","","22","","","","98.64","","","","-7","","NA"
"2018-01-18 19:00","2018","01","18","19:00","-1.6","","-4.4","","81","","24","","18","","","","98.76","","","","-7","","NA"
"2018-01-18 20:00","2018","01","18","20:00","-1.4","","-3.8","","84","","23","","9","","","","98.69","","","","-5","","NA"
"2018-01-18 21:00","2018","01","18","21:00","-0.9","","-3.0","","86","","22","","12","","","","98.69","","","","-5","","NA"
"2018-01-18 22:00","2018","01","18","22:00","-0.6","","-2.8","","85","","20","","22","","","","98.55","","","","-6","","NA"
"2018-01-18 23:00","2018","01","18","23:00","-0.7","","-2.8","","86","","21","","20","","","","98.55","","","","-6","","NA"
"2018-01-19 00:00","2018","01","19","00:00","-0.5","","-2.6","","86","","26","","8","","","","98.55","","","","-3","","NA"
"2018-01-19 01:00","2018","01","19","01:00","-0.6","","-2.6","","86","","27","","5","","","","98.53","","","","-2","","NA"
"2018-01-19 02:00","2018","01","19","02:00","-0.3","","-2.5","","85","","25","","10","","","","98.50","","","","-4","","NA"
"2018-01-19 03:00","2018","01","19","03:00","-0.7","","-4.0","","78","","28","","16","","","","98.55","","","","-5","","NA"
"2018-01-19 04:00","2018","01","19","04:00","-0.8","","-3.8","","80","","28","","10","","","","98.55","","","","-4","","NA"
"2018-01-19 05:00","2018","01","19","05:00","-0.6","","-3.3","","82","","26","","10","","","","98.53","","","","-4","","NA"
"2018-01-19 06:00","2018","01","19","06:00","-0.4","","-1.9","","90","","22","","13","","","","98.51","","","","-5","","NA"
"2018-01-19 07:00","2018","01","19","07:00","-0.1","","-1.9","","87","","24","","13","","","","98.52","","","","-4","","NA"
"2018-01-19 08:00","2018","01","19","08:00","0.1","","-2.4","","83","","24","","13","","","","98.51","","","","","","NA"
"2018-01-19 09:00","2018","01","19","09:00","0.2","","-2.2","","84","","26","","13","","","","98.52","","","","","","NA"
"2018-01-19 10:00","2018","01","19","10:00","0.1","","-2.0","","86","","23","","15","","","","98.49","","","","","","NA"
"2018-01-19 11:00","2018","01","19","11:00","0.4","","-1.9","","85","","24","","18","","","","98.46","","","","","","NA"
"2018-01-19 12:00","2018","01","19","12:00","0.1","","-2.2","","84","","22","","28","","","","98.38","","","","","","NA"
"2018-01-19 13:00","2018","01","19","13:00","0.1","","-2.2","","84","","22","","23","","","","98.24","","","","","","NA"
"2018-01-19 14:00","2018","01","19","14:00","0.2","","-2.3","","83","","22","","27","","","","98.17","","","","","","NA"
"2018-01-19 15:00","2018","01","19","15:00","0.1","","-2.1","","85","","21","","32","","","","98.14","","","","","","NA"
"2018-01-19 16:00","2018","01","19","16:00","0.1","","-2.2","","84","","22","","37","","","","98.10","","","","","","NA"
"2018-01-19 17:00","2018","01","19","17:00","0.1","","-2.2","","85","","21","","26","","","","98.05","","","","","","NA"
"2018-01-19 18:00","2018","01","19","18:00","0.3","","-2.2","","83","","21","","21","","","","97.99","","","","","","NA"
"2018-01-19 19:00","2018","01","19","19:00","0.5","","-2.3","","82","","21","","19","","","","97.89","","","","","","NA"
"2018-01-19 20:00","2018","01","19","20:00","0.8","","-2.1","","81","","20","","13","","","","97.76","","","","","","NA"
"2018-01-19 21:00","2018","01","19","21:00","1.5","","-2.4","","75","","21","","33","","","","97.63","","","","","","NA"
"2018-01-19 22:00","2018","01","19","22:00","1.4","","-2.2","","77","","23","","30","","","","97.63","","","","","","NA"
"2018-01-19 23:00","2018","01","19","23:00","1.1","","-2.3","","78","","23","","24","","","","97.60","","","","","","NA"
"2018-01-20 00:00","2018","01","20","00:00","1.1","","-2.4","","77","","24","","20","","","","97.54","","","","","","NA"
"2018-01-20 01:00","2018","01","20","01:00","1.6","","-2.4","","75","","25","","22","","","","97.49","","","","","","NA"
"2018-01-20 02:00","2018","01","20","02:00","1.6","","-2.6","","73","","25","","17","","","","97.53","","","","","","NA"
"2018-01-20 03:00","2018","01","20","03:00","1.8","","-2.8","","71","","25","","21","","","","97.65","","","","","","NA"
"2018-01-20 04:00","2018","01","20","04:00","1.8","","-2.3","","74","","27","","24","","","","97.69","","","","","","NA"
"2018-01-20 05:00","2018","01","20","05:00","1.3","","-2.3","","77","","26","","18","","","","97.79","","","","","","NA"
"2018-01-20 06:00","2018","01","20","06:00","1.6","","-2.3","","75","","28","","27","","","","97.90","","","","","","NA"
"2018-01-20 07:00","2018","01","20","07:00","1.4","","-2.4","","75","","28","","24","","","","98.04","","","","","","NA"
"2018-01-20 08:00","2018","01","20","08:00","1.0","","-2.5","","77","","27","","21","","","","98.16","","","","","","NA"
"2018-01-20 09:00","2018","01","20","09:00","0.5","","-2.5","","80","","26","","11","","","","98.30","","","","","","NA"
"2018-01-20 10:00","2018","01","20","10:00","1.5","","-2.0","","78","","27","","16","","","","98.40","","","","","","NA"
"2018-01-20 11:00","2018","01","20","11:00","3.1","","-1.3","","73","","28","","24","","","","98.49","","","","","","NA"
"2018-01-20 12:00","2018","01","20","12:00","3.8","","-1.5","","68","","28","","22","","","","98.54","","","","","","NA"
"2018-01-20 13:00","2018","01","20","13:00","3.9","","-1.6","","68","","28","","31","","","","98.54","","","","","","NA"
"2018-01-20 14:00","2018","01","20","14:00","4.0","","-1.8","","66","","28","","24","","","","98.60","","","","","","NA"
"2018-01-20 15:00","2018","01","20","15:00","3.5","","-2.1","","66","","28","","18","","","","98.71","","","","","","NA"
"2018-01-20 16:00","2018","01","20","16:00","2.9","","-2.2","","69","","28","","17","","","","98.83","","","","","","NA"
"2018-01-20 17:00","2018","01","20","17:00","2.4","","-2.4","","70","","27","","19","","","","98.94","","","","","","NA"
"2018-01-20 18:00","2018","01","20","18:00","2.4","","-2.4","","71","","29","","9","","","","98.98","","","","","","NA"
"2018-01-20 19:00","2018","01","20","19:00","2.1","","-2.2","","73","","30","","7","","","","99.07","","","","","","NA"
"2018-01-20 20:00","2018","01","20","20:00","1.7","","-2.3","","75","","26","","7","","","","99.11","","","","","","NA"
"2018-01-20 21:00","2018","01","20","21:00","1.3","","-1.7","","80","","28","","8","","","","99.17","","","","","","NA"
"2018-01-20 22:00","2018","01","20","22:00","1.2","","-1.9","","80","","29","","5","","","","99.18","","","","","","NA"
"2018-01-20 23:00","2018","01","20","23:00","1.3","","-2.0","","79","","27","","7","","","","99.23","","","","","","NA"
"2018-01-21 00:00","2018","01","21","00:00","1.7","","-1.7","","78","","30","","3","","","","99.26","","","","","","NA"
"2018-01-21 01:00","2018","01","21","01:00","1.2","","-1.7","","81","","27","","11","","","","99.28","","","","","","NA"
"2018-01-21 02:00","2018","01","21","02:00","0.9","","-1.7","","83","","27","","8","","","","99.30","","","","","","NA"
"2018-01-21 03:00","2018","01","21","03:00","-0.5","","-2.8","","84","","25","","4","","","","99.35","","","","-2","","NA"
"2018-01-21 04:00","2018","01","21","04:00","-1.0","","-2.4","","90","","30","","5","","","","99.38","","","","-3","","NA"
"2018-01-21 05:00","2018","01","21","05:00","-1.0","","-2.2","","91","","30","","6","","","","99.41","","","","-3","","NA"
"2018-01-21 06:00","2018","01","21","06:00","-0.5","","-1.8","","91","","33","","7","","","","99.46","","","","-3","","NA"
"2018-01-21 07:00","2018","01","21","07:00","-1.1","","-2.3","","92","","0","","1","","","","99.52","","","","-1","","NA"
"2018-01-21 08:00","2018","01","21","08:00","-0.1","","-1.3","","92","","32","","5","","","","99.52","","","","-2","","NA"
"2018-01-21 09:00","2018","01","21","09:00","-1.4","","-2.5","","93","","8","","6","","","","99.47","","","","-4","","NA"
"2018-01-21 10:00","2018","01","21","10:00","-0.8","","-2.1","","91","","9","","8","","","","99.52","","","","-4","","NA"
"2018-01-21 11:00","2018","01","21","11:00","-0.3","","-1.5","","91","","12","","8","","","","99.55","","","","-3","","NA"
"2018-01-21 12:00","2018","01","21","12:00","-0.3","","-1.1","","94","","9","","9","","","","99.54","","","","-3","","NA"
"2018-01-21 13:00","2018","01","21","13:00","-0.1","","-0.8","","95","","8","","11","","","","99.50","","","","-4","","NA"
"2018-01-21 14:00","2018","01","21","14:00","0.1","","-0.6","","96","","8","","12","","","","99.45","","","","","","NA"
"2018-01-21 15:00","2018","01","21","15:00","0.3","","-0.4","","96","","8","","10","","","","99.45","","","","","","NA"
"2018-01-21 16:00","2018","01","21","16:00","0.5","","-0.2","","96","","8","","12","","","","99.48","","","","","","NA"
"2018-01-21 17:00","2018","01","21","17:00","0.5","","-0.1","","96","","11","","18","","","","99.49","","","","","","NA"
"2018-01-21 18:00","2018","01","21","18:00","0.3","","-0.3","","96","","9","","10","","","","99.55","","","","","","NA"
"2018-01-21 19:00","2018","01","21","19:00","0.4","","-0.2","","96","","8","","8","","","","99.58","","","","","","NA"
"2018-01-21 20:00","2018","01","21","20:00","0.8","","0.1","","95","","6","","8","","","","99.63","","","","","","NA"
"2018-01-21 21:00","2018","01","21","21:00","0.7","","0.0","","95","","5","","7","","","","99.64","","","","","","NA"
"2018-01-21 22:00","2018","01","21","22:00","0.7","","-0.4","","93","","6","","9","","","","99.63","","","","","","NA"
"2018-01-21 23:00","2018","01","21","23:00","0.6","","-0.9","","89","","6","","11","","","","99.64","","","","","","NA"
"2018-01-22 00:00","2018","01","22","00:00","0.6","","-1.6","","85","","6","","14","","","","99.67","","","","","","NA"
"2018-01-22 01:00","2018","01","22","01:00","0.4","","-2.2","","82","","5","","9","","","","99.68","","","","","","NA"
"2018-01-22 02:00","2018","01","22","02:00","0.0","","-2.8","","82","","5","","9","","","","99.66","","","","-3","","NA"
"2018-01-22 03:00","2018","01","22","03:00","-1.3","","-4.6","","78","","5","","10","","","","99.69","","","","-5","","NA"
"2018-01-22 04:00","2018","01","22","04:00","-2.2","","-5.7","","77","","4","","11","","","","99.78","","","","-6","","NA"
"2018-01-22 05:00","2018","01","22","05:00","-3.3","","-6.6","","78","","5","","14","","","","99.73","","","","-8","","NA"
"2018-01-22 06:00","2018","01","22","06:00","-4.2","","-7.5","","78","","6","","19","","","","99.72","","","","-10","","NA"
"2018-01-22 07:00","2018","01","22","07:00","-4.4","","-7.8","","77","","6","","18","","","","99.74","","","","-10","","NA"
"2018-01-22 08:00","2018","01","22","08:00","-4.7","","-7.9","","78","","6","","20","","","","99.71","","","","-11","","NA"
"2018-01-22 09:00","2018","01","22","09:00","-4.9","","-8.2","","77","","6","","21","","","","99.66","","","","-12","","NA"
"2018-01-22 10:00","2018","01","22","10:00","-4.8","","-8.3","","76","","6","","20","","","","99.63","","","","-11","","NA"
"2018-01-22 11:00","2018","01","22","11:00","-4.5","","-8.0","","77","","6","","22","","","","99.60","","","","-11","","NA"
"2018-01-22 12:00","2018","01","22","12:00","-4.2","","-7.8","","76","","6","","19","","","","99.47","","","","-10","","NA"
"2018-01-22 13:00","2018","01","22","13:00","-3.9","","-7.3","","77","","6","","19","","","","99.29","","","","-10","","NA"
"2018-01-22 14:00","2018","01","22","14:00","-4.0","","-5.9","","87","","6","","21","","","","99.13","","","","-10","","NA"
"2018-01-22 15:00","2018","01","22","15:00","-4.4","","-5.7","","91","","6","","29","","","","98.94","","","","-12","","NA"
"2018-01-22 16:00","2018","01","22","16:00","-4.4","","-5.5","","92","","6","","31","","","","98.69","","","","-12","","NA"
"2018-01-22 17:00","2018","01","22","17:00","-3.5","","-4.8","","91","","6","","23","","","","98.78","","","","-10","","NA"
"2018-01-22 18:00","2018","01","22","18:00","-3.6","","-5.0","","91","","6","","31","","","","98.69","","","","-11","","NA"
"2018-01-22 19:00","2018","01","22","19:00","-3.6","","-5.0","","90","","6","","24","","","","98.56","","","","-10","","NA"
"2018-01-22 20:00","2018","01","22","20:00","-3.7","","-5.0","","90","","7","","23","","","","98.51","","","","-10","","NA"
"2018-01-22 21:00","2018","01","22","21:00","-3.7","","-5.0","","91","","6","","21","","","","98.41","","","","-10","","NA"
"2018-01-22 22:00","2018","01","22","22:00","-3.6","","-5.1","","90","","7","","20","","","","98.29","","","","-10","","NA"
"2018-01-22 23:00","2018","01","22","23:00","-3.8","","-5.2","","90","","6","","17","","","","98.15","","","","-10","","NA"
"2018-01-23 00:00","2018","01","23","00:00","-3.4","","-4.6","","91","","6","","15","","","","98.08","","","","-9","","NA"
"2018-01-23 01:00","2018","01","23","01:00","-3.3","","-4.5","","92","","6","","10","","","","97.95","","","","-7","","NA"
"2018-01-23 02:00","2018","01","23","02:00","-3.6","","-5.0","","90","","6","","12","","","","97.74","","","","-8","","NA"
"2018-01-23 03:00","2018","01","23","03:00","-3.9","","-5.3","","90","","6","","10","","","","97.83","","","","-8","","NA"
"2018-01-23 04:00","2018","01","23","04:00","-3.6","","-4.8","","91","","4","","9","","","","97.71","","","","-7","","NA"
"2018-01-23 05:00","2018","01","23","05:00","-4.0","","-5.3","","91","","3","","6","","","","97.65","","","","-7","","NA"
"2018-01-23 06:00","2018","01","23","06:00","-4.7","","-5.9","","91","","2","","5","","","","97.58","","","","-7","","NA"
"2018-01-23 07:00","2018","01","23","07:00","-5.3","","-6.6","","90","","2","","6","","","","97.61","","","","-8","","NA"
"2018-01-23 08:00","2018","01","23","08:00","-5.6","","-6.9","","91","","2","","7","","","","97.61","","","","-9","","NA"
"2018-01-23 09:00","2018","01","23","09:00","-6.4","","-8.4","","86","","2","","9","","","","97.61","","","","-11","","NA"
"2018-01-23 10:00","2018","01","23","10:00","-6.6","","-8.9","","84","","3","","6","","","","97.63","","","","-10","","NA"
"2018-01-23 11:00","2018","01","23","11:00","-7.0","","-9.5","","82","","1","","11","","","","97.58","","","","-12","","NA"
"2018-01-23 12:00","2018","01","23","12:00","-7.5","","-10.1","","82","","1","","8","","","","97.58","","","","-12","","NA"
"2018-01-23 13:00","2018","01","23","13:00","-7.9","","-10.4","","82","","2","","4","","","","97.68","","","","-10","","NA"
"2018-01-23 14:00","2018","01","23","14:00","-8.0","","-11.3","","77","","35","","11","","","","97.73","","","","-13","","NA"
"2018-01-23 15:00","2018","01","23","15:00","-8.5","","-12.0","","76","","33","","10","","","","97.82","","","","-13","","NA"
"2018-01-23 16:00","2018","01","23","16:00","-9.1","","-11.7","","81","","35","","6","","","","97.99","","","","-12","","NA"
"2018-01-23 17:00","2018","01","23","17:00","-9.8","","-13.3","","76","","34","","8","","","","98.17","","","","-14","","NA"
"2018-01-23 18:00","2018","01","23","18:00","-10.9","","-14.1","","77","","35","","8","","","","98.37","","","","-16","","NA"
"2018-01-23 19:00","2018","01","23","19:00","-11.8","","-14.9","","78","","34","","7","","","","98.47","","","","-16","","NA"
"2018-01-23 20:00","2018","01","23","20:00","-12.2","","-15.8","","75","","35","","13","","","","98.62","","","","-19","","NA"
"2018-01-23 21:00","2018","01","23","21:00","-13.2","","-16.9","","74","","31","","5","","","","98.87","","","","-17","","NA"
"2018-01-23 22:00","2018","01","23","22:00","-13.8","","-17.6","","73","","35","","8","","","","98.97","","","","-19","","NA"
"2018-01-23 23:00","2018","01","23","23:00","-14.2","","-18.1","","73","","32","","5","","","","99.13","","","","-18","","NA"
"2018-01-24 00:00","2018","01","24","00:00","-14.6","","-18.4","","73","","31","","5","","","","99.25","","","","-18","","NA"
"2018-01-24 01:00","2018","01","24","01:00","-14.7","","-18.4","","74","","30","","5","","","","99.34","","","","-18","","NA"
"2018-01-24 02:00","2018","01","24","02:00","-14.5","","-17.7","","77","","28","","4","","","","99.45","","","","-17","","NA"
"2018-01-24 03:00","2018","01","24","03:00","-14.5","","-17.9","","75","","28","","5","","","","99.59","","","","-18","","NA"
"2018-01-24 04:00","2018","01","24","04:00","-14.5","","-17.9","","75","","28","","6","","","","99.63","","","","-19","","NA"
"2018-01-24 05:00","2018","01","24","05:00","-14.3","","-17.4","","77","","28","","6","","","","99.73","","","","-18","","NA"
"2018-01-24 06:00","2018","01","24","06:00","-14.2","","-17.3","","77","","29","","4","","","","99.82","","","","-17","","NA"
"2018-01-24 07:00","2018","01","24","07:00","-14.2","","-18.1","","72","","1","","3","","","","99.93","","","","-16","","NA"
"2018-01-24 08:00","2018","01","24","08:00","-14.7","","-19.1","","69","","35","","7","","","","100.01","","","","-19","","NA"
"2018-01-24 09:00","2018","01","24","09:00","-14.5","","-19.8","","64","","36","","6","","","","100.13","","","","-19","","NA"
"2018-01-24 10:00","2018","01","24","10:00","-13.2","","-19.3","","60","","34","","3","","","","100.20","","","","-15","","NA"
"2018-01-24 11:00","2018","01","24","11:00","-13.1","","-19.4","","59","","25","","7","","","","100.23","","","","-18","","NA"
"2018-01-24 12:00","2018","01","24","12:00","-10.8","","-18.4","","54","","4","","5","","","","100.21","","","","-14","","NA"
"2018-01-24 13:00","2018","01","24","13:00","-9.6","","-18.4","","49","","3","","5","","","","100.19","","","","-12","","NA"
"2018-01-24 14:00","2018","01","24","14:00","-9.9","","-17.3","","54","","29","","9","","","","100.20","","","","-15","","NA"
"2018-01-24 15:00","2018","01","24","15:00","-8.6","","-16.9","","51","","33","","6","","","","100.20","","","","-12","","NA"
"2018-01-24 16:00","2018","01","24","16:00","-9.1","","-15.9","","58","","28","","8","","","","100.25","","","","-13","","NA"
"2018-01-24 17:00","2018","01","24","17:00","-9.9","","-15.9","","61","","30","","6","","","","100.29","","","","-13","","NA"
"2018-01-24 18:00","2018","01","24","18:00","-11.3","","-16.1","","68","","30","","7","","","","100.35","","","","-16","","NA"
"2018-01-24 19:00","2018","01","24","19:00","-11.8","","-17.3","","64","","33","","8","","","","100.41","","","","-17","","NA"
"2018-01-24 20:00","2018","01","24","20:00","-13.0","","-17.1","","71","","28","","5","","","","100.46","","","","-16","","NA"
"2018-01-24 21:00","2018","01","24","21:00","-12.2","","-17.5","","64","","33","","4","","","","100.47","","","","-15","","NA"
"2018-01-24 22:00","2018","01","24","22:00","-10.9","","-17.2","","60","","6","","3","","","","100.50","","","","-13","","NA"
"2018-01-24 23:00","2018","01","24","23:00","-11.5","","-17.5","","61","","36","","3","","","","100.52","","","","-13","","NA"
"2018-01-25 00:00","2018","01","25","00:00","-11.7","","-17.4","","62","","5","","4","","","","100.53","","","","-14","","NA"
"2018-01-25 01:00","2018","01","25","01:00","-12.2","","-17.7","","64","","5","","3","","","","100.51","","","","-14","","NA"
"2018-01-25 02:00","2018","01","25","02:00","-12.0","","-18.0","","61","","6","","3","","","","100.56","","","","-14","","NA"
"2018-01-25 03:00","2018","01","25","03:00","-11.7","","-18.7","","56","","32","","3","","","","100.65","","","","-14","","NA"
"2018-01-25 04:00","2018","01","25","04:00","-11.4","","-17.1","","63","","8","","8","","","","100.65","","","","-16","","NA"
"2018-01-25 05:00","2018","01","25","05:00","-11.2","","-16.8","","63","","9","","11","","","","100.68","","","","-17","","NA"
"2018-01-25 06:00","2018","01","25","06:00","-12.2","","-17.2","","66","","6","","9","","","","100.69","","","","-17","","NA"
"2018-01-25 07:00","2018","01","25","07:00","-12.5","","-17.7","","65","","6","","12","","","","100.70","","","","-19","","NA"
"2018-01-25 08:00","2018","01","25","08:00","-11.9","","-15.7","","73","","7","","17","","","","100.70","","","","-20","","NA"
"2018-01-25 09:00","2018","01","25","09:00","-11.0","","-13.7","","81","","8","","20","","","","100.72","","","","-19","","NA"
"2018-01-25 10:00","2018","01","25","10:00","-11.5","","-14.1","","81","","8","","16","","","","100.73","","","","-19","","NA"
"2018-01-25 11:00","2018","01","25","11:00","-9.6","","-11.4","","87","","9","","23","","","","100.73","","","","-18","","NA"
"2018-01-25 12:00","2018","01","25","12:00","-9.1","","-10.8","","87","","7","","22","","","","100.70","","","","-17","","NA"
"2018-01-25 13:00","2018","01","25","13:00","-6.0","","-8.8","","81","","16","","21","","","","100.65","","","","-13","","NA"
"2018-01-25 14:00","2018","01","25","14:00","-5.4","","-9.1","","76","","16","","18","","","","100.57","","","","-12","","NA"
"2018-01-25 15:00","2018","01","25","15:00","-5.4","","-7.6","","84","","15","","12","","","","100.59","","","","-10","","NA"
"2018-01-25 16:00","2018","01","25","16:00","-6.7","","-8.4","","88","","7","","17","","","","100.61","","","","-13","","NA"
"2018-01-25 17:00","2018","01","25","17:00","-6.9","","-8.4","","89","","6","","10","","","","100.62","","","","-12","","NA"
"2018-01-25 18:00","2018","01","25","18:00","-7.1","","-8.7","","89","","6","","11","","","","100.67","","","","-12","","NA"
"2018-01-25 19:00","2018","01","25","19:00","-7.4","","-9.1","","88","","6","","12","","","","100.71","","","","-13","","NA"
"2018-01-25 20:00","2018","01","25","20:00","-7.4","","-9.1","","88","","7","","13","","","","100.73","","","","-13","","NA"
"2018-01-25 21:00","2018","01","25","21:00","-7.2","","-8.8","","88","","6","","7","","","","100.73","","","","-11","","NA"
"2018-01-25 22:00","2018","01","25","22:00","-7.0","","-8.6","","89","","5","","10","","","","100.74","","","","-12","","NA"
"2018-01-25 23:00","2018","01","25","23:00","-6.8","","-8.4","","89","","5","","8","","","","100.76","","","","-11","","NA"
"2018-01-26 00:00","2018","01","26","00:00","-6.3","","-7.8","","89","","6","","10","","","","100.77","","","","-11","","NA"
"2018-01-26 01:00","2018","01","26","01:00","-6.3","","-7.7","","90","","5","","9","","","","100.75","","","","-11","","NA"
"2018-01-26 02:00","2018","01","26","02:00","-6.0","","-7.3","","91","","7","","12","","","","100.71","","","","-11","","NA"
"2018-01-26 03:00","2018","01","26","03:00","-6.0","","-7.2","","91","","7","","15","","","","100.70","","","","-12","","NA"
"2018-01-26 04:00","2018","01","26","04:00","-5.8","","-7.1","","91","","7","","13","","","","100.65","","","","-11","","NA"
"2018-01-26 05:00","2018","01","26","05:00","-5.5","","-6.9","","90","","7","","15","","","","100.65","","","","-11","","NA"
"2018-01-26 06:00","2018","01","26","06:00","-5.3","","-6.9","","89","","7","","13","","","","100.61","","","","-10","","NA"
"2018-01-26 07:00","2018","01","26","07:00","-1.2","","-4.2","","80","","14","","25","","","","100.59","","","","-7","","NA"
"2018-01-26 08:00","2018","01","26","08:00","-1.2","","-3.8","","83","","13","","25","","","","100.57","","","","-7","","NA"
"2018-01-26 09:00","2018","01","26","09:00","-1.3","","-3.7","","84","","14","","39","","","","100.50","","","","-9","","NA"
"2018-01-26 10:00","2018","01","26","10:00","-2.0","","-3.8","","88","","12","","35","","","","100.44","","","","-10","","NA"
"2018-01-26 11:00","2018","01","26","11:00","-1.0","","-3.3","","84","","14","","40","","","","100.32","","","","-9","","NA"
"2018-01-26 12:00","2018","01","26","12:00","-0.7","","-3.3","","83","","14","","43","","","","100.27","","","","-9","","NA"
"2018-01-26 13:00","2018","01","26","13:00","-0.4","","-3.1","","82","","14","","38","","","","100.16","","","","-8","","NA"
"2018-01-26 14:00","2018","01","26","14:00","-0.2","","-2.8","","82","","14","","36","","","","100.02","","","","-7","","NA"
"2018-01-26 15:00","2018","01","26","15:00","0.1","","-2.6","","82","","14","","36","","","","99.91","","","","","","NA"
"2018-01-26 16:00","2018","01","26","16:00","0.3","","-2.4","","83","","14","","32","","","","99.85","","","","","","NA"
"2018-01-26 17:00","2018","01","26","17:00","0.0","","-2.2","","85","","12","","26","","","","99.78","","","","-6","","NA"
"2018-01-26 18:00","2018","01","26","18:00","0.1","","-2.0","","86","","12","","22","","","","99.78","","","","","","NA"
"2018-01-26 19:00","2018","01","26","19:00","0.0","","-1.8","","88","","11","","20","","","","99.71","","","","-5","","NA"
"2018-01-26 20:00","2018","01","26","20:00","0.5","","-1.5","","87","","11","","23","","","","99.58","","","","","","NA"
"2018-01-26 21:00","2018","01","26","21:00","0.9","","-1.3","","85","","12","","20","","","","99.52","","","","","","NA"
"2018-01-26 22:00","2018","01","26","22:00","1.5","","-0.7","","85","","11","","22","","","","99.36","","","","","","NA"
"2018-01-26 23:00","2018","01","26","23:00","3.1","","0.1","","81","","19","","44","","","","99.21","","","","","","NA"
"2018-01-27 00:00","2018","01","27","00:00","2.6","","-0.3","","81","","20","","27","","","","99.14","","","","","","NA"
"2018-01-27 01:00","2018","01","27","01:00","3.3","","-0.3","","78","","25","","12","","","","99.00","","","","","","NA"
"2018-01-27 02:00","2018","01","27","02:00","2.1","","-0.5","","83","","21","","26","","","","98.93","","","","","","NA"
"2018-01-27 03:00","2018","01","27","03:00","4.1","","-0.5","","72","","24","","31","","","","98.86","","","","","","NA"
"2018-01-27 04:00","2018","01","27","04:00","4.5","","-0.8","","69","","24","","33","","","","98.76","","","","","","NA"
"2018-01-27 05:00","2018","01","27","05:00","4.1","","-1.1","","69","","23","","36","","","","98.73","","","","","","NA"
"2018-01-27 06:00","2018","01","27","06:00","4.5","","-1.2","","67","","23","","44","","","","98.68","","","","","","NA"
"2018-01-27 07:00","2018","01","27","07:00","4.4","","-0.6","","70","","24","","39","","","","98.71","","","","","","NA"
"2018-01-27 08:00","2018","01","27","08:00","3.6","","-0.8","","73","","23","","36","","","","98.72","","","","","","NA"
"2018-01-27 09:00","2018","01","27","09:00","3.7","","-0.6","","73","","23","","33","","","","98.72","","","","","","NA"
"2018-01-27 10:00","2018","01","27","10:00","4.4","","-0.4","","71","","23","","39","","","","98.70","","","","","","NA"
"2018-01-27 11:00","2018","01","27","11:00","4.1","","-0.3","","73","","23","","42","","","","98.72","","","","","","NA"
"2018-01-27 12:00","2018","01","27","12:00","3.5","","-0.1","","77","","24","","31","","","","98.71","","","","","","NA"
"2018-01-27 13:00","2018","01","27","13:00","4.9","","0.2","","71","","25","","20","","","","98.72","","","","","","NA"
"2018-01-27 14:00","2018","01","27","14:00","4.5","","-0.4","","70","","28","","32","","","","98.74","","","","","","NA"
"2018-01-27 15:00","2018","01","27","15:00","2.3","","-1.7","","75","","29","","29","","","","98.85","","","","","","NA"
"2018-01-27 16:00","2018","01","27","16:00","1.9","","-2.0","","75","","28","","19","","","","98.95","","","","","","NA"
"2018-01-27 17:00","2018","01","27","17:00","1.7","","-2.2","","75","","28","","20","","","","99.02","","","","","","NA"
"2018-01-27 18:00","2018","01","27","18:00","1.5","","-2.4","","75","","28","","14","","","","99.12","","","","","","NA"
"2018-01-27 19:00","2018","01","27","19:00","1.8","","-3.9","","66","","26","","17","","","","99.21","","","","","","NA"
"2018-01-27 20:00","2018","01","27","20:00","1.6","","-4.1","","66","","27","","24","","","","99.26","","","","","","NA"
"2018-01-27 21:00","2018","01","27","21:00","1.2","","-3.8","","70","","28","","21","","","","99.30","","","","","","NA"
"2018-01-27 22:00","2018","01","27","22:00","0.8","","-3.7","","72","","25","","12","","","","99.34","","","","","","NA"
"2018-01-27 23:00","2018","01","27","23:00","0.8","","-3.4","","73","","26","","16","","","","99.38","","","","","","NA"
"2018-01-28 00:00","2018","01","28","00:00","0.6","","-3.3","","75","","28","","17","","","","99.42","","","","","","NA"
"2018-01-28 01:00","2018","01","28","01:00","0.0","","-3.5","","78","","27","","22","","","","99.49","","","","-6","","NA"
"2018-01-28 02:00","2018","01","28","02:00","-0.8","","-4.1","","78","","28","","21","","","","99.55","","","","-6","","NA"
"2018-01-28 03:00","2018","01","28","03:00","-1.2","","-4.8","","76","","28","","18","","","","99.61","","","","-6","","NA"
"2018-01-28 04:00","2018","01","28","04:00","-1.9","","-5.9","","74","","28","","29","","","","99.65","","","","-9","","NA"
"2018-01-28 05:00","2018","01","28","05:00","-2.2","","-6.6","","72","","28","","23","","","","99.78","","","","-8","","NA"
"2018-01-28 06:00","2018","01","28","06:00","-2.7","","-6.3","","76","","28","","22","","","","99.88","","","","-9","","NA"
"2018-01-28 07:00","2018","01","28","07:00","-3.0","","-6.2","","79","","28","","21","","","","99.99","","","","-9","","NA"
"2018-01-28 08:00","2018","01","28","08:00","-3.3","","-6.4","","79","","28","","14","","","","100.10","","","","-8","","NA"
"2018-01-28 09:00","2018","01","28","09:00","-3.2","","-6.7","","77","","32","","11","","","","100.21","","","","-7","","NA"
"2018-01-28 10:00","2018","01","28","10:00","-3.2","","-9.4","","62","","1","","9","","","","100.29","","","","-7","","NA"
"2018-01-28 11:00","2018","01","28","11:00","-4.1","","-11.3","","57","","1","","10","","","","100.43","","","","-8","","NA"
"2018-01-28 12:00","2018","01","28","12:00","-3.8","","-10.8","","58","","2","","7","","","","100.44","","","","-7","","NA"
"2018-01-28 13:00","2018","01","28","13:00","-4.3","","-12.5","","53","","32","","14","","","","100.46","","","","-9","","NA"
"2018-01-28 14:00","2018","01","28","14:00","-3.6","","-12.5","","50","","1","","5","","","","100.45","","","","-6","","NA"
"2018-01-28 15:00","2018","01","28","15:00","-3.8","","-13.9","","46","","1","","7","","","","100.47","","","","-7","","NA"
"2018-01-28 16:00","2018","01","28","16:00","-3.5","","-14.0","","44","","1","","11","","","","100.51","","","","-8","","NA"
"2018-01-28 17:00","2018","01","28","17:00","-4.6","","-14.3","","47","","3","","10","","","","100.59","","","","-9","","NA"
"2018-01-28 18:00","2018","01","28","18:00","-6.2","","-14.2","","53","","4","","6","","","","100.68","","","","-9","","NA"
"2018-01-28 19:00","2018","01","28","19:00","-7.3","","-14.5","","56","","2","","8","","","","100.73","","","","-11","","NA"
"2018-01-28 20:00","2018","01","28","20:00","-8.5","","-15.4","","57","","3","","8","","","","100.79","","","","-13","","NA"
"2018-01-28 21:00","2018","01","28","21:00","-9.4","","-16.0","","58","","3","","10","","","","100.83","","","","-15","","NA"
"2018-01-28 22:00","2018","01","28","22:00","-10.2","","-16.6","","59","","3","","8","","","","100.83","","","","-15","","NA"
"2018-01-28 23:00","2018","01","28","23:00","-11.0","","-17.1","","60","","4","","11","","","","100.84","","","","-17","","NA"
"2018-01-29 00:00","2018","01","29","00:00","-11.8","","-17.8","","61","","5","","13","","","","100.89","","","","-18","","NA"
"2018-01-29 01:00","2018","01","29","01:00","-12.7","","-18.2","","63","","5","","7","","","","100.91","","","","-17","","NA"
"2018-01-29 02:00","2018","01","29","02:00","-13.4","","-18.6","","65","","4","","9","","","","100.90","","","","-19","","NA"
"2018-01-29 03:00","2018","01","29","03:00","-14.1","","-18.9","","67","","5","","9","","","","100.85","","","","-20","","NA"
"2018-01-29 04:00","2018","01","29","04:00","-14.5","","-19.3","","67","","6","","12","","","","100.87","","","","-21","","NA"
"2018-01-29 05:00","2018","01","29","05:00","-14.7","","-19.7","","66","","5","","11","","","","100.86","","","","-21","","NA"
"2018-01-29 06:00","2018","01","29","06:00","-15.1","","-19.9","","67","","5","","14","","","","100.82","","","","-23","","NA"
"2018-01-29 07:00","2018","01","29","07:00","-15.3","","-20.2","","66","","4","","12","","","","100.84","","","","-22","","NA"
"2018-01-29 08:00","2018","01","29","08:00","-15.6","","-20.3","","67","","4","","9","","","","100.89","","","","-22","","NA"
"2018-01-29 09:00","2018","01","29","09:00","-15.4","","-20.2","","67","","2","","10","","","","100.89","","","","-22","","NA"
"2018-01-29 10:00","2018","01","29","10:00","-14.7","","-19.9","","64","","2","","15","","","","100.88","","","","-23","","NA"
"2018-01-29 11:00","2018","01","29","11:00","-13.9","","-19.9","","60","","2","","15","","","","100.86","","","","-22","","NA"
"2018-01-29 12:00","2018","01","29","12:00","-13.1","","-20.2","","55","","3","","14","","","","100.77","","","","-20","","NA"
"2018-01-29 13:00","2018","01","29","13:00","-12.1","","-19.6","","54","","1","","9","","","","100.65","","","","-17","","NA"
"2018-01-29 14:00","2018","01","29","14:00","-12.1","","-19.6","","54","","2","","12","","","","100.57","","","","-18","","NA"
"2018-01-29 15:00","2018","01","29","15:00","-11.8","","-19.6","","52","","2","","7","","","","100.54","","","","-16","","NA"
"2018-01-29 16:00","2018","01","29","16:00","-12.1","","-19.8","","53","","2","","13","","","","100.49","","","","-19","","NA"
"2018-01-29 17:00","2018","01","29","17:00","-12.1","","-19.7","","53","","2","","8","","","","100.48","","","","-17","","NA"
"2018-01-29 18:00","2018","01","29","18:00","-12.7","","-20.2","","53","","3","","8","","","","100.51","","","","-18","","NA"
"2018-01-29 19:00","2018","01","29","19:00","-13.2","","-20.7","","53","","2","","9","","","","100.54","","","","-19","","NA"
"2018-01-29 20:00","2018","01","29","20:00","-13.7","","-20.9","","55","","2","","9","","","","100.58","","","","-19","","NA"
"2018-01-29 21:00","2018","01","29","21:00","-14.6","","-21.0","","58","","1","","10","","","","100.58","","","","-21","","NA"
"2018-01-29 22:00","2018","01","29","22:00","-15.6","","-21.5","","61","","1","","8","","","","100.59","","","","-21","","NA"
"2018-01-29 23:00","2018","01","29","23:00","-16.5","","-21.7","","64","","1","","6","","","","100.56","","","","-21","","NA"
"2018-01-30 00:00","2018","01","30","00:00","-16.9","","-21.8","","66","","1","","9","","","","100.55","","","","-23","","NA"
"2018-01-30 01:00","2018","01","30","01:00","-17.5","","-22.0","","68","","1","","10","","","","100.51","","","","-24","","NA"
"2018-01-30 02:00","2018","01","30","02:00","-17.8","","-22.3","","68","","1","","11","","","","100.51","","","","-25","","NA"
"2018-01-30 03:00","2018","01","30","03:00","-18.2","","-22.8","","68","","2","","6","","","","100.54","","","","-23","","NA"
"2018-01-30 04:00","2018","01","30","04:00","-18.5","","-22.8","","69","","36","","5","","","","100.52","","","","-23","","NA"
"2018-01-30 05:00","2018","01","30","05:00","-18.7","","-23.0","","69","","35","","7","","","","100.54","","","","-24","","NA"
"2018-01-30 06:00","2018","01","30","06:00","-19.3","","-23.1","","72","","35","","6","","","","100.57","","","","-24","","NA"
"2018-01-30 07:00","2018","01","30","07:00","-19.7","","-23.3","","73","","32","","5","","","","100.63","","","","-24","","NA"
"2018-01-30 08:00","2018","01","30","08:00","-19.5","","-23.2","","72","","33","","6","","","","100.68","","","","-24","","NA"
"2018-01-30 09:00","2018","01","30","09:00","-18.7","","-23.1","","68","","2","","9","","","","100.71","","","","-25","","NA"
"2018-01-30 10:00","2018","01","30","10:00","-17.0","","-22.5","","62","","36","","4","","","","100.70","","","","-20","","NA"
"2018-01-30 11:00","2018","01","30","11:00","-16.4","","-22.1","","61","","33","","7","","","","100.66","","","","-21","","NA"
"2018-01-30 12:00","2018","01","30","12:00","-16.0","","-21.9","","60","","29","","14","","","","100.57","","","","-24","","NA"
"2018-01-30 13:00","2018","01","30","13:00","-15.1","","-22.0","","56","","30","","14","","","","100.48","","","","-23","","NA"
"2018-01-30 14:00","2018","01","30","14:00","-14.4","","-21.1","","56","","27","","18","","","","100.46","","","","-23","","NA"
"2018-01-30 15:00","2018","01","30","15:00","-13.7","","-20.7","","56","","26","","12","","","","100.39","","","","-20","","NA"
"2018-01-30 16:00","2018","01","30","16:00","-13.0","","-20.4","","54","","28","","14","","","","100.39","","","","-20","","NA"
"2018-01-30 17:00","2018","01","30","17:00","-13.2","","-20.6","","54","","31","","12","","","","100.40","","","","-20","","NA"
"2018-01-30 18:00","2018","01","30","18:00","-14.4","","-20.3","","61","","29","","14","","","","100.45","","","","-22","","NA"
"2018-01-30 19:00","2018","01","30","19:00","-15.1","","-20.0","","66","","32","","11","","","","100.41","","","","-22","","NA"
"2018-01-30 20:00","2018","01","30","20:00","-15.7","","-20.8","","65","","34","","4","","","","100.29","","","","-19","","NA"
"2018-01-30 21:00","2018","01","30","21:00","-15.6","","-21.0","","64","","4","","8","","","","100.22","","","","-21","","NA"
"2018-01-30 22:00","2018","01","30","22:00","-15.6","","-20.9","","64","","5","","8","","","","100.14","","","","-21","","NA"
"2018-01-30 23:00","2018","01","30","23:00","-15.3","","-20.3","","66","","6","","11","","","","100.07","","","","-22","","NA"
"2018-01-31 00:00","2018","01","31","00:00","-15.1","","-19.0","","72","","7","","8","","","","100.02","","","","-20","","NA"
"2018-01-31 01:00","2018","01","31","01:00","-15.0","","-19.0","","72","","5","","11","","","","99.92","","","","-22","","NA"
"2018-01-31 02:00","2018","01","31","02:00","-13.2","","-16.3","","78","","6","","14","","","","99.77","","","","-20","","NA"
"2018-01-31 03:00","2018","01","31","03:00","-7.5","","-10.6","","79","","15","","36","","","","99.58","","","","-17","","NA"
"2018-01-31 04:00","2018","01","31","04:00","-6.5","","-9.7","","78","","16","","42","","","","99.35","","","","-16","","NA"
"2018-01-31 05:00","2018","01","31","05:00","-6.5","","-9.1","","81","","16","","42","","","","99.23","","","","-16","","NA"
"2018-01-31 06:00","2018","01","31","06:00","-5.8","","-7.4","","88","","16","","40","","","","99.06","","","","-15","","NA"
"2018-01-31 07:00","2018","01","31","07:00","-5.5","","-6.7","","91","","16","","46","","","","98.85","","","","-15","","NA"
"2018-01-31 08:00","2018","01","31","08:00","-5.5","","-6.8","","91","","16","","55","","","","98.64","","","","-16","","NA"
"2018-01-31 09:00","2018","01","31","09:00","-5.1","","-6.4","","91","","16","","48","","","","98.58","","","","-15","","NA"
"2018-01-31 10:00","2018","01","31","10:00","-4.7","","-5.8","","92","","16","","45","","","","98.43","","","","-14","","NA"
"2018-01-31 11:00","2018","01","31","11:00","-3.9","","-4.9","","93","","16","","40","","","","98.26","","","","-13","","NA"
"2018-01-31 12:00","2018","01","31","12:00","-2.5","","-3.4","","94","","20","","42","","","","98.05","","","","-11","","NA"
"2018-01-31 13:00","2018","01","31","13:00","-2.3","","-3.2","","93","","21","","38","","","","97.88","","","","-10","","NA"
"2018-01-31 14:00","2018","01","31","14:00","-2.0","","-2.9","","93","","21","","35","","","","97.73","","","","-10","","NA"
"2018-01-31 15:00","2018","01","31","15:00","-1.9","","-2.8","","93","","22","","36","","","","97.66","","","","-10","","NA"
"2018-01-31 16:00","2018","01","31","16:00","-1.4","","-2.2","","94","","23","","29","","","","97.67","","","","-8","","NA"
"2018-01-31 17:00","2018","01","31","17:00","-0.8","","-2.2","","90","","24","","25","","","","97.69","","","","-7","","NA"
"2018-01-31 18:00","2018","01","31","18:00","-0.6","","-2.3","","89","","24","","20","","","","97.74","","","","-6","","NA"
"2018-01-31 19:00","2018","01","31","19:00","-0.4","","-2.2","","88","","24","","22","","","","97.80","","","","-6","","NA"
"2018-01-31 20:00","2018","01","31","20:00","-0.4","","-3.4","","80","","27","","28","","","","97.85","","","","-7","","NA"
"2018-01-31 21:00","2018","01","31","21:00","-0.8","","-4.4","","76","","27","","28","","","","97.92","","","","-7","","NA"
"2018-01-31 22:00","2018","01","31","22:00","-1.0","","-4.8","","75","","27","","28","","","","97.94","","","","-8","","NA"
"2018-01-31 23:00","2018","01","31","23:00","-1.3","","-4.9","","76","","26","","15","","","","97.95","","","","-6","","NA"
